"Longitude (x)","Latitude (y)","Station Name","Climate ID","Date/Time (LST)","Year","Month","Day","Time (LST)","Temp (°C)","Temp Flag","Dew Point Temp (°C)","Dew Point Temp Flag","Rel Hum (%)","Rel Hum Flag","Precip. Amount (mm)","Precip. Amount Flag","Wind Dir (10s deg)","Wind Dir Flag","Wind Spd (km/h)","Wind Spd Flag","Visibility (km)","Visibility Flag","Stn Press (kPa)","Stn Press Flag","Hmdx","Hmdx Flag","Wind Chill","Wind Chill Flag","Weather"
"-77.29","60.05","PUVIRNITUQ A","7106223","2018-01-01 00:00","2018","01","01","00:00","-34.4","","-38.1","","70","","0.0","","14","","15","","16.1","","101.73","","","","-47","","NA"
"-77.29","60.05","PUVIRNITUQ A","7106223","2018-01-01 01:00","2018","01","01","01:00","-34.9","","-38.7","","69","","0.0","","15","","15","","16.1","","101.70","","","","-47","","NA"
"-77.29","60.05","PUVIRNITUQ A","7106223","2018-01-01 02:00","2018","01","01","02:00","-34.2","","-37.9","","70","","0.0","","15","","18","","16.1","","101.69","","","","-48","","NA"
"-77.29","60.05","PUVIRNITUQ A","7106223","2018-01-01 03:00","2018","01","01","03:00","-34.0","","-37.7","","70","","0.0","","15","","15","","16.1","","101.69","","","","-46","","NA"
"-77.29","60.05","PUVIRNITUQ A","7106223","2018-01-01 04:00","2018","01","01","04:00","-34.1","","-37.8","","70","","0.0","","16","","15","","16.1","","101.66","","","","-46","","NA"
"-77.29","60.05","PUVIRNITUQ A","7106223","2018-01-01 05:00","2018","01","01","05:00","-33.5","","-37.1","","71","","0.0","","16","","13","","16.1","","101.62","","","","-45","","NA"
"-77.29","60.05","PUVIRNITUQ A","7106223","2018-01-01 06:00","2018","01","01","06:00","-32.9","","-36.5","","71","","0.0","","15","","15","","16.1","","101.60","","","","-45","","NA"
"-77.29","60.05","PUVIRNITUQ A","7106223","2018-01-01 07:00","2018","01","01","07:00","-33.1","","-36.7","","71","","0.0","","16","","15","","16.1","","101.56","","","","-45","","NA"
"-77.29","60.05","PUVIRNITUQ A","7106223","2018-01-01 08:00","2018","01","01","08:00","-33.0","","-36.6","","71","","0.0","","17","","17","","16.1","","101.51","","","","-46","","NA"
"-77.29","60.05","PUVIRNITUQ A","7106223","2018-01-01 09:00","2018","01","01","09:00","-32.4","","-35.7","","73","","0.0","","16","","22","","16.1","","101.45","","","","-47","","NA"
"-77.29","60.05","PUVIRNITUQ A","7106223","2018-01-01 10:00","2018","01","01","10:00","-31.6","","-35.1","","72","","0.0","","16","","22","","9.7","","101.42","","","","-46","","Snow"
"-77.29","60.05","PUVIRNITUQ A","7106223","2018-01-01 11:00","2018","01","01","11:00","-31.0","","-34.4","","73","","0.0","","16","","22","","2.8","","101.37","","","","-45","","Snow"
"-77.29","60.05","PUVIRNITUQ A","7106223","2018-01-01 12:00","2018","01","01","12:00","-30.1","","-33.3","","74","","0.0","","16","","22","","4.8","","101.29","","","","-44","","Snow"
"-77.29","60.05","PUVIRNITUQ A","7106223","2018-01-01 13:00","2018","01","01","13:00","-29.7","","-33.0","","74","","0.0","","16","","24","","11.3","","101.23","","","","-44","","Snow"
"-77.29","60.05","PUVIRNITUQ A","7106223","2018-01-01 14:00","2018","01","01","14:00","-29.3","","-32.6","","74","","0.0","","15","","28","","16.1","","101.18","","","","-44","","Snow"
"-77.29","60.05","PUVIRNITUQ A","7106223","2018-01-01 15:00","2018","01","01","15:00","-29.8","","-33.1","","74","","0.0","","15","","28","","16.1","","101.14","","","","-45","","NA"
"-77.29","60.05","PUVIRNITUQ A","7106223","2018-01-01 16:00","2018","01","01","16:00","-30.1","","-33.3","","74","","0.0","","14","","32","","16.1","","101.11","","","","-46","","NA"
"-77.29","60.05","PUVIRNITUQ A","7106223","2018-01-01 17:00","2018","01","01","17:00","-30.0","","-33.3","","74","","0.0","","14","","32","","16.1","","101.10","","","","-46","","NA"
"-77.29","60.05","PUVIRNITUQ A","7106223","2018-01-01 18:00","2018","01","01","18:00","-30.5","","-33.7","","74","","0.0","","13","","28","","16.1","","101.08","","","","-46","","NA"
"-77.29","60.05","PUVIRNITUQ A","7106223","2018-01-01 19:00","2018","01","01","19:00","-30.1","","-33.3","","74","","0.0","","14","","32","","16.1","","101.05","","","","-46","","NA"
"-77.29","60.05","PUVIRNITUQ A","7106223","2018-01-01 20:00","2018","01","01","20:00","-30.3","","-33.5","","74","","0.0","","14","","35","","9.7","","101.01","","","","-47","","Haze"
"-77.29","60.05","PUVIRNITUQ A","7106223","2018-01-01 21:00","2018","01","01","21:00","-30.6","","-33.9","","74","","0.0","","13","","35","","8.1","","100.98","","","","-47","","Haze"
"-77.29","60.05","PUVIRNITUQ A","7106223","2018-01-01 22:00","2018","01","01","22:00","-31.1","","-34.5","","73","","0.0","","13","","32","","16.1","","100.96","","","","-47","","NA"
"-77.29","60.05","PUVIRNITUQ A","7106223","2018-01-01 23:00","2018","01","01","23:00","-31.5","","-34.9","","73","","0.0","","13","","32","","16.1","","100.94","","","","-48","","NA"
"-77.29","60.05","PUVIRNITUQ A","7106223","2018-01-02 00:00","2018","01","02","00:00","-31.9","","-35.4","","72","","0.0","","12","","30","","16.1","","100.92","","","","-48","","NA"
"-77.29","60.05","PUVIRNITUQ A","7106223","2018-01-02 01:00","2018","01","02","01:00","-32.4","","-35.9","","72","","0.0","","12","","30","","16.1","","100.90","","","","-49","","NA"
"-77.29","60.05","PUVIRNITUQ A","7106223","2018-01-02 02:00","2018","01","02","02:00","-32.4","","-35.9","","72","","0.0","","11","","26","","16.1","","100.93","","","","-48","","NA"
"-77.29","60.05","PUVIRNITUQ A","7106223","2018-01-02 03:00","2018","01","02","03:00","-33.2","","-36.8","","71","","0.0","","11","","22","","16.1","","100.97","","","","-48","","NA"
"-77.29","60.05","PUVIRNITUQ A","7106223","2018-01-02 04:00","2018","01","02","04:00","-33.4","","-37.0","","71","","0.0","","4","","17","","16.1","","101.02","","","","-46","","NA"
"-77.29","60.05","PUVIRNITUQ A","7106223","2018-01-02 05:00","2018","01","02","05:00","-33.4","","-37.1","","70","","0.0","","5","","13","","16.1","","101.02","","","","-45","","NA"
"-77.29","60.05","PUVIRNITUQ A","7106223","2018-01-02 06:00","2018","01","02","06:00","-33.9","","-37.6","","70","","0.0","","7","","9","","16.1","","101.03","","","","-43","","NA"
"-77.29","60.05","PUVIRNITUQ A","7106223","2018-01-02 07:00","2018","01","02","07:00","-34.4","","-38.1","","70","","0.0","","7","","9","","16.1","","101.06","","","","-44","","NA"
"-77.29","60.05","PUVIRNITUQ A","7106223","2018-01-02 08:00","2018","01","02","08:00","-34.5","","-38.3","","69","","0.0","","8","","9","","16.1","","101.08","","","","-44","","NA"
"-77.29","60.05","PUVIRNITUQ A","7106223","2018-01-02 09:00","2018","01","02","09:00","-34.9","","-38.6","","70","","0.0","","7","","13","","16.1","","101.13","","","","-47","","NA"
"-77.29","60.05","PUVIRNITUQ A","7106223","2018-01-02 10:00","2018","01","02","10:00","-35.4","","-39.2","","69","","0.0","","9","","9","","16.1","","101.13","","","","-45","","NA"
"-77.29","60.05","PUVIRNITUQ A","7106223","2018-01-02 11:00","2018","01","02","11:00","-35.2","","-39.0","","69","","0.0","","7","","9","","16.1","","101.15","","","","-45","","NA"
"-77.29","60.05","PUVIRNITUQ A","7106223","2018-01-02 12:00","2018","01","02","12:00","-35.2","","-39.0","","69","","0.0","","7","","11","","16.1","","101.15","","","","-46","","NA"
"-77.29","60.05","PUVIRNITUQ A","7106223","2018-01-02 13:00","2018","01","02","13:00","-35.3","","-39.1","","69","","0.0","","7","","9","","16.1","","101.15","","","","-45","","NA"
"-77.29","60.05","PUVIRNITUQ A","7106223","2018-01-02 14:00","2018","01","02","14:00","-35.2","","-39.0","","69","","0.0","","7","","11","","16.1","","101.17","","","","-46","","NA"
"-77.29","60.05","PUVIRNITUQ A","7106223","2018-01-02 15:00","2018","01","02","15:00","-35.4","","-39.2","","69","","0.0","","7","","15","","16.1","","101.21","","","","-48","","NA"
"-77.29","60.05","PUVIRNITUQ A","7106223","2018-01-02 16:00","2018","01","02","16:00","-35.6","","-39.4","","69","","0.0","","6","","21","","16.1","","101.27","","","","-50","","NA"
"-77.29","60.05","PUVIRNITUQ A","7106223","2018-01-02 17:00","2018","01","02","17:00","-36.0","","-39.9","","68","","0.0","","7","","13","","16.1","","101.31","","","","-48","","NA"
"-77.29","60.05","PUVIRNITUQ A","7106223","2018-01-02 18:00","2018","01","02","18:00","-36.3","","-40.2","","68","","0.0","","6","","13","","16.1","","101.34","","","","-48","","NA"
"-77.29","60.05","PUVIRNITUQ A","7106223","2018-01-02 19:00","2018","01","02","19:00","-36.1","","-40.0","","68","","0.0","","6","","17","","16.1","","101.38","","","","-50","","NA"
"-77.29","60.05","PUVIRNITUQ A","7106223","2018-01-02 20:00","2018","01","02","20:00","-36.9","","-40.8","","68","","0.0","","6","","13","","16.1","","101.41","","","","-49","","NA"
"-77.29","60.05","PUVIRNITUQ A","7106223","2018-01-02 21:00","2018","01","02","21:00","-37.2","","-41.3","","67","","0.0","","7","","9","","16.1","","101.42","","","","-47","","NA"
"-77.29","60.05","PUVIRNITUQ A","7106223","2018-01-02 22:00","2018","01","02","22:00","-37.2","","-41.3","","67","","0.0","","5","","8","","16.1","","101.43","","","","-46","","NA"
"-77.29","60.05","PUVIRNITUQ A","7106223","2018-01-02 23:00","2018","01","02","23:00","-37.1","","-41.2","","67","","0.0","","7","","4","","16.1","","101.44","","","","-42","","NA"
"-77.29","60.05","PUVIRNITUQ A","7106223","2018-01-03 00:00","2018","01","03","00:00","-37.3","","-41.4","","67","","0.0","","4","","9","","16.1","","101.45","","","","-47","","NA"
"-77.29","60.05","PUVIRNITUQ A","7106223","2018-01-03 01:00","2018","01","03","01:00","-36.8","","-40.9","","67","","0.0","","5","","13","","16.1","","101.47","","","","-49","","NA"
"-77.29","60.05","PUVIRNITUQ A","7106223","2018-01-03 02:00","2018","01","03","02:00","-37.3","","-41.5","","66","","0.0","","5","","11","","16.1","","101.49","","","","-48","","NA"
"-77.29","60.05","PUVIRNITUQ A","7106223","2018-01-03 03:00","2018","01","03","03:00","-37.4","","-41.4","","67","","0.0","","5","","5","","16.1","","101.56","","","","-44","","NA"
"-77.29","60.05","PUVIRNITUQ A","7106223","2018-01-03 04:00","2018","01","03","04:00","-37.4","","-41.4","","67","","0.0","","4","","8","","16.1","","101.57","","","","-47","","NA"
"-77.29","60.05","PUVIRNITUQ A","7106223","2018-01-03 05:00","2018","01","03","05:00","-38.3","","-42.5","","66","","0.0","","4","","8","","16.1","","101.61","","","","-48","","NA"
"-77.29","60.05","PUVIRNITUQ A","7106223","2018-01-03 06:00","2018","01","03","06:00","-37.5","","-41.5","","67","","0.0","","","M","4","","16.1","","101.64","","","","-43","","NA"
"-77.29","60.05","PUVIRNITUQ A","7106223","2018-01-03 07:00","2018","01","03","07:00","-38.2","","-42.4","","66","","0.0","","","","0","","16.1","","101.71","","","","","","NA"
"-77.29","60.05","PUVIRNITUQ A","7106223","2018-01-03 08:00","2018","01","03","08:00","-38.6","","-42.9","","65","","0.0","","10","","5","","16.1","","101.74","","","","-45","","NA"
"-77.29","60.05","PUVIRNITUQ A","7106223","2018-01-03 09:00","2018","01","03","09:00","-38.3","","-42.5","","66","","0.0","","12","","5","","16.1","","101.77","","","","-45","","NA"
"-77.29","60.05","PUVIRNITUQ A","7106223","2018-01-03 10:00","2018","01","03","10:00","-38.4","","-42.6","","66","","0.0","","","M","4","","16.1","","101.79","","","","-44","","NA"
"-77.29","60.05","PUVIRNITUQ A","7106223","2018-01-03 11:00","2018","01","03","11:00","-38.9","","-43.2","","65","","0.0","","","M","8","","9.7","","101.80","","","","-48","","Haze"
"-77.29","60.05","PUVIRNITUQ A","7106223","2018-01-03 12:00","2018","01","03","12:00","-38.1","","-42.3","","66","","0.0","","6","","5","","16.1","","101.81","","","","-45","","NA"
"-77.29","60.05","PUVIRNITUQ A","7106223","2018-01-03 13:00","2018","01","03","13:00","-38.1","","-42.4","","65","","0.0","","6","","8","","9.7","","101.80","","","","-47","","Haze"
"-77.29","60.05","PUVIRNITUQ A","7106223","2018-01-03 14:00","2018","01","03","14:00","-38.1","","-42.3","","66","","0.0","","","M","4","","16.1","","101.83","","","","-43","","NA"
"-77.29","60.05","PUVIRNITUQ A","7106223","2018-01-03 15:00","2018","01","03","15:00","-38.1","","-42.3","","66","","0.0","","6","","9","","16.1","","101.87","","","","-48","","NA"
"-77.29","60.05","PUVIRNITUQ A","7106223","2018-01-03 16:00","2018","01","03","16:00","-39.1","","-43.4","","65","","0.0","","7","","4","","16.1","","101.93","","","","-45","","NA"
"-77.29","60.05","PUVIRNITUQ A","7106223","2018-01-03 17:00","2018","01","03","17:00","-39.2","","-43.5","","65","","0.0","","9","","5","","16.1","","101.97","","","","-46","","NA"
"-77.29","60.05","PUVIRNITUQ A","7106223","2018-01-03 18:00","2018","01","03","18:00","-39.3","","-43.6","","65","","0.0","","6","","8","","16.1","","102.01","","","","-49","","NA"
"-77.29","60.05","PUVIRNITUQ A","7106223","2018-01-03 19:00","2018","01","03","19:00","-39.6","","-44.0","","64","","0.0","","6","","4","","16.1","","102.06","","","","-45","","NA"
"-77.29","60.05","PUVIRNITUQ A","7106223","2018-01-03 20:00","2018","01","03","20:00","-39.3","","-43.7","","64","","0.0","","10","","8","","16.1","","102.05","","","","-49","","NA"
"-77.29","60.05","PUVIRNITUQ A","7106223","2018-01-03 21:00","2018","01","03","21:00","-39.4","","-43.7","","65","","0.0","","7","","8","","16.1","","102.05","","","","-49","","NA"
"-77.29","60.05","PUVIRNITUQ A","7106223","2018-01-03 22:00","2018","01","03","22:00","-39.6","","-44.0","","64","","0.0","","10","","8","","16.1","","102.08","","","","-49","","NA"
"-77.29","60.05","PUVIRNITUQ A","7106223","2018-01-03 23:00","2018","01","03","23:00","-39.0","","-43.3","","65","","0.0","","7","","8","","16.1","","102.12","","","","-49","","NA"
"-77.29","60.05","PUVIRNITUQ A","7106223","2018-01-04 00:00","2018","01","04","00:00","-39.1","","-43.4","","65","","0.0","","","M","4","","16.1","","102.13","","","","-45","","NA"
"-77.29","60.05","PUVIRNITUQ A","7106223","2018-01-04 01:00","2018","01","04","01:00","-39.1","","-43.4","","65","","0.0","","6","","9","","8.1","","102.16","","","","-49","","Haze"
"-77.29","60.05","PUVIRNITUQ A","7106223","2018-01-04 02:00","2018","01","04","02:00","-39.0","","-43.3","","65","","0.0","","","M","4","","16.1","","102.20","","","","-44","","NA"
"-77.29","60.05","PUVIRNITUQ A","7106223","2018-01-04 03:00","2018","01","04","03:00","-39.4","","-43.9","","64","","0.0","","","","0","","16.1","","102.26","","","","","","NA"
"-77.29","60.05","PUVIRNITUQ A","7106223","2018-01-04 04:00","2018","01","04","04:00","-38.9","","-43.2","","65","","0.0","","","M","5","","16.1","","102.30","","","","-46","","NA"
"-77.29","60.05","PUVIRNITUQ A","7106223","2018-01-04 05:00","2018","01","04","05:00","-39.5","","-43.8","","65","","0.0","","12","","5","","16.1","","102.34","","","","-46","","NA"
"-77.29","60.05","PUVIRNITUQ A","7106223","2018-01-04 06:00","2018","01","04","06:00","-39.3","","-43.7","","64","","0.0","","","M","5","","16.1","","102.39","","","","-46","","NA"
"-77.29","60.05","PUVIRNITUQ A","7106223","2018-01-04 07:00","2018","01","04","07:00","-39.2","","-43.5","","65","","0.0","","","","0","","16.1","","102.41","","","","","","NA"
"-77.29","60.05","PUVIRNITUQ A","7106223","2018-01-04 08:00","2018","01","04","08:00","-39.7","","-44.1","","64","","0.0","","9","","8","","16.1","","102.48","","","","-49","","NA"
"-77.29","60.05","PUVIRNITUQ A","7106223","2018-01-04 09:00","2018","01","04","09:00","-38.9","","-43.2","","65","","0.0","","10","","8","","16.1","","102.52","","","","-48","","NA"
"-77.29","60.05","PUVIRNITUQ A","7106223","2018-01-04 10:00","2018","01","04","10:00","-39.8","","-44.2","","64","","0.0","","13","","5","","3.6","","102.57","","","","-47","","Haze"
"-77.29","60.05","PUVIRNITUQ A","7106223","2018-01-04 11:00","2018","01","04","11:00","-38.9","","-43.2","","65","","0.0","","10","","5","","11.3","","102.57","","","","-46","","NA"
"-77.29","60.05","PUVIRNITUQ A","7106223","2018-01-04 12:00","2018","01","04","12:00","-38.4","","-42.7","","65","","0.0","","9","","8","","12.9","","102.58","","","","-48","","NA"
"-77.29","60.05","PUVIRNITUQ A","7106223","2018-01-04 13:00","2018","01","04","13:00","-39.3","","-43.7","","64","","0.0","","12","","8","","8.1","","102.63","","","","-49","","Haze"
"-77.29","60.05","PUVIRNITUQ A","7106223","2018-01-04 14:00","2018","01","04","14:00","-38.6","","-42.9","","65","","0.0","","10","","8","","16.1","","102.64","","","","-48","","NA"
"-77.29","60.05","PUVIRNITUQ A","7106223","2018-01-04 15:00","2018","01","04","15:00","-38.9","","-43.2","","65","","0.0","","7","","4","","16.1","","102.70","","","","-44","","NA"
"-77.29","60.05","PUVIRNITUQ A","7106223","2018-01-04 16:00","2018","01","04","16:00","-38.4","","-42.7","","65","","0.0","","7","","9","","16.1","","102.76","","","","-49","","NA"
"-77.29","60.05","PUVIRNITUQ A","7106223","2018-01-04 17:00","2018","01","04","17:00","-38.1","","-42.4","","65","","0.0","","","M","4","","16.1","","102.77","","","","-43","","NA"
"-77.29","60.05","PUVIRNITUQ A","7106223","2018-01-04 18:00","2018","01","04","18:00","-38.6","","-42.9","","65","","0.0","","11","","9","","16.1","","102.82","","","","-49","","NA"
"-77.29","60.05","PUVIRNITUQ A","7106223","2018-01-04 19:00","2018","01","04","19:00","-38.6","","-43.0","","64","","0.0","","10","","11","","16.1","","102.89","","","","-50","","NA"
"-77.29","60.05","PUVIRNITUQ A","7106223","2018-01-04 20:00","2018","01","04","20:00","-38.4","","-42.9","","64","","0.0","","","M","4","","16.1","","102.86","","","","-44","","NA"
"-77.29","60.05","PUVIRNITUQ A","7106223","2018-01-04 21:00","2018","01","04","21:00","-37.5","","-41.7","","66","","0.0","","10","","5","","16.1","","102.85","","","","-44","","NA"
"-77.29","60.05","PUVIRNITUQ A","7106223","2018-01-04 22:00","2018","01","04","22:00","-37.3","","-41.4","","67","","0.0","","12","","5","","16.1","","102.81","","","","-44","","NA"
"-77.29","60.05","PUVIRNITUQ A","7106223","2018-01-04 23:00","2018","01","04","23:00","-37.6","","-41.7","","67","","0.0","","","","0","","16.1","","102.83","","","","","","NA"
"-77.29","60.05","PUVIRNITUQ A","7106223","2018-01-05 00:00","2018","01","05","00:00","-37.9","","-42.1","","66","","0.0","","8","","8","","16.1","","102.81","","","","-47","","NA"
"-77.29","60.05","PUVIRNITUQ A","7106223","2018-01-05 01:00","2018","01","05","01:00","-38.3","","-42.6","","65","","0.0","","33","","11","","16.1","","102.75","","","","-50","","NA"
"-77.29","60.05","PUVIRNITUQ A","7106223","2018-01-05 02:00","2018","01","05","02:00","-35.5","","-39.3","","69","","0.0","","","","0","","0.8","","102.74","","","","","","Haze"
"-77.29","60.05","PUVIRNITUQ A","7106223","2018-01-05 03:00","2018","01","05","03:00","-38.8","","-43.3","","63","","0.0","","","M","4","","16.1","","102.83","","","","-44","","NA"
"-77.29","60.05","PUVIRNITUQ A","7106223","2018-01-05 04:00","2018","01","05","04:00","-38.6","","-42.9","","65","","0.0","","14","","8","","9.7","","102.82","","","","-48","","Haze"
"-77.29","60.05","PUVIRNITUQ A","7106223","2018-01-05 05:00","2018","01","05","05:00","-37.9","","-42.1","","66","","0.0","","","","0","","6.4","","102.75","","","","","","Haze"
"-77.29","60.05","PUVIRNITUQ A","7106223","2018-01-05 06:00","2018","01","05","06:00","-37.1","","-41.2","","67","","0.0","","","M","4","","16.1","","102.73","","","","-42","","NA"
"-77.29","60.05","PUVIRNITUQ A","7106223","2018-01-05 07:00","2018","01","05","07:00","-39.1","","-43.4","","65","","0.0","","12","","5","","2.8","","102.75","","","","-46","","Haze"
"-77.29","60.05","PUVIRNITUQ A","7106223","2018-01-05 08:00","2018","01","05","08:00","-38.6","","-42.8","","66","","0.0","","32","","4","","16.1","","102.67","","","","-44","","NA"
"-77.29","60.05","PUVIRNITUQ A","7106223","2018-01-05 09:00","2018","01","05","09:00","-38.4","","-42.7","","65","","0.0","","","M","4","","11.3","","102.65","","","","-44","","NA"
"-77.29","60.05","PUVIRNITUQ A","7106223","2018-01-05 10:00","2018","01","05","10:00","-39.1","","-43.4","","65","","0.0","","","","0","","1.2","","102.60","","","","","","Haze"
"-77.29","60.05","PUVIRNITUQ A","7106223","2018-01-05 11:00","2018","01","05","11:00","-37.4","","-41.4","","67","","0.0","","","M","4","","8.1","","102.53","","","","-43","","Haze"
"-77.29","60.05","PUVIRNITUQ A","7106223","2018-01-05 12:00","2018","01","05","12:00","-36.9","","-41.2","","65","","0.0","","3","","5","","16.1","","102.43","","","","-43","","NA"
"-77.29","60.05","PUVIRNITUQ A","7106223","2018-01-05 13:00","2018","01","05","13:00","-38.1","","-42.7","","63","","0.0","","9","","11","","16.1","","102.42","","","","-49","","NA"
"-77.29","60.05","PUVIRNITUQ A","7106223","2018-01-05 14:00","2018","01","05","14:00","-37.4","","-42.0","","63","","0.0","","12","","11","","16.1","","102.40","","","","-49","","NA"
"-77.29","60.05","PUVIRNITUQ A","7106223","2018-01-05 15:00","2018","01","05","15:00","-35.8","","-39.9","","67","","0.0","","36","","5","","16.1","","102.37","","","","-42","","NA"
"-77.29","60.05","PUVIRNITUQ A","7106223","2018-01-05 16:00","2018","01","05","16:00","-38.5","","-42.7","","66","","0.0","","12","","4","","4.0","","102.33","","","","-44","","Haze"
"-77.29","60.05","PUVIRNITUQ A","7106223","2018-01-05 17:00","2018","01","05","17:00","-37.4","","-41.3","","68","","0.0","","33","","15","","12.9","","102.30","","","","-51","","NA"
"-77.29","60.05","PUVIRNITUQ A","7106223","2018-01-05 18:00","2018","01","05","18:00","-37.4","","-41.2","","68","","0.0","","","M","4","","16.1","","102.27","","","","-43","","NA"
"-77.29","60.05","PUVIRNITUQ A","7106223","2018-01-05 19:00","2018","01","05","19:00","-36.8","","-40.9","","67","","0.0","","31","","13","","12.9","","102.18","","","","-49","","NA"
"-77.29","60.05","PUVIRNITUQ A","7106223","2018-01-05 20:00","2018","01","05","20:00","-38.1","","-42.2","","66","","0.0","","31","","8","","16.1","","102.12","","","","-47","","NA"
"-77.29","60.05","PUVIRNITUQ A","7106223","2018-01-05 21:00","2018","01","05","21:00","-37.9","","-42.5","","63","","0.0","","32","","21","","16.1","","102.01","","","","-53","","NA"
"-77.29","60.05","PUVIRNITUQ A","7106223","2018-01-05 22:00","2018","01","05","22:00","-37.7","","-41.9","","66","","0.0","","31","","18","","16.1","","101.90","","","","-52","","NA"
"-77.29","60.05","PUVIRNITUQ A","7106223","2018-01-05 23:00","2018","01","05","23:00","-35.6","","-39.6","","68","","0.0","","33","","17","","16.1","","101.84","","","","-49","","NA"
"-77.29","60.05","PUVIRNITUQ A","7106223","2018-01-06 00:00","2018","01","06","00:00","-36.6","","-40.7","","67","","0.0","","31","","22","","16.1","","101.76","","","","-52","","NA"
"-77.29","60.05","PUVIRNITUQ A","7106223","2018-01-06 01:00","2018","01","06","01:00","-35.4","","-39.5","","67","","0.0","","32","","18","","16.1","","101.69","","","","-49","","NA"
"-77.29","60.05","PUVIRNITUQ A","7106223","2018-01-06 02:00","2018","01","06","02:00","-34.8","","-38.5","","70","","0.0","","31","","18","","16.1","","101.64","","","","-48","","NA"
"-77.29","60.05","PUVIRNITUQ A","7106223","2018-01-06 03:00","2018","01","06","03:00","-35.1","","-39.0","","69","","0.0","","31","","17","","16.1","","101.56","","","","-48","","NA"
"-77.29","60.05","PUVIRNITUQ A","7106223","2018-01-06 04:00","2018","01","06","04:00","-33.2","","-36.9","","70","","0.0","","30","","13","","16.1","","101.50","","","","-44","","NA"
"-77.29","60.05","PUVIRNITUQ A","7106223","2018-01-06 05:00","2018","01","06","05:00","-33.6","","-37.2","","71","","0.0","","30","","18","","16.1","","101.40","","","","-47","","NA"
"-77.29","60.05","PUVIRNITUQ A","7106223","2018-01-06 06:00","2018","01","06","06:00","-32.6","","-36.2","","71","","0.0","","35","","11","","16.1","","101.34","","","","-43","","NA"
"-77.29","60.05","PUVIRNITUQ A","7106223","2018-01-06 07:00","2018","01","06","07:00","-32.9","","-36.7","","70","","0.0","","31","","15","","14.5","","101.26","","","","-45","","Snow"
"-77.29","60.05","PUVIRNITUQ A","7106223","2018-01-06 08:00","2018","01","06","08:00","-33.5","","-37.1","","71","","0.0","","33","","15","","16.1","","101.18","","","","-46","","Snow"
"-77.29","60.05","PUVIRNITUQ A","7106223","2018-01-06 09:00","2018","01","06","09:00","-33.4","","-37.1","","70","","0.0","","30","","17","","16.1","","101.10","","","","-46","","NA"
"-77.29","60.05","PUVIRNITUQ A","7106223","2018-01-06 10:00","2018","01","06","10:00","-31.5","","-34.9","","73","","0.0","","30","","11","","16.1","","101.06","","","","-41","","NA"
"-77.29","60.05","PUVIRNITUQ A","7106223","2018-01-06 11:00","2018","01","06","11:00","-31.2","","-35.2","","69","","0.0","","27","","15","","8.1","","100.97","","","","-43","","Snow"
"-77.29","60.05","PUVIRNITUQ A","7106223","2018-01-06 12:00","2018","01","06","12:00","-28.9","","-32.0","","75","","0.0","","29","","22","","2.0","","100.89","","","","-42","","Snow"
"-77.29","60.05","PUVIRNITUQ A","7106223","2018-01-06 13:00","2018","01","06","13:00","-28.9","","-32.0","","75","","0.0","","28","","24","","3.2","","100.80","","","","-43","","Snow"
"-77.29","60.05","PUVIRNITUQ A","7106223","2018-01-06 14:00","2018","01","06","14:00","-27.6","","-30.5","","77","","0.0","","30","","32","","2.4","","100.75","","","","-43","","Snow"
"-77.29","60.05","PUVIRNITUQ A","7106223","2018-01-06 15:00","2018","01","06","15:00","-28.1","","-31.2","","76","","0.0","","28","","28","","2.4","","100.73","","","","-43","","Snow"
"-77.29","60.05","PUVIRNITUQ A","7106223","2018-01-06 16:00","2018","01","06","16:00","-28.6","","-31.7","","76","","0.0","","28","","32","","16.1","","100.71","","","","-44","","NA"
"-77.29","60.05","PUVIRNITUQ A","7106223","2018-01-06 17:00","2018","01","06","17:00","-29.4","","-32.7","","74","","0.0","","28","","24","","16.1","","100.71","","","","-43","","NA"
"-77.29","60.05","PUVIRNITUQ A","7106223","2018-01-06 18:00","2018","01","06","18:00","-28.9","","-32.0","","75","","0.0","","27","","21","","16.1","","100.70","","","","-42","","NA"
"-77.29","60.05","PUVIRNITUQ A","7106223","2018-01-06 19:00","2018","01","06","19:00","-28.0","","-31.0","","76","","0.0","","27","","21","","16.1","","100.61","","","","-41","","NA"
"-77.29","60.05","PUVIRNITUQ A","7106223","2018-01-06 20:00","2018","01","06","20:00","-28.4","","-31.4","","76","","0.0","","27","","28","","16.1","","100.57","","","","-43","","NA"
"-77.29","60.05","PUVIRNITUQ A","7106223","2018-01-06 21:00","2018","01","06","21:00","-28.9","","-32.0","","75","","0.0","","26","","21","","16.1","","100.54","","","","-42","","NA"
"-77.29","60.05","PUVIRNITUQ A","7106223","2018-01-06 22:00","2018","01","06","22:00","-29.7","","-32.7","","76","","0.0","","26","","22","","16.1","","100.49","","","","-43","","NA"
"-77.29","60.05","PUVIRNITUQ A","7106223","2018-01-06 23:00","2018","01","06","23:00","-29.1","","-32.1","","76","","0.0","","25","","24","","16.1","","100.45","","","","-43","","NA"
"-77.29","60.05","PUVIRNITUQ A","7106223","2018-01-07 00:00","2018","01","07","00:00","-29.1","","-32.2","","75","","0.0","","26","","21","","16.1","","100.46","","","","-42","","NA"
"-77.29","60.05","PUVIRNITUQ A","7106223","2018-01-07 01:00","2018","01","07","01:00","-29.6","","-32.7","","75","","0.0","","26","","21","","16.1","","100.43","","","","-43","","NA"
"-77.29","60.05","PUVIRNITUQ A","7106223","2018-01-07 02:00","2018","01","07","02:00","-28.4","","-31.3","","77","","0.0","","26","","15","","16.1","","100.47","","","","-39","","NA"
"-77.29","60.05","PUVIRNITUQ A","7106223","2018-01-07 03:00","2018","01","07","03:00","-28.9","","-31.9","","76","","0.0","","25","","22","","16.1","","100.46","","","","-42","","NA"
"-77.29","60.05","PUVIRNITUQ A","7106223","2018-01-07 04:00","2018","01","07","04:00","-28.0","","-31.0","","76","","0.0","","25","","21","","16.1","","100.45","","","","-41","","NA"
"-77.29","60.05","PUVIRNITUQ A","7106223","2018-01-07 05:00","2018","01","07","05:00","-28.2","","-31.2","","76","","0.0","","25","","21","","12.9","","100.43","","","","-41","","NA"
"-77.29","60.05","PUVIRNITUQ A","7106223","2018-01-07 06:00","2018","01","07","06:00","-29.0","","-32.1","","75","","0.0","","25","","17","","16.1","","100.46","","","","-41","","NA"
"-77.29","60.05","PUVIRNITUQ A","7106223","2018-01-07 07:00","2018","01","07","07:00","-28.5","","-31.6","","75","","0.0","","25","","17","","16.1","","100.48","","","","-40","","NA"
"-77.29","60.05","PUVIRNITUQ A","7106223","2018-01-07 08:00","2018","01","07","08:00","-27.4","","-30.4","","77","","0.0","","23","","8","","16.1","","100.47","","","","-35","","NA"
"-77.29","60.05","PUVIRNITUQ A","7106223","2018-01-07 09:00","2018","01","07","09:00","-27.8","","-30.4","","79","","0.0","","24","","18","","16.1","","100.47","","","","-40","","NA"
"-77.29","60.05","PUVIRNITUQ A","7106223","2018-01-07 10:00","2018","01","07","10:00","-28.4","","-31.4","","76","","0.0","","25","","21","","16.1","","100.48","","","","-41","","NA"
"-77.29","60.05","PUVIRNITUQ A","7106223","2018-01-07 11:00","2018","01","07","11:00","-27.2","","-30.1","","77","","0.0","","21","","13","","16.1","","100.49","","","","-37","","NA"
"-77.29","60.05","PUVIRNITUQ A","7106223","2018-01-07 12:00","2018","01","07","12:00","-26.2","","-29.0","","78","","0.0","","21","","11","","16.1","","100.47","","","","-35","","NA"
"-77.29","60.05","PUVIRNITUQ A","7106223","2018-01-07 13:00","2018","01","07","13:00","-24.3","","-26.9","","80","","0.0","","24","","18","","16.1","","100.46","","","","-35","","NA"
"-77.29","60.05","PUVIRNITUQ A","7106223","2018-01-07 14:00","2018","01","07","14:00","-25.4","","-28.1","","79","","0.0","","25","","15","","16.1","","100.50","","","","-36","","NA"
"-77.29","60.05","PUVIRNITUQ A","7106223","2018-01-07 15:00","2018","01","07","15:00","-26.2","","-29.1","","77","","0.0","","23","","15","","16.1","","100.53","","","","-37","","NA"
"-77.29","60.05","PUVIRNITUQ A","7106223","2018-01-07 16:00","2018","01","07","16:00","-25.5","","-28.2","","78","","0.0","","22","","9","","16.1","","100.56","","","","-33","","NA"
"-77.29","60.05","PUVIRNITUQ A","7106223","2018-01-07 17:00","2018","01","07","17:00","-24.1","","-26.8","","79","","0.0","","20","","9","","16.1","","100.61","","","","-32","","NA"
"-77.29","60.05","PUVIRNITUQ A","7106223","2018-01-07 18:00","2018","01","07","18:00","-23.2","","-25.6","","81","","0.0","","21","","9","","16.1","","100.63","","","","-31","","NA"
"-77.29","60.05","PUVIRNITUQ A","7106223","2018-01-07 19:00","2018","01","07","19:00","-24.0","","-26.5","","80","","0.0","","21","","8","","16.1","","100.63","","","","-31","","NA"
"-77.29","60.05","PUVIRNITUQ A","7106223","2018-01-07 20:00","2018","01","07","20:00","-22.7","","-25.1","","81","","0.0","","24","","13","","16.1","","100.63","","","","-32","","NA"
"-77.29","60.05","PUVIRNITUQ A","7106223","2018-01-07 21:00","2018","01","07","21:00","-21.4","","-23.6","","83","","0.0","","23","","9","","16.1","","100.60","","","","-28","","NA"
"-77.29","60.05","PUVIRNITUQ A","7106223","2018-01-07 22:00","2018","01","07","22:00","-21.0","","-23.2","","83","","0.0","","25","","17","","16.1","","100.63","","","","-31","","NA"
"-77.29","60.05","PUVIRNITUQ A","7106223","2018-01-07 23:00","2018","01","07","23:00","-23.8","","-26.3","","80","","0.0","","25","","22","","16.1","","100.65","","","","-36","","NA"
"-77.29","60.05","PUVIRNITUQ A","7106223","2018-01-08 00:00","2018","01","08","00:00","-23.3","","-25.7","","81","","0.0","","18","","13","","16.1","","100.69","","","","-32","","NA"
"-77.29","60.05","PUVIRNITUQ A","7106223","2018-01-08 01:00","2018","01","08","01:00","-23.4","","-25.8","","81","","0.0","","18","","15","","16.1","","100.73","","","","-33","","Snow"
"-77.29","60.05","PUVIRNITUQ A","7106223","2018-01-08 02:00","2018","01","08","02:00","-22.5","","-24.8","","82","","0.0","","19","","15","","16.1","","100.74","","","","-32","","NA"
"-77.29","60.05","PUVIRNITUQ A","7106223","2018-01-08 03:00","2018","01","08","03:00","-22.9","","-25.3","","81","","0.0","","19","","9","","16.1","","100.78","","","","-30","","NA"
"-77.29","60.05","PUVIRNITUQ A","7106223","2018-01-08 04:00","2018","01","08","04:00","-23.1","","-25.5","","81","","0.0","","19","","15","","16.1","","100.81","","","","-33","","NA"
"-77.29","60.05","PUVIRNITUQ A","7106223","2018-01-08 05:00","2018","01","08","05:00","-23.5","","-25.9","","81","","0.0","","18","","13","","16.1","","100.83","","","","-33","","NA"
"-77.29","60.05","PUVIRNITUQ A","7106223","2018-01-08 06:00","2018","01","08","06:00","-23.5","","-25.9","","81","","0.0","","17","","15","","16.1","","100.82","","","","-33","","NA"
"-77.29","60.05","PUVIRNITUQ A","7106223","2018-01-08 07:00","2018","01","08","07:00","-24.3","","-26.8","","80","","0.0","","16","","13","","16.1","","100.83","","","","-34","","NA"
"-77.29","60.05","PUVIRNITUQ A","7106223","2018-01-08 08:00","2018","01","08","08:00","-24.8","","-27.5","","79","","0.0","","16","","9","","16.1","","100.80","","","","-32","","NA"
"-77.29","60.05","PUVIRNITUQ A","7106223","2018-01-08 09:00","2018","01","08","09:00","-25.6","","-28.4","","78","","0.0","","16","","13","","16.1","","100.80","","","","-35","","NA"
"-77.29","60.05","PUVIRNITUQ A","7106223","2018-01-08 10:00","2018","01","08","10:00","-25.5","","-28.1","","79","","0.0","","15","","15","","16.1","","100.84","","","","-36","","NA"
"-77.29","60.05","PUVIRNITUQ A","7106223","2018-01-08 11:00","2018","01","08","11:00","-25.6","","-28.3","","79","","0.0","","13","","13","","16.1","","100.85","","","","-35","","NA"
"-77.29","60.05","PUVIRNITUQ A","7106223","2018-01-08 12:00","2018","01","08","12:00","-25.8","","-28.4","","79","","0.0","","11","","17","","16.1","","100.78","","","","-37","","NA"
"-77.29","60.05","PUVIRNITUQ A","7106223","2018-01-08 13:00","2018","01","08","13:00","-25.3","","-28.0","","79","","0.0","","11","","21","","16.1","","100.72","","","","-37","","NA"
"-77.29","60.05","PUVIRNITUQ A","7106223","2018-01-08 14:00","2018","01","08","14:00","-24.2","","-26.7","","80","","0.0","","11","","26","","16.1","","100.69","","","","-37","","NA"
"-77.29","60.05","PUVIRNITUQ A","7106223","2018-01-08 15:00","2018","01","08","15:00","-25.1","","-27.6","","80","","0.0","","10","","17","","16.1","","100.69","","","","-36","","NA"
"-77.29","60.05","PUVIRNITUQ A","7106223","2018-01-08 16:00","2018","01","08","16:00","-25.4","","-28.1","","79","","0.0","","11","","28","","16.1","","100.64","","","","-39","","NA"
"-77.29","60.05","PUVIRNITUQ A","7106223","2018-01-08 17:00","2018","01","08","17:00","-25.3","","-28.0","","79","","0.0","","12","","18","","16.1","","100.61","","","","-37","","NA"
"-77.29","60.05","PUVIRNITUQ A","7106223","2018-01-08 18:00","2018","01","08","18:00","-25.6","","-28.2","","79","","0.0","","10","","22","","16.1","","100.54","","","","-38","","NA"
"-77.29","60.05","PUVIRNITUQ A","7106223","2018-01-08 19:00","2018","01","08","19:00","-25.9","","-28.5","","79","","0.0","","5","","28","","16.1","","100.48","","","","-40","","NA"
"-77.29","60.05","PUVIRNITUQ A","7106223","2018-01-08 20:00","2018","01","08","20:00","-25.9","","-28.5","","79","","0.0","","3","","18","","16.1","","100.42","","","","-37","","NA"
"-77.29","60.05","PUVIRNITUQ A","7106223","2018-01-08 21:00","2018","01","08","21:00","-26.0","","-28.8","","78","","0.0","","3","","15","","16.1","","100.33","","","","-36","","NA"
"-77.29","60.05","PUVIRNITUQ A","7106223","2018-01-08 22:00","2018","01","08","22:00","-25.9","","-28.5","","79","","0.0","","","M","11","","16.1","","100.26","","","","-35","","NA"
"-77.29","60.05","PUVIRNITUQ A","7106223","2018-01-08 23:00","2018","01","08","23:00","-26.5","","-29.3","","78","","0.0","","","M","4","","16.1","","100.20","","","","-31","","NA"
"-77.29","60.05","PUVIRNITUQ A","7106223","2018-01-09 00:00","2018","01","09","00:00","-26.5","","-29.3","","78","","0.0","","","M","9","","16.1","","100.14","","","","-34","","NA"
"-77.29","60.05","PUVIRNITUQ A","7106223","2018-01-09 01:00","2018","01","09","01:00","-26.2","","-29.0","","78","","0.0","","10","","18","","16.1","","100.08","","","","-38","","NA"
"-77.29","60.05","PUVIRNITUQ A","7106223","2018-01-09 02:00","2018","01","09","02:00","-26.1","","-28.9","","78","","0.0","","12","","28","","16.1","","99.97","","","","-40","","NA"
"-77.29","60.05","PUVIRNITUQ A","7106223","2018-01-09 03:00","2018","01","09","03:00","-26.2","","-29.0","","78","","0.0","","12","","30","","16.1","","99.93","","","","-41","","NA"
"-77.29","60.05","PUVIRNITUQ A","7106223","2018-01-09 04:00","2018","01","09","04:00","-26.1","","-28.9","","78","","0.0","","13","","30","","16.1","","99.86","","","","-41","","NA"
"-77.29","60.05","PUVIRNITUQ A","7106223","2018-01-09 05:00","2018","01","09","05:00","-26.4","","-29.2","","78","","0.0","","12","","22","","16.1","","99.81","","","","-39","","NA"
"-77.29","60.05","PUVIRNITUQ A","7106223","2018-01-09 06:00","2018","01","09","06:00","-26.2","","-29.0","","78","","0.0","","13","","24","","16.1","","99.78","","","","-39","","NA"
"-77.29","60.05","PUVIRNITUQ A","7106223","2018-01-09 07:00","2018","01","09","07:00","-25.8","","-28.4","","79","","0.0","","14","","22","","16.1","","99.75","","","","-38","","NA"
"-77.29","60.05","PUVIRNITUQ A","7106223","2018-01-09 08:00","2018","01","09","08:00","-24.7","","-27.2","","80","","0.0","","14","","17","","16.1","","99.71","","","","-36","","NA"
"-77.29","60.05","PUVIRNITUQ A","7106223","2018-01-09 09:00","2018","01","09","09:00","-22.8","","-25.2","","81","","0.1","","16","","18","","2.4","","99.70","","","","-33","","Snow"
"-77.29","60.05","PUVIRNITUQ A","7106223","2018-01-09 10:00","2018","01","09","10:00","-21.9","","-24.2","","82","","0.1","","15","","18","","4.8","","99.67","","","","-32","","Snow"
"-77.29","60.05","PUVIRNITUQ A","7106223","2018-01-09 11:00","2018","01","09","11:00","-21.6","","-23.8","","83","","0.0","","16","","17","","16.1","","99.65","","","","-32","","Snow"
"-77.29","60.05","PUVIRNITUQ A","7106223","2018-01-09 12:00","2018","01","09","12:00","-20.7","","-22.9","","83","","0.0","","","M","","M","","M","99.65","","","","","","NA"
"-77.29","60.05","PUVIRNITUQ A","7106223","2018-01-09 13:00","2018","01","09","13:00","-19.2","","-21.1","","85","","0.0","","","M","","M","","M","99.66","","","","","","NA"
"-77.29","60.05","PUVIRNITUQ A","7106223","2018-01-09 14:00","2018","01","09","14:00","-20.8","","-23.0","","83","","0.0","","","M","","M","","M","99.74","","","","","","NA"
"-77.29","60.05","PUVIRNITUQ A","7106223","2018-01-09 15:00","2018","01","09","15:00","-22.3","","-24.7","","81","","0.0","","","M","","M","","M","99.83","","","","","","NA"
"-77.29","60.05","PUVIRNITUQ A","7106223","2018-01-09 16:00","2018","01","09","16:00","-22.2","","-24.5","","82","","0.0","","","M","","M","","M","99.93","","","","","","NA"
"-77.29","60.05","PUVIRNITUQ A","7106223","2018-01-09 17:00","2018","01","09","17:00","-23.0","","-25.3","","82","","0.0","","","M","","M","","M","100.00","","","","","","NA"
"-77.29","60.05","PUVIRNITUQ A","7106223","2018-01-09 18:00","2018","01","09","18:00","-23.2","","-25.6","","81","","0.0","","","M","","M","","M","100.09","","","","","","NA"
"-77.29","60.05","PUVIRNITUQ A","7106223","2018-01-09 19:00","2018","01","09","19:00","-23.1","","-25.5","","81","","0.0","","25","","30","","16.1","","100.14","","","","-37","","NA"
"-77.29","60.05","PUVIRNITUQ A","7106223","2018-01-09 20:00","2018","01","09","20:00","-23.1","","-25.5","","81","","0.0","","25","","26","","6.4","","100.18","","","","-36","","Snow"
"-77.29","60.05","PUVIRNITUQ A","7106223","2018-01-09 21:00","2018","01","09","21:00","-24.1","","-26.6","","80","","0.0","","24","","32","","4.8","","100.21","","","","-38","","Snow"
"-77.29","60.05","PUVIRNITUQ A","7106223","2018-01-09 22:00","2018","01","09","22:00","-25.4","","-28.1","","79","","0.0","","23","","26","","16.1","","100.28","","","","-39","","NA"
"-77.29","60.05","PUVIRNITUQ A","7106223","2018-01-09 23:00","2018","01","09","23:00","-25.9","","-28.5","","79","","0.0","","23","","24","","11.3","","100.37","","","","-39","","NA"
"-77.29","60.05","PUVIRNITUQ A","7106223","2018-01-10 00:00","2018","01","10","00:00","-26.0","","-28.6","","79","","0.0","","24","","28","","16.1","","100.44","","","","-40","","NA"
"-77.29","60.05","PUVIRNITUQ A","7106223","2018-01-10 01:00","2018","01","10","01:00","-26.6","","-29.4","","78","","0.0","","23","","24","","16.1","","100.49","","","","-40","","NA"
"-77.29","60.05","PUVIRNITUQ A","7106223","2018-01-10 02:00","2018","01","10","02:00","-25.5","","-28.1","","79","","0.0","","22","","22","","9.7","","100.57","","","","-38","","Haze"
"-77.29","60.05","PUVIRNITUQ A","7106223","2018-01-10 03:00","2018","01","10","03:00","-25.3","","-28.0","","79","","0.0","","21","","18","","8.1","","100.60","","","","-37","","Haze"
"-77.29","60.05","PUVIRNITUQ A","7106223","2018-01-10 04:00","2018","01","10","04:00","-24.9","","-27.6","","79","","0.0","","23","","28","","4.8","","100.60","","","","-39","","Fog"
"-77.29","60.05","PUVIRNITUQ A","7106223","2018-01-10 05:00","2018","01","10","05:00","-24.7","","-27.2","","80","","0.0","","22","","30","","2.8","","100.67","","","","-39","","Fog"
"-77.29","60.05","PUVIRNITUQ A","7106223","2018-01-10 06:00","2018","01","10","06:00","-24.7","","-27.2","","80","","0.0","","21","","32","","4.8","","100.67","","","","-39","","Fog"
"-77.29","60.05","PUVIRNITUQ A","7106223","2018-01-10 07:00","2018","01","10","07:00","-25.3","","-28.0","","79","","0.0","","23","","28","","6.4","","100.70","","","","-39","","Haze"
"-77.29","60.05","PUVIRNITUQ A","7106223","2018-01-10 08:00","2018","01","10","08:00","-26.6","","-29.5","","77","","0.0","","21","","24","","16.1","","100.73","","","","-40","","NA"
"-77.29","60.05","PUVIRNITUQ A","7106223","2018-01-10 09:00","2018","01","10","09:00","-27.4","","-30.3","","77","","0.0","","20","","22","","16.1","","100.78","","","","-40","","NA"
"-77.29","60.05","PUVIRNITUQ A","7106223","2018-01-10 10:00","2018","01","10","10:00","-28.5","","-31.5","","76","","0.0","","18","","26","","6.4","","100.76","","","","-43","","Snow"
"-77.29","60.05","PUVIRNITUQ A","7106223","2018-01-10 11:00","2018","01","10","11:00","-28.8","","-31.8","","76","","0.0","","17","","26","","4.8","","100.74","","","","-43","","Snow"
"-77.29","60.05","PUVIRNITUQ A","7106223","2018-01-10 12:00","2018","01","10","12:00","-28.8","","-31.8","","76","","0.0","","17","","24","","16.1","","100.70","","","","-43","","NA"
"-77.29","60.05","PUVIRNITUQ A","7106223","2018-01-10 13:00","2018","01","10","13:00","-27.7","","-30.6","","77","","0.0","","18","","28","","16.1","","100.63","","","","-42","","NA"
"-77.29","60.05","PUVIRNITUQ A","7106223","2018-01-10 14:00","2018","01","10","14:00","-26.6","","-29.4","","78","","0.0","","17","","22","","16.1","","100.59","","","","-39","","NA"
"-77.29","60.05","PUVIRNITUQ A","7106223","2018-01-10 15:00","2018","01","10","15:00","-25.7","","-28.3","","79","","0.0","","17","","18","","16.1","","100.54","","","","-37","","Snow"
"-77.29","60.05","PUVIRNITUQ A","7106223","2018-01-10 16:00","2018","01","10","16:00","-25.4","","-28.1","","79","","0.0","","16","","18","","16.1","","100.48","","","","-37","","Snow"
"-77.29","60.05","PUVIRNITUQ A","7106223","2018-01-10 17:00","2018","01","10","17:00","-25.1","","-27.8","","79","","0.1","","14","","15","","4.8","","100.41","","","","-35","","Snow"
"-77.29","60.05","PUVIRNITUQ A","7106223","2018-01-10 18:00","2018","01","10","18:00","-24.8","","-27.3","","80","","0.0","","14","","17","","12.9","","100.35","","","","-36","","Snow"
"-77.29","60.05","PUVIRNITUQ A","7106223","2018-01-10 19:00","2018","01","10","19:00","-24.5","","-27.0","","80","","0.0","","15","","13","","6.4","","100.27","","","","-34","","Snow"
"-77.29","60.05","PUVIRNITUQ A","7106223","2018-01-10 20:00","2018","01","10","20:00","-24.2","","-26.7","","80","","0.0","","13","","9","","9.7","","100.20","","","","-32","","Snow"
"-77.29","60.05","PUVIRNITUQ A","7106223","2018-01-10 21:00","2018","01","10","21:00","-23.9","","-26.3","","81","","0.0","","15","","8","","4.0","","100.11","","","","-31","","Snow"
"-77.29","60.05","PUVIRNITUQ A","7106223","2018-01-10 22:00","2018","01","10","22:00","-23.7","","-26.1","","81","","0.0","","18","","8","","4.0","","100.10","","","","-31","","Snow"
"-77.29","60.05","PUVIRNITUQ A","7106223","2018-01-10 23:00","2018","01","10","23:00","-23.6","","-26.0","","81","","0.0","","25","","5","","2.0","","100.04","","","","-28","","Snow"
"-77.29","60.05","PUVIRNITUQ A","7106223","2018-01-11 00:00","2018","01","11","00:00","-25.5","","-28.0","","80","","0.0","","33","","5","","16.1","","100.01","","","","-31","","Snow"
"-77.29","60.05","PUVIRNITUQ A","7106223","2018-01-11 01:00","2018","01","11","01:00","-26.1","","-28.9","","78","","0.0","","29","","13","","16.1","","100.03","","","","-36","","NA"
"-77.29","60.05","PUVIRNITUQ A","7106223","2018-01-11 02:00","2018","01","11","02:00","-30.0","","-33.1","","75","","0.0","","29","","17","","16.1","","100.06","","","","-42","","NA"
"-77.29","60.05","PUVIRNITUQ A","7106223","2018-01-11 03:00","2018","01","11","03:00","-30.1","","-33.3","","74","","0.0","","29","","17","","16.1","","100.08","","","","-42","","NA"
"-77.29","60.05","PUVIRNITUQ A","7106223","2018-01-11 04:00","2018","01","11","04:00","-30.5","","-33.7","","74","","0.0","","28","","22","","16.1","","100.14","","","","-44","","NA"
"-77.29","60.05","PUVIRNITUQ A","7106223","2018-01-11 05:00","2018","01","11","05:00","-31.1","","-34.5","","73","","0.0","","27","","22","","16.1","","100.25","","","","-45","","NA"
"-77.29","60.05","PUVIRNITUQ A","7106223","2018-01-11 06:00","2018","01","11","06:00","-32.4","","-35.7","","73","","0.0","","26","","24","","16.1","","100.28","","","","-47","","NA"
"-77.29","60.05","PUVIRNITUQ A","7106223","2018-01-11 07:00","2018","01","11","07:00","-32.9","","-36.5","","71","","0.0","","26","","22","","16.1","","100.33","","","","-47","","NA"
"-77.29","60.05","PUVIRNITUQ A","7106223","2018-01-11 08:00","2018","01","11","08:00","-32.5","","-35.8","","73","","0.0","","25","","22","","16.1","","100.37","","","","-47","","NA"
"-77.29","60.05","PUVIRNITUQ A","7106223","2018-01-11 09:00","2018","01","11","09:00","-31.8","","-35.0","","74","","0.0","","24","","18","","16.1","","100.42","","","","-45","","NA"
"-77.29","60.05","PUVIRNITUQ A","7106223","2018-01-11 10:00","2018","01","11","10:00","-32.4","","-35.9","","72","","0.0","","22","","15","","16.1","","100.48","","","","-44","","NA"
"-77.29","60.05","PUVIRNITUQ A","7106223","2018-01-11 11:00","2018","01","11","11:00","-30.9","","-34.1","","74","","0.0","","22","","21","","16.1","","100.51","","","","-45","","NA"
"-77.29","60.05","PUVIRNITUQ A","7106223","2018-01-11 12:00","2018","01","11","12:00","-30.8","","-34.2","","73","","0.0","","21","","15","","16.1","","100.51","","","","-42","","NA"
"-77.29","60.05","PUVIRNITUQ A","7106223","2018-01-11 13:00","2018","01","11","13:00","-30.5","","-33.7","","74","","0.0","","23","","18","","16.1","","100.52","","","","-43","","NA"
"-77.29","60.05","PUVIRNITUQ A","7106223","2018-01-11 14:00","2018","01","11","14:00","-30.6","","-34.0","","73","","0.0","","22","","21","","16.1","","100.54","","","","-44","","NA"
"-77.29","60.05","PUVIRNITUQ A","7106223","2018-01-11 15:00","2018","01","11","15:00","-30.4","","-33.7","","74","","0.0","","22","","22","","16.1","","100.55","","","","-44","","NA"
"-77.29","60.05","PUVIRNITUQ A","7106223","2018-01-11 16:00","2018","01","11","16:00","-31.4","","-34.6","","74","","0.0","","21","","18","","16.1","","100.59","","","","-44","","NA"
"-77.29","60.05","PUVIRNITUQ A","7106223","2018-01-11 17:00","2018","01","11","17:00","-31.9","","-35.4","","72","","0.0","","21","","15","","16.1","","100.60","","","","-44","","NA"
"-77.29","60.05","PUVIRNITUQ A","7106223","2018-01-11 18:00","2018","01","11","18:00","-32.7","","-36.2","","72","","0.0","","19","","15","","16.1","","100.60","","","","-45","","NA"
"-77.29","60.05","PUVIRNITUQ A","7106223","2018-01-11 19:00","2018","01","11","19:00","-34.1","","-37.8","","70","","0.0","","17","","24","","4.8","","100.59","","","","-49","","Snow"
"-77.29","60.05","PUVIRNITUQ A","7106223","2018-01-11 20:00","2018","01","11","20:00","-33.9","","-37.5","","71","","0.0","","18","","21","","2.4","","100.59","","","","-48","","Snow"
"-77.29","60.05","PUVIRNITUQ A","7106223","2018-01-11 21:00","2018","01","11","21:00","-34.3","","-38.0","","70","","0.0","","18","","21","","4.0","","100.56","","","","-49","","Snow"
"-77.29","60.05","PUVIRNITUQ A","7106223","2018-01-11 22:00","2018","01","11","22:00","-34.9","","-38.7","","69","","0.0","","18","","18","","4.0","","100.52","","","","-49","","Snow"
"-77.29","60.05","PUVIRNITUQ A","7106223","2018-01-11 23:00","2018","01","11","23:00","-34.9","","-38.7","","70","","0.0","","19","","17","","3.2","","100.45","","","","-48","","Snow"
"-77.29","60.05","PUVIRNITUQ A","7106223","2018-01-12 00:00","2018","01","12","00:00","-34.9","","-38.6","","70","","0.0","","17","","18","","3.6","","100.44","","","","-49","","Snow"
"-77.29","60.05","PUVIRNITUQ A","7106223","2018-01-12 01:00","2018","01","12","01:00","-34.9","","-38.6","","70","","0.0","","18","","22","","3.2","","100.42","","","","-50","","Snow"
"-77.29","60.05","PUVIRNITUQ A","7106223","2018-01-12 02:00","2018","01","12","02:00","-34.8","","-38.5","","70","","0.0","","18","","22","","3.2","","100.43","","","","-50","","Snow"
"-77.29","60.05","PUVIRNITUQ A","7106223","2018-01-12 03:00","2018","01","12","03:00","-34.7","","-38.4","","70","","0.0","","18","","21","","3.6","","100.37","","","","-49","","Snow"
"-77.29","60.05","PUVIRNITUQ A","7106223","2018-01-12 04:00","2018","01","12","04:00","-34.5","","-38.2","","70","","0.0","","18","","24","","4.0","","100.35","","","","-50","","Snow"
"-77.29","60.05","PUVIRNITUQ A","7106223","2018-01-12 05:00","2018","01","12","05:00","-34.4","","-38.1","","70","","0.0","","17","","18","","3.6","","100.31","","","","-48","","Snow"
"-77.29","60.05","PUVIRNITUQ A","7106223","2018-01-12 06:00","2018","01","12","06:00","-32.5","","-36.0","","72","","0.0","","18","","24","","2.4","","100.27","","","","-47","","Snow"
"-77.29","60.05","PUVIRNITUQ A","7106223","2018-01-12 07:00","2018","01","12","07:00","-30.3","","-33.5","","74","","0.0","","21","","30","","4.0","","100.26","","","","-46","","Snow"
"-77.29","60.05","PUVIRNITUQ A","7106223","2018-01-12 08:00","2018","01","12","08:00","-31.1","","-34.5","","73","","0.0","","21","","30","","16.1","","100.26","","","","-47","","NA"
"-77.29","60.05","PUVIRNITUQ A","7106223","2018-01-12 09:00","2018","01","12","09:00","-31.1","","-34.5","","73","","0.0","","21","","28","","16.1","","100.27","","","","-47","","NA"
"-77.29","60.05","PUVIRNITUQ A","7106223","2018-01-12 10:00","2018","01","12","10:00","-30.4","","-33.6","","74","","0.0","","21","","32","","4.0","","100.28","","","","-47","","Snow"
"-77.29","60.05","PUVIRNITUQ A","7106223","2018-01-12 11:00","2018","01","12","11:00","-30.3","","-33.5","","74","","0.0","","21","","28","","9.7","","100.27","","","","-46","","Haze"
"-77.29","60.05","PUVIRNITUQ A","7106223","2018-01-12 12:00","2018","01","12","12:00","-30.4","","-33.6","","74","","0.0","","21","","30","","12.9","","100.25","","","","-46","","NA"
"-77.29","60.05","PUVIRNITUQ A","7106223","2018-01-12 13:00","2018","01","12","13:00","-30.3","","-33.5","","74","","0.0","","21","","30","","12.9","","100.23","","","","-46","","NA"
"-77.29","60.05","PUVIRNITUQ A","7106223","2018-01-12 14:00","2018","01","12","14:00","-30.2","","-33.4","","74","","0.0","","21","","28","","14.5","","100.20","","","","-45","","Snow"
"-77.29","60.05","PUVIRNITUQ A","7106223","2018-01-12 15:00","2018","01","12","15:00","-29.7","","-32.8","","75","","0.0","","21","","32","","6.4","","100.19","","","","-46","","Snow"
"-77.29","60.05","PUVIRNITUQ A","7106223","2018-01-12 16:00","2018","01","12","16:00","-29.2","","-32.3","","75","","0.0","","20","","34","","4.0","","100.23","","","","-45","","Snow"
"-77.29","60.05","PUVIRNITUQ A","7106223","2018-01-12 17:00","2018","01","12","17:00","-29.9","","-33.0","","75","","0.0","","21","","34","","16.1","","100.27","","","","-46","","NA"
"-77.29","60.05","PUVIRNITUQ A","7106223","2018-01-12 18:00","2018","01","12","18:00","-29.8","","-32.9","","75","","0.0","","21","","32","","9.7","","100.31","","","","-46","","Snow"
"-77.29","60.05","PUVIRNITUQ A","7106223","2018-01-12 19:00","2018","01","12","19:00","-29.8","","-33.0","","74","","0.0","","21","","34","","3.6","","100.31","","","","-46","","Snow"
"-77.29","60.05","PUVIRNITUQ A","7106223","2018-01-12 20:00","2018","01","12","20:00","-28.9","","-32.0","","75","","0.0","","21","","35","","2.8","","100.35","","","","-45","","Snow"
"-77.29","60.05","PUVIRNITUQ A","7106223","2018-01-12 21:00","2018","01","12","21:00","-29.6","","-32.7","","75","","0.0","","21","","30","","4.8","","100.36","","","","-45","","Snow"
"-77.29","60.05","PUVIRNITUQ A","7106223","2018-01-12 22:00","2018","01","12","22:00","-29.1","","-32.2","","75","","0.0","","20","","32","","4.8","","100.35","","","","-45","","Haze"
"-77.29","60.05","PUVIRNITUQ A","7106223","2018-01-12 23:00","2018","01","12","23:00","-29.9","","-33.2","","74","","0.0","","20","","28","","16.1","","100.36","","","","-45","","NA"
"-77.29","60.05","PUVIRNITUQ A","7106223","2018-01-13 00:00","2018","01","13","00:00","-30.4","","-33.6","","74","","0.0","","20","","24","","16.1","","100.39","","","","-45","","NA"
"-77.29","60.05","PUVIRNITUQ A","7106223","2018-01-13 01:00","2018","01","13","01:00","-30.4","","-33.6","","74","","0.0","","20","","24","","11.3","","100.39","","","","-45","","NA"
"-77.29","60.05","PUVIRNITUQ A","7106223","2018-01-13 02:00","2018","01","13","02:00","-31.6","","-35.1","","72","","0.0","","17","","22","","4.8","","100.43","","","","-46","","Snow"
"-77.29","60.05","PUVIRNITUQ A","7106223","2018-01-13 03:00","2018","01","13","03:00","-31.3","","-34.5","","74","","0.0","","19","","30","","3.2","","100.48","","","","-47","","Snow"
"-77.29","60.05","PUVIRNITUQ A","7106223","2018-01-13 04:00","2018","01","13","04:00","-31.9","","-35.4","","72","","0.0","","18","","28","","2.4","","100.51","","","","-48","","Snow"
"-77.29","60.05","PUVIRNITUQ A","7106223","2018-01-13 05:00","2018","01","13","05:00","-31.8","","-35.1","","73","","0.0","","19","","30","","2.4","","100.54","","","","-48","","Haze"
"-77.29","60.05","PUVIRNITUQ A","7106223","2018-01-13 06:00","2018","01","13","06:00","-31.3","","-34.7","","73","","0.0","","19","","30","","2.4","","100.59","","","","-47","","Snow"
"-77.29","60.05","PUVIRNITUQ A","7106223","2018-01-13 07:00","2018","01","13","07:00","-31.6","","-35.0","","73","","0.0","","18","","22","","4.8","","100.63","","","","-46","","Snow"
"-77.29","60.05","PUVIRNITUQ A","7106223","2018-01-13 08:00","2018","01","13","08:00","-31.5","","-34.9","","73","","0.0","","19","","26","","3.6","","100.65","","","","-47","","Snow"
"-77.29","60.05","PUVIRNITUQ A","7106223","2018-01-13 09:00","2018","01","13","09:00","-32.1","","-35.6","","72","","0.0","","19","","24","","4.0","","100.70","","","","-47","","Snow"
"-77.29","60.05","PUVIRNITUQ A","7106223","2018-01-13 10:00","2018","01","13","10:00","-31.7","","-34.9","","74","","0.0","","19","","22","","4.0","","100.74","","","","-46","","Snow"
"-77.29","60.05","PUVIRNITUQ A","7106223","2018-01-13 11:00","2018","01","13","11:00","-29.5","","-32.6","","75","","0.0","","17","","24","","2.4","","100.78","","","","-44","","Snow"
"-77.29","60.05","PUVIRNITUQ A","7106223","2018-01-13 12:00","2018","01","13","12:00","-28.0","","-30.9","","77","","0.0","","18","","22","","4.8","","100.73","","","","-41","","Snow"
"-77.29","60.05","PUVIRNITUQ A","7106223","2018-01-13 13:00","2018","01","13","13:00","-26.2","","-29.0","","78","","0.0","","19","","21","","4.8","","100.69","","","","-39","","Snow"
"-77.29","60.05","PUVIRNITUQ A","7106223","2018-01-13 14:00","2018","01","13","14:00","-22.1","","-24.4","","82","","0.0","","21","","28","","8.1","","100.68","","","","-35","","Snow"
"-77.29","60.05","PUVIRNITUQ A","7106223","2018-01-13 15:00","2018","01","13","15:00","-21.4","","-23.7","","82","","0.0","","23","","32","","4.8","","100.73","","","","-35","","Snow"
"-77.29","60.05","PUVIRNITUQ A","7106223","2018-01-13 16:00","2018","01","13","16:00","-21.3","","-23.5","","83","","0.0","","24","","37","","1.6","","100.81","","","","-35","","Snow"
"-77.29","60.05","PUVIRNITUQ A","7106223","2018-01-13 17:00","2018","01","13","17:00","-23.7","","-26.1","","81","","0.0","","24","","30","","4.8","","100.89","","","","-37","","Fog"
"-77.29","60.05","PUVIRNITUQ A","7106223","2018-01-13 18:00","2018","01","13","18:00","-23.5","","-25.9","","81","","0.0","","24","","34","","6.4","","100.97","","","","-38","","Haze"
"-77.29","60.05","PUVIRNITUQ A","7106223","2018-01-13 19:00","2018","01","13","19:00","-23.7","","-26.1","","81","","0.0","","23","","32","","11.3","","100.99","","","","-38","","NA"
"-77.29","60.05","PUVIRNITUQ A","7106223","2018-01-13 20:00","2018","01","13","20:00","-23.6","","-26.1","","81","","0.0","","22","","34","","6.4","","101.01","","","","-38","","Snow"
"-77.29","60.05","PUVIRNITUQ A","7106223","2018-01-13 21:00","2018","01","13","21:00","-23.3","","-25.7","","81","","0.0","","22","","32","","4.8","","101.01","","","","-37","","Snow"
"-77.29","60.05","PUVIRNITUQ A","7106223","2018-01-13 22:00","2018","01","13","22:00","-23.0","","-25.4","","81","","0.0","","23","","34","","3.2","","100.99","","","","-37","","Fog"
"-77.29","60.05","PUVIRNITUQ A","7106223","2018-01-13 23:00","2018","01","13","23:00","-22.8","","-25.2","","81","","0.0","","23","","32","","4.8","","100.97","","","","-37","","Snow"
"-77.29","60.05","PUVIRNITUQ A","7106223","2018-01-14 00:00","2018","01","14","00:00","-22.3","","-24.6","","82","","0.0","","23","","37","","4.0","","100.97","","","","-37","","Snow"
"-77.29","60.05","PUVIRNITUQ A","7106223","2018-01-14 01:00","2018","01","14","01:00","-21.8","","-24.1","","82","","0.0","","23","","34","","2.0","","100.96","","","","-36","","Snow"
"-77.29","60.05","PUVIRNITUQ A","7106223","2018-01-14 02:00","2018","01","14","02:00","-22.7","","-25.1","","81","","0.0","","23","","30","","14.5","","101.00","","","","-36","","Snow"
"-77.29","60.05","PUVIRNITUQ A","7106223","2018-01-14 03:00","2018","01","14","03:00","-23.0","","-25.4","","81","","0.0","","23","","28","","16.1","","101.05","","","","-36","","NA"
"-77.29","60.05","PUVIRNITUQ A","7106223","2018-01-14 04:00","2018","01","14","04:00","-22.7","","-25.1","","81","","0.0","","22","","30","","12.9","","101.11","","","","-36","","NA"
"-77.29","60.05","PUVIRNITUQ A","7106223","2018-01-14 05:00","2018","01","14","05:00","-22.7","","-25.0","","82","","0.0","","23","","34","","4.8","","101.12","","","","-37","","Fog"
"-77.29","60.05","PUVIRNITUQ A","7106223","2018-01-14 06:00","2018","01","14","06:00","-22.6","","-24.9","","82","","0.0","","24","","30","","6.4","","101.19","","","","-36","","Snow"
"-77.29","60.05","PUVIRNITUQ A","7106223","2018-01-14 07:00","2018","01","14","07:00","-22.1","","-24.4","","82","","0.0","","24","","34","","3.2","","101.26","","","","-36","","Snow"
"-77.29","60.05","PUVIRNITUQ A","7106223","2018-01-14 08:00","2018","01","14","08:00","-22.1","","-24.4","","82","","0.0","","24","","30","","6.4","","101.32","","","","-35","","Snow"
"-77.29","60.05","PUVIRNITUQ A","7106223","2018-01-14 09:00","2018","01","14","09:00","-22.0","","-24.3","","82","","0.0","","23","","32","","2.4","","101.38","","","","-36","","Snow"
"-77.29","60.05","PUVIRNITUQ A","7106223","2018-01-14 10:00","2018","01","14","10:00","-21.9","","-24.2","","82","","0.0","","23","","30","","4.0","","101.45","","","","-35","","Snow"
"-77.29","60.05","PUVIRNITUQ A","7106223","2018-01-14 11:00","2018","01","14","11:00","-22.1","","-24.4","","82","","0.0","","24","","34","","4.8","","101.51","","","","-36","","Snow"
"-77.29","60.05","PUVIRNITUQ A","7106223","2018-01-14 12:00","2018","01","14","12:00","-22.7","","-25.1","","81","","0.0","","24","","28","","14.5","","101.56","","","","-36","","Snow"
"-77.29","60.05","PUVIRNITUQ A","7106223","2018-01-14 13:00","2018","01","14","13:00","-23.2","","-25.6","","81","","0.0","","23","","21","","16.1","","101.62","","","","-35","","NA"
"-77.29","60.05","PUVIRNITUQ A","7106223","2018-01-14 14:00","2018","01","14","14:00","-23.9","","-26.3","","81","","0.0","","24","","21","","16.1","","101.69","","","","-36","","Snow"
"-77.29","60.05","PUVIRNITUQ A","7106223","2018-01-14 15:00","2018","01","14","15:00","-24.4","","-26.8","","81","","0.0","","23","","22","","16.1","","101.76","","","","-37","","Snow"
"-77.29","60.05","PUVIRNITUQ A","7106223","2018-01-14 16:00","2018","01","14","16:00","-25.2","","-27.9","","79","","0.0","","23","","21","","16.1","","101.85","","","","-37","","Snow"
"-77.29","60.05","PUVIRNITUQ A","7106223","2018-01-14 17:00","2018","01","14","17:00","-25.7","","-28.3","","79","","0.0","","23","","22","","16.1","","101.94","","","","-38","","NA"
"-77.29","60.05","PUVIRNITUQ A","7106223","2018-01-14 18:00","2018","01","14","18:00","-26.4","","-29.0","","79","","0.0","","22","","22","","16.1","","102.01","","","","-39","","NA"
"-77.29","60.05","PUVIRNITUQ A","7106223","2018-01-14 19:00","2018","01","14","19:00","-26.9","","-29.8","","77","","0.0","","22","","21","","16.1","","102.08","","","","-39","","NA"
"-77.29","60.05","PUVIRNITUQ A","7106223","2018-01-14 20:00","2018","01","14","20:00","-26.7","","-29.5","","78","","0.0","","22","","21","","12.9","","102.14","","","","-39","","Snow"
"-77.29","60.05","PUVIRNITUQ A","7106223","2018-01-14 21:00","2018","01","14","21:00","-26.4","","-29.2","","78","","0.0","","23","","22","","11.3","","102.20","","","","-39","","Snow"
"-77.29","60.05","PUVIRNITUQ A","7106223","2018-01-14 22:00","2018","01","14","22:00","-26.0","","-28.8","","78","","0.0","","24","","22","","16.1","","102.23","","","","-39","","NA"
"-77.29","60.05","PUVIRNITUQ A","7106223","2018-01-14 23:00","2018","01","14","23:00","-26.2","","-29.0","","78","","0.0","","23","","22","","16.1","","102.27","","","","-39","","NA"
"-77.29","60.05","PUVIRNITUQ A","7106223","2018-01-15 00:00","2018","01","15","00:00","-25.6","","-28.2","","79","","0.0","","23","","24","","16.1","","102.28","","","","-39","","NA"
"-77.29","60.05","PUVIRNITUQ A","7106223","2018-01-15 01:00","2018","01","15","01:00","-26.3","","-29.1","","78","","0.0","","24","","24","","9.7","","102.36","","","","-39","","Haze"
"-77.29","60.05","PUVIRNITUQ A","7106223","2018-01-15 02:00","2018","01","15","02:00","-25.4","","-28.1","","79","","0.0","","22","","24","","16.1","","102.43","","","","-38","","NA"
"-77.29","60.05","PUVIRNITUQ A","7106223","2018-01-15 03:00","2018","01","15","03:00","-24.5","","-27.0","","80","","0.0","","23","","26","","6.4","","102.46","","","","-38","","Haze"
"-77.29","60.05","PUVIRNITUQ A","7106223","2018-01-15 04:00","2018","01","15","04:00","-24.7","","-27.2","","80","","0.0","","22","","30","","6.4","","102.47","","","","-39","","Fog"
"-77.29","60.05","PUVIRNITUQ A","7106223","2018-01-15 05:00","2018","01","15","05:00","-25.2","","-27.9","","79","","0.0","","21","","26","","9.7","","102.51","","","","-39","","Haze"
"-77.29","60.05","PUVIRNITUQ A","7106223","2018-01-15 06:00","2018","01","15","06:00","-25.4","","-28.1","","79","","0.0","","22","","28","","4.8","","102.48","","","","-39","","Haze"
"-77.29","60.05","PUVIRNITUQ A","7106223","2018-01-15 07:00","2018","01","15","07:00","-24.7","","-27.2","","80","","0.0","","21","","30","","6.4","","102.50","","","","-39","","Snow"
"-77.29","60.05","PUVIRNITUQ A","7106223","2018-01-15 08:00","2018","01","15","08:00","-23.9","","-26.3","","81","","0.0","","22","","30","","4.8","","102.52","","","","-38","","Snow"
"-77.29","60.05","PUVIRNITUQ A","7106223","2018-01-15 09:00","2018","01","15","09:00","-23.6","","-26.0","","81","","0.0","","20","","32","","6.4","","102.52","","","","-38","","Snow"
"-77.29","60.05","PUVIRNITUQ A","7106223","2018-01-15 10:00","2018","01","15","10:00","-23.0","","-25.3","","82","","0.0","","21","","39","","2.0","","102.50","","","","-38","","Snow"
"-77.29","60.05","PUVIRNITUQ A","7106223","2018-01-15 11:00","2018","01","15","11:00","-22.9","","-25.3","","82","","0.0","","21","","39","","4.0","","102.47","","","","-38","","Snow"
"-77.29","60.05","PUVIRNITUQ A","7106223","2018-01-15 12:00","2018","01","15","12:00","-22.5","","-24.8","","82","","0.0","","21","","43","","2.0","","102.43","","","","-38","","Snow,Blowing Snow"
"-77.29","60.05","PUVIRNITUQ A","7106223","2018-01-15 13:00","2018","01","15","13:00","-22.4","","-24.7","","82","","0.0","","22","","39","","1.2","","102.41","","","","-37","","Snow"
"-77.29","60.05","PUVIRNITUQ A","7106223","2018-01-15 14:00","2018","01","15","14:00","-22.3","","-24.6","","82","","0.0","","23","","39","","0.6","","102.39","","","","-37","","Moderate Snow,Blowing Snow"
"-77.29","60.05","PUVIRNITUQ A","7106223","2018-01-15 15:00","2018","01","15","15:00","-22.4","","-24.7","","82","","0.0","","23","","39","","0.4","","102.39","","","","-37","","Heavy Snow"
"-77.29","60.05","PUVIRNITUQ A","7106223","2018-01-15 16:00","2018","01","15","16:00","-22.6","","-24.9","","82","","0.0","","24","","37","","0.4","","102.42","","","","-37","","Heavy Snow"
"-77.29","60.05","PUVIRNITUQ A","7106223","2018-01-15 17:00","2018","01","15","17:00","-23.1","","-25.5","","81","","0.0","","23","","39","","1.6","","102.45","","","","-38","","Snow"
"-77.29","60.05","PUVIRNITUQ A","7106223","2018-01-15 18:00","2018","01","15","18:00","-24.2","","-26.7","","80","","0.0","","25","","32","","2.4","","102.48","","","","-38","","Snow"
"-77.29","60.05","PUVIRNITUQ A","7106223","2018-01-15 19:00","2018","01","15","19:00","-24.5","","-27.0","","80","","0.0","","24","","32","","3.6","","102.45","","","","-39","","Haze"
"-77.29","60.05","PUVIRNITUQ A","7106223","2018-01-15 20:00","2018","01","15","20:00","-24.5","","-27.0","","80","","0.0","","23","","30","","4.8","","102.42","","","","-38","","Haze"
"-77.29","60.05","PUVIRNITUQ A","7106223","2018-01-15 21:00","2018","01","15","21:00","-24.5","","-27.0","","80","","0.0","","23","","24","","11.3","","102.41","","","","-37","","NA"
"-77.29","60.05","PUVIRNITUQ A","7106223","2018-01-15 22:00","2018","01","15","22:00","-24.8","","-27.3","","80","","0.0","","22","","22","","8.1","","102.36","","","","-37","","Fog"
"-77.29","60.05","PUVIRNITUQ A","7106223","2018-01-15 23:00","2018","01","15","23:00","-25.2","","-27.9","","79","","0.0","","21","","26","","16.1","","102.31","","","","-39","","NA"
"-77.29","60.05","PUVIRNITUQ A","7106223","2018-01-16 00:00","2018","01","16","00:00","-26.1","","-28.7","","79","","0.0","","22","","24","","16.1","","102.28","","","","-39","","NA"
"-77.29","60.05","PUVIRNITUQ A","7106223","2018-01-16 01:00","2018","01","16","01:00","-26.3","","-29.0","","79","","0.0","","22","","18","","8.1","","102.26","","","","-38","","Snow"
"-77.29","60.05","PUVIRNITUQ A","7106223","2018-01-16 02:00","2018","01","16","02:00","-26.7","","-29.5","","78","","0.0","","21","","18","","9.7","","102.20","","","","-38","","Fog"
"-77.29","60.05","PUVIRNITUQ A","7106223","2018-01-16 03:00","2018","01","16","03:00","-26.8","","-29.7","","77","","0.0","","20","","21","","11.3","","102.19","","","","-39","","NA"
"-77.29","60.05","PUVIRNITUQ A","7106223","2018-01-16 04:00","2018","01","16","04:00","-28.1","","-31.1","","76","","0.0","","17","","15","","12.9","","102.16","","","","-39","","Snow"
"-77.29","60.05","PUVIRNITUQ A","7106223","2018-01-16 05:00","2018","01","16","05:00","-28.8","","-31.9","","75","","0.0","","18","","18","","11.3","","102.09","","","","-41","","Snow"
"-77.29","60.05","PUVIRNITUQ A","7106223","2018-01-16 06:00","2018","01","16","06:00","-28.6","","-31.7","","75","","0.0","","18","","17","","6.4","","102.06","","","","-40","","Snow"
"-77.29","60.05","PUVIRNITUQ A","7106223","2018-01-16 07:00","2018","01","16","07:00","-29.3","","-32.3","","76","","0.0","","17","","13","","11.3","","102.01","","","","-40","","Snow"
"-77.29","60.05","PUVIRNITUQ A","7106223","2018-01-16 08:00","2018","01","16","08:00","-29.5","","-32.5","","76","","0.0","","18","","21","","9.7","","101.93","","","","-43","","Snow"
"-77.29","60.05","PUVIRNITUQ A","7106223","2018-01-16 09:00","2018","01","16","09:00","-29.1","","-32.1","","76","","0.0","","18","","21","","6.4","","101.87","","","","-42","","Snow"
"-77.29","60.05","PUVIRNITUQ A","7106223","2018-01-16 10:00","2018","01","16","10:00","-28.8","","-31.8","","76","","0.0","","17","","24","","6.4","","101.83","","","","-43","","Snow"
"-77.29","60.05","PUVIRNITUQ A","7106223","2018-01-16 11:00","2018","01","16","11:00","-29.0","","-32.0","","76","","0.0","","17","","28","","11.3","","101.73","","","","-44","","Snow"
"-77.29","60.05","PUVIRNITUQ A","7106223","2018-01-16 12:00","2018","01","16","12:00","-28.8","","-31.9","","75","","0.0","","16","","24","","16.1","","101.60","","","","-43","","Snow"
"-77.29","60.05","PUVIRNITUQ A","7106223","2018-01-16 13:00","2018","01","16","13:00","-27.9","","-30.9","","76","","0.0","","16","","24","","4.8","","101.54","","","","-42","","Snow"
"-77.29","60.05","PUVIRNITUQ A","7106223","2018-01-16 14:00","2018","01","16","14:00","-27.6","","-30.5","","77","","0.0","","15","","24","","16.1","","101.45","","","","-41","","NA"
"-77.29","60.05","PUVIRNITUQ A","7106223","2018-01-16 15:00","2018","01","16","15:00","-28.1","","-31.1","","76","","0.0","","14","","26","","16.1","","101.38","","","","-42","","NA"
"-77.29","60.05","PUVIRNITUQ A","7106223","2018-01-16 16:00","2018","01","16","16:00","-27.9","","-30.8","","77","","0.0","","13","","28","","16.1","","101.31","","","","-42","","NA"
"-77.29","60.05","PUVIRNITUQ A","7106223","2018-01-16 17:00","2018","01","16","17:00","-26.9","","-29.8","","77","","0.0","","13","","28","","14.5","","101.24","","","","-41","","Snow"
"-77.29","60.05","PUVIRNITUQ A","7106223","2018-01-16 18:00","2018","01","16","18:00","-26.2","","-29.0","","78","","0.0","","13","","28","","6.4","","101.17","","","","-40","","Snow"
"-77.29","60.05","PUVIRNITUQ A","7106223","2018-01-16 19:00","2018","01","16","19:00","-25.8","","-28.6","","78","","0.0","","12","","28","","8.1","","101.10","","","","-40","","Snow"
"-77.29","60.05","PUVIRNITUQ A","7106223","2018-01-16 20:00","2018","01","16","20:00","-25.7","","-28.5","","78","","0.0","","12","","28","","11.3","","101.03","","","","-40","","Snow"
"-77.29","60.05","PUVIRNITUQ A","7106223","2018-01-16 21:00","2018","01","16","21:00","-26.5","","-29.3","","78","","0.0","","12","","24","","16.1","","100.96","","","","-40","","NA"
"-77.29","60.05","PUVIRNITUQ A","7106223","2018-01-16 22:00","2018","01","16","22:00","-26.9","","-29.7","","78","","0.0","","11","","26","","16.1","","100.87","","","","-41","","NA"
"-77.29","60.05","PUVIRNITUQ A","7106223","2018-01-16 23:00","2018","01","16","23:00","-25.5","","-28.1","","79","","0.0","","12","","28","","8.1","","100.82","","","","-39","","Snow"
"-77.29","60.05","PUVIRNITUQ A","7106223","2018-01-17 00:00","2018","01","17","00:00","-25.6","","-28.2","","79","","0.0","","11","","30","","16.1","","100.72","","","","-40","","Snow"
"-77.29","60.05","PUVIRNITUQ A","7106223","2018-01-17 01:00","2018","01","17","01:00","-26.5","","-29.3","","78","","0.0","","10","","30","","16.1","","100.63","","","","-41","","NA"
"-77.29","60.05","PUVIRNITUQ A","7106223","2018-01-17 02:00","2018","01","17","02:00","-26.7","","-29.5","","78","","0.0","","10","","28","","16.1","","100.60","","","","-41","","NA"
"-77.29","60.05","PUVIRNITUQ A","7106223","2018-01-17 03:00","2018","01","17","03:00","-26.8","","-29.6","","78","","0.0","","8","","13","","16.1","","100.58","","","","-37","","NA"
"-77.29","60.05","PUVIRNITUQ A","7106223","2018-01-17 04:00","2018","01","17","04:00","-27.4","","-30.3","","77","","0.0","","5","","22","","16.1","","100.56","","","","-40","","NA"
"-77.29","60.05","PUVIRNITUQ A","7106223","2018-01-17 05:00","2018","01","17","05:00","-27.5","","-30.4","","77","","0.0","","6","","21","","16.1","","100.51","","","","-40","","NA"
"-77.29","60.05","PUVIRNITUQ A","7106223","2018-01-17 06:00","2018","01","17","06:00","-27.3","","-30.2","","77","","0.0","","5","","24","","16.1","","100.50","","","","-41","","NA"
"-77.29","60.05","PUVIRNITUQ A","7106223","2018-01-17 07:00","2018","01","17","07:00","-27.3","","-30.2","","77","","0.0","","6","","21","","16.1","","100.48","","","","-40","","NA"
"-77.29","60.05","PUVIRNITUQ A","7106223","2018-01-17 08:00","2018","01","17","08:00","-27.6","","-30.6","","76","","0.0","","7","","11","","16.1","","100.44","","","","-37","","NA"
"-77.29","60.05","PUVIRNITUQ A","7106223","2018-01-17 09:00","2018","01","17","09:00","-27.8","","-30.7","","77","","0.0","","6","","15","","16.1","","100.42","","","","-39","","NA"
"-77.29","60.05","PUVIRNITUQ A","7106223","2018-01-17 10:00","2018","01","17","10:00","-26.4","","-29.2","","78","","0.0","","5","","24","","16.1","","100.40","","","","-40","","Snow"
"-77.29","60.05","PUVIRNITUQ A","7106223","2018-01-17 11:00","2018","01","17","11:00","-26.2","","-28.9","","79","","0.0","","6","","18","","16.1","","100.36","","","","-38","","NA"
"-77.29","60.05","PUVIRNITUQ A","7106223","2018-01-17 12:00","2018","01","17","12:00","-25.9","","-28.7","","78","","0.0","","5","","17","","16.1","","100.33","","","","-37","","NA"
"-77.29","60.05","PUVIRNITUQ A","7106223","2018-01-17 13:00","2018","01","17","13:00","-25.5","","-28.3","","78","","0.0","","5","","21","","16.1","","100.32","","","","-38","","NA"
"-77.29","60.05","PUVIRNITUQ A","7106223","2018-01-17 14:00","2018","01","17","14:00","-25.3","","-28.0","","79","","0.0","","5","","26","","16.1","","100.30","","","","-39","","NA"
"-77.29","60.05","PUVIRNITUQ A","7106223","2018-01-17 15:00","2018","01","17","15:00","-26.2","","-29.0","","78","","0.0","","5","","13","","16.1","","100.30","","","","-36","","NA"
"-77.29","60.05","PUVIRNITUQ A","7106223","2018-01-17 16:00","2018","01","17","16:00","-26.4","","-29.2","","78","","0.0","","5","","18","","16.1","","100.33","","","","-38","","NA"
"-77.29","60.05","PUVIRNITUQ A","7106223","2018-01-17 17:00","2018","01","17","17:00","-26.6","","-29.4","","78","","0.0","","6","","21","","16.1","","100.34","","","","-39","","NA"
"-77.29","60.05","PUVIRNITUQ A","7106223","2018-01-17 18:00","2018","01","17","18:00","-27.2","","-30.2","","77","","0.0","","2","","13","","16.1","","100.37","","","","-37","","NA"
"-77.29","60.05","PUVIRNITUQ A","7106223","2018-01-17 19:00","2018","01","17","19:00","-28.7","","-31.6","","77","","0.0","","5","","17","","16.1","","100.36","","","","-41","","NA"
"-77.29","60.05","PUVIRNITUQ A","7106223","2018-01-17 20:00","2018","01","17","20:00","-27.6","","-30.5","","77","","0.0","","6","","21","","16.1","","100.33","","","","-40","","NA"
"-77.29","60.05","PUVIRNITUQ A","7106223","2018-01-17 21:00","2018","01","17","21:00","-30.3","","-33.5","","74","","0.0","","3","","13","","16.1","","100.31","","","","-41","","NA"
"-77.29","60.05","PUVIRNITUQ A","7106223","2018-01-17 22:00","2018","01","17","22:00","-30.7","","-33.9","","74","","0.0","","4","","18","","16.1","","100.26","","","","-43","","NA"
"-77.29","60.05","PUVIRNITUQ A","7106223","2018-01-17 23:00","2018","01","17","23:00","-30.7","","-34.0","","73","","0.0","","4","","18","","16.1","","100.23","","","","-43","","NA"
"-77.29","60.05","PUVIRNITUQ A","7106223","2018-01-18 00:00","2018","01","18","00:00","-30.5","","-33.7","","74","","0.0","","3","","17","","16.1","","100.23","","","","-43","","NA"
"-77.29","60.05","PUVIRNITUQ A","7106223","2018-01-18 01:00","2018","01","18","01:00","-30.7","","-33.9","","74","","0.0","","4","","17","","16.1","","100.21","","","","-43","","NA"
"-77.29","60.05","PUVIRNITUQ A","7106223","2018-01-18 02:00","2018","01","18","02:00","-31.2","","-34.4","","74","","0.0","","4","","17","","16.1","","100.25","","","","-44","","NA"
"-77.29","60.05","PUVIRNITUQ A","7106223","2018-01-18 03:00","2018","01","18","03:00","-30.9","","-34.1","","74","","0.0","","4","","15","","16.1","","100.28","","","","-43","","NA"
"-77.29","60.05","PUVIRNITUQ A","7106223","2018-01-18 04:00","2018","01","18","04:00","-30.9","","-34.3","","73","","0.0","","4","","17","","16.1","","100.30","","","","-43","","NA"
"-77.29","60.05","PUVIRNITUQ A","7106223","2018-01-18 05:00","2018","01","18","05:00","-31.2","","-34.4","","74","","0.0","","4","","17","","16.1","","100.26","","","","-44","","NA"
"-77.29","60.05","PUVIRNITUQ A","7106223","2018-01-18 06:00","2018","01","18","06:00","-30.5","","-33.7","","74","","0.0","","4","","15","","16.1","","100.29","","","","-42","","NA"
"-77.29","60.05","PUVIRNITUQ A","7106223","2018-01-18 07:00","2018","01","18","07:00","-28.5","","-31.5","","76","","0.0","","2","","11","","16.1","","100.30","","","","-38","","NA"
"-77.29","60.05","PUVIRNITUQ A","7106223","2018-01-18 08:00","2018","01","18","08:00","-27.9","","-30.9","","76","","0.0","","3","","11","","16.1","","100.31","","","","-37","","NA"
"-77.29","60.05","PUVIRNITUQ A","7106223","2018-01-18 09:00","2018","01","18","09:00","-28.6","","-31.7","","75","","0.0","","4","","15","","16.1","","100.29","","","","-40","","Snow"
"-77.29","60.05","PUVIRNITUQ A","7106223","2018-01-18 10:00","2018","01","18","10:00","-28.6","","-31.6","","76","","0.0","","2","","13","","16.1","","100.34","","","","-39","","NA"
"-77.29","60.05","PUVIRNITUQ A","7106223","2018-01-18 11:00","2018","01","18","11:00","-26.9","","-29.7","","78","","0.0","","4","","15","","16.1","","100.36","","","","-38","","NA"
"-77.29","60.05","PUVIRNITUQ A","7106223","2018-01-18 12:00","2018","01","18","12:00","-26.3","","-29.1","","78","","0.0","","4","","9","","16.1","","100.38","","","","-34","","NA"
"-77.29","60.05","PUVIRNITUQ A","7106223","2018-01-18 13:00","2018","01","18","13:00","-25.1","","-27.7","","79","","0.0","","4","","15","","9.7","","100.36","","","","-35","","Fog"
"-77.29","60.05","PUVIRNITUQ A","7106223","2018-01-18 14:00","2018","01","18","14:00","-24.2","","-26.7","","80","","0.0","","5","","13","","16.1","","100.37","","","","-34","","NA"
"-77.29","60.05","PUVIRNITUQ A","7106223","2018-01-18 15:00","2018","01","18","15:00","-24.7","","-27.4","","79","","0.0","","6","","15","","16.1","","100.39","","","","-35","","NA"
"-77.29","60.05","PUVIRNITUQ A","7106223","2018-01-18 16:00","2018","01","18","16:00","-25.4","","-28.1","","79","","0.0","","6","","13","","16.1","","100.42","","","","-35","","NA"
"-77.29","60.05","PUVIRNITUQ A","7106223","2018-01-18 17:00","2018","01","18","17:00","-26.9","","-29.9","","76","","0.0","","5","","11","","16.1","","100.48","","","","-36","","NA"
"-77.29","60.05","PUVIRNITUQ A","7106223","2018-01-18 18:00","2018","01","18","18:00","-26.2","","-28.8","","79","","0.0","","6","","11","","16.1","","100.49","","","","-35","","NA"
"-77.29","60.05","PUVIRNITUQ A","7106223","2018-01-18 19:00","2018","01","18","19:00","-27.8","","-31.1","","74","","0.0","","4","","9","","16.1","","100.52","","","","-36","","NA"
"-77.29","60.05","PUVIRNITUQ A","7106223","2018-01-18 20:00","2018","01","18","20:00","-27.6","","-30.5","","77","","0.0","","5","","15","","16.1","","100.53","","","","-38","","NA"
"-77.29","60.05","PUVIRNITUQ A","7106223","2018-01-18 21:00","2018","01","18","21:00","-27.5","","-30.4","","77","","0.0","","6","","15","","16.1","","100.51","","","","-38","","NA"
"-77.29","60.05","PUVIRNITUQ A","7106223","2018-01-18 22:00","2018","01","18","22:00","-28.4","","-31.3","","77","","0.0","","6","","13","","16.1","","100.53","","","","-39","","NA"
"-77.29","60.05","PUVIRNITUQ A","7106223","2018-01-18 23:00","2018","01","18","23:00","-29.1","","-32.1","","76","","0.0","","6","","9","","16.1","","100.53","","","","-38","","NA"
"-77.29","60.05","PUVIRNITUQ A","7106223","2018-01-19 00:00","2018","01","19","00:00","-29.8","","-32.9","","75","","0.0","","6","","13","","16.1","","100.55","","","","-40","","NA"
"-77.29","60.05","PUVIRNITUQ A","7106223","2018-01-19 01:00","2018","01","19","01:00","-31.1","","-34.3","","74","","0.0","","7","","5","","16.1","","100.57","","","","-37","","NA"
"-77.29","60.05","PUVIRNITUQ A","7106223","2018-01-19 02:00","2018","01","19","02:00","-32.0","","-35.3","","73","","0.0","","5","","13","","16.1","","100.60","","","","-43","","NA"
"-77.29","60.05","PUVIRNITUQ A","7106223","2018-01-19 03:00","2018","01","19","03:00","-31.4","","-34.8","","73","","0.0","","7","","9","","16.1","","100.64","","","","-40","","NA"
"-77.29","60.05","PUVIRNITUQ A","7106223","2018-01-19 04:00","2018","01","19","04:00","-32.0","","-35.3","","73","","0.0","","9","","9","","16.1","","100.67","","","","-41","","NA"
"-77.29","60.05","PUVIRNITUQ A","7106223","2018-01-19 05:00","2018","01","19","05:00","-32.3","","-35.6","","73","","0.0","","7","","8","","16.1","","100.65","","","","-41","","NA"
"-77.29","60.05","PUVIRNITUQ A","7106223","2018-01-19 06:00","2018","01","19","06:00","-32.9","","-36.4","","72","","0.0","","6","","9","","16.1","","100.65","","","","-42","","NA"
"-77.29","60.05","PUVIRNITUQ A","7106223","2018-01-19 07:00","2018","01","19","07:00","-33.6","","-37.2","","71","","0.0","","6","","8","","16.1","","100.70","","","","-42","","NA"
"-77.29","60.05","PUVIRNITUQ A","7106223","2018-01-19 08:00","2018","01","19","08:00","-33.4","","-36.8","","72","","0.0","","11","","11","","16.1","","100.68","","","","-44","","NA"
"-77.29","60.05","PUVIRNITUQ A","7106223","2018-01-19 09:00","2018","01","19","09:00","-34.5","","-38.1","","70","","0.0","","10","","5","","16.1","","100.70","","","","-41","","NA"
"-77.29","60.05","PUVIRNITUQ A","7106223","2018-01-19 10:00","2018","01","19","10:00","-33.6","","-37.2","","71","","0.0","","","","0","","16.1","","100.72","","","","","","NA"
"-77.29","60.05","PUVIRNITUQ A","7106223","2018-01-19 11:00","2018","01","19","11:00","-33.2","","-36.7","","72","","0.0","","5","","9","","16.1","","100.72","","","","-42","","NA"
"-77.29","60.05","PUVIRNITUQ A","7106223","2018-01-19 12:00","2018","01","19","12:00","-33.9","","-37.5","","71","","0.0","","10","","11","","16.1","","100.71","","","","-44","","NA"
"-77.29","60.05","PUVIRNITUQ A","7106223","2018-01-19 13:00","2018","01","19","13:00","-32.8","","-36.4","","71","","0.0","","10","","11","","16.1","","100.69","","","","-43","","NA"
"-77.29","60.05","PUVIRNITUQ A","7106223","2018-01-19 14:00","2018","01","19","14:00","-33.3","","-36.9","","71","","0.0","","11","","9","","16.1","","100.67","","","","-43","","NA"
"-77.29","60.05","PUVIRNITUQ A","7106223","2018-01-19 15:00","2018","01","19","15:00","-33.0","","-36.5","","72","","0.0","","9","","4","","14.5","","100.67","","","","-38","","NA"
"-77.29","60.05","PUVIRNITUQ A","7106223","2018-01-19 16:00","2018","01","19","16:00","-33.2","","-36.8","","71","","0.0","","5","","11","","16.1","","100.66","","","","-44","","NA"
"-77.29","60.05","PUVIRNITUQ A","7106223","2018-01-19 17:00","2018","01","19","17:00","-33.4","","-37.0","","71","","0.0","","9","","8","","16.1","","100.67","","","","-42","","NA"
"-77.29","60.05","PUVIRNITUQ A","7106223","2018-01-19 18:00","2018","01","19","18:00","-33.7","","-37.3","","71","","0.0","","6","","8","","16.1","","100.64","","","","-42","","NA"
"-77.29","60.05","PUVIRNITUQ A","7106223","2018-01-19 19:00","2018","01","19","19:00","-33.5","","-37.2","","70","","0.0","","8","","8","","16.1","","100.60","","","","-42","","NA"
"-77.29","60.05","PUVIRNITUQ A","7106223","2018-01-19 20:00","2018","01","19","20:00","-34.9","","-38.7","","69","","0.0","","10","","8","","16.1","","100.59","","","","-44","","NA"
"-77.29","60.05","PUVIRNITUQ A","7106223","2018-01-19 21:00","2018","01","19","21:00","-34.2","","-37.8","","71","","0.0","","16","","4","","16.1","","100.56","","","","-39","","NA"
"-77.29","60.05","PUVIRNITUQ A","7106223","2018-01-19 22:00","2018","01","19","22:00","-34.6","","-38.2","","70","","0.0","","10","","5","","16.1","","100.50","","","","-41","","NA"
"-77.29","60.05","PUVIRNITUQ A","7106223","2018-01-19 23:00","2018","01","19","23:00","-35.2","","-38.9","","70","","0.0","","2","","9","","16.1","","100.48","","","","-45","","NA"
"-77.29","60.05","PUVIRNITUQ A","7106223","2018-01-20 00:00","2018","01","20","00:00","-33.5","","-37.1","","71","","0.0","","34","","5","","16.1","","100.42","","","","-40","","NA"
"-77.29","60.05","PUVIRNITUQ A","7106223","2018-01-20 01:00","2018","01","20","01:00","-33.0","","-36.5","","72","","0.0","","2","","5","","16.1","","100.40","","","","-39","","Snow"
"-77.29","60.05","PUVIRNITUQ A","7106223","2018-01-20 02:00","2018","01","20","02:00","-32.5","","-36.0","","72","","0.0","","33","","11","","16.1","","100.39","","","","-43","","Snow"
"-77.29","60.05","PUVIRNITUQ A","7106223","2018-01-20 03:00","2018","01","20","03:00","-32.4","","-35.9","","72","","0.0","","32","","13","","16.1","","100.35","","","","-44","","NA"
"-77.29","60.05","PUVIRNITUQ A","7106223","2018-01-20 04:00","2018","01","20","04:00","-31.9","","-35.4","","72","","0.0","","32","","13","","16.1","","100.33","","","","-43","","NA"
"-77.29","60.05","PUVIRNITUQ A","7106223","2018-01-20 05:00","2018","01","20","05:00","-32.1","","-35.6","","72","","0.0","","33","","11","","16.1","","100.31","","","","-42","","NA"
"-77.29","60.05","PUVIRNITUQ A","7106223","2018-01-20 06:00","2018","01","20","06:00","-31.3","","-34.7","","73","","0.0","","32","","9","","16.1","","100.29","","","","-40","","NA"
"-77.29","60.05","PUVIRNITUQ A","7106223","2018-01-20 07:00","2018","01","20","07:00","-30.9","","-34.3","","73","","0.0","","32","","9","","16.1","","100.26","","","","-40","","NA"
"-77.29","60.05","PUVIRNITUQ A","7106223","2018-01-20 08:00","2018","01","20","08:00","-30.8","","-34.0","","74","","0.0","","32","","9","","16.1","","100.26","","","","-40","","NA"
"-77.29","60.05","PUVIRNITUQ A","7106223","2018-01-20 09:00","2018","01","20","09:00","-30.3","","-33.5","","74","","0.0","","3","","8","","16.1","","100.27","","","","-38","","NA"
"-77.29","60.05","PUVIRNITUQ A","7106223","2018-01-20 10:00","2018","01","20","10:00","-31.0","","-34.4","","73","","0.0","","6","","4","","16.1","","100.33","","","","-36","","NA"
"-77.29","60.05","PUVIRNITUQ A","7106223","2018-01-20 11:00","2018","01","20","11:00","-29.0","","-32.3","","74","","0.0","","10","","8","","16.1","","100.33","","","","-37","","NA"
"-77.29","60.05","PUVIRNITUQ A","7106223","2018-01-20 12:00","2018","01","20","12:00","-28.6","","-31.7","","75","","0.0","","7","","5","","16.1","","100.36","","","","-34","","NA"
"-77.29","60.05","PUVIRNITUQ A","7106223","2018-01-20 13:00","2018","01","20","13:00","-27.7","","-30.7","","76","","0.0","","24","","8","","16.1","","100.32","","","","-35","","NA"
"-77.29","60.05","PUVIRNITUQ A","7106223","2018-01-20 14:00","2018","01","20","14:00","-27.8","","-30.8","","76","","0.0","","6","","5","","16.1","","100.39","","","","-33","","NA"
"-77.29","60.05","PUVIRNITUQ A","7106223","2018-01-20 15:00","2018","01","20","15:00","-26.2","","-29.0","","78","","0.0","","31","","11","","16.1","","100.41","","","","-35","","NA"
"-77.29","60.05","PUVIRNITUQ A","7106223","2018-01-20 16:00","2018","01","20","16:00","-25.5","","-28.1","","79","","0.0","","27","","5","","16.1","","100.47","","","","-31","","NA"
"-77.29","60.05","PUVIRNITUQ A","7106223","2018-01-20 17:00","2018","01","20","17:00","-24.3","","-26.8","","80","","0.0","","29","","9","","4.8","","100.50","","","","-32","","Snow"
"-77.29","60.05","PUVIRNITUQ A","7106223","2018-01-20 18:00","2018","01","20","18:00","-23.7","","-26.2","","80","","0.0","","","","0","","6.4","","100.54","","","","","","Snow"
"-77.29","60.05","PUVIRNITUQ A","7106223","2018-01-20 19:00","2018","01","20","19:00","-22.5","","-24.8","","82","","0.0","","29","","11","","3.6","","100.55","","","","-31","","Snow"
"-77.29","60.05","PUVIRNITUQ A","7106223","2018-01-20 20:00","2018","01","20","20:00","-21.8","","-24.1","","82","","0.1","","31","","15","","16.1","","100.58","","","","-31","","Snow"
"-77.29","60.05","PUVIRNITUQ A","7106223","2018-01-20 21:00","2018","01","20","21:00","-21.2","","-23.4","","83","","0.0","","33","","22","","16.1","","100.59","","","","-32","","NA"
"-77.29","60.05","PUVIRNITUQ A","7106223","2018-01-20 22:00","2018","01","20","22:00","-20.5","","-22.7","","83","","0.0","","33","","15","","16.1","","100.62","","","","-30","","NA"
"-77.29","60.05","PUVIRNITUQ A","7106223","2018-01-20 23:00","2018","01","20","23:00","-20.1","","-22.2","","84","","0.0","","1","","24","","16.1","","100.63","","","","-32","","NA"
"-77.29","60.05","PUVIRNITUQ A","7106223","2018-01-21 00:00","2018","01","21","00:00","-19.8","","-21.9","","84","","0.0","","36","","34","","16.1","","100.63","","","","-33","","NA"
"-77.29","60.05","PUVIRNITUQ A","7106223","2018-01-21 01:00","2018","01","21","01:00","-22.2","","-24.5","","82","","0.0","","35","","22","","16.1","","100.70","","","","-34","","NA"
"-77.29","60.05","PUVIRNITUQ A","7106223","2018-01-21 02:00","2018","01","21","02:00","-22.0","","-24.3","","82","","0.0","","36","","22","","16.1","","100.76","","","","-34","","NA"
"-77.29","60.05","PUVIRNITUQ A","7106223","2018-01-21 03:00","2018","01","21","03:00","-23.1","","-25.5","","81","","0.0","","34","","21","","16.1","","100.82","","","","-35","","NA"
"-77.29","60.05","PUVIRNITUQ A","7106223","2018-01-21 04:00","2018","01","21","04:00","-23.3","","-25.9","","80","","0.0","","1","","26","","16.1","","100.88","","","","-36","","NA"
"-77.29","60.05","PUVIRNITUQ A","7106223","2018-01-21 05:00","2018","01","21","05:00","-24.1","","-26.6","","81","","0.0","","36","","22","","16.1","","100.95","","","","-36","","NA"
"-77.29","60.05","PUVIRNITUQ A","7106223","2018-01-21 06:00","2018","01","21","06:00","-23.5","","-26.0","","80","","0.0","","1","","21","","16.1","","101.00","","","","-35","","NA"
"-77.29","60.05","PUVIRNITUQ A","7106223","2018-01-21 07:00","2018","01","21","07:00","-24.9","","-27.7","","78","","0.0","","2","","13","","16.1","","101.12","","","","-34","","NA"
"-77.29","60.05","PUVIRNITUQ A","7106223","2018-01-21 08:00","2018","01","21","08:00","-26.3","","-29.1","","78","","0.0","","33","","13","","16.1","","101.16","","","","-36","","NA"
"-77.29","60.05","PUVIRNITUQ A","7106223","2018-01-21 09:00","2018","01","21","09:00","-27.7","","-30.4","","78","","0.0","","32","","15","","16.1","","101.19","","","","-39","","NA"
"-77.29","60.05","PUVIRNITUQ A","7106223","2018-01-21 10:00","2018","01","21","10:00","-28.6","","-31.6","","76","","0.0","","32","","18","","16.1","","101.23","","","","-41","","NA"
"-77.29","60.05","PUVIRNITUQ A","7106223","2018-01-21 11:00","2018","01","21","11:00","-27.0","","-29.8","","78","","0.0","","31","","26","","16.1","","101.23","","","","-41","","NA"
"-77.29","60.05","PUVIRNITUQ A","7106223","2018-01-21 12:00","2018","01","21","12:00","-25.4","","-28.0","","79","","0.0","","31","","30","","16.1","","101.25","","","","-40","","NA"
"-77.29","60.05","PUVIRNITUQ A","7106223","2018-01-21 13:00","2018","01","21","13:00","-24.1","","-26.6","","80","","0.0","","31","","18","","16.1","","101.32","","","","-35","","NA"
"-77.29","60.05","PUVIRNITUQ A","7106223","2018-01-21 14:00","2018","01","21","14:00","-23.1","","-25.5","","81","","0.0","","28","","21","","16.1","","101.36","","","","-35","","NA"
"-77.29","60.05","PUVIRNITUQ A","7106223","2018-01-21 15:00","2018","01","21","15:00","-22.4","","-25.0","","80","","0.0","","28","","22","","16.1","","101.43","","","","-34","","NA"
"-77.29","60.05","PUVIRNITUQ A","7106223","2018-01-21 16:00","2018","01","21","16:00","-24.4","","-26.9","","80","","0.0","","28","","22","","16.1","","101.49","","","","-37","","NA"
"-77.29","60.05","PUVIRNITUQ A","7106223","2018-01-21 17:00","2018","01","21","17:00","-24.8","","-27.3","","80","","0.0","","25","","30","","4.8","","101.50","","","","-39","","Fog"
"-77.29","60.05","PUVIRNITUQ A","7106223","2018-01-21 18:00","2018","01","21","18:00","-25.8","","-28.4","","79","","0.0","","27","","26","","9.7","","101.53","","","","-39","","Snow"
"-77.29","60.05","PUVIRNITUQ A","7106223","2018-01-21 19:00","2018","01","21","19:00","-26.7","","-29.5","","78","","0.0","","27","","26","","4.8","","101.57","","","","-40","","Snow"
"-77.29","60.05","PUVIRNITUQ A","7106223","2018-01-21 20:00","2018","01","21","20:00","-26.0","","-28.6","","79","","0.0","","28","","30","","4.8","","101.58","","","","-40","","Fog"
"-77.29","60.05","PUVIRNITUQ A","7106223","2018-01-21 21:00","2018","01","21","21:00","-26.5","","-29.2","","78","","0.0","","27","","26","","9.7","","101.61","","","","-40","","Haze"
"-77.29","60.05","PUVIRNITUQ A","7106223","2018-01-21 22:00","2018","01","21","22:00","-26.6","","-29.4","","78","","0.0","","28","","22","","2.8","","101.62","","","","-39","","Fog"
"-77.29","60.05","PUVIRNITUQ A","7106223","2018-01-21 23:00","2018","01","21","23:00","-26.9","","-29.7","","78","","0.0","","27","","22","","3.2","","101.69","","","","-40","","Snow"
"-77.29","60.05","PUVIRNITUQ A","7106223","2018-01-22 00:00","2018","01","22","00:00","-27.1","","-29.9","","78","","0.0","","27","","24","","3.2","","101.73","","","","-40","","Snow"
"-77.29","60.05","PUVIRNITUQ A","7106223","2018-01-22 01:00","2018","01","22","01:00","-27.2","","-30.0","","78","","0.0","","26","","30","","2.8","","101.72","","","","-42","","Snow"
"-77.29","60.05","PUVIRNITUQ A","7106223","2018-01-22 02:00","2018","01","22","02:00","-27.2","","-30.1","","77","","0.0","","26","","18","","2.4","","101.80","","","","-39","","Snow"
"-77.29","60.05","PUVIRNITUQ A","7106223","2018-01-22 03:00","2018","01","22","03:00","-27.9","","-30.9","","76","","0.0","","27","","28","","2.0","","101.82","","","","-42","","Snow"
"-77.29","60.05","PUVIRNITUQ A","7106223","2018-01-22 04:00","2018","01","22","04:00","-27.8","","-30.7","","77","","0.0","","25","","26","","2.8","","101.86","","","","-42","","Snow"
"-77.29","60.05","PUVIRNITUQ A","7106223","2018-01-22 05:00","2018","01","22","05:00","-28.2","","-31.2","","76","","0.0","","26","","22","","4.0","","101.88","","","","-41","","Snow"
"-77.29","60.05","PUVIRNITUQ A","7106223","2018-01-22 06:00","2018","01","22","06:00","-28.0","","-30.9","","77","","0.0","","26","","26","","3.6","","101.92","","","","-42","","Snow"
"-77.29","60.05","PUVIRNITUQ A","7106223","2018-01-22 07:00","2018","01","22","07:00","-27.6","","-30.6","","76","","0.0","","26","","35","","4.8","","101.89","","","","-43","","Snow"
"-77.29","60.05","PUVIRNITUQ A","7106223","2018-01-22 08:00","2018","01","22","08:00","-28.2","","-31.2","","76","","0.0","","25","","26","","2.4","","101.97","","","","-42","","Snow"
"-77.29","60.05","PUVIRNITUQ A","7106223","2018-01-22 09:00","2018","01","22","09:00","-28.1","","-31.1","","76","","0.0","","25","","24","","4.0","","102.00","","","","-42","","Haze"
"-77.29","60.05","PUVIRNITUQ A","7106223","2018-01-22 10:00","2018","01","22","10:00","-27.6","","-30.5","","77","","0.0","","25","","28","","4.8","","102.05","","","","-42","","Fog"
"-77.29","60.05","PUVIRNITUQ A","7106223","2018-01-22 11:00","2018","01","22","11:00","-26.7","","-29.5","","78","","0.0","","25","","22","","11.3","","102.10","","","","-39","","NA"
"-77.29","60.05","PUVIRNITUQ A","7106223","2018-01-22 12:00","2018","01","22","12:00","-25.9","","-28.5","","79","","0.0","","26","","28","","16.1","","102.08","","","","-40","","NA"
"-77.29","60.05","PUVIRNITUQ A","7106223","2018-01-22 13:00","2018","01","22","13:00","-25.5","","-28.1","","79","","0.0","","26","","24","","14.5","","102.09","","","","-38","","NA"
"-77.29","60.05","PUVIRNITUQ A","7106223","2018-01-22 14:00","2018","01","22","14:00","-25.8","","-28.5","","78","","0.0","","25","","26","","11.3","","102.11","","","","-39","","NA"
"-77.29","60.05","PUVIRNITUQ A","7106223","2018-01-22 15:00","2018","01","22","15:00","-25.7","","-28.3","","79","","0.0","","25","","28","","8.1","","102.14","","","","-40","","Fog"
"-77.29","60.05","PUVIRNITUQ A","7106223","2018-01-22 16:00","2018","01","22","16:00","-26.2","","-29.0","","78","","0.0","","25","","26","","14.5","","102.20","","","","-40","","NA"
"-77.29","60.05","PUVIRNITUQ A","7106223","2018-01-22 17:00","2018","01","22","17:00","-26.8","","-29.6","","78","","0.0","","26","","22","","9.7","","102.22","","","","-40","","Fog"
"-77.29","60.05","PUVIRNITUQ A","7106223","2018-01-22 18:00","2018","01","22","18:00","-26.5","","-29.3","","78","","0.0","","25","","22","","16.1","","102.25","","","","-39","","NA"
"-77.29","60.05","PUVIRNITUQ A","7106223","2018-01-22 19:00","2018","01","22","19:00","-27.2","","-29.8","","79","","0.0","","25","","26","","16.1","","102.23","","","","-41","","NA"
"-77.29","60.05","PUVIRNITUQ A","7106223","2018-01-22 20:00","2018","01","22","20:00","-27.5","","-30.4","","77","","0.0","","24","","18","","16.1","","102.24","","","","-39","","NA"
"-77.29","60.05","PUVIRNITUQ A","7106223","2018-01-22 21:00","2018","01","22","21:00","-27.9","","-30.8","","77","","0.0","","24","","21","","16.1","","102.25","","","","-41","","NA"
"-77.29","60.05","PUVIRNITUQ A","7106223","2018-01-22 22:00","2018","01","22","22:00","-25.8","","-28.4","","79","","0.0","","23","","21","","16.1","","102.24","","","","-38","","NA"
"-77.29","60.05","PUVIRNITUQ A","7106223","2018-01-22 23:00","2018","01","22","23:00","-24.2","","-26.7","","80","","0.0","","25","","26","","3.6","","102.25","","","","-37","","Snow"
"-77.29","60.05","PUVIRNITUQ A","7106223","2018-01-23 00:00","2018","01","23","00:00","-24.1","","-26.6","","80","","0.0","","25","","24","","6.4","","102.24","","","","-37","","Snow"
"-77.29","60.05","PUVIRNITUQ A","7106223","2018-01-23 01:00","2018","01","23","01:00","-24.6","","-27.1","","80","","0.0","","25","","24","","6.4","","102.25","","","","-37","","Snow"
"-77.29","60.05","PUVIRNITUQ A","7106223","2018-01-23 02:00","2018","01","23","02:00","-24.7","","-27.2","","80","","0.0","","25","","28","","4.8","","102.26","","","","-38","","Snow"
"-77.29","60.05","PUVIRNITUQ A","7106223","2018-01-23 03:00","2018","01","23","03:00","-24.2","","-26.7","","80","","0.0","","25","","28","","2.4","","102.27","","","","-38","","Snow"
"-77.29","60.05","PUVIRNITUQ A","7106223","2018-01-23 04:00","2018","01","23","04:00","-24.5","","-27.0","","80","","0.0","","25","","24","","6.4","","102.25","","","","-37","","Snow"
"-77.29","60.05","PUVIRNITUQ A","7106223","2018-01-23 05:00","2018","01","23","05:00","-24.5","","-27.0","","80","","0.0","","26","","21","","9.7","","102.28","","","","-36","","Haze"
"-77.29","60.05","PUVIRNITUQ A","7106223","2018-01-23 06:00","2018","01","23","06:00","-24.4","","-26.9","","80","","0.0","","26","","18","","12.9","","102.26","","","","-35","","Snow"
"-77.29","60.05","PUVIRNITUQ A","7106223","2018-01-23 07:00","2018","01","23","07:00","-24.5","","-27.0","","80","","0.0","","25","","17","","11.3","","102.26","","","","-35","","Snow"
"-77.29","60.05","PUVIRNITUQ A","7106223","2018-01-23 08:00","2018","01","23","08:00","-24.9","","-27.4","","80","","0.0","","25","","17","","16.1","","102.27","","","","-36","","NA"
"-77.29","60.05","PUVIRNITUQ A","7106223","2018-01-23 09:00","2018","01","23","09:00","-24.9","","-27.6","","79","","0.0","","24","","15","","16.1","","102.29","","","","-35","","Snow"
"-77.29","60.05","PUVIRNITUQ A","7106223","2018-01-23 10:00","2018","01","23","10:00","-24.4","","-26.9","","80","","0.0","","25","","13","","9.7","","102.29","","","","-34","","Snow"
"-77.29","60.05","PUVIRNITUQ A","7106223","2018-01-23 11:00","2018","01","23","11:00","-24.1","","-26.6","","80","","0.0","","27","","11","","9.7","","102.27","","","","-33","","Snow"
"-77.29","60.05","PUVIRNITUQ A","7106223","2018-01-23 12:00","2018","01","23","12:00","-24.1","","-26.6","","80","","0.0","","26","","11","","14.5","","102.25","","","","-33","","Snow"
"-77.29","60.05","PUVIRNITUQ A","7106223","2018-01-23 13:00","2018","01","23","13:00","-24.1","","-26.6","","80","","0.0","","27","","9","","14.5","","102.22","","","","-32","","NA"
"-77.29","60.05","PUVIRNITUQ A","7106223","2018-01-23 14:00","2018","01","23","14:00","-23.9","","-26.4","","80","","0.0","","27","","13","","12.9","","102.21","","","","-33","","Snow"
"-77.29","60.05","PUVIRNITUQ A","7106223","2018-01-23 15:00","2018","01","23","15:00","-24.5","","-27.2","","79","","0.0","","28","","8","","16.1","","102.23","","","","-32","","NA"
"-77.29","60.05","PUVIRNITUQ A","7106223","2018-01-23 16:00","2018","01","23","16:00","-25.1","","-27.7","","80","","0.0","","27","","9","","16.1","","102.23","","","","-33","","NA"
"-77.29","60.05","PUVIRNITUQ A","7106223","2018-01-23 17:00","2018","01","23","17:00","-24.7","","-27.2","","80","","0.0","","31","","5","","16.1","","102.23","","","","-30","","NA"
"-77.29","60.05","PUVIRNITUQ A","7106223","2018-01-23 18:00","2018","01","23","18:00","-25.1","","-27.6","","80","","0.0","","31","","8","","16.1","","102.22","","","","-32","","NA"
"-77.29","60.05","PUVIRNITUQ A","7106223","2018-01-23 19:00","2018","01","23","19:00","-24.5","","-27.0","","80","","0.0","","34","","5","","16.1","","102.20","","","","-29","","NA"
"-77.29","60.05","PUVIRNITUQ A","7106223","2018-01-23 20:00","2018","01","23","20:00","-24.6","","-27.1","","80","","0.0","","31","","5","","2.8","","102.21","","","","-29","","Snow"
"-77.29","60.05","PUVIRNITUQ A","7106223","2018-01-23 21:00","2018","01","23","21:00","-24.4","","-26.9","","80","","0.0","","32","","11","","16.1","","102.16","","","","-33","","Snow"
"-77.29","60.05","PUVIRNITUQ A","7106223","2018-01-23 22:00","2018","01","23","22:00","-24.4","","-26.9","","80","","0.0","","36","","8","","16.1","","102.14","","","","-31","","Snow"
"-77.29","60.05","PUVIRNITUQ A","7106223","2018-01-23 23:00","2018","01","23","23:00","-24.5","","-27.0","","80","","0.0","","33","","9","","16.1","","102.12","","","","-32","","Snow"
"-77.29","60.05","PUVIRNITUQ A","7106223","2018-01-24 00:00","2018","01","24","00:00","-24.5","","-27.0","","80","","0.0","","33","","4","","16.1","","102.13","","","","-28","","Snow"
"-77.29","60.05","PUVIRNITUQ A","7106223","2018-01-24 01:00","2018","01","24","01:00","-24.6","","-27.1","","80","","0.0","","34","","8","","16.1","","102.07","","","","-32","","NA"
"-77.29","60.05","PUVIRNITUQ A","7106223","2018-01-24 02:00","2018","01","24","02:00","-24.3","","-26.8","","80","","0.0","","32","","11","","16.1","","102.02","","","","-33","","Snow"
"-77.29","60.05","PUVIRNITUQ A","7106223","2018-01-24 03:00","2018","01","24","03:00","-24.3","","-26.8","","80","","0.0","","32","","9","","16.1","","102.04","","","","-32","","Snow"
"-77.29","60.05","PUVIRNITUQ A","7106223","2018-01-24 04:00","2018","01","24","04:00","-24.4","","-26.9","","80","","0.0","","33","","13","","16.1","","102.04","","","","-34","","Snow"
"-77.29","60.05","PUVIRNITUQ A","7106223","2018-01-24 05:00","2018","01","24","05:00","-25.0","","-27.7","","79","","0.0","","34","","15","","16.1","","102.01","","","","-35","","NA"
"-77.29","60.05","PUVIRNITUQ A","7106223","2018-01-24 06:00","2018","01","24","06:00","-25.1","","-27.6","","80","","0.0","","28","","13","","16.1","","101.97","","","","-35","","NA"
"-77.29","60.05","PUVIRNITUQ A","7106223","2018-01-24 07:00","2018","01","24","07:00","-26.4","","-29.2","","78","","0.0","","28","","11","","16.1","","101.95","","","","-35","","Snow"
"-77.29","60.05","PUVIRNITUQ A","7106223","2018-01-24 08:00","2018","01","24","08:00","-28.0","","-30.9","","77","","0.0","","30","","11","","16.1","","101.93","","","","-37","","NA"
"-77.29","60.05","PUVIRNITUQ A","7106223","2018-01-24 09:00","2018","01","24","09:00","-29.7","","-32.8","","75","","0.0","","31","","17","","16.1","","101.88","","","","-42","","NA"
"-77.29","60.05","PUVIRNITUQ A","7106223","2018-01-24 10:00","2018","01","24","10:00","-28.8","","-31.9","","75","","0.0","","36","","11","","16.1","","101.89","","","","-38","","NA"
"-77.29","60.05","PUVIRNITUQ A","7106223","2018-01-24 11:00","2018","01","24","11:00","-30.5","","-33.7","","74","","0.0","","31","","9","","16.1","","101.84","","","","-39","","NA"
"-77.29","60.05","PUVIRNITUQ A","7106223","2018-01-24 12:00","2018","01","24","12:00","-29.7","","-32.8","","75","","0.0","","36","","11","","16.1","","101.82","","","","-39","","NA"
"-77.29","60.05","PUVIRNITUQ A","7106223","2018-01-24 13:00","2018","01","24","13:00","-29.5","","-32.6","","75","","0.0","","31","","8","","16.1","","101.82","","","","-37","","NA"
"-77.29","60.05","PUVIRNITUQ A","7106223","2018-01-24 14:00","2018","01","24","14:00","-29.9","","-33.1","","74","","0.0","","30","","11","","16.1","","101.82","","","","-40","","NA"
"-77.29","60.05","PUVIRNITUQ A","7106223","2018-01-24 15:00","2018","01","24","15:00","-29.7","","-32.8","","75","","0.0","","31","","17","","16.1","","101.81","","","","-42","","NA"
"-77.29","60.05","PUVIRNITUQ A","7106223","2018-01-24 16:00","2018","01","24","16:00","-29.4","","-32.5","","75","","0.0","","32","","17","","16.1","","101.78","","","","-41","","NA"
"-77.29","60.05","PUVIRNITUQ A","7106223","2018-01-24 17:00","2018","01","24","17:00","-30.8","","-34.0","","74","","0.0","","32","","17","","16.1","","101.81","","","","-43","","NA"
"-77.29","60.05","PUVIRNITUQ A","7106223","2018-01-24 18:00","2018","01","24","18:00","-29.9","","-33.0","","75","","0.0","","32","","21","","16.1","","101.84","","","","-43","","NA"
"-77.29","60.05","PUVIRNITUQ A","7106223","2018-01-24 19:00","2018","01","24","19:00","-30.6","","-33.7","","75","","0.0","","32","","21","","16.1","","101.81","","","","-44","","NA"
"-77.29","60.05","PUVIRNITUQ A","7106223","2018-01-24 20:00","2018","01","24","20:00","-30.7","","-33.9","","74","","0.0","","31","","17","","16.1","","101.80","","","","-43","","NA"
"-77.29","60.05","PUVIRNITUQ A","7106223","2018-01-24 21:00","2018","01","24","21:00","-30.1","","-33.3","","74","","0.0","","28","","8","","16.1","","101.81","","","","-38","","NA"
"-77.29","60.05","PUVIRNITUQ A","7106223","2018-01-24 22:00","2018","01","24","22:00","-30.2","","-33.1","","77","","0.0","","28","","15","","16.1","","101.80","","","","-42","","NA"
"-77.29","60.05","PUVIRNITUQ A","7106223","2018-01-24 23:00","2018","01","24","23:00","-30.6","","-34.0","","73","","0.0","","31","","11","","16.1","","101.77","","","","-40","","NA"
"-77.29","60.05","PUVIRNITUQ A","7106223","2018-01-25 00:00","2018","01","25","00:00","-30.4","","-33.6","","74","","0.0","","27","","5","","16.1","","101.74","","","","-36","","NA"
"-77.29","60.05","PUVIRNITUQ A","7106223","2018-01-25 01:00","2018","01","25","01:00","-31.1","","-34.4","","73","","0.0","","30","","17","","16.1","","101.72","","","","-44","","NA"
"-77.29","60.05","PUVIRNITUQ A","7106223","2018-01-25 02:00","2018","01","25","02:00","-29.4","","-32.4","","76","","0.0","","28","","15","","16.1","","101.73","","","","-41","","NA"
"-77.29","60.05","PUVIRNITUQ A","7106223","2018-01-25 03:00","2018","01","25","03:00","-30.0","","-33.2","","74","","0.0","","28","","15","","16.1","","101.75","","","","-41","","NA"
"-77.29","60.05","PUVIRNITUQ A","7106223","2018-01-25 04:00","2018","01","25","04:00","-29.9","","-33.1","","74","","0.0","","27","","17","","16.1","","101.78","","","","-42","","NA"
"-77.29","60.05","PUVIRNITUQ A","7106223","2018-01-25 05:00","2018","01","25","05:00","-28.8","","-31.8","","76","","0.0","","28","","22","","11.3","","101.78","","","","-42","","Snow"
"-77.29","60.05","PUVIRNITUQ A","7106223","2018-01-25 06:00","2018","01","25","06:00","-28.0","","-31.0","","76","","0.0","","27","","15","","4.8","","101.80","","","","-39","","Snow"
"-77.29","60.05","PUVIRNITUQ A","7106223","2018-01-25 07:00","2018","01","25","07:00","-27.1","","-29.9","","78","","0.0","","25","","9","","16.1","","101.78","","","","-35","","Snow"
"-77.29","60.05","PUVIRNITUQ A","7106223","2018-01-25 08:00","2018","01","25","08:00","-26.9","","-29.8","","77","","0.0","","26","","15","","16.1","","101.76","","","","-38","","Snow"
"-77.29","60.05","PUVIRNITUQ A","7106223","2018-01-25 09:00","2018","01","25","09:00","-27.5","","-30.4","","77","","0.0","","27","","24","","16.1","","101.77","","","","-41","","NA"
"-77.29","60.05","PUVIRNITUQ A","7106223","2018-01-25 10:00","2018","01","25","10:00","-27.2","","-30.4","","75","","0.0","","29","","18","","16.1","","101.81","","","","-39","","NA"
"-77.29","60.05","PUVIRNITUQ A","7106223","2018-01-25 11:00","2018","01","25","11:00","-25.7","","-28.5","","78","","0.0","","29","","28","","2.4","","101.82","","","","-40","","Fog"
"-77.29","60.05","PUVIRNITUQ A","7106223","2018-01-25 12:00","2018","01","25","12:00","-22.7","","-25.0","","82","","0.0","","29","","26","","8.1","","101.84","","","","-35","","Fog"
"-77.29","60.05","PUVIRNITUQ A","7106223","2018-01-25 13:00","2018","01","25","13:00","-22.4","","-24.8","","81","","0.0","","29","","24","","6.4","","101.85","","","","-34","","Snow"
"-77.29","60.05","PUVIRNITUQ A","7106223","2018-01-25 14:00","2018","01","25","14:00","-21.9","","-24.2","","82","","0.0","","30","","26","","6.4","","101.87","","","","-34","","Fog"
"-77.29","60.05","PUVIRNITUQ A","7106223","2018-01-25 15:00","2018","01","25","15:00","-20.5","","-22.6","","84","","0.0","","29","","32","","1.2","","101.91","","","","-34","","Snow"
"-77.29","60.05","PUVIRNITUQ A","7106223","2018-01-25 16:00","2018","01","25","16:00","-19.9","","-22.0","","84","","0.0","","29","","22","","11.3","","101.97","","","","-31","","Snow"
"-77.29","60.05","PUVIRNITUQ A","7106223","2018-01-25 17:00","2018","01","25","17:00","-19.9","","-22.0","","84","","0.0","","28","","32","","1.6","","102.02","","","","-33","","Snow"
"-77.29","60.05","PUVIRNITUQ A","7106223","2018-01-25 18:00","2018","01","25","18:00","-20.2","","-22.3","","84","","0.0","","28","","30","","2.8","","102.06","","","","-33","","Snow"
"-77.29","60.05","PUVIRNITUQ A","7106223","2018-01-25 19:00","2018","01","25","19:00","-20.4","","-22.4","","84","","0.0","","27","","34","","2.0","","102.06","","","","-34","","Snow"
"-77.29","60.05","PUVIRNITUQ A","7106223","2018-01-25 20:00","2018","01","25","20:00","-23.4","","-25.9","","81","","0.0","","26","","26","","16.1","","102.07","","","","-36","","NA"
"-77.29","60.05","PUVIRNITUQ A","7106223","2018-01-25 21:00","2018","01","25","21:00","-25.0","","-27.6","","79","","0.0","","25","","22","","16.1","","102.12","","","","-37","","NA"
"-77.29","60.05","PUVIRNITUQ A","7106223","2018-01-25 22:00","2018","01","25","22:00","-24.8","","-27.2","","81","","0.0","","25","","22","","16.1","","102.17","","","","-37","","NA"
"-77.29","60.05","PUVIRNITUQ A","7106223","2018-01-25 23:00","2018","01","25","23:00","-25.8","","-28.6","","78","","0.0","","26","","24","","16.1","","102.20","","","","-39","","NA"
"-77.29","60.05","PUVIRNITUQ A","7106223","2018-01-26 00:00","2018","01","26","00:00","-24.8","","-27.3","","80","","0.0","","26","","15","","16.1","","102.19","","","","-35","","NA"
"-77.29","60.05","PUVIRNITUQ A","7106223","2018-01-26 01:00","2018","01","26","01:00","-24.8","","-27.5","","79","","0.0","","23","","21","","16.1","","102.19","","","","-37","","Snow"
"-77.29","60.05","PUVIRNITUQ A","7106223","2018-01-26 02:00","2018","01","26","02:00","-23.2","","-25.6","","81","","0.0","","22","","21","","11.3","","102.22","","","","-35","","Snow"
"-77.29","60.05","PUVIRNITUQ A","7106223","2018-01-26 03:00","2018","01","26","03:00","-23.7","","-26.2","","80","","0.0","","22","","22","","16.1","","102.22","","","","-36","","Snow"
"-77.29","60.05","PUVIRNITUQ A","7106223","2018-01-26 04:00","2018","01","26","04:00","-24.5","","-27.0","","80","","0.0","","21","","22","","16.1","","102.22","","","","-37","","Snow"
"-77.29","60.05","PUVIRNITUQ A","7106223","2018-01-26 05:00","2018","01","26","05:00","-24.0","","-26.5","","80","","0.0","","21","","28","","9.7","","102.23","","","","-37","","Snow"
"-77.29","60.05","PUVIRNITUQ A","7106223","2018-01-26 06:00","2018","01","26","06:00","-24.3","","-26.8","","80","","0.0","","20","","24","","14.5","","102.24","","","","-37","","Snow"
"-77.29","60.05","PUVIRNITUQ A","7106223","2018-01-26 07:00","2018","01","26","07:00","-25.8","","-28.6","","78","","0.0","","18","","21","","11.3","","102.25","","","","-38","","Snow"
"-77.29","60.05","PUVIRNITUQ A","7106223","2018-01-26 08:00","2018","01","26","08:00","-26.6","","-29.4","","78","","0.0","","18","","21","","6.4","","102.25","","","","-39","","Snow"
"-77.29","60.05","PUVIRNITUQ A","7106223","2018-01-26 09:00","2018","01","26","09:00","-25.7","","-28.3","","79","","0.0","","18","","17","","4.8","","102.26","","","","-37","","Snow"
"-77.29","60.05","PUVIRNITUQ A","7106223","2018-01-26 10:00","2018","01","26","10:00","-25.1","","-27.8","","79","","0.0","","18","","30","","2.4","","102.23","","","","-39","","Snow"
"-77.29","60.05","PUVIRNITUQ A","7106223","2018-01-26 11:00","2018","01","26","11:00","-24.7","","-27.2","","80","","0.0","","18","","30","","1.6","","102.18","","","","-39","","Snow"
"-77.29","60.05","PUVIRNITUQ A","7106223","2018-01-26 12:00","2018","01","26","12:00","-24.1","","-26.6","","80","","0.0","","19","","32","","2.0","","102.14","","","","-38","","Fog"
"-77.29","60.05","PUVIRNITUQ A","7106223","2018-01-26 13:00","2018","01","26","13:00","-24.4","","-26.9","","80","","0.0","","18","","32","","4.8","","102.11","","","","-39","","Snow"
"-77.29","60.05","PUVIRNITUQ A","7106223","2018-01-26 14:00","2018","01","26","14:00","-23.6","","-26.0","","81","","0.0","","17","","26","","6.4","","102.09","","","","-36","","Snow"
"-77.29","60.05","PUVIRNITUQ A","7106223","2018-01-26 15:00","2018","01","26","15:00","-24.9","","-27.6","","79","","0.0","","16","","22","","16.1","","102.06","","","","-37","","Snow"
"-77.29","60.05","PUVIRNITUQ A","7106223","2018-01-26 16:00","2018","01","26","16:00","-25.4","","-28.1","","79","","0.0","","17","","21","","16.1","","102.02","","","","-38","","Snow"
"-77.29","60.05","PUVIRNITUQ A","7106223","2018-01-26 17:00","2018","01","26","17:00","-26.0","","-28.6","","79","","0.0","","16","","21","","16.1","","102.01","","","","-38","","Snow"
"-77.29","60.05","PUVIRNITUQ A","7106223","2018-01-26 18:00","2018","01","26","18:00","-25.5","","-28.5","","77","","0.0","","13","","17","","16.1","","102.01","","","","-37","","NA"
"-77.29","60.05","PUVIRNITUQ A","7106223","2018-01-26 19:00","2018","01","26","19:00","-26.8","","-29.5","","79","","0.0","","12","","18","","16.1","","101.97","","","","-38","","NA"
"-77.29","60.05","PUVIRNITUQ A","7106223","2018-01-26 20:00","2018","01","26","20:00","-26.5","","-29.1","","79","","0.0","","13","","22","","16.1","","101.92","","","","-39","","NA"
"-77.29","60.05","PUVIRNITUQ A","7106223","2018-01-26 21:00","2018","01","26","21:00","-27.0","","-29.6","","79","","0.0","","12","","22","","16.1","","101.85","","","","-40","","NA"
"-77.29","60.05","PUVIRNITUQ A","7106223","2018-01-26 22:00","2018","01","26","22:00","-26.5","","-29.3","","78","","0.0","","11","","26","","16.1","","101.79","","","","-40","","NA"
"-77.29","60.05","PUVIRNITUQ A","7106223","2018-01-26 23:00","2018","01","26","23:00","-26.5","","-29.3","","78","","0.0","","11","","26","","16.1","","101.71","","","","-40","","NA"
"-77.29","60.05","PUVIRNITUQ A","7106223","2018-01-27 00:00","2018","01","27","00:00","-26.9","","-29.8","","77","","0.0","","11","","24","","16.1","","101.62","","","","-40","","NA"
"-77.29","60.05","PUVIRNITUQ A","7106223","2018-01-27 01:00","2018","01","27","01:00","-26.8","","-29.6","","78","","0.0","","12","","22","","16.1","","101.55","","","","-40","","NA"
"-77.29","60.05","PUVIRNITUQ A","7106223","2018-01-27 02:00","2018","01","27","02:00","-25.2","","-27.7","","80","","0.0","","10","","18","","16.1","","101.48","","","","-36","","NA"
"-77.29","60.05","PUVIRNITUQ A","7106223","2018-01-27 03:00","2018","01","27","03:00","-24.3","","-26.8","","80","","0.0","","9","","11","","16.1","","101.37","","","","-33","","Snow"
"-77.29","60.05","PUVIRNITUQ A","7106223","2018-01-27 04:00","2018","01","27","04:00","-23.7","","-26.1","","81","","0.0","","8","","9","","16.1","","101.31","","","","-31","","NA"
"-77.29","60.05","PUVIRNITUQ A","7106223","2018-01-27 05:00","2018","01","27","05:00","-23.5","","-25.9","","81","","0.0","","7","","11","","16.1","","101.23","","","","-32","","NA"
"-77.29","60.05","PUVIRNITUQ A","7106223","2018-01-27 06:00","2018","01","27","06:00","-23.4","","-25.8","","81","","0.0","","7","","11","","16.1","","101.17","","","","-32","","Snow"
"-77.29","60.05","PUVIRNITUQ A","7106223","2018-01-27 07:00","2018","01","27","07:00","-22.9","","-25.3","","81","","0.0","","10","","18","","12.9","","101.09","","","","-34","","Snow"
"-77.29","60.05","PUVIRNITUQ A","7106223","2018-01-27 08:00","2018","01","27","08:00","-22.6","","-24.9","","82","","0.0","","6","","13","","6.4","","101.00","","","","-32","","Snow"
"-77.29","60.05","PUVIRNITUQ A","7106223","2018-01-27 09:00","2018","01","27","09:00","-22.6","","-24.9","","82","","0.0","","7","","13","","14.5","","100.92","","","","-32","","Snow"
"-77.29","60.05","PUVIRNITUQ A","7106223","2018-01-27 10:00","2018","01","27","10:00","-22.3","","-24.6","","82","","0.0","","6","","21","","4.8","","100.87","","","","-34","","Snow"
"-77.29","60.05","PUVIRNITUQ A","7106223","2018-01-27 11:00","2018","01","27","11:00","-22.2","","-24.5","","82","","0.1","","6","","22","","4.0","","100.78","","","","-34","","Snow"
"-77.29","60.05","PUVIRNITUQ A","7106223","2018-01-27 12:00","2018","01","27","12:00","-22.0","","-24.3","","82","","0.0","","6","","18","","4.8","","100.71","","","","-32","","Snow"
"-77.29","60.05","PUVIRNITUQ A","7106223","2018-01-27 13:00","2018","01","27","13:00","-21.9","","-24.2","","82","","0.0","","7","","11","","4.8","","100.64","","","","-30","","Snow"
"-77.29","60.05","PUVIRNITUQ A","7106223","2018-01-27 14:00","2018","01","27","14:00","-21.7","","-24.0","","82","","0.0","","5","","18","","4.8","","100.59","","","","-32","","Snow"
"-77.29","60.05","PUVIRNITUQ A","7106223","2018-01-27 15:00","2018","01","27","15:00","-21.8","","-24.1","","82","","0.1","","5","","24","","6.4","","100.58","","","","-34","","Snow"
"-77.29","60.05","PUVIRNITUQ A","7106223","2018-01-27 16:00","2018","01","27","16:00","-21.8","","-24.1","","82","","0.0","","5","","18","","16.1","","100.55","","","","-32","","Snow"
"-77.29","60.05","PUVIRNITUQ A","7106223","2018-01-27 17:00","2018","01","27","17:00","-21.6","","-23.8","","83","","0.0","","4","","15","","4.8","","100.56","","","","-31","","Snow"
"-77.29","60.05","PUVIRNITUQ A","7106223","2018-01-27 18:00","2018","01","27","18:00","-21.6","","-23.8","","83","","0.1","","2","","15","","2.8","","100.54","","","","-31","","Snow"
"-77.29","60.05","PUVIRNITUQ A","7106223","2018-01-27 19:00","2018","01","27","19:00","-22.0","","-24.3","","82","","0.0","","1","","13","","8.1","","100.53","","","","-31","","Snow"
"-77.29","60.05","PUVIRNITUQ A","7106223","2018-01-27 20:00","2018","01","27","20:00","-22.1","","-24.4","","82","","0.0","","36","","15","","9.7","","100.54","","","","-32","","Snow"
"-77.29","60.05","PUVIRNITUQ A","7106223","2018-01-27 21:00","2018","01","27","21:00","-22.1","","-24.4","","82","","0.0","","35","","17","","16.1","","100.53","","","","-32","","Snow"
"-77.29","60.05","PUVIRNITUQ A","7106223","2018-01-27 22:00","2018","01","27","22:00","-22.0","","-24.3","","82","","0.0","","34","","17","","12.9","","100.50","","","","-32","","Snow"
"-77.29","60.05","PUVIRNITUQ A","7106223","2018-01-27 23:00","2018","01","27","23:00","-22.1","","-24.4","","82","","0.0","","35","","17","","11.3","","100.51","","","","-32","","Snow"
"-77.29","60.05","PUVIRNITUQ A","7106223","2018-01-28 00:00","2018","01","28","00:00","-22.1","","-24.4","","82","","0.0","","32","","18","","4.8","","100.53","","","","-33","","Snow"
"-77.29","60.05","PUVIRNITUQ A","7106223","2018-01-28 01:00","2018","01","28","01:00","-22.1","","-24.4","","82","","0.0","","32","","22","","9.7","","100.53","","","","-34","","Snow"
"-77.29","60.05","PUVIRNITUQ A","7106223","2018-01-28 02:00","2018","01","28","02:00","-25.0","","-27.7","","79","","0.0","","32","","24","","9.7","","100.58","","","","-38","","Snow"
"-77.29","60.05","PUVIRNITUQ A","7106223","2018-01-28 03:00","2018","01","28","03:00","-24.6","","-27.1","","80","","0.0","","32","","22","","11.3","","100.61","","","","-37","","Snow"
"-77.29","60.05","PUVIRNITUQ A","7106223","2018-01-28 04:00","2018","01","28","04:00","-26.4","","-29.2","","78","","0.0","","29","","21","","16.1","","100.67","","","","-39","","Snow"
"-77.29","60.05","PUVIRNITUQ A","7106223","2018-01-28 05:00","2018","01","28","05:00","-27.1","","-29.9","","78","","0.0","","31","","17","","14.5","","100.72","","","","-39","","NA"
"-77.29","60.05","PUVIRNITUQ A","7106223","2018-01-28 06:00","2018","01","28","06:00","-27.1","","-29.8","","79","","0.0","","29","","18","","16.1","","100.78","","","","-39","","NA"
"-77.29","60.05","PUVIRNITUQ A","7106223","2018-01-28 07:00","2018","01","28","07:00","-24.8","","-27.3","","80","","0.0","","29","","13","","16.1","","100.84","","","","-34","","Snow"
"-77.29","60.05","PUVIRNITUQ A","7106223","2018-01-28 08:00","2018","01","28","08:00","-22.6","","-25.0","","81","","0.0","","28","","28","","8.1","","100.87","","","","-36","","Snow"
"-77.29","60.05","PUVIRNITUQ A","7106223","2018-01-28 09:00","2018","01","28","09:00","-25.5","","-28.1","","79","","0.0","","28","","28","","4.0","","100.91","","","","-39","","Snow"
"-77.29","60.05","PUVIRNITUQ A","7106223","2018-01-28 10:00","2018","01","28","10:00","-25.7","","-28.3","","79","","0.0","","28","","26","","4.8","","100.97","","","","-39","","Fog"
"-77.29","60.05","PUVIRNITUQ A","7106223","2018-01-28 11:00","2018","01","28","11:00","-25.9","","-28.5","","79","","0.0","","27","","24","","4.0","","101.02","","","","-39","","Snow"
"-77.29","60.05","PUVIRNITUQ A","7106223","2018-01-28 12:00","2018","01","28","12:00","-26.1","","-28.7","","79","","0.0","","25","","15","","16.1","","101.07","","","","-37","","NA"
"-77.29","60.05","PUVIRNITUQ A","7106223","2018-01-28 13:00","2018","01","28","13:00","-25.5","","-28.1","","79","","0.0","","28","","15","","6.4","","101.08","","","","-36","","Haze"
"-77.29","60.05","PUVIRNITUQ A","7106223","2018-01-28 14:00","2018","01","28","14:00","-25.6","","-28.2","","79","","0.0","","26","","17","","12.9","","101.11","","","","-37","","Snow"
"-77.29","60.05","PUVIRNITUQ A","7106223","2018-01-28 15:00","2018","01","28","15:00","-26.7","","-29.5","","78","","0.0","","27","","18","","12.9","","101.15","","","","-38","","NA"
"-77.29","60.05","PUVIRNITUQ A","7106223","2018-01-28 16:00","2018","01","28","16:00","-26.6","","-29.4","","78","","0.0","","27","","22","","16.1","","101.24","","","","-39","","NA"
"-77.29","60.05","PUVIRNITUQ A","7106223","2018-01-28 17:00","2018","01","28","17:00","-28.0","","-30.9","","77","","0.0","","27","","22","","16.1","","101.31","","","","-41","","NA"
"-77.29","60.05","PUVIRNITUQ A","7106223","2018-01-28 18:00","2018","01","28","18:00","-28.2","","-31.1","","77","","0.0","","24","","18","","16.1","","101.36","","","","-40","","NA"
"-77.29","60.05","PUVIRNITUQ A","7106223","2018-01-28 19:00","2018","01","28","19:00","-28.4","","-31.5","","75","","0.0","","26","","18","","16.1","","101.41","","","","-40","","NA"
"-77.29","60.05","PUVIRNITUQ A","7106223","2018-01-28 20:00","2018","01","28","20:00","-28.5","","-31.4","","77","","0.0","","25","","21","","16.1","","101.41","","","","-41","","NA"
"-77.29","60.05","PUVIRNITUQ A","7106223","2018-01-28 21:00","2018","01","28","21:00","-29.6","","-32.7","","75","","0.0","","26","","24","","16.1","","101.44","","","","-44","","NA"
"-77.29","60.05","PUVIRNITUQ A","7106223","2018-01-28 22:00","2018","01","28","22:00","-28.8","","-31.7","","77","","0.0","","27","","21","","6.4","","101.47","","","","-42","","Snow"
"-77.29","60.05","PUVIRNITUQ A","7106223","2018-01-28 23:00","2018","01","28","23:00","-27.4","","-30.3","","77","","0.0","","27","","17","","4.8","","101.50","","","","-39","","Snow"
"-77.29","60.05","PUVIRNITUQ A","7106223","2018-01-29 00:00","2018","01","29","00:00","-26.8","","-29.6","","78","","0.0","","25","","17","","8.1","","101.50","","","","-38","","Snow"
"-77.29","60.05","PUVIRNITUQ A","7106223","2018-01-29 01:00","2018","01","29","01:00","-28.0","","-30.9","","77","","0.0","","27","","24","","16.1","","101.53","","","","-42","","Snow"
"-77.29","60.05","PUVIRNITUQ A","7106223","2018-01-29 02:00","2018","01","29","02:00","-28.8","","-31.8","","76","","0.0","","25","","22","","4.8","","101.57","","","","-42","","Haze"
"-77.29","60.05","PUVIRNITUQ A","7106223","2018-01-29 03:00","2018","01","29","03:00","-29.1","","-32.2","","75","","0.0","","25","","26","","4.8","","101.60","","","","-44","","Snow"
"-77.29","60.05","PUVIRNITUQ A","7106223","2018-01-29 04:00","2018","01","29","04:00","-29.4","","-32.5","","75","","0.0","","25","","22","","16.1","","101.63","","","","-43","","Snow"
"-77.29","60.05","PUVIRNITUQ A","7106223","2018-01-29 05:00","2018","01","29","05:00","-29.8","","-33.0","","74","","0.0","","25","","24","","8.1","","101.66","","","","-44","","Haze"
"-77.29","60.05","PUVIRNITUQ A","7106223","2018-01-29 06:00","2018","01","29","06:00","-29.2","","-32.2","","76","","0.0","","24","","21","","16.1","","101.72","","","","-42","","NA"
"-77.29","60.05","PUVIRNITUQ A","7106223","2018-01-29 07:00","2018","01","29","07:00","-28.6","","-31.7","","75","","0.0","","23","","22","","11.3","","101.73","","","","-42","","Snow"
"-77.29","60.05","PUVIRNITUQ A","7106223","2018-01-29 08:00","2018","01","29","08:00","-26.8","","-29.6","","78","","0.0","","24","","21","","4.8","","101.73","","","","-39","","Snow"
"-77.29","60.05","PUVIRNITUQ A","7106223","2018-01-29 09:00","2018","01","29","09:00","-24.7","","-27.3","","80","","0.1","","24","","21","","11.3","","101.74","","","","-37","","Snow"
"-77.29","60.05","PUVIRNITUQ A","7106223","2018-01-29 10:00","2018","01","29","10:00","-24.1","","-26.6","","80","","0.0","","26","","22","","9.7","","101.76","","","","-36","","Snow"
"-77.29","60.05","PUVIRNITUQ A","7106223","2018-01-29 11:00","2018","01","29","11:00","-24.9","","-27.6","","79","","0.0","","24","","21","","16.1","","101.77","","","","-37","","Snow"
"-77.29","60.05","PUVIRNITUQ A","7106223","2018-01-29 12:00","2018","01","29","12:00","-24.5","","-27.0","","80","","0.0","","23","","21","","9.7","","101.77","","","","-36","","Snow"
"-77.29","60.05","PUVIRNITUQ A","7106223","2018-01-29 13:00","2018","01","29","13:00","-24.1","","-26.6","","80","","0.0","","22","","21","","16.1","","101.75","","","","-36","","NA"
"-77.29","60.05","PUVIRNITUQ A","7106223","2018-01-29 14:00","2018","01","29","14:00","-22.9","","-25.3","","81","","0.0","","22","","24","","6.4","","101.76","","","","-35","","Snow"
"-77.29","60.05","PUVIRNITUQ A","7106223","2018-01-29 15:00","2018","01","29","15:00","-22.1","","-24.4","","82","","0.0","","22","","30","","1.6","","101.76","","","","-35","","Snow"
"-77.29","60.05","PUVIRNITUQ A","7106223","2018-01-29 16:00","2018","01","29","16:00","-22.1","","-24.4","","82","","0.0","","23","","35","","1.2","","101.77","","","","-36","","Snow"
"-77.29","60.05","PUVIRNITUQ A","7106223","2018-01-29 17:00","2018","01","29","17:00","-21.9","","-24.2","","82","","0.0","","23","","35","","2.0","","101.82","","","","-36","","Snow"
"-77.29","60.05","PUVIRNITUQ A","7106223","2018-01-29 18:00","2018","01","29","18:00","-22.3","","-24.7","","81","","0.0","","25","","39","","1.2","","101.84","","","","-37","","Snow"
"-77.29","60.05","PUVIRNITUQ A","7106223","2018-01-29 19:00","2018","01","29","19:00","-25.2","","-27.9","","79","","0.0","","26","","34","","2.0","","101.92","","","","-40","","Haze"
"-77.29","60.05","PUVIRNITUQ A","7106223","2018-01-29 20:00","2018","01","29","20:00","-27.2","","-30.1","","77","","0.0","","24","","22","","12.9","","101.96","","","","-40","","NA"
"-77.29","60.05","PUVIRNITUQ A","7106223","2018-01-29 21:00","2018","01","29","21:00","-27.4","","-30.3","","77","","0.0","","24","","22","","11.3","","102.00","","","","-40","","NA"
"-77.29","60.05","PUVIRNITUQ A","7106223","2018-01-29 22:00","2018","01","29","22:00","-28.3","","-31.2","","77","","0.0","","23","","21","","16.1","","102.00","","","","-41","","NA"
"-77.29","60.05","PUVIRNITUQ A","7106223","2018-01-29 23:00","2018","01","29","23:00","-28.5","","-31.5","","76","","0.0","","23","","22","","16.1","","101.99","","","","-42","","NA"
"-77.29","60.05","PUVIRNITUQ A","7106223","2018-01-30 00:00","2018","01","30","00:00","-28.4","","-31.4","","76","","0.0","","22","","21","","16.1","","102.02","","","","-41","","NA"
"-77.29","60.05","PUVIRNITUQ A","7106223","2018-01-30 01:00","2018","01","30","01:00","-29.4","","-32.2","","77","","0.0","","20","","17","","16.1","","102.04","","","","-41","","Snow"
"-77.29","60.05","PUVIRNITUQ A","7106223","2018-01-30 02:00","2018","01","30","02:00","-29.7","","-32.8","","75","","0.0","","18","","17","","6.4","","102.02","","","","-42","","Snow"
"-77.29","60.05","PUVIRNITUQ A","7106223","2018-01-30 03:00","2018","01","30","03:00","-28.0","","-30.9","","77","","0.0","","20","","18","","3.2","","102.06","","","","-40","","Snow"
"-77.29","60.05","PUVIRNITUQ A","7106223","2018-01-30 04:00","2018","01","30","04:00","-26.8","","-29.6","","78","","0.0","","19","","22","","2.8","","102.07","","","","-40","","Snow"
"-77.29","60.05","PUVIRNITUQ A","7106223","2018-01-30 05:00","2018","01","30","05:00","-26.8","","-29.7","","77","","0.0","","19","","24","","2.4","","102.11","","","","-40","","Snow"
"-77.29","60.05","PUVIRNITUQ A","7106223","2018-01-30 06:00","2018","01","30","06:00","-27.7","","-30.7","","77","","0.0","","19","","22","","3.2","","102.13","","","","-41","","Snow"
"-77.29","60.05","PUVIRNITUQ A","7106223","2018-01-30 07:00","2018","01","30","07:00","-29.1","","-32.2","","75","","0.0","","18","","18","","3.2","","102.14","","","","-41","","Snow"
"-77.29","60.05","PUVIRNITUQ A","7106223","2018-01-30 08:00","2018","01","30","08:00","-29.3","","-32.3","","76","","0.0","","18","","21","","2.4","","102.14","","","","-43","","Snow"
"-77.29","60.05","PUVIRNITUQ A","7106223","2018-01-30 09:00","2018","01","30","09:00","-28.9","","-31.9","","76","","0.0","","18","","17","","2.8","","102.14","","","","-41","","Snow"
"-77.29","60.05","PUVIRNITUQ A","7106223","2018-01-30 10:00","2018","01","30","10:00","-28.8","","-31.8","","76","","0.0","","18","","24","","3.6","","102.14","","","","-43","","Snow"
"-77.29","60.05","PUVIRNITUQ A","7106223","2018-01-30 11:00","2018","01","30","11:00","-27.9","","-30.9","","76","","0.0","","18","","26","","2.8","","102.14","","","","-42","","Snow"
"-77.29","60.05","PUVIRNITUQ A","7106223","2018-01-30 12:00","2018","01","30","12:00","-27.8","","-30.8","","76","","0.0","","18","","21","","3.2","","102.12","","","","-41","","Snow"
"-77.29","60.05","PUVIRNITUQ A","7106223","2018-01-30 13:00","2018","01","30","13:00","-28.0","","-31.0","","76","","0.0","","18","","17","","8.1","","102.11","","","","-40","","Haze"
"-77.29","60.05","PUVIRNITUQ A","7106223","2018-01-30 14:00","2018","01","30","14:00","-28.2","","-31.2","","76","","0.0","","18","","18","","16.1","","102.13","","","","-40","","NA"
"-77.29","60.05","PUVIRNITUQ A","7106223","2018-01-30 15:00","2018","01","30","15:00","-28.1","","-31.1","","76","","0.0","","18","","17","","12.9","","102.15","","","","-40","","Snow"
"-77.29","60.05","PUVIRNITUQ A","7106223","2018-01-30 16:00","2018","01","30","16:00","-29.1","","-32.2","","75","","0.0","","17","","15","","6.4","","102.17","","","","-40","","Snow"
"-77.29","60.05","PUVIRNITUQ A","7106223","2018-01-30 17:00","2018","01","30","17:00","-30.0","","-33.1","","75","","0.0","","17","","22","","6.4","","102.19","","","","-44","","Snow"
"-77.29","60.05","PUVIRNITUQ A","7106223","2018-01-30 18:00","2018","01","30","18:00","-29.3","","-32.4","","75","","0.0","","19","","21","","2.4","","102.19","","","","-43","","Snow"
"-77.29","60.05","PUVIRNITUQ A","7106223","2018-01-30 19:00","2018","01","30","19:00","-28.8","","-31.8","","76","","0.0","","17","","18","","4.8","","102.19","","","","-41","","Snow"
"-77.29","60.05","PUVIRNITUQ A","7106223","2018-01-30 20:00","2018","01","30","20:00","-28.8","","-31.9","","75","","0.0","","17","","18","","3.6","","102.16","","","","-41","","Snow"
"-77.29","60.05","PUVIRNITUQ A","7106223","2018-01-30 21:00","2018","01","30","21:00","-29.3","","-32.3","","76","","0.0","","18","","22","","4.8","","102.13","","","","-43","","Snow"
"-77.29","60.05","PUVIRNITUQ A","7106223","2018-01-30 22:00","2018","01","30","22:00","-27.6","","-30.6","","76","","0.0","","18","","21","","4.8","","102.13","","","","-40","","Snow"
"-77.29","60.05","PUVIRNITUQ A","7106223","2018-01-30 23:00","2018","01","30","23:00","-27.1","","-30.0","","77","","0.0","","18","","22","","4.8","","102.09","","","","-40","","Snow"
"-77.29","60.05","PUVIRNITUQ A","7106223","2018-01-31 00:00","2018","01","31","00:00","-27.3","","-30.2","","77","","0.0","","17","","24","","4.8","","102.12","","","","-41","","Snow"
"-77.29","60.05","PUVIRNITUQ A","7106223","2018-01-31 01:00","2018","01","31","01:00","-27.2","","-30.1","","77","","0.0","","18","","26","","2.4","","102.10","","","","-41","","Snow"
"-77.29","60.05","PUVIRNITUQ A","7106223","2018-01-31 02:00","2018","01","31","02:00","-27.1","","-30.0","","77","","0.0","","18","","24","","4.0","","102.08","","","","-40","","Snow"
"-77.29","60.05","PUVIRNITUQ A","7106223","2018-01-31 03:00","2018","01","31","03:00","-26.4","","-29.2","","78","","0.0","","18","","21","","6.4","","102.05","","","","-39","","Snow"
"-77.29","60.05","PUVIRNITUQ A","7106223","2018-01-31 04:00","2018","01","31","04:00","-27.5","","-30.5","","76","","0.0","","17","","22","","11.3","","102.04","","","","-40","","Snow"
"-77.29","60.05","PUVIRNITUQ A","7106223","2018-01-31 05:00","2018","01","31","05:00","-27.6","","-30.5","","77","","0.0","","17","","17","","3.2","","102.03","","","","-39","","Snow"
"-77.29","60.05","PUVIRNITUQ A","7106223","2018-01-31 06:00","2018","01","31","06:00","-28.3","","-31.3","","76","","0.0","","16","","21","","2.4","","102.02","","","","-41","","Snow"
"-77.29","60.05","PUVIRNITUQ A","7106223","2018-01-31 07:00","2018","01","31","07:00","-27.8","","-30.8","","76","","0.0","","17","","22","","2.0","","102.01","","","","-41","","Snow"
"-77.29","60.05","PUVIRNITUQ A","7106223","2018-01-31 08:00","2018","01","31","08:00","-27.3","","-30.2","","77","","0.0","","16","","22","","6.4","","101.96","","","","-40","","Snow"
"-77.29","60.05","PUVIRNITUQ A","7106223","2018-01-31 09:00","2018","01","31","09:00","-26.9","","-29.8","","77","","0.0","","17","","24","","2.0","","101.92","","","","-40","","Snow"
"-77.29","60.05","PUVIRNITUQ A","7106223","2018-01-31 10:00","2018","01","31","10:00","-28.1","","-31.1","","76","","0.0","","16","","21","","8.1","","101.91","","","","-41","","Snow"
"-77.29","60.05","PUVIRNITUQ A","7106223","2018-01-31 11:00","2018","01","31","11:00","-27.4","","-30.3","","77","","0.0","","17","","26","","1.6","","101.87","","","","-41","","Snow"
"-77.29","60.05","PUVIRNITUQ A","7106223","2018-01-31 12:00","2018","01","31","12:00","-26.7","","-29.5","","78","","0.0","","17","","18","","2.8","","101.74","","","","-38","","Snow"
"-77.29","60.05","PUVIRNITUQ A","7106223","2018-01-31 13:00","2018","01","31","13:00","-26.5","","-29.3","","78","","0.0","","15","","13","","8.1","","101.68","","","","-36","","Haze"
"-77.29","60.05","PUVIRNITUQ A","7106223","2018-01-31 14:00","2018","01","31","14:00","-27.1","","-30.0","","77","","0.0","","14","","8","","16.1","","101.62","","","","-35","","NA"
"-77.29","60.05","PUVIRNITUQ A","7106223","2018-01-31 15:00","2018","01","31","15:00","-28.7","","-31.7","","76","","0.0","","7","","9","","16.1","","101.56","","","","-37","","NA"
"-77.29","60.05","PUVIRNITUQ A","7106223","2018-01-31 16:00","2018","01","31","16:00","-28.8","","-31.9","","76","","0.0","","6","","13","","16.1","","101.51","","","","-39","","NA"
"-77.29","60.05","PUVIRNITUQ A","7106223","2018-01-31 17:00","2018","01","31","17:00","-28.7","","-31.7","","76","","0.0","","6","","17","","16.1","","101.42","","","","-41","","NA"
"-77.29","60.05","PUVIRNITUQ A","7106223","2018-01-31 18:00","2018","01","31","18:00","-28.9","","-32.0","","75","","0.0","","9","","11","","16.1","","101.43","","","","-38","","NA"
"-77.29","60.05","PUVIRNITUQ A","7106223","2018-01-31 19:00","2018","01","31","19:00","-28.8","","-31.8","","76","","0.0","","7","","9","","16.1","","101.34","","","","-37","","NA"
"-77.29","60.05","PUVIRNITUQ A","7106223","2018-01-31 20:00","2018","01","31","20:00","-28.8","","-31.8","","76","","0.0","","7","","9","","16.1","","101.23","","","","-37","","NA"
"-77.29","60.05","PUVIRNITUQ A","7106223","2018-01-31 21:00","2018","01","31","21:00","-28.6","","-31.6","","76","","0.0","","8","","8","","16.1","","101.13","","","","-36","","Snow"
"-77.29","60.05","PUVIRNITUQ A","7106223","2018-01-31 22:00","2018","01","31","22:00","-28.0","","-31.0","","76","","0.0","","8","","5","","14.5","","101.04","","","","-33","","Snow"
"-77.29","60.05","PUVIRNITUQ A","7106223","2018-01-31 23:00","2018","01","31","23:00","-28.0","","-31.0","","76","","0.0","","6","","13","","16.1","","100.97","","","","-38","","Snow"
