"Longitude (x)","Latitude (y)","Station Name","Climate ID","Date/Time (LST)","Year","Month","Day","Time (LST)","Temp (°C)","Temp Flag","Dew Point Temp (°C)","Dew Point Temp Flag","Rel Hum (%)","Rel Hum Flag","Precip. Amount (mm)","Precip. Amount Flag","Wind Dir (10s deg)","Wind Dir Flag","Wind Spd (km/h)","Wind Spd Flag","Visibility (km)","Visibility Flag","Stn Press (kPa)","Stn Press Flag","Hmdx","Hmdx Flag","Wind Chill","Wind Chill Flag","Weather"
"-133.94","68.91","STORM HILLS","220LQJJ","2018-01-01 00:00","2018","01","01","00:00","-17.1","","","","","M","","","7","","24","","","","98.90","","","","-28","","NA"
"-133.94","68.91","STORM HILLS","220LQJJ","2018-01-01 01:00","2018","01","01","01:00","-17.2","","","","","M","","","9","","20","","","","98.93","","","","-27","","NA"
"-133.94","68.91","STORM HILLS","220LQJJ","2018-01-01 02:00","2018","01","01","02:00","-17.7","","","","","M","","","9","","22","","","","98.92","","","","-28","","NA"
"-133.94","68.91","STORM HILLS","220LQJJ","2018-01-01 03:00","2018","01","01","03:00","-18.2","","","","","M","","","10","","19","","","","98.90","","","","-28","","NA"
"-133.94","68.91","STORM HILLS","220LQJJ","2018-01-01 04:00","2018","01","01","04:00","-18.7","","","","","M","","","10","","24","","","","98.86","","","","-30","","NA"
"-133.94","68.91","STORM HILLS","220LQJJ","2018-01-01 05:00","2018","01","01","05:00","-18.7","","","","","M","","","8","","31","","","","98.81","","","","-31","","NA"
"-133.94","68.91","STORM HILLS","220LQJJ","2018-01-01 06:00","2018","01","01","06:00","-19.1","","","","","M","","","10","","24","","","","98.80","","","","-30","","NA"
"-133.94","68.91","STORM HILLS","220LQJJ","2018-01-01 07:00","2018","01","01","07:00","-19.5","","","","","M","","","8","","35","","","","98.73","","","","-33","","NA"
"-133.94","68.91","STORM HILLS","220LQJJ","2018-01-01 08:00","2018","01","01","08:00","-19.6","","","","","M","","","8","","37","","","","98.69","","","","-33","","NA"
"-133.94","68.91","STORM HILLS","220LQJJ","2018-01-01 09:00","2018","01","01","09:00","-20.1","","","","","M","","","9","","39","","","","98.71","","","","-34","","NA"
"-133.94","68.91","STORM HILLS","220LQJJ","2018-01-01 10:00","2018","01","01","10:00","-20.2","","","","","M","","","8","","28","","","","98.74","","","","-32","","NA"
"-133.94","68.91","STORM HILLS","220LQJJ","2018-01-01 11:00","2018","01","01","11:00","-20.7","","","","","M","","","7","","28","","","","98.75","","","","-33","","NA"
"-133.94","68.91","STORM HILLS","220LQJJ","2018-01-01 12:00","2018","01","01","12:00","-21.1","","","","","M","","","8","","31","","","","98.75","","","","-34","","NA"
"-133.94","68.91","STORM HILLS","220LQJJ","2018-01-01 13:00","2018","01","01","13:00","-21.3","","","","","M","","","8","","33","","","","98.73","","","","-35","","NA"
"-133.94","68.91","STORM HILLS","220LQJJ","2018-01-01 14:00","2018","01","01","14:00","-21.8","","","","","M","","","8","","35","","","","98.75","","","","-36","","NA"
"-133.94","68.91","STORM HILLS","220LQJJ","2018-01-01 15:00","2018","01","01","15:00","-22.0","","","","","M","","","9","","37","","","","98.76","","","","-36","","NA"
"-133.94","68.91","STORM HILLS","220LQJJ","2018-01-01 16:00","2018","01","01","16:00","-22.0","","","","","M","","","8","","43","","","","98.75","","","","-37","","NA"
"-133.94","68.91","STORM HILLS","220LQJJ","2018-01-01 17:00","2018","01","01","17:00","-22.4","","","","","M","","","8","","31","","","","98.80","","","","-36","","NA"
"-133.94","68.91","STORM HILLS","220LQJJ","2018-01-01 18:00","2018","01","01","18:00","-22.6","","","","","M","","","9","","35","","","","98.77","","","","-37","","NA"
"-133.94","68.91","STORM HILLS","220LQJJ","2018-01-01 19:00","2018","01","01","19:00","-23.0","","","","","M","","","9","","33","","","","98.74","","","","-37","","NA"
"-133.94","68.91","STORM HILLS","220LQJJ","2018-01-01 20:00","2018","01","01","20:00","-24.0","","","","","M","","","9","","31","","","","98.69","","","","-38","","NA"
"-133.94","68.91","STORM HILLS","220LQJJ","2018-01-01 21:00","2018","01","01","21:00","-24.7","","","","","M","","","10","","19","","","","98.71","","","","-36","","NA"
"-133.94","68.91","STORM HILLS","220LQJJ","2018-01-01 22:00","2018","01","01","22:00","-25.6","","","","","M","","","10","","20","","","","98.64","","","","-38","","NA"
"-133.94","68.91","STORM HILLS","220LQJJ","2018-01-01 23:00","2018","01","01","23:00","-26.2","","","","","M","","","10","","22","","","","98.56","","","","-39","","NA"
"-133.94","68.91","STORM HILLS","220LQJJ","2018-01-02 00:00","2018","01","02","00:00","-25.9","","","","","M","","","10","","11","","","","98.55","","","","-35","","NA"
"-133.94","68.91","STORM HILLS","220LQJJ","2018-01-02 01:00","2018","01","02","01:00","-25.2","","","","","M","","","11","","13","","","","98.48","","","","-35","","NA"
"-133.94","68.91","STORM HILLS","220LQJJ","2018-01-02 02:00","2018","01","02","02:00","-25.3","","","","","M","","","11","","11","","","","98.44","","","","-34","","NA"
"-133.94","68.91","STORM HILLS","220LQJJ","2018-01-02 03:00","2018","01","02","03:00","-25.2","","","","","M","","","11","","13","","","","98.38","","","","-35","","NA"
"-133.94","68.91","STORM HILLS","220LQJJ","2018-01-02 04:00","2018","01","02","04:00","-23.6","","","","","M","","","12","","22","","","","98.31","","","","-36","","NA"
"-133.94","68.91","STORM HILLS","220LQJJ","2018-01-02 05:00","2018","01","02","05:00","-23.2","","","","","M","","","11","","13","","","","98.25","","","","-32","","NA"
"-133.94","68.91","STORM HILLS","220LQJJ","2018-01-02 06:00","2018","01","02","06:00","-22.5","","","","","M","","","9","","31","","","","98.13","","","","-36","","NA"
"-133.94","68.91","STORM HILLS","220LQJJ","2018-01-02 07:00","2018","01","02","07:00","-21.4","","","","","M","","","10","","26","","","","98.02","","","","-34","","NA"
"-133.94","68.91","STORM HILLS","220LQJJ","2018-01-02 08:00","2018","01","02","08:00","-21.0","","","","","M","","","10","","35","","","","97.96","","","","-35","","NA"
"-133.94","68.91","STORM HILLS","220LQJJ","2018-01-02 09:00","2018","01","02","09:00","-20.6","","","","","M","","","10","","26","","","","97.92","","","","-33","","NA"
"-133.94","68.91","STORM HILLS","220LQJJ","2018-01-02 10:00","2018","01","02","10:00","-20.3","","","","","M","","","10","","24","","","","97.84","","","","-32","","NA"
"-133.94","68.91","STORM HILLS","220LQJJ","2018-01-02 11:00","2018","01","02","11:00","-20.6","","","","","M","","","10","","30","","","","97.79","","","","-33","","NA"
"-133.94","68.91","STORM HILLS","220LQJJ","2018-01-02 12:00","2018","01","02","12:00","-20.5","","","","","M","","","11","","17","","","","97.73","","","","-30","","NA"
"-133.94","68.91","STORM HILLS","220LQJJ","2018-01-02 13:00","2018","01","02","13:00","-20.6","","","","","M","","","11","","19","","","","97.65","","","","-31","","NA"
"-133.94","68.91","STORM HILLS","220LQJJ","2018-01-02 14:00","2018","01","02","14:00","-20.2","","","","","M","","","12","","26","","","","97.69","","","","-32","","NA"
"-133.94","68.91","STORM HILLS","220LQJJ","2018-01-02 15:00","2018","01","02","15:00","-19.5","","","","","M","","","12","","37","","","","97.61","","","","-33","","NA"
"-133.94","68.91","STORM HILLS","220LQJJ","2018-01-02 16:00","2018","01","02","16:00","-18.8","","","","","M","","","12","","30","","","","97.53","","","","-31","","NA"
"-133.94","68.91","STORM HILLS","220LQJJ","2018-01-02 17:00","2018","01","02","17:00","-18.6","","","","","M","","","12","","46","","","","97.51","","","","-33","","NA"
"-133.94","68.91","STORM HILLS","220LQJJ","2018-01-02 18:00","2018","01","02","18:00","-18.5","","","","","M","","","13","","56","","","","97.45","","","","-34","","NA"
"-133.94","68.91","STORM HILLS","220LQJJ","2018-01-02 19:00","2018","01","02","19:00","-18.7","","","","","M","","","12","","52","","","","97.38","","","","-34","","NA"
"-133.94","68.91","STORM HILLS","220LQJJ","2018-01-02 20:00","2018","01","02","20:00","-18.7","","","","","M","","","13","","50","","","","97.37","","","","-34","","NA"
"-133.94","68.91","STORM HILLS","220LQJJ","2018-01-02 21:00","2018","01","02","21:00","-18.9","","","","","M","","","13","","54","","","","97.31","","","","-34","","NA"
"-133.94","68.91","STORM HILLS","220LQJJ","2018-01-02 22:00","2018","01","02","22:00","-19.0","","","","","M","","","13","","52","","","","97.25","","","","-34","","NA"
"-133.94","68.91","STORM HILLS","220LQJJ","2018-01-02 23:00","2018","01","02","23:00","-18.9","","","","","M","","","14","","50","","","","97.23","","","","-34","","NA"
"-133.94","68.91","STORM HILLS","220LQJJ","2018-01-03 00:00","2018","01","03","00:00","-18.2","","","","","M","","","14","","56","","","","97.23","","","","-34","","NA"
"-133.94","68.91","STORM HILLS","220LQJJ","2018-01-03 01:00","2018","01","03","01:00","-18.0","","","","","M","","","15","","59","","","","97.20","","","","-34","","NA"
"-133.94","68.91","STORM HILLS","220LQJJ","2018-01-03 02:00","2018","01","03","02:00","-17.7","","","","","M","","","13","","44","","","","97.26","","","","-32","","NA"
"-133.94","68.91","STORM HILLS","220LQJJ","2018-01-03 03:00","2018","01","03","03:00","-17.3","","","","","M","","","12","","24","","","","97.20","","","","-28","","NA"
"-133.94","68.91","STORM HILLS","220LQJJ","2018-01-03 04:00","2018","01","03","04:00","-17.4","","","","","M","","","16","","44","","","","97.21","","","","-31","","NA"
"-133.94","68.91","STORM HILLS","220LQJJ","2018-01-03 05:00","2018","01","03","05:00","-16.8","","","","","M","","","18","","46","","","","97.14","","","","-31","","NA"
"-133.94","68.91","STORM HILLS","220LQJJ","2018-01-03 06:00","2018","01","03","06:00","-15.0","","","","","M","","","19","","46","","","","97.12","","","","-28","","NA"
"-133.94","68.91","STORM HILLS","220LQJJ","2018-01-03 07:00","2018","01","03","07:00","-13.7","","","","","M","","","19","","41","","","","97.14","","","","-26","","NA"
"-133.94","68.91","STORM HILLS","220LQJJ","2018-01-03 08:00","2018","01","03","08:00","-13.5","","","","","M","","","19","","37","","","","97.14","","","","-25","","NA"
"-133.94","68.91","STORM HILLS","220LQJJ","2018-01-03 09:00","2018","01","03","09:00","-12.1","","","","","M","","","20","","31","","","","97.16","","","","-22","","NA"
"-133.94","68.91","STORM HILLS","220LQJJ","2018-01-03 10:00","2018","01","03","10:00","-7.8","","","","","M","","","21","","28","","","","97.16","","","","-16","","NA"
"-133.94","68.91","STORM HILLS","220LQJJ","2018-01-03 11:00","2018","01","03","11:00","-9.6","","","","","M","","","23","","13","","","","97.20","","","","-16","","NA"
"-133.94","68.91","STORM HILLS","220LQJJ","2018-01-03 12:00","2018","01","03","12:00","-9.6","","","","","M","","","25","","15","","","","97.25","","","","-16","","NA"
"-133.94","68.91","STORM HILLS","220LQJJ","2018-01-03 13:00","2018","01","03","13:00","-7.5","","","","","M","","","28","","11","","","","97.27","","","","-13","","NA"
"-133.94","68.91","STORM HILLS","220LQJJ","2018-01-03 14:00","2018","01","03","14:00","-8.1","","","","","M","","","6","","6","","","","97.35","","","","-11","","NA"
"-133.94","68.91","STORM HILLS","220LQJJ","2018-01-03 15:00","2018","01","03","15:00","-5.4","","","","","M","","","3","","11","","","","97.36","","","","-10","","NA"
"-133.94","68.91","STORM HILLS","220LQJJ","2018-01-03 16:00","2018","01","03","16:00","-6.2","","","","","M","","","2","","13","","","","97.40","","","","-12","","NA"
"-133.94","68.91","STORM HILLS","220LQJJ","2018-01-03 17:00","2018","01","03","17:00","-6.3","","","","","M","","","1","","9","","","","97.45","","","","-11","","NA"
"-133.94","68.91","STORM HILLS","220LQJJ","2018-01-03 18:00","2018","01","03","18:00","-4.6","","","","","M","","","18","","4","","","","97.47","","","","-6","","NA"
"-133.94","68.91","STORM HILLS","220LQJJ","2018-01-03 19:00","2018","01","03","19:00","-5.2","","","","","M","","","13","","6","","","","97.47","","","","-8","","NA"
"-133.94","68.91","STORM HILLS","220LQJJ","2018-01-03 20:00","2018","01","03","20:00","-5.6","","","","","M","","","14","","7","","","","97.53","","","","-9","","NA"
"-133.94","68.91","STORM HILLS","220LQJJ","2018-01-03 21:00","2018","01","03","21:00","-5.8","","","","","M","","","9","","4","","","","97.56","","","","-8","","NA"
"-133.94","68.91","STORM HILLS","220LQJJ","2018-01-03 22:00","2018","01","03","22:00","-5.1","","","","","M","","","29","","4","","","","97.61","","","","-7","","NA"
"-133.94","68.91","STORM HILLS","220LQJJ","2018-01-03 23:00","2018","01","03","23:00","-5.7","","","","","M","","","32","","9","","","","97.67","","","","-10","","NA"
"-133.94","68.91","STORM HILLS","220LQJJ","2018-01-04 00:00","2018","01","04","00:00","-6.2","","","","","M","","","4","","11","","","","97.70","","","","-11","","NA"
"-133.94","68.91","STORM HILLS","220LQJJ","2018-01-04 01:00","2018","01","04","01:00","-6.2","","","","","M","","","10","","9","","","","97.71","","","","-10","","NA"
"-133.94","68.91","STORM HILLS","220LQJJ","2018-01-04 02:00","2018","01","04","02:00","-5.5","","","","","M","","","9","","9","","","","97.79","","","","-10","","NA"
"-133.94","68.91","STORM HILLS","220LQJJ","2018-01-04 03:00","2018","01","04","03:00","-5.3","","","","","M","","","7","","9","","","","97.83","","","","-9","","NA"
"-133.94","68.91","STORM HILLS","220LQJJ","2018-01-04 04:00","2018","01","04","04:00","-5.7","","","","","M","","","10","","9","","","","97.86","","","","-10","","NA"
"-133.94","68.91","STORM HILLS","220LQJJ","2018-01-04 05:00","2018","01","04","05:00","-6.3","","","","","M","","","11","","6","","","","97.90","","","","-9","","NA"
"-133.94","68.91","STORM HILLS","220LQJJ","2018-01-04 06:00","2018","01","04","06:00","-6.3","","","","","M","","","12","","6","","","","97.90","","","","-9","","NA"
"-133.94","68.91","STORM HILLS","220LQJJ","2018-01-04 07:00","2018","01","04","07:00","-6.1","","","","","M","","","11","","9","","","","97.91","","","","-10","","NA"
"-133.94","68.91","STORM HILLS","220LQJJ","2018-01-04 08:00","2018","01","04","08:00","-6.0","","","","","M","","","12","","13","","","","97.93","","","","-11","","NA"
"-133.94","68.91","STORM HILLS","220LQJJ","2018-01-04 09:00","2018","01","04","09:00","-5.7","","","","","M","","","18","","19","","","","97.98","","","","-12","","NA"
"-133.94","68.91","STORM HILLS","220LQJJ","2018-01-04 10:00","2018","01","04","10:00","-3.6","","","","","M","","","20","","11","","","","98.01","","","","-8","","NA"
"-133.94","68.91","STORM HILLS","220LQJJ","2018-01-04 11:00","2018","01","04","11:00","-4.3","","","","","M","","","23","","9","","","","98.04","","","","-8","","NA"
"-133.94","68.91","STORM HILLS","220LQJJ","2018-01-04 12:00","2018","01","04","12:00","-9.2","","","","","M","","","26","","9","","","","98.09","","","","-14","","NA"
"-133.94","68.91","STORM HILLS","220LQJJ","2018-01-04 13:00","2018","01","04","13:00","-10.1","","","","","M","","","24","","15","","","","98.12","","","","-17","","NA"
"-133.94","68.91","STORM HILLS","220LQJJ","2018-01-04 14:00","2018","01","04","14:00","-14.2","","","","","M","","","26","","19","","","","98.14","","","","-23","","NA"
"-133.94","68.91","STORM HILLS","220LQJJ","2018-01-04 15:00","2018","01","04","15:00","-13.0","","","","","M","","","27","","19","","","","98.17","","","","-21","","NA"
"-133.94","68.91","STORM HILLS","220LQJJ","2018-01-04 16:00","2018","01","04","16:00","-12.9","","","","","M","","","","M","","M","","","98.22","","","","","","NA"
"-133.94","68.91","STORM HILLS","220LQJJ","2018-01-04 17:00","2018","01","04","17:00","-12.0","","","","","M","","","","M","","M","","","98.21","","","","","","NA"
"-133.94","68.91","STORM HILLS","220LQJJ","2018-01-04 18:00","2018","01","04","18:00","-12.4","","","","","M","","","","M","","M","","","98.22","","","","","","NA"
"-133.94","68.91","STORM HILLS","220LQJJ","2018-01-04 19:00","2018","01","04","19:00","-12.4","","","","","M","","","","M","","M","","","98.22","","","","","","NA"
"-133.94","68.91","STORM HILLS","220LQJJ","2018-01-04 20:00","2018","01","04","20:00","-12.2","","","","","M","","","","M","","M","","","98.23","","","","","","NA"
"-133.94","68.91","STORM HILLS","220LQJJ","2018-01-04 21:00","2018","01","04","21:00","-12.3","","","","","M","","","","M","","M","","","98.25","","","","","","NA"
"-133.94","68.91","STORM HILLS","220LQJJ","2018-01-04 22:00","2018","01","04","22:00","-12.5","","","","","M","","","27","","13","","","","98.27","","","","-19","","NA"
"-133.94","68.91","STORM HILLS","220LQJJ","2018-01-04 23:00","2018","01","04","23:00","-12.8","","","","","M","","","25","","13","","","","98.25","","","","-20","","NA"
"-133.94","68.91","STORM HILLS","220LQJJ","2018-01-05 00:00","2018","01","05","00:00","-14.1","","","","","M","","","16","","9","","","","98.23","","","","-20","","NA"
"-133.94","68.91","STORM HILLS","220LQJJ","2018-01-05 01:00","2018","01","05","01:00","-13.7","","","","","M","","","14","","6","","","","98.23","","","","-18","","NA"
"-133.94","68.91","STORM HILLS","220LQJJ","2018-01-05 02:00","2018","01","05","02:00","-12.8","","","","","M","","","20","","7","","","","98.25","","","","-17","","NA"
"-133.94","68.91","STORM HILLS","220LQJJ","2018-01-05 03:00","2018","01","05","03:00","-13.7","","","","","M","","","17","","4","","","","98.29","","","","-16","","NA"
"-133.94","68.91","STORM HILLS","220LQJJ","2018-01-05 04:00","2018","01","05","04:00","-14.8","","","","","M","","","12","","11","","","","98.24","","","","-21","","NA"
"-133.94","68.91","STORM HILLS","220LQJJ","2018-01-05 05:00","2018","01","05","05:00","-14.4","","","","","M","","","11","","4","","","","98.22","","","","-17","","NA"
"-133.94","68.91","STORM HILLS","220LQJJ","2018-01-05 06:00","2018","01","05","06:00","-12.8","","","","","M","","","10","","7","","","","98.24","","","","-17","","NA"
"-133.94","68.91","STORM HILLS","220LQJJ","2018-01-05 07:00","2018","01","05","07:00","-16.8","","","","","M","","","26","","13","","","","98.27","","","","-25","","NA"
"-133.94","68.91","STORM HILLS","220LQJJ","2018-01-05 08:00","2018","01","05","08:00","-16.8","","","","","M","","","27","","17","","","","98.25","","","","-26","","NA"
"-133.94","68.91","STORM HILLS","220LQJJ","2018-01-05 09:00","2018","01","05","09:00","-17.4","","","","","M","","","28","","20","","","","98.30","","","","-27","","NA"
"-133.94","68.91","STORM HILLS","220LQJJ","2018-01-05 10:00","2018","01","05","10:00","-17.7","","","","","M","","","28","","13","","","","98.31","","","","-26","","NA"
"-133.94","68.91","STORM HILLS","220LQJJ","2018-01-05 11:00","2018","01","05","11:00","-16.4","","","","","M","","","28","","13","","","","98.35","","","","-24","","NA"
"-133.94","68.91","STORM HILLS","220LQJJ","2018-01-05 12:00","2018","01","05","12:00","-15.7","","","","","M","","","29","","15","","","","98.36","","","","-24","","NA"
"-133.94","68.91","STORM HILLS","220LQJJ","2018-01-05 13:00","2018","01","05","13:00","-15.6","","","","","M","","","28","","15","","","","98.37","","","","-24","","NA"
"-133.94","68.91","STORM HILLS","220LQJJ","2018-01-05 14:00","2018","01","05","14:00","-15.4","","","","","M","","","28","","17","","","","98.37","","","","-24","","NA"
"-133.94","68.91","STORM HILLS","220LQJJ","2018-01-05 15:00","2018","01","05","15:00","-15.1","","","","","M","","","28","","20","","","","98.37","","","","-24","","NA"
"-133.94","68.91","STORM HILLS","220LQJJ","2018-01-05 16:00","2018","01","05","16:00","-15.3","","","","","M","","","29","","19","","","","98.39","","","","-24","","NA"
"-133.94","68.91","STORM HILLS","220LQJJ","2018-01-05 17:00","2018","01","05","17:00","-15.0","","","","","M","","","30","","20","","","","98.36","","","","-24","","NA"
"-133.94","68.91","STORM HILLS","220LQJJ","2018-01-05 18:00","2018","01","05","18:00","-14.9","","","","","M","","","32","","19","","","","98.34","","","","-24","","NA"
"-133.94","68.91","STORM HILLS","220LQJJ","2018-01-05 19:00","2018","01","05","19:00","-15.2","","","","","M","","","32","","11","","","","98.33","","","","-22","","NA"
"-133.94","68.91","STORM HILLS","220LQJJ","2018-01-05 20:00","2018","01","05","20:00","-15.5","","","","","M","","","32","","15","","","","98.34","","","","-24","","NA"
"-133.94","68.91","STORM HILLS","220LQJJ","2018-01-05 21:00","2018","01","05","21:00","-16.0","","","","","M","","","32","","15","","","","98.31","","","","-24","","NA"
"-133.94","68.91","STORM HILLS","220LQJJ","2018-01-05 22:00","2018","01","05","22:00","-16.0","","","","","M","","","33","","15","","","","98.30","","","","-24","","NA"
"-133.94","68.91","STORM HILLS","220LQJJ","2018-01-05 23:00","2018","01","05","23:00","-16.1","","","","","M","","","34","","17","","","","98.25","","","","-25","","NA"
"-133.94","68.91","STORM HILLS","220LQJJ","2018-01-06 00:00","2018","01","06","00:00","-16.3","","","","","M","","","33","","13","","","","98.24","","","","-24","","NA"
"-133.94","68.91","STORM HILLS","220LQJJ","2018-01-06 01:00","2018","01","06","01:00","-16.4","","","","","M","","","32","","17","","","","98.21","","","","-25","","NA"
"-133.94","68.91","STORM HILLS","220LQJJ","2018-01-06 02:00","2018","01","06","02:00","-16.7","","","","","M","","","34","","15","","","","98.22","","","","-25","","NA"
"-133.94","68.91","STORM HILLS","220LQJJ","2018-01-06 03:00","2018","01","06","03:00","-17.1","","","","","M","","","36","","7","","","","98.20","","","","-22","","NA"
"-133.94","68.91","STORM HILLS","220LQJJ","2018-01-06 04:00","2018","01","06","04:00","-17.4","","","","","M","","","2","","4","","","","98.18","","","","-21","","NA"
"-133.94","68.91","STORM HILLS","220LQJJ","2018-01-06 05:00","2018","01","06","05:00","-17.6","","","","","M","","","4","","6","","","","98.18","","","","-22","","NA"
"-133.94","68.91","STORM HILLS","220LQJJ","2018-01-06 06:00","2018","01","06","06:00","-17.9","","","","","M","","","","","0","","","","98.16","","","","","","NA"
"-133.94","68.91","STORM HILLS","220LQJJ","2018-01-06 07:00","2018","01","06","07:00","-18.1","","","","","M","","","32","","9","","","","98.14","","","","-24","","NA"
"-133.94","68.91","STORM HILLS","220LQJJ","2018-01-06 08:00","2018","01","06","08:00","-17.9","","","","","M","","","36","","9","","","","98.15","","","","-24","","NA"
"-133.94","68.91","STORM HILLS","220LQJJ","2018-01-06 09:00","2018","01","06","09:00","-18.1","","","","","M","","","36","","11","","","","98.14","","","","-25","","NA"
"-133.94","68.91","STORM HILLS","220LQJJ","2018-01-06 10:00","2018","01","06","10:00","-18.2","","","","","M","","","35","","11","","","","98.14","","","","-25","","NA"
"-133.94","68.91","STORM HILLS","220LQJJ","2018-01-06 11:00","2018","01","06","11:00","-18.0","","","","","M","","","33","","13","","","","98.16","","","","-26","","NA"
"-133.94","68.91","STORM HILLS","220LQJJ","2018-01-06 12:00","2018","01","06","12:00","-18.3","","","","","M","","","33","","13","","","","98.17","","","","-26","","NA"
"-133.94","68.91","STORM HILLS","220LQJJ","2018-01-06 13:00","2018","01","06","13:00","-18.4","","","","","M","","","33","","15","","","","98.16","","","","-27","","NA"
"-133.94","68.91","STORM HILLS","220LQJJ","2018-01-06 14:00","2018","01","06","14:00","-18.9","","","","","M","","","32","","19","","","","98.16","","","","-29","","NA"
"-133.94","68.91","STORM HILLS","220LQJJ","2018-01-06 15:00","2018","01","06","15:00","-18.9","","","","","M","","","30","","24","","","","98.17","","","","-30","","NA"
"-133.94","68.91","STORM HILLS","220LQJJ","2018-01-06 16:00","2018","01","06","16:00","-18.5","","","","","M","","","30","","24","","","","98.17","","","","-29","","NA"
"-133.94","68.91","STORM HILLS","220LQJJ","2018-01-06 17:00","2018","01","06","17:00","-18.6","","","","","M","","","31","","26","","","","98.17","","","","-30","","NA"
"-133.94","68.91","STORM HILLS","220LQJJ","2018-01-06 18:00","2018","01","06","18:00","-19.3","","","","","M","","","30","","30","","","","98.18","","","","-32","","NA"
"-133.94","68.91","STORM HILLS","220LQJJ","2018-01-06 19:00","2018","01","06","19:00","-19.4","","","","","M","","","29","","28","","","","98.16","","","","-31","","NA"
"-133.94","68.91","STORM HILLS","220LQJJ","2018-01-06 20:00","2018","01","06","20:00","-19.5","","","","","M","","","30","","31","","","","98.17","","","","-32","","NA"
"-133.94","68.91","STORM HILLS","220LQJJ","2018-01-06 21:00","2018","01","06","21:00","-20.5","","","","","M","","","29","","35","","","","98.17","","","","-34","","NA"
"-133.94","68.91","STORM HILLS","220LQJJ","2018-01-06 22:00","2018","01","06","22:00","-21.4","","","","","M","","","29","","35","","","","98.18","","","","-35","","NA"
"-133.94","68.91","STORM HILLS","220LQJJ","2018-01-06 23:00","2018","01","06","23:00","-23.3","","","","","M","","","29","","33","","","","98.19","","","","-37","","NA"
"-133.94","68.91","STORM HILLS","220LQJJ","2018-01-07 00:00","2018","01","07","00:00","-24.7","","","","","M","","","28","","30","","","","98.22","","","","-39","","NA"
"-133.94","68.91","STORM HILLS","220LQJJ","2018-01-07 01:00","2018","01","07","01:00","-25.4","","","","","M","","","29","","24","","","","98.28","","","","-38","","NA"
"-133.94","68.91","STORM HILLS","220LQJJ","2018-01-07 02:00","2018","01","07","02:00","-26.7","","","","","M","","","29","","26","","","","98.31","","","","-40","","NA"
"-133.94","68.91","STORM HILLS","220LQJJ","2018-01-07 03:00","2018","01","07","03:00","-28.0","","","","","M","","","29","","24","","","","98.38","","","","-42","","NA"
"-133.94","68.91","STORM HILLS","220LQJJ","2018-01-07 04:00","2018","01","07","04:00","-28.5","","","","","M","","","29","","22","","","","98.43","","","","-42","","NA"
"-133.94","68.91","STORM HILLS","220LQJJ","2018-01-07 05:00","2018","01","07","05:00","-28.6","","","","","M","","","29","","26","","","","98.47","","","","-43","","NA"
"-133.94","68.91","STORM HILLS","220LQJJ","2018-01-07 06:00","2018","01","07","06:00","-28.9","","","","","M","","","29","","26","","","","98.52","","","","-43","","NA"
"-133.94","68.91","STORM HILLS","220LQJJ","2018-01-07 07:00","2018","01","07","07:00","-28.6","","","","","M","","","30","","30","","","","98.61","","","","-44","","NA"
"-133.94","68.91","STORM HILLS","220LQJJ","2018-01-07 08:00","2018","01","07","08:00","-28.6","","","","","M","","","29","","26","","","","98.64","","","","-43","","NA"
"-133.94","68.91","STORM HILLS","220LQJJ","2018-01-07 09:00","2018","01","07","09:00","-27.8","","","","","M","","","29","","28","","","","98.69","","","","-42","","NA"
"-133.94","68.91","STORM HILLS","220LQJJ","2018-01-07 10:00","2018","01","07","10:00","-27.3","","","","","M","","","29","","30","","","","98.76","","","","-42","","NA"
"-133.94","68.91","STORM HILLS","220LQJJ","2018-01-07 11:00","2018","01","07","11:00","-26.1","","","","","M","","","29","","30","","","","98.83","","","","-41","","NA"
"-133.94","68.91","STORM HILLS","220LQJJ","2018-01-07 12:00","2018","01","07","12:00","-24.7","","","","","M","","","28","","26","","","","98.91","","","","-38","","NA"
"-133.94","68.91","STORM HILLS","220LQJJ","2018-01-07 13:00","2018","01","07","13:00","-25.4","","","","","M","","","29","","33","","","","98.94","","","","-40","","NA"
"-133.94","68.91","STORM HILLS","220LQJJ","2018-01-07 14:00","2018","01","07","14:00","-25.2","","","","","M","","","30","","31","","","","98.99","","","","-40","","NA"
"-133.94","68.91","STORM HILLS","220LQJJ","2018-01-07 15:00","2018","01","07","15:00","-25.5","","","","","M","","","29","","24","","","","99.05","","","","-38","","NA"
"-133.94","68.91","STORM HILLS","220LQJJ","2018-01-07 16:00","2018","01","07","16:00","-26.4","","","","","M","","","29","","19","","","","99.13","","","","-38","","NA"
"-133.94","68.91","STORM HILLS","220LQJJ","2018-01-07 17:00","2018","01","07","17:00","-26.5","","","","","M","","","30","","22","","","","99.17","","","","-39","","NA"
"-133.94","68.91","STORM HILLS","220LQJJ","2018-01-07 18:00","2018","01","07","18:00","-26.0","","","","","M","","","29","","19","","","","99.23","","","","-38","","NA"
"-133.94","68.91","STORM HILLS","220LQJJ","2018-01-07 19:00","2018","01","07","19:00","-25.9","","","","","M","","","27","","22","","","","99.25","","","","-38","","NA"
"-133.94","68.91","STORM HILLS","220LQJJ","2018-01-07 20:00","2018","01","07","20:00","-25.7","","","","","M","","","27","","26","","","","99.27","","","","-39","","NA"
"-133.94","68.91","STORM HILLS","220LQJJ","2018-01-07 21:00","2018","01","07","21:00","-25.3","","","","","M","","","28","","22","","","","99.32","","","","-38","","NA"
"-133.94","68.91","STORM HILLS","220LQJJ","2018-01-07 22:00","2018","01","07","22:00","-26.1","","","","","M","","","31","","30","","","","99.37","","","","-41","","NA"
"-133.94","68.91","STORM HILLS","220LQJJ","2018-01-07 23:00","2018","01","07","23:00","-28.2","","","","","M","","","31","","20","","","","99.42","","","","-41","","NA"
"-133.94","68.91","STORM HILLS","220LQJJ","2018-01-08 00:00","2018","01","08","00:00","-28.1","","","","","M","","","32","","26","","","","99.50","","","","-42","","NA"
"-133.94","68.91","STORM HILLS","220LQJJ","2018-01-08 01:00","2018","01","08","01:00","-27.9","","","","","M","","","31","","26","","","","99.56","","","","-42","","NA"
"-133.94","68.91","STORM HILLS","220LQJJ","2018-01-08 02:00","2018","01","08","02:00","-28.3","","","","","M","","","32","","20","","","","99.61","","","","-41","","NA"
"-133.94","68.91","STORM HILLS","220LQJJ","2018-01-08 03:00","2018","01","08","03:00","-28.5","","","","","M","","","31","","13","","","","99.65","","","","-39","","NA"
"-133.94","68.91","STORM HILLS","220LQJJ","2018-01-08 04:00","2018","01","08","04:00","-28.7","","","","","M","","","32","","15","","","","99.71","","","","-40","","NA"
"-133.94","68.91","STORM HILLS","220LQJJ","2018-01-08 05:00","2018","01","08","05:00","-28.8","","","","","M","","","33","","17","","","","99.76","","","","-41","","NA"
"-133.94","68.91","STORM HILLS","220LQJJ","2018-01-08 06:00","2018","01","08","06:00","-28.8","","","","","M","","","34","","15","","","","99.78","","","","-40","","NA"
"-133.94","68.91","STORM HILLS","220LQJJ","2018-01-08 07:00","2018","01","08","07:00","-28.9","","","","","M","","","34","","17","","","","99.82","","","","-41","","NA"
"-133.94","68.91","STORM HILLS","220LQJJ","2018-01-08 08:00","2018","01","08","08:00","-28.2","","","","","M","","","35","","19","","","","99.86","","","","-41","","NA"
"-133.94","68.91","STORM HILLS","220LQJJ","2018-01-08 09:00","2018","01","08","09:00","-28.6","","","","","M","","","35","","20","","","","99.92","","","","-41","","NA"
"-133.94","68.91","STORM HILLS","220LQJJ","2018-01-08 10:00","2018","01","08","10:00","-28.6","","","","","M","","","36","","19","","","","99.95","","","","-41","","NA"
"-133.94","68.91","STORM HILLS","220LQJJ","2018-01-08 11:00","2018","01","08","11:00","-28.9","","","","","M","","","1","","17","","","","100.01","","","","-41","","NA"
"-133.94","68.91","STORM HILLS","220LQJJ","2018-01-08 12:00","2018","01","08","12:00","-29.2","","","","","M","","","3","","22","","","","100.03","","","","-43","","NA"
"-133.94","68.91","STORM HILLS","220LQJJ","2018-01-08 13:00","2018","01","08","13:00","-28.3","","","","","M","","","4","","22","","","","100.06","","","","-42","","NA"
"-133.94","68.91","STORM HILLS","220LQJJ","2018-01-08 14:00","2018","01","08","14:00","-28.7","","","","","M","","","2","","22","","","","100.10","","","","-42","","NA"
"-133.94","68.91","STORM HILLS","220LQJJ","2018-01-08 15:00","2018","01","08","15:00","-28.2","","","","","M","","","1","","20","","","","100.10","","","","-41","","NA"
"-133.94","68.91","STORM HILLS","220LQJJ","2018-01-08 16:00","2018","01","08","16:00","-27.7","","","","","M","","","35","","19","","","","100.14","","","","-40","","NA"
"-133.94","68.91","STORM HILLS","220LQJJ","2018-01-08 17:00","2018","01","08","17:00","-27.3","","","","","M","","","36","","19","","","","100.15","","","","-39","","NA"
"-133.94","68.91","STORM HILLS","220LQJJ","2018-01-08 18:00","2018","01","08","18:00","-27.3","","","","","M","","","33","","19","","","","100.16","","","","-39","","NA"
"-133.94","68.91","STORM HILLS","220LQJJ","2018-01-08 19:00","2018","01","08","19:00","-27.2","","","","","M","","","33","","17","","","","100.20","","","","-39","","NA"
"-133.94","68.91","STORM HILLS","220LQJJ","2018-01-08 20:00","2018","01","08","20:00","-26.8","","","","","M","","","33","","17","","","","100.20","","","","-38","","NA"
"-133.94","68.91","STORM HILLS","220LQJJ","2018-01-08 21:00","2018","01","08","21:00","-26.5","","","","","M","","","1","","11","","","","100.20","","","","-35","","NA"
"-133.94","68.91","STORM HILLS","220LQJJ","2018-01-08 22:00","2018","01","08","22:00","-26.6","","","","","M","","","3","","11","","","","100.19","","","","-36","","NA"
"-133.94","68.91","STORM HILLS","220LQJJ","2018-01-08 23:00","2018","01","08","23:00","-26.6","","","","","M","","","2","","9","","","","100.21","","","","-35","","NA"
"-133.94","68.91","STORM HILLS","220LQJJ","2018-01-09 00:00","2018","01","09","00:00","-26.7","","","","","M","","","35","","9","","","","100.20","","","","-35","","NA"
"-133.94","68.91","STORM HILLS","220LQJJ","2018-01-09 01:00","2018","01","09","01:00","-26.8","","","","","M","","","35","","7","","","","100.20","","","","-34","","NA"
"-133.94","68.91","STORM HILLS","220LQJJ","2018-01-09 02:00","2018","01","09","02:00","-26.9","","","","","M","","","11","","4","","","","100.19","","","","-31","","NA"
"-133.94","68.91","STORM HILLS","220LQJJ","2018-01-09 03:00","2018","01","09","03:00","-26.7","","","","","M","","","14","","7","","","","100.18","","","","-33","","NA"
"-133.94","68.91","STORM HILLS","220LQJJ","2018-01-09 04:00","2018","01","09","04:00","-26.3","","","","","M","","","17","","6","","","","100.16","","","","-32","","NA"
"-133.94","68.91","STORM HILLS","220LQJJ","2018-01-09 05:00","2018","01","09","05:00","-26.3","","","","","M","","","","","0","","","","100.15","","","","","","NA"
"-133.94","68.91","STORM HILLS","220LQJJ","2018-01-09 06:00","2018","01","09","06:00","-26.1","","","","","M","","","15","","15","","","","100.09","","","","-37","","NA"
"-133.94","68.91","STORM HILLS","220LQJJ","2018-01-09 07:00","2018","01","09","07:00","-26.1","","","","","M","","","14","","19","","","","100.06","","","","-38","","NA"
"-133.94","68.91","STORM HILLS","220LQJJ","2018-01-09 08:00","2018","01","09","08:00","-26.0","","","","","M","","","14","","19","","","","100.07","","","","-38","","NA"
"-133.94","68.91","STORM HILLS","220LQJJ","2018-01-09 09:00","2018","01","09","09:00","-26.8","","","","","M","","","16","","22","","","","100.04","","","","-40","","NA"
"-133.94","68.91","STORM HILLS","220LQJJ","2018-01-09 10:00","2018","01","09","10:00","-27.0","","","","","M","","","17","","22","","","","99.98","","","","-40","","NA"
"-133.94","68.91","STORM HILLS","220LQJJ","2018-01-09 11:00","2018","01","09","11:00","-26.6","","","","","M","","","16","","28","","","","99.93","","","","-41","","NA"
"-133.94","68.91","STORM HILLS","220LQJJ","2018-01-09 12:00","2018","01","09","12:00","-26.4","","","","","M","","","16","","31","","","","99.90","","","","-41","","NA"
"-133.94","68.91","STORM HILLS","220LQJJ","2018-01-09 13:00","2018","01","09","13:00","-26.9","","","","","M","","","18","","30","","","","99.87","","","","-42","","NA"
"-133.94","68.91","STORM HILLS","220LQJJ","2018-01-09 14:00","2018","01","09","14:00","-26.7","","","","","M","","","17","","31","","","","99.84","","","","-42","","NA"
"-133.94","68.91","STORM HILLS","220LQJJ","2018-01-09 15:00","2018","01","09","15:00","-26.9","","","","","M","","","17","","37","","","","99.82","","","","-43","","NA"
"-133.94","68.91","STORM HILLS","220LQJJ","2018-01-09 16:00","2018","01","09","16:00","-26.0","","","","","M","","","16","","33","","","","99.79","","","","-41","","NA"
"-133.94","68.91","STORM HILLS","220LQJJ","2018-01-09 17:00","2018","01","09","17:00","-27.8","","","","","M","","","16","","28","","","","99.75","","","","-42","","NA"
"-133.94","68.91","STORM HILLS","220LQJJ","2018-01-09 18:00","2018","01","09","18:00","-27.8","","","","","M","","","17","","39","","","","99.72","","","","-44","","NA"
"-133.94","68.91","STORM HILLS","220LQJJ","2018-01-09 19:00","2018","01","09","19:00","-26.1","","","","","M","","","17","","41","","","","99.67","","","","-42","","NA"
"-133.94","68.91","STORM HILLS","220LQJJ","2018-01-09 20:00","2018","01","09","20:00","-25.5","","","","","M","","","17","","44","","","","99.58","","","","-42","","NA"
"-133.94","68.91","STORM HILLS","220LQJJ","2018-01-09 21:00","2018","01","09","21:00","-26.5","","","","","M","","","17","","43","","","","99.55","","","","-43","","NA"
"-133.94","68.91","STORM HILLS","220LQJJ","2018-01-09 22:00","2018","01","09","22:00","-25.9","","","","","M","","","17","","46","","","","99.47","","","","-43","","NA"
"-133.94","68.91","STORM HILLS","220LQJJ","2018-01-09 23:00","2018","01","09","23:00","-24.3","","","","","M","","","17","","46","","","","99.42","","","","-41","","NA"
"-133.94","68.91","STORM HILLS","220LQJJ","2018-01-10 00:00","2018","01","10","00:00","-24.1","","","","","M","","","17","","46","","","","99.37","","","","-40","","NA"
"-133.94","68.91","STORM HILLS","220LQJJ","2018-01-10 01:00","2018","01","10","01:00","-25.7","","","","","M","","","15","","39","","","","99.37","","","","-42","","NA"
"-133.94","68.91","STORM HILLS","220LQJJ","2018-01-10 02:00","2018","01","10","02:00","-25.7","","","","","M","","","14","","33","","","","99.37","","","","-41","","NA"
"-133.94","68.91","STORM HILLS","220LQJJ","2018-01-10 03:00","2018","01","10","03:00","-26.2","","","","","M","","","14","","33","","","","99.35","","","","-41","","NA"
"-133.94","68.91","STORM HILLS","220LQJJ","2018-01-10 04:00","2018","01","10","04:00","-25.8","","","","","M","","","14","","39","","","","99.31","","","","-42","","NA"
"-133.94","68.91","STORM HILLS","220LQJJ","2018-01-10 05:00","2018","01","10","05:00","-25.8","","","","","M","","","14","","41","","","","99.26","","","","-42","","NA"
"-133.94","68.91","STORM HILLS","220LQJJ","2018-01-10 06:00","2018","01","10","06:00","-25.9","","","","","M","","","16","","48","","","","99.20","","","","-43","","NA"
"-133.94","68.91","STORM HILLS","220LQJJ","2018-01-10 07:00","2018","01","10","07:00","-26.1","","","","","M","","","16","","48","","","","99.17","","","","-43","","NA"
"-133.94","68.91","STORM HILLS","220LQJJ","2018-01-10 08:00","2018","01","10","08:00","-25.7","","","","","M","","","16","","52","","","","99.20","","","","-43","","NA"
"-133.94","68.91","STORM HILLS","220LQJJ","2018-01-10 09:00","2018","01","10","09:00","-25.5","","","","","M","","","17","","50","","","","99.20","","","","-43","","NA"
"-133.94","68.91","STORM HILLS","220LQJJ","2018-01-10 10:00","2018","01","10","10:00","-24.8","","","","","M","","","17","","46","","","","99.22","","","","-41","","NA"
"-133.94","68.91","STORM HILLS","220LQJJ","2018-01-10 11:00","2018","01","10","11:00","-27.0","","","","","M","","","14","","31","","","","99.23","","","","-42","","NA"
"-133.94","68.91","STORM HILLS","220LQJJ","2018-01-10 12:00","2018","01","10","12:00","-26.8","","","","","M","","","14","","33","","","","99.22","","","","-42","","NA"
"-133.94","68.91","STORM HILLS","220LQJJ","2018-01-10 13:00","2018","01","10","13:00","-26.6","","","","","M","","","13","","33","","","","99.24","","","","-42","","NA"
"-133.94","68.91","STORM HILLS","220LQJJ","2018-01-10 14:00","2018","01","10","14:00","-27.0","","","","","M","","","12","","22","","","","99.21","","","","-40","","NA"
"-133.94","68.91","STORM HILLS","220LQJJ","2018-01-10 15:00","2018","01","10","15:00","-26.8","","","","","M","","","13","","33","","","","99.21","","","","-42","","NA"
"-133.94","68.91","STORM HILLS","220LQJJ","2018-01-10 16:00","2018","01","10","16:00","-26.5","","","","","M","","","16","","43","","","","99.17","","","","-43","","NA"
"-133.94","68.91","STORM HILLS","220LQJJ","2018-01-10 17:00","2018","01","10","17:00","-25.3","","","","","M","","","16","","46","","","","99.18","","","","-42","","NA"
"-133.94","68.91","STORM HILLS","220LQJJ","2018-01-10 18:00","2018","01","10","18:00","-26.7","","","","","M","","","15","","41","","","","99.19","","","","-43","","NA"
"-133.94","68.91","STORM HILLS","220LQJJ","2018-01-10 19:00","2018","01","10","19:00","-25.9","","","","","M","","","15","","43","","","","99.21","","","","-42","","NA"
"-133.94","68.91","STORM HILLS","220LQJJ","2018-01-10 20:00","2018","01","10","20:00","-27.1","","","","","M","","","14","","33","","","","99.25","","","","-42","","NA"
"-133.94","68.91","STORM HILLS","220LQJJ","2018-01-10 21:00","2018","01","10","21:00","-27.0","","","","","M","","","14","","30","","","","99.25","","","","-42","","NA"
"-133.94","68.91","STORM HILLS","220LQJJ","2018-01-10 22:00","2018","01","10","22:00","-25.9","","","","","M","","","16","","39","","","","99.22","","","","-42","","NA"
"-133.94","68.91","STORM HILLS","220LQJJ","2018-01-10 23:00","2018","01","10","23:00","-25.1","","","","","M","","","16","","37","","","","99.21","","","","-40","","NA"
"-133.94","68.91","STORM HILLS","220LQJJ","2018-01-11 00:00","2018","01","11","00:00","-26.1","","","","","M","","","16","","33","","","","99.22","","","","-41","","NA"
"-133.94","68.91","STORM HILLS","220LQJJ","2018-01-11 01:00","2018","01","11","01:00","-25.4","","","","","M","","","16","","35","","","","99.25","","","","-41","","NA"
"-133.94","68.91","STORM HILLS","220LQJJ","2018-01-11 02:00","2018","01","11","02:00","-25.1","","","","","M","","","15","","33","","","","99.25","","","","-40","","NA"
"-133.94","68.91","STORM HILLS","220LQJJ","2018-01-11 03:00","2018","01","11","03:00","-24.0","","","","","M","","","16","","41","","","","99.25","","","","-40","","NA"
"-133.94","68.91","STORM HILLS","220LQJJ","2018-01-11 04:00","2018","01","11","04:00","-23.9","","","","","M","","","16","","44","","","","99.24","","","","-40","","NA"
"-133.94","68.91","STORM HILLS","220LQJJ","2018-01-11 05:00","2018","01","11","05:00","-24.1","","","","","M","","","15","","37","","","","99.24","","","","-39","","NA"
"-133.94","68.91","STORM HILLS","220LQJJ","2018-01-11 06:00","2018","01","11","06:00","-24.4","","","","","M","","","16","","39","","","","99.19","","","","-40","","NA"
"-133.94","68.91","STORM HILLS","220LQJJ","2018-01-11 07:00","2018","01","11","07:00","-24.3","","","","","M","","","17","","37","","","","99.18","","","","-39","","NA"
"-133.94","68.91","STORM HILLS","220LQJJ","2018-01-11 08:00","2018","01","11","08:00","-25.7","","","","","M","","","15","","26","","","","99.19","","","","-39","","NA"
"-133.94","68.91","STORM HILLS","220LQJJ","2018-01-11 09:00","2018","01","11","09:00","-26.9","","","","","M","","","15","","20","","","","99.16","","","","-39","","NA"
"-133.94","68.91","STORM HILLS","220LQJJ","2018-01-11 10:00","2018","01","11","10:00","-27.3","","","","","M","","","14","","22","","","","99.13","","","","-40","","NA"
"-133.94","68.91","STORM HILLS","220LQJJ","2018-01-11 11:00","2018","01","11","11:00","-25.7","","","","","M","","","15","","31","","","","99.10","","","","-40","","NA"
"-133.94","68.91","STORM HILLS","220LQJJ","2018-01-11 12:00","2018","01","11","12:00","-26.4","","","","","M","","","15","","31","","","","99.11","","","","-41","","NA"
"-133.94","68.91","STORM HILLS","220LQJJ","2018-01-11 13:00","2018","01","11","13:00","-25.5","","","","","M","","","16","","41","","","","99.08","","","","-42","","NA"
"-133.94","68.91","STORM HILLS","220LQJJ","2018-01-11 14:00","2018","01","11","14:00","-25.2","","","","","M","","","16","","43","","","","99.01","","","","-42","","NA"
"-133.94","68.91","STORM HILLS","220LQJJ","2018-01-11 15:00","2018","01","11","15:00","-24.5","","","","","M","","","16","","46","","","","98.99","","","","-41","","NA"
"-133.94","68.91","STORM HILLS","220LQJJ","2018-01-11 16:00","2018","01","11","16:00"
"-133.94","68.91","STORM HILLS","220LQJJ","2018-01-11 17:00","2018","01","11","17:00"
"-133.94","68.91","STORM HILLS","220LQJJ","2018-01-11 18:00","2018","01","11","18:00"
"-133.94","68.91","STORM HILLS","220LQJJ","2018-01-11 19:00","2018","01","11","19:00","-25.5","","","","","M","","","","","","","","","98.88","","","","","","NA"
"-133.94","68.91","STORM HILLS","220LQJJ","2018-01-11 20:00","2018","01","11","20:00"
"-133.94","68.91","STORM HILLS","220LQJJ","2018-01-11 21:00","2018","01","11","21:00","-25.0","","","","","M","","","","","","","","","98.79","","","","","","NA"
"-133.94","68.91","STORM HILLS","220LQJJ","2018-01-11 22:00","2018","01","11","22:00"
"-133.94","68.91","STORM HILLS","220LQJJ","2018-01-11 23:00","2018","01","11","23:00"
"-133.94","68.91","STORM HILLS","220LQJJ","2018-01-12 00:00","2018","01","12","00:00","-25.8","","","","","M","","","16","","43","","","","","M","","","-42","","NA"
"-133.94","68.91","STORM HILLS","220LQJJ","2018-01-12 01:00","2018","01","12","01:00"
"-133.94","68.91","STORM HILLS","220LQJJ","2018-01-12 02:00","2018","01","12","02:00"
"-133.94","68.91","STORM HILLS","220LQJJ","2018-01-12 03:00","2018","01","12","03:00","-26.6","","","","","M","","","","M","","M","","","98.60","","","","","","NA"
"-133.94","68.91","STORM HILLS","220LQJJ","2018-01-12 04:00","2018","01","12","04:00","-26.5","","","","","M","","","16","","50","","","","98.56","","","","-44","","NA"
"-133.94","68.91","STORM HILLS","220LQJJ","2018-01-12 05:00","2018","01","12","05:00"
"-133.94","68.91","STORM HILLS","220LQJJ","2018-01-12 06:00","2018","01","12","06:00"
"-133.94","68.91","STORM HILLS","220LQJJ","2018-01-12 07:00","2018","01","12","07:00","-29.8","","","","","M","","","14","","37","","","","98.50","","","","-47","","NA"
"-133.94","68.91","STORM HILLS","220LQJJ","2018-01-12 08:00","2018","01","12","08:00"
"-133.94","68.91","STORM HILLS","220LQJJ","2018-01-12 09:00","2018","01","12","09:00"
"-133.94","68.91","STORM HILLS","220LQJJ","2018-01-12 10:00","2018","01","12","10:00"
"-133.94","68.91","STORM HILLS","220LQJJ","2018-01-12 11:00","2018","01","12","11:00","-30.0","","","","","M","","","","M","","M","","","98.44","","","","","","NA"
"-133.94","68.91","STORM HILLS","220LQJJ","2018-01-12 12:00","2018","01","12","12:00","-9.5","","","","","M","","","14","","26","","","","98.46","","","","-18","","NA"
"-133.94","68.91","STORM HILLS","220LQJJ","2018-01-12 13:00","2018","01","12","13:00","-29.2","","","","","M","","","13","","26","","","","98.43","","","","-44","","NA"
"-133.94","68.91","STORM HILLS","220LQJJ","2018-01-12 14:00","2018","01","12","14:00","-29.2","","","","","M","","","14","","30","","","","98.44","","","","-45","","NA"
"-133.94","68.91","STORM HILLS","220LQJJ","2018-01-12 15:00","2018","01","12","15:00","-29.1","","","","","M","","","14","","28","","","","98.43","","","","-44","","NA"
"-133.94","68.91","STORM HILLS","220LQJJ","2018-01-12 16:00","2018","01","12","16:00","-29.1","","","","","M","","","13","","26","","","","98.45","","","","-44","","NA"
"-133.94","68.91","STORM HILLS","220LQJJ","2018-01-12 17:00","2018","01","12","17:00","-30.1","","","","","M","","","12","","22","","","","98.44","","","","-44","","NA"
"-133.94","68.91","STORM HILLS","220LQJJ","2018-01-12 18:00","2018","01","12","18:00","-30.1","","","","","M","","","12","","22","","","","98.44","","","","-44","","NA"
"-133.94","68.91","STORM HILLS","220LQJJ","2018-01-12 19:00","2018","01","12","19:00","-29.3","","","","","M","","","12","","17","","","","98.47","","","","-41","","NA"
"-133.94","68.91","STORM HILLS","220LQJJ","2018-01-12 20:00","2018","01","12","20:00","-28.4","","","","","M","","","13","","22","","","","98.49","","","","-42","","NA"
"-133.94","68.91","STORM HILLS","220LQJJ","2018-01-12 21:00","2018","01","12","21:00","-28.1","","","","","M","","","13","","28","","","","98.51","","","","-43","","NA"
"-133.94","68.91","STORM HILLS","220LQJJ","2018-01-12 22:00","2018","01","12","22:00","-27.6","","","","","M","","","14","","24","","","","98.53","","","","-41","","NA"
"-133.94","68.91","STORM HILLS","220LQJJ","2018-01-12 23:00","2018","01","12","23:00","-27.7","","","","","M","","","13","","19","","","","98.57","","","","-40","","NA"
"-133.94","68.91","STORM HILLS","220LQJJ","2018-01-13 00:00","2018","01","13","00:00","-27.3","","","","","M","","","12","","20","","","","98.60","","","","-40","","NA"
"-133.94","68.91","STORM HILLS","220LQJJ","2018-01-13 01:00","2018","01","13","01:00","-28.2","","","","","M","","","10","","13","","","","98.69","","","","-38","","NA"
"-133.94","68.91","STORM HILLS","220LQJJ","2018-01-13 02:00","2018","01","13","02:00","-27.9","","","","","M","","","10","","17","","","","98.71","","","","-40","","NA"
"-133.94","68.91","STORM HILLS","220LQJJ","2018-01-13 03:00","2018","01","13","03:00","-27.4","","","","","M","","","10","","17","","","","98.77","","","","-39","","NA"
"-133.94","68.91","STORM HILLS","220LQJJ","2018-01-13 04:00","2018","01","13","04:00","-27.2","","","","","M","","","12","","9","","","","98.79","","","","-35","","NA"
"-133.94","68.91","STORM HILLS","220LQJJ","2018-01-13 05:00","2018","01","13","05:00","-26.5","","","","","M","","","9","","17","","","","98.88","","","","-38","","NA"
"-133.94","68.91","STORM HILLS","220LQJJ","2018-01-13 06:00","2018","01","13","06:00","-26.7","","","","","M","","","12","","15","","","","98.90","","","","-37","","NA"
"-133.94","68.91","STORM HILLS","220LQJJ","2018-01-13 07:00","2018","01","13","07:00","-26.9","","","","","M","","","12","","15","","","","98.96","","","","-38","","NA"
"-133.94","68.91","STORM HILLS","220LQJJ","2018-01-13 08:00","2018","01","13","08:00","-25.7","","","","","M","","","13","","28","","","","99.00","","","","-40","","NA"
"-133.94","68.91","STORM HILLS","220LQJJ","2018-01-13 09:00","2018","01","13","09:00","-27.7","","","","","M","","","12","","24","","","","99.04","","","","-41","","NA"
"-133.94","68.91","STORM HILLS","220LQJJ","2018-01-13 10:00","2018","01","13","10:00","-27.9","","","","","M","","","13","","26","","","","99.15","","","","-42","","NA"
"-133.94","68.91","STORM HILLS","220LQJJ","2018-01-13 11:00","2018","01","13","11:00","-27.5","","","","","M","","","12","","26","","","","99.10","","","","-41","","NA"
"-133.94","68.91","STORM HILLS","220LQJJ","2018-01-13 12:00","2018","01","13","12:00","-27.1","","","","","M","","","14","","31","","","","99.21","","","","-42","","NA"
"-133.94","68.91","STORM HILLS","220LQJJ","2018-01-13 13:00","2018","01","13","13:00","-27.0","","","","","M","","","14","","39","","","","99.24","","","","-43","","NA"
"-133.94","68.91","STORM HILLS","220LQJJ","2018-01-13 14:00","2018","01","13","14:00","-25.1","","","","","M","","","13","","33","","","","99.28","","","","-40","","NA"
"-133.94","68.91","STORM HILLS","220LQJJ","2018-01-13 15:00","2018","01","13","15:00","-26.5","","","","","M","","","15","","41","","","","99.32","","","","-43","","NA"
"-133.94","68.91","STORM HILLS","220LQJJ","2018-01-13 16:00","2018","01","13","16:00","-26.7","","","","","M","","","14","","39","","","","99.29","","","","-43","","NA"
"-133.94","68.91","STORM HILLS","220LQJJ","2018-01-13 17:00","2018","01","13","17:00","-27.9","","","","","M","","","13","","33","","","","99.31","","","","-43","","NA"
"-133.94","68.91","STORM HILLS","220LQJJ","2018-01-13 18:00","2018","01","13","18:00","-29.0","","","","","M","","","14","","31","","","","99.26","","","","-45","","NA"
"-133.94","68.91","STORM HILLS","220LQJJ","2018-01-13 19:00","2018","01","13","19:00","-26.4","","","","","M","","","15","","37","","","","99.21","","","","-42","","NA"
"-133.94","68.91","STORM HILLS","220LQJJ","2018-01-13 20:00","2018","01","13","20:00","-26.9","","","","","M","","","15","","37","","","","99.15","","","","-43","","NA"
"-133.94","68.91","STORM HILLS","220LQJJ","2018-01-13 21:00","2018","01","13","21:00","-26.8","","","","","M","","","12","","31","","","","99.08","","","","-42","","NA"
"-133.94","68.91","STORM HILLS","220LQJJ","2018-01-13 22:00","2018","01","13","22:00","-27.9","","","","","M","","","13","","33","","","","98.98","","","","-43","","NA"
"-133.94","68.91","STORM HILLS","220LQJJ","2018-01-13 23:00","2018","01","13","23:00","-26.8","","","","","M","","","13","","37","","","","98.90","","","","-43","","NA"
"-133.94","68.91","STORM HILLS","220LQJJ","2018-01-14 00:00","2018","01","14","00:00","-27.7","","","","","M","","","13","","37","","","","98.81","","","","-44","","NA"
"-133.94","68.91","STORM HILLS","220LQJJ","2018-01-14 01:00","2018","01","14","01:00","-25.9","","","","","M","","","13","","41","","","","98.70","","","","-42","","NA"
"-133.94","68.91","STORM HILLS","220LQJJ","2018-01-14 02:00","2018","01","14","02:00","-23.4","","","","","M","","","13","","43","","","","98.55","","","","-39","","NA"
"-133.94","68.91","STORM HILLS","220LQJJ","2018-01-14 03:00","2018","01","14","03:00","-24.9","","","","","M","","","11","","13","","","","98.36","","","","-34","","NA"
"-133.94","68.91","STORM HILLS","220LQJJ","2018-01-14 04:00","2018","01","14","04:00","-25.7","","","","","M","","","10","","15","","","","98.13","","","","-36","","NA"
"-133.94","68.91","STORM HILLS","220LQJJ","2018-01-14 05:00","2018","01","14","05:00","-23.0","","","","","M","","","11","","15","","","","97.96","","","","-33","","NA"
"-133.94","68.91","STORM HILLS","220LQJJ","2018-01-14 06:00","2018","01","14","06:00","-21.2","","","","","M","","","11","","17","","","","97.74","","","","-31","","NA"
"-133.94","68.91","STORM HILLS","220LQJJ","2018-01-14 07:00","2018","01","14","07:00","-20.4","","","","","M","","","12","","31","","","","97.56","","","","-33","","NA"
"-133.94","68.91","STORM HILLS","220LQJJ","2018-01-14 08:00","2018","01","14","08:00","-19.8","","","","","M","","","13","","59","","","","97.38","","","","-36","","NA"
"-133.94","68.91","STORM HILLS","220LQJJ","2018-01-14 09:00","2018","01","14","09:00","-20.5","","","","","M","","","13","","56","","","","97.21","","","","-37","","NA"
"-133.94","68.91","STORM HILLS","220LQJJ","2018-01-14 10:00","2018","01","14","10:00","-20.5","","","","","M","","","14","","54","","","","97.09","","","","-37","","NA"
"-133.94","68.91","STORM HILLS","220LQJJ","2018-01-14 11:00","2018","01","14","11:00","-20.1","","","","","M","","","16","","69","","","","96.94","","","","-37","","NA"
"-133.94","68.91","STORM HILLS","220LQJJ","2018-01-14 12:00","2018","01","14","12:00","-18.5","","","","","M","","","16","","65","","","","96.90","","","","-35","","NA"
"-133.94","68.91","STORM HILLS","220LQJJ","2018-01-14 13:00","2018","01","14","13:00","-17.3","","","","","M","","","17","","76","","","","96.74","","","","-34","","NA"
"-133.94","68.91","STORM HILLS","220LQJJ","2018-01-14 14:00","2018","01","14","14:00","-17.6","","","","","M","","","18","","72","","","","96.69","","","","-34","","NA"
"-133.94","68.91","STORM HILLS","220LQJJ","2018-01-14 15:00","2018","01","14","15:00","-17.1","","","","","M","","","18","","78","","","","96.71","","","","-34","","NA"
"-133.94","68.91","STORM HILLS","220LQJJ","2018-01-14 16:00","2018","01","14","16:00","-17.4","","","","","M","","","18","","78","","","","96.71","","","","-34","","NA"
"-133.94","68.91","STORM HILLS","220LQJJ","2018-01-14 17:00","2018","01","14","17:00","-16.5","","","","","M","","","18","","76","","","","96.68","","","","-33","","NA"
"-133.94","68.91","STORM HILLS","220LQJJ","2018-01-14 18:00","2018","01","14","18:00","-15.3","","","","","M","","","18","","69","","","","96.71","","","","-31","","NA"
"-133.94","68.91","STORM HILLS","220LQJJ","2018-01-14 19:00","2018","01","14","19:00","-13.9","","","","","M","","","19","","65","","","","96.65","","","","-28","","NA"
"-133.94","68.91","STORM HILLS","220LQJJ","2018-01-14 20:00","2018","01","14","20:00","-14.3","","","","","M","","","18","","65","","","","96.64","","","","-29","","NA"
"-133.94","68.91","STORM HILLS","220LQJJ","2018-01-14 21:00","2018","01","14","21:00","-13.2","","","","","M","","","18","","56","","","","96.70","","","","-27","","NA"
"-133.94","68.91","STORM HILLS","220LQJJ","2018-01-14 22:00","2018","01","14","22:00","-11.9","","","","","M","","","19","","54","","","","96.70","","","","-25","","NA"
"-133.94","68.91","STORM HILLS","220LQJJ","2018-01-14 23:00","2018","01","14","23:00","-9.8","","","","","M","","","19","","44","","","","96.74","","","","-21","","NA"
"-133.94","68.91","STORM HILLS","220LQJJ","2018-01-15 00:00","2018","01","15","00:00","-9.4","","","","","M","","","19","","35","","","","96.76","","","","-19","","NA"
"-133.94","68.91","STORM HILLS","220LQJJ","2018-01-15 01:00","2018","01","15","01:00","-6.5","","","","","M","","","20","","30","","","","96.82","","","","-15","","NA"
"-133.94","68.91","STORM HILLS","220LQJJ","2018-01-15 02:00","2018","01","15","02:00","-4.0","","","","","M","","","16","","15","","","","96.80","","","","-9","","NA"
"-133.94","68.91","STORM HILLS","220LQJJ","2018-01-15 03:00","2018","01","15","03:00","-4.8","","","","","M","","","15","","19","","","","96.80","","","","-11","","NA"
"-133.94","68.91","STORM HILLS","220LQJJ","2018-01-15 04:00","2018","01","15","04:00","-3.9","","","","","M","","","16","","28","","","","96.77","","","","-11","","NA"
"-133.94","68.91","STORM HILLS","220LQJJ","2018-01-15 05:00","2018","01","15","05:00","-7.4","","","","","M","","","17","","33","","","","96.77","","","","-17","","NA"
"-133.94","68.91","STORM HILLS","220LQJJ","2018-01-15 06:00","2018","01","15","06:00","-3.8","","","","","M","","","18","","33","","","","96.73","","","","-12","","NA"
"-133.94","68.91","STORM HILLS","220LQJJ","2018-01-15 07:00","2018","01","15","07:00","-1.3","","","","","M","","","18","","33","","","","96.66","","","","-8","","NA"
"-133.94","68.91","STORM HILLS","220LQJJ","2018-01-15 08:00","2018","01","15","08:00","2.5","","","","","M","","","20","","13","","","","96.65","","","","","","NA"
"-133.94","68.91","STORM HILLS","220LQJJ","2018-01-15 09:00","2018","01","15","09:00","-2.0","","","","","M","","","17","","22","","","","96.61","","","","-8","","NA"
"-133.94","68.91","STORM HILLS","220LQJJ","2018-01-15 10:00","2018","01","15","10:00","0.0","","","","","M","","","15","","20","","","","96.61","","","","-5","","NA"
"-133.94","68.91","STORM HILLS","220LQJJ","2018-01-15 11:00","2018","01","15","11:00","0.8","","","","","M","","","16","","17","","","","96.60","","","","","","NA"
"-133.94","68.91","STORM HILLS","220LQJJ","2018-01-15 12:00","2018","01","15","12:00","-0.4","","","","","M","","","17","","19","","","","96.58","","","","-6","","NA"
"-133.94","68.91","STORM HILLS","220LQJJ","2018-01-15 13:00","2018","01","15","13:00","2.9","","","","","M","","","15","","15","","","","96.57","","","","","","NA"
"-133.94","68.91","STORM HILLS","220LQJJ","2018-01-15 14:00","2018","01","15","14:00","4.4","","","","","M","","","17","","15","","","","96.59","","","","","","NA"
"-133.94","68.91","STORM HILLS","220LQJJ","2018-01-15 15:00","2018","01","15","15:00","1.4","","","","","M","","","28","","6","","","","96.61","","","","","","NA"
"-133.94","68.91","STORM HILLS","220LQJJ","2018-01-15 16:00","2018","01","15","16:00","-0.1","","","","","M","","","21","","9","","","","96.68","","","","-3","","NA"
"-133.94","68.91","STORM HILLS","220LQJJ","2018-01-15 17:00","2018","01","15","17:00","-2.5","","","","","M","","","21","","7","","","","96.73","","","","-5","","NA"
"-133.94","68.91","STORM HILLS","220LQJJ","2018-01-15 18:00","2018","01","15","18:00","-2.2","","","","","M","","","25","","15","","","","96.76","","","","-7","","NA"
"-133.94","68.91","STORM HILLS","220LQJJ","2018-01-15 19:00","2018","01","15","19:00","-2.1","","","","","M","","","26","","13","","","","96.82","","","","-7","","NA"
"-133.94","68.91","STORM HILLS","220LQJJ","2018-01-15 20:00","2018","01","15","20:00","-1.0","","","","","M","","","28","","13","","","","96.88","","","","-5","","NA"
"-133.94","68.91","STORM HILLS","220LQJJ","2018-01-15 21:00","2018","01","15","21:00","-0.9","","","","","M","","","26","","11","","","","96.96","","","","-5","","NA"
"-133.94","68.91","STORM HILLS","220LQJJ","2018-01-15 22:00","2018","01","15","22:00","0.7","","","","","M","","","29","","9","","","","97.01","","","","","","NA"
"-133.94","68.91","STORM HILLS","220LQJJ","2018-01-15 23:00","2018","01","15","23:00","-0.5","","","","","M","","","25","","13","","","","97.11","","","","-5","","NA"
"-133.94","68.91","STORM HILLS","220LQJJ","2018-01-16 00:00","2018","01","16","00:00","0.2","","","","","M","","","28","","11","","","","97.19","","","","","","NA"
"-133.94","68.91","STORM HILLS","220LQJJ","2018-01-16 01:00","2018","01","16","01:00","-1.9","","","","","M","","","28","","15","","","","97.20","","","","-7","","NA"
"-133.94","68.91","STORM HILLS","220LQJJ","2018-01-16 02:00","2018","01","16","02:00","-0.3","","","","","M","","","30","","9","","","","97.29","","","","-3","","NA"
"-133.94","68.91","STORM HILLS","220LQJJ","2018-01-16 03:00","2018","01","16","03:00","-0.2","","","","","M","","","32","","11","","","","97.33","","","","-4","","NA"
"-133.94","68.91","STORM HILLS","220LQJJ","2018-01-16 04:00","2018","01","16","04:00","1.0","","","","","M","","","32","","13","","","","97.33","","","","","","NA"
"-133.94","68.91","STORM HILLS","220LQJJ","2018-01-16 05:00","2018","01","16","05:00","-1.6","","","","","M","","","","","0","","","","97.38","","","","","","NA"
"-133.94","68.91","STORM HILLS","220LQJJ","2018-01-16 06:00","2018","01","16","06:00","-2.2","","","","","M","","","13","","9","","","","97.42","","","","-6","","NA"
"-133.94","68.91","STORM HILLS","220LQJJ","2018-01-16 07:00","2018","01","16","07:00","-1.0","","","","","M","","","11","","9","","","","97.39","","","","-4","","NA"
"-133.94","68.91","STORM HILLS","220LQJJ","2018-01-16 08:00","2018","01","16","08:00","0.3","","","","","M","","","11","","6","","","","97.36","","","","","","NA"
"-133.94","68.91","STORM HILLS","220LQJJ","2018-01-16 09:00","2018","01","16","09:00","-0.5","","","","","M","","","11","","7","","","","97.36","","","","-3","","NA"
"-133.94","68.91","STORM HILLS","220LQJJ","2018-01-16 10:00","2018","01","16","10:00","-0.4","","","","","M","","","13","","15","","","","97.34","","","","-5","","NA"
"-133.94","68.91","STORM HILLS","220LQJJ","2018-01-16 11:00","2018","01","16","11:00","1.4","","","","","M","","","18","","13","","","","97.36","","","","","","NA"
"-133.94","68.91","STORM HILLS","220LQJJ","2018-01-16 12:00","2018","01","16","12:00","4.4","","","","","M","","","24","","11","","","","97.36","","","","","","NA"
"-133.94","68.91","STORM HILLS","220LQJJ","2018-01-16 13:00","2018","01","16","13:00","-1.4","","","","","M","","","","","0","","","","97.39","","","","","","NA"
"-133.94","68.91","STORM HILLS","220LQJJ","2018-01-16 14:00","2018","01","16","14:00","-1.4","","","","","M","","","10","","11","","","","97.39","","","","-5","","NA"
"-133.94","68.91","STORM HILLS","220LQJJ","2018-01-16 15:00","2018","01","16","15:00","-1.6","","","","","M","","","19","","7","","","","97.41","","","","-4","","NA"
"-133.94","68.91","STORM HILLS","220LQJJ","2018-01-16 16:00","2018","01","16","16:00","1.4","","","","","M","","","2","","9","","","","97.39","","","","","","NA"
"-133.94","68.91","STORM HILLS","220LQJJ","2018-01-16 17:00","2018","01","16","17:00","0.1","","","","","M","","","6","","9","","","","97.38","","","","","","NA"
"-133.94","68.91","STORM HILLS","220LQJJ","2018-01-16 18:00","2018","01","16","18:00","0.6","","","","","M","","","6","","6","","","","97.33","","","","","","NA"
"-133.94","68.91","STORM HILLS","220LQJJ","2018-01-16 19:00","2018","01","16","19:00","-3.1","","","","","M","","","31","","9","","","","97.31","","","","-7","","NA"
"-133.94","68.91","STORM HILLS","220LQJJ","2018-01-16 20:00","2018","01","16","20:00","-2.0","","","","","M","","","36","","11","","","","97.31","","","","-6","","NA"
"-133.94","68.91","STORM HILLS","220LQJJ","2018-01-16 21:00","2018","01","16","21:00","-4.2","","","","","M","","","3","","19","","","","97.27","","","","-10","","NA"
"-133.94","68.91","STORM HILLS","220LQJJ","2018-01-16 22:00","2018","01","16","22:00","-4.2","","","","","M","","","5","","13","","","","97.25","","","","-9","","NA"
"-133.94","68.91","STORM HILLS","220LQJJ","2018-01-16 23:00","2018","01","16","23:00","-5.0","","","","","M","","","7","","19","","","","97.21","","","","-11","","NA"
"-133.94","68.91","STORM HILLS","220LQJJ","2018-01-17 00:00","2018","01","17","00:00","-4.5","","","","","M","","","6","","17","","","","97.21","","","","-10","","NA"
"-133.94","68.91","STORM HILLS","220LQJJ","2018-01-17 01:00","2018","01","17","01:00","-5.5","","","","","M","","","6","","19","","","","97.19","","","","-12","","NA"
"-133.94","68.91","STORM HILLS","220LQJJ","2018-01-17 02:00","2018","01","17","02:00","-7.3","","","","","M","","","7","","22","","","","97.17","","","","-15","","NA"
"-133.94","68.91","STORM HILLS","220LQJJ","2018-01-17 03:00","2018","01","17","03:00","-7.4","","","","","M","","","7","","20","","","","97.13","","","","-15","","NA"
"-133.94","68.91","STORM HILLS","220LQJJ","2018-01-17 04:00","2018","01","17","04:00","-8.5","","","","","M","","","9","","22","","","","97.10","","","","-16","","NA"
"-133.94","68.91","STORM HILLS","220LQJJ","2018-01-17 05:00","2018","01","17","05:00","-8.5","","","","","M","","","10","","22","","","","97.05","","","","-16","","NA"
"-133.94","68.91","STORM HILLS","220LQJJ","2018-01-17 06:00","2018","01","17","06:00","-8.5","","","","","M","","","10","","7","","","","97.07","","","","-12","","NA"
"-133.94","68.91","STORM HILLS","220LQJJ","2018-01-17 07:00","2018","01","17","07:00","-8.3","","","","","M","","","7","","15","","","","96.99","","","","-15","","NA"
"-133.94","68.91","STORM HILLS","220LQJJ","2018-01-17 08:00","2018","01","17","08:00","-8.3","","","","","M","","","8","","22","","","","96.96","","","","-16","","NA"
"-133.94","68.91","STORM HILLS","220LQJJ","2018-01-17 09:00","2018","01","17","09:00","-8.1","","","","","M","","","9","","24","","","","96.92","","","","-16","","NA"
"-133.94","68.91","STORM HILLS","220LQJJ","2018-01-17 10:00","2018","01","17","10:00","-8.4","","","","","M","","","8","","26","","","","96.90","","","","-17","","NA"
"-133.94","68.91","STORM HILLS","220LQJJ","2018-01-17 11:00","2018","01","17","11:00","-8.8","","","","","M","","","10","","20","","","","96.91","","","","-16","","NA"
"-133.94","68.91","STORM HILLS","220LQJJ","2018-01-17 12:00","2018","01","17","12:00","-9.5","","","","","M","","","7","","20","","","","96.86","","","","-17","","NA"
"-133.94","68.91","STORM HILLS","220LQJJ","2018-01-17 13:00","2018","01","17","13:00","-10.0","","","","","M","","","8","","17","","","","96.88","","","","-17","","NA"
"-133.94","68.91","STORM HILLS","220LQJJ","2018-01-17 14:00","2018","01","17","14:00","-9.9","","","","","M","","","9","","13","","","","96.84","","","","-16","","NA"
"-133.94","68.91","STORM HILLS","220LQJJ","2018-01-17 15:00","2018","01","17","15:00","-8.7","","","","","M","","","9","","13","","","","96.82","","","","-15","","NA"
"-133.94","68.91","STORM HILLS","220LQJJ","2018-01-17 16:00","2018","01","17","16:00","-9.6","","","","","M","","","6","","20","","","","96.76","","","","-17","","NA"
"-133.94","68.91","STORM HILLS","220LQJJ","2018-01-17 17:00","2018","01","17","17:00","-9.6","","","","","M","","","7","","20","","","","96.74","","","","-17","","NA"
"-133.94","68.91","STORM HILLS","220LQJJ","2018-01-17 18:00","2018","01","17","18:00","-9.4","","","","","M","","","7","","19","","","","96.73","","","","-17","","NA"
"-133.94","68.91","STORM HILLS","220LQJJ","2018-01-17 19:00","2018","01","17","19:00","-10.1","","","","","M","","","6","","24","","","","96.65","","","","-19","","NA"
"-133.94","68.91","STORM HILLS","220LQJJ","2018-01-17 20:00","2018","01","17","20:00","-10.3","","","","","M","","","7","","13","","","","96.61","","","","-17","","NA"
"-133.94","68.91","STORM HILLS","220LQJJ","2018-01-17 21:00","2018","01","17","21:00","-10.4","","","","","M","","","7","","13","","","","96.57","","","","-17","","NA"
"-133.94","68.91","STORM HILLS","220LQJJ","2018-01-17 22:00","2018","01","17","22:00","-10.3","","","","","M","","","9","","11","","","","96.53","","","","-16","","NA"
"-133.94","68.91","STORM HILLS","220LQJJ","2018-01-17 23:00","2018","01","17","23:00","-9.8","","","","","M","","","13","","9","","","","96.50","","","","-15","","NA"
"-133.94","68.91","STORM HILLS","220LQJJ","2018-01-18 00:00","2018","01","18","00:00","-9.2","","","","","M","","","13","","9","","","","96.50","","","","-14","","NA"
"-133.94","68.91","STORM HILLS","220LQJJ","2018-01-18 01:00","2018","01","18","01:00","-9.7","","","","","M","","","13","","11","","","","96.51","","","","-15","","NA"
"-133.94","68.91","STORM HILLS","220LQJJ","2018-01-18 02:00","2018","01","18","02:00","-10.1","","","","","M","","","10","","9","","","","96.49","","","","-15","","NA"
"-133.94","68.91","STORM HILLS","220LQJJ","2018-01-18 03:00","2018","01","18","03:00","-10.6","","","","","M","","","12","","13","","","","96.47","","","","-17","","NA"
"-133.94","68.91","STORM HILLS","220LQJJ","2018-01-18 04:00","2018","01","18","04:00","-10.5","","","","","M","","","13","","19","","","","96.45","","","","-18","","NA"
"-133.94","68.91","STORM HILLS","220LQJJ","2018-01-18 05:00","2018","01","18","05:00","-10.5","","","","","M","","","11","","6","","","","96.44","","","","-14","","NA"
"-133.94","68.91","STORM HILLS","220LQJJ","2018-01-18 06:00","2018","01","18","06:00","-10.1","","","","","M","","","12","","9","","","","96.42","","","","-15","","NA"
"-133.94","68.91","STORM HILLS","220LQJJ","2018-01-18 07:00","2018","01","18","07:00","-9.8","","","","","M","","","9","","22","","","","96.39","","","","-18","","NA"
"-133.94","68.91","STORM HILLS","220LQJJ","2018-01-18 08:00","2018","01","18","08:00","-9.6","","","","","M","","","9","","30","","","","96.36","","","","-19","","NA"
"-133.94","68.91","STORM HILLS","220LQJJ","2018-01-18 09:00","2018","01","18","09:00","-9.1","","","","","M","","","10","","20","","","","96.37","","","","-17","","NA"
"-133.94","68.91","STORM HILLS","220LQJJ","2018-01-18 10:00","2018","01","18","10:00","-8.4","","","","","M","","","9","","24","","","","96.37","","","","-17","","NA"
"-133.94","68.91","STORM HILLS","220LQJJ","2018-01-18 11:00","2018","01","18","11:00","-8.3","","","","","M","","","7","","22","","","","96.38","","","","-16","","NA"
"-133.94","68.91","STORM HILLS","220LQJJ","2018-01-18 12:00","2018","01","18","12:00","-7.9","","","","","M","","","7","","20","","","","96.39","","","","-15","","NA"
"-133.94","68.91","STORM HILLS","220LQJJ","2018-01-18 13:00","2018","01","18","13:00","-7.7","","","","","M","","","5","","19","","","","96.42","","","","-15","","NA"
"-133.94","68.91","STORM HILLS","220LQJJ","2018-01-18 14:00","2018","01","18","14:00","-7.7","","","","","M","","","6","","19","","","","96.43","","","","-15","","NA"
"-133.94","68.91","STORM HILLS","220LQJJ","2018-01-18 15:00","2018","01","18","15:00","-7.8","","","","","M","","","6","","17","","","","96.43","","","","-14","","NA"
"-133.94","68.91","STORM HILLS","220LQJJ","2018-01-18 16:00","2018","01","18","16:00","-7.8","","","","","M","","","5","","19","","","","96.46","","","","-15","","NA"
"-133.94","68.91","STORM HILLS","220LQJJ","2018-01-18 17:00","2018","01","18","17:00","-8.0","","","","","M","","","5","","17","","","","96.53","","","","-15","","NA"
"-133.94","68.91","STORM HILLS","220LQJJ","2018-01-18 18:00","2018","01","18","18:00","-8.1","","","","","M","","","5","","19","","","","96.55","","","","-15","","NA"
"-133.94","68.91","STORM HILLS","220LQJJ","2018-01-18 19:00","2018","01","18","19:00","-8.1","","","","","M","","","4","","15","","","","96.60","","","","-14","","NA"
"-133.94","68.91","STORM HILLS","220LQJJ","2018-01-18 20:00","2018","01","18","20:00","-8.1","","","","","M","","","3","","9","","","","96.63","","","","-13","","NA"
"-133.94","68.91","STORM HILLS","220LQJJ","2018-01-18 21:00","2018","01","18","21:00","-8.2","","","","","M","","","35","","11","","","","96.68","","","","-13","","NA"
"-133.94","68.91","STORM HILLS","220LQJJ","2018-01-18 22:00","2018","01","18","22:00","-8.4","","","","","M","","","33","","15","","","","96.70","","","","-15","","NA"
"-133.94","68.91","STORM HILLS","220LQJJ","2018-01-18 23:00","2018","01","18","23:00","-8.5","","","","","M","","","32","","17","","","","96.74","","","","-15","","NA"
"-133.94","68.91","STORM HILLS","220LQJJ","2018-01-19 00:00","2018","01","19","00:00","-8.5","","","","","M","","","34","","13","","","","96.80","","","","-14","","NA"
"-133.94","68.91","STORM HILLS","220LQJJ","2018-01-19 01:00","2018","01","19","01:00","-8.5","","","","","M","","","32","","19","","","","96.83","","","","-16","","NA"
"-133.94","68.91","STORM HILLS","220LQJJ","2018-01-19 02:00","2018","01","19","02:00","-8.9","","","","","M","","","31","","24","","","","96.86","","","","-17","","NA"
"-133.94","68.91","STORM HILLS","220LQJJ","2018-01-19 03:00","2018","01","19","03:00","-8.6","","","","","M","","","30","","13","","","","96.95","","","","-15","","NA"
"-133.94","68.91","STORM HILLS","220LQJJ","2018-01-19 04:00","2018","01","19","04:00","-8.6","","","","","M","","","31","","15","","","","96.96","","","","-15","","NA"
"-133.94","68.91","STORM HILLS","220LQJJ","2018-01-19 05:00","2018","01","19","05:00","-8.5","","","","","M","","","30","","26","","","","96.94","","","","-17","","NA"
"-133.94","68.91","STORM HILLS","220LQJJ","2018-01-19 06:00","2018","01","19","06:00","-8.0","","","","","M","","","27","","22","","","","97.01","","","","-16","","NA"
"-133.94","68.91","STORM HILLS","220LQJJ","2018-01-19 07:00","2018","01","19","07:00","-7.7","","","","","M","","","","M","","M","","","96.99","","","","","","NA"
"-133.94","68.91","STORM HILLS","220LQJJ","2018-01-19 08:00","2018","01","19","08:00","-8.4","","","","","M","","","","M","","M","","","97.01","","","","","","NA"
"-133.94","68.91","STORM HILLS","220LQJJ","2018-01-19 09:00","2018","01","19","09:00","-8.7","","","","","M","","","29","","44","","","","97.00","","","","-19","","NA"
"-133.94","68.91","STORM HILLS","220LQJJ","2018-01-19 10:00","2018","01","19","10:00","-9.0","","","","","M","","","28","","33","","","","97.11","","","","-19","","NA"
"-133.94","68.91","STORM HILLS","220LQJJ","2018-01-19 11:00","2018","01","19","11:00","-10.4","","","","","M","","","27","","52","","","","97.10","","","","-22","","NA"
"-133.94","68.91","STORM HILLS","220LQJJ","2018-01-19 12:00","2018","01","19","12:00","-12.3","","","","","M","","","27","","54","","","","97.26","","","","-25","","NA"
"-133.94","68.91","STORM HILLS","220LQJJ","2018-01-19 13:00","2018","01","19","13:00","-13.4","","","","","M","","","28","","50","","","","97.34","","","","-26","","NA"
"-133.94","68.91","STORM HILLS","220LQJJ","2018-01-19 14:00","2018","01","19","14:00","-14.5","","","","","M","","","29","","43","","","","97.45","","","","-27","","NA"
"-133.94","68.91","STORM HILLS","220LQJJ","2018-01-19 15:00","2018","01","19","15:00","-15.5","","","","","M","","","29","","61","","","","97.54","","","","-30","","NA"
"-133.94","68.91","STORM HILLS","220LQJJ","2018-01-19 16:00","2018","01","19","16:00","-16.3","","","","","M","","","29","","59","","","","97.63","","","","-31","","NA"
"-133.94","68.91","STORM HILLS","220LQJJ","2018-01-19 17:00","2018","01","19","17:00","-16.7","","","","","M","","","29","","61","","","","97.66","","","","-32","","NA"
"-133.94","68.91","STORM HILLS","220LQJJ","2018-01-19 18:00","2018","01","19","18:00","-17.4","","","","","M","","","29","","61","","","","97.79","","","","-33","","NA"
"-133.94","68.91","STORM HILLS","220LQJJ","2018-01-19 19:00","2018","01","19","19:00","-18.0","","","","","M","","","29","","57","","","","97.87","","","","-33","","NA"
"-133.94","68.91","STORM HILLS","220LQJJ","2018-01-19 20:00","2018","01","19","20:00","-18.5","","","","","M","","","29","","52","","","","97.90","","","","-34","","NA"
"-133.94","68.91","STORM HILLS","220LQJJ","2018-01-19 21:00","2018","01","19","21:00","-19.0","","","","","M","","","28","","50","","","","98.01","","","","-34","","NA"
"-133.94","68.91","STORM HILLS","220LQJJ","2018-01-19 22:00","2018","01","19","22:00","-19.4","","","","","M","","","28","","50","","","","98.05","","","","-35","","NA"
"-133.94","68.91","STORM HILLS","220LQJJ","2018-01-19 23:00","2018","01","19","23:00","-19.9","","","","","M","","","28","","54","","","","98.16","","","","-36","","NA"
"-133.94","68.91","STORM HILLS","220LQJJ","2018-01-20 00:00","2018","01","20","00:00","-20.4","","","","","M","","","29","","59","","","","98.21","","","","-37","","NA"
"-133.94","68.91","STORM HILLS","220LQJJ","2018-01-20 01:00","2018","01","20","01:00","-20.7","","","","","M","","","29","","63","","","","98.25","","","","-38","","NA"
"-133.94","68.91","STORM HILLS","220LQJJ","2018-01-20 02:00","2018","01","20","02:00","-21.3","","","","","M","","","29","","72","","","","98.23","","","","-39","","NA"
"-133.94","68.91","STORM HILLS","220LQJJ","2018-01-20 03:00","2018","01","20","03:00","-22.0","","","","","M","","","29","","65","","","","98.30","","","","-40","","NA"
"-133.94","68.91","STORM HILLS","220LQJJ","2018-01-20 04:00","2018","01","20","04:00","-22.5","","","","","M","","","29","","69","","","","98.29","","","","-41","","NA"
"-133.94","68.91","STORM HILLS","220LQJJ","2018-01-20 05:00","2018","01","20","05:00","-22.8","","","","","M","","","29","","61","","","","98.37","","","","-40","","NA"
"-133.94","68.91","STORM HILLS","220LQJJ","2018-01-20 06:00","2018","01","20","06:00","-23.4","","","","","M","","","28","","50","","","","98.54","","","","-40","","NA"
"-133.94","68.91","STORM HILLS","220LQJJ","2018-01-20 07:00","2018","01","20","07:00","-24.5","","","","","M","","","28","","39","","","","98.58","","","","-40","","NA"
"-133.94","68.91","STORM HILLS","220LQJJ","2018-01-20 08:00","2018","01","20","08:00","-25.0","","","","","M","","","28","","41","","","","98.63","","","","-41","","NA"
"-133.94","68.91","STORM HILLS","220LQJJ","2018-01-20 09:00","2018","01","20","09:00","-25.8","","","","","M","","","28","","37","","","","98.64","","","","-41","","NA"
"-133.94","68.91","STORM HILLS","220LQJJ","2018-01-20 10:00","2018","01","20","10:00","-26.0","","","","","M","","","28","","37","","","","98.71","","","","-42","","NA"
"-133.94","68.91","STORM HILLS","220LQJJ","2018-01-20 11:00","2018","01","20","11:00","-26.0","","","","","M","","","28","","37","","","","98.74","","","","-42","","NA"
"-133.94","68.91","STORM HILLS","220LQJJ","2018-01-20 12:00","2018","01","20","12:00","-26.3","","","","","M","","","28","","35","","","","98.78","","","","-42","","NA"
"-133.94","68.91","STORM HILLS","220LQJJ","2018-01-20 13:00","2018","01","20","13:00","-25.6","","","","","M","","","27","","35","","","","98.83","","","","-41","","NA"
"-133.94","68.91","STORM HILLS","220LQJJ","2018-01-20 14:00","2018","01","20","14:00","-26.3","","","","","M","","","28","","41","","","","98.81","","","","-43","","NA"
"-133.94","68.91","STORM HILLS","220LQJJ","2018-01-20 15:00","2018","01","20","15:00","-26.6","","","","","M","","","28","","31","","","","98.91","","","","-41","","NA"
"-133.94","68.91","STORM HILLS","220LQJJ","2018-01-20 16:00","2018","01","20","16:00","-26.9","","","","","M","","","28","","28","","","","98.93","","","","-41","","NA"
"-133.94","68.91","STORM HILLS","220LQJJ","2018-01-20 17:00","2018","01","20","17:00","-27.2","","","","","M","","","28","","39","","","","98.89","","","","-44","","NA"
"-133.94","68.91","STORM HILLS","220LQJJ","2018-01-20 18:00","2018","01","20","18:00","-27.8","","","","","M","","","28","","28","","","","98.93","","","","-42","","NA"
"-133.94","68.91","STORM HILLS","220LQJJ","2018-01-20 19:00","2018","01","20","19:00","-27.3","","","","","M","","","28","","22","","","","98.97","","","","-40","","NA"
"-133.94","68.91","STORM HILLS","220LQJJ","2018-01-20 20:00","2018","01","20","20:00","-26.6","","","","","M","","","28","","26","","","","98.98","","","","-40","","NA"
"-133.94","68.91","STORM HILLS","220LQJJ","2018-01-20 21:00","2018","01","20","21:00","-25.7","","","","","M","","","28","","15","","","","99.02","","","","-36","","NA"
"-133.94","68.91","STORM HILLS","220LQJJ","2018-01-20 22:00","2018","01","20","22:00","-25.2","","","","","M","","","27","","13","","","","99.05","","","","-35","","NA"
"-133.94","68.91","STORM HILLS","220LQJJ","2018-01-20 23:00","2018","01","20","23:00","-24.6","","","","","M","","","27","","17","","","","99.05","","","","-35","","NA"
"-133.94","68.91","STORM HILLS","220LQJJ","2018-01-21 00:00","2018","01","21","00:00","-24.2","","","","","M","","","30","","15","","","","99.05","","","","-34","","NA"
"-133.94","68.91","STORM HILLS","220LQJJ","2018-01-21 01:00","2018","01","21","01:00","-24.0","","","","","M","","","29","","13","","","","99.09","","","","-33","","NA"
"-133.94","68.91","STORM HILLS","220LQJJ","2018-01-21 02:00","2018","01","21","02:00","-23.9","","","","","M","","","29","","11","","","","99.10","","","","-32","","NA"
"-133.94","68.91","STORM HILLS","220LQJJ","2018-01-21 03:00","2018","01","21","03:00","-23.7","","","","","M","","","30","","11","","","","99.10","","","","-32","","NA"
"-133.94","68.91","STORM HILLS","220LQJJ","2018-01-21 04:00","2018","01","21","04:00","-23.7","","","","","M","","","31","","11","","","","99.11","","","","-32","","NA"
"-133.94","68.91","STORM HILLS","220LQJJ","2018-01-21 05:00","2018","01","21","05:00","-23.6","","","","","M","","","34","","11","","","","99.09","","","","-32","","NA"
"-133.94","68.91","STORM HILLS","220LQJJ","2018-01-21 06:00","2018","01","21","06:00","-23.6","","","","","M","","","1","","9","","","","99.06","","","","-31","","NA"
"-133.94","68.91","STORM HILLS","220LQJJ","2018-01-21 07:00","2018","01","21","07:00","-23.6","","","","","M","","","3","","11","","","","99.06","","","","-32","","NA"
"-133.94","68.91","STORM HILLS","220LQJJ","2018-01-21 08:00","2018","01","21","08:00","-23.6","","","","","M","","","4","","9","","","","99.05","","","","-31","","NA"
"-133.94","68.91","STORM HILLS","220LQJJ","2018-01-21 09:00","2018","01","21","09:00","-23.6","","","","","M","","","4","","11","","","","99.03","","","","-32","","NA"
"-133.94","68.91","STORM HILLS","220LQJJ","2018-01-21 10:00","2018","01","21","10:00","-23.6","","","","","M","","","7","","11","","","","99.02","","","","-32","","NA"
"-133.94","68.91","STORM HILLS","220LQJJ","2018-01-21 11:00","2018","01","21","11:00","-23.7","","","","","M","","","6","","13","","","","99.02","","","","-33","","NA"
"-133.94","68.91","STORM HILLS","220LQJJ","2018-01-21 12:00","2018","01","21","12:00","-23.8","","","","","M","","","6","","11","","","","99.04","","","","-32","","NA"
"-133.94","68.91","STORM HILLS","220LQJJ","2018-01-21 13:00","2018","01","21","13:00","-24.0","","","","","M","","","4","","11","","","","99.02","","","","-32","","NA"
"-133.94","68.91","STORM HILLS","220LQJJ","2018-01-21 14:00","2018","01","21","14:00","-24.3","","","","","M","","","3","","17","","","","98.99","","","","-35","","NA"
"-133.94","68.91","STORM HILLS","220LQJJ","2018-01-21 15:00","2018","01","21","15:00","-24.3","","","","","M","","","5","","20","","","","98.95","","","","-36","","NA"
"-133.94","68.91","STORM HILLS","220LQJJ","2018-01-21 16:00","2018","01","21","16:00","-24.5","","","","","M","","","6","","13","","","","98.95","","","","-34","","NA"
"-133.94","68.91","STORM HILLS","220LQJJ","2018-01-21 17:00","2018","01","21","17:00","-24.3","","","","","M","","","6","","17","","","","98.94","","","","-35","","NA"
"-133.94","68.91","STORM HILLS","220LQJJ","2018-01-21 18:00","2018","01","21","18:00","-24.2","","","","","M","","","6","","24","","","","98.89","","","","-37","","NA"
"-133.94","68.91","STORM HILLS","220LQJJ","2018-01-21 19:00","2018","01","21","19:00","-24.3","","","","","M","","","7","","26","","","","98.85","","","","-37","","NA"
"-133.94","68.91","STORM HILLS","220LQJJ","2018-01-21 20:00","2018","01","21","20:00","-24.7","","","","","M","","","7","","24","","","","98.82","","","","-37","","NA"
"-133.94","68.91","STORM HILLS","220LQJJ","2018-01-21 21:00","2018","01","21","21:00","-24.8","","","","","M","","","7","","26","","","","98.79","","","","-38","","NA"
"-133.94","68.91","STORM HILLS","220LQJJ","2018-01-21 22:00","2018","01","21","22:00","-25.3","","","","","M","","","5","","17","","","","98.79","","","","-36","","NA"
"-133.94","68.91","STORM HILLS","220LQJJ","2018-01-21 23:00","2018","01","21","23:00","-25.4","","","","","M","","","6","","19","","","","98.76","","","","-37","","NA"
"-133.94","68.91","STORM HILLS","220LQJJ","2018-01-22 00:00","2018","01","22","00:00","-25.2","","","","","M","","","5","","24","","","","98.72","","","","-38","","NA"
"-133.94","68.91","STORM HILLS","220LQJJ","2018-01-22 01:00","2018","01","22","01:00","-24.8","","","","","M","","","4","","22","","","","98.72","","","","-37","","NA"
"-133.94","68.91","STORM HILLS","220LQJJ","2018-01-22 02:00","2018","01","22","02:00","-24.9","","","","","M","","","2","","20","","","","98.72","","","","-37","","NA"
"-133.94","68.91","STORM HILLS","220LQJJ","2018-01-22 03:00","2018","01","22","03:00","-25.0","","","","","M","","","1","","22","","","","98.70","","","","-37","","NA"
"-133.94","68.91","STORM HILLS","220LQJJ","2018-01-22 04:00","2018","01","22","04:00","-24.9","","","","","M","","","1","","19","","","","98.69","","","","-36","","NA"
"-133.94","68.91","STORM HILLS","220LQJJ","2018-01-22 05:00","2018","01","22","05:00","-24.8","","","","","M","","","2","","15","","","","98.65","","","","-35","","NA"
"-133.94","68.91","STORM HILLS","220LQJJ","2018-01-22 06:00","2018","01","22","06:00","-23.5","","","","","M","","","34","","13","","","","98.62","","","","-33","","NA"
"-133.94","68.91","STORM HILLS","220LQJJ","2018-01-22 07:00","2018","01","22","07:00","-23.1","","","","","M","","","33","","9","","","","98.61","","","","-30","","NA"
"-133.94","68.91","STORM HILLS","220LQJJ","2018-01-22 08:00","2018","01","22","08:00","-23.2","","","","","M","","","32","","7","","","","98.61","","","","-29","","NA"
"-133.94","68.91","STORM HILLS","220LQJJ","2018-01-22 09:00","2018","01","22","09:00","-23.2","","","","","M","","","30","","6","","","","98.59","","","","-29","","NA"
"-133.94","68.91","STORM HILLS","220LQJJ","2018-01-22 10:00","2018","01","22","10:00","-23.6","","","","","M","","","26","","7","","","","98.58","","","","-30","","NA"
"-133.94","68.91","STORM HILLS","220LQJJ","2018-01-22 11:00","2018","01","22","11:00","-23.8","","","","","M","","","26","","11","","","","98.56","","","","-32","","NA"
"-133.94","68.91","STORM HILLS","220LQJJ","2018-01-22 12:00","2018","01","22","12:00","-23.9","","","","","M","","","26","","13","","","","98.56","","","","-33","","NA"
"-133.94","68.91","STORM HILLS","220LQJJ","2018-01-22 13:00","2018","01","22","13:00","-23.8","","","","","M","","","26","","13","","","","98.58","","","","-33","","NA"
"-133.94","68.91","STORM HILLS","220LQJJ","2018-01-22 14:00","2018","01","22","14:00","-23.7","","","","","M","","","25","","13","","","","98.57","","","","-33","","NA"
"-133.94","68.91","STORM HILLS","220LQJJ","2018-01-22 15:00","2018","01","22","15:00","-23.6","","","","","M","","","25","","15","","","","98.59","","","","-34","","NA"
"-133.94","68.91","STORM HILLS","220LQJJ","2018-01-22 16:00","2018","01","22","16:00","-23.7","","","","","M","","","24","","19","","","","98.59","","","","-35","","NA"
"-133.94","68.91","STORM HILLS","220LQJJ","2018-01-22 17:00","2018","01","22","17:00","-23.6","","","","","M","","","24","","19","","","","98.58","","","","-35","","NA"
"-133.94","68.91","STORM HILLS","220LQJJ","2018-01-22 18:00","2018","01","22","18:00","-23.3","","","","","M","","","23","","19","","","","98.57","","","","-34","","NA"
"-133.94","68.91","STORM HILLS","220LQJJ","2018-01-22 19:00","2018","01","22","19:00","-23.5","","","","","M","","","23","","22","","","","98.58","","","","-35","","NA"
"-133.94","68.91","STORM HILLS","220LQJJ","2018-01-22 20:00","2018","01","22","20:00","-23.9","","","","","M","","","22","","22","","","","98.59","","","","-36","","NA"
"-133.94","68.91","STORM HILLS","220LQJJ","2018-01-22 21:00","2018","01","22","21:00","-23.8","","","","","M","","","22","","24","","","","98.59","","","","-36","","NA"
"-133.94","68.91","STORM HILLS","220LQJJ","2018-01-22 22:00","2018","01","22","22:00","-23.2","","","","","M","","","23","","20","","","","98.60","","","","-35","","NA"
"-133.94","68.91","STORM HILLS","220LQJJ","2018-01-22 23:00","2018","01","22","23:00","-23.1","","","","","M","","","24","","17","","","","98.60","","","","-34","","NA"
"-133.94","68.91","STORM HILLS","220LQJJ","2018-01-23 00:00","2018","01","23","00:00","-23.3","","","","","M","","","24","","17","","","","98.63","","","","-34","","NA"
"-133.94","68.91","STORM HILLS","220LQJJ","2018-01-23 01:00","2018","01","23","01:00","-23.6","","","","","M","","","22","","22","","","","98.66","","","","-36","","NA"
"-133.94","68.91","STORM HILLS","220LQJJ","2018-01-23 02:00","2018","01","23","02:00","-23.2","","","","","M","","","22","","20","","","","98.67","","","","-35","","NA"
"-133.94","68.91","STORM HILLS","220LQJJ","2018-01-23 03:00","2018","01","23","03:00","-22.8","","","","","M","","","22","","20","","","","98.70","","","","-34","","NA"
"-133.94","68.91","STORM HILLS","220LQJJ","2018-01-23 04:00","2018","01","23","04:00","-22.5","","","","","M","","","22","","17","","","","98.74","","","","-33","","NA"
"-133.94","68.91","STORM HILLS","220LQJJ","2018-01-23 05:00","2018","01","23","05:00","-22.2","","","","","M","","","23","","19","","","","98.72","","","","-33","","NA"
"-133.94","68.91","STORM HILLS","220LQJJ","2018-01-23 06:00","2018","01","23","06:00","-22.1","","","","","M","","","23","","20","","","","98.73","","","","-33","","NA"
"-133.94","68.91","STORM HILLS","220LQJJ","2018-01-23 07:00","2018","01","23","07:00","-22.2","","","","","M","","","23","","22","","","","98.72","","","","-34","","NA"
"-133.94","68.91","STORM HILLS","220LQJJ","2018-01-23 08:00","2018","01","23","08:00","-22.0","","","","","M","","","23","","20","","","","98.75","","","","-33","","NA"
"-133.94","68.91","STORM HILLS","220LQJJ","2018-01-23 09:00","2018","01","23","09:00","-22.0","","","","","M","","","24","","22","","","","98.76","","","","-34","","NA"
"-133.94","68.91","STORM HILLS","220LQJJ","2018-01-23 10:00","2018","01","23","10:00","-22.3","","","","","M","","","24","","19","","","","98.77","","","","-33","","NA"
"-133.94","68.91","STORM HILLS","220LQJJ","2018-01-23 11:00","2018","01","23","11:00","-22.1","","","","","M","","","24","","17","","","","98.79","","","","-32","","NA"
"-133.94","68.91","STORM HILLS","220LQJJ","2018-01-23 12:00","2018","01","23","12:00","-22.1","","","","","M","","","24","","17","","","","98.81","","","","-32","","NA"
"-133.94","68.91","STORM HILLS","220LQJJ","2018-01-23 13:00","2018","01","23","13:00","-22.5","","","","","M","","","24","","17","","","","98.82","","","","-33","","NA"
"-133.94","68.91","STORM HILLS","220LQJJ","2018-01-23 14:00","2018","01","23","14:00","-22.2","","","","","M","","","24","","13","","","","98.83","","","","-31","","NA"
"-133.94","68.91","STORM HILLS","220LQJJ","2018-01-23 15:00","2018","01","23","15:00","-21.9","","","","","M","","","25","","15","","","","98.85","","","","-31","","NA"
"-133.94","68.91","STORM HILLS","220LQJJ","2018-01-23 16:00","2018","01","23","16:00","-21.9","","","","","M","","","25","","17","","","","98.82","","","","-32","","NA"
"-133.94","68.91","STORM HILLS","220LQJJ","2018-01-23 17:00","2018","01","23","17:00","-22.0","","","","","M","","","26","","15","","","","98.85","","","","-32","","NA"
"-133.94","68.91","STORM HILLS","220LQJJ","2018-01-23 18:00","2018","01","23","18:00","-22.2","","","","","M","","","25","","15","","","","98.84","","","","-32","","NA"
"-133.94","68.91","STORM HILLS","220LQJJ","2018-01-23 19:00","2018","01","23","19:00","-22.3","","","","","M","","","26","","15","","","","98.84","","","","-32","","NA"
"-133.94","68.91","STORM HILLS","220LQJJ","2018-01-23 20:00","2018","01","23","20:00","-22.4","","","","","M","","","26","","13","","","","98.84","","","","-31","","NA"
"-133.94","68.91","STORM HILLS","220LQJJ","2018-01-23 21:00","2018","01","23","21:00","-22.5","","","","","M","","","26","","11","","","","98.86","","","","-31","","NA"
"-133.94","68.91","STORM HILLS","220LQJJ","2018-01-23 22:00","2018","01","23","22:00","-22.7","","","","","M","","","27","","6","","","","98.86","","","","-28","","NA"
"-133.94","68.91","STORM HILLS","220LQJJ","2018-01-23 23:00","2018","01","23","23:00","-21.8","","","","","M","","","","","0","","","","98.88","","","","","","NA"
"-133.94","68.91","STORM HILLS","220LQJJ","2018-01-24 00:00","2018","01","24","00:00","-22.7","","","","","M","","","28","","9","","","","98.86","","","","-30","","NA"
"-133.94","68.91","STORM HILLS","220LQJJ","2018-01-24 01:00","2018","01","24","01:00","-21.9","","","","","M","","","30","","7","","","","98.88","","","","-28","","NA"
"-133.94","68.91","STORM HILLS","220LQJJ","2018-01-24 02:00","2018","01","24","02:00","-21.4","","","","","M","","","36","","7","","","","98.90","","","","-27","","NA"
"-133.94","68.91","STORM HILLS","220LQJJ","2018-01-24 03:00","2018","01","24","03:00","-21.3","","","","","M","","","28","","7","","","","98.92","","","","-27","","NA"
"-133.94","68.91","STORM HILLS","220LQJJ","2018-01-24 04:00","2018","01","24","04:00","-21.5","","","","","M","","","26","","7","","","","98.93","","","","-27","","NA"
"-133.94","68.91","STORM HILLS","220LQJJ","2018-01-24 05:00","2018","01","24","05:00","-21.6","","","","","M","","","30","","11","","","","98.92","","","","-30","","NA"
"-133.94","68.91","STORM HILLS","220LQJJ","2018-01-24 06:00","2018","01","24","06:00","-21.9","","","","","M","","","28","","11","","","","98.90","","","","-30","","NA"
"-133.94","68.91","STORM HILLS","220LQJJ","2018-01-24 07:00","2018","01","24","07:00","-21.9","","","","","M","","","27","","13","","","","98.89","","","","-31","","NA"
"-133.94","68.91","STORM HILLS","220LQJJ","2018-01-24 08:00","2018","01","24","08:00","-21.8","","","","","M","","","27","","15","","","","98.89","","","","-31","","NA"
"-133.94","68.91","STORM HILLS","220LQJJ","2018-01-24 09:00","2018","01","24","09:00","-21.7","","","","","M","","","28","","19","","","","98.88","","","","-32","","NA"
"-133.94","68.91","STORM HILLS","220LQJJ","2018-01-24 10:00","2018","01","24","10:00","-21.6","","","","","M","","","27","","20","","","","98.88","","","","-32","","NA"
"-133.94","68.91","STORM HILLS","220LQJJ","2018-01-24 11:00","2018","01","24","11:00","-21.4","","","","","M","","","29","","20","","","","98.87","","","","-32","","NA"
"-133.94","68.91","STORM HILLS","220LQJJ","2018-01-24 12:00","2018","01","24","12:00","-20.8","","","","","M","","","28","","17","","","","98.88","","","","-31","","NA"
"-133.94","68.91","STORM HILLS","220LQJJ","2018-01-24 13:00","2018","01","24","13:00","-20.1","","","","","M","","","28","","15","","","","98.87","","","","-29","","NA"
"-133.94","68.91","STORM HILLS","220LQJJ","2018-01-24 14:00","2018","01","24","14:00","-19.4","","","","","M","","","27","","17","","","","98.87","","","","-29","","NA"
"-133.94","68.91","STORM HILLS","220LQJJ","2018-01-24 15:00","2018","01","24","15:00","-19.1","","","","","M","","","26","","15","","","","98.86","","","","-28","","NA"
"-133.94","68.91","STORM HILLS","220LQJJ","2018-01-24 16:00","2018","01","24","16:00","-18.7","","","","","M","","","26","","19","","","","98.87","","","","-29","","NA"
"-133.94","68.91","STORM HILLS","220LQJJ","2018-01-24 17:00","2018","01","24","17:00","-18.8","","","","","M","","","24","","17","","","","98.84","","","","-28","","NA"
"-133.94","68.91","STORM HILLS","220LQJJ","2018-01-24 18:00","2018","01","24","18:00","-19.6","","","","","M","","","23","","22","","","","98.83","","","","-30","","NA"
"-133.94","68.91","STORM HILLS","220LQJJ","2018-01-24 19:00","2018","01","24","19:00","-19.6","","","","","M","","","24","","20","","","","98.84","","","","-30","","NA"
"-133.94","68.91","STORM HILLS","220LQJJ","2018-01-24 20:00","2018","01","24","20:00","-20.3","","","","","M","","","23","","22","","","","98.85","","","","-31","","NA"
"-133.94","68.91","STORM HILLS","220LQJJ","2018-01-24 21:00","2018","01","24","21:00","-20.9","","","","","M","","","23","","20","","","","98.90","","","","-32","","NA"
"-133.94","68.91","STORM HILLS","220LQJJ","2018-01-24 22:00","2018","01","24","22:00","-21.3","","","","","M","","","23","","17","","","","98.93","","","","-31","","NA"
"-133.94","68.91","STORM HILLS","220LQJJ","2018-01-24 23:00","2018","01","24","23:00","-21.7","","","","","M","","","23","","19","","","","98.95","","","","-32","","NA"
"-133.94","68.91","STORM HILLS","220LQJJ","2018-01-25 00:00","2018","01","25","00:00","-22.0","","","","","M","","","23","","17","","","","98.99","","","","-32","","NA"
"-133.94","68.91","STORM HILLS","220LQJJ","2018-01-25 01:00","2018","01","25","01:00","-22.4","","","","","M","","","24","","17","","","","99.03","","","","-33","","NA"
"-133.94","68.91","STORM HILLS","220LQJJ","2018-01-25 02:00","2018","01","25","02:00","-23.1","","","","","M","","","24","","15","","","","99.05","","","","-33","","NA"
"-133.94","68.91","STORM HILLS","220LQJJ","2018-01-25 03:00","2018","01","25","03:00","-23.8","","","","","M","","","24","","17","","","","99.09","","","","-34","","NA"
"-133.94","68.91","STORM HILLS","220LQJJ","2018-01-25 04:00","2018","01","25","04:00","-24.4","","","","","M","","","24","","13","","","","99.10","","","","-34","","NA"
"-133.94","68.91","STORM HILLS","220LQJJ","2018-01-25 05:00","2018","01","25","05:00","-24.4","","","","","M","","","26","","11","","","","99.13","","","","-33","","NA"
"-133.94","68.91","STORM HILLS","220LQJJ","2018-01-25 06:00","2018","01","25","06:00","-24.5","","","","","M","","","24","","13","","","","99.12","","","","-34","","NA"
"-133.94","68.91","STORM HILLS","220LQJJ","2018-01-25 07:00","2018","01","25","07:00","-24.9","","","","","M","","","25","","15","","","","99.13","","","","-35","","NA"
"-133.94","68.91","STORM HILLS","220LQJJ","2018-01-25 08:00","2018","01","25","08:00","-24.7","","","","","M","","","25","","13","","","","99.16","","","","-34","","NA"
"-133.94","68.91","STORM HILLS","220LQJJ","2018-01-25 09:00","2018","01","25","09:00","-24.4","","","","","M","","","25","","9","","","","99.21","","","","-32","","NA"
"-133.94","68.91","STORM HILLS","220LQJJ","2018-01-25 10:00","2018","01","25","10:00","-24.2","","","","","M","","","26","","7","","","","99.21","","","","-31","","NA"
"-133.94","68.91","STORM HILLS","220LQJJ","2018-01-25 11:00","2018","01","25","11:00","-23.9","","","","","M","","","32","","4","","","","99.24","","","","-28","","NA"
"-133.94","68.91","STORM HILLS","220LQJJ","2018-01-25 12:00","2018","01","25","12:00","-23.9","","","","","M","","","25","","9","","","","99.27","","","","-31","","NA"
"-133.94","68.91","STORM HILLS","220LQJJ","2018-01-25 13:00","2018","01","25","13:00","-23.9","","","","","M","","","26","","7","","","","99.31","","","","-30","","NA"
"-133.94","68.91","STORM HILLS","220LQJJ","2018-01-25 14:00","2018","01","25","14:00","-23.9","","","","","M","","","27","","11","","","","99.37","","","","-32","","NA"
"-133.94","68.91","STORM HILLS","220LQJJ","2018-01-25 15:00","2018","01","25","15:00","-23.7","","","","","M","","","29","","7","","","","99.40","","","","-30","","NA"
"-133.94","68.91","STORM HILLS","220LQJJ","2018-01-25 16:00","2018","01","25","16:00","-23.3","","","","","M","","","28","","9","","","","99.45","","","","-31","","NA"
"-133.94","68.91","STORM HILLS","220LQJJ","2018-01-25 17:00","2018","01","25","17:00","-22.9","","","","","M","","","32","","7","","","","99.49","","","","-29","","NA"
"-133.94","68.91","STORM HILLS","220LQJJ","2018-01-25 18:00","2018","01","25","18:00","-22.7","","","","","M","","","29","","6","","","","99.53","","","","-28","","NA"
"-133.94","68.91","STORM HILLS","220LQJJ","2018-01-25 19:00","2018","01","25","19:00","-22.6","","","","","M","","","33","","7","","","","99.54","","","","-29","","NA"
"-133.94","68.91","STORM HILLS","220LQJJ","2018-01-25 20:00","2018","01","25","20:00","-22.5","","","","","M","","","29","","6","","","","99.60","","","","-28","","NA"
"-133.94","68.91","STORM HILLS","220LQJJ","2018-01-25 21:00","2018","01","25","21:00","-22.4","","","","","M","","","33","","6","","","","99.65","","","","-28","","NA"
"-133.94","68.91","STORM HILLS","220LQJJ","2018-01-25 22:00","2018","01","25","22:00","-22.3","","","","","M","","","34","","4","","","","99.70","","","","-26","","NA"
"-133.94","68.91","STORM HILLS","220LQJJ","2018-01-25 23:00","2018","01","25","23:00","-22.5","","","","","M","","","32","","9","","","","99.76","","","","-30","","NA"
"-133.94","68.91","STORM HILLS","220LQJJ","2018-01-26 00:00","2018","01","26","00:00","-22.9","","","","","M","","","35","","15","","","","99.80","","","","-33","","NA"
"-133.94","68.91","STORM HILLS","220LQJJ","2018-01-26 01:00","2018","01","26","01:00","-22.6","","","","","M","","","36","","19","","","","99.83","","","","-33","","NA"
"-133.94","68.91","STORM HILLS","220LQJJ","2018-01-26 02:00","2018","01","26","02:00","-22.8","","","","","M","","","1","","15","","","","99.90","","","","-33","","NA"
"-133.94","68.91","STORM HILLS","220LQJJ","2018-01-26 03:00","2018","01","26","03:00","-23.1","","","","","M","","","36","","13","","","","99.96","","","","-32","","NA"
"-133.94","68.91","STORM HILLS","220LQJJ","2018-01-26 04:00","2018","01","26","04:00","-23.2","","","","","M","","","2","","15","","","","99.97","","","","-33","","NA"
"-133.94","68.91","STORM HILLS","220LQJJ","2018-01-26 05:00","2018","01","26","05:00","-23.3","","","","","M","","","2","","7","","","","100.00","","","","-29","","NA"
"-133.94","68.91","STORM HILLS","220LQJJ","2018-01-26 06:00","2018","01","26","06:00","-23.4","","","","","M","","","4","","15","","","","100.01","","","","-33","","NA"
"-133.94","68.91","STORM HILLS","220LQJJ","2018-01-26 07:00","2018","01","26","07:00","-23.5","","","","","M","","","3","","6","","","","100.04","","","","-29","","NA"
"-133.94","68.91","STORM HILLS","220LQJJ","2018-01-26 08:00","2018","01","26","08:00","-23.6","","","","","M","","","6","","4","","","","100.10","","","","-27","","NA"
"-133.94","68.91","STORM HILLS","220LQJJ","2018-01-26 09:00","2018","01","26","09:00","-23.6","","","","","M","","","3","","7","","","","100.13","","","","-30","","NA"
"-133.94","68.91","STORM HILLS","220LQJJ","2018-01-26 10:00","2018","01","26","10:00","-24.2","","","","","M","","","4","","9","","","","100.16","","","","-32","","NA"
"-133.94","68.91","STORM HILLS","220LQJJ","2018-01-26 11:00","2018","01","26","11:00","-23.9","","","","","M","","","6","","7","","","","100.21","","","","-30","","NA"
"-133.94","68.91","STORM HILLS","220LQJJ","2018-01-26 12:00","2018","01","26","12:00","-23.7","","","","","M","","","2","","4","","","","100.25","","","","-28","","NA"
"-133.94","68.91","STORM HILLS","220LQJJ","2018-01-26 13:00","2018","01","26","13:00","-23.2","","","","","M","","","32","","6","","","","100.29","","","","-29","","NA"
"-133.94","68.91","STORM HILLS","220LQJJ","2018-01-26 14:00","2018","01","26","14:00","-23.0","","","","","M","","","36","","4","","","","100.32","","","","-27","","NA"
"-133.94","68.91","STORM HILLS","220LQJJ","2018-01-26 15:00","2018","01","26","15:00","-22.5","","","","","M","","","","","0","","","","100.35","","","","","","NA"
"-133.94","68.91","STORM HILLS","220LQJJ","2018-01-26 16:00","2018","01","26","16:00","-23.2","","","","","M","","","36","","7","","","","100.37","","","","-29","","NA"
"-133.94","68.91","STORM HILLS","220LQJJ","2018-01-26 17:00","2018","01","26","17:00","-22.1","","","","","M","","","36","","7","","","","100.44","","","","-28","","NA"
"-133.94","68.91","STORM HILLS","220LQJJ","2018-01-26 18:00","2018","01","26","18:00","-21.3","","","","","M","","","1","","11","","","","100.46","","","","-29","","NA"
"-133.94","68.91","STORM HILLS","220LQJJ","2018-01-26 19:00","2018","01","26","19:00","-20.9","","","","","M","","","6","","7","","","","100.47","","","","-27","","NA"
"-133.94","68.91","STORM HILLS","220LQJJ","2018-01-26 20:00","2018","01","26","20:00","-20.5","","","","","M","","","8","","9","","","","100.51","","","","-27","","NA"
"-133.94","68.91","STORM HILLS","220LQJJ","2018-01-26 21:00","2018","01","26","21:00","-19.3","","","","","M","","","","","0","","","","100.55","","","","","","NA"
"-133.94","68.91","STORM HILLS","220LQJJ","2018-01-26 22:00","2018","01","26","22:00","-19.6","","","","","M","","","27","","4","","","","100.57","","","","-23","","NA"
"-133.94","68.91","STORM HILLS","220LQJJ","2018-01-26 23:00","2018","01","26","23:00","-21.3","","","","","M","","","27","","9","","","","100.61","","","","-28","","NA"
"-133.94","68.91","STORM HILLS","220LQJJ","2018-01-27 00:00","2018","01","27","00:00","-21.4","","","","","M","","","29","","7","","","","100.64","","","","-27","","NA"
"-133.94","68.91","STORM HILLS","220LQJJ","2018-01-27 01:00","2018","01","27","01:00","-21.0","","","","","M","","","32","","4","","","","100.64","","","","-25","","NA"
"-133.94","68.91","STORM HILLS","220LQJJ","2018-01-27 02:00","2018","01","27","02:00","-20.5","","","","","M","","","31","","7","","","","100.67","","","","-26","","NA"
"-133.94","68.91","STORM HILLS","220LQJJ","2018-01-27 03:00","2018","01","27","03:00","-20.2","","","","","M","","","36","","4","","","","100.71","","","","-24","","NA"
"-133.94","68.91","STORM HILLS","220LQJJ","2018-01-27 04:00","2018","01","27","04:00","-20.6","","","","","M","","","2","","7","","","","100.71","","","","-26","","NA"
"-133.94","68.91","STORM HILLS","220LQJJ","2018-01-27 05:00","2018","01","27","05:00","-20.2","","","","","M","","","31","","9","","","","100.73","","","","-27","","NA"
"-133.94","68.91","STORM HILLS","220LQJJ","2018-01-27 06:00","2018","01","27","06:00","-19.8","","","","","M","","","35","","4","","","","100.74","","","","-23","","NA"
"-133.94","68.91","STORM HILLS","220LQJJ","2018-01-27 07:00","2018","01","27","07:00","-19.7","","","","","M","","","32","","7","","","","100.76","","","","-25","","NA"
"-133.94","68.91","STORM HILLS","220LQJJ","2018-01-27 08:00","2018","01","27","08:00","-19.5","","","","","M","","","34","","7","","","","100.76","","","","-25","","NA"
"-133.94","68.91","STORM HILLS","220LQJJ","2018-01-27 09:00","2018","01","27","09:00","-19.7","","","","","M","","","32","","6","","","","100.76","","","","-25","","NA"
"-133.94","68.91","STORM HILLS","220LQJJ","2018-01-27 10:00","2018","01","27","10:00","-20.1","","","","","M","","","28","","7","","","","100.76","","","","-26","","NA"
"-133.94","68.91","STORM HILLS","220LQJJ","2018-01-27 11:00","2018","01","27","11:00","-20.6","","","","","M","","","28","","9","","","","100.77","","","","-27","","NA"
"-133.94","68.91","STORM HILLS","220LQJJ","2018-01-27 12:00","2018","01","27","12:00","-20.7","","","","","M","","","28","","9","","","","100.77","","","","-28","","NA"
"-133.94","68.91","STORM HILLS","220LQJJ","2018-01-27 13:00","2018","01","27","13:00","-20.5","","","","","M","","","32","","6","","","","100.77","","","","-26","","NA"
"-133.94","68.91","STORM HILLS","220LQJJ","2018-01-27 14:00","2018","01","27","14:00","-20.4","","","","","M","","","28","","9","","","","100.79","","","","-27","","NA"
"-133.94","68.91","STORM HILLS","220LQJJ","2018-01-27 15:00","2018","01","27","15:00","-20.3","","","","","M","","","36","","4","","","","100.79","","","","-24","","NA"
"-133.94","68.91","STORM HILLS","220LQJJ","2018-01-27 16:00","2018","01","27","16:00","-20.0","","","","","M","","","31","","6","","","","100.82","","","","-25","","NA"
"-133.94","68.91","STORM HILLS","220LQJJ","2018-01-27 17:00","2018","01","27","17:00","-19.8","","","","","M","","","22","","6","","","","100.79","","","","-25","","NA"
"-133.94","68.91","STORM HILLS","220LQJJ","2018-01-27 18:00","2018","01","27","18:00","-20.0","","","","","M","","","23","","6","","","","100.80","","","","-25","","NA"
"-133.94","68.91","STORM HILLS","220LQJJ","2018-01-27 19:00","2018","01","27","19:00","-19.9","","","","","M","","","11","","4","","","","100.79","","","","-23","","NA"
"-133.94","68.91","STORM HILLS","220LQJJ","2018-01-27 20:00","2018","01","27","20:00","-20.0","","","","","M","","","13","","4","","","","100.79","","","","-23","","NA"
"-133.94","68.91","STORM HILLS","220LQJJ","2018-01-27 21:00","2018","01","27","21:00","-19.9","","","","","M","","","13","","7","","","","100.79","","","","-26","","NA"
"-133.94","68.91","STORM HILLS","220LQJJ","2018-01-27 22:00","2018","01","27","22:00","-19.5","","","","","M","","","9","","4","","","","100.80","","","","-23","","NA"
"-133.94","68.91","STORM HILLS","220LQJJ","2018-01-27 23:00","2018","01","27","23:00","-19.9","","","","","M","","","18","","4","","","","100.76","","","","-23","","NA"
"-133.94","68.91","STORM HILLS","220LQJJ","2018-01-28 00:00","2018","01","28","00:00","-19.6","","","","","M","","","20","","7","","","","100.73","","","","-25","","NA"
"-133.94","68.91","STORM HILLS","220LQJJ","2018-01-28 01:00","2018","01","28","01:00","-20.8","","","","","M","","","12","","9","","","","100.70","","","","-28","","NA"
"-133.94","68.91","STORM HILLS","220LQJJ","2018-01-28 02:00","2018","01","28","02:00","-20.9","","","","","M","","","15","","17","","","","100.67","","","","-31","","NA"
"-133.94","68.91","STORM HILLS","220LQJJ","2018-01-28 03:00","2018","01","28","03:00","-21.5","","","","","M","","","13","","17","","","","100.63","","","","-32","","NA"
"-133.94","68.91","STORM HILLS","220LQJJ","2018-01-28 04:00","2018","01","28","04:00","-20.3","","","","","M","","","14","","20","","","","100.62","","","","-31","","NA"
"-133.94","68.91","STORM HILLS","220LQJJ","2018-01-28 05:00","2018","01","28","05:00","-20.4","","","","","M","","","15","","17","","","","100.61","","","","-30","","NA"
"-133.94","68.91","STORM HILLS","220LQJJ","2018-01-28 06:00","2018","01","28","06:00","-21.4","","","","","M","","","15","","20","","","","100.54","","","","-32","","NA"
"-133.94","68.91","STORM HILLS","220LQJJ","2018-01-28 07:00","2018","01","28","07:00","-21.1","","","","","M","","","16","","26","","","","100.46","","","","-33","","NA"
"-133.94","68.91","STORM HILLS","220LQJJ","2018-01-28 08:00","2018","01","28","08:00","-21.5","","","","","M","","","18","","24","","","","100.43","","","","-33","","NA"
"-133.94","68.91","STORM HILLS","220LQJJ","2018-01-28 09:00","2018","01","28","09:00","-22.3","","","","","M","","","18","","26","","","","100.35","","","","-35","","NA"
"-133.94","68.91","STORM HILLS","220LQJJ","2018-01-28 10:00","2018","01","28","10:00","-23.5","","","","","M","","","18","","30","","","","100.29","","","","-37","","NA"
"-133.94","68.91","STORM HILLS","220LQJJ","2018-01-28 11:00","2018","01","28","11:00","-23.5","","","","","M","","","17","","30","","","","100.21","","","","-37","","NA"
"-133.94","68.91","STORM HILLS","220LQJJ","2018-01-28 12:00","2018","01","28","12:00","-23.5","","","","","M","","","18","","35","","","","100.17","","","","-38","","NA"
"-133.94","68.91","STORM HILLS","220LQJJ","2018-01-28 13:00","2018","01","28","13:00","-23.2","","","","","M","","","18","","43","","","","100.12","","","","-39","","NA"
"-133.94","68.91","STORM HILLS","220LQJJ","2018-01-28 14:00","2018","01","28","14:00","-24.4","","","","","M","","","18","","41","","","","100.04","","","","-40","","NA"
"-133.94","68.91","STORM HILLS","220LQJJ","2018-01-28 15:00","2018","01","28","15:00","-24.3","","","","","M","","","18","","41","","","","100.02","","","","-40","","NA"
"-133.94","68.91","STORM HILLS","220LQJJ","2018-01-28 16:00","2018","01","28","16:00","-24.0","","","","","M","","","18","","41","","","","99.97","","","","-40","","NA"
"-133.94","68.91","STORM HILLS","220LQJJ","2018-01-28 17:00","2018","01","28","17:00","-25.3","","","","","M","","","18","","41","","","","99.91","","","","-41","","NA"
"-133.94","68.91","STORM HILLS","220LQJJ","2018-01-28 18:00","2018","01","28","18:00","-23.8","","","","","M","","","18","","44","","","","99.87","","","","-40","","NA"
"-133.94","68.91","STORM HILLS","220LQJJ","2018-01-28 19:00","2018","01","28","19:00","-24.1","","","","","M","","","18","","44","","","","99.83","","","","-40","","NA"
"-133.94","68.91","STORM HILLS","220LQJJ","2018-01-28 20:00","2018","01","28","20:00","-24.6","","","","","M","","","18","","44","","","","99.78","","","","-41","","NA"
"-133.94","68.91","STORM HILLS","220LQJJ","2018-01-28 21:00","2018","01","28","21:00","-24.3","","","","","M","","","18","","50","","","","99.71","","","","-41","","NA"
"-133.94","68.91","STORM HILLS","220LQJJ","2018-01-28 22:00","2018","01","28","22:00","-24.5","","","","","M","","","18","","48","","","","99.68","","","","-41","","NA"
"-133.94","68.91","STORM HILLS","220LQJJ","2018-01-28 23:00","2018","01","28","23:00","-25.1","","","","","M","","","18","","44","","","","99.62","","","","-42","","NA"
"-133.94","68.91","STORM HILLS","220LQJJ","2018-01-29 00:00","2018","01","29","00:00","-24.8","","","","","M","","","18","","43","","","","99.53","","","","-41","","NA"
"-133.94","68.91","STORM HILLS","220LQJJ","2018-01-29 01:00","2018","01","29","01:00","-25.2","","","","","M","","","18","","44","","","","99.49","","","","-42","","NA"
"-133.94","68.91","STORM HILLS","220LQJJ","2018-01-29 02:00","2018","01","29","02:00","-25.3","","","","","M","","","18","","44","","","","99.40","","","","-42","","NA"
"-133.94","68.91","STORM HILLS","220LQJJ","2018-01-29 03:00","2018","01","29","03:00","-24.8","","","","","M","","","18","","43","","","","99.30","","","","-41","","NA"
"-133.94","68.91","STORM HILLS","220LQJJ","2018-01-29 04:00","2018","01","29","04:00","-25.3","","","","","M","","","18","","41","","","","99.25","","","","-41","","NA"
"-133.94","68.91","STORM HILLS","220LQJJ","2018-01-29 05:00","2018","01","29","05:00","-25.7","","","","","M","","","18","","41","","","","99.14","","","","-42","","NA"
"-133.94","68.91","STORM HILLS","220LQJJ","2018-01-29 06:00","2018","01","29","06:00","-25.4","","","","","M","","","18","","43","","","","99.11","","","","-42","","NA"
"-133.94","68.91","STORM HILLS","220LQJJ","2018-01-29 07:00","2018","01","29","07:00","-25.6","","","","","M","","","17","","39","","","","99.05","","","","-41","","NA"
"-133.94","68.91","STORM HILLS","220LQJJ","2018-01-29 08:00","2018","01","29","08:00","-27.6","","","","","M","","","17","","43","","","","98.96","","","","-45","","NA"
"-133.94","68.91","STORM HILLS","220LQJJ","2018-01-29 09:00","2018","01","29","09:00","-27.4","","","","","M","","","18","","43","","","","98.93","","","","-44","","NA"
"-133.94","68.91","STORM HILLS","220LQJJ","2018-01-29 10:00","2018","01","29","10:00","-27.0","","","","","M","","","18","","35","","","","98.91","","","","-43","","NA"
"-133.94","68.91","STORM HILLS","220LQJJ","2018-01-29 11:00","2018","01","29","11:00","-26.9","","","","","M","","","17","","35","","","","98.86","","","","-43","","NA"
"-133.94","68.91","STORM HILLS","220LQJJ","2018-01-29 12:00","2018","01","29","12:00","-26.8","","","","","M","","","18","","35","","","","98.87","","","","-42","","NA"
"-133.94","68.91","STORM HILLS","220LQJJ","2018-01-29 13:00","2018","01","29","13:00","-26.9","","","","","M","","","18","","35","","","","98.84","","","","-43","","NA"
"-133.94","68.91","STORM HILLS","220LQJJ","2018-01-29 14:00","2018","01","29","14:00","-26.2","","","","","M","","","18","","33","","","","98.81","","","","-41","","NA"
"-133.94","68.91","STORM HILLS","220LQJJ","2018-01-29 15:00","2018","01","29","15:00","-25.8","","","","","M","","","18","","33","","","","98.79","","","","-41","","NA"
"-133.94","68.91","STORM HILLS","220LQJJ","2018-01-29 16:00","2018","01","29","16:00","-24.4","","","","","M","","","18","","31","","","","98.78","","","","-38","","NA"
"-133.94","68.91","STORM HILLS","220LQJJ","2018-01-29 17:00","2018","01","29","17:00","-23.5","","","","","M","","","18","","31","","","","98.75","","","","-37","","NA"
"-133.94","68.91","STORM HILLS","220LQJJ","2018-01-29 18:00","2018","01","29","18:00","-22.6","","","","","M","","","19","","30","","","","98.73","","","","-36","","NA"
"-133.94","68.91","STORM HILLS","220LQJJ","2018-01-29 19:00","2018","01","29","19:00","-22.5","","","","","M","","","21","","20","","","","98.72","","","","-34","","NA"
"-133.94","68.91","STORM HILLS","220LQJJ","2018-01-29 20:00","2018","01","29","20:00","-21.5","","","","","M","","","18","","9","","","","98.74","","","","-29","","NA"
"-133.94","68.91","STORM HILLS","220LQJJ","2018-01-29 21:00","2018","01","29","21:00","-22.1","","","","","M","","","23","","9","","","","98.75","","","","-29","","NA"
"-133.94","68.91","STORM HILLS","220LQJJ","2018-01-29 22:00","2018","01","29","22:00","-23.2","","","","","M","","","22","","17","","","","98.78","","","","-34","","NA"
"-133.94","68.91","STORM HILLS","220LQJJ","2018-01-29 23:00","2018","01","29","23:00","-23.8","","","","","M","","","16","","6","","","","98.81","","","","-29","","NA"
"-133.94","68.91","STORM HILLS","220LQJJ","2018-01-30 00:00","2018","01","30","00:00","-22.9","","","","","M","","","","","0","","","","98.84","","","","","","NA"
"-133.94","68.91","STORM HILLS","220LQJJ","2018-01-30 01:00","2018","01","30","01:00","-23.8","","","","","M","","","21","","11","","","","98.90","","","","-32","","NA"
"-133.94","68.91","STORM HILLS","220LQJJ","2018-01-30 02:00","2018","01","30","02:00","-24.4","","","","","M","","","15","","11","","","","98.95","","","","-33","","NA"
"-133.94","68.91","STORM HILLS","220LQJJ","2018-01-30 03:00","2018","01","30","03:00","-24.4","","","","","M","","","24","","4","","","","99.01","","","","-28","","NA"
"-133.94","68.91","STORM HILLS","220LQJJ","2018-01-30 04:00","2018","01","30","04:00","-24.5","","","","","M","","","32","","7","","","","99.09","","","","-31","","NA"
"-133.94","68.91","STORM HILLS","220LQJJ","2018-01-30 05:00","2018","01","30","05:00","-25.9","","","","","M","","","33","","13","","","","99.15","","","","-36","","NA"
"-133.94","68.91","STORM HILLS","220LQJJ","2018-01-30 06:00","2018","01","30","06:00","-26.1","","","","","M","","","33","","9","","","","99.21","","","","-34","","NA"
"-133.94","68.91","STORM HILLS","220LQJJ","2018-01-30 07:00","2018","01","30","07:00","-25.9","","","","","M","","","2","","6","","","","99.26","","","","-32","","NA"
"-133.94","68.91","STORM HILLS","220LQJJ","2018-01-30 08:00","2018","01","30","08:00","-25.6","","","","","M","","","","","0","","","","99.33","","","","","","NA"
"-133.94","68.91","STORM HILLS","220LQJJ","2018-01-30 09:00","2018","01","30","09:00","-25.7","","","","","M","","","10","","7","","","","99.38","","","","-32","","NA"
"-133.94","68.91","STORM HILLS","220LQJJ","2018-01-30 10:00","2018","01","30","10:00","-25.6","","","","","M","","","20","","4","","","","99.46","","","","-30","","NA"
"-133.94","68.91","STORM HILLS","220LQJJ","2018-01-30 11:00","2018","01","30","11:00","-26.3","","","","","M","","","29","","6","","","","99.55","","","","-32","","NA"
"-133.94","68.91","STORM HILLS","220LQJJ","2018-01-30 12:00","2018","01","30","12:00","-26.7","","","","","M","","","29","","9","","","","99.61","","","","-35","","NA"
"-133.94","68.91","STORM HILLS","220LQJJ","2018-01-30 13:00","2018","01","30","13:00","-26.9","","","","","M","","","31","","7","","","","99.69","","","","-34","","NA"
"-133.94","68.91","STORM HILLS","220LQJJ","2018-01-30 14:00","2018","01","30","14:00","-26.4","","","","","M","","","3","","6","","","","99.74","","","","-32","","NA"
"-133.94","68.91","STORM HILLS","220LQJJ","2018-01-30 15:00","2018","01","30","15:00","-26.7","","","","","M","","","33","","9","","","","99.83","","","","-35","","NA"
"-133.94","68.91","STORM HILLS","220LQJJ","2018-01-30 16:00","2018","01","30","16:00","-26.6","","","","","M","","","35","","11","","","","99.88","","","","-36","","NA"
"-133.94","68.91","STORM HILLS","220LQJJ","2018-01-30 17:00","2018","01","30","17:00","-26.5","","","","","M","","","2","","13","","","","99.95","","","","-36","","NA"
"-133.94","68.91","STORM HILLS","220LQJJ","2018-01-30 18:00","2018","01","30","18:00","-26.2","","","","","M","","","2","","7","","","","100.01","","","","-33","","NA"
"-133.94","68.91","STORM HILLS","220LQJJ","2018-01-30 19:00","2018","01","30","19:00","-25.8","","","","","M","","","3","","13","","","","100.08","","","","-35","","NA"
"-133.94","68.91","STORM HILLS","220LQJJ","2018-01-30 20:00","2018","01","30","20:00","-26.4","","","","","M","","","34","","11","","","","100.16","","","","-35","","NA"
"-133.94","68.91","STORM HILLS","220LQJJ","2018-01-30 21:00","2018","01","30","21:00","-26.1","","","","","M","","","3","","11","","","","100.22","","","","-35","","NA"
"-133.94","68.91","STORM HILLS","220LQJJ","2018-01-30 22:00","2018","01","30","22:00","-26.5","","","","","M","","","31","","6","","","","100.26","","","","-32","","NA"
"-133.94","68.91","STORM HILLS","220LQJJ","2018-01-30 23:00","2018","01","30","23:00","-26.0","","","","","M","","","33","","7","","","","100.31","","","","-33","","NA"
"-133.94","68.91","STORM HILLS","220LQJJ","2018-01-31 00:00","2018","01","31","00:00","-25.9","","","","","M","","","4","","7","","","","100.37","","","","-33","","NA"
"-133.94","68.91","STORM HILLS","220LQJJ","2018-01-31 01:00","2018","01","31","01:00","-25.9","","","","","M","","","3","","9","","","","100.46","","","","-34","","NA"
"-133.94","68.91","STORM HILLS","220LQJJ","2018-01-31 02:00","2018","01","31","02:00","-26.1","","","","","M","","","5","","7","","","","100.53","","","","-33","","NA"
"-133.94","68.91","STORM HILLS","220LQJJ","2018-01-31 03:00","2018","01","31","03:00","-26.3","","","","","M","","","1","","7","","","","100.63","","","","-33","","NA"
"-133.94","68.91","STORM HILLS","220LQJJ","2018-01-31 04:00","2018","01","31","04:00","-26.1","","","","","M","","","5","","7","","","","100.68","","","","-33","","NA"
"-133.94","68.91","STORM HILLS","220LQJJ","2018-01-31 05:00","2018","01","31","05:00","-25.7","","","","","M","","","2","","11","","","","100.75","","","","-34","","NA"
"-133.94","68.91","STORM HILLS","220LQJJ","2018-01-31 06:00","2018","01","31","06:00","-25.5","","","","","M","","","5","","11","","","","100.79","","","","-34","","NA"
"-133.94","68.91","STORM HILLS","220LQJJ","2018-01-31 07:00","2018","01","31","07:00","-25.6","","","","","M","","","5","","13","","","","100.82","","","","-35","","NA"
"-133.94","68.91","STORM HILLS","220LQJJ","2018-01-31 08:00","2018","01","31","08:00","-25.8","","","","","M","","","5","","11","","","","100.85","","","","-35","","NA"
"-133.94","68.91","STORM HILLS","220LQJJ","2018-01-31 09:00","2018","01","31","09:00","-25.8","","","","","M","","","5","","15","","","","100.90","","","","-36","","NA"
"-133.94","68.91","STORM HILLS","220LQJJ","2018-01-31 10:00","2018","01","31","10:00","-26.1","","","","","M","","","7","","9","","","","100.93","","","","-34","","NA"
"-133.94","68.91","STORM HILLS","220LQJJ","2018-01-31 11:00","2018","01","31","11:00","-25.8","","","","","M","","","3","","4","","","","101.01","","","","-30","","NA"
"-133.94","68.91","STORM HILLS","220LQJJ","2018-01-31 12:00","2018","01","31","12:00","-26.3","","","","","M","","","26","","4","","","","101.03","","","","-30","","NA"
"-133.94","68.91","STORM HILLS","220LQJJ","2018-01-31 13:00","2018","01","31","13:00","-24.1","","","","","M","","","12","","4","","","","101.04","","","","-28","","NA"
"-133.94","68.91","STORM HILLS","220LQJJ","2018-01-31 14:00","2018","01","31","14:00","-22.5","","","","","M","","","22","","4","","","","101.06","","","","-26","","NA"
"-133.94","68.91","STORM HILLS","220LQJJ","2018-01-31 15:00","2018","01","31","15:00","-21.6","","","","","M","","","22","","6","","","","101.05","","","","-27","","NA"
"-133.94","68.91","STORM HILLS","220LQJJ","2018-01-31 16:00","2018","01","31","16:00","-21.8","","","","","M","","","25","","7","","","","101.05","","","","-28","","NA"
"-133.94","68.91","STORM HILLS","220LQJJ","2018-01-31 17:00","2018","01","31","17:00","-23.5","","","","","M","","","25","","9","","","","101.05","","","","-31","","NA"
"-133.94","68.91","STORM HILLS","220LQJJ","2018-01-31 18:00","2018","01","31","18:00","-24.4","","","","","M","","","26","","11","","","","101.02","","","","-33","","NA"
"-133.94","68.91","STORM HILLS","220LQJJ","2018-01-31 19:00","2018","01","31","19:00","-24.0","","","","","M","","","27","","9","","","","100.98","","","","-31","","NA"
"-133.94","68.91","STORM HILLS","220LQJJ","2018-01-31 20:00","2018","01","31","20:00","-23.5","","","","","M","","","26","","11","","","","100.95","","","","-32","","NA"
"-133.94","68.91","STORM HILLS","220LQJJ","2018-01-31 21:00","2018","01","31","21:00","-23.6","","","","","M","","","26","","6","","","","100.90","","","","-29","","NA"
"-133.94","68.91","STORM HILLS","220LQJJ","2018-01-31 22:00","2018","01","31","22:00","-22.8","","","","","M","","","21","","7","","","","100.86","","","","-29","","NA"
"-133.94","68.91","STORM HILLS","220LQJJ","2018-01-31 23:00","2018","01","31","23:00","-22.7","","","","","M","","","20","","15","","","","100.79","","","","-32","","NA"
