"Longitude (x)","Latitude (y)","Station Name","Climate ID","Date/Time (LST)","Year","Month","Day","Time (LST)","Temp (°C)","Temp Flag","Dew Point Temp (°C)","Dew Point Temp Flag","Rel Hum (%)","Rel Hum Flag","Precip. Amount (mm)","Precip. Amount Flag","Wind Dir (10s deg)","Wind Dir Flag","Wind Spd (km/h)","Wind Spd Flag","Visibility (km)","Visibility Flag","Stn Press (kPa)","Stn Press Flag","Hmdx","Hmdx Flag","Wind Chill","Wind Chill Flag","Weather"
"-65.89","45.32","SAINT JOHN A","8104901","2019-04-01 00:00","2019","04","01","00:00","9.2","","9.0","","99","","","","19","","28","","6.4","","98.67","","","","","","Moderate Rain Showers,Fog"
"-65.89","45.32","SAINT JOHN A","8104901","2019-04-01 01:00","2019","04","01","01:00","7.5","","7.4","","100","","","","21","","28","","4.8","","98.60","","","","","","Rain"
"-65.89","45.32","SAINT JOHN A","8104901","2019-04-01 02:00","2019","04","01","02:00","5.6","","5.6","","100","","","","21","","21","","3.2","","98.57","","","","","","Rain,Fog"
"-65.89","45.32","SAINT JOHN A","8104901","2019-04-01 03:00","2019","04","01","03:00","4.9","","4.9","","100","","","","26","","8","","3.2","","98.46","","","","","","Rain,Fog"
"-65.89","45.32","SAINT JOHN A","8104901","2019-04-01 04:00","2019","04","01","04:00","2.4","","2.0","","97","","","","33","","21","","4.8","","98.46","","","","","","Rain,Fog"
"-65.89","45.32","SAINT JOHN A","8104901","2019-04-01 05:00","2019","04","01","05:00","1.2","","0.4","","95","","","","33","","32","","8.1","","98.51","","","","","","Rain,Fog"
"-65.89","45.32","SAINT JOHN A","8104901","2019-04-01 06:00","2019","04","01","06:00","0.6","","0.0","","96","","","","32","","22","","4.8","","98.60","","","","","","Rain,Fog"
"-65.89","45.32","SAINT JOHN A","8104901","2019-04-01 07:00","2019","04","01","07:00","0.5","","-0.8","","91","","","","30","","26","","24.1","","98.69","","","","","","NA"
"-65.89","45.32","SAINT JOHN A","8104901","2019-04-01 08:00","2019","04","01","08:00","0.3","","-0.4","","96","","","","31","","16","","8.1","","98.75","","","","","","Rain,Fog"
"-65.89","45.32","SAINT JOHN A","8104901","2019-04-01 09:00","2019","04","01","09:00","0.2","","-2.8","","80","","","","32","","32","","24.1","","98.85","","","","","","NA"
"-65.89","45.32","SAINT JOHN A","8104901","2019-04-01 10:00","2019","04","01","10:00","0.8","","-3.1","","75","","","","29","","23","","24.1","","98.91","","","","","","NA"
"-65.89","45.32","SAINT JOHN A","8104901","2019-04-01 11:00","2019","04","01","11:00","0.8","","-4.4","","68","","","","29","","27","","24.1","","98.99","","","","","","Mostly Cloudy"
"-65.89","45.32","SAINT JOHN A","8104901","2019-04-01 12:00","2019","04","01","12:00","1.5","","-6.9","","54","","","","29","","37","","24.1","","99.04","","","","","","NA"
"-65.89","45.32","SAINT JOHN A","8104901","2019-04-01 13:00","2019","04","01","13:00","2.1","","-5.8","","56","","","","28","","29","","24.1","","99.12","","","","","","NA"
"-65.89","45.32","SAINT JOHN A","8104901","2019-04-01 14:00","2019","04","01","14:00","2.5","","-5.9","","54","","","","29","","24","","24.1","","99.19","","","","","","Mostly Cloudy"
"-65.89","45.32","SAINT JOHN A","8104901","2019-04-01 15:00","2019","04","01","15:00","2.3","","-8.2","","46","","","","30","","35","","24.1","","99.27","","","","","","NA"
"-65.89","45.32","SAINT JOHN A","8104901","2019-04-01 16:00","2019","04","01","16:00","2.9","","-8.3","","44","","","","29","","35","","24.1","","99.36","","","","","","NA"
"-65.89","45.32","SAINT JOHN A","8104901","2019-04-01 17:00","2019","04","01","17:00","1.8","","-9.3","","44","","","","29","","27","","24.1","","99.51","","","","","","Mostly Cloudy"
"-65.89","45.32","SAINT JOHN A","8104901","2019-04-01 18:00","2019","04","01","18:00","0.6","","-9.9","","45","","","","29","","29","","24.1","","99.71","","","","","","NA"
"-65.89","45.32","SAINT JOHN A","8104901","2019-04-01 19:00","2019","04","01","19:00","-0.7","","-11.2","","45","","","","30","","25","","24.1","","99.93","","","","-7","","NA"
"-65.89","45.32","SAINT JOHN A","8104901","2019-04-01 20:00","2019","04","01","20:00","-1.3","","-12.6","","42","","","","28","","27","","24.1","","100.14","","","","-8","","Mainly Clear"
"-65.89","45.32","SAINT JOHN A","8104901","2019-04-01 21:00","2019","04","01","21:00","-1.8","","-12.9","","43","","","","29","","22","","24.1","","100.33","","","","-8","","NA"
"-65.89","45.32","SAINT JOHN A","8104901","2019-04-01 22:00","2019","04","01","22:00","-1.8","","-12.6","","44","","","","29","","32","","24.1","","100.48","","","","-9","","NA"
"-65.89","45.32","SAINT JOHN A","8104901","2019-04-01 23:00","2019","04","01","23:00","-2.1","","-12.0","","47","","","","29","","23","","24.1","","100.63","","","","-8","","Mainly Clear"
"-65.89","45.32","SAINT JOHN A","8104901","2019-04-02 00:00","2019","04","02","00:00","-2.4","","-11.1","","52","","","","28","","20","","24.1","","100.77","","","","-8","","NA"
"-65.89","45.32","SAINT JOHN A","8104901","2019-04-02 01:00","2019","04","02","01:00","-2.5","","-10.6","","54","","","","26","","15","","24.1","","100.93","","","","-7","","NA"
"-65.89","45.32","SAINT JOHN A","8104901","2019-04-02 02:00","2019","04","02","02:00","-3.0","","-10.2","","58","","","","25","","13","","24.1","","101.04","","","","-8","","Clear"
"-65.89","45.32","SAINT JOHN A","8104901","2019-04-02 03:00","2019","04","02","03:00","-2.8","","-10.2","","57","","","","26","","16","","24.1","","101.10","","","","-8","","NA"
"-65.89","45.32","SAINT JOHN A","8104901","2019-04-02 04:00","2019","04","02","04:00","-3.2","","-9.8","","61","","","","26","","8","","24.1","","101.15","","","","-6","","NA"
"-65.89","45.32","SAINT JOHN A","8104901","2019-04-02 05:00","2019","04","02","05:00","-3.5","","-9.6","","63","","","","29","","3","","24.1","","101.22","","","","-5","","Clear"
"-65.89","45.32","SAINT JOHN A","8104901","2019-04-02 06:00","2019","04","02","06:00","-3.8","","-9.3","","66","","","","36","","2","","24.1","","101.31","","","","-5","","NA"
"-65.89","45.32","SAINT JOHN A","8104901","2019-04-02 07:00","2019","04","02","07:00","-2.1","","-9.2","","59","","","","23","","8","","24.1","","101.40","","","","-5","","NA"
"-65.89","45.32","SAINT JOHN A","8104901","2019-04-02 08:00","2019","04","02","08:00","-0.3","","-9.5","","50","","","","26","","16","","24.1","","101.49","","","","-5","","Clear"
"-65.89","45.32","SAINT JOHN A","8104901","2019-04-02 09:00","2019","04","02","09:00","1.7","","-7.9","","49","","","","23","","14","","24.1","","101.55","","","","","","NA"
"-65.89","45.32","SAINT JOHN A","8104901","2019-04-02 10:00","2019","04","02","10:00","2.9","","-7.9","","45","","","","22","","22","","24.1","","101.60","","","","","","NA"
"-65.89","45.32","SAINT JOHN A","8104901","2019-04-02 11:00","2019","04","02","11:00","3.7","","-6.8","","46","","","","22","","25","","24.1","","101.62","","","","","","Clear"
"-65.89","45.32","SAINT JOHN A","8104901","2019-04-02 12:00","2019","04","02","12:00","4.0","","-9.4","","37","","","","22","","36","","24.1","","101.59","","","","","","NA"
"-65.89","45.32","SAINT JOHN A","8104901","2019-04-02 13:00","2019","04","02","13:00","4.5","","-5.7","","48","","","","21","","42","","24.1","","101.61","","","","","","NA"
"-65.89","45.32","SAINT JOHN A","8104901","2019-04-02 14:00","2019","04","02","14:00","5.1","","-3.9","","52","","","","21","","39","","24.1","","101.60","","","","","","Mainly Clear"
"-65.89","45.32","SAINT JOHN A","8104901","2019-04-02 15:00","2019","04","02","15:00","4.9","","-3.3","","55","","","","20","","45","","24.1","","101.62","","","","","","NA"
"-65.89","45.32","SAINT JOHN A","8104901","2019-04-02 16:00","2019","04","02","16:00","4.2","","-4.1","","55","","","","21","","42","","24.1","","101.61","","","","","","NA"
"-65.89","45.32","SAINT JOHN A","8104901","2019-04-02 17:00","2019","04","02","17:00","3.7","","-3.0","","61","","","","21","","40","","24.1","","101.61","","","","","","Mostly Cloudy"
"-65.89","45.32","SAINT JOHN A","8104901","2019-04-02 18:00","2019","04","02","18:00","2.6","","-2.4","","70","","","","21","","33","","24.1","","101.68","","","","","","NA"
"-65.89","45.32","SAINT JOHN A","8104901","2019-04-02 19:00","2019","04","02","19:00","1.6","","-2.4","","75","","","","21","","28","","24.1","","101.74","","","","","","NA"
"-65.89","45.32","SAINT JOHN A","8104901","2019-04-02 20:00","2019","04","02","20:00","1.0","","-0.9","","87","","","","20","","28","","24.1","","101.76","","","","","","Mostly Cloudy"
"-65.89","45.32","SAINT JOHN A","8104901","2019-04-02 21:00","2019","04","02","21:00","0.9","","-1.3","","85","","","","20","","30","","24.1","","101.76","","","","","","NA"
"-65.89","45.32","SAINT JOHN A","8104901","2019-04-02 22:00","2019","04","02","22:00","0.3","","-2.3","","83","","","","19","","24","","24.1","","101.75","","","","","","NA"
"-65.89","45.32","SAINT JOHN A","8104901","2019-04-02 23:00","2019","04","02","23:00","-0.2","","-3.8","","77","","","","17","","16","","24.1","","101.70","","","","-5","","Mainly Clear"
"-65.89","45.32","SAINT JOHN A","8104901","2019-04-03 00:00","2019","04","03","00:00","-0.7","","-3.2","","83","","","","16","","12","","24.1","","101.60","","","","-5","","NA"
"-65.89","45.32","SAINT JOHN A","8104901","2019-04-03 01:00","2019","04","03","01:00","-0.3","","-2.6","","84","","","","16","","18","","24.1","","101.55","","","","-5","","NA"
"-65.89","45.32","SAINT JOHN A","8104901","2019-04-03 02:00","2019","04","03","02:00","-0.1","","-2.7","","83","","","","13","","19","","24.1","","101.35","","","","-5","","Cloudy"
"-65.89","45.32","SAINT JOHN A","8104901","2019-04-03 03:00","2019","04","03","03:00","-0.3","","-3.0","","82","","","","12","","17","","24.1","","101.21","","","","-5","","NA"
"-65.89","45.32","SAINT JOHN A","8104901","2019-04-03 04:00","2019","04","03","04:00","-0.1","","-4.1","","75","","","","10","","18","","24.1","","101.09","","","","-5","","NA"
"-65.89","45.32","SAINT JOHN A","8104901","2019-04-03 05:00","2019","04","03","05:00","0.4","","-3.1","","77","","","","11","","26","","24.1","","100.95","","","","","","Cloudy"
"-65.89","45.32","SAINT JOHN A","8104901","2019-04-03 06:00","2019","04","03","06:00","0.7","","-2.9","","77","","","","12","","24","","24.1","","100.84","","","","","","NA"
"-65.89","45.32","SAINT JOHN A","8104901","2019-04-03 07:00","2019","04","03","07:00","0.3","","-0.8","","92","","","","11","","27","","1.6","","100.76","","","","","","Snow"
"-65.89","45.32","SAINT JOHN A","8104901","2019-04-03 08:00","2019","04","03","08:00","0.2","","-0.2","","97","","","","8","","20","","6.4","","100.53","","","","","","Rain"
"-65.89","45.32","SAINT JOHN A","8104901","2019-04-03 09:00","2019","04","03","09:00","0.7","","0.4","","98","","","","6","","21","","2.4","","100.24","","","","","","Rain,Snow"
"-65.89","45.32","SAINT JOHN A","8104901","2019-04-03 10:00","2019","04","03","10:00","1.7","","1.1","","96","","","","5","","32","","4.8","","99.81","","","","","","Rain"
"-65.89","45.32","SAINT JOHN A","8104901","2019-04-03 11:00","2019","04","03","11:00","1.8","","1.4","","98","","","","7","","6","","4.8","","99.40","","","","","","Rain,Fog"
"-65.89","45.32","SAINT JOHN A","8104901","2019-04-03 12:00","2019","04","03","12:00","2.3","","1.5","","94","","","","5","","21","","8.1","","99.01","","","","","","Moderate Rain,Fog"
"-65.89","45.32","SAINT JOHN A","8104901","2019-04-03 13:00","2019","04","03","13:00","2.6","","2.1","","97","","","","3","","27","","12.9","","98.62","","","","","","Rain"
"-65.89","45.32","SAINT JOHN A","8104901","2019-04-03 14:00","2019","04","03","14:00","1.0","","0.7","","98","","","","33","","22","","4.8","","98.43","","","","","","Rain,Fog"
"-65.89","45.32","SAINT JOHN A","8104901","2019-04-03 15:00","2019","04","03","15:00","1.1","","0.8","","98","","","","35","","28","","2.4","","98.18","","","","","","Rain,Fog"
"-65.89","45.32","SAINT JOHN A","8104901","2019-04-03 16:00","2019","04","03","16:00","0.5","","0.2","","98","","","","33","","32","","8.1","","98.11","","","","","","Rain,Fog"
"-65.89","45.32","SAINT JOHN A","8104901","2019-04-03 17:00","2019","04","03","17:00","0.5","","0.0","","96","","","","34","","39","","8.1","","98.05","","","","","","Fog"
"-65.89","45.32","SAINT JOHN A","8104901","2019-04-03 18:00","2019","04","03","18:00","0.7","","-0.1","","94","","","","31","","35","","6.4","","98.27","","","","","","Fog"
"-65.89","45.32","SAINT JOHN A","8104901","2019-04-03 19:00","2019","04","03","19:00","0.7","","-0.3","","93","","","","29","","32","","16.1","","98.55","","","","","","NA"
"-65.89","45.32","SAINT JOHN A","8104901","2019-04-03 20:00","2019","04","03","20:00","0.8","","-0.2","","93","","","","28","","31","","24.1","","98.78","","","","","","Cloudy"
"-65.89","45.32","SAINT JOHN A","8104901","2019-04-03 21:00","2019","04","03","21:00","0.8","","0.0","","95","","","","25","","22","","4.8","","98.90","","","","","","Snow"
"-65.89","45.32","SAINT JOHN A","8104901","2019-04-03 22:00","2019","04","03","22:00","1.4","","0.1","","91","","","","26","","18","","24.1","","98.95","","","","","","NA"
"-65.89","45.32","SAINT JOHN A","8104901","2019-04-03 23:00","2019","04","03","23:00","1.5","","-0.1","","89","","","","25","","23","","24.1","","99.02","","","","","","Mostly Cloudy"
"-65.89","45.32","SAINT JOHN A","8104901","2019-04-04 00:00","2019","04","04","00:00","1.8","","-1.4","","79","","","","25","","24","","24.1","","99.11","","","","","","NA"
"-65.89","45.32","SAINT JOHN A","8104901","2019-04-04 01:00","2019","04","04","01:00","1.7","","-2.0","","77","","","","24","","27","","24.1","","99.20","","","","","","NA"
"-65.89","45.32","SAINT JOHN A","8104901","2019-04-04 02:00","2019","04","04","02:00","1.4","","-3.4","","70","","","","24","","27","","24.1","","99.28","","","","","","Clear"
"-65.89","45.32","SAINT JOHN A","8104901","2019-04-04 03:00","2019","04","04","03:00","1.2","","-4.2","","67","","","","24","","29","","24.1","","99.37","","","","","","NA"
"-65.89","45.32","SAINT JOHN A","8104901","2019-04-04 04:00","2019","04","04","04:00","0.7","","-4.9","","66","","","","24","","26","","24.1","","99.48","","","","","","NA"
"-65.89","45.32","SAINT JOHN A","8104901","2019-04-04 05:00","2019","04","04","05:00","0.0","","-6.2","","63","","","","25","","30","","24.1","","99.56","","","","-6","","Clear"
"-65.89","45.32","SAINT JOHN A","8104901","2019-04-04 06:00","2019","04","04","06:00","-0.3","","-6.6","","62","","","","24","","24","","24.1","","99.64","","","","-6","","NA"
"-65.89","45.32","SAINT JOHN A","8104901","2019-04-04 07:00","2019","04","04","07:00","-0.1","","-7.7","","57","","","","24","","36","","24.1","","99.72","","","","-7","","NA"
"-65.89","45.32","SAINT JOHN A","8104901","2019-04-04 08:00","2019","04","04","08:00","0.4","","-10.0","","46","","","","26","","33","","24.1","","99.77","","","","","","Mainly Clear"
"-65.89","45.32","SAINT JOHN A","8104901","2019-04-04 09:00","2019","04","04","09:00","0.8","","-10.9","","42","","","","27","","33","","24.1","","99.78","","","","","","NA"
"-65.89","45.32","SAINT JOHN A","8104901","2019-04-04 10:00","2019","04","04","10:00","0.8","","-10.7","","42","","","","27","","28","","24.1","","99.82","","","","","","NA"
"-65.89","45.32","SAINT JOHN A","8104901","2019-04-04 11:00","2019","04","04","11:00","0.8","","-12.8","","36","","","","27","","36","","24.1","","99.86","","","","","","Mostly Cloudy"
"-65.89","45.32","SAINT JOHN A","8104901","2019-04-04 12:00","2019","04","04","12:00","2.3","","-12.6","","33","","","","27","","35","","24.1","","99.82","","","","","","NA"
"-65.89","45.32","SAINT JOHN A","8104901","2019-04-04 13:00","2019","04","04","13:00","2.6","","-12.7","","32","","","","26","","35","","24.1","","99.82","","","","","","NA"
"-65.89","45.32","SAINT JOHN A","8104901","2019-04-04 14:00","2019","04","04","14:00","3.0","","-13.4","","29","","","","28","","46","","24.1","","99.77","","","","","","Mainly Clear"
"-65.89","45.32","SAINT JOHN A","8104901","2019-04-04 15:00","2019","04","04","15:00","3.1","","-12.5","","31","","","","28","","40","","24.1","","99.83","","","","","","NA"
"-65.89","45.32","SAINT JOHN A","8104901","2019-04-04 16:00","2019","04","04","16:00","2.5","","-12.7","","32","","","","26","","34","","24.1","","99.90","","","","","","NA"
"-65.89","45.32","SAINT JOHN A","8104901","2019-04-04 17:00","2019","04","04","17:00","2.0","","-12.6","","33","","","","29","","43","","24.1","","99.96","","","","","","Mostly Cloudy"
"-65.89","45.32","SAINT JOHN A","8104901","2019-04-04 18:00","2019","04","04","18:00","0.9","","-12.6","","36","","","","28","","25","","24.1","","100.05","","","","","","NA"
"-65.89","45.32","SAINT JOHN A","8104901","2019-04-04 19:00","2019","04","04","19:00","-0.2","","-12.7","","39","","","","29","","31","","24.1","","100.15","","","","-7","","NA"
"-65.89","45.32","SAINT JOHN A","8104901","2019-04-04 20:00","2019","04","04","20:00","-0.7","","-13.9","","37","","","","29","","40","","24.1","","100.27","","","","-8","","Mainly Clear"
"-65.89","45.32","SAINT JOHN A","8104901","2019-04-04 21:00","2019","04","04","21:00","-1.2","","-13.4","","39","","","","28","","28","","24.1","","100.36","","","","-8","","NA"
"-65.89","45.32","SAINT JOHN A","8104901","2019-04-04 22:00","2019","04","04","22:00","-1.6","","-13.2","","41","","","","31","","31","","24.1","","100.42","","","","-9","","NA"
"-65.89","45.32","SAINT JOHN A","8104901","2019-04-04 23:00","2019","04","04","23:00","-2.0","","-13.0","","43","","","","30","","27","","24.1","","100.51","","","","-9","","Mainly Clear"
"-65.89","45.32","SAINT JOHN A","8104901","2019-04-05 00:00","2019","04","05","00:00","-2.2","","-12.5","","45","","","","30","","18","","24.1","","100.61","","","","-8","","NA"
"-65.89","45.32","SAINT JOHN A","8104901","2019-04-05 01:00","2019","04","05","01:00","-2.4","","-11.8","","49","","","","30","","30","","24.1","","100.71","","","","-10","","NA"
"-65.89","45.32","SAINT JOHN A","8104901","2019-04-05 02:00","2019","04","05","02:00","-2.9","","-11.8","","51","","","","30","","40","","24.1","","100.75","","","","-11","","Mostly Cloudy"
"-65.89","45.32","SAINT JOHN A","8104901","2019-04-05 03:00","2019","04","05","03:00","-3.4","","-11.8","","53","","","","31","","40","","24.1","","100.78","","","","-12","","NA"
"-65.89","45.32","SAINT JOHN A","8104901","2019-04-05 04:00","2019","04","05","04:00","-3.8","","-12.6","","51","","","","32","","37","","24.1","","100.81","","","","-12","","NA"
"-65.89","45.32","SAINT JOHN A","8104901","2019-04-05 05:00","2019","04","05","05:00","-4.1","","-14.0","","46","","","","32","","52","","24.1","","100.88","","","","-14","","Mainly Clear"
"-65.89","45.32","SAINT JOHN A","8104901","2019-04-05 06:00","2019","04","05","06:00","-4.7","","-14.2","","47","","","","32","","46","","24.1","","100.97","","","","-14","","NA"
"-65.89","45.32","SAINT JOHN A","8104901","2019-04-05 07:00","2019","04","05","07:00","-4.3","","-15.1","","43","","","","33","","50","","24.1","","101.03","","","","-14","","NA"
"-65.89","45.32","SAINT JOHN A","8104901","2019-04-05 08:00","2019","04","05","08:00","-3.4","","-15.7","","38","","","","29","","23","","24.1","","101.28","","","","-10","","Clear"
"-65.89","45.32","SAINT JOHN A","8104901","2019-04-05 09:00","2019","04","05","09:00","-1.7","","-15.1","","36","","","","32","","16","","24.1","","101.36","","","","-7","","NA"
"-65.89","45.32","SAINT JOHN A","8104901","2019-04-05 10:00","2019","04","05","10:00","-0.9","","-15.1","","33","","","","27","","23","","24.1","","101.40","","","","-7","","NA"
"-65.89","45.32","SAINT JOHN A","8104901","2019-04-05 11:00","2019","04","05","11:00","0.8","","-15.5","","29","","","","30","","31","","24.1","","101.39","","","","","","Clear"
"-65.89","45.32","SAINT JOHN A","8104901","2019-04-05 12:00","2019","04","05","12:00","1.4","","-15.6","","27","","","","29","","24","","24.1","","101.40","","","","","","NA"
"-65.89","45.32","SAINT JOHN A","8104901","2019-04-05 13:00","2019","04","05","13:00","3.3","","-15.1","","25","","","","30","","21","","24.1","","101.39","","","","","","NA"
"-65.89","45.32","SAINT JOHN A","8104901","2019-04-05 14:00","2019","04","05","14:00","4.3","","-16.8","","20","","","","30","","25","","24.1","","101.34","","","","","","Clear"
"-65.89","45.32","SAINT JOHN A","8104901","2019-04-05 15:00","2019","04","05","15:00","4.7","","-16.7","","20","","","","29","","23","","24.1","","101.29","","","","","","NA"
"-65.89","45.32","SAINT JOHN A","8104901","2019-04-05 16:00","2019","04","05","16:00","5.5","","-15.4","","21","","","","29","","15","","24.1","","101.24","","","","","","NA"
"-65.89","45.32","SAINT JOHN A","8104901","2019-04-05 17:00","2019","04","05","17:00","5.7","","-16.1","","19","","","","27","","14","","24.1","","101.24","","","","","","Mainly Clear"
"-65.89","45.32","SAINT JOHN A","8104901","2019-04-05 18:00","2019","04","05","18:00","2.4","","-7.1","","49","","","","22","","22","","24.1","","101.28","","","","","","NA"
"-65.89","45.32","SAINT JOHN A","8104901","2019-04-05 19:00","2019","04","05","19:00","1.4","","-4.3","","66","","","","23","","16","","24.1","","101.28","","","","","","NA"
"-65.89","45.32","SAINT JOHN A","8104901","2019-04-05 20:00","2019","04","05","20:00","0.9","","-3.1","","75","","","","23","","14","","24.1","","101.29","","","","","","Mostly Cloudy"
"-65.89","45.32","SAINT JOHN A","8104901","2019-04-05 21:00","2019","04","05","21:00","0.6","","-3.1","","76","","","","21","","15","","24.1","","101.27","","","","","","NA"
"-65.89","45.32","SAINT JOHN A","8104901","2019-04-05 22:00","2019","04","05","22:00","0.8","","-3.1","","75","","","","21","","19","","24.1","","101.26","","","","","","NA"
"-65.89","45.32","SAINT JOHN A","8104901","2019-04-05 23:00","2019","04","05","23:00","1.5","","-2.7","","74","","","","22","","25","","24.1","","101.23","","","","","","Cloudy"
"-65.89","45.32","SAINT JOHN A","8104901","2019-04-06 00:00","2019","04","06","00:00","1.5","","-2.7","","74","","","","22","","21","","24.1","","101.18","","","","","","NA"
"-65.89","45.32","SAINT JOHN A","8104901","2019-04-06 01:00","2019","04","06","01:00","1.3","","-2.7","","75","","","","21","","15","","24.1","","101.11","","","","","","NA"
"-65.89","45.32","SAINT JOHN A","8104901","2019-04-06 02:00","2019","04","06","02:00","1.4","","-3.0","","72","","","","22","","22","","24.1","","101.04","","","","","","Cloudy"
"-65.89","45.32","SAINT JOHN A","8104901","2019-04-06 03:00","2019","04","06","03:00","1.7","","-2.2","","76","","","","21","","22","","24.1","","100.92","","","","","","NA"
"-65.89","45.32","SAINT JOHN A","8104901","2019-04-06 04:00","2019","04","06","04:00","0.4","","-0.4","","95","","","","22","","23","","4.8","","100.86","","","","","","Snow"
"-65.89","45.32","SAINT JOHN A","8104901","2019-04-06 05:00","2019","04","06","05:00","0.1","","-0.1","","98","","","","21","","21","","3.2","","100.81","","","","","","Snow"
"-65.89","45.32","SAINT JOHN A","8104901","2019-04-06 06:00","2019","04","06","06:00","0.2","","0.0","","99","","","","20","","25","","3.2","","100.75","","","","","","Snow"
"-65.89","45.32","SAINT JOHN A","8104901","2019-04-06 07:00","2019","04","06","07:00","0.3","","0.2","","99","","","","21","","24","","2.4","","100.74","","","","","","Snow"
"-65.89","45.32","SAINT JOHN A","8104901","2019-04-06 08:00","2019","04","06","08:00","0.4","","0.3","","99","","","","21","","21","","2.4","","100.68","","","","","","Snow"
"-65.89","45.32","SAINT JOHN A","8104901","2019-04-06 09:00","2019","04","06","09:00","1.3","","1.1","","99","","","","23","","27","","2.4","","100.62","","","","","","Rain,Snow,Fog"
"-65.89","45.32","SAINT JOHN A","8104901","2019-04-06 10:00","2019","04","06","10:00","1.7","","1.6","","99","","","","22","","30","","3.2","","100.56","","","","","","Rain,Fog"
"-65.89","45.32","SAINT JOHN A","8104901","2019-04-06 11:00","2019","04","06","11:00","2.4","","2.4","","99","","","","23","","26","","2.0","","100.53","","","","","","Rain,Fog"
"-65.89","45.32","SAINT JOHN A","8104901","2019-04-06 12:00","2019","04","06","12:00","2.6","","2.6","","100","","","","23","","23","","2.0","","100.46","","","","","","Rain,Fog"
"-65.89","45.32","SAINT JOHN A","8104901","2019-04-06 13:00","2019","04","06","13:00","3.2","","3.1","","100","","","","22","","22","","2.0","","100.39","","","","","","Rain,Fog"
"-65.89","45.32","SAINT JOHN A","8104901","2019-04-06 14:00","2019","04","06","14:00","3.3","","3.3","","100","","","","23","","21","","1.2","","100.33","","","","","","Fog"
"-65.89","45.32","SAINT JOHN A","8104901","2019-04-06 15:00","2019","04","06","15:00","4.2","","4.0","","99","","","","23","","10","","8.1","","100.28","","","","","","Fog"
"-65.89","45.32","SAINT JOHN A","8104901","2019-04-06 16:00","2019","04","06","16:00","4.7","","4.1","","96","","","","21","","14","","12.9","","100.24","","","","","","NA"
"-65.89","45.32","SAINT JOHN A","8104901","2019-04-06 17:00","2019","04","06","17:00","4.7","","4.3","","97","","","","21","","9","","12.9","","100.23","","","","","","Cloudy"
"-65.89","45.32","SAINT JOHN A","8104901","2019-04-06 18:00","2019","04","06","18:00","4.3","","3.9","","97","","","","21","","12","","12.9","","100.26","","","","","","NA"
"-65.89","45.32","SAINT JOHN A","8104901","2019-04-06 19:00","2019","04","06","19:00","3.5","","3.4","","99","","","","22","","9","","12.9","","100.31","","","","","","NA"
"-65.89","45.32","SAINT JOHN A","8104901","2019-04-06 20:00","2019","04","06","20:00","2.7","","2.7","","100","","","","22","","9","","9.7","","100.38","","","","","","Fog"
"-65.89","45.32","SAINT JOHN A","8104901","2019-04-06 21:00","2019","04","06","21:00","2.9","","2.8","","100","","","","30","","5","","9.7","","100.43","","","","","","Fog"
"-65.89","45.32","SAINT JOHN A","8104901","2019-04-06 22:00","2019","04","06","22:00","1.6","","1.4","","98","","","","22","","7","","24.1","","100.44","","","","","","NA"
"-65.89","45.32","SAINT JOHN A","8104901","2019-04-06 23:00","2019","04","06","23:00","1.9","","-0.2","","86","","","","26","","4","","24.1","","100.48","","","","","","Mainly Clear"
"-65.89","45.32","SAINT JOHN A","8104901","2019-04-07 00:00","2019","04","07","00:00","-0.4","","-1.5","","93","","","","20","","7","","24.1","","100.53","","","","-3","","NA"
"-65.89","45.32","SAINT JOHN A","8104901","2019-04-07 01:00","2019","04","07","01:00","-1.2","","-1.6","","97","","","","23","","3","","24.1","","100.56","","","","-2","","NA"
"-65.89","45.32","SAINT JOHN A","8104901","2019-04-07 02:00","2019","04","07","02:00","-0.6","","-1.2","","96","","","","36","","3","","24.1","","100.56","","","","-2","","Mainly Clear"
"-65.89","45.32","SAINT JOHN A","8104901","2019-04-07 03:00","2019","04","07","03:00","-3.5","","-4.2","","95","","","","36","","1","","24.1","","100.54","","","","-4","","NA"
"-65.89","45.32","SAINT JOHN A","8104901","2019-04-07 04:00","2019","04","07","04:00","-3.2","","-4.0","","95","","","","36","","2","","24.1","","100.57","","","","-4","","NA"
"-65.89","45.32","SAINT JOHN A","8104901","2019-04-07 05:00","2019","04","07","05:00","-3.4","","-3.8","","97","","","","21","","3","","24.1","","100.61","","","","-5","","Clear"
"-65.89","45.32","SAINT JOHN A","8104901","2019-04-07 06:00","2019","04","07","06:00","1.1","","-0.6","","89","","","","29","","13","","24.1","","100.68","","","","","","NA"
"-65.89","45.32","SAINT JOHN A","8104901","2019-04-07 07:00","2019","04","07","07:00","2.2","","-0.4","","83","","","","29","","11","","24.1","","100.74","","","","","","NA"
"-65.89","45.32","SAINT JOHN A","8104901","2019-04-07 08:00","2019","04","07","08:00","3.6","","0.2","","79","","","","27","","15","","24.1","","100.73","","","","","","Clear"
"-65.89","45.32","SAINT JOHN A","8104901","2019-04-07 09:00","2019","04","07","09:00","6.0","","-0.6","","63","","","","32","","20","","24.1","","100.68","","","","","","NA"
"-65.89","45.32","SAINT JOHN A","8104901","2019-04-07 10:00","2019","04","07","10:00","7.3","","-0.9","","56","","","","31","","24","","24.1","","100.64","","","","","","NA"
"-65.89","45.32","SAINT JOHN A","8104901","2019-04-07 11:00","2019","04","07","11:00","9.2","","-0.6","","50","","","","28","","20","","24.1","","100.55","","","","","","Mostly Cloudy"
"-65.89","45.32","SAINT JOHN A","8104901","2019-04-07 12:00","2019","04","07","12:00","9.1","","-2.0","","46","","","","28","","26","","24.1","","100.55","","","","","","NA"
"-65.89","45.32","SAINT JOHN A","8104901","2019-04-07 13:00","2019","04","07","13:00","10.2","","-2.2","","42","","","","29","","30","","24.1","","100.51","","","","","","NA"
"-65.89","45.32","SAINT JOHN A","8104901","2019-04-07 14:00","2019","04","07","14:00","10.7","","-2.5","","40","","","","29","","28","","24.1","","100.51","","","","","","Mostly Cloudy"
"-65.89","45.32","SAINT JOHN A","8104901","2019-04-07 15:00","2019","04","07","15:00","11.4","","-2.7","","37","","","","30","","28","","24.1","","100.45","","","","","","NA"
"-65.89","45.32","SAINT JOHN A","8104901","2019-04-07 16:00","2019","04","07","16:00","11.1","","-3.3","","36","","","","32","","32","","24.1","","100.42","","","","","","NA"
"-65.89","45.32","SAINT JOHN A","8104901","2019-04-07 17:00","2019","04","07","17:00","10.9","","-4.0","","35","","","","29","","21","","24.1","","100.39","","","","","","Mainly Clear"
"-65.89","45.32","SAINT JOHN A","8104901","2019-04-07 18:00","2019","04","07","18:00","9.7","","-4.8","","35","","","","32","","26","","24.1","","100.42","","","","","","NA"
"-65.89","45.32","SAINT JOHN A","8104901","2019-04-07 19:00","2019","04","07","19:00","6.9","","-6.3","","39","","","","35","","22","","24.1","","100.52","","","","","","NA"
"-65.89","45.32","SAINT JOHN A","8104901","2019-04-07 20:00","2019","04","07","20:00","5.0","","-8.9","","36","","","","35","","26","","24.1","","100.62","","","","","","Mainly Clear"
"-65.89","45.32","SAINT JOHN A","8104901","2019-04-07 21:00","2019","04","07","21:00","3.2","","-11.1","","34","","","","1","","23","","24.1","","100.78","","","","","","NA"
"-65.89","45.32","SAINT JOHN A","8104901","2019-04-07 22:00","2019","04","07","22:00","1.4","","-11.8","","37","","","","1","","17","","24.1","","100.89","","","","","","NA"
"-65.89","45.32","SAINT JOHN A","8104901","2019-04-07 23:00","2019","04","07","23:00","0.5","","-13.5","","34","","","","1","","16","","24.1","","100.94","","","","","","Mainly Clear"
"-65.89","45.32","SAINT JOHN A","8104901","2019-04-08 00:00","2019","04","08","00:00","-1.4","","-12.7","","42","","","","5","","13","","24.1","","101.04","","","","-6","","NA"
"-65.89","45.32","SAINT JOHN A","8104901","2019-04-08 01:00","2019","04","08","01:00","-2.5","","-11.9","","49","","","","3","","14","","24.1","","101.12","","","","-7","","NA"
"-65.89","45.32","SAINT JOHN A","8104901","2019-04-08 02:00","2019","04","08","02:00","-3.0","","-12.9","","47","","","","5","","11","","24.1","","101.13","","","","-7","","Clear"
"-65.89","45.32","SAINT JOHN A","8104901","2019-04-08 03:00","2019","04","08","03:00","-3.8","","-13.5","","47","","","","4","","11","","24.1","","101.11","","","","-8","","NA"
"-65.89","45.32","SAINT JOHN A","8104901","2019-04-08 04:00","2019","04","08","04:00","-3.5","","-14.1","","44","","","","4","","13","","24.1","","101.12","","","","-8","","NA"
"-65.89","45.32","SAINT JOHN A","8104901","2019-04-08 05:00","2019","04","08","05:00","-3.5","","-13.5","","46","","","","5","","8","","24.1","","101.15","","","","-7","","Cloudy"
"-65.89","45.32","SAINT JOHN A","8104901","2019-04-08 06:00","2019","04","08","06:00","-3.1","","-15.0","","40","","","","4","","13","","24.1","","101.14","","","","-8","","NA"
"-65.89","45.32","SAINT JOHN A","8104901","2019-04-08 07:00","2019","04","08","07:00","-2.6","","-14.7","","39","","","","6","","10","","24.1","","101.16","","","","-6","","NA"
"-65.89","45.32","SAINT JOHN A","8104901","2019-04-08 08:00","2019","04","08","08:00","-2.4","","-15.8","","35","","","","8","","15","","24.1","","101.14","","","","-7","","Cloudy"
"-65.89","45.32","SAINT JOHN A","8104901","2019-04-08 09:00","2019","04","08","09:00","-1.9","","-16.3","","33","","","","8","","9","","24.1","","101.09","","","","-5","","NA"
"-65.89","45.32","SAINT JOHN A","8104901","2019-04-08 10:00","2019","04","08","10:00","-1.5","","-16.2","","32","","","","7","","8","","24.1","","101.03","","","","-5","","NA"
"-65.89","45.32","SAINT JOHN A","8104901","2019-04-08 11:00","2019","04","08","11:00","-1.0","","-15.7","","32","","","","13","","4","","24.1","","100.99","","","","-2","","Cloudy"
"-65.89","45.32","SAINT JOHN A","8104901","2019-04-08 12:00","2019","04","08","12:00","-1.6","","-12.4","","44","","","","8","","9","","24.1","","100.91","","","","-5","","NA"
"-65.89","45.32","SAINT JOHN A","8104901","2019-04-08 13:00","2019","04","08","13:00","-2.9","","-8.6","","65","","","","15","","9","","12.9","","100.85","","","","-6","","Snow"
"-65.89","45.32","SAINT JOHN A","8104901","2019-04-08 14:00","2019","04","08","14:00","-2.5","","-9.1","","61","","","","11","","20","","6.4","","100.74","","","","-8","","Snow"
"-65.89","45.32","SAINT JOHN A","8104901","2019-04-08 15:00","2019","04","08","15:00","-3.2","","-6.5","","78","","","","10","","16","","3.2","","100.66","","","","-9","","Snow"
"-65.89","45.32","SAINT JOHN A","8104901","2019-04-08 16:00","2019","04","08","16:00","-3.4","","-5.4","","86","","","","8","","15","","1.6","","100.55","","","","-9","","Snow"
"-65.89","45.32","SAINT JOHN A","8104901","2019-04-08 17:00","2019","04","08","17:00","-3.7","","-4.9","","91","","","","9","","14","","2.4","","100.44","","","","-9","","Snow"
"-65.89","45.32","SAINT JOHN A","8104901","2019-04-08 18:00","2019","04","08","18:00","-3.8","","-5.0","","92","","","","8","","20","","2.4","","100.29","","","","-10","","Snow"
"-65.89","45.32","SAINT JOHN A","8104901","2019-04-08 19:00","2019","04","08","19:00","-3.6","","-4.6","","93","","","","8","","19","","1.2","","100.18","","","","-10","","Snow"
"-65.89","45.32","SAINT JOHN A","8104901","2019-04-08 20:00","2019","04","08","20:00","-3.4","","-4.2","","94","","","","8","","25","","1.2","","100.01","","","","-10","","Snow"
"-65.89","45.32","SAINT JOHN A","8104901","2019-04-08 21:00","2019","04","08","21:00","-3.1","","-3.9","","94","","","","9","","21","","1.2","","100.02","","","","-9","","Snow"
"-65.89","45.32","SAINT JOHN A","8104901","2019-04-08 22:00","2019","04","08","22:00","-3.0","","-3.7","","95","","","","8","","18","","1.2","","99.89","","","","-9","","Snow"
"-65.89","45.32","SAINT JOHN A","8104901","2019-04-08 23:00","2019","04","08","23:00","-2.9","","-4.1","","92","","","","10","","22","","1.6","","99.86","","","","-9","","Snow"
"-65.89","45.32","SAINT JOHN A","8104901","2019-04-09 00:00","2019","04","09","00:00","-3.1","","-3.7","","95","","","","7","","15","","1.2","","99.77","","","","-8","","Snow"
"-65.89","45.32","SAINT JOHN A","8104901","2019-04-09 01:00","2019","04","09","01:00","-3.4","","-4.4","","93","","","","6","","21","","1.2","","99.72","","","","-10","","Snow"
"-65.89","45.32","SAINT JOHN A","8104901","2019-04-09 02:00","2019","04","09","02:00","-3.7","","-4.5","","94","","","","4","","16","","1.2","","99.76","","","","-9","","Snow"
"-65.89","45.32","SAINT JOHN A","8104901","2019-04-09 03:00","2019","04","09","03:00","-3.7","","-4.7","","93","","","","3","","14","","1.6","","99.74","","","","-9","","Snow"
"-65.89","45.32","SAINT JOHN A","8104901","2019-04-09 04:00","2019","04","09","04:00","-4.1","","-5.0","","94","","","","2","","15","","2.4","","99.78","","","","-9","","Snow"
"-65.89","45.32","SAINT JOHN A","8104901","2019-04-09 05:00","2019","04","09","05:00","-4.2","","-5.6","","90","","","","3","","18","","6.4","","99.80","","","","-10","","Fog"
"-65.89","45.32","SAINT JOHN A","8104901","2019-04-09 06:00","2019","04","09","06:00","-4.5","","-5.3","","94","","","","1","","15","","6.4","","99.90","","","","-10","","Fog"
"-65.89","45.32","SAINT JOHN A","8104901","2019-04-09 07:00","2019","04","09","07:00","-4.8","","-6.2","","90","","","","3","","20","","6.4","","99.89","","","","-11","","Freezing Drizzle,Fog"
"-65.89","45.32","SAINT JOHN A","8104901","2019-04-09 08:00","2019","04","09","08:00","-4.3","","-5.6","","91","","","","3","","13","","9.7","","99.87","","","","-9","","Fog"
"-65.89","45.32","SAINT JOHN A","8104901","2019-04-09 09:00","2019","04","09","09:00","-4.0","","-5.6","","89","","","","2","","16","","24.1","","99.86","","","","-10","","NA"
"-65.89","45.32","SAINT JOHN A","8104901","2019-04-09 10:00","2019","04","09","10:00","-3.0","","-5.8","","81","","","","5","","16","","24.1","","99.79","","","","-8","","NA"
"-65.89","45.32","SAINT JOHN A","8104901","2019-04-09 11:00","2019","04","09","11:00","-1.9","","-5.7","","75","","","","36","","12","","24.1","","99.80","","","","-6","","Cloudy"
"-65.89","45.32","SAINT JOHN A","8104901","2019-04-09 12:00","2019","04","09","12:00","-0.8","","-4.6","","76","","","","3","","10","","24.1","","99.73","","","","-4","","NA"
"-65.89","45.32","SAINT JOHN A","8104901","2019-04-09 13:00","2019","04","09","13:00","-0.1","","-4.0","","75","","","","11","","9","","24.1","","99.68","","","","-3","","NA"
"-65.89","45.32","SAINT JOHN A","8104901","2019-04-09 14:00","2019","04","09","14:00","0.0","","-3.9","","75","","","","8","","12","","24.1","","99.60","","","","-4","","Cloudy"
"-65.89","45.32","SAINT JOHN A","8104901","2019-04-09 15:00","2019","04","09","15:00","-0.2","","-4.0","","75","","","","11","","16","","24.1","","99.57","","","","-5","","NA"
"-65.89","45.32","SAINT JOHN A","8104901","2019-04-09 16:00","2019","04","09","16:00","-0.4","","-4.3","","75","","","","11","","13","","24.1","","99.54","","","","-5","","NA"
"-65.89","45.32","SAINT JOHN A","8104901","2019-04-09 17:00","2019","04","09","17:00","-1.0","","-3.9","","81","","","","12","","12","","24.1","","99.50","","","","-5","","Cloudy"
"-65.89","45.32","SAINT JOHN A","8104901","2019-04-09 18:00","2019","04","09","18:00","-1.1","","-4.0","","80","","","","8","","13","","24.1","","99.40","","","","-5","","NA"
"-65.89","45.32","SAINT JOHN A","8104901","2019-04-09 19:00","2019","04","09","19:00","-1.2","","-3.8","","82","","","","10","","9","","24.1","","99.43","","","","-4","","NA"
"-65.89","45.32","SAINT JOHN A","8104901","2019-04-09 20:00","2019","04","09","20:00","-1.3","","-3.8","","83","","","","8","","4","","24.1","","99.45","","","","-3","","Cloudy"
"-65.89","45.32","SAINT JOHN A","8104901","2019-04-09 21:00","2019","04","09","21:00","-1.0","","-3.8","","81","","","","12","","11","","24.1","","99.39","","","","-5","","NA"
"-65.89","45.32","SAINT JOHN A","8104901","2019-04-09 22:00","2019","04","09","22:00","-1.5","","-2.7","","92","","","","11","","14","","2.4","","99.30","","","","-6","","Snow"
"-65.89","45.32","SAINT JOHN A","8104901","2019-04-09 23:00","2019","04","09","23:00","-2.1","","-2.6","","96","","","","7","","10","","1.6","","99.37","","","","-6","","Snow"
"-65.89","45.32","SAINT JOHN A","8104901","2019-04-10 00:00","2019","04","10","00:00","-2.4","","-2.9","","97","","","","5","","9","","2.4","","99.35","","","","-6","","Snow"
"-65.89","45.32","SAINT JOHN A","8104901","2019-04-10 01:00","2019","04","10","01:00","-2.4","","-3.0","","95","","","","7","","10","","6.4","","99.35","","","","-6","","Snow"
"-65.89","45.32","SAINT JOHN A","8104901","2019-04-10 02:00","2019","04","10","02:00","-2.6","","-3.1","","96","","","","5","","7","","1.6","","99.29","","","","-5","","Snow"
"-65.89","45.32","SAINT JOHN A","8104901","2019-04-10 03:00","2019","04","10","03:00","-2.7","","-3.2","","96","","","","4","","5","","3.2","","99.23","","","","-5","","Snow"
"-65.89","45.32","SAINT JOHN A","8104901","2019-04-10 04:00","2019","04","10","04:00","-2.6","","-3.6","","93","","","","8","","8","","9.7","","99.20","","","","-6","","Snow"
"-65.89","45.32","SAINT JOHN A","8104901","2019-04-10 05:00","2019","04","10","05:00","-2.7","","-3.4","","95","","","","7","","12","","19.3","","99.19","","","","-7","","Cloudy"
"-65.89","45.32","SAINT JOHN A","8104901","2019-04-10 06:00","2019","04","10","06:00","-2.6","","-3.2","","95","","","","7","","13","","12.9","","99.18","","","","-7","","NA"
"-65.89","45.32","SAINT JOHN A","8104901","2019-04-10 07:00","2019","04","10","07:00","-2.3","","-3.1","","94","","","","7","","12","","3.2","","99.22","","","","-7","","Fog"
"-65.89","45.32","SAINT JOHN A","8104901","2019-04-10 08:00","2019","04","10","08:00","-1.9","","-3.0","","92","","","","6","","9","","4.8","","99.24","","","","-5","","Snow,Fog"
"-65.89","45.32","SAINT JOHN A","8104901","2019-04-10 09:00","2019","04","10","09:00","-1.2","","-3.3","","85","","","","7","","10","","6.4","","99.25","","","","-5","","Snow,Fog"
"-65.89","45.32","SAINT JOHN A","8104901","2019-04-10 10:00","2019","04","10","10:00","-0.4","","-3.2","","81","","","","6","","9","","8.1","","99.27","","","","-4","","Snow"
"-65.89","45.32","SAINT JOHN A","8104901","2019-04-10 11:00","2019","04","10","11:00","-0.6","","-3.1","","83","","","","36","","2","","9.7","","99.27","","","","-1","","Snow"
"-65.89","45.32","SAINT JOHN A","8104901","2019-04-10 12:00","2019","04","10","12:00","-0.1","","-2.2","","86","","","","35","","10","","4.8","","99.27","","","","-3","","Snow"
"-65.89","45.32","SAINT JOHN A","8104901","2019-04-10 13:00","2019","04","10","13:00","0.4","","-2.4","","81","","","","36","","15","","12.9","","99.27","","","","","","NA"
"-65.89","45.32","SAINT JOHN A","8104901","2019-04-10 14:00","2019","04","10","14:00","0.6","","-2.1","","82","","","","2","","14","","24.1","","99.28","","","","","","Cloudy"
"-65.89","45.32","SAINT JOHN A","8104901","2019-04-10 15:00","2019","04","10","15:00","0.6","","-2.8","","78","","","","33","","17","","24.1","","99.31","","","","","","NA"
"-65.89","45.32","SAINT JOHN A","8104901","2019-04-10 16:00","2019","04","10","16:00","0.7","","-3.5","","74","","","","34","","25","","24.1","","99.37","","","","","","NA"
"-65.89","45.32","SAINT JOHN A","8104901","2019-04-10 17:00","2019","04","10","17:00","0.2","","-2.8","","80","","","","34","","18","","24.1","","99.38","","","","","","Mostly Cloudy"
"-65.89","45.32","SAINT JOHN A","8104901","2019-04-10 18:00","2019","04","10","18:00","0.4","","-2.9","","78","","","","30","","10","","24.1","","99.43","","","","","","NA"
"-65.89","45.32","SAINT JOHN A","8104901","2019-04-10 19:00","2019","04","10","19:00","0.2","","-2.0","","85","","","","28","","6","","24.1","","99.50","","","","","","NA"
"-65.89","45.32","SAINT JOHN A","8104901","2019-04-10 20:00","2019","04","10","20:00","0.0","","-1.6","","89","","","","25","","8","","24.1","","99.57","","","","-3","","Cloudy"
"-65.89","45.32","SAINT JOHN A","8104901","2019-04-10 21:00","2019","04","10","21:00","0.0","","-1.6","","89","","","","26","","10","","24.1","","99.60","","","","-3","","NA"
"-65.89","45.32","SAINT JOHN A","8104901","2019-04-10 22:00","2019","04","10","22:00","-0.8","","-2.0","","92","","","","25","","8","","24.1","","99.60","","","","-4","","NA"
"-65.89","45.32","SAINT JOHN A","8104901","2019-04-10 23:00","2019","04","10","23:00","-0.4","","-2.1","","88","","","","26","","11","","24.1","","99.57","","","","-4","","Cloudy"
"-65.89","45.32","SAINT JOHN A","8104901","2019-04-11 00:00","2019","04","11","00:00","-0.4","","-2.5","","86","","","","26","","8","","24.1","","99.56","","","","-3","","NA"
"-65.89","45.32","SAINT JOHN A","8104901","2019-04-11 01:00","2019","04","11","01:00","-0.8","","-2.8","","86","","","","26","","10","","24.1","","99.60","","","","-4","","NA"
"-65.89","45.32","SAINT JOHN A","8104901","2019-04-11 02:00","2019","04","11","02:00","-0.6","","-3.6","","80","","","","30","","16","","24.1","","99.63","","","","-5","","Cloudy"
"-65.89","45.32","SAINT JOHN A","8104901","2019-04-11 03:00","2019","04","11","03:00","-0.7","","-3.6","","81","","","","31","","15","","24.1","","99.67","","","","-5","","NA"
"-65.89","45.32","SAINT JOHN A","8104901","2019-04-11 04:00","2019","04","11","04:00","-0.5","","-3.5","","80","","","","30","","14","","24.1","","99.74","","","","-5","","NA"
"-65.89","45.32","SAINT JOHN A","8104901","2019-04-11 05:00","2019","04","11","05:00","-0.7","","-3.7","","80","","","","32","","19","","24.1","","99.78","","","","-6","","Cloudy"
"-65.89","45.32","SAINT JOHN A","8104901","2019-04-11 06:00","2019","04","11","06:00","-1.3","","-3.8","","83","","","","32","","18","","24.1","","99.86","","","","-7","","NA"
"-65.89","45.32","SAINT JOHN A","8104901","2019-04-11 07:00","2019","04","11","07:00","-1.8","","-4.1","","84","","","","32","","4","","24.1","","99.99","","","","-3","","NA"
"-65.89","45.32","SAINT JOHN A","8104901","2019-04-11 08:00","2019","04","11","08:00","0.8","","-3.5","","73","","","","32","","12","","24.1","","100.08","","","","","","Mainly Clear"
"-65.89","45.32","SAINT JOHN A","8104901","2019-04-11 09:00","2019","04","11","09:00","2.6","","-3.2","","65","","","","34","","21","","24.1","","100.17","","","","","","NA"
"-65.89","45.32","SAINT JOHN A","8104901","2019-04-11 10:00","2019","04","11","10:00","4.0","","-2.4","","63","","","","32","","18","","24.1","","100.24","","","","","","NA"
"-65.89","45.32","SAINT JOHN A","8104901","2019-04-11 11:00","2019","04","11","11:00","5.0","","-2.2","","60","","","","32","","13","","24.1","","100.27","","","","","","Mainly Clear"
"-65.89","45.32","SAINT JOHN A","8104901","2019-04-11 12:00","2019","04","11","12:00","5.8","","-1.9","","58","","","","32","","16","","24.1","","100.29","","","","","","NA"
"-65.89","45.32","SAINT JOHN A","8104901","2019-04-11 13:00","2019","04","11","13:00","6.5","","-1.8","","55","","","","34","","22","","24.1","","100.33","","","","","","NA"
"-65.89","45.32","SAINT JOHN A","8104901","2019-04-11 14:00","2019","04","11","14:00","7.4","","-1.8","","52","","","","33","","16","","24.1","","100.36","","","","","","Mainly Clear"
"-65.89","45.32","SAINT JOHN A","8104901","2019-04-11 15:00","2019","04","11","15:00","8.9","","-2.0","","46","","","","32","","12","","24.1","","100.39","","","","","","NA"
"-65.89","45.32","SAINT JOHN A","8104901","2019-04-11 16:00","2019","04","11","16:00","9.6","","-1.8","","45","","","","30","","19","","24.1","","100.43","","","","","","NA"
"-65.89","45.32","SAINT JOHN A","8104901","2019-04-11 17:00","2019","04","11","17:00","9.9","","-1.4","","45","","","","32","","17","","24.1","","100.47","","","","","","Clear"
"-65.89","45.32","SAINT JOHN A","8104901","2019-04-11 18:00","2019","04","11","18:00","9.4","","-2.3","","44","","","","31","","16","","24.1","","100.58","","","","","","NA"
"-65.89","45.32","SAINT JOHN A","8104901","2019-04-11 19:00","2019","04","11","19:00","7.5","","-3.0","","47","","","","27","","7","","24.1","","100.65","","","","","","NA"
"-65.89","45.32","SAINT JOHN A","8104901","2019-04-11 20:00","2019","04","11","20:00","1.5","","-2.2","","76","","","","18","","5","","24.1","","100.73","","","","","","Clear"
"-65.89","45.32","SAINT JOHN A","8104901","2019-04-11 21:00","2019","04","11","21:00","-0.8","","-2.8","","86","","","","18","","4","","24.1","","100.80","","","","-2","","NA"
"-65.89","45.32","SAINT JOHN A","8104901","2019-04-11 22:00","2019","04","11","22:00","-2.5","","-4.2","","89","","","","36","","2","","24.1","","100.83","","","","-3","","NA"
"-65.89","45.32","SAINT JOHN A","8104901","2019-04-11 23:00","2019","04","11","23:00","-2.2","","-3.7","","90","","","","36","","2","","24.1","","100.88","","","","-3","","Clear"
"-65.89","45.32","SAINT JOHN A","8104901","2019-04-12 00:00","2019","04","12","00:00","-3.2","","-4.1","","94","","","","36","","2","","24.1","","100.92","","","","-4","","NA"
"-65.89","45.32","SAINT JOHN A","8104901","2019-04-12 01:00","2019","04","12","01:00","-3.0","","-3.8","","95","","","","3","","4","","24.1","","100.96","","","","-5","","NA"
"-65.89","45.32","SAINT JOHN A","8104901","2019-04-12 02:00","2019","04","12","02:00","-4.1","","-4.5","","97","","","","2","","3","","24.1","","100.97","","","","-5","","Clear"
"-65.89","45.32","SAINT JOHN A","8104901","2019-04-12 03:00","2019","04","12","03:00","-4.0","","-4.6","","95","","","","4","","3","","24.1","","101.00","","","","-5","","NA"
"-65.89","45.32","SAINT JOHN A","8104901","2019-04-12 04:00","2019","04","12","04:00","-4.8","","-5.3","","96","","","","34","","5","","24.1","","101.07","","","","-7","","NA"
"-65.89","45.32","SAINT JOHN A","8104901","2019-04-12 05:00","2019","04","12","05:00","-5.5","","-6.0","","96","","","","2","","3","","24.1","","101.13","","","","-7","","Mainly Clear"
"-65.89","45.32","SAINT JOHN A","8104901","2019-04-12 06:00","2019","04","12","06:00","-6.1","","-6.8","","95","","","","1","","5","","24.1","","101.20","","","","-9","","NA"
"-65.89","45.32","SAINT JOHN A","8104901","2019-04-12 07:00","2019","04","12","07:00","-1.9","","-2.6","","94","","","","36","","3","","24.1","","101.20","","","","-3","","NA"
"-65.89","45.32","SAINT JOHN A","8104901","2019-04-12 08:00","2019","04","12","08:00","3.7","","-0.8","","72","","","","36","","2","","24.1","","101.24","","","","","","Mainly Clear"
"-65.89","45.32","SAINT JOHN A","8104901","2019-04-12 09:00","2019","04","12","09:00","7.3","","-4.0","","45","","","","36","","2","","24.1","","101.26","","","","","","NA"
"-65.89","45.32","SAINT JOHN A","8104901","2019-04-12 10:00","2019","04","12","10:00","10.0","","-6.9","","30","","","","28","","11","","24.1","","101.29","","","","","","NA"
"-65.89","45.32","SAINT JOHN A","8104901","2019-04-12 11:00","2019","04","12","11:00","11.0","","-6.9","","28","","","","25","","10","","24.1","","101.24","","","","","","Mainly Clear"
"-65.89","45.32","SAINT JOHN A","8104901","2019-04-12 12:00","2019","04","12","12:00","11.3","","-6.0","","29","","","","27","","13","","24.1","","101.22","","","","","","NA"
"-65.89","45.32","SAINT JOHN A","8104901","2019-04-12 13:00","2019","04","12","13:00","11.0","","-5.5","","31","","","","20","","17","","24.1","","101.20","","","","","","NA"
"-65.89","45.32","SAINT JOHN A","8104901","2019-04-12 14:00","2019","04","12","14:00","10.9","","-3.3","","37","","","","19","","24","","24.1","","101.15","","","","","","Mostly Cloudy"
"-65.89","45.32","SAINT JOHN A","8104901","2019-04-12 15:00","2019","04","12","15:00","10.3","","-1.9","","43","","","","19","","25","","24.1","","101.17","","","","","","NA"
"-65.89","45.32","SAINT JOHN A","8104901","2019-04-12 16:00","2019","04","12","16:00","9.8","","-0.7","","48","","","","20","","22","","24.1","","101.11","","","","","","NA"
"-65.89","45.32","SAINT JOHN A","8104901","2019-04-12 17:00","2019","04","12","17:00","7.8","","-0.2","","57","","","","20","","22","","24.1","","101.09","","","","","","Mostly Cloudy"
"-65.89","45.32","SAINT JOHN A","8104901","2019-04-12 18:00","2019","04","12","18:00","5.7","","0.1","","67","","","","20","","22","","24.1","","101.09","","","","","","NA"
"-65.89","45.32","SAINT JOHN A","8104901","2019-04-12 19:00","2019","04","12","19:00","4.8","","0.5","","74","","","","20","","19","","24.1","","101.08","","","","","","NA"
"-65.89","45.32","SAINT JOHN A","8104901","2019-04-12 20:00","2019","04","12","20:00","4.5","","1.7","","82","","","","21","","17","","24.1","","101.08","","","","","","Cloudy"
"-65.89","45.32","SAINT JOHN A","8104901","2019-04-12 21:00","2019","04","12","21:00","4.3","","2.1","","86","","","","20","","21","","24.1","","101.08","","","","","","NA"
"-65.89","45.32","SAINT JOHN A","8104901","2019-04-12 22:00","2019","04","12","22:00","4.2","","1.9","","85","","","","20","","17","","24.1","","101.08","","","","","","NA"
"-65.89","45.32","SAINT JOHN A","8104901","2019-04-12 23:00","2019","04","12","23:00","3.8","","2.4","","91","","","","20","","18","","24.1","","100.98","","","","","","Cloudy"
"-65.89","45.32","SAINT JOHN A","8104901","2019-04-13 00:00","2019","04","13","00:00","3.8","","1.5","","85","","","","19","","21","","12.9","","100.86","","","","","","NA"
"-65.89","45.32","SAINT JOHN A","8104901","2019-04-13 01:00","2019","04","13","01:00","3.5","","-0.1","","77","","","","18","","16","","16.1","","100.78","","","","","","NA"
"-65.89","45.32","SAINT JOHN A","8104901","2019-04-13 02:00","2019","04","13","02:00","3.2","","0.3","","81","","","","18","","18","","16.1","","100.67","","","","","","Cloudy"
"-65.89","45.32","SAINT JOHN A","8104901","2019-04-13 03:00","2019","04","13","03:00","2.2","","1.9","","97","","","","18","","18","","4.8","","100.57","","","","","","Rain,Fog"
"-65.89","45.32","SAINT JOHN A","8104901","2019-04-13 04:00","2019","04","13","04:00","3.1","","3.1","","99","","","","18","","16","","3.2","","100.47","","","","","","Rain,Fog"
"-65.89","45.32","SAINT JOHN A","8104901","2019-04-13 05:00","2019","04","13","05:00","4.4","","4.4","","100","","","","19","","18","","3.2","","100.37","","","","","","Rain,Fog"
"-65.89","45.32","SAINT JOHN A","8104901","2019-04-13 06:00","2019","04","13","06:00","4.6","","4.6","","100","","","","20","","16","","4.8","","100.33","","","","","","Rain,Fog"
"-65.89","45.32","SAINT JOHN A","8104901","2019-04-13 07:00","2019","04","13","07:00","5.4","","5.4","","100","","","","20","","13","","1.2","","100.31","","","","","","Rain,Fog"
"-65.89","45.32","SAINT JOHN A","8104901","2019-04-13 08:00","2019","04","13","08:00","5.8","","5.8","","100","","","","20","","13","","1.2","","100.28","","","","","","Rain,Fog"
"-65.89","45.32","SAINT JOHN A","8104901","2019-04-13 09:00","2019","04","13","09:00","6.3","","6.3","","100","","","","21","","15","","0.8","","100.29","","","","","","Fog"
"-65.89","45.32","SAINT JOHN A","8104901","2019-04-13 10:00","2019","04","13","10:00","6.8","","6.8","","100","","","","22","","14","","1.2","","100.29","","","","","","Rain,Fog"
"-65.89","45.32","SAINT JOHN A","8104901","2019-04-13 11:00","2019","04","13","11:00","7.5","","7.5","","100","","","","21","","14","","2.0","","100.29","","","","","","Rain,Fog"
"-65.89","45.32","SAINT JOHN A","8104901","2019-04-13 12:00","2019","04","13","12:00","6.9","","6.9","","100","","","","19","","11","","2.4","","100.21","","","","","","Rain,Fog"
"-65.89","45.32","SAINT JOHN A","8104901","2019-04-13 13:00","2019","04","13","13:00","6.8","","6.8","","100","","","","20","","22","","0.6","","100.15","","","","","","Fog"
"-65.89","45.32","SAINT JOHN A","8104901","2019-04-13 14:00","2019","04","13","14:00","6.5","","6.5","","100","","","","21","","11","","0.2","","100.14","","","","","","Fog"
"-65.89","45.32","SAINT JOHN A","8104901","2019-04-13 15:00","2019","04","13","15:00","7.3","","7.3","","100","","","","22","","17","","0.2","","100.03","","","","","","Drizzle,Fog"
"-65.89","45.32","SAINT JOHN A","8104901","2019-04-13 16:00","2019","04","13","16:00","8.1","","8.1","","100","","","","20","","19","","0.2","","99.90","","","","","","Drizzle,Fog"
"-65.89","45.32","SAINT JOHN A","8104901","2019-04-13 17:00","2019","04","13","17:00","6.7","","6.7","","100","","","","20","","14","","0.2","","99.87","","","","","","Drizzle,Fog"
"-65.89","45.32","SAINT JOHN A","8104901","2019-04-13 18:00","2019","04","13","18:00","6.2","","6.2","","100","","","","21","","17","","0.4","","99.82","","","","","","Drizzle,Fog"
"-65.89","45.32","SAINT JOHN A","8104901","2019-04-13 19:00","2019","04","13","19:00","5.7","","5.7","","100","","","","21","","17","","0.8","","99.85","","","","","","Drizzle,Fog"
"-65.89","45.32","SAINT JOHN A","8104901","2019-04-13 20:00","2019","04","13","20:00","6.1","","6.1","","100","","","","22","","11","","0.4","","99.83","","","","","","Drizzle,Fog"
"-65.89","45.32","SAINT JOHN A","8104901","2019-04-13 21:00","2019","04","13","21:00","4.9","","4.9","","100","","","","19","","18","","0.4","","99.80","","","","","","Drizzle,Fog"
"-65.89","45.32","SAINT JOHN A","8104901","2019-04-13 22:00","2019","04","13","22:00","5.0","","5.0","","100","","","","20","","14","","0.4","","99.78","","","","","","Drizzle,Fog"
"-65.89","45.32","SAINT JOHN A","8104901","2019-04-13 23:00","2019","04","13","23:00","4.6","","4.6","","100","","","","20","","18","","0.4","","99.74","","","","","","Drizzle,Fog"
"-65.89","45.32","SAINT JOHN A","8104901","2019-04-14 00:00","2019","04","14","00:00","4.8","","4.8","","100","","","","22","","7","","0.6","","99.81","","","","","","Drizzle,Fog"
"-65.89","45.32","SAINT JOHN A","8104901","2019-04-14 01:00","2019","04","14","01:00","4.0","","4.0","","100","","","","20","","12","","0.4","","99.77","","","","","","Drizzle,Fog"
"-65.89","45.32","SAINT JOHN A","8104901","2019-04-14 02:00","2019","04","14","02:00","3.8","","3.8","","100","","","","20","","10","","0.4","","99.79","","","","","","Drizzle,Fog"
"-65.89","45.32","SAINT JOHN A","8104901","2019-04-14 03:00","2019","04","14","03:00","2.5","","2.5","","100","","","","21","","7","","0.4","","99.82","","","","","","Drizzle,Fog"
"-65.89","45.32","SAINT JOHN A","8104901","2019-04-14 04:00","2019","04","14","04:00","0.9","","0.9","","100","","","","36","","3","","2.4","","99.86","","","","","","Fog"
"-65.89","45.32","SAINT JOHN A","8104901","2019-04-14 05:00","2019","04","14","05:00","-0.8","","-0.8","","100","","","","36","","1","","1.2","","99.87","","","","-1","","Fog"
"-65.89","45.32","SAINT JOHN A","8104901","2019-04-14 06:00","2019","04","14","06:00","-0.6","","-0.6","","100","","","","18","","3","","24.1","","99.93","","","","-2","","NA"
"-65.89","45.32","SAINT JOHN A","8104901","2019-04-14 07:00","2019","04","14","07:00","2.6","","2.6","","100","","","","29","","11","","24.1","","99.97","","","","","","NA"
"-65.89","45.32","SAINT JOHN A","8104901","2019-04-14 08:00","2019","04","14","08:00","6.1","","4.2","","87","","","","32","","8","","24.1","","100.00","","","","","","Cloudy"
"-65.89","45.32","SAINT JOHN A","8104901","2019-04-14 09:00","2019","04","14","09:00","9.4","","3.6","","67","","","","31","","13","","24.1","","100.02","","","","","","NA"
"-65.89","45.32","SAINT JOHN A","8104901","2019-04-14 10:00","2019","04","14","10:00","10.7","","1.4","","52","","","","26","","12","","24.1","","100.01","","","","","","NA"
"-65.89","45.32","SAINT JOHN A","8104901","2019-04-14 11:00","2019","04","14","11:00","12.1","","-1.1","","40","","","","28","","20","","24.1","","100.00","","","","","","Mainly Clear"
"-65.89","45.32","SAINT JOHN A","8104901","2019-04-14 12:00","2019","04","14","12:00","12.5","","-2.1","","36","","","","27","","24","","24.1","","99.98","","","","","","NA"
"-65.89","45.32","SAINT JOHN A","8104901","2019-04-14 13:00","2019","04","14","13:00","13.2","","1.2","","44","","","","23","","22","","24.1","","99.91","","","","","","NA"
"-65.89","45.32","SAINT JOHN A","8104901","2019-04-14 14:00","2019","04","14","14:00","13.0","","0.8","","43","","","","21","","26","","24.1","","99.95","","","","","","Mainly Clear"
"-65.89","45.32","SAINT JOHN A","8104901","2019-04-14 15:00","2019","04","14","15:00","13.0","","0.0","","41","","","","21","","27","","24.1","","99.84","","","","","","NA"
"-65.89","45.32","SAINT JOHN A","8104901","2019-04-14 16:00","2019","04","14","16:00","11.1","","0.2","","47","","","","23","","30","","24.1","","99.86","","","","","","NA"
"-65.89","45.32","SAINT JOHN A","8104901","2019-04-14 17:00","2019","04","14","17:00","11.4","","1.1","","49","","","","22","","23","","24.1","","99.87","","","","","","Mostly Cloudy"
"-65.89","45.32","SAINT JOHN A","8104901","2019-04-14 18:00","2019","04","14","18:00","8.5","","-0.2","","54","","","","21","","18","","24.1","","99.92","","","","","","NA"
"-65.89","45.32","SAINT JOHN A","8104901","2019-04-14 19:00","2019","04","14","19:00","7.3","","0.0","","60","","","","21","","8","","24.1","","99.97","","","","","","NA"
"-65.89","45.32","SAINT JOHN A","8104901","2019-04-14 20:00","2019","04","14","20:00","6.7","","0.8","","66","","","","21","","9","","24.1","","99.99","","","","","","Cloudy"
"-65.89","45.32","SAINT JOHN A","8104901","2019-04-14 21:00","2019","04","14","21:00","5.9","","1.0","","70","","","","8","","3","","24.1","","99.99","","","","","","NA"
"-65.89","45.32","SAINT JOHN A","8104901","2019-04-14 22:00","2019","04","14","22:00","5.6","","1.9","","77","","","","2","","3","","24.1","","99.90","","","","","","NA"
"-65.89","45.32","SAINT JOHN A","8104901","2019-04-14 23:00","2019","04","14","23:00","5.2","","1.7","","78","","","","6","","7","","24.1","","99.80","","","","","","Cloudy"
"-65.89","45.32","SAINT JOHN A","8104901","2019-04-15 00:00","2019","04","15","00:00","4.8","","3.4","","91","","","","36","","6","","24.1","","99.75","","","","","","Rain"
"-65.89","45.32","SAINT JOHN A","8104901","2019-04-15 01:00","2019","04","15","01:00","4.4","","3.7","","95","","","","6","","7","","24.1","","99.60","","","","","","Rain"
"-65.89","45.32","SAINT JOHN A","8104901","2019-04-15 02:00","2019","04","15","02:00","5.3","","2.9","","84","","","","7","","15","","24.1","","99.49","","","","","","Rain"
"-65.89","45.32","SAINT JOHN A","8104901","2019-04-15 03:00","2019","04","15","03:00","5.6","","2.8","","83","","","","6","","13","","19.3","","99.37","","","","","","Rain"
"-65.89","45.32","SAINT JOHN A","8104901","2019-04-15 04:00","2019","04","15","04:00","4.5","","3.5","","93","","","","10","","19","","3.2","","99.22","","","","","","Rain,Fog"
"-65.89","45.32","SAINT JOHN A","8104901","2019-04-15 05:00","2019","04","15","05:00","4.1","","3.5","","96","","","","10","","20","","4.8","","98.99","","","","","","Rain,Fog"
"-65.89","45.32","SAINT JOHN A","8104901","2019-04-15 06:00","2019","04","15","06:00","4.2","","3.9","","98","","","","11","","27","","2.4","","98.95","","","","","","Rain,Fog"
"-65.89","45.32","SAINT JOHN A","8104901","2019-04-15 07:00","2019","04","15","07:00","4.8","","4.5","","98","","","","11","","30","","8.1","","98.77","","","","","","Rain,Fog"
"-65.89","45.32","SAINT JOHN A","8104901","2019-04-15 08:00","2019","04","15","08:00","5.0","","4.8","","99","","","","10","","33","","4.8","","98.61","","","","","","Rain,Fog"
"-65.89","45.32","SAINT JOHN A","8104901","2019-04-15 09:00","2019","04","15","09:00","5.1","","4.7","","98","","","","12","","37","","8.1","","98.40","","","","","","Rain,Fog"
"-65.89","45.32","SAINT JOHN A","8104901","2019-04-15 10:00","2019","04","15","10:00","6.0","","5.9","","100","","","","11","","27","","4.8","","98.24","","","","","","Rain,Fog"
"-65.89","45.32","SAINT JOHN A","8104901","2019-04-15 11:00","2019","04","15","11:00","6.2","","6.1","","100","","","","10","","24","","4.8","","98.09","","","","","","Rain,Fog"
"-65.89","45.32","SAINT JOHN A","8104901","2019-04-15 12:00","2019","04","15","12:00","8.1","","8.0","","100","","","","13","","24","","4.8","","97.97","","","","","","Thunderstorms,Moderate Rain,Fog"
"-65.89","45.32","SAINT JOHN A","8104901","2019-04-15 13:00","2019","04","15","13:00","9.7","","9.7","","100","","","","16","","30","","3.2","","97.84","","","","","","Moderate Rain,Fog"
"-65.89","45.32","SAINT JOHN A","8104901","2019-04-15 14:00","2019","04","15","14:00","10.1","","10.1","","100","","","","20","","41","","2.4","","97.76","","","","","","Moderate Rain,Fog"
"-65.89","45.32","SAINT JOHN A","8104901","2019-04-15 15:00","2019","04","15","15:00","10.0","","9.9","","99","","","","23","","24","","4.8","","97.72","","","","","","Rain,Fog"
"-65.89","45.32","SAINT JOHN A","8104901","2019-04-15 16:00","2019","04","15","16:00","9.2","","9.2","","100","","","","24","","16","","3.2","","97.57","","","","","","Rain,Fog"
"-65.89","45.32","SAINT JOHN A","8104901","2019-04-15 17:00","2019","04","15","17:00","10.3","","10.2","","99","","","","24","","11","","4.8","","97.50","","","","","","Rain,Fog"
"-65.89","45.32","SAINT JOHN A","8104901","2019-04-15 18:00","2019","04","15","18:00","10.0","","9.9","","99","","","","21","","17","","4.8","","97.50","","","","","","Moderate Rain,Fog"
"-65.89","45.32","SAINT JOHN A","8104901","2019-04-15 19:00","2019","04","15","19:00","8.8","","8.8","","100","","","","20","","9","","1.6","","97.46","","","","","","Rain,Fog"
"-65.89","45.32","SAINT JOHN A","8104901","2019-04-15 20:00","2019","04","15","20:00","8.5","","8.5","","100","","","","21","","17","","1.0","","97.46","","","","","","Rain,Fog"
"-65.89","45.32","SAINT JOHN A","8104901","2019-04-15 21:00","2019","04","15","21:00","7.7","","7.7","","100","","","","23","","9","","1.0","","97.46","","","","","","Fog"
"-65.89","45.32","SAINT JOHN A","8104901","2019-04-15 22:00","2019","04","15","22:00","6.9","","6.9","","100","","","","18","","11","","1.0","","97.41","","","","","","Fog"
"-65.89","45.32","SAINT JOHN A","8104901","2019-04-15 23:00","2019","04","15","23:00","6.1","","6.1","","100","","","","32","","9","","2.4","","97.43","","","","","","Moderate Rain,Fog"
"-65.89","45.32","SAINT JOHN A","8104901","2019-04-16 00:00","2019","04","16","00:00","7.0","","7.0","","100","","","","33","","21","","6.4","","97.38","","","","","","Rain,Fog"
"-65.89","45.32","SAINT JOHN A","8104901","2019-04-16 01:00","2019","04","16","01:00","6.3","","5.8","","96","","","","33","","22","","4.8","","97.39","","","","","","Rain,Fog"
"-65.89","45.32","SAINT JOHN A","8104901","2019-04-16 02:00","2019","04","16","02:00","5.2","","4.3","","94","","","","31","","18","","4.8","","97.44","","","","","","Rain,Fog"
"-65.89","45.32","SAINT JOHN A","8104901","2019-04-16 03:00","2019","04","16","03:00","3.8","","3.2","","96","","","","33","","23","","6.4","","97.48","","","","","","Rain,Fog"
"-65.89","45.32","SAINT JOHN A","8104901","2019-04-16 04:00","2019","04","16","04:00","2.8","","2.2","","96","","","","31","","19","","4.8","","97.54","","","","","","Rain,Fog"
"-65.89","45.32","SAINT JOHN A","8104901","2019-04-16 05:00","2019","04","16","05:00","1.9","","1.6","","98","","","","28","","16","","4.8","","97.63","","","","","","Rain,Fog"
"-65.89","45.32","SAINT JOHN A","8104901","2019-04-16 06:00","2019","04","16","06:00","1.4","","1.1","","98","","","","28","","18","","4.0","","97.72","","","","","","Snow"
"-65.89","45.32","SAINT JOHN A","8104901","2019-04-16 07:00","2019","04","16","07:00","1.4","","1.1","","98","","","","29","","18","","9.7","","97.80","","","","","","Rain,Snow"
"-65.89","45.32","SAINT JOHN A","8104901","2019-04-16 08:00","2019","04","16","08:00","1.5","","0.8","","95","","","","30","","27","","9.7","","97.85","","","","","","Rain,Snow"
"-65.89","45.32","SAINT JOHN A","8104901","2019-04-16 09:00","2019","04","16","09:00","2.0","","0.6","","91","","","","30","","26","","19.3","","97.92","","","","","","Rain"
"-65.89","45.32","SAINT JOHN A","8104901","2019-04-16 10:00","2019","04","16","10:00","2.6","","1.8","","94","","","","31","","31","","12.9","","98.00","","","","","","Rain"
"-65.89","45.32","SAINT JOHN A","8104901","2019-04-16 11:00","2019","04","16","11:00","3.8","","1.5","","85","","","","31","","32","","24.1","","98.06","","","","","","Rain"
"-65.89","45.32","SAINT JOHN A","8104901","2019-04-16 12:00","2019","04","16","12:00","5.2","","0.7","","73","","","","31","","36","","24.1","","98.09","","","","","","NA"
"-65.89","45.32","SAINT JOHN A","8104901","2019-04-16 13:00","2019","04","16","13:00","5.8","","0.7","","69","","","","31","","29","","24.1","","98.13","","","","","","NA"
"-65.89","45.32","SAINT JOHN A","8104901","2019-04-16 14:00","2019","04","16","14:00","6.1","","-1.2","","59","","","","31","","41","","24.1","","98.21","","","","","","Cloudy"
"-65.89","45.32","SAINT JOHN A","8104901","2019-04-16 15:00","2019","04","16","15:00","6.1","","-1.9","","57","","","","31","","42","","24.1","","98.30","","","","","","NA"
"-65.89","45.32","SAINT JOHN A","8104901","2019-04-16 16:00","2019","04","16","16:00","6.1","","-2.8","","53","","","","30","","46","","24.1","","98.37","","","","","","NA"
"-65.89","45.32","SAINT JOHN A","8104901","2019-04-16 17:00","2019","04","16","17:00","4.3","","-0.8","","70","","","","32","","39","","24.1","","98.53","","","","","","Mostly Cloudy"
"-65.89","45.32","SAINT JOHN A","8104901","2019-04-16 18:00","2019","04","16","18:00","4.0","","-1.5","","67","","","","32","","37","","24.1","","98.66","","","","","","NA"
"-65.89","45.32","SAINT JOHN A","8104901","2019-04-16 19:00","2019","04","16","19:00","3.2","","-2.1","","68","","","","31","","31","","24.1","","98.76","","","","","","NA"
"-65.89","45.32","SAINT JOHN A","8104901","2019-04-16 20:00","2019","04","16","20:00","2.8","","-3.6","","63","","","","30","","33","","24.1","","98.87","","","","","","Mostly Cloudy"
"-65.89","45.32","SAINT JOHN A","8104901","2019-04-16 21:00","2019","04","16","21:00","1.6","","-2.8","","73","","","","31","","27","","24.1","","99.01","","","","","","NA"
"-65.89","45.32","SAINT JOHN A","8104901","2019-04-16 22:00","2019","04","16","22:00","1.2","","-2.5","","76","","","","31","","24","","24.1","","99.09","","","","","","NA"
"-65.89","45.32","SAINT JOHN A","8104901","2019-04-16 23:00","2019","04","16","23:00","1.6","","-2.2","","76","","","","31","","27","","24.1","","99.14","","","","","","Mostly Cloudy"
"-65.89","45.32","SAINT JOHN A","8104901","2019-04-17 00:00","2019","04","17","00:00","1.7","","-1.8","","78","","","","31","","26","","24.1","","99.21","","","","","","NA"
"-65.89","45.32","SAINT JOHN A","8104901","2019-04-17 01:00","2019","04","17","01:00","1.9","","-1.5","","78","","","","33","","30","","24.1","","99.31","","","","","","NA"
"-65.89","45.32","SAINT JOHN A","8104901","2019-04-17 02:00","2019","04","17","02:00","1.9","","-1.7","","77","","","","33","","29","","24.1","","99.39","","","","","","Mostly Cloudy"
"-65.89","45.32","SAINT JOHN A","8104901","2019-04-17 03:00","2019","04","17","03:00","1.8","","-1.6","","78","","","","34","","25","","24.1","","99.53","","","","","","NA"
"-65.89","45.32","SAINT JOHN A","8104901","2019-04-17 04:00","2019","04","17","04:00","1.3","","-1.3","","83","","","","33","","19","","16.1","","99.65","","","","","","Rain"
"-65.89","45.32","SAINT JOHN A","8104901","2019-04-17 05:00","2019","04","17","05:00","0.8","","-0.9","","88","","","","35","","16","","24.1","","99.75","","","","","","Cloudy"
"-65.89","45.32","SAINT JOHN A","8104901","2019-04-17 06:00","2019","04","17","06:00","1.0","","-1.6","","83","","","","35","","23","","24.1","","99.88","","","","","","NA"
"-65.89","45.32","SAINT JOHN A","8104901","2019-04-17 07:00","2019","04","17","07:00","1.4","","-1.6","","81","","","","35","","19","","24.1","","99.99","","","","","","NA"
"-65.89","45.32","SAINT JOHN A","8104901","2019-04-17 08:00","2019","04","17","08:00","3.0","","-1.8","","70","","","","34","","25","","24.1","","100.06","","","","","","Mostly Cloudy"
"-65.89","45.32","SAINT JOHN A","8104901","2019-04-17 09:00","2019","04","17","09:00","3.4","","-2.8","","64","","","","35","","27","","24.1","","100.12","","","","","","NA"
"-65.89","45.32","SAINT JOHN A","8104901","2019-04-17 10:00","2019","04","17","10:00","4.8","","-3.5","","55","","","","33","","27","","24.1","","100.14","","","","","","NA"
"-65.89","45.32","SAINT JOHN A","8104901","2019-04-17 11:00","2019","04","17","11:00","5.0","","-4.0","","52","","","","33","","26","","24.1","","100.22","","","","","","Mostly Cloudy"
"-65.89","45.32","SAINT JOHN A","8104901","2019-04-17 12:00","2019","04","17","12:00","7.5","","-3.9","","44","","","","1","","18","","24.1","","100.25","","","","","","NA"
"-65.89","45.32","SAINT JOHN A","8104901","2019-04-17 13:00","2019","04","17","13:00","8.3","","-4.7","","39","","","","34","","21","","24.1","","100.29","","","","","","NA"
"-65.89","45.32","SAINT JOHN A","8104901","2019-04-17 14:00","2019","04","17","14:00","8.5","","-7.0","","33","","","","2","","10","","24.1","","100.35","","","","","","Mainly Clear"
"-65.89","45.32","SAINT JOHN A","8104901","2019-04-17 15:00","2019","04","17","15:00","7.6","","-2.3","","49","","","","20","","7","","24.1","","100.42","","","","","","NA"
"-65.89","45.32","SAINT JOHN A","8104901","2019-04-17 16:00","2019","04","17","16:00","5.8","","-2.5","","55","","","","13","","16","","24.1","","100.48","","","","","","NA"
"-65.89","45.32","SAINT JOHN A","8104901","2019-04-17 17:00","2019","04","17","17:00","4.8","","-2.1","","61","","","","12","","17","","24.1","","100.54","","","","","","Clear"
"-65.89","45.32","SAINT JOHN A","8104901","2019-04-17 18:00","2019","04","17","18:00","3.7","","-3.5","","59","","","","17","","16","","24.1","","100.62","","","","","","NA"
"-65.89","45.32","SAINT JOHN A","8104901","2019-04-17 19:00","2019","04","17","19:00","2.2","","-3.4","","67","","","","14","","8","","24.1","","100.70","","","","","","NA"
"-65.89","45.32","SAINT JOHN A","8104901","2019-04-17 20:00","2019","04","17","20:00","0.4","","-3.1","","77","","","","36","","2","","24.1","","100.77","","","","","","Clear"
"-65.89","45.32","SAINT JOHN A","8104901","2019-04-17 21:00","2019","04","17","21:00","-1.8","","-3.5","","88","","","","3","","3","","24.1","","100.82","","","","-3","","NA"
"-65.89","45.32","SAINT JOHN A","8104901","2019-04-17 22:00","2019","04","17","22:00","-2.9","","-3.9","","93","","","","2","","3","","24.1","","100.88","","","","-4","","NA"
"-65.89","45.32","SAINT JOHN A","8104901","2019-04-17 23:00","2019","04","17","23:00","-3.2","","-3.7","","97","","","","2","","4","","24.1","","100.95","","","","-5","","Clear"
"-65.89","45.32","SAINT JOHN A","8104901","2019-04-18 00:00","2019","04","18","00:00","-3.9","","-4.2","","98","","","","32","","3","","24.1","","100.99","","","","-5","","NA"
"-65.89","45.32","SAINT JOHN A","8104901","2019-04-18 01:00","2019","04","18","01:00","-3.6","","-4.0","","97","","","","35","","4","","24.1","","101.03","","","","-5","","NA"
"-65.89","45.32","SAINT JOHN A","8104901","2019-04-18 02:00","2019","04","18","02:00","-3.3","","-4.5","","92","","","","3","","3","","24.1","","101.06","","","","-5","","Clear"
"-65.89","45.32","SAINT JOHN A","8104901","2019-04-18 03:00","2019","04","18","03:00","-2.1","","-3.6","","90","","","","3","","4","","24.1","","101.09","","","","-4","","NA"
"-65.89","45.32","SAINT JOHN A","8104901","2019-04-18 04:00","2019","04","18","04:00","-3.9","","-4.8","","94","","","","36","","4","","24.1","","101.09","","","","-6","","NA"
"-65.89","45.32","SAINT JOHN A","8104901","2019-04-18 05:00","2019","04","18","05:00","-3.0","","-3.3","","97","","","","32","","4","","24.1","","101.17","","","","-5","","Mainly Clear"
"-65.89","45.32","SAINT JOHN A","8104901","2019-04-18 06:00","2019","04","18","06:00","-3.6","","-4.0","","98","","","","35","","4","","24.1","","101.24","","","","-5","","NA"
"-65.89","45.32","SAINT JOHN A","8104901","2019-04-18 07:00","2019","04","18","07:00","0.4","","-2.3","","82","","","","9","","9","","24.1","","101.29","","","","","","NA"
"-65.89","45.32","SAINT JOHN A","8104901","2019-04-18 08:00","2019","04","18","08:00","3.3","","-0.9","","74","","","","14","","9","","24.1","","101.33","","","","","","Mainly Clear"
"-65.89","45.32","SAINT JOHN A","8104901","2019-04-18 09:00","2019","04","18","09:00","5.3","","-1.1","","63","","","","14","","10","","24.1","","101.32","","","","","","NA"
"-65.89","45.32","SAINT JOHN A","8104901","2019-04-18 10:00","2019","04","18","10:00","7.5","","-1.0","","55","","","","14","","11","","24.1","","101.27","","","","","","NA"
"-65.89","45.32","SAINT JOHN A","8104901","2019-04-18 11:00","2019","04","18","11:00","7.2","","-2.1","","52","","","","17","","15","","24.1","","101.26","","","","","","Mostly Cloudy"
"-65.89","45.32","SAINT JOHN A","8104901","2019-04-18 12:00","2019","04","18","12:00","8.4","","-1.7","","49","","","","14","","11","","24.1","","101.22","","","","","","NA"
"-65.89","45.32","SAINT JOHN A","8104901","2019-04-18 13:00","2019","04","18","13:00","10.5","","-4.5","","34","","","","17","","16","","24.1","","101.17","","","","","","NA"
"-65.89","45.32","SAINT JOHN A","8104901","2019-04-18 14:00","2019","04","18","14:00","9.9","","-5.3","","34","","","","18","","21","","24.1","","101.14","","","","","","Cloudy"
"-65.89","45.32","SAINT JOHN A","8104901","2019-04-18 15:00","2019","04","18","15:00","8.2","","-2.3","","47","","","","20","","28","","24.1","","101.13","","","","","","NA"
"-65.89","45.32","SAINT JOHN A","8104901","2019-04-18 16:00","2019","04","18","16:00","6.8","","0.6","","65","","","","20","","23","","24.1","","101.07","","","","","","NA"
"-65.89","45.32","SAINT JOHN A","8104901","2019-04-18 17:00","2019","04","18","17:00","5.3","","2.1","","80","","","","21","","18","","24.1","","101.06","","","","","","Cloudy"
"-65.89","45.32","SAINT JOHN A","8104901","2019-04-18 18:00","2019","04","18","18:00","4.6","","1.9","","83","","","","21","","19","","24.1","","101.05","","","","","","NA"
"-65.89","45.32","SAINT JOHN A","8104901","2019-04-18 19:00","2019","04","18","19:00","4.8","","0.4","","73","","","","21","","17","","24.1","","101.00","","","","","","NA"
"-65.89","45.32","SAINT JOHN A","8104901","2019-04-18 20:00","2019","04","18","20:00","4.6","","-1.6","","64","","","","18","","22","","24.1","","100.87","","","","","","Rain"
"-65.89","45.32","SAINT JOHN A","8104901","2019-04-18 21:00","2019","04","18","21:00","5.3","","-3.3","","54","","","","18","","28","","24.1","","100.80","","","","","","NA"
"-65.89","45.32","SAINT JOHN A","8104901","2019-04-18 22:00","2019","04","18","22:00","5.2","","-2.7","","56","","","","16","","27","","12.9","","100.70","","","","","","Rain"
"-65.89","45.32","SAINT JOHN A","8104901","2019-04-18 23:00","2019","04","18","23:00","3.8","","-0.2","","75","","","","17","","21","","12.9","","100.60","","","","","","Rain"
"-65.89","45.32","SAINT JOHN A","8104901","2019-04-19 00:00","2019","04","19","00:00","3.1","","1.4","","89","","","","16","","23","","6.4","","100.48","","","","","","Rain,Fog"
"-65.89","45.32","SAINT JOHN A","8104901","2019-04-19 01:00","2019","04","19","01:00","3.0","","2.7","","98","","","","15","","27","","6.4","","100.27","","","","","","Rain,Fog"
"-65.89","45.32","SAINT JOHN A","8104901","2019-04-19 02:00","2019","04","19","02:00","3.4","","3.3","","100","","","","15","","23","","3.2","","100.14","","","","","","Rain"
"-65.89","45.32","SAINT JOHN A","8104901","2019-04-19 03:00","2019","04","19","03:00","4.6","","4.5","","99","","","","17","","25","","4.8","","99.99","","","","","","Rain,Fog"
"-65.89","45.32","SAINT JOHN A","8104901","2019-04-19 04:00","2019","04","19","04:00","6.3","","6.1","","99","","","","19","","34","","4.8","","99.82","","","","","","Rain,Fog"
"-65.89","45.32","SAINT JOHN A","8104901","2019-04-19 05:00","2019","04","19","05:00","6.1","","6.0","","100","","","","20","","34","","4.8","","99.70","","","","","","Rain,Fog"
"-65.89","45.32","SAINT JOHN A","8104901","2019-04-19 06:00","2019","04","19","06:00","6.6","","6.6","","100","","","","20","","32","","2.4","","99.67","","","","","","Rain,Fog"
"-65.89","45.32","SAINT JOHN A","8104901","2019-04-19 07:00","2019","04","19","07:00","7.3","","7.3","","100","","","","21","","39","","1.2","","99.64","","","","","","Rain,Fog"
"-65.89","45.32","SAINT JOHN A","8104901","2019-04-19 08:00","2019","04","19","08:00","7.5","","7.5","","100","","","","21","","31","","0.8","","99.64","","","","","","Drizzle,Fog"
"-65.89","45.32","SAINT JOHN A","8104901","2019-04-19 09:00","2019","04","19","09:00","7.6","","7.6","","100","","","","21","","27","","0.8","","99.64","","","","","","Drizzle,Fog"
"-65.89","45.32","SAINT JOHN A","8104901","2019-04-19 10:00","2019","04","19","10:00","8.4","","8.4","","100","","","","21","","26","","0.8","","99.65","","","","","","Drizzle,Fog"
"-65.89","45.32","SAINT JOHN A","8104901","2019-04-19 11:00","2019","04","19","11:00","7.6","","7.6","","100","","","","19","","22","","0.6","","99.59","","","","","","Drizzle,Fog"
"-65.89","45.32","SAINT JOHN A","8104901","2019-04-19 12:00","2019","04","19","12:00","8.2","","8.2","","100","","","","22","","26","","0.6","","99.68","","","","","","Drizzle,Fog"
"-65.89","45.32","SAINT JOHN A","8104901","2019-04-19 13:00","2019","04","19","13:00","8.5","","8.5","","100","","","","21","","32","","0.6","","99.63","","","","","","Drizzle,Fog"
"-65.89","45.32","SAINT JOHN A","8104901","2019-04-19 14:00","2019","04","19","14:00","8.8","","8.8","","100","","","","21","","28","","0.6","","99.65","","","","","","Drizzle,Fog"
"-65.89","45.32","SAINT JOHN A","8104901","2019-04-19 15:00","2019","04","19","15:00","8.6","","8.6","","100","","","","21","","32","","0.4","","99.56","","","","","","Drizzle,Fog"
"-65.89","45.32","SAINT JOHN A","8104901","2019-04-19 16:00","2019","04","19","16:00","8.5","","8.5","","100","","","","22","","34","","0.6","","99.59","","","","","","Drizzle,Fog"
"-65.89","45.32","SAINT JOHN A","8104901","2019-04-19 17:00","2019","04","19","17:00","8.8","","8.8","","100","","","","21","","32","","0.8","","99.56","","","","","","Drizzle,Fog"
"-65.89","45.32","SAINT JOHN A","8104901","2019-04-19 18:00","2019","04","19","18:00","8.7","","8.7","","100","","","","22","","27","","0.8","","99.63","","","","","","Drizzle,Fog"
"-65.89","45.32","SAINT JOHN A","8104901","2019-04-19 19:00","2019","04","19","19:00","8.4","","8.4","","100","","","","21","","23","","0.8","","99.67","","","","","","Drizzle,Fog"
"-65.89","45.32","SAINT JOHN A","8104901","2019-04-19 20:00","2019","04","19","20:00","8.6","","8.6","","100","","","","21","","25","","1.0","","99.75","","","","","","Moderate Drizzle,Fog"
"-65.89","45.32","SAINT JOHN A","8104901","2019-04-19 21:00","2019","04","19","21:00","8.8","","8.8","","100","","","","21","","17","","1.2","","99.80","","","","","","Drizzle,Fog"
"-65.89","45.32","SAINT JOHN A","8104901","2019-04-19 22:00","2019","04","19","22:00","9.0","","9.0","","100","","","","21","","21","","0.8","","99.82","","","","","","Drizzle,Fog"
"-65.89","45.32","SAINT JOHN A","8104901","2019-04-19 23:00","2019","04","19","23:00","8.4","","8.4","","100","","","","21","","27","","1.2","","99.85","","","","","","Drizzle,Fog"
"-65.89","45.32","SAINT JOHN A","8104901","2019-04-20 00:00","2019","04","20","00:00","8.2","","8.2","","100","","","","21","","26","","3.2","","99.83","","","","","","Rain,Fog"
"-65.89","45.32","SAINT JOHN A","8104901","2019-04-20 01:00","2019","04","20","01:00","8.5","","8.5","","100","","","","21","","26","","3.2","","99.84","","","","","","Rain,Fog"
"-65.89","45.32","SAINT JOHN A","8104901","2019-04-20 02:00","2019","04","20","02:00","8.2","","8.2","","100","","","","21","","16","","1.6","","99.87","","","","","","Drizzle,Fog"
"-65.89","45.32","SAINT JOHN A","8104901","2019-04-20 03:00","2019","04","20","03:00","7.7","","7.7","","100","","","","20","","15","","1.2","","99.89","","","","","","Drizzle,Fog"
"-65.89","45.32","SAINT JOHN A","8104901","2019-04-20 04:00","2019","04","20","04:00","8.2","","8.2","","100","","","","21","","12","","4.8","","99.92","","","","","","Moderate Rain,Fog"
"-65.89","45.32","SAINT JOHN A","8104901","2019-04-20 05:00","2019","04","20","05:00","8.0","","8.0","","100","","","","22","","10","","2.4","","99.94","","","","","","Drizzle,Fog"
"-65.89","45.32","SAINT JOHN A","8104901","2019-04-20 06:00","2019","04","20","06:00","7.6","","7.6","","100","","","","20","","13","","1.2","","99.93","","","","","","Drizzle,Fog"
"-65.89","45.32","SAINT JOHN A","8104901","2019-04-20 07:00","2019","04","20","07:00","8.6","","8.6","","100","","","","21","","26","","4.8","","99.90","","","","","","Rain,Fog"
"-65.89","45.32","SAINT JOHN A","8104901","2019-04-20 08:00","2019","04","20","08:00","9.0","","9.0","","100","","","","21","","30","","0.8","","99.97","","","","","","Rain,Fog"
"-65.89","45.32","SAINT JOHN A","8104901","2019-04-20 09:00","2019","04","20","09:00","9.1","","9.1","","100","","","","22","","26","","0.8","","100.03","","","","","","Drizzle,Fog"
"-65.89","45.32","SAINT JOHN A","8104901","2019-04-20 10:00","2019","04","20","10:00","8.9","","8.9","","100","","","","22","","28","","0.8","","100.09","","","","","","Drizzle,Fog"
"-65.89","45.32","SAINT JOHN A","8104901","2019-04-20 11:00","2019","04","20","11:00","9.3","","9.3","","100","","","","22","","26","","0.8","","100.20","","","","","","Rain,Fog"
"-65.89","45.32","SAINT JOHN A","8104901","2019-04-20 12:00","2019","04","20","12:00","9.4","","9.4","","100","","","","22","","26","","0.8","","100.25","","","","","","Rain,Fog"
"-65.89","45.32","SAINT JOHN A","8104901","2019-04-20 13:00","2019","04","20","13:00","9.5","","9.5","","100","","","","22","","29","","1.2","","100.36","","","","","","Rain,Fog"
"-65.89","45.32","SAINT JOHN A","8104901","2019-04-20 14:00","2019","04","20","14:00","9.8","","9.8","","100","","","","21","","20","","1.2","","100.42","","","","","","Rain,Fog"
"-65.89","45.32","SAINT JOHN A","8104901","2019-04-20 15:00","2019","04","20","15:00","9.8","","9.8","","100","","","","25","","13","","1.2","","100.48","","","","","","Rain,Fog"
"-65.89","45.32","SAINT JOHN A","8104901","2019-04-20 16:00","2019","04","20","16:00","10.3","","10.3","","100","","","","27","","8","","3.2","","100.51","","","","","","Rain,Fog"
"-65.89","45.32","SAINT JOHN A","8104901","2019-04-20 17:00","2019","04","20","17:00","9.7","","9.7","","100","","","","24","","3","","2.4","","100.59","","","","","","Rain,Fog"
"-65.89","45.32","SAINT JOHN A","8104901","2019-04-20 18:00","2019","04","20","18:00","9.3","","9.3","","100","","","","17","","9","","2.4","","100.66","","","","","","Rain,Fog"
"-65.89","45.32","SAINT JOHN A","8104901","2019-04-20 19:00","2019","04","20","19:00","8.9","","8.9","","100","","","","19","","7","","0.8","","100.71","","","","","","Fog"
"-65.89","45.32","SAINT JOHN A","8104901","2019-04-20 20:00","2019","04","20","20:00","8.2","","8.2","","100","","","","18","","8","","1.0","","100.83","","","","","","Fog"
"-65.89","45.32","SAINT JOHN A","8104901","2019-04-20 21:00","2019","04","20","21:00","8.9","","8.9","","100","","","","14","","7","","1.6","","100.78","","","","","","Drizzle,Fog"
"-65.89","45.32","SAINT JOHN A","8104901","2019-04-20 22:00","2019","04","20","22:00","10.0","","10.0","","100","","","","17","","16","","1.6","","100.79","","","","","","Drizzle,Fog"
"-65.89","45.32","SAINT JOHN A","8104901","2019-04-20 23:00","2019","04","20","23:00","10.2","","10.2","","100","","","","19","","18","","1.2","","100.78","","","","","","Drizzle,Fog"
"-65.89","45.32","SAINT JOHN A","8104901","2019-04-21 00:00","2019","04","21","00:00","10.0","","10.0","","100","","","","18","","12","","0.8","","100.81","","","","","","Fog"
"-65.89","45.32","SAINT JOHN A","8104901","2019-04-21 01:00","2019","04","21","01:00","10.8","","10.8","","100","","","","19","","16","","0.8","","100.79","","","","","","Fog"
"-65.89","45.32","SAINT JOHN A","8104901","2019-04-21 02:00","2019","04","21","02:00","11.3","","11.3","","100","","","","19","","21","","0.8","","100.74","","","","","","Drizzle,Fog"
"-65.89","45.32","SAINT JOHN A","8104901","2019-04-21 03:00","2019","04","21","03:00","11.3","","11.3","","100","","","","21","","26","","0.6","","100.74","","","","","","Drizzle,Fog"
"-65.89","45.32","SAINT JOHN A","8104901","2019-04-21 04:00","2019","04","21","04:00","11.7","","11.7","","100","","","","21","","27","","0.8","","100.74","","","","","","Drizzle,Fog"
"-65.89","45.32","SAINT JOHN A","8104901","2019-04-21 05:00","2019","04","21","05:00","10.6","","10.6","","100","","","","20","","21","","0.8","","100.75","","","","","","Fog"
"-65.89","45.32","SAINT JOHN A","8104901","2019-04-21 06:00","2019","04","21","06:00","11.7","","11.7","","100","","","","20","","24","","0.8","","100.75","","","","","","Fog"
"-65.89","45.32","SAINT JOHN A","8104901","2019-04-21 07:00","2019","04","21","07:00","12.2","","12.2","","100","","","","21","","21","","0.4","","100.76","","","","","","Fog"
"-65.89","45.32","SAINT JOHN A","8104901","2019-04-21 08:00","2019","04","21","08:00","13.4","","13.4","","100","","","","20","","18","","0.8","","100.74","","","","","","Fog"
"-65.89","45.32","SAINT JOHN A","8104901","2019-04-21 09:00","2019","04","21","09:00","14.1","","14.1","","100","","","","19","","21","","2.4","","100.74","","","","","","Rain Showers,Fog"
"-65.89","45.32","SAINT JOHN A","8104901","2019-04-21 10:00","2019","04","21","10:00","11.7","","11.7","","100","","","","21","","31","","2.4","","100.81","","","","","","Moderate Rain Showers,Fog"
"-65.89","45.32","SAINT JOHN A","8104901","2019-04-21 11:00","2019","04","21","11:00","10.9","","10.9","","100","","","","21","","39","","0.4","","100.85","","","","","","Fog"
"-65.89","45.32","SAINT JOHN A","8104901","2019-04-21 12:00","2019","04","21","12:00","11.2","","11.2","","100","","","","21","","28","","0.4","","100.82","","","","","","Fog"
"-65.89","45.32","SAINT JOHN A","8104901","2019-04-21 13:00","2019","04","21","13:00","10.8","","10.8","","100","","","","21","","31","","0.4","","100.80","","","","","","Fog"
"-65.89","45.32","SAINT JOHN A","8104901","2019-04-21 14:00","2019","04","21","14:00","10.3","","10.3","","100","","","","23","","17","","0.8","","100.74","","","","","","Rain Showers,Fog"
"-65.89","45.32","SAINT JOHN A","8104901","2019-04-21 15:00","2019","04","21","15:00","10.4","","10.4","","100","","","","23","","23","","0.8","","100.75","","","","","","Fog"
"-65.89","45.32","SAINT JOHN A","8104901","2019-04-21 16:00","2019","04","21","16:00","10.6","","10.6","","100","","","","21","","23","","3.2","","100.70","","","","","","Rain,Fog"
"-65.89","45.32","SAINT JOHN A","8104901","2019-04-21 17:00","2019","04","21","17:00","9.4","","9.4","","100","","","","20","","18","","0.8","","100.75","","","","","","Rain,Fog"
"-65.89","45.32","SAINT JOHN A","8104901","2019-04-21 18:00","2019","04","21","18:00","8.8","","8.8","","100","","","","20","","20","","0.8","","100.71","","","","","","Rain,Fog"
"-65.89","45.32","SAINT JOHN A","8104901","2019-04-21 19:00","2019","04","21","19:00","8.5","","8.5","","100","","","","21","","12","","0.6","","100.74","","","","","","Drizzle,Fog"
"-65.89","45.32","SAINT JOHN A","8104901","2019-04-21 20:00","2019","04","21","20:00","8.2","","8.2","","100","","","","19","","14","","0.6","","100.81","","","","","","Drizzle,Fog"
"-65.89","45.32","SAINT JOHN A","8104901","2019-04-21 21:00","2019","04","21","21:00","9.0","","9.0","","100","","","","19","","16","","0.6","","100.82","","","","","","Drizzle,Fog"
"-65.89","45.32","SAINT JOHN A","8104901","2019-04-21 22:00","2019","04","21","22:00","9.7","","9.7","","100","","","","18","","13","","0.6","","100.81","","","","","","Drizzle,Fog"
"-65.89","45.32","SAINT JOHN A","8104901","2019-04-21 23:00","2019","04","21","23:00","9.7","","9.7","","100","","","","20","","26","","0.8","","100.82","","","","","","Drizzle,Fog"
"-65.89","45.32","SAINT JOHN A","8104901","2019-04-22 00:00","2019","04","22","00:00","7.5","","7.5","","100","","","","20","","21","","1.0","","100.82","","","","","","Drizzle,Fog"
"-65.89","45.32","SAINT JOHN A","8104901","2019-04-22 01:00","2019","04","22","01:00","7.3","","7.3","","100","","","","21","","14","","1.0","","100.82","","","","","","Drizzle,Fog"
"-65.89","45.32","SAINT JOHN A","8104901","2019-04-22 02:00","2019","04","22","02:00","6.5","","6.5","","100","","","","20","","14","","1.0","","100.80","","","","","","Drizzle,Fog"
"-65.89","45.32","SAINT JOHN A","8104901","2019-04-22 03:00","2019","04","22","03:00","7.2","","7.2","","100","","","","23","","5","","1.0","","100.83","","","","","","Drizzle,Fog"
"-65.89","45.32","SAINT JOHN A","8104901","2019-04-22 04:00","2019","04","22","04:00","6.9","","6.9","","100","","","","36","","1","","0.8","","100.79","","","","","","Fog"
"-65.89","45.32","SAINT JOHN A","8104901","2019-04-22 05:00","2019","04","22","05:00","6.7","","6.7","","100","","","","7","","4","","0.6","","100.78","","","","","","Fog"
"-65.89","45.32","SAINT JOHN A","8104901","2019-04-22 06:00","2019","04","22","06:00","7.0","","7.0","","100","","","","36","","2","","0.6","","100.87","","","","","","Fog"
"-65.89","45.32","SAINT JOHN A","8104901","2019-04-22 07:00","2019","04","22","07:00","8.1","","8.1","","100","","","","34","","7","","0.8","","100.87","","","","","","Fog"
"-65.89","45.32","SAINT JOHN A","8104901","2019-04-22 08:00","2019","04","22","08:00","10.3","","10.3","","100","","","","35","","9","","3.2","","100.86","","","","","","Fog"
"-65.89","45.32","SAINT JOHN A","8104901","2019-04-22 09:00","2019","04","22","09:00","11.6","","11.6","","100","","","","4","","4","","4.8","","100.88","","","","","","Fog"
"-65.89","45.32","SAINT JOHN A","8104901","2019-04-22 10:00","2019","04","22","10:00","11.8","","11.8","","100","","","","9","","11","","12.9","","100.90","","","","","","NA"
"-65.89","45.32","SAINT JOHN A","8104901","2019-04-22 11:00","2019","04","22","11:00","12.0","","11.8","","99","","","","10","","7","","12.9","","100.91","","","","","","Cloudy"
"-65.89","45.32","SAINT JOHN A","8104901","2019-04-22 12:00","2019","04","22","12:00","13.2","","12.3","","94","","","","36","","12","","19.3","","100.85","","","","","","NA"
"-65.89","45.32","SAINT JOHN A","8104901","2019-04-22 13:00","2019","04","22","13:00","13.6","","12.8","","95","","","","36","","12","","12.9","","100.84","","","","","","NA"
"-65.89","45.32","SAINT JOHN A","8104901","2019-04-22 14:00","2019","04","22","14:00","13.1","","12.7","","98","","","","34","","13","","6.4","","100.85","","","","","","Fog"
"-65.89","45.32","SAINT JOHN A","8104901","2019-04-22 15:00","2019","04","22","15:00","12.4","","12.4","","100","","","","2","","14","","3.2","","100.81","","","","","","Drizzle,Fog"
"-65.89","45.32","SAINT JOHN A","8104901","2019-04-22 16:00","2019","04","22","16:00","12.5","","12.5","","100","","","","10","","11","","3.2","","100.78","","","","","","Drizzle,Fog"
"-65.89","45.32","SAINT JOHN A","8104901","2019-04-22 17:00","2019","04","22","17:00","12.0","","12.0","","100","","","","9","","7","","3.2","","100.83","","","","","","Drizzle,Fog"
"-65.89","45.32","SAINT JOHN A","8104901","2019-04-22 18:00","2019","04","22","18:00","11.9","","11.9","","100","","","","9","","4","","3.2","","100.82","","","","","","Drizzle,Fog"
"-65.89","45.32","SAINT JOHN A","8104901","2019-04-22 19:00","2019","04","22","19:00","11.9","","11.9","","100","","","","1","","11","","24.1","","100.84","","","","","","NA"
"-65.89","45.32","SAINT JOHN A","8104901","2019-04-22 20:00","2019","04","22","20:00","10.1","","9.2","","94","","","","3","","19","","24.1","","100.87","","","","","","Cloudy"
"-65.89","45.32","SAINT JOHN A","8104901","2019-04-22 21:00","2019","04","22","21:00","9.6","","9.2","","97","","","","4","","13","","19.3","","100.87","","","","","","NA"
"-65.89","45.32","SAINT JOHN A","8104901","2019-04-22 22:00","2019","04","22","22:00","9.3","","9.3","","100","","","","7","","8","","9.7","","100.90","","","","","","Moderate Drizzle,Fog"
"-65.89","45.32","SAINT JOHN A","8104901","2019-04-22 23:00","2019","04","22","23:00","8.1","","7.9","","99","","","","7","","19","","9.7","","100.80","","","","","","Rain,Fog"
"-65.89","45.32","SAINT JOHN A","8104901","2019-04-23 00:00","2019","04","23","00:00","7.5","","7.2","","98","","","","5","","19","","12.9","","100.79","","","","","","Rain"
"-65.89","45.32","SAINT JOHN A","8104901","2019-04-23 01:00","2019","04","23","01:00","7.4","","7.0","","97","","","","8","","17","","24.1","","100.79","","","","","","NA"
"-65.89","45.32","SAINT JOHN A","8104901","2019-04-23 02:00","2019","04","23","02:00","6.5","","6.4","","100","","","","6","","13","","8.1","","100.72","","","","","","Rain,Fog"
"-65.89","45.32","SAINT JOHN A","8104901","2019-04-23 03:00","2019","04","23","03:00","6.1","","5.7","","97","","","","4","","19","","8.1","","100.65","","","","","","Rain,Fog"
"-65.89","45.32","SAINT JOHN A","8104901","2019-04-23 04:00","2019","04","23","04:00","5.8","","5.2","","96","","","","4","","16","","16.1","","100.62","","","","","","Rain"
"-65.89","45.32","SAINT JOHN A","8104901","2019-04-23 05:00","2019","04","23","05:00","4.8","","3.8","","94","","","","7","","18","","8.1","","100.63","","","","","","Rain,Fog"
"-65.89","45.32","SAINT JOHN A","8104901","2019-04-23 06:00","2019","04","23","06:00","4.1","","3.7","","97","","","","5","","9","","4.8","","100.63","","","","","","Rain,Fog"
"-65.89","45.32","SAINT JOHN A","8104901","2019-04-23 07:00","2019","04","23","07:00","4.3","","4.2","","99","","","","5","","18","","8.1","","100.58","","","","","","Rain,Fog"
"-65.89","45.32","SAINT JOHN A","8104901","2019-04-23 08:00","2019","04","23","08:00","5.4","","5.0","","97","","","","5","","24","","8.1","","100.51","","","","","","Rain,Fog"
"-65.89","45.32","SAINT JOHN A","8104901","2019-04-23 09:00","2019","04","23","09:00","5.7","","5.3","","97","","","","7","","17","","9.7","","100.42","","","","","","Rain,Fog"
"-65.89","45.32","SAINT JOHN A","8104901","2019-04-23 10:00","2019","04","23","10:00","5.5","","5.2","","98","","","","6","","19","","4.8","","100.36","","","","","","Rain,Fog"
"-65.89","45.32","SAINT JOHN A","8104901","2019-04-23 11:00","2019","04","23","11:00","5.9","","5.6","","98","","","","7","","25","","4.8","","100.28","","","","","","Rain,Fog"
"-65.89","45.32","SAINT JOHN A","8104901","2019-04-23 12:00","2019","04","23","12:00","5.8","","5.5","","98","","","","8","","17","","16.1","","100.19","","","","","","Rain"
"-65.89","45.32","SAINT JOHN A","8104901","2019-04-23 13:00","2019","04","23","13:00","5.8","","5.7","","99","","","","7","","25","","4.8","","100.11","","","","","","Rain,Fog"
"-65.89","45.32","SAINT JOHN A","8104901","2019-04-23 14:00","2019","04","23","14:00","6.4","","6.3","","99","","","","6","","22","","9.7","","100.04","","","","","","Rain,Fog"
"-65.89","45.32","SAINT JOHN A","8104901","2019-04-23 15:00","2019","04","23","15:00","7.0","","6.9","","99","","","","5","","20","","9.7","","99.99","","","","","","Rain,Fog"
"-65.89","45.32","SAINT JOHN A","8104901","2019-04-23 16:00","2019","04","23","16:00","6.5","","6.5","","100","","","","31","","14","","4.8","","99.93","","","","","","Drizzle,Fog"
"-65.89","45.32","SAINT JOHN A","8104901","2019-04-23 17:00","2019","04","23","17:00","5.6","","5.6","","100","","","","1","","17","","6.4","","99.88","","","","","","Drizzle,Fog"
"-65.89","45.32","SAINT JOHN A","8104901","2019-04-23 18:00","2019","04","23","18:00","5.0","","4.9","","100","","","","1","","23","","6.4","","99.80","","","","","","Drizzle,Fog"
"-65.89","45.32","SAINT JOHN A","8104901","2019-04-23 19:00","2019","04","23","19:00","4.3","","4.2","","99","","","","2","","19","","8.1","","99.71","","","","","","Drizzle,Fog"
"-65.89","45.32","SAINT JOHN A","8104901","2019-04-23 20:00","2019","04","23","20:00","3.4","","3.3","","100","","","","1","","16","","4.8","","99.67","","","","","","Drizzle,Fog"
"-65.89","45.32","SAINT JOHN A","8104901","2019-04-23 21:00","2019","04","23","21:00","2.7","","2.7","","100","","","","1","","23","","3.2","","99.64","","","","","","Rain,Fog"
"-65.89","45.32","SAINT JOHN A","8104901","2019-04-23 22:00","2019","04","23","22:00","2.5","","2.5","","100","","","","36","","22","","4.8","","99.58","","","","","","Drizzle,Fog"
"-65.89","45.32","SAINT JOHN A","8104901","2019-04-23 23:00","2019","04","23","23:00","2.4","","2.4","","100","","","","1","","17","","3.2","","99.57","","","","","","Drizzle,Fog"
"-65.89","45.32","SAINT JOHN A","8104901","2019-04-24 00:00","2019","04","24","00:00","2.2","","2.0","","99","","","","36","","20","","4.8","","99.51","","","","","","Drizzle,Fog"
"-65.89","45.32","SAINT JOHN A","8104901","2019-04-24 01:00","2019","04","24","01:00","2.0","","1.7","","98","","","","36","","21","","24.1","","99.48","","","","","","NA"
"-65.89","45.32","SAINT JOHN A","8104901","2019-04-24 02:00","2019","04","24","02:00","1.8","","1.6","","99","","","","36","","18","","24.1","","99.40","","","","","","Cloudy"
"-65.89","45.32","SAINT JOHN A","8104901","2019-04-24 03:00","2019","04","24","03:00","1.7","","1.6","","100","","","","33","","15","","24.1","","99.45","","","","","","NA"
"-65.89","45.32","SAINT JOHN A","8104901","2019-04-24 04:00","2019","04","24","04:00","1.5","","1.5","","100","","","","36","","13","","3.2","","99.39","","","","","","Drizzle,Fog"
"-65.89","45.32","SAINT JOHN A","8104901","2019-04-24 05:00","2019","04","24","05:00","1.2","","1.2","","100","","","","34","","16","","3.2","","99.41","","","","","","Drizzle,Fog"
"-65.89","45.32","SAINT JOHN A","8104901","2019-04-24 06:00","2019","04","24","06:00","1.2","","1.2","","100","","","","35","","17","","2.4","","99.42","","","","","","Drizzle,Fog"
"-65.89","45.32","SAINT JOHN A","8104901","2019-04-24 07:00","2019","04","24","07:00","1.7","","1.6","","100","","","","36","","18","","4.8","","99.43","","","","","","Fog"
"-65.89","45.32","SAINT JOHN A","8104901","2019-04-24 08:00","2019","04","24","08:00","2.1","","1.7","","97","","","","1","","17","","4.8","","99.44","","","","","","Fog"
"-65.89","45.32","SAINT JOHN A","8104901","2019-04-24 09:00","2019","04","24","09:00","2.2","","1.9","","98","","","","3","","12","","4.8","","99.45","","","","","","Fog"
"-65.89","45.32","SAINT JOHN A","8104901","2019-04-24 10:00","2019","04","24","10:00","2.5","","2.3","","98","","","","34","","9","","4.8","","99.47","","","","","","Fog"
"-65.89","45.32","SAINT JOHN A","8104901","2019-04-24 11:00","2019","04","24","11:00","3.2","","2.4","","95","","","","36","","8","","4.8","","99.44","","","","","","Fog"
"-65.89","45.32","SAINT JOHN A","8104901","2019-04-24 12:00","2019","04","24","12:00","4.1","","3.0","","93","","","","34","","8","","9.7","","99.43","","","","","","Fog"
"-65.89","45.32","SAINT JOHN A","8104901","2019-04-24 13:00","2019","04","24","13:00","5.5","","3.8","","89","","","","36","","16","","12.9","","99.36","","","","","","NA"
"-65.89","45.32","SAINT JOHN A","8104901","2019-04-24 14:00","2019","04","24","14:00","5.4","","4.1","","92","","","","1","","9","","12.9","","99.34","","","","","","Cloudy"
"-65.89","45.32","SAINT JOHN A","8104901","2019-04-24 15:00","2019","04","24","15:00","4.3","","4.1","","99","","","","12","","9","","4.8","","99.25","","","","","","Rain,Fog"
"-65.89","45.32","SAINT JOHN A","8104901","2019-04-24 16:00","2019","04","24","16:00","4.8","","4.7","","99","","","","9","","4","","4.8","","99.22","","","","","","Rain,Fog"
"-65.89","45.32","SAINT JOHN A","8104901","2019-04-24 17:00","2019","04","24","17:00","4.9","","4.6","","98","","","","6","","7","","4.0","","99.22","","","","","","Rain,Fog"
"-65.89","45.32","SAINT JOHN A","8104901","2019-04-24 18:00","2019","04","24","18:00","4.6","","4.6","","100","","","","1","","17","","4.0","","99.20","","","","","","Rain,Fog"
"-65.89","45.32","SAINT JOHN A","8104901","2019-04-24 19:00","2019","04","24","19:00","3.3","","3.1","","99","","","","1","","26","","3.2","","99.23","","","","","","Drizzle,Fog"
"-65.89","45.32","SAINT JOHN A","8104901","2019-04-24 20:00","2019","04","24","20:00","2.5","","2.2","","98","","","","2","","21","","4.8","","99.25","","","","","","Drizzle,Fog"
"-65.89","45.32","SAINT JOHN A","8104901","2019-04-24 21:00","2019","04","24","21:00","1.8","","1.6","","99","","","","36","","23","","4.8","","99.34","","","","","","Drizzle,Fog"
"-65.89","45.32","SAINT JOHN A","8104901","2019-04-24 22:00","2019","04","24","22:00","1.3","","1.2","","99","","","","35","","20","","4.8","","99.32","","","","","","Drizzle,Fog"
"-65.89","45.32","SAINT JOHN A","8104901","2019-04-24 23:00","2019","04","24","23:00","0.9","","0.7","","98","","","","36","","21","","8.1","","99.32","","","","","","Fog"
"-65.89","45.32","SAINT JOHN A","8104901","2019-04-25 00:00","2019","04","25","00:00","0.8","","0.4","","97","","","","35","","27","","24.1","","99.30","","","","","","NA"
"-65.89","45.32","SAINT JOHN A","8104901","2019-04-25 01:00","2019","04","25","01:00","0.5","","0.2","","98","","","","36","","25","","4.8","","99.26","","","","","","Fog"
"-65.89","45.32","SAINT JOHN A","8104901","2019-04-25 02:00","2019","04","25","02:00","0.2","","-0.1","","98","","","","32","","21","","4.8","","99.32","","","","","","Fog"
"-65.89","45.32","SAINT JOHN A","8104901","2019-04-25 03:00","2019","04","25","03:00","0.0","","-0.6","","96","","","","33","","32","","4.8","","99.31","","","","-7","","Snow"
"-65.89","45.32","SAINT JOHN A","8104901","2019-04-25 04:00","2019","04","25","04:00","-0.2","","-0.6","","97","","","","33","","28","","4.0","","99.40","","","","-7","","Snow"
"-65.89","45.32","SAINT JOHN A","8104901","2019-04-25 05:00","2019","04","25","05:00","-0.4","","-0.8","","97","","","","33","","29","","2.4","","99.44","","","","-7","","Snow"
"-65.89","45.32","SAINT JOHN A","8104901","2019-04-25 06:00","2019","04","25","06:00","-0.3","","-0.7","","97","","","","33","","30","","1.6","","99.51","","","","-7","","Snow"
"-65.89","45.32","SAINT JOHN A","8104901","2019-04-25 07:00","2019","04","25","07:00","0.0","","-0.5","","96","","","","34","","33","","6.4","","99.55","","","","-7","","Snow,Fog"
"-65.89","45.32","SAINT JOHN A","8104901","2019-04-25 08:00","2019","04","25","08:00","1.1","","0.3","","94","","","","34","","40","","6.4","","99.54","","","","","","Fog"
"-65.89","45.32","SAINT JOHN A","8104901","2019-04-25 09:00","2019","04","25","09:00","1.5","","0.4","","93","","","","35","","28","","9.7","","99.62","","","","","","Fog"
"-65.89","45.32","SAINT JOHN A","8104901","2019-04-25 10:00","2019","04","25","10:00","3.0","","1.6","","90","","","","36","","22","","12.9","","99.74","","","","","","NA"
"-65.89","45.32","SAINT JOHN A","8104901","2019-04-25 11:00","2019","04","25","11:00","3.9","","1.4","","84","","","","35","","24","","9.7","","99.79","","","","","","Rain Showers,Fog"
"-65.89","45.32","SAINT JOHN A","8104901","2019-04-25 12:00","2019","04","25","12:00","4.8","","1.8","","81","","","","34","","28","","12.9","","99.78","","","","","","Rain Showers"
"-65.89","45.32","SAINT JOHN A","8104901","2019-04-25 13:00","2019","04","25","13:00","4.0","","1.2","","82","","","","33","","27","","24.1","","","M","","","","","NA"
"-65.89","45.32","SAINT JOHN A","8104901","2019-04-25 14:00","2019","04","25","14:00","6.1","","0.7","","68","","","","35","","26","","24.1","","99.88","","","","","","Mostly Cloudy"
"-65.89","45.32","SAINT JOHN A","8104901","2019-04-25 15:00","2019","04","25","15:00","6.4","","0.3","","65","","","","1","","32","","24.1","","99.92","","","","","","NA"
"-65.89","45.32","SAINT JOHN A","8104901","2019-04-25 16:00","2019","04","25","16:00","5.8","","-0.3","","65","","","","34","","28","","24.1","","99.95","","","","","","NA"
"-65.89","45.32","SAINT JOHN A","8104901","2019-04-25 17:00","2019","04","25","17:00","5.9","","0.1","","66","","","","34","","22","","24.1","","100.03","","","","","","Mostly Cloudy"
"-65.89","45.32","SAINT JOHN A","8104901","2019-04-25 18:00","2019","04","25","18:00","4.9","","0.6","","74","","","","1","","22","","24.1","","100.05","","","","","","NA"
"-65.89","45.32","SAINT JOHN A","8104901","2019-04-25 19:00","2019","04","25","19:00","4.5","","0.7","","76","","","","36","","10","","24.1","","100.13","","","","","","NA"
"-65.89","45.32","SAINT JOHN A","8104901","2019-04-25 20:00","2019","04","25","20:00","2.3","","0.2","","86","","","","1","","12","","24.1","","100.20","","","","","","Mainly Clear"
"-65.89","45.32","SAINT JOHN A","8104901","2019-04-25 21:00","2019","04","25","21:00","1.2","","-0.4","","89","","","","34","","5","","24.1","","100.29","","","","","","NA"
"-65.89","45.32","SAINT JOHN A","8104901","2019-04-25 22:00","2019","04","25","22:00","-1.2","","-1.6","","97","","","","33","","4","","24.1","","100.37","","","","-3","","NA"
"-65.89","45.32","SAINT JOHN A","8104901","2019-04-25 23:00","2019","04","25","23:00","-1.7","","-1.9","","98","","","","36","","2","","24.1","","100.33","","","","-2","","Mainly Clear"
"-65.89","45.32","SAINT JOHN A","8104901","2019-04-26 00:00","2019","04","26","00:00","-2.7","","-2.8","","100","","","","36","","2","","24.1","","100.35","","","","-3","","NA"
"-65.89","45.32","SAINT JOHN A","8104901","2019-04-26 01:00","2019","04","26","01:00","-1.8","","-1.8","","100","","","","36","","1","","24.1","","100.35","","","","-2","","NA"
"-65.89","45.32","SAINT JOHN A","8104901","2019-04-26 02:00","2019","04","26","02:00","-3.2","","-3.2","","100","","","","6","","7","","24.1","","100.35","","","","-6","","Mainly Clear"
"-65.89","45.32","SAINT JOHN A","8104901","2019-04-26 03:00","2019","04","26","03:00","-2.2","","-2.3","","99","","","","36","","2","","24.1","","100.39","","","","-3","","NA"
"-65.89","45.32","SAINT JOHN A","8104901","2019-04-26 04:00","2019","04","26","04:00","-1.8","","-1.9","","99","","","","7","","4","","24.1","","100.34","","","","-3","","NA"
"-65.89","45.32","SAINT JOHN A","8104901","2019-04-26 05:00","2019","04","26","05:00","-1.3","","-1.5","","99","","","","18","","3","","24.1","","100.36","","","","-2","","Mostly Cloudy"
"-65.89","45.32","SAINT JOHN A","8104901","2019-04-26 06:00","2019","04","26","06:00","-0.8","","-0.9","","99","","","","8","","5","","24.1","","100.38","","","","-2","","NA"
"-65.89","45.32","SAINT JOHN A","8104901","2019-04-26 07:00","2019","04","26","07:00","0.6","","0.3","","98","","","","36","","1","","24.1","","100.46","","","","","","NA"
"-65.89","45.32","SAINT JOHN A","8104901","2019-04-26 08:00","2019","04","26","08:00","2.8","","1.3","","90","","","","36","","2","","24.1","","100.44","","","","","","Cloudy"
"-65.89","45.32","SAINT JOHN A","8104901","2019-04-26 09:00","2019","04","26","09:00","4.7","","0.7","","75","","","","21","","5","","24.1","","100.47","","","","","","NA"
"-65.89","45.32","SAINT JOHN A","8104901","2019-04-26 10:00","2019","04","26","10:00","6.8","","0.9","","66","","","","16","","5","","24.1","","100.43","","","","","","NA"
"-65.89","45.32","SAINT JOHN A","8104901","2019-04-26 11:00","2019","04","26","11:00","8.6","","1.4","","60","","","","13","","12","","24.1","","100.38","","","","","","Mostly Cloudy"
"-65.89","45.32","SAINT JOHN A","8104901","2019-04-26 12:00","2019","04","26","12:00","7.3","","0.5","","62","","","","15","","18","","24.1","","100.35","","","","","","NA"
"-65.89","45.32","SAINT JOHN A","8104901","2019-04-26 13:00","2019","04","26","13:00","8.6","","0.2","","55","","","","17","","19","","24.1","","100.33","","","","","","NA"
"-65.89","45.32","SAINT JOHN A","8104901","2019-04-26 14:00","2019","04","26","14:00","7.6","","0.0","","59","","","","14","","17","","24.1","","100.32","","","","","","Cloudy"
"-65.89","45.32","SAINT JOHN A","8104901","2019-04-26 15:00","2019","04","26","15:00","7.9","","-0.8","","54","","","","14","","11","","24.1","","100.27","","","","","","NA"
"-65.89","45.32","SAINT JOHN A","8104901","2019-04-26 16:00","2019","04","26","16:00","8.2","","0.2","","57","","","","12","","13","","24.1","","100.18","","","","","","NA"
"-65.89","45.32","SAINT JOHN A","8104901","2019-04-26 17:00","2019","04","26","17:00","7.8","","0.0","","58","","","","14","","10","","24.1","","100.17","","","","","","Cloudy"
"-65.89","45.32","SAINT JOHN A","8104901","2019-04-26 18:00","2019","04","26","18:00","5.8","","2.7","","81","","","","11","","8","","24.1","","100.11","","","","","","Rain"
"-65.89","45.32","SAINT JOHN A","8104901","2019-04-26 19:00","2019","04","26","19:00","5.3","","2.7","","83","","","","9","","10","","24.1","","100.04","","","","","","Rain"
"-65.89","45.32","SAINT JOHN A","8104901","2019-04-26 20:00","2019","04","26","20:00","4.9","","2.8","","86","","","","12","","11","","9.7","","100.11","","","","","","Rain,Fog"
"-65.89","45.32","SAINT JOHN A","8104901","2019-04-26 21:00","2019","04","26","21:00","4.3","","3.6","","95","","","","12","","16","","9.7","","100.09","","","","","","Rain,Fog"
"-65.89","45.32","SAINT JOHN A","8104901","2019-04-26 22:00","2019","04","26","22:00","4.1","","2.6","","90","","","","13","","21","","9.7","","99.97","","","","","","Rain,Fog"
"-65.89","45.32","SAINT JOHN A","8104901","2019-04-26 23:00","2019","04","26","23:00","3.5","","1.8","","89","","","","12","","24","","9.7","","99.93","","","","","","Rain,Fog"
"-65.89","45.32","SAINT JOHN A","8104901","2019-04-27 00:00","2019","04","27","00:00","3.0","","2.1","","94","","","","10","","26","","9.7","","99.80","","","","","","Rain,Fog"
"-65.89","45.32","SAINT JOHN A","8104901","2019-04-27 01:00","2019","04","27","01:00","3.0","","1.8","","91","","","","11","","26","","19.3","","99.75","","","","","","NA"
"-65.89","45.32","SAINT JOHN A","8104901","2019-04-27 02:00","2019","04","27","02:00","2.8","","1.5","","91","","","","11","","38","","19.3","","99.58","","","","","","Cloudy"
"-65.89","45.32","SAINT JOHN A","8104901","2019-04-27 03:00","2019","04","27","03:00","2.5","","1.7","","94","","","","11","","36","","6.4","","99.47","","","","","","Rain Showers,Fog"
"-65.89","45.32","SAINT JOHN A","8104901","2019-04-27 04:00","2019","04","27","04:00","2.5","","2.0","","96","","","","10","","46","","6.4","","99.36","","","","","","Rain Showers,Fog"
"-65.89","45.32","SAINT JOHN A","8104901","2019-04-27 05:00","2019","04","27","05:00","2.9","","2.6","","98","","","","10","","41","","8.1","","99.19","","","","","","Rain Showers,Fog"
"-65.89","45.32","SAINT JOHN A","8104901","2019-04-27 06:00","2019","04","27","06:00","3.5","","3.4","","99","","","","10","","37","","12.9","","99.17","","","","","","Rain Showers"
"-65.89","45.32","SAINT JOHN A","8104901","2019-04-27 07:00","2019","04","27","07:00","4.8","","4.6","","99","","","","10","","34","","9.7","","99.10","","","","","","Rain Showers,Fog"
"-65.89","45.32","SAINT JOHN A","8104901","2019-04-27 08:00","2019","04","27","08:00","5.4","","5.0","","98","","","","10","","44","","16.1","","99.00","","","","","","Cloudy"
"-65.89","45.32","SAINT JOHN A","8104901","2019-04-27 09:00","2019","04","27","09:00","5.9","","5.6","","98","","","","11","","35","","24.1","","98.93","","","","","","NA"
"-65.89","45.32","SAINT JOHN A","8104901","2019-04-27 10:00","2019","04","27","10:00","6.6","","6.2","","97","","","","10","","36","","16.1","","98.83","","","","","","NA"
"-65.89","45.32","SAINT JOHN A","8104901","2019-04-27 11:00","2019","04","27","11:00","6.4","","6.0","","98","","","","11","","41","","16.1","","98.71","","","","","","Cloudy"
"-65.89","45.32","SAINT JOHN A","8104901","2019-04-27 12:00","2019","04","27","12:00","7.9","","7.8","","99","","","","12","","38","","4.8","","98.53","","","","","","Drizzle,Fog"
"-65.89","45.32","SAINT JOHN A","8104901","2019-04-27 13:00","2019","04","27","13:00","8.5","","8.5","","100","","","","12","","37","","4.8","","98.45","","","","","","Moderate Rain,Fog"
"-65.89","45.32","SAINT JOHN A","8104901","2019-04-27 14:00","2019","04","27","14:00","9.0","","9.0","","100","","","","13","","32","","3.2","","98.43","","","","","","Moderate Rain,Fog"
"-65.89","45.32","SAINT JOHN A","8104901","2019-04-27 15:00","2019","04","27","15:00","10.1","","10.1","","100","","","","11","","35","","4.8","","98.38","","","","","","Moderate Rain,Fog"
"-65.89","45.32","SAINT JOHN A","8104901","2019-04-27 16:00","2019","04","27","16:00","8.0","","7.8","","99","","","","20","","42","","4.0","","98.47","","","","","","Rain,Fog"
"-65.89","45.32","SAINT JOHN A","8104901","2019-04-27 17:00","2019","04","27","17:00","6.6","","6.6","","100","","","","19","","35","","6.4","","98.50","","","","","","Rain,Fog"
"-65.89","45.32","SAINT JOHN A","8104901","2019-04-27 18:00","2019","04","27","18:00","6.5","","6.1","","97","","","","19","","27","","16.1","","98.60","","","","","","NA"
"-65.89","45.32","SAINT JOHN A","8104901","2019-04-27 19:00","2019","04","27","19:00","5.7","","5.2","","96","","","","20","","21","","16.1","","98.69","","","","","","NA"
"-65.89","45.32","SAINT JOHN A","8104901","2019-04-27 20:00","2019","04","27","20:00","4.9","","4.1","","95","","","","19","","22","","16.1","","98.77","","","","","","Mostly Cloudy"
"-65.89","45.32","SAINT JOHN A","8104901","2019-04-27 21:00","2019","04","27","21:00","4.4","","3.7","","95","","","","18","","17","","16.1","","98.85","","","","","","NA"
"-65.89","45.32","SAINT JOHN A","8104901","2019-04-27 22:00","2019","04","27","22:00","4.3","","3.5","","95","","","","19","","21","","24.1","","98.88","","","","","","NA"
"-65.89","45.32","SAINT JOHN A","8104901","2019-04-27 23:00","2019","04","27","23:00","4.0","","3.5","","97","","","","18","","15","","24.1","","98.90","","","","","","Mainly Clear"
"-65.89","45.32","SAINT JOHN A","8104901","2019-04-28 00:00","2019","04","28","00:00","4.3","","3.8","","97","","","","17","","18","","24.1","","98.89","","","","","","NA"
"-65.89","45.32","SAINT JOHN A","8104901","2019-04-28 01:00","2019","04","28","01:00","4.2","","3.9","","97","","","","20","","22","","24.1","","98.96","","","","","","NA"
"-65.89","45.32","SAINT JOHN A","8104901","2019-04-28 02:00","2019","04","28","02:00","4.1","","4.1","","100","","","","21","","16","","3.2","","99.00","","","","","","Fog"
"-65.89","45.32","SAINT JOHN A","8104901","2019-04-28 03:00","2019","04","28","03:00","3.8","","3.7","","100","","","","22","","19","","4.8","","99.06","","","","","","Rain,Fog"
"-65.89","45.32","SAINT JOHN A","8104901","2019-04-28 04:00","2019","04","28","04:00","3.7","","3.7","","100","","","","22","","10","","9.7","","99.11","","","","","","Rain,Fog"
"-65.89","45.32","SAINT JOHN A","8104901","2019-04-28 05:00","2019","04","28","05:00","3.0","","2.4","","96","","","","23","","10","","16.1","","99.17","","","","","","Mostly Cloudy"
"-65.89","45.32","SAINT JOHN A","8104901","2019-04-28 06:00","2019","04","28","06:00","3.0","","2.3","","96","","","","22","","9","","16.1","","99.30","","","","","","NA"
"-65.89","45.32","SAINT JOHN A","8104901","2019-04-28 07:00","2019","04","28","07:00","3.6","","2.6","","93","","","","24","","15","","24.1","","99.40","","","","","","NA"
"-65.89","45.32","SAINT JOHN A","8104901","2019-04-28 08:00","2019","04","28","08:00","3.8","","2.1","","89","","","","24","","15","","24.1","","99.46","","","","","","Mostly Cloudy"
"-65.89","45.32","SAINT JOHN A","8104901","2019-04-28 09:00","2019","04","28","09:00","4.7","","2.9","","88","","","","25","","15","","24.1","","99.50","","","","","","NA"
"-65.89","45.32","SAINT JOHN A","8104901","2019-04-28 10:00","2019","04","28","10:00","5.4","","2.5","","82","","","","26","","14","","24.1","","99.56","","","","","","NA"
"-65.89","45.32","SAINT JOHN A","8104901","2019-04-28 11:00","2019","04","28","11:00","5.9","","2.1","","77","","","","24","","17","","24.1","","99.63","","","","","","Mostly Cloudy"
"-65.89","45.32","SAINT JOHN A","8104901","2019-04-28 12:00","2019","04","28","12:00","6.0","","3.0","","81","","","","21","","18","","24.1","","99.67","","","","","","NA"
"-65.89","45.32","SAINT JOHN A","8104901","2019-04-28 13:00","2019","04","28","13:00","6.5","","2.7","","77","","","","22","","23","","24.1","","99.70","","","","","","NA"
"-65.89","45.32","SAINT JOHN A","8104901","2019-04-28 14:00","2019","04","28","14:00","6.3","","2.0","","74","","","","22","","27","","24.1","","99.78","","","","","","Mostly Cloudy"
"-65.89","45.32","SAINT JOHN A","8104901","2019-04-28 15:00","2019","04","28","15:00","6.4","","2.9","","78","","","","22","","21","","24.1","","99.83","","","","","","NA"
"-65.89","45.32","SAINT JOHN A","8104901","2019-04-28 16:00","2019","04","28","16:00","8.9","","3.2","","67","","","","22","","18","","24.1","","99.84","","","","","","NA"
"-65.89","45.32","SAINT JOHN A","8104901","2019-04-28 17:00","2019","04","28","17:00","7.7","","2.8","","71","","","","22","","16","","24.1","","99.87","","","","","","Mainly Clear"
"-65.89","45.32","SAINT JOHN A","8104901","2019-04-28 18:00","2019","04","28","18:00","7.1","","2.5","","73","","","","22","","23","","24.1","","99.95","","","","","","NA"
"-65.89","45.32","SAINT JOHN A","8104901","2019-04-28 19:00","2019","04","28","19:00","5.5","","2.6","","82","","","","22","","13","","24.1","","100.02","","","","","","NA"
"-65.89","45.32","SAINT JOHN A","8104901","2019-04-28 20:00","2019","04","28","20:00","3.6","","2.6","","94","","","","24","","8","","24.1","","100.10","","","","","","Mainly Clear"
"-65.89","45.32","SAINT JOHN A","8104901","2019-04-28 21:00","2019","04","28","21:00","1.4","","0.9","","96","","","","31","","8","","24.1","","100.14","","","","","","NA"
"-65.89","45.32","SAINT JOHN A","8104901","2019-04-28 22:00","2019","04","28","22:00","3.2","","-0.6","","76","","","","35","","17","","24.1","","100.16","","","","","","NA"
"-65.89","45.32","SAINT JOHN A","8104901","2019-04-28 23:00","2019","04","28","23:00","2.9","","-1.0","","76","","","","31","","11","","24.1","","100.19","","","","","","Mostly Cloudy"
"-65.89","45.32","SAINT JOHN A","8104901","2019-04-29 00:00","2019","04","29","00:00","3.2","","-1.4","","72","","","","30","","7","","24.1","","100.27","","","","","","NA"
"-65.89","45.32","SAINT JOHN A","8104901","2019-04-29 01:00","2019","04","29","01:00","3.1","","-1.7","","71","","","","29","","14","","24.1","","100.30","","","","","","NA"
"-65.89","45.32","SAINT JOHN A","8104901","2019-04-29 02:00","2019","04","29","02:00","2.9","","-2.1","","70","","","","30","","19","","24.1","","100.33","","","","","","Mostly Cloudy"
"-65.89","45.32","SAINT JOHN A","8104901","2019-04-29 03:00","2019","04","29","03:00","1.7","","-2.0","","76","","","","33","","17","","24.1","","100.32","","","","","","NA"
"-65.89","45.32","SAINT JOHN A","8104901","2019-04-29 04:00","2019","04","29","04:00","0.0","","-2.2","","85","","","","32","","12","","24.1","","100.38","","","","-4","","NA"
"-65.89","45.32","SAINT JOHN A","8104901","2019-04-29 05:00","2019","04","29","05:00","1.1","","-2.2","","79","","","","28","","12","","24.1","","100.45","","","","","","Mostly Cloudy"
"-65.89","45.32","SAINT JOHN A","8104901","2019-04-29 06:00","2019","04","29","06:00","1.5","","-5.3","","61","","","","29","","14","","24.1","","100.51","","","","","","NA"
"-65.89","45.32","SAINT JOHN A","8104901","2019-04-29 07:00","2019","04","29","07:00","2.1","","-5.7","","56","","","","31","","23","","24.1","","100.59","","","","","","NA"
"-65.89","45.32","SAINT JOHN A","8104901","2019-04-29 08:00","2019","04","29","08:00","3.1","","-5.6","","53","","","","29","","26","","24.1","","100.58","","","","","","Mainly Clear"
"-65.89","45.32","SAINT JOHN A","8104901","2019-04-29 09:00","2019","04","29","09:00","4.7","","-5.0","","49","","","","30","","17","","24.1","","100.61","","","","","","NA"
"-65.89","45.32","SAINT JOHN A","8104901","2019-04-29 10:00","2019","04","29","10:00","4.9","","-5.7","","46","","","","28","","24","","24.1","","100.59","","","","","","NA"
"-65.89","45.32","SAINT JOHN A","8104901","2019-04-29 11:00","2019","04","29","11:00","5.6","","-5.6","","44","","","","29","","28","","24.1","","100.58","","","","","","Mainly Clear"
"-65.89","45.32","SAINT JOHN A","8104901","2019-04-29 12:00","2019","04","29","12:00","6.4","","-5.2","","43","","","","28","","23","","24.1","","100.56","","","","","","NA"
"-65.89","45.32","SAINT JOHN A","8104901","2019-04-29 13:00","2019","04","29","13:00","6.7","","-6.0","","40","","","","29","","29","","24.1","","100.51","","","","","","NA"
"-65.89","45.32","SAINT JOHN A","8104901","2019-04-29 14:00","2019","04","29","14:00","7.1","","-6.2","","38","","","","31","","32","","24.1","","100.48","","","","","","Mainly Clear"
"-65.89","45.32","SAINT JOHN A","8104901","2019-04-29 15:00","2019","04","29","15:00","8.0","","-6.9","","34","","","","29","","31","","24.1","","100.48","","","","","","NA"
"-65.89","45.32","SAINT JOHN A","8104901","2019-04-29 16:00","2019","04","29","16:00","8.7","","-7.4","","31","","","","30","","44","","24.1","","100.49","","","","","","NA"
"-65.89","45.32","SAINT JOHN A","8104901","2019-04-29 17:00","2019","04","29","17:00","8.5","","-9.3","","27","","","","30","","36","","24.1","","100.51","","","","","","Mainly Clear"
"-65.89","45.32","SAINT JOHN A","8104901","2019-04-29 18:00","2019","04","29","18:00","8.0","","-9.9","","27","","","","30","","27","","24.1","","100.59","","","","","","NA"
"-65.89","45.32","SAINT JOHN A","8104901","2019-04-29 19:00","2019","04","29","19:00","6.8","","-9.4","","30","","","","30","","21","","24.1","","100.68","","","","","","NA"
"-65.89","45.32","SAINT JOHN A","8104901","2019-04-29 20:00","2019","04","29","20:00","5.3","","-9.4","","34","","","","28","","16","","24.1","","100.77","","","","","","Mainly Clear"
"-65.89","45.32","SAINT JOHN A","8104901","2019-04-29 21:00","2019","04","29","21:00","4.5","","-9.7","","35","","","","29","","17","","24.1","","100.85","","","","","","NA"
"-65.89","45.32","SAINT JOHN A","8104901","2019-04-29 22:00","2019","04","29","22:00","3.3","","-9.0","","40","","","","27","","5","","24.1","","100.86","","","","","","NA"
"-65.89","45.32","SAINT JOHN A","8104901","2019-04-29 23:00","2019","04","29","23:00","1.8","","-8.8","","45","","","","29","","8","","24.1","","100.86","","","","","","Clear"
"-65.89","45.32","SAINT JOHN A","8104901","2019-04-30 00:00","2019","04","30","00:00","2.2","","-8.3","","46","","","","29","","13","","24.1","","100.89","","","","","","NA"
"-65.89","45.32","SAINT JOHN A","8104901","2019-04-30 01:00","2019","04","30","01:00","0.2","","-6.8","","59","","","","22","","5","","24.1","","100.87","","","","","","NA"
"-65.89","45.32","SAINT JOHN A","8104901","2019-04-30 02:00","2019","04","30","02:00","0.4","","-7.7","","55","","","","23","","9","","24.1","","100.89","","","","","","Mostly Cloudy"
"-65.89","45.32","SAINT JOHN A","8104901","2019-04-30 03:00","2019","04","30","03:00","1.2","","-7.4","","53","","","","24","","8","","24.1","","100.88","","","","","","NA"
"-65.89","45.32","SAINT JOHN A","8104901","2019-04-30 04:00","2019","04","30","04:00","0.6","","-6.1","","61","","","","27","","8","","24.1","","100.86","","","","","","NA"
"-65.89","45.32","SAINT JOHN A","8104901","2019-04-30 05:00","2019","04","30","05:00","0.0","","-6.2","","64","","","","23","","10","","24.1","","100.90","","","","-3","","Mostly Cloudy"
"-65.89","45.32","SAINT JOHN A","8104901","2019-04-30 06:00","2019","04","30","06:00","1.8","","-6.6","","54","","","","25","","11","","24.1","","100.94","","","","","","NA"
"-65.89","45.32","SAINT JOHN A","8104901","2019-04-30 07:00","2019","04","30","07:00","2.3","","-6.5","","52","","","","26","","9","","24.1","","100.92","","","","","","NA"
"-65.89","45.32","SAINT JOHN A","8104901","2019-04-30 08:00","2019","04","30","08:00","4.0","","-7.8","","42","","","","27","","14","","24.1","","100.88","","","","","","Mostly Cloudy"
"-65.89","45.32","SAINT JOHN A","8104901","2019-04-30 09:00","2019","04","30","09:00","5.5","","-8.2","","36","","","","29","","20","","24.1","","100.81","","","","","","NA"
"-65.89","45.32","SAINT JOHN A","8104901","2019-04-30 10:00","2019","04","30","10:00","6.4","","-7.8","","36","","","","29","","17","","24.1","","100.75","","","","","","NA"
"-65.89","45.32","SAINT JOHN A","8104901","2019-04-30 11:00","2019","04","30","11:00","6.7","","-8.6","","33","","","","27","","22","","24.1","","100.70","","","","","","Cloudy"
"-65.89","45.32","SAINT JOHN A","8104901","2019-04-30 12:00","2019","04","30","12:00","8.1","","-6.8","","34","","","","26","","17","","24.1","","100.62","","","","","","NA"
"-65.89","45.32","SAINT JOHN A","8104901","2019-04-30 13:00","2019","04","30","13:00","10.1","","-7.6","","28","","","","29","","14","","24.1","","100.52","","","","","","NA"
"-65.89","45.32","SAINT JOHN A","8104901","2019-04-30 14:00","2019","04","30","14:00","10.2","","-8.8","","25","","","","30","","29","","24.1","","100.52","","","","","","Mostly Cloudy"
"-65.89","45.32","SAINT JOHN A","8104901","2019-04-30 15:00","2019","04","30","15:00","10.6","","-8.4","","25","","","","26","","22","","24.1","","100.48","","","","","","NA"
"-65.89","45.32","SAINT JOHN A","8104901","2019-04-30 16:00","2019","04","30","16:00","11.5","","-9.2","","22","","","","28","","20","","24.1","","100.42","","","","","","NA"
"-65.89","45.32","SAINT JOHN A","8104901","2019-04-30 17:00","2019","04","30","17:00","11.8","","-9.4","","22","","","","32","","27","","24.1","","100.43","","","","","","Mainly Clear"
"-65.89","45.32","SAINT JOHN A","8104901","2019-04-30 18:00","2019","04","30","18:00","11.1","","-9.6","","22","","","","33","","28","","24.1","","100.46","","","","","","NA"
"-65.89","45.32","SAINT JOHN A","8104901","2019-04-30 19:00","2019","04","30","19:00","9.8","","-12.0","","20","","","","31","","34","","24.1","","100.56","","","","","","NA"
"-65.89","45.32","SAINT JOHN A","8104901","2019-04-30 20:00","2019","04","30","20:00","7.1","","-11.2","","26","","","","32","","27","","24.1","","100.68","","","","","","Clear"
"-65.89","45.32","SAINT JOHN A","8104901","2019-04-30 21:00","2019","04","30","21:00","5.9","","-12.1","","26","","","","32","","27","","24.1","","100.82","","","","","","NA"
"-65.89","45.32","SAINT JOHN A","8104901","2019-04-30 22:00","2019","04","30","22:00","2.5","","-10.2","","39","","","","33","","20","","24.1","","100.89","","","","","","NA"
"-65.89","45.32","SAINT JOHN A","8104901","2019-04-30 23:00","2019","04","30","23:00","3.5","","-11.6","","32","","","","32","","27","","24.1","","100.98","","","","","","Clear"
