"Longitude (x)","Latitude (y)","Station Name","Climate ID","Date/Time (LST)","Year","Month","Day","Time (LST)","Temp (°C)","Temp Flag","Dew Point Temp (°C)","Dew Point Temp Flag","Rel Hum (%)","Rel Hum Flag","Precip. Amount (mm)","Precip. Amount Flag","Wind Dir (10s deg)","Wind Dir Flag","Wind Spd (km/h)","Wind Spd Flag","Visibility (km)","Visibility Flag","Stn Press (kPa)","Stn Press Flag","Hmdx","Hmdx Flag","Wind Chill","Wind Chill Flag","Weather"
"-76.60","44.23","KINGSTON A","6104152","2019-01-01 00:00","2019","01","01","00:00","4.0","","4.0","","100","","","M","14","","21","","","M","98.58","","","","","","NA"
"-76.60","44.23","KINGSTON A","6104152","2019-01-01 01:00","2019","01","01","01:00","4.2","","4.1","","99","","","M","17","","26","","","M","98.43","","","","","","NA"
"-76.60","44.23","KINGSTON A","6104152","2019-01-01 02:00","2019","01","01","02:00","5.9","","5.8","","99","","","M","18","","29","","","M","98.17","","","","","","NA"
"-76.60","44.23","KINGSTON A","6104152","2019-01-01 03:00","2019","01","01","03:00","7.0","","6.8","","99","","","M","21","","39","","","M","98.13","","","","","","NA"
"-76.60","44.23","KINGSTON A","6104152","2019-01-01 04:00","2019","01","01","04:00","8.4","","8.2","","99","","","M","25","","34","","","M","98.21","","","","","","NA"
"-76.60","44.23","KINGSTON A","6104152","2019-01-01 05:00","2019","01","01","05:00","1.7","","1.4","","98","","","M","33","","27","","","M","98.55","","","","","","NA"
"-76.60","44.23","KINGSTON A","6104152","2019-01-01 06:00","2019","01","01","06:00","1.3","","0.3","","93","","","M","31","","26","","","M","98.99","","","","","","NA"
"-76.60","44.23","KINGSTON A","6104152","2019-01-01 07:00","2019","01","01","07:00","0.9","","-0.6","","89","","","M","30","","21","","","M","99.47","","","","","","NA"
"-76.60","44.23","KINGSTON A","6104152","2019-01-01 08:00","2019","01","01","08:00","1.2","","-0.8","","86","","","M","31","","22","","","M","99.74","","","","","","NA"
"-76.60","44.23","KINGSTON A","6104152","2019-01-01 09:00","2019","01","01","09:00","1.0","","-1.5","","83","","","M","30","","21","","","M","100.02","","","","","","NA"
"-76.60","44.23","KINGSTON A","6104152","2019-01-01 10:00","2019","01","01","10:00","1.0","","-2.2","","80","","","M","31","","17","","","M","100.28","","","","","","NA"
"-76.60","44.23","KINGSTON A","6104152","2019-01-01 11:00","2019","01","01","11:00","0.8","","-2.6","","78","","","M","30","","17","","","M","100.43","","","","","","NA"
"-76.60","44.23","KINGSTON A","6104152","2019-01-01 12:00","2019","01","01","12:00","1.2","","-2.9","","74","","","M","33","","21","","","M","100.38","","","","","","NA"
"-76.60","44.23","KINGSTON A","6104152","2019-01-01 13:00","2019","01","01","13:00","0.0","","-4.8","","70","","","M","34","","24","","","M","100.44","","","","-6","","NA"
"-76.60","44.23","KINGSTON A","6104152","2019-01-01 14:00","2019","01","01","14:00","-0.6","","-5.8","","67","","","M","32","","20","","","M","100.64","","","","-6","","NA"
"-76.60","44.23","KINGSTON A","6104152","2019-01-01 15:00","2019","01","01","15:00","-0.8","","-6.8","","64","","","M","33","","20","","","M","100.84","","","","-6","","NA"
"-76.60","44.23","KINGSTON A","6104152","2019-01-01 16:00","2019","01","01","16:00","-2.0","","-7.7","","65","","","M","32","","19","","","M","100.99","","","","-8","","NA"
"-76.60","44.23","KINGSTON A","6104152","2019-01-01 17:00","2019","01","01","17:00","-3.8","","-9.6","","64","","","M","35","","18","","","M","101.06","","","","-10","","NA"
"-76.60","44.23","KINGSTON A","6104152","2019-01-01 18:00","2019","01","01","18:00","-5.0","","-11.5","","61","","","M","35","","22","","","M","101.16","","","","-12","","NA"
"-76.60","44.23","KINGSTON A","6104152","2019-01-01 19:00","2019","01","01","19:00","-6.4","","-12.3","","63","","","M","36","","19","","","M","101.29","","","","-13","","NA"
"-76.60","44.23","KINGSTON A","6104152","2019-01-01 20:00","2019","01","01","20:00","-7.7","","-13.0","","66","","","M","36","","16","","","M","101.36","","","","-14","","NA"
"-76.60","44.23","KINGSTON A","6104152","2019-01-01 21:00","2019","01","01","21:00","-8.6","","-14.1","","64","","","M","2","","13","","","M","101.38","","","","-15","","NA"
"-76.60","44.23","KINGSTON A","6104152","2019-01-01 22:00","2019","01","01","22:00","-9.8","","-13.5","","74","","","M","3","","10","","","M","101.43","","","","-15","","NA"
"-76.60","44.23","KINGSTON A","6104152","2019-01-01 23:00","2019","01","01","23:00","-10.4","","-15.0","","69","","","M","4","","13","","","M","101.43","","","","-17","","NA"
"-76.60","44.23","KINGSTON A","6104152","2019-01-02 00:00","2019","01","02","00:00","-11.1","","-15.4","","71","","","M","3","","9","","","M","101.47","","","","-16","","NA"
"-76.60","44.23","KINGSTON A","6104152","2019-01-02 01:00","2019","01","02","01:00","-11.6","","-15.5","","73","","","M","3","","8","","","M","101.49","","","","-16","","NA"
"-76.60","44.23","KINGSTON A","6104152","2019-01-02 02:00","2019","01","02","02:00","-11.9","","-15.7","","74","","","M","3","","13","","","M","101.55","","","","-19","","NA"
"-76.60","44.23","KINGSTON A","6104152","2019-01-02 03:00","2019","01","02","03:00","-11.8","","-15.3","","76","","","M","36","","9","","","M","101.64","","","","-17","","NA"
"-76.60","44.23","KINGSTON A","6104152","2019-01-02 04:00","2019","01","02","04:00","-12.2","","-15.9","","74","","","M","1","","16","","","M","101.62","","","","-20","","NA"
"-76.60","44.23","KINGSTON A","6104152","2019-01-02 05:00","2019","01","02","05:00","-12.9","","-16.5","","74","","","M","1","","10","","","M","101.72","","","","-19","","NA"
"-76.60","44.23","KINGSTON A","6104152","2019-01-02 06:00","2019","01","02","06:00","-13.5","","-17.1","","75","","","M","4","","13","","","M","101.73","","","","-20","","NA"
"-76.60","44.23","KINGSTON A","6104152","2019-01-02 07:00","2019","01","02","07:00","-14.2","","-17.7","","75","","","M","4","","10","","","M","101.77","","","","-20","","NA"
"-76.60","44.23","KINGSTON A","6104152","2019-01-02 08:00","2019","01","02","08:00","-14.4","","-17.8","","75","","","M","3","","7","","","M","101.83","","","","-19","","NA"
"-76.60","44.23","KINGSTON A","6104152","2019-01-02 09:00","2019","01","02","09:00","-13.2","","-18.0","","67","","","M","4","","14","","","M","101.79","","","","-20","","NA"
"-76.60","44.23","KINGSTON A","6104152","2019-01-02 10:00","2019","01","02","10:00","-11.7","","-17.0","","65","","","M","4","","13","","","M","101.77","","","","-18","","NA"
"-76.60","44.23","KINGSTON A","6104152","2019-01-02 11:00","2019","01","02","11:00","-10.8","","-17.0","","60","","","M","14","","2","","","M","101.75","","","","-12","","NA"
"-76.60","44.23","KINGSTON A","6104152","2019-01-02 12:00","2019","01","02","12:00","-9.6","","-17.1","","55","","","M","4","","3","","","M","101.66","","","","-11","","NA"
"-76.60","44.23","KINGSTON A","6104152","2019-01-02 13:00","2019","01","02","13:00","-8.4","","-14.4","","62","","","M","6","","8","","","M","101.47","","","","-13","","NA"
"-76.60","44.23","KINGSTON A","6104152","2019-01-02 14:00","2019","01","02","14:00","-7.8","","-14.4","","59","","","M","8","","9","","","M","101.39","","","","-12","","NA"
"-76.60","44.23","KINGSTON A","6104152","2019-01-02 15:00","2019","01","02","15:00","-7.1","","-12.7","","65","","","M","5","","9","","","M","101.31","","","","-11","","NA"
"-76.60","44.23","KINGSTON A","6104152","2019-01-02 16:00","2019","01","02","16:00","-7.0","","-11.9","","69","","","M","7","","10","","","M","101.20","","","","-12","","NA"
"-76.60","44.23","KINGSTON A","6104152","2019-01-02 17:00","2019","01","02","17:00","-7.1","","-12.8","","64","","","M","3","","16","","","M","101.03","","","","-13","","NA"
"-76.60","44.23","KINGSTON A","6104152","2019-01-02 18:00","2019","01","02","18:00","-6.9","","-12.1","","67","","","M","5","","14","","","M","100.93","","","","-13","","NA"
"-76.60","44.23","KINGSTON A","6104152","2019-01-02 19:00","2019","01","02","19:00","-6.9","","-10.9","","73","","","M","5","","9","","","M","100.79","","","","-11","","NA"
"-76.60","44.23","KINGSTON A","6104152","2019-01-02 20:00","2019","01","02","20:00","-7.5","","-9.1","","88","","","M","4","","10","","","M","100.72","","","","-12","","NA"
"-76.60","44.23","KINGSTON A","6104152","2019-01-02 21:00","2019","01","02","21:00","-7.3","","-8.6","","90","","","M","5","","14","","","M","100.59","","","","-13","","NA"
"-76.60","44.23","KINGSTON A","6104152","2019-01-02 22:00","2019","01","02","22:00","-7.3","","-8.5","","91","","","M","5","","12","","","M","100.44","","","","-13","","NA"
"-76.60","44.23","KINGSTON A","6104152","2019-01-02 23:00","2019","01","02","23:00","-7.2","","-8.3","","92","","","M","6","","13","","","M","100.27","","","","-13","","NA"
"-76.60","44.23","KINGSTON A","6104152","2019-01-03 00:00","2019","01","03","00:00","-7.3","","-8.4","","92","","","M","5","","15","","","M","100.10","","","","-13","","NA"
"-76.60","44.23","KINGSTON A","6104152","2019-01-03 01:00","2019","01","03","01:00","-7.3","","-8.3","","93","","","M","4","","8","","","M","100.03","","","","-11","","NA"
"-76.60","44.23","KINGSTON A","6104152","2019-01-03 02:00","2019","01","03","02:00","-7.5","","-8.6","","92","","","M","3","","9","","","M","99.98","","","","-12","","NA"
"-76.60","44.23","KINGSTON A","6104152","2019-01-03 03:00","2019","01","03","03:00","-7.5","","-8.5","","92","","","M","3","","12","","","M","99.89","","","","-13","","NA"
"-76.60","44.23","KINGSTON A","6104152","2019-01-03 04:00","2019","01","03","04:00","-7.5","","-8.6","","92","","","M","1","","15","","","M","99.83","","","","-14","","NA"
"-76.60","44.23","KINGSTON A","6104152","2019-01-03 05:00","2019","01","03","05:00","-7.6","","-8.7","","92","","","M","36","","12","","","M","99.85","","","","-13","","NA"
"-76.60","44.23","KINGSTON A","6104152","2019-01-03 06:00","2019","01","03","06:00","-7.7","","-9.0","","90","","","M","31","","15","","","M","100.00","","","","-14","","NA"
"-76.60","44.23","KINGSTON A","6104152","2019-01-03 07:00","2019","01","03","07:00","-8.9","","-10.6","","88","","","M","31","","10","","","M","100.12","","","","-14","","NA"
"-76.60","44.23","KINGSTON A","6104152","2019-01-03 08:00","2019","01","03","08:00","-8.0","","-9.8","","87","","","M","28","","3","","","M","100.23","","","","-10","","NA"
"-76.60","44.23","KINGSTON A","6104152","2019-01-03 09:00","2019","01","03","09:00","-7.2","","-8.9","","87","","","M","28","","2","","","M","100.33","","","","-8","","NA"
"-76.60","44.23","KINGSTON A","6104152","2019-01-03 10:00","2019","01","03","10:00","-6.1","","-7.8","","87","","","M","28","","3","","","M","100.36","","","","-8","","NA"
"-76.60","44.23","KINGSTON A","6104152","2019-01-03 11:00","2019","01","03","11:00","-3.9","","-5.8","","86","","","M","26","","5","","","M","100.29","","","","-6","","NA"
"-76.60","44.23","KINGSTON A","6104152","2019-01-03 12:00","2019","01","03","12:00","-2.2","","-4.6","","84","","","M","24","","9","","","M","100.19","","","","-6","","NA"
"-76.60","44.23","KINGSTON A","6104152","2019-01-03 13:00","2019","01","03","13:00","-1.3","","-3.8","","83","","","M","26","","12","","","M","100.15","","","","-5","","NA"
"-76.60","44.23","KINGSTON A","6104152","2019-01-03 14:00","2019","01","03","14:00","-0.6","","-2.9","","85","","","M","27","","11","","","M","100.15","","","","-4","","NA"
"-76.60","44.23","KINGSTON A","6104152","2019-01-03 15:00","2019","01","03","15:00","0.0","","-4.1","","74","","","M","25","","23","","","M","100.16","","","","-6","","NA"
"-76.60","44.23","KINGSTON A","6104152","2019-01-03 16:00","2019","01","03","16:00","-0.3","","-4.3","","75","","","M","25","","19","","","M","100.19","","","","-5","","NA"
"-76.60","44.23","KINGSTON A","6104152","2019-01-03 17:00","2019","01","03","17:00","-0.3","","-4.4","","74","","","M","26","","15","","","M","100.21","","","","-5","","NA"
"-76.60","44.23","KINGSTON A","6104152","2019-01-03 18:00","2019","01","03","18:00","-0.3","","-3.8","","77","","","M","26","","13","","","M","100.22","","","","-4","","NA"
"-76.60","44.23","KINGSTON A","6104152","2019-01-03 19:00","2019","01","03","19:00","0.0","","-3.1","","80","","","M","22","","14","","","M","100.19","","","","-4","","NA"
"-76.60","44.23","KINGSTON A","6104152","2019-01-03 20:00","2019","01","03","20:00","0.8","","-3.7","","72","","","M","24","","22","","","M","100.16","","","","","","NA"
"-76.60","44.23","KINGSTON A","6104152","2019-01-03 21:00","2019","01","03","21:00","0.5","","-3.9","","72","","","M","25","","20","","","M","100.15","","","","","","NA"
"-76.60","44.23","KINGSTON A","6104152","2019-01-03 22:00","2019","01","03","22:00","0.6","","-3.3","","76","","","M","24","","18","","","M","100.09","","","","","","NA"
"-76.60","44.23","KINGSTON A","6104152","2019-01-03 23:00","2019","01","03","23:00","0.4","","-3.0","","78","","","M","21","","17","","","M","99.98","","","","","","NA"
"-76.60","44.23","KINGSTON A","6104152","2019-01-04 00:00","2019","01","04","00:00","1.6","","-1.5","","80","","","M","24","","21","","","M","99.98","","","","","","NA"
"-76.60","44.23","KINGSTON A","6104152","2019-01-04 01:00","2019","01","04","01:00","1.7","","-1.6","","79","","","M","23","","23","","","M","99.93","","","","","","NA"
"-76.60","44.23","KINGSTON A","6104152","2019-01-04 02:00","2019","01","04","02:00","1.9","","-1.3","","80","","","M","23","","29","","","M","99.91","","","","","","NA"
"-76.60","44.23","KINGSTON A","6104152","2019-01-04 03:00","2019","01","04","03:00","2.3","","-0.5","","82","","","M","22","","32","","","M","99.89","","","","","","NA"
"-76.60","44.23","KINGSTON A","6104152","2019-01-04 04:00","2019","01","04","04:00","2.3","","0.0","","85","","","M","22","","27","","","M","99.82","","","","","","NA"
"-76.60","44.23","KINGSTON A","6104152","2019-01-04 05:00","2019","01","04","05:00","2.0","","0.4","","89","","","M","21","","20","","","M","99.77","","","","","","NA"
"-76.60","44.23","KINGSTON A","6104152","2019-01-04 06:00","2019","01","04","06:00","2.2","","0.3","","87","","","M","21","","25","","","M","99.77","","","","","","NA"
"-76.60","44.23","KINGSTON A","6104152","2019-01-04 07:00","2019","01","04","07:00","2.1","","0.3","","88","","","M","21","","28","","","M","99.74","","","","","","NA"
"-76.60","44.23","KINGSTON A","6104152","2019-01-04 08:00","2019","01","04","08:00","2.3","","0.5","","88","","","M","22","","27","","","M","99.75","","","","","","NA"
"-76.60","44.23","KINGSTON A","6104152","2019-01-04 09:00","2019","01","04","09:00","2.3","","0.5","","88","","","M","21","","30","","","M","99.77","","","","","","NA"
"-76.60","44.23","KINGSTON A","6104152","2019-01-04 10:00","2019","01","04","10:00","2.5","","0.7","","88","","","M","21","","27","","","M","99.79","","","","","","NA"
"-76.60","44.23","KINGSTON A","6104152","2019-01-04 11:00","2019","01","04","11:00","2.8","","0.7","","86","","","M","22","","28","","","M","99.75","","","","","","NA"
"-76.60","44.23","KINGSTON A","6104152","2019-01-04 12:00","2019","01","04","12:00","3.1","","0.7","","84","","","M","22","","26","","","M","99.67","","","","","","NA"
"-76.60","44.23","KINGSTON A","6104152","2019-01-04 13:00","2019","01","04","13:00","3.6","","0.6","","81","","","M","24","","24","","","M","99.63","","","","","","NA"
"-76.60","44.23","KINGSTON A","6104152","2019-01-04 14:00","2019","01","04","14:00","4.4","","0.7","","77","","","M","23","","22","","","M","99.56","","","","","","NA"
"-76.60","44.23","KINGSTON A","6104152","2019-01-04 15:00","2019","01","04","15:00","4.8","","0.6","","74","","","M","23","","23","","","M","99.56","","","","","","NA"
"-76.60","44.23","KINGSTON A","6104152","2019-01-04 16:00","2019","01","04","16:00","3.4","","1.2","","86","","","M","20","","13","","","M","99.56","","","","","","NA"
"-76.60","44.23","KINGSTON A","6104152","2019-01-04 17:00","2019","01","04","17:00","2.6","","1.8","","94","","","M","20","","19","","","M","99.57","","","","","","NA"
"-76.60","44.23","KINGSTON A","6104152","2019-01-04 18:00","2019","01","04","18:00","2.2","","1.5","","95","","","M","19","","17","","","M","99.57","","","","","","NA"
"-76.60","44.23","KINGSTON A","6104152","2019-01-04 19:00","2019","01","04","19:00","2.0","","1.3","","95","","","M","21","","11","","","M","99.55","","","","","","NA"
"-76.60","44.23","KINGSTON A","6104152","2019-01-04 20:00","2019","01","04","20:00","2.1","","1.2","","94","","","M","20","","12","","","M","99.55","","","","","","NA"
"-76.60","44.23","KINGSTON A","6104152","2019-01-04 21:00","2019","01","04","21:00","0.7","","0.3","","97","","","M","0","","1","","","M","99.48","","","","","","NA"
"-76.60","44.23","KINGSTON A","6104152","2019-01-04 22:00","2019","01","04","22:00","-0.8","","-0.8","","100","","","M","35","","4","","","M","99.51","","","","-2","","NA"
"-76.60","44.23","KINGSTON A","6104152","2019-01-04 23:00","2019","01","04","23:00","-2.5","","-2.5","","100","","","M","34","","10","","","M","99.46","","","","-6","","NA"
"-76.60","44.23","KINGSTON A","6104152","2019-01-05 00:00","2019","01","05","00:00","-1.4","","-1.4","","100","","","M","6","","5","","","M","99.40","","","","-3","","NA"
"-76.60","44.23","KINGSTON A","6104152","2019-01-05 01:00","2019","01","05","01:00","-3.3","","-3.3","","100","","","M","6","","7","","","M","99.35","","","","-6","","NA"
"-76.60","44.23","KINGSTON A","6104152","2019-01-05 02:00","2019","01","05","02:00","-3.4","","-3.4","","100","","","M","36","","9","","","M","99.34","","","","-7","","NA"
"-76.60","44.23","KINGSTON A","6104152","2019-01-05 03:00","2019","01","05","03:00","-2.6","","-2.6","","100","","","M","2","","7","","","M","99.29","","","","-5","","NA"
"-76.60","44.23","KINGSTON A","6104152","2019-01-05 04:00","2019","01","05","04:00","-3.7","","-3.8","","99","","","M","35","","9","","","M","99.29","","","","-7","","NA"
"-76.60","44.23","KINGSTON A","6104152","2019-01-05 05:00","2019","01","05","05:00","-3.4","","-3.6","","99","","","M","2","","9","","","M","99.25","","","","-7","","NA"
"-76.60","44.23","KINGSTON A","6104152","2019-01-05 06:00","2019","01","05","06:00","-4.0","","-4.2","","99","","","M","1","","9","","","M","99.30","","","","-8","","NA"
"-76.60","44.23","KINGSTON A","6104152","2019-01-05 07:00","2019","01","05","07:00","-3.4","","-3.5","","99","","","M","35","","19","","","M","99.32","","","","-9","","NA"
"-76.60","44.23","KINGSTON A","6104152","2019-01-05 08:00","2019","01","05","08:00","-3.0","","-3.2","","99","","","M","1","","12","","","M","99.28","","","","-7","","NA"
"-76.60","44.23","KINGSTON A","6104152","2019-01-05 09:00","2019","01","05","09:00","-0.3","","-0.5","","99","","","M","2","","11","","","M","99.35","","","","-4","","NA"
"-76.60","44.23","KINGSTON A","6104152","2019-01-05 10:00","2019","01","05","10:00","-0.4","","-1.0","","96","","","M","1","","8","","","M","99.41","","","","-3","","NA"
"-76.60","44.23","KINGSTON A","6104152","2019-01-05 11:00","2019","01","05","11:00","0.9","","0.0","","94","","","M","4","","9","","","M","99.37","","","","","","NA"
"-76.60","44.23","KINGSTON A","6104152","2019-01-05 12:00","2019","01","05","12:00","2.1","","0.8","","91","","","M","3","","9","","","M","99.33","","","","","","NA"
"-76.60","44.23","KINGSTON A","6104152","2019-01-05 13:00","2019","01","05","13:00","2.1","","0.7","","91","","","M","36","","15","","","M","99.30","","","","","","NA"
"-76.60","44.23","KINGSTON A","6104152","2019-01-05 14:00","2019","01","05","14:00","2.2","","0.6","","89","","","M","31","","9","","","M","99.31","","","","","","NA"
"-76.60","44.23","KINGSTON A","6104152","2019-01-05 15:00","2019","01","05","15:00","3.2","","-0.5","","76","","","M","35","","7","","","M","99.39","","","","","","NA"
"-76.60","44.23","KINGSTON A","6104152","2019-01-05 16:00","2019","01","05","16:00","2.7","","-0.6","","78","","","M","31","","8","","","M","99.48","","","","","","NA"
"-76.60","44.23","KINGSTON A","6104152","2019-01-05 17:00","2019","01","05","17:00","2.4","","-0.5","","81","","","M","27","","6","","","M","99.49","","","","","","NA"
"-76.60","44.23","KINGSTON A","6104152","2019-01-05 18:00","2019","01","05","18:00","2.1","","-0.3","","84","","","M","24","","6","","","M","99.54","","","","","","NA"
"-76.60","44.23","KINGSTON A","6104152","2019-01-05 19:00","2019","01","05","19:00","2.0","","0.2","","88","","","M","23","","9","","","M","99.58","","","","","","NA"
"-76.60","44.23","KINGSTON A","6104152","2019-01-05 20:00","2019","01","05","20:00","1.8","","0.7","","92","","","M","24","","8","","","M","99.61","","","","","","NA"
"-76.60","44.23","KINGSTON A","6104152","2019-01-05 21:00","2019","01","05","21:00","1.7","","0.7","","93","","","M","24","","12","","","M","99.55","","","","","","NA"
"-76.60","44.23","KINGSTON A","6104152","2019-01-05 22:00","2019","01","05","22:00","1.7","","0.6","","93","","","M","26","","6","","","M","99.57","","","","","","NA"
"-76.60","44.23","KINGSTON A","6104152","2019-01-05 23:00","2019","01","05","23:00","1.7","","0.7","","94","","","M","23","","7","","","M","99.54","","","","","","NA"
"-76.60","44.23","KINGSTON A","6104152","2019-01-06 00:00","2019","01","06","00:00","1.8","","0.4","","91","","","M","24","","11","","","M","99.49","","","","","","NA"
"-76.60","44.23","KINGSTON A","6104152","2019-01-06 01:00","2019","01","06","01:00","1.4","","0.0","","90","","","M","26","","7","","","M","99.49","","","","","","NA"
"-76.60","44.23","KINGSTON A","6104152","2019-01-06 02:00","2019","01","06","02:00","1.2","","0.0","","92","","","M","27","","11","","","M","99.57","","","","","","NA"
"-76.60","44.23","KINGSTON A","6104152","2019-01-06 03:00","2019","01","06","03:00","1.0","","-0.1","","93","","","M","28","","11","","","M","99.64","","","","","","NA"
"-76.60","44.23","KINGSTON A","6104152","2019-01-06 04:00","2019","01","06","04:00","1.1","","0.1","","93","","","M","29","","15","","","M","99.69","","","","","","NA"
"-76.60","44.23","KINGSTON A","6104152","2019-01-06 05:00","2019","01","06","05:00","1.0","","0.0","","93","","","M","29","","12","","","M","99.73","","","","","","NA"
"-76.60","44.23","KINGSTON A","6104152","2019-01-06 06:00","2019","01","06","06:00","1.1","","0.2","","93","","","M","31","","13","","","M","99.85","","","","","","NA"
"-76.60","44.23","KINGSTON A","6104152","2019-01-06 07:00","2019","01","06","07:00","1.3","","-0.5","","88","","","M","32","","20","","","M","100.03","","","","","","NA"
"-76.60","44.23","KINGSTON A","6104152","2019-01-06 08:00","2019","01","06","08:00","0.9","","-1.5","","84","","","M","33","","15","","","M","100.23","","","","","","NA"
"-76.60","44.23","KINGSTON A","6104152","2019-01-06 09:00","2019","01","06","09:00","-0.5","","-6.0","","67","","","M","35","","36","","","M","100.46","","","","-8","","NA"
"-76.60","44.23","KINGSTON A","6104152","2019-01-06 10:00","2019","01","06","10:00","-0.7","","-5.8","","68","","","M","35","","34","","","M","100.64","","","","-8","","NA"
"-76.60","44.23","KINGSTON A","6104152","2019-01-06 11:00","2019","01","06","11:00","-0.8","","-7.7","","60","","","M","34","","34","","","M","100.73","","","","-8","","NA"
"-76.60","44.23","KINGSTON A","6104152","2019-01-06 12:00","2019","01","06","12:00","-0.7","","-9.8","","50","","","M","35","","36","","","M","100.82","","","","-8","","NA"
"-76.60","44.23","KINGSTON A","6104152","2019-01-06 13:00","2019","01","06","13:00","-2.2","","-8.7","","62","","","M","34","","20","","","M","100.91","","","","-8","","NA"
"-76.60","44.23","KINGSTON A","6104152","2019-01-06 14:00","2019","01","06","14:00","-1.9","","-11.7","","47","","","M","35","","27","","","M","101.00","","","","-9","","NA"
"-76.60","44.23","KINGSTON A","6104152","2019-01-06 15:00","2019","01","06","15:00","-2.7","","-11.7","","50","","","M","34","","25","","","M","101.16","","","","-9","","NA"
"-76.60","44.23","KINGSTON A","6104152","2019-01-06 16:00","2019","01","06","16:00","-3.9","","-10.3","","62","","","M","34","","31","","","M","101.33","","","","-12","","NA"
"-76.60","44.23","KINGSTON A","6104152","2019-01-06 17:00","2019","01","06","17:00","-4.9","","-13.8","","50","","","M","33","","21","","","M","101.50","","","","-12","","NA"
"-76.60","44.23","KINGSTON A","6104152","2019-01-06 18:00","2019","01","06","18:00","-5.8","","-13.2","","56","","","M","34","","15","","","M","101.63","","","","-12","","NA"
"-76.60","44.23","KINGSTON A","6104152","2019-01-06 19:00","2019","01","06","19:00","-6.6","","-13.7","","57","","","M","35","","28","","","M","101.80","","","","-15","","NA"
"-76.60","44.23","KINGSTON A","6104152","2019-01-06 20:00","2019","01","06","20:00","-7.5","","-13.9","","60","","","M","1","","22","","","M","101.91","","","","-15","","NA"
"-76.60","44.23","KINGSTON A","6104152","2019-01-06 21:00","2019","01","06","21:00","-8.5","","-13.3","","68","","","M","36","","16","","","M","102.03","","","","-15","","NA"
"-76.60","44.23","KINGSTON A","6104152","2019-01-06 22:00","2019","01","06","22:00","-9.3","","-14.5","","66","","","M","36","","16","","","M","102.08","","","","-16","","NA"
"-76.60","44.23","KINGSTON A","6104152","2019-01-06 23:00","2019","01","06","23:00","-10.0","","-15.3","","65","","","M","36","","18","","","M","102.14","","","","-17","","NA"
"-76.60","44.23","KINGSTON A","6104152","2019-01-07 00:00","2019","01","07","00:00","-10.7","","-15.8","","67","","","M","36","","19","","","M","102.14","","","","-19","","NA"
"-76.60","44.23","KINGSTON A","6104152","2019-01-07 01:00","2019","01","07","01:00","-11.3","","-16.4","","67","","","M","1","","19","","","M","102.22","","","","-19","","NA"
"-76.60","44.23","KINGSTON A","6104152","2019-01-07 02:00","2019","01","07","02:00","-11.9","","-16.7","","68","","","M","1","","15","","","M","102.31","","","","-19","","NA"
"-76.60","44.23","KINGSTON A","6104152","2019-01-07 03:00","2019","01","07","03:00","-12.5","","-16.9","","70","","","M","2","","10","","","M","102.32","","","","-18","","NA"
"-76.60","44.23","KINGSTON A","6104152","2019-01-07 04:00","2019","01","07","04:00","-12.8","","-17.3","","70","","","M","2","","14","","","M","102.31","","","","-20","","NA"
"-76.60","44.23","KINGSTON A","6104152","2019-01-07 05:00","2019","01","07","05:00","-13.3","","-17.5","","71","","","M","3","","8","","","M","102.35","","","","-18","","NA"
"-76.60","44.23","KINGSTON A","6104152","2019-01-07 06:00","2019","01","07","06:00","-13.3","","-17.6","","71","","","M","5","","13","","","M","102.33","","","","-20","","NA"
"-76.60","44.23","KINGSTON A","6104152","2019-01-07 07:00","2019","01","07","07:00","-13.3","","-17.2","","73","","","M","4","","10","","","M","102.39","","","","-19","","NA"
"-76.60","44.23","KINGSTON A","6104152","2019-01-07 08:00","2019","01","07","08:00","-13.0","","-17.2","","71","","","M","3","","5","","","M","102.52","","","","-16","","NA"
"-76.60","44.23","KINGSTON A","6104152","2019-01-07 09:00","2019","01","07","09:00","-12.4","","-17.6","","65","","","M","5","","13","","","M","102.42","","","","-19","","NA"
"-76.60","44.23","KINGSTON A","6104152","2019-01-07 10:00","2019","01","07","10:00","-11.8","","-16.4","","69","","","M","7","","18","","","M","102.36","","","","-20","","NA"
"-76.60","44.23","KINGSTON A","6104152","2019-01-07 11:00","2019","01","07","11:00","-11.0","","-14.9","","74","","","M","6","","17","","","M","102.23","","","","-18","","NA"
"-76.60","44.23","KINGSTON A","6104152","2019-01-07 12:00","2019","01","07","12:00","-10.4","","-15.1","","69","","","M","6","","10","","","M","102.07","","","","-16","","NA"
"-76.60","44.23","KINGSTON A","6104152","2019-01-07 13:00","2019","01","07","13:00","-9.6","","-14.9","","66","","","M","7","","15","","","M","101.93","","","","-16","","NA"
"-76.60","44.23","KINGSTON A","6104152","2019-01-07 14:00","2019","01","07","14:00","-9.0","","-15.2","","61","","","M","6","","13","","","M","101.75","","","","-15","","NA"
"-76.60","44.23","KINGSTON A","6104152","2019-01-07 15:00","2019","01","07","15:00","-8.5","","-15.6","","57","","","M","8","","21","","","M","101.61","","","","-16","","NA"
"-76.60","44.23","KINGSTON A","6104152","2019-01-07 16:00","2019","01","07","16:00","-7.9","","-14.3","","60","","","M","8","","20","","","M","101.43","","","","-15","","NA"
"-76.60","44.23","KINGSTON A","6104152","2019-01-07 17:00","2019","01","07","17:00","-7.3","","-13.3","","63","","","M","6","","14","","","M","101.25","","","","-13","","NA"
"-76.60","44.23","KINGSTON A","6104152","2019-01-07 18:00","2019","01","07","18:00","-6.8","","-13.4","","60","","","M","7","","19","","","M","101.03","","","","-14","","NA"
"-76.60","44.23","KINGSTON A","6104152","2019-01-07 19:00","2019","01","07","19:00","-5.1","","-11.5","","61","","","M","9","","23","","","M","100.83","","","","-12","","NA"
"-76.60","44.23","KINGSTON A","6104152","2019-01-07 20:00","2019","01","07","20:00","-5.1","","-10.7","","65","","","M","8","","18","","","M","100.58","","","","-11","","NA"
"-76.60","44.23","KINGSTON A","6104152","2019-01-07 21:00","2019","01","07","21:00","-3.2","","-11.1","","55","","","M","9","","18","","","M","100.40","","","","-9","","NA"
"-76.60","44.23","KINGSTON A","6104152","2019-01-07 22:00","2019","01","07","22:00","-1.8","","-8.1","","62","","","M","13","","13","","","M","100.34","","","","-6","","NA"
"-76.60","44.23","KINGSTON A","6104152","2019-01-07 23:00","2019","01","07","23:00","-0.3","","-4.2","","75","","","M","15","","39","","","M","100.08","","","","-8","","NA"
"-76.60","44.23","KINGSTON A","6104152","2019-01-08 00:00","2019","01","08","00:00","-0.6","","-1.7","","92","","","M","17","","45","","","M","99.94","","","","-9","","NA"
"-76.60","44.23","KINGSTON A","6104152","2019-01-08 01:00","2019","01","08","01:00","-0.1","","-0.9","","94","","","M","17","","42","","","M","99.81","","","","-8","","NA"
"-76.60","44.23","KINGSTON A","6104152","2019-01-08 02:00","2019","01","08","02:00","1.1","","-0.1","","92","","","M","17","","36","","","M","99.76","","","","","","NA"
"-76.60","44.23","KINGSTON A","6104152","2019-01-08 03:00","2019","01","08","03:00","1.3","","0.1","","92","","","M","17","","36","","","M","99.68","","","","","","NA"
"-76.60","44.23","KINGSTON A","6104152","2019-01-08 04:00","2019","01","08","04:00","2.3","","0.6","","88","","","M","18","","44","","","M","99.61","","","","","","NA"
"-76.60","44.23","KINGSTON A","6104152","2019-01-08 05:00","2019","01","08","05:00","2.7","","0.8","","88","","","M","19","","37","","","M","99.58","","","","","","NA"
"-76.60","44.23","KINGSTON A","6104152","2019-01-08 06:00","2019","01","08","06:00","2.8","","1.1","","89","","","M","19","","37","","","M","99.61","","","","","","NA"
"-76.60","44.23","KINGSTON A","6104152","2019-01-08 07:00","2019","01","08","07:00","3.2","","1.7","","90","","","M","19","","40","","","M","99.66","","","","","","NA"
"-76.60","44.23","KINGSTON A","6104152","2019-01-08 08:00","2019","01","08","08:00","3.4","","1.9","","90","","","M","20","","32","","","M","99.76","","","","","","NA"
"-76.60","44.23","KINGSTON A","6104152","2019-01-08 09:00","2019","01","08","09:00","3.5","","2.6","","94","","","M","19","","30","","","M","99.81","","","","","","NA"
"-76.60","44.23","KINGSTON A","6104152","2019-01-08 10:00","2019","01","08","10:00","3.5","","2.8","","95","","","M","19","","22","","","M","99.81","","","","","","NA"
"-76.60","44.23","KINGSTON A","6104152","2019-01-08 11:00","2019","01","08","11:00","3.4","","2.5","","94","","","M","18","","22","","","M","99.81","","","","","","NA"
"-76.60","44.23","KINGSTON A","6104152","2019-01-08 12:00","2019","01","08","12:00","3.7","","2.9","","94","","","M","16","","16","","","M","99.61","","","","","","NA"
"-76.60","44.23","KINGSTON A","6104152","2019-01-08 13:00","2019","01","08","13:00","3.1","","2.5","","96","","","M","17","","16","","","M","99.51","","","","","","NA"
"-76.60","44.23","KINGSTON A","6104152","2019-01-08 14:00","2019","01","08","14:00","3.0","","2.5","","96","","","M","15","","7","","","M","99.43","","","","","","NA"
"-76.60","44.23","KINGSTON A","6104152","2019-01-08 15:00","2019","01","08","15:00","3.0","","2.2","","94","","","M","15","","8","","","M","99.37","","","","","","NA"
"-76.60","44.23","KINGSTON A","6104152","2019-01-08 16:00","2019","01","08","16:00","3.2","","2.1","","92","","","M","11","","3","","","M","99.27","","","","","","NA"
"-76.60","44.23","KINGSTON A","6104152","2019-01-08 17:00","2019","01","08","17:00","3.5","","2.3","","92","","","M","9","","7","","","M","99.23","","","","","","NA"
"-76.60","44.23","KINGSTON A","6104152","2019-01-08 18:00","2019","01","08","18:00","2.8","","2.3","","96","","","M","5","","7","","","M","99.18","","","","","","NA"
"-76.60","44.23","KINGSTON A","6104152","2019-01-08 19:00","2019","01","08","19:00","2.3","","2.3","","100","","","M","5","","16","","","M","99.07","","","","","","NA"
"-76.60","44.23","KINGSTON A","6104152","2019-01-08 20:00","2019","01","08","20:00","1.8","","1.8","","100","","","M","8","","10","","","M","99.07","","","","","","NA"
"-76.60","44.23","KINGSTON A","6104152","2019-01-08 21:00","2019","01","08","21:00","1.9","","1.9","","100","","","M","5","","12","","","M","98.92","","","","","","NA"
"-76.60","44.23","KINGSTON A","6104152","2019-01-08 22:00","2019","01","08","22:00","1.8","","1.8","","100","","","M","4","","7","","","M","98.90","","","","","","NA"
"-76.60","44.23","KINGSTON A","6104152","2019-01-08 23:00","2019","01","08","23:00","1.7","","1.7","","100","","","M","4","","11","","","M","98.80","","","","","","NA"
"-76.60","44.23","KINGSTON A","6104152","2019-01-09 00:00","2019","01","09","00:00","1.7","","1.7","","100","","","M","36","","9","","","M","98.76","","","","","","NA"
"-76.60","44.23","KINGSTON A","6104152","2019-01-09 01:00","2019","01","09","01:00","1.6","","1.6","","100","","","M","32","","13","","","M","98.77","","","","","","NA"
"-76.60","44.23","KINGSTON A","6104152","2019-01-09 02:00","2019","01","09","02:00","0.5","","0.5","","100","","","M","33","","14","","","M","98.80","","","","","","NA"
"-76.60","44.23","KINGSTON A","6104152","2019-01-09 03:00","2019","01","09","03:00","0.4","","0.4","","100","","","M","32","","12","","","M","98.83","","","","","","NA"
"-76.60","44.23","KINGSTON A","6104152","2019-01-09 04:00","2019","01","09","04:00","0.5","","0.5","","100","","","M","30","","10","","","M","98.86","","","","","","NA"
"-76.60","44.23","KINGSTON A","6104152","2019-01-09 05:00","2019","01","09","05:00","0.7","","0.7","","100","","","M","29","","15","","","M","98.90","","","","","","NA"
"-76.60","44.23","KINGSTON A","6104152","2019-01-09 06:00","2019","01","09","06:00","0.8","","0.7","","100","","","M","29","","13","","","M","98.95","","","","","","NA"
"-76.60","44.23","KINGSTON A","6104152","2019-01-09 07:00","2019","01","09","07:00","0.9","","0.9","","100","","","M","28","","10","","","M","98.98","","","","","","NA"
"-76.60","44.23","KINGSTON A","6104152","2019-01-09 08:00","2019","01","09","08:00","1.6","","1.4","","98","","","M","29","","16","","","M","99.02","","","","","","NA"
"-76.60","44.23","KINGSTON A","6104152","2019-01-09 09:00","2019","01","09","09:00","1.6","","0.9","","95","","","M","28","","20","","","M","99.09","","","","","","NA"
"-76.60","44.23","KINGSTON A","6104152","2019-01-09 10:00","2019","01","09","10:00","1.1","","-0.2","","91","","","M","29","","24","","","M","99.14","","","","","","NA"
"-76.60","44.23","KINGSTON A","6104152","2019-01-09 11:00","2019","01","09","11:00","0.6","","-0.9","","89","","","M","28","","26","","","M","99.10","","","","","","NA"
"-76.60","44.23","KINGSTON A","6104152","2019-01-09 12:00","2019","01","09","12:00","0.7","","-1.5","","86","","","M","29","","23","","","M","99.07","","","","","","NA"
"-76.60","44.23","KINGSTON A","6104152","2019-01-09 13:00","2019","01","09","13:00","0.8","","-2.4","","79","","","M","28","","27","","","M","99.07","","","","","","NA"
"-76.60","44.23","KINGSTON A","6104152","2019-01-09 14:00","2019","01","09","14:00","0.6","","-3.6","","74","","","M","28","","28","","","M","99.09","","","","","","NA"
"-76.60","44.23","KINGSTON A","6104152","2019-01-09 15:00","2019","01","09","15:00","0.3","","-4.2","","72","","","M","29","","21","","","M","99.14","","","","","","NA"
"-76.60","44.23","KINGSTON A","6104152","2019-01-09 16:00","2019","01","09","16:00","-0.4","","-4.4","","74","","","M","29","","22","","","M","99.20","","","","-6","","NA"
"-76.60","44.23","KINGSTON A","6104152","2019-01-09 17:00","2019","01","09","17:00","-0.9","","-5.0","","74","","","M","29","","28","","","M","99.24","","","","-7","","NA"
"-76.60","44.23","KINGSTON A","6104152","2019-01-09 18:00","2019","01","09","18:00","-1.6","","-4.3","","82","","","M","28","","24","","","M","99.27","","","","-8","","NA"
"-76.60","44.23","KINGSTON A","6104152","2019-01-09 19:00","2019","01","09","19:00","-1.9","","-4.3","","84","","","M","29","","20","","","M","99.26","","","","-8","","NA"
"-76.60","44.23","KINGSTON A","6104152","2019-01-09 20:00","2019","01","09","20:00","-2.3","","-4.8","","84","","","M","29","","23","","","M","99.25","","","","-9","","NA"
"-76.60","44.23","KINGSTON A","6104152","2019-01-09 21:00","2019","01","09","21:00","-2.5","","-5.4","","80","","","M","29","","27","","","M","99.24","","","","-9","","NA"
"-76.60","44.23","KINGSTON A","6104152","2019-01-09 22:00","2019","01","09","22:00","-2.5","","-5.8","","78","","","M","30","","26","","","M","99.23","","","","-9","","NA"
"-76.60","44.23","KINGSTON A","6104152","2019-01-09 23:00","2019","01","09","23:00","-2.5","","-6.1","","76","","","M","30","","25","","","M","99.24","","","","-9","","NA"
"-76.60","44.23","KINGSTON A","6104152","2019-01-10 00:00","2019","01","10","00:00","-2.9","","-6.6","","76","","","M","31","","37","","","M","99.27","","","","-11","","NA"
"-76.60","44.23","KINGSTON A","6104152","2019-01-10 01:00","2019","01","10","01:00","-3.3","","-7.1","","76","","","M","31","","34","","","M","99.34","","","","-11","","NA"
"-76.60","44.23","KINGSTON A","6104152","2019-01-10 02:00","2019","01","10","02:00","-3.5","","-7.4","","74","","","M","31","","31","","","M","99.42","","","","-11","","NA"
"-76.60","44.23","KINGSTON A","6104152","2019-01-10 03:00","2019","01","10","03:00","-3.9","","-8.6","","70","","","M","33","","27","","","M","99.48","","","","-11","","NA"
"-76.60","44.23","KINGSTON A","6104152","2019-01-10 04:00","2019","01","10","04:00","-5.0","","-9.6","","70","","","M","32","","32","","","M","99.53","","","","-13","","NA"
"-76.60","44.23","KINGSTON A","6104152","2019-01-10 05:00","2019","01","10","05:00","-5.6","","-10.3","","70","","","M","33","","34","","","M","99.61","","","","-14","","NA"
"-76.60","44.23","KINGSTON A","6104152","2019-01-10 06:00","2019","01","10","06:00","-6.2","","-9.2","","80","","","M","33","","31","","","M","99.71","","","","-15","","NA"
"-76.60","44.23","KINGSTON A","6104152","2019-01-10 07:00","2019","01","10","07:00","-6.5","","-9.2","","81","","","M","31","","32","","","M","99.80","","","","-15","","NA"
"-76.60","44.23","KINGSTON A","6104152","2019-01-10 08:00","2019","01","10","08:00","-6.8","","-9.7","","80","","","M","33","","33","","","M","99.93","","","","-16","","NA"
"-76.60","44.23","KINGSTON A","6104152","2019-01-10 09:00","2019","01","10","09:00","-7.2","","-10.8","","76","","","M","32","","30","","","M","100.06","","","","-16","","NA"
"-76.60","44.23","KINGSTON A","6104152","2019-01-10 10:00","2019","01","10","10:00","-7.2","","-11.9","","69","","","M","31","","30","","","M","100.16","","","","-16","","NA"
"-76.60","44.23","KINGSTON A","6104152","2019-01-10 11:00","2019","01","10","11:00","-7.1","","-12.2","","67","","","M","32","","24","","","M","100.15","","","","-15","","NA"
"-76.60","44.23","KINGSTON A","6104152","2019-01-10 12:00","2019","01","10","12:00","-6.9","","-12.7","","64","","","M","32","","29","","","M","100.16","","","","-15","","NA"
"-76.60","44.23","KINGSTON A","6104152","2019-01-10 13:00","2019","01","10","13:00","-5.6","","-12.2","","60","","","M","33","","22","","","M","100.18","","","","-13","","NA"
"-76.60","44.23","KINGSTON A","6104152","2019-01-10 14:00","2019","01","10","14:00","-5.3","","-12.0","","60","","","M","33","","24","","","M","100.22","","","","-13","","NA"
"-76.60","44.23","KINGSTON A","6104152","2019-01-10 15:00","2019","01","10","15:00","-5.3","","-12.2","","59","","","M","31","","21","","","M","100.31","","","","-12","","NA"
"-76.60","44.23","KINGSTON A","6104152","2019-01-10 16:00","2019","01","10","16:00","-6.0","","-12.4","","60","","","M","32","","19","","","M","100.38","","","","-13","","NA"
"-76.60","44.23","KINGSTON A","6104152","2019-01-10 17:00","2019","01","10","17:00","-7.2","","-13.0","","64","","","M","32","","14","","","M","100.47","","","","-13","","NA"
"-76.60","44.23","KINGSTON A","6104152","2019-01-10 18:00","2019","01","10","18:00","-8.4","","-13.7","","66","","","M","32","","23","","","M","100.57","","","","-16","","NA"
"-76.60","44.23","KINGSTON A","6104152","2019-01-10 19:00","2019","01","10","19:00","-10.1","","-15.0","","68","","","M","31","","28","","","M","100.65","","","","-19","","NA"
"-76.60","44.23","KINGSTON A","6104152","2019-01-10 20:00","2019","01","10","20:00","-11.8","","-16.6","","68","","","M","33","","28","","","M","100.74","","","","-22","","NA"
"-76.60","44.23","KINGSTON A","6104152","2019-01-10 21:00","2019","01","10","21:00","-12.8","","-18.0","","66","","","M","33","","28","","","M","100.82","","","","-23","","NA"
"-76.60","44.23","KINGSTON A","6104152","2019-01-10 22:00","2019","01","10","22:00","-13.2","","-18.2","","66","","","M","32","","20","","","M","100.86","","","","-22","","NA"
"-76.60","44.23","KINGSTON A","6104152","2019-01-10 23:00","2019","01","10","23:00","-13.4","","-18.6","","66","","","M","31","","18","","","M","100.94","","","","-22","","NA"
"-76.60","44.23","KINGSTON A","6104152","2019-01-11 00:00","2019","01","11","00:00","-13.9","","-19.0","","65","","","M","30","","18","","","M","100.99","","","","-22","","NA"
"-76.60","44.23","KINGSTON A","6104152","2019-01-11 01:00","2019","01","11","01:00","-14.5","","-20.1","","63","","","M","32","","26","","","M","101.04","","","","-25","","NA"
"-76.60","44.23","KINGSTON A","6104152","2019-01-11 02:00","2019","01","11","02:00","-15.2","","-20.2","","66","","","M","32","","16","","","M","101.14","","","","-23","","NA"
"-76.60","44.23","KINGSTON A","6104152","2019-01-11 03:00","2019","01","11","03:00","-15.6","","-21.0","","64","","","M","31","","11","","","M","101.18","","","","-22","","NA"
"-76.60","44.23","KINGSTON A","6104152","2019-01-11 04:00","2019","01","11","04:00","-16.0","","-21.4","","64","","","M","33","","13","","","M","101.22","","","","-24","","NA"
"-76.60","44.23","KINGSTON A","6104152","2019-01-11 05:00","2019","01","11","05:00","-16.6","","-21.7","","65","","","M","31","","19","","","M","101.30","","","","-26","","NA"
"-76.60","44.23","KINGSTON A","6104152","2019-01-11 06:00","2019","01","11","06:00","-17.1","","-21.9","","67","","","M","33","","14","","","M","101.39","","","","-25","","NA"
"-76.60","44.23","KINGSTON A","6104152","2019-01-11 07:00","2019","01","11","07:00","-17.5","","-22.1","","68","","","M","32","","14","","","M","101.45","","","","-26","","NA"
"-76.60","44.23","KINGSTON A","6104152","2019-01-11 08:00","2019","01","11","08:00","-17.6","","-22.1","","68","","","M","32","","16","","","M","101.59","","","","-26","","NA"
"-76.60","44.23","KINGSTON A","6104152","2019-01-11 09:00","2019","01","11","09:00","-17.2","","-22.6","","63","","","M","34","","21","","","M","101.72","","","","-27","","NA"
"-76.60","44.23","KINGSTON A","6104152","2019-01-11 10:00","2019","01","11","10:00","-16.6","","-22.6","","61","","","M","35","","18","","","M","101.84","","","","-26","","NA"
"-76.60","44.23","KINGSTON A","6104152","2019-01-11 11:00","2019","01","11","11:00","-16.0","","-22.9","","56","","","M","34","","12","","","M","101.88","","","","-23","","NA"
"-76.60","44.23","KINGSTON A","6104152","2019-01-11 12:00","2019","01","11","12:00","-15.1","","-22.7","","53","","","M","35","","13","","","M","101.82","","","","-22","","NA"
"-76.60","44.23","KINGSTON A","6104152","2019-01-11 13:00","2019","01","11","13:00","-14.2","","-22.4","","50","","","M","2","","5","","","M","101.82","","","","-18","","NA"
"-76.60","44.23","KINGSTON A","6104152","2019-01-11 14:00","2019","01","11","14:00","-12.2","","-20.9","","49","","","M","30","","12","","","M","101.82","","","","-19","","NA"
"-76.60","44.23","KINGSTON A","6104152","2019-01-11 15:00","2019","01","11","15:00","-11.2","","-20.6","","46","","","M","28","","15","","","M","101.83","","","","-18","","NA"
"-76.60","44.23","KINGSTON A","6104152","2019-01-11 16:00","2019","01","11","16:00","-10.9","","-19.7","","49","","","M","26","","19","","","M","101.85","","","","-19","","NA"
"-76.60","44.23","KINGSTON A","6104152","2019-01-11 17:00","2019","01","11","17:00","-11.5","","-19.5","","52","","","M","26","","14","","","M","101.87","","","","-18","","NA"
"-76.60","44.23","KINGSTON A","6104152","2019-01-11 18:00","2019","01","11","18:00","-11.3","","-19.4","","52","","","M","26","","21","","","M","101.90","","","","-20","","NA"
"-76.60","44.23","KINGSTON A","6104152","2019-01-11 19:00","2019","01","11","19:00","-11.5","","-18.9","","55","","","M","26","","17","","","M","101.92","","","","-19","","NA"
"-76.60","44.23","KINGSTON A","6104152","2019-01-11 20:00","2019","01","11","20:00","-10.9","","-18.1","","56","","","M","26","","13","","","M","101.95","","","","-17","","NA"
"-76.60","44.23","KINGSTON A","6104152","2019-01-11 21:00","2019","01","11","21:00","-10.9","","-18.3","","55","","","M","27","","13","","","M","102.02","","","","-17","","NA"
"-76.60","44.23","KINGSTON A","6104152","2019-01-11 22:00","2019","01","11","22:00","-10.7","","-18.7","","52","","","M","32","","15","","","M","102.02","","","","-18","","NA"
"-76.60","44.23","KINGSTON A","6104152","2019-01-11 23:00","2019","01","11","23:00","-10.6","","-18.5","","53","","","M","30","","13","","","M","102.05","","","","-17","","NA"
"-76.60","44.23","KINGSTON A","6104152","2019-01-12 00:00","2019","01","12","00:00","-10.7","","-18.3","","54","","","M","33","","16","","","M","102.03","","","","-18","","NA"
"-76.60","44.23","KINGSTON A","6104152","2019-01-12 01:00","2019","01","12","01:00","-11.1","","-17.8","","58","","","M","32","","9","","","M","102.06","","","","-16","","NA"
"-76.60","44.23","KINGSTON A","6104152","2019-01-12 02:00","2019","01","12","02:00","-11.1","","-18.0","","57","","","M","33","","13","","","M","102.13","","","","-18","","NA"
"-76.60","44.23","KINGSTON A","6104152","2019-01-12 03:00","2019","01","12","03:00","-11.3","","-17.9","","58","","","M","35","","15","","","M","102.17","","","","-18","","NA"
"-76.60","44.23","KINGSTON A","6104152","2019-01-12 04:00","2019","01","12","04:00","-11.4","","-18.3","","57","","","M","34","","8","","","M","102.17","","","","-16","","NA"
"-76.60","44.23","KINGSTON A","6104152","2019-01-12 05:00","2019","01","12","05:00","-11.8","","-18.0","","60","","","M","1","","7","","","M","102.18","","","","-16","","NA"
"-76.60","44.23","KINGSTON A","6104152","2019-01-12 06:00","2019","01","12","06:00","-11.7","","-17.3","","63","","","M","35","","8","","","M","102.28","","","","-16","","NA"
"-76.60","44.23","KINGSTON A","6104152","2019-01-12 07:00","2019","01","12","07:00","-12.6","","-17.5","","67","","","M","35","","6","","","M","102.34","","","","-17","","NA"
"-76.60","44.23","KINGSTON A","6104152","2019-01-12 08:00","2019","01","12","08:00","-12.8","","-16.9","","71","","","M","36","","8","","","M","102.39","","","","-18","","NA"
"-76.60","44.23","KINGSTON A","6104152","2019-01-12 09:00","2019","01","12","09:00","-11.5","","-18.2","","58","","","M","1","","8","","","M","102.46","","","","-16","","NA"
"-76.60","44.23","KINGSTON A","6104152","2019-01-12 10:00","2019","01","12","10:00","-10.6","","-18.6","","52","","","M","1","","7","","","M","102.53","","","","-15","","NA"
"-76.60","44.23","KINGSTON A","6104152","2019-01-12 11:00","2019","01","12","11:00","-10.0","","-18.6","","50","","","M","36","","7","","","M","102.53","","","","-14","","NA"
"-76.60","44.23","KINGSTON A","6104152","2019-01-12 12:00","2019","01","12","12:00","-9.2","","-19.0","","45","","","M","31","","6","","","M","102.46","","","","-13","","NA"
"-76.60","44.23","KINGSTON A","6104152","2019-01-12 13:00","2019","01","12","13:00","-8.5","","-20.1","","39","","","M","5","","3","","","M","102.42","","","","-10","","NA"
"-76.60","44.23","KINGSTON A","6104152","2019-01-12 14:00","2019","01","12","14:00","-8.3","","-16.9","","50","","","M","19","","11","","","M","102.39","","","","-14","","NA"
"-76.60","44.23","KINGSTON A","6104152","2019-01-12 15:00","2019","01","12","15:00","-8.0","","-17.3","","47","","","M","14","","4","","","M","102.38","","","","-10","","NA"
"-76.60","44.23","KINGSTON A","6104152","2019-01-12 16:00","2019","01","12","16:00","-8.4","","-17.5","","48","","","M","23","","4","","","M","102.37","","","","-11","","NA"
"-76.60","44.23","KINGSTON A","6104152","2019-01-12 17:00","2019","01","12","17:00","-9.4","","-18.7","","47","","","M","1","","5","","","M","102.38","","","","-12","","NA"
"-76.60","44.23","KINGSTON A","6104152","2019-01-12 18:00","2019","01","12","18:00","-9.2","","-19.6","","43","","","M","4","","5","","","M","102.43","","","","-12","","NA"
"-76.60","44.23","KINGSTON A","6104152","2019-01-12 19:00","2019","01","12","19:00","-10.1","","-18.7","","50","","","M","5","","7","","","M","102.47","","","","-14","","NA"
"-76.60","44.23","KINGSTON A","6104152","2019-01-12 20:00","2019","01","12","20:00","-10.9","","-19.2","","51","","","M","5","","8","","","M","102.46","","","","-16","","NA"
"-76.60","44.23","KINGSTON A","6104152","2019-01-12 21:00","2019","01","12","21:00","-12.3","","-18.8","","59","","","M","2","","13","","","M","102.49","","","","-19","","NA"
"-76.60","44.23","KINGSTON A","6104152","2019-01-12 22:00","2019","01","12","22:00","-12.9","","-18.4","","64","","","M","5","","13","","","M","102.49","","","","-20","","NA"
"-76.60","44.23","KINGSTON A","6104152","2019-01-12 23:00","2019","01","12","23:00","-13.3","","-19.5","","60","","","M","3","","14","","","M","102.44","","","","-21","","NA"
"-76.60","44.23","KINGSTON A","6104152","2019-01-13 00:00","2019","01","13","00:00","-14.0","","-19.3","","65","","","M","3","","11","","","M","102.41","","","","-20","","NA"
"-76.60","44.23","KINGSTON A","6104152","2019-01-13 01:00","2019","01","13","01:00","-14.3","","-19.1","","68","","","M","2","","11","","","M","102.43","","","","-21","","NA"
"-76.60","44.23","KINGSTON A","6104152","2019-01-13 02:00","2019","01","13","02:00","-14.5","","-19.2","","68","","","M","2","","10","","","M","102.42","","","","-21","","NA"
"-76.60","44.23","KINGSTON A","6104152","2019-01-13 03:00","2019","01","13","03:00","-14.9","","-19.7","","67","","","M","3","","9","","","M","102.41","","","","-21","","NA"
"-76.60","44.23","KINGSTON A","6104152","2019-01-13 04:00","2019","01","13","04:00","-15.7","","-19.2","","75","","","M","4","","6","","","M","102.42","","","","-20","","NA"
"-76.60","44.23","KINGSTON A","6104152","2019-01-13 05:00","2019","01","13","05:00","-15.8","","-19.1","","76","","","M","2","","12","","","M","102.40","","","","-23","","NA"
"-76.60","44.23","KINGSTON A","6104152","2019-01-13 06:00","2019","01","13","06:00","-16.0","","-19.4","","76","","","M","3","","13","","","M","102.35","","","","-24","","NA"
"-76.60","44.23","KINGSTON A","6104152","2019-01-13 07:00","2019","01","13","07:00","-16.6","","-19.6","","77","","","M","2","","11","","","M","102.34","","","","-24","","NA"
"-76.60","44.23","KINGSTON A","6104152","2019-01-13 08:00","2019","01","13","08:00","-16.5","","-19.5","","78","","","M","2","","12","","","M","102.36","","","","-24","","NA"
"-76.60","44.23","KINGSTON A","6104152","2019-01-13 09:00","2019","01","13","09:00","-15.3","","-19.1","","73","","","M","2","","9","","","M","102.41","","","","-21","","NA"
"-76.60","44.23","KINGSTON A","6104152","2019-01-13 10:00","2019","01","13","10:00","-12.7","","-17.0","","71","","","M","3","","9","","","M","102.41","","","","-18","","NA"
"-76.60","44.23","KINGSTON A","6104152","2019-01-13 11:00","2019","01","13","11:00","-11.5","","-16.1","","69","","","M","6","","20","","","M","102.35","","","","-20","","NA"
"-76.60","44.23","KINGSTON A","6104152","2019-01-13 12:00","2019","01","13","12:00","-10.8","","-15.9","","66","","","M","5","","18","","","M","102.24","","","","-18","","NA"
"-76.60","44.23","KINGSTON A","6104152","2019-01-13 13:00","2019","01","13","13:00","-10.0","","-15.9","","62","","","M","3","","18","","","M","102.13","","","","-17","","NA"
"-76.60","44.23","KINGSTON A","6104152","2019-01-13 14:00","2019","01","13","14:00","-9.6","","-15.7","","62","","","M","6","","17","","","M","102.08","","","","-17","","NA"
"-76.60","44.23","KINGSTON A","6104152","2019-01-13 15:00","2019","01","13","15:00","-9.4","","-15.7","","61","","","M","2","","8","","","M","102.08","","","","-14","","NA"
"-76.60","44.23","KINGSTON A","6104152","2019-01-13 16:00","2019","01","13","16:00","-10.1","","-15.6","","64","","","M","6","","16","","","M","102.05","","","","-17","","NA"
"-76.60","44.23","KINGSTON A","6104152","2019-01-13 17:00","2019","01","13","17:00","-11.3","","-15.7","","71","","","M","3","","14","","","M","102.02","","","","-18","","NA"
"-76.60","44.23","KINGSTON A","6104152","2019-01-13 18:00","2019","01","13","18:00","-12.1","","-15.8","","74","","","M","5","","11","","","M","102.04","","","","-18","","NA"
"-76.60","44.23","KINGSTON A","6104152","2019-01-13 19:00","2019","01","13","19:00","-12.3","","-15.7","","76","","","M","3","","15","","","M","102.03","","","","-20","","NA"
"-76.60","44.23","KINGSTON A","6104152","2019-01-13 20:00","2019","01","13","20:00","-12.8","","-15.9","","78","","","M","4","","13","","","M","101.99","","","","-20","","NA"
"-76.60","44.23","KINGSTON A","6104152","2019-01-13 21:00","2019","01","13","21:00","-13.1","","-15.9","","80","","","M","3","","14","","","M","102.00","","","","-20","","NA"
"-76.60","44.23","KINGSTON A","6104152","2019-01-13 22:00","2019","01","13","22:00","-13.4","","-16.1","","80","","","M","4","","10","","","M","101.99","","","","-19","","NA"
"-76.60","44.23","KINGSTON A","6104152","2019-01-13 23:00","2019","01","13","23:00","-13.9","","-16.4","","82","","","M","3","","8","","","M","101.94","","","","-19","","NA"
"-76.60","44.23","KINGSTON A","6104152","2019-01-14 00:00","2019","01","14","00:00","-14.0","","-16.4","","82","","","M","4","","7","","","M","101.88","","","","-19","","NA"
"-76.60","44.23","KINGSTON A","6104152","2019-01-14 01:00","2019","01","14","01:00","-14.2","","-16.4","","84","","","M","3","","5","","","M","101.80","","","","-18","","NA"
"-76.60","44.23","KINGSTON A","6104152","2019-01-14 02:00","2019","01","14","02:00","-14.6","","-16.4","","86","","","M","36","","8","","","M","101.79","","","","-20","","NA"
"-76.60","44.23","KINGSTON A","6104152","2019-01-14 03:00","2019","01","14","03:00","-14.0","","-15.8","","86","","","M","36","","11","","","M","101.79","","","","-20","","NA"
"-76.60","44.23","KINGSTON A","6104152","2019-01-14 04:00","2019","01","14","04:00","-15.2","","-17.0","","86","","","M","34","","9","","","M","101.74","","","","-21","","NA"
"-76.60","44.23","KINGSTON A","6104152","2019-01-14 05:00","2019","01","14","05:00","-15.1","","-16.9","","86","","","M","34","","11","","","M","101.70","","","","-22","","NA"
"-76.60","44.23","KINGSTON A","6104152","2019-01-14 06:00","2019","01","14","06:00","-15.0","","-16.9","","86","","","M","36","","9","","","M","101.68","","","","-21","","NA"
"-76.60","44.23","KINGSTON A","6104152","2019-01-14 07:00","2019","01","14","07:00","-14.7","","-16.7","","85","","","M","2","","9","","","M","101.69","","","","-20","","NA"
"-76.60","44.23","KINGSTON A","6104152","2019-01-14 08:00","2019","01","14","08:00","-14.8","","-16.7","","86","","","M","2","","6","","","M","101.69","","","","-19","","NA"
"-76.60","44.23","KINGSTON A","6104152","2019-01-14 09:00","2019","01","14","09:00","-13.1","","-15.5","","83","","","M","5","","7","","","M","101.71","","","","-18","","NA"
"-76.60","44.23","KINGSTON A","6104152","2019-01-14 10:00","2019","01","14","10:00","-11.5","","-14.2","","80","","","M","6","","6","","","M","101.68","","","","-15","","NA"
"-76.60","44.23","KINGSTON A","6104152","2019-01-14 11:00","2019","01","14","11:00","-10.0","","-13.4","","76","","","M","29","","5","","","M","101.64","","","","-13","","NA"
"-76.60","44.23","KINGSTON A","6104152","2019-01-14 12:00","2019","01","14","12:00","-9.3","","-12.3","","79","","","M","18","","7","","","M","101.51","","","","-13","","NA"
"-76.60","44.23","KINGSTON A","6104152","2019-01-14 13:00","2019","01","14","13:00","-8.0","","-11.9","","74","","","M","21","","10","","","M","101.44","","","","-13","","NA"
"-76.60","44.23","KINGSTON A","6104152","2019-01-14 14:00","2019","01","14","14:00","-7.0","","-10.2","","78","","","M","17","","10","","","M","101.36","","","","-12","","NA"
"-76.60","44.23","KINGSTON A","6104152","2019-01-14 15:00","2019","01","14","15:00","-6.8","","-10.2","","77","","","M","16","","11","","","M","101.29","","","","-12","","NA"
"-76.60","44.23","KINGSTON A","6104152","2019-01-14 16:00","2019","01","14","16:00","-6.2","","-10.1","","74","","","M","16","","9","","","M","101.26","","","","-10","","NA"
"-76.60","44.23","KINGSTON A","6104152","2019-01-14 17:00","2019","01","14","17:00","-6.8","","-11.4","","70","","","M","21","","10","","","M","101.20","","","","-11","","NA"
"-76.60","44.23","KINGSTON A","6104152","2019-01-14 18:00","2019","01","14","18:00","-6.9","","-10.4","","76","","","M","23","","9","","","M","101.22","","","","-11","","NA"
"-76.60","44.23","KINGSTON A","6104152","2019-01-14 19:00","2019","01","14","19:00","-6.4","","-9.9","","76","","","M","22","","9","","","M","101.19","","","","-11","","NA"
"-76.60","44.23","KINGSTON A","6104152","2019-01-14 20:00","2019","01","14","20:00","-6.6","","-9.6","","79","","","M","28","","7","","","M","101.17","","","","-10","","NA"
"-76.60","44.23","KINGSTON A","6104152","2019-01-14 21:00","2019","01","14","21:00","-5.4","","-8.8","","78","","","M","26","","8","","","M","101.13","","","","-9","","NA"
"-76.60","44.23","KINGSTON A","6104152","2019-01-14 22:00","2019","01","14","22:00","-5.3","","-8.1","","81","","","M","24","","4","","","M","101.14","","","","-7","","NA"
"-76.60","44.23","KINGSTON A","6104152","2019-01-14 23:00","2019","01","14","23:00","-4.5","","-6.9","","84","","","M","20","","13","","","M","101.07","","","","-10","","NA"
"-76.60","44.23","KINGSTON A","6104152","2019-01-15 00:00","2019","01","15","00:00","-3.8","","-6.2","","84","","","M","23","","9","","","M","101.03","","","","-8","","NA"
"-76.60","44.23","KINGSTON A","6104152","2019-01-15 01:00","2019","01","15","01:00","-3.7","","-6.0","","84","","","M","26","","7","","","M","101.00","","","","-7","","NA"
"-76.60","44.23","KINGSTON A","6104152","2019-01-15 02:00","2019","01","15","02:00","-3.0","","-5.1","","85","","","M","23","","9","","","M","100.99","","","","-7","","NA"
"-76.60","44.23","KINGSTON A","6104152","2019-01-15 03:00","2019","01","15","03:00","-2.7","","-6.0","","78","","","M","20","","16","","","M","100.91","","","","-8","","NA"
"-76.60","44.23","KINGSTON A","6104152","2019-01-15 04:00","2019","01","15","04:00","-2.2","","-5.9","","76","","","M","20","","12","","","M","100.88","","","","-6","","NA"
"-76.60","44.23","KINGSTON A","6104152","2019-01-15 05:00","2019","01","15","05:00","-2.4","","-5.4","","80","","","M","28","","8","","","M","100.87","","","","-6","","NA"
"-76.60","44.23","KINGSTON A","6104152","2019-01-15 06:00","2019","01","15","06:00","-3.0","","-6.1","","79","","","M","25","","7","","","M","100.88","","","","-6","","NA"
"-76.60","44.23","KINGSTON A","6104152","2019-01-15 07:00","2019","01","15","07:00","-3.2","","-6.1","","81","","","M","29","","7","","","M","100.88","","","","-6","","NA"
"-76.60","44.23","KINGSTON A","6104152","2019-01-15 08:00","2019","01","15","08:00","-3.5","","-4.7","","91","","","M","28","","8","","","M","100.86","","","","-7","","NA"
"-76.60","44.23","KINGSTON A","6104152","2019-01-15 09:00","2019","01","15","09:00","-3.0","","-3.5","","96","","","M","30","","7","","","M","100.89","","","","-6","","NA"
"-76.60","44.23","KINGSTON A","6104152","2019-01-15 10:00","2019","01","15","10:00","-2.1","","-2.6","","96","","","M","27","","8","","","M","100.90","","","","-5","","NA"
"-76.60","44.23","KINGSTON A","6104152","2019-01-15 11:00","2019","01","15","11:00","-1.4","","-2.6","","91","","","M","25","","8","","","M","100.86","","","","-4","","NA"
"-76.60","44.23","KINGSTON A","6104152","2019-01-15 12:00","2019","01","15","12:00","-0.9","","-2.1","","92","","","M","23","","9","","","M","100.77","","","","-4","","NA"
"-76.60","44.23","KINGSTON A","6104152","2019-01-15 13:00","2019","01","15","13:00","-0.4","","-2.2","","88","","","M","22","","9","","","M","100.66","","","","-4","","NA"
"-76.60","44.23","KINGSTON A","6104152","2019-01-15 14:00","2019","01","15","14:00","-0.2","","-1.9","","88","","","M","14","","7","","","M","100.62","","","","-3","","NA"
"-76.60","44.23","KINGSTON A","6104152","2019-01-15 15:00","2019","01","15","15:00","0.9","","-2.8","","76","","","M","24","","14","","","M","100.60","","","","","","NA"
"-76.60","44.23","KINGSTON A","6104152","2019-01-15 16:00","2019","01","15","16:00","0.0","","-0.8","","94","","","M","24","","18","","","M","100.60","","","","-5","","NA"
"-76.60","44.23","KINGSTON A","6104152","2019-01-15 17:00","2019","01","15","17:00","0.0","","-0.8","","95","","","M","22","","15","","","M","100.54","","","","-4","","NA"
"-76.60","44.23","KINGSTON A","6104152","2019-01-15 18:00","2019","01","15","18:00","-0.1","","-1.3","","92","","","M","22","","17","","","M","100.52","","","","-5","","NA"
"-76.60","44.23","KINGSTON A","6104152","2019-01-15 19:00","2019","01","15","19:00","0.0","","-1.7","","88","","","M","22","","18","","","M","100.49","","","","-5","","NA"
"-76.60","44.23","KINGSTON A","6104152","2019-01-15 20:00","2019","01","15","20:00","-0.4","","-1.1","","95","","","M","22","","30","","","M","100.43","","","","-7","","NA"
"-76.60","44.23","KINGSTON A","6104152","2019-01-15 21:00","2019","01","15","21:00","-0.3","","-0.7","","97","","","M","21","","27","","","M","100.35","","","","-7","","NA"
"-76.60","44.23","KINGSTON A","6104152","2019-01-15 22:00","2019","01","15","22:00","-0.7","","-2.0","","90","","","M","23","","27","","","M","100.29","","","","-7","","NA"
"-76.60","44.23","KINGSTON A","6104152","2019-01-15 23:00","2019","01","15","23:00","-0.7","","-2.0","","90","","","M","23","","26","","","M","100.22","","","","-7","","NA"
"-76.60","44.23","KINGSTON A","6104152","2019-01-16 00:00","2019","01","16","00:00","-1.0","","-2.7","","88","","","M","23","","30","","","M","100.15","","","","-8","","NA"
"-76.60","44.23","KINGSTON A","6104152","2019-01-16 01:00","2019","01","16","01:00","-1.4","","-3.4","","86","","","M","22","","37","","","M","100.09","","","","-9","","NA"
"-76.60","44.23","KINGSTON A","6104152","2019-01-16 02:00","2019","01","16","02:00","-1.4","","-2.7","","91","","","M","22","","39","","","M","100.06","","","","-9","","NA"
"-76.60","44.23","KINGSTON A","6104152","2019-01-16 03:00","2019","01","16","03:00","-1.8","","-2.8","","93","","","M","21","","35","","","M","100.04","","","","-9","","NA"
"-76.60","44.23","KINGSTON A","6104152","2019-01-16 04:00","2019","01","16","04:00","-1.6","","-2.4","","95","","","M","22","","37","","","M","99.98","","","","-9","","NA"
"-76.60","44.23","KINGSTON A","6104152","2019-01-16 05:00","2019","01","16","05:00","-1.7","","-2.5","","94","","","M","22","","28","","","M","99.92","","","","-8","","NA"
"-76.60","44.23","KINGSTON A","6104152","2019-01-16 06:00","2019","01","16","06:00","-0.8","","-3.0","","85","","","M","23","","26","","","M","99.93","","","","-7","","NA"
"-76.60","44.23","KINGSTON A","6104152","2019-01-16 07:00","2019","01","16","07:00","-0.6","","-2.7","","85","","","M","23","","34","","","M","99.95","","","","-8","","NA"
"-76.60","44.23","KINGSTON A","6104152","2019-01-16 08:00","2019","01","16","08:00","0.0","","-2.5","","83","","","M","24","","28","","","M","99.97","","","","-6","","NA"
"-76.60","44.23","KINGSTON A","6104152","2019-01-16 09:00","2019","01","16","09:00","0.3","","-2.2","","83","","","M","25","","29","","","M","100.00","","","","","","NA"
"-76.60","44.23","KINGSTON A","6104152","2019-01-16 10:00","2019","01","16","10:00","0.7","","-2.2","","81","","","M","26","","27","","","M","100.07","","","","","","NA"
"-76.60","44.23","KINGSTON A","6104152","2019-01-16 11:00","2019","01","16","11:00","0.5","","-3.4","","75","","","M","27","","26","","","M","100.14","","","","","","NA"
"-76.60","44.23","KINGSTON A","6104152","2019-01-16 12:00","2019","01","16","12:00","0.8","","-5.5","","63","","","M","28","","27","","","M","100.14","","","","","","NA"
"-76.60","44.23","KINGSTON A","6104152","2019-01-16 13:00","2019","01","16","13:00","0.3","","-8.6","","51","","","M","29","","35","","","M","100.17","","","","","","NA"
"-76.60","44.23","KINGSTON A","6104152","2019-01-16 14:00","2019","01","16","14:00","0.0","","-10.0","","47","","","M","29","","33","","","M","100.32","","","","-7","","NA"
"-76.60","44.23","KINGSTON A","6104152","2019-01-16 15:00","2019","01","16","15:00","-0.9","","-9.4","","53","","","M","30","","30","","","M","100.50","","","","-8","","NA"
"-76.60","44.23","KINGSTON A","6104152","2019-01-16 16:00","2019","01","16","16:00","-3.1","","-11.1","","54","","","M","33","","22","","","M","100.69","","","","-9","","NA"
"-76.60","44.23","KINGSTON A","6104152","2019-01-16 17:00","2019","01","16","17:00","-5.6","","-15.0","","48","","","M","34","","23","","","M","100.90","","","","-13","","NA"
"-76.60","44.23","KINGSTON A","6104152","2019-01-16 18:00","2019","01","16","18:00","-8.0","","-16.9","","49","","","M","35","","20","","","M","101.12","","","","-15","","NA"
"-76.60","44.23","KINGSTON A","6104152","2019-01-16 19:00","2019","01","16","19:00","-9.0","","-17.6","","50","","","M","34","","21","","","M","101.30","","","","-17","","NA"
"-76.60","44.23","KINGSTON A","6104152","2019-01-16 20:00","2019","01","16","20:00","-10.5","","-18.0","","55","","","M","36","","18","","","M","101.43","","","","-18","","NA"
"-76.60","44.23","KINGSTON A","6104152","2019-01-16 21:00","2019","01","16","21:00","-12.0","","-18.6","","58","","","M","34","","12","","","M","101.52","","","","-18","","NA"
"-76.60","44.23","KINGSTON A","6104152","2019-01-16 22:00","2019","01","16","22:00","-12.9","","-19.2","","60","","","M","35","","12","","","M","101.59","","","","-19","","NA"
"-76.60","44.23","KINGSTON A","6104152","2019-01-16 23:00","2019","01","16","23:00","-13.2","","-19.1","","61","","","M","36","","15","","","M","101.67","","","","-21","","NA"
"-76.60","44.23","KINGSTON A","6104152","2019-01-17 00:00","2019","01","17","00:00","-14.7","","-19.7","","66","","","M","35","","12","","","M","101.71","","","","-22","","NA"
"-76.60","44.23","KINGSTON A","6104152","2019-01-17 01:00","2019","01","17","01:00","-15.0","","-19.9","","67","","","M","34","","8","","","M","101.75","","","","-20","","NA"
"-76.60","44.23","KINGSTON A","6104152","2019-01-17 02:00","2019","01","17","02:00","-15.5","","-19.6","","71","","","M","34","","5","","","M","101.79","","","","-19","","NA"
"-76.60","44.23","KINGSTON A","6104152","2019-01-17 03:00","2019","01","17","03:00","-16.2","","-20.6","","70","","","M","1","","7","","","M","101.81","","","","-21","","NA"
"-76.60","44.23","KINGSTON A","6104152","2019-01-17 04:00","2019","01","17","04:00","-16.3","","-20.3","","72","","","M","3","","9","","","M","101.81","","","","-22","","NA"
"-76.60","44.23","KINGSTON A","6104152","2019-01-17 05:00","2019","01","17","05:00","-16.9","","-21.0","","71","","","M","5","","9","","","M","101.84","","","","-23","","NA"
"-76.60","44.23","KINGSTON A","6104152","2019-01-17 06:00","2019","01","17","06:00","-17.2","","-21.2","","72","","","M","4","","12","","","M","101.87","","","","-25","","NA"
"-76.60","44.23","KINGSTON A","6104152","2019-01-17 07:00","2019","01","17","07:00","-17.6","","-22.4","","67","","","M","4","","11","","","M","101.93","","","","-25","","NA"
"-76.60","44.23","KINGSTON A","6104152","2019-01-17 08:00","2019","01","17","08:00","-17.4","","-21.6","","70","","","M","5","","9","","","M","101.94","","","","-24","","NA"
"-76.60","44.23","KINGSTON A","6104152","2019-01-17 09:00","2019","01","17","09:00","-15.5","","-19.9","","70","","","M","6","","10","","","M","101.92","","","","-22","","NA"
"-76.60","44.23","KINGSTON A","6104152","2019-01-17 10:00","2019","01","17","10:00","-13.0","","-18.3","","65","","","M","9","","13","","","M","101.92","","","","-20","","NA"
"-76.60","44.23","KINGSTON A","6104152","2019-01-17 11:00","2019","01","17","11:00","-11.5","","-17.5","","62","","","M","8","","8","","","M","101.90","","","","-16","","NA"
"-76.60","44.23","KINGSTON A","6104152","2019-01-17 12:00","2019","01","17","12:00","-10.2","","-15.9","","64","","","M","7","","7","","","M","101.75","","","","-14","","NA"
"-76.60","44.23","KINGSTON A","6104152","2019-01-17 13:00","2019","01","17","13:00","-9.3","","-14.7","","65","","","M","11","","10","","","M","101.63","","","","-14","","NA"
"-76.60","44.23","KINGSTON A","6104152","2019-01-17 14:00","2019","01","17","14:00","-8.9","","-14.2","","66","","","M","9","","11","","","M","101.53","","","","-14","","NA"
"-76.60","44.23","KINGSTON A","6104152","2019-01-17 15:00","2019","01","17","15:00","-8.9","","-14.2","","66","","","M","11","","14","","","M","101.46","","","","-15","","NA"
"-76.60","44.23","KINGSTON A","6104152","2019-01-17 16:00","2019","01","17","16:00","-9.0","","-14.6","","64","","","M","9","","15","","","M","101.39","","","","-16","","NA"
"-76.60","44.23","KINGSTON A","6104152","2019-01-17 17:00","2019","01","17","17:00","-9.2","","-14.8","","64","","","M","6","","11","","","M","101.32","","","","-15","","NA"
"-76.60","44.23","KINGSTON A","6104152","2019-01-17 18:00","2019","01","17","18:00","-9.5","","-15.6","","61","","","M","5","","16","","","M","101.26","","","","-16","","NA"
"-76.60","44.23","KINGSTON A","6104152","2019-01-17 19:00","2019","01","17","19:00","-9.6","","-16.1","","60","","","M","5","","11","","","M","101.19","","","","-15","","NA"
"-76.60","44.23","KINGSTON A","6104152","2019-01-17 20:00","2019","01","17","20:00","-9.5","","-15.1","","64","","","M","7","","14","","","M","101.08","","","","-16","","NA"
"-76.60","44.23","KINGSTON A","6104152","2019-01-17 21:00","2019","01","17","21:00","-10.0","","-15.9","","62","","","M","5","","14","","","M","100.96","","","","-16","","NA"
"-76.60","44.23","KINGSTON A","6104152","2019-01-17 22:00","2019","01","17","22:00","-10.1","","-15.9","","63","","","M","6","","11","","","M","100.89","","","","-16","","NA"
"-76.60","44.23","KINGSTON A","6104152","2019-01-17 23:00","2019","01","17","23:00","-9.9","","-15.8","","63","","","M","5","","8","","","M","100.81","","","","-14","","NA"
"-76.60","44.23","KINGSTON A","6104152","2019-01-18 00:00","2019","01","18","00:00","-9.9","","-15.8","","63","","","M","4","","10","","","M","100.74","","","","-15","","NA"
"-76.60","44.23","KINGSTON A","6104152","2019-01-18 01:00","2019","01","18","01:00","-9.7","","-15.6","","63","","","M","6","","12","","","M","100.62","","","","-16","","NA"
"-76.60","44.23","KINGSTON A","6104152","2019-01-18 02:00","2019","01","18","02:00","-9.4","","-14.9","","65","","","M","4","","8","","","M","100.60","","","","-14","","NA"
"-76.60","44.23","KINGSTON A","6104152","2019-01-18 03:00","2019","01","18","03:00","-9.3","","-13.4","","72","","","M","5","","13","","","M","100.54","","","","-15","","NA"
"-76.60","44.23","KINGSTON A","6104152","2019-01-18 04:00","2019","01","18","04:00","-9.3","","-11.5","","84","","","M","5","","10","","","M","100.43","","","","-14","","NA"
"-76.60","44.23","KINGSTON A","6104152","2019-01-18 05:00","2019","01","18","05:00","-9.3","","-10.9","","88","","","M","4","","14","","","M","100.39","","","","-16","","NA"
"-76.60","44.23","KINGSTON A","6104152","2019-01-18 06:00","2019","01","18","06:00","-8.5","","-9.7","","91","","","M","4","","12","","","M","100.34","","","","-14","","NA"
"-76.60","44.23","KINGSTON A","6104152","2019-01-18 07:00","2019","01","18","07:00","-7.8","","-8.8","","93","","","M","1","","8","","","M","100.36","","","","-12","","NA"
"-76.60","44.23","KINGSTON A","6104152","2019-01-18 08:00","2019","01","18","08:00","-1.0","","-1.5","","97","","","M","17","","18","","","M","100.35","","","","-6","","NA"
"-76.60","44.23","KINGSTON A","6104152","2019-01-18 09:00","2019","01","18","09:00","-5.0","","-5.6","","96","","","M","20","","2","","","M","100.34","","","","-6","","NA"
"-76.60","44.23","KINGSTON A","6104152","2019-01-18 10:00","2019","01","18","10:00","-6.6","","-7.8","","92","","","M","34","","13","","","M","100.38","","","","-12","","NA"
"-76.60","44.23","KINGSTON A","6104152","2019-01-18 11:00","2019","01","18","11:00","-6.4","","-7.7","","90","","","M","35","","12","","","M","100.43","","","","-12","","NA"
"-76.60","44.23","KINGSTON A","6104152","2019-01-18 12:00","2019","01","18","12:00","-4.9","","-7.1","","85","","","M","32","","10","","","M","100.40","","","","-9","","NA"
"-76.60","44.23","KINGSTON A","6104152","2019-01-18 13:00","2019","01","18","13:00","-3.5","","-6.5","","80","","","M","29","","13","","","M","100.40","","","","-8","","NA"
"-76.60","44.23","KINGSTON A","6104152","2019-01-18 14:00","2019","01","18","14:00","-2.8","","-6.1","","78","","","M","23","","10","","","M","100.44","","","","-7","","NA"
"-76.60","44.23","KINGSTON A","6104152","2019-01-18 15:00","2019","01","18","15:00","-2.5","","-6.8","","72","","","M","24","","15","","","M","100.53","","","","-7","","NA"
"-76.60","44.23","KINGSTON A","6104152","2019-01-18 16:00","2019","01","18","16:00","-1.7","","-5.7","","75","","","M","22","","14","","","M","100.55","","","","-6","","NA"
"-76.60","44.23","KINGSTON A","6104152","2019-01-18 17:00","2019","01","18","17:00","-1.6","","-4.3","","82","","","M","26","","10","","","M","100.68","","","","-5","","NA"
"-76.60","44.23","KINGSTON A","6104152","2019-01-18 18:00","2019","01","18","18:00","-1.5","","-9.5","","55","","","M","27","","26","","","M","100.75","","","","-8","","NA"
"-76.60","44.23","KINGSTON A","6104152","2019-01-18 19:00","2019","01","18","19:00","-1.9","","-8.6","","61","","","M","29","","13","","","M","100.85","","","","-6","","NA"
"-76.60","44.23","KINGSTON A","6104152","2019-01-18 20:00","2019","01","18","20:00","-2.2","","-7.7","","67","","","M","28","","17","","","M","101.00","","","","-8","","NA"
"-76.60","44.23","KINGSTON A","6104152","2019-01-18 21:00","2019","01","18","21:00","-3.1","","-9.5","","62","","","M","29","","17","","","M","101.04","","","","-9","","NA"
"-76.60","44.23","KINGSTON A","6104152","2019-01-18 22:00","2019","01","18","22:00","-4.3","","-9.3","","68","","","M","36","","18","","","M","101.10","","","","-10","","NA"
"-76.60","44.23","KINGSTON A","6104152","2019-01-18 23:00","2019","01","18","23:00","-9.3","","-13.9","","70","","","M","1","","25","","","M","101.30","","","","-18","","NA"
"-76.60","44.23","KINGSTON A","6104152","2019-01-19 00:00","2019","01","19","00:00","-11.6","","-16.3","","68","","","M","2","","26","","","M","101.37","","","","-21","","NA"
"-76.60","44.23","KINGSTON A","6104152","2019-01-19 01:00","2019","01","19","01:00","-13.5","","-20.9","","54","","","M","2","","23","","","M","101.49","","","","-23","","NA"
"-76.60","44.23","KINGSTON A","6104152","2019-01-19 02:00","2019","01","19","02:00","-15.2","","-22.3","","55","","","M","2","","21","","","M","101.57","","","","-25","","NA"
"-76.60","44.23","KINGSTON A","6104152","2019-01-19 03:00","2019","01","19","03:00","-16.2","","-22.8","","58","","","M","2","","20","","","M","101.65","","","","-26","","NA"
"-76.60","44.23","KINGSTON A","6104152","2019-01-19 04:00","2019","01","19","04:00","-17.6","","-24.1","","57","","","M","2","","25","","","M","101.70","","","","-29","","NA"
"-76.60","44.23","KINGSTON A","6104152","2019-01-19 05:00","2019","01","19","05:00","-18.6","","-25.2","","57","","","M","2","","26","","","M","101.63","","","","-30","","NA"
"-76.60","44.23","KINGSTON A","6104152","2019-01-19 06:00","2019","01","19","06:00","-19.3","","-25.6","","58","","","M","3","","18","","","M","101.66","","","","-29","","NA"
"-76.60","44.23","KINGSTON A","6104152","2019-01-19 07:00","2019","01","19","07:00","-20.0","","-26.1","","59","","","M","3","","22","","","M","101.78","","","","-31","","NA"
"-76.60","44.23","KINGSTON A","6104152","2019-01-19 08:00","2019","01","19","08:00","-20.4","","-26.7","","58","","","M","3","","18","","","M","101.88","","","","-30","","NA"
"-76.60","44.23","KINGSTON A","6104152","2019-01-19 09:00","2019","01","19","09:00","-20.7","","-27.0","","57","","","M","3","","22","","","M","101.87","","","","-32","","NA"
"-76.60","44.23","KINGSTON A","6104152","2019-01-19 10:00","2019","01","19","10:00","-20.4","","-27.1","","56","","","M","4","","26","","","M","101.86","","","","-32","","NA"
"-76.60","44.23","KINGSTON A","6104152","2019-01-19 11:00","2019","01","19","11:00","-20.2","","-26.6","","57","","","M","3","","21","","","M","101.75","","","","-31","","NA"
"-76.60","44.23","KINGSTON A","6104152","2019-01-19 12:00","2019","01","19","12:00","-20.2","","-26.5","","58","","","M","3","","24","","","M","101.62","","","","-32","","NA"
"-76.60","44.23","KINGSTON A","6104152","2019-01-19 13:00","2019","01","19","13:00","-20.0","","-24.3","","70","","","M","3","","19","","","M","101.47","","","","-30","","NA"
"-76.60","44.23","KINGSTON A","6104152","2019-01-19 14:00","2019","01","19","14:00","-19.6","","-23.6","","71","","","M","2","","28","","","M","101.38","","","","-32","","NA"
"-76.60","44.23","KINGSTON A","6104152","2019-01-19 15:00","2019","01","19","15:00","-19.4","","-23.1","","73","","","M","3","","22","","","M","101.42","","","","-30","","NA"
"-76.60","44.23","KINGSTON A","6104152","2019-01-19 16:00","2019","01","19","16:00","-19.3","","-22.9","","74","","","M","3","","26","","","M","101.36","","","","-31","","NA"
"-76.60","44.23","KINGSTON A","6104152","2019-01-19 17:00","2019","01","19","17:00","-19.2","","-22.6","","75","","","M","4","","28","","","M","101.21","","","","-31","","NA"
"-76.60","44.23","KINGSTON A","6104152","2019-01-19 18:00","2019","01","19","18:00","-19.0","","-22.4","","75","","","M","3","","27","","","M","101.12","","","","-31","","NA"
"-76.60","44.23","KINGSTON A","6104152","2019-01-19 19:00","2019","01","19","19:00","-19.0","","-22.2","","76","","","M","4","","24","","","M","101.03","","","","-30","","NA"
"-76.60","44.23","KINGSTON A","6104152","2019-01-19 20:00","2019","01","19","20:00","-19.6","","-23.0","","74","","","M","3","","30","","","M","100.91","","","","-32","","NA"
"-76.60","44.23","KINGSTON A","6104152","2019-01-19 21:00","2019","01","19","21:00","-19.8","","-23.2","","75","","","M","3","","31","","","M","100.76","","","","-32","","NA"
"-76.60","44.23","KINGSTON A","6104152","2019-01-19 22:00","2019","01","19","22:00","-20.0","","-23.2","","76","","","M","3","","31","","","M","100.64","","","","-33","","NA"
"-76.60","44.23","KINGSTON A","6104152","2019-01-19 23:00","2019","01","19","23:00","-20.2","","-23.4","","76","","","M","3","","34","","","M","100.48","","","","-34","","NA"
"-76.60","44.23","KINGSTON A","6104152","2019-01-20 00:00","2019","01","20","00:00","-20.3","","-23.5","","76","","","M","3","","31","","","M","100.37","","","","-33","","NA"
"-76.60","44.23","KINGSTON A","6104152","2019-01-20 01:00","2019","01","20","01:00","-20.3","","-23.6","","76","","","M","2","","33","","","M","100.18","","","","-33","","NA"
"-76.60","44.23","KINGSTON A","6104152","2019-01-20 02:00","2019","01","20","02:00","-20.2","","-23.5","","76","","","M","2","","28","","","M","100.06","","","","-32","","NA"
"-76.60","44.23","KINGSTON A","6104152","2019-01-20 03:00","2019","01","20","03:00","-20.3","","-23.4","","77","","","M","3","","29","","","M","100.00","","","","-33","","NA"
"-76.60","44.23","KINGSTON A","6104152","2019-01-20 04:00","2019","01","20","04:00","-20.3","","-23.4","","76","","","M","2","","31","","","M","99.82","","","","-33","","NA"
"-76.60","44.23","KINGSTON A","6104152","2019-01-20 05:00","2019","01","20","05:00","-20.1","","-23.2","","76","","","M","3","","37","","","M","99.65","","","","-34","","NA"
"-76.60","44.23","KINGSTON A","6104152","2019-01-20 06:00","2019","01","20","06:00","-19.5","","-22.7","","76","","","M","2","","36","","","M","99.54","","","","-33","","NA"
"-76.60","44.23","KINGSTON A","6104152","2019-01-20 07:00","2019","01","20","07:00","-19.3","","-22.1","","79","","","M","2","","35","","","M","99.47","","","","-32","","NA"
"-76.60","44.23","KINGSTON A","6104152","2019-01-20 08:00","2019","01","20","08:00","-19.1","","-22.3","","76","","","M","1","","30","","","M","99.56","","","","-31","","NA"
"-76.60","44.23","KINGSTON A","6104152","2019-01-20 09:00","2019","01","20","09:00","-18.8","","-22.3","","75","","","M","1","","27","","","M","99.68","","","","-30","","NA"
"-76.60","44.23","KINGSTON A","6104152","2019-01-20 10:00","2019","01","20","10:00","-18.6","","-21.9","","76","","","M","36","","28","","","M","99.62","","","","-30","","NA"
"-76.60","44.23","KINGSTON A","6104152","2019-01-20 11:00","2019","01","20","11:00","-17.9","","-22.2","","69","","","M","1","","30","","","M","99.66","","","","-30","","NA"
"-76.60","44.23","KINGSTON A","6104152","2019-01-20 12:00","2019","01","20","12:00","-17.1","","-22.1","","65","","","M","34","","26","","","M","99.66","","","","-28","","NA"
"-76.60","44.23","KINGSTON A","6104152","2019-01-20 13:00","2019","01","20","13:00","-16.0","","-21.5","","63","","","M","34","","27","","","M","99.71","","","","-27","","NA"
"-76.60","44.23","KINGSTON A","6104152","2019-01-20 14:00","2019","01","20","14:00","-16.0","","-21.6","","63","","","M","33","","25","","","M","99.74","","","","-26","","NA"
"-76.60","44.23","KINGSTON A","6104152","2019-01-20 15:00","2019","01","20","15:00","-16.9","","-21.7","","67","","","M","32","","22","","","M","99.87","","","","-27","","NA"
"-76.60","44.23","KINGSTON A","6104152","2019-01-20 16:00","2019","01","20","16:00","-18.0","","-23.2","","64","","","M","34","","30","","","M","99.97","","","","-30","","NA"
"-76.60","44.23","KINGSTON A","6104152","2019-01-20 17:00","2019","01","20","17:00","-18.5","","-24.1","","62","","","M","33","","26","","","M","100.06","","","","-30","","NA"
"-76.60","44.23","KINGSTON A","6104152","2019-01-20 18:00","2019","01","20","18:00","-19.0","","-24.4","","63","","","M","33","","26","","","M","100.19","","","","-31","","NA"
"-76.60","44.23","KINGSTON A","6104152","2019-01-20 19:00","2019","01","20","19:00","-19.9","","-25.4","","62","","","M","34","","26","","","M","100.22","","","","-32","","NA"
"-76.60","44.23","KINGSTON A","6104152","2019-01-20 20:00","2019","01","20","20:00","-20.3","","-25.8","","62","","","M","33","","18","","","M","100.33","","","","-30","","NA"
"-76.60","44.23","KINGSTON A","6104152","2019-01-20 21:00","2019","01","20","21:00","-20.4","","-25.4","","65","","","M","33","","31","","","M","100.37","","","","-33","","NA"
"-76.60","44.23","KINGSTON A","6104152","2019-01-20 22:00","2019","01","20","22:00","-20.9","","-26.0","","64","","","M","33","","31","","","M","100.41","","","","-34","","NA"
"-76.60","44.23","KINGSTON A","6104152","2019-01-20 23:00","2019","01","20","23:00","-21.4","","-26.1","","67","","","M","33","","26","","","M","100.48","","","","-34","","NA"
"-76.60","44.23","KINGSTON A","6104152","2019-01-21 00:00","2019","01","21","00:00","-22.3","","-27.3","","64","","","M","32","","18","","","M","100.51","","","","-33","","NA"
"-76.60","44.23","KINGSTON A","6104152","2019-01-21 01:00","2019","01","21","01:00","-22.6","","-28.1","","62","","","M","31","","15","","","M","100.54","","","","-32","","NA"
"-76.60","44.23","KINGSTON A","6104152","2019-01-21 02:00","2019","01","21","02:00","-22.9","","-28.5","","61","","","M","32","","25","","","M","100.60","","","","-35","","NA"
"-76.60","44.23","KINGSTON A","6104152","2019-01-21 03:00","2019","01","21","03:00","-23.1","","-28.5","","62","","","M","33","","21","","","M","100.68","","","","-35","","NA"
"-76.60","44.23","KINGSTON A","6104152","2019-01-21 04:00","2019","01","21","04:00","-23.2","","-28.4","","63","","","M","32","","17","","","M","100.73","","","","-34","","NA"
"-76.60","44.23","KINGSTON A","6104152","2019-01-21 05:00","2019","01","21","05:00","-23.2","","-28.1","","65","","","M","32","","15","","","M","100.78","","","","-33","","NA"
"-76.60","44.23","KINGSTON A","6104152","2019-01-21 06:00","2019","01","21","06:00","-22.9","","-27.4","","68","","","M","31","","22","","","M","100.83","","","","-35","","NA"
"-76.60","44.23","KINGSTON A","6104152","2019-01-21 07:00","2019","01","21","07:00","-22.8","","-27.9","","64","","","M","33","","25","","","M","100.94","","","","-35","","NA"
"-76.60","44.23","KINGSTON A","6104152","2019-01-21 08:00","2019","01","21","08:00","-23.0","","-28.2","","63","","","M","32","","29","","","M","101.03","","","","-36","","NA"
"-76.60","44.23","KINGSTON A","6104152","2019-01-21 09:00","2019","01","21","09:00","-22.8","","-29.4","","56","","","M","32","","36","","","M","101.15","","","","-37","","NA"
"-76.60","44.23","KINGSTON A","6104152","2019-01-21 10:00","2019","01","21","10:00","-21.8","","-29.2","","52","","","M","32","","23","","","M","101.25","","","","-33","","NA"
"-76.60","44.23","KINGSTON A","6104152","2019-01-21 11:00","2019","01","21","11:00","-20.8","","-28.6","","50","","","M","32","","30","","","M","101.34","","","","-34","","NA"
"-76.60","44.23","KINGSTON A","6104152","2019-01-21 12:00","2019","01","21","12:00","-19.7","","-28.3","","47","","","M","32","","28","","","M","101.38","","","","-32","","NA"
"-76.60","44.23","KINGSTON A","6104152","2019-01-21 13:00","2019","01","21","13:00","-17.7","","-27.5","","43","","","M","33","","24","","","M","101.39","","","","-28","","NA"
"-76.60","44.23","KINGSTON A","6104152","2019-01-21 14:00","2019","01","21","14:00","-15.6","","-27.1","","38","","","M","31","","23","","","M","101.42","","","","-26","","NA"
"-76.60","44.23","KINGSTON A","6104152","2019-01-21 15:00","2019","01","21","15:00","-14.5","","-26.6","","36","","","M","31","","25","","","M","101.48","","","","-25","","NA"
"-76.60","44.23","KINGSTON A","6104152","2019-01-21 16:00","2019","01","21","16:00","-13.9","","-26.7","","34","","","M","31","","22","","","M","101.57","","","","-23","","NA"
"-76.60","44.23","KINGSTON A","6104152","2019-01-21 17:00","2019","01","21","17:00","-14.3","","-26.7","","35","","","M","28","","14","","","M","101.68","","","","-22","","NA"
"-76.60","44.23","KINGSTON A","6104152","2019-01-21 18:00","2019","01","21","18:00","-15.3","","-25.2","","43","","","M","28","","10","","","M","101.76","","","","-22","","NA"
"-76.60","44.23","KINGSTON A","6104152","2019-01-21 19:00","2019","01","21","19:00","-16.6","","-24.3","","52","","","M","27","","12","","","M","101.86","","","","-24","","NA"
"-76.60","44.23","KINGSTON A","6104152","2019-01-21 20:00","2019","01","21","20:00","-17.5","","-24.5","","55","","","M","28","","16","","","M","101.98","","","","-26","","NA"
"-76.60","44.23","KINGSTON A","6104152","2019-01-21 21:00","2019","01","21","21:00","-18.0","","-25.0","","55","","","M","28","","14","","","M","102.05","","","","-26","","NA"
"-76.60","44.23","KINGSTON A","6104152","2019-01-21 22:00","2019","01","21","22:00","-18.6","","-25.3","","56","","","M","27","","15","","","M","102.17","","","","-27","","NA"
"-76.60","44.23","KINGSTON A","6104152","2019-01-21 23:00","2019","01","21","23:00","-19.7","","-25.8","","59","","","M","29","","12","","","M","102.28","","","","-28","","NA"
"-76.60","44.23","KINGSTON A","6104152","2019-01-22 00:00","2019","01","22","00:00","-20.9","","-26.2","","63","","","M","33","","8","","","M","102.31","","","","-27","","NA"
"-76.60","44.23","KINGSTON A","6104152","2019-01-22 01:00","2019","01","22","01:00","-21.4","","-26.4","","65","","","M","0","","1","","","M","102.30","","","","-22","","NA"
"-76.60","44.23","KINGSTON A","6104152","2019-01-22 02:00","2019","01","22","02:00","-21.2","","-26.0","","66","","","M","30","","6","","","M","102.37","","","","-26","","NA"
"-76.60","44.23","KINGSTON A","6104152","2019-01-22 03:00","2019","01","22","03:00","-20.4","","-25.2","","66","","","M","25","","10","","","M","102.47","","","","-28","","NA"
"-76.60","44.23","KINGSTON A","6104152","2019-01-22 04:00","2019","01","22","04:00","-20.6","","-25.1","","68","","","M","26","","15","","","M","102.62","","","","-30","","NA"
"-76.60","44.23","KINGSTON A","6104152","2019-01-22 05:00","2019","01","22","05:00","-21.8","","-26.5","","67","","","M","28","","12","","","M","102.63","","","","-30","","NA"
"-76.60","44.23","KINGSTON A","6104152","2019-01-22 06:00","2019","01","22","06:00","-23.5","","-28.3","","65","","","M","33","","7","","","M","102.68","","","","-30","","NA"
"-76.60","44.23","KINGSTON A","6104152","2019-01-22 07:00","2019","01","22","07:00","-24.9","","-28.5","","73","","","M","34","","10","","","M","102.66","","","","-33","","NA"
"-76.60","44.23","KINGSTON A","6104152","2019-01-22 08:00","2019","01","22","08:00","-25.9","","-29.1","","75","","","M","34","","8","","","M","102.77","","","","-33","","NA"
"-76.60","44.23","KINGSTON A","6104152","2019-01-22 09:00","2019","01","22","09:00","-23.1","","-27.5","","68","","","M","36","","6","","","M","102.70","","","","-29","","NA"
"-76.60","44.23","KINGSTON A","6104152","2019-01-22 10:00","2019","01","22","10:00","-19.2","","-24.9","","61","","","M","30","","1","","","M","102.69","","","","-20","","NA"
"-76.60","44.23","KINGSTON A","6104152","2019-01-22 11:00","2019","01","22","11:00","-16.9","","-21.0","","71","","","M","9","","6","","","M","102.69","","","","-21","","NA"
"-76.60","44.23","KINGSTON A","6104152","2019-01-22 12:00","2019","01","22","12:00","-15.3","","-19.6","","70","","","M","11","","11","","","M","102.60","","","","-22","","NA"
"-76.60","44.23","KINGSTON A","6104152","2019-01-22 13:00","2019","01","22","13:00","-14.5","","-19.0","","69","","","M","8","","10","","","M","102.55","","","","-21","","NA"
"-76.60","44.23","KINGSTON A","6104152","2019-01-22 14:00","2019","01","22","14:00","-13.1","","-17.0","","73","","","M","9","","10","","","M","102.41","","","","-19","","NA"
"-76.60","44.23","KINGSTON A","6104152","2019-01-22 15:00","2019","01","22","15:00","-11.8","","-15.1","","77","","","M","8","","13","","","M","102.32","","","","-18","","NA"
"-76.60","44.23","KINGSTON A","6104152","2019-01-22 16:00","2019","01","22","16:00","-8.9","","-12.3","","77","","","M","15","","17","","","M","102.28","","","","-16","","NA"
"-76.60","44.23","KINGSTON A","6104152","2019-01-22 17:00","2019","01","22","17:00","-9.8","","-13.8","","73","","","M","11","","16","","","M","102.11","","","","-17","","NA"
"-76.60","44.23","KINGSTON A","6104152","2019-01-22 18:00","2019","01","22","18:00","-9.9","","-13.7","","74","","","M","10","","14","","","M","101.92","","","","-16","","NA"
"-76.60","44.23","KINGSTON A","6104152","2019-01-22 19:00","2019","01","22","19:00","-10.1","","-14.8","","69","","","M","9","","14","","","M","101.80","","","","-17","","NA"
"-76.60","44.23","KINGSTON A","6104152","2019-01-22 20:00","2019","01","22","20:00","-9.4","","-15.4","","62","","","M","7","","16","","","M","101.67","","","","-16","","NA"
"-76.60","44.23","KINGSTON A","6104152","2019-01-22 21:00","2019","01","22","21:00","-8.2","","-15.2","","57","","","M","11","","18","","","M","101.50","","","","-15","","NA"
"-76.60","44.23","KINGSTON A","6104152","2019-01-22 22:00","2019","01","22","22:00","-4.7","","-10.4","","64","","","M","17","","30","","","M","101.44","","","","-13","","NA"
"-76.60","44.23","KINGSTON A","6104152","2019-01-22 23:00","2019","01","22","23:00","-4.1","","-9.8","","65","","","M","17","","35","","","M","101.31","","","","-12","","NA"
"-76.60","44.23","KINGSTON A","6104152","2019-01-23 00:00","2019","01","23","00:00","-3.7","","-9.3","","65","","","M","17","","36","","","M","101.21","","","","-12","","NA"
"-76.60","44.23","KINGSTON A","6104152","2019-01-23 01:00","2019","01","23","01:00","-3.4","","-8.4","","68","","","M","18","","36","","","M","101.11","","","","-12","","NA"
"-76.60","44.23","KINGSTON A","6104152","2019-01-23 02:00","2019","01","23","02:00","-3.2","","-8.4","","68","","","M","17","","43","","","M","100.99","","","","-12","","NA"
"-76.60","44.23","KINGSTON A","6104152","2019-01-23 03:00","2019","01","23","03:00","-3.0","","-7.3","","72","","","M","18","","39","","","M","100.89","","","","-11","","NA"
"-76.60","44.23","KINGSTON A","6104152","2019-01-23 04:00","2019","01","23","04:00","-2.6","","-5.2","","82","","","M","18","","36","","","M","100.81","","","","-10","","NA"
"-76.60","44.23","KINGSTON A","6104152","2019-01-23 05:00","2019","01","23","05:00","-2.1","","-4.3","","85","","","M","19","","32","","","M","100.77","","","","-9","","NA"
"-76.60","44.23","KINGSTON A","6104152","2019-01-23 06:00","2019","01","23","06:00","-2.4","","-3.9","","90","","","M","18","","34","","","M","100.76","","","","-10","","NA"
"-76.60","44.23","KINGSTON A","6104152","2019-01-23 07:00","2019","01","23","07:00","-2.0","","-3.1","","93","","","M","18","","29","","","M","100.67","","","","-9","","NA"
"-76.60","44.23","KINGSTON A","6104152","2019-01-23 08:00","2019","01","23","08:00","-2.3","","-2.8","","96","","","M","17","","30","","","M","100.58","","","","-9","","NA"
"-76.60","44.23","KINGSTON A","6104152","2019-01-23 09:00","2019","01","23","09:00","-2.0","","-2.9","","93","","","M","17","","27","","","M","100.49","","","","-9","","NA"
"-76.60","44.23","KINGSTON A","6104152","2019-01-23 10:00","2019","01","23","10:00","-1.6","","-2.2","","95","","","M","18","","24","","","M","100.44","","","","-8","","NA"
"-76.60","44.23","KINGSTON A","6104152","2019-01-23 11:00","2019","01","23","11:00","-1.1","","-2.0","","93","","","M","18","","27","","","M","100.38","","","","-8","","NA"
"-76.60","44.23","KINGSTON A","6104152","2019-01-23 12:00","2019","01","23","12:00","-1.0","","-1.3","","98","","","M","16","","20","","","M","100.23","","","","-7","","NA"
"-76.60","44.23","KINGSTON A","6104152","2019-01-23 13:00","2019","01","23","13:00","-0.3","","-1.1","","94","","","M","16","","17","","","M","100.06","","","","-5","","NA"
"-76.60","44.23","KINGSTON A","6104152","2019-01-23 14:00","2019","01","23","14:00","-0.3","","-0.5","","98","","","M","17","","26","","","M","99.89","","","","-6","","NA"
"-76.60","44.23","KINGSTON A","6104152","2019-01-23 15:00","2019","01","23","15:00","0.0","","-0.1","","100","","","M","16","","25","","","M","99.72","","","","-6","","NA"
"-76.60","44.23","KINGSTON A","6104152","2019-01-23 16:00","2019","01","23","16:00","0.4","","0.3","","99","","","M","17","","17","","","M","99.67","","","","","","NA"
"-76.60","44.23","KINGSTON A","6104152","2019-01-23 17:00","2019","01","23","17:00","0.9","","0.8","","100","","","M","17","","25","","","M","99.48","","","","","","NA"
"-76.60","44.23","KINGSTON A","6104152","2019-01-23 18:00","2019","01","23","18:00","1.6","","1.5","","99","","","M","19","","23","","","M","99.36","","","","","","NA"
"-76.60","44.23","KINGSTON A","6104152","2019-01-23 19:00","2019","01","23","19:00","1.8","","1.7","","99","","","M","19","","29","","","M","99.30","","","","","","NA"
"-76.60","44.23","KINGSTON A","6104152","2019-01-23 20:00","2019","01","23","20:00","2.2","","2.0","","98","","","M","18","","36","","","M","99.24","","","","","","NA"
"-76.60","44.23","KINGSTON A","6104152","2019-01-23 21:00","2019","01","23","21:00","2.4","","2.0","","97","","","M","18","","32","","","M","99.24","","","","","","NA"
"-76.60","44.23","KINGSTON A","6104152","2019-01-23 22:00","2019","01","23","22:00","2.1","","1.9","","98","","","M","17","","23","","","M","99.21","","","","","","NA"
"-76.60","44.23","KINGSTON A","6104152","2019-01-23 23:00","2019","01","23","23:00","2.6","","2.4","","99","","","M","19","","27","","","M","99.20","","","","","","NA"
"-76.60","44.23","KINGSTON A","6104152","2019-01-24 00:00","2019","01","24","00:00","2.9","","2.7","","98","","","M","19","","29","","","M","99.19","","","","","","NA"
"-76.60","44.23","KINGSTON A","6104152","2019-01-24 01:00","2019","01","24","01:00","2.8","","2.5","","98","","","M","19","","23","","","M","99.11","","","","","","NA"
"-76.60","44.23","KINGSTON A","6104152","2019-01-24 02:00","2019","01","24","02:00","3.0","","2.9","","99","","","M","20","","24","","","M","99.07","","","","","","NA"
"-76.60","44.23","KINGSTON A","6104152","2019-01-24 03:00","2019","01","24","03:00","2.8","","2.8","","100","","","M","21","","13","","","M","99.01","","","","","","NA"
"-76.60","44.23","KINGSTON A","6104152","2019-01-24 04:00","2019","01","24","04:00","2.8","","2.8","","100","","","M","20","","8","","","M","98.89","","","","","","NA"
"-76.60","44.23","KINGSTON A","6104152","2019-01-24 05:00","2019","01","24","05:00","2.3","","2.3","","100","","","M","21","","13","","","M","98.85","","","","","","NA"
"-76.60","44.23","KINGSTON A","6104152","2019-01-24 06:00","2019","01","24","06:00","2.6","","2.6","","100","","","M","24","","6","","","M","98.76","","","","","","NA"
"-76.60","44.23","KINGSTON A","6104152","2019-01-24 07:00","2019","01","24","07:00","2.7","","2.7","","100","","","M","26","","9","","","M","98.72","","","","","","NA"
"-76.60","44.23","KINGSTON A","6104152","2019-01-24 08:00","2019","01","24","08:00","2.7","","2.7","","100","","","M","26","","9","","","M","98.76","","","","","","NA"
"-76.60","44.23","KINGSTON A","6104152","2019-01-24 09:00","2019","01","24","09:00","1.5","","1.5","","100","","","M","29","","14","","","M","98.81","","","","","","NA"
"-76.60","44.23","KINGSTON A","6104152","2019-01-24 10:00","2019","01","24","10:00","0.7","","0.7","","100","","","M","28","","9","","","M","98.85","","","","","","NA"
"-76.60","44.23","KINGSTON A","6104152","2019-01-24 11:00","2019","01","24","11:00","0.5","","0.4","","99","","","M","27","","9","","","M","98.83","","","","","","NA"
"-76.60","44.23","KINGSTON A","6104152","2019-01-24 12:00","2019","01","24","12:00","0.6","","-0.4","","93","","","M","28","","17","","","M","98.76","","","","","","NA"
"-76.60","44.23","KINGSTON A","6104152","2019-01-24 13:00","2019","01","24","13:00","0.0","","-1.6","","89","","","M","29","","18","","","M","98.79","","","","-5","","NA"
"-76.60","44.23","KINGSTON A","6104152","2019-01-24 14:00","2019","01","24","14:00","-0.6","","-3.0","","84","","","M","28","","20","","","M","98.81","","","","-6","","NA"
"-76.60","44.23","KINGSTON A","6104152","2019-01-24 15:00","2019","01","24","15:00","-0.9","","-3.7","","81","","","M","28","","26","","","M","98.83","","","","-7","","NA"
"-76.60","44.23","KINGSTON A","6104152","2019-01-24 16:00","2019","01","24","16:00","-1.1","","-3.7","","83","","","M","28","","16","","","M","98.94","","","","-6","","NA"
"-76.60","44.23","KINGSTON A","6104152","2019-01-24 17:00","2019","01","24","17:00","-1.5","","-4.7","","79","","","M","28","","15","","","M","98.97","","","","-6","","NA"
"-76.60","44.23","KINGSTON A","6104152","2019-01-24 18:00","2019","01","24","18:00","-1.7","","-5.4","","76","","","M","27","","16","","","M","99.08","","","","-7","","NA"
"-76.60","44.23","KINGSTON A","6104152","2019-01-24 19:00","2019","01","24","19:00","-1.9","","-5.8","","74","","","M","28","","25","","","M","99.18","","","","-8","","NA"
"-76.60","44.23","KINGSTON A","6104152","2019-01-24 20:00","2019","01","24","20:00","-1.9","","-6.0","","74","","","M","26","","21","","","M","99.25","","","","-8","","NA"
"-76.60","44.23","KINGSTON A","6104152","2019-01-24 21:00","2019","01","24","21:00","-2.2","","-6.3","","74","","","M","27","","17","","","M","99.34","","","","-8","","NA"
"-76.60","44.23","KINGSTON A","6104152","2019-01-24 22:00","2019","01","24","22:00","-2.6","","-6.1","","77","","","M","26","","16","","","M","99.43","","","","-8","","NA"
"-76.60","44.23","KINGSTON A","6104152","2019-01-24 23:00","2019","01","24","23:00","-3.1","","-6.7","","76","","","M","26","","15","","","M","99.50","","","","-8","","NA"
"-76.60","44.23","KINGSTON A","6104152","2019-01-25 00:00","2019","01","25","00:00","-3.9","","-8.1","","73","","","M","30","","13","","","M","99.55","","","","-9","","NA"
"-76.60","44.23","KINGSTON A","6104152","2019-01-25 01:00","2019","01","25","01:00","-4.2","","-8.2","","74","","","M","28","","12","","","M","99.59","","","","-9","","NA"
"-76.60","44.23","KINGSTON A","6104152","2019-01-25 02:00","2019","01","25","02:00","-4.3","","-7.9","","76","","","M","28","","2","","","M","99.57","","","","-5","","NA"
"-76.60","44.23","KINGSTON A","6104152","2019-01-25 03:00","2019","01","25","03:00","-4.0","","-6.9","","81","","","M","19","","8","","","M","99.58","","","","-7","","NA"
"-76.60","44.23","KINGSTON A","6104152","2019-01-25 04:00","2019","01","25","04:00","-4.3","","-4.9","","96","","","M","21","","9","","","M","99.53","","","","-8","","NA"
"-76.60","44.23","KINGSTON A","6104152","2019-01-25 05:00","2019","01","25","05:00","-4.0","","-4.2","","98","","","M","28","","7","","","M","99.50","","","","-7","","NA"
"-76.60","44.23","KINGSTON A","6104152","2019-01-25 06:00","2019","01","25","06:00","-4.0","","-4.5","","96","","","M","25","","14","","","M","99.49","","","","-9","","NA"
"-76.60","44.23","KINGSTON A","6104152","2019-01-25 07:00","2019","01","25","07:00","-3.9","","-5.0","","92","","","M","25","","17","","","M","99.54","","","","-10","","NA"
"-76.60","44.23","KINGSTON A","6104152","2019-01-25 08:00","2019","01","25","08:00","-4.3","","-10.5","","62","","","M","25","","23","","","M","99.65","","","","-11","","NA"
"-76.60","44.23","KINGSTON A","6104152","2019-01-25 09:00","2019","01","25","09:00","-3.8","","-10.3","","61","","","M","26","","21","","","M","99.69","","","","-10","","NA"
"-76.60","44.23","KINGSTON A","6104152","2019-01-25 10:00","2019","01","25","10:00","-3.4","","-10.1","","60","","","M","25","","27","","","M","99.75","","","","-11","","NA"
"-76.60","44.23","KINGSTON A","6104152","2019-01-25 11:00","2019","01","25","11:00","-3.5","","-11.0","","56","","","M","25","","34","","","M","99.82","","","","-11","","NA"
"-76.60","44.23","KINGSTON A","6104152","2019-01-25 12:00","2019","01","25","12:00","-3.4","","-11.7","","53","","","M","25","","34","","","M","99.87","","","","-11","","NA"
"-76.60","44.23","KINGSTON A","6104152","2019-01-25 13:00","2019","01","25","13:00","-4.0","","-12.9","","50","","","M","25","","30","","","M","99.94","","","","-12","","NA"
"-76.60","44.23","KINGSTON A","6104152","2019-01-25 14:00","2019","01","25","14:00","-4.0","","-13.2","","49","","","M","25","","34","","","M","100.01","","","","-12","","NA"
"-76.60","44.23","KINGSTON A","6104152","2019-01-25 15:00","2019","01","25","15:00","-5.4","","-11.2","","64","","","M","27","","29","","","M","100.14","","","","-13","","NA"
"-76.60","44.23","KINGSTON A","6104152","2019-01-25 16:00","2019","01","25","16:00","-5.5","","-13.2","","55","","","M","26","","27","","","M","100.23","","","","-13","","NA"
"-76.60","44.23","KINGSTON A","6104152","2019-01-25 17:00","2019","01","25","17:00","-7.0","","-12.1","","67","","","M","29","","24","","","M","100.35","","","","-15","","NA"
"-76.60","44.23","KINGSTON A","6104152","2019-01-25 18:00","2019","01","25","18:00","-7.2","","-14.4","","57","","","M","27","","17","","","M","100.42","","","","-14","","NA"
"-76.60","44.23","KINGSTON A","6104152","2019-01-25 19:00","2019","01","25","19:00","-7.6","","-15.7","","53","","","M","27","","12","","","M","100.51","","","","-13","","NA"
"-76.60","44.23","KINGSTON A","6104152","2019-01-25 20:00","2019","01","25","20:00","-7.5","","-14.5","","57","","","M","27","","13","","","M","100.59","","","","-13","","NA"
"-76.60","44.23","KINGSTON A","6104152","2019-01-25 21:00","2019","01","25","21:00","-8.1","","-14.6","","60","","","M","27","","16","","","M","100.63","","","","-15","","NA"
"-76.60","44.23","KINGSTON A","6104152","2019-01-25 22:00","2019","01","25","22:00","-8.6","","-16.6","","53","","","M","26","","15","","","M","100.66","","","","-15","","NA"
"-76.60","44.23","KINGSTON A","6104152","2019-01-25 23:00","2019","01","25","23:00","-9.2","","-17.4","","52","","","M","27","","17","","","M","100.66","","","","-16","","NA"
"-76.60","44.23","KINGSTON A","6104152","2019-01-26 00:00","2019","01","26","00:00","-9.4","","-17.1","","54","","","M","28","","8","","","M","100.68","","","","-14","","NA"
"-76.60","44.23","KINGSTON A","6104152","2019-01-26 01:00","2019","01","26","01:00","-9.9","","-15.7","","63","","","M","34","","3","","","M","100.68","","","","-12","","NA"
"-76.60","44.23","KINGSTON A","6104152","2019-01-26 02:00","2019","01","26","02:00","-9.6","","-16.1","","60","","","M","12","","2","","","M","100.71","","","","-11","","NA"
"-76.60","44.23","KINGSTON A","6104152","2019-01-26 03:00","2019","01","26","03:00","-9.6","","-17.1","","55","","","M","28","","10","","","M","100.75","","","","-15","","NA"
"-76.60","44.23","KINGSTON A","6104152","2019-01-26 04:00","2019","01","26","04:00","-10.6","","-16.9","","60","","","M","27","","7","","","M","100.77","","","","-15","","NA"
"-76.60","44.23","KINGSTON A","6104152","2019-01-26 05:00","2019","01","26","05:00","-10.7","","-16.9","","61","","","M","30","","9","","","M","100.81","","","","-16","","NA"
"-76.60","44.23","KINGSTON A","6104152","2019-01-26 06:00","2019","01","26","06:00","-11.6","","-17.1","","64","","","M","28","","7","","","M","100.86","","","","-16","","NA"
"-76.60","44.23","KINGSTON A","6104152","2019-01-26 07:00","2019","01","26","07:00","-12.1","","-17.0","","68","","","M","29","","6","","","M","100.93","","","","-16","","NA"
"-76.60","44.23","KINGSTON A","6104152","2019-01-26 08:00","2019","01","26","08:00","-15.6","","-17.3","","86","","","M","34","","8","","","M","101.02","","","","-21","","NA"
"-76.60","44.23","KINGSTON A","6104152","2019-01-26 09:00","2019","01","26","09:00","-13.7","","-15.6","","86","","","M","2","","8","","","M","101.06","","","","-19","","NA"
"-76.60","44.23","KINGSTON A","6104152","2019-01-26 10:00","2019","01","26","10:00","-12.2","","-15.8","","75","","","M","5","","9","","","M","101.10","","","","-17","","NA"
"-76.60","44.23","KINGSTON A","6104152","2019-01-26 11:00","2019","01","26","11:00","-10.8","","-15.7","","68","","","M","12","","4","","","M","101.12","","","","-13","","NA"
"-76.60","44.23","KINGSTON A","6104152","2019-01-26 12:00","2019","01","26","12:00","-10.4","","-15.3","","68","","","M","14","","5","","","M","101.11","","","","-13","","NA"
"-76.60","44.23","KINGSTON A","6104152","2019-01-26 13:00","2019","01","26","13:00","-9.9","","-15.0","","67","","","M","16","","8","","","M","101.07","","","","-14","","NA"
"-76.60","44.23","KINGSTON A","6104152","2019-01-26 14:00","2019","01","26","14:00","-9.3","","-16.8","","55","","","M","23","","11","","","M","101.07","","","","-15","","NA"
"-76.60","44.23","KINGSTON A","6104152","2019-01-26 15:00","2019","01","26","15:00","-9.0","","-16.6","","54","","","M","20","","13","","","M","101.07","","","","-15","","NA"
"-76.60","44.23","KINGSTON A","6104152","2019-01-26 16:00","2019","01","26","16:00","-9.0","","-15.5","","60","","","M","18","","10","","","M","101.08","","","","-14","","NA"
"-76.60","44.23","KINGSTON A","6104152","2019-01-26 17:00","2019","01","26","17:00","-9.3","","-15.1","","63","","","M","17","","8","","","M","101.04","","","","-14","","NA"
"-76.60","44.23","KINGSTON A","6104152","2019-01-26 18:00","2019","01","26","18:00","-8.9","","-12.3","","76","","","M","15","","11","","","M","101.06","","","","-14","","NA"
"-76.60","44.23","KINGSTON A","6104152","2019-01-26 19:00","2019","01","26","19:00","-9.5","","-12.2","","81","","","M","10","","13","","","M","101.04","","","","-16","","NA"
"-76.60","44.23","KINGSTON A","6104152","2019-01-26 20:00","2019","01","26","20:00","-9.7","","-11.4","","87","","","M","10","","13","","","M","101.00","","","","-16","","NA"
"-76.60","44.23","KINGSTON A","6104152","2019-01-26 21:00","2019","01","26","21:00","-9.5","","-10.9","","89","","","M","9","","13","","","M","100.95","","","","-16","","NA"
"-76.60","44.23","KINGSTON A","6104152","2019-01-26 22:00","2019","01","26","22:00","-8.8","","-10.4","","88","","","M","8","","15","","","M","100.82","","","","-15","","NA"
"-76.60","44.23","KINGSTON A","6104152","2019-01-26 23:00","2019","01","26","23:00","-8.7","","-10.9","","84","","","M","9","","15","","","M","100.71","","","","-15","","NA"
"-76.60","44.23","KINGSTON A","6104152","2019-01-27 00:00","2019","01","27","00:00","-4.8","","-8.6","","75","","","M","16","","32","","","M","100.60","","","","-13","","NA"
"-76.60","44.23","KINGSTON A","6104152","2019-01-27 01:00","2019","01","27","01:00","-4.0","","-7.6","","76","","","M","17","","34","","","M","100.47","","","","-12","","NA"
"-76.60","44.23","KINGSTON A","6104152","2019-01-27 02:00","2019","01","27","02:00","-4.0","","-7.2","","78","","","M","17","","34","","","M","100.35","","","","-12","","NA"
"-76.60","44.23","KINGSTON A","6104152","2019-01-27 03:00","2019","01","27","03:00","-3.6","","-7.5","","74","","","M","18","","35","","","M","100.24","","","","-12","","NA"
"-76.60","44.23","KINGSTON A","6104152","2019-01-27 04:00","2019","01","27","04:00","-3.2","","-6.8","","77","","","M","17","","36","","","M","100.02","","","","-11","","NA"
"-76.60","44.23","KINGSTON A","6104152","2019-01-27 05:00","2019","01","27","05:00","-3.4","","-6.4","","80","","","M","15","","37","","","M","99.80","","","","-12","","NA"
"-76.60","44.23","KINGSTON A","6104152","2019-01-27 06:00","2019","01","27","06:00","-4.0","","-4.5","","96","","","M","16","","40","","","M","99.64","","","","-13","","NA"
"-76.60","44.23","KINGSTON A","6104152","2019-01-27 07:00","2019","01","27","07:00","-3.3","","-3.7","","97","","","M","17","","49","","","M","99.46","","","","-13","","NA"
"-76.60","44.23","KINGSTON A","6104152","2019-01-27 08:00","2019","01","27","08:00","-1.9","","-2.5","","96","","","M","18","","53","","","M","99.39","","","","-11","","NA"
"-76.60","44.23","KINGSTON A","6104152","2019-01-27 09:00","2019","01","27","09:00","-2.8","","-3.8","","93","","","M","24","","57","","","M","99.54","","","","-12","","NA"
"-76.60","44.23","KINGSTON A","6104152","2019-01-27 10:00","2019","01","27","10:00","-4.0","","-6.3","","84","","","M","24","","39","","","M","99.71","","","","-13","","NA"
"-76.60","44.23","KINGSTON A","6104152","2019-01-27 11:00","2019","01","27","11:00","-5.1","","-12.2","","58","","","M","25","","41","","","M","99.82","","","","-14","","NA"
"-76.60","44.23","KINGSTON A","6104152","2019-01-27 12:00","2019","01","27","12:00","-5.0","","-11.1","","62","","","M","24","","29","","","M","99.89","","","","-13","","NA"
"-76.60","44.23","KINGSTON A","6104152","2019-01-27 13:00","2019","01","27","13:00","-5.6","","-9.5","","74","","","M","24","","30","","","M","99.95","","","","-14","","NA"
"-76.60","44.23","KINGSTON A","6104152","2019-01-27 14:00","2019","01","27","14:00","-6.5","","-9.2","","81","","","M","24","","38","","","M","100.00","","","","-16","","NA"
"-76.60","44.23","KINGSTON A","6104152","2019-01-27 15:00","2019","01","27","15:00","-6.3","","-13.7","","56","","","M","25","","36","","","M","100.04","","","","-15","","NA"
"-76.60","44.23","KINGSTON A","6104152","2019-01-27 16:00","2019","01","27","16:00","-7.4","","-12.4","","67","","","M","24","","29","","","M","100.15","","","","-16","","NA"
"-76.60","44.23","KINGSTON A","6104152","2019-01-27 17:00","2019","01","27","17:00","-8.0","","-14.8","","58","","","M","25","","29","","","M","100.24","","","","-17","","NA"
"-76.60","44.23","KINGSTON A","6104152","2019-01-27 18:00","2019","01","27","18:00","-9.5","","-15.4","","63","","","M","29","","15","","","M","100.43","","","","-16","","NA"
"-76.60","44.23","KINGSTON A","6104152","2019-01-27 19:00","2019","01","27","19:00","-11.0","","-16.9","","62","","","M","28","","17","","","M","100.57","","","","-18","","NA"
"-76.60","44.23","KINGSTON A","6104152","2019-01-27 20:00","2019","01","27","20:00","-12.0","","-19.3","","55","","","M","29","","13","","","M","100.60","","","","-19","","NA"
"-76.60","44.23","KINGSTON A","6104152","2019-01-27 21:00","2019","01","27","21:00","-13.3","","-19.3","","61","","","M","28","","9","","","M","100.68","","","","-19","","NA"
"-76.60","44.23","KINGSTON A","6104152","2019-01-27 22:00","2019","01","27","22:00","-14.4","","-19.5","","66","","","M","28","","7","","","M","100.73","","","","-19","","NA"
"-76.60","44.23","KINGSTON A","6104152","2019-01-27 23:00","2019","01","27","23:00","-14.8","","-19.5","","68","","","M","24","","6","","","M","100.72","","","","-19","","NA"
"-76.60","44.23","KINGSTON A","6104152","2019-01-28 00:00","2019","01","28","00:00","-15.3","","-20.6","","64","","","M","29","","10","","","M","100.78","","","","-22","","NA"
"-76.60","44.23","KINGSTON A","6104152","2019-01-28 01:00","2019","01","28","01:00","-16.7","","-21.7","","66","","","M","32","","5","","","M","100.82","","","","-21","","NA"
"-76.60","44.23","KINGSTON A","6104152","2019-01-28 02:00","2019","01","28","02:00","-18.3","","-22.9","","67","","","M","35","","8","","","M","100.85","","","","-24","","NA"
"-76.60","44.23","KINGSTON A","6104152","2019-01-28 03:00","2019","01","28","03:00","-18.9","","-23.8","","66","","","M","34","","13","","","M","100.95","","","","-27","","NA"
"-76.60","44.23","KINGSTON A","6104152","2019-01-28 04:00","2019","01","28","04:00","-19.5","","-24.9","","63","","","M","35","","13","","","M","101.00","","","","-28","","NA"
"-76.60","44.23","KINGSTON A","6104152","2019-01-28 05:00","2019","01","28","05:00","-19.9","","-24.9","","65","","","M","34","","8","","","M","101.06","","","","-26","","NA"
"-76.60","44.23","KINGSTON A","6104152","2019-01-28 06:00","2019","01","28","06:00","-20.0","","-26.1","","59","","","M","2","","10","","","M","101.09","","","","-27","","NA"
"-76.60","44.23","KINGSTON A","6104152","2019-01-28 07:00","2019","01","28","07:00","-19.8","","-26.6","","55","","","M","6","","13","","","M","101.19","","","","-28","","NA"
"-76.60","44.23","KINGSTON A","6104152","2019-01-28 08:00","2019","01","28","08:00","-19.7","","-25.6","","60","","","M","5","","16","","","M","101.24","","","","-29","","NA"
"-76.60","44.23","KINGSTON A","6104152","2019-01-28 09:00","2019","01","28","09:00","-19.4","","-25.9","","57","","","M","7","","23","","","M","101.34","","","","-30","","NA"
"-76.60","44.23","KINGSTON A","6104152","2019-01-28 10:00","2019","01","28","10:00","-18.8","","-26.1","","53","","","M","6","","21","","","M","101.36","","","","-29","","NA"
"-76.60","44.23","KINGSTON A","6104152","2019-01-28 11:00","2019","01","28","11:00","-18.2","","-26.2","","51","","","M","4","","19","","","M","101.44","","","","-28","","NA"
"-76.60","44.23","KINGSTON A","6104152","2019-01-28 12:00","2019","01","28","12:00","-17.9","","-26.0","","50","","","M","3","","21","","","M","101.27","","","","-28","","NA"
"-76.60","44.23","KINGSTON A","6104152","2019-01-28 13:00","2019","01","28","13:00","-18.0","","-26.3","","49","","","M","4","","27","","","M","101.15","","","","-29","","NA"
"-76.60","44.23","KINGSTON A","6104152","2019-01-28 14:00","2019","01","28","14:00","-17.9","","-27.1","","45","","","M","3","","26","","","M","101.01","","","","-29","","NA"
"-76.60","44.23","KINGSTON A","6104152","2019-01-28 15:00","2019","01","28","15:00","-17.5","","-27.0","","44","","","M","5","","19","","","M","100.99","","","","-27","","NA"
"-76.60","44.23","KINGSTON A","6104152","2019-01-28 16:00","2019","01","28","16:00","-17.2","","-27.4","","41","","","M","4","","22","","","M","100.89","","","","-27","","NA"
"-76.60","44.23","KINGSTON A","6104152","2019-01-28 17:00","2019","01","28","17:00","-17.5","","-27.1","","43","","","M","4","","23","","","M","100.75","","","","-28","","NA"
"-76.60","44.23","KINGSTON A","6104152","2019-01-28 18:00","2019","01","28","18:00","-17.7","","-27.6","","43","","","M","4","","26","","","M","100.65","","","","-29","","NA"
"-76.60","44.23","KINGSTON A","6104152","2019-01-28 19:00","2019","01","28","19:00","-18.0","","-27.9","","42","","","M","5","","31","","","M","100.58","","","","-30","","NA"
"-76.60","44.23","KINGSTON A","6104152","2019-01-28 20:00","2019","01","28","20:00","-18.2","","-26.5","","49","","","M","5","","38","","","M","100.44","","","","-31","","NA"
"-76.60","44.23","KINGSTON A","6104152","2019-01-28 21:00","2019","01","28","21:00","-18.0","","-25.6","","52","","","M","6","","34","","","M","100.26","","","","-31","","NA"
"-76.60","44.23","KINGSTON A","6104152","2019-01-28 22:00","2019","01","28","22:00","-17.2","","-24.4","","54","","","M","5","","28","","","M","100.08","","","","-29","","NA"
"-76.60","44.23","KINGSTON A","6104152","2019-01-28 23:00","2019","01","28","23:00","-16.4","","-23.2","","56","","","M","4","","21","","","M","100.05","","","","-26","","NA"
"-76.60","44.23","KINGSTON A","6104152","2019-01-29 00:00","2019","01","29","00:00","-16.2","","-19.9","","74","","","M","6","","25","","","M","99.93","","","","-27","","NA"
"-76.60","44.23","KINGSTON A","6104152","2019-01-29 01:00","2019","01","29","01:00","-16.1","","-18.8","","80","","","M","6","","22","","","M","99.84","","","","-26","","NA"
"-76.60","44.23","KINGSTON A","6104152","2019-01-29 02:00","2019","01","29","02:00","-15.5","","-17.9","","82","","","M","5","","23","","","M","99.75","","","","-25","","NA"
"-76.60","44.23","KINGSTON A","6104152","2019-01-29 03:00","2019","01","29","03:00","-14.8","","-17.0","","84","","","M","5","","19","","","M","99.65","","","","-24","","NA"
"-76.60","44.23","KINGSTON A","6104152","2019-01-29 04:00","2019","01","29","04:00","-14.2","","-16.2","","85","","","M","5","","13","","","M","99.54","","","","-21","","NA"
"-76.60","44.23","KINGSTON A","6104152","2019-01-29 05:00","2019","01","29","05:00","-14.1","","-16.0","","85","","","M","6","","17","","","M","99.52","","","","-22","","NA"
"-76.60","44.23","KINGSTON A","6104152","2019-01-29 06:00","2019","01","29","06:00","-13.2","","-14.9","","87","","","M","9","","13","","","M","99.51","","","","-20","","NA"
"-76.60","44.23","KINGSTON A","6104152","2019-01-29 07:00","2019","01","29","07:00","-6.7","","-7.4","","95","","","M","13","","23","","","M","99.46","","","","-14","","NA"
"-76.60","44.23","KINGSTON A","6104152","2019-01-29 08:00","2019","01","29","08:00","-4.1","","-5.1","","93","","","M","15","","36","","","M","99.48","","","","-12","","NA"
"-76.60","44.23","KINGSTON A","6104152","2019-01-29 09:00","2019","01","29","09:00","-3.6","","-4.9","","90","","","M","17","","39","","","M","99.57","","","","-12","","NA"
"-76.60","44.23","KINGSTON A","6104152","2019-01-29 10:00","2019","01","29","10:00","-3.4","","-4.1","","95","","","M","18","","39","","","M","99.65","","","","-12","","NA"
"-76.60","44.23","KINGSTON A","6104152","2019-01-29 11:00","2019","01","29","11:00","-2.5","","-4.2","","89","","","M","21","","26","","","M","99.75","","","","-9","","NA"
"-76.60","44.23","KINGSTON A","6104152","2019-01-29 12:00","2019","01","29","12:00","-2.8","","-4.3","","89","","","M","24","","25","","","M","99.70","","","","-10","","NA"
"-76.60","44.23","KINGSTON A","6104152","2019-01-29 13:00","2019","01","29","13:00","-3.0","","-5.6","","82","","","M","24","","23","","","M","99.67","","","","-9","","NA"
"-76.60","44.23","KINGSTON A","6104152","2019-01-29 14:00","2019","01","29","14:00","-3.6","","-6.2","","82","","","M","24","","26","","","M","99.66","","","","-11","","NA"
"-76.60","44.23","KINGSTON A","6104152","2019-01-29 15:00","2019","01","29","15:00","-3.8","","-6.4","","82","","","M","24","","19","","","M","99.67","","","","-10","","NA"
"-76.60","44.23","KINGSTON A","6104152","2019-01-29 16:00","2019","01","29","16:00","-4.1","","-9.1","","68","","","M","25","","21","","","M","99.65","","","","-11","","NA"
"-76.60","44.23","KINGSTON A","6104152","2019-01-29 17:00","2019","01","29","17:00","-4.6","","-9.8","","67","","","M","25","","19","","","M","99.67","","","","-11","","NA"
"-76.60","44.23","KINGSTON A","6104152","2019-01-29 18:00","2019","01","29","18:00","-5.0","","-10.1","","68","","","M","27","","16","","","M","99.69","","","","-11","","NA"
"-76.60","44.23","KINGSTON A","6104152","2019-01-29 19:00","2019","01","29","19:00","-5.2","","-10.0","","69","","","M","26","","10","","","M","99.75","","","","-10","","NA"
"-76.60","44.23","KINGSTON A","6104152","2019-01-29 20:00","2019","01","29","20:00","-5.8","","-8.6","","81","","","M","24","","10","","","M","99.78","","","","-10","","NA"
"-76.60","44.23","KINGSTON A","6104152","2019-01-29 21:00","2019","01","29","21:00","-6.4","","-7.6","","91","","","M","24","","11","","","M","99.82","","","","-11","","NA"
"-76.60","44.23","KINGSTON A","6104152","2019-01-29 22:00","2019","01","29","22:00","-6.2","","-8.3","","86","","","M","25","","21","","","M","99.83","","","","-13","","NA"
"-76.60","44.23","KINGSTON A","6104152","2019-01-29 23:00","2019","01","29","23:00","-7.4","","-9.6","","85","","","M","26","","35","","","M","99.89","","","","-17","","NA"
"-76.60","44.23","KINGSTON A","6104152","2019-01-30 00:00","2019","01","30","00:00","-8.7","","-14.8","","62","","","M","26","","30","","","M","99.95","","","","-18","","NA"
"-76.60","44.23","KINGSTON A","6104152","2019-01-30 01:00","2019","01","30","01:00","-10.4","","-17.5","","56","","","M","27","","10","","","M","99.96","","","","-16","","NA"
"-76.60","44.23","KINGSTON A","6104152","2019-01-30 02:00","2019","01","30","02:00","-11.3","","-13.7","","83","","","M","29","","13","","","M","99.99","","","","-18","","NA"
"-76.60","44.23","KINGSTON A","6104152","2019-01-30 03:00","2019","01","30","03:00","-12.6","","-14.7","","85","","","M","29","","10","","","M","99.99","","","","-18","","NA"
"-76.60","44.23","KINGSTON A","6104152","2019-01-30 04:00","2019","01","30","04:00","-11.7","","-13.9","","84","","","M","25","","14","","","M","99.92","","","","-19","","NA"
"-76.60","44.23","KINGSTON A","6104152","2019-01-30 05:00","2019","01","30","05:00","-12.9","","-15.2","","84","","","M","29","","10","","","M","99.88","","","","-19","","NA"
"-76.60","44.23","KINGSTON A","6104152","2019-01-30 06:00","2019","01","30","06:00","-13.5","","-15.5","","85","","","M","31","","12","","","M","99.84","","","","-20","","NA"
"-76.60","44.23","KINGSTON A","6104152","2019-01-30 07:00","2019","01","30","07:00","-14.2","","-16.3","","85","","","M","32","","7","","","M","99.80","","","","-19","","NA"
"-76.60","44.23","KINGSTON A","6104152","2019-01-30 08:00","2019","01","30","08:00","-14.5","","-16.8","","83","","","M","32","","7","","","M","99.81","","","","-19","","NA"
"-76.60","44.23","KINGSTON A","6104152","2019-01-30 09:00","2019","01","30","09:00","-15.0","","-17.7","","80","","","M","32","","12","","","M","99.80","","","","-22","","NA"
"-76.60","44.23","KINGSTON A","6104152","2019-01-30 10:00","2019","01","30","10:00","-13.7","","-16.9","","77","","","M","30","","14","","","M","99.77","","","","-21","","NA"
"-76.60","44.23","KINGSTON A","6104152","2019-01-30 11:00","2019","01","30","11:00","-13.6","","-16.7","","77","","","M","28","","19","","","M","99.76","","","","-22","","NA"
"-76.60","44.23","KINGSTON A","6104152","2019-01-30 12:00","2019","01","30","12:00","-13.8","","-17.2","","76","","","M","27","","21","","","M","99.73","","","","-23","","NA"
"-76.60","44.23","KINGSTON A","6104152","2019-01-30 13:00","2019","01","30","13:00","-14.0","","-16.9","","79","","","M","26","","22","","","M","99.76","","","","-23","","NA"
"-76.60","44.23","KINGSTON A","6104152","2019-01-30 14:00","2019","01","30","14:00","-14.1","","-16.3","","84","","","M","25","","18","","","M","99.83","","","","-23","","NA"
"-76.60","44.23","KINGSTON A","6104152","2019-01-30 15:00","2019","01","30","15:00","-14.7","","-17.5","","80","","","M","24","","21","","","M","99.96","","","","-24","","NA"
"-76.60","44.23","KINGSTON A","6104152","2019-01-30 16:00","2019","01","30","16:00","-14.7","","-21.6","","56","","","M","25","","30","","","M","100.10","","","","-26","","NA"
"-76.60","44.23","KINGSTON A","6104152","2019-01-30 17:00","2019","01","30","17:00","-15.4","","-19.2","","73","","","M","25","","30","","","M","100.20","","","","-27","","NA"
"-76.60","44.23","KINGSTON A","6104152","2019-01-30 18:00","2019","01","30","18:00","-15.8","","-21.5","","62","","","M","26","","21","","","M","100.30","","","","-25","","NA"
"-76.60","44.23","KINGSTON A","6104152","2019-01-30 19:00","2019","01","30","19:00","-16.3","","-23.8","","53","","","M","25","","17","","","M","100.38","","","","-25","","NA"
"-76.60","44.23","KINGSTON A","6104152","2019-01-30 20:00","2019","01","30","20:00","-15.7","","-23.0","","54","","","M","26","","18","","","M","100.40","","","","-25","","NA"
"-76.60","44.23","KINGSTON A","6104152","2019-01-30 21:00","2019","01","30","21:00","-16.0","","-23.5","","53","","","M","27","","16","","","M","100.41","","","","-24","","NA"
"-76.60","44.23","KINGSTON A","6104152","2019-01-30 22:00","2019","01","30","22:00","-15.4","","-21.0","","63","","","M","25","","24","","","M","100.42","","","","-26","","NA"
"-76.60","44.23","KINGSTON A","6104152","2019-01-30 23:00","2019","01","30","23:00","-15.8","","-20.4","","68","","","M","27","","21","","","M","100.41","","","","-25","","NA"
"-76.60","44.23","KINGSTON A","6104152","2019-01-31 00:00","2019","01","31","00:00","-16.1","","-22.3","","59","","","M","26","","24","","","M","100.41","","","","-26","","NA"
"-76.60","44.23","KINGSTON A","6104152","2019-01-31 01:00","2019","01","31","01:00","-16.0","","-21.9","","61","","","M","27","","25","","","M","100.41","","","","-26","","NA"
"-76.60","44.23","KINGSTON A","6104152","2019-01-31 02:00","2019","01","31","02:00","-16.5","","-23.0","","58","","","M","27","","23","","","M","100.47","","","","-27","","NA"
"-76.60","44.23","KINGSTON A","6104152","2019-01-31 03:00","2019","01","31","03:00","-17.1","","-23.2","","60","","","M","27","","33","","","M","100.54","","","","-29","","NA"
"-76.60","44.23","KINGSTON A","6104152","2019-01-31 04:00","2019","01","31","04:00","-18.1","","-25.1","","55","","","M","26","","25","","","M","100.58","","","","-29","","NA"
"-76.60","44.23","KINGSTON A","6104152","2019-01-31 05:00","2019","01","31","05:00","-18.8","","-24.7","","60","","","M","26","","17","","","M","100.65","","","","-28","","NA"
"-76.60","44.23","KINGSTON A","6104152","2019-01-31 06:00","2019","01","31","06:00","-19.1","","-24.2","","65","","","M","25","","14","","","M","100.70","","","","-28","","NA"
"-76.60","44.23","KINGSTON A","6104152","2019-01-31 07:00","2019","01","31","07:00","-19.0","","-23.4","","69","","","M","25","","14","","","M","100.78","","","","-28","","NA"
"-76.60","44.23","KINGSTON A","6104152","2019-01-31 08:00","2019","01","31","08:00","-18.8","","-23.1","","69","","","M","25","","14","","","M","100.84","","","","-27","","NA"
"-76.60","44.23","KINGSTON A","6104152","2019-01-31 09:00","2019","01","31","09:00"
"-76.60","44.23","KINGSTON A","6104152","2019-01-31 10:00","2019","01","31","10:00","-15.3","","-22.0","","57","","","M","27","","21","","","M","100.99","","","","-25","","NA"
"-76.60","44.23","KINGSTON A","6104152","2019-01-31 11:00","2019","01","31","11:00","-14.3","","-21.5","","55","","","M","26","","19","","","M","101.02","","","","-23","","NA"
"-76.60","44.23","KINGSTON A","6104152","2019-01-31 12:00","2019","01","31","12:00","-13.4","","-21.2","","53","","","M","26","","23","","","M","101.00","","","","-23","","NA"
"-76.60","44.23","KINGSTON A","6104152","2019-01-31 13:00","2019","01","31","13:00","-12.5","","-20.6","","51","","","M","28","","26","","","M","100.94","","","","-22","","NA"
"-76.60","44.23","KINGSTON A","6104152","2019-01-31 14:00","2019","01","31","14:00","-11.7","","-20.1","","50","","","M","27","","19","","","M","100.91","","","","-20","","NA"
"-76.60","44.23","KINGSTON A","6104152","2019-01-31 15:00","2019","01","31","15:00","-11.6","","-19.9","","51","","","M","25","","22","","","M","100.91","","","","-20","","NA"
"-76.60","44.23","KINGSTON A","6104152","2019-01-31 16:00","2019","01","31","16:00","-12.0","","-21.1","","47","","","M","26","","33","","","M","100.99","","","","-23","","NA"
"-76.60","44.23","KINGSTON A","6104152","2019-01-31 17:00","2019","01","31","17:00","-13.0","","-21.8","","49","","","M","26","","21","","","M","101.05","","","","-22","","NA"
"-76.60","44.23","KINGSTON A","6104152","2019-01-31 18:00","2019","01","31","18:00","-13.8","","-23.0","","46","","","M","28","","22","","","M","101.16","","","","-23","","NA"
"-76.60","44.23","KINGSTON A","6104152","2019-01-31 19:00","2019","01","31","19:00","-14.4","","-23.2","","48","","","M","27","","28","","","M","101.24","","","","-25","","NA"
"-76.60","44.23","KINGSTON A","6104152","2019-01-31 20:00","2019","01","31","20:00","-15.1","","-23.5","","49","","","M","27","","27","","","M","101.28","","","","-26","","NA"
"-76.60","44.23","KINGSTON A","6104152","2019-01-31 21:00","2019","01","31","21:00","-15.4","","-23.6","","50","","","M","27","","31","","","M","101.33","","","","-27","","NA"
"-76.60","44.23","KINGSTON A","6104152","2019-01-31 22:00","2019","01","31","22:00","-16.1","","-23.8","","53","","","M","26","","17","","","M","101.35","","","","-25","","NA"
"-76.60","44.23","KINGSTON A","6104152","2019-01-31 23:00","2019","01","31","23:00","-16.6","","-23.4","","56","","","M","27","","18","","","M","101.37","","","","-26","","NA"
