"Longitude (x)","Latitude (y)","Station Name","Climate ID","Date/Time (LST)","Year","Month","Day","Time (LST)","Temp (°C)","Temp Flag","Dew Point Temp (°C)","Dew Point Temp Flag","Rel Hum (%)","Rel Hum Flag","Precip. Amount (mm)","Precip. Amount Flag","Wind Dir (10s deg)","Wind Dir Flag","Wind Spd (km/h)","Wind Spd Flag","Visibility (km)","Visibility Flag","Stn Press (kPa)","Stn Press Flag","Hmdx","Hmdx Flag","Wind Chill","Wind Chill Flag","Weather"
"-57.40","49.22","DEER LAKE A","8401501","2012-02-01 00:30","2012","02","01","00:30","-10.5","","-14.0","","75","","","","25","","15","","9.7","","101.31","","","","-17","","Snow"
"-57.40","49.22","DEER LAKE A","8401501","2012-02-01 01:30","2012","02","01","01:30","-10.8","","-13.9","","78","","","","25","","15","","9.7","","101.33","","","","-18","","Snow"
"-57.40","49.22","DEER LAKE A","8401501","2012-02-01 02:30","2012","02","01","02:30","-10.7","","-13.8","","78","","","","24","","11","","12.9","","101.39","","","","-16","","Snow"
"-57.40","49.22","DEER LAKE A","8401501","2012-02-01 03:30","2012","02","01","03:30","-11.1","","-15.2","","72","","","","26","","15","","12.9","","101.42","","","","-18","","Snow"
"-57.40","49.22","DEER LAKE A","8401501","2012-02-01 04:30","2012","02","01","04:30","-11.7","","-15.1","","76","","","","27","","19","","16.1","","101.47","","","","-20","","Snow"
"-57.40","49.22","DEER LAKE A","8401501","2012-02-01 05:30","2012","02","01","05:30","-12.5","","-15.4","","79","","","","29","","7","","9.7","","101.53","","","","-17","","Snow"
"-57.40","49.22","DEER LAKE A","8401501","2012-02-01 06:30","2012","02","01","06:30","-13.2","","-15.7","","81","","","","28","","4","","12.9","","101.58","","","","-16","","Snow"
"-57.40","49.22","DEER LAKE A","8401501","2012-02-01 07:30","2012","02","01","07:30","-13.3","","-15.9","","81","","","","23","","7","","24.1","","101.64","","","","-18","","Snow Showers"
"-57.40","49.22","DEER LAKE A","8401501","2012-02-01 08:30","2012","02","01","08:30","-13.2","","-16.0","","79","","","","25","","11","","19.3","","101.66","","","","-19","","Snow Showers"
"-57.40","49.22","DEER LAKE A","8401501","2012-02-01 09:30","2012","02","01","09:30","-13.8","","-16.5","","80","","","","13","","6","","19.3","","101.66","","","","-18","","Snow Showers"
"-57.40","49.22","DEER LAKE A","8401501","2012-02-01 10:30","2012","02","01","10:30","-9.9","","-14.1","","71","","","","26","","19","","19.3","","101.67","","","","-18","","Snow Showers"
"-57.40","49.22","DEER LAKE A","8401501","2012-02-01 11:30","2012","02","01","11:30","-9.3","","-13.4","","72","","","","26","","13","","19.3","","101.68","","","","-15","","Snow Showers"
"-57.40","49.22","DEER LAKE A","8401501","2012-02-01 12:30","2012","02","01","12:30","-8.9","","-12.9","","73","","","","26","","19","","16.1","","101.64","","","","-16","","Snow Showers"
"-57.40","49.22","DEER LAKE A","8401501","2012-02-01 13:30","2012","02","01","13:30","-8.5","","-12.4","","73","","","","26","","15","","16.1","","101.60","","","","-15","","Snow Showers"
"-57.40","49.22","DEER LAKE A","8401501","2012-02-01 14:30","2012","02","01","14:30","-8.4","","-12.1","","75","","","","25","","19","","12.9","","101.60","","","","-16","","Snow Showers"
"-57.40","49.22","DEER LAKE A","8401501","2012-02-01 15:30","2012","02","01","15:30","-8.6","","-13.1","","70","","","","25","","17","","12.9","","101.55","","","","-15","","Snow Showers"
"-57.40","49.22","DEER LAKE A","8401501","2012-02-01 16:30","2012","02","01","16:30","-8.8","","-13.2","","70","","","","25","","13","","16.1","","101.55","","","","-15","","Snow Showers"
"-57.40","49.22","DEER LAKE A","8401501","2012-02-01 17:30","2012","02","01","17:30","-9.4","","-13.1","","74","","","","23","","11","","16.1","","101.59","","","","-15","","Snow Showers"
"-57.40","49.22","DEER LAKE A","8401501","2012-02-01 18:30","2012","02","01","18:30","-9.2","","-12.9","","74","","","","23","","13","","16.1","","101.58","","","","-15","","Snow Showers"
"-57.40","49.22","DEER LAKE A","8401501","2012-02-01 19:30","2012","02","01","19:30","-10.1","","-12.8","","81","","","","30","","6","","16.1","","101.54","","","","-14","","Snow Showers"
"-57.40","49.22","DEER LAKE A","8401501","2012-02-01 20:30","2012","02","01","20:30","-10.6","","-13.7","","78","","","","3","","6","","24.1","","101.46","","","","-14","","Snow Showers"
"-57.40","49.22","DEER LAKE A","8401501","2012-02-01 21:30","2012","02","01","21:30","-11.3","","-13.7","","82","","","","","","0","","24.1","","101.39","","","","","","Snow Showers"
"-57.40","49.22","DEER LAKE A","8401501","2012-02-01 22:30","2012","02","01","22:30","-12.1","","-14.4","","83","","","","","","0","","24.1","","101.32","","","","","","Snow Showers"
"-57.40","49.22","DEER LAKE A","8401501","2012-02-01 23:30","2012","02","01","23:30","-13.1","","-14.8","","87","","","","3","","9","","24.1","","101.27","","","","-19","","Snow Showers"
"-57.40","49.22","DEER LAKE A","8401501","2012-02-02 00:30","2012","02","02","00:30","-15.6","","-17.0","","89","","","","8","","9","","24.1","","101.29","","","","-22","","Mostly Cloudy"
"-57.40","49.22","DEER LAKE A","8401501","2012-02-02 01:30","2012","02","02","01:30","-17.3","","-18.9","","87","","","","5","","9","","24.1","","101.22","","","","-24","","Mainly Clear"
"-57.40","49.22","DEER LAKE A","8401501","2012-02-02 02:30","2012","02","02","02:30","-18.6","","-19.9","","89","","","","5","","6","","24.1","","101.22","","","","-23","","Mainly Clear"
"-57.40","49.22","DEER LAKE A","8401501","2012-02-02 03:30","2012","02","02","03:30","-19.4","","-20.6","","90","","","","5","","6","","24.1","","101.18","","","","-24","","Mostly Cloudy"
"-57.40","49.22","DEER LAKE A","8401501","2012-02-02 04:30","2012","02","02","04:30","-20.0","","-21.2","","90","","","","8","","7","","24.1","","101.14","","","","-26","","Mostly Cloudy"
"-57.40","49.22","DEER LAKE A","8401501","2012-02-02 05:30","2012","02","02","05:30","-19.8","","-24.5","","66","","","","3","","4","","24.1","","101.16","","","","-23","","Mostly Cloudy"
"-57.40","49.22","DEER LAKE A","8401501","2012-02-02 06:30","2012","02","02","06:30","-20.1","","-24.2","","70","","","","","","0","","24.1","","101.15","","","","","","Mostly Cloudy"
"-57.40","49.22","DEER LAKE A","8401501","2012-02-02 07:30","2012","02","02","07:30","-22.2","","-26.5","","68","","","","","","0","","24.1","","101.16","","","","","","Mostly Cloudy"
"-57.40","49.22","DEER LAKE A","8401501","2012-02-02 08:30","2012","02","02","08:30","-24.5","","-27.5","","76","","","","6","","7","","24.1","","101.18","","","","-31","","Mainly Clear"
"-57.40","49.22","DEER LAKE A","8401501","2012-02-02 09:30","2012","02","02","09:30","-22.3","","-25.8","","73","","","","5","","7","","24.1","","101.21","","","","-28","","Mainly Clear"
"-57.40","49.22","DEER LAKE A","8401501","2012-02-02 10:30","2012","02","02","10:30","-18.1","","-22.3","","70","","","","5","","4","","24.1","","101.21","","","","-21","","Mainly Clear"
"-57.40","49.22","DEER LAKE A","8401501","2012-02-02 11:30","2012","02","02","11:30","-13.3","","-17.2","","72","","","","15","","4","","24.1","","101.20","","","","-16","","Mainly Clear"
"-57.40","49.22","DEER LAKE A","8401501","2012-02-02 12:30","2012","02","02","12:30","-9.2","","-13.1","","73","","","","20","","11","","24.1","","101.14","","","","-15","","Snow Showers"
"-57.40","49.22","DEER LAKE A","8401501","2012-02-02 13:30","2012","02","02","13:30","-7.7","","-12.9","","66","","","","28","","7","","24.1","","101.11","","","","-11","","Snow Showers"
"-57.40","49.22","DEER LAKE A","8401501","2012-02-02 14:30","2012","02","02","14:30","-8.1","","-13.2","","67","","","","29","","11","","24.1","","101.12","","","","-13","","Snow Showers"
"-57.40","49.22","DEER LAKE A","8401501","2012-02-02 15:30","2012","02","02","15:30","-8.6","","-13.6","","67","","","","29","","13","","24.1","","101.14","","","","-15","","Snow Showers"
"-57.40","49.22","DEER LAKE A","8401501","2012-02-02 16:30","2012","02","02","16:30","-9.4","","-13.7","","71","","","","26","","6","","24.1","","101.22","","","","-13","","Mainly Clear"
"-57.40","49.22","DEER LAKE A","8401501","2012-02-02 17:30","2012","02","02","17:30","-10.5","","-14.4","","73","","","","29","","7","","24.1","","101.29","","","","-15","","Mainly Clear"
"-57.40","49.22","DEER LAKE A","8401501","2012-02-02 18:30","2012","02","02","18:30","-11.8","","-14.7","","79","","","","23","","6","","24.1","","101.36","","","","-16","","Mostly Cloudy"
"-57.40","49.22","DEER LAKE A","8401501","2012-02-02 19:30","2012","02","02","19:30","-12.6","","-15.0","","82","","","","21","","7","","24.1","","101.40","","","","-17","","Mostly Cloudy"
"-57.40","49.22","DEER LAKE A","8401501","2012-02-02 20:30","2012","02","02","20:30","-13.7","","-14.9","","91","","","","25","","7","","24.1","","101.46","","","","-18","","Mostly Cloudy"
"-57.40","49.22","DEER LAKE A","8401501","2012-02-02 21:30","2012","02","02","21:30","-15.7","","-17.0","","90","","","","5","","9","","24.1","","101.52","","","","-22","","Mostly Cloudy"
"-57.40","49.22","DEER LAKE A","8401501","2012-02-02 22:30","2012","02","02","22:30","-14.9","","-16.4","","88","","","","","","0","","24.1","","101.52","","","","","","Cloudy"
"-57.40","49.22","DEER LAKE A","8401501","2012-02-02 23:30","2012","02","02","23:30","-14.8","","-16.5","","87","","","","","","0","","24.1","","101.55","","","","","","Cloudy"
"-57.40","49.22","DEER LAKE A","8401501","2012-02-03 00:30","2012","02","03","00:30","-14.8","","-16.6","","86","","","","9","","6","","24.1","","101.52","","","","-19","","Snow Showers"
"-57.40","49.22","DEER LAKE A","8401501","2012-02-03 01:30","2012","02","03","01:30","-15.9","","-17.4","","88","","","","","","0","","24.1","","101.52","","","","","","Snow Showers"
"-57.40","49.22","DEER LAKE A","8401501","2012-02-03 02:30","2012","02","03","02:30","-18.6","","-19.4","","93","","","","","","0","","24.1","","101.50","","","","","","Snow Showers"
"-57.40","49.22","DEER LAKE A","8401501","2012-02-03 03:30","2012","02","03","03:30","-19.8","","-21.0","","90","","","","1","","6","","24.1","","101.54","","","","-25","","Snow Showers"
"-57.40","49.22","DEER LAKE A","8401501","2012-02-03 04:30","2012","02","03","04:30","-23.0","","-24.4","","88","","","","8","","11","","24.1","","101.54","","","","-31","","Mainly Clear"
"-57.40","49.22","DEER LAKE A","8401501","2012-02-03 05:30","2012","02","03","05:30","-22.4","","-28.1","","60","","","","4","","9","","24.1","","101.59","","","","-30","","Mainly Clear"
"-57.40","49.22","DEER LAKE A","8401501","2012-02-03 06:30","2012","02","03","06:30","-24.2","","-28.7","","66","","","","5","","7","","24.1","","101.63","","","","-31","","Mainly Clear"
"-57.40","49.22","DEER LAKE A","8401501","2012-02-03 07:30","2012","02","03","07:30","-23.5","","-27.7","","68","","","","4","","9","","24.1","","101.65","","","","-31","","Mostly Cloudy"
"-57.40","49.22","DEER LAKE A","8401501","2012-02-03 08:30","2012","02","03","08:30","-23.6","","-28.0","","67","","","","34","","7","","24.1","","101.64","","","","-30","","Mostly Cloudy"
"-57.40","49.22","DEER LAKE A","8401501","2012-02-03 09:30","2012","02","03","09:30","-22.8","","-26.8","","70","","","","4","","7","","24.1","","101.63","","","","-29","","Mostly Cloudy"
"-57.40","49.22","DEER LAKE A","8401501","2012-02-03 10:30","2012","02","03","10:30","-18.4","","-22.2","","72","","","","","","0","","24.1","","101.59","","","","","","Snow Showers"
"-57.40","49.22","DEER LAKE A","8401501","2012-02-03 11:30","2012","02","03","11:30","-15.5","","-19.0","","74","","","","8","","6","","19.3","","101.52","","","","-20","","Snow Showers"
"-57.40","49.22","DEER LAKE A","8401501","2012-02-03 12:30","2012","02","03","12:30","-12.3","","-16.0","","74","","","","","","0","","19.3","","101.43","","","","","","Snow Showers"
"-57.40","49.22","DEER LAKE A","8401501","2012-02-03 13:30","2012","02","03","13:30","-9.4","","-13.5","","72","","","","7","","6","","19.3","","101.33","","","","-13","","Snow Showers"
"-57.40","49.22","DEER LAKE A","8401501","2012-02-03 14:30","2012","02","03","14:30","-8.0","","-12.3","","71","","","","","","0","","19.3","","101.24","","","","","","Snow Showers"
"-57.40","49.22","DEER LAKE A","8401501","2012-02-03 15:30","2012","02","03","15:30","-7.2","","-11.0","","74","","","","","","0","","24.1","","101.21","","","","","","Snow Showers"
"-57.40","49.22","DEER LAKE A","8401501","2012-02-03 16:30","2012","02","03","16:30","-6.7","","-10.7","","73","","","","34","","7","","19.3","","101.20","","","","-10","","Snow Showers"
"-57.40","49.22","DEER LAKE A","8401501","2012-02-03 17:30","2012","02","03","17:30","-8.3","","-11.6","","77","","","","28","","9","","24.1","","101.21","","","","-13","","Mostly Cloudy"
"-57.40","49.22","DEER LAKE A","8401501","2012-02-03 18:30","2012","02","03","18:30","-10.6","","-14.1","","75","","","","","","0","","24.1","","101.24","","","","","","Mainly Clear"
"-57.40","49.22","DEER LAKE A","8401501","2012-02-03 19:30","2012","02","03","19:30","-13.1","","-15.0","","86","","","","","","0","","24.1","","101.22","","","","","","Mainly Clear"
"-57.40","49.22","DEER LAKE A","8401501","2012-02-03 20:30","2012","02","03","20:30","-12.7","","-13.8","","91","","","","","","0","","24.1","","101.19","","","","","","Mostly Cloudy"
"-57.40","49.22","DEER LAKE A","8401501","2012-02-03 21:30","2012","02","03","21:30","-12.3","","-14.1","","86","","","","","","0","","24.1","","101.20","","","","","","Mostly Cloudy"
"-57.40","49.22","DEER LAKE A","8401501","2012-02-03 22:30","2012","02","03","22:30","-12.4","","-13.9","","89","","","","","","0","","19.3","","101.05","","","","","","Snow Showers"
"-57.40","49.22","DEER LAKE A","8401501","2012-02-03 23:30","2012","02","03","23:30","-11.5","","-13.4","","86","","","","","","0","","19.3","","101.03","","","","","","Snow Showers"
"-57.40","49.22","DEER LAKE A","8401501","2012-02-04 00:30","2012","02","04","00:30","-11.7","","-13.7","","85","","","","","","0","","19.3","","100.96","","","","","","Snow Showers"
"-57.40","49.22","DEER LAKE A","8401501","2012-02-04 01:30","2012","02","04","01:30","-11.2","","-13.7","","82","","","","","","0","","19.3","","100.88","","","","","","Snow Showers"
"-57.40","49.22","DEER LAKE A","8401501","2012-02-04 02:30","2012","02","04","02:30","-12.1","","-14.2","","84","","","","","","0","","19.3","","100.86","","","","","","Snow Showers"
"-57.40","49.22","DEER LAKE A","8401501","2012-02-04 03:30","2012","02","04","03:30","-11.6","","-13.7","","84","","","","","","0","","19.3","","100.77","","","","","","Snow Showers"
"-57.40","49.22","DEER LAKE A","8401501","2012-02-04 04:30","2012","02","04","04:30","-12.1","","-13.9","","86","","","","","","0","","19.3","","100.79","","","","","","Snow Showers"
"-57.40","49.22","DEER LAKE A","8401501","2012-02-04 05:30","2012","02","04","05:30","-11.6","","-13.7","","84","","","","","","0","","19.3","","100.72","","","","","","Snow Showers"
"-57.40","49.22","DEER LAKE A","8401501","2012-02-04 06:30","2012","02","04","06:30","-11.0","","-14.2","","77","","","","","","0","","19.3","","100.65","","","","","","Snow Showers"
"-57.40","49.22","DEER LAKE A","8401501","2012-02-04 07:30","2012","02","04","07:30","-11.6","","-14.8","","77","","","","","","0","","19.3","","100.65","","","","","","Snow Showers"
"-57.40","49.22","DEER LAKE A","8401501","2012-02-04 08:30","2012","02","04","08:30","-12.0","","-15.2","","77","","","","32","","7","","24.1","","100.66","","","","-16","","Snow Showers"
"-57.40","49.22","DEER LAKE A","8401501","2012-02-04 09:30","2012","02","04","09:30","-13.4","","-16.5","","77","","","","","","0","","24.1","","100.63","","","","","","Mostly Cloudy"
"-57.40","49.22","DEER LAKE A","8401501","2012-02-04 10:30","2012","02","04","10:30","-11.3","","-15.5","","71","","","","","","0","","24.1","","100.53","","","","","","Mostly Cloudy"
"-57.40","49.22","DEER LAKE A","8401501","2012-02-04 11:30","2012","02","04","11:30","-11.3","","-15.6","","70","","","","6","","9","","24.1","","100.47","","","","-16","","Mostly Cloudy"
"-57.40","49.22","DEER LAKE A","8401501","2012-02-04 12:30","2012","02","04","12:30","-9.8","","-14.3","","70","","","","","","0","","24.1","","100.36","","","","","","Mostly Cloudy"
"-57.40","49.22","DEER LAKE A","8401501","2012-02-04 13:30","2012","02","04","13:30","-7.3","","-11.4","","72","","","","30","","13","","6.4","","100.26","","","","-13","","Snow Showers"
"-57.40","49.22","DEER LAKE A","8401501","2012-02-04 14:30","2012","02","04","14:30","-7.4","","-11.4","","73","","","","30","","13","","8.0","","100.21","","","","-13","","Snow Showers"
"-57.40","49.22","DEER LAKE A","8401501","2012-02-04 15:30","2012","02","04","15:30","-7.1","","-10.6","","76","","","","29","","9","","9.7","","100.21","","","","-11","","Snow Showers"
"-57.40","49.22","DEER LAKE A","8401501","2012-02-04 16:30","2012","02","04","16:30","-6.9","","-11.0","","73","","","","29","","15","","24.1","","100.18","","","","-13","","Snow Showers"
"-57.40","49.22","DEER LAKE A","8401501","2012-02-04 17:30","2012","02","04","17:30","-6.9","","-10.8","","74","","","","27","","11","","19.3","","100.13","","","","-12","","Snow Showers"
"-57.40","49.22","DEER LAKE A","8401501","2012-02-04 18:30","2012","02","04","18:30","-6.7","","-10.7","","73","","","","25","","7","","19.3","","100.10","","","","-10","","Snow Showers"
"-57.40","49.22","DEER LAKE A","8401501","2012-02-04 19:30","2012","02","04","19:30","-6.5","","-10.0","","76","","","","21","","11","","19.3","","100.08","","","","-11","","Snow Showers"
"-57.40","49.22","DEER LAKE A","8401501","2012-02-04 20:30","2012","02","04","20:30","-6.1","","-9.4","","77","","","","22","","11","","24.1","","100.04","","","","-11","","Snow Showers"
"-57.40","49.22","DEER LAKE A","8401501","2012-02-04 21:30","2012","02","04","21:30","-5.9","","-8.9","","79","","","","22","","13","","24.1","","100.02","","","","-11","","Snow Showers"
"-57.40","49.22","DEER LAKE A","8401501","2012-02-04 22:30","2012","02","04","22:30","-5.6","","-9.0","","77","","","","23","","13","","24.1","","100.00","","","","-11","","Snow Showers"
"-57.40","49.22","DEER LAKE A","8401501","2012-02-04 23:30","2012","02","04","23:30","-5.4","","-8.7","","78","","","","23","","9","","24.1","","99.95","","","","-9","","Mostly Cloudy"
"-57.40","49.22","DEER LAKE A","8401501","2012-02-05 00:30","2012","02","05","00:30","-5.5","","-8.7","","78","","","","24","","13","","24.1","","99.93","","","","-11","","Cloudy"
"-57.40","49.22","DEER LAKE A","8401501","2012-02-05 01:30","2012","02","05","01:30","-5.6","","-9.3","","75","","","","26","","7","","24.1","","99.91","","","","-9","","Cloudy"
"-57.40","49.22","DEER LAKE A","8401501","2012-02-05 02:30","2012","02","05","02:30","-6.0","","-9.7","","75","","","","26","","7","","24.1","","99.92","","","","-9","","Cloudy"
"-57.40","49.22","DEER LAKE A","8401501","2012-02-05 03:30","2012","02","05","03:30","-6.2","","-10.1","","74","","","","27","","11","","24.1","","99.91","","","","-11","","Cloudy"
"-57.40","49.22","DEER LAKE A","8401501","2012-02-05 04:30","2012","02","05","04:30","-6.3","","-10.4","","73","","","","27","","11","","24.1","","99.94","","","","-11","","Cloudy"
"-57.40","49.22","DEER LAKE A","8401501","2012-02-05 05:30","2012","02","05","05:30","-6.7","","-9.9","","78","","","","28","","13","","24.1","","99.99","","","","-12","","Cloudy"
"-57.40","49.22","DEER LAKE A","8401501","2012-02-05 06:30","2012","02","05","06:30","-6.8","","-10.1","","77","","","","27","","11","","24.1","","100.02","","","","-12","","Cloudy"
"-57.40","49.22","DEER LAKE A","8401501","2012-02-05 07:30","2012","02","05","07:30","-6.9","","-9.9","","79","","","","23","","9","","19.3","","100.05","","","","-11","","Snow Showers"
"-57.40","49.22","DEER LAKE A","8401501","2012-02-05 08:30","2012","02","05","08:30","-7.0","","-11.0","","73","","","","28","","17","","19.3","","100.09","","","","-13","","Snow Showers"
"-57.40","49.22","DEER LAKE A","8401501","2012-02-05 09:30","2012","02","05","09:30","-6.9","","-11.4","","70","","","","29","","19","","16.1","","100.09","","","","-14","","Snow Showers"
"-57.40","49.22","DEER LAKE A","8401501","2012-02-05 10:30","2012","02","05","10:30","-7.3","","-11.8","","70","","","","29","","13","","19.3","","100.12","","","","-13","","Snow Showers"
"-57.40","49.22","DEER LAKE A","8401501","2012-02-05 11:30","2012","02","05","11:30","-7.2","","-13.0","","63","","","","27","","19","","19.3","","100.02","","","","-14","","Snow Showers"
"-57.40","49.22","DEER LAKE A","8401501","2012-02-05 12:30","2012","02","05","12:30","-6.9","","-12.6","","64","","","","26","","24","","24.1","","100.00","","","","-15","","Snow Showers"
"-57.40","49.22","DEER LAKE A","8401501","2012-02-05 13:30","2012","02","05","13:30","-6.1","","-11.2","","67","","","","28","","15","","24.1","","99.93","","","","-12","","Snow Showers"
"-57.40","49.22","DEER LAKE A","8401501","2012-02-05 14:30","2012","02","05","14:30","-7.6","","-12.8","","66","","","","24","","28","","16.1","","99.94","","","","-16","","Snow Showers"
"-57.40","49.22","DEER LAKE A","8401501","2012-02-05 15:30","2012","02","05","15:30","-8.3","","-13.5","","66","","","","24","","32","","19.3","","99.97","","","","-18","","Snow Showers"
"-57.40","49.22","DEER LAKE A","8401501","2012-02-05 16:30","2012","02","05","16:30","-9.4","","-14.2","","68","","","","25","","13","","19.3","","100.00","","","","-15","","Snow Showers"
"-57.40","49.22","DEER LAKE A","8401501","2012-02-05 17:30","2012","02","05","17:30","-10.0","","-14.0","","72","","","","25","","17","","19.3","","100.00","","","","-17","","Snow Showers"
"-57.40","49.22","DEER LAKE A","8401501","2012-02-05 18:30","2012","02","05","18:30","-9.8","","-13.6","","74","","","","26","","15","","19.3","","100.02","","","","-16","","Snow Showers"
"-57.40","49.22","DEER LAKE A","8401501","2012-02-05 19:30","2012","02","05","19:30","-9.1","","-12.9","","74","","","","26","","15","","19.3","","100.00","","","","-16","","Snow Showers"
"-57.40","49.22","DEER LAKE A","8401501","2012-02-05 20:30","2012","02","05","20:30","-9.3","","-13.4","","72","","","","26","","17","","24.1","","100.01","","","","-16","","Snow Showers"
"-57.40","49.22","DEER LAKE A","8401501","2012-02-05 21:30","2012","02","05","21:30","-9.1","","-13.1","","73","","","","24","","19","","24.1","","100.01","","","","-17","","Snow Showers"
"-57.40","49.22","DEER LAKE A","8401501","2012-02-05 22:30","2012","02","05","22:30","-9.0","","-13.0","","73","","","","24","","13","","24.1","","99.97","","","","-15","","Snow Showers"
"-57.40","49.22","DEER LAKE A","8401501","2012-02-05 23:30","2012","02","05","23:30","-8.9","","-12.9","","73","","","","23","","9","","19.3","","99.99","","","","-14","","Snow Showers"
"-57.40","49.22","DEER LAKE A","8401501","2012-02-06 00:30","2012","02","06","00:30","-8.9","","-12.6","","75","","","","24","","11","","24.1","","99.95","","","","-14","","Snow Showers"
"-57.40","49.22","DEER LAKE A","8401501","2012-02-06 01:30","2012","02","06","01:30","-9.2","","-12.8","","75","","","","27","","9","","24.1","","99.97","","","","-14","","Snow Showers"
"-57.40","49.22","DEER LAKE A","8401501","2012-02-06 02:30","2012","02","06","02:30","-8.3","","-12.0","","75","","","","24","","15","","24.1","","99.99","","","","-15","","Snow Showers"
"-57.40","49.22","DEER LAKE A","8401501","2012-02-06 03:30","2012","02","06","03:30","-7.6","","-11.7","","72","","","","23","","15","","24.1","","99.97","","","","-14","","Snow Showers"
"-57.40","49.22","DEER LAKE A","8401501","2012-02-06 04:30","2012","02","06","04:30","-7.8","","-11.1","","77","","","","23","","11","","24.1","","99.96","","","","-13","","Snow Showers"
"-57.40","49.22","DEER LAKE A","8401501","2012-02-06 05:30","2012","02","06","05:30","-7.6","","-10.4","","80","","","","23","","11","","9.7","","99.95","","","","-13","","Snow"
"-57.40","49.22","DEER LAKE A","8401501","2012-02-06 06:30","2012","02","06","06:30","-7.1","","-10.4","","77","","","","22","","24","","12.9","","99.97","","","","-15","","Snow"
"-57.40","49.22","DEER LAKE A","8401501","2012-02-06 07:30","2012","02","06","07:30","-7.3","","-10.9","","75","","","","22","","19","","16.1","","100.00","","","","-14","","Snow"
"-57.40","49.22","DEER LAKE A","8401501","2012-02-06 08:30","2012","02","06","08:30","-7.1","","-10.2","","78","","","","22","","22","","19.3","","99.99","","","","-15","","Snow"
"-57.40","49.22","DEER LAKE A","8401501","2012-02-06 09:30","2012","02","06","09:30","-6.5","","-10.3","","74","","","","22","","22","","24.1","","99.96","","","","-14","","Mostly Cloudy"
"-57.40","49.22","DEER LAKE A","8401501","2012-02-06 10:30","2012","02","06","10:30","-6.2","","-10.7","","70","","","","22","","22","","24.1","","99.95","","","","-13","","Mostly Cloudy"
"-57.40","49.22","DEER LAKE A","8401501","2012-02-06 11:30","2012","02","06","11:30","-5.2","","-9.4","","72","","","","22","","26","","24.1","","99.90","","","","-13","","Mostly Cloudy"
"-57.40","49.22","DEER LAKE A","8401501","2012-02-06 12:30","2012","02","06","12:30","-4.5","","-9.3","","69","","","","24","","15","","19.3","","99.83","","","","-10","","Cloudy"
"-57.40","49.22","DEER LAKE A","8401501","2012-02-06 13:30","2012","02","06","13:30","-4.5","","-7.5","","80","","","","22","","22","","6.4","","99.75","","","","-11","","Snow Showers"
"-57.40","49.22","DEER LAKE A","8401501","2012-02-06 14:30","2012","02","06","14:30","-4.7","","-8.5","","75","","","","22","","22","","9.7","","99.70","","","","-12","","Snow Showers"
"-57.40","49.22","DEER LAKE A","8401501","2012-02-06 15:30","2012","02","06","15:30","-4.7","","-7.4","","81","","","","21","","11","","9.7","","99.63","","","","-9","","Snow Showers"
"-57.40","49.22","DEER LAKE A","8401501","2012-02-06 16:30","2012","02","06","16:30","-4.8","","-6.9","","85","","","","22","","7","","3.2","","99.57","","","","-8","","Snow"
"-57.40","49.22","DEER LAKE A","8401501","2012-02-06 17:30","2012","02","06","17:30","-4.8","","-6.1","","91","","","","22","","7","","9.7","","99.57","","","","-8","","Snow"
"-57.40","49.22","DEER LAKE A","8401501","2012-02-06 18:30","2012","02","06","18:30","-4.7","","-6.5","","87","","","","23","","17","","12.9","","99.56","","","","-11","","Snow"
"-57.40","49.22","DEER LAKE A","8401501","2012-02-06 19:30","2012","02","06","19:30","-4.7","","-6.0","","91","","","","23","","15","","9.7","","99.59","","","","-10","","Snow"
"-57.40","49.22","DEER LAKE A","8401501","2012-02-06 20:30","2012","02","06","20:30","-4.9","","-6.3","","90","","","","22","","13","","9.7","","99.60","","","","-10","","Snow"
"-57.40","49.22","DEER LAKE A","8401501","2012-02-06 21:30","2012","02","06","21:30","-4.9","","-6.6","","88","","","","21","","22","","12.9","","99.61","","","","-12","","Snow"
"-57.40","49.22","DEER LAKE A","8401501","2012-02-06 22:30","2012","02","06","22:30","-4.1","","-6.1","","86","","","","21","","22","","12.9","","99.61","","","","-11","","Snow"
"-57.40","49.22","DEER LAKE A","8401501","2012-02-06 23:30","2012","02","06","23:30","-3.9","","-5.4","","89","","","","22","","20","","12.9","","99.58","","","","-10","","Snow"
"-57.40","49.22","DEER LAKE A","8401501","2012-02-07 00:30","2012","02","07","00:30","-3.9","","-5.2","","91","","","","21","","22","","4.0","","99.57","","","","-10","","Snow"
"-57.40","49.22","DEER LAKE A","8401501","2012-02-07 01:30","2012","02","07","01:30","-3.7","","-4.7","","93","","","","22","","17","","4.0","","99.54","","","","-9","","Snow"
"-57.40","49.22","DEER LAKE A","8401501","2012-02-07 02:30","2012","02","07","02:30","-3.5","","-4.4","","93","","","","22","","13","","3.2","","99.52","","","","-8","","Snow"
"-57.40","49.22","DEER LAKE A","8401501","2012-02-07 03:30","2012","02","07","03:30","-3.6","","-4.6","","93","","","","23","","9","","3.2","","99.53","","","","-7","","Snow"
"-57.40","49.22","DEER LAKE A","8401501","2012-02-07 04:30","2012","02","07","04:30","-3.8","","-4.6","","94","","","","21","","17","","4.0","","99.56","","","","-10","","Snow"
"-57.40","49.22","DEER LAKE A","8401501","2012-02-07 05:30","2012","02","07","05:30","-3.8","","-5.1","","91","","","","22","","6","","9.7","","99.62","","","","-6","","Snow"
"-57.40","49.22","DEER LAKE A","8401501","2012-02-07 06:30","2012","02","07","06:30","-4.2","","-5.9","","88","","","","19","","7","","12.9","","99.69","","","","-7","","Snow"
"-57.40","49.22","DEER LAKE A","8401501","2012-02-07 07:30","2012","02","07","07:30","-5.7","","-6.9","","91","","","","23","","9","","16.1","","99.78","","","","-10","","Snow"
"-57.40","49.22","DEER LAKE A","8401501","2012-02-07 08:30","2012","02","07","08:30","-6.5","","-8.4","","86","","","","28","","9","","19.3","","99.88","","","","-11","","Snow"
"-57.40","49.22","DEER LAKE A","8401501","2012-02-07 09:30","2012","02","07","09:30","-5.6","","-8.2","","82","","","","18","","7","","24.1","","99.97","","","","-9","","Mostly Cloudy"
"-57.40","49.22","DEER LAKE A","8401501","2012-02-07 10:30","2012","02","07","10:30","-4.3","","-8.1","","75","","","","27","","11","","12.9","","100.03","","","","-9","","Snow Showers"
"-57.40","49.22","DEER LAKE A","8401501","2012-02-07 11:30","2012","02","07","11:30","-3.7","","-7.5","","75","","","","24","","19","","12.9","","100.07","","","","-10","","Snow Showers"
"-57.40","49.22","DEER LAKE A","8401501","2012-02-07 12:30","2012","02","07","12:30","-3.1","","-7.8","","70","","","","25","","11","","16.1","","100.05","","","","-7","","Snow Showers"
"-57.40","49.22","DEER LAKE A","8401501","2012-02-07 13:30","2012","02","07","13:30","-3.1","","-7.9","","69","","","","24","","20","","16.1","","100.08","","","","-9","","Snow Showers"
"-57.40","49.22","DEER LAKE A","8401501","2012-02-07 14:30","2012","02","07","14:30","-3.8","","-9.6","","64","","","","25","","15","","16.1","","100.13","","","","-9","","Snow Showers"
"-57.40","49.22","DEER LAKE A","8401501","2012-02-07 15:30","2012","02","07","15:30","-4.2","","-9.4","","67","","","","25","","19","","16.1","","100.22","","","","-10","","Snow Showers"
"-57.40","49.22","DEER LAKE A","8401501","2012-02-07 16:30","2012","02","07","16:30","-4.7","","-8.9","","72","","","","25","","17","","19.3","","100.31","","","","-11","","Mostly Cloudy"
"-57.40","49.22","DEER LAKE A","8401501","2012-02-07 17:30","2012","02","07","17:30","-5.3","","-9.2","","74","","","","25","","9","","19.3","","100.37","","","","-9","","Mostly Cloudy"
"-57.40","49.22","DEER LAKE A","8401501","2012-02-07 18:30","2012","02","07","18:30","-5.8","","-8.9","","79","","","","22","","4","","24.1","","100.41","","","","-8","","Mostly Cloudy"
"-57.40","49.22","DEER LAKE A","8401501","2012-02-07 19:30","2012","02","07","19:30","-6.0","","-8.4","","83","","","","23","","7","","24.1","","100.45","","","","-9","","Mostly Cloudy"
"-57.40","49.22","DEER LAKE A","8401501","2012-02-07 20:30","2012","02","07","20:30","-6.1","","-8.1","","86","","","","23","","13","","24.1","","100.50","","","","-11","","Snow Showers"
"-57.40","49.22","DEER LAKE A","8401501","2012-02-07 21:30","2012","02","07","21:30","-6.1","","-7.4","","90","","","","23","","13","","9.7","","100.51","","","","-11","","Snow Showers"
"-57.40","49.22","DEER LAKE A","8401501","2012-02-07 22:30","2012","02","07","22:30","-6.2","","-7.8","","88","","","","25","","7","","12.9","","100.54","","","","-10","","Snow Showers"
"-57.40","49.22","DEER LAKE A","8401501","2012-02-07 23:30","2012","02","07","23:30","-6.6","","-8.8","","84","","","","23","","9","","19.3","","100.57","","","","-11","","Snow Showers"
"-57.40","49.22","DEER LAKE A","8401501","2012-02-08 00:30","2012","02","08","00:30","-6.5","","-8.5","","86","","","","22","","9","","16.1","","100.58","","","","-11","","Snow Showers"
"-57.40","49.22","DEER LAKE A","8401501","2012-02-08 01:30","2012","02","08","01:30","-6.5","","-8.1","","88","","","","23","","7","","9.7","","100.56","","","","-10","","Snow"
"-57.40","49.22","DEER LAKE A","8401501","2012-02-08 02:30","2012","02","08","02:30","-6.8","","-8.4","","88","","","","22","","6","","16.1","","100.60","","","","-10","","Snow"
"-57.40","49.22","DEER LAKE A","8401501","2012-02-08 03:30","2012","02","08","03:30","-6.6","","-8.1","","89","","","","22","","9","","6.4","","100.64","","","","-11","","Snow"
"-57.40","49.22","DEER LAKE A","8401501","2012-02-08 04:30","2012","02","08","04:30","-7.2","","-8.4","","91","","","","26","","6","","2.4","","100.69","","","","-10","","Snow"
"-57.40","49.22","DEER LAKE A","8401501","2012-02-08 05:30","2012","02","08","05:30","-7.2","","-9.0","","87","","","","23","","11","","9.7","","100.70","","","","-12","","Snow"
"-57.40","49.22","DEER LAKE A","8401501","2012-02-08 06:30","2012","02","08","06:30","-7.6","","-9.1","","89","","","","24","","9","","16.1","","100.73","","","","-12","","Snow"
"-57.40","49.22","DEER LAKE A","8401501","2012-02-08 07:30","2012","02","08","07:30","-8.6","","-10.0","","90","","","","","","0","","9.7","","100.84","","","","","","Snow"
"-57.40","49.22","DEER LAKE A","8401501","2012-02-08 08:30","2012","02","08","08:30","-7.5","","-9.2","","88","","","","24","","9","","9.7","","100.95","","","","-12","","Snow"
"-57.40","49.22","DEER LAKE A","8401501","2012-02-08 09:30","2012","02","08","09:30","-7.3","","-10.6","","77","","","","26","","15","","4.8","","101.02","","","","-13","","Snow"
"-57.40","49.22","DEER LAKE A","8401501","2012-02-08 10:30","2012","02","08","10:30","-7.5","","-11.9","","71","","","","25","","17","","9.7","","101.09","","","","-14","","Snow"
"-57.40","49.22","DEER LAKE A","8401501","2012-02-08 11:30","2012","02","08","11:30","-7.6","","-11.7","","72","","","","25","","22","","9.7","","101.14","","","","-15","","Snow"
"-57.40","49.22","DEER LAKE A","8401501","2012-02-08 12:30","2012","02","08","12:30","-7.9","","-13.0","","67","","","","24","","20","","19.3","","101.14","","","","-15","","Snow Showers"
"-57.40","49.22","DEER LAKE A","8401501","2012-02-08 13:30","2012","02","08","13:30","-7.6","","-12.6","","67","","","","23","","19","","19.3","","101.14","","","","-15","","Snow Showers"
"-57.40","49.22","DEER LAKE A","8401501","2012-02-08 14:30","2012","02","08","14:30","-7.3","","-13.0","","64","","","","25","","30","","24.1","","101.11","","","","-16","","Snow Showers"
"-57.40","49.22","DEER LAKE A","8401501","2012-02-08 15:30","2012","02","08","15:30","-7.0","","-13.4","","60","","","","24","","26","","24.1","","101.13","","","","-15","","Mostly Cloudy"
"-57.40","49.22","DEER LAKE A","8401501","2012-02-08 16:30","2012","02","08","16:30","-7.5","","-12.9","","65","","","","23","","26","","24.1","","101.13","","","","-16","","Mostly Cloudy"
"-57.40","49.22","DEER LAKE A","8401501","2012-02-08 17:30","2012","02","08","17:30","-7.5","","-12.4","","68","","","","23","","20","","24.1","","101.18","","","","-15","","Mostly Cloudy"
"-57.40","49.22","DEER LAKE A","8401501","2012-02-08 18:30","2012","02","08","18:30","-7.9","","-12.5","","69","","","","23","","26","","24.1","","101.20","","","","-16","","Mostly Cloudy"
"-57.40","49.22","DEER LAKE A","8401501","2012-02-08 19:30","2012","02","08","19:30","-7.3","","-11.4","","72","","","","23","","20","","24.1","","101.22","","","","-14","","Snow Showers"
"-57.40","49.22","DEER LAKE A","8401501","2012-02-08 20:30","2012","02","08","20:30","-7.2","","-11.2","","73","","","","23","","24","","24.1","","101.24","","","","-15","","Snow Showers"
"-57.40","49.22","DEER LAKE A","8401501","2012-02-08 21:30","2012","02","08","21:30","-7.0","","-10.7","","75","","","","23","","26","","19.3","","101.29","","","","-15","","Snow Showers"
"-57.40","49.22","DEER LAKE A","8401501","2012-02-08 22:30","2012","02","08","22:30","-6.7","","-10.2","","76","","","","23","","22","","16.1","","101.31","","","","-14","","Snow Showers"
"-57.40","49.22","DEER LAKE A","8401501","2012-02-08 23:30","2012","02","08","23:30","-6.4","","-9.6","","78","","","","23","","26","","9.7","","101.32","","","","-14","","Snow Showers"
"-57.40","49.22","DEER LAKE A","8401501","2012-02-09 00:30","2012","02","09","00:30","-6.1","","-9.3","","78","","","","23","","24","","9.7","","101.34","","","","-14","","Snow Showers"
"-57.40","49.22","DEER LAKE A","8401501","2012-02-09 01:30","2012","02","09","01:30","-6.3","","-9.4","","79","","","","23","","24","","19.3","","101.34","","","","-14","","Snow Showers"
"-57.40","49.22","DEER LAKE A","8401501","2012-02-09 02:30","2012","02","09","02:30","-6.4","","-10.0","","76","","","","22","","22","","19.3","","101.38","","","","-14","","Snow Showers"
"-57.40","49.22","DEER LAKE A","8401501","2012-02-09 03:30","2012","02","09","03:30","-6.1","","-10.3","","72","","","","22","","20","","19.3","","101.39","","","","-13","","Snow Showers"
"-57.40","49.22","DEER LAKE A","8401501","2012-02-09 04:30","2012","02","09","04:30","-6.5","","-10.8","","71","","","","23","","15","","24.1","","101.44","","","","-12","","Mostly Cloudy"
"-57.40","49.22","DEER LAKE A","8401501","2012-02-09 05:30","2012","02","09","05:30","-8.8","","-11.9","","78","","","","20","","11","","24.1","","101.47","","","","-14","","Mainly Clear"
"-57.40","49.22","DEER LAKE A","8401501","2012-02-09 06:30","2012","02","09","06:30","-12.5","","-14.2","","87","","","","","","0","","24.1","","101.50","","","","","","Mainly Clear"
"-57.40","49.22","DEER LAKE A","8401501","2012-02-09 07:30","2012","02","09","07:30","-14.6","","-15.7","","91","","","","","","0","","24.1","","101.54","","","","","","Mainly Clear"
"-57.40","49.22","DEER LAKE A","8401501","2012-02-09 08:30","2012","02","09","08:30","-15.0","","-16.7","","87","","","","","","0","","24.1","","101.54","","","","","","Mainly Clear"
"-57.40","49.22","DEER LAKE A","8401501","2012-02-09 09:30","2012","02","09","09:30","-11.0","","-12.6","","88","","","","","","0","","24.1","","101.58","","","","","","Mainly Clear"
"-57.40","49.22","DEER LAKE A","8401501","2012-02-09 10:30","2012","02","09","10:30","-4.5","","-9.6","","67","","","","","","0","","24.1","","101.58","","","","","","Mainly Clear"
"-57.40","49.22","DEER LAKE A","8401501","2012-02-09 11:30","2012","02","09","11:30","-1.8","","-8.5","","60","","","","22","","13","","24.1","","101.49","","","","-6","","Mainly Clear"
"-57.40","49.22","DEER LAKE A","8401501","2012-02-09 12:30","2012","02","09","12:30","-0.3","","-8.0","","56","","","","24","","13","","24.1","","101.43","","","","-4","","Mostly Cloudy"
"-57.40","49.22","DEER LAKE A","8401501","2012-02-09 13:30","2012","02","09","13:30","0.8","","-7.8","","53","","","","23","","17","","24.1","","101.29","","","","","","Mostly Cloudy"
"-57.40","49.22","DEER LAKE A","8401501","2012-02-09 14:30","2012","02","09","14:30","0.9","","-7.0","","55","","","","23","","26","","24.1","","101.38","","","","","","Mostly Cloudy"
"-57.40","49.22","DEER LAKE A","8401501","2012-02-09 15:30","2012","02","09","15:30","1.1","","-6.2","","58","","","","22","","19","","24.1","","101.37","","","","","","Mostly Cloudy"
"-57.40","49.22","DEER LAKE A","8401501","2012-02-09 16:30","2012","02","09","16:30","0.5","","-6.4","","60","","","","21","","9","","24.1","","101.33","","","","","","Mostly Cloudy"
"-57.40","49.22","DEER LAKE A","8401501","2012-02-09 17:30","2012","02","09","17:30","-1.7","","-7.2","","66","","","","13","","9","","24.1","","101.29","","","","-5","","Mostly Cloudy"
"-57.40","49.22","DEER LAKE A","8401501","2012-02-09 18:30","2012","02","09","18:30","-1.9","","-6.6","","70","","","","16","","11","","24.1","","101.25","","","","-6","","Mostly Cloudy"
"-57.40","49.22","DEER LAKE A","8401501","2012-02-09 19:30","2012","02","09","19:30","-2.9","","-6.9","","74","","","","","","0","","24.1","","101.30","","","","","","Mostly Cloudy"
"-57.40","49.22","DEER LAKE A","8401501","2012-02-09 20:30","2012","02","09","20:30","-3.8","","-6.7","","80","","","","3","","6","","24.1","","101.25","","","","-6","","Mostly Cloudy"
"-57.40","49.22","DEER LAKE A","8401501","2012-02-09 21:30","2012","02","09","21:30","-6.0","","-8.4","","83","","","","4","","7","","24.1","","101.12","","","","-9","","Mostly Cloudy"
"-57.40","49.22","DEER LAKE A","8401501","2012-02-09 22:30","2012","02","09","22:30","-5.8","","-7.8","","86","","","","4","","9","","24.1","","101.04","","","","-10","","Cloudy"
"-57.40","49.22","DEER LAKE A","8401501","2012-02-09 23:30","2012","02","09","23:30","-5.3","","-7.5","","84","","","","3","","9","","24.1","","101.04","","","","-9","","Cloudy"
"-57.40","49.22","DEER LAKE A","8401501","2012-02-10 00:30","2012","02","10","00:30","-4.7","","-7.0","","84","","","","3","","6","","24.1","","100.95","","","","-7","","Cloudy"
"-57.40","49.22","DEER LAKE A","8401501","2012-02-10 01:30","2012","02","10","01:30","-4.0","","-6.8","","81","","","","7","","17","","24.1","","100.85","","","","-10","","Cloudy"
"-57.40","49.22","DEER LAKE A","8401501","2012-02-10 02:30","2012","02","10","02:30","-4.1","","-6.8","","81","","","","5","","11","","24.1","","100.80","","","","-9","","Cloudy"
"-57.40","49.22","DEER LAKE A","8401501","2012-02-10 03:30","2012","02","10","03:30","-3.9","","-6.5","","82","","","","7","","7","","24.1","","100.64","","","","-7","","Cloudy"
"-57.40","49.22","DEER LAKE A","8401501","2012-02-10 04:30","2012","02","10","04:30","-4.6","","-6.9","","84","","","","","","0","","24.1","","100.60","","","","","","Cloudy"
"-57.40","49.22","DEER LAKE A","8401501","2012-02-10 05:30","2012","02","10","05:30","-4.3","","-6.6","","84","","","","","","0","","24.1","","100.59","","","","","","Cloudy"
"-57.40","49.22","DEER LAKE A","8401501","2012-02-10 06:30","2012","02","10","06:30","-3.2","","-6.8","","76","","","","31","","7","","24.1","","100.61","","","","-6","","Cloudy"
"-57.40","49.22","DEER LAKE A","8401501","2012-02-10 07:30","2012","02","10","07:30","-3.4","","-7.3","","74","","","","32","","7","","24.1","","100.65","","","","-6","","Mostly Cloudy"
"-57.40","49.22","DEER LAKE A","8401501","2012-02-10 08:30","2012","02","10","08:30","-4.7","","-7.8","","79","","","","25","","9","","24.1","","100.74","","","","-9","","Mainly Clear"
"-57.40","49.22","DEER LAKE A","8401501","2012-02-10 09:30","2012","02","10","09:30","-3.6","","-7.1","","77","","","","27","","13","","24.1","","100.79","","","","-8","","Mostly Cloudy"
"-57.40","49.22","DEER LAKE A","8401501","2012-02-10 10:30","2012","02","10","10:30","-2.2","","-6.6","","72","","","","26","","11","","24.1","","100.86","","","","-6","","Mostly Cloudy"
"-57.40","49.22","DEER LAKE A","8401501","2012-02-10 11:30","2012","02","10","11:30","-1.2","","-6.6","","67","","","","28","","17","","24.1","","100.89","","","","-6","","Mostly Cloudy"
"-57.40","49.22","DEER LAKE A","8401501","2012-02-10 12:30","2012","02","10","12:30","-1.3","","-6.5","","68","","","","30","","13","","24.1","","100.92","","","","-6","","Mostly Cloudy"
"-57.40","49.22","DEER LAKE A","8401501","2012-02-10 13:30","2012","02","10","13:30","-0.9","","-7.3","","62","","","","27","","19","","24.1","","100.95","","","","-6","","Mostly Cloudy"
"-57.40","49.22","DEER LAKE A","8401501","2012-02-10 14:30","2012","02","10","14:30","-1.0","","-7.6","","61","","","","26","","11","","24.1","","101.03","","","","-5","","Mostly Cloudy"
"-57.40","49.22","DEER LAKE A","8401501","2012-02-10 15:30","2012","02","10","15:30","-1.4","","-7.8","","62","","","","27","","19","","24.1","","101.11","","","","-7","","Mostly Cloudy"
"-57.40","49.22","DEER LAKE A","8401501","2012-02-10 16:30","2012","02","10","16:30","-2.1","","-7.4","","67","","","","25","","13","","24.1","","101.24","","","","-7","","Mostly Cloudy"
"-57.40","49.22","DEER LAKE A","8401501","2012-02-10 17:30","2012","02","10","17:30","-2.9","","-7.3","","72","","","","26","","13","","24.1","","101.30","","","","-8","","Mostly Cloudy"
"-57.40","49.22","DEER LAKE A","8401501","2012-02-10 18:30","2012","02","10","18:30","-3.9","","-8.0","","73","","","","27","","6","","24.1","","101.36","","","","-7","","Mostly Cloudy"
"-57.40","49.22","DEER LAKE A","8401501","2012-02-10 19:30","2012","02","10","19:30","-3.0","","-7.6","","71","","","","24","","11","","24.1","","101.40","","","","-7","","Mostly Cloudy"
"-57.40","49.22","DEER LAKE A","8401501","2012-02-10 20:30","2012","02","10","20:30","-4.3","","-8.0","","75","","","","22","","9","","24.1","","101.48","","","","-8","","Mainly Clear"
"-57.40","49.22","DEER LAKE A","8401501","2012-02-10 21:30","2012","02","10","21:30","-5.7","","-8.7","","79","","","","25","","7","","24.1","","101.54","","","","-9","","Mainly Clear"
"-57.40","49.22","DEER LAKE A","8401501","2012-02-10 22:30","2012","02","10","22:30","-6.5","","-9.8","","77","","","","24","","6","","24.1","","101.57","","","","-9","","Mainly Clear"
"-57.40","49.22","DEER LAKE A","8401501","2012-02-10 23:30","2012","02","10","23:30","-10.1","","-12.4","","83","","","","20","","6","","24.1","","101.54","","","","-14","","Mainly Clear"
"-57.40","49.22","DEER LAKE A","8401501","2012-02-11 00:30","2012","02","11","00:30","-10.8","","-12.6","","87","","","","21","","6","","24.1","","101.57","","","","-14","","Mainly Clear"
"-57.40","49.22","DEER LAKE A","8401501","2012-02-11 01:30","2012","02","11","01:30","-14.6","","-15.9","","90","","","","2","","4","","24.1","","101.57","","","","-17","","Clear"
"-57.40","49.22","DEER LAKE A","8401501","2012-02-11 02:30","2012","02","11","02:30","-14.8","","-16.8","","85","","","","","","0","","24.1","","101.61","","","","","","Clear"
"-57.40","49.22","DEER LAKE A","8401501","2012-02-11 03:30","2012","02","11","03:30","-15.9","","-17.7","","86","","","","","","0","","24.1","","101.62","","","","","","Clear"
"-57.40","49.22","DEER LAKE A","8401501","2012-02-11 04:30","2012","02","11","04:30","-16.5","","-17.8","","90","","","","5","","11","","24.1","","101.63","","","","-23","","Clear"
"-57.40","49.22","DEER LAKE A","8401501","2012-02-11 05:30","2012","02","11","05:30"
"-57.40","49.22","DEER LAKE A","8401501","2012-02-11 06:30","2012","02","11","06:30","-15.6","","-16.9","","90","","","","3","","7","","24.1","","101.51","","","","-21","","Mainly Clear"
"-57.40","49.22","DEER LAKE A","8401501","2012-02-11 07:30","2012","02","11","07:30","-15.3","","-16.8","","88","","","","3","","7","","24.1","","101.52","","","","-20","","Mostly Cloudy"
"-57.40","49.22","DEER LAKE A","8401501","2012-02-11 08:30","2012","02","11","08:30","-14.1","","-15.7","","88","","","","1","","4","","24.1","","101.54","","","","-17","","Cloudy"
"-57.40","49.22","DEER LAKE A","8401501","2012-02-11 09:30","2012","02","11","09:30","-12.6","","-14.2","","88","","","","4","","6","","24.1","","101.53","","","","-17","","Cloudy"
"-57.40","49.22","DEER LAKE A","8401501","2012-02-11 10:30","2012","02","11","10:30","-9.7","","-11.4","","87","","","","6","","9","","24.1","","101.47","","","","-15","","Cloudy"
"-57.40","49.22","DEER LAKE A","8401501","2012-02-11 11:30","2012","02","11","11:30","-7.1","","-9.1","","86","","","","6","","9","","24.1","","101.41","","","","-11","","Cloudy"
"-57.40","49.22","DEER LAKE A","8401501","2012-02-11 12:30","2012","02","11","12:30","-4.1","","-7.1","","80","","","","5","","9","","24.1","","101.32","","","","-8","","Cloudy"
"-57.40","49.22","DEER LAKE A","8401501","2012-02-11 13:30","2012","02","11","13:30","-0.6","","-5.2","","71","","","","4","","7","","24.1","","101.22","","","","-3","","Cloudy"
"-57.40","49.22","DEER LAKE A","8401501","2012-02-11 14:30","2012","02","11","14:30","2.6","","-3.7","","63","","","","20","","11","","24.1","","101.16","","","","","","Cloudy"
"-57.40","49.22","DEER LAKE A","8401501","2012-02-11 15:30","2012","02","11","15:30","3.7","","-2.3","","65","","","","18","","33","","24.1","","101.15","","","","","","Cloudy"
"-57.40","49.22","DEER LAKE A","8401501","2012-02-11 16:30","2012","02","11","16:30","3.8","","-1.4","","69","","","","18","","15","","24.1","","101.08","","","","","","Cloudy"
"-57.40","49.22","DEER LAKE A","8401501","2012-02-11 17:30","2012","02","11","17:30","3.6","","-0.1","","77","","","","15","","7","","19.3","","100.93","","","","","","Drizzle"
"-57.40","49.22","DEER LAKE A","8401501","2012-02-11 18:30","2012","02","11","18:30","2.6","","-0.1","","82","","","","35","","7","","19.3","","100.84","","","","","","Drizzle"
"-57.40","49.22","DEER LAKE A","8401501","2012-02-11 19:30","2012","02","11","19:30","3.6","","0.7","","81","","","","35","","7","","19.3","","100.69","","","","","","Drizzle"
"-57.40","49.22","DEER LAKE A","8401501","2012-02-11 20:30","2012","02","11","20:30","3.4","","1.2","","85","","","","12","","9","","19.3","","100.52","","","","","","Rain"
"-57.40","49.22","DEER LAKE A","8401501","2012-02-11 21:30","2012","02","11","21:30","5.0","","3.2","","88","","","","","","0","","19.3","","100.35","","","","","","Rain"
"-57.40","49.22","DEER LAKE A","8401501","2012-02-11 22:30","2012","02","11","22:30","5.8","","3.7","","86","","","","18","","19","","19.3","","100.25","","","","","","Rain"
"-57.40","49.22","DEER LAKE A","8401501","2012-02-11 23:30","2012","02","11","23:30","6.5","","3.9","","83","","","","17","","19","","24.1","","100.12","","","","","","Rain"
"-57.40","49.22","DEER LAKE A","8401501","2012-02-12 00:30","2012","02","12","00:30","7.4","","3.2","","75","","","","16","","24","","24.1","","99.98","","","","","","Rain"
"-57.40","49.22","DEER LAKE A","8401501","2012-02-12 01:30","2012","02","12","01:30","7.3","","3.0","","74","","","","13","","22","","24.1","","99.88","","","","","","Rain"
"-57.40","49.22","DEER LAKE A","8401501","2012-02-12 02:30","2012","02","12","02:30","6.5","","3.1","","79","","","","13","","20","","24.1","","99.72","","","","","","Cloudy"
"-57.40","49.22","DEER LAKE A","8401501","2012-02-12 03:30","2012","02","12","03:30","5.7","","2.9","","82","","","","9","","13","","24.1","","99.42","","","","","","Cloudy"
"-57.40","49.22","DEER LAKE A","8401501","2012-02-12 04:30","2012","02","12","04:30","6.4","","3.5","","82","","","","10","","19","","19.3","","99.02","","","","","","Rain"
"-57.40","49.22","DEER LAKE A","8401501","2012-02-12 05:30","2012","02","12","05:30","5.8","","3.9","","88","","","","9","","33","","16.1","","98.53","","","","","","Rain"
"-57.40","49.22","DEER LAKE A","8401501","2012-02-12 06:30","2012","02","12","06:30","5.3","","4.4","","94","","","","10","","24","","9.7","","98.04","","","","","","Rain,Fog"
"-57.40","49.22","DEER LAKE A","8401501","2012-02-12 07:30","2012","02","12","07:30","7.4","","5.2","","86","","","","11","","22","","16.1","","97.73","","","","","","Rain"
"-57.40","49.22","DEER LAKE A","8401501","2012-02-12 08:30","2012","02","12","08:30","9.3","","6.0","","80","","","","15","","22","","24.1","","97.56","","","","","","Rain"
"-57.40","49.22","DEER LAKE A","8401501","2012-02-12 09:30","2012","02","12","09:30","9.8","","5.6","","75","","","","17","","46","","24.1","","97.46","","","","","","Mostly Cloudy"
"-57.40","49.22","DEER LAKE A","8401501","2012-02-12 10:30","2012","02","12","10:30","9.5","","5.1","","74","","","","19","","59","","24.1","","97.52","","","","","","Mostly Cloudy"
"-57.40","49.22","DEER LAKE A","8401501","2012-02-12 11:30","2012","02","12","11:30","7.6","","3.9","","77","","","","19","","54","","24.1","","97.85","","","","","","Mostly Cloudy"
"-57.40","49.22","DEER LAKE A","8401501","2012-02-12 12:30","2012","02","12","12:30","6.8","","1.7","","70","","","","22","","37","","24.1","","98.06","","","","","","Mostly Cloudy"
"-57.40","49.22","DEER LAKE A","8401501","2012-02-12 13:30","2012","02","12","13:30","7.5","","0.8","","62","","","","23","","20","","24.1","","98.18","","","","","","Mostly Cloudy"
"-57.40","49.22","DEER LAKE A","8401501","2012-02-12 14:30","2012","02","12","14:30","6.8","","0.7","","65","","","","21","","20","","24.1","","98.24","","","","","","Mainly Clear"
"-57.40","49.22","DEER LAKE A","8401501","2012-02-12 15:30","2012","02","12","15:30","6.6","","0.1","","63","","","","25","","15","","24.1","","98.28","","","","","","Mainly Clear"
"-57.40","49.22","DEER LAKE A","8401501","2012-02-12 16:30","2012","02","12","16:30","2.0","","-2.1","","74","","","","28","","15","","24.1","","98.34","","","","","","Mostly Cloudy"
"-57.40","49.22","DEER LAKE A","8401501","2012-02-12 17:30","2012","02","12","17:30","0.1","","-2.5","","83","","","","27","","15","","12.9","","98.26","","","","","","Rain"
"-57.40","49.22","DEER LAKE A","8401501","2012-02-12 18:30","2012","02","12","18:30","-0.5","","-2.0","","90","","","","25","","13","","9.7","","98.28","","","","-5","","Snow"
"-57.40","49.22","DEER LAKE A","8401501","2012-02-12 19:30","2012","02","12","19:30","-2.3","","-3.4","","92","","","","23","","11","","1.2","","98.09","","","","-6","","Snow"
"-57.40","49.22","DEER LAKE A","8401501","2012-02-12 20:30","2012","02","12","20:30","-3.0","","-3.8","","94","","","","23","","17","","0.8","","98.01","","","","-9","","Moderate Snow"
"-57.40","49.22","DEER LAKE A","8401501","2012-02-12 21:30","2012","02","12","21:30","-4.0","","-5.1","","92","","","","24","","20","","1.2","","98.03","","","","-10","","Snow"
"-57.40","49.22","DEER LAKE A","8401501","2012-02-12 22:30","2012","02","12","22:30","-4.7","","-6.1","","90","","","","25","","19","","1.2","","98.09","","","","-11","","Snow"
"-57.40","49.22","DEER LAKE A","8401501","2012-02-12 23:30","2012","02","12","23:30","-5.0","","-7.5","","83","","","","25","","15","","9.7","","98.19","","","","-11","","Snow Showers"
"-57.40","49.22","DEER LAKE A","8401501","2012-02-13 00:30","2012","02","13","00:30","-5.7","","-8.1","","83","","","","25","","17","","16.1","","98.14","","","","-12","","Cloudy"
"-57.40","49.22","DEER LAKE A","8401501","2012-02-13 01:30","2012","02","13","01:30","-6.0","","-8.1","","85","","","","24","","20","","9.7","","98.39","","","","-13","","Snow Showers"
"-57.40","49.22","DEER LAKE A","8401501","2012-02-13 02:30","2012","02","13","02:30","-6.0","","-8.8","","81","","","","23","","22","","16.1","","98.46","","","","-13","","Snow Showers"
"-57.40","49.22","DEER LAKE A","8401501","2012-02-13 03:30","2012","02","13","03:30","-6.7","","-9.3","","82","","","","24","","20","","16.1","","98.40","","","","-14","","Snow Showers"
"-57.40","49.22","DEER LAKE A","8401501","2012-02-13 04:30","2012","02","13","04:30","-6.8","","-9.5","","81","","","","22","","19","","8.0","","98.60","","","","-14","","Snow Showers"
"-57.40","49.22","DEER LAKE A","8401501","2012-02-13 05:30","2012","02","13","05:30","-7.2","","-10.2","","79","","","","23","","20","","6.4","","98.73","","","","-14","","Snow Showers"
"-57.40","49.22","DEER LAKE A","8401501","2012-02-13 06:30","2012","02","13","06:30","-7.7","","-11.1","","77","","","","23","","19","","16.1","","98.85","","","","-15","","Snow Showers"
"-57.40","49.22","DEER LAKE A","8401501","2012-02-13 07:30","2012","02","13","07:30","-8.0","","-11.4","","76","","","","23","","19","","16.1","","98.95","","","","-15","","Snow Showers"
"-57.40","49.22","DEER LAKE A","8401501","2012-02-13 08:30","2012","02","13","08:30","-8.4","","-10.5","","85","","","","24","","15","","24.1","","99.02","","","","-15","","Snow Showers"
"-57.40","49.22","DEER LAKE A","8401501","2012-02-13 09:30","2012","02","13","09:30","-7.8","","-11.7","","74","","","","20","","19","","24.1","","99.12","","","","-15","","Snow Showers"
"-57.40","49.22","DEER LAKE A","8401501","2012-02-13 10:30","2012","02","13","10:30","-7.3","","-10.2","","80","","","","22","","44","","3.2","","99.15","","","","-18","","Snow Showers,Blowing Snow"
"-57.40","49.22","DEER LAKE A","8401501","2012-02-13 11:30","2012","02","13","11:30","-8.3","","-12.8","","70","","","","22","","48","","16.1","","99.23","","","","-19","","Snow Showers"
"-57.40","49.22","DEER LAKE A","8401501","2012-02-13 12:30","2012","02","13","12:30","-9.5","","-15.0","","64","","","","23","","39","","9.7","","99.33","","","","-20","","Snow Showers"
"-57.40","49.22","DEER LAKE A","8401501","2012-02-13 13:30","2012","02","13","13:30","-10.5","","-15.2","","68","","","","24","","43","","9.7","","99.39","","","","-22","","Snow Showers"
"-57.40","49.22","DEER LAKE A","8401501","2012-02-13 14:30","2012","02","13","14:30","-11.3","","-14.5","","77","","","","22","","37","","4.8","","99.46","","","","-22","","Snow Showers"
"-57.40","49.22","DEER LAKE A","8401501","2012-02-13 15:30","2012","02","13","15:30","-12.3","","-14.8","","82","","","","23","","44","","3.2","","99.58","","","","-24","","Snow Showers"
"-57.40","49.22","DEER LAKE A","8401501","2012-02-13 16:30","2012","02","13","16:30","-12.7","","-14.4","","87","","","","22","","37","","3.2","","99.67","","","","-24","","Snow Showers,Blowing Snow"
"-57.40","49.22","DEER LAKE A","8401501","2012-02-13 17:30","2012","02","13","17:30","-13.4","","-15.0","","88","","","","23","","28","","1.6","","99.80","","","","-24","","Snow Showers,Blowing Snow"
"-57.40","49.22","DEER LAKE A","8401501","2012-02-13 18:30","2012","02","13","18:30","-13.7","","-16.6","","79","","","","23","","26","","12.9","","99.93","","","","-24","","Snow Showers"
"-57.40","49.22","DEER LAKE A","8401501","2012-02-13 19:30","2012","02","13","19:30","-13.7","","-16.7","","78","","","","21","","32","","24.1","","100.01","","","","-25","","Snow Showers"
"-57.40","49.22","DEER LAKE A","8401501","2012-02-13 20:30","2012","02","13","20:30","-13.4","","-16.2","","79","","","","21","","22","","24.1","","100.08","","","","-23","","Snow Showers"
"-57.40","49.22","DEER LAKE A","8401501","2012-02-13 21:30","2012","02","13","21:30","-13.2","","-15.3","","84","","","","20","","19","","6.4","","100.12","","","","-22","","Snow Showers"
"-57.40","49.22","DEER LAKE A","8401501","2012-02-13 22:30","2012","02","13","22:30","-12.6","","-15.1","","82","","","","21","","30","","8.0","","100.14","","","","-23","","Snow Showers"
"-57.40","49.22","DEER LAKE A","8401501","2012-02-13 23:30","2012","02","13","23:30","-12.4","","-15.3","","79","","","","20","","24","","24.1","","100.16","","","","-22","","Snow Showers"
"-57.40","49.22","DEER LAKE A","8401501","2012-02-14 00:30","2012","02","14","00:30","-12.1","","-16.5","","70","","","","22","","28","","24.1","","100.21","","","","-22","","Mainly Clear"
"-57.40","49.22","DEER LAKE A","8401501","2012-02-14 01:30","2012","02","14","01:30","-12.3","","-15.8","","75","","","","21","","28","","24.1","","100.29","","","","-22","","Mainly Clear"
"-57.40","49.22","DEER LAKE A","8401501","2012-02-14 02:30","2012","02","14","02:30","-12.0","","-15.9","","73","","","","21","","32","","24.1","","100.39","","","","-22","","Mainly Clear"
"-57.40","49.22","DEER LAKE A","8401501","2012-02-14 03:30","2012","02","14","03:30","-11.6","","-15.0","","76","","","","22","","26","","24.1","","100.46","","","","-21","","Mainly Clear"
"-57.40","49.22","DEER LAKE A","8401501","2012-02-14 04:30","2012","02","14","04:30","-11.6","","-15.0","","76","","","","21","","20","","24.1","","100.57","","","","-20","","Mostly Cloudy"
"-57.40","49.22","DEER LAKE A","8401501","2012-02-14 05:30","2012","02","14","05:30","-11.4","","-15.1","","74","","","","22","","30","","24.1","","100.64","","","","-21","","Mostly Cloudy"
"-57.40","49.22","DEER LAKE A","8401501","2012-02-14 06:30","2012","02","14","06:30","-11.6","","-15.3","","74","","","","23","","22","","24.1","","100.75","","","","-20","","Mainly Clear"
"-57.40","49.22","DEER LAKE A","8401501","2012-02-14 07:30","2012","02","14","07:30","-11.0","","-15.0","","72","","","","23","","28","","19.3","","100.84","","","","-21","","Mostly Cloudy"
"-57.40","49.22","DEER LAKE A","8401501","2012-02-14 08:30","2012","02","14","08:30","-10.2","","-14.3","","72","","","","23","","35","","24.1","","100.94","","","","-20","","Mostly Cloudy"
"-57.40","49.22","DEER LAKE A","8401501","2012-02-14 09:30","2012","02","14","09:30","-10.1","","-14.5","","70","","","","22","","35","","16.1","","101.07","","","","-20","","Snow Showers"
"-57.40","49.22","DEER LAKE A","8401501","2012-02-14 10:30","2012","02","14","10:30","-9.0","","-14.8","","63","","","","22","","44","","24.1","","101.19","","","","-20","","Snow Showers"
"-57.40","49.22","DEER LAKE A","8401501","2012-02-14 11:30","2012","02","14","11:30","-8.7","","-14.8","","61","","","","22","","41","","24.1","","101.26","","","","-19","","Mostly Cloudy"
"-57.40","49.22","DEER LAKE A","8401501","2012-02-14 12:30","2012","02","14","12:30","-8.4","","-14.2","","63","","","","22","","39","","24.1","","101.33","","","","-19","","Mostly Cloudy"
"-57.40","49.22","DEER LAKE A","8401501","2012-02-14 13:30","2012","02","14","13:30","-7.5","","-13.8","","61","","","","22","","39","","24.1","","101.39","","","","-17","","Mostly Cloudy"
"-57.40","49.22","DEER LAKE A","8401501","2012-02-14 14:30","2012","02","14","14:30","-7.7","","-13.5","","63","","","","22","","39","","24.1","","101.47","","","","-18","","Mostly Cloudy"
"-57.40","49.22","DEER LAKE A","8401501","2012-02-14 15:30","2012","02","14","15:30","-7.8","","-13.0","","66","","","","23","","33","","24.1","","101.58","","","","-17","","Mostly Cloudy"
"-57.40","49.22","DEER LAKE A","8401501","2012-02-14 16:30","2012","02","14","16:30","-8.3","","-13.3","","67","","","","21","","32","","24.1","","101.72","","","","-18","","Mostly Cloudy"
"-57.40","49.22","DEER LAKE A","8401501","2012-02-14 17:30","2012","02","14","17:30","-8.6","","-13.5","","68","","","","22","","26","","24.1","","101.86","","","","-17","","Mostly Cloudy"
"-57.40","49.22","DEER LAKE A","8401501","2012-02-14 18:30","2012","02","14","18:30","-8.5","","-13.7","","66","","","","22","","35","","24.1","","101.97","","","","-18","","Mostly Cloudy"
"-57.40","49.22","DEER LAKE A","8401501","2012-02-14 19:30","2012","02","14","19:30","-8.6","","-13.6","","67","","","","22","","30","","19.3","","102.10","","","","-18","","Snow Showers"
"-57.40","49.22","DEER LAKE A","8401501","2012-02-14 20:30","2012","02","14","20:30","-8.7","","-13.3","","69","","","","22","","20","","24.1","","102.20","","","","-16","","Mostly Cloudy"
"-57.40","49.22","DEER LAKE A","8401501","2012-02-14 21:30","2012","02","14","21:30","-9.0","","-13.4","","70","","","","20","","19","","24.1","","102.29","","","","-16","","Cloudy"
"-57.40","49.22","DEER LAKE A","8401501","2012-02-14 22:30","2012","02","14","22:30","-10.2","","-14.2","","72","","","","17","","11","","24.1","","102.39","","","","-16","","Mainly Clear"
"-57.40","49.22","DEER LAKE A","8401501","2012-02-14 23:30","2012","02","14","23:30","-11.7","","-14.8","","78","","","","17","","4","","24.1","","102.42","","","","-14","","Mainly Clear"
"-57.40","49.22","DEER LAKE A","8401501","2012-02-15 00:30","2012","02","15","00:30","-14.3","","-16.2","","85","","","","35","","4","","24.1","","102.45","","","","-17","","Mainly Clear"
"-57.40","49.22","DEER LAKE A","8401501","2012-02-15 01:30","2012","02","15","01:30","-15.9","","-17.5","","87","","","","31","","2","","24.1","","102.45","","","","-17","","Mainly Clear"
"-57.40","49.22","DEER LAKE A","8401501","2012-02-15 02:30","2012","02","15","02:30","-17.0","","-18.5","","88","","","","5","","6","","24.1","","102.46","","","","-22","","Mostly Cloudy"
"-57.40","49.22","DEER LAKE A","8401501","2012-02-15 03:30","2012","02","15","03:30","-16.7","","-18.0","","90","","","","34","","6","","24.1","","102.48","","","","-21","","Mainly Clear"
"-57.40","49.22","DEER LAKE A","8401501","2012-02-15 04:30","2012","02","15","04:30","-16.7","","-18.3","","87","","","","7","","4","","24.1","","102.49","","","","-20","","Mainly Clear"
"-57.40","49.22","DEER LAKE A","8401501","2012-02-15 05:30","2012","02","15","05:30","-16.1","","-18.1","","85","","","","4","","9","","24.1","","102.51","","","","-22","","Cloudy"
"-57.40","49.22","DEER LAKE A","8401501","2012-02-15 06:30","2012","02","15","06:30","-14.7","","-16.5","","86","","","","7","","7","","24.1","","102.52","","","","-19","","Snow Showers"
"-57.40","49.22","DEER LAKE A","8401501","2012-02-15 07:30","2012","02","15","07:30","-13.8","","-15.6","","86","","","","4","","7","","16.1","","102.53","","","","-18","","Snow Showers"
"-57.40","49.22","DEER LAKE A","8401501","2012-02-15 08:30","2012","02","15","08:30","-12.1","","-14.0","","86","","","","5","","9","","19.3","","102.57","","","","-17","","Snow Showers"
"-57.40","49.22","DEER LAKE A","8401501","2012-02-15 09:30","2012","02","15","09:30","-10.2","","-12.3","","85","","","","5","","13","","19.3","","102.56","","","","-16","","Snow Showers"
"-57.40","49.22","DEER LAKE A","8401501","2012-02-15 10:30","2012","02","15","10:30","-7.5","","-9.7","","84","","","","5","","11","","16.1","","102.49","","","","-13","","Snow Showers"
"-57.40","49.22","DEER LAKE A","8401501","2012-02-15 11:30","2012","02","15","11:30","-5.3","","-7.9","","82","","","","4","","11","","19.3","","102.45","","","","-10","","Snow Showers"
"-57.40","49.22","DEER LAKE A","8401501","2012-02-15 12:30","2012","02","15","12:30","-3.0","","-5.9","","80","","","","5","","9","","19.3","","102.38","","","","-7","","Snow Showers"
"-57.40","49.22","DEER LAKE A","8401501","2012-02-15 13:30","2012","02","15","13:30","-2.1","","-4.5","","84","","","","3","","9","","19.3","","102.35","","","","-6","","Cloudy"
"-57.40","49.22","DEER LAKE A","8401501","2012-02-15 14:30","2012","02","15","14:30","-2.0","","-4.0","","86","","","","4","","9","","19.3","","102.33","","","","-5","","Cloudy"
"-57.40","49.22","DEER LAKE A","8401501","2012-02-15 15:30","2012","02","15","15:30","-0.8","","-3.4","","83","","","","2","","11","","24.1","","102.31","","","","-5","","Cloudy"
"-57.40","49.22","DEER LAKE A","8401501","2012-02-15 16:30","2012","02","15","16:30","-0.7","","-3.0","","84","","","","4","","9","","24.1","","102.31","","","","-4","","Cloudy"
"-57.40","49.22","DEER LAKE A","8401501","2012-02-15 17:30","2012","02","15","17:30","-0.6","","-2.2","","89","","","","6","","9","","24.1","","102.32","","","","-4","","Cloudy"
"-57.40","49.22","DEER LAKE A","8401501","2012-02-15 18:30","2012","02","15","18:30","0.1","","-1.9","","86","","","","4","","7","","24.1","","102.33","","","","","","Cloudy"
"-57.40","49.22","DEER LAKE A","8401501","2012-02-15 19:30","2012","02","15","19:30","-1.0","","-2.3","","91","","","","4","","6","","24.1","","102.34","","","","-3","","Cloudy"
"-57.40","49.22","DEER LAKE A","8401501","2012-02-15 20:30","2012","02","15","20:30","-1.4","","-2.6","","92","","","","4","","7","","24.1","","102.32","","","","-4","","Cloudy"
"-57.40","49.22","DEER LAKE A","8401501","2012-02-15 21:30","2012","02","15","21:30","-2.0","","-3.0","","93","","","","5","","4","","24.1","","102.33","","","","-3","","Cloudy"
"-57.40","49.22","DEER LAKE A","8401501","2012-02-15 22:30","2012","02","15","22:30","-2.1","","-3.2","","92","","","","4","","7","","24.1","","102.29","","","","-5","","Cloudy"
"-57.40","49.22","DEER LAKE A","8401501","2012-02-15 23:30","2012","02","15","23:30","-2.9","","-3.6","","95","","","","6","","7","","24.1","","102.24","","","","-6","","Cloudy"
"-57.40","49.22","DEER LAKE A","8401501","2012-02-16 00:30","2012","02","16","00:30","-2.5","","-3.2","","95","","","","3","","4","","24.1","","102.21","","","","-4","","Cloudy"
"-57.40","49.22","DEER LAKE A","8401501","2012-02-16 01:30","2012","02","16","01:30","-2.3","","-3.2","","94","","","","3","","6","","24.1","","102.17","","","","-5","","Cloudy"
"-57.40","49.22","DEER LAKE A","8401501","2012-02-16 02:30","2012","02","16","02:30","-2.3","","-3.3","","93","","","","5","","6","","24.1","","102.13","","","","-5","","Cloudy"
"-57.40","49.22","DEER LAKE A","8401501","2012-02-16 03:30","2012","02","16","03:30","-2.1","","-3.0","","94","","","","4","","6","","24.1","","102.07","","","","-4","","Cloudy"
"-57.40","49.22","DEER LAKE A","8401501","2012-02-16 04:30","2012","02","16","04:30","-2.1","","-3.1","","93","","","","6","","9","","24.1","","102.08","","","","-6","","Cloudy"
"-57.40","49.22","DEER LAKE A","8401501","2012-02-16 05:30","2012","02","16","05:30","-2.1","","-3.1","","93","","","","6","","7","","24.1","","102.08","","","","-5","","Cloudy"
"-57.40","49.22","DEER LAKE A","8401501","2012-02-16 06:30","2012","02","16","06:30","-1.8","","-2.9","","92","","","","3","","4","","24.1","","102.06","","","","-3","","Cloudy"
"-57.40","49.22","DEER LAKE A","8401501","2012-02-16 07:30","2012","02","16","07:30","-1.0","","-1.9","","94","","","","4","","7","","24.1","","102.06","","","","-4","","Cloudy"
"-57.40","49.22","DEER LAKE A","8401501","2012-02-16 08:30","2012","02","16","08:30","-0.5","","-1.7","","92","","","","4","","15","","16.1","","102.07","","","","-5","","Cloudy"
"-57.40","49.22","DEER LAKE A","8401501","2012-02-16 09:30","2012","02","16","09:30","-0.3","","-1.6","","91","","","","4","","15","","16.1","","102.07","","","","-5","","Freezing Drizzle"
"-57.40","49.22","DEER LAKE A","8401501","2012-02-16 10:30","2012","02","16","10:30","0.4","","-1.2","","89","","","","3","","13","","19.3","","102.04","","","","","","Freezing Drizzle"
"-57.40","49.22","DEER LAKE A","8401501","2012-02-16 11:30","2012","02","16","11:30","0.8","","-1.4","","85","","","","3","","15","","24.1","","102.00","","","","","","Cloudy"
"-57.40","49.22","DEER LAKE A","8401501","2012-02-16 12:30","2012","02","16","12:30","1.1","","-1.7","","82","","","","3","","19","","24.1","","101.90","","","","","","Cloudy"
"-57.40","49.22","DEER LAKE A","8401501","2012-02-16 13:30","2012","02","16","13:30","1.0","","-1.7","","82","","","","4","","22","","24.1","","101.83","","","","","","Cloudy"
"-57.40","49.22","DEER LAKE A","8401501","2012-02-16 14:30","2012","02","16","14:30","0.4","","-1.8","","85","","","","4","","20","","24.1","","101.78","","","","","","Cloudy"
"-57.40","49.22","DEER LAKE A","8401501","2012-02-16 15:30","2012","02","16","15:30","-0.2","","-2.2","","86","","","","4","","26","","24.1","","101.77","","","","-6","","Cloudy"
"-57.40","49.22","DEER LAKE A","8401501","2012-02-16 16:30","2012","02","16","16:30","-0.6","","-2.7","","86","","","","4","","22","","24.1","","101.77","","","","-6","","Cloudy"
"-57.40","49.22","DEER LAKE A","8401501","2012-02-16 17:30","2012","02","16","17:30","-1.1","","-2.8","","88","","","","3","","22","","6.4","","101.73","","","","-7","","Snow"
"-57.40","49.22","DEER LAKE A","8401501","2012-02-16 18:30","2012","02","16","18:30","-1.4","","-3.0","","89","","","","3","","19","","6.4","","101.72","","","","-7","","Snow"
"-57.40","49.22","DEER LAKE A","8401501","2012-02-16 19:30","2012","02","16","19:30","-1.6","","-3.3","","88","","","","4","","26","","6.4","","101.68","","","","-8","","Snow"
"-57.40","49.22","DEER LAKE A","8401501","2012-02-16 20:30","2012","02","16","20:30","-1.8","","-3.2","","90","","","","4","","20","","4.8","","101.62","","","","-8","","Snow"
"-57.40","49.22","DEER LAKE A","8401501","2012-02-16 21:30","2012","02","16","21:30","-1.8","","-3.4","","89","","","","4","","22","","9.7","","101.58","","","","-8","","Snow"
"-57.40","49.22","DEER LAKE A","8401501","2012-02-16 22:30","2012","02","16","22:30","-1.7","","-3.4","","88","","","","4","","26","","16.1","","101.52","","","","-8","","Snow"
"-57.40","49.22","DEER LAKE A","8401501","2012-02-16 23:30","2012","02","16","23:30","-1.8","","-3.4","","89","","","","4","","19","","16.1","","101.42","","","","-7","","Snow"
"-57.40","49.22","DEER LAKE A","8401501","2012-02-17 00:30","2012","02","17","00:30","-1.8","","-3.2","","90","","","","3","","17","","12.9","","101.34","","","","-7","","Snow"
"-57.40","49.22","DEER LAKE A","8401501","2012-02-17 01:30","2012","02","17","01:30","-1.7","","-3.1","","90","","","","2","","19","","16.1","","101.27","","","","-7","","Snow"
"-57.40","49.22","DEER LAKE A","8401501","2012-02-17 02:30","2012","02","17","02:30","-1.4","","-3.1","","88","","","","3","","15","","19.3","","101.20","","","","-6","","Snow"
"-57.40","49.22","DEER LAKE A","8401501","2012-02-17 03:30","2012","02","17","03:30","-1.2","","-3.5","","84","","","","3","","13","","19.3","","101.16","","","","-5","","Snow"
"-57.40","49.22","DEER LAKE A","8401501","2012-02-17 04:30","2012","02","17","04:30","-1.2","","-3.6","","84","","","","1","","7","","24.1","","101.10","","","","-4","","Snow"
"-57.40","49.22","DEER LAKE A","8401501","2012-02-17 05:30","2012","02","17","05:30","-1.0","","-3.8","","81","","","","2","","11","","24.1","","101.05","","","","-5","","Snow"
"-57.40","49.22","DEER LAKE A","8401501","2012-02-17 06:30","2012","02","17","06:30","-1.2","","-3.6","","84","","","","","","0","","24.1","","101.04","","","","","","Snow"
"-57.40","49.22","DEER LAKE A","8401501","2012-02-17 07:30","2012","02","17","07:30","-1.1","","-4.0","","81","","","","","","0","","24.1","","101.04","","","","","","Snow"
"-57.40","49.22","DEER LAKE A","8401501","2012-02-17 08:30","2012","02","17","08:30","-1.0","","-3.5","","83","","","","","","0","","24.1","","101.03","","","","","","Cloudy"
"-57.40","49.22","DEER LAKE A","8401501","2012-02-17 09:30","2012","02","17","09:30","0.1","","-4.2","","73","","","","36","","7","","24.1","","101.01","","","","","","Cloudy"
"-57.40","49.22","DEER LAKE A","8401501","2012-02-17 10:30","2012","02","17","10:30","0.4","","-4.5","","70","","","","1","","13","","24.1","","100.95","","","","","","Mostly Cloudy"
"-57.40","49.22","DEER LAKE A","8401501","2012-02-17 11:30","2012","02","17","11:30","0.8","","-3.7","","72","","","","4","","13","","24.1","","100.96","","","","","","Mostly Cloudy"
"-57.40","49.22","DEER LAKE A","8401501","2012-02-17 12:30","2012","02","17","12:30","1.1","","-3.7","","70","","","","","","0","","24.1","","100.90","","","","","","Mostly Cloudy"
"-57.40","49.22","DEER LAKE A","8401501","2012-02-17 13:30","2012","02","17","13:30","1.8","","-4.0","","65","","","","21","","7","","24.1","","100.86","","","","","","Mostly Cloudy"
"-57.40","49.22","DEER LAKE A","8401501","2012-02-17 14:30","2012","02","17","14:30","2.3","","-3.7","","64","","","","29","","7","","24.1","","100.79","","","","","","Mostly Cloudy"
"-57.40","49.22","DEER LAKE A","8401501","2012-02-17 15:30","2012","02","17","15:30","2.0","","-3.6","","66","","","","30","","13","","24.1","","100.79","","","","","","Mostly Cloudy"
"-57.40","49.22","DEER LAKE A","8401501","2012-02-17 16:30","2012","02","17","16:30","1.7","","-3.1","","70","","","","30","","9","","24.1","","100.77","","","","","","Mostly Cloudy"
"-57.40","49.22","DEER LAKE A","8401501","2012-02-17 17:30","2012","02","17","17:30","0.1","","-3.5","","77","","","","30","","9","","24.1","","100.79","","","","","","Mainly Clear"
"-57.40","49.22","DEER LAKE A","8401501","2012-02-17 18:30","2012","02","17","18:30","-0.9","","-3.5","","82","","","","29","","13","","24.1","","100.82","","","","-5","","Mainly Clear"
"-57.40","49.22","DEER LAKE A","8401501","2012-02-17 19:30","2012","02","17","19:30","-1.2","","-3.7","","83","","","","23","","7","","24.1","","100.87","","","","-4","","Mainly Clear"
"-57.40","49.22","DEER LAKE A","8401501","2012-02-17 20:30","2012","02","17","20:30","-1.1","","-3.8","","82","","","","24","","7","","24.1","","100.87","","","","-4","","Mostly Cloudy"
"-57.40","49.22","DEER LAKE A","8401501","2012-02-17 21:30","2012","02","17","21:30","-1.5","","-3.9","","84","","","","22","","9","","24.1","","100.86","","","","-5","","Mostly Cloudy"
"-57.40","49.22","DEER LAKE A","8401501","2012-02-17 22:30","2012","02","17","22:30","-1.6","","-4.1","","83","","","","23","","9","","24.1","","100.83","","","","-5","","Mostly Cloudy"
"-57.40","49.22","DEER LAKE A","8401501","2012-02-17 23:30","2012","02","17","23:30","-1.6","","-3.8","","85","","","","22","","9","","24.1","","100.83","","","","-5","","Mostly Cloudy"
"-57.40","49.22","DEER LAKE A","8401501","2012-02-18 00:30","2012","02","18","00:30","-1.8","","-4.1","","84","","","","22","","13","","24.1","","100.80","","","","-6","","Mostly Cloudy"
"-57.40","49.22","DEER LAKE A","8401501","2012-02-18 01:30","2012","02","18","01:30","-1.8","","-4.2","","84","","","","22","","11","","24.1","","100.78","","","","-6","","Cloudy"
"-57.40","49.22","DEER LAKE A","8401501","2012-02-18 02:30","2012","02","18","02:30","-1.9","","-3.9","","86","","","","20","","11","","24.1","","100.75","","","","-6","","Cloudy"
"-57.40","49.22","DEER LAKE A","8401501","2012-02-18 03:30","2012","02","18","03:30","-1.8","","-4.1","","84","","","","24","","7","","24.1","","100.71","","","","-4","","Cloudy"
"-57.40","49.22","DEER LAKE A","8401501","2012-02-18 04:30","2012","02","18","04:30","-1.9","","-4.1","","85","","","","25","","6","","24.1","","100.66","","","","-4","","Cloudy"
"-57.40","49.22","DEER LAKE A","8401501","2012-02-18 05:30","2012","02","18","05:30","-2.2","","-4.5","","84","","","","","","0","","24.1","","100.61","","","","","","Cloudy"
"-57.40","49.22","DEER LAKE A","8401501","2012-02-18 06:30","2012","02","18","06:30","-2.5","","-4.6","","85","","","","","","0","","24.1","","100.52","","","","","","Cloudy"
"-57.40","49.22","DEER LAKE A","8401501","2012-02-18 07:30","2012","02","18","07:30","-2.5","","-4.4","","87","","","","","","0","","24.1","","100.56","","","","","","Cloudy"
"-57.40","49.22","DEER LAKE A","8401501","2012-02-18 08:30","2012","02","18","08:30","-2.3","","-4.5","","85","","","","","","0","","24.1","","100.62","","","","","","Cloudy"
"-57.40","49.22","DEER LAKE A","8401501","2012-02-18 09:30","2012","02","18","09:30","-1.8","","-4.1","","84","","","","","","0","","24.1","","100.58","","","","","","Cloudy"
"-57.40","49.22","DEER LAKE A","8401501","2012-02-18 10:30","2012","02","18","10:30","-0.4","","-4.1","","76","","","","3","","9","","24.1","","100.44","","","","-4","","Cloudy"
"-57.40","49.22","DEER LAKE A","8401501","2012-02-18 11:30","2012","02","18","11:30","0.0","","-3.9","","75","","","","11","","9","","24.1","","100.41","","","","-3","","Cloudy"
"-57.40","49.22","DEER LAKE A","8401501","2012-02-18 12:30","2012","02","18","12:30","0.3","","-3.9","","73","","","","12","","7","","24.1","","100.26","","","","","","Cloudy"
"-57.40","49.22","DEER LAKE A","8401501","2012-02-18 13:30","2012","02","18","13:30","0.4","","-3.3","","76","","","","9","","13","","24.1","","100.15","","","","","","Cloudy"
"-57.40","49.22","DEER LAKE A","8401501","2012-02-18 14:30","2012","02","18","14:30","0.4","","-3.4","","76","","","","7","","22","","24.1","","100.07","","","","","","Cloudy"
"-57.40","49.22","DEER LAKE A","8401501","2012-02-18 15:30","2012","02","18","15:30","0.4","","-3.3","","76","","","","8","","17","","24.1","","99.93","","","","","","Cloudy"
"-57.40","49.22","DEER LAKE A","8401501","2012-02-18 16:30","2012","02","18","16:30","0.0","","-3.5","","77","","","","6","","28","","24.1","","99.80","","","","-6","","Cloudy"
"-57.40","49.22","DEER LAKE A","8401501","2012-02-18 17:30","2012","02","18","17:30","-0.4","","-3.7","","78","","","","6","","26","","24.1","","99.78","","","","-7","","Cloudy"
"-57.40","49.22","DEER LAKE A","8401501","2012-02-18 18:30","2012","02","18","18:30","-1.7","","-2.8","","92","","","","5","","17","","1.2","","99.78","","","","-7","","Snow"
"-57.40","49.22","DEER LAKE A","8401501","2012-02-18 19:30","2012","02","18","19:30","-2.1","","-2.9","","94","","","","3","","17","","1.0","","99.66","","","","-7","","Snow"
"-57.40","49.22","DEER LAKE A","8401501","2012-02-18 20:30","2012","02","18","20:30","-2.1","","-3.0","","94","","","","4","","24","","1.0","","99.48","","","","-8","","Snow"
"-57.40","49.22","DEER LAKE A","8401501","2012-02-18 21:30","2012","02","18","21:30","-2.1","","-3.0","","94","","","","3","","33","","1.0","","99.26","","","","-10","","Snow"
"-57.40","49.22","DEER LAKE A","8401501","2012-02-18 22:30","2012","02","18","22:30","-2.1","","-3.2","","92","","","","4","","32","","1.2","","99.16","","","","-9","","Snow"
"-57.40","49.22","DEER LAKE A","8401501","2012-02-18 23:30","2012","02","18","23:30","-2.3","","-3.5","","91","","","","3","","32","","2.4","","99.04","","","","-10","","Snow"
"-57.40","49.22","DEER LAKE A","8401501","2012-02-19 00:30","2012","02","19","00:30","-2.5","","-3.8","","91","","","","3","","19","","4.8","","98.96","","","","-8","","Snow"
"-57.40","49.22","DEER LAKE A","8401501","2012-02-19 01:30","2012","02","19","01:30","-2.5","","-4.0","","89","","","","4","","15","","16.1","","98.86","","","","-7","","Snow"
"-57.40","49.22","DEER LAKE A","8401501","2012-02-19 02:30","2012","02","19","02:30","-2.5","","-4.1","","89","","","","3","","15","","16.1","","98.77","","","","-7","","Snow"
"-57.40","49.22","DEER LAKE A","8401501","2012-02-19 03:30","2012","02","19","03:30","-2.9","","-4.6","","88","","","","2","","19","","19.3","","98.64","","","","-9","","Snow"
"-57.40","49.22","DEER LAKE A","8401501","2012-02-19 04:30","2012","02","19","04:30","-2.9","","-4.8","","87","","","","2","","19","","19.3","","98.59","","","","-9","","Snow"
"-57.40","49.22","DEER LAKE A","8401501","2012-02-19 05:30","2012","02","19","05:30","-2.6","","-4.9","","84","","","","3","","24","","16.1","","98.53","","","","-9","","Snow"
"-57.40","49.22","DEER LAKE A","8401501","2012-02-19 06:30","2012","02","19","06:30","-2.6","","-4.8","","85","","","","2","","20","","16.1","","98.51","","","","-9","","Snow"
"-57.40","49.22","DEER LAKE A","8401501","2012-02-19 07:30","2012","02","19","07:30","-2.6","","-4.2","","89","","","","36","","11","","3.2","","98.52","","","","-7","","Snow"
"-57.40","49.22","DEER LAKE A","8401501","2012-02-19 08:30","2012","02","19","08:30","-2.1","","-4.4","","84","","","","36","","7","","9.7","","98.57","","","","-5","","Snow"
"-57.40","49.22","DEER LAKE A","8401501","2012-02-19 09:30","2012","02","19","09:30","-1.6","","-4.2","","82","","","","36","","7","","4.8","","98.58","","","","-4","","Snow"
"-57.40","49.22","DEER LAKE A","8401501","2012-02-19 10:30","2012","02","19","10:30","-1.8","","-3.4","","89","","","","30","","13","","3.2","","98.57","","","","-6","","Snow"
"-57.40","49.22","DEER LAKE A","8401501","2012-02-19 11:30","2012","02","19","11:30","-1.1","","-3.5","","84","","","","30","","13","","6.4","","98.54","","","","-5","","Snow"
"-57.40","49.22","DEER LAKE A","8401501","2012-02-19 12:30","2012","02","19","12:30","-0.9","","-3.5","","82","","","","28","","19","","6.4","","98.51","","","","-6","","Snow"
"-57.40","49.22","DEER LAKE A","8401501","2012-02-19 13:30","2012","02","19","13:30","-0.6","","-3.6","","80","","","","30","","19","","6.4","","98.47","","","","-6","","Snow"
"-57.40","49.22","DEER LAKE A","8401501","2012-02-19 14:30","2012","02","19","14:30","-0.3","","-3.7","","78","","","","29","","17","","8.0","","98.47","","","","-5","","Snow"
"-57.40","49.22","DEER LAKE A","8401501","2012-02-19 15:30","2012","02","19","15:30","-0.7","","-4.3","","77","","","","28","","24","","9.7","","98.54","","","","-7","","Snow"
"-57.40","49.22","DEER LAKE A","8401501","2012-02-19 16:30","2012","02","19","16:30","-1.1","","-4.6","","77","","","","26","","17","","24.1","","98.66","","","","-6","","Mostly Cloudy"
"-57.40","49.22","DEER LAKE A","8401501","2012-02-19 17:30","2012","02","19","17:30","-1.7","","-4.9","","79","","","","28","","19","","24.1","","98.75","","","","-7","","Mostly Cloudy"
"-57.40","49.22","DEER LAKE A","8401501","2012-02-19 18:30","2012","02","19","18:30","-2.2","","-5.6","","77","","","","27","","17","","24.1","","98.88","","","","-8","","Mostly Cloudy"
"-57.40","49.22","DEER LAKE A","8401501","2012-02-19 19:30","2012","02","19","19:30","-2.6","","-6.1","","77","","","","26","","15","","24.1","","98.99","","","","-8","","Mostly Cloudy"
"-57.40","49.22","DEER LAKE A","8401501","2012-02-19 20:30","2012","02","19","20:30","-2.9","","-6.4","","77","","","","27","","15","","24.1","","99.03","","","","-8","","Mostly Cloudy"
"-57.40","49.22","DEER LAKE A","8401501","2012-02-19 21:30","2012","02","19","21:30","-3.0","","-6.7","","76","","","","27","","20","","24.1","","99.14","","","","-9","","Mostly Cloudy"
"-57.40","49.22","DEER LAKE A","8401501","2012-02-19 22:30","2012","02","19","22:30","-3.2","","-6.9","","76","","","","27","","15","","24.1","","99.18","","","","-8","","Cloudy"
"-57.40","49.22","DEER LAKE A","8401501","2012-02-19 23:30","2012","02","19","23:30","-3.6","","-7.5","","74","","","","27","","15","","24.1","","99.23","","","","-9","","Cloudy"
"-57.40","49.22","DEER LAKE A","8401501","2012-02-20 00:30","2012","02","20","00:30","-3.7","","-7.6","","74","","","","27","","15","","24.1","","99.29","","","","-9","","Cloudy"
"-57.40","49.22","DEER LAKE A","8401501","2012-02-20 01:30","2012","02","20","01:30","-4.1","","-8.0","","74","","","","27","","19","","24.1","","99.30","","","","-10","","Cloudy"
"-57.40","49.22","DEER LAKE A","8401501","2012-02-20 02:30","2012","02","20","02:30","-4.6","","-8.3","","75","","","","28","","28","","24.1","","99.38","","","","-12","","Cloudy"
"-57.40","49.22","DEER LAKE A","8401501","2012-02-20 03:30","2012","02","20","03:30","-5.0","","-8.2","","78","","","","24","","20","","24.1","","99.39","","","","-12","","Cloudy"
"-57.40","49.22","DEER LAKE A","8401501","2012-02-20 04:30","2012","02","20","04:30","-5.2","","-8.7","","76","","","","26","","17","","24.1","","99.48","","","","-11","","Cloudy"
"-57.40","49.22","DEER LAKE A","8401501","2012-02-20 05:30","2012","02","20","05:30","-5.4","","-9.0","","76","","","","26","","19","","24.1","","99.59","","","","-12","","Cloudy"
"-57.40","49.22","DEER LAKE A","8401501","2012-02-20 06:30","2012","02","20","06:30","-5.3","","-8.8","","76","","","","24","","19","","24.1","","99.65","","","","-12","","Cloudy"
"-57.40","49.22","DEER LAKE A","8401501","2012-02-20 07:30","2012","02","20","07:30","-5.4","","-9.0","","76","","","","25","","17","","24.1","","99.71","","","","-11","","Mostly Cloudy"
"-57.40","49.22","DEER LAKE A","8401501","2012-02-20 08:30","2012","02","20","08:30","-4.7","","-8.8","","73","","","","24","","13","","12.9","","99.80","","","","-10","","Snow Showers"
"-57.40","49.22","DEER LAKE A","8401501","2012-02-20 09:30","2012","02","20","09:30","-4.5","","-9.0","","71","","","","26","","17","","16.1","","99.80","","","","-10","","Snow Showers"
"-57.40","49.22","DEER LAKE A","8401501","2012-02-20 10:30","2012","02","20","10:30","-4.1","","-8.8","","70","","","","26","","24","","14.5","","99.87","","","","-11","","Snow Showers"
"-57.40","49.22","DEER LAKE A","8401501","2012-02-20 11:30","2012","02","20","11:30","-3.9","","-8.6","","70","","","","27","","22","","12.9","","99.93","","","","-10","","Snow Showers"
"-57.40","49.22","DEER LAKE A","8401501","2012-02-20 12:30","2012","02","20","12:30","-3.9","","-9.2","","67","","","","27","","24","","12.9","","99.94","","","","-11","","Snow Showers"
"-57.40","49.22","DEER LAKE A","8401501","2012-02-20 13:30","2012","02","20","13:30","-3.9","","-9.2","","67","","","","27","","17","","12.9","","99.97","","","","-10","","Snow Showers"
"-57.40","49.22","DEER LAKE A","8401501","2012-02-20 14:30","2012","02","20","14:30","-4.3","","-8.4","","73","","","","28","","17","","11.3","","100.01","","","","-10","","Snow Showers"
"-57.40","49.22","DEER LAKE A","8401501","2012-02-20 15:30","2012","02","20","15:30","-4.5","","-9.4","","69","","","","28","","19","","9.7","","100.06","","","","-11","","Snow Showers"
"-57.40","49.22","DEER LAKE A","8401501","2012-02-20 16:30","2012","02","20","16:30","-5.0","","-9.6","","70","","","","29","","19","","12.9","","100.12","","","","-11","","Snow Showers"
"-57.40","49.22","DEER LAKE A","8401501","2012-02-20 17:30","2012","02","20","17:30","-5.4","","-10.2","","69","","","","28","","11","","16.1","","100.18","","","","-10","","Snow Showers"
"-57.40","49.22","DEER LAKE A","8401501","2012-02-20 18:30","2012","02","20","18:30","-5.6","","-10.3","","69","","","","25","","13","","16.1","","100.25","","","","-11","","Snow Showers"
"-57.40","49.22","DEER LAKE A","8401501","2012-02-20 19:30","2012","02","20","19:30","-5.5","","-9.8","","72","","","","24","","9","","16.1","","100.31","","","","-10","","Snow Showers"
"-57.40","49.22","DEER LAKE A","8401501","2012-02-20 20:30","2012","02","20","20:30","-6.3","","-10.0","","75","","","","22","","15","","16.1","","100.33","","","","-12","","Snow Showers"
"-57.40","49.22","DEER LAKE A","8401501","2012-02-20 21:30","2012","02","20","21:30","-6.0","","-9.5","","76","","","","23","","7","","24.1","","100.37","","","","-9","","Snow Showers"
"-57.40","49.22","DEER LAKE A","8401501","2012-02-20 22:30","2012","02","20","22:30","-8.0","","-11.1","","78","","","","26","","7","","24.1","","100.40","","","","-12","","Mostly Cloudy"
"-57.40","49.22","DEER LAKE A","8401501","2012-02-20 23:30","2012","02","20","23:30","-10.8","","-12.9","","84","","","","24","","6","","24.1","","100.42","","","","-14","","Mainly Clear"
"-57.40","49.22","DEER LAKE A","8401501","2012-02-21 00:30","2012","02","21","00:30","-9.1","","-11.8","","81","","","","27","","7","","24.1","","100.42","","","","-13","","Mainly Clear"
"-57.40","49.22","DEER LAKE A","8401501","2012-02-21 01:30","2012","02","21","01:30","-8.0","","-12.0","","73","","","","30","","13","","24.1","","100.42","","","","-14","","Mainly Clear"
"-57.40","49.22","DEER LAKE A","8401501","2012-02-21 02:30","2012","02","21","02:30","-8.2","","-13.3","","67","","","","7","","9","","24.1","","100.46","","","","-13","","Mainly Clear"
"-57.40","49.22","DEER LAKE A","8401501","2012-02-21 03:30","2012","02","21","03:30","-8.1","","-12.8","","69","","","","36","","9","","24.1","","100.48","","","","-13","","Mainly Clear"
"-57.40","49.22","DEER LAKE A","8401501","2012-02-21 04:30","2012","02","21","04:30","-8.2","","-13.2","","67","","","","12","","9","","24.1","","100.58","","","","-13","","Mainly Clear"
"-57.40","49.22","DEER LAKE A","8401501","2012-02-21 05:30","2012","02","21","05:30","-9.3","","-14.0","","69","","","","28","","6","","24.1","","100.68","","","","-13","","Mainly Clear"
"-57.40","49.22","DEER LAKE A","8401501","2012-02-21 06:30","2012","02","21","06:30","-9.0","","-13.4","","70","","","","27","","9","","24.1","","100.79","","","","-14","","Clear"
"-57.40","49.22","DEER LAKE A","8401501","2012-02-21 07:30","2012","02","21","07:30","-11.6","","-15.1","","75","","","","20","","9","","24.1","","100.84","","","","-17","","Clear"
"-57.40","49.22","DEER LAKE A","8401501","2012-02-21 08:30","2012","02","21","08:30","-8.3","","-13.0","","69","","","","26","","15","","24.1","","100.91","","","","-15","","Mainly Clear"
"-57.40","49.22","DEER LAKE A","8401501","2012-02-21 09:30","2012","02","21","09:30","-7.1","","-12.6","","65","","","","29","","17","","24.1","","100.94","","","","-14","","Mainly Clear"
"-57.40","49.22","DEER LAKE A","8401501","2012-02-21 10:30","2012","02","21","10:30","-6.5","","-12.6","","62","","","","29","","15","","24.1","","100.96","","","","-12","","Mainly Clear"
"-57.40","49.22","DEER LAKE A","8401501","2012-02-21 11:30","2012","02","21","11:30","-5.8","","-12.1","","61","","","","31","","13","","24.1","","100.91","","","","-11","","Mainly Clear"
"-57.40","49.22","DEER LAKE A","8401501","2012-02-21 12:30","2012","02","21","12:30","-5.4","","-12.4","","58","","","","30","","15","","24.1","","100.88","","","","-11","","Mainly Clear"
"-57.40","49.22","DEER LAKE A","8401501","2012-02-21 13:30","2012","02","21","13:30","-5.3","","-12.4","","57","","","","27","","19","","24.1","","100.85","","","","-12","","Mainly Clear"
"-57.40","49.22","DEER LAKE A","8401501","2012-02-21 14:30","2012","02","21","14:30","-5.2","","-12.1","","58","","","","27","","20","","24.1","","100.84","","","","-12","","Mainly Clear"
"-57.40","49.22","DEER LAKE A","8401501","2012-02-21 15:30","2012","02","21","15:30","-5.9","","-12.8","","58","","","","28","","22","","24.1","","100.91","","","","-13","","Mainly Clear"
"-57.40","49.22","DEER LAKE A","8401501","2012-02-21 16:30","2012","02","21","16:30","-7.1","","-13.0","","63","","","","26","","20","","24.1","","100.97","","","","-14","","Mainly Clear"
"-57.40","49.22","DEER LAKE A","8401501","2012-02-21 17:30","2012","02","21","17:30","-8.0","","-13.9","","62","","","","25","","15","","24.1","","101.03","","","","-14","","Mainly Clear"
"-57.40","49.22","DEER LAKE A","8401501","2012-02-21 18:30","2012","02","21","18:30","-8.5","","-13.3","","68","","","","24","","13","","24.1","","101.07","","","","-14","","Mostly Cloudy"
"-57.40","49.22","DEER LAKE A","8401501","2012-02-21 19:30","2012","02","21","19:30","-8.7","","-13.0","","71","","","","25","","13","","24.1","","101.11","","","","-15","","Mainly Clear"
"-57.40","49.22","DEER LAKE A","8401501","2012-02-21 20:30","2012","02","21","20:30","-9.4","","-13.3","","73","","","","23","","11","","24.1","","101.10","","","","-15","","Mainly Clear"
"-57.40","49.22","DEER LAKE A","8401501","2012-02-21 21:30","2012","02","21","21:30","-9.1","","-12.6","","76","","","","22","","11","","24.1","","101.09","","","","-15","","Mostly Cloudy"
"-57.40","49.22","DEER LAKE A","8401501","2012-02-21 22:30","2012","02","21","22:30","-8.4","","-11.7","","77","","","","21","","11","","24.1","","101.06","","","","-14","","Mostly Cloudy"
"-57.40","49.22","DEER LAKE A","8401501","2012-02-21 23:30","2012","02","21","23:30","-7.1","","-10.5","","77","","","","22","","13","","24.1","","101.03","","","","-13","","Mostly Cloudy"
"-57.40","49.22","DEER LAKE A","8401501","2012-02-22 00:30","2012","02","22","00:30","-6.6","","-10.2","","76","","","","23","","17","","24.1","","101.00","","","","-13","","Cloudy"
"-57.40","49.22","DEER LAKE A","8401501","2012-02-22 01:30","2012","02","22","01:30","-5.8","","-9.1","","77","","","","24","","22","","24.1","","100.97","","","","-13","","Cloudy"
"-57.40","49.22","DEER LAKE A","8401501","2012-02-22 02:30","2012","02","22","02:30","-5.8","","-9.8","","73","","","","23","","19","","24.1","","100.94","","","","-12","","Mostly Cloudy"
"-57.40","49.22","DEER LAKE A","8401501","2012-02-22 03:30","2012","02","22","03:30","-5.3","","-9.3","","73","","","","23","","11","","24.1","","100.92","","","","-10","","Mostly Cloudy"
"-57.40","49.22","DEER LAKE A","8401501","2012-02-22 04:30","2012","02","22","04:30","-5.0","","-8.6","","76","","","","22","","7","","24.1","","100.93","","","","-8","","Cloudy"
"-57.40","49.22","DEER LAKE A","8401501","2012-02-22 05:30","2012","02","22","05:30","-4.5","","-7.7","","78","","","","21","","28","","24.1","","100.93","","","","-12","","Mostly Cloudy"
"-57.40","49.22","DEER LAKE A","8401501","2012-02-22 06:30","2012","02","22","06:30","-4.7","","-7.8","","79","","","","22","","22","","24.1","","100.93","","","","-12","","Mostly Cloudy"
"-57.40","49.22","DEER LAKE A","8401501","2012-02-22 07:30","2012","02","22","07:30","-5.7","","-8.4","","81","","","","21","","24","","24.1","","100.96","","","","-13","","Mostly Cloudy"
"-57.40","49.22","DEER LAKE A","8401501","2012-02-22 08:30","2012","02","22","08:30","-4.3","","-8.0","","75","","","","22","","19","","24.1","","100.95","","","","-10","","Mostly Cloudy"
"-57.40","49.22","DEER LAKE A","8401501","2012-02-22 09:30","2012","02","22","09:30","-4.1","","-8.1","","74","","","","23","","19","","24.1","","100.89","","","","-10","","Mostly Cloudy"
"-57.40","49.22","DEER LAKE A","8401501","2012-02-22 10:30","2012","02","22","10:30","-3.0","","-7.5","","71","","","","24","","11","","24.1","","100.83","","","","-7","","Cloudy"
"-57.40","49.22","DEER LAKE A","8401501","2012-02-22 11:30","2012","02","22","11:30","-2.1","","-7.6","","66","","","","21","","15","","24.1","","100.80","","","","-7","","Cloudy"
"-57.40","49.22","DEER LAKE A","8401501","2012-02-22 12:30","2012","02","22","12:30","-1.4","","-7.6","","63","","","","22","","9","","24.1","","100.74","","","","-5","","Cloudy"
"-57.40","49.22","DEER LAKE A","8401501","2012-02-22 13:30","2012","02","22","13:30","-0.4","","-8.8","","53","","","","22","","26","","24.1","","100.69","","","","-7","","Mostly Cloudy"
"-57.40","49.22","DEER LAKE A","8401501","2012-02-22 14:30","2012","02","22","14:30","0.2","","-7.5","","56","","","","21","","13","","24.1","","100.62","","","","","","Mostly Cloudy"
"-57.40","49.22","DEER LAKE A","8401501","2012-02-22 15:30","2012","02","22","15:30","0.2","","-8.2","","53","","","","19","","22","","24.1","","100.56","","","","","","Mostly Cloudy"
"-57.40","49.22","DEER LAKE A","8401501","2012-02-22 16:30","2012","02","22","16:30","-0.3","","-7.0","","61","","","","18","","13","","24.1","","100.46","","","","-4","","Mostly Cloudy"
"-57.40","49.22","DEER LAKE A","8401501","2012-02-22 17:30","2012","02","22","17:30","-0.6","","-6.4","","65","","","","15","","6","","24.1","","100.40","","","","-3","","Cloudy"
"-57.40","49.22","DEER LAKE A","8401501","2012-02-22 18:30","2012","02","22","18:30","-0.9","","-4.6","","76","","","","18","","9","","11.3","","100.37","","","","-4","","Snow Showers"
"-57.40","49.22","DEER LAKE A","8401501","2012-02-22 19:30","2012","02","22","19:30","-1.5","","-4.7","","79","","","","4","","9","","4.8","","100.31","","","","-5","","Snow"
"-57.40","49.22","DEER LAKE A","8401501","2012-02-22 20:30","2012","02","22","20:30","-2.2","","-3.6","","90","","","","5","","11","","3.2","","100.22","","","","-6","","Snow"
"-57.40","49.22","DEER LAKE A","8401501","2012-02-22 21:30","2012","02","22","21:30","-2.2","","-3.1","","94","","","","3","","11","","3.2","","100.15","","","","-6","","Snow"
"-57.40","49.22","DEER LAKE A","8401501","2012-02-22 22:30","2012","02","22","22:30","-2.1","","-2.9","","94","","","","2","","13","","4.8","","100.07","","","","-7","","Snow"
"-57.40","49.22","DEER LAKE A","8401501","2012-02-22 23:30","2012","02","22","23:30","-2.4","","-3.3","","94","","","","3","","17","","4.8","","99.97","","","","-8","","Snow"
"-57.40","49.22","DEER LAKE A","8401501","2012-02-23 00:30","2012","02","23","00:30","-2.4","","-3.3","","94","","","","3","","15","","4.8","","99.87","","","","-7","","Snow"
"-57.40","49.22","DEER LAKE A","8401501","2012-02-23 01:30","2012","02","23","01:30","-2.5","","-3.5","","93","","","","3","","19","","4.8","","99.80","","","","-8","","Snow"
"-57.40","49.22","DEER LAKE A","8401501","2012-02-23 02:30","2012","02","23","02:30","-2.4","","-3.5","","92","","","","3","","11","","4.8","","99.84","","","","-6","","Snow"
"-57.40","49.22","DEER LAKE A","8401501","2012-02-23 03:30","2012","02","23","03:30","-2.5","","-3.4","","94","","","","2","","7","","4.8","","99.83","","","","-5","","Snow"
"-57.40","49.22","DEER LAKE A","8401501","2012-02-23 04:30","2012","02","23","04:30","-2.4","","-3.4","","93","","","","2","","9","","4.8","","99.83","","","","-6","","Snow"
"-57.40","49.22","DEER LAKE A","8401501","2012-02-23 05:30","2012","02","23","05:30","-2.5","","-3.7","","91","","","","5","","6","","4.8","","99.90","","","","-5","","Snow"
"-57.40","49.22","DEER LAKE A","8401501","2012-02-23 06:30","2012","02","23","06:30","-2.5","","-3.5","","93","","","","","","0","","8.0","","99.96","","","","","","Snow"
"-57.40","49.22","DEER LAKE A","8401501","2012-02-23 07:30","2012","02","23","07:30","-2.5","","-3.4","","94","","","","","","0","","6.4","","100.02","","","","","","Snow"
"-57.40","49.22","DEER LAKE A","8401501","2012-02-23 08:30","2012","02","23","08:30","-2.2","","-3.1","","94","","","","","","0","","9.7","","100.12","","","","","","Snow"
"-57.40","49.22","DEER LAKE A","8401501","2012-02-23 09:30","2012","02","23","09:30","-1.8","","-3.3","","89","","","","","","0","","9.7","","100.17","","","","","","Snow"
"-57.40","49.22","DEER LAKE A","8401501","2012-02-23 10:30","2012","02","23","10:30","-1.0","","-2.5","","90","","","","","","0","","9.7","","100.15","","","","","","Snow"
"-57.40","49.22","DEER LAKE A","8401501","2012-02-23 11:30","2012","02","23","11:30","-0.3","","-2.6","","84","","","","","","0","","16.1","","100.20","","","","","","Snow"
"-57.40","49.22","DEER LAKE A","8401501","2012-02-23 12:30","2012","02","23","12:30","0.4","","-2.1","","83","","","","2","","4","","12.9","","100.21","","","","","","Snow"
"-57.40","49.22","DEER LAKE A","8401501","2012-02-23 13:30","2012","02","23","13:30","1.7","","-0.9","","83","","","","","","0","","19.3","","100.19","","","","","","Mostly Cloudy"
"-57.40","49.22","DEER LAKE A","8401501","2012-02-23 14:30","2012","02","23","14:30","4.3","","0.0","","74","","","","22","","4","","24.1","","100.20","","","","","","Mostly Cloudy"
"-57.40","49.22","DEER LAKE A","8401501","2012-02-23 15:30","2012","02","23","15:30","4.7","","-0.2","","71","","","","23","","9","","24.1","","100.28","","","","","","Mostly Cloudy"
"-57.40","49.22","DEER LAKE A","8401501","2012-02-23 16:30","2012","02","23","16:30","3.9","","-0.7","","72","","","","32","","4","","24.1","","100.32","","","","","","Mostly Cloudy"
"-57.40","49.22","DEER LAKE A","8401501","2012-02-23 17:30","2012","02","23","17:30","2.1","","-1.2","","79","","","","","","0","","24.1","","100.28","","","","","","Mostly Cloudy"
"-57.40","49.22","DEER LAKE A","8401501","2012-02-23 18:30","2012","02","23","18:30","1.0","","-1.0","","86","","","","1","","7","","24.1","","100.24","","","","","","Mostly Cloudy"
"-57.40","49.22","DEER LAKE A","8401501","2012-02-23 19:30","2012","02","23","19:30","0.1","","-1.3","","90","","","","3","","11","","24.1","","100.22","","","","","","Mostly Cloudy"
"-57.40","49.22","DEER LAKE A","8401501","2012-02-23 20:30","2012","02","23","20:30","-0.4","","-1.6","","92","","","","4","","19","","24.1","","100.16","","","","-6","","Mostly Cloudy"
"-57.40","49.22","DEER LAKE A","8401501","2012-02-23 21:30","2012","02","23","21:30"
"-57.40","49.22","DEER LAKE A","8401501","2012-02-23 22:30","2012","02","23","22:30","-0.9","","-2.4","","90","","","","4","","24","","24.1","","99.98","","","","-7","","Cloudy"
"-57.40","49.22","DEER LAKE A","8401501","2012-02-23 23:30","2012","02","23","23:30","-0.4","","-2.0","","89","","","","3","","22","","24.1","","99.84","","","","-6","","Cloudy"
"-57.40","49.22","DEER LAKE A","8401501","2012-02-24 00:30","2012","02","24","00:30","0.0","","-1.6","","89","","","","3","","20","","24.1","","99.74","","","","-5","","Cloudy"
"-57.40","49.22","DEER LAKE A","8401501","2012-02-24 01:30","2012","02","24","01:30","0.1","","-1.6","","88","","","","3","","26","","24.1","","99.57","","","","","","Snow"
"-57.40","49.22","DEER LAKE A","8401501","2012-02-24 02:30","2012","02","24","02:30","0.6","","-1.2","","88","","","","4","","41","","24.1","","99.39","","","","","","Snow"
"-57.40","49.22","DEER LAKE A","8401501","2012-02-24 03:30","2012","02","24","03:30","0.4","","-1.6","","86","","","","5","","37","","3.2","","99.27","","","","","","Snow"
"-57.40","49.22","DEER LAKE A","8401501","2012-02-24 04:30","2012","02","24","04:30","-0.3","","-1.3","","93","","","","4","","32","","1.6","","99.05","","","","-7","","Snow"
"-57.40","49.22","DEER LAKE A","8401501","2012-02-24 05:30","2012","02","24","05:30","-0.5","","-1.5","","93","","","","4","","33","","1.6","","98.87","","","","-7","","Snow"
"-57.40","49.22","DEER LAKE A","8401501","2012-02-24 06:30","2012","02","24","06:30","-0.8","","-1.9","","92","","","","5","","37","","1.6","","98.73","","","","-8","","Snow"
"-57.40","49.22","DEER LAKE A","8401501","2012-02-24 07:30","2012","02","24","07:30","-1.6","","-2.6","","93","","","","4","","28","","0.8","","98.72","","","","-8","","Moderate Snow"
"-57.40","49.22","DEER LAKE A","8401501","2012-02-24 08:30","2012","02","24","08:30","-1.9","","-2.9","","93","","","","3","","30","","1.0","","98.71","","","","-9","","Snow"
"-57.40","49.22","DEER LAKE A","8401501","2012-02-24 09:30","2012","02","24","09:30","-1.3","","-2.5","","92","","","","3","","30","","1.6","","98.70","","","","-8","","Snow"
"-57.40","49.22","DEER LAKE A","8401501","2012-02-24 10:30","2012","02","24","10:30","-0.7","","-2.4","","88","","","","3","","26","","11.3","","98.69","","","","-7","","Snow Showers"
"-57.40","49.22","DEER LAKE A","8401501","2012-02-24 11:30","2012","02","24","11:30","-0.1","","-2.4","","84","","","","3","","37","","12.9","","98.70","","","","-7","","Snow Showers"
"-57.40","49.22","DEER LAKE A","8401501","2012-02-24 12:30","2012","02","24","12:30","0.6","","-2.2","","81","","","","3","","24","","14.5","","98.73","","","","","","Cloudy"
"-57.40","49.22","DEER LAKE A","8401501","2012-02-24 13:30","2012","02","24","13:30","1.2","","-2.1","","79","","","","2","","20","","19.3","","98.81","","","","","","Cloudy"
"-57.40","49.22","DEER LAKE A","8401501","2012-02-24 14:30","2012","02","24","14:30","1.2","","-1.5","","82","","","","34","","11","","4.8","","98.97","","","","","","Snow Showers"
"-57.40","49.22","DEER LAKE A","8401501","2012-02-24 15:30","2012","02","24","15:30","1.3","","-0.6","","87","","","","31","","7","","4.8","","99.13","","","","","","Snow Showers"
"-57.40","49.22","DEER LAKE A","8401501","2012-02-24 16:30","2012","02","24","16:30","1.5","","-0.8","","85","","","","29","","13","","24.1","","99.28","","","","","","Mostly Cloudy"
"-57.40","49.22","DEER LAKE A","8401501","2012-02-24 17:30","2012","02","24","17:30","1.3","","-2.0","","79","","","","31","","15","","24.1","","99.41","","","","","","Mostly Cloudy"
"-57.40","49.22","DEER LAKE A","8401501","2012-02-24 18:30","2012","02","24","18:30","0.5","","-2.0","","83","","","","28","","17","","24.1","","99.64","","","","","","Mostly Cloudy"
"-57.40","49.22","DEER LAKE A","8401501","2012-02-24 19:30","2012","02","24","19:30","0.3","","-2.7","","80","","","","31","","20","","24.1","","99.76","","","","","","Mostly Cloudy"
"-57.40","49.22","DEER LAKE A","8401501","2012-02-24 20:30","2012","02","24","20:30","0.1","","-2.8","","81","","","","24","","9","","24.1","","99.93","","","","","","Mostly Cloudy"
"-57.40","49.22","DEER LAKE A","8401501","2012-02-24 21:30","2012","02","24","21:30","-0.1","","-2.9","","81","","","","30","","11","","24.1","","100.05","","","","-4","","Mostly Cloudy"
"-57.40","49.22","DEER LAKE A","8401501","2012-02-24 22:30","2012","02","24","22:30","-1.4","","-3.7","","84","","","","18","","6","","24.1","","100.14","","","","-4","","Mostly Cloudy"
"-57.40","49.22","DEER LAKE A","8401501","2012-02-24 23:30","2012","02","24","23:30","-2.2","","-3.6","","90","","","","","","0","","24.1","","100.26","","","","","","Mostly Cloudy"
"-57.40","49.22","DEER LAKE A","8401501","2012-02-25 00:30","2012","02","25","00:30","-1.7","","-3.8","","86","","","","29","","7","","24.1","","100.28","","","","-4","","Mostly Cloudy"
"-57.40","49.22","DEER LAKE A","8401501","2012-02-25 01:30","2012","02","25","01:30","-2.8","","-4.2","","90","","","","23","","11","","24.1","","100.38","","","","-7","","Mostly Cloudy"
"-57.40","49.22","DEER LAKE A","8401501","2012-02-25 02:30","2012","02","25","02:30","-3.3","","-4.5","","91","","","","","","0","","24.1","","100.42","","","","","","Mostly Cloudy"
"-57.40","49.22","DEER LAKE A","8401501","2012-02-25 03:30","2012","02","25","03:30","-3.4","","-4.5","","92","","","","18","","6","","24.1","","100.44","","","","-6","","Cloudy"
"-57.40","49.22","DEER LAKE A","8401501","2012-02-25 04:30","2012","02","25","04:30","-3.0","","-4.1","","92","","","","","","0","","24.1","","100.42","","","","","","Cloudy"
"-57.40","49.22","DEER LAKE A","8401501","2012-02-25 05:30","2012","02","25","05:30","-2.6","","-4.0","","90","","","","7","","9","","24.1","","100.28","","","","-6","","Cloudy"
"-57.40","49.22","DEER LAKE A","8401501","2012-02-25 06:30","2012","02","25","06:30","-1.7","","-3.4","","88","","","","4","","17","","24.1","","100.08","","","","-7","","Snow"
"-57.40","49.22","DEER LAKE A","8401501","2012-02-25 07:30","2012","02","25","07:30","-1.5","","-3.8","","84","","","","5","","30","","19.3","","99.96","","","","-8","","Snow"
"-57.40","49.22","DEER LAKE A","8401501","2012-02-25 08:30","2012","02","25","08:30","-1.6","","-4.0","","84","","","","6","","24","","24.1","","99.96","","","","-8","","Cloudy"
"-57.40","49.22","DEER LAKE A","8401501","2012-02-25 09:30","2012","02","25","09:30","-1.8","","-4.2","","84","","","","5","","30","","24.1","","99.71","","","","-9","","Cloudy"
"-57.40","49.22","DEER LAKE A","8401501","2012-02-25 10:30","2012","02","25","10:30","-2.0","","-4.4","","84","","","","5","","33","","12.9","","99.55","","","","-9","","Snow Showers"
"-57.40","49.22","DEER LAKE A","8401501","2012-02-25 11:30","2012","02","25","11:30","-2.2","","-3.7","","89","","","","6","","28","","4.0","","99.18","","","","-9","","Snow"
"-57.40","49.22","DEER LAKE A","8401501","2012-02-25 12:30","2012","02","25","12:30","-2.1","","-3.6","","89","","","","5","","37","","0.8","","98.79","","","","-10","","Moderate Snow"
"-57.40","49.22","DEER LAKE A","8401501","2012-02-25 13:30","2012","02","25","13:30","-2.1","","-3.1","","93","","","","5","","26","","0.8","","98.60","","","","-9","","Moderate Snow"
"-57.40","49.22","DEER LAKE A","8401501","2012-02-25 14:30","2012","02","25","14:30","-1.8","","-2.7","","94","","","","4","","33","","0.8","","98.27","","","","-9","","Moderate Snow"
"-57.40","49.22","DEER LAKE A","8401501","2012-02-25 15:30","2012","02","25","15:30","-1.5","","-2.7","","92","","","","3","","30","","1.2","","98.04","","","","-8","","Snow"
"-57.40","49.22","DEER LAKE A","8401501","2012-02-25 16:30","2012","02","25","16:30","-0.1","","-2.8","","82","","","","5","","26","","9.7","","97.84","","","","-6","","Snow"
"-57.40","49.22","DEER LAKE A","8401501","2012-02-25 17:30","2012","02","25","17:30","0.2","","-2.9","","80","","","","4","","17","","16.1","","97.64","","","","","","Cloudy"
"-57.40","49.22","DEER LAKE A","8401501","2012-02-25 18:30","2012","02","25","18:30","-0.3","","-2.4","","86","","","","4","","15","","16.1","","97.53","","","","-5","","Snow Showers"
"-57.40","49.22","DEER LAKE A","8401501","2012-02-25 19:30","2012","02","25","19:30","-0.9","","-1.9","","93","","","","35","","6","","9.7","","97.50","","","","-3","","Snow Showers"
"-57.40","49.22","DEER LAKE A","8401501","2012-02-25 20:30","2012","02","25","20:30","-1.2","","-2.0","","94","","","","5","","9","","4.8","","97.50","","","","-4","","Snow Showers"
"-57.40","49.22","DEER LAKE A","8401501","2012-02-25 21:30","2012","02","25","21:30","-1.4","","-2.2","","94","","","","","","0","","9.7","","97.49","","","","","","Snow Showers"
"-57.40","49.22","DEER LAKE A","8401501","2012-02-25 22:30","2012","02","25","22:30","-2.0","","-2.7","","95","","","","","","0","","16.1","","97.43","","","","","","Snow Showers"
"-57.40","49.22","DEER LAKE A","8401501","2012-02-25 23:30","2012","02","25","23:30","-1.8","","-2.3","","96","","","","","","0","","12.9","","97.42","","","","","","Snow Showers"
"-57.40","49.22","DEER LAKE A","8401501","2012-02-26 00:30","2012","02","26","00:30","-2.7","","-3.6","","94","","","","","","0","","16.1","","97.34","","","","","","Snow Showers"
"-57.40","49.22","DEER LAKE A","8401501","2012-02-26 01:30","2012","02","26","01:30","-2.0","","-2.7","","95","","","","","","0","","2.4","","97.32","","","","","","Snow Showers"
"-57.40","49.22","DEER LAKE A","8401501","2012-02-26 02:30","2012","02","26","02:30","-2.3","","-3.0","","95","","","","2","","11","","19.3","","97.25","","","","-6","","Snow"
"-57.40","49.22","DEER LAKE A","8401501","2012-02-26 03:30","2012","02","26","03:30","-2.5","","-3.2","","95","","","","","","0","","19.3","","97.21","","","","","","Snow"
"-57.40","49.22","DEER LAKE A","8401501","2012-02-26 04:30","2012","02","26","04:30","-1.2","","-3.5","","84","","","","19","","13","","12.9","","97.25","","","","-5","","Snow"
"-57.40","49.22","DEER LAKE A","8401501","2012-02-26 05:30","2012","02","26","05:30","-1.8","","-3.9","","86","","","","10","","6","","16.1","","97.23","","","","-4","","Snow"
"-57.40","49.22","DEER LAKE A","8401501","2012-02-26 06:30","2012","02","26","06:30","-2.0","","-3.7","","88","","","","","","0","","1.6","","97.26","","","","","","Snow"
"-57.40","49.22","DEER LAKE A","8401501","2012-02-26 07:30","2012","02","26","07:30","-2.2","","-3.0","","94","","","","3","","13","","1.6","","97.31","","","","-7","","Snow"
"-57.40","49.22","DEER LAKE A","8401501","2012-02-26 08:30","2012","02","26","08:30","-1.8","","-2.7","","94","","","","2","","11","","3.2","","97.41","","","","-6","","Snow"
"-57.40","49.22","DEER LAKE A","8401501","2012-02-26 09:30","2012","02","26","09:30","-1.4","","-2.5","","92","","","","2","","9","","16.1","","97.57","","","","-5","","Snow Showers"
"-57.40","49.22","DEER LAKE A","8401501","2012-02-26 10:30","2012","02","26","10:30","-0.1","","-2.5","","84","","","","28","","9","","9.7","","97.77","","","","-3","","Snow Showers"
"-57.40","49.22","DEER LAKE A","8401501","2012-02-26 11:30","2012","02","26","11:30","1.1","","-1.6","","82","","","","28","","13","","24.1","","97.94","","","","","","Mostly Cloudy"
"-57.40","49.22","DEER LAKE A","8401501","2012-02-26 12:30","2012","02","26","12:30","1.2","","-1.8","","80","","","","30","","15","","24.1","","98.11","","","","","","Cloudy"
"-57.40","49.22","DEER LAKE A","8401501","2012-02-26 13:30","2012","02","26","13:30","0.8","","-3.6","","72","","","","31","","20","","12.9","","98.36","","","","","","Cloudy"
"-57.40","49.22","DEER LAKE A","8401501","2012-02-26 14:30","2012","02","26","14:30","0.8","","-4.6","","67","","","","32","","19","","19.3","","98.65","","","","","","Cloudy"
"-57.40","49.22","DEER LAKE A","8401501","2012-02-26 15:30","2012","02","26","15:30","0.7","","-4.8","","67","","","","31","","15","","24.1","","98.90","","","","","","Mostly Cloudy"
"-57.40","49.22","DEER LAKE A","8401501","2012-02-26 16:30","2012","02","26","16:30","0.3","","-4.7","","69","","","","33","","9","","24.1","","99.17","","","","","","Mostly Cloudy"
"-57.40","49.22","DEER LAKE A","8401501","2012-02-26 17:30","2012","02","26","17:30","-0.6","","-4.0","","78","","","","29","","19","","24.1","","99.45","","","","-6","","Mostly Cloudy"
"-57.40","49.22","DEER LAKE A","8401501","2012-02-26 18:30","2012","02","26","18:30","-1.7","","-4.4","","82","","","","29","","7","","24.1","","99.66","","","","-4","","Mostly Cloudy"
"-57.40","49.22","DEER LAKE A","8401501","2012-02-26 19:30","2012","02","26","19:30","-2.2","","-5.2","","80","","","","29","","6","","24.1","","99.85","","","","-5","","Mostly Cloudy"
"-57.40","49.22","DEER LAKE A","8401501","2012-02-26 20:30","2012","02","26","20:30","-2.6","","-5.5","","80","","","","28","","11","","24.1","","100.04","","","","-7","","Mostly Cloudy"
"-57.40","49.22","DEER LAKE A","8401501","2012-02-26 21:30","2012","02","26","21:30","-2.9","","-6.0","","79","","","","30","","15","","24.1","","100.20","","","","-8","","Mostly Cloudy"
"-57.40","49.22","DEER LAKE A","8401501","2012-02-26 22:30","2012","02","26","22:30","-2.9","","-6.2","","78","","","","29","","11","","24.1","","100.31","","","","-7","","Mainly Clear"
"-57.40","49.22","DEER LAKE A","8401501","2012-02-26 23:30","2012","02","26","23:30","-3.5","","-6.6","","79","","","","26","","7","","24.1","","100.45","","","","-6","","Mostly Cloudy"
"-57.40","49.22","DEER LAKE A","8401501","2012-02-27 00:30","2012","02","27","00:30"
"-57.40","49.22","DEER LAKE A","8401501","2012-02-27 01:30","2012","02","27","01:30","-5.0","","-7.8","","81","","","","24","","9","","24.1","","100.65","","","","-9","","Mostly Cloudy"
"-57.40","49.22","DEER LAKE A","8401501","2012-02-27 02:30","2012","02","27","02:30","-6.7","","-9.5","","80","","","","19","","11","","24.1","","100.79","","","","-12","","Mostly Cloudy"
"-57.40","49.22","DEER LAKE A","8401501","2012-02-27 03:30","2012","02","27","03:30","-5.2","","-8.3","","79","","","","23","","9","","24.1","","100.90","","","","-9","","Mostly Cloudy"
"-57.40","49.22","DEER LAKE A","8401501","2012-02-27 04:30","2012","02","27","04:30","-5.8","","-8.4","","82","","","","24","","7","","24.1","","101.02","","","","-9","","Mostly Cloudy"
"-57.40","49.22","DEER LAKE A","8401501","2012-02-27 05:30","2012","02","27","05:30","-8.0","","-9.8","","87","","","","26","","7","","24.1","","101.12","","","","-12","","Mostly Cloudy"
"-57.40","49.22","DEER LAKE A","8401501","2012-02-27 06:30","2012","02","27","06:30","-8.6","","-11.2","","81","","","","23","","7","","24.1","","101.22","","","","-12","","Mostly Cloudy"
"-57.40","49.22","DEER LAKE A","8401501","2012-02-27 07:30","2012","02","27","07:30","-9.3","","-10.4","","92","","","","23","","6","","24.1","","101.30","","","","-13","","Mostly Cloudy"
"-57.40","49.22","DEER LAKE A","8401501","2012-02-27 08:30","2012","02","27","08:30","-7.5","","-9.8","","84","","","","22","","7","","24.1","","101.34","","","","-11","","Mostly Cloudy"
"-57.40","49.22","DEER LAKE A","8401501","2012-02-27 09:30","2012","02","27","09:30","-4.8","","-8.8","","74","","","","21","","11","","24.1","","101.34","","","","-9","","Mostly Cloudy"
"-57.40","49.22","DEER LAKE A","8401501","2012-02-27 10:30","2012","02","27","10:30","-3.1","","-8.6","","66","","","","21","","17","","24.1","","101.29","","","","-9","","Mostly Cloudy"
"-57.40","49.22","DEER LAKE A","8401501","2012-02-27 11:30","2012","02","27","11:30","-1.5","","-7.9","","62","","","","21","","26","","24.1","","101.24","","","","-8","","Mostly Cloudy"
"-57.40","49.22","DEER LAKE A","8401501","2012-02-27 12:30","2012","02","27","12:30","-3.8","","-8.5","","70","","","","30","","20","","24.1","","101.29","","","","-10","","Cloudy"
"-57.40","49.22","DEER LAKE A","8401501","2012-02-27 13:30","2012","02","27","13:30","-4.3","","-9.3","","68","","","","29","","22","","19.3","","101.39","","","","-11","","Mostly Cloudy"
"-57.40","49.22","DEER LAKE A","8401501","2012-02-27 14:30","2012","02","27","14:30","-5.0","","-10.4","","66","","","","29","","24","","16.1","","101.47","","","","-12","","Snow Showers"
"-57.40","49.22","DEER LAKE A","8401501","2012-02-27 15:30","2012","02","27","15:30","-6.3","","-12.7","","60","","","","29","","22","","19.3","","101.57","","","","-14","","Snow Showers"
"-57.40","49.22","DEER LAKE A","8401501","2012-02-27 16:30","2012","02","27","16:30","-8.1","","-13.9","","63","","","","28","","19","","24.1","","101.67","","","","-15","","Snow Showers"
"-57.40","49.22","DEER LAKE A","8401501","2012-02-27 17:30","2012","02","27","17:30","-8.7","","-13.8","","67","","","","27","","13","","24.1","","101.74","","","","-15","","Snow Showers"
"-57.40","49.22","DEER LAKE A","8401501","2012-02-27 18:30","2012","02","27","18:30","-9.9","","-14.4","","70","","","","25","","11","","24.1","","101.85","","","","-15","","Mainly Clear"
"-57.40","49.22","DEER LAKE A","8401501","2012-02-27 19:30","2012","02","27","19:30","-10.1","","-14.8","","68","","","","25","","15","","24.1","","101.91","","","","-17","","Mainly Clear"
"-57.40","49.22","DEER LAKE A","8401501","2012-02-27 20:30","2012","02","27","20:30","-10.4","","-14.7","","71","","","","21","","13","","24.1","","101.92","","","","-17","","Mostly Cloudy"
"-57.40","49.22","DEER LAKE A","8401501","2012-02-27 21:30","2012","02","27","21:30","-9.6","","-14.2","","69","","","","23","","13","","24.1","","102.00","","","","-16","","Snow Showers"
"-57.40","49.22","DEER LAKE A","8401501","2012-02-27 22:30","2012","02","27","22:30","-9.4","","-14.5","","66","","","","24","","13","","24.1","","102.01","","","","-15","","Mostly Cloudy"
"-57.40","49.22","DEER LAKE A","8401501","2012-02-27 23:30","2012","02","27","23:30","-9.4","","-14.3","","67","","","","25","","7","","24.1","","102.03","","","","-13","","Snow Showers"
"-57.40","49.22","DEER LAKE A","8401501","2012-02-28 00:30","2012","02","28","00:30","-9.3","","-14.0","","69","","","","23","","9","","24.1","","102.01","","","","-14","","Snow Showers"
"-57.40","49.22","DEER LAKE A","8401501","2012-02-28 01:30","2012","02","28","01:30","-10.1","","-14.3","","71","","","","22","","7","","24.1","","101.99","","","","-14","","Mostly Cloudy"
"-57.40","49.22","DEER LAKE A","8401501","2012-02-28 02:30","2012","02","28","02:30","-10.8","","-14.4","","75","","","","19","","9","","24.1","","101.97","","","","-16","","Mostly Cloudy"
"-57.40","49.22","DEER LAKE A","8401501","2012-02-28 03:30","2012","02","28","03:30","-12.7","","-15.3","","81","","","","27","","7","","24.1","","101.98","","","","-17","","Mostly Cloudy"
"-57.40","49.22","DEER LAKE A","8401501","2012-02-28 04:30","2012","02","28","04:30","-15.8","","-17.6","","86","","","","7","","6","","24.1","","101.99","","","","-20","","Mostly Cloudy"
"-57.40","49.22","DEER LAKE A","8401501","2012-02-28 05:30","2012","02","28","05:30","-16.1","","-18.2","","84","","","","19","","6","","24.1","","101.98","","","","-21","","Mostly Cloudy"
"-57.40","49.22","DEER LAKE A","8401501","2012-02-28 06:30","2012","02","28","06:30","-16.2","","-17.9","","87","","","","","","0","","24.1","","102.00","","","","","","Mostly Cloudy"
"-57.40","49.22","DEER LAKE A","8401501","2012-02-28 07:30","2012","02","28","07:30","-15.8","","-17.9","","84","","","","","","0","","24.1","","101.97","","","","","","Mostly Cloudy"
"-57.40","49.22","DEER LAKE A","8401501","2012-02-28 08:30","2012","02","28","08:30","-14.2","","-16.5","","83","","","","","","0","","24.1","","102.02","","","","","","Mostly Cloudy"
"-57.40","49.22","DEER LAKE A","8401501","2012-02-28 09:30","2012","02","28","09:30","-9.7","","-14.7","","67","","","","29","","9","","24.1","","102.00","","","","-15","","Mostly Cloudy"
"-57.40","49.22","DEER LAKE A","8401501","2012-02-28 10:30","2012","02","28","10:30","-9.7","","-15.6","","62","","","","28","","7","","24.1","","101.98","","","","-14","","Mostly Cloudy"
"-57.40","49.22","DEER LAKE A","8401501","2012-02-28 11:30","2012","02","28","11:30","-7.9","","-15.1","","56","","","","3","","6","","24.1","","101.93","","","","-11","","Mainly Clear"
"-57.40","49.22","DEER LAKE A","8401501","2012-02-28 12:30","2012","02","28","12:30","-6.7","","-15.3","","50","","","","","","0","","24.1","","101.86","","","","","","Mainly Clear"
"-57.40","49.22","DEER LAKE A","8401501","2012-02-28 13:30","2012","02","28","13:30","-7.1","","-15.8","","50","","","","35","","13","","24.1","","101.78","","","","-13","","Mainly Clear"
"-57.40","49.22","DEER LAKE A","8401501","2012-02-28 14:30","2012","02","28","14:30","-6.8","","-16.6","","46","","","","28","","9","","24.1","","101.75","","","","-11","","Mostly Cloudy"
"-57.40","49.22","DEER LAKE A","8401501","2012-02-28 15:30","2012","02","28","15:30","-6.8","","-15.7","","49","","","","33","","11","","24.1","","101.74","","","","-12","","Mostly Cloudy"
"-57.40","49.22","DEER LAKE A","8401501","2012-02-28 16:30","2012","02","28","16:30","-7.2","","-15.7","","51","","","","31","","11","","24.1","","101.74","","","","-12","","Mostly Cloudy"
"-57.40","49.22","DEER LAKE A","8401501","2012-02-28 17:30","2012","02","28","17:30","-8.5","","-14.6","","61","","","","30","","7","","24.1","","101.75","","","","-12","","Mostly Cloudy"
"-57.40","49.22","DEER LAKE A","8401501","2012-02-28 18:30","2012","02","28","18:30","-9.7","","-14.7","","67","","","","31","","6","","24.1","","101.78","","","","-13","","Mostly Cloudy"
"-57.40","49.22","DEER LAKE A","8401501","2012-02-28 19:30","2012","02","28","19:30","-10.4","","-14.9","","70","","","","28","","6","","24.1","","101.80","","","","-14","","Mostly Cloudy"
"-57.40","49.22","DEER LAKE A","8401501","2012-02-28 20:30","2012","02","28","20:30","-11.5","","-15.1","","75","","","","","","0","","24.1","","101.81","","","","","","Mainly Clear"
"-57.40","49.22","DEER LAKE A","8401501","2012-02-28 21:30","2012","02","28","21:30","-12.0","","-15.5","","75","","","","","","0","","24.1","","101.83","","","","","","Mainly Clear"
"-57.40","49.22","DEER LAKE A","8401501","2012-02-28 22:30","2012","02","28","22:30","-15.5","","-18.6","","77","","","","","","0","","24.1","","101.84","","","","","","Mainly Clear"
"-57.40","49.22","DEER LAKE A","8401501","2012-02-28 23:30","2012","02","28","23:30","-17.6","","-19.4","","86","","","","","","0","","24.1","","101.84","","","","","","Mainly Clear"
"-57.40","49.22","DEER LAKE A","8401501","2012-02-29 00:30","2012","02","29","00:30","-19.5","","-21.6","","83","","","","","","0","","24.1","","101.86","","","","","","Mainly Clear"
"-57.40","49.22","DEER LAKE A","8401501","2012-02-29 01:30","2012","02","29","01:30","-20.3","","-21.6","","89","","","","","","0","","24.1","","101.88","","","","","","Mainly Clear"
"-57.40","49.22","DEER LAKE A","8401501","2012-02-29 02:30","2012","02","29","02:30","-22.5","","-23.8","","89","","","","","","0","","24.1","","101.88","","","","","","Mainly Clear"
"-57.40","49.22","DEER LAKE A","8401501","2012-02-29 03:30","2012","02","29","03:30","-23.8","","-25.2","","88","","","","","","0","","24.1","","101.88","","","","","","Mainly Clear"
"-57.40","49.22","DEER LAKE A","8401501","2012-02-29 04:30","2012","02","29","04:30","-26.0","","-30.9","","63","","","","6","","6","","24.1","","101.88","","","","-32","","Mainly Clear"
"-57.40","49.22","DEER LAKE A","8401501","2012-02-29 05:30","2012","02","29","05:30","-26.2","","-31.3","","62","","","","","","0","","24.1","","101.86","","","","","","Mainly Clear"
"-57.40","49.22","DEER LAKE A","8401501","2012-02-29 06:30","2012","02","29","06:30","-26.8","","-31.9","","62","","","","5","","6","","24.1","","101.87","","","","-33","","Mostly Cloudy"
"-57.40","49.22","DEER LAKE A","8401501","2012-02-29 07:30","2012","02","29","07:30","-26.0","","-30.3","","67","","","","","","0","","24.1","","101.91","","","","","","Mostly Cloudy"
"-57.40","49.22","DEER LAKE A","8401501","2012-02-29 08:30","2012","02","29","08:30","-24.3","","-28.4","","69","","","","","","0","","24.1","","101.90","","","","","","Mostly Cloudy"
"-57.40","49.22","DEER LAKE A","8401501","2012-02-29 09:30","2012","02","29","09:30","-21.1","","-24.9","","71","","","","","","0","","24.1","","101.83","","","","","","Mostly Cloudy"
"-57.40","49.22","DEER LAKE A","8401501","2012-02-29 10:30","2012","02","29","10:30","-17.0","","-20.9","","72","","","","","","0","","24.1","","101.77","","","","","","Mostly Cloudy"
"-57.40","49.22","DEER LAKE A","8401501","2012-02-29 11:30","2012","02","29","11:30","-12.3","","-17.3","","66","","","","","","0","","24.1","","101.69","","","","","","Mostly Cloudy"
"-57.40","49.22","DEER LAKE A","8401501","2012-02-29 12:30","2012","02","29","12:30","-8.5","","-17.8","","47","","","","25","","17","","24.1","","101.61","","","","-15","","Mostly Cloudy"
"-57.40","49.22","DEER LAKE A","8401501","2012-02-29 13:30","2012","02","29","13:30","-8.1","","-20.2","","37","","","","28","","13","","24.1","","101.56","","","","-14","","Mostly Cloudy"
"-57.40","49.22","DEER LAKE A","8401501","2012-02-29 14:30","2012","02","29","14:30","-8.5","","-15.5","","57","","","","26","","17","","19.3","","101.54","","","","-15","","Mostly Cloudy"
"-57.40","49.22","DEER LAKE A","8401501","2012-02-29 15:30","2012","02","29","15:30","-9.4","","-14.1","","69","","","","31","","13","","9.7","","101.54","","","","-15","","Snow Showers"
"-57.40","49.22","DEER LAKE A","8401501","2012-02-29 16:30","2012","02","29","16:30","-9.7","","-15.0","","65","","","","30","","9","","16.1","","101.53","","","","-15","","Snow Showers"
"-57.40","49.22","DEER LAKE A","8401501","2012-02-29 17:30","2012","02","29","17:30","-10.4","","-15.4","","67","","","","30","","11","","24.1","","101.54","","","","-16","","Mostly Cloudy"
"-57.40","49.22","DEER LAKE A","8401501","2012-02-29 18:30","2012","02","29","18:30","-11.3","","-15.5","","71","","","","33","","6","","24.1","","101.59","","","","-15","","Mostly Cloudy"
"-57.40","49.22","DEER LAKE A","8401501","2012-02-29 19:30","2012","02","29","19:30","-12.2","","-16.1","","73","","","","","","0","","24.1","","101.65","","","","","","Mostly Cloudy"
"-57.40","49.22","DEER LAKE A","8401501","2012-02-29 20:30","2012","02","29","20:30","-15.3","","-17.9","","80","","","","","","0","","24.1","","101.71","","","","","","Mainly Clear"
"-57.40","49.22","DEER LAKE A","8401501","2012-02-29 21:30","2012","02","29","21:30","-17.7","","-18.8","","91","","","","","","0","","24.1","","101.75","","","","","","Mainly Clear"
"-57.40","49.22","DEER LAKE A","8401501","2012-02-29 22:30","2012","02","29","22:30","-19.9","","-21.0","","91","","","","4","","6","","24.1","","101.75","","","","-25","","Mainly Clear"
"-57.40","49.22","DEER LAKE A","8401501","2012-02-29 23:30","2012","02","29","23:30","-21.4","","-23.0","","87","","","","","","0","","24.1","","101.73","","","","","","Mainly Clear"
