"Longitude (x)","Latitude (y)","Station Name","Climate ID","Date/Time (LST)","Year","Month","Day","Time (LST)","Temp (°C)","Temp Flag","Dew Point Temp (°C)","Dew Point Temp Flag","Rel Hum (%)","Rel Hum Flag","Precip. Amount (mm)","Precip. Amount Flag","Wind Dir (10s deg)","Wind Dir Flag","Wind Spd (km/h)","Wind Spd Flag","Visibility (km)","Visibility Flag","Stn Press (kPa)","Stn Press Flag","Hmdx","Hmdx Flag","Wind Chill","Wind Chill Flag","Weather"
"-94.97","74.72","RESOLUTE CARS","2403500","2012-02-01 00:00","2012","02","01","00:00","-31.6","","-36.0","","65","","","","15","","7","","24.1","","100.42","","","","-39","","Ice Crystals"
"-94.97","74.72","RESOLUTE CARS","2403500","2012-02-01 01:00","2012","02","01","01:00","-32.0","","-36.0","","68","","","","17","","6","","24.1","","100.40","","","","-39","","Ice Crystals"
"-94.97","74.72","RESOLUTE CARS","2403500","2012-02-01 02:00","2012","02","01","02:00","-32.3","","-36.2","","68","","","","17","","4","","24.1","","100.41","","","","-37","","Ice Crystals"
"-94.97","74.72","RESOLUTE CARS","2403500","2012-02-01 03:00","2012","02","01","03:00","-31.5","","-35.7","","66","","","","","","0","","24.1","","100.39","","","","","","Ice Crystals"
"-94.97","74.72","RESOLUTE CARS","2403500","2012-02-01 04:00","2012","02","01","04:00","-32.6","","-36.3","","69","","","","","","0","","24.1","","100.39","","","","","","Ice Crystals"
"-94.97","74.72","RESOLUTE CARS","2403500","2012-02-01 05:00","2012","02","01","05:00","-30.8","","-35.1","","66","","","","15","","6","","24.1","","100.38","","","","-37","","Ice Crystals"
"-94.97","74.72","RESOLUTE CARS","2403500","2012-02-01 06:00","2012","02","01","06:00","-30.8","","-35.0","","67","","","","12","","9","","24.1","","100.36","","","","-40","","Ice Crystals"
"-94.97","74.72","RESOLUTE CARS","2403500","2012-02-01 07:00","2012","02","01","07:00","-28.1","","-32.3","","67","","","","13","","19","","24.1","","100.35","","","","-40","","Ice Crystals"
"-94.97","74.72","RESOLUTE CARS","2403500","2012-02-01 08:00","2012","02","01","08:00","-27.4","","-31.6","","67","","","","12","","17","","24.1","","100.32","","","","-39","","Ice Crystals"
"-94.97","74.72","RESOLUTE CARS","2403500","2012-02-01 09:00","2012","02","01","09:00","-26.6","","-30.6","","69","","","","12","","24","","24.1","","100.31","","","","-40","","Ice Crystals"
"-94.97","74.72","RESOLUTE CARS","2403500","2012-02-01 10:00","2012","02","01","10:00","-26.7","","-30.6","","70","","","","12","","26","","16.1","","100.29","","","","-40","","Ice Crystals"
"-94.97","74.72","RESOLUTE CARS","2403500","2012-02-01 11:00","2012","02","01","11:00","-27.1","","-31.3","","67","","","","12","","26","","16.1","","100.28","","","","-41","","Ice Crystals"
"-94.97","74.72","RESOLUTE CARS","2403500","2012-02-01 12:00","2012","02","01","12:00","-26.7","","-30.7","","69","","","","12","","20","","12.9","","100.29","","","","-39","","Ice Crystals"
"-94.97","74.72","RESOLUTE CARS","2403500","2012-02-01 13:00","2012","02","01","13:00","-26.3","","-30.4","","68","","","","12","","20","","11.3","","100.28","","","","-38","","Snow"
"-94.97","74.72","RESOLUTE CARS","2403500","2012-02-01 14:00","2012","02","01","14:00","-26.4","","-30.4","","69","","","","12","","24","","12.9","","100.31","","","","-40","","Snow"
"-94.97","74.72","RESOLUTE CARS","2403500","2012-02-01 15:00","2012","02","01","15:00","-26.2","","-30.3","","68","","","","12","","20","","16.1","","100.35","","","","-38","","Ice Crystals"
"-94.97","74.72","RESOLUTE CARS","2403500","2012-02-01 16:00","2012","02","01","16:00","-26.3","","-30.4","","68","","","","13","","26","","24.1","","100.36","","","","-40","","Mainly Clear"
"-94.97","74.72","RESOLUTE CARS","2403500","2012-02-01 17:00","2012","02","01","17:00","-27.0","","-31.3","","67","","","","13","","24","","24.1","","100.38","","","","-40","","Clear"
"-94.97","74.72","RESOLUTE CARS","2403500","2012-02-01 18:00","2012","02","01","18:00","-27.2","","-31.4","","67","","","","12","","24","","24.1","","100.35","","","","-41","","Clear"
"-94.97","74.72","RESOLUTE CARS","2403500","2012-02-01 19:00","2012","02","01","19:00","-27.2","","-31.4","","67","","","","12","","32","","24.1","","100.35","","","","-42","","Ice Crystals"
"-94.97","74.72","RESOLUTE CARS","2403500","2012-02-01 20:00","2012","02","01","20:00","-27.4","","-31.5","","68","","","","13","","28","","19.3","","100.32","","","","-42","","Ice Crystals"
"-94.97","74.72","RESOLUTE CARS","2403500","2012-02-01 21:00","2012","02","01","21:00","-27.3","","-31.4","","68","","","","13","","24","","16.1","","100.34","","","","-41","","Ice Crystals"
"-94.97","74.72","RESOLUTE CARS","2403500","2012-02-01 22:00","2012","02","01","22:00","-26.6","","-30.5","","70","","","","15","","22","","19.3","","100.34","","","","-39","","Snow"
"-94.97","74.72","RESOLUTE CARS","2403500","2012-02-01 23:00","2012","02","01","23:00","-27.0","","-31.1","","68","","","","15","","24","","19.3","","100.34","","","","-40","","Snow"
"-94.97","74.72","RESOLUTE CARS","2403500","2012-02-02 00:00","2012","02","02","00:00","-27.0","","-31.1","","68","","","","17","","20","","16.1","","100.34","","","","-39","","Snow"
"-94.97","74.72","RESOLUTE CARS","2403500","2012-02-02 01:00","2012","02","02","01:00","-26.5","","-30.6","","68","","","","17","","30","","16.1","","100.32","","","","-41","","Snow"
"-94.97","74.72","RESOLUTE CARS","2403500","2012-02-02 02:00","2012","02","02","02:00","-26.5","","-30.5","","69","","","","17","","24","","19.3","","100.34","","","","-40","","Snow"
"-94.97","74.72","RESOLUTE CARS","2403500","2012-02-02 03:00","2012","02","02","03:00","-26.2","","-30.2","","69","","","","18","","22","","16.1","","100.34","","","","-39","","Snow"
"-94.97","74.72","RESOLUTE CARS","2403500","2012-02-02 04:00","2012","02","02","04:00","-25.7","","-29.7","","69","","","","17","","26","","11.3","","100.32","","","","-39","","Snow"
"-94.97","74.72","RESOLUTE CARS","2403500","2012-02-02 05:00","2012","02","02","05:00","-25.7","","-29.7","","69","","","","18","","24","","11.3","","100.36","","","","-39","","Snow"
"-94.97","74.72","RESOLUTE CARS","2403500","2012-02-02 06:00","2012","02","02","06:00","-25.9","","-29.8","","70","","","","19","","22","","9.7","","100.38","","","","-38","","Snow"
"-94.97","74.72","RESOLUTE CARS","2403500","2012-02-02 07:00","2012","02","02","07:00","-26.2","","-30.1","","70","","","","19","","22","","4.0","","100.34","","","","-39","","Snow"
"-94.97","74.72","RESOLUTE CARS","2403500","2012-02-02 08:00","2012","02","02","08:00","-26.5","","-30.6","","68","","","","19","","24","","4.0","","100.35","","","","-40","","Snow"
"-94.97","74.72","RESOLUTE CARS","2403500","2012-02-02 09:00","2012","02","02","09:00","-26.8","","-31.1","","67","","","","18","","20","","4.0","","100.35","","","","-39","","Snow"
"-94.97","74.72","RESOLUTE CARS","2403500","2012-02-02 10:00","2012","02","02","10:00","-27.3","","-31.6","","67","","","","20","","19","","6.4","","100.32","","","","-39","","Snow"
"-94.97","74.72","RESOLUTE CARS","2403500","2012-02-02 11:00","2012","02","02","11:00","-27.7","","-32.0","","67","","","","21","","19","","4.8","","100.38","","","","-40","","Snow,Blowing Snow"
"-94.97","74.72","RESOLUTE CARS","2403500","2012-02-02 12:00","2012","02","02","12:00","-28.7","","-33.0","","66","","","","14","","4","","4.8","","100.37","","","","-33","","Snow"
"-94.97","74.72","RESOLUTE CARS","2403500","2012-02-02 13:00","2012","02","02","13:00","-29.4","","-33.9","","65","","","","18","","11","","16.1","","100.39","","","","-39","","Ice Crystals"
"-94.97","74.72","RESOLUTE CARS","2403500","2012-02-02 14:00","2012","02","02","14:00","-30.2","","-34.4","","67","","","","17","","7","","24.1","","100.37","","","","-38","","Mainly Clear"
"-94.97","74.72","RESOLUTE CARS","2403500","2012-02-02 15:00","2012","02","02","15:00","-30.5","","-35.1","","64","","","","14","","6","","24.1","","100.35","","","","-37","","Mainly Clear"
"-94.97","74.72","RESOLUTE CARS","2403500","2012-02-02 16:00","2012","02","02","16:00","-30.2","","-34.5","","66","","","","13","","13","","24.1","","100.32","","","","-41","","Mostly Cloudy"
"-94.97","74.72","RESOLUTE CARS","2403500","2012-02-02 17:00","2012","02","02","17:00","-30.1","","-33.9","","69","","","","14","","15","","24.1","","100.30","","","","-42","","Mostly Cloudy"
"-94.97","74.72","RESOLUTE CARS","2403500","2012-02-02 18:00","2012","02","02","18:00","-29.5","","-33.7","","67","","","","14","","20","","24.1","","100.24","","","","-42","","Mostly Cloudy"
"-94.97","74.72","RESOLUTE CARS","2403500","2012-02-02 19:00","2012","02","02","19:00","-29.1","","-32.7","","71","","","","13","","24","","24.1","","100.16","","","","-43","","Mostly Cloudy"
"-94.97","74.72","RESOLUTE CARS","2403500","2012-02-02 20:00","2012","02","02","20:00","-28.0","","-32.1","","68","","","","12","","28","","24.1","","100.06","","","","-43","","Mostly Cloudy"
"-94.97","74.72","RESOLUTE CARS","2403500","2012-02-02 21:00","2012","02","02","21:00","-27.3","","-31.5","","67","","","","13","","26","","6.4","","99.92","","","","-41","","Snow"
"-94.97","74.72","RESOLUTE CARS","2403500","2012-02-02 22:00","2012","02","02","22:00","-26.3","","-30.3","","69","","","","12","","32","","4.8","","99.80","","","","-41","","Snow,Blowing Snow"
"-94.97","74.72","RESOLUTE CARS","2403500","2012-02-02 23:00","2012","02","02","23:00","-25.5","","-29.4","","70","","","","12","","41","","2.4","","99.65","","","","-42","","Snow,Blowing Snow"
"-94.97","74.72","RESOLUTE CARS","2403500","2012-02-03 00:00","2012","02","03","00:00","-24.3","","-28.2","","70","","","","13","","32","","1.6","","99.45","","","","-39","","Snow,Blowing Snow"
"-94.97","74.72","RESOLUTE CARS","2403500","2012-02-03 01:00","2012","02","03","01:00","-23.7","","-27.5","","71","","","","12","","44","","0.6","","99.28","","","","-40","","Blowing Snow"
"-94.97","74.72","RESOLUTE CARS","2403500","2012-02-03 02:00","2012","02","03","02:00","-23.5","","-27.3","","71","","","","12","","44","","0.6","","99.15","","","","-39","","Blowing Snow"
"-94.97","74.72","RESOLUTE CARS","2403500","2012-02-03 03:00","2012","02","03","03:00","-23.3","","-27.0","","72","","","","11","","43","","0.6","","99.09","","","","-39","","Blowing Snow"
"-94.97","74.72","RESOLUTE CARS","2403500","2012-02-03 04:00","2012","02","03","04:00","-22.8","","-26.5","","72","","","","11","","50","","0.2","","98.97","","","","-39","","Blowing Snow"
"-94.97","74.72","RESOLUTE CARS","2403500","2012-02-03 05:00","2012","02","03","05:00","-22.6","","-26.2","","72","","","","11","","46","","0.2","","98.88","","","","-38","","Blowing Snow"
"-94.97","74.72","RESOLUTE CARS","2403500","2012-02-03 06:00","2012","02","03","06:00","-22.2","","-25.8","","72","","","","12","","32","","0.8","","98.87","","","","-36","","Blowing Snow"
"-94.97","74.72","RESOLUTE CARS","2403500","2012-02-03 07:00","2012","02","03","07:00","-21.9","","-25.5","","73","","","","13","","32","","1.0","","98.84","","","","-35","","Blowing Snow"
"-94.97","74.72","RESOLUTE CARS","2403500","2012-02-03 08:00","2012","02","03","08:00","-21.4","","-25.0","","73","","","","12","","33","","0.8","","98.80","","","","-35","","Blowing Snow"
"-94.97","74.72","RESOLUTE CARS","2403500","2012-02-03 09:00","2012","02","03","09:00","-21.2","","-24.9","","72","","","","12","","39","","0.8","","98.69","","","","-36","","Snow,Blowing Snow"
"-94.97","74.72","RESOLUTE CARS","2403500","2012-02-03 10:00","2012","02","03","10:00","-21.0","","-24.6","","73","","","","12","","28","","4.0","","98.68","","","","-34","","Snow,Blowing Snow"
"-94.97","74.72","RESOLUTE CARS","2403500","2012-02-03 11:00","2012","02","03","11:00","-21.2","","-24.7","","73","","","","12","","20","","4.8","","98.70","","","","-32","","Snow,Blowing Snow"
"-94.97","74.72","RESOLUTE CARS","2403500","2012-02-03 12:00","2012","02","03","12:00","-21.0","","-24.9","","71","","","","12","","13","","4.8","","98.74","","","","-30","","Snow"
"-94.97","74.72","RESOLUTE CARS","2403500","2012-02-03 13:00","2012","02","03","13:00","-21.7","","-25.5","","71","","","","","","0","","12.9","","98.81","","","","","","Mostly Cloudy"
"-94.97","74.72","RESOLUTE CARS","2403500","2012-02-03 14:00","2012","02","03","14:00","-22.3","","-26.1","","71","","","","35","","13","","16.1","","98.92","","","","-31","","Cloudy"
"-94.97","74.72","RESOLUTE CARS","2403500","2012-02-03 15:00","2012","02","03","15:00","-21.9","","-25.8","","71","","","","34","","20","","24.1","","99.05","","","","-33","","Mostly Cloudy"
"-94.97","74.72","RESOLUTE CARS","2403500","2012-02-03 16:00","2012","02","03","16:00","-23.4","","-27.4","","70","","","","32","","17","","24.1","","99.17","","","","-34","","Mostly Cloudy"
"-94.97","74.72","RESOLUTE CARS","2403500","2012-02-03 17:00","2012","02","03","17:00","-27.4","","-31.7","","67","","","","1","","48","","2.4","","99.29","","","","-45","","Blowing Snow"
"-94.97","74.72","RESOLUTE CARS","2403500","2012-02-03 18:00","2012","02","03","18:00","-30.6","","-35.1","","65","","","","1","","44","","2.4","","99.44","","","","-49","","Blowing Snow"
"-94.97","74.72","RESOLUTE CARS","2403500","2012-02-03 19:00","2012","02","03","19:00","-31.3","","-35.7","","65","","","","1","","41","","2.8","","99.60","","","","-49","","Blowing Snow"
"-94.97","74.72","RESOLUTE CARS","2403500","2012-02-03 20:00","2012","02","03","20:00","-32.4","","-37.0","","64","","","","3","","44","","2.8","","99.70","","","","-51","","Blowing Snow"
"-94.97","74.72","RESOLUTE CARS","2403500","2012-02-03 21:00","2012","02","03","21:00","-33.3","","-37.9","","63","","","","3","","35","","3.2","","99.81","","","","-51","","Blowing Snow"
"-94.97","74.72","RESOLUTE CARS","2403500","2012-02-03 22:00","2012","02","03","22:00","-33.8","","-38.4","","63","","","","34","","35","","4.0","","99.94","","","","-52","","Blowing Snow"
"-94.97","74.72","RESOLUTE CARS","2403500","2012-02-03 23:00","2012","02","03","23:00","-34.2","","-38.9","","62","","","","32","","30","","24.1","","100.02","","","","-51","","Clear"
"-94.97","74.72","RESOLUTE CARS","2403500","2012-02-04 00:00","2012","02","04","00:00","-34.8","","-39.7","","61","","","","33","","32","","16.1","","100.09","","","","-52","","Ice Crystals"
"-94.97","74.72","RESOLUTE CARS","2403500","2012-02-04 01:00","2012","02","04","01:00","-34.8","","-39.4","","63","","","","3","","39","","12.9","","100.05","","","","-54","","Ice Crystals"
"-94.97","74.72","RESOLUTE CARS","2403500","2012-02-04 02:00","2012","02","04","02:00","-35.2","","-40.0","","61","","","","32","","24","","24.1","","100.25","","","","-51","","Ice Crystals"
"-94.97","74.72","RESOLUTE CARS","2403500","2012-02-04 03:00","2012","02","04","03:00","-36.6","","-41.0","","64","","","","34","","13","","24.1","","100.34","","","","-49","","Ice Crystals"
"-94.97","74.72","RESOLUTE CARS","2403500","2012-02-04 04:00","2012","02","04","04:00","-36.2","","-40.8","","62","","","","32","","17","","24.1","","100.40","","","","-50","","Ice Crystals"
"-94.97","74.72","RESOLUTE CARS","2403500","2012-02-04 05:00","2012","02","04","05:00","-35.7","","-40.4","","62","","","","33","","19","","24.1","","100.38","","","","-50","","Ice Crystals"
"-94.97","74.72","RESOLUTE CARS","2403500","2012-02-04 06:00","2012","02","04","06:00","-34.7","","-39.8","","60","","","","31","","26","","24.1","","100.44","","","","-51","","Clear"
"-94.97","74.72","RESOLUTE CARS","2403500","2012-02-04 07:00","2012","02","04","07:00","-35.2","","-39.7","","63","","","","1","","19","","24.1","","100.54","","","","-49","","Clear"
"-94.97","74.72","RESOLUTE CARS","2403500","2012-02-04 08:00","2012","02","04","08:00","-36.9","","-41.3","","64","","","","33","","26","","24.1","","100.60","","","","-54","","Ice Crystals"
"-94.97","74.72","RESOLUTE CARS","2403500","2012-02-04 09:00","2012","02","04","09:00","-37.7","","-42.1","","63","","","","33","","24","","24.1","","100.62","","","","-54","","Ice Crystals"
"-94.97","74.72","RESOLUTE CARS","2403500","2012-02-04 10:00","2012","02","04","10:00","-38.0","","-42.1","","65","","","","34","","24","","16.1","","100.65","","","","-54","","Ice Crystals"
"-94.97","74.72","RESOLUTE CARS","2403500","2012-02-04 11:00","2012","02","04","11:00","-38.8","","-42.4","","69","","","","34","","35","","16.1","","100.65","","","","-58","","Ice Crystals"
"-94.97","74.72","RESOLUTE CARS","2403500","2012-02-04 12:00","2012","02","04","12:00","-38.6","","-42.6","","66","","","","32","","20","","12.9","","100.72","","","","-54","","Ice Crystals"
"-94.97","74.72","RESOLUTE CARS","2403500","2012-02-04 13:00","2012","02","04","13:00","-38.7","","-42.5","","67","","","","33","","24","","12.9","","100.80","","","","-55","","Ice Crystals"
"-94.97","74.72","RESOLUTE CARS","2403500","2012-02-04 14:00","2012","02","04","14:00","-37.7","","-42.2","","63","","","","34","","44","","4.8","","100.80","","","","-59","","Ice Crystals"
"-94.97","74.72","RESOLUTE CARS","2403500","2012-02-04 15:00","2012","02","04","15:00","-37.7","","-41.7","","66","","","","33","","13","","3.2","","100.98","","","","-50","","Ice Crystals"
"-94.97","74.72","RESOLUTE CARS","2403500","2012-02-04 16:00","2012","02","04","16:00","-35.3","","-39.0","","69","","","","33","","19","","4.0","","100.99","","","","-49","","Ice Crystals"
"-94.97","74.72","RESOLUTE CARS","2403500","2012-02-04 17:00","2012","02","04","17:00","-36.5","","-41.1","","62","","","","35","","30","","4.8","","101.08","","","","-54","","Ice Crystals"
"-94.97","74.72","RESOLUTE CARS","2403500","2012-02-04 18:00","2012","02","04","18:00","-36.4","","-40.5","","66","","","","33","","30","","1.6","","101.19","","","","-54","","Ice Crystals"
"-94.97","74.72","RESOLUTE CARS","2403500","2012-02-04 19:00","2012","02","04","19:00","-36.6","","-40.8","","65","","","","33","","37","","1.6","","101.25","","","","-56","","Ice Crystals"
"-94.97","74.72","RESOLUTE CARS","2403500","2012-02-04 20:00","2012","02","04","20:00","-35.5","","-39.9","","64","","","","1","","30","","0.8","","101.28","","","","-53","","Ice Crystals,Blowing Snow"
"-94.97","74.72","RESOLUTE CARS","2403500","2012-02-04 21:00","2012","02","04","21:00","-36.2","","-40.4","","65","","","","31","","19","","3.2","","101.34","","","","-51","","Ice Crystals"
"-94.97","74.72","RESOLUTE CARS","2403500","2012-02-04 22:00","2012","02","04","22:00","-35.6","","-40.0","","64","","","","32","","32","","4.8","","101.32","","","","-53","","Ice Crystals"
"-94.97","74.72","RESOLUTE CARS","2403500","2012-02-04 23:00","2012","02","04","23:00","-35.0","","-39.3","","65","","","","33","","22","","12.9","","101.37","","","","-50","","Ice Crystals"
"-94.97","74.72","RESOLUTE CARS","2403500","2012-02-05 00:00","2012","02","05","00:00","-35.6","","-40.0","","64","","","","30","","11","","11.3","","101.46","","","","-46","","Ice Crystals"
"-94.97","74.72","RESOLUTE CARS","2403500","2012-02-05 01:00","2012","02","05","01:00","-35.9","","-40.2","","65","","","","33","","30","","6.4","","101.54","","","","-53","","Ice Crystals,Blowing Snow"
"-94.97","74.72","RESOLUTE CARS","2403500","2012-02-05 02:00","2012","02","05","02:00","-35.8","","-40.5","","62","","","","33","","39","","4.0","","101.62","","","","-55","","Ice Crystals,Blowing Snow"
"-94.97","74.72","RESOLUTE CARS","2403500","2012-02-05 03:00","2012","02","05","03:00","-33.8","","-38.5","","63","","","","34","","30","","4.0","","101.65","","","","-51","","Ice Crystals,Blowing Snow"
"-94.97","74.72","RESOLUTE CARS","2403500","2012-02-05 04:00","2012","02","05","04:00","-34.3","","-39.1","","62","","","","33","","28","","8.0","","101.69","","","","-51","","Ice Crystals"
"-94.97","74.72","RESOLUTE CARS","2403500","2012-02-05 05:00","2012","02","05","05:00","-34.8","","-39.3","","64","","","","33","","46","","3.6","","101.70","","","","-55","","Ice Crystals,Blowing Snow"
"-94.97","74.72","RESOLUTE CARS","2403500","2012-02-05 06:00","2012","02","05","06:00","-35.0","","-39.5","","63","","","","34","","26","","6.4","","101.72","","","","-51","","Ice Crystals"
"-94.97","74.72","RESOLUTE CARS","2403500","2012-02-05 07:00","2012","02","05","07:00","-34.6","","-39.4","","62","","","","35","","35","","2.4","","101.65","","","","-53","","Ice Crystals,Blowing Snow"
"-94.97","74.72","RESOLUTE CARS","2403500","2012-02-05 08:00","2012","02","05","08:00","-34.1","","-39.0","","61","","","","36","","37","","3.2","","101.68","","","","-52","","Ice Crystals,Blowing Snow"
"-94.97","74.72","RESOLUTE CARS","2403500","2012-02-05 09:00","2012","02","05","09:00","-34.8","","-39.2","","64","","","","32","","24","","4.8","","101.70","","","","-50","","Ice Crystals"
"-94.97","74.72","RESOLUTE CARS","2403500","2012-02-05 10:00","2012","02","05","10:00","-34.2","","-38.8","","63","","","","34","","28","","4.8","","101.67","","","","-51","","Ice Crystals"
"-94.97","74.72","RESOLUTE CARS","2403500","2012-02-05 11:00","2012","02","05","11:00","-34.5","","-39.0","","64","","","","33","","28","","4.8","","101.64","","","","-51","","Ice Crystals"
"-94.97","74.72","RESOLUTE CARS","2403500","2012-02-05 12:00","2012","02","05","12:00","-34.1","","-38.4","","65","","","","32","","30","","6.4","","101.56","","","","-51","","Ice Crystals"
"-94.97","74.72","RESOLUTE CARS","2403500","2012-02-05 13:00","2012","02","05","13:00","-34.3","","-39.0","","62","","","","32","","17","","16.1","","101.56","","","","-47","","Ice Crystals"
"-94.97","74.72","RESOLUTE CARS","2403500","2012-02-05 14:00","2012","02","05","14:00","-34.2","","-38.7","","64","","","","34","","20","","16.1","","101.56","","","","-48","","Mainly Clear"
"-94.97","74.72","RESOLUTE CARS","2403500","2012-02-05 15:00","2012","02","05","15:00","-33.5","","-37.6","","67","","","","34","","22","","16.1","","101.52","","","","-48","","Mainly Clear"
"-94.97","74.72","RESOLUTE CARS","2403500","2012-02-05 16:00","2012","02","05","16:00","-33.7","","-37.8","","66","","","","35","","22","","24.1","","101.51","","","","-48","","Clear"
"-94.97","74.72","RESOLUTE CARS","2403500","2012-02-05 17:00","2012","02","05","17:00","-33.1","","-37.3","","66","","","","32","","24","","24.1","","101.46","","","","-48","","Clear"
"-94.97","74.72","RESOLUTE CARS","2403500","2012-02-05 18:00","2012","02","05","18:00","-32.6","","-37.2","","63","","","","34","","26","","24.1","","101.40","","","","-48","","Clear"
"-94.97","74.72","RESOLUTE CARS","2403500","2012-02-05 19:00","2012","02","05","19:00","-33.1","","-37.6","","64","","","","35","","22","","24.1","","101.37","","","","-48","","Clear"
"-94.97","74.72","RESOLUTE CARS","2403500","2012-02-05 20:00","2012","02","05","20:00","-33.8","","-37.8","","67","","","","35","","24","","24.1","","101.28","","","","-49","","Clear"
"-94.97","74.72","RESOLUTE CARS","2403500","2012-02-05 21:00","2012","02","05","21:00","-33.3","","-37.8","","64","","","","32","","6","","24.1","","101.21","","","","-40","","Mainly Clear"
"-94.97","74.72","RESOLUTE CARS","2403500","2012-02-05 22:00","2012","02","05","22:00","-33.3","","-37.2","","68","","","","34","","22","","24.1","","101.14","","","","-48","","Mainly Clear"
"-94.97","74.72","RESOLUTE CARS","2403500","2012-02-05 23:00","2012","02","05","23:00","-33.9","","-38.0","","66","","","","34","","20","","24.1","","101.07","","","","-48","","Clear"
"-94.97","74.72","RESOLUTE CARS","2403500","2012-02-06 00:00","2012","02","06","00:00","-34.6","","-36.9","","80","","","","31","","24","","24.1","","101.05","","","","-50","","Clear"
"-94.97","74.72","RESOLUTE CARS","2403500","2012-02-06 01:00","2012","02","06","01:00","-34.4","","-38.5","","66","","","","33","","11","","24.1","","100.94","","","","-45","","Mainly Clear"
"-94.97","74.72","RESOLUTE CARS","2403500","2012-02-06 02:00","2012","02","06","02:00","-33.3","","-37.4","","67","","","","33","","9","","24.1","","100.84","","","","-43","","Mostly Cloudy"
"-94.97","74.72","RESOLUTE CARS","2403500","2012-02-06 03:00","2012","02","06","03:00","-33.1","","-37.3","","66","","","","33","","9","","20.9","","100.75","","","","-42","","Snow"
"-94.97","74.72","RESOLUTE CARS","2403500","2012-02-06 04:00","2012","02","06","04:00","-32.7","","-36.8","","67","","","","32","","6","","19.3","","100.65","","","","-40","","Snow"
"-94.97","74.72","RESOLUTE CARS","2403500","2012-02-06 05:00","2012","02","06","05:00","-31.4","","-35.6","","66","","","","","","0","","4.8","","100.54","","","","","","Snow"
"-94.97","74.72","RESOLUTE CARS","2403500","2012-02-06 06:00","2012","02","06","06:00","-29.8","","-33.9","","67","","","","17","","6","","6.4","","100.37","","","","-36","","Snow"
"-94.97","74.72","RESOLUTE CARS","2403500","2012-02-06 07:00","2012","02","06","07:00","-29.5","","-34.0","","65","","","","","","0","","16.1","","100.22","","","","","","Snow"
"-94.97","74.72","RESOLUTE CARS","2403500","2012-02-06 08:00","2012","02","06","08:00","-27.5","","-31.7","","67","","","","25","","22","","12.9","","100.09","","","","-40","","Snow"
"-94.97","74.72","RESOLUTE CARS","2403500","2012-02-06 09:00","2012","02","06","09:00","-26.9","","-30.8","","69","","","","27","","20","","16.1","","99.94","","","","-39","","Snow"
"-94.97","74.72","RESOLUTE CARS","2403500","2012-02-06 10:00","2012","02","06","10:00","-26.2","","-30.2","","69","","","","28","","17","","9.7","","99.78","","","","-37","","Snow"
"-94.97","74.72","RESOLUTE CARS","2403500","2012-02-06 11:00","2012","02","06","11:00","-26.1","","-30.1","","69","","","","30","","20","","19.3","","99.67","","","","-38","","Snow"
"-94.97","74.72","RESOLUTE CARS","2403500","2012-02-06 12:00","2012","02","06","12:00","-26.5","","-30.3","","70","","","","31","","20","","19.3","","99.57","","","","-39","","Snow"
"-94.97","74.72","RESOLUTE CARS","2403500","2012-02-06 13:00","2012","02","06","13:00","-26.6","","-30.5","","70","","","","31","","30","","12.9","","99.49","","","","-41","","Snow"
"-94.97","74.72","RESOLUTE CARS","2403500","2012-02-06 14:00","2012","02","06","14:00","-28.0","","-32.1","","68","","","","32","","26","","9.7","","99.46","","","","-42","","Snow"
"-94.97","74.72","RESOLUTE CARS","2403500","2012-02-06 15:00","2012","02","06","15:00","-30.6","","-34.9","","66","","","","32","","32","","8.0","","99.45","","","","-47","","Blowing Snow"
"-94.97","74.72","RESOLUTE CARS","2403500","2012-02-06 16:00","2012","02","06","16:00","-32.2","","-36.7","","64","","","","34","","30","","4.0","","99.46","","","","-48","","Blowing Snow"
"-94.97","74.72","RESOLUTE CARS","2403500","2012-02-06 17:00","2012","02","06","17:00","-32.9","","-37.3","","65","","","","33","","35","","0.6","","99.36","","","","-50","","Blowing Snow"
"-94.97","74.72","RESOLUTE CARS","2403500","2012-02-06 18:00","2012","02","06","18:00","-33.6","","-38.0","","65","","","","34","","39","","0.8","","99.34","","","","-52","","Ice Crystals,Blowing Snow"
"-94.97","74.72","RESOLUTE CARS","2403500","2012-02-06 19:00","2012","02","06","19:00","-34.6","","-39.2","","63","","","","33","","44","","0.8","","99.30","","","","-54","","Ice Crystals,Blowing Snow"
"-94.97","74.72","RESOLUTE CARS","2403500","2012-02-06 20:00","2012","02","06","20:00","-34.4","","-38.9","","64","","","","33","","33","","0.6","","99.32","","","","-52","","Ice Crystals,Blowing Snow"
"-94.97","74.72","RESOLUTE CARS","2403500","2012-02-06 21:00","2012","02","06","21:00","-34.0","","-38.5","","64","","","","33","","44","","0.4","","99.30","","","","-54","","Ice Crystals,Blowing Snow"
"-94.97","74.72","RESOLUTE CARS","2403500","2012-02-06 22:00","2012","02","06","22:00","-33.8","","-38.5","","63","","","","34","","59","","0.2","","99.28","","","","-55","","Ice Crystals,Blowing Snow"
"-94.97","74.72","RESOLUTE CARS","2403500","2012-02-06 23:00","2012","02","06","23:00","-33.4","","-37.9","","64","","","","34","","59","","0.2","","99.28","","","","-55","","Ice Crystals,Blowing Snow"
"-94.97","74.72","RESOLUTE CARS","2403500","2012-02-07 00:00","2012","02","07","00:00","-32.9","","-37.3","","65","","","","34","","56","","0.2","","99.37","","","","-54","","Ice Crystals,Blowing Snow"
"-94.97","74.72","RESOLUTE CARS","2403500","2012-02-07 01:00","2012","02","07","01:00","-33.3","","-37.8","","64","","","","34","","39","","0.2","","99.50","","","","-52","","Ice Crystals,Blowing Snow"
"-94.97","74.72","RESOLUTE CARS","2403500","2012-02-07 02:00","2012","02","07","02:00","-33.5","","-37.9","","65","","","","33","","46","","0.2","","99.56","","","","-53","","Snow,Blowing Snow"
"-94.97","74.72","RESOLUTE CARS","2403500","2012-02-07 03:00","2012","02","07","03:00","-33.9","","-38.0","","66","","","","34","","39","","0.0","","99.58","","","","-53","","Blowing Snow"
"-94.97","74.72","RESOLUTE CARS","2403500","2012-02-07 04:00","2012","02","07","04:00","-33.9","","-38.6","","62","","","","33","","72","","0.0","","99.54","","","","-57","","Blowing Snow"
"-94.97","74.72","RESOLUTE CARS","2403500","2012-02-07 05:00","2012","02","07","05:00","-34.1","","-38.7","","63","","","","34","","43","","0.2","","99.68","","","","-54","","Blowing Snow"
"-94.97","74.72","RESOLUTE CARS","2403500","2012-02-07 06:00","2012","02","07","06:00","-34.4","","-39.1","","62","","","","33","","46","","0.2","","99.70","","","","-54","","Blowing Snow"
"-94.97","74.72","RESOLUTE CARS","2403500","2012-02-07 07:00","2012","02","07","07:00","-34.7","","-39.4","","62","","","","34","","50","","0.0","","99.64","","","","-55","","Blowing Snow"
"-94.97","74.72","RESOLUTE CARS","2403500","2012-02-07 08:00","2012","02","07","08:00","-34.6","","-39.1","","64","","","","34","","56","","0.2","","99.71","","","","-56","","Blowing Snow"
"-94.97","74.72","RESOLUTE CARS","2403500","2012-02-07 09:00","2012","02","07","09:00","-34.1","","-38.6","","64","","","","33","","44","","0.4","","99.78","","","","-54","","Blowing Snow"
"-94.97","74.72","RESOLUTE CARS","2403500","2012-02-07 10:00","2012","02","07","10:00","-33.9","","-38.5","","63","","","","35","","39","","0.2","","99.81","","","","-53","","Blowing Snow"
"-94.97","74.72","RESOLUTE CARS","2403500","2012-02-07 11:00","2012","02","07","11:00","-33.5","","-37.8","","65","","","","35","","48","","0.2","","99.78","","","","-54","","Blowing Snow"
"-94.97","74.72","RESOLUTE CARS","2403500","2012-02-07 12:00","2012","02","07","12:00","-33.4","","-37.8","","65","","","","34","","39","","0.4","","99.86","","","","-52","","Blowing Snow"
"-94.97","74.72","RESOLUTE CARS","2403500","2012-02-07 13:00","2012","02","07","13:00","-33.1","","-37.5","","65","","","","34","","43","","0.6","","99.91","","","","-52","","Blowing Snow"
"-94.97","74.72","RESOLUTE CARS","2403500","2012-02-07 14:00","2012","02","07","14:00","-32.9","","-37.2","","65","","","","34","","48","","0.4","","99.88","","","","-53","","Blowing Snow"
"-94.97","74.72","RESOLUTE CARS","2403500","2012-02-07 15:00","2012","02","07","15:00","-32.6","","-37.0","","65","","","","35","","50","","0.4","","99.96","","","","-53","","Blowing Snow"
"-94.97","74.72","RESOLUTE CARS","2403500","2012-02-07 16:00","2012","02","07","16:00","-32.5","","-36.9","","65","","","","34","","46","","0.6","","100.02","","","","-52","","Ice Crystals,Blowing Snow"
"-94.97","74.72","RESOLUTE CARS","2403500","2012-02-07 17:00","2012","02","07","17:00","-32.3","","-36.7","","65","","","","35","","52","","0.4","","100.04","","","","-52","","Blowing Snow"
"-94.97","74.72","RESOLUTE CARS","2403500","2012-02-07 18:00","2012","02","07","18:00","-31.9","","-36.6","","63","","","","36","","59","","0.4","","100.12","","","","-53","","Blowing Snow"
"-94.97","74.72","RESOLUTE CARS","2403500","2012-02-07 19:00","2012","02","07","19:00","-31.9","","-36.0","","67","","","","35","","46","","0.8","","100.20","","","","-51","","Blowing Snow"
"-94.97","74.72","RESOLUTE CARS","2403500","2012-02-07 20:00","2012","02","07","20:00","-31.8","","-36.1","","66","","","","34","","46","","1.2","","100.20","","","","-51","","Blowing Snow"
"-94.97","74.72","RESOLUTE CARS","2403500","2012-02-07 21:00","2012","02","07","21:00","-31.7","","-36.0","","66","","","","33","","43","","0.8","","100.28","","","","-50","","Blowing Snow"
"-94.97","74.72","RESOLUTE CARS","2403500","2012-02-07 22:00","2012","02","07","22:00","-31.6","","-36.0","","65","","","","35","","46","","0.4","","100.26","","","","-51","","Blowing Snow"
"-94.97","74.72","RESOLUTE CARS","2403500","2012-02-07 23:00","2012","02","07","23:00","-31.4","","-36.0","","64","","","","36","","35","","0.6","","100.32","","","","-48","","Blowing Snow"
"-94.97","74.72","RESOLUTE CARS","2403500","2012-02-08 00:00","2012","02","08","00:00","-31.4","","-35.7","","66","","","","36","","46","","0.6","","100.31","","","","-50","","Blowing Snow"
"-94.97","74.72","RESOLUTE CARS","2403500","2012-02-08 01:00","2012","02","08","01:00","-31.3","","-35.8","","64","","","","36","","37","","0.6","","100.35","","","","-49","","Blowing Snow"
"-94.97","74.72","RESOLUTE CARS","2403500","2012-02-08 02:00","2012","02","08","02:00","-31.3","","-35.9","","64","","","","36","","46","","0.6","","100.39","","","","-50","","Blowing Snow"
"-94.97","74.72","RESOLUTE CARS","2403500","2012-02-08 03:00","2012","02","08","03:00","-31.4","","-35.8","","65","","","","2","","48","","0.6","","100.46","","","","-51","","Blowing Snow"
"-94.97","74.72","RESOLUTE CARS","2403500","2012-02-08 04:00","2012","02","08","04:00","-31.2","","-35.7","","64","","","","2","","56","","0.4","","100.49","","","","-51","","Blowing Snow"
"-94.97","74.72","RESOLUTE CARS","2403500","2012-02-08 05:00","2012","02","08","05:00","-31.4","","-35.6","","66","","","","3","","46","","0.6","","100.51","","","","-50","","Blowing Snow"
"-94.97","74.72","RESOLUTE CARS","2403500","2012-02-08 06:00","2012","02","08","06:00","-31.0","","-35.4","","65","","","","1","","65","","0.4","","100.50","","","","-52","","Blowing Snow"
"-94.97","74.72","RESOLUTE CARS","2403500","2012-02-08 07:00","2012","02","08","07:00","-30.9","","-35.5","","64","","","","1","","56","","0.4","","100.52","","","","-51","","Blowing Snow"
"-94.97","74.72","RESOLUTE CARS","2403500","2012-02-08 08:00","2012","02","08","08:00","-30.9","","-35.2","","66","","","","1","","44","","0.4","","100.67","","","","-49","","Blowing Snow"
"-94.97","74.72","RESOLUTE CARS","2403500","2012-02-08 09:00","2012","02","08","09:00","-31.0","","-35.5","","65","","","","1","","54","","0.4","","100.57","","","","-51","","Blowing Snow"
"-94.97","74.72","RESOLUTE CARS","2403500","2012-02-08 10:00","2012","02","08","10:00","-31.2","","-35.3","","67","","","","33","","30","","2.4","","100.72","","","","-47","","Blowing Snow"
"-94.97","74.72","RESOLUTE CARS","2403500","2012-02-08 11:00","2012","02","08","11:00","-30.9","","-35.3","","65","","","","35","","35","","1.2","","100.78","","","","-48","","Blowing Snow"
"-94.97","74.72","RESOLUTE CARS","2403500","2012-02-08 12:00","2012","02","08","12:00","-31.1","","-35.5","","65","","","","34","","39","","0.8","","100.78","","","","-49","","Blowing Snow"
"-94.97","74.72","RESOLUTE CARS","2403500","2012-02-08 13:00","2012","02","08","13:00","-31.1","","-35.6","","65","","","","35","","30","","2.8","","100.88","","","","-47","","Blowing Snow"
"-94.97","74.72","RESOLUTE CARS","2403500","2012-02-08 14:00","2012","02","08","14:00","-30.6","","-35.1","","65","","","","35","","32","","3.6","","100.91","","","","-47","","Blowing Snow"
"-94.97","74.72","RESOLUTE CARS","2403500","2012-02-08 15:00","2012","02","08","15:00","-24.9","","-34.3","","41","","","","34","","35","","4.0","","100.97","","","","-40","","Ice Crystals"
"-94.97","74.72","RESOLUTE CARS","2403500","2012-02-08 16:00","2012","02","08","16:00","-29.2","","-33.6","","66","","","","34","","52","","0.8","","101.00","","","","-48","","Ice Crystals,Blowing Snow"
"-94.97","74.72","RESOLUTE CARS","2403500","2012-02-08 17:00","2012","02","08","17:00","-29.1","","-33.2","","68","","","","35","","50","","0.8","","101.02","","","","-48","","Ice Crystals,Blowing Snow"
"-94.97","74.72","RESOLUTE CARS","2403500","2012-02-08 18:00","2012","02","08","18:00","-28.9","","-33.2","","66","","","","35","","52","","0.8","","101.04","","","","-48","","Ice Crystals,Blowing Snow"
"-94.97","74.72","RESOLUTE CARS","2403500","2012-02-08 19:00","2012","02","08","19:00","-29.4","","-33.9","","65","","","","35","","54","","1.0","","101.08","","","","-49","","Ice Crystals,Blowing Snow"
"-94.97","74.72","RESOLUTE CARS","2403500","2012-02-08 20:00","2012","02","08","20:00","-29.6","","-33.9","","66","","","","34","","35","","2.0","","101.15","","","","-46","","Ice Crystals,Blowing Snow"
"-94.97","74.72","RESOLUTE CARS","2403500","2012-02-08 21:00","2012","02","08","21:00","-29.3","","-33.8","","65","","","","34","","50","","2.4","","101.11","","","","-48","","Ice Crystals,Blowing Snow"
"-94.97","74.72","RESOLUTE CARS","2403500","2012-02-08 22:00","2012","02","08","22:00","-30.1","","-34.5","","65","","","","28","","11","","4.8","","101.29","","","","-40","","Ice Crystals"
"-94.97","74.72","RESOLUTE CARS","2403500","2012-02-08 23:00","2012","02","08","23:00","-30.0","","-34.3","","66","","","","34","","24","","6.4","","101.26","","","","-44","","Ice Crystals"
"-94.97","74.72","RESOLUTE CARS","2403500","2012-02-09 00:00","2012","02","09","00:00","-30.1","","-34.5","","65","","","","35","","44","","4.8","","101.29","","","","-48","","Ice Crystals"
"-94.97","74.72","RESOLUTE CARS","2403500","2012-02-09 01:00","2012","02","09","01:00","-29.9","","-34.1","","67","","","","35","","35","","4.0","","101.35","","","","-46","","Ice Crystals,Blowing Snow"
"-94.97","74.72","RESOLUTE CARS","2403500","2012-02-09 02:00","2012","02","09","02:00","-30.2","","-34.6","","65","","","","33","","13","","12.9","","101.40","","","","-41","","Ice Crystals"
"-94.97","74.72","RESOLUTE CARS","2403500","2012-02-09 03:00","2012","02","09","03:00","-29.1","","-33.6","","65","","","","33","","24","","12.9","","101.42","","","","-43","","Ice Crystals"
"-94.97","74.72","RESOLUTE CARS","2403500","2012-02-09 04:00","2012","02","09","04:00","-28.9","","-33.4","","65","","","","35","","46","","4.8","","101.45","","","","-47","","Ice Crystals,Blowing Snow"
"-94.97","74.72","RESOLUTE CARS","2403500","2012-02-09 05:00","2012","02","09","05:00","-28.5","","-33.5","","62","","","","36","","46","","4.0","","101.47","","","","-46","","Ice Crystals,Blowing Snow"
"-94.97","74.72","RESOLUTE CARS","2403500","2012-02-09 06:00","2012","02","09","06:00","-27.8","","-32.7","","63","","","","33","","20","","12.9","","101.60","","","","-40","","Ice Crystals"
"-94.97","74.72","RESOLUTE CARS","2403500","2012-02-09 07:00","2012","02","09","07:00","-27.9","","-33.1","","61","","","","32","","24","","12.9","","101.57","","","","-42","","Ice Crystals"
"-94.97","74.72","RESOLUTE CARS","2403500","2012-02-09 08:00","2012","02","09","08:00","-28.0","","-34.1","","56","","","","30","","22","","19.3","","101.52","","","","-41","","Ice Crystals"
"-94.97","74.72","RESOLUTE CARS","2403500","2012-02-09 09:00","2012","02","09","09:00","-29.2","","-34.6","","60","","","","34","","24","","24.1","","101.56","","","","-43","","Ice Crystals"
"-94.97","74.72","RESOLUTE CARS","2403500","2012-02-09 10:00","2012","02","09","10:00","-27.8","","-33.4","","59","","","","27","","13","","24.1","","101.57","","","","-38","","Ice Crystals"
"-94.97","74.72","RESOLUTE CARS","2403500","2012-02-09 11:00","2012","02","09","11:00","-27.4","","-33.0","","59","","","","31","","17","","24.1","","101.52","","","","-39","","Ice Crystals"
"-94.97","74.72","RESOLUTE CARS","2403500","2012-02-09 12:00","2012","02","09","12:00","-26.9","","-32.5","","59","","","","33","","13","","24.1","","101.41","","","","-37","","Ice Crystals"
"-94.97","74.72","RESOLUTE CARS","2403500","2012-02-09 13:00","2012","02","09","13:00","-26.1","","-31.3","","62","","","","33","","9","","24.1","","101.38","","","","-34","","Ice Crystals"
"-94.97","74.72","RESOLUTE CARS","2403500","2012-02-09 14:00","2012","02","09","14:00","-24.5","","-28.7","","68","","","","30","","13","","12.9","","101.30","","","","-34","","Snow"
"-94.97","74.72","RESOLUTE CARS","2403500","2012-02-09 15:00","2012","02","09","15:00","-23.8","","-27.7","","70","","","","30","","7","","19.3","","101.25","","","","-30","","Snow"
"-94.97","74.72","RESOLUTE CARS","2403500","2012-02-09 16:00","2012","02","09","16:00","-23.4","","-27.2","","71","","","","26","","6","","16.1","","101.18","","","","-29","","Snow"
"-94.97","74.72","RESOLUTE CARS","2403500","2012-02-09 17:00","2012","02","09","17:00","-22.2","","-25.8","","72","","","","26","","13","","19.3","","101.10","","","","-31","","Snow"
"-94.97","74.72","RESOLUTE CARS","2403500","2012-02-09 18:00","2012","02","09","18:00","-21.4","","-25.9","","67","","","","26","","13","","24.1","","100.99","","","","-30","","Mostly Cloudy"
"-94.97","74.72","RESOLUTE CARS","2403500","2012-02-09 19:00","2012","02","09","19:00","-20.1","","-25.5","","62","","","","24","","17","","24.1","","100.85","","","","-30","","Cloudy"
"-94.97","74.72","RESOLUTE CARS","2403500","2012-02-09 20:00","2012","02","09","20:00","-20.0","","-25.3","","63","","","","22","","15","","24.1","","100.72","","","","-29","","Mostly Cloudy"
"-94.97","74.72","RESOLUTE CARS","2403500","2012-02-09 21:00","2012","02","09","21:00","-19.2","","-24.7","","62","","","","20","","11","","24.1","","100.62","","","","-27","","Mostly Cloudy"
"-94.97","74.72","RESOLUTE CARS","2403500","2012-02-09 22:00","2012","02","09","22:00","-19.5","","-24.6","","64","","","","20","","17","","24.1","","100.45","","","","-29","","Cloudy"
"-94.97","74.72","RESOLUTE CARS","2403500","2012-02-09 23:00","2012","02","09","23:00","-18.9","","-23.7","","66","","","","18","","11","","24.1","","100.26","","","","-26","","Cloudy"
"-94.97","74.72","RESOLUTE CARS","2403500","2012-02-10 00:00","2012","02","10","00:00","-17.4","","-21.7","","69","","","","14","","15","","24.1","","100.06","","","","-26","","Cloudy"
"-94.97","74.72","RESOLUTE CARS","2403500","2012-02-10 01:00","2012","02","10","01:00","-15.4","","-19.2","","73","","","","19","","24","","24.1","","99.86","","","","-26","","Cloudy"
"-94.97","74.72","RESOLUTE CARS","2403500","2012-02-10 02:00","2012","02","10","02:00","-15.1","","-18.7","","74","","","","20","","4","","24.1","","99.78","","","","-18","","Cloudy"
"-94.97","74.72","RESOLUTE CARS","2403500","2012-02-10 03:00","2012","02","10","03:00","-16.0","","-19.2","","76","","","","23","","24","","24.1","","99.62","","","","-26","","Cloudy"
"-94.97","74.72","RESOLUTE CARS","2403500","2012-02-10 04:00","2012","02","10","04:00","-15.1","","-18.0","","78","","","","30","","20","","24.1","","99.56","","","","-24","","Cloudy"
"-94.97","74.72","RESOLUTE CARS","2403500","2012-02-10 05:00","2012","02","10","05:00","-16.2","","-18.7","","81","","","","30","","26","","0.6","","99.55","","","","-27","","Moderate Snow"
"-94.97","74.72","RESOLUTE CARS","2403500","2012-02-10 06:00","2012","02","10","06:00","-18.1","","-21.1","","77","","","","34","","17","","16.1","","99.60","","","","-27","","Ice Crystals"
"-94.97","74.72","RESOLUTE CARS","2403500","2012-02-10 07:00","2012","02","10","07:00","-19.5","","-23.0","","74","","","","33","","15","","24.1","","99.62","","","","-28","","Clear"
"-94.97","74.72","RESOLUTE CARS","2403500","2012-02-10 08:00","2012","02","10","08:00","-19.1","","-22.8","","72","","","","35","","30","","24.1","","99.69","","","","-31","","Mostly Cloudy"
"-94.97","74.72","RESOLUTE CARS","2403500","2012-02-10 09:00","2012","02","10","09:00","-19.0","","-22.7","","73","","","","33","","20","","24.1","","99.74","","","","-29","","Snow"
"-94.97","74.72","RESOLUTE CARS","2403500","2012-02-10 10:00","2012","02","10","10:00","-19.9","","-23.3","","74","","","","33","","19","","24.1","","99.86","","","","-30","","Snow"
"-94.97","74.72","RESOLUTE CARS","2403500","2012-02-10 11:00","2012","02","10","11:00","-20.2","","-23.5","","75","","","","30","","11","","24.1","","99.78","","","","-28","","Snow"
"-94.97","74.72","RESOLUTE CARS","2403500","2012-02-10 12:00","2012","02","10","12:00","-20.2","","-23.5","","75","","","","32","","13","","24.1","","99.87","","","","-29","","Snow Grains"
"-94.97","74.72","RESOLUTE CARS","2403500","2012-02-10 13:00","2012","02","10","13:00","-20.1","","-23.5","","74","","","","33","","20","","19.3","","99.86","","","","-31","","Snow Grains"
"-94.97","74.72","RESOLUTE CARS","2403500","2012-02-10 14:00","2012","02","10","14:00","-19.2","","-23.2","","71","","","","34","","13","","19.3","","99.94","","","","-27","","Snow"
"-94.97","74.72","RESOLUTE CARS","2403500","2012-02-10 15:00","2012","02","10","15:00","-19.7","","-23.5","","72","","","","33","","22","","19.3","","99.91","","","","-31","","Snow"
"-94.97","74.72","RESOLUTE CARS","2403500","2012-02-10 16:00","2012","02","10","16:00","-20.6","","-24.3","","72","","","","30","","7","","20.9","","99.97","","","","-26","","Mostly Cloudy"
"-94.97","74.72","RESOLUTE CARS","2403500","2012-02-10 17:00","2012","02","10","17:00","-20.5","","-24.4","","71","","","","33","","11","","24.1","","99.97","","","","-28","","Cloudy"
"-94.97","74.72","RESOLUTE CARS","2403500","2012-02-10 18:00","2012","02","10","18:00","-21.3","","-24.9","","73","","","","32","","19","","24.1","","100.00","","","","-32","","Cloudy"
"-94.97","74.72","RESOLUTE CARS","2403500","2012-02-10 19:00","2012","02","10","19:00","-21.4","","-24.8","","74","","","","1","","11","","24.1","","100.02","","","","-29","","Snow Grains"
"-94.97","74.72","RESOLUTE CARS","2403500","2012-02-10 20:00","2012","02","10","20:00","-21.1","","-24.6","","73","","","","4","","22","","19.3","","99.94","","","","-32","","Cloudy"
"-94.97","74.72","RESOLUTE CARS","2403500","2012-02-10 21:00","2012","02","10","21:00","-19.9","","-22.9","","77","","","","","","0","","24.1","","99.96","","","","","","Cloudy"
"-94.97","74.72","RESOLUTE CARS","2403500","2012-02-10 22:00","2012","02","10","22:00","-20.0","","-23.1","","76","","","","5","","24","","24.1","","99.92","","","","-31","","Cloudy"
"-94.97","74.72","RESOLUTE CARS","2403500","2012-02-10 23:00","2012","02","10","23:00","-20.3","","-23.5","","76","","","","3","","22","","16.1","","99.97","","","","-31","","Cloudy"
"-94.97","74.72","RESOLUTE CARS","2403500","2012-02-11 00:00","2012","02","11","00:00","-20.7","","-23.9","","75","","","","4","","17","","9.7","","99.99","","","","-31","","Ice Crystals"
"-94.97","74.72","RESOLUTE CARS","2403500","2012-02-11 01:00","2012","02","11","01:00","-21.0","","-24.2","","75","","","","2","","7","","9.7","","100.00","","","","-27","","Snow Grains"
"-94.97","74.72","RESOLUTE CARS","2403500","2012-02-11 02:00","2012","02","11","02:00","-21.0","","-24.3","","75","","","","1","","15","","9.7","","100.02","","","","-30","","Snow Grains"
"-94.97","74.72","RESOLUTE CARS","2403500","2012-02-11 03:00","2012","02","11","03:00","-21.2","","-24.6","","74","","","","2","","13","","9.7","","100.04","","","","-30","","Snow Grains"
"-94.97","74.72","RESOLUTE CARS","2403500","2012-02-11 04:00","2012","02","11","04:00","-21.1","","-24.4","","75","","","","2","","15","","12.9","","100.05","","","","-30","","Snow Grains"
"-94.97","74.72","RESOLUTE CARS","2403500","2012-02-11 05:00","2012","02","11","05:00","-21.7","","-25.0","","75","","","","4","","17","","12.9","","100.02","","","","-32","","Snow Grains"
"-94.97","74.72","RESOLUTE CARS","2403500","2012-02-11 06:00","2012","02","11","06:00","-22.4","","-26.0","","72","","","","4","","11","","12.9","","100.00","","","","-31","","Snow Grains"
"-94.97","74.72","RESOLUTE CARS","2403500","2012-02-11 07:00","2012","02","11","07:00","-23.1","","-27.0","","70","","","","6","","20","","24.1","","99.95","","","","-34","","Ice Crystals"
"-94.97","74.72","RESOLUTE CARS","2403500","2012-02-11 08:00","2012","02","11","08:00","-22.1","","-25.5","","74","","","","9","","20","","24.1","","99.86","","","","-33","","Ice Crystals"
"-94.97","74.72","RESOLUTE CARS","2403500","2012-02-11 09:00","2012","02","11","09:00","-22.0","","-26.0","","70","","","","9","","11","","24.1","","99.88","","","","-30","","Mainly Clear"
"-94.97","74.72","RESOLUTE CARS","2403500","2012-02-11 10:00","2012","02","11","10:00","-22.7","","-26.1","","74","","","","7","","13","","24.1","","99.86","","","","-32","","Mainly Clear"
"-94.97","74.72","RESOLUTE CARS","2403500","2012-02-11 11:00","2012","02","11","11:00","-23.3","","-27.2","","70","","","","8","","28","","24.1","","99.85","","","","-36","","Mainly Clear"
"-94.97","74.72","RESOLUTE CARS","2403500","2012-02-11 12:00","2012","02","11","12:00","-23.5","","-27.3","","71","","","","10","","19","","24.1","","99.85","","","","-35","","Mainly Clear"
"-94.97","74.72","RESOLUTE CARS","2403500","2012-02-11 13:00","2012","02","11","13:00","-23.2","","-26.9","","72","","","","11","","22","","11.3","","99.87","","","","-35","","Snow"
"-94.97","74.72","RESOLUTE CARS","2403500","2012-02-11 14:00","2012","02","11","14:00","-21.5","","-25.0","","73","","","","13","","26","","2.4","","99.79","","","","-34","","Snow"
"-94.97","74.72","RESOLUTE CARS","2403500","2012-02-11 15:00","2012","02","11","15:00","-22.2","","-25.6","","74","","","","13","","28","","1.2","","99.74","","","","-35","","Snow"
"-94.97","74.72","RESOLUTE CARS","2403500","2012-02-11 16:00","2012","02","11","16:00","-20.8","","-24.2","","74","","","","11","","22","","2.0","","99.76","","","","-32","","Snow"
"-94.97","74.72","RESOLUTE CARS","2403500","2012-02-11 17:00","2012","02","11","17:00","-20.4","","-23.6","","76","","","","13","","22","","4.8","","99.72","","","","-31","","Snow"
"-94.97","74.72","RESOLUTE CARS","2403500","2012-02-11 18:00","2012","02","11","18:00","-20.7","","-24.1","","74","","","","14","","20","","8.0","","99.70","","","","-31","","Ice Crystals"
"-94.97","74.72","RESOLUTE CARS","2403500","2012-02-11 19:00","2012","02","11","19:00","-20.8","","-24.1","","75","","","","13","","17","","19.3","","99.69","","","","-31","","Snow"
"-94.97","74.72","RESOLUTE CARS","2403500","2012-02-11 20:00","2012","02","11","20:00","-20.9","","-24.2","","75","","","","13","","13","","16.1","","99.65","","","","-30","","Snow"
"-94.97","74.72","RESOLUTE CARS","2403500","2012-02-11 21:00","2012","02","11","21:00","-20.2","","-23.3","","76","","","","12","","22","","24.1","","99.62","","","","-31","","Snow"
"-94.97","74.72","RESOLUTE CARS","2403500","2012-02-11 22:00","2012","02","11","22:00","-19.9","","-22.9","","77","","","","9","","22","","19.3","","99.57","","","","-31","","Snow"
"-94.97","74.72","RESOLUTE CARS","2403500","2012-02-11 23:00","2012","02","11","23:00","-19.8","","-22.8","","77","","","","10","","22","","24.1","","99.56","","","","-31","","Snow"
"-94.97","74.72","RESOLUTE CARS","2403500","2012-02-12 00:00","2012","02","12","00:00","-19.4","","-22.5","","76","","","","10","","20","","16.1","","99.52","","","","-30","","Snow"
"-94.97","74.72","RESOLUTE CARS","2403500","2012-02-12 01:00","2012","02","12","01:00","-19.4","","-22.4","","77","","","","9","","19","","24.1","","99.49","","","","-29","","Snow"
"-94.97","74.72","RESOLUTE CARS","2403500","2012-02-12 02:00","2012","02","12","02:00","-19.4","","-22.6","","76","","","","8","","22","","24.1","","99.46","","","","-30","","Snow"
"-94.97","74.72","RESOLUTE CARS","2403500","2012-02-12 03:00","2012","02","12","03:00","-18.9","","-22.0","","76","","","","9","","30","","24.1","","99.42","","","","-31","","Snow"
"-94.97","74.72","RESOLUTE CARS","2403500","2012-02-12 04:00","2012","02","12","04:00","-18.8","","-21.9","","76","","","","8","","33","","24.1","","99.42","","","","-32","","Snow"
"-94.97","74.72","RESOLUTE CARS","2403500","2012-02-12 05:00","2012","02","12","05:00","-18.8","","-22.1","","75","","","","8","","26","","24.1","","99.42","","","","-30","","Snow"
"-94.97","74.72","RESOLUTE CARS","2403500","2012-02-12 06:00","2012","02","12","06:00","-18.8","","-21.4","","80","","","","8","","30","","24.1","","99.42","","","","-31","","Snow"
"-94.97","74.72","RESOLUTE CARS","2403500","2012-02-12 07:00","2012","02","12","07:00","-18.8","","-22.1","","75","","","","8","","28","","24.1","","99.37","","","","-31","","Snow"
"-94.97","74.72","RESOLUTE CARS","2403500","2012-02-12 08:00","2012","02","12","08:00","-19.0","","-22.3","","75","","","","7","","26","","24.1","","99.38","","","","-31","","Snow"
"-94.97","74.72","RESOLUTE CARS","2403500","2012-02-12 09:00","2012","02","12","09:00","-18.8","","-22.2","","74","","","","8","","30","","24.1","","99.37","","","","-31","","Snow"
"-94.97","74.72","RESOLUTE CARS","2403500","2012-02-12 10:00","2012","02","12","10:00","-19.6","","-23.1","","74","","","","8","","22","","19.3","","99.37","","","","-30","","Snow"
"-94.97","74.72","RESOLUTE CARS","2403500","2012-02-12 11:00","2012","02","12","11:00","-19.3","","-22.9","","73","","","","8","","28","","12.9","","99.35","","","","-31","","Snow"
"-94.97","74.72","RESOLUTE CARS","2403500","2012-02-12 12:00","2012","02","12","12:00","-18.8","","-22.2","","74","","","","10","","26","","8.0","","99.35","","","","-30","","Snow"
"-94.97","74.72","RESOLUTE CARS","2403500","2012-02-12 13:00","2012","02","12","13:00","-18.9","","-22.1","","76","","","","9","","22","","12.9","","99.37","","","","-30","","Snow"
"-94.97","74.72","RESOLUTE CARS","2403500","2012-02-12 14:00","2012","02","12","14:00","-18.7","","-22.0","","75","","","","8","","28","","16.1","","99.37","","","","-31","","Snow"
"-94.97","74.72","RESOLUTE CARS","2403500","2012-02-12 15:00","2012","02","12","15:00","-18.7","","-22.0","","75","","","","10","","30","","12.9","","99.41","","","","-31","","Snow"
"-94.97","74.72","RESOLUTE CARS","2403500","2012-02-12 16:00","2012","02","12","16:00","-18.6","","-22.1","","74","","","","9","","28","","20.9","","99.42","","","","-30","","Snow"
"-94.97","74.72","RESOLUTE CARS","2403500","2012-02-12 17:00","2012","02","12","17:00","-19.2","","-22.7","","74","","","","9","","22","","20.9","","99.45","","","","-30","","Snow"
"-94.97","74.72","RESOLUTE CARS","2403500","2012-02-12 18:00","2012","02","12","18:00","-19.0","","-22.8","","72","","","","9","","22","","24.1","","99.47","","","","-30","","Snow"
"-94.97","74.72","RESOLUTE CARS","2403500","2012-02-12 19:00","2012","02","12","19:00","-20.4","","-24.2","","72","","","","9","","22","","24.1","","99.51","","","","-31","","Cloudy"
"-94.97","74.72","RESOLUTE CARS","2403500","2012-02-12 20:00","2012","02","12","20:00","-21.4","","-25.0","","73","","","","8","","26","","24.1","","99.52","","","","-34","","Snow"
"-94.97","74.72","RESOLUTE CARS","2403500","2012-02-12 21:00","2012","02","12","21:00","-20.6","","-24.5","","71","","","","8","","22","","20.9","","99.52","","","","-32","","Snow"
"-94.97","74.72","RESOLUTE CARS","2403500","2012-02-12 22:00","2012","02","12","22:00","-19.8","","-24.1","","69","","","","10","","22","","24.1","","99.58","","","","-31","","Cloudy"
"-94.97","74.72","RESOLUTE CARS","2403500","2012-02-12 23:00","2012","02","12","23:00","-19.4","","-23.6","","69","","","","12","","22","","24.1","","99.60","","","","-30","","Snow"
"-94.97","74.72","RESOLUTE CARS","2403500","2012-02-13 00:00","2012","02","13","00:00","-18.9","","-23.6","","66","","","","12","","22","","24.1","","99.65","","","","-30","","Snow"
"-94.97","74.72","RESOLUTE CARS","2403500","2012-02-13 01:00","2012","02","13","01:00","-19.4","","-23.7","","69","","","","11","","22","","24.1","","99.68","","","","-30","","Snow"
"-94.97","74.72","RESOLUTE CARS","2403500","2012-02-13 02:00","2012","02","13","02:00","-19.8","","-24.1","","69","","","","11","","30","","24.1","","99.72","","","","-32","","Snow"
"-94.97","74.72","RESOLUTE CARS","2403500","2012-02-13 03:00","2012","02","13","03:00","-19.4","","-23.6","","69","","","","12","","28","","24.1","","99.76","","","","-31","","Snow"
"-94.97","74.72","RESOLUTE CARS","2403500","2012-02-13 04:00","2012","02","13","04:00","-19.2","","-23.2","","71","","","","13","","30","","19.3","","99.82","","","","-32","","Snow"
"-94.97","74.72","RESOLUTE CARS","2403500","2012-02-13 05:00","2012","02","13","05:00","-18.8","","-23.1","","69","","","","13","","24","","24.1","","99.84","","","","-30","","Snow"
"-94.97","74.72","RESOLUTE CARS","2403500","2012-02-13 06:00","2012","02","13","06:00","-19.2","","-23.2","","71","","","","13","","32","","19.3","","99.92","","","","-32","","Snow"
"-94.97","74.72","RESOLUTE CARS","2403500","2012-02-13 07:00","2012","02","13","07:00","-19.2","","-23.0","","72","","","","12","","32","","9.7","","99.95","","","","-32","","Snow"
"-94.97","74.72","RESOLUTE CARS","2403500","2012-02-13 08:00","2012","02","13","08:00","-19.1","","-22.8","","72","","","","12","","33","","12.9","","99.98","","","","-32","","Snow"
"-94.97","74.72","RESOLUTE CARS","2403500","2012-02-13 09:00","2012","02","13","09:00","-19.0","","-22.7","","73","","","","12","","33","","16.1","","100.00","","","","-32","","Snow"
"-94.97","74.72","RESOLUTE CARS","2403500","2012-02-13 10:00","2012","02","13","10:00","-18.8","","-22.5","","73","","","","12","","30","","19.3","","100.05","","","","-31","","Snow"
"-94.97","74.72","RESOLUTE CARS","2403500","2012-02-13 11:00","2012","02","13","11:00","-18.9","","-22.4","","74","","","","12","","26","","24.1","","100.06","","","","-30","","Snow"
"-94.97","74.72","RESOLUTE CARS","2403500","2012-02-13 12:00","2012","02","13","12:00","-18.9","","-22.6","","73","","","","13","","26","","24.1","","100.09","","","","-30","","Snow"
"-94.97","74.72","RESOLUTE CARS","2403500","2012-02-13 13:00","2012","02","13","13:00","-18.8","","-22.4","","73","","","","13","","33","","19.3","","100.12","","","","-32","","Snow"
"-94.97","74.72","RESOLUTE CARS","2403500","2012-02-13 14:00","2012","02","13","14:00","-18.7","","-22.5","","72","","","","13","","33","","12.9","","100.14","","","","-31","","Snow"
"-94.97","74.72","RESOLUTE CARS","2403500","2012-02-13 15:00","2012","02","13","15:00","-18.7","","-22.5","","72","","","","13","","30","","16.1","","100.16","","","","-31","","Snow"
"-94.97","74.72","RESOLUTE CARS","2403500","2012-02-13 16:00","2012","02","13","16:00","-18.9","","-22.9","","71","","","","13","","28","","12.9","","100.17","","","","-31","","Snow"
"-94.97","74.72","RESOLUTE CARS","2403500","2012-02-13 17:00","2012","02","13","17:00","-19.1","","-23.2","","70","","","","13","","30","","19.3","","100.20","","","","-31","","Snow"
"-94.97","74.72","RESOLUTE CARS","2403500","2012-02-13 18:00","2012","02","13","18:00","-19.8","","-23.7","","71","","","","11","","28","","12.9","","100.16","","","","-32","","Snow"
"-94.97","74.72","RESOLUTE CARS","2403500","2012-02-13 19:00","2012","02","13","19:00","-19.8","","-23.9","","70","","","","11","","30","","12.9","","100.12","","","","-32","","Snow"
"-94.97","74.72","RESOLUTE CARS","2403500","2012-02-13 20:00","2012","02","13","20:00","-19.9","","-24.0","","70","","","","12","","30","","11.3","","100.08","","","","-32","","Snow"
"-94.97","74.72","RESOLUTE CARS","2403500","2012-02-13 21:00","2012","02","13","21:00","-19.6","","-23.4","","72","","","","13","","28","","19.3","","100.06","","","","-32","","Snow"
"-94.97","74.72","RESOLUTE CARS","2403500","2012-02-13 22:00","2012","02","13","22:00","-19.2","","-23.8","","67","","","","13","","24","","16.1","","100.02","","","","-30","","Snow"
"-94.97","74.72","RESOLUTE CARS","2403500","2012-02-13 23:00","2012","02","13","23:00","-18.7","","-23.3","","67","","","","14","","28","","19.3","","100.00","","","","-31","","Snow"
"-94.97","74.72","RESOLUTE CARS","2403500","2012-02-14 00:00","2012","02","14","00:00","-18.5","","-22.0","","74","","","","15","","22","","19.3","","99.98","","","","-29","","Snow"
"-94.97","74.72","RESOLUTE CARS","2403500","2012-02-14 01:00","2012","02","14","01:00","-18.7","","-22.1","","75","","","","12","","20","","24.1","","99.95","","","","-29","","Snow"
"-94.97","74.72","RESOLUTE CARS","2403500","2012-02-14 02:00","2012","02","14","02:00","-18.5","","-22.2","","73","","","","13","","17","","24.1","","99.94","","","","-28","","Snow"
"-94.97","74.72","RESOLUTE CARS","2403500","2012-02-14 03:00","2012","02","14","03:00","-18.5","","-22.0","","74","","","","12","","17","","24.1","","99.92","","","","-28","","Snow"
"-94.97","74.72","RESOLUTE CARS","2403500","2012-02-14 04:00","2012","02","14","04:00","-18.4","","-21.7","","75","","","","12","","19","","19.3","","99.88","","","","-28","","Snow"
"-94.97","74.72","RESOLUTE CARS","2403500","2012-02-14 05:00","2012","02","14","05:00","-18.6","","-21.9","","75","","","","11","","20","","24.1","","99.87","","","","-29","","Snow"
"-94.97","74.72","RESOLUTE CARS","2403500","2012-02-14 06:00","2012","02","14","06:00","-18.9","","-22.4","","74","","","","10","","24","","24.1","","99.84","","","","-30","","Snow"
"-94.97","74.72","RESOLUTE CARS","2403500","2012-02-14 07:00","2012","02","14","07:00","-19.1","","-22.6","","74","","","","10","","22","","24.1","","99.81","","","","-30","","Snow"
"-94.97","74.72","RESOLUTE CARS","2403500","2012-02-14 08:00","2012","02","14","08:00","-19.0","","-22.3","","75","","","","10","","22","","24.1","","99.79","","","","-30","","Snow"
"-94.97","74.72","RESOLUTE CARS","2403500","2012-02-14 09:00","2012","02","14","09:00","-19.0","","-22.6","","73","","","","10","","20","","24.1","","99.72","","","","-29","","Snow"
"-94.97","74.72","RESOLUTE CARS","2403500","2012-02-14 10:00","2012","02","14","10:00","-19.2","","-22.6","","74","","","","9","","20","","19.3","","99.69","","","","-29","","Snow"
"-94.97","74.72","RESOLUTE CARS","2403500","2012-02-14 11:00","2012","02","14","11:00","-19.3","","-22.8","","74","","","","9","","15","","12.9","","99.67","","","","-28","","Snow"
"-94.97","74.72","RESOLUTE CARS","2403500","2012-02-14 12:00","2012","02","14","12:00","-19.1","","-22.6","","74","","","","10","","11","","9.7","","99.66","","","","-27","","Snow"
"-94.97","74.72","RESOLUTE CARS","2403500","2012-02-14 13:00","2012","02","14","13:00","-19.2","","-22.8","","73","","","","9","","9","","4.8","","99.62","","","","-26","","Snow"
"-94.97","74.72","RESOLUTE CARS","2403500","2012-02-14 14:00","2012","02","14","14:00","-19.7","","-23.3","","73","","","","5","","6","","4.8","","99.61","","","","-25","","Snow"
"-94.97","74.72","RESOLUTE CARS","2403500","2012-02-14 15:00","2012","02","14","15:00","-19.7","","-23.4","","72","","","","2","","4","","4.8","","99.60","","","","-23","","Snow"
"-94.97","74.72","RESOLUTE CARS","2403500","2012-02-14 16:00","2012","02","14","16:00","-19.7","","-23.4","","72","","","","2","","9","","8.0","","99.58","","","","-26","","Snow"
"-94.97","74.72","RESOLUTE CARS","2403500","2012-02-14 17:00","2012","02","14","17:00","-19.5","","-23.3","","72","","","","26","","4","","9.7","","99.58","","","","-23","","Snow"
"-94.97","74.72","RESOLUTE CARS","2403500","2012-02-14 18:00","2012","02","14","18:00","-19.8","","-23.8","","70","","","","","","0","","9.7","","99.56","","","","","","Snow"
"-94.97","74.72","RESOLUTE CARS","2403500","2012-02-14 19:00","2012","02","14","19:00","-19.8","","-23.9","","70","","","","5","","15","","9.7","","99.54","","","","-29","","Snow"
"-94.97","74.72","RESOLUTE CARS","2403500","2012-02-14 20:00","2012","02","14","20:00","-20.0","","-24.1","","70","","","","5","","17","","9.7","","99.51","","","","-30","","Snow"
"-94.97","74.72","RESOLUTE CARS","2403500","2012-02-14 21:00","2012","02","14","21:00","-20.3","","-24.1","","72","","","","32","","13","","11.3","","99.51","","","","-29","","Snow"
"-94.97","74.72","RESOLUTE CARS","2403500","2012-02-14 22:00","2012","02","14","22:00","-20.1","","-24.1","","70","","","","33","","9","","11.3","","99.51","","","","-27","","Snow"
"-94.97","74.72","RESOLUTE CARS","2403500","2012-02-14 23:00","2012","02","14","23:00","-20.9","","-24.4","","73","","","","2","","22","","11.3","","99.50","","","","-32","","Snow"
"-94.97","74.72","RESOLUTE CARS","2403500","2012-02-15 00:00","2012","02","15","00:00","-20.5","","-24.9","","68","","","","1","","20","","11.3","","99.49","","","","-31","","Snow"
"-94.97","74.72","RESOLUTE CARS","2403500","2012-02-15 01:00","2012","02","15","01:00","-19.9","","-24.4","","67","","","","36","","11","","24.1","","99.52","","","","-28","","Snow"
"-94.97","74.72","RESOLUTE CARS","2403500","2012-02-15 02:00","2012","02","15","02:00","-20.9","","-24.7","","71","","","","33","","11","","19.3","","99.57","","","","-29","","Snow"
"-94.97","74.72","RESOLUTE CARS","2403500","2012-02-15 03:00","2012","02","15","03:00","-21.1","","-24.8","","72","","","","32","","9","","19.3","","99.58","","","","-28","","Snow"
"-94.97","74.72","RESOLUTE CARS","2403500","2012-02-15 04:00","2012","02","15","04:00","-21.6","","-25.6","","70","","","","2","","20","","24.1","","99.61","","","","-32","","Snow"
"-94.97","74.72","RESOLUTE CARS","2403500","2012-02-15 05:00","2012","02","15","05:00","-22.2","","-26.2","","70","","","","2","","22","","24.1","","99.62","","","","-34","","Snow"
"-94.97","74.72","RESOLUTE CARS","2403500","2012-02-15 06:00","2012","02","15","06:00","-22.8","","-27.0","","68","","","","3","","28","","24.1","","99.66","","","","-36","","Snow"
"-94.97","74.72","RESOLUTE CARS","2403500","2012-02-15 07:00","2012","02","15","07:00","-23.3","","-27.6","","68","","","","3","","26","","24.1","","99.66","","","","-36","","Snow"
"-94.97","74.72","RESOLUTE CARS","2403500","2012-02-15 08:00","2012","02","15","08:00","-23.5","","-27.6","","69","","","","2","","24","","24.1","","99.68","","","","-36","","Snow"
"-94.97","74.72","RESOLUTE CARS","2403500","2012-02-15 09:00","2012","02","15","09:00","-23.0","","-26.6","","72","","","","35","","24","","19.3","","99.71","","","","-35","","Snow"
"-94.97","74.72","RESOLUTE CARS","2403500","2012-02-15 10:00","2012","02","15","10:00","-23.5","","-27.1","","72","","","","34","","19","","11.3","","99.75","","","","-35","","Snow"
"-94.97","74.72","RESOLUTE CARS","2403500","2012-02-15 11:00","2012","02","15","11:00","-23.1","","-26.8","","72","","","","33","","24","","4.0","","99.76","","","","-35","","Snow"
"-94.97","74.72","RESOLUTE CARS","2403500","2012-02-15 12:00","2012","02","15","12:00","-23.5","","-27.3","","71","","","","31","","19","","2.8","","99.80","","","","-35","","Snow"
"-94.97","74.72","RESOLUTE CARS","2403500","2012-02-15 13:00","2012","02","15","13:00","-24.1","","-27.9","","71","","","","32","","20","","4.0","","99.81","","","","-36","","Snow"
"-94.97","74.72","RESOLUTE CARS","2403500","2012-02-15 14:00","2012","02","15","14:00","-24.6","","-28.3","","71","","","","34","","20","","4.0","","99.85","","","","-36","","Snow"
"-94.97","74.72","RESOLUTE CARS","2403500","2012-02-15 15:00","2012","02","15","15:00","-25.5","","-29.2","","71","","","","36","","15","","24.1","","99.88","","","","-36","","Mostly Cloudy"
"-94.97","74.72","RESOLUTE CARS","2403500","2012-02-15 16:00","2012","02","15","16:00","-25.8","","-29.5","","71","","","","1","","15","","24.1","","99.89","","","","-36","","Mostly Cloudy"
"-94.97","74.72","RESOLUTE CARS","2403500","2012-02-15 17:00","2012","02","15","17:00","-26.0","","-29.8","","70","","","","36","","4","","16.1","","99.89","","","","-30","","Mostly Cloudy"
"-94.97","74.72","RESOLUTE CARS","2403500","2012-02-15 18:00","2012","02","15","18:00","-27.7","","-31.8","","68","","","","28","","13","","16.1","","99.92","","","","-38","","Snow Grains"
"-94.97","74.72","RESOLUTE CARS","2403500","2012-02-15 19:00","2012","02","15","19:00","-28.2","","-32.2","","69","","","","30","","9","","16.1","","99.94","","","","-36","","Snow Grains"
"-94.97","74.72","RESOLUTE CARS","2403500","2012-02-15 20:00","2012","02","15","20:00","-28.5","","-32.8","","66","","","","30","","9","","16.1","","99.94","","","","-37","","Snow Grains"
"-94.97","74.72","RESOLUTE CARS","2403500","2012-02-15 21:00","2012","02","15","21:00","-30.0","","-34.1","","67","","","","30","","9","","24.1","","99.96","","","","-39","","Mainly Clear"
"-94.97","74.72","RESOLUTE CARS","2403500","2012-02-15 22:00","2012","02","15","22:00","-30.4","","-34.6","","67","","","","32","","7","","24.1","","99.97","","","","-38","","Ice Crystals"
"-94.97","74.72","RESOLUTE CARS","2403500","2012-02-15 23:00","2012","02","15","23:00","-30.3","","-34.7","","65","","","","32","","4","","24.1","","99.97","","","","-35","","Mainly Clear"
"-94.97","74.72","RESOLUTE CARS","2403500","2012-02-16 00:00","2012","02","16","00:00","-30.2","","-34.5","","66","","","","30","","9","","24.1","","100.01","","","","-39","","Mainly Clear"
"-94.97","74.72","RESOLUTE CARS","2403500","2012-02-16 01:00","2012","02","16","01:00","-30.6","","-34.8","","67","","","","32","","11","","24.1","","100.02","","","","-40","","Mainly Clear"
"-94.97","74.72","RESOLUTE CARS","2403500","2012-02-16 02:00","2012","02","16","02:00","-30.6","","-34.9","","66","","","","32","","4","","24.1","","100.01","","","","-35","","Mainly Clear"
"-94.97","74.72","RESOLUTE CARS","2403500","2012-02-16 03:00","2012","02","16","03:00","-30.8","","-35.1","","66","","","","33","","6","","24.1","","100.08","","","","-37","","Mainly Clear"
"-94.97","74.72","RESOLUTE CARS","2403500","2012-02-16 04:00","2012","02","16","04:00","-30.9","","-35.0","","67","","","","29","","11","","24.1","","100.10","","","","-41","","Mainly Clear"
"-94.97","74.72","RESOLUTE CARS","2403500","2012-02-16 05:00","2012","02","16","05:00","-31.2","","-35.5","","66","","","","30","","6","","24.1","","100.09","","","","-38","","Clear"
"-94.97","74.72","RESOLUTE CARS","2403500","2012-02-16 06:00","2012","02","16","06:00","-31.4","","-35.7","","66","","","","30","","13","","24.1","","100.12","","","","-42","","Ice Crystals"
"-94.97","74.72","RESOLUTE CARS","2403500","2012-02-16 07:00","2012","02","16","07:00","-32.6","","-36.9","","65","","","","32","","13","","24.1","","100.17","","","","-44","","Ice Crystals"
"-94.97","74.72","RESOLUTE CARS","2403500","2012-02-16 08:00","2012","02","16","08:00","-34.2","","-39.0","","62","","","","33","","17","","24.1","","100.21","","","","-47","","Mainly Clear"
"-94.97","74.72","RESOLUTE CARS","2403500","2012-02-16 09:00","2012","02","16","09:00","-33.6","","-37.8","","66","","","","32","","11","","24.1","","100.24","","","","-44","","Mainly Clear"
"-94.97","74.72","RESOLUTE CARS","2403500","2012-02-16 10:00","2012","02","16","10:00","-35.1","","-39.9","","61","","","","30","","13","","24.1","","100.27","","","","-47","","Clear"
"-94.97","74.72","RESOLUTE CARS","2403500","2012-02-16 11:00","2012","02","16","11:00","-34.7","","-39.1","","64","","","","33","","13","","24.1","","100.29","","","","-46","","Clear"
"-94.97","74.72","RESOLUTE CARS","2403500","2012-02-16 12:00","2012","02","16","12:00","-35.1","","-39.5","","64","","","","33","","11","","24.1","","100.31","","","","-46","","Clear"
"-94.97","74.72","RESOLUTE CARS","2403500","2012-02-16 13:00","2012","02","16","13:00","-35.7","","-40.0","","65","","","","33","","11","","24.1","","100.34","","","","-47","","Mainly Clear"
"-94.97","74.72","RESOLUTE CARS","2403500","2012-02-16 14:00","2012","02","16","14:00","-35.4","","-39.8","","64","","","","34","","13","","24.1","","100.41","","","","-47","","Mainly Clear"
"-94.97","74.72","RESOLUTE CARS","2403500","2012-02-16 15:00","2012","02","16","15:00","-35.6","","-40.1","","63","","","","33","","11","","24.1","","100.45","","","","-46","","Mainly Clear"
"-94.97","74.72","RESOLUTE CARS","2403500","2012-02-16 16:00","2012","02","16","16:00","-36.3","","-40.7","","64","","","","35","","7","","24.1","","100.51","","","","-45","","Mainly Clear"
"-94.97","74.72","RESOLUTE CARS","2403500","2012-02-16 17:00","2012","02","16","17:00","-36.4","","-40.6","","65","","","","30","","6","","24.1","","100.51","","","","-44","","Mainly Clear"
"-94.97","74.72","RESOLUTE CARS","2403500","2012-02-16 18:00","2012","02","16","18:00","-36.7","","-40.9","","65","","","","34","","9","","24.1","","100.55","","","","-47","","Mainly Clear"
"-94.97","74.72","RESOLUTE CARS","2403500","2012-02-16 19:00","2012","02","16","19:00","-36.8","","-40.7","","67","","","","35","","9","","24.1","","100.55","","","","-47","","Clear"
"-94.97","74.72","RESOLUTE CARS","2403500","2012-02-16 20:00","2012","02","16","20:00","-36.6","","-40.8","","65","","","","35","","15","","24.1","","100.59","","","","-50","","Clear"
"-94.97","74.72","RESOLUTE CARS","2403500","2012-02-16 21:00","2012","02","16","21:00","-36.7","","-40.8","","66","","","","35","","13","","24.1","","100.61","","","","-49","","Clear"
"-94.97","74.72","RESOLUTE CARS","2403500","2012-02-16 22:00","2012","02","16","22:00","-37.5","","-41.7","","65","","","","36","","17","","24.1","","100.61","","","","-51","","Clear"
"-94.97","74.72","RESOLUTE CARS","2403500","2012-02-16 23:00","2012","02","16","23:00","-36.8","","-41.0","","65","","","","35","","17","","24.1","","100.67","","","","-51","","Clear"
"-94.97","74.72","RESOLUTE CARS","2403500","2012-02-17 00:00","2012","02","17","00:00","-36.3","","-40.7","","64","","","","34","","22","","24.1","","100.65","","","","-52","","Clear"
"-94.97","74.72","RESOLUTE CARS","2403500","2012-02-17 01:00","2012","02","17","01:00","-36.6","","-40.9","","64","","","","35","","19","","24.1","","100.70","","","","-51","","Clear"
"-94.97","74.72","RESOLUTE CARS","2403500","2012-02-17 02:00","2012","02","17","02:00","-35.9","","-40.6","","62","","","","34","","20","","24.1","","100.69","","","","-51","","Clear"
"-94.97","74.72","RESOLUTE CARS","2403500","2012-02-17 03:00","2012","02","17","03:00","-37.2","","-41.8","","62","","","","33","","13","","24.1","","100.74","","","","-49","","Clear"
"-94.97","74.72","RESOLUTE CARS","2403500","2012-02-17 04:00","2012","02","17","04:00","-37.1","","-41.5","","64","","","","34","","9","","24.1","","100.76","","","","-47","","Clear"
"-94.97","74.72","RESOLUTE CARS","2403500","2012-02-17 05:00","2012","02","17","05:00","-37.3","","-41.4","","66","","","","31","","6","","24.1","","100.77","","","","-45","","Ice Crystals"
"-94.97","74.72","RESOLUTE CARS","2403500","2012-02-17 06:00","2012","02","17","06:00","-36.5","","-40.6","","66","","","","33","","7","","24.1","","100.77","","","","-45","","Ice Crystals"
"-94.97","74.72","RESOLUTE CARS","2403500","2012-02-17 07:00","2012","02","17","07:00","-37.1","","-41.4","","64","","","","35","","11","","24.1","","100.76","","","","-48","","Ice Crystals"
"-94.97","74.72","RESOLUTE CARS","2403500","2012-02-17 08:00","2012","02","17","08:00","-36.5","","-40.5","","66","","","","33","","20","","24.1","","100.75","","","","-51","","Ice Crystals"
"-94.97","74.72","RESOLUTE CARS","2403500","2012-02-17 09:00","2012","02","17","09:00","-34.6","","-39.0","","64","","","","35","","13","","24.1","","100.75","","","","-46","","Ice Crystals"
"-94.97","74.72","RESOLUTE CARS","2403500","2012-02-17 10:00","2012","02","17","10:00","-34.5","","-38.7","","66","","","","34","","19","","24.1","","100.72","","","","-48","","Mainly Clear"
"-94.97","74.72","RESOLUTE CARS","2403500","2012-02-17 11:00","2012","02","17","11:00","-35.6","","-39.9","","65","","","","33","","15","","24.1","","100.72","","","","-48","","Clear"
"-94.97","74.72","RESOLUTE CARS","2403500","2012-02-17 12:00","2012","02","17","12:00","-35.8","","-39.8","","67","","","","33","","11","","24.1","","100.74","","","","-47","","Clear"
"-94.97","74.72","RESOLUTE CARS","2403500","2012-02-17 13:00","2012","02","17","13:00","-34.5","","-38.8","","65","","","","33","","11","","24.1","","100.72","","","","-45","","Mainly Clear"
"-94.97","74.72","RESOLUTE CARS","2403500","2012-02-17 14:00","2012","02","17","14:00","-34.4","","-38.8","","64","","","","34","","13","","24.1","","100.70","","","","-46","","Mainly Clear"
"-94.97","74.72","RESOLUTE CARS","2403500","2012-02-17 15:00","2012","02","17","15:00","-34.3","","-38.4","","66","","","","34","","13","","24.1","","100.69","","","","-46","","Clear"
"-94.97","74.72","RESOLUTE CARS","2403500","2012-02-17 16:00","2012","02","17","16:00","-36.7","","-38.5","","83","","","","34","","9","","24.1","","100.67","","","","-47","","Clear"
"-94.97","74.72","RESOLUTE CARS","2403500","2012-02-17 17:00","2012","02","17","17:00","-35.0","","-39.3","","65","","","","33","","13","","24.1","","100.68","","","","-47","","Clear"
"-94.97","74.72","RESOLUTE CARS","2403500","2012-02-17 18:00","2012","02","17","18:00","-36.0","","-40.5","","63","","","","34","","19","","24.1","","100.64","","","","-50","","Ice Crystals"
"-94.97","74.72","RESOLUTE CARS","2403500","2012-02-17 19:00","2012","02","17","19:00","-37.0","","-40.8","","68","","","","31","","11","","24.1","","100.62","","","","-48","","Ice Crystals"
"-94.97","74.72","RESOLUTE CARS","2403500","2012-02-17 20:00","2012","02","17","20:00","-37.1","","-41.4","","64","","","","32","","13","","24.1","","100.61","","","","-49","","Ice Crystals"
"-94.97","74.72","RESOLUTE CARS","2403500","2012-02-17 21:00","2012","02","17","21:00","-37.6","","-41.6","","66","","","","31","","9","","24.1","","100.58","","","","-48","","Ice Crystals"
"-94.97","74.72","RESOLUTE CARS","2403500","2012-02-17 22:00","2012","02","17","22:00","-38.4","","-42.4","","66","","","","31","","9","","16.1","","100.57","","","","-49","","Ice Crystals"
"-94.97","74.72","RESOLUTE CARS","2403500","2012-02-17 23:00","2012","02","17","23:00","-38.2","","-41.9","","68","","","","36","","15","","16.1","","100.57","","","","-52","","Ice Crystals"
"-94.97","74.72","RESOLUTE CARS","2403500","2012-02-18 00:00","2012","02","18","00:00","-38.4","","-42.2","","67","","","","2","","15","","24.1","","100.56","","","","-52","","Ice Crystals"
"-94.97","74.72","RESOLUTE CARS","2403500","2012-02-18 01:00","2012","02","18","01:00","-38.6","","-42.4","","67","","","","32","","6","","24.1","","100.56","","","","-46","","Ice Crystals"
"-94.97","74.72","RESOLUTE CARS","2403500","2012-02-18 02:00","2012","02","18","02:00","-39.6","","-43.0","","70","","","","30","","11","","24.1","","100.55","","","","-51","","Ice Crystals"
"-94.97","74.72","RESOLUTE CARS","2403500","2012-02-18 03:00","2012","02","18","03:00","-38.7","","-42.2","","69","","","","33","","7","","24.1","","100.52","","","","-47","","Ice Crystals"
"-94.97","74.72","RESOLUTE CARS","2403500","2012-02-18 04:00","2012","02","18","04:00","-39.0","","-42.7","","68","","","","32","","9","","24.1","","100.52","","","","-49","","Ice Crystals"
"-94.97","74.72","RESOLUTE CARS","2403500","2012-02-18 05:00","2012","02","18","05:00","-38.5","","-42.5","","66","","","","34","","13","","24.1","","100.52","","","","-51","","Ice Crystals"
"-94.97","74.72","RESOLUTE CARS","2403500","2012-02-18 06:00","2012","02","18","06:00","-37.4","","-41.5","","65","","","","31","","22","","24.1","","100.49","","","","-53","","Ice Crystals"
"-94.97","74.72","RESOLUTE CARS","2403500","2012-02-18 07:00","2012","02","18","07:00","-36.3","","-40.7","","64","","","","34","","28","","24.1","","100.46","","","","-53","","Ice Crystals"
"-94.97","74.72","RESOLUTE CARS","2403500","2012-02-18 08:00","2012","02","18","08:00","-36.2","","-40.6","","64","","","","32","","30","","12.9","","100.45","","","","-54","","Ice Crystals"
"-94.97","74.72","RESOLUTE CARS","2403500","2012-02-18 09:00","2012","02","18","09:00","-36.0","","-40.4","","64","","","","31","","19","","24.1","","100.44","","","","-50","","Ice Crystals"
"-94.97","74.72","RESOLUTE CARS","2403500","2012-02-18 10:00","2012","02","18","10:00","-36.7","","-40.9","","65","","","","31","","26","","16.1","","100.45","","","","-53","","Ice Crystals"
"-94.97","74.72","RESOLUTE CARS","2403500","2012-02-18 11:00","2012","02","18","11:00","-36.2","","-40.2","","67","","","","31","","22","","19.3","","100.46","","","","-52","","Ice Crystals"
"-94.97","74.72","RESOLUTE CARS","2403500","2012-02-18 12:00","2012","02","18","12:00","-35.0","","-39.1","","66","","","","32","","26","","6.4","","100.47","","","","-51","","Ice Crystals"
"-94.97","74.72","RESOLUTE CARS","2403500","2012-02-18 13:00","2012","02","18","13:00","-35.0","","-39.2","","65","","","","32","","26","","24.1","","100.48","","","","-51","","Ice Crystals"
"-94.97","74.72","RESOLUTE CARS","2403500","2012-02-18 14:00","2012","02","18","14:00","-34.7","","-39.2","","64","","","","32","","19","","24.1","","100.49","","","","-49","","Ice Crystals"
"-94.97","74.72","RESOLUTE CARS","2403500","2012-02-18 15:00","2012","02","18","15:00","-35.5","","-39.9","","64","","","","33","","20","","24.1","","100.51","","","","-50","","Ice Crystals"
"-94.97","74.72","RESOLUTE CARS","2403500","2012-02-18 16:00","2012","02","18","16:00","-35.1","","-39.5","","64","","","","35","","17","","24.1","","100.51","","","","-48","","Ice Crystals"
"-94.97","74.72","RESOLUTE CARS","2403500","2012-02-18 17:00","2012","02","18","17:00","-34.7","","-38.9","","66","","","","34","","17","","24.1","","100.54","","","","-48","","Ice Crystals"
"-94.97","74.72","RESOLUTE CARS","2403500","2012-02-18 18:00","2012","02","18","18:00","-35.4","","-40.0","","63","","","","34","","13","","24.1","","100.57","","","","-47","","Ice Crystals"
"-94.97","74.72","RESOLUTE CARS","2403500","2012-02-18 19:00","2012","02","18","19:00","-34.7","","-39.1","","64","","","","33","","11","","24.1","","100.56","","","","-45","","Ice Crystals"
"-94.97","74.72","RESOLUTE CARS","2403500","2012-02-18 20:00","2012","02","18","20:00","-34.1","","-38.3","","66","","","","33","","11","","24.1","","100.57","","","","-45","","Snow"
"-94.97","74.72","RESOLUTE CARS","2403500","2012-02-18 21:00","2012","02","18","21:00","-33.9","","-38.2","","65","","","","34","","9","","24.1","","100.58","","","","-43","","Ice Crystals"
"-94.97","74.72","RESOLUTE CARS","2403500","2012-02-18 22:00","2012","02","18","22:00","-33.2","","-37.2","","67","","","","34","","9","","24.1","","100.58","","","","-42","","Ice Crystals"
"-94.97","74.72","RESOLUTE CARS","2403500","2012-02-18 23:00","2012","02","18","23:00","-32.9","","-37.1","","66","","","","32","","6","","24.1","","100.57","","","","-40","","Ice Crystals"
"-94.97","74.72","RESOLUTE CARS","2403500","2012-02-19 00:00","2012","02","19","00:00","-33.0","","-37.3","","65","","","","34","","6","","24.1","","100.58","","","","-40","","Ice Crystals"
"-94.97","74.72","RESOLUTE CARS","2403500","2012-02-19 01:00","2012","02","19","01:00","-33.4","","-37.4","","67","","","","33","","11","","24.1","","100.59","","","","-44","","Ice Crystals"
"-94.97","74.72","RESOLUTE CARS","2403500","2012-02-19 02:00","2012","02","19","02:00","-32.9","","-37.2","","65","","","","34","","13","","24.1","","100.61","","","","-44","","Ice Crystals"
"-94.97","74.72","RESOLUTE CARS","2403500","2012-02-19 03:00","2012","02","19","03:00","-32.2","","-36.0","","69","","","","34","","9","","24.1","","100.66","","","","-41","","Ice Crystals"
"-94.97","74.72","RESOLUTE CARS","2403500","2012-02-19 04:00","2012","02","19","04:00","-31.4","","-35.6","","66","","","","33","","20","","24.1","","100.67","","","","-45","","Ice Crystals"
"-94.97","74.72","RESOLUTE CARS","2403500","2012-02-19 05:00","2012","02","19","05:00","-31.7","","-35.8","","67","","","","34","","22","","24.1","","100.71","","","","-46","","Ice Crystals"
"-94.97","74.72","RESOLUTE CARS","2403500","2012-02-19 06:00","2012","02","19","06:00","-32.5","","-36.7","","66","","","","34","","24","","24.1","","100.75","","","","-47","","Ice Crystals"
"-94.97","74.72","RESOLUTE CARS","2403500","2012-02-19 07:00","2012","02","19","07:00","-33.3","","-37.4","","67","","","","35","","24","","24.1","","100.75","","","","-48","","Ice Crystals"
"-94.97","74.72","RESOLUTE CARS","2403500","2012-02-19 08:00","2012","02","19","08:00","-33.6","","-37.9","","65","","","","33","","26","","24.1","","100.75","","","","-49","","Ice Crystals"
"-94.97","74.72","RESOLUTE CARS","2403500","2012-02-19 09:00","2012","02","19","09:00","-33.6","","-38.1","","64","","","","32","","13","","24.1","","100.78","","","","-45","","Ice Crystals"
"-94.97","74.72","RESOLUTE CARS","2403500","2012-02-19 10:00","2012","02","19","10:00","-32.9","","-36.8","","68","","","","36","","9","","12.9","","100.82","","","","-42","","Ice Crystals"
"-94.97","74.72","RESOLUTE CARS","2403500","2012-02-19 11:00","2012","02","19","11:00","-32.6","","-36.7","","67","","","","32","","22","","24.1","","100.82","","","","-47","","Ice Crystals"
"-94.97","74.72","RESOLUTE CARS","2403500","2012-02-19 12:00","2012","02","19","12:00","-32.2","","-36.4","","66","","","","32","","28","","12.9","","100.84","","","","-48","","Ice Crystals"
"-94.97","74.72","RESOLUTE CARS","2403500","2012-02-19 13:00","2012","02","19","13:00","-31.8","","-35.7","","68","","","","31","","22","","19.3","","100.90","","","","-46","","Ice Crystals"
"-94.97","74.72","RESOLUTE CARS","2403500","2012-02-19 14:00","2012","02","19","14:00","-31.5","","-35.6","","67","","","","33","","9","","16.1","","100.94","","","","-40","","Ice Crystals"
"-94.97","74.72","RESOLUTE CARS","2403500","2012-02-19 15:00","2012","02","19","15:00","-30.8","","-35.1","","66","","","","32","","19","","20.9","","100.99","","","","-44","","Ice Crystals"
"-94.97","74.72","RESOLUTE CARS","2403500","2012-02-19 16:00","2012","02","19","16:00","-31.2","","-35.3","","67","","","","33","","24","","19.3","","101.07","","","","-46","","Ice Crystals"
"-94.97","74.72","RESOLUTE CARS","2403500","2012-02-19 17:00","2012","02","19","17:00","-31.6","","-36.0","","65","","","","29","","13","","24.1","","101.09","","","","-43","","Ice Crystals"
"-94.97","74.72","RESOLUTE CARS","2403500","2012-02-19 18:00","2012","02","19","18:00","-30.4","","-34.4","","68","","","","33","","17","","24.1","","101.09","","","","-43","","Ice Crystals"
"-94.97","74.72","RESOLUTE CARS","2403500","2012-02-19 19:00","2012","02","19","19:00","-30.1","","-34.0","","69","","","","34","","26","","24.1","","101.12","","","","-45","","Ice Crystals"
"-94.97","74.72","RESOLUTE CARS","2403500","2012-02-19 20:00","2012","02","19","20:00","-29.9","","-34.5","","64","","","","33","","30","","24.1","","101.15","","","","-45","","Ice Crystals"
"-94.97","74.72","RESOLUTE CARS","2403500","2012-02-19 21:00","2012","02","19","21:00","-30.7","","-34.9","","67","","","","33","","20","","24.1","","101.18","","","","-44","","Ice Crystals"
"-94.97","74.72","RESOLUTE CARS","2403500","2012-02-19 22:00","2012","02","19","22:00","-30.3","","-34.6","","66","","","","32","","13","","24.1","","101.19","","","","-41","","Ice Crystals"
"-94.97","74.72","RESOLUTE CARS","2403500","2012-02-19 23:00","2012","02","19","23:00","-30.0","","-34.1","","67","","","","33","","13","","24.1","","101.17","","","","-41","","Ice Crystals"
"-94.97","74.72","RESOLUTE CARS","2403500","2012-02-20 00:00","2012","02","20","00:00","-30.0","","-34.1","","67","","","","33","","6","","24.1","","101.19","","","","-37","","Ice Crystals"
"-94.97","74.72","RESOLUTE CARS","2403500","2012-02-20 01:00","2012","02","20","01:00","-30.2","","-34.4","","67","","","","33","","7","","24.1","","101.22","","","","-38","","Ice Crystals"
"-94.97","74.72","RESOLUTE CARS","2403500","2012-02-20 02:00","2012","02","20","02:00","-30.0","","-34.2","","67","","","","33","","6","","24.1","","101.24","","","","-37","","Ice Crystals"
"-94.97","74.72","RESOLUTE CARS","2403500","2012-02-20 03:00","2012","02","20","03:00","-30.3","","-34.5","","67","","","","34","","6","","24.1","","101.24","","","","-37","","Ice Crystals"
"-94.97","74.72","RESOLUTE CARS","2403500","2012-02-20 04:00","2012","02","20","04:00","-30.4","","-34.6","","67","","","","34","","6","","24.1","","101.25","","","","-37","","Ice Crystals"
"-94.97","74.72","RESOLUTE CARS","2403500","2012-02-20 05:00","2012","02","20","05:00","-30.3","","-34.5","","67","","","","32","","6","","24.1","","101.25","","","","-37","","Ice Crystals"
"-94.97","74.72","RESOLUTE CARS","2403500","2012-02-20 06:00","2012","02","20","06:00","-30.8","","-35.0","","67","","","","34","","9","","24.1","","101.25","","","","-40","","Ice Crystals"
"-94.97","74.72","RESOLUTE CARS","2403500","2012-02-20 07:00","2012","02","20","07:00","-30.5","","-34.7","","67","","","","34","","9","","24.1","","101.25","","","","-39","","Ice Crystals"
"-94.97","74.72","RESOLUTE CARS","2403500","2012-02-20 08:00","2012","02","20","08:00","-30.6","","-34.9","","66","","","","34","","9","","24.1","","101.22","","","","-39","","Mostly Cloudy"
"-94.97","74.72","RESOLUTE CARS","2403500","2012-02-20 09:00","2012","02","20","09:00","-30.8","","-35.1","","66","","","","35","","9","","24.1","","101.21","","","","-40","","Ice Crystals"
"-94.97","74.72","RESOLUTE CARS","2403500","2012-02-20 10:00","2012","02","20","10:00","-30.9","","-35.1","","67","","","","34","","11","","24.1","","101.19","","","","-41","","Ice Crystals"
"-94.97","74.72","RESOLUTE CARS","2403500","2012-02-20 11:00","2012","02","20","11:00","-30.9","","-35.3","","65","","","","33","","9","","24.1","","101.17","","","","-40","","Ice Crystals"
"-94.97","74.72","RESOLUTE CARS","2403500","2012-02-20 12:00","2012","02","20","12:00","-30.8","","-35.1","","66","","","","33","","9","","24.1","","101.14","","","","-40","","Ice Crystals"
"-94.97","74.72","RESOLUTE CARS","2403500","2012-02-20 13:00","2012","02","20","13:00","-29.3","","-33.4","","68","","","","34","","9","","24.1","","101.14","","","","-38","","Ice Crystals"
"-94.97","74.72","RESOLUTE CARS","2403500","2012-02-20 14:00","2012","02","20","14:00","-29.4","","-32.8","","72","","","","16","","9","","24.1","","101.12","","","","-38","","Ice Crystals"
"-94.97","74.72","RESOLUTE CARS","2403500","2012-02-20 15:00","2012","02","20","15:00","-29.9","","-33.9","","68","","","","14","","7","","24.1","","101.12","","","","-37","","Snow Grains"
"-94.97","74.72","RESOLUTE CARS","2403500","2012-02-20 16:00","2012","02","20","16:00","-24.7","","-33.7","","43","","","","10","","7","","24.1","","101.12","","","","-31","","Snow Grains"
"-94.97","74.72","RESOLUTE CARS","2403500","2012-02-20 17:00","2012","02","20","17:00","-24.2","","-33.4","","42","","","","","","0","","12.9","","101.10","","","","","","Snow"
"-94.97","74.72","RESOLUTE CARS","2403500","2012-02-20 18:00","2012","02","20","18:00","-29.2","","-33.4","","67","","","","33","","6","","19.3","","101.05","","","","-36","","Snow"
"-94.97","74.72","RESOLUTE CARS","2403500","2012-02-20 19:00","2012","02","20","19:00","-28.8","","-32.9","","68","","","","","","0","","19.3","","101.02","","","","","","Snow"
"-94.97","74.72","RESOLUTE CARS","2403500","2012-02-20 20:00","2012","02","20","20:00","-29.2","","-33.6","","66","","","","11","","9","","24.1","","100.97","","","","-38","","Snow"
"-94.97","74.72","RESOLUTE CARS","2403500","2012-02-20 21:00","2012","02","20","21:00","-29.7","","-33.9","","67","","","","13","","9","","19.3","","100.94","","","","-38","","Snow"
"-94.97","74.72","RESOLUTE CARS","2403500","2012-02-20 22:00","2012","02","20","22:00","-29.6","","-33.9","","66","","","","12","","13","","16.1","","100.90","","","","-40","","Snow"
"-94.97","74.72","RESOLUTE CARS","2403500","2012-02-20 23:00","2012","02","20","23:00","-29.5","","-33.7","","67","","","","16","","6","","24.1","","100.86","","","","-36","","Snow"
"-94.97","74.72","RESOLUTE CARS","2403500","2012-02-21 00:00","2012","02","21","00:00","-29.9","","-34.0","","67","","","","12","","7","","16.1","","100.85","","","","-37","","Snow"
"-94.97","74.72","RESOLUTE CARS","2403500","2012-02-21 01:00","2012","02","21","01:00","-29.5","","-33.8","","66","","","","12","","6","","19.3","","100.81","","","","-36","","Snow"
"-94.97","74.72","RESOLUTE CARS","2403500","2012-02-21 02:00","2012","02","21","02:00","-29.4","","-33.6","","67","","","","13","","4","","19.3","","100.79","","","","-34","","Snow"
"-94.97","74.72","RESOLUTE CARS","2403500","2012-02-21 03:00","2012","02","21","03:00","-29.2","","-33.4","","67","","","","12","","6","","24.1","","100.78","","","","-36","","Snow"
"-94.97","74.72","RESOLUTE CARS","2403500","2012-02-21 04:00","2012","02","21","04:00","-29.4","","-33.5","","68","","","","13","","9","","24.1","","100.74","","","","-38","","Snow"
"-94.97","74.72","RESOLUTE CARS","2403500","2012-02-21 05:00","2012","02","21","05:00","-29.8","","-34.2","","66","","","","13","","13","","24.1","","100.72","","","","-40","","Snow"
"-94.97","74.72","RESOLUTE CARS","2403500","2012-02-21 06:00","2012","02","21","06:00","-30.2","","-34.5","","66","","","","12","","13","","24.1","","100.70","","","","-41","","Snow"
"-94.97","74.72","RESOLUTE CARS","2403500","2012-02-21 07:00","2012","02","21","07:00","-30.8","","-35.2","","65","","","","12","","9","","24.1","","100.66","","","","-40","","Snow"
"-94.97","74.72","RESOLUTE CARS","2403500","2012-02-21 08:00","2012","02","21","08:00","-30.9","","-35.2","","66","","","","13","","11","","24.1","","100.62","","","","-41","","Snow"
"-94.97","74.72","RESOLUTE CARS","2403500","2012-02-21 09:00","2012","02","21","09:00","-31.6","","-35.7","","67","","","","15","","4","","24.1","","100.59","","","","-36","","Snow"
"-94.97","74.72","RESOLUTE CARS","2403500","2012-02-21 10:00","2012","02","21","10:00","-31.6","","-35.9","","66","","","","","","0","","24.1","","100.57","","","","","","Mainly Clear"
"-94.97","74.72","RESOLUTE CARS","2403500","2012-02-21 11:00","2012","02","21","11:00","-31.8","","-36.1","","66","","","","14","","6","","24.1","","100.52","","","","-39","","Mainly Clear"
"-94.97","74.72","RESOLUTE CARS","2403500","2012-02-21 12:00","2012","02","21","12:00","-32.3","","-37.1","","62","","","","12","","9","","24.1","","100.50","","","","-41","","Mainly Clear"
"-94.97","74.72","RESOLUTE CARS","2403500","2012-02-21 13:00","2012","02","21","13:00","-32.0","","-36.4","","65","","","","13","","6","","24.1","","100.48","","","","-39","","Clear"
"-94.97","74.72","RESOLUTE CARS","2403500","2012-02-21 14:00","2012","02","21","14:00","-31.4","","-35.8","","65","","","","12","","7","","24.1","","100.49","","","","-39","","Clear"
"-94.97","74.72","RESOLUTE CARS","2403500","2012-02-21 15:00","2012","02","21","15:00","-31.2","","-35.4","","66","","","","","","0","","24.1","","100.48","","","","","","Clear"
"-94.97","74.72","RESOLUTE CARS","2403500","2012-02-21 16:00","2012","02","21","16:00","-32.0","","-36.3","","66","","","","","","0","","24.1","","100.47","","","","","","Clear"
"-94.97","74.72","RESOLUTE CARS","2403500","2012-02-21 17:00","2012","02","21","17:00","-32.3","","-37.0","","63","","","","33","","6","","24.1","","100.42","","","","-39","","Clear"
"-94.97","74.72","RESOLUTE CARS","2403500","2012-02-21 18:00","2012","02","21","18:00","-31.9","","-36.2","","66","","","","","","0","","24.1","","100.39","","","","","","Clear"
"-94.97","74.72","RESOLUTE CARS","2403500","2012-02-21 19:00","2012","02","21","19:00","-32.6","","-36.8","","66","","","","","","0","","24.1","","100.37","","","","","","Ice Crystals"
"-94.97","74.72","RESOLUTE CARS","2403500","2012-02-21 20:00","2012","02","21","20:00","-32.6","","-37.3","","63","","","","","","0","","24.1","","100.34","","","","","","Ice Crystals"
"-94.97","74.72","RESOLUTE CARS","2403500","2012-02-21 21:00","2012","02","21","21:00","-31.5","","-36.8","","59","","","","","","0","","24.1","","100.30","","","","","","Ice Crystals"
"-94.97","74.72","RESOLUTE CARS","2403500","2012-02-21 22:00","2012","02","21","22:00","-31.4","","-35.7","","66","","","","32","","6","","24.1","","100.26","","","","-38","","Ice Crystals"
"-94.97","74.72","RESOLUTE CARS","2403500","2012-02-21 23:00","2012","02","21","23:00","-31.9","","-36.0","","67","","","","32","","7","","24.1","","100.22","","","","-39","","Ice Crystals"
"-94.97","74.72","RESOLUTE CARS","2403500","2012-02-22 00:00","2012","02","22","00:00","-31.3","","-35.7","","65","","","","35","","9","","24.1","","100.22","","","","-40","","Ice Crystals"
"-94.97","74.72","RESOLUTE CARS","2403500","2012-02-22 01:00","2012","02","22","01:00","-31.8","","-36.1","","66","","","","33","","7","","24.1","","100.20","","","","-39","","Ice Crystals"
"-94.97","74.72","RESOLUTE CARS","2403500","2012-02-22 02:00","2012","02","22","02:00","-32.6","","-36.8","","66","","","","32","","6","","24.1","","100.21","","","","-40","","Clear"
"-94.97","74.72","RESOLUTE CARS","2403500","2012-02-22 03:00","2012","02","22","03:00","-32.3","","-36.4","","67","","","","32","","7","","24.1","","100.19","","","","-40","","Clear"
"-94.97","74.72","RESOLUTE CARS","2403500","2012-02-22 04:00","2012","02","22","04:00","-33.5","","-37.9","","65","","","","32","","7","","24.1","","100.20","","","","-41","","Ice Crystals"
"-94.97","74.72","RESOLUTE CARS","2403500","2012-02-22 05:00","2012","02","22","05:00","-33.2","","-37.7","","64","","","","35","","9","","24.1","","100.19","","","","-42","","Ice Crystals"
"-94.97","74.72","RESOLUTE CARS","2403500","2012-02-22 06:00","2012","02","22","06:00","-32.6","","-36.9","","65","","","","34","","6","","24.1","","100.16","","","","-40","","Ice Crystals"
"-94.97","74.72","RESOLUTE CARS","2403500","2012-02-22 07:00","2012","02","22","07:00","-33.6","","-38.0","","65","","","","32","","7","","24.1","","100.12","","","","-41","","Ice Crystals"
"-94.97","74.72","RESOLUTE CARS","2403500","2012-02-22 08:00","2012","02","22","08:00","-32.9","","-37.2","","65","","","","33","","9","","24.1","","100.11","","","","-42","","Ice Crystals"
"-94.97","74.72","RESOLUTE CARS","2403500","2012-02-22 09:00","2012","02","22","09:00","-33.5","","-38.0","","64","","","","33","","11","","24.1","","100.10","","","","-44","","Snow Grains"
"-94.97","74.72","RESOLUTE CARS","2403500","2012-02-22 10:00","2012","02","22","10:00","-34.7","","-39.1","","64","","","","2","","9","","24.1","","100.11","","","","-44","","Snow Grains"
"-94.97","74.72","RESOLUTE CARS","2403500","2012-02-22 11:00","2012","02","22","11:00","-34.8","","-39.2","","64","","","","28","","6","","24.1","","100.10","","","","-42","","Snow Grains"
"-94.97","74.72","RESOLUTE CARS","2403500","2012-02-22 12:00","2012","02","22","12:00","-34.0","","-38.3","","65","","","","32","","7","","24.1","","100.11","","","","-42","","Snow Grains"
"-94.97","74.72","RESOLUTE CARS","2403500","2012-02-22 13:00","2012","02","22","13:00","-33.5","","-37.8","","65","","","","31","","7","","24.1","","100.10","","","","-41","","Snow Grains"
"-94.97","74.72","RESOLUTE CARS","2403500","2012-02-22 14:00","2012","02","22","14:00","-34.8","","-39.3","","64","","","","33","","9","","24.1","","100.15","","","","-44","","Mainly Clear"
"-94.97","74.72","RESOLUTE CARS","2403500","2012-02-22 15:00","2012","02","22","15:00","-34.6","","-38.9","","65","","","","34","","9","","24.1","","100.15","","","","-44","","Mostly Cloudy"
"-94.97","74.72","RESOLUTE CARS","2403500","2012-02-22 16:00","2012","02","22","16:00","-35.3","","-39.6","","65","","","","34","","13","","24.1","","100.14","","","","-47","","Mainly Clear"
"-94.97","74.72","RESOLUTE CARS","2403500","2012-02-22 17:00","2012","02","22","17:00","-34.8","","-39.4","","63","","","","32","","7","","24.1","","100.14","","","","-43","","Ice Crystals"
"-94.97","74.72","RESOLUTE CARS","2403500","2012-02-22 18:00","2012","02","22","18:00","-34.7","","-38.5","","68","","","","34","","11","","24.1","","100.12","","","","-45","","Ice Crystals"
"-94.97","74.72","RESOLUTE CARS","2403500","2012-02-22 19:00","2012","02","22","19:00","-33.9","","-38.1","","66","","","","31","","7","","24.1","","100.12","","","","-42","","Snow"
"-94.97","74.72","RESOLUTE CARS","2403500","2012-02-22 20:00","2012","02","22","20:00","-33.8","","-38.2","","64","","","","31","","9","","24.1","","100.12","","","","-43","","Snow"
"-94.97","74.72","RESOLUTE CARS","2403500","2012-02-22 21:00","2012","02","22","21:00","-33.7","","-38.2","","64","","","","31","","11","","19.3","","100.09","","","","-44","","Snow"
"-94.97","74.72","RESOLUTE CARS","2403500","2012-02-22 22:00","2012","02","22","22:00","-33.6","","-37.7","","66","","","","31","","11","","19.3","","100.10","","","","-44","","Snow"
"-94.97","74.72","RESOLUTE CARS","2403500","2012-02-22 23:00","2012","02","22","23:00","-33.9","","-38.3","","64","","","","32","","13","","24.1","","100.06","","","","-45","","Snow"
"-94.97","74.72","RESOLUTE CARS","2403500","2012-02-23 00:00","2012","02","23","00:00","-33.6","","-37.9","","65","","","","32","","9","","24.1","","100.04","","","","-43","","Snow"
"-94.97","74.72","RESOLUTE CARS","2403500","2012-02-23 01:00","2012","02","23","01:00","-33.3","","-37.6","","65","","","","31","","9","","19.3","","100.04","","","","-43","","Snow"
"-94.97","74.72","RESOLUTE CARS","2403500","2012-02-23 02:00","2012","02","23","02:00","-32.6","","-36.9","","65","","","","32","","6","","16.1","","100.02","","","","-40","","Snow"
"-94.97","74.72","RESOLUTE CARS","2403500","2012-02-23 03:00","2012","02","23","03:00","-32.5","","-36.7","","66","","","","30","","9","","19.3","","100.02","","","","-42","","Snow"
"-94.97","74.72","RESOLUTE CARS","2403500","2012-02-23 04:00","2012","02","23","04:00","-32.8","","-37.2","","65","","","","32","","9","","19.3","","100.02","","","","-42","","Snow"
"-94.97","74.72","RESOLUTE CARS","2403500","2012-02-23 05:00","2012","02","23","05:00","-33.9","","-38.2","","65","","","","32","","7","","24.1","","100.02","","","","-42","","Ice Crystals"
"-94.97","74.72","RESOLUTE CARS","2403500","2012-02-23 06:00","2012","02","23","06:00","-34.2","","-38.5","","65","","","","4","","22","","24.1","","100.02","","","","-49","","Ice Crystals"
"-94.97","74.72","RESOLUTE CARS","2403500","2012-02-23 07:00","2012","02","23","07:00","-32.6","","-36.6","","67","","","","3","","19","","24.1","","100.00","","","","-46","","Ice Crystals"
"-94.97","74.72","RESOLUTE CARS","2403500","2012-02-23 08:00","2012","02","23","08:00","-35.2","","-39.7","","63","","","","30","","6","","24.1","","100.02","","","","-42","","Mainly Clear"
"-94.97","74.72","RESOLUTE CARS","2403500","2012-02-23 09:00","2012","02","23","09:00","-34.6","","-38.8","","66","","","","","","0","","12.9","","100.07","","","","","","Snow Grains"
"-94.97","74.72","RESOLUTE CARS","2403500","2012-02-23 10:00","2012","02","23","10:00","-33.9","","-37.8","","68","","","","","","0","","16.1","","100.08","","","","","","Mainly Clear"
"-94.97","74.72","RESOLUTE CARS","2403500","2012-02-23 11:00","2012","02","23","11:00","-35.3","","-39.8","","63","","","","10","","9","","24.1","","100.07","","","","-45","","Clear"
"-94.97","74.72","RESOLUTE CARS","2403500","2012-02-23 12:00","2012","02","23","12:00","-34.7","","-39.3","","63","","","","30","","9","","24.1","","100.12","","","","-44","","Clear"
"-94.97","74.72","RESOLUTE CARS","2403500","2012-02-23 13:00","2012","02","23","13:00","-33.9","","-37.8","","68","","","","2","","4","","24.1","","100.12","","","","-39","","Clear"
"-94.97","74.72","RESOLUTE CARS","2403500","2012-02-23 14:00","2012","02","23","14:00","-35.0","","-39.2","","65","","","","21","","4","","24.1","","100.21","","","","-40","","Clear"
"-94.97","74.72","RESOLUTE CARS","2403500","2012-02-23 15:00","2012","02","23","15:00","-35.5","","-39.6","","66","","","","12","","6","","24.1","","100.26","","","","-43","","Clear"
"-94.97","74.72","RESOLUTE CARS","2403500","2012-02-23 16:00","2012","02","23","16:00","-34.7","","-39.0","","65","","","","10","","13","","24.1","","100.32","","","","-46","","Clear"
"-94.97","74.72","RESOLUTE CARS","2403500","2012-02-23 17:00","2012","02","23","17:00","-33.2","","-37.6","","65","","","","18","","6","","24.1","","100.38","","","","-40","","Clear"
"-94.97","74.72","RESOLUTE CARS","2403500","2012-02-23 18:00","2012","02","23","18:00","-35.7","","-40.0","","65","","","","33","","6","","24.1","","100.45","","","","-43","","Ice Crystals"
"-94.97","74.72","RESOLUTE CARS","2403500","2012-02-23 19:00","2012","02","23","19:00","-35.0","","-39.7","","62","","","","","","0","","24.1","","100.47","","","","","","Ice Crystals"
"-94.97","74.72","RESOLUTE CARS","2403500","2012-02-23 20:00","2012","02","23","20:00","-33.9","","-38.2","","65","","","","","","0","","24.1","","100.49","","","","","","Ice Crystals"
"-94.97","74.72","RESOLUTE CARS","2403500","2012-02-23 21:00","2012","02","23","21:00","-33.6","","-38.1","","64","","","","","","0","","24.1","","100.51","","","","","","Ice Crystals"
"-94.97","74.72","RESOLUTE CARS","2403500","2012-02-23 22:00","2012","02","23","22:00","-37.0","","-40.8","","68","","","","29","","4","","24.1","","100.54","","","","-42","","Ice Crystals"
"-94.97","74.72","RESOLUTE CARS","2403500","2012-02-23 23:00","2012","02","23","23:00","-35.9","","-40.0","","66","","","","32","","9","","24.1","","100.57","","","","-46","","Ice Crystals"
"-94.97","74.72","RESOLUTE CARS","2403500","2012-02-24 00:00","2012","02","24","00:00","-33.7","","-37.7","","67","","","","34","","4","","24.1","","100.60","","","","-39","","Ice Crystals"
"-94.97","74.72","RESOLUTE CARS","2403500","2012-02-24 01:00","2012","02","24","01:00","-37.1","","-41.5","","64","","","","30","","7","","24.1","","100.62","","","","-46","","Ice Crystals"
"-94.97","74.72","RESOLUTE CARS","2403500","2012-02-24 02:00","2012","02","24","02:00","-35.2","","-39.4","","65","","","","33","","6","","24.1","","100.65","","","","-42","","Ice Crystals"
"-94.97","74.72","RESOLUTE CARS","2403500","2012-02-24 03:00","2012","02","24","03:00","-36.3","","-41.0","","62","","","","","","0","","24.1","","100.69","","","","","","Ice Crystals"
"-94.97","74.72","RESOLUTE CARS","2403500","2012-02-24 04:00","2012","02","24","04:00","-36.7","","-40.4","","68","","","","","","0","","24.1","","100.72","","","","","","Ice Crystals"
"-94.97","74.72","RESOLUTE CARS","2403500","2012-02-24 05:00","2012","02","24","05:00","-36.6","","-40.9","","64","","","","28","","6","","24.1","","100.76","","","","-44","","Ice Crystals"
"-94.97","74.72","RESOLUTE CARS","2403500","2012-02-24 06:00","2012","02","24","06:00","-34.4","","-38.7","","65","","","","33","","6","","24.1","","100.80","","","","-42","","Ice Crystals"
"-94.97","74.72","RESOLUTE CARS","2403500","2012-02-24 07:00","2012","02","24","07:00","-35.1","","-40.5","","58","","","","14","","6","","24.1","","100.86","","","","-42","","Ice Crystals"
"-94.97","74.72","RESOLUTE CARS","2403500","2012-02-24 08:00","2012","02","24","08:00","-34.5","","-38.9","","64","","","","16","","6","","24.1","","100.91","","","","-42","","Ice Crystals"
"-94.97","74.72","RESOLUTE CARS","2403500","2012-02-24 09:00","2012","02","24","09:00","-35.3","","-39.7","","64","","","","","","0","","24.1","","100.94","","","","","","Ice Crystals"
"-94.97","74.72","RESOLUTE CARS","2403500","2012-02-24 10:00","2012","02","24","10:00","-35.0","","-39.3","","65","","","","","","0","","24.1","","101.00","","","","","","Ice Crystals"
"-94.97","74.72","RESOLUTE CARS","2403500","2012-02-24 11:00","2012","02","24","11:00","-35.6","","-39.7","","66","","","","33","","4","","24.1","","101.02","","","","-41","","Ice Crystals"
"-94.97","74.72","RESOLUTE CARS","2403500","2012-02-24 12:00","2012","02","24","12:00","-34.6","","-38.7","","66","","","","33","","6","","24.1","","101.08","","","","-42","","Ice Crystals"
"-94.97","74.72","RESOLUTE CARS","2403500","2012-02-24 13:00","2012","02","24","13:00","-33.9","","-38.1","","66","","","","33","","6","","24.1","","101.10","","","","-41","","Ice Crystals"
"-94.97","74.72","RESOLUTE CARS","2403500","2012-02-24 14:00","2012","02","24","14:00","-37.0","","-41.2","","65","","","","31","","9","","24.1","","101.15","","","","-47","","Ice Crystals"
"-94.97","74.72","RESOLUTE CARS","2403500","2012-02-24 15:00","2012","02","24","15:00","-37.5","","-41.5","","66","","","","","","0","","24.1","","101.20","","","","","","Ice Crystals"
"-94.97","74.72","RESOLUTE CARS","2403500","2012-02-24 16:00","2012","02","24","16:00","-37.1","","-41.1","","66","","","","29","","11","","24.1","","101.26","","","","-48","","Ice Crystals"
"-94.97","74.72","RESOLUTE CARS","2403500","2012-02-24 17:00","2012","02","24","17:00","-37.0","","-40.7","","68","","","","33","","9","","24.1","","101.27","","","","-47","","Ice Crystals"
"-94.97","74.72","RESOLUTE CARS","2403500","2012-02-24 18:00","2012","02","24","18:00","-37.5","","-41.1","","69","","","","33","","15","","24.1","","101.31","","","","-51","","Ice Crystals"
"-94.97","74.72","RESOLUTE CARS","2403500","2012-02-24 19:00","2012","02","24","19:00","-38.3","","-42.2","","67","","","","32","","19","","24.1","","101.32","","","","-53","","Ice Crystals"
"-94.97","74.72","RESOLUTE CARS","2403500","2012-02-24 20:00","2012","02","24","20:00","-38.2","","-42.8","","62","","","","34","","13","","9.7","","101.35","","","","-51","","Ice Crystals"
"-94.97","74.72","RESOLUTE CARS","2403500","2012-02-24 21:00","2012","02","24","21:00","-38.0","","-42.3","","64","","","","2","","7","","19.3","","101.35","","","","-47","","Ice Crystals"
"-94.97","74.72","RESOLUTE CARS","2403500","2012-02-24 22:00","2012","02","24","22:00","-39.1","","-43.1","","66","","","","","","0","","24.1","","101.39","","","","","","Ice Crystals"
"-94.97","74.72","RESOLUTE CARS","2403500","2012-02-24 23:00","2012","02","24","23:00","-38.3","","-42.3","","66","","","","","","0","","24.1","","101.42","","","","","","Ice Crystals"
"-94.97","74.72","RESOLUTE CARS","2403500","2012-02-25 00:00","2012","02","25","00:00","-36.8","","-40.9","","66","","","","","","0","","24.1","","101.47","","","","","","Ice Crystals"
"-94.97","74.72","RESOLUTE CARS","2403500","2012-02-25 01:00","2012","02","25","01:00","-36.0","","-40.1","","66","","","","31","","4","","24.1","","101.51","","","","-41","","Ice Crystals"
"-94.97","74.72","RESOLUTE CARS","2403500","2012-02-25 02:00","2012","02","25","02:00","-35.1","","-39.3","","65","","","","32","","6","","24.1","","101.56","","","","-42","","Ice Crystals"
"-94.97","74.72","RESOLUTE CARS","2403500","2012-02-25 03:00","2012","02","25","03:00","-35.4","","-38.8","","71","","","","32","","4","","24.1","","101.57","","","","-40","","Ice Crystals"
"-94.97","74.72","RESOLUTE CARS","2403500","2012-02-25 04:00","2012","02","25","04:00","-35.6","","-39.4","","68","","","","32","","4","","24.1","","101.60","","","","-41","","Ice Crystals"
"-94.97","74.72","RESOLUTE CARS","2403500","2012-02-25 05:00","2012","02","25","05:00","-38.1","","-42.4","","64","","","","32","","11","","24.1","","101.61","","","","-49","","Ice Crystals"
"-94.97","74.72","RESOLUTE CARS","2403500","2012-02-25 06:00","2012","02","25","06:00","-37.8","","-41.9","","65","","","","33","","11","","24.1","","101.62","","","","-49","","Ice Crystals"
"-94.97","74.72","RESOLUTE CARS","2403500","2012-02-25 07:00","2012","02","25","07:00","-37.2","","-40.9","","68","","","","33","","9","","24.1","","101.62","","","","-47","","Ice Crystals"
"-94.97","74.72","RESOLUTE CARS","2403500","2012-02-25 08:00","2012","02","25","08:00","-36.5","","-41.0","","63","","","","32","","13","","16.1","","101.62","","","","-49","","Snow"
"-94.97","74.72","RESOLUTE CARS","2403500","2012-02-25 09:00","2012","02","25","09:00","-34.3","","-38.4","","66","","","","32","","15","","9.7","","101.62","","","","-47","","Ice Crystals"
"-94.97","74.72","RESOLUTE CARS","2403500","2012-02-25 10:00","2012","02","25","10:00","-35.0","","-39.0","","67","","","","33","","19","","19.3","","101.65","","","","-49","","Ice Crystals"
"-94.97","74.72","RESOLUTE CARS","2403500","2012-02-25 11:00","2012","02","25","11:00","-34.2","","-38.9","","62","","","","32","","7","","16.1","","101.67","","","","-42","","Ice Crystals"
"-94.97","74.72","RESOLUTE CARS","2403500","2012-02-25 12:00","2012","02","25","12:00","-33.9","","-38.4","","64","","","","33","","9","","19.3","","101.67","","","","-43","","Ice Crystals"
"-94.97","74.72","RESOLUTE CARS","2403500","2012-02-25 13:00","2012","02","25","13:00","-33.5","","-37.8","","65","","","","33","","11","","24.1","","101.67","","","","-44","","Ice Crystals"
"-94.97","74.72","RESOLUTE CARS","2403500","2012-02-25 14:00","2012","02","25","14:00","-33.7","","-38.1","","64","","","","32","","22","","19.3","","101.69","","","","-48","","Ice Crystals"
"-94.97","74.72","RESOLUTE CARS","2403500","2012-02-25 15:00","2012","02","25","15:00","-33.8","","-38.1","","65","","","","33","","24","","19.3","","101.71","","","","-49","","Ice Crystals"
"-94.97","74.72","RESOLUTE CARS","2403500","2012-02-25 16:00","2012","02","25","16:00","-34.3","","-38.4","","66","","","","33","","11","","8.0","","101.74","","","","-45","","Ice Crystals"
"-94.97","74.72","RESOLUTE CARS","2403500","2012-02-25 17:00","2012","02","25","17:00","-34.1","","-38.3","","66","","","","33","","13","","24.1","","101.72","","","","-46","","Ice Crystals"
"-94.97","74.72","RESOLUTE CARS","2403500","2012-02-25 18:00","2012","02","25","18:00","-33.7","","-37.9","","66","","","","34","","15","","24.1","","101.74","","","","-46","","Ice Crystals"
"-94.97","74.72","RESOLUTE CARS","2403500","2012-02-25 19:00","2012","02","25","19:00","-34.2","","-38.9","","62","","","","34","","20","","24.1","","101.71","","","","-48","","Ice Crystals"
"-94.97","74.72","RESOLUTE CARS","2403500","2012-02-25 20:00","2012","02","25","20:00","-33.5","","-37.7","","66","","","","34","","17","","24.1","","101.68","","","","-46","","Ice Crystals"
"-94.97","74.72","RESOLUTE CARS","2403500","2012-02-25 21:00","2012","02","25","21:00","-34.2","","-38.4","","66","","","","33","","15","","24.1","","101.69","","","","-47","","Ice Crystals"
"-94.97","74.72","RESOLUTE CARS","2403500","2012-02-25 22:00","2012","02","25","22:00","-33.2","","-37.4","","66","","","","33","","15","","24.1","","101.65","","","","-45","","Ice Crystals"
"-94.97","74.72","RESOLUTE CARS","2403500","2012-02-25 23:00","2012","02","25","23:00","-33.4","","-37.7","","65","","","","33","","15","","24.1","","101.62","","","","-46","","Ice Crystals"
"-94.97","74.72","RESOLUTE CARS","2403500","2012-02-26 00:00","2012","02","26","00:00","-32.6","","-36.8","","66","","","","33","","13","","24.1","","101.60","","","","-44","","Ice Crystals"
"-94.97","74.72","RESOLUTE CARS","2403500","2012-02-26 01:00","2012","02","26","01:00","-33.3","","-37.8","","64","","","","32","","11","","24.1","","101.58","","","","-44","","Ice Crystals"
"-94.97","74.72","RESOLUTE CARS","2403500","2012-02-26 02:00","2012","02","26","02:00","-33.9","","-38.4","","64","","","","31","","7","","24.1","","101.56","","","","-42","","Ice Crystals"
"-94.97","74.72","RESOLUTE CARS","2403500","2012-02-26 03:00","2012","02","26","03:00","-34.1","","-38.4","","65","","","","32","","9","","24.1","","101.55","","","","-43","","Ice Crystals"
"-94.97","74.72","RESOLUTE CARS","2403500","2012-02-26 04:00","2012","02","26","04:00","-34.5","","-38.6","","66","","","","32","","9","","24.1","","101.52","","","","-44","","Ice Crystals"
"-94.97","74.72","RESOLUTE CARS","2403500","2012-02-26 05:00","2012","02","26","05:00","-34.4","","-38.6","","66","","","","33","","7","","24.1","","101.48","","","","-42","","Ice Crystals"
"-94.97","74.72","RESOLUTE CARS","2403500","2012-02-26 06:00","2012","02","26","06:00","-34.7","","-39.0","","65","","","","33","","7","","24.1","","101.42","","","","-43","","Ice Crystals"
"-94.97","74.72","RESOLUTE CARS","2403500","2012-02-26 07:00","2012","02","26","07:00","-34.6","","-39.0","","64","","","","33","","9","","16.1","","101.38","","","","-44","","Ice Crystals"
"-94.97","74.72","RESOLUTE CARS","2403500","2012-02-26 08:00","2012","02","26","08:00","-34.7","","-39.2","","64","","","","32","","9","","19.3","","101.32","","","","-44","","Ice Crystals"
"-94.97","74.72","RESOLUTE CARS","2403500","2012-02-26 09:00","2012","02","26","09:00","-34.9","","-39.0","","66","","","","33","","9","","24.1","","101.28","","","","-44","","Ice Crystals"
"-94.97","74.72","RESOLUTE CARS","2403500","2012-02-26 10:00","2012","02","26","10:00","-35.6","","-39.5","","67","","","","32","","9","","9.7","","101.22","","","","-45","","Ice Crystals"
"-94.97","74.72","RESOLUTE CARS","2403500","2012-02-26 11:00","2012","02","26","11:00","-35.0","","-39.4","","64","","","","33","","9","","16.1","","101.19","","","","-45","","Ice Crystals"
"-94.97","74.72","RESOLUTE CARS","2403500","2012-02-26 12:00","2012","02","26","12:00","-34.9","","-39.2","","65","","","","31","","7","","24.1","","101.15","","","","-43","","Ice Crystals"
"-94.97","74.72","RESOLUTE CARS","2403500","2012-02-26 13:00","2012","02","26","13:00","-34.6","","-38.9","","65","","","","32","","9","","16.1","","101.11","","","","-44","","Ice Crystals"
"-94.97","74.72","RESOLUTE CARS","2403500","2012-02-26 14:00","2012","02","26","14:00","-34.5","","-38.7","","66","","","","30","","11","","19.3","","101.08","","","","-45","","Ice Crystals"
"-94.97","74.72","RESOLUTE CARS","2403500","2012-02-26 15:00","2012","02","26","15:00","-34.3","","-38.5","","66","","","","30","","13","","16.1","","101.05","","","","-46","","Ice Crystals"
"-94.97","74.72","RESOLUTE CARS","2403500","2012-02-26 16:00","2012","02","26","16:00","-33.9","","-38.3","","64","","","","30","","9","","16.1","","101.02","","","","-43","","Ice Crystals"
"-94.97","74.72","RESOLUTE CARS","2403500","2012-02-26 17:00","2012","02","26","17:00","-34.3","","-38.8","","64","","","","30","","13","","16.1","","100.98","","","","-46","","Ice Crystals"
"-94.97","74.72","RESOLUTE CARS","2403500","2012-02-26 18:00","2012","02","26","18:00","-34.3","","-38.6","","65","","","","29","","9","","16.1","","100.92","","","","-44","","Ice Crystals"
"-94.97","74.72","RESOLUTE CARS","2403500","2012-02-26 19:00","2012","02","26","19:00","-33.9","","-38.0","","66","","","","30","","11","","11.3","","100.87","","","","-44","","Ice Crystals"
"-94.97","74.72","RESOLUTE CARS","2403500","2012-02-26 20:00","2012","02","26","20:00","-34.2","","-38.5","","65","","","","29","","9","","16.1","","100.79","","","","-44","","Ice Crystals"
"-94.97","74.72","RESOLUTE CARS","2403500","2012-02-26 21:00","2012","02","26","21:00","-33.5","","-37.7","","66","","","","31","","19","","12.9","","100.71","","","","-47","","Ice Crystals"
"-94.97","74.72","RESOLUTE CARS","2403500","2012-02-26 22:00","2012","02","26","22:00","-34.6","","-38.3","","69","","","","28","","11","","19.3","","100.69","","","","-45","","Ice Crystals"
"-94.97","74.72","RESOLUTE CARS","2403500","2012-02-26 23:00","2012","02","26","23:00","-34.4","","-38.3","","68","","","","29","","7","","16.1","","100.62","","","","-42","","Ice Crystals"
"-94.97","74.72","RESOLUTE CARS","2403500","2012-02-27 00:00","2012","02","27","00:00","-34.2","","-38.3","","66","","","","28","","19","","16.1","","100.58","","","","-48","","Ice Crystals"
"-94.97","74.72","RESOLUTE CARS","2403500","2012-02-27 01:00","2012","02","27","01:00","-34.6","","-38.8","","66","","","","29","","11","","16.1","","100.51","","","","-45","","Ice Crystals"
"-94.97","74.72","RESOLUTE CARS","2403500","2012-02-27 02:00","2012","02","27","02:00","-35.2","","-39.5","","65","","","","29","","7","","16.1","","100.47","","","","-43","","Ice Crystals"
"-94.97","74.72","RESOLUTE CARS","2403500","2012-02-27 03:00","2012","02","27","03:00","-35.0","","-39.9","","61","","","","30","","9","","16.1","","100.47","","","","-45","","Ice Crystals"
"-94.97","74.72","RESOLUTE CARS","2403500","2012-02-27 04:00","2012","02","27","04:00","-35.0","","-39.4","","64","","","","30","","11","","16.1","","100.42","","","","-46","","Ice Crystals"
"-94.97","74.72","RESOLUTE CARS","2403500","2012-02-27 05:00","2012","02","27","05:00","-34.1","","-38.6","","64","","","","30","","11","","16.1","","100.41","","","","-45","","Ice Crystals"
"-94.97","74.72","RESOLUTE CARS","2403500","2012-02-27 06:00","2012","02","27","06:00","-34.5","","-39.0","","64","","","","27","","19","","19.3","","100.36","","","","-48","","Ice Crystals"
"-94.97","74.72","RESOLUTE CARS","2403500","2012-02-27 07:00","2012","02","27","07:00","-34.9","","-39.2","","65","","","","29","","9","","19.3","","100.29","","","","-44","","Ice Crystals"
"-94.97","74.72","RESOLUTE CARS","2403500","2012-02-27 08:00","2012","02","27","08:00","-34.3","","-38.6","","65","","","","26","","9","","19.3","","100.26","","","","-44","","Ice Crystals"
"-94.97","74.72","RESOLUTE CARS","2403500","2012-02-27 09:00","2012","02","27","09:00","-34.3","","-38.3","","67","","","","24","","6","","19.3","","100.22","","","","-41","","Ice Crystals"
"-94.97","74.72","RESOLUTE CARS","2403500","2012-02-27 10:00","2012","02","27","10:00","-33.7","","-38.0","","65","","","","26","","11","","16.1","","100.18","","","","-44","","Snow"
"-94.97","74.72","RESOLUTE CARS","2403500","2012-02-27 11:00","2012","02","27","11:00","-33.9","","-38.1","","66","","","","25","","11","","19.3","","100.16","","","","-44","","Snow"
"-94.97","74.72","RESOLUTE CARS","2403500","2012-02-27 12:00","2012","02","27","12:00","-33.9","","-38.2","","65","","","","27","","11","","19.3","","100.12","","","","-44","","Snow"
"-94.97","74.72","RESOLUTE CARS","2403500","2012-02-27 13:00","2012","02","27","13:00","-33.9","","-38.3","","64","","","","26","","7","","24.1","","100.12","","","","-42","","Snow"
"-94.97","74.72","RESOLUTE CARS","2403500","2012-02-27 14:00","2012","02","27","14:00","-34.2","","-38.6","","64","","","","25","","7","","19.3","","100.10","","","","-42","","Snow"
"-94.97","74.72","RESOLUTE CARS","2403500","2012-02-27 15:00","2012","02","27","15:00","-34.5","","-38.9","","64","","","","23","","9","","16.1","","100.08","","","","-44","","Ice Crystals"
"-94.97","74.72","RESOLUTE CARS","2403500","2012-02-27 16:00","2012","02","27","16:00","-33.6","","-37.9","","65","","","","25","","19","","16.1","","100.06","","","","-47","","Ice Crystals"
"-94.97","74.72","RESOLUTE CARS","2403500","2012-02-27 17:00","2012","02","27","17:00","-34.1","","-38.7","","63","","","","","","0","","16.1","","100.04","","","","","","Ice Crystals"
"-94.97","74.72","RESOLUTE CARS","2403500","2012-02-27 18:00","2012","02","27","18:00","-34.6","","-39.1","","64","","","","24","","13","","16.1","","100.01","","","","-46","","Ice Crystals"
"-94.97","74.72","RESOLUTE CARS","2403500","2012-02-27 19:00","2012","02","27","19:00","-35.2","","-39.1","","67","","","","19","","6","","12.9","","100.02","","","","-42","","Ice Crystals"
"-94.97","74.72","RESOLUTE CARS","2403500","2012-02-27 20:00","2012","02","27","20:00","-34.0","","-38.1","","66","","","","22","","9","","9.7","","99.99","","","","-43","","Snow"
"-94.97","74.72","RESOLUTE CARS","2403500","2012-02-27 21:00","2012","02","27","21:00","-33.8","","-38.0","","66","","","","23","","11","","8.0","","99.96","","","","-44","","Snow"
"-94.97","74.72","RESOLUTE CARS","2403500","2012-02-27 22:00","2012","02","27","22:00","-33.6","","-37.9","","65","","","","24","","9","","4.8","","99.96","","","","-43","","Snow"
"-94.97","74.72","RESOLUTE CARS","2403500","2012-02-27 23:00","2012","02","27","23:00","-35.0","","-39.2","","65","","","","23","","9","","19.3","","99.95","","","","-45","","Ice Crystals"
"-94.97","74.72","RESOLUTE CARS","2403500","2012-02-28 00:00","2012","02","28","00:00","-35.1","","-39.4","","65","","","","","","0","","9.7","","99.94","","","","","","Snow"
"-94.97","74.72","RESOLUTE CARS","2403500","2012-02-28 01:00","2012","02","28","01:00","-35.1","","-39.4","","65","","","","","","0","","16.1","","99.96","","","","","","Snow"
"-94.97","74.72","RESOLUTE CARS","2403500","2012-02-28 02:00","2012","02","28","02:00","-35.3","","-39.4","","66","","","","17","","6","","24.1","","99.95","","","","-43","","Mainly Clear"
"-94.97","74.72","RESOLUTE CARS","2403500","2012-02-28 03:00","2012","02","28","03:00","-36.1","","-40.5","","64","","","","12","","9","","24.1","","99.96","","","","-46","","Mainly Clear"
"-94.97","74.72","RESOLUTE CARS","2403500","2012-02-28 04:00","2012","02","28","04:00","-35.8","","-40.4","","63","","","","13","","9","","24.1","","99.96","","","","-45","","Mostly Cloudy"
"-94.97","74.72","RESOLUTE CARS","2403500","2012-02-28 05:00","2012","02","28","05:00","-36.0","","-40.3","","65","","","","14","","7","","24.1","","99.96","","","","-44","","Snow"
"-94.97","74.72","RESOLUTE CARS","2403500","2012-02-28 06:00","2012","02","28","06:00","-36.2","","-40.5","","64","","","","13","","9","","9.7","","99.96","","","","-46","","Snow"
"-94.97","74.72","RESOLUTE CARS","2403500","2012-02-28 07:00","2012","02","28","07:00","-37.0","","-40.8","","68","","","","14","","6","","20.9","","99.96","","","","-45","","Mainly Clear"
"-94.97","74.72","RESOLUTE CARS","2403500","2012-02-28 08:00","2012","02","28","08:00","-37.7","","-42.0","","64","","","","12","","6","","24.1","","99.97","","","","-45","","Mainly Clear"
"-94.97","74.72","RESOLUTE CARS","2403500","2012-02-28 09:00","2012","02","28","09:00","-38.1","","-43.5","","57","","","","12","","6","","24.1","","99.99","","","","-46","","Mostly Cloudy"
"-94.97","74.72","RESOLUTE CARS","2403500","2012-02-28 10:00","2012","02","28","10:00","-37.0","","-41.3","","64","","","","15","","6","","24.1","","99.99","","","","-45","","Mostly Cloudy"
"-94.97","74.72","RESOLUTE CARS","2403500","2012-02-28 11:00","2012","02","28","11:00","-37.3","","-41.1","","68","","","","12","","9","","19.3","","100.02","","","","-47","","Snow"
"-94.97","74.72","RESOLUTE CARS","2403500","2012-02-28 12:00","2012","02","28","12:00","-37.1","","-41.1","","66","","","","10","","7","","19.3","","100.04","","","","-46","","Snow"
"-94.97","74.72","RESOLUTE CARS","2403500","2012-02-28 13:00","2012","02","28","13:00","-37.7","","-41.6","","67","","","","","","0","","24.1","","100.07","","","","","","Snow"
"-94.97","74.72","RESOLUTE CARS","2403500","2012-02-28 14:00","2012","02","28","14:00","-37.8","","-41.4","","69","","","","8","","4","","24.1","","100.11","","","","-43","","Ice Crystals"
"-94.97","74.72","RESOLUTE CARS","2403500","2012-02-28 15:00","2012","02","28","15:00","-39.0","","-42.5","","69","","","","9","","7","","24.1","","100.16","","","","-48","","Ice Crystals"
"-94.97","74.72","RESOLUTE CARS","2403500","2012-02-28 16:00","2012","02","28","16:00","-38.4","","-42.4","","66","","","","10","","4","","24.1","","100.21","","","","-44","","Ice Crystals"
"-94.97","74.72","RESOLUTE CARS","2403500","2012-02-28 17:00","2012","02","28","17:00","-38.0","","-41.3","","71","","","","5","","7","","24.1","","100.22","","","","-47","","Ice Crystals"
"-94.97","74.72","RESOLUTE CARS","2403500","2012-02-28 18:00","2012","02","28","18:00","-36.1","","-40.4","","64","","","","6","","13","","24.1","","100.26","","","","-48","","Ice Crystals"
"-94.97","74.72","RESOLUTE CARS","2403500","2012-02-28 19:00","2012","02","28","19:00","-36.0","","-40.5","","63","","","","","","0","","24.1","","100.26","","","","","","Ice Crystals"
"-94.97","74.72","RESOLUTE CARS","2403500","2012-02-28 20:00","2012","02","28","20:00","-35.1","","-38.7","","70","","","","4","","15","","24.1","","100.27","","","","-48","","Ice Crystals"
"-94.97","74.72","RESOLUTE CARS","2403500","2012-02-28 21:00","2012","02","28","21:00","-34.7","","-39.1","","64","","","","3","","19","","24.1","","100.30","","","","-49","","Ice Crystals"
"-94.97","74.72","RESOLUTE CARS","2403500","2012-02-28 22:00","2012","02","28","22:00","-35.6","","-40.3","","62","","","","34","","9","","24.1","","100.30","","","","-45","","Ice Crystals"
"-94.97","74.72","RESOLUTE CARS","2403500","2012-02-28 23:00","2012","02","28","23:00","-36.9","","-41.3","","64","","","","4","","26","","24.1","","100.31","","","","-54","","Ice Crystals"
"-94.97","74.72","RESOLUTE CARS","2403500","2012-02-29 00:00","2012","02","29","00:00","-37.0","","-41.0","","66","","","","4","","28","","24.1","","100.32","","","","-54","","Ice Crystals"
"-94.97","74.72","RESOLUTE CARS","2403500","2012-02-29 01:00","2012","02","29","01:00","-36.3","","-40.9","","62","","","","","","0","","24.1","","100.36","","","","","","Ice Crystals"
"-94.97","74.72","RESOLUTE CARS","2403500","2012-02-29 02:00","2012","02","29","02:00","-39.3","","-43.5","","64","","","","35","","6","","24.1","","100.38","","","","-47","","Ice Crystals"
"-94.97","74.72","RESOLUTE CARS","2403500","2012-02-29 03:00","2012","02","29","03:00","-37.3","","-42.6","","58","","","","36","","15","","24.1","","100.42","","","","-50","","Clear"
"-94.97","74.72","RESOLUTE CARS","2403500","2012-02-29 04:00","2012","02","29","04:00","-40.7","","-44.0","","70","","","","30","","7","","24.1","","100.39","","","","-50","","Clear"
"-94.97","74.72","RESOLUTE CARS","2403500","2012-02-29 05:00","2012","02","29","05:00","-37.6","","-42.1","","63","","","","34","","13","","24.1","","100.41","","","","-50","","Ice Crystals"
"-94.97","74.72","RESOLUTE CARS","2403500","2012-02-29 06:00","2012","02","29","06:00","-40.8","","-44.1","","70","","","","30","","7","","24.1","","100.42","","","","-50","","Ice Crystals"
"-94.97","74.72","RESOLUTE CARS","2403500","2012-02-29 07:00","2012","02","29","07:00","-40.7","","-44.3","","68","","","","32","","11","","12.9","","100.41","","","","-53","","Ice Crystals"
"-94.97","74.72","RESOLUTE CARS","2403500","2012-02-29 08:00","2012","02","29","08:00","-40.0","","-43.5","","69","","","","30","","7","","16.1","","100.38","","","","-49","","Ice Crystals"
"-94.97","74.72","RESOLUTE CARS","2403500","2012-02-29 09:00","2012","02","29","09:00","-39.4","","-43.0","","69","","","","32","","7","","16.1","","100.36","","","","-48","","Ice Crystals"
"-94.97","74.72","RESOLUTE CARS","2403500","2012-02-29 10:00","2012","02","29","10:00","-38.9","","-42.7","","67","","","","31","","7","","12.9","","100.37","","","","-48","","Ice Crystals"
"-94.97","74.72","RESOLUTE CARS","2403500","2012-02-29 11:00","2012","02","29","11:00","-38.8","","-42.8","","66","","","","32","","13","","12.9","","100.32","","","","-51","","Snow"
"-94.97","74.72","RESOLUTE CARS","2403500","2012-02-29 12:00","2012","02","29","12:00","-38.0","","-41.8","","67","","","","31","","17","","19.3","","100.32","","","","-52","","Snow"
"-94.97","74.72","RESOLUTE CARS","2403500","2012-02-29 13:00","2012","02","29","13:00","-36.6","","-40.8","","65","","","","31","","20","","19.3","","100.30","","","","-51","","Snow"
"-94.97","74.72","RESOLUTE CARS","2403500","2012-02-29 14:00","2012","02","29","14:00","-37.4","","-41.5","","65","","","","31","","17","","16.1","","100.34","","","","-51","","Ice Crystals"
"-94.97","74.72","RESOLUTE CARS","2403500","2012-02-29 15:00","2012","02","29","15:00","-36.8","","-40.7","","67","","","","35","","20","","16.1","","100.35","","","","-52","","Ice Crystals"
"-94.97","74.72","RESOLUTE CARS","2403500","2012-02-29 16:00","2012","02","29","16:00","-36.8","","-40.9","","66","","","","35","","22","","12.9","","100.38","","","","-52","","Ice Crystals"
"-94.97","74.72","RESOLUTE CARS","2403500","2012-02-29 17:00","2012","02","29","17:00","-37.3","","-41.5","","65","","","","33","","15","","12.9","","100.35","","","","-50","","Ice Crystals"
"-94.97","74.72","RESOLUTE CARS","2403500","2012-02-29 18:00","2012","02","29","18:00","-37.3","","-41.4","","66","","","","2","","26","","12.9","","100.29","","","","-54","","Ice Crystals"
"-94.97","74.72","RESOLUTE CARS","2403500","2012-02-29 19:00","2012","02","29","19:00","-34.8","","-38.5","","69","","","","15","","6","","16.1","","100.30","","","","-42","","Ice Crystals"
"-94.97","74.72","RESOLUTE CARS","2403500","2012-02-29 20:00","2012","02","29","20:00","-36.0","","-40.1","","66","","","","5","","22","","19.3","","100.30","","","","-51","","Ice Crystals"
"-94.97","74.72","RESOLUTE CARS","2403500","2012-02-29 21:00","2012","02","29","21:00","-35.7","","-40.3","","63","","","","3","","28","","12.9","","100.26","","","","-53","","Ice Crystals"
"-94.97","74.72","RESOLUTE CARS","2403500","2012-02-29 22:00","2012","02","29","22:00","-33.4","","-37.6","","66","","","","5","","28","","9.7","","100.28","","","","-50","","Ice Crystals,Blowing Snow"
"-94.97","74.72","RESOLUTE CARS","2403500","2012-02-29 23:00","2012","02","29","23:00","-35.3","","-38.8","","70","","","","6","","33","","16.1","","100.32","","","","-53","","Ice Crystals"
