"Longitude (x)","Latitude (y)","Station Name","Climate ID","Date/Time (LST)","Year","Month","Day","Time (LST)","Temp (°C)","Temp Flag","Dew Point Temp (°C)","Dew Point Temp Flag","Rel Hum (%)","Rel Hum Flag","Precip. Amount (mm)","Precip. Amount Flag","Wind Dir (10s deg)","Wind Dir Flag","Wind Spd (km/h)","Wind Spd Flag","Visibility (km)","Visibility Flag","Stn Press (kPa)","Stn Press Flag","Hmdx","Hmdx Flag","Wind Chill","Wind Chill Flag","Weather"
"-130.70","54.58","GREY ISLET (AUT)","1063303","2012-02-01 00:00","2012","02","01","00:00","","M","","M","","M","","","16","","33","","","","100.75","","","","","","NA"
"-130.70","54.58","GREY ISLET (AUT)","1063303","2012-02-01 01:00","2012","02","01","01:00","","M","","M","","M","","","17","","37","","","","100.84","","","","","","NA"
"-130.70","54.58","GREY ISLET (AUT)","1063303","2012-02-01 02:00","2012","02","01","02:00","","M","","M","","M","","","16","","37","","","","100.91","","","","","","NA"
"-130.70","54.58","GREY ISLET (AUT)","1063303","2012-02-01 03:00","2012","02","01","03:00","","M","","M","","M","","","16","","33","","","","100.98","","","","","","NA"
"-130.70","54.58","GREY ISLET (AUT)","1063303","2012-02-01 04:00","2012","02","01","04:00","","M","","M","","M","","","17","","37","","","","101.05","","","","","","NA"
"-130.70","54.58","GREY ISLET (AUT)","1063303","2012-02-01 05:00","2012","02","01","05:00","","M","","M","","M","","","16","","32","","","","101.10","","","","","","NA"
"-130.70","54.58","GREY ISLET (AUT)","1063303","2012-02-01 06:00","2012","02","01","06:00","","M","","M","","M","","","16","","35","","","","101.16","","","","","","NA"
"-130.70","54.58","GREY ISLET (AUT)","1063303","2012-02-01 07:00","2012","02","01","07:00","","M","","M","","M","","","15","","35","","","","101.21","","","","","","NA"
"-130.70","54.58","GREY ISLET (AUT)","1063303","2012-02-01 08:00","2012","02","01","08:00","","M","","M","","M","","","15","","32","","","","101.24","","","","","","NA"
"-130.70","54.58","GREY ISLET (AUT)","1063303","2012-02-01 09:00","2012","02","01","09:00","","M","","M","","M","","","15","","28","","","","101.32","","","","","","NA"
"-130.70","54.58","GREY ISLET (AUT)","1063303","2012-02-01 10:00","2012","02","01","10:00","","M","","M","","M","","","16","","28","","","","101.38","","","","","","NA"
"-130.70","54.58","GREY ISLET (AUT)","1063303","2012-02-01 11:00","2012","02","01","11:00"
"-130.70","54.58","GREY ISLET (AUT)","1063303","2012-02-01 12:00","2012","02","01","12:00","","M","","M","","M","","","15","","37","","","","101.42","","","","","","NA"
"-130.70","54.58","GREY ISLET (AUT)","1063303","2012-02-01 13:00","2012","02","01","13:00","","M","","M","","M","","","16","","44","","","","101.41","","","","","","NA"
"-130.70","54.58","GREY ISLET (AUT)","1063303","2012-02-01 14:00","2012","02","01","14:00","","M","","M","","M","","","15","","30","","","","101.39","","","","","","NA"
"-130.70","54.58","GREY ISLET (AUT)","1063303","2012-02-01 15:00","2012","02","01","15:00","","M","","M","","M","","","15","","32","","","","101.32","","","","","","NA"
"-130.70","54.58","GREY ISLET (AUT)","1063303","2012-02-01 16:00","2012","02","01","16:00","","M","","M","","M","","","15","","32","","","","101.27","","","","","","NA"
"-130.70","54.58","GREY ISLET (AUT)","1063303","2012-02-01 17:00","2012","02","01","17:00","","M","","M","","M","","","15","","32","","","","101.21","","","","","","NA"
"-130.70","54.58","GREY ISLET (AUT)","1063303","2012-02-01 18:00","2012","02","01","18:00","","M","","M","","M","","","14","","46","","","","101.13","","","","","","NA"
"-130.70","54.58","GREY ISLET (AUT)","1063303","2012-02-01 19:00","2012","02","01","19:00","","M","","M","","M","","","14","","52","","","","101.10","","","","","","NA"
"-130.70","54.58","GREY ISLET (AUT)","1063303","2012-02-01 20:00","2012","02","01","20:00","","M","","M","","M","","","13","","32","","","","101.03","","","","","","NA"
"-130.70","54.58","GREY ISLET (AUT)","1063303","2012-02-01 21:00","2012","02","01","21:00","","M","","M","","M","","","16","","30","","","","100.98","","","","","","NA"
"-130.70","54.58","GREY ISLET (AUT)","1063303","2012-02-01 22:00","2012","02","01","22:00","","M","","M","","M","","","16","","56","","","","100.97","","","","","","NA"
"-130.70","54.58","GREY ISLET (AUT)","1063303","2012-02-01 23:00","2012","02","01","23:00","","M","","M","","M","","","16","","69","","","","100.96","","","","","","NA"
"-130.70","54.58","GREY ISLET (AUT)","1063303","2012-02-02 00:00","2012","02","02","00:00","","M","","M","","M","","","16","","74","","","","101.09","","","","","","NA"
"-130.70","54.58","GREY ISLET (AUT)","1063303","2012-02-02 01:00","2012","02","02","01:00","","M","","M","","M","","","16","","69","","","","101.22","","","","","","NA"
"-130.70","54.58","GREY ISLET (AUT)","1063303","2012-02-02 02:00","2012","02","02","02:00","","M","","M","","M","","","16","","67","","","","101.33","","","","","","NA"
"-130.70","54.58","GREY ISLET (AUT)","1063303","2012-02-02 03:00","2012","02","02","03:00"
"-130.70","54.58","GREY ISLET (AUT)","1063303","2012-02-02 04:00","2012","02","02","04:00","","M","","M","","M","","","16","","56","","","","101.53","","","","","","NA"
"-130.70","54.58","GREY ISLET (AUT)","1063303","2012-02-02 05:00","2012","02","02","05:00","","M","","M","","M","","","16","","54","","","","101.57","","","","","","NA"
"-130.70","54.58","GREY ISLET (AUT)","1063303","2012-02-02 06:00","2012","02","02","06:00","","M","","M","","M","","","16","","43","","","","101.63","","","","","","NA"
"-130.70","54.58","GREY ISLET (AUT)","1063303","2012-02-02 07:00","2012","02","02","07:00","","M","","M","","M","","","16","","43","","","","101.63","","","","","","NA"
"-130.70","54.58","GREY ISLET (AUT)","1063303","2012-02-02 08:00","2012","02","02","08:00","","M","","M","","M","","","16","","43","","","","101.61","","","","","","NA"
"-130.70","54.58","GREY ISLET (AUT)","1063303","2012-02-02 09:00","2012","02","02","09:00","","M","","M","","M","","","15","","33","","","","101.64","","","","","","NA"
"-130.70","54.58","GREY ISLET (AUT)","1063303","2012-02-02 10:00","2012","02","02","10:00","","M","","M","","M","","","16","","32","","","","101.66","","","","","","NA"
"-130.70","54.58","GREY ISLET (AUT)","1063303","2012-02-02 11:00","2012","02","02","11:00","","M","","M","","M","","","8","","22","","","","101.69","","","","","","NA"
"-130.70","54.58","GREY ISLET (AUT)","1063303","2012-02-02 12:00","2012","02","02","12:00","","M","","M","","M","","","8","","32","","","","101.57","","","","","","NA"
"-130.70","54.58","GREY ISLET (AUT)","1063303","2012-02-02 13:00","2012","02","02","13:00","","M","","M","","M","","","9","","19","","","","101.52","","","","","","NA"
"-130.70","54.58","GREY ISLET (AUT)","1063303","2012-02-02 14:00","2012","02","02","14:00","","M","","M","","M","","","14","","28","","","","101.47","","","","","","NA"
"-130.70","54.58","GREY ISLET (AUT)","1063303","2012-02-02 15:00","2012","02","02","15:00","","M","","M","","M","","","15","","50","","","","101.35","","","","","","NA"
"-130.70","54.58","GREY ISLET (AUT)","1063303","2012-02-02 16:00","2012","02","02","16:00","","M","","M","","M","","","15","","59","","","","101.34","","","","","","NA"
"-130.70","54.58","GREY ISLET (AUT)","1063303","2012-02-02 17:00","2012","02","02","17:00","","M","","M","","M","","","16","","57","","","","101.34","","","","","","NA"
"-130.70","54.58","GREY ISLET (AUT)","1063303","2012-02-02 18:00","2012","02","02","18:00","","M","","M","","M","","","16","","50","","","","101.38","","","","","","NA"
"-130.70","54.58","GREY ISLET (AUT)","1063303","2012-02-02 19:00","2012","02","02","19:00"
"-130.70","54.58","GREY ISLET (AUT)","1063303","2012-02-02 20:00","2012","02","02","20:00","","M","","M","","M","","","8","","24","","","","101.38","","","","","","NA"
"-130.70","54.58","GREY ISLET (AUT)","1063303","2012-02-02 21:00","2012","02","02","21:00","","M","","M","","M","","","6","","37","","","","101.30","","","","","","NA"
"-130.70","54.58","GREY ISLET (AUT)","1063303","2012-02-02 22:00","2012","02","02","22:00","","M","","M","","M","","","8","","32","","","","101.31","","","","","","NA"
"-130.70","54.58","GREY ISLET (AUT)","1063303","2012-02-02 23:00","2012","02","02","23:00","","M","","M","","M","","","7","","37","","","","101.28","","","","","","NA"
"-130.70","54.58","GREY ISLET (AUT)","1063303","2012-02-03 00:00","2012","02","03","00:00","","M","","M","","M","","","14","","39","","","","101.20","","","","","","NA"
"-130.70","54.58","GREY ISLET (AUT)","1063303","2012-02-03 01:00","2012","02","03","01:00","","M","","M","","M","","","15","","48","","","","101.12","","","","","","NA"
"-130.70","54.58","GREY ISLET (AUT)","1063303","2012-02-03 02:00","2012","02","03","02:00","","M","","M","","M","","","16","","59","","","","101.04","","","","","","NA"
"-130.70","54.58","GREY ISLET (AUT)","1063303","2012-02-03 03:00","2012","02","03","03:00","","M","","M","","M","","","16","","72","","","","101.02","","","","","","NA"
"-130.70","54.58","GREY ISLET (AUT)","1063303","2012-02-03 04:00","2012","02","03","04:00","","M","","M","","M","","","17","","57","","","","101.22","","","","","","NA"
"-130.70","54.58","GREY ISLET (AUT)","1063303","2012-02-03 05:00","2012","02","03","05:00","","M","","M","","M","","","16","","56","","","","101.36","","","","","","NA"
"-130.70","54.58","GREY ISLET (AUT)","1063303","2012-02-03 06:00","2012","02","03","06:00","","M","","M","","M","","","15","","57","","","","101.47","","","","","","NA"
"-130.70","54.58","GREY ISLET (AUT)","1063303","2012-02-03 07:00","2012","02","03","07:00","","M","","M","","M","","","15","","52","","","","101.63","","","","","","NA"
"-130.70","54.58","GREY ISLET (AUT)","1063303","2012-02-03 08:00","2012","02","03","08:00","","M","","M","","M","","","15","","54","","","","101.68","","","","","","NA"
"-130.70","54.58","GREY ISLET (AUT)","1063303","2012-02-03 09:00","2012","02","03","09:00","","M","","M","","M","","","16","","33","","","","101.87","","","","","","NA"
"-130.70","54.58","GREY ISLET (AUT)","1063303","2012-02-03 10:00","2012","02","03","10:00","","M","","M","","M","","","15","","32","","","","101.96","","","","","","NA"
"-130.70","54.58","GREY ISLET (AUT)","1063303","2012-02-03 11:00","2012","02","03","11:00"
"-130.70","54.58","GREY ISLET (AUT)","1063303","2012-02-03 12:00","2012","02","03","12:00","","M","","M","","M","","","19","","11","","","","102.08","","","","","","NA"
"-130.70","54.58","GREY ISLET (AUT)","1063303","2012-02-03 13:00","2012","02","03","13:00","","M","","M","","M","","","17","","20","","","","102.05","","","","","","NA"
"-130.70","54.58","GREY ISLET (AUT)","1063303","2012-02-03 14:00","2012","02","03","14:00","","M","","M","","M","","","9","","6","","","","102.04","","","","","","NA"
"-130.70","54.58","GREY ISLET (AUT)","1063303","2012-02-03 15:00","2012","02","03","15:00","","M","","M","","M","","","9","","7","","","","102.03","","","","","","NA"
"-130.70","54.58","GREY ISLET (AUT)","1063303","2012-02-03 16:00","2012","02","03","16:00","","M","","M","","M","","","5","","13","","","","102.01","","","","","","NA"
"-130.70","54.58","GREY ISLET (AUT)","1063303","2012-02-03 17:00","2012","02","03","17:00","","M","","M","","M","","","5","","17","","","","101.97","","","","","","NA"
"-130.70","54.58","GREY ISLET (AUT)","1063303","2012-02-03 18:00","2012","02","03","18:00","","M","","M","","M","","","3","","15","","","","101.94","","","","","","NA"
"-130.70","54.58","GREY ISLET (AUT)","1063303","2012-02-03 19:00","2012","02","03","19:00","","M","","M","","M","","","4","","22","","","","101.88","","","","","","NA"
"-130.70","54.58","GREY ISLET (AUT)","1063303","2012-02-03 20:00","2012","02","03","20:00","","M","","M","","M","","","4","","26","","","","101.86","","","","","","NA"
"-130.70","54.58","GREY ISLET (AUT)","1063303","2012-02-03 21:00","2012","02","03","21:00","","M","","M","","M","","","2","","24","","","","101.82","","","","","","NA"
"-130.70","54.58","GREY ISLET (AUT)","1063303","2012-02-03 22:00","2012","02","03","22:00","","M","","M","","M","","","4","","26","","","","101.78","","","","","","NA"
"-130.70","54.58","GREY ISLET (AUT)","1063303","2012-02-03 23:00","2012","02","03","23:00","","M","","M","","M","","","5","","35","","","","101.78","","","","","","NA"
"-130.70","54.58","GREY ISLET (AUT)","1063303","2012-02-04 00:00","2012","02","04","00:00","","M","","M","","M","","","5","","24","","","","101.84","","","","","","NA"
"-130.70","54.58","GREY ISLET (AUT)","1063303","2012-02-04 01:00","2012","02","04","01:00","","M","","M","","M","","","7","","26","","","","101.87","","","","","","NA"
"-130.70","54.58","GREY ISLET (AUT)","1063303","2012-02-04 02:00","2012","02","04","02:00","","M","","M","","M","","","10","","19","","","","101.90","","","","","","NA"
"-130.70","54.58","GREY ISLET (AUT)","1063303","2012-02-04 03:00","2012","02","04","03:00"
"-130.70","54.58","GREY ISLET (AUT)","1063303","2012-02-04 04:00","2012","02","04","04:00","","M","","M","","M","","","6","","33","","","","101.91","","","","","","NA"
"-130.70","54.58","GREY ISLET (AUT)","1063303","2012-02-04 05:00","2012","02","04","05:00","","M","","M","","M","","","6","","30","","","","101.95","","","","","","NA"
"-130.70","54.58","GREY ISLET (AUT)","1063303","2012-02-04 06:00","2012","02","04","06:00","","M","","M","","M","","","6","","32","","","","101.99","","","","","","NA"
"-130.70","54.58","GREY ISLET (AUT)","1063303","2012-02-04 07:00","2012","02","04","07:00","","M","","M","","M","","","6","","28","","","","102.05","","","","","","NA"
"-130.70","54.58","GREY ISLET (AUT)","1063303","2012-02-04 08:00","2012","02","04","08:00","","M","","M","","M","","","6","","32","","","","102.10","","","","","","NA"
"-130.70","54.58","GREY ISLET (AUT)","1063303","2012-02-04 09:00","2012","02","04","09:00","","M","","M","","M","","","6","","32","","","","102.13","","","","","","NA"
"-130.70","54.58","GREY ISLET (AUT)","1063303","2012-02-04 10:00","2012","02","04","10:00","","M","","M","","M","","","5","","32","","","","102.17","","","","","","NA"
"-130.70","54.58","GREY ISLET (AUT)","1063303","2012-02-04 11:00","2012","02","04","11:00","","M","","M","","M","","","5","","39","","","","102.17","","","","","","NA"
"-130.70","54.58","GREY ISLET (AUT)","1063303","2012-02-04 12:00","2012","02","04","12:00","","M","","M","","M","","","4","","33","","","","102.16","","","","","","NA"
"-130.70","54.58","GREY ISLET (AUT)","1063303","2012-02-04 13:00","2012","02","04","13:00","","M","","M","","M","","","6","","46","","","","102.10","","","","","","NA"
"-130.70","54.58","GREY ISLET (AUT)","1063303","2012-02-04 14:00","2012","02","04","14:00","","M","","M","","M","","","5","","48","","","","102.07","","","","","","NA"
"-130.70","54.58","GREY ISLET (AUT)","1063303","2012-02-04 15:00","2012","02","04","15:00","","M","","M","","M","","","5","","50","","","","102.00","","","","","","NA"
"-130.70","54.58","GREY ISLET (AUT)","1063303","2012-02-04 16:00","2012","02","04","16:00","","M","","M","","M","","","5","","52","","","","101.93","","","","","","NA"
"-130.70","54.58","GREY ISLET (AUT)","1063303","2012-02-04 17:00","2012","02","04","17:00","","M","","M","","M","","","5","","56","","","","101.84","","","","","","NA"
"-130.70","54.58","GREY ISLET (AUT)","1063303","2012-02-04 18:00","2012","02","04","18:00","","M","","M","","M","","","5","","61","","","","101.76","","","","","","NA"
"-130.70","54.58","GREY ISLET (AUT)","1063303","2012-02-04 19:00","2012","02","04","19:00","","M","","M","","M","","","5","","61","","","","101.71","","","","","","NA"
"-130.70","54.58","GREY ISLET (AUT)","1063303","2012-02-04 20:00","2012","02","04","20:00","","M","","M","","M","","","5","","61","","","","101.66","","","","","","NA"
"-130.70","54.58","GREY ISLET (AUT)","1063303","2012-02-04 21:00","2012","02","04","21:00","","M","","M","","M","","","6","","59","","","","101.60","","","","","","NA"
"-130.70","54.58","GREY ISLET (AUT)","1063303","2012-02-04 22:00","2012","02","04","22:00","","M","","M","","M","","","6","","59","","","","101.58","","","","","","NA"
"-130.70","54.58","GREY ISLET (AUT)","1063303","2012-02-04 23:00","2012","02","04","23:00","","M","","M","","M","","","6","","61","","","","101.54","","","","","","NA"
"-130.70","54.58","GREY ISLET (AUT)","1063303","2012-02-05 00:00","2012","02","05","00:00","","M","","M","","M","","","5","","59","","","","101.50","","","","","","NA"
"-130.70","54.58","GREY ISLET (AUT)","1063303","2012-02-05 01:00","2012","02","05","01:00","","M","","M","","M","","","5","","59","","","","101.47","","","","","","NA"
"-130.70","54.58","GREY ISLET (AUT)","1063303","2012-02-05 02:00","2012","02","05","02:00","","M","","M","","M","","","5","","59","","","","101.47","","","","","","NA"
"-130.70","54.58","GREY ISLET (AUT)","1063303","2012-02-05 03:00","2012","02","05","03:00","","M","","M","","M","","","5","","59","","","","101.48","","","","","","NA"
"-130.70","54.58","GREY ISLET (AUT)","1063303","2012-02-05 04:00","2012","02","05","04:00","","M","","M","","M","","","6","","61","","","","101.45","","","","","","NA"
"-130.70","54.58","GREY ISLET (AUT)","1063303","2012-02-05 05:00","2012","02","05","05:00","","M","","M","","M","","","6","","56","","","","101.46","","","","","","NA"
"-130.70","54.58","GREY ISLET (AUT)","1063303","2012-02-05 06:00","2012","02","05","06:00","","M","","M","","M","","","5","","59","","","","101.41","","","","","","NA"
"-130.70","54.58","GREY ISLET (AUT)","1063303","2012-02-05 07:00","2012","02","05","07:00","","M","","M","","M","","","5","","52","","","","101.45","","","","","","NA"
"-130.70","54.58","GREY ISLET (AUT)","1063303","2012-02-05 08:00","2012","02","05","08:00","","M","","M","","M","","","6","","52","","","","101.49","","","","","","NA"
"-130.70","54.58","GREY ISLET (AUT)","1063303","2012-02-05 09:00","2012","02","05","09:00","","M","","M","","M","","","6","","43","","","","101.66","","","","","","NA"
"-130.70","54.58","GREY ISLET (AUT)","1063303","2012-02-05 10:00","2012","02","05","10:00","","M","","M","","M","","","10","","13","","","","101.83","","","","","","NA"
"-130.70","54.58","GREY ISLET (AUT)","1063303","2012-02-05 11:00","2012","02","05","11:00","","M","","M","","M","","","7","","22","","","","101.90","","","","","","NA"
"-130.70","54.58","GREY ISLET (AUT)","1063303","2012-02-05 12:00","2012","02","05","12:00","","M","","M","","M","","","7","","30","","","","101.92","","","","","","NA"
"-130.70","54.58","GREY ISLET (AUT)","1063303","2012-02-05 13:00","2012","02","05","13:00","","M","","M","","M","","","7","","26","","","","101.93","","","","","","NA"
"-130.70","54.58","GREY ISLET (AUT)","1063303","2012-02-05 14:00","2012","02","05","14:00","","M","","M","","M","","","11","","13","","","","101.97","","","","","","NA"
"-130.70","54.58","GREY ISLET (AUT)","1063303","2012-02-05 15:00","2012","02","05","15:00","","M","","M","","M","","","13","","6","","","","101.99","","","","","","NA"
"-130.70","54.58","GREY ISLET (AUT)","1063303","2012-02-05 16:00","2012","02","05","16:00","","M","","M","","M","","","17","","32","","","","101.98","","","","","","NA"
"-130.70","54.58","GREY ISLET (AUT)","1063303","2012-02-05 17:00","2012","02","05","17:00","","M","","M","","M","","","18","","30","","","","102.01","","","","","","NA"
"-130.70","54.58","GREY ISLET (AUT)","1063303","2012-02-05 18:00","2012","02","05","18:00","","M","","M","","M","","","18","","28","","","","102.04","","","","","","NA"
"-130.70","54.58","GREY ISLET (AUT)","1063303","2012-02-05 19:00","2012","02","05","19:00","","M","","M","","M","","","16","","30","","","","102.06","","","","","","NA"
"-130.70","54.58","GREY ISLET (AUT)","1063303","2012-02-05 20:00","2012","02","05","20:00","","M","","M","","M","","","16","","30","","","","102.07","","","","","","NA"
"-130.70","54.58","GREY ISLET (AUT)","1063303","2012-02-05 21:00","2012","02","05","21:00","","M","","M","","M","","","14","","19","","","","102.12","","","","","","NA"
"-130.70","54.58","GREY ISLET (AUT)","1063303","2012-02-05 22:00","2012","02","05","22:00","","M","","M","","M","","","9","","9","","","","102.13","","","","","","NA"
"-130.70","54.58","GREY ISLET (AUT)","1063303","2012-02-05 23:00","2012","02","05","23:00","","M","","M","","M","","","7","","7","","","","102.15","","","","","","NA"
"-130.70","54.58","GREY ISLET (AUT)","1063303","2012-02-06 00:00","2012","02","06","00:00","","M","","M","","M","","","8","","15","","","","102.11","","","","","","NA"
"-130.70","54.58","GREY ISLET (AUT)","1063303","2012-02-06 01:00","2012","02","06","01:00","","M","","M","","M","","","6","","15","","","","102.10","","","","","","NA"
"-130.70","54.58","GREY ISLET (AUT)","1063303","2012-02-06 02:00","2012","02","06","02:00","","M","","M","","M","","","6","","19","","","","102.06","","","","","","NA"
"-130.70","54.58","GREY ISLET (AUT)","1063303","2012-02-06 03:00","2012","02","06","03:00","","M","","M","","M","","","7","","26","","","","102.02","","","","","","NA"
"-130.70","54.58","GREY ISLET (AUT)","1063303","2012-02-06 04:00","2012","02","06","04:00","","M","","M","","M","","","7","","26","","","","101.94","","","","","","NA"
"-130.70","54.58","GREY ISLET (AUT)","1063303","2012-02-06 05:00","2012","02","06","05:00","","M","","M","","M","","","5","","26","","","","101.89","","","","","","NA"
"-130.70","54.58","GREY ISLET (AUT)","1063303","2012-02-06 06:00","2012","02","06","06:00","","M","","M","","M","","","6","","32","","","","101.85","","","","","","NA"
"-130.70","54.58","GREY ISLET (AUT)","1063303","2012-02-06 07:00","2012","02","06","07:00","","M","","M","","M","","","7","","33","","","","101.83","","","","","","NA"
"-130.70","54.58","GREY ISLET (AUT)","1063303","2012-02-06 08:00","2012","02","06","08:00","","M","","M","","M","","","7","","28","","","","101.80","","","","","","NA"
"-130.70","54.58","GREY ISLET (AUT)","1063303","2012-02-06 09:00","2012","02","06","09:00","","M","","M","","M","","","6","","39","","","","101.77","","","","","","NA"
"-130.70","54.58","GREY ISLET (AUT)","1063303","2012-02-06 10:00","2012","02","06","10:00","","M","","M","","M","","","6","","50","","","","101.72","","","","","","NA"
"-130.70","54.58","GREY ISLET (AUT)","1063303","2012-02-06 11:00","2012","02","06","11:00","","M","","M","","M","","","6","","54","","","","101.68","","","","","","NA"
"-130.70","54.58","GREY ISLET (AUT)","1063303","2012-02-06 12:00","2012","02","06","12:00","","M","","M","","M","","","6","","52","","","","101.62","","","","","","NA"
"-130.70","54.58","GREY ISLET (AUT)","1063303","2012-02-06 13:00","2012","02","06","13:00","","M","","M","","M","","","6","","52","","","","101.56","","","","","","NA"
"-130.70","54.58","GREY ISLET (AUT)","1063303","2012-02-06 14:00","2012","02","06","14:00","","M","","M","","M","","","6","","54","","","","101.50","","","","","","NA"
"-130.70","54.58","GREY ISLET (AUT)","1063303","2012-02-06 15:00","2012","02","06","15:00","","M","","M","","M","","","6","","54","","","","101.46","","","","","","NA"
"-130.70","54.58","GREY ISLET (AUT)","1063303","2012-02-06 16:00","2012","02","06","16:00","","M","","M","","M","","","6","","56","","","","101.39","","","","","","NA"
"-130.70","54.58","GREY ISLET (AUT)","1063303","2012-02-06 17:00","2012","02","06","17:00","","M","","M","","M","","","6","","50","","","","101.38","","","","","","NA"
"-130.70","54.58","GREY ISLET (AUT)","1063303","2012-02-06 18:00","2012","02","06","18:00","","M","","M","","M","","","5","","54","","","","101.33","","","","","","NA"
"-130.70","54.58","GREY ISLET (AUT)","1063303","2012-02-06 19:00","2012","02","06","19:00","","M","","M","","M","","","5","","50","","","","101.28","","","","","","NA"
"-130.70","54.58","GREY ISLET (AUT)","1063303","2012-02-06 20:00","2012","02","06","20:00","","M","","M","","M","","","5","","48","","","","101.25","","","","","","NA"
"-130.70","54.58","GREY ISLET (AUT)","1063303","2012-02-06 21:00","2012","02","06","21:00","","M","","M","","M","","","5","","56","","","","101.21","","","","","","NA"
"-130.70","54.58","GREY ISLET (AUT)","1063303","2012-02-06 22:00","2012","02","06","22:00","","M","","M","","M","","","6","","59","","","","101.18","","","","","","NA"
"-130.70","54.58","GREY ISLET (AUT)","1063303","2012-02-06 23:00","2012","02","06","23:00","","M","","M","","M","","","5","","57","","","","101.17","","","","","","NA"
"-130.70","54.58","GREY ISLET (AUT)","1063303","2012-02-07 00:00","2012","02","07","00:00","","M","","M","","M","","","5","","61","","","","101.10","","","","","","NA"
"-130.70","54.58","GREY ISLET (AUT)","1063303","2012-02-07 01:00","2012","02","07","01:00","","M","","M","","M","","","6","","59","","","","101.06","","","","","","NA"
"-130.70","54.58","GREY ISLET (AUT)","1063303","2012-02-07 02:00","2012","02","07","02:00","","M","","M","","M","","","5","","61","","","","101.05","","","","","","NA"
"-130.70","54.58","GREY ISLET (AUT)","1063303","2012-02-07 03:00","2012","02","07","03:00","","M","","M","","M","","","5","","63","","","","101.01","","","","","","NA"
"-130.70","54.58","GREY ISLET (AUT)","1063303","2012-02-07 04:00","2012","02","07","04:00","","M","","M","","M","","","5","","63","","","","100.93","","","","","","NA"
"-130.70","54.58","GREY ISLET (AUT)","1063303","2012-02-07 05:00","2012","02","07","05:00","","M","","M","","M","","","6","","63","","","","100.90","","","","","","NA"
"-130.70","54.58","GREY ISLET (AUT)","1063303","2012-02-07 06:00","2012","02","07","06:00","","M","","M","","M","","","6","","67","","","","100.83","","","","","","NA"
"-130.70","54.58","GREY ISLET (AUT)","1063303","2012-02-07 07:00","2012","02","07","07:00","","M","","M","","M","","","5","","65","","","","100.79","","","","","","NA"
"-130.70","54.58","GREY ISLET (AUT)","1063303","2012-02-07 08:00","2012","02","07","08:00","","M","","M","","M","","","6","","63","","","","100.76","","","","","","NA"
"-130.70","54.58","GREY ISLET (AUT)","1063303","2012-02-07 09:00","2012","02","07","09:00","","M","","M","","M","","","5","","67","","","","100.75","","","","","","NA"
"-130.70","54.58","GREY ISLET (AUT)","1063303","2012-02-07 10:00","2012","02","07","10:00","","M","","M","","M","","","6","","69","","","","100.69","","","","","","NA"
"-130.70","54.58","GREY ISLET (AUT)","1063303","2012-02-07 11:00","2012","02","07","11:00","","M","","M","","M","","","6","","69","","","","100.65","","","","","","NA"
"-130.70","54.58","GREY ISLET (AUT)","1063303","2012-02-07 12:00","2012","02","07","12:00","","M","","M","","M","","","6","","61","","","","100.71","","","","","","NA"
"-130.70","54.58","GREY ISLET (AUT)","1063303","2012-02-07 13:00","2012","02","07","13:00","","M","","M","","M","","","6","","57","","","","100.67","","","","","","NA"
"-130.70","54.58","GREY ISLET (AUT)","1063303","2012-02-07 14:00","2012","02","07","14:00","","M","","M","","M","","","6","","56","","","","100.64","","","","","","NA"
"-130.70","54.58","GREY ISLET (AUT)","1063303","2012-02-07 15:00","2012","02","07","15:00","","M","","M","","M","","","6","","52","","","","100.65","","","","","","NA"
"-130.70","54.58","GREY ISLET (AUT)","1063303","2012-02-07 16:00","2012","02","07","16:00","","M","","M","","M","","","5","","56","","","","100.66","","","","","","NA"
"-130.70","54.58","GREY ISLET (AUT)","1063303","2012-02-07 17:00","2012","02","07","17:00","","M","","M","","M","","","6","","54","","","","100.67","","","","","","NA"
"-130.70","54.58","GREY ISLET (AUT)","1063303","2012-02-07 18:00","2012","02","07","18:00","","M","","M","","M","","","5","","56","","","","100.65","","","","","","NA"
"-130.70","54.58","GREY ISLET (AUT)","1063303","2012-02-07 19:00","2012","02","07","19:00","","M","","M","","M","","","5","","59","","","","100.65","","","","","","NA"
"-130.70","54.58","GREY ISLET (AUT)","1063303","2012-02-07 20:00","2012","02","07","20:00","","M","","M","","M","","","5","","59","","","","100.64","","","","","","NA"
"-130.70","54.58","GREY ISLET (AUT)","1063303","2012-02-07 21:00","2012","02","07","21:00","","M","","M","","M","","","5","","59","","","","100.65","","","","","","NA"
"-130.70","54.58","GREY ISLET (AUT)","1063303","2012-02-07 22:00","2012","02","07","22:00","","M","","M","","M","","","5","","61","","","","100.63","","","","","","NA"
"-130.70","54.58","GREY ISLET (AUT)","1063303","2012-02-07 23:00","2012","02","07","23:00","","M","","M","","M","","","6","","61","","","","100.65","","","","","","NA"
"-130.70","54.58","GREY ISLET (AUT)","1063303","2012-02-08 00:00","2012","02","08","00:00","","M","","M","","M","","","6","","59","","","","100.71","","","","","","NA"
"-130.70","54.58","GREY ISLET (AUT)","1063303","2012-02-08 01:00","2012","02","08","01:00","","M","","M","","M","","","6","","61","","","","100.70","","","","","","NA"
"-130.70","54.58","GREY ISLET (AUT)","1063303","2012-02-08 02:00","2012","02","08","02:00","","M","","M","","M","","","5","","61","","","","100.75","","","","","","NA"
"-130.70","54.58","GREY ISLET (AUT)","1063303","2012-02-08 03:00","2012","02","08","03:00","","M","","M","","M","","","6","","54","","","","100.84","","","","","","NA"
"-130.70","54.58","GREY ISLET (AUT)","1063303","2012-02-08 04:00","2012","02","08","04:00","","M","","M","","M","","","6","","44","","","","100.88","","","","","","NA"
"-130.70","54.58","GREY ISLET (AUT)","1063303","2012-02-08 05:00","2012","02","08","05:00","","M","","M","","M","","","6","","48","","","","100.86","","","","","","NA"
"-130.70","54.58","GREY ISLET (AUT)","1063303","2012-02-08 06:00","2012","02","08","06:00","","M","","M","","M","","","6","","56","","","","100.80","","","","","","NA"
"-130.70","54.58","GREY ISLET (AUT)","1063303","2012-02-08 07:00","2012","02","08","07:00","","M","","M","","M","","","6","","57","","","","100.77","","","","","","NA"
"-130.70","54.58","GREY ISLET (AUT)","1063303","2012-02-08 08:00","2012","02","08","08:00","","M","","M","","M","","","6","","61","","","","100.77","","","","","","NA"
"-130.70","54.58","GREY ISLET (AUT)","1063303","2012-02-08 09:00","2012","02","08","09:00","","M","","M","","M","","","6","","63","","","","100.82","","","","","","NA"
"-130.70","54.58","GREY ISLET (AUT)","1063303","2012-02-08 10:00","2012","02","08","10:00","","M","","M","","M","","","6","","65","","","","100.90","","","","","","NA"
"-130.70","54.58","GREY ISLET (AUT)","1063303","2012-02-08 11:00","2012","02","08","11:00","","M","","M","","M","","","5","","57","","","","100.92","","","","","","NA"
"-130.70","54.58","GREY ISLET (AUT)","1063303","2012-02-08 12:00","2012","02","08","12:00","","M","","M","","M","","","6","","44","","","","101.04","","","","","","NA"
"-130.70","54.58","GREY ISLET (AUT)","1063303","2012-02-08 13:00","2012","02","08","13:00","","M","","M","","M","","","6","","43","","","","101.08","","","","","","NA"
"-130.70","54.58","GREY ISLET (AUT)","1063303","2012-02-08 14:00","2012","02","08","14:00","","M","","M","","M","","","6","","44","","","","101.15","","","","","","NA"
"-130.70","54.58","GREY ISLET (AUT)","1063303","2012-02-08 15:00","2012","02","08","15:00","","M","","M","","M","","","6","","35","","","","101.25","","","","","","NA"
"-130.70","54.58","GREY ISLET (AUT)","1063303","2012-02-08 16:00","2012","02","08","16:00","","M","","M","","M","","","7","","30","","","","101.34","","","","","","NA"
"-130.70","54.58","GREY ISLET (AUT)","1063303","2012-02-08 17:00","2012","02","08","17:00","","M","","M","","M","","","7","","28","","","","101.43","","","","","","NA"
"-130.70","54.58","GREY ISLET (AUT)","1063303","2012-02-08 18:00","2012","02","08","18:00","","M","","M","","M","","","8","","17","","","","101.57","","","","","","NA"
"-130.70","54.58","GREY ISLET (AUT)","1063303","2012-02-08 19:00","2012","02","08","19:00","","M","","M","","M","","","7","","24","","","","101.66","","","","","","NA"
"-130.70","54.58","GREY ISLET (AUT)","1063303","2012-02-08 20:00","2012","02","08","20:00","","M","","M","","M","","","6","","35","","","","101.69","","","","","","NA"
"-130.70","54.58","GREY ISLET (AUT)","1063303","2012-02-08 21:00","2012","02","08","21:00","","M","","M","","M","","","6","","41","","","","101.71","","","","","","NA"
"-130.70","54.58","GREY ISLET (AUT)","1063303","2012-02-08 22:00","2012","02","08","22:00","","M","","M","","M","","","6","","41","","","","101.78","","","","","","NA"
"-130.70","54.58","GREY ISLET (AUT)","1063303","2012-02-08 23:00","2012","02","08","23:00","","M","","M","","M","","","6","","39","","","","101.82","","","","","","NA"
"-130.70","54.58","GREY ISLET (AUT)","1063303","2012-02-09 00:00","2012","02","09","00:00","","M","","M","","M","","","6","","39","","","","101.86","","","","","","NA"
"-130.70","54.58","GREY ISLET (AUT)","1063303","2012-02-09 01:00","2012","02","09","01:00","","M","","M","","M","","","6","","35","","","","101.84","","","","","","NA"
"-130.70","54.58","GREY ISLET (AUT)","1063303","2012-02-09 02:00","2012","02","09","02:00","","M","","M","","M","","","5","","44","","","","101.73","","","","","","NA"
"-130.70","54.58","GREY ISLET (AUT)","1063303","2012-02-09 03:00","2012","02","09","03:00","","M","","M","","M","","","6","","44","","","","101.71","","","","","","NA"
"-130.70","54.58","GREY ISLET (AUT)","1063303","2012-02-09 04:00","2012","02","09","04:00","","M","","M","","M","","","6","","48","","","","101.60","","","","","","NA"
"-130.70","54.58","GREY ISLET (AUT)","1063303","2012-02-09 05:00","2012","02","09","05:00","","M","","M","","M","","","6","","50","","","","101.44","","","","","","NA"
"-130.70","54.58","GREY ISLET (AUT)","1063303","2012-02-09 06:00","2012","02","09","06:00","","M","","M","","M","","","5","","56","","","","101.30","","","","","","NA"
"-130.70","54.58","GREY ISLET (AUT)","1063303","2012-02-09 07:00","2012","02","09","07:00","","M","","M","","M","","","6","","59","","","","101.12","","","","","","NA"
"-130.70","54.58","GREY ISLET (AUT)","1063303","2012-02-09 08:00","2012","02","09","08:00","","M","","M","","M","","","5","","65","","","","100.92","","","","","","NA"
"-130.70","54.58","GREY ISLET (AUT)","1063303","2012-02-09 09:00","2012","02","09","09:00","","M","","M","","M","","","6","","67","","","","100.80","","","","","","NA"
"-130.70","54.58","GREY ISLET (AUT)","1063303","2012-02-09 10:00","2012","02","09","10:00","","M","","M","","M","","","5","","67","","","","100.71","","","","","","NA"
"-130.70","54.58","GREY ISLET (AUT)","1063303","2012-02-09 11:00","2012","02","09","11:00","","M","","M","","M","","","6","","56","","","","100.68","","","","","","NA"
"-130.70","54.58","GREY ISLET (AUT)","1063303","2012-02-09 12:00","2012","02","09","12:00","","M","","M","","M","","","6","","48","","","","100.61","","","","","","NA"
"-130.70","54.58","GREY ISLET (AUT)","1063303","2012-02-09 13:00","2012","02","09","13:00","","M","","M","","M","","","6","","46","","","","100.53","","","","","","NA"
"-130.70","54.58","GREY ISLET (AUT)","1063303","2012-02-09 14:00","2012","02","09","14:00","","M","","M","","M","","","8","","24","","","","100.60","","","","","","NA"
"-130.70","54.58","GREY ISLET (AUT)","1063303","2012-02-09 15:00","2012","02","09","15:00","","M","","M","","M","","","6","","46","","","","100.60","","","","","","NA"
"-130.70","54.58","GREY ISLET (AUT)","1063303","2012-02-09 16:00","2012","02","09","16:00","","M","","M","","M","","","8","","33","","","","100.72","","","","","","NA"
"-130.70","54.58","GREY ISLET (AUT)","1063303","2012-02-09 17:00","2012","02","09","17:00","","M","","M","","M","","","17","","39","","","","100.87","","","","","","NA"
"-130.70","54.58","GREY ISLET (AUT)","1063303","2012-02-09 18:00","2012","02","09","18:00","","M","","M","","M","","","17","","43","","","","101.05","","","","","","NA"
"-130.70","54.58","GREY ISLET (AUT)","1063303","2012-02-09 19:00","2012","02","09","19:00","","M","","M","","M","","","17","","33","","","","101.20","","","","","","NA"
"-130.70","54.58","GREY ISLET (AUT)","1063303","2012-02-09 20:00","2012","02","09","20:00","","M","","M","","M","","","17","","33","","","","101.28","","","","","","NA"
"-130.70","54.58","GREY ISLET (AUT)","1063303","2012-02-09 21:00","2012","02","09","21:00","","M","","M","","M","","","18","","33","","","","101.39","","","","","","NA"
"-130.70","54.58","GREY ISLET (AUT)","1063303","2012-02-09 22:00","2012","02","09","22:00","","M","","M","","M","","","18","","28","","","","101.49","","","","","","NA"
"-130.70","54.58","GREY ISLET (AUT)","1063303","2012-02-09 23:00","2012","02","09","23:00","","M","","M","","M","","","13","","13","","","","101.57","","","","","","NA"
"-130.70","54.58","GREY ISLET (AUT)","1063303","2012-02-10 00:00","2012","02","10","00:00","","M","","M","","M","","","9","","15","","","","101.64","","","","","","NA"
"-130.70","54.58","GREY ISLET (AUT)","1063303","2012-02-10 01:00","2012","02","10","01:00","","M","","M","","M","","","6","","20","","","","101.73","","","","","","NA"
"-130.70","54.58","GREY ISLET (AUT)","1063303","2012-02-10 02:00","2012","02","10","02:00","","M","","M","","M","","","6","","22","","","","101.75","","","","","","NA"
"-130.70","54.58","GREY ISLET (AUT)","1063303","2012-02-10 03:00","2012","02","10","03:00","","M","","M","","M","","","6","","32","","","","101.76","","","","","","NA"
"-130.70","54.58","GREY ISLET (AUT)","1063303","2012-02-10 04:00","2012","02","10","04:00","","M","","M","","M","","","5","","30","","","","101.75","","","","","","NA"
"-130.70","54.58","GREY ISLET (AUT)","1063303","2012-02-10 05:00","2012","02","10","05:00","","M","","M","","M","","","1","","13","","","","101.80","","","","","","NA"
"-130.70","54.58","GREY ISLET (AUT)","1063303","2012-02-10 06:00","2012","02","10","06:00","","M","","M","","M","","","4","","19","","","","101.79","","","","","","NA"
"-130.70","54.58","GREY ISLET (AUT)","1063303","2012-02-10 07:00","2012","02","10","07:00","","M","","M","","M","","","4","","28","","","","101.75","","","","","","NA"
"-130.70","54.58","GREY ISLET (AUT)","1063303","2012-02-10 08:00","2012","02","10","08:00","","M","","M","","M","","","4","","33","","","","101.73","","","","","","NA"
"-130.70","54.58","GREY ISLET (AUT)","1063303","2012-02-10 09:00","2012","02","10","09:00","","M","","M","","M","","","3","","28","","","","101.72","","","","","","NA"
"-130.70","54.58","GREY ISLET (AUT)","1063303","2012-02-10 10:00","2012","02","10","10:00","","M","","M","","M","","","2","","24","","","","101.71","","","","","","NA"
"-130.70","54.58","GREY ISLET (AUT)","1063303","2012-02-10 11:00","2012","02","10","11:00","","M","","M","","M","","","2","","22","","","","101.71","","","","","","NA"
"-130.70","54.58","GREY ISLET (AUT)","1063303","2012-02-10 12:00","2012","02","10","12:00","","M","","M","","M","","","4","","26","","","","101.69","","","","","","NA"
"-130.70","54.58","GREY ISLET (AUT)","1063303","2012-02-10 13:00","2012","02","10","13:00","","M","","M","","M","","","2","","20","","","","101.69","","","","","","NA"
"-130.70","54.58","GREY ISLET (AUT)","1063303","2012-02-10 14:00","2012","02","10","14:00","","M","","M","","M","","","3","","17","","","","101.61","","","","","","NA"
"-130.70","54.58","GREY ISLET (AUT)","1063303","2012-02-10 15:00","2012","02","10","15:00","","M","","M","","M","","","34","","17","","","","101.56","","","","","","NA"
"-130.70","54.58","GREY ISLET (AUT)","1063303","2012-02-10 16:00","2012","02","10","16:00","","M","","M","","M","","","3","","22","","","","101.52","","","","","","NA"
"-130.70","54.58","GREY ISLET (AUT)","1063303","2012-02-10 17:00","2012","02","10","17:00","","M","","M","","M","","","1","","17","","","","101.49","","","","","","NA"
"-130.70","54.58","GREY ISLET (AUT)","1063303","2012-02-10 18:00","2012","02","10","18:00","","M","","M","","M","","","4","","32","","","","101.49","","","","","","NA"
"-130.70","54.58","GREY ISLET (AUT)","1063303","2012-02-10 19:00","2012","02","10","19:00","","M","","M","","M","","","5","","26","","","","101.49","","","","","","NA"
"-130.70","54.58","GREY ISLET (AUT)","1063303","2012-02-10 20:00","2012","02","10","20:00","","M","","M","","M","","","6","","28","","","","101.50","","","","","","NA"
"-130.70","54.58","GREY ISLET (AUT)","1063303","2012-02-10 21:00","2012","02","10","21:00","","M","","M","","M","","","8","","22","","","","101.48","","","","","","NA"
"-130.70","54.58","GREY ISLET (AUT)","1063303","2012-02-10 22:00","2012","02","10","22:00","","M","","M","","M","","","7","","24","","","","101.47","","","","","","NA"
"-130.70","54.58","GREY ISLET (AUT)","1063303","2012-02-10 23:00","2012","02","10","23:00","","M","","M","","M","","","8","","13","","","","101.50","","","","","","NA"
"-130.70","54.58","GREY ISLET (AUT)","1063303","2012-02-11 00:00","2012","02","11","00:00","","M","","M","","M","","","9","","20","","","","101.46","","","","","","NA"
"-130.70","54.58","GREY ISLET (AUT)","1063303","2012-02-11 01:00","2012","02","11","01:00","","M","","M","","M","","","8","","30","","","","101.45","","","","","","NA"
"-130.70","54.58","GREY ISLET (AUT)","1063303","2012-02-11 02:00","2012","02","11","02:00","","M","","M","","M","","","7","","28","","","","101.44","","","","","","NA"
"-130.70","54.58","GREY ISLET (AUT)","1063303","2012-02-11 03:00","2012","02","11","03:00","","M","","M","","M","","","7","","30","","","","101.46","","","","","","NA"
"-130.70","54.58","GREY ISLET (AUT)","1063303","2012-02-11 04:00","2012","02","11","04:00","","M","","M","","M","","","7","","28","","","","101.47","","","","","","NA"
"-130.70","54.58","GREY ISLET (AUT)","1063303","2012-02-11 05:00","2012","02","11","05:00","","M","","M","","M","","","7","","30","","","","101.45","","","","","","NA"
"-130.70","54.58","GREY ISLET (AUT)","1063303","2012-02-11 06:00","2012","02","11","06:00","","M","","M","","M","","","8","","26","","","","101.43","","","","","","NA"
"-130.70","54.58","GREY ISLET (AUT)","1063303","2012-02-11 07:00","2012","02","11","07:00","","M","","M","","M","","","8","","26","","","","101.45","","","","","","NA"
"-130.70","54.58","GREY ISLET (AUT)","1063303","2012-02-11 08:00","2012","02","11","08:00","","M","","M","","M","","","7","","30","","","","101.48","","","","","","NA"
"-130.70","54.58","GREY ISLET (AUT)","1063303","2012-02-11 09:00","2012","02","11","09:00","","M","","M","","M","","","7","","32","","","","101.47","","","","","","NA"
"-130.70","54.58","GREY ISLET (AUT)","1063303","2012-02-11 10:00","2012","02","11","10:00","","M","","M","","M","","","9","","20","","","","101.45","","","","","","NA"
"-130.70","54.58","GREY ISLET (AUT)","1063303","2012-02-11 11:00","2012","02","11","11:00","","M","","M","","M","","","7","","30","","","","101.39","","","","","","NA"
"-130.70","54.58","GREY ISLET (AUT)","1063303","2012-02-11 12:00","2012","02","11","12:00","","M","","M","","M","","","6","","32","","","","101.36","","","","","","NA"
"-130.70","54.58","GREY ISLET (AUT)","1063303","2012-02-11 13:00","2012","02","11","13:00","","M","","M","","M","","","7","","19","","","","101.36","","","","","","NA"
"-130.70","54.58","GREY ISLET (AUT)","1063303","2012-02-11 14:00","2012","02","11","14:00","","M","","M","","M","","","9","","15","","","","101.28","","","","","","NA"
"-130.70","54.58","GREY ISLET (AUT)","1063303","2012-02-11 15:00","2012","02","11","15:00","","M","","M","","M","","","9","","19","","","","101.25","","","","","","NA"
"-130.70","54.58","GREY ISLET (AUT)","1063303","2012-02-11 16:00","2012","02","11","16:00","","M","","M","","M","","","14","","15","","","","101.16","","","","","","NA"
"-130.70","54.58","GREY ISLET (AUT)","1063303","2012-02-11 17:00","2012","02","11","17:00","","M","","M","","M","","","16","","24","","","","101.08","","","","","","NA"
"-130.70","54.58","GREY ISLET (AUT)","1063303","2012-02-11 18:00","2012","02","11","18:00","","M","","M","","M","","","15","","26","","","","101.02","","","","","","NA"
"-130.70","54.58","GREY ISLET (AUT)","1063303","2012-02-11 19:00","2012","02","11","19:00","","M","","M","","M","","","17","","32","","","","100.98","","","","","","NA"
"-130.70","54.58","GREY ISLET (AUT)","1063303","2012-02-11 20:00","2012","02","11","20:00","","M","","M","","M","","","16","","39","","","","100.91","","","","","","NA"
"-130.70","54.58","GREY ISLET (AUT)","1063303","2012-02-11 21:00","2012","02","11","21:00","","M","","M","","M","","","17","","52","","","","100.87","","","","","","NA"
"-130.70","54.58","GREY ISLET (AUT)","1063303","2012-02-11 22:00","2012","02","11","22:00","","M","","M","","M","","","16","","54","","","","100.88","","","","","","NA"
"-130.70","54.58","GREY ISLET (AUT)","1063303","2012-02-11 23:00","2012","02","11","23:00","","M","","M","","M","","","16","","56","","","","100.89","","","","","","NA"
"-130.70","54.58","GREY ISLET (AUT)","1063303","2012-02-12 00:00","2012","02","12","00:00","","M","","M","","M","","","16","","56","","","","100.90","","","","","","NA"
"-130.70","54.58","GREY ISLET (AUT)","1063303","2012-02-12 01:00","2012","02","12","01:00","","M","","M","","M","","","16","","54","","","","100.90","","","","","","NA"
"-130.70","54.58","GREY ISLET (AUT)","1063303","2012-02-12 02:00","2012","02","12","02:00","","M","","M","","M","","","16","","43","","","","100.93","","","","","","NA"
"-130.70","54.58","GREY ISLET (AUT)","1063303","2012-02-12 03:00","2012","02","12","03:00","","M","","M","","M","","","15","","43","","","","100.89","","","","","","NA"
"-130.70","54.58","GREY ISLET (AUT)","1063303","2012-02-12 04:00","2012","02","12","04:00","","M","","M","","M","","","18","","30","","","","100.98","","","","","","NA"
"-130.70","54.58","GREY ISLET (AUT)","1063303","2012-02-12 05:00","2012","02","12","05:00","","M","","M","","M","","","23","","13","","","","101.02","","","","","","NA"
"-130.70","54.58","GREY ISLET (AUT)","1063303","2012-02-12 06:00","2012","02","12","06:00","","M","","M","","M","","","26","","17","","","","101.05","","","","","","NA"
"-130.70","54.58","GREY ISLET (AUT)","1063303","2012-02-12 07:00","2012","02","12","07:00","","M","","M","","M","","","26","","15","","","","101.09","","","","","","NA"
"-130.70","54.58","GREY ISLET (AUT)","1063303","2012-02-12 08:00","2012","02","12","08:00","","M","","M","","M","","","26","","13","","","","101.15","","","","","","NA"
"-130.70","54.58","GREY ISLET (AUT)","1063303","2012-02-12 09:00","2012","02","12","09:00","","M","","M","","M","","","27","","19","","","","101.23","","","","","","NA"
"-130.70","54.58","GREY ISLET (AUT)","1063303","2012-02-12 10:00","2012","02","12","10:00","","M","","M","","M","","","28","","17","","","","101.31","","","","","","NA"
"-130.70","54.58","GREY ISLET (AUT)","1063303","2012-02-12 11:00","2012","02","12","11:00","","M","","M","","M","","","29","","24","","","","101.39","","","","","","NA"
"-130.70","54.58","GREY ISLET (AUT)","1063303","2012-02-12 12:00","2012","02","12","12:00","","M","","M","","M","","","29","","22","","","","101.45","","","","","","NA"
"-130.70","54.58","GREY ISLET (AUT)","1063303","2012-02-12 13:00","2012","02","12","13:00","","M","","M","","M","","","28","","20","","","","101.53","","","","","","NA"
"-130.70","54.58","GREY ISLET (AUT)","1063303","2012-02-12 14:00","2012","02","12","14:00","","M","","M","","M","","","28","","17","","","","101.55","","","","","","NA"
"-130.70","54.58","GREY ISLET (AUT)","1063303","2012-02-12 15:00","2012","02","12","15:00","","M","","M","","M","","","27","","19","","","","101.59","","","","","","NA"
"-130.70","54.58","GREY ISLET (AUT)","1063303","2012-02-12 16:00","2012","02","12","16:00","","M","","M","","M","","","24","","17","","","","101.65","","","","","","NA"
"-130.70","54.58","GREY ISLET (AUT)","1063303","2012-02-12 17:00","2012","02","12","17:00","","M","","M","","M","","","25","","17","","","","101.71","","","","","","NA"
"-130.70","54.58","GREY ISLET (AUT)","1063303","2012-02-12 18:00","2012","02","12","18:00","","M","","M","","M","","","24","","13","","","","101.72","","","","","","NA"
"-130.70","54.58","GREY ISLET (AUT)","1063303","2012-02-12 19:00","2012","02","12","19:00","","M","","M","","M","","","25","","15","","","","101.76","","","","","","NA"
"-130.70","54.58","GREY ISLET (AUT)","1063303","2012-02-12 20:00","2012","02","12","20:00","","M","","M","","M","","","27","","6","","","","101.81","","","","","","NA"
"-130.70","54.58","GREY ISLET (AUT)","1063303","2012-02-12 21:00","2012","02","12","21:00","","M","","M","","M","","","29","","19","","","","101.86","","","","","","NA"
"-130.70","54.58","GREY ISLET (AUT)","1063303","2012-02-12 22:00","2012","02","12","22:00","","M","","M","","M","","","30","","19","","","","101.94","","","","","","NA"
"-130.70","54.58","GREY ISLET (AUT)","1063303","2012-02-12 23:00","2012","02","12","23:00","","M","","M","","M","","","30","","22","","","","101.99","","","","","","NA"
"-130.70","54.58","GREY ISLET (AUT)","1063303","2012-02-13 00:00","2012","02","13","00:00","","M","","M","","M","","","31","","24","","","","102.05","","","","","","NA"
"-130.70","54.58","GREY ISLET (AUT)","1063303","2012-02-13 01:00","2012","02","13","01:00","","M","","M","","M","","","32","","9","","","","102.11","","","","","","NA"
"-130.70","54.58","GREY ISLET (AUT)","1063303","2012-02-13 02:00","2012","02","13","02:00","","M","","M","","M","","","30","","6","","","","102.15","","","","","","NA"
"-130.70","54.58","GREY ISLET (AUT)","1063303","2012-02-13 03:00","2012","02","13","03:00","","M","","M","","M","","","34","","4","","","","102.15","","","","","","NA"
"-130.70","54.58","GREY ISLET (AUT)","1063303","2012-02-13 04:00","2012","02","13","04:00","","M","","M","","M","","","7","","7","","","","102.12","","","","","","NA"
"-130.70","54.58","GREY ISLET (AUT)","1063303","2012-02-13 05:00","2012","02","13","05:00","","M","","M","","M","","","18","","6","","","","102.14","","","","","","NA"
"-130.70","54.58","GREY ISLET (AUT)","1063303","2012-02-13 06:00","2012","02","13","06:00","","M","","M","","M","","","14","","9","","","","102.11","","","","","","NA"
"-130.70","54.58","GREY ISLET (AUT)","1063303","2012-02-13 07:00","2012","02","13","07:00","","M","","M","","M","","","12","","13","","","","102.06","","","","","","NA"
"-130.70","54.58","GREY ISLET (AUT)","1063303","2012-02-13 08:00","2012","02","13","08:00","","M","","M","","M","","","8","","9","","","","102.03","","","","","","NA"
"-130.70","54.58","GREY ISLET (AUT)","1063303","2012-02-13 09:00","2012","02","13","09:00","","M","","M","","M","","","8","","15","","","","101.99","","","","","","NA"
"-130.70","54.58","GREY ISLET (AUT)","1063303","2012-02-13 10:00","2012","02","13","10:00","","M","","M","","M","","","7","","13","","","","101.99","","","","","","NA"
"-130.70","54.58","GREY ISLET (AUT)","1063303","2012-02-13 11:00","2012","02","13","11:00","","M","","M","","M","","","7","","20","","","","101.91","","","","","","NA"
"-130.70","54.58","GREY ISLET (AUT)","1063303","2012-02-13 12:00","2012","02","13","12:00","","M","","M","","M","","","7","","24","","","","101.84","","","","","","NA"
"-130.70","54.58","GREY ISLET (AUT)","1063303","2012-02-13 13:00","2012","02","13","13:00","","M","","M","","M","","","6","","26","","","","101.77","","","","","","NA"
"-130.70","54.58","GREY ISLET (AUT)","1063303","2012-02-13 14:00","2012","02","13","14:00","","M","","M","","M","","","6","","26","","","","101.71","","","","","","NA"
"-130.70","54.58","GREY ISLET (AUT)","1063303","2012-02-13 15:00","2012","02","13","15:00","","M","","M","","M","","","6","","26","","","","101.66","","","","","","NA"
"-130.70","54.58","GREY ISLET (AUT)","1063303","2012-02-13 16:00","2012","02","13","16:00","","M","","M","","M","","","6","","32","","","","101.58","","","","","","NA"
"-130.70","54.58","GREY ISLET (AUT)","1063303","2012-02-13 17:00","2012","02","13","17:00","","M","","M","","M","","","6","","39","","","","101.46","","","","","","NA"
"-130.70","54.58","GREY ISLET (AUT)","1063303","2012-02-13 18:00","2012","02","13","18:00","","M","","M","","M","","","5","","44","","","","101.31","","","","","","NA"
"-130.70","54.58","GREY ISLET (AUT)","1063303","2012-02-13 19:00","2012","02","13","19:00","","M","","M","","M","","","6","","48","","","","101.21","","","","","","NA"
"-130.70","54.58","GREY ISLET (AUT)","1063303","2012-02-13 20:00","2012","02","13","20:00","","M","","M","","M","","","5","","41","","","","101.14","","","","","","NA"
"-130.70","54.58","GREY ISLET (AUT)","1063303","2012-02-13 21:00","2012","02","13","21:00","","M","","M","","M","","","6","","46","","","","101.04","","","","","","NA"
"-130.70","54.58","GREY ISLET (AUT)","1063303","2012-02-13 22:00","2012","02","13","22:00","","M","","M","","M","","","6","","50","","","","101.03","","","","","","NA"
"-130.70","54.58","GREY ISLET (AUT)","1063303","2012-02-13 23:00","2012","02","13","23:00","","M","","M","","M","","","6","","44","","","","101.05","","","","","","NA"
"-130.70","54.58","GREY ISLET (AUT)","1063303","2012-02-14 00:00","2012","02","14","00:00","","M","","M","","M","","","6","","43","","","","101.03","","","","","","NA"
"-130.70","54.58","GREY ISLET (AUT)","1063303","2012-02-14 01:00","2012","02","14","01:00","","M","","M","","M","","","6","","46","","","","101.04","","","","","","NA"
"-130.70","54.58","GREY ISLET (AUT)","1063303","2012-02-14 02:00","2012","02","14","02:00","","M","","M","","M","","","6","","46","","","","101.06","","","","","","NA"
"-130.70","54.58","GREY ISLET (AUT)","1063303","2012-02-14 03:00","2012","02","14","03:00","","M","","M","","M","","","6","","46","","","","101.07","","","","","","NA"
"-130.70","54.58","GREY ISLET (AUT)","1063303","2012-02-14 04:00","2012","02","14","04:00","","M","","M","","M","","","5","","46","","","","101.14","","","","","","NA"
"-130.70","54.58","GREY ISLET (AUT)","1063303","2012-02-14 05:00","2012","02","14","05:00","","M","","M","","M","","","6","","41","","","","101.21","","","","","","NA"
"-130.70","54.58","GREY ISLET (AUT)","1063303","2012-02-14 06:00","2012","02","14","06:00","","M","","M","","M","","","6","","32","","","","101.28","","","","","","NA"
"-130.70","54.58","GREY ISLET (AUT)","1063303","2012-02-14 07:00","2012","02","14","07:00","","M","","M","","M","","","8","","22","","","","101.39","","","","","","NA"
"-130.70","54.58","GREY ISLET (AUT)","1063303","2012-02-14 08:00","2012","02","14","08:00","","M","","M","","M","","","5","","30","","","","101.47","","","","","","NA"
"-130.70","54.58","GREY ISLET (AUT)","1063303","2012-02-14 09:00","2012","02","14","09:00","","M","","M","","M","","","7","","43","","","","101.45","","","","","","NA"
"-130.70","54.58","GREY ISLET (AUT)","1063303","2012-02-14 10:00","2012","02","14","10:00","","M","","M","","M","","","3","","24","","","","101.58","","","","","","NA"
"-130.70","54.58","GREY ISLET (AUT)","1063303","2012-02-14 11:00","2012","02","14","11:00","","M","","M","","M","","","5","","20","","","","101.66","","","","","","NA"
"-130.70","54.58","GREY ISLET (AUT)","1063303","2012-02-14 12:00","2012","02","14","12:00","","M","","M","","M","","","34","","9","","","","101.72","","","","","","NA"
"-130.70","54.58","GREY ISLET (AUT)","1063303","2012-02-14 13:00","2012","02","14","13:00","","M","","M","","M","","","5","","15","","","","101.70","","","","","","NA"
"-130.70","54.58","GREY ISLET (AUT)","1063303","2012-02-14 14:00","2012","02","14","14:00","","M","","M","","M","","","6","","30","","","","101.59","","","","","","NA"
"-130.70","54.58","GREY ISLET (AUT)","1063303","2012-02-14 15:00","2012","02","14","15:00","","M","","M","","M","","","4","","19","","","","101.69","","","","","","NA"
"-130.70","54.58","GREY ISLET (AUT)","1063303","2012-02-14 16:00","2012","02","14","16:00","","M","","M","","M","","","33","","7","","","","101.73","","","","","","NA"
"-130.70","54.58","GREY ISLET (AUT)","1063303","2012-02-14 17:00","2012","02","14","17:00","","M","","M","","M","","","35","","9","","","","101.68","","","","","","NA"
"-130.70","54.58","GREY ISLET (AUT)","1063303","2012-02-14 18:00","2012","02","14","18:00","","M","","M","","M","","","32","","7","","","","101.80","","","","","","NA"
"-130.70","54.58","GREY ISLET (AUT)","1063303","2012-02-14 19:00","2012","02","14","19:00","","M","","M","","M","","","33","","4","","","","101.80","","","","","","NA"
"-130.70","54.58","GREY ISLET (AUT)","1063303","2012-02-14 20:00","2012","02","14","20:00","","M","","M","","M","","","3","","4","","","","101.82","","","","","","NA"
"-130.70","54.58","GREY ISLET (AUT)","1063303","2012-02-14 21:00","2012","02","14","21:00","","M","","M","","M","","","6","","19","","","","101.88","","","","","","NA"
"-130.70","54.58","GREY ISLET (AUT)","1063303","2012-02-14 22:00","2012","02","14","22:00","","M","","M","","M","","","6","","22","","","","101.89","","","","","","NA"
"-130.70","54.58","GREY ISLET (AUT)","1063303","2012-02-14 23:00","2012","02","14","23:00","","M","","M","","M","","","6","","24","","","","101.92","","","","","","NA"
"-130.70","54.58","GREY ISLET (AUT)","1063303","2012-02-15 00:00","2012","02","15","00:00","","M","","M","","M","","","6","","28","","","","101.95","","","","","","NA"
"-130.70","54.58","GREY ISLET (AUT)","1063303","2012-02-15 01:00","2012","02","15","01:00","","M","","M","","M","","","8","","26","","","","101.98","","","","","","NA"
"-130.70","54.58","GREY ISLET (AUT)","1063303","2012-02-15 02:00","2012","02","15","02:00","","M","","M","","M","","","7","","30","","","","101.96","","","","","","NA"
"-130.70","54.58","GREY ISLET (AUT)","1063303","2012-02-15 03:00","2012","02","15","03:00","","M","","M","","M","","","6","","33","","","","102.02","","","","","","NA"
"-130.70","54.58","GREY ISLET (AUT)","1063303","2012-02-15 04:00","2012","02","15","04:00","","M","","M","","M","","","7","","33","","","","102.07","","","","","","NA"
"-130.70","54.58","GREY ISLET (AUT)","1063303","2012-02-15 05:00","2012","02","15","05:00","","M","","M","","M","","","7","","32","","","","102.04","","","","","","NA"
"-130.70","54.58","GREY ISLET (AUT)","1063303","2012-02-15 06:00","2012","02","15","06:00","","M","","M","","M","","","6","","32","","","","102.06","","","","","","NA"
"-130.70","54.58","GREY ISLET (AUT)","1063303","2012-02-15 07:00","2012","02","15","07:00","","M","","M","","M","","","7","","35","","","","102.03","","","","","","NA"
"-130.70","54.58","GREY ISLET (AUT)","1063303","2012-02-15 08:00","2012","02","15","08:00","","M","","M","","M","","","7","","37","","","","101.94","","","","","","NA"
"-130.70","54.58","GREY ISLET (AUT)","1063303","2012-02-15 09:00","2012","02","15","09:00","","M","","M","","M","","","7","","39","","","","101.95","","","","","","NA"
"-130.70","54.58","GREY ISLET (AUT)","1063303","2012-02-15 10:00","2012","02","15","10:00","","M","","M","","M","","","7","","37","","","","101.93","","","","","","NA"
"-130.70","54.58","GREY ISLET (AUT)","1063303","2012-02-15 11:00","2012","02","15","11:00","","M","","M","","M","","","7","","33","","","","101.98","","","","","","NA"
"-130.70","54.58","GREY ISLET (AUT)","1063303","2012-02-15 12:00","2012","02","15","12:00","","M","","M","","M","","","7","","37","","","","101.97","","","","","","NA"
"-130.70","54.58","GREY ISLET (AUT)","1063303","2012-02-15 13:00","2012","02","15","13:00","","M","","M","","M","","","7","","41","","","","101.90","","","","","","NA"
"-130.70","54.58","GREY ISLET (AUT)","1063303","2012-02-15 14:00","2012","02","15","14:00","","M","","M","","M","","","7","","35","","","","101.86","","","","","","NA"
"-130.70","54.58","GREY ISLET (AUT)","1063303","2012-02-15 15:00","2012","02","15","15:00","","M","","M","","M","","","8","","26","","","","101.88","","","","","","NA"
"-130.70","54.58","GREY ISLET (AUT)","1063303","2012-02-15 16:00","2012","02","15","16:00","","M","","M","","M","","","7","","22","","","","101.82","","","","","","NA"
"-130.70","54.58","GREY ISLET (AUT)","1063303","2012-02-15 17:00","2012","02","15","17:00","","M","","M","","M","","","7","","37","","","","101.70","","","","","","NA"
"-130.70","54.58","GREY ISLET (AUT)","1063303","2012-02-15 18:00","2012","02","15","18:00","","M","","M","","M","","","8","","30","","","","101.62","","","","","","NA"
"-130.70","54.58","GREY ISLET (AUT)","1063303","2012-02-15 19:00","2012","02","15","19:00","","M","","M","","M","","","6","","37","","","","101.55","","","","","","NA"
"-130.70","54.58","GREY ISLET (AUT)","1063303","2012-02-15 20:00","2012","02","15","20:00","","M","","M","","M","","","8","","22","","","","101.56","","","","","","NA"
"-130.70","54.58","GREY ISLET (AUT)","1063303","2012-02-15 21:00","2012","02","15","21:00","","M","","M","","M","","","7","","37","","","","101.59","","","","","","NA"
"-130.70","54.58","GREY ISLET (AUT)","1063303","2012-02-15 22:00","2012","02","15","22:00","","M","","M","","M","","","7","","33","","","","101.58","","","","","","NA"
"-130.70","54.58","GREY ISLET (AUT)","1063303","2012-02-15 23:00","2012","02","15","23:00","","M","","M","","M","","","7","","28","","","","101.54","","","","","","NA"
"-130.70","54.58","GREY ISLET (AUT)","1063303","2012-02-16 00:00","2012","02","16","00:00","","M","","M","","M","","","6","","41","","","","101.53","","","","","","NA"
"-130.70","54.58","GREY ISLET (AUT)","1063303","2012-02-16 01:00","2012","02","16","01:00","","M","","M","","M","","","6","","35","","","","101.56","","","","","","NA"
"-130.70","54.58","GREY ISLET (AUT)","1063303","2012-02-16 02:00","2012","02","16","02:00","","M","","M","","M","","","7","","30","","","","101.59","","","","","","NA"
"-130.70","54.58","GREY ISLET (AUT)","1063303","2012-02-16 03:00","2012","02","16","03:00","","M","","M","","M","","","7","","30","","","","101.62","","","","","","NA"
"-130.70","54.58","GREY ISLET (AUT)","1063303","2012-02-16 04:00","2012","02","16","04:00","","M","","M","","M","","","7","","26","","","","101.65","","","","","","NA"
"-130.70","54.58","GREY ISLET (AUT)","1063303","2012-02-16 05:00","2012","02","16","05:00","","M","","M","","M","","","8","","26","","","","101.69","","","","","","NA"
"-130.70","54.58","GREY ISLET (AUT)","1063303","2012-02-16 06:00","2012","02","16","06:00","","M","","M","","M","","","7","","28","","","","101.71","","","","","","NA"
"-130.70","54.58","GREY ISLET (AUT)","1063303","2012-02-16 07:00","2012","02","16","07:00","","M","","M","","M","","","7","","22","","","","101.73","","","","","","NA"
"-130.70","54.58","GREY ISLET (AUT)","1063303","2012-02-16 08:00","2012","02","16","08:00","","M","","M","","M","","","6","","28","","","","101.80","","","","","","NA"
"-130.70","54.58","GREY ISLET (AUT)","1063303","2012-02-16 09:00","2012","02","16","09:00","","M","","M","","M","","","7","","26","","","","101.88","","","","","","NA"
"-130.70","54.58","GREY ISLET (AUT)","1063303","2012-02-16 10:00","2012","02","16","10:00","","M","","M","","M","","","7","","24","","","","101.90","","","","","","NA"
"-130.70","54.58","GREY ISLET (AUT)","1063303","2012-02-16 11:00","2012","02","16","11:00","","M","","M","","M","","","8","","22","","","","101.95","","","","","","NA"
"-130.70","54.58","GREY ISLET (AUT)","1063303","2012-02-16 12:00","2012","02","16","12:00","","M","","M","","M","","","7","","24","","","","101.97","","","","","","NA"
"-130.70","54.58","GREY ISLET (AUT)","1063303","2012-02-16 13:00","2012","02","16","13:00","","M","","M","","M","","","7","","22","","","","102.01","","","","","","NA"
"-130.70","54.58","GREY ISLET (AUT)","1063303","2012-02-16 14:00","2012","02","16","14:00","","M","","M","","M","","","7","","30","","","","101.92","","","","","","NA"
"-130.70","54.58","GREY ISLET (AUT)","1063303","2012-02-16 15:00","2012","02","16","15:00","","M","","M","","M","","","6","","24","","","","102.01","","","","","","NA"
"-130.70","54.58","GREY ISLET (AUT)","1063303","2012-02-16 16:00","2012","02","16","16:00","","M","","M","","M","","","6","","30","","","","101.96","","","","","","NA"
"-130.70","54.58","GREY ISLET (AUT)","1063303","2012-02-16 17:00","2012","02","16","17:00","","M","","M","","M","","","7","","30","","","","101.88","","","","","","NA"
"-130.70","54.58","GREY ISLET (AUT)","1063303","2012-02-16 18:00","2012","02","16","18:00","","M","","M","","M","","","7","","26","","","","101.92","","","","","","NA"
"-130.70","54.58","GREY ISLET (AUT)","1063303","2012-02-16 19:00","2012","02","16","19:00","","M","","M","","M","","","7","","32","","","","101.86","","","","","","NA"
"-130.70","54.58","GREY ISLET (AUT)","1063303","2012-02-16 20:00","2012","02","16","20:00","","M","","M","","M","","","7","","32","","","","101.82","","","","","","NA"
"-130.70","54.58","GREY ISLET (AUT)","1063303","2012-02-16 21:00","2012","02","16","21:00","","M","","M","","M","","","7","","24","","","","101.77","","","","","","NA"
"-130.70","54.58","GREY ISLET (AUT)","1063303","2012-02-16 22:00","2012","02","16","22:00","","M","","M","","M","","","8","","26","","","","101.77","","","","","","NA"
"-130.70","54.58","GREY ISLET (AUT)","1063303","2012-02-16 23:00","2012","02","16","23:00","","M","","M","","M","","","7","","32","","","","101.73","","","","","","NA"
"-130.70","54.58","GREY ISLET (AUT)","1063303","2012-02-17 00:00","2012","02","17","00:00","","M","","M","","M","","","8","","30","","","","101.67","","","","","","NA"
"-130.70","54.58","GREY ISLET (AUT)","1063303","2012-02-17 01:00","2012","02","17","01:00","","M","","M","","M","","","6","","37","","","","101.62","","","","","","NA"
"-130.70","54.58","GREY ISLET (AUT)","1063303","2012-02-17 02:00","2012","02","17","02:00","","M","","M","","M","","","7","","33","","","","101.57","","","","","","NA"
"-130.70","54.58","GREY ISLET (AUT)","1063303","2012-02-17 03:00","2012","02","17","03:00","","M","","M","","M","","","6","","33","","","","101.51","","","","","","NA"
"-130.70","54.58","GREY ISLET (AUT)","1063303","2012-02-17 04:00","2012","02","17","04:00","","M","","M","","M","","","6","","39","","","","101.40","","","","","","NA"
"-130.70","54.58","GREY ISLET (AUT)","1063303","2012-02-17 05:00","2012","02","17","05:00","","M","","M","","M","","","6","","39","","","","101.34","","","","","","NA"
"-130.70","54.58","GREY ISLET (AUT)","1063303","2012-02-17 06:00","2012","02","17","06:00","","M","","M","","M","","","5","","44","","","","101.28","","","","","","NA"
"-130.70","54.58","GREY ISLET (AUT)","1063303","2012-02-17 07:00","2012","02","17","07:00","","M","","M","","M","","","6","","41","","","","101.23","","","","","","NA"
"-130.70","54.58","GREY ISLET (AUT)","1063303","2012-02-17 08:00","2012","02","17","08:00","","M","","M","","M","","","5","","44","","","","101.14","","","","","","NA"
"-130.70","54.58","GREY ISLET (AUT)","1063303","2012-02-17 09:00","2012","02","17","09:00","","M","","M","","M","","","5","","52","","","","101.03","","","","","","NA"
"-130.70","54.58","GREY ISLET (AUT)","1063303","2012-02-17 10:00","2012","02","17","10:00","","M","","M","","M","","","5","","59","","","","100.96","","","","","","NA"
"-130.70","54.58","GREY ISLET (AUT)","1063303","2012-02-17 11:00","2012","02","17","11:00","","M","","M","","M","","","5","","56","","","","100.86","","","","","","NA"
"-130.70","54.58","GREY ISLET (AUT)","1063303","2012-02-17 12:00","2012","02","17","12:00","","M","","M","","M","","","5","","54","","","","100.72","","","","","","NA"
"-130.70","54.58","GREY ISLET (AUT)","1063303","2012-02-17 13:00","2012","02","17","13:00","","M","","M","","M","","","5","","52","","","","100.61","","","","","","NA"
"-130.70","54.58","GREY ISLET (AUT)","1063303","2012-02-17 14:00","2012","02","17","14:00","","M","","M","","M","","","4","","54","","","","100.51","","","","","","NA"
"-130.70","54.58","GREY ISLET (AUT)","1063303","2012-02-17 15:00","2012","02","17","15:00","","M","","M","","M","","","4","","52","","","","100.43","","","","","","NA"
"-130.70","54.58","GREY ISLET (AUT)","1063303","2012-02-17 16:00","2012","02","17","16:00","","M","","M","","M","","","5","","48","","","","100.37","","","","","","NA"
"-130.70","54.58","GREY ISLET (AUT)","1063303","2012-02-17 17:00","2012","02","17","17:00","","M","","M","","M","","","6","","30","","","","100.35","","","","","","NA"
"-130.70","54.58","GREY ISLET (AUT)","1063303","2012-02-17 18:00","2012","02","17","18:00","","M","","M","","M","","","6","","32","","","","100.32","","","","","","NA"
"-130.70","54.58","GREY ISLET (AUT)","1063303","2012-02-17 19:00","2012","02","17","19:00","","M","","M","","M","","","5","","32","","","","100.30","","","","","","NA"
"-130.70","54.58","GREY ISLET (AUT)","1063303","2012-02-17 20:00","2012","02","17","20:00","","M","","M","","M","","","2","","20","","","","100.29","","","","","","NA"
"-130.70","54.58","GREY ISLET (AUT)","1063303","2012-02-17 21:00","2012","02","17","21:00","","M","","M","","M","","","1","","28","","","","100.26","","","","","","NA"
"-130.70","54.58","GREY ISLET (AUT)","1063303","2012-02-17 22:00","2012","02","17","22:00","","M","","M","","M","","","36","","26","","","","100.29","","","","","","NA"
"-130.70","54.58","GREY ISLET (AUT)","1063303","2012-02-17 23:00","2012","02","17","23:00","","M","","M","","M","","","35","","24","","","","100.33","","","","","","NA"
"-130.70","54.58","GREY ISLET (AUT)","1063303","2012-02-18 00:00","2012","02","18","00:00","","M","","M","","M","","","35","","22","","","","100.36","","","","","","NA"
"-130.70","54.58","GREY ISLET (AUT)","1063303","2012-02-18 01:00","2012","02","18","01:00","","M","","M","","M","","","34","","17","","","","100.40","","","","","","NA"
"-130.70","54.58","GREY ISLET (AUT)","1063303","2012-02-18 02:00","2012","02","18","02:00","","M","","M","","M","","","35","","15","","","","100.44","","","","","","NA"
"-130.70","54.58","GREY ISLET (AUT)","1063303","2012-02-18 03:00","2012","02","18","03:00","","M","","M","","M","","","34","","15","","","","100.50","","","","","","NA"
"-130.70","54.58","GREY ISLET (AUT)","1063303","2012-02-18 04:00","2012","02","18","04:00","","M","","M","","M","","","35","","22","","","","100.54","","","","","","NA"
"-130.70","54.58","GREY ISLET (AUT)","1063303","2012-02-18 05:00","2012","02","18","05:00","","M","","M","","M","","","1","","15","","","","100.59","","","","","","NA"
"-130.70","54.58","GREY ISLET (AUT)","1063303","2012-02-18 06:00","2012","02","18","06:00","","M","","M","","M","","","34","","22","","","","100.66","","","","","","NA"
"-130.70","54.58","GREY ISLET (AUT)","1063303","2012-02-18 07:00","2012","02","18","07:00","","M","","M","","M","","","33","","22","","","","100.73","","","","","","NA"
"-130.70","54.58","GREY ISLET (AUT)","1063303","2012-02-18 08:00","2012","02","18","08:00","","M","","M","","M","","","32","","30","","","","100.77","","","","","","NA"
"-130.70","54.58","GREY ISLET (AUT)","1063303","2012-02-18 09:00","2012","02","18","09:00","","M","","M","","M","","","32","","32","","","","100.83","","","","","","NA"
"-130.70","54.58","GREY ISLET (AUT)","1063303","2012-02-18 10:00","2012","02","18","10:00","","M","","M","","M","","","31","","30","","","","100.92","","","","","","NA"
"-130.70","54.58","GREY ISLET (AUT)","1063303","2012-02-18 11:00","2012","02","18","11:00","","M","","M","","M","","","32","","35","","","","100.99","","","","","","NA"
"-130.70","54.58","GREY ISLET (AUT)","1063303","2012-02-18 12:00","2012","02","18","12:00","","M","","M","","M","","","30","","28","","","","101.08","","","","","","NA"
"-130.70","54.58","GREY ISLET (AUT)","1063303","2012-02-18 13:00","2012","02","18","13:00","","M","","M","","M","","","30","","26","","","","101.14","","","","","","NA"
"-130.70","54.58","GREY ISLET (AUT)","1063303","2012-02-18 14:00","2012","02","18","14:00","","M","","M","","M","","","31","","22","","","","101.15","","","","","","NA"
"-130.70","54.58","GREY ISLET (AUT)","1063303","2012-02-18 15:00","2012","02","18","15:00","","M","","M","","M","","","31","","22","","","","101.21","","","","","","NA"
"-130.70","54.58","GREY ISLET (AUT)","1063303","2012-02-18 16:00","2012","02","18","16:00","","M","","M","","M","","","28","","13","","","","101.20","","","","","","NA"
"-130.70","54.58","GREY ISLET (AUT)","1063303","2012-02-18 17:00","2012","02","18","17:00","","M","","M","","M","","","26","","15","","","","101.20","","","","","","NA"
"-130.70","54.58","GREY ISLET (AUT)","1063303","2012-02-18 18:00","2012","02","18","18:00","","M","","M","","M","","","25","","19","","","","101.16","","","","","","NA"
"-130.70","54.58","GREY ISLET (AUT)","1063303","2012-02-18 19:00","2012","02","18","19:00","","M","","M","","M","","","26","","19","","","","101.24","","","","","","NA"
"-130.70","54.58","GREY ISLET (AUT)","1063303","2012-02-18 20:00","2012","02","18","20:00"
"-130.70","54.58","GREY ISLET (AUT)","1063303","2012-02-18 21:00","2012","02","18","21:00","","M","","M","","M","","","22","","15","","","","101.25","","","","","","NA"
"-130.70","54.58","GREY ISLET (AUT)","1063303","2012-02-18 22:00","2012","02","18","22:00","","M","","M","","M","","","21","","20","","","","101.25","","","","","","NA"
"-130.70","54.58","GREY ISLET (AUT)","1063303","2012-02-18 23:00","2012","02","18","23:00","","M","","M","","M","","","19","","22","","","","101.18","","","","","","NA"
"-130.70","54.58","GREY ISLET (AUT)","1063303","2012-02-19 00:00","2012","02","19","00:00","","M","","M","","M","","","20","","22","","","","101.21","","","","","","NA"
"-130.70","54.58","GREY ISLET (AUT)","1063303","2012-02-19 01:00","2012","02","19","01:00","","M","","M","","M","","","18","","19","","","","101.15","","","","","","NA"
"-130.70","54.58","GREY ISLET (AUT)","1063303","2012-02-19 02:00","2012","02","19","02:00","","M","","M","","M","","","20","","22","","","","101.13","","","","","","NA"
"-130.70","54.58","GREY ISLET (AUT)","1063303","2012-02-19 03:00","2012","02","19","03:00","","M","","M","","M","","","16","","33","","","","101.01","","","","","","NA"
"-130.70","54.58","GREY ISLET (AUT)","1063303","2012-02-19 04:00","2012","02","19","04:00","","M","","M","","M","","","16","","37","","","","100.94","","","","","","NA"
"-130.70","54.58","GREY ISLET (AUT)","1063303","2012-02-19 05:00","2012","02","19","05:00","","M","","M","","M","","","15","","37","","","","100.91","","","","","","NA"
"-130.70","54.58","GREY ISLET (AUT)","1063303","2012-02-19 06:00","2012","02","19","06:00","","M","","M","","M","","","14","","41","","","","100.86","","","","","","NA"
"-130.70","54.58","GREY ISLET (AUT)","1063303","2012-02-19 07:00","2012","02","19","07:00","","M","","M","","M","","","14","","41","","","","100.80","","","","","","NA"
"-130.70","54.58","GREY ISLET (AUT)","1063303","2012-02-19 08:00","2012","02","19","08:00","","M","","M","","M","","","15","","46","","","","100.72","","","","","","NA"
"-130.70","54.58","GREY ISLET (AUT)","1063303","2012-02-19 09:00","2012","02","19","09:00","","M","","M","","M","","","15","","44","","","","100.68","","","","","","NA"
"-130.70","54.58","GREY ISLET (AUT)","1063303","2012-02-19 10:00","2012","02","19","10:00","","M","","M","","M","","","15","","44","","","","100.68","","","","","","NA"
"-130.70","54.58","GREY ISLET (AUT)","1063303","2012-02-19 11:00","2012","02","19","11:00","","M","","M","","M","","","15","","39","","","","100.66","","","","","","NA"
"-130.70","54.58","GREY ISLET (AUT)","1063303","2012-02-19 12:00","2012","02","19","12:00"
"-130.70","54.58","GREY ISLET (AUT)","1063303","2012-02-19 13:00","2012","02","19","13:00","","M","","M","","M","","","15","","41","","","","100.61","","","","","","NA"
"-130.70","54.58","GREY ISLET (AUT)","1063303","2012-02-19 14:00","2012","02","19","14:00","","M","","M","","M","","","15","","33","","","","100.58","","","","","","NA"
"-130.70","54.58","GREY ISLET (AUT)","1063303","2012-02-19 15:00","2012","02","19","15:00","","M","","M","","M","","","6","","32","","","","100.56","","","","","","NA"
"-130.70","54.58","GREY ISLET (AUT)","1063303","2012-02-19 16:00","2012","02","19","16:00","","M","","M","","M","","","7","","32","","","","100.54","","","","","","NA"
"-130.70","54.58","GREY ISLET (AUT)","1063303","2012-02-19 17:00","2012","02","19","17:00","","M","","M","","M","","","7","","28","","","","100.47","","","","","","NA"
"-130.70","54.58","GREY ISLET (AUT)","1063303","2012-02-19 18:00","2012","02","19","18:00","","M","","M","","M","","","7","","37","","","","100.44","","","","","","NA"
"-130.70","54.58","GREY ISLET (AUT)","1063303","2012-02-19 19:00","2012","02","19","19:00","","M","","M","","M","","","6","","39","","","","100.45","","","","","","NA"
"-130.70","54.58","GREY ISLET (AUT)","1063303","2012-02-19 20:00","2012","02","19","20:00","","M","","M","","M","","","7","","39","","","","100.44","","","","","","NA"
"-130.70","54.58","GREY ISLET (AUT)","1063303","2012-02-19 21:00","2012","02","19","21:00","","M","","M","","M","","","7","","43","","","","100.46","","","","","","NA"
"-130.70","54.58","GREY ISLET (AUT)","1063303","2012-02-19 22:00","2012","02","19","22:00","","M","","M","","M","","","7","","43","","","","100.37","","","","","","NA"
"-130.70","54.58","GREY ISLET (AUT)","1063303","2012-02-19 23:00","2012","02","19","23:00","","M","","M","","M","","","6","","41","","","","100.32","","","","","","NA"
"-130.70","54.58","GREY ISLET (AUT)","1063303","2012-02-20 00:00","2012","02","20","00:00","","M","","M","","M","","","6","","52","","","","100.20","","","","","","NA"
"-130.70","54.58","GREY ISLET (AUT)","1063303","2012-02-20 01:00","2012","02","20","01:00","","M","","M","","M","","","6","","46","","","","100.19","","","","","","NA"
"-130.70","54.58","GREY ISLET (AUT)","1063303","2012-02-20 02:00","2012","02","20","02:00","","M","","M","","M","","","5","","52","","","","100.17","","","","","","NA"
"-130.70","54.58","GREY ISLET (AUT)","1063303","2012-02-20 03:00","2012","02","20","03:00","","M","","M","","M","","","6","","50","","","","100.18","","","","","","NA"
"-130.70","54.58","GREY ISLET (AUT)","1063303","2012-02-20 04:00","2012","02","20","04:00"
"-130.70","54.58","GREY ISLET (AUT)","1063303","2012-02-20 05:00","2012","02","20","05:00","","M","","M","","M","","","6","","39","","","","100.09","","","","","","NA"
"-130.70","54.58","GREY ISLET (AUT)","1063303","2012-02-20 06:00","2012","02","20","06:00","","M","","M","","M","","","7","","35","","","","100.06","","","","","","NA"
"-130.70","54.58","GREY ISLET (AUT)","1063303","2012-02-20 07:00","2012","02","20","07:00","","M","","M","","M","","","6","","39","","","","100.09","","","","","","NA"
"-130.70","54.58","GREY ISLET (AUT)","1063303","2012-02-20 08:00","2012","02","20","08:00","","M","","M","","M","","","7","","35","","","","100.02","","","","","","NA"
"-130.70","54.58","GREY ISLET (AUT)","1063303","2012-02-20 09:00","2012","02","20","09:00","","M","","M","","M","","","7","","32","","","","100.03","","","","","","NA"
"-130.70","54.58","GREY ISLET (AUT)","1063303","2012-02-20 10:00","2012","02","20","10:00","","M","","M","","M","","","10","","28","","","","100.03","","","","","","NA"
"-130.70","54.58","GREY ISLET (AUT)","1063303","2012-02-20 11:00","2012","02","20","11:00","","M","","M","","M","","","14","","26","","","","100.03","","","","","","NA"
"-130.70","54.58","GREY ISLET (AUT)","1063303","2012-02-20 12:00","2012","02","20","12:00","","M","","M","","M","","","15","","28","","","","100.01","","","","","","NA"
"-130.70","54.58","GREY ISLET (AUT)","1063303","2012-02-20 13:00","2012","02","20","13:00","","M","","M","","M","","","15","","37","","","","100.06","","","","","","NA"
"-130.70","54.58","GREY ISLET (AUT)","1063303","2012-02-20 14:00","2012","02","20","14:00","","M","","M","","M","","","14","","39","","","","99.94","","","","","","NA"
"-130.70","54.58","GREY ISLET (AUT)","1063303","2012-02-20 15:00","2012","02","20","15:00","","M","","M","","M","","","14","","41","","","","99.76","","","","","","NA"
"-130.70","54.58","GREY ISLET (AUT)","1063303","2012-02-20 16:00","2012","02","20","16:00","","M","","M","","M","","","16","","39","","","","99.76","","","","","","NA"
"-130.70","54.58","GREY ISLET (AUT)","1063303","2012-02-20 17:00","2012","02","20","17:00","","M","","M","","M","","","16","","43","","","","99.78","","","","","","NA"
"-130.70","54.58","GREY ISLET (AUT)","1063303","2012-02-20 18:00","2012","02","20","18:00","","M","","M","","M","","","16","","46","","","","99.81","","","","","","NA"
"-130.70","54.58","GREY ISLET (AUT)","1063303","2012-02-20 19:00","2012","02","20","19:00","","M","","M","","M","","","17","","54","","","","99.83","","","","","","NA"
"-130.70","54.58","GREY ISLET (AUT)","1063303","2012-02-20 20:00","2012","02","20","20:00","","M","","M","","M","","","22","","30","","","","99.99","","","","","","NA"
"-130.70","54.58","GREY ISLET (AUT)","1063303","2012-02-20 21:00","2012","02","20","21:00","","M","","M","","M","","","24","","37","","","","100.10","","","","","","NA"
"-130.70","54.58","GREY ISLET (AUT)","1063303","2012-02-20 22:00","2012","02","20","22:00","","M","","M","","M","","","24","","24","","","","100.20","","","","","","NA"
"-130.70","54.58","GREY ISLET (AUT)","1063303","2012-02-20 23:00","2012","02","20","23:00","","M","","M","","M","","","28","","26","","","","100.27","","","","","","NA"
"-130.70","54.58","GREY ISLET (AUT)","1063303","2012-02-21 00:00","2012","02","21","00:00","","M","","M","","M","","","23","","26","","","","100.39","","","","","","NA"
"-130.70","54.58","GREY ISLET (AUT)","1063303","2012-02-21 01:00","2012","02","21","01:00","","M","","M","","M","","","22","","22","","","","100.46","","","","","","NA"
"-130.70","54.58","GREY ISLET (AUT)","1063303","2012-02-21 02:00","2012","02","21","02:00","","M","","M","","M","","","23","","33","","","","100.53","","","","","","NA"
"-130.70","54.58","GREY ISLET (AUT)","1063303","2012-02-21 03:00","2012","02","21","03:00","","M","","M","","M","","","22","","26","","","","100.56","","","","","","NA"
"-130.70","54.58","GREY ISLET (AUT)","1063303","2012-02-21 04:00","2012","02","21","04:00","","M","","M","","M","","","20","","30","","","","100.57","","","","","","NA"
"-130.70","54.58","GREY ISLET (AUT)","1063303","2012-02-21 05:00","2012","02","21","05:00","","M","","M","","M","","","21","","22","","","","100.62","","","","","","NA"
"-130.70","54.58","GREY ISLET (AUT)","1063303","2012-02-21 06:00","2012","02","21","06:00","","M","","M","","M","","","21","","22","","","","100.65","","","","","","NA"
"-130.70","54.58","GREY ISLET (AUT)","1063303","2012-02-21 07:00","2012","02","21","07:00","","M","","M","","M","","","23","","22","","","","100.63","","","","","","NA"
"-130.70","54.58","GREY ISLET (AUT)","1063303","2012-02-21 08:00","2012","02","21","08:00","","M","","M","","M","","","19","","19","","","","100.59","","","","","","NA"
"-130.70","54.58","GREY ISLET (AUT)","1063303","2012-02-21 09:00","2012","02","21","09:00","","M","","M","","M","","","15","","19","","","","100.55","","","","","","NA"
"-130.70","54.58","GREY ISLET (AUT)","1063303","2012-02-21 10:00","2012","02","21","10:00","","M","","M","","M","","","15","","26","","","","100.55","","","","","","NA"
"-130.70","54.58","GREY ISLET (AUT)","1063303","2012-02-21 11:00","2012","02","21","11:00","","M","","M","","M","","","16","","33","","","","100.51","","","","","","NA"
"-130.70","54.58","GREY ISLET (AUT)","1063303","2012-02-21 12:00","2012","02","21","12:00","","M","","M","","M","","","15","","33","","","","100.42","","","","","","NA"
"-130.70","54.58","GREY ISLET (AUT)","1063303","2012-02-21 13:00","2012","02","21","13:00","","M","","M","","M","","","16","","39","","","","100.31","","","","","","NA"
"-130.70","54.58","GREY ISLET (AUT)","1063303","2012-02-21 14:00","2012","02","21","14:00","","M","","M","","M","","","16","","35","","","","100.23","","","","","","NA"
"-130.70","54.58","GREY ISLET (AUT)","1063303","2012-02-21 15:00","2012","02","21","15:00","","M","","M","","M","","","16","","39","","","","100.14","","","","","","NA"
"-130.70","54.58","GREY ISLET (AUT)","1063303","2012-02-21 16:00","2012","02","21","16:00","","M","","M","","M","","","16","","35","","","","100.03","","","","","","NA"
"-130.70","54.58","GREY ISLET (AUT)","1063303","2012-02-21 17:00","2012","02","21","17:00","","M","","M","","M","","","17","","46","","","","99.95","","","","","","NA"
"-130.70","54.58","GREY ISLET (AUT)","1063303","2012-02-21 18:00","2012","02","21","18:00","","M","","M","","M","","","20","","50","","","","100.00","","","","","","NA"
"-130.70","54.58","GREY ISLET (AUT)","1063303","2012-02-21 19:00","2012","02","21","19:00","","M","","M","","M","","","22","","39","","","","100.05","","","","","","NA"
"-130.70","54.58","GREY ISLET (AUT)","1063303","2012-02-21 20:00","2012","02","21","20:00","","M","","M","","M","","","21","","41","","","","100.02","","","","","","NA"
"-130.70","54.58","GREY ISLET (AUT)","1063303","2012-02-21 21:00","2012","02","21","21:00","","M","","M","","M","","","19","","28","","","","100.06","","","","","","NA"
"-130.70","54.58","GREY ISLET (AUT)","1063303","2012-02-21 22:00","2012","02","21","22:00","","M","","M","","M","","","18","","43","","","","99.98","","","","","","NA"
"-130.70","54.58","GREY ISLET (AUT)","1063303","2012-02-21 23:00","2012","02","21","23:00","","M","","M","","M","","","22","","33","","","","100.04","","","","","","NA"
"-130.70","54.58","GREY ISLET (AUT)","1063303","2012-02-22 00:00","2012","02","22","00:00","","M","","M","","M","","","19","","39","","","","100.01","","","","","","NA"
"-130.70","54.58","GREY ISLET (AUT)","1063303","2012-02-22 01:00","2012","02","22","01:00","","M","","M","","M","","","19","","37","","","","100.00","","","","","","NA"
"-130.70","54.58","GREY ISLET (AUT)","1063303","2012-02-22 02:00","2012","02","22","02:00","","M","","M","","M","","","21","","41","","","","100.05","","","","","","NA"
"-130.70","54.58","GREY ISLET (AUT)","1063303","2012-02-22 03:00","2012","02","22","03:00","","M","","M","","M","","","24","","32","","","","100.06","","","","","","NA"
"-130.70","54.58","GREY ISLET (AUT)","1063303","2012-02-22 04:00","2012","02","22","04:00","","M","","M","","M","","","21","","24","","","","100.12","","","","","","NA"
"-130.70","54.58","GREY ISLET (AUT)","1063303","2012-02-22 05:00","2012","02","22","05:00","","M","","M","","M","","","20","","28","","","","100.16","","","","","","NA"
"-130.70","54.58","GREY ISLET (AUT)","1063303","2012-02-22 06:00","2012","02","22","06:00","","M","","M","","M","","","22","","32","","","","100.27","","","","","","NA"
"-130.70","54.58","GREY ISLET (AUT)","1063303","2012-02-22 07:00","2012","02","22","07:00","","M","","M","","M","","","24","","20","","","","100.40","","","","","","NA"
"-130.70","54.58","GREY ISLET (AUT)","1063303","2012-02-22 08:00","2012","02","22","08:00","","M","","M","","M","","","24","","15","","","","100.57","","","","","","NA"
"-130.70","54.58","GREY ISLET (AUT)","1063303","2012-02-22 09:00","2012","02","22","09:00","","M","","M","","M","","","28","","17","","","","100.74","","","","","","NA"
"-130.70","54.58","GREY ISLET (AUT)","1063303","2012-02-22 10:00","2012","02","22","10:00","","M","","M","","M","","","32","","28","","","","100.92","","","","","","NA"
"-130.70","54.58","GREY ISLET (AUT)","1063303","2012-02-22 11:00","2012","02","22","11:00","","M","","M","","M","","","31","","33","","","","101.15","","","","","","NA"
"-130.70","54.58","GREY ISLET (AUT)","1063303","2012-02-22 12:00","2012","02","22","12:00","","M","","M","","M","","","31","","32","","","","101.32","","","","","","NA"
"-130.70","54.58","GREY ISLET (AUT)","1063303","2012-02-22 13:00","2012","02","22","13:00","","M","","M","","M","","","30","","35","","","","101.44","","","","","","NA"
"-130.70","54.58","GREY ISLET (AUT)","1063303","2012-02-22 14:00","2012","02","22","14:00","","M","","M","","M","","","30","","37","","","","101.59","","","","","","NA"
"-130.70","54.58","GREY ISLET (AUT)","1063303","2012-02-22 15:00","2012","02","22","15:00","","M","","M","","M","","","28","","32","","","","101.72","","","","","","NA"
"-130.70","54.58","GREY ISLET (AUT)","1063303","2012-02-22 16:00","2012","02","22","16:00","","M","","M","","M","","","27","","30","","","","101.82","","","","","","NA"
"-130.70","54.58","GREY ISLET (AUT)","1063303","2012-02-22 17:00","2012","02","22","17:00","","M","","M","","M","","","28","","24","","","","101.96","","","","","","NA"
"-130.70","54.58","GREY ISLET (AUT)","1063303","2012-02-22 18:00","2012","02","22","18:00","","M","","M","","M","","","29","","28","","","","102.06","","","","","","NA"
"-130.70","54.58","GREY ISLET (AUT)","1063303","2012-02-22 19:00","2012","02","22","19:00","","M","","M","","M","","","27","","20","","","","102.13","","","","","","NA"
"-130.70","54.58","GREY ISLET (AUT)","1063303","2012-02-22 20:00","2012","02","22","20:00","","M","","M","","M","","","29","","24","","","","102.18","","","","","","NA"
"-130.70","54.58","GREY ISLET (AUT)","1063303","2012-02-22 21:00","2012","02","22","21:00","","M","","M","","M","","","29","","26","","","","102.25","","","","","","NA"
"-130.70","54.58","GREY ISLET (AUT)","1063303","2012-02-22 22:00","2012","02","22","22:00","","M","","M","","M","","","25","","11","","","","102.32","","","","","","NA"
"-130.70","54.58","GREY ISLET (AUT)","1063303","2012-02-22 23:00","2012","02","22","23:00","","M","","M","","M","","","26","","20","","","","102.39","","","","","","NA"
"-130.70","54.58","GREY ISLET (AUT)","1063303","2012-02-23 00:00","2012","02","23","00:00","","M","","M","","M","","","25","","17","","","","102.47","","","","","","NA"
"-130.70","54.58","GREY ISLET (AUT)","1063303","2012-02-23 01:00","2012","02","23","01:00","","M","","M","","M","","","27","","20","","","","102.49","","","","","","NA"
"-130.70","54.58","GREY ISLET (AUT)","1063303","2012-02-23 02:00","2012","02","23","02:00","","M","","M","","M","","","25","","22","","","","102.53","","","","","","NA"
"-130.70","54.58","GREY ISLET (AUT)","1063303","2012-02-23 03:00","2012","02","23","03:00","","M","","M","","M","","","23","","15","","","","102.57","","","","","","NA"
"-130.70","54.58","GREY ISLET (AUT)","1063303","2012-02-23 04:00","2012","02","23","04:00","","M","","M","","M","","","26","","15","","","","102.58","","","","","","NA"
"-130.70","54.58","GREY ISLET (AUT)","1063303","2012-02-23 05:00","2012","02","23","05:00","","M","","M","","M","","","20","","2","","","","102.58","","","","","","NA"
"-130.70","54.58","GREY ISLET (AUT)","1063303","2012-02-23 06:00","2012","02","23","06:00","","M","","M","","M","","","22","","13","","","","102.55","","","","","","NA"
"-130.70","54.58","GREY ISLET (AUT)","1063303","2012-02-23 07:00","2012","02","23","07:00","","M","","M","","M","","","23","","19","","","","102.53","","","","","","NA"
"-130.70","54.58","GREY ISLET (AUT)","1063303","2012-02-23 08:00","2012","02","23","08:00","","M","","M","","M","","","24","","7","","","","102.53","","","","","","NA"
"-130.70","54.58","GREY ISLET (AUT)","1063303","2012-02-23 09:00","2012","02","23","09:00","","M","","M","","M","","","26","","7","","","","102.54","","","","","","NA"
"-130.70","54.58","GREY ISLET (AUT)","1063303","2012-02-23 10:00","2012","02","23","10:00","","M","","M","","M","","","27","","4","","","","102.55","","","","","","NA"
"-130.70","54.58","GREY ISLET (AUT)","1063303","2012-02-23 11:00","2012","02","23","11:00","","M","","M","","M","","","","","0","","","","102.56","","","","","","NA"
"-130.70","54.58","GREY ISLET (AUT)","1063303","2012-02-23 12:00","2012","02","23","12:00","","M","","M","","M","","","19","","6","","","","102.54","","","","","","NA"
"-130.70","54.58","GREY ISLET (AUT)","1063303","2012-02-23 13:00","2012","02","23","13:00","","M","","M","","M","","","18","","6","","","","102.51","","","","","","NA"
"-130.70","54.58","GREY ISLET (AUT)","1063303","2012-02-23 14:00","2012","02","23","14:00","","M","","M","","M","","","15","","17","","","","102.45","","","","","","NA"
"-130.70","54.58","GREY ISLET (AUT)","1063303","2012-02-23 15:00","2012","02","23","15:00","","M","","M","","M","","","14","","20","","","","102.38","","","","","","NA"
"-130.70","54.58","GREY ISLET (AUT)","1063303","2012-02-23 16:00","2012","02","23","16:00","","M","","M","","M","","","14","","17","","","","102.33","","","","","","NA"
"-130.70","54.58","GREY ISLET (AUT)","1063303","2012-02-23 17:00","2012","02","23","17:00","","M","","M","","M","","","17","","17","","","","102.25","","","","","","NA"
"-130.70","54.58","GREY ISLET (AUT)","1063303","2012-02-23 18:00","2012","02","23","18:00","","M","","M","","M","","","13","","13","","","","102.17","","","","","","NA"
"-130.70","54.58","GREY ISLET (AUT)","1063303","2012-02-23 19:00","2012","02","23","19:00","","M","","M","","M","","","9","","11","","","","102.11","","","","","","NA"
"-130.70","54.58","GREY ISLET (AUT)","1063303","2012-02-23 20:00","2012","02","23","20:00","","M","","M","","M","","","7","","20","","","","101.96","","","","","","NA"
"-130.70","54.58","GREY ISLET (AUT)","1063303","2012-02-23 21:00","2012","02","23","21:00","","M","","M","","M","","","7","","22","","","","101.88","","","","","","NA"
"-130.70","54.58","GREY ISLET (AUT)","1063303","2012-02-23 22:00","2012","02","23","22:00","","M","","M","","M","","","6","","35","","","","101.76","","","","","","NA"
"-130.70","54.58","GREY ISLET (AUT)","1063303","2012-02-23 23:00","2012","02","23","23:00","","M","","M","","M","","","6","","43","","","","101.64","","","","","","NA"
"-130.70","54.58","GREY ISLET (AUT)","1063303","2012-02-24 00:00","2012","02","24","00:00","","M","","M","","M","","","5","","43","","","","101.50","","","","","","NA"
"-130.70","54.58","GREY ISLET (AUT)","1063303","2012-02-24 01:00","2012","02","24","01:00","","M","","M","","M","","","5","","48","","","","101.38","","","","","","NA"
"-130.70","54.58","GREY ISLET (AUT)","1063303","2012-02-24 02:00","2012","02","24","02:00","","M","","M","","M","","","5","","48","","","","101.23","","","","","","NA"
"-130.70","54.58","GREY ISLET (AUT)","1063303","2012-02-24 03:00","2012","02","24","03:00","","M","","M","","M","","","5","","46","","","","101.01","","","","","","NA"
"-130.70","54.58","GREY ISLET (AUT)","1063303","2012-02-24 04:00","2012","02","24","04:00","","M","","M","","M","","","5","","52","","","","100.77","","","","","","NA"
"-130.70","54.58","GREY ISLET (AUT)","1063303","2012-02-24 05:00","2012","02","24","05:00","","M","","M","","M","","","5","","52","","","","100.55","","","","","","NA"
"-130.70","54.58","GREY ISLET (AUT)","1063303","2012-02-24 06:00","2012","02","24","06:00","","M","","M","","M","","","5","","52","","","","100.38","","","","","","NA"
"-130.70","54.58","GREY ISLET (AUT)","1063303","2012-02-24 07:00","2012","02","24","07:00","","M","","M","","M","","","5","","52","","","","100.22","","","","","","NA"
"-130.70","54.58","GREY ISLET (AUT)","1063303","2012-02-24 08:00","2012","02","24","08:00","","M","","M","","M","","","5","","57","","","","100.07","","","","","","NA"
"-130.70","54.58","GREY ISLET (AUT)","1063303","2012-02-24 09:00","2012","02","24","09:00","","M","","M","","M","","","4","","54","","","","99.97","","","","","","NA"
"-130.70","54.58","GREY ISLET (AUT)","1063303","2012-02-24 10:00","2012","02","24","10:00","","M","","M","","M","","","4","","52","","","","99.92","","","","","","NA"
"-130.70","54.58","GREY ISLET (AUT)","1063303","2012-02-24 11:00","2012","02","24","11:00","","M","","M","","M","","","4","","54","","","","99.88","","","","","","NA"
"-130.70","54.58","GREY ISLET (AUT)","1063303","2012-02-24 12:00","2012","02","24","12:00","","M","","M","","M","","","3","","46","","","","99.89","","","","","","NA"
"-130.70","54.58","GREY ISLET (AUT)","1063303","2012-02-24 13:00","2012","02","24","13:00","","M","","M","","M","","","2","","41","","","","99.88","","","","","","NA"
"-130.70","54.58","GREY ISLET (AUT)","1063303","2012-02-24 14:00","2012","02","24","14:00","","M","","M","","M","","","2","","37","","","","99.87","","","","","","NA"
"-130.70","54.58","GREY ISLET (AUT)","1063303","2012-02-24 15:00","2012","02","24","15:00","","M","","M","","M","","","1","","37","","","","99.90","","","","","","NA"
"-130.70","54.58","GREY ISLET (AUT)","1063303","2012-02-24 16:00","2012","02","24","16:00","","M","","M","","M","","","34","","32","","","","99.95","","","","","","NA"
"-130.70","54.58","GREY ISLET (AUT)","1063303","2012-02-24 17:00","2012","02","24","17:00","","M","","M","","M","","","35","","28","","","","99.99","","","","","","NA"
"-130.70","54.58","GREY ISLET (AUT)","1063303","2012-02-24 18:00","2012","02","24","18:00","","M","","M","","M","","","35","","32","","","","100.04","","","","","","NA"
"-130.70","54.58","GREY ISLET (AUT)","1063303","2012-02-24 19:00","2012","02","24","19:00","","M","","M","","M","","","35","","33","","","","100.11","","","","","","NA"
"-130.70","54.58","GREY ISLET (AUT)","1063303","2012-02-24 20:00","2012","02","24","20:00","","M","","M","","M","","","34","","33","","","","100.17","","","","","","NA"
"-130.70","54.58","GREY ISLET (AUT)","1063303","2012-02-24 21:00","2012","02","24","21:00","","M","","M","","M","","","35","","35","","","","100.25","","","","","","NA"
"-130.70","54.58","GREY ISLET (AUT)","1063303","2012-02-24 22:00","2012","02","24","22:00","","M","","M","","M","","","35","","30","","","","100.34","","","","","","NA"
"-130.70","54.58","GREY ISLET (AUT)","1063303","2012-02-24 23:00","2012","02","24","23:00","","M","","M","","M","","","34","","30","","","","100.43","","","","","","NA"
"-130.70","54.58","GREY ISLET (AUT)","1063303","2012-02-25 00:00","2012","02","25","00:00","","M","","M","","M","","","35","","32","","","","100.55","","","","","","NA"
"-130.70","54.58","GREY ISLET (AUT)","1063303","2012-02-25 01:00","2012","02","25","01:00","","M","","M","","M","","","34","","37","","","","100.64","","","","","","NA"
"-130.70","54.58","GREY ISLET (AUT)","1063303","2012-02-25 02:00","2012","02","25","02:00","","M","","M","","M","","","35","","32","","","","100.78","","","","","","NA"
"-130.70","54.58","GREY ISLET (AUT)","1063303","2012-02-25 03:00","2012","02","25","03:00","","M","","M","","M","","","34","","39","","","","100.89","","","","","","NA"
"-130.70","54.58","GREY ISLET (AUT)","1063303","2012-02-25 04:00","2012","02","25","04:00","","M","","M","","M","","","35","","30","","","","101.01","","","","","","NA"
"-130.70","54.58","GREY ISLET (AUT)","1063303","2012-02-25 05:00","2012","02","25","05:00","","M","","M","","M","","","35","","28","","","","101.10","","","","","","NA"
"-130.70","54.58","GREY ISLET (AUT)","1063303","2012-02-25 06:00","2012","02","25","06:00","","M","","M","","M","","","34","","35","","","","101.20","","","","","","NA"
"-130.70","54.58","GREY ISLET (AUT)","1063303","2012-02-25 07:00","2012","02","25","07:00","","M","","M","","M","","","34","","32","","","","101.32","","","","","","NA"
"-130.70","54.58","GREY ISLET (AUT)","1063303","2012-02-25 08:00","2012","02","25","08:00","","M","","M","","M","","","34","","32","","","","101.40","","","","","","NA"
"-130.70","54.58","GREY ISLET (AUT)","1063303","2012-02-25 09:00","2012","02","25","09:00","","M","","M","","M","","","35","","30","","","","101.51","","","","","","NA"
"-130.70","54.58","GREY ISLET (AUT)","1063303","2012-02-25 10:00","2012","02","25","10:00","","M","","M","","M","","","34","","32","","","","101.59","","","","","","NA"
"-130.70","54.58","GREY ISLET (AUT)","1063303","2012-02-25 11:00","2012","02","25","11:00","","M","","M","","M","","","34","","32","","","","101.69","","","","","","NA"
"-130.70","54.58","GREY ISLET (AUT)","1063303","2012-02-25 12:00","2012","02","25","12:00","","M","","M","","M","","","32","","30","","","","101.76","","","","","","NA"
"-130.70","54.58","GREY ISLET (AUT)","1063303","2012-02-25 13:00","2012","02","25","13:00","","M","","M","","M","","","33","","30","","","","101.82","","","","","","NA"
"-130.70","54.58","GREY ISLET (AUT)","1063303","2012-02-25 14:00","2012","02","25","14:00","","M","","M","","M","","","33","","26","","","","101.86","","","","","","NA"
"-130.70","54.58","GREY ISLET (AUT)","1063303","2012-02-25 15:00","2012","02","25","15:00","","M","","M","","M","","","33","","24","","","","101.94","","","","","","NA"
"-130.70","54.58","GREY ISLET (AUT)","1063303","2012-02-25 16:00","2012","02","25","16:00","","M","","M","","M","","","33","","26","","","","102.00","","","","","","NA"
"-130.70","54.58","GREY ISLET (AUT)","1063303","2012-02-25 17:00","2012","02","25","17:00","","M","","M","","M","","","33","","30","","","","102.05","","","","","","NA"
"-130.70","54.58","GREY ISLET (AUT)","1063303","2012-02-25 18:00","2012","02","25","18:00","","M","","M","","M","","","33","","32","","","","102.09","","","","","","NA"
"-130.70","54.58","GREY ISLET (AUT)","1063303","2012-02-25 19:00","2012","02","25","19:00","","M","","M","","M","","","34","","35","","","","102.16","","","","","","NA"
"-130.70","54.58","GREY ISLET (AUT)","1063303","2012-02-25 20:00","2012","02","25","20:00","","M","","M","","M","","","35","","26","","","","102.24","","","","","","NA"
"-130.70","54.58","GREY ISLET (AUT)","1063303","2012-02-25 21:00","2012","02","25","21:00","","M","","M","","M","","","35","","26","","","","102.31","","","","","","NA"
"-130.70","54.58","GREY ISLET (AUT)","1063303","2012-02-25 22:00","2012","02","25","22:00","","M","","M","","M","","","35","","26","","","","102.40","","","","","","NA"
"-130.70","54.58","GREY ISLET (AUT)","1063303","2012-02-25 23:00","2012","02","25","23:00","","M","","M","","M","","","36","","26","","","","102.45","","","","","","NA"
"-130.70","54.58","GREY ISLET (AUT)","1063303","2012-02-26 00:00","2012","02","26","00:00","","M","","M","","M","","","1","","19","","","","102.51","","","","","","NA"
"-130.70","54.58","GREY ISLET (AUT)","1063303","2012-02-26 01:00","2012","02","26","01:00","","M","","M","","M","","","1","","19","","","","102.59","","","","","","NA"
"-130.70","54.58","GREY ISLET (AUT)","1063303","2012-02-26 02:00","2012","02","26","02:00","","M","","M","","M","","","2","","17","","","","102.66","","","","","","NA"
"-130.70","54.58","GREY ISLET (AUT)","1063303","2012-02-26 03:00","2012","02","26","03:00","","M","","M","","M","","","3","","20","","","","102.72","","","","","","NA"
"-130.70","54.58","GREY ISLET (AUT)","1063303","2012-02-26 04:00","2012","02","26","04:00","","M","","M","","M","","","2","","20","","","","102.76","","","","","","NA"
"-130.70","54.58","GREY ISLET (AUT)","1063303","2012-02-26 05:00","2012","02","26","05:00","","M","","M","","M","","","1","","19","","","","102.77","","","","","","NA"
"-130.70","54.58","GREY ISLET (AUT)","1063303","2012-02-26 06:00","2012","02","26","06:00","","M","","M","","M","","","2","","26","","","","102.81","","","","","","NA"
"-130.70","54.58","GREY ISLET (AUT)","1063303","2012-02-26 07:00","2012","02","26","07:00","","M","","M","","M","","","3","","24","","","","102.82","","","","","","NA"
"-130.70","54.58","GREY ISLET (AUT)","1063303","2012-02-26 08:00","2012","02","26","08:00","","M","","M","","M","","","3","","24","","","","102.83","","","","","","NA"
"-130.70","54.58","GREY ISLET (AUT)","1063303","2012-02-26 09:00","2012","02","26","09:00","","M","","M","","M","","","4","","26","","","","102.87","","","","","","NA"
"-130.70","54.58","GREY ISLET (AUT)","1063303","2012-02-26 10:00","2012","02","26","10:00","","M","","M","","M","","","4","","24","","","","102.92","","","","","","NA"
"-130.70","54.58","GREY ISLET (AUT)","1063303","2012-02-26 11:00","2012","02","26","11:00","","M","","M","","M","","","1","","9","","","","102.92","","","","","","NA"
"-130.70","54.58","GREY ISLET (AUT)","1063303","2012-02-26 12:00","2012","02","26","12:00","","M","","M","","M","","","2","","7","","","","102.91","","","","","","NA"
"-130.70","54.58","GREY ISLET (AUT)","1063303","2012-02-26 13:00","2012","02","26","13:00","","M","","M","","M","","","5","","7","","","","102.86","","","","","","NA"
"-130.70","54.58","GREY ISLET (AUT)","1063303","2012-02-26 14:00","2012","02","26","14:00","","M","","M","","M","","","3","","7","","","","102.83","","","","","","NA"
"-130.70","54.58","GREY ISLET (AUT)","1063303","2012-02-26 15:00","2012","02","26","15:00","","M","","M","","M","","","33","","11","","","","102.79","","","","","","NA"
"-130.70","54.58","GREY ISLET (AUT)","1063303","2012-02-26 16:00","2012","02","26","16:00","","M","","M","","M","","","34","","13","","","","102.79","","","","","","NA"
"-130.70","54.58","GREY ISLET (AUT)","1063303","2012-02-26 17:00","2012","02","26","17:00","","M","","M","","M","","","31","","11","","","","102.72","","","","","","NA"
"-130.70","54.58","GREY ISLET (AUT)","1063303","2012-02-26 18:00","2012","02","26","18:00","","M","","M","","M","","","31","","4","","","","102.63","","","","","","NA"
"-130.70","54.58","GREY ISLET (AUT)","1063303","2012-02-26 19:00","2012","02","26","19:00","","M","","M","","M","","","28","","4","","","","102.61","","","","","","NA"
"-130.70","54.58","GREY ISLET (AUT)","1063303","2012-02-26 20:00","2012","02","26","20:00","","M","","M","","M","","","20","","2","","","","102.54","","","","","","NA"
"-130.70","54.58","GREY ISLET (AUT)","1063303","2012-02-26 21:00","2012","02","26","21:00","","M","","M","","M","","","14","","2","","","","102.49","","","","","","NA"
"-130.70","54.58","GREY ISLET (AUT)","1063303","2012-02-26 22:00","2012","02","26","22:00","","M","","M","","M","","","15","","6","","","","102.42","","","","","","NA"
"-130.70","54.58","GREY ISLET (AUT)","1063303","2012-02-26 23:00","2012","02","26","23:00","","M","","M","","M","","","15","","11","","","","102.38","","","","","","NA"
"-130.70","54.58","GREY ISLET (AUT)","1063303","2012-02-27 00:00","2012","02","27","00:00","","M","","M","","M","","","14","","13","","","","102.28","","","","","","NA"
"-130.70","54.58","GREY ISLET (AUT)","1063303","2012-02-27 01:00","2012","02","27","01:00","","M","","M","","M","","","17","","17","","","","102.16","","","","","","NA"
"-130.70","54.58","GREY ISLET (AUT)","1063303","2012-02-27 02:00","2012","02","27","02:00","","M","","M","","M","","","17","","19","","","","102.07","","","","","","NA"
"-130.70","54.58","GREY ISLET (AUT)","1063303","2012-02-27 03:00","2012","02","27","03:00","","M","","M","","M","","","16","","26","","","","101.96","","","","","","NA"
"-130.70","54.58","GREY ISLET (AUT)","1063303","2012-02-27 04:00","2012","02","27","04:00","","M","","M","","M","","","16","","32","","","","101.87","","","","","","NA"
"-130.70","54.58","GREY ISLET (AUT)","1063303","2012-02-27 05:00","2012","02","27","05:00","","M","","M","","M","","","16","","30","","","","101.75","","","","","","NA"
"-130.70","54.58","GREY ISLET (AUT)","1063303","2012-02-27 06:00","2012","02","27","06:00","","M","","M","","M","","","15","","28","","","","101.64","","","","","","NA"
"-130.70","54.58","GREY ISLET (AUT)","1063303","2012-02-27 07:00","2012","02","27","07:00","","M","","M","","M","","","15","","37","","","","101.50","","","","","","NA"
"-130.70","54.58","GREY ISLET (AUT)","1063303","2012-02-27 08:00","2012","02","27","08:00","","M","","M","","M","","","15","","44","","","","101.34","","","","","","NA"
"-130.70","54.58","GREY ISLET (AUT)","1063303","2012-02-27 09:00","2012","02","27","09:00","","M","","M","","M","","","15","","48","","","","101.17","","","","","","NA"
"-130.70","54.58","GREY ISLET (AUT)","1063303","2012-02-27 10:00","2012","02","27","10:00","","M","","M","","M","","","14","","44","","","","101.10","","","","","","NA"
"-130.70","54.58","GREY ISLET (AUT)","1063303","2012-02-27 11:00","2012","02","27","11:00","","M","","M","","M","","","15","","46","","","","100.97","","","","","","NA"
"-130.70","54.58","GREY ISLET (AUT)","1063303","2012-02-27 12:00","2012","02","27","12:00","","M","","M","","M","","","15","","48","","","","100.85","","","","","","NA"
"-130.70","54.58","GREY ISLET (AUT)","1063303","2012-02-27 13:00","2012","02","27","13:00","","M","","M","","M","","","15","","48","","","","100.70","","","","","","NA"
"-130.70","54.58","GREY ISLET (AUT)","1063303","2012-02-27 14:00","2012","02","27","14:00","","M","","M","","M","","","14","","54","","","","100.53","","","","","","NA"
"-130.70","54.58","GREY ISLET (AUT)","1063303","2012-02-27 15:00","2012","02","27","15:00","","M","","M","","M","","","15","","52","","","","100.36","","","","","","NA"
"-130.70","54.58","GREY ISLET (AUT)","1063303","2012-02-27 16:00","2012","02","27","16:00","","M","","M","","M","","","15","","54","","","","100.24","","","","","","NA"
"-130.70","54.58","GREY ISLET (AUT)","1063303","2012-02-27 17:00","2012","02","27","17:00","","M","","M","","M","","","15","","56","","","","100.11","","","","","","NA"
"-130.70","54.58","GREY ISLET (AUT)","1063303","2012-02-27 18:00","2012","02","27","18:00","","M","","M","","M","","","15","","57","","","","100.03","","","","","","NA"
"-130.70","54.58","GREY ISLET (AUT)","1063303","2012-02-27 19:00","2012","02","27","19:00","","M","","M","","M","","","15","","44","","","","100.05","","","","","","NA"
"-130.70","54.58","GREY ISLET (AUT)","1063303","2012-02-27 20:00","2012","02","27","20:00","","M","","M","","M","","","16","","50","","","","100.04","","","","","","NA"
"-130.70","54.58","GREY ISLET (AUT)","1063303","2012-02-27 21:00","2012","02","27","21:00","","M","","M","","M","","","16","","41","","","","100.00","","","","","","NA"
"-130.70","54.58","GREY ISLET (AUT)","1063303","2012-02-27 22:00","2012","02","27","22:00","","M","","M","","M","","","14","","30","","","","100.00","","","","","","NA"
"-130.70","54.58","GREY ISLET (AUT)","1063303","2012-02-27 23:00","2012","02","27","23:00","","M","","M","","M","","","12","","20","","","","100.00","","","","","","NA"
"-130.70","54.58","GREY ISLET (AUT)","1063303","2012-02-28 00:00","2012","02","28","00:00","","M","","M","","M","","","13","","24","","","","99.93","","","","","","NA"
"-130.70","54.58","GREY ISLET (AUT)","1063303","2012-02-28 01:00","2012","02","28","01:00","","M","","M","","M","","","14","","39","","","","99.88","","","","","","NA"
"-130.70","54.58","GREY ISLET (AUT)","1063303","2012-02-28 02:00","2012","02","28","02:00","","M","","M","","M","","","15","","37","","","","99.85","","","","","","NA"
"-130.70","54.58","GREY ISLET (AUT)","1063303","2012-02-28 03:00","2012","02","28","03:00","","M","","M","","M","","","14","","26","","","","99.85","","","","","","NA"
"-130.70","54.58","GREY ISLET (AUT)","1063303","2012-02-28 04:00","2012","02","28","04:00","","M","","M","","M","","","7","","30","","","","99.83","","","","","","NA"
"-130.70","54.58","GREY ISLET (AUT)","1063303","2012-02-28 05:00","2012","02","28","05:00","","M","","M","","M","","","14","","24","","","","99.80","","","","","","NA"
"-130.70","54.58","GREY ISLET (AUT)","1063303","2012-02-28 06:00","2012","02","28","06:00","","M","","M","","M","","","7","","32","","","","99.80","","","","","","NA"
"-130.70","54.58","GREY ISLET (AUT)","1063303","2012-02-28 07:00","2012","02","28","07:00","","M","","M","","M","","","7","","33","","","","99.80","","","","","","NA"
"-130.70","54.58","GREY ISLET (AUT)","1063303","2012-02-28 08:00","2012","02","28","08:00","","M","","M","","M","","","6","","37","","","","99.80","","","","","","NA"
"-130.70","54.58","GREY ISLET (AUT)","1063303","2012-02-28 09:00","2012","02","28","09:00","","M","","M","","M","","","6","","44","","","","99.78","","","","","","NA"
"-130.70","54.58","GREY ISLET (AUT)","1063303","2012-02-28 10:00","2012","02","28","10:00","","M","","M","","M","","","6","","46","","","","99.79","","","","","","NA"
"-130.70","54.58","GREY ISLET (AUT)","1063303","2012-02-28 11:00","2012","02","28","11:00","","M","","M","","M","","","6","","41","","","","99.82","","","","","","NA"
"-130.70","54.58","GREY ISLET (AUT)","1063303","2012-02-28 12:00","2012","02","28","12:00","","M","","M","","M","","","6","","44","","","","99.83","","","","","","NA"
"-130.70","54.58","GREY ISLET (AUT)","1063303","2012-02-28 13:00","2012","02","28","13:00","","M","","M","","M","","","6","","44","","","","99.82","","","","","","NA"
"-130.70","54.58","GREY ISLET (AUT)","1063303","2012-02-28 14:00","2012","02","28","14:00","","M","","M","","M","","","6","","44","","","","99.79","","","","","","NA"
"-130.70","54.58","GREY ISLET (AUT)","1063303","2012-02-28 15:00","2012","02","28","15:00","","M","","M","","M","","","5","","46","","","","99.74","","","","","","NA"
"-130.70","54.58","GREY ISLET (AUT)","1063303","2012-02-28 16:00","2012","02","28","16:00","","M","","M","","M","","","5","","44","","","","99.73","","","","","","NA"
"-130.70","54.58","GREY ISLET (AUT)","1063303","2012-02-28 17:00","2012","02","28","17:00","","M","","M","","M","","","5","","48","","","","99.70","","","","","","NA"
"-130.70","54.58","GREY ISLET (AUT)","1063303","2012-02-28 18:00","2012","02","28","18:00","","M","","M","","M","","","5","","46","","","","99.69","","","","","","NA"
"-130.70","54.58","GREY ISLET (AUT)","1063303","2012-02-28 19:00","2012","02","28","19:00","","M","","M","","M","","","5","","46","","","","99.65","","","","","","NA"
"-130.70","54.58","GREY ISLET (AUT)","1063303","2012-02-28 20:00","2012","02","28","20:00","","M","","M","","M","","","5","","44","","","","99.61","","","","","","NA"
"-130.70","54.58","GREY ISLET (AUT)","1063303","2012-02-28 21:00","2012","02","28","21:00","","M","","M","","M","","","5","","44","","","","99.58","","","","","","NA"
"-130.70","54.58","GREY ISLET (AUT)","1063303","2012-02-28 22:00","2012","02","28","22:00","","M","","M","","M","","","5","","44","","","","99.57","","","","","","NA"
"-130.70","54.58","GREY ISLET (AUT)","1063303","2012-02-28 23:00","2012","02","28","23:00","","M","","M","","M","","","6","","44","","","","99.53","","","","","","NA"
"-130.70","54.58","GREY ISLET (AUT)","1063303","2012-02-29 00:00","2012","02","29","00:00","","M","","M","","M","","","6","","44","","","","99.52","","","","","","NA"
"-130.70","54.58","GREY ISLET (AUT)","1063303","2012-02-29 01:00","2012","02","29","01:00","","M","","M","","M","","","6","","44","","","","99.52","","","","","","NA"
"-130.70","54.58","GREY ISLET (AUT)","1063303","2012-02-29 02:00","2012","02","29","02:00","","M","","M","","M","","","6","","44","","","","99.52","","","","","","NA"
"-130.70","54.58","GREY ISLET (AUT)","1063303","2012-02-29 03:00","2012","02","29","03:00","","M","","M","","M","","","5","","43","","","","99.53","","","","","","NA"
"-130.70","54.58","GREY ISLET (AUT)","1063303","2012-02-29 04:00","2012","02","29","04:00","","M","","M","","M","","","6","","46","","","","99.52","","","","","","NA"
"-130.70","54.58","GREY ISLET (AUT)","1063303","2012-02-29 05:00","2012","02","29","05:00","","M","","M","","M","","","6","","41","","","","99.55","","","","","","NA"
"-130.70","54.58","GREY ISLET (AUT)","1063303","2012-02-29 06:00","2012","02","29","06:00","","M","","M","","M","","","6","","30","","","","99.58","","","","","","NA"
"-130.70","54.58","GREY ISLET (AUT)","1063303","2012-02-29 07:00","2012","02","29","07:00","","M","","M","","M","","","5","","35","","","","99.58","","","","","","NA"
"-130.70","54.58","GREY ISLET (AUT)","1063303","2012-02-29 08:00","2012","02","29","08:00","","M","","M","","M","","","6","","30","","","","99.60","","","","","","NA"
"-130.70","54.58","GREY ISLET (AUT)","1063303","2012-02-29 09:00","2012","02","29","09:00","","M","","M","","M","","","6","","30","","","","99.66","","","","","","NA"
"-130.70","54.58","GREY ISLET (AUT)","1063303","2012-02-29 10:00","2012","02","29","10:00","","M","","M","","M","","","6","","30","","","","99.70","","","","","","NA"
"-130.70","54.58","GREY ISLET (AUT)","1063303","2012-02-29 11:00","2012","02","29","11:00","","M","","M","","M","","","5","","26","","","","99.76","","","","","","NA"
"-130.70","54.58","GREY ISLET (AUT)","1063303","2012-02-29 12:00","2012","02","29","12:00","","M","","M","","M","","","4","","22","","","","99.84","","","","","","NA"
"-130.70","54.58","GREY ISLET (AUT)","1063303","2012-02-29 13:00","2012","02","29","13:00","","M","","M","","M","","","4","","17","","","","99.91","","","","","","NA"
"-130.70","54.58","GREY ISLET (AUT)","1063303","2012-02-29 14:00","2012","02","29","14:00","","M","","M","","M","","","36","","6","","","","99.97","","","","","","NA"
"-130.70","54.58","GREY ISLET (AUT)","1063303","2012-02-29 15:00","2012","02","29","15:00","","M","","M","","M","","","35","","9","","","","100.05","","","","","","NA"
"-130.70","54.58","GREY ISLET (AUT)","1063303","2012-02-29 16:00","2012","02","29","16:00","","M","","M","","M","","","32","","15","","","","100.13","","","","","","NA"
"-130.70","54.58","GREY ISLET (AUT)","1063303","2012-02-29 17:00","2012","02","29","17:00","","M","","M","","M","","","33","","15","","","","100.21","","","","","","NA"
"-130.70","54.58","GREY ISLET (AUT)","1063303","2012-02-29 18:00","2012","02","29","18:00","","M","","M","","M","","","31","","15","","","","100.28","","","","","","NA"
"-130.70","54.58","GREY ISLET (AUT)","1063303","2012-02-29 19:00","2012","02","29","19:00","","M","","M","","M","","","30","","13","","","","100.36","","","","","","NA"
"-130.70","54.58","GREY ISLET (AUT)","1063303","2012-02-29 20:00","2012","02","29","20:00","","M","","M","","M","","","29","","15","","","","100.43","","","","","","NA"
"-130.70","54.58","GREY ISLET (AUT)","1063303","2012-02-29 21:00","2012","02","29","21:00","","M","","M","","M","","","31","","9","","","","100.53","","","","","","NA"
"-130.70","54.58","GREY ISLET (AUT)","1063303","2012-02-29 22:00","2012","02","29","22:00","","M","","M","","M","","","33","","7","","","","100.64","","","","","","NA"
"-130.70","54.58","GREY ISLET (AUT)","1063303","2012-02-29 23:00","2012","02","29","23:00","","M","","M","","M","","","31","","7","","","","100.71","","","","","","NA"
