"Longitude (x)","Latitude (y)","Station Name","Climate ID","Date/Time (LST)","Year","Month","Day","Time (LST)","Temp (°C)","Temp Flag","Dew Point Temp (°C)","Dew Point Temp Flag","Rel Hum (%)","Rel Hum Flag","Precip. Amount (mm)","Precip. Amount Flag","Wind Dir (10s deg)","Wind Dir Flag","Wind Spd (km/h)","Wind Spd Flag","Visibility (km)","Visibility Flag","Stn Press (kPa)","Stn Press Flag","Hmdx","Hmdx Flag","Wind Chill","Wind Chill Flag","Weather"
"-130.70","54.58","GREY ISLET (AUT)","1063303","2019-02-01 00:00","2019","02","01","00:00","4.8","","3.9","","94","","2.2","","9","","22","","","","99.44","","","","","","NA"
"-130.70","54.58","GREY ISLET (AUT)","1063303","2019-02-01 01:00","2019","02","01","01:00","4.4","","3.6","","94","","1.0","","7","","27","","","","99.43","","","","","","NA"
"-130.70","54.58","GREY ISLET (AUT)","1063303","2019-02-01 02:00","2019","02","01","02:00","4.1","","3.3","","94","","0.2","","6","","31","","","","99.40","","","","","","NA"
"-130.70","54.58","GREY ISLET (AUT)","1063303","2019-02-01 03:00","2019","02","01","03:00","4.1","","3.2","","94","","0.4","","6","","27","","","","99.40","","","","","","NA"
"-130.70","54.58","GREY ISLET (AUT)","1063303","2019-02-01 04:00","2019","02","01","04:00","3.9","","3.0","","94","","0.0","","4","","23","","","","99.42","","","","","","NA"
"-130.70","54.58","GREY ISLET (AUT)","1063303","2019-02-01 05:00","2019","02","01","05:00","4.0","","3.3","","95","","0.4","","36","","18","","","","99.41","","","","","","NA"
"-130.70","54.58","GREY ISLET (AUT)","1063303","2019-02-01 06:00","2019","02","01","06:00","3.9","","3.2","","95","","0.0","","4","","10","","","","99.39","","","","","","NA"
"-130.70","54.58","GREY ISLET (AUT)","1063303","2019-02-01 07:00","2019","02","01","07:00","4.0","","2.9","","93","","0.0","","33","","16","","","","99.38","","","","","","NA"
"-130.70","54.58","GREY ISLET (AUT)","1063303","2019-02-01 08:00","2019","02","01","08:00","4.2","","3.1","","93","","0.0","","31","","22","","","","99.38","","","","","","NA"
"-130.70","54.58","GREY ISLET (AUT)","1063303","2019-02-01 09:00","2019","02","01","09:00","3.6","","2.2","","91","","0.2","","33","","37","","","","99.42","","","","","","NA"
"-130.70","54.58","GREY ISLET (AUT)","1063303","2019-02-01 10:00","2019","02","01","10:00","2.9","","1.6","","91","","0.0","","32","","35","","","","99.46","","","","","","NA"
"-130.70","54.58","GREY ISLET (AUT)","1063303","2019-02-01 11:00","2019","02","01","11:00","2.7","","0.4","","85","","0.0","","32","","36","","","","99.48","","","","","","NA"
"-130.70","54.58","GREY ISLET (AUT)","1063303","2019-02-01 12:00","2019","02","01","12:00","2.6","","-0.8","","78","","0.0","","31","","28","","","","99.55","","","","","","NA"
"-130.70","54.58","GREY ISLET (AUT)","1063303","2019-02-01 13:00","2019","02","01","13:00","2.4","","-2.0","","73","","0.0","","30","","31","","","","99.55","","","","","","NA"
"-130.70","54.58","GREY ISLET (AUT)","1063303","2019-02-01 14:00","2019","02","01","14:00","1.9","","-2.8","","71","","0.0","","30","","26","","","","99.59","","","","","","NA"
"-130.70","54.58","GREY ISLET (AUT)","1063303","2019-02-01 15:00","2019","02","01","15:00","1.3","","-4.0","","68","","0.0","","31","","32","","","","99.63","","","","","","NA"
"-130.70","54.58","GREY ISLET (AUT)","1063303","2019-02-01 16:00","2019","02","01","16:00","0.5","","-5.8","","62","","0.0","","31","","38","","","","99.74","","","","","","NA"
"-130.70","54.58","GREY ISLET (AUT)","1063303","2019-02-01 17:00","2019","02","01","17:00","0.2","","-5.7","","65","","","","31","","38","","","","99.81","","","","","","NA"
"-130.70","54.58","GREY ISLET (AUT)","1063303","2019-02-01 18:00","2019","02","01","18:00","-0.3","","-6.8","","61","","","","31","","34","","","","99.85","","","","-7","","NA"
"-130.70","54.58","GREY ISLET (AUT)","1063303","2019-02-01 19:00","2019","02","01","19:00","-0.6","","-7.2","","61","","","","32","","33","","","","99.91","","","","-8","","NA"
"-130.70","54.58","GREY ISLET (AUT)","1063303","2019-02-01 20:00","2019","02","01","20:00","-1.5","","-8.7","","58","","","","30","","31","","","","99.93","","","","-9","","NA"
"-130.70","54.58","GREY ISLET (AUT)","1063303","2019-02-01 21:00","2019","02","01","21:00","-1.8","","-8.7","","59","","","","30","","32","","","","100.03","","","","-9","","NA"
"-130.70","54.58","GREY ISLET (AUT)","1063303","2019-02-01 22:00","2019","02","01","22:00","-2.4","","-8.5","","63","","","","31","","42","","","","100.15","","","","-11","","NA"
"-130.70","54.58","GREY ISLET (AUT)","1063303","2019-02-01 23:00","2019","02","01","23:00","-3.1","","-9.7","","60","","","","30","","33","","","","100.19","","","","-11","","NA"
"-130.70","54.58","GREY ISLET (AUT)","1063303","2019-02-02 00:00","2019","02","02","00:00","-3.2","","-8.7","","66","","","","31","","32","","","","100.30","","","","-11","","NA"
"-130.70","54.58","GREY ISLET (AUT)","1063303","2019-02-02 01:00","2019","02","02","01:00","-4.0","","-9.4","","66","","","","33","","30","","","","100.41","","","","-12","","NA"
"-130.70","54.58","GREY ISLET (AUT)","1063303","2019-02-02 02:00","2019","02","02","02:00","-4.1","","-10.5","","61","","","","31","","23","","","","100.49","","","","-11","","NA"
"-130.70","54.58","GREY ISLET (AUT)","1063303","2019-02-02 03:00","2019","02","02","03:00","-4.3","","-9.6","","66","","","","33","","15","","","","100.61","","","","-10","","NA"
"-130.70","54.58","GREY ISLET (AUT)","1063303","2019-02-02 04:00","2019","02","02","04:00","-4.0","","-9.0","","68","","","","33","","16","","","","100.65","","","","-10","","NA"
"-130.70","54.58","GREY ISLET (AUT)","1063303","2019-02-02 05:00","2019","02","02","05:00","-4.0","","-6.1","","85","","","","1","","24","","","","100.69","","","","-11","","NA"
"-130.70","54.58","GREY ISLET (AUT)","1063303","2019-02-02 06:00","2019","02","02","06:00","-3.8","","-7.2","","77","","","","4","","56","","","","100.71","","","","-14","","NA"
"-130.70","54.58","GREY ISLET (AUT)","1063303","2019-02-02 07:00","2019","02","02","07:00","-4.3","","-7.4","","79","","","","4","","60","","","","100.79","","","","-15","","NA"
"-130.70","54.58","GREY ISLET (AUT)","1063303","2019-02-02 08:00","2019","02","02","08:00","-4.9","","-8.2","","78","","","","4","","65","","","","100.82","","","","-16","","NA"
"-130.70","54.58","GREY ISLET (AUT)","1063303","2019-02-02 09:00","2019","02","02","09:00","-5.2","","-7.9","","81","","","","4","","68","","","","100.92","","","","-16","","NA"
"-130.70","54.58","GREY ISLET (AUT)","1063303","2019-02-02 10:00","2019","02","02","10:00","-5.5","","-7.9","","83","","","","4","","77","","","","100.96","","","","-17","","NA"
"-130.70","54.58","GREY ISLET (AUT)","1063303","2019-02-02 11:00","2019","02","02","11:00","-5.4","","-7.5","","85","","","","4","","77","","","","101.04","","","","-17","","NA"
"-130.70","54.58","GREY ISLET (AUT)","1063303","2019-02-02 12:00","2019","02","02","12:00","-5.7","","-8.1","","83","","","","4","","75","","","","101.10","","","","-18","","NA"
"-130.70","54.58","GREY ISLET (AUT)","1063303","2019-02-02 13:00","2019","02","02","13:00","-6.2","","-8.9","","81","","","","4","","81","","","","101.11","","","","-19","","NA"
"-130.70","54.58","GREY ISLET (AUT)","1063303","2019-02-02 14:00","2019","02","02","14:00","-5.9","","-8.3","","83","","","","4","","78","","","","101.15","","","","-18","","NA"
"-130.70","54.58","GREY ISLET (AUT)","1063303","2019-02-02 15:00","2019","02","02","15:00","-6.6","","-9.1","","83","","","","4","","78","","","","101.19","","","","-19","","NA"
"-130.70","54.58","GREY ISLET (AUT)","1063303","2019-02-02 16:00","2019","02","02","16:00","-6.9","","-9.4","","83","","","","4","","76","","","","101.22","","","","-19","","NA"
"-130.70","54.58","GREY ISLET (AUT)","1063303","2019-02-02 17:00","2019","02","02","17:00","-7.2","","-9.6","","83","","","","4","","80","","","","101.24","","","","-20","","NA"
"-130.70","54.58","GREY ISLET (AUT)","1063303","2019-02-02 18:00","2019","02","02","18:00","-7.6","","-9.8","","84","","","","4","","84","","","","101.26","","","","-21","","NA"
"-130.70","54.58","GREY ISLET (AUT)","1063303","2019-02-02 19:00","2019","02","02","19:00","-7.8","","-10.1","","83","","","","4","","83","","","","101.31","","","","-21","","NA"
"-130.70","54.58","GREY ISLET (AUT)","1063303","2019-02-02 20:00","2019","02","02","20:00","-8.1","","-10.2","","84","","","","4","","85","","","","101.37","","","","-22","","NA"
"-130.70","54.58","GREY ISLET (AUT)","1063303","2019-02-02 21:00","2019","02","02","21:00","-8.8","","-11.2","","83","","","","4","","84","","","","101.43","","","","-23","","NA"
"-130.70","54.58","GREY ISLET (AUT)","1063303","2019-02-02 22:00","2019","02","02","22:00","-8.6","","-10.7","","85","","","","4","","82","","","","101.44","","","","-22","","NA"
"-130.70","54.58","GREY ISLET (AUT)","1063303","2019-02-02 23:00","2019","02","02","23:00","-8.9","","-11.1","","84","","","","5","","83","","","","101.50","","","","-23","","NA"
"-130.70","54.58","GREY ISLET (AUT)","1063303","2019-02-03 00:00","2019","02","03","00:00","-8.7","","-10.7","","86","","","","4","","83","","","","101.53","","","","-22","","NA"
"-130.70","54.58","GREY ISLET (AUT)","1063303","2019-02-03 01:00","2019","02","03","01:00","-9.0","","-11.2","","84","","","","4","","75","","","","101.62","","","","-22","","NA"
"-130.70","54.58","GREY ISLET (AUT)","1063303","2019-02-03 02:00","2019","02","03","02:00","-8.8","","-10.9","","84","","","","4","","77","","","","101.63","","","","-22","","NA"
"-130.70","54.58","GREY ISLET (AUT)","1063303","2019-02-03 03:00","2019","02","03","03:00","-8.9","","-11.3","","83","","","","3","","73","","","","101.68","","","","-22","","NA"
"-130.70","54.58","GREY ISLET (AUT)","1063303","2019-02-03 04:00","2019","02","03","04:00","-8.1","","-10.3","","85","","","","3","","79","","","","101.63","","","","-21","","NA"
"-130.70","54.58","GREY ISLET (AUT)","1063303","2019-02-03 05:00","2019","02","03","05:00","-8.7","","-11.4","","81","","","","3","","72","","","","101.68","","","","-22","","NA"
"-130.70","54.58","GREY ISLET (AUT)","1063303","2019-02-03 06:00","2019","02","03","06:00","-8.9","","-11.7","","80","","","","3","","66","","","","101.73","","","","-22","","NA"
"-130.70","54.58","GREY ISLET (AUT)","1063303","2019-02-03 07:00","2019","02","03","07:00","-7.9","","-10.4","","82","","","","3","","73","","","","101.73","","","","-21","","NA"
"-130.70","54.58","GREY ISLET (AUT)","1063303","2019-02-03 08:00","2019","02","03","08:00","-8.3","","-11.2","","79","","","","3","","69","","","","101.79","","","","-21","","NA"
"-130.70","54.58","GREY ISLET (AUT)","1063303","2019-02-03 09:00","2019","02","03","09:00","-7.5","","-10.7","","78","","","","3","","67","","","","101.87","","","","-20","","NA"
"-130.70","54.58","GREY ISLET (AUT)","1063303","2019-02-03 10:00","2019","02","03","10:00","-7.4","","-10.8","","76","","","","3","","73","","","","101.83","","","","-20","","NA"
"-130.70","54.58","GREY ISLET (AUT)","1063303","2019-02-03 11:00","2019","02","03","11:00","-7.1","","-10.5","","77","","","","3","","74","","","","101.83","","","","-20","","NA"
"-130.70","54.58","GREY ISLET (AUT)","1063303","2019-02-03 12:00","2019","02","03","12:00","-6.0","","-9.9","","74","","","","3","","68","","","","101.85","","","","-18","","NA"
"-130.70","54.58","GREY ISLET (AUT)","1063303","2019-02-03 13:00","2019","02","03","13:00","-5.6","","-10.5","","68","","","","3","","64","","","","101.87","","","","-17","","NA"
"-130.70","54.58","GREY ISLET (AUT)","1063303","2019-02-03 14:00","2019","02","03","14:00","-5.0","","-11.3","","61","","","","3","","61","","","","101.80","","","","-16","","NA"
"-130.70","54.58","GREY ISLET (AUT)","1063303","2019-02-03 15:00","2019","02","03","15:00","-4.9","","-12.2","","57","","","","4","","64","","","","101.79","","","","-16","","NA"
"-130.70","54.58","GREY ISLET (AUT)","1063303","2019-02-03 16:00","2019","02","03","16:00","-4.6","","-11.1","","61","","","","4","","67","","","","101.80","","","","-16","","NA"
"-130.70","54.58","GREY ISLET (AUT)","1063303","2019-02-03 17:00","2019","02","03","17:00","-4.3","","-11.1","","59","","","","4","","59","","","","101.82","","","","-15","","NA"
"-130.70","54.58","GREY ISLET (AUT)","1063303","2019-02-03 18:00","2019","02","03","18:00","-4.0","","-10.4","","61","","","","4","","62","","","","101.82","","","","-14","","NA"
"-130.70","54.58","GREY ISLET (AUT)","1063303","2019-02-03 19:00","2019","02","03","19:00","-3.8","","-10.3","","61","","","","4","","61","","","","101.82","","","","-14","","NA"
"-130.70","54.58","GREY ISLET (AUT)","1063303","2019-02-03 20:00","2019","02","03","20:00","-3.6","","-11.4","","55","","","","3","","50","","","","101.89","","","","-13","","NA"
"-130.70","54.58","GREY ISLET (AUT)","1063303","2019-02-03 21:00","2019","02","03","21:00","-3.4","","-10.0","","60","","","","3","","52","","","","101.88","","","","-13","","NA"
"-130.70","54.58","GREY ISLET (AUT)","1063303","2019-02-03 22:00","2019","02","03","22:00","-3.9","","-11.5","","56","","","","3","","59","","","","101.87","","","","-14","","NA"
"-130.70","54.58","GREY ISLET (AUT)","1063303","2019-02-03 23:00","2019","02","03","23:00","-3.4","","-10.4","","58","","","","3","","54","","","","101.89","","","","-13","","NA"
"-130.70","54.58","GREY ISLET (AUT)","1063303","2019-02-04 00:00","2019","02","04","00:00","-3.2","","-9.5","","62","","","","2","","44","","","","101.95","","","","-12","","NA"
"-130.70","54.58","GREY ISLET (AUT)","1063303","2019-02-04 01:00","2019","02","04","01:00","-3.0","","-9.3","","62","","","","4","","44","","","","101.90","","","","-12","","NA"
"-130.70","54.58","GREY ISLET (AUT)","1063303","2019-02-04 02:00","2019","02","04","02:00","-3.3","","-10.1","","59","","","","4","","43","","","","101.89","","","","-12","","NA"
"-130.70","54.58","GREY ISLET (AUT)","1063303","2019-02-04 03:00","2019","02","04","03:00","-3.5","","-10.3","","59","","","","3","","48","","","","101.88","","","","-13","","NA"
"-130.70","54.58","GREY ISLET (AUT)","1063303","2019-02-04 04:00","2019","02","04","04:00","-3.6","","-9.6","","63","","","","4","","49","","","","101.84","","","","-13","","NA"
"-130.70","54.58","GREY ISLET (AUT)","1063303","2019-02-04 05:00","2019","02","04","05:00","-3.4","","-8.5","","68","","","","3","","59","","","","101.78","","","","-13","","NA"
"-130.70","54.58","GREY ISLET (AUT)","1063303","2019-02-04 06:00","2019","02","04","06:00","-3.5","","-9.8","","62","","","","4","","46","","","","101.85","","","","-13","","NA"
"-130.70","54.58","GREY ISLET (AUT)","1063303","2019-02-04 07:00","2019","02","04","07:00","-3.6","","-8.6","","68","","","","4","","49","","","","101.79","","","","-13","","NA"
"-130.70","54.58","GREY ISLET (AUT)","1063303","2019-02-04 08:00","2019","02","04","08:00","-4.1","","-8.5","","72","","","","4","","40","","","","101.77","","","","-13","","NA"
"-130.70","54.58","GREY ISLET (AUT)","1063303","2019-02-04 09:00","2019","02","04","09:00","-3.7","","-7.5","","75","","","","4","","45","","","","101.77","","","","-13","","NA"
"-130.70","54.58","GREY ISLET (AUT)","1063303","2019-02-04 10:00","2019","02","04","10:00","-4.0","","-8.0","","74","","","","4","","42","","","","101.75","","","","-13","","NA"
"-130.70","54.58","GREY ISLET (AUT)","1063303","2019-02-04 11:00","2019","02","04","11:00","-3.7","","-7.3","","76","","","","5","","44","","","","101.73","","","","-13","","NA"
"-130.70","54.58","GREY ISLET (AUT)","1063303","2019-02-04 12:00","2019","02","04","12:00","-3.6","","-7.6","","73","","","","5","","42","","","","101.69","","","","-12","","NA"
"-130.70","54.58","GREY ISLET (AUT)","1063303","2019-02-04 13:00","2019","02","04","13:00","-2.8","","-6.7","","74","","","","5","","40","","","","101.63","","","","-11","","NA"
"-130.70","54.58","GREY ISLET (AUT)","1063303","2019-02-04 14:00","2019","02","04","14:00","-2.7","","-8.2","","66","","","","5","","32","","","","101.54","","","","-10","","NA"
"-130.70","54.58","GREY ISLET (AUT)","1063303","2019-02-04 15:00","2019","02","04","15:00","-2.6","","-8.1","","66","","","","5","","34","","","","101.49","","","","-10","","NA"
"-130.70","54.58","GREY ISLET (AUT)","1063303","2019-02-04 16:00","2019","02","04","16:00","-2.5","","-6.7","","73","","","","5","","38","","","","101.42","","","","-11","","NA"
"-130.70","54.58","GREY ISLET (AUT)","1063303","2019-02-04 17:00","2019","02","04","17:00","-2.4","","-6.1","","75","","","","6","","44","","","","101.36","","","","-11","","NA"
"-130.70","54.58","GREY ISLET (AUT)","1063303","2019-02-04 18:00","2019","02","04","18:00","-3.0","","-5.2","","85","","","","5","","42","","","","101.35","","","","-12","","NA"
"-130.70","54.58","GREY ISLET (AUT)","1063303","2019-02-04 19:00","2019","02","04","19:00","-3.1","","-4.5","","90","","","","5","","49","","","","101.29","","","","-12","","NA"
"-130.70","54.58","GREY ISLET (AUT)","1063303","2019-02-04 20:00","2019","02","04","20:00","-3.0","","-4.1","","92","","","","5","","52","","","","101.26","","","","-12","","NA"
"-130.70","54.58","GREY ISLET (AUT)","1063303","2019-02-04 21:00","2019","02","04","21:00","-3.0","","-4.0","","93","","","","4","","47","","","","101.25","","","","-12","","NA"
"-130.70","54.58","GREY ISLET (AUT)","1063303","2019-02-04 22:00","2019","02","04","22:00","-3.0","","-4.6","","89","","","","4","","49","","","","101.28","","","","-12","","NA"
"-130.70","54.58","GREY ISLET (AUT)","1063303","2019-02-04 23:00","2019","02","04","23:00","-3.1","","-5.3","","85","","","","4","","51","","","","101.28","","","","-12","","NA"
"-130.70","54.58","GREY ISLET (AUT)","1063303","2019-02-05 00:00","2019","02","05","00:00","-2.8","","-5.7","","81","","","","4","","52","","","","101.29","","","","-12","","NA"
"-130.70","54.58","GREY ISLET (AUT)","1063303","2019-02-05 01:00","2019","02","05","01:00","-2.9","","-5.9","","80","","","","4","","50","","","","101.38","","","","-12","","NA"
"-130.70","54.58","GREY ISLET (AUT)","1063303","2019-02-05 02:00","2019","02","05","02:00","-3.1","","-5.9","","81","","","","4","","48","","","","101.37","","","","-12","","NA"
"-130.70","54.58","GREY ISLET (AUT)","1063303","2019-02-05 03:00","2019","02","05","03:00","-3.3","","-6.3","","80","","","","4","","48","","","","101.39","","","","-12","","NA"
"-130.70","54.58","GREY ISLET (AUT)","1063303","2019-02-05 04:00","2019","02","05","04:00","-2.7","","-6.1","","78","","","","4","","42","","","","101.44","","","","-11","","NA"
"-130.70","54.58","GREY ISLET (AUT)","1063303","2019-02-05 05:00","2019","02","05","05:00","-3.0","","-7.0","","74","","","","4","","36","","","","101.49","","","","-11","","NA"
"-130.70","54.58","GREY ISLET (AUT)","1063303","2019-02-05 06:00","2019","02","05","06:00","-3.4","","-6.9","","77","","","","5","","49","","","","101.50","","","","-13","","NA"
"-130.70","54.58","GREY ISLET (AUT)","1063303","2019-02-05 07:00","2019","02","05","07:00","-3.0","","-6.5","","77","","","","3","","33","","","","101.59","","","","-11","","NA"
"-130.70","54.58","GREY ISLET (AUT)","1063303","2019-02-05 08:00","2019","02","05","08:00","-3.3","","-6.4","","79","","","","4","","41","","","","101.64","","","","-12","","NA"
"-130.70","54.58","GREY ISLET (AUT)","1063303","2019-02-05 09:00","2019","02","05","09:00","-2.8","","-6.3","","77","","","","3","","37","","","","101.67","","","","-11","","NA"
"-130.70","54.58","GREY ISLET (AUT)","1063303","2019-02-05 10:00","2019","02","05","10:00","-2.4","","-5.2","","81","","","","4","","43","","","","101.69","","","","-11","","NA"
"-130.70","54.58","GREY ISLET (AUT)","1063303","2019-02-05 11:00","2019","02","05","11:00","-2.8","","-5.7","","81","","","","4","","48","","","","101.70","","","","-12","","NA"
"-130.70","54.58","GREY ISLET (AUT)","1063303","2019-02-05 12:00","2019","02","05","12:00","-2.1","","-5.3","","79","","","","5","","40","","","","101.75","","","","-10","","NA"
"-130.70","54.58","GREY ISLET (AUT)","1063303","2019-02-05 13:00","2019","02","05","13:00","-1.4","","-4.9","","77","","","","5","","37","","","","101.78","","","","-9","","NA"
"-130.70","54.58","GREY ISLET (AUT)","1063303","2019-02-05 14:00","2019","02","05","14:00","-0.9","","-4.6","","76","","","","5","","34","","","","101.78","","","","-8","","NA"
"-130.70","54.58","GREY ISLET (AUT)","1063303","2019-02-05 15:00","2019","02","05","15:00","-0.8","","-5.0","","73","","","","5","","24","","","","101.81","","","","-7","","NA"
"-130.70","54.58","GREY ISLET (AUT)","1063303","2019-02-05 16:00","2019","02","05","16:00","-0.2","","-4.2","","74","","","","4","","21","","","","101.80","","","","-6","","NA"
"-130.70","54.58","GREY ISLET (AUT)","1063303","2019-02-05 17:00","2019","02","05","17:00","-0.3","","-5.2","","70","","","","5","","22","","","","101.84","","","","-6","","NA"
"-130.70","54.58","GREY ISLET (AUT)","1063303","2019-02-05 18:00","2019","02","05","18:00","-0.3","","-4.9","","71","","","","5","","24","","","","101.83","","","","-6","","NA"
"-130.70","54.58","GREY ISLET (AUT)","1063303","2019-02-05 19:00","2019","02","05","19:00","-0.4","","-5.0","","71","","","","5","","29","","","","101.85","","","","-7","","NA"
"-130.70","54.58","GREY ISLET (AUT)","1063303","2019-02-05 20:00","2019","02","05","20:00","-0.5","","-4.5","","74","","","","6","","34","","","","101.88","","","","-8","","NA"
"-130.70","54.58","GREY ISLET (AUT)","1063303","2019-02-05 21:00","2019","02","05","21:00","-0.3","","-4.0","","76","","","","5","","36","","","","101.89","","","","-7","","NA"
"-130.70","54.58","GREY ISLET (AUT)","1063303","2019-02-05 22:00","2019","02","05","22:00","-0.1","","-3.8","","76","","","","7","","25","","","","101.87","","","","-6","","NA"
"-130.70","54.58","GREY ISLET (AUT)","1063303","2019-02-05 23:00","2019","02","05","23:00","-0.1","","-3.6","","77","","","","6","","28","","","","101.91","","","","-6","","NA"
"-130.70","54.58","GREY ISLET (AUT)","1063303","2019-02-06 00:00","2019","02","06","00:00","-0.3","","-3.9","","77","","","","6","","28","","","","101.94","","","","-7","","NA"
"-130.70","54.58","GREY ISLET (AUT)","1063303","2019-02-06 01:00","2019","02","06","01:00","0.0","","-3.6","","77","","","","6","","30","","","","101.96","","","","-6","","NA"
"-130.70","54.58","GREY ISLET (AUT)","1063303","2019-02-06 02:00","2019","02","06","02:00","0.2","","-3.2","","78","","","","6","","30","","","","101.97","","","","","","NA"
"-130.70","54.58","GREY ISLET (AUT)","1063303","2019-02-06 03:00","2019","02","06","03:00","0.0","","-2.7","","82","","","","6","","34","","","","101.97","","","","-7","","NA"
"-130.70","54.58","GREY ISLET (AUT)","1063303","2019-02-06 04:00","2019","02","06","04:00","-0.3","","-2.0","","88","","","","6","","39","","","","101.95","","","","-8","","NA"
"-130.70","54.58","GREY ISLET (AUT)","1063303","2019-02-06 05:00","2019","02","06","05:00","0.0","","-1.4","","91","","","","5","","39","","","","101.97","","","","-7","","NA"
"-130.70","54.58","GREY ISLET (AUT)","1063303","2019-02-06 06:00","2019","02","06","06:00","-0.3","","-1.5","","91","","","","6","","42","","","","101.97","","","","-8","","NA"
"-130.70","54.58","GREY ISLET (AUT)","1063303","2019-02-06 07:00","2019","02","06","07:00","-0.9","","-2.0","","92","","","","6","","48","","","","101.96","","","","-9","","NA"
"-130.70","54.58","GREY ISLET (AUT)","1063303","2019-02-06 08:00","2019","02","06","08:00","-0.7","","-1.7","","93","","","","6","","46","","","","101.97","","","","-9","","NA"
"-130.70","54.58","GREY ISLET (AUT)","1063303","2019-02-06 09:00","2019","02","06","09:00","-1.0","","-1.7","","95","","","","6","","46","","","","101.99","","","","-9","","NA"
"-130.70","54.58","GREY ISLET (AUT)","1063303","2019-02-06 10:00","2019","02","06","10:00","-1.0","","-1.6","","96","","","","6","","48","","","","102.04","","","","-9","","NA"
"-130.70","54.58","GREY ISLET (AUT)","1063303","2019-02-06 11:00","2019","02","06","11:00","-0.7","","-1.2","","96","","","","6","","44","","","","102.06","","","","-9","","NA"
"-130.70","54.58","GREY ISLET (AUT)","1063303","2019-02-06 12:00","2019","02","06","12:00","-0.6","","-1.0","","97","","","","6","","45","","","","102.09","","","","-9","","NA"
"-130.70","54.58","GREY ISLET (AUT)","1063303","2019-02-06 13:00","2019","02","06","13:00","-0.2","","-0.7","","97","","","","6","","44","","","","102.08","","","","-8","","NA"
"-130.70","54.58","GREY ISLET (AUT)","1063303","2019-02-06 14:00","2019","02","06","14:00","0.3","","-0.2","","97","","","","6","","38","","","","102.07","","","","","","NA"
"-130.70","54.58","GREY ISLET (AUT)","1063303","2019-02-06 15:00","2019","02","06","15:00","0.4","","-0.1","","96","","","","6","","36","","","","102.07","","","","","","NA"
"-130.70","54.58","GREY ISLET (AUT)","1063303","2019-02-06 16:00","2019","02","06","16:00","0.4","","-0.1","","97","","","","6","","38","","","","102.10","","","","","","NA"
"-130.70","54.58","GREY ISLET (AUT)","1063303","2019-02-06 17:00","2019","02","06","17:00","0.6","","0.1","","97","","0.6","","6","","37","","","","102.13","","","","","","NA"
"-130.70","54.58","GREY ISLET (AUT)","1063303","2019-02-06 18:00","2019","02","06","18:00","0.7","","0.2","","96","","0.6","","6","","37","","","","102.13","","","","","","NA"
"-130.70","54.58","GREY ISLET (AUT)","1063303","2019-02-06 19:00","2019","02","06","19:00","0.9","","0.3","","96","","0.4","","6","","34","","","","102.16","","","","","","NA"
"-130.70","54.58","GREY ISLET (AUT)","1063303","2019-02-06 20:00","2019","02","06","20:00","0.8","","0.2","","96","","0.8","","6","","37","","","","102.18","","","","","","NA"
"-130.70","54.58","GREY ISLET (AUT)","1063303","2019-02-06 21:00","2019","02","06","21:00","0.8","","0.3","","96","","0.4","","6","","36","","","","102.18","","","","","","NA"
"-130.70","54.58","GREY ISLET (AUT)","1063303","2019-02-06 22:00","2019","02","06","22:00","0.7","","0.2","","96","","1.0","","6","","38","","","","102.22","","","","","","NA"
"-130.70","54.58","GREY ISLET (AUT)","1063303","2019-02-06 23:00","2019","02","06","23:00","0.9","","0.4","","96","","0.8","","6","","36","","","","102.23","","","","","","NA"
"-130.70","54.58","GREY ISLET (AUT)","1063303","2019-02-07 00:00","2019","02","07","00:00","1.1","","0.6","","96","","0.8","","6","","36","","","","102.27","","","","","","NA"
"-130.70","54.58","GREY ISLET (AUT)","1063303","2019-02-07 01:00","2019","02","07","01:00","1.2","","0.6","","96","","0.8","","6","","33","","","","102.29","","","","","","NA"
"-130.70","54.58","GREY ISLET (AUT)","1063303","2019-02-07 02:00","2019","02","07","02:00","1.3","","0.7","","96","","0.2","","6","","31","","","","102.30","","","","","","NA"
"-130.70","54.58","GREY ISLET (AUT)","1063303","2019-02-07 03:00","2019","02","07","03:00","1.5","","0.9","","96","","0.4","","7","","30","","","","102.34","","","","","","NA"
"-130.70","54.58","GREY ISLET (AUT)","1063303","2019-02-07 04:00","2019","02","07","04:00","1.4","","0.7","","95","","0.0","","6","","32","","","","102.35","","","","","","NA"
"-130.70","54.58","GREY ISLET (AUT)","1063303","2019-02-07 05:00","2019","02","07","05:00","1.5","","0.8","","96","","0.2","","6","","35","","","","102.34","","","","","","NA"
"-130.70","54.58","GREY ISLET (AUT)","1063303","2019-02-07 06:00","2019","02","07","06:00","1.4","","0.7","","95","","0.0","","6","","35","","","","102.37","","","","","","NA"
"-130.70","54.58","GREY ISLET (AUT)","1063303","2019-02-07 07:00","2019","02","07","07:00","1.4","","0.6","","95","","0.0","","6","","36","","","","102.40","","","","","","NA"
"-130.70","54.58","GREY ISLET (AUT)","1063303","2019-02-07 08:00","2019","02","07","08:00","1.4","","0.7","","95","","0.0","","6","","34","","","","102.43","","","","","","NA"
"-130.70","54.58","GREY ISLET (AUT)","1063303","2019-02-07 09:00","2019","02","07","09:00","1.2","","0.5","","95","","0.0","","5","","30","","","","102.52","","","","","","NA"
"-130.70","54.58","GREY ISLET (AUT)","1063303","2019-02-07 10:00","2019","02","07","10:00","1.6","","0.8","","95","","0.0","","5","","31","","","","102.53","","","","","","NA"
"-130.70","54.58","GREY ISLET (AUT)","1063303","2019-02-07 11:00","2019","02","07","11:00","1.7","","0.7","","93","","0.0","","4","","26","","","","102.60","","","","","","NA"
"-130.70","54.58","GREY ISLET (AUT)","1063303","2019-02-07 12:00","2019","02","07","12:00","1.9","","0.6","","91","","0.0","","6","","23","","","","102.61","","","","","","NA"
"-130.70","54.58","GREY ISLET (AUT)","1063303","2019-02-07 13:00","2019","02","07","13:00","2.1","","0.4","","89","","0.0","","5","","21","","","","102.62","","","","","","NA"
"-130.70","54.58","GREY ISLET (AUT)","1063303","2019-02-07 14:00","2019","02","07","14:00","2.2","","0.4","","88","","0.0","","4","","18","","","","102.62","","","","","","NA"
"-130.70","54.58","GREY ISLET (AUT)","1063303","2019-02-07 15:00","2019","02","07","15:00","2.2","","0.3","","87","","0.0","","5","","14","","","","102.64","","","","","","NA"
"-130.70","54.58","GREY ISLET (AUT)","1063303","2019-02-07 16:00","2019","02","07","16:00","2.5","","0.7","","88","","0.0","","4","","10","","","","102.61","","","","","","NA"
"-130.70","54.58","GREY ISLET (AUT)","1063303","2019-02-07 17:00","2019","02","07","17:00","2.3","","0.6","","88","","0.0","","5","","14","","","","102.62","","","","","","NA"
"-130.70","54.58","GREY ISLET (AUT)","1063303","2019-02-07 18:00","2019","02","07","18:00","2.2","","0.7","","90","","0.0","","4","","12","","","","102.61","","","","","","NA"
"-130.70","54.58","GREY ISLET (AUT)","1063303","2019-02-07 19:00","2019","02","07","19:00","2.5","","0.8","","89","","0.0","","4","","17","","","","102.65","","","","","","NA"
"-130.70","54.58","GREY ISLET (AUT)","1063303","2019-02-07 20:00","2019","02","07","20:00","2.0","","0.2","","88","","0.0","","4","","16","","","","102.61","","","","","","NA"
"-130.70","54.58","GREY ISLET (AUT)","1063303","2019-02-07 21:00","2019","02","07","21:00","1.8","","0.0","","87","","0.0","","4","","20","","","","102.59","","","","","","NA"
"-130.70","54.58","GREY ISLET (AUT)","1063303","2019-02-07 22:00","2019","02","07","22:00","1.8","","0.3","","90","","0.0","","4","","24","","","","102.60","","","","","","NA"
"-130.70","54.58","GREY ISLET (AUT)","1063303","2019-02-07 23:00","2019","02","07","23:00","1.5","","0.0","","90","","0.0","","4","","23","","","","102.59","","","","","","NA"
"-130.70","54.58","GREY ISLET (AUT)","1063303","2019-02-08 00:00","2019","02","08","00:00","1.5","","-0.3","","88","","0.0","","5","","26","","","","102.58","","","","","","NA"
"-130.70","54.58","GREY ISLET (AUT)","1063303","2019-02-08 01:00","2019","02","08","01:00","1.3","","-0.4","","89","","0.0","","3","","20","","","","102.57","","","","","","NA"
"-130.70","54.58","GREY ISLET (AUT)","1063303","2019-02-08 02:00","2019","02","08","02:00","1.4","","0.0","","90","","0.0","","4","","22","","","","102.53","","","","","","NA"
"-130.70","54.58","GREY ISLET (AUT)","1063303","2019-02-08 03:00","2019","02","08","03:00","1.1","","-0.7","","88","","0.0","","4","","26","","","","102.53","","","","","","NA"
"-130.70","54.58","GREY ISLET (AUT)","1063303","2019-02-08 04:00","2019","02","08","04:00","1.1","","-0.8","","87","","0.0","","3","","32","","","","102.49","","","","","","NA"
"-130.70","54.58","GREY ISLET (AUT)","1063303","2019-02-08 05:00","2019","02","08","05:00","1.2","","-0.9","","86","","0.0","","3","","29","","","","102.50","","","","","","NA"
"-130.70","54.58","GREY ISLET (AUT)","1063303","2019-02-08 06:00","2019","02","08","06:00","1.2","","-1.1","","85","","0.0","","3","","41","","","","102.47","","","","","","NA"
"-130.70","54.58","GREY ISLET (AUT)","1063303","2019-02-08 07:00","2019","02","08","07:00","1.4","","-1.7","","80","","0.0","","3","","37","","","","102.48","","","","","","NA"
"-130.70","54.58","GREY ISLET (AUT)","1063303","2019-02-08 08:00","2019","02","08","08:00","1.8","","-2.2","","75","","0.0","","3","","44","","","","102.54","","","","","","NA"
"-130.70","54.58","GREY ISLET (AUT)","1063303","2019-02-08 09:00","2019","02","08","09:00","1.9","","-2.1","","75","","0.0","","4","","55","","","","102.57","","","","","","NA"
"-130.70","54.58","GREY ISLET (AUT)","1063303","2019-02-08 10:00","2019","02","08","10:00","1.8","","-2.9","","71","","0.0","","5","","51","","","","102.70","","","","","","NA"
"-130.70","54.58","GREY ISLET (AUT)","1063303","2019-02-08 11:00","2019","02","08","11:00","1.8","","-2.7","","72","","0.0","","4","","47","","","","102.75","","","","","","NA"
"-130.70","54.58","GREY ISLET (AUT)","1063303","2019-02-08 12:00","2019","02","08","12:00","1.8","","-3.4","","69","","0.0","","4","","54","","","","102.76","","","","","","NA"
"-130.70","54.58","GREY ISLET (AUT)","1063303","2019-02-08 13:00","2019","02","08","13:00","1.9","","-4.2","","64","","0.0","","4","","53","","","","102.78","","","","","","NA"
"-130.70","54.58","GREY ISLET (AUT)","1063303","2019-02-08 14:00","2019","02","08","14:00","2.0","","-4.2","","63","","0.2","","4","","56","","","","102.80","","","","","","NA"
"-130.70","54.58","GREY ISLET (AUT)","1063303","2019-02-08 15:00","2019","02","08","15:00","1.7","","-5.5","","59","","0.0","","5","","51","","","","102.90","","","","","","NA"
"-130.70","54.58","GREY ISLET (AUT)","1063303","2019-02-08 16:00","2019","02","08","16:00","1.5","","-5.9","","58","","0.0","","4","","52","","","","102.93","","","","","","NA"
"-130.70","54.58","GREY ISLET (AUT)","1063303","2019-02-08 17:00","2019","02","08","17:00","1.0","","-7.2","","54","","0.0","","4","","61","","","","102.95","","","","","","NA"
"-130.70","54.58","GREY ISLET (AUT)","1063303","2019-02-08 18:00","2019","02","08","18:00","1.1","","-6.3","","58","","0.0","","5","","61","","","","102.99","","","","","","NA"
"-130.70","54.58","GREY ISLET (AUT)","1063303","2019-02-08 19:00","2019","02","08","19:00","0.4","","-6.8","","59","","","","5","","64","","","","103.04","","","","","","NA"
"-130.70","54.58","GREY ISLET (AUT)","1063303","2019-02-08 20:00","2019","02","08","20:00","-0.3","","-8.7","","53","","","","5","","70","","","","103.08","","","","-10","","NA"
"-130.70","54.58","GREY ISLET (AUT)","1063303","2019-02-08 21:00","2019","02","08","21:00","-0.6","","-8.4","","55","","","","4","","70","","","","103.11","","","","-10","","NA"
"-130.70","54.58","GREY ISLET (AUT)","1063303","2019-02-08 22:00","2019","02","08","22:00","-0.9","","-8.9","","54","","","","5","","67","","","","103.20","","","","-10","","NA"
"-130.70","54.58","GREY ISLET (AUT)","1063303","2019-02-08 23:00","2019","02","08","23:00","-0.9","","-8.8","","55","","","","5","","64","","","","103.26","","","","-10","","NA"
"-130.70","54.58","GREY ISLET (AUT)","1063303","2019-02-09 00:00","2019","02","09","00:00","-1.7","","-9.8","","54","","","","4","","59","","","","103.25","","","","-11","","NA"
"-130.70","54.58","GREY ISLET (AUT)","1063303","2019-02-09 01:00","2019","02","09","01:00","-1.6","","-8.8","","58","","","","4","","57","","","","103.26","","","","-11","","NA"
"-130.70","54.58","GREY ISLET (AUT)","1063303","2019-02-09 02:00","2019","02","09","02:00","-1.7","","-8.6","","59","","","","3","","58","","","","103.27","","","","-11","","NA"
"-130.70","54.58","GREY ISLET (AUT)","1063303","2019-02-09 03:00","2019","02","09","03:00","-2.1","","-9.5","","57","","","","3","","59","","","","103.27","","","","-12","","NA"
"-130.70","54.58","GREY ISLET (AUT)","1063303","2019-02-09 04:00","2019","02","09","04:00","-2.3","","-9.4","","58","","","","3","","54","","","","103.27","","","","-12","","NA"
"-130.70","54.58","GREY ISLET (AUT)","1063303","2019-02-09 05:00","2019","02","09","05:00","-2.4","","-9.3","","59","","","","3","","58","","","","103.23","","","","-12","","NA"
"-130.70","54.58","GREY ISLET (AUT)","1063303","2019-02-09 06:00","2019","02","09","06:00","-2.4","","-10.2","","55","","","","3","","57","","","","103.21","","","","-12","","NA"
"-130.70","54.58","GREY ISLET (AUT)","1063303","2019-02-09 07:00","2019","02","09","07:00","-2.9","","-11.3","","52","","","","4","","63","","","","103.15","","","","-13","","NA"
"-130.70","54.58","GREY ISLET (AUT)","1063303","2019-02-09 08:00","2019","02","09","08:00","-2.3","","-10.1","","55","","","","4","","64","","","","103.08","","","","-12","","NA"
"-130.70","54.58","GREY ISLET (AUT)","1063303","2019-02-09 09:00","2019","02","09","09:00","-2.7","","-11.1","","53","","","","4","","57","","","","103.03","","","","-12","","NA"
"-130.70","54.58","GREY ISLET (AUT)","1063303","2019-02-09 10:00","2019","02","09","10:00","-2.1","","-9.8","","56","","","","4","","57","","","","102.99","","","","-11","","NA"
"-130.70","54.58","GREY ISLET (AUT)","1063303","2019-02-09 11:00","2019","02","09","11:00","-1.4","","-9.6","","54","","","","3","","46","","","","102.94","","","","-10","","NA"
"-130.70","54.58","GREY ISLET (AUT)","1063303","2019-02-09 12:00","2019","02","09","12:00","-1.1","","-11.0","","47","","","","4","","38","","","","102.92","","","","-9","","NA"
"-130.70","54.58","GREY ISLET (AUT)","1063303","2019-02-09 13:00","2019","02","09","13:00","-0.9","","-10.0","","50","","","","4","","53","","","","102.83","","","","-10","","NA"
"-130.70","54.58","GREY ISLET (AUT)","1063303","2019-02-09 14:00","2019","02","09","14:00","-0.3","","-9.4","","50","","","","4","","45","","","","102.72","","","","-8","","NA"
"-130.70","54.58","GREY ISLET (AUT)","1063303","2019-02-09 15:00","2019","02","09","15:00","0.0","","-9.6","","48","","","","5","","39","","","","102.64","","","","-7","","NA"
"-130.70","54.58","GREY ISLET (AUT)","1063303","2019-02-09 16:00","2019","02","09","16:00","0.4","","-10.0","","45","","","","4","","36","","","","102.52","","","","","","NA"
"-130.70","54.58","GREY ISLET (AUT)","1063303","2019-02-09 17:00","2019","02","09","17:00","0.1","","-8.8","","51","","","","5","","36","","","","102.44","","","","","","NA"
"-130.70","54.58","GREY ISLET (AUT)","1063303","2019-02-09 18:00","2019","02","09","18:00","-0.5","","-8.2","","56","","","","4","","46","","","","102.34","","","","-9","","NA"
"-130.70","54.58","GREY ISLET (AUT)","1063303","2019-02-09 19:00","2019","02","09","19:00","-0.7","","-8.0","","57","","","","4","","46","","","","102.30","","","","-9","","NA"
"-130.70","54.58","GREY ISLET (AUT)","1063303","2019-02-09 20:00","2019","02","09","20:00","-0.6","","-8.0","","58","","","","4","","49","","","","102.20","","","","-9","","NA"
"-130.70","54.58","GREY ISLET (AUT)","1063303","2019-02-09 21:00","2019","02","09","21:00","-1.3","","-8.5","","58","","","","4","","40","","","","102.09","","","","-9","","NA"
"-130.70","54.58","GREY ISLET (AUT)","1063303","2019-02-09 22:00","2019","02","09","22:00","-1.4","","-7.1","","65","","","","4","","46","","","","101.99","","","","-10","","NA"
"-130.70","54.58","GREY ISLET (AUT)","1063303","2019-02-09 23:00","2019","02","09","23:00","-1.6","","-6.5","","69","","","","4","","48","","","","101.94","","","","-10","","NA"
"-130.70","54.58","GREY ISLET (AUT)","1063303","2019-02-10 00:00","2019","02","10","00:00","-1.4","","-6.7","","67","","","","3","","34","","","","101.86","","","","-9","","NA"
"-130.70","54.58","GREY ISLET (AUT)","1063303","2019-02-10 01:00","2019","02","10","01:00","-1.2","","-6.6","","67","","","","4","","46","","","","101.78","","","","-9","","NA"
"-130.70","54.58","GREY ISLET (AUT)","1063303","2019-02-10 02:00","2019","02","10","02:00","-1.6","","-6.1","","71","","","","2","","35","","","","101.74","","","","-9","","NA"
"-130.70","54.58","GREY ISLET (AUT)","1063303","2019-02-10 03:00","2019","02","10","03:00","-0.4","","-4.9","","71","","","","3","","40","","","","101.67","","","","-8","","NA"
"-130.70","54.58","GREY ISLET (AUT)","1063303","2019-02-10 04:00","2019","02","10","04:00","1.0","","-5.4","","62","","0.0","","4","","41","","","","101.64","","","","","","NA"
"-130.70","54.58","GREY ISLET (AUT)","1063303","2019-02-10 05:00","2019","02","10","05:00","0.5","","-6.3","","60","","0.0","","3","","54","","","","101.53","","","","","","NA"
"-130.70","54.58","GREY ISLET (AUT)","1063303","2019-02-10 06:00","2019","02","10","06:00","0.7","","-7.3","","55","","0.0","","3","","35","","","","101.60","","","","","","NA"
"-130.70","54.58","GREY ISLET (AUT)","1063303","2019-02-10 07:00","2019","02","10","07:00","0.7","","-6.9","","57","","0.0","","4","","52","","","","101.53","","","","","","NA"
"-130.70","54.58","GREY ISLET (AUT)","1063303","2019-02-10 08:00","2019","02","10","08:00","0.5","","-5.5","","64","","0.0","","4","","46","","","","101.53","","","","","","NA"
"-130.70","54.58","GREY ISLET (AUT)","1063303","2019-02-10 09:00","2019","02","10","09:00","0.9","","-4.4","","68","","0.0","","5","","43","","","","101.53","","","","","","NA"
"-130.70","54.58","GREY ISLET (AUT)","1063303","2019-02-10 10:00","2019","02","10","10:00","0.8","","-6.3","","59","","0.0","","4","","48","","","","101.48","","","","","","NA"
"-130.70","54.58","GREY ISLET (AUT)","1063303","2019-02-10 11:00","2019","02","10","11:00","1.5","","-6.6","","55","","0.0","","4","","44","","","","101.46","","","","","","NA"
"-130.70","54.58","GREY ISLET (AUT)","1063303","2019-02-10 12:00","2019","02","10","12:00","2.0","","-8.3","","46","","0.0","","4","","46","","","","101.40","","","","","","NA"
"-130.70","54.58","GREY ISLET (AUT)","1063303","2019-02-10 13:00","2019","02","10","13:00","2.5","","-8.0","","46","","0.0","","4","","45","","","","101.33","","","","","","NA"
"-130.70","54.58","GREY ISLET (AUT)","1063303","2019-02-10 14:00","2019","02","10","14:00","3.0","","-8.0","","44","","0.0","","4","","47","","","","101.22","","","","","","NA"
"-130.70","54.58","GREY ISLET (AUT)","1063303","2019-02-10 15:00","2019","02","10","15:00","3.1","","-7.2","","47","","0.0","","4","","47","","","","101.13","","","","","","NA"
"-130.70","54.58","GREY ISLET (AUT)","1063303","2019-02-10 16:00","2019","02","10","16:00","3.2","","-6.9","","48","","0.0","","4","","46","","","","101.06","","","","","","NA"
"-130.70","54.58","GREY ISLET (AUT)","1063303","2019-02-10 17:00","2019","02","10","17:00","3.2","","-6.7","","48","","0.0","","5","","57","","","","100.98","","","","","","NA"
"-130.70","54.58","GREY ISLET (AUT)","1063303","2019-02-10 18:00","2019","02","10","18:00","2.7","","-7.5","","47","","0.0","","6","","51","","","","100.93","","","","","","NA"
"-130.70","54.58","GREY ISLET (AUT)","1063303","2019-02-10 19:00","2019","02","10","19:00","2.5","","-6.6","","51","","0.0","","6","","50","","","","100.89","","","","","","NA"
"-130.70","54.58","GREY ISLET (AUT)","1063303","2019-02-10 20:00","2019","02","10","20:00","2.1","","-7.1","","50","","0.0","","6","","49","","","","100.86","","","","","","NA"
"-130.70","54.58","GREY ISLET (AUT)","1063303","2019-02-10 21:00","2019","02","10","21:00","1.9","","-7.1","","51","","0.0","","5","","46","","","","100.82","","","","","","NA"
"-130.70","54.58","GREY ISLET (AUT)","1063303","2019-02-10 22:00","2019","02","10","22:00","1.8","","-6.5","","54","","0.0","","5","","43","","","","100.79","","","","","","NA"
"-130.70","54.58","GREY ISLET (AUT)","1063303","2019-02-10 23:00","2019","02","10","23:00","1.4","","-6.4","","56","","0.0","","4","","45","","","","100.79","","","","","","NA"
"-130.70","54.58","GREY ISLET (AUT)","1063303","2019-02-11 00:00","2019","02","11","00:00","1.5","","-6.7","","54","","0.0","","4","","50","","","","100.76","","","","","","NA"
"-130.70","54.58","GREY ISLET (AUT)","1063303","2019-02-11 01:00","2019","02","11","01:00","1.2","","-7.0","","54","","0.0","","5","","53","","","","100.75","","","","","","NA"
"-130.70","54.58","GREY ISLET (AUT)","1063303","2019-02-11 02:00","2019","02","11","02:00","1.1","","-7.9","","51","","0.0","","5","","55","","","","100.74","","","","","","NA"
"-130.70","54.58","GREY ISLET (AUT)","1063303","2019-02-11 03:00","2019","02","11","03:00","1.1","","-6.6","","56","","0.0","","5","","55","","","","100.78","","","","","","NA"
"-130.70","54.58","GREY ISLET (AUT)","1063303","2019-02-11 04:00","2019","02","11","04:00","1.1","","-6.4","","57","","0.0","","4","","54","","","","100.79","","","","","","NA"
"-130.70","54.58","GREY ISLET (AUT)","1063303","2019-02-11 05:00","2019","02","11","05:00","0.8","","-7.1","","56","","0.0","","5","","55","","","","100.80","","","","","","NA"
"-130.70","54.58","GREY ISLET (AUT)","1063303","2019-02-11 06:00","2019","02","11","06:00","0.7","","-6.5","","58","","0.0","","5","","57","","","","100.84","","","","","","NA"
"-130.70","54.58","GREY ISLET (AUT)","1063303","2019-02-11 07:00","2019","02","11","07:00","0.5","","-7.4","","55","","","","4","","60","","","","100.87","","","","","","NA"
"-130.70","54.58","GREY ISLET (AUT)","1063303","2019-02-11 08:00","2019","02","11","08:00","0.4","","-7.6","","55","","","","4","","53","","","","100.96","","","","","","NA"
"-130.70","54.58","GREY ISLET (AUT)","1063303","2019-02-11 09:00","2019","02","11","09:00","0.5","","-7.5","","55","","0.0","","4","","50","","","","101.02","","","","","","NA"
"-130.70","54.58","GREY ISLET (AUT)","1063303","2019-02-11 10:00","2019","02","11","10:00","0.9","","-6.5","","58","","0.0","","4","","52","","","","101.06","","","","","","NA"
"-130.70","54.58","GREY ISLET (AUT)","1063303","2019-02-11 11:00","2019","02","11","11:00","1.1","","-6.9","","55","","0.0","","4","","52","","","","101.11","","","","","","NA"
"-130.70","54.58","GREY ISLET (AUT)","1063303","2019-02-11 12:00","2019","02","11","12:00","1.1","","-8.8","","48","","0.0","","5","","57","","","","101.16","","","","","","NA"
"-130.70","54.58","GREY ISLET (AUT)","1063303","2019-02-11 13:00","2019","02","11","13:00","1.4","","-9.3","","45","","0.0","","4","","57","","","","101.20","","","","","","NA"
"-130.70","54.58","GREY ISLET (AUT)","1063303","2019-02-11 14:00","2019","02","11","14:00","1.7","","-8.8","","46","","0.0","","4","","54","","","","101.22","","","","","","NA"
"-130.70","54.58","GREY ISLET (AUT)","1063303","2019-02-11 15:00","2019","02","11","15:00","1.9","","-8.0","","48","","0.0","","4","","59","","","","101.22","","","","","","NA"
"-130.70","54.58","GREY ISLET (AUT)","1063303","2019-02-11 16:00","2019","02","11","16:00","1.8","","-8.7","","46","","0.0","","4","","55","","","","101.25","","","","","","NA"
"-130.70","54.58","GREY ISLET (AUT)","1063303","2019-02-11 17:00","2019","02","11","17:00","1.9","","-7.3","","50","","0.0","","4","","55","","","","101.27","","","","","","NA"
"-130.70","54.58","GREY ISLET (AUT)","1063303","2019-02-11 18:00","2019","02","11","18:00","1.7","","-7.9","","49","","0.0","","4","","52","","","","101.31","","","","","","NA"
"-130.70","54.58","GREY ISLET (AUT)","1063303","2019-02-11 19:00","2019","02","11","19:00","1.3","","-9.8","","43","","0.0","","4","","58","","","","101.31","","","","","","NA"
"-130.70","54.58","GREY ISLET (AUT)","1063303","2019-02-11 20:00","2019","02","11","20:00","1.2","","-8.5","","48","","0.0","","4","","59","","","","101.34","","","","","","NA"
"-130.70","54.58","GREY ISLET (AUT)","1063303","2019-02-11 21:00","2019","02","11","21:00","1.2","","-7.4","","53","","0.0","","4","","57","","","","101.32","","","","","","NA"
"-130.70","54.58","GREY ISLET (AUT)","1063303","2019-02-11 22:00","2019","02","11","22:00","1.0","","-7.5","","53","","0.0","","4","","59","","","","101.30","","","","","","NA"
"-130.70","54.58","GREY ISLET (AUT)","1063303","2019-02-11 23:00","2019","02","11","23:00","0.7","","-7.7","","53","","0.0","","4","","56","","","","101.37","","","","","","NA"
"-130.70","54.58","GREY ISLET (AUT)","1063303","2019-02-12 00:00","2019","02","12","00:00","0.4","","-8.5","","51","","","","3","","53","","","","101.42","","","","","","NA"
"-130.70","54.58","GREY ISLET (AUT)","1063303","2019-02-12 01:00","2019","02","12","01:00","0.5","","-7.1","","57","","","","4","","55","","","","101.39","","","","","","NA"
"-130.70","54.58","GREY ISLET (AUT)","1063303","2019-02-12 02:00","2019","02","12","02:00","0.1","","-8.2","","54","","","","4","","65","","","","101.35","","","","","","NA"
"-130.70","54.58","GREY ISLET (AUT)","1063303","2019-02-12 03:00","2019","02","12","03:00","0.2","","-8.2","","53","","","","5","","65","","","","101.37","","","","","","NA"
"-130.70","54.58","GREY ISLET (AUT)","1063303","2019-02-12 04:00","2019","02","12","04:00","0.1","","-7.6","","56","","","","4","","54","","","","101.37","","","","","","NA"
"-130.70","54.58","GREY ISLET (AUT)","1063303","2019-02-12 05:00","2019","02","12","05:00","-0.6","","-8.9","","53","","","","3","","55","","","","101.36","","","","-9","","NA"
"-130.70","54.58","GREY ISLET (AUT)","1063303","2019-02-12 06:00","2019","02","12","06:00","-0.6","","-9.0","","53","","","","4","","55","","","","101.32","","","","-9","","NA"
"-130.70","54.58","GREY ISLET (AUT)","1063303","2019-02-12 07:00","2019","02","12","07:00","-0.6","","-8.1","","57","","","","4","","55","","","","101.32","","","","-9","","NA"
"-130.70","54.58","GREY ISLET (AUT)","1063303","2019-02-12 08:00","2019","02","12","08:00","-0.9","","-7.9","","59","","","","4","","54","","","","101.32","","","","-10","","NA"
"-130.70","54.58","GREY ISLET (AUT)","1063303","2019-02-12 09:00","2019","02","12","09:00","-0.8","","-8.0","","58","","","","5","","61","","","","101.29","","","","-10","","NA"
"-130.70","54.58","GREY ISLET (AUT)","1063303","2019-02-12 10:00","2019","02","12","10:00","-0.6","","-8.2","","56","","","","3","","51","","","","101.25","","","","-9","","NA"
"-130.70","54.58","GREY ISLET (AUT)","1063303","2019-02-12 11:00","2019","02","12","11:00","-0.5","","-9.6","","50","","","","5","","62","","","","101.20","","","","-10","","NA"
"-130.70","54.58","GREY ISLET (AUT)","1063303","2019-02-12 12:00","2019","02","12","12:00","-0.1","","-8.3","","54","","","","5","","56","","","","101.16","","","","-9","","NA"
"-130.70","54.58","GREY ISLET (AUT)","1063303","2019-02-12 13:00","2019","02","12","13:00","0.0","","-9.1","","50","","","","5","","47","","","","101.15","","","","-8","","NA"
"-130.70","54.58","GREY ISLET (AUT)","1063303","2019-02-12 14:00","2019","02","12","14:00","0.3","","-9.7","","47","","","","4","","46","","","","101.12","","","","","","NA"
"-130.70","54.58","GREY ISLET (AUT)","1063303","2019-02-12 15:00","2019","02","12","15:00","0.4","","-10.0","","45","","","","4","","48","","","","101.07","","","","","","NA"
"-130.70","54.58","GREY ISLET (AUT)","1063303","2019-02-12 16:00","2019","02","12","16:00","0.5","","-9.9","","45","","0.0","","4","","47","","","","101.02","","","","","","NA"
"-130.70","54.58","GREY ISLET (AUT)","1063303","2019-02-12 17:00","2019","02","12","17:00","0.2","","-9.9","","47","","","","4","","46","","","","100.97","","","","","","NA"
"-130.70","54.58","GREY ISLET (AUT)","1063303","2019-02-12 18:00","2019","02","12","18:00","0.0","","-10.2","","46","","","","4","","40","","","","100.94","","","","-7","","NA"
"-130.70","54.58","GREY ISLET (AUT)","1063303","2019-02-12 19:00","2019","02","12","19:00","-0.1","","-8.9","","51","","","","4","","39","","","","100.93","","","","-7","","NA"
"-130.70","54.58","GREY ISLET (AUT)","1063303","2019-02-12 20:00","2019","02","12","20:00","-0.3","","-8.6","","53","","","","5","","41","","","","100.87","","","","-8","","NA"
"-130.70","54.58","GREY ISLET (AUT)","1063303","2019-02-12 21:00","2019","02","12","21:00","-0.4","","-10.0","","48","","","","6","","35","","","","100.85","","","","-7","","NA"
"-130.70","54.58","GREY ISLET (AUT)","1063303","2019-02-12 22:00","2019","02","12","22:00","-0.3","","-8.7","","53","","","","5","","41","","","","100.84","","","","-8","","NA"
"-130.70","54.58","GREY ISLET (AUT)","1063303","2019-02-12 23:00","2019","02","12","23:00","-0.5","","-8.6","","54","","","","5","","39","","","","100.83","","","","-8","","NA"
"-130.70","54.58","GREY ISLET (AUT)","1063303","2019-02-13 00:00","2019","02","13","00:00","-0.7","","-8.6","","55","","","","5","","40","","","","100.79","","","","-8","","NA"
"-130.70","54.58","GREY ISLET (AUT)","1063303","2019-02-13 01:00","2019","02","13","01:00","-0.8","","-10.3","","49","","","","6","","38","","","","100.75","","","","-8","","NA"
"-130.70","54.58","GREY ISLET (AUT)","1063303","2019-02-13 02:00","2019","02","13","02:00","-0.9","","-10.0","","50","","","","6","","27","","","","100.73","","","","-7","","NA"
"-130.70","54.58","GREY ISLET (AUT)","1063303","2019-02-13 03:00","2019","02","13","03:00","-0.9","","-9.2","","53","","","","6","","33","","","","100.72","","","","-8","","NA"
"-130.70","54.58","GREY ISLET (AUT)","1063303","2019-02-13 04:00","2019","02","13","04:00","-1.0","","-9.9","","51","","","","6","","29","","","","100.66","","","","-8","","NA"
"-130.70","54.58","GREY ISLET (AUT)","1063303","2019-02-13 05:00","2019","02","13","05:00","-1.0","","-8.6","","56","","","","6","","25","","","","100.57","","","","-7","","NA"
"-130.70","54.58","GREY ISLET (AUT)","1063303","2019-02-13 06:00","2019","02","13","06:00","-1.0","","-8.9","","55","","","","7","","28","","","","100.54","","","","-8","","NA"
"-130.70","54.58","GREY ISLET (AUT)","1063303","2019-02-13 07:00","2019","02","13","07:00","-1.1","","-8.0","","59","","","","6","","35","","","","100.47","","","","-8","","NA"
"-130.70","54.58","GREY ISLET (AUT)","1063303","2019-02-13 08:00","2019","02","13","08:00","-1.1","","-7.1","","63","","","","6","","38","","","","100.41","","","","-9","","NA"
"-130.70","54.58","GREY ISLET (AUT)","1063303","2019-02-13 09:00","2019","02","13","09:00","-1.0","","-6.6","","65","","","","6","","30","","","","100.34","","","","-8","","NA"
"-130.70","54.58","GREY ISLET (AUT)","1063303","2019-02-13 10:00","2019","02","13","10:00","-1.2","","-7.3","","63","","","","6","","32","","","","100.31","","","","-8","","NA"
"-130.70","54.58","GREY ISLET (AUT)","1063303","2019-02-13 11:00","2019","02","13","11:00","-1.3","","-7.5","","63","","","","6","","30","","","","100.26","","","","-8","","NA"
"-130.70","54.58","GREY ISLET (AUT)","1063303","2019-02-13 12:00","2019","02","13","12:00","-0.9","","-6.8","","65","","","","6","","26","","","","100.20","","","","-7","","NA"
"-130.70","54.58","GREY ISLET (AUT)","1063303","2019-02-13 13:00","2019","02","13","13:00","-0.6","","-6.8","","63","","","","8","","25","","","","100.09","","","","-7","","NA"
"-130.70","54.58","GREY ISLET (AUT)","1063303","2019-02-13 14:00","2019","02","13","14:00","-0.8","","-7.3","","62","","","","7","","24","","","","100.02","","","","-7","","NA"
"-130.70","54.58","GREY ISLET (AUT)","1063303","2019-02-13 15:00","2019","02","13","15:00","-1.5","","-6.6","","68","","","","7","","19","","","","100.00","","","","-7","","NA"
"-130.70","54.58","GREY ISLET (AUT)","1063303","2019-02-13 16:00","2019","02","13","16:00","-1.7","","-5.3","","76","","","","9","","11","","","","99.97","","","","-6","","NA"
"-130.70","54.58","GREY ISLET (AUT)","1063303","2019-02-13 17:00","2019","02","13","17:00","-1.7","","-4.0","","84","","","","7","","23","","","","99.93","","","","-8","","NA"
"-130.70","54.58","GREY ISLET (AUT)","1063303","2019-02-13 18:00","2019","02","13","18:00","-2.0","","-3.4","","90","","","","7","","25","","","","99.89","","","","-8","","NA"
"-130.70","54.58","GREY ISLET (AUT)","1063303","2019-02-13 19:00","2019","02","13","19:00","-1.7","","-3.9","","85","","","","6","","25","","","","99.86","","","","-8","","NA"
"-130.70","54.58","GREY ISLET (AUT)","1063303","2019-02-13 20:00","2019","02","13","20:00","-1.4","","-3.9","","83","","","","6","","38","","","","99.83","","","","-9","","NA"
"-130.70","54.58","GREY ISLET (AUT)","1063303","2019-02-13 21:00","2019","02","13","21:00","-0.8","","-4.1","","78","","","","6","","49","","","","99.74","","","","-9","","NA"
"-130.70","54.58","GREY ISLET (AUT)","1063303","2019-02-13 22:00","2019","02","13","22:00","0.0","","-3.8","","75","","","","5","","47","","","","99.71","","","","-8","","NA"
"-130.70","54.58","GREY ISLET (AUT)","1063303","2019-02-13 23:00","2019","02","13","23:00","0.0","","-4.7","","71","","","","5","","52","","","","99.68","","","","-8","","NA"
"-130.70","54.58","GREY ISLET (AUT)","1063303","2019-02-14 00:00","2019","02","14","00:00","0.4","","-4.0","","72","","","","5","","47","","","","99.68","","","","","","NA"
"-130.70","54.58","GREY ISLET (AUT)","1063303","2019-02-14 01:00","2019","02","14","01:00","-0.1","","-4.7","","71","","","","5","","52","","","","99.68","","","","-8","","NA"
"-130.70","54.58","GREY ISLET (AUT)","1063303","2019-02-14 02:00","2019","02","14","02:00","0.2","","-4.9","","69","","","","6","","48","","","","99.68","","","","","","NA"
"-130.70","54.58","GREY ISLET (AUT)","1063303","2019-02-14 03:00","2019","02","14","03:00","-0.1","","-5.4","","68","","","","5","","52","","","","99.66","","","","-8","","NA"
"-130.70","54.58","GREY ISLET (AUT)","1063303","2019-02-14 04:00","2019","02","14","04:00","-0.2","","-5.8","","66","","","","6","","56","","","","99.58","","","","-9","","NA"
"-130.70","54.58","GREY ISLET (AUT)","1063303","2019-02-14 05:00","2019","02","14","05:00","-0.2","","-5.7","","66","","","","36","","24","","","","99.52","","","","-6","","NA"
"-130.70","54.58","GREY ISLET (AUT)","1063303","2019-02-14 06:00","2019","02","14","06:00","-0.1","","-5.8","","65","","","","36","","22","","","","99.52","","","","-6","","NA"
"-130.70","54.58","GREY ISLET (AUT)","1063303","2019-02-14 07:00","2019","02","14","07:00","0.3","","-5.0","","68","","","","36","","22","","","","99.50","","","","","","NA"
"-130.70","54.58","GREY ISLET (AUT)","1063303","2019-02-14 08:00","2019","02","14","08:00","0.5","","-4.8","","68","","","","36","","25","","","","99.42","","","","","","NA"
"-130.70","54.58","GREY ISLET (AUT)","1063303","2019-02-14 09:00","2019","02","14","09:00","0.3","","-5.7","","64","","","","36","","24","","","","99.41","","","","","","NA"
"-130.70","54.58","GREY ISLET (AUT)","1063303","2019-02-14 10:00","2019","02","14","10:00","0.5","","-5.0","","67","","","","36","","25","","","","99.39","","","","","","NA"
"-130.70","54.58","GREY ISLET (AUT)","1063303","2019-02-14 11:00","2019","02","14","11:00","0.7","","-5.7","","62","","0.0","","36","","24","","","","99.35","","","","","","NA"
"-130.70","54.58","GREY ISLET (AUT)","1063303","2019-02-14 12:00","2019","02","14","12:00","1.1","","-5.1","","63","","0.0","","36","","24","","","","99.32","","","","","","NA"
"-130.70","54.58","GREY ISLET (AUT)","1063303","2019-02-14 13:00","2019","02","14","13:00","1.4","","-5.5","","60","","0.0","","36","","24","","","","99.31","","","","","","NA"
"-130.70","54.58","GREY ISLET (AUT)","1063303","2019-02-14 14:00","2019","02","14","14:00","1.8","","-5.8","","57","","0.0","","36","","22","","","","99.25","","","","","","NA"
"-130.70","54.58","GREY ISLET (AUT)","1063303","2019-02-14 15:00","2019","02","14","15:00","2.3","","-6.0","","54","","0.0","","36","","22","","","","99.26","","","","","","NA"
"-130.70","54.58","GREY ISLET (AUT)","1063303","2019-02-14 16:00","2019","02","14","16:00","2.7","","-5.2","","56","","0.0","","36","","21","","","","99.21","","","","","","NA"
"-130.70","54.58","GREY ISLET (AUT)","1063303","2019-02-14 17:00","2019","02","14","17:00","2.7","","-6.4","","51","","0.0","","36","","21","","","","99.22","","","","","","NA"
"-130.70","54.58","GREY ISLET (AUT)","1063303","2019-02-14 18:00","2019","02","14","18:00","2.6","","-6.1","","52","","0.0","","36","","20","","","","99.21","","","","","","NA"
"-130.70","54.58","GREY ISLET (AUT)","1063303","2019-02-14 19:00","2019","02","14","19:00","2.5","","-5.8","","54","","0.0","","36","","20","","","","99.21","","","","","","NA"
"-130.70","54.58","GREY ISLET (AUT)","1063303","2019-02-14 20:00","2019","02","14","20:00","2.5","","-6.0","","54","","0.0","","36","","19","","","","99.24","","","","","","NA"
"-130.70","54.58","GREY ISLET (AUT)","1063303","2019-02-14 21:00","2019","02","14","21:00","2.3","","-7.3","","49","","0.0","","","M","26","","","","99.25","","","","","","NA"
"-130.70","54.58","GREY ISLET (AUT)","1063303","2019-02-14 22:00","2019","02","14","22:00","2.3","","-7.1","","50","","0.0","","","M","19","","","","99.29","","","","","","NA"
"-130.70","54.58","GREY ISLET (AUT)","1063303","2019-02-14 23:00","2019","02","14","23:00","2.3","","-6.0","","54","","0.0","","","M","23","","","","99.34","","","","","","NA"
"-130.70","54.58","GREY ISLET (AUT)","1063303","2019-02-15 00:00","2019","02","15","00:00","2.4","","-6.0","","54","","0.0","","","M","20","","","","99.37","","","","","","NA"
"-130.70","54.58","GREY ISLET (AUT)","1063303","2019-02-15 01:00","2019","02","15","01:00","2.1","","-6.6","","53","","0.0","","","M","34","","","","99.43","","","","","","NA"
"-130.70","54.58","GREY ISLET (AUT)","1063303","2019-02-15 02:00","2019","02","15","02:00","2.0","","-6.5","","53","","0.0","","","M","21","","","","99.49","","","","","","NA"
"-130.70","54.58","GREY ISLET (AUT)","1063303","2019-02-15 03:00","2019","02","15","03:00","2.1","","-6.8","","52","","0.0","","","M","22","","","","99.57","","","","","","NA"
"-130.70","54.58","GREY ISLET (AUT)","1063303","2019-02-15 04:00","2019","02","15","04:00","2.0","","-6.5","","53","","0.0","","","M","35","","","","99.64","","","","","","NA"
"-130.70","54.58","GREY ISLET (AUT)","1063303","2019-02-15 05:00","2019","02","15","05:00","1.7","","-6.1","","56","","0.0","","","M","23","","","","99.69","","","","","","NA"
"-130.70","54.58","GREY ISLET (AUT)","1063303","2019-02-15 06:00","2019","02","15","06:00","1.5","","-6.0","","57","","0.0","","","M","33","","","","99.77","","","","","","NA"
"-130.70","54.58","GREY ISLET (AUT)","1063303","2019-02-15 07:00","2019","02","15","07:00","1.2","","-7.1","","54","","0.0","","","M","33","","","","99.86","","","","","","NA"
"-130.70","54.58","GREY ISLET (AUT)","1063303","2019-02-15 08:00","2019","02","15","08:00","1.2","","-6.4","","57","","0.0","","","M","17","","","","99.96","","","","","","NA"
"-130.70","54.58","GREY ISLET (AUT)","1063303","2019-02-15 09:00","2019","02","15","09:00","1.2","","-6.2","","58","","0.0","","","M","33","","","","100.04","","","","","","NA"
"-130.70","54.58","GREY ISLET (AUT)","1063303","2019-02-15 10:00","2019","02","15","10:00","1.3","","-5.8","","59","","0.0","","","M","30","","","","100.13","","","","","","NA"
"-130.70","54.58","GREY ISLET (AUT)","1063303","2019-02-15 11:00","2019","02","15","11:00","1.5","","-6.0","","58","","0.0","","","M","25","","","","100.18","","","","","","NA"
"-130.70","54.58","GREY ISLET (AUT)","1063303","2019-02-15 12:00","2019","02","15","12:00","1.4","","-7.7","","51","","0.0","","","M","17","","","","100.23","","","","","","NA"
"-130.70","54.58","GREY ISLET (AUT)","1063303","2019-02-15 13:00","2019","02","15","13:00","1.6","","-7.8","","50","","0.0","","","M","31","","","","100.29","","","","","","NA"
"-130.70","54.58","GREY ISLET (AUT)","1063303","2019-02-15 14:00","2019","02","15","14:00","1.8","","-6.9","","52","","0.0","","","M","30","","","","100.32","","","","","","NA"
"-130.70","54.58","GREY ISLET (AUT)","1063303","2019-02-15 15:00","2019","02","15","15:00","1.8","","-7.5","","50","","0.0","","","M","29","","","","100.38","","","","","","NA"
"-130.70","54.58","GREY ISLET (AUT)","1063303","2019-02-15 16:00","2019","02","15","16:00","1.9","","-8.1","","47","","0.0","","","M","29","","","","100.45","","","","","","NA"
"-130.70","54.58","GREY ISLET (AUT)","1063303","2019-02-15 17:00","2019","02","15","17:00","1.8","","-7.8","","49","","0.0","","","M","29","","","","100.51","","","","","","NA"
"-130.70","54.58","GREY ISLET (AUT)","1063303","2019-02-15 18:00","2019","02","15","18:00","1.3","","-7.7","","51","","0.0","","","M","30","","","","100.55","","","","","","NA"
"-130.70","54.58","GREY ISLET (AUT)","1063303","2019-02-15 19:00","2019","02","15","19:00","1.0","","-7.2","","54","","0.0","","","M","21","","","","100.62","","","","","","NA"
"-130.70","54.58","GREY ISLET (AUT)","1063303","2019-02-15 20:00","2019","02","15","20:00","0.7","","-7.0","","56","","0.0","","","M","35","","","","100.68","","","","","","NA"
"-130.70","54.58","GREY ISLET (AUT)","1063303","2019-02-15 21:00","2019","02","15","21:00","0.4","","-6.7","","59","","","","","M","33","","","","100.76","","","","","","NA"
"-130.70","54.58","GREY ISLET (AUT)","1063303","2019-02-15 22:00","2019","02","15","22:00","0.2","","-7.2","","58","","","","","M","25","","","","100.82","","","","","","NA"
"-130.70","54.58","GREY ISLET (AUT)","1063303","2019-02-15 23:00","2019","02","15","23:00","-0.1","","-7.0","","59","","","","","M","27","","","","100.89","","","","-6","","NA"
"-130.70","54.58","GREY ISLET (AUT)","1063303","2019-02-16 00:00","2019","02","16","00:00","0.1","","-6.0","","63","","","","","M","29","","","","100.93","","","","","","NA"
"-130.70","54.58","GREY ISLET (AUT)","1063303","2019-02-16 01:00","2019","02","16","01:00","-0.1","","-6.5","","62","","","","","M","30","","","","101.00","","","","-7","","NA"
"-130.70","54.58","GREY ISLET (AUT)","1063303","2019-02-16 02:00","2019","02","16","02:00","-0.5","","-7.7","","58","","","","","M","21","","","","101.06","","","","-6","","NA"
"-130.70","54.58","GREY ISLET (AUT)","1063303","2019-02-16 03:00","2019","02","16","03:00","-0.6","","-7.5","","60","","","","","M","30","","","","101.14","","","","-7","","NA"
"-130.70","54.58","GREY ISLET (AUT)","1063303","2019-02-16 04:00","2019","02","16","04:00","-0.7","","-7.1","","62","","","","","M","28","","","","101.18","","","","-7","","NA"
"-130.70","54.58","GREY ISLET (AUT)","1063303","2019-02-16 05:00","2019","02","16","05:00","-0.7","","-7.0","","62","","","","","M","31","","","","101.24","","","","-7","","NA"
"-130.70","54.58","GREY ISLET (AUT)","1063303","2019-02-16 06:00","2019","02","16","06:00","-1.0","","-8.2","","58","","","","","M","32","","","","101.27","","","","-8","","NA"
"-130.70","54.58","GREY ISLET (AUT)","1063303","2019-02-16 07:00","2019","02","16","07:00","-1.2","","-8.4","","58","","","","","M","32","","","","101.35","","","","-8","","NA"
"-130.70","54.58","GREY ISLET (AUT)","1063303","2019-02-16 08:00","2019","02","16","08:00","-1.1","","-8.0","","59","","","","","M","18","","","","101.41","","","","-6","","NA"
"-130.70","54.58","GREY ISLET (AUT)","1063303","2019-02-16 09:00","2019","02","16","09:00","-1.2","","-8.3","","59","","","","","M","27","","","","101.49","","","","-8","","NA"
"-130.70","54.58","GREY ISLET (AUT)","1063303","2019-02-16 10:00","2019","02","16","10:00","-0.9","","-7.1","","63","","","","","M","33","","","","101.55","","","","-8","","NA"
"-130.70","54.58","GREY ISLET (AUT)","1063303","2019-02-16 11:00","2019","02","16","11:00","-0.7","","-7.2","","62","","","","","M","24","","","","101.58","","","","-7","","NA"
"-130.70","54.58","GREY ISLET (AUT)","1063303","2019-02-16 12:00","2019","02","16","12:00","-0.7","","-8.3","","56","","","","","M","28","","","","101.64","","","","-7","","NA"
"-130.70","54.58","GREY ISLET (AUT)","1063303","2019-02-16 13:00","2019","02","16","13:00","-0.4","","-9.4","","51","","","","","M","29","","","","101.67","","","","-7","","NA"
"-130.70","54.58","GREY ISLET (AUT)","1063303","2019-02-16 14:00","2019","02","16","14:00","-0.2","","-9.6","","49","","","","","M","26","","","","101.70","","","","-6","","NA"
"-130.70","54.58","GREY ISLET (AUT)","1063303","2019-02-16 15:00","2019","02","16","15:00","-0.1","","-9.8","","48","","","","","M","27","","","","101.75","","","","-6","","NA"
"-130.70","54.58","GREY ISLET (AUT)","1063303","2019-02-16 16:00","2019","02","16","16:00","0.2","","-8.5","","52","","","","","M","29","","","","101.82","","","","","","NA"
"-130.70","54.58","GREY ISLET (AUT)","1063303","2019-02-16 17:00","2019","02","16","17:00","-0.2","","-10.5","","46","","","","","M","30","","","","101.86","","","","-7","","NA"
"-130.70","54.58","GREY ISLET (AUT)","1063303","2019-02-16 18:00","2019","02","16","18:00","-0.4","","-8.9","","53","","","","","M","30","","","","101.93","","","","-7","","NA"
"-130.70","54.58","GREY ISLET (AUT)","1063303","2019-02-16 19:00","2019","02","16","19:00","-0.6","","-8.7","","54","","","","","M","30","","","","102.03","","","","-7","","NA"
"-130.70","54.58","GREY ISLET (AUT)","1063303","2019-02-16 20:00","2019","02","16","20:00","-0.8","","-9.2","","53","","","","","M","27","","","","102.05","","","","-7","","NA"
"-130.70","54.58","GREY ISLET (AUT)","1063303","2019-02-16 21:00","2019","02","16","21:00","-1.2","","-9.7","","52","","","","","M","20","","","","102.12","","","","-7","","NA"
"-130.70","54.58","GREY ISLET (AUT)","1063303","2019-02-16 22:00","2019","02","16","22:00","-1.3","","-9.2","","55","","","","","M","22","","","","102.23","","","","-7","","NA"
"-130.70","54.58","GREY ISLET (AUT)","1063303","2019-02-16 23:00","2019","02","16","23:00","-1.4","","-9.1","","56","","","","","M","22","","","","102.31","","","","-7","","NA"
"-130.70","54.58","GREY ISLET (AUT)","1063303","2019-02-17 00:00","2019","02","17","00:00","-1.7","","-8.9","","58","","","","","M","19","","","","102.36","","","","-7","","NA"
"-130.70","54.58","GREY ISLET (AUT)","1063303","2019-02-17 01:00","2019","02","17","01:00","-1.7","","-8.8","","58","","","","","M","27","","","","102.40","","","","-8","","NA"
"-130.70","54.58","GREY ISLET (AUT)","1063303","2019-02-17 02:00","2019","02","17","02:00","-1.8","","-9.2","","57","","","","","M","22","","","","102.47","","","","-8","","NA"
"-130.70","54.58","GREY ISLET (AUT)","1063303","2019-02-17 03:00","2019","02","17","03:00","-1.7","","-8.7","","59","","","","","M","23","","","","102.51","","","","-8","","NA"
"-130.70","54.58","GREY ISLET (AUT)","1063303","2019-02-17 04:00","2019","02","17","04:00","-2.0","","-9.3","","58","","","","","M","25","","","","102.54","","","","-8","","NA"
"-130.70","54.58","GREY ISLET (AUT)","1063303","2019-02-17 05:00","2019","02","17","05:00","-2.0","","-9.2","","58","","","","","M","25","","","","102.60","","","","-8","","NA"
"-130.70","54.58","GREY ISLET (AUT)","1063303","2019-02-17 06:00","2019","02","17","06:00","-1.9","","-8.4","","61","","","","","M","23","","","","102.68","","","","-8","","NA"
"-130.70","54.58","GREY ISLET (AUT)","1063303","2019-02-17 07:00","2019","02","17","07:00","-2.0","","-9.2","","58","","","","","M","20","","","","102.74","","","","-8","","NA"
"-130.70","54.58","GREY ISLET (AUT)","1063303","2019-02-17 08:00","2019","02","17","08:00","-2.0","","-8.4","","62","","","","","M","20","","","","102.74","","","","-8","","NA"
"-130.70","54.58","GREY ISLET (AUT)","1063303","2019-02-17 09:00","2019","02","17","09:00","-1.3","","-6.8","","66","","","","","M","19","","","","102.76","","","","-7","","NA"
"-130.70","54.58","GREY ISLET (AUT)","1063303","2019-02-17 10:00","2019","02","17","10:00","-1.4","","-8.4","","59","","","","","M","26","","","","102.84","","","","-8","","NA"
"-130.70","54.58","GREY ISLET (AUT)","1063303","2019-02-17 11:00","2019","02","17","11:00","-1.2","","-8.2","","59","","","","","M","19","","","","102.86","","","","-7","","NA"
"-130.70","54.58","GREY ISLET (AUT)","1063303","2019-02-17 12:00","2019","02","17","12:00","-0.4","","-7.4","","59","","","","","M","25","","","","102.87","","","","-6","","NA"
"-130.70","54.58","GREY ISLET (AUT)","1063303","2019-02-17 13:00","2019","02","17","13:00","-0.1","","-8.6","","53","","","","","M","18","","","","102.90","","","","-5","","NA"
"-130.70","54.58","GREY ISLET (AUT)","1063303","2019-02-17 14:00","2019","02","17","14:00","0.5","","-8.6","","51","","","","","M","23","","","","102.92","","","","","","NA"
"-130.70","54.58","GREY ISLET (AUT)","1063303","2019-02-17 15:00","2019","02","17","15:00","1.2","","-8.6","","48","","0.0","","","M","22","","","","102.93","","","","","","NA"
"-130.70","54.58","GREY ISLET (AUT)","1063303","2019-02-17 16:00","2019","02","17","16:00","1.3","","-8.1","","49","","0.0","","","M","24","","","","102.93","","","","","","NA"
"-130.70","54.58","GREY ISLET (AUT)","1063303","2019-02-17 17:00","2019","02","17","17:00","1.5","","-8.7","","47","","0.0","","","M","28","","","","102.93","","","","","","NA"
"-130.70","54.58","GREY ISLET (AUT)","1063303","2019-02-17 18:00","2019","02","17","18:00","1.0","","-8.6","","49","","0.0","","","M","24","","","","102.90","","","","","","NA"
"-130.70","54.58","GREY ISLET (AUT)","1063303","2019-02-17 19:00","2019","02","17","19:00","0.9","","-8.4","","50","","0.0","","","M","32","","","","102.94","","","","","","NA"
"-130.70","54.58","GREY ISLET (AUT)","1063303","2019-02-17 20:00","2019","02","17","20:00","0.8","","-7.9","","52","","0.0","","","M","26","","","","102.96","","","","","","NA"
"-130.70","54.58","GREY ISLET (AUT)","1063303","2019-02-17 21:00","2019","02","17","21:00","0.5","","-7.4","","55","","0.0","","","M","30","","","","102.95","","","","","","NA"
"-130.70","54.58","GREY ISLET (AUT)","1063303","2019-02-17 22:00","2019","02","17","22:00","0.5","","-6.6","","59","","","","","M","30","","","","102.95","","","","","","NA"
"-130.70","54.58","GREY ISLET (AUT)","1063303","2019-02-17 23:00","2019","02","17","23:00","0.3","","-6.9","","59","","","","","M","30","","","","102.97","","","","","","NA"
"-130.70","54.58","GREY ISLET (AUT)","1063303","2019-02-18 00:00","2019","02","18","00:00","0.3","","-6.3","","61","","","","","M","30","","","","102.95","","","","","","NA"
"-130.70","54.58","GREY ISLET (AUT)","1063303","2019-02-18 01:00","2019","02","18","01:00","0.4","","-6.0","","62","","","","","M","30","","","","102.93","","","","","","NA"
"-130.70","54.58","GREY ISLET (AUT)","1063303","2019-02-18 02:00","2019","02","18","02:00","0.4","","-5.5","","65","","","","","M","29","","","","102.93","","","","","","NA"
"-130.70","54.58","GREY ISLET (AUT)","1063303","2019-02-18 03:00","2019","02","18","03:00","0.2","","-6.2","","62","","","","","M","26","","","","102.94","","","","","","NA"
"-130.70","54.58","GREY ISLET (AUT)","1063303","2019-02-18 04:00","2019","02","18","04:00","0.2","","-6.4","","62","","","","","M","26","","","","102.93","","","","","","NA"
"-130.70","54.58","GREY ISLET (AUT)","1063303","2019-02-18 05:00","2019","02","18","05:00","0.3","","-5.4","","65","","","","","M","25","","","","102.95","","","","","","NA"
"-130.70","54.58","GREY ISLET (AUT)","1063303","2019-02-18 06:00","2019","02","18","06:00","0.1","","-6.1","","63","","","","","M","21","","","","102.93","","","","","","NA"
"-130.70","54.58","GREY ISLET (AUT)","1063303","2019-02-18 07:00","2019","02","18","07:00","0.1","","-6.0","","63","","","","","M","20","","","","102.89","","","","","","NA"
"-130.70","54.58","GREY ISLET (AUT)","1063303","2019-02-18 08:00","2019","02","18","08:00","0.1","","-6.4","","62","","","","","M","20","","","","102.89","","","","","","NA"
"-130.70","54.58","GREY ISLET (AUT)","1063303","2019-02-18 09:00","2019","02","18","09:00","0.0","","-5.8","","65","","","","","M","22","","","","102.88","","","","-6","","NA"
"-130.70","54.58","GREY ISLET (AUT)","1063303","2019-02-18 10:00","2019","02","18","10:00","1.1","","-5.3","","62","","0.0","","","M","12","","","","102.84","","","","","","NA"
"-130.70","54.58","GREY ISLET (AUT)","1063303","2019-02-18 11:00","2019","02","18","11:00","1.3","","-4.3","","67","","0.0","","","M","","M","","","102.80","","","","","","NA"
"-130.70","54.58","GREY ISLET (AUT)","1063303","2019-02-18 12:00","2019","02","18","12:00","1.7","","-3.0","","71","","0.0","","","M","","M","","","102.77","","","","","","NA"
"-130.70","54.58","GREY ISLET (AUT)","1063303","2019-02-18 13:00","2019","02","18","13:00","1.8","","-2.5","","73","","0.0","","","M","","M","","","102.72","","","","","","NA"
"-130.70","54.58","GREY ISLET (AUT)","1063303","2019-02-18 14:00","2019","02","18","14:00","1.5","","-2.0","","78","","0.0","","","M","","M","","","102.68","","","","","","NA"
"-130.70","54.58","GREY ISLET (AUT)","1063303","2019-02-18 15:00","2019","02","18","15:00","1.4","","-1.6","","81","","0.0","","","M","","M","","","102.64","","","","","","NA"
"-130.70","54.58","GREY ISLET (AUT)","1063303","2019-02-18 16:00","2019","02","18","16:00","1.6","","-0.8","","84","","0.0","","","M","","M","","","102.54","","","","","","NA"
"-130.70","54.58","GREY ISLET (AUT)","1063303","2019-02-18 17:00","2019","02","18","17:00","1.7","","-0.4","","86","","0.0","","","M","","M","","","102.50","","","","","","NA"
"-130.70","54.58","GREY ISLET (AUT)","1063303","2019-02-18 18:00","2019","02","18","18:00","2.0","","0.5","","90","","0.0","","","M","","M","","","102.43","","","","","","NA"
"-130.70","54.58","GREY ISLET (AUT)","1063303","2019-02-18 19:00","2019","02","18","19:00","2.2","","1.2","","93","","0.0","","","M","","M","","","102.35","","","","","","NA"
"-130.70","54.58","GREY ISLET (AUT)","1063303","2019-02-18 20:00","2019","02","18","20:00","2.8","","1.7","","92","","0.6","","","M","","M","","","102.30","","","","","","NA"
"-130.70","54.58","GREY ISLET (AUT)","1063303","2019-02-18 21:00","2019","02","18","21:00","3.2","","1.9","","92","","0.6","","","M","","M","","","102.19","","","","","","NA"
"-130.70","54.58","GREY ISLET (AUT)","1063303","2019-02-18 22:00","2019","02","18","22:00","3.5","","2.6","","94","","0.2","","","M","","M","","","102.12","","","","","","NA"
"-130.70","54.58","GREY ISLET (AUT)","1063303","2019-02-18 23:00","2019","02","18","23:00","3.3","","2.3","","94","","1.4","","","M","","M","","","102.06","","","","","","NA"
"-130.70","54.58","GREY ISLET (AUT)","1063303","2019-02-19 00:00","2019","02","19","00:00","3.6","","2.7","","94","","0.4","","","M","","M","","","101.88","","","","","","NA"
"-130.70","54.58","GREY ISLET (AUT)","1063303","2019-02-19 01:00","2019","02","19","01:00","3.5","","2.5","","93","","0.0","","","M","","M","","","101.76","","","","","","NA"
"-130.70","54.58","GREY ISLET (AUT)","1063303","2019-02-19 02:00","2019","02","19","02:00","3.5","","2.5","","93","","0.0","","","M","","M","","","101.65","","","","","","NA"
"-130.70","54.58","GREY ISLET (AUT)","1063303","2019-02-19 03:00","2019","02","19","03:00","4.2","","3.2","","93","","1.0","","","M","","M","","","101.53","","","","","","NA"
"-130.70","54.58","GREY ISLET (AUT)","1063303","2019-02-19 04:00","2019","02","19","04:00","3.6","","2.2","","91","","1.2","","","M","","M","","","101.43","","","","","","NA"
"-130.70","54.58","GREY ISLET (AUT)","1063303","2019-02-19 05:00","2019","02","19","05:00","3.4","","2.2","","92","","1.2","","","M","","M","","","101.24","","","","","","NA"
"-130.70","54.58","GREY ISLET (AUT)","1063303","2019-02-19 06:00","2019","02","19","06:00","3.6","","2.6","","94","","0.4","","","M","","M","","","101.11","","","","","","NA"
"-130.70","54.58","GREY ISLET (AUT)","1063303","2019-02-19 07:00","2019","02","19","07:00","4.7","","3.6","","93","","0.8","","","M","","M","","","101.09","","","","","","NA"
"-130.70","54.58","GREY ISLET (AUT)","1063303","2019-02-19 08:00","2019","02","19","08:00","5.0","","3.6","","91","","0.2","","","M","","M","","","101.03","","","","","","NA"
"-130.70","54.58","GREY ISLET (AUT)","1063303","2019-02-19 09:00","2019","02","19","09:00","5.3","","3.3","","87","","0.0","","","M","","M","","","100.99","","","","","","NA"
"-130.70","54.58","GREY ISLET (AUT)","1063303","2019-02-19 10:00","2019","02","19","10:00","5.6","","3.2","","85","","0.2","","","M","","M","","","100.99","","","","","","NA"
"-130.70","54.58","GREY ISLET (AUT)","1063303","2019-02-19 11:00","2019","02","19","11:00","4.3","","1.9","","85","","0.6","","","M","","M","","","101.00","","","","","","NA"
"-130.70","54.58","GREY ISLET (AUT)","1063303","2019-02-19 12:00","2019","02","19","12:00","5.9","","2.5","","78","","0.0","","","M","","M","","","101.01","","","","","","NA"
"-130.70","54.58","GREY ISLET (AUT)","1063303","2019-02-19 13:00","2019","02","19","13:00","5.7","","2.0","","77","","0.0","","","M","","M","","","101.00","","","","","","NA"
"-130.70","54.58","GREY ISLET (AUT)","1063303","2019-02-19 14:00","2019","02","19","14:00","5.4","","2.2","","80","","0.0","","","M","","M","","","101.00","","","","","","NA"
"-130.70","54.58","GREY ISLET (AUT)","1063303","2019-02-19 15:00","2019","02","19","15:00","5.5","","2.2","","79","","0.0","","","M","","M","","","100.98","","","","","","NA"
"-130.70","54.58","GREY ISLET (AUT)","1063303","2019-02-19 16:00","2019","02","19","16:00","5.7","","2.1","","78","","0.0","","","M","","M","","","101.01","","","","","","NA"
"-130.70","54.58","GREY ISLET (AUT)","1063303","2019-02-19 17:00","2019","02","19","17:00","5.8","","2.0","","76","","0.0","","","M","","M","","","101.02","","","","","","NA"
"-130.70","54.58","GREY ISLET (AUT)","1063303","2019-02-19 18:00","2019","02","19","18:00","5.1","","1.8","","79","","0.0","","","M","","M","","","101.10","","","","","","NA"
"-130.70","54.58","GREY ISLET (AUT)","1063303","2019-02-19 19:00","2019","02","19","19:00","4.8","","1.9","","82","","0.0","","","M","","M","","","101.11","","","","","","NA"
"-130.70","54.58","GREY ISLET (AUT)","1063303","2019-02-19 20:00","2019","02","19","20:00","4.8","","2.5","","85","","0.0","","","M","","M","","","101.13","","","","","","NA"
"-130.70","54.58","GREY ISLET (AUT)","1063303","2019-02-19 21:00","2019","02","19","21:00","4.6","","2.4","","85","","0.0","","","M","","M","","","101.17","","","","","","NA"
"-130.70","54.58","GREY ISLET (AUT)","1063303","2019-02-19 22:00","2019","02","19","22:00","4.8","","2.3","","84","","0.0","","","M","","M","","","101.19","","","","","","NA"
"-130.70","54.58","GREY ISLET (AUT)","1063303","2019-02-19 23:00","2019","02","19","23:00","4.1","","2.4","","89","","0.0","","","M","","M","","","101.22","","","","","","NA"
"-130.70","54.58","GREY ISLET (AUT)","1063303","2019-02-20 00:00","2019","02","20","00:00","4.3","","2.6","","89","","0.0","","","M","","M","","","101.22","","","","","","NA"
"-130.70","54.58","GREY ISLET (AUT)","1063303","2019-02-20 01:00","2019","02","20","01:00","3.9","","2.4","","90","","0.0","","","M","","M","","","101.25","","","","","","NA"
"-130.70","54.58","GREY ISLET (AUT)","1063303","2019-02-20 02:00","2019","02","20","02:00","3.6","","2.2","","90","","0.0","","","M","","M","","","101.30","","","","","","NA"
"-130.70","54.58","GREY ISLET (AUT)","1063303","2019-02-20 03:00","2019","02","20","03:00","3.3","","2.1","","92","","0.4","","","M","","M","","","101.35","","","","","","NA"
"-130.70","54.58","GREY ISLET (AUT)","1063303","2019-02-20 04:00","2019","02","20","04:00","3.2","","2.0","","92","","0.0","","","M","","M","","","101.35","","","","","","NA"
"-130.70","54.58","GREY ISLET (AUT)","1063303","2019-02-20 05:00","2019","02","20","05:00","3.0","","1.9","","93","","0.0","","","M","","M","","","101.41","","","","","","NA"
"-130.70","54.58","GREY ISLET (AUT)","1063303","2019-02-20 06:00","2019","02","20","06:00","2.7","","1.7","","93","","0.0","","","M","","M","","","101.48","","","","","","NA"
"-130.70","54.58","GREY ISLET (AUT)","1063303","2019-02-20 07:00","2019","02","20","07:00","2.9","","1.6","","91","","0.0","","","M","","M","","","101.54","","","","","","NA"
"-130.70","54.58","GREY ISLET (AUT)","1063303","2019-02-20 08:00","2019","02","20","08:00","2.7","","1.2","","90","","0.0","","","M","","M","","","101.62","","","","","","NA"
"-130.70","54.58","GREY ISLET (AUT)","1063303","2019-02-20 09:00","2019","02","20","09:00","2.9","","0.9","","87","","0.0","","","M","","M","","","101.69","","","","","","NA"
"-130.70","54.58","GREY ISLET (AUT)","1063303","2019-02-20 10:00","2019","02","20","10:00","2.8","","0.6","","85","","0.0","","","M","","M","","","101.75","","","","","","NA"
"-130.70","54.58","GREY ISLET (AUT)","1063303","2019-02-20 11:00","2019","02","20","11:00","3.3","","0.5","","82","","0.0","","","M","","M","","","101.83","","","","","","NA"
"-130.70","54.58","GREY ISLET (AUT)","1063303","2019-02-20 12:00","2019","02","20","12:00","3.8","","0.8","","81","","0.0","","","M","","M","","","101.90","","","","","","NA"
"-130.70","54.58","GREY ISLET (AUT)","1063303","2019-02-20 13:00","2019","02","20","13:00","4.3","","0.9","","78","","0.0","","","M","","M","","","101.94","","","","","","NA"
"-130.70","54.58","GREY ISLET (AUT)","1063303","2019-02-20 14:00","2019","02","20","14:00","4.3","","1.0","","79","","0.0","","","M","","M","","","101.97","","","","","","NA"
"-130.70","54.58","GREY ISLET (AUT)","1063303","2019-02-20 15:00","2019","02","20","15:00","4.6","","1.4","","80","","0.0","","","M","","M","","","101.99","","","","","","NA"
"-130.70","54.58","GREY ISLET (AUT)","1063303","2019-02-20 16:00","2019","02","20","16:00","5.2","","1.8","","79","","0.0","","","M","","M","","","102.00","","","","","","NA"
"-130.70","54.58","GREY ISLET (AUT)","1063303","2019-02-20 17:00","2019","02","20","17:00","5.1","","1.5","","77","","0.0","","","M","","M","","","102.05","","","","","","NA"
"-130.70","54.58","GREY ISLET (AUT)","1063303","2019-02-20 18:00","2019","02","20","18:00","4.9","","1.0","","76","","0.0","","","M","","M","","","102.06","","","","","","NA"
"-130.70","54.58","GREY ISLET (AUT)","1063303","2019-02-20 19:00","2019","02","20","19:00","4.2","","0.5","","77","","0.0","","","M","20","","","","102.10","","","","","","NA"
"-130.70","54.58","GREY ISLET (AUT)","1063303","2019-02-20 20:00","2019","02","20","20:00","3.8","","0.2","","77","","0.0","","","M","22","","","","102.11","","","","","","NA"
"-130.70","54.58","GREY ISLET (AUT)","1063303","2019-02-20 21:00","2019","02","20","21:00","3.5","","0.8","","83","","0.0","","","M","20","","","","102.11","","","","","","NA"
"-130.70","54.58","GREY ISLET (AUT)","1063303","2019-02-20 22:00","2019","02","20","22:00","3.2","","0.8","","84","","0.0","","","M","20","","","","102.15","","","","","","NA"
"-130.70","54.58","GREY ISLET (AUT)","1063303","2019-02-20 23:00","2019","02","20","23:00","3.0","","0.9","","86","","0.0","","","M","20","","","","102.14","","","","","","NA"
"-130.70","54.58","GREY ISLET (AUT)","1063303","2019-02-21 00:00","2019","02","21","00:00","3.0","","1.2","","88","","0.0","","","M","17","","","","102.11","","","","","","NA"
"-130.70","54.58","GREY ISLET (AUT)","1063303","2019-02-21 01:00","2019","02","21","01:00","3.2","","1.4","","88","","0.0","","","M","14","","","","102.11","","","","","","NA"
"-130.70","54.58","GREY ISLET (AUT)","1063303","2019-02-21 02:00","2019","02","21","02:00","3.1","","1.3","","88","","0.0","","","M","10","","","","102.07","","","","","","NA"
"-130.70","54.58","GREY ISLET (AUT)","1063303","2019-02-21 03:00","2019","02","21","03:00","2.9","","1.1","","88","","0.0","","","M","14","","","","102.03","","","","","","NA"
"-130.70","54.58","GREY ISLET (AUT)","1063303","2019-02-21 04:00","2019","02","21","04:00","2.8","","1.0","","88","","0.0","","","M","18","","","","101.95","","","","","","NA"
"-130.70","54.58","GREY ISLET (AUT)","1063303","2019-02-21 05:00","2019","02","21","05:00","2.6","","0.8","","88","","0.0","","","M","12","","","","101.92","","","","","","NA"
"-130.70","54.58","GREY ISLET (AUT)","1063303","2019-02-21 06:00","2019","02","21","06:00","2.6","","0.6","","87","","0.0","","","M","16","","","","101.80","","","","","","NA"
"-130.70","54.58","GREY ISLET (AUT)","1063303","2019-02-21 07:00","2019","02","21","07:00","3.1","","0.1","","81","","0.0","","","M","0","","","","101.71","","","","","","NA"
"-130.70","54.58","GREY ISLET (AUT)","1063303","2019-02-21 08:00","2019","02","21","08:00","3.7","","0.8","","81","","0.0","","","M","8","","","","101.57","","","","","","NA"
"-130.70","54.58","GREY ISLET (AUT)","1063303","2019-02-21 09:00","2019","02","21","09:00","3.8","","1.1","","82","","0.0","","","M","9","","","","101.49","","","","","","NA"
"-130.70","54.58","GREY ISLET (AUT)","1063303","2019-02-21 10:00","2019","02","21","10:00","4.0","","1.1","","82","","0.0","","","M","10","","","","101.38","","","","","","NA"
"-130.70","54.58","GREY ISLET (AUT)","1063303","2019-02-21 11:00","2019","02","21","11:00","3.6","","1.4","","86","","0.0","","","M","11","","","","101.27","","","","","","NA"
"-130.70","54.58","GREY ISLET (AUT)","1063303","2019-02-21 12:00","2019","02","21","12:00","3.5","","1.6","","87","","0.2","","","M","12","","","","101.16","","","","","","NA"
"-130.70","54.58","GREY ISLET (AUT)","1063303","2019-02-21 13:00","2019","02","21","13:00","3.0","","1.7","","91","","0.0","","","M","15","","","","101.00","","","","","","NA"
"-130.70","54.58","GREY ISLET (AUT)","1063303","2019-02-21 14:00","2019","02","21","14:00","3.3","","1.8","","90","","0.6","","","M","18","","","","100.73","","","","","","NA"
"-130.70","54.58","GREY ISLET (AUT)","1063303","2019-02-21 15:00","2019","02","21","15:00","2.4","","1.4","","93","","0.8","","","M","16","","","","100.60","","","","","","NA"
"-130.70","54.58","GREY ISLET (AUT)","1063303","2019-02-21 16:00","2019","02","21","16:00","2.8","","1.8","","93","","0.8","","","M","16","","","","100.48","","","","","","NA"
"-130.70","54.58","GREY ISLET (AUT)","1063303","2019-02-21 17:00","2019","02","21","17:00","3.2","","2.1","","92","","0.4","","","M","19","","","","100.22","","","","","","NA"
"-130.70","54.58","GREY ISLET (AUT)","1063303","2019-02-21 18:00","2019","02","21","18:00","3.4","","2.1","","91","","0.6","","","M","18","","","","100.10","","","","","","NA"
"-130.70","54.58","GREY ISLET (AUT)","1063303","2019-02-21 19:00","2019","02","21","19:00","2.5","","1.3","","92","","1.4","","","M","1","","","","100.29","","","","","","NA"
"-130.70","54.58","GREY ISLET (AUT)","1063303","2019-02-21 20:00","2019","02","21","20:00","4.0","","2.3","","89","","0.2","","","M","0","","","","100.23","","","","","","NA"
"-130.70","54.58","GREY ISLET (AUT)","1063303","2019-02-21 21:00","2019","02","21","21:00","4.6","","2.5","","86","","0.6","","","M","2","","","","100.17","","","","","","NA"
"-130.70","54.58","GREY ISLET (AUT)","1063303","2019-02-21 22:00","2019","02","21","22:00","4.5","","1.7","","82","","0.4","","","M","0","","","","100.16","","","","","","NA"
"-130.70","54.58","GREY ISLET (AUT)","1063303","2019-02-21 23:00","2019","02","21","23:00","3.5","","1.7","","88","","0.2","","","M","3","","","","100.13","","","","","","NA"
"-130.70","54.58","GREY ISLET (AUT)","1063303","2019-02-22 00:00","2019","02","22","00:00","3.7","","2.0","","89","","0.8","","","M","2","","","","100.09","","","","","","NA"
"-130.70","54.58","GREY ISLET (AUT)","1063303","2019-02-22 01:00","2019","02","22","01:00","4.0","","2.2","","88","","0.0","","","M","4","","","","100.08","","","","","","NA"
"-130.70","54.58","GREY ISLET (AUT)","1063303","2019-02-22 02:00","2019","02","22","02:00","4.3","","2.2","","87","","0.6","","","M","10","","","","100.07","","","","","","NA"
"-130.70","54.58","GREY ISLET (AUT)","1063303","2019-02-22 03:00","2019","02","22","03:00","4.2","","2.3","","87","","0.6","","","M","6","","","","100.00","","","","","","NA"
"-130.70","54.58","GREY ISLET (AUT)","1063303","2019-02-22 04:00","2019","02","22","04:00","2.5","","1.4","","93","","2.0","","","M","5","","","","99.98","","","","","","NA"
"-130.70","54.58","GREY ISLET (AUT)","1063303","2019-02-22 05:00","2019","02","22","05:00","2.9","","1.8","","93","","1.4","","","M","4","","","","99.94","","","","","","NA"
"-130.70","54.58","GREY ISLET (AUT)","1063303","2019-02-22 06:00","2019","02","22","06:00","3.9","","2.6","","91","","0.4","","","M","6","","","","99.95","","","","","","NA"
"-130.70","54.58","GREY ISLET (AUT)","1063303","2019-02-22 07:00","2019","02","22","07:00","3.5","","2.3","","91","","0.2","","","M","7","","","","99.96","","","","","","NA"
"-130.70","54.58","GREY ISLET (AUT)","1063303","2019-02-22 08:00","2019","02","22","08:00","3.3","","1.8","","90","","0.8","","","M","5","","","","99.99","","","","","","NA"
"-130.70","54.58","GREY ISLET (AUT)","1063303","2019-02-22 09:00","2019","02","22","09:00","4.0","","2.6","","91","","0.2","","","M","2","","","","100.02","","","","","","NA"
"-130.70","54.58","GREY ISLET (AUT)","1063303","2019-02-22 10:00","2019","02","22","10:00","4.3","","2.5","","89","","1.4","","","M","0","","","","100.09","","","","","","NA"
"-130.70","54.58","GREY ISLET (AUT)","1063303","2019-02-22 11:00","2019","02","22","11:00","4.4","","2.7","","89","","0.0","","","M","1","","","","100.16","","","","","","NA"
"-130.70","54.58","GREY ISLET (AUT)","1063303","2019-02-22 12:00","2019","02","22","12:00","2.2","","1.2","","94","","1.4","","","M","26","","","","100.27","","","","","","NA"
"-130.70","54.58","GREY ISLET (AUT)","1063303","2019-02-22 13:00","2019","02","22","13:00","2.3","","1.5","","94","","1.0","","","M","28","","","","100.32","","","","","","NA"
"-130.70","54.58","GREY ISLET (AUT)","1063303","2019-02-22 14:00","2019","02","22","14:00","2.7","","1.9","","95","","1.0","","","M","28","","","","100.40","","","","","","NA"
"-130.70","54.58","GREY ISLET (AUT)","1063303","2019-02-22 15:00","2019","02","22","15:00","3.0","","2.0","","94","","0.0","","","M","29","","","","100.45","","","","","","NA"
"-130.70","54.58","GREY ISLET (AUT)","1063303","2019-02-22 16:00","2019","02","22","16:00","3.0","","2.0","","94","","0.4","","","M","28","","","","100.53","","","","","","NA"
"-130.70","54.58","GREY ISLET (AUT)","1063303","2019-02-22 17:00","2019","02","22","17:00","3.1","","1.7","","91","","2.4","","","M","19","","","","100.59","","","","","","NA"
"-130.70","54.58","GREY ISLET (AUT)","1063303","2019-02-22 18:00","2019","02","22","18:00","3.2","","1.3","","87","","0.0","","","M","21","","","","100.61","","","","","","NA"
"-130.70","54.58","GREY ISLET (AUT)","1063303","2019-02-22 19:00","2019","02","22","19:00","3.4","","1.4","","86","","0.0","","","M","15","","","","100.68","","","","","","NA"
"-130.70","54.58","GREY ISLET (AUT)","1063303","2019-02-22 20:00","2019","02","22","20:00","3.5","","1.3","","85","","0.0","","","M","11","","","","100.74","","","","","","NA"
"-130.70","54.58","GREY ISLET (AUT)","1063303","2019-02-22 21:00","2019","02","22","21:00","3.6","","0.6","","81","","0.0","","","M","26","","","","100.80","","","","","","NA"
"-130.70","54.58","GREY ISLET (AUT)","1063303","2019-02-22 22:00","2019","02","22","22:00","3.6","","0.7","","82","","0.2","","","M","23","","","","100.85","","","","","","NA"
"-130.70","54.58","GREY ISLET (AUT)","1063303","2019-02-22 23:00","2019","02","22","23:00","3.7","","1.1","","83","","0.0","","","M","30","","","","100.93","","","","","","NA"
"-130.70","54.58","GREY ISLET (AUT)","1063303","2019-02-23 00:00","2019","02","23","00:00","3.7","","0.9","","82","","0.0","","","M","26","","","","101.02","","","","","","NA"
"-130.70","54.58","GREY ISLET (AUT)","1063303","2019-02-23 01:00","2019","02","23","01:00","3.8","","0.8","","81","","0.0","","","M","27","","","","101.07","","","","","","NA"
"-130.70","54.58","GREY ISLET (AUT)","1063303","2019-02-23 02:00","2019","02","23","02:00","3.8","","0.8","","81","","0.0","","","M","25","","","","101.16","","","","","","NA"
"-130.70","54.58","GREY ISLET (AUT)","1063303","2019-02-23 03:00","2019","02","23","03:00","4.0","","0.6","","79","","0.0","","","M","22","","","","101.20","","","","","","NA"
"-130.70","54.58","GREY ISLET (AUT)","1063303","2019-02-23 04:00","2019","02","23","04:00","3.7","","-0.6","","74","","0.0","","","M","19","","","","101.27","","","","","","NA"
"-130.70","54.58","GREY ISLET (AUT)","1063303","2019-02-23 05:00","2019","02","23","05:00","3.7","","-0.7","","73","","0.0","","","M","19","","","","101.35","","","","","","NA"
"-130.70","54.58","GREY ISLET (AUT)","1063303","2019-02-23 06:00","2019","02","23","06:00","3.5","","-1.4","","70","","0.0","","","M","19","","","","101.48","","","","","","NA"
"-130.70","54.58","GREY ISLET (AUT)","1063303","2019-02-23 07:00","2019","02","23","07:00","3.1","","-1.8","","70","","0.0","","","M","20","","","","101.57","","","","","","NA"
"-130.70","54.58","GREY ISLET (AUT)","1063303","2019-02-23 08:00","2019","02","23","08:00","2.8","","-2.6","","68","","0.0","","","M","21","","","","101.64","","","","","","NA"
"-130.70","54.58","GREY ISLET (AUT)","1063303","2019-02-23 09:00","2019","02","23","09:00","2.3","","-3.5","","65","","0.0","","","M","21","","","","101.76","","","","","","NA"
"-130.70","54.58","GREY ISLET (AUT)","1063303","2019-02-23 10:00","2019","02","23","10:00","2.2","","-4.0","","63","","0.0","","","M","21","","","","101.85","","","","","","NA"
"-130.70","54.58","GREY ISLET (AUT)","1063303","2019-02-23 11:00","2019","02","23","11:00","1.9","","-4.4","","63","","0.0","","","M","22","","","","101.91","","","","","","NA"
"-130.70","54.58","GREY ISLET (AUT)","1063303","2019-02-23 12:00","2019","02","23","12:00","1.8","","-4.1","","65","","0.0","","","M","22","","","","101.96","","","","","","NA"
"-130.70","54.58","GREY ISLET (AUT)","1063303","2019-02-23 13:00","2019","02","23","13:00","1.6","","-4.9","","62","","0.0","","","M","22","","","","101.97","","","","","","NA"
"-130.70","54.58","GREY ISLET (AUT)","1063303","2019-02-23 14:00","2019","02","23","14:00","1.7","","-4.4","","64","","0.0","","","M","22","","","","101.99","","","","","","NA"
"-130.70","54.58","GREY ISLET (AUT)","1063303","2019-02-23 15:00","2019","02","23","15:00","1.7","","-4.7","","62","","0.0","","","M","22","","","","102.02","","","","","","NA"
"-130.70","54.58","GREY ISLET (AUT)","1063303","2019-02-23 16:00","2019","02","23","16:00","1.8","","-4.5","","63","","0.0","","","M","22","","","","102.03","","","","","","NA"
"-130.70","54.58","GREY ISLET (AUT)","1063303","2019-02-23 17:00","2019","02","23","17:00","1.8","","-4.1","","65","","0.0","","","M","22","","","","102.10","","","","","","NA"
"-130.70","54.58","GREY ISLET (AUT)","1063303","2019-02-23 18:00","2019","02","23","18:00","1.5","","-4.5","","64","","0.0","","","M","20","","","","102.10","","","","","","NA"
"-130.70","54.58","GREY ISLET (AUT)","1063303","2019-02-23 19:00","2019","02","23","19:00","1.0","","-5.7","","61","","0.0","","","M","22","","","","102.10","","","","","","NA"
"-130.70","54.58","GREY ISLET (AUT)","1063303","2019-02-23 20:00","2019","02","23","20:00","0.9","","-5.8","","61","","0.0","","","M","21","","","","102.14","","","","","","NA"
"-130.70","54.58","GREY ISLET (AUT)","1063303","2019-02-23 21:00","2019","02","23","21:00","0.9","","-5.6","","62","","0.0","","","M","20","","","","102.15","","","","","","NA"
"-130.70","54.58","GREY ISLET (AUT)","1063303","2019-02-23 22:00","2019","02","23","22:00","0.7","","-5.9","","62","","0.0","","","M","22","","","","102.18","","","","","","NA"
"-130.70","54.58","GREY ISLET (AUT)","1063303","2019-02-23 23:00","2019","02","23","23:00","0.6","","-5.6","","63","","0.0","","","M","20","","","","102.17","","","","","","NA"
"-130.70","54.58","GREY ISLET (AUT)","1063303","2019-02-24 00:00","2019","02","24","00:00","0.7","","-5.7","","62","","0.0","","","M","21","","","","102.21","","","","","","NA"
"-130.70","54.58","GREY ISLET (AUT)","1063303","2019-02-24 01:00","2019","02","24","01:00","0.2","","-6.4","","61","","","","","M","22","","","","102.24","","","","","","NA"
"-130.70","54.58","GREY ISLET (AUT)","1063303","2019-02-24 02:00","2019","02","24","02:00","0.1","","-6.1","","63","","","","","M","20","","","","102.25","","","","","","NA"
"-130.70","54.58","GREY ISLET (AUT)","1063303","2019-02-24 03:00","2019","02","24","03:00","-0.2","","-6.2","","64","","","","","M","19","","","","102.28","","","","-5","","NA"
"-130.70","54.58","GREY ISLET (AUT)","1063303","2019-02-24 04:00","2019","02","24","04:00","-0.1","","-6.0","","64","","","","","M","21","","","","102.24","","","","-6","","NA"
"-130.70","54.58","GREY ISLET (AUT)","1063303","2019-02-24 05:00","2019","02","24","05:00","-0.1","","-5.7","","66","","","","","M","20","","","","102.19","","","","-5","","NA"
"-130.70","54.58","GREY ISLET (AUT)","1063303","2019-02-24 06:00","2019","02","24","06:00","-0.6","","-6.2","","66","","","","","M","23","","","","102.19","","","","-6","","NA"
"-130.70","54.58","GREY ISLET (AUT)","1063303","2019-02-24 07:00","2019","02","24","07:00","-1.0","","-7.1","","63","","","","","M","20","","","","102.16","","","","-7","","NA"
"-130.70","54.58","GREY ISLET (AUT)","1063303","2019-02-24 08:00","2019","02","24","08:00","-0.8","","-6.5","","66","","","","","M","23","","","","102.17","","","","-7","","NA"
"-130.70","54.58","GREY ISLET (AUT)","1063303","2019-02-24 09:00","2019","02","24","09:00","-1.0","","-7.3","","62","","","","","M","23","","","","102.17","","","","-7","","NA"
"-130.70","54.58","GREY ISLET (AUT)","1063303","2019-02-24 10:00","2019","02","24","10:00","-0.9","","-7.3","","61","","","","","M","22","","","","102.15","","","","-7","","NA"
"-130.70","54.58","GREY ISLET (AUT)","1063303","2019-02-24 11:00","2019","02","24","11:00","-0.2","","-6.5","","63","","","","","M","19","","","","102.14","","","","-5","","NA"
"-130.70","54.58","GREY ISLET (AUT)","1063303","2019-02-24 12:00","2019","02","24","12:00","0.0","","-7.5","","57","","","","","M","21","","","","102.12","","","","-5","","NA"
"-130.70","54.58","GREY ISLET (AUT)","1063303","2019-02-24 13:00","2019","02","24","13:00","0.3","","-7.7","","55","","","","","M","21","","","","102.10","","","","","","NA"
"-130.70","54.58","GREY ISLET (AUT)","1063303","2019-02-24 14:00","2019","02","24","14:00","0.7","","-7.1","","56","","0.0","","","M","20","","","","102.09","","","","","","NA"
"-130.70","54.58","GREY ISLET (AUT)","1063303","2019-02-24 15:00","2019","02","24","15:00","0.9","","-8.1","","51","","0.0","","","M","19","","","","102.06","","","","","","NA"
"-130.70","54.58","GREY ISLET (AUT)","1063303","2019-02-24 16:00","2019","02","24","16:00","1.6","","-6.9","","53","","0.0","","","M","19","","","","102.04","","","","","","NA"
"-130.70","54.58","GREY ISLET (AUT)","1063303","2019-02-24 17:00","2019","02","24","17:00","1.5","","-7.6","","51","","0.0","","","M","21","","","","102.08","","","","","","NA"
"-130.70","54.58","GREY ISLET (AUT)","1063303","2019-02-24 18:00","2019","02","24","18:00","1.2","","-7.7","","51","","0.0","","","M","18","","","","102.04","","","","","","NA"
"-130.70","54.58","GREY ISLET (AUT)","1063303","2019-02-24 19:00","2019","02","24","19:00","1.1","","-7.4","","53","","0.0","","","M","20","","","","102.03","","","","","","NA"
"-130.70","54.58","GREY ISLET (AUT)","1063303","2019-02-24 20:00","2019","02","24","20:00","1.0","","-7.1","","55","","0.0","","","M","23","","","","102.04","","","","","","NA"
"-130.70","54.58","GREY ISLET (AUT)","1063303","2019-02-24 21:00","2019","02","24","21:00","0.7","","-7.6","","54","","0.0","","","M","23","","","","102.07","","","","","","NA"
"-130.70","54.58","GREY ISLET (AUT)","1063303","2019-02-24 22:00","2019","02","24","22:00","1.1","","-5.7","","60","","0.0","","","M","21","","","","102.03","","","","","","NA"
"-130.70","54.58","GREY ISLET (AUT)","1063303","2019-02-24 23:00","2019","02","24","23:00","0.7","","-7.0","","56","","0.0","","","M","20","","","","102.03","","","","","","NA"
"-130.70","54.58","GREY ISLET (AUT)","1063303","2019-02-25 00:00","2019","02","25","00:00","0.6","","-7.2","","56","","0.0","","","M","27","","","","102.09","","","","","","NA"
"-130.70","54.58","GREY ISLET (AUT)","1063303","2019-02-25 01:00","2019","02","25","01:00","0.5","","-7.8","","54","","0.0","","","M","22","","","","102.07","","","","","","NA"
"-130.70","54.58","GREY ISLET (AUT)","1063303","2019-02-25 02:00","2019","02","25","02:00","0.4","","-7.2","","57","","","","","M","20","","","","102.06","","","","","","NA"
"-130.70","54.58","GREY ISLET (AUT)","1063303","2019-02-25 03:00","2019","02","25","03:00","0.3","","-7.5","","56","","","","","M","21","","","","102.07","","","","","","NA"
"-130.70","54.58","GREY ISLET (AUT)","1063303","2019-02-25 04:00","2019","02","25","04:00","0.3","","-6.7","","59","","","","","M","23","","","","102.07","","","","","","NA"
"-130.70","54.58","GREY ISLET (AUT)","1063303","2019-02-25 05:00","2019","02","25","05:00","0.0","","-6.8","","60","","","","","M","19","","","","102.06","","","","-5","","NA"
"-130.70","54.58","GREY ISLET (AUT)","1063303","2019-02-25 06:00","2019","02","25","06:00","0.0","","-6.5","","61","","","","","M","20","","","","102.02","","","","-5","","NA"
"-130.70","54.58","GREY ISLET (AUT)","1063303","2019-02-25 07:00","2019","02","25","07:00","-0.1","","-7.6","","57","","","","","M","23","","","","102.03","","","","-6","","NA"
"-130.70","54.58","GREY ISLET (AUT)","1063303","2019-02-25 08:00","2019","02","25","08:00","0.0","","-7.2","","59","","","","","M","23","","","","102.04","","","","-6","","NA"
"-130.70","54.58","GREY ISLET (AUT)","1063303","2019-02-25 09:00","2019","02","25","09:00","-0.2","","-7.8","","56","","","","","M","22","","","","102.06","","","","-6","","NA"
"-130.70","54.58","GREY ISLET (AUT)","1063303","2019-02-25 10:00","2019","02","25","10:00","0.1","","-7.7","","56","","","","","M","19","","","","102.09","","","","","","NA"
"-130.70","54.58","GREY ISLET (AUT)","1063303","2019-02-25 11:00","2019","02","25","11:00","0.3","","-8.2","","53","","","","","M","20","","","","102.08","","","","","","NA"
"-130.70","54.58","GREY ISLET (AUT)","1063303","2019-02-25 12:00","2019","02","25","12:00","0.9","","-7.7","","53","","0.0","","","M","20","","","","102.10","","","","","","NA"
"-130.70","54.58","GREY ISLET (AUT)","1063303","2019-02-25 13:00","2019","02","25","13:00","1.4","","-7.0","","54","","0.0","","","M","20","","","","102.15","","","","","","NA"
"-130.70","54.58","GREY ISLET (AUT)","1063303","2019-02-25 14:00","2019","02","25","14:00","1.7","","-9.7","","42","","0.0","","","M","19","","","","102.11","","","","","","NA"
"-130.70","54.58","GREY ISLET (AUT)","1063303","2019-02-25 15:00","2019","02","25","15:00","2.2","","-7.7","","48","","0.0","","","M","21","","","","102.13","","","","","","NA"
"-130.70","54.58","GREY ISLET (AUT)","1063303","2019-02-25 16:00","2019","02","25","16:00","2.4","","-7.4","","48","","0.0","","","M","21","","","","102.07","","","","","","NA"
"-130.70","54.58","GREY ISLET (AUT)","1063303","2019-02-25 17:00","2019","02","25","17:00","2.4","","-7.4","","48","","0.0","","","M","19","","","","102.06","","","","","","NA"
"-130.70","54.58","GREY ISLET (AUT)","1063303","2019-02-25 18:00","2019","02","25","18:00","2.1","","-7.7","","49","","0.0","","","M","24","","","","101.89","","","","","","NA"
"-130.70","54.58","GREY ISLET (AUT)","1063303","2019-02-25 19:00","2019","02","25","19:00","2.1","","-6.8","","52","","0.0","","","M","21","","","","102.01","","","","","","NA"
"-130.70","54.58","GREY ISLET (AUT)","1063303","2019-02-25 20:00","2019","02","25","20:00","2.1","","-7.4","","49","","0.0","","","M","21","","","","102.15","","","","","","NA"
"-130.70","54.58","GREY ISLET (AUT)","1063303","2019-02-25 21:00","2019","02","25","21:00","2.1","","-8.1","","47","","0.0","","","M","21","","","","102.21","","","","","","NA"
"-130.70","54.58","GREY ISLET (AUT)","1063303","2019-02-25 22:00","2019","02","25","22:00","1.9","","-8.6","","45","","0.0","","","M","18","","","","102.28","","","","","","NA"
"-130.70","54.58","GREY ISLET (AUT)","1063303","2019-02-25 23:00","2019","02","25","23:00","2.2","","-6.6","","52","","0.0","","","M","21","","","","102.35","","","","","","NA"
"-130.70","54.58","GREY ISLET (AUT)","1063303","2019-02-26 00:00","2019","02","26","00:00","2.1","","-8.1","","47","","0.0","","","M","18","","","","102.37","","","","","","NA"
"-130.70","54.58","GREY ISLET (AUT)","1063303","2019-02-26 01:00","2019","02","26","01:00","2.2","","-6.6","","52","","0.0","","","M","20","","","","102.43","","","","","","NA"
"-130.70","54.58","GREY ISLET (AUT)","1063303","2019-02-26 02:00","2019","02","26","02:00","2.1","","-6.8","","52","","0.0","","","M","17","","","","102.44","","","","","","NA"
"-130.70","54.58","GREY ISLET (AUT)","1063303","2019-02-26 03:00","2019","02","26","03:00","2.0","","-6.9","","51","","0.0","","","M","20","","","","102.52","","","","","","NA"
"-130.70","54.58","GREY ISLET (AUT)","1063303","2019-02-26 04:00","2019","02","26","04:00","2.1","","-5.9","","56","","0.0","","","M","20","","","","102.53","","","","","","NA"
"-130.70","54.58","GREY ISLET (AUT)","1063303","2019-02-26 05:00","2019","02","26","05:00","2.1","","-5.9","","56","","0.0","","","M","20","","","","102.54","","","","","","NA"
"-130.70","54.58","GREY ISLET (AUT)","1063303","2019-02-26 06:00","2019","02","26","06:00","1.7","","-5.6","","58","","0.0","","","M","18","","","","102.57","","","","","","NA"
"-130.70","54.58","GREY ISLET (AUT)","1063303","2019-02-26 07:00","2019","02","26","07:00","1.8","","-4.6","","62","","0.0","","","M","31","","","","102.57","","","","","","NA"
"-130.70","54.58","GREY ISLET (AUT)","1063303","2019-02-26 08:00","2019","02","26","08:00","1.8","","-4.6","","63","","0.0","","","M","19","","","","102.58","","","","","","NA"
"-130.70","54.58","GREY ISLET (AUT)","1063303","2019-02-26 09:00","2019","02","26","09:00","1.4","","-5.3","","61","","0.0","","","M","23","","","","102.69","","","","","","NA"
"-130.70","54.58","GREY ISLET (AUT)","1063303","2019-02-26 10:00","2019","02","26","10:00","2.1","","-4.8","","60","","0.0","","","M","19","","","","102.66","","","","","","NA"
"-130.70","54.58","GREY ISLET (AUT)","1063303","2019-02-26 11:00","2019","02","26","11:00","2.7","","-4.8","","58","","0.0","","","M","18","","","","102.66","","","","","","NA"
"-130.70","54.58","GREY ISLET (AUT)","1063303","2019-02-26 12:00","2019","02","26","12:00","3.2","","-4.7","","56","","0.0","","","M","24","","","","102.64","","","","","","NA"
"-130.70","54.58","GREY ISLET (AUT)","1063303","2019-02-26 13:00","2019","02","26","13:00","3.8","","-5.1","","52","","0.0","","","M","19","","","","102.63","","","","","","NA"
"-130.70","54.58","GREY ISLET (AUT)","1063303","2019-02-26 14:00","2019","02","26","14:00","4.4","","-4.3","","53","","0.0","","","M","24","","","","102.61","","","","","","NA"
"-130.70","54.58","GREY ISLET (AUT)","1063303","2019-02-26 15:00","2019","02","26","15:00","5.0","","-5.0","","48","","0.0","","","M","18","","","","102.55","","","","","","NA"
"-130.70","54.58","GREY ISLET (AUT)","1063303","2019-02-26 16:00","2019","02","26","16:00","5.1","","-4.4","","50","","0.0","","","M","29","","","","102.52","","","","","","NA"
"-130.70","54.58","GREY ISLET (AUT)","1063303","2019-02-26 17:00","2019","02","26","17:00","5.3","","-3.6","","53","","0.0","","","M","27","","","","102.47","","","","","","NA"
"-130.70","54.58","GREY ISLET (AUT)","1063303","2019-02-26 18:00","2019","02","26","18:00","5.2","","-4.7","","49","","0.0","","","M","25","","","","102.43","","","","","","NA"
"-130.70","54.58","GREY ISLET (AUT)","1063303","2019-02-26 19:00","2019","02","26","19:00","5.2","","-2.5","","58","","0.0","","","M","21","","","","102.39","","","","","","NA"
"-130.70","54.58","GREY ISLET (AUT)","1063303","2019-02-26 20:00","2019","02","26","20:00","4.6","","-3.6","","55","","0.0","","","M","20","","","","102.35","","","","","","NA"
"-130.70","54.58","GREY ISLET (AUT)","1063303","2019-02-26 21:00","2019","02","26","21:00","4.0","","-4.3","","55","","0.0","","","M","22","","","","102.32","","","","","","NA"
"-130.70","54.58","GREY ISLET (AUT)","1063303","2019-02-26 22:00","2019","02","26","22:00","3.7","","-3.9","","58","","0.0","","","M","25","","","","102.25","","","","","","NA"
"-130.70","54.58","GREY ISLET (AUT)","1063303","2019-02-26 23:00","2019","02","26","23:00","4.0","","-3.3","","59","","0.0","","","M","17","","","","102.19","","","","","","NA"
"-130.70","54.58","GREY ISLET (AUT)","1063303","2019-02-27 00:00","2019","02","27","00:00","3.8","","-3.4","","59","","0.0","","","M","24","","","","102.16","","","","","","NA"
"-130.70","54.58","GREY ISLET (AUT)","1063303","2019-02-27 01:00","2019","02","27","01:00","3.4","","-4.3","","57","","0.0","","","M","25","","","","102.13","","","","","","NA"
"-130.70","54.58","GREY ISLET (AUT)","1063303","2019-02-27 02:00","2019","02","27","02:00","3.4","","-4.8","","55","","0.0","","","M","18","","","","102.07","","","","","","NA"
"-130.70","54.58","GREY ISLET (AUT)","1063303","2019-02-27 03:00","2019","02","27","03:00","3.5","","-4.4","","56","","0.0","","","M","26","","","","102.01","","","","","","NA"
"-130.70","54.58","GREY ISLET (AUT)","1063303","2019-02-27 04:00","2019","02","27","04:00","3.5","","-3.3","","61","","0.0","","","M","25","","","","101.95","","","","","","NA"
"-130.70","54.58","GREY ISLET (AUT)","1063303","2019-02-27 05:00","2019","02","27","05:00","3.2","","-3.7","","60","","0.0","","","M","20","","","","101.88","","","","","","NA"
"-130.70","54.58","GREY ISLET (AUT)","1063303","2019-02-27 06:00","2019","02","27","06:00","3.2","","-4.1","","59","","0.0","","","M","20","","","","101.84","","","","","","NA"
"-130.70","54.58","GREY ISLET (AUT)","1063303","2019-02-27 07:00","2019","02","27","07:00","3.3","","-3.0","","63","","0.0","","","M","20","","","","101.78","","","","","","NA"
"-130.70","54.58","GREY ISLET (AUT)","1063303","2019-02-27 08:00","2019","02","27","08:00","3.5","","-3.7","","59","","0.0","","","M","19","","","","101.74","","","","","","NA"
"-130.70","54.58","GREY ISLET (AUT)","1063303","2019-02-27 09:00","2019","02","27","09:00","3.8","","-2.9","","61","","0.0","","","M","20","","","","101.71","","","","","","NA"
"-130.70","54.58","GREY ISLET (AUT)","1063303","2019-02-27 10:00","2019","02","27","10:00","4.7","","-3.7","","55","","0.0","","","M","20","","","","101.62","","","","","","NA"
"-130.70","54.58","GREY ISLET (AUT)","1063303","2019-02-27 11:00","2019","02","27","11:00","5.5","","-3.6","","52","","0.0","","","M","18","","","","101.63","","","","","","NA"
"-130.70","54.58","GREY ISLET (AUT)","1063303","2019-02-27 12:00","2019","02","27","12:00","6.0","","-2.7","","54","","0.0","","","M","19","","","","101.59","","","","","","NA"
"-130.70","54.58","GREY ISLET (AUT)","1063303","2019-02-27 13:00","2019","02","27","13:00","6.3","","-2.0","","55","","0.0","","","M","21","","","","101.55","","","","","","NA"
"-130.70","54.58","GREY ISLET (AUT)","1063303","2019-02-27 14:00","2019","02","27","14:00","7.0","","-2.5","","51","","0.0","","","M","20","","","","101.45","","","","","","NA"
"-130.70","54.58","GREY ISLET (AUT)","1063303","2019-02-27 15:00","2019","02","27","15:00","7.6","","-2.1","","50","","0.0","","","M","20","","","","101.39","","","","","","NA"
"-130.70","54.58","GREY ISLET (AUT)","1063303","2019-02-27 16:00","2019","02","27","16:00","7.9","","-2.3","","49","","0.0","","","M","20","","","","101.37","","","","","","NA"
"-130.70","54.58","GREY ISLET (AUT)","1063303","2019-02-27 17:00","2019","02","27","17:00","7.9","","-2.2","","49","","0.0","","","M","18","","","","101.36","","","","","","NA"
"-130.70","54.58","GREY ISLET (AUT)","1063303","2019-02-27 18:00","2019","02","27","18:00","7.7","","-1.8","","51","","0.0","","","M","19","","","","101.36","","","","","","NA"
"-130.70","54.58","GREY ISLET (AUT)","1063303","2019-02-27 19:00","2019","02","27","19:00","7.5","","-2.0","","51","","0.0","","","M","18","","","","101.36","","","","","","NA"
"-130.70","54.58","GREY ISLET (AUT)","1063303","2019-02-27 20:00","2019","02","27","20:00","7.4","","-2.4","","50","","0.0","","","M","18","","","","101.40","","","","","","NA"
"-130.70","54.58","GREY ISLET (AUT)","1063303","2019-02-27 21:00","2019","02","27","21:00","7.3","","-2.2","","51","","0.0","","","M","19","","","","101.40","","","","","","NA"
"-130.70","54.58","GREY ISLET (AUT)","1063303","2019-02-27 22:00","2019","02","27","22:00","7.0","","-1.3","","55","","0.0","","","M","17","","","","101.46","","","","","","NA"
"-130.70","54.58","GREY ISLET (AUT)","1063303","2019-02-27 23:00","2019","02","27","23:00","6.9","","-1.4","","55","","0.0","","","M","18","","","","101.53","","","","","","NA"
"-130.70","54.58","GREY ISLET (AUT)","1063303","2019-02-28 00:00","2019","02","28","00:00","6.7","","-1.5","","56","","0.0","","","M","20","","","","101.56","","","","","","NA"
"-130.70","54.58","GREY ISLET (AUT)","1063303","2019-02-28 01:00","2019","02","28","01:00","6.4","","-1.4","","57","","0.0","","","M","21","","","","101.59","","","","","","NA"
"-130.70","54.58","GREY ISLET (AUT)","1063303","2019-02-28 02:00","2019","02","28","02:00","6.1","","-1.1","","60","","0.0","","","M","30","","","","101.63","","","","","","NA"
"-130.70","54.58","GREY ISLET (AUT)","1063303","2019-02-28 03:00","2019","02","28","03:00","5.8","","-1.2","","61","","0.0","","","M","29","","","","101.70","","","","","","NA"
"-130.70","54.58","GREY ISLET (AUT)","1063303","2019-02-28 04:00","2019","02","28","04:00","5.2","","-0.9","","65","","0.0","","","M","28","","","","101.71","","","","","","NA"
"-130.70","54.58","GREY ISLET (AUT)","1063303","2019-02-28 05:00","2019","02","28","05:00","5.0","","-1.8","","61","","0.0","","","M","28","","","","101.70","","","","","","NA"
"-130.70","54.58","GREY ISLET (AUT)","1063303","2019-02-28 06:00","2019","02","28","06:00","5.0","","-1.5","","63","","0.0","","","M","26","","","","101.75","","","","","","NA"
"-130.70","54.58","GREY ISLET (AUT)","1063303","2019-02-28 07:00","2019","02","28","07:00","4.8","","-0.8","","67","","0.0","","","M","29","","","","101.77","","","","","","NA"
"-130.70","54.58","GREY ISLET (AUT)","1063303","2019-02-28 08:00","2019","02","28","08:00","4.4","","-1.6","","65","","0.0","","","M","26","","","","101.83","","","","","","NA"
"-130.70","54.58","GREY ISLET (AUT)","1063303","2019-02-28 09:00","2019","02","28","09:00","4.5","","-2.2","","62","","0.0","","","M","24","","","","101.88","","","","","","NA"
"-130.70","54.58","GREY ISLET (AUT)","1063303","2019-02-28 10:00","2019","02","28","10:00","5.0","","-1.3","","64","","0.0","","","M","27","","","","101.89","","","","","","NA"
"-130.70","54.58","GREY ISLET (AUT)","1063303","2019-02-28 11:00","2019","02","28","11:00","6.0","","-1.6","","58","","0.0","","","M","24","","","","101.91","","","","","","NA"
"-130.70","54.58","GREY ISLET (AUT)","1063303","2019-02-28 12:00","2019","02","28","12:00","6.0","","-1.2","","60","","0.0","","","M","26","","","","101.92","","","","","","NA"
"-130.70","54.58","GREY ISLET (AUT)","1063303","2019-02-28 13:00","2019","02","28","13:00","6.4","","-0.9","","60","","0.0","","","M","25","","","","101.92","","","","","","NA"
"-130.70","54.58","GREY ISLET (AUT)","1063303","2019-02-28 14:00","2019","02","28","14:00","6.8","","-0.4","","60","","0.0","","","M","20","","","","101.90","","","","","","NA"
"-130.70","54.58","GREY ISLET (AUT)","1063303","2019-02-28 15:00","2019","02","28","15:00","6.7","","2.5","","75","","0.0","","","M","5","","","","101.89","","","","","","NA"
"-130.70","54.58","GREY ISLET (AUT)","1063303","2019-02-28 16:00","2019","02","28","16:00","6.6","","2.5","","75","","0.0","","","M","6","","","","101.87","","","","","","NA"
"-130.70","54.58","GREY ISLET (AUT)","1063303","2019-02-28 17:00","2019","02","28","17:00","6.9","","1.5","","68","","0.0","","","M","0","","","","101.86","","","","","","NA"
"-130.70","54.58","GREY ISLET (AUT)","1063303","2019-02-28 18:00","2019","02","28","18:00","6.5","","0.5","","65","","0.0","","","M","0","","","","101.88","","","","","","NA"
"-130.70","54.58","GREY ISLET (AUT)","1063303","2019-02-28 19:00","2019","02","28","19:00","6.0","","0.5","","68","","0.0","","","M","0","","","","101.89","","","","","","NA"
"-130.70","54.58","GREY ISLET (AUT)","1063303","2019-02-28 20:00","2019","02","28","20:00","5.7","","-2.6","","55","","0.0","","","M","0","","","","101.90","","","","","","NA"
"-130.70","54.58","GREY ISLET (AUT)","1063303","2019-02-28 21:00","2019","02","28","21:00","6.0","","-0.5","","63","","0.0","","","M","0","","","","101.94","","","","","","NA"
"-130.70","54.58","GREY ISLET (AUT)","1063303","2019-02-28 22:00","2019","02","28","22:00","5.2","","-0.3","","68","","0.0","","","M","0","","","","101.97","","","","","","NA"
"-130.70","54.58","GREY ISLET (AUT)","1063303","2019-02-28 23:00","2019","02","28","23:00","4.4","","0.3","","75","","0.0","","","M","12","","","","101.97","","","","","","NA"
