"Longitude (x)","Latitude (y)","Station Name","Climate ID","Date/Time (LST)","Year","Month","Day","Time (LST)","Temp (°C)","Temp Flag","Dew Point Temp (°C)","Dew Point Temp Flag","Rel Hum (%)","Rel Hum Flag","Precip. Amount (mm)","Precip. Amount Flag","Wind Dir (10s deg)","Wind Dir Flag","Wind Spd (km/h)","Wind Spd Flag","Visibility (km)","Visibility Flag","Stn Press (kPa)","Stn Press Flag","Hmdx","Hmdx Flag","Wind Chill","Wind Chill Flag","Weather"
"-66.09","43.83","YARMOUTH A","8206496","2018-03-01 00:00","2018","03","01","00:00","3.0","","2.4","","96","","","M","12","","14","","","M","100.91","","","","","","NA"
"-66.09","43.83","YARMOUTH A","8206496","2018-03-01 01:00","2018","03","01","01:00","3.0","","2.2","","95","","","M","11","","13","","","M","100.89","","","","","","NA"
"-66.09","43.83","YARMOUTH A","8206496","2018-03-01 02:00","2018","03","01","02:00","3.1","","1.9","","92","","","M","10","","6","","","M","100.87","","","","","","NA"
"-66.09","43.83","YARMOUTH A","8206496","2018-03-01 03:00","2018","03","01","03:00","2.5","","0.6","","87","","","M","14","","11","","","M","100.82","","","","","","NA"
"-66.09","43.83","YARMOUTH A","8206496","2018-03-01 04:00","2018","03","01","04:00","2.6","","1.4","","92","","","M","10","","10","","","M","100.80","","","","","","NA"
"-66.09","43.83","YARMOUTH A","8206496","2018-03-01 05:00","2018","03","01","05:00","2.7","","1.7","","93","","","M","12","","17","","","M","100.78","","","","","","NA"
"-66.09","43.83","YARMOUTH A","8206496","2018-03-01 06:00","2018","03","01","06:00","2.4","","1.5","","93","","","M","12","","13","","","M","100.78","","","","","","NA"
"-66.09","43.83","YARMOUTH A","8206496","2018-03-01 07:00","2018","03","01","07:00","2.5","","1.7","","95","","","M","10","","11","","","M","100.76","","","","","","NA"
"-66.09","43.83","YARMOUTH A","8206496","2018-03-01 08:00","2018","03","01","08:00","2.8","","1.9","","94","","","M","9","","10","","","M","100.81","","","","","","NA"
"-66.09","43.83","YARMOUTH A","8206496","2018-03-01 09:00","2018","03","01","09:00","3.5","","2.3","","91","","","M","9","","17","","","M","100.78","","","","","","NA"
"-66.09","43.83","YARMOUTH A","8206496","2018-03-01 10:00","2018","03","01","10:00","4.1","","3.0","","93","","","M","9","","10","","","M","100.86","","","","","","NA"
"-66.09","43.83","YARMOUTH A","8206496","2018-03-01 11:00","2018","03","01","11:00","4.8","","3.6","","92","","","M","10","","20","","","M","100.77","","","","","","NA"
"-66.09","43.83","YARMOUTH A","8206496","2018-03-01 12:00","2018","03","01","12:00","6.0","","4.2","","88","","","M","11","","26","","","M","100.74","","","","","","NA"
"-66.09","43.83","YARMOUTH A","8206496","2018-03-01 13:00","2018","03","01","13:00","7.2","","4.9","","85","","","M","10","","22","","","M","100.74","","","","","","NA"
"-66.09","43.83","YARMOUTH A","8206496","2018-03-01 14:00","2018","03","01","14:00","7.9","","4.9","","81","","","M","11","","27","","","M","100.72","","","","","","NA"
"-66.09","43.83","YARMOUTH A","8206496","2018-03-01 15:00","2018","03","01","15:00","7.7","","5.0","","83","","","M","11","","23","","","M","100.67","","","","","","NA"
"-66.09","43.83","YARMOUTH A","8206496","2018-03-01 16:00","2018","03","01","16:00","7.5","","4.9","","84","","","M","12","","22","","","M","100.71","","","","","","NA"
"-66.09","43.83","YARMOUTH A","8206496","2018-03-01 17:00","2018","03","01","17:00","7.3","","5.0","","85","","","M","11","","26","","","M","100.69","","","","","","NA"
"-66.09","43.83","YARMOUTH A","8206496","2018-03-01 18:00","2018","03","01","18:00","6.3","","4.6","","89","","","M","10","","17","","","M","100.72","","","","","","NA"
"-66.09","43.83","YARMOUTH A","8206496","2018-03-01 19:00","2018","03","01","19:00","5.3","","4.2","","93","","","M","10","","22","","","M","100.70","","","","","","NA"
"-66.09","43.83","YARMOUTH A","8206496","2018-03-01 20:00","2018","03","01","20:00","5.4","","4.5","","94","","","M","9","","22","","","M","100.67","","","","","","NA"
"-66.09","43.83","YARMOUTH A","8206496","2018-03-01 21:00","2018","03","01","21:00","5.5","","4.7","","94","","","M","10","","22","","","M","100.67","","","","","","NA"
"-66.09","43.83","YARMOUTH A","8206496","2018-03-01 22:00","2018","03","01","22:00","5.8","","5.0","","94","","","M","10","","19","","","M","100.61","","","","","","NA"
"-66.09","43.83","YARMOUTH A","8206496","2018-03-01 23:00","2018","03","01","23:00","6.0","","5.1","","94","","","M","10","","17","","","M","100.55","","","","","","NA"
"-66.09","43.83","YARMOUTH A","8206496","2018-03-02 00:00","2018","03","02","00:00","6.2","","5.3","","94","","","M","10","","21","","","M","100.48","","","","","","NA"
"-66.09","43.83","YARMOUTH A","8206496","2018-03-02 01:00","2018","03","02","01:00","6.5","","5.8","","96","","","M","10","","22","","","M","100.48","","","","","","NA"
"-66.09","43.83","YARMOUTH A","8206496","2018-03-02 02:00","2018","03","02","02:00","6.2","","5.7","","96","","","M","9","","21","","","M","100.46","","","","","","NA"
"-66.09","43.83","YARMOUTH A","8206496","2018-03-02 03:00","2018","03","02","03:00","6.0","","5.7","","97","","","M","9","","20","","","M","100.37","","","","","","NA"
"-66.09","43.83","YARMOUTH A","8206496","2018-03-02 04:00","2018","03","02","04:00","6.4","","6.1","","98","","","M","10","","28","","","M","100.28","","","","","","NA"
"-66.09","43.83","YARMOUTH A","8206496","2018-03-02 05:00","2018","03","02","05:00","6.5","","6.2","","98","","","M","10","","34","","","M","100.19","","","","","","NA"
"-66.09","43.83","YARMOUTH A","8206496","2018-03-02 06:00","2018","03","02","06:00","6.0","","5.7","","98","","","M","9","","28","","","M","100.14","","","","","","NA"
"-66.09","43.83","YARMOUTH A","8206496","2018-03-02 07:00","2018","03","02","07:00","6.0","","5.2","","95","","","M","9","","28","","","M","100.10","","","","","","NA"
"-66.09","43.83","YARMOUTH A","8206496","2018-03-02 08:00","2018","03","02","08:00","5.9","","4.4","","90","","","M","9","","39","","","M","100.08","","","","","","NA"
"-66.09","43.83","YARMOUTH A","8206496","2018-03-02 09:00","2018","03","02","09:00","5.9","","3.4","","84","","","M","9","","39","","","M","100.00","","","","","","NA"
"-66.09","43.83","YARMOUTH A","8206496","2018-03-02 10:00","2018","03","02","10:00","6.1","","2.3","","76","","","M","9","","35","","","M","99.97","","","","","","NA"
"-66.09","43.83","YARMOUTH A","8206496","2018-03-02 11:00","2018","03","02","11:00","6.5","","1.6","","71","","","M","9","","43","","","M","99.92","","","","","","NA"
"-66.09","43.83","YARMOUTH A","8206496","2018-03-02 12:00","2018","03","02","12:00","6.5","","0.3","","64","","","M","8","","45","","","M","99.82","","","","","","NA"
"-66.09","43.83","YARMOUTH A","8206496","2018-03-02 13:00","2018","03","02","13:00","6.6","","-1.4","","57","","","M","8","","47","","","M","99.74","","","","","","NA"
"-66.09","43.83","YARMOUTH A","8206496","2018-03-02 14:00","2018","03","02","14:00","6.6","","-1.7","","55","","","M","8","","34","","","M","99.68","","","","","","NA"
"-66.09","43.83","YARMOUTH A","8206496","2018-03-02 15:00","2018","03","02","15:00","6.0","","-3.8","","49","","","M","9","","37","","","M","99.68","","","","","","NA"
"-66.09","43.83","YARMOUTH A","8206496","2018-03-02 16:00","2018","03","02","16:00","5.4","","-6.4","","42","","","M","8","","44","","","M","99.62","","","","","","NA"
"-66.09","43.83","YARMOUTH A","8206496","2018-03-02 17:00","2018","03","02","17:00","5.0","","-7.8","","39","","","M","7","","42","","","M","99.54","","","","","","NA"
"-66.09","43.83","YARMOUTH A","8206496","2018-03-02 18:00","2018","03","02","18:00","4.5","","-7.3","","42","","","M","7","","52","","","M","99.61","","","","","","NA"
"-66.09","43.83","YARMOUTH A","8206496","2018-03-02 19:00","2018","03","02","19:00","4.7","","-7.0","","43","","","M","7","","48","","","M","99.69","","","","","","NA"
"-66.09","43.83","YARMOUTH A","8206496","2018-03-02 20:00","2018","03","02","20:00","4.9","","-4.7","","50","","","M","7","","57","","","M","99.63","","","","","","NA"
"-66.09","43.83","YARMOUTH A","8206496","2018-03-02 21:00","2018","03","02","21:00","5.1","","-4.6","","50","","","M","6","","45","","","M","99.66","","","","","","NA"
"-66.09","43.83","YARMOUTH A","8206496","2018-03-02 22:00","2018","03","02","22:00","4.6","","-3.9","","54","","","M","6","","35","","","M","99.64","","","","","","NA"
"-66.09","43.83","YARMOUTH A","8206496","2018-03-02 23:00","2018","03","02","23:00","3.8","","-3.4","","60","","","M","5","","37","","","M","99.65","","","","","","NA"
"-66.09","43.83","YARMOUTH A","8206496","2018-03-03 00:00","2018","03","03","00:00","2.9","","-2.6","","67","","","M","6","","38","","","M","99.67","","","","","","NA"
"-66.09","43.83","YARMOUTH A","8206496","2018-03-03 01:00","2018","03","03","01:00","3.9","","-0.2","","75","","","M","6","","47","","","M","99.69","","","","","","NA"
"-66.09","43.83","YARMOUTH A","8206496","2018-03-03 02:00","2018","03","03","02:00","4.7","","0.7","","75","","","M","6","","37","","","M","99.76","","","","","","NA"
"-66.09","43.83","YARMOUTH A","8206496","2018-03-03 03:00","2018","03","03","03:00","4.7","","1.8","","82","","","M","6","","35","","","M","99.75","","","","","","NA"
"-66.09","43.83","YARMOUTH A","8206496","2018-03-03 04:00","2018","03","03","04:00","4.2","","1.4","","81","","","M","6","","43","","","M","99.80","","","","","","NA"
"-66.09","43.83","YARMOUTH A","8206496","2018-03-03 05:00","2018","03","03","05:00","4.4","","0.9","","78","","","M","6","","45","","","M","99.85","","","","","","NA"
"-66.09","43.83","YARMOUTH A","8206496","2018-03-03 06:00","2018","03","03","06:00","4.0","","0.4","","77","","","M","5","","45","","","M","99.95","","","","","","NA"
"-66.09","43.83","YARMOUTH A","8206496","2018-03-03 07:00","2018","03","03","07:00","3.1","","-0.4","","78","","","M","5","","47","","","M","100.03","","","","","","NA"
"-66.09","43.83","YARMOUTH A","8206496","2018-03-03 08:00","2018","03","03","08:00","2.5","","-1.2","","77","","","M","6","","32","","","M","100.16","","","","","","NA"
"-66.09","43.83","YARMOUTH A","8206496","2018-03-03 09:00","2018","03","03","09:00","3.0","","-2.2","","69","","","M","6","","47","","","M","100.22","","","","","","NA"
"-66.09","43.83","YARMOUTH A","8206496","2018-03-03 10:00","2018","03","03","10:00","4.2","","-2.1","","64","","","M","6","","37","","","M","100.29","","","","","","NA"
"-66.09","43.83","YARMOUTH A","8206496","2018-03-03 11:00","2018","03","03","11:00","5.9","","-2.3","","56","","","M","6","","42","","","M","100.33","","","","","","NA"
"-66.09","43.83","YARMOUTH A","8206496","2018-03-03 12:00","2018","03","03","12:00","7.0","","-2.0","","52","","","M","5","","45","","","M","100.36","","","","","","NA"
"-66.09","43.83","YARMOUTH A","8206496","2018-03-03 13:00","2018","03","03","13:00","7.4","","-1.5","","53","","","M","7","","51","","","M","100.29","","","","","","NA"
"-66.09","43.83","YARMOUTH A","8206496","2018-03-03 14:00","2018","03","03","14:00","8.0","","-0.8","","54","","","M","6","","48","","","M","100.34","","","","","","NA"
"-66.09","43.83","YARMOUTH A","8206496","2018-03-03 15:00","2018","03","03","15:00","7.0","","0.0","","61","","","M","5","","38","","","M","100.40","","","","","","NA"
"-66.09","43.83","YARMOUTH A","8206496","2018-03-03 16:00","2018","03","03","16:00","6.5","","-0.2","","62","","","M","4","","32","","","M","100.44","","","","","","NA"
"-66.09","43.83","YARMOUTH A","8206496","2018-03-03 17:00","2018","03","03","17:00","6.6","","-1.1","","58","","","M","3","","33","","","M","100.47","","","","","","NA"
"-66.09","43.83","YARMOUTH A","8206496","2018-03-03 18:00","2018","03","03","18:00","6.3","","-2.3","","54","","","M","4","","37","","","M","100.51","","","","","","NA"
"-66.09","43.83","YARMOUTH A","8206496","2018-03-03 19:00","2018","03","03","19:00","5.4","","-2.6","","56","","","M","4","","38","","","M","100.61","","","","","","NA"
"-66.09","43.83","YARMOUTH A","8206496","2018-03-03 20:00","2018","03","03","20:00","3.5","","-3.2","","62","","","M","3","","30","","","M","100.73","","","","","","NA"
"-66.09","43.83","YARMOUTH A","8206496","2018-03-03 21:00","2018","03","03","21:00","3.2","","-3.1","","64","","","M","4","","39","","","M","100.78","","","","","","NA"
"-66.09","43.83","YARMOUTH A","8206496","2018-03-03 22:00","2018","03","03","22:00","2.9","","-3.0","","65","","","M","5","","35","","","M","100.76","","","","","","NA"
"-66.09","43.83","YARMOUTH A","8206496","2018-03-03 23:00","2018","03","03","23:00","3.0","","-2.8","","66","","","M","5","","36","","","M","100.76","","","","","","NA"
"-66.09","43.83","YARMOUTH A","8206496","2018-03-04 00:00","2018","03","04","00:00","2.4","","-2.5","","70","","","M","5","","34","","","M","100.77","","","","","","NA"
"-66.09","43.83","YARMOUTH A","8206496","2018-03-04 01:00","2018","03","04","01:00","2.2","","-2.9","","69","","","M","4","","36","","","M","100.78","","","","","","NA"
"-66.09","43.83","YARMOUTH A","8206496","2018-03-04 02:00","2018","03","04","02:00","1.8","","-2.9","","71","","","M","4","","28","","","M","100.77","","","","","","NA"
"-66.09","43.83","YARMOUTH A","8206496","2018-03-04 03:00","2018","03","04","03:00","2.3","","-3.3","","66","","","M","4","","33","","","M","100.73","","","","","","NA"
"-66.09","43.83","YARMOUTH A","8206496","2018-03-04 04:00","2018","03","04","04:00","0.4","","-3.3","","76","","","M","3","","25","","","M","100.73","","","","","","NA"
"-66.09","43.83","YARMOUTH A","8206496","2018-03-04 05:00","2018","03","04","05:00","0.6","","-3.4","","75","","","M","4","","27","","","M","100.73","","","","","","NA"
"-66.09","43.83","YARMOUTH A","8206496","2018-03-04 06:00","2018","03","04","06:00","0.8","","-3.4","","74","","","M","3","","23","","","M","100.76","","","","","","NA"
"-66.09","43.83","YARMOUTH A","8206496","2018-03-04 07:00","2018","03","04","07:00","0.7","","-3.5","","74","","","M","2","","23","","","M","100.78","","","","","","NA"
"-66.09","43.83","YARMOUTH A","8206496","2018-03-04 08:00","2018","03","04","08:00","0.8","","-3.7","","72","","","M","4","","26","","","M","100.79","","","","","","NA"
"-66.09","43.83","YARMOUTH A","8206496","2018-03-04 09:00","2018","03","04","09:00","1.5","","-3.9","","67","","","M","5","","24","","","M","100.81","","","","","","NA"
"-66.09","43.83","YARMOUTH A","8206496","2018-03-04 10:00","2018","03","04","10:00","2.4","","-4.0","","63","","","M","5","","28","","","M","100.82","","","","","","NA"
"-66.09","43.83","YARMOUTH A","8206496","2018-03-04 11:00","2018","03","04","11:00","3.3","","-3.8","","60","","","M","5","","27","","","M","100.79","","","","","","NA"
"-66.09","43.83","YARMOUTH A","8206496","2018-03-04 12:00","2018","03","04","12:00","4.0","","-3.9","","56","","","M","6","","29","","","M","100.78","","","","","","NA"
"-66.09","43.83","YARMOUTH A","8206496","2018-03-04 13:00","2018","03","04","13:00","4.6","","-4.0","","54","","","M","5","","31","","","M","100.73","","","","","","NA"
"-66.09","43.83","YARMOUTH A","8206496","2018-03-04 14:00","2018","03","04","14:00","4.7","","-4.3","","52","","","M","4","","34","","","M","100.69","","","","","","NA"
"-66.09","43.83","YARMOUTH A","8206496","2018-03-04 15:00","2018","03","04","15:00","4.2","","-4.1","","55","","","M","5","","28","","","M","100.68","","","","","","NA"
"-66.09","43.83","YARMOUTH A","8206496","2018-03-04 16:00","2018","03","04","16:00","3.6","","-3.5","","60","","","M","3","","34","","","M","100.70","","","","","","NA"
"-66.09","43.83","YARMOUTH A","8206496","2018-03-04 17:00","2018","03","04","17:00","3.2","","-3.2","","63","","","M","3","","24","","","M","100.70","","","","","","NA"
"-66.09","43.83","YARMOUTH A","8206496","2018-03-04 18:00","2018","03","04","18:00","2.9","","-3.1","","65","","","M","4","","22","","","M","100.70","","","","","","NA"
"-66.09","43.83","YARMOUTH A","8206496","2018-03-04 19:00","2018","03","04","19:00","2.7","","-3.0","","66","","","M","3","","27","","","M","100.71","","","","","","NA"
"-66.09","43.83","YARMOUTH A","8206496","2018-03-04 20:00","2018","03","04","20:00","2.5","","-3.0","","67","","","M","5","","25","","","M","100.71","","","","","","NA"
"-66.09","43.83","YARMOUTH A","8206496","2018-03-04 21:00","2018","03","04","21:00","2.2","","-2.8","","70","","","M","4","","22","","","M","100.73","","","","","","NA"
"-66.09","43.83","YARMOUTH A","8206496","2018-03-04 22:00","2018","03","04","22:00","2.1","","-2.8","","70","","","M","4","","27","","","M","100.69","","","","","","NA"
"-66.09","43.83","YARMOUTH A","8206496","2018-03-04 23:00","2018","03","04","23:00","2.4","","-2.6","","69","","","M","4","","23","","","M","100.67","","","","","","NA"
"-66.09","43.83","YARMOUTH A","8206496","2018-03-05 00:00","2018","03","05","00:00","2.7","","-2.2","","70","","","M","5","","27","","","M","100.62","","","","","","NA"
"-66.09","43.83","YARMOUTH A","8206496","2018-03-05 01:00","2018","03","05","01:00","2.7","","-1.9","","72","","","M","5","","31","","","M","100.60","","","","","","NA"
"-66.09","43.83","YARMOUTH A","8206496","2018-03-05 02:00","2018","03","05","02:00","2.7","","-2.3","","70","","","M","5","","35","","","M","100.56","","","","","","NA"
"-66.09","43.83","YARMOUTH A","8206496","2018-03-05 03:00","2018","03","05","03:00","2.4","","-2.7","","69","","","M","5","","23","","","M","100.55","","","","","","NA"
"-66.09","43.83","YARMOUTH A","8206496","2018-03-05 04:00","2018","03","05","04:00","1.5","","-3.0","","72","","","M","4","","29","","","M","100.54","","","","","","NA"
"-66.09","43.83","YARMOUTH A","8206496","2018-03-05 05:00","2018","03","05","05:00","1.1","","-3.2","","73","","","M","4","","29","","","M","100.54","","","","","","NA"
"-66.09","43.83","YARMOUTH A","8206496","2018-03-05 06:00","2018","03","05","06:00","0.8","","-3.3","","74","","","M","3","","28","","","M","100.54","","","","","","NA"
"-66.09","43.83","YARMOUTH A","8206496","2018-03-05 07:00","2018","03","05","07:00","0.7","","-3.4","","74","","","M","5","","28","","","M","100.54","","","","","","NA"
"-66.09","43.83","YARMOUTH A","8206496","2018-03-05 08:00","2018","03","05","08:00","1.5","","-3.3","","70","","","M","3","","35","","","M","100.59","","","","","","NA"
"-66.09","43.83","YARMOUTH A","8206496","2018-03-05 09:00","2018","03","05","09:00","3.0","","-3.5","","62","","","M","4","","36","","","M","100.60","","","","","","NA"
"-66.09","43.83","YARMOUTH A","8206496","2018-03-05 10:00","2018","03","05","10:00","4.4","","-3.7","","56","","","M","4","","43","","","M","100.56","","","","","","NA"
"-66.09","43.83","YARMOUTH A","8206496","2018-03-05 11:00","2018","03","05","11:00","6.0","","-3.5","","51","","","M","4","","36","","","M","100.53","","","","","","NA"
"-66.09","43.83","YARMOUTH A","8206496","2018-03-05 12:00","2018","03","05","12:00","7.0","","-3.2","","48","","","M","3","","40","","","M","100.48","","","","","","NA"
"-66.09","43.83","YARMOUTH A","8206496","2018-03-05 13:00","2018","03","05","13:00","7.3","","-2.9","","48","","","M","4","","36","","","M","100.48","","","","","","NA"
"-66.09","43.83","YARMOUTH A","8206496","2018-03-05 14:00","2018","03","05","14:00","7.1","","-3.1","","48","","","M","3","","45","","","M","100.44","","","","","","NA"
"-66.09","43.83","YARMOUTH A","8206496","2018-03-05 15:00","2018","03","05","15:00","6.7","","-3.1","","50","","","M","4","","36","","","M","100.48","","","","","","NA"
"-66.09","43.83","YARMOUTH A","8206496","2018-03-05 16:00","2018","03","05","16:00","6.8","","-3.3","","49","","","M","4","","41","","","M","100.50","","","","","","NA"
"-66.09","43.83","YARMOUTH A","8206496","2018-03-05 17:00","2018","03","05","17:00","4.6","","-3.0","","58","","","M","3","","36","","","M","100.56","","","","","","NA"
"-66.09","43.83","YARMOUTH A","8206496","2018-03-05 18:00","2018","03","05","18:00","3.1","","-3.3","","63","","","M","3","","34","","","M","100.59","","","","","","NA"
"-66.09","43.83","YARMOUTH A","8206496","2018-03-05 19:00","2018","03","05","19:00","2.4","","-3.5","","65","","","M","3","","36","","","M","100.70","","","","","","NA"
"-66.09","43.83","YARMOUTH A","8206496","2018-03-05 20:00","2018","03","05","20:00","2.1","","-3.7","","65","","","M","3","","44","","","M","100.75","","","","","","NA"
"-66.09","43.83","YARMOUTH A","8206496","2018-03-05 21:00","2018","03","05","21:00","1.7","","-4.5","","63","","","M","4","","40","","","M","100.82","","","","","","NA"
"-66.09","43.83","YARMOUTH A","8206496","2018-03-05 22:00","2018","03","05","22:00","1.0","","-5.1","","64","","","M","3","","30","","","M","100.80","","","","","","NA"
"-66.09","43.83","YARMOUTH A","8206496","2018-03-05 23:00","2018","03","05","23:00","0.3","","-5.6","","65","","","M","3","","41","","","M","100.75","","","","","","NA"
"-66.09","43.83","YARMOUTH A","8206496","2018-03-06 00:00","2018","03","06","00:00","-0.4","","-5.5","","69","","","M","2","","29","","","M","100.70","","","","-7","","NA"
"-66.09","43.83","YARMOUTH A","8206496","2018-03-06 01:00","2018","03","06","01:00","-0.6","","-5.2","","71","","","M","3","","27","","","M","100.65","","","","-7","","NA"
"-66.09","43.83","YARMOUTH A","8206496","2018-03-06 02:00","2018","03","06","02:00","-0.4","","-4.7","","73","","","M","3","","26","","","M","100.64","","","","-7","","NA"
"-66.09","43.83","YARMOUTH A","8206496","2018-03-06 03:00","2018","03","06","03:00","-0.4","","-4.3","","75","","","M","2","","25","","","M","100.58","","","","-6","","NA"
"-66.09","43.83","YARMOUTH A","8206496","2018-03-06 04:00","2018","03","06","04:00","-0.1","","-3.8","","76","","","M","2","","31","","","M","100.55","","","","-7","","NA"
"-66.09","43.83","YARMOUTH A","8206496","2018-03-06 05:00","2018","03","06","05:00","0.0","","-3.6","","77","","","M","3","","31","","","M","100.55","","","","-7","","NA"
"-66.09","43.83","YARMOUTH A","8206496","2018-03-06 06:00","2018","03","06","06:00","0.0","","-3.6","","77","","","M","3","","31","","","M","100.57","","","","-7","","NA"
"-66.09","43.83","YARMOUTH A","8206496","2018-03-06 07:00","2018","03","06","07:00","0.1","","-3.6","","76","","","M","3","","30","","","M","100.63","","","","","","NA"
"-66.09","43.83","YARMOUTH A","8206496","2018-03-06 08:00","2018","03","06","08:00","0.4","","-3.7","","74","","","M","3","","26","","","M","100.65","","","","","","NA"
"-66.09","43.83","YARMOUTH A","8206496","2018-03-06 09:00","2018","03","06","09:00","0.8","","-3.8","","71","","","M","3","","39","","","M","100.71","","","","","","NA"
"-66.09","43.83","YARMOUTH A","8206496","2018-03-06 10:00","2018","03","06","10:00","1.8","","-3.9","","66","","","M","3","","38","","","M","100.74","","","","","","NA"
"-66.09","43.83","YARMOUTH A","8206496","2018-03-06 11:00","2018","03","06","11:00","2.6","","-4.0","","62","","","M","2","","41","","","M","100.75","","","","","","NA"
"-66.09","43.83","YARMOUTH A","8206496","2018-03-06 12:00","2018","03","06","12:00","4.0","","-4.0","","56","","","M","4","","35","","","M","100.74","","","","","","NA"
"-66.09","43.83","YARMOUTH A","8206496","2018-03-06 13:00","2018","03","06","13:00","4.8","","-3.7","","54","","","M","4","","31","","","M","100.68","","","","","","NA"
"-66.09","43.83","YARMOUTH A","8206496","2018-03-06 14:00","2018","03","06","14:00","4.5","","-4.4","","53","","","M","1","","36","","","M","100.65","","","","","","NA"
"-66.09","43.83","YARMOUTH A","8206496","2018-03-06 15:00","2018","03","06","15:00","4.6","","-3.8","","55","","","M","2","","29","","","M","100.70","","","","","","NA"
"-66.09","43.83","YARMOUTH A","8206496","2018-03-06 16:00","2018","03","06","16:00","3.0","","-4.5","","58","","","M","1","","35","","","M","100.73","","","","","","NA"
"-66.09","43.83","YARMOUTH A","8206496","2018-03-06 17:00","2018","03","06","17:00","2.2","","-5.2","","58","","","M","4","","38","","","M","100.77","","","","","","NA"
"-66.09","43.83","YARMOUTH A","8206496","2018-03-06 18:00","2018","03","06","18:00","1.1","","-5.1","","63","","","M","3","","29","","","M","100.85","","","","","","NA"
"-66.09","43.83","YARMOUTH A","8206496","2018-03-06 19:00","2018","03","06","19:00","0.1","","-5.2","","68","","","M","3","","21","","","M","100.89","","","","","","NA"
"-66.09","43.83","YARMOUTH A","8206496","2018-03-06 20:00","2018","03","06","20:00","-0.4","","-4.9","","71","","","M","3","","18","","","M","100.94","","","","-5","","NA"
"-66.09","43.83","YARMOUTH A","8206496","2018-03-06 21:00","2018","03","06","21:00","-0.9","","-5.1","","74","","","M","3","","18","","","M","101.02","","","","-6","","NA"
"-66.09","43.83","YARMOUTH A","8206496","2018-03-06 22:00","2018","03","06","22:00","-1.8","","-5.3","","77","","","M","2","","14","","","M","101.07","","","","-6","","NA"
"-66.09","43.83","YARMOUTH A","8206496","2018-03-06 23:00","2018","03","06","23:00","-1.3","","-5.5","","73","","","M","4","","16","","","M","101.12","","","","-6","","NA"
"-66.09","43.83","YARMOUTH A","8206496","2018-03-07 00:00","2018","03","07","00:00","-2.8","","-5.9","","79","","","M","3","","12","","","M","101.11","","","","-7","","NA"
"-66.09","43.83","YARMOUTH A","8206496","2018-03-07 01:00","2018","03","07","01:00","-3.3","","-6.1","","81","","","M","2","","11","","","M","101.12","","","","-8","","NA"
"-66.09","43.83","YARMOUTH A","8206496","2018-03-07 02:00","2018","03","07","02:00","-1.8","","-5.1","","78","","","M","2","","14","","","M","101.14","","","","-6","","NA"
"-66.09","43.83","YARMOUTH A","8206496","2018-03-07 03:00","2018","03","07","03:00","-2.6","","-5.5","","80","","","M","4","","13","","","M","101.09","","","","-7","","NA"
"-66.09","43.83","YARMOUTH A","8206496","2018-03-07 04:00","2018","03","07","04:00","-3.4","","-6.1","","82","","","M","1","","9","","","M","101.10","","","","-7","","NA"
"-66.09","43.83","YARMOUTH A","8206496","2018-03-07 05:00","2018","03","07","05:00","-3.9","","-6.4","","83","","","M","36","","7","","","M","101.13","","","","-7","","NA"
"-66.09","43.83","YARMOUTH A","8206496","2018-03-07 06:00","2018","03","07","06:00","-2.1","","-4.6","","83","","","M","2","","9","","","M","101.15","","","","-6","","NA"
"-66.09","43.83","YARMOUTH A","8206496","2018-03-07 07:00","2018","03","07","07:00","-1.3","","-4.3","","80","","","M","4","","8","","","M","101.20","","","","-4","","NA"
"-66.09","43.83","YARMOUTH A","8206496","2018-03-07 08:00","2018","03","07","08:00","-0.3","","-3.8","","77","","","M","4","","8","","","M","101.30","","","","-3","","NA"
"-66.09","43.83","YARMOUTH A","8206496","2018-03-07 09:00","2018","03","07","09:00","1.0","","-3.5","","72","","","M","6","","13","","","M","101.27","","","","","","NA"
"-66.09","43.83","YARMOUTH A","8206496","2018-03-07 10:00","2018","03","07","10:00","1.7","","-3.9","","66","","","M","9","","29","","","M","101.12","","","","","","NA"
"-66.09","43.83","YARMOUTH A","8206496","2018-03-07 11:00","2018","03","07","11:00","2.7","","-4.0","","61","","","M","9","","28","","","M","101.06","","","","","","NA"
"-66.09","43.83","YARMOUTH A","8206496","2018-03-07 12:00","2018","03","07","12:00","4.5","","-3.4","","56","","","M","13","","25","","","M","101.13","","","","","","NA"
"-66.09","43.83","YARMOUTH A","8206496","2018-03-07 13:00","2018","03","07","13:00","5.2","","-2.9","","56","","","M","10","","23","","","M","101.09","","","","","","NA"
"-66.09","43.83","YARMOUTH A","8206496","2018-03-07 14:00","2018","03","07","14:00","5.0","","-2.8","","57","","","M","10","","26","","","M","101.07","","","","","","NA"
"-66.09","43.83","YARMOUTH A","8206496","2018-03-07 15:00","2018","03","07","15:00","4.1","","-3.0","","60","","","M","9","","22","","","M","101.03","","","","","","NA"
"-66.09","43.83","YARMOUTH A","8206496","2018-03-07 16:00","2018","03","07","16:00","3.5","","-2.8","","64","","","M","10","","26","","","M","100.99","","","","","","NA"
"-66.09","43.83","YARMOUTH A","8206496","2018-03-07 17:00","2018","03","07","17:00","2.9","","-2.9","","66","","","M","9","","24","","","M","100.90","","","","","","NA"
"-66.09","43.83","YARMOUTH A","8206496","2018-03-07 18:00","2018","03","07","18:00","2.0","","-2.7","","71","","","M","8","","37","","","M","100.75","","","","","","NA"
"-66.09","43.83","YARMOUTH A","8206496","2018-03-07 19:00","2018","03","07","19:00","1.7","","-2.5","","73","","","M","10","","34","","","M","100.89","","","","","","NA"
"-66.09","43.83","YARMOUTH A","8206496","2018-03-07 20:00","2018","03","07","20:00","1.4","","-2.4","","76","","","M","9","","39","","","M","100.72","","","","","","NA"
"-66.09","43.83","YARMOUTH A","8206496","2018-03-07 21:00","2018","03","07","21:00","1.1","","-2.2","","79","","","M","9","","33","","","M","100.65","","","","","","NA"
"-66.09","43.83","YARMOUTH A","8206496","2018-03-07 22:00","2018","03","07","22:00","1.1","","-2.3","","78","","","M","9","","36","","","M","100.49","","","","","","NA"
"-66.09","43.83","YARMOUTH A","8206496","2018-03-07 23:00","2018","03","07","23:00","0.8","","-2.4","","79","","","M","9","","37","","","M","100.39","","","","","","NA"
"-66.09","43.83","YARMOUTH A","8206496","2018-03-08 00:00","2018","03","08","00:00","0.8","","-1.7","","83","","","M","9","","36","","","M","100.31","","","","","","NA"
"-66.09","43.83","YARMOUTH A","8206496","2018-03-08 01:00","2018","03","08","01:00"
"-66.09","43.83","YARMOUTH A","8206496","2018-03-08 02:00","2018","03","08","02:00"
"-66.09","43.83","YARMOUTH A","8206496","2018-03-08 03:00","2018","03","08","03:00"
"-66.09","43.83","YARMOUTH A","8206496","2018-03-08 04:00","2018","03","08","04:00","0.9","","-0.5","","91","","","M","9","","54","","","M","99.43","","","","","","NA"
"-66.09","43.83","YARMOUTH A","8206496","2018-03-08 05:00","2018","03","08","05:00","1.0","","-0.2","","92","","","M","9","","49","","","M","99.25","","","","","","NA"
"-66.09","43.83","YARMOUTH A","8206496","2018-03-08 06:00","2018","03","08","06:00","1.5","","0.4","","93","","","M","9","","43","","","M","99.09","","","","","","NA"
"-66.09","43.83","YARMOUTH A","8206496","2018-03-08 07:00","2018","03","08","07:00","1.9","","0.8","","92","","","M","9","","47","","","M","98.95","","","","","","NA"
"-66.09","43.83","YARMOUTH A","8206496","2018-03-08 08:00","2018","03","08","08:00","2.2","","1.3","","93","","","M","10","","48","","","M","99.13","","","","","","NA"
"-66.09","43.83","YARMOUTH A","8206496","2018-03-08 09:00","2018","03","08","09:00","2.7","","1.6","","92","","","M","9","","39","","","M","99.01","","","","","","NA"
"-66.09","43.83","YARMOUTH A","8206496","2018-03-08 10:00","2018","03","08","10:00","3.1","","2.2","","94","","","M","9","","39","","","M","98.99","","","","","","NA"
"-66.09","43.83","YARMOUTH A","8206496","2018-03-08 11:00","2018","03","08","11:00","3.8","","3.0","","95","","","M","9","","40","","","M","98.99","","","","","","NA"
"-66.09","43.83","YARMOUTH A","8206496","2018-03-08 12:00","2018","03","08","12:00","3.9","","3.3","","95","","","M","10","","30","","","M","98.99","","","","","","NA"
"-66.09","43.83","YARMOUTH A","8206496","2018-03-08 13:00","2018","03","08","13:00","4.6","","4.1","","96","","","M","10","","25","","","M","98.92","","","","","","NA"
"-66.09","43.83","YARMOUTH A","8206496","2018-03-08 14:00","2018","03","08","14:00","5.9","","5.5","","97","","","M","15","","22","","","M","98.91","","","","","","NA"
"-66.09","43.83","YARMOUTH A","8206496","2018-03-08 15:00","2018","03","08","15:00","5.6","","5.1","","97","","","M","14","","26","","","M","98.91","","","","","","NA"
"-66.09","43.83","YARMOUTH A","8206496","2018-03-08 16:00","2018","03","08","16:00","4.8","","4.4","","97","","","M","16","","20","","","M","98.95","","","","","","NA"
"-66.09","43.83","YARMOUTH A","8206496","2018-03-08 17:00","2018","03","08","17:00","4.3","","3.9","","97","","","M","20","","26","","","M","99.04","","","","","","NA"
"-66.09","43.83","YARMOUTH A","8206496","2018-03-08 18:00","2018","03","08","18:00","3.4","","1.7","","88","","","M","21","","31","","","M","99.19","","","","","","NA"
"-66.09","43.83","YARMOUTH A","8206496","2018-03-08 19:00","2018","03","08","19:00","2.8","","0.3","","83","","","M","21","","26","","","M","99.31","","","","","","NA"
"-66.09","43.83","YARMOUTH A","8206496","2018-03-08 20:00","2018","03","08","20:00","2.3","","1.0","","91","","","M","21","","24","","","M","99.44","","","","","","NA"
"-66.09","43.83","YARMOUTH A","8206496","2018-03-08 21:00","2018","03","08","21:00","1.9","","0.4","","90","","","M","22","","27","","","M","99.56","","","","","","NA"
"-66.09","43.83","YARMOUTH A","8206496","2018-03-08 22:00","2018","03","08","22:00","1.8","","0.2","","89","","","M","21","","28","","","M","99.64","","","","","","NA"
"-66.09","43.83","YARMOUTH A","8206496","2018-03-08 23:00","2018","03","08","23:00","1.6","","-0.1","","89","","","M","22","","25","","","M","99.69","","","","","","NA"
"-66.09","43.83","YARMOUTH A","8206496","2018-03-09 00:00","2018","03","09","00:00","1.7","","-0.1","","88","","","M","21","","23","","","M","99.73","","","","","","NA"
"-66.09","43.83","YARMOUTH A","8206496","2018-03-09 01:00","2018","03","09","01:00","1.4","","-0.3","","89","","","M","21","","16","","","M","99.76","","","","","","NA"
"-66.09","43.83","YARMOUTH A","8206496","2018-03-09 02:00","2018","03","09","02:00","2.0","","-0.4","","84","","","M","20","","18","","","M","99.78","","","","","","NA"
"-66.09","43.83","YARMOUTH A","8206496","2018-03-09 03:00","2018","03","09","03:00","1.8","","-0.4","","85","","","M","20","","12","","","M","99.73","","","","","","NA"
"-66.09","43.83","YARMOUTH A","8206496","2018-03-09 04:00","2018","03","09","04:00","1.8","","0.1","","88","","","M","18","","10","","","M","99.76","","","","","","NA"
"-66.09","43.83","YARMOUTH A","8206496","2018-03-09 05:00","2018","03","09","05:00","1.7","","0.4","","91","","","M","16","","7","","","M","99.81","","","","","","NA"
"-66.09","43.83","YARMOUTH A","8206496","2018-03-09 06:00","2018","03","09","06:00","1.7","","0.6","","93","","","M","18","","12","","","M","99.86","","","","","","NA"
"-66.09","43.83","YARMOUTH A","8206496","2018-03-09 07:00","2018","03","09","07:00","1.4","","0.6","","95","","","M","14","","9","","","M","99.84","","","","","","NA"
"-66.09","43.83","YARMOUTH A","8206496","2018-03-09 08:00","2018","03","09","08:00","1.4","","0.6","","94","","","M","10","","9","","","M","99.83","","","","","","NA"
"-66.09","43.83","YARMOUTH A","8206496","2018-03-09 09:00","2018","03","09","09:00","2.3","","1.4","","94","","","M","11","","9","","","M","99.84","","","","","","NA"
"-66.09","43.83","YARMOUTH A","8206496","2018-03-09 10:00","2018","03","09","10:00","2.8","","1.3","","90","","","M","8","","10","","","M","99.80","","","","","","NA"
"-66.09","43.83","YARMOUTH A","8206496","2018-03-09 11:00","2018","03","09","11:00","3.0","","1.6","","90","","","M","10","","9","","","M","99.76","","","","","","NA"
"-66.09","43.83","YARMOUTH A","8206496","2018-03-09 12:00","2018","03","09","12:00","3.6","","1.8","","88","","","M","9","","13","","","M","99.70","","","","","","NA"
"-66.09","43.83","YARMOUTH A","8206496","2018-03-09 13:00","2018","03","09","13:00","3.9","","1.6","","85","","","M","17","","10","","","M","99.67","","","","","","NA"
"-66.09","43.83","YARMOUTH A","8206496","2018-03-09 14:00","2018","03","09","14:00","3.9","","1.3","","83","","","M","20","","21","","","M","99.65","","","","","","NA"
"-66.09","43.83","YARMOUTH A","8206496","2018-03-09 15:00","2018","03","09","15:00","3.3","","0.7","","83","","","M","21","","19","","","M","99.59","","","","","","NA"
"-66.09","43.83","YARMOUTH A","8206496","2018-03-09 16:00","2018","03","09","16:00","3.8","","-0.2","","75","","","M","24","","19","","","M","99.50","","","","","","NA"
"-66.09","43.83","YARMOUTH A","8206496","2018-03-09 17:00","2018","03","09","17:00","1.7","","0.2","","90","","","M","27","","15","","","M","99.49","","","","","","NA"
"-66.09","43.83","YARMOUTH A","8206496","2018-03-09 18:00","2018","03","09","18:00","0.6","","-0.9","","90","","","M","30","","16","","","M","99.49","","","","","","NA"
"-66.09","43.83","YARMOUTH A","8206496","2018-03-09 19:00","2018","03","09","19:00","0.1","","-1.1","","92","","","M","30","","27","","","M","99.50","","","","","","NA"
"-66.09","43.83","YARMOUTH A","8206496","2018-03-09 20:00","2018","03","09","20:00","1.0","","-1.1","","86","","","M","29","","26","","","M","99.50","","","","","","NA"
"-66.09","43.83","YARMOUTH A","8206496","2018-03-09 21:00","2018","03","09","21:00","1.0","","-2.9","","75","","","M","28","","30","","","M","99.48","","","","","","NA"
"-66.09","43.83","YARMOUTH A","8206496","2018-03-09 22:00","2018","03","09","22:00","1.0","","-3.0","","74","","","M","28","","26","","","M","99.45","","","","","","NA"
"-66.09","43.83","YARMOUTH A","8206496","2018-03-09 23:00","2018","03","09","23:00","1.0","","-4.2","","69","","","M","27","","30","","","M","99.40","","","","","","NA"
"-66.09","43.83","YARMOUTH A","8206496","2018-03-10 00:00","2018","03","10","00:00","0.6","","-4.4","","69","","","M","27","","26","","","M","99.38","","","","","","NA"
"-66.09","43.83","YARMOUTH A","8206496","2018-03-10 01:00","2018","03","10","01:00","0.6","","-4.0","","71","","","M","26","","25","","","M","99.36","","","","","","NA"
"-66.09","43.83","YARMOUTH A","8206496","2018-03-10 02:00","2018","03","10","02:00","1.0","","-3.9","","70","","","M","27","","27","","","M","99.39","","","","","","NA"
"-66.09","43.83","YARMOUTH A","8206496","2018-03-10 03:00","2018","03","10","03:00","1.2","","-2.3","","77","","","M","27","","29","","","M","99.34","","","","","","NA"
"-66.09","43.83","YARMOUTH A","8206496","2018-03-10 04:00","2018","03","10","04:00","0.7","","-0.8","","90","","","M","27","","23","","","M","99.34","","","","","","NA"
"-66.09","43.83","YARMOUTH A","8206496","2018-03-10 05:00","2018","03","10","05:00","0.9","","-2.6","","78","","","M","27","","28","","","M","99.36","","","","","","NA"
"-66.09","43.83","YARMOUTH A","8206496","2018-03-10 06:00","2018","03","10","06:00","0.4","","-1.7","","86","","","M","27","","28","","","M","99.39","","","","","","NA"
"-66.09","43.83","YARMOUTH A","8206496","2018-03-10 07:00","2018","03","10","07:00","0.7","","-3.1","","76","","","M","27","","30","","","M","99.42","","","","","","NA"
"-66.09","43.83","YARMOUTH A","8206496","2018-03-10 08:00","2018","03","10","08:00","1.4","","-3.9","","68","","","M","27","","35","","","M","99.43","","","","","","NA"
"-66.09","43.83","YARMOUTH A","8206496","2018-03-10 09:00","2018","03","10","09:00","1.0","","-3.7","","71","","","M","28","","32","","","M","99.44","","","","","","NA"
"-66.09","43.83","YARMOUTH A","8206496","2018-03-10 10:00","2018","03","10","10:00","0.8","","-2.2","","80","","","M","28","","32","","","M","99.47","","","","","","NA"
"-66.09","43.83","YARMOUTH A","8206496","2018-03-10 11:00","2018","03","10","11:00","0.5","","-1.2","","88","","","M","28","","27","","","M","99.45","","","","","","NA"
"-66.09","43.83","YARMOUTH A","8206496","2018-03-10 12:00","2018","03","10","12:00","0.6","","-1.6","","85","","","M","28","","30","","","M","99.47","","","","","","NA"
"-66.09","43.83","YARMOUTH A","8206496","2018-03-10 13:00","2018","03","10","13:00","1.2","","-1.0","","85","","","M","28","","34","","","M","99.46","","","","","","NA"
"-66.09","43.83","YARMOUTH A","8206496","2018-03-10 14:00","2018","03","10","14:00","2.1","","-1.8","","75","","","M","28","","30","","","M","99.44","","","","","","NA"
"-66.09","43.83","YARMOUTH A","8206496","2018-03-10 15:00","2018","03","10","15:00","1.5","","-2.6","","74","","","M","28","","34","","","M","99.48","","","","","","NA"
"-66.09","43.83","YARMOUTH A","8206496","2018-03-10 16:00","2018","03","10","16:00","2.3","","-1.4","","77","","","M","27","","38","","","M","99.50","","","","","","NA"
"-66.09","43.83","YARMOUTH A","8206496","2018-03-10 17:00","2018","03","10","17:00","0.2","","-1.0","","91","","","M","26","","30","","","M","99.52","","","","","","NA"
"-66.09","43.83","YARMOUTH A","8206496","2018-03-10 18:00","2018","03","10","18:00","0.5","","-0.7","","92","","","M","29","","26","","","M","99.56","","","","","","NA"
"-66.09","43.83","YARMOUTH A","8206496","2018-03-10 19:00","2018","03","10","19:00","1.0","","-1.3","","85","","","M","28","","26","","","M","99.59","","","","","","NA"
"-66.09","43.83","YARMOUTH A","8206496","2018-03-10 20:00","2018","03","10","20:00","1.1","","-1.9","","81","","","M","28","","33","","","M","99.63","","","","","","NA"
"-66.09","43.83","YARMOUTH A","8206496","2018-03-10 21:00","2018","03","10","21:00","1.1","","-1.9","","80","","","M","28","","30","","","M","99.67","","","","","","NA"
"-66.09","43.83","YARMOUTH A","8206496","2018-03-10 22:00","2018","03","10","22:00","1.3","","-2.0","","79","","","M","28","","27","","","M","99.71","","","","","","NA"
"-66.09","43.83","YARMOUTH A","8206496","2018-03-10 23:00","2018","03","10","23:00","1.2","","-1.8","","80","","","M","29","","27","","","M","99.74","","","","","","NA"
"-66.09","43.83","YARMOUTH A","8206496","2018-03-11 00:00","2018","03","11","00:00","1.3","","-2.0","","79","","","M","29","","26","","","M","99.77","","","","","","NA"
"-66.09","43.83","YARMOUTH A","8206496","2018-03-11 01:00","2018","03","11","01:00","1.0","","-2.7","","76","","","M","30","","27","","","M","99.81","","","","","","NA"
"-66.09","43.83","YARMOUTH A","8206496","2018-03-11 02:00","2018","03","11","02:00","1.0","","-2.4","","78","","","M","29","","33","","","M","99.88","","","","","","NA"
"-66.09","43.83","YARMOUTH A","8206496","2018-03-11 03:00","2018","03","11","03:00","0.9","","-2.6","","78","","","M","30","","26","","","M","99.84","","","","","","NA"
"-66.09","43.83","YARMOUTH A","8206496","2018-03-11 04:00","2018","03","11","04:00","0.8","","-2.4","","79","","","M","29","","28","","","M","99.86","","","","","","NA"
"-66.09","43.83","YARMOUTH A","8206496","2018-03-11 05:00","2018","03","11","05:00","0.4","","-2.5","","81","","","M","30","","29","","","M","99.94","","","","","","NA"
"-66.09","43.83","YARMOUTH A","8206496","2018-03-11 06:00","2018","03","11","06:00","0.3","","-2.5","","82","","","M","32","","27","","","M","100.03","","","","","","NA"
"-66.09","43.83","YARMOUTH A","8206496","2018-03-11 07:00","2018","03","11","07:00","0.5","","-2.8","","79","","","M","31","","24","","","M","100.13","","","","","","NA"
"-66.09","43.83","YARMOUTH A","8206496","2018-03-11 08:00","2018","03","11","08:00","0.7","","-3.0","","76","","","M","31","","21","","","M","100.21","","","","","","NA"
"-66.09","43.83","YARMOUTH A","8206496","2018-03-11 09:00","2018","03","11","09:00","0.7","","-2.4","","80","","","M","31","","25","","","M","100.25","","","","","","NA"
"-66.09","43.83","YARMOUTH A","8206496","2018-03-11 10:00","2018","03","11","10:00","0.8","","-1.4","","85","","","M","31","","31","","","M","100.31","","","","","","NA"
"-66.09","43.83","YARMOUTH A","8206496","2018-03-11 11:00","2018","03","11","11:00","1.3","","-1.7","","80","","","M","31","","27","","","M","100.38","","","","","","NA"
"-66.09","43.83","YARMOUTH A","8206496","2018-03-11 12:00","2018","03","11","12:00","1.4","","-1.4","","82","","","M","31","","27","","","M","100.44","","","","","","NA"
"-66.09","43.83","YARMOUTH A","8206496","2018-03-11 13:00","2018","03","11","13:00","1.8","","-1.7","","78","","","M","32","","23","","","M","100.45","","","","","","NA"
"-66.09","43.83","YARMOUTH A","8206496","2018-03-11 14:00","2018","03","11","14:00","1.5","","-2.6","","74","","","M","31","","29","","","M","100.49","","","","","","NA"
"-66.09","43.83","YARMOUTH A","8206496","2018-03-11 15:00","2018","03","11","15:00","1.7","","-2.5","","74","","","M","31","","22","","","M","100.55","","","","","","NA"
"-66.09","43.83","YARMOUTH A","8206496","2018-03-11 16:00","2018","03","11","16:00","2.4","","-3.3","","66","","","M","30","","26","","","M","100.57","","","","","","NA"
"-66.09","43.83","YARMOUTH A","8206496","2018-03-11 17:00","2018","03","11","17:00","2.3","","-2.9","","68","","","M","33","","24","","","M","100.63","","","","","","NA"
"-66.09","43.83","YARMOUTH A","8206496","2018-03-11 18:00","2018","03","11","18:00","1.6","","-3.4","","70","","","M","32","","18","","","M","100.69","","","","","","NA"
"-66.09","43.83","YARMOUTH A","8206496","2018-03-11 19:00","2018","03","11","19:00","1.7","","-2.2","","75","","","M","32","","19","","","M","100.76","","","","","","NA"
"-66.09","43.83","YARMOUTH A","8206496","2018-03-11 20:00","2018","03","11","20:00","1.8","","-2.5","","74","","","M","33","","21","","","M","100.83","","","","","","NA"
"-66.09","43.83","YARMOUTH A","8206496","2018-03-11 21:00","2018","03","11","21:00","1.7","","-3.0","","71","","","M","33","","25","","","M","100.88","","","","","","NA"
"-66.09","43.83","YARMOUTH A","8206496","2018-03-11 22:00","2018","03","11","22:00","1.7","","-2.6","","73","","","M","34","","28","","","M","100.94","","","","","","NA"
"-66.09","43.83","YARMOUTH A","8206496","2018-03-11 23:00","2018","03","11","23:00","1.7","","-2.1","","76","","","M","33","","19","","","M","101.00","","","","","","NA"
"-66.09","43.83","YARMOUTH A","8206496","2018-03-12 00:00","2018","03","12","00:00","0.7","","-1.6","","84","","","M","34","","18","","","M","101.03","","","","","","NA"
"-66.09","43.83","YARMOUTH A","8206496","2018-03-12 01:00","2018","03","12","01:00","0.2","","-1.3","","90","","","M","35","","17","","","M","101.06","","","","","","NA"
"-66.09","43.83","YARMOUTH A","8206496","2018-03-12 02:00","2018","03","12","02:00","-1.0","","-2.1","","92","","","M","36","","15","","","M","101.07","","","","-6","","NA"
"-66.09","43.83","YARMOUTH A","8206496","2018-03-12 03:00","2018","03","12","03:00","-2.0","","-3.5","","90","","","M","36","","13","","","M","101.11","","","","-6","","NA"
"-66.09","43.83","YARMOUTH A","8206496","2018-03-12 04:00","2018","03","12","04:00","-2.3","","-3.8","","89","","","M","36","","10","","","M","101.16","","","","-6","","NA"
"-66.09","43.83","YARMOUTH A","8206496","2018-03-12 05:00","2018","03","12","05:00","-1.6","","-3.1","","90","","","M","3","","21","","","M","101.15","","","","-7","","NA"
"-66.09","43.83","YARMOUTH A","8206496","2018-03-12 06:00","2018","03","12","06:00","-2.9","","-4.7","","87","","","M","31","","8","","","M","101.24","","","","-6","","NA"
"-66.09","43.83","YARMOUTH A","8206496","2018-03-12 07:00","2018","03","12","07:00","-2.2","","-3.9","","88","","","M","33","","8","","","M","101.30","","","","-5","","NA"
"-66.09","43.83","YARMOUTH A","8206496","2018-03-12 08:00","2018","03","12","08:00","-0.3","","-2.4","","86","","","M","29","","8","","","M","101.38","","","","-3","","NA"
"-66.09","43.83","YARMOUTH A","8206496","2018-03-12 09:00","2018","03","12","09:00","1.6","","-2.3","","75","","","M","1","","16","","","M","101.37","","","","","","NA"
"-66.09","43.83","YARMOUTH A","8206496","2018-03-12 10:00","2018","03","12","10:00","2.9","","-3.2","","64","","","M","5","","21","","","M","101.34","","","","","","NA"
"-66.09","43.83","YARMOUTH A","8206496","2018-03-12 11:00","2018","03","12","11:00","4.1","","-2.6","","62","","","M","3","","18","","","M","101.31","","","","","","NA"
"-66.09","43.83","YARMOUTH A","8206496","2018-03-12 12:00","2018","03","12","12:00","4.8","","-2.0","","61","","","M","5","","10","","","M","101.31","","","","","","NA"
"-66.09","43.83","YARMOUTH A","8206496","2018-03-12 13:00","2018","03","12","13:00","5.9","","-2.3","","56","","","M","8","","7","","","M","101.28","","","","","","NA"
"-66.09","43.83","YARMOUTH A","8206496","2018-03-12 14:00","2018","03","12","14:00","6.3","","-3.2","","51","","","M","5","","10","","","M","101.25","","","","","","NA"
"-66.09","43.83","YARMOUTH A","8206496","2018-03-12 15:00","2018","03","12","15:00","6.2","","-3.9","","48","","","M","5","","14","","","M","101.25","","","","","","NA"
"-66.09","43.83","YARMOUTH A","8206496","2018-03-12 16:00","2018","03","12","16:00","5.7","","-2.7","","55","","","M","12","","19","","","M","101.26","","","","","","NA"
"-66.09","43.83","YARMOUTH A","8206496","2018-03-12 17:00","2018","03","12","17:00","2.8","","-1.1","","75","","","M","17","","18","","","M","101.30","","","","","","NA"
"-66.09","43.83","YARMOUTH A","8206496","2018-03-12 18:00","2018","03","12","18:00","2.2","","-1.5","","77","","","M","9","","11","","","M","101.25","","","","","","NA"
"-66.09","43.83","YARMOUTH A","8206496","2018-03-12 19:00","2018","03","12","19:00","0.8","","-1.4","","86","","","M","6","","9","","","M","101.25","","","","","","NA"
"-66.09","43.83","YARMOUTH A","8206496","2018-03-12 20:00","2018","03","12","20:00","0.9","","-0.8","","88","","","M","6","","5","","","M","101.28","","","","","","NA"
"-66.09","43.83","YARMOUTH A","8206496","2018-03-12 21:00","2018","03","12","21:00","0.3","","-4.7","","70","","","M","9","","14","","","M","101.30","","","","","","NA"
"-66.09","43.83","YARMOUTH A","8206496","2018-03-12 22:00","2018","03","12","22:00","-0.6","","-5.0","","73","","","M","8","","10","","","M","101.29","","","","-4","","NA"
"-66.09","43.83","YARMOUTH A","8206496","2018-03-12 23:00","2018","03","12","23:00","-0.7","","-4.7","","74","","","M","10","","8","","","M","101.29","","","","-4","","NA"
"-66.09","43.83","YARMOUTH A","8206496","2018-03-13 00:00","2018","03","13","00:00","-0.7","","-4.9","","73","","","M","7","","17","","","M","101.14","","","","-6","","NA"
"-66.09","43.83","YARMOUTH A","8206496","2018-03-13 01:00","2018","03","13","01:00","-0.6","","-5.5","","70","","","M","8","","23","","","M","101.05","","","","-6","","NA"
"-66.09","43.83","YARMOUTH A","8206496","2018-03-13 02:00","2018","03","13","02:00","-0.8","","-5.2","","72","","","M","8","","26","","","M","100.86","","","","-7","","NA"
"-66.09","43.83","YARMOUTH A","8206496","2018-03-13 03:00","2018","03","13","03:00","-1.0","","-4.8","","76","","","M","7","","27","","","M","100.64","","","","-7","","NA"
"-66.09","43.83","YARMOUTH A","8206496","2018-03-13 04:00","2018","03","13","04:00","-1.0","","-4.8","","76","","","M","9","","29","","","M","100.56","","","","-8","","NA"
"-66.09","43.83","YARMOUTH A","8206496","2018-03-13 05:00","2018","03","13","05:00","-0.9","","-4.7","","75","","","M","8","","38","","","M","100.38","","","","-8","","NA"
"-66.09","43.83","YARMOUTH A","8206496","2018-03-13 06:00","2018","03","13","06:00","-0.8","","-4.4","","76","","","M","8","","31","","","M","100.23","","","","-8","","NA"
"-66.09","43.83","YARMOUTH A","8206496","2018-03-13 07:00","2018","03","13","07:00","-0.5","","-4.0","","77","","","M","8","","23","","","M","100.10","","","","-6","","NA"
"-66.09","43.83","YARMOUTH A","8206496","2018-03-13 08:00","2018","03","13","08:00","-0.2","","-3.7","","77","","","M","7","","35","","","M","99.93","","","","-7","","NA"
"-66.09","43.83","YARMOUTH A","8206496","2018-03-13 09:00","2018","03","13","09:00","0.1","","-3.1","","79","","","M","9","","39","","","M","99.76","","","","","","NA"
"-66.09","43.83","YARMOUTH A","8206496","2018-03-13 10:00","2018","03","13","10:00","0.9","","-3.1","","75","","","M","8","","31","","","M","99.60","","","","","","NA"
"-66.09","43.83","YARMOUTH A","8206496","2018-03-13 11:00","2018","03","13","11:00","0.0","","-1.4","","90","","","M","7","","36","","","M","99.30","","","","-7","","NA"
"-66.09","43.83","YARMOUTH A","8206496","2018-03-13 12:00","2018","03","13","12:00","0.0","","-0.8","","94","","","M","7","","48","","","M","99.04","","","","-8","","NA"
"-66.09","43.83","YARMOUTH A","8206496","2018-03-13 13:00","2018","03","13","13:00","0.2","","-0.7","","94","","","M","6","","46","","","M","98.85","","","","","","NA"
"-66.09","43.83","YARMOUTH A","8206496","2018-03-13 14:00","2018","03","13","14:00","0.2","","-0.7","","94","","","M","6","","49","","","M","98.57","","","","","","NA"
"-66.09","43.83","YARMOUTH A","8206496","2018-03-13 15:00","2018","03","13","15:00","0.3","","-0.4","","95","","","M","6","","46","","","M","98.41","","","","","","NA"
"-66.09","43.83","YARMOUTH A","8206496","2018-03-13 16:00","2018","03","13","16:00","0.9","","-0.5","","90","","","M","7","","43","","","M","98.13","","","","","","NA"
"-66.09","43.83","YARMOUTH A","8206496","2018-03-13 17:00","2018","03","13","17:00","0.9","","-0.4","","91","","","M","7","","54","","","M","97.99","","","","","","NA"
"-66.09","43.83","YARMOUTH A","8206496","2018-03-13 18:00","2018","03","13","18:00","0.8","","-0.2","","93","","","M","7","","47","","","M","97.85","","","","","","NA"
"-66.09","43.83","YARMOUTH A","8206496","2018-03-13 19:00","2018","03","13","19:00","1.2","","0.1","","92","","","M","7","","52","","","M","97.74","","","","","","NA"
"-66.09","43.83","YARMOUTH A","8206496","2018-03-13 20:00","2018","03","13","20:00","1.5","","0.2","","91","","","M","7","","50","","","M","97.55","","","","","","NA"
"-66.09","43.83","YARMOUTH A","8206496","2018-03-13 21:00","2018","03","13","21:00","1.6","","0.2","","90","","","M","6","","46","","","M","97.44","","","","","","NA"
"-66.09","43.83","YARMOUTH A","8206496","2018-03-13 22:00","2018","03","13","22:00","1.6","","0.4","","92","","","M","6","","42","","","M","97.29","","","","","","NA"
"-66.09","43.83","YARMOUTH A","8206496","2018-03-13 23:00","2018","03","13","23:00","1.7","","0.5","","92","","","M","6","","37","","","M","97.19","","","","","","NA"
"-66.09","43.83","YARMOUTH A","8206496","2018-03-14 00:00","2018","03","14","00:00","2.1","","0.7","","90","","","M","5","","45","","","M","97.10","","","","","","NA"
"-66.09","43.83","YARMOUTH A","8206496","2018-03-14 01:00","2018","03","14","01:00","2.1","","1.0","","93","","","M","4","","34","","","M","97.14","","","","","","NA"
"-66.09","43.83","YARMOUTH A","8206496","2018-03-14 02:00","2018","03","14","02:00","2.0","","1.1","","94","","","M","32","","16","","","M","97.33","","","","","","NA"
"-66.09","43.83","YARMOUTH A","8206496","2018-03-14 03:00","2018","03","14","03:00","1.2","","0.7","","96","","","M","30","","23","","","M","97.45","","","","","","NA"
"-66.09","43.83","YARMOUTH A","8206496","2018-03-14 04:00","2018","03","14","04:00","0.8","","0.3","","97","","","M","31","","25","","","M","97.58","","","","","","NA"
"-66.09","43.83","YARMOUTH A","8206496","2018-03-14 05:00","2018","03","14","05:00","1.1","","0.6","","97","","","M","28","","18","","","M","97.70","","","","","","NA"
"-66.09","43.83","YARMOUTH A","8206496","2018-03-14 06:00","2018","03","14","06:00","0.9","","0.3","","96","","","M","28","","45","","","M","97.96","","","","","","NA"
"-66.09","43.83","YARMOUTH A","8206496","2018-03-14 07:00","2018","03","14","07:00","0.9","","0.2","","96","","","M","26","","35","","","M","98.21","","","","","","NA"
"-66.09","43.83","YARMOUTH A","8206496","2018-03-14 08:00","2018","03","14","08:00","1.5","","0.8","","95","","","M","25","","41","","","M","98.40","","","","","","NA"
"-66.09","43.83","YARMOUTH A","8206496","2018-03-14 09:00","2018","03","14","09:00","1.7","","0.8","","94","","","M","25","","31","","","M","98.53","","","","","","NA"
"-66.09","43.83","YARMOUTH A","8206496","2018-03-14 10:00","2018","03","14","10:00","1.7","","0.5","","92","","","M","24","","39","","","M","98.64","","","","","","NA"
"-66.09","43.83","YARMOUTH A","8206496","2018-03-14 11:00","2018","03","14","11:00","2.7","","-1.0","","77","","","M","24","","39","","","M","98.72","","","","","","NA"
"-66.09","43.83","YARMOUTH A","8206496","2018-03-14 12:00","2018","03","14","12:00","2.4","","-2.3","","71","","","M","23","","44","","","M","98.82","","","","","","NA"
"-66.09","43.83","YARMOUTH A","8206496","2018-03-14 13:00","2018","03","14","13:00","2.8","","-2.6","","67","","","M","23","","51","","","M","98.85","","","","","","NA"
"-66.09","43.83","YARMOUTH A","8206496","2018-03-14 14:00","2018","03","14","14:00","2.8","","-2.7","","67","","","M","23","","46","","","M","98.86","","","","","","NA"
"-66.09","43.83","YARMOUTH A","8206496","2018-03-14 15:00","2018","03","14","15:00","3.4","","-2.0","","68","","","M","23","","33","","","M","98.88","","","","","","NA"
"-66.09","43.83","YARMOUTH A","8206496","2018-03-14 16:00","2018","03","14","16:00","3.7","","-2.3","","64","","","M","23","","37","","","M","98.86","","","","","","NA"
"-66.09","43.83","YARMOUTH A","8206496","2018-03-14 17:00","2018","03","14","17:00","3.2","","-2.6","","66","","","M","23","","35","","","M","98.91","","","","","","NA"
"-66.09","43.83","YARMOUTH A","8206496","2018-03-14 18:00","2018","03","14","18:00","2.8","","-1.9","","71","","","M","23","","29","","","M","98.98","","","","","","NA"
"-66.09","43.83","YARMOUTH A","8206496","2018-03-14 19:00","2018","03","14","19:00","2.4","","-2.0","","72","","","M","23","","30","","","M","99.00","","","","","","NA"
"-66.09","43.83","YARMOUTH A","8206496","2018-03-14 20:00","2018","03","14","20:00","2.3","","-2.3","","72","","","M","22","","28","","","M","99.03","","","","","","NA"
"-66.09","43.83","YARMOUTH A","8206496","2018-03-14 21:00","2018","03","14","21:00","2.5","","-2.3","","71","","","M","21","","23","","","M","99.06","","","","","","NA"
"-66.09","43.83","YARMOUTH A","8206496","2018-03-14 22:00","2018","03","14","22:00","2.3","","-2.1","","73","","","M","22","","21","","","M","98.90","","","","","","NA"
"-66.09","43.83","YARMOUTH A","8206496","2018-03-14 23:00","2018","03","14","23:00","2.1","","-1.7","","76","","","M","20","","18","","","M","98.82","","","","","","NA"
"-66.09","43.83","YARMOUTH A","8206496","2018-03-15 00:00","2018","03","15","00:00","2.1","","-1.6","","76","","","M","20","","20","","","M","98.75","","","","","","NA"
"-66.09","43.83","YARMOUTH A","8206496","2018-03-15 01:00","2018","03","15","01:00","1.9","","-2.2","","74","","","M","21","","17","","","M","98.65","","","","","","NA"
"-66.09","43.83","YARMOUTH A","8206496","2018-03-15 02:00","2018","03","15","02:00","1.7","","-1.8","","78","","","M","20","","18","","","M","98.55","","","","","","NA"
"-66.09","43.83","YARMOUTH A","8206496","2018-03-15 03:00","2018","03","15","03:00","-0.2","","-1.7","","89","","","M","20","","30","","","M","98.49","","","","-7","","NA"
"-66.09","43.83","YARMOUTH A","8206496","2018-03-15 04:00","2018","03","15","04:00","-0.4","","-1.3","","93","","","M","21","","21","","","M","98.41","","","","-6","","NA"
"-66.09","43.83","YARMOUTH A","8206496","2018-03-15 05:00","2018","03","15","05:00","0.1","","-0.7","","95","","","M","18","","16","","","M","98.32","","","","","","NA"
"-66.09","43.83","YARMOUTH A","8206496","2018-03-15 06:00","2018","03","15","06:00","0.3","","-0.6","","93","","","M","24","","25","","","M","98.28","","","","","","NA"
"-66.09","43.83","YARMOUTH A","8206496","2018-03-15 07:00","2018","03","15","07:00","0.5","","-0.4","","94","","","M","23","","22","","","M","98.24","","","","","","NA"
"-66.09","43.83","YARMOUTH A","8206496","2018-03-15 08:00","2018","03","15","08:00","1.0","","-0.5","","90","","","M","24","","22","","","M","98.21","","","","","","NA"
"-66.09","43.83","YARMOUTH A","8206496","2018-03-15 09:00","2018","03","15","09:00","1.9","","-0.6","","84","","","M","24","","28","","","M","98.22","","","","","","NA"
"-66.09","43.83","YARMOUTH A","8206496","2018-03-15 10:00","2018","03","15","10:00","2.0","","1.0","","93","","","M","27","","29","","","M","98.23","","","","","","NA"
"-66.09","43.83","YARMOUTH A","8206496","2018-03-15 11:00","2018","03","15","11:00","2.1","","-0.8","","81","","","M","28","","28","","","M","98.28","","","","","","NA"
"-66.09","43.83","YARMOUTH A","8206496","2018-03-15 12:00","2018","03","15","12:00","2.1","","-2.7","","71","","","M","28","","36","","","M","98.31","","","","","","NA"
"-66.09","43.83","YARMOUTH A","8206496","2018-03-15 13:00","2018","03","15","13:00","2.7","","-2.5","","69","","","M","28","","37","","","M","98.30","","","","","","NA"
"-66.09","43.83","YARMOUTH A","8206496","2018-03-15 14:00","2018","03","15","14:00","3.6","","-1.8","","68","","","M","28","","41","","","M","98.32","","","","","","NA"
"-66.09","43.83","YARMOUTH A","8206496","2018-03-15 15:00","2018","03","15","15:00","2.8","","-1.6","","72","","","M","29","","27","","","M","98.35","","","","","","NA"
"-66.09","43.83","YARMOUTH A","8206496","2018-03-15 16:00","2018","03","15","16:00","4.1","","-2.3","","63","","","M","27","","33","","","M","98.38","","","","","","NA"
"-66.09","43.83","YARMOUTH A","8206496","2018-03-15 17:00","2018","03","15","17:00","3.4","","-2.0","","68","","","M","26","","30","","","M","98.43","","","","","","NA"
"-66.09","43.83","YARMOUTH A","8206496","2018-03-15 18:00","2018","03","15","18:00","2.6","","-1.8","","73","","","M","26","","30","","","M","98.50","","","","","","NA"
"-66.09","43.83","YARMOUTH A","8206496","2018-03-15 19:00","2018","03","15","19:00","2.1","","-2.6","","71","","","M","26","","34","","","M","98.53","","","","","","NA"
"-66.09","43.83","YARMOUTH A","8206496","2018-03-15 20:00","2018","03","15","20:00","2.8","","-1.6","","73","","","M","27","","32","","","M","98.58","","","","","","NA"
"-66.09","43.83","YARMOUTH A","8206496","2018-03-15 21:00","2018","03","15","21:00","2.4","","-1.4","","76","","","M","30","","22","","","M","98.66","","","","","","NA"
"-66.09","43.83","YARMOUTH A","8206496","2018-03-15 22:00","2018","03","15","22:00","2.1","","-2.5","","71","","","M","29","","30","","","M","98.72","","","","","","NA"
"-66.09","43.83","YARMOUTH A","8206496","2018-03-15 23:00","2018","03","15","23:00","2.1","","-3.4","","67","","","M","29","","30","","","M","98.73","","","","","","NA"
"-66.09","43.83","YARMOUTH A","8206496","2018-03-16 00:00","2018","03","16","00:00","1.6","","-3.4","","70","","","M","29","","25","","","M","98.72","","","","","","NA"
"-66.09","43.83","YARMOUTH A","8206496","2018-03-16 01:00","2018","03","16","01:00","1.3","","-2.6","","75","","","M","28","","25","","","M","98.73","","","","","","NA"
"-66.09","43.83","YARMOUTH A","8206496","2018-03-16 02:00","2018","03","16","02:00","1.4","","-2.6","","74","","","M","29","","28","","","M","98.72","","","","","","NA"
"-66.09","43.83","YARMOUTH A","8206496","2018-03-16 03:00","2018","03","16","03:00","1.6","","-3.9","","67","","","M","29","","28","","","M","98.68","","","","","","NA"
"-66.09","43.83","YARMOUTH A","8206496","2018-03-16 04:00","2018","03","16","04:00","1.2","","-3.0","","74","","","M","29","","23","","","M","98.67","","","","","","NA"
"-66.09","43.83","YARMOUTH A","8206496","2018-03-16 05:00","2018","03","16","05:00","0.8","","-2.9","","76","","","M","30","","26","","","M","98.70","","","","","","NA"
"-66.09","43.83","YARMOUTH A","8206496","2018-03-16 06:00","2018","03","16","06:00","1.1","","-3.2","","73","","","M","31","","22","","","M","98.71","","","","","","NA"
"-66.09","43.83","YARMOUTH A","8206496","2018-03-16 07:00","2018","03","16","07:00","1.1","","-4.0","","69","","","M","30","","23","","","M","98.75","","","","","","NA"
"-66.09","43.83","YARMOUTH A","8206496","2018-03-16 08:00","2018","03","16","08:00","1.0","","-4.8","","65","","","M","30","","24","","","M","98.77","","","","","","NA"
"-66.09","43.83","YARMOUTH A","8206496","2018-03-16 09:00","2018","03","16","09:00","0.8","","-4.9","","66","","","M","30","","26","","","M","98.81","","","","","","NA"
"-66.09","43.83","YARMOUTH A","8206496","2018-03-16 10:00","2018","03","16","10:00","0.6","","-6.3","","60","","","M","30","","28","","","M","98.85","","","","","","NA"
"-66.09","43.83","YARMOUTH A","8206496","2018-03-16 11:00","2018","03","16","11:00","0.7","","-5.7","","62","","","M","30","","28","","","M","98.86","","","","","","NA"
"-66.09","43.83","YARMOUTH A","8206496","2018-03-16 12:00","2018","03","16","12:00","0.6","","-5.8","","63","","","M","30","","30","","","M","98.86","","","","","","NA"
"-66.09","43.83","YARMOUTH A","8206496","2018-03-16 13:00","2018","03","16","13:00","1.7","","-4.8","","62","","","M","31","","30","","","M","98.83","","","","","","NA"
"-66.09","43.83","YARMOUTH A","8206496","2018-03-16 14:00","2018","03","16","14:00","0.5","","-5.9","","62","","","M","29","","30","","","M","98.81","","","","","","NA"
"-66.09","43.83","YARMOUTH A","8206496","2018-03-16 15:00","2018","03","16","15:00","0.8","","-6.6","","58","","","M","29","","35","","","M","98.77","","","","","","NA"
"-66.09","43.83","YARMOUTH A","8206496","2018-03-16 16:00","2018","03","16","16:00","0.8","","-6.2","","59","","","M","31","","28","","","M","98.76","","","","","","NA"
"-66.09","43.83","YARMOUTH A","8206496","2018-03-16 17:00","2018","03","16","17:00","0.8","","-6.7","","57","","","M","31","","30","","","M","98.79","","","","","","NA"
"-66.09","43.83","YARMOUTH A","8206496","2018-03-16 18:00","2018","03","16","18:00","0.8","","-7.1","","56","","","M","31","","31","","","M","98.83","","","","","","NA"
"-66.09","43.83","YARMOUTH A","8206496","2018-03-16 19:00","2018","03","16","19:00","0.3","","-7.9","","54","","","M","31","","36","","","M","98.91","","","","","","NA"
"-66.09","43.83","YARMOUTH A","8206496","2018-03-16 20:00","2018","03","16","20:00","-0.2","","-7.5","","58","","","M","32","","32","","","M","98.99","","","","-7","","NA"
"-66.09","43.83","YARMOUTH A","8206496","2018-03-16 21:00","2018","03","16","21:00","-0.9","","-8.2","","58","","","M","32","","32","","","M","99.08","","","","-8","","NA"
"-66.09","43.83","YARMOUTH A","8206496","2018-03-16 22:00","2018","03","16","22:00","-1.7","","-8.6","","60","","","M","33","","41","","","M","99.15","","","","-10","","NA"
"-66.09","43.83","YARMOUTH A","8206496","2018-03-16 23:00","2018","03","16","23:00","-2.1","","-9.0","","60","","","M","32","","33","","","M","99.21","","","","-10","","NA"
"-66.09","43.83","YARMOUTH A","8206496","2018-03-17 00:00","2018","03","17","00:00","-2.8","","-10.7","","55","","","M","33","","39","","","M","99.25","","","","-11","","NA"
"-66.09","43.83","YARMOUTH A","8206496","2018-03-17 01:00","2018","03","17","01:00","-2.9","","-10.5","","56","","","M","33","","36","","","M","99.25","","","","-11","","NA"
"-66.09","43.83","YARMOUTH A","8206496","2018-03-17 02:00","2018","03","17","02:00","-3.1","","-9.8","","60","","","M","33","","28","","","M","99.24","","","","-10","","NA"
"-66.09","43.83","YARMOUTH A","8206496","2018-03-17 03:00","2018","03","17","03:00","-3.8","","-8.0","","73","","","M","31","","27","","","M","99.21","","","","-11","","NA"
"-66.09","43.83","YARMOUTH A","8206496","2018-03-17 04:00","2018","03","17","04:00","-4.3","","-7.3","","80","","","M","31","","29","","","M","99.22","","","","-12","","NA"
"-66.09","43.83","YARMOUTH A","8206496","2018-03-17 05:00","2018","03","17","05:00","-5.0","","-9.1","","73","","","M","32","","37","","","M","99.25","","","","-14","","NA"
"-66.09","43.83","YARMOUTH A","8206496","2018-03-17 06:00","2018","03","17","06:00","-5.3","","-11.5","","62","","","M","32","","27","","","M","99.30","","","","-13","","NA"
"-66.09","43.83","YARMOUTH A","8206496","2018-03-17 07:00","2018","03","17","07:00","-5.3","","-13.6","","52","","","M","31","","39","","","M","99.32","","","","-14","","NA"
"-66.09","43.83","YARMOUTH A","8206496","2018-03-17 08:00","2018","03","17","08:00","-5.3","","-12.3","","58","","","M","30","","31","","","M","99.32","","","","-14","","NA"
"-66.09","43.83","YARMOUTH A","8206496","2018-03-17 09:00","2018","03","17","09:00","-5.1","","-13.9","","51","","","M","31","","33","","","M","99.30","","","","-13","","NA"
"-66.09","43.83","YARMOUTH A","8206496","2018-03-17 10:00","2018","03","17","10:00","-5.6","","-13.1","","56","","","M","29","","44","","","M","99.27","","","","-15","","NA"
"-66.09","43.83","YARMOUTH A","8206496","2018-03-17 11:00","2018","03","17","11:00","-5.3","","-14.3","","49","","","M","30","","35","","","M","99.25","","","","-14","","NA"
"-66.09","43.83","YARMOUTH A","8206496","2018-03-17 12:00","2018","03","17","12:00","-5.3","","-13.5","","53","","","M","30","","37","","","M","99.26","","","","-14","","NA"
"-66.09","43.83","YARMOUTH A","8206496","2018-03-17 13:00","2018","03","17","13:00","-4.4","","-13.1","","51","","","M","31","","42","","","M","99.26","","","","-13","","NA"
"-66.09","43.83","YARMOUTH A","8206496","2018-03-17 14:00","2018","03","17","14:00","-3.9","","-12.8","","50","","","M","31","","46","","","M","99.13","","","","-13","","NA"
"-66.09","43.83","YARMOUTH A","8206496","2018-03-17 15:00","2018","03","17","15:00","-4.2","","-14.6","","44","","","M","31","","48","","","M","99.11","","","","-14","","NA"
"-66.09","43.83","YARMOUTH A","8206496","2018-03-17 16:00","2018","03","17","16:00","-5.2","","-15.1","","46","","","M","32","","29","","","M","99.15","","","","-13","","NA"
"-66.09","43.83","YARMOUTH A","8206496","2018-03-17 17:00","2018","03","17","17:00","-5.2","","-17.0","","40","","","M","33","","43","","","M","99.24","","","","-15","","NA"
"-66.09","43.83","YARMOUTH A","8206496","2018-03-17 18:00","2018","03","17","18:00","-5.5","","-16.1","","44","","","M","31","","35","","","M","99.30","","","","-14","","NA"
"-66.09","43.83","YARMOUTH A","8206496","2018-03-17 19:00","2018","03","17","19:00","-5.6","","-15.2","","47","","","M","32","","33","","","M","99.41","","","","-14","","NA"
"-66.09","43.83","YARMOUTH A","8206496","2018-03-17 20:00","2018","03","17","20:00","-5.9","","-14.7","","50","","","M","34","","41","","","M","99.56","","","","-15","","NA"
"-66.09","43.83","YARMOUTH A","8206496","2018-03-17 21:00","2018","03","17","21:00","-6.3","","-14.3","","54","","","M","33","","43","","","M","99.67","","","","-16","","NA"
"-66.09","43.83","YARMOUTH A","8206496","2018-03-17 22:00","2018","03","17","22:00","-6.6","","-12.9","","61","","","M","34","","39","","","M","99.74","","","","-16","","NA"
"-66.09","43.83","YARMOUTH A","8206496","2018-03-17 23:00","2018","03","17","23:00","-6.3","","-13.5","","57","","","M","33","","34","","","M","99.75","","","","-15","","NA"
"-66.09","43.83","YARMOUTH A","8206496","2018-03-18 00:00","2018","03","18","00:00","-6.2","","-12.5","","62","","","M","33","","33","","","M","99.78","","","","-15","","NA"
"-66.09","43.83","YARMOUTH A","8206496","2018-03-18 01:00","2018","03","18","01:00","-6.0","","-13.0","","58","","","M","34","","28","","","M","99.81","","","","-14","","NA"
"-66.09","43.83","YARMOUTH A","8206496","2018-03-18 02:00","2018","03","18","02:00","-6.0","","-13.1","","58","","","M","33","","38","","","M","99.86","","","","-15","","NA"
"-66.09","43.83","YARMOUTH A","8206496","2018-03-18 03:00","2018","03","18","03:00","-6.4","","-13.3","","58","","","M","34","","27","","","M","99.86","","","","-14","","NA"
"-66.09","43.83","YARMOUTH A","8206496","2018-03-18 04:00","2018","03","18","04:00","-6.6","","-13.1","","60","","","M","34","","32","","","M","99.86","","","","-15","","NA"
"-66.09","43.83","YARMOUTH A","8206496","2018-03-18 05:00","2018","03","18","05:00","-6.8","","-12.9","","62","","","M","33","","27","","","M","99.88","","","","-15","","NA"
"-66.09","43.83","YARMOUTH A","8206496","2018-03-18 06:00","2018","03","18","06:00","-7.2","","-13.3","","62","","","M","33","","28","","","M","99.92","","","","-16","","NA"
"-66.09","43.83","YARMOUTH A","8206496","2018-03-18 07:00","2018","03","18","07:00","-7.1","","-12.7","","64","","","M","34","","22","","","M","99.97","","","","-15","","NA"
"-66.09","43.83","YARMOUTH A","8206496","2018-03-18 08:00","2018","03","18","08:00","-7.1","","-13.1","","62","","","M","33","","33","","","M","100.01","","","","-16","","NA"
"-66.09","43.83","YARMOUTH A","8206496","2018-03-18 09:00","2018","03","18","09:00","-6.5","","-12.8","","61","","","M","33","","34","","","M","100.04","","","","-15","","NA"
"-66.09","43.83","YARMOUTH A","8206496","2018-03-18 10:00","2018","03","18","10:00","-5.4","","-11.6","","62","","","M","32","","37","","","M","100.04","","","","-14","","NA"
"-66.09","43.83","YARMOUTH A","8206496","2018-03-18 11:00","2018","03","18","11:00","-5.0","","-11.4","","61","","","M","32","","32","","","M","100.04","","","","-13","","NA"
"-66.09","43.83","YARMOUTH A","8206496","2018-03-18 12:00","2018","03","18","12:00","-4.2","","-11.1","","59","","","M","33","","30","","","M","100.03","","","","-12","","NA"
"-66.09","43.83","YARMOUTH A","8206496","2018-03-18 13:00","2018","03","18","13:00","-3.5","","-11.3","","55","","","M","30","","28","","","M","99.98","","","","-11","","NA"
"-66.09","43.83","YARMOUTH A","8206496","2018-03-18 14:00","2018","03","18","14:00","-3.9","","-11.3","","57","","","M","30","","29","","","M","99.90","","","","-11","","NA"
"-66.09","43.83","YARMOUTH A","8206496","2018-03-18 15:00","2018","03","18","15:00","-3.5","","-11.6","","53","","","M","32","","30","","","M","99.87","","","","-11","","NA"
"-66.09","43.83","YARMOUTH A","8206496","2018-03-18 16:00","2018","03","18","16:00","-3.8","","-12.2","","52","","","M","31","","31","","","M","99.84","","","","-12","","NA"
"-66.09","43.83","YARMOUTH A","8206496","2018-03-18 17:00","2018","03","18","17:00","-3.7","","-12.8","","49","","","M","31","","30","","","M","99.84","","","","-11","","NA"
"-66.09","43.83","YARMOUTH A","8206496","2018-03-18 18:00","2018","03","18","18:00","-3.9","","-14.7","","43","","","M","31","","26","","","M","99.86","","","","-11","","NA"
"-66.09","43.83","YARMOUTH A","8206496","2018-03-18 19:00","2018","03","18","19:00","-4.2","","-14.5","","45","","","M","32","","26","","","M","99.87","","","","-11","","NA"
"-66.09","43.83","YARMOUTH A","8206496","2018-03-18 20:00","2018","03","18","20:00","-3.2","","-13.4","","46","","","M","33","","28","","","M","99.89","","","","-10","","NA"
"-66.09","43.83","YARMOUTH A","8206496","2018-03-18 21:00","2018","03","18","21:00","-3.4","","-13.6","","46","","","M","33","","25","","","M","99.92","","","","-10","","NA"
"-66.09","43.83","YARMOUTH A","8206496","2018-03-18 22:00","2018","03","18","22:00","-3.2","","-13.6","","45","","","M","33","","34","","","M","99.93","","","","-11","","NA"
"-66.09","43.83","YARMOUTH A","8206496","2018-03-18 23:00","2018","03","18","23:00","-3.5","","-12.9","","48","","","M","33","","30","","","M","99.92","","","","-11","","NA"
"-66.09","43.83","YARMOUTH A","8206496","2018-03-19 00:00","2018","03","19","00:00","-4.0","","-13.3","","49","","","M","33","","30","","","M","99.93","","","","-12","","NA"
"-66.09","43.83","YARMOUTH A","8206496","2018-03-19 01:00","2018","03","19","01:00","-4.6","","-13.2","","51","","","M","33","","31","","","M","99.94","","","","-13","","NA"
"-66.09","43.83","YARMOUTH A","8206496","2018-03-19 02:00","2018","03","19","02:00","-5.3","","-13.7","","52","","","M","31","","38","","","M","99.94","","","","-14","","NA"
"-66.09","43.83","YARMOUTH A","8206496","2018-03-19 03:00","2018","03","19","03:00","-5.5","","-13.4","","54","","","M","32","","40","","","M","99.93","","","","-15","","NA"
"-66.09","43.83","YARMOUTH A","8206496","2018-03-19 04:00","2018","03","19","04:00","-6.1","","-13.6","","55","","","M","32","","31","","","M","99.90","","","","-15","","NA"
"-66.09","43.83","YARMOUTH A","8206496","2018-03-19 05:00","2018","03","19","05:00","-6.4","","-13.6","","57","","","M","32","","35","","","M","99.93","","","","-15","","NA"
"-66.09","43.83","YARMOUTH A","8206496","2018-03-19 06:00","2018","03","19","06:00","-6.7","","-13.8","","57","","","M","31","","23","","","M","99.92","","","","-14","","NA"
"-66.09","43.83","YARMOUTH A","8206496","2018-03-19 07:00","2018","03","19","07:00","-6.3","","-13.5","","57","","","M","31","","32","","","M","99.93","","","","-15","","NA"
"-66.09","43.83","YARMOUTH A","8206496","2018-03-19 08:00","2018","03","19","08:00","-6.3","","-13.9","","55","","","M","32","","29","","","M","99.93","","","","-15","","NA"
"-66.09","43.83","YARMOUTH A","8206496","2018-03-19 09:00","2018","03","19","09:00","-5.8","","-13.5","","55","","","M","30","","34","","","M","99.92","","","","-15","","NA"
"-66.09","43.83","YARMOUTH A","8206496","2018-03-19 10:00","2018","03","19","10:00","-5.6","","-13.5","","54","","","M","30","","29","","","M","99.90","","","","-14","","NA"
"-66.09","43.83","YARMOUTH A","8206496","2018-03-19 11:00","2018","03","19","11:00","-5.3","","-11.4","","63","","","M","31","","32","","","M","99.88","","","","-14","","NA"
"-66.09","43.83","YARMOUTH A","8206496","2018-03-19 12:00","2018","03","19","12:00","-5.1","","-9.6","","70","","","M","31","","31","","","M","99.87","","","","-13","","NA"
"-66.09","43.83","YARMOUTH A","8206496","2018-03-19 13:00","2018","03","19","13:00","-3.7","","-11.0","","57","","","M","31","","32","","","M","99.82","","","","-12","","NA"
"-66.09","43.83","YARMOUTH A","8206496","2018-03-19 14:00","2018","03","19","14:00","-3.3","","-10.5","","58","","","M","30","","36","","","M","99.77","","","","-11","","NA"
"-66.09","43.83","YARMOUTH A","8206496","2018-03-19 15:00","2018","03","19","15:00","-2.9","","-11.0","","54","","","M","30","","37","","","M","99.74","","","","-11","","NA"
"-66.09","43.83","YARMOUTH A","8206496","2018-03-19 16:00","2018","03","19","16:00","-1.8","","-10.9","","50","","","M","29","","38","","","M","99.75","","","","-10","","NA"
"-66.09","43.83","YARMOUTH A","8206496","2018-03-19 17:00","2018","03","19","17:00","-1.3","","-10.7","","49","","","M","31","","36","","","M","99.78","","","","-9","","NA"
"-66.09","43.83","YARMOUTH A","8206496","2018-03-19 18:00","2018","03","19","18:00","-1.5","","-10.4","","51","","","M","31","","33","","","M","99.85","","","","-9","","NA"
"-66.09","43.83","YARMOUTH A","8206496","2018-03-19 19:00","2018","03","19","19:00","-1.5","","-10.0","","52","","","M","30","","23","","","M","99.91","","","","-8","","NA"
"-66.09","43.83","YARMOUTH A","8206496","2018-03-19 20:00","2018","03","19","20:00","-0.8","","-10.2","","49","","","M","30","","33","","","M","100.00","","","","-8","","NA"
"-66.09","43.83","YARMOUTH A","8206496","2018-03-19 21:00","2018","03","19","21:00","-1.2","","-9.9","","52","","","M","31","","29","","","M","100.05","","","","-8","","NA"
"-66.09","43.83","YARMOUTH A","8206496","2018-03-19 22:00","2018","03","19","22:00","-1.3","","-9.6","","53","","","M","31","","29","","","M","100.10","","","","-8","","NA"
"-66.09","43.83","YARMOUTH A","8206496","2018-03-19 23:00","2018","03","19","23:00","-1.6","","-9.7","","54","","","M","32","","32","","","M","100.13","","","","-9","","NA"
"-66.09","43.83","YARMOUTH A","8206496","2018-03-20 00:00","2018","03","20","00:00","-2.1","","-10.5","","53","","","M","32","","31","","","M","100.15","","","","-9","","NA"
"-66.09","43.83","YARMOUTH A","8206496","2018-03-20 01:00","2018","03","20","01:00","-2.3","","-9.7","","57","","","M","31","","28","","","M","100.20","","","","-9","","NA"
"-66.09","43.83","YARMOUTH A","8206496","2018-03-20 02:00","2018","03","20","02:00","-2.9","","-9.4","","61","","","M","31","","27","","","M","100.23","","","","-10","","NA"
"-66.09","43.83","YARMOUTH A","8206496","2018-03-20 03:00","2018","03","20","03:00","-3.1","","-9.4","","62","","","M","32","","27","","","M","100.24","","","","-10","","NA"
"-66.09","43.83","YARMOUTH A","8206496","2018-03-20 04:00","2018","03","20","04:00","-3.3","","-9.3","","63","","","M","31","","26","","","M","100.27","","","","-10","","NA"
"-66.09","43.83","YARMOUTH A","8206496","2018-03-20 05:00","2018","03","20","05:00","-3.5","","-9.5","","64","","","M","31","","19","","","M","100.33","","","","-9","","NA"
"-66.09","43.83","YARMOUTH A","8206496","2018-03-20 06:00","2018","03","20","06:00","-3.5","","-9.6","","63","","","M","32","","26","","","M","100.39","","","","-11","","NA"
"-66.09","43.83","YARMOUTH A","8206496","2018-03-20 07:00","2018","03","20","07:00","-3.0","","-9.3","","62","","","M","32","","25","","","M","100.49","","","","-10","","NA"
"-66.09","43.83","YARMOUTH A","8206496","2018-03-20 08:00","2018","03","20","08:00","-2.2","","-9.5","","58","","","M","31","","24","","","M","100.53","","","","-9","","NA"
"-66.09","43.83","YARMOUTH A","8206496","2018-03-20 09:00","2018","03","20","09:00","-1.5","","-9.3","","56","","","M","30","","29","","","M","100.60","","","","-8","","NA"
"-66.09","43.83","YARMOUTH A","8206496","2018-03-20 10:00","2018","03","20","10:00","-1.0","","-8.9","","55","","","M","31","","25","","","M","100.62","","","","-7","","NA"
"-66.09","43.83","YARMOUTH A","8206496","2018-03-20 11:00","2018","03","20","11:00","-0.6","","-8.7","","54","","","M","31","","26","","","M","100.61","","","","-7","","NA"
"-66.09","43.83","YARMOUTH A","8206496","2018-03-20 12:00","2018","03","20","12:00","0.0","","-8.2","","54","","","M","30","","25","","","M","100.60","","","","-6","","NA"
"-66.09","43.83","YARMOUTH A","8206496","2018-03-20 13:00","2018","03","20","13:00","0.3","","-8.0","","54","","","M","29","","29","","","M","100.57","","","","","","NA"
"-66.09","43.83","YARMOUTH A","8206496","2018-03-20 14:00","2018","03","20","14:00","0.8","","-7.2","","55","","","M","30","","25","","","M","100.57","","","","","","NA"
"-66.09","43.83","YARMOUTH A","8206496","2018-03-20 15:00","2018","03","20","15:00","0.6","","-7.6","","55","","","M","30","","26","","","M","100.62","","","","","","NA"
"-66.09","43.83","YARMOUTH A","8206496","2018-03-20 16:00","2018","03","20","16:00","0.4","","-7.2","","57","","","M","30","","25","","","M","100.66","","","","","","NA"
"-66.09","43.83","YARMOUTH A","8206496","2018-03-20 17:00","2018","03","20","17:00","0.2","","-7.0","","59","","","M","29","","22","","","M","100.71","","","","","","NA"
"-66.09","43.83","YARMOUTH A","8206496","2018-03-20 18:00","2018","03","20","18:00","-0.6","","-6.5","","64","","","M","28","","16","","","M","100.75","","","","-5","","NA"
"-66.09","43.83","YARMOUTH A","8206496","2018-03-20 19:00","2018","03","20","19:00","-1.5","","-6.6","","68","","","M","29","","8","","","M","100.80","","","","-5","","NA"
"-66.09","43.83","YARMOUTH A","8206496","2018-03-20 20:00","2018","03","20","20:00","-1.9","","-6.6","","70","","","M","31","","3","","","M","100.80","","","","-3","","NA"
"-66.09","43.83","YARMOUTH A","8206496","2018-03-20 21:00","2018","03","20","21:00","-2.7","","-7.2","","71","","","M","16","","4","","","M","100.86","","","","-4","","NA"
"-66.09","43.83","YARMOUTH A","8206496","2018-03-20 22:00","2018","03","20","22:00","-4.2","","-7.0","","81","","","M","13","","5","","","M","100.87","","","","-6","","NA"
"-66.09","43.83","YARMOUTH A","8206496","2018-03-20 23:00","2018","03","20","23:00","-4.1","","-7.2","","79","","","M","5","","5","","","M","100.87","","","","-6","","NA"
"-66.09","43.83","YARMOUTH A","8206496","2018-03-21 00:00","2018","03","21","00:00","-4.4","","-6.4","","86","","","M","8","","7","","","M","100.81","","","","-8","","NA"
"-66.09","43.83","YARMOUTH A","8206496","2018-03-21 01:00","2018","03","21","01:00","-4.0","","-6.7","","82","","","M","8","","7","","","M","100.87","","","","-7","","NA"
"-66.09","43.83","YARMOUTH A","8206496","2018-03-21 02:00","2018","03","21","02:00","-4.1","","-6.7","","82","","","M","10","","8","","","M","100.84","","","","-8","","NA"
"-66.09","43.83","YARMOUTH A","8206496","2018-03-21 03:00","2018","03","21","03:00","-5.3","","-7.5","","85","","","M","5","","10","","","M","100.74","","","","-10","","NA"
"-66.09","43.83","YARMOUTH A","8206496","2018-03-21 04:00","2018","03","21","04:00","-5.7","","-7.5","","87","","","M","5","","9","","","M","100.71","","","","-10","","NA"
"-66.09","43.83","YARMOUTH A","8206496","2018-03-21 05:00","2018","03","21","05:00","-5.5","","-7.5","","85","","","M","5","","11","","","M","100.73","","","","-10","","NA"
"-66.09","43.83","YARMOUTH A","8206496","2018-03-21 06:00","2018","03","21","06:00","-4.8","","-7.4","","82","","","M","6","","10","","","M","100.70","","","","-9","","NA"
"-66.09","43.83","YARMOUTH A","8206496","2018-03-21 07:00","2018","03","21","07:00","-4.4","","-7.2","","81","","","M","5","","13","","","M","100.62","","","","-9","","NA"
"-66.09","43.83","YARMOUTH A","8206496","2018-03-21 08:00","2018","03","21","08:00","-2.5","","-6.2","","76","","","M","7","","14","","","M","100.52","","","","-7","","NA"
"-66.09","43.83","YARMOUTH A","8206496","2018-03-21 09:00","2018","03","21","09:00","0.0","","-4.8","","70","","","M","7","","18","","","M","100.48","","","","-5","","NA"
"-66.09","43.83","YARMOUTH A","8206496","2018-03-21 10:00","2018","03","21","10:00","1.4","","-4.8","","63","","","M","6","","28","","","M","100.40","","","","","","NA"
"-66.09","43.83","YARMOUTH A","8206496","2018-03-21 11:00","2018","03","21","11:00","2.1","","-4.9","","60","","","M","7","","20","","","M","100.31","","","","","","NA"
"-66.09","43.83","YARMOUTH A","8206496","2018-03-21 12:00","2018","03","21","12:00","3.1","","-5.1","","55","","","M","7","","22","","","M","100.22","","","","","","NA"
"-66.09","43.83","YARMOUTH A","8206496","2018-03-21 13:00","2018","03","21","13:00","3.5","","-4.9","","54","","","M","5","","28","","","M","100.18","","","","","","NA"
"-66.09","43.83","YARMOUTH A","8206496","2018-03-21 14:00","2018","03","21","14:00","4.5","","-5.3","","49","","","M","6","","27","","","M","100.06","","","","","","NA"
"-66.09","43.83","YARMOUTH A","8206496","2018-03-21 15:00","2018","03","21","15:00","4.8","","-6.0","","46","","","M","7","","25","","","M","100.09","","","","","","NA"
"-66.09","43.83","YARMOUTH A","8206496","2018-03-21 16:00","2018","03","21","16:00","4.3","","-5.6","","49","","","M","8","","18","","","M","100.14","","","","","","NA"
"-66.09","43.83","YARMOUTH A","8206496","2018-03-21 17:00","2018","03","21","17:00","4.2","","-5.4","","50","","","M","6","","13","","","M","100.18","","","","","","NA"
"-66.09","43.83","YARMOUTH A","8206496","2018-03-21 18:00","2018","03","21","18:00","4.1","","-5.5","","50","","","M","6","","15","","","M","100.15","","","","","","NA"
"-66.09","43.83","YARMOUTH A","8206496","2018-03-21 19:00","2018","03","21","19:00","4.2","","-5.5","","49","","","M","7","","22","","","M","100.19","","","","","","NA"
"-66.09","43.83","YARMOUTH A","8206496","2018-03-21 20:00","2018","03","21","20:00","3.4","","-4.4","","57","","","M","8","","20","","","M","100.20","","","","","","NA"
"-66.09","43.83","YARMOUTH A","8206496","2018-03-21 21:00","2018","03","21","21:00","3.0","","-3.9","","60","","","M","7","","13","","","M","100.23","","","","","","NA"
"-66.09","43.83","YARMOUTH A","8206496","2018-03-21 22:00","2018","03","21","22:00","2.8","","-5.2","","56","","","M","7","","25","","","M","100.25","","","","","","NA"
"-66.09","43.83","YARMOUTH A","8206496","2018-03-21 23:00","2018","03","21","23:00","1.4","","-3.4","","71","","","M","5","","27","","","M","100.17","","","","","","NA"
"-66.09","43.83","YARMOUTH A","8206496","2018-03-22 00:00","2018","03","22","00:00","0.8","","-2.9","","77","","","M","5","","26","","","M","100.13","","","","","","NA"
"-66.09","43.83","YARMOUTH A","8206496","2018-03-22 01:00","2018","03","22","01:00","1.0","","-4.0","","69","","","M","6","","31","","","M","100.06","","","","","","NA"
"-66.09","43.83","YARMOUTH A","8206496","2018-03-22 02:00","2018","03","22","02:00","1.1","","-4.1","","69","","","M","5","","34","","","M","100.09","","","","","","NA"
"-66.09","43.83","YARMOUTH A","8206496","2018-03-22 03:00","2018","03","22","03:00","0.0","","-3.2","","79","","","M","5","","33","","","M","99.85","","","","-7","","NA"
"-66.09","43.83","YARMOUTH A","8206496","2018-03-22 04:00","2018","03","22","04:00","0.2","","-3.2","","77","","","M","6","","39","","","M","99.89","","","","","","NA"
"-66.09","43.83","YARMOUTH A","8206496","2018-03-22 05:00","2018","03","22","05:00","-0.5","","-3.2","","82","","","M","5","","36","","","M","99.64","","","","-8","","NA"
"-66.09","43.83","YARMOUTH A","8206496","2018-03-22 06:00","2018","03","22","06:00","-0.5","","-2.5","","86","","","M","6","","28","","","M","99.61","","","","-7","","NA"
"-66.09","43.83","YARMOUTH A","8206496","2018-03-22 07:00","2018","03","22","07:00","-0.4","","-1.9","","90","","","M","6","","32","","","M","99.43","","","","-7","","NA"
"-66.09","43.83","YARMOUTH A","8206496","2018-03-22 08:00","2018","03","22","08:00","-0.2","","-1.5","","91","","","M","5","","27","","","M","99.48","","","","-6","","NA"
"-66.09","43.83","YARMOUTH A","8206496","2018-03-22 09:00","2018","03","22","09:00","-0.4","","-1.4","","93","","","M","4","","28","","","M","99.31","","","","-7","","NA"
"-66.09","43.83","YARMOUTH A","8206496","2018-03-22 10:00","2018","03","22","10:00","-0.2","","-1.2","","93","","","M","5","","26","","","M","99.28","","","","-6","","NA"
"-66.09","43.83","YARMOUTH A","8206496","2018-03-22 11:00","2018","03","22","11:00","-0.4","","-1.4","","93","","","M","3","","28","","","M","99.23","","","","-7","","NA"
"-66.09","43.83","YARMOUTH A","8206496","2018-03-22 12:00","2018","03","22","12:00","-0.5","","-1.5","","93","","","M","2","","23","","","M","99.23","","","","-6","","NA"
"-66.09","43.83","YARMOUTH A","8206496","2018-03-22 13:00","2018","03","22","13:00","-0.4","","-1.2","","94","","","M","2","","30","","","M","99.14","","","","-7","","NA"
"-66.09","43.83","YARMOUTH A","8206496","2018-03-22 14:00","2018","03","22","14:00","-0.1","","-1.0","","94","","","M","2","","34","","","M","99.09","","","","-7","","NA"
"-66.09","43.83","YARMOUTH A","8206496","2018-03-22 15:00","2018","03","22","15:00","0.2","","-0.7","","93","","","M","2","","32","","","M","99.07","","","","","","NA"
"-66.09","43.83","YARMOUTH A","8206496","2018-03-22 16:00","2018","03","22","16:00","0.4","","-0.9","","92","","","M","1","","36","","","M","99.08","","","","","","NA"
"-66.09","43.83","YARMOUTH A","8206496","2018-03-22 17:00","2018","03","22","17:00","0.2","","-1.1","","90","","","M","36","","36","","","M","99.11","","","","","","NA"
"-66.09","43.83","YARMOUTH A","8206496","2018-03-22 18:00","2018","03","22","18:00","-0.2","","-1.7","","90","","","M","36","","40","","","M","99.17","","","","-8","","NA"
"-66.09","43.83","YARMOUTH A","8206496","2018-03-22 19:00","2018","03","22","19:00","-0.6","","-2.2","","89","","","M","36","","38","","","M","99.27","","","","-8","","NA"
"-66.09","43.83","YARMOUTH A","8206496","2018-03-22 20:00","2018","03","22","20:00","-0.7","","-2.8","","86","","","M","35","","38","","","M","99.36","","","","-8","","NA"
"-66.09","43.83","YARMOUTH A","8206496","2018-03-22 21:00","2018","03","22","21:00","-0.8","","-2.6","","88","","","M","35","","41","","","M","99.43","","","","-9","","NA"
"-66.09","43.83","YARMOUTH A","8206496","2018-03-22 22:00","2018","03","22","22:00","-0.6","","-2.9","","85","","","M","35","","32","","","M","99.49","","","","-7","","NA"
"-66.09","43.83","YARMOUTH A","8206496","2018-03-22 23:00","2018","03","22","23:00","-0.6","","-2.5","","86","","","M","35","","37","","","M","99.53","","","","-8","","NA"
"-66.09","43.83","YARMOUTH A","8206496","2018-03-23 00:00","2018","03","23","00:00","-0.3","","-2.6","","84","","","M","35","","40","","","M","99.60","","","","-8","","NA"
"-66.09","43.83","YARMOUTH A","8206496","2018-03-23 01:00","2018","03","23","01:00","-0.1","","-2.4","","84","","","M","34","","37","","","M","99.66","","","","-7","","NA"
"-66.09","43.83","YARMOUTH A","8206496","2018-03-23 02:00","2018","03","23","02:00","-0.4","","-2.1","","88","","","M","34","","38","","","M","99.73","","","","-8","","NA"
"-66.09","43.83","YARMOUTH A","8206496","2018-03-23 03:00","2018","03","23","03:00","-0.3","","-2.2","","87","","","M","34","","44","","","M","99.77","","","","-8","","NA"
"-66.09","43.83","YARMOUTH A","8206496","2018-03-23 04:00","2018","03","23","04:00","-0.2","","-2.1","","87","","","M","34","","32","","","M","99.86","","","","-7","","NA"
"-66.09","43.83","YARMOUTH A","8206496","2018-03-23 05:00","2018","03","23","05:00","0.1","","-2.6","","82","","","M","34","","30","","","M","99.97","","","","","","NA"
"-66.09","43.83","YARMOUTH A","8206496","2018-03-23 06:00","2018","03","23","06:00","0.2","","-2.9","","80","","","M","35","","36","","","M","100.05","","","","","","NA"
"-66.09","43.83","YARMOUTH A","8206496","2018-03-23 07:00","2018","03","23","07:00","0.2","","-3.1","","79","","","M","34","","34","","","M","100.19","","","","","","NA"
"-66.09","43.83","YARMOUTH A","8206496","2018-03-23 08:00","2018","03","23","08:00","0.3","","-3.4","","76","","","M","34","","30","","","M","100.28","","","","","","NA"
"-66.09","43.83","YARMOUTH A","8206496","2018-03-23 09:00","2018","03","23","09:00","0.7","","-3.2","","75","","","M","35","","23","","","M","100.39","","","","","","NA"
"-66.09","43.83","YARMOUTH A","8206496","2018-03-23 10:00","2018","03","23","10:00","1.1","","-3.2","","73","","","M","35","","26","","","M","100.45","","","","","","NA"
"-66.09","43.83","YARMOUTH A","8206496","2018-03-23 11:00","2018","03","23","11:00","1.3","","-2.7","","75","","","M","34","","26","","","M","100.46","","","","","","NA"
"-66.09","43.83","YARMOUTH A","8206496","2018-03-23 12:00","2018","03","23","12:00","1.7","","-2.8","","72","","","M","35","","23","","","M","100.45","","","","","","NA"
"-66.09","43.83","YARMOUTH A","8206496","2018-03-23 13:00","2018","03","23","13:00","2.0","","-2.9","","70","","","M","35","","21","","","M","100.49","","","","","","NA"
"-66.09","43.83","YARMOUTH A","8206496","2018-03-23 14:00","2018","03","23","14:00","2.3","","-2.5","","70","","","M","35","","18","","","M","100.48","","","","","","NA"
"-66.09","43.83","YARMOUTH A","8206496","2018-03-23 15:00","2018","03","23","15:00","2.5","","-3.1","","67","","","M","33","","18","","","M","100.53","","","","","","NA"
"-66.09","43.83","YARMOUTH A","8206496","2018-03-23 16:00","2018","03","23","16:00","2.7","","-3.4","","64","","","M","33","","23","","","M","100.58","","","","","","NA"
"-66.09","43.83","YARMOUTH A","8206496","2018-03-23 17:00","2018","03","23","17:00","2.4","","-3.1","","67","","","M","33","","21","","","M","100.63","","","","","","NA"
"-66.09","43.83","YARMOUTH A","8206496","2018-03-23 18:00","2018","03","23","18:00","2.2","","-2.7","","70","","","M","33","","10","","","M","100.70","","","","","","NA"
"-66.09","43.83","YARMOUTH A","8206496","2018-03-23 19:00","2018","03","23","19:00","1.7","","-2.3","","75","","","M","34","","8","","","M","100.76","","","","","","NA"
"-66.09","43.83","YARMOUTH A","8206496","2018-03-23 20:00","2018","03","23","20:00","1.1","","-2.1","","79","","","M","34","","4","","","M","100.79","","","","","","NA"
"-66.09","43.83","YARMOUTH A","8206496","2018-03-23 21:00","2018","03","23","21:00","1.4","","-2.3","","77","","","M","33","","5","","","M","100.83","","","","","","NA"
"-66.09","43.83","YARMOUTH A","8206496","2018-03-23 22:00","2018","03","23","22:00","1.2","","-2.3","","77","","","M","26","","4","","","M","100.83","","","","","","NA"
"-66.09","43.83","YARMOUTH A","8206496","2018-03-23 23:00","2018","03","23","23:00","1.0","","-1.8","","81","","","M","25","","7","","","M","100.84","","","","","","NA"
"-66.09","43.83","YARMOUTH A","8206496","2018-03-24 00:00","2018","03","24","00:00","1.2","","-1.5","","83","","","M","27","","9","","","M","100.86","","","","","","NA"
"-66.09","43.83","YARMOUTH A","8206496","2018-03-24 01:00","2018","03","24","01:00","1.7","","-0.5","","85","","","M","32","","5","","","M","100.86","","","","","","NA"
"-66.09","43.83","YARMOUTH A","8206496","2018-03-24 02:00","2018","03","24","02:00","0.7","","-0.5","","92","","","M","36","","13","","","M","100.87","","","","","","NA"
"-66.09","43.83","YARMOUTH A","8206496","2018-03-24 03:00","2018","03","24","03:00","0.2","","-0.4","","96","","","M","34","","8","","","M","100.84","","","","","","NA"
"-66.09","43.83","YARMOUTH A","8206496","2018-03-24 04:00","2018","03","24","04:00","0.6","","-0.3","","93","","","M","36","","9","","","M","100.81","","","","","","NA"
"-66.09","43.83","YARMOUTH A","8206496","2018-03-24 05:00","2018","03","24","05:00","0.2","","-0.7","","93","","","M","35","","7","","","M","100.81","","","","","","NA"
"-66.09","43.83","YARMOUTH A","8206496","2018-03-24 06:00","2018","03","24","06:00","0.2","","-1.2","","90","","","M","34","","7","","","M","100.81","","","","","","NA"
"-66.09","43.83","YARMOUTH A","8206496","2018-03-24 07:00","2018","03","24","07:00","0.0","","-1.1","","92","","","M","36","","10","","","M","100.86","","","","-3","","NA"
"-66.09","43.83","YARMOUTH A","8206496","2018-03-24 08:00","2018","03","24","08:00","0.4","","-1.2","","89","","","M","1","","14","","","M","100.88","","","","","","NA"
"-66.09","43.83","YARMOUTH A","8206496","2018-03-24 09:00","2018","03","24","09:00","1.2","","-0.9","","86","","","M","2","","14","","","M","100.89","","","","","","NA"
"-66.09","43.83","YARMOUTH A","8206496","2018-03-24 10:00","2018","03","24","10:00","2.5","","-1.6","","74","","","M","36","","27","","","M","100.87","","","","","","NA"
"-66.09","43.83","YARMOUTH A","8206496","2018-03-24 11:00","2018","03","24","11:00","3.2","","-1.9","","69","","","M","1","","25","","","M","100.85","","","","","","NA"
"-66.09","43.83","YARMOUTH A","8206496","2018-03-24 12:00","2018","03","24","12:00","4.1","","-2.6","","62","","","M","3","","22","","","M","100.84","","","","","","NA"
"-66.09","43.83","YARMOUTH A","8206496","2018-03-24 13:00","2018","03","24","13:00","4.3","","-2.8","","60","","","M","2","","34","","","M","100.82","","","","","","NA"
"-66.09","43.83","YARMOUTH A","8206496","2018-03-24 14:00","2018","03","24","14:00","3.8","","-2.8","","62","","","M","3","","31","","","M","100.83","","","","","","NA"
"-66.09","43.83","YARMOUTH A","8206496","2018-03-24 15:00","2018","03","24","15:00","3.8","","-2.9","","62","","","M","3","","22","","","M","100.84","","","","","","NA"
"-66.09","43.83","YARMOUTH A","8206496","2018-03-24 16:00","2018","03","24","16:00","3.1","","-4.0","","60","","","M","4","","32","","","M","100.88","","","","","","NA"
"-66.09","43.83","YARMOUTH A","8206496","2018-03-24 17:00","2018","03","24","17:00","2.3","","-3.8","","64","","","M","3","","29","","","M","100.94","","","","","","NA"
"-66.09","43.83","YARMOUTH A","8206496","2018-03-24 18:00","2018","03","24","18:00","1.6","","-4.2","","65","","","M","4","","33","","","M","101.02","","","","","","NA"
"-66.09","43.83","YARMOUTH A","8206496","2018-03-24 19:00","2018","03","24","19:00","0.9","","-4.3","","68","","","M","3","","30","","","M","101.09","","","","","","NA"
"-66.09","43.83","YARMOUTH A","8206496","2018-03-24 20:00","2018","03","24","20:00","-0.4","","-2.7","","85","","","M","2","","25","","","M","101.19","","","","-6","","NA"
"-66.09","43.83","YARMOUTH A","8206496","2018-03-24 21:00","2018","03","24","21:00","-0.6","","-2.4","","87","","","M","2","","19","","","M","101.25","","","","-6","","NA"
"-66.09","43.83","YARMOUTH A","8206496","2018-03-24 22:00","2018","03","24","22:00","-0.5","","-2.9","","84","","","M","2","","25","","","M","101.29","","","","-7","","NA"
"-66.09","43.83","YARMOUTH A","8206496","2018-03-24 23:00","2018","03","24","23:00","-0.7","","-2.9","","85","","","M","2","","20","","","M","101.30","","","","-6","","NA"
"-66.09","43.83","YARMOUTH A","8206496","2018-03-25 00:00","2018","03","25","00:00","-0.9","","-4.0","","79","","","M","3","","29","","","M","101.32","","","","-8","","NA"
"-66.09","43.83","YARMOUTH A","8206496","2018-03-25 01:00","2018","03","25","01:00","-0.9","","-4.1","","79","","","M","4","","26","","","M","101.37","","","","-7","","NA"
"-66.09","43.83","YARMOUTH A","8206496","2018-03-25 02:00","2018","03","25","02:00","-1.0","","-4.1","","79","","","M","4","","35","","","M","101.42","","","","-8","","NA"
"-66.09","43.83","YARMOUTH A","8206496","2018-03-25 03:00","2018","03","25","03:00","-1.0","","-4.4","","78","","","M","3","","33","","","M","101.47","","","","-8","","NA"
"-66.09","43.83","YARMOUTH A","8206496","2018-03-25 04:00","2018","03","25","04:00","-1.0","","-4.4","","78","","","M","3","","29","","","M","101.56","","","","-8","","NA"
"-66.09","43.83","YARMOUTH A","8206496","2018-03-25 05:00","2018","03","25","05:00","-1.2","","-4.3","","80","","","M","2","","22","","","M","101.68","","","","-7","","NA"
"-66.09","43.83","YARMOUTH A","8206496","2018-03-25 06:00","2018","03","25","06:00","-1.7","","-3.7","","86","","","M","2","","23","","","M","101.78","","","","-8","","NA"
"-66.09","43.83","YARMOUTH A","8206496","2018-03-25 07:00","2018","03","25","07:00","-1.7","","-3.4","","88","","","M","2","","21","","","M","101.88","","","","-8","","NA"
"-66.09","43.83","YARMOUTH A","8206496","2018-03-25 08:00","2018","03","25","08:00","-1.3","","-3.5","","85","","","M","4","","24","","","M","101.96","","","","-7","","NA"
"-66.09","43.83","YARMOUTH A","8206496","2018-03-25 09:00","2018","03","25","09:00","-0.9","","-3.6","","82","","","M","4","","30","","","M","102.05","","","","-8","","NA"
"-66.09","43.83","YARMOUTH A","8206496","2018-03-25 10:00","2018","03","25","10:00","0.0","","-3.8","","76","","","M","4","","31","","","M","102.13","","","","-7","","NA"
"-66.09","43.83","YARMOUTH A","8206496","2018-03-25 11:00","2018","03","25","11:00","0.2","","-4.7","","69","","","M","5","","40","","","M","102.18","","","","","","NA"
"-66.09","43.83","YARMOUTH A","8206496","2018-03-25 12:00","2018","03","25","12:00","0.9","","-4.6","","67","","","M","4","","37","","","M","102.20","","","","","","NA"
"-66.09","43.83","YARMOUTH A","8206496","2018-03-25 13:00","2018","03","25","13:00","1.1","","-4.8","","65","","","M","5","","30","","","M","102.26","","","","","","NA"
"-66.09","43.83","YARMOUTH A","8206496","2018-03-25 14:00","2018","03","25","14:00","1.1","","-6.2","","59","","","M","5","","36","","","M","102.27","","","","","","NA"
"-66.09","43.83","YARMOUTH A","8206496","2018-03-25 15:00","2018","03","25","15:00","0.8","","-6.2","","60","","","M","4","","39","","","M","102.33","","","","","","NA"
"-66.09","43.83","YARMOUTH A","8206496","2018-03-25 16:00","2018","03","25","16:00","1.0","","-7.0","","55","","","M","4","","34","","","M","102.36","","","","","","NA"
"-66.09","43.83","YARMOUTH A","8206496","2018-03-25 17:00","2018","03","25","17:00","0.2","","-7.0","","58","","","M","3","","31","","","M","102.44","","","","","","NA"
"-66.09","43.83","YARMOUTH A","8206496","2018-03-25 18:00","2018","03","25","18:00","-0.7","","-7.5","","60","","","M","4","","29","","","M","102.57","","","","-7","","NA"
"-66.09","43.83","YARMOUTH A","8206496","2018-03-25 19:00","2018","03","25","19:00","-1.4","","-7.9","","61","","","M","4","","32","","","M","102.66","","","","-9","","NA"
"-66.09","43.83","YARMOUTH A","8206496","2018-03-25 20:00","2018","03","25","20:00","-1.7","","-7.9","","63","","","M","5","","19","","","M","102.78","","","","-7","","NA"
"-66.09","43.83","YARMOUTH A","8206496","2018-03-25 21:00","2018","03","25","21:00","-2.1","","-8.4","","62","","","M","5","","23","","","M","102.89","","","","-8","","NA"
"-66.09","43.83","YARMOUTH A","8206496","2018-03-25 22:00","2018","03","25","22:00","-2.7","","-8.7","","64","","","M","6","","19","","","M","102.94","","","","-8","","NA"
"-66.09","43.83","YARMOUTH A","8206496","2018-03-25 23:00","2018","03","25","23:00","-3.7","","-8.9","","68","","","M","4","","18","","","M","102.97","","","","-10","","NA"
"-66.09","43.83","YARMOUTH A","8206496","2018-03-26 00:00","2018","03","26","00:00","-4.2","","-9.3","","68","","","M","4","","17","","","M","103.02","","","","-10","","NA"
"-66.09","43.83","YARMOUTH A","8206496","2018-03-26 01:00","2018","03","26","01:00","-4.8","","-9.5","","70","","","M","4","","19","","","M","103.03","","","","-11","","NA"
"-66.09","43.83","YARMOUTH A","8206496","2018-03-26 02:00","2018","03","26","02:00","-5.7","","-9.8","","73","","","M","3","","16","","","M","103.10","","","","-12","","NA"
"-66.09","43.83","YARMOUTH A","8206496","2018-03-26 03:00","2018","03","26","03:00","-6.5","","-9.9","","77","","","M","3","","17","","","M","103.09","","","","-13","","NA"
"-66.09","43.83","YARMOUTH A","8206496","2018-03-26 04:00","2018","03","26","04:00","-6.8","","-10.1","","78","","","M","4","","18","","","M","103.12","","","","-13","","NA"
"-66.09","43.83","YARMOUTH A","8206496","2018-03-26 05:00","2018","03","26","05:00","-6.5","","-10.2","","75","","","M","4","","21","","","M","103.14","","","","-14","","NA"
"-66.09","43.83","YARMOUTH A","8206496","2018-03-26 06:00","2018","03","26","06:00","-6.8","","-10.3","","76","","","M","5","","16","","","M","103.18","","","","-13","","NA"
"-66.09","43.83","YARMOUTH A","8206496","2018-03-26 07:00","2018","03","26","07:00","-6.3","","-10.1","","75","","","M","5","","19","","","M","103.24","","","","-13","","NA"
"-66.09","43.83","YARMOUTH A","8206496","2018-03-26 08:00","2018","03","26","08:00","-4.5","","-9.6","","67","","","M","4","","24","","","M","103.34","","","","-12","","NA"
"-66.09","43.83","YARMOUTH A","8206496","2018-03-26 09:00","2018","03","26","09:00","-2.8","","-9.5","","60","","","M","5","","28","","","M","103.39","","","","-10","","NA"
"-66.09","43.83","YARMOUTH A","8206496","2018-03-26 10:00","2018","03","26","10:00","-1.0","","-9.5","","53","","","M","4","","31","","","M","103.39","","","","-8","","NA"
"-66.09","43.83","YARMOUTH A","8206496","2018-03-26 11:00","2018","03","26","11:00","-0.1","","-10.3","","46","","","M","6","","28","","","M","103.40","","","","-6","","NA"
"-66.09","43.83","YARMOUTH A","8206496","2018-03-26 12:00","2018","03","26","12:00","2.5","","-9.5","","41","","","M","5","","23","","","M","103.36","","","","","","NA"
"-66.09","43.83","YARMOUTH A","8206496","2018-03-26 13:00","2018","03","26","13:00","3.0","","-11.3","","34","","","M","8","","19","","","M","103.29","","","","","","NA"
"-66.09","43.83","YARMOUTH A","8206496","2018-03-26 14:00","2018","03","26","14:00","4.5","","-11.6","","30","","","M","7","","18","","","M","103.27","","","","","","NA"
"-66.09","43.83","YARMOUTH A","8206496","2018-03-26 15:00","2018","03","26","15:00","5.5","","-11.2","","29","","","M","10","","13","","","M","103.22","","","","","","NA"
"-66.09","43.83","YARMOUTH A","8206496","2018-03-26 16:00","2018","03","26","16:00","5.6","","-11.5","","28","","","M","7","","19","","","M","103.20","","","","","","NA"
"-66.09","43.83","YARMOUTH A","8206496","2018-03-26 17:00","2018","03","26","17:00","2.4","","-5.6","","56","","","M","21","","17","","","M","103.22","","","","","","NA"
"-66.09","43.83","YARMOUTH A","8206496","2018-03-26 18:00","2018","03","26","18:00","1.5","","-4.9","","62","","","M","25","","9","","","M","103.25","","","","","","NA"
"-66.09","43.83","YARMOUTH A","8206496","2018-03-26 19:00","2018","03","26","19:00","-0.5","","-5.1","","71","","","M","31","","2","","","M","103.26","","","","-1","","NA"
"-66.09","43.83","YARMOUTH A","8206496","2018-03-26 20:00","2018","03","26","20:00","-1.3","","-7.3","","64","","","M","4","","12","","","M","103.31","","","","-5","","NA"
"-66.09","43.83","YARMOUTH A","8206496","2018-03-26 21:00","2018","03","26","21:00","-1.3","","-8.3","","59","","","M","4","","15","","","M","103.33","","","","-6","","NA"
"-66.09","43.83","YARMOUTH A","8206496","2018-03-26 22:00","2018","03","26","22:00","-2.2","","-9.2","","59","","","M","4","","14","","","M","103.34","","","","-7","","NA"
"-66.09","43.83","YARMOUTH A","8206496","2018-03-26 23:00","2018","03","26","23:00","-2.8","","-9.5","","60","","","M","2","","16","","","M","103.32","","","","-8","","NA"
"-66.09","43.83","YARMOUTH A","8206496","2018-03-27 00:00","2018","03","27","00:00","-2.8","","-9.4","","61","","","M","6","","11","","","M","103.30","","","","-7","","NA"
"-66.09","43.83","YARMOUTH A","8206496","2018-03-27 01:00","2018","03","27","01:00","-3.0","","-9.2","","63","","","M","6","","13","","","M","103.25","","","","-8","","NA"
"-66.09","43.83","YARMOUTH A","8206496","2018-03-27 02:00","2018","03","27","02:00","-3.9","","-9.5","","65","","","M","4","","14","","","M","103.21","","","","-9","","NA"
"-66.09","43.83","YARMOUTH A","8206496","2018-03-27 03:00","2018","03","27","03:00","-4.2","","-9.8","","65","","","M","5","","14","","","M","103.13","","","","-9","","NA"
"-66.09","43.83","YARMOUTH A","8206496","2018-03-27 04:00","2018","03","27","04:00","-4.8","","-10.7","","64","","","M","4","","16","","","M","103.10","","","","-11","","NA"
"-66.09","43.83","YARMOUTH A","8206496","2018-03-27 05:00","2018","03","27","05:00","-4.6","","-11.4","","59","","","M","4","","16","","","M","103.03","","","","-10","","NA"
"-66.09","43.83","YARMOUTH A","8206496","2018-03-27 06:00","2018","03","27","06:00","-5.2","","-11.6","","61","","","M","3","","15","","","M","102.99","","","","-11","","NA"
"-66.09","43.83","YARMOUTH A","8206496","2018-03-27 07:00","2018","03","27","07:00","-3.7","","-11.6","","55","","","M","5","","19","","","M","102.92","","","","-10","","NA"
"-66.09","43.83","YARMOUTH A","8206496","2018-03-27 08:00","2018","03","27","08:00","-1.3","","-11.8","","45","","","M","5","","25","","","M","102.88","","","","-8","","NA"
"-66.09","43.83","YARMOUTH A","8206496","2018-03-27 09:00","2018","03","27","09:00","1.8","","-13.2","","32","","","M","6","","22","","","M","102.81","","","","","","NA"
"-66.09","43.83","YARMOUTH A","8206496","2018-03-27 10:00","2018","03","27","10:00","5.1","","-13.3","","25","","","M","6","","18","","","M","102.75","","","","","","NA"
"-66.09","43.83","YARMOUTH A","8206496","2018-03-27 11:00","2018","03","27","11:00","7.1","","-15.0","","19","","","M","5","","22","","","M","102.63","","","","","","NA"
"-66.09","43.83","YARMOUTH A","8206496","2018-03-27 12:00","2018","03","27","12:00","8.5","","-16.8","","15","","","M","7","","31","","","M","102.47","","","","","","NA"
"-66.09","43.83","YARMOUTH A","8206496","2018-03-27 13:00","2018","03","27","13:00","10.0","","-14.1","","17","","","M","7","","29","","","M","102.34","","","","","","NA"
"-66.09","43.83","YARMOUTH A","8206496","2018-03-27 14:00","2018","03","27","14:00","10.9","","-13.3","","17","","","M","7","","23","","","M","102.25","","","","","","NA"
"-66.09","43.83","YARMOUTH A","8206496","2018-03-27 15:00","2018","03","27","15:00","11.7","","-14.4","","15","","","M","9","","35","","","M","102.15","","","","","","NA"
"-66.09","43.83","YARMOUTH A","8206496","2018-03-27 16:00","2018","03","27","16:00","10.8","","-13.0","","17","","","M","6","","21","","","M","102.12","","","","","","NA"
"-66.09","43.83","YARMOUTH A","8206496","2018-03-27 17:00","2018","03","27","17:00","10.1","","-13.3","","18","","","M","7","","21","","","M","102.07","","","","","","NA"
"-66.09","43.83","YARMOUTH A","8206496","2018-03-27 18:00","2018","03","27","18:00","9.4","","-13.3","","19","","","M","8","","16","","","M","101.95","","","","","","NA"
"-66.09","43.83","YARMOUTH A","8206496","2018-03-27 19:00","2018","03","27","19:00","8.4","","-11.9","","23","","","M","6","","19","","","M","101.86","","","","","","NA"
"-66.09","43.83","YARMOUTH A","8206496","2018-03-27 20:00","2018","03","27","20:00","7.5","","-11.8","","24","","","M","7","","24","","","M","101.78","","","","","","NA"
"-66.09","43.83","YARMOUTH A","8206496","2018-03-27 21:00","2018","03","27","21:00","7.3","","-10.0","","28","","","M","4","","19","","","M","101.72","","","","","","NA"
"-66.09","43.83","YARMOUTH A","8206496","2018-03-27 22:00","2018","03","27","22:00","5.9","","-5.6","","43","","","M","4","","18","","","M","101.68","","","","","","NA"
"-66.09","43.83","YARMOUTH A","8206496","2018-03-27 23:00","2018","03","27","23:00","6.0","","-3.3","","51","","","M","6","","23","","","M","101.57","","","","","","NA"
"-66.09","43.83","YARMOUTH A","8206496","2018-03-28 00:00","2018","03","28","00:00","4.8","","1.5","","79","","","M","9","","18","","","M","101.45","","","","","","NA"
"-66.09","43.83","YARMOUTH A","8206496","2018-03-28 01:00","2018","03","28","01:00","4.0","","2.7","","91","","","M","8","","14","","","M","101.33","","","","","","NA"
"-66.09","43.83","YARMOUTH A","8206496","2018-03-28 02:00","2018","03","28","02:00","3.8","","2.7","","93","","","M","5","","10","","","M","101.28","","","","","","NA"
"-66.09","43.83","YARMOUTH A","8206496","2018-03-28 03:00","2018","03","28","03:00","3.5","","2.7","","94","","","M","6","","13","","","M","101.16","","","","","","NA"
"-66.09","43.83","YARMOUTH A","8206496","2018-03-28 04:00","2018","03","28","04:00","3.2","","2.6","","96","","","M","7","","17","","","M","101.07","","","","","","NA"
"-66.09","43.83","YARMOUTH A","8206496","2018-03-28 05:00","2018","03","28","05:00","3.0","","2.5","","97","","","M","8","","9","","","M","101.07","","","","","","NA"
"-66.09","43.83","YARMOUTH A","8206496","2018-03-28 06:00","2018","03","28","06:00","2.9","","2.5","","97","","","M","5","","9","","","M","101.06","","","","","","NA"
"-66.09","43.83","YARMOUTH A","8206496","2018-03-28 07:00","2018","03","28","07:00","3.0","","2.5","","97","","","M","33","","9","","","M","101.08","","","","","","NA"
"-66.09","43.83","YARMOUTH A","8206496","2018-03-28 08:00","2018","03","28","08:00","3.3","","2.8","","96","","","M","2","","9","","","M","101.05","","","","","","NA"
"-66.09","43.83","YARMOUTH A","8206496","2018-03-28 09:00","2018","03","28","09:00","3.7","","2.9","","95","","","M","33","","11","","","M","101.05","","","","","","NA"
"-66.09","43.83","YARMOUTH A","8206496","2018-03-28 10:00","2018","03","28","10:00","3.5","","3.0","","97","","","M","35","","11","","","M","100.96","","","","","","NA"
"-66.09","43.83","YARMOUTH A","8206496","2018-03-28 11:00","2018","03","28","11:00","4.6","","3.2","","91","","","M","32","","10","","","M","100.90","","","","","","NA"
"-66.09","43.83","YARMOUTH A","8206496","2018-03-28 12:00","2018","03","28","12:00","6.0","","3.2","","82","","","M","35","","14","","","M","100.84","","","","","","NA"
"-66.09","43.83","YARMOUTH A","8206496","2018-03-28 13:00","2018","03","28","13:00","5.0","","3.4","","89","","","M","33","","16","","","M","100.75","","","","","","NA"
"-66.09","43.83","YARMOUTH A","8206496","2018-03-28 14:00","2018","03","28","14:00","6.2","","4.0","","86","","","M","32","","18","","","M","100.74","","","","","","NA"
"-66.09","43.83","YARMOUTH A","8206496","2018-03-28 15:00","2018","03","28","15:00","4.1","","2.7","","90","","","M","33","","22","","","M","100.74","","","","","","NA"
"-66.09","43.83","YARMOUTH A","8206496","2018-03-28 16:00","2018","03","28","16:00","3.5","","1.6","","87","","","M","33","","23","","","M","100.70","","","","","","NA"
"-66.09","43.83","YARMOUTH A","8206496","2018-03-28 17:00","2018","03","28","17:00","2.7","","1.2","","89","","","M","34","","27","","","M","100.79","","","","","","NA"
"-66.09","43.83","YARMOUTH A","8206496","2018-03-28 18:00","2018","03","28","18:00","3.0","","1.4","","89","","","M","33","","17","","","M","100.85","","","","","","NA"
"-66.09","43.83","YARMOUTH A","8206496","2018-03-28 19:00","2018","03","28","19:00","2.8","","1.5","","91","","","M","33","","16","","","M","100.88","","","","","","NA"
"-66.09","43.83","YARMOUTH A","8206496","2018-03-28 20:00","2018","03","28","20:00","2.8","","1.7","","93","","","M","32","","16","","","M","100.89","","","","","","NA"
"-66.09","43.83","YARMOUTH A","8206496","2018-03-28 21:00","2018","03","28","21:00","2.2","","1.4","","95","","","M","31","","15","","","M","100.94","","","","","","NA"
"-66.09","43.83","YARMOUTH A","8206496","2018-03-28 22:00","2018","03","28","22:00","1.8","","1.1","","95","","","M","31","","14","","","M","100.97","","","","","","NA"
"-66.09","43.83","YARMOUTH A","8206496","2018-03-28 23:00","2018","03","28","23:00","1.8","","0.0","","88","","","M","31","","12","","","M","100.97","","","","","","NA"
"-66.09","43.83","YARMOUTH A","8206496","2018-03-29 00:00","2018","03","29","00:00","1.4","","0.0","","90","","","M","29","","13","","","M","100.98","","","","","","NA"
"-66.09","43.83","YARMOUTH A","8206496","2018-03-29 01:00","2018","03","29","01:00","1.4","","0.1","","91","","","M","31","","15","","","M","100.96","","","","","","NA"
"-66.09","43.83","YARMOUTH A","8206496","2018-03-29 02:00","2018","03","29","02:00","0.6","","-0.3","","94","","","M","27","","12","","","M","101.02","","","","","","NA"
"-66.09","43.83","YARMOUTH A","8206496","2018-03-29 03:00","2018","03","29","03:00","0.2","","-0.5","","96","","","M","32","","10","","","M","101.03","","","","","","NA"
"-66.09","43.83","YARMOUTH A","8206496","2018-03-29 04:00","2018","03","29","04:00","0.7","","0.2","","97","","","M","32","","9","","","M","101.02","","","","","","NA"
"-66.09","43.83","YARMOUTH A","8206496","2018-03-29 05:00","2018","03","29","05:00","0.7","","0.1","","96","","","M","29","","12","","","M","101.07","","","","","","NA"
"-66.09","43.83","YARMOUTH A","8206496","2018-03-29 06:00","2018","03","29","06:00","1.0","","-0.1","","92","","","M","30","","10","","","M","101.14","","","","","","NA"
"-66.09","43.83","YARMOUTH A","8206496","2018-03-29 07:00","2018","03","29","07:00","1.5","","0.3","","92","","","M","30","","8","","","M","101.20","","","","","","NA"
"-66.09","43.83","YARMOUTH A","8206496","2018-03-29 08:00","2018","03","29","08:00","3.9","","1.9","","87","","","M","29","","11","","","M","101.29","","","","","","NA"
"-66.09","43.83","YARMOUTH A","8206496","2018-03-29 09:00","2018","03","29","09:00","5.9","","0.9","","70","","","M","34","","21","","","M","101.27","","","","","","NA"
"-66.09","43.83","YARMOUTH A","8206496","2018-03-29 10:00","2018","03","29","10:00","6.4","","-0.8","","60","","","M","34","","23","","","M","101.32","","","","","","NA"
"-66.09","43.83","YARMOUTH A","8206496","2018-03-29 11:00","2018","03","29","11:00","7.1","","-1.6","","54","","","M","33","","26","","","M","101.37","","","","","","NA"
"-66.09","43.83","YARMOUTH A","8206496","2018-03-29 12:00","2018","03","29","12:00","8.2","","-2.4","","47","","","M","35","","27","","","M","101.32","","","","","","NA"
"-66.09","43.83","YARMOUTH A","8206496","2018-03-29 13:00","2018","03","29","13:00","8.3","","-1.8","","49","","","M","33","","19","","","M","101.26","","","","","","NA"
"-66.09","43.83","YARMOUTH A","8206496","2018-03-29 14:00","2018","03","29","14:00","8.6","","-0.9","","51","","","M","33","","20","","","M","101.30","","","","","","NA"
"-66.09","43.83","YARMOUTH A","8206496","2018-03-29 15:00","2018","03","29","15:00","8.0","","-1.3","","52","","","M","34","","16","","","M","101.28","","","","","","NA"
"-66.09","43.83","YARMOUTH A","8206496","2018-03-29 16:00","2018","03","29","16:00","7.3","","0.1","","60","","","M","27","","14","","","M","101.33","","","","","","NA"
"-66.09","43.83","YARMOUTH A","8206496","2018-03-29 17:00","2018","03","29","17:00","6.9","","-0.8","","58","","","M","27","","12","","","M","101.35","","","","","","NA"
"-66.09","43.83","YARMOUTH A","8206496","2018-03-29 18:00","2018","03","29","18:00","5.4","","-1.2","","62","","","M","26","","10","","","M","101.35","","","","","","NA"
"-66.09","43.83","YARMOUTH A","8206496","2018-03-29 19:00","2018","03","29","19:00","3.9","","-1.2","","69","","","M","20","","8","","","M","101.34","","","","","","NA"
"-66.09","43.83","YARMOUTH A","8206496","2018-03-29 20:00","2018","03","29","20:00","1.7","","-1.9","","77","","","M","20","","6","","","M","101.38","","","","","","NA"
"-66.09","43.83","YARMOUTH A","8206496","2018-03-29 21:00","2018","03","29","21:00","2.2","","-0.8","","80","","","M","18","","10","","","M","101.32","","","","","","NA"
"-66.09","43.83","YARMOUTH A","8206496","2018-03-29 22:00","2018","03","29","22:00","2.2","","-0.8","","80","","","M","15","","8","","","M","101.32","","","","","","NA"
"-66.09","43.83","YARMOUTH A","8206496","2018-03-29 23:00","2018","03","29","23:00","2.3","","-0.8","","80","","","M","17","","10","","","M","101.33","","","","","","NA"
"-66.09","43.83","YARMOUTH A","8206496","2018-03-30 00:00","2018","03","30","00:00","2.8","","0.7","","86","","","M","13","","8","","","M","101.24","","","","","","NA"
"-66.09","43.83","YARMOUTH A","8206496","2018-03-30 01:00","2018","03","30","01:00","4.0","","2.5","","90","","","M","15","","15","","","M","101.17","","","","","","NA"
"-66.09","43.83","YARMOUTH A","8206496","2018-03-30 02:00","2018","03","30","02:00","4.5","","3.3","","92","","","M","15","","14","","","M","101.11","","","","","","NA"
"-66.09","43.83","YARMOUTH A","8206496","2018-03-30 03:00","2018","03","30","03:00","4.6","","3.6","","93","","","M","14","","15","","","M","101.04","","","","","","NA"
"-66.09","43.83","YARMOUTH A","8206496","2018-03-30 04:00","2018","03","30","04:00","5.2","","4.4","","94","","","M","14","","15","","","M","100.94","","","","","","NA"
"-66.09","43.83","YARMOUTH A","8206496","2018-03-30 05:00","2018","03","30","05:00","5.9","","5.0","","94","","","M","14","","19","","","M","100.77","","","","","","NA"
"-66.09","43.83","YARMOUTH A","8206496","2018-03-30 06:00","2018","03","30","06:00","7.3","","6.9","","97","","","M","15","","26","","","M","100.67","","","","","","NA"
"-66.09","43.83","YARMOUTH A","8206496","2018-03-30 07:00","2018","03","30","07:00","7.9","","7.6","","98","","","M","16","","27","","","M","100.50","","","","","","NA"
"-66.09","43.83","YARMOUTH A","8206496","2018-03-30 08:00","2018","03","30","08:00","8.3","","8.1","","98","","","M","18","","27","","","M","100.40","","","","","","NA"
"-66.09","43.83","YARMOUTH A","8206496","2018-03-30 09:00","2018","03","30","09:00","7.7","","7.5","","98","","","M","18","","31","","","M","100.34","","","","","","NA"
"-66.09","43.83","YARMOUTH A","8206496","2018-03-30 10:00","2018","03","30","10:00","8.5","","8.3","","99","","","M","19","","34","","","M","100.20","","","","","","NA"
"-66.09","43.83","YARMOUTH A","8206496","2018-03-30 11:00","2018","03","30","11:00","8.9","","8.7","","99","","","M","20","","35","","","M","100.16","","","","","","NA"
"-66.09","43.83","YARMOUTH A","8206496","2018-03-30 12:00","2018","03","30","12:00","8.9","","8.7","","99","","","M","21","","36","","","M","100.13","","","","","","NA"
"-66.09","43.83","YARMOUTH A","8206496","2018-03-30 13:00","2018","03","30","13:00","8.2","","8.0","","99","","","M","22","","34","","","M","100.12","","","","","","NA"
"-66.09","43.83","YARMOUTH A","8206496","2018-03-30 14:00","2018","03","30","14:00","7.7","","7.5","","99","","","M","22","","26","","","M","100.09","","","","","","NA"
"-66.09","43.83","YARMOUTH A","8206496","2018-03-30 15:00","2018","03","30","15:00","7.1","","6.9","","99","","","M","23","","21","","","M","100.15","","","","","","NA"
"-66.09","43.83","YARMOUTH A","8206496","2018-03-30 16:00","2018","03","30","16:00","7.1","","6.9","","99","","","M","21","","18","","","M","100.11","","","","","","NA"
"-66.09","43.83","YARMOUTH A","8206496","2018-03-30 17:00","2018","03","30","17:00","7.5","","7.4","","99","","","M","21","","14","","","M","100.05","","","","","","NA"
"-66.09","43.83","YARMOUTH A","8206496","2018-03-30 18:00","2018","03","30","18:00","7.4","","7.2","","99","","","M","22","","12","","","M","100.04","","","","","","NA"
"-66.09","43.83","YARMOUTH A","8206496","2018-03-30 19:00","2018","03","30","19:00","6.6","","6.4","","99","","","M","21","","13","","","M","100.06","","","","","","NA"
"-66.09","43.83","YARMOUTH A","8206496","2018-03-30 20:00","2018","03","30","20:00","6.5","","6.3","","99","","","M","24","","13","","","M","100.02","","","","","","NA"
"-66.09","43.83","YARMOUTH A","8206496","2018-03-30 21:00","2018","03","30","21:00","5.6","","5.5","","99","","","M","27","","10","","","M","100.04","","","","","","NA"
"-66.09","43.83","YARMOUTH A","8206496","2018-03-30 22:00","2018","03","30","22:00","5.5","","5.3","","99","","","M","27","","9","","","M","100.03","","","","","","NA"
"-66.09","43.83","YARMOUTH A","8206496","2018-03-30 23:00","2018","03","30","23:00","4.8","","4.6","","99","","","M","31","","17","","","M","100.04","","","","","","NA"
"-66.09","43.83","YARMOUTH A","8206496","2018-03-31 00:00","2018","03","31","00:00","5.1","","4.9","","99","","","M","33","","13","","","M","100.09","","","","","","NA"
"-66.09","43.83","YARMOUTH A","8206496","2018-03-31 01:00","2018","03","31","01:00","5.2","","5.0","","99","","","M","35","","27","","","M","100.08","","","","","","NA"
"-66.09","43.83","YARMOUTH A","8206496","2018-03-31 02:00","2018","03","31","02:00","4.8","","4.5","","97","","","M","35","","23","","","M","100.15","","","","","","NA"
"-66.09","43.83","YARMOUTH A","8206496","2018-03-31 03:00","2018","03","31","03:00","4.3","","2.9","","90","","","M","34","","24","","","M","100.15","","","","","","NA"
"-66.09","43.83","YARMOUTH A","8206496","2018-03-31 04:00","2018","03","31","04:00","3.8","","2.4","","90","","","M","34","","27","","","M","100.30","","","","","","NA"
"-66.09","43.83","YARMOUTH A","8206496","2018-03-31 05:00","2018","03","31","05:00","3.6","","2.0","","89","","","M","34","","27","","","M","100.34","","","","","","NA"
"-66.09","43.83","YARMOUTH A","8206496","2018-03-31 06:00","2018","03","31","06:00","3.5","","2.1","","90","","","M","34","","23","","","M","100.52","","","","","","NA"
"-66.09","43.83","YARMOUTH A","8206496","2018-03-31 07:00","2018","03","31","07:00","3.8","","2.3","","90","","","M","33","","25","","","M","100.69","","","","","","NA"
"-66.09","43.83","YARMOUTH A","8206496","2018-03-31 08:00","2018","03","31","08:00","3.7","","1.5","","85","","","M","34","","31","","","M","100.90","","","","","","NA"
"-66.09","43.83","YARMOUTH A","8206496","2018-03-31 09:00","2018","03","31","09:00","3.9","","0.0","","75","","","M","34","","32","","","M","101.02","","","","","","NA"
"-66.09","43.83","YARMOUTH A","8206496","2018-03-31 10:00","2018","03","31","10:00","4.2","","-2.4","","62","","","M","33","","43","","","M","101.15","","","","","","NA"
"-66.09","43.83","YARMOUTH A","8206496","2018-03-31 11:00","2018","03","31","11:00","4.5","","-4.1","","54","","","M","33","","39","","","M","101.25","","","","","","NA"
"-66.09","43.83","YARMOUTH A","8206496","2018-03-31 12:00","2018","03","31","12:00","4.6","","-4.9","","50","","","M","32","","36","","","M","101.34","","","","","","NA"
"-66.09","43.83","YARMOUTH A","8206496","2018-03-31 13:00","2018","03","31","13:00","5.0","","-5.4","","47","","","M","32","","30","","","M","101.40","","","","","","NA"
"-66.09","43.83","YARMOUTH A","8206496","2018-03-31 14:00","2018","03","31","14:00","5.0","","-8.2","","38","","","M","31","","27","","","M","101.39","","","","","","NA"
"-66.09","43.83","YARMOUTH A","8206496","2018-03-31 15:00","2018","03","31","15:00","5.2","","-7.4","","40","","","M","30","","25","","","M","101.42","","","","","","NA"
"-66.09","43.83","YARMOUTH A","8206496","2018-03-31 16:00","2018","03","31","16:00","4.8","","-6.9","","42","","","M","30","","22","","","M","101.43","","","","","","NA"
"-66.09","43.83","YARMOUTH A","8206496","2018-03-31 17:00","2018","03","31","17:00","4.7","","-4.6","","51","","","M","27","","22","","","M","101.55","","","","","","NA"
"-66.09","43.83","YARMOUTH A","8206496","2018-03-31 18:00","2018","03","31","18:00","3.7","","-3.5","","59","","","M","27","","23","","","M","101.67","","","","","","NA"
"-66.09","43.83","YARMOUTH A","8206496","2018-03-31 19:00","2018","03","31","19:00","1.8","","-3.8","","67","","","M","24","","13","","","M","101.60","","","","","","NA"
"-66.09","43.83","YARMOUTH A","8206496","2018-03-31 20:00","2018","03","31","20:00","1.5","","-2.6","","74","","","M","23","","13","","","M","101.56","","","","","","NA"
"-66.09","43.83","YARMOUTH A","8206496","2018-03-31 21:00","2018","03","31","21:00","0.8","","-2.5","","78","","","M","23","","14","","","M","101.57","","","","","","NA"
"-66.09","43.83","YARMOUTH A","8206496","2018-03-31 22:00","2018","03","31","22:00","1.7","","-1.8","","78","","","M","21","","11","","","M","101.60","","","","","","NA"
"-66.09","43.83","YARMOUTH A","8206496","2018-03-31 23:00","2018","03","31","23:00","1.6","","-1.9","","78","","","M","19","","12","","","M","101.60","","","","","","NA"
