"Longitude (x)","Latitude (y)","Station Name","Climate ID","Date/Time (LST)","Year","Month","Day","Time (LST)","Temp (°C)","Temp Flag","Dew Point Temp (°C)","Dew Point Temp Flag","Rel Hum (%)","Rel Hum Flag","Precip. Amount (mm)","Precip. Amount Flag","Wind Dir (10s deg)","Wind Dir Flag","Wind Spd (km/h)","Wind Spd Flag","Visibility (km)","Visibility Flag","Stn Press (kPa)","Stn Press Flag","Hmdx","Hmdx Flag","Wind Chill","Wind Chill Flag","Weather"
"-100.88","61.13","ENNADAI LAKE (AUT)","2301102","2012-02-01 00:00","2012","02","01","00:00","-25.2","","-27.4","","82","","","","","M","11","","","","96.41","","","","-34","","NA"
"-100.88","61.13","ENNADAI LAKE (AUT)","2301102","2012-02-01 01:00","2012","02","01","01:00","-25.8","","-28.0","","82","","","","","M","11","","","","96.46","","","","-35","","NA"
"-100.88","61.13","ENNADAI LAKE (AUT)","2301102","2012-02-01 02:00","2012","02","01","02:00","-25.3","","-27.5","","82","","","","","M","11","","","","96.50","","","","-34","","NA"
"-100.88","61.13","ENNADAI LAKE (AUT)","2301102","2012-02-01 03:00","2012","02","01","03:00","-25.8","","-28.1","","81","","","","","M","11","","","","96.54","","","","-35","","NA"
"-100.88","61.13","ENNADAI LAKE (AUT)","2301102","2012-02-01 04:00","2012","02","01","04:00","-26.3","","-28.6","","81","","","","","M","13","","","","96.57","","","","-36","","NA"
"-100.88","61.13","ENNADAI LAKE (AUT)","2301102","2012-02-01 05:00","2012","02","01","05:00","-27.5","","-30.0","","79","","","","","M","9","","","","96.61","","","","-36","","NA"
"-100.88","61.13","ENNADAI LAKE (AUT)","2301102","2012-02-01 06:00","2012","02","01","06:00","-27.5","","-29.9","","80","","","","","M","11","","","","96.65","","","","-37","","NA"
"-100.88","61.13","ENNADAI LAKE (AUT)","2301102","2012-02-01 07:00","2012","02","01","07:00","-28.3","","-30.8","","79","","","","","M","11","","","","96.73","","","","-38","","NA"
"-100.88","61.13","ENNADAI LAKE (AUT)","2301102","2012-02-01 08:00","2012","02","01","08:00","-28.4","","-30.9","","79","","","","","M","7","","","","96.73","","","","-35","","NA"
"-100.88","61.13","ENNADAI LAKE (AUT)","2301102","2012-02-01 09:00","2012","02","01","09:00","-28.1","","-30.6","","79","","","","","M","13","","","","96.81","","","","-38","","NA"
"-100.88","61.13","ENNADAI LAKE (AUT)","2301102","2012-02-01 10:00","2012","02","01","10:00","-27.6","","-30.0","","80","","","","","M","9","","","","96.86","","","","-36","","NA"
"-100.88","61.13","ENNADAI LAKE (AUT)","2301102","2012-02-01 11:00","2012","02","01","11:00","-25.7","","-27.9","","82","","","","","M","6","","","","96.86","","","","-32","","NA"
"-100.88","61.13","ENNADAI LAKE (AUT)","2301102","2012-02-01 12:00","2012","02","01","12:00","-26.9","","-29.2","","81","","","","","M","7","","","","96.85","","","","-34","","NA"
"-100.88","61.13","ENNADAI LAKE (AUT)","2301102","2012-02-01 13:00","2012","02","01","13:00","-24.8","","-26.9","","83","","","","","M","6","","","","96.90","","","","-31","","NA"
"-100.88","61.13","ENNADAI LAKE (AUT)","2301102","2012-02-01 14:00","2012","02","01","14:00","-22.8","","-24.7","","84","","","","","M","4","","","","96.93","","","","-27","","NA"
"-100.88","61.13","ENNADAI LAKE (AUT)","2301102","2012-02-01 15:00","2012","02","01","15:00","-22.2","","-24.1","","84","","","","","M","6","","","","96.97","","","","-28","","NA"
"-100.88","61.13","ENNADAI LAKE (AUT)","2301102","2012-02-01 16:00","2012","02","01","16:00","-22.0","","-23.9","","85","","","","","M","7","","","","97.01","","","","-28","","NA"
"-100.88","61.13","ENNADAI LAKE (AUT)","2301102","2012-02-01 17:00","2012","02","01","17:00","-21.2","","-23.0","","85","","","","","M","9","","","","97.04","","","","-28","","NA"
"-100.88","61.13","ENNADAI LAKE (AUT)","2301102","2012-02-01 18:00","2012","02","01","18:00","-20.4","","-22.1","","86","","","","","M","9","","","","97.06","","","","-27","","NA"
"-100.88","61.13","ENNADAI LAKE (AUT)","2301102","2012-02-01 19:00","2012","02","01","19:00","-20.9","","-22.7","","85","","","","","M","11","","","","97.10","","","","-29","","NA"
"-100.88","61.13","ENNADAI LAKE (AUT)","2301102","2012-02-01 20:00","2012","02","01","20:00","-21.7","","-23.5","","85","","","","","M","19","","","","97.10","","","","-32","","NA"
"-100.88","61.13","ENNADAI LAKE (AUT)","2301102","2012-02-01 21:00","2012","02","01","21:00","-21.4","","-23.2","","85","","","","","M","17","","","","97.15","","","","-31","","NA"
"-100.88","61.13","ENNADAI LAKE (AUT)","2301102","2012-02-01 22:00","2012","02","01","22:00","-18.4","","-19.9","","88","","","","","M","17","","","","97.17","","","","-28","","NA"
"-100.88","61.13","ENNADAI LAKE (AUT)","2301102","2012-02-01 23:00","2012","02","01","23:00","-17.7","","-19.2","","88","","","","","M","19","","","","97.16","","","","-27","","NA"
"-100.88","61.13","ENNADAI LAKE (AUT)","2301102","2012-02-02 00:00","2012","02","02","00:00","-17.2","","-18.6","","89","","","","","M","17","","","","97.19","","","","-26","","NA"
"-100.88","61.13","ENNADAI LAKE (AUT)","2301102","2012-02-02 01:00","2012","02","02","01:00","-16.1","","-17.4","","90","","","","","M","11","","","","97.23","","","","-23","","NA"
"-100.88","61.13","ENNADAI LAKE (AUT)","2301102","2012-02-02 02:00","2012","02","02","02:00","-15.6","","-16.9","","90","","","","","M","11","","","","97.29","","","","-22","","NA"
"-100.88","61.13","ENNADAI LAKE (AUT)","2301102","2012-02-02 03:00","2012","02","02","03:00","-15.6","","-16.9","","90","","","","","M","6","","","","97.36","","","","-20","","NA"
"-100.88","61.13","ENNADAI LAKE (AUT)","2301102","2012-02-02 04:00","2012","02","02","04:00","-14.6","","-15.8","","91","","","","","M","6","","","","97.43","","","","-19","","NA"
"-100.88","61.13","ENNADAI LAKE (AUT)","2301102","2012-02-02 05:00","2012","02","02","05:00","-14.3","","-15.4","","91","","","","","M","6","","","","97.47","","","","-18","","NA"
"-100.88","61.13","ENNADAI LAKE (AUT)","2301102","2012-02-02 06:00","2012","02","02","06:00","-14.4","","-15.5","","91","","","","","M","4","","","","97.53","","","","-17","","NA"
"-100.88","61.13","ENNADAI LAKE (AUT)","2301102","2012-02-02 07:00","2012","02","02","07:00","-14.3","","-15.4","","91","","","","","M","2","","","","97.59","","","","-16","","NA"
"-100.88","61.13","ENNADAI LAKE (AUT)","2301102","2012-02-02 08:00","2012","02","02","08:00","-14.6","","-15.8","","91","","","","","M","4","","","","97.68","","","","-17","","NA"
"-100.88","61.13","ENNADAI LAKE (AUT)","2301102","2012-02-02 09:00","2012","02","02","09:00","-14.4","","-15.5","","91","","","","","M","2","","","","97.74","","","","-16","","NA"
"-100.88","61.13","ENNADAI LAKE (AUT)","2301102","2012-02-02 10:00","2012","02","02","10:00","-14.1","","-15.2","","91","","","","","M","4","","","","97.80","","","","-17","","NA"
"-100.88","61.13","ENNADAI LAKE (AUT)","2301102","2012-02-02 11:00","2012","02","02","11:00","-14.2","","-15.3","","91","","","","","M","2","","","","97.83","","","","-16","","NA"
"-100.88","61.13","ENNADAI LAKE (AUT)","2301102","2012-02-02 12:00","2012","02","02","12:00","-14.1","","-15.2","","91","","","","","M","2","","","","97.85","","","","-15","","NA"
"-100.88","61.13","ENNADAI LAKE (AUT)","2301102","2012-02-02 13:00","2012","02","02","13:00","-14.3","","-15.4","","91","","","","","M","2","","","","97.86","","","","-16","","NA"
"-100.88","61.13","ENNADAI LAKE (AUT)","2301102","2012-02-02 14:00","2012","02","02","14:00","-14.7","","-15.8","","91","","","","","M","4","","","","97.86","","","","-18","","NA"
"-100.88","61.13","ENNADAI LAKE (AUT)","2301102","2012-02-02 15:00","2012","02","02","15:00","-14.9","","-16.1","","91","","","","","M","2","","","","97.88","","","","-16","","NA"
"-100.88","61.13","ENNADAI LAKE (AUT)","2301102","2012-02-02 16:00","2012","02","02","16:00","-14.4","","-15.5","","91","","","","","M","2","","","","97.84","","","","-16","","NA"
"-100.88","61.13","ENNADAI LAKE (AUT)","2301102","2012-02-02 17:00","2012","02","02","17:00","-14.1","","-15.2","","91","","","","","M","2","","","","97.79","","","","-15","","NA"
"-100.88","61.13","ENNADAI LAKE (AUT)","2301102","2012-02-02 18:00","2012","02","02","18:00","-14.5","","-15.6","","91","","","","","M","4","","","","97.69","","","","-17","","NA"
"-100.88","61.13","ENNADAI LAKE (AUT)","2301102","2012-02-02 19:00","2012","02","02","19:00","-14.3","","-15.4","","91","","","","","M","4","","","","97.55","","","","-17","","NA"
"-100.88","61.13","ENNADAI LAKE (AUT)","2301102","2012-02-02 20:00","2012","02","02","20:00","-13.8","","-14.9","","91","","","","","M","20","","","","97.48","","","","-23","","NA"
"-100.88","61.13","ENNADAI LAKE (AUT)","2301102","2012-02-02 21:00","2012","02","02","21:00","-13.8","","-14.9","","91","","","","","M","22","","","","97.41","","","","-23","","NA"
"-100.88","61.13","ENNADAI LAKE (AUT)","2301102","2012-02-02 22:00","2012","02","02","22:00","-13.5","","-14.6","","91","","","","","M","26","","","","97.17","","","","-23","","NA"
"-100.88","61.13","ENNADAI LAKE (AUT)","2301102","2012-02-02 23:00","2012","02","02","23:00","-12.3","","-13.2","","93","","","","","M","32","","","","97.01","","","","-23","","NA"
"-100.88","61.13","ENNADAI LAKE (AUT)","2301102","2012-02-03 00:00","2012","02","03","00:00","-10.6","","-11.4","","94","","","","","M","28","","","","96.96","","","","-20","","NA"
"-100.88","61.13","ENNADAI LAKE (AUT)","2301102","2012-02-03 01:00","2012","02","03","01:00","-10.0","","-10.8","","94","","","","","M","28","","","","96.84","","","","-19","","NA"
"-100.88","61.13","ENNADAI LAKE (AUT)","2301102","2012-02-03 02:00","2012","02","03","02:00","-9.4","","-10.1","","95","","","","","M","46","","","","96.76","","","","-21","","NA"
"-100.88","61.13","ENNADAI LAKE (AUT)","2301102","2012-02-03 03:00","2012","02","03","03:00","-8.9","","-9.5","","95","","","","","M","44","","","","96.71","","","","-20","","NA"
"-100.88","61.13","ENNADAI LAKE (AUT)","2301102","2012-02-03 04:00","2012","02","03","04:00","-9.4","","-10.1","","95","","","","","M","41","","","","96.77","","","","-20","","NA"
"-100.88","61.13","ENNADAI LAKE (AUT)","2301102","2012-02-03 05:00","2012","02","03","05:00","-9.6","","-10.3","","95","","","","","M","32","","","","96.82","","","","-19","","NA"
"-100.88","61.13","ENNADAI LAKE (AUT)","2301102","2012-02-03 06:00","2012","02","03","06:00","-10.8","","-11.6","","94","","","","","M","32","","","","96.84","","","","-21","","NA"
"-100.88","61.13","ENNADAI LAKE (AUT)","2301102","2012-02-03 07:00","2012","02","03","07:00","-9.9","","-10.6","","95","","","","","M","28","","","","96.95","","","","-19","","NA"
"-100.88","61.13","ENNADAI LAKE (AUT)","2301102","2012-02-03 08:00","2012","02","03","08:00","-9.6","","-10.3","","95","","","","","M","35","","","","97.01","","","","-20","","NA"
"-100.88","61.13","ENNADAI LAKE (AUT)","2301102","2012-02-03 09:00","2012","02","03","09:00","-10.1","","-10.9","","94","","","","","M","24","","","","97.05","","","","-19","","NA"
"-100.88","61.13","ENNADAI LAKE (AUT)","2301102","2012-02-03 10:00","2012","02","03","10:00","-9.5","","-10.1","","95","","","","","M","26","","","","97.12","","","","-18","","NA"
"-100.88","61.13","ENNADAI LAKE (AUT)","2301102","2012-02-03 11:00","2012","02","03","11:00","-7.5","","-8.1","","95","","","","","M","33","","","","97.12","","","","-17","","NA"
"-100.88","61.13","ENNADAI LAKE (AUT)","2301102","2012-02-03 12:00","2012","02","03","12:00","-9.0","","-9.7","","95","","","","","M","28","","","","97.17","","","","-18","","NA"
"-100.88","61.13","ENNADAI LAKE (AUT)","2301102","2012-02-03 13:00","2012","02","03","13:00","-9.1","","-9.8","","95","","","","","M","33","","","","97.19","","","","-19","","NA"
"-100.88","61.13","ENNADAI LAKE (AUT)","2301102","2012-02-03 14:00","2012","02","03","14:00","-8.8","","-9.5","","95","","","","","M","30","","","","97.24","","","","-18","","NA"
"-100.88","61.13","ENNADAI LAKE (AUT)","2301102","2012-02-03 15:00","2012","02","03","15:00","-8.3","","-9.0","","95","","","","","M","30","","","","97.30","","","","-17","","NA"
"-100.88","61.13","ENNADAI LAKE (AUT)","2301102","2012-02-03 16:00","2012","02","03","16:00","-8.6","","-9.2","","95","","","","","M","20","","","","97.35","","","","-16","","NA"
"-100.88","61.13","ENNADAI LAKE (AUT)","2301102","2012-02-03 17:00","2012","02","03","17:00"
"-100.88","61.13","ENNADAI LAKE (AUT)","2301102","2012-02-03 18:00","2012","02","03","18:00","-9.6","","-10.4","","94","","","","","M","19","","","","97.36","","","","-17","","NA"
"-100.88","61.13","ENNADAI LAKE (AUT)","2301102","2012-02-03 19:00","2012","02","03","19:00","-8.4","","-8.9","","96","","","","","M","19","","","","97.42","","","","-16","","NA"
"-100.88","61.13","ENNADAI LAKE (AUT)","2301102","2012-02-03 20:00","2012","02","03","20:00","-8.2","","-8.9","","95","","","","","M","17","","","","97.43","","","","-15","","NA"
"-100.88","61.13","ENNADAI LAKE (AUT)","2301102","2012-02-03 21:00","2012","02","03","21:00","-9.7","","-10.5","","94","","","","","M","24","","","","97.51","","","","-18","","NA"
"-100.88","61.13","ENNADAI LAKE (AUT)","2301102","2012-02-03 22:00","2012","02","03","22:00","-9.0","","-9.6","","95","","","","","M","13","","","","97.49","","","","-15","","NA"
"-100.88","61.13","ENNADAI LAKE (AUT)","2301102","2012-02-03 23:00","2012","02","03","23:00","-9.0","","-9.6","","95","","","","","M","7","","","","97.44","","","","-13","","NA"
"-100.88","61.13","ENNADAI LAKE (AUT)","2301102","2012-02-04 00:00","2012","02","04","00:00","-10.1","","-10.9","","94","","","","","M","17","","","","97.42","","","","-17","","NA"
"-100.88","61.13","ENNADAI LAKE (AUT)","2301102","2012-02-04 01:00","2012","02","04","01:00","-7.6","","-8.2","","95","","","","","M","15","","","","97.40","","","","-14","","NA"
"-100.88","61.13","ENNADAI LAKE (AUT)","2301102","2012-02-04 02:00","2012","02","04","02:00","-9.9","","-10.7","","94","","","","","M","20","","","","97.28","","","","-18","","NA"
"-100.88","61.13","ENNADAI LAKE (AUT)","2301102","2012-02-04 03:00","2012","02","04","03:00","-8.8","","-9.5","","95","","","","","M","24","","","","97.22","","","","-17","","NA"
"-100.88","61.13","ENNADAI LAKE (AUT)","2301102","2012-02-04 04:00","2012","02","04","04:00","-7.1","","-7.7","","95","","","","","M","32","","","","97.06","","","","-16","","NA"
"-100.88","61.13","ENNADAI LAKE (AUT)","2301102","2012-02-04 05:00","2012","02","04","05:00","-4.5","","-5.2","","95","","","","","M","48","","","","96.95","","","","-14","","NA"
"-100.88","61.13","ENNADAI LAKE (AUT)","2301102","2012-02-04 06:00","2012","02","04","06:00","-3.7","","-5.1","","90","","","","","M","50","","","","96.83","","","","-13","","NA"
"-100.88","61.13","ENNADAI LAKE (AUT)","2301102","2012-02-04 07:00","2012","02","04","07:00","-4.5","","-5.9","","90","","","","","M","48","","","","96.78","","","","-14","","NA"
"-100.88","61.13","ENNADAI LAKE (AUT)","2301102","2012-02-04 08:00","2012","02","04","08:00","-4.2","","-5.8","","89","","","","","M","44","","","","96.75","","","","-13","","NA"
"-100.88","61.13","ENNADAI LAKE (AUT)","2301102","2012-02-04 09:00","2012","02","04","09:00"
"-100.88","61.13","ENNADAI LAKE (AUT)","2301102","2012-02-04 10:00","2012","02","04","10:00","-4.1","","-5.7","","89","","","","","M","33","","","","96.81","","","","-12","","NA"
"-100.88","61.13","ENNADAI LAKE (AUT)","2301102","2012-02-04 11:00","2012","02","04","11:00","-4.0","","-5.6","","89","","","","","M","39","","","","96.82","","","","-13","","NA"
"-100.88","61.13","ENNADAI LAKE (AUT)","2301102","2012-02-04 12:00","2012","02","04","12:00","-4.0","","-5.9","","87","","","","","M","35","","","","96.87","","","","-12","","NA"
"-100.88","61.13","ENNADAI LAKE (AUT)","2301102","2012-02-04 13:00","2012","02","04","13:00","-2.9","","-5.7","","81","","","","","M","35","","","","96.85","","","","-11","","NA"
"-100.88","61.13","ENNADAI LAKE (AUT)","2301102","2012-02-04 14:00","2012","02","04","14:00","-2.7","","-5.6","","80","","","","","M","33","","","","96.80","","","","-10","","NA"
"-100.88","61.13","ENNADAI LAKE (AUT)","2301102","2012-02-04 15:00","2012","02","04","15:00","-2.8","","-6.3","","77","","","","","M","26","","","","96.85","","","","-10","","NA"
"-100.88","61.13","ENNADAI LAKE (AUT)","2301102","2012-02-04 16:00","2012","02","04","16:00","-2.1","","-6.0","","75","","","","","M","30","","","","96.88","","","","-9","","NA"
"-100.88","61.13","ENNADAI LAKE (AUT)","2301102","2012-02-04 17:00","2012","02","04","17:00","-2.9","","-6.6","","76","","","","","M","37","","","","96.86","","","","-11","","NA"
"-100.88","61.13","ENNADAI LAKE (AUT)","2301102","2012-02-04 18:00","2012","02","04","18:00","-3.4","","-7.1","","76","","","","","M","41","","","","96.90","","","","-12","","NA"
"-100.88","61.13","ENNADAI LAKE (AUT)","2301102","2012-02-04 19:00","2012","02","04","19:00","-5.0","","-8.1","","79","","","","","M","30","","","","96.97","","","","-13","","NA"
"-100.88","61.13","ENNADAI LAKE (AUT)","2301102","2012-02-04 20:00","2012","02","04","20:00","-5.1","","-8.0","","80","","","","","M","41","","","","96.93","","","","-14","","NA"
"-100.88","61.13","ENNADAI LAKE (AUT)","2301102","2012-02-04 21:00","2012","02","04","21:00","-6.5","","-8.5","","86","","","","","M","46","","","","96.91","","","","-17","","NA"
"-100.88","61.13","ENNADAI LAKE (AUT)","2301102","2012-02-04 22:00","2012","02","04","22:00","-4.6","","-5.5","","93","","","","","M","54","","","","96.98","","","","-15","","NA"
"-100.88","61.13","ENNADAI LAKE (AUT)","2301102","2012-02-04 23:00","2012","02","04","23:00","-4.6","","-5.6","","93","","","","","M","50","","","","96.98","","","","-14","","NA"
"-100.88","61.13","ENNADAI LAKE (AUT)","2301102","2012-02-05 00:00","2012","02","05","00:00","-4.9","","-5.7","","94","","","","","M","44","","","","97.02","","","","-14","","NA"
"-100.88","61.13","ENNADAI LAKE (AUT)","2301102","2012-02-05 01:00","2012","02","05","01:00"
"-100.88","61.13","ENNADAI LAKE (AUT)","2301102","2012-02-05 02:00","2012","02","05","02:00","-8.9","","-9.8","","93","","","","","M","43","","","","97.18","","","","-20","","NA"
"-100.88","61.13","ENNADAI LAKE (AUT)","2301102","2012-02-05 03:00","2012","02","05","03:00","-11.9","","-12.8","","93","","","","","M","43","","","","97.23","","","","-24","","NA"
"-100.88","61.13","ENNADAI LAKE (AUT)","2301102","2012-02-05 04:00","2012","02","05","04:00","-14.5","","-16.3","","86","","","","","M","17","","","","97.27","","","","-23","","NA"
"-100.88","61.13","ENNADAI LAKE (AUT)","2301102","2012-02-05 05:00","2012","02","05","05:00","-16.2","","-17.7","","88","","","","","M","22","","","","97.35","","","","-26","","NA"
"-100.88","61.13","ENNADAI LAKE (AUT)","2301102","2012-02-05 06:00","2012","02","05","06:00","-16.8","","-18.4","","87","","","","","M","22","","","","97.40","","","","-27","","NA"
"-100.88","61.13","ENNADAI LAKE (AUT)","2301102","2012-02-05 07:00","2012","02","05","07:00","-17.1","","-18.6","","88","","","","","M","35","","","","97.37","","","","-30","","NA"
"-100.88","61.13","ENNADAI LAKE (AUT)","2301102","2012-02-05 08:00","2012","02","05","08:00","-17.6","","-19.3","","87","","","","","M","32","","","","97.44","","","","-30","","NA"
"-100.88","61.13","ENNADAI LAKE (AUT)","2301102","2012-02-05 09:00","2012","02","05","09:00","-17.4","","-19.0","","87","","","","","M","41","","","","97.49","","","","-31","","NA"
"-100.88","61.13","ENNADAI LAKE (AUT)","2301102","2012-02-05 10:00","2012","02","05","10:00","-17.2","","-18.8","","87","","","","","M","35","","","","97.55","","","","-30","","NA"
"-100.88","61.13","ENNADAI LAKE (AUT)","2301102","2012-02-05 11:00","2012","02","05","11:00","-17.3","","-19.0","","87","","","","","M","28","","","","97.62","","","","-29","","NA"
"-100.88","61.13","ENNADAI LAKE (AUT)","2301102","2012-02-05 12:00","2012","02","05","12:00","-17.6","","-19.3","","87","","","","","M","37","","","","97.72","","","","-31","","NA"
"-100.88","61.13","ENNADAI LAKE (AUT)","2301102","2012-02-05 13:00","2012","02","05","13:00","-18.0","","-19.8","","86","","","","","M","41","","","","97.77","","","","-32","","NA"
"-100.88","61.13","ENNADAI LAKE (AUT)","2301102","2012-02-05 14:00","2012","02","05","14:00","-18.9","","-20.9","","84","","","","","M","41","","","","97.89","","","","-33","","NA"
"-100.88","61.13","ENNADAI LAKE (AUT)","2301102","2012-02-05 15:00","2012","02","05","15:00","-19.3","","-21.2","","85","","","","","M","41","","","","97.98","","","","-33","","NA"
"-100.88","61.13","ENNADAI LAKE (AUT)","2301102","2012-02-05 16:00","2012","02","05","16:00","-19.6","","-21.5","","85","","","","","M","37","","","","98.16","","","","-33","","NA"
"-100.88","61.13","ENNADAI LAKE (AUT)","2301102","2012-02-05 17:00","2012","02","05","17:00","-20.3","","-22.5","","83","","","","","M","35","","","","98.27","","","","-34","","NA"
"-100.88","61.13","ENNADAI LAKE (AUT)","2301102","2012-02-05 18:00","2012","02","05","18:00","-21.6","","-24.2","","79","","","","","M","39","","","","98.39","","","","-36","","NA"
"-100.88","61.13","ENNADAI LAKE (AUT)","2301102","2012-02-05 19:00","2012","02","05","19:00","-22.7","","-25.4","","79","","","","","M","35","","","","98.51","","","","-37","","NA"
"-100.88","61.13","ENNADAI LAKE (AUT)","2301102","2012-02-05 20:00","2012","02","05","20:00","-23.8","","-26.7","","77","","","","","M","35","","","","98.56","","","","-38","","NA"
"-100.88","61.13","ENNADAI LAKE (AUT)","2301102","2012-02-05 21:00","2012","02","05","21:00","-24.7","","-27.9","","75","","","","","M","37","","","","98.70","","","","-40","","NA"
"-100.88","61.13","ENNADAI LAKE (AUT)","2301102","2012-02-05 22:00","2012","02","05","22:00","-25.7","","-28.6","","77","","","","","M","28","","","","98.81","","","","-40","","NA"
"-100.88","61.13","ENNADAI LAKE (AUT)","2301102","2012-02-05 23:00","2012","02","05","23:00","-26.9","","-29.6","","78","","","","","M","28","","","","98.86","","","","-41","","NA"
"-100.88","61.13","ENNADAI LAKE (AUT)","2301102","2012-02-06 00:00","2012","02","06","00:00","-27.1","","-29.8","","78","","","","","M","9","","","","98.97","","","","-35","","NA"
"-100.88","61.13","ENNADAI LAKE (AUT)","2301102","2012-02-06 01:00","2012","02","06","01:00","-28.0","","-30.4","","80","","","","","M","15","","","","99.03","","","","-39","","NA"
"-100.88","61.13","ENNADAI LAKE (AUT)","2301102","2012-02-06 02:00","2012","02","06","02:00","-28.7","","-31.2","","79","","","","","M","19","","","","99.07","","","","-41","","NA"
"-100.88","61.13","ENNADAI LAKE (AUT)","2301102","2012-02-06 03:00","2012","02","06","03:00","-29.1","","-31.7","","78","","","","","M","19","","","","99.10","","","","-42","","NA"
"-100.88","61.13","ENNADAI LAKE (AUT)","2301102","2012-02-06 04:00","2012","02","06","04:00","-29.4","","-32.1","","77","","","","","M","19","","","","99.11","","","","-42","","NA"
"-100.88","61.13","ENNADAI LAKE (AUT)","2301102","2012-02-06 05:00","2012","02","06","05:00","-28.5","","-31.3","","77","","","","","M","26","","","","99.10","","","","-43","","NA"
"-100.88","61.13","ENNADAI LAKE (AUT)","2301102","2012-02-06 06:00","2012","02","06","06:00","-27.2","","-30.3","","75","","","","","M","24","","","","99.16","","","","-41","","NA"
"-100.88","61.13","ENNADAI LAKE (AUT)","2301102","2012-02-06 07:00","2012","02","06","07:00","-26.6","","-29.9","","74","","","","","M","22","","","","99.14","","","","-39","","NA"
"-100.88","61.13","ENNADAI LAKE (AUT)","2301102","2012-02-06 08:00","2012","02","06","08:00","-26.4","","-29.5","","75","","","","","M","17","","","","99.13","","","","-38","","NA"
"-100.88","61.13","ENNADAI LAKE (AUT)","2301102","2012-02-06 09:00","2012","02","06","09:00","-26.2","","-29.5","","74","","","","","M","11","","","","99.08","","","","-35","","NA"
"-100.88","61.13","ENNADAI LAKE (AUT)","2301102","2012-02-06 10:00","2012","02","06","10:00","-25.4","","-29.1","","71","","","","","M","15","","","","99.06","","","","-36","","NA"
"-100.88","61.13","ENNADAI LAKE (AUT)","2301102","2012-02-06 11:00","2012","02","06","11:00","-24.9","","-28.4","","73","","","","","M","19","","","","99.00","","","","-36","","NA"
"-100.88","61.13","ENNADAI LAKE (AUT)","2301102","2012-02-06 12:00","2012","02","06","12:00","-23.2","","-27.1","","70","","","","","M","26","","","","98.95","","","","-36","","NA"
"-100.88","61.13","ENNADAI LAKE (AUT)","2301102","2012-02-06 13:00","2012","02","06","13:00","-22.1","","-26.4","","68","","","","","M","30","","","","98.86","","","","-35","","NA"
"-100.88","61.13","ENNADAI LAKE (AUT)","2301102","2012-02-06 14:00","2012","02","06","14:00","-21.1","","-25.4","","68","","","","","M","30","","","","98.74","","","","-34","","NA"
"-100.88","61.13","ENNADAI LAKE (AUT)","2301102","2012-02-06 15:00","2012","02","06","15:00","-21.1","","-25.0","","71","","","","","M","32","","","","98.66","","","","-34","","NA"
"-100.88","61.13","ENNADAI LAKE (AUT)","2301102","2012-02-06 16:00","2012","02","06","16:00","-20.2","","-23.4","","76","","","","","M","39","","","","98.50","","","","-34","","NA"
"-100.88","61.13","ENNADAI LAKE (AUT)","2301102","2012-02-06 17:00","2012","02","06","17:00","-19.0","","-21.8","","78","","","","","M","35","","","","98.42","","","","-32","","NA"
"-100.88","61.13","ENNADAI LAKE (AUT)","2301102","2012-02-06 18:00","2012","02","06","18:00","-18.5","","-20.9","","81","","","","","M","41","","","","98.32","","","","-32","","NA"
"-100.88","61.13","ENNADAI LAKE (AUT)","2301102","2012-02-06 19:00","2012","02","06","19:00","-17.6","","-19.7","","84","","","","","M","43","","","","98.19","","","","-31","","NA"
"-100.88","61.13","ENNADAI LAKE (AUT)","2301102","2012-02-06 20:00","2012","02","06","20:00","-16.6","","-18.6","","84","","","","","M","43","","","","98.06","","","","-30","","NA"
"-100.88","61.13","ENNADAI LAKE (AUT)","2301102","2012-02-06 21:00","2012","02","06","21:00","-15.6","","-17.3","","87","","","","","M","43","","","","97.89","","","","-29","","NA"
"-100.88","61.13","ENNADAI LAKE (AUT)","2301102","2012-02-06 22:00","2012","02","06","22:00","-15.2","","-16.7","","88","","","","","M","48","","","","97.73","","","","-29","","NA"
"-100.88","61.13","ENNADAI LAKE (AUT)","2301102","2012-02-06 23:00","2012","02","06","23:00","-15.0","","-16.4","","89","","","","","M","48","","","","97.56","","","","-28","","NA"
"-100.88","61.13","ENNADAI LAKE (AUT)","2301102","2012-02-07 00:00","2012","02","07","00:00","-14.8","","-16.2","","89","","","","","M","50","","","","97.41","","","","-28","","NA"
"-100.88","61.13","ENNADAI LAKE (AUT)","2301102","2012-02-07 01:00","2012","02","07","01:00","-10.9","","-13.5","","81","","","","","M","59","","","","97.35","","","","-24","","NA"
"-100.88","61.13","ENNADAI LAKE (AUT)","2301102","2012-02-07 02:00","2012","02","07","02:00","-11.3","","-13.5","","84","","","","","M","63","","","","97.30","","","","-25","","NA"
"-100.88","61.13","ENNADAI LAKE (AUT)","2301102","2012-02-07 03:00","2012","02","07","03:00","-11.0","","-13.1","","84","","","","","M","54","","","","97.36","","","","-23","","NA"
"-100.88","61.13","ENNADAI LAKE (AUT)","2301102","2012-02-07 04:00","2012","02","07","04:00","-11.7","","-13.7","","85","","","","","M","56","","","","97.37","","","","-25","","NA"
"-100.88","61.13","ENNADAI LAKE (AUT)","2301102","2012-02-07 05:00","2012","02","07","05:00","-12.5","","-14.5","","85","","","","","M","35","","","","97.40","","","","-23","","NA"
"-100.88","61.13","ENNADAI LAKE (AUT)","2301102","2012-02-07 06:00","2012","02","07","06:00","-13.9","","-15.7","","86","","","","","M","43","","","","97.35","","","","-26","","NA"
"-100.88","61.13","ENNADAI LAKE (AUT)","2301102","2012-02-07 07:00","2012","02","07","07:00","-14.5","","-16.3","","86","","","","","M","44","","","","97.38","","","","-27","","NA"
"-100.88","61.13","ENNADAI LAKE (AUT)","2301102","2012-02-07 08:00","2012","02","07","08:00","-15.2","","-16.9","","87","","","","","M","39","","","","97.36","","","","-28","","NA"
"-100.88","61.13","ENNADAI LAKE (AUT)","2301102","2012-02-07 09:00","2012","02","07","09:00","-16.1","","-17.7","","87","","","","","M","35","","","","97.32","","","","-28","","NA"
"-100.88","61.13","ENNADAI LAKE (AUT)","2301102","2012-02-07 10:00","2012","02","07","10:00","-16.6","","-18.3","","87","","","","","M","39","","","","97.31","","","","-29","","NA"
"-100.88","61.13","ENNADAI LAKE (AUT)","2301102","2012-02-07 11:00","2012","02","07","11:00","-17.3","","-19.0","","87","","","","","M","33","","","","97.33","","","","-30","","NA"
"-100.88","61.13","ENNADAI LAKE (AUT)","2301102","2012-02-07 12:00","2012","02","07","12:00","-17.0","","-18.9","","85","","","","","M","41","","","","97.29","","","","-30","","NA"
"-100.88","61.13","ENNADAI LAKE (AUT)","2301102","2012-02-07 13:00","2012","02","07","13:00","-17.7","","-19.7","","84","","","","","M","37","","","","97.35","","","","-31","","NA"
"-100.88","61.13","ENNADAI LAKE (AUT)","2301102","2012-02-07 14:00","2012","02","07","14:00","-18.8","","-21.5","","79","","","","","M","37","","","","97.38","","","","-32","","NA"
"-100.88","61.13","ENNADAI LAKE (AUT)","2301102","2012-02-07 15:00","2012","02","07","15:00","-19.2","","-22.1","","78","","","","","M","35","","","","97.41","","","","-32","","NA"
"-100.88","61.13","ENNADAI LAKE (AUT)","2301102","2012-02-07 16:00","2012","02","07","16:00","-20.6","","-23.8","","75","","","","","M","32","","","","97.45","","","","-34","","NA"
"-100.88","61.13","ENNADAI LAKE (AUT)","2301102","2012-02-07 17:00","2012","02","07","17:00","-22.1","","-25.5","","74","","","","","M","32","","","","97.53","","","","-36","","NA"
"-100.88","61.13","ENNADAI LAKE (AUT)","2301102","2012-02-07 18:00","2012","02","07","18:00","-23.6","","-27.1","","73","","","","","M","32","","","","97.53","","","","-38","","NA"
"-100.88","61.13","ENNADAI LAKE (AUT)","2301102","2012-02-07 19:00","2012","02","07","19:00","-23.7","","-28.0","","68","","","","","M","26","","","","97.52","","","","-37","","NA"
"-100.88","61.13","ENNADAI LAKE (AUT)","2301102","2012-02-07 20:00","2012","02","07","20:00","-23.7","","-28.1","","67","","","","","M","35","","","","97.48","","","","-38","","NA"
"-100.88","61.13","ENNADAI LAKE (AUT)","2301102","2012-02-07 21:00","2012","02","07","21:00","-24.8","","-29.0","","68","","","","","M","41","","","","97.47","","","","-41","","NA"
"-100.88","61.13","ENNADAI LAKE (AUT)","2301102","2012-02-07 22:00","2012","02","07","22:00","-25.4","","-29.3","","70","","","","","M","28","","","","97.50","","","","-39","","NA"
"-100.88","61.13","ENNADAI LAKE (AUT)","2301102","2012-02-07 23:00","2012","02","07","23:00","-26.2","","-30.8","","65","","","","","M","43","","","","97.49","","","","-43","","NA"
"-100.88","61.13","ENNADAI LAKE (AUT)","2301102","2012-02-08 00:00","2012","02","08","00:00","-26.9","","-30.7","","70","","","","","M","33","","","","97.52","","","","-42","","NA"
"-100.88","61.13","ENNADAI LAKE (AUT)","2301102","2012-02-08 01:00","2012","02","08","01:00","-27.7","","-31.5","","70","","","","","M","33","","","","97.50","","","","-43","","NA"
"-100.88","61.13","ENNADAI LAKE (AUT)","2301102","2012-02-08 02:00","2012","02","08","02:00","-28.4","","-32.3","","69","","","","","M","28","","","","97.47","","","","-43","","NA"
"-100.88","61.13","ENNADAI LAKE (AUT)","2301102","2012-02-08 03:00","2012","02","08","03:00","-28.7","","-32.6","","69","","","","","M","41","","","","97.42","","","","-46","","NA"
"-100.88","61.13","ENNADAI LAKE (AUT)","2301102","2012-02-08 04:00","2012","02","08","04:00","-29.0","","-32.6","","71","","","","","M","43","","","","97.45","","","","-47","","NA"
"-100.88","61.13","ENNADAI LAKE (AUT)","2301102","2012-02-08 05:00","2012","02","08","05:00","-29.2","","-32.6","","72","","","","","M","33","","","","97.42","","","","-45","","NA"
"-100.88","61.13","ENNADAI LAKE (AUT)","2301102","2012-02-08 06:00","2012","02","08","06:00","-29.2","","-32.4","","74","","","","","M","46","","","","97.36","","","","-47","","NA"
"-100.88","61.13","ENNADAI LAKE (AUT)","2301102","2012-02-08 07:00","2012","02","08","07:00","-28.6","","-31.5","","76","","","","","M","39","","","","97.43","","","","-45","","NA"
"-100.88","61.13","ENNADAI LAKE (AUT)","2301102","2012-02-08 08:00","2012","02","08","08:00","-28.7","","-31.6","","76","","","","","M","50","","","","97.40","","","","-47","","NA"
"-100.88","61.13","ENNADAI LAKE (AUT)","2301102","2012-02-08 09:00","2012","02","08","09:00","-29.2","","-32.0","","77","","","","","M","50","","","","97.38","","","","-48","","NA"
"-100.88","61.13","ENNADAI LAKE (AUT)","2301102","2012-02-08 10:00","2012","02","08","10:00","-29.1","","-32.1","","75","","","","","M","56","","","","97.39","","","","-49","","NA"
"-100.88","61.13","ENNADAI LAKE (AUT)","2301102","2012-02-08 11:00","2012","02","08","11:00","-28.8","","-31.8","","75","","","","","M","30","","","","97.53","","","","-44","","NA"
"-100.88","61.13","ENNADAI LAKE (AUT)","2301102","2012-02-08 12:00","2012","02","08","12:00","-28.5","","-31.3","","77","","","","","M","52","","","","97.48","","","","-47","","NA"
"-100.88","61.13","ENNADAI LAKE (AUT)","2301102","2012-02-08 13:00","2012","02","08","13:00","-28.0","","-30.9","","76","","","","","M","46","","","","97.44","","","","-46","","NA"
"-100.88","61.13","ENNADAI LAKE (AUT)","2301102","2012-02-08 14:00","2012","02","08","14:00","-27.5","","-30.5","","76","","","","","M","52","","","","97.44","","","","-46","","NA"
"-100.88","61.13","ENNADAI LAKE (AUT)","2301102","2012-02-08 15:00","2012","02","08","15:00","-27.1","","-29.8","","78","","","","","M","48","","","","97.47","","","","-45","","NA"
"-100.88","61.13","ENNADAI LAKE (AUT)","2301102","2012-02-08 16:00","2012","02","08","16:00","-28.0","","-30.7","","78","","","","","M","57","","","","97.46","","","","-47","","NA"
"-100.88","61.13","ENNADAI LAKE (AUT)","2301102","2012-02-08 17:00","2012","02","08","17:00","-28.7","","-31.4","","77","","","","","M","65","","","","97.46","","","","-49","","NA"
"-100.88","61.13","ENNADAI LAKE (AUT)","2301102","2012-02-08 18:00","2012","02","08","18:00","-28.6","","-31.3","","78","","","","","M","48","","","","97.46","","","","-47","","NA"
"-100.88","61.13","ENNADAI LAKE (AUT)","2301102","2012-02-08 19:00","2012","02","08","19:00","-27.8","","-30.4","","78","","","","","M","63","","","","97.43","","","","-48","","NA"
"-100.88","61.13","ENNADAI LAKE (AUT)","2301102","2012-02-08 20:00","2012","02","08","20:00","-28.7","","-31.4","","77","","","","","M","57","","","","97.44","","","","-48","","NA"
"-100.88","61.13","ENNADAI LAKE (AUT)","2301102","2012-02-08 21:00","2012","02","08","21:00","-29.1","","-31.8","","77","","","","","M","52","","","","97.45","","","","-48","","NA"
"-100.88","61.13","ENNADAI LAKE (AUT)","2301102","2012-02-08 22:00","2012","02","08","22:00","-29.2","","-31.8","","78","","","","","M","59","","","","97.42","","","","-49","","NA"
"-100.88","61.13","ENNADAI LAKE (AUT)","2301102","2012-02-08 23:00","2012","02","08","23:00","-28.6","","-31.2","","78","","","","","M","56","","","","97.44","","","","-48","","NA"
"-100.88","61.13","ENNADAI LAKE (AUT)","2301102","2012-02-09 00:00","2012","02","09","00:00","-28.4","","-30.9","","79","","","","","M","50","","","","97.44","","","","-47","","NA"
"-100.88","61.13","ENNADAI LAKE (AUT)","2301102","2012-02-09 01:00","2012","02","09","01:00","-28.4","","-31.0","","78","","","","","M","57","","","","97.45","","","","-48","","NA"
"-100.88","61.13","ENNADAI LAKE (AUT)","2301102","2012-02-09 02:00","2012","02","09","02:00","-29.2","","-31.9","","77","","","","","M","56","","","","97.56","","","","-49","","NA"
"-100.88","61.13","ENNADAI LAKE (AUT)","2301102","2012-02-09 03:00","2012","02","09","03:00","-29.8","","-32.5","","77","","","","","M","44","","","","97.66","","","","-48","","NA"
"-100.88","61.13","ENNADAI LAKE (AUT)","2301102","2012-02-09 04:00","2012","02","09","04:00","-29.5","","-32.2","","77","","","","","M","57","","","","97.65","","","","-49","","NA"
"-100.88","61.13","ENNADAI LAKE (AUT)","2301102","2012-02-09 05:00","2012","02","09","05:00","-29.3","","-32.0","","77","","","","","M","52","","","","97.77","","","","-48","","NA"
"-100.88","61.13","ENNADAI LAKE (AUT)","2301102","2012-02-09 06:00","2012","02","09","06:00","-29.2","","-31.9","","77","","","","","M","44","","","","97.85","","","","-47","","NA"
"-100.88","61.13","ENNADAI LAKE (AUT)","2301102","2012-02-09 07:00","2012","02","09","07:00","-28.5","","-31.1","","78","","","","","M","44","","","","97.93","","","","-46","","NA"
"-100.88","61.13","ENNADAI LAKE (AUT)","2301102","2012-02-09 08:00","2012","02","09","08:00","-28.0","","-30.6","","78","","","","","M","39","","","","98.07","","","","-45","","NA"
"-100.88","61.13","ENNADAI LAKE (AUT)","2301102","2012-02-09 09:00","2012","02","09","09:00","-27.8","","-30.5","","78","","","","","M","50","","","","98.14","","","","-46","","NA"
"-100.88","61.13","ENNADAI LAKE (AUT)","2301102","2012-02-09 10:00","2012","02","09","10:00","-27.9","","-30.6","","78","","","","","M","41","","","","98.19","","","","-45","","NA"
"-100.88","61.13","ENNADAI LAKE (AUT)","2301102","2012-02-09 11:00","2012","02","09","11:00","-27.9","","-30.7","","77","","","","","M","32","","","","98.34","","","","-43","","NA"
"-100.88","61.13","ENNADAI LAKE (AUT)","2301102","2012-02-09 12:00","2012","02","09","12:00","-27.6","","-30.4","","77","","","","","M","32","","","","98.45","","","","-43","","NA"
"-100.88","61.13","ENNADAI LAKE (AUT)","2301102","2012-02-09 13:00","2012","02","09","13:00","-27.4","","-30.2","","77","","","","","M","30","","","","98.57","","","","-42","","NA"
"-100.88","61.13","ENNADAI LAKE (AUT)","2301102","2012-02-09 14:00","2012","02","09","14:00","-27.3","","-30.1","","77","","","","","M","32","","","","98.62","","","","-42","","NA"
"-100.88","61.13","ENNADAI LAKE (AUT)","2301102","2012-02-09 15:00","2012","02","09","15:00","-27.0","","-29.7","","78","","","","","M","33","","","","98.67","","","","-42","","NA"
"-100.88","61.13","ENNADAI LAKE (AUT)","2301102","2012-02-09 16:00","2012","02","09","16:00","-26.9","","-29.6","","78","","","","","M","32","","","","98.75","","","","-42","","NA"
"-100.88","61.13","ENNADAI LAKE (AUT)","2301102","2012-02-09 17:00","2012","02","09","17:00","-27.2","","-29.8","","79","","","","","M","32","","","","98.77","","","","-42","","NA"
"-100.88","61.13","ENNADAI LAKE (AUT)","2301102","2012-02-09 18:00","2012","02","09","18:00","-26.2","","-28.6","","80","","","","","M","22","","","","98.79","","","","-39","","NA"
"-100.88","61.13","ENNADAI LAKE (AUT)","2301102","2012-02-09 19:00","2012","02","09","19:00","-24.3","","-26.5","","82","","","","","M","41","","","","98.79","","","","-40","","NA"
"-100.88","61.13","ENNADAI LAKE (AUT)","2301102","2012-02-09 20:00","2012","02","09","20:00","-23.8","","-25.9","","83","","","","","M","41","","","","98.83","","","","-39","","NA"
"-100.88","61.13","ENNADAI LAKE (AUT)","2301102","2012-02-09 21:00","2012","02","09","21:00","-23.2","","-25.2","","84","","","","","M","41","","","","98.84","","","","-39","","NA"
"-100.88","61.13","ENNADAI LAKE (AUT)","2301102","2012-02-09 22:00","2012","02","09","22:00","-23.2","","-25.3","","83","","","","","M","43","","","","98.85","","","","-39","","NA"
"-100.88","61.13","ENNADAI LAKE (AUT)","2301102","2012-02-09 23:00","2012","02","09","23:00","-23.9","","-26.5","","79","","","","","M","43","","","","98.88","","","","-40","","NA"
"-100.88","61.13","ENNADAI LAKE (AUT)","2301102","2012-02-10 00:00","2012","02","10","00:00","-25.1","","-27.8","","78","","","","","M","32","","","","98.89","","","","-40","","NA"
"-100.88","61.13","ENNADAI LAKE (AUT)","2301102","2012-02-10 01:00","2012","02","10","01:00","-26.0","","-28.8","","77","","","","","M","35","","","","98.88","","","","-41","","NA"
"-100.88","61.13","ENNADAI LAKE (AUT)","2301102","2012-02-10 02:00","2012","02","10","02:00","-26.9","","-30.0","","75","","","","","M","37","","","","98.90","","","","-43","","NA"
"-100.88","61.13","ENNADAI LAKE (AUT)","2301102","2012-02-10 03:00","2012","02","10","03:00","-27.4","","-30.7","","73","","","","","M","28","","","","98.96","","","","-42","","NA"
"-100.88","61.13","ENNADAI LAKE (AUT)","2301102","2012-02-10 04:00","2012","02","10","04:00","-27.7","","-31.1","","73","","","","","M","32","","","","98.97","","","","-43","","NA"
"-100.88","61.13","ENNADAI LAKE (AUT)","2301102","2012-02-10 05:00","2012","02","10","05:00","-27.6","","-30.8","","74","","","","","M","35","","","","98.96","","","","-43","","NA"
"-100.88","61.13","ENNADAI LAKE (AUT)","2301102","2012-02-10 06:00","2012","02","10","06:00","-28.1","","-31.3","","74","","","","","M","32","","","","98.96","","","","-44","","NA"
"-100.88","61.13","ENNADAI LAKE (AUT)","2301102","2012-02-10 07:00","2012","02","10","07:00","-27.5","","-30.8","","73","","","","","M","32","","","","98.93","","","","-43","","NA"
"-100.88","61.13","ENNADAI LAKE (AUT)","2301102","2012-02-10 08:00","2012","02","10","08:00","-28.0","","-31.4","","73","","","","","M","26","","","","98.94","","","","-42","","NA"
"-100.88","61.13","ENNADAI LAKE (AUT)","2301102","2012-02-10 09:00","2012","02","10","09:00","-27.6","","-31.1","","72","","","","","M","30","","","","98.91","","","","-42","","NA"
"-100.88","61.13","ENNADAI LAKE (AUT)","2301102","2012-02-10 10:00","2012","02","10","10:00","-27.2","","-30.8","","71","","","","","M","28","","","","98.89","","","","-42","","NA"
"-100.88","61.13","ENNADAI LAKE (AUT)","2301102","2012-02-10 11:00","2012","02","10","11:00","-26.1","","-29.8","","71","","","","","M","26","","","","98.88","","","","-40","","NA"
"-100.88","61.13","ENNADAI LAKE (AUT)","2301102","2012-02-10 12:00","2012","02","10","12:00","-24.6","","-28.7","","69","","","","","M","33","","","","98.84","","","","-39","","NA"
"-100.88","61.13","ENNADAI LAKE (AUT)","2301102","2012-02-10 13:00","2012","02","10","13:00","-23.3","","-27.5","","68","","","","","M","32","","","","98.83","","","","-37","","NA"
"-100.88","61.13","ENNADAI LAKE (AUT)","2301102","2012-02-10 14:00","2012","02","10","14:00","-22.6","","-26.9","","68","","","","","M","28","","","","98.82","","","","-36","","NA"
"-100.88","61.13","ENNADAI LAKE (AUT)","2301102","2012-02-10 15:00","2012","02","10","15:00","-21.8","","-26.3","","67","","","","","M","32","","","","98.82","","","","-35","","NA"
"-100.88","61.13","ENNADAI LAKE (AUT)","2301102","2012-02-10 16:00","2012","02","10","16:00","-21.3","","-26.1","","65","","","","","M","30","","","","98.74","","","","-34","","NA"
"-100.88","61.13","ENNADAI LAKE (AUT)","2301102","2012-02-10 17:00","2012","02","10","17:00","-21.1","","-25.8","","66","","","","","M","35","","","","98.70","","","","-35","","NA"
"-100.88","61.13","ENNADAI LAKE (AUT)","2301102","2012-02-10 18:00","2012","02","10","18:00","-21.2","","-25.7","","67","","","","","M","35","","","","98.64","","","","-35","","NA"
"-100.88","61.13","ENNADAI LAKE (AUT)","2301102","2012-02-10 19:00","2012","02","10","19:00","-21.3","","-26.3","","64","","","","","M","33","","","","98.59","","","","-35","","NA"
"-100.88","61.13","ENNADAI LAKE (AUT)","2301102","2012-02-10 20:00","2012","02","10","20:00","-21.0","","-26.1","","64","","","","","M","30","","","","98.52","","","","-34","","NA"
"-100.88","61.13","ENNADAI LAKE (AUT)","2301102","2012-02-10 21:00","2012","02","10","21:00","-20.7","","-26.0","","62","","","","","M","32","","","","98.51","","","","-34","","NA"
"-100.88","61.13","ENNADAI LAKE (AUT)","2301102","2012-02-10 22:00","2012","02","10","22:00","-20.3","","-25.7","","62","","","","","M","22","","","","98.44","","","","-31","","NA"
"-100.88","61.13","ENNADAI LAKE (AUT)","2301102","2012-02-10 23:00","2012","02","10","23:00","-19.8","","-25.3","","62","","","","","M","39","","","","98.26","","","","-34","","NA"
"-100.88","61.13","ENNADAI LAKE (AUT)","2301102","2012-02-11 00:00","2012","02","11","00:00","-19.6","","-24.3","","66","","","","","M","35","","","","98.16","","","","-33","","NA"
"-100.88","61.13","ENNADAI LAKE (AUT)","2301102","2012-02-11 01:00","2012","02","11","01:00","-20.1","","-24.3","","69","","","","","M","30","","","","98.09","","","","-33","","NA"
"-100.88","61.13","ENNADAI LAKE (AUT)","2301102","2012-02-11 02:00","2012","02","11","02:00","-20.6","","-24.2","","73","","","","","M","32","","","","97.99","","","","-34","","NA"
"-100.88","61.13","ENNADAI LAKE (AUT)","2301102","2012-02-11 03:00","2012","02","11","03:00","-19.1","","-23.6","","68","","","","","M","33","","","","97.91","","","","-32","","NA"
"-100.88","61.13","ENNADAI LAKE (AUT)","2301102","2012-02-11 04:00","2012","02","11","04:00","-19.3","","-23.7","","68","","","","","M","24","","","","97.83","","","","-31","","NA"
"-100.88","61.13","ENNADAI LAKE (AUT)","2301102","2012-02-11 05:00","2012","02","11","05:00","-18.2","","-23.5","","63","","","","","M","46","","","","97.69","","","","-32","","NA"
"-100.88","61.13","ENNADAI LAKE (AUT)","2301102","2012-02-11 06:00","2012","02","11","06:00","-19.4","","-23.7","","69","","","","","M","39","","","","97.63","","","","-33","","NA"
"-100.88","61.13","ENNADAI LAKE (AUT)","2301102","2012-02-11 07:00","2012","02","11","07:00","-19.5","","-24.1","","67","","","","","M","35","","","","97.51","","","","-33","","NA"
"-100.88","61.13","ENNADAI LAKE (AUT)","2301102","2012-02-11 08:00","2012","02","11","08:00","-19.7","","-23.7","","70","","","","","M","37","","","","97.43","","","","-33","","NA"
"-100.88","61.13","ENNADAI LAKE (AUT)","2301102","2012-02-11 09:00","2012","02","11","09:00","-19.2","","-23.6","","68","","","","","M","37","","","","97.32","","","","-33","","NA"
"-100.88","61.13","ENNADAI LAKE (AUT)","2301102","2012-02-11 10:00","2012","02","11","10:00","-18.9","","-23.3","","68","","","","","M","43","","","","97.26","","","","-33","","NA"
"-100.88","61.13","ENNADAI LAKE (AUT)","2301102","2012-02-11 11:00","2012","02","11","11:00","-18.2","","-22.6","","68","","","","","M","37","","","","97.18","","","","-31","","NA"
"-100.88","61.13","ENNADAI LAKE (AUT)","2301102","2012-02-11 12:00","2012","02","11","12:00","-17.3","","-21.9","","67","","","","","M","41","","","","97.10","","","","-31","","NA"
"-100.88","61.13","ENNADAI LAKE (AUT)","2301102","2012-02-11 13:00","2012","02","11","13:00","-15.7","","-21.1","","63","","","","","M","39","","","","96.99","","","","-28","","NA"
"-100.88","61.13","ENNADAI LAKE (AUT)","2301102","2012-02-11 14:00","2012","02","11","14:00","-15.1","","-20.2","","65","","","","","M","35","","","","96.92","","","","-27","","NA"
"-100.88","61.13","ENNADAI LAKE (AUT)","2301102","2012-02-11 15:00","2012","02","11","15:00","-14.1","","-19.5","","64","","","","","M","26","","","","96.81","","","","-24","","NA"
"-100.88","61.13","ENNADAI LAKE (AUT)","2301102","2012-02-11 16:00","2012","02","11","16:00","-14.1","","-19.2","","65","","","","","M","44","","","","96.68","","","","-27","","NA"
"-100.88","61.13","ENNADAI LAKE (AUT)","2301102","2012-02-11 17:00","2012","02","11","17:00","-14.1","","-18.6","","69","","","","","M","44","","","","96.58","","","","-27","","NA"
"-100.88","61.13","ENNADAI LAKE (AUT)","2301102","2012-02-11 18:00","2012","02","11","18:00","-14.0","","-18.0","","72","","","","","M","43","","","","96.51","","","","-26","","NA"
"-100.88","61.13","ENNADAI LAKE (AUT)","2301102","2012-02-11 19:00","2012","02","11","19:00","-13.9","","-17.8","","72","","","","","M","37","","","","96.48","","","","-26","","NA"
"-100.88","61.13","ENNADAI LAKE (AUT)","2301102","2012-02-11 20:00","2012","02","11","20:00","-14.3","","-17.6","","76","","","","","M","46","","","","96.30","","","","-27","","NA"
"-100.88","61.13","ENNADAI LAKE (AUT)","2301102","2012-02-11 21:00","2012","02","11","21:00","-13.5","","-16.8","","76","","","","","M","43","","","","96.32","","","","-26","","NA"
"-100.88","61.13","ENNADAI LAKE (AUT)","2301102","2012-02-11 22:00","2012","02","11","22:00","-13.6","","-16.7","","77","","","","","M","20","","","","96.30","","","","-22","","NA"
"-100.88","61.13","ENNADAI LAKE (AUT)","2301102","2012-02-11 23:00","2012","02","11","23:00","-13.2","","-16.3","","77","","","","","M","32","","","","96.20","","","","-24","","NA"
"-100.88","61.13","ENNADAI LAKE (AUT)","2301102","2012-02-12 00:00","2012","02","12","00:00","-13.1","","-16.4","","76","","","","","M","33","","","","96.16","","","","-24","","NA"
"-100.88","61.13","ENNADAI LAKE (AUT)","2301102","2012-02-12 01:00","2012","02","12","01:00","-13.1","","-16.3","","77","","","","","M","35","","","","96.07","","","","-24","","NA"
"-100.88","61.13","ENNADAI LAKE (AUT)","2301102","2012-02-12 02:00","2012","02","12","02:00","-13.3","","-16.2","","79","","","","","M","28","","","","96.04","","","","-24","","NA"
"-100.88","61.13","ENNADAI LAKE (AUT)","2301102","2012-02-12 03:00","2012","02","12","03:00","-13.0","","-16.2","","77","","","","","M","28","","","","95.99","","","","-23","","NA"
"-100.88","61.13","ENNADAI LAKE (AUT)","2301102","2012-02-12 04:00","2012","02","12","04:00","-13.4","","-16.1","","80","","","","","M","22","","","","95.99","","","","-23","","NA"
"-100.88","61.13","ENNADAI LAKE (AUT)","2301102","2012-02-12 05:00","2012","02","12","05:00","-13.7","","-16.3","","81","","","","","M","26","","","","95.91","","","","-24","","NA"
"-100.88","61.13","ENNADAI LAKE (AUT)","2301102","2012-02-12 06:00","2012","02","12","06:00","-13.7","","-16.2","","81","","","","","M","35","","","","95.78","","","","-25","","NA"
"-100.88","61.13","ENNADAI LAKE (AUT)","2301102","2012-02-12 07:00","2012","02","12","07:00","-15.2","","-17.3","","84","","","","","M","30","","","","95.75","","","","-26","","NA"
"-100.88","61.13","ENNADAI LAKE (AUT)","2301102","2012-02-12 08:00","2012","02","12","08:00","-15.3","","-17.4","","84","","","","","M","30","","","","95.71","","","","-26","","NA"
"-100.88","61.13","ENNADAI LAKE (AUT)","2301102","2012-02-12 09:00","2012","02","12","09:00","-15.5","","-17.8","","82","","","","","M","32","","","","95.65","","","","-27","","NA"
"-100.88","61.13","ENNADAI LAKE (AUT)","2301102","2012-02-12 10:00","2012","02","12","10:00","-16.1","","-18.5","","82","","","","","M","26","","","","95.64","","","","-27","","NA"
"-100.88","61.13","ENNADAI LAKE (AUT)","2301102","2012-02-12 11:00","2012","02","12","11:00","-15.6","","-18.2","","80","","","","","M","26","","","","95.66","","","","-26","","NA"
"-100.88","61.13","ENNADAI LAKE (AUT)","2301102","2012-02-12 12:00","2012","02","12","12:00","-14.5","","-17.1","","81","","","","","M","22","","","","95.63","","","","-24","","NA"
"-100.88","61.13","ENNADAI LAKE (AUT)","2301102","2012-02-12 13:00","2012","02","12","13:00","-14.1","","-17.2","","77","","","","","M","20","","","","95.61","","","","-23","","NA"
"-100.88","61.13","ENNADAI LAKE (AUT)","2301102","2012-02-12 14:00","2012","02","12","14:00","-13.1","","-16.5","","76","","","","","M","13","","","","95.60","","","","-20","","NA"
"-100.88","61.13","ENNADAI LAKE (AUT)","2301102","2012-02-12 15:00","2012","02","12","15:00","-13.4","","-16.1","","80","","","","","M","22","","","","95.59","","","","-23","","NA"
"-100.88","61.13","ENNADAI LAKE (AUT)","2301102","2012-02-12 16:00","2012","02","12","16:00","-13.6","","-16.6","","78","","","","","M","11","","","","95.61","","","","-20","","NA"
"-100.88","61.13","ENNADAI LAKE (AUT)","2301102","2012-02-12 17:00","2012","02","12","17:00","-14.0","","-16.5","","81","","","","","M","20","","","","95.61","","","","-23","","NA"
"-100.88","61.13","ENNADAI LAKE (AUT)","2301102","2012-02-12 18:00","2012","02","12","18:00","-14.2","","-16.6","","82","","","","","M","19","","","","95.62","","","","-23","","NA"
"-100.88","61.13","ENNADAI LAKE (AUT)","2301102","2012-02-12 19:00","2012","02","12","19:00","-15.0","","-17.2","","83","","","","","M","24","","","","95.63","","","","-25","","NA"
"-100.88","61.13","ENNADAI LAKE (AUT)","2301102","2012-02-12 20:00","2012","02","12","20:00","-14.9","","-17.0","","84","","","","","M","13","","","","95.65","","","","-22","","NA"
"-100.88","61.13","ENNADAI LAKE (AUT)","2301102","2012-02-12 21:00","2012","02","12","21:00","-16.2","","-18.2","","85","","","","","M","13","","","","95.63","","","","-24","","NA"
"-100.88","61.13","ENNADAI LAKE (AUT)","2301102","2012-02-12 22:00","2012","02","12","22:00","-15.7","","-17.8","","84","","","","","M","13","","","","95.63","","","","-23","","NA"
"-100.88","61.13","ENNADAI LAKE (AUT)","2301102","2012-02-12 23:00","2012","02","12","23:00","-15.9","","-17.8","","85","","","","","M","9","","","","95.66","","","","-22","","NA"
"-100.88","61.13","ENNADAI LAKE (AUT)","2301102","2012-02-13 00:00","2012","02","13","00:00","-16.6","","-18.5","","85","","","","","M","11","","","","95.67","","","","-24","","NA"
"-100.88","61.13","ENNADAI LAKE (AUT)","2301102","2012-02-13 01:00","2012","02","13","01:00","-16.0","","-18.1","","84","","","","","M","15","","","","95.70","","","","-24","","NA"
"-100.88","61.13","ENNADAI LAKE (AUT)","2301102","2012-02-13 02:00","2012","02","13","02:00","-18.3","","-20.2","","85","","","","","M","13","","","","95.72","","","","-26","","NA"
"-100.88","61.13","ENNADAI LAKE (AUT)","2301102","2012-02-13 03:00","2012","02","13","03:00","-17.2","","-18.6","","89","","","","","M","15","","","","95.71","","","","-26","","NA"
"-100.88","61.13","ENNADAI LAKE (AUT)","2301102","2012-02-13 04:00","2012","02","13","04:00","-17.2","","-18.7","","88","","","","","M","6","","","","95.74","","","","-22","","NA"
"-100.88","61.13","ENNADAI LAKE (AUT)","2301102","2012-02-13 05:00","2012","02","13","05:00","-17.1","","-18.9","","86","","","","","M","4","","","","95.76","","","","-20","","NA"
"-100.88","61.13","ENNADAI LAKE (AUT)","2301102","2012-02-13 06:00","2012","02","13","06:00","-19.7","","-21.5","","86","","","","","M","9","","","","95.77","","","","-26","","NA"
"-100.88","61.13","ENNADAI LAKE (AUT)","2301102","2012-02-13 07:00","2012","02","13","07:00","-18.5","","-20.0","","88","","","","","M","7","","","","95.79","","","","-24","","NA"
"-100.88","61.13","ENNADAI LAKE (AUT)","2301102","2012-02-13 08:00","2012","02","13","08:00","-18.0","","-19.5","","88","","","","","M","9","","","","95.78","","","","-24","","NA"
"-100.88","61.13","ENNADAI LAKE (AUT)","2301102","2012-02-13 09:00","2012","02","13","09:00","-18.5","","-20.3","","86","","","","","M","7","","","","95.77","","","","-24","","NA"
"-100.88","61.13","ENNADAI LAKE (AUT)","2301102","2012-02-13 10:00","2012","02","13","10:00","-18.2","","-20.4","","83","","","","","M","9","","","","95.75","","","","-25","","NA"
"-100.88","61.13","ENNADAI LAKE (AUT)","2301102","2012-02-13 11:00","2012","02","13","11:00","-17.1","","-19.2","","84","","","","","M","7","","","","95.75","","","","-22","","NA"
"-100.88","61.13","ENNADAI LAKE (AUT)","2301102","2012-02-13 12:00","2012","02","13","12:00","-15.6","","-18.3","","80","","","","","M","7","","","","95.77","","","","-21","","NA"
"-100.88","61.13","ENNADAI LAKE (AUT)","2301102","2012-02-13 13:00","2012","02","13","13:00","-14.1","","-16.8","","80","","","","","M","7","","","","95.74","","","","-19","","NA"
"-100.88","61.13","ENNADAI LAKE (AUT)","2301102","2012-02-13 14:00","2012","02","13","14:00","-13.8","","-16.8","","78","","","","","M","6","","","","95.72","","","","-18","","NA"
"-100.88","61.13","ENNADAI LAKE (AUT)","2301102","2012-02-13 15:00","2012","02","13","15:00","-13.3","","-16.1","","79","","","","","M","15","","","","95.68","","","","-21","","NA"
"-100.88","61.13","ENNADAI LAKE (AUT)","2301102","2012-02-13 16:00","2012","02","13","16:00","-13.0","","-16.4","","76","","","","","M","7","","","","95.67","","","","-18","","NA"
"-100.88","61.13","ENNADAI LAKE (AUT)","2301102","2012-02-13 17:00","2012","02","13","17:00","-13.3","","-16.2","","79","","","","","M","15","","","","95.65","","","","-21","","NA"
"-100.88","61.13","ENNADAI LAKE (AUT)","2301102","2012-02-13 18:00","2012","02","13","18:00","-13.8","","-16.3","","81","","","","","M","13","","","","95.67","","","","-21","","NA"
"-100.88","61.13","ENNADAI LAKE (AUT)","2301102","2012-02-13 19:00","2012","02","13","19:00","-14.2","","-16.7","","81","","","","","M","13","","","","95.65","","","","-21","","NA"
"-100.88","61.13","ENNADAI LAKE (AUT)","2301102","2012-02-13 20:00","2012","02","13","20:00","-14.0","","-16.4","","82","","","","","M","17","","","","95.63","","","","-22","","NA"
"-100.88","61.13","ENNADAI LAKE (AUT)","2301102","2012-02-13 21:00","2012","02","13","21:00","-14.0","","-16.4","","82","","","","","M","13","","","","95.62","","","","-21","","NA"
"-100.88","61.13","ENNADAI LAKE (AUT)","2301102","2012-02-13 22:00","2012","02","13","22:00","-15.2","","-17.2","","85","","","","","M","13","","","","95.59","","","","-23","","NA"
"-100.88","61.13","ENNADAI LAKE (AUT)","2301102","2012-02-13 23:00","2012","02","13","23:00","-14.8","","-16.8","","85","","","","","M","20","","","","95.58","","","","-24","","NA"
"-100.88","61.13","ENNADAI LAKE (AUT)","2301102","2012-02-14 00:00","2012","02","14","00:00","-14.8","","-16.8","","85","","","","","M","19","","","","95.56","","","","-24","","NA"
"-100.88","61.13","ENNADAI LAKE (AUT)","2301102","2012-02-14 01:00","2012","02","14","01:00","-13.5","","-15.2","","87","","","","","M","17","","","","95.55","","","","-22","","NA"
"-100.88","61.13","ENNADAI LAKE (AUT)","2301102","2012-02-14 02:00","2012","02","14","02:00","-15.1","","-16.9","","86","","","","","M","17","","","","95.53","","","","-24","","NA"
"-100.88","61.13","ENNADAI LAKE (AUT)","2301102","2012-02-14 03:00","2012","02","14","03:00","-16.1","","-17.3","","90","","","","","M","17","","","","95.53","","","","-25","","NA"
"-100.88","61.13","ENNADAI LAKE (AUT)","2301102","2012-02-14 04:00","2012","02","14","04:00","-17.3","","-18.6","","90","","","","","M","9","","","","95.53","","","","-24","","NA"
"-100.88","61.13","ENNADAI LAKE (AUT)","2301102","2012-02-14 05:00","2012","02","14","05:00","-16.5","","-17.4","","93","","","","","M","13","","","","95.53","","","","-24","","NA"
"-100.88","61.13","ENNADAI LAKE (AUT)","2301102","2012-02-14 06:00","2012","02","14","06:00","-16.2","","-17.2","","92","","","","","M","13","","","","95.52","","","","-24","","NA"
"-100.88","61.13","ENNADAI LAKE (AUT)","2301102","2012-02-14 07:00","2012","02","14","07:00","-15.6","","-16.7","","91","","","","","M","11","","","","95.51","","","","-22","","NA"
"-100.88","61.13","ENNADAI LAKE (AUT)","2301102","2012-02-14 08:00","2012","02","14","08:00","-15.2","","-16.4","","91","","","","","M","7","","","","95.50","","","","-20","","NA"
"-100.88","61.13","ENNADAI LAKE (AUT)","2301102","2012-02-14 09:00","2012","02","14","09:00","-14.3","","-15.5","","91","","","","","M","11","","","","95.52","","","","-21","","NA"
"-100.88","61.13","ENNADAI LAKE (AUT)","2301102","2012-02-14 10:00","2012","02","14","10:00","-14.0","","-15.1","","91","","","","","M","7","","","","95.54","","","","-19","","NA"
"-100.88","61.13","ENNADAI LAKE (AUT)","2301102","2012-02-14 11:00","2012","02","14","11:00","-14.1","","-15.4","","90","","","","","M","22","","","","95.55","","","","-23","","NA"
"-100.88","61.13","ENNADAI LAKE (AUT)","2301102","2012-02-14 12:00","2012","02","14","12:00","-15.3","","-17.0","","87","","","","","M","26","","","","95.60","","","","-26","","NA"
"-100.88","61.13","ENNADAI LAKE (AUT)","2301102","2012-02-14 13:00","2012","02","14","13:00","-17.0","","-18.8","","86","","","","","M","28","","","","95.61","","","","-28","","NA"
"-100.88","61.13","ENNADAI LAKE (AUT)","2301102","2012-02-14 14:00","2012","02","14","14:00","-17.3","","-19.5","","83","","","","","M","33","","","","95.64","","","","-30","","NA"
"-100.88","61.13","ENNADAI LAKE (AUT)","2301102","2012-02-14 15:00","2012","02","14","15:00","-17.3","","-19.5","","83","","","","","M","32","","","","95.65","","","","-29","","NA"
"-100.88","61.13","ENNADAI LAKE (AUT)","2301102","2012-02-14 16:00","2012","02","14","16:00","-17.4","","-19.2","","86","","","","","M","28","","","","95.70","","","","-29","","NA"
"-100.88","61.13","ENNADAI LAKE (AUT)","2301102","2012-02-14 17:00","2012","02","14","17:00","-17.6","","-19.5","","85","","","","","M","30","","","","95.74","","","","-29","","NA"
"-100.88","61.13","ENNADAI LAKE (AUT)","2301102","2012-02-14 18:00","2012","02","14","18:00","-17.2","","-19.0","","86","","","","","M","32","","","","95.82","","","","-29","","NA"
"-100.88","61.13","ENNADAI LAKE (AUT)","2301102","2012-02-14 19:00","2012","02","14","19:00","-17.4","","-18.8","","89","","","","","M","22","","","","95.82","","","","-28","","NA"
"-100.88","61.13","ENNADAI LAKE (AUT)","2301102","2012-02-14 20:00","2012","02","14","20:00","-16.8","","-17.9","","91","","","","","M","20","","","","95.87","","","","-26","","NA"
"-100.88","61.13","ENNADAI LAKE (AUT)","2301102","2012-02-14 21:00","2012","02","14","21:00","-16.4","","-17.7","","90","","","","","M","19","","","","95.90","","","","-26","","NA"
"-100.88","61.13","ENNADAI LAKE (AUT)","2301102","2012-02-14 22:00","2012","02","14","22:00","-16.7","","-18.5","","86","","","","","M","32","","","","95.90","","","","-29","","NA"
"-100.88","61.13","ENNADAI LAKE (AUT)","2301102","2012-02-14 23:00","2012","02","14","23:00","-17.1","","-18.8","","87","","","","","M","22","","","","95.95","","","","-27","","NA"
"-100.88","61.13","ENNADAI LAKE (AUT)","2301102","2012-02-15 00:00","2012","02","15","00:00","-16.7","","-18.4","","87","","","","","M","20","","","","95.98","","","","-26","","NA"
"-100.88","61.13","ENNADAI LAKE (AUT)","2301102","2012-02-15 01:00","2012","02","15","01:00","-16.7","","-18.4","","87","","","","","M","28","","","","96.04","","","","-28","","NA"
"-100.88","61.13","ENNADAI LAKE (AUT)","2301102","2012-02-15 02:00","2012","02","15","02:00","-17.2","","-18.8","","87","","","","","M","32","","","","96.08","","","","-29","","NA"
"-100.88","61.13","ENNADAI LAKE (AUT)","2301102","2012-02-15 03:00","2012","02","15","03:00","-17.2","","-19.1","","85","","","","","M","35","","","","96.11","","","","-30","","NA"
"-100.88","61.13","ENNADAI LAKE (AUT)","2301102","2012-02-15 04:00","2012","02","15","04:00","-17.9","","-19.8","","85","","","","","M","41","","","","96.18","","","","-31","","NA"
"-100.88","61.13","ENNADAI LAKE (AUT)","2301102","2012-02-15 05:00","2012","02","15","05:00","-19.1","","-21.1","","84","","","","","M","35","","","","96.24","","","","-32","","NA"
"-100.88","61.13","ENNADAI LAKE (AUT)","2301102","2012-02-15 06:00","2012","02","15","06:00","-20.6","","-22.5","","85","","","","","M","32","","","","96.28","","","","-34","","NA"
"-100.88","61.13","ENNADAI LAKE (AUT)","2301102","2012-02-15 07:00","2012","02","15","07:00","-21.2","","-23.0","","85","","","","","M","30","","","","96.33","","","","-34","","NA"
"-100.88","61.13","ENNADAI LAKE (AUT)","2301102","2012-02-15 08:00","2012","02","15","08:00","-22.4","","-24.1","","86","","","","","M","28","","","","96.35","","","","-35","","NA"
"-100.88","61.13","ENNADAI LAKE (AUT)","2301102","2012-02-15 09:00","2012","02","15","09:00","-22.0","","-23.7","","86","","","","","M","22","","","","96.43","","","","-34","","NA"
"-100.88","61.13","ENNADAI LAKE (AUT)","2301102","2012-02-15 10:00","2012","02","15","10:00","-20.6","","-22.4","","85","","","","","M","30","","","","96.50","","","","-33","","NA"
"-100.88","61.13","ENNADAI LAKE (AUT)","2301102","2012-02-15 11:00","2012","02","15","11:00","-20.6","","-22.6","","84","","","","","M","35","","","","96.56","","","","-34","","NA"
"-100.88","61.13","ENNADAI LAKE (AUT)","2301102","2012-02-15 12:00","2012","02","15","12:00","-20.6","","-22.9","","82","","","","","M","33","","","","96.64","","","","-34","","NA"
"-100.88","61.13","ENNADAI LAKE (AUT)","2301102","2012-02-15 13:00","2012","02","15","13:00","-20.6","","-23.2","","80","","","","","M","20","","","","96.68","","","","-31","","NA"
"-100.88","61.13","ENNADAI LAKE (AUT)","2301102","2012-02-15 14:00","2012","02","15","14:00","-20.4","","-23.2","","78","","","","","M","22","","","","96.73","","","","-31","","NA"
"-100.88","61.13","ENNADAI LAKE (AUT)","2301102","2012-02-15 15:00","2012","02","15","15:00","-20.2","","-23.0","","78","","","","","M","19","","","","96.81","","","","-30","","NA"
"-100.88","61.13","ENNADAI LAKE (AUT)","2301102","2012-02-15 16:00","2012","02","15","16:00","-20.1","","-22.6","","80","","","","","M","24","","","","96.86","","","","-32","","NA"
"-100.88","61.13","ENNADAI LAKE (AUT)","2301102","2012-02-15 17:00","2012","02","15","17:00","-20.3","","-22.6","","82","","","","","M","19","","","","96.91","","","","-31","","NA"
"-100.88","61.13","ENNADAI LAKE (AUT)","2301102","2012-02-15 18:00","2012","02","15","18:00","-21.0","","-22.9","","85","","","","","M","11","","","","96.96","","","","-29","","NA"
"-100.88","61.13","ENNADAI LAKE (AUT)","2301102","2012-02-15 19:00","2012","02","15","19:00","-19.9","","-21.6","","86","","","","","M","7","","","","97.00","","","","-26","","NA"
"-100.88","61.13","ENNADAI LAKE (AUT)","2301102","2012-02-15 20:00","2012","02","15","20:00","-18.4","","-20.2","","86","","","","","M","17","","","","97.01","","","","-28","","NA"
"-100.88","61.13","ENNADAI LAKE (AUT)","2301102","2012-02-15 21:00","2012","02","15","21:00","-18.2","","-20.0","","86","","","","","M","15","","","","97.03","","","","-27","","NA"
"-100.88","61.13","ENNADAI LAKE (AUT)","2301102","2012-02-15 22:00","2012","02","15","22:00","-17.7","","-19.6","","85","","","","","M","19","","","","97.03","","","","-27","","NA"
"-100.88","61.13","ENNADAI LAKE (AUT)","2301102","2012-02-15 23:00","2012","02","15","23:00","-17.3","","-19.1","","86","","","","","M","19","","","","97.08","","","","-27","","NA"
"-100.88","61.13","ENNADAI LAKE (AUT)","2301102","2012-02-16 00:00","2012","02","16","00:00","-17.2","","-19.0","","86","","","","","M","20","","","","97.11","","","","-27","","NA"
"-100.88","61.13","ENNADAI LAKE (AUT)","2301102","2012-02-16 01:00","2012","02","16","01:00","-17.1","","-19.3","","83","","","","","M","26","","","","97.14","","","","-28","","NA"
"-100.88","61.13","ENNADAI LAKE (AUT)","2301102","2012-02-16 02:00","2012","02","16","02:00","-17.1","","-19.3","","83","","","","","M","26","","","","97.17","","","","-28","","NA"
"-100.88","61.13","ENNADAI LAKE (AUT)","2301102","2012-02-16 03:00","2012","02","16","03:00","-17.2","","-19.6","","82","","","","","M","22","","","","97.21","","","","-27","","NA"
"-100.88","61.13","ENNADAI LAKE (AUT)","2301102","2012-02-16 04:00","2012","02","16","04:00","-17.4","","-19.7","","82","","","","","M","24","","","","97.25","","","","-28","","NA"
"-100.88","61.13","ENNADAI LAKE (AUT)","2301102","2012-02-16 05:00","2012","02","16","05:00","-17.6","","-20.0","","81","","","","","M","15","","","","97.26","","","","-26","","NA"
"-100.88","61.13","ENNADAI LAKE (AUT)","2301102","2012-02-16 06:00","2012","02","16","06:00","-17.7","","-19.8","","84","","","","","M","19","","","","97.31","","","","-27","","NA"
"-100.88","61.13","ENNADAI LAKE (AUT)","2301102","2012-02-16 07:00","2012","02","16","07:00","-17.7","","-19.8","","84","","","","","M","19","","","","97.35","","","","-27","","NA"
"-100.88","61.13","ENNADAI LAKE (AUT)","2301102","2012-02-16 08:00","2012","02","16","08:00","-17.7","","-19.6","","85","","","","","M","19","","","","97.38","","","","-27","","NA"
"-100.88","61.13","ENNADAI LAKE (AUT)","2301102","2012-02-16 09:00","2012","02","16","09:00","-17.5","","-19.4","","85","","","","","M","15","","","","97.38","","","","-26","","NA"
"-100.88","61.13","ENNADAI LAKE (AUT)","2301102","2012-02-16 10:00","2012","02","16","10:00","-17.4","","-19.3","","85","","","","","M","15","","","","97.41","","","","-26","","NA"
"-100.88","61.13","ENNADAI LAKE (AUT)","2301102","2012-02-16 11:00","2012","02","16","11:00","-17.2","","-19.2","","84","","","","","M","15","","","","97.44","","","","-26","","NA"
"-100.88","61.13","ENNADAI LAKE (AUT)","2301102","2012-02-16 12:00","2012","02","16","12:00","-17.0","","-19.0","","84","","","","","M","13","","","","97.47","","","","-25","","NA"
"-100.88","61.13","ENNADAI LAKE (AUT)","2301102","2012-02-16 13:00","2012","02","16","13:00","-16.7","","-19.1","","82","","","","","M","15","","","","97.46","","","","-25","","NA"
"-100.88","61.13","ENNADAI LAKE (AUT)","2301102","2012-02-16 14:00","2012","02","16","14:00","-16.2","","-18.8","","80","","","","","M","19","","","","97.45","","","","-25","","NA"
"-100.88","61.13","ENNADAI LAKE (AUT)","2301102","2012-02-16 15:00","2012","02","16","15:00","-16.4","","-19.1","","80","","","","","M","17","","","","97.48","","","","-25","","NA"
"-100.88","61.13","ENNADAI LAKE (AUT)","2301102","2012-02-16 16:00","2012","02","16","16:00","-16.1","","-18.6","","81","","","","","M","19","","","","97.45","","","","-25","","NA"
"-100.88","61.13","ENNADAI LAKE (AUT)","2301102","2012-02-16 17:00","2012","02","16","17:00","-15.9","","-18.3","","82","","","","","M","20","","","","97.44","","","","-25","","NA"
"-100.88","61.13","ENNADAI LAKE (AUT)","2301102","2012-02-16 18:00","2012","02","16","18:00","-15.8","","-18.3","","81","","","","","M","20","","","","97.44","","","","-25","","NA"
"-100.88","61.13","ENNADAI LAKE (AUT)","2301102","2012-02-16 19:00","2012","02","16","19:00","-16.0","","-18.3","","82","","","","","M","19","","","","97.43","","","","-25","","NA"
"-100.88","61.13","ENNADAI LAKE (AUT)","2301102","2012-02-16 20:00","2012","02","16","20:00","-15.8","","-18.2","","82","","","","","M","20","","","","97.39","","","","-25","","NA"
"-100.88","61.13","ENNADAI LAKE (AUT)","2301102","2012-02-16 21:00","2012","02","16","21:00","-15.6","","-17.8","","83","","","","","M","24","","","","97.37","","","","-26","","NA"
"-100.88","61.13","ENNADAI LAKE (AUT)","2301102","2012-02-16 22:00","2012","02","16","22:00","-15.5","","-17.5","","85","","","","","M","26","","","","97.36","","","","-26","","NA"
"-100.88","61.13","ENNADAI LAKE (AUT)","2301102","2012-02-16 23:00","2012","02","16","23:00","-15.3","","-17.2","","85","","","","","M","20","","","","97.37","","","","-25","","NA"
"-100.88","61.13","ENNADAI LAKE (AUT)","2301102","2012-02-17 00:00","2012","02","17","00:00","-15.0","","-16.9","","85","","","","","M","22","","","","97.40","","","","-25","","NA"
"-100.88","61.13","ENNADAI LAKE (AUT)","2301102","2012-02-17 01:00","2012","02","17","01:00","-14.8","","-16.4","","88","","","","","M","20","","","","97.38","","","","-24","","NA"
"-100.88","61.13","ENNADAI LAKE (AUT)","2301102","2012-02-17 02:00","2012","02","17","02:00","-15.0","","-16.6","","88","","","","","M","20","","","","97.36","","","","-24","","NA"
"-100.88","61.13","ENNADAI LAKE (AUT)","2301102","2012-02-17 03:00","2012","02","17","03:00","-14.8","","-16.3","","88","","","","","M","19","","","","97.35","","","","-24","","NA"
"-100.88","61.13","ENNADAI LAKE (AUT)","2301102","2012-02-17 04:00","2012","02","17","04:00","-14.8","","-16.5","","87","","","","","M","17","","","","97.37","","","","-23","","NA"
"-100.88","61.13","ENNADAI LAKE (AUT)","2301102","2012-02-17 05:00","2012","02","17","05:00","-14.9","","-16.6","","87","","","","","M","13","","","","97.37","","","","-22","","NA"
"-100.88","61.13","ENNADAI LAKE (AUT)","2301102","2012-02-17 06:00","2012","02","17","06:00","-14.8","","-16.5","","87","","","","","M","7","","","","97.37","","","","-20","","NA"
"-100.88","61.13","ENNADAI LAKE (AUT)","2301102","2012-02-17 07:00","2012","02","17","07:00","-14.8","","-16.4","","88","","","","","M","4","","","","97.34","","","","-18","","NA"
"-100.88","61.13","ENNADAI LAKE (AUT)","2301102","2012-02-17 08:00","2012","02","17","08:00","-15.3","","-17.1","","86","","","","","M","9","","","","97.31","","","","-21","","NA"
"-100.88","61.13","ENNADAI LAKE (AUT)","2301102","2012-02-17 09:00","2012","02","17","09:00","-16.1","","-17.8","","87","","","","","M","13","","","","97.22","","","","-24","","NA"
"-100.88","61.13","ENNADAI LAKE (AUT)","2301102","2012-02-17 10:00","2012","02","17","10:00","-16.6","","-18.8","","83","","","","","M","19","","","","97.15","","","","-26","","NA"
"-100.88","61.13","ENNADAI LAKE (AUT)","2301102","2012-02-17 11:00","2012","02","17","11:00","-16.5","","-19.1","","80","","","","","M","17","","","","97.11","","","","-25","","NA"
"-100.88","61.13","ENNADAI LAKE (AUT)","2301102","2012-02-17 12:00","2012","02","17","12:00","-16.2","","-19.4","","76","","","","","M","20","","","","97.07","","","","-26","","NA"
"-100.88","61.13","ENNADAI LAKE (AUT)","2301102","2012-02-17 13:00","2012","02","17","13:00","-16.6","","-19.2","","80","","","","","M","35","","","","96.95","","","","-29","","NA"
"-100.88","61.13","ENNADAI LAKE (AUT)","2301102","2012-02-17 14:00","2012","02","17","14:00","-15.9","","-18.8","","78","","","","","M","24","","","","96.88","","","","-26","","NA"
"-100.88","61.13","ENNADAI LAKE (AUT)","2301102","2012-02-17 15:00","2012","02","17","15:00","-16.0","","-18.9","","78","","","","","M","33","","","","96.74","","","","-28","","NA"
"-100.88","61.13","ENNADAI LAKE (AUT)","2301102","2012-02-17 16:00","2012","02","17","16:00","-15.3","","-17.9","","80","","","","","M","28","","","","96.70","","","","-26","","NA"
"-100.88","61.13","ENNADAI LAKE (AUT)","2301102","2012-02-17 17:00","2012","02","17","17:00","-15.4","","-17.1","","87","","","","","M","28","","","","96.67","","","","-26","","NA"
"-100.88","61.13","ENNADAI LAKE (AUT)","2301102","2012-02-17 18:00","2012","02","17","18:00","-14.3","","-15.8","","88","","","","","M","24","","","","96.62","","","","-24","","NA"
"-100.88","61.13","ENNADAI LAKE (AUT)","2301102","2012-02-17 19:00","2012","02","17","19:00","-13.7","","-15.1","","89","","","","","M","30","","","","96.61","","","","-24","","NA"
"-100.88","61.13","ENNADAI LAKE (AUT)","2301102","2012-02-17 20:00","2012","02","17","20:00","-13.4","","-14.8","","89","","","","","M","28","","","","96.57","","","","-24","","NA"
"-100.88","61.13","ENNADAI LAKE (AUT)","2301102","2012-02-17 21:00","2012","02","17","21:00","-13.0","","-14.4","","89","","","","","M","30","","","","96.54","","","","-23","","NA"
"-100.88","61.13","ENNADAI LAKE (AUT)","2301102","2012-02-17 22:00","2012","02","17","22:00","-12.7","","-14.0","","90","","","","","M","20","","","","96.57","","","","-21","","NA"
"-100.88","61.13","ENNADAI LAKE (AUT)","2301102","2012-02-17 23:00","2012","02","17","23:00","-12.3","","-13.6","","90","","","","","M","19","","","","96.55","","","","-21","","NA"
"-100.88","61.13","ENNADAI LAKE (AUT)","2301102","2012-02-18 00:00","2012","02","18","00:00","-12.2","","-13.3","","91","","","","","M","20","","","","96.48","","","","-21","","NA"
"-100.88","61.13","ENNADAI LAKE (AUT)","2301102","2012-02-18 01:00","2012","02","18","01:00","-12.5","","-13.5","","92","","","","","M","26","","","","96.50","","","","-22","","NA"
"-100.88","61.13","ENNADAI LAKE (AUT)","2301102","2012-02-18 02:00","2012","02","18","02:00","-12.1","","-13.0","","93","","","","","M","22","","","","96.51","","","","-21","","NA"
"-100.88","61.13","ENNADAI LAKE (AUT)","2301102","2012-02-18 03:00","2012","02","18","03:00","-11.9","","-12.9","","92","","","","","M","32","","","","96.46","","","","-22","","NA"
"-100.88","61.13","ENNADAI LAKE (AUT)","2301102","2012-02-18 04:00","2012","02","18","04:00","-11.2","","-11.9","","95","","","","","M","33","","","","96.42","","","","-22","","NA"
"-100.88","61.13","ENNADAI LAKE (AUT)","2301102","2012-02-18 05:00","2012","02","18","05:00","-10.6","","-11.4","","94","","","","","M","30","","","","96.35","","","","-20","","NA"
"-100.88","61.13","ENNADAI LAKE (AUT)","2301102","2012-02-18 06:00","2012","02","18","06:00","-10.1","","-10.9","","94","","","","","M","24","","","","96.29","","","","-19","","NA"
"-100.88","61.13","ENNADAI LAKE (AUT)","2301102","2012-02-18 07:00","2012","02","18","07:00","-10.4","","-11.2","","94","","","","","M","32","","","","96.32","","","","-20","","NA"
"-100.88","61.13","ENNADAI LAKE (AUT)","2301102","2012-02-18 08:00","2012","02","18","08:00","-9.9","","-10.7","","94","","","","","M","33","","","","96.21","","","","-20","","NA"
"-100.88","61.13","ENNADAI LAKE (AUT)","2301102","2012-02-18 09:00","2012","02","18","09:00","-9.9","","-11.0","","92","","","","","M","26","","","","96.15","","","","-19","","NA"
"-100.88","61.13","ENNADAI LAKE (AUT)","2301102","2012-02-18 10:00","2012","02","18","10:00","-9.5","","-10.8","","90","","","","","M","32","","","","96.07","","","","-19","","NA"
"-100.88","61.13","ENNADAI LAKE (AUT)","2301102","2012-02-18 11:00","2012","02","18","11:00","-9.4","","-10.7","","90","","","","","M","39","","","","95.97","","","","-20","","NA"
"-100.88","61.13","ENNADAI LAKE (AUT)","2301102","2012-02-18 12:00","2012","02","18","12:00","-9.9","","-10.9","","92","","","","","M","44","","","","95.94","","","","-21","","NA"
"-100.88","61.13","ENNADAI LAKE (AUT)","2301102","2012-02-18 13:00","2012","02","18","13:00","-9.4","","-10.6","","91","","","","","M","39","","","","95.93","","","","-20","","NA"
"-100.88","61.13","ENNADAI LAKE (AUT)","2301102","2012-02-18 14:00","2012","02","18","14:00","-8.8","","-9.9","","92","","","","","M","33","","","","95.98","","","","-18","","NA"
"-100.88","61.13","ENNADAI LAKE (AUT)","2301102","2012-02-18 15:00","2012","02","18","15:00","-8.8","","-9.9","","92","","","","","M","39","","","","96.04","","","","-19","","NA"
"-100.88","61.13","ENNADAI LAKE (AUT)","2301102","2012-02-18 16:00","2012","02","18","16:00","-11.5","","-13.2","","87","","","","","M","41","","","","96.17","","","","-23","","NA"
"-100.88","61.13","ENNADAI LAKE (AUT)","2301102","2012-02-18 17:00","2012","02","18","17:00","-15.0","","-17.0","","85","","","","","M","43","","","","96.26","","","","-28","","NA"
"-100.88","61.13","ENNADAI LAKE (AUT)","2301102","2012-02-18 18:00","2012","02","18","18:00","-17.3","","-19.5","","83","","","","","M","39","","","","96.40","","","","-30","","NA"
"-100.88","61.13","ENNADAI LAKE (AUT)","2301102","2012-02-18 19:00","2012","02","18","19:00","-18.9","","-20.6","","86","","","","","M","48","","","","96.48","","","","-34","","NA"
"-100.88","61.13","ENNADAI LAKE (AUT)","2301102","2012-02-18 20:00","2012","02","18","20:00","-19.5","","-21.4","","85","","","","","M","41","","","","96.54","","","","-34","","NA"
"-100.88","61.13","ENNADAI LAKE (AUT)","2301102","2012-02-18 21:00","2012","02","18","21:00","-19.6","","-21.4","","86","","","","","M","43","","","","96.58","","","","-34","","NA"
"-100.88","61.13","ENNADAI LAKE (AUT)","2301102","2012-02-18 22:00","2012","02","18","22:00","-19.9","","-21.7","","86","","","","","M","35","","","","96.63","","","","-33","","NA"
"-100.88","61.13","ENNADAI LAKE (AUT)","2301102","2012-02-18 23:00","2012","02","18","23:00","-21.1","","-23.2","","83","","","","","M","35","","","","96.72","","","","-35","","NA"
"-100.88","61.13","ENNADAI LAKE (AUT)","2301102","2012-02-19 00:00","2012","02","19","00:00","-21.7","","-23.8","","83","","","","","M","33","","","","96.79","","","","-35","","NA"
"-100.88","61.13","ENNADAI LAKE (AUT)","2301102","2012-02-19 01:00","2012","02","19","01:00","-22.0","","-24.2","","82","","","","","M","44","","","","96.82","","","","-37","","NA"
"-100.88","61.13","ENNADAI LAKE (AUT)","2301102","2012-02-19 02:00","2012","02","19","02:00","-23.4","","-25.8","","81","","","","","M","48","","","","96.92","","","","-40","","NA"
"-100.88","61.13","ENNADAI LAKE (AUT)","2301102","2012-02-19 03:00","2012","02","19","03:00","-25.8","","-28.4","","79","","","","","M","43","","","","97.01","","","","-42","","NA"
"-100.88","61.13","ENNADAI LAKE (AUT)","2301102","2012-02-19 04:00","2012","02","19","04:00","-26.5","","-29.0","","79","","","","","M","43","","","","97.07","","","","-43","","NA"
"-100.88","61.13","ENNADAI LAKE (AUT)","2301102","2012-02-19 05:00","2012","02","19","05:00","-27.0","","-29.5","","79","","","","","M","32","","","","97.14","","","","-42","","NA"
"-100.88","61.13","ENNADAI LAKE (AUT)","2301102","2012-02-19 06:00","2012","02","19","06:00","-27.6","","-30.0","","80","","","","","M","28","","","","97.21","","","","-42","","NA"
"-100.88","61.13","ENNADAI LAKE (AUT)","2301102","2012-02-19 07:00","2012","02","19","07:00","-28.1","","-30.6","","79","","","","","M","30","","","","97.28","","","","-43","","NA"
"-100.88","61.13","ENNADAI LAKE (AUT)","2301102","2012-02-19 08:00","2012","02","19","08:00","-28.7","","-31.3","","78","","","","","M","26","","","","97.30","","","","-43","","NA"
"-100.88","61.13","ENNADAI LAKE (AUT)","2301102","2012-02-19 09:00","2012","02","19","09:00","-29.1","","-31.8","","77","","","","","M","30","","","","97.34","","","","-44","","NA"
"-100.88","61.13","ENNADAI LAKE (AUT)","2301102","2012-02-19 10:00","2012","02","19","10:00","-29.0","","-31.8","","77","","","","","M","26","","","","97.40","","","","-43","","NA"
"-100.88","61.13","ENNADAI LAKE (AUT)","2301102","2012-02-19 11:00","2012","02","19","11:00","-28.1","","-31.0","","76","","","","","M","28","","","","97.40","","","","-43","","NA"
"-100.88","61.13","ENNADAI LAKE (AUT)","2301102","2012-02-19 12:00","2012","02","19","12:00","-27.6","","-30.6","","76","","","","","M","22","","","","97.46","","","","-41","","NA"
"-100.88","61.13","ENNADAI LAKE (AUT)","2301102","2012-02-19 13:00","2012","02","19","13:00","-27.2","","-30.3","","75","","","","","M","17","","","","97.52","","","","-39","","NA"
"-100.88","61.13","ENNADAI LAKE (AUT)","2301102","2012-02-19 14:00","2012","02","19","14:00","-26.8","","-29.8","","76","","","","","M","20","","","","97.57","","","","-39","","NA"
"-100.88","61.13","ENNADAI LAKE (AUT)","2301102","2012-02-19 15:00","2012","02","19","15:00","-26.8","","-29.8","","76","","","","","M","28","","","","97.59","","","","-41","","NA"
"-100.88","61.13","ENNADAI LAKE (AUT)","2301102","2012-02-19 16:00","2012","02","19","16:00","-26.7","","-29.8","","75","","","","","M","13","","","","97.65","","","","-37","","NA"
"-100.88","61.13","ENNADAI LAKE (AUT)","2301102","2012-02-19 17:00","2012","02","19","17:00","-27.5","","-30.4","","76","","","","","M","13","","","","97.67","","","","-38","","NA"
"-100.88","61.13","ENNADAI LAKE (AUT)","2301102","2012-02-19 18:00","2012","02","19","18:00"
"-100.88","61.13","ENNADAI LAKE (AUT)","2301102","2012-02-19 19:00","2012","02","19","19:00","-29.2","","-31.7","","79","","","","","M","24","","","","97.69","","","","-43","","NA"
"-100.88","61.13","ENNADAI LAKE (AUT)","2301102","2012-02-19 20:00","2012","02","19","20:00","-29.8","","-32.3","","79","","","","","M","15","","","","97.74","","","","-41","","NA"
"-100.88","61.13","ENNADAI LAKE (AUT)","2301102","2012-02-19 21:00","2012","02","19","21:00","-30.4","","-32.9","","79","","","","","M","13","","","","97.78","","","","-41","","NA"
"-100.88","61.13","ENNADAI LAKE (AUT)","2301102","2012-02-19 22:00","2012","02","19","22:00","-30.5","","-33.1","","78","","","","","M","11","","","","97.78","","","","-40","","NA"
"-100.88","61.13","ENNADAI LAKE (AUT)","2301102","2012-02-19 23:00","2012","02","19","23:00","-31.0","","-33.6","","78","","","","","M","13","","","","97.78","","","","-42","","NA"
"-100.88","61.13","ENNADAI LAKE (AUT)","2301102","2012-02-20 00:00","2012","02","20","00:00","-31.1","","-33.7","","78","","","","","M","17","","","","97.78","","","","-44","","NA"
"-100.88","61.13","ENNADAI LAKE (AUT)","2301102","2012-02-20 01:00","2012","02","20","01:00","-31.2","","-33.9","","77","","","","","M","11","","","","97.78","","","","-41","","NA"
"-100.88","61.13","ENNADAI LAKE (AUT)","2301102","2012-02-20 02:00","2012","02","20","02:00","-30.9","","-33.5","","78","","","","","M","17","","","","97.79","","","","-43","","NA"
"-100.88","61.13","ENNADAI LAKE (AUT)","2301102","2012-02-20 03:00","2012","02","20","03:00","-30.6","","-33.2","","78","","","","","M","17","","","","97.78","","","","-43","","NA"
"-100.88","61.13","ENNADAI LAKE (AUT)","2301102","2012-02-20 04:00","2012","02","20","04:00","-30.8","","-33.5","","77","","","","","M","6","","","","97.81","","","","-37","","NA"
"-100.88","61.13","ENNADAI LAKE (AUT)","2301102","2012-02-20 05:00","2012","02","20","05:00","-31.0","","-33.7","","77","","","","","M","7","","","","97.79","","","","-38","","NA"
"-100.88","61.13","ENNADAI LAKE (AUT)","2301102","2012-02-20 06:00","2012","02","20","06:00","-31.6","","-34.4","","76","","","","","M","7","","","","97.78","","","","-39","","NA"
"-100.88","61.13","ENNADAI LAKE (AUT)","2301102","2012-02-20 07:00","2012","02","20","07:00","-31.8","","-34.5","","77","","","","","M","15","","","","97.77","","","","-44","","NA"
"-100.88","61.13","ENNADAI LAKE (AUT)","2301102","2012-02-20 08:00","2012","02","20","08:00","-31.6","","-34.3","","77","","","","","M","15","","","","97.77","","","","-43","","NA"
"-100.88","61.13","ENNADAI LAKE (AUT)","2301102","2012-02-20 09:00","2012","02","20","09:00","-31.2","","-33.8","","78","","","","","M","17","","","","97.76","","","","-44","","NA"
"-100.88","61.13","ENNADAI LAKE (AUT)","2301102","2012-02-20 10:00","2012","02","20","10:00"
"-100.88","61.13","ENNADAI LAKE (AUT)","2301102","2012-02-20 11:00","2012","02","20","11:00","-29.6","","-32.3","","77","","","","","M","13","","","","97.72","","","","-40","","NA"
"-100.88","61.13","ENNADAI LAKE (AUT)","2301102","2012-02-20 12:00","2012","02","20","12:00","-28.5","","-31.3","","77","","","","","M","13","","","","97.70","","","","-39","","NA"
"-100.88","61.13","ENNADAI LAKE (AUT)","2301102","2012-02-20 13:00","2012","02","20","13:00","-27.9","","-30.6","","78","","","","","M","11","","","","97.67","","","","-37","","NA"
"-100.88","61.13","ENNADAI LAKE (AUT)","2301102","2012-02-20 14:00","2012","02","20","14:00","-27.0","","-30.1","","75","","","","","M","11","","","","97.63","","","","-36","","NA"
"-100.88","61.13","ENNADAI LAKE (AUT)","2301102","2012-02-20 15:00","2012","02","20","15:00","-26.3","","-29.3","","76","","","","","M","17","","","","97.59","","","","-38","","NA"
"-100.88","61.13","ENNADAI LAKE (AUT)","2301102","2012-02-20 16:00","2012","02","20","16:00","-26.0","","-28.6","","79","","","","","M","17","","","","97.56","","","","-37","","NA"
"-100.88","61.13","ENNADAI LAKE (AUT)","2301102","2012-02-20 17:00","2012","02","20","17:00","-25.9","","-28.3","","80","","","","","M","20","","","","97.51","","","","-38","","NA"
"-100.88","61.13","ENNADAI LAKE (AUT)","2301102","2012-02-20 18:00","2012","02","20","18:00","-26.7","","-29.0","","81","","","","","M","24","","","","97.50","","","","-40","","NA"
"-100.88","61.13","ENNADAI LAKE (AUT)","2301102","2012-02-20 19:00","2012","02","20","19:00","-26.9","","-29.2","","81","","","","","M","24","","","","97.45","","","","-40","","NA"
"-100.88","61.13","ENNADAI LAKE (AUT)","2301102","2012-02-20 20:00","2012","02","20","20:00","-27.0","","-29.3","","81","","","","","M","19","","","","97.43","","","","-39","","NA"
"-100.88","61.13","ENNADAI LAKE (AUT)","2301102","2012-02-20 21:00","2012","02","20","21:00","-26.2","","-28.5","","81","","","","","M","28","","","","97.34","","","","-40","","NA"
"-100.88","61.13","ENNADAI LAKE (AUT)","2301102","2012-02-20 22:00","2012","02","20","22:00","-26.3","","-28.6","","81","","","","","M","35","","","","97.24","","","","-42","","NA"
"-100.88","61.13","ENNADAI LAKE (AUT)","2301102","2012-02-20 23:00","2012","02","20","23:00","-26.1","","-28.5","","80","","","","","M","28","","","","97.20","","","","-40","","NA"
"-100.88","61.13","ENNADAI LAKE (AUT)","2301102","2012-02-21 00:00","2012","02","21","00:00","-26.0","","-28.3","","81","","","","","M","17","","","","97.18","","","","-37","","NA"
"-100.88","61.13","ENNADAI LAKE (AUT)","2301102","2012-02-21 01:00","2012","02","21","01:00","-25.7","","-28.1","","80","","","","","M","24","","","","97.13","","","","-39","","NA"
"-100.88","61.13","ENNADAI LAKE (AUT)","2301102","2012-02-21 02:00","2012","02","21","02:00"
"-100.88","61.13","ENNADAI LAKE (AUT)","2301102","2012-02-21 03:00","2012","02","21","03:00","-24.7","","-27.5","","77","","","","","M","19","","","","97.01","","","","-36","","NA"
"-100.88","61.13","ENNADAI LAKE (AUT)","2301102","2012-02-21 04:00","2012","02","21","04:00","-24.1","","-26.9","","78","","","","","M","26","","","","96.90","","","","-37","","NA"
"-100.88","61.13","ENNADAI LAKE (AUT)","2301102","2012-02-21 05:00","2012","02","21","05:00","-23.6","","-26.4","","78","","","","","M","33","","","","96.77","","","","-38","","NA"
"-100.88","61.13","ENNADAI LAKE (AUT)","2301102","2012-02-21 06:00","2012","02","21","06:00","-23.1","","-25.6","","80","","","","","M","41","","","","96.63","","","","-38","","NA"
"-100.88","61.13","ENNADAI LAKE (AUT)","2301102","2012-02-21 07:00","2012","02","21","07:00","-23.0","","-25.2","","82","","","","","M","43","","","","96.55","","","","-39","","NA"
"-100.88","61.13","ENNADAI LAKE (AUT)","2301102","2012-02-21 08:00","2012","02","21","08:00","-22.6","","-24.7","","83","","","","","M","50","","","","96.40","","","","-39","","NA"
"-100.88","61.13","ENNADAI LAKE (AUT)","2301102","2012-02-21 09:00","2012","02","21","09:00","-22.3","","-24.3","","84","","","","","M","48","","","","96.34","","","","-38","","NA"
"-100.88","61.13","ENNADAI LAKE (AUT)","2301102","2012-02-21 10:00","2012","02","21","10:00","-22.1","","-24.1","","84","","","","","M","48","","","","96.31","","","","-38","","NA"
"-100.88","61.13","ENNADAI LAKE (AUT)","2301102","2012-02-21 11:00","2012","02","21","11:00","-21.9","","-23.8","","85","","","","","M","44","","","","96.26","","","","-37","","NA"
"-100.88","61.13","ENNADAI LAKE (AUT)","2301102","2012-02-21 12:00","2012","02","21","12:00","-21.5","","-23.3","","85","","","","","M","37","","","","96.25","","","","-36","","NA"
"-100.88","61.13","ENNADAI LAKE (AUT)","2301102","2012-02-21 13:00","2012","02","21","13:00","-20.9","","-22.7","","85","","","","","M","39","","","","96.13","","","","-35","","NA"
"-100.88","61.13","ENNADAI LAKE (AUT)","2301102","2012-02-21 14:00","2012","02","21","14:00","-19.9","","-21.6","","86","","","","","M","41","","","","96.05","","","","-34","","NA"
"-100.88","61.13","ENNADAI LAKE (AUT)","2301102","2012-02-21 15:00","2012","02","21","15:00","-20.0","","-21.7","","86","","","","","M","37","","","","95.98","","","","-34","","NA"
"-100.88","61.13","ENNADAI LAKE (AUT)","2301102","2012-02-21 16:00","2012","02","21","16:00","-19.4","","-21.0","","87","","","","","M","41","","","","95.91","","","","-33","","NA"
"-100.88","61.13","ENNADAI LAKE (AUT)","2301102","2012-02-21 17:00","2012","02","21","17:00","-19.4","","-21.0","","87","","","","","M","43","","","","95.86","","","","-34","","NA"
"-100.88","61.13","ENNADAI LAKE (AUT)","2301102","2012-02-21 18:00","2012","02","21","18:00","-19.3","","-20.9","","87","","","","","M","44","","","","95.84","","","","-34","","NA"
"-100.88","61.13","ENNADAI LAKE (AUT)","2301102","2012-02-21 19:00","2012","02","21","19:00","-19.2","","-20.8","","87","","","","","M","32","","","","95.84","","","","-32","","NA"
"-100.88","61.13","ENNADAI LAKE (AUT)","2301102","2012-02-21 20:00","2012","02","21","20:00","-20.0","","-21.7","","86","","","","","M","35","","","","95.79","","","","-33","","NA"
"-100.88","61.13","ENNADAI LAKE (AUT)","2301102","2012-02-21 21:00","2012","02","21","21:00","-20.4","","-22.1","","86","","","","","M","26","","","","95.78","","","","-32","","NA"
"-100.88","61.13","ENNADAI LAKE (AUT)","2301102","2012-02-21 22:00","2012","02","21","22:00","-19.6","","-21.3","","86","","","","","M","30","","","","95.75","","","","-32","","NA"
"-100.88","61.13","ENNADAI LAKE (AUT)","2301102","2012-02-21 23:00","2012","02","21","23:00","-19.7","","-21.3","","87","","","","","M","28","","","","95.71","","","","-32","","NA"
"-100.88","61.13","ENNADAI LAKE (AUT)","2301102","2012-02-22 00:00","2012","02","22","00:00","-19.5","","-21.1","","87","","","","","M","22","","","","95.69","","","","-30","","NA"
"-100.88","61.13","ENNADAI LAKE (AUT)","2301102","2012-02-22 01:00","2012","02","22","01:00","-19.2","","-20.8","","87","","","","","M","22","","","","95.65","","","","-30","","NA"
"-100.88","61.13","ENNADAI LAKE (AUT)","2301102","2012-02-22 02:00","2012","02","22","02:00","-19.8","","-21.5","","86","","","","","M","22","","","","95.63","","","","-31","","NA"
"-100.88","61.13","ENNADAI LAKE (AUT)","2301102","2012-02-22 03:00","2012","02","22","03:00","-20.8","","-22.5","","86","","","","","M","20","","","","95.63","","","","-31","","NA"
"-100.88","61.13","ENNADAI LAKE (AUT)","2301102","2012-02-22 04:00","2012","02","22","04:00","-20.3","","-22.0","","86","","","","","M","20","","","","95.61","","","","-31","","NA"
"-100.88","61.13","ENNADAI LAKE (AUT)","2301102","2012-02-22 05:00","2012","02","22","05:00","-20.3","","-22.0","","86","","","","","M","22","","","","95.57","","","","-31","","NA"
"-100.88","61.13","ENNADAI LAKE (AUT)","2301102","2012-02-22 06:00","2012","02","22","06:00","-21.7","","-23.5","","85","","","","","M","15","","","","95.58","","","","-31","","NA"
"-100.88","61.13","ENNADAI LAKE (AUT)","2301102","2012-02-22 07:00","2012","02","22","07:00","-22.7","","-24.6","","84","","","","","M","17","","","","95.58","","","","-33","","NA"
"-100.88","61.13","ENNADAI LAKE (AUT)","2301102","2012-02-22 08:00","2012","02","22","08:00","-23.2","","-25.2","","84","","","","","M","15","","","","95.57","","","","-33","","NA"
"-100.88","61.13","ENNADAI LAKE (AUT)","2301102","2012-02-22 09:00","2012","02","22","09:00","-22.2","","-23.9","","86","","","","","M","4","","","","95.60","","","","-26","","NA"
"-100.88","61.13","ENNADAI LAKE (AUT)","2301102","2012-02-22 10:00","2012","02","22","10:00","-22.6","","-24.4","","85","","","","","M","11","","","","95.61","","","","-31","","NA"
"-100.88","61.13","ENNADAI LAKE (AUT)","2301102","2012-02-22 11:00","2012","02","22","11:00","-22.0","","-23.8","","85","","","","","M","13","","","","95.59","","","","-31","","NA"
"-100.88","61.13","ENNADAI LAKE (AUT)","2301102","2012-02-22 12:00","2012","02","22","12:00","-20.3","","-22.0","","86","","","","","M","17","","","","95.60","","","","-30","","NA"
"-100.88","61.13","ENNADAI LAKE (AUT)","2301102","2012-02-22 13:00","2012","02","22","13:00","-19.4","","-21.0","","87","","","","","M","7","","","","95.63","","","","-25","","NA"
"-100.88","61.13","ENNADAI LAKE (AUT)","2301102","2012-02-22 14:00","2012","02","22","14:00","-18.7","","-20.3","","87","","","","","M","19","","","","95.63","","","","-29","","NA"
"-100.88","61.13","ENNADAI LAKE (AUT)","2301102","2012-02-22 15:00","2012","02","22","15:00","-18.3","","-19.8","","88","","","","","M","17","","","","95.64","","","","-28","","NA"
"-100.88","61.13","ENNADAI LAKE (AUT)","2301102","2012-02-22 16:00","2012","02","22","16:00","-17.9","","-19.4","","88","","","","","M","13","","","","95.70","","","","-26","","NA"
"-100.88","61.13","ENNADAI LAKE (AUT)","2301102","2012-02-22 17:00","2012","02","22","17:00","-17.7","","-19.2","","88","","","","","M","7","","","","95.77","","","","-23","","NA"
"-100.88","61.13","ENNADAI LAKE (AUT)","2301102","2012-02-22 18:00","2012","02","22","18:00","-17.9","","-19.4","","88","","","","","M","7","","","","95.82","","","","-23","","NA"
"-100.88","61.13","ENNADAI LAKE (AUT)","2301102","2012-02-22 19:00","2012","02","22","19:00","-17.8","","-19.3","","88","","","","","M","9","","","","95.86","","","","-24","","NA"
"-100.88","61.13","ENNADAI LAKE (AUT)","2301102","2012-02-22 20:00","2012","02","22","20:00","-17.7","","-19.2","","88","","","","","M","7","","","","95.89","","","","-23","","NA"
"-100.88","61.13","ENNADAI LAKE (AUT)","2301102","2012-02-22 21:00","2012","02","22","21:00","-17.3","","-18.8","","88","","","","","M","6","","","","95.91","","","","-22","","NA"
"-100.88","61.13","ENNADAI LAKE (AUT)","2301102","2012-02-22 22:00","2012","02","22","22:00","-17.2","","-18.6","","89","","","","","M","4","","","","95.96","","","","-20","","NA"
"-100.88","61.13","ENNADAI LAKE (AUT)","2301102","2012-02-22 23:00","2012","02","22","23:00","-17.5","","-18.9","","89","","","","","M","6","","","","95.99","","","","-22","","NA"
"-100.88","61.13","ENNADAI LAKE (AUT)","2301102","2012-02-23 00:00","2012","02","23","00:00","-17.4","","-18.8","","89","","","","","M","6","","","","96.03","","","","-22","","NA"
"-100.88","61.13","ENNADAI LAKE (AUT)","2301102","2012-02-23 01:00","2012","02","23","01:00","-17.0","","-18.4","","89","","","","","M","13","","","","96.06","","","","-25","","NA"
"-100.88","61.13","ENNADAI LAKE (AUT)","2301102","2012-02-23 02:00","2012","02","23","02:00","-17.3","","-18.8","","88","","","","","M","20","","","","96.13","","","","-27","","NA"
"-100.88","61.13","ENNADAI LAKE (AUT)","2301102","2012-02-23 03:00","2012","02","23","03:00","-17.6","","-19.1","","88","","","","","M","20","","","","96.20","","","","-27","","NA"
"-100.88","61.13","ENNADAI LAKE (AUT)","2301102","2012-02-23 04:00","2012","02","23","04:00","-19.1","","-20.7","","87","","","","","M","17","","","","96.25","","","","-29","","NA"
"-100.88","61.13","ENNADAI LAKE (AUT)","2301102","2012-02-23 05:00","2012","02","23","05:00","-19.8","","-21.4","","87","","","","","M","15","","","","96.30","","","","-29","","NA"
"-100.88","61.13","ENNADAI LAKE (AUT)","2301102","2012-02-23 06:00","2012","02","23","06:00","-19.6","","-21.2","","87","","","","","M","20","","","","96.33","","","","-30","","NA"
"-100.88","61.13","ENNADAI LAKE (AUT)","2301102","2012-02-23 07:00","2012","02","23","07:00","-19.3","","-20.9","","87","","","","","M","11","","","","96.39","","","","-27","","NA"
"-100.88","61.13","ENNADAI LAKE (AUT)","2301102","2012-02-23 08:00","2012","02","23","08:00","-19.0","","-20.6","","87","","","","","M","15","","","","96.44","","","","-28","","NA"
"-100.88","61.13","ENNADAI LAKE (AUT)","2301102","2012-02-23 09:00","2012","02","23","09:00","-19.1","","-20.7","","87","","","","","M","19","","","","96.49","","","","-29","","NA"
"-100.88","61.13","ENNADAI LAKE (AUT)","2301102","2012-02-23 10:00","2012","02","23","10:00","-19.0","","-20.6","","87","","","","","M","20","","","","96.53","","","","-29","","NA"
"-100.88","61.13","ENNADAI LAKE (AUT)","2301102","2012-02-23 11:00","2012","02","23","11:00","-20.3","","-22.0","","86","","","","","M","19","","","","96.59","","","","-31","","NA"
"-100.88","61.13","ENNADAI LAKE (AUT)","2301102","2012-02-23 12:00","2012","02","23","12:00","-20.3","","-22.0","","86","","","","","M","20","","","","96.64","","","","-31","","NA"
"-100.88","61.13","ENNADAI LAKE (AUT)","2301102","2012-02-23 13:00","2012","02","23","13:00","-20.7","","-22.5","","85","","","","","M","19","","","","96.71","","","","-31","","NA"
"-100.88","61.13","ENNADAI LAKE (AUT)","2301102","2012-02-23 14:00","2012","02","23","14:00","-20.2","","-22.0","","85","","","","","M","13","","","","96.75","","","","-29","","NA"
"-100.88","61.13","ENNADAI LAKE (AUT)","2301102","2012-02-23 15:00","2012","02","23","15:00","-19.8","","-21.6","","86","","","","","M","19","","","","96.78","","","","-30","","NA"
"-100.88","61.13","ENNADAI LAKE (AUT)","2301102","2012-02-23 16:00","2012","02","23","16:00","-19.8","","-21.7","","85","","","","","M","20","","","","96.85","","","","-30","","NA"
"-100.88","61.13","ENNADAI LAKE (AUT)","2301102","2012-02-23 17:00","2012","02","23","17:00","-20.2","","-22.1","","85","","","","","M","20","","","","96.91","","","","-31","","NA"
"-100.88","61.13","ENNADAI LAKE (AUT)","2301102","2012-02-23 18:00","2012","02","23","18:00","-20.8","","-22.7","","85","","","","","M","19","","","","96.94","","","","-31","","NA"
"-100.88","61.13","ENNADAI LAKE (AUT)","2301102","2012-02-23 19:00","2012","02","23","19:00","-20.9","","-22.7","","85","","","","","M","22","","","","96.96","","","","-32","","NA"
"-100.88","61.13","ENNADAI LAKE (AUT)","2301102","2012-02-23 20:00","2012","02","23","20:00","-20.8","","-22.7","","85","","","","","M","24","","","","96.98","","","","-32","","NA"
"-100.88","61.13","ENNADAI LAKE (AUT)","2301102","2012-02-23 21:00","2012","02","23","21:00","-24.6","","-26.8","","82","","","","","M","39","","","","97.06","","","","-40","","NA"
"-100.88","61.13","ENNADAI LAKE (AUT)","2301102","2012-02-23 22:00","2012","02","23","22:00","-26.9","","-29.3","","80","","","","","M","33","","","","97.10","","","","-42","","NA"
"-100.88","61.13","ENNADAI LAKE (AUT)","2301102","2012-02-23 23:00","2012","02","23","23:00","-28.4","","-30.9","","79","","","","","M","33","","","","97.16","","","","-44","","NA"
"-100.88","61.13","ENNADAI LAKE (AUT)","2301102","2012-02-24 00:00","2012","02","24","00:00","-29.7","","-32.4","","77","","","","","M","30","","","","97.24","","","","-45","","NA"
"-100.88","61.13","ENNADAI LAKE (AUT)","2301102","2012-02-24 01:00","2012","02","24","01:00","-30.4","","-33.1","","77","","","","","M","30","","","","97.25","","","","-46","","NA"
"-100.88","61.13","ENNADAI LAKE (AUT)","2301102","2012-02-24 02:00","2012","02","24","02:00","-30.8","","-33.6","","76","","","","","M","35","","","","97.30","","","","-48","","NA"
"-100.88","61.13","ENNADAI LAKE (AUT)","2301102","2012-02-24 03:00","2012","02","24","03:00","-31.4","","-34.2","","76","","","","","M","35","","","","97.33","","","","-48","","NA"
"-100.88","61.13","ENNADAI LAKE (AUT)","2301102","2012-02-24 04:00","2012","02","24","04:00","-31.8","","-34.7","","75","","","","","M","32","","","","97.40","","","","-48","","NA"
"-100.88","61.13","ENNADAI LAKE (AUT)","2301102","2012-02-24 05:00","2012","02","24","05:00","-32.0","","-34.9","","75","","","","","M","35","","","","97.45","","","","-49","","NA"
"-100.88","61.13","ENNADAI LAKE (AUT)","2301102","2012-02-24 06:00","2012","02","24","06:00","-32.1","","-35.0","","75","","","","","M","44","","","","97.48","","","","-51","","NA"
"-100.88","61.13","ENNADAI LAKE (AUT)","2301102","2012-02-24 07:00","2012","02","24","07:00","-32.1","","-35.0","","75","","","","","M","32","","","","97.57","","","","-49","","NA"
"-100.88","61.13","ENNADAI LAKE (AUT)","2301102","2012-02-24 08:00","2012","02","24","08:00","-32.4","","-35.4","","75","","","","","M","32","","","","97.64","","","","-49","","NA"
"-100.88","61.13","ENNADAI LAKE (AUT)","2301102","2012-02-24 09:00","2012","02","24","09:00","-32.4","","-35.3","","75","","","","","M","35","","","","97.67","","","","-50","","NA"
"-100.88","61.13","ENNADAI LAKE (AUT)","2301102","2012-02-24 10:00","2012","02","24","10:00"
"-100.88","61.13","ENNADAI LAKE (AUT)","2301102","2012-02-24 11:00","2012","02","24","11:00","-31.3","","-34.2","","76","","","","","M","26","","","","97.80","","","","-46","","NA"
"-100.88","61.13","ENNADAI LAKE (AUT)","2301102","2012-02-24 12:00","2012","02","24","12:00","-30.8","","-33.7","","76","","","","","M","20","","","","97.83","","","","-44","","NA"
"-100.88","61.13","ENNADAI LAKE (AUT)","2301102","2012-02-24 13:00","2012","02","24","13:00","-29.9","","-32.8","","76","","","","","M","26","","","","97.89","","","","-45","","NA"
"-100.88","61.13","ENNADAI LAKE (AUT)","2301102","2012-02-24 14:00","2012","02","24","14:00","-29.3","","-32.2","","76","","","","","M","22","","","","97.92","","","","-43","","NA"
"-100.88","61.13","ENNADAI LAKE (AUT)","2301102","2012-02-24 15:00","2012","02","24","15:00","-28.7","","-31.5","","77","","","","","M","26","","","","97.93","","","","-43","","NA"
"-100.88","61.13","ENNADAI LAKE (AUT)","2301102","2012-02-24 16:00","2012","02","24","16:00","-28.2","","-31.0","","77","","","","","M","26","","","","97.95","","","","-42","","NA"
"-100.88","61.13","ENNADAI LAKE (AUT)","2301102","2012-02-24 17:00","2012","02","24","17:00","-28.3","","-31.1","","77","","","","","M","24","","","","97.98","","","","-42","","NA"
"-100.88","61.13","ENNADAI LAKE (AUT)","2301102","2012-02-24 18:00","2012","02","24","18:00","-28.8","","-31.5","","77","","","","","M","26","","","","98.00","","","","-43","","NA"
"-100.88","61.13","ENNADAI LAKE (AUT)","2301102","2012-02-24 19:00","2012","02","24","19:00","-29.4","","-32.1","","77","","","","","M","26","","","","98.03","","","","-44","","NA"
"-100.88","61.13","ENNADAI LAKE (AUT)","2301102","2012-02-24 20:00","2012","02","24","20:00","-29.6","","-32.3","","77","","","","","M","28","","","","97.97","","","","-45","","NA"
"-100.88","61.13","ENNADAI LAKE (AUT)","2301102","2012-02-24 21:00","2012","02","24","21:00","-29.4","","-32.1","","77","","","","","M","22","","","","97.96","","","","-43","","NA"
"-100.88","61.13","ENNADAI LAKE (AUT)","2301102","2012-02-24 22:00","2012","02","24","22:00","-30.5","","-33.3","","76","","","","","M","24","","","","97.95","","","","-45","","NA"
"-100.88","61.13","ENNADAI LAKE (AUT)","2301102","2012-02-24 23:00","2012","02","24","23:00","-31.4","","-34.2","","76","","","","","M","20","","","","97.93","","","","-45","","NA"
"-100.88","61.13","ENNADAI LAKE (AUT)","2301102","2012-02-25 00:00","2012","02","25","00:00","-31.9","","-34.8","","75","","","","","M","20","","","","97.96","","","","-45","","NA"
"-100.88","61.13","ENNADAI LAKE (AUT)","2301102","2012-02-25 01:00","2012","02","25","01:00","-32.3","","-35.2","","75","","","","","M","9","","","","97.97","","","","-41","","NA"
"-100.88","61.13","ENNADAI LAKE (AUT)","2301102","2012-02-25 02:00","2012","02","25","02:00","-32.2","","-35.1","","75","","","","","M","20","","","","98.00","","","","-46","","NA"
"-100.88","61.13","ENNADAI LAKE (AUT)","2301102","2012-02-25 03:00","2012","02","25","03:00","-32.2","","-35.1","","75","","","","","M","19","","","","98.01","","","","-46","","NA"
"-100.88","61.13","ENNADAI LAKE (AUT)","2301102","2012-02-25 04:00","2012","02","25","04:00","-32.3","","-35.2","","75","","","","","M","13","","","","98.00","","","","-43","","NA"
"-100.88","61.13","ENNADAI LAKE (AUT)","2301102","2012-02-25 05:00","2012","02","25","05:00","-32.6","","-35.6","","75","","","","","M","11","","","","97.99","","","","-43","","NA"
"-100.88","61.13","ENNADAI LAKE (AUT)","2301102","2012-02-25 06:00","2012","02","25","06:00","-32.8","","-35.8","","74","","","","","M","13","","","","98.00","","","","-44","","NA"
"-100.88","61.13","ENNADAI LAKE (AUT)","2301102","2012-02-25 07:00","2012","02","25","07:00","-32.0","","-34.9","","75","","","","","M","15","","","","98.00","","","","-44","","NA"
"-100.88","61.13","ENNADAI LAKE (AUT)","2301102","2012-02-25 08:00","2012","02","25","08:00","-32.0","","-34.9","","75","","","","","M","17","","","","98.02","","","","-45","","NA"
"-100.88","61.13","ENNADAI LAKE (AUT)","2301102","2012-02-25 09:00","2012","02","25","09:00","-31.0","","-33.8","","76","","","","","M","13","","","","98.02","","","","-42","","NA"
"-100.88","61.13","ENNADAI LAKE (AUT)","2301102","2012-02-25 10:00","2012","02","25","10:00","-30.3","","-33.1","","76","","","","","M","19","","","","98.06","","","","-43","","NA"
"-100.88","61.13","ENNADAI LAKE (AUT)","2301102","2012-02-25 11:00","2012","02","25","11:00","-30.0","","-32.8","","77","","","","","M","13","","","","98.08","","","","-41","","NA"
"-100.88","61.13","ENNADAI LAKE (AUT)","2301102","2012-02-25 12:00","2012","02","25","12:00","-29.5","","-32.3","","77","","","","","M","13","","","","98.08","","","","-40","","NA"
"-100.88","61.13","ENNADAI LAKE (AUT)","2301102","2012-02-25 13:00","2012","02","25","13:00","-28.6","","-31.4","","77","","","","","M","15","","","","98.10","","","","-40","","NA"
"-100.88","61.13","ENNADAI LAKE (AUT)","2301102","2012-02-25 14:00","2012","02","25","14:00","-27.9","","-30.7","","77","","","","","M","11","","","","98.11","","","","-37","","NA"
"-100.88","61.13","ENNADAI LAKE (AUT)","2301102","2012-02-25 15:00","2012","02","25","15:00","-27.3","","-30.0","","78","","","","","M","13","","","","98.15","","","","-37","","NA"
"-100.88","61.13","ENNADAI LAKE (AUT)","2301102","2012-02-25 16:00","2012","02","25","16:00","-27.0","","-29.7","","78","","","","","M","7","","","","98.17","","","","-34","","NA"
"-100.88","61.13","ENNADAI LAKE (AUT)","2301102","2012-02-25 17:00","2012","02","25","17:00","-27.4","","-30.0","","78","","","","","M","9","","","","98.20","","","","-36","","NA"
"-100.88","61.13","ENNADAI LAKE (AUT)","2301102","2012-02-25 18:00","2012","02","25","18:00","-27.6","","-30.0","","80","","","","","M","13","","","","98.22","","","","-38","","NA"
"-100.88","61.13","ENNADAI LAKE (AUT)","2301102","2012-02-25 19:00","2012","02","25","19:00","-28.3","","-30.8","","79","","","","","M","15","","","","98.21","","","","-39","","NA"
"-100.88","61.13","ENNADAI LAKE (AUT)","2301102","2012-02-25 20:00","2012","02","25","20:00","-29.5","","-32.1","","78","","","","","M","9","","","","98.22","","","","-38","","NA"
"-100.88","61.13","ENNADAI LAKE (AUT)","2301102","2012-02-25 21:00","2012","02","25","21:00","-29.6","","-32.2","","78","","","","","M","6","","","","98.24","","","","-36","","NA"
"-100.88","61.13","ENNADAI LAKE (AUT)","2301102","2012-02-25 22:00","2012","02","25","22:00","-30.2","","-32.8","","78","","","","","M","9","","","","98.25","","","","-39","","NA"
"-100.88","61.13","ENNADAI LAKE (AUT)","2301102","2012-02-25 23:00","2012","02","25","23:00","-29.9","","-32.6","","77","","","","","M","6","","","","98.25","","","","-36","","NA"
"-100.88","61.13","ENNADAI LAKE (AUT)","2301102","2012-02-26 00:00","2012","02","26","00:00","-29.0","","-31.6","","78","","","","","M","6","","","","98.27","","","","-35","","NA"
"-100.88","61.13","ENNADAI LAKE (AUT)","2301102","2012-02-26 01:00","2012","02","26","01:00","-29.6","","-32.2","","78","","","","","M","6","","","","98.27","","","","-36","","NA"
"-100.88","61.13","ENNADAI LAKE (AUT)","2301102","2012-02-26 02:00","2012","02","26","02:00","-30.3","","-33.0","","77","","","","","M","6","","","","98.29","","","","-37","","NA"
"-100.88","61.13","ENNADAI LAKE (AUT)","2301102","2012-02-26 03:00","2012","02","26","03:00","-30.8","","-33.5","","77","","","","","M","7","","","","98.29","","","","-38","","NA"
"-100.88","61.13","ENNADAI LAKE (AUT)","2301102","2012-02-26 04:00","2012","02","26","04:00","-30.4","","-33.1","","77","","","","","M","7","","","","98.31","","","","-38","","NA"
"-100.88","61.13","ENNADAI LAKE (AUT)","2301102","2012-02-26 05:00","2012","02","26","05:00","-30.4","","-33.1","","77","","","","","M","7","","","","98.32","","","","-38","","NA"
"-100.88","61.13","ENNADAI LAKE (AUT)","2301102","2012-02-26 06:00","2012","02","26","06:00","-30.3","","-33.0","","77","","","","","M","9","","","","98.30","","","","-39","","NA"
"-100.88","61.13","ENNADAI LAKE (AUT)","2301102","2012-02-26 07:00","2012","02","26","07:00","-31.1","","-33.9","","76","","","","","M","15","","","","98.29","","","","-43","","NA"
"-100.88","61.13","ENNADAI LAKE (AUT)","2301102","2012-02-26 08:00","2012","02","26","08:00","-31.4","","-34.2","","76","","","","","M","13","","","","98.29","","","","-42","","NA"
"-100.88","61.13","ENNADAI LAKE (AUT)","2301102","2012-02-26 09:00","2012","02","26","09:00","-31.4","","-34.2","","76","","","","","M","9","","","","98.28","","","","-40","","NA"
"-100.88","61.13","ENNADAI LAKE (AUT)","2301102","2012-02-26 10:00","2012","02","26","10:00","-30.6","","-33.3","","77","","","","","M","6","","","","98.29","","","","-37","","NA"
"-100.88","61.13","ENNADAI LAKE (AUT)","2301102","2012-02-26 11:00","2012","02","26","11:00","-30.1","","-32.8","","77","","","","","M","9","","","","98.27","","","","-39","","NA"
"-100.88","61.13","ENNADAI LAKE (AUT)","2301102","2012-02-26 12:00","2012","02","26","12:00","-29.6","","-32.3","","77","","","","","M","7","","","","98.29","","","","-37","","NA"
"-100.88","61.13","ENNADAI LAKE (AUT)","2301102","2012-02-26 13:00","2012","02","26","13:00","-29.4","","-32.2","","77","","","","","M","11","","","","98.27","","","","-39","","NA"
"-100.88","61.13","ENNADAI LAKE (AUT)","2301102","2012-02-26 14:00","2012","02","26","14:00","-29.2","","-32.1","","76","","","","","M","7","","","","98.25","","","","-36","","NA"
"-100.88","61.13","ENNADAI LAKE (AUT)","2301102","2012-02-26 15:00","2012","02","26","15:00","-29.2","","-32.1","","76","","","","","M","11","","","","98.23","","","","-39","","NA"
"-100.88","61.13","ENNADAI LAKE (AUT)","2301102","2012-02-26 16:00","2012","02","26","16:00","-29.6","","-32.4","","77","","","","","M","13","","","","98.25","","","","-40","","NA"
"-100.88","61.13","ENNADAI LAKE (AUT)","2301102","2012-02-26 17:00","2012","02","26","17:00","-30.0","","-32.8","","77","","","","","M","13","","","","98.22","","","","-41","","NA"
"-100.88","61.13","ENNADAI LAKE (AUT)","2301102","2012-02-26 18:00","2012","02","26","18:00","-30.4","","-33.1","","77","","","","","M","7","","","","98.22","","","","-38","","NA"
"-100.88","61.13","ENNADAI LAKE (AUT)","2301102","2012-02-26 19:00","2012","02","26","19:00","-31.0","","-33.8","","76","","","","","M","7","","","","98.20","","","","-38","","NA"
"-100.88","61.13","ENNADAI LAKE (AUT)","2301102","2012-02-26 20:00","2012","02","26","20:00","-32.3","","-35.2","","75","","","","","M","9","","","","98.15","","","","-41","","NA"
"-100.88","61.13","ENNADAI LAKE (AUT)","2301102","2012-02-26 21:00","2012","02","26","21:00","-31.6","","-34.4","","76","","","","","M","11","","","","98.14","","","","-42","","NA"
"-100.88","61.13","ENNADAI LAKE (AUT)","2301102","2012-02-26 22:00","2012","02","26","22:00","-32.0","","-34.8","","76","","","","","M","9","","","","98.06","","","","-41","","NA"
"-100.88","61.13","ENNADAI LAKE (AUT)","2301102","2012-02-26 23:00","2012","02","26","23:00","-33.4","","-36.4","","74","","","","","M","7","","","","98.05","","","","-41","","NA"
"-100.88","61.13","ENNADAI LAKE (AUT)","2301102","2012-02-27 00:00","2012","02","27","00:00","-33.2","","-36.1","","75","","","","","M","6","","","","98.05","","","","-40","","NA"
"-100.88","61.13","ENNADAI LAKE (AUT)","2301102","2012-02-27 01:00","2012","02","27","01:00","-33.5","","-36.5","","74","","","","","M","4","","","","98.00","","","","-38","","NA"
"-100.88","61.13","ENNADAI LAKE (AUT)","2301102","2012-02-27 02:00","2012","02","27","02:00","-32.9","","-35.8","","75","","","","","M","7","","","","97.95","","","","-41","","NA"
"-100.88","61.13","ENNADAI LAKE (AUT)","2301102","2012-02-27 03:00","2012","02","27","03:00","-33.5","","-36.5","","74","","","","","M","6","","","","97.93","","","","-41","","NA"
"-100.88","61.13","ENNADAI LAKE (AUT)","2301102","2012-02-27 04:00","2012","02","27","04:00","-33.4","","-36.2","","76","","","","","M","6","","","","97.90","","","","-40","","NA"
"-100.88","61.13","ENNADAI LAKE (AUT)","2301102","2012-02-27 05:00","2012","02","27","05:00","-33.4","","-36.4","","74","","","","","M","4","","","","97.84","","","","-38","","NA"
"-100.88","61.13","ENNADAI LAKE (AUT)","2301102","2012-02-27 06:00","2012","02","27","06:00","-35.0","","-38.2","","73","","","","","M","6","","","","97.78","","","","-42","","NA"
"-100.88","61.13","ENNADAI LAKE (AUT)","2301102","2012-02-27 07:00","2012","02","27","07:00","-35.3","","-38.5","","72","","","","","M","9","","","","97.76","","","","-45","","NA"
"-100.88","61.13","ENNADAI LAKE (AUT)","2301102","2012-02-27 08:00","2012","02","27","08:00","-35.4","","-38.6","","72","","","","","M","9","","","","97.70","","","","-45","","NA"
"-100.88","61.13","ENNADAI LAKE (AUT)","2301102","2012-02-27 09:00","2012","02","27","09:00","-34.8","","-37.9","","73","","","","","M","11","","","","97.68","","","","-45","","NA"
"-100.88","61.13","ENNADAI LAKE (AUT)","2301102","2012-02-27 10:00","2012","02","27","10:00","-34.2","","-37.3","","73","","","","","M","9","","","","97.64","","","","-44","","NA"
"-100.88","61.13","ENNADAI LAKE (AUT)","2301102","2012-02-27 11:00","2012","02","27","11:00","-33.2","","-36.2","","74","","","","","M","9","","","","97.60","","","","-42","","NA"
"-100.88","61.13","ENNADAI LAKE (AUT)","2301102","2012-02-27 12:00","2012","02","27","12:00","-31.4","","-34.3","","75","","","","","M","13","","","","97.53","","","","-42","","NA"
"-100.88","61.13","ENNADAI LAKE (AUT)","2301102","2012-02-27 13:00","2012","02","27","13:00","-30.1","","-33.0","","76","","","","","M","19","","","","97.49","","","","-43","","NA"
"-100.88","61.13","ENNADAI LAKE (AUT)","2301102","2012-02-27 14:00","2012","02","27","14:00","-29.2","","-32.0","","77","","","","","M","20","","","","97.42","","","","-42","","NA"
"-100.88","61.13","ENNADAI LAKE (AUT)","2301102","2012-02-27 15:00","2012","02","27","15:00","-28.7","","-31.6","","76","","","","","M","22","","","","97.38","","","","-42","","NA"
"-100.88","61.13","ENNADAI LAKE (AUT)","2301102","2012-02-27 16:00","2012","02","27","16:00","-28.8","","-31.6","","77","","","","","M","24","","","","97.34","","","","-43","","NA"
"-100.88","61.13","ENNADAI LAKE (AUT)","2301102","2012-02-27 17:00","2012","02","27","17:00","-28.9","","-31.8","","76","","","","","M","24","","","","97.32","","","","-43","","NA"
"-100.88","61.13","ENNADAI LAKE (AUT)","2301102","2012-02-27 18:00","2012","02","27","18:00","-29.8","","-32.6","","77","","","","","M","24","","","","97.31","","","","-44","","NA"
"-100.88","61.13","ENNADAI LAKE (AUT)","2301102","2012-02-27 19:00","2012","02","27","19:00","-30.1","","-32.9","","76","","","","","M","26","","","","97.30","","","","-45","","NA"
"-100.88","61.13","ENNADAI LAKE (AUT)","2301102","2012-02-27 20:00","2012","02","27","20:00","-30.3","","-33.1","","76","","","","","M","26","","","","97.29","","","","-45","","NA"
"-100.88","61.13","ENNADAI LAKE (AUT)","2301102","2012-02-27 21:00","2012","02","27","21:00","-30.5","","-33.3","","76","","","","","M","20","","","","97.29","","","","-44","","NA"
"-100.88","61.13","ENNADAI LAKE (AUT)","2301102","2012-02-27 22:00","2012","02","27","22:00","-30.4","","-33.1","","77","","","","","M","7","","","","97.28","","","","-38","","NA"
"-100.88","61.13","ENNADAI LAKE (AUT)","2301102","2012-02-27 23:00","2012","02","27","23:00","-29.4","","-32.1","","77","","","","","M","22","","","","97.26","","","","-43","","NA"
"-100.88","61.13","ENNADAI LAKE (AUT)","2301102","2012-02-28 00:00","2012","02","28","00:00","-30.0","","-32.7","","77","","","","","M","15","","","","97.27","","","","-41","","NA"
"-100.88","61.13","ENNADAI LAKE (AUT)","2301102","2012-02-28 01:00","2012","02","28","01:00","-30.4","","-33.2","","76","","","","","M","17","","","","97.23","","","","-43","","NA"
"-100.88","61.13","ENNADAI LAKE (AUT)","2301102","2012-02-28 02:00","2012","02","28","02:00","-29.1","","-31.7","","78","","","","","M","15","","","","97.24","","","","-40","","NA"
"-100.88","61.13","ENNADAI LAKE (AUT)","2301102","2012-02-28 03:00","2012","02","28","03:00","-30.3","","-33.1","","76","","","","","M","15","","","","97.23","","","","-42","","NA"
"-100.88","61.13","ENNADAI LAKE (AUT)","2301102","2012-02-28 04:00","2012","02","28","04:00","-30.4","","-33.1","","77","","","","","M","15","","","","97.23","","","","-42","","NA"
"-100.88","61.13","ENNADAI LAKE (AUT)","2301102","2012-02-28 05:00","2012","02","28","05:00","-30.8","","-33.6","","76","","","","","M","15","","","","97.21","","","","-42","","NA"
"-100.88","61.13","ENNADAI LAKE (AUT)","2301102","2012-02-28 06:00","2012","02","28","06:00","-31.0","","-33.8","","76","","","","","M","15","","","","97.23","","","","-43","","NA"
"-100.88","61.13","ENNADAI LAKE (AUT)","2301102","2012-02-28 07:00","2012","02","28","07:00","-28.1","","-30.5","","80","","","","","M","15","","","","97.27","","","","-39","","NA"
"-100.88","61.13","ENNADAI LAKE (AUT)","2301102","2012-02-28 08:00","2012","02","28","08:00","-27.5","","-29.9","","80","","","","","M","19","","","","97.26","","","","-40","","NA"
"-100.88","61.13","ENNADAI LAKE (AUT)","2301102","2012-02-28 09:00","2012","02","28","09:00","-27.5","","-29.9","","80","","","","","M","13","","","","97.24","","","","-38","","NA"
"-100.88","61.13","ENNADAI LAKE (AUT)","2301102","2012-02-28 10:00","2012","02","28","10:00","-26.3","","-28.6","","81","","","","","M","9","","","","97.26","","","","-34","","NA"
"-100.88","61.13","ENNADAI LAKE (AUT)","2301102","2012-02-28 11:00","2012","02","28","11:00","-25.3","","-27.5","","82","","","","","M","9","","","","97.26","","","","-33","","NA"
"-100.88","61.13","ENNADAI LAKE (AUT)","2301102","2012-02-28 12:00","2012","02","28","12:00","-24.4","","-26.6","","82","","","","","M","9","","","","97.24","","","","-32","","NA"
"-100.88","61.13","ENNADAI LAKE (AUT)","2301102","2012-02-28 13:00","2012","02","28","13:00","-23.3","","-25.2","","84","","","","","M","6","","","","97.26","","","","-29","","NA"
"-100.88","61.13","ENNADAI LAKE (AUT)","2301102","2012-02-28 14:00","2012","02","28","14:00","-22.5","","-24.6","","83","","","","","M","9","","","","97.23","","","","-30","","NA"
"-100.88","61.13","ENNADAI LAKE (AUT)","2301102","2012-02-28 15:00","2012","02","28","15:00","-22.2","","-24.3","","83","","","","","M","11","","","","97.20","","","","-30","","NA"
"-100.88","61.13","ENNADAI LAKE (AUT)","2301102","2012-02-28 16:00","2012","02","28","16:00","-21.9","","-23.9","","84","","","","","M","15","","","","97.19","","","","-31","","NA"
"-100.88","61.13","ENNADAI LAKE (AUT)","2301102","2012-02-28 17:00","2012","02","28","17:00","-22.5","","-24.5","","84","","","","","M","9","","","","97.23","","","","-30","","NA"
"-100.88","61.13","ENNADAI LAKE (AUT)","2301102","2012-02-28 18:00","2012","02","28","18:00","-21.8","","-23.8","","84","","","","","M","11","","","","97.22","","","","-30","","NA"
"-100.88","61.13","ENNADAI LAKE (AUT)","2301102","2012-02-28 19:00","2012","02","28","19:00","-21.0","","-22.9","","85","","","","","M","13","","","","97.18","","","","-30","","NA"
"-100.88","61.13","ENNADAI LAKE (AUT)","2301102","2012-02-28 20:00","2012","02","28","20:00","-20.2","","-22.1","","85","","","","","M","13","","","","97.13","","","","-29","","NA"
"-100.88","61.13","ENNADAI LAKE (AUT)","2301102","2012-02-28 21:00","2012","02","28","21:00","-20.7","","-22.7","","84","","","","","M","13","","","","97.13","","","","-29","","NA"
"-100.88","61.13","ENNADAI LAKE (AUT)","2301102","2012-02-28 22:00","2012","02","28","22:00","-20.4","","-22.3","","85","","","","","M","19","","","","97.06","","","","-31","","NA"
"-100.88","61.13","ENNADAI LAKE (AUT)","2301102","2012-02-28 23:00","2012","02","28","23:00","-19.8","","-21.6","","86","","","","","M","17","","","","97.01","","","","-29","","NA"
"-100.88","61.13","ENNADAI LAKE (AUT)","2301102","2012-02-29 00:00","2012","02","29","00:00","-19.2","","-21.1","","85","","","","","M","15","","","","96.97","","","","-28","","NA"
"-100.88","61.13","ENNADAI LAKE (AUT)","2301102","2012-02-29 01:00","2012","02","29","01:00","-19.1","","-20.9","","86","","","","","M","11","","","","96.91","","","","-27","","NA"
"-100.88","61.13","ENNADAI LAKE (AUT)","2301102","2012-02-29 02:00","2012","02","29","02:00","-18.7","","-20.3","","87","","","","","M","17","","","","96.87","","","","-28","","NA"
"-100.88","61.13","ENNADAI LAKE (AUT)","2301102","2012-02-29 03:00","2012","02","29","03:00","-18.6","","-20.2","","87","","","","","M","17","","","","96.82","","","","-28","","NA"
"-100.88","61.13","ENNADAI LAKE (AUT)","2301102","2012-02-29 04:00","2012","02","29","04:00","-18.4","","-19.9","","88","","","","","M","17","","","","96.75","","","","-28","","NA"
"-100.88","61.13","ENNADAI LAKE (AUT)","2301102","2012-02-29 05:00","2012","02","29","05:00","-18.3","","-19.8","","88","","","","","M","19","","","","96.70","","","","-28","","NA"
"-100.88","61.13","ENNADAI LAKE (AUT)","2301102","2012-02-29 06:00","2012","02","29","06:00","-18.2","","-19.7","","88","","","","","M","17","","","","96.65","","","","-27","","NA"
"-100.88","61.13","ENNADAI LAKE (AUT)","2301102","2012-02-29 07:00","2012","02","29","07:00","-18.8","","-20.4","","87","","","","","M","17","","","","96.62","","","","-28","","NA"
"-100.88","61.13","ENNADAI LAKE (AUT)","2301102","2012-02-29 08:00","2012","02","29","08:00","-20.1","","-21.8","","86","","","","","M","22","","","","96.57","","","","-31","","NA"
"-100.88","61.13","ENNADAI LAKE (AUT)","2301102","2012-02-29 09:00","2012","02","29","09:00","-20.0","","-21.7","","86","","","","","M","20","","","","96.59","","","","-30","","NA"
"-100.88","61.13","ENNADAI LAKE (AUT)","2301102","2012-02-29 10:00","2012","02","29","10:00","-19.6","","-21.4","","86","","","","","M","22","","","","96.59","","","","-30","","NA"
"-100.88","61.13","ENNADAI LAKE (AUT)","2301102","2012-02-29 11:00","2012","02","29","11:00","-19.8","","-21.6","","86","","","","","M","22","","","","96.57","","","","-31","","NA"
"-100.88","61.13","ENNADAI LAKE (AUT)","2301102","2012-02-29 12:00","2012","02","29","12:00","-20.3","","-22.3","","84","","","","","M","28","","","","96.55","","","","-33","","NA"
"-100.88","61.13","ENNADAI LAKE (AUT)","2301102","2012-02-29 13:00","2012","02","29","13:00","-20.2","","-22.4","","83","","","","","M","24","","","","96.61","","","","-32","","NA"
"-100.88","61.13","ENNADAI LAKE (AUT)","2301102","2012-02-29 14:00","2012","02","29","14:00","-20.9","","-23.0","","83","","","","","M","28","","","","96.59","","","","-33","","NA"
"-100.88","61.13","ENNADAI LAKE (AUT)","2301102","2012-02-29 15:00","2012","02","29","15:00","-21.3","","-23.7","","81","","","","","M","22","","","","96.65","","","","-33","","NA"
"-100.88","61.13","ENNADAI LAKE (AUT)","2301102","2012-02-29 16:00","2012","02","29","16:00","-23.0","","-25.4","","81","","","","","M","26","","","","96.70","","","","-36","","NA"
"-100.88","61.13","ENNADAI LAKE (AUT)","2301102","2012-02-29 17:00","2012","02","29","17:00","-23.9","","-26.2","","81","","","","","M","24","","","","96.80","","","","-36","","NA"
"-100.88","61.13","ENNADAI LAKE (AUT)","2301102","2012-02-29 18:00","2012","02","29","18:00","-24.9","","-27.1","","82","","","","","M","24","","","","96.87","","","","-38","","NA"
"-100.88","61.13","ENNADAI LAKE (AUT)","2301102","2012-02-29 19:00","2012","02","29","19:00","-25.3","","-27.6","","81","","","","","M","26","","","","96.92","","","","-39","","NA"
"-100.88","61.13","ENNADAI LAKE (AUT)","2301102","2012-02-29 20:00","2012","02","29","20:00","-25.7","","-28.0","","81","","","","","M","20","","","","97.00","","","","-38","","NA"
"-100.88","61.13","ENNADAI LAKE (AUT)","2301102","2012-02-29 21:00","2012","02","29","21:00","-27.2","","-29.6","","80","","","","","M","20","","","","97.06","","","","-40","","NA"
"-100.88","61.13","ENNADAI LAKE (AUT)","2301102","2012-02-29 22:00","2012","02","29","22:00","-28.1","","-30.6","","79","","","","","M","22","","","","97.11","","","","-41","","NA"
"-100.88","61.13","ENNADAI LAKE (AUT)","2301102","2012-02-29 23:00","2012","02","29","23:00","-29.7","","-32.3","","78","","","","","M","24","","","","97.19","","","","-44","","NA"
