"Longitude (x)","Latitude (y)","Station Name","Climate ID","Date/Time (LST)","Year","Month","Day","Time (LST)","Temp (°C)","Temp Flag","Dew Point Temp (°C)","Dew Point Temp Flag","Rel Hum (%)","Rel Hum Flag","Precip. Amount (mm)","Precip. Amount Flag","Wind Dir (10s deg)","Wind Dir Flag","Wind Spd (km/h)","Wind Spd Flag","Visibility (km)","Visibility Flag","Stn Press (kPa)","Stn Press Flag","Hmdx","Hmdx Flag","Wind Chill","Wind Chill Flag","Weather"
"-96.08","64.30","BAKER LAKE A","2300504","2019-04-01 00:00","2019","04","01","00:00","-13.8","","-16.1","","83","","","M","34","","6","","","M","100.63","","","","-18","","NA"
"-96.08","64.30","BAKER LAKE A","2300504","2019-04-01 01:00","2019","04","01","01:00","-14.0","","-16.4","","83","","","M","28","","7","","","M","100.59","","","","-19","","NA"
"-96.08","64.30","BAKER LAKE A","2300504","2019-04-01 02:00","2019","04","01","02:00","-14.6","","-16.7","","84","","","M","0","","1","","","M","100.55","","","","-15","","NA"
"-96.08","64.30","BAKER LAKE A","2300504","2019-04-01 03:00","2019","04","01","03:00","-14.4","","-16.4","","85","","","M","33","","6","","","M","100.50","","","","-19","","NA"
"-96.08","64.30","BAKER LAKE A","2300504","2019-04-01 04:00","2019","04","01","04:00","-14.6","","-16.6","","85","","","M","36","","7","","","M","100.47","","","","-19","","NA"
"-96.08","64.30","BAKER LAKE A","2300504","2019-04-01 05:00","2019","04","01","05:00","-14.7","","-16.9","","84","","","M","36","","6","","","M","100.44","","","","-19","","NA"
"-96.08","64.30","BAKER LAKE A","2300504","2019-04-01 06:00","2019","04","01","06:00","-14.6","","-16.6","","84","","","M","36","","4","","","M","100.42","","","","-17","","NA"
"-96.08","64.30","BAKER LAKE A","2300504","2019-04-01 07:00","2019","04","01","07:00","-14.5","","-16.6","","84","","","M","7","","3","","","M","100.39","","","","-17","","NA"
"-96.08","64.30","BAKER LAKE A","2300504","2019-04-01 08:00","2019","04","01","08:00","-14.3","","-16.5","","84","","","M","33","","4","","","M","100.36","","","","-17","","NA"
"-96.08","64.30","BAKER LAKE A","2300504","2019-04-01 09:00","2019","04","01","09:00","-13.9","","-16.1","","83","","","M","10","","8","","","M","100.35","","","","-19","","NA"
"-96.08","64.30","BAKER LAKE A","2300504","2019-04-01 10:00","2019","04","01","10:00","-13.8","","-16.1","","83","","","M","10","","12","","","M","100.34","","","","-21","","NA"
"-96.08","64.30","BAKER LAKE A","2300504","2019-04-01 11:00","2019","04","01","11:00","-13.5","","-16.0","","81","","","M","10","","12","","","M","100.32","","","","-20","","NA"
"-96.08","64.30","BAKER LAKE A","2300504","2019-04-01 12:00","2019","04","01","12:00","-13.3","","-16.0","","80","","","M","10","","11","","","M","100.31","","","","-20","","NA"
"-96.08","64.30","BAKER LAKE A","2300504","2019-04-01 13:00","2019","04","01","13:00","-12.7","","-15.7","","79","","","M","7","","11","","","M","100.30","","","","-19","","NA"
"-96.08","64.30","BAKER LAKE A","2300504","2019-04-01 14:00","2019","04","01","14:00","-12.6","","-15.7","","78","","","M","11","","9","","","M","100.32","","","","-18","","NA"
"-96.08","64.30","BAKER LAKE A","2300504","2019-04-01 15:00","2019","04","01","15:00","-12.8","","-16.1","","76","","","M","7","","12","","","M","100.32","","","","-19","","NA"
"-96.08","64.30","BAKER LAKE A","2300504","2019-04-01 16:00","2019","04","01","16:00","-12.9","","-16.1","","77","","","M","7","","13","","","M","100.35","","","","-20","","NA"
"-96.08","64.30","BAKER LAKE A","2300504","2019-04-01 17:00","2019","04","01","17:00","-13.2","","-16.4","","77","","","M","7","","14","","","M","100.38","","","","-20","","NA"
"-96.08","64.30","BAKER LAKE A","2300504","2019-04-01 18:00","2019","04","01","18:00","-13.4","","-16.4","","79","","","M","7","","11","","","M","100.40","","","","-20","","NA"
"-96.08","64.30","BAKER LAKE A","2300504","2019-04-01 19:00","2019","04","01","19:00","-13.7","","-16.6","","79","","","M","5","","9","","","M","100.43","","","","-19","","NA"
"-96.08","64.30","BAKER LAKE A","2300504","2019-04-01 20:00","2019","04","01","20:00","-14.2","","-16.9","","80","","","M","7","","8","","","M","100.44","","","","-19","","NA"
"-96.08","64.30","BAKER LAKE A","2300504","2019-04-01 21:00","2019","04","01","21:00","-15.7","","-18.7","","78","","","M","6","","19","","","M","100.44","","","","-25","","NA"
"-96.08","64.30","BAKER LAKE A","2300504","2019-04-01 22:00","2019","04","01","22:00","-17.8","","-21.2","","75","","","M","3","","13","","","M","100.44","","","","-26","","NA"
"-96.08","64.30","BAKER LAKE A","2300504","2019-04-01 23:00","2019","04","01","23:00","-19.6","","-22.9","","76","","","M","1","","15","","","M","100.42","","","","-29","","NA"
"-96.08","64.30","BAKER LAKE A","2300504","2019-04-02 00:00","2019","04","02","00:00","-21.1","","-24.4","","75","","","M","35","","17","","","M","100.42","","","","-31","","NA"
"-96.08","64.30","BAKER LAKE A","2300504","2019-04-02 01:00","2019","04","02","01:00","-22.9","","-26.0","","76","","","M","35","","23","","","M","100.42","","","","-35","","NA"
"-96.08","64.30","BAKER LAKE A","2300504","2019-04-02 02:00","2019","04","02","02:00","-23.7","","-26.9","","75","","","M","34","","26","","","M","100.43","","","","-37","","NA"
"-96.08","64.30","BAKER LAKE A","2300504","2019-04-02 03:00","2019","04","02","03:00","-24.6","","-27.8","","75","","","M","34","","29","","","M","100.41","","","","-38","","NA"
"-96.08","64.30","BAKER LAKE A","2300504","2019-04-02 04:00","2019","04","02","04:00","-24.6","","-27.8","","76","","","M","33","","24","","","M","100.46","","","","-37","","NA"
"-96.08","64.30","BAKER LAKE A","2300504","2019-04-02 05:00","2019","04","02","05:00","-25.0","","-28.2","","75","","","M","34","","34","","","M","100.43","","","","-40","","NA"
"-96.08","64.30","BAKER LAKE A","2300504","2019-04-02 06:00","2019","04","02","06:00","-25.2","","-28.5","","75","","","M","34","","39","","","M","100.43","","","","-41","","NA"
"-96.08","64.30","BAKER LAKE A","2300504","2019-04-02 07:00","2019","04","02","07:00","-24.6","","-27.9","","75","","","M","34","","30","","","M","100.45","","","","-39","","NA"
"-96.08","64.30","BAKER LAKE A","2300504","2019-04-02 08:00","2019","04","02","08:00","-24.3","","-27.6","","75","","","M","36","","16","","","M","100.53","","","","-35","","NA"
"-96.08","64.30","BAKER LAKE A","2300504","2019-04-02 09:00","2019","04","02","09:00","-23.1","","-25.9","","78","","","M","36","","26","","","M","100.50","","","","-36","","NA"
"-96.08","64.30","BAKER LAKE A","2300504","2019-04-02 10:00","2019","04","02","10:00","-22.2","","-24.8","","80","","","M","35","","16","","","M","100.53","","","","-32","","NA"
"-96.08","64.30","BAKER LAKE A","2300504","2019-04-02 11:00","2019","04","02","11:00","-19.3","","-22.2","","78","","","M","35","","14","","","M","100.52","","","","-28","","NA"
"-96.08","64.30","BAKER LAKE A","2300504","2019-04-02 12:00","2019","04","02","12:00","-18.8","","-22.4","","74","","","M","36","","24","","","M","100.54","","","","-30","","NA"
"-96.08","64.30","BAKER LAKE A","2300504","2019-04-02 13:00","2019","04","02","13:00","-18.6","","-22.4","","72","","","M","34","","26","","","M","100.56","","","","-30","","NA"
"-96.08","64.30","BAKER LAKE A","2300504","2019-04-02 14:00","2019","04","02","14:00","-17.7","","-21.6","","72","","","M","34","","26","","","M","100.59","","","","-29","","NA"
"-96.08","64.30","BAKER LAKE A","2300504","2019-04-02 15:00","2019","04","02","15:00","-17.2","","-21.1","","73","","","M","33","","26","","","M","100.63","","","","-28","","NA"
"-96.08","64.30","BAKER LAKE A","2300504","2019-04-02 16:00","2019","04","02","16:00","-17.2","","-21.1","","72","","","M","33","","25","","","M","100.65","","","","-28","","NA"
"-96.08","64.30","BAKER LAKE A","2300504","2019-04-02 17:00","2019","04","02","17:00","-17.9","","-21.3","","75","","","M","33","","30","","","M","100.67","","","","-30","","NA"
"-96.08","64.30","BAKER LAKE A","2300504","2019-04-02 18:00","2019","04","02","18:00","-19.0","","-22.4","","75","","","M","34","","30","","","M","100.70","","","","-31","","NA"
"-96.08","64.30","BAKER LAKE A","2300504","2019-04-02 19:00","2019","04","02","19:00","-20.6","","-23.9","","75","","","M","33","","32","","","M","100.74","","","","-34","","NA"
"-96.08","64.30","BAKER LAKE A","2300504","2019-04-02 20:00","2019","04","02","20:00","-22.0","","-25.4","","74","","","M","33","","34","","","M","100.76","","","","-36","","NA"
"-96.08","64.30","BAKER LAKE A","2300504","2019-04-02 21:00","2019","04","02","21:00","-22.4","","-25.4","","77","","","M","33","","35","","","M","100.77","","","","-37","","NA"
"-96.08","64.30","BAKER LAKE A","2300504","2019-04-02 22:00","2019","04","02","22:00","-22.9","","-26.2","","75","","","M","33","","35","","","M","100.79","","","","-37","","NA"
"-96.08","64.30","BAKER LAKE A","2300504","2019-04-02 23:00","2019","04","02","23:00","-23.5","","-26.9","","74","","","M","34","","34","","","M","100.79","","","","-38","","NA"
"-96.08","64.30","BAKER LAKE A","2300504","2019-04-03 00:00","2019","04","03","00:00","-23.5","","-26.8","","75","","","M","33","","41","","","M","100.80","","","","-39","","NA"
"-96.08","64.30","BAKER LAKE A","2300504","2019-04-03 01:00","2019","04","03","01:00","-23.9","","-27.2","","75","","","M","33","","37","","","M","100.82","","","","-39","","NA"
"-96.08","64.30","BAKER LAKE A","2300504","2019-04-03 02:00","2019","04","03","02:00","-25.6","","-28.9","","75","","","M","32","","43","","","M","100.85","","","","-42","","NA"
"-96.08","64.30","BAKER LAKE A","2300504","2019-04-03 03:00","2019","04","03","03:00","-25.7","","-29.0","","75","","","M","32","","40","","","M","100.88","","","","-42","","NA"
"-96.08","64.30","BAKER LAKE A","2300504","2019-04-03 04:00","2019","04","03","04:00","-25.2","","-28.3","","76","","","M","32","","39","","","M","100.91","","","","-41","","NA"
"-96.08","64.30","BAKER LAKE A","2300504","2019-04-03 05:00","2019","04","03","05:00","-25.6","","-29.0","","74","","","M","31","","40","","","M","100.96","","","","-42","","NA"
"-96.08","64.30","BAKER LAKE A","2300504","2019-04-03 06:00","2019","04","03","06:00","-26.1","","-29.6","","73","","","M","29","","40","","","M","100.97","","","","-42","","NA"
"-96.08","64.30","BAKER LAKE A","2300504","2019-04-03 07:00","2019","04","03","07:00","-25.2","","-28.6","","74","","","M","31","","41","","","M","101.00","","","","-41","","NA"
"-96.08","64.30","BAKER LAKE A","2300504","2019-04-03 08:00","2019","04","03","08:00","-23.8","","-27.3","","73","","","M","31","","34","","","M","101.06","","","","-38","","NA"
"-96.08","64.30","BAKER LAKE A","2300504","2019-04-03 09:00","2019","04","03","09:00","-22.7","","-26.4","","72","","","M","30","","31","","","M","101.12","","","","-36","","NA"
"-96.08","64.30","BAKER LAKE A","2300504","2019-04-03 10:00","2019","04","03","10:00","-21.3","","-25.2","","71","","","M","30","","29","","","M","101.13","","","","-34","","NA"
"-96.08","64.30","BAKER LAKE A","2300504","2019-04-03 11:00","2019","04","03","11:00","-19.7","","-23.7","","71","","","M","30","","28","","","M","101.18","","","","-32","","NA"
"-96.08","64.30","BAKER LAKE A","2300504","2019-04-03 12:00","2019","04","03","12:00","-18.3","","-22.3","","71","","","M","31","","26","","","M","101.23","","","","-30","","NA"
"-96.08","64.30","BAKER LAKE A","2300504","2019-04-03 13:00","2019","04","03","13:00","-17.8","","-21.8","","72","","","M","31","","23","","","M","101.30","","","","-28","","NA"
"-96.08","64.30","BAKER LAKE A","2300504","2019-04-03 14:00","2019","04","03","14:00","-18.0","","-22.1","","71","","","M","32","","21","","","M","101.36","","","","-28","","NA"
"-96.08","64.30","BAKER LAKE A","2300504","2019-04-03 15:00","2019","04","03","15:00","-17.8","","-22.1","","70","","","M","31","","23","","","M","101.41","","","","-28","","NA"
"-96.08","64.30","BAKER LAKE A","2300504","2019-04-03 16:00","2019","04","03","16:00","-18.2","","-22.1","","72","","","M","30","","24","","","M","101.45","","","","-29","","NA"
"-96.08","64.30","BAKER LAKE A","2300504","2019-04-03 17:00","2019","04","03","17:00","-18.7","","-22.4","","73","","","M","30","","26","","","M","101.48","","","","-30","","NA"
"-96.08","64.30","BAKER LAKE A","2300504","2019-04-03 18:00","2019","04","03","18:00","-19.2","","-22.8","","74","","","M","31","","20","","","M","101.54","","","","-29","","NA"
"-96.08","64.30","BAKER LAKE A","2300504","2019-04-03 19:00","2019","04","03","19:00","-19.7","","-23.1","","75","","","M","31","","27","","","M","101.54","","","","-32","","NA"
"-96.08","64.30","BAKER LAKE A","2300504","2019-04-03 20:00","2019","04","03","20:00","-19.8","","-23.1","","75","","","M","30","","24","","","M","101.61","","","","-31","","NA"
"-96.08","64.30","BAKER LAKE A","2300504","2019-04-03 21:00","2019","04","03","21:00","-20.2","","-23.5","","75","","","M","32","","11","","","M","101.64","","","","-28","","NA"
"-96.08","64.30","BAKER LAKE A","2300504","2019-04-03 22:00","2019","04","03","22:00","-20.6","","-24.0","","75","","","M","30","","15","","","M","101.66","","","","-30","","NA"
"-96.08","64.30","BAKER LAKE A","2300504","2019-04-03 23:00","2019","04","03","23:00","-21.3","","-25.0","","73","","","M","33","","12","","","M","101.69","","","","-30","","NA"
"-96.08","64.30","BAKER LAKE A","2300504","2019-04-04 00:00","2019","04","04","00:00","-22.3","","-25.9","","73","","","M","32","","22","","","M","101.70","","","","-34","","NA"
"-96.08","64.30","BAKER LAKE A","2300504","2019-04-04 01:00","2019","04","04","01:00","-23.3","","-26.9","","73","","","M","31","","16","","","M","101.73","","","","-33","","NA"
"-96.08","64.30","BAKER LAKE A","2300504","2019-04-04 02:00","2019","04","04","02:00","-23.8","","-27.3","","73","","","M","30","","8","","","M","101.75","","","","-31","","NA"
"-96.08","64.30","BAKER LAKE A","2300504","2019-04-04 03:00","2019","04","04","03:00","-25.5","","-28.9","","74","","","M","29","","13","","","M","101.75","","","","-35","","NA"
"-96.08","64.30","BAKER LAKE A","2300504","2019-04-04 04:00","2019","04","04","04:00","-24.9","","-28.3","","74","","","M","28","","18","","","M","101.75","","","","-36","","NA"
"-96.08","64.30","BAKER LAKE A","2300504","2019-04-04 05:00","2019","04","04","05:00","-26.9","","-30.5","","72","","","M","28","","28","","","M","101.74","","","","-41","","NA"
"-96.08","64.30","BAKER LAKE A","2300504","2019-04-04 06:00","2019","04","04","06:00","-28.1","","-31.9","","71","","","M","30","","23","","","M","101.71","","","","-42","","NA"
"-96.08","64.30","BAKER LAKE A","2300504","2019-04-04 07:00","2019","04","04","07:00","-28.6","","-32.7","","68","","","M","29","","23","","","M","101.74","","","","-42","","NA"
"-96.08","64.30","BAKER LAKE A","2300504","2019-04-04 08:00","2019","04","04","08:00","-28.4","","-32.6","","68","","","M","26","","19","","","M","101.74","","","","-41","","NA"
"-96.08","64.30","BAKER LAKE A","2300504","2019-04-04 09:00","2019","04","04","09:00","-27.6","","-31.9","","68","","","M","27","","16","","","M","101.74","","","","-39","","NA"
"-96.08","64.30","BAKER LAKE A","2300504","2019-04-04 10:00","2019","04","04","10:00","-27.2","","-31.5","","67","","","M","29","","19","","","M","101.72","","","","-39","","NA"
"-96.08","64.30","BAKER LAKE A","2300504","2019-04-04 11:00","2019","04","04","11:00","-26.5","","-30.9","","67","","","M","26","","22","","","M","101.74","","","","-39","","NA"
"-96.08","64.30","BAKER LAKE A","2300504","2019-04-04 12:00","2019","04","04","12:00","-25.7","","-30.1","","67","","","M","26","","18","","","M","101.74","","","","-37","","NA"
"-96.08","64.30","BAKER LAKE A","2300504","2019-04-04 13:00","2019","04","04","13:00","-24.7","","-29.2","","67","","","M","24","","14","","","M","101.73","","","","-35","","NA"
"-96.08","64.30","BAKER LAKE A","2300504","2019-04-04 14:00","2019","04","04","14:00","-23.5","","-27.9","","67","","","M","23","","10","","","M","101.71","","","","-31","","NA"
"-96.08","64.30","BAKER LAKE A","2300504","2019-04-04 15:00","2019","04","04","15:00","-23.0","","-27.9","","65","","","M","22","","13","","","M","101.68","","","","-32","","NA"
"-96.08","64.30","BAKER LAKE A","2300504","2019-04-04 16:00","2019","04","04","16:00","-22.5","","-26.9","","68","","","M","20","","12","","","M","101.66","","","","-31","","NA"
"-96.08","64.30","BAKER LAKE A","2300504","2019-04-04 17:00","2019","04","04","17:00","-22.2","","-26.3","","70","","","M","20","","10","","","M","101.64","","","","-30","","NA"
"-96.08","64.30","BAKER LAKE A","2300504","2019-04-04 18:00","2019","04","04","18:00","-23.6","","-27.4","","72","","","M","20","","9","","","M","101.62","","","","-31","","NA"
"-96.08","64.30","BAKER LAKE A","2300504","2019-04-04 19:00","2019","04","04","19:00","-24.7","","-28.3","","73","","","M","20","","11","","","M","101.60","","","","-33","","NA"
"-96.08","64.30","BAKER LAKE A","2300504","2019-04-04 20:00","2019","04","04","20:00","-25.5","","-28.9","","74","","","M","23","","13","","","M","101.57","","","","-35","","NA"
"-96.08","64.30","BAKER LAKE A","2300504","2019-04-04 21:00","2019","04","04","21:00","-25.6","","-29.0","","73","","","M","22","","16","","","M","101.52","","","","-36","","NA"
"-96.08","64.30","BAKER LAKE A","2300504","2019-04-04 22:00","2019","04","04","22:00","-25.5","","-29.0","","73","","","M","23","","16","","","M","101.48","","","","-36","","NA"
"-96.08","64.30","BAKER LAKE A","2300504","2019-04-04 23:00","2019","04","04","23:00","-26.7","","-30.1","","73","","","M","22","","13","","","M","101.43","","","","-37","","NA"
"-96.08","64.30","BAKER LAKE A","2300504","2019-04-05 00:00","2019","04","05","00:00","-25.9","","-29.4","","73","","","M","21","","11","","","M","101.37","","","","-35","","NA"
"-96.08","64.30","BAKER LAKE A","2300504","2019-04-05 01:00","2019","04","05","01:00","-24.8","","-28.2","","74","","","M","20","","13","","","M","101.32","","","","-34","","NA"
"-96.08","64.30","BAKER LAKE A","2300504","2019-04-05 02:00","2019","04","05","02:00","-25.7","","-29.0","","75","","","M","19","","8","","","M","101.29","","","","-33","","NA"
"-96.08","64.30","BAKER LAKE A","2300504","2019-04-05 03:00","2019","04","05","03:00","-25.7","","-29.0","","75","","","M","15","","13","","","M","101.24","","","","-35","","NA"
"-96.08","64.30","BAKER LAKE A","2300504","2019-04-05 04:00","2019","04","05","04:00","-26.8","","-29.8","","77","","","M","9","","12","","","M","101.23","","","","-36","","NA"
"-96.08","64.30","BAKER LAKE A","2300504","2019-04-05 05:00","2019","04","05","05:00","-26.3","","-29.3","","76","","","M","11","","16","","","M","101.20","","","","-37","","NA"
"-96.08","64.30","BAKER LAKE A","2300504","2019-04-05 06:00","2019","04","05","06:00","-25.5","","-28.5","","77","","","M","10","","21","","","M","101.16","","","","-38","","NA"
"-96.08","64.30","BAKER LAKE A","2300504","2019-04-05 07:00","2019","04","05","07:00","-25.3","","-28.3","","76","","","M","10","","23","","","M","101.15","","","","-38","","NA"
"-96.08","64.30","BAKER LAKE A","2300504","2019-04-05 08:00","2019","04","05","08:00","-24.9","","-28.0","","76","","","M","11","","30","","","M","101.14","","","","-39","","NA"
"-96.08","64.30","BAKER LAKE A","2300504","2019-04-05 09:00","2019","04","05","09:00","-23.4","","-26.5","","76","","","M","9","","24","","","M","101.13","","","","-36","","NA"
"-96.08","64.30","BAKER LAKE A","2300504","2019-04-05 10:00","2019","04","05","10:00","-22.5","","-25.9","","74","","","M","10","","23","","","M","101.12","","","","-34","","NA"
"-96.08","64.30","BAKER LAKE A","2300504","2019-04-05 11:00","2019","04","05","11:00","-22.7","","-26.3","","73","","","M","9","","26","","","M","101.16","","","","-35","","NA"
"-96.08","64.30","BAKER LAKE A","2300504","2019-04-05 12:00","2019","04","05","12:00","-22.3","","-26.0","","72","","","M","10","","28","","","M","101.22","","","","-35","","NA"
"-96.08","64.30","BAKER LAKE A","2300504","2019-04-05 13:00","2019","04","05","13:00","-21.9","","-25.6","","73","","","M","9","","24","","","M","101.23","","","","-34","","NA"
"-96.08","64.30","BAKER LAKE A","2300504","2019-04-05 14:00","2019","04","05","14:00","-21.6","","-25.3","","73","","","M","9","","24","","","M","101.28","","","","-33","","NA"
"-96.08","64.30","BAKER LAKE A","2300504","2019-04-05 15:00","2019","04","05","15:00","-21.5","","-25.2","","72","","","M","9","","22","","","M","101.34","","","","-33","","NA"
"-96.08","64.30","BAKER LAKE A","2300504","2019-04-05 16:00","2019","04","05","16:00","-21.6","","-25.3","","73","","","M","9","","19","","","M","101.42","","","","-32","","NA"
"-96.08","64.30","BAKER LAKE A","2300504","2019-04-05 17:00","2019","04","05","17:00","-21.8","","-25.3","","74","","","M","7","","14","","","M","101.47","","","","-31","","NA"
"-96.08","64.30","BAKER LAKE A","2300504","2019-04-05 18:00","2019","04","05","18:00","-22.6","","-25.8","","76","","","M","6","","10","","","M","101.52","","","","-30","","NA"
"-96.08","64.30","BAKER LAKE A","2300504","2019-04-05 19:00","2019","04","05","19:00","-23.9","","-27.1","","75","","","M","2","","10","","","M","101.58","","","","-32","","NA"
"-96.08","64.30","BAKER LAKE A","2300504","2019-04-05 20:00","2019","04","05","20:00","-25.4","","-28.4","","76","","","M","1","","10","","","M","101.63","","","","-34","","NA"
"-96.08","64.30","BAKER LAKE A","2300504","2019-04-05 21:00","2019","04","05","21:00","-26.6","","-29.8","","75","","","M","34","","14","","","M","101.68","","","","-37","","NA"
"-96.08","64.30","BAKER LAKE A","2300504","2019-04-05 22:00","2019","04","05","22:00","-26.6","","-29.9","","74","","","M","34","","12","","","M","101.74","","","","-36","","NA"
"-96.08","64.30","BAKER LAKE A","2300504","2019-04-05 23:00","2019","04","05","23:00","-27.6","","-31.3","","72","","","M","34","","18","","","M","101.80","","","","-39","","NA"
"-96.08","64.30","BAKER LAKE A","2300504","2019-04-06 00:00","2019","04","06","00:00","-27.3","","-31.0","","72","","","M","34","","20","","","M","101.86","","","","-40","","NA"
"-96.08","64.30","BAKER LAKE A","2300504","2019-04-06 01:00","2019","04","06","01:00","-27.4","","-31.1","","71","","","M","33","","16","","","M","101.91","","","","-39","","NA"
"-96.08","64.30","BAKER LAKE A","2300504","2019-04-06 02:00","2019","04","06","02:00","-27.5","","-31.4","","70","","","M","33","","19","","","M","101.96","","","","-40","","NA"
"-96.08","64.30","BAKER LAKE A","2300504","2019-04-06 03:00","2019","04","06","03:00","-27.7","","-31.5","","71","","","M","32","","17","","","M","102.01","","","","-39","","NA"
"-96.08","64.30","BAKER LAKE A","2300504","2019-04-06 04:00","2019","04","06","04:00","-28.0","","-31.7","","71","","","M","30","","2","","","M","102.08","","","","-30","","NA"
"-96.08","64.30","BAKER LAKE A","2300504","2019-04-06 05:00","2019","04","06","05:00","-27.1","","-30.7","","73","","","M","33","","20","","","M","102.14","","","","-39","","NA"
"-96.08","64.30","BAKER LAKE A","2300504","2019-04-06 06:00","2019","04","06","06:00","-26.2","","-30.1","","70","","","M","33","","12","","","M","102.18","","","","-36","","NA"
"-96.08","64.30","BAKER LAKE A","2300504","2019-04-06 07:00","2019","04","06","07:00","-27.3","","-31.4","","69","","","M","26","","7","","","M","102.21","","","","-34","","NA"
"-96.08","64.30","BAKER LAKE A","2300504","2019-04-06 08:00","2019","04","06","08:00","-26.9","","-32.1","","62","","","M","5","","1","","","M","102.25","","","","-28","","NA"
"-96.08","64.30","BAKER LAKE A","2300504","2019-04-06 09:00","2019","04","06","09:00","-25.3","","-29.4","","70","","","M","25","","2","","","M","102.27","","","","-27","","NA"
"-96.08","64.30","BAKER LAKE A","2300504","2019-04-06 10:00","2019","04","06","10:00","-23.3","","-27.9","","67","","","M","31","","18","","","M","102.32","","","","-34","","NA"
"-96.08","64.30","BAKER LAKE A","2300504","2019-04-06 11:00","2019","04","06","11:00","-22.5","","-27.2","","66","","","M","30","","18","","","M","102.38","","","","-33","","NA"
"-96.08","64.30","BAKER LAKE A","2300504","2019-04-06 12:00","2019","04","06","12:00","-21.9","","-26.4","","68","","","M","30","","13","","","M","102.41","","","","-31","","NA"
"-96.08","64.30","BAKER LAKE A","2300504","2019-04-06 13:00","2019","04","06","13:00","-21.9","","-26.0","","70","","","M","29","","22","","","M","102.46","","","","-33","","NA"
"-96.08","64.30","BAKER LAKE A","2300504","2019-04-06 14:00","2019","04","06","14:00","-21.0","","-25.2","","69","","","M","30","","20","","","M","102.46","","","","-32","","NA"
"-96.08","64.30","BAKER LAKE A","2300504","2019-04-06 15:00","2019","04","06","15:00","-20.9","","-25.0","","70","","","M","31","","18","","","M","102.50","","","","-31","","NA"
"-96.08","64.30","BAKER LAKE A","2300504","2019-04-06 16:00","2019","04","06","16:00","-20.6","","-24.8","","70","","","M","30","","17","","","M","102.54","","","","-30","","NA"
"-96.08","64.30","BAKER LAKE A","2300504","2019-04-06 17:00","2019","04","06","17:00","-21.5","","-25.4","","71","","","M","30","","14","","","M","102.60","","","","-31","","NA"
"-96.08","64.30","BAKER LAKE A","2300504","2019-04-06 18:00","2019","04","06","18:00","-22.4","","-26.2","","72","","","M","29","","11","","","M","102.59","","","","-31","","NA"
"-96.08","64.30","BAKER LAKE A","2300504","2019-04-06 19:00","2019","04","06","19:00","-23.6","","-26.9","","74","","","M","29","","19","","","M","102.60","","","","-35","","NA"
"-96.08","64.30","BAKER LAKE A","2300504","2019-04-06 20:00","2019","04","06","20:00","-24.4","","-27.5","","75","","","M","30","","16","","","M","102.61","","","","-35","","NA"
"-96.08","64.30","BAKER LAKE A","2300504","2019-04-06 21:00","2019","04","06","21:00","-26.1","","-29.0","","78","","","M","1","","2","","","M","102.64","","","","-28","","NA"
"-96.08","64.30","BAKER LAKE A","2300504","2019-04-06 22:00","2019","04","06","22:00","-25.8","","-28.5","","79","","","M","7","","4","","","M","102.65","","","","-30","","NA"
"-96.08","64.30","BAKER LAKE A","2300504","2019-04-06 23:00","2019","04","06","23:00","-27.5","","-30.4","","77","","","M","35","","2","","","M","102.66","","","","-30","","NA"
"-96.08","64.30","BAKER LAKE A","2300504","2019-04-07 00:00","2019","04","07","00:00","-27.1","","-29.9","","78","","","M","19","","5","","","M","102.68","","","","-32","","NA"
"-96.08","64.30","BAKER LAKE A","2300504","2019-04-07 01:00","2019","04","07","01:00","-27.4","","-30.1","","78","","","M","31","","4","","","M","102.68","","","","-32","","NA"
"-96.08","64.30","BAKER LAKE A","2300504","2019-04-07 02:00","2019","04","07","02:00","-28.9","","-31.8","","77","","","M","9","","1","","","M","102.72","","","","-30","","NA"
"-96.08","64.30","BAKER LAKE A","2300504","2019-04-07 03:00","2019","04","07","03:00","-30.0","","-33.1","","75","","","M","21","","2","","","M","102.75","","","","-32","","NA"
"-96.08","64.30","BAKER LAKE A","2300504","2019-04-07 04:00","2019","04","07","04:00","-29.6","","-32.6","","75","","","M","25","","3","","","M","102.76","","","","-33","","NA"
"-96.08","64.30","BAKER LAKE A","2300504","2019-04-07 05:00","2019","04","07","05:00","-31.9","","-35.1","","74","","","M","9","","2","","","M","102.77","","","","-34","","NA"
"-96.08","64.30","BAKER LAKE A","2300504","2019-04-07 06:00","2019","04","07","06:00","-30.5","","-33.6","","75","","","M","24","","1","","","M","102.77","","","","-32","","NA"
"-96.08","64.30","BAKER LAKE A","2300504","2019-04-07 07:00","2019","04","07","07:00","-30.6","","-33.9","","74","","","M","9","","4","","","M","102.76","","","","-35","","NA"
"-96.08","64.30","BAKER LAKE A","2300504","2019-04-07 08:00","2019","04","07","08:00","-29.8","","-33.0","","74","","","M","2","","4","","","M","102.75","","","","-34","","NA"
"-96.08","64.30","BAKER LAKE A","2300504","2019-04-07 09:00","2019","04","07","09:00","-28.9","","-32.1","","74","","","M","10","","2","","","M","102.72","","","","-31","","NA"
"-96.08","64.30","BAKER LAKE A","2300504","2019-04-07 10:00","2019","04","07","10:00","-27.9","","-31.1","","75","","","M","7","","3","","","M","102.72","","","","-31","","NA"
"-96.08","64.30","BAKER LAKE A","2300504","2019-04-07 11:00","2019","04","07","11:00","-26.5","","-29.6","","76","","","M","14","","3","","","M","102.72","","","","-30","","NA"
"-96.08","64.30","BAKER LAKE A","2300504","2019-04-07 12:00","2019","04","07","12:00","-25.0","","-28.0","","77","","","M","13","","7","","","M","102.73","","","","-31","","NA"
"-96.08","64.30","BAKER LAKE A","2300504","2019-04-07 13:00","2019","04","07","13:00","-23.5","","-26.4","","78","","","M","10","","9","","","M","102.71","","","","-31","","NA"
"-96.08","64.30","BAKER LAKE A","2300504","2019-04-07 14:00","2019","04","07","14:00","-21.8","","-24.5","","79","","","M","12","","16","","","M","102.67","","","","-32","","NA"
"-96.08","64.30","BAKER LAKE A","2300504","2019-04-07 15:00","2019","04","07","15:00","-20.6","","-23.3","","79","","","M","12","","17","","","M","102.62","","","","-30","","NA"
"-96.08","64.30","BAKER LAKE A","2300504","2019-04-07 16:00","2019","04","07","16:00","-20.1","","-23.1","","77","","","M","12","","15","","","M","102.58","","","","-29","","NA"
"-96.08","64.30","BAKER LAKE A","2300504","2019-04-07 17:00","2019","04","07","17:00","-20.0","","-23.0","","78","","","M","12","","12","","","M","102.53","","","","-28","","NA"
"-96.08","64.30","BAKER LAKE A","2300504","2019-04-07 18:00","2019","04","07","18:00","-21.1","","-23.9","","79","","","M","11","","14","","","M","102.53","","","","-30","","NA"
"-96.08","64.30","BAKER LAKE A","2300504","2019-04-07 19:00","2019","04","07","19:00","-22.9","","-25.6","","79","","","M","13","","12","","","M","102.53","","","","-32","","NA"
"-96.08","64.30","BAKER LAKE A","2300504","2019-04-07 20:00","2019","04","07","20:00","-22.8","","-25.3","","81","","","M","12","","10","","","M","102.54","","","","-31","","NA"
"-96.08","64.30","BAKER LAKE A","2300504","2019-04-07 21:00","2019","04","07","21:00","-23.6","","-26.2","","80","","","M","10","","4","","","M","102.55","","","","-27","","NA"
"-96.08","64.30","BAKER LAKE A","2300504","2019-04-07 22:00","2019","04","07","22:00","-24.6","","-27.2","","79","","","M","9","","9","","","M","102.52","","","","-32","","NA"
"-96.08","64.30","BAKER LAKE A","2300504","2019-04-07 23:00","2019","04","07","23:00","-24.8","","-27.4","","79","","","M","7","","2","","","M","102.51","","","","-27","","NA"
"-96.08","64.30","BAKER LAKE A","2300504","2019-04-08 00:00","2019","04","08","00:00","-25.5","","-28.3","","78","","","M","10","","10","","","M","102.50","","","","-34","","NA"
"-96.08","64.30","BAKER LAKE A","2300504","2019-04-08 01:00","2019","04","08","01:00","-24.5","","-27.2","","79","","","M","13","","3","","","M","102.48","","","","-27","","NA"
"-96.08","64.30","BAKER LAKE A","2300504","2019-04-08 02:00","2019","04","08","02:00","-24.8","","-27.7","","78","","","M","12","","10","","","M","102.47","","","","-33","","NA"
"-96.08","64.30","BAKER LAKE A","2300504","2019-04-08 03:00","2019","04","08","03:00","-24.2","","-26.9","","79","","","M","12","","17","","","M","102.50","","","","-35","","NA"
"-96.08","64.30","BAKER LAKE A","2300504","2019-04-08 04:00","2019","04","08","04:00","-23.5","","-26.1","","79","","","M","11","","19","","","M","102.53","","","","-35","","NA"
"-96.08","64.30","BAKER LAKE A","2300504","2019-04-08 05:00","2019","04","08","05:00","-23.5","","-26.2","","79","","","M","11","","19","","","M","102.55","","","","-35","","NA"
"-96.08","64.30","BAKER LAKE A","2300504","2019-04-08 06:00","2019","04","08","06:00","-24.1","","-26.8","","78","","","M","13","","14","","","M","102.54","","","","-34","","NA"
"-96.08","64.30","BAKER LAKE A","2300504","2019-04-08 07:00","2019","04","08","07:00","-22.6","","-25.2","","79","","","M","12","","19","","","M","102.55","","","","-33","","NA"
"-96.08","64.30","BAKER LAKE A","2300504","2019-04-08 08:00","2019","04","08","08:00","-20.9","","-23.6","","80","","","M","13","","23","","","M","102.54","","","","-32","","NA"
"-96.08","64.30","BAKER LAKE A","2300504","2019-04-08 09:00","2019","04","08","09:00","-19.4","","-22.4","","78","","","M","12","","12","","","M","102.56","","","","-27","","NA"
"-96.08","64.30","BAKER LAKE A","2300504","2019-04-08 10:00","2019","04","08","10:00","-16.9","","-20.4","","75","","","M","16","","18","","","M","102.55","","","","-26","","NA"
"-96.08","64.30","BAKER LAKE A","2300504","2019-04-08 11:00","2019","04","08","11:00","-15.5","","-19.3","","73","","","M","17","","23","","","M","102.56","","","","-25","","NA"
"-96.08","64.30","BAKER LAKE A","2300504","2019-04-08 12:00","2019","04","08","12:00","-14.6","","-18.6","","72","","","M","17","","24","","","M","102.58","","","","-24","","NA"
"-96.08","64.30","BAKER LAKE A","2300504","2019-04-08 13:00","2019","04","08","13:00","-13.9","","-18.1","","71","","","M","17","","32","","","M","102.56","","","","-25","","NA"
"-96.08","64.30","BAKER LAKE A","2300504","2019-04-08 14:00","2019","04","08","14:00","-13.2","","-17.6","","70","","","M","17","","28","","","M","102.56","","","","-23","","NA"
"-96.08","64.30","BAKER LAKE A","2300504","2019-04-08 15:00","2019","04","08","15:00","-12.9","","-17.2","","71","","","M","17","","25","","","M","102.58","","","","-22","","NA"
"-96.08","64.30","BAKER LAKE A","2300504","2019-04-08 16:00","2019","04","08","16:00","-13.0","","-16.9","","73","","","M","16","","22","","","M","102.60","","","","-22","","NA"
"-96.08","64.30","BAKER LAKE A","2300504","2019-04-08 17:00","2019","04","08","17:00","-13.7","","-17.2","","75","","","M","16","","16","","","M","102.59","","","","-22","","NA"
"-96.08","64.30","BAKER LAKE A","2300504","2019-04-08 18:00","2019","04","08","18:00","-14.3","","-17.7","","76","","","M","17","","11","","","M","102.59","","","","-21","","NA"
"-96.08","64.30","BAKER LAKE A","2300504","2019-04-08 19:00","2019","04","08","19:00","-15.8","","-18.8","","78","","","M","18","","16","","","M","102.56","","","","-24","","NA"
"-96.08","64.30","BAKER LAKE A","2300504","2019-04-08 20:00","2019","04","08","20:00","-15.5","","-18.8","","76","","","M","17","","25","","","M","102.56","","","","-26","","NA"
"-96.08","64.30","BAKER LAKE A","2300504","2019-04-08 21:00","2019","04","08","21:00","-15.9","","-19.0","","77","","","M","18","","30","","","M","102.56","","","","-27","","NA"
"-96.08","64.30","BAKER LAKE A","2300504","2019-04-08 22:00","2019","04","08","22:00","-16.0","","-19.2","","76","","","M","18","","21","","","M","102.57","","","","-26","","NA"
"-96.08","64.30","BAKER LAKE A","2300504","2019-04-08 23:00","2019","04","08","23:00","-16.3","","-19.4","","77","","","M","17","","6","","","M","102.59","","","","-21","","NA"
"-96.08","64.30","BAKER LAKE A","2300504","2019-04-09 00:00","2019","04","09","00:00","-17.7","","-20.9","","76","","","M","17","","9","","","M","102.61","","","","-24","","NA"
"-96.08","64.30","BAKER LAKE A","2300504","2019-04-09 01:00","2019","04","09","01:00","-16.5","","-20.1","","74","","","M","18","","17","","","M","102.63","","","","-25","","NA"
"-96.08","64.30","BAKER LAKE A","2300504","2019-04-09 02:00","2019","04","09","02:00","-17.9","","-21.2","","76","","","M","14","","20","","","M","102.62","","","","-28","","NA"
"-96.08","64.30","BAKER LAKE A","2300504","2019-04-09 03:00","2019","04","09","03:00","-19.2","","-22.2","","77","","","M","14","","17","","","M","102.64","","","","-29","","NA"
"-96.08","64.30","BAKER LAKE A","2300504","2019-04-09 04:00","2019","04","09","04:00","-18.1","","-21.9","","73","","","M","18","","3","","","M","102.64","","","","-21","","NA"
"-96.08","64.30","BAKER LAKE A","2300504","2019-04-09 05:00","2019","04","09","05:00","-19.9","","-22.8","","78","","","M","19","","3","","","M","102.64","","","","-22","","NA"
"-96.08","64.30","BAKER LAKE A","2300504","2019-04-09 06:00","2019","04","09","06:00","-20.2","","-23.6","","74","","","M","16","","6","","","M","102.65","","","","-25","","NA"
"-96.08","64.30","BAKER LAKE A","2300504","2019-04-09 07:00","2019","04","09","07:00","-19.2","","-22.3","","77","","","M","17","","8","","","M","102.64","","","","-25","","NA"
"-96.08","64.30","BAKER LAKE A","2300504","2019-04-09 08:00","2019","04","09","08:00","-17.5","","-21.4","","72","","","M","17","","17","","","M","102.62","","","","-27","","NA"
"-96.08","64.30","BAKER LAKE A","2300504","2019-04-09 09:00","2019","04","09","09:00","-16.1","","-20.5","","69","","","M","17","","23","","","M","102.61","","","","-26","","NA"
"-96.08","64.30","BAKER LAKE A","2300504","2019-04-09 10:00","2019","04","09","10:00","-16.0","","-19.9","","72","","","M","15","","17","","","M","102.61","","","","-25","","NA"
"-96.08","64.30","BAKER LAKE A","2300504","2019-04-09 11:00","2019","04","09","11:00","-14.0","","-18.6","","69","","","M","19","","30","","","M","102.59","","","","-25","","NA"
"-96.08","64.30","BAKER LAKE A","2300504","2019-04-09 12:00","2019","04","09","12:00","-12.5","","-17.2","","68","","","M","19","","25","","","M","102.60","","","","-22","","NA"
"-96.08","64.30","BAKER LAKE A","2300504","2019-04-09 13:00","2019","04","09","13:00","-11.7","","-16.6","","68","","","M","18","","23","","","M","102.59","","","","-21","","NA"
"-96.08","64.30","BAKER LAKE A","2300504","2019-04-09 14:00","2019","04","09","14:00","-11.3","","-16.0","","69","","","M","18","","26","","","M","102.55","","","","-21","","NA"
"-96.08","64.30","BAKER LAKE A","2300504","2019-04-09 15:00","2019","04","09","15:00","-10.9","","-15.1","","72","","","M","17","","20","","","M","102.54","","","","-19","","NA"
"-96.08","64.30","BAKER LAKE A","2300504","2019-04-09 16:00","2019","04","09","16:00","-10.9","","-15.0","","73","","","M","17","","26","","","M","102.52","","","","-20","","NA"
"-96.08","64.30","BAKER LAKE A","2300504","2019-04-09 17:00","2019","04","09","17:00","-11.7","","-15.4","","74","","","M","17","","27","","","M","102.51","","","","-21","","NA"
"-96.08","64.30","BAKER LAKE A","2300504","2019-04-09 18:00","2019","04","09","18:00","-11.3","","-15.3","","72","","","M","18","","27","","","M","102.50","","","","-21","","NA"
"-96.08","64.30","BAKER LAKE A","2300504","2019-04-09 19:00","2019","04","09","19:00","-12.8","","-16.2","","76","","","M","18","","11","","","M","102.53","","","","-19","","NA"
"-96.08","64.30","BAKER LAKE A","2300504","2019-04-09 20:00","2019","04","09","20:00","-13.2","","-16.5","","77","","","M","17","","15","","","M","102.52","","","","-21","","NA"
"-96.08","64.30","BAKER LAKE A","2300504","2019-04-09 21:00","2019","04","09","21:00","-13.5","","-16.7","","77","","","M","18","","17","","","M","102.50","","","","-22","","NA"
"-96.08","64.30","BAKER LAKE A","2300504","2019-04-09 22:00","2019","04","09","22:00","-13.3","","-16.8","","76","","","M","18","","19","","","M","102.49","","","","-22","","NA"
"-96.08","64.30","BAKER LAKE A","2300504","2019-04-09 23:00","2019","04","09","23:00","-14.5","","-17.4","","79","","","M","18","","25","","","M","102.44","","","","-25","","NA"
"-96.08","64.30","BAKER LAKE A","2300504","2019-04-10 00:00","2019","04","10","00:00","-14.7","","-17.5","","80","","","M","15","","17","","","M","102.45","","","","-23","","NA"
"-96.08","64.30","BAKER LAKE A","2300504","2019-04-10 01:00","2019","04","10","01:00","-14.6","","-17.4","","80","","","M","17","","17","","","M","102.42","","","","-23","","NA"
"-96.08","64.30","BAKER LAKE A","2300504","2019-04-10 02:00","2019","04","10","02:00","-15.4","","-18.2","","80","","","M","15","","14","","","M","102.39","","","","-23","","NA"
"-96.08","64.30","BAKER LAKE A","2300504","2019-04-10 03:00","2019","04","10","03:00","-14.2","","-17.2","","78","","","M","18","","13","","","M","102.37","","","","-21","","NA"
"-96.08","64.30","BAKER LAKE A","2300504","2019-04-10 04:00","2019","04","10","04:00","-13.8","","-16.7","","79","","","M","14","","16","","","M","102.36","","","","-22","","NA"
"-96.08","64.30","BAKER LAKE A","2300504","2019-04-10 05:00","2019","04","10","05:00","-13.4","","-16.6","","77","","","M","12","","14","","","M","102.34","","","","-21","","NA"
"-96.08","64.30","BAKER LAKE A","2300504","2019-04-10 06:00","2019","04","10","06:00","-12.9","","-15.9","","78","","","M","14","","17","","","M","102.29","","","","-21","","NA"
"-96.08","64.30","BAKER LAKE A","2300504","2019-04-10 07:00","2019","04","10","07:00","-12.4","","-15.3","","79","","","M","17","","21","","","M","102.25","","","","-21","","NA"
"-96.08","64.30","BAKER LAKE A","2300504","2019-04-10 08:00","2019","04","10","08:00","-11.6","","-14.8","","77","","","M","15","","18","","","M","102.29","","","","-19","","NA"
"-96.08","64.30","BAKER LAKE A","2300504","2019-04-10 09:00","2019","04","10","09:00","-10.6","","-14.0","","76","","","M","15","","17","","","M","102.26","","","","-18","","NA"
"-96.08","64.30","BAKER LAKE A","2300504","2019-04-10 10:00","2019","04","10","10:00","-9.0","","-12.1","","78","","","M","15","","13","","","M","102.28","","","","-15","","NA"
"-96.08","64.30","BAKER LAKE A","2300504","2019-04-10 11:00","2019","04","10","11:00","-8.0","","-11.4","","77","","","M","16","","15","","","M","102.25","","","","-14","","NA"
"-96.08","64.30","BAKER LAKE A","2300504","2019-04-10 12:00","2019","04","10","12:00","-6.5","","-9.8","","78","","","M","14","","14","","","M","102.23","","","","-12","","NA"
"-96.08","64.30","BAKER LAKE A","2300504","2019-04-10 13:00","2019","04","10","13:00","-5.3","","-8.7","","77","","","M","17","","17","","","M","102.20","","","","-11","","NA"
"-96.08","64.30","BAKER LAKE A","2300504","2019-04-10 14:00","2019","04","10","14:00","-4.1","","-7.6","","77","","","M","17","","25","","","M","102.18","","","","-11","","NA"
"-96.08","64.30","BAKER LAKE A","2300504","2019-04-10 15:00","2019","04","10","15:00","-3.7","","-7.0","","78","","","M","16","","17","","","M","102.16","","","","-9","","NA"
"-96.08","64.30","BAKER LAKE A","2300504","2019-04-10 16:00","2019","04","10","16:00","-3.8","","-6.5","","82","","","M","17","","16","","","M","102.15","","","","-9","","NA"
"-96.08","64.30","BAKER LAKE A","2300504","2019-04-10 17:00","2019","04","10","17:00","-3.5","","-6.1","","82","","","M","17","","12","","","M","102.17","","","","-8","","NA"
"-96.08","64.30","BAKER LAKE A","2300504","2019-04-10 18:00","2019","04","10","18:00","-3.8","","-6.2","","83","","","M","18","","17","","","M","102.15","","","","-10","","NA"
"-96.08","64.30","BAKER LAKE A","2300504","2019-04-10 19:00","2019","04","10","19:00","-4.2","","-6.7","","83","","","M","19","","21","","","M","102.13","","","","-11","","NA"
"-96.08","64.30","BAKER LAKE A","2300504","2019-04-10 20:00","2019","04","10","20:00","-5.0","","-6.9","","87","","","M","15","","5","","","M","102.14","","","","-7","","NA"
"-96.08","64.30","BAKER LAKE A","2300504","2019-04-10 21:00","2019","04","10","21:00","-7.2","","-8.9","","87","","","M","13","","4","","","M","102.17","","","","-9","","NA"
"-96.08","64.30","BAKER LAKE A","2300504","2019-04-10 22:00","2019","04","10","22:00","-8.9","","-10.8","","86","","","M","7","","4","","","M","102.15","","","","-11","","NA"
"-96.08","64.30","BAKER LAKE A","2300504","2019-04-10 23:00","2019","04","10","23:00","-10.9","","-12.3","","89","","","M","34","","5","","","M","102.14","","","","-14","","NA"
"-96.08","64.30","BAKER LAKE A","2300504","2019-04-11 00:00","2019","04","11","00:00","-10.6","","-12.1","","89","","","M","11","","8","","","M","102.11","","","","-15","","NA"
"-96.08","64.30","BAKER LAKE A","2300504","2019-04-11 01:00","2019","04","11","01:00","-12.1","","-13.5","","89","","","M","14","","2","","","M","102.10","","","","-13","","NA"
"-96.08","64.30","BAKER LAKE A","2300504","2019-04-11 02:00","2019","04","11","02:00","-11.0","","-12.5","","89","","","M","29","","3","","","M","102.11","","","","-13","","NA"
"-96.08","64.30","BAKER LAKE A","2300504","2019-04-11 03:00","2019","04","11","03:00","-11.7","","-13.1","","90","","","M","11","","10","","","M","102.10","","","","-17","","NA"
"-96.08","64.30","BAKER LAKE A","2300504","2019-04-11 04:00","2019","04","11","04:00","-12.2","","-13.7","","89","","","M","1","","4","","","M","102.08","","","","-15","","NA"
"-96.08","64.30","BAKER LAKE A","2300504","2019-04-11 05:00","2019","04","11","05:00","-12.4","","-13.8","","89","","","M","32","","1","","","M","102.07","","","","-13","","NA"
"-96.08","64.30","BAKER LAKE A","2300504","2019-04-11 06:00","2019","04","11","06:00","-12.9","","-14.3","","89","","","M","11","","4","","","M","102.08","","","","-16","","NA"
"-96.08","64.30","BAKER LAKE A","2300504","2019-04-11 07:00","2019","04","11","07:00","-12.5","","-14.0","","89","","","M","13","","5","","","M","102.07","","","","-16","","NA"
"-96.08","64.30","BAKER LAKE A","2300504","2019-04-11 08:00","2019","04","11","08:00","-12.2","","-14.0","","87","","","M","16","","4","","","M","102.06","","","","-15","","NA"
"-96.08","64.30","BAKER LAKE A","2300504","2019-04-11 09:00","2019","04","11","09:00","-11.2","","-13.2","","85","","","M","14","","5","","","M","102.03","","","","-14","","NA"
"-96.08","64.30","BAKER LAKE A","2300504","2019-04-11 10:00","2019","04","11","10:00","-9.2","","-11.7","","82","","","M","14","","3","","","M","102.00","","","","-11","","NA"
"-96.08","64.30","BAKER LAKE A","2300504","2019-04-11 11:00","2019","04","11","11:00","-7.5","","-9.9","","83","","","M","11","","13","","","M","102.00","","","","-13","","NA"
"-96.08","64.30","BAKER LAKE A","2300504","2019-04-11 12:00","2019","04","11","12:00","-6.4","","-9.1","","82","","","M","11","","13","","","M","101.99","","","","-12","","NA"
"-96.08","64.30","BAKER LAKE A","2300504","2019-04-11 13:00","2019","04","11","13:00","-5.6","","-8.4","","81","","","M","12","","12","","","M","101.98","","","","-11","","NA"
"-96.08","64.30","BAKER LAKE A","2300504","2019-04-11 14:00","2019","04","11","14:00","-4.9","","-7.4","","83","","","M","12","","13","","","M","101.97","","","","-10","","NA"
"-96.08","64.30","BAKER LAKE A","2300504","2019-04-11 15:00","2019","04","11","15:00","-4.5","","-6.6","","85","","","M","13","","12","","","M","101.96","","","","-9","","NA"
"-96.08","64.30","BAKER LAKE A","2300504","2019-04-11 16:00","2019","04","11","16:00","-4.4","","-6.6","","85","","","M","13","","8","","","M","101.90","","","","-8","","NA"
"-96.08","64.30","BAKER LAKE A","2300504","2019-04-11 17:00","2019","04","11","17:00","-5.3","","-7.0","","88","","","M","12","","14","","","M","101.86","","","","-11","","NA"
"-96.08","64.30","BAKER LAKE A","2300504","2019-04-11 18:00","2019","04","11","18:00","-5.8","","-7.2","","89","","","M","13","","7","","","M","101.84","","","","-9","","NA"
"-96.08","64.30","BAKER LAKE A","2300504","2019-04-11 19:00","2019","04","11","19:00","-7.0","","-8.1","","92","","","M","32","","3","","","M","101.81","","","","-9","","NA"
"-96.08","64.30","BAKER LAKE A","2300504","2019-04-11 20:00","2019","04","11","20:00","-8.8","","-9.8","","92","","","M","30","","3","","","M","101.79","","","","-10","","NA"
"-96.08","64.30","BAKER LAKE A","2300504","2019-04-11 21:00","2019","04","11","21:00","-10.1","","-11.1","","92","","","M","32","","8","","","M","101.78","","","","-15","","NA"
"-96.08","64.30","BAKER LAKE A","2300504","2019-04-11 22:00","2019","04","11","22:00","-9.7","","-10.7","","93","","","M","34","","5","","","M","101.75","","","","-13","","NA"
"-96.08","64.30","BAKER LAKE A","2300504","2019-04-11 23:00","2019","04","11","23:00","-11.2","","-12.4","","91","","","M","36","","4","","","M","101.72","","","","-14","","NA"
"-96.08","64.30","BAKER LAKE A","2300504","2019-04-12 00:00","2019","04","12","00:00","-10.6","","-11.8","","91","","","M","3","","2","","","M","101.67","","","","-12","","NA"
"-96.08","64.30","BAKER LAKE A","2300504","2019-04-12 01:00","2019","04","12","01:00","-11.9","","-13.3","","89","","","M","20","","1","","","M","101.64","","","","-13","","NA"
"-96.08","64.30","BAKER LAKE A","2300504","2019-04-12 02:00","2019","04","12","02:00","-10.5","","-11.7","","90","","","M","34","","4","","","M","101.62","","","","-13","","NA"
"-96.08","64.30","BAKER LAKE A","2300504","2019-04-12 03:00","2019","04","12","03:00","-9.9","","-11.1","","91","","","M","36","","4","","","M","101.58","","","","-12","","NA"
"-96.08","64.30","BAKER LAKE A","2300504","2019-04-12 04:00","2019","04","12","04:00","-9.9","","-11.2","","91","","","M","35","","3","","","M","101.54","","","","-12","","NA"
"-96.08","64.30","BAKER LAKE A","2300504","2019-04-12 05:00","2019","04","12","05:00","-10.0","","-11.3","","90","","","M","30","","3","","","M","101.52","","","","-12","","NA"
"-96.08","64.30","BAKER LAKE A","2300504","2019-04-12 06:00","2019","04","12","06:00","-9.5","","-10.7","","91","","","M","20","","5","","","M","101.47","","","","-12","","NA"
"-96.08","64.30","BAKER LAKE A","2300504","2019-04-12 07:00","2019","04","12","07:00","-9.7","","-11.0","","90","","","M","30","","6","","","M","101.45","","","","-13","","NA"
"-96.08","64.30","BAKER LAKE A","2300504","2019-04-12 08:00","2019","04","12","08:00","-10.0","","-11.3","","90","","","M","32","","11","","","M","101.45","","","","-16","","NA"
"-96.08","64.30","BAKER LAKE A","2300504","2019-04-12 09:00","2019","04","12","09:00","-9.4","","-10.7","","91","","","M","35","","18","","","M","101.40","","","","-17","","NA"
"-96.08","64.30","BAKER LAKE A","2300504","2019-04-12 10:00","2019","04","12","10:00","-8.3","","-9.5","","92","","","M","35","","9","","","M","101.40","","","","-13","","NA"
"-96.08","64.30","BAKER LAKE A","2300504","2019-04-12 11:00","2019","04","12","11:00","-7.2","","-8.2","","93","","","M","34","","8","","","M","101.35","","","","-11","","NA"
"-96.08","64.30","BAKER LAKE A","2300504","2019-04-12 12:00","2019","04","12","12:00","-6.6","","-7.6","","93","","","M","36","","9","","","M","101.29","","","","-11","","NA"
"-96.08","64.30","BAKER LAKE A","2300504","2019-04-12 13:00","2019","04","12","13:00","-6.2","","-7.2","","93","","","M","33","","4","","","M","101.25","","","","-8","","NA"
"-96.08","64.30","BAKER LAKE A","2300504","2019-04-12 14:00","2019","04","12","14:00","-5.6","","-6.4","","94","","","M","35","","8","","","M","101.22","","","","-9","","NA"
"-96.08","64.30","BAKER LAKE A","2300504","2019-04-12 15:00","2019","04","12","15:00","-5.3","","-6.2","","94","","","M","2","","5","","","M","101.21","","","","-8","","NA"
"-96.08","64.30","BAKER LAKE A","2300504","2019-04-12 16:00","2019","04","12","16:00","-5.2","","-6.0","","94","","","M","35","","11","","","M","101.18","","","","-10","","NA"
"-96.08","64.30","BAKER LAKE A","2300504","2019-04-12 17:00","2019","04","12","17:00","-5.3","","-6.2","","94","","","M","36","","12","","","M","101.16","","","","-10","","NA"
"-96.08","64.30","BAKER LAKE A","2300504","2019-04-12 18:00","2019","04","12","18:00","-5.3","","-6.2","","94","","","M","35","","12","","","M","101.12","","","","-10","","NA"
"-96.08","64.30","BAKER LAKE A","2300504","2019-04-12 19:00","2019","04","12","19:00","-5.3","","-6.2","","93","","","M","36","","13","","","M","101.08","","","","-10","","NA"
"-96.08","64.30","BAKER LAKE A","2300504","2019-04-12 20:00","2019","04","12","20:00","-5.3","","-6.4","","93","","","M","36","","12","","","M","101.08","","","","-10","","NA"
"-96.08","64.30","BAKER LAKE A","2300504","2019-04-12 21:00","2019","04","12","21:00","-5.5","","-6.7","","91","","","M","35","","16","","","M","101.02","","","","-11","","NA"
"-96.08","64.30","BAKER LAKE A","2300504","2019-04-12 22:00","2019","04","12","22:00","-5.6","","-6.9","","91","","","M","35","","12","","","M","100.98","","","","-11","","NA"
"-96.08","64.30","BAKER LAKE A","2300504","2019-04-12 23:00","2019","04","12","23:00","-5.7","","-7.1","","89","","","M","35","","15","","","M","100.96","","","","-11","","NA"
"-96.08","64.30","BAKER LAKE A","2300504","2019-04-13 00:00","2019","04","13","00:00","-5.9","","-7.7","","87","","","M","36","","18","","","M","100.92","","","","-12","","NA"
"-96.08","64.30","BAKER LAKE A","2300504","2019-04-13 01:00","2019","04","13","01:00","-6.7","","-8.4","","88","","","M","35","","17","","","M","100.87","","","","-13","","NA"
"-96.08","64.30","BAKER LAKE A","2300504","2019-04-13 02:00","2019","04","13","02:00","-7.2","","-9.0","","87","","","M","35","","21","","","M","100.85","","","","-15","","NA"
"-96.08","64.30","BAKER LAKE A","2300504","2019-04-13 03:00","2019","04","13","03:00","-7.5","","-9.5","","86","","","M","36","","18","","","M","100.84","","","","-14","","NA"
"-96.08","64.30","BAKER LAKE A","2300504","2019-04-13 04:00","2019","04","13","04:00","-8.2","","-10.2","","85","","","M","35","","20","","","M","100.82","","","","-16","","NA"
"-96.08","64.30","BAKER LAKE A","2300504","2019-04-13 05:00","2019","04","13","05:00","-8.8","","-10.8","","85","","","M","36","","13","","","M","100.82","","","","-15","","NA"
"-96.08","64.30","BAKER LAKE A","2300504","2019-04-13 06:00","2019","04","13","06:00","-10.2","","-12.3","","85","","","M","35","","24","","","M","100.81","","","","-19","","NA"
"-96.08","64.30","BAKER LAKE A","2300504","2019-04-13 07:00","2019","04","13","07:00","-9.2","","-11.2","","86","","","M","34","","28","","","M","100.78","","","","-18","","NA"
"-96.08","64.30","BAKER LAKE A","2300504","2019-04-13 08:00","2019","04","13","08:00","-8.1","","-10.4","","84","","","M","35","","27","","","M","100.77","","","","-17","","NA"
"-96.08","64.30","BAKER LAKE A","2300504","2019-04-13 09:00","2019","04","13","09:00","-7.5","","-10.0","","83","","","M","35","","25","","","M","100.73","","","","-16","","NA"
"-96.08","64.30","BAKER LAKE A","2300504","2019-04-13 10:00","2019","04","13","10:00","-6.6","","-9.1","","82","","","M","35","","25","","","M","100.73","","","","-14","","NA"
"-96.08","64.30","BAKER LAKE A","2300504","2019-04-13 11:00","2019","04","13","11:00","-5.1","","-8.0","","80","","","M","36","","23","","","M","100.70","","","","-12","","NA"
"-96.08","64.30","BAKER LAKE A","2300504","2019-04-13 12:00","2019","04","13","12:00","-4.5","","-7.5","","80","","","M","36","","22","","","M","100.72","","","","-11","","NA"
"-96.08","64.30","BAKER LAKE A","2300504","2019-04-13 13:00","2019","04","13","13:00","-4.1","","-7.2","","80","","","M","1","","22","","","M","100.73","","","","-11","","NA"
"-96.08","64.30","BAKER LAKE A","2300504","2019-04-13 14:00","2019","04","13","14:00","-4.5","","-7.7","","78","","","M","2","","23","","","M","100.75","","","","-11","","NA"
"-96.08","64.30","BAKER LAKE A","2300504","2019-04-13 15:00","2019","04","13","15:00","-4.6","","-7.4","","81","","","M","2","","23","","","M","100.78","","","","-12","","NA"
"-96.08","64.30","BAKER LAKE A","2300504","2019-04-13 16:00","2019","04","13","16:00","-5.2","","-8.3","","79","","","M","36","","22","","","M","100.79","","","","-12","","NA"
"-96.08","64.30","BAKER LAKE A","2300504","2019-04-13 17:00","2019","04","13","17:00","-5.8","","-8.6","","80","","","M","2","","14","","","M","100.86","","","","-11","","NA"
"-96.08","64.30","BAKER LAKE A","2300504","2019-04-13 18:00","2019","04","13","18:00","-6.4","","-9.2","","81","","","M","1","","12","","","M","100.86","","","","-12","","NA"
"-96.08","64.30","BAKER LAKE A","2300504","2019-04-13 19:00","2019","04","13","19:00","-8.1","","-10.6","","82","","","M","35","","18","","","M","100.85","","","","-15","","NA"
"-96.08","64.30","BAKER LAKE A","2300504","2019-04-13 20:00","2019","04","13","20:00","-9.6","","-11.4","","87","","","M","35","","21","","","M","100.86","","","","-18","","NA"
"-96.08","64.30","BAKER LAKE A","2300504","2019-04-13 21:00","2019","04","13","21:00","-8.8","","-10.9","","85","","","M","35","","21","","","M","100.88","","","","-17","","NA"
"-96.08","64.30","BAKER LAKE A","2300504","2019-04-13 22:00","2019","04","13","22:00","-8.0","","-10.0","","85","","","M","35","","16","","","M","100.85","","","","-15","","NA"
"-96.08","64.30","BAKER LAKE A","2300504","2019-04-13 23:00","2019","04","13","23:00","-7.4","","-9.3","","86","","","M","36","","13","","","M","100.87","","","","-13","","NA"
"-96.08","64.30","BAKER LAKE A","2300504","2019-04-14 00:00","2019","04","14","00:00","-7.1","","-9.2","","85","","","M","1","","14","","","M","100.88","","","","-13","","NA"
"-96.08","64.30","BAKER LAKE A","2300504","2019-04-14 01:00","2019","04","14","01:00","-7.2","","-9.1","","87","","","M","2","","16","","","M","100.88","","","","-14","","NA"
"-96.08","64.30","BAKER LAKE A","2300504","2019-04-14 02:00","2019","04","14","02:00","-7.8","","-10.0","","85","","","M","35","","10","","","M","100.90","","","","-13","","NA"
"-96.08","64.30","BAKER LAKE A","2300504","2019-04-14 03:00","2019","04","14","03:00","-8.2","","-10.1","","86","","","M","35","","10","","","M","100.92","","","","-13","","NA"
"-96.08","64.30","BAKER LAKE A","2300504","2019-04-14 04:00","2019","04","14","04:00","-8.2","","-9.8","","88","","","M","1","","12","","","M","100.93","","","","-14","","NA"
"-96.08","64.30","BAKER LAKE A","2300504","2019-04-14 05:00","2019","04","14","05:00","-8.4","","-9.7","","90","","","M","35","","17","","","M","100.95","","","","-15","","NA"
"-96.08","64.30","BAKER LAKE A","2300504","2019-04-14 06:00","2019","04","14","06:00","-8.4","","-9.5","","92","","","M","2","","16","","","M","100.94","","","","-15","","NA"
"-96.08","64.30","BAKER LAKE A","2300504","2019-04-14 07:00","2019","04","14","07:00","-8.0","","-9.0","","93","","","M","3","","9","","","M","100.96","","","","-13","","NA"
"-96.08","64.30","BAKER LAKE A","2300504","2019-04-14 08:00","2019","04","14","08:00","-7.7","","-8.9","","91","","","M","6","","16","","","M","100.93","","","","-14","","NA"
"-96.08","64.30","BAKER LAKE A","2300504","2019-04-14 09:00","2019","04","14","09:00","-7.3","","-8.7","","89","","","M","7","","16","","","M","100.94","","","","-14","","NA"
"-96.08","64.30","BAKER LAKE A","2300504","2019-04-14 10:00","2019","04","14","10:00","-7.0","","-8.7","","88","","","M","9","","19","","","M","100.93","","","","-14","","NA"
"-96.08","64.30","BAKER LAKE A","2300504","2019-04-14 11:00","2019","04","14","11:00","-7.3","","-9.1","","87","","","M","10","","20","","","M","100.97","","","","-14","","NA"
"-96.08","64.30","BAKER LAKE A","2300504","2019-04-14 12:00","2019","04","14","12:00","-7.6","","-9.1","","89","","","M","9","","19","","","M","100.96","","","","-15","","NA"
"-96.08","64.30","BAKER LAKE A","2300504","2019-04-14 13:00","2019","04","14","13:00","-7.8","","-9.4","","89","","","M","9","","21","","","M","100.97","","","","-15","","NA"
"-96.08","64.30","BAKER LAKE A","2300504","2019-04-14 14:00","2019","04","14","14:00","-7.7","","-9.3","","88","","","M","8","","23","","","M","100.96","","","","-15","","NA"
"-96.08","64.30","BAKER LAKE A","2300504","2019-04-14 15:00","2019","04","14","15:00","-8.1","","-9.9","","86","","","M","9","","22","","","M","101.01","","","","-16","","NA"
"-96.08","64.30","BAKER LAKE A","2300504","2019-04-14 16:00","2019","04","14","16:00","-8.4","","-10.6","","85","","","M","9","","23","","","M","101.02","","","","-16","","NA"
"-96.08","64.30","BAKER LAKE A","2300504","2019-04-14 17:00","2019","04","14","17:00","-8.6","","-10.6","","86","","","M","9","","19","","","M","101.05","","","","-16","","NA"
"-96.08","64.30","BAKER LAKE A","2300504","2019-04-14 18:00","2019","04","14","18:00","-8.9","","-10.9","","86","","","M","9","","19","","","M","101.04","","","","-16","","NA"
"-96.08","64.30","BAKER LAKE A","2300504","2019-04-14 19:00","2019","04","14","19:00","-9.0","","-10.7","","87","","","M","7","","18","","","M","101.04","","","","-16","","NA"
"-96.08","64.30","BAKER LAKE A","2300504","2019-04-14 20:00","2019","04","14","20:00","-9.0","","-10.9","","86","","","M","6","","19","","","M","101.07","","","","-16","","NA"
"-96.08","64.30","BAKER LAKE A","2300504","2019-04-14 21:00","2019","04","14","21:00","-9.0","","-11.1","","85","","","M","5","","22","","","M","101.10","","","","-17","","NA"
"-96.08","64.30","BAKER LAKE A","2300504","2019-04-14 22:00","2019","04","14","22:00","-9.9","","-11.9","","86","","","M","6","","20","","","M","101.10","","","","-18","","NA"
"-96.08","64.30","BAKER LAKE A","2300504","2019-04-14 23:00","2019","04","14","23:00","-10.6","","-12.4","","87","","","M","7","","19","","","M","101.14","","","","-18","","NA"
"-96.08","64.30","BAKER LAKE A","2300504","2019-04-15 00:00","2019","04","15","00:00","-10.9","","-13.0","","85","","","M","6","","18","","","M","101.15","","","","-19","","NA"
"-96.08","64.30","BAKER LAKE A","2300504","2019-04-15 01:00","2019","04","15","01:00","-11.4","","-13.7","","83","","","M","5","","19","","","M","101.11","","","","-19","","NA"
"-96.08","64.30","BAKER LAKE A","2300504","2019-04-15 02:00","2019","04","15","02:00","-12.0","","-14.5","","82","","","M","5","","17","","","M","101.14","","","","-20","","NA"
"-96.08","64.30","BAKER LAKE A","2300504","2019-04-15 03:00","2019","04","15","03:00","-12.8","","-15.2","","82","","","M","4","","18","","","M","101.16","","","","-21","","NA"
"-96.08","64.30","BAKER LAKE A","2300504","2019-04-15 04:00","2019","04","15","04:00","-13.3","","-15.8","","82","","","M","4","","19","","","M","101.17","","","","-22","","NA"
"-96.08","64.30","BAKER LAKE A","2300504","2019-04-15 05:00","2019","04","15","05:00","-13.9","","-16.6","","80","","","M","4","","21","","","M","101.20","","","","-23","","NA"
"-96.08","64.30","BAKER LAKE A","2300504","2019-04-15 06:00","2019","04","15","06:00","-14.4","","-17.4","","78","","","M","4","","17","","","M","101.25","","","","-23","","NA"
"-96.08","64.30","BAKER LAKE A","2300504","2019-04-15 07:00","2019","04","15","07:00","-14.9","","-18.1","","77","","","M","4","","18","","","M","101.29","","","","-24","","NA"
"-96.08","64.30","BAKER LAKE A","2300504","2019-04-15 08:00","2019","04","15","08:00","-14.7","","-18.1","","76","","","M","3","","18","","","M","101.29","","","","-23","","NA"
"-96.08","64.30","BAKER LAKE A","2300504","2019-04-15 09:00","2019","04","15","09:00","-14.2","","-18.2","","72","","","M","5","","14","","","M","101.31","","","","-22","","NA"
"-96.08","64.30","BAKER LAKE A","2300504","2019-04-15 10:00","2019","04","15","10:00","-14.1","","-18.1","","72","","","M","5","","17","","","M","101.32","","","","-22","","NA"
"-96.08","64.30","BAKER LAKE A","2300504","2019-04-15 11:00","2019","04","15","11:00","-13.4","","-17.7","","71","","","M","5","","21","","","M","101.33","","","","-22","","NA"
"-96.08","64.30","BAKER LAKE A","2300504","2019-04-15 12:00","2019","04","15","12:00","-12.6","","-16.8","","71","","","M","5","","21","","","M","101.29","","","","-21","","NA"
"-96.08","64.30","BAKER LAKE A","2300504","2019-04-15 13:00","2019","04","15","13:00","-12.7","","-17.0","","71","","","M","4","","22","","","M","101.32","","","","-22","","NA"
"-96.08","64.30","BAKER LAKE A","2300504","2019-04-15 14:00","2019","04","15","14:00","-12.8","","-16.9","","72","","","M","4","","22","","","M","101.31","","","","-22","","NA"
"-96.08","64.30","BAKER LAKE A","2300504","2019-04-15 15:00","2019","04","15","15:00","-12.8","","-17.0","","71","","","M","4","","24","","","M","101.35","","","","-22","","NA"
"-96.08","64.30","BAKER LAKE A","2300504","2019-04-15 16:00","2019","04","15","16:00","-12.2","","-16.8","","69","","","M","5","","21","","","M","101.38","","","","-21","","NA"
"-96.08","64.30","BAKER LAKE A","2300504","2019-04-15 17:00","2019","04","15","17:00","-12.6","","-17.0","","70","","","M","5","","19","","","M","101.43","","","","-21","","NA"
"-96.08","64.30","BAKER LAKE A","2300504","2019-04-15 18:00","2019","04","15","18:00","-12.9","","-17.1","","71","","","M","5","","21","","","M","101.44","","","","-22","","NA"
"-96.08","64.30","BAKER LAKE A","2300504","2019-04-15 19:00","2019","04","15","19:00","-13.5","","-17.3","","73","","","M","4","","23","","","M","101.45","","","","-23","","NA"
"-96.08","64.30","BAKER LAKE A","2300504","2019-04-15 20:00","2019","04","15","20:00","-14.3","","-17.7","","76","","","M","2","","19","","","M","101.47","","","","-23","","NA"
"-96.08","64.30","BAKER LAKE A","2300504","2019-04-15 21:00","2019","04","15","21:00","-14.9","","-18.4","","75","","","M","4","","23","","","M","101.47","","","","-25","","NA"
"-96.08","64.30","BAKER LAKE A","2300504","2019-04-15 22:00","2019","04","15","22:00","-16.0","","-19.6","","74","","","M","4","","14","","","M","101.51","","","","-24","","NA"
"-96.08","64.30","BAKER LAKE A","2300504","2019-04-15 23:00","2019","04","15","23:00","-16.6","","-20.4","","73","","","M","4","","15","","","M","101.52","","","","-25","","NA"
"-96.08","64.30","BAKER LAKE A","2300504","2019-04-16 00:00","2019","04","16","00:00","-17.4","","-20.9","","75","","","M","1","","14","","","M","101.53","","","","-26","","NA"
"-96.08","64.30","BAKER LAKE A","2300504","2019-04-16 01:00","2019","04","16","01:00","-17.8","","-21.4","","74","","","M","36","","21","","","M","101.53","","","","-28","","NA"
"-96.08","64.30","BAKER LAKE A","2300504","2019-04-16 02:00","2019","04","16","02:00","-17.8","","-21.1","","76","","","M","1","","17","","","M","101.55","","","","-27","","NA"
"-96.08","64.30","BAKER LAKE A","2300504","2019-04-16 03:00","2019","04","16","03:00","-17.8","","-21.1","","76","","","M","3","","16","","","M","101.56","","","","-27","","NA"
"-96.08","64.30","BAKER LAKE A","2300504","2019-04-16 04:00","2019","04","16","04:00","-17.9","","-21.0","","77","","","M","3","","15","","","M","101.58","","","","-26","","NA"
"-96.08","64.30","BAKER LAKE A","2300504","2019-04-16 05:00","2019","04","16","05:00","-18.4","","-21.3","","78","","","M","3","","18","","","M","101.60","","","","-28","","NA"
"-96.08","64.30","BAKER LAKE A","2300504","2019-04-16 06:00","2019","04","16","06:00","-18.1","","-21.0","","78","","","M","3","","18","","","M","101.62","","","","-28","","NA"
"-96.08","64.30","BAKER LAKE A","2300504","2019-04-16 07:00","2019","04","16","07:00","-16.9","","-20.1","","77","","","M","2","","19","","","M","101.63","","","","-26","","NA"
"-96.08","64.30","BAKER LAKE A","2300504","2019-04-16 08:00","2019","04","16","08:00","-15.5","","-18.6","","77","","","M","5","","14","","","M","101.64","","","","-23","","NA"
"-96.08","64.30","BAKER LAKE A","2300504","2019-04-16 09:00","2019","04","16","09:00","-14.4","","-17.5","","78","","","M","6","","17","","","M","101.64","","","","-23","","NA"
"-96.08","64.30","BAKER LAKE A","2300504","2019-04-16 10:00","2019","04","16","10:00","-13.9","","-17.3","","76","","","M","6","","21","","","M","101.64","","","","-23","","NA"
"-96.08","64.30","BAKER LAKE A","2300504","2019-04-16 11:00","2019","04","16","11:00","-13.3","","-16.8","","75","","","M","7","","17","","","M","101.65","","","","-21","","NA"
"-96.08","64.30","BAKER LAKE A","2300504","2019-04-16 12:00","2019","04","16","12:00","-13.1","","-16.5","","76","","","M","6","","19","","","M","101.64","","","","-22","","NA"
"-96.08","64.30","BAKER LAKE A","2300504","2019-04-16 13:00","2019","04","16","13:00","-13.1","","-16.5","","76","","","M","6","","19","","","M","101.62","","","","-22","","NA"
"-96.08","64.30","BAKER LAKE A","2300504","2019-04-16 14:00","2019","04","16","14:00","-12.4","","-16.7","","71","","","M","6","","23","","","M","101.58","","","","-21","","NA"
"-96.08","64.30","BAKER LAKE A","2300504","2019-04-16 15:00","2019","04","16","15:00","-12.1","","-16.2","","72","","","M","6","","22","","","M","101.58","","","","-21","","NA"
"-96.08","64.30","BAKER LAKE A","2300504","2019-04-16 16:00","2019","04","16","16:00","-12.3","","-15.8","","76","","","M","5","","22","","","M","101.56","","","","-21","","NA"
"-96.08","64.30","BAKER LAKE A","2300504","2019-04-16 17:00","2019","04","16","17:00","-12.5","","-15.5","","79","","","M","6","","24","","","M","101.56","","","","-22","","NA"
"-96.08","64.30","BAKER LAKE A","2300504","2019-04-16 18:00","2019","04","16","18:00","-12.6","","-15.8","","77","","","M","6","","21","","","M","101.54","","","","-21","","NA"
"-96.08","64.30","BAKER LAKE A","2300504","2019-04-16 19:00","2019","04","16","19:00","-13.4","","-16.4","","78","","","M","8","","17","","","M","101.54","","","","-21","","NA"
"-96.08","64.30","BAKER LAKE A","2300504","2019-04-16 20:00","2019","04","16","20:00","-13.5","","-16.6","","78","","","M","6","","12","","","M","101.51","","","","-20","","NA"
"-96.08","64.30","BAKER LAKE A","2300504","2019-04-16 21:00","2019","04","16","21:00","-13.4","","-16.6","","77","","","M","8","","16","","","M","101.49","","","","-21","","NA"
"-96.08","64.30","BAKER LAKE A","2300504","2019-04-16 22:00","2019","04","16","22:00","-13.6","","-16.7","","78","","","M","8","","17","","","M","101.43","","","","-22","","NA"
"-96.08","64.30","BAKER LAKE A","2300504","2019-04-16 23:00","2019","04","16","23:00","-13.4","","-16.4","","79","","","M","9","","22","","","M","101.40","","","","-23","","NA"
"-96.08","64.30","BAKER LAKE A","2300504","2019-04-17 00:00","2019","04","17","00:00","-13.6","","-16.4","","80","","","M","10","","24","","","M","101.38","","","","-23","","NA"
"-96.08","64.30","BAKER LAKE A","2300504","2019-04-17 01:00","2019","04","17","01:00","-13.9","","-16.6","","81","","","M","9","","21","","","M","101.34","","","","-23","","NA"
"-96.08","64.30","BAKER LAKE A","2300504","2019-04-17 02:00","2019","04","17","02:00","-14.2","","-17.0","","80","","","M","9","","20","","","M","101.32","","","","-23","","NA"
"-96.08","64.30","BAKER LAKE A","2300504","2019-04-17 03:00","2019","04","17","03:00","-14.3","","-17.0","","80","","","M","8","","18","","","M","101.30","","","","-23","","NA"
"-96.08","64.30","BAKER LAKE A","2300504","2019-04-17 04:00","2019","04","17","04:00","-14.4","","-17.1","","80","","","M","8","","20","","","M","101.25","","","","-23","","NA"
"-96.08","64.30","BAKER LAKE A","2300504","2019-04-17 05:00","2019","04","17","05:00","-14.6","","-16.8","","83","","","M","8","","21","","","M","101.22","","","","-24","","NA"
"-96.08","64.30","BAKER LAKE A","2300504","2019-04-17 06:00","2019","04","17","06:00","-14.6","","-16.8","","83","","","M","8","","21","","","M","101.18","","","","-24","","NA"
"-96.08","64.30","BAKER LAKE A","2300504","2019-04-17 07:00","2019","04","17","07:00","-14.2","","-16.9","","81","","","M","9","","20","","","M","101.16","","","","-23","","NA"
"-96.08","64.30","BAKER LAKE A","2300504","2019-04-17 08:00","2019","04","17","08:00","-13.8","","-16.4","","81","","","M","9","","17","","","M","101.11","","","","-22","","NA"
"-96.08","64.30","BAKER LAKE A","2300504","2019-04-17 09:00","2019","04","17","09:00","-13.2","","-16.1","","79","","","M","10","","16","","","M","101.09","","","","-21","","NA"
"-96.08","64.30","BAKER LAKE A","2300504","2019-04-17 10:00","2019","04","17","10:00","-12.5","","-15.6","","78","","","M","10","","14","","","M","101.05","","","","-20","","NA"
"-96.08","64.30","BAKER LAKE A","2300504","2019-04-17 11:00","2019","04","17","11:00","-12.3","","-15.6","","77","","","M","9","","16","","","M","101.03","","","","-20","","NA"
"-96.08","64.30","BAKER LAKE A","2300504","2019-04-17 12:00","2019","04","17","12:00","-12.0","","-15.2","","78","","","M","9","","16","","","M","101.00","","","","-19","","NA"
"-96.08","64.30","BAKER LAKE A","2300504","2019-04-17 13:00","2019","04","17","13:00","-11.8","","-14.9","","77","","","M","8","","14","","","M","100.99","","","","-19","","NA"
"-96.08","64.30","BAKER LAKE A","2300504","2019-04-17 14:00","2019","04","17","14:00","-11.8","","-15.3","","75","","","M","9","","12","","","M","100.97","","","","-18","","NA"
"-96.08","64.30","BAKER LAKE A","2300504","2019-04-17 15:00","2019","04","17","15:00","-11.4","","-15.2","","74","","","M","7","","9","","","M","100.98","","","","-17","","NA"
"-96.08","64.30","BAKER LAKE A","2300504","2019-04-17 16:00","2019","04","17","16:00","-11.5","","-14.5","","79","","","M","10","","6","","","M","100.99","","","","-15","","NA"
"-96.08","64.30","BAKER LAKE A","2300504","2019-04-17 17:00","2019","04","17","17:00","-12.0","","-15.4","","77","","","M","34","","5","","","M","101.00","","","","-15","","NA"
"-96.08","64.30","BAKER LAKE A","2300504","2019-04-17 18:00","2019","04","17","18:00","-13.7","","-16.3","","80","","","M","35","","13","","","M","101.02","","","","-21","","NA"
"-96.08","64.30","BAKER LAKE A","2300504","2019-04-17 19:00","2019","04","17","19:00","-14.9","","-17.4","","82","","","M","36","","15","","","M","101.03","","","","-23","","NA"
"-96.08","64.30","BAKER LAKE A","2300504","2019-04-17 20:00","2019","04","17","20:00","-14.0","","-16.2","","84","","","M","34","","17","","","M","101.04","","","","-22","","NA"
"-96.08","64.30","BAKER LAKE A","2300504","2019-04-17 21:00","2019","04","17","21:00","-13.8","","-16.0","","83","","","M","35","","19","","","M","101.05","","","","-22","","NA"
"-96.08","64.30","BAKER LAKE A","2300504","2019-04-17 22:00","2019","04","17","22:00","-14.1","","-16.6","","82","","","M","35","","19","","","M","101.06","","","","-23","","NA"
"-96.08","64.30","BAKER LAKE A","2300504","2019-04-17 23:00","2019","04","17","23:00","-14.7","","-17.1","","82","","","M","36","","18","","","M","101.10","","","","-23","","NA"
"-96.08","64.30","BAKER LAKE A","2300504","2019-04-18 00:00","2019","04","18","00:00","-15.7","","-17.8","","84","","","M","35","","18","","","M","101.13","","","","-25","","NA"
"-96.08","64.30","BAKER LAKE A","2300504","2019-04-18 01:00","2019","04","18","01:00","-16.8","","-19.0","","83","","","M","34","","21","","","M","101.14","","","","-27","","NA"
"-96.08","64.30","BAKER LAKE A","2300504","2019-04-18 02:00","2019","04","18","02:00","-17.2","","-19.2","","84","","","M","33","","25","","","M","101.19","","","","-28","","NA"
"-96.08","64.30","BAKER LAKE A","2300504","2019-04-18 03:00","2019","04","18","03:00","-16.5","","-18.6","","85","","","M","35","","25","","","M","101.20","","","","-27","","NA"
"-96.08","64.30","BAKER LAKE A","2300504","2019-04-18 04:00","2019","04","18","04:00","-16.9","","-18.9","","85","","","M","33","","21","","","M","101.22","","","","-27","","NA"
"-96.08","64.30","BAKER LAKE A","2300504","2019-04-18 05:00","2019","04","18","05:00","-19.9","","-22.1","","83","","","M","32","","24","","","M","101.26","","","","-31","","NA"
"-96.08","64.30","BAKER LAKE A","2300504","2019-04-18 06:00","2019","04","18","06:00","-20.1","","-22.4","","82","","","M","32","","22","","","M","101.27","","","","-31","","NA"
"-96.08","64.30","BAKER LAKE A","2300504","2019-04-18 07:00","2019","04","18","07:00","-19.3","","-22.3","","78","","","M","33","","21","","","M","101.30","","","","-30","","NA"
"-96.08","64.30","BAKER LAKE A","2300504","2019-04-18 08:00","2019","04","18","08:00","-18.9","","-22.3","","75","","","M","33","","21","","","M","101.33","","","","-29","","NA"
"-96.08","64.30","BAKER LAKE A","2300504","2019-04-18 09:00","2019","04","18","09:00","-17.6","","-21.1","","75","","","M","33","","16","","","M","101.32","","","","-26","","NA"
"-96.08","64.30","BAKER LAKE A","2300504","2019-04-18 10:00","2019","04","18","10:00","-16.8","","-20.6","","73","","","M","33","","18","","","M","101.33","","","","-26","","NA"
"-96.08","64.30","BAKER LAKE A","2300504","2019-04-18 11:00","2019","04","18","11:00","-15.4","","-19.1","","74","","","M","33","","20","","","M","101.33","","","","-25","","NA"
"-96.08","64.30","BAKER LAKE A","2300504","2019-04-18 12:00","2019","04","18","12:00","-14.9","","-18.6","","74","","","M","35","","15","","","M","101.36","","","","-23","","NA"
"-96.08","64.30","BAKER LAKE A","2300504","2019-04-18 13:00","2019","04","18","13:00","-14.1","","-18.0","","73","","","M","35","","13","","","M","101.36","","","","-21","","NA"
"-96.08","64.30","BAKER LAKE A","2300504","2019-04-18 14:00","2019","04","18","14:00","-13.3","","-17.5","","71","","","M","36","","7","","","M","101.36","","","","-18","","NA"
"-96.08","64.30","BAKER LAKE A","2300504","2019-04-18 15:00","2019","04","18","15:00","-13.0","","-16.9","","73","","","M","35","","4","","","M","101.34","","","","-16","","NA"
"-96.08","64.30","BAKER LAKE A","2300504","2019-04-18 16:00","2019","04","18","16:00","-13.0","","-16.6","","74","","","M","1","","8","","","M","101.31","","","","-18","","NA"
"-96.08","64.30","BAKER LAKE A","2300504","2019-04-18 17:00","2019","04","18","17:00","-13.0","","-16.6","","75","","","M","32","","8","","","M","101.28","","","","-18","","NA"
"-96.08","64.30","BAKER LAKE A","2300504","2019-04-18 18:00","2019","04","18","18:00","-12.9","","-16.4","","76","","","M","33","","7","","","M","101.27","","","","-17","","NA"
"-96.08","64.30","BAKER LAKE A","2300504","2019-04-18 19:00","2019","04","18","19:00","-13.3","","-16.4","","77","","","M","2","","5","","","M","101.24","","","","-17","","NA"
"-96.08","64.30","BAKER LAKE A","2300504","2019-04-18 20:00","2019","04","18","20:00","-13.6","","-16.4","","79","","","M","5","","3","","","M","101.19","","","","-16","","NA"
"-96.08","64.30","BAKER LAKE A","2300504","2019-04-18 21:00","2019","04","18","21:00","-13.9","","-16.5","","81","","","M","35","","1","","","M","101.14","","","","-15","","NA"
"-96.08","64.30","BAKER LAKE A","2300504","2019-04-18 22:00","2019","04","18","22:00","-15.2","","-17.6","","82","","","M","30","","5","","","M","101.13","","","","-19","","NA"
"-96.08","64.30","BAKER LAKE A","2300504","2019-04-18 23:00","2019","04","18","23:00","-15.2","","-17.4","","84","","","M","30","","9","","","M","101.09","","","","-21","","NA"
"-96.08","64.30","BAKER LAKE A","2300504","2019-04-19 00:00","2019","04","19","00:00","-16.0","","-17.8","","86","","","M","22","","1","","","M","101.06","","","","-17","","NA"
"-96.08","64.30","BAKER LAKE A","2300504","2019-04-19 01:00","2019","04","19","01:00","-16.1","","-18.3","","84","","","M","31","","9","","","M","101.02","","","","-22","","NA"
"-96.08","64.30","BAKER LAKE A","2300504","2019-04-19 02:00","2019","04","19","02:00","-16.1","","-18.4","","83","","","M","25","","1","","","M","100.97","","","","-17","","NA"
"-96.08","64.30","BAKER LAKE A","2300504","2019-04-19 03:00","2019","04","19","03:00","-14.8","","-17.3","","81","","","M","28","","4","","","M","100.96","","","","-18","","NA"
"-96.08","64.30","BAKER LAKE A","2300504","2019-04-19 04:00","2019","04","19","04:00","-15.4","","-18.1","","80","","","M","3","","7","","","M","100.95","","","","-20","","NA"
"-96.08","64.30","BAKER LAKE A","2300504","2019-04-19 05:00","2019","04","19","05:00","-15.5","","-18.1","","81","","","M","10","","3","","","M","100.92","","","","-18","","NA"
"-96.08","64.30","BAKER LAKE A","2300504","2019-04-19 06:00","2019","04","19","06:00","-15.8","","-18.4","","81","","","M","31","","12","","","M","100.88","","","","-23","","NA"
"-96.08","64.30","BAKER LAKE A","2300504","2019-04-19 07:00","2019","04","19","07:00","-15.2","","-18.0","","80","","","M","14","","4","","","M","100.89","","","","-18","","NA"
"-96.08","64.30","BAKER LAKE A","2300504","2019-04-19 08:00","2019","04","19","08:00","-14.8","","-17.9","","77","","","M","34","","5","","","M","100.84","","","","-18","","NA"
"-96.08","64.30","BAKER LAKE A","2300504","2019-04-19 09:00","2019","04","19","09:00","-13.8","","-17.1","","76","","","M","2","","7","","","M","100.82","","","","-18","","NA"
"-96.08","64.30","BAKER LAKE A","2300504","2019-04-19 10:00","2019","04","19","10:00","-13.0","","-16.8","","73","","","M","36","","7","","","M","100.82","","","","-18","","NA"
"-96.08","64.30","BAKER LAKE A","2300504","2019-04-19 11:00","2019","04","19","11:00","-12.4","","-16.2","","73","","","M","2","","5","","","M","100.82","","","","-16","","NA"
"-96.08","64.30","BAKER LAKE A","2300504","2019-04-19 12:00","2019","04","19","12:00","-12.1","","-16.2","","72","","","M","36","","8","","","M","100.82","","","","-17","","NA"
"-96.08","64.30","BAKER LAKE A","2300504","2019-04-19 13:00","2019","04","19","13:00","-11.8","","-16.1","","71","","","M","36","","9","","","M","100.82","","","","-17","","NA"
"-96.08","64.30","BAKER LAKE A","2300504","2019-04-19 14:00","2019","04","19","14:00","-11.7","","-15.6","","73","","","M","34","","9","","","M","100.82","","","","-17","","NA"
"-96.08","64.30","BAKER LAKE A","2300504","2019-04-19 15:00","2019","04","19","15:00","-11.7","","-15.6","","73","","","M","35","","9","","","M","100.80","","","","-17","","NA"
"-96.08","64.30","BAKER LAKE A","2300504","2019-04-19 16:00","2019","04","19","16:00","-11.8","","-15.5","","74","","","M","35","","13","","","M","100.82","","","","-18","","NA"
"-96.08","64.30","BAKER LAKE A","2300504","2019-04-19 17:00","2019","04","19","17:00","-12.9","","-16.1","","77","","","M","36","","15","","","M","100.86","","","","-20","","NA"
"-96.08","64.30","BAKER LAKE A","2300504","2019-04-19 18:00","2019","04","19","18:00","-14.9","","-18.1","","77","","","M","33","","19","","","M","100.89","","","","-24","","NA"
"-96.08","64.30","BAKER LAKE A","2300504","2019-04-19 19:00","2019","04","19","19:00","-16.5","","-19.6","","77","","","M","34","","16","","","M","100.92","","","","-25","","NA"
"-96.08","64.30","BAKER LAKE A","2300504","2019-04-19 20:00","2019","04","19","20:00","-17.5","","-20.3","","79","","","M","34","","26","","","M","100.94","","","","-29","","NA"
"-96.08","64.30","BAKER LAKE A","2300504","2019-04-19 21:00","2019","04","19","21:00","-18.8","","-21.7","","78","","","M","34","","21","","","M","100.97","","","","-29","","NA"
"-96.08","64.30","BAKER LAKE A","2300504","2019-04-19 22:00","2019","04","19","22:00","-19.1","","-22.3","","76","","","M","34","","25","","","M","100.97","","","","-30","","NA"
"-96.08","64.30","BAKER LAKE A","2300504","2019-04-19 23:00","2019","04","19","23:00","-20.3","","-23.0","","79","","","M","33","","29","","","M","100.96","","","","-33","","NA"
"-96.08","64.30","BAKER LAKE A","2300504","2019-04-20 00:00","2019","04","20","00:00","-21.1","","-23.9","","78","","","M","33","","30","","","M","101.00","","","","-34","","NA"
"-96.08","64.30","BAKER LAKE A","2300504","2019-04-20 01:00","2019","04","20","01:00","-21.6","","-24.2","","80","","","M","31","","28","","","M","101.06","","","","-34","","NA"
"-96.08","64.30","BAKER LAKE A","2300504","2019-04-20 02:00","2019","04","20","02:00","-22.1","","-25.0","","78","","","M","30","","22","","","M","101.10","","","","-34","","NA"
"-96.08","64.30","BAKER LAKE A","2300504","2019-04-20 03:00","2019","04","20","03:00","-22.5","","-25.2","","79","","","M","33","","30","","","M","101.11","","","","-36","","NA"
"-96.08","64.30","BAKER LAKE A","2300504","2019-04-20 04:00","2019","04","20","04:00","-23.6","","-26.4","","79","","","M","32","","17","","","M","101.22","","","","-34","","NA"
"-96.08","64.30","BAKER LAKE A","2300504","2019-04-20 05:00","2019","04","20","05:00","-24.5","","-27.4","","77","","","M","33","","22","","","M","101.25","","","","-37","","NA"
"-96.08","64.30","BAKER LAKE A","2300504","2019-04-20 06:00","2019","04","20","06:00","-23.8","","-27.0","","75","","","M","33","","29","","","M","101.30","","","","-37","","NA"
"-96.08","64.30","BAKER LAKE A","2300504","2019-04-20 07:00","2019","04","20","07:00","-23.7","","-27.3","","73","","","M","33","","21","","","M","101.39","","","","-35","","NA"
"-96.08","64.30","BAKER LAKE A","2300504","2019-04-20 08:00","2019","04","20","08:00","-22.8","","-26.6","","72","","","M","34","","15","","","M","101.43","","","","-33","","NA"
"-96.08","64.30","BAKER LAKE A","2300504","2019-04-20 09:00","2019","04","20","09:00","-22.3","","-26.2","","71","","","M","34","","17","","","M","101.50","","","","-33","","NA"
"-96.08","64.30","BAKER LAKE A","2300504","2019-04-20 10:00","2019","04","20","10:00","-21.8","","-25.9","","70","","","M","34","","18","","","M","101.55","","","","-32","","NA"
"-96.08","64.30","BAKER LAKE A","2300504","2019-04-20 11:00","2019","04","20","11:00","-21.8","","-25.9","","70","","","M","33","","28","","","M","101.57","","","","-35","","NA"
"-96.08","64.30","BAKER LAKE A","2300504","2019-04-20 12:00","2019","04","20","12:00","-21.0","","-25.1","","71","","","M","33","","32","","","M","101.59","","","","-34","","NA"
"-96.08","64.30","BAKER LAKE A","2300504","2019-04-20 13:00","2019","04","20","13:00","-20.4","","-24.5","","70","","","M","33","","34","","","M","101.65","","","","-34","","NA"
"-96.08","64.30","BAKER LAKE A","2300504","2019-04-20 14:00","2019","04","20","14:00","-20.0","","-24.2","","70","","","M","33","","32","","","M","101.69","","","","-33","","NA"
"-96.08","64.30","BAKER LAKE A","2300504","2019-04-20 15:00","2019","04","20","15:00","-19.2","","-23.7","","68","","","M","33","","28","","","M","101.74","","","","-31","","NA"
"-96.08","64.30","BAKER LAKE A","2300504","2019-04-20 16:00","2019","04","20","16:00","-19.3","","-24.0","","67","","","M","34","","28","","","M","101.79","","","","-31","","NA"
"-96.08","64.30","BAKER LAKE A","2300504","2019-04-20 17:00","2019","04","20","17:00","-19.5","","-24.2","","67","","","M","34","","27","","","M","101.86","","","","-31","","NA"
"-96.08","64.30","BAKER LAKE A","2300504","2019-04-20 18:00","2019","04","20","18:00","-19.8","","-24.2","","69","","","M","33","","26","","","M","101.87","","","","-32","","NA"
"-96.08","64.30","BAKER LAKE A","2300504","2019-04-20 19:00","2019","04","20","19:00","-19.3","","-23.6","","70","","","M","34","","19","","","M","101.92","","","","-29","","NA"
"-96.08","64.30","BAKER LAKE A","2300504","2019-04-20 20:00","2019","04","20","20:00","-20.0","","-23.7","","73","","","M","34","","14","","","M","101.97","","","","-29","","NA"
"-96.08","64.30","BAKER LAKE A","2300504","2019-04-20 21:00","2019","04","20","21:00","-19.9","","-23.5","","73","","","M","33","","7","","","M","102.02","","","","-26","","NA"
"-96.08","64.30","BAKER LAKE A","2300504","2019-04-20 22:00","2019","04","20","22:00","-19.4","","-23.4","","71","","","M","35","","14","","","M","102.05","","","","-28","","NA"
"-96.08","64.30","BAKER LAKE A","2300504","2019-04-20 23:00","2019","04","20","23:00","-19.3","","-23.3","","71","","","M","35","","14","","","M","102.08","","","","-28","","NA"
"-96.08","64.30","BAKER LAKE A","2300504","2019-04-21 00:00","2019","04","21","00:00","-19.3","","-23.5","","70","","","M","35","","10","","","M","102.11","","","","-26","","NA"
"-96.08","64.30","BAKER LAKE A","2300504","2019-04-21 01:00","2019","04","21","01:00","-19.8","","-23.7","","72","","","M","2","","8","","","M","102.15","","","","-26","","NA"
"-96.08","64.30","BAKER LAKE A","2300504","2019-04-21 02:00","2019","04","21","02:00","-19.9","","-23.9","","71","","","M","35","","7","","","M","102.16","","","","-26","","NA"
"-96.08","64.30","BAKER LAKE A","2300504","2019-04-21 03:00","2019","04","21","03:00","-19.8","","-23.8","","71","","","M","35","","8","","","M","102.16","","","","-26","","NA"
"-96.08","64.30","BAKER LAKE A","2300504","2019-04-21 04:00","2019","04","21","04:00","-19.7","","-23.7","","71","","","M","36","","5","","","M","102.18","","","","-24","","NA"
"-96.08","64.30","BAKER LAKE A","2300504","2019-04-21 05:00","2019","04","21","05:00","-19.5","","-23.6","","71","","","M","3","","3","","","M","102.20","","","","-22","","NA"
"-96.08","64.30","BAKER LAKE A","2300504","2019-04-21 06:00","2019","04","21","06:00","-19.6","","-23.5","","71","","","M","23","","1","","","M","102.21","","","","-20","","NA"
"-96.08","64.30","BAKER LAKE A","2300504","2019-04-21 07:00","2019","04","21","07:00","-19.3","","-23.0","","73","","","M","21","","8","","","M","102.23","","","","-25","","NA"
"-96.08","64.30","BAKER LAKE A","2300504","2019-04-21 08:00","2019","04","21","08:00","-18.9","","-22.7","","72","","","M","22","","8","","","M","102.23","","","","-25","","NA"
"-96.08","64.30","BAKER LAKE A","2300504","2019-04-21 09:00","2019","04","21","09:00","-18.4","","-22.3","","72","","","M","24","","5","","","M","102.21","","","","-22","","NA"
"-96.08","64.30","BAKER LAKE A","2300504","2019-04-21 10:00","2019","04","21","10:00","-17.8","","-22.0","","70","","","M","25","","11","","","M","102.21","","","","-25","","NA"
"-96.08","64.30","BAKER LAKE A","2300504","2019-04-21 11:00","2019","04","21","11:00","-17.7","","-22.2","","68","","","M","24","","11","","","M","102.20","","","","-25","","NA"
"-96.08","64.30","BAKER LAKE A","2300504","2019-04-21 12:00","2019","04","21","12:00","-16.9","","-21.4","","69","","","M","24","","14","","","M","102.17","","","","-25","","NA"
"-96.08","64.30","BAKER LAKE A","2300504","2019-04-21 13:00","2019","04","21","13:00","-16.6","","-21.5","","67","","","M","24","","16","","","M","102.18","","","","-25","","NA"
"-96.08","64.30","BAKER LAKE A","2300504","2019-04-21 14:00","2019","04","21","14:00","-16.8","","-21.8","","66","","","M","25","","19","","","M","102.19","","","","-26","","NA"
"-96.08","64.30","BAKER LAKE A","2300504","2019-04-21 15:00","2019","04","21","15:00","-16.8","","-22.1","","64","","","M","27","","18","","","M","102.17","","","","-26","","NA"
"-96.08","64.30","BAKER LAKE A","2300504","2019-04-21 16:00","2019","04","21","16:00","-16.9","","-22.2","","64","","","M","27","","18","","","M","102.14","","","","-26","","NA"
"-96.08","64.30","BAKER LAKE A","2300504","2019-04-21 17:00","2019","04","21","17:00","-17.3","","-22.0","","67","","","M","26","","17","","","M","102.14","","","","-26","","NA"
"-96.08","64.30","BAKER LAKE A","2300504","2019-04-21 18:00","2019","04","21","18:00","-18.1","","-22.1","","71","","","M","26","","17","","","M","102.08","","","","-27","","NA"
"-96.08","64.30","BAKER LAKE A","2300504","2019-04-21 19:00","2019","04","21","19:00","-19.4","","-23.0","","73","","","M","26","","12","","","M","102.07","","","","-27","","NA"
"-96.08","64.30","BAKER LAKE A","2300504","2019-04-21 20:00","2019","04","21","20:00","-21.1","","-24.3","","76","","","M","23","","10","","","M","102.10","","","","-29","","NA"
"-96.08","64.30","BAKER LAKE A","2300504","2019-04-21 21:00","2019","04","21","21:00","-21.6","","-24.6","","77","","","M","22","","8","","","M","102.11","","","","-28","","NA"
"-96.08","64.30","BAKER LAKE A","2300504","2019-04-21 22:00","2019","04","21","22:00","-21.8","","-24.8","","77","","","M","20","","6","","","M","102.08","","","","-27","","NA"
"-96.08","64.30","BAKER LAKE A","2300504","2019-04-21 23:00","2019","04","21","23:00","-21.7","","-24.9","","76","","","M","24","","9","","","M","102.05","","","","-29","","NA"
"-96.08","64.30","BAKER LAKE A","2300504","2019-04-22 00:00","2019","04","22","00:00","-21.9","","-25.0","","76","","","M","21","","16","","","M","102.05","","","","-32","","NA"
"-96.08","64.30","BAKER LAKE A","2300504","2019-04-22 01:00","2019","04","22","01:00","-22.4","","-25.2","","78","","","M","13","","5","","","M","102.10","","","","-27","","NA"
"-96.08","64.30","BAKER LAKE A","2300504","2019-04-22 02:00","2019","04","22","02:00","-22.9","","-25.6","","79","","","M","7","","2","","","M","102.12","","","","-25","","NA"
"-96.08","64.30","BAKER LAKE A","2300504","2019-04-22 03:00","2019","04","22","03:00","-23.4","","-26.3","","78","","","M","23","","2","","","M","102.13","","","","-25","","NA"
"-96.08","64.30","BAKER LAKE A","2300504","2019-04-22 04:00","2019","04","22","04:00","-23.2","","-26.3","","76","","","M","21","","11","","","M","102.17","","","","-31","","NA"
"-96.08","64.30","BAKER LAKE A","2300504","2019-04-22 05:00","2019","04","22","05:00","-22.2","","-25.2","","77","","","M","32","","19","","","M","102.17","","","","-33","","NA"
"-96.08","64.30","BAKER LAKE A","2300504","2019-04-22 06:00","2019","04","22","06:00","-21.8","","-25.2","","74","","","M","31","","8","","","M","102.23","","","","-28","","NA"
"-96.08","64.30","BAKER LAKE A","2300504","2019-04-22 07:00","2019","04","22","07:00","-21.6","","-25.2","","73","","","M","30","","23","","","M","102.26","","","","-33","","NA"
"-96.08","64.30","BAKER LAKE A","2300504","2019-04-22 08:00","2019","04","22","08:00","-21.1","","-24.9","","72","","","M","3","","9","","","M","102.34","","","","-28","","NA"
"-96.08","64.30","BAKER LAKE A","2300504","2019-04-22 09:00","2019","04","22","09:00","-20.4","","-24.2","","72","","","M","13","","3","","","M","102.35","","","","-23","","NA"
"-96.08","64.30","BAKER LAKE A","2300504","2019-04-22 10:00","2019","04","22","10:00","-18.9","","-23.1","","70","","","M","3","","1","","","M","102.38","","","","-20","","NA"
"-96.08","64.30","BAKER LAKE A","2300504","2019-04-22 11:00","2019","04","22","11:00","-18.7","","-22.7","","71","","","M","10","","3","","","M","102.37","","","","-21","","NA"
"-96.08","64.30","BAKER LAKE A","2300504","2019-04-22 12:00","2019","04","22","12:00","-18.4","","-22.6","","70","","","M","19","","7","","","M","102.39","","","","-24","","NA"
"-96.08","64.30","BAKER LAKE A","2300504","2019-04-22 13:00","2019","04","22","13:00","-17.8","","-21.8","","72","","","M","11","","6","","","M","102.37","","","","-22","","NA"
"-96.08","64.30","BAKER LAKE A","2300504","2019-04-22 14:00","2019","04","22","14:00","-17.4","","-21.5","","71","","","M","11","","7","","","M","102.35","","","","-23","","NA"
"-96.08","64.30","BAKER LAKE A","2300504","2019-04-22 15:00","2019","04","22","15:00","-17.2","","-21.0","","73","","","M","14","","9","","","M","102.31","","","","-23","","NA"
"-96.08","64.30","BAKER LAKE A","2300504","2019-04-22 16:00","2019","04","22","16:00","-17.1","","-20.9","","73","","","M","14","","9","","","M","102.29","","","","-23","","NA"
"-96.08","64.30","BAKER LAKE A","2300504","2019-04-22 17:00","2019","04","22","17:00","-17.0","","-20.4","","75","","","M","13","","12","","","M","102.28","","","","-24","","NA"
"-96.08","64.30","BAKER LAKE A","2300504","2019-04-22 18:00","2019","04","22","18:00","-17.5","","-20.5","","78","","","M","11","","10","","","M","102.24","","","","-24","","NA"
"-96.08","64.30","BAKER LAKE A","2300504","2019-04-22 19:00","2019","04","22","19:00","-18.7","","-21.4","","80","","","M","11","","10","","","M","102.20","","","","-26","","NA"
"-96.08","64.30","BAKER LAKE A","2300504","2019-04-22 20:00","2019","04","22","20:00","-20.3","","-22.8","","81","","","M","11","","8","","","M","102.15","","","","-27","","NA"
"-96.08","64.30","BAKER LAKE A","2300504","2019-04-22 21:00","2019","04","22","21:00","-21.8","","-24.2","","81","","","M","9","","8","","","M","102.12","","","","-28","","NA"
"-96.08","64.30","BAKER LAKE A","2300504","2019-04-22 22:00","2019","04","22","22:00","-22.0","","-24.5","","81","","","M","8","","7","","","M","102.08","","","","-28","","NA"
"-96.08","64.30","BAKER LAKE A","2300504","2019-04-22 23:00","2019","04","22","23:00","-22.0","","-24.4","","81","","","M","11","","13","","","M","102.02","","","","-31","","NA"
"-96.08","64.30","BAKER LAKE A","2300504","2019-04-23 00:00","2019","04","23","00:00","-22.6","","-25.0","","81","","","M","11","","12","","","M","101.96","","","","-31","","NA"
"-96.08","64.30","BAKER LAKE A","2300504","2019-04-23 01:00","2019","04","23","01:00","-23.1","","-25.6","","80","","","M","10","","8","","","M","101.89","","","","-30","","NA"
"-96.08","64.30","BAKER LAKE A","2300504","2019-04-23 02:00","2019","04","23","02:00","-22.8","","-25.4","","80","","","M","10","","17","","","M","101.87","","","","-33","","NA"
"-96.08","64.30","BAKER LAKE A","2300504","2019-04-23 03:00","2019","04","23","03:00","-22.3","","-24.8","","80","","","M","9","","15","","","M","101.80","","","","-32","","NA"
"-96.08","64.30","BAKER LAKE A","2300504","2019-04-23 04:00","2019","04","23","04:00","-22.2","","-24.7","","80","","","M","10","","27","","","M","101.74","","","","-35","","NA"
"-96.08","64.30","BAKER LAKE A","2300504","2019-04-23 05:00","2019","04","23","05:00","-21.0","","-23.4","","81","","","M","10","","26","","","M","101.69","","","","-33","","NA"
"-96.08","64.30","BAKER LAKE A","2300504","2019-04-23 06:00","2019","04","23","06:00","-19.5","","-21.8","","82","","","M","9","","22","","","M","101.62","","","","-30","","NA"
"-96.08","64.30","BAKER LAKE A","2300504","2019-04-23 07:00","2019","04","23","07:00","-18.6","","-20.9","","82","","","M","11","","26","","","M","101.54","","","","-30","","NA"
"-96.08","64.30","BAKER LAKE A","2300504","2019-04-23 08:00","2019","04","23","08:00","-16.8","","-19.1","","83","","","M","10","","26","","","M","101.49","","","","-28","","NA"
"-96.08","64.30","BAKER LAKE A","2300504","2019-04-23 09:00","2019","04","23","09:00","-15.7","","-18.2","","81","","","M","10","","27","","","M","101.42","","","","-26","","NA"
"-96.08","64.30","BAKER LAKE A","2300504","2019-04-23 10:00","2019","04","23","10:00","-14.7","","-17.4","","80","","","M","10","","35","","","M","101.31","","","","-26","","NA"
"-96.08","64.30","BAKER LAKE A","2300504","2019-04-23 11:00","2019","04","23","11:00","-13.4","","-16.0","","81","","","M","9","","30","","","M","101.25","","","","-24","","NA"
"-96.08","64.30","BAKER LAKE A","2300504","2019-04-23 12:00","2019","04","23","12:00","-11.7","","-14.2","","82","","","M","9","","26","","","M","101.16","","","","-21","","NA"
"-96.08","64.30","BAKER LAKE A","2300504","2019-04-23 13:00","2019","04","23","13:00","-10.4","","-12.9","","82","","","M","9","","31","","","M","101.08","","","","-20","","NA"
"-96.08","64.30","BAKER LAKE A","2300504","2019-04-23 14:00","2019","04","23","14:00","-9.9","","-12.2","","84","","","M","9","","32","","","M","101.02","","","","-20","","NA"
"-96.08","64.30","BAKER LAKE A","2300504","2019-04-23 15:00","2019","04","23","15:00","-9.4","","-11.5","","85","","","M","8","","34","","","M","100.94","","","","-19","","NA"
"-96.08","64.30","BAKER LAKE A","2300504","2019-04-23 16:00","2019","04","23","16:00","-9.6","","-11.7","","85","","","M","8","","36","","","M","100.90","","","","-20","","NA"
"-96.08","64.30","BAKER LAKE A","2300504","2019-04-23 17:00","2019","04","23","17:00","-9.1","","-11.1","","86","","","M","7","","28","","","M","100.83","","","","-18","","NA"
"-96.08","64.30","BAKER LAKE A","2300504","2019-04-23 18:00","2019","04","23","18:00","-8.7","","-10.7","","86","","","M","6","","23","","","M","100.77","","","","-17","","NA"
"-96.08","64.30","BAKER LAKE A","2300504","2019-04-23 19:00","2019","04","23","19:00","-8.7","","-10.3","","88","","","M","7","","28","","","M","100.73","","","","-18","","NA"
"-96.08","64.30","BAKER LAKE A","2300504","2019-04-23 20:00","2019","04","23","20:00","-8.7","","-10.4","","88","","","M","6","","25","","","M","100.68","","","","-17","","NA"
"-96.08","64.30","BAKER LAKE A","2300504","2019-04-23 21:00","2019","04","23","21:00","-8.4","","-9.9","","89","","","M","7","","26","","","M","100.61","","","","-17","","NA"
"-96.08","64.30","BAKER LAKE A","2300504","2019-04-23 22:00","2019","04","23","22:00","-7.7","","-9.2","","89","","","M","7","","28","","","M","100.57","","","","-16","","NA"
"-96.08","64.30","BAKER LAKE A","2300504","2019-04-23 23:00","2019","04","23","23:00","-7.6","","-9.0","","90","","","M","6","","22","","","M","100.52","","","","-15","","NA"
"-96.08","64.30","BAKER LAKE A","2300504","2019-04-24 00:00","2019","04","24","00:00","-7.5","","-8.8","","90","","","M","5","","21","","","M","100.43","","","","-15","","NA"
"-96.08","64.30","BAKER LAKE A","2300504","2019-04-24 01:00","2019","04","24","01:00","-7.5","","-9.1","","89","","","M","4","","22","","","M","100.38","","","","-15","","NA"
"-96.08","64.30","BAKER LAKE A","2300504","2019-04-24 02:00","2019","04","24","02:00","-7.9","","-9.6","","88","","","M","4","","25","","","M","100.34","","","","-16","","NA"
"-96.08","64.30","BAKER LAKE A","2300504","2019-04-24 03:00","2019","04","24","03:00","-8.4","","-10.2","","88","","","M","4","","28","","","M","100.31","","","","-17","","NA"
"-96.08","64.30","BAKER LAKE A","2300504","2019-04-24 04:00","2019","04","24","04:00","-8.8","","-10.5","","88","","","M","3","","25","","","M","100.27","","","","-17","","NA"
"-96.08","64.30","BAKER LAKE A","2300504","2019-04-24 05:00","2019","04","24","05:00","-8.9","","-10.6","","87","","","M","3","","26","","","M","100.27","","","","-18","","NA"
"-96.08","64.30","BAKER LAKE A","2300504","2019-04-24 06:00","2019","04","24","06:00","-8.9","","-10.7","","87","","","M","2","","33","","","M","100.24","","","","-18","","NA"
"-96.08","64.30","BAKER LAKE A","2300504","2019-04-24 07:00","2019","04","24","07:00","-8.9","","-10.7","","87","","","M","2","","40","","","M","100.24","","","","-19","","NA"
"-96.08","64.30","BAKER LAKE A","2300504","2019-04-24 08:00","2019","04","24","08:00","-8.7","","-10.6","","86","","","M","2","","35","","","M","100.25","","","","-18","","NA"
"-96.08","64.30","BAKER LAKE A","2300504","2019-04-24 09:00","2019","04","24","09:00","-8.6","","-10.7","","85","","","M","1","","38","","","M","100.22","","","","-19","","NA"
"-96.08","64.30","BAKER LAKE A","2300504","2019-04-24 10:00","2019","04","24","10:00","-9.0","","-11.3","","83","","","M","1","","38","","","M","100.26","","","","-19","","NA"
"-96.08","64.30","BAKER LAKE A","2300504","2019-04-24 11:00","2019","04","24","11:00","-9.9","","-12.2","","84","","","M","36","","55","","","M","100.25","","","","-22","","NA"
"-96.08","64.30","BAKER LAKE A","2300504","2019-04-24 12:00","2019","04","24","12:00","-10.2","","-12.8","","81","","","M","36","","52","","","M","100.32","","","","-22","","NA"
"-96.08","64.30","BAKER LAKE A","2300504","2019-04-24 13:00","2019","04","24","13:00","-9.5","","-12.0","","82","","","M","1","","46","","","M","100.37","","","","-21","","NA"
"-96.08","64.30","BAKER LAKE A","2300504","2019-04-24 14:00","2019","04","24","14:00","-9.3","","-12.0","","81","","","M","36","","59","","","M","100.41","","","","-22","","NA"
"-96.08","64.30","BAKER LAKE A","2300504","2019-04-24 15:00","2019","04","24","15:00","-10.9","","-13.2","","83","","","M","36","","55","","","M","100.49","","","","-23","","NA"
"-96.08","64.30","BAKER LAKE A","2300504","2019-04-24 16:00","2019","04","24","16:00","-12.4","","-14.8","","83","","","M","35","","56","","","M","100.57","","","","-26","","NA"
"-96.08","64.30","BAKER LAKE A","2300504","2019-04-24 17:00","2019","04","24","17:00","-13.3","","-15.8","","82","","","M","35","","61","","","M","100.67","","","","-27","","NA"
"-96.08","64.30","BAKER LAKE A","2300504","2019-04-24 18:00","2019","04","24","18:00","-14.7","","-17.3","","81","","","M","35","","54","","","M","100.79","","","","-29","","NA"
"-96.08","64.30","BAKER LAKE A","2300504","2019-04-24 19:00","2019","04","24","19:00","-15.9","","-18.6","","80","","","M","35","","42","","","M","100.88","","","","-29","","NA"
"-96.08","64.30","BAKER LAKE A","2300504","2019-04-24 20:00","2019","04","24","20:00","-17.8","","-20.4","","80","","","M","35","","40","","","M","101.00","","","","-31","","NA"
"-96.08","64.30","BAKER LAKE A","2300504","2019-04-24 21:00","2019","04","24","21:00","-19.1","","-21.7","","80","","","M","34","","50","","","M","101.01","","","","-34","","NA"
"-96.08","64.30","BAKER LAKE A","2300504","2019-04-24 22:00","2019","04","24","22:00","-20.3","","-23.1","","78","","","M","34","","45","","","M","101.11","","","","-35","","NA"
"-96.08","64.30","BAKER LAKE A","2300504","2019-04-24 23:00","2019","04","24","23:00","-21.0","","-24.0","","78","","","M","34","","44","","","M","101.15","","","","-36","","NA"
"-96.08","64.30","BAKER LAKE A","2300504","2019-04-25 00:00","2019","04","25","00:00","-21.5","","-24.4","","78","","","M","34","","49","","","M","101.11","","","","-37","","NA"
"-96.08","64.30","BAKER LAKE A","2300504","2019-04-25 01:00","2019","04","25","01:00","-22.0","","-25.0","","77","","","M","33","","45","","","M","101.16","","","","-37","","NA"
"-96.08","64.30","BAKER LAKE A","2300504","2019-04-25 02:00","2019","04","25","02:00","-22.1","","-25.2","","76","","","M","34","","43","","","M","101.16","","","","-37","","NA"
"-96.08","64.30","BAKER LAKE A","2300504","2019-04-25 03:00","2019","04","25","03:00","-22.2","","-25.3","","76","","","M","34","","37","","","M","101.20","","","","-37","","NA"
"-96.08","64.30","BAKER LAKE A","2300504","2019-04-25 04:00","2019","04","25","04:00","-23.2","","-26.2","","77","","","M","32","","34","","","M","101.21","","","","-37","","NA"
"-96.08","64.30","BAKER LAKE A","2300504","2019-04-25 05:00","2019","04","25","05:00","-22.8","","-26.1","","75","","","M","30","","31","","","M","101.26","","","","-36","","NA"
"-96.08","64.30","BAKER LAKE A","2300504","2019-04-25 06:00","2019","04","25","06:00","-22.1","","-25.5","","75","","","M","30","","36","","","M","101.28","","","","-36","","NA"
"-96.08","64.30","BAKER LAKE A","2300504","2019-04-25 07:00","2019","04","25","07:00","-20.7","","-23.9","","76","","","M","31","","28","","","M","101.23","","","","-33","","NA"
"-96.08","64.30","BAKER LAKE A","2300504","2019-04-25 08:00","2019","04","25","08:00","-19.6","","-23.2","","74","","","M","30","","32","","","M","101.20","","","","-32","","NA"
"-96.08","64.30","BAKER LAKE A","2300504","2019-04-25 09:00","2019","04","25","09:00","-18.8","","-22.5","","73","","","M","31","","32","","","M","101.17","","","","-31","","NA"
"-96.08","64.30","BAKER LAKE A","2300504","2019-04-25 10:00","2019","04","25","10:00","-18.2","","-21.9","","73","","","M","31","","34","","","M","101.14","","","","-31","","NA"
"-96.08","64.30","BAKER LAKE A","2300504","2019-04-25 11:00","2019","04","25","11:00","-17.1","","-20.9","","72","","","M","29","","26","","","M","101.17","","","","-28","","NA"
"-96.08","64.30","BAKER LAKE A","2300504","2019-04-25 12:00","2019","04","25","12:00","-16.1","","-20.0","","72","","","M","31","","30","","","M","101.16","","","","-27","","NA"
"-96.08","64.30","BAKER LAKE A","2300504","2019-04-25 13:00","2019","04","25","13:00","-15.1","","-19.0","","73","","","M","30","","29","","","M","101.14","","","","-26","","NA"
"-96.08","64.30","BAKER LAKE A","2300504","2019-04-25 14:00","2019","04","25","14:00","-14.6","","-18.4","","73","","","M","30","","33","","","M","101.12","","","","-26","","NA"
"-96.08","64.30","BAKER LAKE A","2300504","2019-04-25 15:00","2019","04","25","15:00","-14.1","","-17.8","","74","","","M","31","","37","","","M","101.12","","","","-26","","NA"
"-96.08","64.30","BAKER LAKE A","2300504","2019-04-25 16:00","2019","04","25","16:00","-13.7","","-17.7","","72","","","M","30","","32","","","M","101.17","","","","-25","","NA"
"-96.08","64.30","BAKER LAKE A","2300504","2019-04-25 17:00","2019","04","25","17:00","-13.7","","-17.6","","73","","","M","30","","22","","","M","101.21","","","","-23","","NA"
"-96.08","64.30","BAKER LAKE A","2300504","2019-04-25 18:00","2019","04","25","18:00","-14.2","","-17.6","","76","","","M","27","","10","","","M","101.23","","","","-20","","NA"
"-96.08","64.30","BAKER LAKE A","2300504","2019-04-25 19:00","2019","04","25","19:00","-14.9","","-17.9","","78","","","M","27","","19","","","M","101.22","","","","-24","","NA"
"-96.08","64.30","BAKER LAKE A","2300504","2019-04-25 20:00","2019","04","25","20:00","-16.3","","-19.1","","79","","","M","27","","19","","","M","101.21","","","","-26","","NA"
"-96.08","64.30","BAKER LAKE A","2300504","2019-04-25 21:00","2019","04","25","21:00","-16.3","","-18.9","","80","","","M","27","","16","","","M","101.23","","","","-25","","NA"
"-96.08","64.30","BAKER LAKE A","2300504","2019-04-25 22:00","2019","04","25","22:00","-16.7","","-19.5","","79","","","M","28","","15","","","M","101.21","","","","-25","","NA"
"-96.08","64.30","BAKER LAKE A","2300504","2019-04-25 23:00","2019","04","25","23:00","-18.2","","-20.6","","82","","","M","32","","21","","","M","101.26","","","","-28","","NA"
"-96.08","64.30","BAKER LAKE A","2300504","2019-04-26 00:00","2019","04","26","00:00","-20.2","","-23.2","","78","","","M","32","","15","","","M","101.30","","","","-29","","NA"
"-96.08","64.30","BAKER LAKE A","2300504","2019-04-26 01:00","2019","04","26","01:00","-19.6","","-22.7","","77","","","M","33","","28","","","M","101.35","","","","-32","","NA"
"-96.08","64.30","BAKER LAKE A","2300504","2019-04-26 02:00","2019","04","26","02:00","-20.7","","-23.9","","76","","","M","33","","21","","","M","101.41","","","","-32","","NA"
"-96.08","64.30","BAKER LAKE A","2300504","2019-04-26 03:00","2019","04","26","03:00","-23.5","","-26.7","","75","","","M","32","","22","","","M","101.48","","","","-35","","NA"
"-96.08","64.30","BAKER LAKE A","2300504","2019-04-26 04:00","2019","04","26","04:00","-24.5","","-27.8","","74","","","M","31","","21","","","M","101.53","","","","-36","","NA"
"-96.08","64.30","BAKER LAKE A","2300504","2019-04-26 05:00","2019","04","26","05:00","-24.3","","-27.6","","75","","","M","31","","18","","","M","101.60","","","","-35","","NA"
"-96.08","64.30","BAKER LAKE A","2300504","2019-04-26 06:00","2019","04","26","06:00","-23.6","","-27.0","","74","","","M","30","","19","","","M","101.67","","","","-35","","NA"
"-96.08","64.30","BAKER LAKE A","2300504","2019-04-26 07:00","2019","04","26","07:00","-23.6","","-27.3","","72","","","M","31","","19","","","M","101.72","","","","-35","","NA"
"-96.08","64.30","BAKER LAKE A","2300504","2019-04-26 08:00","2019","04","26","08:00","-22.6","","-26.4","","72","","","M","29","","15","","","M","101.76","","","","-32","","NA"
"-96.08","64.30","BAKER LAKE A","2300504","2019-04-26 09:00","2019","04","26","09:00","-21.9","","-25.6","","72","","","M","30","","26","","","M","101.74","","","","-34","","NA"
"-96.08","64.30","BAKER LAKE A","2300504","2019-04-26 10:00","2019","04","26","10:00","-21.3","","-25.2","","71","","","M","30","","19","","","M","101.79","","","","-32","","NA"
"-96.08","64.30","BAKER LAKE A","2300504","2019-04-26 11:00","2019","04","26","11:00","-20.8","","-24.7","","71","","","M","30","","14","","","M","101.83","","","","-30","","NA"
"-96.08","64.30","BAKER LAKE A","2300504","2019-04-26 12:00","2019","04","26","12:00","-20.1","","-24.2","","70","","","M","30","","11","","","M","101.86","","","","-28","","NA"
"-96.08","64.30","BAKER LAKE A","2300504","2019-04-26 13:00","2019","04","26","13:00","-19.4","","-24.0","","67","","","M","28","","12","","","M","101.88","","","","-27","","NA"
"-96.08","64.30","BAKER LAKE A","2300504","2019-04-26 14:00","2019","04","26","14:00","-18.7","","-23.3","","68","","","M","24","","11","","","M","101.91","","","","-26","","NA"
"-96.08","64.30","BAKER LAKE A","2300504","2019-04-26 15:00","2019","04","26","15:00","-18.4","","-23.1","","67","","","M","21","","7","","","M","101.93","","","","-24","","NA"
"-96.08","64.30","BAKER LAKE A","2300504","2019-04-26 16:00","2019","04","26","16:00","-17.7","","-22.7","","66","","","M","23","","12","","","M","101.97","","","","-25","","NA"
"-96.08","64.30","BAKER LAKE A","2300504","2019-04-26 17:00","2019","04","26","17:00","-17.3","","-21.8","","69","","","M","24","","12","","","M","101.99","","","","-25","","NA"
"-96.08","64.30","BAKER LAKE A","2300504","2019-04-26 18:00","2019","04","26","18:00","-17.8","","-21.7","","71","","","M","20","","5","","","M","101.99","","","","-22","","NA"
"-96.08","64.30","BAKER LAKE A","2300504","2019-04-26 19:00","2019","04","26","19:00","-18.9","","-22.4","","74","","","M","18","","4","","","M","102.00","","","","-22","","NA"
"-96.08","64.30","BAKER LAKE A","2300504","2019-04-26 20:00","2019","04","26","20:00","-20.7","","-23.8","","76","","","M","23","","8","","","M","101.99","","","","-27","","NA"
"-96.08","64.30","BAKER LAKE A","2300504","2019-04-26 21:00","2019","04","26","21:00","-21.4","","-24.1","","79","","","M","17","","3","","","M","102.00","","","","-24","","NA"
"-96.08","64.30","BAKER LAKE A","2300504","2019-04-26 22:00","2019","04","26","22:00","-20.8","","-23.6","","78","","","M","23","","9","","","M","102.00","","","","-28","","NA"
"-96.08","64.30","BAKER LAKE A","2300504","2019-04-26 23:00","2019","04","26","23:00","-19.3","","-22.3","","77","","","M","26","","8","","","M","101.98","","","","-25","","NA"
"-96.08","64.30","BAKER LAKE A","2300504","2019-04-27 00:00","2019","04","27","00:00","-19.0","","-22.6","","74","","","M","25","","7","","","M","101.96","","","","-24","","NA"
"-96.08","64.30","BAKER LAKE A","2300504","2019-04-27 01:00","2019","04","27","01:00","-19.8","","-22.5","","79","","","M","14","","7","","","M","101.95","","","","-25","","NA"
"-96.08","64.30","BAKER LAKE A","2300504","2019-04-27 02:00","2019","04","27","02:00","-18.6","","-21.5","","78","","","M","16","","11","","","M","101.94","","","","-26","","NA"
"-96.08","64.30","BAKER LAKE A","2300504","2019-04-27 03:00","2019","04","27","03:00","-17.9","","-20.9","","78","","","M","17","","12","","","M","101.91","","","","-25","","NA"
"-96.08","64.30","BAKER LAKE A","2300504","2019-04-27 04:00","2019","04","27","04:00","-17.4","","-20.4","","78","","","M","18","","17","","","M","101.87","","","","-26","","NA"
"-96.08","64.30","BAKER LAKE A","2300504","2019-04-27 05:00","2019","04","27","05:00","-16.9","","-19.8","","78","","","M","19","","21","","","M","101.85","","","","-27","","NA"
"-96.08","64.30","BAKER LAKE A","2300504","2019-04-27 06:00","2019","04","27","06:00","-16.3","","-19.4","","78","","","M","18","","23","","","M","101.84","","","","-26","","NA"
"-96.08","64.30","BAKER LAKE A","2300504","2019-04-27 07:00","2019","04","27","07:00","-16.1","","-19.4","","76","","","M","19","","24","","","M","101.83","","","","-26","","NA"
"-96.08","64.30","BAKER LAKE A","2300504","2019-04-27 08:00","2019","04","27","08:00","-15.2","","-18.5","","76","","","M","19","","26","","","M","101.83","","","","-26","","NA"
"-96.08","64.30","BAKER LAKE A","2300504","2019-04-27 09:00","2019","04","27","09:00","-14.8","","-18.2","","76","","","M","21","","20","","","M","101.84","","","","-24","","NA"
"-96.08","64.30","BAKER LAKE A","2300504","2019-04-27 10:00","2019","04","27","10:00","-14.6","","-18.5","","73","","","M","27","","20","","","M","101.86","","","","-24","","NA"
"-96.08","64.30","BAKER LAKE A","2300504","2019-04-27 11:00","2019","04","27","11:00","-15.0","","-18.8","","73","","","M","30","","26","","","M","101.90","","","","-25","","NA"
"-96.08","64.30","BAKER LAKE A","2300504","2019-04-27 12:00","2019","04","27","12:00","-15.7","","-20.1","","69","","","M","29","","24","","","M","101.98","","","","-26","","NA"
"-96.08","64.30","BAKER LAKE A","2300504","2019-04-27 13:00","2019","04","27","13:00","-15.7","","-20.4","","67","","","M","29","","23","","","M","102.00","","","","-26","","NA"
"-96.08","64.30","BAKER LAKE A","2300504","2019-04-27 14:00","2019","04","27","14:00","-15.2","","-19.7","","69","","","M","30","","22","","","M","102.05","","","","-25","","NA"
"-96.08","64.30","BAKER LAKE A","2300504","2019-04-27 15:00","2019","04","27","15:00","-15.2","","-19.5","","70","","","M","31","","21","","","M","102.08","","","","-25","","NA"
"-96.08","64.30","BAKER LAKE A","2300504","2019-04-27 16:00","2019","04","27","16:00","-15.1","","-20.0","","66","","","M","30","","21","","","M","102.12","","","","-25","","NA"
"-96.08","64.30","BAKER LAKE A","2300504","2019-04-27 17:00","2019","04","27","17:00","-15.1","","-20.6","","63","","","M","29","","24","","","M","102.15","","","","-25","","NA"
"-96.08","64.30","BAKER LAKE A","2300504","2019-04-27 18:00","2019","04","27","18:00","-15.6","","-20.2","","68","","","M","27","","16","","","M","102.17","","","","-24","","NA"
"-96.08","64.30","BAKER LAKE A","2300504","2019-04-27 19:00","2019","04","27","19:00","-16.3","","-20.4","","71","","","M","28","","13","","","M","102.18","","","","-24","","NA"
"-96.08","64.30","BAKER LAKE A","2300504","2019-04-27 20:00","2019","04","27","20:00","-16.0","","-20.1","","71","","","M","23","","7","","","M","102.12","","","","-21","","NA"
"-96.08","64.30","BAKER LAKE A","2300504","2019-04-27 21:00","2019","04","27","21:00","-16.8","","-20.0","","76","","","M","17","","7","","","M","102.12","","","","-22","","NA"
"-96.08","64.30","BAKER LAKE A","2300504","2019-04-27 22:00","2019","04","27","22:00","-17.0","","-20.1","","77","","","M","16","","5","","","M","102.05","","","","-21","","NA"
"-96.08","64.30","BAKER LAKE A","2300504","2019-04-27 23:00","2019","04","27","23:00","-17.2","","-20.1","","79","","","M","3","","2","","","M","102.01","","","","-19","","NA"
"-96.08","64.30","BAKER LAKE A","2300504","2019-04-28 00:00","2019","04","28","00:00","-17.2","","-19.9","","80","","","M","10","","1","","","M","101.97","","","","-18","","NA"
"-96.08","64.30","BAKER LAKE A","2300504","2019-04-28 01:00","2019","04","28","01:00","-16.9","","-19.5","","81","","","M","26","","2","","","M","101.95","","","","-18","","NA"
"-96.08","64.30","BAKER LAKE A","2300504","2019-04-28 02:00","2019","04","28","02:00","-17.0","","-19.2","","83","","","M","32","","5","","","M","101.89","","","","-21","","NA"
"-96.08","64.30","BAKER LAKE A","2300504","2019-04-28 03:00","2019","04","28","03:00","-17.4","","-19.7","","83","","","M","33","","4","","","M","101.87","","","","-21","","NA"
"-96.08","64.30","BAKER LAKE A","2300504","2019-04-28 04:00","2019","04","28","04:00","-15.8","","-18.2","","82","","","M","20","","7","","","M","101.85","","","","-21","","NA"
"-96.08","64.30","BAKER LAKE A","2300504","2019-04-28 05:00","2019","04","28","05:00","-15.9","","-18.7","","79","","","M","28","","11","","","M","101.83","","","","-23","","NA"
"-96.08","64.30","BAKER LAKE A","2300504","2019-04-28 06:00","2019","04","28","06:00","-17.0","","-19.7","","80","","","M","31","","17","","","M","101.80","","","","-26","","NA"
"-96.08","64.30","BAKER LAKE A","2300504","2019-04-28 07:00","2019","04","28","07:00","-15.8","","-18.9","","77","","","M","31","","19","","","M","101.81","","","","-25","","NA"
"-96.08","64.30","BAKER LAKE A","2300504","2019-04-28 08:00","2019","04","28","08:00","-15.8","","-19.0","","76","","","M","30","","29","","","M","101.75","","","","-27","","NA"
"-96.08","64.30","BAKER LAKE A","2300504","2019-04-28 09:00","2019","04","28","09:00","-16.2","","-19.7","","75","","","M","30","","30","","","M","101.75","","","","-28","","NA"
"-96.08","64.30","BAKER LAKE A","2300504","2019-04-28 10:00","2019","04","28","10:00","-16.0","","-19.7","","74","","","M","31","","23","","","M","101.80","","","","-26","","NA"
"-96.08","64.30","BAKER LAKE A","2300504","2019-04-28 11:00","2019","04","28","11:00","-17.2","","-20.9","","74","","","M","34","","24","","","M","101.81","","","","-28","","NA"
"-96.08","64.30","BAKER LAKE A","2300504","2019-04-28 12:00","2019","04","28","12:00","-16.6","","-20.3","","73","","","M","32","","27","","","M","101.81","","","","-28","","NA"
"-96.08","64.30","BAKER LAKE A","2300504","2019-04-28 13:00","2019","04","28","13:00","-16.1","","-19.7","","74","","","M","31","","38","","","M","101.77","","","","-29","","NA"
"-96.08","64.30","BAKER LAKE A","2300504","2019-04-28 14:00","2019","04","28","14:00","-15.8","","-19.3","","75","","","M","32","","42","","","M","101.81","","","","-29","","NA"
"-96.08","64.30","BAKER LAKE A","2300504","2019-04-28 15:00","2019","04","28","15:00","-16.5","","-19.9","","75","","","M","33","","39","","","M","101.86","","","","-29","","NA"
"-96.08","64.30","BAKER LAKE A","2300504","2019-04-28 16:00","2019","04","28","16:00","-16.4","","-19.9","","75","","","M","32","","41","","","M","101.88","","","","-29","","NA"
"-96.08","64.30","BAKER LAKE A","2300504","2019-04-28 17:00","2019","04","28","17:00","-16.5","","-19.8","","76","","","M","32","","41","","","M","101.93","","","","-30","","NA"
"-96.08","64.30","BAKER LAKE A","2300504","2019-04-28 18:00","2019","04","28","18:00","-17.8","","-21.0","","76","","","M","31","","41","","","M","101.96","","","","-31","","NA"
"-96.08","64.30","BAKER LAKE A","2300504","2019-04-28 19:00","2019","04","28","19:00","-18.8","","-22.0","","77","","","M","31","","39","","","M","102.00","","","","-32","","NA"
"-96.08","64.30","BAKER LAKE A","2300504","2019-04-28 20:00","2019","04","28","20:00","-19.8","","-22.9","","77","","","M","30","","33","","","M","102.02","","","","-33","","NA"
"-96.08","64.30","BAKER LAKE A","2300504","2019-04-28 21:00","2019","04","28","21:00","-20.6","","-23.7","","77","","","M","32","","18","","","M","102.06","","","","-31","","NA"
"-96.08","64.30","BAKER LAKE A","2300504","2019-04-28 22:00","2019","04","28","22:00","-21.0","","-24.1","","76","","","M","32","","24","","","M","102.05","","","","-33","","NA"
"-96.08","64.30","BAKER LAKE A","2300504","2019-04-28 23:00","2019","04","28","23:00","-23.0","","-26.1","","76","","","M","31","","18","","","M","102.09","","","","-34","","NA"
"-96.08","64.30","BAKER LAKE A","2300504","2019-04-29 00:00","2019","04","29","00:00","-23.7","","-26.8","","76","","","M","30","","22","","","M","102.13","","","","-36","","NA"
"-96.08","64.30","BAKER LAKE A","2300504","2019-04-29 01:00","2019","04","29","01:00","-23.9","","-27.1","","75","","","M","31","","23","","","M","102.14","","","","-36","","NA"
"-96.08","64.30","BAKER LAKE A","2300504","2019-04-29 02:00","2019","04","29","02:00","-23.4","","-26.6","","76","","","M","30","","22","","","M","102.17","","","","-35","","NA"
"-96.08","64.30","BAKER LAKE A","2300504","2019-04-29 03:00","2019","04","29","03:00","-23.9","","-27.0","","76","","","M","30","","21","","","M","102.17","","","","-36","","NA"
"-96.08","64.30","BAKER LAKE A","2300504","2019-04-29 04:00","2019","04","29","04:00","-23.6","","-26.7","","76","","","M","29","","21","","","M","102.20","","","","-35","","NA"
"-96.08","64.30","BAKER LAKE A","2300504","2019-04-29 05:00","2019","04","29","05:00","-22.2","","-25.4","","76","","","M","30","","17","","","M","102.25","","","","-32","","NA"
"-96.08","64.30","BAKER LAKE A","2300504","2019-04-29 06:00","2019","04","29","06:00","-21.4","","-24.8","","75","","","M","29","","15","","","M","102.29","","","","-31","","NA"
"-96.08","64.30","BAKER LAKE A","2300504","2019-04-29 07:00","2019","04","29","07:00","-21.1","","-24.8","","72","","","M","32","","16","","","M","102.32","","","","-31","","NA"
"-96.08","64.30","BAKER LAKE A","2300504","2019-04-29 08:00","2019","04","29","08:00","-21.4","","-25.5","","70","","","M","31","","12","","","M","102.36","","","","-30","","NA"
"-96.08","64.30","BAKER LAKE A","2300504","2019-04-29 09:00","2019","04","29","09:00","-21.4","","-25.3","","71","","","M","29","","12","","","M","102.39","","","","-30","","NA"
"-96.08","64.30","BAKER LAKE A","2300504","2019-04-29 10:00","2019","04","29","10:00","-20.5","","-24.8","","69","","","M","30","","19","","","M","102.41","","","","-31","","NA"
"-96.08","64.30","BAKER LAKE A","2300504","2019-04-29 11:00","2019","04","29","11:00","-20.6","","-25.1","","68","","","M","30","","12","","","M","102.47","","","","-29","","NA"
"-96.08","64.30","BAKER LAKE A","2300504","2019-04-29 12:00","2019","04","29","12:00","-20.2","","-24.9","","67","","","M","26","","12","","","M","102.52","","","","-28","","NA"
"-96.08","64.30","BAKER LAKE A","2300504","2019-04-29 13:00","2019","04","29","13:00","-20.0","","-24.9","","65","","","M","26","","10","","","M","102.57","","","","-27","","NA"
"-96.08","64.30","BAKER LAKE A","2300504","2019-04-29 14:00","2019","04","29","14:00","-19.7","","-24.6","","65","","","M","25","","12","","","M","102.65","","","","-28","","NA"
"-96.08","64.30","BAKER LAKE A","2300504","2019-04-29 15:00","2019","04","29","15:00","-19.7","","-24.6","","65","","","M","29","","9","","","M","102.71","","","","-26","","NA"
"-96.08","64.30","BAKER LAKE A","2300504","2019-04-29 16:00","2019","04","29","16:00","-19.5","","-24.5","","65","","","M","25","","9","","","M","102.77","","","","-26","","NA"
"-96.08","64.30","BAKER LAKE A","2300504","2019-04-29 17:00","2019","04","29","17:00","-19.5","","-24.4","","66","","","M","24","","8","","","M","102.82","","","","-26","","NA"
"-96.08","64.30","BAKER LAKE A","2300504","2019-04-29 18:00","2019","04","29","18:00","-19.8","","-24.7","","65","","","M","22","","7","","","M","102.89","","","","-25","","NA"
"-96.08","64.30","BAKER LAKE A","2300504","2019-04-29 19:00","2019","04","29","19:00","-20.2","","-24.7","","68","","","M","26","","5","","","M","102.93","","","","-25","","NA"
"-96.08","64.30","BAKER LAKE A","2300504","2019-04-29 20:00","2019","04","29","20:00","-21.4","","-25.6","","69","","","M","21","","5","","","M","102.98","","","","-26","","NA"
"-96.08","64.30","BAKER LAKE A","2300504","2019-04-29 21:00","2019","04","29","21:00","-22.6","","-26.3","","72","","","M","18","","2","","","M","103.01","","","","-24","","NA"
"-96.08","64.30","BAKER LAKE A","2300504","2019-04-29 22:00","2019","04","29","22:00","-23.4","","-27.1","","72","","","M","34","","3","","","M","103.03","","","","-26","","NA"
"-96.08","64.30","BAKER LAKE A","2300504","2019-04-29 23:00","2019","04","29","23:00","-24.0","","-27.5","","73","","","M","36","","3","","","M","103.09","","","","-27","","NA"
"-96.08","64.30","BAKER LAKE A","2300504","2019-04-30 00:00","2019","04","30","00:00","-23.2","","-26.4","","75","","","M","34","","3","","","M","103.12","","","","-26","","NA"
"-96.08","64.30","BAKER LAKE A","2300504","2019-04-30 01:00","2019","04","30","01:00","-23.8","","-26.6","","78","","","M","8","","4","","","M","103.18","","","","-28","","NA"
"-96.08","64.30","BAKER LAKE A","2300504","2019-04-30 02:00","2019","04","30","02:00","-23.4","","-26.0","","80","","","M","5","","5","","","M","103.20","","","","-28","","NA"
"-96.08","64.30","BAKER LAKE A","2300504","2019-04-30 03:00","2019","04","30","03:00","-21.6","","-24.5","","78","","","M","6","","12","","","M","103.16","","","","-30","","NA"
"-96.08","64.30","BAKER LAKE A","2300504","2019-04-30 04:00","2019","04","30","04:00","-21.0","","-23.9","","78","","","M","10","","23","","","M","103.15","","","","-32","","NA"
"-96.08","64.30","BAKER LAKE A","2300504","2019-04-30 05:00","2019","04","30","05:00","-20.2","","-23.1","","78","","","M","10","","18","","","M","103.16","","","","-30","","NA"
"-96.08","64.30","BAKER LAKE A","2300504","2019-04-30 06:00","2019","04","30","06:00","-19.6","","-22.4","","79","","","M","8","","23","","","M","103.08","","","","-31","","NA"
"-96.08","64.30","BAKER LAKE A","2300504","2019-04-30 07:00","2019","04","30","07:00","-18.5","","-21.2","","80","","","M","10","","36","","","M","103.02","","","","-32","","NA"
"-96.08","64.30","BAKER LAKE A","2300504","2019-04-30 08:00","2019","04","30","08:00","-17.8","","-20.4","","80","","","M","8","","34","","","M","102.94","","","","-30","","NA"
"-96.08","64.30","BAKER LAKE A","2300504","2019-04-30 09:00","2019","04","30","09:00","-16.2","","-18.8","","81","","","M","9","","35","","","M","102.93","","","","-28","","NA"
"-96.08","64.30","BAKER LAKE A","2300504","2019-04-30 10:00","2019","04","30","10:00","-14.6","","-17.4","","80","","","M","9","","34","","","M","102.90","","","","-26","","NA"
"-96.08","64.30","BAKER LAKE A","2300504","2019-04-30 11:00","2019","04","30","11:00","-14.4","","-17.0","","81","","","M","11","","45","","","M","102.83","","","","-27","","NA"
"-96.08","64.30","BAKER LAKE A","2300504","2019-04-30 12:00","2019","04","30","12:00","-13.6","","-16.1","","82","","","M","9","","40","","","M","102.81","","","","-26","","NA"
"-96.08","64.30","BAKER LAKE A","2300504","2019-04-30 13:00","2019","04","30","13:00","-12.7","","-15.1","","82","","","M","10","","36","","","M","102.84","","","","-24","","NA"
"-96.08","64.30","BAKER LAKE A","2300504","2019-04-30 14:00","2019","04","30","14:00","-11.6","","-13.8","","83","","","M","10","","39","","","M","102.78","","","","-23","","NA"
"-96.08","64.30","BAKER LAKE A","2300504","2019-04-30 15:00","2019","04","30","15:00","-10.8","","-12.9","","85","","","M","10","","44","","","M","102.75","","","","-22","","NA"
"-96.08","64.30","BAKER LAKE A","2300504","2019-04-30 16:00","2019","04","30","16:00","-9.2","","-11.1","","86","","","M","9","","31","","","M","102.78","","","","-19","","NA"
"-96.08","64.30","BAKER LAKE A","2300504","2019-04-30 17:00","2019","04","30","17:00","-9.1","","-10.7","","88","","","M","11","","34","","","M","102.77","","","","-19","","NA"
"-96.08","64.30","BAKER LAKE A","2300504","2019-04-30 18:00","2019","04","30","18:00","-9.4","","-11.1","","87","","","M","11","","37","","","M","102.73","","","","-20","","NA"
"-96.08","64.30","BAKER LAKE A","2300504","2019-04-30 19:00","2019","04","30","19:00","-9.7","","-11.4","","87","","","M","11","","35","","","M","102.74","","","","-20","","NA"
"-96.08","64.30","BAKER LAKE A","2300504","2019-04-30 20:00","2019","04","30","20:00","-10.5","","-12.3","","87","","","M","8","","22","","","M","102.75","","","","-19","","NA"
"-96.08","64.30","BAKER LAKE A","2300504","2019-04-30 21:00","2019","04","30","21:00","-11.6","","-13.3","","87","","","M","8","","16","","","M","102.77","","","","-19","","NA"
"-96.08","64.30","BAKER LAKE A","2300504","2019-04-30 22:00","2019","04","30","22:00","-12.4","","-14.0","","87","","","M","9","","22","","","M","102.75","","","","-21","","NA"
"-96.08","64.30","BAKER LAKE A","2300504","2019-04-30 23:00","2019","04","30","23:00","-13.1","","-14.8","","87","","","M","9","","24","","","M","102.74","","","","-23","","NA"
