"Longitude (x)","Latitude (y)","Station Name","Climate ID","Date/Time (LST)","Year","Month","Day","Time (LST)","Temp (°C)","Temp Flag","Dew Point Temp (°C)","Dew Point Temp Flag","Rel Hum (%)","Rel Hum Flag","Precip. Amount (mm)","Precip. Amount Flag","Wind Dir (10s deg)","Wind Dir Flag","Wind Spd (km/h)","Wind Spd Flag","Visibility (km)","Visibility Flag","Stn Press (kPa)","Stn Press Flag","Hmdx","Hmdx Flag","Wind Chill","Wind Chill Flag","Weather"
"-93.58","69.55","TALOYOAK A","2403855","2018-01-01 00:00","2018","01","01","00:00","-36.9","","-41.0","","66","","","","36","","4","","24.1","","100.88","","","","-42","","Ice Crystals"
"-93.58","69.55","TALOYOAK A","2403855","2018-01-01 01:00","2018","01","01","01:00","-36.3","","-40.3","","67","","","","36","","18","","24.1","","100.90","","","","-50","","Ice Crystals"
"-93.58","69.55","TALOYOAK A","2403855","2018-01-01 02:00","2018","01","01","02:00","-36.7","","-40.8","","66","","","","36","","9","","24.1","","100.94","","","","-47","","Ice Crystals"
"-93.58","69.55","TALOYOAK A","2403855","2018-01-01 03:00","2018","01","01","03:00","-36.8","","-40.9","","66","","","","36","","9","","24.1","","100.97","","","","-47","","Ice Crystals"
"-93.58","69.55","TALOYOAK A","2403855","2018-01-01 04:00","2018","01","01","04:00","-36.7","","-40.8","","66","","","","36","","9","","24.1","","100.98","","","","-47","","Ice Crystals"
"-93.58","69.55","TALOYOAK A","2403855","2018-01-01 05:00","2018","01","01","05:00","-36.8","","-40.9","","66","","","","36","","9","","24.1","","101.02","","","","-47","","Ice Crystals"
"-93.58","69.55","TALOYOAK A","2403855","2018-01-01 06:00","2018","01","01","06:00","-36.5","","-40.6","","66","","","","36","","4","","24.1","","101.03","","","","-42","","Ice Crystals"
"-93.58","69.55","TALOYOAK A","2403855","2018-01-01 07:00","2018","01","01","07:00","-35.7","","-39.7","","67","","","","36","","9","","24.1","","101.06","","","","-45","","Ice Crystals"
"-93.58","69.55","TALOYOAK A","2403855","2018-01-01 08:00","2018","01","01","08:00","-32.3","","-36.1","","69","","","","36","","4","","24.1","","101.09","","","","-37","","Snow"
"-93.58","69.55","TALOYOAK A","2403855","2018-01-01 09:00","2018","01","01","09:00","-31.9","","-35.6","","70","","","","5","","4","","24.1","","101.14","","","","-37","","Snow"
"-93.58","69.55","TALOYOAK A","2403855","2018-01-01 10:00","2018","01","01","10:00","-31.5","","-35.3","","70","","","","5","","4","","24.1","","101.14","","","","-36","","Snow"
"-93.58","69.55","TALOYOAK A","2403855","2018-01-01 11:00","2018","01","01","11:00","-31.5","","-35.2","","70","","","","5","","4","","24.1","","101.16","","","","-36","","Snow,Ice Crystals"
"-93.58","69.55","TALOYOAK A","2403855","2018-01-01 12:00","2018","01","01","12:00","-30.6","","-34.3","","71","","","","","","0","","24.1","","101.18","","","","","","NA"
"-93.58","69.55","TALOYOAK A","2403855","2018-01-01 13:00","2018","01","01","13:00","-30.8","","-34.6","","70","","","","9","","4","","24.1","","101.22","","","","-35","","Snow"
"-93.58","69.55","TALOYOAK A","2403855","2018-01-01 14:00","2018","01","01","14:00","-30.4","","-34.0","","71","","","","9","","4","","16.1","","101.26","","","","-35","","Snow"
"-93.58","69.55","TALOYOAK A","2403855","2018-01-01 15:00","2018","01","01","15:00","-30.3","","-33.9","","71","","","","9","","4","","16.1","","101.27","","","","-35","","Snow"
"-93.58","69.55","TALOYOAK A","2403855","2018-01-01 16:00","2018","01","01","16:00","-30.5","","-34.1","","71","","","","9","","4","","24.1","","101.30","","","","-35","","Ice Crystals"
"-93.58","69.55","TALOYOAK A","2403855","2018-01-01 17:00","2018","01","01","17:00","-31.5","","-35.2","","70","","","","9","","4","","24.1","","101.33","","","","-36","","Ice Crystals"
"-93.58","69.55","TALOYOAK A","2403855","2018-01-01 18:00","2018","01","01","18:00","-31.4","","-35.1","","70","","","","","","0","","24.1","","101.34","","","","","","Ice Crystals"
"-93.58","69.55","TALOYOAK A","2403855","2018-01-01 19:00","2018","01","01","19:00","-31.7","","-35.4","","70","","","","","","0","","24.1","","101.36","","","","","","Ice Crystals"
"-93.58","69.55","TALOYOAK A","2403855","2018-01-01 20:00","2018","01","01","20:00","-31.5","","-35.2","","70","","","","36","","4","","16.1","","101.38","","","","-36","","Ice Crystals"
"-93.58","69.55","TALOYOAK A","2403855","2018-01-01 21:00","2018","01","01","21:00","-33.5","","-37.3","","69","","","","36","","4","","24.1","","101.42","","","","-38","","Ice Crystals"
"-93.58","69.55","TALOYOAK A","2403855","2018-01-01 22:00","2018","01","01","22:00","-33.8","","-37.6","","69","","","","5","","4","","24.1","","101.43","","","","-39","","Ice Crystals"
"-93.58","69.55","TALOYOAK A","2403855","2018-01-01 23:00","2018","01","01","23:00","-33.4","","-37.2","","69","","","","36","","4","","24.1","","101.48","","","","-38","","Ice Crystals"
"-93.58","69.55","TALOYOAK A","2403855","2018-01-02 00:00","2018","01","02","00:00","-33.2","","-37.1","","69","","","","36","","4","","16.1","","101.52","","","","-38","","Snow"
"-93.58","69.55","TALOYOAK A","2403855","2018-01-02 01:00","2018","01","02","01:00","-33.8","","-37.7","","68","","","","5","","4","","24.1","","101.58","","","","-39","","NA"
"-93.58","69.55","TALOYOAK A","2403855","2018-01-02 02:00","2018","01","02","02:00","-34.4","","-38.3","","68","","","","5","","4","","24.1","","101.61","","","","-39","","Ice Crystals"
"-93.58","69.55","TALOYOAK A","2403855","2018-01-02 03:00","2018","01","02","03:00","-34.9","","-38.8","","68","","","","9","","4","","24.1","","101.63","","","","-40","","Ice Crystals"
"-93.58","69.55","TALOYOAK A","2403855","2018-01-02 04:00","2018","01","02","04:00","-35.5","","-39.4","","68","","","","5","","4","","24.1","","101.69","","","","-41","","Ice Crystals"
"-93.58","69.55","TALOYOAK A","2403855","2018-01-02 05:00","2018","01","02","05:00","-34.7","","-38.7","","68","","","","9","","4","","24.1","","101.73","","","","-40","","Ice Crystals"
"-93.58","69.55","TALOYOAK A","2403855","2018-01-02 06:00","2018","01","02","06:00","-35.1","","-39.0","","68","","","","32","","4","","24.1","","101.74","","","","-40","","Ice Crystals"
"-93.58","69.55","TALOYOAK A","2403855","2018-01-02 07:00","2018","01","02","07:00","-35.2","","-39.2","","67","","","","32","","4","","24.1","","101.76","","","","-40","","Ice Crystals"
"-93.58","69.55","TALOYOAK A","2403855","2018-01-02 08:00","2018","01","02","08:00","-36.0","","-39.9","","68","","","","18","","4","","24.1","","101.78","","","","-41","","Ice Crystals"
"-93.58","69.55","TALOYOAK A","2403855","2018-01-02 09:00","2018","01","02","09:00","-36.3","","-40.4","","67","","","","","","0","","24.1","","101.80","","","","","","Ice Crystals"
"-93.58","69.55","TALOYOAK A","2403855","2018-01-02 10:00","2018","01","02","10:00","-35.7","","-39.7","","67","","","","","","0","","24.1","","101.80","","","","","","Ice Crystals"
"-93.58","69.55","TALOYOAK A","2403855","2018-01-02 11:00","2018","01","02","11:00","-36.8","","-40.9","","66","","","","","","0","","24.1","","101.78","","","","","","Ice Crystals"
"-93.58","69.55","TALOYOAK A","2403855","2018-01-02 12:00","2018","01","02","12:00","-36.3","","-40.3","","67","","","","18","","4","","24.1","","101.80","","","","-41","","Ice Crystals"
"-93.58","69.55","TALOYOAK A","2403855","2018-01-02 13:00","2018","01","02","13:00","-35.4","","-39.4","","67","","","","18","","9","","24.1","","101.83","","","","-45","","Ice Crystals"
"-93.58","69.55","TALOYOAK A","2403855","2018-01-02 14:00","2018","01","02","14:00","-35.7","","-39.8","","67","","","","18","","9","","16.1","","101.87","","","","-45","","Ice Crystals"
"-93.58","69.55","TALOYOAK A","2403855","2018-01-02 15:00","2018","01","02","15:00","-35.1","","-39.1","","67","","","","18","","4","","16.1","","101.89","","","","-40","","Ice Crystals"
"-93.58","69.55","TALOYOAK A","2403855","2018-01-02 16:00","2018","01","02","16:00","-35.6","","-39.6","","67","","","","18","","9","","16.1","","101.89","","","","-45","","Ice Crystals"
"-93.58","69.55","TALOYOAK A","2403855","2018-01-02 17:00","2018","01","02","17:00","-35.0","","-39.0","","67","","","","14","","9","","16.1","","101.88","","","","-45","","Ice Crystals"
"-93.58","69.55","TALOYOAK A","2403855","2018-01-02 18:00","2018","01","02","18:00","-35.0","","-39.0","","67","","","","14","","4","","16.1","","101.85","","","","-40","","Ice Crystals"
"-93.58","69.55","TALOYOAK A","2403855","2018-01-02 19:00","2018","01","02","19:00","-34.7","","-38.7","","68","","","","14","","4","","16.1","","101.84","","","","-40","","Ice Crystals"
"-93.58","69.55","TALOYOAK A","2403855","2018-01-02 20:00","2018","01","02","20:00","-33.8","","-37.7","","68","","","","14","","9","","16.1","","101.81","","","","-43","","Ice Crystals"
"-93.58","69.55","TALOYOAK A","2403855","2018-01-02 21:00","2018","01","02","21:00","-32.6","","-36.4","","69","","","","14","","9","","9.7","","101.82","","","","-42","","Snow"
"-93.58","69.55","TALOYOAK A","2403855","2018-01-02 22:00","2018","01","02","22:00","-32.0","","-35.8","","70","","","","14","","9","","9.7","","101.81","","","","-41","","Snow"
"-93.58","69.55","TALOYOAK A","2403855","2018-01-02 23:00","2018","01","02","23:00","-30.9","","-34.6","","70","","","","18","","4","","9.7","","101.82","","","","-35","","Snow"
"-93.58","69.55","TALOYOAK A","2403855","2018-01-03 00:00","2018","01","03","00:00","-30.5","","-34.1","","71","","","","18","","4","","12.9","","101.83","","","","-35","","Snow"
"-93.58","69.55","TALOYOAK A","2403855","2018-01-03 01:00","2018","01","03","01:00","-30.5","","-34.1","","71","","","","14","","4","","12.9","","101.86","","","","-35","","Snow"
"-93.58","69.55","TALOYOAK A","2403855","2018-01-03 02:00","2018","01","03","02:00","-30.0","","-33.6","","71","","","","14","","4","","12.9","","101.93","","","","-35","","Snow"
"-93.58","69.55","TALOYOAK A","2403855","2018-01-03 03:00","2018","01","03","03:00","-32.0","","-35.7","","70","","","","36","","4","","16.1","","101.94","","","","-37","","Snow"
"-93.58","69.55","TALOYOAK A","2403855","2018-01-03 04:00","2018","01","03","04:00","-31.6","","-35.3","","70","","","","36","","4","","24.1","","101.98","","","","-36","","Ice Crystals"
"-93.58","69.55","TALOYOAK A","2403855","2018-01-03 05:00","2018","01","03","05:00","-34.3","","-38.1","","69","","","","36","","4","","24.1","","102.02","","","","-39","","Ice Crystals"
"-93.58","69.55","TALOYOAK A","2403855","2018-01-03 06:00","2018","01","03","06:00","-34.6","","-38.5","","68","","","","36","","4","","24.1","","102.05","","","","-40","","Ice Crystals"
"-93.58","69.55","TALOYOAK A","2403855","2018-01-03 07:00","2018","01","03","07:00","-35.1","","-39.0","","68","","","","36","","9","","24.1","","102.11","","","","-45","","Ice Crystals"
"-93.58","69.55","TALOYOAK A","2403855","2018-01-03 08:00","2018","01","03","08:00","-34.5","","-38.4","","68","","","","36","","4","","24.1","","102.16","","","","-39","","Ice Crystals"
"-93.58","69.55","TALOYOAK A","2403855","2018-01-03 09:00","2018","01","03","09:00","-33.9","","-37.8","","68","","","","9","","4","","24.1","","102.18","","","","-39","","Ice Crystals"
"-93.58","69.55","TALOYOAK A","2403855","2018-01-03 10:00","2018","01","03","10:00","-35.0","","-39.0","","67","","","","36","","9","","24.1","","102.22","","","","-45","","Ice Crystals"
"-93.58","69.55","TALOYOAK A","2403855","2018-01-03 11:00","2018","01","03","11:00","-33.6","","-37.5","","68","","","","36","","9","","24.1","","102.27","","","","-43","","Ice Crystals"
"-93.58","69.55","TALOYOAK A","2403855","2018-01-03 12:00","2018","01","03","12:00","-33.4","","-37.3","","68","","","","36","","9","","24.1","","102.29","","","","-43","","Ice Crystals"
"-93.58","69.55","TALOYOAK A","2403855","2018-01-03 13:00","2018","01","03","13:00","-34.0","","-37.9","","68","","","","9","","4","","24.1","","102.35","","","","-39","","Ice Crystals"
"-93.58","69.55","TALOYOAK A","2403855","2018-01-03 14:00","2018","01","03","14:00","-36.5","","-40.5","","67","","","","","","0","","24.1","","102.45","","","","","","Ice Crystals"
"-93.58","69.55","TALOYOAK A","2403855","2018-01-03 15:00","2018","01","03","15:00","-35.6","","-39.6","","67","","","","","","0","","22.5","","102.49","","","","","","Ice Crystals"
"-93.58","69.55","TALOYOAK A","2403855","2018-01-03 16:00","2018","01","03","16:00","-35.7","","-39.7","","67","","","","","","0","","24.1","","102.52","","","","","","Ice Crystals"
"-93.58","69.55","TALOYOAK A","2403855","2018-01-03 17:00","2018","01","03","17:00","-35.8","","-39.9","","67","","","","","","0","","24.1","","102.57","","","","","","Ice Crystals"
"-93.58","69.55","TALOYOAK A","2403855","2018-01-03 18:00","2018","01","03","18:00","-36.2","","-40.3","","67","","","","9","","4","","24.1","","102.59","","","","-41","","Ice Crystals"
"-93.58","69.55","TALOYOAK A","2403855","2018-01-03 19:00","2018","01","03","19:00","-36.9","","-41.0","","66","","","","14","","4","","24.1","","102.63","","","","-42","","Ice Crystals"
"-93.58","69.55","TALOYOAK A","2403855","2018-01-03 20:00","2018","01","03","20:00","-36.0","","-40.1","","67","","","","14","","4","","24.1","","102.64","","","","-41","","Ice Crystals"
"-93.58","69.55","TALOYOAK A","2403855","2018-01-03 21:00","2018","01","03","21:00","-36.8","","-40.9","","66","","","","14","","4","","24.1","","102.66","","","","-42","","Ice Crystals"
"-93.58","69.55","TALOYOAK A","2403855","2018-01-03 22:00","2018","01","03","22:00","-36.7","","-40.8","","67","","","","18","","4","","24.1","","102.71","","","","-42","","Ice Crystals"
"-93.58","69.55","TALOYOAK A","2403855","2018-01-03 23:00","2018","01","03","23:00","-37.6","","-41.7","","66","","","","14","","4","","24.1","","102.75","","","","-43","","Ice Crystals"
"-93.58","69.55","TALOYOAK A","2403855","2018-01-04 00:00","2018","01","04","00:00","-36.9","","-41.0","","66","","","","14","","4","","24.1","","102.78","","","","-42","","Ice Crystals"
"-93.58","69.55","TALOYOAK A","2403855","2018-01-04 01:00","2018","01","04","01:00","-36.8","","-40.9","","66","","","","14","","4","","24.1","","102.82","","","","-42","","Ice Crystals"
"-93.58","69.55","TALOYOAK A","2403855","2018-01-04 02:00","2018","01","04","02:00","-37.2","","-41.3","","66","","","","14","","4","","24.1","","102.87","","","","-42","","Ice Crystals"
"-93.58","69.55","TALOYOAK A","2403855","2018-01-04 03:00","2018","01","04","03:00","-37.2","","-41.3","","66","","","","14","","4","","24.1","","102.92","","","","-42","","Ice Crystals"
"-93.58","69.55","TALOYOAK A","2403855","2018-01-04 04:00","2018","01","04","04:00","-37.2","","-41.3","","66","","","","14","","4","","24.1","","102.92","","","","-42","","Ice Crystals"
"-93.58","69.55","TALOYOAK A","2403855","2018-01-04 05:00","2018","01","04","05:00","-37.2","","-41.3","","66","","","","14","","9","","24.1","","102.94","","","","-47","","Ice Crystals"
"-93.58","69.55","TALOYOAK A","2403855","2018-01-04 06:00","2018","01","04","06:00","-37.5","","-41.7","","66","","","","14","","9","","24.1","","102.95","","","","-47","","Ice Crystals"
"-93.58","69.55","TALOYOAK A","2403855","2018-01-04 07:00","2018","01","04","07:00","-37.5","","-41.7","","66","","","","14","","9","","24.1","","102.94","","","","-47","","Ice Crystals"
"-93.58","69.55","TALOYOAK A","2403855","2018-01-04 08:00","2018","01","04","08:00","-37.5","","-41.7","","66","","","","14","","9","","24.1","","102.93","","","","-47","","Ice Crystals"
"-93.58","69.55","TALOYOAK A","2403855","2018-01-04 09:00","2018","01","04","09:00","","M","","M","","M","","","18","","18","","24.1","","","M","","","","","Ice Crystals,Blowing Snow"
"-93.58","69.55","TALOYOAK A","2403855","2018-01-04 10:00","2018","01","04","10:00","","M","","M","","M","","","18","","21","","24.1","","","M","","","","","Ice Crystals,Blowing Snow"
"-93.58","69.55","TALOYOAK A","2403855","2018-01-04 11:00","2018","01","04","11:00","","M","","M","","M","","","18","","9","","24.1","","","M","","","","","Ice Crystals"
"-93.58","69.55","TALOYOAK A","2403855","2018-01-04 12:00","2018","01","04","12:00","","M","","M","","M","","","18","","18","","24.1","","","M","","","","","Ice Crystals,Blowing Snow"
"-93.58","69.55","TALOYOAK A","2403855","2018-01-04 13:00","2018","01","04","13:00","","M","","M","","M","","","18","","18","","24.1","","","M","","","","","Ice Crystals,Blowing Snow"
"-93.58","69.55","TALOYOAK A","2403855","2018-01-04 14:00","2018","01","04","14:00","","M","","M","","M","","","18","","18","","24.1","","","M","","","","","Ice Crystals,Blowing Snow"
"-93.58","69.55","TALOYOAK A","2403855","2018-01-04 15:00","2018","01","04","15:00","","M","","M","","M","","","18","","18","","24.1","","","M","","","","","Ice Crystals,Blowing Snow"
"-93.58","69.55","TALOYOAK A","2403855","2018-01-04 16:00","2018","01","04","16:00","","M","","M","","M","","","18","","18","","24.1","","","M","","","","","Ice Crystals,Blowing Snow"
"-93.58","69.55","TALOYOAK A","2403855","2018-01-04 17:00","2018","01","04","17:00","","M","","M","","M","","","18","","18","","24.1","","","M","","","","","Ice Crystals"
"-93.58","69.55","TALOYOAK A","2403855","2018-01-04 18:00","2018","01","04","18:00","-37.2","","-44.7","","47","","","","18","","18","","24.1","","103.06","","","","-51","","Ice Crystals,Blowing Snow"
"-93.58","69.55","TALOYOAK A","2403855","2018-01-04 19:00","2018","01","04","19:00","-37.4","","-41.6","","65","","","","18","","18","","24.1","","103.02","","","","-52","","Ice Crystals"
"-93.58","69.55","TALOYOAK A","2403855","2018-01-04 20:00","2018","01","04","20:00","-37.4","","-41.5","","66","","","","18","","18","","24.1","","103.00","","","","-52","","Ice Crystals"
"-93.58","69.55","TALOYOAK A","2403855","2018-01-04 21:00","2018","01","04","21:00","-37.3","","-41.5","","66","","","","14","","9","","24.1","","102.97","","","","-47","","Ice Crystals"
"-93.58","69.55","TALOYOAK A","2403855","2018-01-04 22:00","2018","01","04","22:00","-37.1","","-41.3","","66","","","","14","","18","","24.1","","102.94","","","","-51","","Ice Crystals"
"-93.58","69.55","TALOYOAK A","2403855","2018-01-04 23:00","2018","01","04","23:00","-36.8","","-41.0","","66","","","","14","","18","","24.1","","102.92","","","","-51","","Ice Crystals"
"-93.58","69.55","TALOYOAK A","2403855","2018-01-05 00:00","2018","01","05","00:00","-36.3","","-40.4","","66","","","","14","","18","","24.1","","102.86","","","","-50","","Ice Crystals"
"-93.58","69.55","TALOYOAK A","2403855","2018-01-05 01:00","2018","01","05","01:00","-35.5","","-39.6","","67","","","","14","","18","","24.1","","102.85","","","","-49","","Ice Crystals"
"-93.58","69.55","TALOYOAK A","2403855","2018-01-05 02:00","2018","01","05","02:00","-34.6","","-38.6","","67","","","","14","","18","","24.1","","102.77","","","","-48","","Ice Crystals"
"-93.58","69.55","TALOYOAK A","2403855","2018-01-05 03:00","2018","01","05","03:00","-34.0","","-38.0","","68","","","","14","","18","","24.1","","102.71","","","","-47","","Ice Crystals"
"-93.58","69.55","TALOYOAK A","2403855","2018-01-05 04:00","2018","01","05","04:00","-33.0","","-36.9","","68","","","","14","","28","","9.7","","102.61","","","","-49","","Ice Crystals,Blowing Snow"
"-93.58","69.55","TALOYOAK A","2403855","2018-01-05 05:00","2018","01","05","05:00","-32.0","","-35.8","","69","","","","14","","28","","9.7","","102.55","","","","-48","","Ice Crystals"
"-93.58","69.55","TALOYOAK A","2403855","2018-01-05 06:00","2018","01","05","06:00","-31.3","","-35.0","","70","","","","14","","28","","9.7","","102.47","","","","-47","","Ice Crystals,Blowing Snow"
"-93.58","69.55","TALOYOAK A","2403855","2018-01-05 07:00","2018","01","05","07:00","-30.3","","-34.0","","71","","","","14","","28","","9.7","","102.37","","","","-46","","Ice Crystals,Blowing Snow"
"-93.58","69.55","TALOYOAK A","2403855","2018-01-05 08:00","2018","01","05","08:00","-29.3","","-32.9","","71","","","","14","","28","","6.4","","102.28","","","","-44","","Ice Crystals,Blowing Snow"
"-93.58","69.55","TALOYOAK A","2403855","2018-01-05 09:00","2018","01","05","09:00","-28.5","","-32.0","","72","","","","18","","28","","1.6","","102.18","","","","-43","","Blowing Snow"
"-93.58","69.55","TALOYOAK A","2403855","2018-01-05 10:00","2018","01","05","10:00","-27.8","","-31.2","","73","","","","18","","28","","1.6","","102.13","","","","-42","","Blowing Snow"
"-93.58","69.55","TALOYOAK A","2403855","2018-01-05 11:00","2018","01","05","11:00","-27.1","","-30.4","","74","","","","18","","18","","1.6","","102.03","","","","-39","","Ice Crystals,Blowing Snow"
"-93.58","69.55","TALOYOAK A","2403855","2018-01-05 12:00","2018","01","05","12:00","-26.1","","-29.3","","74","","","","18","","18","","1.6","","101.97","","","","-38","","Ice Crystals,Blowing Snow"
"-93.58","69.55","TALOYOAK A","2403855","2018-01-05 13:00","2018","01","05","13:00","-25.7","","-28.9","","75","","","","18","","18","","4.8","","101.93","","","","-37","","Ice Crystals,Blowing Snow"
"-93.58","69.55","TALOYOAK A","2403855","2018-01-05 14:00","2018","01","05","14:00","-25.3","","-28.4","","75","","","","18","","18","","4.8","","101.81","","","","-37","","Ice Crystals,Blowing Snow"
"-93.58","69.55","TALOYOAK A","2403855","2018-01-05 15:00","2018","01","05","15:00","-25.1","","-28.1","","76","","","","18","","18","","4.8","","101.76","","","","-36","","Ice Crystals,Blowing Snow"
"-93.58","69.55","TALOYOAK A","2403855","2018-01-05 16:00","2018","01","05","16:00","-25.3","","-28.4","","75","","","","18","","18","","16.1","","101.71","","","","-37","","Ice Crystals,Blowing Snow"
"-93.58","69.55","TALOYOAK A","2403855","2018-01-05 17:00","2018","01","05","17:00","-25.4","","-28.5","","75","","","","18","","18","","16.1","","101.66","","","","-37","","Ice Crystals,Blowing Snow"
"-93.58","69.55","TALOYOAK A","2403855","2018-01-05 18:00","2018","01","05","18:00","-25.4","","-28.5","","75","","","","18","","18","","1.6","","101.55","","","","-37","","Snow,Blowing Snow"
"-93.58","69.55","TALOYOAK A","2403855","2018-01-05 19:00","2018","01","05","19:00","-25.4","","-28.5","","76","","","","18","","18","","1.6","","101.45","","","","-37","","Snow,Blowing Snow"
"-93.58","69.55","TALOYOAK A","2403855","2018-01-05 20:00","2018","01","05","20:00","-25.3","","-28.4","","76","","","","18","","18","","1.6","","101.40","","","","-37","","Snow,Blowing Snow"
"-93.58","69.55","TALOYOAK A","2403855","2018-01-05 21:00","2018","01","05","21:00"
"-93.58","69.55","TALOYOAK A","2403855","2018-01-05 22:00","2018","01","05","22:00"
"-93.58","69.55","TALOYOAK A","2403855","2018-01-05 23:00","2018","01","05","23:00"
"-93.58","69.55","TALOYOAK A","2403855","2018-01-06 00:00","2018","01","06","00:00"
"-93.58","69.55","TALOYOAK A","2403855","2018-01-06 01:00","2018","01","06","01:00"
"-93.58","69.55","TALOYOAK A","2403855","2018-01-06 02:00","2018","01","06","02:00"
"-93.58","69.55","TALOYOAK A","2403855","2018-01-06 03:00","2018","01","06","03:00"
"-93.58","69.55","TALOYOAK A","2403855","2018-01-06 04:00","2018","01","06","04:00"
"-93.58","69.55","TALOYOAK A","2403855","2018-01-06 05:00","2018","01","06","05:00"
"-93.58","69.55","TALOYOAK A","2403855","2018-01-06 06:00","2018","01","06","06:00"
"-93.58","69.55","TALOYOAK A","2403855","2018-01-06 07:00","2018","01","06","07:00"
"-93.58","69.55","TALOYOAK A","2403855","2018-01-06 08:00","2018","01","06","08:00"
"-93.58","69.55","TALOYOAK A","2403855","2018-01-06 09:00","2018","01","06","09:00","-20.5","","-21.9","","88","","","","23","","4","","4.8","","100.65","","","","-24","","Snow,Fog"
"-93.58","69.55","TALOYOAK A","2403855","2018-01-06 10:00","2018","01","06","10:00","-20.5","","-22.7","","82","","","","","","0","","16.1","","100.58","","","","","","Snow"
"-93.58","69.55","TALOYOAK A","2403855","2018-01-06 11:00","2018","01","06","11:00","-20.8","","-22.6","","85","","","","","","0","","12.9","","100.58","","","","","","Snow"
"-93.58","69.55","TALOYOAK A","2403855","2018-01-06 12:00","2018","01","06","12:00","-21.1","","-23.3","","83","","","","","","0","","12.9","","100.55","","","","","","Snow"
"-93.58","69.55","TALOYOAK A","2403855","2018-01-06 13:00","2018","01","06","13:00","-21.7","","-24.1","","81","","","","5","","4","","12.9","","100.52","","","","-25","","Snow"
"-93.58","69.55","TALOYOAK A","2403855","2018-01-06 14:00","2018","01","06","14:00","-21.8","","-24.2","","81","","","","36","","4","","16.1","","100.51","","","","-25","","Snow"
"-93.58","69.55","TALOYOAK A","2403855","2018-01-06 15:00","2018","01","06","15:00","-22.0","","-24.5","","80","","","","","","0","","16.1","","100.49","","","","","","Snow"
"-93.58","69.55","TALOYOAK A","2403855","2018-01-06 16:00","2018","01","06","16:00","-21.9","","-24.4","","80","","","","","","0","","16.1","","100.45","","","","","","Snow"
"-93.58","69.55","TALOYOAK A","2403855","2018-01-06 17:00","2018","01","06","17:00","-21.6","","-24.0","","81","","","","9","","4","","16.1","","100.38","","","","-25","","Snow"
"-93.58","69.55","TALOYOAK A","2403855","2018-01-06 18:00","2018","01","06","18:00","-21.4","","-23.8","","81","","","","","","0","","16.1","","100.31","","","","","","Snow"
"-93.58","69.55","TALOYOAK A","2403855","2018-01-06 19:00","2018","01","06","19:00","-20.8","","-23.1","","82","","","","14","","4","","16.1","","100.24","","","","-24","","Snow"
"-93.58","69.55","TALOYOAK A","2403855","2018-01-06 20:00","2018","01","06","20:00","-20.8","","-23.1","","81","","","","14","","4","","6.4","","100.21","","","","-24","","Snow"
"-93.58","69.55","TALOYOAK A","2403855","2018-01-06 21:00","2018","01","06","21:00"
"-93.58","69.55","TALOYOAK A","2403855","2018-01-06 22:00","2018","01","06","22:00"
"-93.58","69.55","TALOYOAK A","2403855","2018-01-06 23:00","2018","01","06","23:00"
"-93.58","69.55","TALOYOAK A","2403855","2018-01-07 00:00","2018","01","07","00:00"
"-93.58","69.55","TALOYOAK A","2403855","2018-01-07 01:00","2018","01","07","01:00"
"-93.58","69.55","TALOYOAK A","2403855","2018-01-07 02:00","2018","01","07","02:00"
"-93.58","69.55","TALOYOAK A","2403855","2018-01-07 03:00","2018","01","07","03:00"
"-93.58","69.55","TALOYOAK A","2403855","2018-01-07 04:00","2018","01","07","04:00"
"-93.58","69.55","TALOYOAK A","2403855","2018-01-07 05:00","2018","01","07","05:00"
"-93.58","69.55","TALOYOAK A","2403855","2018-01-07 06:00","2018","01","07","06:00"
"-93.58","69.55","TALOYOAK A","2403855","2018-01-07 07:00","2018","01","07","07:00"
"-93.58","69.55","TALOYOAK A","2403855","2018-01-07 08:00","2018","01","07","08:00"
"-93.58","69.55","TALOYOAK A","2403855","2018-01-07 09:00","2018","01","07","09:00","-24.0","","-26.9","","77","","","","14","","4","","4.8","","99.81","","","","-28","","Snow"
"-93.58","69.55","TALOYOAK A","2403855","2018-01-07 10:00","2018","01","07","10:00","-23.7","","-26.5","","78","","","","","","0","","16.1","","99.80","","","","","","Ice Crystals"
"-93.58","69.55","TALOYOAK A","2403855","2018-01-07 11:00","2018","01","07","11:00","-21.5","","-24.4","","77","","","","","","0","","16.1","","99.79","","","","","","Ice Crystals"
"-93.58","69.55","TALOYOAK A","2403855","2018-01-07 12:00","2018","01","07","12:00","-21.0","","-23.9","","78","","","","","","0","","16.1","","99.78","","","","","","Ice Crystals"
"-93.58","69.55","TALOYOAK A","2403855","2018-01-07 13:00","2018","01","07","13:00","-21.5","","-24.2","","78","","","","14","","4","","16.1","","99.78","","","","-25","","Snow"
"-93.58","69.55","TALOYOAK A","2403855","2018-01-07 14:00","2018","01","07","14:00","-21.2","","-23.9","","79","","","","9","","4","","4.8","","99.79","","","","-25","","Snow"
"-93.58","69.55","TALOYOAK A","2403855","2018-01-07 15:00","2018","01","07","15:00","-20.6","","-23.2","","79","","","","9","","4","","16.1","","99.78","","","","-24","","Snow"
"-93.58","69.55","TALOYOAK A","2403855","2018-01-07 16:00","2018","01","07","16:00","-20.0","","-22.5","","80","","","","","","0","","16.1","","99.77","","","","","","Snow"
"-93.58","69.55","TALOYOAK A","2403855","2018-01-07 17:00","2018","01","07","17:00","-20.5","","-22.9","","81","","","","","","0","","16.1","","99.75","","","","","","Snow"
"-93.58","69.55","TALOYOAK A","2403855","2018-01-07 18:00","2018","01","07","18:00","-21.3","","-23.9","","79","","","","9","","9","","4.8","","99.74","","","","-28","","Snow"
"-93.58","69.55","TALOYOAK A","2403855","2018-01-07 19:00","2018","01","07","19:00","-21.5","","-24.3","","78","","","","9","","9","","4.8","","99.75","","","","-29","","Snow"
"-93.58","69.55","TALOYOAK A","2403855","2018-01-07 20:00","2018","01","07","20:00","-22.4","","-25.1","","79","","","","9","","9","","9.7","","99.72","","","","-30","","Snow"
"-93.58","69.55","TALOYOAK A","2403855","2018-01-07 21:00","2018","01","07","21:00","-22.6","","-25.4","","78","","","","5","","9","","9.7","","99.74","","","","-30","","Snow"
"-93.58","69.55","TALOYOAK A","2403855","2018-01-07 22:00","2018","01","07","22:00","-22.1","","-24.9","","78","","","","5","","9","","9.7","","99.74","","","","-29","","Snow"
"-93.58","69.55","TALOYOAK A","2403855","2018-01-07 23:00","2018","01","07","23:00","-22.7","","-25.5","","78","","","","5","","9","","9.7","","99.75","","","","-30","","Snow"
"-93.58","69.55","TALOYOAK A","2403855","2018-01-08 00:00","2018","01","08","00:00","-23.4","","-26.2","","78","","","","5","","9","","12.9","","99.75","","","","-31","","Snow"
"-93.58","69.55","TALOYOAK A","2403855","2018-01-08 01:00","2018","01","08","01:00","-24.9","","-27.8","","77","","","","5","","4","","24.1","","99.76","","","","-29","","Ice Crystals"
"-93.58","69.55","TALOYOAK A","2403855","2018-01-08 02:00","2018","01","08","02:00","-25.3","","-28.2","","77","","","","5","","9","","16.1","","99.75","","","","-33","","Snow"
"-93.58","69.55","TALOYOAK A","2403855","2018-01-08 03:00","2018","01","08","03:00","-24.0","","-27.0","","76","","","","5","","9","","16.1","","99.74","","","","-31","","Snow"
"-93.58","69.55","TALOYOAK A","2403855","2018-01-08 04:00","2018","01","08","04:00","-22.9","","-25.9","","77","","","","5","","9","","9.7","","99.74","","","","-30","","Snow"
"-93.58","69.55","TALOYOAK A","2403855","2018-01-08 05:00","2018","01","08","05:00","-22.2","","-25.1","","77","","","","5","","9","","9.7","","99.75","","","","-29","","Snow"
"-93.58","69.55","TALOYOAK A","2403855","2018-01-08 06:00","2018","01","08","06:00","-22.3","","-25.0","","78","","","","5","","9","","9.7","","99.72","","","","-29","","Snow"
"-93.58","69.55","TALOYOAK A","2403855","2018-01-08 07:00","2018","01","08","07:00","-22.4","","-25.2","","78","","","","5","","9","","9.7","","99.70","","","","-30","","Snow"
"-93.58","69.55","TALOYOAK A","2403855","2018-01-08 08:00","2018","01","08","08:00","-22.2","","-25.0","","78","","","","5","","9","","9.7","","99.71","","","","-29","","Snow"
"-93.58","69.55","TALOYOAK A","2403855","2018-01-08 09:00","2018","01","08","09:00","-22.3","","-25.1","","78","","","","36","","9","","12.9","","99.73","","","","-29","","NA"
"-93.58","69.55","TALOYOAK A","2403855","2018-01-08 10:00","2018","01","08","10:00","-22.1","","-24.9","","78","","","","36","","9","","12.9","","99.73","","","","-29","","Snow"
"-93.58","69.55","TALOYOAK A","2403855","2018-01-08 11:00","2018","01","08","11:00","-22.1","","-24.9","","78","","","","5","","9","","16.1","","99.72","","","","-29","","Snow"
"-93.58","69.55","TALOYOAK A","2403855","2018-01-08 12:00","2018","01","08","12:00","-22.1","","-25.0","","77","","","","5","","4","","12.9","","99.72","","","","-26","","Snow"
"-93.58","69.55","TALOYOAK A","2403855","2018-01-08 13:00","2018","01","08","13:00","-22.1","","-24.9","","78","","","","5","","9","","6.4","","99.74","","","","-29","","Snow"
"-93.58","69.55","TALOYOAK A","2403855","2018-01-08 14:00","2018","01","08","14:00","-22.2","","-25.0","","78","","","","5","","17","","4.8","","99.75","","","","-32","","Snow"
"-93.58","69.55","TALOYOAK A","2403855","2018-01-08 15:00","2018","01","08","15:00","-22.2","","-25.2","","77","","","","5","","17","","4.8","","99.77","","","","-32","","Snow"
"-93.58","69.55","TALOYOAK A","2403855","2018-01-08 16:00","2018","01","08","16:00","-22.3","","-25.2","","77","","","","5","","17","","6.4","","99.78","","","","-33","","Snow"
"-93.58","69.55","TALOYOAK A","2403855","2018-01-08 17:00","2018","01","08","17:00","-22.5","","-25.4","","77","","","","5","","17","","6.4","","99.80","","","","-33","","Snow"
"-93.58","69.55","TALOYOAK A","2403855","2018-01-08 18:00","2018","01","08","18:00","-22.4","","-25.3","","77","","","","9","","17","","4.8","","99.81","","","","-33","","Snow"
"-93.58","69.55","TALOYOAK A","2403855","2018-01-08 19:00","2018","01","08","19:00","-22.6","","-25.6","","77","","","","5","","9","","6.4","","99.81","","","","-30","","Snow"
"-93.58","69.55","TALOYOAK A","2403855","2018-01-08 20:00","2018","01","08","20:00","-23.0","","-26.1","","76","","","","5","","17","","6.4","","99.83","","","","-33","","Snow"
"-93.58","69.55","TALOYOAK A","2403855","2018-01-08 21:00","2018","01","08","21:00","-23.3","","-26.1","","78","","","","5","","9","","6.4","","99.85","","","","-31","","Snow"
"-93.58","69.55","TALOYOAK A","2403855","2018-01-08 22:00","2018","01","08","22:00","-23.3","","-26.1","","78","","","","5","","4","","6.4","","99.89","","","","-27","","Snow"
"-93.58","69.55","TALOYOAK A","2403855","2018-01-08 23:00","2018","01","08","23:00","-23.7","","-26.5","","78","","","","5","","4","","9.7","","99.90","","","","-28","","Snow"
"-93.58","69.55","TALOYOAK A","2403855","2018-01-09 00:00","2018","01","09","00:00","-24.1","","-27.0","","77","","","","5","","4","","9.7","","99.92","","","","-28","","Snow"
"-93.58","69.55","TALOYOAK A","2403855","2018-01-09 01:00","2018","01","09","01:00","-25.2","","-28.1","","76","","","","5","","4","","12.9","","99.95","","","","-29","","Snow"
"-93.58","69.55","TALOYOAK A","2403855","2018-01-09 02:00","2018","01","09","02:00","-26.7","","-29.6","","76","","","","5","","4","","16.1","","99.99","","","","-31","","Snow"
"-93.58","69.55","TALOYOAK A","2403855","2018-01-09 03:00","2018","01","09","03:00","-26.1","","-29.1","","76","","","","5","","4","","16.1","","99.99","","","","-30","","Snow"
"-93.58","69.55","TALOYOAK A","2403855","2018-01-09 04:00","2018","01","09","04:00","-27.0","","-30.1","","75","","","","36","","9","","16.1","","100.02","","","","-35","","Snow"
"-93.58","69.55","TALOYOAK A","2403855","2018-01-09 05:00","2018","01","09","05:00","-27.5","","-30.6","","75","","","","36","","9","","16.1","","100.03","","","","-36","","Snow"
"-93.58","69.55","TALOYOAK A","2403855","2018-01-09 06:00","2018","01","09","06:00","-30.7","","-34.0","","73","","","","36","","9","","16.1","","100.05","","","","-39","","Snow"
"-93.58","69.55","TALOYOAK A","2403855","2018-01-09 07:00","2018","01","09","07:00","-29.2","","-32.5","","73","","","","36","","4","","24.1","","100.07","","","","-34","","Snow"
"-93.58","69.55","TALOYOAK A","2403855","2018-01-09 08:00","2018","01","09","08:00","-29.8","","-33.1","","73","","","","36","","9","","24.1","","100.09","","","","-38","","Snow"
"-93.58","69.55","TALOYOAK A","2403855","2018-01-09 09:00","2018","01","09","09:00","-31.1","","-34.5","","72","","","","5","","17","","24.1","","100.11","","","","-44","","Snow"
"-93.58","69.55","TALOYOAK A","2403855","2018-01-09 10:00","2018","01","09","10:00","-33.8","","-37.3","","71","","","","36","","17","","24.1","","100.13","","","","-47","","Snow"
"-93.58","69.55","TALOYOAK A","2403855","2018-01-09 11:00","2018","01","09","11:00","-31.3","","-34.7","","72","","","","36","","9","","24.1","","100.15","","","","-40","","Ice Crystals"
"-93.58","69.55","TALOYOAK A","2403855","2018-01-09 12:00","2018","01","09","12:00","-32.8","","-36.3","","71","","","","36","","9","","24.1","","100.16","","","","-42","","Ice Crystals"
"-93.58","69.55","TALOYOAK A","2403855","2018-01-09 13:00","2018","01","09","13:00","-32.1","","-35.6","","71","","","","36","","9","","24.1","","100.16","","","","-41","","Ice Crystals"
"-93.58","69.55","TALOYOAK A","2403855","2018-01-09 14:00","2018","01","09","14:00","-30.7","","-34.1","","72","","","","5","","9","","9.7","","100.20","","","","-39","","Snow"
"-93.58","69.55","TALOYOAK A","2403855","2018-01-09 15:00","2018","01","09","15:00","-30.9","","-34.4","","72","","","","36","","9","","9.7","","100.22","","","","-40","","Snow"
"-93.58","69.55","TALOYOAK A","2403855","2018-01-09 16:00","2018","01","09","16:00","-30.9","","-34.4","","72","","","","36","","17","","6.4","","100.23","","","","-43","","Snow"
"-93.58","69.55","TALOYOAK A","2403855","2018-01-09 17:00","2018","01","09","17:00","-31.3","","-34.8","","72","","","","36","","9","","9.7","","100.21","","","","-40","","Snow"
"-93.58","69.55","TALOYOAK A","2403855","2018-01-09 18:00","2018","01","09","18:00","-30.3","","-33.7","","72","","","","36","","9","","12.9","","100.20","","","","-39","","Snow"
"-93.58","69.55","TALOYOAK A","2403855","2018-01-09 19:00","2018","01","09","19:00","-30.2","","-33.6","","72","","","","36","","9","","9.7","","100.19","","","","-39","","Snow"
"-93.58","69.55","TALOYOAK A","2403855","2018-01-09 20:00","2018","01","09","20:00","-29.6","","-33.5","","69","","","","36","","9","","12.9","","100.17","","","","-38","","Snow"
"-93.58","69.55","TALOYOAK A","2403855","2018-01-09 21:00","2018","01","09","21:00","-29.2","","-32.6","","73","","","","36","","4","","12.9","","100.16","","","","-34","","Snow"
"-93.58","69.55","TALOYOAK A","2403855","2018-01-09 22:00","2018","01","09","22:00","-28.0","","-31.3","","73","","","","36","","9","","12.9","","100.14","","","","-36","","Snow"
"-93.58","69.55","TALOYOAK A","2403855","2018-01-09 23:00","2018","01","09","23:00","-27.8","","-31.2","","73","","","","32","","9","","12.9","","100.13","","","","-36","","Snow"
"-93.58","69.55","TALOYOAK A","2403855","2018-01-10 00:00","2018","01","10","00:00","-26.7","","-29.9","","74","","","","32","","9","","6.4","","100.10","","","","-35","","Snow"
"-93.58","69.55","TALOYOAK A","2403855","2018-01-10 01:00","2018","01","10","01:00","-26.6","","-29.9","","74","","","","32","","9","","9.7","","100.09","","","","-35","","Snow"
"-93.58","69.55","TALOYOAK A","2403855","2018-01-10 02:00","2018","01","10","02:00","-26.4","","-29.6","","75","","","","32","","9","","6.4","","100.09","","","","-34","","Snow"
"-93.58","69.55","TALOYOAK A","2403855","2018-01-10 03:00","2018","01","10","03:00","-25.8","","-28.9","","75","","","","32","","9","","6.4","","100.05","","","","-34","","Snow"
"-93.58","69.55","TALOYOAK A","2403855","2018-01-10 04:00","2018","01","10","04:00","-26.2","","-29.3","","75","","","","32","","4","","6.4","","100.03","","","","-30","","Snow"
"-93.58","69.55","TALOYOAK A","2403855","2018-01-10 05:00","2018","01","10","05:00","-25.2","","-28.2","","76","","","","36","","9","","6.4","","99.99","","","","-33","","Snow"
"-93.58","69.55","TALOYOAK A","2403855","2018-01-10 06:00","2018","01","10","06:00","-24.1","","-27.1","","76","","","","36","","9","","6.4","","99.96","","","","-32","","Snow"
"-93.58","69.55","TALOYOAK A","2403855","2018-01-10 07:00","2018","01","10","07:00","-22.8","","-25.7","","77","","","","32","","9","","4.8","","99.91","","","","-30","","Snow"
"-93.58","69.55","TALOYOAK A","2403855","2018-01-10 08:00","2018","01","10","08:00","-20.7","","-23.4","","79","","","","32","","17","","3.2","","99.87","","","","-31","","Snow Showers,Blowing Snow"
"-93.58","69.55","TALOYOAK A","2403855","2018-01-10 09:00","2018","01","10","09:00","-20.5","","-23.1","","79","","","","36","","17","","3.2","","99.84","","","","-30","","Snow,Snow Showers,Blowing Snow"
"-93.58","69.55","TALOYOAK A","2403855","2018-01-10 10:00","2018","01","10","10:00","-21.0","","-23.8","","78","","","","5","","17","","3.2","","99.81","","","","-31","","Snow Showers,Blowing Snow"
"-93.58","69.55","TALOYOAK A","2403855","2018-01-10 11:00","2018","01","10","11:00","-22.6","","-25.6","","76","","","","5","","17","","3.6","","99.75","","","","-33","","Snow Showers,Blowing Snow"
"-93.58","69.55","TALOYOAK A","2403855","2018-01-10 12:00","2018","01","10","12:00","-22.6","","-25.6","","77","","","","5","","17","","3.6","","99.75","","","","-33","","Snow,Blowing Snow"
"-93.58","69.55","TALOYOAK A","2403855","2018-01-10 13:00","2018","01","10","13:00","-22.8","","-26.0","","75","","","","36","","17","","4.8","","99.72","","","","-33","","Snow,Blowing Snow"
"-93.58","69.55","TALOYOAK A","2403855","2018-01-10 14:00","2018","01","10","14:00","-22.9","","-26.1","","75","","","","5","","26","","4.8","","99.70","","","","-36","","Snow,Blowing Snow"
"-93.58","69.55","TALOYOAK A","2403855","2018-01-10 15:00","2018","01","10","15:00","-22.9","","-26.2","","74","","","","5","","17","","4.8","","99.71","","","","-33","","Snow,Blowing Snow"
"-93.58","69.55","TALOYOAK A","2403855","2018-01-10 16:00","2018","01","10","16:00","-22.8","","-25.9","","76","","","","5","","17","","4.8","","99.67","","","","-33","","Snow,Blowing Snow"
"-93.58","69.55","TALOYOAK A","2403855","2018-01-10 17:00","2018","01","10","17:00","-23.3","","-26.6","","75","","","","36","","17","","6.4","","99.66","","","","-34","","Snow,Blowing Snow"
"-93.58","69.55","TALOYOAK A","2403855","2018-01-10 18:00","2018","01","10","18:00","-23.0","","-26.3","","74","","","","36","","17","","6.4","","99.65","","","","-33","","Snow,Blowing Snow"
"-93.58","69.55","TALOYOAK A","2403855","2018-01-10 19:00","2018","01","10","19:00","-23.0","","-26.3","","75","","","","5","","17","","6.4","","99.61","","","","-33","","Snow,Blowing Snow"
"-93.58","69.55","TALOYOAK A","2403855","2018-01-10 20:00","2018","01","10","20:00","-23.6","","-26.7","","76","","","","5","","17","","9.7","","99.60","","","","-34","","Snow,Blowing Snow"
"-93.58","69.55","TALOYOAK A","2403855","2018-01-10 21:00","2018","01","10","21:00","-24.7","","-27.8","","75","","","","36","","17","","16.1","","99.58","","","","-36","","Snow,Blowing Snow"
"-93.58","69.55","TALOYOAK A","2403855","2018-01-10 22:00","2018","01","10","22:00","-23.5","","-26.5","","76","","","","36","","17","","9.7","","99.55","","","","-34","","Snow,Blowing Snow"
"-93.58","69.55","TALOYOAK A","2403855","2018-01-10 23:00","2018","01","10","23:00","-23.0","","-26.1","","76","","","","36","","18","","4.8","","99.57","","","","-34","","Snow,Blowing Snow"
"-93.58","69.55","TALOYOAK A","2403855","2018-01-11 00:00","2018","01","11","00:00","-24.4","","-27.6","","75","","","","36","","18","","4.8","","99.55","","","","-35","","Snow,Blowing Snow"
"-93.58","69.55","TALOYOAK A","2403855","2018-01-11 01:00","2018","01","11","01:00","-22.5","","-25.6","","76","","","","36","","18","","4.0","","99.60","","","","-33","","Snow,Blowing Snow"
"-93.58","69.55","TALOYOAK A","2403855","2018-01-11 02:00","2018","01","11","02:00","-22.3","","-25.4","","76","","","","36","","17","","16.1","","99.63","","","","-33","","Ice Crystals,Blowing Snow"
"-93.58","69.55","TALOYOAK A","2403855","2018-01-11 03:00","2018","01","11","03:00","-23.9","","-27.0","","76","","","","36","","17","","16.1","","99.69","","","","-35","","Ice Crystals,Blowing Snow"
"-93.58","69.55","TALOYOAK A","2403855","2018-01-11 04:00","2018","01","11","04:00","-24.6","","-27.7","","75","","","","36","","9","","24.1","","99.70","","","","-32","","Ice Crystals"
"-93.58","69.55","TALOYOAK A","2403855","2018-01-11 05:00","2018","01","11","05:00","-24.4","","-27.3","","77","","","","36","","9","","24.1","","99.69","","","","-32","","Ice Crystals"
"-93.58","69.55","TALOYOAK A","2403855","2018-01-11 06:00","2018","01","11","06:00","-22.5","","-25.7","","75","","","","36","","9","","24.1","","99.71","","","","-30","","Ice Crystals"
"-93.58","69.55","TALOYOAK A","2403855","2018-01-11 07:00","2018","01","11","07:00","-23.5","","-26.9","","74","","","","36","","9","","24.1","","99.72","","","","-31","","Ice Crystals"
"-93.58","69.55","TALOYOAK A","2403855","2018-01-11 08:00","2018","01","11","08:00","-24.4","","-27.9","","73","","","","36","","9","","24.1","","99.72","","","","-32","","Mostly Cloudy"
"-93.58","69.55","TALOYOAK A","2403855","2018-01-11 09:00","2018","01","11","09:00","-23.7","","-27.3","","72","","","","36","","4","","24.1","","99.75","","","","-28","","NA"
"-93.58","69.55","TALOYOAK A","2403855","2018-01-11 10:00","2018","01","11","10:00","-22.7","","-26.4","","72","","","","32","","17","","24.1","","99.70","","","","-33","","NA"
"-93.58","69.55","TALOYOAK A","2403855","2018-01-11 11:00","2018","01","11","11:00","-21.8","","-25.4","","73","","","","32","","17","","24.1","","99.65","","","","-32","","Mostly Cloudy"
"-93.58","69.55","TALOYOAK A","2403855","2018-01-11 12:00","2018","01","11","12:00","-21.1","","-25.3","","69","","","","32","","9","","24.1","","99.63","","","","-28","","NA"
"-93.58","69.55","TALOYOAK A","2403855","2018-01-11 13:00","2018","01","11","13:00","-21.1","","-25.2","","70","","","","32","","4","","24.1","","99.62","","","","-25","","NA"
"-93.58","69.55","TALOYOAK A","2403855","2018-01-11 14:00","2018","01","11","14:00","-20.0","","-23.9","","71","","","","32","","17","","24.1","","99.54","","","","-30","","Mostly Cloudy"
"-93.58","69.55","TALOYOAK A","2403855","2018-01-11 15:00","2018","01","11","15:00","-19.9","","-23.9","","70","","","","32","","17","","24.1","","99.54","","","","-30","","Ice Crystals,Blowing Snow"
"-93.58","69.55","TALOYOAK A","2403855","2018-01-11 16:00","2018","01","11","16:00","-21.4","","-25.1","","72","","","","32","","17","","24.1","","99.54","","","","-31","","Ice Crystals,Blowing Snow"
"-93.58","69.55","TALOYOAK A","2403855","2018-01-11 17:00","2018","01","11","17:00","-21.4","","-25.3","","71","","","","32","","26","","24.1","","99.52","","","","-34","","Ice Crystals,Blowing Snow"
"-93.58","69.55","TALOYOAK A","2403855","2018-01-11 18:00","2018","01","11","18:00","-21.8","","-25.6","","71","","","","32","","35","","24.1","","99.51","","","","-36","","Ice Crystals,Blowing Snow"
"-93.58","69.55","TALOYOAK A","2403855","2018-01-11 19:00","2018","01","11","19:00","-22.4","","-26.0","","72","","","","32","","26","","24.1","","99.51","","","","-35","","Ice Crystals,Blowing Snow"
"-93.58","69.55","TALOYOAK A","2403855","2018-01-11 20:00","2018","01","11","20:00","-24.4","","-27.7","","74","","","","32","","35","","19.3","","99.48","","","","-39","","Ice Crystals,Blowing Snow"
"-93.58","69.55","TALOYOAK A","2403855","2018-01-11 21:00","2018","01","11","21:00","-25.4","","-28.8","","74","","","","36","","28","","24.1","","99.48","","","","-39","","Ice Crystals,Blowing Snow"
"-93.58","69.55","TALOYOAK A","2403855","2018-01-11 22:00","2018","01","11","22:00","-24.0","","-27.2","","75","","","","36","","28","","16.1","","99.47","","","","-37","","Ice Crystals,Blowing Snow"
"-93.58","69.55","TALOYOAK A","2403855","2018-01-11 23:00","2018","01","11","23:00","-23.5","","-26.8","","74","","","","32","","28","","16.1","","99.48","","","","-37","","Ice Crystals,Blowing Snow"
"-93.58","69.55","TALOYOAK A","2403855","2018-01-12 00:00","2018","01","12","00:00","-24.1","","-27.3","","75","","","","32","","28","","9.7","","99.47","","","","-38","","Ice Crystals,Blowing Snow"
"-93.58","69.55","TALOYOAK A","2403855","2018-01-12 01:00","2018","01","12","01:00","-24.4","","-27.6","","75","","","","32","","28","","9.7","","99.49","","","","-38","","Ice Crystals,Blowing Snow"
"-93.58","69.55","TALOYOAK A","2403855","2018-01-12 02:00","2018","01","12","02:00","-24.5","","-27.9","","73","","","","32","","28","","9.7","","99.44","","","","-38","","Ice Crystals,Blowing Snow"
"-93.58","69.55","TALOYOAK A","2403855","2018-01-12 03:00","2018","01","12","03:00","-25.6","","-29.2","","72","","","","32","","18","","16.1","","99.44","","","","-37","","Ice Crystals,Blowing Snow"
"-93.58","69.55","TALOYOAK A","2403855","2018-01-12 04:00","2018","01","12","04:00","-25.7","","-29.0","","74","","","","32","","28","","16.1","","99.44","","","","-40","","Ice Crystals,Blowing Snow"
"-93.58","69.55","TALOYOAK A","2403855","2018-01-12 05:00","2018","01","12","05:00","-26.7","","-29.9","","74","","","","32","","28","","16.1","","99.39","","","","-41","","Ice Crystals,Blowing Snow"
"-93.58","69.55","TALOYOAK A","2403855","2018-01-12 06:00","2018","01","12","06:00","-27.4","","-30.7","","74","","","","32","","28","","4.8","","99.38","","","","-42","","Blowing Snow"
"-93.58","69.55","TALOYOAK A","2403855","2018-01-12 07:00","2018","01","12","07:00","-27.3","","-30.8","","72","","","","32","","28","","24.1","","99.38","","","","-42","","Blowing Snow"
"-93.58","69.55","TALOYOAK A","2403855","2018-01-12 08:00","2018","01","12","08:00","-26.7","","-30.2","","72","","","","32","","28","","24.1","","99.39","","","","-41","","Blowing Snow"
"-93.58","69.55","TALOYOAK A","2403855","2018-01-12 09:00","2018","01","12","09:00","-26.3","","-29.8","","72","","","","32","","35","","16.1","","99.44","","","","-42","","Blowing Snow"
"-93.58","69.55","TALOYOAK A","2403855","2018-01-12 10:00","2018","01","12","10:00","-26.9","","-30.5","","72","","","","32","","26","","16.1","","99.46","","","","-41","","Blowing Snow"
"-93.58","69.55","TALOYOAK A","2403855","2018-01-12 11:00","2018","01","12","11:00","-26.2","","-29.9","","71","","","","32","","26","","16.1","","99.41","","","","-40","","Blowing Snow"
"-93.58","69.55","TALOYOAK A","2403855","2018-01-12 12:00","2018","01","12","12:00","-26.0","","-29.5","","73","","","","32","","26","","8.1","","99.44","","","","-40","","Blowing Snow"
"-93.58","69.55","TALOYOAK A","2403855","2018-01-12 13:00","2018","01","12","13:00","-25.2","","-28.8","","72","","","","32","","35","","4.8","","99.43","","","","-40","","Ice Crystals,Blowing Snow"
"-93.58","69.55","TALOYOAK A","2403855","2018-01-12 14:00","2018","01","12","14:00","-23.9","","-27.3","","74","","","","32","","35","","6.4","","99.52","","","","-39","","Ice Crystals,Blowing Snow"
"-93.58","69.55","TALOYOAK A","2403855","2018-01-12 15:00","2018","01","12","15:00","-23.3","","-26.7","","74","","","","36","","35","","4.8","","99.52","","","","-38","","Ice Crystals,Blowing Snow"
"-93.58","69.55","TALOYOAK A","2403855","2018-01-12 16:00","2018","01","12","16:00","-23.0","","-26.2","","75","","","","36","","35","","4.8","","99.56","","","","-37","","Ice Crystals,Blowing Snow"
"-93.58","69.55","TALOYOAK A","2403855","2018-01-12 17:00","2018","01","12","17:00","-22.8","","-26.1","","75","","","","32","","35","","3.2","","99.54","","","","-37","","Ice Crystals,Blowing Snow"
"-93.58","69.55","TALOYOAK A","2403855","2018-01-12 18:00","2018","01","12","18:00","-22.8","","-26.3","","73","","","","32","","26","","6.4","","99.54","","","","-35","","Snow,Blowing Snow"
"-93.58","69.55","TALOYOAK A","2403855","2018-01-12 19:00","2018","01","12","19:00","-22.9","","-26.7","","71","","","","32","","17","","9.7","","99.56","","","","-33","","Snow,Blowing Snow"
"-93.58","69.55","TALOYOAK A","2403855","2018-01-12 20:00","2018","01","12","20:00","-23.4","","-27.1","","71","","","","32","","26","","9.7","","99.57","","","","-36","","Snow,Blowing Snow"
"-93.58","69.55","TALOYOAK A","2403855","2018-01-12 21:00","2018","01","12","21:00","-25.2","","-28.8","","72","","","","32","","18","","16.1","","99.55","","","","-36","","Ice Crystals,Blowing Snow"
"-93.58","69.55","TALOYOAK A","2403855","2018-01-12 22:00","2018","01","12","22:00","-25.7","","-28.8","","75","","","","32","","28","","16.1","","99.51","","","","-40","","Ice Crystals,Blowing Snow"
"-93.58","69.55","TALOYOAK A","2403855","2018-01-12 23:00","2018","01","12","23:00","-26.1","","-29.3","","74","","","","32","","28","","16.1","","99.58","","","","-40","","Ice Crystals,Blowing Snow"
"-93.58","69.55","TALOYOAK A","2403855","2018-01-13 00:00","2018","01","13","00:00","-25.3","","-28.4","","75","","","","32","","28","","16.1","","99.60","","","","-39","","Ice Crystals,Blowing Snow"
"-93.58","69.55","TALOYOAK A","2403855","2018-01-13 01:00","2018","01","13","01:00","-25.5","","-29.0","","73","","","","32","","28","","16.1","","99.62","","","","-39","","Ice Crystals,Blowing Snow"
"-93.58","69.55","TALOYOAK A","2403855","2018-01-13 02:00","2018","01","13","02:00","-26.1","","-29.4","","74","","","","32","","18","","16.1","","99.71","","","","-38","","Ice Crystals,Blowing Snow"
"-93.58","69.55","TALOYOAK A","2403855","2018-01-13 03:00","2018","01","13","03:00","-27.1","","-30.6","","72","","","","32","","9","","16.1","","99.79","","","","-35","","Ice Crystals"
"-93.58","69.55","TALOYOAK A","2403855","2018-01-13 04:00","2018","01","13","04:00","-28.1","","-31.8","","71","","","","32","","17","","24.1","","99.79","","","","-40","","Ice Crystals"
"-93.58","69.55","TALOYOAK A","2403855","2018-01-13 05:00","2018","01","13","05:00","-29.7","","-33.3","","71","","","","32","","9","","24.1","","99.83","","","","-38","","Ice Crystals"
"-93.58","69.55","TALOYOAK A","2403855","2018-01-13 06:00","2018","01","13","06:00","-29.9","","-33.3","","72","","","","27","","4","","24.1","","99.85","","","","-34","","NA"
"-93.58","69.55","TALOYOAK A","2403855","2018-01-13 07:00","2018","01","13","07:00","-30.1","","-33.3","","74","","","","27","","4","","24.1","","99.89","","","","-35","","NA"
"-93.58","69.55","TALOYOAK A","2403855","2018-01-13 08:00","2018","01","13","08:00","-31.0","","-34.3","","73","","","","","","0","","24.1","","99.90","","","","","","Ice Crystals"
"-93.58","69.55","TALOYOAK A","2403855","2018-01-13 09:00","2018","01","13","09:00","-30.8","","-34.2","","73","","","","27","","9","","16.1","","99.93","","","","-40","","Ice Crystals"
"-93.58","69.55","TALOYOAK A","2403855","2018-01-13 10:00","2018","01","13","10:00","-31.9","","-35.4","","71","","","","9","","9","","20.9","","99.95","","","","-41","","Ice Crystals"
"-93.58","69.55","TALOYOAK A","2403855","2018-01-13 11:00","2018","01","13","11:00","-31.2","","-34.4","","74","","","","5","","9","","24.1","","100.01","","","","-40","","Ice Crystals"
"-93.58","69.55","TALOYOAK A","2403855","2018-01-13 12:00","2018","01","13","12:00","-33.5","","-37.1","","70","","","","5","","9","","24.1","","100.09","","","","-43","","Ice Crystals"
"-93.58","69.55","TALOYOAK A","2403855","2018-01-13 13:00","2018","01","13","13:00","-32.6","","-36.1","","71","","","","14","","4","","24.1","","100.16","","","","-37","","Ice Crystals"
"-93.58","69.55","TALOYOAK A","2403855","2018-01-13 14:00","2018","01","13","14:00","-32.2","","-35.6","","72","","","","5","","4","","24.1","","100.25","","","","-37","","Ice Crystals"
"-93.58","69.55","TALOYOAK A","2403855","2018-01-13 15:00","2018","01","13","15:00","-32.7","","-36.1","","72","","","","5","","9","","24.1","","100.32","","","","-42","","Ice Crystals"
"-93.58","69.55","TALOYOAK A","2403855","2018-01-13 16:00","2018","01","13","16:00","-35.5","","-39.2","","69","","","","5","","9","","24.1","","100.42","","","","-45","","NA"
"-93.58","69.55","TALOYOAK A","2403855","2018-01-13 17:00","2018","01","13","17:00","-35.1","","-38.8","","69","","","","9","","9","","24.1","","100.50","","","","-45","","Ice Crystals"
"-93.58","69.55","TALOYOAK A","2403855","2018-01-13 18:00","2018","01","13","18:00","-36.0","","-39.8","","68","","","","9","","9","","24.1","","100.59","","","","-46","","Ice Crystals"
"-93.58","69.55","TALOYOAK A","2403855","2018-01-13 19:00","2018","01","13","19:00","-34.9","","-38.6","","69","","","","9","","4","","24.1","","100.66","","","","-40","","Ice Crystals"
"-93.58","69.55","TALOYOAK A","2403855","2018-01-13 20:00","2018","01","13","20:00","-34.7","","-38.5","","69","","","","32","","9","","19.3","","100.74","","","","-44","","Ice Crystals"
"-93.58","69.55","TALOYOAK A","2403855","2018-01-13 21:00","2018","01","13","21:00","-35.3","","-38.8","","71","","","","9","","4","","24.1","","100.78","","","","-40","","Ice Crystals"
"-93.58","69.55","TALOYOAK A","2403855","2018-01-13 22:00","2018","01","13","22:00","-35.0","","-38.7","","69","","","","","","0","","24.1","","100.87","","","","","","Ice Crystals"
"-93.58","69.55","TALOYOAK A","2403855","2018-01-13 23:00","2018","01","13","23:00","-35.2","","-38.9","","70","","","","18","","4","","24.1","","100.95","","","","-40","","Ice Crystals"
"-93.58","69.55","TALOYOAK A","2403855","2018-01-14 00:00","2018","01","14","00:00","-33.5","","-37.2","","70","","","","18","","9","","16.1","","101.03","","","","-43","","Ice Crystals"
"-93.58","69.55","TALOYOAK A","2403855","2018-01-14 01:00","2018","01","14","01:00","-33.2","","-36.8","","70","","","","18","","9","","16.1","","101.08","","","","-42","","Ice Crystals"
"-93.58","69.55","TALOYOAK A","2403855","2018-01-14 02:00","2018","01","14","02:00","-33.5","","-37.2","","70","","","","18","","9","","16.1","","101.16","","","","-43","","Ice Crystals"
"-93.58","69.55","TALOYOAK A","2403855","2018-01-14 03:00","2018","01","14","03:00","-33.4","","-37.1","","70","","","","18","","9","","16.1","","101.19","","","","-43","","Ice Crystals"
"-93.58","69.55","TALOYOAK A","2403855","2018-01-14 04:00","2018","01","14","04:00","-32.7","","-36.3","","71","","","","18","","9","","16.1","","101.23","","","","-42","","Ice Crystals"
"-93.58","69.55","TALOYOAK A","2403855","2018-01-14 05:00","2018","01","14","05:00","-33.3","","-36.9","","70","","","","14","","4","","4.8","","101.23","","","","-38","","Ice Crystals"
"-93.58","69.55","TALOYOAK A","2403855","2018-01-14 06:00","2018","01","14","06:00","-28.5","","-31.9","","73","","","","9","","17","","4.8","","101.29","","","","-40","","Ice Crystals"
"-93.58","69.55","TALOYOAK A","2403855","2018-01-14 07:00","2018","01","14","07:00","-30.2","","-33.7","","72","","","","27","","9","","24.1","","101.27","","","","-39","","Ice Crystals"
"-93.58","69.55","TALOYOAK A","2403855","2018-01-14 08:00","2018","01","14","08:00","-30.1","","-33.9","","70","","","","27","","17","","24.1","","101.27","","","","-42","","Ice Crystals,Blowing Snow"
"-93.58","69.55","TALOYOAK A","2403855","2018-01-14 09:00","2018","01","14","09:00","-29.8","","-33.7","","69","","","","27","","9","","24.1","","101.32","","","","-38","","NA"
"-93.58","69.55","TALOYOAK A","2403855","2018-01-14 10:00","2018","01","14","10:00"
"-93.58","69.55","TALOYOAK A","2403855","2018-01-14 11:00","2018","01","14","11:00"
"-93.58","69.55","TALOYOAK A","2403855","2018-01-14 12:00","2018","01","14","12:00"
"-93.58","69.55","TALOYOAK A","2403855","2018-01-14 13:00","2018","01","14","13:00"
"-93.58","69.55","TALOYOAK A","2403855","2018-01-14 14:00","2018","01","14","14:00"
"-93.58","69.55","TALOYOAK A","2403855","2018-01-14 15:00","2018","01","14","15:00"
"-93.58","69.55","TALOYOAK A","2403855","2018-01-14 16:00","2018","01","14","16:00"
"-93.58","69.55","TALOYOAK A","2403855","2018-01-14 17:00","2018","01","14","17:00"
"-93.58","69.55","TALOYOAK A","2403855","2018-01-14 18:00","2018","01","14","18:00"
"-93.58","69.55","TALOYOAK A","2403855","2018-01-14 19:00","2018","01","14","19:00"
"-93.58","69.55","TALOYOAK A","2403855","2018-01-14 20:00","2018","01","14","20:00"
"-93.58","69.55","TALOYOAK A","2403855","2018-01-14 21:00","2018","01","14","21:00","-31.6","","-35.1","","72","","","","23","","4","","24.1","","101.86","","","","-36","","NA"
"-93.58","69.55","TALOYOAK A","2403855","2018-01-14 22:00","2018","01","14","22:00","-31.9","","-35.3","","72","","","","23","","4","","24.1","","101.88","","","","-37","","NA"
"-93.58","69.55","TALOYOAK A","2403855","2018-01-14 23:00","2018","01","14","23:00","-31.7","","-35.1","","72","","","","14","","4","","24.1","","101.81","","","","-36","","Clear"
"-93.58","69.55","TALOYOAK A","2403855","2018-01-15 00:00","2018","01","15","00:00","-33.0","","-36.6","","70","","","","23","","4","","24.1","","101.87","","","","-38","","Ice Crystals"
"-93.58","69.55","TALOYOAK A","2403855","2018-01-15 01:00","2018","01","15","01:00","-32.8","","-36.4","","71","","","","14","","4","","24.1","","101.90","","","","-38","","Ice Crystals"
"-93.58","69.55","TALOYOAK A","2403855","2018-01-15 02:00","2018","01","15","02:00","-32.1","","-35.7","","71","","","","27","","4","","24.1","","101.90","","","","-37","","Ice Crystals"
"-93.58","69.55","TALOYOAK A","2403855","2018-01-15 03:00","2018","01","15","03:00","-32.3","","-35.9","","70","","","","23","","4","","24.1","","101.88","","","","-37","","Ice Crystals"
"-93.58","69.55","TALOYOAK A","2403855","2018-01-15 04:00","2018","01","15","04:00","-33.0","","-36.7","","70","","","","14","","4","","24.1","","101.82","","","","-38","","Ice Crystals"
"-93.58","69.55","TALOYOAK A","2403855","2018-01-15 05:00","2018","01","15","05:00","-32.3","","-35.9","","70","","","","14","","4","","24.1","","101.80","","","","-37","","Ice Crystals"
"-93.58","69.55","TALOYOAK A","2403855","2018-01-15 06:00","2018","01","15","06:00","-32.6","","-36.3","","70","","","","23","","4","","24.1","","101.76","","","","-37","","Ice Crystals"
"-93.58","69.55","TALOYOAK A","2403855","2018-01-15 07:00","2018","01","15","07:00","-31.5","","-35.1","","71","","","","18","","17","","24.1","","101.73","","","","-44","","Ice Crystals"
"-93.58","69.55","TALOYOAK A","2403855","2018-01-15 08:00","2018","01","15","08:00","-30.8","","-34.3","","71","","","","18","","17","","24.1","","101.66","","","","-43","","Ice Crystals"
"-93.58","69.55","TALOYOAK A","2403855","2018-01-15 09:00","2018","01","15","09:00","-30.7","","-34.2","","72","","","","14","","17","","24.1","","101.63","","","","-43","","Ice Crystals"
"-93.58","69.55","TALOYOAK A","2403855","2018-01-15 10:00","2018","01","15","10:00","-30.1","","-33.6","","72","","","","14","","26","","19.3","","101.56","","","","-45","","Ice Crystals,Blowing Snow"
"-93.58","69.55","TALOYOAK A","2403855","2018-01-15 11:00","2018","01","15","11:00","-29.4","","-32.8","","73","","","","18","","26","","19.3","","101.50","","","","-44","","Ice Crystals,Blowing Snow"
"-93.58","69.55","TALOYOAK A","2403855","2018-01-15 12:00","2018","01","15","12:00","-28.7","","-32.0","","73","","","","14","","17","","24.1","","101.45","","","","-41","","Ice Crystals,Blowing Snow"
"-93.58","69.55","TALOYOAK A","2403855","2018-01-15 13:00","2018","01","15","13:00","-28.3","","-31.6","","74","","","","14","","17","","24.1","","101.41","","","","-40","","Ice Crystals,Blowing Snow"
"-93.58","69.55","TALOYOAK A","2403855","2018-01-15 14:00","2018","01","15","14:00","-28.4","","-31.7","","74","","","","14","","17","","24.1","","101.39","","","","-40","","Ice Crystals,Blowing Snow"
"-93.58","69.55","TALOYOAK A","2403855","2018-01-15 15:00","2018","01","15","15:00","-28.0","","-31.2","","74","","","","14","","17","","24.1","","101.36","","","","-40","","Ice Crystals"
"-93.58","69.55","TALOYOAK A","2403855","2018-01-15 16:00","2018","01","15","16:00","-27.9","","-31.1","","74","","","","14","","9","","24.1","","101.35","","","","-36","","Ice Crystals"
"-93.58","69.55","TALOYOAK A","2403855","2018-01-15 17:00","2018","01","15","17:00","-27.0","","-30.2","","75","","","","9","","4","","24.1","","101.27","","","","-31","","Ice Crystals"
"-93.58","69.55","TALOYOAK A","2403855","2018-01-15 18:00","2018","01","15","18:00","-27.9","","-31.1","","74","","","","36","","4","","24.1","","101.25","","","","-32","","Ice Crystals"
"-93.58","69.55","TALOYOAK A","2403855","2018-01-15 19:00","2018","01","15","19:00","-29.5","","-32.8","","73","","","","36","","9","","24.1","","101.20","","","","-38","","Ice Crystals"
"-93.58","69.55","TALOYOAK A","2403855","2018-01-15 20:00","2018","01","15","20:00","-30.5","","-33.9","","72","","","","36","","9","","24.1","","101.14","","","","-39","","Ice Crystals"
"-93.58","69.55","TALOYOAK A","2403855","2018-01-15 21:00","2018","01","15","21:00","-31.3","","-34.8","","71","","","","36","","9","","24.1","","101.11","","","","-40","","Ice Crystals"
"-93.58","69.55","TALOYOAK A","2403855","2018-01-15 22:00","2018","01","15","22:00","-32.6","","-36.0","","72","","","","36","","4","","24.1","","101.07","","","","-37","","Ice Crystals"
"-93.58","69.55","TALOYOAK A","2403855","2018-01-15 23:00","2018","01","15","23:00","-32.5","","-36.0","","71","","","","36","","4","","24.1","","101.08","","","","-37","","Mainly Clear"
"-93.58","69.55","TALOYOAK A","2403855","2018-01-16 00:00","2018","01","16","00:00","-31.9","","-35.4","","72","","","","36","","9","","24.1","","101.08","","","","-41","","Ice Crystals"
"-93.58","69.55","TALOYOAK A","2403855","2018-01-16 01:00","2018","01","16","01:00","-31.5","","-35.0","","72","","","","36","","9","","24.1","","101.11","","","","-40","","Ice Crystals"
"-93.58","69.55","TALOYOAK A","2403855","2018-01-16 02:00","2018","01","16","02:00","-29.8","","-33.1","","73","","","","36","","17","","24.1","","101.10","","","","-42","","Mainly Clear"
"-93.58","69.55","TALOYOAK A","2403855","2018-01-16 03:00","2018","01","16","03:00","-29.2","","-32.4","","74","","","","36","","9","","24.1","","101.04","","","","-38","","Ice Crystals"
"-93.58","69.55","TALOYOAK A","2403855","2018-01-16 04:00","2018","01","16","04:00","-29.0","","-32.2","","74","","","","36","","9","","24.1","","101.03","","","","-37","","Ice Crystals"
"-93.58","69.55","TALOYOAK A","2403855","2018-01-16 05:00","2018","01","16","05:00","-28.9","","-32.1","","74","","","","36","","4","","24.1","","101.05","","","","-33","","Ice Crystals"
"-93.58","69.55","TALOYOAK A","2403855","2018-01-16 06:00","2018","01","16","06:00","-29.2","","-32.5","","74","","","","36","","9","","24.1","","101.09","","","","-38","","Ice Crystals"
"-93.58","69.55","TALOYOAK A","2403855","2018-01-16 07:00","2018","01","16","07:00","-29.7","","-33.0","","74","","","","36","","4","","24.1","","101.09","","","","-34","","Ice Crystals"
"-93.58","69.55","TALOYOAK A","2403855","2018-01-16 08:00","2018","01","16","08:00","-28.8","","-32.0","","74","","","","36","","9","","24.1","","101.09","","","","-37","","Ice Crystals"
"-93.58","69.55","TALOYOAK A","2403855","2018-01-16 09:00","2018","01","16","09:00","-28.5","","-31.7","","74","","","","36","","9","","24.1","","101.13","","","","-37","","Ice Crystals"
"-93.58","69.55","TALOYOAK A","2403855","2018-01-16 10:00","2018","01","16","10:00","-27.8","","-30.9","","75","","","","36","","17","","24.1","","101.13","","","","-39","","Ice Crystals"
"-93.58","69.55","TALOYOAK A","2403855","2018-01-16 11:00","2018","01","16","11:00","-27.4","","-30.5","","75","","","","36","","26","","24.1","","101.13","","","","-41","","Ice Crystals,Blowing Snow"
"-93.58","69.55","TALOYOAK A","2403855","2018-01-16 12:00","2018","01","16","12:00","-27.3","","-30.9","","72","","","","5","","23","","24.1","","101.15","","","","-41","","Ice Crystals,Blowing Snow"
"-93.58","69.55","TALOYOAK A","2403855","2018-01-16 13:00","2018","01","16","13:00","-29.1","","-32.8","","71","","","","3","","22","","24.1","","101.19","","","","-43","","Ice Crystals"
"-93.58","69.55","TALOYOAK A","2403855","2018-01-16 14:00","2018","01","16","14:00","-29.6","","-33.3","","71","","","","1","","14","","24.1","","101.24","","","","-41","","Ice Crystals"
"-93.58","69.55","TALOYOAK A","2403855","2018-01-16 15:00","2018","01","16","15:00","-29.0","","-32.7","","71","","","","3","","14","","24.1","","101.26","","","","-40","","Ice Crystals"
"-93.58","69.55","TALOYOAK A","2403855","2018-01-16 16:00","2018","01","16","16:00","-29.3","","-33.0","","71","","","","2","","16","","24.1","","101.28","","","","-41","","Ice Crystals"
"-93.58","69.55","TALOYOAK A","2403855","2018-01-16 17:00","2018","01","16","17:00","-28.3","","-32.0","","71","","","","1","","12","","24.1","","101.31","","","","-38","","Ice Crystals"
"-93.58","69.55","TALOYOAK A","2403855","2018-01-16 18:00","2018","01","16","18:00","-27.5","","-31.1","","72","","","","2","","18","","24.1","","101.30","","","","-39","","Ice Crystals"
"-93.58","69.55","TALOYOAK A","2403855","2018-01-16 19:00","2018","01","16","19:00","-26.9","","-30.5","","72","","","","3","","16","","24.1","","101.29","","","","-38","","Ice Crystals"
"-93.58","69.55","TALOYOAK A","2403855","2018-01-16 20:00","2018","01","16","20:00","-25.9","","-29.4","","73","","","","2","","11","","24.1","","101.26","","","","-35","","Ice Crystals"
"-93.58","69.55","TALOYOAK A","2403855","2018-01-16 21:00","2018","01","16","21:00","-25.7","","-29.2","","73","","","","36","","14","","24.1","","101.26","","","","-36","","Ice Crystals"
"-93.58","69.55","TALOYOAK A","2403855","2018-01-16 22:00","2018","01","16","22:00","-25.1","","-28.5","","74","","","","36","","14","","24.1","","101.22","","","","-35","","Ice Crystals"
"-93.58","69.55","TALOYOAK A","2403855","2018-01-16 23:00","2018","01","16","23:00","-24.1","","-27.5","","74","","","","36","","10","","24.1","","101.21","","","","-32","","Ice Crystals"
"-93.58","69.55","TALOYOAK A","2403855","2018-01-17 00:00","2018","01","17","00:00","-24.1","","-27.4","","75","","","","35","","10","","24.1","","101.23","","","","-32","","Snow"
"-93.58","69.55","TALOYOAK A","2403855","2018-01-17 01:00","2018","01","17","01:00","-24.1","","-27.4","","75","","","","36","","8","","24.1","","101.24","","","","-31","","Snow"
"-93.58","69.55","TALOYOAK A","2403855","2018-01-17 02:00","2018","01","17","02:00","-23.9","","-27.2","","75","","","","3","","9","","24.1","","101.23","","","","-31","","Snow"
"-93.58","69.55","TALOYOAK A","2403855","2018-01-17 03:00","2018","01","17","03:00","-25.6","","-29.0","","74","","","","2","","12","","24.1","","101.26","","","","-35","","Snow"
"-93.58","69.55","TALOYOAK A","2403855","2018-01-17 04:00","2018","01","17","04:00","-25.4","","-28.8","","74","","","","7","","12","","24.1","","101.25","","","","-35","","Snow"
"-93.58","69.55","TALOYOAK A","2403855","2018-01-17 05:00","2018","01","17","05:00","-25.8","","-29.3","","73","","","","15","","3","","24.1","","101.25","","","","-29","","Snow"
"-93.58","69.55","TALOYOAK A","2403855","2018-01-17 06:00","2018","01","17","06:00","-25.7","","-29.2","","73","","","","6","","14","","24.1","","101.20","","","","-36","","Snow"
"-93.58","69.55","TALOYOAK A","2403855","2018-01-17 07:00","2018","01","17","07:00","-26.0","","-29.4","","74","","","","6","","10","","24.1","","101.18","","","","-34","","Ice Crystals"
"-93.58","69.55","TALOYOAK A","2403855","2018-01-17 08:00","2018","01","17","08:00","-28.5","","-32.1","","72","","","","7","","6","","24.1","","101.17","","","","-35","","Ice Crystals"
"-93.58","69.55","TALOYOAK A","2403855","2018-01-17 09:00","2018","01","17","09:00","-29.2","","-32.9","","71","","","","3","","13","","24.1","","101.16","","","","-40","","Ice Crystals"
"-93.58","69.55","TALOYOAK A","2403855","2018-01-17 10:00","2018","01","17","10:00","-30.0","","-33.7","","71","","","","2","","15","","24.1","","101.19","","","","-41","","Ice Crystals"
"-93.58","69.55","TALOYOAK A","2403855","2018-01-17 11:00","2018","01","17","11:00","-32.3","","-36.2","","69","","","","1","","11","","24.1","","101.15","","","","-42","","Ice Crystals"
"-93.58","69.55","TALOYOAK A","2403855","2018-01-17 12:00","2018","01","17","12:00","-27.4","","-30.9","","73","","","","3","","5","","24.1","","101.12","","","","-33","","Ice Crystals"
"-93.58","69.55","TALOYOAK A","2403855","2018-01-17 13:00","2018","01","17","13:00","-30.7","","-34.5","","70","","","","36","","3","","24.1","","101.11","","","","-34","","Ice Crystals"
"-93.58","69.55","TALOYOAK A","2403855","2018-01-17 14:00","2018","01","17","14:00","-31.8","","-35.7","","69","","","","3","","8","","24.1","","101.13","","","","-40","","Ice Crystals"
"-93.58","69.55","TALOYOAK A","2403855","2018-01-17 15:00","2018","01","17","15:00","-30.6","","-34.5","","70","","","","1","","15","","24.1","","101.11","","","","-42","","Ice Crystals"
"-93.58","69.55","TALOYOAK A","2403855","2018-01-17 16:00","2018","01","17","16:00","-31.2","","-35.1","","70","","","","2","","13","","24.1","","101.10","","","","-42","","Ice Crystals"
"-93.58","69.55","TALOYOAK A","2403855","2018-01-17 17:00","2018","01","17","17:00","-30.5","","-34.3","","70","","","","1","","12","","24.1","","101.08","","","","-41","","Ice Crystals"
"-93.58","69.55","TALOYOAK A","2403855","2018-01-17 18:00","2018","01","17","18:00","-32.2","","-36.1","","69","","","","36","","12","","24.1","","101.05","","","","-43","","Ice Crystals"
"-93.58","69.55","TALOYOAK A","2403855","2018-01-17 19:00","2018","01","17","19:00","-31.9","","-35.8","","69","","","","6","","6","","24.1","","101.03","","","","-39","","Ice Crystals"
"-93.58","69.55","TALOYOAK A","2403855","2018-01-17 20:00","2018","01","17","20:00","-31.9","","-35.9","","69","","","","35","","8","","24.1","","101.04","","","","-40","","Ice Crystals"
"-93.58","69.55","TALOYOAK A","2403855","2018-01-17 21:00","2018","01","17","21:00","-32.3","","-36.3","","69","","","","34","","3","","24.1","","101.05","","","","-36","","Ice Crystals"
"-93.58","69.55","TALOYOAK A","2403855","2018-01-17 22:00","2018","01","17","22:00","-30.2","","-34.0","","70","","","","8","","13","","24.1","","101.04","","","","-41","","Ice Crystals"
"-93.58","69.55","TALOYOAK A","2403855","2018-01-17 23:00","2018","01","17","23:00","-33.4","","-37.4","","68","","","","36","","10","","24.1","","101.06","","","","-43","","Ice Crystals"
"-93.58","69.55","TALOYOAK A","2403855","2018-01-18 00:00","2018","01","18","00:00","-32.6","","-36.6","","68","","","","36","","2","","24.1","","101.07","","","","-35","","Ice Crystals"
"-93.58","69.55","TALOYOAK A","2403855","2018-01-18 01:00","2018","01","18","01:00","-33.0","","-36.9","","68","","","","5","","7","","24.1","","101.10","","","","-41","","Ice Crystals"
"-93.58","69.55","TALOYOAK A","2403855","2018-01-18 02:00","2018","01","18","02:00","-35.1","","-39.2","","67","","","","5","","7","","24.1","","101.13","","","","-43","","Ice Crystals"
"-93.58","69.55","TALOYOAK A","2403855","2018-01-18 03:00","2018","01","18","03:00","-36.4","","-40.6","","66","","","","34","","7","","24.1","","101.14","","","","-45","","Ice Crystals"
"-93.58","69.55","TALOYOAK A","2403855","2018-01-18 04:00","2018","01","18","04:00","-35.1","","-39.3","","67","","","","4","","7","","24.1","","101.12","","","","-43","","Ice Crystals"
"-93.58","69.55","TALOYOAK A","2403855","2018-01-18 05:00","2018","01","18","05:00","-35.3","","-39.4","","67","","","","3","","7","","24.1","","101.16","","","","-43","","Ice Crystals"
"-93.58","69.55","TALOYOAK A","2403855","2018-01-18 06:00","2018","01","18","06:00","-34.5","","-38.7","","67","","","","1","","5","","24.1","","101.13","","","","-41","","Ice Crystals"
"-93.58","69.55","TALOYOAK A","2403855","2018-01-18 07:00","2018","01","18","07:00","-34.3","","-38.4","","67","","","","6","","6","","24.1","","101.11","","","","-41","","Ice Crystals"
"-93.58","69.55","TALOYOAK A","2403855","2018-01-18 08:00","2018","01","18","08:00","-34.9","","-39.0","","67","","","","2","","7","","24.1","","101.15","","","","-43","","Ice Crystals"
"-93.58","69.55","TALOYOAK A","2403855","2018-01-18 09:00","2018","01","18","09:00","-34.5","","-38.7","","67","","","","1","","12","","24.1","","101.15","","","","-46","","Ice Crystals"
"-93.58","69.55","TALOYOAK A","2403855","2018-01-18 10:00","2018","01","18","10:00","-34.3","","-38.5","","67","","","","36","","10","","24.1","","101.17","","","","-44","","Ice Crystals"
"-93.58","69.55","TALOYOAK A","2403855","2018-01-18 11:00","2018","01","18","11:00","-35.1","","-39.3","","67","","","","4","","5","","24.1","","101.20","","","","-41","","Ice Crystals"
"-93.58","69.55","TALOYOAK A","2403855","2018-01-18 12:00","2018","01","18","12:00","-34.4","","-38.5","","67","","","","2","","15","","24.1","","101.17","","","","-47","","NA"
"-93.58","69.55","TALOYOAK A","2403855","2018-01-18 13:00","2018","01","18","13:00","-35.7","","-39.9","","66","","","","2","","10","","24.1","","101.21","","","","-46","","NA"
"-93.58","69.55","TALOYOAK A","2403855","2018-01-18 14:00","2018","01","18","14:00","-34.3","","-38.4","","67","","","","5","","8","","24.1","","101.24","","","","-43","","Ice Crystals"
"-93.58","69.55","TALOYOAK A","2403855","2018-01-18 15:00","2018","01","18","15:00","-36.8","","-41.0","","66","","","","2","","14","","24.1","","101.25","","","","-49","","Ice Crystals"
"-93.58","69.55","TALOYOAK A","2403855","2018-01-18 16:00","2018","01","18","16:00","-36.5","","-40.8","","66","","","","35","","15","","24.1","","101.25","","","","-49","","Ice Crystals"
"-93.58","69.55","TALOYOAK A","2403855","2018-01-18 17:00","2018","01","18","17:00","-34.3","","-38.4","","67","","","","5","","17","","24.1","","101.27","","","","-47","","Ice Crystals"
"-93.58","69.55","TALOYOAK A","2403855","2018-01-18 18:00","2018","01","18","18:00","-37.2","","-41.4","","66","","","","1","","14","","24.1","","101.27","","","","-50","","Ice Crystals"
"-93.58","69.55","TALOYOAK A","2403855","2018-01-18 19:00","2018","01","18","19:00","-35.8","","-40.0","","66","","","","2","","11","","24.1","","101.27","","","","-47","","Ice Crystals"
"-93.58","69.55","TALOYOAK A","2403855","2018-01-18 20:00","2018","01","18","20:00","-35.4","","-39.6","","66","","","","3","","11","","24.1","","101.25","","","","-46","","Ice Crystals"
"-93.58","69.55","TALOYOAK A","2403855","2018-01-18 21:00","2018","01","18","21:00","-33.9","","-38.0","","67","","","","6","","16","","24.1","","101.24","","","","-47","","Ice Crystals"
"-93.58","69.55","TALOYOAK A","2403855","2018-01-18 22:00","2018","01","18","22:00","-34.4","","-38.5","","67","","","","6","","15","","24.1","","101.29","","","","-47","","Ice Crystals"
"-93.58","69.55","TALOYOAK A","2403855","2018-01-18 23:00","2018","01","18","23:00","-36.0","","-40.2","","66","","","","2","","11","","24.1","","101.34","","","","-47","","Ice Crystals"
"-93.58","69.55","TALOYOAK A","2403855","2018-01-19 00:00","2018","01","19","00:00","-35.2","","-39.4","","67","","","","3","","11","","24.1","","101.34","","","","-46","","Ice Crystals"
"-93.58","69.55","TALOYOAK A","2403855","2018-01-19 01:00","2018","01","19","01:00","-36.1","","-40.4","","66","","","","2","","10","","24.1","","101.38","","","","-46","","Ice Crystals"
"-93.58","69.55","TALOYOAK A","2403855","2018-01-19 02:00","2018","01","19","02:00","-35.4","","-39.6","","66","","","","2","","11","","24.1","","101.42","","","","-46","","Ice Crystals"
"-93.58","69.55","TALOYOAK A","2403855","2018-01-19 03:00","2018","01","19","03:00","-33.6","","-37.8","","67","","","","34","","4","","24.1","","101.44","","","","-38","","Ice Crystals"
"-93.58","69.55","TALOYOAK A","2403855","2018-01-19 04:00","2018","01","19","04:00","-31.9","","-35.9","","68","","","","2","","10","","24.1","","101.48","","","","-41","","Ice Crystals"
"-93.58","69.55","TALOYOAK A","2403855","2018-01-19 05:00","2018","01","19","05:00","-32.4","","-36.5","","68","","","","4","","15","","16.1","","101.50","","","","-44","","Ice Crystals"
"-93.58","69.55","TALOYOAK A","2403855","2018-01-19 06:00","2018","01","19","06:00","-33.8","","-37.9","","67","","","","3","","12","","16.1","","101.54","","","","-45","","Ice Crystals"
"-93.58","69.55","TALOYOAK A","2403855","2018-01-19 07:00","2018","01","19","07:00","-33.5","","-37.6","","68","","","","7","","18","","12.9","","101.52","","","","-47","","Ice Crystals"
"-93.58","69.55","TALOYOAK A","2403855","2018-01-19 08:00","2018","01","19","08:00","-33.0","","-37.1","","68","","","","6","","17","","16.1","","101.57","","","","-46","","Ice Crystals"
"-93.58","69.55","TALOYOAK A","2403855","2018-01-19 09:00","2018","01","19","09:00","-33.1","","-37.2","","68","","","","6","","16","","24.1","","101.63","","","","-46","","Ice Crystals"
"-93.58","69.55","TALOYOAK A","2403855","2018-01-19 10:00","2018","01","19","10:00","-33.6","","-37.7","","68","","","","4","","9","","24.1","","101.69","","","","-43","","Ice Crystals"
"-93.58","69.55","TALOYOAK A","2403855","2018-01-19 11:00","2018","01","19","11:00","-33.4","","-37.4","","68","","","","5","","15","","24.1","","101.73","","","","-46","","Ice Crystals"
"-93.58","69.55","TALOYOAK A","2403855","2018-01-19 12:00","2018","01","19","12:00","-34.2","","-38.3","","67","","","","3","","7","","24.1","","101.80","","","","-42","","Ice Crystals"
"-93.58","69.55","TALOYOAK A","2403855","2018-01-19 13:00","2018","01","19","13:00","-33.4","","-37.5","","68","","","","1","","10","","24.1","","101.80","","","","-43","","Ice Crystals"
"-93.58","69.55","TALOYOAK A","2403855","2018-01-19 14:00","2018","01","19","14:00","-32.6","","-36.6","","68","","","","7","","23","","24.1","","101.82","","","","-47","","Ice Crystals"
"-93.58","69.55","TALOYOAK A","2403855","2018-01-19 15:00","2018","01","19","15:00","-35.3","","-39.5","","67","","","","36","","7","","24.1","","101.85","","","","-43","","Ice Crystals"
"-93.58","69.55","TALOYOAK A","2403855","2018-01-19 16:00","2018","01","19","16:00","-32.2","","-36.2","","68","","","","5","","22","","24.1","","101.88","","","","-46","","Ice Crystals"
"-93.58","69.55","TALOYOAK A","2403855","2018-01-19 17:00","2018","01","19","17:00","-34.1","","-38.3","","67","","","","36","","8","","16.1","","101.89","","","","-43","","Ice Crystals"
"-93.58","69.55","TALOYOAK A","2403855","2018-01-19 18:00","2018","01","19","18:00","-33.5","","-37.6","","68","","","","6","","16","","9.7","","101.92","","","","-46","","Ice Crystals"
"-93.58","69.55","TALOYOAK A","2403855","2018-01-19 19:00","2018","01","19","19:00","-34.5","","-38.6","","67","","","","36","","9","","4.8","","101.93","","","","-44","","Ice Crystals"
"-93.58","69.55","TALOYOAK A","2403855","2018-01-19 20:00","2018","01","19","20:00","-32.8","","-36.8","","68","","","","36","","7","","4.8","","101.95","","","","-41","","Ice Crystals"
"-93.58","69.55","TALOYOAK A","2403855","2018-01-19 21:00","2018","01","19","21:00","-34.3","","-38.5","","67","","","","36","","10","","9.7","","101.97","","","","-44","","Ice Crystals"
"-93.58","69.55","TALOYOAK A","2403855","2018-01-19 22:00","2018","01","19","22:00","-35.1","","-39.3","","67","","","","2","","16","","9.7","","101.99","","","","-48","","Ice Crystals"
"-93.58","69.55","TALOYOAK A","2403855","2018-01-19 23:00","2018","01","19","23:00","-34.5","","-38.6","","67","","","","3","","17","","16.1","","102.00","","","","-48","","Ice Crystals"
"-93.58","69.55","TALOYOAK A","2403855","2018-01-20 00:00","2018","01","20","00:00","-34.7","","-38.9","","67","","","","1","","12","","16.1","","102.03","","","","-46","","Ice Crystals"
"-93.58","69.55","TALOYOAK A","2403855","2018-01-20 01:00","2018","01","20","01:00","-35.5","","-39.7","","66","","","","2","","14","","16.1","","102.05","","","","-48","","Ice Crystals"
"-93.58","69.55","TALOYOAK A","2403855","2018-01-20 02:00","2018","01","20","02:00","-35.3","","-39.5","","66","","","","2","","14","","19.3","","102.06","","","","-48","","Ice Crystals"
"-93.58","69.55","TALOYOAK A","2403855","2018-01-20 03:00","2018","01","20","03:00","-35.7","","-40.0","","66","","","","2","","16","","19.3","","102.09","","","","-49","","Ice Crystals"
"-93.58","69.55","TALOYOAK A","2403855","2018-01-20 04:00","2018","01","20","04:00","-36.4","","-40.7","","66","","","","1","","15","","19.3","","102.10","","","","-49","","Ice Crystals"
"-93.58","69.55","TALOYOAK A","2403855","2018-01-20 05:00","2018","01","20","05:00","-34.9","","-39.1","","67","","","","3","","16","","19.3","","102.12","","","","-48","","Ice Crystals"
"-93.58","69.55","TALOYOAK A","2403855","2018-01-20 06:00","2018","01","20","06:00","-34.0","","-38.1","","67","","","","2","","14","","24.1","","102.12","","","","-46","","Ice Crystals"
"-93.58","69.55","TALOYOAK A","2403855","2018-01-20 07:00","2018","01","20","07:00","-35.2","","-39.4","","66","","","","1","","14","","24.1","","102.12","","","","-47","","Ice Crystals"
"-93.58","69.55","TALOYOAK A","2403855","2018-01-20 08:00","2018","01","20","08:00","-36.3","","-40.5","","66","","","","1","","10","","24.1","","102.13","","","","-47","","Ice Crystals"
"-93.58","69.55","TALOYOAK A","2403855","2018-01-20 09:00","2018","01","20","09:00","-35.9","","-40.1","","66","","","","2","","9","","24.1","","102.12","","","","-46","","NA"
"-93.58","69.55","TALOYOAK A","2403855","2018-01-20 10:00","2018","01","20","10:00","-36.9","","-41.2","","65","","","","3","","4","","24.1","","102.12","","","","-42","","NA"
"-93.58","69.55","TALOYOAK A","2403855","2018-01-20 11:00","2018","01","20","11:00","-35.0","","-39.3","","66","","","","17","","6","","24.1","","102.10","","","","-42","","Clear"
"-93.58","69.55","TALOYOAK A","2403855","2018-01-20 12:00","2018","01","20","12:00","-34.8","","-39.0","","67","","","","15","","7","","24.1","","102.13","","","","-43","","NA"
"-93.58","69.55","TALOYOAK A","2403855","2018-01-20 13:00","2018","01","20","13:00","-36.3","","-40.6","","66","","","","15","","11","","24.1","","102.15","","","","-47","","NA"
"-93.58","69.55","TALOYOAK A","2403855","2018-01-20 14:00","2018","01","20","14:00","-34.9","","-39.1","","67","","","","16","","14","","24.1","","102.18","","","","-47","","Clear"
"-93.58","69.55","TALOYOAK A","2403855","2018-01-20 15:00","2018","01","20","15:00","-34.3","","-38.5","","67","","","","16","","13","","24.1","","102.19","","","","-46","","NA"
"-93.58","69.55","TALOYOAK A","2403855","2018-01-20 16:00","2018","01","20","16:00","-34.2","","-38.3","","67","","","","16","","13","","24.1","","102.17","","","","-46","","NA"
"-93.58","69.55","TALOYOAK A","2403855","2018-01-20 17:00","2018","01","20","17:00","-34.3","","-38.5","","67","","","","15","","16","","24.1","","102.17","","","","-47","","Ice Crystals"
"-93.58","69.55","TALOYOAK A","2403855","2018-01-20 18:00","2018","01","20","18:00","-33.6","","-37.7","","67","","","","16","","11","","24.1","","102.14","","","","-44","","Ice Crystals"
"-93.58","69.55","TALOYOAK A","2403855","2018-01-20 19:00","2018","01","20","19:00","-33.7","","-37.9","","67","","","","15","","10","","24.1","","102.12","","","","-44","","Ice Crystals"
"-93.58","69.55","TALOYOAK A","2403855","2018-01-20 20:00","2018","01","20","20:00","-34.2","","-38.4","","67","","","","15","","11","","24.1","","102.08","","","","-45","","Ice Crystals"
"-93.58","69.55","TALOYOAK A","2403855","2018-01-20 21:00","2018","01","20","21:00","-33.7","","-37.9","","67","","","","14","","13","","24.1","","102.10","","","","-45","","Ice Crystals"
"-93.58","69.55","TALOYOAK A","2403855","2018-01-20 22:00","2018","01","20","22:00","-34.3","","-38.4","","67","","","","15","","13","","24.1","","102.11","","","","-46","","Ice Crystals"
"-93.58","69.55","TALOYOAK A","2403855","2018-01-20 23:00","2018","01","20","23:00","-34.2","","-38.4","","67","","","","14","","12","","24.1","","102.10","","","","-45","","Ice Crystals"
"-93.58","69.55","TALOYOAK A","2403855","2018-01-21 00:00","2018","01","21","00:00","-33.9","","-38.1","","67","","","","14","","9","","24.1","","102.12","","","","-43","","Ice Crystals"
"-93.58","69.55","TALOYOAK A","2403855","2018-01-21 01:00","2018","01","21","01:00","-33.7","","-37.9","","67","","","","15","","8","","24.1","","102.12","","","","-42","","Ice Crystals"
"-93.58","69.55","TALOYOAK A","2403855","2018-01-21 02:00","2018","01","21","02:00","-35.1","","-39.4","","66","","","","14","","11","","24.1","","102.15","","","","-46","","Ice Crystals"
"-93.58","69.55","TALOYOAK A","2403855","2018-01-21 03:00","2018","01","21","03:00","-34.5","","-38.7","","67","","","","16","","12","","24.1","","102.14","","","","-46","","Ice Crystals"
"-93.58","69.55","TALOYOAK A","2403855","2018-01-21 04:00","2018","01","21","04:00","-35.2","","-39.4","","66","","","","15","","10","","24.1","","102.13","","","","-45","","Ice Crystals"
"-93.58","69.55","TALOYOAK A","2403855","2018-01-21 05:00","2018","01","21","05:00","-35.5","","-39.7","","66","","","","17","","7","","24.1","","102.12","","","","-44","","Ice Crystals"
"-93.58","69.55","TALOYOAK A","2403855","2018-01-21 06:00","2018","01","21","06:00","-34.9","","-39.1","","67","","","","16","","9","","24.1","","102.13","","","","-44","","Ice Crystals"
"-93.58","69.55","TALOYOAK A","2403855","2018-01-21 07:00","2018","01","21","07:00","-34.9","","-39.1","","67","","","","15","","5","","24.1","","102.12","","","","-41","","Ice Crystals"
"-93.58","69.55","TALOYOAK A","2403855","2018-01-21 08:00","2018","01","21","08:00","-35.7","","-39.9","","66","","","","15","","7","","24.1","","102.13","","","","-44","","Ice Crystals"
"-93.58","69.55","TALOYOAK A","2403855","2018-01-21 09:00","2018","01","21","09:00","-35.7","","-40.0","","66","","","","16","","10","","24.1","","102.13","","","","-46","","Ice Crystals"
"-93.58","69.55","TALOYOAK A","2403855","2018-01-21 10:00","2018","01","21","10:00","-35.5","","-39.7","","66","","","","16","","10","","24.1","","102.12","","","","-46","","Ice Crystals"
"-93.58","69.55","TALOYOAK A","2403855","2018-01-21 11:00","2018","01","21","11:00","-34.5","","-38.7","","67","","","","16","","13","","24.1","","102.11","","","","-46","","Ice Crystals"
"-93.58","69.55","TALOYOAK A","2403855","2018-01-21 12:00","2018","01","21","12:00","-34.2","","-38.4","","67","","","","15","","11","","24.1","","102.12","","","","-45","","Ice Crystals"
"-93.58","69.55","TALOYOAK A","2403855","2018-01-21 13:00","2018","01","21","13:00","-35.0","","-39.2","","66","","","","15","","9","","24.1","","102.17","","","","-45","","Ice Crystals"
"-93.58","69.55","TALOYOAK A","2403855","2018-01-21 14:00","2018","01","21","14:00","-34.8","","-39.0","","67","","","","16","","10","","24.1","","102.19","","","","-45","","Ice Crystals"
"-93.58","69.55","TALOYOAK A","2403855","2018-01-21 15:00","2018","01","21","15:00","-34.4","","-38.6","","67","","","","15","","11","","24.1","","102.23","","","","-45","","Ice Crystals"
"-93.58","69.55","TALOYOAK A","2403855","2018-01-21 16:00","2018","01","21","16:00","-34.2","","-38.4","","67","","","","17","","7","","24.1","","102.23","","","","-42","","Ice Crystals"
"-93.58","69.55","TALOYOAK A","2403855","2018-01-21 17:00","2018","01","21","17:00","-34.2","","-38.4","","67","","","","15","","9","","24.1","","102.24","","","","-44","","Ice Crystals"
"-93.58","69.55","TALOYOAK A","2403855","2018-01-21 18:00","2018","01","21","18:00","-34.1","","-38.3","","67","","","","15","","8","","24.1","","102.24","","","","-43","","Ice Crystals"
"-93.58","69.55","TALOYOAK A","2403855","2018-01-21 19:00","2018","01","21","19:00","-34.5","","-38.7","","67","","","","16","","8","","24.1","","102.24","","","","-43","","Ice Crystals"
"-93.58","69.55","TALOYOAK A","2403855","2018-01-21 20:00","2018","01","21","20:00","-35.0","","-39.2","","66","","","","14","","10","","24.1","","102.23","","","","-45","","Ice Crystals"
"-93.58","69.55","TALOYOAK A","2403855","2018-01-21 21:00","2018","01","21","21:00","-35.0","","-39.2","","66","","","","14","","11","","24.1","","102.26","","","","-46","","Ice Crystals"
"-93.58","69.55","TALOYOAK A","2403855","2018-01-21 22:00","2018","01","21","22:00","-34.8","","-39.0","","67","","","","15","","13","","24.1","","102.23","","","","-46","","Ice Crystals"
"-93.58","69.55","TALOYOAK A","2403855","2018-01-21 23:00","2018","01","21","23:00","-34.2","","-38.4","","67","","","","14","","10","","24.1","","102.23","","","","-44","","Ice Crystals"
"-93.58","69.55","TALOYOAK A","2403855","2018-01-22 00:00","2018","01","22","00:00","-34.6","","-38.8","","67","","","","15","","13","","24.1","","102.25","","","","-46","","Ice Crystals"
"-93.58","69.55","TALOYOAK A","2403855","2018-01-22 01:00","2018","01","22","01:00","-35.2","","-39.4","","66","","","","14","","10","","24.1","","102.26","","","","-45","","Ice Crystals"
"-93.58","69.55","TALOYOAK A","2403855","2018-01-22 02:00","2018","01","22","02:00","-34.6","","-38.8","","67","","","","15","","9","","24.1","","102.30","","","","-44","","Ice Crystals"
"-93.58","69.55","TALOYOAK A","2403855","2018-01-22 03:00","2018","01","22","03:00","-35.2","","-39.4","","66","","","","14","","13","","24.1","","102.31","","","","-47","","Ice Crystals"
"-93.58","69.55","TALOYOAK A","2403855","2018-01-22 04:00","2018","01","22","04:00","-34.6","","-38.8","","67","","","","15","","13","","24.1","","102.31","","","","-46","","Ice Crystals"
"-93.58","69.55","TALOYOAK A","2403855","2018-01-22 05:00","2018","01","22","05:00","-35.3","","-39.5","","66","","","","15","","9","","24.1","","102.32","","","","-45","","Ice Crystals"
"-93.58","69.55","TALOYOAK A","2403855","2018-01-22 06:00","2018","01","22","06:00","-35.9","","-40.1","","66","","","","15","","11","","24.1","","102.34","","","","-47","","Ice Crystals"
"-93.58","69.55","TALOYOAK A","2403855","2018-01-22 07:00","2018","01","22","07:00","-35.2","","-39.4","","66","","","","15","","13","","24.1","","102.34","","","","-47","","Ice Crystals"
"-93.58","69.55","TALOYOAK A","2403855","2018-01-22 08:00","2018","01","22","08:00","-34.9","","-39.1","","66","","","","16","","8","","24.1","","102.35","","","","-44","","Ice Crystals"
"-93.58","69.55","TALOYOAK A","2403855","2018-01-22 09:00","2018","01","22","09:00","-34.4","","-38.6","","67","","","","23","","7","","24.1","","102.34","","","","-42","","Ice Crystals"
"-93.58","69.55","TALOYOAK A","2403855","2018-01-22 10:00","2018","01","22","10:00","-34.5","","-38.7","","67","","","","18","","8","","24.1","","102.34","","","","-43","","Ice Crystals"
"-93.58","69.55","TALOYOAK A","2403855","2018-01-22 11:00","2018","01","22","11:00","-33.9","","-38.0","","67","","","","18","","8","","24.1","","102.31","","","","-43","","Ice Crystals"
"-93.58","69.55","TALOYOAK A","2403855","2018-01-22 12:00","2018","01","22","12:00","-27.9","","-31.6","","71","","","","30","","13","","9.7","","102.31","","","","-38","","Ice Crystals,Blowing Snow"
"-93.58","69.55","TALOYOAK A","2403855","2018-01-22 13:00","2018","01","22","13:00","-28.3","","-32.1","","71","","","","22","","9","","24.1","","102.37","","","","-37","","Ice Crystals"
"-93.58","69.55","TALOYOAK A","2403855","2018-01-22 14:00","2018","01","22","14:00","-27.9","","-31.6","","71","","","","24","","13","","4.8","","102.42","","","","-38","","Ice Crystals"
"-93.58","69.55","TALOYOAK A","2403855","2018-01-22 15:00","2018","01","22","15:00","-32.9","","-36.9","","68","","","","13","","12","","1.6","","102.45","","","","-44","","Ice Crystals"
"-93.58","69.55","TALOYOAK A","2403855","2018-01-22 16:00","2018","01","22","16:00","-33.1","","-37.2","","68","","","","21","","14","","4.8","","102.43","","","","-45","","Ice Crystals"
"-93.58","69.55","TALOYOAK A","2403855","2018-01-22 17:00","2018","01","22","17:00","-32.8","","-36.9","","68","","","","19","","10","","1.6","","102.45","","","","-42","","Ice Crystals"
"-93.58","69.55","TALOYOAK A","2403855","2018-01-22 18:00","2018","01","22","18:00","-33.7","","-37.8","","67","","","","19","","13","","1.6","","102.44","","","","-45","","Ice Crystals"
"-93.58","69.55","TALOYOAK A","2403855","2018-01-22 19:00","2018","01","22","19:00","-33.5","","-37.6","","67","","","","21","","18","","1.6","","102.40","","","","-47","","Ice Crystals"
"-93.58","69.55","TALOYOAK A","2403855","2018-01-22 20:00","2018","01","22","20:00","-33.5","","-37.6","","67","","","","20","","8","","1.6","","102.37","","","","-42","","Ice Crystals"
"-93.58","69.55","TALOYOAK A","2403855","2018-01-22 21:00","2018","01","22","21:00"
"-93.58","69.55","TALOYOAK A","2403855","2018-01-22 22:00","2018","01","22","22:00"
"-93.58","69.55","TALOYOAK A","2403855","2018-01-22 23:00","2018","01","22","23:00"
"-93.58","69.55","TALOYOAK A","2403855","2018-01-23 00:00","2018","01","23","00:00"
"-93.58","69.55","TALOYOAK A","2403855","2018-01-23 01:00","2018","01","23","01:00"
"-93.58","69.55","TALOYOAK A","2403855","2018-01-23 02:00","2018","01","23","02:00"
"-93.58","69.55","TALOYOAK A","2403855","2018-01-23 03:00","2018","01","23","03:00"
"-93.58","69.55","TALOYOAK A","2403855","2018-01-23 04:00","2018","01","23","04:00"
"-93.58","69.55","TALOYOAK A","2403855","2018-01-23 05:00","2018","01","23","05:00"
"-93.58","69.55","TALOYOAK A","2403855","2018-01-23 06:00","2018","01","23","06:00"
"-93.58","69.55","TALOYOAK A","2403855","2018-01-23 07:00","2018","01","23","07:00"
"-93.58","69.55","TALOYOAK A","2403855","2018-01-23 08:00","2018","01","23","08:00"
"-93.58","69.55","TALOYOAK A","2403855","2018-01-23 09:00","2018","01","23","09:00","-34.9","","-39.1","","67","","","","17","","20","","24.1","","102.08","","","","-49","","Ice Crystals"
"-93.58","69.55","TALOYOAK A","2403855","2018-01-23 10:00","2018","01","23","10:00","-34.7","","-38.9","","67","","","","18","","18","","16.1","","102.05","","","","-48","","Ice Crystals"
"-93.58","69.55","TALOYOAK A","2403855","2018-01-23 11:00","2018","01","23","11:00","-34.4","","-38.6","","67","","","","16","","19","","16.1","","102.01","","","","-48","","Ice Crystals"
"-93.58","69.55","TALOYOAK A","2403855","2018-01-23 12:00","2018","01","23","12:00","-34.1","","-38.2","","67","","","","19","","21","","16.1","","102.01","","","","-49","","Ice Crystals"
"-93.58","69.55","TALOYOAK A","2403855","2018-01-23 13:00","2018","01","23","13:00","-33.9","","-38.0","","67","","","","21","","15","","16.1","","101.98","","","","-46","","Ice Crystals"
"-93.58","69.55","TALOYOAK A","2403855","2018-01-23 14:00","2018","01","23","14:00","-33.3","","-37.4","","68","","","","20","","21","","1.6","","101.96","","","","-48","","Ice Crystals"
"-93.58","69.55","TALOYOAK A","2403855","2018-01-23 15:00","2018","01","23","15:00","-32.6","","-36.7","","68","","","","21","","14","","1.6","","101.94","","","","-44","","Ice Crystals"
"-93.58","69.55","TALOYOAK A","2403855","2018-01-23 16:00","2018","01","23","16:00","-32.2","","-36.3","","68","","","","21","","12","","4.0","","101.92","","","","-43","","Ice Crystals"
"-93.58","69.55","TALOYOAK A","2403855","2018-01-23 17:00","2018","01","23","17:00","-31.1","","-35.1","","69","","","","19","","6","","4.0","","101.90","","","","-38","","Ice Crystals"
"-93.58","69.55","TALOYOAK A","2403855","2018-01-23 18:00","2018","01","23","18:00","-30.4","","-34.4","","69","","","","23","","10","","1.6","","101.87","","","","-40","","Ice Crystals"
"-93.58","69.55","TALOYOAK A","2403855","2018-01-23 19:00","2018","01","23","19:00","-31.7","","-35.7","","69","","","","22","","12","","1.6","","101.87","","","","-42","","Ice Crystals"
"-93.58","69.55","TALOYOAK A","2403855","2018-01-23 20:00","2018","01","23","20:00","-30.7","","-34.6","","69","","","","27","","14","","1.2","","101.84","","","","-42","","Ice Crystals"
"-93.58","69.55","TALOYOAK A","2403855","2018-01-23 21:00","2018","01","23","21:00"
"-93.58","69.55","TALOYOAK A","2403855","2018-01-23 22:00","2018","01","23","22:00"
"-93.58","69.55","TALOYOAK A","2403855","2018-01-23 23:00","2018","01","23","23:00","-29.5","","-33.4","","70","","","","28","","10","","4.8","","101.76","","","","-39","","Snow,Fog"
"-93.58","69.55","TALOYOAK A","2403855","2018-01-24 00:00","2018","01","24","00:00","-27.9","","-31.6","","71","","","","26","","10","","4.8","","101.78","","","","-37","","Snow,Fog"
"-93.58","69.55","TALOYOAK A","2403855","2018-01-24 01:00","2018","01","24","01:00","-28.2","","-32.0","","71","","","","30","","32","","1.6","","101.73","","","","-44","","Snow,Blowing Snow"
"-93.58","69.55","TALOYOAK A","2403855","2018-01-24 02:00","2018","01","24","02:00","-28.6","","-32.3","","71","","","","31","","22","","2.0","","101.76","","","","-42","","Snow,Blowing Snow"
"-93.58","69.55","TALOYOAK A","2403855","2018-01-24 03:00","2018","01","24","03:00","-28.6","","-32.3","","71","","","","31","","29","","3.2","","101.75","","","","-44","","Snow,Fog"
"-93.58","69.55","TALOYOAK A","2403855","2018-01-24 04:00","2018","01","24","04:00","-28.6","","-32.4","","71","","","","12","","11","","6.4","","101.78","","","","-38","","Snow,Fog"
"-93.58","69.55","TALOYOAK A","2403855","2018-01-24 05:00","2018","01","24","05:00","-27.4","","-31.1","","72","","","","32","","16","","6.4","","101.77","","","","-39","","Snow,Fog,Blowing Snow"
"-93.58","69.55","TALOYOAK A","2403855","2018-01-24 06:00","2018","01","24","06:00","-27.9","","-31.6","","71","","","","31","","32","","2.0","","101.74","","","","-43","","Snow,Blowing Snow"
"-93.58","69.55","TALOYOAK A","2403855","2018-01-24 07:00","2018","01","24","07:00","-28.1","","-31.7","","71","","","","31","","28","","4.8","","101.73","","","","-43","","Snow,Blowing Snow"
"-93.58","69.55","TALOYOAK A","2403855","2018-01-24 08:00","2018","01","24","08:00","-27.4","","-31.1","","72","","","","28","","14","","9.7","","101.76","","","","-38","","Snow,Blowing Snow"
"-93.58","69.55","TALOYOAK A","2403855","2018-01-24 09:00","2018","01","24","09:00","-26.7","","-30.3","","72","","","","30","","15","","12.9","","101.77","","","","-37","","Ice Crystals"
"-93.58","69.55","TALOYOAK A","2403855","2018-01-24 10:00","2018","01","24","10:00","-29.0","","-32.8","","71","","","","15","","10","","12.9","","101.76","","","","-38","","Ice Crystals"
"-93.58","69.55","TALOYOAK A","2403855","2018-01-24 11:00","2018","01","24","11:00","-29.1","","-32.9","","71","","","","14","","11","","9.7","","101.76","","","","-39","","Snow"
"-93.58","69.55","TALOYOAK A","2403855","2018-01-24 12:00","2018","01","24","12:00","-27.8","","-31.4","","72","","","","16","","9","","4.8","","101.73","","","","-36","","Snow"
"-93.58","69.55","TALOYOAK A","2403855","2018-01-24 13:00","2018","01","24","13:00","-27.8","","-31.5","","72","","","","14","","12","","2.8","","101.76","","","","-37","","Snow"
"-93.58","69.55","TALOYOAK A","2403855","2018-01-24 14:00","2018","01","24","14:00","-25.8","","-29.2","","73","","","","19","","9","","1.6","","101.75","","","","-34","","Snow"
"-93.58","69.55","TALOYOAK A","2403855","2018-01-24 15:00","2018","01","24","15:00","-24.9","","-28.4","","74","","","","15","","7","","2.0","","101.75","","","","-31","","Snow"
"-93.58","69.55","TALOYOAK A","2403855","2018-01-24 16:00","2018","01","24","16:00","-25.4","","-28.9","","73","","","","20","","15","","2.0","","101.74","","","","-36","","Snow"
"-93.58","69.55","TALOYOAK A","2403855","2018-01-24 17:00","2018","01","24","17:00","-25.1","","-28.5","","74","","","","36","","3","","2.0","","101.72","","","","-28","","Snow"
"-93.58","69.55","TALOYOAK A","2403855","2018-01-24 18:00","2018","01","24","18:00","-24.3","","-27.7","","74","","","","14","","3","","9.7","","101.69","","","","-27","","Snow"
"-93.58","69.55","TALOYOAK A","2403855","2018-01-24 19:00","2018","01","24","19:00","-23.9","","-27.3","","75","","","","9","","3","","4.8","","101.68","","","","-27","","Snow"
"-93.58","69.55","TALOYOAK A","2403855","2018-01-24 20:00","2018","01","24","20:00","-23.9","","-27.2","","75","","","","9","","4","","4.8","","101.67","","","","-28","","Snow"
"-93.58","69.55","TALOYOAK A","2403855","2018-01-24 21:00","2018","01","24","21:00"
"-93.58","69.55","TALOYOAK A","2403855","2018-01-24 22:00","2018","01","24","22:00"
"-93.58","69.55","TALOYOAK A","2403855","2018-01-24 23:00","2018","01","24","23:00"
"-93.58","69.55","TALOYOAK A","2403855","2018-01-25 00:00","2018","01","25","00:00"
"-93.58","69.55","TALOYOAK A","2403855","2018-01-25 01:00","2018","01","25","01:00"
"-93.58","69.55","TALOYOAK A","2403855","2018-01-25 02:00","2018","01","25","02:00"
"-93.58","69.55","TALOYOAK A","2403855","2018-01-25 03:00","2018","01","25","03:00"
"-93.58","69.55","TALOYOAK A","2403855","2018-01-25 04:00","2018","01","25","04:00"
"-93.58","69.55","TALOYOAK A","2403855","2018-01-25 05:00","2018","01","25","05:00"
"-93.58","69.55","TALOYOAK A","2403855","2018-01-25 06:00","2018","01","25","06:00"
"-93.58","69.55","TALOYOAK A","2403855","2018-01-25 07:00","2018","01","25","07:00"
"-93.58","69.55","TALOYOAK A","2403855","2018-01-25 08:00","2018","01","25","08:00","-23.2","","-26.4","","75","","","","31","","10","","16.1","","101.47","","","","-31","","Snow"
"-93.58","69.55","TALOYOAK A","2403855","2018-01-25 09:00","2018","01","25","09:00","-22.8","","-26.0","","76","","","","32","","16","","17.7","","101.44","","","","-33","","Snow"
"-93.58","69.55","TALOYOAK A","2403855","2018-01-25 10:00","2018","01","25","10:00","-22.6","","-25.7","","76","","","","32","","12","","19.3","","101.45","","","","-31","","Snow"
"-93.58","69.55","TALOYOAK A","2403855","2018-01-25 11:00","2018","01","25","11:00","-22.3","","-25.4","","76","","","","27","","7","","12.9","","101.44","","","","-28","","Snow"
"-93.58","69.55","TALOYOAK A","2403855","2018-01-25 12:00","2018","01","25","12:00","-22.1","","-25.2","","76","","","","27","","10","","19.3","","101.43","","","","-30","","Snow"
"-93.58","69.55","TALOYOAK A","2403855","2018-01-25 13:00","2018","01","25","13:00","-23.7","","-27.0","","75","","","","28","","16","","24.1","","101.41","","","","-34","","Snow"
"-93.58","69.55","TALOYOAK A","2403855","2018-01-25 14:00","2018","01","25","14:00","-24.5","","-27.8","","75","","","","30","","18","","24.1","","101.41","","","","-36","","Snow"
"-93.58","69.55","TALOYOAK A","2403855","2018-01-25 15:00","2018","01","25","15:00","-23.6","","-26.8","","75","","","","29","","18","","24.1","","101.42","","","","-34","","Snow"
"-93.58","69.55","TALOYOAK A","2403855","2018-01-25 16:00","2018","01","25","16:00","-24.4","","-27.7","","75","","","","29","","16","","24.1","","101.40","","","","-35","","Snow"
"-93.58","69.55","TALOYOAK A","2403855","2018-01-25 17:00","2018","01","25","17:00","-26.3","","-29.7","","73","","","","26","","11","","24.1","","101.40","","","","-35","","Snow"
"-93.58","69.55","TALOYOAK A","2403855","2018-01-25 18:00","2018","01","25","18:00","-23.4","","-26.6","","76","","","","28","","16","","6.4","","101.36","","","","-34","","Snow"
"-93.58","69.55","TALOYOAK A","2403855","2018-01-25 19:00","2018","01","25","19:00","-22.5","","-25.6","","76","","","","28","","14","","12.9","","101.32","","","","-32","","Snow"
"-93.58","69.55","TALOYOAK A","2403855","2018-01-25 20:00","2018","01","25","20:00","-22.5","","-25.6","","76","","","","31","","30","","6.4","","101.31","","","","-36","","Snow,Blowing Snow"
"-93.58","69.55","TALOYOAK A","2403855","2018-01-25 21:00","2018","01","25","21:00"
"-93.58","69.55","TALOYOAK A","2403855","2018-01-25 22:00","2018","01","25","22:00"
"-93.58","69.55","TALOYOAK A","2403855","2018-01-25 23:00","2018","01","25","23:00"
"-93.58","69.55","TALOYOAK A","2403855","2018-01-26 00:00","2018","01","26","00:00"
"-93.58","69.55","TALOYOAK A","2403855","2018-01-26 01:00","2018","01","26","01:00"
"-93.58","69.55","TALOYOAK A","2403855","2018-01-26 02:00","2018","01","26","02:00"
"-93.58","69.55","TALOYOAK A","2403855","2018-01-26 03:00","2018","01","26","03:00"
"-93.58","69.55","TALOYOAK A","2403855","2018-01-26 04:00","2018","01","26","04:00"
"-93.58","69.55","TALOYOAK A","2403855","2018-01-26 05:00","2018","01","26","05:00"
"-93.58","69.55","TALOYOAK A","2403855","2018-01-26 06:00","2018","01","26","06:00"
"-93.58","69.55","TALOYOAK A","2403855","2018-01-26 07:00","2018","01","26","07:00"
"-93.58","69.55","TALOYOAK A","2403855","2018-01-26 08:00","2018","01","26","08:00"
"-93.58","69.55","TALOYOAK A","2403855","2018-01-26 09:00","2018","01","26","09:00","-21.3","","-24.3","","77","","","","30","","20","","24.1","","101.27","","","","-32","","Snow,Blowing Snow"
"-93.58","69.55","TALOYOAK A","2403855","2018-01-26 10:00","2018","01","26","10:00","-22.1","","-25.1","","77","","","","31","","28","","16.1","","101.26","","","","-35","","Snow,Blowing Snow"
"-93.58","69.55","TALOYOAK A","2403855","2018-01-26 11:00","2018","01","26","11:00","-22.9","","-26.1","","76","","","","31","","28","","24.1","","101.25","","","","-36","","Ice Crystals,Blowing Snow"
"-93.58","69.55","TALOYOAK A","2403855","2018-01-26 12:00","2018","01","26","12:00","-22.9","","-26.0","","76","","","","31","","33","","24.1","","101.25","","","","-37","","Ice Crystals,Blowing Snow"
"-93.58","69.55","TALOYOAK A","2403855","2018-01-26 13:00","2018","01","26","13:00","-22.5","","-25.6","","76","","","","32","","27","","24.1","","101.26","","","","-35","","Ice Crystals,Blowing Snow"
"-93.58","69.55","TALOYOAK A","2403855","2018-01-26 14:00","2018","01","26","14:00","-20.6","","-23.5","","78","","","","33","","4","","12.9","","101.32","","","","-24","","Snow"
"-93.58","69.55","TALOYOAK A","2403855","2018-01-26 15:00","2018","01","26","15:00","-19.8","","-22.7","","78","","","","28","","9","","9.7","","101.29","","","","-27","","Snow"
"-93.58","69.55","TALOYOAK A","2403855","2018-01-26 16:00","2018","01","26","16:00","-19.9","","-22.8","","78","","","","27","","9","","9.7","","101.27","","","","-27","","Snow"
"-93.58","69.55","TALOYOAK A","2403855","2018-01-26 17:00","2018","01","26","17:00","-20.9","","-23.9","","78","","","","31","","15","","6.4","","101.23","","","","-30","","Snow,Fog,Blowing Snow"
"-93.58","69.55","TALOYOAK A","2403855","2018-01-26 18:00","2018","01","26","18:00","-21.5","","-24.5","","77","","","","31","","14","","6.4","","101.17","","","","-31","","Snow,Fog"
"-93.58","69.55","TALOYOAK A","2403855","2018-01-26 19:00","2018","01","26","19:00","-21.0","","-23.9","","78","","","","32","","22","","9.7","","101.14","","","","-32","","Snow,Fog"
"-93.58","69.55","TALOYOAK A","2403855","2018-01-26 20:00","2018","01","26","20:00","-21.0","","-24.0","","77","","","","29","","25","","9.7","","101.10","","","","-33","","Snow,Fog,Blowing Snow"
"-93.58","69.55","TALOYOAK A","2403855","2018-01-26 21:00","2018","01","26","21:00"
"-93.58","69.55","TALOYOAK A","2403855","2018-01-26 22:00","2018","01","26","22:00"
"-93.58","69.55","TALOYOAK A","2403855","2018-01-26 23:00","2018","01","26","23:00"
"-93.58","69.55","TALOYOAK A","2403855","2018-01-27 00:00","2018","01","27","00:00"
"-93.58","69.55","TALOYOAK A","2403855","2018-01-27 01:00","2018","01","27","01:00"
"-93.58","69.55","TALOYOAK A","2403855","2018-01-27 02:00","2018","01","27","02:00"
"-93.58","69.55","TALOYOAK A","2403855","2018-01-27 03:00","2018","01","27","03:00"
"-93.58","69.55","TALOYOAK A","2403855","2018-01-27 04:00","2018","01","27","04:00"
"-93.58","69.55","TALOYOAK A","2403855","2018-01-27 05:00","2018","01","27","05:00"
"-93.58","69.55","TALOYOAK A","2403855","2018-01-27 06:00","2018","01","27","06:00"
"-93.58","69.55","TALOYOAK A","2403855","2018-01-27 07:00","2018","01","27","07:00"
"-93.58","69.55","TALOYOAK A","2403855","2018-01-27 08:00","2018","01","27","08:00"
"-93.58","69.55","TALOYOAK A","2403855","2018-01-27 09:00","2018","01","27","09:00","-22.3","","-25.4","","76","","","","33","","33","","24.1","","100.88","","","","-36","","Blowing Snow"
"-93.58","69.55","TALOYOAK A","2403855","2018-01-27 10:00","2018","01","27","10:00","-24.3","","-27.6","","75","","","","34","","26","","24.1","","100.92","","","","-37","","Blowing Snow"
"-93.58","69.55","TALOYOAK A","2403855","2018-01-27 11:00","2018","01","27","11:00","-24.8","","-28.1","","74","","","","32","","24","","24.1","","100.92","","","","-38","","Blowing Snow"
"-93.58","69.55","TALOYOAK A","2403855","2018-01-27 12:00","2018","01","27","12:00","-22.9","","-26.0","","76","","","","32","","22","","24.1","","100.95","","","","-35","","Snow"
"-93.58","69.55","TALOYOAK A","2403855","2018-01-27 13:00","2018","01","27","13:00","-22.0","","-25.1","","76","","","","32","","28","","20.9","","100.94","","","","-35","","Snow"
"-93.58","69.55","TALOYOAK A","2403855","2018-01-27 14:00","2018","01","27","14:00","-21.8","","-24.8","","77","","","","32","","27","","19.3","","100.99","","","","-34","","Snow"
"-93.58","69.55","TALOYOAK A","2403855","2018-01-27 15:00","2018","01","27","15:00","-21.6","","-24.7","","77","","","","33","","22","","24.1","","101.04","","","","-33","","NA"
"-93.58","69.55","TALOYOAK A","2403855","2018-01-27 16:00","2018","01","27","16:00","-23.4","","-26.6","","75","","","","32","","30","","24.1","","101.04","","","","-37","","Blowing Snow"
"-93.58","69.55","TALOYOAK A","2403855","2018-01-27 17:00","2018","01","27","17:00","-25.2","","-28.7","","74","","","","31","","16","","24.1","","101.11","","","","-36","","Mainly Clear"
"-93.58","69.55","TALOYOAK A","2403855","2018-01-27 18:00","2018","01","27","18:00","-25.5","","-28.9","","74","","","","31","","27","","24.1","","101.11","","","","-39","","NA"
"-93.58","69.55","TALOYOAK A","2403855","2018-01-27 19:00","2018","01","27","19:00","-25.7","","-29.2","","73","","","","31","","25","","24.1","","101.14","","","","-39","","NA"
"-93.58","69.55","TALOYOAK A","2403855","2018-01-27 20:00","2018","01","27","20:00","-25.0","","-28.5","","73","","","","33","","34","","24.1","","101.16","","","","-40","","Blowing Snow"
"-93.58","69.55","TALOYOAK A","2403855","2018-01-27 21:00","2018","01","27","21:00"
"-93.58","69.55","TALOYOAK A","2403855","2018-01-27 22:00","2018","01","27","22:00"
"-93.58","69.55","TALOYOAK A","2403855","2018-01-27 23:00","2018","01","27","23:00"
"-93.58","69.55","TALOYOAK A","2403855","2018-01-28 00:00","2018","01","28","00:00"
"-93.58","69.55","TALOYOAK A","2403855","2018-01-28 01:00","2018","01","28","01:00"
"-93.58","69.55","TALOYOAK A","2403855","2018-01-28 02:00","2018","01","28","02:00"
"-93.58","69.55","TALOYOAK A","2403855","2018-01-28 03:00","2018","01","28","03:00"
"-93.58","69.55","TALOYOAK A","2403855","2018-01-28 04:00","2018","01","28","04:00"
"-93.58","69.55","TALOYOAK A","2403855","2018-01-28 05:00","2018","01","28","05:00"
"-93.58","69.55","TALOYOAK A","2403855","2018-01-28 06:00","2018","01","28","06:00"
"-93.58","69.55","TALOYOAK A","2403855","2018-01-28 07:00","2018","01","28","07:00"
"-93.58","69.55","TALOYOAK A","2403855","2018-01-28 08:00","2018","01","28","08:00","-24.1","","-27.4","","75","","","","32","","37","","0.6","","101.24","","","","-39","","Snow,Blowing Snow"
"-93.58","69.55","TALOYOAK A","2403855","2018-01-28 09:00","2018","01","28","09:00","-23.8","","-27.1","","75","","","","30","","32","","0.4","","101.22","","","","-38","","Snow,Blowing Snow"
"-93.58","69.55","TALOYOAK A","2403855","2018-01-28 10:00","2018","01","28","10:00","-23.7","","-27.0","","75","","","","29","","23","","1.0","","101.18","","","","-36","","Snow,Blowing Snow"
"-93.58","69.55","TALOYOAK A","2403855","2018-01-28 11:00","2018","01","28","11:00","-23.5","","-26.8","","75","","","","26","","17","","1.2","","101.16","","","","-34","","Snow,Fog,Blowing Snow"
"-93.58","69.55","TALOYOAK A","2403855","2018-01-28 12:00","2018","01","28","12:00","-24.3","","-27.8","","73","","","","28","","17","","6.4","","101.12","","","","-35","","Snow,Fog"
"-93.58","69.55","TALOYOAK A","2403855","2018-01-28 13:00","2018","01","28","13:00","-25.0","","-28.6","","72","","","","23","","5","","4.0","","101.16","","","","-30","","Snow,Fog,Blowing Snow"
"-93.58","69.55","TALOYOAK A","2403855","2018-01-28 14:00","2018","01","28","14:00","-25.0","","-28.5","","73","","","","32","","29","","1.6","","101.20","","","","-39","","Snow,Blowing Snow"
"-93.58","69.55","TALOYOAK A","2403855","2018-01-28 15:00","2018","01","28","15:00","-25.6","","-29.2","","72","","","","31","","21","","3.2","","101.22","","","","-38","","Snow,Fog,Blowing Snow"
"-93.58","69.55","TALOYOAK A","2403855","2018-01-28 16:00","2018","01","28","16:00","-25.9","","-29.6","","72","","","","33","","23","","3.2","","101.22","","","","-39","","Snow,Fog,Blowing Snow"
"-93.58","69.55","TALOYOAK A","2403855","2018-01-28 17:00","2018","01","28","17:00","-26.8","","-30.7","","70","","","","30","","25","","3.2","","101.18","","","","-40","","Snow,Fog,Blowing Snow"
"-93.58","69.55","TALOYOAK A","2403855","2018-01-28 18:00","2018","01","28","18:00","-28.1","","-31.9","","70","","","","32","","34","","3.2","","101.13","","","","-44","","Snow,Blowing Snow"
"-93.58","69.55","TALOYOAK A","2403855","2018-01-28 19:00","2018","01","28","19:00","-28.1","","-31.9","","71","","","","32","","45","","3.2","","101.05","","","","-46","","Snow,Blowing Snow"
"-93.58","69.55","TALOYOAK A","2403855","2018-01-28 20:00","2018","01","28","20:00","-27.5","","-31.3","","70","","","","30","","13","","2.4","","101.12","","","","-38","","Snow,Blowing Snow"
"-93.58","69.55","TALOYOAK A","2403855","2018-01-28 21:00","2018","01","28","21:00","-27.6","","-31.4","","71","","","","31","","28","","16.1","","101.06","","","","-42","","Snow"
"-93.58","69.55","TALOYOAK A","2403855","2018-01-28 22:00","2018","01","28","22:00","-28.1","","-32.0","","70","","","","32","","43","","2.0","","100.99","","","","-45","","Snow,Blowing Snow"
"-93.58","69.55","TALOYOAK A","2403855","2018-01-28 23:00","2018","01","28","23:00","-28.9","","-32.9","","69","","","","31","","34","","4.8","","101.02","","","","-45","","Snow,Blowing Snow"
"-93.58","69.55","TALOYOAK A","2403855","2018-01-29 00:00","2018","01","29","00:00","-29.7","","-33.8","","68","","","","32","","25","","16.1","","101.08","","","","-44","","Ice Crystals,Blowing Snow"
"-93.58","69.55","TALOYOAK A","2403855","2018-01-29 01:00","2018","01","29","01:00","-30.4","","-34.6","","67","","","","31","","20","","24.1","","101.12","","","","-44","","Ice Crystals"
"-93.58","69.55","TALOYOAK A","2403855","2018-01-29 02:00","2018","01","29","02:00","-29.8","","-34.2","","66","","","","34","","13","","24.1","","101.15","","","","-40","","Ice Crystals"
"-93.58","69.55","TALOYOAK A","2403855","2018-01-29 03:00","2018","01","29","03:00","-30.6","","-35.0","","66","","","","35","","11","","24.1","","101.16","","","","-40","","Ice Crystals"
"-93.58","69.55","TALOYOAK A","2403855","2018-01-29 04:00","2018","01","29","04:00","-31.1","","-35.5","","66","","","","33","","23","","24.1","","101.16","","","","-45","","Ice Crystals"
"-93.58","69.55","TALOYOAK A","2403855","2018-01-29 05:00","2018","01","29","05:00","-29.5","","-33.9","","67","","","","34","","35","","24.1","","101.15","","","","-46","","Ice Crystals"
"-93.58","69.55","TALOYOAK A","2403855","2018-01-29 06:00","2018","01","29","06:00","-30.6","","-35.1","","66","","","","33","","25","","24.1","","101.24","","","","-45","","Ice Crystals"
"-93.58","69.55","TALOYOAK A","2403855","2018-01-29 07:00","2018","01","29","07:00","-31.3","","-35.9","","65","","","","36","","8","","24.1","","101.29","","","","-40","","NA"
"-93.58","69.55","TALOYOAK A","2403855","2018-01-29 08:00","2018","01","29","08:00","-32.4","","-37.1","","64","","","","35","","14","","24.1","","101.31","","","","-44","","Clear"
"-93.58","69.55","TALOYOAK A","2403855","2018-01-29 09:00","2018","01","29","09:00","-32.0","","-36.6","","65","","","","32","","18","","24.1","","101.32","","","","-45","","NA"
"-93.58","69.55","TALOYOAK A","2403855","2018-01-29 10:00","2018","01","29","10:00","-31.4","","-36.0","","65","","","","32","","23","","24.1","","101.31","","","","-46","","NA"
"-93.58","69.55","TALOYOAK A","2403855","2018-01-29 11:00","2018","01","29","11:00","-31.8","","-36.5","","64","","","","31","","25","","24.1","","101.31","","","","-47","","Mainly Clear"
"-93.58","69.55","TALOYOAK A","2403855","2018-01-29 12:00","2018","01","29","12:00","-33.1","","-37.7","","65","","","","36","","10","","24.1","","101.32","","","","-43","","NA"
"-93.58","69.55","TALOYOAK A","2403855","2018-01-29 13:00","2018","01","29","13:00","-32.2","","-36.7","","65","","","","35","","14","","24.1","","101.33","","","","-44","","NA"
"-93.58","69.55","TALOYOAK A","2403855","2018-01-29 14:00","2018","01","29","14:00","-31.9","","-36.3","","66","","","","22","","3","","24.1","","101.33","","","","-35","","Mainly Clear"
"-93.58","69.55","TALOYOAK A","2403855","2018-01-29 15:00","2018","01","29","15:00","-34.2","","-38.5","","66","","","","17","","9","","24.1","","101.35","","","","-44","","NA"
"-93.58","69.55","TALOYOAK A","2403855","2018-01-29 16:00","2018","01","29","16:00","-35.5","","-39.6","","67","","","","18","","9","","24.1","","101.33","","","","-45","","NA"
"-93.58","69.55","TALOYOAK A","2403855","2018-01-29 17:00","2018","01","29","17:00","-35.1","","-39.1","","68","","","","15","","9","","24.1","","101.34","","","","-45","","Mainly Clear"
"-93.58","69.55","TALOYOAK A","2403855","2018-01-29 18:00","2018","01","29","18:00","-36.2","","-40.3","","67","","","","20","","5","","12.9","","101.28","","","","-43","","Snow Showers"
"-93.58","69.55","TALOYOAK A","2403855","2018-01-29 19:00","2018","01","29","19:00","-35.1","","-39.2","","67","","","","19","","8","","4.8","","101.24","","","","-44","","Snow,Fog"
"-93.58","69.55","TALOYOAK A","2403855","2018-01-29 20:00","2018","01","29","20:00","-34.6","","-38.6","","68","","","","21","","6","","4.8","","101.20","","","","-42","","Snow,Fog"
"-93.58","69.55","TALOYOAK A","2403855","2018-01-29 21:00","2018","01","29","21:00","-31.8","","-36.1","","67","","","","30","","22","","16.1","","101.13","","","","-46","","Snow"
"-93.58","69.55","TALOYOAK A","2403855","2018-01-29 22:00","2018","01","29","22:00","-32.4","","-36.5","","67","","","","33","","19","","16.1","","101.13","","","","-46","","Ice Crystals"
"-93.58","69.55","TALOYOAK A","2403855","2018-01-29 23:00","2018","01","29","23:00","-33.2","","-37.2","","68","","","","35","","9","","16.1","","101.14","","","","-42","","Ice Crystals"
"-93.58","69.55","TALOYOAK A","2403855","2018-01-30 00:00","2018","01","30","00:00","-33.9","","-37.7","","69","","","","13","","3","","16.1","","101.15","","","","-38","","Ice Crystals"
"-93.58","69.55","TALOYOAK A","2403855","2018-01-30 01:00","2018","01","30","01:00","-36.0","","-40.0","","68","","","","35","","7","","16.1","","101.17","","","","-44","","Ice Crystals"
"-93.58","69.55","TALOYOAK A","2403855","2018-01-30 02:00","2018","01","30","02:00","-35.8","","-39.8","","68","","","","36","","3","","16.1","","101.21","","","","-40","","Snow"
"-93.58","69.55","TALOYOAK A","2403855","2018-01-30 03:00","2018","01","30","03:00","-36.9","","-41.0","","66","","","","2","","14","","16.1","","101.25","","","","-49","","Snow"
"-93.58","69.55","TALOYOAK A","2403855","2018-01-30 04:00","2018","01","30","04:00","-36.3","","-40.5","","66","","","","3","","12","","16.1","","101.25","","","","-48","","Snow"
"-93.58","69.55","TALOYOAK A","2403855","2018-01-30 05:00","2018","01","30","05:00","-38.4","","-42.7","","65","","","","2","","10","","24.1","","101.24","","","","-49","","Ice Crystals"
"-93.58","69.55","TALOYOAK A","2403855","2018-01-30 06:00","2018","01","30","06:00","-38.4","","-42.5","","66","","","","2","","10","","24.1","","101.26","","","","-49","","Ice Crystals"
"-93.58","69.55","TALOYOAK A","2403855","2018-01-30 07:00","2018","01","30","07:00","-38.7","","-42.9","","66","","","","36","","1","","24.1","","101.30","","","","-40","","Ice Crystals"
"-93.58","69.55","TALOYOAK A","2403855","2018-01-30 08:00","2018","01","30","08:00","-36.5","","-40.5","","68","","","","2","","14","","24.1","","101.32","","","","-49","","Ice Crystals"
"-93.58","69.55","TALOYOAK A","2403855","2018-01-30 09:00","2018","01","30","09:00","-37.2","","-41.2","","67","","","","36","","1","","24.1","","101.36","","","","-39","","Ice Crystals"
"-93.58","69.55","TALOYOAK A","2403855","2018-01-30 10:00","2018","01","30","10:00","-37.7","","-41.8","","66","","","","13","","5","","24.1","","101.41","","","","-44","","Ice Crystals"
"-93.58","69.55","TALOYOAK A","2403855","2018-01-30 11:00","2018","01","30","11:00","-37.1","","-41.2","","67","","","","36","","3","","24.1","","101.43","","","","-41","","Ice Crystals"
"-93.58","69.55","TALOYOAK A","2403855","2018-01-30 12:00","2018","01","30","12:00","-39.0","","-43.2","","65","","","","35","","7","","24.1","","101.44","","","","-48","","Ice Crystals"
"-93.58","69.55","TALOYOAK A","2403855","2018-01-30 13:00","2018","01","30","13:00","-39.2","","-43.3","","66","","","","1","","8","","24.1","","101.49","","","","-49","","Ice Crystals"
"-93.58","69.55","TALOYOAK A","2403855","2018-01-30 14:00","2018","01","30","14:00","-38.0","","-42.3","","66","","","","12","","8","","6.4","","101.55","","","","-47","","Snow,Fog"
"-93.58","69.55","TALOYOAK A","2403855","2018-01-30 15:00","2018","01","30","15:00","-38.3","","-42.6","","65","","","","13","","7","","24.1","","101.60","","","","-47","","Ice Crystals"
"-93.58","69.55","TALOYOAK A","2403855","2018-01-30 16:00","2018","01","30","16:00","-38.7","","-42.9","","65","","","","31","","3","","24.1","","101.64","","","","-43","","Ice Crystals"
"-93.58","69.55","TALOYOAK A","2403855","2018-01-30 17:00","2018","01","30","17:00","-39.7","","-44.0","","65","","","","19","","6","","24.1","","101.70","","","","-48","","Ice Crystals"
"-93.58","69.55","TALOYOAK A","2403855","2018-01-30 18:00","2018","01","30","18:00","-38.6","","-42.9","","65","","","","36","","1","","16.1","","101.73","","","","-40","","Ice Crystals"
"-93.58","69.55","TALOYOAK A","2403855","2018-01-30 19:00","2018","01","30","19:00","-40.5","","-44.9","","64","","","","0","","1","","16.1","","101.79","","","","-42","","Ice Crystals"
"-93.58","69.55","TALOYOAK A","2403855","2018-01-30 20:00","2018","01","30","20:00","-39.3","","-43.6","","65","","","","1","","6","","24.1","","101.82","","","","-47","","Ice Crystals"
"-93.58","69.55","TALOYOAK A","2403855","2018-01-30 21:00","2018","01","30","21:00","-40.7","","-45.1","","64","","","","2","","5","","24.1","","101.86","","","","-48","","Ice Crystals"
"-93.58","69.55","TALOYOAK A","2403855","2018-01-30 22:00","2018","01","30","22:00","-41.6","","-46.0","","63","","","","12","","8","","16.1","","101.89","","","","-52","","Ice Crystals"
"-93.58","69.55","TALOYOAK A","2403855","2018-01-30 23:00","2018","01","30","23:00","-40.8","","-45.2","","64","","","","8","","4","","16.1","","101.92","","","","-46","","Ice Crystals"
"-93.58","69.55","TALOYOAK A","2403855","2018-01-31 00:00","2018","01","31","00:00","-41.5","","-45.9","","64","","","","3","","9","","16.1","","101.94","","","","-52","","Ice Crystals"
"-93.58","69.55","TALOYOAK A","2403855","2018-01-31 01:00","2018","01","31","01:00","-39.3","","-43.6","","65","","","","1","","15","","24.1","","102.00","","","","-53","","Ice Crystals"
"-93.58","69.55","TALOYOAK A","2403855","2018-01-31 02:00","2018","01","31","02:00","-39.7","","-44.1","","64","","","","4","","3","","4.8","","102.07","","","","-44","","Fog"
"-93.58","69.55","TALOYOAK A","2403855","2018-01-31 03:00","2018","01","31","03:00","-40.7","","-45.1","","64","","","","8","","4","","4.8","","102.10","","","","-46","","Ice Crystals,Fog"
"-93.58","69.55","TALOYOAK A","2403855","2018-01-31 04:00","2018","01","31","04:00","-41.5","","-45.9","","63","","","","36","","2","","4.8","","102.12","","","","-44","","Ice Crystals,Fog"
"-93.58","69.55","TALOYOAK A","2403855","2018-01-31 05:00","2018","01","31","05:00","-41.8","","-46.3","","63","","","","36","","11","","4.8","","102.16","","","","-54","","Ice Crystals,Fog"
"-93.58","69.55","TALOYOAK A","2403855","2018-01-31 06:00","2018","01","31","06:00","-40.7","","-45.1","","64","","","","35","","4","","4.8","","102.17","","","","-46","","Ice Crystals,Fog"
"-93.58","69.55","TALOYOAK A","2403855","2018-01-31 07:00","2018","01","31","07:00","-40.5","","-45.0","","63","","","","36","","2","","24.1","","102.19","","","","-43","","Ice Crystals"
"-93.58","69.55","TALOYOAK A","2403855","2018-01-31 08:00","2018","01","31","08:00","-41.8","","-46.3","","63","","","","36","","2","","16.1","","102.22","","","","-45","","Ice Crystals"
"-93.58","69.55","TALOYOAK A","2403855","2018-01-31 09:00","2018","01","31","09:00","-41.6","","-46.2","","63","","","","36","","3","","16.1","","102.22","","","","-46","","Ice Crystals"
"-93.58","69.55","TALOYOAK A","2403855","2018-01-31 10:00","2018","01","31","10:00","-41.4","","-46.0","","63","","","","2","","8","","9.7","","102.26","","","","-51","","Snow"
"-93.58","69.55","TALOYOAK A","2403855","2018-01-31 11:00","2018","01","31","11:00","-40.0","","-44.5","","63","","","","5","","5","","9.7","","102.25","","","","-47","","Ice Crystals"
"-93.58","69.55","TALOYOAK A","2403855","2018-01-31 12:00","2018","01","31","12:00","-41.1","","-45.7","","63","","","","1","","6","","9.7","","102.25","","","","-49","","Fog"
"-93.58","69.55","TALOYOAK A","2403855","2018-01-31 13:00","2018","01","31","13:00","-41.6","","-46.2","","62","","","","36","","2","","9.7","","102.27","","","","-44","","Fog"
"-93.58","69.55","TALOYOAK A","2403855","2018-01-31 14:00","2018","01","31","14:00","-41.2","","-45.8","","63","","","","16","","5","","9.7","","102.27","","","","-48","","Fog"
"-93.58","69.55","TALOYOAK A","2403855","2018-01-31 15:00","2018","01","31","15:00","-41.9","","-46.5","","62","","","","3","","11","","9.7","","102.28","","","","-54","","Ice Crystals,Fog"
"-93.58","69.55","TALOYOAK A","2403855","2018-01-31 16:00","2018","01","31","16:00","-41.0","","-45.5","","63","","","","1","","12","","24.1","","102.24","","","","-53","","Ice Crystals,Fog"
"-93.58","69.55","TALOYOAK A","2403855","2018-01-31 17:00","2018","01","31","17:00","-41.0","","-45.5","","63","","","","3","","10","","16.1","","102.23","","","","-52","","Ice Crystals,Fog"
"-93.58","69.55","TALOYOAK A","2403855","2018-01-31 18:00","2018","01","31","18:00","-41.0","","-45.6","","63","","","","3","","13","","16.1","","102.21","","","","-54","","Ice Crystals,Fog"
"-93.58","69.55","TALOYOAK A","2403855","2018-01-31 19:00","2018","01","31","19:00","-41.4","","-46.0","","63","","","","36","","2","","16.1","","102.18","","","","-44","","Snow,Fog"
"-93.58","69.55","TALOYOAK A","2403855","2018-01-31 20:00","2018","01","31","20:00","-41.1","","-45.6","","63","","","","1","","9","","16.1","","102.12","","","","-52","","Snow,Fog"
"-93.58","69.55","TALOYOAK A","2403855","2018-01-31 21:00","2018","01","31","21:00","-40.5","","-45.0","","63","","","","1","","9","","16.1","","102.08","","","","-51","","Snow"
"-93.58","69.55","TALOYOAK A","2403855","2018-01-31 22:00","2018","01","31","22:00","-39.5","","-44.0","","63","","","","1","","14","","16.1","","101.99","","","","-53","","Snow"
"-93.58","69.55","TALOYOAK A","2403855","2018-01-31 23:00","2018","01","31","23:00","-38.3","","-42.8","","64","","","","2","","12","","16.1","","101.93","","","","-50","","Snow"
