"Longitude (x)","Latitude (y)","Station Name","Climate ID","Date/Time (LST)","Year","Month","Day","Time (LST)","Temp (°C)","Temp Flag","Dew Point Temp (°C)","Dew Point Temp Flag","Rel Hum (%)","Rel Hum Flag","Precip. Amount (mm)","Precip. Amount Flag","Wind Dir (10s deg)","Wind Dir Flag","Wind Spd (km/h)","Wind Spd Flag","Visibility (km)","Visibility Flag","Stn Press (kPa)","Stn Press Flag","Hmdx","Hmdx Flag","Wind Chill","Wind Chill Flag","Weather"
"-93.58","69.55","TALOYOAK A","2403855","2019-01-01 00:00","2019","01","01","00:00","-37.3","","-41.8","","64","","","","15","","14","","24.1","","101.06","","","","-50","","Ice Crystals"
"-93.58","69.55","TALOYOAK A","2403855","2019-01-01 01:00","2019","01","01","01:00","-37.1","","-41.6","","64","","","","16","","9","","24.1","","101.01","","","","-47","","Ice Crystals"
"-93.58","69.55","TALOYOAK A","2403855","2019-01-01 02:00","2019","01","01","02:00","-37.4","","-41.9","","64","","","","20","","7","","24.1","","100.96","","","","-46","","Ice Crystals"
"-93.58","69.55","TALOYOAK A","2403855","2019-01-01 03:00","2019","01","01","03:00","-37.2","","-41.7","","64","","","","17","","6","","24.1","","100.94","","","","-45","","Ice Crystals"
"-93.58","69.55","TALOYOAK A","2403855","2019-01-01 04:00","2019","01","01","04:00","-37.4","","-41.9","","64","","","","19","","6","","24.1","","100.87","","","","-45","","Ice Crystals"
"-93.58","69.55","TALOYOAK A","2403855","2019-01-01 05:00","2019","01","01","05:00","-37.9","","-42.4","","64","","","","29","","4","","24.1","","100.83","","","","-43","","Ice Crystals"
"-93.58","69.55","TALOYOAK A","2403855","2019-01-01 06:00","2019","01","01","06:00","-37.8","","-42.3","","64","","","","8","","4","","24.1","","100.77","","","","-43","","Ice Crystals"
"-93.58","69.55","TALOYOAK A","2403855","2019-01-01 07:00","2019","01","01","07:00","-37.4","","-41.9","","64","","","","8","","10","","24.1","","100.73","","","","-48","","Ice Crystals"
"-93.58","69.55","TALOYOAK A","2403855","2019-01-01 08:00","2019","01","01","08:00","-39.8","","-44.4","","63","","","","1","","6","","24.1","","100.69","","","","-48","","Ice Crystals"
"-93.58","69.55","TALOYOAK A","2403855","2019-01-01 09:00","2019","01","01","09:00","-38.7","","-43.2","","63","","","","36","","9","","24.1","","100.61","","","","-49","","Ice Crystals"
"-93.58","69.55","TALOYOAK A","2403855","2019-01-01 10:00","2019","01","01","10:00","-37.5","","-42.0","","64","","","","5","","8","","24.1","","100.58","","","","-47","","Ice Crystals"
"-93.58","69.55","TALOYOAK A","2403855","2019-01-01 11:00","2019","01","01","11:00","-37.4","","-41.9","","64","","","","2","","12","","24.1","","100.54","","","","-49","","Ice Crystals"
"-93.58","69.55","TALOYOAK A","2403855","2019-01-01 12:00","2019","01","01","12:00","-38.3","","-42.8","","63","","","","2","","9","","24.1","","100.51","","","","-48","","Ice Crystals"
"-93.58","69.55","TALOYOAK A","2403855","2019-01-01 13:00","2019","01","01","13:00","-39.1","","-43.6","","63","","","","36","","12","","24.1","","100.47","","","","-51","","Ice Crystals"
"-93.58","69.55","TALOYOAK A","2403855","2019-01-01 14:00","2019","01","01","14:00","-37.0","","-41.5","","64","","","","5","","8","","24.1","","100.40","","","","-46","","Clear"
"-93.58","69.55","TALOYOAK A","2403855","2019-01-01 15:00","2019","01","01","15:00","-36.8","","-41.2","","64","","","","7","","5","","24.1","","100.42","","","","-43","","Ice Crystals"
"-93.58","69.55","TALOYOAK A","2403855","2019-01-01 16:00","2019","01","01","16:00","-38.0","","-42.5","","64","","","","11","","7","","24.1","","100.40","","","","-47","","Ice Crystals"
"-93.58","69.55","TALOYOAK A","2403855","2019-01-01 17:00","2019","01","01","17:00","-34.9","","-39.3","","65","","","","11","","7","","24.1","","100.36","","","","-43","","Ice Crystals"
"-93.58","69.55","TALOYOAK A","2403855","2019-01-01 18:00","2019","01","01","18:00","-38.6","","-43.1","","63","","","","36","","6","","24.1","","100.30","","","","-46","","Ice Crystals"
"-93.58","69.55","TALOYOAK A","2403855","2019-01-01 19:00","2019","01","01","19:00"
"-93.58","69.55","TALOYOAK A","2403855","2019-01-01 20:00","2019","01","01","20:00"
"-93.58","69.55","TALOYOAK A","2403855","2019-01-01 21:00","2019","01","01","21:00","-36.9","","-41.4","","64","","","","36","","2","","24.1","","100.23","","","","-40","","Ice Crystals"
"-93.58","69.55","TALOYOAK A","2403855","2019-01-01 22:00","2019","01","01","22:00","-36.6","","-41.0","","64","","","","15","","5","","24.1","","100.20","","","","-43","","Ice Crystals"
"-93.58","69.55","TALOYOAK A","2403855","2019-01-01 23:00","2019","01","01","23:00","-37.2","","-41.7","","64","","","","15","","8","","24.1","","100.16","","","","-46","","Ice Crystals"
"-93.58","69.55","TALOYOAK A","2403855","2019-01-02 00:00","2019","01","02","00:00","-37.1","","-41.5","","64","","","","36","","2","","24.1","","100.15","","","","-40","","Ice Crystals"
"-93.58","69.55","TALOYOAK A","2403855","2019-01-02 01:00","2019","01","02","01:00","-35.9","","-40.3","","65","","","","21","","5","","24.1","","100.16","","","","-42","","Ice Crystals"
"-93.58","69.55","TALOYOAK A","2403855","2019-01-02 02:00","2019","01","02","02:00","-36.5","","-40.9","","64","","","","20","","6","","24.1","","100.14","","","","-44","","Ice Crystals"
"-93.58","69.55","TALOYOAK A","2403855","2019-01-02 03:00","2019","01","02","03:00","-36.2","","-40.6","","65","","","","18","","4","","24.1","","100.13","","","","-41","","Ice Crystals"
"-93.58","69.55","TALOYOAK A","2403855","2019-01-02 04:00","2019","01","02","04:00","-36.3","","-40.7","","65","","","","22","","6","","24.1","","100.14","","","","-44","","Ice Crystals"
"-93.58","69.55","TALOYOAK A","2403855","2019-01-02 05:00","2019","01","02","05:00","-36.9","","-41.3","","64","","","","17","","7","","24.1","","100.11","","","","-45","","Ice Crystals"
"-93.58","69.55","TALOYOAK A","2403855","2019-01-02 06:00","2019","01","02","06:00","-36.3","","-40.7","","65","","","","20","","7","","24.1","","100.12","","","","-45","","Ice Crystals"
"-93.58","69.55","TALOYOAK A","2403855","2019-01-02 07:00","2019","01","02","07:00","-36.7","","-41.2","","64","","","","18","","6","","24.1","","100.12","","","","-44","","Ice Crystals"
"-93.58","69.55","TALOYOAK A","2403855","2019-01-02 08:00","2019","01","02","08:00","-36.9","","-41.3","","64","","","","19","","5","","24.1","","100.11","","","","-43","","Ice Crystals"
"-93.58","69.55","TALOYOAK A","2403855","2019-01-02 09:00","2019","01","02","09:00","-36.8","","-41.3","","64","","","","20","","4","","24.1","","100.08","","","","-42","","Ice Crystals"
"-93.58","69.55","TALOYOAK A","2403855","2019-01-02 10:00","2019","01","02","10:00","-36.9","","-41.4","","64","","","","35","","6","","24.1","","100.05","","","","-44","","Ice Crystals"
"-93.58","69.55","TALOYOAK A","2403855","2019-01-02 11:00","2019","01","02","11:00","-37.2","","-41.7","","64","","","","1","","7","","24.1","","100.03","","","","-46","","Ice Crystals"
"-93.58","69.55","TALOYOAK A","2403855","2019-01-02 12:00","2019","01","02","12:00","-35.8","","-40.2","","65","","","","7","","5","","24.1","","100.04","","","","-42","","Ice Crystals"
"-93.58","69.55","TALOYOAK A","2403855","2019-01-02 13:00","2019","01","02","13:00","-35.3","","-39.7","","65","","","","36","","2","","24.1","","100.07","","","","-38","","NA"
"-93.58","69.55","TALOYOAK A","2403855","2019-01-02 14:00","2019","01","02","14:00","-35.6","","-40.0","","65","","","","2","","5","","24.1","","100.06","","","","-42","","Mainly Clear"
"-93.58","69.55","TALOYOAK A","2403855","2019-01-02 15:00","2019","01","02","15:00","-35.5","","-39.9","","65","","","","5","","9","","24.1","","100.04","","","","-45","","NA"
"-93.58","69.55","TALOYOAK A","2403855","2019-01-02 16:00","2019","01","02","16:00","-32.3","","-36.5","","67","","","","7","","14","","24.1","","100.00","","","","-44","","NA"
"-93.58","69.55","TALOYOAK A","2403855","2019-01-02 17:00","2019","01","02","17:00","-33.1","","-37.4","","66","","","","4","","13","","24.1","","99.97","","","","-44","","Mainly Clear"
"-93.58","69.55","TALOYOAK A","2403855","2019-01-02 18:00","2019","01","02","18:00","-33.8","","-38.1","","66","","","","2","","16","","24.1","","99.90","","","","-46","","NA"
"-93.58","69.55","TALOYOAK A","2403855","2019-01-02 19:00","2019","01","02","19:00","-34.8","","-39.2","","65","","","","2","","20","","24.1","","99.88","","","","-49","","NA"
"-93.58","69.55","TALOYOAK A","2403855","2019-01-02 20:00","2019","01","02","20:00","-34.2","","-38.5","","66","","","","2","","16","","24.1","","99.88","","","","-47","","Clear"
"-93.58","69.55","TALOYOAK A","2403855","2019-01-02 21:00","2019","01","02","21:00","-34.4","","-38.8","","66","","","","2","","22","","24.1","","99.87","","","","-49","","Ice Crystals"
"-93.58","69.55","TALOYOAK A","2403855","2019-01-02 22:00","2019","01","02","22:00","-33.1","","-37.4","","66","","","","2","","21","","24.1","","99.87","","","","-47","","Ice Crystals"
"-93.58","69.55","TALOYOAK A","2403855","2019-01-02 23:00","2019","01","02","23:00","-31.4","","-35.6","","67","","","","3","","23","","24.1","","99.84","","","","-46","","Ice Crystals"
"-93.58","69.55","TALOYOAK A","2403855","2019-01-03 00:00","2019","01","03","00:00","-30.2","","-34.3","","68","","","","2","","19","","24.1","","99.81","","","","-43","","Ice Crystals"
"-93.58","69.55","TALOYOAK A","2403855","2019-01-03 01:00","2019","01","03","01:00","-29.0","","-33.0","","69","","","","3","","22","","24.1","","99.77","","","","-42","","Ice Crystals"
"-93.58","69.55","TALOYOAK A","2403855","2019-01-03 02:00","2019","01","03","02:00","-29.0","","-33.0","","69","","","","4","","22","","24.1","","99.77","","","","-42","","Ice Crystals"
"-93.58","69.55","TALOYOAK A","2403855","2019-01-03 03:00","2019","01","03","03:00","-29.5","","-33.5","","69","","","","5","","22","","24.1","","99.77","","","","-43","","Ice Crystals"
"-93.58","69.55","TALOYOAK A","2403855","2019-01-03 04:00","2019","01","03","04:00","-29.3","","-33.3","","69","","","","6","","32","","24.1","","99.72","","","","-45","","Ice Crystals"
"-93.58","69.55","TALOYOAK A","2403855","2019-01-03 05:00","2019","01","03","05:00","-29.6","","-33.6","","69","","","","5","","35","","24.1","","99.70","","","","-46","","Ice Crystals,Blowing Snow"
"-93.58","69.55","TALOYOAK A","2403855","2019-01-03 06:00","2019","01","03","06:00","-29.8","","-33.9","","69","","","","5","","34","","24.1","","99.73","","","","-46","","Ice Crystals,Blowing Snow"
"-93.58","69.55","TALOYOAK A","2403855","2019-01-03 07:00","2019","01","03","07:00","-28.4","","-32.4","","70","","","","5","","29","","24.1","","99.75","","","","-43","","Ice Crystals,Blowing Snow"
"-93.58","69.55","TALOYOAK A","2403855","2019-01-03 08:00","2019","01","03","08:00","-27.4","","-31.3","","70","","","","5","","24","","2.0","","99.77","","","","-41","","Ice Crystals,Fog,Blowing Snow"
"-93.58","69.55","TALOYOAK A","2403855","2019-01-03 09:00","2019","01","03","09:00","-26.2","","-30.0","","71","","","","5","","21","","2.0","","99.80","","","","-39","","Ice Crystals,Fog"
"-93.58","69.55","TALOYOAK A","2403855","2019-01-03 10:00","2019","01","03","10:00","-29.8","","-33.9","","69","","","","1","","11","","9.7","","99.82","","","","-39","","Ice Crystals,Fog"
"-93.58","69.55","TALOYOAK A","2403855","2019-01-03 11:00","2019","01","03","11:00","-27.2","","-31.0","","71","","","","5","","19","","9.7","","99.87","","","","-39","","Ice Crystals,Fog"
"-93.58","69.55","TALOYOAK A","2403855","2019-01-03 12:00","2019","01","03","12:00","-28.3","","-32.2","","70","","","","5","","17","","3.2","","99.89","","","","-40","","Ice Crystals,Fog"
"-93.58","69.55","TALOYOAK A","2403855","2019-01-03 13:00","2019","01","03","13:00","-28.6","","-32.5","","70","","","","5","","23","","16.1","","99.89","","","","-42","","Ice Crystals,Fog"
"-93.58","69.55","TALOYOAK A","2403855","2019-01-03 14:00","2019","01","03","14:00","-29.2","","-33.1","","69","","","","5","","25","","16.1","","99.90","","","","-43","","Ice Crystals,Fog"
"-93.58","69.55","TALOYOAK A","2403855","2019-01-03 15:00","2019","01","03","15:00","-29.3","","-33.2","","69","","","","5","","22","","16.1","","99.94","","","","-43","","Ice Crystals,Fog"
"-93.58","69.55","TALOYOAK A","2403855","2019-01-03 16:00","2019","01","03","16:00","-28.8","","-32.7","","70","","","","5","","23","","9.7","","99.96","","","","-42","","Ice Crystals,Fog"
"-93.58","69.55","TALOYOAK A","2403855","2019-01-03 17:00","2019","01","03","17:00","-29.2","","-33.2","","69","","","","4","","21","","3.2","","99.97","","","","-42","","Ice Crystals,Fog"
"-93.58","69.55","TALOYOAK A","2403855","2019-01-03 18:00","2019","01","03","18:00","-28.9","","-32.9","","70","","","","5","","26","","4.8","","99.98","","","","-43","","Ice Crystals,Fog,Blowing Snow"
"-93.58","69.55","TALOYOAK A","2403855","2019-01-03 19:00","2019","01","03","19:00","-30.1","","-34.1","","69","","","","3","","15","","1.6","","100.01","","","","-42","","Ice Crystals,Fog"
"-93.58","69.55","TALOYOAK A","2403855","2019-01-03 20:00","2019","01","03","20:00","-29.9","","-33.9","","69","","","","3","","16","","3.2","","100.03","","","","-42","","Ice Crystals,Fog"
"-93.58","69.55","TALOYOAK A","2403855","2019-01-03 21:00","2019","01","03","21:00","-29.5","","-33.5","","69","","","","1","","15","","6.4","","100.02","","","","-41","","Ice Crystals"
"-93.58","69.55","TALOYOAK A","2403855","2019-01-03 22:00","2019","01","03","22:00","-30.4","","-34.5","","69","","","","2","","15","","6.4","","100.02","","","","-42","","Ice Crystals,Fog"
"-93.58","69.55","TALOYOAK A","2403855","2019-01-03 23:00","2019","01","03","23:00","-31.3","","-35.4","","68","","","","2","","15","","6.4","","100.03","","","","-43","","Ice Crystals,Fog"
"-93.58","69.55","TALOYOAK A","2403855","2019-01-04 00:00","2019","01","04","00:00","-30.8","","-34.9","","68","","","","3","","17","","9.7","","100.01","","","","-43","","Ice Crystals,Fog"
"-93.58","69.55","TALOYOAK A","2403855","2019-01-04 01:00","2019","01","04","01:00","-30.7","","-34.8","","68","","","","1","","16","","9.7","","100.00","","","","-43","","Ice Crystals,Fog"
"-93.58","69.55","TALOYOAK A","2403855","2019-01-04 02:00","2019","01","04","02:00","-28.2","","-32.1","","70","","","","1","","14","","6.4","","99.98","","","","-39","","Ice Crystals,Fog"
"-93.58","69.55","TALOYOAK A","2403855","2019-01-04 03:00","2019","01","04","03:00","-28.2","","-32.1","","70","","","","34","","12","","6.4","","99.93","","","","-38","","Ice Crystals,Fog"
"-93.58","69.55","TALOYOAK A","2403855","2019-01-04 04:00","2019","01","04","04:00","-30.0","","-34.0","","69","","","","34","","14","","9.7","","99.89","","","","-41","","Ice Crystals,Fog"
"-93.58","69.55","TALOYOAK A","2403855","2019-01-04 05:00","2019","01","04","05:00","-29.6","","-33.6","","69","","","","35","","15","","8.1","","99.86","","","","-41","","Snow,Fog"
"-93.58","69.55","TALOYOAK A","2403855","2019-01-04 06:00","2019","01","04","06:00","-29.3","","-33.3","","69","","","","35","","12","","8.1","","99.80","","","","-39","","Snow,Fog"
"-93.58","69.55","TALOYOAK A","2403855","2019-01-04 07:00","2019","01","04","07:00","-30.3","","-34.4","","69","","","","34","","8","","9.7","","99.72","","","","-38","","Snow,Fog"
"-93.58","69.55","TALOYOAK A","2403855","2019-01-04 08:00","2019","01","04","08:00","-30.9","","-35.0","","68","","","","35","","13","","19.3","","99.67","","","","-42","","Ice Crystals"
"-93.58","69.55","TALOYOAK A","2403855","2019-01-04 09:00","2019","01","04","09:00","-31.0","","-35.1","","68","","","","33","","12","","24.1","","99.61","","","","-41","","Ice Crystals"
"-93.58","69.55","TALOYOAK A","2403855","2019-01-04 10:00","2019","01","04","10:00","-30.1","","-34.1","","69","","","","34","","16","","24.1","","99.56","","","","-42","","Ice Crystals"
"-93.58","69.55","TALOYOAK A","2403855","2019-01-04 11:00","2019","01","04","11:00","-29.1","","-33.1","","69","","","","35","","15","","24.1","","99.54","","","","-40","","Ice Crystals"
"-93.58","69.55","TALOYOAK A","2403855","2019-01-04 12:00","2019","01","04","12:00","-30.0","","-34.0","","69","","","","32","","16","","24.1","","99.49","","","","-42","","Ice Crystals"
"-93.58","69.55","TALOYOAK A","2403855","2019-01-04 13:00","2019","01","04","13:00","-28.9","","-32.8","","70","","","","35","","9","","24.1","","99.46","","","","-37","","Ice Crystals"
"-93.58","69.55","TALOYOAK A","2403855","2019-01-04 14:00","2019","01","04","14:00","-28.0","","-31.8","","70","","","","32","","24","","24.1","","99.45","","","","-42","","Ice Crystals"
"-93.58","69.55","TALOYOAK A","2403855","2019-01-04 15:00","2019","01","04","15:00","-27.1","","-30.9","","71","","","","31","","21","","24.1","","99.46","","","","-40","","NA"
"-93.58","69.55","TALOYOAK A","2403855","2019-01-04 16:00","2019","01","04","16:00","-25.6","","-29.3","","72","","","","34","","7","","24.1","","99.47","","","","-32","","NA"
"-93.58","69.55","TALOYOAK A","2403855","2019-01-04 17:00","2019","01","04","17:00","-25.4","","-29.1","","72","","","","32","","23","","24.1","","99.46","","","","-38","","Mostly Cloudy"
"-93.58","69.55","TALOYOAK A","2403855","2019-01-04 18:00","2019","01","04","18:00","-25.2","","-28.9","","72","","","","32","","20","","24.1","","99.48","","","","-37","","NA"
"-93.58","69.55","TALOYOAK A","2403855","2019-01-04 19:00","2019","01","04","19:00","-25.2","","-28.8","","72","","","","32","","19","","24.1","","99.52","","","","-37","","Snow"
"-93.58","69.55","TALOYOAK A","2403855","2019-01-04 20:00","2019","01","04","20:00","-25.6","","-29.2","","72","","","","32","","20","","24.1","","99.52","","","","-38","","Snow"
"-93.58","69.55","TALOYOAK A","2403855","2019-01-04 21:00","2019","01","04","21:00","-25.5","","-29.1","","72","","","","33","","17","","16.1","","99.54","","","","-37","","Snow"
"-93.58","69.55","TALOYOAK A","2403855","2019-01-04 22:00","2019","01","04","22:00","-26.5","","-30.2","","71","","","","35","","16","","16.1","","99.56","","","","-37","","Snow,Blowing Snow"
"-93.58","69.55","TALOYOAK A","2403855","2019-01-04 23:00","2019","01","04","23:00","-27.8","","-31.6","","71","","","","34","","14","","16.1","","99.61","","","","-38","","Snow"
"-93.58","69.55","TALOYOAK A","2403855","2019-01-05 00:00","2019","01","05","00:00","-27.3","","-31.0","","71","","","","36","","12","","16.1","","99.65","","","","-37","","Snow"
"-93.58","69.55","TALOYOAK A","2403855","2019-01-05 01:00","2019","01","05","01:00","-26.9","","-30.6","","71","","","","35","","9","","9.7","","99.71","","","","-35","","Snow"
"-93.58","69.55","TALOYOAK A","2403855","2019-01-05 02:00","2019","01","05","02:00","-27.9","","-31.7","","71","","","","36","","2","","16.1","","99.77","","","","-30","","Snow"
"-93.58","69.55","TALOYOAK A","2403855","2019-01-05 03:00","2019","01","05","03:00","-29.2","","-33.1","","70","","","","36","","4","","16.1","","99.85","","","","-34","","Snow"
"-93.58","69.55","TALOYOAK A","2403855","2019-01-05 04:00","2019","01","05","04:00","-27.8","","-31.6","","71","","","","36","","2","","12.9","","99.90","","","","-30","","Snow"
"-93.58","69.55","TALOYOAK A","2403855","2019-01-05 05:00","2019","01","05","05:00","-27.7","","-31.5","","71","","","","22","","4","","16.1","","99.93","","","","-32","","Snow"
"-93.58","69.55","TALOYOAK A","2403855","2019-01-05 06:00","2019","01","05","06:00","-28.6","","-32.4","","70","","","","16","","11","","12.9","","99.94","","","","-38","","Snow"
"-93.58","69.55","TALOYOAK A","2403855","2019-01-05 07:00","2019","01","05","07:00","-29.2","","-33.1","","70","","","","16","","14","","9.7","","100.00","","","","-40","","Snow"
"-93.58","69.55","TALOYOAK A","2403855","2019-01-05 08:00","2019","01","05","08:00","-29.7","","-33.6","","69","","","","16","","16","","6.4","","100.02","","","","-41","","Snow"
"-93.58","69.55","TALOYOAK A","2403855","2019-01-05 09:00","2019","01","05","09:00","-29.6","","-33.5","","69","","","","16","","15","","9.7","","100.06","","","","-41","","Snow"
"-93.58","69.55","TALOYOAK A","2403855","2019-01-05 10:00","2019","01","05","10:00","-29.9","","-33.8","","69","","","","16","","16","","4.8","","100.13","","","","-42","","Snow"
"-93.58","69.55","TALOYOAK A","2403855","2019-01-05 11:00","2019","01","05","11:00","-30.2","","-34.2","","69","","","","16","","16","","8.1","","100.16","","","","-42","","Snow"
"-93.58","69.55","TALOYOAK A","2403855","2019-01-05 12:00","2019","01","05","12:00","-30.5","","-34.5","","69","","","","17","","18","","8.1","","100.19","","","","-43","","Snow"
"-93.58","69.55","TALOYOAK A","2403855","2019-01-05 13:00","2019","01","05","13:00","-30.9","","-35.0","","69","","","","17","","19","","8.1","","100.25","","","","-44","","Snow"
"-93.58","69.55","TALOYOAK A","2403855","2019-01-05 14:00","2019","01","05","14:00","-31.5","","-35.6","","68","","","","18","","18","","11.3","","100.31","","","","-44","","Snow"
"-93.58","69.55","TALOYOAK A","2403855","2019-01-05 15:00","2019","01","05","15:00","-31.9","","-36.0","","68","","","","17","","16","","16.1","","100.34","","","","-44","","Snow"
"-93.58","69.55","TALOYOAK A","2403855","2019-01-05 16:00","2019","01","05","16:00","-31.8","","-35.9","","68","","","","18","","14","","16.1","","100.35","","","","-43","","Snow"
"-93.58","69.55","TALOYOAK A","2403855","2019-01-05 17:00","2019","01","05","17:00","-32.1","","-36.2","","68","","","","17","","18","","24.1","","100.38","","","","-45","","Snow"
"-93.58","69.55","TALOYOAK A","2403855","2019-01-05 18:00","2019","01","05","18:00","-32.1","","-36.2","","68","","","","17","","14","","24.1","","100.41","","","","-44","","Snow"
"-93.58","69.55","TALOYOAK A","2403855","2019-01-05 19:00","2019","01","05","19:00","-32.2","","-36.4","","68","","","","17","","14","","24.1","","100.40","","","","-44","","Snow"
"-93.58","69.55","TALOYOAK A","2403855","2019-01-05 20:00","2019","01","05","20:00","-32.0","","-36.1","","68","","","","17","","13","","24.1","","100.43","","","","-43","","Snow"
"-93.58","69.55","TALOYOAK A","2403855","2019-01-05 21:00","2019","01","05","21:00","-31.9","","-36.0","","68","","","","17","","13","","24.1","","100.43","","","","-43","","Snow"
"-93.58","69.55","TALOYOAK A","2403855","2019-01-05 22:00","2019","01","05","22:00","-31.8","","-35.9","","68","","","","16","","13","","12.9","","100.40","","","","-43","","Snow"
"-93.58","69.55","TALOYOAK A","2403855","2019-01-05 23:00","2019","01","05","23:00","-32.1","","-36.2","","68","","","","15","","11","","12.9","","100.41","","","","-42","","Snow"
"-93.58","69.55","TALOYOAK A","2403855","2019-01-06 00:00","2019","01","06","00:00","-32.2","","-36.4","","68","","","","15","","9","","12.9","","100.43","","","","-41","","Snow"
"-93.58","69.55","TALOYOAK A","2403855","2019-01-06 01:00","2019","01","06","01:00","-32.6","","-36.7","","67","","","","12","","9","","16.1","","100.47","","","","-42","","Snow"
"-93.58","69.55","TALOYOAK A","2403855","2019-01-06 02:00","2019","01","06","02:00","-32.5","","-36.6","","67","","","","14","","6","","16.1","","100.47","","","","-39","","Snow"
"-93.58","69.55","TALOYOAK A","2403855","2019-01-06 03:00","2019","01","06","03:00","-32.8","","-37.0","","67","","","","1","","6","","16.1","","100.48","","","","-40","","Snow"
"-93.58","69.55","TALOYOAK A","2403855","2019-01-06 04:00","2019","01","06","04:00","-33.2","","-37.4","","67","","","","2","","7","","16.1","","100.48","","","","-41","","Snow"
"-93.58","69.55","TALOYOAK A","2403855","2019-01-06 05:00","2019","01","06","05:00","-34.0","","-38.2","","66","","","","2","","8","","16.1","","100.48","","","","-43","","Snow"
"-93.58","69.55","TALOYOAK A","2403855","2019-01-06 06:00","2019","01","06","06:00","-34.1","","-38.4","","66","","","","1","","9","","12.9","","100.47","","","","-43","","Snow"
"-93.58","69.55","TALOYOAK A","2403855","2019-01-06 07:00","2019","01","06","07:00","-34.1","","-38.4","","66","","","","4","","7","","12.9","","100.47","","","","-42","","Snow"
"-93.58","69.55","TALOYOAK A","2403855","2019-01-06 08:00","2019","01","06","08:00","-34.0","","-38.2","","67","","","","4","","10","","24.1","","100.50","","","","-44","","Snow"
"-93.58","69.55","TALOYOAK A","2403855","2019-01-06 09:00","2019","01","06","09:00","-34.8","","-39.1","","66","","","","2","","5","","16.1","","100.51","","","","-41","","Snow"
"-93.58","69.55","TALOYOAK A","2403855","2019-01-06 10:00","2019","01","06","10:00","-35.5","","-39.8","","66","","","","4","","9","","16.1","","100.53","","","","-45","","Snow"
"-93.58","69.55","TALOYOAK A","2403855","2019-01-06 11:00","2019","01","06","11:00","-35.0","","-39.3","","66","","","","2","","10","","24.1","","100.54","","","","-45","","Ice Crystals"
"-93.58","69.55","TALOYOAK A","2403855","2019-01-06 12:00","2019","01","06","12:00","-34.3","","-38.5","","66","","","","3","","10","","11.3","","100.57","","","","-44","","Snow"
"-93.58","69.55","TALOYOAK A","2403855","2019-01-06 13:00","2019","01","06","13:00","-34.3","","-38.6","","66","","","","11","","3","","16.1","","100.57","","","","-38","","Snow"
"-93.58","69.55","TALOYOAK A","2403855","2019-01-06 14:00","2019","01","06","14:00","-34.5","","-38.7","","66","","","","36","","1","","24.1","","100.59","","","","-36","","Ice Crystals"
"-93.58","69.55","TALOYOAK A","2403855","2019-01-06 15:00","2019","01","06","15:00","-36.0","","-40.3","","65","","","","2","","5","","24.1","","100.64","","","","-42","","Ice Crystals"
"-93.58","69.55","TALOYOAK A","2403855","2019-01-06 16:00","2019","01","06","16:00","-36.6","","-41.0","","65","","","","2","","9","","24.1","","100.68","","","","-46","","Ice Crystals"
"-93.58","69.55","TALOYOAK A","2403855","2019-01-06 17:00","2019","01","06","17:00","-35.6","","-40.0","","65","","","","6","","4","","24.1","","100.74","","","","-41","","Ice Crystals"
"-93.58","69.55","TALOYOAK A","2403855","2019-01-06 18:00","2019","01","06","18:00","-36.8","","-41.2","","65","","","","14","","3","","24.1","","100.75","","","","-41","","Ice Crystals"
"-93.58","69.55","TALOYOAK A","2403855","2019-01-06 19:00","2019","01","06","19:00","-37.0","","-41.4","","65","","","","13","","4","","24.1","","100.79","","","","-42","","Ice Crystals"
"-93.58","69.55","TALOYOAK A","2403855","2019-01-06 20:00","2019","01","06","20:00","-37.8","","-42.2","","64","","","","17","","5","","24.1","","100.81","","","","-44","","Ice Crystals"
"-93.58","69.55","TALOYOAK A","2403855","2019-01-06 21:00","2019","01","06","21:00","-38.3","","-42.8","","64","","","","0","","1","","24.1","","100.84","","","","-40","","Ice Crystals"
"-93.58","69.55","TALOYOAK A","2403855","2019-01-06 22:00","2019","01","06","22:00","-37.5","","-41.9","","64","","","","36","","2","","24.1","","100.87","","","","-40","","Ice Crystals"
"-93.58","69.55","TALOYOAK A","2403855","2019-01-06 23:00","2019","01","06","23:00","-40.0","","-44.6","","63","","","","1","","4","","24.1","","100.92","","","","-46","","Ice Crystals"
"-93.58","69.55","TALOYOAK A","2403855","2019-01-07 00:00","2019","01","07","00:00","-38.0","","-42.5","","64","","","","16","","5","","24.1","","100.95","","","","-45","","Ice Crystals"
"-93.58","69.55","TALOYOAK A","2403855","2019-01-07 01:00","2019","01","07","01:00","-39.9","","-44.4","","63","","","","19","","12","","24.1","","101.01","","","","-52","","Ice Crystals"
"-93.58","69.55","TALOYOAK A","2403855","2019-01-07 02:00","2019","01","07","02:00","-39.1","","-43.7","","63","","","","17","","6","","24.1","","101.06","","","","-47","","Ice Crystals"
"-93.58","69.55","TALOYOAK A","2403855","2019-01-07 03:00","2019","01","07","03:00","-39.0","","-43.5","","63","","","","18","","9","","24.1","","101.12","","","","-49","","Ice Crystals"
"-93.58","69.55","TALOYOAK A","2403855","2019-01-07 04:00","2019","01","07","04:00","-38.3","","-42.8","","64","","","","17","","14","","16.1","","101.14","","","","-51","","Ice Crystals"
"-93.58","69.55","TALOYOAK A","2403855","2019-01-07 05:00","2019","01","07","05:00","-38.0","","-42.4","","64","","","","17","","14","","16.1","","101.17","","","","-51","","Ice Crystals"
"-93.58","69.55","TALOYOAK A","2403855","2019-01-07 06:00","2019","01","07","06:00","-37.3","","-41.7","","64","","","","16","","16","","16.1","","101.21","","","","-51","","Ice Crystals"
"-93.58","69.55","TALOYOAK A","2403855","2019-01-07 07:00","2019","01","07","07:00","-36.2","","-40.6","","65","","","","16","","17","","24.1","","101.21","","","","-50","","Ice Crystals"
"-93.58","69.55","TALOYOAK A","2403855","2019-01-07 08:00","2019","01","07","08:00","-35.4","","-39.8","","65","","","","16","","15","","24.1","","101.22","","","","-48","","Ice Crystals"
"-93.58","69.55","TALOYOAK A","2403855","2019-01-07 09:00","2019","01","07","09:00","-34.4","","-38.7","","66","","","","17","","17","","16.1","","101.25","","","","-48","","Ice Crystals"
"-93.58","69.55","TALOYOAK A","2403855","2019-01-07 10:00","2019","01","07","10:00","-35.2","","-39.5","","65","","","","20","","7","","16.1","","101.26","","","","-43","","Snow"
"-93.58","69.55","TALOYOAK A","2403855","2019-01-07 11:00","2019","01","07","11:00","-35.8","","-40.1","","65","","","","15","","8","","16.1","","101.28","","","","-45","","Snow"
"-93.58","69.55","TALOYOAK A","2403855","2019-01-07 12:00","2019","01","07","12:00","-35.5","","-39.8","","65","","","","15","","8","","16.1","","101.31","","","","-44","","Snow"
"-93.58","69.55","TALOYOAK A","2403855","2019-01-07 13:00","2019","01","07","13:00","-34.7","","-39.0","","66","","","","17","","6","","11.3","","101.33","","","","-42","","Snow"
"-93.58","69.55","TALOYOAK A","2403855","2019-01-07 14:00","2019","01","07","14:00","-34.1","","-38.4","","66","","","","17","","9","","8.1","","101.34","","","","-43","","Snow Showers"
"-93.58","69.55","TALOYOAK A","2403855","2019-01-07 15:00","2019","01","07","15:00","-33.7","","-38.0","","66","","","","11","","3","","8.1","","101.36","","","","-37","","Snow Showers"
"-93.58","69.55","TALOYOAK A","2403855","2019-01-07 16:00","2019","01","07","16:00","-33.0","","-37.3","","67","","","","17","","4","","4.0","","101.32","","","","-38","","Snow Showers"
"-93.58","69.55","TALOYOAK A","2403855","2019-01-07 17:00","2019","01","07","17:00","-33.0","","-37.2","","67","","","","36","","5","","4.0","","101.31","","","","-39","","Snow Showers"
"-93.58","69.55","TALOYOAK A","2403855","2019-01-07 18:00","2019","01","07","18:00","-32.4","","-36.6","","67","","","","35","","5","","3.2","","101.36","","","","-38","","Snow Showers"
"-93.58","69.55","TALOYOAK A","2403855","2019-01-07 19:00","2019","01","07","19:00"
"-93.58","69.55","TALOYOAK A","2403855","2019-01-07 20:00","2019","01","07","20:00"
"-93.58","69.55","TALOYOAK A","2403855","2019-01-07 21:00","2019","01","07","21:00","-32.0","","-36.2","","67","","","","36","","4","","2.4","","101.34","","","","-37","","Snow"
"-93.58","69.55","TALOYOAK A","2403855","2019-01-07 22:00","2019","01","07","22:00","-31.7","","-35.8","","68","","","","1","","7","","12.9","","101.36","","","","-39","","Snow"
"-93.58","69.55","TALOYOAK A","2403855","2019-01-07 23:00","2019","01","07","23:00","-31.7","","-35.8","","68","","","","36","","3","","4.8","","101.36","","","","-35","","Snow"
"-93.58","69.55","TALOYOAK A","2403855","2019-01-08 00:00","2019","01","08","00:00","-31.7","","-35.9","","68","","","","26","","4","","4.8","","101.42","","","","-36","","Snow"
"-93.58","69.55","TALOYOAK A","2403855","2019-01-08 01:00","2019","01","08","01:00","-31.7","","-35.9","","68","","","","27","","3","","4.8","","101.45","","","","-35","","Snow"
"-93.58","69.55","TALOYOAK A","2403855","2019-01-08 02:00","2019","01","08","02:00","-31.2","","-35.3","","68","","","","36","","3","","12.9","","101.41","","","","-35","","Snow"
"-93.58","69.55","TALOYOAK A","2403855","2019-01-08 03:00","2019","01","08","03:00","-30.9","","-35.0","","68","","","","17","","4","","12.9","","101.45","","","","-35","","Snow"
"-93.58","69.55","TALOYOAK A","2403855","2019-01-08 04:00","2019","01","08","04:00","-30.3","","-34.4","","68","","","","19","","3","","16.1","","101.47","","","","-34","","Snow"
"-93.58","69.55","TALOYOAK A","2403855","2019-01-08 05:00","2019","01","08","05:00","-30.2","","-34.2","","69","","","","20","","4","","4.8","","101.46","","","","-35","","Snow"
"-93.58","69.55","TALOYOAK A","2403855","2019-01-08 06:00","2019","01","08","06:00","-29.7","","-33.7","","69","","","","19","","9","","16.1","","101.47","","","","-38","","Snow"
"-93.58","69.55","TALOYOAK A","2403855","2019-01-08 07:00","2019","01","08","07:00","-29.9","","-33.9","","69","","","","20","","8","","16.1","","101.50","","","","-38","","Snow"
"-93.58","69.55","TALOYOAK A","2403855","2019-01-08 08:00","2019","01","08","08:00","-30.7","","-34.7","","68","","","","14","","7","","24.1","","101.52","","","","-38","","Ice Crystals"
"-93.58","69.55","TALOYOAK A","2403855","2019-01-08 09:00","2019","01","08","09:00","-33.5","","-37.7","","67","","","","16","","10","","24.1","","101.51","","","","-43","","Ice Crystals"
"-93.58","69.55","TALOYOAK A","2403855","2019-01-08 10:00","2019","01","08","10:00","-33.4","","-37.6","","67","","","","14","","11","","24.1","","101.53","","","","-44","","Ice Crystals"
"-93.58","69.55","TALOYOAK A","2403855","2019-01-08 11:00","2019","01","08","11:00","-33.9","","-38.1","","66","","","","13","","13","","24.1","","101.52","","","","-45","","Ice Crystals"
"-93.58","69.55","TALOYOAK A","2403855","2019-01-08 12:00","2019","01","08","12:00","-32.9","","-37.1","","67","","","","15","","6","","24.1","","101.57","","","","-40","","Ice Crystals"
"-93.58","69.55","TALOYOAK A","2403855","2019-01-08 13:00","2019","01","08","13:00"
"-93.58","69.55","TALOYOAK A","2403855","2019-01-08 14:00","2019","01","08","14:00","-28.7","","-32.7","","70","","","","28","","11","","3.2","","101.63","","","","-38","","Snow"
"-93.58","69.55","TALOYOAK A","2403855","2019-01-08 15:00","2019","01","08","15:00","-29.4","","-33.4","","69","","","","30","","26","","16.1","","101.65","","","","-44","","Ice Crystals"
"-93.58","69.55","TALOYOAK A","2403855","2019-01-08 16:00","2019","01","08","16:00","-29.7","","-33.7","","69","","","","30","","22","","24.1","","101.69","","","","-43","","Ice Crystals"
"-93.58","69.55","TALOYOAK A","2403855","2019-01-08 17:00","2019","01","08","17:00","-30.6","","-34.7","","68","","","","25","","13","","24.1","","101.74","","","","-41","","Ice Crystals"
"-93.58","69.55","TALOYOAK A","2403855","2019-01-08 18:00","2019","01","08","18:00","-29.3","","-33.3","","69","","","","26","","12","","16.1","","101.77","","","","-39","","Ice Crystals"
"-93.58","69.55","TALOYOAK A","2403855","2019-01-08 19:00","2019","01","08","19:00","-32.7","","-36.8","","67","","","","12","","8","","24.1","","101.79","","","","-41","","Ice Crystals"
"-93.58","69.55","TALOYOAK A","2403855","2019-01-08 20:00","2019","01","08","20:00","-31.3","","-35.4","","68","","","","14","","7","","24.1","","101.81","","","","-39","","Ice Crystals"
"-93.58","69.55","TALOYOAK A","2403855","2019-01-08 21:00","2019","01","08","21:00","-31.6","","-35.7","","68","","","","18","","6","","24.1","","101.82","","","","-38","","Ice Crystals"
"-93.58","69.55","TALOYOAK A","2403855","2019-01-08 22:00","2019","01","08","22:00","-32.1","","-36.2","","68","","","","20","","6","","24.1","","101.87","","","","-39","","Ice Crystals"
"-93.58","69.55","TALOYOAK A","2403855","2019-01-08 23:00","2019","01","08","23:00","-32.0","","-36.1","","68","","","","18","","7","","24.1","","101.91","","","","-40","","Ice Crystals"
"-93.58","69.55","TALOYOAK A","2403855","2019-01-09 00:00","2019","01","09","00:00","-33.8","","-38.1","","67","","","","15","","8","","24.1","","101.97","","","","-42","","Ice Crystals"
"-93.58","69.55","TALOYOAK A","2403855","2019-01-09 01:00","2019","01","09","01:00","-33.5","","-37.7","","67","","","","19","","12","","16.1","","102.04","","","","-44","","Ice Crystals"
"-93.58","69.55","TALOYOAK A","2403855","2019-01-09 02:00","2019","01","09","02:00","-33.2","","-37.4","","67","","","","13","","9","","2.4","","102.11","","","","-42","","Ice Crystals,Fog"
"-93.58","69.55","TALOYOAK A","2403855","2019-01-09 03:00","2019","01","09","03:00","-33.7","","-37.9","","66","","","","17","","7","","2.4","","102.17","","","","-42","","Ice Crystals,Fog"
"-93.58","69.55","TALOYOAK A","2403855","2019-01-09 04:00","2019","01","09","04:00","-34.4","","-38.7","","66","","","","19","","5","","2.4","","102.23","","","","-41","","Ice Crystals,Fog"
"-93.58","69.55","TALOYOAK A","2403855","2019-01-09 05:00","2019","01","09","05:00","-34.8","","-39.1","","66","","","","14","","16","","4.8","","102.30","","","","-48","","Ice Crystals,Fog"
"-93.58","69.55","TALOYOAK A","2403855","2019-01-09 06:00","2019","01","09","06:00","-34.7","","-39.0","","66","","","","15","","16","","4.8","","102.34","","","","-48","","Ice Crystals,Fog"
"-93.58","69.55","TALOYOAK A","2403855","2019-01-09 07:00","2019","01","09","07:00","-35.0","","-39.3","","66","","","","15","","21","","16.1","","102.40","","","","-50","","Ice Crystals"
"-93.58","69.55","TALOYOAK A","2403855","2019-01-09 08:00","2019","01","09","08:00","-35.5","","-39.8","","65","","","","15","","21","","16.1","","102.47","","","","-50","","Ice Crystals"
"-93.58","69.55","TALOYOAK A","2403855","2019-01-09 09:00","2019","01","09","09:00","-36.4","","-40.8","","65","","","","15","","22","","11.3","","102.53","","","","-52","","Ice Crystals"
"-93.58","69.55","TALOYOAK A","2403855","2019-01-09 10:00","2019","01","09","10:00","-36.3","","-40.7","","65","","","","16","","26","","12.9","","102.62","","","","-53","","Ice Crystals"
"-93.58","69.55","TALOYOAK A","2403855","2019-01-09 11:00","2019","01","09","11:00","-36.6","","-41.0","","65","","","","16","","21","","16.1","","102.64","","","","-52","","Ice Crystals"
"-93.58","69.55","TALOYOAK A","2403855","2019-01-09 12:00","2019","01","09","12:00","-36.8","","-41.2","","65","","","","16","","22","","16.1","","102.74","","","","-52","","Ice Crystals"
"-93.58","69.55","TALOYOAK A","2403855","2019-01-09 13:00","2019","01","09","13:00","-36.7","","-41.2","","65","","","","16","","21","","24.1","","102.80","","","","-52","","Ice Crystals"
"-93.58","69.55","TALOYOAK A","2403855","2019-01-09 14:00","2019","01","09","14:00","-36.8","","-41.3","","65","","","","16","","24","","24.1","","102.87","","","","-53","","Ice Crystals"
"-93.58","69.55","TALOYOAK A","2403855","2019-01-09 15:00","2019","01","09","15:00","-37.0","","-41.5","","64","","","","15","","19","","24.1","","102.93","","","","-52","","Ice Crystals"
"-93.58","69.55","TALOYOAK A","2403855","2019-01-09 16:00","2019","01","09","16:00","-37.6","","-42.0","","64","","","","15","","21","","24.1","","102.99","","","","-53","","Ice Crystals,Blowing Snow"
"-93.58","69.55","TALOYOAK A","2403855","2019-01-09 17:00","2019","01","09","17:00","-37.6","","-42.0","","64","","","","16","","23","","24.1","","103.04","","","","-54","","Ice Crystals"
"-93.58","69.55","TALOYOAK A","2403855","2019-01-09 18:00","2019","01","09","18:00","-37.4","","-41.9","","64","","","","15","","22","","24.1","","103.07","","","","-53","","Ice Crystals"
"-93.58","69.55","TALOYOAK A","2403855","2019-01-09 19:00","2019","01","09","19:00","-37.7","","-42.2","","64","","","","16","","20","","24.1","","103.11","","","","-53","","Ice Crystals"
"-93.58","69.55","TALOYOAK A","2403855","2019-01-09 20:00","2019","01","09","20:00","-37.7","","-42.2","","64","","","","16","","22","","24.1","","103.13","","","","-53","","Ice Crystals"
"-93.58","69.55","TALOYOAK A","2403855","2019-01-09 21:00","2019","01","09","21:00","-37.9","","-42.4","","64","","","","16","","21","","24.1","","103.16","","","","-53","","Ice Crystals"
"-93.58","69.55","TALOYOAK A","2403855","2019-01-09 22:00","2019","01","09","22:00","-37.6","","-42.1","","64","","","","16","","20","","24.1","","103.19","","","","-53","","Ice Crystals"
"-93.58","69.55","TALOYOAK A","2403855","2019-01-09 23:00","2019","01","09","23:00","-37.9","","-42.4","","64","","","","15","","20","","24.1","","103.23","","","","-53","","Clear"
"-93.58","69.55","TALOYOAK A","2403855","2019-01-10 00:00","2019","01","10","00:00","-38.2","","-42.8","","64","","","","15","","18","","24.1","","103.27","","","","-53","","Ice Crystals"
"-93.58","69.55","TALOYOAK A","2403855","2019-01-10 01:00","2019","01","10","01:00","-38.3","","-42.9","","64","","","","16","","18","","24.1","","103.33","","","","-53","","Ice Crystals"
"-93.58","69.55","TALOYOAK A","2403855","2019-01-10 02:00","2019","01","10","02:00","-38.4","","-43.0","","64","","","","16","","16","","24.1","","103.37","","","","-52","","Ice Crystals"
"-93.58","69.55","TALOYOAK A","2403855","2019-01-10 03:00","2019","01","10","03:00","-38.5","","-43.0","","63","","","","15","","15","","24.1","","103.38","","","","-52","","Ice Crystals"
"-93.58","69.55","TALOYOAK A","2403855","2019-01-10 04:00","2019","01","10","04:00","-38.7","","-43.3","","63","","","","15","","17","","24.1","","103.42","","","","-53","","Ice Crystals"
"-93.58","69.55","TALOYOAK A","2403855","2019-01-10 05:00","2019","01","10","05:00","-38.6","","-43.2","","63","","","","16","","16","","24.1","","103.42","","","","-52","","Ice Crystals"
"-93.58","69.55","TALOYOAK A","2403855","2019-01-10 06:00","2019","01","10","06:00","-38.9","","-43.4","","63","","","","15","","12","","24.1","","103.46","","","","-51","","Ice Crystals"
"-93.58","69.55","TALOYOAK A","2403855","2019-01-10 07:00","2019","01","10","07:00","-39.0","","-43.5","","63","","","","17","","12","","24.1","","103.46","","","","-51","","Ice Crystals"
"-93.58","69.55","TALOYOAK A","2403855","2019-01-10 08:00","2019","01","10","08:00","-39.3","","-43.9","","63","","","","16","","10","","24.1","","103.49","","","","-50","","Ice Crystals,Haze"
"-93.58","69.55","TALOYOAK A","2403855","2019-01-10 09:00","2019","01","10","09:00","-39.4","","-44.0","","63","","","","17","","9","","24.1","","103.48","","","","-50","","Ice Crystals"
"-93.58","69.55","TALOYOAK A","2403855","2019-01-10 10:00","2019","01","10","10:00","-39.4","","-44.0","","63","","","","17","","6","","24.1","","103.47","","","","-47","","Ice Crystals"
"-93.58","69.55","TALOYOAK A","2403855","2019-01-10 11:00","2019","01","10","11:00","-39.7","","-44.3","","63","","","","14","","4","","24.1","","103.51","","","","-45","","Ice Crystals"
"-93.58","69.55","TALOYOAK A","2403855","2019-01-10 12:00","2019","01","10","12:00","-39.6","","-44.2","","63","","","","36","","2","","24.1","","103.51","","","","-42","","Ice Crystals"
"-93.58","69.55","TALOYOAK A","2403855","2019-01-10 13:00","2019","01","10","13:00","-39.6","","-44.2","","63","","","","36","","2","","24.1","","103.53","","","","-42","","NA"
"-93.58","69.55","TALOYOAK A","2403855","2019-01-10 14:00","2019","01","10","14:00","-40.0","","-44.6","","63","","","","36","","1","","24.1","","103.53","","","","-41","","Clear"
"-93.58","69.55","TALOYOAK A","2403855","2019-01-10 15:00","2019","01","10","15:00","-39.8","","-44.4","","63","","","","36","","3","","24.1","","103.55","","","","-44","","Ice Crystals"
"-93.58","69.55","TALOYOAK A","2403855","2019-01-10 16:00","2019","01","10","16:00","-40.1","","-44.7","","63","","","","36","","3","","24.1","","103.55","","","","-44","","Ice Crystals"
"-93.58","69.55","TALOYOAK A","2403855","2019-01-10 17:00","2019","01","10","17:00","-39.9","","-44.6","","63","","","","11","","4","","24.1","","103.51","","","","-45","","Ice Crystals"
"-93.58","69.55","TALOYOAK A","2403855","2019-01-10 18:00","2019","01","10","18:00","-39.7","","-44.3","","63","","","","15","","5","","16.1","","103.52","","","","-47","","Ice Crystals"
"-93.58","69.55","TALOYOAK A","2403855","2019-01-10 19:00","2019","01","10","19:00","-40.1","","-44.7","","62","","","","15","","8","","16.1","","103.53","","","","-50","","Ice Crystals"
"-93.58","69.55","TALOYOAK A","2403855","2019-01-10 20:00","2019","01","10","20:00","-39.9","","-44.5","","63","","","","16","","4","","16.1","","103.50","","","","-45","","Ice Crystals"
"-93.58","69.55","TALOYOAK A","2403855","2019-01-10 21:00","2019","01","10","21:00"
"-93.58","69.55","TALOYOAK A","2403855","2019-01-10 22:00","2019","01","10","22:00"
"-93.58","69.55","TALOYOAK A","2403855","2019-01-10 23:00","2019","01","10","23:00"
"-93.58","69.55","TALOYOAK A","2403855","2019-01-11 00:00","2019","01","11","00:00"
"-93.58","69.55","TALOYOAK A","2403855","2019-01-11 01:00","2019","01","11","01:00"
"-93.58","69.55","TALOYOAK A","2403855","2019-01-11 02:00","2019","01","11","02:00"
"-93.58","69.55","TALOYOAK A","2403855","2019-01-11 03:00","2019","01","11","03:00"
"-93.58","69.55","TALOYOAK A","2403855","2019-01-11 04:00","2019","01","11","04:00"
"-93.58","69.55","TALOYOAK A","2403855","2019-01-11 05:00","2019","01","11","05:00"
"-93.58","69.55","TALOYOAK A","2403855","2019-01-11 06:00","2019","01","11","06:00"
"-93.58","69.55","TALOYOAK A","2403855","2019-01-11 07:00","2019","01","11","07:00","-40.2","","-44.8","","62","","","","17","","12","","9.7","","103.44","","","","-53","","Ice Crystals,Fog"
"-93.58","69.55","TALOYOAK A","2403855","2019-01-11 08:00","2019","01","11","08:00","-40.2","","-44.8","","62","","","","17","","14","","19.3","","103.45","","","","-54","","Ice Crystals"
"-93.58","69.55","TALOYOAK A","2403855","2019-01-11 09:00","2019","01","11","09:00","-40.3","","-44.9","","62","","","","16","","15","","24.1","","103.44","","","","-54","","Ice Crystals"
"-93.58","69.55","TALOYOAK A","2403855","2019-01-11 10:00","2019","01","11","10:00","-40.3","","-45.0","","62","","","","17","","16","","24.1","","103.43","","","","-55","","Ice Crystals"
"-93.58","69.55","TALOYOAK A","2403855","2019-01-11 11:00","2019","01","11","11:00","-40.2","","-44.8","","62","","","","17","","16","","24.1","","103.40","","","","-54","","Ice Crystals"
"-93.58","69.55","TALOYOAK A","2403855","2019-01-11 12:00","2019","01","11","12:00","-40.1","","-44.8","","62","","","","16","","13","","24.1","","103.37","","","","-53","","Ice Crystals"
"-93.58","69.55","TALOYOAK A","2403855","2019-01-11 13:00","2019","01","11","13:00","-40.3","","-45.0","","62","","","","17","","15","","24.1","","103.36","","","","-54","","Ice Crystals"
"-93.58","69.55","TALOYOAK A","2403855","2019-01-11 14:00","2019","01","11","14:00","-40.1","","-44.8","","62","","","","17","","17","","24.1","","103.36","","","","-55","","Ice Crystals"
"-93.58","69.55","TALOYOAK A","2403855","2019-01-11 15:00","2019","01","11","15:00","-40.1","","-44.7","","62","","","","17","","15","","24.1","","103.36","","","","-54","","Ice Crystals"
"-93.58","69.55","TALOYOAK A","2403855","2019-01-11 16:00","2019","01","11","16:00","-40.1","","-44.8","","62","","","","17","","12","","24.1","","103.33","","","","-52","","Ice Crystals"
"-93.58","69.55","TALOYOAK A","2403855","2019-01-11 17:00","2019","01","11","17:00","-40.5","","-45.2","","62","","","","17","","13","","24.1","","103.29","","","","-53","","Ice Crystals"
"-93.58","69.55","TALOYOAK A","2403855","2019-01-11 18:00","2019","01","11","18:00","-40.7","","-45.3","","62","","","","18","","12","","24.1","","103.24","","","","-53","","Ice Crystals"
"-93.58","69.55","TALOYOAK A","2403855","2019-01-11 19:00","2019","01","11","19:00","-41.0","","-45.6","","62","","","","18","","8","","24.1","","103.17","","","","-51","","Ice Crystals"
"-93.58","69.55","TALOYOAK A","2403855","2019-01-11 20:00","2019","01","11","20:00","-40.3","","-45.0","","62","","","","36","","3","","24.1","","103.11","","","","-45","","Ice Crystals"
"-93.58","69.55","TALOYOAK A","2403855","2019-01-11 21:00","2019","01","11","21:00","-41.4","","-46.1","","62","","","","36","","1","","24.1","","103.05","","","","-43","","Ice Crystals"
"-93.58","69.55","TALOYOAK A","2403855","2019-01-11 22:00","2019","01","11","22:00","-40.7","","-45.4","","62","","","","36","","2","","24.1","","103.00","","","","-44","","Ice Crystals"
"-93.58","69.55","TALOYOAK A","2403855","2019-01-11 23:00","2019","01","11","23:00","-41.5","","-46.2","","62","","","","2","","4","","9.7","","102.95","","","","-47","","Ice Crystals,Fog"
"-93.58","69.55","TALOYOAK A","2403855","2019-01-12 00:00","2019","01","12","00:00","-41.5","","-46.2","","62","","","","4","","8","","9.7","","102.91","","","","-51","","Ice Crystals,Fog"
"-93.58","69.55","TALOYOAK A","2403855","2019-01-12 01:00","2019","01","12","01:00","-40.9","","-45.6","","62","","","","4","","11","","24.1","","102.86","","","","-53","","Ice Crystals"
"-93.58","69.55","TALOYOAK A","2403855","2019-01-12 02:00","2019","01","12","02:00","-41.5","","-46.2","","62","","","","3","","13","","24.1","","102.74","","","","-55","","Ice Crystals"
"-93.58","69.55","TALOYOAK A","2403855","2019-01-12 03:00","2019","01","12","03:00","-42.5","","-47.3","","61","","","","1","","14","","24.1","","102.65","","","","-56","","Ice Crystals"
"-93.58","69.55","TALOYOAK A","2403855","2019-01-12 04:00","2019","01","12","04:00","-42.3","","-47.1","","61","","","","2","","15","","24.1","","102.55","","","","-57","","Ice Crystals"
"-93.58","69.55","TALOYOAK A","2403855","2019-01-12 05:00","2019","01","12","05:00","-42.1","","-46.8","","61","","","","1","","21","","24.1","","102.47","","","","-59","","Ice Crystals"
"-93.58","69.55","TALOYOAK A","2403855","2019-01-12 06:00","2019","01","12","06:00","-40.0","","-44.7","","62","","","","2","","17","","24.1","","102.37","","","","-55","","Ice Crystals"
"-93.58","69.55","TALOYOAK A","2403855","2019-01-12 07:00","2019","01","12","07:00","-38.4","","-43.0","","63","","","","4","","28","","9.7","","102.26","","","","-56","","Ice Crystals,Fog,Blowing Snow"
"-93.58","69.55","TALOYOAK A","2403855","2019-01-12 08:00","2019","01","12","08:00","-37.5","","-42.1","","63","","","","5","","17","","9.7","","102.22","","","","-51","","Ice Crystals,Fog"
"-93.58","69.55","TALOYOAK A","2403855","2019-01-12 09:00","2019","01","12","09:00","-36.8","","-41.3","","64","","","","4","","18","","6.4","","102.14","","","","-51","","Ice Crystals,Fog"
"-93.58","69.55","TALOYOAK A","2403855","2019-01-12 10:00","2019","01","12","10:00","-36.0","","-40.5","","64","","","","5","","34","","1.2","","102.01","","","","-54","","Ice Crystals,Fog,Blowing Snow"
"-93.58","69.55","TALOYOAK A","2403855","2019-01-12 11:00","2019","01","12","11:00","-35.3","","-39.8","","65","","","","5","","37","","1.2","","101.92","","","","-54","","Ice Crystals,Fog,Blowing Snow"
"-93.58","69.55","TALOYOAK A","2403855","2019-01-12 12:00","2019","01","12","12:00","-35.0","","-39.5","","65","","","","6","","25","","1.2","","101.89","","","","-51","","Ice Crystals,Fog,Blowing Snow"
"-93.58","69.55","TALOYOAK A","2403855","2019-01-12 13:00","2019","01","12","13:00","-33.8","","-38.2","","66","","","","6","","29","","1.2","","101.79","","","","-50","","Ice Crystals,Fog,Blowing Snow"
"-93.58","69.55","TALOYOAK A","2403855","2019-01-12 14:00","2019","01","12","14:00","-33.4","","-37.7","","66","","","","5","","39","","1.2","","101.70","","","","-52","","Ice Crystals,Fog,Blowing Snow"
"-93.58","69.55","TALOYOAK A","2403855","2019-01-12 15:00","2019","01","12","15:00","-32.6","","-36.9","","66","","","","6","","39","","1.6","","101.66","","","","-51","","Ice Crystals,Blowing Snow"
"-93.58","69.55","TALOYOAK A","2403855","2019-01-12 16:00","2019","01","12","16:00","-32.4","","-36.7","","67","","","","6","","39","","1.6","","101.57","","","","-51","","Ice Crystals,Blowing Snow"
"-93.58","69.55","TALOYOAK A","2403855","2019-01-12 17:00","2019","01","12","17:00","-32.3","","-36.6","","67","","","","6","","48","","1.6","","101.49","","","","-52","","Ice Crystals,Blowing Snow"
"-93.58","69.55","TALOYOAK A","2403855","2019-01-12 18:00","2019","01","12","18:00","-32.7","","-36.9","","67","","","","6","","48","","1.2","","101.43","","","","-52","","Ice Crystals,Blowing Snow"
"-93.58","69.55","TALOYOAK A","2403855","2019-01-12 19:00","2019","01","12","19:00","-32.6","","-36.9","","67","","","","5","","48","","0.8","","101.41","","","","-52","","Ice Crystals,Blowing Snow"
"-93.58","69.55","TALOYOAK A","2403855","2019-01-12 20:00","2019","01","12","20:00","-32.1","","-36.3","","67","","","","6","","44","","0.8","","101.49","","","","-51","","Ice Crystals,Blowing Snow"
"-93.58","69.55","TALOYOAK A","2403855","2019-01-12 21:00","2019","01","12","21:00","-31.9","","-36.1","","67","","","","5","","52","","0.8","","101.45","","","","-52","","Ice Crystals,Blowing Snow"
"-93.58","69.55","TALOYOAK A","2403855","2019-01-12 22:00","2019","01","12","22:00","-31.6","","-35.8","","67","","","","4","","36","","1.2","","101.49","","","","-49","","Ice Crystals,Blowing Snow"
"-93.58","69.55","TALOYOAK A","2403855","2019-01-12 23:00","2019","01","12","23:00","-31.1","","-35.3","","68","","","","3","","36","","1.2","","101.48","","","","-48","","Ice Crystals,Blowing Snow"
"-93.58","69.55","TALOYOAK A","2403855","2019-01-13 00:00","2019","01","13","00:00","-31.5","","-35.7","","67","","","","4","","35","","1.2","","101.44","","","","-49","","Ice Crystals,Blowing Snow"
"-93.58","69.55","TALOYOAK A","2403855","2019-01-13 01:00","2019","01","13","01:00","-31.6","","-35.8","","67","","","","3","","36","","1.6","","101.44","","","","-49","","Ice Crystals,Blowing Snow"
"-93.58","69.55","TALOYOAK A","2403855","2019-01-13 02:00","2019","01","13","02:00","-31.9","","-36.1","","67","","","","3","","27","","1.6","","101.53","","","","-47","","Ice Crystals,Blowing Snow"
"-93.58","69.55","TALOYOAK A","2403855","2019-01-13 03:00","2019","01","13","03:00","-32.2","","-36.4","","67","","","","4","","31","","1.6","","101.54","","","","-49","","Ice Crystals,Blowing Snow"
"-93.58","69.55","TALOYOAK A","2403855","2019-01-13 04:00","2019","01","13","04:00","-32.1","","-36.3","","67","","","","2","","24","","1.6","","101.63","","","","-47","","Ice Crystals,Fog,Blowing Snow"
"-93.58","69.55","TALOYOAK A","2403855","2019-01-13 05:00","2019","01","13","05:00","-32.0","","-36.2","","67","","","","3","","24","","1.6","","101.68","","","","-47","","Ice Crystals,Fog,Blowing Snow"
"-93.58","69.55","TALOYOAK A","2403855","2019-01-13 06:00","2019","01","13","06:00","-31.9","","-36.1","","67","","","","4","","29","","1.6","","101.68","","","","-48","","Ice Crystals,Fog,Blowing Snow"
"-93.58","69.55","TALOYOAK A","2403855","2019-01-13 07:00","2019","01","13","07:00","-32.5","","-36.7","","67","","","","2","","26","","16.1","","101.72","","","","-48","","Ice Crystals,Blowing Snow"
"-93.58","69.55","TALOYOAK A","2403855","2019-01-13 08:00","2019","01","13","08:00","-32.2","","-36.4","","67","","","","1","","16","","16.1","","101.80","","","","-45","","Ice Crystals"
"-93.58","69.55","TALOYOAK A","2403855","2019-01-13 09:00","2019","01","13","09:00","-32.6","","-36.9","","67","","","","36","","13","","24.1","","101.89","","","","-44","","Ice Crystals"
"-93.58","69.55","TALOYOAK A","2403855","2019-01-13 10:00","2019","01","13","10:00","-33.6","","-38.0","","66","","","","1","","11","","24.1","","101.91","","","","-44","","NA"
"-93.58","69.55","TALOYOAK A","2403855","2019-01-13 11:00","2019","01","13","11:00","-34.1","","-38.4","","66","","","","1","","19","","24.1","","101.89","","","","-48","","Ice Crystals"
"-93.58","69.55","TALOYOAK A","2403855","2019-01-13 12:00","2019","01","13","12:00","-34.4","","-38.8","","66","","","","36","","14","","24.1","","101.95","","","","-46","","Ice Crystals"
"-93.58","69.55","TALOYOAK A","2403855","2019-01-13 13:00","2019","01","13","13:00","-34.4","","-38.7","","66","","","","1","","11","","24.1","","101.97","","","","-45","","Ice Crystals"
"-93.58","69.55","TALOYOAK A","2403855","2019-01-13 14:00","2019","01","13","14:00","-34.6","","-39.0","","66","","","","36","","11","","24.1","","101.99","","","","-45","","Ice Crystals"
"-93.58","69.55","TALOYOAK A","2403855","2019-01-13 15:00","2019","01","13","15:00","-34.4","","-38.8","","66","","","","2","","10","","24.1","","102.03","","","","-44","","Ice Crystals"
"-93.58","69.55","TALOYOAK A","2403855","2019-01-13 16:00","2019","01","13","16:00","-34.5","","-38.9","","66","","","","2","","7","","24.1","","102.07","","","","-43","","Ice Crystals"
"-93.58","69.55","TALOYOAK A","2403855","2019-01-13 17:00","2019","01","13","17:00","-34.2","","-38.5","","66","","","","36","","5","","24.1","","102.07","","","","-40","","Ice Crystals"
"-93.58","69.55","TALOYOAK A","2403855","2019-01-13 18:00","2019","01","13","18:00","-34.0","","-38.3","","66","","","","1","","7","","24.1","","102.06","","","","-42","","Ice Crystals"
"-93.58","69.55","TALOYOAK A","2403855","2019-01-13 19:00","2019","01","13","19:00","-34.7","","-39.1","","66","","","","22","","5","","24.1","","102.05","","","","-41","","Ice Crystals"
"-93.58","69.55","TALOYOAK A","2403855","2019-01-13 20:00","2019","01","13","20:00","-34.9","","-39.2","","66","","","","11","","7","","24.1","","102.04","","","","-43","","Ice Crystals"
"-93.58","69.55","TALOYOAK A","2403855","2019-01-13 21:00","2019","01","13","21:00","-36.1","","-40.5","","65","","","","36","","2","","24.1","","102.03","","","","-39","","Ice Crystals"
"-93.58","69.55","TALOYOAK A","2403855","2019-01-13 22:00","2019","01","13","22:00","-36.6","","-41.0","","65","","","","36","","2","","24.1","","102.02","","","","-39","","Ice Crystals"
"-93.58","69.55","TALOYOAK A","2403855","2019-01-13 23:00","2019","01","13","23:00","-35.0","","-39.3","","66","","","","12","","3","","24.1","","102.00","","","","-39","","Ice Crystals"
"-93.58","69.55","TALOYOAK A","2403855","2019-01-14 00:00","2019","01","14","00:00","-37.2","","-41.7","","64","","","","36","","1","","24.1","","101.99","","","","-39","","Ice Crystals"
"-93.58","69.55","TALOYOAK A","2403855","2019-01-14 01:00","2019","01","14","01:00","-38.6","","-43.2","","63","","","","36","","4","","24.1","","101.99","","","","-44","","Ice Crystals"
"-93.58","69.55","TALOYOAK A","2403855","2019-01-14 02:00","2019","01","14","02:00","-38.1","","-42.6","","64","","","","36","","2","","24.1","","101.98","","","","-41","","Ice Crystals"
"-93.58","69.55","TALOYOAK A","2403855","2019-01-14 03:00","2019","01","14","03:00","-39.2","","-43.7","","63","","","","36","","2","","24.1","","101.98","","","","-42","","Ice Crystals"
"-93.58","69.55","TALOYOAK A","2403855","2019-01-14 04:00","2019","01","14","04:00","-38.3","","-42.8","","64","","","","2","","9","","24.1","","101.96","","","","-48","","Ice Crystals"
"-93.58","69.55","TALOYOAK A","2403855","2019-01-14 05:00","2019","01","14","05:00","-38.4","","-42.9","","64","","","","2","","7","","24.1","","101.93","","","","-47","","Ice Crystals"
"-93.58","69.55","TALOYOAK A","2403855","2019-01-14 06:00","2019","01","14","06:00","-38.3","","-42.9","","64","","","","36","","2","","24.1","","101.91","","","","-41","","Ice Crystals"
"-93.58","69.55","TALOYOAK A","2403855","2019-01-14 07:00","2019","01","14","07:00","-38.9","","-43.4","","63","","","","21","","4","","24.1","","101.89","","","","-44","","Ice Crystals"
"-93.58","69.55","TALOYOAK A","2403855","2019-01-14 08:00","2019","01","14","08:00","-37.6","","-42.1","","64","","","","36","","3","","24.1","","101.90","","","","-42","","Ice Crystals"
"-93.58","69.55","TALOYOAK A","2403855","2019-01-14 09:00","2019","01","14","09:00","-38.1","","-42.6","","64","","","","14","","7","","24.1","","101.87","","","","-47","","Ice Crystals"
"-93.58","69.55","TALOYOAK A","2403855","2019-01-14 10:00","2019","01","14","10:00","-37.8","","-42.3","","64","","","","17","","5","","24.1","","101.83","","","","-44","","Ice Crystals"
"-93.58","69.55","TALOYOAK A","2403855","2019-01-14 11:00","2019","01","14","11:00","-38.7","","-43.3","","63","","","","17","","10","","24.1","","101.78","","","","-50","","Ice Crystals"
"-93.58","69.55","TALOYOAK A","2403855","2019-01-14 12:00","2019","01","14","12:00","-38.9","","-43.5","","63","","","","17","","10","","24.1","","101.76","","","","-50","","Ice Crystals"
"-93.58","69.55","TALOYOAK A","2403855","2019-01-14 13:00","2019","01","14","13:00","-38.8","","-43.4","","63","","","","18","","7","","24.1","","101.70","","","","-48","","Ice Crystals"
"-93.58","69.55","TALOYOAK A","2403855","2019-01-14 14:00","2019","01","14","14:00","-39.0","","-43.6","","63","","","","17","","12","","24.1","","101.72","","","","-51","","Ice Crystals"
"-93.58","69.55","TALOYOAK A","2403855","2019-01-14 15:00","2019","01","14","15:00","-38.5","","-43.0","","63","","","","17","","8","","24.1","","101.67","","","","-48","","Ice Crystals"
"-93.58","69.55","TALOYOAK A","2403855","2019-01-14 16:00","2019","01","14","16:00","-38.5","","-43.1","","63","","","","20","","9","","24.1","","101.63","","","","-49","","Ice Crystals"
"-93.58","69.55","TALOYOAK A","2403855","2019-01-14 17:00","2019","01","14","17:00","-38.9","","-43.5","","63","","","","18","","11","","24.1","","101.57","","","","-50","","Ice Crystals"
"-93.58","69.55","TALOYOAK A","2403855","2019-01-14 18:00","2019","01","14","18:00","-38.1","","-42.7","","63","","","","18","","8","","24.1","","101.54","","","","-47","","Ice Crystals"
"-93.58","69.55","TALOYOAK A","2403855","2019-01-14 19:00","2019","01","14","19:00","-38.4","","-43.0","","63","","","","20","","12","","24.1","","101.50","","","","-50","","NA"
"-93.58","69.55","TALOYOAK A","2403855","2019-01-14 20:00","2019","01","14","20:00","-38.6","","-43.2","","63","","","","18","","10","","24.1","","101.46","","","","-49","","Clear"
"-93.58","69.55","TALOYOAK A","2403855","2019-01-14 21:00","2019","01","14","21:00","-38.5","","-43.0","","63","","","","19","","11","","24.1","","101.42","","","","-50","","Ice Crystals"
"-93.58","69.55","TALOYOAK A","2403855","2019-01-14 22:00","2019","01","14","22:00","-38.5","","-43.1","","63","","","","20","","12","","24.1","","101.38","","","","-50","","Ice Crystals"
"-93.58","69.55","TALOYOAK A","2403855","2019-01-14 23:00","2019","01","14","23:00","-38.2","","-42.8","","63","","","","20","","13","","24.1","","101.30","","","","-51","","Ice Crystals"
"-93.58","69.55","TALOYOAK A","2403855","2019-01-15 00:00","2019","01","15","00:00","-37.3","","-41.8","","64","","","","16","","10","","24.1","","101.22","","","","-48","","Ice Crystals"
"-93.58","69.55","TALOYOAK A","2403855","2019-01-15 01:00","2019","01","15","01:00","-37.0","","-41.5","","64","","","","15","","9","","24.1","","101.16","","","","-47","","Ice Crystals"
"-93.58","69.55","TALOYOAK A","2403855","2019-01-15 02:00","2019","01","15","02:00","-35.7","","-40.1","","65","","","","12","","6","","16.1","","101.10","","","","-43","","Snow"
"-93.58","69.55","TALOYOAK A","2403855","2019-01-15 03:00","2019","01","15","03:00","-34.7","","-39.1","","65","","","","17","","5","","24.1","","101.08","","","","-41","","Snow"
"-93.58","69.55","TALOYOAK A","2403855","2019-01-15 04:00","2019","01","15","04:00","-33.4","","-37.7","","66","","","","36","","3","","24.1","","101.05","","","","-37","","Ice Crystals"
"-93.58","69.55","TALOYOAK A","2403855","2019-01-15 05:00","2019","01","15","05:00","-32.9","","-37.2","","67","","","","31","","7","","24.1","","100.97","","","","-41","","Ice Crystals"
"-93.58","69.55","TALOYOAK A","2403855","2019-01-15 06:00","2019","01","15","06:00","-33.4","","-37.7","","66","","","","32","","26","","24.1","","100.89","","","","-49","","Ice Crystals"
"-93.58","69.55","TALOYOAK A","2403855","2019-01-15 07:00","2019","01","15","07:00","-33.1","","-37.4","","66","","","","34","","26","","24.1","","100.85","","","","-49","","Ice Crystals"
"-93.58","69.55","TALOYOAK A","2403855","2019-01-15 08:00","2019","01","15","08:00","-34.3","","-38.6","","66","","","","35","","24","","24.1","","100.82","","","","-50","","Ice Crystals"
"-93.58","69.55","TALOYOAK A","2403855","2019-01-15 09:00","2019","01","15","09:00","-34.7","","-39.1","","65","","","","35","","19","","24.1","","100.82","","","","-49","","Ice Crystals"
"-93.58","69.55","TALOYOAK A","2403855","2019-01-15 10:00","2019","01","15","10:00","-34.4","","-38.8","","66","","","","34","","16","","24.1","","100.80","","","","-47","","Ice Crystals"
"-93.58","69.55","TALOYOAK A","2403855","2019-01-15 11:00","2019","01","15","11:00","-35.1","","-39.5","","65","","","","35","","16","","24.1","","100.81","","","","-48","","Ice Crystals"
"-93.58","69.55","TALOYOAK A","2403855","2019-01-15 12:00","2019","01","15","12:00","-36.0","","-40.5","","65","","","","35","","12","","24.1","","100.82","","","","-47","","Ice Crystals"
"-93.58","69.55","TALOYOAK A","2403855","2019-01-15 13:00","2019","01","15","13:00","-36.4","","-40.9","","65","","","","35","","16","","24.1","","100.81","","","","-50","","Ice Crystals"
"-93.58","69.55","TALOYOAK A","2403855","2019-01-15 14:00","2019","01","15","14:00","-35.3","","-39.8","","65","","","","36","","14","","24.1","","100.79","","","","-48","","Mostly Cloudy"
"-93.58","69.55","TALOYOAK A","2403855","2019-01-15 15:00","2019","01","15","15:00","-34.1","","-38.4","","66","","","","36","","14","","24.1","","100.80","","","","-46","","Ice Crystals"
"-93.58","69.55","TALOYOAK A","2403855","2019-01-15 16:00","2019","01","15","16:00","-34.0","","-38.4","","66","","","","33","","18","","24.1","","100.79","","","","-47","","Ice Crystals"
"-93.58","69.55","TALOYOAK A","2403855","2019-01-15 17:00","2019","01","15","17:00","-34.8","","-39.1","","65","","","","36","","12","","24.1","","100.80","","","","-46","","Ice Crystals"
"-93.58","69.55","TALOYOAK A","2403855","2019-01-15 18:00","2019","01","15","18:00","-35.1","","-39.5","","65","","","","34","","16","","24.1","","100.79","","","","-48","","Ice Crystals"
"-93.58","69.55","TALOYOAK A","2403855","2019-01-15 19:00","2019","01","15","19:00","-35.5","","-39.9","","65","","","","36","","15","","24.1","","100.79","","","","-48","","Ice Crystals"
"-93.58","69.55","TALOYOAK A","2403855","2019-01-15 20:00","2019","01","15","20:00","-35.7","","-40.1","","65","","","","34","","13","","24.1","","100.78","","","","-48","","Clear"
"-93.58","69.55","TALOYOAK A","2403855","2019-01-15 21:00","2019","01","15","21:00","-35.2","","-39.6","","65","","","","35","","13","","24.1","","100.74","","","","-47","","NA"
"-93.58","69.55","TALOYOAK A","2403855","2019-01-15 22:00","2019","01","15","22:00","-35.4","","-39.8","","65","","","","36","","14","","24.1","","100.74","","","","-48","","NA"
"-93.58","69.55","TALOYOAK A","2403855","2019-01-15 23:00","2019","01","15","23:00","-34.9","","-39.3","","65","","","","34","","10","","24.1","","100.75","","","","-45","","Mostly Cloudy"
"-93.58","69.55","TALOYOAK A","2403855","2019-01-16 00:00","2019","01","16","00:00","-33.0","","-37.3","","66","","","","31","","9","","24.1","","100.74","","","","-42","","Snow"
"-93.58","69.55","TALOYOAK A","2403855","2019-01-16 01:00","2019","01","16","01:00","-33.3","","-37.6","","66","","","","36","","1","","24.1","","100.75","","","","-35","","Snow"
"-93.58","69.55","TALOYOAK A","2403855","2019-01-16 02:00","2019","01","16","02:00","-34.4","","-38.8","","66","","","","23","","3","","24.1","","100.76","","","","-38","","Snow"
"-93.58","69.55","TALOYOAK A","2403855","2019-01-16 03:00","2019","01","16","03:00","-34.5","","-38.9","","66","","","","19","","3","","24.1","","100.74","","","","-38","","Snow"
"-93.58","69.55","TALOYOAK A","2403855","2019-01-16 04:00","2019","01","16","04:00","-34.2","","-38.5","","66","","","","36","","1","","24.1","","100.70","","","","-35","","Ice Crystals"
"-93.58","69.55","TALOYOAK A","2403855","2019-01-16 05:00","2019","01","16","05:00","-34.9","","-39.2","","65","","","","16","","8","","24.1","","100.63","","","","-44","","Ice Crystals"
"-93.58","69.55","TALOYOAK A","2403855","2019-01-16 06:00","2019","01","16","06:00","-36.0","","-40.4","","65","","","","14","","7","","24.1","","100.60","","","","-44","","Ice Crystals"
"-93.58","69.55","TALOYOAK A","2403855","2019-01-16 07:00","2019","01","16","07:00","-36.2","","-40.7","","65","","","","15","","16","","24.1","","100.51","","","","-49","","Ice Crystals"
"-93.58","69.55","TALOYOAK A","2403855","2019-01-16 08:00","2019","01","16","08:00","-36.1","","-40.6","","65","","","","15","","19","","24.1","","100.48","","","","-50","","Ice Crystals"
"-93.58","69.55","TALOYOAK A","2403855","2019-01-16 09:00","2019","01","16","09:00"
"-93.58","69.55","TALOYOAK A","2403855","2019-01-16 10:00","2019","01","16","10:00"
"-93.58","69.55","TALOYOAK A","2403855","2019-01-16 11:00","2019","01","16","11:00"
"-93.58","69.55","TALOYOAK A","2403855","2019-01-16 12:00","2019","01","16","12:00"
"-93.58","69.55","TALOYOAK A","2403855","2019-01-16 13:00","2019","01","16","13:00"
"-93.58","69.55","TALOYOAK A","2403855","2019-01-16 14:00","2019","01","16","14:00"
"-93.58","69.55","TALOYOAK A","2403855","2019-01-16 15:00","2019","01","16","15:00"
"-93.58","69.55","TALOYOAK A","2403855","2019-01-16 16:00","2019","01","16","16:00"
"-93.58","69.55","TALOYOAK A","2403855","2019-01-16 17:00","2019","01","16","17:00"
"-93.58","69.55","TALOYOAK A","2403855","2019-01-16 18:00","2019","01","16","18:00"
"-93.58","69.55","TALOYOAK A","2403855","2019-01-16 19:00","2019","01","16","19:00"
"-93.58","69.55","TALOYOAK A","2403855","2019-01-16 20:00","2019","01","16","20:00"
"-93.58","69.55","TALOYOAK A","2403855","2019-01-16 21:00","2019","01","16","21:00","-38.0","","-42.5","","64","","","","36","","6","","24.1","","101.06","","","","-46","","NA"
"-93.58","69.55","TALOYOAK A","2403855","2019-01-16 22:00","2019","01","16","22:00","-37.0","","-41.5","","64","","","","36","","12","","24.1","","101.13","","","","-49","","NA"
"-93.58","69.55","TALOYOAK A","2403855","2019-01-16 23:00","2019","01","16","23:00","-35.5","","-39.9","","65","","","","1","","12","","24.1","","101.18","","","","-47","","Clear"
"-93.58","69.55","TALOYOAK A","2403855","2019-01-17 00:00","2019","01","17","00:00","-37.9","","-42.4","","64","","","","36","","8","","24.1","","101.24","","","","-47","","Ice Crystals"
"-93.58","69.55","TALOYOAK A","2403855","2019-01-17 01:00","2019","01","17","01:00","-34.6","","-38.9","","66","","","","36","","10","","24.1","","101.22","","","","-45","","Ice Crystals"
"-93.58","69.55","TALOYOAK A","2403855","2019-01-17 02:00","2019","01","17","02:00","-35.2","","-39.6","","65","","","","36","","13","","24.1","","101.30","","","","-47","","Ice Crystals"
"-93.58","69.55","TALOYOAK A","2403855","2019-01-17 03:00","2019","01","17","03:00","-36.1","","-40.5","","65","","","","19","","4","","24.1","","101.35","","","","-41","","Ice Crystals"
"-93.58","69.55","TALOYOAK A","2403855","2019-01-17 04:00","2019","01","17","04:00","-35.7","","-40.1","","65","","","","0","","1","","24.1","","101.40","","","","-37","","Ice Crystals"
"-93.58","69.55","TALOYOAK A","2403855","2019-01-17 05:00","2019","01","17","05:00","-35.0","","-39.4","","65","","","","33","","8","","24.1","","101.41","","","","-44","","Ice Crystals"
"-93.58","69.55","TALOYOAK A","2403855","2019-01-17 06:00","2019","01","17","06:00","-35.4","","-39.8","","65","","","","31","","6","","24.1","","101.42","","","","-43","","Ice Crystals"
"-93.58","69.55","TALOYOAK A","2403855","2019-01-17 07:00","2019","01","17","07:00","-34.6","","-38.9","","66","","","","3","","3","","24.1","","101.44","","","","-38","","Ice Crystals"
"-93.58","69.55","TALOYOAK A","2403855","2019-01-17 08:00","2019","01","17","08:00","-35.1","","-39.5","","65","","","","36","","2","","24.1","","101.49","","","","-38","","Ice Crystals"
"-93.58","69.55","TALOYOAK A","2403855","2019-01-17 09:00","2019","01","17","09:00","-36.8","","-41.2","","64","","","","18","","3","","24.1","","101.51","","","","-41","","Ice Crystals"
"-93.58","69.55","TALOYOAK A","2403855","2019-01-17 10:00","2019","01","17","10:00","-37.8","","-42.3","","64","","","","20","","8","","24.1","","101.53","","","","-47","","Ice Crystals"
"-93.58","69.55","TALOYOAK A","2403855","2019-01-17 11:00","2019","01","17","11:00","-37.9","","-42.4","","64","","","","18","","7","","24.1","","101.58","","","","-46","","Ice Crystals"
"-93.58","69.55","TALOYOAK A","2403855","2019-01-17 12:00","2019","01","17","12:00","-37.8","","-42.3","","64","","","","19","","4","","24.1","","101.61","","","","-43","","Ice Crystals"
"-93.58","69.55","TALOYOAK A","2403855","2019-01-17 13:00","2019","01","17","13:00","-38.9","","-43.4","","63","","","","18","","7","","24.1","","101.67","","","","-48","","Ice Crystals"
"-93.58","69.55","TALOYOAK A","2403855","2019-01-17 14:00","2019","01","17","14:00","-39.1","","-43.7","","63","","","","23","","7","","24.1","","101.71","","","","-48","","Ice Crystals"
"-93.58","69.55","TALOYOAK A","2403855","2019-01-17 15:00","2019","01","17","15:00","-38.6","","-43.1","","63","","","","36","","3","","24.1","","101.76","","","","-43","","Ice Crystals"
"-93.58","69.55","TALOYOAK A","2403855","2019-01-17 16:00","2019","01","17","16:00","-38.6","","-43.2","","63","","","","18","","6","","24.1","","101.77","","","","-46","","Ice Crystals"
"-93.58","69.55","TALOYOAK A","2403855","2019-01-17 17:00","2019","01","17","17:00","-39.0","","-43.6","","63","","","","36","","1","","24.1","","101.82","","","","-40","","Ice Crystals"
"-93.58","69.55","TALOYOAK A","2403855","2019-01-17 18:00","2019","01","17","18:00","-39.4","","-44.0","","63","","","","20","","9","","24.1","","101.82","","","","-50","","Ice Crystals"
"-93.58","69.55","TALOYOAK A","2403855","2019-01-17 19:00","2019","01","17","19:00","-39.3","","-43.9","","63","","","","16","","6","","24.1","","101.85","","","","-47","","Ice Crystals"
"-93.58","69.55","TALOYOAK A","2403855","2019-01-17 20:00","2019","01","17","20:00","-39.6","","-44.2","","63","","","","17","","3","","16.1","","101.89","","","","-44","","Ice Crystals"
"-93.58","69.55","TALOYOAK A","2403855","2019-01-17 21:00","2019","01","17","21:00","-39.1","","-43.7","","63","","","","14","","3","","16.1","","101.94","","","","-43","","Ice Crystals"
"-93.58","69.55","TALOYOAK A","2403855","2019-01-17 22:00","2019","01","17","22:00","-39.5","","-44.1","","63","","","","25","","4","","9.7","","101.92","","","","-45","","Ice Crystals,Fog"
"-93.58","69.55","TALOYOAK A","2403855","2019-01-17 23:00","2019","01","17","23:00","-39.4","","-44.0","","63","","","","23","","3","","16.1","","101.98","","","","-44","","Ice Crystals"
"-93.58","69.55","TALOYOAK A","2403855","2019-01-18 00:00","2019","01","18","00:00","-39.2","","-43.8","","63","","","","25","","4","","24.1","","101.99","","","","-45","","Ice Crystals"
"-93.58","69.55","TALOYOAK A","2403855","2019-01-18 01:00","2019","01","18","01:00","-39.5","","-44.1","","63","","","","17","","5","","19.3","","102.02","","","","-46","","Ice Crystals"
"-93.58","69.55","TALOYOAK A","2403855","2019-01-18 02:00","2019","01","18","02:00","-39.4","","-44.0","","63","","","","20","","7","","19.3","","102.08","","","","-48","","Ice Crystals"
"-93.58","69.55","TALOYOAK A","2403855","2019-01-18 03:00","2019","01","18","03:00","-40.5","","-45.1","","62","","","","18","","10","","19.3","","102.13","","","","-52","","Ice Crystals"
"-93.58","69.55","TALOYOAK A","2403855","2019-01-18 04:00","2019","01","18","04:00","-40.0","","-44.7","","62","","","","17","","6","","19.3","","102.15","","","","-48","","Ice Crystals"
"-93.58","69.55","TALOYOAK A","2403855","2019-01-18 05:00","2019","01","18","05:00","-40.4","","-45.0","","62","","","","19","","11","","16.1","","102.19","","","","-52","","Ice Crystals"
"-93.58","69.55","TALOYOAK A","2403855","2019-01-18 06:00","2019","01","18","06:00","-40.2","","-44.9","","62","","","","17","","14","","19.3","","102.19","","","","-54","","Ice Crystals"
"-93.58","69.55","TALOYOAK A","2403855","2019-01-18 07:00","2019","01","18","07:00","-40.0","","-44.7","","62","","","","16","","17","","16.1","","102.20","","","","-55","","Ice Crystals"
"-93.58","69.55","TALOYOAK A","2403855","2019-01-18 08:00","2019","01","18","08:00","-39.8","","-44.5","","62","","","","17","","18","","19.3","","102.20","","","","-55","","Ice Crystals"
"-93.58","69.55","TALOYOAK A","2403855","2019-01-18 09:00","2019","01","18","09:00","-39.3","","-43.9","","63","","","","16","","19","","24.1","","102.19","","","","-54","","Ice Crystals"
"-93.58","69.55","TALOYOAK A","2403855","2019-01-18 10:00","2019","01","18","10:00","-38.9","","-43.5","","63","","","","16","","23","","12.9","","102.17","","","","-55","","Ice Crystals"
"-93.58","69.55","TALOYOAK A","2403855","2019-01-18 11:00","2019","01","18","11:00","-37.6","","-42.2","","63","","","","16","","23","","12.9","","102.10","","","","-54","","Ice Crystals"
"-93.58","69.55","TALOYOAK A","2403855","2019-01-18 12:00","2019","01","18","12:00","-35.6","","-40.0","","65","","","","16","","25","","16.1","","102.07","","","","-52","","Ice Crystals"
"-93.58","69.55","TALOYOAK A","2403855","2019-01-18 13:00","2019","01","18","13:00","-32.4","","-36.6","","67","","","","20","","21","","6.4","","101.97","","","","-46","","Snow,Fog"
"-93.58","69.55","TALOYOAK A","2403855","2019-01-18 14:00","2019","01","18","14:00","-30.6","","-34.7","","68","","","","24","","16","","9.7","","101.96","","","","-43","","Ice Crystals,Fog"
"-93.58","69.55","TALOYOAK A","2403855","2019-01-18 15:00","2019","01","18","15:00","-32.5","","-36.8","","67","","","","19","","15","","9.7","","101.86","","","","-44","","Ice Crystals,Fog"
"-93.58","69.55","TALOYOAK A","2403855","2019-01-18 16:00","2019","01","18","16:00","-31.0","","-35.2","","68","","","","10","","8","","6.4","","101.84","","","","-39","","Ice Crystals,Fog"
"-93.58","69.55","TALOYOAK A","2403855","2019-01-18 17:00","2019","01","18","17:00","-29.8","","-33.9","","68","","","","16","","10","","3.2","","101.68","","","","-39","","Ice Crystals,Fog"
"-93.58","69.55","TALOYOAK A","2403855","2019-01-18 18:00","2019","01","18","18:00","-27.6","","-31.5","","70","","","","25","","12","","3.2","","101.55","","","","-37","","Ice Crystals,Fog"
"-93.58","69.55","TALOYOAK A","2403855","2019-01-18 19:00","2019","01","18","19:00","-28.5","","-32.5","","69","","","","24","","25","","1.6","","101.42","","","","-43","","Snow Showers,Fog,Blowing Snow"
"-93.58","69.55","TALOYOAK A","2403855","2019-01-18 20:00","2019","01","18","20:00","-25.8","","-29.6","","71","","","","22","","15","","3.2","","101.31","","","","-36","","Ice Crystals,Fog"
"-93.58","69.55","TALOYOAK A","2403855","2019-01-18 21:00","2019","01","18","21:00","-24.5","","-28.1","","72","","","","27","","25","","2.0","","101.16","","","","-37","","Snow Showers,Blowing Snow"
"-93.58","69.55","TALOYOAK A","2403855","2019-01-18 22:00","2019","01","18","22:00","-23.4","","-26.9","","73","","","","25","","13","","3.2","","101.06","","","","-33","","Ice Crystals,Fog,Blowing Snow"
"-93.58","69.55","TALOYOAK A","2403855","2019-01-18 23:00","2019","01","18","23:00","-21.3","","-24.6","","75","","","","29","","29","","3.2","","100.93","","","","-34","","Snow,Fog,Blowing Snow"
"-93.58","69.55","TALOYOAK A","2403855","2019-01-19 00:00","2019","01","19","00:00","-20.7","","-23.9","","76","","","","31","","26","","3.2","","100.84","","","","-33","","Snow,Fog,Blowing Snow"
"-93.58","69.55","TALOYOAK A","2403855","2019-01-19 01:00","2019","01","19","01:00","-20.5","","-23.7","","76","","","","30","","33","","9.7","","100.74","","","","-34","","Snow,Fog,Blowing Snow"
"-93.58","69.55","TALOYOAK A","2403855","2019-01-19 02:00","2019","01","19","02:00","-20.2","","-23.3","","76","","","","31","","32","","9.7","","100.68","","","","-33","","Snow,Fog,Blowing Snow"
"-93.58","69.55","TALOYOAK A","2403855","2019-01-19 03:00","2019","01","19","03:00","-20.8","","-24.0","","76","","","","31","","33","","16.1","","100.64","","","","-34","","Snow,Blowing Snow"
"-93.58","69.55","TALOYOAK A","2403855","2019-01-19 04:00","2019","01","19","04:00","-21.6","","-24.9","","75","","","","32","","27","","19.3","","100.61","","","","-34","","Snow,Blowing Snow"
"-93.58","69.55","TALOYOAK A","2403855","2019-01-19 05:00","2019","01","19","05:00","-22.7","","-26.1","","74","","","","30","","30","","16.1","","100.52","","","","-36","","Snow,Blowing Snow"
"-93.58","69.55","TALOYOAK A","2403855","2019-01-19 06:00","2019","01","19","06:00","-22.9","","-26.4","","74","","","","31","","40","","19.3","","100.40","","","","-38","","Ice Crystals,Blowing Snow"
"-93.58","69.55","TALOYOAK A","2403855","2019-01-19 07:00","2019","01","19","07:00","-23.2","","-26.6","","74","","","","31","","38","","19.3","","100.34","","","","-38","","Ice Crystals,Blowing Snow"
"-93.58","69.55","TALOYOAK A","2403855","2019-01-19 08:00","2019","01","19","08:00","-22.4","","-25.8","","75","","","","32","","34","","9.7","","100.26","","","","-36","","Ice Crystals,Blowing Snow"
"-93.58","69.55","TALOYOAK A","2403855","2019-01-19 09:00","2019","01","19","09:00","-22.5","","-25.9","","75","","","","33","","26","","6.4","","100.23","","","","-35","","Ice Crystals,Fog,Blowing Snow"
"-93.58","69.55","TALOYOAK A","2403855","2019-01-19 10:00","2019","01","19","10:00","-22.4","","-25.8","","75","","","","32","","35","","3.2","","100.16","","","","-37","","Ice Crystals,Fog,Blowing Snow"
"-93.58","69.55","TALOYOAK A","2403855","2019-01-19 11:00","2019","01","19","11:00","-22.8","","-26.1","","74","","","","31","","47","","3.2","","100.09","","","","-39","","Ice Crystals,Fog,Blowing Snow"
"-93.58","69.55","TALOYOAK A","2403855","2019-01-19 12:00","2019","01","19","12:00","-22.8","","-26.2","","74","","","","32","","39","","6.4","","100.10","","","","-38","","Ice Crystals,Fog,Blowing Snow"
"-93.58","69.55","TALOYOAK A","2403855","2019-01-19 13:00","2019","01","19","13:00","-24.1","","-27.6","","73","","","","32","","39","","24.1","","100.10","","","","-39","","Ice Crystals,Blowing Snow"
"-93.58","69.55","TALOYOAK A","2403855","2019-01-19 14:00","2019","01","19","14:00","-26.5","","-30.2","","72","","","","34","","13","","24.1","","100.16","","","","-36","","Ice Crystals"
"-93.58","69.55","TALOYOAK A","2403855","2019-01-19 15:00","2019","01","19","15:00","-27.3","","-31.0","","71","","","","32","","26","","24.1","","100.14","","","","-41","","Ice Crystals"
"-93.58","69.55","TALOYOAK A","2403855","2019-01-19 16:00","2019","01","19","16:00","-27.8","","-31.6","","71","","","","32","","40","","24.1","","100.13","","","","-45","","Ice Crystals,Blowing Snow"
"-93.58","69.55","TALOYOAK A","2403855","2019-01-19 17:00","2019","01","19","17:00","-29.1","","-33.0","","70","","","","33","","35","","24.1","","100.11","","","","-45","","Ice Crystals,Blowing Snow"
"-93.58","69.55","TALOYOAK A","2403855","2019-01-19 18:00","2019","01","19","18:00","-30.3","","-34.3","","69","","","","32","","31","","24.1","","100.10","","","","-46","","Ice Crystals,Blowing Snow"
"-93.58","69.55","TALOYOAK A","2403855","2019-01-19 19:00","2019","01","19","19:00","-30.5","","-34.5","","69","","","","32","","30","","24.1","","100.11","","","","-46","","Ice Crystals,Blowing Snow"
"-93.58","69.55","TALOYOAK A","2403855","2019-01-19 20:00","2019","01","19","20:00","-31.5","","-35.6","","68","","","","33","","25","","24.1","","100.18","","","","-46","","Ice Crystals,Blowing Snow"
"-93.58","69.55","TALOYOAK A","2403855","2019-01-19 21:00","2019","01","19","21:00","-32.3","","-36.5","","68","","","","33","","22","","24.1","","100.20","","","","-47","","Ice Crystals,Blowing Snow"
"-93.58","69.55","TALOYOAK A","2403855","2019-01-19 22:00","2019","01","19","22:00","-32.4","","-36.5","","68","","","","33","","20","","24.1","","100.20","","","","-46","","Ice Crystals,Blowing Snow"
"-93.58","69.55","TALOYOAK A","2403855","2019-01-19 23:00","2019","01","19","23:00","-31.6","","-35.7","","68","","","","32","","26","","24.1","","100.17","","","","-47","","Ice Crystals,Blowing Snow"
"-93.58","69.55","TALOYOAK A","2403855","2019-01-20 00:00","2019","01","20","00:00","-31.9","","-36.1","","68","","","","32","","29","","24.1","","100.14","","","","-48","","Ice Crystals,Blowing Snow"
"-93.58","69.55","TALOYOAK A","2403855","2019-01-20 01:00","2019","01","20","01:00","-32.4","","-36.6","","67","","","","32","","27","","24.1","","100.16","","","","-48","","Ice Crystals,Blowing Snow"
"-93.58","69.55","TALOYOAK A","2403855","2019-01-20 02:00","2019","01","20","02:00","-32.2","","-36.4","","67","","","","33","","16","","24.1","","100.19","","","","-45","","Ice Crystals,Blowing Snow"
"-93.58","69.55","TALOYOAK A","2403855","2019-01-20 03:00","2019","01","20","03:00","-32.3","","-36.5","","67","","","","31","","14","","24.1","","100.19","","","","-44","","Ice Crystals"
"-93.58","69.55","TALOYOAK A","2403855","2019-01-20 04:00","2019","01","20","04:00","-34.3","","-38.6","","66","","","","34","","12","","24.1","","100.15","","","","-45","","Ice Crystals"
"-93.58","69.55","TALOYOAK A","2403855","2019-01-20 05:00","2019","01","20","05:00","-33.9","","-38.2","","66","","","","30","","18","","24.1","","100.08","","","","-47","","Ice Crystals"
"-93.58","69.55","TALOYOAK A","2403855","2019-01-20 06:00","2019","01","20","06:00","-33.7","","-37.9","","66","","","","31","","28","","24.1","","99.97","","","","-50","","Ice Crystals"
"-93.58","69.55","TALOYOAK A","2403855","2019-01-20 07:00","2019","01","20","07:00","-35.0","","-39.4","","66","","","","30","","36","","4.8","","99.90","","","","-53","","Ice Crystals,Blowing Snow"
"-93.58","69.55","TALOYOAK A","2403855","2019-01-20 08:00","2019","01","20","08:00","-35.7","","-40.1","","65","","","","31","","37","","1.6","","99.82","","","","-55","","Ice Crystals,Blowing Snow"
"-93.58","69.55","TALOYOAK A","2403855","2019-01-20 09:00","2019","01","20","09:00","-36.1","","-40.5","","65","","","","32","","36","","1.6","","99.80","","","","-55","","Ice Crystals,Blowing Snow"
"-93.58","69.55","TALOYOAK A","2403855","2019-01-20 10:00","2019","01","20","10:00","-36.2","","-40.5","","65","","","","32","","28","","8.1","","99.80","","","","-53","","Ice Crystals,Blowing Snow"
"-93.58","69.55","TALOYOAK A","2403855","2019-01-20 11:00","2019","01","20","11:00","-36.4","","-40.8","","65","","","","32","","27","","19.3","","99.79","","","","-53","","Ice Crystals,Blowing Snow"
"-93.58","69.55","TALOYOAK A","2403855","2019-01-20 12:00","2019","01","20","12:00","-37.0","","-41.5","","64","","","","33","","25","","24.1","","99.82","","","","-53","","Ice Crystals,Blowing Snow"
"-93.58","69.55","TALOYOAK A","2403855","2019-01-20 13:00","2019","01","20","13:00","-38.0","","-42.5","","64","","","","34","","17","","24.1","","99.84","","","","-52","","Ice Crystals,Blowing Snow"
"-93.58","69.55","TALOYOAK A","2403855","2019-01-20 14:00","2019","01","20","14:00","-38.4","","-42.9","","63","","","","36","","10","","24.1","","99.86","","","","-49","","Ice Crystals"
"-93.58","69.55","TALOYOAK A","2403855","2019-01-20 15:00","2019","01","20","15:00","-38.7","","-43.3","","63","","","","2","","12","","24.1","","99.89","","","","-51","","Ice Crystals"
"-93.58","69.55","TALOYOAK A","2403855","2019-01-20 16:00","2019","01","20","16:00","-39.1","","-43.7","","63","","","","1","","12","","24.1","","99.89","","","","-51","","Ice Crystals"
"-93.58","69.55","TALOYOAK A","2403855","2019-01-20 17:00","2019","01","20","17:00","-38.7","","-43.3","","63","","","","2","","10","","24.1","","99.91","","","","-50","","Ice Crystals"
"-93.58","69.55","TALOYOAK A","2403855","2019-01-20 18:00","2019","01","20","18:00","-38.8","","-43.3","","63","","","","15","","5","","24.1","","99.92","","","","-46","","Ice Crystals"
"-93.58","69.55","TALOYOAK A","2403855","2019-01-20 19:00","2019","01","20","19:00","-38.5","","-42.9","","64","","","","15","","5","","24.1","","99.90","","","","-45","","Ice Crystals"
"-93.58","69.55","TALOYOAK A","2403855","2019-01-20 20:00","2019","01","20","20:00","-38.2","","-42.6","","64","","","","17","","3","","24.1","","99.92","","","","-42","","Ice Crystals"
"-93.58","69.55","TALOYOAK A","2403855","2019-01-20 21:00","2019","01","20","21:00"
"-93.58","69.55","TALOYOAK A","2403855","2019-01-20 22:00","2019","01","20","22:00"
"-93.58","69.55","TALOYOAK A","2403855","2019-01-20 23:00","2019","01","20","23:00"
"-93.58","69.55","TALOYOAK A","2403855","2019-01-21 00:00","2019","01","21","00:00"
"-93.58","69.55","TALOYOAK A","2403855","2019-01-21 01:00","2019","01","21","01:00","-40.1","","-44.6","","63","","","","18","","9","","24.1","","99.98","","","","-51","","Ice Crystals"
"-93.58","69.55","TALOYOAK A","2403855","2019-01-21 02:00","2019","01","21","02:00","-39.7","","-44.3","","63","","","","16","","12","","24.1","","100.02","","","","-52","","Ice Crystals"
"-93.58","69.55","TALOYOAK A","2403855","2019-01-21 03:00","2019","01","21","03:00","-40.5","","-45.1","","63","","","","18","","13","","24.1","","100.05","","","","-53","","Ice Crystals"
"-93.58","69.55","TALOYOAK A","2403855","2019-01-21 04:00","2019","01","21","04:00","-40.4","","-45.0","","63","","","","17","","16","","24.1","","100.06","","","","-55","","Ice Crystals"
"-93.58","69.55","TALOYOAK A","2403855","2019-01-21 05:00","2019","01","21","05:00","-40.1","","-44.7","","63","","","","17","","15","","24.1","","100.08","","","","-54","","Ice Crystals"
"-93.58","69.55","TALOYOAK A","2403855","2019-01-21 06:00","2019","01","21","06:00","-40.1","","-44.7","","63","","","","16","","14","","24.1","","100.07","","","","-53","","Ice Crystals"
"-93.58","69.55","TALOYOAK A","2403855","2019-01-21 07:00","2019","01","21","07:00","-39.6","","-44.2","","63","","","","16","","17","","24.1","","100.09","","","","-54","","Snow,Fog,Blowing Snow"
"-93.58","69.55","TALOYOAK A","2403855","2019-01-21 08:00","2019","01","21","08:00","-40.4","","-45.0","","63","","","","17","","13","","8.1","","100.10","","","","-53","","Snow,Fog,Blowing Snow"
"-93.58","69.55","TALOYOAK A","2403855","2019-01-21 09:00","2019","01","21","09:00","-40.6","","-45.2","","63","","","","17","","13","","16.1","","100.14","","","","-54","","Ice Crystals"
"-93.58","69.55","TALOYOAK A","2403855","2019-01-21 10:00","2019","01","21","10:00","-41.0","","-45.6","","62","","","","17","","16","","16.1","","100.15","","","","-55","","Ice Crystals"
"-93.58","69.55","TALOYOAK A","2403855","2019-01-21 11:00","2019","01","21","11:00","-41.1","","-45.7","","62","","","","15","","11","","19.3","","100.19","","","","-53","","Ice Crystals"
"-93.58","69.55","TALOYOAK A","2403855","2019-01-21 12:00","2019","01","21","12:00","-40.9","","-45.5","","62","","","","15","","3","","16.1","","100.23","","","","-45","","Ice Crystals"
"-93.58","69.55","TALOYOAK A","2403855","2019-01-21 13:00","2019","01","21","13:00","-41.8","","-46.5","","62","","","","1","","9","","16.1","","100.30","","","","-53","","Ice Crystals"
"-93.58","69.55","TALOYOAK A","2403855","2019-01-21 14:00","2019","01","21","14:00","-42.4","","-47.0","","62","","","","2","","11","","24.1","","100.36","","","","-55","","Ice Crystals"
"-93.58","69.55","TALOYOAK A","2403855","2019-01-21 15:00","2019","01","21","15:00","-42.5","","-47.2","","62","","","","2","","11","","24.1","","100.44","","","","-55","","Ice Crystals"
"-93.58","69.55","TALOYOAK A","2403855","2019-01-21 16:00","2019","01","21","16:00","-42.1","","-46.8","","62","","","","35","","5","","16.1","","100.47","","","","-49","","Ice Crystals"
"-93.58","69.55","TALOYOAK A","2403855","2019-01-21 17:00","2019","01","21","17:00","-41.7","","-46.4","","62","","","","2","","9","","16.1","","100.51","","","","-52","","Ice Crystals"
"-93.58","69.55","TALOYOAK A","2403855","2019-01-21 18:00","2019","01","21","18:00","-41.3","","-46.0","","62","","","","2","","13","","24.1","","100.51","","","","-54","","Ice Crystals"
"-93.58","69.55","TALOYOAK A","2403855","2019-01-21 19:00","2019","01","21","19:00","-41.5","","-46.2","","62","","","","36","","2","","24.1","","100.55","","","","-44","","Ice Crystals"
"-93.58","69.55","TALOYOAK A","2403855","2019-01-21 20:00","2019","01","21","20:00","-41.5","","-46.2","","62","","","","36","","8","","24.1","","100.55","","","","-51","","Ice Crystals"
"-93.58","69.55","TALOYOAK A","2403855","2019-01-21 21:00","2019","01","21","21:00","-42.0","","-46.7","","62","","","","30","","8","","24.1","","100.55","","","","-52","","Ice Crystals"
"-93.58","69.55","TALOYOAK A","2403855","2019-01-21 22:00","2019","01","21","22:00","-40.8","","-45.4","","62","","","","34","","15","","24.1","","100.55","","","","-55","","Ice Crystals"
"-93.58","69.55","TALOYOAK A","2403855","2019-01-21 23:00","2019","01","21","23:00","-41.8","","-46.5","","62","","","","35","","10","","24.1","","100.54","","","","-53","","Ice Crystals"
"-93.58","69.55","TALOYOAK A","2403855","2019-01-22 00:00","2019","01","22","00:00","-39.3","","-43.9","","63","","","","36","","13","","24.1","","100.54","","","","-52","","Ice Crystals"
"-93.58","69.55","TALOYOAK A","2403855","2019-01-22 01:00","2019","01","22","01:00","-38.8","","-43.4","","63","","","","1","","16","","24.1","","100.55","","","","-53","","Ice Crystals"
"-93.58","69.55","TALOYOAK A","2403855","2019-01-22 02:00","2019","01","22","02:00","-39.0","","-43.6","","63","","","","35","","14","","24.1","","100.55","","","","-52","","Ice Crystals"
"-93.58","69.55","TALOYOAK A","2403855","2019-01-22 03:00","2019","01","22","03:00","-37.2","","-41.7","","64","","","","33","","10","","9.7","","100.56","","","","-48","","Snow"
"-93.58","69.55","TALOYOAK A","2403855","2019-01-22 04:00","2019","01","22","04:00","-36.4","","-40.9","","64","","","","33","","17","","16.1","","100.54","","","","-50","","Snow"
"-93.58","69.55","TALOYOAK A","2403855","2019-01-22 05:00","2019","01","22","05:00","-36.4","","-40.9","","64","","","","34","","6","","16.1","","100.53","","","","-44","","Ice Crystals"
"-93.58","69.55","TALOYOAK A","2403855","2019-01-22 06:00","2019","01","22","06:00","-38.2","","-42.7","","64","","","","33","","7","","16.1","","100.52","","","","-47","","Ice Crystals"
"-93.58","69.55","TALOYOAK A","2403855","2019-01-22 07:00","2019","01","22","07:00","-37.6","","-42.2","","64","","","","33","","13","","24.1","","100.51","","","","-50","","Ice Crystals"
"-93.58","69.55","TALOYOAK A","2403855","2019-01-22 08:00","2019","01","22","08:00","-38.8","","-43.4","","63","","","","33","","9","","24.1","","100.50","","","","-49","","Ice Crystals"
"-93.58","69.55","TALOYOAK A","2403855","2019-01-22 09:00","2019","01","22","09:00","-37.3","","-41.9","","64","","","","33","","10","","24.1","","100.50","","","","-48","","Ice Crystals"
"-93.58","69.55","TALOYOAK A","2403855","2019-01-22 10:00","2019","01","22","10:00","-36.5","","-41.0","","64","","","","34","","8","","16.1","","100.50","","","","-46","","Snow"
"-93.58","69.55","TALOYOAK A","2403855","2019-01-22 11:00","2019","01","22","11:00","-34.2","","-38.5","","66","","","","36","","3","","9.7","","100.51","","","","-38","","Snow,Fog"
"-93.58","69.55","TALOYOAK A","2403855","2019-01-22 12:00","2019","01","22","12:00","-37.7","","-42.2","","64","","","","16","","5","","4.8","","100.53","","","","-44","","Snow,Fog"
"-93.58","69.55","TALOYOAK A","2403855","2019-01-22 13:00","2019","01","22","13:00","-38.1","","-42.6","","64","","","","16","","7","","4.8","","100.52","","","","-47","","Snow,Fog"
"-93.58","69.55","TALOYOAK A","2403855","2019-01-22 14:00","2019","01","22","14:00","-37.6","","-42.1","","64","","","","18","","5","","4.8","","100.54","","","","-44","","Snow,Fog"
"-93.58","69.55","TALOYOAK A","2403855","2019-01-22 15:00","2019","01","22","15:00","-37.4","","-41.9","","64","","","","17","","3","","16.1","","100.57","","","","-41","","Snow"
"-93.58","69.55","TALOYOAK A","2403855","2019-01-22 16:00","2019","01","22","16:00","-38.0","","-42.5","","64","","","","18","","5","","16.1","","100.58","","","","-45","","Ice Crystals"
"-93.58","69.55","TALOYOAK A","2403855","2019-01-22 17:00","2019","01","22","17:00","-37.9","","-42.5","","64","","","","17","","4","","16.1","","100.58","","","","-43","","Ice Crystals"
"-93.58","69.55","TALOYOAK A","2403855","2019-01-22 18:00","2019","01","22","18:00","-38.6","","-43.1","","63","","","","18","","4","","11.3","","100.60","","","","-44","","Ice Crystals"
"-93.58","69.55","TALOYOAK A","2403855","2019-01-22 19:00","2019","01","22","19:00","-39.0","","-43.5","","63","","","","18","","5","","16.1","","100.59","","","","-46","","Ice Crystals"
"-93.58","69.55","TALOYOAK A","2403855","2019-01-22 20:00","2019","01","22","20:00","-39.1","","-43.6","","63","","","","18","","4","","16.1","","100.60","","","","-45","","Ice Crystals"
"-93.58","69.55","TALOYOAK A","2403855","2019-01-22 21:00","2019","01","22","21:00","-39.0","","-43.5","","63","","","","17","","7","","16.1","","100.59","","","","-48","","Ice Crystals"
"-93.58","69.55","TALOYOAK A","2403855","2019-01-22 22:00","2019","01","22","22:00","-39.1","","-43.6","","63","","","","18","","7","","16.1","","100.60","","","","-48","","Ice Crystals"
"-93.58","69.55","TALOYOAK A","2403855","2019-01-22 23:00","2019","01","22","23:00","-39.6","","-44.2","","63","","","","18","","12","","16.1","","100.61","","","","-52","","Ice Crystals"
"-93.58","69.55","TALOYOAK A","2403855","2019-01-23 00:00","2019","01","23","00:00","-39.7","","-44.3","","63","","","","17","","10","","16.1","","100.63","","","","-51","","Ice Crystals"
"-93.58","69.55","TALOYOAK A","2403855","2019-01-23 01:00","2019","01","23","01:00","-39.1","","-43.7","","63","","","","18","","8","","16.1","","100.60","","","","-49","","Ice Crystals"
"-93.58","69.55","TALOYOAK A","2403855","2019-01-23 02:00","2019","01","23","02:00","-38.3","","-42.9","","63","","","","18","","9","","16.1","","100.59","","","","-48","","Snow"
"-93.58","69.55","TALOYOAK A","2403855","2019-01-23 03:00","2019","01","23","03:00","-37.8","","-42.4","","64","","","","19","","10","","12.9","","100.62","","","","-48","","Snow"
"-93.58","69.55","TALOYOAK A","2403855","2019-01-23 04:00","2019","01","23","04:00","-37.6","","-42.1","","64","","","","18","","9","","12.9","","100.60","","","","-48","","Snow"
"-93.58","69.55","TALOYOAK A","2403855","2019-01-23 05:00","2019","01","23","05:00","-37.3","","-41.8","","64","","","","18","","8","","9.7","","100.58","","","","-47","","Snow"
"-93.58","69.55","TALOYOAK A","2403855","2019-01-23 06:00","2019","01","23","06:00","-37.0","","-41.5","","64","","","","18","","12","","12.9","","100.57","","","","-49","","Snow"
"-93.58","69.55","TALOYOAK A","2403855","2019-01-23 07:00","2019","01","23","07:00","-37.6","","-42.1","","64","","","","18","","10","","16.1","","100.56","","","","-48","","Snow"
"-93.58","69.55","TALOYOAK A","2403855","2019-01-23 08:00","2019","01","23","08:00","-36.9","","-41.4","","64","","","","21","","6","","12.9","","100.52","","","","-44","","Snow"
"-93.58","69.55","TALOYOAK A","2403855","2019-01-23 09:00","2019","01","23","09:00","-36.0","","-40.4","","65","","","","17","","8","","4.0","","100.52","","","","-45","","Snow"
"-93.58","69.55","TALOYOAK A","2403855","2019-01-23 10:00","2019","01","23","10:00","-36.1","","-40.5","","65","","","","18","","12","","4.8","","100.54","","","","-48","","Snow"
"-93.58","69.55","TALOYOAK A","2403855","2019-01-23 11:00","2019","01","23","11:00","-36.0","","-40.5","","65","","","","16","","11","","4.8","","100.58","","","","-47","","Snow"
"-93.58","69.55","TALOYOAK A","2403855","2019-01-23 12:00","2019","01","23","12:00","-35.3","","-39.7","","65","","","","18","","9","","8.1","","100.58","","","","-45","","Snow"
"-93.58","69.55","TALOYOAK A","2403855","2019-01-23 13:00","2019","01","23","13:00","-34.7","","-39.1","","65","","","","17","","7","","4.8","","100.58","","","","-43","","Snow"
"-93.58","69.55","TALOYOAK A","2403855","2019-01-23 14:00","2019","01","23","14:00","-34.4","","-38.8","","66","","","","17","","8","","4.8","","100.61","","","","-43","","Snow"
"-93.58","69.55","TALOYOAK A","2403855","2019-01-23 15:00","2019","01","23","15:00","-34.4","","-38.7","","66","","","","18","","7","","4.8","","100.65","","","","-42","","Snow"
"-93.58","69.55","TALOYOAK A","2403855","2019-01-23 16:00","2019","01","23","16:00","-34.3","","-38.7","","66","","","","19","","6","","8.1","","100.67","","","","-41","","Snow"
"-93.58","69.55","TALOYOAK A","2403855","2019-01-23 17:00","2019","01","23","17:00","-34.5","","-38.8","","66","","","","19","","4","","16.1","","100.66","","","","-39","","Snow"
"-93.58","69.55","TALOYOAK A","2403855","2019-01-23 18:00","2019","01","23","18:00","-34.7","","-39.0","","66","","","","20","","3","","16.1","","100.68","","","","-38","","Ice Crystals"
"-93.58","69.55","TALOYOAK A","2403855","2019-01-23 19:00","2019","01","23","19:00","-34.6","","-39.0","","66","","","","21","","4","","11.3","","100.71","","","","-40","","Ice Crystals"
"-93.58","69.55","TALOYOAK A","2403855","2019-01-23 20:00","2019","01","23","20:00","-34.7","","-39.0","","66","","","","36","","2","","16.1","","100.72","","","","-37","","Ice Crystals"
"-93.58","69.55","TALOYOAK A","2403855","2019-01-23 21:00","2019","01","23","21:00","-35.0","","-39.4","","65","","","","28","","4","","16.1","","100.74","","","","-40","","Ice Crystals"
"-93.58","69.55","TALOYOAK A","2403855","2019-01-23 22:00","2019","01","23","22:00","-34.3","","-38.7","","66","","","","36","","5","","16.1","","100.78","","","","-41","","Ice Crystals"
"-93.58","69.55","TALOYOAK A","2403855","2019-01-23 23:00","2019","01","23","23:00","-33.1","","-37.4","","66","","","","35","","5","","16.1","","100.80","","","","-39","","Ice Crystals"
"-93.58","69.55","TALOYOAK A","2403855","2019-01-24 00:00","2019","01","24","00:00","-31.6","","-35.9","","67","","","","36","","9","","16.1","","100.84","","","","-40","","Ice Crystals"
"-93.58","69.55","TALOYOAK A","2403855","2019-01-24 01:00","2019","01","24","01:00","-31.8","","-36.0","","67","","","","1","","11","","16.1","","100.89","","","","-42","","Ice Crystals"
"-93.58","69.55","TALOYOAK A","2403855","2019-01-24 02:00","2019","01","24","02:00","-31.8","","-36.0","","67","","","","1","","9","","16.1","","100.91","","","","-41","","Ice Crystals"
"-93.58","69.55","TALOYOAK A","2403855","2019-01-24 03:00","2019","01","24","03:00","-31.5","","-35.7","","67","","","","4","","14","","16.1","","100.94","","","","-43","","Ice Crystals"
"-93.58","69.55","TALOYOAK A","2403855","2019-01-24 04:00","2019","01","24","04:00","-32.2","","-36.5","","67","","","","7","","10","","24.1","","100.99","","","","-42","","Ice Crystals"
"-93.58","69.55","TALOYOAK A","2403855","2019-01-24 05:00","2019","01","24","05:00","-34.6","","-38.9","","66","","","","7","","17","","24.1","","101.04","","","","-48","","Ice Crystals"
"-93.58","69.55","TALOYOAK A","2403855","2019-01-24 06:00","2019","01","24","06:00","-38.3","","-42.8","","64","","","","1","","9","","24.1","","101.11","","","","-48","","Ice Crystals"
"-93.58","69.55","TALOYOAK A","2403855","2019-01-24 07:00","2019","01","24","07:00","-35.4","","-39.8","","65","","","","4","","10","","24.1","","101.15","","","","-46","","Ice Crystals"
"-93.58","69.55","TALOYOAK A","2403855","2019-01-24 08:00","2019","01","24","08:00","-38.6","","-43.0","","64","","","","3","","11","","24.1","","101.19","","","","-50","","Ice Crystals"
"-93.58","69.55","TALOYOAK A","2403855","2019-01-24 09:00","2019","01","24","09:00","-37.1","","-41.5","","64","","","","4","","15","","24.1","","101.28","","","","-50","","Ice Crystals"
"-93.58","69.55","TALOYOAK A","2403855","2019-01-24 10:00","2019","01","24","10:00","-38.3","","-42.8","","64","","","","2","","9","","24.1","","101.30","","","","-48","","NA"
"-93.58","69.55","TALOYOAK A","2403855","2019-01-24 11:00","2019","01","24","11:00","-39.7","","-44.2","","63","","","","3","","15","","24.1","","101.36","","","","-53","","Clear"
"-93.58","69.55","TALOYOAK A","2403855","2019-01-24 12:00","2019","01","24","12:00","-40.2","","-44.8","","63","","","","34","","7","","24.1","","101.43","","","","-49","","NA"
"-93.58","69.55","TALOYOAK A","2403855","2019-01-24 13:00","2019","01","24","13:00","-40.5","","-45.1","","63","","","","3","","25","","24.1","","101.44","","","","-58","","NA"
"-93.58","69.55","TALOYOAK A","2403855","2019-01-24 14:00","2019","01","24","14:00","-39.7","","-44.3","","63","","","","4","","23","","24.1","","101.50","","","","-56","","Clear"
"-93.58","69.55","TALOYOAK A","2403855","2019-01-24 15:00","2019","01","24","15:00","-37.8","","-42.3","","64","","","","6","","23","","24.1","","101.57","","","","-54","","NA"
"-93.58","69.55","TALOYOAK A","2403855","2019-01-24 16:00","2019","01","24","16:00","-40.9","","-45.5","","62","","","","34","","7","","24.1","","101.68","","","","-50","","Ice Crystals,Fog"
"-93.58","69.55","TALOYOAK A","2403855","2019-01-24 17:00","2019","01","24","17:00","-39.9","","-44.5","","63","","","","2","","14","","24.1","","101.70","","","","-53","","Ice Crystals"
"-93.58","69.55","TALOYOAK A","2403855","2019-01-24 18:00","2019","01","24","18:00","-41.5","","-46.1","","62","","","","1","","10","","24.1","","101.73","","","","-53","","Ice Crystals"
"-93.58","69.55","TALOYOAK A","2403855","2019-01-24 19:00","2019","01","24","19:00","-40.7","","-45.3","","62","","","","1","","4","","24.1","","101.77","","","","-46","","Ice Crystals"
"-93.58","69.55","TALOYOAK A","2403855","2019-01-24 20:00","2019","01","24","20:00","-40.8","","-45.4","","62","","","","1","","13","","24.1","","101.79","","","","-54","","Ice Crystals"
"-93.58","69.55","TALOYOAK A","2403855","2019-01-24 21:00","2019","01","24","21:00","-41.1","","-45.7","","62","","","","2","","14","","24.1","","101.82","","","","-55","","Ice Crystals"
"-93.58","69.55","TALOYOAK A","2403855","2019-01-24 22:00","2019","01","24","22:00","-42.1","","-46.8","","62","","","","35","","15","","24.1","","101.84","","","","-56","","Ice Crystals"
"-93.58","69.55","TALOYOAK A","2403855","2019-01-24 23:00","2019","01","24","23:00","-41.0","","-45.7","","62","","","","1","","12","","24.1","","101.86","","","","-53","","Ice Crystals"
"-93.58","69.55","TALOYOAK A","2403855","2019-01-25 00:00","2019","01","25","00:00","-40.8","","-45.5","","62","","","","2","","10","","24.1","","101.91","","","","-52","","Ice Crystals"
"-93.58","69.55","TALOYOAK A","2403855","2019-01-25 01:00","2019","01","25","01:00","-41.0","","-45.7","","62","","","","2","","14","","24.1","","101.93","","","","-55","","Ice Crystals"
"-93.58","69.55","TALOYOAK A","2403855","2019-01-25 02:00","2019","01","25","02:00","-41.0","","-45.7","","62","","","","1","","12","","24.1","","101.93","","","","-53","","Ice Crystals"
"-93.58","69.55","TALOYOAK A","2403855","2019-01-25 03:00","2019","01","25","03:00","-40.6","","-45.2","","62","","","","2","","11","","24.1","","101.97","","","","-52","","Ice Crystals"
"-93.58","69.55","TALOYOAK A","2403855","2019-01-25 04:00","2019","01","25","04:00","-40.3","","-44.9","","62","","","","2","","13","","24.1","","101.98","","","","-53","","Ice Crystals"
"-93.58","69.55","TALOYOAK A","2403855","2019-01-25 05:00","2019","01","25","05:00","-42.0","","-46.7","","62","","","","11","","4","","16.1","","102.02","","","","-48","","Ice Crystals"
"-93.58","69.55","TALOYOAK A","2403855","2019-01-25 06:00","2019","01","25","06:00","-42.5","","-47.2","","61","","","","2","","10","","16.1","","101.99","","","","-54","","Ice Crystals"
"-93.58","69.55","TALOYOAK A","2403855","2019-01-25 07:00","2019","01","25","07:00","-41.8","","-46.5","","62","","","","36","","2","","16.1","","102.01","","","","-45","","Ice Crystals"
"-93.58","69.55","TALOYOAK A","2403855","2019-01-25 08:00","2019","01","25","08:00","-43.5","","-48.3","","61","","","","2","","7","","24.1","","101.98","","","","-53","","Ice Crystals"
"-93.58","69.55","TALOYOAK A","2403855","2019-01-25 09:00","2019","01","25","09:00","-42.5","","-47.3","","61","","","","4","","7","","9.7","","101.99","","","","-52","","Ice Crystals,Fog"
"-93.58","69.55","TALOYOAK A","2403855","2019-01-25 10:00","2019","01","25","10:00","-43.4","","-48.1","","61","","","","13","","4","","9.7","","102.01","","","","-49","","Ice Crystals,Fog"
"-93.58","69.55","TALOYOAK A","2403855","2019-01-25 11:00","2019","01","25","11:00","-43.3","","-48.1","","61","","","","36","","3","","9.7","","101.97","","","","-48","","Ice Crystals,Fog"
"-93.58","69.55","TALOYOAK A","2403855","2019-01-25 12:00","2019","01","25","12:00","-41.5","","-46.2","","61","","","","14","","4","","9.7","","101.96","","","","-47","","Ice Crystals,Fog"
"-93.58","69.55","TALOYOAK A","2403855","2019-01-25 13:00","2019","01","25","13:00","-41.8","","-46.5","","61","","","","17","","4","","8.1","","101.96","","","","-48","","Ice Crystals,Fog"
"-93.58","69.55","TALOYOAK A","2403855","2019-01-25 14:00","2019","01","25","14:00","-42.2","","-46.9","","61","","","","18","","5","","8.1","","101.95","","","","-49","","Ice Crystals,Fog"
"-93.58","69.55","TALOYOAK A","2403855","2019-01-25 15:00","2019","01","25","15:00","-42.9","","-47.6","","61","","","","18","","6","","8.1","","101.97","","","","-51","","Ice Crystals,Fog"
"-93.58","69.55","TALOYOAK A","2403855","2019-01-25 16:00","2019","01","25","16:00","-42.9","","-47.7","","61","","","","19","","4","","9.7","","101.95","","","","-49","","Ice Crystals,Fog"
"-93.58","69.55","TALOYOAK A","2403855","2019-01-25 17:00","2019","01","25","17:00","-42.8","","-47.5","","61","","","","16","","10","","6.4","","101.89","","","","-54","","Ice Crystals,Fog"
"-93.58","69.55","TALOYOAK A","2403855","2019-01-25 18:00","2019","01","25","18:00","-43.1","","-47.9","","61","","","","18","","9","","6.4","","101.90","","","","-54","","Ice Crystals,Fog"
"-93.58","69.55","TALOYOAK A","2403855","2019-01-25 19:00","2019","01","25","19:00","-44.0","","-48.8","","60","","","","19","","11","","6.4","","101.86","","","","-57","","Ice Crystals,Fog"
"-93.58","69.55","TALOYOAK A","2403855","2019-01-25 20:00","2019","01","25","20:00","-43.8","","-48.6","","60","","","","20","","9","","8.1","","101.85","","","","-55","","Ice Crystals,Fog"
"-93.58","69.55","TALOYOAK A","2403855","2019-01-25 21:00","2019","01","25","21:00","-43.7","","-48.5","","60","","","","17","","12","","6.4","","101.80","","","","-57","","Ice Crystals,Fog"
"-93.58","69.55","TALOYOAK A","2403855","2019-01-25 22:00","2019","01","25","22:00"
"-93.58","69.55","TALOYOAK A","2403855","2019-01-25 23:00","2019","01","25","23:00"
"-93.58","69.55","TALOYOAK A","2403855","2019-01-26 00:00","2019","01","26","00:00"
"-93.58","69.55","TALOYOAK A","2403855","2019-01-26 01:00","2019","01","26","01:00"
"-93.58","69.55","TALOYOAK A","2403855","2019-01-26 02:00","2019","01","26","02:00"
"-93.58","69.55","TALOYOAK A","2403855","2019-01-26 03:00","2019","01","26","03:00"
"-93.58","69.55","TALOYOAK A","2403855","2019-01-26 04:00","2019","01","26","04:00"
"-93.58","69.55","TALOYOAK A","2403855","2019-01-26 05:00","2019","01","26","05:00"
"-93.58","69.55","TALOYOAK A","2403855","2019-01-26 06:00","2019","01","26","06:00"
"-93.58","69.55","TALOYOAK A","2403855","2019-01-26 07:00","2019","01","26","07:00"
"-93.58","69.55","TALOYOAK A","2403855","2019-01-26 08:00","2019","01","26","08:00"
"-93.58","69.55","TALOYOAK A","2403855","2019-01-26 09:00","2019","01","26","09:00","-43.1","","-47.9","","61","","","","17","","17","","12.9","","101.54","","","","-58","","Ice Crystals,Fog"
"-93.58","69.55","TALOYOAK A","2403855","2019-01-26 10:00","2019","01","26","10:00","-43.3","","-48.1","","60","","","","16","","17","","16.1","","101.51","","","","-59","","Ice Crystals"
"-93.58","69.55","TALOYOAK A","2403855","2019-01-26 11:00","2019","01","26","11:00","-43.3","","-48.2","","60","","","","17","","19","","24.1","","101.47","","","","-60","","Ice Crystals"
"-93.58","69.55","TALOYOAK A","2403855","2019-01-26 12:00","2019","01","26","12:00","-43.2","","-48.0","","60","","","","17","","18","","24.1","","101.45","","","","-59","","Ice Crystals"
"-93.58","69.55","TALOYOAK A","2403855","2019-01-26 13:00","2019","01","26","13:00","-43.2","","-48.0","","60","","","","16","","17","","24.1","","101.41","","","","-59","","Ice Crystals"
"-93.58","69.55","TALOYOAK A","2403855","2019-01-26 14:00","2019","01","26","14:00"
"-93.58","69.55","TALOYOAK A","2403855","2019-01-26 15:00","2019","01","26","15:00","-43.4","","-48.2","","60","","","","17","","16","","24.1","","101.34","","","","-58","","Ice Crystals"
"-93.58","69.55","TALOYOAK A","2403855","2019-01-26 16:00","2019","01","26","16:00","-43.0","","-47.8","","60","","","","17","","13","","24.1","","101.30","","","","-56","","Ice Crystals"
"-93.58","69.55","TALOYOAK A","2403855","2019-01-26 17:00","2019","01","26","17:00","-43.3","","-48.2","","60","","","","17","","16","","24.1","","101.25","","","","-58","","Ice Crystals"
"-93.58","69.55","TALOYOAK A","2403855","2019-01-26 18:00","2019","01","26","18:00","-43.5","","-48.3","","60","","","","18","","14","","24.1","","101.22","","","","-58","","Ice Crystals"
"-93.58","69.55","TALOYOAK A","2403855","2019-01-26 19:00","2019","01","26","19:00","-43.0","","-47.9","","61","","","","18","","11","","24.1","","101.17","","","","-55","","Ice Crystals"
"-93.58","69.55","TALOYOAK A","2403855","2019-01-26 20:00","2019","01","26","20:00","-43.8","","-48.6","","60","","","","18","","10","","24.1","","101.10","","","","-56","","Ice Crystals"
"-93.58","69.55","TALOYOAK A","2403855","2019-01-26 21:00","2019","01","26","21:00"
"-93.58","69.55","TALOYOAK A","2403855","2019-01-26 22:00","2019","01","26","22:00"
"-93.58","69.55","TALOYOAK A","2403855","2019-01-26 23:00","2019","01","26","23:00"
"-93.58","69.55","TALOYOAK A","2403855","2019-01-27 00:00","2019","01","27","00:00"
"-93.58","69.55","TALOYOAK A","2403855","2019-01-27 01:00","2019","01","27","01:00"
"-93.58","69.55","TALOYOAK A","2403855","2019-01-27 02:00","2019","01","27","02:00"
"-93.58","69.55","TALOYOAK A","2403855","2019-01-27 03:00","2019","01","27","03:00"
"-93.58","69.55","TALOYOAK A","2403855","2019-01-27 04:00","2019","01","27","04:00"
"-93.58","69.55","TALOYOAK A","2403855","2019-01-27 05:00","2019","01","27","05:00"
"-93.58","69.55","TALOYOAK A","2403855","2019-01-27 06:00","2019","01","27","06:00"
"-93.58","69.55","TALOYOAK A","2403855","2019-01-27 07:00","2019","01","27","07:00"
"-93.58","69.55","TALOYOAK A","2403855","2019-01-27 08:00","2019","01","27","08:00"
"-93.58","69.55","TALOYOAK A","2403855","2019-01-27 09:00","2019","01","27","09:00"
"-93.58","69.55","TALOYOAK A","2403855","2019-01-27 10:00","2019","01","27","10:00"
"-93.58","69.55","TALOYOAK A","2403855","2019-01-27 11:00","2019","01","27","11:00"
"-93.58","69.55","TALOYOAK A","2403855","2019-01-27 12:00","2019","01","27","12:00"
"-93.58","69.55","TALOYOAK A","2403855","2019-01-27 13:00","2019","01","27","13:00"
"-93.58","69.55","TALOYOAK A","2403855","2019-01-27 14:00","2019","01","27","14:00"
"-93.58","69.55","TALOYOAK A","2403855","2019-01-27 15:00","2019","01","27","15:00"
"-93.58","69.55","TALOYOAK A","2403855","2019-01-27 16:00","2019","01","27","16:00","-41.8","","-46.6","","61","","","","2","","18","","24.1","","101.09","","","","-57","","Ice Crystals"
"-93.58","69.55","TALOYOAK A","2403855","2019-01-27 17:00","2019","01","27","17:00","-41.0","","-45.8","","61","","","","1","","17","","24.1","","101.13","","","","-56","","Ice Crystals"
"-93.58","69.55","TALOYOAK A","2403855","2019-01-27 18:00","2019","01","27","18:00"
"-93.58","69.55","TALOYOAK A","2403855","2019-01-27 19:00","2019","01","27","19:00"
"-93.58","69.55","TALOYOAK A","2403855","2019-01-27 20:00","2019","01","27","20:00"
"-93.58","69.55","TALOYOAK A","2403855","2019-01-27 21:00","2019","01","27","21:00"
"-93.58","69.55","TALOYOAK A","2403855","2019-01-27 22:00","2019","01","27","22:00"
"-93.58","69.55","TALOYOAK A","2403855","2019-01-27 23:00","2019","01","27","23:00"
"-93.58","69.55","TALOYOAK A","2403855","2019-01-28 00:00","2019","01","28","00:00"
"-93.58","69.55","TALOYOAK A","2403855","2019-01-28 01:00","2019","01","28","01:00"
"-93.58","69.55","TALOYOAK A","2403855","2019-01-28 02:00","2019","01","28","02:00"
"-93.58","69.55","TALOYOAK A","2403855","2019-01-28 03:00","2019","01","28","03:00"
"-93.58","69.55","TALOYOAK A","2403855","2019-01-28 04:00","2019","01","28","04:00"
"-93.58","69.55","TALOYOAK A","2403855","2019-01-28 05:00","2019","01","28","05:00"
"-93.58","69.55","TALOYOAK A","2403855","2019-01-28 06:00","2019","01","28","06:00"
"-93.58","69.55","TALOYOAK A","2403855","2019-01-28 07:00","2019","01","28","07:00"
"-93.58","69.55","TALOYOAK A","2403855","2019-01-28 08:00","2019","01","28","08:00"
"-93.58","69.55","TALOYOAK A","2403855","2019-01-28 09:00","2019","01","28","09:00"
"-93.58","69.55","TALOYOAK A","2403855","2019-01-28 10:00","2019","01","28","10:00"
"-93.58","69.55","TALOYOAK A","2403855","2019-01-28 11:00","2019","01","28","11:00","-41.7","","-46.5","","61","","","","21","","9","","24.1","","101.62","","","","-52","","Clear"
"-93.58","69.55","TALOYOAK A","2403855","2019-01-28 12:00","2019","01","28","12:00","-41.5","","-46.3","","61","","","","19","","7","","16.1","","101.65","","","","-51","","NA"
"-93.58","69.55","TALOYOAK A","2403855","2019-01-28 13:00","2019","01","28","13:00","-41.2","","-46.0","","61","","","","20","","8","","24.1","","101.69","","","","-51","","NA"
"-93.58","69.55","TALOYOAK A","2403855","2019-01-28 14:00","2019","01","28","14:00","-41.8","","-46.6","","61","","","","19","","8","","24.1","","101.74","","","","-52","","Ice Crystals"
"-93.58","69.55","TALOYOAK A","2403855","2019-01-28 15:00","2019","01","28","15:00","-41.3","","-46.1","","61","","","","18","","8","","24.1","","101.79","","","","-51","","Ice Crystals"
"-93.58","69.55","TALOYOAK A","2403855","2019-01-28 16:00","2019","01","28","16:00","-41.1","","-45.9","","61","","","","15","","8","","24.1","","101.83","","","","-51","","Ice Crystals"
"-93.58","69.55","TALOYOAK A","2403855","2019-01-28 17:00","2019","01","28","17:00","-41.5","","-46.3","","61","","","","18","","9","","24.1","","101.86","","","","-52","","Ice Crystals"
"-93.58","69.55","TALOYOAK A","2403855","2019-01-28 18:00","2019","01","28","18:00","-41.7","","-46.5","","61","","","","17","","17","","24.1","","101.86","","","","-57","","Ice Crystals"
"-93.58","69.55","TALOYOAK A","2403855","2019-01-28 19:00","2019","01","28","19:00","-41.4","","-46.2","","61","","","","17","","14","","24.1","","101.85","","","","-55","","Ice Crystals"
"-93.58","69.55","TALOYOAK A","2403855","2019-01-28 20:00","2019","01","28","20:00","-41.0","","-45.8","","61","","","","15","","11","","24.1","","101.87","","","","-53","","Ice Crystals"
"-93.58","69.55","TALOYOAK A","2403855","2019-01-28 21:00","2019","01","28","21:00","-42.1","","-46.9","","61","","","","36","","3","","24.1","","101.91","","","","-46","","Ice Crystals"
"-93.58","69.55","TALOYOAK A","2403855","2019-01-28 22:00","2019","01","28","22:00","-40.7","","-45.5","","61","","","","21","","12","","24.1","","101.95","","","","-53","","Ice Crystals"
"-93.58","69.55","TALOYOAK A","2403855","2019-01-28 23:00","2019","01","28","23:00","-40.3","","-45.0","","62","","","","15","","17","","24.1","","101.99","","","","-55","","Ice Crystals"
"-93.58","69.55","TALOYOAK A","2403855","2019-01-29 00:00","2019","01","29","00:00","-40.1","","-44.8","","62","","","","17","","10","","24.1","","101.99","","","","-51","","Ice Crystals"
"-93.58","69.55","TALOYOAK A","2403855","2019-01-29 01:00","2019","01","29","01:00","-39.5","","-44.2","","62","","","","14","","8","","24.1","","102.03","","","","-49","","Ice Crystals"
"-93.58","69.55","TALOYOAK A","2403855","2019-01-29 02:00","2019","01","29","02:00","-38.5","","-43.1","","63","","","","15","","8","","24.1","","102.09","","","","-48","","Ice Crystals"
"-93.58","69.55","TALOYOAK A","2403855","2019-01-29 03:00","2019","01","29","03:00","-38.7","","-43.4","","63","","","","16","","13","","16.1","","102.11","","","","-51","","Ice Crystals"
"-93.58","69.55","TALOYOAK A","2403855","2019-01-29 04:00","2019","01","29","04:00","-39.6","","-44.3","","62","","","","16","","13","","24.1","","102.13","","","","-52","","Ice Crystals"
"-93.58","69.55","TALOYOAK A","2403855","2019-01-29 05:00","2019","01","29","05:00","-39.6","","-44.3","","62","","","","17","","15","","16.1","","102.15","","","","-53","","Ice Crystals"
"-93.58","69.55","TALOYOAK A","2403855","2019-01-29 06:00","2019","01","29","06:00","-39.5","","-44.1","","62","","","","15","","9","","16.1","","102.17","","","","-50","","Ice Crystals"
"-93.58","69.55","TALOYOAK A","2403855","2019-01-29 07:00","2019","01","29","07:00","-39.3","","-44.0","","62","","","","16","","8","","16.1","","102.17","","","","-49","","Ice Crystals"
"-93.58","69.55","TALOYOAK A","2403855","2019-01-29 08:00","2019","01","29","08:00","-39.1","","-43.8","","62","","","","16","","13","","16.1","","102.18","","","","-52","","Ice Crystals"
"-93.58","69.55","TALOYOAK A","2403855","2019-01-29 09:00","2019","01","29","09:00","-39.8","","-44.5","","62","","","","15","","13","","16.1","","102.20","","","","-53","","Ice Crystals"
"-93.58","69.55","TALOYOAK A","2403855","2019-01-29 10:00","2019","01","29","10:00","-40.4","","-45.1","","62","","","","16","","13","","24.1","","102.18","","","","-53","","Ice Crystals"
"-93.58","69.55","TALOYOAK A","2403855","2019-01-29 11:00","2019","01","29","11:00","-40.6","","-45.3","","62","","","","16","","14","","24.1","","102.19","","","","-54","","Ice Crystals"
"-93.58","69.55","TALOYOAK A","2403855","2019-01-29 12:00","2019","01","29","12:00","-40.7","","-45.5","","62","","","","16","","14","","24.1","","102.21","","","","-54","","Ice Crystals"
"-93.58","69.55","TALOYOAK A","2403855","2019-01-29 13:00","2019","01","29","13:00","-41.0","","-45.8","","61","","","","17","","12","","24.1","","102.23","","","","-53","","Ice Crystals"
"-93.58","69.55","TALOYOAK A","2403855","2019-01-29 14:00","2019","01","29","14:00","-41.2","","-46.0","","61","","","","17","","13","","24.1","","102.26","","","","-54","","Ice Crystals"
"-93.58","69.55","TALOYOAK A","2403855","2019-01-29 15:00","2019","01","29","15:00","-41.4","","-46.2","","61","","","","17","","12","","24.1","","102.26","","","","-54","","Ice Crystals"
"-93.58","69.55","TALOYOAK A","2403855","2019-01-29 16:00","2019","01","29","16:00","-41.4","","-46.2","","61","","","","18","","13","","24.1","","102.27","","","","-54","","Ice Crystals"
"-93.58","69.55","TALOYOAK A","2403855","2019-01-29 17:00","2019","01","29","17:00","-41.5","","-46.3","","61","","","","17","","13","","24.1","","102.26","","","","-55","","Ice Crystals"
"-93.58","69.55","TALOYOAK A","2403855","2019-01-29 18:00","2019","01","29","18:00","-41.6","","-46.4","","61","","","","16","","14","","24.1","","102.23","","","","-55","","Ice Crystals"
"-93.58","69.55","TALOYOAK A","2403855","2019-01-29 19:00","2019","01","29","19:00","-41.7","","-46.5","","61","","","","17","","15","","24.1","","102.22","","","","-56","","Ice Crystals"
"-93.58","69.55","TALOYOAK A","2403855","2019-01-29 20:00","2019","01","29","20:00","-41.6","","-46.4","","61","","","","16","","11","","24.1","","102.20","","","","-54","","Ice Crystals"
"-93.58","69.55","TALOYOAK A","2403855","2019-01-29 21:00","2019","01","29","21:00","-41.6","","-46.4","","61","","","","17","","14","","24.1","","102.19","","","","-55","","Ice Crystals"
"-93.58","69.55","TALOYOAK A","2403855","2019-01-29 22:00","2019","01","29","22:00","-41.6","","-46.4","","61","","","","17","","14","","24.1","","102.17","","","","-55","","Ice Crystals"
"-93.58","69.55","TALOYOAK A","2403855","2019-01-29 23:00","2019","01","29","23:00","-41.6","","-46.4","","61","","","","17","","15","","24.1","","102.18","","","","-56","","Ice Crystals"
"-93.58","69.55","TALOYOAK A","2403855","2019-01-30 00:00","2019","01","30","00:00","-41.9","","-46.7","","61","","","","17","","16","","24.1","","102.16","","","","-57","","Ice Crystals"
"-93.58","69.55","TALOYOAK A","2403855","2019-01-30 01:00","2019","01","30","01:00","-41.9","","-46.7","","61","","","","16","","13","","24.1","","102.16","","","","-55","","Ice Crystals"
"-93.58","69.55","TALOYOAK A","2403855","2019-01-30 02:00","2019","01","30","02:00","-41.7","","-46.5","","61","","","","17","","15","","24.1","","102.18","","","","-56","","Ice Crystals"
"-93.58","69.55","TALOYOAK A","2403855","2019-01-30 03:00","2019","01","30","03:00","-41.4","","-46.2","","61","","","","17","","15","","24.1","","102.17","","","","-55","","Ice Crystals"
"-93.58","69.55","TALOYOAK A","2403855","2019-01-30 04:00","2019","01","30","04:00","-41.8","","-46.5","","61","","","","17","","17","","24.1","","102.17","","","","-57","","Ice Crystals"
"-93.58","69.55","TALOYOAK A","2403855","2019-01-30 05:00","2019","01","30","05:00","-41.9","","-46.7","","61","","","","17","","17","","24.1","","102.17","","","","-57","","Ice Crystals"
"-93.58","69.55","TALOYOAK A","2403855","2019-01-30 06:00","2019","01","30","06:00","-42.0","","-46.8","","61","","","","16","","14","","24.1","","102.18","","","","-56","","Ice Crystals"
"-93.58","69.55","TALOYOAK A","2403855","2019-01-30 07:00","2019","01","30","07:00","-41.9","","-46.7","","61","","","","17","","14","","24.1","","102.17","","","","-56","","Ice Crystals"
"-93.58","69.55","TALOYOAK A","2403855","2019-01-30 08:00","2019","01","30","08:00","-41.4","","-46.2","","61","","","","17","","13","","24.1","","102.13","","","","-54","","Ice Crystals"
"-93.58","69.55","TALOYOAK A","2403855","2019-01-30 09:00","2019","01","30","09:00","-41.6","","-46.4","","61","","","","18","","14","","24.1","","102.13","","","","-55","","Ice Crystals"
"-93.58","69.55","TALOYOAK A","2403855","2019-01-30 10:00","2019","01","30","10:00","-41.5","","-46.3","","61","","","","18","","13","","24.1","","102.15","","","","-55","","Ice Crystals"
"-93.58","69.55","TALOYOAK A","2403855","2019-01-30 11:00","2019","01","30","11:00","-41.4","","-46.2","","61","","","","18","","13","","24.1","","102.16","","","","-54","","Ice Crystals"
"-93.58","69.55","TALOYOAK A","2403855","2019-01-30 12:00","2019","01","30","12:00","-41.1","","-45.9","","61","","","","18","","11","","24.1","","102.16","","","","-53","","Ice Crystals"
"-93.58","69.55","TALOYOAK A","2403855","2019-01-30 13:00","2019","01","30","13:00","-41.1","","-45.9","","61","","","","18","","10","","24.1","","102.19","","","","-52","","Ice Crystals"
"-93.58","69.55","TALOYOAK A","2403855","2019-01-30 14:00","2019","01","30","14:00","-41.1","","-45.9","","61","","","","17","","13","","24.1","","102.19","","","","-54","","Ice Crystals"
"-93.58","69.55","TALOYOAK A","2403855","2019-01-30 15:00","2019","01","30","15:00","-40.9","","-45.7","","61","","","","17","","11","","24.1","","102.22","","","","-53","","Ice Crystals"
"-93.58","69.55","TALOYOAK A","2403855","2019-01-30 16:00","2019","01","30","16:00","-41.4","","-46.1","","61","","","","16","","12","","24.1","","102.23","","","","-54","","Ice Crystals"
"-93.58","69.55","TALOYOAK A","2403855","2019-01-30 17:00","2019","01","30","17:00","-41.6","","-46.4","","61","","","","18","","10","","24.1","","102.24","","","","-53","","Ice Crystals"
"-93.58","69.55","TALOYOAK A","2403855","2019-01-30 18:00","2019","01","30","18:00","-41.6","","-46.4","","61","","","","17","","10","","24.1","","102.21","","","","-53","","Ice Crystals"
"-93.58","69.55","TALOYOAK A","2403855","2019-01-30 19:00","2019","01","30","19:00","-41.6","","-46.4","","61","","","","18","","7","","24.1","","102.21","","","","-51","","Ice Crystals"
"-93.58","69.55","TALOYOAK A","2403855","2019-01-30 20:00","2019","01","30","20:00","-41.6","","-46.4","","61","","","","18","","7","","24.1","","102.19","","","","-51","","Ice Crystals"
"-93.58","69.55","TALOYOAK A","2403855","2019-01-30 21:00","2019","01","30","21:00","-41.7","","-46.5","","61","","","","21","","5","","24.1","","102.20","","","","-49","","Ice Crystals"
"-93.58","69.55","TALOYOAK A","2403855","2019-01-30 22:00","2019","01","30","22:00","-41.2","","-46.0","","61","","","","18","","3","","24.1","","102.18","","","","-45","","Ice Crystals"
"-93.58","69.55","TALOYOAK A","2403855","2019-01-30 23:00","2019","01","30","23:00","-41.9","","-46.7","","61","","","","6","","5","","24.1","","102.19","","","","-49","","Ice Crystals"
"-93.58","69.55","TALOYOAK A","2403855","2019-01-31 00:00","2019","01","31","00:00","-43.0","","-47.9","","60","","","","2","","4","","24.1","","102.21","","","","-49","","Ice Crystals"
"-93.58","69.55","TALOYOAK A","2403855","2019-01-31 01:00","2019","01","31","01:00","-42.3","","-47.1","","61","","","","4","","5","","24.1","","102.21","","","","-50","","Ice Crystals"
"-93.58","69.55","TALOYOAK A","2403855","2019-01-31 02:00","2019","01","31","02:00","-41.9","","-46.7","","61","","","","3","","8","","16.1","","102.19","","","","-52","","Ice Crystals"
"-93.58","69.55","TALOYOAK A","2403855","2019-01-31 03:00","2019","01","31","03:00","-41.6","","-46.4","","61","","","","1","","18","","16.1","","102.17","","","","-57","","Ice Crystals"
"-93.58","69.55","TALOYOAK A","2403855","2019-01-31 04:00","2019","01","31","04:00","-41.7","","-46.5","","61","","","","2","","13","","24.1","","102.16","","","","-55","","Ice Crystals"
"-93.58","69.55","TALOYOAK A","2403855","2019-01-31 05:00","2019","01","31","05:00","-41.4","","-46.2","","61","","","","36","","9","","24.1","","102.15","","","","-52","","Ice Crystals"
"-93.58","69.55","TALOYOAK A","2403855","2019-01-31 06:00","2019","01","31","06:00","-40.9","","-45.7","","61","","","","35","","14","","24.1","","102.14","","","","-54","","Ice Crystals"
"-93.58","69.55","TALOYOAK A","2403855","2019-01-31 07:00","2019","01","31","07:00","-40.9","","-45.7","","61","","","","2","","16","","24.1","","102.13","","","","-55","","Ice Crystals"
"-93.58","69.55","TALOYOAK A","2403855","2019-01-31 08:00","2019","01","31","08:00","-40.7","","-45.5","","61","","","","2","","15","","24.1","","102.12","","","","-55","","Ice Crystals"
"-93.58","69.55","TALOYOAK A","2403855","2019-01-31 09:00","2019","01","31","09:00","-40.0","","-44.8","","62","","","","2","","10","","24.1","","102.15","","","","-51","","Ice Crystals"
"-93.58","69.55","TALOYOAK A","2403855","2019-01-31 10:00","2019","01","31","10:00","-39.5","","-44.2","","62","","","","2","","15","","24.1","","102.13","","","","-53","","Ice Crystals"
"-93.58","69.55","TALOYOAK A","2403855","2019-01-31 11:00","2019","01","31","11:00","-38.8","","-43.5","","62","","","","1","","16","","24.1","","102.13","","","","-53","","Ice Crystals"
"-93.58","69.55","TALOYOAK A","2403855","2019-01-31 12:00","2019","01","31","12:00","-38.5","","-43.1","","63","","","","2","","16","","24.1","","102.12","","","","-52","","Snow"
"-93.58","69.55","TALOYOAK A","2403855","2019-01-31 13:00","2019","01","31","13:00","-37.9","","-42.6","","63","","","","3","","17","","24.1","","102.15","","","","-52","","Ice Crystals"
"-93.58","69.55","TALOYOAK A","2403855","2019-01-31 14:00","2019","01","31","14:00","-37.6","","-42.2","","63","","","","2","","19","","24.1","","102.13","","","","-52","","Ice Crystals"
"-93.58","69.55","TALOYOAK A","2403855","2019-01-31 15:00","2019","01","31","15:00","-37.1","","-41.7","","63","","","","2","","14","","24.1","","102.13","","","","-50","","Ice Crystals"
"-93.58","69.55","TALOYOAK A","2403855","2019-01-31 16:00","2019","01","31","16:00","-37.0","","-41.5","","63","","","","1","","11","","24.1","","102.12","","","","-48","","Ice Crystals"
"-93.58","69.55","TALOYOAK A","2403855","2019-01-31 17:00","2019","01","31","17:00","-37.1","","-41.7","","63","","","","1","","17","","24.1","","102.12","","","","-51","","Snow"
"-93.58","69.55","TALOYOAK A","2403855","2019-01-31 18:00","2019","01","31","18:00","-36.8","","-41.4","","64","","","","3","","14","","24.1","","102.11","","","","-49","","Snow"
"-93.58","69.55","TALOYOAK A","2403855","2019-01-31 19:00","2019","01","31","19:00","-37.4","","-42.0","","63","","","","36","","11","","19.3","","102.10","","","","-49","","Snow"
"-93.58","69.55","TALOYOAK A","2403855","2019-01-31 20:00","2019","01","31","20:00","-36.6","","-41.2","","64","","","","2","","15","","19.3","","102.06","","","","-50","","Snow"
"-93.58","69.55","TALOYOAK A","2403855","2019-01-31 21:00","2019","01","31","21:00"
"-93.58","69.55","TALOYOAK A","2403855","2019-01-31 22:00","2019","01","31","22:00"
"-93.58","69.55","TALOYOAK A","2403855","2019-01-31 23:00","2019","01","31","23:00"
