"Longitude (x)","Latitude (y)","Station Name","Climate ID","Date/Time (LST)","Year","Month","Day","Time (LST)","Temp (°C)","Temp Flag","Dew Point Temp (°C)","Dew Point Temp Flag","Rel Hum (%)","Rel Hum Flag","Precip. Amount (mm)","Precip. Amount Flag","Wind Dir (10s deg)","Wind Dir Flag","Wind Spd (km/h)","Wind Spd Flag","Visibility (km)","Visibility Flag","Stn Press (kPa)","Stn Press Flag","Hmdx","Hmdx Flag","Wind Chill","Wind Chill Flag","Weather"
"-93.58","69.55","TALOYOAK A","2403855","2019-02-01 00:00","2019","02","01","00:00"
"-93.58","69.55","TALOYOAK A","2403855","2019-02-01 01:00","2019","02","01","01:00"
"-93.58","69.55","TALOYOAK A","2403855","2019-02-01 02:00","2019","02","01","02:00"
"-93.58","69.55","TALOYOAK A","2403855","2019-02-01 03:00","2019","02","01","03:00"
"-93.58","69.55","TALOYOAK A","2403855","2019-02-01 04:00","2019","02","01","04:00"
"-93.58","69.55","TALOYOAK A","2403855","2019-02-01 05:00","2019","02","01","05:00"
"-93.58","69.55","TALOYOAK A","2403855","2019-02-01 06:00","2019","02","01","06:00"
"-93.58","69.55","TALOYOAK A","2403855","2019-02-01 07:00","2019","02","01","07:00"
"-93.58","69.55","TALOYOAK A","2403855","2019-02-01 08:00","2019","02","01","08:00"
"-93.58","69.55","TALOYOAK A","2403855","2019-02-01 09:00","2019","02","01","09:00","-35.0","","-39.5","","65","","","","13","","6","","16.1","","101.83","","","","-42","","Snow"
"-93.58","69.55","TALOYOAK A","2403855","2019-02-01 10:00","2019","02","01","10:00","-35.4","","-39.9","","65","","","","15","","3","","24.1","","101.83","","","","-39","","Snow"
"-93.58","69.55","TALOYOAK A","2403855","2019-02-01 11:00","2019","02","01","11:00","-36.1","","-40.6","","64","","","","18","","5","","24.1","","101.82","","","","-43","","Ice Crystals"
"-93.58","69.55","TALOYOAK A","2403855","2019-02-01 12:00","2019","02","01","12:00","-37.5","","-42.1","","63","","","","19","","11","","24.1","","101.82","","","","-49","","Ice Crystals"
"-93.58","69.55","TALOYOAK A","2403855","2019-02-01 13:00","2019","02","01","13:00","-37.2","","-41.7","","64","","","","16","","7","","24.1","","101.79","","","","-46","","Snow"
"-93.58","69.55","TALOYOAK A","2403855","2019-02-01 14:00","2019","02","01","14:00","-37.4","","-42.0","","64","","","","16","","9","","24.1","","101.78","","","","-47","","Ice Crystals"
"-93.58","69.55","TALOYOAK A","2403855","2019-02-01 15:00","2019","02","01","15:00","-38.3","","-42.9","","63","","","","12","","7","","24.1","","101.79","","","","-47","","Ice Crystals"
"-93.58","69.55","TALOYOAK A","2403855","2019-02-01 16:00","2019","02","01","16:00","-39.2","","-43.8","","63","","","","1","","4","","24.1","","101.79","","","","-45","","Snow"
"-93.58","69.55","TALOYOAK A","2403855","2019-02-01 17:00","2019","02","01","17:00","-37.8","","-42.4","","63","","","","29","","4","","24.1","","101.81","","","","-43","","Snow"
"-93.58","69.55","TALOYOAK A","2403855","2019-02-01 18:00","2019","02","01","18:00","-37.5","","-42.1","","63","","","","30","","4","","24.1","","101.78","","","","-43","","Snow"
"-93.58","69.55","TALOYOAK A","2403855","2019-02-01 19:00","2019","02","01","19:00","-37.6","","-42.2","","63","","","","20","","5","","24.1","","101.77","","","","-44","","Snow"
"-93.58","69.55","TALOYOAK A","2403855","2019-02-01 20:00","2019","02","01","20:00","-38.4","","-43.0","","63","","","","28","","6","","24.1","","101.78","","","","-46","","Ice Crystals"
"-93.58","69.55","TALOYOAK A","2403855","2019-02-01 21:00","2019","02","01","21:00","-39.0","","-43.7","","63","","","","28","","7","","24.1","","101.77","","","","-48","","Ice Crystals"
"-93.58","69.55","TALOYOAK A","2403855","2019-02-01 22:00","2019","02","01","22:00","-39.2","","-43.8","","63","","","","25","","7","","24.1","","101.77","","","","-48","","Ice Crystals"
"-93.58","69.55","TALOYOAK A","2403855","2019-02-01 23:00","2019","02","01","23:00","-39.9","","-44.5","","62","","","","18","","8","","24.1","","101.79","","","","-50","","Ice Crystals"
"-93.58","69.55","TALOYOAK A","2403855","2019-02-02 00:00","2019","02","02","00:00","-39.9","","-44.6","","62","","","","17","","12","","24.1","","101.80","","","","-52","","Ice Crystals"
"-93.58","69.55","TALOYOAK A","2403855","2019-02-02 01:00","2019","02","02","01:00","-39.8","","-44.5","","62","","","","16","","16","","24.1","","101.80","","","","-54","","Ice Crystals"
"-93.58","69.55","TALOYOAK A","2403855","2019-02-02 02:00","2019","02","02","02:00","-39.3","","-43.9","","62","","","","16","","18","","24.1","","101.79","","","","-54","","Ice Crystals"
"-93.58","69.55","TALOYOAK A","2403855","2019-02-02 03:00","2019","02","02","03:00","-39.2","","-43.9","","62","","","","16","","18","","24.1","","101.79","","","","-54","","Ice Crystals"
"-93.58","69.55","TALOYOAK A","2403855","2019-02-02 04:00","2019","02","02","04:00","-38.9","","-43.6","","63","","","","15","","22","","16.1","","101.78","","","","-55","","Ice Crystals"
"-93.58","69.55","TALOYOAK A","2403855","2019-02-02 05:00","2019","02","02","05:00","-38.9","","-43.6","","63","","","","16","","19","","16.1","","101.79","","","","-54","","Ice Crystals,Haze"
"-93.58","69.55","TALOYOAK A","2403855","2019-02-02 06:00","2019","02","02","06:00","-39.0","","-43.6","","63","","","","16","","18","","16.1","","101.80","","","","-54","","Ice Crystals"
"-93.58","69.55","TALOYOAK A","2403855","2019-02-02 07:00","2019","02","02","07:00","-39.9","","-44.6","","62","","","","15","","19","","24.1","","101.83","","","","-55","","Ice Crystals"
"-93.58","69.55","TALOYOAK A","2403855","2019-02-02 08:00","2019","02","02","08:00","-41.2","","-45.9","","62","","","","16","","16","","16.1","","101.85","","","","-56","","Ice Crystals"
"-93.58","69.55","TALOYOAK A","2403855","2019-02-02 09:00","2019","02","02","09:00","-41.0","","-45.7","","62","","","","16","","16","","24.1","","101.85","","","","-55","","Ice Crystals"
"-93.58","69.55","TALOYOAK A","2403855","2019-02-02 10:00","2019","02","02","10:00","-41.0","","-45.7","","62","","","","16","","16","","24.1","","101.85","","","","-55","","Ice Crystals"
"-93.58","69.55","TALOYOAK A","2403855","2019-02-02 11:00","2019","02","02","11:00","-41.2","","-46.0","","61","","","","15","","18","","24.1","","101.88","","","","-56","","Ice Crystals"
"-93.58","69.55","TALOYOAK A","2403855","2019-02-02 12:00","2019","02","02","12:00","-41.0","","-45.7","","61","","","","17","","16","","24.1","","101.88","","","","-55","","Ice Crystals"
"-93.58","69.55","TALOYOAK A","2403855","2019-02-02 13:00","2019","02","02","13:00","-40.6","","-45.3","","62","","","","17","","19","","24.1","","101.88","","","","-56","","Ice Crystals"
"-93.58","69.55","TALOYOAK A","2403855","2019-02-02 14:00","2019","02","02","14:00","-41.1","","-45.9","","61","","","","16","","19","","24.1","","101.89","","","","-57","","Ice Crystals"
"-93.58","69.55","TALOYOAK A","2403855","2019-02-02 15:00","2019","02","02","15:00","-41.2","","-46.0","","61","","","","17","","18","","24.1","","101.89","","","","-56","","Ice Crystals"
"-93.58","69.55","TALOYOAK A","2403855","2019-02-02 16:00","2019","02","02","16:00","-40.9","","-45.7","","62","","","","18","","18","","24.1","","101.89","","","","-56","","Ice Crystals"
"-93.58","69.55","TALOYOAK A","2403855","2019-02-02 17:00","2019","02","02","17:00","-40.8","","-45.6","","62","","","","17","","20","","24.1","","101.86","","","","-57","","Ice Crystals"
"-93.58","69.55","TALOYOAK A","2403855","2019-02-02 18:00","2019","02","02","18:00","-40.6","","-45.4","","62","","","","16","","17","","24.1","","101.81","","","","-55","","Ice Crystals"
"-93.58","69.55","TALOYOAK A","2403855","2019-02-02 19:00","2019","02","02","19:00","-40.3","","-45.1","","62","","","","15","","16","","24.1","","101.81","","","","-55","","Ice Crystals"
"-93.58","69.55","TALOYOAK A","2403855","2019-02-02 20:00","2019","02","02","20:00","-40.9","","-45.6","","62","","","","15","","13","","24.1","","101.83","","","","-54","","Ice Crystals"
"-93.58","69.55","TALOYOAK A","2403855","2019-02-02 21:00","2019","02","02","21:00","-40.6","","-45.3","","62","","","","15","","11","","24.1","","101.79","","","","-52","","Ice Crystals"
"-93.58","69.55","TALOYOAK A","2403855","2019-02-02 22:00","2019","02","02","22:00","-40.4","","-45.2","","62","","","","36","","3","","24.1","","101.77","","","","-45","","Ice Crystals"
"-93.58","69.55","TALOYOAK A","2403855","2019-02-02 23:00","2019","02","02","23:00","-41.6","","-46.4","","61","","","","2","","10","","16.1","","101.78","","","","-53","","Ice Crystals"
"-93.58","69.55","TALOYOAK A","2403855","2019-02-03 00:00","2019","02","03","00:00","-40.6","","-45.4","","62","","","","36","","1","","16.1","","101.82","","","","-42","","Ice Crystals"
"-93.58","69.55","TALOYOAK A","2403855","2019-02-03 01:00","2019","02","03","01:00","-41.1","","-45.8","","61","","","","24","","7","","24.1","","101.87","","","","-50","","Ice Crystals"
"-93.58","69.55","TALOYOAK A","2403855","2019-02-03 02:00","2019","02","03","02:00","-41.1","","-45.9","","61","","","","24","","5","","24.1","","101.84","","","","-48","","Ice Crystals"
"-93.58","69.55","TALOYOAK A","2403855","2019-02-03 03:00","2019","02","03","03:00","-41.1","","-45.8","","61","","","","0","","1","","16.1","","101.87","","","","-43","","Ice Crystals"
"-93.58","69.55","TALOYOAK A","2403855","2019-02-03 04:00","2019","02","03","04:00","-40.7","","-45.4","","62","","","","22","","7","","9.7","","101.83","","","","-50","","Ice Crystals,Fog"
"-93.58","69.55","TALOYOAK A","2403855","2019-02-03 05:00","2019","02","03","05:00","-40.7","","-45.4","","62","","","","20","","7","","24.1","","101.79","","","","-50","","Ice Crystals"
"-93.58","69.55","TALOYOAK A","2403855","2019-02-03 06:00","2019","02","03","06:00","-40.5","","-45.3","","62","","","","22","","7","","24.1","","101.80","","","","-49","","Ice Crystals"
"-93.58","69.55","TALOYOAK A","2403855","2019-02-03 07:00","2019","02","03","07:00","-40.5","","-45.2","","62","","","","18","","9","","24.1","","101.83","","","","-51","","Ice Crystals"
"-93.58","69.55","TALOYOAK A","2403855","2019-02-03 08:00","2019","02","03","08:00","-40.3","","-45.0","","62","","","","19","","7","","24.1","","101.81","","","","-49","","Ice Crystals"
"-93.58","69.55","TALOYOAK A","2403855","2019-02-03 09:00","2019","02","03","09:00","-40.2","","-45.0","","62","","","","17","","4","","24.1","","101.82","","","","-46","","Ice Crystals"
"-93.58","69.55","TALOYOAK A","2403855","2019-02-03 10:00","2019","02","03","10:00","-40.5","","-45.2","","62","","","","36","","3","","24.1","","101.80","","","","-45","","Ice Crystals"
"-93.58","69.55","TALOYOAK A","2403855","2019-02-03 11:00","2019","02","03","11:00","-40.2","","-45.0","","62","","","","22","","3","","24.1","","101.80","","","","-44","","Ice Crystals,Fog"
"-93.58","69.55","TALOYOAK A","2403855","2019-02-03 12:00","2019","02","03","12:00","-39.7","","-44.5","","62","","","","17","","10","","24.1","","101.82","","","","-51","","Ice Crystals"
"-93.58","69.55","TALOYOAK A","2403855","2019-02-03 13:00","2019","02","03","13:00","-39.9","","-44.7","","62","","","","19","","8","","24.1","","101.79","","","","-50","","Ice Crystals"
"-93.58","69.55","TALOYOAK A","2403855","2019-02-03 14:00","2019","02","03","14:00","-39.9","","-44.6","","62","","","","19","","11","","24.1","","101.83","","","","-52","","Ice Crystals"
"-93.58","69.55","TALOYOAK A","2403855","2019-02-03 15:00","2019","02","03","15:00","-40.0","","-44.8","","62","","","","20","","7","","24.1","","101.83","","","","-49","","Ice Crystals"
"-93.58","69.55","TALOYOAK A","2403855","2019-02-03 16:00","2019","02","03","16:00","-39.7","","-44.4","","62","","","","20","","4","","24.1","","101.82","","","","-45","","Ice Crystals"
"-93.58","69.55","TALOYOAK A","2403855","2019-02-03 17:00","2019","02","03","17:00","-39.9","","-44.6","","62","","","","36","","2","","24.1","","101.80","","","","-43","","Ice Crystals"
"-93.58","69.55","TALOYOAK A","2403855","2019-02-03 18:00","2019","02","03","18:00","-39.6","","-44.3","","62","","","","21","","4","","24.1","","101.83","","","","-45","","Ice Crystals"
"-93.58","69.55","TALOYOAK A","2403855","2019-02-03 19:00","2019","02","03","19:00","-40.1","","-44.8","","62","","","","29","","3","","24.1","","101.76","","","","-44","","Ice Crystals"
"-93.58","69.55","TALOYOAK A","2403855","2019-02-03 20:00","2019","02","03","20:00","-39.6","","-44.3","","62","","","","12","","7","","24.1","","101.77","","","","-48","","Ice Crystals"
"-93.58","69.55","TALOYOAK A","2403855","2019-02-03 21:00","2019","02","03","21:00","-39.8","","-44.5","","62","","","","36","","1","","24.1","","101.75","","","","-41","","Ice Crystals"
"-93.58","69.55","TALOYOAK A","2403855","2019-02-03 22:00","2019","02","03","22:00","-39.9","","-44.6","","62","","","","36","","2","","24.1","","101.75","","","","-43","","Ice Crystals"
"-93.58","69.55","TALOYOAK A","2403855","2019-02-03 23:00","2019","02","03","23:00","-39.0","","-43.7","","62","","","","36","","1","","24.1","","101.71","","","","-40","","Ice Crystals"
"-93.58","69.55","TALOYOAK A","2403855","2019-02-04 00:00","2019","02","04","00:00","-39.1","","-43.8","","62","","","","14","","5","","24.1","","101.71","","","","-46","","Ice Crystals"
"-93.58","69.55","TALOYOAK A","2403855","2019-02-04 01:00","2019","02","04","01:00","-37.2","","-41.8","","63","","","","3","","3","","24.1","","101.70","","","","-41","","Ice Crystals"
"-93.58","69.55","TALOYOAK A","2403855","2019-02-04 02:00","2019","02","04","02:00","-35.5","","-40.0","","64","","","","1","","13","","24.1","","101.70","","","","-47","","Ice Crystals"
"-93.58","69.55","TALOYOAK A","2403855","2019-02-04 03:00","2019","02","04","03:00","-38.5","","-43.1","","63","","","","17","","5","","24.1","","101.75","","","","-45","","Ice Crystals"
"-93.58","69.55","TALOYOAK A","2403855","2019-02-04 04:00","2019","02","04","04:00","-38.1","","-42.7","","63","","","","21","","3","","24.1","","101.76","","","","-42","","Ice Crystals"
"-93.58","69.55","TALOYOAK A","2403855","2019-02-04 05:00","2019","02","04","05:00","-37.5","","-42.1","","63","","","","36","","1","","24.1","","101.78","","","","-39","","Ice Crystals"
"-93.58","69.55","TALOYOAK A","2403855","2019-02-04 06:00","2019","02","04","06:00","-35.5","","-40.0","","65","","","","36","","8","","24.1","","101.79","","","","-44","","Ice Crystals"
"-93.58","69.55","TALOYOAK A","2403855","2019-02-04 07:00","2019","02","04","07:00","-36.4","","-40.9","","64","","","","1","","8","","24.1","","101.78","","","","-45","","Ice Crystals"
"-93.58","69.55","TALOYOAK A","2403855","2019-02-04 08:00","2019","02","04","08:00","-36.5","","-41.1","","64","","","","18","","3","","24.1","","101.77","","","","-40","","Mostly Cloudy"
"-93.58","69.55","TALOYOAK A","2403855","2019-02-04 09:00","2019","02","04","09:00","-36.3","","-40.8","","64","","","","15","","3","","24.1","","101.78","","","","-40","","NA"
"-93.58","69.55","TALOYOAK A","2403855","2019-02-04 10:00","2019","02","04","10:00","-35.9","","-40.4","","64","","","","19","","4","","24.1","","101.84","","","","-41","","NA"
"-93.58","69.55","TALOYOAK A","2403855","2019-02-04 11:00","2019","02","04","11:00","-36.4","","-41.0","","64","","","","26","","4","","24.1","","101.85","","","","-42","","Mostly Cloudy"
"-93.58","69.55","TALOYOAK A","2403855","2019-02-04 12:00","2019","02","04","12:00","-35.6","","-40.1","","64","","","","36","","2","","24.1","","101.86","","","","-38","","NA"
"-93.58","69.55","TALOYOAK A","2403855","2019-02-04 13:00","2019","02","04","13:00","-33.8","","-38.2","","65","","","","36","","5","","24.1","","101.87","","","","-40","","NA"
"-93.58","69.55","TALOYOAK A","2403855","2019-02-04 14:00","2019","02","04","14:00","-33.9","","-38.4","","65","","","","19","","5","","24.1","","101.92","","","","-40","","Mostly Cloudy"
"-93.58","69.55","TALOYOAK A","2403855","2019-02-04 15:00","2019","02","04","15:00","-33.6","","-38.0","","66","","","","11","","3","","24.1","","101.95","","","","-37","","NA"
"-93.58","69.55","TALOYOAK A","2403855","2019-02-04 16:00","2019","02","04","16:00","-33.9","","-38.3","","66","","","","15","","6","","24.1","","101.97","","","","-41","","NA"
"-93.58","69.55","TALOYOAK A","2403855","2019-02-04 17:00","2019","02","04","17:00","-33.9","","-38.2","","66","","","","20","","6","","24.1","","101.99","","","","-41","","Mostly Cloudy"
"-93.58","69.55","TALOYOAK A","2403855","2019-02-04 18:00","2019","02","04","18:00","-33.5","","-37.9","","66","","","","17","","6","","24.1","","101.99","","","","-41","","NA"
"-93.58","69.55","TALOYOAK A","2403855","2019-02-04 19:00","2019","02","04","19:00","-33.7","","-38.1","","66","","","","14","","5","","24.1","","102.04","","","","-40","","Ice Crystals"
"-93.58","69.55","TALOYOAK A","2403855","2019-02-04 20:00","2019","02","04","20:00","-33.3","","-37.6","","66","","","","18","","4","","24.1","","102.06","","","","-38","","Ice Crystals"
"-93.58","69.55","TALOYOAK A","2403855","2019-02-04 21:00","2019","02","04","21:00","-34.2","","-38.5","","66","","","","15","","5","","24.1","","102.10","","","","-40","","Ice Crystals"
"-93.58","69.55","TALOYOAK A","2403855","2019-02-04 22:00","2019","02","04","22:00","-34.2","","-38.6","","65","","","","36","","1","","24.1","","102.12","","","","-35","","Ice Crystals"
"-93.58","69.55","TALOYOAK A","2403855","2019-02-04 23:00","2019","02","04","23:00","-33.2","","-37.5","","66","","","","","","0","","24.1","","102.11","","","","","","Ice Crystals"
"-93.58","69.55","TALOYOAK A","2403855","2019-02-05 00:00","2019","02","05","00:00","-34.2","","-38.5","","66","","","","33","","7","","24.1","","102.16","","","","-42","","Ice Crystals"
"-93.58","69.55","TALOYOAK A","2403855","2019-02-05 01:00","2019","02","05","01:00","-34.4","","-38.8","","65","","","","12","","6","","24.1","","102.18","","","","-42","","Ice Crystals"
"-93.58","69.55","TALOYOAK A","2403855","2019-02-05 02:00","2019","02","05","02:00","-34.2","","-38.6","","66","","","","16","","4","","24.1","","102.22","","","","-39","","Ice Crystals"
"-93.58","69.55","TALOYOAK A","2403855","2019-02-05 03:00","2019","02","05","03:00","-33.9","","-38.3","","66","","","","36","","1","","24.1","","102.24","","","","-35","","Ice Crystals"
"-93.58","69.55","TALOYOAK A","2403855","2019-02-05 04:00","2019","02","05","04:00","-33.7","","-38.0","","66","","","","36","","2","","24.1","","102.23","","","","-36","","Ice Crystals"
"-93.58","69.55","TALOYOAK A","2403855","2019-02-05 05:00","2019","02","05","05:00","-32.0","","-36.2","","67","","","","2","","5","","12.9","","102.28","","","","-38","","Snow"
"-93.58","69.55","TALOYOAK A","2403855","2019-02-05 06:00","2019","02","05","06:00","-31.8","","-36.0","","67","","","","5","","3","","12.9","","102.31","","","","-35","","Snow"
"-93.58","69.55","TALOYOAK A","2403855","2019-02-05 07:00","2019","02","05","07:00","-30.0","","-34.1","","68","","","","2","","5","","16.1","","102.31","","","","-36","","Snow"
"-93.58","69.55","TALOYOAK A","2403855","2019-02-05 08:00","2019","02","05","08:00","-29.7","","-33.8","","68","","","","4","","4","","24.1","","102.34","","","","-34","","Snow"
"-93.58","69.55","TALOYOAK A","2403855","2019-02-05 09:00","2019","02","05","09:00","-29.0","","-33.1","","69","","","","3","","12","","8.1","","102.35","","","","-39","","Snow"
"-93.58","69.55","TALOYOAK A","2403855","2019-02-05 10:00","2019","02","05","10:00","-31.1","","-35.2","","67","","","","2","","9","","8.1","","102.36","","","","-40","","Snow,Fog"
"-93.58","69.55","TALOYOAK A","2403855","2019-02-05 11:00","2019","02","05","11:00","-30.6","","-34.7","","68","","","","10","","4","","4.8","","102.39","","","","-35","","Snow,Fog"
"-93.58","69.55","TALOYOAK A","2403855","2019-02-05 12:00","2019","02","05","12:00","-31.5","","-35.7","","67","","","","36","","1","","1.2","","102.38","","","","-33","","Snow,Fog"
"-93.58","69.55","TALOYOAK A","2403855","2019-02-05 13:00","2019","02","05","13:00","-32.7","","-37.0","","67","","","","10","","3","","4.8","","102.39","","","","-36","","Fog"
"-93.58","69.55","TALOYOAK A","2403855","2019-02-05 14:00","2019","02","05","14:00","-32.0","","-36.2","","67","","","","11","","3","","11.3","","102.41","","","","-36","","Mainly Clear"
"-93.58","69.55","TALOYOAK A","2403855","2019-02-05 15:00","2019","02","05","15:00","-33.0","","-37.3","","67","","","","36","","2","","16.1","","102.43","","","","-35","","NA"
"-93.58","69.55","TALOYOAK A","2403855","2019-02-05 16:00","2019","02","05","16:00","-33.1","","-37.4","","66","","","","14","","7","","24.1","","102.43","","","","-41","","NA"
"-93.58","69.55","TALOYOAK A","2403855","2019-02-05 17:00","2019","02","05","17:00","-32.9","","-37.1","","67","","","","17","","4","","24.1","","102.43","","","","-38","","Ice Crystals"
"-93.58","69.55","TALOYOAK A","2403855","2019-02-05 18:00","2019","02","05","18:00","-33.5","","-37.8","","66","","","","16","","10","","24.1","","102.46","","","","-43","","Ice Crystals"
"-93.58","69.55","TALOYOAK A","2403855","2019-02-05 19:00","2019","02","05","19:00","-33.9","","-38.2","","66","","","","17","","9","","24.1","","102.46","","","","-43","","Ice Crystals"
"-93.58","69.55","TALOYOAK A","2403855","2019-02-05 20:00","2019","02","05","20:00","-34.1","","-38.5","","66","","","","17","","9","","24.1","","102.46","","","","-43","","Ice Crystals"
"-93.58","69.55","TALOYOAK A","2403855","2019-02-05 21:00","2019","02","05","21:00","-34.9","","-39.3","","65","","","","18","","9","","24.1","","102.48","","","","-44","","Ice Crystals"
"-93.58","69.55","TALOYOAK A","2403855","2019-02-05 22:00","2019","02","05","22:00"
"-93.58","69.55","TALOYOAK A","2403855","2019-02-05 23:00","2019","02","05","23:00"
"-93.58","69.55","TALOYOAK A","2403855","2019-02-06 00:00","2019","02","06","00:00"
"-93.58","69.55","TALOYOAK A","2403855","2019-02-06 01:00","2019","02","06","01:00"
"-93.58","69.55","TALOYOAK A","2403855","2019-02-06 02:00","2019","02","06","02:00"
"-93.58","69.55","TALOYOAK A","2403855","2019-02-06 03:00","2019","02","06","03:00"
"-93.58","69.55","TALOYOAK A","2403855","2019-02-06 04:00","2019","02","06","04:00"
"-93.58","69.55","TALOYOAK A","2403855","2019-02-06 05:00","2019","02","06","05:00"
"-93.58","69.55","TALOYOAK A","2403855","2019-02-06 06:00","2019","02","06","06:00"
"-93.58","69.55","TALOYOAK A","2403855","2019-02-06 07:00","2019","02","06","07:00"
"-93.58","69.55","TALOYOAK A","2403855","2019-02-06 08:00","2019","02","06","08:00"
"-93.58","69.55","TALOYOAK A","2403855","2019-02-06 09:00","2019","02","06","09:00","-35.9","","-40.4","","65","","","","17","","14","","24.1","","102.62","","","","-48","","NA"
"-93.58","69.55","TALOYOAK A","2403855","2019-02-06 10:00","2019","02","06","10:00","-35.8","","-40.2","","65","","","","17","","14","","24.1","","102.63","","","","-48","","NA"
"-93.58","69.55","TALOYOAK A","2403855","2019-02-06 11:00","2019","02","06","11:00","-35.9","","-40.4","","65","","","","17","","16","","24.1","","102.63","","","","-49","","Ice Crystals"
"-93.58","69.55","TALOYOAK A","2403855","2019-02-06 12:00","2019","02","06","12:00","-35.7","","-40.1","","65","","","","16","","15","","24.1","","102.64","","","","-48","","Ice Crystals"
"-93.58","69.55","TALOYOAK A","2403855","2019-02-06 13:00","2019","02","06","13:00","-36.0","","-40.4","","64","","","","17","","12","","24.1","","102.69","","","","-47","","Ice Crystals"
"-93.58","69.55","TALOYOAK A","2403855","2019-02-06 14:00","2019","02","06","14:00","-36.1","","-40.6","","64","","","","17","","17","","24.1","","102.68","","","","-50","","Ice Crystals"
"-93.58","69.55","TALOYOAK A","2403855","2019-02-06 15:00","2019","02","06","15:00","-36.5","","-41.0","","64","","","","18","","14","","24.1","","102.70","","","","-49","","Ice Crystals"
"-93.58","69.55","TALOYOAK A","2403855","2019-02-06 16:00","2019","02","06","16:00","-36.3","","-40.8","","64","","","","16","","17","","24.1","","102.70","","","","-50","","Ice Crystals"
"-93.58","69.55","TALOYOAK A","2403855","2019-02-06 17:00","2019","02","06","17:00","-36.5","","-40.9","","64","","","","17","","18","","24.1","","102.69","","","","-51","","Ice Crystals"
"-93.58","69.55","TALOYOAK A","2403855","2019-02-06 18:00","2019","02","06","18:00","-36.6","","-41.0","","64","","","","17","","20","","24.1","","102.68","","","","-51","","Ice Crystals"
"-93.58","69.55","TALOYOAK A","2403855","2019-02-06 19:00","2019","02","06","19:00","-36.6","","-41.1","","64","","","","17","","16","","24.1","","102.67","","","","-50","","Ice Crystals"
"-93.58","69.55","TALOYOAK A","2403855","2019-02-06 20:00","2019","02","06","20:00","-36.6","","-41.1","","64","","","","17","","17","","24.1","","102.64","","","","-50","","Ice Crystals"
"-93.58","69.55","TALOYOAK A","2403855","2019-02-06 21:00","2019","02","06","21:00","-36.9","","-41.4","","64","","","","16","","19","","24.1","","102.60","","","","-51","","Ice Crystals"
"-93.58","69.55","TALOYOAK A","2403855","2019-02-06 22:00","2019","02","06","22:00","-36.5","","-41.0","","64","","","","17","","13","","24.1","","102.57","","","","-49","","Ice Crystals"
"-93.58","69.55","TALOYOAK A","2403855","2019-02-06 23:00","2019","02","06","23:00","-36.5","","-40.9","","64","","","","17","","12","","24.1","","102.55","","","","-48","","Ice Crystals"
"-93.58","69.55","TALOYOAK A","2403855","2019-02-07 00:00","2019","02","07","00:00","-35.7","","-40.1","","65","","","","18","","12","","24.1","","102.51","","","","-47","","Ice Crystals"
"-93.58","69.55","TALOYOAK A","2403855","2019-02-07 01:00","2019","02","07","01:00","-34.5","","-38.9","","65","","","","17","","10","","24.1","","102.49","","","","-45","","Ice Crystals"
"-93.58","69.55","TALOYOAK A","2403855","2019-02-07 02:00","2019","02","07","02:00","-32.1","","-36.3","","67","","","","24","","5","","24.1","","102.47","","","","-38","","Ice Crystals"
"-93.58","69.55","TALOYOAK A","2403855","2019-02-07 03:00","2019","02","07","03:00","-24.9","","-28.6","","72","","","","31","","29","","24.1","","102.39","","","","-39","","Ice Crystals"
"-93.58","69.55","TALOYOAK A","2403855","2019-02-07 04:00","2019","02","07","04:00","-24.8","","-28.4","","72","","","","31","","22","","24.1","","102.33","","","","-37","","Ice Crystals"
"-93.58","69.55","TALOYOAK A","2403855","2019-02-07 05:00","2019","02","07","05:00","-25.9","","-29.7","","71","","","","32","","28","","24.1","","102.27","","","","-40","","Ice Crystals"
"-93.58","69.55","TALOYOAK A","2403855","2019-02-07 06:00","2019","02","07","06:00","-26.6","","-30.5","","71","","","","30","","24","","24.1","","102.25","","","","-40","","Ice Crystals"
"-93.58","69.55","TALOYOAK A","2403855","2019-02-07 07:00","2019","02","07","07:00","-27.8","","-31.6","","70","","","","31","","32","","24.1","","102.21","","","","-43","","Ice Crystals"
"-93.58","69.55","TALOYOAK A","2403855","2019-02-07 08:00","2019","02","07","08:00","-27.8","","-31.7","","70","","","","31","","30","","24.1","","102.18","","","","-43","","Ice Crystals,Blowing Snow"
"-93.58","69.55","TALOYOAK A","2403855","2019-02-07 09:00","2019","02","07","09:00","-29.4","","-33.3","","69","","","","32","","33","","16.1","","102.09","","","","-45","","Ice Crystals,Blowing Snow"
"-93.58","69.55","TALOYOAK A","2403855","2019-02-07 10:00","2019","02","07","10:00","-29.1","","-33.1","","69","","","","31","","42","","16.1","","102.04","","","","-47","","Ice Crystals,Blowing Snow"
"-93.58","69.55","TALOYOAK A","2403855","2019-02-07 11:00","2019","02","07","11:00","-28.5","","-32.5","","70","","","","33","","30","","24.1","","102.05","","","","-44","","Ice Crystals,Blowing Snow"
"-93.58","69.55","TALOYOAK A","2403855","2019-02-07 12:00","2019","02","07","12:00","-29.9","","-34.0","","68","","","","31","","35","","24.1","","102.00","","","","-46","","Ice Crystals,Blowing Snow"
"-93.58","69.55","TALOYOAK A","2403855","2019-02-07 13:00","2019","02","07","13:00","-29.5","","-33.5","","69","","","","32","","32","","24.1","","101.99","","","","-45","","Ice Crystals,Blowing Snow"
"-93.58","69.55","TALOYOAK A","2403855","2019-02-07 14:00","2019","02","07","14:00","-29.4","","-33.4","","69","","","","31","","30","","24.1","","102.00","","","","-45","","Ice Crystals,Blowing Snow"
"-93.58","69.55","TALOYOAK A","2403855","2019-02-07 15:00","2019","02","07","15:00","-29.5","","-33.5","","69","","","","31","","26","","24.1","","101.96","","","","-44","","Blowing Snow"
"-93.58","69.55","TALOYOAK A","2403855","2019-02-07 16:00","2019","02","07","16:00","-29.4","","-33.4","","69","","","","31","","29","","24.1","","101.95","","","","-45","","Blowing Snow"
"-93.58","69.55","TALOYOAK A","2403855","2019-02-07 17:00","2019","02","07","17:00","-29.0","","-32.9","","69","","","","32","","27","","24.1","","101.99","","","","-44","","Ice Crystals,Blowing Snow"
"-93.58","69.55","TALOYOAK A","2403855","2019-02-07 18:00","2019","02","07","18:00","-28.9","","-32.9","","69","","","","31","","12","","24.1","","101.98","","","","-39","","Ice Crystals"
"-93.58","69.55","TALOYOAK A","2403855","2019-02-07 19:00","2019","02","07","19:00","-28.9","","-32.9","","69","","","","34","","13","","24.1","","101.93","","","","-39","","Ice Crystals"
"-93.58","69.55","TALOYOAK A","2403855","2019-02-07 20:00","2019","02","07","20:00","-29.2","","-33.2","","69","","","","33","","16","","24.1","","101.94","","","","-41","","Ice Crystals"
"-93.58","69.55","TALOYOAK A","2403855","2019-02-07 21:00","2019","02","07","21:00","-29.0","","-32.9","","70","","","","32","","27","","24.1","","101.88","","","","-44","","Ice Crystals"
"-93.58","69.55","TALOYOAK A","2403855","2019-02-07 22:00","2019","02","07","22:00","-29.4","","-33.4","","69","","","","33","","21","","24.1","","101.85","","","","-43","","Ice Crystals"
"-93.58","69.55","TALOYOAK A","2403855","2019-02-07 23:00","2019","02","07","23:00","-29.0","","-33.0","","69","","","","32","","27","","24.1","","101.83","","","","-44","","Ice Crystals"
"-93.58","69.55","TALOYOAK A","2403855","2019-02-08 00:00","2019","02","08","00:00","-29.2","","-33.2","","69","","","","33","","22","","24.1","","101.82","","","","-43","","Ice Crystals"
"-93.58","69.55","TALOYOAK A","2403855","2019-02-08 01:00","2019","02","08","01:00","-28.4","","-32.3","","70","","","","32","","21","","24.1","","101.79","","","","-41","","Ice Crystals"
"-93.58","69.55","TALOYOAK A","2403855","2019-02-08 02:00","2019","02","08","02:00","-28.1","","-32.0","","70","","","","32","","25","","24.1","","101.79","","","","-42","","Ice Crystals"
"-93.58","69.55","TALOYOAK A","2403855","2019-02-08 03:00","2019","02","08","03:00","-27.7","","-31.6","","70","","","","34","","13","","24.1","","101.78","","","","-38","","Ice Crystals"
"-93.58","69.55","TALOYOAK A","2403855","2019-02-08 04:00","2019","02","08","04:00","-27.5","","-31.4","","70","","","","32","","18","","24.1","","101.79","","","","-39","","Ice Crystals"
"-93.58","69.55","TALOYOAK A","2403855","2019-02-08 05:00","2019","02","08","05:00","-24.6","","-28.1","","73","","","","35","","30","","24.1","","101.77","","","","-39","","Ice Crystals"
"-93.58","69.55","TALOYOAK A","2403855","2019-02-08 06:00","2019","02","08","06:00","-25.6","","-29.3","","72","","","","35","","30","","24.1","","101.78","","","","-40","","Ice Crystals"
"-93.58","69.55","TALOYOAK A","2403855","2019-02-08 07:00","2019","02","08","07:00","-26.4","","-30.1","","72","","","","34","","23","","24.1","","101.79","","","","-39","","NA"
"-93.58","69.55","TALOYOAK A","2403855","2019-02-08 08:00","2019","02","08","08:00","-27.8","","-31.6","","70","","","","34","","19","","24.1","","101.80","","","","-40","","Mainly Clear"
"-93.58","69.55","TALOYOAK A","2403855","2019-02-08 09:00","2019","02","08","09:00","-28.2","","-32.0","","70","","","","36","","14","","24.1","","101.83","","","","-39","","NA"
"-93.58","69.55","TALOYOAK A","2403855","2019-02-08 10:00","2019","02","08","10:00","-26.9","","-30.6","","71","","","","34","","5","","24.1","","101.83","","","","-32","","NA"
"-93.58","69.55","TALOYOAK A","2403855","2019-02-08 11:00","2019","02","08","11:00","-27.4","","-31.3","","71","","","","34","","7","","24.1","","101.86","","","","-34","","Mainly Clear"
"-93.58","69.55","TALOYOAK A","2403855","2019-02-08 12:00","2019","02","08","12:00","-27.1","","-30.9","","71","","","","36","","11","","24.1","","101.81","","","","-36","","Ice Crystals"
"-93.58","69.55","TALOYOAK A","2403855","2019-02-08 13:00","2019","02","08","13:00","-28.3","","-32.2","","70","","","","36","","8","","24.1","","101.83","","","","-36","","Ice Crystals"
"-93.58","69.55","TALOYOAK A","2403855","2019-02-08 14:00","2019","02","08","14:00","-27.1","","-30.8","","71","","","","4","","9","","24.1","","101.81","","","","-35","","Mostly Cloudy"
"-93.58","69.55","TALOYOAK A","2403855","2019-02-08 15:00","2019","02","08","15:00","-30.0","","-34.0","","69","","","","36","","3","","24.1","","101.86","","","","-33","","NA"
"-93.58","69.55","TALOYOAK A","2403855","2019-02-08 16:00","2019","02","08","16:00","-29.7","","-33.7","","69","","","","33","","4","","24.1","","101.84","","","","-34","","Snow"
"-93.58","69.55","TALOYOAK A","2403855","2019-02-08 17:00","2019","02","08","17:00","-30.1","","-34.1","","69","","","","36","","1","","24.1","","101.85","","","","-31","","Ice Crystals"
"-93.58","69.55","TALOYOAK A","2403855","2019-02-08 18:00","2019","02","08","18:00","-28.1","","-31.9","","70","","","","35","","4","","24.1","","101.84","","","","-32","","Ice Crystals"
"-93.58","69.55","TALOYOAK A","2403855","2019-02-08 19:00","2019","02","08","19:00","-29.0","","-33.0","","69","","","","36","","13","","24.1","","101.81","","","","-39","","Ice Crystals"
"-93.58","69.55","TALOYOAK A","2403855","2019-02-08 20:00","2019","02","08","20:00","-28.9","","-32.7","","70","","","","36","","2","","24.1","","101.80","","","","-31","","Clear"
"-93.58","69.55","TALOYOAK A","2403855","2019-02-08 21:00","2019","02","08","21:00","-32.0","","-36.1","","68","","","","18","","9","","24.1","","101.80","","","","-41","","Ice Crystals"
"-93.58","69.55","TALOYOAK A","2403855","2019-02-08 22:00","2019","02","08","22:00","-33.2","","-37.4","","67","","","","22","","10","","24.1","","101.79","","","","-43","","Ice Crystals"
"-93.58","69.55","TALOYOAK A","2403855","2019-02-08 23:00","2019","02","08","23:00","-32.7","","-36.8","","67","","","","17","","8","","24.1","","101.73","","","","-41","","Ice Crystals"
"-93.58","69.55","TALOYOAK A","2403855","2019-02-09 00:00","2019","02","09","00:00","-32.1","","-36.2","","68","","","","15","","9","","24.1","","101.72","","","","-41","","Ice Crystals"
"-93.58","69.55","TALOYOAK A","2403855","2019-02-09 01:00","2019","02","09","01:00","-33.7","","-38.0","","67","","","","18","","14","","24.1","","101.70","","","","-46","","Ice Crystals"
"-93.58","69.55","TALOYOAK A","2403855","2019-02-09 02:00","2019","02","09","02:00","-33.0","","-37.2","","67","","","","16","","21","","24.1","","101.69","","","","-47","","Ice Crystals"
"-93.58","69.55","TALOYOAK A","2403855","2019-02-09 03:00","2019","02","09","03:00","-32.9","","-37.1","","67","","","","18","","21","","24.1","","101.62","","","","-47","","Ice Crystals"
"-93.58","69.55","TALOYOAK A","2403855","2019-02-09 04:00","2019","02","09","04:00","-34.3","","-38.5","","66","","","","16","","23","","4.0","","101.57","","","","-49","","Ice Crystals,Fog"
"-93.58","69.55","TALOYOAK A","2403855","2019-02-09 05:00","2019","02","09","05:00","-34.3","","-38.5","","66","","","","16","","26","","16.1","","101.52","","","","-50","","Ice Crystals"
"-93.58","69.55","TALOYOAK A","2403855","2019-02-09 06:00","2019","02","09","06:00","-34.4","","-38.6","","66","","","","16","","25","","16.1","","101.47","","","","-50","","Ice Crystals"
"-93.58","69.55","TALOYOAK A","2403855","2019-02-09 07:00","2019","02","09","07:00","-34.5","","-38.8","","66","","","","16","","25","","24.1","","101.41","","","","-50","","Ice Crystals"
"-93.58","69.55","TALOYOAK A","2403855","2019-02-09 08:00","2019","02","09","08:00","-34.3","","-38.5","","66","","","","17","","29","","16.1","","101.34","","","","-51","","Ice Crystals,Blowing Snow"
"-93.58","69.55","TALOYOAK A","2403855","2019-02-09 09:00","2019","02","09","09:00","-34.4","","-38.6","","66","","","","17","","26","","4.8","","101.32","","","","-50","","Ice Crystals,Haze,Blowing Snow,Dust"
"-93.58","69.55","TALOYOAK A","2403855","2019-02-09 10:00","2019","02","09","10:00","-33.6","","-37.8","","67","","","","16","","21","","4.0","","101.28","","","","-48","","Ice Crystals,Fog"
"-93.58","69.55","TALOYOAK A","2403855","2019-02-09 11:00","2019","02","09","11:00","-34.1","","-38.4","","66","","","","16","","21","","3.2","","101.21","","","","-49","","Ice Crystals,Fog"
"-93.58","69.55","TALOYOAK A","2403855","2019-02-09 12:00","2019","02","09","12:00","-33.9","","-38.2","","66","","","","17","","24","","0.8","","101.24","","","","-49","","Ice Crystals,Freezing Fog"
"-93.58","69.55","TALOYOAK A","2403855","2019-02-09 13:00","2019","02","09","13:00","-33.9","","-38.2","","66","","","","17","","25","","0.8","","101.19","","","","-49","","Snow Grains,Freezing Fog"
"-93.58","69.55","TALOYOAK A","2403855","2019-02-09 14:00","2019","02","09","14:00","-34.1","","-38.3","","66","","","","17","","26","","11.3","","101.15","","","","-50","","Ice Crystals,Fog"
"-93.58","69.55","TALOYOAK A","2403855","2019-02-09 15:00","2019","02","09","15:00","-34.1","","-38.4","","66","","","","17","","23","","2.4","","101.18","","","","-49","","Ice Crystals,Fog"
"-93.58","69.55","TALOYOAK A","2403855","2019-02-09 16:00","2019","02","09","16:00","-34.0","","-38.3","","66","","","","17","","22","","0.8","","101.18","","","","-49","","Ice Crystals,Freezing Fog"
"-93.58","69.55","TALOYOAK A","2403855","2019-02-09 17:00","2019","02","09","17:00","-33.3","","-37.5","","67","","","","17","","24","","0.8","","101.15","","","","-48","","Ice Crystals,Freezing Fog"
"-93.58","69.55","TALOYOAK A","2403855","2019-02-09 18:00","2019","02","09","18:00","-32.4","","-36.5","","67","","","","18","","26","","1.6","","101.12","","","","-48","","Ice Crystals,Fog"
"-93.58","69.55","TALOYOAK A","2403855","2019-02-09 19:00","2019","02","09","19:00","-32.7","","-36.9","","67","","","","17","","23","","1.6","","101.10","","","","-47","","Ice Crystals,Fog"
"-93.58","69.55","TALOYOAK A","2403855","2019-02-09 20:00","2019","02","09","20:00","-32.7","","-36.9","","67","","","","17","","22","","1.6","","101.07","","","","-47","","Ice Crystals,Fog"
"-93.58","69.55","TALOYOAK A","2403855","2019-02-09 21:00","2019","02","09","21:00","-33.2","","-37.4","","67","","","","17","","20","","2.0","","101.04","","","","-47","","Ice Crystals,Fog"
"-93.58","69.55","TALOYOAK A","2403855","2019-02-09 22:00","2019","02","09","22:00","-34.1","","-38.4","","66","","","","16","","18","","2.0","","101.04","","","","-48","","Ice Crystals,Fog"
"-93.58","69.55","TALOYOAK A","2403855","2019-02-09 23:00","2019","02","09","23:00","-33.9","","-38.2","","66","","","","16","","13","","9.7","","101.03","","","","-45","","Ice Crystals,Fog"
"-93.58","69.55","TALOYOAK A","2403855","2019-02-10 00:00","2019","02","10","00:00","-34.8","","-39.1","","66","","","","18","","8","","16.1","","101.04","","","","-44","","Ice Crystals"
"-93.58","69.55","TALOYOAK A","2403855","2019-02-10 01:00","2019","02","10","01:00","-35.8","","-40.1","","65","","","","2","","13","","16.1","","101.04","","","","-48","","Ice Crystals"
"-93.58","69.55","TALOYOAK A","2403855","2019-02-10 02:00","2019","02","10","02:00","-34.4","","-38.7","","66","","","","7","","22","","16.1","","101.01","","","","-49","","Ice Crystals"
"-93.58","69.55","TALOYOAK A","2403855","2019-02-10 03:00","2019","02","10","03:00","-34.8","","-39.1","","66","","","","5","","20","","24.1","","101.03","","","","-49","","Ice Crystals"
"-93.58","69.55","TALOYOAK A","2403855","2019-02-10 04:00","2019","02","10","04:00","-35.1","","-39.4","","66","","","","4","","23","","24.1","","100.98","","","","-50","","Ice Crystals"
"-93.58","69.55","TALOYOAK A","2403855","2019-02-10 05:00","2019","02","10","05:00","-34.7","","-39.0","","66","","","","3","","23","","16.1","","100.95","","","","-50","","Ice Crystals"
"-93.58","69.55","TALOYOAK A","2403855","2019-02-10 06:00","2019","02","10","06:00","-34.1","","-38.4","","66","","","","5","","26","","16.1","","100.99","","","","-50","","Ice Crystals"
"-93.58","69.55","TALOYOAK A","2403855","2019-02-10 07:00","2019","02","10","07:00","-33.6","","-37.9","","66","","","","4","","24","","16.1","","101.00","","","","-49","","Ice Crystals"
"-93.58","69.55","TALOYOAK A","2403855","2019-02-10 08:00","2019","02","10","08:00","-33.4","","-37.6","","67","","","","4","","15","","4.8","","101.05","","","","-46","","Ice Crystals,Fog"
"-93.58","69.55","TALOYOAK A","2403855","2019-02-10 09:00","2019","02","10","09:00","-33.2","","-37.5","","67","","","","5","","27","","4.8","","101.09","","","","-49","","Ice Crystals,Fog"
"-93.58","69.55","TALOYOAK A","2403855","2019-02-10 10:00","2019","02","10","10:00","-32.7","","-36.9","","67","","","","5","","31","","4.8","","101.09","","","","-49","","Ice Crystals"
"-93.58","69.55","TALOYOAK A","2403855","2019-02-10 11:00","2019","02","10","11:00","-32.1","","-36.3","","67","","","","4","","28","","4.8","","101.13","","","","-48","","Ice Crystals,Fog"
"-93.58","69.55","TALOYOAK A","2403855","2019-02-10 12:00","2019","02","10","12:00","-31.7","","-35.9","","67","","","","5","","31","","4.8","","101.13","","","","-48","","Ice Crystals,Fog,Blowing Snow"
"-93.58","69.55","TALOYOAK A","2403855","2019-02-10 13:00","2019","02","10","13:00","-31.1","","-35.2","","68","","","","6","","30","","4.8","","101.18","","","","-47","","Ice Crystals,Fog,Blowing Snow"
"-93.58","69.55","TALOYOAK A","2403855","2019-02-10 14:00","2019","02","10","14:00","-30.4","","-34.4","","68","","","","6","","29","","4.8","","101.17","","","","-46","","Ice Crystals,Fog,Blowing Snow"
"-93.58","69.55","TALOYOAK A","2403855","2019-02-10 15:00","2019","02","10","15:00","-30.4","","-34.5","","68","","","","4","","12","","4.8","","101.25","","","","-41","","Ice Crystals,Fog,Blowing Snow"
"-93.58","69.55","TALOYOAK A","2403855","2019-02-10 16:00","2019","02","10","16:00","-30.0","","-34.0","","69","","","","6","","19","","4.8","","101.31","","","","-43","","Ice Crystals,Fog,Blowing Snow"
"-93.58","69.55","TALOYOAK A","2403855","2019-02-10 17:00","2019","02","10","17:00","-30.4","","-34.5","","68","","","","6","","34","","3.2","","101.31","","","","-47","","Ice Crystals,Blowing Snow"
"-93.58","69.55","TALOYOAK A","2403855","2019-02-10 18:00","2019","02","10","18:00","-30.2","","-34.2","","69","","","","5","","36","","3.2","","101.33","","","","-47","","Ice Crystals,Blowing Snow"
"-93.58","69.55","TALOYOAK A","2403855","2019-02-10 19:00","2019","02","10","19:00","-30.1","","-34.2","","69","","","","5","","34","","2.4","","101.37","","","","-47","","Ice Crystals,Blowing Snow"
"-93.58","69.55","TALOYOAK A","2403855","2019-02-10 20:00","2019","02","10","20:00","-30.2","","-34.3","","69","","","","4","","26","","2.0","","101.45","","","","-45","","Ice Crystals,Blowing Snow"
"-93.58","69.55","TALOYOAK A","2403855","2019-02-10 21:00","2019","02","10","21:00","-29.9","","-33.9","","69","","","","4","","24","","4.8","","101.52","","","","-44","","Ice Crystals,Fog,Blowing Snow"
"-93.58","69.55","TALOYOAK A","2403855","2019-02-10 22:00","2019","02","10","22:00","-29.5","","-33.5","","69","","","","2","","14","","4.8","","101.56","","","","-40","","Ice Crystals,Fog"
"-93.58","69.55","TALOYOAK A","2403855","2019-02-10 23:00","2019","02","10","23:00","-31.8","","-35.9","","68","","","","1","","14","","16.1","","101.60","","","","-43","","Ice Crystals"
"-93.58","69.55","TALOYOAK A","2403855","2019-02-11 00:00","2019","02","11","00:00","-32.3","","-36.5","","67","","","","2","","15","","24.1","","101.59","","","","-44","","Ice Crystals"
"-93.58","69.55","TALOYOAK A","2403855","2019-02-11 01:00","2019","02","11","01:00","-32.8","","-37.0","","67","","","","34","","9","","24.1","","101.63","","","","-42","","Ice Crystals"
"-93.58","69.55","TALOYOAK A","2403855","2019-02-11 02:00","2019","02","11","02:00","-34.9","","-39.2","","66","","","","1","","13","","24.1","","101.66","","","","-47","","Ice Crystals"
"-93.58","69.55","TALOYOAK A","2403855","2019-02-11 03:00","2019","02","11","03:00","-34.7","","-39.0","","66","","","","36","","12","","24.1","","101.68","","","","-46","","Ice Crystals"
"-93.58","69.55","TALOYOAK A","2403855","2019-02-11 04:00","2019","02","11","04:00","-34.4","","-38.7","","66","","","","2","","12","","24.1","","101.72","","","","-45","","Ice Crystals"
"-93.58","69.55","TALOYOAK A","2403855","2019-02-11 05:00","2019","02","11","05:00","-35.0","","-39.3","","66","","","","1","","11","","24.1","","101.72","","","","-46","","Ice Crystals"
"-93.58","69.55","TALOYOAK A","2403855","2019-02-11 06:00","2019","02","11","06:00","-33.1","","-37.4","","67","","","","2","","13","","24.1","","101.73","","","","-44","","Ice Crystals"
"-93.58","69.55","TALOYOAK A","2403855","2019-02-11 07:00","2019","02","11","07:00","-34.0","","-38.2","","66","","","","36","","16","","24.1","","101.74","","","","-47","","Ice Crystals"
"-93.58","69.55","TALOYOAK A","2403855","2019-02-11 08:00","2019","02","11","08:00","-33.0","","-37.3","","67","","","","2","","15","","24.1","","101.78","","","","-45","","Ice Crystals"
"-93.58","69.55","TALOYOAK A","2403855","2019-02-11 09:00","2019","02","11","09:00","-30.6","","-34.6","","68","","","","2","","5","","24.1","","101.81","","","","-36","","NA"
"-93.58","69.55","TALOYOAK A","2403855","2019-02-11 10:00","2019","02","11","10:00","-31.5","","-35.6","","68","","","","10","","3","","24.1","","101.82","","","","-35","","Ice Crystals"
"-93.58","69.55","TALOYOAK A","2403855","2019-02-11 11:00","2019","02","11","11:00","-30.0","","-34.1","","69","","","","36","","1","","4.8","","101.85","","","","-31","","Ice Crystals,Fog"
"-93.58","69.55","TALOYOAK A","2403855","2019-02-11 12:00","2019","02","11","12:00","-30.1","","-34.2","","69","","","","36","","2","","1.2","","101.87","","","","-32","","Ice Crystals,Fog"
"-93.58","69.55","TALOYOAK A","2403855","2019-02-11 13:00","2019","02","11","13:00","-30.6","","-34.7","","68","","","","36","","1","","0.4","","101.87","","","","-32","","Ice Crystals,Freezing Fog"
"-93.58","69.55","TALOYOAK A","2403855","2019-02-11 14:00","2019","02","11","14:00","-31.0","","-35.1","","68","","","","17","","3","","0.8","","101.92","","","","-34","","Ice Crystals,Freezing Fog"
"-93.58","69.55","TALOYOAK A","2403855","2019-02-11 15:00","2019","02","11","15:00","-31.2","","-35.4","","68","","","","15","","7","","0.6","","101.92","","","","-39","","Ice Crystals,Freezing Fog"
"-93.58","69.55","TALOYOAK A","2403855","2019-02-11 16:00","2019","02","11","16:00","-31.6","","-35.7","","68","","","","15","","11","","0.8","","101.91","","","","-42","","Ice Crystals,Freezing Fog"
"-93.58","69.55","TALOYOAK A","2403855","2019-02-11 17:00","2019","02","11","17:00","-31.1","","-35.2","","68","","","","16","","12","","0.8","","101.94","","","","-41","","Ice Crystals,Freezing Fog"
"-93.58","69.55","TALOYOAK A","2403855","2019-02-11 18:00","2019","02","11","18:00","-31.8","","-36.0","","68","","","","16","","14","","1.2","","101.93","","","","-43","","Ice Crystals,Fog"
"-93.58","69.55","TALOYOAK A","2403855","2019-02-11 19:00","2019","02","11","19:00","-32.3","","-36.5","","67","","","","17","","16","","1.6","","101.97","","","","-45","","Ice Crystals,Fog"
"-93.58","69.55","TALOYOAK A","2403855","2019-02-11 20:00","2019","02","11","20:00","-32.8","","-37.0","","67","","","","16","","18","","16.1","","101.94","","","","-46","","Ice Crystals"
"-93.58","69.55","TALOYOAK A","2403855","2019-02-11 21:00","2019","02","11","21:00","-33.1","","-37.3","","67","","","","16","","16","","16.1","","101.91","","","","-46","","Ice Crystals"
"-93.58","69.55","TALOYOAK A","2403855","2019-02-11 22:00","2019","02","11","22:00","-33.7","","-38.0","","66","","","","16","","18","","12.9","","101.90","","","","-47","","Ice Crystals"
"-93.58","69.55","TALOYOAK A","2403855","2019-02-11 23:00","2019","02","11","23:00","-34.2","","-38.5","","66","","","","17","","19","","16.1","","101.89","","","","-48","","Ice Crystals"
"-93.58","69.55","TALOYOAK A","2403855","2019-02-12 00:00","2019","02","12","00:00","-34.7","","-39.0","","66","","","","16","","18","","16.1","","101.85","","","","-48","","Ice Crystals"
"-93.58","69.55","TALOYOAK A","2403855","2019-02-12 01:00","2019","02","12","01:00","-35.1","","-39.5","","66","","","","17","","17","","19.3","","101.84","","","","-48","","Ice Crystals"
"-93.58","69.55","TALOYOAK A","2403855","2019-02-12 02:00","2019","02","12","02:00","-35.4","","-39.8","","65","","","","16","","20","","19.3","","101.82","","","","-50","","Ice Crystals"
"-93.58","69.55","TALOYOAK A","2403855","2019-02-12 03:00","2019","02","12","03:00","-35.7","","-40.0","","65","","","","16","","17","","24.1","","101.83","","","","-49","","Ice Crystals"
"-93.58","69.55","TALOYOAK A","2403855","2019-02-12 04:00","2019","02","12","04:00","-35.7","","-40.0","","65","","","","15","","16","","19.3","","101.83","","","","-49","","Ice Crystals"
"-93.58","69.55","TALOYOAK A","2403855","2019-02-12 05:00","2019","02","12","05:00","-35.5","","-39.8","","65","","","","15","","17","","19.3","","101.82","","","","-49","","Ice Crystals"
"-93.58","69.55","TALOYOAK A","2403855","2019-02-12 06:00","2019","02","12","06:00","-35.1","","-39.5","","65","","","","16","","20","","16.1","","101.83","","","","-50","","Ice Crystals"
"-93.58","69.55","TALOYOAK A","2403855","2019-02-12 07:00","2019","02","12","07:00","-34.9","","-39.3","","66","","","","16","","16","","9.7","","101.78","","","","-48","","Ice Crystals,Fog"
"-93.58","69.55","TALOYOAK A","2403855","2019-02-12 08:00","2019","02","12","08:00","-34.2","","-38.5","","66","","","","16","","20","","4.8","","101.73","","","","-48","","Ice Crystals,Fog"
"-93.58","69.55","TALOYOAK A","2403855","2019-02-12 09:00","2019","02","12","09:00","-33.6","","-37.9","","66","","","","16","","20","","2.4","","101.69","","","","-48","","Ice Crystals,Fog"
"-93.58","69.55","TALOYOAK A","2403855","2019-02-12 10:00","2019","02","12","10:00","-32.2","","-36.4","","67","","","","17","","18","","1.6","","101.66","","","","-45","","Ice Crystals,Fog"
"-93.58","69.55","TALOYOAK A","2403855","2019-02-12 11:00","2019","02","12","11:00","-31.6","","-35.8","","67","","","","17","","22","","4.8","","101.66","","","","-46","","Ice Crystals,Fog"
"-93.58","69.55","TALOYOAK A","2403855","2019-02-12 12:00","2019","02","12","12:00","-31.0","","-35.1","","68","","","","17","","20","","1.6","","101.63","","","","-44","","Snow Grains,Fog"
"-93.58","69.55","TALOYOAK A","2403855","2019-02-12 13:00","2019","02","12","13:00","-30.1","","-34.2","","69","","","","17","","23","","2.4","","101.61","","","","-44","","Snow Grains,Fog"
"-93.58","69.55","TALOYOAK A","2403855","2019-02-12 14:00","2019","02","12","14:00","-29.3","","-33.3","","69","","","","17","","22","","2.4","","101.64","","","","-43","","Snow Grains,Fog"
"-93.58","69.55","TALOYOAK A","2403855","2019-02-12 15:00","2019","02","12","15:00","-28.7","","-32.7","","69","","","","18","","23","","1.2","","101.56","","","","-42","","Snow Grains,Fog"
"-93.58","69.55","TALOYOAK A","2403855","2019-02-12 16:00","2019","02","12","16:00","-28.4","","-32.3","","70","","","","18","","27","","1.6","","101.54","","","","-43","","Ice Crystals,Fog"
"-93.58","69.55","TALOYOAK A","2403855","2019-02-12 17:00","2019","02","12","17:00","-28.9","","-32.9","","69","","","","18","","28","","1.6","","101.52","","","","-44","","Ice Crystals,Fog"
"-93.58","69.55","TALOYOAK A","2403855","2019-02-12 18:00","2019","02","12","18:00","-28.9","","-32.8","","69","","","","18","","28","","16.1","","101.48","","","","-44","","Ice Crystals"
"-93.58","69.55","TALOYOAK A","2403855","2019-02-12 19:00","2019","02","12","19:00","-28.8","","-32.7","","70","","","","18","","26","","16.1","","101.44","","","","-43","","Ice Crystals"
"-93.58","69.55","TALOYOAK A","2403855","2019-02-12 20:00","2019","02","12","20:00","-28.8","","-32.7","","70","","","","18","","28","","16.1","","101.43","","","","-44","","Ice Crystals"
"-93.58","69.55","TALOYOAK A","2403855","2019-02-12 21:00","2019","02","12","21:00","-28.8","","-32.8","","70","","","","18","","21","","11.3","","101.39","","","","-42","","Ice Crystals"
"-93.58","69.55","TALOYOAK A","2403855","2019-02-12 22:00","2019","02","12","22:00","-29.6","","-33.6","","69","","","","18","","21","","4.0","","101.36","","","","-43","","Ice Crystals,Fog"
"-93.58","69.55","TALOYOAK A","2403855","2019-02-12 23:00","2019","02","12","23:00","-29.9","","-34.0","","69","","","","19","","22","","4.0","","101.34","","","","-44","","Ice Crystals,Fog"
"-93.58","69.55","TALOYOAK A","2403855","2019-02-13 00:00","2019","02","13","00:00","-30.2","","-34.2","","69","","","","19","","19","","4.8","","101.29","","","","-43","","Ice Crystals,Fog"
"-93.58","69.55","TALOYOAK A","2403855","2019-02-13 01:00","2019","02","13","01:00","-30.5","","-34.5","","68","","","","18","","19","","11.3","","101.28","","","","-43","","Ice Crystals"
"-93.58","69.55","TALOYOAK A","2403855","2019-02-13 02:00","2019","02","13","02:00","-31.0","","-35.1","","68","","","","17","","19","","11.3","","101.26","","","","-44","","Ice Crystals"
"-93.58","69.55","TALOYOAK A","2403855","2019-02-13 03:00","2019","02","13","03:00","-31.3","","-35.4","","68","","","","17","","21","","4.0","","101.23","","","","-45","","Ice Crystals,Fog"
"-93.58","69.55","TALOYOAK A","2403855","2019-02-13 04:00","2019","02","13","04:00","-31.7","","-35.8","","68","","","","17","","18","","4.0","","101.20","","","","-45","","Ice Crystals,Fog"
"-93.58","69.55","TALOYOAK A","2403855","2019-02-13 05:00","2019","02","13","05:00","-32.1","","-36.2","","67","","","","17","","14","","4.0","","101.16","","","","-44","","Ice Crystals,Fog"
"-93.58","69.55","TALOYOAK A","2403855","2019-02-13 06:00","2019","02","13","06:00","-32.7","","-36.9","","67","","","","16","","15","","8.1","","101.13","","","","-45","","Ice Crystals,Fog"
"-93.58","69.55","TALOYOAK A","2403855","2019-02-13 07:00","2019","02","13","07:00","-33.3","","-37.5","","67","","","","15","","14","","16.1","","101.09","","","","-45","","Ice Crystals"
"-93.58","69.55","TALOYOAK A","2403855","2019-02-13 08:00","2019","02","13","08:00","-32.6","","-36.8","","67","","","","17","","16","","16.1","","101.06","","","","-45","","Snow Grains"
"-93.58","69.55","TALOYOAK A","2403855","2019-02-13 09:00","2019","02","13","09:00","-32.2","","-36.4","","67","","","","17","","11","","16.1","","101.02","","","","-42","","Ice Crystals"
"-93.58","69.55","TALOYOAK A","2403855","2019-02-13 10:00","2019","02","13","10:00","-31.5","","-35.7","","68","","","","15","","10","","16.1","","101.01","","","","-41","","Ice Crystals"
"-93.58","69.55","TALOYOAK A","2403855","2019-02-13 11:00","2019","02","13","11:00","-32.0","","-36.2","","67","","","","35","","5","","24.1","","100.98","","","","-38","","Mostly Cloudy"
"-93.58","69.55","TALOYOAK A","2403855","2019-02-13 12:00","2019","02","13","12:00","-32.1","","-36.3","","67","","","","3","","10","","24.1","","100.97","","","","-42","","NA"
"-93.58","69.55","TALOYOAK A","2403855","2019-02-13 13:00","2019","02","13","13:00","-32.5","","-36.8","","67","","","","6","","13","","24.1","","100.94","","","","-44","","NA"
"-93.58","69.55","TALOYOAK A","2403855","2019-02-13 14:00","2019","02","13","14:00","-32.5","","-36.7","","67","","","","4","","16","","24.1","","100.93","","","","-45","","Mostly Cloudy"
"-93.58","69.55","TALOYOAK A","2403855","2019-02-13 15:00","2019","02","13","15:00","-32.5","","-36.7","","67","","","","6","","11","","24.1","","100.92","","","","-43","","NA"
"-93.58","69.55","TALOYOAK A","2403855","2019-02-13 16:00","2019","02","13","16:00","-33.2","","-37.4","","67","","","","4","","17","","16.1","","100.93","","","","-46","","NA"
"-93.58","69.55","TALOYOAK A","2403855","2019-02-13 17:00","2019","02","13","17:00","-33.6","","-37.9","","66","","","","3","","16","","24.1","","100.95","","","","-46","","Mainly Clear"
"-93.58","69.55","TALOYOAK A","2403855","2019-02-13 18:00","2019","02","13","18:00","-33.4","","-37.6","","67","","","","5","","15","","16.1","","100.91","","","","-46","","Ice Crystals"
"-93.58","69.55","TALOYOAK A","2403855","2019-02-13 19:00","2019","02","13","19:00","-32.8","","-37.0","","67","","","","8","","13","","16.1","","100.88","","","","-44","","Ice Crystals"
"-93.58","69.55","TALOYOAK A","2403855","2019-02-13 20:00","2019","02","13","20:00","-34.8","","-39.1","","66","","","","6","","9","","16.1","","100.92","","","","-44","","Ice Crystals"
"-93.58","69.55","TALOYOAK A","2403855","2019-02-13 21:00","2019","02","13","21:00","-36.1","","-40.5","","65","","","","36","","13","","16.1","","100.92","","","","-48","","Ice Crystals"
"-93.58","69.55","TALOYOAK A","2403855","2019-02-13 22:00","2019","02","13","22:00","-36.5","","-40.9","","65","","","","1","","14","","24.1","","100.94","","","","-49","","Ice Crystals"
"-93.58","69.55","TALOYOAK A","2403855","2019-02-13 23:00","2019","02","13","23:00","-35.3","","-39.7","","65","","","","3","","14","","24.1","","100.96","","","","-48","","Ice Crystals"
"-93.58","69.55","TALOYOAK A","2403855","2019-02-14 00:00","2019","02","14","00:00","-35.0","","-39.3","","66","","","","2","","7","","24.1","","100.99","","","","-43","","Ice Crystals"
"-93.58","69.55","TALOYOAK A","2403855","2019-02-14 01:00","2019","02","14","01:00","-34.1","","-38.4","","66","","","","10","","6","","24.1","","101.03","","","","-41","","Ice Crystals"
"-93.58","69.55","TALOYOAK A","2403855","2019-02-14 02:00","2019","02","14","02:00","-35.7","","-40.1","","65","","","","8","","5","","24.1","","101.07","","","","-42","","Ice Crystals"
"-93.58","69.55","TALOYOAK A","2403855","2019-02-14 03:00","2019","02","14","03:00","-35.5","","-39.8","","66","","","","7","","3","","24.1","","101.07","","","","-39","","Ice Crystals"
"-93.58","69.55","TALOYOAK A","2403855","2019-02-14 04:00","2019","02","14","04:00","-36.0","","-40.4","","65","","","","36","","2","","24.1","","101.11","","","","-39","","Ice Crystals"
"-93.58","69.55","TALOYOAK A","2403855","2019-02-14 05:00","2019","02","14","05:00","-36.0","","-40.4","","65","","","","2","","5","","24.1","","101.15","","","","-42","","Ice Crystals"
"-93.58","69.55","TALOYOAK A","2403855","2019-02-14 06:00","2019","02","14","06:00","-37.3","","-41.8","","64","","","","1","","5","","24.1","","101.18","","","","-44","","Ice Crystals"
"-93.58","69.55","TALOYOAK A","2403855","2019-02-14 07:00","2019","02","14","07:00","-36.0","","-40.4","","65","","","","36","","2","","24.1","","101.20","","","","-39","","NA"
"-93.58","69.55","TALOYOAK A","2403855","2019-02-14 08:00","2019","02","14","08:00","-36.7","","-41.1","","65","","","","36","","3","","24.1","","101.26","","","","-41","","Clear"
"-93.58","69.55","TALOYOAK A","2403855","2019-02-14 09:00","2019","02","14","09:00","-36.3","","-40.8","","65","","","","11","","3","","24.1","","101.28","","","","-40","","NA"
"-93.58","69.55","TALOYOAK A","2403855","2019-02-14 10:00","2019","02","14","10:00","-34.7","","-39.0","","66","","","","36","","1","","24.1","","101.31","","","","-36","","NA"
"-93.58","69.55","TALOYOAK A","2403855","2019-02-14 11:00","2019","02","14","11:00","-35.4","","-39.9","","65","","","","36","","3","","24.1","","101.34","","","","-39","","Clear"
"-93.58","69.55","TALOYOAK A","2403855","2019-02-14 12:00","2019","02","14","12:00","-34.8","","-39.2","","65","","","","36","","2","","24.1","","101.39","","","","-37","","NA"
"-93.58","69.55","TALOYOAK A","2403855","2019-02-14 13:00","2019","02","14","13:00","-35.7","","-40.1","","65","","","","36","","1","","24.1","","101.43","","","","-37","","NA"
"-93.58","69.55","TALOYOAK A","2403855","2019-02-14 14:00","2019","02","14","14:00","-35.2","","-39.6","","65","","","","36","","1","","24.1","","101.46","","","","-36","","Mainly Clear"
"-93.58","69.55","TALOYOAK A","2403855","2019-02-14 15:00","2019","02","14","15:00","-34.2","","-38.5","","66","","","","28","","4","","19.3","","101.49","","","","-39","","Ice Crystals"
"-93.58","69.55","TALOYOAK A","2403855","2019-02-14 16:00","2019","02","14","16:00","-33.9","","-38.2","","66","","","","16","","4","","19.3","","101.53","","","","-39","","Ice Crystals"
"-93.58","69.55","TALOYOAK A","2403855","2019-02-14 17:00","2019","02","14","17:00","-32.7","","-37.0","","67","","","","19","","8","","16.1","","101.54","","","","-41","","Ice Crystals"
"-93.58","69.55","TALOYOAK A","2403855","2019-02-14 18:00","2019","02","14","18:00","-31.9","","-36.1","","67","","","","17","","8","","16.1","","101.55","","","","-40","","Ice Crystals"
"-93.58","69.55","TALOYOAK A","2403855","2019-02-14 19:00","2019","02","14","19:00","-31.4","","-35.6","","68","","","","19","","7","","12.9","","101.58","","","","-39","","Snow"
"-93.58","69.55","TALOYOAK A","2403855","2019-02-14 20:00","2019","02","14","20:00","-31.1","","-35.2","","68","","","","16","","5","","12.9","","101.59","","","","-37","","Snow"
"-93.58","69.55","TALOYOAK A","2403855","2019-02-14 21:00","2019","02","14","21:00","-30.6","","-34.7","","68","","","","18","","5","","11.3","","101.61","","","","-36","","Snow"
"-93.58","69.55","TALOYOAK A","2403855","2019-02-14 22:00","2019","02","14","22:00","-30.3","","-34.4","","68","","","","26","","8","","9.7","","101.62","","","","-38","","Snow"
"-93.58","69.55","TALOYOAK A","2403855","2019-02-14 23:00","2019","02","14","23:00","-29.7","","-33.7","","69","","","","25","","12","","9.7","","101.62","","","","-40","","Snow"
"-93.58","69.55","TALOYOAK A","2403855","2019-02-15 00:00","2019","02","15","00:00","-29.4","","-33.5","","69","","","","23","","4","","11.3","","101.64","","","","-34","","Snow"
"-93.58","69.55","TALOYOAK A","2403855","2019-02-15 01:00","2019","02","15","01:00","-29.0","","-33.0","","69","","","","27","","5","","11.3","","101.66","","","","-34","","Ice Crystals"
"-93.58","69.55","TALOYOAK A","2403855","2019-02-15 02:00","2019","02","15","02:00","-30.7","","-34.8","","68","","","","34","","9","","11.3","","101.70","","","","-39","","Ice Crystals"
"-93.58","69.55","TALOYOAK A","2403855","2019-02-15 03:00","2019","02","15","03:00","-32.6","","-36.8","","67","","","","3","","7","","16.1","","101.73","","","","-40","","Ice Crystals"
"-93.58","69.55","TALOYOAK A","2403855","2019-02-15 04:00","2019","02","15","04:00","-31.8","","-35.9","","68","","","","36","","10","","11.3","","101.76","","","","-41","","Snow"
"-93.58","69.55","TALOYOAK A","2403855","2019-02-15 05:00","2019","02","15","05:00","-31.4","","-35.6","","68","","","","2","","8","","11.3","","101.79","","","","-40","","Snow"
"-93.58","69.55","TALOYOAK A","2403855","2019-02-15 06:00","2019","02","15","06:00","-30.8","","-34.9","","68","","","","1","","11","","9.7","","101.82","","","","-41","","Snow"
"-93.58","69.55","TALOYOAK A","2403855","2019-02-15 07:00","2019","02","15","07:00","-30.4","","-34.4","","68","","","","1","","9","","16.1","","101.85","","","","-39","","Snow"
"-93.58","69.55","TALOYOAK A","2403855","2019-02-15 08:00","2019","02","15","08:00","-29.8","","-33.8","","69","","","","2","","4","","16.1","","101.86","","","","-34","","Snow"
"-93.58","69.55","TALOYOAK A","2403855","2019-02-15 09:00","2019","02","15","09:00","-29.2","","-33.2","","69","","","","2","","4","","19.3","","101.90","","","","-34","","Snow"
"-93.58","69.55","TALOYOAK A","2403855","2019-02-15 10:00","2019","02","15","10:00","-28.6","","-32.6","","70","","","","2","","4","","24.1","","101.93","","","","-33","","Snow"
"-93.58","69.55","TALOYOAK A","2403855","2019-02-15 11:00","2019","02","15","11:00","-28.2","","-32.1","","70","","","","17","","5","","24.1","","101.92","","","","-34","","Snow"
"-93.58","69.55","TALOYOAK A","2403855","2019-02-15 12:00","2019","02","15","12:00","-27.5","","-31.3","","70","","","","18","","7","","24.1","","101.94","","","","-34","","Snow"
"-93.58","69.55","TALOYOAK A","2403855","2019-02-15 13:00","2019","02","15","13:00","-27.0","","-30.9","","71","","","","18","","8","","16.1","","101.98","","","","-34","","Snow"
"-93.58","69.55","TALOYOAK A","2403855","2019-02-15 14:00","2019","02","15","14:00","-26.8","","-30.6","","71","","","","16","","9","","24.1","","102.00","","","","-35","","Snow"
"-93.58","69.55","TALOYOAK A","2403855","2019-02-15 15:00","2019","02","15","15:00","-26.8","","-30.6","","71","","","","15","","5","","24.1","","102.04","","","","-32","","Snow"
"-93.58","69.55","TALOYOAK A","2403855","2019-02-15 16:00","2019","02","15","16:00","-27.0","","-30.8","","71","","","","9","","4","","24.1","","102.05","","","","-31","","Snow"
"-93.58","69.55","TALOYOAK A","2403855","2019-02-15 17:00","2019","02","15","17:00","-27.6","","-31.5","","70","","","","1","","4","","24.1","","102.08","","","","-32","","Snow"
"-93.58","69.55","TALOYOAK A","2403855","2019-02-15 18:00","2019","02","15","18:00","-30.1","","-34.1","","69","","","","2","","15","","24.1","","102.11","","","","-42","","Snow"
"-93.58","69.55","TALOYOAK A","2403855","2019-02-15 19:00","2019","02","15","19:00","-31.0","","-35.0","","68","","","","3","","14","","24.1","","102.15","","","","-42","","Ice Crystals"
"-93.58","69.55","TALOYOAK A","2403855","2019-02-15 20:00","2019","02","15","20:00","-33.2","","-37.4","","67","","","","36","","13","","24.1","","102.16","","","","-44","","Ice Crystals"
"-93.58","69.55","TALOYOAK A","2403855","2019-02-15 21:00","2019","02","15","21:00","-32.5","","-36.7","","67","","","","36","","13","","24.1","","102.19","","","","-44","","NA"
"-93.58","69.55","TALOYOAK A","2403855","2019-02-15 22:00","2019","02","15","22:00","-32.2","","-36.4","","68","","","","35","","10","","24.1","","102.21","","","","-42","","NA"
"-93.58","69.55","TALOYOAK A","2403855","2019-02-15 23:00","2019","02","15","23:00","-30.5","","-34.5","","69","","","","34","","9","","24.1","","102.23","","","","-39","","Mainly Clear"
"-93.58","69.55","TALOYOAK A","2403855","2019-02-16 00:00","2019","02","16","00:00","-31.3","","-35.4","","68","","","","26","","3","","24.1","","102.28","","","","-35","","NA"
"-93.58","69.55","TALOYOAK A","2403855","2019-02-16 01:00","2019","02","16","01:00","-31.9","","-36.0","","68","","","","13","","4","","24.1","","102.29","","","","-37","","NA"
"-93.58","69.55","TALOYOAK A","2403855","2019-02-16 02:00","2019","02","16","02:00","-31.5","","-35.5","","68","","","","36","","2","","24.1","","102.31","","","","-34","","Mainly Clear"
"-93.58","69.55","TALOYOAK A","2403855","2019-02-16 03:00","2019","02","16","03:00","-32.6","","-36.7","","67","","","","36","","1","","24.1","","102.34","","","","-34","","Ice Crystals"
"-93.58","69.55","TALOYOAK A","2403855","2019-02-16 04:00","2019","02","16","04:00","-33.4","","-37.6","","67","","","","25","","4","","24.1","","102.34","","","","-38","","Ice Crystals"
"-93.58","69.55","TALOYOAK A","2403855","2019-02-16 05:00","2019","02","16","05:00","-32.9","","-37.0","","67","","","","13","","4","","24.1","","102.37","","","","-38","","Mainly Clear"
"-93.58","69.55","TALOYOAK A","2403855","2019-02-16 06:00","2019","02","16","06:00","-34.6","","-38.9","","66","","","","15","","5","","24.1","","102.38","","","","-41","","NA"
"-93.58","69.55","TALOYOAK A","2403855","2019-02-16 07:00","2019","02","16","07:00","-35.1","","-39.4","","66","","","","15","","4","","24.1","","102.40","","","","-40","","NA"
"-93.58","69.55","TALOYOAK A","2403855","2019-02-16 08:00","2019","02","16","08:00","-32.8","","-36.9","","68","","","","18","","5","","24.1","","102.44","","","","-39","","Mainly Clear"
"-93.58","69.55","TALOYOAK A","2403855","2019-02-16 09:00","2019","02","16","09:00","-33.2","","-37.5","","67","","","","34","","4","","24.1","","102.48","","","","-38","","NA"
"-93.58","69.55","TALOYOAK A","2403855","2019-02-16 10:00","2019","02","16","10:00","-33.0","","-37.2","","67","","","","18","","4","","24.1","","102.48","","","","-38","","NA"
"-93.58","69.55","TALOYOAK A","2403855","2019-02-16 11:00","2019","02","16","11:00","-34.2","","-38.6","","66","","","","18","","4","","24.1","","102.52","","","","-39","","Mainly Clear"
"-93.58","69.55","TALOYOAK A","2403855","2019-02-16 12:00","2019","02","16","12:00","-34.6","","-39.0","","65","","","","23","","5","","24.1","","102.54","","","","-41","","NA"
"-93.58","69.55","TALOYOAK A","2403855","2019-02-16 13:00","2019","02","16","13:00","-35.0","","-39.4","","65","","","","17","","5","","24.1","","102.53","","","","-41","","NA"
"-93.58","69.55","TALOYOAK A","2403855","2019-02-16 14:00","2019","02","16","14:00","-34.9","","-39.3","","65","","","","19","","8","","24.1","","102.58","","","","-44","","Mainly Clear"
"-93.58","69.55","TALOYOAK A","2403855","2019-02-16 15:00","2019","02","16","15:00","-35.8","","-40.2","","65","","","","21","","8","","24.1","","102.61","","","","-45","","NA"
"-93.58","69.55","TALOYOAK A","2403855","2019-02-16 16:00","2019","02","16","16:00","-36.2","","-40.6","","65","","","","20","","5","","24.1","","102.66","","","","-43","","NA"
"-93.58","69.55","TALOYOAK A","2403855","2019-02-16 17:00","2019","02","16","17:00","-36.6","","-41.0","","65","","","","19","","5","","24.1","","102.67","","","","-43","","Clear"
"-93.58","69.55","TALOYOAK A","2403855","2019-02-16 18:00","2019","02","16","18:00","-37.1","","-41.6","","64","","","","20","","5","","24.1","","102.70","","","","-44","","NA"
"-93.58","69.55","TALOYOAK A","2403855","2019-02-16 19:00","2019","02","16","19:00","-37.0","","-41.5","","64","","","","16","","7","","24.1","","102.71","","","","-45","","Ice Crystals"
"-93.58","69.55","TALOYOAK A","2403855","2019-02-16 20:00","2019","02","16","20:00","-37.0","","-41.4","","64","","","","25","","4","","24.1","","102.71","","","","-42","","Ice Crystals"
"-93.58","69.55","TALOYOAK A","2403855","2019-02-16 21:00","2019","02","16","21:00","-37.9","","-42.4","","64","","","","29","","5","","24.1","","102.71","","","","-45","","Ice Crystals"
"-93.58","69.55","TALOYOAK A","2403855","2019-02-16 22:00","2019","02","16","22:00","-37.5","","-42.0","","64","","","","17","","5","","24.1","","102.69","","","","-44","","Ice Crystals"
"-93.58","69.55","TALOYOAK A","2403855","2019-02-16 23:00","2019","02","16","23:00","-37.4","","-41.9","","64","","","","16","","4","","24.1","","102.70","","","","-43","","Ice Crystals"
"-93.58","69.55","TALOYOAK A","2403855","2019-02-17 00:00","2019","02","17","00:00","-37.9","","-42.3","","64","","","","16","","6","","24.1","","102.73","","","","-46","","Ice Crystals"
"-93.58","69.55","TALOYOAK A","2403855","2019-02-17 01:00","2019","02","17","01:00","-38.0","","-42.5","","64","","","","17","","4","","24.1","","102.73","","","","-43","","Ice Crystals"
"-93.58","69.55","TALOYOAK A","2403855","2019-02-17 02:00","2019","02","17","02:00","-37.8","","-42.3","","64","","","","21","","5","","24.1","","102.71","","","","-44","","Ice Crystals"
"-93.58","69.55","TALOYOAK A","2403855","2019-02-17 03:00","2019","02","17","03:00","-37.9","","-42.4","","64","","","","18","","5","","24.1","","102.74","","","","-45","","Ice Crystals"
"-93.58","69.55","TALOYOAK A","2403855","2019-02-17 04:00","2019","02","17","04:00","-38.2","","-42.8","","64","","","","25","","5","","24.1","","102.74","","","","-45","","Ice Crystals"
"-93.58","69.55","TALOYOAK A","2403855","2019-02-17 05:00","2019","02","17","05:00","-38.5","","-43.0","","64","","","","13","","4","","24.1","","102.73","","","","-44","","Ice Crystals"
"-93.58","69.55","TALOYOAK A","2403855","2019-02-17 06:00","2019","02","17","06:00","-38.8","","-43.4","","63","","","","19","","7","","24.1","","102.72","","","","-48","","Ice Crystals"
"-93.58","69.55","TALOYOAK A","2403855","2019-02-17 07:00","2019","02","17","07:00","-38.8","","-43.4","","63","","","","18","","6","","24.1","","102.70","","","","-47","","Ice Crystals"
"-93.58","69.55","TALOYOAK A","2403855","2019-02-17 08:00","2019","02","17","08:00","-38.9","","-43.5","","63","","","","21","","5","","24.1","","102.69","","","","-46","","Ice Crystals"
"-93.58","69.55","TALOYOAK A","2403855","2019-02-17 09:00","2019","02","17","09:00","-39.0","","-43.5","","63","","","","21","","7","","24.1","","102.66","","","","-48","","Ice Crystals"
"-93.58","69.55","TALOYOAK A","2403855","2019-02-17 10:00","2019","02","17","10:00","-38.7","","-43.3","","63","","","","21","","6","","24.1","","102.64","","","","-47","","Ice Crystals"
"-93.58","69.55","TALOYOAK A","2403855","2019-02-17 11:00","2019","02","17","11:00","-38.6","","-43.1","","63","","","","19","","10","","24.1","","102.63","","","","-49","","Ice Crystals"
"-93.58","69.55","TALOYOAK A","2403855","2019-02-17 12:00","2019","02","17","12:00","-38.0","","-42.5","","63","","","","20","","9","","24.1","","102.55","","","","-48","","NA"
"-93.58","69.55","TALOYOAK A","2403855","2019-02-17 13:00","2019","02","17","13:00","-37.7","","-42.3","","63","","","","17","","8","","24.1","","102.54","","","","-47","","NA"
"-93.58","69.55","TALOYOAK A","2403855","2019-02-17 14:00","2019","02","17","14:00","-38.2","","-42.8","","63","","","","19","","11","","24.1","","102.52","","","","-50","","Clear"
"-93.58","69.55","TALOYOAK A","2403855","2019-02-17 15:00","2019","02","17","15:00","-38.9","","-43.5","","63","","","","18","","13","","24.1","","102.49","","","","-51","","NA"
"-93.58","69.55","TALOYOAK A","2403855","2019-02-17 16:00","2019","02","17","16:00","-39.3","","-43.9","","63","","","","17","","12","","24.1","","102.47","","","","-51","","NA"
"-93.58","69.55","TALOYOAK A","2403855","2019-02-17 17:00","2019","02","17","17:00","-39.6","","-44.2","","63","","","","17","","8","","24.1","","102.41","","","","-49","","Clear"
"-93.58","69.55","TALOYOAK A","2403855","2019-02-17 18:00","2019","02","17","18:00","-39.0","","-43.6","","63","","","","19","","8","","24.1","","102.38","","","","-49","","NA"
"-93.58","69.55","TALOYOAK A","2403855","2019-02-17 19:00","2019","02","17","19:00","-40.8","","-45.4","","62","","","","20","","10","","24.1","","102.34","","","","-52","","Ice Crystals"
"-93.58","69.55","TALOYOAK A","2403855","2019-02-17 20:00","2019","02","17","20:00","-40.3","","-45.0","","62","","","","18","","9","","24.1","","102.28","","","","-51","","Ice Crystals"
"-93.58","69.55","TALOYOAK A","2403855","2019-02-17 21:00","2019","02","17","21:00","-40.3","","-44.9","","62","","","","17","","7","","24.1","","102.22","","","","-49","","Ice Crystals"
"-93.58","69.55","TALOYOAK A","2403855","2019-02-17 22:00","2019","02","17","22:00","-40.5","","-45.1","","62","","","","19","","9","","24.1","","102.16","","","","-51","","Ice Crystals"
"-93.58","69.55","TALOYOAK A","2403855","2019-02-17 23:00","2019","02","17","23:00","-40.8","","-45.5","","62","","","","19","","10","","24.1","","102.11","","","","-52","","Ice Crystals"
"-93.58","69.55","TALOYOAK A","2403855","2019-02-18 00:00","2019","02","18","00:00","-41.0","","-45.7","","62","","","","18","","12","","24.1","","102.03","","","","-53","","Ice Crystals"
"-93.58","69.55","TALOYOAK A","2403855","2019-02-18 01:00","2019","02","18","01:00","-40.3","","-44.9","","62","","","","16","","14","","24.1","","101.96","","","","-54","","Ice Crystals"
"-93.58","69.55","TALOYOAK A","2403855","2019-02-18 02:00","2019","02","18","02:00","-40.9","","-45.5","","62","","","","18","","13","","24.1","","101.92","","","","-54","","Ice Crystals"
"-93.58","69.55","TALOYOAK A","2403855","2019-02-18 03:00","2019","02","18","03:00","-41.0","","-45.6","","62","","","","17","","16","","24.1","","101.84","","","","-55","","Ice Crystals"
"-93.58","69.55","TALOYOAK A","2403855","2019-02-18 04:00","2019","02","18","04:00","-40.6","","-45.3","","62","","","","17","","16","","24.1","","101.79","","","","-55","","Ice Crystals"
"-93.58","69.55","TALOYOAK A","2403855","2019-02-18 05:00","2019","02","18","05:00","-40.7","","-45.4","","62","","","","17","","17","","24.1","","101.75","","","","-55","","Ice Crystals"
"-93.58","69.55","TALOYOAK A","2403855","2019-02-18 06:00","2019","02","18","06:00","-41.0","","-45.7","","62","","","","17","","12","","24.1","","101.66","","","","-53","","Ice Crystals"
"-93.58","69.55","TALOYOAK A","2403855","2019-02-18 07:00","2019","02","18","07:00","-41.1","","-45.7","","62","","","","17","","12","","24.1","","101.60","","","","-54","","Ice Crystals"
"-93.58","69.55","TALOYOAK A","2403855","2019-02-18 08:00","2019","02","18","08:00","-41.3","","-46.0","","62","","","","17","","12","","24.1","","101.55","","","","-54","","Ice Crystals"
"-93.58","69.55","TALOYOAK A","2403855","2019-02-18 09:00","2019","02","18","09:00","-40.6","","-45.3","","62","","","","16","","9","","24.1","","101.51","","","","-51","","Ice Crystals"
"-93.58","69.55","TALOYOAK A","2403855","2019-02-18 10:00","2019","02","18","10:00","-40.1","","-44.8","","62","","","","18","","16","","24.1","","101.48","","","","-54","","Ice Crystals"
"-93.58","69.55","TALOYOAK A","2403855","2019-02-18 11:00","2019","02","18","11:00","-40.0","","-44.7","","62","","","","16","","13","","24.1","","101.43","","","","-53","","Clear"
"-93.58","69.55","TALOYOAK A","2403855","2019-02-18 12:00","2019","02","18","12:00","-39.4","","-44.1","","62","","","","17","","15","","24.1","","101.37","","","","-53","","NA"
"-93.58","69.55","TALOYOAK A","2403855","2019-02-18 13:00","2019","02","18","13:00","-39.5","","-44.2","","62","","","","17","","14","","16.1","","101.34","","","","-53","","Ice Crystals"
"-93.58","69.55","TALOYOAK A","2403855","2019-02-18 14:00","2019","02","18","14:00","-40.0","","-44.7","","62","","","","18","","17","","16.1","","101.30","","","","-55","","Ice Crystals"
"-93.58","69.55","TALOYOAK A","2403855","2019-02-18 15:00","2019","02","18","15:00","-40.0","","-44.6","","62","","","","17","","16","","16.1","","101.27","","","","-54","","Ice Crystals"
"-93.58","69.55","TALOYOAK A","2403855","2019-02-18 16:00","2019","02","18","16:00","-39.9","","-44.6","","62","","","","17","","15","","24.1","","101.24","","","","-54","","Ice Crystals"
"-93.58","69.55","TALOYOAK A","2403855","2019-02-18 17:00","2019","02","18","17:00","-40.1","","-44.8","","62","","","","16","","14","","24.1","","101.16","","","","-53","","Ice Crystals"
"-93.58","69.55","TALOYOAK A","2403855","2019-02-18 18:00","2019","02","18","18:00","-39.8","","-44.5","","62","","","","16","","16","","24.1","","101.12","","","","-54","","Ice Crystals"
"-93.58","69.55","TALOYOAK A","2403855","2019-02-18 19:00","2019","02","18","19:00","-39.8","","-44.4","","62","","","","17","","18","","24.1","","101.08","","","","-55","","Ice Crystals"
"-93.58","69.55","TALOYOAK A","2403855","2019-02-18 20:00","2019","02","18","20:00","-39.9","","-44.6","","62","","","","16","","18","","24.1","","101.03","","","","-55","","Ice Crystals"
"-93.58","69.55","TALOYOAK A","2403855","2019-02-18 21:00","2019","02","18","21:00","-39.7","","-44.3","","62","","","","16","","14","","24.1","","100.97","","","","-53","","Ice Crystals"
"-93.58","69.55","TALOYOAK A","2403855","2019-02-18 22:00","2019","02","18","22:00","-39.3","","-43.9","","63","","","","17","","12","","24.1","","100.94","","","","-51","","Ice Crystals"
"-93.58","69.55","TALOYOAK A","2403855","2019-02-18 23:00","2019","02","18","23:00","-39.9","","-44.5","","62","","","","17","","11","","24.1","","100.92","","","","-52","","Ice Crystals"
"-93.58","69.55","TALOYOAK A","2403855","2019-02-19 00:00","2019","02","19","00:00","-39.9","","-44.6","","62","","","","16","","8","","24.1","","100.89","","","","-50","","Ice Crystals"
"-93.58","69.55","TALOYOAK A","2403855","2019-02-19 01:00","2019","02","19","01:00","-39.9","","-44.6","","62","","","","17","","15","","24.1","","100.83","","","","-54","","Ice Crystals"
"-93.58","69.55","TALOYOAK A","2403855","2019-02-19 02:00","2019","02","19","02:00","-39.9","","-44.5","","62","","","","17","","17","","24.1","","100.82","","","","-54","","Ice Crystals"
"-93.58","69.55","TALOYOAK A","2403855","2019-02-19 03:00","2019","02","19","03:00","-39.6","","-44.2","","63","","","","16","","17","","24.1","","100.79","","","","-54","","Ice Crystals"
"-93.58","69.55","TALOYOAK A","2403855","2019-02-19 04:00","2019","02","19","04:00","-39.4","","-44.0","","63","","","","17","","16","","24.1","","100.77","","","","-53","","Ice Crystals"
"-93.58","69.55","TALOYOAK A","2403855","2019-02-19 05:00","2019","02","19","05:00","-39.5","","-44.1","","63","","","","15","","16","","24.1","","100.76","","","","-54","","Ice Crystals"
"-93.58","69.55","TALOYOAK A","2403855","2019-02-19 06:00","2019","02","19","06:00","-39.1","","-43.8","","63","","","","16","","14","","16.1","","100.72","","","","-52","","Ice Crystals"
"-93.58","69.55","TALOYOAK A","2403855","2019-02-19 07:00","2019","02","19","07:00","-39.2","","-43.8","","63","","","","17","","11","","24.1","","100.73","","","","-51","","Ice Crystals"
"-93.58","69.55","TALOYOAK A","2403855","2019-02-19 08:00","2019","02","19","08:00","-39.6","","-44.2","","62","","","","18","","11","","24.1","","100.70","","","","-51","","Ice Crystals"
"-93.58","69.55","TALOYOAK A","2403855","2019-02-19 09:00","2019","02","19","09:00","-38.2","","-42.8","","63","","","","16","","12","","24.1","","100.70","","","","-50","","Ice Crystals"
"-93.58","69.55","TALOYOAK A","2403855","2019-02-19 10:00","2019","02","19","10:00","-36.9","","-41.4","","64","","","","17","","12","","24.1","","100.68","","","","-49","","Ice Crystals"
"-93.58","69.55","TALOYOAK A","2403855","2019-02-19 11:00","2019","02","19","11:00","-36.4","","-41.0","","64","","","","16","","13","","24.1","","100.67","","","","-48","","Ice Crystals"
"-93.58","69.55","TALOYOAK A","2403855","2019-02-19 12:00","2019","02","19","12:00","-35.6","","-40.2","","64","","","","17","","10","","24.1","","100.70","","","","-46","","Ice Crystals"
"-93.58","69.55","TALOYOAK A","2403855","2019-02-19 13:00","2019","02","19","13:00","-35.5","","-40.0","","64","","","","17","","10","","24.1","","100.70","","","","-46","","Ice Crystals"
"-93.58","69.55","TALOYOAK A","2403855","2019-02-19 14:00","2019","02","19","14:00","-35.2","","-39.7","","65","","","","17","","9","","24.1","","100.71","","","","-45","","Ice Crystals"
"-93.58","69.55","TALOYOAK A","2403855","2019-02-19 15:00","2019","02","19","15:00","-35.0","","-39.5","","65","","","","17","","5","","24.1","","100.73","","","","-41","","Ice Crystals"
"-93.58","69.55","TALOYOAK A","2403855","2019-02-19 16:00","2019","02","19","16:00","-31.7","","-35.9","","67","","","","29","","10","","24.1","","100.72","","","","-41","","Ice Crystals"
"-93.58","69.55","TALOYOAK A","2403855","2019-02-19 17:00","2019","02","19","17:00","-29.6","","-33.6","","68","","","","33","","26","","24.1","","100.73","","","","-44","","Ice Crystals"
"-93.58","69.55","TALOYOAK A","2403855","2019-02-19 18:00","2019","02","19","18:00","-29.2","","-33.3","","69","","","","32","","32","","24.1","","100.71","","","","-45","","Ice Crystals"
"-93.58","69.55","TALOYOAK A","2403855","2019-02-19 19:00","2019","02","19","19:00","-28.3","","-32.3","","69","","","","32","","35","","24.1","","100.71","","","","-44","","Ice Crystals"
"-93.58","69.55","TALOYOAK A","2403855","2019-02-19 20:00","2019","02","19","20:00","-27.8","","-31.7","","70","","","","31","","34","","24.1","","100.72","","","","-44","","Ice Crystals"
"-93.58","69.55","TALOYOAK A","2403855","2019-02-19 21:00","2019","02","19","21:00","-27.8","","-31.7","","70","","","","31","","27","","24.1","","100.74","","","","-42","","Ice Crystals"
"-93.58","69.55","TALOYOAK A","2403855","2019-02-19 22:00","2019","02","19","22:00","-28.3","","-32.2","","70","","","","31","","31","","24.1","","100.75","","","","-44","","Ice Crystals"
"-93.58","69.55","TALOYOAK A","2403855","2019-02-19 23:00","2019","02","19","23:00","-28.9","","-32.9","","69","","","","32","","22","","24.1","","100.81","","","","-42","","Ice Crystals,Blowing Snow"
"-93.58","69.55","TALOYOAK A","2403855","2019-02-20 00:00","2019","02","20","00:00","-28.1","","-32.0","","70","","","","33","","21","","24.1","","100.82","","","","-41","","Ice Crystals,Blowing Snow"
"-93.58","69.55","TALOYOAK A","2403855","2019-02-20 01:00","2019","02","20","01:00","-28.0","","-31.9","","70","","","","31","","34","","24.1","","100.80","","","","-44","","Ice Crystals,Blowing Snow"
"-93.58","69.55","TALOYOAK A","2403855","2019-02-20 02:00","2019","02","20","02:00","-28.3","","-32.2","","70","","","","31","","28","","24.1","","100.83","","","","-43","","Ice Crystals,Blowing Snow"
"-93.58","69.55","TALOYOAK A","2403855","2019-02-20 03:00","2019","02","20","03:00","-27.7","","-31.6","","70","","","","31","","22","","24.1","","100.88","","","","-41","","Ice Crystals,Blowing Snow"
"-93.58","69.55","TALOYOAK A","2403855","2019-02-20 04:00","2019","02","20","04:00","-28.8","","-32.7","","69","","","","31","","38","","24.1","","100.83","","","","-46","","Ice Crystals,Blowing Snow"
"-93.58","69.55","TALOYOAK A","2403855","2019-02-20 05:00","2019","02","20","05:00","-27.7","","-31.6","","70","","","","34","","26","","24.1","","100.88","","","","-42","","Ice Crystals,Blowing Snow"
"-93.58","69.55","TALOYOAK A","2403855","2019-02-20 06:00","2019","02","20","06:00","-26.8","","-30.5","","71","","","","32","","34","","24.1","","100.88","","","","-42","","Ice Crystals,Blowing Snow"
"-93.58","69.55","TALOYOAK A","2403855","2019-02-20 07:00","2019","02","20","07:00","-27.4","","-31.2","","70","","","","32","","26","","24.1","","100.92","","","","-41","","Ice Crystals,Blowing Snow"
"-93.58","69.55","TALOYOAK A","2403855","2019-02-20 08:00","2019","02","20","08:00","-25.9","","-29.6","","72","","","","32","","34","","24.1","","100.90","","","","-41","","Ice Crystals,Blowing Snow"
"-93.58","69.55","TALOYOAK A","2403855","2019-02-20 09:00","2019","02","20","09:00","-25.7","","-29.4","","72","","","","32","","35","","24.1","","100.93","","","","-41","","Ice Crystals,Blowing Snow"
"-93.58","69.55","TALOYOAK A","2403855","2019-02-20 10:00","2019","02","20","10:00","-23.3","","-26.8","","74","","","","31","","39","","24.1","","100.86","","","","-38","","Ice Crystals,Blowing Snow"
"-93.58","69.55","TALOYOAK A","2403855","2019-02-20 11:00","2019","02","20","11:00","-24.1","","-27.7","","73","","","","34","","33","","8.1","","100.98","","","","-38","","Blowing Snow"
"-93.58","69.55","TALOYOAK A","2403855","2019-02-20 12:00","2019","02","20","12:00","-24.4","","-28.1","","73","","","","33","","24","","24.1","","101.05","","","","-37","","Ice Crystals,Blowing Snow"
"-93.58","69.55","TALOYOAK A","2403855","2019-02-20 13:00","2019","02","20","13:00","-24.6","","-28.2","","73","","","","32","","23","","16.1","","101.08","","","","-37","","Snow,Blowing Snow"
"-93.58","69.55","TALOYOAK A","2403855","2019-02-20 14:00","2019","02","20","14:00","-25.4","","-29.1","","72","","","","30","","13","","24.1","","101.10","","","","-35","","Ice Crystals"
"-93.58","69.55","TALOYOAK A","2403855","2019-02-20 15:00","2019","02","20","15:00","-25.7","","-29.3","","72","","","","32","","34","","24.1","","101.05","","","","-41","","Ice Crystals,Blowing Snow"
"-93.58","69.55","TALOYOAK A","2403855","2019-02-20 16:00","2019","02","20","16:00","-26.6","","-30.3","","71","","","","31","","40","","9.7","","101.02","","","","-43","","Ice Crystals,Blowing Snow"
"-93.58","69.55","TALOYOAK A","2403855","2019-02-20 17:00","2019","02","20","17:00","-24.8","","-28.4","","73","","","","31","","40","","9.7","","101.03","","","","-41","","Snow,Blowing Snow"
"-93.58","69.55","TALOYOAK A","2403855","2019-02-20 18:00","2019","02","20","18:00","-25.0","","-28.6","","72","","","","32","","37","","9.7","","101.07","","","","-40","","Snow,Blowing Snow"
"-93.58","69.55","TALOYOAK A","2403855","2019-02-20 19:00","2019","02","20","19:00","-24.1","","-27.6","","73","","","","31","","42","","4.8","","101.00","","","","-40","","Ice Crystals,Blowing Snow"
"-93.58","69.55","TALOYOAK A","2403855","2019-02-20 20:00","2019","02","20","20:00","-23.2","","-26.6","","74","","","","31","","40","","4.0","","100.97","","","","-38","","Ice Crystals,Blowing Snow"
"-93.58","69.55","TALOYOAK A","2403855","2019-02-20 21:00","2019","02","20","21:00","-24.0","","-27.6","","73","","","","30","","40","","16.1","","100.94","","","","-39","","Ice Crystals,Blowing Snow"
"-93.58","69.55","TALOYOAK A","2403855","2019-02-20 22:00","2019","02","20","22:00","-23.5","","-27.0","","74","","","","31","","30","","24.1","","100.97","","","","-37","","Ice Crystals,Blowing Snow"
"-93.58","69.55","TALOYOAK A","2403855","2019-02-20 23:00","2019","02","20","23:00","-22.5","","-25.8","","75","","","","31","","41","","8.1","","100.93","","","","-38","","Ice Crystals,Blowing Snow"
"-93.58","69.55","TALOYOAK A","2403855","2019-02-21 00:00","2019","02","21","00:00","-22.7","","-26.1","","75","","","","28","","19","","8.1","","100.99","","","","-34","","Snow,Blowing Snow"
"-93.58","69.55","TALOYOAK A","2403855","2019-02-21 01:00","2019","02","21","01:00","-24.3","","-27.9","","73","","","","10","","7","","9.7","","101.00","","","","-31","","Snow"
"-93.58","69.55","TALOYOAK A","2403855","2019-02-21 02:00","2019","02","21","02:00","-25.9","","-29.6","","72","","","","16","","18","","12.9","","100.96","","","","-37","","Snow"
"-93.58","69.55","TALOYOAK A","2403855","2019-02-21 03:00","2019","02","21","03:00","-24.6","","-28.2","","73","","","","17","","5","","16.1","","100.93","","","","-29","","Snow"
"-93.58","69.55","TALOYOAK A","2403855","2019-02-21 04:00","2019","02","21","04:00","-24.7","","-28.3","","72","","","","12","","5","","16.1","","100.91","","","","-30","","Snow"
"-93.58","69.55","TALOYOAK A","2403855","2019-02-21 05:00","2019","02","21","05:00","-24.1","","-27.6","","73","","","","13","","9","","24.1","","100.88","","","","-32","","Snow"
"-93.58","69.55","TALOYOAK A","2403855","2019-02-21 06:00","2019","02","21","06:00","-23.8","","-27.2","","74","","","","21","","7","","8.1","","100.83","","","","-30","","Snow,Fog"
"-93.58","69.55","TALOYOAK A","2403855","2019-02-21 07:00","2019","02","21","07:00","-23.9","","-27.4","","74","","","","22","","5","","3.2","","100.79","","","","-29","","Snow,Fog"
"-93.58","69.55","TALOYOAK A","2403855","2019-02-21 08:00","2019","02","21","08:00","-25.1","","-28.7","","73","","","","15","","10","","3.2","","100.73","","","","-33","","Snow,Snow Grains,Fog"
"-93.58","69.55","TALOYOAK A","2403855","2019-02-21 09:00","2019","02","21","09:00","-26.0","","-29.6","","72","","","","14","","12","","4.0","","100.71","","","","-35","","Snow,Fog"
"-93.58","69.55","TALOYOAK A","2403855","2019-02-21 10:00","2019","02","21","10:00","-24.9","","-28.4","","73","","","","17","","9","","4.0","","100.67","","","","-33","","Snow,Fog"
"-93.58","69.55","TALOYOAK A","2403855","2019-02-21 11:00","2019","02","21","11:00","-24.4","","-28.0","","73","","","","17","","8","","4.8","","100.64","","","","-31","","Snow,Fog"
"-93.58","69.55","TALOYOAK A","2403855","2019-02-21 12:00","2019","02","21","12:00","-24.8","","-28.4","","73","","","","18","","10","","11.3","","100.60","","","","-33","","Snow"
"-93.58","69.55","TALOYOAK A","2403855","2019-02-21 13:00","2019","02","21","13:00","-21.9","","-25.2","","75","","","","28","","14","","9.7","","100.58","","","","-31","","Snow"
"-93.58","69.55","TALOYOAK A","2403855","2019-02-21 14:00","2019","02","21","14:00","-23.0","","-26.4","","74","","","","28","","9","","9.7","","100.57","","","","-30","","Snow"
"-93.58","69.55","TALOYOAK A","2403855","2019-02-21 15:00","2019","02","21","15:00","-23.7","","-27.2","","74","","","","20","","13","","16.1","","100.55","","","","-33","","Snow"
"-93.58","69.55","TALOYOAK A","2403855","2019-02-21 16:00","2019","02","21","16:00","-22.2","","-25.6","","75","","","","28","","14","","9.7","","100.56","","","","-31","","Snow,Fog"
"-93.58","69.55","TALOYOAK A","2403855","2019-02-21 17:00","2019","02","21","17:00","-23.4","","-26.9","","74","","","","20","","7","","8.1","","100.53","","","","-30","","Snow,Fog"
"-93.58","69.55","TALOYOAK A","2403855","2019-02-21 18:00","2019","02","21","18:00","-24.5","","-28.1","","73","","","","25","","10","","8.1","","100.52","","","","-33","","Snow,Fog"
"-93.58","69.55","TALOYOAK A","2403855","2019-02-21 19:00","2019","02","21","19:00","-25.0","","-28.6","","73","","","","20","","13","","4.0","","100.49","","","","-34","","Snow"
"-93.58","69.55","TALOYOAK A","2403855","2019-02-21 20:00","2019","02","21","20:00","-25.0","","-28.5","","73","","","","22","","20","","4.0","","100.44","","","","-37","","Snow"
"-93.58","69.55","TALOYOAK A","2403855","2019-02-21 21:00","2019","02","21","21:00","-25.6","","-29.2","","72","","","","22","","27","","4.0","","100.39","","","","-39","","Snow,Blowing Snow"
"-93.58","69.55","TALOYOAK A","2403855","2019-02-21 22:00","2019","02","21","22:00","-25.4","","-29.0","","73","","","","20","","25","","3.6","","100.35","","","","-39","","Snow,Blowing Snow"
"-93.58","69.55","TALOYOAK A","2403855","2019-02-21 23:00","2019","02","21","23:00","-25.7","","-29.3","","72","","","","21","","26","","3.2","","100.35","","","","-39","","Snow,Blowing Snow"
"-93.58","69.55","TALOYOAK A","2403855","2019-02-22 00:00","2019","02","22","00:00","-25.7","","-29.3","","72","","","","20","","27","","3.2","","100.32","","","","-39","","Snow,Blowing Snow"
"-93.58","69.55","TALOYOAK A","2403855","2019-02-22 01:00","2019","02","22","01:00","-25.6","","-29.3","","72","","","","21","","25","","3.2","","100.31","","","","-39","","Snow,Blowing Snow"
"-93.58","69.55","TALOYOAK A","2403855","2019-02-22 02:00","2019","02","22","02:00","-25.7","","-29.3","","72","","","","21","","28","","3.6","","100.28","","","","-40","","Snow,Blowing Snow"
"-93.58","69.55","TALOYOAK A","2403855","2019-02-22 03:00","2019","02","22","03:00","-26.1","","-29.8","","72","","","","20","","31","","3.2","","100.24","","","","-41","","Snow,Blowing Snow"
"-93.58","69.55","TALOYOAK A","2403855","2019-02-22 04:00","2019","02","22","04:00","-26.4","","-30.1","","72","","","","20","","32","","3.2","","100.21","","","","-41","","Snow,Blowing Snow"
"-93.58","69.55","TALOYOAK A","2403855","2019-02-22 05:00","2019","02","22","05:00","-26.7","","-30.4","","72","","","","20","","36","","1.6","","100.17","","","","-42","","Snow,Blowing Snow"
"-93.58","69.55","TALOYOAK A","2403855","2019-02-22 06:00","2019","02","22","06:00","-27.6","","-31.4","","71","","","","19","","28","","2.0","","100.17","","","","-42","","Snow,Blowing Snow"
"-93.58","69.55","TALOYOAK A","2403855","2019-02-22 07:00","2019","02","22","07:00","-27.8","","-31.6","","71","","","","19","","25","","4.8","","100.16","","","","-42","","Snow,Blowing Snow"
"-93.58","69.55","TALOYOAK A","2403855","2019-02-22 08:00","2019","02","22","08:00","-28.4","","-32.2","","70","","","","20","","41","","2.0","","100.10","","","","-46","","Snow,Blowing Snow"
"-93.58","69.55","TALOYOAK A","2403855","2019-02-22 09:00","2019","02","22","09:00","-28.1","","-31.9","","71","","","","19","","34","","1.6","","100.11","","","","-44","","Snow,Blowing Snow"
"-93.58","69.55","TALOYOAK A","2403855","2019-02-22 10:00","2019","02","22","10:00","-26.6","","-30.3","","72","","","","22","","19","","0.8","","100.11","","","","-39","","Snow,Blowing Snow"
"-93.58","69.55","TALOYOAK A","2403855","2019-02-22 11:00","2019","02","22","11:00","-25.8","","-29.4","","72","","","","19","","15","","2.4","","100.13","","","","-36","","Snow,Blowing Snow"
"-93.58","69.55","TALOYOAK A","2403855","2019-02-22 12:00","2019","02","22","12:00","-25.9","","-29.6","","72","","","","23","","20","","4.0","","100.13","","","","-38","","Snow,Fog"
"-93.58","69.55","TALOYOAK A","2403855","2019-02-22 13:00","2019","02","22","13:00","-26.2","","-29.9","","72","","","","25","","13","","16.1","","100.18","","","","-36","","Ice Crystals"
"-93.58","69.55","TALOYOAK A","2403855","2019-02-22 14:00","2019","02","22","14:00","-26.3","","-30.0","","72","","","","24","","16","","24.1","","100.24","","","","-37","","Mostly Cloudy"
"-93.58","69.55","TALOYOAK A","2403855","2019-02-22 15:00","2019","02","22","15:00","-28.2","","-32.0","","70","","","","18","","9","","24.1","","100.29","","","","-36","","NA"
"-93.58","69.55","TALOYOAK A","2403855","2019-02-22 16:00","2019","02","22","16:00","-28.3","","-32.1","","70","","","","25","","8","","24.1","","100.35","","","","-36","","NA"
"-93.58","69.55","TALOYOAK A","2403855","2019-02-22 17:00","2019","02","22","17:00","-29.5","","-33.4","","70","","","","32","","16","","24.1","","100.44","","","","-41","","Ice Crystals"
"-93.58","69.55","TALOYOAK A","2403855","2019-02-22 18:00","2019","02","22","18:00","-30.3","","-34.2","","69","","","","31","","22","","24.1","","100.49","","","","-44","","Ice Crystals"
"-93.58","69.55","TALOYOAK A","2403855","2019-02-22 19:00","2019","02","22","19:00","-31.4","","-35.4","","68","","","","30","","17","","24.1","","100.55","","","","-44","","Ice Crystals"
"-93.58","69.55","TALOYOAK A","2403855","2019-02-22 20:00","2019","02","22","20:00","-31.9","","-36.0","","68","","","","29","","16","","24.1","","100.58","","","","-44","","Ice Crystals"
"-93.58","69.55","TALOYOAK A","2403855","2019-02-22 21:00","2019","02","22","21:00","-32.1","","-36.2","","68","","","","30","","22","","24.1","","100.61","","","","-46","","Ice Crystals"
"-93.58","69.55","TALOYOAK A","2403855","2019-02-22 22:00","2019","02","22","22:00","-32.7","","-36.8","","68","","","","30","","31","","24.1","","100.66","","","","-49","","Ice Crystals,Haze,Blowing Snow"
"-93.58","69.55","TALOYOAK A","2403855","2019-02-22 23:00","2019","02","22","23:00","-33.5","","-37.6","","67","","","","32","","34","","24.1","","100.75","","","","-51","","Ice Crystals,Blowing Snow"
"-93.58","69.55","TALOYOAK A","2403855","2019-02-23 00:00","2019","02","23","00:00","-33.9","","-38.1","","67","","","","31","","39","","4.0","","100.76","","","","-53","","Ice Crystals,Blowing Snow"
"-93.58","69.55","TALOYOAK A","2403855","2019-02-23 01:00","2019","02","23","01:00","-34.2","","-38.4","","67","","","","30","","27","","16.1","","100.84","","","","-50","","Ice Crystals,Blowing Snow"
"-93.58","69.55","TALOYOAK A","2403855","2019-02-23 02:00","2019","02","23","02:00","-34.4","","-38.6","","66","","","","31","","28","","24.1","","100.85","","","","-51","","Ice Crystals,Blowing Snow"
"-93.58","69.55","TALOYOAK A","2403855","2019-02-23 03:00","2019","02","23","03:00","-34.9","","-39.2","","66","","","","31","","30","","16.1","","100.88","","","","-52","","Ice Crystals,Blowing Snow"
"-93.58","69.55","TALOYOAK A","2403855","2019-02-23 04:00","2019","02","23","04:00","-35.2","","-39.5","","66","","","","32","","24","","24.1","","100.96","","","","-51","","Ice Crystals"
"-93.58","69.55","TALOYOAK A","2403855","2019-02-23 05:00","2019","02","23","05:00","-36.0","","-40.3","","65","","","","35","","20","","24.1","","101.03","","","","-51","","Ice Crystals"
"-93.58","69.55","TALOYOAK A","2403855","2019-02-23 06:00","2019","02","23","06:00","-37.0","","-41.4","","65","","","","3","","14","","24.1","","101.10","","","","-50","","Ice Crystals"
"-93.58","69.55","TALOYOAK A","2403855","2019-02-23 07:00","2019","02","23","07:00","-36.8","","-41.1","","65","","","","2","","3","","24.1","","101.16","","","","-41","","Ice Crystals"
"-93.58","69.55","TALOYOAK A","2403855","2019-02-23 08:00","2019","02","23","08:00","-35.8","","-40.1","","65","","","","9","","3","","24.1","","101.21","","","","-40","","Ice Crystals"
"-93.58","69.55","TALOYOAK A","2403855","2019-02-23 09:00","2019","02","23","09:00","-36.5","","-40.9","","65","","","","22","","7","","24.1","","101.26","","","","-45","","Ice Crystals"
"-93.58","69.55","TALOYOAK A","2403855","2019-02-23 10:00","2019","02","23","10:00","-35.8","","-40.1","","65","","","","19","","3","","24.1","","101.28","","","","-40","","NA"
"-93.58","69.55","TALOYOAK A","2403855","2019-02-23 11:00","2019","02","23","11:00","-35.3","","-39.7","","65","","","","20","","4","","24.1","","101.31","","","","-40","","Clear"
"-93.58","69.55","TALOYOAK A","2403855","2019-02-23 12:00","2019","02","23","12:00","-34.9","","-39.3","","66","","","","19","","7","","24.1","","101.35","","","","-43","","NA"
"-93.58","69.55","TALOYOAK A","2403855","2019-02-23 13:00","2019","02","23","13:00","-34.9","","-39.3","","66","","","","18","","10","","24.1","","101.37","","","","-45","","NA"
"-93.58","69.55","TALOYOAK A","2403855","2019-02-23 14:00","2019","02","23","14:00","-35.1","","-39.5","","65","","","","18","","10","","24.1","","101.40","","","","-45","","Clear"
"-93.58","69.55","TALOYOAK A","2403855","2019-02-23 15:00","2019","02","23","15:00","-35.6","","-40.0","","65","","","","17","","6","","24.1","","101.44","","","","-43","","NA"
"-93.58","69.55","TALOYOAK A","2403855","2019-02-23 16:00","2019","02","23","16:00","-35.4","","-39.8","","66","","","","17","","6","","24.1","","101.48","","","","-43","","NA"
"-93.58","69.55","TALOYOAK A","2403855","2019-02-23 17:00","2019","02","23","17:00","-36.0","","-40.3","","65","","","","17","","5","","24.1","","101.55","","","","-42","","Clear"
"-93.58","69.55","TALOYOAK A","2403855","2019-02-23 18:00","2019","02","23","18:00","-36.9","","-41.3","","65","","","","19","","7","","24.1","","101.57","","","","-45","","NA"
"-93.58","69.55","TALOYOAK A","2403855","2019-02-23 19:00","2019","02","23","19:00","-37.4","","-41.8","","64","","","","18","","8","","24.1","","101.56","","","","-47","","Ice Crystals"
"-93.58","69.55","TALOYOAK A","2403855","2019-02-23 20:00","2019","02","23","20:00","-37.6","","-42.0","","64","","","","17","","9","","24.1","","101.58","","","","-48","","Ice Crystals"
"-93.58","69.55","TALOYOAK A","2403855","2019-02-23 21:00","2019","02","23","21:00"
"-93.58","69.55","TALOYOAK A","2403855","2019-02-23 22:00","2019","02","23","22:00"
"-93.58","69.55","TALOYOAK A","2403855","2019-02-23 23:00","2019","02","23","23:00"
"-93.58","69.55","TALOYOAK A","2403855","2019-02-24 00:00","2019","02","24","00:00"
"-93.58","69.55","TALOYOAK A","2403855","2019-02-24 01:00","2019","02","24","01:00"
"-93.58","69.55","TALOYOAK A","2403855","2019-02-24 02:00","2019","02","24","02:00"
"-93.58","69.55","TALOYOAK A","2403855","2019-02-24 03:00","2019","02","24","03:00"
"-93.58","69.55","TALOYOAK A","2403855","2019-02-24 04:00","2019","02","24","04:00"
"-93.58","69.55","TALOYOAK A","2403855","2019-02-24 05:00","2019","02","24","05:00"
"-93.58","69.55","TALOYOAK A","2403855","2019-02-24 06:00","2019","02","24","06:00"
"-93.58","69.55","TALOYOAK A","2403855","2019-02-24 07:00","2019","02","24","07:00"
"-93.58","69.55","TALOYOAK A","2403855","2019-02-24 08:00","2019","02","24","08:00"
"-93.58","69.55","TALOYOAK A","2403855","2019-02-24 09:00","2019","02","24","09:00","-39.6","","-44.2","","63","","","","36","","3","","20.9","","101.77","","","","-44","","Ice Crystals"
"-93.58","69.55","TALOYOAK A","2403855","2019-02-24 10:00","2019","02","24","10:00","-39.0","","-43.6","","63","","","","19","","10","","16.1","","101.74","","","","-50","","Ice Crystals"
"-93.58","69.55","TALOYOAK A","2403855","2019-02-24 11:00","2019","02","24","11:00","-38.9","","-43.5","","63","","","","17","","17","","20.9","","101.76","","","","-53","","Ice Crystals"
"-93.58","69.55","TALOYOAK A","2403855","2019-02-24 12:00","2019","02","24","12:00","-38.9","","-43.5","","63","","","","15","","15","","24.1","","101.74","","","","-52","","Ice Crystals"
"-93.58","69.55","TALOYOAK A","2403855","2019-02-24 13:00","2019","02","24","13:00","-38.5","","-43.1","","63","","","","16","","14","","24.1","","101.72","","","","-51","","Ice Crystals"
"-93.58","69.55","TALOYOAK A","2403855","2019-02-24 14:00","2019","02","24","14:00","-38.8","","-43.4","","63","","","","17","","17","","24.1","","101.69","","","","-53","","Ice Crystals"
"-93.58","69.55","TALOYOAK A","2403855","2019-02-24 15:00","2019","02","24","15:00","-39.2","","-43.8","","63","","","","17","","14","","24.1","","101.68","","","","-52","","Ice Crystals"
"-93.58","69.55","TALOYOAK A","2403855","2019-02-24 16:00","2019","02","24","16:00","-39.2","","-43.8","","63","","","","16","","11","","24.1","","101.65","","","","-51","","Ice Crystals"
"-93.58","69.55","TALOYOAK A","2403855","2019-02-24 17:00","2019","02","24","17:00","-40.0","","-44.6","","63","","","","15","","11","","24.1","","101.63","","","","-52","","Clear"
"-93.58","69.55","TALOYOAK A","2403855","2019-02-24 18:00","2019","02","24","18:00","-40.1","","-44.7","","63","","","","16","","10","","24.1","","101.59","","","","-51","","Ice Crystals"
"-93.58","69.55","TALOYOAK A","2403855","2019-02-24 19:00","2019","02","24","19:00","-40.6","","-45.2","","62","","","","14","","4","","16.1","","101.54","","","","-46","","Ice Crystals"
"-93.58","69.55","TALOYOAK A","2403855","2019-02-24 20:00","2019","02","24","20:00","-41.2","","-45.8","","62","","","","2","","10","","16.1","","101.52","","","","-53","","Ice Crystals"
"-93.58","69.55","TALOYOAK A","2403855","2019-02-24 21:00","2019","02","24","21:00","-41.4","","-46.1","","62","","","","2","","9","","16.1","","101.49","","","","-52","","Ice Crystals"
"-93.58","69.55","TALOYOAK A","2403855","2019-02-24 22:00","2019","02","24","22:00","-40.3","","-44.9","","62","","","","2","","7","","16.1","","101.42","","","","-49","","Ice Crystals"
"-93.58","69.55","TALOYOAK A","2403855","2019-02-24 23:00","2019","02","24","23:00","-39.8","","-44.4","","63","","","","4","","3","","16.1","","101.38","","","","-44","","Ice Crystals"
"-93.58","69.55","TALOYOAK A","2403855","2019-02-25 00:00","2019","02","25","00:00","-38.9","","-43.5","","63","","","","36","","3","","16.1","","101.34","","","","-43","","Ice Crystals"
"-93.58","69.55","TALOYOAK A","2403855","2019-02-25 01:00","2019","02","25","01:00","-38.1","","-42.7","","64","","","","22","","7","","16.1","","101.32","","","","-47","","Ice Crystals"
"-93.58","69.55","TALOYOAK A","2403855","2019-02-25 02:00","2019","02","25","02:00","-38.4","","-42.9","","63","","","","16","","12","","24.1","","101.29","","","","-50","","Ice Crystals"
"-93.58","69.55","TALOYOAK A","2403855","2019-02-25 03:00","2019","02","25","03:00","-38.1","","-42.6","","64","","","","18","","14","","24.1","","101.26","","","","-51","","Ice Crystals"
"-93.58","69.55","TALOYOAK A","2403855","2019-02-25 04:00","2019","02","25","04:00","-38.4","","-43.0","","63","","","","16","","12","","24.1","","101.25","","","","-50","","Ice Crystals"
"-93.58","69.55","TALOYOAK A","2403855","2019-02-25 05:00","2019","02","25","05:00","-38.3","","-42.9","","63","","","","15","","12","","24.1","","101.22","","","","-50","","Ice Crystals"
"-93.58","69.55","TALOYOAK A","2403855","2019-02-25 06:00","2019","02","25","06:00","-39.4","","-44.0","","63","","","","17","","11","","24.1","","101.20","","","","-51","","Ice Crystals"
"-93.58","69.55","TALOYOAK A","2403855","2019-02-25 07:00","2019","02","25","07:00","-39.6","","-44.2","","63","","","","16","","10","","24.1","","101.19","","","","-51","","Ice Crystals"
"-93.58","69.55","TALOYOAK A","2403855","2019-02-25 08:00","2019","02","25","08:00","-39.4","","-44.0","","63","","","","16","","8","","24.1","","101.17","","","","-49","","Ice Crystals"
"-93.58","69.55","TALOYOAK A","2403855","2019-02-25 09:00","2019","02","25","09:00","-39.3","","-43.9","","63","","","","11","","3","","16.1","","101.14","","","","-43","","Ice Crystals"
"-93.58","69.55","TALOYOAK A","2403855","2019-02-25 10:00","2019","02","25","10:00","-39.4","","-44.0","","63","","","","7","","5","","16.1","","101.16","","","","-46","","Ice Crystals"
"-93.58","69.55","TALOYOAK A","2403855","2019-02-25 11:00","2019","02","25","11:00","-39.9","","-44.5","","62","","","","1","","5","","16.1","","101.11","","","","-47","","Ice Crystals"
"-93.58","69.55","TALOYOAK A","2403855","2019-02-25 12:00","2019","02","25","12:00","-38.8","","-43.5","","63","","","","5","","7","","19.3","","101.13","","","","-48","","Ice Crystals"
"-93.58","69.55","TALOYOAK A","2403855","2019-02-25 13:00","2019","02","25","13:00","-39.3","","-44.0","","63","","","","36","","5","","24.1","","101.14","","","","-46","","Ice Crystals"
"-93.58","69.55","TALOYOAK A","2403855","2019-02-25 14:00","2019","02","25","14:00","-38.6","","-43.2","","63","","","","3","","7","","24.1","","101.13","","","","-47","","Ice Crystals"
"-93.58","69.55","TALOYOAK A","2403855","2019-02-25 15:00","2019","02","25","15:00","-39.9","","-44.5","","62","","","","36","","10","","24.1","","101.14","","","","-51","","Ice Crystals"
"-93.58","69.55","TALOYOAK A","2403855","2019-02-25 16:00","2019","02","25","16:00","-39.9","","-44.5","","63","","","","3","","12","","24.1","","101.16","","","","-52","","Ice Crystals"
"-93.58","69.55","TALOYOAK A","2403855","2019-02-25 17:00","2019","02","25","17:00","-40.1","","-44.8","","62","","","","3","","8","","24.1","","101.15","","","","-50","","Ice Crystals"
"-93.58","69.55","TALOYOAK A","2403855","2019-02-25 18:00","2019","02","25","18:00","-41.2","","-45.9","","62","","","","36","","12","","24.1","","101.14","","","","-54","","Ice Crystals"
"-93.58","69.55","TALOYOAK A","2403855","2019-02-25 19:00","2019","02","25","19:00","-41.1","","-45.8","","62","","","","2","","10","","24.1","","101.14","","","","-52","","Ice Crystals"
"-93.58","69.55","TALOYOAK A","2403855","2019-02-25 20:00","2019","02","25","20:00","-41.7","","-46.4","","62","","","","2","","8","","24.1","","101.10","","","","-52","","Ice Crystals"
"-93.58","69.55","TALOYOAK A","2403855","2019-02-25 21:00","2019","02","25","21:00","-39.0","","-43.6","","63","","","","7","","9","","24.1","","101.06","","","","-49","","Ice Crystals"
"-93.58","69.55","TALOYOAK A","2403855","2019-02-25 22:00","2019","02","25","22:00","-42.0","","-46.7","","61","","","","1","","5","","24.1","","101.07","","","","-49","","Ice Crystals"
"-93.58","69.55","TALOYOAK A","2403855","2019-02-25 23:00","2019","02","25","23:00","-41.4","","-46.1","","62","","","","2","","5","","24.1","","101.08","","","","-49","","Ice Crystals"
"-93.58","69.55","TALOYOAK A","2403855","2019-02-26 00:00","2019","02","26","00:00","-41.6","","-46.3","","62","","","","4","","8","","24.1","","101.08","","","","-52","","Ice Crystals"
"-93.58","69.55","TALOYOAK A","2403855","2019-02-26 01:00","2019","02","26","01:00","-40.3","","-45.0","","62","","","","6","","7","","24.1","","101.11","","","","-49","","Ice Crystals"
"-93.58","69.55","TALOYOAK A","2403855","2019-02-26 02:00","2019","02","26","02:00","-39.3","","-43.9","","63","","","","7","","18","","24.1","","101.09","","","","-54","","Ice Crystals"
"-93.58","69.55","TALOYOAK A","2403855","2019-02-26 03:00","2019","02","26","03:00","-39.9","","-44.6","","62","","","","7","","16","","24.1","","101.10","","","","-54","","Ice Crystals"
"-93.58","69.55","TALOYOAK A","2403855","2019-02-26 04:00","2019","02","26","04:00","-41.1","","-45.7","","62","","","","3","","7","","24.1","","101.13","","","","-50","","Ice Crystals"
"-93.58","69.55","TALOYOAK A","2403855","2019-02-26 05:00","2019","02","26","05:00","-39.7","","-44.3","","63","","","","9","","14","","24.1","","101.13","","","","-53","","Ice Crystals"
"-93.58","69.55","TALOYOAK A","2403855","2019-02-26 06:00","2019","02","26","06:00","-39.2","","-43.9","","63","","","","7","","11","","24.1","","101.15","","","","-51","","Ice Crystals"
"-93.58","69.55","TALOYOAK A","2403855","2019-02-26 07:00","2019","02","26","07:00","-39.6","","-44.2","","63","","","","4","","7","","24.1","","101.13","","","","-48","","NA"
"-93.58","69.55","TALOYOAK A","2403855","2019-02-26 08:00","2019","02","26","08:00","-40.5","","-45.1","","62","","","","4","","9","","24.1","","101.14","","","","-51","","Clear"
"-93.58","69.55","TALOYOAK A","2403855","2019-02-26 09:00","2019","02","26","09:00","-38.5","","-43.1","","63","","","","7","","16","","24.1","","101.14","","","","-52","","NA"
"-93.58","69.55","TALOYOAK A","2403855","2019-02-26 10:00","2019","02","26","10:00","-37.1","","-41.6","","64","","","","9","","6","","24.1","","101.17","","","","-45","","NA"
"-93.58","69.55","TALOYOAK A","2403855","2019-02-26 11:00","2019","02","26","11:00","-37.1","","-41.7","","64","","","","6","","8","","24.1","","101.17","","","","-46","","Ice Crystals"
"-93.58","69.55","TALOYOAK A","2403855","2019-02-26 12:00","2019","02","26","12:00","-37.4","","-41.9","","63","","","","6","","12","","24.1","","101.18","","","","-49","","Ice Crystals"
"-93.58","69.55","TALOYOAK A","2403855","2019-02-26 13:00","2019","02","26","13:00","-36.6","","-41.2","","64","","","","5","","10","","24.1","","101.19","","","","-47","","Ice Crystals"
"-93.58","69.55","TALOYOAK A","2403855","2019-02-26 14:00","2019","02","26","14:00","-36.4","","-41.0","","64","","","","6","","11","","24.1","","101.18","","","","-47","","Ice Crystals"
"-93.58","69.55","TALOYOAK A","2403855","2019-02-26 15:00","2019","02","26","15:00","-36.8","","-41.4","","64","","","","7","","14","","24.1","","101.19","","","","-49","","Ice Crystals"
"-93.58","69.55","TALOYOAK A","2403855","2019-02-26 16:00","2019","02","26","16:00","-38.5","","-43.1","","63","","","","5","","13","","24.1","","101.27","","","","-51","","Ice Crystals"
"-93.58","69.55","TALOYOAK A","2403855","2019-02-26 17:00","2019","02","26","17:00","-38.1","","-42.6","","63","","","","6","","14","","24.1","","101.32","","","","-51","","Ice Crystals"
"-93.58","69.55","TALOYOAK A","2403855","2019-02-26 18:00","2019","02","26","18:00","-38.8","","-43.4","","63","","","","5","","18","","24.1","","101.33","","","","-53","","Ice Crystals"
"-93.58","69.55","TALOYOAK A","2403855","2019-02-26 19:00","2019","02","26","19:00","-39.0","","-43.6","","63","","","","4","","21","","24.1","","101.33","","","","-55","","Ice Crystals"
"-93.58","69.55","TALOYOAK A","2403855","2019-02-26 20:00","2019","02","26","20:00","-39.3","","-43.9","","63","","","","3","","18","","24.1","","101.34","","","","-54","","Ice Crystals"
"-93.58","69.55","TALOYOAK A","2403855","2019-02-26 21:00","2019","02","26","21:00","-39.5","","-44.1","","63","","","","2","","17","","24.1","","101.36","","","","-54","","Ice Crystals"
"-93.58","69.55","TALOYOAK A","2403855","2019-02-26 22:00","2019","02","26","22:00","-38.8","","-43.3","","63","","","","3","","18","","24.1","","101.39","","","","-53","","Ice Crystals"
"-93.58","69.55","TALOYOAK A","2403855","2019-02-26 23:00","2019","02","26","23:00","-38.2","","-42.7","","63","","","","5","","23","","24.1","","101.42","","","","-54","","Ice Crystals"
"-93.58","69.55","TALOYOAK A","2403855","2019-02-27 00:00","2019","02","27","00:00","-38.3","","-42.8","","63","","","","4","","20","","16.1","","101.48","","","","-54","","Ice Crystals"
"-93.58","69.55","TALOYOAK A","2403855","2019-02-27 01:00","2019","02","27","01:00","-38.0","","-42.5","","63","","","","4","","20","","11.3","","101.53","","","","-53","","Ice Crystals,Fog"
"-93.58","69.55","TALOYOAK A","2403855","2019-02-27 02:00","2019","02","27","02:00","-37.6","","-42.1","","64","","","","4","","21","","9.7","","101.59","","","","-53","","Ice Crystals,Fog"
"-93.58","69.55","TALOYOAK A","2403855","2019-02-27 03:00","2019","02","27","03:00","-37.5","","-42.1","","64","","","","4","","15","","9.7","","101.64","","","","-51","","Ice Crystals,Fog"
"-93.58","69.55","TALOYOAK A","2403855","2019-02-27 04:00","2019","02","27","04:00","-37.1","","-41.6","","64","","","","4","","25","","9.7","","101.70","","","","-54","","Ice Crystals,Fog"
"-93.58","69.55","TALOYOAK A","2403855","2019-02-27 05:00","2019","02","27","05:00","-37.1","","-41.6","","64","","","","4","","22","","2.0","","101.76","","","","-53","","Ice Crystals,Fog"
"-93.58","69.55","TALOYOAK A","2403855","2019-02-27 06:00","2019","02","27","06:00","-37.0","","-41.6","","64","","","","4","","22","","4.8","","101.81","","","","-53","","Ice Crystals,Fog"
"-93.58","69.55","TALOYOAK A","2403855","2019-02-27 07:00","2019","02","27","07:00","-36.6","","-41.1","","64","","","","5","","23","","16.1","","101.87","","","","-52","","Ice Crystals"
"-93.58","69.55","TALOYOAK A","2403855","2019-02-27 08:00","2019","02","27","08:00","-36.7","","-41.2","","64","","","","4","","29","","24.1","","101.92","","","","-54","","Ice Crystals,Blowing Snow"
"-93.58","69.55","TALOYOAK A","2403855","2019-02-27 09:00","2019","02","27","09:00","-36.2","","-40.7","","64","","","","5","","35","","24.1","","101.97","","","","-55","","Ice Crystals,Blowing Snow"
"-93.58","69.55","TALOYOAK A","2403855","2019-02-27 10:00","2019","02","27","10:00","-35.8","","-40.3","","64","","","","5","","36","","24.1","","101.99","","","","-54","","Ice Crystals,Blowing Snow"
"-93.58","69.55","TALOYOAK A","2403855","2019-02-27 11:00","2019","02","27","11:00","-35.1","","-39.5","","65","","","","4","","27","","24.1","","102.04","","","","-52","","Ice Crystals,Blowing Snow"
"-93.58","69.55","TALOYOAK A","2403855","2019-02-27 12:00","2019","02","27","12:00","-34.6","","-39.0","","65","","","","5","","30","","24.1","","102.08","","","","-52","","Ice Crystals,Blowing Snow"
"-93.58","69.55","TALOYOAK A","2403855","2019-02-27 13:00","2019","02","27","13:00","-33.6","","-38.0","","66","","","","5","","30","","24.1","","102.16","","","","-50","","Ice Crystals,Blowing Snow"
"-93.58","69.55","TALOYOAK A","2403855","2019-02-27 14:00","2019","02","27","14:00","-33.5","","-37.9","","66","","","","2","","19","","24.1","","102.25","","","","-47","","Ice Crystals,Blowing Snow"
"-93.58","69.55","TALOYOAK A","2403855","2019-02-27 15:00","2019","02","27","15:00","-33.5","","-37.8","","66","","","","2","","22","","19.3","","102.33","","","","-48","","Ice Crystals,Blowing Snow"
"-93.58","69.55","TALOYOAK A","2403855","2019-02-27 16:00","2019","02","27","16:00","-32.9","","-37.2","","66","","","","3","","20","","12.9","","102.36","","","","-47","","Ice Crystals,Blowing Snow"
"-93.58","69.55","TALOYOAK A","2403855","2019-02-27 17:00","2019","02","27","17:00","-33.1","","-37.4","","66","","","","1","","9","","19.3","","102.47","","","","-42","","Snow"
"-93.58","69.55","TALOYOAK A","2403855","2019-02-27 18:00","2019","02","27","18:00","-33.6","","-37.9","","66","","","","36","","12","","24.1","","102.49","","","","-45","","Snow"
"-93.58","69.55","TALOYOAK A","2403855","2019-02-27 19:00","2019","02","27","19:00","-34.3","","-38.7","","66","","","","36","","10","","24.1","","102.54","","","","-44","","Snow"
"-93.58","69.55","TALOYOAK A","2403855","2019-02-27 20:00","2019","02","27","20:00","-34.3","","-38.7","","66","","","","1","","9","","24.1","","102.59","","","","-44","","Snow"
"-93.58","69.55","TALOYOAK A","2403855","2019-02-27 21:00","2019","02","27","21:00","-35.1","","-39.5","","65","","","","1","","13","","24.1","","102.63","","","","-47","","Ice Crystals"
"-93.58","69.55","TALOYOAK A","2403855","2019-02-27 22:00","2019","02","27","22:00","-33.9","","-38.3","","66","","","","32","","5","","24.1","","102.64","","","","-40","","Ice Crystals"
"-93.58","69.55","TALOYOAK A","2403855","2019-02-27 23:00","2019","02","27","23:00","-32.9","","-37.2","","66","","","","36","","11","","24.1","","102.66","","","","-43","","Ice Crystals"
"-93.58","69.55","TALOYOAK A","2403855","2019-02-28 00:00","2019","02","28","00:00","-31.3","","-35.5","","67","","","","2","","9","","16.1","","102.71","","","","-40","","Snow"
"-93.58","69.55","TALOYOAK A","2403855","2019-02-28 01:00","2019","02","28","01:00","-29.5","","-33.6","","69","","","","36","","5","","16.1","","102.76","","","","-35","","Snow"
"-93.58","69.55","TALOYOAK A","2403855","2019-02-28 02:00","2019","02","28","02:00","-28.7","","-32.7","","69","","","","36","","9","","16.1","","102.76","","","","-37","","Snow"
"-93.58","69.55","TALOYOAK A","2403855","2019-02-28 03:00","2019","02","28","03:00","-27.9","","-31.9","","70","","","","2","","7","","16.1","","102.82","","","","-35","","Snow"
"-93.58","69.55","TALOYOAK A","2403855","2019-02-28 04:00","2019","02","28","04:00","-27.3","","-31.1","","70","","","","34","","5","","16.1","","102.86","","","","-33","","Snow"
"-93.58","69.55","TALOYOAK A","2403855","2019-02-28 05:00","2019","02","28","05:00","-27.4","","-31.2","","70","","","","2","","4","","16.1","","102.87","","","","-32","","Snow"
"-93.58","69.55","TALOYOAK A","2403855","2019-02-28 06:00","2019","02","28","06:00","-25.8","","-29.6","","71","","","","35","","8","","24.1","","102.90","","","","-33","","Snow"
"-93.58","69.55","TALOYOAK A","2403855","2019-02-28 07:00","2019","02","28","07:00","-24.7","","-28.4","","72","","","","1","","8","","24.1","","102.91","","","","-32","","Snow"
"-93.58","69.55","TALOYOAK A","2403855","2019-02-28 08:00","2019","02","28","08:00","-24.4","","-28.0","","72","","","","33","","6","","24.1","","102.90","","","","-30","","Snow"
"-93.58","69.55","TALOYOAK A","2403855","2019-02-28 09:00","2019","02","28","09:00","-22.6","","-26.1","","74","","","","35","","14","","24.1","","102.87","","","","-32","","NA"
"-93.58","69.55","TALOYOAK A","2403855","2019-02-28 10:00","2019","02","28","10:00","-23.0","","-26.5","","74","","","","35","","14","","24.1","","102.89","","","","-32","","NA"
"-93.58","69.55","TALOYOAK A","2403855","2019-02-28 11:00","2019","02","28","11:00","-24.8","","-28.4","","72","","","","1","","8","","24.1","","102.92","","","","-32","","Mostly Cloudy"
"-93.58","69.55","TALOYOAK A","2403855","2019-02-28 12:00","2019","02","28","12:00","-24.6","","-28.2","","72","","","","1","","10","","24.1","","102.93","","","","-33","","NA"
"-93.58","69.55","TALOYOAK A","2403855","2019-02-28 13:00","2019","02","28","13:00","-24.1","","-27.7","","72","","","","2","","9","","24.1","","102.92","","","","-32","","NA"
"-93.58","69.55","TALOYOAK A","2403855","2019-02-28 14:00","2019","02","28","14:00","-24.9","","-28.6","","72","","","","36","","8","","24.1","","102.91","","","","-32","","Mostly Cloudy"
"-93.58","69.55","TALOYOAK A","2403855","2019-02-28 15:00","2019","02","28","15:00","-24.6","","-28.2","","72","","","","35","","11","","24.1","","102.90","","","","-33","","NA"
"-93.58","69.55","TALOYOAK A","2403855","2019-02-28 16:00","2019","02","28","16:00","-24.5","","-28.3","","72","","","","35","","9","","24.1","","102.92","","","","-32","","NA"
"-93.58","69.55","TALOYOAK A","2403855","2019-02-28 17:00","2019","02","28","17:00","-25.4","","-29.3","","71","","","","35","","10","","24.1","","102.86","","","","-34","","Mostly Cloudy"
"-93.58","69.55","TALOYOAK A","2403855","2019-02-28 18:00","2019","02","28","18:00","-24.8","","-28.6","","71","","","","35","","12","","24.1","","102.89","","","","-34","","NA"
"-93.58","69.55","TALOYOAK A","2403855","2019-02-28 19:00","2019","02","28","19:00","-25.1","","-29.1","","70","","","","35","","13","","24.1","","102.84","","","","-35","","NA"
"-93.58","69.55","TALOYOAK A","2403855","2019-02-28 20:00","2019","02","28","20:00","-25.5","","-29.5","","70","","","","35","","21","","24.1","","102.82","","","","-38","","Mainly Clear"
"-93.58","69.55","TALOYOAK A","2403855","2019-02-28 21:00","2019","02","28","21:00","-26.7","","-30.9","","69","","","","1","","16","","24.1","","102.85","","","","-38","","NA"
"-93.58","69.55","TALOYOAK A","2403855","2019-02-28 22:00","2019","02","28","22:00","-25.9","","-30.1","","68","","","","2","","14","","24.1","","102.83","","","","-36","","NA"
"-93.58","69.55","TALOYOAK A","2403855","2019-02-28 23:00","2019","02","28","23:00","-27.5","","-31.9","","67","","","","1","","12","","24.1","","102.84","","","","-37","","Clear"
