"Longitude (x)","Latitude (y)","Station Name","Climate ID","Date/Time (LST)","Year","Month","Day","Time (LST)","Temp (°C)","Temp Flag","Dew Point Temp (°C)","Dew Point Temp Flag","Rel Hum (%)","Rel Hum Flag","Precip. Amount (mm)","Precip. Amount Flag","Wind Dir (10s deg)","Wind Dir Flag","Wind Spd (km/h)","Wind Spd Flag","Visibility (km)","Visibility Flag","Stn Press (kPa)","Stn Press Flag","Hmdx","Hmdx Flag","Wind Chill","Wind Chill Flag","Weather"
"-105.14","69.11","CAMBRIDGE BAY A","2400603","2019-01-01 00:00","2019","01","01","00:00","-26.6","","-30.4","","70","","","M","12","","7","","","M","100.15","","","","-33","","NA"
"-105.14","69.11","CAMBRIDGE BAY A","2400603","2019-01-01 01:00","2019","01","01","01:00","-25.2","","-29.2","","71","","","M","15","","20","","","M","100.06","","","","-37","","NA"
"-105.14","69.11","CAMBRIDGE BAY A","2400603","2019-01-01 02:00","2019","01","01","02:00","-26.1","","-30.1","","70","","","M","13","","14","","","M","100.01","","","","-36","","NA"
"-105.14","69.11","CAMBRIDGE BAY A","2400603","2019-01-01 03:00","2019","01","01","03:00","-26.7","","-30.6","","70","","","M","10","","13","","","M","99.99","","","","-37","","NA"
"-105.14","69.11","CAMBRIDGE BAY A","2400603","2019-01-01 04:00","2019","01","01","04:00","-27.4","","-31.4","","70","","","M","9","","14","","","M","99.92","","","","-38","","NA"
"-105.14","69.11","CAMBRIDGE BAY A","2400603","2019-01-01 05:00","2019","01","01","05:00","-27.5","","-31.5","","70","","","M","12","","17","","","M","99.87","","","","-39","","NA"
"-105.14","69.11","CAMBRIDGE BAY A","2400603","2019-01-01 06:00","2019","01","01","06:00","-27.1","","-31.0","","70","","","M","12","","21","","","M","99.80","","","","-40","","NA"
"-105.14","69.11","CAMBRIDGE BAY A","2400603","2019-01-01 07:00","2019","01","01","07:00","-28.1","","-32.0","","70","","","M","11","","26","","","M","99.82","","","","-42","","NA"
"-105.14","69.11","CAMBRIDGE BAY A","2400603","2019-01-01 08:00","2019","01","01","08:00","-28.4","","-32.3","","70","","","M","11","","16","","","M","99.84","","","","-40","","NA"
"-105.14","69.11","CAMBRIDGE BAY A","2400603","2019-01-01 09:00","2019","01","01","09:00","-28.4","","-32.4","","70","","","M","11","","11","","","M","99.84","","","","-38","","NA"
"-105.14","69.11","CAMBRIDGE BAY A","2400603","2019-01-01 10:00","2019","01","01","10:00","-28.6","","-32.5","","70","","","M","10","","13","","","M","99.81","","","","-39","","NA"
"-105.14","69.11","CAMBRIDGE BAY A","2400603","2019-01-01 11:00","2019","01","01","11:00","-28.9","","-32.8","","69","","","M","11","","22","","","M","99.81","","","","-42","","NA"
"-105.14","69.11","CAMBRIDGE BAY A","2400603","2019-01-01 12:00","2019","01","01","12:00","-29.4","","-33.4","","69","","","M","10","","17","","","M","99.80","","","","-41","","NA"
"-105.14","69.11","CAMBRIDGE BAY A","2400603","2019-01-01 13:00","2019","01","01","13:00","-29.5","","-33.5","","69","","","M","11","","17","","","M","99.79","","","","-42","","NA"
"-105.14","69.11","CAMBRIDGE BAY A","2400603","2019-01-01 14:00","2019","01","01","14:00","-29.8","","-33.8","","69","","","M","11","","18","","","M","99.76","","","","-42","","NA"
"-105.14","69.11","CAMBRIDGE BAY A","2400603","2019-01-01 15:00","2019","01","01","15:00","-29.9","","-33.9","","69","","","M","10","","19","","","M","99.73","","","","-43","","NA"
"-105.14","69.11","CAMBRIDGE BAY A","2400603","2019-01-01 16:00","2019","01","01","16:00","-30.2","","-34.2","","69","","","M","11","","15","","","M","99.74","","","","-42","","NA"
"-105.14","69.11","CAMBRIDGE BAY A","2400603","2019-01-01 17:00","2019","01","01","17:00","-30.2","","-34.2","","69","","","M","10","","13","","","M","99.74","","","","-41","","NA"
"-105.14","69.11","CAMBRIDGE BAY A","2400603","2019-01-01 18:00","2019","01","01","18:00","-30.4","","-34.3","","69","","","M","7","","9","","","M","99.71","","","","-39","","NA"
"-105.14","69.11","CAMBRIDGE BAY A","2400603","2019-01-01 19:00","2019","01","01","19:00","-29.7","","-33.6","","69","","","M","9","","17","","","M","99.64","","","","-42","","NA"
"-105.14","69.11","CAMBRIDGE BAY A","2400603","2019-01-01 20:00","2019","01","01","20:00","-29.8","","-33.8","","69","","","M","10","","20","","","M","99.55","","","","-43","","NA"
"-105.14","69.11","CAMBRIDGE BAY A","2400603","2019-01-01 21:00","2019","01","01","21:00","-30.0","","-34.0","","69","","","M","11","","16","","","M","99.47","","","","-42","","NA"
"-105.14","69.11","CAMBRIDGE BAY A","2400603","2019-01-01 22:00","2019","01","01","22:00","-29.9","","-33.9","","69","","","M","13","","15","","","M","99.46","","","","-41","","NA"
"-105.14","69.11","CAMBRIDGE BAY A","2400603","2019-01-01 23:00","2019","01","01","23:00","-29.7","","-33.8","","69","","","M","13","","8","","","M","99.43","","","","-38","","NA"
"-105.14","69.11","CAMBRIDGE BAY A","2400603","2019-01-02 00:00","2019","01","02","00:00","-29.7","","-33.7","","69","","","M","12","","10","","","M","99.39","","","","-39","","NA"
"-105.14","69.11","CAMBRIDGE BAY A","2400603","2019-01-02 01:00","2019","01","02","01:00","-29.4","","-33.4","","69","","","M","12","","20","","","M","99.34","","","","-42","","NA"
"-105.14","69.11","CAMBRIDGE BAY A","2400603","2019-01-02 02:00","2019","01","02","02:00","-28.8","","-32.8","","70","","","M","12","","17","","","M","99.29","","","","-41","","NA"
"-105.14","69.11","CAMBRIDGE BAY A","2400603","2019-01-02 03:00","2019","01","02","03:00","-27.8","","-31.7","","70","","","M","15","","14","","","M","99.28","","","","-38","","NA"
"-105.14","69.11","CAMBRIDGE BAY A","2400603","2019-01-02 04:00","2019","01","02","04:00","-26.8","","-30.5","","71","","","M","16","","13","","","M","99.27","","","","-37","","NA"
"-105.14","69.11","CAMBRIDGE BAY A","2400603","2019-01-02 05:00","2019","01","02","05:00","-26.1","","-29.8","","72","","","M","13","","15","","","M","99.11","","","","-37","","NA"
"-105.14","69.11","CAMBRIDGE BAY A","2400603","2019-01-02 06:00","2019","01","02","06:00","-24.8","","-28.3","","73","","","M","12","","13","","","M","99.01","","","","-34","","NA"
"-105.14","69.11","CAMBRIDGE BAY A","2400603","2019-01-02 07:00","2019","01","02","07:00","-24.7","","-28.2","","73","","","M","14","","19","","","M","98.97","","","","-36","","NA"
"-105.14","69.11","CAMBRIDGE BAY A","2400603","2019-01-02 08:00","2019","01","02","08:00","-25.2","","-28.8","","72","","","M","15","","16","","","M","98.99","","","","-36","","NA"
"-105.14","69.11","CAMBRIDGE BAY A","2400603","2019-01-02 09:00","2019","01","02","09:00","-25.5","","-29.2","","72","","","M","14","","22","","","M","98.95","","","","-38","","NA"
"-105.14","69.11","CAMBRIDGE BAY A","2400603","2019-01-02 10:00","2019","01","02","10:00","-25.8","","-29.4","","72","","","M","13","","19","","","M","98.85","","","","-38","","NA"
"-105.14","69.11","CAMBRIDGE BAY A","2400603","2019-01-02 11:00","2019","01","02","11:00","-25.2","","-28.9","","72","","","M","14","","19","","","M","98.84","","","","-37","","NA"
"-105.14","69.11","CAMBRIDGE BAY A","2400603","2019-01-02 12:00","2019","01","02","12:00","-25.2","","-28.8","","73","","","M","14","","41","","","M","98.76","","","","-41","","NA"
"-105.14","69.11","CAMBRIDGE BAY A","2400603","2019-01-02 13:00","2019","01","02","13:00","-25.7","","-29.3","","72","","","M","13","","35","","","M","98.74","","","","-41","","NA"
"-105.14","69.11","CAMBRIDGE BAY A","2400603","2019-01-02 14:00","2019","01","02","14:00","-25.9","","-29.6","","72","","","M","12","","32","","","M","98.74","","","","-41","","NA"
"-105.14","69.11","CAMBRIDGE BAY A","2400603","2019-01-02 15:00","2019","01","02","15:00","-26.3","","-30.0","","72","","","M","12","","21","","","M","98.73","","","","-39","","NA"
"-105.14","69.11","CAMBRIDGE BAY A","2400603","2019-01-02 16:00","2019","01","02","16:00","-25.9","","-29.6","","72","","","M","12","","30","","","M","98.75","","","","-40","","NA"
"-105.14","69.11","CAMBRIDGE BAY A","2400603","2019-01-02 17:00","2019","01","02","17:00","-24.3","","-27.8","","74","","","M","12","","32","","","M","98.75","","","","-39","","NA"
"-105.14","69.11","CAMBRIDGE BAY A","2400603","2019-01-02 18:00","2019","01","02","18:00","-23.7","","-27.1","","74","","","M","12","","33","","","M","98.72","","","","-38","","NA"
"-105.14","69.11","CAMBRIDGE BAY A","2400603","2019-01-02 19:00","2019","01","02","19:00","-23.0","","-26.4","","74","","","M","12","","31","","","M","98.72","","","","-37","","NA"
"-105.14","69.11","CAMBRIDGE BAY A","2400603","2019-01-02 20:00","2019","01","02","20:00","-24.9","","-28.5","","73","","","M","10","","27","","","M","98.70","","","","-38","","NA"
"-105.14","69.11","CAMBRIDGE BAY A","2400603","2019-01-02 21:00","2019","01","02","21:00","-25.6","","-29.2","","73","","","M","8","","27","","","M","98.71","","","","-39","","NA"
"-105.14","69.11","CAMBRIDGE BAY A","2400603","2019-01-02 22:00","2019","01","02","22:00","-25.4","","-28.9","","73","","","M","8","","28","","","M","98.74","","","","-39","","NA"
"-105.14","69.11","CAMBRIDGE BAY A","2400603","2019-01-02 23:00","2019","01","02","23:00","-25.4","","-29.0","","73","","","M","8","","30","","","M","98.71","","","","-40","","NA"
"-105.14","69.11","CAMBRIDGE BAY A","2400603","2019-01-03 00:00","2019","01","03","00:00","-25.5","","-29.1","","72","","","M","8","","28","","","M","98.73","","","","-39","","NA"
"-105.14","69.11","CAMBRIDGE BAY A","2400603","2019-01-03 01:00","2019","01","03","01:00","-24.8","","-28.3","","73","","","M","7","","26","","","M","98.73","","","","-38","","NA"
"-105.14","69.11","CAMBRIDGE BAY A","2400603","2019-01-03 02:00","2019","01","03","02:00","-22.6","","-25.9","","75","","","M","8","","30","","","M","98.77","","","","-36","","NA"
"-105.14","69.11","CAMBRIDGE BAY A","2400603","2019-01-03 03:00","2019","01","03","03:00","-21.9","","-25.2","","75","","","M","9","","30","","","M","98.78","","","","-35","","NA"
"-105.14","69.11","CAMBRIDGE BAY A","2400603","2019-01-03 04:00","2019","01","03","04:00","-21.7","","-24.9","","75","","","M","9","","29","","","M","98.83","","","","-35","","NA"
"-105.14","69.11","CAMBRIDGE BAY A","2400603","2019-01-03 05:00","2019","01","03","05:00","-21.2","","-24.5","","75","","","M","8","","28","","","M","98.86","","","","-34","","NA"
"-105.14","69.11","CAMBRIDGE BAY A","2400603","2019-01-03 06:00","2019","01","03","06:00","-20.5","","-23.8","","75","","","M","7","","26","","","M","98.91","","","","-32","","NA"
"-105.14","69.11","CAMBRIDGE BAY A","2400603","2019-01-03 07:00","2019","01","03","07:00","-20.2","","-23.4","","76","","","M","7","","27","","","M","98.96","","","","-32","","NA"
"-105.14","69.11","CAMBRIDGE BAY A","2400603","2019-01-03 08:00","2019","01","03","08:00","-20.4","","-23.7","","76","","","M","7","","28","","","M","98.98","","","","-33","","NA"
"-105.14","69.11","CAMBRIDGE BAY A","2400603","2019-01-03 09:00","2019","01","03","09:00","-20.1","","-23.3","","76","","","M","6","","24","","","M","99.06","","","","-32","","NA"
"-105.14","69.11","CAMBRIDGE BAY A","2400603","2019-01-03 10:00","2019","01","03","10:00","-19.9","","-23.0","","76","","","M","7","","25","","","M","99.11","","","","-31","","NA"
"-105.14","69.11","CAMBRIDGE BAY A","2400603","2019-01-03 11:00","2019","01","03","11:00","-19.6","","-22.7","","77","","","M","7","","21","","","M","99.16","","","","-30","","NA"
"-105.14","69.11","CAMBRIDGE BAY A","2400603","2019-01-03 12:00","2019","01","03","12:00","-19.6","","-22.8","","76","","","M","7","","19","","","M","99.25","","","","-30","","NA"
"-105.14","69.11","CAMBRIDGE BAY A","2400603","2019-01-03 13:00","2019","01","03","13:00","-19.2","","-22.4","","76","","","M","8","","19","","","M","99.34","","","","-29","","NA"
"-105.14","69.11","CAMBRIDGE BAY A","2400603","2019-01-03 14:00","2019","01","03","14:00","-19.2","","-22.4","","76","","","M","9","","21","","","M","99.43","","","","-30","","NA"
"-105.14","69.11","CAMBRIDGE BAY A","2400603","2019-01-03 15:00","2019","01","03","15:00","-19.2","","-22.4","","76","","","M","8","","19","","","M","99.54","","","","-29","","NA"
"-105.14","69.11","CAMBRIDGE BAY A","2400603","2019-01-03 16:00","2019","01","03","16:00","-19.2","","-22.4","","76","","","M","6","","20","","","M","99.63","","","","-29","","NA"
"-105.14","69.11","CAMBRIDGE BAY A","2400603","2019-01-03 17:00","2019","01","03","17:00","-19.3","","-22.5","","76","","","M","5","","17","","","M","99.75","","","","-29","","NA"
"-105.14","69.11","CAMBRIDGE BAY A","2400603","2019-01-03 18:00","2019","01","03","18:00","-19.4","","-22.6","","76","","","M","7","","21","","","M","99.82","","","","-30","","NA"
"-105.14","69.11","CAMBRIDGE BAY A","2400603","2019-01-03 19:00","2019","01","03","19:00","-19.4","","-22.6","","76","","","M","7","","20","","","M","99.88","","","","-30","","NA"
"-105.14","69.11","CAMBRIDGE BAY A","2400603","2019-01-03 20:00","2019","01","03","20:00","-20.0","","-23.2","","76","","","M","7","","22","","","M","99.95","","","","-31","","NA"
"-105.14","69.11","CAMBRIDGE BAY A","2400603","2019-01-03 21:00","2019","01","03","21:00","-20.4","","-23.6","","76","","","M","7","","23","","","M","100.04","","","","-32","","NA"
"-105.14","69.11","CAMBRIDGE BAY A","2400603","2019-01-03 22:00","2019","01","03","22:00","-20.3","","-23.6","","76","","","M","5","","11","","","M","100.11","","","","-28","","NA"
"-105.14","69.11","CAMBRIDGE BAY A","2400603","2019-01-03 23:00","2019","01","03","23:00","-20.8","","-24.1","","75","","","M","5","","18","","","M","100.15","","","","-31","","NA"
"-105.14","69.11","CAMBRIDGE BAY A","2400603","2019-01-04 00:00","2019","01","04","00:00","-21.9","","-25.3","","75","","","M","4","","20","","","M","100.22","","","","-33","","NA"
"-105.14","69.11","CAMBRIDGE BAY A","2400603","2019-01-04 01:00","2019","01","04","01:00","-23.2","","-26.8","","73","","","M","3","","30","","","M","100.28","","","","-37","","NA"
"-105.14","69.11","CAMBRIDGE BAY A","2400603","2019-01-04 02:00","2019","01","04","02:00","-24.0","","-27.7","","72","","","M","3","","28","","","M","100.34","","","","-37","","NA"
"-105.14","69.11","CAMBRIDGE BAY A","2400603","2019-01-04 03:00","2019","01","04","03:00","-24.3","","-28.1","","71","","","M","4","","25","","","M","100.36","","","","-37","","NA"
"-105.14","69.11","CAMBRIDGE BAY A","2400603","2019-01-04 04:00","2019","01","04","04:00","-24.4","","-28.3","","71","","","M","3","","17","","","M","100.38","","","","-35","","NA"
"-105.14","69.11","CAMBRIDGE BAY A","2400603","2019-01-04 05:00","2019","01","04","05:00","-25.5","","-29.4","","70","","","M","4","","21","","","M","100.41","","","","-38","","NA"
"-105.14","69.11","CAMBRIDGE BAY A","2400603","2019-01-04 06:00","2019","01","04","06:00","-26.7","","-30.7","","70","","","M","4","","22","","","M","100.42","","","","-39","","NA"
"-105.14","69.11","CAMBRIDGE BAY A","2400603","2019-01-04 07:00","2019","01","04","07:00","-27.4","","-31.5","","69","","","M","2","","25","","","M","100.45","","","","-41","","NA"
"-105.14","69.11","CAMBRIDGE BAY A","2400603","2019-01-04 08:00","2019","01","04","08:00","-27.3","","-31.5","","68","","","M","1","","18","","","M","100.47","","","","-39","","NA"
"-105.14","69.11","CAMBRIDGE BAY A","2400603","2019-01-04 09:00","2019","01","04","09:00","-27.1","","-30.9","","70","","","M","2","","4","","","M","100.48","","","","-31","","NA"
"-105.14","69.11","CAMBRIDGE BAY A","2400603","2019-01-04 10:00","2019","01","04","10:00","-26.8","","-30.8","","70","","","M","1","","9","","","M","100.50","","","","-35","","NA"
"-105.14","69.11","CAMBRIDGE BAY A","2400603","2019-01-04 11:00","2019","01","04","11:00","-25.9","","-29.8","","71","","","M","1","","12","","","M","100.49","","","","-35","","NA"
"-105.14","69.11","CAMBRIDGE BAY A","2400603","2019-01-04 12:00","2019","01","04","12:00","-25.7","","-29.7","","70","","","M","36","","15","","","M","100.48","","","","-36","","NA"
"-105.14","69.11","CAMBRIDGE BAY A","2400603","2019-01-04 13:00","2019","01","04","13:00","-25.8","","-29.8","","69","","","M","36","","7","","","M","100.51","","","","-32","","NA"
"-105.14","69.11","CAMBRIDGE BAY A","2400603","2019-01-04 14:00","2019","01","04","14:00","-25.7","","-29.8","","69","","","M","35","","10","","","M","100.53","","","","-34","","NA"
"-105.14","69.11","CAMBRIDGE BAY A","2400603","2019-01-04 15:00","2019","01","04","15:00","-25.9","","-29.9","","69","","","M","2","","15","","","M","100.53","","","","-36","","NA"
"-105.14","69.11","CAMBRIDGE BAY A","2400603","2019-01-04 16:00","2019","01","04","16:00","-25.9","","-29.9","","70","","","M","2","","13","","","M","100.51","","","","-36","","NA"
"-105.14","69.11","CAMBRIDGE BAY A","2400603","2019-01-04 17:00","2019","01","04","17:00","-25.4","","-29.4","","70","","","M","35","","5","","","M","100.51","","","","-30","","NA"
"-105.14","69.11","CAMBRIDGE BAY A","2400603","2019-01-04 18:00","2019","01","04","18:00","-24.9","","-28.4","","73","","","M","34","","9","","","M","100.52","","","","-33","","NA"
"-105.14","69.11","CAMBRIDGE BAY A","2400603","2019-01-04 19:00","2019","01","04","19:00","-25.7","","-29.4","","72","","","M","29","","10","","","M","100.53","","","","-34","","NA"
"-105.14","69.11","CAMBRIDGE BAY A","2400603","2019-01-04 20:00","2019","01","04","20:00","-25.5","","-29.1","","72","","","M","32","","14","","","M","100.52","","","","-35","","NA"
"-105.14","69.11","CAMBRIDGE BAY A","2400603","2019-01-04 21:00","2019","01","04","21:00","-26.1","","-29.8","","72","","","M","34","","6","","","M","100.52","","","","-32","","NA"
"-105.14","69.11","CAMBRIDGE BAY A","2400603","2019-01-04 22:00","2019","01","04","22:00","-27.6","","-31.2","","72","","","M","33","","12","","","M","100.51","","","","-37","","NA"
"-105.14","69.11","CAMBRIDGE BAY A","2400603","2019-01-04 23:00","2019","01","04","23:00","-28.2","","-32.0","","71","","","M","33","","12","","","M","100.52","","","","-38","","NA"
"-105.14","69.11","CAMBRIDGE BAY A","2400603","2019-01-05 00:00","2019","01","05","00:00","-28.3","","-32.0","","71","","","M","33","","14","","","M","100.53","","","","-39","","NA"
"-105.14","69.11","CAMBRIDGE BAY A","2400603","2019-01-05 01:00","2019","01","05","01:00","-29.3","","-33.1","","71","","","M","32","","11","","","M","100.55","","","","-39","","NA"
"-105.14","69.11","CAMBRIDGE BAY A","2400603","2019-01-05 02:00","2019","01","05","02:00","-28.3","","-31.9","","72","","","M","36","","8","","","M","100.56","","","","-36","","NA"
"-105.14","69.11","CAMBRIDGE BAY A","2400603","2019-01-05 03:00","2019","01","05","03:00","-29.6","","-33.4","","70","","","M","2","","9","","","M","100.57","","","","-38","","NA"
"-105.14","69.11","CAMBRIDGE BAY A","2400603","2019-01-05 04:00","2019","01","05","04:00","-32.6","","-36.5","","69","","","M","4","","11","","","M","100.56","","","","-43","","NA"
"-105.14","69.11","CAMBRIDGE BAY A","2400603","2019-01-05 05:00","2019","01","05","05:00","-31.5","","-35.4","","70","","","M","6","","3","","","M","100.56","","","","-35","","NA"
"-105.14","69.11","CAMBRIDGE BAY A","2400603","2019-01-05 06:00","2019","01","05","06:00","-31.4","","-35.3","","69","","","M","1","","4","","","M","100.57","","","","-36","","NA"
"-105.14","69.11","CAMBRIDGE BAY A","2400603","2019-01-05 07:00","2019","01","05","07:00","-30.6","","-34.6","","69","","","M","22","","3","","","M","100.55","","","","-34","","NA"
"-105.14","69.11","CAMBRIDGE BAY A","2400603","2019-01-05 08:00","2019","01","05","08:00","-30.9","","-34.9","","69","","","M","10","","2","","","M","100.55","","","","-33","","NA"
"-105.14","69.11","CAMBRIDGE BAY A","2400603","2019-01-05 09:00","2019","01","05","09:00","-31.3","","-35.3","","69","","","M","11","","3","","","M","100.54","","","","-35","","NA"
"-105.14","69.11","CAMBRIDGE BAY A","2400603","2019-01-05 10:00","2019","01","05","10:00","-30.1","","-33.9","","70","","","M","16","","5","","","M","100.50","","","","-36","","NA"
"-105.14","69.11","CAMBRIDGE BAY A","2400603","2019-01-05 11:00","2019","01","05","11:00","-28.9","","-32.7","","70","","","M","12","","3","","","M","100.49","","","","-32","","NA"
"-105.14","69.11","CAMBRIDGE BAY A","2400603","2019-01-05 12:00","2019","01","05","12:00","-27.7","","-31.4","","71","","","M","18","","4","","","M","100.48","","","","-32","","NA"
"-105.14","69.11","CAMBRIDGE BAY A","2400603","2019-01-05 13:00","2019","01","05","13:00","-26.6","","-30.3","","71","","","M","21","","7","","","M","100.45","","","","-33","","NA"
"-105.14","69.11","CAMBRIDGE BAY A","2400603","2019-01-05 14:00","2019","01","05","14:00","-27.0","","-30.7","","71","","","M","16","","6","","","M","100.46","","","","-33","","NA"
"-105.14","69.11","CAMBRIDGE BAY A","2400603","2019-01-05 15:00","2019","01","05","15:00","-27.4","","-31.0","","72","","","M","19","","10","","","M","100.42","","","","-36","","NA"
"-105.14","69.11","CAMBRIDGE BAY A","2400603","2019-01-05 16:00","2019","01","05","16:00","-25.4","","-29.0","","73","","","M","20","","10","","","M","100.41","","","","-34","","NA"
"-105.14","69.11","CAMBRIDGE BAY A","2400603","2019-01-05 17:00","2019","01","05","17:00","-24.6","","-28.2","","72","","","M","21","","8","","","M","100.38","","","","-32","","NA"
"-105.14","69.11","CAMBRIDGE BAY A","2400603","2019-01-05 18:00","2019","01","05","18:00","-24.3","","-27.8","","73","","","M","23","","5","","","M","100.33","","","","-29","","NA"
"-105.14","69.11","CAMBRIDGE BAY A","2400603","2019-01-05 19:00","2019","01","05","19:00","-24.9","","-28.4","","73","","","M","26","","5","","","M","100.29","","","","-30","","NA"
"-105.14","69.11","CAMBRIDGE BAY A","2400603","2019-01-05 20:00","2019","01","05","20:00","-26.6","","-30.2","","72","","","M","29","","7","","","M","100.31","","","","-33","","NA"
"-105.14","69.11","CAMBRIDGE BAY A","2400603","2019-01-05 21:00","2019","01","05","21:00","-29.7","","-33.5","","70","","","M","31","","6","","","M","100.29","","","","-36","","NA"
"-105.14","69.11","CAMBRIDGE BAY A","2400603","2019-01-05 22:00","2019","01","05","22:00","-29.0","","-32.8","","70","","","M","23","","12","","","M","100.26","","","","-39","","NA"
"-105.14","69.11","CAMBRIDGE BAY A","2400603","2019-01-05 23:00","2019","01","05","23:00","-30.7","","-34.6","","69","","","M","31","","13","","","M","100.29","","","","-41","","NA"
"-105.14","69.11","CAMBRIDGE BAY A","2400603","2019-01-06 00:00","2019","01","06","00:00","-31.5","","-35.5","","68","","","M","36","","13","","","M","100.29","","","","-42","","NA"
"-105.14","69.11","CAMBRIDGE BAY A","2400603","2019-01-06 01:00","2019","01","06","01:00","-33.2","","-37.4","","67","","","M","36","","14","","","M","100.31","","","","-45","","NA"
"-105.14","69.11","CAMBRIDGE BAY A","2400603","2019-01-06 02:00","2019","01","06","02:00","-34.4","","-38.6","","67","","","M","2","","21","","","M","100.34","","","","-49","","NA"
"-105.14","69.11","CAMBRIDGE BAY A","2400603","2019-01-06 03:00","2019","01","06","03:00","-35.5","","-39.8","","66","","","M","2","","23","","","M","100.36","","","","-51","","NA"
"-105.14","69.11","CAMBRIDGE BAY A","2400603","2019-01-06 04:00","2019","01","06","04:00","-36.1","","-40.5","","65","","","M","2","","16","","","M","100.38","","","","-49","","NA"
"-105.14","69.11","CAMBRIDGE BAY A","2400603","2019-01-06 05:00","2019","01","06","05:00","-36.0","","-40.4","","65","","","M","2","","21","","","M","100.46","","","","-51","","NA"
"-105.14","69.11","CAMBRIDGE BAY A","2400603","2019-01-06 06:00","2019","01","06","06:00","-35.7","","-40.1","","65","","","M","2","","22","","","M","100.51","","","","-51","","NA"
"-105.14","69.11","CAMBRIDGE BAY A","2400603","2019-01-06 07:00","2019","01","06","07:00","-35.8","","-40.1","","65","","","M","35","","13","","","M","100.53","","","","-48","","NA"
"-105.14","69.11","CAMBRIDGE BAY A","2400603","2019-01-06 08:00","2019","01","06","08:00","-35.2","","-39.6","","65","","","M","35","","6","","","M","100.57","","","","-42","","NA"
"-105.14","69.11","CAMBRIDGE BAY A","2400603","2019-01-06 09:00","2019","01","06","09:00","-35.3","","-39.7","","65","","","M","27","","7","","","M","100.65","","","","-43","","NA"
"-105.14","69.11","CAMBRIDGE BAY A","2400603","2019-01-06 10:00","2019","01","06","10:00","-36.2","","-40.6","","65","","","M","30","","11","","","M","100.70","","","","-47","","NA"
"-105.14","69.11","CAMBRIDGE BAY A","2400603","2019-01-06 11:00","2019","01","06","11:00","-35.9","","-40.3","","65","","","M","31","","10","","","M","100.71","","","","-46","","NA"
"-105.14","69.11","CAMBRIDGE BAY A","2400603","2019-01-06 12:00","2019","01","06","12:00","-35.7","","-40.1","","65","","","M","27","","11","","","M","100.73","","","","-47","","NA"
"-105.14","69.11","CAMBRIDGE BAY A","2400603","2019-01-06 13:00","2019","01","06","13:00","-35.5","","-39.9","","65","","","M","26","","9","","","M","100.75","","","","-45","","NA"
"-105.14","69.11","CAMBRIDGE BAY A","2400603","2019-01-06 14:00","2019","01","06","14:00","-35.3","","-39.6","","66","","","M","28","","9","","","M","100.79","","","","-45","","NA"
"-105.14","69.11","CAMBRIDGE BAY A","2400603","2019-01-06 15:00","2019","01","06","15:00","-35.1","","-39.5","","65","","","M","28","","10","","","M","100.79","","","","-45","","NA"
"-105.14","69.11","CAMBRIDGE BAY A","2400603","2019-01-06 16:00","2019","01","06","16:00","-35.3","","-39.7","","66","","","M","25","","10","","","M","100.82","","","","-45","","NA"
"-105.14","69.11","CAMBRIDGE BAY A","2400603","2019-01-06 17:00","2019","01","06","17:00","-35.1","","-39.5","","65","","","M","28","","9","","","M","100.82","","","","-45","","NA"
"-105.14","69.11","CAMBRIDGE BAY A","2400603","2019-01-06 18:00","2019","01","06","18:00","-34.0","","-38.4","","66","","","M","27","","7","","","M","100.81","","","","-42","","NA"
"-105.14","69.11","CAMBRIDGE BAY A","2400603","2019-01-06 19:00","2019","01","06","19:00","-33.2","","-37.6","","66","","","M","0","","1","","","M","100.81","","","","-34","","NA"
"-105.14","69.11","CAMBRIDGE BAY A","2400603","2019-01-06 20:00","2019","01","06","20:00","-33.3","","-37.6","","66","","","M","8","","5","","","M","100.84","","","","-39","","NA"
"-105.14","69.11","CAMBRIDGE BAY A","2400603","2019-01-06 21:00","2019","01","06","21:00","-32.8","","-37.1","","66","","","M","7","","9","","","M","100.80","","","","-42","","NA"
"-105.14","69.11","CAMBRIDGE BAY A","2400603","2019-01-06 22:00","2019","01","06","22:00","-33.2","","-37.5","","66","","","M","13","","7","","","M","100.82","","","","-41","","NA"
"-105.14","69.11","CAMBRIDGE BAY A","2400603","2019-01-06 23:00","2019","01","06","23:00","-32.9","","-37.1","","67","","","M","7","","7","","","M","100.80","","","","-41","","NA"
"-105.14","69.11","CAMBRIDGE BAY A","2400603","2019-01-07 00:00","2019","01","07","00:00","-32.7","","-37.0","","67","","","M","4","","19","","","M","100.85","","","","-46","","NA"
"-105.14","69.11","CAMBRIDGE BAY A","2400603","2019-01-07 01:00","2019","01","07","01:00","-32.5","","-36.9","","66","","","M","5","","14","","","M","100.89","","","","-44","","NA"
"-105.14","69.11","CAMBRIDGE BAY A","2400603","2019-01-07 02:00","2019","01","07","02:00","-32.6","","-36.9","","66","","","M","4","","15","","","M","100.92","","","","-45","","NA"
"-105.14","69.11","CAMBRIDGE BAY A","2400603","2019-01-07 03:00","2019","01","07","03:00","-34.5","","-38.9","","66","","","M","2","","17","","","M","100.98","","","","-48","","NA"
"-105.14","69.11","CAMBRIDGE BAY A","2400603","2019-01-07 04:00","2019","01","07","04:00","-35.0","","-39.3","","66","","","M","2","","23","","","M","101.02","","","","-50","","NA"
"-105.14","69.11","CAMBRIDGE BAY A","2400603","2019-01-07 05:00","2019","01","07","05:00","-35.8","","-40.1","","65","","","M","3","","18","","","M","101.08","","","","-50","","NA"
"-105.14","69.11","CAMBRIDGE BAY A","2400603","2019-01-07 06:00","2019","01","07","06:00","-34.5","","-38.9","","66","","","M","3","","16","","","M","101.14","","","","-47","","NA"
"-105.14","69.11","CAMBRIDGE BAY A","2400603","2019-01-07 07:00","2019","01","07","07:00","-34.5","","-39.0","","65","","","M","36","","17","","","M","101.21","","","","-48","","NA"
"-105.14","69.11","CAMBRIDGE BAY A","2400603","2019-01-07 08:00","2019","01","07","08:00","-36.1","","-40.6","","64","","","M","36","","13","","","M","101.28","","","","-48","","NA"
"-105.14","69.11","CAMBRIDGE BAY A","2400603","2019-01-07 09:00","2019","01","07","09:00","-36.6","","-41.2","","64","","","M","36","","11","","","M","101.35","","","","-48","","NA"
"-105.14","69.11","CAMBRIDGE BAY A","2400603","2019-01-07 10:00","2019","01","07","10:00","-37.4","","-41.9","","64","","","M","31","","12","","","M","101.42","","","","-49","","NA"
"-105.14","69.11","CAMBRIDGE BAY A","2400603","2019-01-07 11:00","2019","01","07","11:00","-38.5","","-43.1","","63","","","M","28","","14","","","M","101.46","","","","-51","","NA"
"-105.14","69.11","CAMBRIDGE BAY A","2400603","2019-01-07 12:00","2019","01","07","12:00","-38.5","","-43.1","","63","","","M","31","","22","","","M","101.49","","","","-54","","NA"
"-105.14","69.11","CAMBRIDGE BAY A","2400603","2019-01-07 13:00","2019","01","07","13:00","-38.0","","-42.6","","63","","","M","32","","27","","","M","101.52","","","","-55","","NA"
"-105.14","69.11","CAMBRIDGE BAY A","2400603","2019-01-07 14:00","2019","01","07","14:00","-37.7","","-42.3","","64","","","M","31","","27","","","M","101.53","","","","-55","","NA"
"-105.14","69.11","CAMBRIDGE BAY A","2400603","2019-01-07 15:00","2019","01","07","15:00","-36.8","","-41.4","","64","","","M","31","","30","","","M","101.58","","","","-54","","NA"
"-105.14","69.11","CAMBRIDGE BAY A","2400603","2019-01-07 16:00","2019","01","07","16:00","-36.9","","-41.5","","63","","","M","29","","25","","","M","101.62","","","","-53","","NA"
"-105.14","69.11","CAMBRIDGE BAY A","2400603","2019-01-07 17:00","2019","01","07","17:00","-37.3","","-41.8","","64","","","M","27","","22","","","M","101.67","","","","-53","","NA"
"-105.14","69.11","CAMBRIDGE BAY A","2400603","2019-01-07 18:00","2019","01","07","18:00","-37.3","","-41.8","","64","","","M","30","","26","","","M","101.68","","","","-54","","NA"
"-105.14","69.11","CAMBRIDGE BAY A","2400603","2019-01-07 19:00","2019","01","07","19:00","-37.1","","-41.6","","64","","","M","27","","21","","","M","101.70","","","","-52","","NA"
"-105.14","69.11","CAMBRIDGE BAY A","2400603","2019-01-07 20:00","2019","01","07","20:00","-36.5","","-41.0","","64","","","M","28","","20","","","M","101.68","","","","-51","","NA"
"-105.14","69.11","CAMBRIDGE BAY A","2400603","2019-01-07 21:00","2019","01","07","21:00","-35.4","","-39.9","","65","","","M","26","","14","","","M","101.73","","","","-48","","NA"
"-105.14","69.11","CAMBRIDGE BAY A","2400603","2019-01-07 22:00","2019","01","07","22:00","-36.0","","-40.4","","65","","","M","27","","18","","","M","101.74","","","","-50","","NA"
"-105.14","69.11","CAMBRIDGE BAY A","2400603","2019-01-07 23:00","2019","01","07","23:00","-35.8","","-40.2","","65","","","M","28","","29","","","M","101.75","","","","-53","","NA"
"-105.14","69.11","CAMBRIDGE BAY A","2400603","2019-01-08 00:00","2019","01","08","00:00","-35.1","","-39.5","","65","","","M","28","","28","","","M","101.77","","","","-52","","NA"
"-105.14","69.11","CAMBRIDGE BAY A","2400603","2019-01-08 01:00","2019","01","08","01:00","-34.6","","-39.0","","65","","","M","28","","30","","","M","101.78","","","","-52","","NA"
"-105.14","69.11","CAMBRIDGE BAY A","2400603","2019-01-08 02:00","2019","01","08","02:00","-34.7","","-39.1","","65","","","M","29","","23","","","M","101.83","","","","-50","","NA"
"-105.14","69.11","CAMBRIDGE BAY A","2400603","2019-01-08 03:00","2019","01","08","03:00","-34.9","","-39.4","","65","","","M","31","","17","","","M","101.86","","","","-48","","NA"
"-105.14","69.11","CAMBRIDGE BAY A","2400603","2019-01-08 04:00","2019","01","08","04:00","-34.8","","-39.2","","65","","","M","29","","19","","","M","101.90","","","","-49","","NA"
"-105.14","69.11","CAMBRIDGE BAY A","2400603","2019-01-08 05:00","2019","01","08","05:00","-33.2","","-37.6","","66","","","M","30","","23","","","M","101.93","","","","-48","","NA"
"-105.14","69.11","CAMBRIDGE BAY A","2400603","2019-01-08 06:00","2019","01","08","06:00","-32.3","","-36.7","","66","","","M","31","","16","","","M","101.96","","","","-45","","NA"
"-105.14","69.11","CAMBRIDGE BAY A","2400603","2019-01-08 07:00","2019","01","08","07:00","-32.2","","-36.6","","66","","","M","28","","17","","","M","102.01","","","","-45","","NA"
"-105.14","69.11","CAMBRIDGE BAY A","2400603","2019-01-08 08:00","2019","01","08","08:00","-33.2","","-37.7","","65","","","M","28","","17","","","M","102.05","","","","-46","","NA"
"-105.14","69.11","CAMBRIDGE BAY A","2400603","2019-01-08 09:00","2019","01","08","09:00","-34.3","","-38.7","","65","","","M","28","","18","","","M","102.10","","","","-48","","NA"
"-105.14","69.11","CAMBRIDGE BAY A","2400603","2019-01-08 10:00","2019","01","08","10:00","-34.7","","-39.1","","65","","","M","28","","15","","","M","102.14","","","","-47","","NA"
"-105.14","69.11","CAMBRIDGE BAY A","2400603","2019-01-08 11:00","2019","01","08","11:00","-35.1","","-39.6","","65","","","M","32","","22","","","M","102.15","","","","-50","","NA"
"-105.14","69.11","CAMBRIDGE BAY A","2400603","2019-01-08 12:00","2019","01","08","12:00","-35.5","","-40.0","","65","","","M","30","","17","","","M","102.20","","","","-49","","NA"
"-105.14","69.11","CAMBRIDGE BAY A","2400603","2019-01-08 13:00","2019","01","08","13:00","-35.1","","-39.6","","65","","","M","27","","12","","","M","102.23","","","","-46","","NA"
"-105.14","69.11","CAMBRIDGE BAY A","2400603","2019-01-08 14:00","2019","01","08","14:00","-35.3","","-39.8","","65","","","M","27","","14","","","M","102.26","","","","-48","","NA"
"-105.14","69.11","CAMBRIDGE BAY A","2400603","2019-01-08 15:00","2019","01","08","15:00","-35.6","","-40.0","","65","","","M","27","","15","","","M","102.31","","","","-48","","NA"
"-105.14","69.11","CAMBRIDGE BAY A","2400603","2019-01-08 16:00","2019","01","08","16:00","-35.1","","-39.5","","65","","","M","28","","13","","","M","102.34","","","","-47","","NA"
"-105.14","69.11","CAMBRIDGE BAY A","2400603","2019-01-08 17:00","2019","01","08","17:00","-35.1","","-39.6","","65","","","M","26","","10","","","M","102.35","","","","-45","","NA"
"-105.14","69.11","CAMBRIDGE BAY A","2400603","2019-01-08 18:00","2019","01","08","18:00","-35.5","","-39.9","","65","","","M","26","","14","","","M","102.37","","","","-48","","NA"
"-105.14","69.11","CAMBRIDGE BAY A","2400603","2019-01-08 19:00","2019","01","08","19:00","-34.2","","-38.5","","66","","","M","27","","12","","","M","102.37","","","","-45","","NA"
"-105.14","69.11","CAMBRIDGE BAY A","2400603","2019-01-08 20:00","2019","01","08","20:00","-33.9","","-38.3","","66","","","M","26","","16","","","M","102.39","","","","-47","","NA"
"-105.14","69.11","CAMBRIDGE BAY A","2400603","2019-01-08 21:00","2019","01","08","21:00","-33.9","","-38.3","","66","","","M","26","","5","","","M","102.41","","","","-40","","NA"
"-105.14","69.11","CAMBRIDGE BAY A","2400603","2019-01-08 22:00","2019","01","08","22:00","-33.0","","-37.3","","67","","","M","26","","10","","","M","102.45","","","","-43","","NA"
"-105.14","69.11","CAMBRIDGE BAY A","2400603","2019-01-08 23:00","2019","01","08","23:00","-32.4","","-36.6","","67","","","M","26","","12","","","M","102.46","","","","-43","","NA"
"-105.14","69.11","CAMBRIDGE BAY A","2400603","2019-01-09 00:00","2019","01","09","00:00","-32.8","","-37.0","","67","","","M","26","","12","","","M","102.51","","","","-44","","NA"
"-105.14","69.11","CAMBRIDGE BAY A","2400603","2019-01-09 01:00","2019","01","09","01:00","-32.2","","-36.5","","67","","","M","27","","12","","","M","102.53","","","","-43","","NA"
"-105.14","69.11","CAMBRIDGE BAY A","2400603","2019-01-09 02:00","2019","01","09","02:00","-32.5","","-37.0","","65","","","M","28","","16","","","M","102.58","","","","-45","","NA"
"-105.14","69.11","CAMBRIDGE BAY A","2400603","2019-01-09 03:00","2019","01","09","03:00","-31.6","","-36.1","","65","","","M","28","","16","","","M","102.61","","","","-44","","NA"
"-105.14","69.11","CAMBRIDGE BAY A","2400603","2019-01-09 04:00","2019","01","09","04:00","-31.4","","-35.9","","66","","","M","28","","20","","","M","102.63","","","","-45","","NA"
"-105.14","69.11","CAMBRIDGE BAY A","2400603","2019-01-09 05:00","2019","01","09","05:00","-31.7","","-36.2","","65","","","M","29","","14","","","M","102.66","","","","-43","","NA"
"-105.14","69.11","CAMBRIDGE BAY A","2400603","2019-01-09 06:00","2019","01","09","06:00","-32.4","","-37.0","","64","","","M","30","","7","","","M","102.69","","","","-40","","NA"
"-105.14","69.11","CAMBRIDGE BAY A","2400603","2019-01-09 07:00","2019","01","09","07:00","-34.3","","-38.9","","64","","","M","31","","13","","","M","102.73","","","","-46","","NA"
"-105.14","69.11","CAMBRIDGE BAY A","2400603","2019-01-09 08:00","2019","01","09","08:00","-35.4","","-40.0","","64","","","M","31","","12","","","M","102.78","","","","-47","","NA"
"-105.14","69.11","CAMBRIDGE BAY A","2400603","2019-01-09 09:00","2019","01","09","09:00","-35.9","","-40.4","","64","","","M","33","","14","","","M","102.84","","","","-48","","NA"
"-105.14","69.11","CAMBRIDGE BAY A","2400603","2019-01-09 10:00","2019","01","09","10:00","-36.0","","-40.6","","64","","","M","35","","10","","","M","102.89","","","","-46","","NA"
"-105.14","69.11","CAMBRIDGE BAY A","2400603","2019-01-09 11:00","2019","01","09","11:00","-35.0","","-39.5","","64","","","M","1","","8","","","M","102.92","","","","-44","","NA"
"-105.14","69.11","CAMBRIDGE BAY A","2400603","2019-01-09 12:00","2019","01","09","12:00","-35.5","","-40.1","","64","","","M","2","","4","","","M","102.98","","","","-41","","NA"
"-105.14","69.11","CAMBRIDGE BAY A","2400603","2019-01-09 13:00","2019","01","09","13:00","-36.4","","-40.8","","64","","","M","3","","7","","","M","103.02","","","","-45","","NA"
"-105.14","69.11","CAMBRIDGE BAY A","2400603","2019-01-09 14:00","2019","01","09","14:00","-36.6","","-40.9","","65","","","M","28","","4","","","M","103.08","","","","-42","","NA"
"-105.14","69.11","CAMBRIDGE BAY A","2400603","2019-01-09 15:00","2019","01","09","15:00","-36.4","","-40.7","","65","","","M","34","","4","","","M","103.11","","","","-42","","NA"
"-105.14","69.11","CAMBRIDGE BAY A","2400603","2019-01-09 16:00","2019","01","09","16:00","-36.7","","-41.0","","66","","","M","30","","3","","","M","103.17","","","","-41","","NA"
"-105.14","69.11","CAMBRIDGE BAY A","2400603","2019-01-09 17:00","2019","01","09","17:00","-37.3","","-41.6","","65","","","M","32","","2","","","M","103.20","","","","-40","","NA"
"-105.14","69.11","CAMBRIDGE BAY A","2400603","2019-01-09 18:00","2019","01","09","18:00","-36.9","","-41.2","","66","","","M","1","","8","","","M","103.23","","","","-46","","NA"
"-105.14","69.11","CAMBRIDGE BAY A","2400603","2019-01-09 19:00","2019","01","09","19:00","-37.4","","-41.6","","66","","","M","4","","10","","","M","103.25","","","","-48","","NA"
"-105.14","69.11","CAMBRIDGE BAY A","2400603","2019-01-09 20:00","2019","01","09","20:00","-37.2","","-41.5","","65","","","M","5","","6","","","M","103.29","","","","-45","","NA"
"-105.14","69.11","CAMBRIDGE BAY A","2400603","2019-01-09 21:00","2019","01","09","21:00","-36.9","","-41.2","","65","","","M","2","","6","","","M","103.30","","","","-44","","NA"
"-105.14","69.11","CAMBRIDGE BAY A","2400603","2019-01-09 22:00","2019","01","09","22:00","-37.0","","-41.2","","66","","","M","1","","9","","","M","103.34","","","","-47","","NA"
"-105.14","69.11","CAMBRIDGE BAY A","2400603","2019-01-09 23:00","2019","01","09","23:00","-36.7","","-41.0","","65","","","M","1","","9","","","M","103.35","","","","-47","","NA"
"-105.14","69.11","CAMBRIDGE BAY A","2400603","2019-01-10 00:00","2019","01","10","00:00","-37.4","","-41.8","","65","","","M","2","","14","","","M","103.36","","","","-50","","NA"
"-105.14","69.11","CAMBRIDGE BAY A","2400603","2019-01-10 01:00","2019","01","10","01:00","-37.7","","-42.1","","65","","","M","2","","12","","","M","103.41","","","","-49","","NA"
"-105.14","69.11","CAMBRIDGE BAY A","2400603","2019-01-10 02:00","2019","01","10","02:00","-38.7","","-43.1","","64","","","M","3","","14","","","M","103.44","","","","-52","","NA"
"-105.14","69.11","CAMBRIDGE BAY A","2400603","2019-01-10 03:00","2019","01","10","03:00","-37.9","","-42.4","","64","","","M","2","","9","","","M","103.48","","","","-48","","NA"
"-105.14","69.11","CAMBRIDGE BAY A","2400603","2019-01-10 04:00","2019","01","10","04:00","-38.0","","-42.5","","64","","","M","2","","9","","","M","103.50","","","","-48","","NA"
"-105.14","69.11","CAMBRIDGE BAY A","2400603","2019-01-10 05:00","2019","01","10","05:00","-39.1","","-43.6","","63","","","M","3","","10","","","M","103.50","","","","-50","","NA"
"-105.14","69.11","CAMBRIDGE BAY A","2400603","2019-01-10 06:00","2019","01","10","06:00","-38.1","","-42.5","","64","","","M","2","","14","","","M","103.49","","","","-51","","NA"
"-105.14","69.11","CAMBRIDGE BAY A","2400603","2019-01-10 07:00","2019","01","10","07:00","-39.9","","-44.5","","63","","","M","3","","14","","","M","103.48","","","","-53","","NA"
"-105.14","69.11","CAMBRIDGE BAY A","2400603","2019-01-10 08:00","2019","01","10","08:00","-39.4","","-43.9","","64","","","M","2","","14","","","M","103.50","","","","-53","","NA"
"-105.14","69.11","CAMBRIDGE BAY A","2400603","2019-01-10 09:00","2019","01","10","09:00","-39.6","","-44.1","","63","","","M","4","","10","","","M","103.51","","","","-51","","NA"
"-105.14","69.11","CAMBRIDGE BAY A","2400603","2019-01-10 10:00","2019","01","10","10:00","-38.8","","-43.3","","63","","","M","3","","10","","","M","103.53","","","","-50","","NA"
"-105.14","69.11","CAMBRIDGE BAY A","2400603","2019-01-10 11:00","2019","01","10","11:00","-39.6","","-44.1","","63","","","M","3","","11","","","M","103.52","","","","-51","","NA"
"-105.14","69.11","CAMBRIDGE BAY A","2400603","2019-01-10 12:00","2019","01","10","12:00","-38.7","","-43.3","","63","","","M","2","","13","","","M","103.53","","","","-51","","NA"
"-105.14","69.11","CAMBRIDGE BAY A","2400603","2019-01-10 13:00","2019","01","10","13:00","-39.9","","-44.5","","63","","","M","3","","9","","","M","103.56","","","","-50","","NA"
"-105.14","69.11","CAMBRIDGE BAY A","2400603","2019-01-10 14:00","2019","01","10","14:00","-39.8","","-44.4","","63","","","M","3","","14","","","M","103.56","","","","-53","","NA"
"-105.14","69.11","CAMBRIDGE BAY A","2400603","2019-01-10 15:00","2019","01","10","15:00","-39.6","","-44.2","","63","","","M","3","","14","","","M","103.58","","","","-53","","NA"
"-105.14","69.11","CAMBRIDGE BAY A","2400603","2019-01-10 16:00","2019","01","10","16:00","-39.1","","-43.7","","63","","","M","2","","9","","","M","103.56","","","","-49","","NA"
"-105.14","69.11","CAMBRIDGE BAY A","2400603","2019-01-10 17:00","2019","01","10","17:00","-39.8","","-44.3","","63","","","M","3","","13","","","M","103.55","","","","-53","","NA"
"-105.14","69.11","CAMBRIDGE BAY A","2400603","2019-01-10 18:00","2019","01","10","18:00","-39.5","","-44.1","","63","","","M","3","","12","","","M","103.54","","","","-52","","NA"
"-105.14","69.11","CAMBRIDGE BAY A","2400603","2019-01-10 19:00","2019","01","10","19:00","-39.5","","-44.1","","63","","","M","3","","11","","","M","103.50","","","","-51","","NA"
"-105.14","69.11","CAMBRIDGE BAY A","2400603","2019-01-10 20:00","2019","01","10","20:00","-40.0","","-44.6","","63","","","M","4","","10","","","M","103.44","","","","-51","","NA"
"-105.14","69.11","CAMBRIDGE BAY A","2400603","2019-01-10 21:00","2019","01","10","21:00","-40.0","","-44.6","","63","","","M","3","","10","","","M","103.45","","","","-51","","NA"
"-105.14","69.11","CAMBRIDGE BAY A","2400603","2019-01-10 22:00","2019","01","10","22:00","-40.5","","-45.1","","63","","","M","4","","10","","","M","103.46","","","","-52","","NA"
"-105.14","69.11","CAMBRIDGE BAY A","2400603","2019-01-10 23:00","2019","01","10","23:00","-40.5","","-45.1","","62","","","M","4","","12","","","M","103.45","","","","-53","","NA"
"-105.14","69.11","CAMBRIDGE BAY A","2400603","2019-01-11 00:00","2019","01","11","00:00","-39.9","","-44.6","","63","","","M","5","","5","","","M","103.45","","","","-47","","NA"
"-105.14","69.11","CAMBRIDGE BAY A","2400603","2019-01-11 01:00","2019","01","11","01:00","-40.0","","-44.6","","62","","","M","5","","13","","","M","103.41","","","","-53","","NA"
"-105.14","69.11","CAMBRIDGE BAY A","2400603","2019-01-11 02:00","2019","01","11","02:00","-39.6","","-44.3","","63","","","M","6","","10","","","M","103.43","","","","-51","","NA"
"-105.14","69.11","CAMBRIDGE BAY A","2400603","2019-01-11 03:00","2019","01","11","03:00","-40.1","","-44.7","","62","","","M","3","","11","","","M","103.40","","","","-52","","NA"
"-105.14","69.11","CAMBRIDGE BAY A","2400603","2019-01-11 04:00","2019","01","11","04:00","-40.1","","-44.7","","62","","","M","6","","14","","","M","103.35","","","","-53","","NA"
"-105.14","69.11","CAMBRIDGE BAY A","2400603","2019-01-11 05:00","2019","01","11","05:00","-40.1","","-44.7","","62","","","M","7","","8","","","M","103.31","","","","-50","","NA"
"-105.14","69.11","CAMBRIDGE BAY A","2400603","2019-01-11 06:00","2019","01","11","06:00","-39.4","","-44.0","","63","","","M","7","","18","","","M","103.26","","","","-54","","NA"
"-105.14","69.11","CAMBRIDGE BAY A","2400603","2019-01-11 07:00","2019","01","11","07:00","-39.6","","-44.3","","63","","","M","7","","12","","","M","103.24","","","","-52","","NA"
"-105.14","69.11","CAMBRIDGE BAY A","2400603","2019-01-11 08:00","2019","01","11","08:00","-39.6","","-44.2","","63","","","M","6","","16","","","M","103.20","","","","-54","","NA"
"-105.14","69.11","CAMBRIDGE BAY A","2400603","2019-01-11 09:00","2019","01","11","09:00","-39.8","","-44.5","","62","","","M","7","","14","","","M","103.17","","","","-53","","NA"
"-105.14","69.11","CAMBRIDGE BAY A","2400603","2019-01-11 10:00","2019","01","11","10:00","-39.0","","-43.6","","63","","","M","7","","17","","","M","103.15","","","","-53","","NA"
"-105.14","69.11","CAMBRIDGE BAY A","2400603","2019-01-11 11:00","2019","01","11","11:00","-38.4","","-43.0","","63","","","M","6","","17","","","M","103.08","","","","-53","","NA"
"-105.14","69.11","CAMBRIDGE BAY A","2400603","2019-01-11 12:00","2019","01","11","12:00","-38.3","","-42.9","","63","","","M","8","","18","","","M","103.01","","","","-53","","NA"
"-105.14","69.11","CAMBRIDGE BAY A","2400603","2019-01-11 13:00","2019","01","11","13:00","-38.3","","-42.9","","63","","","M","7","","19","","","M","102.98","","","","-53","","NA"
"-105.14","69.11","CAMBRIDGE BAY A","2400603","2019-01-11 14:00","2019","01","11","14:00","-38.4","","-43.0","","63","","","M","7","","17","","","M","102.92","","","","-53","","NA"
"-105.14","69.11","CAMBRIDGE BAY A","2400603","2019-01-11 15:00","2019","01","11","15:00","-38.2","","-42.8","","63","","","M","6","","19","","","M","102.86","","","","-53","","NA"
"-105.14","69.11","CAMBRIDGE BAY A","2400603","2019-01-11 16:00","2019","01","11","16:00","-38.3","","-42.9","","63","","","M","7","","21","","","M","102.80","","","","-54","","NA"
"-105.14","69.11","CAMBRIDGE BAY A","2400603","2019-01-11 17:00","2019","01","11","17:00","-38.6","","-43.2","","63","","","M","7","","22","","","M","102.71","","","","-55","","NA"
"-105.14","69.11","CAMBRIDGE BAY A","2400603","2019-01-11 18:00","2019","01","11","18:00","-37.9","","-42.5","","63","","","M","7","","21","","","M","102.63","","","","-53","","NA"
"-105.14","69.11","CAMBRIDGE BAY A","2400603","2019-01-11 19:00","2019","01","11","19:00","-37.6","","-42.1","","64","","","M","7","","26","","","M","102.52","","","","-55","","NA"
"-105.14","69.11","CAMBRIDGE BAY A","2400603","2019-01-11 20:00","2019","01","11","20:00","-37.7","","-42.2","","64","","","M","7","","26","","","M","102.43","","","","-55","","NA"
"-105.14","69.11","CAMBRIDGE BAY A","2400603","2019-01-11 21:00","2019","01","11","21:00","-37.0","","-41.5","","64","","","M","8","","30","","","M","102.33","","","","-55","","NA"
"-105.14","69.11","CAMBRIDGE BAY A","2400603","2019-01-11 22:00","2019","01","11","22:00","-36.7","","-41.2","","64","","","M","7","","27","","","M","102.22","","","","-54","","NA"
"-105.14","69.11","CAMBRIDGE BAY A","2400603","2019-01-11 23:00","2019","01","11","23:00","-36.5","","-41.0","","64","","","M","7","","31","","","M","102.08","","","","-54","","NA"
"-105.14","69.11","CAMBRIDGE BAY A","2400603","2019-01-12 00:00","2019","01","12","00:00","-35.0","","-39.5","","65","","","M","7","","33","","","M","101.97","","","","-53","","NA"
"-105.14","69.11","CAMBRIDGE BAY A","2400603","2019-01-12 01:00","2019","01","12","01:00","-33.1","","-37.4","","66","","","M","7","","31","","","M","101.91","","","","-50","","NA"
"-105.14","69.11","CAMBRIDGE BAY A","2400603","2019-01-12 02:00","2019","01","12","02:00","-32.2","","-36.4","","67","","","M","7","","34","","","M","101.83","","","","-49","","NA"
"-105.14","69.11","CAMBRIDGE BAY A","2400603","2019-01-12 03:00","2019","01","12","03:00","-32.3","","-36.6","","67","","","M","6","","34","","","M","101.72","","","","-49","","NA"
"-105.14","69.11","CAMBRIDGE BAY A","2400603","2019-01-12 04:00","2019","01","12","04:00","-32.2","","-36.5","","67","","","M","6","","39","","","M","101.60","","","","-50","","NA"
"-105.14","69.11","CAMBRIDGE BAY A","2400603","2019-01-12 05:00","2019","01","12","05:00","-31.8","","-36.0","","67","","","M","6","","34","","","M","101.50","","","","-49","","NA"
"-105.14","69.11","CAMBRIDGE BAY A","2400603","2019-01-12 06:00","2019","01","12","06:00","-31.2","","-35.4","","68","","","M","7","","36","","","M","101.39","","","","-48","","NA"
"-105.14","69.11","CAMBRIDGE BAY A","2400603","2019-01-12 07:00","2019","01","12","07:00","-31.0","","-35.1","","68","","","M","6","","37","","","M","101.32","","","","-48","","NA"
"-105.14","69.11","CAMBRIDGE BAY A","2400603","2019-01-12 08:00","2019","01","12","08:00","-31.0","","-35.1","","68","","","M","7","","40","","","M","101.28","","","","-49","","NA"
"-105.14","69.11","CAMBRIDGE BAY A","2400603","2019-01-12 09:00","2019","01","12","09:00","-30.5","","-34.6","","68","","","M","6","","39","","","M","101.26","","","","-48","","NA"
"-105.14","69.11","CAMBRIDGE BAY A","2400603","2019-01-12 10:00","2019","01","12","10:00","-30.6","","-34.7","","68","","","M","6","","39","","","M","101.23","","","","-48","","NA"
"-105.14","69.11","CAMBRIDGE BAY A","2400603","2019-01-12 11:00","2019","01","12","11:00","-30.4","","-34.4","","68","","","M","6","","44","","","M","101.17","","","","-49","","NA"
"-105.14","69.11","CAMBRIDGE BAY A","2400603","2019-01-12 12:00","2019","01","12","12:00","-30.4","","-34.5","","68","","","M","5","","35","","","M","101.14","","","","-47","","NA"
"-105.14","69.11","CAMBRIDGE BAY A","2400603","2019-01-12 13:00","2019","01","12","13:00","-30.4","","-34.4","","68","","","M","5","","38","","","M","101.13","","","","-48","","NA"
"-105.14","69.11","CAMBRIDGE BAY A","2400603","2019-01-12 14:00","2019","01","12","14:00","-30.2","","-34.3","","69","","","M","5","","40","","","M","101.17","","","","-48","","NA"
"-105.14","69.11","CAMBRIDGE BAY A","2400603","2019-01-12 15:00","2019","01","12","15:00","-30.5","","-34.5","","68","","","M","4","","41","","","M","101.23","","","","-48","","NA"
"-105.14","69.11","CAMBRIDGE BAY A","2400603","2019-01-12 16:00","2019","01","12","16:00","-30.6","","-34.6","","68","","","M","4","","39","","","M","101.29","","","","-48","","NA"
"-105.14","69.11","CAMBRIDGE BAY A","2400603","2019-01-12 17:00","2019","01","12","17:00","-31.1","","-35.2","","68","","","M","4","","41","","","M","101.30","","","","-49","","NA"
"-105.14","69.11","CAMBRIDGE BAY A","2400603","2019-01-12 18:00","2019","01","12","18:00","-30.8","","-34.8","","68","","","M","3","","44","","","M","101.30","","","","-49","","NA"
"-105.14","69.11","CAMBRIDGE BAY A","2400603","2019-01-12 19:00","2019","01","12","19:00","-30.8","","-34.9","","68","","","M","3","","43","","","M","101.37","","","","-49","","NA"
"-105.14","69.11","CAMBRIDGE BAY A","2400603","2019-01-12 20:00","2019","01","12","20:00","-31.0","","-35.1","","68","","","M","3","","45","","","M","101.45","","","","-50","","NA"
"-105.14","69.11","CAMBRIDGE BAY A","2400603","2019-01-12 21:00","2019","01","12","21:00","-31.0","","-35.1","","68","","","M","3","","36","","","M","101.54","","","","-48","","NA"
"-105.14","69.11","CAMBRIDGE BAY A","2400603","2019-01-12 22:00","2019","01","12","22:00","-31.9","","-36.1","","68","","","M","3","","43","","","M","101.58","","","","-51","","NA"
"-105.14","69.11","CAMBRIDGE BAY A","2400603","2019-01-12 23:00","2019","01","12","23:00","-32.1","","-36.2","","67","","","M","3","","39","","","M","101.66","","","","-50","","NA"
"-105.14","69.11","CAMBRIDGE BAY A","2400603","2019-01-13 00:00","2019","01","13","00:00","-32.7","","-36.9","","67","","","M","2","","31","","","M","101.79","","","","-49","","NA"
"-105.14","69.11","CAMBRIDGE BAY A","2400603","2019-01-13 01:00","2019","01","13","01:00","-33.9","","-38.2","","66","","","M","2","","34","","","M","101.92","","","","-52","","NA"
"-105.14","69.11","CAMBRIDGE BAY A","2400603","2019-01-13 02:00","2019","01","13","02:00","-34.3","","-38.6","","66","","","M","2","","39","","","M","102.01","","","","-53","","NA"
"-105.14","69.11","CAMBRIDGE BAY A","2400603","2019-01-13 03:00","2019","01","13","03:00","-35.0","","-39.4","","65","","","M","2","","39","","","M","102.10","","","","-54","","NA"
"-105.14","69.11","CAMBRIDGE BAY A","2400603","2019-01-13 04:00","2019","01","13","04:00","-34.9","","-39.3","","65","","","M","2","","30","","","M","102.26","","","","-52","","NA"
"-105.14","69.11","CAMBRIDGE BAY A","2400603","2019-01-13 05:00","2019","01","13","05:00","-34.7","","-39.0","","66","","","M","2","","24","","","M","102.36","","","","-50","","NA"
"-105.14","69.11","CAMBRIDGE BAY A","2400603","2019-01-13 06:00","2019","01","13","06:00","-34.6","","-38.9","","65","","","M","1","","32","","","M","102.43","","","","-52","","NA"
"-105.14","69.11","CAMBRIDGE BAY A","2400603","2019-01-13 07:00","2019","01","13","07:00","-34.7","","-39.1","","65","","","M","1","","28","","","M","102.49","","","","-51","","NA"
"-105.14","69.11","CAMBRIDGE BAY A","2400603","2019-01-13 08:00","2019","01","13","08:00","-35.3","","-39.8","","65","","","M","1","","28","","","M","102.56","","","","-52","","NA"
"-105.14","69.11","CAMBRIDGE BAY A","2400603","2019-01-13 09:00","2019","01","13","09:00","-35.3","","-39.7","","65","","","M","34","","13","","","M","102.71","","","","-47","","NA"
"-105.14","69.11","CAMBRIDGE BAY A","2400603","2019-01-13 10:00","2019","01","13","10:00","-35.0","","-39.4","","65","","","M","35","","15","","","M","102.74","","","","-48","","NA"
"-105.14","69.11","CAMBRIDGE BAY A","2400603","2019-01-13 11:00","2019","01","13","11:00","-35.7","","-40.1","","65","","","M","29","","11","","","M","102.79","","","","-47","","NA"
"-105.14","69.11","CAMBRIDGE BAY A","2400603","2019-01-13 12:00","2019","01","13","12:00","-36.5","","-41.1","","64","","","M","30","","5","","","M","102.82","","","","-43","","NA"
"-105.14","69.11","CAMBRIDGE BAY A","2400603","2019-01-13 13:00","2019","01","13","13:00","-36.1","","-40.7","","64","","","M","31","","13","","","M","102.88","","","","-48","","NA"
"-105.14","69.11","CAMBRIDGE BAY A","2400603","2019-01-13 14:00","2019","01","13","14:00","-37.4","","-42.0","","63","","","M","29","","15","","","M","102.90","","","","-51","","NA"
"-105.14","69.11","CAMBRIDGE BAY A","2400603","2019-01-13 15:00","2019","01","13","15:00","-37.6","","-42.2","","63","","","M","29","","19","","","M","102.98","","","","-52","","NA"
"-105.14","69.11","CAMBRIDGE BAY A","2400603","2019-01-13 16:00","2019","01","13","16:00","-38.1","","-42.8","","63","","","M","31","","20","","","M","103.00","","","","-53","","NA"
"-105.14","69.11","CAMBRIDGE BAY A","2400603","2019-01-13 17:00","2019","01","13","17:00","-38.3","","-43.0","","63","","","M","31","","16","","","M","103.04","","","","-52","","NA"
"-105.14","69.11","CAMBRIDGE BAY A","2400603","2019-01-13 18:00","2019","01","13","18:00","-38.8","","-43.5","","62","","","M","29","","19","","","M","103.06","","","","-54","","NA"
"-105.14","69.11","CAMBRIDGE BAY A","2400603","2019-01-13 19:00","2019","01","13","19:00","-38.9","","-43.6","","62","","","M","30","","24","","","M","103.06","","","","-56","","NA"
"-105.14","69.11","CAMBRIDGE BAY A","2400603","2019-01-13 20:00","2019","01","13","20:00","-39.3","","-44.1","","62","","","M","29","","19","","","M","103.09","","","","-54","","NA"
"-105.14","69.11","CAMBRIDGE BAY A","2400603","2019-01-13 21:00","2019","01","13","21:00","-39.4","","-44.1","","62","","","M","31","","22","","","M","103.11","","","","-56","","NA"
"-105.14","69.11","CAMBRIDGE BAY A","2400603","2019-01-13 22:00","2019","01","13","22:00","-39.2","","-44.0","","62","","","M","29","","23","","","M","103.12","","","","-56","","NA"
"-105.14","69.11","CAMBRIDGE BAY A","2400603","2019-01-13 23:00","2019","01","13","23:00","-39.4","","-44.1","","62","","","M","30","","19","","","M","103.14","","","","-55","","NA"
"-105.14","69.11","CAMBRIDGE BAY A","2400603","2019-01-14 00:00","2019","01","14","00:00","-39.2","","-43.9","","62","","","M","30","","22","","","M","103.12","","","","-55","","NA"
"-105.14","69.11","CAMBRIDGE BAY A","2400603","2019-01-14 01:00","2019","01","14","01:00","-39.0","","-43.8","","62","","","M","32","","24","","","M","103.07","","","","-56","","NA"
"-105.14","69.11","CAMBRIDGE BAY A","2400603","2019-01-14 02:00","2019","01","14","02:00","-39.2","","-44.0","","62","","","M","30","","19","","","M","103.09","","","","-54","","NA"
"-105.14","69.11","CAMBRIDGE BAY A","2400603","2019-01-14 03:00","2019","01","14","03:00","-38.8","","-43.5","","62","","","M","27","","13","","","M","103.10","","","","-51","","NA"
"-105.14","69.11","CAMBRIDGE BAY A","2400603","2019-01-14 04:00","2019","01","14","04:00","-38.0","","-42.8","","62","","","M","28","","18","","","M","103.07","","","","-52","","NA"
"-105.14","69.11","CAMBRIDGE BAY A","2400603","2019-01-14 05:00","2019","01","14","05:00","-37.7","","-42.4","","63","","","M","31","","25","","","M","103.03","","","","-54","","NA"
"-105.14","69.11","CAMBRIDGE BAY A","2400603","2019-01-14 06:00","2019","01","14","06:00","-37.5","","-42.1","","63","","","M","29","","17","","","M","103.02","","","","-51","","NA"
"-105.14","69.11","CAMBRIDGE BAY A","2400603","2019-01-14 07:00","2019","01","14","07:00","-36.8","","-41.3","","64","","","M","28","","20","","","M","103.00","","","","-52","","NA"
"-105.14","69.11","CAMBRIDGE BAY A","2400603","2019-01-14 08:00","2019","01","14","08:00","-35.7","","-40.2","","64","","","M","28","","20","","","M","103.01","","","","-50","","NA"
"-105.14","69.11","CAMBRIDGE BAY A","2400603","2019-01-14 09:00","2019","01","14","09:00","-34.0","","-38.5","","65","","","M","29","","26","","","M","102.96","","","","-50","","NA"
"-105.14","69.11","CAMBRIDGE BAY A","2400603","2019-01-14 10:00","2019","01","14","10:00","-32.9","","-37.3","","66","","","M","28","","16","","","M","102.95","","","","-45","","NA"
"-105.14","69.11","CAMBRIDGE BAY A","2400603","2019-01-14 11:00","2019","01","14","11:00","-32.6","","-36.9","","66","","","M","31","","22","","","M","102.93","","","","-47","","NA"
"-105.14","69.11","CAMBRIDGE BAY A","2400603","2019-01-14 12:00","2019","01","14","12:00","-32.5","","-36.9","","66","","","M","32","","22","","","M","102.91","","","","-47","","NA"
"-105.14","69.11","CAMBRIDGE BAY A","2400603","2019-01-14 13:00","2019","01","14","13:00","-32.1","","-36.4","","66","","","M","32","","19","","","M","102.89","","","","-45","","NA"
"-105.14","69.11","CAMBRIDGE BAY A","2400603","2019-01-14 14:00","2019","01","14","14:00","-31.7","","-36.0","","67","","","M","27","","19","","","M","102.87","","","","-45","","NA"
"-105.14","69.11","CAMBRIDGE BAY A","2400603","2019-01-14 15:00","2019","01","14","15:00","-32.2","","-36.5","","67","","","M","32","","27","","","M","102.84","","","","-48","","NA"
"-105.14","69.11","CAMBRIDGE BAY A","2400603","2019-01-14 16:00","2019","01","14","16:00","-32.9","","-37.2","","66","","","M","32","","23","","","M","102.81","","","","-48","","NA"
"-105.14","69.11","CAMBRIDGE BAY A","2400603","2019-01-14 17:00","2019","01","14","17:00","-32.8","","-37.2","","66","","","M","28","","22","","","M","102.82","","","","-47","","NA"
"-105.14","69.11","CAMBRIDGE BAY A","2400603","2019-01-14 18:00","2019","01","14","18:00","-30.9","","-35.1","","67","","","M","31","","25","","","M","102.75","","","","-46","","NA"
"-105.14","69.11","CAMBRIDGE BAY A","2400603","2019-01-14 19:00","2019","01","14","19:00","-29.7","","-33.8","","68","","","M","32","","24","","","M","102.71","","","","-44","","NA"
"-105.14","69.11","CAMBRIDGE BAY A","2400603","2019-01-14 20:00","2019","01","14","20:00","-29.0","","-33.1","","68","","","M","31","","26","","","M","102.69","","","","-43","","NA"
"-105.14","69.11","CAMBRIDGE BAY A","2400603","2019-01-14 21:00","2019","01","14","21:00","-29.4","","-33.5","","68","","","M","29","","21","","","M","102.64","","","","-43","","NA"
"-105.14","69.11","CAMBRIDGE BAY A","2400603","2019-01-14 22:00","2019","01","14","22:00","-29.4","","-33.5","","68","","","M","29","","25","","","M","102.63","","","","-44","","NA"
"-105.14","69.11","CAMBRIDGE BAY A","2400603","2019-01-14 23:00","2019","01","14","23:00","-29.2","","-33.3","","69","","","M","28","","22","","","M","102.58","","","","-43","","NA"
"-105.14","69.11","CAMBRIDGE BAY A","2400603","2019-01-15 00:00","2019","01","15","00:00","-28.4","","-32.4","","69","","","M","30","","29","","","M","102.56","","","","-43","","NA"
"-105.14","69.11","CAMBRIDGE BAY A","2400603","2019-01-15 01:00","2019","01","15","01:00","-27.9","","-31.8","","70","","","M","30","","29","","","M","102.52","","","","-43","","NA"
"-105.14","69.11","CAMBRIDGE BAY A","2400603","2019-01-15 02:00","2019","01","15","02:00","-26.4","","-30.3","","71","","","M","29","","27","","","M","102.48","","","","-40","","NA"
"-105.14","69.11","CAMBRIDGE BAY A","2400603","2019-01-15 03:00","2019","01","15","03:00","-25.6","","-29.4","","71","","","M","30","","30","","","M","102.45","","","","-40","","NA"
"-105.14","69.11","CAMBRIDGE BAY A","2400603","2019-01-15 04:00","2019","01","15","04:00","-25.5","","-29.3","","71","","","M","32","","31","","","M","102.41","","","","-40","","NA"
"-105.14","69.11","CAMBRIDGE BAY A","2400603","2019-01-15 05:00","2019","01","15","05:00","-24.9","","-28.6","","72","","","M","31","","29","","","M","102.42","","","","-39","","NA"
"-105.14","69.11","CAMBRIDGE BAY A","2400603","2019-01-15 06:00","2019","01","15","06:00","-26.2","","-30.0","","71","","","M","29","","27","","","M","102.35","","","","-40","","NA"
"-105.14","69.11","CAMBRIDGE BAY A","2400603","2019-01-15 07:00","2019","01","15","07:00","-25.2","","-28.9","","72","","","M","31","","42","","","M","102.25","","","","-41","","NA"
"-105.14","69.11","CAMBRIDGE BAY A","2400603","2019-01-15 08:00","2019","01","15","08:00","-27.0","","-30.9","","70","","","M","30","","28","","","M","102.24","","","","-41","","NA"
"-105.14","69.11","CAMBRIDGE BAY A","2400603","2019-01-15 09:00","2019","01","15","09:00","-27.4","","-31.3","","70","","","M","31","","39","","","M","102.14","","","","-44","","NA"
"-105.14","69.11","CAMBRIDGE BAY A","2400603","2019-01-15 10:00","2019","01","15","10:00","-27.4","","-31.2","","70","","","M","31","","35","","","M","102.13","","","","-43","","NA"
"-105.14","69.11","CAMBRIDGE BAY A","2400603","2019-01-15 11:00","2019","01","15","11:00","-28.0","","-31.9","","70","","","M","32","","28","","","M","102.06","","","","-43","","NA"
"-105.14","69.11","CAMBRIDGE BAY A","2400603","2019-01-15 12:00","2019","01","15","12:00","-27.6","","-31.4","","70","","","M","33","","40","","","M","102.00","","","","-44","","NA"
"-105.14","69.11","CAMBRIDGE BAY A","2400603","2019-01-15 13:00","2019","01","15","13:00","-28.7","","-32.7","","69","","","M","34","","35","","","M","102.03","","","","-45","","NA"
"-105.14","69.11","CAMBRIDGE BAY A","2400603","2019-01-15 14:00","2019","01","15","14:00","-29.0","","-33.0","","69","","","M","36","","26","","","M","102.07","","","","-43","","NA"
"-105.14","69.11","CAMBRIDGE BAY A","2400603","2019-01-15 15:00","2019","01","15","15:00","-30.3","","-34.4","","68","","","M","33","","30","","","M","102.03","","","","-46","","NA"
"-105.14","69.11","CAMBRIDGE BAY A","2400603","2019-01-15 16:00","2019","01","15","16:00","-30.3","","-34.4","","68","","","M","33","","29","","","M","102.03","","","","-46","","NA"
"-105.14","69.11","CAMBRIDGE BAY A","2400603","2019-01-15 17:00","2019","01","15","17:00","-30.5","","-34.6","","68","","","M","33","","34","","","M","101.99","","","","-47","","NA"
"-105.14","69.11","CAMBRIDGE BAY A","2400603","2019-01-15 18:00","2019","01","15","18:00","-30.8","","-34.9","","68","","","M","27","","16","","","M","102.07","","","","-43","","NA"
"-105.14","69.11","CAMBRIDGE BAY A","2400603","2019-01-15 19:00","2019","01","15","19:00","-30.8","","-34.9","","68","","","M","32","","25","","","M","102.04","","","","-45","","NA"
"-105.14","69.11","CAMBRIDGE BAY A","2400603","2019-01-15 20:00","2019","01","15","20:00","-30.7","","-34.9","","68","","","M","33","","14","","","M","102.04","","","","-42","","NA"
"-105.14","69.11","CAMBRIDGE BAY A","2400603","2019-01-15 21:00","2019","01","15","21:00","-31.0","","-35.1","","68","","","M","29","","13","","","M","102.00","","","","-42","","NA"
"-105.14","69.11","CAMBRIDGE BAY A","2400603","2019-01-15 22:00","2019","01","15","22:00","-30.5","","-34.5","","68","","","M","34","","21","","","M","101.93","","","","-44","","NA"
"-105.14","69.11","CAMBRIDGE BAY A","2400603","2019-01-15 23:00","2019","01","15","23:00","-30.0","","-34.0","","69","","","M","35","","25","","","M","101.86","","","","-44","","NA"
"-105.14","69.11","CAMBRIDGE BAY A","2400603","2019-01-16 00:00","2019","01","16","00:00","-29.6","","-33.7","","69","","","M","33","","14","","","M","101.92","","","","-41","","NA"
"-105.14","69.11","CAMBRIDGE BAY A","2400603","2019-01-16 01:00","2019","01","16","01:00","-30.0","","-34.1","","68","","","M","30","","17","","","M","101.90","","","","-42","","NA"
"-105.14","69.11","CAMBRIDGE BAY A","2400603","2019-01-16 02:00","2019","01","16","02:00","-29.0","","-33.0","","69","","","M","29","","13","","","M","101.93","","","","-39","","NA"
"-105.14","69.11","CAMBRIDGE BAY A","2400603","2019-01-16 03:00","2019","01","16","03:00","-28.8","","-32.8","","69","","","M","33","","34","","","M","101.90","","","","-45","","NA"
"-105.14","69.11","CAMBRIDGE BAY A","2400603","2019-01-16 04:00","2019","01","16","04:00","-28.7","","-32.6","","69","","","M","33","","30","","","M","101.86","","","","-44","","NA"
"-105.14","69.11","CAMBRIDGE BAY A","2400603","2019-01-16 05:00","2019","01","16","05:00","-28.4","","-32.3","","70","","","M","33","","29","","","M","101.83","","","","-43","","NA"
"-105.14","69.11","CAMBRIDGE BAY A","2400603","2019-01-16 06:00","2019","01","16","06:00","-28.3","","-32.3","","70","","","M","32","","25","","","M","101.86","","","","-42","","NA"
"-105.14","69.11","CAMBRIDGE BAY A","2400603","2019-01-16 07:00","2019","01","16","07:00","-27.9","","-31.9","","69","","","M","32","","19","","","M","101.86","","","","-40","","NA"
"-105.14","69.11","CAMBRIDGE BAY A","2400603","2019-01-16 08:00","2019","01","16","08:00","-27.9","","-31.9","","69","","","M","31","","24","","","M","101.80","","","","-42","","NA"
"-105.14","69.11","CAMBRIDGE BAY A","2400603","2019-01-16 09:00","2019","01","16","09:00","-27.3","","-31.2","","70","","","M","32","","27","","","M","101.78","","","","-41","","NA"
"-105.14","69.11","CAMBRIDGE BAY A","2400603","2019-01-16 10:00","2019","01","16","10:00","-27.1","","-30.9","","71","","","M","33","","36","","","M","101.67","","","","-43","","NA"
"-105.14","69.11","CAMBRIDGE BAY A","2400603","2019-01-16 11:00","2019","01","16","11:00","-26.4","","-30.1","","71","","","M","34","","36","","","M","101.65","","","","-42","","NA"
"-105.14","69.11","CAMBRIDGE BAY A","2400603","2019-01-16 12:00","2019","01","16","12:00","-25.9","","-29.6","","71","","","M","33","","37","","","M","101.63","","","","-42","","NA"
"-105.14","69.11","CAMBRIDGE BAY A","2400603","2019-01-16 13:00","2019","01","16","13:00","-25.2","","-28.9","","72","","","M","35","","37","","","M","101.68","","","","-41","","NA"
"-105.14","69.11","CAMBRIDGE BAY A","2400603","2019-01-16 14:00","2019","01","16","14:00","-25.5","","-29.2","","72","","","M","34","","35","","","M","101.70","","","","-41","","NA"
"-105.14","69.11","CAMBRIDGE BAY A","2400603","2019-01-16 15:00","2019","01","16","15:00","-25.7","","-29.4","","72","","","M","34","","42","","","M","101.77","","","","-42","","NA"
"-105.14","69.11","CAMBRIDGE BAY A","2400603","2019-01-16 16:00","2019","01","16","16:00","-25.7","","-29.4","","72","","","M","34","","42","","","M","101.80","","","","-42","","NA"
"-105.14","69.11","CAMBRIDGE BAY A","2400603","2019-01-16 17:00","2019","01","16","17:00","-26.2","","-29.9","","71","","","M","35","","28","","","M","101.79","","","","-40","","NA"
"-105.14","69.11","CAMBRIDGE BAY A","2400603","2019-01-16 18:00","2019","01","16","18:00","-26.5","","-30.3","","71","","","M","36","","30","","","M","101.85","","","","-41","","NA"
"-105.14","69.11","CAMBRIDGE BAY A","2400603","2019-01-16 19:00","2019","01","16","19:00","-26.8","","-30.6","","71","","","M","36","","29","","","M","101.90","","","","-41","","NA"
"-105.14","69.11","CAMBRIDGE BAY A","2400603","2019-01-16 20:00","2019","01","16","20:00","-27.1","","-30.9","","71","","","M","35","","28","","","M","101.90","","","","-41","","NA"
"-105.14","69.11","CAMBRIDGE BAY A","2400603","2019-01-16 21:00","2019","01","16","21:00","-27.4","","-31.3","","70","","","M","35","","29","","","M","101.98","","","","-42","","NA"
"-105.14","69.11","CAMBRIDGE BAY A","2400603","2019-01-16 22:00","2019","01","16","22:00","-27.7","","-31.7","","70","","","M","36","","30","","","M","101.97","","","","-43","","NA"
"-105.14","69.11","CAMBRIDGE BAY A","2400603","2019-01-16 23:00","2019","01","16","23:00","-28.2","","-32.2","","70","","","M","36","","23","","","M","102.04","","","","-42","","NA"
"-105.14","69.11","CAMBRIDGE BAY A","2400603","2019-01-17 00:00","2019","01","17","00:00","-28.4","","-32.5","","69","","","M","36","","31","","","M","102.02","","","","-44","","NA"
"-105.14","69.11","CAMBRIDGE BAY A","2400603","2019-01-17 01:00","2019","01","17","01:00","-28.8","","-32.8","","69","","","M","34","","20","","","M","102.09","","","","-42","","NA"
"-105.14","69.11","CAMBRIDGE BAY A","2400603","2019-01-17 02:00","2019","01","17","02:00","-29.2","","-33.2","","69","","","M","33","","10","","","M","102.16","","","","-38","","NA"
"-105.14","69.11","CAMBRIDGE BAY A","2400603","2019-01-17 03:00","2019","01","17","03:00","-28.6","","-32.6","","69","","","M","36","","27","","","M","102.12","","","","-43","","NA"
"-105.14","69.11","CAMBRIDGE BAY A","2400603","2019-01-17 04:00","2019","01","17","04:00","-29.1","","-33.3","","68","","","M","35","","20","","","M","102.18","","","","-42","","NA"
"-105.14","69.11","CAMBRIDGE BAY A","2400603","2019-01-17 05:00","2019","01","17","05:00","-29.1","","-33.1","","69","","","M","35","","22","","","M","102.21","","","","-43","","NA"
"-105.14","69.11","CAMBRIDGE BAY A","2400603","2019-01-17 06:00","2019","01","17","06:00","-28.4","","-32.4","","69","","","M","34","","13","","","M","102.21","","","","-39","","NA"
"-105.14","69.11","CAMBRIDGE BAY A","2400603","2019-01-17 07:00","2019","01","17","07:00","-29.1","","-33.1","","69","","","M","33","","11","","","M","102.22","","","","-39","","NA"
"-105.14","69.11","CAMBRIDGE BAY A","2400603","2019-01-17 08:00","2019","01","17","08:00","-28.1","","-32.0","","70","","","M","34","","27","","","M","102.17","","","","-42","","NA"
"-105.14","69.11","CAMBRIDGE BAY A","2400603","2019-01-17 09:00","2019","01","17","09:00","-28.6","","-32.7","","68","","","M","31","","14","","","M","102.21","","","","-39","","NA"
"-105.14","69.11","CAMBRIDGE BAY A","2400603","2019-01-17 10:00","2019","01","17","10:00","-29.2","","-33.3","","69","","","M","35","","22","","","M","102.18","","","","-43","","NA"
"-105.14","69.11","CAMBRIDGE BAY A","2400603","2019-01-17 11:00","2019","01","17","11:00","-28.4","","-32.4","","69","","","M","34","","18","","","M","102.22","","","","-40","","NA"
"-105.14","69.11","CAMBRIDGE BAY A","2400603","2019-01-17 12:00","2019","01","17","12:00","-26.9","","-30.9","","70","","","M","36","","39","","","M","102.14","","","","-43","","NA"
"-105.14","69.11","CAMBRIDGE BAY A","2400603","2019-01-17 13:00","2019","01","17","13:00","-27.2","","-31.4","","69","","","M","36","","27","","","M","102.18","","","","-41","","NA"
"-105.14","69.11","CAMBRIDGE BAY A","2400603","2019-01-17 14:00","2019","01","17","14:00","-27.2","","-31.3","","69","","","M","36","","28","","","M","102.22","","","","-42","","NA"
"-105.14","69.11","CAMBRIDGE BAY A","2400603","2019-01-17 15:00","2019","01","17","15:00","-27.3","","-31.4","","69","","","M","35","","25","","","M","102.26","","","","-41","","NA"
"-105.14","69.11","CAMBRIDGE BAY A","2400603","2019-01-17 16:00","2019","01","17","16:00","-27.7","","-31.8","","69","","","M","33","","13","","","M","102.29","","","","-38","","NA"
"-105.14","69.11","CAMBRIDGE BAY A","2400603","2019-01-17 17:00","2019","01","17","17:00","-29.2","","-33.3","","68","","","M","29","","10","","","M","102.33","","","","-38","","NA"
"-105.14","69.11","CAMBRIDGE BAY A","2400603","2019-01-17 18:00","2019","01","17","18:00","-27.9","","-31.9","","70","","","M","33","","19","","","M","102.32","","","","-40","","NA"
"-105.14","69.11","CAMBRIDGE BAY A","2400603","2019-01-17 19:00","2019","01","17","19:00","-29.5","","-33.5","","70","","","M","32","","20","","","M","102.32","","","","-42","","NA"
"-105.14","69.11","CAMBRIDGE BAY A","2400603","2019-01-17 20:00","2019","01","17","20:00","-27.9","","-31.6","","71","","","M","34","","14","","","M","102.33","","","","-38","","NA"
"-105.14","69.11","CAMBRIDGE BAY A","2400603","2019-01-17 21:00","2019","01","17","21:00","-26.4","","-30.1","","72","","","M","36","","20","","","M","102.34","","","","-39","","NA"
"-105.14","69.11","CAMBRIDGE BAY A","2400603","2019-01-17 22:00","2019","01","17","22:00","-27.0","","-30.8","","71","","","M","36","","18","","","M","102.36","","","","-39","","NA"
"-105.14","69.11","CAMBRIDGE BAY A","2400603","2019-01-17 23:00","2019","01","17","23:00","-25.8","","-29.7","","71","","","M","36","","20","","","M","102.37","","","","-38","","NA"
"-105.14","69.11","CAMBRIDGE BAY A","2400603","2019-01-18 00:00","2019","01","18","00:00","-27.2","","-30.9","","71","","","M","33","","15","","","M","102.43","","","","-38","","NA"
"-105.14","69.11","CAMBRIDGE BAY A","2400603","2019-01-18 01:00","2019","01","18","01:00","-26.8","","-30.6","","71","","","M","33","","19","","","M","102.46","","","","-39","","NA"
"-105.14","69.11","CAMBRIDGE BAY A","2400603","2019-01-18 02:00","2019","01","18","02:00","-27.2","","-31.0","","71","","","M","33","","16","","","M","102.51","","","","-38","","NA"
"-105.14","69.11","CAMBRIDGE BAY A","2400603","2019-01-18 03:00","2019","01","18","03:00","-26.6","","-30.6","","70","","","M","33","","19","","","M","102.54","","","","-39","","NA"
"-105.14","69.11","CAMBRIDGE BAY A","2400603","2019-01-18 04:00","2019","01","18","04:00","-25.8","","-29.6","","71","","","M","33","","17","","","M","102.55","","","","-37","","NA"
"-105.14","69.11","CAMBRIDGE BAY A","2400603","2019-01-18 05:00","2019","01","18","05:00","-25.1","","-28.9","","71","","","M","35","","16","","","M","102.58","","","","-36","","NA"
"-105.14","69.11","CAMBRIDGE BAY A","2400603","2019-01-18 06:00","2019","01","18","06:00","-25.4","","-29.2","","71","","","M","35","","18","","","M","102.61","","","","-37","","NA"
"-105.14","69.11","CAMBRIDGE BAY A","2400603","2019-01-18 07:00","2019","01","18","07:00","-25.4","","-29.3","","70","","","M","36","","23","","","M","102.65","","","","-38","","NA"
"-105.14","69.11","CAMBRIDGE BAY A","2400603","2019-01-18 08:00","2019","01","18","08:00","-25.7","","-29.7","","70","","","M","36","","21","","","M","102.68","","","","-38","","NA"
"-105.14","69.11","CAMBRIDGE BAY A","2400603","2019-01-18 09:00","2019","01","18","09:00","-26.4","","-30.6","","68","","","M","1","","17","","","M","102.74","","","","-38","","NA"
"-105.14","69.11","CAMBRIDGE BAY A","2400603","2019-01-18 10:00","2019","01","18","10:00","-26.5","","-30.5","","70","","","M","28","","10","","","M","102.81","","","","-35","","NA"
"-105.14","69.11","CAMBRIDGE BAY A","2400603","2019-01-18 11:00","2019","01","18","11:00","-27.2","","-31.2","","69","","","M","30","","23","","","M","102.81","","","","-40","","NA"
"-105.14","69.11","CAMBRIDGE BAY A","2400603","2019-01-18 12:00","2019","01","18","12:00","-28.1","","-32.1","","69","","","M","30","","22","","","M","102.80","","","","-41","","NA"
"-105.14","69.11","CAMBRIDGE BAY A","2400603","2019-01-18 13:00","2019","01","18","13:00","-27.0","","-31.0","","69","","","M","31","","25","","","M","102.77","","","","-41","","NA"
"-105.14","69.11","CAMBRIDGE BAY A","2400603","2019-01-18 14:00","2019","01","18","14:00","-27.3","","-31.6","","68","","","M","30","","24","","","M","102.79","","","","-41","","NA"
"-105.14","69.11","CAMBRIDGE BAY A","2400603","2019-01-18 15:00","2019","01","18","15:00","-26.4","","-30.8","","67","","","M","27","","25","","","M","102.81","","","","-40","","NA"
"-105.14","69.11","CAMBRIDGE BAY A","2400603","2019-01-18 16:00","2019","01","18","16:00","-26.4","","-31.0","","66","","","M","27","","17","","","M","102.75","","","","-38","","NA"
"-105.14","69.11","CAMBRIDGE BAY A","2400603","2019-01-18 17:00","2019","01","18","17:00","-28.5","","-32.9","","67","","","M","26","","23","","","M","102.70","","","","-42","","NA"
"-105.14","69.11","CAMBRIDGE BAY A","2400603","2019-01-18 18:00","2019","01","18","18:00","-28.3","","-32.4","","68","","","M","26","","33","","","M","102.63","","","","-44","","NA"
"-105.14","69.11","CAMBRIDGE BAY A","2400603","2019-01-18 19:00","2019","01","18","19:00","-26.5","","-30.6","","69","","","M","26","","31","","","M","102.55","","","","-41","","NA"
"-105.14","69.11","CAMBRIDGE BAY A","2400603","2019-01-18 20:00","2019","01","18","20:00","-26.0","","-30.0","","70","","","M","27","","32","","","M","102.46","","","","-41","","NA"
"-105.14","69.11","CAMBRIDGE BAY A","2400603","2019-01-18 21:00","2019","01","18","21:00","-24.6","","-28.5","","70","","","M","27","","34","","","M","102.41","","","","-39","","NA"
"-105.14","69.11","CAMBRIDGE BAY A","2400603","2019-01-18 22:00","2019","01","18","22:00","-24.3","","-28.1","","71","","","M","27","","29","","","M","102.28","","","","-38","","NA"
"-105.14","69.11","CAMBRIDGE BAY A","2400603","2019-01-18 23:00","2019","01","18","23:00","-22.9","","-26.6","","72","","","M","27","","35","","","M","102.19","","","","-37","","NA"
"-105.14","69.11","CAMBRIDGE BAY A","2400603","2019-01-19 00:00","2019","01","19","00:00","-21.7","","-25.3","","73","","","M","28","","37","","","M","102.14","","","","-36","","NA"
"-105.14","69.11","CAMBRIDGE BAY A","2400603","2019-01-19 01:00","2019","01","19","01:00","-21.2","","-24.8","","73","","","M","27","","36","","","M","102.11","","","","-35","","NA"
"-105.14","69.11","CAMBRIDGE BAY A","2400603","2019-01-19 02:00","2019","01","19","02:00","-21.1","","-24.8","","72","","","M","28","","47","","","M","102.04","","","","-37","","NA"
"-105.14","69.11","CAMBRIDGE BAY A","2400603","2019-01-19 03:00","2019","01","19","03:00","-21.7","","-25.7","","71","","","M","28","","41","","","M","102.03","","","","-37","","NA"
"-105.14","69.11","CAMBRIDGE BAY A","2400603","2019-01-19 04:00","2019","01","19","04:00","-21.9","","-26.1","","70","","","M","28","","41","","","M","101.98","","","","-37","","NA"
"-105.14","69.11","CAMBRIDGE BAY A","2400603","2019-01-19 05:00","2019","01","19","05:00","-22.1","","-26.0","","71","","","M","29","","43","","","M","101.89","","","","-37","","NA"
"-105.14","69.11","CAMBRIDGE BAY A","2400603","2019-01-19 06:00","2019","01","19","06:00","-22.0","","-26.1","","70","","","M","28","","41","","","M","101.82","","","","-37","","NA"
"-105.14","69.11","CAMBRIDGE BAY A","2400603","2019-01-19 07:00","2019","01","19","07:00","-21.9","","-26.2","","69","","","M","28","","35","","","M","101.76","","","","-36","","NA"
"-105.14","69.11","CAMBRIDGE BAY A","2400603","2019-01-19 08:00","2019","01","19","08:00","-21.4","","-25.3","","71","","","M","29","","40","","","M","101.69","","","","-36","","NA"
"-105.14","69.11","CAMBRIDGE BAY A","2400603","2019-01-19 09:00","2019","01","19","09:00","-21.1","","-25.1","","70","","","M","28","","36","","","M","101.65","","","","-35","","NA"
"-105.14","69.11","CAMBRIDGE BAY A","2400603","2019-01-19 10:00","2019","01","19","10:00","-21.8","","-25.8","","71","","","M","27","","34","","","M","101.59","","","","-36","","NA"
"-105.14","69.11","CAMBRIDGE BAY A","2400603","2019-01-19 11:00","2019","01","19","11:00","-20.6","","-24.7","","70","","","M","29","","32","","","M","101.55","","","","-34","","NA"
"-105.14","69.11","CAMBRIDGE BAY A","2400603","2019-01-19 12:00","2019","01","19","12:00","-20.8","","-24.8","","70","","","M","27","","26","","","M","101.53","","","","-33","","NA"
"-105.14","69.11","CAMBRIDGE BAY A","2400603","2019-01-19 13:00","2019","01","19","13:00","-20.5","","-24.6","","70","","","M","28","","26","","","M","101.50","","","","-32","","NA"
"-105.14","69.11","CAMBRIDGE BAY A","2400603","2019-01-19 14:00","2019","01","19","14:00","-21.0","","-25.0","","71","","","M","30","","27","","","M","101.46","","","","-33","","NA"
"-105.14","69.11","CAMBRIDGE BAY A","2400603","2019-01-19 15:00","2019","01","19","15:00","-21.2","","-25.2","","70","","","M","28","","21","","","M","101.50","","","","-32","","NA"
"-105.14","69.11","CAMBRIDGE BAY A","2400603","2019-01-19 16:00","2019","01","19","16:00","-20.1","","-24.2","","70","","","M","29","","21","","","M","101.48","","","","-31","","NA"
"-105.14","69.11","CAMBRIDGE BAY A","2400603","2019-01-19 17:00","2019","01","19","17:00","-20.2","","-24.3","","70","","","M","29","","28","","","M","101.41","","","","-32","","NA"
"-105.14","69.11","CAMBRIDGE BAY A","2400603","2019-01-19 18:00","2019","01","19","18:00","-21.0","","-24.9","","72","","","M","28","","16","","","M","101.39","","","","-31","","NA"
"-105.14","69.11","CAMBRIDGE BAY A","2400603","2019-01-19 19:00","2019","01","19","19:00","-21.9","","-25.8","","71","","","M","25","","11","","","M","101.36","","","","-30","","NA"
"-105.14","69.11","CAMBRIDGE BAY A","2400603","2019-01-19 20:00","2019","01","19","20:00","-21.0","","-24.6","","73","","","M","29","","17","","","M","101.29","","","","-31","","NA"
"-105.14","69.11","CAMBRIDGE BAY A","2400603","2019-01-19 21:00","2019","01","19","21:00","-20.9","","-24.6","","73","","","M","30","","13","","","M","101.27","","","","-30","","NA"
"-105.14","69.11","CAMBRIDGE BAY A","2400603","2019-01-19 22:00","2019","01","19","22:00","-22.2","","-25.7","","74","","","M","27","","12","","","M","101.22","","","","-31","","NA"
"-105.14","69.11","CAMBRIDGE BAY A","2400603","2019-01-19 23:00","2019","01","19","23:00","-21.9","","-25.3","","75","","","M","25","","13","","","M","101.18","","","","-31","","NA"
"-105.14","69.11","CAMBRIDGE BAY A","2400603","2019-01-20 00:00","2019","01","20","00:00","-21.9","","-25.2","","75","","","M","28","","18","","","M","101.13","","","","-32","","NA"
"-105.14","69.11","CAMBRIDGE BAY A","2400603","2019-01-20 01:00","2019","01","20","01:00","-21.3","","-24.6","","75","","","M","31","","12","","","M","101.12","","","","-30","","NA"
"-105.14","69.11","CAMBRIDGE BAY A","2400603","2019-01-20 02:00","2019","01","20","02:00","-21.4","","-25.1","","72","","","M","1","","9","","","M","101.08","","","","-28","","NA"
"-105.14","69.11","CAMBRIDGE BAY A","2400603","2019-01-20 03:00","2019","01","20","03:00","-23.6","","-28.9","","62","","","M","35","","13","","","M","101.03","","","","-33","","NA"
"-105.14","69.11","CAMBRIDGE BAY A","2400603","2019-01-20 04:00","2019","01","20","04:00","-25.9","","-31.2","","62","","","M","36","","9","","","M","100.99","","","","-34","","NA"
"-105.14","69.11","CAMBRIDGE BAY A","2400603","2019-01-20 05:00","2019","01","20","05:00","-27.9","","-33.2","","61","","","M","30","","10","","","M","100.93","","","","-37","","NA"
"-105.14","69.11","CAMBRIDGE BAY A","2400603","2019-01-20 06:00","2019","01","20","06:00","-27.8","","-32.8","","64","","","M","33","","20","","","M","100.89","","","","-40","","NA"
"-105.14","69.11","CAMBRIDGE BAY A","2400603","2019-01-20 07:00","2019","01","20","07:00","-29.8","","-34.6","","64","","","M","32","","21","","","M","100.84","","","","-43","","NA"
"-105.14","69.11","CAMBRIDGE BAY A","2400603","2019-01-20 08:00","2019","01","20","08:00","-30.8","","-35.4","","65","","","M","31","","22","","","M","100.81","","","","-45","","NA"
"-105.14","69.11","CAMBRIDGE BAY A","2400603","2019-01-20 09:00","2019","01","20","09:00","-30.1","","-34.6","","66","","","M","33","","23","","","M","100.77","","","","-44","","NA"
"-105.14","69.11","CAMBRIDGE BAY A","2400603","2019-01-20 10:00","2019","01","20","10:00","-31.1","","-35.5","","66","","","M","32","","23","","","M","100.77","","","","-45","","NA"
"-105.14","69.11","CAMBRIDGE BAY A","2400603","2019-01-20 11:00","2019","01","20","11:00","-31.4","","-35.7","","67","","","M","31","","15","","","M","100.78","","","","-43","","NA"
"-105.14","69.11","CAMBRIDGE BAY A","2400603","2019-01-20 12:00","2019","01","20","12:00","-30.4","","-34.7","","67","","","M","34","","16","","","M","100.72","","","","-42","","NA"
"-105.14","69.11","CAMBRIDGE BAY A","2400603","2019-01-20 13:00","2019","01","20","13:00","-32.2","","-36.7","","65","","","M","31","","5","","","M","100.75","","","","-38","","NA"
"-105.14","69.11","CAMBRIDGE BAY A","2400603","2019-01-20 14:00","2019","01","20","14:00","-32.2","","-36.7","","65","","","M","31","","8","","","M","100.75","","","","-41","","NA"
"-105.14","69.11","CAMBRIDGE BAY A","2400603","2019-01-20 15:00","2019","01","20","15:00","-32.5","","-37.1","","65","","","M","29","","15","","","M","100.75","","","","-44","","NA"
"-105.14","69.11","CAMBRIDGE BAY A","2400603","2019-01-20 16:00","2019","01","20","16:00","-32.0","","-36.3","","66","","","M","31","","21","","","M","100.71","","","","-46","","NA"
"-105.14","69.11","CAMBRIDGE BAY A","2400603","2019-01-20 17:00","2019","01","20","17:00","-33.3","","-37.6","","66","","","M","27","","11","","","M","100.73","","","","-44","","NA"
"-105.14","69.11","CAMBRIDGE BAY A","2400603","2019-01-20 18:00","2019","01","20","18:00","-33.0","","-37.2","","67","","","M","29","","19","","","M","100.71","","","","-47","","NA"
"-105.14","69.11","CAMBRIDGE BAY A","2400603","2019-01-20 19:00","2019","01","20","19:00","-33.1","","-37.4","","66","","","M","30","","20","","","M","100.70","","","","-47","","NA"
"-105.14","69.11","CAMBRIDGE BAY A","2400603","2019-01-20 20:00","2019","01","20","20:00","-32.8","","-37.0","","67","","","M","31","","22","","","M","100.67","","","","-47","","NA"
"-105.14","69.11","CAMBRIDGE BAY A","2400603","2019-01-20 21:00","2019","01","20","21:00","-32.9","","-37.2","","67","","","M","31","","26","","","M","100.65","","","","-48","","NA"
"-105.14","69.11","CAMBRIDGE BAY A","2400603","2019-01-20 22:00","2019","01","20","22:00","-32.7","","-36.9","","67","","","M","32","","23","","","M","100.63","","","","-47","","NA"
"-105.14","69.11","CAMBRIDGE BAY A","2400603","2019-01-20 23:00","2019","01","20","23:00","-32.6","","-36.9","","67","","","M","32","","24","","","M","100.61","","","","-48","","NA"
"-105.14","69.11","CAMBRIDGE BAY A","2400603","2019-01-21 00:00","2019","01","21","00:00","-33.0","","-37.2","","67","","","M","32","","23","","","M","100.59","","","","-48","","NA"
"-105.14","69.11","CAMBRIDGE BAY A","2400603","2019-01-21 01:00","2019","01","21","01:00","-33.6","","-37.9","","67","","","M","30","","20","","","M","100.60","","","","-48","","NA"
"-105.14","69.11","CAMBRIDGE BAY A","2400603","2019-01-21 02:00","2019","01","21","02:00","-33.5","","-37.7","","67","","","M","31","","23","","","M","100.60","","","","-48","","NA"
"-105.14","69.11","CAMBRIDGE BAY A","2400603","2019-01-21 03:00","2019","01","21","03:00","-33.7","","-38.0","","66","","","M","30","","28","","","M","100.61","","","","-50","","NA"
"-105.14","69.11","CAMBRIDGE BAY A","2400603","2019-01-21 04:00","2019","01","21","04:00","-34.1","","-38.4","","66","","","M","31","","21","","","M","100.61","","","","-49","","NA"
"-105.14","69.11","CAMBRIDGE BAY A","2400603","2019-01-21 05:00","2019","01","21","05:00","-33.7","","-38.0","","66","","","M","30","","24","","","M","100.61","","","","-49","","NA"
"-105.14","69.11","CAMBRIDGE BAY A","2400603","2019-01-21 06:00","2019","01","21","06:00","-33.3","","-37.6","","66","","","M","30","","23","","","M","100.60","","","","-48","","NA"
"-105.14","69.11","CAMBRIDGE BAY A","2400603","2019-01-21 07:00","2019","01","21","07:00","-34.0","","-38.3","","66","","","M","30","","21","","","M","100.60","","","","-48","","NA"
"-105.14","69.11","CAMBRIDGE BAY A","2400603","2019-01-21 08:00","2019","01","21","08:00","-34.1","","-38.4","","66","","","M","30","","21","","","M","100.63","","","","-49","","NA"
"-105.14","69.11","CAMBRIDGE BAY A","2400603","2019-01-21 09:00","2019","01","21","09:00","-34.8","","-39.0","","66","","","M","31","","20","","","M","100.65","","","","-49","","NA"
"-105.14","69.11","CAMBRIDGE BAY A","2400603","2019-01-21 10:00","2019","01","21","10:00","-35.5","","-39.8","","66","","","M","31","","17","","","M","100.69","","","","-49","","NA"
"-105.14","69.11","CAMBRIDGE BAY A","2400603","2019-01-21 11:00","2019","01","21","11:00","-35.8","","-40.1","","66","","","M","32","","15","","","M","100.72","","","","-49","","NA"
"-105.14","69.11","CAMBRIDGE BAY A","2400603","2019-01-21 12:00","2019","01","21","12:00","-35.2","","-39.5","","65","","","M","31","","18","","","M","100.75","","","","-49","","NA"
"-105.14","69.11","CAMBRIDGE BAY A","2400603","2019-01-21 13:00","2019","01","21","13:00","-35.5","","-40.0","","65","","","M","31","","18","","","M","100.79","","","","-49","","NA"
"-105.14","69.11","CAMBRIDGE BAY A","2400603","2019-01-21 14:00","2019","01","21","14:00","-36.2","","-40.6","","65","","","M","34","","14","","","M","100.84","","","","-49","","NA"
"-105.14","69.11","CAMBRIDGE BAY A","2400603","2019-01-21 15:00","2019","01","21","15:00","-35.0","","-39.5","","65","","","M","36","","12","","","M","100.88","","","","-46","","NA"
"-105.14","69.11","CAMBRIDGE BAY A","2400603","2019-01-21 16:00","2019","01","21","16:00","-35.1","","-39.7","","63","","","M","36","","14","","","M","100.93","","","","-47","","NA"
"-105.14","69.11","CAMBRIDGE BAY A","2400603","2019-01-21 17:00","2019","01","21","17:00","-36.6","","-41.3","","63","","","M","33","","4","","","M","100.97","","","","-42","","NA"
"-105.14","69.11","CAMBRIDGE BAY A","2400603","2019-01-21 18:00","2019","01","21","18:00","-37.2","","-41.9","","63","","","M","34","","3","","","M","100.98","","","","-41","","NA"
"-105.14","69.11","CAMBRIDGE BAY A","2400603","2019-01-21 19:00","2019","01","21","19:00","-38.1","","-42.7","","63","","","M","32","","10","","","M","100.99","","","","-49","","NA"
"-105.14","69.11","CAMBRIDGE BAY A","2400603","2019-01-21 20:00","2019","01","21","20:00","-36.2","","-40.8","","64","","","M","36","","12","","","M","100.99","","","","-48","","NA"
"-105.14","69.11","CAMBRIDGE BAY A","2400603","2019-01-21 21:00","2019","01","21","21:00","-37.0","","-41.6","","64","","","M","36","","5","","","M","100.99","","","","-44","","NA"
"-105.14","69.11","CAMBRIDGE BAY A","2400603","2019-01-21 22:00","2019","01","21","22:00","-37.7","","-42.4","","62","","","M","27","","2","","","M","101.02","","","","-40","","NA"
"-105.14","69.11","CAMBRIDGE BAY A","2400603","2019-01-21 23:00","2019","01","21","23:00","-39.0","","-43.5","","63","","","M","32","","16","","","M","101.05","","","","-53","","NA"
"-105.14","69.11","CAMBRIDGE BAY A","2400603","2019-01-22 00:00","2019","01","22","00:00","-38.9","","-43.4","","64","","","M","33","","12","","","M","101.06","","","","-51","","NA"
"-105.14","69.11","CAMBRIDGE BAY A","2400603","2019-01-22 01:00","2019","01","22","01:00","-36.6","","-41.1","","64","","","M","36","","16","","","M","101.06","","","","-50","","NA"
"-105.14","69.11","CAMBRIDGE BAY A","2400603","2019-01-22 02:00","2019","01","22","02:00","-38.3","","-43.0","","63","","","M","33","","13","","","M","101.08","","","","-51","","NA"
"-105.14","69.11","CAMBRIDGE BAY A","2400603","2019-01-22 03:00","2019","01","22","03:00","-40.3","","-44.8","","63","","","M","32","","14","","","M","101.09","","","","-54","","NA"
"-105.14","69.11","CAMBRIDGE BAY A","2400603","2019-01-22 04:00","2019","01","22","04:00","-40.1","","-44.7","","63","","","M","33","","13","","","M","101.10","","","","-53","","NA"
"-105.14","69.11","CAMBRIDGE BAY A","2400603","2019-01-22 05:00","2019","01","22","05:00","-40.8","","-45.4","","62","","","M","34","","14","","","M","101.08","","","","-54","","NA"
"-105.14","69.11","CAMBRIDGE BAY A","2400603","2019-01-22 06:00","2019","01","22","06:00","-40.8","","-45.5","","62","","","M","34","","14","","","M","101.09","","","","-54","","NA"
"-105.14","69.11","CAMBRIDGE BAY A","2400603","2019-01-22 07:00","2019","01","22","07:00","-41.1","","-45.7","","62","","","M","32","","19","","","M","101.08","","","","-57","","NA"
"-105.14","69.11","CAMBRIDGE BAY A","2400603","2019-01-22 08:00","2019","01","22","08:00","-41.0","","-45.6","","62","","","M","33","","9","","","M","101.08","","","","-52","","NA"
"-105.14","69.11","CAMBRIDGE BAY A","2400603","2019-01-22 09:00","2019","01","22","09:00","-41.1","","-45.8","","62","","","M","32","","11","","","M","101.14","","","","-53","","NA"
"-105.14","69.11","CAMBRIDGE BAY A","2400603","2019-01-22 10:00","2019","01","22","10:00","-41.4","","-46.1","","62","","","M","32","","15","","","M","101.17","","","","-55","","NA"
"-105.14","69.11","CAMBRIDGE BAY A","2400603","2019-01-22 11:00","2019","01","22","11:00","-41.0","","-45.7","","62","","","M","33","","17","","","M","101.20","","","","-56","","NA"
"-105.14","69.11","CAMBRIDGE BAY A","2400603","2019-01-22 12:00","2019","01","22","12:00","-40.9","","-45.6","","62","","","M","32","","13","","","M","101.21","","","","-54","","NA"
"-105.14","69.11","CAMBRIDGE BAY A","2400603","2019-01-22 13:00","2019","01","22","13:00","-40.4","","-45.1","","62","","","M","32","","19","","","M","101.26","","","","-56","","NA"
"-105.14","69.11","CAMBRIDGE BAY A","2400603","2019-01-22 14:00","2019","01","22","14:00","-40.0","","-44.7","","62","","","M","31","","21","","","M","101.30","","","","-56","","NA"
"-105.14","69.11","CAMBRIDGE BAY A","2400603","2019-01-22 15:00","2019","01","22","15:00","-39.7","","-44.5","","62","","","M","31","","24","","","M","101.33","","","","-57","","NA"
"-105.14","69.11","CAMBRIDGE BAY A","2400603","2019-01-22 16:00","2019","01","22","16:00","-39.9","","-44.6","","62","","","M","32","","14","","","M","101.36","","","","-53","","NA"
"-105.14","69.11","CAMBRIDGE BAY A","2400603","2019-01-22 17:00","2019","01","22","17:00","-39.7","","-44.4","","62","","","M","32","","21","","","M","101.39","","","","-56","","NA"
"-105.14","69.11","CAMBRIDGE BAY A","2400603","2019-01-22 18:00","2019","01","22","18:00","-37.8","","-42.6","","62","","","M","30","","22","","","M","101.41","","","","-54","","NA"
"-105.14","69.11","CAMBRIDGE BAY A","2400603","2019-01-22 19:00","2019","01","22","19:00","-36.9","","-41.6","","63","","","M","28","","18","","","M","101.45","","","","-51","","NA"
"-105.14","69.11","CAMBRIDGE BAY A","2400603","2019-01-22 20:00","2019","01","22","20:00","-36.6","","-41.4","","62","","","M","30","","22","","","M","101.48","","","","-52","","NA"
"-105.14","69.11","CAMBRIDGE BAY A","2400603","2019-01-22 21:00","2019","01","22","21:00","-36.2","","-40.8","","63","","","M","30","","18","","","M","101.47","","","","-50","","NA"
"-105.14","69.11","CAMBRIDGE BAY A","2400603","2019-01-22 22:00","2019","01","22","22:00","-36.3","","-41.1","","63","","","M","30","","22","","","M","101.51","","","","-52","","NA"
"-105.14","69.11","CAMBRIDGE BAY A","2400603","2019-01-22 23:00","2019","01","22","23:00","-37.1","","-41.8","","63","","","M","28","","13","","","M","101.54","","","","-49","","NA"
"-105.14","69.11","CAMBRIDGE BAY A","2400603","2019-01-23 00:00","2019","01","23","00:00","-36.2","","-40.9","","63","","","M","28","","18","","","M","101.56","","","","-50","","NA"
"-105.14","69.11","CAMBRIDGE BAY A","2400603","2019-01-23 01:00","2019","01","23","01:00","-37.5","","-42.2","","63","","","M","29","","13","","","M","101.56","","","","-50","","NA"
"-105.14","69.11","CAMBRIDGE BAY A","2400603","2019-01-23 02:00","2019","01","23","02:00","-37.7","","-42.4","","63","","","M","28","","21","","","M","101.58","","","","-53","","NA"
"-105.14","69.11","CAMBRIDGE BAY A","2400603","2019-01-23 03:00","2019","01","23","03:00","-37.8","","-42.5","","62","","","M","32","","22","","","M","101.56","","","","-54","","NA"
"-105.14","69.11","CAMBRIDGE BAY A","2400603","2019-01-23 04:00","2019","01","23","04:00","-37.8","","-42.5","","62","","","M","33","","28","","","M","101.56","","","","-55","","NA"
"-105.14","69.11","CAMBRIDGE BAY A","2400603","2019-01-23 05:00","2019","01","23","05:00","-38.2","","-43.0","","62","","","M","29","","20","","","M","101.59","","","","-53","","NA"
"-105.14","69.11","CAMBRIDGE BAY A","2400603","2019-01-23 06:00","2019","01","23","06:00","-37.8","","-42.6","","62","","","M","31","","26","","","M","101.55","","","","-55","","NA"
"-105.14","69.11","CAMBRIDGE BAY A","2400603","2019-01-23 07:00","2019","01","23","07:00","-38.4","","-43.1","","62","","","M","31","","31","","","M","101.50","","","","-57","","NA"
"-105.14","69.11","CAMBRIDGE BAY A","2400603","2019-01-23 08:00","2019","01","23","08:00","-38.9","","-43.6","","62","","","M","32","","25","","","M","101.53","","","","-56","","NA"
"-105.14","69.11","CAMBRIDGE BAY A","2400603","2019-01-23 09:00","2019","01","23","09:00","-38.7","","-43.5","","62","","","M","32","","22","","","M","101.55","","","","-55","","NA"
"-105.14","69.11","CAMBRIDGE BAY A","2400603","2019-01-23 10:00","2019","01","23","10:00","-38.5","","-43.3","","62","","","M","32","","23","","","M","101.54","","","","-55","","NA"
"-105.14","69.11","CAMBRIDGE BAY A","2400603","2019-01-23 11:00","2019","01","23","11:00","-38.1","","-43.0","","62","","","M","31","","25","","","M","101.57","","","","-55","","NA"
"-105.14","69.11","CAMBRIDGE BAY A","2400603","2019-01-23 12:00","2019","01","23","12:00","-38.1","","-42.9","","62","","","M","32","","25","","","M","101.58","","","","-55","","NA"
"-105.14","69.11","CAMBRIDGE BAY A","2400603","2019-01-23 13:00","2019","01","23","13:00","-38.7","","-43.6","","61","","","M","30","","21","","","M","101.61","","","","-54","","NA"
"-105.14","69.11","CAMBRIDGE BAY A","2400603","2019-01-23 14:00","2019","01","23","14:00","-38.2","","-43.1","","62","","","M","30","","22","","","M","101.62","","","","-54","","NA"
"-105.14","69.11","CAMBRIDGE BAY A","2400603","2019-01-23 15:00","2019","01","23","15:00","-37.4","","-42.2","","62","","","M","30","","26","","","M","101.64","","","","-54","","NA"
"-105.14","69.11","CAMBRIDGE BAY A","2400603","2019-01-23 16:00","2019","01","23","16:00","-37.5","","-42.2","","62","","","M","24","","18","","","M","101.69","","","","-52","","NA"
"-105.14","69.11","CAMBRIDGE BAY A","2400603","2019-01-23 17:00","2019","01","23","17:00","-37.7","","-42.5","","62","","","M","31","","28","","","M","101.68","","","","-55","","NA"
"-105.14","69.11","CAMBRIDGE BAY A","2400603","2019-01-23 18:00","2019","01","23","18:00","-37.0","","-41.7","","63","","","M","24","","19","","","M","101.73","","","","-52","","NA"
"-105.14","69.11","CAMBRIDGE BAY A","2400603","2019-01-23 19:00","2019","01","23","19:00","-36.3","","-41.0","","63","","","M","30","","19","","","M","101.72","","","","-51","","NA"
"-105.14","69.11","CAMBRIDGE BAY A","2400603","2019-01-23 20:00","2019","01","23","20:00","-36.8","","-41.5","","63","","","M","30","","18","","","M","101.71","","","","-51","","NA"
"-105.14","69.11","CAMBRIDGE BAY A","2400603","2019-01-23 21:00","2019","01","23","21:00","-37.5","","-42.2","","63","","","M","26","","17","","","M","101.73","","","","-51","","NA"
"-105.14","69.11","CAMBRIDGE BAY A","2400603","2019-01-23 22:00","2019","01","23","22:00","-37.2","","-41.9","","63","","","M","30","","25","","","M","101.74","","","","-54","","NA"
"-105.14","69.11","CAMBRIDGE BAY A","2400603","2019-01-23 23:00","2019","01","23","23:00","-37.1","","-41.7","","63","","","M","30","","23","","","M","101.77","","","","-53","","NA"
"-105.14","69.11","CAMBRIDGE BAY A","2400603","2019-01-24 00:00","2019","01","24","00:00","-37.0","","-41.7","","63","","","M","30","","23","","","M","101.79","","","","-53","","NA"
"-105.14","69.11","CAMBRIDGE BAY A","2400603","2019-01-24 01:00","2019","01","24","01:00","-36.8","","-41.4","","64","","","M","29","","23","","","M","101.82","","","","-53","","NA"
"-105.14","69.11","CAMBRIDGE BAY A","2400603","2019-01-24 02:00","2019","01","24","02:00","-37.4","","-42.0","","63","","","M","29","","22","","","M","101.83","","","","-53","","NA"
"-105.14","69.11","CAMBRIDGE BAY A","2400603","2019-01-24 03:00","2019","01","24","03:00","-36.8","","-41.3","","64","","","M","30","","26","","","M","101.84","","","","-53","","NA"
"-105.14","69.11","CAMBRIDGE BAY A","2400603","2019-01-24 04:00","2019","01","24","04:00","-38.0","","-42.6","","64","","","M","27","","20","","","M","101.84","","","","-53","","NA"
"-105.14","69.11","CAMBRIDGE BAY A","2400603","2019-01-24 05:00","2019","01","24","05:00","-38.2","","-42.7","","64","","","M","28","","24","","","M","101.83","","","","-55","","NA"
"-105.14","69.11","CAMBRIDGE BAY A","2400603","2019-01-24 06:00","2019","01","24","06:00","-38.3","","-42.8","","64","","","M","29","","24","","","M","101.84","","","","-55","","NA"
"-105.14","69.11","CAMBRIDGE BAY A","2400603","2019-01-24 07:00","2019","01","24","07:00","-39.1","","-43.7","","63","","","M","29","","24","","","M","101.84","","","","-56","","NA"
"-105.14","69.11","CAMBRIDGE BAY A","2400603","2019-01-24 08:00","2019","01","24","08:00","-38.3","","-42.8","","64","","","M","30","","21","","","M","101.85","","","","-54","","NA"
"-105.14","69.11","CAMBRIDGE BAY A","2400603","2019-01-24 09:00","2019","01","24","09:00","-39.7","","-44.2","","63","","","M","30","","20","","","M","101.83","","","","-55","","NA"
"-105.14","69.11","CAMBRIDGE BAY A","2400603","2019-01-24 10:00","2019","01","24","10:00","-38.6","","-43.1","","64","","","M","30","","25","","","M","101.81","","","","-56","","NA"
"-105.14","69.11","CAMBRIDGE BAY A","2400603","2019-01-24 11:00","2019","01","24","11:00","-38.0","","-42.5","","64","","","M","29","","18","","","M","101.80","","","","-52","","NA"
"-105.14","69.11","CAMBRIDGE BAY A","2400603","2019-01-24 12:00","2019","01","24","12:00","-39.2","","-43.7","","64","","","M","29","","11","","","M","101.81","","","","-51","","NA"
"-105.14","69.11","CAMBRIDGE BAY A","2400603","2019-01-24 13:00","2019","01","24","13:00","-38.8","","-43.2","","64","","","M","30","","15","","","M","101.80","","","","-52","","NA"
"-105.14","69.11","CAMBRIDGE BAY A","2400603","2019-01-24 14:00","2019","01","24","14:00","-38.8","","-43.3","","64","","","M","29","","13","","","M","101.80","","","","-51","","NA"
"-105.14","69.11","CAMBRIDGE BAY A","2400603","2019-01-24 15:00","2019","01","24","15:00","-39.5","","-44.0","","63","","","M","31","","14","","","M","101.81","","","","-53","","NA"
"-105.14","69.11","CAMBRIDGE BAY A","2400603","2019-01-24 16:00","2019","01","24","16:00","-39.5","","-44.0","","63","","","M","32","","16","","","M","101.84","","","","-54","","NA"
"-105.14","69.11","CAMBRIDGE BAY A","2400603","2019-01-24 17:00","2019","01","24","17:00","-39.0","","-43.6","","63","","","M","31","","9","","","M","101.85","","","","-49","","NA"
"-105.14","69.11","CAMBRIDGE BAY A","2400603","2019-01-24 18:00","2019","01","24","18:00","-39.9","","-44.5","","63","","","M","31","","7","","","M","101.81","","","","-49","","NA"
"-105.14","69.11","CAMBRIDGE BAY A","2400603","2019-01-24 19:00","2019","01","24","19:00","-39.4","","-44.0","","63","","","M","3","","4","","","M","101.78","","","","-45","","NA"
"-105.14","69.11","CAMBRIDGE BAY A","2400603","2019-01-24 20:00","2019","01","24","20:00","-40.2","","-44.9","","62","","","M","8","","7","","","M","101.78","","","","-49","","NA"
"-105.14","69.11","CAMBRIDGE BAY A","2400603","2019-01-24 21:00","2019","01","24","21:00","-39.8","","-44.5","","62","","","M","24","","2","","","M","101.79","","","","-43","","NA"
"-105.14","69.11","CAMBRIDGE BAY A","2400603","2019-01-24 22:00","2019","01","24","22:00","-39.9","","-44.6","","62","","","M","29","","4","","","M","101.79","","","","-45","","NA"
"-105.14","69.11","CAMBRIDGE BAY A","2400603","2019-01-24 23:00","2019","01","24","23:00","-39.9","","-44.5","","62","","","M","7","","7","","","M","101.82","","","","-49","","NA"
"-105.14","69.11","CAMBRIDGE BAY A","2400603","2019-01-25 00:00","2019","01","25","00:00","-39.4","","-44.0","","63","","","M","3","","5","","","M","101.83","","","","-46","","NA"
"-105.14","69.11","CAMBRIDGE BAY A","2400603","2019-01-25 01:00","2019","01","25","01:00","-40.0","","-44.5","","63","","","M","3","","4","","","M","101.84","","","","-46","","NA"
"-105.14","69.11","CAMBRIDGE BAY A","2400603","2019-01-25 02:00","2019","01","25","02:00","-40.8","","-45.5","","62","","","M","6","","10","","","M","101.83","","","","-52","","NA"
"-105.14","69.11","CAMBRIDGE BAY A","2400603","2019-01-25 03:00","2019","01","25","03:00","-39.9","","-44.6","","62","","","M","6","","8","","","M","101.84","","","","-50","","NA"
"-105.14","69.11","CAMBRIDGE BAY A","2400603","2019-01-25 04:00","2019","01","25","04:00","-40.3","","-44.9","","62","","","M","7","","10","","","M","101.83","","","","-51","","NA"
"-105.14","69.11","CAMBRIDGE BAY A","2400603","2019-01-25 05:00","2019","01","25","05:00","-40.6","","-45.2","","62","","","M","7","","7","","","M","101.87","","","","-50","","NA"
"-105.14","69.11","CAMBRIDGE BAY A","2400603","2019-01-25 06:00","2019","01","25","06:00","-41.1","","-45.8","","62","","","M","10","","6","","","M","101.88","","","","-49","","NA"
"-105.14","69.11","CAMBRIDGE BAY A","2400603","2019-01-25 07:00","2019","01","25","07:00","-41.1","","-45.8","","62","","","M","9","","8","","","M","101.85","","","","-51","","NA"
"-105.14","69.11","CAMBRIDGE BAY A","2400603","2019-01-25 08:00","2019","01","25","08:00","-41.1","","-45.8","","62","","","M","7","","8","","","M","101.84","","","","-51","","NA"
"-105.14","69.11","CAMBRIDGE BAY A","2400603","2019-01-25 09:00","2019","01","25","09:00","-40.9","","-45.6","","62","","","M","8","","5","","","M","101.81","","","","-48","","NA"
"-105.14","69.11","CAMBRIDGE BAY A","2400603","2019-01-25 10:00","2019","01","25","10:00","-40.7","","-45.4","","62","","","M","8","","9","","","M","101.81","","","","-51","","NA"
"-105.14","69.11","CAMBRIDGE BAY A","2400603","2019-01-25 11:00","2019","01","25","11:00","-40.2","","-44.9","","62","","","M","11","","15","","","M","101.76","","","","-54","","NA"
"-105.14","69.11","CAMBRIDGE BAY A","2400603","2019-01-25 12:00","2019","01","25","12:00","-39.7","","-44.4","","62","","","M","10","","8","","","M","101.74","","","","-49","","NA"
"-105.14","69.11","CAMBRIDGE BAY A","2400603","2019-01-25 13:00","2019","01","25","13:00","-39.2","","-43.9","","63","","","M","11","","10","","","M","101.70","","","","-50","","NA"
"-105.14","69.11","CAMBRIDGE BAY A","2400603","2019-01-25 14:00","2019","01","25","14:00","-38.7","","-43.3","","63","","","M","12","","11","","","M","101.63","","","","-50","","NA"
"-105.14","69.11","CAMBRIDGE BAY A","2400603","2019-01-25 15:00","2019","01","25","15:00","-39.0","","-43.6","","63","","","M","10","","16","","","M","101.57","","","","-53","","NA"
"-105.14","69.11","CAMBRIDGE BAY A","2400603","2019-01-25 16:00","2019","01","25","16:00","-39.3","","-43.9","","63","","","M","10","","10","","","M","101.51","","","","-50","","NA"
"-105.14","69.11","CAMBRIDGE BAY A","2400603","2019-01-25 17:00","2019","01","25","17:00","-38.4","","-43.0","","63","","","M","10","","10","","","M","101.48","","","","-49","","NA"
"-105.14","69.11","CAMBRIDGE BAY A","2400603","2019-01-25 18:00","2019","01","25","18:00","-38.4","","-43.0","","63","","","M","7","","12","","","M","101.44","","","","-50","","NA"
"-105.14","69.11","CAMBRIDGE BAY A","2400603","2019-01-25 19:00","2019","01","25","19:00","-38.0","","-42.6","","63","","","M","9","","12","","","M","101.39","","","","-50","","NA"
"-105.14","69.11","CAMBRIDGE BAY A","2400603","2019-01-25 20:00","2019","01","25","20:00","-37.7","","-42.3","","63","","","M","9","","17","","","M","101.29","","","","-52","","NA"
"-105.14","69.11","CAMBRIDGE BAY A","2400603","2019-01-25 21:00","2019","01","25","21:00","-37.6","","-42.2","","63","","","M","8","","5","","","M","101.27","","","","-44","","NA"
"-105.14","69.11","CAMBRIDGE BAY A","2400603","2019-01-25 22:00","2019","01","25","22:00","-36.9","","-41.5","","64","","","M","11","","7","","","M","101.21","","","","-45","","NA"
"-105.14","69.11","CAMBRIDGE BAY A","2400603","2019-01-25 23:00","2019","01","25","23:00","-37.4","","-41.9","","64","","","M","8","","14","","","M","101.19","","","","-50","","NA"
"-105.14","69.11","CAMBRIDGE BAY A","2400603","2019-01-26 00:00","2019","01","26","00:00","-37.5","","-42.1","","64","","","M","9","","14","","","M","101.15","","","","-50","","NA"
"-105.14","69.11","CAMBRIDGE BAY A","2400603","2019-01-26 01:00","2019","01","26","01:00","-36.7","","-41.3","","64","","","M","13","","21","","","M","101.12","","","","-52","","NA"
"-105.14","69.11","CAMBRIDGE BAY A","2400603","2019-01-26 02:00","2019","01","26","02:00","-36.7","","-41.2","","64","","","M","12","","23","","","M","101.04","","","","-52","","NA"
"-105.14","69.11","CAMBRIDGE BAY A","2400603","2019-01-26 03:00","2019","01","26","03:00","-36.7","","-41.2","","64","","","M","11","","8","","","M","101.04","","","","-46","","NA"
"-105.14","69.11","CAMBRIDGE BAY A","2400603","2019-01-26 04:00","2019","01","26","04:00","-36.4","","-40.9","","64","","","M","11","","16","","","M","100.98","","","","-50","","NA"
"-105.14","69.11","CAMBRIDGE BAY A","2400603","2019-01-26 05:00","2019","01","26","05:00","-36.7","","-41.2","","64","","","M","11","","17","","","M","100.95","","","","-50","","NA"
"-105.14","69.11","CAMBRIDGE BAY A","2400603","2019-01-26 06:00","2019","01","26","06:00","-37.4","","-42.0","","64","","","M","9","","12","","","M","100.92","","","","-49","","NA"
"-105.14","69.11","CAMBRIDGE BAY A","2400603","2019-01-26 07:00","2019","01","26","07:00","-37.5","","-42.1","","64","","","M","9","","13","","","M","100.87","","","","-50","","NA"
"-105.14","69.11","CAMBRIDGE BAY A","2400603","2019-01-26 08:00","2019","01","26","08:00","-38.1","","-42.7","","63","","","M","7","","14","","","M","100.83","","","","-51","","NA"
"-105.14","69.11","CAMBRIDGE BAY A","2400603","2019-01-26 09:00","2019","01","26","09:00","-38.0","","-42.6","","63","","","M","6","","14","","","M","100.80","","","","-51","","NA"
"-105.14","69.11","CAMBRIDGE BAY A","2400603","2019-01-26 10:00","2019","01","26","10:00","-38.1","","-42.6","","63","","","M","7","","19","","","M","100.78","","","","-53","","NA"
"-105.14","69.11","CAMBRIDGE BAY A","2400603","2019-01-26 11:00","2019","01","26","11:00","-38.2","","-42.8","","63","","","M","6","","17","","","M","100.75","","","","-52","","NA"
"-105.14","69.11","CAMBRIDGE BAY A","2400603","2019-01-26 12:00","2019","01","26","12:00","-37.9","","-42.5","","63","","","M","7","","19","","","M","100.70","","","","-53","","NA"
"-105.14","69.11","CAMBRIDGE BAY A","2400603","2019-01-26 13:00","2019","01","26","13:00","-38.5","","-43.2","","63","","","M","5","","15","","","M","100.68","","","","-52","","NA"
"-105.14","69.11","CAMBRIDGE BAY A","2400603","2019-01-26 14:00","2019","01","26","14:00","-38.2","","-42.8","","63","","","M","5","","17","","","M","100.66","","","","-52","","NA"
"-105.14","69.11","CAMBRIDGE BAY A","2400603","2019-01-26 15:00","2019","01","26","15:00","-39.5","","-44.1","","63","","","M","5","","12","","","M","100.63","","","","-52","","NA"
"-105.14","69.11","CAMBRIDGE BAY A","2400603","2019-01-26 16:00","2019","01","26","16:00","-39.7","","-44.4","","62","","","M","5","","10","","","M","100.65","","","","-51","","NA"
"-105.14","69.11","CAMBRIDGE BAY A","2400603","2019-01-26 17:00","2019","01","26","17:00","-39.4","","-44.0","","63","","","M","1","","14","","","M","100.66","","","","-53","","NA"
"-105.14","69.11","CAMBRIDGE BAY A","2400603","2019-01-26 18:00","2019","01","26","18:00","-40.0","","-44.6","","62","","","M","3","","17","","","M","100.62","","","","-55","","NA"
"-105.14","69.11","CAMBRIDGE BAY A","2400603","2019-01-26 19:00","2019","01","26","19:00","-39.8","","-44.5","","62","","","M","2","","17","","","M","100.59","","","","-54","","NA"
"-105.14","69.11","CAMBRIDGE BAY A","2400603","2019-01-26 20:00","2019","01","26","20:00","-40.0","","-44.6","","62","","","M","2","","14","","","M","100.61","","","","-53","","NA"
"-105.14","69.11","CAMBRIDGE BAY A","2400603","2019-01-26 21:00","2019","01","26","21:00","-39.6","","-44.3","","62","","","M","1","","17","","","M","100.62","","","","-54","","NA"
"-105.14","69.11","CAMBRIDGE BAY A","2400603","2019-01-26 22:00","2019","01","26","22:00","-39.6","","-44.3","","62","","","M","2","","16","","","M","100.69","","","","-54","","NA"
"-105.14","69.11","CAMBRIDGE BAY A","2400603","2019-01-26 23:00","2019","01","26","23:00","-39.5","","-44.2","","62","","","M","1","","22","","","M","100.73","","","","-56","","NA"
"-105.14","69.11","CAMBRIDGE BAY A","2400603","2019-01-27 00:00","2019","01","27","00:00","-40.0","","-44.7","","62","","","M","36","","14","","","M","100.79","","","","-53","","NA"
"-105.14","69.11","CAMBRIDGE BAY A","2400603","2019-01-27 01:00","2019","01","27","01:00","-39.3","","-44.1","","62","","","M","35","","12","","","M","100.85","","","","-51","","NA"
"-105.14","69.11","CAMBRIDGE BAY A","2400603","2019-01-27 02:00","2019","01","27","02:00","-39.9","","-44.6","","62","","","M","28","","8","","","M","100.92","","","","-50","","NA"
"-105.14","69.11","CAMBRIDGE BAY A","2400603","2019-01-27 03:00","2019","01","27","03:00","-40.2","","-45.0","","62","","","M","29","","13","","","M","101.01","","","","-53","","NA"
"-105.14","69.11","CAMBRIDGE BAY A","2400603","2019-01-27 04:00","2019","01","27","04:00","-39.4","","-44.1","","62","","","M","32","","16","","","M","101.07","","","","-53","","NA"
"-105.14","69.11","CAMBRIDGE BAY A","2400603","2019-01-27 05:00","2019","01","27","05:00","-38.5","","-43.2","","63","","","M","34","","22","","","M","101.12","","","","-54","","NA"
"-105.14","69.11","CAMBRIDGE BAY A","2400603","2019-01-27 06:00","2019","01","27","06:00","-38.3","","-43.0","","63","","","M","33","","30","","","M","101.21","","","","-56","","NA"
"-105.14","69.11","CAMBRIDGE BAY A","2400603","2019-01-27 07:00","2019","01","27","07:00","-39.1","","-43.8","","62","","","M","32","","28","","","M","101.27","","","","-57","","NA"
"-105.14","69.11","CAMBRIDGE BAY A","2400603","2019-01-27 08:00","2019","01","27","08:00","-39.9","","-44.6","","62","","","M","34","","25","","","M","101.39","","","","-57","","NA"
"-105.14","69.11","CAMBRIDGE BAY A","2400603","2019-01-27 09:00","2019","01","27","09:00","-40.0","","-44.7","","62","","","M","33","","25","","","M","101.45","","","","-57","","NA"
"-105.14","69.11","CAMBRIDGE BAY A","2400603","2019-01-27 10:00","2019","01","27","10:00","-39.7","","-44.5","","62","","","M","34","","23","","","M","101.56","","","","-56","","NA"
"-105.14","69.11","CAMBRIDGE BAY A","2400603","2019-01-27 11:00","2019","01","27","11:00","-39.9","","-44.6","","62","","","M","33","","28","","","M","101.59","","","","-58","","NA"
"-105.14","69.11","CAMBRIDGE BAY A","2400603","2019-01-27 12:00","2019","01","27","12:00","-39.7","","-44.4","","62","","","M","34","","34","","","M","101.61","","","","-59","","NA"
"-105.14","69.11","CAMBRIDGE BAY A","2400603","2019-01-27 13:00","2019","01","27","13:00","-39.6","","-44.3","","62","","","M","34","","32","","","M","101.71","","","","-59","","NA"
"-105.14","69.11","CAMBRIDGE BAY A","2400603","2019-01-27 14:00","2019","01","27","14:00","-39.6","","-44.3","","62","","","M","34","","38","","","M","101.78","","","","-60","","NA"
"-105.14","69.11","CAMBRIDGE BAY A","2400603","2019-01-27 15:00","2019","01","27","15:00","-39.5","","-44.2","","62","","","M","33","","29","","","M","101.89","","","","-58","","NA"
"-105.14","69.11","CAMBRIDGE BAY A","2400603","2019-01-27 16:00","2019","01","27","16:00","-39.4","","-44.1","","62","","","M","35","","26","","","M","101.98","","","","-57","","NA"
"-105.14","69.11","CAMBRIDGE BAY A","2400603","2019-01-27 17:00","2019","01","27","17:00","-39.9","","-44.6","","62","","","M","33","","23","","","M","102.09","","","","-57","","NA"
"-105.14","69.11","CAMBRIDGE BAY A","2400603","2019-01-27 18:00","2019","01","27","18:00","-39.3","","-44.0","","62","","","M","34","","21","","","M","102.19","","","","-55","","NA"
"-105.14","69.11","CAMBRIDGE BAY A","2400603","2019-01-27 19:00","2019","01","27","19:00","-38.6","","-43.3","","62","","","M","35","","21","","","M","102.26","","","","-54","","NA"
"-105.14","69.11","CAMBRIDGE BAY A","2400603","2019-01-27 20:00","2019","01","27","20:00","-38.2","","-42.9","","62","","","M","35","","24","","","M","102.35","","","","-55","","NA"
"-105.14","69.11","CAMBRIDGE BAY A","2400603","2019-01-27 21:00","2019","01","27","21:00","-38.0","","-42.6","","63","","","M","35","","22","","","M","102.41","","","","-54","","NA"
"-105.14","69.11","CAMBRIDGE BAY A","2400603","2019-01-27 22:00","2019","01","27","22:00","-37.5","","-42.2","","63","","","M","35","","15","","","M","102.48","","","","-51","","NA"
"-105.14","69.11","CAMBRIDGE BAY A","2400603","2019-01-27 23:00","2019","01","27","23:00","-37.2","","-41.8","","63","","","M","35","","17","","","M","102.56","","","","-51","","NA"
"-105.14","69.11","CAMBRIDGE BAY A","2400603","2019-01-28 00:00","2019","01","28","00:00","-36.6","","-41.2","","64","","","M","34","","22","","","M","102.57","","","","-52","","NA"
"-105.14","69.11","CAMBRIDGE BAY A","2400603","2019-01-28 01:00","2019","01","28","01:00","-35.7","","-40.2","","64","","","M","33","","19","","","M","102.66","","","","-50","","NA"
"-105.14","69.11","CAMBRIDGE BAY A","2400603","2019-01-28 02:00","2019","01","28","02:00","-35.4","","-39.9","","64","","","M","32","","32","","","M","102.66","","","","-53","","NA"
"-105.14","69.11","CAMBRIDGE BAY A","2400603","2019-01-28 03:00","2019","01","28","03:00","-34.5","","-39.0","","64","","","M","32","","18","","","M","102.77","","","","-48","","NA"
"-105.14","69.11","CAMBRIDGE BAY A","2400603","2019-01-28 04:00","2019","01","28","04:00","-34.6","","-39.1","","64","","","M","31","","15","","","M","102.82","","","","-47","","NA"
"-105.14","69.11","CAMBRIDGE BAY A","2400603","2019-01-28 05:00","2019","01","28","05:00","-34.3","","-38.8","","65","","","M","32","","27","","","M","102.82","","","","-51","","NA"
"-105.14","69.11","CAMBRIDGE BAY A","2400603","2019-01-28 06:00","2019","01","28","06:00","-34.0","","-38.4","","65","","","M","32","","22","","","M","102.86","","","","-49","","NA"
"-105.14","69.11","CAMBRIDGE BAY A","2400603","2019-01-28 07:00","2019","01","28","07:00","-33.7","","-38.1","","65","","","M","33","","36","","","M","102.80","","","","-52","","NA"
"-105.14","69.11","CAMBRIDGE BAY A","2400603","2019-01-28 08:00","2019","01","28","08:00","-34.3","","-38.8","","65","","","M","32","","35","","","M","102.83","","","","-52","","NA"
"-105.14","69.11","CAMBRIDGE BAY A","2400603","2019-01-28 09:00","2019","01","28","09:00","-34.5","","-39.0","","65","","","M","33","","35","","","M","102.84","","","","-53","","NA"
"-105.14","69.11","CAMBRIDGE BAY A","2400603","2019-01-28 10:00","2019","01","28","10:00","-34.6","","-39.0","","65","","","M","32","","32","","","M","102.86","","","","-52","","NA"
"-105.14","69.11","CAMBRIDGE BAY A","2400603","2019-01-28 11:00","2019","01","28","11:00","","M","","M","","M","","M","","M","","M","","M","","M","","","","","NA"
"-105.14","69.11","CAMBRIDGE BAY A","2400603","2019-01-28 12:00","2019","01","28","12:00","-34.2","","-38.6","","65","","","M","31","","38","","","M","102.86","","","","-53","","NA"
"-105.14","69.11","CAMBRIDGE BAY A","2400603","2019-01-28 13:00","2019","01","28","13:00","-34.6","","-39.1","","65","","","M","31","","39","","","M","102.84","","","","-53","","NA"
"-105.14","69.11","CAMBRIDGE BAY A","2400603","2019-01-28 14:00","2019","01","28","14:00","-35.0","","-39.5","","65","","","M","32","","32","","","M","102.86","","","","-53","","NA"
"-105.14","69.11","CAMBRIDGE BAY A","2400603","2019-01-28 15:00","2019","01","28","15:00","-35.5","","-40.0","","64","","","M","32","","20","","","M","102.90","","","","-50","","NA"
"-105.14","69.11","CAMBRIDGE BAY A","2400603","2019-01-28 16:00","2019","01","28","16:00","-35.5","","-40.1","","64","","","M","31","","11","","","M","102.94","","","","-46","","NA"
"-105.14","69.11","CAMBRIDGE BAY A","2400603","2019-01-28 17:00","2019","01","28","17:00","-35.5","","-40.0","","64","","","M","32","","24","","","M","102.92","","","","-51","","NA"
"-105.14","69.11","CAMBRIDGE BAY A","2400603","2019-01-28 18:00","2019","01","28","18:00","-35.0","","-39.5","","65","","","M","34","","23","","","M","102.89","","","","-50","","NA"
"-105.14","69.11","CAMBRIDGE BAY A","2400603","2019-01-28 19:00","2019","01","28","19:00","-36.0","","-40.6","","64","","","M","32","","22","","","M","102.90","","","","-51","","NA"
"-105.14","69.11","CAMBRIDGE BAY A","2400603","2019-01-28 20:00","2019","01","28","20:00","-35.5","","-40.1","","64","","","M","31","","18","","","M","102.95","","","","-49","","NA"
"-105.14","69.11","CAMBRIDGE BAY A","2400603","2019-01-28 21:00","2019","01","28","21:00","-36.0","","-40.6","","64","","","M","32","","21","","","M","102.90","","","","-51","","NA"
"-105.14","69.11","CAMBRIDGE BAY A","2400603","2019-01-28 22:00","2019","01","28","22:00","-36.0","","-40.6","","64","","","M","30","","21","","","M","102.88","","","","-51","","NA"
"-105.14","69.11","CAMBRIDGE BAY A","2400603","2019-01-28 23:00","2019","01","28","23:00","-35.4","","-40.0","","64","","","M","31","","22","","","M","102.87","","","","-51","","NA"
"-105.14","69.11","CAMBRIDGE BAY A","2400603","2019-01-29 00:00","2019","01","29","00:00","-36.0","","-40.6","","64","","","M","29","","21","","","M","102.88","","","","-51","","NA"
"-105.14","69.11","CAMBRIDGE BAY A","2400603","2019-01-29 01:00","2019","01","29","01:00","-35.5","","-40.1","","64","","","M","32","","21","","","M","102.83","","","","-50","","NA"
"-105.14","69.11","CAMBRIDGE BAY A","2400603","2019-01-29 02:00","2019","01","29","02:00","-35.8","","-40.5","","64","","","M","30","","16","","","M","102.84","","","","-49","","NA"
"-105.14","69.11","CAMBRIDGE BAY A","2400603","2019-01-29 03:00","2019","01","29","03:00","-36.2","","-40.8","","64","","","M","31","","18","","","M","102.81","","","","-50","","NA"
"-105.14","69.11","CAMBRIDGE BAY A","2400603","2019-01-29 04:00","2019","01","29","04:00","-36.6","","-41.2","","64","","","M","29","","13","","","M","102.83","","","","-49","","NA"
"-105.14","69.11","CAMBRIDGE BAY A","2400603","2019-01-29 05:00","2019","01","29","05:00","-36.9","","-41.5","","63","","","M","29","","17","","","M","102.80","","","","-51","","NA"
"-105.14","69.11","CAMBRIDGE BAY A","2400603","2019-01-29 06:00","2019","01","29","06:00","-37.1","","-41.8","","63","","","M","27","","16","","","M","102.80","","","","-51","","NA"
"-105.14","69.11","CAMBRIDGE BAY A","2400603","2019-01-29 07:00","2019","01","29","07:00","-35.6","","-40.3","","64","","","M","29","","19","","","M","102.77","","","","-50","","NA"
"-105.14","69.11","CAMBRIDGE BAY A","2400603","2019-01-29 08:00","2019","01","29","08:00","-36.9","","-41.6","","63","","","M","30","","18","","","M","102.74","","","","-51","","NA"
"-105.14","69.11","CAMBRIDGE BAY A","2400603","2019-01-29 09:00","2019","01","29","09:00","-36.7","","-41.4","","63","","","M","31","","20","","","M","102.70","","","","-52","","NA"
"-105.14","69.11","CAMBRIDGE BAY A","2400603","2019-01-29 10:00","2019","01","29","10:00","-36.6","","-41.3","","63","","","M","30","","23","","","M","102.68","","","","-52","","NA"
"-105.14","69.11","CAMBRIDGE BAY A","2400603","2019-01-29 11:00","2019","01","29","11:00","-36.4","","-41.1","","63","","","M","30","","21","","","M","102.63","","","","-51","","NA"
"-105.14","69.11","CAMBRIDGE BAY A","2400603","2019-01-29 12:00","2019","01","29","12:00","-36.1","","-40.8","","63","","","M","29","","18","","","M","102.62","","","","-50","","NA"
"-105.14","69.11","CAMBRIDGE BAY A","2400603","2019-01-29 13:00","2019","01","29","13:00","-35.6","","-40.3","","63","","","M","30","","22","","","M","102.57","","","","-51","","NA"
"-105.14","69.11","CAMBRIDGE BAY A","2400603","2019-01-29 14:00","2019","01","29","14:00","-35.7","","-40.4","","63","","","M","27","","8","","","M","102.58","","","","-45","","NA"
"-105.14","69.11","CAMBRIDGE BAY A","2400603","2019-01-29 15:00","2019","01","29","15:00","-36.3","","-40.9","","63","","","M","34","","13","","","M","102.54","","","","-48","","NA"
"-105.14","69.11","CAMBRIDGE BAY A","2400603","2019-01-29 16:00","2019","01","29","16:00","-36.3","","-41.0","","63","","","M","31","","15","","","M","102.52","","","","-49","","NA"
"-105.14","69.11","CAMBRIDGE BAY A","2400603","2019-01-29 17:00","2019","01","29","17:00","-37.5","","-42.0","","64","","","M","31","","15","","","M","102.49","","","","-51","","NA"
"-105.14","69.11","CAMBRIDGE BAY A","2400603","2019-01-29 18:00","2019","01","29","18:00","-37.9","","-42.4","","64","","","M","32","","17","","","M","102.41","","","","-52","","NA"
"-105.14","69.11","CAMBRIDGE BAY A","2400603","2019-01-29 19:00","2019","01","29","19:00","-37.6","","-42.0","","64","","","M","31","","18","","","M","102.38","","","","-52","","NA"
"-105.14","69.11","CAMBRIDGE BAY A","2400603","2019-01-29 20:00","2019","01","29","20:00","-38.6","","-43.1","","64","","","M","32","","18","","","M","102.30","","","","-53","","NA"
"-105.14","69.11","CAMBRIDGE BAY A","2400603","2019-01-29 21:00","2019","01","29","21:00","-37.5","","-42.0","","64","","","M","31","","22","","","M","102.29","","","","-53","","NA"
"-105.14","69.11","CAMBRIDGE BAY A","2400603","2019-01-29 22:00","2019","01","29","22:00","-38.9","","-43.5","","63","","","M","32","","22","","","M","102.24","","","","-55","","NA"
"-105.14","69.11","CAMBRIDGE BAY A","2400603","2019-01-29 23:00","2019","01","29","23:00","-39.1","","-43.7","","63","","","M","32","","18","","","M","102.19","","","","-54","","NA"
"-105.14","69.11","CAMBRIDGE BAY A","2400603","2019-01-30 00:00","2019","01","30","00:00","-38.7","","-43.3","","63","","","M","33","","15","","","M","102.15","","","","-52","","NA"
"-105.14","69.11","CAMBRIDGE BAY A","2400603","2019-01-30 01:00","2019","01","30","01:00","-38.9","","-43.5","","63","","","M","34","","7","","","M","102.13","","","","-48","","NA"
"-105.14","69.11","CAMBRIDGE BAY A","2400603","2019-01-30 02:00","2019","01","30","02:00","-39.0","","-43.6","","63","","","M","33","","5","","","M","102.10","","","","-46","","NA"
"-105.14","69.11","CAMBRIDGE BAY A","2400603","2019-01-30 03:00","2019","01","30","03:00","-39.5","","-44.1","","63","","","M","33","","7","","","M","102.07","","","","-48","","NA"
"-105.14","69.11","CAMBRIDGE BAY A","2400603","2019-01-30 04:00","2019","01","30","04:00","-39.1","","-43.7","","63","","","M","34","","5","","","M","102.06","","","","-46","","NA"
"-105.14","69.11","CAMBRIDGE BAY A","2400603","2019-01-30 05:00","2019","01","30","05:00","-39.4","","-44.0","","63","","","M","33","","7","","","M","102.05","","","","-48","","NA"
"-105.14","69.11","CAMBRIDGE BAY A","2400603","2019-01-30 06:00","2019","01","30","06:00","-39.7","","-44.3","","63","","","M","34","","8","","","M","102.01","","","","-49","","NA"
"-105.14","69.11","CAMBRIDGE BAY A","2400603","2019-01-30 07:00","2019","01","30","07:00","-40.0","","-44.6","","63","","","M","32","","10","","","M","101.99","","","","-51","","NA"
"-105.14","69.11","CAMBRIDGE BAY A","2400603","2019-01-30 08:00","2019","01","30","08:00","-39.8","","-44.4","","63","","","M","33","","7","","","M","101.96","","","","-49","","NA"
"-105.14","69.11","CAMBRIDGE BAY A","2400603","2019-01-30 09:00","2019","01","30","09:00","-39.2","","-43.8","","63","","","M","33","","4","","","M","101.98","","","","-45","","NA"
"-105.14","69.11","CAMBRIDGE BAY A","2400603","2019-01-30 10:00","2019","01","30","10:00","-39.3","","-43.9","","63","","","M","2","","9","","","M","101.94","","","","-50","","NA"
"-105.14","69.11","CAMBRIDGE BAY A","2400603","2019-01-30 11:00","2019","01","30","11:00","-38.7","","-43.3","","63","","","M","2","","14","","","M","101.92","","","","-52","","NA"
"-105.14","69.11","CAMBRIDGE BAY A","2400603","2019-01-30 12:00","2019","01","30","12:00","-39.9","","-44.5","","62","","","M","3","","12","","","M","101.90","","","","-52","","NA"
"-105.14","69.11","CAMBRIDGE BAY A","2400603","2019-01-30 13:00","2019","01","30","13:00","-39.3","","-44.0","","63","","","M","3","","9","","","M","101.91","","","","-50","","NA"
"-105.14","69.11","CAMBRIDGE BAY A","2400603","2019-01-30 14:00","2019","01","30","14:00","-39.2","","-43.9","","62","","","M","1","","11","","","M","101.91","","","","-51","","NA"
"-105.14","69.11","CAMBRIDGE BAY A","2400603","2019-01-30 15:00","2019","01","30","15:00","-40.3","","-45.0","","62","","","M","3","","12","","","M","101.92","","","","-53","","NA"
"-105.14","69.11","CAMBRIDGE BAY A","2400603","2019-01-30 16:00","2019","01","30","16:00","-40.0","","-44.6","","62","","","M","3","","12","","","M","101.91","","","","-52","","NA"
"-105.14","69.11","CAMBRIDGE BAY A","2400603","2019-01-30 17:00","2019","01","30","17:00","-39.6","","-44.3","","62","","","M","2","","10","","","M","101.92","","","","-51","","NA"
"-105.14","69.11","CAMBRIDGE BAY A","2400603","2019-01-30 18:00","2019","01","30","18:00","-39.7","","-44.4","","62","","","M","1","","10","","","M","101.91","","","","-51","","NA"
"-105.14","69.11","CAMBRIDGE BAY A","2400603","2019-01-30 19:00","2019","01","30","19:00","-40.0","","-44.6","","62","","","M","3","","14","","","M","101.91","","","","-53","","NA"
"-105.14","69.11","CAMBRIDGE BAY A","2400603","2019-01-30 20:00","2019","01","30","20:00","-40.3","","-44.9","","62","","","M","3","","13","","","M","101.90","","","","-53","","NA"
"-105.14","69.11","CAMBRIDGE BAY A","2400603","2019-01-30 21:00","2019","01","30","21:00","-39.2","","-43.8","","63","","","M","3","","12","","","M","101.87","","","","-51","","NA"
"-105.14","69.11","CAMBRIDGE BAY A","2400603","2019-01-30 22:00","2019","01","30","22:00","-39.1","","-43.8","","63","","","M","4","","11","","","M","101.87","","","","-51","","NA"
"-105.14","69.11","CAMBRIDGE BAY A","2400603","2019-01-30 23:00","2019","01","30","23:00","-39.9","","-44.5","","63","","","M","5","","10","","","M","101.89","","","","-51","","NA"
"-105.14","69.11","CAMBRIDGE BAY A","2400603","2019-01-31 00:00","2019","01","31","00:00","-39.3","","-43.9","","63","","","M","4","","10","","","M","101.89","","","","-50","","NA"
"-105.14","69.11","CAMBRIDGE BAY A","2400603","2019-01-31 01:00","2019","01","31","01:00","-38.3","","-42.9","","63","","","M","4","","9","","","M","101.90","","","","-48","","NA"
"-105.14","69.11","CAMBRIDGE BAY A","2400603","2019-01-31 02:00","2019","01","31","02:00","-37.9","","-42.5","","63","","","M","7","","11","","","M","101.90","","","","-49","","NA"
"-105.14","69.11","CAMBRIDGE BAY A","2400603","2019-01-31 03:00","2019","01","31","03:00","-38.4","","-43.0","","63","","","M","7","","14","","","M","101.94","","","","-51","","NA"
"-105.14","69.11","CAMBRIDGE BAY A","2400603","2019-01-31 04:00","2019","01","31","04:00","-38.1","","-42.7","","63","","","M","6","","13","","","M","101.96","","","","-50","","NA"
"-105.14","69.11","CAMBRIDGE BAY A","2400603","2019-01-31 05:00","2019","01","31","05:00","-39.1","","-43.8","","63","","","M","4","","9","","","M","101.99","","","","-49","","NA"
"-105.14","69.11","CAMBRIDGE BAY A","2400603","2019-01-31 06:00","2019","01","31","06:00","-39.4","","-44.1","","63","","","M","3","","11","","","M","102.00","","","","-51","","NA"
"-105.14","69.11","CAMBRIDGE BAY A","2400603","2019-01-31 07:00","2019","01","31","07:00","-39.4","","-44.1","","63","","","M","2","","14","","","M","102.01","","","","-53","","NA"
"-105.14","69.11","CAMBRIDGE BAY A","2400603","2019-01-31 08:00","2019","01","31","08:00","-40.4","","-45.1","","62","","","M","3","","10","","","M","102.01","","","","-52","","NA"
"-105.14","69.11","CAMBRIDGE BAY A","2400603","2019-01-31 09:00","2019","01","31","09:00","-40.3","","-44.9","","62","","","M","3","","16","","","M","102.03","","","","-55","","NA"
"-105.14","69.11","CAMBRIDGE BAY A","2400603","2019-01-31 10:00","2019","01","31","10:00","-40.2","","-44.8","","62","","","M","5","","13","","","M","102.05","","","","-53","","NA"
"-105.14","69.11","CAMBRIDGE BAY A","2400603","2019-01-31 11:00","2019","01","31","11:00","-39.2","","-43.9","","63","","","M","2","","12","","","M","102.10","","","","-51","","NA"
"-105.14","69.11","CAMBRIDGE BAY A","2400603","2019-01-31 12:00","2019","01","31","12:00","-39.5","","-44.1","","63","","","M","4","","16","","","M","102.13","","","","-54","","NA"
"-105.14","69.11","CAMBRIDGE BAY A","2400603","2019-01-31 13:00","2019","01","31","13:00","-39.0","","-43.6","","63","","","M","2","","12","","","M","102.14","","","","-51","","NA"
"-105.14","69.11","CAMBRIDGE BAY A","2400603","2019-01-31 14:00","2019","01","31","14:00","-38.6","","-43.2","","63","","","M","1","","13","","","M","102.18","","","","-51","","NA"
"-105.14","69.11","CAMBRIDGE BAY A","2400603","2019-01-31 15:00","2019","01","31","15:00","-38.3","","-42.9","","63","","","M","1","","13","","","M","102.23","","","","-51","","NA"
"-105.14","69.11","CAMBRIDGE BAY A","2400603","2019-01-31 16:00","2019","01","31","16:00","-38.0","","-42.6","","63","","","M","3","","16","","","M","102.28","","","","-52","","NA"
"-105.14","69.11","CAMBRIDGE BAY A","2400603","2019-01-31 17:00","2019","01","31","17:00","-37.6","","-42.1","","64","","","M","3","","20","","","M","102.30","","","","-53","","NA"
"-105.14","69.11","CAMBRIDGE BAY A","2400603","2019-01-31 18:00","2019","01","31","18:00","-37.9","","-42.4","","63","","","M","3","","12","","","M","102.32","","","","-50","","NA"
"-105.14","69.11","CAMBRIDGE BAY A","2400603","2019-01-31 19:00","2019","01","31","19:00","-38.8","","-43.4","","63","","","M","3","","23","","","M","102.31","","","","-55","","NA"
"-105.14","69.11","CAMBRIDGE BAY A","2400603","2019-01-31 20:00","2019","01","31","20:00","-39.0","","-43.6","","63","","","M","2","","14","","","M","102.36","","","","-52","","NA"
"-105.14","69.11","CAMBRIDGE BAY A","2400603","2019-01-31 21:00","2019","01","31","21:00","-37.8","","-42.4","","63","","","M","36","","11","","","M","102.35","","","","-49","","NA"
"-105.14","69.11","CAMBRIDGE BAY A","2400603","2019-01-31 22:00","2019","01","31","22:00","-37.9","","-42.5","","63","","","M","1","","12","","","M","102.38","","","","-50","","NA"
"-105.14","69.11","CAMBRIDGE BAY A","2400603","2019-01-31 23:00","2019","01","31","23:00","-37.9","","-42.4","","63","","","M","35","","15","","","M","102.40","","","","-51","","NA"
