"Longitude (x)","Latitude (y)","Station Name","Climate ID","Date/Time (LST)","Year","Month","Day","Time (LST)","Temp (°C)","Temp Flag","Dew Point Temp (°C)","Dew Point Temp Flag","Rel Hum (%)","Rel Hum Flag","Precip. Amount (mm)","Precip. Amount Flag","Wind Dir (10s deg)","Wind Dir Flag","Wind Spd (km/h)","Wind Spd Flag","Visibility (km)","Visibility Flag","Stn Press (kPa)","Stn Press Flag","Hmdx","Hmdx Flag","Wind Chill","Wind Chill Flag","Weather"
"-115.14","67.82","KUGLUKTUK A","2300902","2012-02-01 00:00","2012","02","01","00:00","-33.0","","-36.3","","72","","","","","","0","","19.3","","100.21","","","","","","Ice Crystals"
"-115.14","67.82","KUGLUKTUK A","2300902","2012-02-01 01:00","2012","02","01","01:00","-32.2","","-35.4","","73","","","","","","0","","19.3","","100.23","","","","","","Ice Crystals"
"-115.14","67.82","KUGLUKTUK A","2300902","2012-02-01 02:00","2012","02","01","02:00","-31.5","","-34.7","","73","","","","","","0","","19.3","","100.27","","","","","","Ice Crystals"
"-115.14","67.82","KUGLUKTUK A","2300902","2012-02-01 03:00","2012","02","01","03:00","-32.2","","-35.4","","73","","","","","","0","","19.3","","100.32","","","","","","Ice Crystals"
"-115.14","67.82","KUGLUKTUK A","2300902","2012-02-01 04:00","2012","02","01","04:00","-32.6","","-35.8","","73","","","","24","","11","","16.1","","100.35","","","","-43","","Ice Crystals"
"-115.14","67.82","KUGLUKTUK A","2300902","2012-02-01 05:00","2012","02","01","05:00","-30.7","","-33.8","","74","","","","24","","7","","16.1","","100.36","","","","-38","","Ice Crystals"
"-115.14","67.82","KUGLUKTUK A","2300902","2012-02-01 06:00","2012","02","01","06:00","-28.9","","-31.9","","75","","","","24","","13","","19.3","","100.35","","","","-39","","Ice Crystals"
"-115.14","67.82","KUGLUKTUK A","2300902","2012-02-01 07:00","2012","02","01","07:00","-28.6","","-31.6","","75","","","","","","0","","19.3","","100.42","","","","","","Ice Crystals"
"-115.14","67.82","KUGLUKTUK A","2300902","2012-02-01 08:00","2012","02","01","08:00","-27.7","","-30.6","","76","","","","23","","17","","19.3","","100.47","","","","-39","","Ice Crystals"
"-115.14","67.82","KUGLUKTUK A","2300902","2012-02-01 09:00","2012","02","01","09:00","-26.9","","-29.7","","77","","","","22","","9","","24.1","","100.52","","","","-35","","Ice Crystals"
"-115.14","67.82","KUGLUKTUK A","2300902","2012-02-01 10:00","2012","02","01","10:00","-27.5","","-30.4","","76","","","","31","","6","","24.1","","100.58","","","","-34","","Mostly Cloudy"
"-115.14","67.82","KUGLUKTUK A","2300902","2012-02-01 11:00","2012","02","01","11:00","-26.6","","-29.4","","77","","","","22","","11","","24.1","","100.59","","","","-36","","Mainly Clear"
"-115.14","67.82","KUGLUKTUK A","2300902","2012-02-01 12:00","2012","02","01","12:00","-27.1","","-29.9","","77","","","","34","","6","","24.1","","100.67","","","","-33","","Mostly Cloudy"
"-115.14","67.82","KUGLUKTUK A","2300902","2012-02-01 13:00","2012","02","01","13:00","-26.4","","-29.2","","77","","","","26","","19","","24.1","","100.73","","","","-38","","Mostly Cloudy"
"-115.14","67.82","KUGLUKTUK A","2300902","2012-02-01 14:00","2012","02","01","14:00","-27.6","","-30.5","","76","","","","25","","19","","24.1","","100.87","","","","-40","","Clear"
"-115.14","67.82","KUGLUKTUK A","2300902","2012-02-01 15:00","2012","02","01","15:00","-28.0","","-30.9","","76","","","","25","","17","","24.1","","100.97","","","","-40","","Clear"
"-115.14","67.82","KUGLUKTUK A","2300902","2012-02-01 16:00","2012","02","01","16:00","-28.1","","-31.0","","76","","","","24","","19","","24.1","","101.05","","","","-40","","Mostly Cloudy"
"-115.14","67.82","KUGLUKTUK A","2300902","2012-02-01 17:00","2012","02","01","17:00","-28.4","","-31.3","","76","","","","22","","11","","24.1","","101.13","","","","-38","","Mainly Clear"
"-115.14","67.82","KUGLUKTUK A","2300902","2012-02-01 18:00","2012","02","01","18:00","-26.4","","-29.2","","77","","","","26","","13","","24.1","","101.17","","","","-36","","Mostly Cloudy"
"-115.14","67.82","KUGLUKTUK A","2300902","2012-02-01 19:00","2012","02","01","19:00","-27.3","","-30.2","","76","","","","23","","6","","24.1","","101.22","","","","-33","","Mostly Cloudy"
"-115.14","67.82","KUGLUKTUK A","2300902","2012-02-01 20:00","2012","02","01","20:00","-26.4","","-29.2","","77","","","","","","0","","24.1","","101.21","","","","","","Mostly Cloudy"
"-115.14","67.82","KUGLUKTUK A","2300902","2012-02-01 21:00","2012","02","01","21:00","-27.6","","-30.5","","76","","","","","","0","","24.1","","101.20","","","","","","Mostly Cloudy"
"-115.14","67.82","KUGLUKTUK A","2300902","2012-02-01 22:00","2012","02","01","22:00","-27.1","","-29.9","","77","","","","11","","7","","24.1","","101.15","","","","-34","","Mainly Clear"
"-115.14","67.82","KUGLUKTUK A","2300902","2012-02-01 23:00","2012","02","01","23:00","-28.4","","-31.3","","76","","","","","","0","","24.1","","101.13","","","","","","Mainly Clear"
"-115.14","67.82","KUGLUKTUK A","2300902","2012-02-02 00:00","2012","02","02","00:00","-28.7","","-31.7","","75","","","","","","0","","24.1","","101.12","","","","","","Mainly Clear"
"-115.14","67.82","KUGLUKTUK A","2300902","2012-02-02 01:00","2012","02","02","01:00","-26.5","","-29.3","","77","","","","11","","13","","24.1","","100.96","","","","-36","","Mainly Clear"
"-115.14","67.82","KUGLUKTUK A","2300902","2012-02-02 02:00","2012","02","02","02:00","-27.4","","-30.3","","76","","","","","","0","","24.1","","100.92","","","","","","Mostly Cloudy"
"-115.14","67.82","KUGLUKTUK A","2300902","2012-02-02 03:00","2012","02","02","03:00","-29.1","","-32.1","","75","","","","","","0","","24.1","","100.86","","","","","","Mostly Cloudy"
"-115.14","67.82","KUGLUKTUK A","2300902","2012-02-02 04:00","2012","02","02","04:00","-29.1","","-32.1","","75","","","","","","0","","24.1","","100.66","","","","","","Mostly Cloudy"
"-115.14","67.82","KUGLUKTUK A","2300902","2012-02-02 05:00","2012","02","02","05:00","-26.9","","-29.7","","77","","","","","","0","","24.1","","100.50","","","","","","Mostly Cloudy"
"-115.14","67.82","KUGLUKTUK A","2300902","2012-02-02 06:00","2012","02","02","06:00","-25.7","","-29.6","","70","","","","","","0","","24.1","","100.29","","","","","","Cloudy"
"-115.14","67.82","KUGLUKTUK A","2300902","2012-02-02 07:00","2012","02","02","07:00","-24.3","","-26.9","","79","","","","30","","6","","19.3","","100.02","","","","-30","","Snow"
"-115.14","67.82","KUGLUKTUK A","2300902","2012-02-02 08:00","2012","02","02","08:00","-13.9","","-17.1","","77","","","","","","0","","24.1","","99.87","","","","","","Cloudy"
"-115.14","67.82","KUGLUKTUK A","2300902","2012-02-02 09:00","2012","02","02","09:00","-12.0","","-14.8","","80","","","","21","","19","","16.1","","99.63","","","","-20","","Cloudy"
"-115.14","67.82","KUGLUKTUK A","2300902","2012-02-02 10:00","2012","02","02","10:00","-10.7","","-13.3","","81","","","","18","","19","","19.3","","99.41","","","","-19","","Cloudy"
"-115.14","67.82","KUGLUKTUK A","2300902","2012-02-02 11:00","2012","02","02","11:00","-10.5","","-12.2","","87","","","","18","","56","","0.0","","99.03","","","","-23","","Blowing Snow"
"-115.14","67.82","KUGLUKTUK A","2300902","2012-02-02 12:00","2012","02","02","12:00","-10.2","","-12.3","","85","","","","18","","56","","0.2","","98.90","","","","-23","","Blowing Snow"
"-115.14","67.82","KUGLUKTUK A","2300902","2012-02-02 13:00","2012","02","02","13:00","-8.0","","-9.7","","88","","","","19","","48","","1.6","","98.75","","","","-19","","Blowing Snow"
"-115.14","67.82","KUGLUKTUK A","2300902","2012-02-02 14:00","2012","02","02","14:00","-7.0","","-8.6","","88","","","","20","","41","","1.6","","98.74","","","","-17","","Blowing Snow"
"-115.14","67.82","KUGLUKTUK A","2300902","2012-02-02 15:00","2012","02","02","15:00","-6.2","","-8.0","","87","","","","22","","24","","12.9","","98.73","","","","-14","","Mostly Cloudy"
"-115.14","67.82","KUGLUKTUK A","2300902","2012-02-02 16:00","2012","02","02","16:00","-6.0","","-8.1","","85","","","","23","","19","","16.1","","98.91","","","","-13","","Snow Grains"
"-115.14","67.82","KUGLUKTUK A","2300902","2012-02-02 17:00","2012","02","02","17:00","-7.0","","-8.9","","86","","","","27","","19","","4.8","","99.02","","","","-14","","Snow"
"-115.14","67.82","KUGLUKTUK A","2300902","2012-02-02 18:00","2012","02","02","18:00","-10.6","","-13.1","","82","","","","27","","20","","19.3","","99.15","","","","-19","","Mostly Cloudy"
"-115.14","67.82","KUGLUKTUK A","2300902","2012-02-02 19:00","2012","02","02","19:00","-11.0","","-13.6","","81","","","","26","","22","","19.3","","99.25","","","","-20","","Mainly Clear"
"-115.14","67.82","KUGLUKTUK A","2300902","2012-02-02 20:00","2012","02","02","20:00","-13.0","","-16.5","","75","","","","26","","22","","19.3","","99.43","","","","-22","","Clear"
"-115.14","67.82","KUGLUKTUK A","2300902","2012-02-02 21:00","2012","02","02","21:00","-14.0","","-18.4","","69","","","","26","","22","","19.3","","99.53","","","","-23","","Mainly Clear"
"-115.14","67.82","KUGLUKTUK A","2300902","2012-02-02 22:00","2012","02","02","22:00","-15.1","","-19.2","","71","","","","28","","24","","19.3","","99.65","","","","-25","","Mostly Cloudy"
"-115.14","67.82","KUGLUKTUK A","2300902","2012-02-02 23:00","2012","02","02","23:00","-15.8","","-21.4","","62","","","","27","","24","","19.3","","99.78","","","","-26","","Mainly Clear"
"-115.14","67.82","KUGLUKTUK A","2300902","2012-02-03 00:00","2012","02","03","00:00","-17.9","","-21.3","","75","","","","30","","11","","24.1","","99.93","","","","-25","","Mainly Clear"
"-115.14","67.82","KUGLUKTUK A","2300902","2012-02-03 01:00","2012","02","03","01:00","-19.5","","-21.7","","83","","","","23","","6","","24.1","","100.11","","","","-24","","Mostly Cloudy"
"-115.14","67.82","KUGLUKTUK A","2300902","2012-02-03 02:00","2012","02","03","02:00","-18.3","","-21.8","","74","","","","","","0","","24.1","","100.23","","","","","","Cloudy"
"-115.14","67.82","KUGLUKTUK A","2300902","2012-02-03 03:00","2012","02","03","03:00","-18.7","","-23.0","","69","","","","","","0","","24.1","","100.40","","","","","","Mainly Clear"
"-115.14","67.82","KUGLUKTUK A","2300902","2012-02-03 04:00","2012","02","03","04:00","-20.3","","-25.1","","65","","","","","","0","","24.1","","100.42","","","","","","Mostly Cloudy"
"-115.14","67.82","KUGLUKTUK A","2300902","2012-02-03 05:00","2012","02","03","05:00","-20.0","","-24.7","","66","","","","11","","7","","24.1","","100.49","","","","-26","","Mostly Cloudy"
"-115.14","67.82","KUGLUKTUK A","2300902","2012-02-03 06:00","2012","02","03","06:00","-19.3","","-23.8","","67","","","","10","","13","","24.1","","100.48","","","","-28","","Mostly Cloudy"
"-115.14","67.82","KUGLUKTUK A","2300902","2012-02-03 07:00","2012","02","03","07:00","-19.0","","-22.6","","73","","","","12","","9","","24.1","","100.59","","","","-26","","Mostly Cloudy"
"-115.14","67.82","KUGLUKTUK A","2300902","2012-02-03 08:00","2012","02","03","08:00","-19.8","","-23.6","","72","","","","10","","9","","24.1","","100.67","","","","-27","","Clear"
"-115.14","67.82","KUGLUKTUK A","2300902","2012-02-03 09:00","2012","02","03","09:00","-20.2","","-24.9","","66","","","","10","","9","","24.1","","100.68","","","","-27","","Clear"
"-115.14","67.82","KUGLUKTUK A","2300902","2012-02-03 10:00","2012","02","03","10:00","-21.0","","-25.0","","70","","","","9","","11","","24.1","","100.71","","","","-29","","Mainly Clear"
"-115.14","67.82","KUGLUKTUK A","2300902","2012-02-03 11:00","2012","02","03","11:00","-21.0","","-25.0","","70","","","","8","","11","","24.1","","100.75","","","","-29","","Mostly Cloudy"
"-115.14","67.82","KUGLUKTUK A","2300902","2012-02-03 12:00","2012","02","03","12:00","-21.1","","-25.2","","70","","","","6","","13","","24.1","","100.76","","","","-30","","Mainly Clear"
"-115.14","67.82","KUGLUKTUK A","2300902","2012-02-03 13:00","2012","02","03","13:00","-21.9","","-26.1","","69","","","","7","","15","","24.1","","100.81","","","","-31","","Mostly Cloudy"
"-115.14","67.82","KUGLUKTUK A","2300902","2012-02-03 14:00","2012","02","03","14:00","-22.0","","-26.3","","68","","","","9","","11","","24.1","","100.73","","","","-30","","Mostly Cloudy"
"-115.14","67.82","KUGLUKTUK A","2300902","2012-02-03 15:00","2012","02","03","15:00","-21.0","","-24.2","","75","","","","8","","19","","24.1","","100.66","","","","-31","","Cloudy"
"-115.14","67.82","KUGLUKTUK A","2300902","2012-02-03 16:00","2012","02","03","16:00","-20.9","","-24.0","","76","","","","9","","19","","24.1","","100.55","","","","-31","","Cloudy"
"-115.14","67.82","KUGLUKTUK A","2300902","2012-02-03 17:00","2012","02","03","17:00","-20.6","","-24.5","","71","","","","7","","15","","24.1","","100.47","","","","-30","","Ice Crystals"
"-115.14","67.82","KUGLUKTUK A","2300902","2012-02-03 18:00","2012","02","03","18:00","-21.0","","-24.2","","75","","","","5","","19","","16.1","","100.29","","","","-31","","Ice Crystals"
"-115.14","67.82","KUGLUKTUK A","2300902","2012-02-03 19:00","2012","02","03","19:00","-20.6","","-23.7","","76","","","","7","","19","","12.9","","100.04","","","","-31","","Ice Crystals"
"-115.14","67.82","KUGLUKTUK A","2300902","2012-02-03 20:00","2012","02","03","20:00","-19.3","","-22.2","","78","","","","8","","22","","2.4","","99.75","","","","-30","","Ice Crystals,Blowing Snow"
"-115.14","67.82","KUGLUKTUK A","2300902","2012-02-03 21:00","2012","02","03","21:00","-18.1","","-20.8","","79","","","","9","","22","","2.4","","99.49","","","","-29","","Ice Crystals,Blowing Snow"
"-115.14","67.82","KUGLUKTUK A","2300902","2012-02-03 22:00","2012","02","03","22:00","-17.7","","-20.4","","79","","","","8","","22","","2.0","","99.25","","","","-28","","Snow,Blowing Snow"
"-115.14","67.82","KUGLUKTUK A","2300902","2012-02-03 23:00","2012","02","03","23:00","-16.2","","-18.1","","85","","","","6","","9","","3.2","","99.08","","","","-22","","Fog"
"-115.14","67.82","KUGLUKTUK A","2300902","2012-02-04 00:00","2012","02","04","00:00","-15.1","","-18.0","","78","","","","3","","15","","4.8","","98.99","","","","-23","","Snow"
"-115.14","67.82","KUGLUKTUK A","2300902","2012-02-04 01:00","2012","02","04","01:00","-15.7","","-18.7","","78","","","","33","","22","","12.9","","99.06","","","","-25","","Snow"
"-115.14","67.82","KUGLUKTUK A","2300902","2012-02-04 02:00","2012","02","04","02:00","-15.9","","-18.3","","82","","","","29","","19","","4.8","","99.20","","","","-25","","Snow"
"-115.14","67.82","KUGLUKTUK A","2300902","2012-02-04 03:00","2012","02","04","03:00","-16.9","","-19.5","","80","","","","27","","30","","2.8","","99.30","","","","-29","","Blowing Snow"
"-115.14","67.82","KUGLUKTUK A","2300902","2012-02-04 04:00","2012","02","04","04:00","-16.9","","-19.5","","80","","","","29","","20","","24.1","","99.52","","","","-27","","Mostly Cloudy"
"-115.14","67.82","KUGLUKTUK A","2300902","2012-02-04 05:00","2012","02","04","05:00","-17.8","","-21.2","","75","","","","29","","19","","24.1","","99.80","","","","-27","","Mostly Cloudy"
"-115.14","67.82","KUGLUKTUK A","2300902","2012-02-04 06:00","2012","02","04","06:00","-17.3","","-20.6","","75","","","","32","","32","","24.1","","100.00","","","","-29","","Mostly Cloudy"
"-115.14","67.82","KUGLUKTUK A","2300902","2012-02-04 07:00","2012","02","04","07:00","-17.7","","-21.0","","75","","","","30","","24","","24.1","","100.23","","","","-28","","Mostly Cloudy"
"-115.14","67.82","KUGLUKTUK A","2300902","2012-02-04 08:00","2012","02","04","08:00","-18.4","","-21.2","","79","","","","32","","19","","24.1","","100.43","","","","-28","","Mostly Cloudy"
"-115.14","67.82","KUGLUKTUK A","2300902","2012-02-04 09:00","2012","02","04","09:00","-19.1","","-22.7","","73","","","","32","","19","","14.5","","100.68","","","","-29","","Snow"
"-115.14","67.82","KUGLUKTUK A","2300902","2012-02-04 10:00","2012","02","04","10:00","-19.7","","-23.5","","72","","","","36","","13","","8.0","","100.81","","","","-28","","Snow"
"-115.14","67.82","KUGLUKTUK A","2300902","2012-02-04 11:00","2012","02","04","11:00","-21.1","","-24.3","","75","","","","34","","11","","24.1","","100.97","","","","-29","","Mostly Cloudy"
"-115.14","67.82","KUGLUKTUK A","2300902","2012-02-04 12:00","2012","02","04","12:00","-20.2","","-24.1","","71","","","","33","","6","","24.1","","101.14","","","","-25","","Cloudy"
"-115.14","67.82","KUGLUKTUK A","2300902","2012-02-04 13:00","2012","02","04","13:00","-20.0","","-23.8","","72","","","","","","0","","24.1","","101.23","","","","","","Cloudy"
"-115.14","67.82","KUGLUKTUK A","2300902","2012-02-04 14:00","2012","02","04","14:00","-19.8","","-23.6","","72","","","","","","0","","16.1","","101.36","","","","","","Snow"
"-115.14","67.82","KUGLUKTUK A","2300902","2012-02-04 15:00","2012","02","04","15:00","-19.6","","-23.3","","72","","","","","","0","","2.8","","101.46","","","","","","Snow"
"-115.14","67.82","KUGLUKTUK A","2300902","2012-02-04 16:00","2012","02","04","16:00","-19.5","","-23.2","","72","","","","","","0","","6.4","","101.54","","","","","","Snow"
"-115.14","67.82","KUGLUKTUK A","2300902","2012-02-04 17:00","2012","02","04","17:00","-19.1","","-22.7","","73","","","","34","","9","","6.4","","101.65","","","","-26","","Snow"
"-115.14","67.82","KUGLUKTUK A","2300902","2012-02-04 18:00","2012","02","04","18:00","-19.0","","-22.6","","73","","","","31","","9","","3.2","","101.76","","","","-26","","Snow"
"-115.14","67.82","KUGLUKTUK A","2300902","2012-02-04 19:00","2012","02","04","19:00","-19.1","","-22.7","","73","","","","32","","7","","3.2","","101.85","","","","-25","","Snow"
"-115.14","67.82","KUGLUKTUK A","2300902","2012-02-04 20:00","2012","02","04","20:00","-19.0","","-22.6","","73","","","","29","","15","","4.8","","101.94","","","","-28","","Snow"
"-115.14","67.82","KUGLUKTUK A","2300902","2012-02-04 21:00","2012","02","04","21:00","-18.9","","-21.7","","79","","","","1","","15","","12.9","","102.09","","","","-28","","Snow"
"-115.14","67.82","KUGLUKTUK A","2300902","2012-02-04 22:00","2012","02","04","22:00","-19.1","","-22.0","","78","","","","3","","17","","12.9","","102.23","","","","-29","","Snow"
"-115.14","67.82","KUGLUKTUK A","2300902","2012-02-04 23:00","2012","02","04","23:00","-19.7","","-23.5","","72","","","","35","","19","","12.9","","102.40","","","","-30","","Snow"
"-115.14","67.82","KUGLUKTUK A","2300902","2012-02-05 00:00","2012","02","05","00:00","-20.0","","-23.0","","77","","","","35","","24","","19.3","","102.53","","","","-31","","Snow"
"-115.14","67.82","KUGLUKTUK A","2300902","2012-02-05 01:00","2012","02","05","01:00","-20.4","","-23.5","","76","","","","35","","22","","24.1","","102.65","","","","-31","","Ice Crystals"
"-115.14","67.82","KUGLUKTUK A","2300902","2012-02-05 02:00","2012","02","05","02:00","-22.3","","-25.7","","74","","","","34","","22","","24.1","","102.84","","","","-34","","Ice Crystals"
"-115.14","67.82","KUGLUKTUK A","2300902","2012-02-05 03:00","2012","02","05","03:00","-23.5","","-27.1","","72","","","","36","","19","","24.1","","103.01","","","","-35","","Ice Crystals"
"-115.14","67.82","KUGLUKTUK A","2300902","2012-02-05 04:00","2012","02","05","04:00","-24.8","","-27.5","","78","","","","32","","13","","24.1","","103.12","","","","-34","","Ice Crystals"
"-115.14","67.82","KUGLUKTUK A","2300902","2012-02-05 05:00","2012","02","05","05:00","-24.3","","-26.9","","79","","","","30","","11","","24.1","","103.20","","","","-33","","Ice Crystals"
"-115.14","67.82","KUGLUKTUK A","2300902","2012-02-05 06:00","2012","02","05","06:00","-24.5","","-27.1","","79","","","","32","","11","","24.1","","103.29","","","","-33","","Ice Crystals"
"-115.14","67.82","KUGLUKTUK A","2300902","2012-02-05 07:00","2012","02","05","07:00","-24.8","","-27.5","","78","","","","30","","13","","24.1","","103.43","","","","-34","","Clear"
"-115.14","67.82","KUGLUKTUK A","2300902","2012-02-05 08:00","2012","02","05","08:00","-25.0","","-27.7","","78","","","","27","","13","","24.1","","103.52","","","","-34","","Mainly Clear"
"-115.14","67.82","KUGLUKTUK A","2300902","2012-02-05 09:00","2012","02","05","09:00","-27.9","","-32.3","","66","","","","23","","15","","19.3","","103.54","","","","-39","","Ice Crystals"
"-115.14","67.82","KUGLUKTUK A","2300902","2012-02-05 10:00","2012","02","05","10:00","-28.0","","-30.9","","76","","","","22","","17","","19.3","","103.53","","","","-40","","Mainly Clear"
"-115.14","67.82","KUGLUKTUK A","2300902","2012-02-05 11:00","2012","02","05","11:00","-27.6","","-35.5","","47","","","","23","","19","","19.3","","103.56","","","","-40","","Ice Crystals"
"-115.14","67.82","KUGLUKTUK A","2300902","2012-02-05 12:00","2012","02","05","12:00","-26.1","","-31.5","","60","","","","23","","19","","19.3","","103.61","","","","-38","","Ice Crystals"
"-115.14","67.82","KUGLUKTUK A","2300902","2012-02-05 13:00","2012","02","05","13:00","-25.9","","-31.3","","60","","","","21","","17","","19.3","","103.61","","","","-37","","Ice Crystals"
"-115.14","67.82","KUGLUKTUK A","2300902","2012-02-05 14:00","2012","02","05","14:00","-24.9","","-31.3","","55","","","","21","","19","","19.3","","103.62","","","","-36","","Ice Crystals"
"-115.14","67.82","KUGLUKTUK A","2300902","2012-02-05 15:00","2012","02","05","15:00","-23.8","","-28.5","","65","","","","21","","22","","19.3","","103.59","","","","-36","","Ice Crystals"
"-115.14","67.82","KUGLUKTUK A","2300902","2012-02-05 16:00","2012","02","05","16:00","-24.6","","-29.6","","63","","","","21","","11","","19.3","","103.56","","","","-33","","Ice Crystals"
"-115.14","67.82","KUGLUKTUK A","2300902","2012-02-05 17:00","2012","02","05","17:00","-23.6","","-28.3","","65","","","","21","","22","","19.3","","103.44","","","","-36","","Ice Crystals"
"-115.14","67.82","KUGLUKTUK A","2300902","2012-02-05 18:00","2012","02","05","18:00","-23.0","","-27.5","","67","","","","21","","22","","19.3","","103.39","","","","-35","","Ice Crystals"
"-115.14","67.82","KUGLUKTUK A","2300902","2012-02-05 19:00","2012","02","05","19:00","-23.0","","-27.5","","67","","","","20","","13","","19.3","","103.28","","","","-32","","Ice Crystals"
"-115.14","67.82","KUGLUKTUK A","2300902","2012-02-05 20:00","2012","02","05","20:00","-21.0","","-26.0","","64","","","","23","","39","","16.1","","103.14","","","","-35","","Ice Crystals"
"-115.14","67.82","KUGLUKTUK A","2300902","2012-02-05 21:00","2012","02","05","21:00","-20.7","","-25.6","","65","","","","23","","35","","9.7","","102.99","","","","-34","","Blowing Snow"
"-115.14","67.82","KUGLUKTUK A","2300902","2012-02-05 22:00","2012","02","05","22:00","-20.7","","-24.7","","70","","","","23","","28","","24.1","","102.97","","","","-33","","Clear"
"-115.14","67.82","KUGLUKTUK A","2300902","2012-02-05 23:00","2012","02","05","23:00","-21.5","","-25.7","","69","","","","22","","20","","24.1","","102.93","","","","-32","","Clear"
"-115.14","67.82","KUGLUKTUK A","2300902","2012-02-06 00:00","2012","02","06","00:00","-21.3","","-25.4","","69","","","","23","","17","","24.1","","102.86","","","","-31","","Mainly Clear"
"-115.14","67.82","KUGLUKTUK A","2300902","2012-02-06 01:00","2012","02","06","01:00","-20.1","","-24.8","","66","","","","23","","28","","24.1","","102.76","","","","-32","","Mainly Clear"
"-115.14","67.82","KUGLUKTUK A","2300902","2012-02-06 02:00","2012","02","06","02:00","-21.1","","-25.2","","70","","","","24","","28","","24.1","","102.68","","","","-34","","Mainly Clear"
"-115.14","67.82","KUGLUKTUK A","2300902","2012-02-06 03:00","2012","02","06","03:00","-21.3","","-25.4","","69","","","","25","","28","","24.1","","102.62","","","","-34","","Mainly Clear"
"-115.14","67.82","KUGLUKTUK A","2300902","2012-02-06 04:00","2012","02","06","04:00","-21.2","","-24.4","","75","","","","24","","19","","24.1","","102.45","","","","-32","","Mainly Clear"
"-115.14","67.82","KUGLUKTUK A","2300902","2012-02-06 05:00","2012","02","06","05:00","-17.4","","-21.4","","71","","","","23","","41","","16.1","","102.25","","","","-31","","Mainly Clear"
"-115.14","67.82","KUGLUKTUK A","2300902","2012-02-06 06:00","2012","02","06","06:00","-16.1","","-19.8","","73","","","","20","","37","","16.1","","102.09","","","","-29","","Mainly Clear"
"-115.14","67.82","KUGLUKTUK A","2300902","2012-02-06 07:00","2012","02","06","07:00","-15.2","","-19.9","","67","","","","19","","28","","24.1","","101.94","","","","-26","","Mainly Clear"
"-115.14","67.82","KUGLUKTUK A","2300902","2012-02-06 08:00","2012","02","06","08:00","-13.7","","-17.4","","74","","","","22","","37","","24.1","","101.74","","","","-25","","Mainly Clear"
"-115.14","67.82","KUGLUKTUK A","2300902","2012-02-06 09:00","2012","02","06","09:00","-17.3","","-21.3","","71","","","","32","","7","","24.1","","101.78","","","","-23","","Mostly Cloudy"
"-115.14","67.82","KUGLUKTUK A","2300902","2012-02-06 10:00","2012","02","06","10:00","-16.9","","-21.5","","67","","","","26","","24","","19.3","","101.69","","","","-27","","Mostly Cloudy"
"-115.14","67.82","KUGLUKTUK A","2300902","2012-02-06 11:00","2012","02","06","11:00","-18.4","","-22.6","","70","","","","27","","22","","19.3","","101.64","","","","-29","","Cloudy"
"-115.14","67.82","KUGLUKTUK A","2300902","2012-02-06 12:00","2012","02","06","12:00","-17.4","","-23.7","","58","","","","27","","22","","24.1","","101.64","","","","-28","","Cloudy"
"-115.14","67.82","KUGLUKTUK A","2300902","2012-02-06 13:00","2012","02","06","13:00","-18.4","","-23.4","","65","","","","25","","22","","24.1","","101.58","","","","-29","","Cloudy"
"-115.14","67.82","KUGLUKTUK A","2300902","2012-02-06 14:00","2012","02","06","14:00","-17.0","","-23.1","","59","","","","25","","26","","19.3","","101.61","","","","-28","","Cloudy"
"-115.14","67.82","KUGLUKTUK A","2300902","2012-02-06 15:00","2012","02","06","15:00","-15.8","","-21.4","","62","","","","25","","32","","19.3","","101.68","","","","-27","","Cloudy"
"-115.14","67.82","KUGLUKTUK A","2300902","2012-02-06 16:00","2012","02","06","16:00","-14.5","","-19.6","","65","","","","26","","26","","19.3","","101.69","","","","-25","","Mostly Cloudy"
"-115.14","67.82","KUGLUKTUK A","2300902","2012-02-06 17:00","2012","02","06","17:00","-14.4","","-20.9","","58","","","","28","","22","","19.3","","101.76","","","","-24","","Mostly Cloudy"
"-115.14","67.82","KUGLUKTUK A","2300902","2012-02-06 18:00","2012","02","06","18:00","-17.3","","-22.8","","62","","","","34","","24","","19.3","","101.95","","","","-28","","Mainly Clear"
"-115.14","67.82","KUGLUKTUK A","2300902","2012-02-06 19:00","2012","02","06","19:00","-18.5","","-22.8","","69","","","","35","","24","","19.3","","102.06","","","","-29","","Mainly Clear"
"-115.14","67.82","KUGLUKTUK A","2300902","2012-02-06 20:00","2012","02","06","20:00","-19.5","","-24.0","","67","","","","","","0","","24.1","","102.09","","","","","","Clear"
"-115.14","67.82","KUGLUKTUK A","2300902","2012-02-06 21:00","2012","02","06","21:00","-21.2","","-23.5","","82","","","","21","","7","","24.1","","102.13","","","","-27","","Clear"
"-115.14","67.82","KUGLUKTUK A","2300902","2012-02-06 22:00","2012","02","06","22:00","-22.2","","-25.5","","74","","","","","","0","","24.1","","102.20","","","","","","Clear"
"-115.14","67.82","KUGLUKTUK A","2300902","2012-02-06 23:00","2012","02","06","23:00","-21.6","","-24.0","","81","","","","25","","17","","24.1","","102.26","","","","-32","","Mainly Clear"
"-115.14","67.82","KUGLUKTUK A","2300902","2012-02-07 00:00","2012","02","07","00:00","-22.3","","-24.7","","81","","","","22","","11","","24.1","","102.27","","","","-30","","Mainly Clear"
"-115.14","67.82","KUGLUKTUK A","2300902","2012-02-07 01:00","2012","02","07","01:00","-22.1","","-24.5","","81","","","","23","","19","","24.1","","102.33","","","","-33","","Mainly Clear"
"-115.14","67.82","KUGLUKTUK A","2300902","2012-02-07 02:00","2012","02","07","02:00","-22.6","","-25.1","","80","","","","","","0","","24.1","","102.48","","","","","","Mainly Clear"
"-115.14","67.82","KUGLUKTUK A","2300902","2012-02-07 03:00","2012","02","07","03:00","-22.8","","-26.2","","74","","","","22","","11","","24.1","","102.40","","","","-31","","Mainly Clear"
"-115.14","67.82","KUGLUKTUK A","2300902","2012-02-07 04:00","2012","02","07","04:00","-23.1","","-26.6","","73","","","","","","0","","24.1","","102.52","","","","","","Mainly Clear"
"-115.14","67.82","KUGLUKTUK A","2300902","2012-02-07 05:00","2012","02","07","05:00","-24.5","","-27.1","","79","","","","","","0","","24.1","","102.59","","","","","","Clear"
"-115.14","67.82","KUGLUKTUK A","2300902","2012-02-07 06:00","2012","02","07","06:00","-22.2","","-24.6","","81","","","","","","0","","24.1","","102.60","","","","","","Mainly Clear"
"-115.14","67.82","KUGLUKTUK A","2300902","2012-02-07 07:00","2012","02","07","07:00","-23.8","","-26.4","","79","","","","","","0","","24.1","","102.65","","","","","","Mainly Clear"
"-115.14","67.82","KUGLUKTUK A","2300902","2012-02-07 08:00","2012","02","07","08:00","-24.7","","-27.3","","79","","","","33","","6","","24.1","","102.73","","","","-30","","Clear"
"-115.14","67.82","KUGLUKTUK A","2300902","2012-02-07 09:00","2012","02","07","09:00","-20.3","","-23.3","","77","","","","","","0","","24.1","","102.77","","","","","","Mainly Clear"
"-115.14","67.82","KUGLUKTUK A","2300902","2012-02-07 10:00","2012","02","07","10:00","-23.3","","-25.8","","80","","","","","","0","","24.1","","102.82","","","","","","Cloudy"
"-115.14","67.82","KUGLUKTUK A","2300902","2012-02-07 11:00","2012","02","07","11:00","-26.0","","-28.8","","77","","","","","","0","","24.1","","102.84","","","","","","Cloudy"
"-115.14","67.82","KUGLUKTUK A","2300902","2012-02-07 12:00","2012","02","07","12:00","-26.0","","-28.8","","77","","","","3","","6","","24.1","","102.88","","","","-32","","Cloudy"
"-115.14","67.82","KUGLUKTUK A","2300902","2012-02-07 13:00","2012","02","07","13:00","-26.6","","-29.4","","77","","","","","","0","","24.1","","102.90","","","","","","Cloudy"
"-115.14","67.82","KUGLUKTUK A","2300902","2012-02-07 14:00","2012","02","07","14:00","-26.5","","-30.6","","68","","","","5","","7","","24.1","","102.97","","","","-33","","Mostly Cloudy"
"-115.14","67.82","KUGLUKTUK A","2300902","2012-02-07 15:00","2012","02","07","15:00","-27.0","","-31.2","","67","","","","","","0","","24.1","","102.98","","","","","","Mainly Clear"
"-115.14","67.82","KUGLUKTUK A","2300902","2012-02-07 16:00","2012","02","07","16:00","-28.8","","-33.4","","64","","","","","","0","","24.1","","103.06","","","","","","Mainly Clear"
"-115.14","67.82","KUGLUKTUK A","2300902","2012-02-07 17:00","2012","02","07","17:00","-27.8","","-33.8","","57","","","","","","0","","24.1","","103.08","","","","","","Mostly Cloudy"
"-115.14","67.82","KUGLUKTUK A","2300902","2012-02-07 18:00","2012","02","07","18:00","-28.2","","-32.6","","66","","","","","","0","","24.1","","103.11","","","","","","Mostly Cloudy"
"-115.14","67.82","KUGLUKTUK A","2300902","2012-02-07 19:00","2012","02","07","19:00","-29.1","","-32.1","","75","","","","","","0","","24.1","","103.12","","","","","","Mostly Cloudy"
"-115.14","67.82","KUGLUKTUK A","2300902","2012-02-07 20:00","2012","02","07","20:00","-29.9","","-32.9","","75","","","","","","0","","24.1","","103.14","","","","","","Mostly Cloudy"
"-115.14","67.82","KUGLUKTUK A","2300902","2012-02-07 21:00","2012","02","07","21:00","-29.6","","-32.6","","75","","","","","","0","","24.1","","103.18","","","","","","Clear"
"-115.14","67.82","KUGLUKTUK A","2300902","2012-02-07 22:00","2012","02","07","22:00","-30.1","","-33.2","","74","","","","","","0","","24.1","","103.19","","","","","","Clear"
"-115.14","67.82","KUGLUKTUK A","2300902","2012-02-07 23:00","2012","02","07","23:00","-30.5","","-33.6","","74","","","","","","0","","24.1","","103.24","","","","","","Clear"
"-115.14","67.82","KUGLUKTUK A","2300902","2012-02-08 00:00","2012","02","08","00:00","-30.7","","-33.8","","74","","","","","","0","","24.1","","103.27","","","","","","Clear"
"-115.14","67.82","KUGLUKTUK A","2300902","2012-02-08 01:00","2012","02","08","01:00","-31.0","","-34.1","","74","","","","","","0","","24.1","","103.32","","","","","","Clear"
"-115.14","67.82","KUGLUKTUK A","2300902","2012-02-08 02:00","2012","02","08","02:00","-32.0","","-35.2","","73","","","","","","0","","24.1","","103.35","","","","","","Ice Crystals"
"-115.14","67.82","KUGLUKTUK A","2300902","2012-02-08 03:00","2012","02","08","03:00","-31.8","","-35.0","","73","","","","","","0","","24.1","","103.39","","","","","","Ice Crystals"
"-115.14","67.82","KUGLUKTUK A","2300902","2012-02-08 04:00","2012","02","08","04:00","-31.1","","-34.2","","74","","","","","","0","","24.1","","103.41","","","","","","Ice Crystals"
"-115.14","67.82","KUGLUKTUK A","2300902","2012-02-08 05:00","2012","02","08","05:00","-31.4","","-34.6","","73","","","","","","0","","24.1","","103.42","","","","","","Ice Crystals"
"-115.14","67.82","KUGLUKTUK A","2300902","2012-02-08 06:00","2012","02","08","06:00","-33.0","","-34.3","","88","","","","25","","6","","24.1","","103.42","","","","-40","","Ice Crystals"
"-115.14","67.82","KUGLUKTUK A","2300902","2012-02-08 07:00","2012","02","08","07:00","-31.8","","-35.0","","73","","","","22","","13","","24.1","","103.43","","","","-43","","Ice Crystals"
"-115.14","67.82","KUGLUKTUK A","2300902","2012-02-08 08:00","2012","02","08","08:00","-33.0","","-36.3","","72","","","","22","","11","","24.1","","103.45","","","","-43","","Ice Crystals"
"-115.14","67.82","KUGLUKTUK A","2300902","2012-02-08 09:00","2012","02","08","09:00","-32.0","","-35.2","","73","","","","22","","13","","24.1","","103.43","","","","-43","","Mainly Clear"
"-115.14","67.82","KUGLUKTUK A","2300902","2012-02-08 10:00","2012","02","08","10:00","-31.5","","-34.7","","73","","","","22","","13","","24.1","","103.47","","","","-42","","Mainly Clear"
"-115.14","67.82","KUGLUKTUK A","2300902","2012-02-08 11:00","2012","02","08","11:00","-30.4","","-35.4","","62","","","","23","","7","","24.1","","103.48","","","","-38","","Mostly Cloudy"
"-115.14","67.82","KUGLUKTUK A","2300902","2012-02-08 12:00","2012","02","08","12:00","-29.9","","-34.7","","63","","","","","","0","","24.1","","103.50","","","","","","Cloudy"
"-115.14","67.82","KUGLUKTUK A","2300902","2012-02-08 13:00","2012","02","08","13:00","-31.9","","-40.0","","45","","","","","","0","","24.1","","103.50","","","","","","Mostly Cloudy"
"-115.14","67.82","KUGLUKTUK A","2300902","2012-02-08 14:00","2012","02","08","14:00","-31.4","","-39.1","","47","","","","","","0","","24.1","","103.52","","","","","","Mostly Cloudy"
"-115.14","67.82","KUGLUKTUK A","2300902","2012-02-08 15:00","2012","02","08","15:00","-31.6","","-36.9","","59","","","","","","0","","24.1","","103.52","","","","","","Cloudy"
"-115.14","67.82","KUGLUKTUK A","2300902","2012-02-08 16:00","2012","02","08","16:00","-31.4","","-34.6","","73","","","","","","0","","19.3","","103.50","","","","","","Ice Crystals"
"-115.14","67.82","KUGLUKTUK A","2300902","2012-02-08 17:00","2012","02","08","17:00","-30.8","","-38.2","","48","","","","32","","6","","19.3","","103.49","","","","-37","","Ice Crystals"
"-115.14","67.82","KUGLUKTUK A","2300902","2012-02-08 18:00","2012","02","08","18:00","-32.6","","-38.2","","57","","","","29","","6","","19.3","","103.48","","","","-40","","Ice Crystals"
"-115.14","67.82","KUGLUKTUK A","2300902","2012-02-08 19:00","2012","02","08","19:00","-31.6","","-36.9","","59","","","","","","0","","19.3","","103.47","","","","","","Ice Crystals"
"-115.14","67.82","KUGLUKTUK A","2300902","2012-02-08 20:00","2012","02","08","20:00","-31.0","","-34.1","","74","","","","","","0","","16.1","","103.46","","","","","","Ice Crystals"
"-115.14","67.82","KUGLUKTUK A","2300902","2012-02-08 21:00","2012","02","08","21:00","-31.0","","-34.1","","74","","","","","","0","","24.1","","103.44","","","","","","Ice Crystals"
"-115.14","67.82","KUGLUKTUK A","2300902","2012-02-08 22:00","2012","02","08","22:00","-31.7","","-34.9","","73","","","","","","0","","24.1","","103.45","","","","","","Ice Crystals"
"-115.14","67.82","KUGLUKTUK A","2300902","2012-02-08 23:00","2012","02","08","23:00","-31.2","","-34.3","","74","","","","","","0","","24.1","","103.42","","","","","","Ice Crystals"
"-115.14","67.82","KUGLUKTUK A","2300902","2012-02-09 00:00","2012","02","09","00:00","-30.9","","-34.0","","74","","","","22","","9","","24.1","","103.43","","","","-40","","Ice Crystals"
"-115.14","67.82","KUGLUKTUK A","2300902","2012-02-09 01:00","2012","02","09","01:00","-31.8","","-35.0","","73","","","","","","0","","24.1","","103.45","","","","","","Ice Crystals"
"-115.14","67.82","KUGLUKTUK A","2300902","2012-02-09 02:00","2012","02","09","02:00","-31.2","","-34.3","","74","","","","20","","13","","24.1","","103.47","","","","-42","","Ice Crystals"
"-115.14","67.82","KUGLUKTUK A","2300902","2012-02-09 03:00","2012","02","09","03:00","-32.0","","-35.2","","73","","","","","","0","","24.1","","103.46","","","","","","Ice Crystals"
"-115.14","67.82","KUGLUKTUK A","2300902","2012-02-09 04:00","2012","02","09","04:00","-31.9","","-35.1","","73","","","","16","","6","","24.1","","103.42","","","","-39","","Ice Crystals"
"-115.14","67.82","KUGLUKTUK A","2300902","2012-02-09 05:00","2012","02","09","05:00","-31.4","","-34.6","","73","","","","","","0","","24.1","","103.42","","","","","","Ice Crystals"
"-115.14","67.82","KUGLUKTUK A","2300902","2012-02-09 06:00","2012","02","09","06:00","-32.1","","-35.3","","73","","","","","","0","","24.1","","103.39","","","","","","Ice Crystals"
"-115.14","67.82","KUGLUKTUK A","2300902","2012-02-09 07:00","2012","02","09","07:00","-31.5","","-34.7","","73","","","","","","0","","24.1","","103.36","","","","","","Ice Crystals"
"-115.14","67.82","KUGLUKTUK A","2300902","2012-02-09 08:00","2012","02","09","08:00","-30.6","","-33.7","","74","","","","","","0","","24.1","","103.36","","","","","","Mainly Clear"
"-115.14","67.82","KUGLUKTUK A","2300902","2012-02-09 09:00","2012","02","09","09:00","-31.3","","-34.4","","74","","","","","","0","","24.1","","103.34","","","","","","Clear"
"-115.14","67.82","KUGLUKTUK A","2300902","2012-02-09 10:00","2012","02","09","10:00","-30.5","","-33.6","","74","","","","","","0","","24.1","","103.39","","","","","","Clear"
"-115.14","67.82","KUGLUKTUK A","2300902","2012-02-09 11:00","2012","02","09","11:00","-29.1","","-32.1","","75","","","","","","0","","24.1","","103.35","","","","","","Clear"
"-115.14","67.82","KUGLUKTUK A","2300902","2012-02-09 12:00","2012","02","09","12:00","-26.3","","-29.1","","77","","","","20","","9","","24.1","","103.25","","","","-34","","Mainly Clear"
"-115.14","67.82","KUGLUKTUK A","2300902","2012-02-09 13:00","2012","02","09","13:00","-26.7","","-29.5","","77","","","","19","","11","","24.1","","103.20","","","","-36","","Clear"
"-115.14","67.82","KUGLUKTUK A","2300902","2012-02-09 14:00","2012","02","09","14:00","-25.7","","-29.6","","70","","","","","","0","","24.1","","103.17","","","","","","Clear"
"-115.14","67.82","KUGLUKTUK A","2300902","2012-02-09 15:00","2012","02","09","15:00","-17.5","","-21.5","","71","","","","21","","19","","24.1","","103.13","","","","-27","","Clear"
"-115.14","67.82","KUGLUKTUK A","2300902","2012-02-09 16:00","2012","02","09","16:00","-16.1","","-19.1","","78","","","","21","","28","","24.1","","103.11","","","","-27","","Clear"
"-115.14","67.82","KUGLUKTUK A","2300902","2012-02-09 17:00","2012","02","09","17:00","-16.5","","-20.9","","69","","","","21","","28","","24.1","","103.05","","","","-28","","Clear"
"-115.14","67.82","KUGLUKTUK A","2300902","2012-02-09 18:00","2012","02","09","18:00","-16.1","","-21.1","","65","","","","20","","19","","24.1","","103.02","","","","-25","","Clear"
"-115.14","67.82","KUGLUKTUK A","2300902","2012-02-09 19:00","2012","02","09","19:00","-16.5","","-20.3","","72","","","","21","","28","","24.1","","102.96","","","","-28","","Clear"
"-115.14","67.82","KUGLUKTUK A","2300902","2012-02-09 20:00","2012","02","09","20:00","-16.4","","-20.8","","69","","","","21","","28","","24.1","","102.83","","","","-28","","Clear"
"-115.14","67.82","KUGLUKTUK A","2300902","2012-02-09 21:00","2012","02","09","21:00","-15.5","","-19.7","","70","","","","22","","19","","24.1","","102.84","","","","-25","","Clear"
"-115.14","67.82","KUGLUKTUK A","2300902","2012-02-09 22:00","2012","02","09","22:00","-15.3","","-19.4","","71","","","","22","","19","","19.3","","102.72","","","","-24","","Clear"
"-115.14","67.82","KUGLUKTUK A","2300902","2012-02-09 23:00","2012","02","09","23:00","-15.0","","-19.0","","71","","","","22","","22","","19.3","","102.65","","","","-25","","Clear"
"-115.14","67.82","KUGLUKTUK A","2300902","2012-02-10 00:00","2012","02","10","00:00","-14.0","","-19.0","","66","","","","21","","33","","14.5","","102.60","","","","-25","","Clear"
"-115.14","67.82","KUGLUKTUK A","2300902","2012-02-10 01:00","2012","02","10","01:00","-13.6","","-18.4","","67","","","","22","","28","","14.5","","102.50","","","","-24","","Clear"
"-115.14","67.82","KUGLUKTUK A","2300902","2012-02-10 02:00","2012","02","10","02:00","-13.6","","-18.4","","67","","","","21","","37","","12.9","","102.47","","","","-25","","Clear"
"-115.14","67.82","KUGLUKTUK A","2300902","2012-02-10 03:00","2012","02","10","03:00","-14.0","","-18.4","","69","","","","22","","41","","9.7","","102.43","","","","-26","","Blowing Snow"
"-115.14","67.82","KUGLUKTUK A","2300902","2012-02-10 04:00","2012","02","10","04:00","-12.6","","-16.6","","72","","","","21","","37","","12.9","","102.33","","","","-24","","Clear"
"-115.14","67.82","KUGLUKTUK A","2300902","2012-02-10 05:00","2012","02","10","05:00","-13.8","","-18.1","","70","","","","21","","37","","11.3","","102.26","","","","-25","","Clear"
"-115.14","67.82","KUGLUKTUK A","2300902","2012-02-10 06:00","2012","02","10","06:00","-12.4","","-16.8","","70","","","","22","","37","","11.3","","102.14","","","","-24","","Clear"
"-115.14","67.82","KUGLUKTUK A","2300902","2012-02-10 07:00","2012","02","10","07:00","-12.6","","-17.1","","69","","","","22","","32","","12.9","","102.02","","","","-23","","Clear"
"-115.14","67.82","KUGLUKTUK A","2300902","2012-02-10 08:00","2012","02","10","08:00","-13.5","","-18.3","","67","","","","23","","33","","16.1","","101.96","","","","-25","","Mainly Clear"
"-115.14","67.82","KUGLUKTUK A","2300902","2012-02-10 09:00","2012","02","10","09:00","-12.3","","-15.7","","76","","","","22","","46","","16.1","","101.79","","","","-25","","Mostly Cloudy"
"-115.14","67.82","KUGLUKTUK A","2300902","2012-02-10 10:00","2012","02","10","10:00","-11.8","","-16.1","","70","","","","20","","56","","16.1","","101.66","","","","-25","","Mostly Cloudy"
"-115.14","67.82","KUGLUKTUK A","2300902","2012-02-10 11:00","2012","02","10","11:00","-11.6","","-14.8","","77","","","","23","","56","","19.3","","101.61","","","","-24","","Mostly Cloudy"
"-115.14","67.82","KUGLUKTUK A","2300902","2012-02-10 12:00","2012","02","10","12:00","-9.6","","-13.7","","72","","","","22","","37","","24.1","","101.50","","","","-20","","Mostly Cloudy"
"-115.14","67.82","KUGLUKTUK A","2300902","2012-02-10 13:00","2012","02","10","13:00","-10.1","","-13.4","","77","","","","22","","28","","24.1","","101.46","","","","-19","","Mostly Cloudy"
"-115.14","67.82","KUGLUKTUK A","2300902","2012-02-10 14:00","2012","02","10","14:00","-10.0","","-12.4","","83","","","","21","","46","","24.1","","101.32","","","","-21","","Mostly Cloudy"
"-115.14","67.82","KUGLUKTUK A","2300902","2012-02-10 15:00","2012","02","10","15:00","-10.0","","-13.3","","77","","","","21","","46","","24.1","","101.17","","","","-21","","Mostly Cloudy"
"-115.14","67.82","KUGLUKTUK A","2300902","2012-02-10 16:00","2012","02","10","16:00","-9.6","","-12.4","","80","","","","21","","41","","24.1","","101.09","","","","-20","","Mostly Cloudy"
"-115.14","67.82","KUGLUKTUK A","2300902","2012-02-10 17:00","2012","02","10","17:00","-10.6","","-13.1","","82","","","","18","","28","","24.1","","100.89","","","","-20","","Mainly Clear"
"-115.14","67.82","KUGLUKTUK A","2300902","2012-02-10 18:00","2012","02","10","18:00","-8.5","","-11.9","","76","","","","21","","46","","24.1","","100.74","","","","-19","","Mainly Clear"
"-115.14","67.82","KUGLUKTUK A","2300902","2012-02-10 19:00","2012","02","10","19:00","-9.3","","-13.3","","73","","","","20","","19","","24.1","","100.86","","","","-17","","Mainly Clear"
"-115.14","67.82","KUGLUKTUK A","2300902","2012-02-10 20:00","2012","02","10","20:00","-9.9","","-12.7","","80","","","","21","","39","","16.1","","100.75","","","","-21","","Mainly Clear"
"-115.14","67.82","KUGLUKTUK A","2300902","2012-02-10 21:00","2012","02","10","21:00","-9.6","","-13.2","","75","","","","20","","19","","19.3","","100.67","","","","-17","","Clear"
"-115.14","67.82","KUGLUKTUK A","2300902","2012-02-10 22:00","2012","02","10","22:00","-9.3","","-13.3","","73","","","","21","","22","","16.1","","100.63","","","","-17","","Clear"
"-115.14","67.82","KUGLUKTUK A","2300902","2012-02-10 23:00","2012","02","10","23:00","-10.0","","-13.7","","74","","","","21","","24","","16.1","","100.55","","","","-19","","Clear"
"-115.14","67.82","KUGLUKTUK A","2300902","2012-02-11 00:00","2012","02","11","00:00","-10.5","","-14.4","","73","","","","20","","24","","16.1","","100.49","","","","-19","","Clear"
"-115.14","67.82","KUGLUKTUK A","2300902","2012-02-11 01:00","2012","02","11","01:00","-9.4","","-13.0","","75","","","","22","","37","","9.7","","100.40","","","","-20","","Blowing Snow"
"-115.14","67.82","KUGLUKTUK A","2300902","2012-02-11 02:00","2012","02","11","02:00","-9.8","","-13.5","","74","","","","23","","43","","8.0","","100.33","","","","-21","","Blowing Snow"
"-115.14","67.82","KUGLUKTUK A","2300902","2012-02-11 03:00","2012","02","11","03:00","-10.5","","-13.9","","76","","","","23","","24","","11.3","","100.36","","","","-19","","Clear"
"-115.14","67.82","KUGLUKTUK A","2300902","2012-02-11 04:00","2012","02","11","04:00","-10.2","","-13.5","","77","","","","23","","37","","8.0","","100.25","","","","-21","","Blowing Snow"
"-115.14","67.82","KUGLUKTUK A","2300902","2012-02-11 05:00","2012","02","11","05:00","-9.5","","-13.1","","75","","","","24","","41","","9.7","","100.24","","","","-20","","Blowing Snow"
"-115.14","67.82","KUGLUKTUK A","2300902","2012-02-11 06:00","2012","02","11","06:00","-9.7","","-13.4","","74","","","","23","","28","","12.9","","100.20","","","","-19","","Clear"
"-115.14","67.82","KUGLUKTUK A","2300902","2012-02-11 07:00","2012","02","11","07:00","-10.4","","-13.8","","76","","","","23","","41","","11.3","","100.11","","","","-21","","Clear"
"-115.14","67.82","KUGLUKTUK A","2300902","2012-02-11 08:00","2012","02","11","08:00","-10.8","","-14.3","","75","","","","23","","32","","16.1","","100.06","","","","-21","","Clear"
"-115.14","67.82","KUGLUKTUK A","2300902","2012-02-11 09:00","2012","02","11","09:00","-10.4","","-14.3","","73","","","","24","","33","","24.1","","100.03","","","","-20","","Clear"
"-115.14","67.82","KUGLUKTUK A","2300902","2012-02-11 10:00","2012","02","11","10:00","-10.8","","-14.8","","72","","","","24","","41","","24.1","","100.05","","","","-22","","Mainly Clear"
"-115.14","67.82","KUGLUKTUK A","2300902","2012-02-11 11:00","2012","02","11","11:00","-9.3","","-12.9","","75","","","","23","","41","","24.1","","100.01","","","","-20","","Mainly Clear"
"-115.14","67.82","KUGLUKTUK A","2300902","2012-02-11 12:00","2012","02","11","12:00","-8.9","","-12.8","","73","","","","24","","39","","24.1","","99.94","","","","-19","","Clear"
"-115.14","67.82","KUGLUKTUK A","2300902","2012-02-11 13:00","2012","02","11","13:00","-9.0","","-12.9","","73","","","","24","","30","","24.1","","99.95","","","","-18","","Clear"
"-115.14","67.82","KUGLUKTUK A","2300902","2012-02-11 14:00","2012","02","11","14:00","-9.3","","-13.3","","73","","","","24","","37","","24.1","","99.93","","","","-19","","Mainly Clear"
"-115.14","67.82","KUGLUKTUK A","2300902","2012-02-11 15:00","2012","02","11","15:00","-10.4","","-13.8","","76","","","","25","","32","","24.1","","99.90","","","","-20","","Mainly Clear"
"-115.14","67.82","KUGLUKTUK A","2300902","2012-02-11 16:00","2012","02","11","16:00","-10.4","","-13.8","","76","","","","24","","37","","24.1","","99.86","","","","-21","","Mostly Cloudy"
"-115.14","67.82","KUGLUKTUK A","2300902","2012-02-11 17:00","2012","02","11","17:00","-9.1","","-12.2","","78","","","","23","","32","","24.1","","99.85","","","","-19","","Mostly Cloudy"
"-115.14","67.82","KUGLUKTUK A","2300902","2012-02-11 18:00","2012","02","11","18:00","-8.5","","-13.2","","69","","","","23","","20","","24.1","","99.77","","","","-16","","Mostly Cloudy"
"-115.14","67.82","KUGLUKTUK A","2300902","2012-02-11 19:00","2012","02","11","19:00","-9.3","","-12.9","","75","","","","22","","33","","24.1","","99.71","","","","-19","","Mainly Clear"
"-115.14","67.82","KUGLUKTUK A","2300902","2012-02-11 20:00","2012","02","11","20:00","-9.5","","-14.0","","70","","","","23","","30","","24.1","","99.66","","","","-19","","Clear"
"-115.14","67.82","KUGLUKTUK A","2300902","2012-02-11 21:00","2012","02","11","21:00","-10.4","","-15.8","","65","","","","23","","20","","24.1","","99.64","","","","-18","","Mainly Clear"
"-115.14","67.82","KUGLUKTUK A","2300902","2012-02-11 22:00","2012","02","11","22:00","-9.1","","-14.4","","65","","","","25","","20","","24.1","","99.59","","","","-17","","Mainly Clear"
"-115.14","67.82","KUGLUKTUK A","2300902","2012-02-11 23:00","2012","02","11","23:00","-8.9","","-15.7","","58","","","","23","","11","","24.1","","99.54","","","","-14","","Mainly Clear"
"-115.14","67.82","KUGLUKTUK A","2300902","2012-02-12 00:00","2012","02","12","00:00","-10.3","","-15.6","","65","","","","24","","32","","19.3","","99.42","","","","-20","","Mainly Clear"
"-115.14","67.82","KUGLUKTUK A","2300902","2012-02-12 01:00","2012","02","12","01:00","-10.7","","-14.6","","73","","","","24","","26","","19.3","","99.42","","","","-20","","Mainly Clear"
"-115.14","67.82","KUGLUKTUK A","2300902","2012-02-12 02:00","2012","02","12","02:00","-11.7","","-15.9","","71","","","","27","","17","","24.1","","99.45","","","","-19","","Mainly Clear"
"-115.14","67.82","KUGLUKTUK A","2300902","2012-02-12 03:00","2012","02","12","03:00","-11.8","","-15.5","","74","","","","27","","15","","24.1","","99.48","","","","-19","","Mainly Clear"
"-115.14","67.82","KUGLUKTUK A","2300902","2012-02-12 04:00","2012","02","12","04:00","-11.4","","-15.5","","72","","","","26","","11","","24.1","","99.48","","","","-17","","Mainly Clear"
"-115.14","67.82","KUGLUKTUK A","2300902","2012-02-12 05:00","2012","02","12","05:00","-13.3","","-18.0","","68","","","","23","","17","","24.1","","99.43","","","","-21","","Mainly Clear"
"-115.14","67.82","KUGLUKTUK A","2300902","2012-02-12 06:00","2012","02","12","06:00","-12.9","","-16.9","","72","","","","23","","13","","24.1","","99.39","","","","-20","","Clear"
"-115.14","67.82","KUGLUKTUK A","2300902","2012-02-12 07:00","2012","02","12","07:00","-14.0","","-17.8","","73","","","","22","","22","","24.1","","99.36","","","","-23","","Clear"
"-115.14","67.82","KUGLUKTUK A","2300902","2012-02-12 08:00","2012","02","12","08:00","-14.1","","-18.5","","69","","","","24","","22","","24.1","","99.34","","","","-23","","Clear"
"-115.14","67.82","KUGLUKTUK A","2300902","2012-02-12 09:00","2012","02","12","09:00","-14.9","","-18.9","","71","","","","23","","17","","24.1","","99.36","","","","-23","","Clear"
"-115.14","67.82","KUGLUKTUK A","2300902","2012-02-12 10:00","2012","02","12","10:00","-13.5","","-17.2","","74","","","","24","","9","","24.1","","99.34","","","","-19","","Mainly Clear"
"-115.14","67.82","KUGLUKTUK A","2300902","2012-02-12 11:00","2012","02","12","11:00","-14.4","","-18.3","","72","","","","29","","9","","24.1","","99.38","","","","-20","","Mainly Clear"
"-115.14","67.82","KUGLUKTUK A","2300902","2012-02-12 12:00","2012","02","12","12:00","-15.1","","-18.0","","78","","","","25","","7","","24.1","","99.43","","","","-20","","Mainly Clear"
"-115.14","67.82","KUGLUKTUK A","2300902","2012-02-12 13:00","2012","02","12","13:00","-14.0","","-17.2","","77","","","","27","","9","","24.1","","99.47","","","","-20","","Mainly Clear"
"-115.14","67.82","KUGLUKTUK A","2300902","2012-02-12 14:00","2012","02","12","14:00","-14.5","","-17.3","","79","","","","","","0","","24.1","","99.47","","","","","","Mainly Clear"
"-115.14","67.82","KUGLUKTUK A","2300902","2012-02-12 15:00","2012","02","12","15:00","-13.6","","-16.2","","81","","","","","","0","","24.1","","99.49","","","","","","Mainly Clear"
"-115.14","67.82","KUGLUKTUK A","2300902","2012-02-12 16:00","2012","02","12","16:00","-14.9","","-17.2","","83","","","","","","0","","24.1","","99.51","","","","","","Mainly Clear"
"-115.14","67.82","KUGLUKTUK A","2300902","2012-02-12 17:00","2012","02","12","17:00","-16.1","","-18.5","","82","","","","","","0","","24.1","","99.57","","","","","","Mainly Clear"
"-115.14","67.82","KUGLUKTUK A","2300902","2012-02-12 18:00","2012","02","12","18:00","-17.6","","-20.3","","79","","","","","","0","","24.1","","99.55","","","","","","Mostly Cloudy"
"-115.14","67.82","KUGLUKTUK A","2300902","2012-02-12 19:00","2012","02","12","19:00","-16.5","","-19.0","","81","","","","20","","7","","16.1","","99.58","","","","-22","","Ice Crystals"
"-115.14","67.82","KUGLUKTUK A","2300902","2012-02-12 20:00","2012","02","12","20:00","-16.1","","-18.5","","82","","","","","","0","","16.1","","99.56","","","","","","Ice Crystals"
"-115.14","67.82","KUGLUKTUK A","2300902","2012-02-12 21:00","2012","02","12","21:00","-15.7","","-18.1","","82","","","","","","0","","12.9","","99.56","","","","","","Ice Crystals"
"-115.14","67.82","KUGLUKTUK A","2300902","2012-02-12 22:00","2012","02","12","22:00","-15.4","","-17.2","","86","","","","22","","11","","8.0","","99.60","","","","-22","","Ice Crystals"
"-115.14","67.82","KUGLUKTUK A","2300902","2012-02-12 23:00","2012","02","12","23:00","-15.0","","-16.8","","86","","","","","","0","","6.4","","99.64","","","","","","Snow,Fog"
"-115.14","67.82","KUGLUKTUK A","2300902","2012-02-13 00:00","2012","02","13","00:00","-15.0","","-16.8","","86","","","","26","","7","","6.4","","99.67","","","","-20","","Snow,Fog"
"-115.14","67.82","KUGLUKTUK A","2300902","2012-02-13 01:00","2012","02","13","01:00","-15.0","","-16.8","","86","","","","","","0","","8.0","","99.68","","","","","","Snow,Fog"
"-115.14","67.82","KUGLUKTUK A","2300902","2012-02-13 02:00","2012","02","13","02:00","-14.6","","-16.3","","87","","","","21","","6","","6.4","","99.73","","","","-19","","Snow,Fog"
"-115.14","67.82","KUGLUKTUK A","2300902","2012-02-13 03:00","2012","02","13","03:00","-14.4","","-16.1","","87","","","","24","","6","","6.4","","99.76","","","","-19","","Snow,Fog"
"-115.14","67.82","KUGLUKTUK A","2300902","2012-02-13 04:00","2012","02","13","04:00","-14.3","","-16.0","","87","","","","26","","7","","6.4","","99.79","","","","-19","","Snow,Fog"
"-115.14","67.82","KUGLUKTUK A","2300902","2012-02-13 05:00","2012","02","13","05:00","-14.0","","-15.7","","87","","","","25","","7","","6.4","","99.81","","","","-19","","Snow,Fog"
"-115.14","67.82","KUGLUKTUK A","2300902","2012-02-13 06:00","2012","02","13","06:00","-13.8","","-15.4","","88","","","","24","","7","","6.4","","99.84","","","","-18","","Snow,Fog"
"-115.14","67.82","KUGLUKTUK A","2300902","2012-02-13 07:00","2012","02","13","07:00","-13.6","","-15.2","","88","","","","25","","7","","8.0","","99.88","","","","-18","","Snow,Fog"
"-115.14","67.82","KUGLUKTUK A","2300902","2012-02-13 08:00","2012","02","13","08:00","-13.2","","-14.8","","88","","","","26","","7","","9.7","","99.90","","","","-18","","Snow,Fog"
"-115.14","67.82","KUGLUKTUK A","2300902","2012-02-13 09:00","2012","02","13","09:00","-13.3","","-15.4","","84","","","","29","","7","","16.1","","99.95","","","","-18","","Snow"
"-115.14","67.82","KUGLUKTUK A","2300902","2012-02-13 10:00","2012","02","13","10:00","-10.5","","-12.6","","85","","","","1","","7","","16.1","","100.01","","","","-15","","Snow"
"-115.14","67.82","KUGLUKTUK A","2300902","2012-02-13 11:00","2012","02","13","11:00","-10.6","","-12.7","","85","","","","36","","6","","16.1","","100.04","","","","-14","","Snow"
"-115.14","67.82","KUGLUKTUK A","2300902","2012-02-13 12:00","2012","02","13","12:00","-13.6","","-15.7","","84","","","","2","","9","","11.3","","100.09","","","","-19","","Snow"
"-115.14","67.82","KUGLUKTUK A","2300902","2012-02-13 13:00","2012","02","13","13:00","-13.9","","-16.6","","80","","","","1","","7","","11.3","","100.12","","","","-19","","Snow"
"-115.14","67.82","KUGLUKTUK A","2300902","2012-02-13 14:00","2012","02","13","14:00","-14.1","","-16.8","","80","","","","36","","9","","8.0","","100.19","","","","-20","","Snow"
"-115.14","67.82","KUGLUKTUK A","2300902","2012-02-13 15:00","2012","02","13","15:00","-14.0","","-16.7","","80","","","","36","","9","","9.7","","100.24","","","","-20","","Snow"
"-115.14","67.82","KUGLUKTUK A","2300902","2012-02-13 16:00","2012","02","13","16:00","-14.0","","-16.7","","80","","","","35","","6","","16.1","","100.31","","","","-18","","Snow"
"-115.14","67.82","KUGLUKTUK A","2300902","2012-02-13 17:00","2012","02","13","17:00","-14.0","","-16.7","","80","","","","","","0","","14.5","","100.36","","","","","","Snow"
"-115.14","67.82","KUGLUKTUK A","2300902","2012-02-13 18:00","2012","02","13","18:00","-14.2","","-16.9","","80","","","","","","0","","8.0","","100.37","","","","","","Snow"
"-115.14","67.82","KUGLUKTUK A","2300902","2012-02-13 19:00","2012","02","13","19:00","-14.4","","-17.1","","80","","","","","","0","","9.7","","100.38","","","","","","Snow"
"-115.14","67.82","KUGLUKTUK A","2300902","2012-02-13 20:00","2012","02","13","20:00","-14.3","","-17.0","","80","","","","","","0","","9.7","","100.39","","","","","","Snow"
"-115.14","67.82","KUGLUKTUK A","2300902","2012-02-13 21:00","2012","02","13","21:00","-14.1","","-17.9","","73","","","","","","0","","12.9","","100.39","","","","","","Snow"
"-115.14","67.82","KUGLUKTUK A","2300902","2012-02-13 22:00","2012","02","13","22:00","-13.8","","-18.7","","66","","","","28","","7","","16.1","","100.38","","","","-18","","Snow"
"-115.14","67.82","KUGLUKTUK A","2300902","2012-02-13 23:00","2012","02","13","23:00","-13.7","","-18.0","","70","","","","30","","7","","16.1","","100.41","","","","-18","","Snow"
"-115.14","67.82","KUGLUKTUK A","2300902","2012-02-14 00:00","2012","02","14","00:00","-10.6","","-14.5","","73","","","","27","","7","","16.1","","100.45","","","","-15","","Snow"
"-115.14","67.82","KUGLUKTUK A","2300902","2012-02-14 01:00","2012","02","14","01:00","-13.2","","-17.3","","71","","","","29","","7","","8.0","","100.47","","","","-18","","Snow"
"-115.14","67.82","KUGLUKTUK A","2300902","2012-02-14 02:00","2012","02","14","02:00","-13.5","","-17.7","","71","","","","30","","7","","12.9","","100.50","","","","-18","","Snow"
"-115.14","67.82","KUGLUKTUK A","2300902","2012-02-14 03:00","2012","02","14","03:00","-13.7","","-18.0","","70","","","","","","0","","12.9","","100.51","","","","","","Snow"
"-115.14","67.82","KUGLUKTUK A","2300902","2012-02-14 04:00","2012","02","14","04:00","-13.6","","-17.3","","74","","","","","","0","","16.1","","100.52","","","","","","Snow"
"-115.14","67.82","KUGLUKTUK A","2300902","2012-02-14 05:00","2012","02","14","05:00","-13.7","","-18.0","","70","","","","32","","6","","16.1","","100.54","","","","-18","","Snow"
"-115.14","67.82","KUGLUKTUK A","2300902","2012-02-14 06:00","2012","02","14","06:00","-14.0","","-17.8","","73","","","","29","","6","","19.3","","100.51","","","","-18","","Snow"
"-115.14","67.82","KUGLUKTUK A","2300902","2012-02-14 07:00","2012","02","14","07:00","-14.1","","-17.3","","77","","","","30","","9","","19.3","","100.53","","","","-20","","Snow"
"-115.14","67.82","KUGLUKTUK A","2300902","2012-02-14 08:00","2012","02","14","08:00","-14.0","","-18.4","","69","","","","","","0","","16.1","","100.52","","","","","","Snow"
"-115.14","67.82","KUGLUKTUK A","2300902","2012-02-14 09:00","2012","02","14","09:00","-14.2","","-18.0","","73","","","","27","","6","","16.1","","100.54","","","","-18","","Snow"
"-115.14","67.82","KUGLUKTUK A","2300902","2012-02-14 10:00","2012","02","14","10:00","-14.4","","-18.3","","72","","","","30","","6","","16.1","","100.55","","","","-19","","Snow"
"-115.14","67.82","KUGLUKTUK A","2300902","2012-02-14 11:00","2012","02","14","11:00","-14.5","","-18.4","","72","","","","","","0","","16.1","","100.54","","","","","","Snow"
"-115.14","67.82","KUGLUKTUK A","2300902","2012-02-14 12:00","2012","02","14","12:00","-14.5","","-18.4","","72","","","","","","0","","12.9","","100.54","","","","","","Snow"
"-115.14","67.82","KUGLUKTUK A","2300902","2012-02-14 13:00","2012","02","14","13:00","-14.1","","-17.9","","73","","","","","","0","","9.7","","100.57","","","","","","Snow"
"-115.14","67.82","KUGLUKTUK A","2300902","2012-02-14 14:00","2012","02","14","14:00","-14.3","","-18.2","","72","","","","","","0","","14.5","","100.57","","","","","","Snow"
"-115.14","67.82","KUGLUKTUK A","2300902","2012-02-14 15:00","2012","02","14","15:00","-14.1","","-17.9","","73","","","","","","0","","11.3","","100.57","","","","","","Snow"
"-115.14","67.82","KUGLUKTUK A","2300902","2012-02-14 16:00","2012","02","14","16:00","-14.4","","-18.3","","72","","","","","","0","","12.9","","100.61","","","","","","Snow"
"-115.14","67.82","KUGLUKTUK A","2300902","2012-02-14 17:00","2012","02","14","17:00","-14.7","","-18.7","","72","","","","","","0","","16.1","","100.60","","","","","","Snow"
"-115.14","67.82","KUGLUKTUK A","2300902","2012-02-14 18:00","2012","02","14","18:00","-14.7","","-18.7","","72","","","","","","0","","14.5","","100.61","","","","","","Snow"
"-115.14","67.82","KUGLUKTUK A","2300902","2012-02-14 19:00","2012","02","14","19:00","-14.7","","-18.7","","72","","","","","","0","","12.9","","100.62","","","","","","Snow"
"-115.14","67.82","KUGLUKTUK A","2300902","2012-02-14 20:00","2012","02","14","20:00","-14.7","","-18.7","","72","","","","","","0","","16.1","","100.62","","","","","","Snow"
"-115.14","67.82","KUGLUKTUK A","2300902","2012-02-14 21:00","2012","02","14","21:00","-14.7","","-18.7","","72","","","","","","0","","19.3","","100.67","","","","","","Snow"
"-115.14","67.82","KUGLUKTUK A","2300902","2012-02-14 22:00","2012","02","14","22:00","-14.9","","-18.9","","71","","","","","","0","","19.3","","100.68","","","","","","Snow"
"-115.14","67.82","KUGLUKTUK A","2300902","2012-02-14 23:00","2012","02","14","23:00","-14.8","","-19.4","","68","","","","","","0","","19.3","","100.71","","","","","","Snow"
"-115.14","67.82","KUGLUKTUK A","2300902","2012-02-15 00:00","2012","02","15","00:00","-14.5","","-19.0","","69","","","","","","0","","19.3","","100.76","","","","","","Snow"
"-115.14","67.82","KUGLUKTUK A","2300902","2012-02-15 01:00","2012","02","15","01:00","-15.1","","-18.6","","75","","","","","","0","","19.3","","100.77","","","","","","Snow"
"-115.14","67.82","KUGLUKTUK A","2300902","2012-02-15 02:00","2012","02","15","02:00","-15.2","","-19.3","","71","","","","","","0","","19.3","","100.79","","","","","","Snow"
"-115.14","67.82","KUGLUKTUK A","2300902","2012-02-15 03:00","2012","02","15","03:00","-15.2","","-19.3","","71","","","","11","","6","","19.3","","100.83","","","","-19","","Snow"
"-115.14","67.82","KUGLUKTUK A","2300902","2012-02-15 04:00","2012","02","15","04:00","-14.9","","-18.9","","71","","","","","","0","","19.3","","100.88","","","","","","Snow"
"-115.14","67.82","KUGLUKTUK A","2300902","2012-02-15 05:00","2012","02","15","05:00","-14.8","","-20.1","","64","","","","","","0","","19.3","","100.91","","","","","","Snow"
"-115.14","67.82","KUGLUKTUK A","2300902","2012-02-15 06:00","2012","02","15","06:00","-14.9","","-19.5","","68","","","","","","0","","19.3","","100.94","","","","","","Snow"
"-115.14","67.82","KUGLUKTUK A","2300902","2012-02-15 07:00","2012","02","15","07:00","-15.2","","-19.9","","67","","","","","","0","","19.3","","100.97","","","","","","Snow"
"-115.14","67.82","KUGLUKTUK A","2300902","2012-02-15 08:00","2012","02","15","08:00","-15.0","","-19.7","","67","","","","","","0","","19.3","","101.00","","","","","","Snow"
"-115.14","67.82","KUGLUKTUK A","2300902","2012-02-15 09:00","2012","02","15","09:00","-15.2","","-19.3","","71","","","","5","","6","","19.3","","101.02","","","","-19","","Snow"
"-115.14","67.82","KUGLUKTUK A","2300902","2012-02-15 10:00","2012","02","15","10:00","-15.0","","-19.0","","71","","","","4","","6","","19.3","","101.06","","","","-19","","Snow"
"-115.14","67.82","KUGLUKTUK A","2300902","2012-02-15 11:00","2012","02","15","11:00","-15.0","","-18.4","","75","","","","3","","6","","16.1","","101.09","","","","-19","","Snow"
"-115.14","67.82","KUGLUKTUK A","2300902","2012-02-15 12:00","2012","02","15","12:00","-14.9","","-17.7","","79","","","","","","0","","16.1","","101.14","","","","","","Snow"
"-115.14","67.82","KUGLUKTUK A","2300902","2012-02-15 13:00","2012","02","15","13:00","-15.0","","-17.8","","79","","","","4","","6","","16.1","","101.14","","","","-19","","Snow"
"-115.14","67.82","KUGLUKTUK A","2300902","2012-02-15 14:00","2012","02","15","14:00","-15.1","","-17.4","","83","","","","4","","9","","4.8","","101.16","","","","-21","","Snow,Fog"
"-115.14","67.82","KUGLUKTUK A","2300902","2012-02-15 15:00","2012","02","15","15:00","-15.6","","-19.2","","74","","","","3","","9","","6.4","","101.18","","","","-22","","Snow"
"-115.14","67.82","KUGLUKTUK A","2300902","2012-02-15 16:00","2012","02","15","16:00","-16.0","","-19.0","","78","","","","4","","9","","8.0","","101.22","","","","-22","","Snow"
"-115.14","67.82","KUGLUKTUK A","2300902","2012-02-15 17:00","2012","02","15","17:00","-16.6","","-20.4","","72","","","","4","","9","","19.3","","101.24","","","","-23","","Snow"
"-115.14","67.82","KUGLUKTUK A","2300902","2012-02-15 18:00","2012","02","15","18:00","-17.5","","-20.8","","75","","","","3","","6","","19.3","","101.28","","","","-22","","Snow"
"-115.14","67.82","KUGLUKTUK A","2300902","2012-02-15 19:00","2012","02","15","19:00","-17.6","","-20.9","","75","","","","1","","6","","19.3","","101.32","","","","-22","","Snow"
"-115.14","67.82","KUGLUKTUK A","2300902","2012-02-15 20:00","2012","02","15","20:00","-17.1","","-20.3","","76","","","","3","","6","","19.3","","101.31","","","","-22","","Snow"
"-115.14","67.82","KUGLUKTUK A","2300902","2012-02-15 21:00","2012","02","15","21:00","-17.6","","-20.3","","79","","","","","","0","","16.1","","101.34","","","","","","Snow"
"-115.14","67.82","KUGLUKTUK A","2300902","2012-02-15 22:00","2012","02","15","22:00","-17.7","","-20.4","","79","","","","","","0","","16.1","","101.35","","","","","","Snow"
"-115.14","67.82","KUGLUKTUK A","2300902","2012-02-15 23:00","2012","02","15","23:00","-16.6","","-18.5","","85","","","","","","0","","16.1","","101.42","","","","","","Snow"
"-115.14","67.82","KUGLUKTUK A","2300902","2012-02-16 00:00","2012","02","16","00:00","-16.4","","-18.3","","85","","","","3","","9","","16.1","","101.39","","","","-22","","Snow"
"-115.14","67.82","KUGLUKTUK A","2300902","2012-02-16 01:00","2012","02","16","01:00","-16.3","","-18.2","","85","","","","6","","6","","16.1","","101.38","","","","-21","","Snow"
"-115.14","67.82","KUGLUKTUK A","2300902","2012-02-16 02:00","2012","02","16","02:00","-15.9","","-17.7","","86","","","","8","","9","","16.1","","101.39","","","","-22","","Snow"
"-115.14","67.82","KUGLUKTUK A","2300902","2012-02-16 03:00","2012","02","16","03:00","-15.8","","-18.2","","82","","","","","","0","","16.1","","101.40","","","","","","Ice Crystals"
"-115.14","67.82","KUGLUKTUK A","2300902","2012-02-16 04:00","2012","02","16","04:00","-16.0","","-17.9","","85","","","","","","0","","16.1","","101.44","","","","","","Ice Crystals"
"-115.14","67.82","KUGLUKTUK A","2300902","2012-02-16 05:00","2012","02","16","05:00","-16.0","","-17.9","","85","","","","","","0","","16.1","","101.45","","","","","","Ice Crystals"
"-115.14","67.82","KUGLUKTUK A","2300902","2012-02-16 06:00","2012","02","16","06:00","-16.1","","-18.0","","85","","","","5","","9","","16.1","","101.40","","","","-22","","Ice Crystals"
"-115.14","67.82","KUGLUKTUK A","2300902","2012-02-16 07:00","2012","02","16","07:00","-17.0","","-19.0","","84","","","","5","","11","","16.1","","101.42","","","","-24","","Ice Crystals"
"-115.14","67.82","KUGLUKTUK A","2300902","2012-02-16 08:00","2012","02","16","08:00","-17.8","","-20.5","","79","","","","3","","13","","24.1","","101.40","","","","-26","","Ice Crystals"
"-115.14","67.82","KUGLUKTUK A","2300902","2012-02-16 09:00","2012","02","16","09:00","-20.0","","-23.0","","77","","","","35","","11","","19.3","","101.40","","","","-28","","Ice Crystals"
"-115.14","67.82","KUGLUKTUK A","2300902","2012-02-16 10:00","2012","02","16","10:00","-21.5","","-23.9","","81","","","","2","","11","","19.3","","101.37","","","","-29","","Ice Crystals"
"-115.14","67.82","KUGLUKTUK A","2300902","2012-02-16 11:00","2012","02","16","11:00","-23.0","","-25.5","","80","","","","3","","13","","19.3","","101.32","","","","-32","","Ice Crystals"
"-115.14","67.82","KUGLUKTUK A","2300902","2012-02-16 12:00","2012","02","16","12:00","-22.3","","-24.7","","81","","","","2","","11","","19.3","","101.29","","","","-30","","Ice Crystals"
"-115.14","67.82","KUGLUKTUK A","2300902","2012-02-16 13:00","2012","02","16","13:00","-22.2","","-23.8","","87","","","","3","","15","","1.6","","101.24","","","","-32","","Fog"
"-115.14","67.82","KUGLUKTUK A","2300902","2012-02-16 14:00","2012","02","16","14:00","-21.2","","-22.8","","87","","","","2","","7","","1.2","","101.18","","","","-27","","Snow,Fog"
"-115.14","67.82","KUGLUKTUK A","2300902","2012-02-16 15:00","2012","02","16","15:00","-19.8","","-22.0","","83","","","","3","","7","","12.9","","101.11","","","","-25","","Snow"
"-115.14","67.82","KUGLUKTUK A","2300902","2012-02-16 16:00","2012","02","16","16:00","-17.4","","-20.7","","75","","","","3","","13","","19.3","","101.02","","","","-25","","Snow"
"-115.14","67.82","KUGLUKTUK A","2300902","2012-02-16 17:00","2012","02","16","17:00","-17.0","","-20.2","","76","","","","7","","19","","24.1","","100.90","","","","-26","","Snow"
"-115.14","67.82","KUGLUKTUK A","2300902","2012-02-16 18:00","2012","02","16","18:00","-16.3","","-20.0","","73","","","","9","","19","","19.3","","100.80","","","","-26","","Snow"
"-115.14","67.82","KUGLUKTUK A","2300902","2012-02-16 19:00","2012","02","16","19:00","-16.0","","-19.7","","73","","","","9","","19","","19.3","","100.68","","","","-25","","Snow"
"-115.14","67.82","KUGLUKTUK A","2300902","2012-02-16 20:00","2012","02","16","20:00","-15.0","","-17.8","","79","","","","8","","19","","16.1","","100.59","","","","-24","","Snow"
"-115.14","67.82","KUGLUKTUK A","2300902","2012-02-16 21:00","2012","02","16","21:00","-14.2","","-16.4","","83","","","","8","","28","","16.1","","100.50","","","","-25","","Snow"
"-115.14","67.82","KUGLUKTUK A","2300902","2012-02-16 22:00","2012","02","16","22:00","-13.4","","-16.0","","81","","","","9","","20","","16.1","","100.43","","","","-22","","Snow"
"-115.14","67.82","KUGLUKTUK A","2300902","2012-02-16 23:00","2012","02","16","23:00","-11.9","","-14.2","","83","","","","9","","19","","4.8","","100.35","","","","-20","","Snow"
"-115.14","67.82","KUGLUKTUK A","2300902","2012-02-17 00:00","2012","02","17","00:00","-11.7","","-13.5","","86","","","","11","","19","","2.8","","100.27","","","","-20","","Snow"
"-115.14","67.82","KUGLUKTUK A","2300902","2012-02-17 01:00","2012","02","17","01:00","-9.7","","-10.9","","91","","","","11","","13","","2.8","","100.20","","","","-16","","Snow"
"-115.14","67.82","KUGLUKTUK A","2300902","2012-02-17 02:00","2012","02","17","02:00","-9.3","","-11.6","","83","","","","18","","7","","3.6","","100.13","","","","-13","","Snow"
"-115.14","67.82","KUGLUKTUK A","2300902","2012-02-17 03:00","2012","02","17","03:00","-9.3","","-10.4","","92","","","","19","","11","","3.2","","100.04","","","","-15","","Snow"
"-115.14","67.82","KUGLUKTUK A","2300902","2012-02-17 04:00","2012","02","17","04:00","-9.2","","-10.7","","89","","","","20","","17","","3.2","","99.98","","","","-16","","Snow"
"-115.14","67.82","KUGLUKTUK A","2300902","2012-02-17 05:00","2012","02","17","05:00","-9.3","","-11.2","","86","","","","22","","24","","3.6","","99.91","","","","-18","","Snow"
"-115.14","67.82","KUGLUKTUK A","2300902","2012-02-17 06:00","2012","02","17","06:00","-13.3","","-15.4","","84","","","","26","","28","","4.0","","99.89","","","","-24","","Snow"
"-115.14","67.82","KUGLUKTUK A","2300902","2012-02-17 07:00","2012","02","17","07:00","-14.9","","-16.7","","86","","","","24","","28","","4.8","","99.86","","","","-26","","Snow"
"-115.14","67.82","KUGLUKTUK A","2300902","2012-02-17 08:00","2012","02","17","08:00","-15.8","","-17.6","","86","","","","24","","28","","12.9","","99.85","","","","-27","","Snow"
"-115.14","67.82","KUGLUKTUK A","2300902","2012-02-17 09:00","2012","02","17","09:00","-14.8","","-18.2","","75","","","","25","","30","","16.1","","99.82","","","","-26","","Snow"
"-115.14","67.82","KUGLUKTUK A","2300902","2012-02-17 10:00","2012","02","17","10:00","-17.3","","-21.3","","71","","","","25","","33","","11.3","","99.84","","","","-30","","Snow"
"-115.14","67.82","KUGLUKTUK A","2300902","2012-02-17 11:00","2012","02","17","11:00","-17.5","","-21.5","","71","","","","26","","32","","11.3","","99.88","","","","-30","","Snow"
"-115.14","67.82","KUGLUKTUK A","2300902","2012-02-17 12:00","2012","02","17","12:00","-17.0","","-22.4","","63","","","","26","","30","","8.0","","99.90","","","","-29","","Snow,Blowing Snow"
"-115.14","67.82","KUGLUKTUK A","2300902","2012-02-17 13:00","2012","02","17","13:00","-17.7","","-21.8","","70","","","","26","","32","","8.0","","99.92","","","","-30","","Snow,Blowing Snow"
"-115.14","67.82","KUGLUKTUK A","2300902","2012-02-17 14:00","2012","02","17","14:00","-18.0","","-22.1","","70","","","","25","","26","","16.1","","99.94","","","","-29","","Snow"
"-115.14","67.82","KUGLUKTUK A","2300902","2012-02-17 15:00","2012","02","17","15:00","-19.0","","-22.6","","73","","","","26","","33","","19.3","","99.98","","","","-32","","Cloudy"
"-115.14","67.82","KUGLUKTUK A","2300902","2012-02-17 16:00","2012","02","17","16:00","-19.0","","-23.4","","68","","","","27","","24","","19.3","","100.01","","","","-30","","Cloudy"
"-115.14","67.82","KUGLUKTUK A","2300902","2012-02-17 17:00","2012","02","17","17:00","-18.0","","-22.9","","65","","","","28","","20","","6.4","","100.08","","","","-28","","Snow"
"-115.14","67.82","KUGLUKTUK A","2300902","2012-02-17 18:00","2012","02","17","18:00","-18.0","","-20.7","","79","","","","33","","22","","3.2","","100.14","","","","-28","","Snow"
"-115.14","67.82","KUGLUKTUK A","2300902","2012-02-17 19:00","2012","02","17","19:00","-17.6","","-20.9","","75","","","","31","","26","","3.2","","100.22","","","","-29","","Snow"
"-115.14","67.82","KUGLUKTUK A","2300902","2012-02-17 20:00","2012","02","17","20:00","-17.8","","-21.9","","70","","","","32","","24","","6.4","","100.27","","","","-29","","Snow"
"-115.14","67.82","KUGLUKTUK A","2300902","2012-02-17 21:00","2012","02","17","21:00","-17.8","","-21.2","","75","","","","33","","28","","8.0","","100.36","","","","-29","","Snow"
"-115.14","67.82","KUGLUKTUK A","2300902","2012-02-17 22:00","2012","02","17","22:00","-18.3","","-21.8","","74","","","","33","","28","","12.9","","100.48","","","","-30","","Snow"
"-115.14","67.82","KUGLUKTUK A","2300902","2012-02-17 23:00","2012","02","17","23:00","-18.5","","-21.3","","79","","","","33","","28","","19.3","","100.55","","","","-30","","Snow"
"-115.14","67.82","KUGLUKTUK A","2300902","2012-02-18 00:00","2012","02","18","00:00","-18.4","","-21.2","","79","","","","34","","28","","16.1","","100.65","","","","-30","","Ice Crystals"
"-115.14","67.82","KUGLUKTUK A","2300902","2012-02-18 01:00","2012","02","18","01:00","-18.7","","-21.5","","79","","","","35","","28","","12.9","","100.76","","","","-31","","Ice Crystals"
"-115.14","67.82","KUGLUKTUK A","2300902","2012-02-18 02:00","2012","02","18","02:00","-19.7","","-22.7","","77","","","","1","","37","","8.0","","100.82","","","","-33","","Blowing Snow"
"-115.14","67.82","KUGLUKTUK A","2300902","2012-02-18 03:00","2012","02","18","03:00","-21.0","","-23.3","","82","","","","34","","28","","24.1","","100.98","","","","-34","","Ice Crystals"
"-115.14","67.82","KUGLUKTUK A","2300902","2012-02-18 04:00","2012","02","18","04:00","-21.6","","-24.0","","81","","","","34","","28","","24.1","","101.12","","","","-34","","Ice Crystals"
"-115.14","67.82","KUGLUKTUK A","2300902","2012-02-18 05:00","2012","02","18","05:00","-21.8","","-24.2","","81","","","","36","","28","","24.1","","101.22","","","","-35","","Ice Crystals"
"-115.14","67.82","KUGLUKTUK A","2300902","2012-02-18 06:00","2012","02","18","06:00","-22.5","","-25.0","","80","","","","1","","19","","24.1","","101.33","","","","-33","","Ice Crystals"
"-115.14","67.82","KUGLUKTUK A","2300902","2012-02-18 07:00","2012","02","18","07:00","-22.1","","-24.5","","81","","","","1","","20","","16.1","","101.44","","","","-33","","Ice Crystals"
"-115.14","67.82","KUGLUKTUK A","2300902","2012-02-18 08:00","2012","02","18","08:00","-22.1","","-25.4","","75","","","","2","","15","","24.1","","101.50","","","","-32","","Ice Crystals"
"-115.14","67.82","KUGLUKTUK A","2300902","2012-02-18 09:00","2012","02","18","09:00","-22.2","","-25.5","","74","","","","3","","15","","19.3","","101.60","","","","-32","","Ice Crystals"
"-115.14","67.82","KUGLUKTUK A","2300902","2012-02-18 10:00","2012","02","18","10:00","-22.8","","-27.3","","67","","","","4","","13","","19.3","","101.65","","","","-32","","Ice Crystals"
"-115.14","67.82","KUGLUKTUK A","2300902","2012-02-18 11:00","2012","02","18","11:00","-23.0","","-28.7","","60","","","","4","","15","","16.1","","101.70","","","","-33","","Ice Crystals"
"-115.14","67.82","KUGLUKTUK A","2300902","2012-02-18 12:00","2012","02","18","12:00","-23.6","","-29.5","","58","","","","5","","13","","19.3","","101.82","","","","-33","","Ice Crystals"
"-115.14","67.82","KUGLUKTUK A","2300902","2012-02-18 13:00","2012","02","18","13:00","-23.9","","-28.7","","65","","","","4","","9","","19.3","","101.86","","","","-31","","Ice Crystals"
"-115.14","67.82","KUGLUKTUK A","2300902","2012-02-18 14:00","2012","02","18","14:00","-24.9","","-28.7","","71","","","","2","","7","","19.3","","101.91","","","","-31","","Ice Crystals"
"-115.14","67.82","KUGLUKTUK A","2300902","2012-02-18 15:00","2012","02","18","15:00","-25.4","","-29.3","","70","","","","3","","9","","19.3","","101.95","","","","-33","","Ice Crystals"
"-115.14","67.82","KUGLUKTUK A","2300902","2012-02-18 16:00","2012","02","18","16:00","-25.5","","-29.4","","70","","","","","","0","","19.3","","101.99","","","","","","Ice Crystals"
"-115.14","67.82","KUGLUKTUK A","2300902","2012-02-18 17:00","2012","02","18","17:00","-26.4","","-29.2","","77","","","","","","0","","19.3","","102.04","","","","","","Ice Crystals"
"-115.14","67.82","KUGLUKTUK A","2300902","2012-02-18 18:00","2012","02","18","18:00","-27.2","","-33.0","","58","","","","5","","6","","19.3","","102.07","","","","-33","","Ice Crystals"
"-115.14","67.82","KUGLUKTUK A","2300902","2012-02-18 19:00","2012","02","18","19:00","-27.8","","-30.7","","76","","","","","","0","","19.3","","102.10","","","","","","Ice Crystals"
"-115.14","67.82","KUGLUKTUK A","2300902","2012-02-18 20:00","2012","02","18","20:00","-27.3","","-33.1","","58","","","","","","0","","19.3","","102.08","","","","","","Ice Crystals"
"-115.14","67.82","KUGLUKTUK A","2300902","2012-02-18 21:00","2012","02","18","21:00","-27.0","","-29.8","","77","","","","10","","9","","19.3","","102.05","","","","-35","","Ice Crystals"
"-115.14","67.82","KUGLUKTUK A","2300902","2012-02-18 22:00","2012","02","18","22:00","-26.9","","-29.7","","77","","","","10","","6","","19.3","","102.09","","","","-33","","Ice Crystals"
"-115.14","67.82","KUGLUKTUK A","2300902","2012-02-18 23:00","2012","02","18","23:00","-26.0","","-28.8","","77","","","","5","","7","","19.3","","102.12","","","","-33","","Ice Crystals"
"-115.14","67.82","KUGLUKTUK A","2300902","2012-02-19 00:00","2012","02","19","00:00","-25.9","","-28.6","","78","","","","10","","7","","24.1","","102.09","","","","-33","","Ice Crystals"
"-115.14","67.82","KUGLUKTUK A","2300902","2012-02-19 01:00","2012","02","19","01:00","-26.1","","-28.9","","77","","","","9","","19","","24.1","","102.06","","","","-38","","Clear"
"-115.14","67.82","KUGLUKTUK A","2300902","2012-02-19 02:00","2012","02","19","02:00","-26.7","","-29.5","","77","","","","10","","19","","24.1","","102.02","","","","-39","","Clear"
"-115.14","67.82","KUGLUKTUK A","2300902","2012-02-19 03:00","2012","02","19","03:00","-26.0","","-28.8","","77","","","","10","","28","","24.1","","101.99","","","","-40","","Mainly Clear"
"-115.14","67.82","KUGLUKTUK A","2300902","2012-02-19 04:00","2012","02","19","04:00","-25.1","","-26.7","","86","","","","10","","28","","24.1","","101.96","","","","-39","","Clear"
"-115.14","67.82","KUGLUKTUK A","2300902","2012-02-19 05:00","2012","02","19","05:00","-24.1","","-26.7","","79","","","","10","","22","","24.1","","101.96","","","","-36","","Mainly Clear"
"-115.14","67.82","KUGLUKTUK A","2300902","2012-02-19 06:00","2012","02","19","06:00","-24.5","","-27.1","","79","","","","10","","19","","16.1","","101.93","","","","-36","","Ice Crystals"
"-115.14","67.82","KUGLUKTUK A","2300902","2012-02-19 07:00","2012","02","19","07:00","-24.8","","-27.5","","78","","","","10","","19","","16.1","","101.89","","","","-36","","Ice Crystals"
"-115.14","67.82","KUGLUKTUK A","2300902","2012-02-19 08:00","2012","02","19","08:00","-25.4","","-28.1","","78","","","","10","","28","","8.0","","101.86","","","","-39","","Snow"
"-115.14","67.82","KUGLUKTUK A","2300902","2012-02-19 09:00","2012","02","19","09:00","-23.0","","-25.5","","80","","","","9","","24","","6.4","","101.82","","","","-35","","Snow,Blowing Snow"
"-115.14","67.82","KUGLUKTUK A","2300902","2012-02-19 10:00","2012","02","19","10:00","-22.0","","-26.3","","68","","","","9","","26","","6.4","","101.81","","","","-34","","Snow,Blowing Snow"
"-115.14","67.82","KUGLUKTUK A","2300902","2012-02-19 11:00","2012","02","19","11:00","-19.5","","-24.0","","67","","","","10","","28","","3.2","","101.77","","","","-32","","Snow,Blowing Snow"
"-115.14","67.82","KUGLUKTUK A","2300902","2012-02-19 12:00","2012","02","19","12:00","-17.9","","-21.3","","75","","","","11","","17","","2.4","","101.77","","","","-27","","Snow"
"-115.14","67.82","KUGLUKTUK A","2300902","2012-02-19 13:00","2012","02","19","13:00","-17.5","","-21.5","","71","","","","10","","20","","6.4","","101.75","","","","-27","","Snow"
"-115.14","67.82","KUGLUKTUK A","2300902","2012-02-19 14:00","2012","02","19","14:00","-17.4","","-20.7","","75","","","","11","","22","","11.3","","101.72","","","","-28","","Snow"
"-115.14","67.82","KUGLUKTUK A","2300902","2012-02-19 15:00","2012","02","19","15:00","-16.9","","-20.1","","76","","","","12","","22","","6.4","","101.69","","","","-27","","Snow"
"-115.14","67.82","KUGLUKTUK A","2300902","2012-02-19 16:00","2012","02","19","16:00","-16.6","","-20.4","","72","","","","12","","24","","6.4","","101.66","","","","-27","","Snow"
"-115.14","67.82","KUGLUKTUK A","2300902","2012-02-19 17:00","2012","02","19","17:00","-16.3","","-20.7","","69","","","","13","","22","","8.0","","101.61","","","","-26","","Snow"
"-115.14","67.82","KUGLUKTUK A","2300902","2012-02-19 18:00","2012","02","19","18:00","-16.4","","-19.5","","77","","","","13","","13","","3.2","","101.57","","","","-24","","Snow"
"-115.14","67.82","KUGLUKTUK A","2300902","2012-02-19 19:00","2012","02","19","19:00","-16.3","","-18.8","","81","","","","14","","7","","3.2","","101.55","","","","-21","","Ice Crystals"
"-115.14","67.82","KUGLUKTUK A","2300902","2012-02-19 20:00","2012","02","19","20:00","-15.6","","-19.2","","74","","","","18","","20","","3.2","","101.49","","","","-25","","Snow"
"-115.14","67.82","KUGLUKTUK A","2300902","2012-02-19 21:00","2012","02","19","21:00","-16.0","","-19.7","","73","","","","17","","22","","4.8","","101.47","","","","-26","","Snow"
"-115.14","67.82","KUGLUKTUK A","2300902","2012-02-19 22:00","2012","02","19","22:00","-15.8","","-19.4","","74","","","","17","","19","","4.8","","101.45","","","","-25","","Snow"
"-115.14","67.82","KUGLUKTUK A","2300902","2012-02-19 23:00","2012","02","19","23:00","-15.6","","-19.8","","70","","","","18","","22","","4.8","","101.39","","","","-25","","Snow"
"-115.14","67.82","KUGLUKTUK A","2300902","2012-02-20 00:00","2012","02","20","00:00","-15.4","","-19.5","","71","","","","19","","19","","4.8","","101.40","","","","-24","","Snow"
"-115.14","67.82","KUGLUKTUK A","2300902","2012-02-20 01:00","2012","02","20","01:00","-15.5","","-19.7","","70","","","","19","","22","","8.0","","101.42","","","","-25","","Snow"
"-115.14","67.82","KUGLUKTUK A","2300902","2012-02-20 02:00","2012","02","20","02:00","-15.9","","-20.2","","69","","","","","","0","","11.3","","101.43","","","","","","Snow"
"-115.14","67.82","KUGLUKTUK A","2300902","2012-02-20 03:00","2012","02","20","03:00","-16.0","","-20.3","","69","","","","","","0","","16.1","","101.40","","","","","","Snow"
"-115.14","67.82","KUGLUKTUK A","2300902","2012-02-20 04:00","2012","02","20","04:00","-16.5","","-20.3","","72","","","","","","0","","16.1","","101.35","","","","","","Snow"
"-115.14","67.82","KUGLUKTUK A","2300902","2012-02-20 05:00","2012","02","20","05:00","-17.2","","-21.1","","72","","","","21","","9","","19.3","","101.30","","","","-23","","Snow"
"-115.14","67.82","KUGLUKTUK A","2300902","2012-02-20 06:00","2012","02","20","06:00","-17.5","","-21.5","","71","","","","17","","11","","19.3","","101.24","","","","-25","","Snow"
"-115.14","67.82","KUGLUKTUK A","2300902","2012-02-20 07:00","2012","02","20","07:00","-17.7","","-21.8","","70","","","","18","","9","","19.3","","101.18","","","","-24","","Snow"
"-115.14","67.82","KUGLUKTUK A","2300902","2012-02-20 08:00","2012","02","20","08:00","-17.7","","-21.8","","70","","","","","","0","","19.3","","101.14","","","","","","Snow"
"-115.14","67.82","KUGLUKTUK A","2300902","2012-02-20 09:00","2012","02","20","09:00","-17.7","","-21.8","","70","","","","21","","7","","19.3","","101.11","","","","-23","","Snow"
"-115.14","67.82","KUGLUKTUK A","2300902","2012-02-20 10:00","2012","02","20","10:00","-17.8","","-21.9","","70","","","","19","","19","","19.3","","101.06","","","","-27","","Snow"
"-115.14","67.82","KUGLUKTUK A","2300902","2012-02-20 11:00","2012","02","20","11:00","-19.6","","-25.1","","62","","","","20","","22","","19.3","","101.01","","","","-30","","Mostly Cloudy"
"-115.14","67.82","KUGLUKTUK A","2300902","2012-02-20 12:00","2012","02","20","12:00","-17.8","","-21.9","","70","","","","20","","26","","24.1","","100.98","","","","-29","","Mostly Cloudy"
"-115.14","67.82","KUGLUKTUK A","2300902","2012-02-20 13:00","2012","02","20","13:00","-18.6","","-22.9","","69","","","","21","","22","","24.1","","100.94","","","","-29","","Mostly Cloudy"
"-115.14","67.82","KUGLUKTUK A","2300902","2012-02-20 14:00","2012","02","20","14:00","-18.2","","-23.2","","65","","","","21","","20","","24.1","","100.88","","","","-28","","Mostly Cloudy"
"-115.14","67.82","KUGLUKTUK A","2300902","2012-02-20 15:00","2012","02","20","15:00","-19.4","","-23.1","","72","","","","21","","26","","24.1","","100.84","","","","-31","","Mainly Clear"
"-115.14","67.82","KUGLUKTUK A","2300902","2012-02-20 16:00","2012","02","20","16:00","-20.0","","-23.8","","72","","","","22","","28","","24.1","","100.77","","","","-32","","Mainly Clear"
"-115.14","67.82","KUGLUKTUK A","2300902","2012-02-20 17:00","2012","02","20","17:00","-20.5","","-25.3","","65","","","","21","","24","","24.1","","100.71","","","","-32","","Clear"
"-115.14","67.82","KUGLUKTUK A","2300902","2012-02-20 18:00","2012","02","20","18:00","-20.5","","-23.6","","76","","","","21","","20","","24.1","","100.64","","","","-31","","Clear"
"-115.14","67.82","KUGLUKTUK A","2300902","2012-02-20 19:00","2012","02","20","19:00","-22.0","","-26.3","","68","","","","20","","15","","24.1","","100.54","","","","-32","","Mainly Clear"
"-115.14","67.82","KUGLUKTUK A","2300902","2012-02-20 20:00","2012","02","20","20:00","-22.0","","-26.3","","68","","","","21","","15","","24.1","","100.48","","","","-32","","Mainly Clear"
"-115.14","67.82","KUGLUKTUK A","2300902","2012-02-20 21:00","2012","02","20","21:00","-21.8","","-26.0","","69","","","","21","","19","","24.1","","100.41","","","","-32","","Clear"
"-115.14","67.82","KUGLUKTUK A","2300902","2012-02-20 22:00","2012","02","20","22:00","-22.5","","-25.9","","74","","","","21","","22","","24.1","","100.36","","","","-34","","Ice Crystals"
"-115.14","67.82","KUGLUKTUK A","2300902","2012-02-20 23:00","2012","02","20","23:00","-24.0","","-27.6","","72","","","","22","","19","","24.1","","100.29","","","","-35","","Ice Crystals"
"-115.14","67.82","KUGLUKTUK A","2300902","2012-02-21 00:00","2012","02","21","00:00","-24.1","","-27.8","","71","","","","22","","11","","24.1","","100.25","","","","-33","","Clear"
"-115.14","67.82","KUGLUKTUK A","2300902","2012-02-21 01:00","2012","02","21","01:00","-24.0","","-27.6","","72","","","","","","0","","24.1","","100.20","","","","","","Clear"
"-115.14","67.82","KUGLUKTUK A","2300902","2012-02-21 02:00","2012","02","21","02:00","-23.9","","-27.5","","72","","","","23","","7","","24.1","","100.15","","","","-30","","Clear"
"-115.14","67.82","KUGLUKTUK A","2300902","2012-02-21 03:00","2012","02","21","03:00","-24.8","","-28.6","","71","","","","24","","9","","24.1","","100.10","","","","-32","","Clear"
"-115.14","67.82","KUGLUKTUK A","2300902","2012-02-21 04:00","2012","02","21","04:00","-24.7","","-28.5","","71","","","","","","0","","24.1","","100.04","","","","","","Clear"
"-115.14","67.82","KUGLUKTUK A","2300902","2012-02-21 05:00","2012","02","21","05:00","-25.6","","-28.3","","78","","","","","","0","","24.1","","100.01","","","","","","Clear"
"-115.14","67.82","KUGLUKTUK A","2300902","2012-02-21 06:00","2012","02","21","06:00","-26.0","","-28.8","","77","","","","24","","9","","24.1","","99.96","","","","-34","","Clear"
"-115.14","67.82","KUGLUKTUK A","2300902","2012-02-21 07:00","2012","02","21","07:00","-28.1","","-31.0","","76","","","","26","","6","","24.1","","99.95","","","","-34","","Clear"
"-115.14","67.82","KUGLUKTUK A","2300902","2012-02-21 08:00","2012","02","21","08:00","-28.0","","-30.9","","76","","","","24","","19","","24.1","","99.95","","","","-40","","Clear"
"-115.14","67.82","KUGLUKTUK A","2300902","2012-02-21 09:00","2012","02","21","09:00","-29.6","","-32.6","","75","","","","23","","24","","24.1","","99.92","","","","-44","","Clear"
"-115.14","67.82","KUGLUKTUK A","2300902","2012-02-21 10:00","2012","02","21","10:00","-26.3","","-29.1","","77","","","","24","","28","","24.1","","99.89","","","","-40","","Mainly Clear"
"-115.14","67.82","KUGLUKTUK A","2300902","2012-02-21 11:00","2012","02","21","11:00","-27.4","","-29.0","","86","","","","24","","19","","16.1","","99.85","","","","-40","","Mainly Clear"
"-115.14","67.82","KUGLUKTUK A","2300902","2012-02-21 12:00","2012","02","21","12:00","-27.6","","-29.2","","86","","","","23","","20","","24.1","","99.85","","","","-40","","Mainly Clear"
"-115.14","67.82","KUGLUKTUK A","2300902","2012-02-21 13:00","2012","02","21","13:00","-26.8","","-28.4","","86","","","","23","","19","","24.1","","99.88","","","","-39","","Mainly Clear"
"-115.14","67.82","KUGLUKTUK A","2300902","2012-02-21 14:00","2012","02","21","14:00","-26.5","","-32.1","","59","","","","24","","22","","24.1","","99.89","","","","-39","","Mainly Clear"
"-115.14","67.82","KUGLUKTUK A","2300902","2012-02-21 15:00","2012","02","21","15:00","-26.9","","-31.1","","68","","","","23","","20","","24.1","","99.89","","","","-39","","Mainly Clear"
"-115.14","67.82","KUGLUKTUK A","2300902","2012-02-21 16:00","2012","02","21","16:00","-27.9","","-32.3","","66","","","","22","","22","","24.1","","99.87","","","","-41","","Ice Crystals"
"-115.14","67.82","KUGLUKTUK A","2300902","2012-02-21 17:00","2012","02","21","17:00","-28.2","","-34.4","","55","","","","22","","24","","24.1","","99.89","","","","-42","","Mainly Clear"
"-115.14","67.82","KUGLUKTUK A","2300902","2012-02-21 18:00","2012","02","21","18:00","-27.5","","-31.8","","67","","","","","","0","","16.1","","99.89","","","","","","Mainly Clear"
"-115.14","67.82","KUGLUKTUK A","2300902","2012-02-21 19:00","2012","02","21","19:00","-26.9","","-32.6","","58","","","","","","0","","19.3","","99.90","","","","","","Ice Crystals"
"-115.14","67.82","KUGLUKTUK A","2300902","2012-02-21 20:00","2012","02","21","20:00","-27.3","","-33.1","","58","","","","25","","15","","19.3","","99.90","","","","-38","","Ice Crystals"
"-115.14","67.82","KUGLUKTUK A","2300902","2012-02-21 21:00","2012","02","21","21:00","-27.0","","-29.8","","77","","","","24","","19","","24.1","","99.90","","","","-39","","Ice Crystals"
"-115.14","67.82","KUGLUKTUK A","2300902","2012-02-21 22:00","2012","02","21","22:00","-29.0","","-32.0","","75","","","","22","","11","","24.1","","99.89","","","","-38","","Ice Crystals"
"-115.14","67.82","KUGLUKTUK A","2300902","2012-02-21 23:00","2012","02","21","23:00","-27.5","","-30.4","","76","","","","23","","9","","24.1","","99.92","","","","-36","","Ice Crystals"
"-115.14","67.82","KUGLUKTUK A","2300902","2012-02-22 00:00","2012","02","22","00:00","-28.7","","-31.7","","75","","","","","","0","","19.3","","99.96","","","","","","Ice Crystals"
"-115.14","67.82","KUGLUKTUK A","2300902","2012-02-22 01:00","2012","02","22","01:00","-29.5","","-32.5","","75","","","","22","","6","","19.3","","99.99","","","","-36","","Ice Crystals"
"-115.14","67.82","KUGLUKTUK A","2300902","2012-02-22 02:00","2012","02","22","02:00","-28.9","","-31.9","","75","","","","","","0","","24.1","","100.03","","","","","","Ice Crystals"
"-115.14","67.82","KUGLUKTUK A","2300902","2012-02-22 03:00","2012","02","22","03:00","-28.5","","-31.4","","76","","","","","","0","","24.1","","100.10","","","","","","Ice Crystals"
"-115.14","67.82","KUGLUKTUK A","2300902","2012-02-22 04:00","2012","02","22","04:00","-29.3","","-32.3","","75","","","","","","0","","16.1","","100.16","","","","","","Ice Crystals"
"-115.14","67.82","KUGLUKTUK A","2300902","2012-02-22 05:00","2012","02","22","05:00","-27.3","","-30.2","","76","","","","23","","13","","16.1","","100.17","","","","-37","","Ice Crystals"
"-115.14","67.82","KUGLUKTUK A","2300902","2012-02-22 06:00","2012","02","22","06:00","-26.1","","-28.9","","77","","","","23","","17","","16.1","","100.19","","","","-37","","Ice Crystals"
"-115.14","67.82","KUGLUKTUK A","2300902","2012-02-22 07:00","2012","02","22","07:00","-25.5","","-28.2","","78","","","","23","","19","","16.1","","100.21","","","","-37","","Ice Crystals"
"-115.14","67.82","KUGLUKTUK A","2300902","2012-02-22 08:00","2012","02","22","08:00","-24.6","","-27.2","","79","","","","24","","20","","8.0","","100.26","","","","-36","","Ice Crystals"
"-115.14","67.82","KUGLUKTUK A","2300902","2012-02-22 09:00","2012","02","22","09:00","-25.3","","-30.5","","62","","","","24","","24","","9.7","","100.27","","","","-38","","Ice Crystals"
"-115.14","67.82","KUGLUKTUK A","2300902","2012-02-22 10:00","2012","02","22","10:00","-24.0","","-28.8","","65","","","","27","","26","","9.7","","100.31","","","","-37","","Ice Crystals"
"-115.14","67.82","KUGLUKTUK A","2300902","2012-02-22 11:00","2012","02","22","11:00","-23.5","","-28.2","","65","","","","27","","24","","9.7","","100.39","","","","-36","","Ice Crystals"
"-115.14","67.82","KUGLUKTUK A","2300902","2012-02-22 12:00","2012","02","22","12:00","-23.7","","-29.6","","58","","","","26","","20","","6.4","","100.47","","","","-35","","Snow"
"-115.14","67.82","KUGLUKTUK A","2300902","2012-02-22 13:00","2012","02","22","13:00","-23.6","","-29.5","","58","","","","26","","15","","12.9","","100.56","","","","-34","","Ice Crystals"
"-115.14","67.82","KUGLUKTUK A","2300902","2012-02-22 14:00","2012","02","22","14:00","-24.0","","-28.8","","65","","","","27","","11","","12.9","","100.65","","","","-32","","Ice Crystals"
"-115.14","67.82","KUGLUKTUK A","2300902","2012-02-22 15:00","2012","02","22","15:00","-24.3","","-29.2","","64","","","","26","","13","","12.9","","100.72","","","","-34","","Ice Crystals"
"-115.14","67.82","KUGLUKTUK A","2300902","2012-02-22 16:00","2012","02","22","16:00","-25.0","","-27.7","","78","","","","26","","19","","24.1","","100.82","","","","-37","","Ice Crystals"
"-115.14","67.82","KUGLUKTUK A","2300902","2012-02-22 17:00","2012","02","22","17:00","-25.1","","-27.8","","78","","","","27","","19","","16.1","","100.88","","","","-37","","Ice Crystals"
"-115.14","67.82","KUGLUKTUK A","2300902","2012-02-22 18:00","2012","02","22","18:00","-25.1","","-27.8","","78","","","","28","","17","","12.9","","100.96","","","","-36","","Ice Crystals"
"-115.14","67.82","KUGLUKTUK A","2300902","2012-02-22 19:00","2012","02","22","19:00","-25.0","","-27.7","","78","","","","30","","19","","16.1","","101.02","","","","-37","","Ice Crystals"
"-115.14","67.82","KUGLUKTUK A","2300902","2012-02-22 20:00","2012","02","22","20:00","-24.8","","-27.5","","78","","","","27","","9","","16.1","","101.08","","","","-32","","Ice Crystals"
"-115.14","67.82","KUGLUKTUK A","2300902","2012-02-22 21:00","2012","02","22","21:00","-24.5","","-27.1","","79","","","","34","","13","","12.9","","101.15","","","","-34","","Ice Crystals"
"-115.14","67.82","KUGLUKTUK A","2300902","2012-02-22 22:00","2012","02","22","22:00","-24.6","","-27.2","","79","","","","33","","17","","14.5","","101.21","","","","-35","","Ice Crystals"
"-115.14","67.82","KUGLUKTUK A","2300902","2012-02-22 23:00","2012","02","22","23:00","-25.0","","-27.7","","78","","","","29","","9","","14.5","","101.28","","","","-33","","Ice Crystals"
"-115.14","67.82","KUGLUKTUK A","2300902","2012-02-23 00:00","2012","02","23","00:00","-26.5","","-29.3","","77","","","","31","","15","","14.5","","101.34","","","","-37","","Ice Crystals"
"-115.14","67.82","KUGLUKTUK A","2300902","2012-02-23 01:00","2012","02","23","01:00","-27.9","","-30.8","","76","","","","30","","13","","9.7","","101.43","","","","-38","","Ice Crystals"
"-115.14","67.82","KUGLUKTUK A","2300902","2012-02-23 02:00","2012","02","23","02:00","-27.6","","-30.5","","76","","","","28","","15","","9.7","","101.51","","","","-38","","Ice Crystals"
"-115.14","67.82","KUGLUKTUK A","2300902","2012-02-23 03:00","2012","02","23","03:00","-28.1","","-31.0","","76","","","","27","","19","","9.7","","101.59","","","","-40","","Ice Crystals"
"-115.14","67.82","KUGLUKTUK A","2300902","2012-02-23 04:00","2012","02","23","04:00","-29.0","","-32.0","","75","","","","28","","15","","11.3","","101.64","","","","-40","","Ice Crystals"
"-115.14","67.82","KUGLUKTUK A","2300902","2012-02-23 05:00","2012","02","23","05:00","-28.5","","-31.4","","76","","","","27","","19","","12.9","","101.71","","","","-41","","Ice Crystals"
"-115.14","67.82","KUGLUKTUK A","2300902","2012-02-23 06:00","2012","02","23","06:00","-28.5","","-31.4","","76","","","","27","","19","","8.0","","101.76","","","","-41","","Ice Crystals"
"-115.14","67.82","KUGLUKTUK A","2300902","2012-02-23 07:00","2012","02","23","07:00","-30.1","","-33.2","","74","","","","24","","20","","4.8","","101.80","","","","-43","","Ice Crystals"
"-115.14","67.82","KUGLUKTUK A","2300902","2012-02-23 08:00","2012","02","23","08:00","-31.9","","-35.1","","73","","","","24","","22","","14.5","","101.86","","","","-46","","Ice Crystals"
"-115.14","67.82","KUGLUKTUK A","2300902","2012-02-23 09:00","2012","02","23","09:00","-31.0","","-34.1","","74","","","","25","","22","","24.1","","101.90","","","","-45","","Mainly Clear"
"-115.14","67.82","KUGLUKTUK A","2300902","2012-02-23 10:00","2012","02","23","10:00","-31.3","","-34.4","","74","","","","25","","19","","24.1","","101.96","","","","-44","","Clear"
"-115.14","67.82","KUGLUKTUK A","2300902","2012-02-23 11:00","2012","02","23","11:00","-31.0","","-34.1","","74","","","","22","","17","","24.1","","102.02","","","","-43","","Clear"
"-115.14","67.82","KUGLUKTUK A","2300902","2012-02-23 12:00","2012","02","23","12:00","-29.9","","-32.9","","75","","","","24","","19","","24.1","","102.07","","","","-43","","Clear"
"-115.14","67.82","KUGLUKTUK A","2300902","2012-02-23 13:00","2012","02","23","13:00","-29.2","","-32.2","","75","","","","25","","17","","24.1","","102.12","","","","-41","","Clear"
"-115.14","67.82","KUGLUKTUK A","2300902","2012-02-23 14:00","2012","02","23","14:00","-29.6","","-32.6","","75","","","","24","","19","","24.1","","102.17","","","","-42","","Clear"
"-115.14","67.82","KUGLUKTUK A","2300902","2012-02-23 15:00","2012","02","23","15:00","-29.6","","-32.6","","75","","","","24","","19","","24.1","","102.21","","","","-42","","Clear"
"-115.14","67.82","KUGLUKTUK A","2300902","2012-02-23 16:00","2012","02","23","16:00","-30.6","","-33.7","","74","","","","24","","22","","24.1","","102.25","","","","-44","","Clear"
"-115.14","67.82","KUGLUKTUK A","2300902","2012-02-23 17:00","2012","02","23","17:00","-30.1","","-33.2","","74","","","","25","","19","","24.1","","102.28","","","","-43","","Clear"
"-115.14","67.82","KUGLUKTUK A","2300902","2012-02-23 18:00","2012","02","23","18:00","-31.7","","-34.9","","73","","","","24","","22","","24.1","","102.33","","","","-46","","Clear"
"-115.14","67.82","KUGLUKTUK A","2300902","2012-02-23 19:00","2012","02","23","19:00","-31.1","","-34.2","","74","","","","24","","19","","24.1","","102.33","","","","-44","","Clear"
"-115.14","67.82","KUGLUKTUK A","2300902","2012-02-23 20:00","2012","02","23","20:00","-31.6","","-34.8","","73","","","","23","","24","","24.1","","102.37","","","","-46","","Clear"
"-115.14","67.82","KUGLUKTUK A","2300902","2012-02-23 21:00","2012","02","23","21:00","-31.8","","-35.0","","73","","","","24","","19","","19.3","","102.38","","","","-45","","Ice Crystals"
"-115.14","67.82","KUGLUKTUK A","2300902","2012-02-23 22:00","2012","02","23","22:00","-31.6","","-34.8","","73","","","","24","","19","","24.1","","102.39","","","","-45","","Ice Crystals"
"-115.14","67.82","KUGLUKTUK A","2300902","2012-02-23 23:00","2012","02","23","23:00","-31.9","","-35.1","","73","","","","23","","19","","24.1","","102.39","","","","-45","","Ice Crystals"
"-115.14","67.82","KUGLUKTUK A","2300902","2012-02-24 00:00","2012","02","24","00:00","-31.4","","-34.6","","73","","","","24","","19","","24.1","","102.44","","","","-45","","Ice Crystals"
"-115.14","67.82","KUGLUKTUK A","2300902","2012-02-24 01:00","2012","02","24","01:00","-31.5","","-34.7","","73","","","","23","","19","","24.1","","102.45","","","","-45","","Ice Crystals"
"-115.14","67.82","KUGLUKTUK A","2300902","2012-02-24 02:00","2012","02","24","02:00","-32.3","","-35.5","","73","","","","23","","19","","24.1","","102.48","","","","-46","","Ice Crystals"
"-115.14","67.82","KUGLUKTUK A","2300902","2012-02-24 03:00","2012","02","24","03:00","-31.6","","-34.8","","73","","","","23","","19","","24.1","","102.49","","","","-45","","Ice Crystals"
"-115.14","67.82","KUGLUKTUK A","2300902","2012-02-24 04:00","2012","02","24","04:00","-31.3","","-34.4","","74","","","","24","","19","","24.1","","102.52","","","","-44","","Ice Crystals"
"-115.14","67.82","KUGLUKTUK A","2300902","2012-02-24 05:00","2012","02","24","05:00","-30.0","","-33.1","","74","","","","24","","20","","24.1","","102.53","","","","-43","","Ice Crystals"
"-115.14","67.82","KUGLUKTUK A","2300902","2012-02-24 06:00","2012","02","24","06:00","-29.9","","-32.9","","75","","","","23","","19","","19.3","","102.56","","","","-43","","Ice Crystals"
"-115.14","67.82","KUGLUKTUK A","2300902","2012-02-24 07:00","2012","02","24","07:00","-30.3","","-33.4","","74","","","","20","","9","","19.3","","102.57","","","","-39","","Ice Crystals"
"-115.14","67.82","KUGLUKTUK A","2300902","2012-02-24 08:00","2012","02","24","08:00","-30.0","","-33.1","","74","","","","22","","19","","19.3","","102.56","","","","-43","","Ice Crystals"
"-115.14","67.82","KUGLUKTUK A","2300902","2012-02-24 09:00","2012","02","24","09:00","-30.3","","-33.4","","74","","","","22","","24","","19.3","","102.56","","","","-45","","Ice Crystals"
"-115.14","67.82","KUGLUKTUK A","2300902","2012-02-24 10:00","2012","02","24","10:00","-30.4","","-33.5","","74","","","","22","","17","","24.1","","102.59","","","","-43","","Ice Crystals"
"-115.14","67.82","KUGLUKTUK A","2300902","2012-02-24 11:00","2012","02","24","11:00","-30.0","","-33.1","","74","","","","22","","19","","24.1","","102.59","","","","-43","","Ice Crystals"
"-115.14","67.82","KUGLUKTUK A","2300902","2012-02-24 12:00","2012","02","24","12:00","-29.4","","-32.4","","75","","","","22","","19","","24.1","","102.63","","","","-42","","Ice Crystals"
"-115.14","67.82","KUGLUKTUK A","2300902","2012-02-24 13:00","2012","02","24","13:00","-29.0","","-32.0","","75","","","","24","","9","","24.1","","102.65","","","","-37","","Mostly Cloudy"
"-115.14","67.82","KUGLUKTUK A","2300902","2012-02-24 14:00","2012","02","24","14:00","-30.5","","-32.0","","87","","","","","","0","","24.1","","102.68","","","","","","Mostly Cloudy"
"-115.14","67.82","KUGLUKTUK A","2300902","2012-02-24 15:00","2012","02","24","15:00","-30.4","","-31.9","","87","","","","","","0","","24.1","","102.70","","","","","","Mostly Cloudy"
"-115.14","67.82","KUGLUKTUK A","2300902","2012-02-24 16:00","2012","02","24","16:00","-30.0","","-33.1","","74","","","","23","","20","","24.1","","102.70","","","","-43","","Mainly Clear"
"-115.14","67.82","KUGLUKTUK A","2300902","2012-02-24 17:00","2012","02","24","17:00","-30.5","","-33.6","","74","","","","23","","22","","24.1","","102.71","","","","-44","","Ice Crystals"
"-115.14","67.82","KUGLUKTUK A","2300902","2012-02-24 18:00","2012","02","24","18:00","-31.7","","-34.9","","73","","","","7","","6","","24.1","","102.72","","","","-38","","Ice Crystals"
"-115.14","67.82","KUGLUKTUK A","2300902","2012-02-24 19:00","2012","02","24","19:00","-32.6","","-35.8","","73","","","","23","","20","","24.1","","102.73","","","","-46","","Ice Crystals"
"-115.14","67.82","KUGLUKTUK A","2300902","2012-02-24 20:00","2012","02","24","20:00","-32.4","","-35.6","","73","","","","23","","28","","24.1","","102.73","","","","-48","","Ice Crystals"
"-115.14","67.82","KUGLUKTUK A","2300902","2012-02-24 21:00","2012","02","24","21:00","-32.6","","-35.8","","73","","","","23","","19","","19.3","","102.75","","","","-46","","Ice Crystals"
"-115.14","67.82","KUGLUKTUK A","2300902","2012-02-24 22:00","2012","02","24","22:00","-32.5","","-35.7","","73","","","","25","","19","","24.1","","102.77","","","","-46","","Ice Crystals"
"-115.14","67.82","KUGLUKTUK A","2300902","2012-02-24 23:00","2012","02","24","23:00","-32.7","","-35.9","","73","","","","25","","20","","24.1","","102.78","","","","-47","","Ice Crystals"
"-115.14","67.82","KUGLUKTUK A","2300902","2012-02-25 00:00","2012","02","25","00:00","-33.0","","-36.3","","72","","","","24","","19","","1.6","","102.80","","","","-47","","Ice Crystals"
"-115.14","67.82","KUGLUKTUK A","2300902","2012-02-25 01:00","2012","02","25","01:00","-33.8","","-35.0","","89","","","","23","","19","","24.1","","102.82","","","","-48","","Ice Crystals"
"-115.14","67.82","KUGLUKTUK A","2300902","2012-02-25 02:00","2012","02","25","02:00","-34.5","","-35.6","","90","","","","24","","11","","24.1","","102.82","","","","-45","","Ice Crystals"
"-115.14","67.82","KUGLUKTUK A","2300902","2012-02-25 03:00","2012","02","25","03:00","-34.5","","-37.9","","71","","","","25","","15","","24.1","","102.87","","","","-47","","Ice Crystals"
"-115.14","67.82","KUGLUKTUK A","2300902","2012-02-25 04:00","2012","02","25","04:00","-35.5","","-38.9","","71","","","","25","","13","","24.1","","102.92","","","","-47","","Ice Crystals"
"-115.14","67.82","KUGLUKTUK A","2300902","2012-02-25 05:00","2012","02","25","05:00","-35.9","","-36.8","","91","","","","25","","15","","24.1","","102.93","","","","-49","","Ice Crystals"
"-115.14","67.82","KUGLUKTUK A","2300902","2012-02-25 06:00","2012","02","25","06:00","-35.6","","-36.6","","90","","","","25","","17","","19.3","","102.95","","","","-49","","Ice Crystals"
"-115.14","67.82","KUGLUKTUK A","2300902","2012-02-25 07:00","2012","02","25","07:00","-35.7","","-36.6","","91","","","","23","","19","","24.1","","102.95","","","","-50","","Ice Crystals"
"-115.14","67.82","KUGLUKTUK A","2300902","2012-02-25 08:00","2012","02","25","08:00","-35.7","","-36.6","","91","","","","23","","17","","16.1","","102.98","","","","-49","","Ice Crystals"
"-115.14","67.82","KUGLUKTUK A","2300902","2012-02-25 09:00","2012","02","25","09:00","-35.8","","-36.7","","91","","","","23","","20","","16.1","","103.00","","","","-50","","Ice Crystals"
"-115.14","67.82","KUGLUKTUK A","2300902","2012-02-25 10:00","2012","02","25","10:00","-35.6","","-36.6","","90","","","","22","","19","","19.3","","103.03","","","","-50","","Ice Crystals"
"-115.14","67.82","KUGLUKTUK A","2300902","2012-02-25 11:00","2012","02","25","11:00","-35.0","","-38.4","","71","","","","22","","19","","19.3","","103.06","","","","-49","","Ice Crystals"
"-115.14","67.82","KUGLUKTUK A","2300902","2012-02-25 12:00","2012","02","25","12:00","-34.4","","-37.8","","71","","","","22","","20","","19.3","","103.06","","","","-49","","Ice Crystals"
"-115.14","67.82","KUGLUKTUK A","2300902","2012-02-25 13:00","2012","02","25","13:00","-33.6","","-36.9","","72","","","","23","","17","","19.3","","103.08","","","","-47","","Ice Crystals"
"-115.14","67.82","KUGLUKTUK A","2300902","2012-02-25 14:00","2012","02","25","14:00","-33.5","","-36.8","","72","","","","23","","17","","24.1","","103.11","","","","-46","","Ice Crystals"
"-115.14","67.82","KUGLUKTUK A","2300902","2012-02-25 15:00","2012","02","25","15:00","-33.6","","-36.9","","72","","","","22","","17","","24.1","","103.14","","","","-47","","Ice Crystals"
"-115.14","67.82","KUGLUKTUK A","2300902","2012-02-25 16:00","2012","02","25","16:00","-33.5","","-36.8","","72","","","","23","","20","","24.1","","103.14","","","","-48","","Ice Crystals"
"-115.14","67.82","KUGLUKTUK A","2300902","2012-02-25 17:00","2012","02","25","17:00","-34.5","","-37.9","","71","","","","23","","20","","24.1","","103.16","","","","-49","","Ice Crystals"
"-115.14","67.82","KUGLUKTUK A","2300902","2012-02-25 18:00","2012","02","25","18:00","-35.4","","-38.8","","71","","","","22","","17","","24.1","","103.15","","","","-49","","Ice Crystals"
"-115.14","67.82","KUGLUKTUK A","2300902","2012-02-25 19:00","2012","02","25","19:00","-35.3","","-38.7","","71","","","","22","","19","","24.1","","103.13","","","","-49","","Ice Crystals"
"-115.14","67.82","KUGLUKTUK A","2300902","2012-02-25 20:00","2012","02","25","20:00","-35.5","","-38.9","","71","","","","22","","19","","24.1","","103.13","","","","-50","","Ice Crystals"
"-115.14","67.82","KUGLUKTUK A","2300902","2012-02-25 21:00","2012","02","25","21:00","-35.3","","-38.7","","71","","","","22","","17","","19.3","","103.14","","","","-49","","Ice Crystals"
"-115.14","67.82","KUGLUKTUK A","2300902","2012-02-25 22:00","2012","02","25","22:00","-36.0","","-39.4","","71","","","","23","","19","","19.3","","103.08","","","","-50","","Ice Crystals"
"-115.14","67.82","KUGLUKTUK A","2300902","2012-02-25 23:00","2012","02","25","23:00","-35.0","","-41.4","","52","","","","23","","17","","19.3","","103.07","","","","-48","","Ice Crystals"
"-115.14","67.82","KUGLUKTUK A","2300902","2012-02-26 00:00","2012","02","26","00:00","-35.3","","-41.8","","51","","","","22","","15","","19.3","","103.02","","","","-48","","Ice Crystals"
"-115.14","67.82","KUGLUKTUK A","2300902","2012-02-26 01:00","2012","02","26","01:00","-34.7","","-41.0","","53","","","","","","0","","16.1","","103.02","","","","","","Ice Crystals"
"-115.14","67.82","KUGLUKTUK A","2300902","2012-02-26 02:00","2012","02","26","02:00","-33.7","","-37.0","","72","","","","27","","9","","19.3","","103.01","","","","-43","","Ice Crystals"
"-115.14","67.82","KUGLUKTUK A","2300902","2012-02-26 03:00","2012","02","26","03:00","-33.7","","-37.0","","72","","","","","","0","","16.1","","102.99","","","","","","Ice Crystals"
"-115.14","67.82","KUGLUKTUK A","2300902","2012-02-26 04:00","2012","02","26","04:00","-35.3","","-38.7","","71","","","","","","0","","16.1","","102.94","","","","","","Ice Crystals"
"-115.14","67.82","KUGLUKTUK A","2300902","2012-02-26 05:00","2012","02","26","05:00","-34.8","","-38.2","","71","","","","24","","6","","16.1","","102.86","","","","-42","","Ice Crystals"
"-115.14","67.82","KUGLUKTUK A","2300902","2012-02-26 06:00","2012","02","26","06:00","-38.3","","","M","","M","","","","","0","","16.1","","102.82","","","","","","Ice Crystals"
"-115.14","67.82","KUGLUKTUK A","2300902","2012-02-26 07:00","2012","02","26","07:00","-38.0","","","M","","M","","","","","0","","19.3","","102.74","","","","","","Ice Crystals"
"-115.14","67.82","KUGLUKTUK A","2300902","2012-02-26 08:00","2012","02","26","08:00","-37.2","","","M","","M","","","","","0","","24.1","","102.70","","","","","","Clear"
"-115.14","67.82","KUGLUKTUK A","2300902","2012-02-26 09:00","2012","02","26","09:00","-37.7","","","M","","M","","","30","","4","","24.1","","102.66","","","","-43","","Ice Crystals"
"-115.14","67.82","KUGLUKTUK A","2300902","2012-02-26 10:00","2012","02","26","10:00","-36.5","","-40.0","","70","","","","16","","6","","24.1","","102.59","","","","-44","","Ice Crystals"
"-115.14","67.82","KUGLUKTUK A","2300902","2012-02-26 11:00","2012","02","26","11:00","-35.2","","-38.6","","71","","","","","","0","","24.1","","102.52","","","","","","Ice Crystals"
"-115.14","67.82","KUGLUKTUK A","2300902","2012-02-26 12:00","2012","02","26","12:00","-35.9","","-39.3","","71","","","","","","0","","24.1","","102.47","","","","","","Ice Crystals"
"-115.14","67.82","KUGLUKTUK A","2300902","2012-02-26 13:00","2012","02","26","13:00","-34.1","","-37.4","","72","","","","","","0","","24.1","","102.40","","","","","","Ice Crystals"
"-115.14","67.82","KUGLUKTUK A","2300902","2012-02-26 14:00","2012","02","26","14:00","-35.4","","-38.8","","71","","","","","","0","","24.1","","102.34","","","","","","Ice Crystals"
"-115.14","67.82","KUGLUKTUK A","2300902","2012-02-26 15:00","2012","02","26","15:00","-35.5","","-38.9","","71","","","","","","0","","24.1","","102.28","","","","","","Ice Crystals"
"-115.14","67.82","KUGLUKTUK A","2300902","2012-02-26 16:00","2012","02","26","16:00","-35.4","","-38.8","","71","","","","","","0","","24.1","","102.21","","","","","","Ice Crystals"
"-115.14","67.82","KUGLUKTUK A","2300902","2012-02-26 17:00","2012","02","26","17:00","-35.2","","-38.6","","71","","","","","","0","","24.1","","102.15","","","","","","Ice Crystals"
"-115.14","67.82","KUGLUKTUK A","2300902","2012-02-26 18:00","2012","02","26","18:00","-36.0","","-39.4","","71","","","","","","0","","24.1","","102.05","","","","","","Ice Crystals"
"-115.14","67.82","KUGLUKTUK A","2300902","2012-02-26 19:00","2012","02","26","19:00","-35.0","","-38.4","","71","","","","","","0","","24.1","","101.95","","","","","","Ice Crystals"
"-115.14","67.82","KUGLUKTUK A","2300902","2012-02-26 20:00","2012","02","26","20:00","-36.5","","-40.0","","70","","","","2","","4","","24.1","","101.87","","","","-42","","Ice Crystals"
"-115.14","67.82","KUGLUKTUK A","2300902","2012-02-26 21:00","2012","02","26","21:00","-35.2","","-38.6","","71","","","","","","0","","19.3","","101.80","","","","","","Ice Crystals"
"-115.14","67.82","KUGLUKTUK A","2300902","2012-02-26 22:00","2012","02","26","22:00","-36.7","","-40.2","","70","","","","","","0","","19.3","","101.74","","","","","","Ice Crystals"
"-115.14","67.82","KUGLUKTUK A","2300902","2012-02-26 23:00","2012","02","26","23:00","-35.0","","-38.4","","71","","","","","","0","","19.3","","101.69","","","","","","Ice Crystals"
"-115.14","67.82","KUGLUKTUK A","2300902","2012-02-27 00:00","2012","02","27","00:00","-35.2","","-38.6","","71","","","","","","0","","19.3","","101.62","","","","","","Ice Crystals"
"-115.14","67.82","KUGLUKTUK A","2300902","2012-02-27 01:00","2012","02","27","01:00","-34.9","","-38.3","","71","","","","","","0","","19.3","","101.57","","","","","","Ice Crystals"
"-115.14","67.82","KUGLUKTUK A","2300902","2012-02-27 02:00","2012","02","27","02:00","-30.4","","-35.4","","62","","","","","","0","","19.3","","101.53","","","","","","Ice Crystals"
"-115.14","67.82","KUGLUKTUK A","2300902","2012-02-27 03:00","2012","02","27","03:00","-35.7","","-39.1","","71","","","","","","0","","19.3","","101.46","","","","","","Ice Crystals"
"-115.14","67.82","KUGLUKTUK A","2300902","2012-02-27 04:00","2012","02","27","04:00","-36.0","","-39.4","","71","","","","","","0","","19.3","","101.42","","","","","","Ice Crystals"
"-115.14","67.82","KUGLUKTUK A","2300902","2012-02-27 05:00","2012","02","27","05:00","-36.6","","-40.1","","70","","","","","","0","","19.3","","101.35","","","","","","Ice Crystals"
"-115.14","67.82","KUGLUKTUK A","2300902","2012-02-27 06:00","2012","02","27","06:00","-34.4","","-37.8","","71","","","","27","","7","","19.3","","101.33","","","","-42","","Ice Crystals"
"-115.14","67.82","KUGLUKTUK A","2300902","2012-02-27 07:00","2012","02","27","07:00","-35.1","","-38.5","","71","","","","24","","6","","19.3","","101.29","","","","-42","","Ice Crystals"
"-115.14","67.82","KUGLUKTUK A","2300902","2012-02-27 08:00","2012","02","27","08:00","-32.9","","-36.2","","72","","","","","","0","","24.1","","101.26","","","","","","Ice Crystals"
"-115.14","67.82","KUGLUKTUK A","2300902","2012-02-27 09:00","2012","02","27","09:00","-33.6","","-36.9","","72","","","","","","0","","24.1","","101.25","","","","","","Ice Crystals"
"-115.14","67.82","KUGLUKTUK A","2300902","2012-02-27 10:00","2012","02","27","10:00","-35.1","","-38.5","","71","","","","","","0","","24.1","","101.22","","","","","","Ice Crystals"
"-115.14","67.82","KUGLUKTUK A","2300902","2012-02-27 11:00","2012","02","27","11:00","-34.1","","-35.3","","89","","","","","","0","","24.1","","101.22","","","","","","Ice Crystals"
"-115.14","67.82","KUGLUKTUK A","2300902","2012-02-27 12:00","2012","02","27","12:00","-32.2","","-37.6","","59","","","","","","0","","24.1","","101.22","","","","","","Ice Crystals"
"-115.14","67.82","KUGLUKTUK A","2300902","2012-02-27 13:00","2012","02","27","13:00","-32.5","","-33.8","","88","","","","","","0","","24.1","","101.25","","","","","","Ice Crystals"
"-115.14","67.82","KUGLUKTUK A","2300902","2012-02-27 14:00","2012","02","27","14:00","-30.9","","-34.0","","74","","","","","","0","","19.3","","101.25","","","","","","Ice Crystals"
"-115.14","67.82","KUGLUKTUK A","2300902","2012-02-27 15:00","2012","02","27","15:00","-31.2","","-36.4","","60","","","","23","","6","","19.3","","101.25","","","","-38","","Ice Crystals"
"-115.14","67.82","KUGLUKTUK A","2300902","2012-02-27 16:00","2012","02","27","16:00","-31.7","","-34.9","","73","","","","23","","7","","19.3","","101.27","","","","-39","","Ice Crystals"
"-115.14","67.82","KUGLUKTUK A","2300902","2012-02-27 17:00","2012","02","27","17:00","-30.8","","-33.9","","74","","","","","","0","","19.3","","101.30","","","","","","Ice Crystals"
"-115.14","67.82","KUGLUKTUK A","2300902","2012-02-27 18:00","2012","02","27","18:00","-31.8","","-35.0","","73","","","","24","","15","","19.3","","101.31","","","","-44","","Ice Crystals"
"-115.14","67.82","KUGLUKTUK A","2300902","2012-02-27 19:00","2012","02","27","19:00","-31.3","","-34.4","","74","","","","23","","17","","19.3","","101.30","","","","-44","","Ice Crystals"
"-115.14","67.82","KUGLUKTUK A","2300902","2012-02-27 20:00","2012","02","27","20:00","-32.0","","-35.2","","73","","","","23","","19","","19.3","","101.33","","","","-45","","Ice Crystals"
"-115.14","67.82","KUGLUKTUK A","2300902","2012-02-27 21:00","2012","02","27","21:00","-32.6","","-35.8","","73","","","","","","0","","16.1","","101.39","","","","","","Ice Crystals"
"-115.14","67.82","KUGLUKTUK A","2300902","2012-02-27 22:00","2012","02","27","22:00","-32.9","","-36.2","","72","","","","","","0","","19.3","","101.43","","","","","","Ice Crystals"
"-115.14","67.82","KUGLUKTUK A","2300902","2012-02-27 23:00","2012","02","27","23:00","-34.2","","-37.5","","72","","","","21","","6","","19.3","","101.49","","","","-41","","Ice Crystals"
"-115.14","67.82","KUGLUKTUK A","2300902","2012-02-28 00:00","2012","02","28","00:00","-32.8","","-36.0","","73","","","","","","0","","19.3","","101.57","","","","","","Ice Crystals"
"-115.14","67.82","KUGLUKTUK A","2300902","2012-02-28 01:00","2012","02","28","01:00","-33.8","","-37.1","","72","","","","","","0","","19.3","","101.62","","","","","","Ice Crystals"
"-115.14","67.82","KUGLUKTUK A","2300902","2012-02-28 02:00","2012","02","28","02:00","-34.0","","-37.3","","72","","","","","","0","","19.3","","101.65","","","","","","Ice Crystals"
"-115.14","67.82","KUGLUKTUK A","2300902","2012-02-28 03:00","2012","02","28","03:00","-33.4","","-36.7","","72","","","","","","0","","16.1","","101.68","","","","","","Ice Crystals"
"-115.14","67.82","KUGLUKTUK A","2300902","2012-02-28 04:00","2012","02","28","04:00","-34.7","","-38.1","","71","","","","","","0","","16.1","","101.75","","","","","","Ice Crystals"
"-115.14","67.82","KUGLUKTUK A","2300902","2012-02-28 05:00","2012","02","28","05:00","-36.3","","-39.8","","70","","","","21","","7","","16.1","","101.80","","","","-45","","Ice Crystals"
"-115.14","67.82","KUGLUKTUK A","2300902","2012-02-28 06:00","2012","02","28","06:00","-36.7","","-40.2","","70","","","","23","","17","","16.1","","101.85","","","","-50","","Ice Crystals"
"-115.14","67.82","KUGLUKTUK A","2300902","2012-02-28 07:00","2012","02","28","07:00","-34.9","","-38.3","","71","","","","24","","11","","16.1","","101.91","","","","-46","","Ice Crystals"
"-115.14","67.82","KUGLUKTUK A","2300902","2012-02-28 08:00","2012","02","28","08:00","-35.9","","-39.3","","71","","","","23","","19","","19.3","","101.95","","","","-50","","Ice Crystals"
"-115.14","67.82","KUGLUKTUK A","2300902","2012-02-28 09:00","2012","02","28","09:00","-34.5","","-37.9","","71","","","","23","","24","","19.3","","102.00","","","","-50","","Ice Crystals"
"-115.14","67.82","KUGLUKTUK A","2300902","2012-02-28 10:00","2012","02","28","10:00","-33.8","","-37.1","","72","","","","22","","22","","19.3","","102.05","","","","-49","","Snow"
"-115.14","67.82","KUGLUKTUK A","2300902","2012-02-28 11:00","2012","02","28","11:00","-33.4","","-36.7","","72","","","","23","","22","","16.1","","102.09","","","","-48","","Snow"
"-115.14","67.82","KUGLUKTUK A","2300902","2012-02-28 12:00","2012","02","28","12:00","-32.5","","-35.7","","73","","","","23","","19","","16.1","","102.13","","","","-46","","Snow"
"-115.14","67.82","KUGLUKTUK A","2300902","2012-02-28 13:00","2012","02","28","13:00","-31.6","","-34.8","","73","","","","23","","17","","19.3","","102.14","","","","-44","","Ice Crystals"
"-115.14","67.82","KUGLUKTUK A","2300902","2012-02-28 14:00","2012","02","28","14:00","-31.1","","-34.2","","74","","","","23","","19","","19.3","","102.17","","","","-44","","Ice Crystals"
"-115.14","67.82","KUGLUKTUK A","2300902","2012-02-28 15:00","2012","02","28","15:00","-30.5","","-33.6","","74","","","","23","","19","","19.3","","102.21","","","","-43","","Ice Crystals"
"-115.14","67.82","KUGLUKTUK A","2300902","2012-02-28 16:00","2012","02","28","16:00","-30.7","","-33.8","","74","","","","24","","20","","24.1","","102.21","","","","-44","","Ice Crystals"
"-115.14","67.82","KUGLUKTUK A","2300902","2012-02-28 17:00","2012","02","28","17:00","-32.5","","-35.7","","73","","","","24","","20","","19.3","","102.21","","","","-46","","Ice Crystals"
"-115.14","67.82","KUGLUKTUK A","2300902","2012-02-28 18:00","2012","02","28","18:00","-33.7","","-37.0","","72","","","","25","","17","","19.3","","102.25","","","","-47","","Ice Crystals"
"-115.14","67.82","KUGLUKTUK A","2300902","2012-02-28 19:00","2012","02","28","19:00","-34.5","","-37.9","","71","","","","22","","17","","19.3","","102.27","","","","-48","","Ice Crystals"
"-115.14","67.82","KUGLUKTUK A","2300902","2012-02-28 20:00","2012","02","28","20:00","-33.2","","-36.5","","72","","","","24","","20","","19.3","","102.27","","","","-47","","Ice Crystals"
"-115.14","67.82","KUGLUKTUK A","2300902","2012-02-28 21:00","2012","02","28","21:00","-32.6","","-35.8","","73","","","","24","","22","","16.1","","102.29","","","","-47","","Ice Crystals"
"-115.14","67.82","KUGLUKTUK A","2300902","2012-02-28 22:00","2012","02","28","22:00","-32.8","","-36.0","","73","","","","23","","20","","16.1","","102.28","","","","-47","","Ice Crystals"
"-115.14","67.82","KUGLUKTUK A","2300902","2012-02-28 23:00","2012","02","28","23:00","-34.3","","-40.4","","54","","","","23","","20","","16.1","","102.26","","","","-49","","Ice Crystals"
"-115.14","67.82","KUGLUKTUK A","2300902","2012-02-29 00:00","2012","02","29","00:00","-34.0","","-37.3","","72","","","","24","","24","","16.1","","102.26","","","","-49","","Ice Crystals"
"-115.14","67.82","KUGLUKTUK A","2300902","2012-02-29 01:00","2012","02","29","01:00","-34.0","","-37.3","","72","","","","24","","24","","16.1","","102.25","","","","-49","","Ice Crystals"
"-115.14","67.82","KUGLUKTUK A","2300902","2012-02-29 02:00","2012","02","29","02:00","-35.4","","-38.8","","71","","","","23","","20","","12.9","","102.25","","","","-50","","Ice Crystals"
"-115.14","67.82","KUGLUKTUK A","2300902","2012-02-29 03:00","2012","02","29","03:00","-35.2","","-38.6","","71","","","","23","","20","","12.9","","102.27","","","","-50","","Ice Crystals"
"-115.14","67.82","KUGLUKTUK A","2300902","2012-02-29 04:00","2012","02","29","04:00","-35.1","","-38.5","","71","","","","22","","20","","12.9","","102.28","","","","-50","","Ice Crystals"
"-115.14","67.82","KUGLUKTUK A","2300902","2012-02-29 05:00","2012","02","29","05:00","-35.8","","-39.2","","71","","","","22","","19","","12.9","","102.28","","","","-50","","Ice Crystals"
"-115.14","67.82","KUGLUKTUK A","2300902","2012-02-29 06:00","2012","02","29","06:00","-35.4","","-38.8","","71","","","","23","","17","","16.1","","102.28","","","","-49","","Ice Crystals"
"-115.14","67.82","KUGLUKTUK A","2300902","2012-02-29 07:00","2012","02","29","07:00","-35.2","","-38.6","","71","","","","24","","17","","16.1","","102.26","","","","-49","","Ice Crystals"
"-115.14","67.82","KUGLUKTUK A","2300902","2012-02-29 08:00","2012","02","29","08:00","-35.6","","-39.0","","71","","","","23","","17","","16.1","","102.24","","","","-49","","Ice Crystals"
"-115.14","67.82","KUGLUKTUK A","2300902","2012-02-29 09:00","2012","02","29","09:00","-37.6","","","M","","M","","","","","0","","24.1","","102.27","","","","","","Ice Crystals"
"-115.14","67.82","KUGLUKTUK A","2300902","2012-02-29 10:00","2012","02","29","10:00","-34.5","","-37.9","","71","","","","24","","19","","24.1","","102.25","","","","-48","","Ice Crystals"
"-115.14","67.82","KUGLUKTUK A","2300902","2012-02-29 11:00","2012","02","29","11:00","-35.1","","-36.1","","91","","","","19","","11","","16.1","","102.26","","","","-46","","Ice Crystals"
"-115.14","67.82","KUGLUKTUK A","2300902","2012-02-29 12:00","2012","02","29","12:00","-34.3","","-35.4","","90","","","","23","","20","","16.1","","102.27","","","","-49","","Ice Crystals"
"-115.14","67.82","KUGLUKTUK A","2300902","2012-02-29 13:00","2012","02","29","13:00","-33.6","","-34.8","","89","","","","24","","19","","16.1","","102.26","","","","-47","","Ice Crystals"
"-115.14","67.82","KUGLUKTUK A","2300902","2012-02-29 14:00","2012","02","29","14:00","-32.6","","-35.8","","73","","","","24","","19","","16.1","","102.30","","","","-46","","Ice Crystals"
"-115.14","67.82","KUGLUKTUK A","2300902","2012-02-29 15:00","2012","02","29","15:00","-33.5","","-36.8","","72","","","","24","","19","","19.3","","102.31","","","","-47","","Ice Crystals"
"-115.14","67.82","KUGLUKTUK A","2300902","2012-02-29 16:00","2012","02","29","16:00","-33.5","","-36.8","","72","","","","24","","20","","24.1","","102.32","","","","-48","","Ice Crystals"
"-115.14","67.82","KUGLUKTUK A","2300902","2012-02-29 17:00","2012","02","29","17:00","-33.8","","-37.1","","72","","","","25","","30","","24.1","","102.31","","","","-51","","Ice Crystals"
"-115.14","67.82","KUGLUKTUK A","2300902","2012-02-29 18:00","2012","02","29","18:00","-35.2","","-38.6","","71","","","","23","","20","","24.1","","102.34","","","","-50","","Ice Crystals"
"-115.14","67.82","KUGLUKTUK A","2300902","2012-02-29 19:00","2012","02","29","19:00","-33.6","","-36.9","","72","","","","24","","28","","24.1","","102.32","","","","-50","","Ice Crystals"
"-115.14","67.82","KUGLUKTUK A","2300902","2012-02-29 20:00","2012","02","29","20:00","-33.6","","-36.9","","72","","","","25","","19","","24.1","","102.37","","","","-47","","Ice Crystals"
"-115.14","67.82","KUGLUKTUK A","2300902","2012-02-29 21:00","2012","02","29","21:00","-31.5","","","M","","M","","","26","","19","","8.0","","102.36","","","","-45","","Ice Crystals"
"-115.14","67.82","KUGLUKTUK A","2300902","2012-02-29 22:00","2012","02","29","22:00","-31.7","","","M","","M","","","23","","19","","2.8","","102.37","","","","-45","","Ice Crystals"
"-115.14","67.82","KUGLUKTUK A","2300902","2012-02-29 23:00","2012","02","29","23:00","-34.5","","","M","","M","","","23","","20","","19.3","","102.39","","","","-49","","Ice Crystals"
