"Longitude (x)","Latitude (y)","Station Name","Climate ID","Date/Time (LST)","Year","Month","Day","Time (LST)","Temp (°C)","Temp Flag","Dew Point Temp (°C)","Dew Point Temp Flag","Rel Hum (%)","Rel Hum Flag","Precip. Amount (mm)","Precip. Amount Flag","Wind Dir (10s deg)","Wind Dir Flag","Wind Spd (km/h)","Wind Spd Flag","Visibility (km)","Visibility Flag","Stn Press (kPa)","Stn Press Flag","Hmdx","Hmdx Flag","Wind Chill","Wind Chill Flag","Weather"
"-91.82","81.16","SVARTEVAEG","2403833","2018-04-01 00:00","2018","04","01","00:00","-33.5","","-36.9","","71","","","M","21","","26","","","","102.03","","","","-49","","NA"
"-91.82","81.16","SVARTEVAEG","2403833","2018-04-01 01:00","2018","04","01","01:00","-33.2","","-36.6","","71","","","M","20","","27","","","","102.06","","","","-49","","NA"
"-91.82","81.16","SVARTEVAEG","2403833","2018-04-01 02:00","2018","04","01","02:00","-33.6","","-37.1","","71","","","M","21","","25","","","","102.10","","","","-49","","NA"
"-91.82","81.16","SVARTEVAEG","2403833","2018-04-01 03:00","2018","04","01","03:00","-33.9","","-37.5","","70","","","M","20","","26","","","","102.12","","","","-50","","NA"
"-91.82","81.16","SVARTEVAEG","2403833","2018-04-01 04:00","2018","04","01","04:00","-33.3","","-36.7","","71","","","M","20","","29","","","","102.13","","","","-50","","NA"
"-91.82","81.16","SVARTEVAEG","2403833","2018-04-01 05:00","2018","04","01","05:00","-33.7","","-37.2","","71","","","M","20","","29","","","","102.14","","","","-50","","NA"
"-91.82","81.16","SVARTEVAEG","2403833","2018-04-01 06:00","2018","04","01","06:00","-32.7","","-36.0","","72","","","M","21","","27","","","","102.15","","","","-48","","NA"
"-91.82","81.16","SVARTEVAEG","2403833","2018-04-01 07:00","2018","04","01","07:00","-32.1","","-35.3","","73","","","M","21","","27","","","","102.12","","","","-48","","NA"
"-91.82","81.16","SVARTEVAEG","2403833","2018-04-01 08:00","2018","04","01","08:00","-32.0","","-35.3","","73","","","M","20","","33","","","","102.10","","","","-49","","NA"
"-91.82","81.16","SVARTEVAEG","2403833","2018-04-01 09:00","2018","04","01","09:00","-32.3","","-35.6","","72","","","M","21","","27","","","","102.09","","","","-48","","NA"
"-91.82","81.16","SVARTEVAEG","2403833","2018-04-01 10:00","2018","04","01","10:00","-32.4","","-35.7","","72","","","M","20","","30","","","","102.07","","","","-49","","NA"
"-91.82","81.16","SVARTEVAEG","2403833","2018-04-01 11:00","2018","04","01","11:00","-32.2","","-35.4","","73","","","M","20","","31","","","","102.06","","","","-49","","NA"
"-91.82","81.16","SVARTEVAEG","2403833","2018-04-01 12:00","2018","04","01","12:00","-31.4","","-34.5","","74","","","M","20","","33","","","","102.04","","","","-48","","NA"
"-91.82","81.16","SVARTEVAEG","2403833","2018-04-01 13:00","2018","04","01","13:00","-31.4","","-34.6","","73","","","M","20","","29","","","","102.04","","","","-47","","NA"
"-91.82","81.16","SVARTEVAEG","2403833","2018-04-01 14:00","2018","04","01","14:00","-31.2","","-34.4","","74","","","M","20","","29","","","","102.05","","","","-47","","NA"
"-91.82","81.16","SVARTEVAEG","2403833","2018-04-01 15:00","2018","04","01","15:00","-32.2","","-35.5","","73","","","M","21","","26","","","","102.05","","","","-48","","NA"
"-91.82","81.16","SVARTEVAEG","2403833","2018-04-01 16:00","2018","04","01","16:00","-32.0","","-35.3","","73","","","M","20","","28","","","","102.04","","","","-48","","NA"
"-91.82","81.16","SVARTEVAEG","2403833","2018-04-01 17:00","2018","04","01","17:00","-32.2","","-35.5","","72","","","M","21","","24","","","","102.03","","","","-47","","NA"
"-91.82","81.16","SVARTEVAEG","2403833","2018-04-01 18:00","2018","04","01","18:00","-32.5","","-35.8","","72","","","M","20","","31","","","","102.02","","","","-49","","NA"
"-91.82","81.16","SVARTEVAEG","2403833","2018-04-01 19:00","2018","04","01","19:00","-32.6","","-36.0","","72","","","M","21","","28","","","","102.03","","","","-49","","NA"
"-91.82","81.16","SVARTEVAEG","2403833","2018-04-01 20:00","2018","04","01","20:00","-32.6","","-35.9","","72","","","M","20","","30","","","","102.04","","","","-49","","NA"
"-91.82","81.16","SVARTEVAEG","2403833","2018-04-01 21:00","2018","04","01","21:00","-32.7","","-36.1","","72","","","M","20","","34","","","","102.03","","","","-50","","NA"
"-91.82","81.16","SVARTEVAEG","2403833","2018-04-01 22:00","2018","04","01","22:00","-32.3","","-35.6","","72","","","M","20","","39","","","","102.04","","","","-50","","NA"
"-91.82","81.16","SVARTEVAEG","2403833","2018-04-01 23:00","2018","04","01","23:00","-31.8","","-35.2","","72","","","M","20","","37","","","","102.06","","","","-49","","NA"
"-91.82","81.16","SVARTEVAEG","2403833","2018-04-02 00:00","2018","04","02","00:00","-32.8","","-36.2","","71","","","M","20","","37","","","","102.07","","","","-51","","NA"
"-91.82","81.16","SVARTEVAEG","2403833","2018-04-02 01:00","2018","04","02","01:00","-31.2","","-34.4","","73","","","M","20","","40","","","","102.09","","","","-49","","NA"
"-91.82","81.16","SVARTEVAEG","2403833","2018-04-02 02:00","2018","04","02","02:00","-31.3","","-34.6","","73","","","M","20","","38","","","","102.11","","","","-49","","NA"
"-91.82","81.16","SVARTEVAEG","2403833","2018-04-02 03:00","2018","04","02","03:00","-31.3","","-34.5","","73","","","M","20","","34","","","","102.12","","","","-48","","NA"
"-91.82","81.16","SVARTEVAEG","2403833","2018-04-02 04:00","2018","04","02","04:00","-29.3","","-32.3","","75","","","M","21","","38","","","","102.12","","","","-46","","NA"
"-91.82","81.16","SVARTEVAEG","2403833","2018-04-02 05:00","2018","04","02","05:00","-28.6","","-31.5","","76","","","M","21","","36","","","","102.14","","","","-45","","NA"
"-91.82","81.16","SVARTEVAEG","2403833","2018-04-02 06:00","2018","04","02","06:00","-29.1","","-32.0","","75","","","M","21","","38","","","","102.13","","","","-46","","NA"
"-91.82","81.16","SVARTEVAEG","2403833","2018-04-02 07:00","2018","04","02","07:00","-27.8","","-30.6","","77","","","M","21","","38","","","","102.13","","","","-44","","NA"
"-91.82","81.16","SVARTEVAEG","2403833","2018-04-02 08:00","2018","04","02","08:00","-29.1","","-32.1","","76","","","M","21","","37","","","","102.17","","","","-46","","NA"
"-91.82","81.16","SVARTEVAEG","2403833","2018-04-02 09:00","2018","04","02","09:00","-28.3","","-31.1","","77","","","M","21","","35","","","","102.19","","","","-44","","NA"
"-91.82","81.16","SVARTEVAEG","2403833","2018-04-02 10:00","2018","04","02","10:00","-27.7","","-30.4","","77","","","M","21","","35","","","","102.21","","","","-44","","NA"
"-91.82","81.16","SVARTEVAEG","2403833","2018-04-02 11:00","2018","04","02","11:00","-27.1","","-29.7","","78","","","M","20","","37","","","","102.24","","","","-43","","NA"
"-91.82","81.16","SVARTEVAEG","2403833","2018-04-02 12:00","2018","04","02","12:00","-26.4","","-29.0","","79","","","M","21","","35","","","","102.26","","","","-42","","NA"
"-91.82","81.16","SVARTEVAEG","2403833","2018-04-02 13:00","2018","04","02","13:00","-27.2","","-29.9","","78","","","M","21","","33","","","","102.28","","","","-43","","NA"
"-91.82","81.16","SVARTEVAEG","2403833","2018-04-02 14:00","2018","04","02","14:00","-27.1","","-29.7","","78","","","M","20","","33","","","","102.31","","","","-42","","NA"
"-91.82","81.16","SVARTEVAEG","2403833","2018-04-02 15:00","2018","04","02","15:00","-26.6","","-29.2","","78","","","M","21","","32","","","","102.32","","","","-42","","NA"
"-91.82","81.16","SVARTEVAEG","2403833","2018-04-02 16:00","2018","04","02","16:00","-26.5","","-29.1","","78","","","M","21","","32","","","","102.35","","","","-41","","NA"
"-91.82","81.16","SVARTEVAEG","2403833","2018-04-02 17:00","2018","04","02","17:00","-25.9","","-28.5","","79","","","M","21","","30","","","","102.38","","","","-40","","NA"
"-91.82","81.16","SVARTEVAEG","2403833","2018-04-02 18:00","2018","04","02","18:00","-25.5","","-28.0","","79","","","M","21","","28","","","","102.41","","","","-39","","NA"
"-91.82","81.16","SVARTEVAEG","2403833","2018-04-02 19:00","2018","04","02","19:00","-26.0","","-28.6","","79","","","M","21","","23","","","","102.45","","","","-39","","NA"
"-91.82","81.16","SVARTEVAEG","2403833","2018-04-02 20:00","2018","04","02","20:00","-25.8","","-28.3","","79","","","M","21","","28","","","","102.42","","","","-40","","NA"
"-91.82","81.16","SVARTEVAEG","2403833","2018-04-02 21:00","2018","04","02","21:00","-25.1","","-27.6","","80","","","M","21","","21","","","","102.43","","","","-37","","NA"
"-91.82","81.16","SVARTEVAEG","2403833","2018-04-02 22:00","2018","04","02","22:00","-21.5","","-23.5","","84","","","M","29","","13","","","","102.49","","","","-30","","NA"
"-91.82","81.16","SVARTEVAEG","2403833","2018-04-02 23:00","2018","04","02","23:00","-22.5","","-24.7","","82","","","M","5","","6","","","","102.47","","","","-28","","NA"
"-91.82","81.16","SVARTEVAEG","2403833","2018-04-03 00:00","2018","04","03","00:00","-23.3","","-25.6","","81","","","M","3","","12","","","","102.50","","","","-32","","NA"
"-91.82","81.16","SVARTEVAEG","2403833","2018-04-03 01:00","2018","04","03","01:00","-23.7","","-26.1","","81","","","M","2","","11","","","","102.53","","","","-32","","NA"
"-91.82","81.16","SVARTEVAEG","2403833","2018-04-03 02:00","2018","04","03","02:00","-24.2","","-26.5","","81","","","M","4","","11","","","","102.54","","","","-33","","NA"
"-91.82","81.16","SVARTEVAEG","2403833","2018-04-03 03:00","2018","04","03","03:00","-24.0","","-26.4","","81","","","M","36","","8","","","","102.57","","","","-31","","NA"
"-91.82","81.16","SVARTEVAEG","2403833","2018-04-03 04:00","2018","04","03","04:00","-23.4","","-25.7","","82","","","M","3","","8","","","","102.58","","","","-30","","NA"
"-91.82","81.16","SVARTEVAEG","2403833","2018-04-03 05:00","2018","04","03","05:00","-23.6","","-25.9","","81","","","M","2","","7","","","","102.59","","","","-30","","NA"
"-91.82","81.16","SVARTEVAEG","2403833","2018-04-03 06:00","2018","04","03","06:00","-23.0","","-25.3","","82","","","M","3","","16","","","","102.59","","","","-33","","NA"
"-91.82","81.16","SVARTEVAEG","2403833","2018-04-03 07:00","2018","04","03","07:00","-24.4","","-26.9","","80","","","M","2","","21","","","","102.59","","","","-36","","NA"
"-91.82","81.16","SVARTEVAEG","2403833","2018-04-03 08:00","2018","04","03","08:00","-27.4","","-30.2","","77","","","M","3","","8","","","","102.60","","","","-35","","NA"
"-91.82","81.16","SVARTEVAEG","2403833","2018-04-03 09:00","2018","04","03","09:00","-27.2","","-29.8","","78","","","M","2","","19","","","","102.58","","","","-39","","NA"
"-91.82","81.16","SVARTEVAEG","2403833","2018-04-03 10:00","2018","04","03","10:00","-26.7","","-29.3","","79","","","M","2","","19","","","","102.59","","","","-39","","NA"
"-91.82","81.16","SVARTEVAEG","2403833","2018-04-03 11:00","2018","04","03","11:00","-24.5","","-26.8","","81","","","M","2","","22","","","","102.59","","","","-37","","NA"
"-91.82","81.16","SVARTEVAEG","2403833","2018-04-03 12:00","2018","04","03","12:00","-23.0","","-25.2","","83","","","M","3","","13","","","","102.60","","","","-32","","NA"
"-91.82","81.16","SVARTEVAEG","2403833","2018-04-03 13:00","2018","04","03","13:00","-25.5","","-28.0","","80","","","M","2","","22","","","","102.62","","","","-38","","NA"
"-91.82","81.16","SVARTEVAEG","2403833","2018-04-03 14:00","2018","04","03","14:00","-26.8","","-29.4","","78","","","M","35","","15","","","","102.62","","","","-37","","NA"
"-91.82","81.16","SVARTEVAEG","2403833","2018-04-03 15:00","2018","04","03","15:00","-26.9","","-29.6","","78","","","M","36","","15","","","","102.63","","","","-38","","NA"
"-91.82","81.16","SVARTEVAEG","2403833","2018-04-03 16:00","2018","04","03","16:00","-26.2","","-28.8","","79","","","M","1","","22","","","","102.63","","","","-39","","NA"
"-91.82","81.16","SVARTEVAEG","2403833","2018-04-03 17:00","2018","04","03","17:00","-26.5","","-29.1","","79","","","M","36","","13","","","","102.66","","","","-36","","NA"
"-91.82","81.16","SVARTEVAEG","2403833","2018-04-03 18:00","2018","04","03","18:00","-27.6","","-30.3","","78","","","M","1","","15","","","","102.65","","","","-38","","NA"
"-91.82","81.16","SVARTEVAEG","2403833","2018-04-03 19:00","2018","04","03","19:00","-28.5","","-31.4","","76","","","M","1","","15","","","","102.65","","","","-40","","NA"
"-91.82","81.16","SVARTEVAEG","2403833","2018-04-03 20:00","2018","04","03","20:00","-31.2","","-34.4","","74","","","M","1","","14","","","","102.64","","","","-42","","NA"
"-91.82","81.16","SVARTEVAEG","2403833","2018-04-03 21:00","2018","04","03","21:00","-30.4","","-33.5","","74","","","M","1","","26","","","","102.65","","","","-45","","NA"
"-91.82","81.16","SVARTEVAEG","2403833","2018-04-03 22:00","2018","04","03","22:00","-32.4","","-35.8","","72","","","M","2","","29","","","","102.65","","","","-49","","NA"
"-91.82","81.16","SVARTEVAEG","2403833","2018-04-03 23:00","2018","04","03","23:00","-33.1","","-36.5","","71","","","M","2","","29","","","","102.65","","","","-49","","NA"
"-91.82","81.16","SVARTEVAEG","2403833","2018-04-04 00:00","2018","04","04","00:00","-33.7","","-37.2","","71","","","M","2","","26","","","","102.65","","","","-49","","NA"
"-91.82","81.16","SVARTEVAEG","2403833","2018-04-04 01:00","2018","04","04","01:00","-32.3","","-35.6","","72","","","M","1","","23","","","","102.65","","","","-47","","NA"
"-91.82","81.16","SVARTEVAEG","2403833","2018-04-04 02:00","2018","04","04","02:00","-31.2","","-34.4","","73","","","M","36","","23","","","","102.66","","","","-45","","NA"
"-91.82","81.16","SVARTEVAEG","2403833","2018-04-04 03:00","2018","04","04","03:00","-31.3","","-34.5","","73","","","M","1","","29","","","","102.65","","","","-47","","NA"
"-91.82","81.16","SVARTEVAEG","2403833","2018-04-04 04:00","2018","04","04","04:00","-31.4","","-34.6","","73","","","M","2","","32","","","","102.65","","","","-48","","NA"
"-91.82","81.16","SVARTEVAEG","2403833","2018-04-04 05:00","2018","04","04","05:00","-30.4","","-33.4","","74","","","M","3","","21","","","","102.66","","","","-44","","NA"
"-91.82","81.16","SVARTEVAEG","2403833","2018-04-04 06:00","2018","04","04","06:00","-31.5","","-34.8","","73","","","M","2","","21","","","","102.70","","","","-45","","NA"
"-91.82","81.16","SVARTEVAEG","2403833","2018-04-04 07:00","2018","04","04","07:00","-31.5","","-34.6","","73","","","M","1","","30","","","","102.68","","","","-48","","NA"
"-91.82","81.16","SVARTEVAEG","2403833","2018-04-04 08:00","2018","04","04","08:00","-32.7","","-36.1","","72","","","M","35","","20","","","","102.70","","","","-47","","NA"
"-91.82","81.16","SVARTEVAEG","2403833","2018-04-04 09:00","2018","04","04","09:00","-32.6","","-35.9","","72","","","M","1","","22","","","","102.70","","","","-47","","NA"
"-91.82","81.16","SVARTEVAEG","2403833","2018-04-04 10:00","2018","04","04","10:00","-32.8","","-36.2","","72","","","M","3","","26","","","","102.67","","","","-48","","NA"
"-91.82","81.16","SVARTEVAEG","2403833","2018-04-04 11:00","2018","04","04","11:00","-33.8","","-37.3","","71","","","M","3","","30","","","","102.69","","","","-51","","NA"
"-91.82","81.16","SVARTEVAEG","2403833","2018-04-04 12:00","2018","04","04","12:00","-33.6","","-37.1","","71","","","M","3","","28","","","","102.70","","","","-50","","NA"
"-91.82","81.16","SVARTEVAEG","2403833","2018-04-04 13:00","2018","04","04","13:00","-32.0","","-35.2","","73","","","M","3","","24","","","","102.72","","","","-47","","NA"
"-91.82","81.16","SVARTEVAEG","2403833","2018-04-04 14:00","2018","04","04","14:00","-31.5","","-34.7","","73","","","M","2","","23","","","","102.70","","","","-46","","NA"
"-91.82","81.16","SVARTEVAEG","2403833","2018-04-04 15:00","2018","04","04","15:00","-31.5","","-34.7","","73","","","M","3","","28","","","","102.68","","","","-47","","NA"
"-91.82","81.16","SVARTEVAEG","2403833","2018-04-04 16:00","2018","04","04","16:00","-31.0","","-34.1","","74","","","M","1","","31","","","","102.68","","","","-47","","NA"
"-91.82","81.16","SVARTEVAEG","2403833","2018-04-04 17:00","2018","04","04","17:00","-31.3","","-34.5","","73","","","M","3","","41","","","","102.69","","","","-49","","NA"
"-91.82","81.16","SVARTEVAEG","2403833","2018-04-04 18:00","2018","04","04","18:00","-30.3","","-33.4","","75","","","M","35","","22","","","","102.70","","","","-44","","NA"
"-91.82","81.16","SVARTEVAEG","2403833","2018-04-04 19:00","2018","04","04","19:00","-30.5","","-33.6","","74","","","M","35","","20","","","","102.70","","","","-44","","NA"
"-91.82","81.16","SVARTEVAEG","2403833","2018-04-04 20:00","2018","04","04","20:00","-31.4","","-34.6","","73","","","M","34","","29","","","","102.68","","","","-47","","NA"
"-91.82","81.16","SVARTEVAEG","2403833","2018-04-04 21:00","2018","04","04","21:00","-31.7","","-35.0","","73","","","M","36","","25","","","","102.67","","","","-47","","NA"
"-91.82","81.16","SVARTEVAEG","2403833","2018-04-04 22:00","2018","04","04","22:00","-31.2","","-34.4","","73","","","M","1","","27","","","","102.62","","","","-46","","NA"
"-91.82","81.16","SVARTEVAEG","2403833","2018-04-04 23:00","2018","04","04","23:00","-30.1","","-33.2","","74","","","M","1","","20","","","","102.62","","","","-43","","NA"
"-91.82","81.16","SVARTEVAEG","2403833","2018-04-05 00:00","2018","04","05","00:00","-30.4","","-33.5","","74","","","M","1","","26","","","","102.59","","","","-45","","NA"
"-91.82","81.16","SVARTEVAEG","2403833","2018-04-05 01:00","2018","04","05","01:00","-28.9","","-31.8","","76","","","M","36","","18","","","","102.60","","","","-41","","NA"
"-91.82","81.16","SVARTEVAEG","2403833","2018-04-05 02:00","2018","04","05","02:00","-29.7","","-32.7","","75","","","M","1","","27","","","","102.58","","","","-45","","NA"
"-91.82","81.16","SVARTEVAEG","2403833","2018-04-05 03:00","2018","04","05","03:00","-29.4","","-32.4","","75","","","M","33","","26","","","","102.57","","","","-44","","NA"
"-91.82","81.16","SVARTEVAEG","2403833","2018-04-05 04:00","2018","04","05","04:00","-29.3","","-32.3","","75","","","M","35","","25","","","","102.55","","","","-44","","NA"
"-91.82","81.16","SVARTEVAEG","2403833","2018-04-05 05:00","2018","04","05","05:00","-28.0","","-30.9","","77","","","M","34","","17","","","","102.51","","","","-40","","NA"
"-91.82","81.16","SVARTEVAEG","2403833","2018-04-05 06:00","2018","04","05","06:00","-29.4","","-32.4","","75","","","M","33","","10","","","","102.50","","","","-38","","NA"
"-91.82","81.16","SVARTEVAEG","2403833","2018-04-05 07:00","2018","04","05","07:00","-30.3","","-33.4","","74","","","M","3","","8","","","","102.45","","","","-38","","NA"
"-91.82","81.16","SVARTEVAEG","2403833","2018-04-05 08:00","2018","04","05","08:00","-31.7","","-34.9","","73","","","M","1","","8","","","","102.36","","","","-40","","NA"
"-91.82","81.16","SVARTEVAEG","2403833","2018-04-05 09:00","2018","04","05","09:00","-31.5","","-34.7","","73","","","M","4","","4","","","","102.27","","","","-36","","NA"
"-91.82","81.16","SVARTEVAEG","2403833","2018-04-05 10:00","2018","04","05","10:00","-31.0","","-34.1","","74","","","M","2","","11","","","","102.20","","","","-41","","NA"
"-91.82","81.16","SVARTEVAEG","2403833","2018-04-05 11:00","2018","04","05","11:00","-29.9","","-32.9","","75","","","M","34","","3","","","","102.09","","","","-33","","NA"
"-91.82","81.16","SVARTEVAEG","2403833","2018-04-05 12:00","2018","04","05","12:00","-30.0","","-33.1","","75","","","M","8","","4","","","","102.01","","","","-35","","NA"
"-91.82","81.16","SVARTEVAEG","2403833","2018-04-05 13:00","2018","04","05","13:00","-29.7","","-32.7","","75","","","M","13","","3","","","","101.91","","","","-33","","NA"
"-91.82","81.16","SVARTEVAEG","2403833","2018-04-05 14:00","2018","04","05","14:00","-28.3","","-31.1","","77","","","M","17","","9","","","","101.86","","","","-37","","NA"
"-91.82","81.16","SVARTEVAEG","2403833","2018-04-05 15:00","2018","04","05","15:00","-27.8","","-30.6","","77","","","M","20","","19","","","","101.74","","","","-40","","NA"
"-91.82","81.16","SVARTEVAEG","2403833","2018-04-05 16:00","2018","04","05","16:00","-26.4","","-29.0","","79","","","M","20","","27","","","","101.62","","","","-40","","NA"
"-91.82","81.16","SVARTEVAEG","2403833","2018-04-05 17:00","2018","04","05","17:00","-26.1","","-28.7","","79","","","M","20","","24","","","","101.56","","","","-39","","NA"
"-91.82","81.16","SVARTEVAEG","2403833","2018-04-05 18:00","2018","04","05","18:00","-26.6","","-29.3","","78","","","M","21","","26","","","","101.53","","","","-40","","NA"
"-91.82","81.16","SVARTEVAEG","2403833","2018-04-05 19:00","2018","04","05","19:00","-26.6","","-29.2","","78","","","M","20","","30","","","","101.49","","","","-41","","NA"
"-91.82","81.16","SVARTEVAEG","2403833","2018-04-05 20:00","2018","04","05","20:00","-25.6","","-28.2","","79","","","M","19","","31","","","","101.45","","","","-40","","NA"
"-91.82","81.16","SVARTEVAEG","2403833","2018-04-05 21:00","2018","04","05","21:00","-26.5","","-29.2","","78","","","M","20","","29","","","","101.38","","","","-41","","NA"
"-91.82","81.16","SVARTEVAEG","2403833","2018-04-05 22:00","2018","04","05","22:00","-26.6","","-29.3","","78","","","M","20","","30","","","","101.32","","","","-41","","NA"
"-91.82","81.16","SVARTEVAEG","2403833","2018-04-05 23:00","2018","04","05","23:00","-26.5","","-29.1","","78","","","M","20","","29","","","","101.30","","","","-41","","NA"
"-91.82","81.16","SVARTEVAEG","2403833","2018-04-06 00:00","2018","04","06","00:00","-26.5","","-29.1","","78","","","M","20","","31","","","","101.26","","","","-41","","NA"
"-91.82","81.16","SVARTEVAEG","2403833","2018-04-06 01:00","2018","04","06","01:00","-26.5","","-29.2","","78","","","M","20","","34","","","","101.23","","","","-42","","NA"
"-91.82","81.16","SVARTEVAEG","2403833","2018-04-06 02:00","2018","04","06","02:00","-26.4","","-29.0","","79","","","M","20","","32","","","","101.22","","","","-41","","NA"
"-91.82","81.16","SVARTEVAEG","2403833","2018-04-06 03:00","2018","04","06","03:00","-26.5","","-29.1","","78","","","M","20","","32","","","","101.16","","","","-41","","NA"
"-91.82","81.16","SVARTEVAEG","2403833","2018-04-06 04:00","2018","04","06","04:00","-26.8","","-29.5","","78","","","M","20","","33","","","","101.14","","","","-42","","NA"
"-91.82","81.16","SVARTEVAEG","2403833","2018-04-06 05:00","2018","04","06","05:00","-27.0","","-29.7","","78","","","M","20","","31","","","","101.12","","","","-42","","NA"
"-91.82","81.16","SVARTEVAEG","2403833","2018-04-06 06:00","2018","04","06","06:00","-27.0","","-29.6","","78","","","M","20","","29","","","","101.10","","","","-41","","NA"
"-91.82","81.16","SVARTEVAEG","2403833","2018-04-06 07:00","2018","04","06","07:00","-26.7","","-29.4","","78","","","M","19","","27","","","","101.08","","","","-41","","NA"
"-91.82","81.16","SVARTEVAEG","2403833","2018-04-06 08:00","2018","04","06","08:00","-26.7","","-29.4","","78","","","M","21","","24","","","","101.03","","","","-40","","NA"
"-91.82","81.16","SVARTEVAEG","2403833","2018-04-06 09:00","2018","04","06","09:00","-26.9","","-29.6","","78","","","M","21","","20","","","","101.00","","","","-39","","NA"
"-91.82","81.16","SVARTEVAEG","2403833","2018-04-06 10:00","2018","04","06","10:00","-25.0","","-27.4","","80","","","M","17","","11","","","","101.00","","","","-34","","NA"
"-91.82","81.16","SVARTEVAEG","2403833","2018-04-06 11:00","2018","04","06","11:00","-25.7","","-28.2","","79","","","M","11","","2","","","","101.01","","","","-28","","NA"
"-91.82","81.16","SVARTEVAEG","2403833","2018-04-06 12:00","2018","04","06","12:00","-26.2","","-28.8","","79","","","M","6","","4","","","","101.02","","","","-30","","NA"
"-91.82","81.16","SVARTEVAEG","2403833","2018-04-06 13:00","2018","04","06","13:00","-26.1","","-28.7","","79","","","M","2","","22","","","","100.99","","","","-39","","NA"
"-91.82","81.16","SVARTEVAEG","2403833","2018-04-06 14:00","2018","04","06","14:00","-26.5","","-29.1","","79","","","M","2","","20","","","","100.99","","","","-39","","NA"
"-91.82","81.16","SVARTEVAEG","2403833","2018-04-06 15:00","2018","04","06","15:00","-26.7","","-29.3","","79","","","M","3","","22","","","","100.97","","","","-39","","NA"
"-91.82","81.16","SVARTEVAEG","2403833","2018-04-06 16:00","2018","04","06","16:00","-26.9","","-29.5","","78","","","M","2","","24","","","","100.95","","","","-40","","NA"
"-91.82","81.16","SVARTEVAEG","2403833","2018-04-06 17:00","2018","04","06","17:00","-27.3","","-30.0","","78","","","M","3","","27","","","","100.95","","","","-41","","NA"
"-91.82","81.16","SVARTEVAEG","2403833","2018-04-06 18:00","2018","04","06","18:00","-27.6","","-30.4","","77","","","M","2","","26","","","","100.94","","","","-42","","NA"
"-91.82","81.16","SVARTEVAEG","2403833","2018-04-06 19:00","2018","04","06","19:00","-27.6","","-30.3","","77","","","M","1","","17","","","","100.92","","","","-39","","NA"
"-91.82","81.16","SVARTEVAEG","2403833","2018-04-06 20:00","2018","04","06","20:00","-28.5","","-31.4","","76","","","M","2","","20","","","","100.90","","","","-41","","NA"
"-91.82","81.16","SVARTEVAEG","2403833","2018-04-06 21:00","2018","04","06","21:00","-29.7","","-32.7","","75","","","M","3","","20","","","","100.87","","","","-43","","NA"
"-91.82","81.16","SVARTEVAEG","2403833","2018-04-06 22:00","2018","04","06","22:00","-29.1","","-32.0","","76","","","M","1","","24","","","","100.86","","","","-43","","NA"
"-91.82","81.16","SVARTEVAEG","2403833","2018-04-06 23:00","2018","04","06","23:00","-30.2","","-33.3","","74","","","M","2","","16","","","","100.85","","","","-42","","NA"
"-91.82","81.16","SVARTEVAEG","2403833","2018-04-07 00:00","2018","04","07","00:00","-29.8","","-32.9","","75","","","M","2","","20","","","","100.82","","","","-43","","NA"
"-91.82","81.16","SVARTEVAEG","2403833","2018-04-07 01:00","2018","04","07","01:00","-30.0","","-33.0","","75","","","M","35","","9","","","","100.81","","","","-39","","NA"
"-91.82","81.16","SVARTEVAEG","2403833","2018-04-07 02:00","2018","04","07","02:00","-30.1","","-33.1","","75","","","M","36","","8","","","","100.81","","","","-38","","NA"
"-91.82","81.16","SVARTEVAEG","2403833","2018-04-07 03:00","2018","04","07","03:00","-30.4","","-33.5","","74","","","M","1","","22","","","","100.80","","","","-44","","NA"
"-91.82","81.16","SVARTEVAEG","2403833","2018-04-07 04:00","2018","04","07","04:00","-30.7","","-33.8","","74","","","M","36","","26","","","","100.76","","","","-46","","NA"
"-91.82","81.16","SVARTEVAEG","2403833","2018-04-07 05:00","2018","04","07","05:00","-30.7","","-33.8","","74","","","M","1","","20","","","","100.75","","","","-44","","NA"
"-91.82","81.16","SVARTEVAEG","2403833","2018-04-07 06:00","2018","04","07","06:00","-30.7","","-33.8","","74","","","M","35","","18","","","","100.72","","","","-43","","NA"
"-91.82","81.16","SVARTEVAEG","2403833","2018-04-07 07:00","2018","04","07","07:00","-31.0","","-34.1","","74","","","M","1","","26","","","","100.68","","","","-46","","NA"
"-91.82","81.16","SVARTEVAEG","2403833","2018-04-07 08:00","2018","04","07","08:00","-31.0","","-34.2","","74","","","M","1","","26","","","","100.65","","","","-46","","NA"
"-91.82","81.16","SVARTEVAEG","2403833","2018-04-07 09:00","2018","04","07","09:00","-30.8","","-33.9","","74","","","M","1","","27","","","","100.61","","","","-46","","NA"
"-91.82","81.16","SVARTEVAEG","2403833","2018-04-07 10:00","2018","04","07","10:00","-30.5","","-33.5","","75","","","M","1","","27","","","","100.57","","","","-46","","NA"
"-91.82","81.16","SVARTEVAEG","2403833","2018-04-07 11:00","2018","04","07","11:00","-30.4","","-33.4","","75","","","M","2","","27","","","","100.55","","","","-45","","NA"
"-91.82","81.16","SVARTEVAEG","2403833","2018-04-07 12:00","2018","04","07","12:00","-30.2","","-33.2","","75","","","M","2","","27","","","","100.55","","","","-45","","NA"
"-91.82","81.16","SVARTEVAEG","2403833","2018-04-07 13:00","2018","04","07","13:00","-29.5","","-32.5","","76","","","M","2","","13","","","","100.54","","","","-40","","NA"
"-91.82","81.16","SVARTEVAEG","2403833","2018-04-07 14:00","2018","04","07","14:00","-29.9","","-32.9","","75","","","M","2","","20","","","","100.53","","","","-43","","NA"
"-91.82","81.16","SVARTEVAEG","2403833","2018-04-07 15:00","2018","04","07","15:00","-30.1","","-33.1","","75","","","M","2","","23","","","","100.54","","","","-44","","NA"
"-91.82","81.16","SVARTEVAEG","2403833","2018-04-07 16:00","2018","04","07","16:00","-30.2","","-33.3","","75","","","M","2","","23","","","","100.53","","","","-44","","NA"
"-91.82","81.16","SVARTEVAEG","2403833","2018-04-07 17:00","2018","04","07","17:00","-30.4","","-33.4","","75","","","M","2","","16","","","","100.55","","","","-42","","NA"
"-91.82","81.16","SVARTEVAEG","2403833","2018-04-07 18:00","2018","04","07","18:00","-30.4","","-33.4","","75","","","M","27","","7","","","","100.57","","","","-38","","NA"
"-91.82","81.16","SVARTEVAEG","2403833","2018-04-07 19:00","2018","04","07","19:00","-29.9","","-32.9","","75","","","M","0","","1","","","","100.57","","","","-31","","NA"
"-91.82","81.16","SVARTEVAEG","2403833","2018-04-07 20:00","2018","04","07","20:00","-32.1","","-35.4","","72","","","M","2","","20","","","","100.59","","","","-46","","NA"
"-91.82","81.16","SVARTEVAEG","2403833","2018-04-07 21:00","2018","04","07","21:00","-28.9","","-31.8","","76","","","M","1","","23","","","","100.60","","","","-43","","NA"
"-91.82","81.16","SVARTEVAEG","2403833","2018-04-07 22:00","2018","04","07","22:00","-29.9","","-32.9","","75","","","M","1","","21","","","","100.62","","","","-43","","NA"
"-91.82","81.16","SVARTEVAEG","2403833","2018-04-07 23:00","2018","04","07","23:00","-29.9","","-32.9","","75","","","M","2","","18","","","","100.66","","","","-42","","NA"
"-91.82","81.16","SVARTEVAEG","2403833","2018-04-08 00:00","2018","04","08","00:00","-30.0","","-33.1","","75","","","M","1","","22","","","","100.67","","","","-44","","NA"
"-91.82","81.16","SVARTEVAEG","2403833","2018-04-08 01:00","2018","04","08","01:00","-28.6","","-31.5","","76","","","M","1","","19","","","","100.68","","","","-41","","NA"
"-91.82","81.16","SVARTEVAEG","2403833","2018-04-08 02:00","2018","04","08","02:00","-29.6","","-32.6","","75","","","M","2","","21","","","","100.69","","","","-43","","NA"
"-91.82","81.16","SVARTEVAEG","2403833","2018-04-08 03:00","2018","04","08","03:00","-30.1","","-33.2","","74","","","M","2","","15","","","","100.73","","","","-42","","NA"
"-91.82","81.16","SVARTEVAEG","2403833","2018-04-08 04:00","2018","04","08","04:00","-30.5","","-33.6","","74","","","M","2","","20","","","","100.74","","","","-44","","NA"
"-91.82","81.16","SVARTEVAEG","2403833","2018-04-08 05:00","2018","04","08","05:00","-30.9","","-34.0","","74","","","M","2","","17","","","","100.73","","","","-43","","NA"
"-91.82","81.16","SVARTEVAEG","2403833","2018-04-08 06:00","2018","04","08","06:00","-31.0","","-34.1","","74","","","M","3","","16","","","","100.73","","","","-43","","NA"
"-91.82","81.16","SVARTEVAEG","2403833","2018-04-08 07:00","2018","04","08","07:00","-30.5","","-33.5","","74","","","M","2","","16","","","","100.70","","","","-42","","NA"
"-91.82","81.16","SVARTEVAEG","2403833","2018-04-08 08:00","2018","04","08","08:00","-30.5","","-33.6","","74","","","M","2","","23","","","","100.69","","","","-45","","NA"
"-91.82","81.16","SVARTEVAEG","2403833","2018-04-08 09:00","2018","04","08","09:00","-30.0","","-33.0","","75","","","M","2","","22","","","","100.67","","","","-44","","NA"
"-91.82","81.16","SVARTEVAEG","2403833","2018-04-08 10:00","2018","04","08","10:00","-29.6","","-32.5","","76","","","M","2","","19","","","","100.63","","","","-42","","NA"
"-91.82","81.16","SVARTEVAEG","2403833","2018-04-08 11:00","2018","04","08","11:00","-29.2","","-32.1","","76","","","M","2","","18","","","","100.60","","","","-41","","NA"
"-91.82","81.16","SVARTEVAEG","2403833","2018-04-08 12:00","2018","04","08","12:00","-29.2","","-32.1","","76","","","M","1","","22","","","","100.59","","","","-43","","NA"
"-91.82","81.16","SVARTEVAEG","2403833","2018-04-08 13:00","2018","04","08","13:00","-28.9","","-31.7","","76","","","M","2","","19","","","","100.57","","","","-41","","NA"
"-91.82","81.16","SVARTEVAEG","2403833","2018-04-08 14:00","2018","04","08","14:00","-28.9","","-31.7","","76","","","M","2","","21","","","","100.58","","","","-42","","NA"
"-91.82","81.16","SVARTEVAEG","2403833","2018-04-08 15:00","2018","04","08","15:00","-29.1","","-32.0","","76","","","M","2","","21","","","","100.53","","","","-42","","NA"
"-91.82","81.16","SVARTEVAEG","2403833","2018-04-08 16:00","2018","04","08","16:00","-28.3","","-31.1","","77","","","M","1","","10","","","","100.53","","","","-37","","NA"
"-91.82","81.16","SVARTEVAEG","2403833","2018-04-08 17:00","2018","04","08","17:00","-28.3","","-31.1","","77","","","M","2","","7","","","","100.53","","","","-35","","NA"
"-91.82","81.16","SVARTEVAEG","2403833","2018-04-08 18:00","2018","04","08","18:00","-29.0","","-31.9","","76","","","M","3","","14","","","","100.49","","","","-40","","NA"
"-91.82","81.16","SVARTEVAEG","2403833","2018-04-08 19:00","2018","04","08","19:00","-28.6","","-31.5","","76","","","M","3","","12","","","","100.49","","","","-38","","NA"
"-91.82","81.16","SVARTEVAEG","2403833","2018-04-08 20:00","2018","04","08","20:00","-29.6","","-32.6","","75","","","M","22","","9","","","","100.47","","","","-38","","NA"
"-91.82","81.16","SVARTEVAEG","2403833","2018-04-08 21:00","2018","04","08","21:00","-29.3","","-32.3","","75","","","M","36","","9","","","","100.46","","","","-38","","NA"
"-91.82","81.16","SVARTEVAEG","2403833","2018-04-08 22:00","2018","04","08","22:00","-29.3","","-32.2","","75","","","M","1","","9","","","","100.41","","","","-38","","NA"
"-91.82","81.16","SVARTEVAEG","2403833","2018-04-08 23:00","2018","04","08","23:00","-28.9","","-31.8","","76","","","M","1","","8","","","","100.41","","","","-37","","NA"
"-91.82","81.16","SVARTEVAEG","2403833","2018-04-09 00:00","2018","04","09","00:00","-28.9","","-31.8","","76","","","M","2","","13","","","","100.42","","","","-39","","NA"
"-91.82","81.16","SVARTEVAEG","2403833","2018-04-09 01:00","2018","04","09","01:00","-29.1","","-32.1","","76","","","M","2","","9","","","","100.42","","","","-38","","NA"
"-91.82","81.16","SVARTEVAEG","2403833","2018-04-09 02:00","2018","04","09","02:00","-28.9","","-31.8","","76","","","M","36","","7","","","","100.41","","","","-36","","NA"
"-91.82","81.16","SVARTEVAEG","2403833","2018-04-09 03:00","2018","04","09","03:00","-26.8","","-29.5","","78","","","M","26","","1","","","","100.39","","","","-28","","NA"
"-91.82","81.16","SVARTEVAEG","2403833","2018-04-09 04:00","2018","04","09","04:00","-26.9","","-29.5","","78","","","M","11","","4","","","","100.37","","","","-31","","NA"
"-91.82","81.16","SVARTEVAEG","2403833","2018-04-09 05:00","2018","04","09","05:00","-26.1","","-28.7","","79","","","M","5","","5","","","","100.36","","","","-31","","NA"
"-91.82","81.16","SVARTEVAEG","2403833","2018-04-09 06:00","2018","04","09","06:00","-24.7","","-27.0","","81","","","M","36","","21","","","","100.35","","","","-37","","NA"
"-91.82","81.16","SVARTEVAEG","2403833","2018-04-09 07:00","2018","04","09","07:00","-23.6","","-25.9","","82","","","M","1","","10","","","","100.37","","","","-32","","NA"
"-91.82","81.16","SVARTEVAEG","2403833","2018-04-09 08:00","2018","04","09","08:00","-23.1","","-25.3","","82","","","M","34","","9","","","","100.35","","","","-30","","NA"
"-91.82","81.16","SVARTEVAEG","2403833","2018-04-09 09:00","2018","04","09","09:00","-23.0","","-25.2","","82","","","M","32","","17","","","","100.35","","","","-33","","NA"
"-91.82","81.16","SVARTEVAEG","2403833","2018-04-09 10:00","2018","04","09","10:00","-22.9","","-25.1","","82","","","M","0","","1","","","","100.32","","","","-24","","NA"
"-91.82","81.16","SVARTEVAEG","2403833","2018-04-09 11:00","2018","04","09","11:00","-23.7","","-26.0","","81","","","M","32","","22","","","","100.33","","","","-36","","NA"
"-91.82","81.16","SVARTEVAEG","2403833","2018-04-09 12:00","2018","04","09","12:00","-24.2","","-26.5","","81","","","M","30","","33","","","","100.29","","","","-39","","NA"
"-91.82","81.16","SVARTEVAEG","2403833","2018-04-09 13:00","2018","04","09","13:00","-24.5","","-26.9","","81","","","M","35","","21","","","","100.38","","","","-36","","NA"
"-91.82","81.16","SVARTEVAEG","2403833","2018-04-09 14:00","2018","04","09","14:00","-25.6","","-28.1","","80","","","M","1","","37","","","","100.41","","","","-41","","NA"
"-91.82","81.16","SVARTEVAEG","2403833","2018-04-09 15:00","2018","04","09","15:00","-26.7","","-29.4","","78","","","M","1","","34","","","","100.52","","","","-42","","NA"
"-91.82","81.16","SVARTEVAEG","2403833","2018-04-09 16:00","2018","04","09","16:00","-27.6","","-30.3","","78","","","M","2","","36","","","","100.57","","","","-44","","NA"
"-91.82","81.16","SVARTEVAEG","2403833","2018-04-09 17:00","2018","04","09","17:00","-27.9","","-30.7","","77","","","M","1","","49","","","","100.59","","","","-46","","NA"
"-91.82","81.16","SVARTEVAEG","2403833","2018-04-09 18:00","2018","04","09","18:00","-28.5","","-31.3","","77","","","M","1","","51","","","","100.56","","","","-47","","NA"
"-91.82","81.16","SVARTEVAEG","2403833","2018-04-09 19:00","2018","04","09","19:00","-28.1","","-30.9","","77","","","M","2","","42","","","","100.66","","","","-45","","NA"
"-91.82","81.16","SVARTEVAEG","2403833","2018-04-09 20:00","2018","04","09","20:00","-27.9","","-30.7","","77","","","M","1","","47","","","","100.69","","","","-46","","NA"
"-91.82","81.16","SVARTEVAEG","2403833","2018-04-09 21:00","2018","04","09","21:00","-28.3","","-31.1","","77","","","M","2","","33","","","","100.72","","","","-44","","NA"
"-91.82","81.16","SVARTEVAEG","2403833","2018-04-09 22:00","2018","04","09","22:00","-28.4","","-31.3","","76","","","M","2","","35","","","","100.81","","","","-45","","NA"
"-91.82","81.16","SVARTEVAEG","2403833","2018-04-09 23:00","2018","04","09","23:00","-28.3","","-31.2","","76","","","M","2","","36","","","","100.85","","","","-45","","NA"
"-91.82","81.16","SVARTEVAEG","2403833","2018-04-10 00:00","2018","04","10","00:00","-28.8","","-31.7","","76","","","M","1","","31","","","","100.91","","","","-44","","NA"
"-91.82","81.16","SVARTEVAEG","2403833","2018-04-10 01:00","2018","04","10","01:00","-29.5","","-32.5","","75","","","M","1","","24","","","","100.93","","","","-44","","NA"
"-91.82","81.16","SVARTEVAEG","2403833","2018-04-10 02:00","2018","04","10","02:00","-30.3","","-33.3","","74","","","M","2","","28","","","","100.96","","","","-46","","NA"
"-91.82","81.16","SVARTEVAEG","2403833","2018-04-10 03:00","2018","04","10","03:00","-29.6","","-32.6","","75","","","M","1","","20","","","","101.01","","","","-43","","NA"
"-91.82","81.16","SVARTEVAEG","2403833","2018-04-10 04:00","2018","04","10","04:00","-29.7","","-32.7","","75","","","M","2","","22","","","","101.02","","","","-43","","NA"
"-91.82","81.16","SVARTEVAEG","2403833","2018-04-10 05:00","2018","04","10","05:00","-29.7","","-32.7","","75","","","M","35","","19","","","","101.02","","","","-42","","NA"
"-91.82","81.16","SVARTEVAEG","2403833","2018-04-10 06:00","2018","04","10","06:00","-29.6","","-32.6","","75","","","M","1","","25","","","","101.01","","","","-44","","NA"
"-91.82","81.16","SVARTEVAEG","2403833","2018-04-10 07:00","2018","04","10","07:00","-29.4","","-32.4","","76","","","M","1","","13","","","","100.99","","","","-40","","NA"
"-91.82","81.16","SVARTEVAEG","2403833","2018-04-10 08:00","2018","04","10","08:00","-27.8","","-30.6","","77","","","M","33","","12","","","","100.95","","","","-37","","NA"
"-91.82","81.16","SVARTEVAEG","2403833","2018-04-10 09:00","2018","04","10","09:00","-28.5","","-31.3","","77","","","M","2","","12","","","","100.89","","","","-38","","NA"
"-91.82","81.16","SVARTEVAEG","2403833","2018-04-10 10:00","2018","04","10","10:00","-28.3","","-31.1","","77","","","M","2","","15","","","","100.87","","","","-39","","NA"
"-91.82","81.16","SVARTEVAEG","2403833","2018-04-10 11:00","2018","04","10","11:00","-28.4","","-31.2","","77","","","M","4","","14","","","","100.80","","","","-39","","NA"
"-91.82","81.16","SVARTEVAEG","2403833","2018-04-10 12:00","2018","04","10","12:00","-28.2","","-31.0","","77","","","M","3","","6","","","","100.75","","","","-34","","NA"
"-91.82","81.16","SVARTEVAEG","2403833","2018-04-10 13:00","2018","04","10","13:00","-28.3","","-31.1","","77","","","M","4","","8","","","","100.73","","","","-36","","NA"
"-91.82","81.16","SVARTEVAEG","2403833","2018-04-10 14:00","2018","04","10","14:00","-28.1","","-30.8","","77","","","M","4","","5","","","","100.68","","","","-33","","NA"
"-91.82","81.16","SVARTEVAEG","2403833","2018-04-10 15:00","2018","04","10","15:00","-27.6","","-30.3","","78","","","M","6","","2","","","","100.63","","","","-30","","NA"
"-91.82","81.16","SVARTEVAEG","2403833","2018-04-10 16:00","2018","04","10","16:00","-27.4","","-30.1","","78","","","M","20","","5","","","","100.54","","","","-33","","NA"
"-91.82","81.16","SVARTEVAEG","2403833","2018-04-10 17:00","2018","04","10","17:00","-28.2","","-31.0","","77","","","M","24","","6","","","","100.46","","","","-34","","NA"
"-91.82","81.16","SVARTEVAEG","2403833","2018-04-10 18:00","2018","04","10","18:00","-28.5","","-31.4","","76","","","M","21","","15","","","","100.37","","","","-40","","NA"
"-91.82","81.16","SVARTEVAEG","2403833","2018-04-10 19:00","2018","04","10","19:00","-28.1","","-30.9","","77","","","M","21","","21","","","","100.31","","","","-41","","NA"
"-91.82","81.16","SVARTEVAEG","2403833","2018-04-10 20:00","2018","04","10","20:00","-27.6","","-30.3","","77","","","M","21","","26","","","","100.23","","","","-42","","NA"
"-91.82","81.16","SVARTEVAEG","2403833","2018-04-10 21:00","2018","04","10","21:00","-27.1","","-29.8","","78","","","M","21","","29","","","","100.16","","","","-42","","NA"
"-91.82","81.16","SVARTEVAEG","2403833","2018-04-10 22:00","2018","04","10","22:00","-27.8","","-30.6","","77","","","M","21","","29","","","","100.10","","","","-43","","NA"
"-91.82","81.16","SVARTEVAEG","2403833","2018-04-10 23:00","2018","04","10","23:00","-28.5","","-31.4","","76","","","M","20","","26","","","","100.02","","","","-43","","NA"
"-91.82","81.16","SVARTEVAEG","2403833","2018-04-11 00:00","2018","04","11","00:00","-28.2","","-31.1","","77","","","M","20","","31","","","","99.94","","","","-43","","NA"
"-91.82","81.16","SVARTEVAEG","2403833","2018-04-11 01:00","2018","04","11","01:00","-28.9","","-31.8","","76","","","M","21","","32","","","","99.90","","","","-45","","NA"
"-91.82","81.16","SVARTEVAEG","2403833","2018-04-11 02:00","2018","04","11","02:00","-29.0","","-32.0","","76","","","M","20","","28","","","","99.86","","","","-44","","NA"
"-91.82","81.16","SVARTEVAEG","2403833","2018-04-11 03:00","2018","04","11","03:00","-29.6","","-32.5","","75","","","M","21","","26","","","","99.81","","","","-44","","NA"
"-91.82","81.16","SVARTEVAEG","2403833","2018-04-11 04:00","2018","04","11","04:00","-30.1","","-33.1","","75","","","M","21","","29","","","","99.77","","","","-46","","NA"
"-91.82","81.16","SVARTEVAEG","2403833","2018-04-11 05:00","2018","04","11","05:00","-29.5","","-32.4","","75","","","M","20","","26","","","","99.72","","","","-44","","NA"
"-91.82","81.16","SVARTEVAEG","2403833","2018-04-11 06:00","2018","04","11","06:00","-29.5","","-32.4","","76","","","M","21","","26","","","","99.67","","","","-44","","NA"
"-91.82","81.16","SVARTEVAEG","2403833","2018-04-11 07:00","2018","04","11","07:00","-28.2","","-31.0","","77","","","M","22","","21","","","","99.64","","","","-41","","NA"
"-91.82","81.16","SVARTEVAEG","2403833","2018-04-11 08:00","2018","04","11","08:00","-23.1","","-25.3","","82","","","M","26","","17","","","","99.59","","","","-34","","NA"
"-91.82","81.16","SVARTEVAEG","2403833","2018-04-11 09:00","2018","04","11","09:00","-23.1","","-25.2","","83","","","M","29","","8","","","","99.56","","","","-30","","NA"
"-91.82","81.16","SVARTEVAEG","2403833","2018-04-11 10:00","2018","04","11","10:00","-23.3","","-25.5","","82","","","M","30","","13","","","","99.51","","","","-32","","NA"
"-91.82","81.16","SVARTEVAEG","2403833","2018-04-11 11:00","2018","04","11","11:00","-22.9","","-25.0","","82","","","M","30","","8","","","","99.48","","","","-30","","NA"
"-91.82","81.16","SVARTEVAEG","2403833","2018-04-11 12:00","2018","04","11","12:00","-22.5","","-24.6","","83","","","M","5","","7","","","","99.48","","","","-29","","NA"
"-91.82","81.16","SVARTEVAEG","2403833","2018-04-11 13:00","2018","04","11","13:00","-23.0","","-25.2","","82","","","M","35","","9","","","","99.46","","","","-30","","NA"
"-91.82","81.16","SVARTEVAEG","2403833","2018-04-11 14:00","2018","04","11","14:00","-22.6","","-24.7","","83","","","M","30","","21","","","","99.43","","","","-34","","NA"
"-91.82","81.16","SVARTEVAEG","2403833","2018-04-11 15:00","2018","04","11","15:00","-23.0","","-25.2","","82","","","M","28","","18","","","","99.43","","","","-34","","NA"
"-91.82","81.16","SVARTEVAEG","2403833","2018-04-11 16:00","2018","04","11","16:00","-23.4","","-25.7","","82","","","M","29","","21","","","","99.44","","","","-35","","NA"
"-91.82","81.16","SVARTEVAEG","2403833","2018-04-11 17:00","2018","04","11","17:00","-24.0","","-26.3","","81","","","M","27","","33","","","","99.37","","","","-38","","NA"
"-91.82","81.16","SVARTEVAEG","2403833","2018-04-11 18:00","2018","04","11","18:00","-23.7","","-25.9","","81","","","M","30","","22","","","","99.40","","","","-36","","NA"
"-91.82","81.16","SVARTEVAEG","2403833","2018-04-11 19:00","2018","04","11","19:00","-23.8","","-26.1","","81","","","M","26","","17","","","","99.38","","","","-34","","NA"
"-91.82","81.16","SVARTEVAEG","2403833","2018-04-11 20:00","2018","04","11","20:00","-24.9","","-27.4","","80","","","M","21","","22","","","","99.37","","","","-37","","NA"
"-91.82","81.16","SVARTEVAEG","2403833","2018-04-11 21:00","2018","04","11","21:00","-26.2","","-28.8","","79","","","M","21","","28","","","","99.36","","","","-40","","NA"
"-91.82","81.16","SVARTEVAEG","2403833","2018-04-11 22:00","2018","04","11","22:00","-26.4","","-29.0","","79","","","M","21","","24","","","","99.35","","","","-40","","NA"
"-91.82","81.16","SVARTEVAEG","2403833","2018-04-11 23:00","2018","04","11","23:00","-26.8","","-29.5","","78","","","M","21","","25","","","","99.36","","","","-40","","NA"
"-91.82","81.16","SVARTEVAEG","2403833","2018-04-12 00:00","2018","04","12","00:00","-26.9","","-29.6","","78","","","M","21","","28","","","","99.38","","","","-41","","NA"
"-91.82","81.16","SVARTEVAEG","2403833","2018-04-12 01:00","2018","04","12","01:00","-26.9","","-29.6","","78","","","M","22","","21","","","","99.39","","","","-39","","NA"
"-91.82","81.16","SVARTEVAEG","2403833","2018-04-12 02:00","2018","04","12","02:00","-27.1","","-29.8","","78","","","M","21","","26","","","","99.40","","","","-41","","NA"
"-91.82","81.16","SVARTEVAEG","2403833","2018-04-12 03:00","2018","04","12","03:00","-27.2","","-29.9","","78","","","M","21","","26","","","","99.40","","","","-41","","NA"
"-91.82","81.16","SVARTEVAEG","2403833","2018-04-12 04:00","2018","04","12","04:00","-26.9","","-29.6","","78","","","M","21","","32","","","","99.42","","","","-42","","NA"
"-91.82","81.16","SVARTEVAEG","2403833","2018-04-12 05:00","2018","04","12","05:00","-26.5","","-29.1","","79","","","M","21","","30","","","","99.43","","","","-41","","NA"
"-91.82","81.16","SVARTEVAEG","2403833","2018-04-12 06:00","2018","04","12","06:00","-27.3","","-30.0","","78","","","M","22","","25","","","","99.45","","","","-41","","NA"
"-91.82","81.16","SVARTEVAEG","2403833","2018-04-12 07:00","2018","04","12","07:00","-27.7","","-30.4","","78","","","M","21","","28","","","","99.46","","","","-42","","NA"
"-91.82","81.16","SVARTEVAEG","2403833","2018-04-12 08:00","2018","04","12","08:00","-27.3","","-29.9","","78","","","M","21","","25","","","","99.50","","","","-41","","NA"
"-91.82","81.16","SVARTEVAEG","2403833","2018-04-12 09:00","2018","04","12","09:00","-27.1","","-29.8","","78","","","M","21","","23","","","","99.52","","","","-40","","NA"
"-91.82","81.16","SVARTEVAEG","2403833","2018-04-12 10:00","2018","04","12","10:00","-26.1","","-28.7","","79","","","M","22","","21","","","","99.56","","","","-38","","NA"
"-91.82","81.16","SVARTEVAEG","2403833","2018-04-12 11:00","2018","04","12","11:00","-26.8","","-29.5","","78","","","M","21","","28","","","","99.58","","","","-41","","NA"
"-91.82","81.16","SVARTEVAEG","2403833","2018-04-12 12:00","2018","04","12","12:00","-25.4","","-27.8","","80","","","M","22","","26","","","","99.60","","","","-39","","NA"
"-91.82","81.16","SVARTEVAEG","2403833","2018-04-12 13:00","2018","04","12","13:00","-24.6","","-26.9","","81","","","M","22","","23","","","","99.63","","","","-37","","NA"
"-91.82","81.16","SVARTEVAEG","2403833","2018-04-12 14:00","2018","04","12","14:00","-25.0","","-27.5","","80","","","M","22","","24","","","","99.66","","","","-38","","NA"
"-91.82","81.16","SVARTEVAEG","2403833","2018-04-12 15:00","2018","04","12","15:00","-26.0","","-28.5","","79","","","M","22","","23","","","","99.69","","","","-39","","NA"
"-91.82","81.16","SVARTEVAEG","2403833","2018-04-12 16:00","2018","04","12","16:00","-25.4","","-27.9","","80","","","M","21","","23","","","","99.73","","","","-38","","NA"
"-91.82","81.16","SVARTEVAEG","2403833","2018-04-12 17:00","2018","04","12","17:00","-24.3","","-26.6","","81","","","M","22","","20","","","","99.75","","","","-36","","NA"
"-91.82","81.16","SVARTEVAEG","2403833","2018-04-12 18:00","2018","04","12","18:00","-25.3","","-27.8","","80","","","M","21","","20","","","","99.79","","","","-37","","NA"
"-91.82","81.16","SVARTEVAEG","2403833","2018-04-12 19:00","2018","04","12","19:00","-25.5","","-28.0","","79","","","M","22","","17","","","","99.81","","","","-37","","NA"
"-91.82","81.16","SVARTEVAEG","2403833","2018-04-12 20:00","2018","04","12","20:00","-25.2","","-27.6","","80","","","M","22","","19","","","","99.82","","","","-37","","NA"
"-91.82","81.16","SVARTEVAEG","2403833","2018-04-12 21:00","2018","04","12","21:00","-25.4","","-27.9","","79","","","M","22","","16","","","","99.84","","","","-36","","NA"
"-91.82","81.16","SVARTEVAEG","2403833","2018-04-12 22:00","2018","04","12","22:00","-26.0","","-28.6","","79","","","M","22","","15","","","","99.85","","","","-36","","NA"
"-91.82","81.16","SVARTEVAEG","2403833","2018-04-12 23:00","2018","04","12","23:00","-26.0","","-28.5","","79","","","M","21","","19","","","","99.86","","","","-38","","NA"
"-91.82","81.16","SVARTEVAEG","2403833","2018-04-13 00:00","2018","04","13","00:00","-25.2","","-27.7","","80","","","M","22","","19","","","","99.89","","","","-37","","NA"
"-91.82","81.16","SVARTEVAEG","2403833","2018-04-13 01:00","2018","04","13","01:00","-25.3","","-27.8","","80","","","M","22","","18","","","","99.93","","","","-37","","NA"
"-91.82","81.16","SVARTEVAEG","2403833","2018-04-13 02:00","2018","04","13","02:00","-25.0","","-27.4","","80","","","M","21","","17","","","","99.95","","","","-36","","NA"
"-91.82","81.16","SVARTEVAEG","2403833","2018-04-13 03:00","2018","04","13","03:00","-26.1","","-28.7","","79","","","M","22","","18","","","","99.98","","","","-38","","NA"
"-91.82","81.16","SVARTEVAEG","2403833","2018-04-13 04:00","2018","04","13","04:00","-25.5","","-28.0","","80","","","M","22","","25","","","","100.00","","","","-39","","NA"
"-91.82","81.16","SVARTEVAEG","2403833","2018-04-13 05:00","2018","04","13","05:00","-25.2","","-27.6","","80","","","M","21","","23","","","","100.00","","","","-38","","NA"
"-91.82","81.16","SVARTEVAEG","2403833","2018-04-13 06:00","2018","04","13","06:00","-25.4","","-27.9","","80","","","M","21","","22","","","","100.01","","","","-38","","NA"
"-91.82","81.16","SVARTEVAEG","2403833","2018-04-13 07:00","2018","04","13","07:00","-25.2","","-27.7","","80","","","M","21","","26","","","","100.03","","","","-39","","NA"
"-91.82","81.16","SVARTEVAEG","2403833","2018-04-13 08:00","2018","04","13","08:00","-25.3","","-27.7","","80","","","M","21","","25","","","","100.03","","","","-38","","NA"
"-91.82","81.16","SVARTEVAEG","2403833","2018-04-13 09:00","2018","04","13","09:00","-25.1","","-27.5","","80","","","M","21","","24","","","","100.04","","","","-38","","NA"
"-91.82","81.16","SVARTEVAEG","2403833","2018-04-13 10:00","2018","04","13","10:00","-24.5","","-26.9","","81","","","M","21","","28","","","","100.02","","","","-38","","NA"
"-91.82","81.16","SVARTEVAEG","2403833","2018-04-13 11:00","2018","04","13","11:00","-24.7","","-27.0","","81","","","M","21","","26","","","","100.02","","","","-38","","NA"
"-91.82","81.16","SVARTEVAEG","2403833","2018-04-13 12:00","2018","04","13","12:00","-25.1","","-27.5","","80","","","M","21","","22","","","","100.01","","","","-37","","NA"
"-91.82","81.16","SVARTEVAEG","2403833","2018-04-13 13:00","2018","04","13","13:00","-24.0","","-26.3","","82","","","M","21","","29","","","","99.97","","","","-38","","NA"
"-91.82","81.16","SVARTEVAEG","2403833","2018-04-13 14:00","2018","04","13","14:00","-23.8","","-26.1","","82","","","M","21","","29","","","","99.94","","","","-37","","NA"
"-91.82","81.16","SVARTEVAEG","2403833","2018-04-13 15:00","2018","04","13","15:00","-24.1","","-26.5","","81","","","M","21","","25","","","","99.92","","","","-37","","NA"
"-91.82","81.16","SVARTEVAEG","2403833","2018-04-13 16:00","2018","04","13","16:00","-25.4","","-27.9","","80","","","M","20","","23","","","","99.89","","","","-38","","NA"
"-91.82","81.16","SVARTEVAEG","2403833","2018-04-13 17:00","2018","04","13","17:00","-25.0","","-27.5","","80","","","M","20","","24","","","","99.84","","","","-38","","NA"
"-91.82","81.16","SVARTEVAEG","2403833","2018-04-13 18:00","2018","04","13","18:00","-24.8","","-27.2","","80","","","M","21","","17","","","","99.81","","","","-36","","NA"
"-91.82","81.16","SVARTEVAEG","2403833","2018-04-13 19:00","2018","04","13","19:00","-23.9","","-26.2","","81","","","M","18","","25","","","","99.74","","","","-37","","NA"
"-91.82","81.16","SVARTEVAEG","2403833","2018-04-13 20:00","2018","04","13","20:00","-22.8","","-25.0","","82","","","M","18","","23","","","","99.69","","","","-35","","NA"
"-91.82","81.16","SVARTEVAEG","2403833","2018-04-13 21:00","2018","04","13","21:00","-22.5","","-24.7","","82","","","M","17","","21","","","","99.64","","","","-34","","NA"
"-91.82","81.16","SVARTEVAEG","2403833","2018-04-13 22:00","2018","04","13","22:00","-22.3","","-24.4","","83","","","M","17","","12","","","","99.60","","","","-31","","NA"
"-91.82","81.16","SVARTEVAEG","2403833","2018-04-13 23:00","2018","04","13","23:00","-21.5","","-23.5","","84","","","M","16","","19","","","","99.52","","","","-32","","NA"
"-91.82","81.16","SVARTEVAEG","2403833","2018-04-14 00:00","2018","04","14","00:00","-21.1","","-23.1","","84","","","M","16","","23","","","","99.49","","","","-33","","NA"
"-91.82","81.16","SVARTEVAEG","2403833","2018-04-14 01:00","2018","04","14","01:00","-20.8","","-22.8","","84","","","M","19","","11","","","","99.48","","","","-29","","NA"
"-91.82","81.16","SVARTEVAEG","2403833","2018-04-14 02:00","2018","04","14","02:00","-20.5","","-22.4","","84","","","M","26","","4","","","","99.46","","","","-24","","NA"
"-91.82","81.16","SVARTEVAEG","2403833","2018-04-14 03:00","2018","04","14","03:00","-19.7","","-21.6","","85","","","M","18","","9","","","","99.46","","","","-26","","NA"
"-91.82","81.16","SVARTEVAEG","2403833","2018-04-14 04:00","2018","04","14","04:00","-17.9","","-19.5","","87","","","M","19","","23","","","","99.45","","","","-29","","NA"
"-91.82","81.16","SVARTEVAEG","2403833","2018-04-14 05:00","2018","04","14","05:00","-17.0","","-18.6","","88","","","M","21","","33","","","","99.43","","","","-29","","NA"
"-91.82","81.16","SVARTEVAEG","2403833","2018-04-14 06:00","2018","04","14","06:00","-17.6","","-19.2","","87","","","M","22","","22","","","","99.43","","","","-28","","NA"
"-91.82","81.16","SVARTEVAEG","2403833","2018-04-14 07:00","2018","04","14","07:00","-17.1","","-18.6","","88","","","M","21","","21","","","","99.44","","","","-27","","NA"
"-91.82","81.16","SVARTEVAEG","2403833","2018-04-14 08:00","2018","04","14","08:00","-16.8","","-18.3","","88","","","M","20","","26","","","","99.46","","","","-28","","NA"
"-91.82","81.16","SVARTEVAEG","2403833","2018-04-14 09:00","2018","04","14","09:00","-17.4","","-19.0","","87","","","M","20","","30","","","","99.41","","","","-29","","NA"
"-91.82","81.16","SVARTEVAEG","2403833","2018-04-14 10:00","2018","04","14","10:00","-16.8","","-18.3","","88","","","M","21","","27","","","","99.43","","","","-28","","NA"
"-91.82","81.16","SVARTEVAEG","2403833","2018-04-14 11:00","2018","04","14","11:00","-16.6","","-18.0","","88","","","M","21","","21","","","","99.44","","","","-26","","NA"
"-91.82","81.16","SVARTEVAEG","2403833","2018-04-14 12:00","2018","04","14","12:00","-16.6","","-18.1","","88","","","M","22","","20","","","","99.44","","","","-26","","NA"
"-91.82","81.16","SVARTEVAEG","2403833","2018-04-14 13:00","2018","04","14","13:00","-16.0","","-17.4","","89","","","M","20","","24","","","","99.48","","","","-26","","NA"
"-91.82","81.16","SVARTEVAEG","2403833","2018-04-14 14:00","2018","04","14","14:00","-17.3","","-18.8","","88","","","M","23","","15","","","","99.53","","","","-26","","NA"
"-91.82","81.16","SVARTEVAEG","2403833","2018-04-14 15:00","2018","04","14","15:00","-17.1","","-18.7","","88","","","M","23","","22","","","","99.58","","","","-27","","NA"
"-91.82","81.16","SVARTEVAEG","2403833","2018-04-14 16:00","2018","04","14","16:00","-18.0","","-19.7","","87","","","M","23","","21","","","","99.64","","","","-28","","NA"
"-91.82","81.16","SVARTEVAEG","2403833","2018-04-14 17:00","2018","04","14","17:00","-18.2","","-19.8","","87","","","M","24","","20","","","","99.69","","","","-28","","NA"
"-91.82","81.16","SVARTEVAEG","2403833","2018-04-14 18:00","2018","04","14","18:00","-19.3","","-21.0","","86","","","M","29","","29","","","","99.75","","","","-31","","NA"
"-91.82","81.16","SVARTEVAEG","2403833","2018-04-14 19:00","2018","04","14","19:00","-19.0","","-20.7","","86","","","M","28","","21","","","","99.81","","","","-29","","NA"
"-91.82","81.16","SVARTEVAEG","2403833","2018-04-14 20:00","2018","04","14","20:00","-20.2","","-22.1","","85","","","M","35","","6","","","","99.87","","","","-25","","NA"
"-91.82","81.16","SVARTEVAEG","2403833","2018-04-14 21:00","2018","04","14","21:00","-20.6","","-22.5","","85","","","M","32","","5","","","","99.91","","","","-25","","NA"
"-91.82","81.16","SVARTEVAEG","2403833","2018-04-14 22:00","2018","04","14","22:00","-21.6","","-23.7","","83","","","M","4","","5","","","","99.96","","","","-26","","NA"
"-91.82","81.16","SVARTEVAEG","2403833","2018-04-14 23:00","2018","04","14","23:00","-22.5","","-24.7","","83","","","M","35","","12","","","","100.02","","","","-31","","NA"
"-91.82","81.16","SVARTEVAEG","2403833","2018-04-15 00:00","2018","04","15","00:00","-22.8","","-24.9","","82","","","M","34","","9","","","","100.06","","","","-30","","NA"
"-91.82","81.16","SVARTEVAEG","2403833","2018-04-15 01:00","2018","04","15","01:00","-23.6","","-25.9","","82","","","M","29","","10","","","","100.11","","","","-32","","NA"
"-91.82","81.16","SVARTEVAEG","2403833","2018-04-15 02:00","2018","04","15","02:00","-24.0","","-26.3","","81","","","M","25","","3","","","","100.18","","","","-27","","NA"
"-91.82","81.16","SVARTEVAEG","2403833","2018-04-15 03:00","2018","04","15","03:00","-24.8","","-27.2","","80","","","M","1","","7","","","","100.24","","","","-31","","NA"
"-91.82","81.16","SVARTEVAEG","2403833","2018-04-15 04:00","2018","04","15","04:00","-24.8","","-27.1","","81","","","M","3","","6","","","","100.28","","","","-31","","NA"
"-91.82","81.16","SVARTEVAEG","2403833","2018-04-15 05:00","2018","04","15","05:00","-25.2","","-27.7","","80","","","M","2","","5","","","","100.34","","","","-30","","NA"
"-91.82","81.16","SVARTEVAEG","2403833","2018-04-15 06:00","2018","04","15","06:00","-24.7","","-27.1","","81","","","M","29","","11","","","","100.38","","","","-33","","NA"
"-91.82","81.16","SVARTEVAEG","2403833","2018-04-15 07:00","2018","04","15","07:00","-25.4","","-27.8","","80","","","M","36","","7","","","","100.44","","","","-32","","NA"
"-91.82","81.16","SVARTEVAEG","2403833","2018-04-15 08:00","2018","04","15","08:00","-25.0","","-27.4","","80","","","M","30","","10","","","","100.47","","","","-33","","NA"
"-91.82","81.16","SVARTEVAEG","2403833","2018-04-15 09:00","2018","04","15","09:00","-25.2","","-27.6","","80","","","M","32","","4","","","","100.53","","","","-29","","NA"
"-91.82","81.16","SVARTEVAEG","2403833","2018-04-15 10:00","2018","04","15","10:00","-25.0","","-27.3","","81","","","M","32","","4","","","","100.57","","","","-29","","NA"
"-91.82","81.16","SVARTEVAEG","2403833","2018-04-15 11:00","2018","04","15","11:00","-24.9","","-27.2","","81","","","M","36","","7","","","","100.60","","","","-31","","NA"
"-91.82","81.16","SVARTEVAEG","2403833","2018-04-15 12:00","2018","04","15","12:00","-25.5","","-27.9","","80","","","M","1","","10","","","","100.64","","","","-34","","NA"
"-91.82","81.16","SVARTEVAEG","2403833","2018-04-15 13:00","2018","04","15","13:00","-25.5","","-27.9","","80","","","M","1","","10","","","","100.71","","","","-34","","NA"
"-91.82","81.16","SVARTEVAEG","2403833","2018-04-15 14:00","2018","04","15","14:00","-25.2","","-27.5","","80","","","M","2","","6","","","","100.76","","","","-31","","NA"
"-91.82","81.16","SVARTEVAEG","2403833","2018-04-15 15:00","2018","04","15","15:00","-24.7","","-27.0","","81","","","M","35","","4","","","","100.83","","","","-29","","NA"
"-91.82","81.16","SVARTEVAEG","2403833","2018-04-15 16:00","2018","04","15","16:00","-25.2","","-27.5","","80","","","M","35","","5","","","","100.86","","","","-30","","NA"
"-91.82","81.16","SVARTEVAEG","2403833","2018-04-15 17:00","2018","04","15","17:00","-25.0","","-27.4","","81","","","M","36","","3","","","","100.90","","","","-28","","NA"
"-91.82","81.16","SVARTEVAEG","2403833","2018-04-15 18:00","2018","04","15","18:00","-26.6","","-29.2","","79","","","M","24","","6","","","","100.92","","","","-33","","NA"
"-91.82","81.16","SVARTEVAEG","2403833","2018-04-15 19:00","2018","04","15","19:00","-26.5","","-29.1","","79","","","M","","","0","","","","100.97","","","","","","NA"
"-91.82","81.16","SVARTEVAEG","2403833","2018-04-15 20:00","2018","04","15","20:00","-26.3","","-28.9","","79","","","M","3","","4","","","","101.02","","","","-30","","NA"
"-91.82","81.16","SVARTEVAEG","2403833","2018-04-15 21:00","2018","04","15","21:00","-26.9","","-29.5","","78","","","M","14","","2","","","","101.04","","","","-29","","NA"
"-91.82","81.16","SVARTEVAEG","2403833","2018-04-15 22:00","2018","04","15","22:00","-26.8","","-29.5","","78","","","M","22","","2","","","","101.06","","","","-29","","NA"
"-91.82","81.16","SVARTEVAEG","2403833","2018-04-15 23:00","2018","04","15","23:00","-26.8","","-29.5","","78","","","M","22","","2","","","","101.10","","","","-29","","NA"
"-91.82","81.16","SVARTEVAEG","2403833","2018-04-16 00:00","2018","04","16","00:00","-26.6","","-29.2","","78","","","M","","","0","","","","101.14","","","","","","NA"
"-91.82","81.16","SVARTEVAEG","2403833","2018-04-16 01:00","2018","04","16","01:00","-27.0","","-29.7","","78","","","M","13","","2","","","","101.17","","","","-29","","NA"
"-91.82","81.16","SVARTEVAEG","2403833","2018-04-16 02:00","2018","04","16","02:00","-27.7","","-30.4","","77","","","M","19","","4","","","","101.23","","","","-32","","NA"
"-91.82","81.16","SVARTEVAEG","2403833","2018-04-16 03:00","2018","04","16","03:00","-27.0","","-29.6","","78","","","M","19","","3","","","","101.26","","","","-30","","NA"
"-91.82","81.16","SVARTEVAEG","2403833","2018-04-16 04:00","2018","04","16","04:00","-27.3","","-30.0","","78","","","M","21","","8","","","","101.30","","","","-35","","NA"
"-91.82","81.16","SVARTEVAEG","2403833","2018-04-16 05:00","2018","04","16","05:00","-28.3","","-31.1","","77","","","M","22","","12","","","","101.33","","","","-38","","NA"
"-91.82","81.16","SVARTEVAEG","2403833","2018-04-16 06:00","2018","04","16","06:00","-27.6","","-30.3","","78","","","M","22","","16","","","","101.35","","","","-39","","NA"
"-91.82","81.16","SVARTEVAEG","2403833","2018-04-16 07:00","2018","04","16","07:00","-27.6","","-30.2","","78","","","M","22","","13","","","","101.36","","","","-38","","NA"
"-91.82","81.16","SVARTEVAEG","2403833","2018-04-16 08:00","2018","04","16","08:00","-28.2","","-31.0","","77","","","M","21","","12","","","","101.38","","","","-38","","NA"
"-91.82","81.16","SVARTEVAEG","2403833","2018-04-16 09:00","2018","04","16","09:00","-27.3","","-29.9","","78","","","M","21","","11","","","","101.37","","","","-36","","NA"
"-91.82","81.16","SVARTEVAEG","2403833","2018-04-16 10:00","2018","04","16","10:00","-27.4","","-30.1","","78","","","M","23","","13","","","","101.37","","","","-37","","NA"
"-91.82","81.16","SVARTEVAEG","2403833","2018-04-16 11:00","2018","04","16","11:00","-26.4","","-28.9","","79","","","M","22","","11","","","","101.38","","","","-35","","NA"
"-91.82","81.16","SVARTEVAEG","2403833","2018-04-16 12:00","2018","04","16","12:00","-26.5","","-29.1","","79","","","M","20","","9","","","","101.37","","","","-34","","NA"
"-91.82","81.16","SVARTEVAEG","2403833","2018-04-16 13:00","2018","04","16","13:00","-25.9","","-28.4","","80","","","M","19","","6","","","","101.39","","","","-32","","NA"
"-91.82","81.16","SVARTEVAEG","2403833","2018-04-16 14:00","2018","04","16","14:00","-26.4","","-28.9","","79","","","M","22","","7","","","","101.42","","","","-33","","NA"
"-91.82","81.16","SVARTEVAEG","2403833","2018-04-16 15:00","2018","04","16","15:00","-26.2","","-28.7","","79","","","M","21","","5","","","","101.44","","","","-31","","NA"
"-91.82","81.16","SVARTEVAEG","2403833","2018-04-16 16:00","2018","04","16","16:00","-26.4","","-28.9","","79","","","M","21","","6","","","","101.44","","","","-32","","NA"
"-91.82","81.16","SVARTEVAEG","2403833","2018-04-16 17:00","2018","04","16","17:00","-26.2","","-28.8","","79","","","M","21","","4","","","","101.45","","","","-30","","NA"
"-91.82","81.16","SVARTEVAEG","2403833","2018-04-16 18:00","2018","04","16","18:00","-26.2","","-28.7","","79","","","M","15","","1","","","","101.48","","","","-27","","NA"
"-91.82","81.16","SVARTEVAEG","2403833","2018-04-16 19:00","2018","04","16","19:00","-26.5","","-29.1","","79","","","M","29","","2","","","","101.48","","","","-29","","NA"
"-91.82","81.16","SVARTEVAEG","2403833","2018-04-16 20:00","2018","04","16","20:00","-26.6","","-29.1","","79","","","M","0","","1","","","","101.48","","","","-28","","NA"
"-91.82","81.16","SVARTEVAEG","2403833","2018-04-16 21:00","2018","04","16","21:00","-26.5","","-29.1","","79","","","M","32","","2","","","","101.48","","","","-29","","NA"
"-91.82","81.16","SVARTEVAEG","2403833","2018-04-16 22:00","2018","04","16","22:00","-26.6","","-29.2","","79","","","M","1","","4","","","","101.52","","","","-31","","NA"
"-91.82","81.16","SVARTEVAEG","2403833","2018-04-16 23:00","2018","04","16","23:00","-27.6","","-30.4","","77","","","M","2","","6","","","","101.52","","","","-34","","NA"
"-91.82","81.16","SVARTEVAEG","2403833","2018-04-17 00:00","2018","04","17","00:00","-27.2","","-29.9","","78","","","M","4","","4","","","","101.55","","","","-31","","NA"
"-91.82","81.16","SVARTEVAEG","2403833","2018-04-17 01:00","2018","04","17","01:00","-28.1","","-30.9","","77","","","M","2","","6","","","","101.59","","","","-34","","NA"
"-91.82","81.16","SVARTEVAEG","2403833","2018-04-17 02:00","2018","04","17","02:00","-28.5","","-31.3","","77","","","M","4","","6","","","","101.62","","","","-35","","NA"
"-91.82","81.16","SVARTEVAEG","2403833","2018-04-17 03:00","2018","04","17","03:00","-28.5","","-31.3","","77","","","M","2","","7","","","","101.64","","","","-36","","NA"
"-91.82","81.16","SVARTEVAEG","2403833","2018-04-17 04:00","2018","04","17","04:00","-29.0","","-31.9","","76","","","M","3","","8","","","","101.66","","","","-37","","NA"
"-91.82","81.16","SVARTEVAEG","2403833","2018-04-17 05:00","2018","04","17","05:00","-29.0","","-31.8","","76","","","M","3","","7","","","","101.69","","","","-36","","NA"
"-91.82","81.16","SVARTEVAEG","2403833","2018-04-17 06:00","2018","04","17","06:00","-28.2","","-30.9","","77","","","M","1","","9","","","","101.67","","","","-36","","NA"
"-91.82","81.16","SVARTEVAEG","2403833","2018-04-17 07:00","2018","04","17","07:00","-29.4","","-32.4","","76","","","M","2","","12","","","","101.70","","","","-39","","NA"
"-91.82","81.16","SVARTEVAEG","2403833","2018-04-17 08:00","2018","04","17","08:00","-29.7","","-32.6","","76","","","M","3","","10","","","","101.72","","","","-39","","NA"
"-91.82","81.16","SVARTEVAEG","2403833","2018-04-17 09:00","2018","04","17","09:00","-28.0","","-30.7","","78","","","M","7","","5","","","","101.71","","","","-33","","NA"
"-91.82","81.16","SVARTEVAEG","2403833","2018-04-17 10:00","2018","04","17","10:00","-26.7","","-29.3","","79","","","M","0","","1","","","","101.71","","","","-28","","NA"
"-91.82","81.16","SVARTEVAEG","2403833","2018-04-17 11:00","2018","04","17","11:00","-23.9","","-26.1","","82","","","M","18","","1","","","","101.70","","","","-25","","NA"
"-91.82","81.16","SVARTEVAEG","2403833","2018-04-17 12:00","2018","04","17","12:00","-23.0","","-25.0","","83","","","M","0","","1","","","","101.71","","","","-24","","NA"
"-91.82","81.16","SVARTEVAEG","2403833","2018-04-17 13:00","2018","04","17","13:00","-24.4","","-26.8","","81","","","M","5","","3","","","","101.72","","","","-27","","NA"
"-91.82","81.16","SVARTEVAEG","2403833","2018-04-17 14:00","2018","04","17","14:00","-25.7","","-28.1","","80","","","M","5","","4","","","","101.75","","","","-30","","NA"
"-91.82","81.16","SVARTEVAEG","2403833","2018-04-17 15:00","2018","04","17","15:00","-25.4","","-27.8","","80","","","M","2","","3","","","","101.76","","","","-28","","NA"
"-91.82","81.16","SVARTEVAEG","2403833","2018-04-17 16:00","2018","04","17","16:00","-25.9","","-28.3","","80","","","M","7","","4","","","","101.77","","","","-30","","NA"
"-91.82","81.16","SVARTEVAEG","2403833","2018-04-17 17:00","2018","04","17","17:00","-26.9","","-29.6","","78","","","M","3","","4","","","","101.78","","","","-31","","NA"
"-91.82","81.16","SVARTEVAEG","2403833","2018-04-17 18:00","2018","04","17","18:00","-27.5","","-30.1","","78","","","M","3","","5","","","","101.78","","","","-33","","NA"
"-91.82","81.16","SVARTEVAEG","2403833","2018-04-17 19:00","2018","04","17","19:00","-27.7","","-30.4","","78","","","M","33","","2","","","","101.78","","","","-30","","NA"
"-91.82","81.16","SVARTEVAEG","2403833","2018-04-17 20:00","2018","04","17","20:00","-27.1","","-29.7","","78","","","M","35","","2","","","","101.78","","","","-29","","NA"
"-91.82","81.16","SVARTEVAEG","2403833","2018-04-17 21:00","2018","04","17","21:00","-27.0","","-29.7","","78","","","M","1","","4","","","","101.77","","","","-31","","NA"
"-91.82","81.16","SVARTEVAEG","2403833","2018-04-17 22:00","2018","04","17","22:00","-29.5","","-32.5","","75","","","M","1","","8","","","","101.77","","","","-37","","NA"
"-91.82","81.16","SVARTEVAEG","2403833","2018-04-17 23:00","2018","04","17","23:00","-28.4","","-31.2","","77","","","M","3","","4","","","","101.76","","","","-33","","NA"
"-91.82","81.16","SVARTEVAEG","2403833","2018-04-18 00:00","2018","04","18","00:00","-27.1","","-29.7","","78","","","M","25","","3","","","","101.75","","","","-30","","NA"
"-91.82","81.16","SVARTEVAEG","2403833","2018-04-18 01:00","2018","04","18","01:00","-25.5","","-27.9","","80","","","M","20","","3","","","","101.76","","","","-29","","NA"
"-91.82","81.16","SVARTEVAEG","2403833","2018-04-18 02:00","2018","04","18","02:00","-27.7","","-30.4","","77","","","M","25","","3","","","","101.79","","","","-31","","NA"
"-91.82","81.16","SVARTEVAEG","2403833","2018-04-18 03:00","2018","04","18","03:00","-28.1","","-30.8","","77","","","M","21","","13","","","","101.81","","","","-38","","NA"
"-91.82","81.16","SVARTEVAEG","2403833","2018-04-18 04:00","2018","04","18","04:00","-26.8","","-29.4","","79","","","M","22","","6","","","","101.81","","","","-33","","NA"
"-91.82","81.16","SVARTEVAEG","2403833","2018-04-18 05:00","2018","04","18","05:00","-27.8","","-30.5","","78","","","M","22","","14","","","","101.78","","","","-38","","NA"
"-91.82","81.16","SVARTEVAEG","2403833","2018-04-18 06:00","2018","04","18","06:00","-27.8","","-30.6","","77","","","M","22","","20","","","","101.78","","","","-40","","NA"
"-91.82","81.16","SVARTEVAEG","2403833","2018-04-18 07:00","2018","04","18","07:00","-28.5","","-31.3","","77","","","M","22","","21","","","","101.75","","","","-41","","NA"
"-91.82","81.16","SVARTEVAEG","2403833","2018-04-18 08:00","2018","04","18","08:00","-27.6","","-30.3","","78","","","M","22","","19","","","","101.76","","","","-40","","NA"
"-91.82","81.16","SVARTEVAEG","2403833","2018-04-18 09:00","2018","04","18","09:00","-26.9","","-29.5","","78","","","M","22","","20","","","","101.74","","","","-39","","NA"
"-91.82","81.16","SVARTEVAEG","2403833","2018-04-18 10:00","2018","04","18","10:00","-27.1","","-29.7","","78","","","M","22","","22","","","","101.73","","","","-40","","NA"
"-91.82","81.16","SVARTEVAEG","2403833","2018-04-18 11:00","2018","04","18","11:00","-26.4","","-28.9","","79","","","M","22","","19","","","","101.74","","","","-38","","NA"
"-91.82","81.16","SVARTEVAEG","2403833","2018-04-18 12:00","2018","04","18","12:00","-27.7","","-30.4","","78","","","M","22","","15","","","","101.74","","","","-39","","NA"
"-91.82","81.16","SVARTEVAEG","2403833","2018-04-18 13:00","2018","04","18","13:00","-27.6","","-30.3","","78","","","M","22","","23","","","","101.73","","","","-41","","NA"
"-91.82","81.16","SVARTEVAEG","2403833","2018-04-18 14:00","2018","04","18","14:00","-27.5","","-30.2","","78","","","M","22","","25","","","","101.72","","","","-41","","NA"
"-91.82","81.16","SVARTEVAEG","2403833","2018-04-18 15:00","2018","04","18","15:00","-27.3","","-30.0","","78","","","M","22","","23","","","","101.73","","","","-41","","NA"
"-91.82","81.16","SVARTEVAEG","2403833","2018-04-18 16:00","2018","04","18","16:00","-27.4","","-30.1","","78","","","M","22","","21","","","","101.72","","","","-40","","NA"
"-91.82","81.16","SVARTEVAEG","2403833","2018-04-18 17:00","2018","04","18","17:00","-27.7","","-30.4","","78","","","M","22","","19","","","","101.69","","","","-40","","NA"
"-91.82","81.16","SVARTEVAEG","2403833","2018-04-18 18:00","2018","04","18","18:00","-28.3","","-31.1","","77","","","M","22","","18","","","","101.66","","","","-40","","NA"
"-91.82","81.16","SVARTEVAEG","2403833","2018-04-18 19:00","2018","04","18","19:00","-28.5","","-31.3","","77","","","M","22","","18","","","","101.65","","","","-41","","NA"
"-91.82","81.16","SVARTEVAEG","2403833","2018-04-18 20:00","2018","04","18","20:00","-28.6","","-31.4","","77","","","M","22","","17","","","","101.63","","","","-40","","NA"
"-91.82","81.16","SVARTEVAEG","2403833","2018-04-18 21:00","2018","04","18","21:00","-29.6","","-32.5","","75","","","M","22","","22","","","","101.61","","","","-43","","NA"
"-91.82","81.16","SVARTEVAEG","2403833","2018-04-18 22:00","2018","04","18","22:00","-29.8","","-32.8","","75","","","M","23","","13","","","","101.61","","","","-40","","NA"
"-91.82","81.16","SVARTEVAEG","2403833","2018-04-18 23:00","2018","04","18","23:00","-29.7","","-32.6","","75","","","M","22","","10","","","","101.60","","","","-39","","NA"
"-91.82","81.16","SVARTEVAEG","2403833","2018-04-19 00:00","2018","04","19","00:00","-29.6","","-32.5","","75","","","M","22","","14","","","","101.60","","","","-41","","NA"
"-91.82","81.16","SVARTEVAEG","2403833","2018-04-19 01:00","2018","04","19","01:00","-29.1","","-32.0","","76","","","M","22","","14","","","","101.59","","","","-40","","NA"
"-91.82","81.16","SVARTEVAEG","2403833","2018-04-19 02:00","2018","04","19","02:00","-28.8","","-31.7","","76","","","M","23","","15","","","","101.56","","","","-40","","NA"
"-91.82","81.16","SVARTEVAEG","2403833","2018-04-19 03:00","2018","04","19","03:00","-29.0","","-31.9","","76","","","M","22","","13","","","","101.55","","","","-39","","NA"
"-91.82","81.16","SVARTEVAEG","2403833","2018-04-19 04:00","2018","04","19","04:00","-29.5","","-32.5","","75","","","M","22","","12","","","","101.56","","","","-40","","NA"
"-91.82","81.16","SVARTEVAEG","2403833","2018-04-19 05:00","2018","04","19","05:00","-29.4","","-32.3","","76","","","M","21","","14","","","","101.51","","","","-40","","NA"
"-91.82","81.16","SVARTEVAEG","2403833","2018-04-19 06:00","2018","04","19","06:00","-29.5","","-32.5","","76","","","M","22","","12","","","","101.48","","","","-40","","NA"
"-91.82","81.16","SVARTEVAEG","2403833","2018-04-19 07:00","2018","04","19","07:00","-29.3","","-32.2","","76","","","M","21","","10","","","","101.44","","","","-38","","NA"
"-91.82","81.16","SVARTEVAEG","2403833","2018-04-19 08:00","2018","04","19","08:00","-28.4","","-31.2","","77","","","M","22","","14","","","","101.37","","","","-39","","NA"
"-91.82","81.16","SVARTEVAEG","2403833","2018-04-19 09:00","2018","04","19","09:00","-27.2","","-29.9","","78","","","M","22","","11","","","","101.32","","","","-36","","NA"
"-91.82","81.16","SVARTEVAEG","2403833","2018-04-19 10:00","2018","04","19","10:00","-26.2","","-28.7","","79","","","M","19","","6","","","","101.27","","","","-32","","NA"
"-91.82","81.16","SVARTEVAEG","2403833","2018-04-19 11:00","2018","04","19","11:00","-25.9","","-28.4","","79","","","M","19","","8","","","","101.19","","","","-33","","NA"
"-91.82","81.16","SVARTEVAEG","2403833","2018-04-19 12:00","2018","04","19","12:00","-25.2","","-27.6","","80","","","M","21","","13","","","","101.11","","","","-35","","NA"
"-91.82","81.16","SVARTEVAEG","2403833","2018-04-19 13:00","2018","04","19","13:00","","","-27.0","","81","","","M","20","","10","","","","101.04","","","","","","NA"
"-91.82","81.16","SVARTEVAEG","2403833","2018-04-19 14:00","2018","04","19","14:00","","","-27.2","","81","","","M","22","","11","","","","100.99","","","","","","NA"
"-91.82","81.16","SVARTEVAEG","2403833","2018-04-19 15:00","2018","04","19","15:00","","","-27.7","","80","","","M","21","","12","","","","100.94","","","","","","NA"
"-91.82","81.16","SVARTEVAEG","2403833","2018-04-19 16:00","2018","04","19","16:00","","","-28.2","","80","","","M","21","","10","","","","100.88","","","","","","NA"
"-91.82","81.16","SVARTEVAEG","2403833","2018-04-19 17:00","2018","04","19","17:00","","","-28.1","","80","","","M","22","","7","","","","100.82","","","","","","NA"
"-91.82","81.16","SVARTEVAEG","2403833","2018-04-19 18:00","2018","04","19","18:00","","","-28.0","","80","","","M","22","","3","","","","100.74","","","","","","NA"
"-91.82","81.16","SVARTEVAEG","2403833","2018-04-19 19:00","2018","04","19","19:00","","","-28.1","","80","","","M","22","","4","","","","100.70","","","","","","NA"
"-91.82","81.16","SVARTEVAEG","2403833","2018-04-19 20:00","2018","04","19","20:00","","","-28.6","","79","","","M","22","","8","","","","100.66","","","","","","NA"
"-91.82","81.16","SVARTEVAEG","2403833","2018-04-19 21:00","2018","04","19","21:00","","","-28.9","","79","","","M","22","","13","","","","100.61","","","","","","NA"
"-91.82","81.16","SVARTEVAEG","2403833","2018-04-19 22:00","2018","04","19","22:00","","","-29.6","","78","","","M","21","","13","","","","100.55","","","","","","NA"
"-91.82","81.16","SVARTEVAEG","2403833","2018-04-19 23:00","2018","04","19","23:00","","","-29.8","","78","","","M","21","","14","","","","100.53","","","","","","NA"
"-91.82","81.16","SVARTEVAEG","2403833","2018-04-20 00:00","2018","04","20","00:00","","","-30.2","","77","","","M","21","","13","","","","100.53","","","","","","NA"
"-91.82","81.16","SVARTEVAEG","2403833","2018-04-20 01:00","2018","04","20","01:00","","","-29.9","","78","","","M","21","","15","","","","100.52","","","","","","NA"
"-91.82","81.16","SVARTEVAEG","2403833","2018-04-20 02:00","2018","04","20","02:00","","","-29.2","","79","","","M","22","","19","","","","100.48","","","","","","NA"
"-91.82","81.16","SVARTEVAEG","2403833","2018-04-20 03:00","2018","04","20","03:00","","","-28.4","","79","","","M","22","","24","","","","100.45","","","","","","NA"
"-91.82","81.16","SVARTEVAEG","2403833","2018-04-20 04:00","2018","04","20","04:00","","","-28.4","","79","","","M","22","","21","","","","100.45","","","","","","NA"
"-91.82","81.16","SVARTEVAEG","2403833","2018-04-20 05:00","2018","04","20","05:00","","","-28.8","","79","","","M","23","","12","","","","100.43","","","","","","NA"
"-91.82","81.16","SVARTEVAEG","2403833","2018-04-20 06:00","2018","04","20","06:00","","","-28.8","","79","","","M","25","","14","","","","100.40","","","","","","NA"
"-91.82","81.16","SVARTEVAEG","2403833","2018-04-20 07:00","2018","04","20","07:00","","","-27.8","","80","","","M","22","","20","","","","100.37","","","","","","NA"
"-91.82","81.16","SVARTEVAEG","2403833","2018-04-20 08:00","2018","04","20","08:00","","","-27.7","","80","","","M","22","","19","","","","100.35","","","","","","NA"
"-91.82","81.16","SVARTEVAEG","2403833","2018-04-20 09:00","2018","04","20","09:00","-23.8","","-26.1","","81","","","M","22","","21","","","","100.32","","","","-36","","NA"
"-91.82","81.16","SVARTEVAEG","2403833","2018-04-20 10:00","2018","04","20","10:00","-22.9","","-25.1","","82","","","M","21","","23","","","","100.28","","","","-35","","NA"
"-91.82","81.16","SVARTEVAEG","2403833","2018-04-20 11:00","2018","04","20","11:00","-22.5","","-24.7","","82","","","M","22","","22","","","","100.22","","","","-34","","NA"
"-91.82","81.16","SVARTEVAEG","2403833","2018-04-20 12:00","2018","04","20","12:00","-21.0","","-22.9","","84","","","M","21","","20","","","","100.20","","","","-32","","NA"
"-91.82","81.16","SVARTEVAEG","2403833","2018-04-20 13:00","2018","04","20","13:00","-20.9","","-22.9","","84","","","M","22","","20","","","","100.16","","","","-32","","NA"
"-91.82","81.16","SVARTEVAEG","2403833","2018-04-20 14:00","2018","04","20","14:00","-20.3","","-22.2","","85","","","M","22","","20","","","","100.13","","","","-31","","NA"
"-91.82","81.16","SVARTEVAEG","2403833","2018-04-20 15:00","2018","04","20","15:00","-20.7","","-22.6","","84","","","M","21","","17","","","","100.13","","","","-31","","NA"
"-91.82","81.16","SVARTEVAEG","2403833","2018-04-20 16:00","2018","04","20","16:00","-20.5","","-22.4","","84","","","M","22","","16","","","","100.12","","","","-30","","NA"
"-91.82","81.16","SVARTEVAEG","2403833","2018-04-20 17:00","2018","04","20","17:00","-19.8","","-21.6","","85","","","M","22","","21","","","","100.10","","","","-30","","NA"
"-91.82","81.16","SVARTEVAEG","2403833","2018-04-20 18:00","2018","04","20","18:00","-19.7","","-21.6","","85","","","M","22","","22","","","","100.10","","","","-31","","NA"
"-91.82","81.16","SVARTEVAEG","2403833","2018-04-20 19:00","2018","04","20","19:00","-18.8","","-20.5","","86","","","M","23","","18","","","","100.11","","","","-28","","NA"
"-91.82","81.16","SVARTEVAEG","2403833","2018-04-20 20:00","2018","04","20","20:00","-19.4","","-21.3","","85","","","M","20","","15","","","","100.11","","","","-28","","NA"
"-91.82","81.16","SVARTEVAEG","2403833","2018-04-20 21:00","2018","04","20","21:00","-15.5","","-16.9","","89","","","M","30","","35","","","","100.06","","","","-27","","NA"
"-91.82","81.16","SVARTEVAEG","2403833","2018-04-20 22:00","2018","04","20","22:00","-15.7","","-17.2","","89","","","M","31","","45","","","","100.05","","","","-29","","NA"
"-91.82","81.16","SVARTEVAEG","2403833","2018-04-20 23:00","2018","04","20","23:00","-16.7","","-18.3","","88","","","M","30","","45","","","","100.09","","","","-30","","NA"
"-91.82","81.16","SVARTEVAEG","2403833","2018-04-21 00:00","2018","04","21","00:00","-17.4","","-19.0","","87","","","M","30","","50","","","","100.11","","","","-32","","NA"
"-91.82","81.16","SVARTEVAEG","2403833","2018-04-21 01:00","2018","04","21","01:00","-19.3","","-21.1","","86","","","M","29","","52","","","","100.20","","","","-35","","NA"
"-91.82","81.16","SVARTEVAEG","2403833","2018-04-21 02:00","2018","04","21","02:00","-19.7","","-21.5","","85","","","M","29","","45","","","","100.26","","","","-34","","NA"
"-91.82","81.16","SVARTEVAEG","2403833","2018-04-21 03:00","2018","04","21","03:00","-19.9","","-21.8","","85","","","M","30","","37","","","","100.34","","","","-34","","NA"
"-91.82","81.16","SVARTEVAEG","2403833","2018-04-21 04:00","2018","04","21","04:00","-20.3","","-22.3","","85","","","M","30","","40","","","","100.37","","","","-35","","NA"
"-91.82","81.16","SVARTEVAEG","2403833","2018-04-21 05:00","2018","04","21","05:00","-20.7","","-22.7","","84","","","M","31","","38","","","","100.42","","","","-35","","NA"
"-91.82","81.16","SVARTEVAEG","2403833","2018-04-21 06:00","2018","04","21","06:00","-21.2","","-23.2","","84","","","M","31","","33","","","","100.43","","","","-35","","NA"
"-91.82","81.16","SVARTEVAEG","2403833","2018-04-21 07:00","2018","04","21","07:00","-21.2","","-23.1","","84","","","M","30","","32","","","","100.44","","","","-34","","NA"
"-91.82","81.16","SVARTEVAEG","2403833","2018-04-21 08:00","2018","04","21","08:00","-21.1","","-23.1","","84","","","M","28","","31","","","","100.47","","","","-34","","NA"
"-91.82","81.16","SVARTEVAEG","2403833","2018-04-21 09:00","2018","04","21","09:00","-21.3","","-23.2","","84","","","M","32","","26","","","","100.52","","","","-33","","NA"
"-91.82","81.16","SVARTEVAEG","2403833","2018-04-21 10:00","2018","04","21","10:00","-20.9","","-22.8","","85","","","M","30","","27","","","","100.54","","","","-33","","NA"
"-91.82","81.16","SVARTEVAEG","2403833","2018-04-21 11:00","2018","04","21","11:00","-21.1","","-23.0","","85","","","M","30","","28","","","","100.56","","","","-34","","NA"
"-91.82","81.16","SVARTEVAEG","2403833","2018-04-21 12:00","2018","04","21","12:00","-21.2","","-23.1","","84","","","M","28","","29","","","","100.59","","","","-34","","NA"
"-91.82","81.16","SVARTEVAEG","2403833","2018-04-21 13:00","2018","04","21","13:00","-20.9","","-22.8","","85","","","M","28","","29","","","","100.62","","","","-34","","NA"
"-91.82","81.16","SVARTEVAEG","2403833","2018-04-21 14:00","2018","04","21","14:00","-21.1","","-23.0","","85","","","M","29","","29","","","","100.66","","","","-34","","NA"
"-91.82","81.16","SVARTEVAEG","2403833","2018-04-21 15:00","2018","04","21","15:00","-21.4","","-23.4","","84","","","M","28","","26","","","","100.68","","","","-34","","NA"
"-91.82","81.16","SVARTEVAEG","2403833","2018-04-21 16:00","2018","04","21","16:00","-21.9","","-24.0","","84","","","M","29","","26","","","","100.70","","","","-34","","NA"
"-91.82","81.16","SVARTEVAEG","2403833","2018-04-21 17:00","2018","04","21","17:00","-21.2","","-23.1","","84","","","M","27","","8","","","","100.74","","","","-28","","NA"
"-91.82","81.16","SVARTEVAEG","2403833","2018-04-21 18:00","2018","04","21","18:00","-21.6","","-23.6","","84","","","M","29","","8","","","","100.77","","","","-28","","NA"
"-91.82","81.16","SVARTEVAEG","2403833","2018-04-21 19:00","2018","04","21","19:00","-21.5","","-23.5","","84","","","M","27","","10","","","","100.76","","","","-29","","NA"
"-91.82","81.16","SVARTEVAEG","2403833","2018-04-21 20:00","2018","04","21","20:00","-23.4","","-25.6","","82","","","M","24","","11","","","","100.76","","","","-32","","NA"
"-91.82","81.16","SVARTEVAEG","2403833","2018-04-21 21:00","2018","04","21","21:00","-22.4","","-24.5","","83","","","M","24","","8","","","","100.75","","","","-29","","NA"
"-91.82","81.16","SVARTEVAEG","2403833","2018-04-21 22:00","2018","04","21","22:00","-22.0","","-24.1","","83","","","M","24","","6","","","","100.73","","","","-27","","NA"
"-91.82","81.16","SVARTEVAEG","2403833","2018-04-21 23:00","2018","04","21","23:00","-23.2","","-25.4","","82","","","M","21","","7","","","","100.73","","","","-29","","NA"
"-91.82","81.16","SVARTEVAEG","2403833","2018-04-22 00:00","2018","04","22","00:00","-22.7","","-24.8","","83","","","M","21","","8","","","","100.71","","","","-29","","NA"
"-91.82","81.16","SVARTEVAEG","2403833","2018-04-22 01:00","2018","04","22","01:00","-22.8","","-24.9","","83","","","M","22","","8","","","","100.68","","","","-30","","NA"
"-91.82","81.16","SVARTEVAEG","2403833","2018-04-22 02:00","2018","04","22","02:00","-22.7","","-24.8","","83","","","M","17","","1","","","","100.68","","","","-24","","NA"
"-91.82","81.16","SVARTEVAEG","2403833","2018-04-22 03:00","2018","04","22","03:00","-22.6","","-24.7","","83","","","M","","","0","","","","100.67","","","","","","NA"
"-91.82","81.16","SVARTEVAEG","2403833","2018-04-22 04:00","2018","04","22","04:00","-23.3","","-25.4","","82","","","M","2","","4","","","","100.65","","","","-27","","NA"
"-91.82","81.16","SVARTEVAEG","2403833","2018-04-22 05:00","2018","04","22","05:00","-23.4","","-25.5","","82","","","M","3","","6","","","","100.63","","","","-29","","NA"
"-91.82","81.16","SVARTEVAEG","2403833","2018-04-22 06:00","2018","04","22","06:00","-22.7","","-24.8","","83","","","M","4","","3","","","","100.59","","","","-25","","NA"
"-91.82","81.16","SVARTEVAEG","2403833","2018-04-22 07:00","2018","04","22","07:00","-22.6","","-24.7","","83","","","M","2","","3","","","","100.56","","","","-25","","NA"
"-91.82","81.16","SVARTEVAEG","2403833","2018-04-22 08:00","2018","04","22","08:00","-23.5","","-25.7","","82","","","M","3","","8","","","","100.52","","","","-30","","NA"
"-91.82","81.16","SVARTEVAEG","2403833","2018-04-22 09:00","2018","04","22","09:00","-24.5","","-26.8","","81","","","M","1","","8","","","","100.48","","","","-32","","NA"
"-91.82","81.16","SVARTEVAEG","2403833","2018-04-22 10:00","2018","04","22","10:00","-24.8","","-27.1","","81","","","M","1","","14","","","","100.44","","","","-35","","NA"
"-91.82","81.16","SVARTEVAEG","2403833","2018-04-22 11:00","2018","04","22","11:00","-24.4","","-26.6","","82","","","M","2","","17","","","","100.42","","","","-35","","NA"
"-91.82","81.16","SVARTEVAEG","2403833","2018-04-22 12:00","2018","04","22","12:00","-22.7","","-24.7","","83","","","M","1","","20","","","","100.39","","","","-34","","NA"
"-91.82","81.16","SVARTEVAEG","2403833","2018-04-22 13:00","2018","04","22","13:00","-20.8","","-22.7","","85","","","M","1","","22","","","","100.33","","","","-32","","NA"
"-91.82","81.16","SVARTEVAEG","2403833","2018-04-22 14:00","2018","04","22","14:00","-22.2","","-24.2","","84","","","M","2","","21","","","","100.33","","","","-34","","NA"
"-91.82","81.16","SVARTEVAEG","2403833","2018-04-22 15:00","2018","04","22","15:00","-23.1","","-25.3","","83","","","M","2","","20","","","","100.32","","","","-34","","NA"
"-91.82","81.16","SVARTEVAEG","2403833","2018-04-22 16:00","2018","04","22","16:00","-23.6","","-25.8","","82","","","M","2","","24","","","","100.28","","","","-36","","NA"
"-91.82","81.16","SVARTEVAEG","2403833","2018-04-22 17:00","2018","04","22","17:00","-23.8","","-26.1","","82","","","M","1","","23","","","","100.26","","","","-36","","NA"
"-91.82","81.16","SVARTEVAEG","2403833","2018-04-22 18:00","2018","04","22","18:00","-23.7","","-25.9","","82","","","M","2","","23","","","","100.23","","","","-36","","NA"
"-91.82","81.16","SVARTEVAEG","2403833","2018-04-22 19:00","2018","04","22","19:00","-23.8","","-26.1","","81","","","M","2","","24","","","","100.21","","","","-36","","NA"
"-91.82","81.16","SVARTEVAEG","2403833","2018-04-22 20:00","2018","04","22","20:00","-23.8","","-26.1","","81","","","M","1","","20","","","","100.17","","","","-35","","NA"
"-91.82","81.16","SVARTEVAEG","2403833","2018-04-22 21:00","2018","04","22","21:00","-24.1","","-26.4","","81","","","M","2","","21","","","","100.17","","","","-36","","NA"
"-91.82","81.16","SVARTEVAEG","2403833","2018-04-22 22:00","2018","04","22","22:00","-24.4","","-26.8","","81","","","M","1","","18","","","","100.14","","","","-35","","NA"
"-91.82","81.16","SVARTEVAEG","2403833","2018-04-22 23:00","2018","04","22","23:00","-24.6","","-27.0","","81","","","M","1","","22","","","","100.12","","","","-37","","NA"
"-91.82","81.16","SVARTEVAEG","2403833","2018-04-23 00:00","2018","04","23","00:00","-23.4","","-25.6","","82","","","M","36","","15","","","","100.08","","","","-33","","NA"
"-91.82","81.16","SVARTEVAEG","2403833","2018-04-23 01:00","2018","04","23","01:00","-25.0","","-27.5","","80","","","M","1","","17","","","","100.09","","","","-36","","NA"
"-91.82","81.16","SVARTEVAEG","2403833","2018-04-23 02:00","2018","04","23","02:00","-25.4","","-27.9","","80","","","M","2","","17","","","","100.06","","","","-36","","NA"
"-91.82","81.16","SVARTEVAEG","2403833","2018-04-23 03:00","2018","04","23","03:00","-25.6","","-28.0","","80","","","M","2","","15","","","","100.05","","","","-36","","NA"
"-91.82","81.16","SVARTEVAEG","2403833","2018-04-23 04:00","2018","04","23","04:00","-24.7","","-27.1","","81","","","M","2","","16","","","","100.04","","","","-35","","NA"
"-91.82","81.16","SVARTEVAEG","2403833","2018-04-23 05:00","2018","04","23","05:00","-23.9","","-26.2","","82","","","M","1","","17","","","","100.03","","","","-35","","NA"
"-91.82","81.16","SVARTEVAEG","2403833","2018-04-23 06:00","2018","04","23","06:00","-23.8","","-26.0","","82","","","M","1","","15","","","","100.02","","","","-34","","NA"
"-91.82","81.16","SVARTEVAEG","2403833","2018-04-23 07:00","2018","04","23","07:00","-24.3","","-26.7","","81","","","M","1","","23","","","","100.00","","","","-37","","NA"
"-91.82","81.16","SVARTEVAEG","2403833","2018-04-23 08:00","2018","04","23","08:00","-24.9","","-27.2","","81","","","M","2","","22","","","","99.98","","","","-37","","NA"
"-91.82","81.16","SVARTEVAEG","2403833","2018-04-23 09:00","2018","04","23","09:00","-24.4","","-26.8","","81","","","M","1","","18","","","","99.97","","","","-35","","NA"
"-91.82","81.16","SVARTEVAEG","2403833","2018-04-23 10:00","2018","04","23","10:00","-23.7","","-26.0","","82","","","M","1","","21","","","","99.95","","","","-35","","NA"
"-91.82","81.16","SVARTEVAEG","2403833","2018-04-23 11:00","2018","04","23","11:00","-23.9","","-26.1","","82","","","M","2","","25","","","","99.95","","","","-37","","NA"
"-91.82","81.16","SVARTEVAEG","2403833","2018-04-23 12:00","2018","04","23","12:00","-23.4","","-25.7","","82","","","M","1","","26","","","","99.94","","","","-36","","NA"
"-91.82","81.16","SVARTEVAEG","2403833","2018-04-23 13:00","2018","04","23","13:00","-22.8","","-24.9","","83","","","M","1","","20","","","","99.93","","","","-34","","NA"
"-91.82","81.16","SVARTEVAEG","2403833","2018-04-23 14:00","2018","04","23","14:00","-22.6","","-24.7","","83","","","M","1","","22","","","","99.93","","","","-34","","NA"
"-91.82","81.16","SVARTEVAEG","2403833","2018-04-23 15:00","2018","04","23","15:00","-22.8","","-24.9","","82","","","M","1","","28","","","","99.92","","","","-36","","NA"
"-91.82","81.16","SVARTEVAEG","2403833","2018-04-23 16:00","2018","04","23","16:00","-22.6","","-24.8","","83","","","M","1","","28","","","","99.94","","","","-36","","NA"
"-91.82","81.16","SVARTEVAEG","2403833","2018-04-23 17:00","2018","04","23","17:00","-22.2","","-24.3","","83","","","M","1","","19","","","","99.91","","","","-33","","NA"
"-91.82","81.16","SVARTEVAEG","2403833","2018-04-23 18:00","2018","04","23","18:00","-21.6","","-23.6","","84","","","M","35","","11","","","","99.92","","","","-30","","NA"
"-91.82","81.16","SVARTEVAEG","2403833","2018-04-23 19:00","2018","04","23","19:00","-22.5","","-24.6","","83","","","M","1","","27","","","","99.89","","","","-35","","NA"
"-91.82","81.16","SVARTEVAEG","2403833","2018-04-23 20:00","2018","04","23","20:00","-22.5","","-24.6","","83","","","M","1","","32","","","","99.88","","","","-36","","NA"
"-91.82","81.16","SVARTEVAEG","2403833","2018-04-23 21:00","2018","04","23","21:00","-21.9","","-24.0","","83","","","M","35","","5","","","","99.89","","","","-26","","NA"
"-91.82","81.16","SVARTEVAEG","2403833","2018-04-23 22:00","2018","04","23","22:00","-22.2","","-24.3","","83","","","M","1","","8","","","","99.87","","","","-29","","NA"
"-91.82","81.16","SVARTEVAEG","2403833","2018-04-23 23:00","2018","04","23","23:00","-23.4","","-25.6","","82","","","M","1","","27","","","","99.86","","","","-36","","NA"
"-91.82","81.16","SVARTEVAEG","2403833","2018-04-24 00:00","2018","04","24","00:00","-22.9","","-25.0","","82","","","M","1","","21","","","","99.86","","","","-34","","NA"
"-91.82","81.16","SVARTEVAEG","2403833","2018-04-24 01:00","2018","04","24","01:00","-23.3","","-25.6","","82","","","M","1","","36","","","","99.87","","","","-38","","NA"
"-91.82","81.16","SVARTEVAEG","2403833","2018-04-24 02:00","2018","04","24","02:00","-22.9","","-25.1","","82","","","M","36","","21","","","","99.88","","","","-34","","NA"
"-91.82","81.16","SVARTEVAEG","2403833","2018-04-24 03:00","2018","04","24","03:00","-23.8","","-26.0","","82","","","M","1","","30","","","","99.90","","","","-38","","NA"
"-91.82","81.16","SVARTEVAEG","2403833","2018-04-24 04:00","2018","04","24","04:00","-23.9","","-26.1","","81","","","M","36","","24","","","","99.93","","","","-36","","NA"
"-91.82","81.16","SVARTEVAEG","2403833","2018-04-24 05:00","2018","04","24","05:00","-23.3","","-25.5","","82","","","M","1","","26","","","","99.92","","","","-36","","NA"
"-91.82","81.16","SVARTEVAEG","2403833","2018-04-24 06:00","2018","04","24","06:00","-23.7","","-26.0","","82","","","M","1","","32","","","","99.94","","","","-38","","NA"
"-91.82","81.16","SVARTEVAEG","2403833","2018-04-24 07:00","2018","04","24","07:00","-23.3","","-25.5","","82","","","M","36","","27","","","","99.93","","","","-36","","NA"
"-91.82","81.16","SVARTEVAEG","2403833","2018-04-24 08:00","2018","04","24","08:00","-23.1","","-25.4","","82","","","M","1","","33","","","","99.92","","","","-37","","NA"
"-91.82","81.16","SVARTEVAEG","2403833","2018-04-24 09:00","2018","04","24","09:00","-22.9","","-25.1","","82","","","M","1","","29","","","","99.93","","","","-36","","NA"
"-91.82","81.16","SVARTEVAEG","2403833","2018-04-24 10:00","2018","04","24","10:00","-22.7","","-24.8","","83","","","M","1","","33","","","","99.94","","","","-37","","NA"
"-91.82","81.16","SVARTEVAEG","2403833","2018-04-24 11:00","2018","04","24","11:00","-22.3","","-24.4","","83","","","M","1","","27","","","","99.94","","","","-35","","NA"
"-91.82","81.16","SVARTEVAEG","2403833","2018-04-24 12:00","2018","04","24","12:00","-22.0","","-24.0","","83","","","M","1","","29","","","","99.93","","","","-35","","NA"
"-91.82","81.16","SVARTEVAEG","2403833","2018-04-24 13:00","2018","04","24","13:00","-21.8","","-23.9","","84","","","M","1","","25","","","","99.94","","","","-34","","NA"
"-91.82","81.16","SVARTEVAEG","2403833","2018-04-24 14:00","2018","04","24","14:00","-21.5","","-23.5","","84","","","M","1","","24","","","","99.95","","","","-33","","NA"
"-91.82","81.16","SVARTEVAEG","2403833","2018-04-24 15:00","2018","04","24","15:00","-21.8","","-23.9","","83","","","M","1","","26","","","","99.96","","","","-34","","NA"
"-91.82","81.16","SVARTEVAEG","2403833","2018-04-24 16:00","2018","04","24","16:00","-22.1","","-24.1","","83","","","M","1","","24","","","","99.97","","","","-34","","NA"
"-91.82","81.16","SVARTEVAEG","2403833","2018-04-24 17:00","2018","04","24","17:00","-22.2","","-24.2","","83","","","M","1","","24","","","","99.99","","","","-34","","NA"
"-91.82","81.16","SVARTEVAEG","2403833","2018-04-24 18:00","2018","04","24","18:00","-22.4","","-24.5","","83","","","M","1","","21","","","","99.98","","","","-34","","NA"
"-91.82","81.16","SVARTEVAEG","2403833","2018-04-24 19:00","2018","04","24","19:00","-23.0","","-25.1","","82","","","M","1","","19","","","","99.99","","","","-34","","NA"
"-91.82","81.16","SVARTEVAEG","2403833","2018-04-24 20:00","2018","04","24","20:00","-23.1","","-25.3","","82","","","M","1","","12","","","","99.99","","","","-32","","NA"
"-91.82","81.16","SVARTEVAEG","2403833","2018-04-24 21:00","2018","04","24","21:00","-23.4","","-25.6","","82","","","M","1","","11","","","","99.97","","","","-32","","NA"
"-91.82","81.16","SVARTEVAEG","2403833","2018-04-24 22:00","2018","04","24","22:00","-23.7","","-25.9","","82","","","M","1","","15","","","","99.96","","","","-34","","NA"
"-91.82","81.16","SVARTEVAEG","2403833","2018-04-24 23:00","2018","04","24","23:00","-23.7","","-26.0","","82","","","M","2","","15","","","","99.97","","","","-34","","NA"
"-91.82","81.16","SVARTEVAEG","2403833","2018-04-25 00:00","2018","04","25","00:00","-23.9","","-26.1","","82","","","M","2","","13","","","","99.98","","","","-33","","NA"
"-91.82","81.16","SVARTEVAEG","2403833","2018-04-25 01:00","2018","04","25","01:00","-23.9","","-26.2","","81","","","M","3","","8","","","","99.99","","","","-31","","NA"
"-91.82","81.16","SVARTEVAEG","2403833","2018-04-25 02:00","2018","04","25","02:00","-23.9","","-26.1","","81","","","M","4","","4","","","","100.00","","","","-28","","NA"
"-91.82","81.16","SVARTEVAEG","2403833","2018-04-25 03:00","2018","04","25","03:00","-24.4","","-26.7","","81","","","M","22","","2","","","","99.99","","","","-26","","NA"
"-91.82","81.16","SVARTEVAEG","2403833","2018-04-25 04:00","2018","04","25","04:00","-24.9","","-27.2","","81","","","M","21","","10","","","","99.99","","","","-33","","NA"
"-91.82","81.16","SVARTEVAEG","2403833","2018-04-25 05:00","2018","04","25","05:00","-24.2","","-26.5","","81","","","M","22","","12","","","","100.01","","","","-33","","NA"
"-91.82","81.16","SVARTEVAEG","2403833","2018-04-25 06:00","2018","04","25","06:00","-23.2","","-25.4","","82","","","M","24","","13","","","","99.98","","","","-32","","NA"
"-91.82","81.16","SVARTEVAEG","2403833","2018-04-25 07:00","2018","04","25","07:00","-22.8","","-25.0","","83","","","M","23","","14","","","","99.98","","","","-32","","NA"
"-91.82","81.16","SVARTEVAEG","2403833","2018-04-25 08:00","2018","04","25","08:00","-23.1","","-25.3","","82","","","M","21","","22","","","","99.97","","","","-35","","NA"
"-91.82","81.16","SVARTEVAEG","2403833","2018-04-25 09:00","2018","04","25","09:00","-22.8","","-24.9","","83","","","M","22","","22","","","","99.96","","","","-35","","NA"
"-91.82","81.16","SVARTEVAEG","2403833","2018-04-25 10:00","2018","04","25","10:00","-22.5","","-24.6","","83","","","M","22","","20","","","","99.96","","","","-34","","NA"
"-91.82","81.16","SVARTEVAEG","2403833","2018-04-25 11:00","2018","04","25","11:00","-22.4","","-24.5","","83","","","M","23","","21","","","","99.96","","","","-34","","NA"
"-91.82","81.16","SVARTEVAEG","2403833","2018-04-25 12:00","2018","04","25","12:00","-22.7","","-24.9","","82","","","M","22","","27","","","","99.94","","","","-36","","NA"
"-91.82","81.16","SVARTEVAEG","2403833","2018-04-25 13:00","2018","04","25","13:00","-22.4","","-24.6","","83","","","M","23","","22","","","","99.95","","","","-34","","NA"
"-91.82","81.16","SVARTEVAEG","2403833","2018-04-25 14:00","2018","04","25","14:00","-21.9","","-24.0","","83","","","M","23","","20","","","","99.93","","","","-33","","NA"
"-91.82","81.16","SVARTEVAEG","2403833","2018-04-25 15:00","2018","04","25","15:00","-21.7","","-23.7","","83","","","M","22","","23","","","","99.93","","","","-33","","NA"
"-91.82","81.16","SVARTEVAEG","2403833","2018-04-25 16:00","2018","04","25","16:00","-21.7","","-23.8","","83","","","M","22","","24","","","","99.92","","","","-34","","NA"
"-91.82","81.16","SVARTEVAEG","2403833","2018-04-25 17:00","2018","04","25","17:00","-21.8","","-23.9","","83","","","M","22","","25","","","","99.91","","","","-34","","NA"
"-91.82","81.16","SVARTEVAEG","2403833","2018-04-25 18:00","2018","04","25","18:00","-22.0","","-24.2","","83","","","M","22","","19","","","","99.91","","","","-33","","NA"
"-91.82","81.16","SVARTEVAEG","2403833","2018-04-25 19:00","2018","04","25","19:00","-22.2","","-24.3","","83","","","M","22","","19","","","","99.91","","","","-33","","NA"
"-91.82","81.16","SVARTEVAEG","2403833","2018-04-25 20:00","2018","04","25","20:00","-22.8","","-25.0","","82","","","M","23","","21","","","","99.88","","","","-34","","NA"
"-91.82","81.16","SVARTEVAEG","2403833","2018-04-25 21:00","2018","04","25","21:00","-22.8","","-25.0","","82","","","M","22","","22","","","","99.87","","","","-35","","NA"
"-91.82","81.16","SVARTEVAEG","2403833","2018-04-25 22:00","2018","04","25","22:00","-22.1","","-24.2","","83","","","M","22","","21","","","","99.85","","","","-33","","NA"
"-91.82","81.16","SVARTEVAEG","2403833","2018-04-25 23:00","2018","04","25","23:00","-21.9","","-24.0","","83","","","M","22","","23","","","","99.84","","","","-34","","NA"
"-91.82","81.16","SVARTEVAEG","2403833","2018-04-26 00:00","2018","04","26","00:00","-21.9","","-24.0","","83","","","M","22","","20","","","","99.83","","","","-33","","NA"
"-91.82","81.16","SVARTEVAEG","2403833","2018-04-26 01:00","2018","04","26","01:00","-21.8","","-23.9","","83","","","M","23","","23","","","","99.83","","","","-33","","NA"
"-91.82","81.16","SVARTEVAEG","2403833","2018-04-26 02:00","2018","04","26","02:00","-21.4","","-23.4","","84","","","M","22","","24","","","","99.83","","","","-33","","NA"
"-91.82","81.16","SVARTEVAEG","2403833","2018-04-26 03:00","2018","04","26","03:00","-20.9","","-22.9","","84","","","M","23","","20","","","","99.86","","","","-32","","NA"
"-91.82","81.16","SVARTEVAEG","2403833","2018-04-26 04:00","2018","04","26","04:00","-21.4","","-23.5","","84","","","M","22","","19","","","","99.87","","","","-32","","NA"
"-91.82","81.16","SVARTEVAEG","2403833","2018-04-26 05:00","2018","04","26","05:00","-21.2","","-23.2","","84","","","M","22","","20","","","","99.87","","","","-32","","NA"
"-91.82","81.16","SVARTEVAEG","2403833","2018-04-26 06:00","2018","04","26","06:00","-21.1","","-23.1","","84","","","M","22","","20","","","","99.87","","","","-32","","NA"
"-91.82","81.16","SVARTEVAEG","2403833","2018-04-26 07:00","2018","04","26","07:00","-20.4","","-22.4","","84","","","M","23","","23","","","","99.87","","","","-32","","NA"
"-91.82","81.16","SVARTEVAEG","2403833","2018-04-26 08:00","2018","04","26","08:00","-21.0","","-23.1","","84","","","M","23","","24","","","","99.90","","","","-33","","NA"
"-91.82","81.16","SVARTEVAEG","2403833","2018-04-26 09:00","2018","04","26","09:00","-19.7","","-21.6","","85","","","M","23","","25","","","","99.90","","","","-31","","NA"
"-91.82","81.16","SVARTEVAEG","2403833","2018-04-26 10:00","2018","04","26","10:00","-19.9","","-21.9","","84","","","M","22","","21","","","","99.93","","","","-31","","NA"
"-91.82","81.16","SVARTEVAEG","2403833","2018-04-26 11:00","2018","04","26","11:00","-19.5","","-21.3","","85","","","M","23","","19","","","","99.96","","","","-30","","NA"
"-91.82","81.16","SVARTEVAEG","2403833","2018-04-26 12:00","2018","04","26","12:00","-19.2","","-21.2","","85","","","M","23","","15","","","","99.99","","","","-28","","NA"
"-91.82","81.16","SVARTEVAEG","2403833","2018-04-26 13:00","2018","04","26","13:00","-18.9","","-20.7","","85","","","M","23","","16","","","","100.02","","","","-28","","NA"
"-91.82","81.16","SVARTEVAEG","2403833","2018-04-26 14:00","2018","04","26","14:00","-19.1","","-20.9","","85","","","M","23","","15","","","","100.06","","","","-28","","NA"
"-91.82","81.16","SVARTEVAEG","2403833","2018-04-26 15:00","2018","04","26","15:00","-18.9","","-20.8","","85","","","M","23","","16","","","","100.08","","","","-28","","NA"
"-91.82","81.16","SVARTEVAEG","2403833","2018-04-26 16:00","2018","04","26","16:00","-18.5","","-20.3","","86","","","M","23","","15","","","","100.10","","","","-27","","NA"
"-91.82","81.16","SVARTEVAEG","2403833","2018-04-26 17:00","2018","04","26","17:00","-18.2","","-20.0","","86","","","M","23","","16","","","","100.14","","","","-27","","NA"
"-91.82","81.16","SVARTEVAEG","2403833","2018-04-26 18:00","2018","04","26","18:00","-18.1","","-19.9","","86","","","M","22","","10","","","","100.17","","","","-25","","NA"
"-91.82","81.16","SVARTEVAEG","2403833","2018-04-26 19:00","2018","04","26","19:00","-18.8","","-20.7","","86","","","M","22","","9","","","","100.19","","","","-25","","NA"
"-91.82","81.16","SVARTEVAEG","2403833","2018-04-26 20:00","2018","04","26","20:00","-18.8","","-20.6","","86","","","M","21","","5","","","","100.21","","","","-23","","NA"
"-91.82","81.16","SVARTEVAEG","2403833","2018-04-26 21:00","2018","04","26","21:00","-18.5","","-20.3","","86","","","M","16","","2","","","","100.23","","","","-20","","NA"
"-91.82","81.16","SVARTEVAEG","2403833","2018-04-26 22:00","2018","04","26","22:00","-18.7","","-20.5","","86","","","M","12","","5","","","","100.27","","","","-23","","NA"
"-91.82","81.16","SVARTEVAEG","2403833","2018-04-26 23:00","2018","04","26","23:00","-18.9","","-20.6","","86","","","M","5","","4","","","","100.28","","","","-22","","NA"
"-91.82","81.16","SVARTEVAEG","2403833","2018-04-27 00:00","2018","04","27","00:00","-18.9","","-20.7","","86","","","M","6","","7","","","","100.31","","","","-24","","NA"
"-91.82","81.16","SVARTEVAEG","2403833","2018-04-27 01:00","2018","04","27","01:00","-19.0","","-20.8","","86","","","M","9","","8","","","","100.34","","","","-25","","NA"
"-91.82","81.16","SVARTEVAEG","2403833","2018-04-27 02:00","2018","04","27","02:00","-19.6","","-21.5","","85","","","M","11","","8","","","","100.36","","","","-26","","NA"
"-91.82","81.16","SVARTEVAEG","2403833","2018-04-27 03:00","2018","04","27","03:00","-20.3","","-22.2","","85","","","M","14","","5","","","","100.40","","","","-25","","NA"
"-91.82","81.16","SVARTEVAEG","2403833","2018-04-27 04:00","2018","04","27","04:00","-19.9","","-21.7","","85","","","M","20","","5","","","","100.44","","","","-24","","NA"
"-91.82","81.16","SVARTEVAEG","2403833","2018-04-27 05:00","2018","04","27","05:00","-20.2","","-22.2","","84","","","M","21","","13","","","","100.44","","","","-29","","NA"
"-91.82","81.16","SVARTEVAEG","2403833","2018-04-27 06:00","2018","04","27","06:00","-19.0","","-20.8","","86","","","M","22","","4","","","","100.49","","","","-22","","NA"
"-91.82","81.16","SVARTEVAEG","2403833","2018-04-27 07:00","2018","04","27","07:00","-18.2","","-19.9","","86","","","M","9","","3","","","","100.52","","","","-21","","NA"
"-91.82","81.16","SVARTEVAEG","2403833","2018-04-27 08:00","2018","04","27","08:00","-18.7","","-20.5","","86","","","M","21","","4","","","","100.51","","","","-22","","NA"
"-91.82","81.16","SVARTEVAEG","2403833","2018-04-27 09:00","2018","04","27","09:00","-17.2","","-18.8","","87","","","M","17","","1","","","","100.52","","","","-18","","NA"
"-91.82","81.16","SVARTEVAEG","2403833","2018-04-27 10:00","2018","04","27","10:00","-16.9","","-18.6","","87","","","M","23","","4","","","","100.51","","","","-20","","NA"
"-91.82","81.16","SVARTEVAEG","2403833","2018-04-27 11:00","2018","04","27","11:00","-16.7","","-18.4","","87","","","M","25","","6","","","","100.51","","","","-21","","NA"
"-91.82","81.16","SVARTEVAEG","2403833","2018-04-27 12:00","2018","04","27","12:00","-16.6","","-18.4","","86","","","M","22","","10","","","","100.51","","","","-23","","NA"
"-91.82","81.16","SVARTEVAEG","2403833","2018-04-27 13:00","2018","04","27","13:00","-15.2","","-16.8","","87","","","M","21","","3","","","","100.51","","","","-17","","NA"
"-91.82","81.16","SVARTEVAEG","2403833","2018-04-27 14:00","2018","04","27","14:00","-15.5","","-17.1","","87","","","M","27","","5","","","","100.48","","","","-19","","NA"
"-91.82","81.16","SVARTEVAEG","2403833","2018-04-27 15:00","2018","04","27","15:00","-16.6","","-18.4","","86","","","M","30","","2","","","","100.46","","","","-18","","NA"
"-91.82","81.16","SVARTEVAEG","2403833","2018-04-27 16:00","2018","04","27","16:00","-18.7","","-20.7","","84","","","M","35","","5","","","","100.44","","","","-23","","NA"
"-91.82","81.16","SVARTEVAEG","2403833","2018-04-27 17:00","2018","04","27","17:00","-20.9","","-23.1","","83","","","M","2","","17","","","","100.44","","","","-31","","NA"
"-91.82","81.16","SVARTEVAEG","2403833","2018-04-27 18:00","2018","04","27","18:00","-18.0","","-19.7","","87","","","M","33","","5","","","","100.36","","","","-22","","NA"
"-91.82","81.16","SVARTEVAEG","2403833","2018-04-27 19:00","2018","04","27","19:00","-22.6","","-25.0","","81","","","M","2","","18","","","","100.32","","","","-33","","NA"
"-91.82","81.16","SVARTEVAEG","2403833","2018-04-27 20:00","2018","04","27","20:00","-22.4","","-24.6","","82","","","M","2","","13","","","","100.29","","","","-31","","NA"
"-91.82","81.16","SVARTEVAEG","2403833","2018-04-27 21:00","2018","04","27","21:00","-23.2","","-25.6","","81","","","M","2","","16","","","","100.24","","","","-33","","NA"
"-91.82","81.16","SVARTEVAEG","2403833","2018-04-27 22:00","2018","04","27","22:00","-23.4","","-25.7","","81","","","M","1","","23","","","","100.17","","","","-36","","NA"
"-91.82","81.16","SVARTEVAEG","2403833","2018-04-27 23:00","2018","04","27","23:00","-21.5","","-23.6","","83","","","M","1","","18","","","","100.11","","","","-32","","NA"
"-91.82","81.16","SVARTEVAEG","2403833","2018-04-28 00:00","2018","04","28","00:00","-21.7","","-23.9","","83","","","M","1","","24","","","","100.04","","","","-34","","NA"
"-91.82","81.16","SVARTEVAEG","2403833","2018-04-28 01:00","2018","04","28","01:00","-22.9","","-25.3","","81","","","M","1","","24","","","","99.97","","","","-35","","NA"
"-91.82","81.16","SVARTEVAEG","2403833","2018-04-28 02:00","2018","04","28","02:00","-23.5","","-25.8","","81","","","M","1","","24","","","","99.90","","","","-36","","NA"
"-91.82","81.16","SVARTEVAEG","2403833","2018-04-28 03:00","2018","04","28","03:00","-23.1","","-25.4","","82","","","M","1","","25","","","","99.83","","","","-36","","NA"
"-91.82","81.16","SVARTEVAEG","2403833","2018-04-28 04:00","2018","04","28","04:00","-23.6","","-25.9","","81","","","M","2","","34","","","","99.79","","","","-38","","NA"
"-91.82","81.16","SVARTEVAEG","2403833","2018-04-28 05:00","2018","04","28","05:00","-23.2","","-25.5","","81","","","M","1","","33","","","","99.70","","","","-37","","NA"
"-91.82","81.16","SVARTEVAEG","2403833","2018-04-28 06:00","2018","04","28","06:00","-22.1","","-24.2","","82","","","M","1","","28","","","","99.66","","","","-35","","NA"
"-91.82","81.16","SVARTEVAEG","2403833","2018-04-28 07:00","2018","04","28","07:00","-21.8","","-24.0","","83","","","M","1","","36","","","","99.57","","","","-36","","NA"
"-91.82","81.16","SVARTEVAEG","2403833","2018-04-28 08:00","2018","04","28","08:00","-20.5","","-22.5","","85","","","M","2","","35","","","","99.49","","","","-34","","NA"
"-91.82","81.16","SVARTEVAEG","2403833","2018-04-28 09:00","2018","04","28","09:00","-20.2","","-22.2","","83","","","M","1","","41","","","","99.40","","","","-35","","NA"
"-91.82","81.16","SVARTEVAEG","2403833","2018-04-28 10:00","2018","04","28","10:00","-18.8","","-20.9","","84","","","M","1","","43","","","","99.35","","","","-33","","NA"
"-91.82","81.16","SVARTEVAEG","2403833","2018-04-28 11:00","2018","04","28","11:00","-19.1","","-21.2","","84","","","M","1","","46","","","","99.31","","","","-34","","NA"
"-91.82","81.16","SVARTEVAEG","2403833","2018-04-28 12:00","2018","04","28","12:00","-18.4","","-20.4","","84","","","M","1","","37","","","","99.32","","","","-32","","NA"
"-91.82","81.16","SVARTEVAEG","2403833","2018-04-28 13:00","2018","04","28","13:00","-18.1","","-20.2","","84","","","M","36","","38","","","","99.33","","","","-31","","NA"
"-91.82","81.16","SVARTEVAEG","2403833","2018-04-28 14:00","2018","04","28","14:00","-18.2","","-20.3","","83","","","M","36","","37","","","","99.32","","","","-31","","NA"
"-91.82","81.16","SVARTEVAEG","2403833","2018-04-28 15:00","2018","04","28","15:00","-17.8","","-19.8","","85","","","M","35","","30","","","","99.37","","","","-30","","NA"
"-91.82","81.16","SVARTEVAEG","2403833","2018-04-28 16:00","2018","04","28","16:00","-18.6","","-20.8","","82","","","M","36","","40","","","","99.38","","","","-32","","NA"
"-91.82","81.16","SVARTEVAEG","2403833","2018-04-28 17:00","2018","04","28","17:00","-18.7","","-20.8","","83","","","M","1","","34","","","","99.42","","","","-32","","NA"
"-91.82","81.16","SVARTEVAEG","2403833","2018-04-28 18:00","2018","04","28","18:00","-18.9","","-21.1","","83","","","M","1","","29","","","","99.48","","","","-31","","NA"
"-91.82","81.16","SVARTEVAEG","2403833","2018-04-28 19:00","2018","04","28","19:00","-19.2","","-21.4","","83","","","M","1","","33","","","","99.54","","","","-32","","NA"
"-91.82","81.16","SVARTEVAEG","2403833","2018-04-28 20:00","2018","04","28","20:00","-19.2","","-21.2","","84","","","M","1","","31","","","","99.58","","","","-32","","NA"
"-91.82","81.16","SVARTEVAEG","2403833","2018-04-28 21:00","2018","04","28","21:00","-20.0","","-22.1","","83","","","M","1","","29","","","","99.61","","","","-32","","NA"
"-91.82","81.16","SVARTEVAEG","2403833","2018-04-28 22:00","2018","04","28","22:00","-20.5","","-22.6","","83","","","M","1","","27","","","","99.68","","","","-33","","NA"
"-91.82","81.16","SVARTEVAEG","2403833","2018-04-28 23:00","2018","04","28","23:00","-20.9","","-23.0","","83","","","M","1","","33","","","","99.73","","","","-34","","NA"
"-91.82","81.16","SVARTEVAEG","2403833","2018-04-29 00:00","2018","04","29","00:00","-21.2","","-23.5","","82","","","M","2","","28","","","","99.83","","","","-34","","NA"
"-91.82","81.16","SVARTEVAEG","2403833","2018-04-29 01:00","2018","04","29","01:00","-21.8","","-24.1","","82","","","M","2","","24","","","","99.87","","","","-34","","NA"
"-91.82","81.16","SVARTEVAEG","2403833","2018-04-29 02:00","2018","04","29","02:00","-21.0","","-23.0","","83","","","M","2","","18","","","","99.93","","","","-31","","NA"
"-91.82","81.16","SVARTEVAEG","2403833","2018-04-29 03:00","2018","04","29","03:00","-21.5","","-23.7","","82","","","M","2","","21","","","","100.02","","","","-33","","NA"
"-91.82","81.16","SVARTEVAEG","2403833","2018-04-29 04:00","2018","04","29","04:00","-19.7","","-21.8","","83","","","M","2","","17","","","","100.07","","","","-29","","NA"
"-91.82","81.16","SVARTEVAEG","2403833","2018-04-29 05:00","2018","04","29","05:00","-22.6","","-25.1","","80","","","M","5","","9","","","","100.16","","","","-30","","NA"
"-91.82","81.16","SVARTEVAEG","2403833","2018-04-29 06:00","2018","04","29","06:00","-21.9","","-24.1","","82","","","M","31","","3","","","","100.21","","","","-25","","NA"
"-91.82","81.16","SVARTEVAEG","2403833","2018-04-29 07:00","2018","04","29","07:00","-20.7","","-22.9","","83","","","M","23","","28","","","","100.22","","","","-33","","NA"
"-91.82","81.16","SVARTEVAEG","2403833","2018-04-29 08:00","2018","04","29","08:00","-20.5","","-22.7","","82","","","M","22","","29","","","","100.28","","","","-33","","NA"
"-91.82","81.16","SVARTEVAEG","2403833","2018-04-29 09:00","2018","04","29","09:00","-20.9","","-23.3","","81","","","M","22","","21","","","","100.34","","","","-32","","NA"
"-91.82","81.16","SVARTEVAEG","2403833","2018-04-29 10:00","2018","04","29","10:00","-19.2","","-21.4","","83","","","M","22","","22","","","","100.37","","","","-30","","NA"
"-91.82","81.16","SVARTEVAEG","2403833","2018-04-29 11:00","2018","04","29","11:00","-19.0","","-21.2","","83","","","M","23","","22","","","","100.38","","","","-30","","NA"
"-91.82","81.16","SVARTEVAEG","2403833","2018-04-29 12:00","2018","04","29","12:00","-18.7","","-20.9","","83","","","M","23","","26","","","","100.37","","","","-30","","NA"
"-91.82","81.16","SVARTEVAEG","2403833","2018-04-29 13:00","2018","04","29","13:00","-19.0","","-21.3","","82","","","M","22","","26","","","","100.38","","","","-31","","NA"
"-91.82","81.16","SVARTEVAEG","2403833","2018-04-29 14:00","2018","04","29","14:00","-18.2","","-20.3","","83","","","M","22","","18","","","","100.42","","","","-28","","NA"
"-91.82","81.16","SVARTEVAEG","2403833","2018-04-29 15:00","2018","04","29","15:00","-18.1","","-20.2","","84","","","M","21","","12","","","","100.44","","","","-26","","NA"
"-91.82","81.16","SVARTEVAEG","2403833","2018-04-29 16:00","2018","04","29","16:00","-18.5","","-20.6","","83","","","M","22","","13","","","","100.45","","","","-27","","NA"
"-91.82","81.16","SVARTEVAEG","2403833","2018-04-29 17:00","2018","04","29","17:00","-18.8","","-20.9","","83","","","M","22","","13","","","","100.43","","","","-27","","NA"
"-91.82","81.16","SVARTEVAEG","2403833","2018-04-29 18:00","2018","04","29","18:00","-18.1","","-20.2","","84","","","M","13","","5","","","","100.44","","","","-22","","NA"
"-91.82","81.16","SVARTEVAEG","2403833","2018-04-29 19:00","2018","04","29","19:00","-18.7","","-20.7","","84","","","M","36","","3","","","","100.43","","","","-21","","NA"
"-91.82","81.16","SVARTEVAEG","2403833","2018-04-29 20:00","2018","04","29","20:00","-19.3","","-21.5","","83","","","M","2","","6","","","","100.40","","","","-24","","NA"
"-91.82","81.16","SVARTEVAEG","2403833","2018-04-29 21:00","2018","04","29","21:00","-19.6","","-21.7","","84","","","M","3","","6","","","","100.40","","","","-25","","NA"
"-91.82","81.16","SVARTEVAEG","2403833","2018-04-29 22:00","2018","04","29","22:00","-19.1","","-21.1","","85","","","M","10","","2","","","","100.39","","","","-21","","NA"
"-91.82","81.16","SVARTEVAEG","2403833","2018-04-29 23:00","2018","04","29","23:00","-20.5","","-22.6","","84","","","M","18","","4","","","","100.37","","","","-24","","NA"
"-91.82","81.16","SVARTEVAEG","2403833","2018-04-30 00:00","2018","04","30","00:00","-20.9","","-23.0","","83","","","M","19","","7","","","","100.35","","","","-27","","NA"
"-91.82","81.16","SVARTEVAEG","2403833","2018-04-30 01:00","2018","04","30","01:00","-21.0","","-23.0","","84","","","M","21","","8","","","","100.35","","","","-27","","NA"
"-91.82","81.16","SVARTEVAEG","2403833","2018-04-30 02:00","2018","04","30","02:00","-21.1","","-23.2","","83","","","M","31","","3","","","","100.33","","","","-24","","NA"
"-91.82","81.16","SVARTEVAEG","2403833","2018-04-30 03:00","2018","04","30","03:00","-22.0","","-24.2","","82","","","M","36","","5","","","","100.32","","","","-27","","NA"
"-91.82","81.16","SVARTEVAEG","2403833","2018-04-30 04:00","2018","04","30","04:00","-20.5","","-22.6","","83","","","M","23","","11","","","","100.29","","","","-28","","NA"
"-91.82","81.16","SVARTEVAEG","2403833","2018-04-30 05:00","2018","04","30","05:00","-20.0","","-22.0","","84","","","M","24","","15","","","","100.26","","","","-29","","NA"
"-91.82","81.16","SVARTEVAEG","2403833","2018-04-30 06:00","2018","04","30","06:00","-20.6","","-22.8","","83","","","M","21","","11","","","","100.26","","","","-28","","NA"
"-91.82","81.16","SVARTEVAEG","2403833","2018-04-30 07:00","2018","04","30","07:00","-19.9","","-22.0","","83","","","M","22","","10","","","","100.22","","","","-27","","NA"
"-91.82","81.16","SVARTEVAEG","2403833","2018-04-30 08:00","2018","04","30","08:00","-20.4","","-22.7","","82","","","M","20","","10","","","","100.20","","","","-28","","NA"
"-91.82","81.16","SVARTEVAEG","2403833","2018-04-30 09:00","2018","04","30","09:00","-18.2","","-20.2","","85","","","M","18","","4","","","","100.16","","","","-21","","NA"
"-91.82","81.16","SVARTEVAEG","2403833","2018-04-30 10:00","2018","04","30","10:00","-17.1","","-19.0","","85","","","M","19","","2","","","","100.12","","","","-19","","NA"
"-91.82","81.16","SVARTEVAEG","2403833","2018-04-30 11:00","2018","04","30","11:00","-16.7","","-18.8","","84","","","M","0","","1","","","","100.09","","","","-17","","NA"
"-91.82","81.16","SVARTEVAEG","2403833","2018-04-30 12:00","2018","04","30","12:00","-19.2","","-21.6","","81","","","M","2","","6","","","","100.08","","","","-24","","NA"
"-91.82","81.16","SVARTEVAEG","2403833","2018-04-30 13:00","2018","04","30","13:00","-19.2","","-21.6","","81","","","M","3","","7","","","","100.05","","","","-25","","NA"
"-91.82","81.16","SVARTEVAEG","2403833","2018-04-30 14:00","2018","04","30","14:00","-19.6","","-22.0","","81","","","M","2","","6","","","","100.01","","","","-25","","NA"
"-91.82","81.16","SVARTEVAEG","2403833","2018-04-30 15:00","2018","04","30","15:00","-19.4","","-21.8","","81","","","M","3","","10","","","","99.96","","","","-26","","NA"
"-91.82","81.16","SVARTEVAEG","2403833","2018-04-30 16:00","2018","04","30","16:00","-19.0","","-21.1","","83","","","M","3","","13","","","","99.93","","","","-27","","NA"
"-91.82","81.16","SVARTEVAEG","2403833","2018-04-30 17:00","2018","04","30","17:00","-18.9","","-21.0","","84","","","M","3","","13","","","","99.88","","","","-27","","NA"
"-91.82","81.16","SVARTEVAEG","2403833","2018-04-30 18:00","2018","04","30","18:00","-18.9","","-20.8","","84","","","M","3","","9","","","","99.84","","","","-25","","NA"
"-91.82","81.16","SVARTEVAEG","2403833","2018-04-30 19:00","2018","04","30","19:00","-20.2","","-22.3","","83","","","M","2","","20","","","","99.78","","","","-31","","NA"
"-91.82","81.16","SVARTEVAEG","2403833","2018-04-30 20:00","2018","04","30","20:00","-20.5","","-22.6","","84","","","M","2","","21","","","","99.74","","","","-31","","NA"
"-91.82","81.16","SVARTEVAEG","2403833","2018-04-30 21:00","2018","04","30","21:00","-20.4","","-22.4","","84","","","M","2","","22","","","","99.69","","","","-31","","NA"
"-91.82","81.16","SVARTEVAEG","2403833","2018-04-30 22:00","2018","04","30","22:00","-20.5","","-22.5","","84","","","M","1","","28","","","","99.64","","","","-33","","NA"
"-91.82","81.16","SVARTEVAEG","2403833","2018-04-30 23:00","2018","04","30","23:00","-20.6","","-22.6","","84","","","M","1","","24","","","","99.58","","","","-32","","NA"
