"Longitude (x)","Latitude (y)","Station Name","Climate ID","Date/Time (LST)","Year","Month","Day","Time (LST)","Temp (°C)","Temp Flag","Dew Point Temp (°C)","Dew Point Temp Flag","Rel Hum (%)","Rel Hum Flag","Precip. Amount (mm)","Precip. Amount Flag","Wind Dir (10s deg)","Wind Dir Flag","Wind Spd (km/h)","Wind Spd Flag","Visibility (km)","Visibility Flag","Stn Press (kPa)","Stn Press Flag","Hmdx","Hmdx Flag","Wind Chill","Wind Chill Flag","Weather"
"-81.88","42.45","RIDGETOWN RCS","6137154","2012-02-01 00:00","2012","02","01","00:00","8.3","","6.2","","87","","","","23","","28","","","","98.58","","","","","","NA"
"-81.88","42.45","RIDGETOWN RCS","6137154","2012-02-01 01:00","2012","02","01","01:00","8.4","","6.4","","87","","","","23","","30","","","","98.58","","","","","","NA"
"-81.88","42.45","RIDGETOWN RCS","6137154","2012-02-01 02:00","2012","02","01","02:00","8.0","","6.3","","89","","","","22","","28","","","","98.55","","","","","","NA"
"-81.88","42.45","RIDGETOWN RCS","6137154","2012-02-01 03:00","2012","02","01","03:00","8.0","","6.6","","91","","","","23","","26","","","","98.56","","","","","","NA"
"-81.88","42.45","RIDGETOWN RCS","6137154","2012-02-01 04:00","2012","02","01","04:00","8.4","","7.1","","92","","","","23","","24","","","","98.53","","","","","","NA"
"-81.88","42.45","RIDGETOWN RCS","6137154","2012-02-01 05:00","2012","02","01","05:00","7.9","","6.7","","92","","","","23","","20","","","","98.58","","","","","","NA"
"-81.88","42.45","RIDGETOWN RCS","6137154","2012-02-01 06:00","2012","02","01","06:00","7.6","","6.6","","93","","","","24","","19","","","","98.63","","","","","","NA"
"-81.88","42.45","RIDGETOWN RCS","6137154","2012-02-01 07:00","2012","02","01","07:00","7.1","","6.1","","93","","","","26","","11","","","","98.74","","","","","","NA"
"-81.88","42.45","RIDGETOWN RCS","6137154","2012-02-01 08:00","2012","02","01","08:00","5.9","","4.1","","88","","","","29","","15","","","","98.90","","","","","","NA"
"-81.88","42.45","RIDGETOWN RCS","6137154","2012-02-01 09:00","2012","02","01","09:00","5.3","","2.8","","84","","","","30","","15","","","","99.04","","","","","","NA"
"-81.88","42.45","RIDGETOWN RCS","6137154","2012-02-01 10:00","2012","02","01","10:00","5.9","","2.3","","78","","","","30","","22","","","","99.09","","","","","","NA"
"-81.88","42.45","RIDGETOWN RCS","6137154","2012-02-01 11:00","2012","02","01","11:00","6.0","","1.8","","74","","","","31","","19","","","","99.16","","","","","","NA"
"-81.88","42.45","RIDGETOWN RCS","6137154","2012-02-01 12:00","2012","02","01","12:00","6.3","","1.8","","73","","","","31","","17","","","","99.19","","","","","","NA"
"-81.88","42.45","RIDGETOWN RCS","6137154","2012-02-01 13:00","2012","02","01","13:00","6.1","","1.0","","70","","","","31","","17","","","","99.23","","","","","","NA"
"-81.88","42.45","RIDGETOWN RCS","6137154","2012-02-01 14:00","2012","02","01","14:00","6.3","","1.4","","71","","","","30","","15","","","","99.27","","","","","","NA"
"-81.88","42.45","RIDGETOWN RCS","6137154","2012-02-01 15:00","2012","02","01","15:00","6.3","","1.8","","73","","","","30","","9","","","","99.34","","","","","","NA"
"-81.88","42.45","RIDGETOWN RCS","6137154","2012-02-01 16:00","2012","02","01","16:00","6.1","","1.4","","72","","","","34","","9","","","","99.33","","","","","","NA"
"-81.88","42.45","RIDGETOWN RCS","6137154","2012-02-01 17:00","2012","02","01","17:00","5.3","","1.0","","74","","","","35","","9","","","","99.38","","","","","","NA"
"-81.88","42.45","RIDGETOWN RCS","6137154","2012-02-01 18:00","2012","02","01","18:00","4.6","","0.9","","77","","","","35","","6","","","","99.40","","","","","","NA"
"-81.88","42.45","RIDGETOWN RCS","6137154","2012-02-01 19:00","2012","02","01","19:00","4.2","","1.1","","80","","","","1","","2","","","","99.50","","","","","","NA"
"-81.88","42.45","RIDGETOWN RCS","6137154","2012-02-01 20:00","2012","02","01","20:00","3.9","","0.9","","81","","","","3","","4","","","","99.51","","","","","","NA"
"-81.88","42.45","RIDGETOWN RCS","6137154","2012-02-01 21:00","2012","02","01","21:00","3.7","","0.4","","79","","","","1","","4","","","","99.50","","","","","","NA"
"-81.88","42.45","RIDGETOWN RCS","6137154","2012-02-01 22:00","2012","02","01","22:00","3.3","","0.1","","80","","","","2","","7","","","","99.45","","","","","","NA"
"-81.88","42.45","RIDGETOWN RCS","6137154","2012-02-01 23:00","2012","02","01","23:00","2.9","","-0.2","","80","","","","3","","6","","","","99.48","","","","","","NA"
"-81.88","42.45","RIDGETOWN RCS","6137154","2012-02-02 00:00","2012","02","02","00:00","2.6","","-0.2","","82","","","","34","","6","","","","99.50","","","","","","NA"
"-81.88","42.45","RIDGETOWN RCS","6137154","2012-02-02 01:00","2012","02","02","01:00","2.4","","-0.9","","79","","","","1","","7","","","","99.50","","","","","","NA"
"-81.88","42.45","RIDGETOWN RCS","6137154","2012-02-02 02:00","2012","02","02","02:00","2.2","","-1.2","","78","","","","2","","6","","","","99.51","","","","","","NA"
"-81.88","42.45","RIDGETOWN RCS","6137154","2012-02-02 03:00","2012","02","02","03:00","2.1","","-1.1","","79","","","","3","","7","","","","99.49","","","","","","NA"
"-81.88","42.45","RIDGETOWN RCS","6137154","2012-02-02 04:00","2012","02","02","04:00","1.9","","-1.1","","80","","","","36","","4","","","","99.49","","","","","","NA"
"-81.88","42.45","RIDGETOWN RCS","6137154","2012-02-02 05:00","2012","02","02","05:00","1.7","","-0.9","","83","","","","29","","4","","","","99.53","","","","","","NA"
"-81.88","42.45","RIDGETOWN RCS","6137154","2012-02-02 06:00","2012","02","02","06:00","1.5","","-0.4","","87","","","","28","","7","","","","99.57","","","","","","NA"
"-81.88","42.45","RIDGETOWN RCS","6137154","2012-02-02 07:00","2012","02","02","07:00","1.4","","-0.5","","87","","","","31","","6","","","","99.63","","","","","","NA"
"-81.88","42.45","RIDGETOWN RCS","6137154","2012-02-02 08:00","2012","02","02","08:00","1.2","","-0.9","","86","","","","33","","6","","","","99.72","","","","","","NA"
"-81.88","42.45","RIDGETOWN RCS","6137154","2012-02-02 09:00","2012","02","02","09:00","0.9","","-0.6","","90","","","","33","","6","","","","99.80","","","","","","NA"
"-81.88","42.45","RIDGETOWN RCS","6137154","2012-02-02 10:00","2012","02","02","10:00","1.3","","-0.6","","87","","","","34","","6","","","","99.83","","","","","","NA"
"-81.88","42.45","RIDGETOWN RCS","6137154","2012-02-02 11:00","2012","02","02","11:00","1.6","","-0.5","","86","","","","29","","9","","","","99.90","","","","","","NA"
"-81.88","42.45","RIDGETOWN RCS","6137154","2012-02-02 12:00","2012","02","02","12:00","2.0","","-0.9","","81","","","","31","","11","","","","99.93","","","","","","NA"
"-81.88","42.45","RIDGETOWN RCS","6137154","2012-02-02 13:00","2012","02","02","13:00","2.1","","-1.4","","78","","","","34","","11","","","","99.93","","","","","","NA"
"-81.88","42.45","RIDGETOWN RCS","6137154","2012-02-02 14:00","2012","02","02","14:00","2.3","","-1.5","","76","","","","32","","13","","","","99.97","","","","","","NA"
"-81.88","42.45","RIDGETOWN RCS","6137154","2012-02-02 15:00","2012","02","02","15:00","2.3","","-1.5","","76","","","","31","","13","","","","100.02","","","","","","NA"
"-81.88","42.45","RIDGETOWN RCS","6137154","2012-02-02 16:00","2012","02","02","16:00","2.2","","-1.4","","77","","","","31","","7","","","","100.13","","","","","","NA"
"-81.88","42.45","RIDGETOWN RCS","6137154","2012-02-02 17:00","2012","02","02","17:00","2.0","","-3.0","","69","","","","30","","15","","","","100.18","","","","","","NA"
"-81.88","42.45","RIDGETOWN RCS","6137154","2012-02-02 18:00","2012","02","02","18:00","1.6","","-2.7","","73","","","","29","","11","","","","100.28","","","","","","NA"
"-81.88","42.45","RIDGETOWN RCS","6137154","2012-02-02 19:00","2012","02","02","19:00","1.5","","-2.8","","73","","","","31","","7","","","","100.33","","","","","","NA"
"-81.88","42.45","RIDGETOWN RCS","6137154","2012-02-02 20:00","2012","02","02","20:00","0.9","","-2.5","","78","","","","31","","4","","","","100.38","","","","","","NA"
"-81.88","42.45","RIDGETOWN RCS","6137154","2012-02-02 21:00","2012","02","02","21:00","0.7","","-2.3","","80","","","","35","","4","","","","100.44","","","","","","NA"
"-81.88","42.45","RIDGETOWN RCS","6137154","2012-02-02 22:00","2012","02","02","22:00","0.8","","-2.3","","80","","","","34","","2","","","","100.50","","","","","","NA"
"-81.88","42.45","RIDGETOWN RCS","6137154","2012-02-02 23:00","2012","02","02","23:00","0.6","","-2.2","","81","","","","36","","2","","","","100.49","","","","","","NA"
"-81.88","42.45","RIDGETOWN RCS","6137154","2012-02-03 00:00","2012","02","03","00:00","-1.0","","-2.2","","92","","","","12","","4","","","","100.49","","","","-2","","NA"
"-81.88","42.45","RIDGETOWN RCS","6137154","2012-02-03 01:00","2012","02","03","01:00","-2.1","","-3.0","","94","","","","18","","2","","","","100.55","","","","-3","","NA"
"-81.88","42.45","RIDGETOWN RCS","6137154","2012-02-03 02:00","2012","02","03","02:00","-2.1","","-2.9","","94","","","","21","","4","","","","100.57","","","","-4","","NA"
"-81.88","42.45","RIDGETOWN RCS","6137154","2012-02-03 03:00","2012","02","03","03:00","-1.5","","-2.3","","94","","","","17","","2","","","","100.61","","","","-2","","NA"
"-81.88","42.45","RIDGETOWN RCS","6137154","2012-02-03 04:00","2012","02","03","04:00","-2.4","","-3.1","","95","","","","19","","6","","","","100.63","","","","-5","","NA"
"-81.88","42.45","RIDGETOWN RCS","6137154","2012-02-03 05:00","2012","02","03","05:00","-2.0","","-2.7","","95","","","","19","","4","","","","100.68","","","","-3","","NA"
"-81.88","42.45","RIDGETOWN RCS","6137154","2012-02-03 06:00","2012","02","03","06:00","-1.1","","-1.6","","96","","","","17","","4","","","","100.72","","","","-2","","NA"
"-81.88","42.45","RIDGETOWN RCS","6137154","2012-02-03 07:00","2012","02","03","07:00","-0.1","","-0.8","","95","","","","19","","4","","","","100.76","","","","-1","","NA"
"-81.88","42.45","RIDGETOWN RCS","6137154","2012-02-03 08:00","2012","02","03","08:00","0.7","","-0.4","","92","","","","18","","9","","","","100.76","","","","","","NA"
"-81.88","42.45","RIDGETOWN RCS","6137154","2012-02-03 09:00","2012","02","03","09:00","1.1","","-0.4","","90","","","","19","","6","","","","100.75","","","","","","NA"
"-81.88","42.45","RIDGETOWN RCS","6137154","2012-02-03 10:00","2012","02","03","10:00","1.8","","0.0","","88","","","","19","","11","","","","100.71","","","","","","NA"
"-81.88","42.45","RIDGETOWN RCS","6137154","2012-02-03 11:00","2012","02","03","11:00","2.4","","0.0","","84","","","","21","","15","","","","100.73","","","","","","NA"
"-81.88","42.45","RIDGETOWN RCS","6137154","2012-02-03 12:00","2012","02","03","12:00","2.8","","-0.2","","81","","","","21","","15","","","","100.67","","","","","","NA"
"-81.88","42.45","RIDGETOWN RCS","6137154","2012-02-03 13:00","2012","02","03","13:00","3.2","","0.5","","82","","","","23","","15","","","","100.61","","","","","","NA"
"-81.88","42.45","RIDGETOWN RCS","6137154","2012-02-03 14:00","2012","02","03","14:00","3.9","","0.4","","78","","","","21","","9","","","","100.47","","","","","","NA"
"-81.88","42.45","RIDGETOWN RCS","6137154","2012-02-03 15:00","2012","02","03","15:00","4.4","","0.5","","76","","","","21","","13","","","","100.43","","","","","","NA"
"-81.88","42.45","RIDGETOWN RCS","6137154","2012-02-03 16:00","2012","02","03","16:00","4.1","","0.9","","80","","","","21","","9","","","","100.48","","","","","","NA"
"-81.88","42.45","RIDGETOWN RCS","6137154","2012-02-03 17:00","2012","02","03","17:00","3.7","","1.0","","82","","","","24","","9","","","","100.46","","","","","","NA"
"-81.88","42.45","RIDGETOWN RCS","6137154","2012-02-03 18:00","2012","02","03","18:00","3.1","","1.1","","87","","","","24","","4","","","","100.47","","","","","","NA"
"-81.88","42.45","RIDGETOWN RCS","6137154","2012-02-03 19:00","2012","02","03","19:00","3.0","","0.4","","83","","","","33","","7","","","","100.49","","","","","","NA"
"-81.88","42.45","RIDGETOWN RCS","6137154","2012-02-03 20:00","2012","02","03","20:00","2.4","","-0.2","","83","","","","36","","7","","","","100.49","","","","","","NA"
"-81.88","42.45","RIDGETOWN RCS","6137154","2012-02-03 21:00","2012","02","03","21:00","2.0","","-0.3","","85","","","","1","","7","","","","100.48","","","","","","NA"
"-81.88","42.45","RIDGETOWN RCS","6137154","2012-02-03 22:00","2012","02","03","22:00","1.8","","-0.4","","85","","","","1","","6","","","","100.47","","","","","","NA"
"-81.88","42.45","RIDGETOWN RCS","6137154","2012-02-03 23:00","2012","02","03","23:00","1.8","","-2.1","","75","","","","2","","9","","","","100.43","","","","","","NA"
"-81.88","42.45","RIDGETOWN RCS","6137154","2012-02-04 00:00","2012","02","04","00:00","1.5","","-1.8","","79","","","","2","","6","","","","100.42","","","","","","NA"
"-81.88","42.45","RIDGETOWN RCS","6137154","2012-02-04 01:00","2012","02","04","01:00","1.3","","-3.3","","71","","","","3","","11","","","","100.41","","","","","","NA"
"-81.88","42.45","RIDGETOWN RCS","6137154","2012-02-04 02:00","2012","02","04","02:00","-0.6","","-3.1","","83","","","","2","","6","","","","100.36","","","","-3","","NA"
"-81.88","42.45","RIDGETOWN RCS","6137154","2012-02-04 03:00","2012","02","04","03:00","-1.0","","-3.3","","84","","","","2","","6","","","","100.33","","","","-3","","NA"
"-81.88","42.45","RIDGETOWN RCS","6137154","2012-02-04 04:00","2012","02","04","04:00","-1.5","","-3.5","","86","","","","36","","4","","","","100.33","","","","-3","","NA"
"-81.88","42.45","RIDGETOWN RCS","6137154","2012-02-04 05:00","2012","02","04","05:00","-1.6","","-2.9","","91","","","","4","","4","","","","100.31","","","","-3","","NA"
"-81.88","42.45","RIDGETOWN RCS","6137154","2012-02-04 06:00","2012","02","04","06:00","-1.8","","-2.8","","93","","","","2","","2","","","","100.32","","","","-3","","NA"
"-81.88","42.45","RIDGETOWN RCS","6137154","2012-02-04 07:00","2012","02","04","07:00","-1.8","","-3.0","","91","","","","3","","4","","","","100.31","","","","-3","","NA"
"-81.88","42.45","RIDGETOWN RCS","6137154","2012-02-04 08:00","2012","02","04","08:00","-1.5","","-2.8","","91","","","","3","","4","","","","100.29","","","","-3","","NA"
"-81.88","42.45","RIDGETOWN RCS","6137154","2012-02-04 09:00","2012","02","04","09:00","-0.9","","-2.1","","92","","","","3","","2","","","","100.27","","","","-2","","NA"
"-81.88","42.45","RIDGETOWN RCS","6137154","2012-02-04 10:00","2012","02","04","10:00","0.4","","-1.4","","88","","","","5","","6","","","","100.21","","","","","","NA"
"-81.88","42.45","RIDGETOWN RCS","6137154","2012-02-04 11:00","2012","02","04","11:00","1.5","","-1.3","","82","","","","9","","6","","","","100.14","","","","","","NA"
"-81.88","42.45","RIDGETOWN RCS","6137154","2012-02-04 12:00","2012","02","04","12:00","2.3","","-2.5","","71","","","","7","","9","","","","100.07","","","","","","NA"
"-81.88","42.45","RIDGETOWN RCS","6137154","2012-02-04 13:00","2012","02","04","13:00","2.9","","-2.3","","69","","","","12","","7","","","","99.95","","","","","","NA"
"-81.88","42.45","RIDGETOWN RCS","6137154","2012-02-04 14:00","2012","02","04","14:00","2.8","","-2.8","","67","","","","6","","4","","","","99.90","","","","","","NA"
"-81.88","42.45","RIDGETOWN RCS","6137154","2012-02-04 15:00","2012","02","04","15:00","4.3","","-2.2","","63","","","","1","","4","","","","99.84","","","","","","NA"
"-81.88","42.45","RIDGETOWN RCS","6137154","2012-02-04 16:00","2012","02","04","16:00","4.2","","-2.4","","62","","","","34","","6","","","","99.77","","","","","","NA"
"-81.88","42.45","RIDGETOWN RCS","6137154","2012-02-04 17:00","2012","02","04","17:00","2.5","","-1.2","","77","","","","12","","7","","","","99.74","","","","","","NA"
"-81.88","42.45","RIDGETOWN RCS","6137154","2012-02-04 18:00","2012","02","04","18:00","0.6","","-1.9","","83","","","","15","","7","","","","99.74","","","","","","NA"
"-81.88","42.45","RIDGETOWN RCS","6137154","2012-02-04 19:00","2012","02","04","19:00","-0.3","","-2.1","","88","","","","18","","7","","","","99.75","","","","-3","","NA"
"-81.88","42.45","RIDGETOWN RCS","6137154","2012-02-04 20:00","2012","02","04","20:00","-1.1","","-2.5","","90","","","","19","","2","","","","99.76","","","","-2","","NA"
"-81.88","42.45","RIDGETOWN RCS","6137154","2012-02-04 21:00","2012","02","04","21:00","-2.0","","-2.6","","96","","","","5","","2","","","","99.73","","","","-3","","NA"
"-81.88","42.45","RIDGETOWN RCS","6137154","2012-02-04 22:00","2012","02","04","22:00","-2.2","","-2.8","","96","","","","4","","4","","","","99.73","","","","-4","","NA"
"-81.88","42.45","RIDGETOWN RCS","6137154","2012-02-04 23:00","2012","02","04","23:00","-3.2","","-3.7","","96","","","","19","","2","","","","99.71","","","","-4","","NA"
"-81.88","42.45","RIDGETOWN RCS","6137154","2012-02-05 00:00","2012","02","05","00:00","-3.4","","-3.8","","97","","","","7","","4","","","","99.67","","","","-5","","NA"
"-81.88","42.45","RIDGETOWN RCS","6137154","2012-02-05 01:00","2012","02","05","01:00","-4.2","","-4.6","","97","","","","","","0","","","","99.68","","","","","","NA"
"-81.88","42.45","RIDGETOWN RCS","6137154","2012-02-05 02:00","2012","02","05","02:00","-4.3","","-4.8","","96","","","","","","0","","","","99.67","","","","","","NA"
"-81.88","42.45","RIDGETOWN RCS","6137154","2012-02-05 03:00","2012","02","05","03:00","-4.4","","-4.9","","96","","","","22","","2","","","","99.68","","","","-5","","NA"
"-81.88","42.45","RIDGETOWN RCS","6137154","2012-02-05 04:00","2012","02","05","04:00","-4.4","","-4.9","","96","","","","19","","4","","","","99.65","","","","-6","","NA"
"-81.88","42.45","RIDGETOWN RCS","6137154","2012-02-05 05:00","2012","02","05","05:00","-4.4","","-4.9","","96","","","","","","0","","","","99.64","","","","","","NA"
"-81.88","42.45","RIDGETOWN RCS","6137154","2012-02-05 06:00","2012","02","05","06:00","-4.7","","-5.2","","96","","","","2","","2","","","","99.73","","","","-6","","NA"
"-81.88","42.45","RIDGETOWN RCS","6137154","2012-02-05 07:00","2012","02","05","07:00","-3.9","","-4.4","","96","","","","","","0","","","","99.77","","","","","","NA"
"-81.88","42.45","RIDGETOWN RCS","6137154","2012-02-05 08:00","2012","02","05","08:00","-4.5","","-5.0","","96","","","","16","","2","","","","99.82","","","","-5","","NA"
"-81.88","42.45","RIDGETOWN RCS","6137154","2012-02-05 09:00","2012","02","05","09:00","-0.8","","-1.2","","97","","","","13","","2","","","","99.85","","","","-1","","NA"
"-81.88","42.45","RIDGETOWN RCS","6137154","2012-02-05 10:00","2012","02","05","10:00","2.0","","-1.5","","78","","","","","","0","","","","99.87","","","","","","NA"
"-81.88","42.45","RIDGETOWN RCS","6137154","2012-02-05 11:00","2012","02","05","11:00","2.4","","-1.3","","77","","","","26","","6","","","","99.89","","","","","","NA"
"-81.88","42.45","RIDGETOWN RCS","6137154","2012-02-05 12:00","2012","02","05","12:00","3.5","","-1.4","","70","","","","24","","6","","","","99.89","","","","","","NA"
"-81.88","42.45","RIDGETOWN RCS","6137154","2012-02-05 13:00","2012","02","05","13:00","3.0","","-1.6","","72","","","","26","","7","","","","99.86","","","","","","NA"
"-81.88","42.45","RIDGETOWN RCS","6137154","2012-02-05 14:00","2012","02","05","14:00","3.7","","-0.7","","73","","","","26","","9","","","","99.80","","","","","","NA"
"-81.88","42.45","RIDGETOWN RCS","6137154","2012-02-05 15:00","2012","02","05","15:00","4.1","","-0.3","","73","","","","28","","7","","","","99.77","","","","","","NA"
"-81.88","42.45","RIDGETOWN RCS","6137154","2012-02-05 16:00","2012","02","05","16:00","4.5","","0.8","","77","","","","23","","11","","","","99.76","","","","","","NA"
"-81.88","42.45","RIDGETOWN RCS","6137154","2012-02-05 17:00","2012","02","05","17:00","3.5","","0.4","","80","","","","22","","11","","","","99.79","","","","","","NA"
"-81.88","42.45","RIDGETOWN RCS","6137154","2012-02-05 18:00","2012","02","05","18:00","1.7","","-0.9","","83","","","","26","","4","","","","99.82","","","","","","NA"
"-81.88","42.45","RIDGETOWN RCS","6137154","2012-02-05 19:00","2012","02","05","19:00","-0.8","","-2.0","","92","","","","19","","6","","","","99.85","","","","-3","","NA"
"-81.88","42.45","RIDGETOWN RCS","6137154","2012-02-05 20:00","2012","02","05","20:00","-1.0","","-1.9","","94","","","","21","","4","","","","99.85","","","","-2","","NA"
"-81.88","42.45","RIDGETOWN RCS","6137154","2012-02-05 21:00","2012","02","05","21:00","-1.4","","-2.2","","94","","","","21","","4","","","","99.82","","","","-3","","NA"
"-81.88","42.45","RIDGETOWN RCS","6137154","2012-02-05 22:00","2012","02","05","22:00","-1.1","","-1.8","","95","","","","22","","6","","","","99.75","","","","-3","","NA"
"-81.88","42.45","RIDGETOWN RCS","6137154","2012-02-05 23:00","2012","02","05","23:00","-1.3","","-2.2","","94","","","","22","","9","","","","99.72","","","","-5","","NA"
"-81.88","42.45","RIDGETOWN RCS","6137154","2012-02-06 00:00","2012","02","06","00:00","-1.2","","-2.3","","92","","","","22","","9","","","","99.70","","","","-4","","NA"
"-81.88","42.45","RIDGETOWN RCS","6137154","2012-02-06 01:00","2012","02","06","01:00","-1.6","","-2.7","","92","","","","23","","9","","","","99.68","","","","-5","","NA"
"-81.88","42.45","RIDGETOWN RCS","6137154","2012-02-06 02:00","2012","02","06","02:00","-2.3","","-3.2","","94","","","","23","","6","","","","99.66","","","","-5","","NA"
"-81.88","42.45","RIDGETOWN RCS","6137154","2012-02-06 03:00","2012","02","06","03:00","-2.3","","-3.2","","94","","","","24","","7","","","","99.64","","","","-5","","NA"
"-81.88","42.45","RIDGETOWN RCS","6137154","2012-02-06 04:00","2012","02","06","04:00","-2.0","","-2.9","","94","","","","23","","9","","","","99.56","","","","-5","","NA"
"-81.88","42.45","RIDGETOWN RCS","6137154","2012-02-06 05:00","2012","02","06","05:00","-1.4","","-2.7","","91","","","","23","","11","","","","99.52","","","","-5","","NA"
"-81.88","42.45","RIDGETOWN RCS","6137154","2012-02-06 06:00","2012","02","06","06:00","-1.6","","-2.9","","91","","","","24","","13","","","","99.51","","","","-6","","NA"
"-81.88","42.45","RIDGETOWN RCS","6137154","2012-02-06 07:00","2012","02","06","07:00","-1.4","","-2.7","","91","","","","24","","15","","","","99.52","","","","-6","","NA"
"-81.88","42.45","RIDGETOWN RCS","6137154","2012-02-06 08:00","2012","02","06","08:00","-1.5","","-2.6","","92","","","","25","","13","","","","99.52","","","","-6","","NA"
"-81.88","42.45","RIDGETOWN RCS","6137154","2012-02-06 09:00","2012","02","06","09:00","-1.0","","-2.1","","92","","","","25","","15","","","","99.53","","","","-6","","NA"
"-81.88","42.45","RIDGETOWN RCS","6137154","2012-02-06 10:00","2012","02","06","10:00","0.6","","-1.0","","89","","","","24","","19","","","","99.50","","","","","","NA"
"-81.88","42.45","RIDGETOWN RCS","6137154","2012-02-06 11:00","2012","02","06","11:00","2.6","","-0.2","","82","","","","25","","17","","","","99.45","","","","","","NA"
"-81.88","42.45","RIDGETOWN RCS","6137154","2012-02-06 12:00","2012","02","06","12:00","4.4","","-0.4","","71","","","","24","","22","","","","99.37","","","","","","NA"
"-81.88","42.45","RIDGETOWN RCS","6137154","2012-02-06 13:00","2012","02","06","13:00","6.4","","0.4","","65","","","","24","","24","","","","99.27","","","","","","NA"
"-81.88","42.45","RIDGETOWN RCS","6137154","2012-02-06 14:00","2012","02","06","14:00","7.2","","1.3","","66","","","","24","","26","","","","99.19","","","","","","NA"
"-81.88","42.45","RIDGETOWN RCS","6137154","2012-02-06 15:00","2012","02","06","15:00","7.1","","1.4","","67","","","","23","","28","","","","99.14","","","","","","NA"
"-81.88","42.45","RIDGETOWN RCS","6137154","2012-02-06 16:00","2012","02","06","16:00","6.9","","0.6","","64","","","","23","","30","","","","99.13","","","","","","NA"
"-81.88","42.45","RIDGETOWN RCS","6137154","2012-02-06 17:00","2012","02","06","17:00","6.2","","-0.6","","62","","","","24","","30","","","","99.11","","","","","","NA"
"-81.88","42.45","RIDGETOWN RCS","6137154","2012-02-06 18:00","2012","02","06","18:00","4.6","","-0.6","","69","","","","23","","22","","","","99.11","","","","","","NA"
"-81.88","42.45","RIDGETOWN RCS","6137154","2012-02-06 19:00","2012","02","06","19:00","3.5","","-0.4","","76","","","","24","","17","","","","99.19","","","","","","NA"
"-81.88","42.45","RIDGETOWN RCS","6137154","2012-02-06 20:00","2012","02","06","20:00","2.4","","-0.6","","81","","","","24","","17","","","","99.20","","","","","","NA"
"-81.88","42.45","RIDGETOWN RCS","6137154","2012-02-06 21:00","2012","02","06","21:00","2.1","","-0.3","","84","","","","24","","15","","","","99.23","","","","","","NA"
"-81.88","42.45","RIDGETOWN RCS","6137154","2012-02-06 22:00","2012","02","06","22:00","0.8","","-1.7","","83","","","","26","","6","","","","99.27","","","","","","NA"
"-81.88","42.45","RIDGETOWN RCS","6137154","2012-02-06 23:00","2012","02","06","23:00","0.8","","-1.3","","86","","","","33","","9","","","","99.31","","","","","","NA"
"-81.88","42.45","RIDGETOWN RCS","6137154","2012-02-07 00:00","2012","02","07","00:00","-0.1","","-2.1","","86","","","","31","","13","","","","99.40","","","","-4","","NA"
"-81.88","42.45","RIDGETOWN RCS","6137154","2012-02-07 01:00","2012","02","07","01:00","-1.0","","-2.6","","89","","","","29","","7","","","","99.46","","","","-4","","NA"
"-81.88","42.45","RIDGETOWN RCS","6137154","2012-02-07 02:00","2012","02","07","02:00","-1.8","","-2.9","","92","","","","27","","4","","","","99.48","","","","-3","","NA"
"-81.88","42.45","RIDGETOWN RCS","6137154","2012-02-07 03:00","2012","02","07","03:00","-1.7","","-2.4","","95","","","","24","","7","","","","99.54","","","","-4","","NA"
"-81.88","42.45","RIDGETOWN RCS","6137154","2012-02-07 04:00","2012","02","07","04:00","-0.6","","-1.8","","92","","","","25","","4","","","","99.54","","","","-2","","NA"
"-81.88","42.45","RIDGETOWN RCS","6137154","2012-02-07 05:00","2012","02","07","05:00","-0.4","","-1.7","","91","","","","24","","6","","","","99.58","","","","-2","","NA"
"-81.88","42.45","RIDGETOWN RCS","6137154","2012-02-07 06:00","2012","02","07","06:00","-0.2","","-1.5","","91","","","","26","","6","","","","99.61","","","","-2","","NA"
"-81.88","42.45","RIDGETOWN RCS","6137154","2012-02-07 07:00","2012","02","07","07:00","-0.2","","-1.4","","92","","","","26","","4","","","","99.69","","","","-1","","NA"
"-81.88","42.45","RIDGETOWN RCS","6137154","2012-02-07 08:00","2012","02","07","08:00","-0.1","","-1.4","","91","","","","25","","4","","","","99.76","","","","-1","","NA"
"-81.88","42.45","RIDGETOWN RCS","6137154","2012-02-07 09:00","2012","02","07","09:00","0.5","","-1.3","","88","","","","32","","4","","","","99.84","","","","","","NA"
"-81.88","42.45","RIDGETOWN RCS","6137154","2012-02-07 10:00","2012","02","07","10:00","1.1","","-1.8","","81","","","","33","","4","","","","99.87","","","","","","NA"
"-81.88","42.45","RIDGETOWN RCS","6137154","2012-02-07 11:00","2012","02","07","11:00","1.2","","-1.4","","83","","","","31","","7","","","","99.94","","","","","","NA"
"-81.88","42.45","RIDGETOWN RCS","6137154","2012-02-07 12:00","2012","02","07","12:00","0.8","","-1.8","","83","","","","1","","15","","","","99.98","","","","","","NA"
"-81.88","42.45","RIDGETOWN RCS","6137154","2012-02-07 13:00","2012","02","07","13:00","0.0","","-4.0","","74","","","","1","","19","","","","100.01","","","","-5","","NA"
"-81.88","42.45","RIDGETOWN RCS","6137154","2012-02-07 14:00","2012","02","07","14:00","0.0","","-4.5","","72","","","","36","","19","","","","99.99","","","","-5","","NA"
"-81.88","42.45","RIDGETOWN RCS","6137154","2012-02-07 15:00","2012","02","07","15:00","0.5","","-3.9","","72","","","","1","","17","","","","100.02","","","","","","NA"
"-81.88","42.45","RIDGETOWN RCS","6137154","2012-02-07 16:00","2012","02","07","16:00","0.0","","-4.9","","70","","","","35","","19","","","","100.08","","","","-5","","NA"
"-81.88","42.45","RIDGETOWN RCS","6137154","2012-02-07 17:00","2012","02","07","17:00","-1.3","","-5.1","","75","","","","36","","17","","","","100.16","","","","-6","","NA"
"-81.88","42.45","RIDGETOWN RCS","6137154","2012-02-07 18:00","2012","02","07","18:00","-2.6","","-6.3","","76","","","","36","","15","","","","100.19","","","","-8","","NA"
"-81.88","42.45","RIDGETOWN RCS","6137154","2012-02-07 19:00","2012","02","07","19:00","-3.3","","-6.5","","78","","","","36","","13","","","","100.22","","","","-8","","NA"
"-81.88","42.45","RIDGETOWN RCS","6137154","2012-02-07 20:00","2012","02","07","20:00","-3.5","","-6.5","","80","","","","1","","11","","","","100.23","","","","-8","","NA"
"-81.88","42.45","RIDGETOWN RCS","6137154","2012-02-07 21:00","2012","02","07","21:00","-4.0","","-7.1","","79","","","","1","","9","","","","100.27","","","","-8","","NA"
"-81.88","42.45","RIDGETOWN RCS","6137154","2012-02-07 22:00","2012","02","07","22:00","-4.3","","-7.1","","81","","","","1","","7","","","","100.29","","","","-7","","NA"
"-81.88","42.45","RIDGETOWN RCS","6137154","2012-02-07 23:00","2012","02","07","23:00","-4.6","","-7.1","","83","","","","1","","6","","","","100.30","","","","-7","","NA"
"-81.88","42.45","RIDGETOWN RCS","6137154","2012-02-08 00:00","2012","02","08","00:00","-4.5","","-7.0","","83","","","","2","","7","","","","100.31","","","","-8","","NA"
"-81.88","42.45","RIDGETOWN RCS","6137154","2012-02-08 01:00","2012","02","08","01:00","-4.5","","-7.3","","81","","","","3","","11","","","","100.26","","","","-9","","NA"
"-81.88","42.45","RIDGETOWN RCS","6137154","2012-02-08 02:00","2012","02","08","02:00","-4.6","","-7.6","","80","","","","4","","9","","","","100.24","","","","-8","","NA"
"-81.88","42.45","RIDGETOWN RCS","6137154","2012-02-08 03:00","2012","02","08","03:00","-4.8","","-7.6","","81","","","","3","","9","","","","100.22","","","","-9","","NA"
"-81.88","42.45","RIDGETOWN RCS","6137154","2012-02-08 04:00","2012","02","08","04:00","-4.9","","-8.2","","78","","","","4","","7","","","","100.17","","","","-8","","NA"
"-81.88","42.45","RIDGETOWN RCS","6137154","2012-02-08 05:00","2012","02","08","05:00","-5.3","","-8.7","","77","","","","5","","7","","","","100.14","","","","-9","","NA"
"-81.88","42.45","RIDGETOWN RCS","6137154","2012-02-08 06:00","2012","02","08","06:00","-6.3","","-9.0","","81","","","","6","","2","","","","100.16","","","","-7","","NA"
"-81.88","42.45","RIDGETOWN RCS","6137154","2012-02-08 07:00","2012","02","08","07:00","-6.9","","-8.3","","90","","","","31","","4","","","","100.16","","","","-9","","NA"
"-81.88","42.45","RIDGETOWN RCS","6137154","2012-02-08 08:00","2012","02","08","08:00","-5.8","","-7.7","","86","","","","33","","4","","","","100.16","","","","-8","","NA"
"-81.88","42.45","RIDGETOWN RCS","6137154","2012-02-08 09:00","2012","02","08","09:00","-5.2","","-7.6","","83","","","","33","","6","","","","100.17","","","","-8","","NA"
"-81.88","42.45","RIDGETOWN RCS","6137154","2012-02-08 10:00","2012","02","08","10:00","-4.6","","-7.3","","81","","","","33","","6","","","","100.18","","","","-7","","NA"
"-81.88","42.45","RIDGETOWN RCS","6137154","2012-02-08 11:00","2012","02","08","11:00","-3.1","","-7.0","","74","","","","33","","7","","","","100.13","","","","-6","","NA"
"-81.88","42.45","RIDGETOWN RCS","6137154","2012-02-08 12:00","2012","02","08","12:00","-1.6","","-6.5","","69","","","","33","","9","","","","100.06","","","","-5","","NA"
"-81.88","42.45","RIDGETOWN RCS","6137154","2012-02-08 13:00","2012","02","08","13:00","-1.1","","-8.8","","56","","","","31","","13","","","","99.94","","","","-5","","NA"
"-81.88","42.45","RIDGETOWN RCS","6137154","2012-02-08 14:00","2012","02","08","14:00","-0.7","","-10.2","","49","","","","30","","13","","","","99.89","","","","-5","","NA"
"-81.88","42.45","RIDGETOWN RCS","6137154","2012-02-08 15:00","2012","02","08","15:00","-0.3","","-9.9","","48","","","","27","","7","","","","99.84","","","","-3","","NA"
"-81.88","42.45","RIDGETOWN RCS","6137154","2012-02-08 16:00","2012","02","08","16:00","-0.5","","-9.7","","50","","","","27","","9","","","","99.84","","","","-4","","NA"
"-81.88","42.45","RIDGETOWN RCS","6137154","2012-02-08 17:00","2012","02","08","17:00","-0.8","","-9.7","","51","","","","26","","11","","","","99.82","","","","-5","","NA"
"-81.88","42.45","RIDGETOWN RCS","6137154","2012-02-08 18:00","2012","02","08","18:00","-2.3","","-8.6","","62","","","","26","","9","","","","99.79","","","","-6","","NA"
"-81.88","42.45","RIDGETOWN RCS","6137154","2012-02-08 19:00","2012","02","08","19:00","-3.3","","-6.8","","77","","","","22","","9","","","","99.77","","","","-7","","NA"
"-81.88","42.45","RIDGETOWN RCS","6137154","2012-02-08 20:00","2012","02","08","20:00","-3.5","","-6.4","","80","","","","22","","9","","","","99.77","","","","-7","","NA"
"-81.88","42.45","RIDGETOWN RCS","6137154","2012-02-08 21:00","2012","02","08","21:00","-3.8","","-6.4","","82","","","","24","","11","","","","99.78","","","","-8","","NA"
"-81.88","42.45","RIDGETOWN RCS","6137154","2012-02-08 22:00","2012","02","08","22:00","-4.0","","-6.1","","85","","","","24","","7","","","","99.78","","","","-7","","NA"
"-81.88","42.45","RIDGETOWN RCS","6137154","2012-02-08 23:00","2012","02","08","23:00","-5.0","","-6.5","","89","","","","22","","7","","","","99.77","","","","-8","","NA"
"-81.88","42.45","RIDGETOWN RCS","6137154","2012-02-09 00:00","2012","02","09","00:00","-5.5","","-7.0","","89","","","","23","","6","","","","99.77","","","","-8","","NA"
"-81.88","42.45","RIDGETOWN RCS","6137154","2012-02-09 01:00","2012","02","09","01:00","-4.2","","-6.8","","82","","","","27","","7","","","","99.77","","","","-7","","NA"
"-81.88","42.45","RIDGETOWN RCS","6137154","2012-02-09 02:00","2012","02","09","02:00","-4.6","","-7.3","","81","","","","27","","7","","","","99.78","","","","-8","","NA"
"-81.88","42.45","RIDGETOWN RCS","6137154","2012-02-09 03:00","2012","02","09","03:00","-4.1","","-7.3","","78","","","","27","","9","","","","99.76","","","","-8","","NA"
"-81.88","42.45","RIDGETOWN RCS","6137154","2012-02-09 04:00","2012","02","09","04:00","-5.3","","-7.3","","86","","","","23","","11","","","","99.73","","","","-10","","NA"
"-81.88","42.45","RIDGETOWN RCS","6137154","2012-02-09 05:00","2012","02","09","05:00","-5.3","","-7.3","","86","","","","22","","13","","","","99.71","","","","-10","","NA"
"-81.88","42.45","RIDGETOWN RCS","6137154","2012-02-09 06:00","2012","02","09","06:00","-4.8","","-7.0","","85","","","","23","","17","","","","99.74","","","","-11","","NA"
"-81.88","42.45","RIDGETOWN RCS","6137154","2012-02-09 07:00","2012","02","09","07:00","-4.8","","-7.0","","85","","","","24","","15","","","","99.74","","","","-10","","NA"
"-81.88","42.45","RIDGETOWN RCS","6137154","2012-02-09 08:00","2012","02","09","08:00","-4.5","","-6.8","","84","","","","24","","15","","","","99.78","","","","-10","","NA"
"-81.88","42.45","RIDGETOWN RCS","6137154","2012-02-09 09:00","2012","02","09","09:00","-3.0","","-5.7","","82","","","","24","","15","","","","99.80","","","","-8","","NA"
"-81.88","42.45","RIDGETOWN RCS","6137154","2012-02-09 10:00","2012","02","09","10:00","-1.5","","-4.6","","79","","","","25","","15","","","","99.81","","","","-6","","NA"
"-81.88","42.45","RIDGETOWN RCS","6137154","2012-02-09 11:00","2012","02","09","11:00","-0.2","","-4.8","","71","","","","25","","19","","","","99.78","","","","-5","","NA"
"-81.88","42.45","RIDGETOWN RCS","6137154","2012-02-09 12:00","2012","02","09","12:00","1.7","","-3.6","","68","","","","25","","19","","","","99.74","","","","","","NA"
"-81.88","42.45","RIDGETOWN RCS","6137154","2012-02-09 13:00","2012","02","09","13:00","2.0","","-4.8","","61","","","","24","","24","","","","99.66","","","","","","NA"
"-81.88","42.45","RIDGETOWN RCS","6137154","2012-02-09 14:00","2012","02","09","14:00","2.3","","-2.4","","71","","","","22","","28","","","","99.59","","","","","","NA"
"-81.88","42.45","RIDGETOWN RCS","6137154","2012-02-09 15:00","2012","02","09","15:00","1.7","","-4.1","","65","","","","23","","32","","","","99.56","","","","","","NA"
"-81.88","42.45","RIDGETOWN RCS","6137154","2012-02-09 16:00","2012","02","09","16:00","1.8","","-5.1","","60","","","","23","","30","","","","99.57","","","","","","NA"
"-81.88","42.45","RIDGETOWN RCS","6137154","2012-02-09 17:00","2012","02","09","17:00","0.9","","-5.9","","60","","","","23","","32","","","","99.55","","","","","","NA"
"-81.88","42.45","RIDGETOWN RCS","6137154","2012-02-09 18:00","2012","02","09","18:00","-0.2","","-4.7","","72","","","","22","","22","","","","99.51","","","","-6","","NA"
"-81.88","42.45","RIDGETOWN RCS","6137154","2012-02-09 19:00","2012","02","09","19:00","-0.7","","-4.5","","75","","","","23","","24","","","","99.52","","","","-7","","NA"
"-81.88","42.45","RIDGETOWN RCS","6137154","2012-02-09 20:00","2012","02","09","20:00","-1.1","","-4.5","","78","","","","23","","26","","","","99.54","","","","-7","","NA"
"-81.88","42.45","RIDGETOWN RCS","6137154","2012-02-09 21:00","2012","02","09","21:00","-1.6","","-5.1","","77","","","","23","","28","","","","99.54","","","","-8","","NA"
"-81.88","42.45","RIDGETOWN RCS","6137154","2012-02-09 22:00","2012","02","09","22:00","-2.3","","-5.3","","80","","","","23","","26","","","","99.57","","","","-9","","NA"
"-81.88","42.45","RIDGETOWN RCS","6137154","2012-02-09 23:00","2012","02","09","23:00","-2.9","","-5.6","","82","","","","23","","20","","","","99.54","","","","-9","","NA"
"-81.88","42.45","RIDGETOWN RCS","6137154","2012-02-10 00:00","2012","02","10","00:00","-3.0","","-5.4","","83","","","","23","","20","","","","99.52","","","","-9","","NA"
"-81.88","42.45","RIDGETOWN RCS","6137154","2012-02-10 01:00","2012","02","10","01:00","-3.2","","-5.9","","82","","","","23","","19","","","","99.48","","","","-9","","NA"
"-81.88","42.45","RIDGETOWN RCS","6137154","2012-02-10 02:00","2012","02","10","02:00","-3.6","","-5.8","","85","","","","22","","17","","","","99.44","","","","-9","","NA"
"-81.88","42.45","RIDGETOWN RCS","6137154","2012-02-10 03:00","2012","02","10","03:00","-3.7","","-6.0","","84","","","","22","","19","","","","99.38","","","","-10","","NA"
"-81.88","42.45","RIDGETOWN RCS","6137154","2012-02-10 04:00","2012","02","10","04:00","-3.9","","-6.1","","85","","","","22","","19","","","","99.32","","","","-10","","NA"
"-81.88","42.45","RIDGETOWN RCS","6137154","2012-02-10 05:00","2012","02","10","05:00","-2.9","","-5.7","","81","","","","23","","22","","","","99.32","","","","-9","","NA"
"-81.88","42.45","RIDGETOWN RCS","6137154","2012-02-10 06:00","2012","02","10","06:00","-3.2","","-5.7","","83","","","","23","","17","","","","99.29","","","","-9","","NA"
"-81.88","42.45","RIDGETOWN RCS","6137154","2012-02-10 07:00","2012","02","10","07:00","-2.8","","-5.5","","82","","","","23","","20","","","","99.28","","","","-9","","NA"
"-81.88","42.45","RIDGETOWN RCS","6137154","2012-02-10 08:00","2012","02","10","08:00","-2.5","","-6.0","","77","","","","22","","17","","","","99.24","","","","-8","","NA"
"-81.88","42.45","RIDGETOWN RCS","6137154","2012-02-10 09:00","2012","02","10","09:00","-1.7","","-5.4","","76","","","","21","","19","","","","99.20","","","","-7","","NA"
"-81.88","42.45","RIDGETOWN RCS","6137154","2012-02-10 10:00","2012","02","10","10:00","-0.7","","-4.9","","73","","","","22","","22","","","","99.18","","","","-6","","NA"
"-81.88","42.45","RIDGETOWN RCS","6137154","2012-02-10 11:00","2012","02","10","11:00","-0.5","","-5.0","","72","","","","22","","26","","","","99.15","","","","-7","","NA"
"-81.88","42.45","RIDGETOWN RCS","6137154","2012-02-10 12:00","2012","02","10","12:00","-0.4","","-4.4","","74","","","","22","","24","","","","99.10","","","","-6","","NA"
"-81.88","42.45","RIDGETOWN RCS","6137154","2012-02-10 13:00","2012","02","10","13:00","-0.3","","-4.0","","76","","","","22","","26","","","","99.03","","","","-6","","NA"
"-81.88","42.45","RIDGETOWN RCS","6137154","2012-02-10 14:00","2012","02","10","14:00","-0.5","","-3.2","","82","","","","23","","20","","","","98.95","","","","-6","","NA"
"-81.88","42.45","RIDGETOWN RCS","6137154","2012-02-10 15:00","2012","02","10","15:00","-0.5","","-2.9","","84","","","","23","","22","","","","98.88","","","","-6","","NA"
"-81.88","42.45","RIDGETOWN RCS","6137154","2012-02-10 16:00","2012","02","10","16:00","-0.9","","-1.9","","93","","","","22","","22","","","","98.84","","","","-7","","NA"
"-81.88","42.45","RIDGETOWN RCS","6137154","2012-02-10 17:00","2012","02","10","17:00","-0.6","","-2.1","","90","","","","22","","22","","","","98.85","","","","-6","","NA"
"-81.88","42.45","RIDGETOWN RCS","6137154","2012-02-10 18:00","2012","02","10","18:00","-0.7","","-2.0","","91","","","","22","","19","","","","98.84","","","","-6","","NA"
"-81.88","42.45","RIDGETOWN RCS","6137154","2012-02-10 19:00","2012","02","10","19:00","-1.0","","-2.0","","93","","","","22","","20","","","","98.80","","","","-7","","NA"
"-81.88","42.45","RIDGETOWN RCS","6137154","2012-02-10 20:00","2012","02","10","20:00","-1.0","","-2.0","","93","","","","22","","22","","","","98.75","","","","-7","","NA"
"-81.88","42.45","RIDGETOWN RCS","6137154","2012-02-10 21:00","2012","02","10","21:00","-1.0","","-1.9","","94","","","","21","","19","","","","98.69","","","","-6","","NA"
"-81.88","42.45","RIDGETOWN RCS","6137154","2012-02-10 22:00","2012","02","10","22:00","-1.0","","-1.7","","95","","","","21","","19","","","","98.63","","","","-6","","NA"
"-81.88","42.45","RIDGETOWN RCS","6137154","2012-02-10 23:00","2012","02","10","23:00","-1.0","","-1.6","","96","","","","21","","19","","","","98.56","","","","-6","","NA"
"-81.88","42.45","RIDGETOWN RCS","6137154","2012-02-11 00:00","2012","02","11","00:00","-3.4","","-4.0","","96","","","","33","","11","","","","98.56","","","","-8","","NA"
"-81.88","42.45","RIDGETOWN RCS","6137154","2012-02-11 01:00","2012","02","11","01:00","-5.1","","-6.1","","93","","","","34","","17","","","","98.55","","","","-11","","NA"
"-81.88","42.45","RIDGETOWN RCS","6137154","2012-02-11 02:00","2012","02","11","02:00","-6.3","","-7.8","","89","","","","35","","22","","","","98.55","","","","-14","","NA"
"-81.88","42.45","RIDGETOWN RCS","6137154","2012-02-11 03:00","2012","02","11","03:00","-7.6","","-9.1","","89","","","","36","","20","","","","98.56","","","","-15","","NA"
"-81.88","42.45","RIDGETOWN RCS","6137154","2012-02-11 04:00","2012","02","11","04:00","-8.0","","-9.7","","88","","","","36","","22","","","","98.55","","","","-16","","NA"
"-81.88","42.45","RIDGETOWN RCS","6137154","2012-02-11 05:00","2012","02","11","05:00","-8.2","","-9.7","","89","","","","35","","26","","","","98.58","","","","-17","","NA"
"-81.88","42.45","RIDGETOWN RCS","6137154","2012-02-11 06:00","2012","02","11","06:00","-8.3","","-9.7","","90","","","","35","","24","","","","98.64","","","","-16","","NA"
"-81.88","42.45","RIDGETOWN RCS","6137154","2012-02-11 07:00","2012","02","11","07:00","-8.7","","-10.5","","87","","","","35","","33","","","","98.73","","","","-18","","NA"
"-81.88","42.45","RIDGETOWN RCS","6137154","2012-02-11 08:00","2012","02","11","08:00","-8.8","","-10.8","","85","","","","35","","35","","","","98.86","","","","-19","","NA"
"-81.88","42.45","RIDGETOWN RCS","6137154","2012-02-11 09:00","2012","02","11","09:00","-8.4","","-11.1","","81","","","","35","","32","","","","98.99","","","","-18","","NA"
"-81.88","42.45","RIDGETOWN RCS","6137154","2012-02-11 10:00","2012","02","11","10:00","-8.2","","-10.9","","81","","","","35","","30","","","","99.10","","","","-17","","NA"
"-81.88","42.45","RIDGETOWN RCS","6137154","2012-02-11 11:00","2012","02","11","11:00","-8.0","","-10.6","","82","","","","35","","28","","","","99.17","","","","-17","","NA"
"-81.88","42.45","RIDGETOWN RCS","6137154","2012-02-11 12:00","2012","02","11","12:00","-7.7","","-11.3","","75","","","","34","","30","","","","99.21","","","","-17","","NA"
"-81.88","42.45","RIDGETOWN RCS","6137154","2012-02-11 13:00","2012","02","11","13:00","-7.9","","-10.2","","84","","","","34","","30","","","","99.22","","","","-17","","NA"
"-81.88","42.45","RIDGETOWN RCS","6137154","2012-02-11 14:00","2012","02","11","14:00","-7.8","","-11.3","","76","","","","34","","32","","","","99.25","","","","-17","","NA"
"-81.88","42.45","RIDGETOWN RCS","6137154","2012-02-11 15:00","2012","02","11","15:00","-9.0","","-12.5","","76","","","","32","","24","","","","99.32","","","","-17","","NA"
"-81.88","42.45","RIDGETOWN RCS","6137154","2012-02-11 16:00","2012","02","11","16:00","-9.1","","-12.8","","74","","","","32","","20","","","","99.42","","","","-17","","NA"
"-81.88","42.45","RIDGETOWN RCS","6137154","2012-02-11 17:00","2012","02","11","17:00","-10.2","","-13.9","","74","","","","30","","22","","","","99.50","","","","-18","","NA"
"-81.88","42.45","RIDGETOWN RCS","6137154","2012-02-11 18:00","2012","02","11","18:00","-11.4","","-15.7","","70","","","","30","","24","","","","99.60","","","","-20","","NA"
"-81.88","42.45","RIDGETOWN RCS","6137154","2012-02-11 19:00","2012","02","11","19:00","-10.8","","-14.9","","72","","","","29","","20","","","","99.63","","","","-19","","NA"
"-81.88","42.45","RIDGETOWN RCS","6137154","2012-02-11 20:00","2012","02","11","20:00","-10.0","","-14.1","","72","","","","29","","19","","","","99.63","","","","-18","","NA"
"-81.88","42.45","RIDGETOWN RCS","6137154","2012-02-11 21:00","2012","02","11","21:00","-11.2","","-14.7","","75","","","","29","","11","","","","99.65","","","","-17","","NA"
"-81.88","42.45","RIDGETOWN RCS","6137154","2012-02-11 22:00","2012","02","11","22:00","-10.3","","-13.8","","75","","","","26","","7","","","","99.61","","","","-14","","NA"
"-81.88","42.45","RIDGETOWN RCS","6137154","2012-02-11 23:00","2012","02","11","23:00","-9.7","","-12.5","","80","","","","24","","13","","","","99.58","","","","-16","","NA"
"-81.88","42.45","RIDGETOWN RCS","6137154","2012-02-12 00:00","2012","02","12","00:00","-7.6","","-11.1","","76","","","","29","","17","","","","99.55","","","","-14","","NA"
"-81.88","42.45","RIDGETOWN RCS","6137154","2012-02-12 01:00","2012","02","12","01:00","-7.6","","-11.0","","77","","","","29","","19","","","","99.54","","","","-15","","NA"
"-81.88","42.45","RIDGETOWN RCS","6137154","2012-02-12 02:00","2012","02","12","02:00","-8.4","","-12.4","","73","","","","30","","24","","","","99.49","","","","-17","","NA"
"-81.88","42.45","RIDGETOWN RCS","6137154","2012-02-12 03:00","2012","02","12","03:00","-8.8","","-12.6","","74","","","","27","","15","","","","99.43","","","","-15","","NA"
"-81.88","42.45","RIDGETOWN RCS","6137154","2012-02-12 04:00","2012","02","12","04:00","-8.1","","-11.8","","75","","","","27","","19","","","","99.32","","","","-15","","NA"
"-81.88","42.45","RIDGETOWN RCS","6137154","2012-02-12 05:00","2012","02","12","05:00","-7.5","","-11.0","","76","","","","27","","20","","","","99.32","","","","-15","","NA"
"-81.88","42.45","RIDGETOWN RCS","6137154","2012-02-12 06:00","2012","02","12","06:00","-7.5","","-10.8","","77","","","","27","","20","","","","99.29","","","","-15","","NA"
"-81.88","42.45","RIDGETOWN RCS","6137154","2012-02-12 07:00","2012","02","12","07:00","-7.2","","-10.6","","77","","","","28","","24","","","","99.30","","","","-15","","NA"
"-81.88","42.45","RIDGETOWN RCS","6137154","2012-02-12 08:00","2012","02","12","08:00","-6.8","","-10.2","","77","","","","28","","20","","","","99.35","","","","-14","","NA"
"-81.88","42.45","RIDGETOWN RCS","6137154","2012-02-12 09:00","2012","02","12","09:00","-6.2","","-10.0","","74","","","","28","","26","","","","99.38","","","","-14","","NA"
"-81.88","42.45","RIDGETOWN RCS","6137154","2012-02-12 10:00","2012","02","12","10:00","-5.5","","-9.3","","75","","","","28","","26","","","","99.43","","","","-13","","NA"
"-81.88","42.45","RIDGETOWN RCS","6137154","2012-02-12 11:00","2012","02","12","11:00","-4.9","","-9.0","","73","","","","29","","30","","","","99.48","","","","-13","","NA"
"-81.88","42.45","RIDGETOWN RCS","6137154","2012-02-12 12:00","2012","02","12","12:00","-4.7","","-9.4","","70","","","","28","","24","","","","99.48","","","","-12","","NA"
"-81.88","42.45","RIDGETOWN RCS","6137154","2012-02-12 13:00","2012","02","12","13:00","-4.4","","-9.5","","68","","","","28","","22","","","","99.44","","","","-11","","NA"
"-81.88","42.45","RIDGETOWN RCS","6137154","2012-02-12 14:00","2012","02","12","14:00","-4.3","","-9.9","","65","","","","27","","24","","","","99.42","","","","-11","","NA"
"-81.88","42.45","RIDGETOWN RCS","6137154","2012-02-12 15:00","2012","02","12","15:00","-4.2","","-9.7","","65","","","","27","","20","","","","99.39","","","","-11","","NA"
"-81.88","42.45","RIDGETOWN RCS","6137154","2012-02-12 16:00","2012","02","12","16:00","-3.7","","-10.0","","62","","","","27","","15","","","","99.39","","","","-9","","NA"
"-81.88","42.45","RIDGETOWN RCS","6137154","2012-02-12 17:00","2012","02","12","17:00","-4.0","","-10.1","","62","","","","27","","13","","","","99.38","","","","-9","","NA"
"-81.88","42.45","RIDGETOWN RCS","6137154","2012-02-12 18:00","2012","02","12","18:00","-4.9","","-10.4","","65","","","","26","","9","","","","99.41","","","","-9","","NA"
"-81.88","42.45","RIDGETOWN RCS","6137154","2012-02-12 19:00","2012","02","12","19:00","-8.4","","-11.1","","81","","","","23","","9","","","","99.43","","","","-13","","NA"
"-81.88","42.45","RIDGETOWN RCS","6137154","2012-02-12 20:00","2012","02","12","20:00","-6.8","","-10.4","","75","","","","24","","13","","","","99.42","","","","-12","","NA"
"-81.88","42.45","RIDGETOWN RCS","6137154","2012-02-12 21:00","2012","02","12","21:00","-5.9","","-10.0","","73","","","","25","","11","","","","99.42","","","","-11","","NA"
"-81.88","42.45","RIDGETOWN RCS","6137154","2012-02-12 22:00","2012","02","12","22:00","-7.0","","-9.8","","80","","","","25","","9","","","","99.43","","","","-11","","NA"
"-81.88","42.45","RIDGETOWN RCS","6137154","2012-02-12 23:00","2012","02","12","23:00","-5.1","","-9.0","","74","","","","27","","15","","","","99.41","","","","-11","","NA"
"-81.88","42.45","RIDGETOWN RCS","6137154","2012-02-13 00:00","2012","02","13","00:00","-5.6","","-9.0","","77","","","","27","","11","","","","99.40","","","","-10","","NA"
"-81.88","42.45","RIDGETOWN RCS","6137154","2012-02-13 01:00","2012","02","13","01:00","-6.8","","-9.6","","80","","","","24","","13","","","","99.40","","","","-12","","NA"
"-81.88","42.45","RIDGETOWN RCS","6137154","2012-02-13 02:00","2012","02","13","02:00","-7.3","","-9.8","","82","","","","24","","13","","","","99.39","","","","-13","","NA"
"-81.88","42.45","RIDGETOWN RCS","6137154","2012-02-13 03:00","2012","02","13","03:00","-7.2","","-9.7","","82","","","","24","","15","","","","99.38","","","","-13","","NA"
"-81.88","42.45","RIDGETOWN RCS","6137154","2012-02-13 04:00","2012","02","13","04:00","-7.4","","-9.8","","83","","","","24","","13","","","","99.37","","","","-13","","NA"
"-81.88","42.45","RIDGETOWN RCS","6137154","2012-02-13 05:00","2012","02","13","05:00","-6.0","","-9.2","","78","","","","24","","15","","","","99.40","","","","-12","","NA"
"-81.88","42.45","RIDGETOWN RCS","6137154","2012-02-13 06:00","2012","02","13","06:00","-6.6","","-9.4","","80","","","","24","","13","","","","99.41","","","","-12","","NA"
"-81.88","42.45","RIDGETOWN RCS","6137154","2012-02-13 07:00","2012","02","13","07:00","-7.3","","-9.8","","82","","","","24","","11","","","","99.40","","","","-12","","NA"
"-81.88","42.45","RIDGETOWN RCS","6137154","2012-02-13 08:00","2012","02","13","08:00","-6.7","","-9.5","","80","","","","24","","15","","","","99.43","","","","-13","","NA"
"-81.88","42.45","RIDGETOWN RCS","6137154","2012-02-13 09:00","2012","02","13","09:00","-4.7","","-8.7","","74","","","","24","","20","","","","99.49","","","","-11","","NA"
"-81.88","42.45","RIDGETOWN RCS","6137154","2012-02-13 10:00","2012","02","13","10:00","-3.3","","-7.9","","70","","","","24","","19","","","","99.50","","","","-9","","NA"
"-81.88","42.45","RIDGETOWN RCS","6137154","2012-02-13 11:00","2012","02","13","11:00","-1.7","","-7.6","","64","","","","26","","17","","","","99.48","","","","-7","","NA"
"-81.88","42.45","RIDGETOWN RCS","6137154","2012-02-13 12:00","2012","02","13","12:00","-0.8","","-7.1","","62","","","","24","","19","","","","99.45","","","","-6","","NA"
"-81.88","42.45","RIDGETOWN RCS","6137154","2012-02-13 13:00","2012","02","13","13:00","-0.1","","-6.7","","61","","","","25","","20","","","","99.39","","","","-5","","NA"
"-81.88","42.45","RIDGETOWN RCS","6137154","2012-02-13 14:00","2012","02","13","14:00","0.3","","-6.4","","61","","","","24","","20","","","","99.31","","","","","","NA"
"-81.88","42.45","RIDGETOWN RCS","6137154","2012-02-13 15:00","2012","02","13","15:00","0.3","","-5.9","","63","","","","24","","24","","","","99.26","","","","","","NA"
"-81.88","42.45","RIDGETOWN RCS","6137154","2012-02-13 16:00","2012","02","13","16:00","-0.1","","-5.1","","69","","","","22","","24","","","","99.22","","","","-6","","NA"
"-81.88","42.45","RIDGETOWN RCS","6137154","2012-02-13 17:00","2012","02","13","17:00","-0.8","","-5.8","","69","","","","22","","24","","","","99.20","","","","-7","","NA"
"-81.88","42.45","RIDGETOWN RCS","6137154","2012-02-13 18:00","2012","02","13","18:00","-0.7","","-5.7","","69","","","","23","","22","","","","99.22","","","","-6","","NA"
"-81.88","42.45","RIDGETOWN RCS","6137154","2012-02-13 19:00","2012","02","13","19:00","-0.6","","-6.2","","66","","","","23","","20","","","","99.20","","","","-6","","NA"
"-81.88","42.45","RIDGETOWN RCS","6137154","2012-02-13 20:00","2012","02","13","20:00","-1.0","","-6.2","","68","","","","23","","17","","","","99.16","","","","-6","","NA"
"-81.88","42.45","RIDGETOWN RCS","6137154","2012-02-13 21:00","2012","02","13","21:00","-1.1","","-6.5","","67","","","","23","","17","","","","99.17","","","","-6","","NA"
"-81.88","42.45","RIDGETOWN RCS","6137154","2012-02-13 22:00","2012","02","13","22:00","-2.0","","-7.1","","68","","","","23","","13","","","","99.18","","","","-6","","NA"
"-81.88","42.45","RIDGETOWN RCS","6137154","2012-02-13 23:00","2012","02","13","23:00","-2.1","","-6.8","","70","","","","22","","9","","","","99.16","","","","-6","","NA"
"-81.88","42.45","RIDGETOWN RCS","6137154","2012-02-14 00:00","2012","02","14","00:00","-1.6","","-6.4","","70","","","","22","","11","","","","99.13","","","","-5","","NA"
"-81.88","42.45","RIDGETOWN RCS","6137154","2012-02-14 01:00","2012","02","14","01:00","-1.3","","-5.6","","73","","","","21","","9","","","","99.08","","","","-5","","NA"
"-81.88","42.45","RIDGETOWN RCS","6137154","2012-02-14 02:00","2012","02","14","02:00","-1.2","","-5.2","","74","","","","21","","9","","","","99.03","","","","-4","","NA"
"-81.88","42.45","RIDGETOWN RCS","6137154","2012-02-14 03:00","2012","02","14","03:00","-0.7","","-5.3","","71","","","","20","","11","","","","98.98","","","","-4","","NA"
"-81.88","42.45","RIDGETOWN RCS","6137154","2012-02-14 04:00","2012","02","14","04:00","-0.4","","-5.0","","71","","","","21","","17","","","","98.92","","","","-5","","NA"
"-81.88","42.45","RIDGETOWN RCS","6137154","2012-02-14 05:00","2012","02","14","05:00","-1.5","","-2.8","","91","","","","22","","17","","","","98.94","","","","-7","","NA"
"-81.88","42.45","RIDGETOWN RCS","6137154","2012-02-14 06:00","2012","02","14","06:00","-1.5","","-2.3","","94","","","","22","","11","","","","98.91","","","","-5","","NA"
"-81.88","42.45","RIDGETOWN RCS","6137154","2012-02-14 07:00","2012","02","14","07:00","-1.2","","-1.9","","95","","","","21","","9","","","","98.88","","","","-4","","NA"
"-81.88","42.45","RIDGETOWN RCS","6137154","2012-02-14 08:00","2012","02","14","08:00","-0.9","","-1.5","","96","","","","20","","13","","","","98.88","","","","-5","","NA"
"-81.88","42.45","RIDGETOWN RCS","6137154","2012-02-14 09:00","2012","02","14","09:00","-0.6","","-1.5","","94","","","","19","","13","","","","98.88","","","","-5","","NA"
"-81.88","42.45","RIDGETOWN RCS","6137154","2012-02-14 10:00","2012","02","14","10:00","-0.2","","-1.1","","94","","","","19","","13","","","","98.84","","","","-4","","NA"
"-81.88","42.45","RIDGETOWN RCS","6137154","2012-02-14 11:00","2012","02","14","11:00","0.1","","-1.1","","92","","","","21","","15","","","","98.81","","","","","","NA"
"-81.88","42.45","RIDGETOWN RCS","6137154","2012-02-14 12:00","2012","02","14","12:00","0.2","","-1.1","","91","","","","21","","17","","","","98.80","","","","","","NA"
"-81.88","42.45","RIDGETOWN RCS","6137154","2012-02-14 13:00","2012","02","14","13:00","0.2","","-1.1","","91","","","","21","","17","","","","98.72","","","","","","NA"
"-81.88","42.45","RIDGETOWN RCS","6137154","2012-02-14 14:00","2012","02","14","14:00","0.4","","-1.2","","89","","","","22","","17","","","","98.70","","","","","","NA"
"-81.88","42.45","RIDGETOWN RCS","6137154","2012-02-14 15:00","2012","02","14","15:00","0.5","","-1.2","","88","","","","23","","15","","","","98.74","","","","","","NA"
"-81.88","42.45","RIDGETOWN RCS","6137154","2012-02-14 16:00","2012","02","14","16:00","0.5","","-1.0","","90","","","","23","","11","","","","98.76","","","","","","NA"
"-81.88","42.45","RIDGETOWN RCS","6137154","2012-02-14 17:00","2012","02","14","17:00","0.3","","-1.2","","90","","","","22","","11","","","","98.80","","","","","","NA"
"-81.88","42.45","RIDGETOWN RCS","6137154","2012-02-14 18:00","2012","02","14","18:00","0.2","","-1.1","","91","","","","22","","9","","","","98.84","","","","","","NA"
"-81.88","42.45","RIDGETOWN RCS","6137154","2012-02-14 19:00","2012","02","14","19:00","0.1","","-1.0","","92","","","","22","","9","","","","98.92","","","","","","NA"
"-81.88","42.45","RIDGETOWN RCS","6137154","2012-02-14 20:00","2012","02","14","20:00","0.1","","-1.0","","92","","","","22","","9","","","","98.98","","","","","","NA"
"-81.88","42.45","RIDGETOWN RCS","6137154","2012-02-14 21:00","2012","02","14","21:00","0.0","","-1.0","","93","","","","23","","9","","","","99.03","","","","-3","","NA"
"-81.88","42.45","RIDGETOWN RCS","6137154","2012-02-14 22:00","2012","02","14","22:00","0.1","","-1.1","","92","","","","23","","11","","","","99.09","","","","","","NA"
"-81.88","42.45","RIDGETOWN RCS","6137154","2012-02-14 23:00","2012","02","14","23:00","0.1","","-1.2","","91","","","","24","","11","","","","99.16","","","","","","NA"
"-81.88","42.45","RIDGETOWN RCS","6137154","2012-02-15 00:00","2012","02","15","00:00","0.0","","-1.2","","92","","","","24","","13","","","","99.24","","","","-4","","NA"
"-81.88","42.45","RIDGETOWN RCS","6137154","2012-02-15 01:00","2012","02","15","01:00","0.0","","-1.3","","91","","","","24","","13","","","","99.31","","","","-4","","NA"
"-81.88","42.45","RIDGETOWN RCS","6137154","2012-02-15 02:00","2012","02","15","02:00","-0.1","","-1.5","","90","","","","24","","13","","","","99.36","","","","-4","","NA"
"-81.88","42.45","RIDGETOWN RCS","6137154","2012-02-15 03:00","2012","02","15","03:00","0.0","","-1.5","","90","","","","24","","13","","","","99.42","","","","-4","","NA"
"-81.88","42.45","RIDGETOWN RCS","6137154","2012-02-15 04:00","2012","02","15","04:00","-0.5","","-2.5","","86","","","","24","","11","","","","99.44","","","","-4","","NA"
"-81.88","42.45","RIDGETOWN RCS","6137154","2012-02-15 05:00","2012","02","15","05:00","-1.6","","-3.2","","89","","","","22","","9","","","","99.53","","","","-5","","NA"
"-81.88","42.45","RIDGETOWN RCS","6137154","2012-02-15 06:00","2012","02","15","06:00","-0.7","","-2.7","","86","","","","22","","13","","","","99.61","","","","-5","","NA"
"-81.88","42.45","RIDGETOWN RCS","6137154","2012-02-15 07:00","2012","02","15","07:00","-0.2","","-2.2","","86","","","","23","","15","","","","99.68","","","","-5","","NA"
"-81.88","42.45","RIDGETOWN RCS","6137154","2012-02-15 08:00","2012","02","15","08:00","0.1","","-2.3","","84","","","","23","","15","","","","99.76","","","","","","NA"
"-81.88","42.45","RIDGETOWN RCS","6137154","2012-02-15 09:00","2012","02","15","09:00","0.7","","-2.0","","82","","","","22","","15","","","","99.83","","","","","","NA"
"-81.88","42.45","RIDGETOWN RCS","6137154","2012-02-15 10:00","2012","02","15","10:00","1.2","","-2.1","","79","","","","22","","15","","","","99.87","","","","","","NA"
"-81.88","42.45","RIDGETOWN RCS","6137154","2012-02-15 11:00","2012","02","15","11:00","1.5","","-1.7","","79","","","","21","","17","","","","99.88","","","","","","NA"
"-81.88","42.45","RIDGETOWN RCS","6137154","2012-02-15 12:00","2012","02","15","12:00","1.7","","-2.1","","76","","","","22","","22","","","","99.91","","","","","","NA"
"-81.88","42.45","RIDGETOWN RCS","6137154","2012-02-15 13:00","2012","02","15","13:00","1.8","","-1.9","","76","","","","21","","22","","","","99.80","","","","","","NA"
"-81.88","42.45","RIDGETOWN RCS","6137154","2012-02-15 14:00","2012","02","15","14:00","1.8","","-2.1","","75","","","","21","","22","","","","99.76","","","","","","NA"
"-81.88","42.45","RIDGETOWN RCS","6137154","2012-02-15 15:00","2012","02","15","15:00","1.9","","-1.7","","77","","","","21","","20","","","","99.75","","","","","","NA"
"-81.88","42.45","RIDGETOWN RCS","6137154","2012-02-15 16:00","2012","02","15","16:00","1.8","","-1.7","","78","","","","21","","22","","","","99.76","","","","","","NA"
"-81.88","42.45","RIDGETOWN RCS","6137154","2012-02-15 17:00","2012","02","15","17:00","1.7","","-2.0","","76","","","","20","","11","","","","99.76","","","","","","NA"
"-81.88","42.45","RIDGETOWN RCS","6137154","2012-02-15 18:00","2012","02","15","18:00","0.7","","-1.9","","83","","","","19","","7","","","","99.78","","","","","","NA"
"-81.88","42.45","RIDGETOWN RCS","6137154","2012-02-15 19:00","2012","02","15","19:00","0.3","","-1.5","","88","","","","17","","7","","","","99.77","","","","","","NA"
"-81.88","42.45","RIDGETOWN RCS","6137154","2012-02-15 20:00","2012","02","15","20:00","0.2","","-1.3","","90","","","","13","","9","","","","99.73","","","","","","NA"
"-81.88","42.45","RIDGETOWN RCS","6137154","2012-02-15 21:00","2012","02","15","21:00","0.7","","-1.4","","86","","","","14","","7","","","","99.70","","","","","","NA"
"-81.88","42.45","RIDGETOWN RCS","6137154","2012-02-15 22:00","2012","02","15","22:00","0.8","","-1.3","","86","","","","14","","7","","","","99.70","","","","","","NA"
"-81.88","42.45","RIDGETOWN RCS","6137154","2012-02-15 23:00","2012","02","15","23:00","1.0","","-1.1","","86","","","","13","","11","","","","99.62","","","","","","NA"
"-81.88","42.45","RIDGETOWN RCS","6137154","2012-02-16 00:00","2012","02","16","00:00","1.4","","-0.2","","89","","","","12","","11","","","","99.52","","","","","","NA"
"-81.88","42.45","RIDGETOWN RCS","6137154","2012-02-16 01:00","2012","02","16","01:00","1.7","","0.1","","89","","","","13","","19","","","","99.44","","","","","","NA"
"-81.88","42.45","RIDGETOWN RCS","6137154","2012-02-16 02:00","2012","02","16","02:00","1.6","","0.3","","91","","","","13","","17","","","","99.37","","","","","","NA"
"-81.88","42.45","RIDGETOWN RCS","6137154","2012-02-16 03:00","2012","02","16","03:00","1.9","","0.6","","91","","","","13","","19","","","","99.31","","","","","","NA"
"-81.88","42.45","RIDGETOWN RCS","6137154","2012-02-16 04:00","2012","02","16","04:00","1.8","","0.9","","94","","","","12","","15","","","","99.25","","","","","","NA"
"-81.88","42.45","RIDGETOWN RCS","6137154","2012-02-16 05:00","2012","02","16","05:00","1.8","","1.0","","94","","","","11","","11","","","","99.20","","","","","","NA"
"-81.88","42.45","RIDGETOWN RCS","6137154","2012-02-16 06:00","2012","02","16","06:00","1.6","","0.9","","95","","","","11","","13","","","","99.11","","","","","","NA"
"-81.88","42.45","RIDGETOWN RCS","6137154","2012-02-16 07:00","2012","02","16","07:00","1.7","","0.9","","94","","","","12","","20","","","","99.07","","","","","","NA"
"-81.88","42.45","RIDGETOWN RCS","6137154","2012-02-16 08:00","2012","02","16","08:00","2.0","","1.3","","95","","","","12","","17","","","","99.03","","","","","","NA"
"-81.88","42.45","RIDGETOWN RCS","6137154","2012-02-16 09:00","2012","02","16","09:00","2.2","","1.6","","96","","","","13","","13","","","","98.99","","","","","","NA"
"-81.88","42.45","RIDGETOWN RCS","6137154","2012-02-16 10:00","2012","02","16","10:00","2.7","","2.1","","96","","","","16","","17","","","","98.96","","","","","","NA"
"-81.88","42.45","RIDGETOWN RCS","6137154","2012-02-16 11:00","2012","02","16","11:00","3.3","","2.8","","97","","","","20","","11","","","","98.94","","","","","","NA"
"-81.88","42.45","RIDGETOWN RCS","6137154","2012-02-16 12:00","2012","02","16","12:00","4.3","","3.8","","97","","","","21","","15","","","","98.86","","","","","","NA"
"-81.88","42.45","RIDGETOWN RCS","6137154","2012-02-16 13:00","2012","02","16","13:00","5.0","","4.5","","97","","","","23","","15","","","","98.81","","","","","","NA"
"-81.88","42.45","RIDGETOWN RCS","6137154","2012-02-16 14:00","2012","02","16","14:00","5.0","","4.3","","95","","","","27","","13","","","","98.82","","","","","","NA"
"-81.88","42.45","RIDGETOWN RCS","6137154","2012-02-16 15:00","2012","02","16","15:00","4.7","","3.8","","94","","","","27","","9","","","","98.81","","","","","","NA"
"-81.88","42.45","RIDGETOWN RCS","6137154","2012-02-16 16:00","2012","02","16","16:00","4.8","","3.8","","93","","","","27","","9","","","","98.84","","","","","","NA"
"-81.88","42.45","RIDGETOWN RCS","6137154","2012-02-16 17:00","2012","02","16","17:00","4.3","","3.2","","93","","","","26","","9","","","","98.91","","","","","","NA"
"-81.88","42.45","RIDGETOWN RCS","6137154","2012-02-16 18:00","2012","02","16","18:00","3.8","","2.2","","89","","","","28","","11","","","","98.97","","","","","","NA"
"-81.88","42.45","RIDGETOWN RCS","6137154","2012-02-16 19:00","2012","02","16","19:00","3.7","","1.8","","87","","","","26","","11","","","","99.08","","","","","","NA"
"-81.88","42.45","RIDGETOWN RCS","6137154","2012-02-16 20:00","2012","02","16","20:00","3.6","","0.9","","82","","","","28","","15","","","","99.15","","","","","","NA"
"-81.88","42.45","RIDGETOWN RCS","6137154","2012-02-16 21:00","2012","02","16","21:00","3.1","","0.4","","82","","","","28","","15","","","","99.19","","","","","","NA"
"-81.88","42.45","RIDGETOWN RCS","6137154","2012-02-16 22:00","2012","02","16","22:00","1.9","","-0.6","","83","","","","29","","11","","","","99.25","","","","","","NA"
"-81.88","42.45","RIDGETOWN RCS","6137154","2012-02-16 23:00","2012","02","16","23:00","1.0","","-1.7","","82","","","","28","","11","","","","99.30","","","","","","NA"
"-81.88","42.45","RIDGETOWN RCS","6137154","2012-02-17 00:00","2012","02","17","00:00","0.7","","-1.6","","85","","","","25","","9","","","","99.33","","","","","","NA"
"-81.88","42.45","RIDGETOWN RCS","6137154","2012-02-17 01:00","2012","02","17","01:00","0.0","","-1.6","","89","","","","24","","11","","","","99.34","","","","-4","","NA"
"-81.88","42.45","RIDGETOWN RCS","6137154","2012-02-17 02:00","2012","02","17","02:00","-0.6","","-1.8","","92","","","","23","","9","","","","99.31","","","","-4","","NA"
"-81.88","42.45","RIDGETOWN RCS","6137154","2012-02-17 03:00","2012","02","17","03:00","-0.5","","-2.1","","89","","","","23","","11","","","","99.28","","","","-4","","NA"
"-81.88","42.45","RIDGETOWN RCS","6137154","2012-02-17 04:00","2012","02","17","04:00","0.2","","-1.8","","86","","","","23","","13","","","","99.30","","","","","","NA"
"-81.88","42.45","RIDGETOWN RCS","6137154","2012-02-17 05:00","2012","02","17","05:00","0.5","","-1.8","","85","","","","23","","11","","","","99.33","","","","","","NA"
"-81.88","42.45","RIDGETOWN RCS","6137154","2012-02-17 06:00","2012","02","17","06:00","0.7","","-1.8","","83","","","","25","","9","","","","99.34","","","","","","NA"
"-81.88","42.45","RIDGETOWN RCS","6137154","2012-02-17 07:00","2012","02","17","07:00","0.7","","-1.6","","85","","","","24","","11","","","","99.32","","","","","","NA"
"-81.88","42.45","RIDGETOWN RCS","6137154","2012-02-17 08:00","2012","02","17","08:00","0.7","","-1.5","","85","","","","24","","11","","","","99.35","","","","","","NA"
"-81.88","42.45","RIDGETOWN RCS","6137154","2012-02-17 09:00","2012","02","17","09:00","1.2","","-1.2","","84","","","","25","","11","","","","99.39","","","","","","NA"
"-81.88","42.45","RIDGETOWN RCS","6137154","2012-02-17 10:00","2012","02","17","10:00","2.1","","-1.1","","79","","","","27","","17","","","","99.39","","","","","","NA"
"-81.88","42.45","RIDGETOWN RCS","6137154","2012-02-17 11:00","2012","02","17","11:00","3.1","","-2.5","","67","","","","29","","20","","","","99.41","","","","","","NA"
"-81.88","42.45","RIDGETOWN RCS","6137154","2012-02-17 12:00","2012","02","17","12:00","3.9","","-2.6","","63","","","","29","","24","","","","99.42","","","","","","NA"
"-81.88","42.45","RIDGETOWN RCS","6137154","2012-02-17 13:00","2012","02","17","13:00","3.1","","-4.2","","59","","","","29","","19","","","","99.43","","","","","","NA"
"-81.88","42.45","RIDGETOWN RCS","6137154","2012-02-17 14:00","2012","02","17","14:00","4.7","","-4.2","","52","","","","29","","19","","","","99.42","","","","","","NA"
"-81.88","42.45","RIDGETOWN RCS","6137154","2012-02-17 15:00","2012","02","17","15:00","5.0","","-5.1","","48","","","","29","","19","","","","99.42","","","","","","NA"
"-81.88","42.45","RIDGETOWN RCS","6137154","2012-02-17 16:00","2012","02","17","16:00","4.7","","-6.0","","46","","","","29","","15","","","","99.46","","","","","","NA"
"-81.88","42.45","RIDGETOWN RCS","6137154","2012-02-17 17:00","2012","02","17","17:00","4.2","","-5.7","","48","","","","27","","9","","","","99.46","","","","","","NA"
"-81.88","42.45","RIDGETOWN RCS","6137154","2012-02-17 18:00","2012","02","17","18:00","1.5","","-4.8","","63","","","","25","","4","","","","99.46","","","","","","NA"
"-81.88","42.45","RIDGETOWN RCS","6137154","2012-02-17 19:00","2012","02","17","19:00","0.1","","-2.9","","80","","","","16","","4","","","","99.42","","","","","","NA"
"-81.88","42.45","RIDGETOWN RCS","6137154","2012-02-17 20:00","2012","02","17","20:00","1.5","","-2.8","","73","","","","21","","9","","","","99.45","","","","","","NA"
"-81.88","42.45","RIDGETOWN RCS","6137154","2012-02-17 21:00","2012","02","17","21:00","1.5","","-2.4","","75","","","","19","","9","","","","99.40","","","","","","NA"
"-81.88","42.45","RIDGETOWN RCS","6137154","2012-02-17 22:00","2012","02","17","22:00","1.3","","-2.0","","79","","","","22","","6","","","","99.42","","","","","","NA"
"-81.88","42.45","RIDGETOWN RCS","6137154","2012-02-17 23:00","2012","02","17","23:00","1.4","","-1.7","","80","","","","19","","6","","","","99.34","","","","","","NA"
"-81.88","42.45","RIDGETOWN RCS","6137154","2012-02-18 00:00","2012","02","18","00:00","1.7","","-2.2","","75","","","","16","","15","","","","99.18","","","","","","NA"
"-81.88","42.45","RIDGETOWN RCS","6137154","2012-02-18 01:00","2012","02","18","01:00","2.0","","-2.1","","74","","","","17","","17","","","","99.08","","","","","","NA"
"-81.88","42.45","RIDGETOWN RCS","6137154","2012-02-18 02:00","2012","02","18","02:00","1.9","","-1.2","","80","","","","15","","19","","","","98.97","","","","","","NA"
"-81.88","42.45","RIDGETOWN RCS","6137154","2012-02-18 03:00","2012","02","18","03:00","2.4","","-1.0","","78","","","","21","","28","","","","98.91","","","","","","NA"
"-81.88","42.45","RIDGETOWN RCS","6137154","2012-02-18 04:00","2012","02","18","04:00","2.0","","-1.2","","79","","","","22","","19","","","","98.82","","","","","","NA"
"-81.88","42.45","RIDGETOWN RCS","6137154","2012-02-18 05:00","2012","02","18","05:00","2.0","","-1.1","","80","","","","24","","20","","","","98.82","","","","","","NA"
"-81.88","42.45","RIDGETOWN RCS","6137154","2012-02-18 06:00","2012","02","18","06:00","1.9","","-0.8","","82","","","","25","","17","","","","98.81","","","","","","NA"
"-81.88","42.45","RIDGETOWN RCS","6137154","2012-02-18 07:00","2012","02","18","07:00","1.7","","-0.9","","83","","","","25","","13","","","","98.82","","","","","","NA"
"-81.88","42.45","RIDGETOWN RCS","6137154","2012-02-18 08:00","2012","02","18","08:00","1.6","","-1.2","","82","","","","26","","17","","","","98.85","","","","","","NA"
"-81.88","42.45","RIDGETOWN RCS","6137154","2012-02-18 09:00","2012","02","18","09:00","2.0","","-1.0","","80","","","","27","","13","","","","98.90","","","","","","NA"
"-81.88","42.45","RIDGETOWN RCS","6137154","2012-02-18 10:00","2012","02","18","10:00","2.1","","-0.8","","81","","","","27","","19","","","","98.91","","","","","","NA"
"-81.88","42.45","RIDGETOWN RCS","6137154","2012-02-18 11:00","2012","02","18","11:00","1.8","","-2.6","","73","","","","29","","24","","","","98.99","","","","","","NA"
"-81.88","42.45","RIDGETOWN RCS","6137154","2012-02-18 12:00","2012","02","18","12:00","1.2","","-2.7","","75","","","","30","","32","","","","99.08","","","","","","NA"
"-81.88","42.45","RIDGETOWN RCS","6137154","2012-02-18 13:00","2012","02","18","13:00","0.3","","-2.9","","79","","","","31","","26","","","","99.18","","","","","","NA"
"-81.88","42.45","RIDGETOWN RCS","6137154","2012-02-18 14:00","2012","02","18","14:00","0.3","","-3.8","","74","","","","32","","24","","","","99.26","","","","","","NA"
"-81.88","42.45","RIDGETOWN RCS","6137154","2012-02-18 15:00","2012","02","18","15:00","0.0","","-5.0","","69","","","","32","","24","","","","99.35","","","","-6","","NA"
"-81.88","42.45","RIDGETOWN RCS","6137154","2012-02-18 16:00","2012","02","18","16:00","0.0","","-5.3","","67","","","","34","","19","","","","99.40","","","","-5","","NA"
"-81.88","42.45","RIDGETOWN RCS","6137154","2012-02-18 17:00","2012","02","18","17:00","-0.5","","-5.7","","68","","","","34","","19","","","","99.56","","","","-6","","NA"
"-81.88","42.45","RIDGETOWN RCS","6137154","2012-02-18 18:00","2012","02","18","18:00","-0.9","","-6.6","","65","","","","33","","15","","","","99.72","","","","-6","","NA"
"-81.88","42.45","RIDGETOWN RCS","6137154","2012-02-18 19:00","2012","02","18","19:00","-1.0","","-7.2","","63","","","","33","","7","","","","99.76","","","","-4","","NA"
"-81.88","42.45","RIDGETOWN RCS","6137154","2012-02-18 20:00","2012","02","18","20:00","-1.2","","-7.2","","64","","","","31","","11","","","","99.79","","","","-5","","NA"
"-81.88","42.45","RIDGETOWN RCS","6137154","2012-02-18 21:00","2012","02","18","21:00","-1.7","","-8.0","","62","","","","33","","11","","","","99.84","","","","-6","","NA"
"-81.88","42.45","RIDGETOWN RCS","6137154","2012-02-18 22:00","2012","02","18","22:00","-2.0","","-8.6","","61","","","","32","","11","","","","99.88","","","","-6","","NA"
"-81.88","42.45","RIDGETOWN RCS","6137154","2012-02-18 23:00","2012","02","18","23:00","-2.3","","-8.4","","63","","","","36","","13","","","","99.80","","","","-7","","NA"
"-81.88","42.45","RIDGETOWN RCS","6137154","2012-02-19 00:00","2012","02","19","00:00","-2.4","","-8.0","","65","","","","35","","6","","","","99.79","","","","-5","","NA"
"-81.88","42.45","RIDGETOWN RCS","6137154","2012-02-19 01:00","2012","02","19","01:00","-2.3","","-7.8","","66","","","","34","","6","","","","99.78","","","","-5","","NA"
"-81.88","42.45","RIDGETOWN RCS","6137154","2012-02-19 02:00","2012","02","19","02:00","-2.1","","-8.1","","63","","","","","","0","","","","99.84","","","","","","NA"
"-81.88","42.45","RIDGETOWN RCS","6137154","2012-02-19 03:00","2012","02","19","03:00","-2.1","","-7.6","","66","","","","34","","4","","","","99.83","","","","-4","","NA"
"-81.88","42.45","RIDGETOWN RCS","6137154","2012-02-19 04:00","2012","02","19","04:00","-2.2","","-7.8","","65","","","","","","0","","","","99.77","","","","","","NA"
"-81.88","42.45","RIDGETOWN RCS","6137154","2012-02-19 05:00","2012","02","19","05:00","-2.4","","-7.1","","70","","","","33","","6","","","","99.75","","","","-5","","NA"
"-81.88","42.45","RIDGETOWN RCS","6137154","2012-02-19 06:00","2012","02","19","06:00","-2.5","","-6.2","","76","","","","35","","7","","","","99.74","","","","-5","","NA"
"-81.88","42.45","RIDGETOWN RCS","6137154","2012-02-19 07:00","2012","02","19","07:00","-2.6","","-5.8","","79","","","","36","","4","","","","99.73","","","","-4","","NA"
"-81.88","42.45","RIDGETOWN RCS","6137154","2012-02-19 08:00","2012","02","19","08:00","-2.4","","-5.3","","80","","","","2","","6","","","","99.77","","","","-5","","NA"
"-81.88","42.45","RIDGETOWN RCS","6137154","2012-02-19 09:00","2012","02","19","09:00","-2.2","","-6.4","","73","","","","5","","11","","","","99.77","","","","-6","","NA"
"-81.88","42.45","RIDGETOWN RCS","6137154","2012-02-19 10:00","2012","02","19","10:00","-1.6","","-6.6","","69","","","","3","","11","","","","99.77","","","","-5","","NA"
"-81.88","42.45","RIDGETOWN RCS","6137154","2012-02-19 11:00","2012","02","19","11:00","-1.7","","-6.9","","68","","","","3","","11","","","","99.77","","","","-6","","NA"
"-81.88","42.45","RIDGETOWN RCS","6137154","2012-02-19 12:00","2012","02","19","12:00","-1.3","","-6.9","","66","","","","3","","11","","","","99.78","","","","-5","","NA"
"-81.88","42.45","RIDGETOWN RCS","6137154","2012-02-19 13:00","2012","02","19","13:00","-1.4","","-6.9","","66","","","","36","","9","","","","99.69","","","","-5","","NA"
"-81.88","42.45","RIDGETOWN RCS","6137154","2012-02-19 14:00","2012","02","19","14:00","-1.5","","-6.8","","67","","","","36","","13","","","","99.63","","","","-6","","NA"
"-81.88","42.45","RIDGETOWN RCS","6137154","2012-02-19 15:00","2012","02","19","15:00","-1.7","","-6.7","","69","","","","35","","17","","","","99.62","","","","-7","","NA"
"-81.88","42.45","RIDGETOWN RCS","6137154","2012-02-19 16:00","2012","02","19","16:00","-1.7","","-6.7","","69","","","","1","","7","","","","99.61","","","","-4","","NA"
"-81.88","42.45","RIDGETOWN RCS","6137154","2012-02-19 17:00","2012","02","19","17:00","-2.1","","-6.6","","71","","","","36","","11","","","","99.57","","","","-6","","NA"
"-81.88","42.45","RIDGETOWN RCS","6137154","2012-02-19 18:00","2012","02","19","18:00","-2.3","","-6.4","","73","","","","1","","13","","","","99.58","","","","-7","","NA"
"-81.88","42.45","RIDGETOWN RCS","6137154","2012-02-19 19:00","2012","02","19","19:00","-2.4","","-6.6","","73","","","","35","","13","","","","99.63","","","","-7","","NA"
"-81.88","42.45","RIDGETOWN RCS","6137154","2012-02-19 20:00","2012","02","19","20:00","-3.4","","-8.1","","70","","","","36","","11","","","","99.69","","","","-8","","NA"
"-81.88","42.45","RIDGETOWN RCS","6137154","2012-02-19 21:00","2012","02","19","21:00","-4.4","","-8.5","","73","","","","1","","9","","","","99.71","","","","-8","","NA"
"-81.88","42.45","RIDGETOWN RCS","6137154","2012-02-19 22:00","2012","02","19","22:00","-4.7","","-8.4","","75","","","","2","","6","","","","99.77","","","","-7","","NA"
"-81.88","42.45","RIDGETOWN RCS","6137154","2012-02-19 23:00","2012","02","19","23:00","-5.1","","-8.3","","78","","","","1","","4","","","","99.79","","","","-7","","NA"
"-81.88","42.45","RIDGETOWN RCS","6137154","2012-02-20 00:00","2012","02","20","00:00","-5.6","","-8.8","","78","","","","2","","6","","","","99.81","","","","-8","","NA"
"-81.88","42.45","RIDGETOWN RCS","6137154","2012-02-20 01:00","2012","02","20","01:00","-6.1","","-9.0","","80","","","","36","","4","","","","99.86","","","","-8","","NA"
"-81.88","42.45","RIDGETOWN RCS","6137154","2012-02-20 02:00","2012","02","20","02:00","-7.5","","-8.8","","90","","","","","","0","","","","99.91","","","","","","NA"
"-81.88","42.45","RIDGETOWN RCS","6137154","2012-02-20 03:00","2012","02","20","03:00","-8.0","","-9.1","","92","","","","","","0","","","","99.97","","","","","","NA"
"-81.88","42.45","RIDGETOWN RCS","6137154","2012-02-20 04:00","2012","02","20","04:00","-7.4","","-8.5","","92","","","","36","","2","","","","100.01","","","","-8","","NA"
"-81.88","42.45","RIDGETOWN RCS","6137154","2012-02-20 05:00","2012","02","20","05:00","-6.7","","-8.6","","86","","","","1","","6","","","","100.00","","","","-10","","NA"
"-81.88","42.45","RIDGETOWN RCS","6137154","2012-02-20 06:00","2012","02","20","06:00","-5.6","","-7.8","","84","","","","34","","4","","","","100.06","","","","-7","","NA"
"-81.88","42.45","RIDGETOWN RCS","6137154","2012-02-20 07:00","2012","02","20","07:00","-5.2","","-7.9","","81","","","","36","","4","","","","100.12","","","","-7","","NA"
"-81.88","42.45","RIDGETOWN RCS","6137154","2012-02-20 08:00","2012","02","20","08:00","-4.8","","-7.5","","81","","","","6","","2","","","","100.22","","","","-6","","NA"
"-81.88","42.45","RIDGETOWN RCS","6137154","2012-02-20 09:00","2012","02","20","09:00","-3.2","","-7.7","","71","","","","35","","2","","","","100.33","","","","-4","","NA"
"-81.88","42.45","RIDGETOWN RCS","6137154","2012-02-20 10:00","2012","02","20","10:00","-1.7","","-7.3","","66","","","","7","","6","","","","100.39","","","","-4","","NA"
"-81.88","42.45","RIDGETOWN RCS","6137154","2012-02-20 11:00","2012","02","20","11:00","-1.0","","-6.5","","66","","","","4","","11","","","","100.43","","","","-5","","NA"
"-81.88","42.45","RIDGETOWN RCS","6137154","2012-02-20 12:00","2012","02","20","12:00","0.6","","-5.2","","65","","","","9","","9","","","","100.39","","","","","","NA"
"-81.88","42.45","RIDGETOWN RCS","6137154","2012-02-20 13:00","2012","02","20","13:00","-0.1","","-5.8","","65","","","","13","","11","","","","100.32","","","","-4","","NA"
"-81.88","42.45","RIDGETOWN RCS","6137154","2012-02-20 14:00","2012","02","20","14:00","-0.4","","-7.1","","61","","","","12","","15","","","","100.26","","","","-5","","NA"
"-81.88","42.45","RIDGETOWN RCS","6137154","2012-02-20 15:00","2012","02","20","15:00","-0.3","","-7.2","","60","","","","12","","15","","","","100.25","","","","-5","","NA"
"-81.88","42.45","RIDGETOWN RCS","6137154","2012-02-20 16:00","2012","02","20","16:00","-0.8","","-7.1","","62","","","","13","","17","","","","100.22","","","","-6","","NA"
"-81.88","42.45","RIDGETOWN RCS","6137154","2012-02-20 17:00","2012","02","20","17:00","-0.9","","-6.6","","65","","","","12","","13","","","","100.18","","","","-5","","NA"
"-81.88","42.45","RIDGETOWN RCS","6137154","2012-02-20 18:00","2012","02","20","18:00","-2.0","","-6.4","","72","","","","10","","9","","","","100.10","","","","-5","","NA"
"-81.88","42.45","RIDGETOWN RCS","6137154","2012-02-20 19:00","2012","02","20","19:00","-2.5","","-5.7","","79","","","","10","","9","","","","100.09","","","","-6","","NA"
"-81.88","42.45","RIDGETOWN RCS","6137154","2012-02-20 20:00","2012","02","20","20:00","-2.6","","-5.5","","80","","","","10","","7","","","","100.07","","","","-5","","NA"
"-81.88","42.45","RIDGETOWN RCS","6137154","2012-02-20 21:00","2012","02","20","21:00","-1.9","","-4.9","","80","","","","11","","11","","","","100.02","","","","-6","","NA"
"-81.88","42.45","RIDGETOWN RCS","6137154","2012-02-20 22:00","2012","02","20","22:00","-1.7","","-4.3","","82","","","","12","","11","","","","99.95","","","","-6","","NA"
"-81.88","42.45","RIDGETOWN RCS","6137154","2012-02-20 23:00","2012","02","20","23:00","-1.2","","-4.4","","79","","","","12","","15","","","","99.82","","","","-6","","NA"
"-81.88","42.45","RIDGETOWN RCS","6137154","2012-02-21 00:00","2012","02","21","00:00","-0.7","","-2.7","","86","","","","12","","15","","","","99.77","","","","-5","","NA"
"-81.88","42.45","RIDGETOWN RCS","6137154","2012-02-21 01:00","2012","02","21","01:00","-0.2","","-1.7","","90","","","","12","","17","","","","99.64","","","","-5","","NA"
"-81.88","42.45","RIDGETOWN RCS","6137154","2012-02-21 02:00","2012","02","21","02:00","0.1","","-2.1","","85","","","","13","","15","","","","99.55","","","","","","NA"
"-81.88","42.45","RIDGETOWN RCS","6137154","2012-02-21 03:00","2012","02","21","03:00","0.2","","-2.8","","80","","","","13","","13","","","","99.45","","","","","","NA"
"-81.88","42.45","RIDGETOWN RCS","6137154","2012-02-21 04:00","2012","02","21","04:00","0.4","","-3.0","","78","","","","12","","15","","","","99.25","","","","","","NA"
"-81.88","42.45","RIDGETOWN RCS","6137154","2012-02-21 05:00","2012","02","21","05:00","-0.1","","-3.3","","79","","","","13","","15","","","","99.18","","","","-5","","NA"
"-81.88","42.45","RIDGETOWN RCS","6137154","2012-02-21 06:00","2012","02","21","06:00","0.4","","-2.9","","78","","","","11","","17","","","","98.95","","","","","","NA"
"-81.88","42.45","RIDGETOWN RCS","6137154","2012-02-21 07:00","2012","02","21","07:00","0.8","","-3.3","","74","","","","13","","20","","","","98.81","","","","","","NA"
"-81.88","42.45","RIDGETOWN RCS","6137154","2012-02-21 08:00","2012","02","21","08:00","1.4","","-3.0","","72","","","","13","","20","","","","98.69","","","","","","NA"
"-81.88","42.45","RIDGETOWN RCS","6137154","2012-02-21 09:00","2012","02","21","09:00","2.1","","-2.6","","71","","","","15","","24","","","","98.52","","","","","","NA"
"-81.88","42.45","RIDGETOWN RCS","6137154","2012-02-21 10:00","2012","02","21","10:00","3.2","","-2.5","","66","","","","17","","24","","","","98.47","","","","","","NA"
"-81.88","42.45","RIDGETOWN RCS","6137154","2012-02-21 11:00","2012","02","21","11:00","0.9","","0.0","","94","","","","19","","30","","","","98.38","","","","","","NA"
"-81.88","42.45","RIDGETOWN RCS","6137154","2012-02-21 12:00","2012","02","21","12:00","1.5","","0.5","","93","","","","18","","28","","","","98.26","","","","","","NA"
"-81.88","42.45","RIDGETOWN RCS","6137154","2012-02-21 13:00","2012","02","21","13:00","2.0","","0.7","","91","","","","18","","26","","","","98.12","","","","","","NA"
"-81.88","42.45","RIDGETOWN RCS","6137154","2012-02-21 14:00","2012","02","21","14:00","2.5","","1.3","","92","","","","19","","32","","","","98.02","","","","","","NA"
"-81.88","42.45","RIDGETOWN RCS","6137154","2012-02-21 15:00","2012","02","21","15:00","2.5","","1.4","","92","","","","20","","28","","","","98.00","","","","","","NA"
"-81.88","42.45","RIDGETOWN RCS","6137154","2012-02-21 16:00","2012","02","21","16:00","3.1","","1.7","","91","","","","21","","24","","","","98.03","","","","","","NA"
"-81.88","42.45","RIDGETOWN RCS","6137154","2012-02-21 17:00","2012","02","21","17:00","3.4","","2.1","","91","","","","22","","20","","","","98.04","","","","","","NA"
"-81.88","42.45","RIDGETOWN RCS","6137154","2012-02-21 18:00","2012","02","21","18:00","3.2","","2.0","","92","","","","21","","17","","","","98.04","","","","","","NA"
"-81.88","42.45","RIDGETOWN RCS","6137154","2012-02-21 19:00","2012","02","21","19:00","3.4","","2.5","","94","","","","22","","22","","","","98.06","","","","","","NA"
"-81.88","42.45","RIDGETOWN RCS","6137154","2012-02-21 20:00","2012","02","21","20:00","4.3","","3.1","","92","","","","22","","28","","","","98.03","","","","","","NA"
"-81.88","42.45","RIDGETOWN RCS","6137154","2012-02-21 21:00","2012","02","21","21:00","4.3","","2.7","","89","","","","22","","30","","","","98.00","","","","","","NA"
"-81.88","42.45","RIDGETOWN RCS","6137154","2012-02-21 22:00","2012","02","21","22:00","4.1","","2.7","","91","","","","23","","28","","","","98.00","","","","","","NA"
"-81.88","42.45","RIDGETOWN RCS","6137154","2012-02-21 23:00","2012","02","21","23:00","4.2","","2.3","","87","","","","24","","26","","","","98.04","","","","","","NA"
"-81.88","42.45","RIDGETOWN RCS","6137154","2012-02-22 00:00","2012","02","22","00:00","2.7","","-1.1","","76","","","","27","","20","","","","98.13","","","","","","NA"
"-81.88","42.45","RIDGETOWN RCS","6137154","2012-02-22 01:00","2012","02","22","01:00","1.8","","-0.9","","82","","","","23","","17","","","","98.14","","","","","","NA"
"-81.88","42.45","RIDGETOWN RCS","6137154","2012-02-22 02:00","2012","02","22","02:00","1.1","","-1.0","","86","","","","22","","11","","","","98.12","","","","","","NA"
"-81.88","42.45","RIDGETOWN RCS","6137154","2012-02-22 03:00","2012","02","22","03:00","2.4","","1.0","","90","","","","22","","19","","","","98.06","","","","","","NA"
"-81.88","42.45","RIDGETOWN RCS","6137154","2012-02-22 04:00","2012","02","22","04:00","2.0","","0.7","","91","","","","22","","17","","","","97.99","","","","","","NA"
"-81.88","42.45","RIDGETOWN RCS","6137154","2012-02-22 05:00","2012","02","22","05:00","1.9","","0.7","","92","","","","21","","19","","","","97.94","","","","","","NA"
"-81.88","42.45","RIDGETOWN RCS","6137154","2012-02-22 06:00","2012","02","22","06:00","2.0","","0.6","","90","","","","21","","20","","","","97.93","","","","","","NA"
"-81.88","42.45","RIDGETOWN RCS","6137154","2012-02-22 07:00","2012","02","22","07:00","2.6","","0.4","","85","","","","22","","22","","","","97.90","","","","","","NA"
"-81.88","42.45","RIDGETOWN RCS","6137154","2012-02-22 08:00","2012","02","22","08:00","2.6","","0.4","","85","","","","21","","24","","","","97.84","","","","","","NA"
"-81.88","42.45","RIDGETOWN RCS","6137154","2012-02-22 09:00","2012","02","22","09:00","3.1","","0.5","","83","","","","23","","22","","","","97.85","","","","","","NA"
"-81.88","42.45","RIDGETOWN RCS","6137154","2012-02-22 10:00","2012","02","22","10:00","3.7","","0.6","","80","","","","24","","19","","","","97.78","","","","","","NA"
"-81.88","42.45","RIDGETOWN RCS","6137154","2012-02-22 11:00","2012","02","22","11:00","4.0","","0.5","","78","","","","24","","19","","","","97.70","","","","","","NA"
"-81.88","42.45","RIDGETOWN RCS","6137154","2012-02-22 12:00","2012","02","22","12:00","4.4","","-0.4","","71","","","","24","","20","","","","97.65","","","","","","NA"
"-81.88","42.45","RIDGETOWN RCS","6137154","2012-02-22 13:00","2012","02","22","13:00","2.1","","0.4","","88","","","","24","","19","","","","97.59","","","","","","NA"
"-81.88","42.45","RIDGETOWN RCS","6137154","2012-02-22 14:00","2012","02","22","14:00","1.4","","0.5","","94","","","","26","","9","","","","97.49","","","","","","NA"
"-81.88","42.45","RIDGETOWN RCS","6137154","2012-02-22 15:00","2012","02","22","15:00","0.4","","-0.1","","96","","","","29","","4","","","","97.41","","","","","","NA"
"-81.88","42.45","RIDGETOWN RCS","6137154","2012-02-22 16:00","2012","02","22","16:00","0.4","","0.0","","97","","","","24","","4","","","","97.39","","","","","","NA"
"-81.88","42.45","RIDGETOWN RCS","6137154","2012-02-22 17:00","2012","02","22","17:00","0.4","","0.0","","97","","","","23","","6","","","","97.34","","","","","","NA"
"-81.88","42.45","RIDGETOWN RCS","6137154","2012-02-22 18:00","2012","02","22","18:00","0.7","","0.3","","97","","","","21","","15","","","","97.28","","","","","","NA"
"-81.88","42.45","RIDGETOWN RCS","6137154","2012-02-22 19:00","2012","02","22","19:00","0.9","","0.0","","94","","","","24","","7","","","","97.25","","","","","","NA"
"-81.88","42.45","RIDGETOWN RCS","6137154","2012-02-22 20:00","2012","02","22","20:00","0.9","","0.0","","94","","","","23","","7","","","","97.25","","","","","","NA"
"-81.88","42.45","RIDGETOWN RCS","6137154","2012-02-22 21:00","2012","02","22","21:00","1.5","","0.3","","92","","","","20","","11","","","","97.24","","","","","","NA"
"-81.88","42.45","RIDGETOWN RCS","6137154","2012-02-22 22:00","2012","02","22","22:00","1.1","","0.2","","94","","","","21","","13","","","","97.27","","","","","","NA"
"-81.88","42.45","RIDGETOWN RCS","6137154","2012-02-22 23:00","2012","02","22","23:00","0.5","","-0.2","","95","","","","21","","11","","","","97.25","","","","","","NA"
"-81.88","42.45","RIDGETOWN RCS","6137154","2012-02-23 00:00","2012","02","23","00:00","0.5","","-0.1","","96","","","","23","","9","","","","97.25","","","","","","NA"
"-81.88","42.45","RIDGETOWN RCS","6137154","2012-02-23 01:00","2012","02","23","01:00","0.3","","-0.3","","96","","","","22","","11","","","","97.27","","","","","","NA"
"-81.88","42.45","RIDGETOWN RCS","6137154","2012-02-23 02:00","2012","02","23","02:00","0.3","","-0.2","","96","","","","23","","13","","","","97.32","","","","","","NA"
"-81.88","42.45","RIDGETOWN RCS","6137154","2012-02-23 03:00","2012","02","23","03:00","0.1","","-0.4","","96","","","","22","","9","","","","97.34","","","","","","NA"
"-81.88","42.45","RIDGETOWN RCS","6137154","2012-02-23 04:00","2012","02","23","04:00","-0.2","","-0.7","","96","","","","23","","6","","","","97.33","","","","-2","","NA"
"-81.88","42.45","RIDGETOWN RCS","6137154","2012-02-23 05:00","2012","02","23","05:00","0.4","","0.0","","97","","","","24","","11","","","","97.46","","","","","","NA"
"-81.88","42.45","RIDGETOWN RCS","6137154","2012-02-23 06:00","2012","02","23","06:00","0.4","","0.0","","97","","","","24","","4","","","","97.49","","","","","","NA"
"-81.88","42.45","RIDGETOWN RCS","6137154","2012-02-23 07:00","2012","02","23","07:00","0.4","","0.0","","97","","","","25","","9","","","","97.58","","","","","","NA"
"-81.88","42.45","RIDGETOWN RCS","6137154","2012-02-23 08:00","2012","02","23","08:00","0.4","","0.0","","97","","","","25","","7","","","","97.70","","","","","","NA"
"-81.88","42.45","RIDGETOWN RCS","6137154","2012-02-23 09:00","2012","02","23","09:00","0.7","","0.3","","97","","","","26","","7","","","","97.82","","","","","","NA"
"-81.88","42.45","RIDGETOWN RCS","6137154","2012-02-23 10:00","2012","02","23","10:00","1.9","","0.5","","90","","","","27","","9","","","","97.85","","","","","","NA"
"-81.88","42.45","RIDGETOWN RCS","6137154","2012-02-23 11:00","2012","02","23","11:00","3.0","","-0.3","","79","","","","29","","9","","","","97.84","","","","","","NA"
"-81.88","42.45","RIDGETOWN RCS","6137154","2012-02-23 12:00","2012","02","23","12:00","4.1","","-0.4","","72","","","","30","","6","","","","97.81","","","","","","NA"
"-81.88","42.45","RIDGETOWN RCS","6137154","2012-02-23 13:00","2012","02","23","13:00","5.1","","-0.3","","68","","","","23","","7","","","","97.88","","","","","","NA"
"-81.88","42.45","RIDGETOWN RCS","6137154","2012-02-23 14:00","2012","02","23","14:00","4.2","","1.4","","82","","","","20","","20","","","","97.95","","","","","","NA"
"-81.88","42.45","RIDGETOWN RCS","6137154","2012-02-23 15:00","2012","02","23","15:00","2.4","","0.5","","87","","","","20","","22","","","","97.94","","","","","","NA"
"-81.88","42.45","RIDGETOWN RCS","6137154","2012-02-23 16:00","2012","02","23","16:00","2.5","","0.7","","88","","","","19","","13","","","","97.91","","","","","","NA"
"-81.88","42.45","RIDGETOWN RCS","6137154","2012-02-23 17:00","2012","02","23","17:00","2.2","","0.1","","86","","","","18","","9","","","","97.95","","","","","","NA"
"-81.88","42.45","RIDGETOWN RCS","6137154","2012-02-23 18:00","2012","02","23","18:00","1.6","","0.0","","89","","","","8","","6","","","","97.91","","","","","","NA"
"-81.88","42.45","RIDGETOWN RCS","6137154","2012-02-23 19:00","2012","02","23","19:00","1.2","","-0.1","","91","","","","9","","7","","","","97.91","","","","","","NA"
"-81.88","42.45","RIDGETOWN RCS","6137154","2012-02-23 20:00","2012","02","23","20:00","1.1","","-0.2","","91","","","","9","","7","","","","97.95","","","","","","NA"
"-81.88","42.45","RIDGETOWN RCS","6137154","2012-02-23 21:00","2012","02","23","21:00","1.2","","-0.9","","86","","","","8","","9","","","","97.91","","","","","","NA"
"-81.88","42.45","RIDGETOWN RCS","6137154","2012-02-23 22:00","2012","02","23","22:00","1.1","","-0.4","","90","","","","7","","13","","","","97.80","","","","","","NA"
"-81.88","42.45","RIDGETOWN RCS","6137154","2012-02-23 23:00","2012","02","23","23:00","1.2","","-0.7","","87","","","","11","","11","","","","97.80","","","","","","NA"
"-81.88","42.45","RIDGETOWN RCS","6137154","2012-02-24 00:00","2012","02","24","00:00","0.9","","-0.5","","90","","","","11","","11","","","","97.80","","","","","","NA"
"-81.88","42.45","RIDGETOWN RCS","6137154","2012-02-24 01:00","2012","02","24","01:00","0.3","","-0.3","","96","","","","9","","17","","","","97.68","","","","","","NA"
"-81.88","42.45","RIDGETOWN RCS","6137154","2012-02-24 02:00","2012","02","24","02:00","0.1","","-0.3","","97","","","","8","","20","","","","97.57","","","","","","NA"
"-81.88","42.45","RIDGETOWN RCS","6137154","2012-02-24 03:00","2012","02","24","03:00","0.3","","-0.1","","97","","","","8","","24","","","","97.41","","","","","","NA"
"-81.88","42.45","RIDGETOWN RCS","6137154","2012-02-24 04:00","2012","02","24","04:00","0.4","","0.0","","97","","","","8","","20","","","","97.28","","","","","","NA"
"-81.88","42.45","RIDGETOWN RCS","6137154","2012-02-24 05:00","2012","02","24","05:00","0.8","","0.3","","96","","","","7","","20","","","","97.17","","","","","","NA"
"-81.88","42.45","RIDGETOWN RCS","6137154","2012-02-24 06:00","2012","02","24","06:00","1.1","","0.3","","94","","","","8","","24","","","","97.04","","","","","","NA"
"-81.88","42.45","RIDGETOWN RCS","6137154","2012-02-24 07:00","2012","02","24","07:00","1.3","","0.3","","93","","","","9","","19","","","","97.02","","","","","","NA"
"-81.88","42.45","RIDGETOWN RCS","6137154","2012-02-24 08:00","2012","02","24","08:00","1.2","","0.4","","94","","","","10","","20","","","","96.86","","","","","","NA"
"-81.88","42.45","RIDGETOWN RCS","6137154","2012-02-24 09:00","2012","02","24","09:00","1.7","","0.8","","94","","","","11","","20","","","","96.84","","","","","","NA"
"-81.88","42.45","RIDGETOWN RCS","6137154","2012-02-24 10:00","2012","02","24","10:00","2.0","","1.3","","95","","","","14","","19","","","","96.71","","","","","","NA"
"-81.88","42.45","RIDGETOWN RCS","6137154","2012-02-24 11:00","2012","02","24","11:00","2.8","","2.1","","95","","","","18","","26","","","","96.65","","","","","","NA"
"-81.88","42.45","RIDGETOWN RCS","6137154","2012-02-24 12:00","2012","02","24","12:00","4.7","","2.7","","87","","","","23","","41","","","","96.64","","","","","","NA"
"-81.88","42.45","RIDGETOWN RCS","6137154","2012-02-24 13:00","2012","02","24","13:00","4.2","","2.0","","86","","","","23","","50","","","","96.61","","","","","","NA"
"-81.88","42.45","RIDGETOWN RCS","6137154","2012-02-24 14:00","2012","02","24","14:00","3.7","","1.6","","86","","","","23","","46","","","","96.59","","","","","","NA"
"-81.88","42.45","RIDGETOWN RCS","6137154","2012-02-24 15:00","2012","02","24","15:00","2.1","","0.5","","89","","","","27","","28","","","","96.76","","","","","","NA"
"-81.88","42.45","RIDGETOWN RCS","6137154","2012-02-24 16:00","2012","02","24","16:00","1.7","","0.3","","90","","","","28","","33","","","","97.02","","","","","","NA"
"-81.88","42.45","RIDGETOWN RCS","6137154","2012-02-24 17:00","2012","02","24","17:00","1.7","","-0.5","","85","","","","28","","32","","","","97.29","","","","","","NA"
"-81.88","42.45","RIDGETOWN RCS","6137154","2012-02-24 18:00","2012","02","24","18:00","1.3","","-1.3","","83","","","","29","","30","","","","97.52","","","","","","NA"
"-81.88","42.45","RIDGETOWN RCS","6137154","2012-02-24 19:00","2012","02","24","19:00","0.8","","-1.6","","84","","","","28","","32","","","","97.71","","","","","","NA"
"-81.88","42.45","RIDGETOWN RCS","6137154","2012-02-24 20:00","2012","02","24","20:00","0.4","","-2.9","","78","","","","28","","33","","","","97.83","","","","","","NA"
"-81.88","42.45","RIDGETOWN RCS","6137154","2012-02-24 21:00","2012","02","24","21:00","0.2","","-2.7","","81","","","","28","","26","","","","97.90","","","","","","NA"
"-81.88","42.45","RIDGETOWN RCS","6137154","2012-02-24 22:00","2012","02","24","22:00","0.2","","-3.5","","76","","","","28","","28","","","","97.98","","","","","","NA"
"-81.88","42.45","RIDGETOWN RCS","6137154","2012-02-24 23:00","2012","02","24","23:00","-0.6","","-3.7","","80","","","","28","","28","","","","98.03","","","","-7","","NA"
"-81.88","42.45","RIDGETOWN RCS","6137154","2012-02-25 00:00","2012","02","25","00:00","-0.7","","-3.7","","80","","","","28","","24","","","","98.05","","","","-7","","NA"
"-81.88","42.45","RIDGETOWN RCS","6137154","2012-02-25 01:00","2012","02","25","01:00","-1.1","","-4.0","","81","","","","28","","20","","","","98.08","","","","-7","","NA"
"-81.88","42.45","RIDGETOWN RCS","6137154","2012-02-25 02:00","2012","02","25","02:00","-1.2","","-4.3","","79","","","","28","","24","","","","98.10","","","","-7","","NA"
"-81.88","42.45","RIDGETOWN RCS","6137154","2012-02-25 03:00","2012","02","25","03:00","-1.5","","-4.2","","82","","","","28","","24","","","","98.08","","","","-8","","NA"
"-81.88","42.45","RIDGETOWN RCS","6137154","2012-02-25 04:00","2012","02","25","04:00","-1.7","","-4.5","","81","","","","28","","19","","","","98.13","","","","-7","","NA"
"-81.88","42.45","RIDGETOWN RCS","6137154","2012-02-25 05:00","2012","02","25","05:00","-1.9","","-4.7","","81","","","","28","","22","","","","98.20","","","","-8","","NA"
"-81.88","42.45","RIDGETOWN RCS","6137154","2012-02-25 06:00","2012","02","25","06:00","-1.9","","-4.4","","83","","","","28","","22","","","","98.30","","","","-8","","NA"
"-81.88","42.45","RIDGETOWN RCS","6137154","2012-02-25 07:00","2012","02","25","07:00","-2.1","","-4.5","","84","","","","27","","20","","","","98.38","","","","-8","","NA"
"-81.88","42.45","RIDGETOWN RCS","6137154","2012-02-25 08:00","2012","02","25","08:00","-1.6","","-4.5","","81","","","","28","","22","","","","98.48","","","","-8","","NA"
"-81.88","42.45","RIDGETOWN RCS","6137154","2012-02-25 09:00","2012","02","25","09:00","-1.2","","-4.3","","79","","","","29","","22","","","","98.58","","","","-7","","NA"
"-81.88","42.45","RIDGETOWN RCS","6137154","2012-02-25 10:00","2012","02","25","10:00","-1.5","","-3.9","","84","","","","29","","24","","","","98.67","","","","-8","","NA"
"-81.88","42.45","RIDGETOWN RCS","6137154","2012-02-25 11:00","2012","02","25","11:00","-0.8","","-3.5","","82","","","","29","","22","","","","98.76","","","","-7","","NA"
"-81.88","42.45","RIDGETOWN RCS","6137154","2012-02-25 12:00","2012","02","25","12:00","-0.8","","-4.4","","77","","","","29","","24","","","","98.87","","","","-7","","NA"
"-81.88","42.45","RIDGETOWN RCS","6137154","2012-02-25 13:00","2012","02","25","13:00","-0.5","","-5.0","","72","","","","30","","26","","","","98.93","","","","-7","","NA"
"-81.88","42.45","RIDGETOWN RCS","6137154","2012-02-25 14:00","2012","02","25","14:00","-0.9","","-4.8","","75","","","","31","","24","","","","99.07","","","","-7","","NA"
"-81.88","42.45","RIDGETOWN RCS","6137154","2012-02-25 15:00","2012","02","25","15:00","0.0","","-6.8","","60","","","","30","","26","","","","99.19","","","","-6","","NA"
"-81.88","42.45","RIDGETOWN RCS","6137154","2012-02-25 16:00","2012","02","25","16:00","0.2","","-6.9","","59","","","","31","","19","","","","99.32","","","","","","NA"
"-81.88","42.45","RIDGETOWN RCS","6137154","2012-02-25 17:00","2012","02","25","17:00","0.2","","-6.6","","60","","","","31","","20","","","","99.45","","","","","","NA"
"-81.88","42.45","RIDGETOWN RCS","6137154","2012-02-25 18:00","2012","02","25","18:00","-0.4","","-6.3","","64","","","","30","","15","","","","99.55","","","","-5","","NA"
"-81.88","42.45","RIDGETOWN RCS","6137154","2012-02-25 19:00","2012","02","25","19:00","-1.0","","-6.9","","64","","","","30","","13","","","","99.65","","","","-5","","NA"
"-81.88","42.45","RIDGETOWN RCS","6137154","2012-02-25 20:00","2012","02","25","20:00","-1.3","","-7.3","","64","","","","29","","13","","","","99.78","","","","-6","","NA"
"-81.88","42.45","RIDGETOWN RCS","6137154","2012-02-25 21:00","2012","02","25","21:00","-2.7","","-6.7","","74","","","","27","","9","","","","99.90","","","","-6","","NA"
"-81.88","42.45","RIDGETOWN RCS","6137154","2012-02-25 22:00","2012","02","25","22:00","-1.1","","-6.5","","67","","","","28","","13","","","","99.96","","","","-5","","NA"
"-81.88","42.45","RIDGETOWN RCS","6137154","2012-02-25 23:00","2012","02","25","23:00","-1.3","","-6.3","","69","","","","28","","11","","","","100.02","","","","-5","","NA"
"-81.88","42.45","RIDGETOWN RCS","6137154","2012-02-26 00:00","2012","02","26","00:00","-1.4","","-7.4","","64","","","","30","","15","","","","100.12","","","","-6","","NA"
"-81.88","42.45","RIDGETOWN RCS","6137154","2012-02-26 01:00","2012","02","26","01:00","-1.6","","-7.6","","64","","","","30","","15","","","","100.21","","","","-6","","NA"
"-81.88","42.45","RIDGETOWN RCS","6137154","2012-02-26 02:00","2012","02","26","02:00","-1.7","","-7.7","","64","","","","32","","9","","","","100.29","","","","-5","","NA"
"-81.88","42.45","RIDGETOWN RCS","6137154","2012-02-26 03:00","2012","02","26","03:00","-1.8","","-7.3","","66","","","","33","","6","","","","100.32","","","","-4","","NA"
"-81.88","42.45","RIDGETOWN RCS","6137154","2012-02-26 04:00","2012","02","26","04:00","-2.1","","-7.3","","68","","","","35","","6","","","","100.34","","","","-4","","NA"
"-81.88","42.45","RIDGETOWN RCS","6137154","2012-02-26 05:00","2012","02","26","05:00","-2.4","","-7.3","","69","","","","1","","6","","","","100.38","","","","-5","","NA"
"-81.88","42.45","RIDGETOWN RCS","6137154","2012-02-26 06:00","2012","02","26","06:00","-2.5","","-7.4","","69","","","","34","","2","","","","100.42","","","","-3","","NA"
"-81.88","42.45","RIDGETOWN RCS","6137154","2012-02-26 07:00","2012","02","26","07:00","-2.7","","-7.8","","68","","","","2","","2","","","","100.43","","","","-3","","NA"
"-81.88","42.45","RIDGETOWN RCS","6137154","2012-02-26 08:00","2012","02","26","08:00","-2.5","","-5.8","","78","","","","7","","2","","","","100.50","","","","-3","","NA"
"-81.88","42.45","RIDGETOWN RCS","6137154","2012-02-26 09:00","2012","02","26","09:00","-1.9","","-7.8","","64","","","","17","","4","","","","100.57","","","","-3","","NA"
"-81.88","42.45","RIDGETOWN RCS","6137154","2012-02-26 10:00","2012","02","26","10:00","-1.0","","-7.7","","60","","","","14","","2","","","","100.58","","","","-2","","NA"
"-81.88","42.45","RIDGETOWN RCS","6137154","2012-02-26 11:00","2012","02","26","11:00","-0.8","","-6.4","","66","","","","16","","9","","","","100.50","","","","-4","","NA"
"-81.88","42.45","RIDGETOWN RCS","6137154","2012-02-26 12:00","2012","02","26","12:00","-0.2","","-4.7","","72","","","","17","","15","","","","100.48","","","","-5","","NA"
"-81.88","42.45","RIDGETOWN RCS","6137154","2012-02-26 13:00","2012","02","26","13:00","0.0","","-6.0","","64","","","","18","","20","","","","100.40","","","","-5","","NA"
"-81.88","42.45","RIDGETOWN RCS","6137154","2012-02-26 14:00","2012","02","26","14:00","-0.2","","-4.5","","73","","","","19","","17","","","","100.33","","","","-5","","NA"
"-81.88","42.45","RIDGETOWN RCS","6137154","2012-02-26 15:00","2012","02","26","15:00","0.9","","-4.2","","69","","","","17","","20","","","","100.16","","","","","","NA"
"-81.88","42.45","RIDGETOWN RCS","6137154","2012-02-26 16:00","2012","02","26","16:00","0.5","","-4.9","","67","","","","15","","17","","","","100.13","","","","","","NA"
"-81.88","42.45","RIDGETOWN RCS","6137154","2012-02-26 17:00","2012","02","26","17:00","0.0","","-4.7","","71","","","","13","","19","","","","100.07","","","","-5","","NA"
"-81.88","42.45","RIDGETOWN RCS","6137154","2012-02-26 18:00","2012","02","26","18:00","-0.5","","-4.1","","77","","","","12","","19","","","","100.00","","","","-6","","NA"
"-81.88","42.45","RIDGETOWN RCS","6137154","2012-02-26 19:00","2012","02","26","19:00","-0.6","","-3.3","","82","","","","12","","19","","","","99.93","","","","-6","","NA"
"-81.88","42.45","RIDGETOWN RCS","6137154","2012-02-26 20:00","2012","02","26","20:00","0.1","","-2.3","","84","","","","13","","20","","","","99.86","","","","","","NA"
"-81.88","42.45","RIDGETOWN RCS","6137154","2012-02-26 21:00","2012","02","26","21:00","1.0","","-2.3","","79","","","","13","","19","","","","99.82","","","","","","NA"
"-81.88","42.45","RIDGETOWN RCS","6137154","2012-02-26 22:00","2012","02","26","22:00","1.3","","-3.1","","72","","","","15","","11","","","","99.86","","","","","","NA"
"-81.88","42.45","RIDGETOWN RCS","6137154","2012-02-26 23:00","2012","02","26","23:00","0.9","","-2.7","","77","","","","14","","15","","","","99.83","","","","","","NA"
"-81.88","42.45","RIDGETOWN RCS","6137154","2012-02-27 00:00","2012","02","27","00:00","1.4","","-3.2","","71","","","","16","","13","","","","99.74","","","","","","NA"
"-81.88","42.45","RIDGETOWN RCS","6137154","2012-02-27 01:00","2012","02","27","01:00","1.9","","-3.8","","66","","","","17","","15","","","","99.66","","","","","","NA"
"-81.88","42.45","RIDGETOWN RCS","6137154","2012-02-27 02:00","2012","02","27","02:00","2.1","","-3.9","","64","","","","18","","17","","","","99.61","","","","","","NA"
"-81.88","42.45","RIDGETOWN RCS","6137154","2012-02-27 03:00","2012","02","27","03:00","2.2","","-3.5","","66","","","","18","","20","","","","99.52","","","","","","NA"
"-81.88","42.45","RIDGETOWN RCS","6137154","2012-02-27 04:00","2012","02","27","04:00","3.3","","-3.6","","61","","","","20","","20","","","","99.42","","","","","","NA"
"-81.88","42.45","RIDGETOWN RCS","6137154","2012-02-27 05:00","2012","02","27","05:00","3.8","","-3.2","","60","","","","21","","26","","","","99.41","","","","","","NA"
"-81.88","42.45","RIDGETOWN RCS","6137154","2012-02-27 06:00","2012","02","27","06:00","3.7","","-2.6","","63","","","","22","","22","","","","99.40","","","","","","NA"
"-81.88","42.45","RIDGETOWN RCS","6137154","2012-02-27 07:00","2012","02","27","07:00","3.4","","-2.3","","66","","","","23","","19","","","","99.37","","","","","","NA"
"-81.88","42.45","RIDGETOWN RCS","6137154","2012-02-27 08:00","2012","02","27","08:00","3.1","","-2.1","","69","","","","23","","20","","","","99.40","","","","","","NA"
"-81.88","42.45","RIDGETOWN RCS","6137154","2012-02-27 09:00","2012","02","27","09:00","3.3","","-1.7","","70","","","","23","","19","","","","99.42","","","","","","NA"
"-81.88","42.45","RIDGETOWN RCS","6137154","2012-02-27 10:00","2012","02","27","10:00","5.0","","-1.0","","65","","","","23","","24","","","","99.39","","","","","","NA"
"-81.88","42.45","RIDGETOWN RCS","6137154","2012-02-27 11:00","2012","02","27","11:00","6.9","","-1.1","","57","","","","24","","30","","","","99.35","","","","","","NA"
"-81.88","42.45","RIDGETOWN RCS","6137154","2012-02-27 12:00","2012","02","27","12:00","8.1","","-0.6","","54","","","","24","","28","","","","99.36","","","","","","NA"
"-81.88","42.45","RIDGETOWN RCS","6137154","2012-02-27 13:00","2012","02","27","13:00","8.7","","-3.7","","41","","","","26","","32","","","","99.38","","","","","","NA"
"-81.88","42.45","RIDGETOWN RCS","6137154","2012-02-27 14:00","2012","02","27","14:00","7.0","","-4.7","","43","","","","29","","32","","","","99.49","","","","","","NA"
"-81.88","42.45","RIDGETOWN RCS","6137154","2012-02-27 15:00","2012","02","27","15:00","3.8","","-3.4","","59","","","","30","","39","","","","99.70","","","","","","NA"
"-81.88","42.45","RIDGETOWN RCS","6137154","2012-02-27 16:00","2012","02","27","16:00","1.8","","-5.2","","60","","","","29","","33","","","","99.91","","","","","","NA"
"-81.88","42.45","RIDGETOWN RCS","6137154","2012-02-27 17:00","2012","02","27","17:00","1.6","","-4.3","","65","","","","27","","26","","","","100.01","","","","","","NA"
"-81.88","42.45","RIDGETOWN RCS","6137154","2012-02-27 18:00","2012","02","27","18:00","1.1","","-4.1","","68","","","","28","","22","","","","100.15","","","","","","NA"
"-81.88","42.45","RIDGETOWN RCS","6137154","2012-02-27 19:00","2012","02","27","19:00","0.6","","-4.0","","71","","","","28","","19","","","","100.25","","","","","","NA"
"-81.88","42.45","RIDGETOWN RCS","6137154","2012-02-27 20:00","2012","02","27","20:00","0.4","","-4.0","","72","","","","27","","19","","","","100.29","","","","","","NA"
"-81.88","42.45","RIDGETOWN RCS","6137154","2012-02-27 21:00","2012","02","27","21:00","0.0","","-3.8","","76","","","","26","","15","","","","100.36","","","","-4","","NA"
"-81.88","42.45","RIDGETOWN RCS","6137154","2012-02-27 22:00","2012","02","27","22:00","-0.2","","-3.3","","80","","","","28","","17","","","","100.48","","","","-5","","NA"
"-81.88","42.45","RIDGETOWN RCS","6137154","2012-02-27 23:00","2012","02","27","23:00","-0.5","","-3.2","","82","","","","26","","13","","","","100.58","","","","-5","","NA"
"-81.88","42.45","RIDGETOWN RCS","6137154","2012-02-28 00:00","2012","02","28","00:00","-1.0","","-3.7","","82","","","","27","","11","","","","100.60","","","","-5","","NA"
"-81.88","42.45","RIDGETOWN RCS","6137154","2012-02-28 01:00","2012","02","28","01:00","-1.5","","-3.7","","85","","","","27","","9","","","","100.67","","","","-5","","NA"
"-81.88","42.45","RIDGETOWN RCS","6137154","2012-02-28 02:00","2012","02","28","02:00","-1.7","","-3.9","","85","","","","28","","9","","","","100.67","","","","-5","","NA"
"-81.88","42.45","RIDGETOWN RCS","6137154","2012-02-28 03:00","2012","02","28","03:00","-2.5","","-4.4","","87","","","","27","","7","","","","100.70","","","","-5","","NA"
"-81.88","42.45","RIDGETOWN RCS","6137154","2012-02-28 04:00","2012","02","28","04:00","-2.8","","-4.6","","87","","","","29","","6","","","","100.70","","","","-5","","NA"
"-81.88","42.45","RIDGETOWN RCS","6137154","2012-02-28 05:00","2012","02","28","05:00","-3.8","","-5.4","","89","","","","30","","6","","","","100.76","","","","-6","","NA"
"-81.88","42.45","RIDGETOWN RCS","6137154","2012-02-28 06:00","2012","02","28","06:00","-4.9","","-5.9","","93","","","","26","","2","","","","100.78","","","","-6","","NA"
"-81.88","42.45","RIDGETOWN RCS","6137154","2012-02-28 07:00","2012","02","28","07:00","-5.0","","-5.8","","94","","","","3","","4","","","","100.75","","","","-7","","NA"
"-81.88","42.45","RIDGETOWN RCS","6137154","2012-02-28 08:00","2012","02","28","08:00","-3.8","","-4.6","","94","","","","","","0","","","","100.81","","","","","","NA"
"-81.88","42.45","RIDGETOWN RCS","6137154","2012-02-28 09:00","2012","02","28","09:00","-1.3","","-4.5","","79","","","","4","","6","","","","100.82","","","","-4","","NA"
"-81.88","42.45","RIDGETOWN RCS","6137154","2012-02-28 10:00","2012","02","28","10:00","0.2","","-5.4","","66","","","","1","","2","","","","100.82","","","","","","NA"
"-81.88","42.45","RIDGETOWN RCS","6137154","2012-02-28 11:00","2012","02","28","11:00","1.2","","-5.8","","60","","","","24","","6","","","","100.78","","","","","","NA"
"-81.88","42.45","RIDGETOWN RCS","6137154","2012-02-28 12:00","2012","02","28","12:00","2.2","","-5.2","","58","","","","24","","7","","","","100.75","","","","","","NA"
"-81.88","42.45","RIDGETOWN RCS","6137154","2012-02-28 13:00","2012","02","28","13:00","2.4","","-3.0","","67","","","","13","","11","","","","100.60","","","","","","NA"
"-81.88","42.45","RIDGETOWN RCS","6137154","2012-02-28 14:00","2012","02","28","14:00","2.4","","-3.0","","67","","","","12","","13","","","","100.51","","","","","","NA"
"-81.88","42.45","RIDGETOWN RCS","6137154","2012-02-28 15:00","2012","02","28","15:00","2.1","","-4.6","","61","","","","13","","13","","","","100.42","","","","","","NA"
"-81.88","42.45","RIDGETOWN RCS","6137154","2012-02-28 16:00","2012","02","28","16:00","1.8","","-3.9","","66","","","","13","","15","","","","100.37","","","","","","NA"
"-81.88","42.45","RIDGETOWN RCS","6137154","2012-02-28 17:00","2012","02","28","17:00","1.2","","-4.4","","66","","","","13","","9","","","","100.33","","","","","","NA"
"-81.88","42.45","RIDGETOWN RCS","6137154","2012-02-28 18:00","2012","02","28","18:00","0.8","","-3.8","","71","","","","8","","9","","","","100.25","","","","","","NA"
"-81.88","42.45","RIDGETOWN RCS","6137154","2012-02-28 19:00","2012","02","28","19:00","0.4","","-4.1","","72","","","","7","","9","","","","100.24","","","","","","NA"
"-81.88","42.45","RIDGETOWN RCS","6137154","2012-02-28 20:00","2012","02","28","20:00","0.5","","-4.4","","70","","","","10","","6","","","","100.20","","","","","","NA"
"-81.88","42.45","RIDGETOWN RCS","6137154","2012-02-28 21:00","2012","02","28","21:00","0.6","","-3.5","","74","","","","11","","13","","","","100.13","","","","","","NA"
"-81.88","42.45","RIDGETOWN RCS","6137154","2012-02-28 22:00","2012","02","28","22:00","0.6","","-2.7","","79","","","","10","","13","","","","100.05","","","","","","NA"
"-81.88","42.45","RIDGETOWN RCS","6137154","2012-02-28 23:00","2012","02","28","23:00","0.6","","-2.5","","80","","","","9","","13","","","","99.98","","","","","","NA"
"-81.88","42.45","RIDGETOWN RCS","6137154","2012-02-29 00:00","2012","02","29","00:00","0.8","","-2.3","","80","","","","10","","15","","","","99.85","","","","","","NA"
"-81.88","42.45","RIDGETOWN RCS","6137154","2012-02-29 01:00","2012","02","29","01:00","0.8","","-1.7","","83","","","","10","","17","","","","99.67","","","","","","NA"
"-81.88","42.45","RIDGETOWN RCS","6137154","2012-02-29 02:00","2012","02","29","02:00","1.1","","-2.2","","79","","","","9","","24","","","","99.52","","","","","","NA"
"-81.88","42.45","RIDGETOWN RCS","6137154","2012-02-29 03:00","2012","02","29","03:00","1.1","","-2.6","","76","","","","9","","20","","","","99.38","","","","","","NA"
"-81.88","42.45","RIDGETOWN RCS","6137154","2012-02-29 04:00","2012","02","29","04:00","1.1","","-3.4","","72","","","","9","","19","","","","99.30","","","","","","NA"
"-81.88","42.45","RIDGETOWN RCS","6137154","2012-02-29 05:00","2012","02","29","05:00","0.4","","-1.9","","85","","","","9","","20","","","","99.19","","","","","","NA"
"-81.88","42.45","RIDGETOWN RCS","6137154","2012-02-29 06:00","2012","02","29","06:00","0.3","","-1.4","","88","","","","8","","24","","","","98.95","","","","","","NA"
"-81.88","42.45","RIDGETOWN RCS","6137154","2012-02-29 07:00","2012","02","29","07:00","0.4","","-0.8","","92","","","","9","","17","","","","98.94","","","","","","NA"
"-81.88","42.45","RIDGETOWN RCS","6137154","2012-02-29 08:00","2012","02","29","08:00","0.6","","-0.3","","94","","","","10","","26","","","","98.74","","","","","","NA"
"-81.88","42.45","RIDGETOWN RCS","6137154","2012-02-29 09:00","2012","02","29","09:00","0.7","","-0.1","","94","","","","9","","24","","","","98.65","","","","","","NA"
"-81.88","42.45","RIDGETOWN RCS","6137154","2012-02-29 10:00","2012","02","29","10:00","0.9","","0.0","","94","","","","10","","33","","","","98.47","","","","","","NA"
"-81.88","42.45","RIDGETOWN RCS","6137154","2012-02-29 11:00","2012","02","29","11:00","1.2","","0.5","","95","","","","9","","30","","","","98.31","","","","","","NA"
"-81.88","42.45","RIDGETOWN RCS","6137154","2012-02-29 12:00","2012","02","29","12:00","1.3","","0.5","","94","","","","10","","30","","","","98.22","","","","","","NA"
"-81.88","42.45","RIDGETOWN RCS","6137154","2012-02-29 13:00","2012","02","29","13:00","2.0","","1.3","","95","","","","10","","30","","","","98.07","","","","","","NA"
"-81.88","42.45","RIDGETOWN RCS","6137154","2012-02-29 14:00","2012","02","29","14:00","2.2","","1.6","","96","","","","11","","24","","","","98.01","","","","","","NA"
"-81.88","42.45","RIDGETOWN RCS","6137154","2012-02-29 15:00","2012","02","29","15:00","2.4","","1.9","","96","","","","10","","22","","","","97.93","","","","","","NA"
"-81.88","42.45","RIDGETOWN RCS","6137154","2012-02-29 16:00","2012","02","29","16:00","2.6","","2.1","","96","","","","10","","20","","","","97.80","","","","","","NA"
"-81.88","42.45","RIDGETOWN RCS","6137154","2012-02-29 17:00","2012","02","29","17:00","2.5","","2.1","","97","","","","11","","22","","","","97.73","","","","","","NA"
"-81.88","42.45","RIDGETOWN RCS","6137154","2012-02-29 18:00","2012","02","29","18:00","2.6","","2.2","","97","","","","10","","17","","","","97.64","","","","","","NA"
"-81.88","42.45","RIDGETOWN RCS","6137154","2012-02-29 19:00","2012","02","29","19:00","2.4","","2.1","","98","","","","9","","17","","","","97.59","","","","","","NA"
"-81.88","42.45","RIDGETOWN RCS","6137154","2012-02-29 20:00","2012","02","29","20:00","2.5","","2.2","","98","","","","11","","19","","","","97.44","","","","","","NA"
"-81.88","42.45","RIDGETOWN RCS","6137154","2012-02-29 21:00","2012","02","29","21:00","3.0","","2.7","","98","","","","4","","13","","","","97.54","","","","","","NA"
"-81.88","42.45","RIDGETOWN RCS","6137154","2012-02-29 22:00","2012","02","29","22:00","3.3","","3.0","","98","","","","9","","11","","","","97.50","","","","","","NA"
"-81.88","42.45","RIDGETOWN RCS","6137154","2012-02-29 23:00","2012","02","29","23:00","3.3","","3.0","","98","","","","8","","7","","","","97.45","","","","","","NA"
