"Longitude (x)","Latitude (y)","Station Name","Climate ID","Date/Time (LST)","Year","Month","Day","Time (LST)","Temp (°C)","Temp Flag","Dew Point Temp (°C)","Dew Point Temp Flag","Rel Hum (%)","Rel Hum Flag","Precip. Amount (mm)","Precip. Amount Flag","Wind Dir (10s deg)","Wind Dir Flag","Wind Spd (km/h)","Wind Spd Flag","Visibility (km)","Visibility Flag","Stn Press (kPa)","Stn Press Flag","Hmdx","Hmdx Flag","Wind Chill","Wind Chill Flag","Weather"
"-60.98","45.35","HART ISLAND (AUT)","8202318","2019-04-01 00:00","2019","04","01","00:00","2.6","","2.6","","100","","","M","16","","20","","","","100.69","","","","","","NA"
"-60.98","45.35","HART ISLAND (AUT)","8202318","2019-04-01 01:00","2019","04","01","01:00","3.1","","3.0","","100","","","M","17","","13","","","","100.58","","","","","","NA"
"-60.98","45.35","HART ISLAND (AUT)","8202318","2019-04-01 02:00","2019","04","01","02:00","3.0","","3.0","","100","","","M","18","","20","","","","100.47","","","","","","NA"
"-60.98","45.35","HART ISLAND (AUT)","8202318","2019-04-01 03:00","2019","04","01","03:00","1.5","","1.5","","100","","","M","14","","14","","","","100.31","","","","","","NA"
"-60.98","45.35","HART ISLAND (AUT)","8202318","2019-04-01 04:00","2019","04","01","04:00","2.0","","2.0","","100","","","M","15","","17","","","","100.18","","","","","","NA"
"-60.98","45.35","HART ISLAND (AUT)","8202318","2019-04-01 05:00","2019","04","01","05:00","4.0","","4.0","","100","","","M","18","","18","","","","100.10","","","","","","NA"
"-60.98","45.35","HART ISLAND (AUT)","8202318","2019-04-01 06:00","2019","04","01","06:00","4.4","","4.4","","100","","","M","14","","16","","","","100.00","","","","","","NA"
"-60.98","45.35","HART ISLAND (AUT)","8202318","2019-04-01 07:00","2019","04","01","07:00","5.5","","5.4","","100","","","M","15","","28","","","","99.83","","","","","","NA"
"-60.98","45.35","HART ISLAND (AUT)","8202318","2019-04-01 08:00","2019","04","01","08:00","6.8","","6.8","","100","","","M","16","","37","","","","99.68","","","","","","NA"
"-60.98","45.35","HART ISLAND (AUT)","8202318","2019-04-01 09:00","2019","04","01","09:00","7.5","","7.5","","100","","","M","19","","38","","","","99.61","","","","","","NA"
"-60.98","45.35","HART ISLAND (AUT)","8202318","2019-04-01 10:00","2019","04","01","10:00","6.7","","6.6","","100","","","M","19","","33","","","","99.57","","","","","","NA"
"-60.98","45.35","HART ISLAND (AUT)","8202318","2019-04-01 11:00","2019","04","01","11:00","5.7","","5.5","","98","","","M","21","","40","","","","99.52","","","","","","NA"
"-60.98","45.35","HART ISLAND (AUT)","8202318","2019-04-01 12:00","2019","04","01","12:00","4.3","","3.9","","97","","","M","22","","36","","","","99.52","","","","","","NA"
"-60.98","45.35","HART ISLAND (AUT)","8202318","2019-04-01 13:00","2019","04","01","13:00","4.7","","4.0","","95","","","M","22","","33","","","","99.57","","","","","","NA"
"-60.98","45.35","HART ISLAND (AUT)","8202318","2019-04-01 14:00","2019","04","01","14:00","2.9","","2.5","","97","","","M","30","","16","","","","99.76","","","","","","NA"
"-60.98","45.35","HART ISLAND (AUT)","8202318","2019-04-01 15:00","2019","04","01","15:00","1.6","","1.1","","97","","","M","31","","26","","","","99.88","","","","","","NA"
"-60.98","45.35","HART ISLAND (AUT)","8202318","2019-04-01 16:00","2019","04","01","16:00","1.2","","0.5","","95","","","M","30","","23","","","","100.05","","","","","","NA"
"-60.98","45.35","HART ISLAND (AUT)","8202318","2019-04-01 17:00","2019","04","01","17:00","2.2","","-1.6","","76","","","M","26","","31","","","","100.22","","","","","","NA"
"-60.98","45.35","HART ISLAND (AUT)","8202318","2019-04-01 18:00","2019","04","01","18:00","1.8","","-3.3","","69","","","M","26","","29","","","","100.40","","","","","","NA"
"-60.98","45.35","HART ISLAND (AUT)","8202318","2019-04-01 19:00","2019","04","01","19:00","1.7","","-3.9","","67","","","M","26","","23","","","","100.55","","","","","","NA"
"-60.98","45.35","HART ISLAND (AUT)","8202318","2019-04-01 20:00","2019","04","01","20:00","1.1","","-4.2","","67","","","M","25","","21","","","","100.77","","","","","","NA"
"-60.98","45.35","HART ISLAND (AUT)","8202318","2019-04-01 21:00","2019","04","01","21:00","0.9","","-4.8","","66","","","M","25","","24","","","","100.94","","","","","","NA"
"-60.98","45.35","HART ISLAND (AUT)","8202318","2019-04-01 22:00","2019","04","01","22:00","0.2","","-4.5","","71","","","M","24","","19","","","","101.08","","","","","","NA"
"-60.98","45.35","HART ISLAND (AUT)","8202318","2019-04-01 23:00","2019","04","01","23:00","0.6","","-4.7","","67","","","M","28","","29","","","","101.26","","","","","","NA"
"-60.98","45.35","HART ISLAND (AUT)","8202318","2019-04-02 00:00","2019","04","02","00:00","0.3","","-8.5","","52","","","M","28","","45","","","","101.42","","","","","","NA"
"-60.98","45.35","HART ISLAND (AUT)","8202318","2019-04-02 01:00","2019","04","02","01:00","-0.3","","-9.0","","52","","","M","28","","40","","","","101.58","","","","-8","","NA"
"-60.98","45.35","HART ISLAND (AUT)","8202318","2019-04-02 02:00","2019","04","02","02:00","-0.6","","-9.5","","51","","","M","28","","38","","","","101.74","","","","-8","","NA"
"-60.98","45.35","HART ISLAND (AUT)","8202318","2019-04-02 03:00","2019","04","02","03:00","-1.0","","-9.1","","54","","","M","29","","40","","","","101.90","","","","-9","","NA"
"-60.98","45.35","HART ISLAND (AUT)","8202318","2019-04-02 04:00","2019","04","02","04:00","-1.3","","-9.3","","54","","","M","29","","34","","","","102.06","","","","-9","","NA"
"-60.98","45.35","HART ISLAND (AUT)","8202318","2019-04-02 05:00","2019","04","02","05:00","-1.2","","-8.8","","56","","","M","28","","31","","","","102.20","","","","-8","","NA"
"-60.98","45.35","HART ISLAND (AUT)","8202318","2019-04-02 06:00","2019","04","02","06:00","-2.1","","-9.2","","58","","","M","24","","20","","","","102.39","","","","-8","","NA"
"-60.98","45.35","HART ISLAND (AUT)","8202318","2019-04-02 07:00","2019","04","02","07:00","-1.3","","-8.6","","58","","","M","25","","18","","","","102.51","","","","-7","","NA"
"-60.98","45.35","HART ISLAND (AUT)","8202318","2019-04-02 08:00","2019","04","02","08:00","0.9","","-8.3","","50","","","M","28","","26","","","","102.61","","","","","","NA"
"-60.98","45.35","HART ISLAND (AUT)","8202318","2019-04-02 09:00","2019","04","02","09:00","1.9","","-7.3","","50","","","M","28","","27","","","","102.71","","","","","","NA"
"-60.98","45.35","HART ISLAND (AUT)","8202318","2019-04-02 10:00","2019","04","02","10:00","3.9","","-5.8","","49","","","M","29","","22","","","","102.78","","","","","","NA"
"-60.98","45.35","HART ISLAND (AUT)","8202318","2019-04-02 11:00","2019","04","02","11:00","4.5","","-5.7","","47","","","M","23","","25","","","","102.79","","","","","","NA"
"-60.98","45.35","HART ISLAND (AUT)","8202318","2019-04-02 12:00","2019","04","02","12:00","4.6","","-4.2","","53","","","M","22","","30","","","","102.84","","","","","","NA"
"-60.98","45.35","HART ISLAND (AUT)","8202318","2019-04-02 13:00","2019","04","02","13:00","4.6","","-4.9","","50","","","M","22","","37","","","","102.88","","","","","","NA"
"-60.98","45.35","HART ISLAND (AUT)","8202318","2019-04-02 14:00","2019","04","02","14:00","4.5","","-3.9","","54","","","M","22","","35","","","","102.91","","","","","","NA"
"-60.98","45.35","HART ISLAND (AUT)","8202318","2019-04-02 15:00","2019","04","02","15:00","3.9","","-6.1","","48","","","M","22","","45","","","","102.92","","","","","","NA"
"-60.98","45.35","HART ISLAND (AUT)","8202318","2019-04-02 16:00","2019","04","02","16:00","3.8","","-4.7","","54","","","M","21","","39","","","","102.99","","","","","","NA"
"-60.98","45.35","HART ISLAND (AUT)","8202318","2019-04-02 17:00","2019","04","02","17:00","3.0","","-5.0","","56","","","M","22","","38","","","","103.04","","","","","","NA"
"-60.98","45.35","HART ISLAND (AUT)","8202318","2019-04-02 18:00","2019","04","02","18:00","1.7","","-3.6","","68","","","M","21","","40","","","","103.13","","","","","","NA"
"-60.98","45.35","HART ISLAND (AUT)","8202318","2019-04-02 19:00","2019","04","02","19:00","1.0","","-2.9","","76","","","M","20","","31","","","","103.21","","","","","","NA"
"-60.98","45.35","HART ISLAND (AUT)","8202318","2019-04-02 20:00","2019","04","02","20:00","0.5","","-2.6","","80","","","M","20","","27","","","","103.30","","","","","","NA"
"-60.98","45.35","HART ISLAND (AUT)","8202318","2019-04-02 21:00","2019","04","02","21:00","0.3","","-2.4","","82","","","M","19","","26","","","","103.35","","","","","","NA"
"-60.98","45.35","HART ISLAND (AUT)","8202318","2019-04-02 22:00","2019","04","02","22:00","0.4","","-2.6","","81","","","M","19","","19","","","","103.42","","","","","","NA"
"-60.98","45.35","HART ISLAND (AUT)","8202318","2019-04-02 23:00","2019","04","02","23:00","-0.1","","-2.0","","87","","","M","20","","14","","","","103.44","","","","-4","","NA"
"-60.98","45.35","HART ISLAND (AUT)","8202318","2019-04-03 00:00","2019","04","03","00:00","-0.3","","-1.9","","89","","","M","19","","15","","","","103.44","","","","-5","","NA"
"-60.98","45.35","HART ISLAND (AUT)","8202318","2019-04-03 01:00","2019","04","03","01:00","-0.3","","-1.9","","89","","","M","18","","14","","","","103.38","","","","-5","","NA"
"-60.98","45.35","HART ISLAND (AUT)","8202318","2019-04-03 02:00","2019","04","03","02:00","-0.7","","-1.6","","93","","","M","15","","13","","","","103.30","","","","-5","","NA"
"-60.98","45.35","HART ISLAND (AUT)","8202318","2019-04-03 03:00","2019","04","03","03:00","-0.2","","-1.5","","91","","","M","14","","16","","","","103.19","","","","-5","","NA"
"-60.98","45.35","HART ISLAND (AUT)","8202318","2019-04-03 04:00","2019","04","03","04:00","0.3","","-1.1","","90","","","M","13","","25","","","","103.06","","","","","","NA"
"-60.98","45.35","HART ISLAND (AUT)","8202318","2019-04-03 05:00","2019","04","03","05:00","0.6","","-2.1","","82","","","M","13","","30","","","","103.01","","","","","","NA"
"-60.98","45.35","HART ISLAND (AUT)","8202318","2019-04-03 06:00","2019","04","03","06:00","0.7","","-1.5","","85","","","M","12","","35","","","","102.89","","","","","","NA"
"-60.98","45.35","HART ISLAND (AUT)","8202318","2019-04-03 07:00","2019","04","03","07:00","1.0","","-1.8","","81","","","M","11","","41","","","","102.70","","","","","","NA"
"-60.98","45.35","HART ISLAND (AUT)","8202318","2019-04-03 08:00","2019","04","03","08:00","1.0","","-1.6","","83","","","M","11","","44","","","","102.51","","","","","","NA"
"-60.98","45.35","HART ISLAND (AUT)","8202318","2019-04-03 09:00","2019","04","03","09:00","1.5","","-1.1","","83","","","M","11","","45","","","","102.32","","","","","","NA"
"-60.98","45.35","HART ISLAND (AUT)","8202318","2019-04-03 10:00","2019","04","03","10:00","1.6","","-0.6","","85","","","M","11","","48","","","","102.16","","","","","","NA"
"-60.98","45.35","HART ISLAND (AUT)","8202318","2019-04-03 11:00","2019","04","03","11:00","1.1","","0.3","","94","","","M","10","","42","","","","101.82","","","","","","NA"
"-60.98","45.35","HART ISLAND (AUT)","8202318","2019-04-03 12:00","2019","04","03","12:00","1.3","","0.5","","95","","","M","9","","49","","","","101.36","","","","","","NA"
"-60.98","45.35","HART ISLAND (AUT)","8202318","2019-04-03 13:00","2019","04","03","13:00","1.8","","1.0","","95","","","M","11","","62","","","","101.01","","","","","","NA"
"-60.98","45.35","HART ISLAND (AUT)","8202318","2019-04-03 14:00","2019","04","03","14:00","1.9","","1.1","","94","","","M","11","","62","","","","100.60","","","","","","NA"
"-60.98","45.35","HART ISLAND (AUT)","8202318","2019-04-03 15:00","2019","04","03","15:00","2.9","","2.2","","95","","","M","11","","67","","","","100.10","","","","","","NA"
"-60.98","45.35","HART ISLAND (AUT)","8202318","2019-04-03 16:00","2019","04","03","16:00","3.6","","3.0","","96","","","M","12","","74","","","","99.69","","","","","","NA"
"-60.98","45.35","HART ISLAND (AUT)","8202318","2019-04-03 17:00","2019","04","03","17:00","4.2","","3.7","","96","","","M","13","","61","","","","99.41","","","","","","NA"
"-60.98","45.35","HART ISLAND (AUT)","8202318","2019-04-03 18:00","2019","04","03","18:00","5.6","","5.2","","97","","","M","13","","72","","","","98.99","","","","","","NA"
"-60.98","45.35","HART ISLAND (AUT)","8202318","2019-04-03 19:00","2019","04","03","19:00","6.1","","5.7","","98","","","M","14","","66","","","","98.74","","","","","","NA"
"-60.98","45.35","HART ISLAND (AUT)","8202318","2019-04-03 20:00","2019","04","03","20:00","4.8","","4.4","","97","","","M","17","","64","","","","98.71","","","","","","NA"
"-60.98","45.35","HART ISLAND (AUT)","8202318","2019-04-03 21:00","2019","04","03","21:00","5.2","","4.0","","92","","","M","22","","53","","","","98.87","","","","","","NA"
"-60.98","45.35","HART ISLAND (AUT)","8202318","2019-04-03 22:00","2019","04","03","22:00","4.7","","1.9","","82","","","M","25","","45","","","","99.36","","","","","","NA"
"-60.98","45.35","HART ISLAND (AUT)","8202318","2019-04-03 23:00","2019","04","03","23:00","3.7","","0.2","","78","","","M","25","","43","","","","99.74","","","","","","NA"
"-60.98","45.35","HART ISLAND (AUT)","8202318","2019-04-04 00:00","2019","04","04","00:00","3.5","","0.3","","80","","","M","24","","43","","","","99.94","","","","","","NA"
"-60.98","45.35","HART ISLAND (AUT)","8202318","2019-04-04 01:00","2019","04","04","01:00","1.9","","0.3","","89","","","M","22","","41","","","","100.01","","","","","","NA"
"-60.98","45.35","HART ISLAND (AUT)","8202318","2019-04-04 02:00","2019","04","04","02:00","2.0","","0.4","","89","","","M","23","","42","","","","100.17","","","","","","NA"
"-60.98","45.35","HART ISLAND (AUT)","8202318","2019-04-04 03:00","2019","04","04","03:00","2.2","","0.1","","86","","","M","23","","44","","","","100.28","","","","","","NA"
"-60.98","45.35","HART ISLAND (AUT)","8202318","2019-04-04 04:00","2019","04","04","04:00","2.1","","-0.4","","84","","","M","22","","44","","","","100.33","","","","","","NA"
"-60.98","45.35","HART ISLAND (AUT)","8202318","2019-04-04 05:00","2019","04","04","05:00","2.1","","-0.9","","81","","","M","22","","43","","","","100.37","","","","","","NA"
"-60.98","45.35","HART ISLAND (AUT)","8202318","2019-04-04 06:00","2019","04","04","06:00","1.8","","-1.3","","79","","","M","22","","41","","","","100.45","","","","","","NA"
"-60.98","45.35","HART ISLAND (AUT)","8202318","2019-04-04 07:00","2019","04","04","07:00","2.4","","-1.9","","73","","","M","23","","43","","","","100.52","","","","","","NA"
"-60.98","45.35","HART ISLAND (AUT)","8202318","2019-04-04 08:00","2019","04","04","08:00","2.9","","-2.3","","69","","","M","23","","42","","","","100.52","","","","","","NA"
"-60.98","45.35","HART ISLAND (AUT)","8202318","2019-04-04 09:00","2019","04","04","09:00","4.3","","-8.8","","38","","","M","25","","52","","","","100.48","","","","","","NA"
"-60.98","45.35","HART ISLAND (AUT)","8202318","2019-04-04 10:00","2019","04","04","10:00","4.7","","-10.7","","32","","","M","25","","53","","","","100.47","","","","","","NA"
"-60.98","45.35","HART ISLAND (AUT)","8202318","2019-04-04 11:00","2019","04","04","11:00","5.1","","-12.5","","27","","","M","26","","59","","","","100.46","","","","","","NA"
"-60.98","45.35","HART ISLAND (AUT)","8202318","2019-04-04 12:00","2019","04","04","12:00","5.1","","-14.0","","24","","","M","26","","59","","","","100.45","","","","","","NA"
"-60.98","45.35","HART ISLAND (AUT)","8202318","2019-04-04 13:00","2019","04","04","13:00","5.0","","-13.5","","25","","","M","25","","57","","","","100.42","","","","","","NA"
"-60.98","45.35","HART ISLAND (AUT)","8202318","2019-04-04 14:00","2019","04","04","14:00","4.7","","-11.2","","30","","","M","26","","54","","","","100.43","","","","","","NA"
"-60.98","45.35","HART ISLAND (AUT)","8202318","2019-04-04 15:00","2019","04","04","15:00","4.3","","-9.8","","35","","","M","27","","43","","","","100.46","","","","","","NA"
"-60.98","45.35","HART ISLAND (AUT)","8202318","2019-04-04 16:00","2019","04","04","16:00","4.5","","-11.8","","30","","","M","26","","53","","","","100.48","","","","","","NA"
"-60.98","45.35","HART ISLAND (AUT)","8202318","2019-04-04 17:00","2019","04","04","17:00","4.1","","-12.4","","29","","","M","27","","48","","","","100.55","","","","","","NA"
"-60.98","45.35","HART ISLAND (AUT)","8202318","2019-04-04 18:00","2019","04","04","18:00","3.4","","-11.8","","32","","","M","27","","33","","","","100.63","","","","","","NA"
"-60.98","45.35","HART ISLAND (AUT)","8202318","2019-04-04 19:00","2019","04","04","19:00","2.4","","-11.5","","35","","","M","26","","39","","","","100.73","","","","","","NA"
"-60.98","45.35","HART ISLAND (AUT)","8202318","2019-04-04 20:00","2019","04","04","20:00","2.0","","-10.8","","38","","","M","26","","46","","","","100.81","","","","","","NA"
"-60.98","45.35","HART ISLAND (AUT)","8202318","2019-04-04 21:00","2019","04","04","21:00","1.4","","-10.3","","41","","","M","26","","36","","","","100.89","","","","","","NA"
"-60.98","45.35","HART ISLAND (AUT)","8202318","2019-04-04 22:00","2019","04","04","22:00","0.7","","-9.9","","45","","","M","26","","34","","","","100.96","","","","","","NA"
"-60.98","45.35","HART ISLAND (AUT)","8202318","2019-04-04 23:00","2019","04","04","23:00","0.0","","-9.8","","48","","","M","28","","45","","","","101.03","","","","-8","","NA"
"-60.98","45.35","HART ISLAND (AUT)","8202318","2019-04-05 00:00","2019","04","05","00:00","-0.4","","-9.6","","50","","","M","27","","40","","","","101.08","","","","-8","","NA"
"-60.98","45.35","HART ISLAND (AUT)","8202318","2019-04-05 01:00","2019","04","05","01:00","-0.5","","-10.0","","49","","","M","28","","47","","","","101.14","","","","-9","","NA"
"-60.98","45.35","HART ISLAND (AUT)","8202318","2019-04-05 02:00","2019","04","05","02:00","-0.8","","-9.1","","54","","","M","28","","43","","","","101.19","","","","-9","","NA"
"-60.98","45.35","HART ISLAND (AUT)","8202318","2019-04-05 03:00","2019","04","05","03:00","-1.5","","-9.8","","53","","","M","29","","51","","","","101.23","","","","-10","","NA"
"-60.98","45.35","HART ISLAND (AUT)","8202318","2019-04-05 04:00","2019","04","05","04:00","-2.0","","-8.9","","59","","","M","28","","49","","","","101.28","","","","-11","","NA"
"-60.98","45.35","HART ISLAND (AUT)","8202318","2019-04-05 05:00","2019","04","05","05:00","-2.3","","-9.1","","60","","","M","29","","43","","","","101.39","","","","-11","","NA"
"-60.98","45.35","HART ISLAND (AUT)","8202318","2019-04-05 06:00","2019","04","05","06:00","-2.4","","-8.5","","63","","","M","29","","43","","","","101.51","","","","-11","","NA"
"-60.98","45.35","HART ISLAND (AUT)","8202318","2019-04-05 07:00","2019","04","05","07:00","-2.1","","-8.3","","63","","","M","29","","41","","","","101.64","","","","-10","","NA"
"-60.98","45.35","HART ISLAND (AUT)","8202318","2019-04-05 08:00","2019","04","05","08:00","-1.3","","-7.9","","61","","","M","30","","52","","","","101.75","","","","-10","","NA"
"-60.98","45.35","HART ISLAND (AUT)","8202318","2019-04-05 09:00","2019","04","05","09:00","-0.9","","-8.1","","58","","","M","30","","48","","","","101.84","","","","-9","","NA"
"-60.98","45.35","HART ISLAND (AUT)","8202318","2019-04-05 10:00","2019","04","05","10:00","-0.1","","-7.5","","58","","","M","30","","46","","","","101.95","","","","-8","","NA"
"-60.98","45.35","HART ISLAND (AUT)","8202318","2019-04-05 11:00","2019","04","05","11:00","0.6","","-8.3","","51","","","M","31","","42","","","","101.94","","","","","","NA"
"-60.98","45.35","HART ISLAND (AUT)","8202318","2019-04-05 12:00","2019","04","05","12:00","1.5","","-7.1","","53","","","M","30","","36","","","","102.01","","","","","","NA"
"-60.98","45.35","HART ISLAND (AUT)","8202318","2019-04-05 13:00","2019","04","05","13:00","2.8","","-7.8","","46","","","M","29","","32","","","","102.05","","","","","","NA"
"-60.98","45.35","HART ISLAND (AUT)","8202318","2019-04-05 14:00","2019","04","05","14:00","2.5","","-6.0","","53","","","M","31","","30","","","","102.12","","","","","","NA"
"-60.98","45.35","HART ISLAND (AUT)","8202318","2019-04-05 15:00","2019","04","05","15:00","2.1","","-7.0","","51","","","M","32","","40","","","","102.11","","","","","","NA"
"-60.98","45.35","HART ISLAND (AUT)","8202318","2019-04-05 16:00","2019","04","05","16:00","2.4","","-6.9","","50","","","M","32","","34","","","","102.11","","","","","","NA"
"-60.98","45.35","HART ISLAND (AUT)","8202318","2019-04-05 17:00","2019","04","05","17:00","2.6","","-8.6","","43","","","M","30","","37","","","","102.16","","","","","","NA"
"-60.98","45.35","HART ISLAND (AUT)","8202318","2019-04-05 18:00","2019","04","05","18:00","2.0","","-8.8","","45","","","M","29","","30","","","","102.20","","","","","","NA"
"-60.98","45.35","HART ISLAND (AUT)","8202318","2019-04-05 19:00","2019","04","05","19:00","0.6","","-7.8","","54","","","M","27","","11","","","","102.29","","","","","","NA"
"-60.98","45.35","HART ISLAND (AUT)","8202318","2019-04-05 20:00","2019","04","05","20:00","1.3","","-10.0","","43","","","M","23","","8","","","","102.38","","","","","","NA"
"-60.98","45.35","HART ISLAND (AUT)","8202318","2019-04-05 21:00","2019","04","05","21:00","0.1","","-11.3","","42","","","M","27","","15","","","","102.44","","","","","","NA"
"-60.98","45.35","HART ISLAND (AUT)","8202318","2019-04-05 22:00","2019","04","05","22:00","-0.1","","-11.6","","42","","","M","26","","9","","","","102.46","","","","-3","","NA"
"-60.98","45.35","HART ISLAND (AUT)","8202318","2019-04-05 23:00","2019","04","05","23:00","-1.2","","-8.9","","56","","","M","19","","6","","","","102.43","","","","-3","","NA"
"-60.98","45.35","HART ISLAND (AUT)","8202318","2019-04-06 00:00","2019","04","06","00:00","-0.6","","-8.4","","56","","","M","21","","8","","","","102.47","","","","-3","","NA"
"-60.98","45.35","HART ISLAND (AUT)","8202318","2019-04-06 01:00","2019","04","06","01:00","-0.8","","-8.9","","54","","","M","24","","17","","","","102.49","","","","-6","","NA"
"-60.98","45.35","HART ISLAND (AUT)","8202318","2019-04-06 02:00","2019","04","06","02:00","-0.8","","-8.2","","57","","","M","24","","15","","","","102.39","","","","-5","","NA"
"-60.98","45.35","HART ISLAND (AUT)","8202318","2019-04-06 03:00","2019","04","06","03:00","-1.2","","-8.3","","58","","","M","23","","13","","","","102.35","","","","-5","","NA"
"-60.98","45.35","HART ISLAND (AUT)","8202318","2019-04-06 04:00","2019","04","06","04:00","-1.1","","-8.0","","59","","","M","22","","18","","","","102.34","","","","-6","","NA"
"-60.98","45.35","HART ISLAND (AUT)","8202318","2019-04-06 05:00","2019","04","06","05:00","-0.4","","-8.9","","53","","","M","23","","14","","","","102.31","","","","-5","","NA"
"-60.98","45.35","HART ISLAND (AUT)","8202318","2019-04-06 06:00","2019","04","06","06:00","-0.4","","-3.7","","78","","","M","20","","18","","","","102.27","","","","-5","","NA"
"-60.98","45.35","HART ISLAND (AUT)","8202318","2019-04-06 07:00","2019","04","06","07:00","0.8","","-3.5","","73","","","M","20","","22","","","","102.24","","","","","","NA"
"-60.98","45.35","HART ISLAND (AUT)","8202318","2019-04-06 08:00","2019","04","06","08:00","1.2","","-3.7","","70","","","M","21","","32","","","","102.21","","","","","","NA"
"-60.98","45.35","HART ISLAND (AUT)","8202318","2019-04-06 09:00","2019","04","06","09:00","2.0","","-2.6","","72","","","M","21","","24","","","","102.16","","","","","","NA"
"-60.98","45.35","HART ISLAND (AUT)","8202318","2019-04-06 10:00","2019","04","06","10:00","2.2","","-1.4","","77","","","M","21","","36","","","","102.06","","","","","","NA"
"-60.98","45.35","HART ISLAND (AUT)","8202318","2019-04-06 11:00","2019","04","06","11:00","1.4","","-1.8","","79","","","M","20","","41","","","","101.97","","","","","","NA"
"-60.98","45.35","HART ISLAND (AUT)","8202318","2019-04-06 12:00","2019","04","06","12:00","0.3","","-0.7","","93","","","M","19","","32","","","","101.87","","","","","","NA"
"-60.98","45.35","HART ISLAND (AUT)","8202318","2019-04-06 13:00","2019","04","06","13:00","1.2","","0.3","","94","","","M","20","","35","","","","101.77","","","","","","NA"
"-60.98","45.35","HART ISLAND (AUT)","8202318","2019-04-06 14:00","2019","04","06","14:00","2.6","","1.7","","94","","","M","21","","33","","","","101.65","","","","","","NA"
"-60.98","45.35","HART ISLAND (AUT)","8202318","2019-04-06 15:00","2019","04","06","15:00","2.7","","1.6","","93","","","M","22","","35","","","","101.55","","","","","","NA"
"-60.98","45.35","HART ISLAND (AUT)","8202318","2019-04-06 16:00","2019","04","06","16:00","2.5","","1.7","","95","","","M","22","","29","","","","101.47","","","","","","NA"
"-60.98","45.35","HART ISLAND (AUT)","8202318","2019-04-06 17:00","2019","04","06","17:00","2.5","","1.8","","95","","","M","22","","26","","","","101.39","","","","","","NA"
"-60.98","45.35","HART ISLAND (AUT)","8202318","2019-04-06 18:00","2019","04","06","18:00","2.7","","2.0","","96","","","M","23","","21","","","","101.34","","","","","","NA"
"-60.98","45.35","HART ISLAND (AUT)","8202318","2019-04-06 19:00","2019","04","06","19:00","2.4","","1.9","","97","","","M","24","","14","","","","101.32","","","","","","NA"
"-60.98","45.35","HART ISLAND (AUT)","8202318","2019-04-06 20:00","2019","04","06","20:00","2.3","","1.9","","97","","","M","24","","8","","","","101.29","","","","","","NA"
"-60.98","45.35","HART ISLAND (AUT)","8202318","2019-04-06 21:00","2019","04","06","21:00","3.2","","2.7","","97","","","M","27","","13","","","","101.28","","","","","","NA"
"-60.98","45.35","HART ISLAND (AUT)","8202318","2019-04-06 22:00","2019","04","06","22:00","3.1","","2.2","","94","","","M","28","","17","","","","101.29","","","","","","NA"
"-60.98","45.35","HART ISLAND (AUT)","8202318","2019-04-06 23:00","2019","04","06","23:00","1.2","","0.5","","95","","","M","29","","11","","","","101.28","","","","","","NA"
"-60.98","45.35","HART ISLAND (AUT)","8202318","2019-04-07 00:00","2019","04","07","00:00","1.6","","1.1","","96","","","M","27","","11","","","","101.29","","","","","","NA"
"-60.98","45.35","HART ISLAND (AUT)","8202318","2019-04-07 01:00","2019","04","07","01:00","0.9","","0.2","","95","","","M","30","","12","","","","101.31","","","","","","NA"
"-60.98","45.35","HART ISLAND (AUT)","8202318","2019-04-07 02:00","2019","04","07","02:00","1.5","","0.7","","94","","","M","28","","20","","","","101.36","","","","","","NA"
"-60.98","45.35","HART ISLAND (AUT)","8202318","2019-04-07 03:00","2019","04","07","03:00","1.8","","0.5","","91","","","M","26","","13","","","","101.38","","","","","","NA"
"-60.98","45.35","HART ISLAND (AUT)","8202318","2019-04-07 04:00","2019","04","07","04:00","1.4","","0.4","","94","","","M","24","","12","","","","101.42","","","","","","NA"
"-60.98","45.35","HART ISLAND (AUT)","8202318","2019-04-07 05:00","2019","04","07","05:00","0.5","","-0.2","","95","","","M","25","","14","","","","101.44","","","","","","NA"
"-60.98","45.35","HART ISLAND (AUT)","8202318","2019-04-07 06:00","2019","04","07","06:00","1.1","","0.1","","93","","","M","23","","14","","","","101.52","","","","","","NA"
"-60.98","45.35","HART ISLAND (AUT)","8202318","2019-04-07 07:00","2019","04","07","07:00","2.2","","0.4","","88","","","M","28","","22","","","","101.59","","","","","","NA"
"-60.98","45.35","HART ISLAND (AUT)","8202318","2019-04-07 08:00","2019","04","07","08:00","3.7","","0.5","","79","","","M","28","","20","","","","101.59","","","","","","NA"
"-60.98","45.35","HART ISLAND (AUT)","8202318","2019-04-07 09:00","2019","04","07","09:00","4.7","","0.6","","75","","","M","27","","28","","","","101.58","","","","","","NA"
"-60.98","45.35","HART ISLAND (AUT)","8202318","2019-04-07 10:00","2019","04","07","10:00","7.6","","0.6","","61","","","M","28","","21","","","","101.50","","","","","","NA"
"-60.98","45.35","HART ISLAND (AUT)","8202318","2019-04-07 11:00","2019","04","07","11:00","7.7","","0.5","","61","","","M","27","","29","","","","101.46","","","","","","NA"
"-60.98","45.35","HART ISLAND (AUT)","8202318","2019-04-07 12:00","2019","04","07","12:00","6.5","","0.1","","64","","","M","31","","14","","","","101.40","","","","","","NA"
"-60.98","45.35","HART ISLAND (AUT)","8202318","2019-04-07 13:00","2019","04","07","13:00","5.9","","-0.2","","65","","","M","32","","20","","","","101.35","","","","","","NA"
"-60.98","45.35","HART ISLAND (AUT)","8202318","2019-04-07 14:00","2019","04","07","14:00","6.1","","-1.1","","60","","","M","31","","20","","","","101.34","","","","","","NA"
"-60.98","45.35","HART ISLAND (AUT)","8202318","2019-04-07 15:00","2019","04","07","15:00","5.7","","-5.2","","45","","","M","24","","15","","","","101.39","","","","","","NA"
"-60.98","45.35","HART ISLAND (AUT)","8202318","2019-04-07 16:00","2019","04","07","16:00","5.1","","-3.9","","52","","","M","29","","14","","","","101.34","","","","","","NA"
"-60.98","45.35","HART ISLAND (AUT)","8202318","2019-04-07 17:00","2019","04","07","17:00","4.1","","-2.4","","63","","","M","30","","26","","","","101.31","","","","","","NA"
"-60.98","45.35","HART ISLAND (AUT)","8202318","2019-04-07 18:00","2019","04","07","18:00","3.7","","-2.7","","63","","","M","30","","27","","","","101.34","","","","","","NA"
"-60.98","45.35","HART ISLAND (AUT)","8202318","2019-04-07 19:00","2019","04","07","19:00","1.9","","-5.9","","56","","","M","32","","41","","","","101.51","","","","","","NA"
"-60.98","45.35","HART ISLAND (AUT)","8202318","2019-04-07 20:00","2019","04","07","20:00","0.9","","-6.8","","57","","","M","32","","35","","","","101.62","","","","","","NA"
"-60.98","45.35","HART ISLAND (AUT)","8202318","2019-04-07 21:00","2019","04","07","21:00","-0.1","","-6.5","","62","","","M","31","","47","","","","101.71","","","","-8","","NA"
"-60.98","45.35","HART ISLAND (AUT)","8202318","2019-04-07 22:00","2019","04","07","22:00","-1.0","","-6.8","","65","","","M","34","","41","","","","101.83","","","","-9","","NA"
"-60.98","45.35","HART ISLAND (AUT)","8202318","2019-04-07 23:00","2019","04","07","23:00","-1.6","","-8.3","","61","","","M","32","","38","","","","101.93","","","","-9","","NA"
"-60.98","45.35","HART ISLAND (AUT)","8202318","2019-04-08 00:00","2019","04","08","00:00","-2.3","","-9.6","","57","","","M","33","","45","","","","101.97","","","","-11","","NA"
"-60.98","45.35","HART ISLAND (AUT)","8202318","2019-04-08 01:00","2019","04","08","01:00","-2.5","","-10.1","","56","","","M","32","","43","","","","102.03","","","","-11","","NA"
"-60.98","45.35","HART ISLAND (AUT)","8202318","2019-04-08 02:00","2019","04","08","02:00","-2.7","","-10.7","","54","","","M","33","","40","","","","102.06","","","","-11","","NA"
"-60.98","45.35","HART ISLAND (AUT)","8202318","2019-04-08 03:00","2019","04","08","03:00","-3.0","","-11.3","","53","","","M","33","","41","","","","102.05","","","","-11","","NA"
"-60.98","45.35","HART ISLAND (AUT)","8202318","2019-04-08 04:00","2019","04","08","04:00","-3.3","","-11.6","","53","","","M","35","","35","","","","102.02","","","","-11","","NA"
"-60.98","45.35","HART ISLAND (AUT)","8202318","2019-04-08 05:00","2019","04","08","05:00","-3.4","","-11.7","","53","","","M","34","","35","","","","102.04","","","","-11","","NA"
"-60.98","45.35","HART ISLAND (AUT)","8202318","2019-04-08 06:00","2019","04","08","06:00","-3.2","","-10.4","","57","","","M","33","","34","","","","102.09","","","","-11","","NA"
"-60.98","45.35","HART ISLAND (AUT)","8202318","2019-04-08 07:00","2019","04","08","07:00","-2.7","","-9.7","","58","","","M","33","","36","","","","102.14","","","","-11","","NA"
"-60.98","45.35","HART ISLAND (AUT)","8202318","2019-04-08 08:00","2019","04","08","08:00","-2.2","","-10.2","","54","","","M","32","","31","","","","102.14","","","","-9","","NA"
"-60.98","45.35","HART ISLAND (AUT)","8202318","2019-04-08 09:00","2019","04","08","09:00","-1.9","","-9.7","","55","","","M","32","","35","","","","102.12","","","","-9","","NA"
"-60.98","45.35","HART ISLAND (AUT)","8202318","2019-04-08 10:00","2019","04","08","10:00","-1.5","","-10.3","","51","","","M","32","","32","","","","102.13","","","","-9","","NA"
"-60.98","45.35","HART ISLAND (AUT)","8202318","2019-04-08 11:00","2019","04","08","11:00","-0.9","","-10.0","","50","","","M","30","","36","","","","102.11","","","","-8","","NA"
"-60.98","45.35","HART ISLAND (AUT)","8202318","2019-04-08 12:00","2019","04","08","12:00","-1.4","","-9.6","","54","","","M","30","","37","","","","102.07","","","","-9","","NA"
"-60.98","45.35","HART ISLAND (AUT)","8202318","2019-04-08 13:00","2019","04","08","13:00","-1.5","","-9.8","","53","","","M","30","","37","","","","102.02","","","","-9","","NA"
"-60.98","45.35","HART ISLAND (AUT)","8202318","2019-04-08 14:00","2019","04","08","14:00","-1.1","","-9.5","","53","","","M","30","","34","","","","102.01","","","","-8","","NA"
"-60.98","45.35","HART ISLAND (AUT)","8202318","2019-04-08 15:00","2019","04","08","15:00","-1.0","","-10.6","","48","","","M","30","","33","","","","101.95","","","","-8","","NA"
"-60.98","45.35","HART ISLAND (AUT)","8202318","2019-04-08 16:00","2019","04","08","16:00","-1.8","","-11.6","","47","","","M","30","","30","","","","101.92","","","","-9","","NA"
"-60.98","45.35","HART ISLAND (AUT)","8202318","2019-04-08 17:00","2019","04","08","17:00","-2.0","","-9.9","","55","","","M","29","","25","","","","101.87","","","","-8","","NA"
"-60.98","45.35","HART ISLAND (AUT)","8202318","2019-04-08 18:00","2019","04","08","18:00","-1.9","","-10.0","","54","","","M","32","","19","","","","101.84","","","","-7","","NA"
"-60.98","45.35","HART ISLAND (AUT)","8202318","2019-04-08 19:00","2019","04","08","19:00","-2.6","","-9.0","","62","","","M","30","","15","","","","101.83","","","","-8","","NA"
"-60.98","45.35","HART ISLAND (AUT)","8202318","2019-04-08 20:00","2019","04","08","20:00","-2.4","","-8.4","","64","","","M","32","","13","","","","101.76","","","","-7","","NA"
"-60.98","45.35","HART ISLAND (AUT)","8202318","2019-04-08 21:00","2019","04","08","21:00","-2.1","","-10.2","","54","","","M","35","","8","","","","101.71","","","","-5","","NA"
"-60.98","45.35","HART ISLAND (AUT)","8202318","2019-04-08 22:00","2019","04","08","22:00","-2.3","","-9.1","","60","","","M","5","","12","","","","101.59","","","","-7","","NA"
"-60.98","45.35","HART ISLAND (AUT)","8202318","2019-04-08 23:00","2019","04","08","23:00","-2.8","","-8.6","","64","","","M","4","","12","","","","101.53","","","","-7","","NA"
"-60.98","45.35","HART ISLAND (AUT)","8202318","2019-04-09 00:00","2019","04","09","00:00","-3.4","","-7.4","","74","","","M","8","","10","","","","101.43","","","","-7","","NA"
"-60.98","45.35","HART ISLAND (AUT)","8202318","2019-04-09 01:00","2019","04","09","01:00","-3.3","","-7.6","","72","","","M","7","","16","","","","101.25","","","","-9","","NA"
"-60.98","45.35","HART ISLAND (AUT)","8202318","2019-04-09 02:00","2019","04","09","02:00","-3.4","","-4.7","","91","","","M","9","","19","","","","101.13","","","","-9","","NA"
"-60.98","45.35","HART ISLAND (AUT)","8202318","2019-04-09 03:00","2019","04","09","03:00","-3.6","","-4.8","","91","","","M","8","","21","","","","101.02","","","","-10","","NA"
"-60.98","45.35","HART ISLAND (AUT)","8202318","2019-04-09 04:00","2019","04","09","04:00","-3.6","","-5.0","","90","","","M","8","","19","","","","100.97","","","","-10","","NA"
"-60.98","45.35","HART ISLAND (AUT)","8202318","2019-04-09 05:00","2019","04","09","05:00","-3.8","","-5.3","","89","","","M","6","","22","","","","101.02","","","","-10","","NA"
"-60.98","45.35","HART ISLAND (AUT)","8202318","2019-04-09 06:00","2019","04","09","06:00","-4.4","","-6.2","","87","","","M","5","","22","","","","101.07","","","","-11","","NA"
"-60.98","45.35","HART ISLAND (AUT)","8202318","2019-04-09 07:00","2019","04","09","07:00","-4.4","","-6.1","","88","","","M","3","","21","","","","101.02","","","","-11","","NA"
"-60.98","45.35","HART ISLAND (AUT)","8202318","2019-04-09 08:00","2019","04","09","08:00","-3.9","","-6.5","","83","","","M","3","","18","","","","101.04","","","","-10","","NA"
"-60.98","45.35","HART ISLAND (AUT)","8202318","2019-04-09 09:00","2019","04","09","09:00","-3.4","","-6.6","","78","","","M","2","","22","","","","100.95","","","","-10","","NA"
"-60.98","45.35","HART ISLAND (AUT)","8202318","2019-04-09 10:00","2019","04","09","10:00","-2.1","","-6.7","","71","","","M","3","","19","","","","100.88","","","","-8","","NA"
"-60.98","45.35","HART ISLAND (AUT)","8202318","2019-04-09 11:00","2019","04","09","11:00","-1.0","","-6.5","","66","","","M","1","","13","","","","100.86","","","","-5","","NA"
"-60.98","45.35","HART ISLAND (AUT)","8202318","2019-04-09 12:00","2019","04","09","12:00","-0.4","","-7.1","","61","","","M","4","","15","","","","100.77","","","","-5","","NA"
"-60.98","45.35","HART ISLAND (AUT)","8202318","2019-04-09 13:00","2019","04","09","13:00","0.4","","-6.7","","59","","","M","11","","12","","","","100.75","","","","","","NA"
"-60.98","45.35","HART ISLAND (AUT)","8202318","2019-04-09 14:00","2019","04","09","14:00","0.3","","-6.2","","62","","","M","12","","14","","","","100.71","","","","","","NA"
"-60.98","45.35","HART ISLAND (AUT)","8202318","2019-04-09 15:00","2019","04","09","15:00","0.1","","-5.5","","66","","","M","12","","19","","","","100.64","","","","","","NA"
"-60.98","45.35","HART ISLAND (AUT)","8202318","2019-04-09 16:00","2019","04","09","16:00","-0.3","","-5.5","","68","","","M","12","","17","","","","100.65","","","","-5","","NA"
"-60.98","45.35","HART ISLAND (AUT)","8202318","2019-04-09 17:00","2019","04","09","17:00","-0.5","","-5.4","","70","","","M","12","","14","","","","100.65","","","","-5","","NA"
"-60.98","45.35","HART ISLAND (AUT)","8202318","2019-04-09 18:00","2019","04","09","18:00","-1.0","","-5.5","","71","","","M","16","","10","","","","100.70","","","","-5","","NA"
"-60.98","45.35","HART ISLAND (AUT)","8202318","2019-04-09 19:00","2019","04","09","19:00","-2.2","","-5.6","","78","","","M","17","","13","","","","100.67","","","","-7","","NA"
"-60.98","45.35","HART ISLAND (AUT)","8202318","2019-04-09 20:00","2019","04","09","20:00","-2.6","","-5.5","","81","","","M","16","","8","","","","100.71","","","","-6","","NA"
"-60.98","45.35","HART ISLAND (AUT)","8202318","2019-04-09 21:00","2019","04","09","21:00","-2.5","","-5.2","","82","","","M","20","","8","","","","100.70","","","","-6","","NA"
"-60.98","45.35","HART ISLAND (AUT)","8202318","2019-04-09 22:00","2019","04","09","22:00","-2.9","","-6.2","","78","","","M","22","","10","","","","100.62","","","","-7","","NA"
"-60.98","45.35","HART ISLAND (AUT)","8202318","2019-04-09 23:00","2019","04","09","23:00","-3.3","","-6.4","","79","","","M","23","","8","","","","100.58","","","","-7","","NA"
"-60.98","45.35","HART ISLAND (AUT)","8202318","2019-04-10 00:00","2019","04","10","00:00","-2.7","","-4.6","","87","","","M","20","","6","","","","100.55","","","","-5","","NA"
"-60.98","45.35","HART ISLAND (AUT)","8202318","2019-04-10 01:00","2019","04","10","01:00","-3.5","","-5.3","","87","","","M","16","","6","","","","100.48","","","","-6","","NA"
"-60.98","45.35","HART ISLAND (AUT)","8202318","2019-04-10 02:00","2019","04","10","02:00","-2.3","","-4.1","","88","","","M","31","","15","","","","100.44","","","","-7","","NA"
"-60.98","45.35","HART ISLAND (AUT)","8202318","2019-04-10 03:00","2019","04","10","03:00","-2.2","","-5.7","","77","","","M","33","","15","","","","100.47","","","","-7","","NA"
"-60.98","45.35","HART ISLAND (AUT)","8202318","2019-04-10 04:00","2019","04","10","04:00","-2.4","","-6.2","","75","","","M","32","","14","","","","100.44","","","","-7","","NA"
"-60.98","45.35","HART ISLAND (AUT)","8202318","2019-04-10 05:00","2019","04","10","05:00","-2.3","","-6.9","","71","","","M","34","","13","","","","100.30","","","","-7","","NA"
"-60.98","45.35","HART ISLAND (AUT)","8202318","2019-04-10 06:00","2019","04","10","06:00","-2.3","","-6.5","","73","","","M","33","","23","","","","100.37","","","","-9","","NA"
"-60.98","45.35","HART ISLAND (AUT)","8202318","2019-04-10 07:00","2019","04","10","07:00","-1.9","","-4.9","","80","","","M","32","","33","","","","100.41","","","","-9","","NA"
"-60.98","45.35","HART ISLAND (AUT)","8202318","2019-04-10 08:00","2019","04","10","08:00","-2.0","","-6.0","","74","","","M","36","","17","","","","100.35","","","","-7","","NA"
"-60.98","45.35","HART ISLAND (AUT)","8202318","2019-04-10 09:00","2019","04","10","09:00","-0.9","","-5.3","","72","","","M","31","","21","","","","100.38","","","","-7","","NA"
"-60.98","45.35","HART ISLAND (AUT)","8202318","2019-04-10 10:00","2019","04","10","10:00","0.3","","-4.6","","70","","","M","32","","20","","","","100.34","","","","","","NA"
"-60.98","45.35","HART ISLAND (AUT)","8202318","2019-04-10 11:00","2019","04","10","11:00","0.7","","-4.4","","69","","","M","34","","14","","","","100.24","","","","","","NA"
"-60.98","45.35","HART ISLAND (AUT)","8202318","2019-04-10 12:00","2019","04","10","12:00","1.6","","-3.3","","70","","","M","31","","15","","","","100.20","","","","","","NA"
"-60.98","45.35","HART ISLAND (AUT)","8202318","2019-04-10 13:00","2019","04","10","13:00","2.3","","-3.2","","67","","","M","31","","15","","","","100.19","","","","","","NA"
"-60.98","45.35","HART ISLAND (AUT)","8202318","2019-04-10 14:00","2019","04","10","14:00","3.1","","-4.0","","60","","","M","28","","29","","","","100.14","","","","","","NA"
"-60.98","45.35","HART ISLAND (AUT)","8202318","2019-04-10 15:00","2019","04","10","15:00","1.7","","-3.1","","70","","","M","31","","29","","","","100.14","","","","","","NA"
"-60.98","45.35","HART ISLAND (AUT)","8202318","2019-04-10 16:00","2019","04","10","16:00","1.2","","-4.4","","66","","","M","31","","36","","","","100.19","","","","","","NA"
"-60.98","45.35","HART ISLAND (AUT)","8202318","2019-04-10 17:00","2019","04","10","17:00","0.3","","-4.6","","70","","","M","30","","39","","","","100.25","","","","","","NA"
"-60.98","45.35","HART ISLAND (AUT)","8202318","2019-04-10 18:00","2019","04","10","18:00","-0.7","","-4.0","","78","","","M","31","","36","","","","100.30","","","","-8","","NA"
"-60.98","45.35","HART ISLAND (AUT)","8202318","2019-04-10 19:00","2019","04","10","19:00","-0.6","","-4.1","","77","","","M","31","","38","","","","100.31","","","","-8","","NA"
"-60.98","45.35","HART ISLAND (AUT)","8202318","2019-04-10 20:00","2019","04","10","20:00","-0.7","","-4.2","","77","","","M","30","","34","","","","100.35","","","","-8","","NA"
"-60.98","45.35","HART ISLAND (AUT)","8202318","2019-04-10 21:00","2019","04","10","21:00","-0.8","","-3.9","","79","","","M","29","","24","","","","100.39","","","","-7","","NA"
"-60.98","45.35","HART ISLAND (AUT)","8202318","2019-04-10 22:00","2019","04","10","22:00","-0.6","","-4.5","","75","","","M","29","","26","","","","100.41","","","","-7","","NA"
"-60.98","45.35","HART ISLAND (AUT)","8202318","2019-04-10 23:00","2019","04","10","23:00","-0.6","","-4.8","","73","","","M","30","","31","","","","100.39","","","","-7","","NA"
"-60.98","45.35","HART ISLAND (AUT)","8202318","2019-04-11 00:00","2019","04","11","00:00","-1.1","","-4.3","","79","","","M","29","","23","","","","100.39","","","","-7","","NA"
"-60.98","45.35","HART ISLAND (AUT)","8202318","2019-04-11 01:00","2019","04","11","01:00","-0.5","","-3.8","","78","","","M","29","","21","","","","100.36","","","","-6","","NA"
"-60.98","45.35","HART ISLAND (AUT)","8202318","2019-04-11 02:00","2019","04","11","02:00","-0.3","","-2.4","","86","","","M","31","","27","","","","100.38","","","","-7","","NA"
"-60.98","45.35","HART ISLAND (AUT)","8202318","2019-04-11 03:00","2019","04","11","03:00","-0.1","","-2.2","","86","","","M","29","","27","","","","100.41","","","","-6","","NA"
"-60.98","45.35","HART ISLAND (AUT)","8202318","2019-04-11 04:00","2019","04","11","04:00","0.2","","-1.7","","87","","","M","30","","26","","","","100.44","","","","","","NA"
"-60.98","45.35","HART ISLAND (AUT)","8202318","2019-04-11 05:00","2019","04","11","05:00","-0.3","","-1.1","","94","","","M","29","","24","","","","100.49","","","","-6","","NA"
"-60.98","45.35","HART ISLAND (AUT)","8202318","2019-04-11 06:00","2019","04","11","06:00","-0.2","","-0.7","","96","","","M","30","","28","","","","100.56","","","","-7","","NA"
"-60.98","45.35","HART ISLAND (AUT)","8202318","2019-04-11 07:00","2019","04","11","07:00","0.2","","-0.4","","96","","","M","30","","30","","","","100.64","","","","","","NA"
"-60.98","45.35","HART ISLAND (AUT)","8202318","2019-04-11 08:00","2019","04","11","08:00","1.3","","0.4","","94","","","M","30","","28","","","","100.71","","","","","","NA"
"-60.98","45.35","HART ISLAND (AUT)","8202318","2019-04-11 09:00","2019","04","11","09:00","2.2","","0.3","","87","","","M","30","","30","","","","100.79","","","","","","NA"
"-60.98","45.35","HART ISLAND (AUT)","8202318","2019-04-11 10:00","2019","04","11","10:00","2.6","","-0.5","","80","","","M","29","","32","","","","100.83","","","","","","NA"
"-60.98","45.35","HART ISLAND (AUT)","8202318","2019-04-11 11:00","2019","04","11","11:00","3.3","","-0.8","","75","","","M","30","","38","","","","100.91","","","","","","NA"
"-60.98","45.35","HART ISLAND (AUT)","8202318","2019-04-11 12:00","2019","04","11","12:00","3.6","","-1.1","","71","","","M","30","","40","","","","100.95","","","","","","NA"
"-60.98","45.35","HART ISLAND (AUT)","8202318","2019-04-11 13:00","2019","04","11","13:00","4.0","","-1.3","","68","","","M","30","","41","","","","101.01","","","","","","NA"
"-60.98","45.35","HART ISLAND (AUT)","8202318","2019-04-11 14:00","2019","04","11","14:00","4.1","","-1.6","","66","","","M","30","","41","","","","101.08","","","","","","NA"
"-60.98","45.35","HART ISLAND (AUT)","8202318","2019-04-11 15:00","2019","04","11","15:00","4.4","","-1.9","","63","","","M","29","","38","","","","101.18","","","","","","NA"
"-60.98","45.35","HART ISLAND (AUT)","8202318","2019-04-11 16:00","2019","04","11","16:00","3.4","","-2.1","","67","","","M","30","","44","","","","101.26","","","","","","NA"
"-60.98","45.35","HART ISLAND (AUT)","8202318","2019-04-11 17:00","2019","04","11","17:00","2.5","","-2.3","","70","","","M","30","","52","","","","101.37","","","","","","NA"
"-60.98","45.35","HART ISLAND (AUT)","8202318","2019-04-11 18:00","2019","04","11","18:00","2.0","","-2.4","","73","","","M","30","","36","","","","101.51","","","","","","NA"
"-60.98","45.35","HART ISLAND (AUT)","8202318","2019-04-11 19:00","2019","04","11","19:00","1.2","","-2.8","","75","","","M","30","","36","","","","101.61","","","","","","NA"
"-60.98","45.35","HART ISLAND (AUT)","8202318","2019-04-11 20:00","2019","04","11","20:00","1.0","","-3.2","","73","","","M","32","","34","","","","101.72","","","","","","NA"
"-60.98","45.35","HART ISLAND (AUT)","8202318","2019-04-11 21:00","2019","04","11","21:00","0.6","","-3.1","","76","","","M","31","","19","","","","101.85","","","","","","NA"
"-60.98","45.35","HART ISLAND (AUT)","8202318","2019-04-11 22:00","2019","04","11","22:00","-0.2","","-2.7","","83","","","M","28","","15","","","","101.85","","","","-5","","NA"
"-60.98","45.35","HART ISLAND (AUT)","8202318","2019-04-11 23:00","2019","04","11","23:00","-0.3","","-3.2","","81","","","M","26","","11","","","","101.90","","","","-4","","NA"
"-60.98","45.35","HART ISLAND (AUT)","8202318","2019-04-12 00:00","2019","04","12","00:00","-0.7","","-3.9","","79","","","M","25","","15","","","","101.99","","","","-5","","NA"
"-60.98","45.35","HART ISLAND (AUT)","8202318","2019-04-12 01:00","2019","04","12","01:00","0.0","","-3.3","","78","","","M","28","","20","","","","101.99","","","","-5","","NA"
"-60.98","45.35","HART ISLAND (AUT)","8202318","2019-04-12 02:00","2019","04","12","02:00","-1.0","","-4.0","","80","","","M","26","","12","","","","102.01","","","","-5","","NA"
"-60.98","45.35","HART ISLAND (AUT)","8202318","2019-04-12 03:00","2019","04","12","03:00","-1.3","","-4.3","","80","","","M","25","","11","","","","102.08","","","","-5","","NA"
"-60.98","45.35","HART ISLAND (AUT)","8202318","2019-04-12 04:00","2019","04","12","04:00","-0.6","","-5.2","","71","","","M","27","","12","","","","102.09","","","","-5","","NA"
"-60.98","45.35","HART ISLAND (AUT)","8202318","2019-04-12 05:00","2019","04","12","05:00","-0.5","","-4.3","","76","","","M","29","","14","","","","102.14","","","","-5","","NA"
"-60.98","45.35","HART ISLAND (AUT)","8202318","2019-04-12 06:00","2019","04","12","06:00","0.0","","-3.4","","78","","","M","28","","8","","","","102.16","","","","-3","","NA"
"-60.98","45.35","HART ISLAND (AUT)","8202318","2019-04-12 07:00","2019","04","12","07:00","2.3","","-4.4","","61","","","M","27","","9","","","","102.21","","","","","","NA"
"-60.98","45.35","HART ISLAND (AUT)","8202318","2019-04-12 08:00","2019","04","12","08:00","5.4","","-4.4","","49","","","M","27","","12","","","","102.20","","","","","","NA"
"-60.98","45.35","HART ISLAND (AUT)","8202318","2019-04-12 09:00","2019","04","12","09:00","7.9","","-5.5","","38","","","M","29","","13","","","","102.19","","","","","","NA"
"-60.98","45.35","HART ISLAND (AUT)","8202318","2019-04-12 10:00","2019","04","12","10:00","5.2","","-1.7","","61","","","M","30","","17","","","","102.20","","","","","","NA"
"-60.98","45.35","HART ISLAND (AUT)","8202318","2019-04-12 11:00","2019","04","12","11:00","6.2","","-2.2","","55","","","M","32","","16","","","","102.16","","","","","","NA"
"-60.98","45.35","HART ISLAND (AUT)","8202318","2019-04-12 12:00","2019","04","12","12:00","6.6","","-1.9","","55","","","M","31","","15","","","","102.15","","","","","","NA"
"-60.98","45.35","HART ISLAND (AUT)","8202318","2019-04-12 13:00","2019","04","12","13:00","6.8","","-1.9","","54","","","M","32","","27","","","","102.15","","","","","","NA"
"-60.98","45.35","HART ISLAND (AUT)","8202318","2019-04-12 14:00","2019","04","12","14:00","6.3","","-2.0","","55","","","M","32","","36","","","","102.12","","","","","","NA"
"-60.98","45.35","HART ISLAND (AUT)","8202318","2019-04-12 15:00","2019","04","12","15:00","6.0","","-2.3","","55","","","M","32","","35","","","","102.12","","","","","","NA"
"-60.98","45.35","HART ISLAND (AUT)","8202318","2019-04-12 16:00","2019","04","12","16:00","5.5","","-4.1","","50","","","M","32","","39","","","","102.13","","","","","","NA"
"-60.98","45.35","HART ISLAND (AUT)","8202318","2019-04-12 17:00","2019","04","12","17:00","5.4","","-6.2","","43","","","M","31","","40","","","","102.22","","","","","","NA"
"-60.98","45.35","HART ISLAND (AUT)","8202318","2019-04-12 18:00","2019","04","12","18:00","4.2","","-5.6","","49","","","M","30","","29","","","","102.24","","","","","","NA"
"-60.98","45.35","HART ISLAND (AUT)","8202318","2019-04-12 19:00","2019","04","12","19:00","2.7","","-5.2","","56","","","M","30","","22","","","","102.27","","","","","","NA"
"-60.98","45.35","HART ISLAND (AUT)","8202318","2019-04-12 20:00","2019","04","12","20:00","2.3","","-5.6","","56","","","M","27","","11","","","","102.32","","","","","","NA"
"-60.98","45.35","HART ISLAND (AUT)","8202318","2019-04-12 21:00","2019","04","12","21:00","1.4","","-6.1","","57","","","M","26","","9","","","","102.32","","","","","","NA"
"-60.98","45.35","HART ISLAND (AUT)","8202318","2019-04-12 22:00","2019","04","12","22:00","0.9","","-6.7","","57","","","M","26","","10","","","","102.29","","","","","","NA"
"-60.98","45.35","HART ISLAND (AUT)","8202318","2019-04-12 23:00","2019","04","12","23:00","1.2","","-7.4","","53","","","M","23","","9","","","","102.28","","","","","","NA"
"-60.98","45.35","HART ISLAND (AUT)","8202318","2019-04-13 00:00","2019","04","13","00:00","1.7","","-7.4","","51","","","M","23","","11","","","","102.28","","","","","","NA"
"-60.98","45.35","HART ISLAND (AUT)","8202318","2019-04-13 01:00","2019","04","13","01:00","2.1","","-6.7","","52","","","M","34","","3","","","","102.20","","","","","","NA"
"-60.98","45.35","HART ISLAND (AUT)","8202318","2019-04-13 02:00","2019","04","13","02:00","1.9","","-3.3","","69","","","M","13","","9","","","","102.11","","","","","","NA"
"-60.98","45.35","HART ISLAND (AUT)","8202318","2019-04-13 03:00","2019","04","13","03:00","1.6","","-2.2","","76","","","M","13","","8","","","","102.08","","","","","","NA"
"-60.98","45.35","HART ISLAND (AUT)","8202318","2019-04-13 04:00","2019","04","13","04:00","2.2","","-0.8","","80","","","M","15","","11","","","","102.03","","","","","","NA"
"-60.98","45.35","HART ISLAND (AUT)","8202318","2019-04-13 05:00","2019","04","13","05:00","2.4","","0.1","","85","","","M","19","","19","","","","101.97","","","","","","NA"
"-60.98","45.35","HART ISLAND (AUT)","8202318","2019-04-13 06:00","2019","04","13","06:00","1.9","","0.5","","90","","","M","19","","21","","","","101.94","","","","","","NA"
"-60.98","45.35","HART ISLAND (AUT)","8202318","2019-04-13 07:00","2019","04","13","07:00","3.1","","0.8","","85","","","M","20","","12","","","","101.90","","","","","","NA"
"-60.98","45.35","HART ISLAND (AUT)","8202318","2019-04-13 08:00","2019","04","13","08:00","2.2","","1.2","","94","","","M","22","","13","","","","101.89","","","","","","NA"
"-60.98","45.35","HART ISLAND (AUT)","8202318","2019-04-13 09:00","2019","04","13","09:00","1.8","","1.2","","96","","","M","17","","13","","","","101.80","","","","","","NA"
"-60.98","45.35","HART ISLAND (AUT)","8202318","2019-04-13 10:00","2019","04","13","10:00","1.9","","1.6","","98","","","M","15","","14","","","","101.72","","","","","","NA"
"-60.98","45.35","HART ISLAND (AUT)","8202318","2019-04-13 11:00","2019","04","13","11:00","2.5","","2.3","","98","","","M","16","","14","","","","101.58","","","","","","NA"
"-60.98","45.35","HART ISLAND (AUT)","8202318","2019-04-13 12:00","2019","04","13","12:00","3.3","","3.0","","98","","","M","20","","20","","","","101.44","","","","","","NA"
"-60.98","45.35","HART ISLAND (AUT)","8202318","2019-04-13 13:00","2019","04","13","13:00","5.3","","4.5","","95","","","M","22","","22","","","","101.32","","","","","","NA"
"-60.98","45.35","HART ISLAND (AUT)","8202318","2019-04-13 14:00","2019","04","13","14:00","6.0","","5.1","","94","","","M","22","","18","","","","101.31","","","","","","NA"
"-60.98","45.35","HART ISLAND (AUT)","8202318","2019-04-13 15:00","2019","04","13","15:00","5.6","","5.1","","97","","","M","22","","19","","","","101.24","","","","","","NA"
"-60.98","45.35","HART ISLAND (AUT)","8202318","2019-04-13 16:00","2019","04","13","16:00","6.2","","5.8","","98","","","M","22","","20","","","","101.21","","","","","","NA"
"-60.98","45.35","HART ISLAND (AUT)","8202318","2019-04-13 17:00","2019","04","13","17:00","6.3","","5.8","","97","","","M","21","","17","","","","101.09","","","","","","NA"
"-60.98","45.35","HART ISLAND (AUT)","8202318","2019-04-13 18:00","2019","04","13","18:00","5.6","","5.4","","98","","","M","21","","25","","","","101.03","","","","","","NA"
"-60.98","45.35","HART ISLAND (AUT)","8202318","2019-04-13 19:00","2019","04","13","19:00","4.3","","4.1","","99","","","M","21","","30","","","","101.00","","","","","","NA"
"-60.98","45.35","HART ISLAND (AUT)","8202318","2019-04-13 20:00","2019","04","13","20:00","5.3","","5.2","","99","","","M","21","","30","","","","100.93","","","","","","NA"
"-60.98","45.35","HART ISLAND (AUT)","8202318","2019-04-13 21:00","2019","04","13","21:00","4.6","","4.5","","99","","","M","25","","26","","","","100.95","","","","","","NA"
"-60.98","45.35","HART ISLAND (AUT)","8202318","2019-04-13 22:00","2019","04","13","22:00","4.8","","4.7","","99","","","M","23","","31","","","","100.88","","","","","","NA"
"-60.98","45.35","HART ISLAND (AUT)","8202318","2019-04-13 23:00","2019","04","13","23:00","4.5","","4.4","","99","","","M","22","","30","","","","100.77","","","","","","NA"
"-60.98","45.35","HART ISLAND (AUT)","8202318","2019-04-14 00:00","2019","04","14","00:00","5.0","","4.9","","99","","","M","22","","27","","","","100.67","","","","","","NA"
"-60.98","45.35","HART ISLAND (AUT)","8202318","2019-04-14 01:00","2019","04","14","01:00","5.1","","5.0","","100","","","M","23","","27","","","","100.62","","","","","","NA"
"-60.98","45.35","HART ISLAND (AUT)","8202318","2019-04-14 02:00","2019","04","14","02:00","5.1","","5.1","","100","","","M","24","","20","","","","100.58","","","","","","NA"
"-60.98","45.35","HART ISLAND (AUT)","8202318","2019-04-14 03:00","2019","04","14","03:00","5.3","","5.3","","100","","","M","25","","11","","","","100.64","","","","","","NA"
"-60.98","45.35","HART ISLAND (AUT)","8202318","2019-04-14 04:00","2019","04","14","04:00","5.3","","5.2","","100","","","M","26","","10","","","","100.60","","","","","","NA"
"-60.98","45.35","HART ISLAND (AUT)","8202318","2019-04-14 05:00","2019","04","14","05:00","3.7","","3.7","","100","","","M","23","","15","","","","100.73","","","","","","NA"
"-60.98","45.35","HART ISLAND (AUT)","8202318","2019-04-14 06:00","2019","04","14","06:00","5.0","","5.0","","100","","","M","23","","13","","","","100.81","","","","","","NA"
"-60.98","45.35","HART ISLAND (AUT)","8202318","2019-04-14 07:00","2019","04","14","07:00","6.9","","6.8","","99","","","M","27","","10","","","","100.82","","","","","","NA"
"-60.98","45.35","HART ISLAND (AUT)","8202318","2019-04-14 08:00","2019","04","14","08:00","9.8","","8.5","","91","","","M","26","","16","","","","100.84","","","","","","NA"
"-60.98","45.35","HART ISLAND (AUT)","8202318","2019-04-14 09:00","2019","04","14","09:00","10.9","","7.4","","79","","","M","28","","16","","","","100.82","","","","","","NA"
"-60.98","45.35","HART ISLAND (AUT)","8202318","2019-04-14 10:00","2019","04","14","10:00","11.2","","5.4","","68","","","M","27","","27","","","","100.85","","","","","","NA"
"-60.98","45.35","HART ISLAND (AUT)","8202318","2019-04-14 11:00","2019","04","14","11:00","8.8","","3.9","","71","","","M","30","","29","","","","100.84","","","","","","NA"
"-60.98","45.35","HART ISLAND (AUT)","8202318","2019-04-14 12:00","2019","04","14","12:00","8.6","","3.9","","72","","","M","30","","24","","","","100.90","","","","","","NA"
"-60.98","45.35","HART ISLAND (AUT)","8202318","2019-04-14 13:00","2019","04","14","13:00","8.1","","2.0","","65","","","M","31","","26","","","","100.89","","","","","","NA"
"-60.98","45.35","HART ISLAND (AUT)","8202318","2019-04-14 14:00","2019","04","14","14:00","7.4","","1.7","","67","","","M","32","","28","","","","100.92","","","","","","NA"
"-60.98","45.35","HART ISLAND (AUT)","8202318","2019-04-14 15:00","2019","04","14","15:00","7.0","","1.2","","67","","","M","32","","26","","","","100.88","","","","","","NA"
"-60.98","45.35","HART ISLAND (AUT)","8202318","2019-04-14 16:00","2019","04","14","16:00","8.7","","0.4","","56","","","M","30","","20","","","","100.93","","","","","","NA"
"-60.98","45.35","HART ISLAND (AUT)","8202318","2019-04-14 17:00","2019","04","14","17:00","8.0","","0.4","","59","","","M","31","","11","","","","100.96","","","","","","NA"
"-60.98","45.35","HART ISLAND (AUT)","8202318","2019-04-14 18:00","2019","04","14","18:00","6.3","","-0.4","","62","","","M","30","","19","","","","101.04","","","","","","NA"
"-60.98","45.35","HART ISLAND (AUT)","8202318","2019-04-14 19:00","2019","04","14","19:00","5.6","","-0.4","","66","","","M","36","","15","","","","101.13","","","","","","NA"
"-60.98","45.35","HART ISLAND (AUT)","8202318","2019-04-14 20:00","2019","04","14","20:00","4.4","","-1.5","","66","","","M","5","","10","","","","101.18","","","","","","NA"
"-60.98","45.35","HART ISLAND (AUT)","8202318","2019-04-14 21:00","2019","04","14","21:00","5.4","","-2.7","","56","","","M","6","","13","","","","101.24","","","","","","NA"
"-60.98","45.35","HART ISLAND (AUT)","8202318","2019-04-14 22:00","2019","04","14","22:00","4.6","","-1.6","","64","","","M","9","","5","","","","101.29","","","","","","NA"
"-60.98","45.35","HART ISLAND (AUT)","8202318","2019-04-14 23:00","2019","04","14","23:00","4.5","","-1.4","","65","","","M","13","","5","","","","101.30","","","","","","NA"
"-60.98","45.35","HART ISLAND (AUT)","8202318","2019-04-15 00:00","2019","04","15","00:00","4.6","","-1.2","","66","","","M","12","","8","","","","101.26","","","","","","NA"
"-60.98","45.35","HART ISLAND (AUT)","8202318","2019-04-15 01:00","2019","04","15","01:00","4.0","","-0.3","","73","","","M","11","","11","","","","101.15","","","","","","NA"
"-60.98","45.35","HART ISLAND (AUT)","8202318","2019-04-15 02:00","2019","04","15","02:00","3.4","","0.3","","80","","","M","12","","11","","","","101.18","","","","","","NA"
"-60.98","45.35","HART ISLAND (AUT)","8202318","2019-04-15 03:00","2019","04","15","03:00","3.0","","0.6","","84","","","M","12","","13","","","","101.11","","","","","","NA"
"-60.98","45.35","HART ISLAND (AUT)","8202318","2019-04-15 04:00","2019","04","15","04:00","2.8","","1.0","","88","","","M","12","","14","","","","101.03","","","","","","NA"
"-60.98","45.35","HART ISLAND (AUT)","8202318","2019-04-15 05:00","2019","04","15","05:00","2.3","","1.0","","92","","","M","12","","17","","","","101.02","","","","","","NA"
"-60.98","45.35","HART ISLAND (AUT)","8202318","2019-04-15 06:00","2019","04","15","06:00","2.4","","1.3","","92","","","M","10","","15","","","","100.90","","","","","","NA"
"-60.98","45.35","HART ISLAND (AUT)","8202318","2019-04-15 07:00","2019","04","15","07:00","2.3","","1.2","","93","","","M","8","","17","","","","100.82","","","","","","NA"
"-60.98","45.35","HART ISLAND (AUT)","8202318","2019-04-15 08:00","2019","04","15","08:00","2.5","","1.6","","94","","","M","10","","28","","","","100.73","","","","","","NA"
"-60.98","45.35","HART ISLAND (AUT)","8202318","2019-04-15 09:00","2019","04","15","09:00","2.5","","1.8","","95","","","M","10","","29","","","","100.64","","","","","","NA"
"-60.98","45.35","HART ISLAND (AUT)","8202318","2019-04-15 10:00","2019","04","15","10:00","2.5","","2.0","","96","","","M","9","","27","","","","100.60","","","","","","NA"
"-60.98","45.35","HART ISLAND (AUT)","8202318","2019-04-15 11:00","2019","04","15","11:00","2.5","","2.1","","97","","","M","9","","28","","","","100.37","","","","","","NA"
"-60.98","45.35","HART ISLAND (AUT)","8202318","2019-04-15 12:00","2019","04","15","12:00","2.5","","2.1","","97","","","M","8","","27","","","","100.16","","","","","","NA"
"-60.98","45.35","HART ISLAND (AUT)","8202318","2019-04-15 13:00","2019","04","15","13:00","2.3","","2.0","","98","","","M","11","","21","","","","100.06","","","","","","NA"
"-60.98","45.35","HART ISLAND (AUT)","8202318","2019-04-15 14:00","2019","04","15","14:00","2.5","","2.3","","98","","","M","11","","17","","","","99.87","","","","","","NA"
"-60.98","45.35","HART ISLAND (AUT)","8202318","2019-04-15 15:00","2019","04","15","15:00","2.9","","2.8","","99","","","M","12","","15","","","","99.69","","","","","","NA"
"-60.98","45.35","HART ISLAND (AUT)","8202318","2019-04-15 16:00","2019","04","15","16:00","4.8","","4.8","","100","","","M","14","","15","","","","99.54","","","","","","NA"
"-60.98","45.35","HART ISLAND (AUT)","8202318","2019-04-15 17:00","2019","04","15","17:00","7.6","","7.6","","100","","","M","18","","8","","","","99.44","","","","","","NA"
"-60.98","45.35","HART ISLAND (AUT)","8202318","2019-04-15 18:00","2019","04","15","18:00","9.0","","9.0","","100","","","M","22","","23","","","","99.31","","","","","","NA"
"-60.98","45.35","HART ISLAND (AUT)","8202318","2019-04-15 19:00","2019","04","15","19:00","6.8","","6.6","","99","","","M","17","","30","","","","98.87","","","","","","NA"
"-60.98","45.35","HART ISLAND (AUT)","8202318","2019-04-15 20:00","2019","04","15","20:00","7.3","","7.3","","100","","","M","19","","28","","","","99.01","","","","","","NA"
"-60.98","45.35","HART ISLAND (AUT)","8202318","2019-04-15 21:00","2019","04","15","21:00","7.4","","7.4","","100","","","M","21","","32","","","","98.97","","","","","","NA"
"-60.98","45.35","HART ISLAND (AUT)","8202318","2019-04-15 22:00","2019","04","15","22:00","6.3","","6.3","","100","","","M","22","","23","","","","98.95","","","","","","NA"
"-60.98","45.35","HART ISLAND (AUT)","8202318","2019-04-15 23:00","2019","04","15","23:00","6.8","","6.7","","100","","","M","20","","23","","","","98.82","","","","","","NA"
"-60.98","45.35","HART ISLAND (AUT)","8202318","2019-04-16 00:00","2019","04","16","00:00","7.9","","7.8","","100","","","M","21","","32","","","","98.72","","","","","","NA"
"-60.98","45.35","HART ISLAND (AUT)","8202318","2019-04-16 01:00","2019","04","16","01:00","6.8","","6.8","","100","","","M","20","","30","","","","98.56","","","","","","NA"
"-60.98","45.35","HART ISLAND (AUT)","8202318","2019-04-16 02:00","2019","04","16","02:00","7.1","","7.0","","100","","","M","22","","28","","","","98.50","","","","","","NA"
"-60.98","45.35","HART ISLAND (AUT)","8202318","2019-04-16 03:00","2019","04","16","03:00","5.6","","5.6","","100","","","M","21","","33","","","","98.44","","","","","","NA"
"-60.98","45.35","HART ISLAND (AUT)","8202318","2019-04-16 04:00","2019","04","16","04:00","4.1","","3.9","","99","","","M","21","","39","","","","98.34","","","","","","NA"
"-60.98","45.35","HART ISLAND (AUT)","8202318","2019-04-16 05:00","2019","04","16","05:00","3.4","","3.2","","99","","","M","20","","37","","","","98.30","","","","","","NA"
"-60.98","45.35","HART ISLAND (AUT)","8202318","2019-04-16 06:00","2019","04","16","06:00","3.2","","3.0","","99","","","M","20","","37","","","","98.34","","","","","","NA"
"-60.98","45.35","HART ISLAND (AUT)","8202318","2019-04-16 07:00","2019","04","16","07:00","3.0","","2.7","","98","","","M","20","","36","","","","98.32","","","","","","NA"
"-60.98","45.35","HART ISLAND (AUT)","8202318","2019-04-16 08:00","2019","04","16","08:00","2.9","","2.4","","96","","","M","24","","29","","","","98.34","","","","","","NA"
"-60.98","45.35","HART ISLAND (AUT)","8202318","2019-04-16 09:00","2019","04","16","09:00","2.5","","2.0","","96","","","M","30","","22","","","","98.44","","","","","","NA"
"-60.98","45.35","HART ISLAND (AUT)","8202318","2019-04-16 10:00","2019","04","16","10:00","3.1","","2.4","","95","","","M","27","","23","","","","98.52","","","","","","NA"
"-60.98","45.35","HART ISLAND (AUT)","8202318","2019-04-16 11:00","2019","04","16","11:00","4.1","","2.1","","87","","","M","28","","30","","","","98.49","","","","","","NA"
"-60.98","45.35","HART ISLAND (AUT)","8202318","2019-04-16 12:00","2019","04","16","12:00","4.2","","1.4","","83","","","M","27","","27","","","","98.49","","","","","","NA"
"-60.98","45.35","HART ISLAND (AUT)","8202318","2019-04-16 13:00","2019","04","16","13:00","5.1","","1.4","","77","","","M","27","","33","","","","98.46","","","","","","NA"
"-60.98","45.35","HART ISLAND (AUT)","8202318","2019-04-16 14:00","2019","04","16","14:00","4.5","","0.5","","75","","","M","28","","31","","","","98.47","","","","","","NA"
"-60.98","45.35","HART ISLAND (AUT)","8202318","2019-04-16 15:00","2019","04","16","15:00","3.4","","0.6","","82","","","M","27","","34","","","","98.52","","","","","","NA"
"-60.98","45.35","HART ISLAND (AUT)","8202318","2019-04-16 16:00","2019","04","16","16:00","2.0","","0.4","","89","","","M","28","","44","","","","98.59","","","","","","NA"
"-60.98","45.35","HART ISLAND (AUT)","8202318","2019-04-16 17:00","2019","04","16","17:00","1.5","","0.2","","91","","","M","30","","43","","","","98.68","","","","","","NA"
"-60.98","45.35","HART ISLAND (AUT)","8202318","2019-04-16 18:00","2019","04","16","18:00","1.3","","-1.8","","80","","","M","29","","51","","","","98.73","","","","","","NA"
"-60.98","45.35","HART ISLAND (AUT)","8202318","2019-04-16 19:00","2019","04","16","19:00","1.0","","-2.3","","79","","","M","29","","57","","","","98.78","","","","","","NA"
"-60.98","45.35","HART ISLAND (AUT)","8202318","2019-04-16 20:00","2019","04","16","20:00","1.0","","-2.2","","80","","","M","28","","54","","","","98.84","","","","","","NA"
"-60.98","45.35","HART ISLAND (AUT)","8202318","2019-04-16 21:00","2019","04","16","21:00","0.9","","-1.8","","82","","","M","29","","58","","","","98.86","","","","","","NA"
"-60.98","45.35","HART ISLAND (AUT)","8202318","2019-04-16 22:00","2019","04","16","22:00","0.9","","-1.5","","84","","","M","29","","52","","","","98.92","","","","","","NA"
"-60.98","45.35","HART ISLAND (AUT)","8202318","2019-04-16 23:00","2019","04","16","23:00","1.2","","-1.4","","83","","","M","29","","58","","","","98.97","","","","","","NA"
"-60.98","45.35","HART ISLAND (AUT)","8202318","2019-04-17 00:00","2019","04","17","00:00","1.2","","-1.0","","86","","","M","29","","53","","","","99.03","","","","","","NA"
"-60.98","45.35","HART ISLAND (AUT)","8202318","2019-04-17 01:00","2019","04","17","01:00","0.7","","-0.5","","91","","","M","30","","56","","","","99.10","","","","","","NA"
"-60.98","45.35","HART ISLAND (AUT)","8202318","2019-04-17 02:00","2019","04","17","02:00","0.7","","-0.4","","92","","","M","30","","51","","","","99.18","","","","","","NA"
"-60.98","45.35","HART ISLAND (AUT)","8202318","2019-04-17 03:00","2019","04","17","03:00","0.6","","-0.5","","92","","","M","30","","49","","","","99.33","","","","","","NA"
"-60.98","45.35","HART ISLAND (AUT)","8202318","2019-04-17 04:00","2019","04","17","04:00","0.2","","-0.8","","93","","","M","31","","49","","","","99.47","","","","","","NA"
"-60.98","45.35","HART ISLAND (AUT)","8202318","2019-04-17 05:00","2019","04","17","05:00","0.1","","-0.5","","96","","","M","31","","50","","","","99.65","","","","","","NA"
"-60.98","45.35","HART ISLAND (AUT)","8202318","2019-04-17 06:00","2019","04","17","06:00","0.5","","-0.6","","92","","","M","32","","48","","","","99.83","","","","","","NA"
"-60.98","45.35","HART ISLAND (AUT)","8202318","2019-04-17 07:00","2019","04","17","07:00","0.7","","-1.3","","87","","","M","32","","49","","","","99.99","","","","","","NA"
"-60.98","45.35","HART ISLAND (AUT)","8202318","2019-04-17 08:00","2019","04","17","08:00","0.7","","-1.1","","88","","","M","32","","47","","","","100.14","","","","","","NA"
"-60.98","45.35","HART ISLAND (AUT)","8202318","2019-04-17 09:00","2019","04","17","09:00","1.1","","-2.6","","76","","","M","32","","46","","","","100.27","","","","","","NA"
"-60.98","45.35","HART ISLAND (AUT)","8202318","2019-04-17 10:00","2019","04","17","10:00","2.0","","-2.1","","74","","","M","32","","47","","","","100.38","","","","","","NA"
"-60.98","45.35","HART ISLAND (AUT)","8202318","2019-04-17 11:00","2019","04","17","11:00","2.3","","-1.8","","74","","","M","32","","44","","","","100.48","","","","","","NA"
"-60.98","45.35","HART ISLAND (AUT)","8202318","2019-04-17 12:00","2019","04","17","12:00","2.3","","-1.7","","74","","","M","32","","48","","","","100.60","","","","","","NA"
"-60.98","45.35","HART ISLAND (AUT)","8202318","2019-04-17 13:00","2019","04","17","13:00","1.8","","-2.7","","72","","","M","33","","48","","","","100.72","","","","","","NA"
"-60.98","45.35","HART ISLAND (AUT)","8202318","2019-04-17 14:00","2019","04","17","14:00","1.9","","-2.8","","71","","","M","33","","51","","","","100.86","","","","","","NA"
"-60.98","45.35","HART ISLAND (AUT)","8202318","2019-04-17 15:00","2019","04","17","15:00","2.2","","-2.4","","71","","","M","33","","43","","","","100.97","","","","","","NA"
"-60.98","45.35","HART ISLAND (AUT)","8202318","2019-04-17 16:00","2019","04","17","16:00","1.9","","-2.6","","72","","","M","33","","43","","","","101.14","","","","","","NA"
"-60.98","45.35","HART ISLAND (AUT)","8202318","2019-04-17 17:00","2019","04","17","17:00","1.7","","-3.0","","71","","","M","33","","47","","","","101.30","","","","","","NA"
"-60.98","45.35","HART ISLAND (AUT)","8202318","2019-04-17 18:00","2019","04","17","18:00","1.4","","-2.9","","73","","","M","33","","40","","","","101.43","","","","","","NA"
"-60.98","45.35","HART ISLAND (AUT)","8202318","2019-04-17 19:00","2019","04","17","19:00","1.3","","-3.0","","73","","","M","33","","37","","","","101.56","","","","","","NA"
"-60.98","45.35","HART ISLAND (AUT)","8202318","2019-04-17 20:00","2019","04","17","20:00","1.3","","-3.1","","72","","","M","34","","33","","","","101.69","","","","","","NA"
"-60.98","45.35","HART ISLAND (AUT)","8202318","2019-04-17 21:00","2019","04","17","21:00","0.7","","-2.7","","78","","","M","32","","35","","","","101.76","","","","","","NA"
"-60.98","45.35","HART ISLAND (AUT)","8202318","2019-04-17 22:00","2019","04","17","22:00","0.2","","-2.6","","82","","","M","32","","24","","","","101.84","","","","","","NA"
"-60.98","45.35","HART ISLAND (AUT)","8202318","2019-04-17 23:00","2019","04","17","23:00","0.1","","-2.3","","84","","","M","31","","29","","","","101.90","","","","","","NA"
"-60.98","45.35","HART ISLAND (AUT)","8202318","2019-04-18 00:00","2019","04","18","00:00","-0.2","","-2.2","","86","","","M","30","","25","","","","101.95","","","","-6","","NA"
"-60.98","45.35","HART ISLAND (AUT)","8202318","2019-04-18 01:00","2019","04","18","01:00","-0.4","","-2.6","","85","","","M","29","","24","","","","102.02","","","","-6","","NA"
"-60.98","45.35","HART ISLAND (AUT)","8202318","2019-04-18 02:00","2019","04","18","02:00","-0.7","","-2.1","","90","","","M","28","","24","","","","102.08","","","","-7","","NA"
"-60.98","45.35","HART ISLAND (AUT)","8202318","2019-04-18 03:00","2019","04","18","03:00","-0.9","","-2.3","","90","","","M","28","","23","","","","102.14","","","","-7","","NA"
"-60.98","45.35","HART ISLAND (AUT)","8202318","2019-04-18 04:00","2019","04","18","04:00","-1.0","","-2.2","","91","","","M","28","","16","","","","102.18","","","","-6","","NA"
"-60.98","45.35","HART ISLAND (AUT)","8202318","2019-04-18 05:00","2019","04","18","05:00","-0.9","","-2.3","","90","","","M","28","","20","","","","102.26","","","","-6","","NA"
"-60.98","45.35","HART ISLAND (AUT)","8202318","2019-04-18 06:00","2019","04","18","06:00","-0.5","","-2.4","","87","","","M","28","","21","","","","102.38","","","","-6","","NA"
"-60.98","45.35","HART ISLAND (AUT)","8202318","2019-04-18 07:00","2019","04","18","07:00","0.5","","-2.3","","82","","","M","28","","23","","","","102.46","","","","","","NA"
"-60.98","45.35","HART ISLAND (AUT)","8202318","2019-04-18 08:00","2019","04","18","08:00","1.8","","-1.8","","77","","","M","29","","21","","","","102.50","","","","","","NA"
"-60.98","45.35","HART ISLAND (AUT)","8202318","2019-04-18 09:00","2019","04","18","09:00","2.6","","-1.2","","76","","","M","30","","21","","","","102.54","","","","","","NA"
"-60.98","45.35","HART ISLAND (AUT)","8202318","2019-04-18 10:00","2019","04","18","10:00","3.9","","-2.4","","63","","","M","30","","16","","","","102.56","","","","","","NA"
"-60.98","45.35","HART ISLAND (AUT)","8202318","2019-04-18 11:00","2019","04","18","11:00","5.7","","-2.7","","55","","","M","30","","11","","","","102.53","","","","","","NA"
"-60.98","45.35","HART ISLAND (AUT)","8202318","2019-04-18 12:00","2019","04","18","12:00","6.8","","-3.1","","49","","","M","29","","16","","","","102.53","","","","","","NA"
"-60.98","45.35","HART ISLAND (AUT)","8202318","2019-04-18 13:00","2019","04","18","13:00","7.2","","-4.0","","45","","","M","31","","15","","","","102.51","","","","","","NA"
"-60.98","45.35","HART ISLAND (AUT)","8202318","2019-04-18 14:00","2019","04","18","14:00","7.1","","-2.6","","50","","","M","33","","7","","","","102.49","","","","","","NA"
"-60.98","45.35","HART ISLAND (AUT)","8202318","2019-04-18 15:00","2019","04","18","15:00","6.3","","-3.3","","50","","","M","24","","26","","","","102.51","","","","","","NA"
"-60.98","45.35","HART ISLAND (AUT)","8202318","2019-04-18 16:00","2019","04","18","16:00","4.9","","-5.5","","47","","","M","23","","30","","","","102.57","","","","","","NA"
"-60.98","45.35","HART ISLAND (AUT)","8202318","2019-04-18 17:00","2019","04","18","17:00","4.7","","-5.0","","49","","","M","22","","27","","","","102.59","","","","","","NA"
"-60.98","45.35","HART ISLAND (AUT)","8202318","2019-04-18 18:00","2019","04","18","18:00","3.5","","-5.3","","52","","","M","21","","22","","","","102.54","","","","","","NA"
"-60.98","45.35","HART ISLAND (AUT)","8202318","2019-04-18 19:00","2019","04","18","19:00","2.4","","-4.1","","62","","","M","20","","21","","","","102.55","","","","","","NA"
"-60.98","45.35","HART ISLAND (AUT)","8202318","2019-04-18 20:00","2019","04","18","20:00","2.1","","-4.4","","62","","","M","20","","21","","","","102.57","","","","","","NA"
"-60.98","45.35","HART ISLAND (AUT)","8202318","2019-04-18 21:00","2019","04","18","21:00","2.1","","-4.1","","64","","","M","21","","23","","","","102.59","","","","","","NA"
"-60.98","45.35","HART ISLAND (AUT)","8202318","2019-04-18 22:00","2019","04","18","22:00","2.0","","-2.1","","74","","","M","20","","20","","","","102.58","","","","","","NA"
"-60.98","45.35","HART ISLAND (AUT)","8202318","2019-04-18 23:00","2019","04","18","23:00","1.7","","-0.9","","83","","","M","19","","22","","","","102.53","","","","","","NA"
"-60.98","45.35","HART ISLAND (AUT)","8202318","2019-04-19 00:00","2019","04","19","00:00","1.7","","-0.6","","85","","","M","19","","15","","","","102.50","","","","","","NA"
"-60.98","45.35","HART ISLAND (AUT)","8202318","2019-04-19 01:00","2019","04","19","01:00","1.6","","-0.5","","86","","","M","18","","28","","","","102.37","","","","","","NA"
"-60.98","45.35","HART ISLAND (AUT)","8202318","2019-04-19 02:00","2019","04","19","02:00","1.5","","-0.4","","87","","","M","18","","30","","","","102.31","","","","","","NA"
"-60.98","45.35","HART ISLAND (AUT)","8202318","2019-04-19 03:00","2019","04","19","03:00","1.7","","0.0","","89","","","M","17","","27","","","","102.17","","","","","","NA"
"-60.98","45.35","HART ISLAND (AUT)","8202318","2019-04-19 04:00","2019","04","19","04:00","1.5","","0.1","","91","","","M","18","","31","","","","102.14","","","","","","NA"
"-60.98","45.35","HART ISLAND (AUT)","8202318","2019-04-19 05:00","2019","04","19","05:00","1.2","","-0.1","","91","","","M","17","","36","","","","102.10","","","","","","NA"
"-60.98","45.35","HART ISLAND (AUT)","8202318","2019-04-19 06:00","2019","04","19","06:00","1.8","","0.4","","90","","","M","16","","35","","","","101.90","","","","","","NA"
"-60.98","45.35","HART ISLAND (AUT)","8202318","2019-04-19 07:00","2019","04","19","07:00","1.9","","1.0","","94","","","M","16","","52","","","","101.66","","","","","","NA"
"-60.98","45.35","HART ISLAND (AUT)","8202318","2019-04-19 08:00","2019","04","19","08:00","2.4","","1.9","","96","","","M","16","","57","","","","101.51","","","","","","NA"
"-60.98","45.35","HART ISLAND (AUT)","8202318","2019-04-19 09:00","2019","04","19","09:00","3.3","","2.7","","96","","","M","16","","52","","","","101.42","","","","","","NA"
"-60.98","45.35","HART ISLAND (AUT)","8202318","2019-04-19 10:00","2019","04","19","10:00","4.1","","3.6","","97","","","M","18","","46","","","","101.39","","","","","","NA"
"-60.98","45.35","HART ISLAND (AUT)","8202318","2019-04-19 11:00","2019","04","19","11:00","5.0","","4.6","","98","","","M","19","","44","","","","101.27","","","","","","NA"
"-60.98","45.35","HART ISLAND (AUT)","8202318","2019-04-19 12:00","2019","04","19","12:00","5.7","","5.2","","97","","","M","21","","40","","","","101.19","","","","","","NA"
"-60.98","45.35","HART ISLAND (AUT)","8202318","2019-04-19 13:00","2019","04","19","13:00","5.9","","5.3","","96","","","M","21","","35","","","","101.16","","","","","","NA"
"-60.98","45.35","HART ISLAND (AUT)","8202318","2019-04-19 14:00","2019","04","19","14:00","6.2","","5.6","","96","","","M","21","","42","","","","101.06","","","","","","NA"
"-60.98","45.35","HART ISLAND (AUT)","8202318","2019-04-19 15:00","2019","04","19","15:00","6.0","","5.6","","97","","","M","22","","42","","","","101.09","","","","","","NA"
"-60.98","45.35","HART ISLAND (AUT)","8202318","2019-04-19 16:00","2019","04","19","16:00","6.2","","6.0","","98","","","M","22","","39","","","","101.10","","","","","","NA"
"-60.98","45.35","HART ISLAND (AUT)","8202318","2019-04-19 17:00","2019","04","19","17:00","6.3","","6.2","","99","","","M","22","","45","","","","101.08","","","","","","NA"
"-60.98","45.35","HART ISLAND (AUT)","8202318","2019-04-19 18:00","2019","04","19","18:00","6.0","","5.9","","99","","","M","22","","44","","","","101.12","","","","","","NA"
"-60.98","45.35","HART ISLAND (AUT)","8202318","2019-04-19 19:00","2019","04","19","19:00","5.7","","5.6","","100","","","M","22","","38","","","","101.18","","","","","","NA"
"-60.98","45.35","HART ISLAND (AUT)","8202318","2019-04-19 20:00","2019","04","19","20:00","5.8","","5.8","","100","","","M","21","","38","","","","101.24","","","","","","NA"
"-60.98","45.35","HART ISLAND (AUT)","8202318","2019-04-19 21:00","2019","04","19","21:00","6.3","","6.2","","100","","","M","22","","45","","","","101.24","","","","","","NA"
"-60.98","45.35","HART ISLAND (AUT)","8202318","2019-04-19 22:00","2019","04","19","22:00","5.8","","5.7","","100","","","M","22","","46","","","","101.22","","","","","","NA"
"-60.98","45.35","HART ISLAND (AUT)","8202318","2019-04-19 23:00","2019","04","19","23:00","6.3","","6.2","","100","","","M","22","","49","","","","101.19","","","","","","NA"
"-60.98","45.35","HART ISLAND (AUT)","8202318","2019-04-20 00:00","2019","04","20","00:00","6.0","","5.9","","100","","","M","22","","47","","","","101.23","","","","","","NA"
"-60.98","45.35","HART ISLAND (AUT)","8202318","2019-04-20 01:00","2019","04","20","01:00","6.2","","6.1","","100","","","M","22","","42","","","","101.24","","","","","","NA"
"-60.98","45.35","HART ISLAND (AUT)","8202318","2019-04-20 02:00","2019","04","20","02:00","6.3","","6.2","","99","","","M","22","","46","","","","101.24","","","","","","NA"
"-60.98","45.35","HART ISLAND (AUT)","8202318","2019-04-20 03:00","2019","04","20","03:00","6.2","","6.1","","99","","","M","22","","47","","","","101.24","","","","","","NA"
"-60.98","45.35","HART ISLAND (AUT)","8202318","2019-04-20 04:00","2019","04","20","04:00","6.2","","6.1","","99","","","M","22","","50","","","","101.27","","","","","","NA"
"-60.98","45.35","HART ISLAND (AUT)","8202318","2019-04-20 05:00","2019","04","20","05:00","6.3","","6.2","","99","","","M","22","","44","","","","101.33","","","","","","NA"
"-60.98","45.35","HART ISLAND (AUT)","8202318","2019-04-20 06:00","2019","04","20","06:00","6.7","","6.6","","99","","","M","22","","44","","","","101.35","","","","","","NA"
"-60.98","45.35","HART ISLAND (AUT)","8202318","2019-04-20 07:00","2019","04","20","07:00","6.7","","6.6","","99","","","M","21","","46","","","","101.42","","","","","","NA"
"-60.98","45.35","HART ISLAND (AUT)","8202318","2019-04-20 08:00","2019","04","20","08:00","7.2","","7.0","","98","","","M","22","","45","","","","101.47","","","","","","NA"
"-60.98","45.35","HART ISLAND (AUT)","8202318","2019-04-20 09:00","2019","04","20","09:00","7.4","","7.2","","98","","","M","22","","44","","","","101.54","","","","","","NA"
"-60.98","45.35","HART ISLAND (AUT)","8202318","2019-04-20 10:00","2019","04","20","10:00","7.3","","7.0","","98","","","M","22","","39","","","","101.61","","","","","","NA"
"-60.98","45.35","HART ISLAND (AUT)","8202318","2019-04-20 11:00","2019","04","20","11:00","7.9","","7.8","","99","","","M","21","","41","","","","101.62","","","","","","NA"
"-60.98","45.35","HART ISLAND (AUT)","8202318","2019-04-20 12:00","2019","04","20","12:00","8.3","","8.1","","99","","","M","22","","43","","","","101.68","","","","","","NA"
"-60.98","45.35","HART ISLAND (AUT)","8202318","2019-04-20 13:00","2019","04","20","13:00","9.1","","8.3","","94","","","M","22","","46","","","","101.70","","","","","","NA"
"-60.98","45.35","HART ISLAND (AUT)","8202318","2019-04-20 14:00","2019","04","20","14:00","8.7","","7.9","","95","","","M","21","","51","","","","101.76","","","","","","NA"
"-60.98","45.35","HART ISLAND (AUT)","8202318","2019-04-20 15:00","2019","04","20","15:00","8.4","","7.9","","96","","","M","22","","47","","","","101.80","","","","","","NA"
"-60.98","45.35","HART ISLAND (AUT)","8202318","2019-04-20 16:00","2019","04","20","16:00","8.4","","8.2","","98","","","M","22","","49","","","","101.82","","","","","","NA"
"-60.98","45.35","HART ISLAND (AUT)","8202318","2019-04-20 17:00","2019","04","20","17:00","8.2","","7.9","","98","","","M","22","","50","","","","101.89","","","","","","NA"
"-60.98","45.35","HART ISLAND (AUT)","8202318","2019-04-20 18:00","2019","04","20","18:00","7.5","","7.3","","99","","","M","22","","43","","","","102.00","","","","","","NA"
"-60.98","45.35","HART ISLAND (AUT)","8202318","2019-04-20 19:00","2019","04","20","19:00","7.0","","6.8","","99","","","M","21","","38","","","","102.12","","","","","","NA"
"-60.98","45.35","HART ISLAND (AUT)","8202318","2019-04-20 20:00","2019","04","20","20:00","7.5","","7.4","","99","","","M","22","","36","","","","102.19","","","","","","NA"
"-60.98","45.35","HART ISLAND (AUT)","8202318","2019-04-20 21:00","2019","04","20","21:00","6.9","","6.8","","99","","","M","21","","34","","","","102.29","","","","","","NA"
"-60.98","45.35","HART ISLAND (AUT)","8202318","2019-04-20 22:00","2019","04","20","22:00","7.0","","7.0","","100","","","M","21","","37","","","","102.28","","","","","","NA"
"-60.98","45.35","HART ISLAND (AUT)","8202318","2019-04-20 23:00","2019","04","20","23:00","6.8","","6.8","","100","","","M","21","","28","","","","102.33","","","","","","NA"
"-60.98","45.35","HART ISLAND (AUT)","8202318","2019-04-21 00:00","2019","04","21","00:00","6.8","","6.7","","100","","","M","21","","32","","","","102.34","","","","","","NA"
"-60.98","45.35","HART ISLAND (AUT)","8202318","2019-04-21 01:00","2019","04","21","01:00","7.6","","7.6","","100","","","M","22","","25","","","","102.41","","","","","","NA"
"-60.98","45.35","HART ISLAND (AUT)","8202318","2019-04-21 02:00","2019","04","21","02:00","7.7","","7.7","","100","","","M","23","","21","","","","102.39","","","","","","NA"
"-60.98","45.35","HART ISLAND (AUT)","8202318","2019-04-21 03:00","2019","04","21","03:00","7.1","","7.1","","100","","","M","23","","20","","","","102.42","","","","","","NA"
"-60.98","45.35","HART ISLAND (AUT)","8202318","2019-04-21 04:00","2019","04","21","04:00","8.2","","8.2","","100","","","M","21","","19","","","","102.41","","","","","","NA"
"-60.98","45.35","HART ISLAND (AUT)","8202318","2019-04-21 05:00","2019","04","21","05:00","4.3","","4.3","","100","","","M","17","","14","","","","102.46","","","","","","NA"
"-60.98","45.35","HART ISLAND (AUT)","8202318","2019-04-21 06:00","2019","04","21","06:00","5.2","","5.2","","100","","","M","18","","16","","","","102.52","","","","","","NA"
"-60.98","45.35","HART ISLAND (AUT)","8202318","2019-04-21 07:00","2019","04","21","07:00","5.9","","5.9","","100","","","M","18","","20","","","","102.55","","","","","","NA"
"-60.98","45.35","HART ISLAND (AUT)","8202318","2019-04-21 08:00","2019","04","21","08:00","6.8","","6.7","","100","","","M","18","","13","","","","102.58","","","","","","NA"
"-60.98","45.35","HART ISLAND (AUT)","8202318","2019-04-21 09:00","2019","04","21","09:00","7.2","","7.0","","99","","","M","17","","15","","","","102.58","","","","","","NA"
"-60.98","45.35","HART ISLAND (AUT)","8202318","2019-04-21 10:00","2019","04","21","10:00","8.9","","8.3","","96","","","M","18","","21","","","","102.56","","","","","","NA"
"-60.98","45.35","HART ISLAND (AUT)","8202318","2019-04-21 11:00","2019","04","21","11:00","7.4","","6.3","","93","","","M","14","","15","","","","102.55","","","","","","NA"
"-60.98","45.35","HART ISLAND (AUT)","8202318","2019-04-21 12:00","2019","04","21","12:00","6.9","","6.1","","94","","","M","13","","14","","","","102.54","","","","","","NA"
"-60.98","45.35","HART ISLAND (AUT)","8202318","2019-04-21 13:00","2019","04","21","13:00","11.3","","10.2","","93","","","M","19","","16","","","","102.48","","","","","","NA"
"-60.98","45.35","HART ISLAND (AUT)","8202318","2019-04-21 14:00","2019","04","21","14:00","11.7","","10.2","","90","","","M","21","","35","","","","102.42","","","","","","NA"
"-60.98","45.35","HART ISLAND (AUT)","8202318","2019-04-21 15:00","2019","04","21","15:00","11.7","","9.6","","87","","","M","21","","36","","","","102.40","","","","","","NA"
"-60.98","45.35","HART ISLAND (AUT)","8202318","2019-04-21 16:00","2019","04","21","16:00","10.4","","8.8","","90","","","M","20","","33","","","","102.39","","","","","","NA"
"-60.98","45.35","HART ISLAND (AUT)","8202318","2019-04-21 17:00","2019","04","21","17:00","9.9","","8.8","","93","","","M","21","","33","","","","102.38","","","","","","NA"
"-60.98","45.35","HART ISLAND (AUT)","8202318","2019-04-21 18:00","2019","04","21","18:00","9.2","","8.3","","94","","","M","21","","29","","","","102.37","","","","","","NA"
"-60.98","45.35","HART ISLAND (AUT)","8202318","2019-04-21 19:00","2019","04","21","19:00","8.8","","8.0","","95","","","M","20","","29","","","","102.37","","","","","","NA"
"-60.98","45.35","HART ISLAND (AUT)","8202318","2019-04-21 20:00","2019","04","21","20:00","8.7","","8.0","","96","","","M","20","","28","","","","102.38","","","","","","NA"
"-60.98","45.35","HART ISLAND (AUT)","8202318","2019-04-21 21:00","2019","04","21","21:00","9.2","","8.7","","97","","","M","21","","31","","","","102.37","","","","","","NA"
"-60.98","45.35","HART ISLAND (AUT)","8202318","2019-04-21 22:00","2019","04","21","22:00","9.1","","8.4","","96","","","M","20","","33","","","","102.30","","","","","","NA"
"-60.98","45.35","HART ISLAND (AUT)","8202318","2019-04-21 23:00","2019","04","21","23:00","8.5","","7.8","","96","","","M","20","","33","","","","102.25","","","","","","NA"
"-60.98","45.35","HART ISLAND (AUT)","8202318","2019-04-22 00:00","2019","04","22","00:00","8.1","","7.8","","98","","","M","20","","35","","","","102.22","","","","","","NA"
"-60.98","45.35","HART ISLAND (AUT)","8202318","2019-04-22 01:00","2019","04","22","01:00","7.8","","7.6","","99","","","M","20","","30","","","","102.20","","","","","","NA"
"-60.98","45.35","HART ISLAND (AUT)","8202318","2019-04-22 02:00","2019","04","22","02:00","7.9","","7.7","","99","","","M","21","","36","","","","102.17","","","","","","NA"
"-60.98","45.35","HART ISLAND (AUT)","8202318","2019-04-22 03:00","2019","04","22","03:00","8.4","","7.9","","97","","","M","21","","31","","","","102.16","","","","","","NA"
"-60.98","45.35","HART ISLAND (AUT)","8202318","2019-04-22 04:00","2019","04","22","04:00","8.2","","8.0","","98","","","M","20","","31","","","","102.13","","","","","","NA"
"-60.98","45.35","HART ISLAND (AUT)","8202318","2019-04-22 05:00","2019","04","22","05:00","7.6","","7.2","","98","","","M","20","","30","","","","102.11","","","","","","NA"
"-60.98","45.35","HART ISLAND (AUT)","8202318","2019-04-22 06:00","2019","04","22","06:00","7.5","","7.2","","98","","","M","21","","28","","","","102.15","","","","","","NA"
"-60.98","45.35","HART ISLAND (AUT)","8202318","2019-04-22 07:00","2019","04","22","07:00","8.0","","7.6","","97","","","M","21","","26","","","","102.14","","","","","","NA"
"-60.98","45.35","HART ISLAND (AUT)","8202318","2019-04-22 08:00","2019","04","22","08:00","8.9","","8.4","","97","","","M","22","","22","","","","102.15","","","","","","NA"
"-60.98","45.35","HART ISLAND (AUT)","8202318","2019-04-22 09:00","2019","04","22","09:00","9.8","","9.4","","97","","","M","21","","23","","","","102.15","","","","","","NA"
"-60.98","45.35","HART ISLAND (AUT)","8202318","2019-04-22 10:00","2019","04","22","10:00","9.8","","9.2","","96","","","M","22","","25","","","","102.14","","","","","","NA"
"-60.98","45.35","HART ISLAND (AUT)","8202318","2019-04-22 11:00","2019","04","22","11:00","10.1","","9.1","","93","","","M","21","","23","","","","102.12","","","","","","NA"
"-60.98","45.35","HART ISLAND (AUT)","8202318","2019-04-22 12:00","2019","04","22","12:00","10.3","","9.4","","94","","","M","21","","22","","","","102.09","","","","","","NA"
"-60.98","45.35","HART ISLAND (AUT)","8202318","2019-04-22 13:00","2019","04","22","13:00","10.7","","10.2","","97","","","M","21","","26","","","","102.07","","","","","","NA"
"-60.98","45.35","HART ISLAND (AUT)","8202318","2019-04-22 14:00","2019","04","22","14:00","9.7","","9.4","","98","","","M","22","","22","","","","102.07","","","","","","NA"
"-60.98","45.35","HART ISLAND (AUT)","8202318","2019-04-22 15:00","2019","04","22","15:00","10.1","","9.8","","98","","","M","22","","17","","","","102.03","","","","","","NA"
"-60.98","45.35","HART ISLAND (AUT)","8202318","2019-04-22 16:00","2019","04","22","16:00","9.5","","9.2","","98","","","M","20","","12","","","","102.00","","","","","","NA"
"-60.98","45.35","HART ISLAND (AUT)","8202318","2019-04-22 17:00","2019","04","22","17:00","8.9","","8.7","","98","","","M","19","","11","","","","102.00","","","","","","NA"
"-60.98","45.35","HART ISLAND (AUT)","8202318","2019-04-22 18:00","2019","04","22","18:00","8.9","","8.7","","99","","","M","21","","26","","","","101.95","","","","","","NA"
"-60.98","45.35","HART ISLAND (AUT)","8202318","2019-04-22 19:00","2019","04","22","19:00","7.8","","7.7","","99","","","M","22","","28","","","","101.95","","","","","","NA"
"-60.98","45.35","HART ISLAND (AUT)","8202318","2019-04-22 20:00","2019","04","22","20:00","7.7","","7.5","","98","","","M","23","","16","","","","102.04","","","","","","NA"
"-60.98","45.35","HART ISLAND (AUT)","8202318","2019-04-22 21:00","2019","04","22","21:00","5.9","","5.6","","98","","","M","30","","7","","","","102.09","","","","","","NA"
"-60.98","45.35","HART ISLAND (AUT)","8202318","2019-04-22 22:00","2019","04","22","22:00","6.0","","6.0","","100","","","M","29","","11","","","","102.09","","","","","","NA"
"-60.98","45.35","HART ISLAND (AUT)","8202318","2019-04-22 23:00","2019","04","22","23:00","4.0","","4.0","","100","","","M","3","","10","","","","102.12","","","","","","NA"
"-60.98","45.35","HART ISLAND (AUT)","8202318","2019-04-23 00:00","2019","04","23","00:00","4.6","","4.6","","100","","","M","7","","16","","","","102.16","","","","","","NA"
"-60.98","45.35","HART ISLAND (AUT)","8202318","2019-04-23 01:00","2019","04","23","01:00","3.3","","3.3","","100","","","M","4","","7","","","","102.18","","","","","","NA"
"-60.98","45.35","HART ISLAND (AUT)","8202318","2019-04-23 02:00","2019","04","23","02:00","4.2","","4.2","","100","","","M","9","","7","","","","102.15","","","","","","NA"
"-60.98","45.35","HART ISLAND (AUT)","8202318","2019-04-23 03:00","2019","04","23","03:00","4.3","","4.3","","100","","","M","6","","13","","","","102.14","","","","","","NA"
"-60.98","45.35","HART ISLAND (AUT)","8202318","2019-04-23 04:00","2019","04","23","04:00","3.6","","3.6","","100","","","M","6","","11","","","","102.11","","","","","","NA"
"-60.98","45.35","HART ISLAND (AUT)","8202318","2019-04-23 05:00","2019","04","23","05:00","3.2","","3.2","","100","","","M","3","","13","","","","102.13","","","","","","NA"
"-60.98","45.35","HART ISLAND (AUT)","8202318","2019-04-23 06:00","2019","04","23","06:00","3.4","","3.3","","100","","","M","5","","10","","","","102.16","","","","","","NA"
"-60.98","45.35","HART ISLAND (AUT)","8202318","2019-04-23 07:00","2019","04","23","07:00","3.2","","3.1","","100","","","M","4","","9","","","","102.20","","","","","","NA"
"-60.98","45.35","HART ISLAND (AUT)","8202318","2019-04-23 08:00","2019","04","23","08:00","3.3","","3.0","","97","","","M","3","","13","","","","102.19","","","","","","NA"
"-60.98","45.35","HART ISLAND (AUT)","8202318","2019-04-23 09:00","2019","04","23","09:00","3.5","","2.8","","95","","","M","4","","15","","","","102.13","","","","","","NA"
"-60.98","45.35","HART ISLAND (AUT)","8202318","2019-04-23 10:00","2019","04","23","10:00","3.6","","2.5","","92","","","M","3","","12","","","","102.12","","","","","","NA"
"-60.98","45.35","HART ISLAND (AUT)","8202318","2019-04-23 11:00","2019","04","23","11:00","4.1","","3.0","","93","","","M","4","","13","","","","102.05","","","","","","NA"
"-60.98","45.35","HART ISLAND (AUT)","8202318","2019-04-23 12:00","2019","04","23","12:00","4.2","","3.3","","94","","","M","6","","16","","","","101.95","","","","","","NA"
"-60.98","45.35","HART ISLAND (AUT)","8202318","2019-04-23 13:00","2019","04","23","13:00","2.8","","2.3","","96","","","M","6","","17","","","","101.87","","","","","","NA"
"-60.98","45.35","HART ISLAND (AUT)","8202318","2019-04-23 14:00","2019","04","23","14:00","2.4","","2.3","","99","","","M","5","","16","","","","101.81","","","","","","NA"
"-60.98","45.35","HART ISLAND (AUT)","8202318","2019-04-23 15:00","2019","04","23","15:00","2.8","","2.8","","100","","","M","6","","18","","","","101.70","","","","","","NA"
"-60.98","45.35","HART ISLAND (AUT)","8202318","2019-04-23 16:00","2019","04","23","16:00","2.7","","2.7","","100","","","M","6","","18","","","","101.63","","","","","","NA"
"-60.98","45.35","HART ISLAND (AUT)","8202318","2019-04-23 17:00","2019","04","23","17:00","2.5","","2.5","","100","","","M","6","","25","","","","101.48","","","","","","NA"
"-60.98","45.35","HART ISLAND (AUT)","8202318","2019-04-23 18:00","2019","04","23","18:00","2.4","","2.3","","100","","","M","5","","20","","","","101.40","","","","","","NA"
"-60.98","45.35","HART ISLAND (AUT)","8202318","2019-04-23 19:00","2019","04","23","19:00","2.3","","2.2","","100","","","M","5","","23","","","","101.28","","","","","","NA"
"-60.98","45.35","HART ISLAND (AUT)","8202318","2019-04-23 20:00","2019","04","23","20:00","2.1","","2.1","","100","","","M","5","","25","","","","101.19","","","","","","NA"
"-60.98","45.35","HART ISLAND (AUT)","8202318","2019-04-23 21:00","2019","04","23","21:00","2.3","","2.3","","100","","","M","6","","24","","","","101.04","","","","","","NA"
"-60.98","45.35","HART ISLAND (AUT)","8202318","2019-04-23 22:00","2019","04","23","22:00","2.7","","2.7","","100","","","M","6","","17","","","","100.94","","","","","","NA"
"-60.98","45.35","HART ISLAND (AUT)","8202318","2019-04-23 23:00","2019","04","23","23:00","2.8","","2.8","","100","","","M","7","","23","","","","100.81","","","","","","NA"
"-60.98","45.35","HART ISLAND (AUT)","8202318","2019-04-24 00:00","2019","04","24","00:00","2.8","","2.7","","100","","","M","7","","16","","","","100.69","","","","","","NA"
"-60.98","45.35","HART ISLAND (AUT)","8202318","2019-04-24 01:00","2019","04","24","01:00","2.4","","2.4","","100","","","M","5","","18","","","","100.52","","","","","","NA"
"-60.98","45.35","HART ISLAND (AUT)","8202318","2019-04-24 02:00","2019","04","24","02:00","2.3","","2.2","","100","","","M","5","","13","","","","100.45","","","","","","NA"
"-60.98","45.35","HART ISLAND (AUT)","8202318","2019-04-24 03:00","2019","04","24","03:00","2.2","","2.2","","100","","","M","35","","4","","","","100.40","","","","","","NA"
"-60.98","45.35","HART ISLAND (AUT)","8202318","2019-04-24 04:00","2019","04","24","04:00","2.7","","2.7","","100","","","M","3","","12","","","","100.31","","","","","","NA"
"-60.98","45.35","HART ISLAND (AUT)","8202318","2019-04-24 05:00","2019","04","24","05:00","2.8","","2.7","","100","","","M","33","","4","","","","100.30","","","","","","NA"
"-60.98","45.35","HART ISLAND (AUT)","8202318","2019-04-24 06:00","2019","04","24","06:00","3.0","","3.0","","100","","","M","32","","5","","","","100.30","","","","","","NA"
"-60.98","45.35","HART ISLAND (AUT)","8202318","2019-04-24 07:00","2019","04","24","07:00","3.5","","3.5","","100","","","M","27","","6","","","","100.31","","","","","","NA"
"-60.98","45.35","HART ISLAND (AUT)","8202318","2019-04-24 08:00","2019","04","24","08:00","6.1","","6.1","","100","","","M","22","","8","","","","100.28","","","","","","NA"
"-60.98","45.35","HART ISLAND (AUT)","8202318","2019-04-24 09:00","2019","04","24","09:00","4.1","","4.1","","100","","","M","35","","9","","","","100.33","","","","","","NA"
"-60.98","45.35","HART ISLAND (AUT)","8202318","2019-04-24 10:00","2019","04","24","10:00","5.8","","5.5","","98","","","M","32","","9","","","","100.37","","","","","","NA"
"-60.98","45.35","HART ISLAND (AUT)","8202318","2019-04-24 11:00","2019","04","24","11:00","6.4","","5.8","","96","","","M","33","","9","","","","100.36","","","","","","NA"
"-60.98","45.35","HART ISLAND (AUT)","8202318","2019-04-24 12:00","2019","04","24","12:00","6.3","","5.0","","92","","","M","30","","13","","","","100.40","","","","","","NA"
"-60.98","45.35","HART ISLAND (AUT)","8202318","2019-04-24 13:00","2019","04","24","13:00","6.4","","4.7","","89","","","M","29","","12","","","","100.46","","","","","","NA"
"-60.98","45.35","HART ISLAND (AUT)","8202318","2019-04-24 14:00","2019","04","24","14:00","6.8","","4.3","","84","","","M","33","","8","","","","100.45","","","","","","NA"
"-60.98","45.35","HART ISLAND (AUT)","8202318","2019-04-24 15:00","2019","04","24","15:00","6.8","","5.2","","90","","","M","9","","8","","","","100.46","","","","","","NA"
"-60.98","45.35","HART ISLAND (AUT)","8202318","2019-04-24 16:00","2019","04","24","16:00","7.5","","5.9","","89","","","M","22","","11","","","","100.50","","","","","","NA"
"-60.98","45.35","HART ISLAND (AUT)","8202318","2019-04-24 17:00","2019","04","24","17:00","5.5","","4.3","","92","","","M","1","","7","","","","100.56","","","","","","NA"
"-60.98","45.35","HART ISLAND (AUT)","8202318","2019-04-24 18:00","2019","04","24","18:00","5.2","","4.0","","92","","","M","16","","4","","","","100.58","","","","","","NA"
"-60.98","45.35","HART ISLAND (AUT)","8202318","2019-04-24 19:00","2019","04","24","19:00","3.4","","3.2","","99","","","M","16","","11","","","","100.64","","","","","","NA"
"-60.98","45.35","HART ISLAND (AUT)","8202318","2019-04-24 20:00","2019","04","24","20:00","2.9","","2.9","","100","","","M","13","","16","","","","100.67","","","","","","NA"
"-60.98","45.35","HART ISLAND (AUT)","8202318","2019-04-24 21:00","2019","04","24","21:00","2.7","","2.7","","100","","","M","10","","18","","","","100.73","","","","","","NA"
"-60.98","45.35","HART ISLAND (AUT)","8202318","2019-04-24 22:00","2019","04","24","22:00","1.4","","1.3","","99","","","M","8","","20","","","","100.66","","","","","","NA"
"-60.98","45.35","HART ISLAND (AUT)","8202318","2019-04-24 23:00","2019","04","24","23:00","1.1","","0.9","","99","","","M","7","","25","","","","100.53","","","","","","NA"
"-60.98","45.35","HART ISLAND (AUT)","8202318","2019-04-25 00:00","2019","04","25","00:00","1.1","","1.0","","99","","","M","7","","26","","","","100.43","","","","","","NA"
"-60.98","45.35","HART ISLAND (AUT)","8202318","2019-04-25 01:00","2019","04","25","01:00","1.1","","0.9","","99","","","M","7","","26","","","","100.39","","","","","","NA"
"-60.98","45.35","HART ISLAND (AUT)","8202318","2019-04-25 02:00","2019","04","25","02:00","1.1","","0.9","","99","","","M","6","","30","","","","100.24","","","","","","NA"
"-60.98","45.35","HART ISLAND (AUT)","8202318","2019-04-25 03:00","2019","04","25","03:00","1.2","","0.9","","98","","","M","7","","27","","","","100.21","","","","","","NA"
"-60.98","45.35","HART ISLAND (AUT)","8202318","2019-04-25 04:00","2019","04","25","04:00","1.2","","1.1","","99","","","M","6","","26","","","","100.14","","","","","","NA"
"-60.98","45.35","HART ISLAND (AUT)","8202318","2019-04-25 05:00","2019","04","25","05:00","1.3","","1.1","","99","","","M","7","","31","","","","100.05","","","","","","NA"
"-60.98","45.35","HART ISLAND (AUT)","8202318","2019-04-25 06:00","2019","04","25","06:00","1.6","","1.4","","99","","","M","6","","27","","","","100.06","","","","","","NA"
"-60.98","45.35","HART ISLAND (AUT)","8202318","2019-04-25 07:00","2019","04","25","07:00","1.6","","1.5","","99","","","M","6","","24","","","","100.02","","","","","","NA"
"-60.98","45.35","HART ISLAND (AUT)","8202318","2019-04-25 08:00","2019","04","25","08:00","1.6","","1.5","","99","","","M","4","","23","","","","100.03","","","","","","NA"
"-60.98","45.35","HART ISLAND (AUT)","8202318","2019-04-25 09:00","2019","04","25","09:00","1.6","","1.5","","99","","","M","3","","27","","","","100.03","","","","","","NA"
"-60.98","45.35","HART ISLAND (AUT)","8202318","2019-04-25 10:00","2019","04","25","10:00","2.1","","1.9","","99","","","M","34","","22","","","","100.11","","","","","","NA"
"-60.98","45.35","HART ISLAND (AUT)","8202318","2019-04-25 11:00","2019","04","25","11:00","3.2","","2.6","","96","","","M","31","","23","","","","100.17","","","","","","NA"
"-60.98","45.35","HART ISLAND (AUT)","8202318","2019-04-25 12:00","2019","04","25","12:00","3.6","","2.0","","89","","","M","32","","31","","","","100.21","","","","","","NA"
"-60.98","45.35","HART ISLAND (AUT)","8202318","2019-04-25 13:00","2019","04","25","13:00","3.9","","2.2","","89","","","M","30","","23","","","","100.27","","","","","","NA"
"-60.98","45.35","HART ISLAND (AUT)","8202318","2019-04-25 14:00","2019","04","25","14:00","4.9","","2.8","","86","","","M","28","","20","","","","100.35","","","","","","NA"
"-60.98","45.35","HART ISLAND (AUT)","8202318","2019-04-25 15:00","2019","04","25","15:00","4.5","","1.8","","83","","","M","29","","27","","","","100.38","","","","","","NA"
"-60.98","45.35","HART ISLAND (AUT)","8202318","2019-04-25 16:00","2019","04","25","16:00","4.7","","1.9","","82","","","M","29","","33","","","","100.43","","","","","","NA"
"-60.98","45.35","HART ISLAND (AUT)","8202318","2019-04-25 17:00","2019","04","25","17:00","4.8","","1.3","","78","","","M","28","","31","","","","100.46","","","","","","NA"
"-60.98","45.35","HART ISLAND (AUT)","8202318","2019-04-25 18:00","2019","04","25","18:00","3.1","","0.5","","83","","","M","31","","38","","","","100.55","","","","","","NA"
"-60.98","45.35","HART ISLAND (AUT)","8202318","2019-04-25 19:00","2019","04","25","19:00","1.9","","-0.1","","87","","","M","30","","37","","","","100.66","","","","","","NA"
"-60.98","45.35","HART ISLAND (AUT)","8202318","2019-04-25 20:00","2019","04","25","20:00","1.3","","0.1","","92","","","M","31","","35","","","","100.75","","","","","","NA"
"-60.98","45.35","HART ISLAND (AUT)","8202318","2019-04-25 21:00","2019","04","25","21:00","1.1","","0.0","","93","","","M","30","","37","","","","100.84","","","","","","NA"
"-60.98","45.35","HART ISLAND (AUT)","8202318","2019-04-25 22:00","2019","04","25","22:00","1.1","","0.0","","93","","","M","29","","31","","","","100.89","","","","","","NA"
"-60.98","45.35","HART ISLAND (AUT)","8202318","2019-04-25 23:00","2019","04","25","23:00","1.1","","0.3","","95","","","M","30","","33","","","","100.95","","","","","","NA"
"-60.98","45.35","HART ISLAND (AUT)","8202318","2019-04-26 00:00","2019","04","26","00:00","1.1","","0.0","","92","","","M","31","","31","","","","101.05","","","","","","NA"
"-60.98","45.35","HART ISLAND (AUT)","8202318","2019-04-26 01:00","2019","04","26","01:00","1.1","","-0.4","","90","","","M","31","","30","","","","101.09","","","","","","NA"
"-60.98","45.35","HART ISLAND (AUT)","8202318","2019-04-26 02:00","2019","04","26","02:00","1.2","","-0.1","","91","","","M","31","","31","","","","101.13","","","","","","NA"
"-60.98","45.35","HART ISLAND (AUT)","8202318","2019-04-26 03:00","2019","04","26","03:00","1.2","","0.2","","93","","","M","31","","36","","","","101.18","","","","","","NA"
"-60.98","45.35","HART ISLAND (AUT)","8202318","2019-04-26 04:00","2019","04","26","04:00","1.2","","0.3","","94","","","M","31","","29","","","","101.22","","","","","","NA"
"-60.98","45.35","HART ISLAND (AUT)","8202318","2019-04-26 05:00","2019","04","26","05:00","1.2","","0.0","","92","","","M","31","","30","","","","101.29","","","","","","NA"
"-60.98","45.35","HART ISLAND (AUT)","8202318","2019-04-26 06:00","2019","04","26","06:00","0.7","","-0.2","","94","","","M","31","","41","","","","101.31","","","","","","NA"
"-60.98","45.35","HART ISLAND (AUT)","8202318","2019-04-26 07:00","2019","04","26","07:00","0.9","","-0.4","","91","","","M","31","","33","","","","101.44","","","","","","NA"
"-60.98","45.35","HART ISLAND (AUT)","8202318","2019-04-26 08:00","2019","04","26","08:00","1.5","","-0.3","","88","","","M","31","","32","","","","101.48","","","","","","NA"
"-60.98","45.35","HART ISLAND (AUT)","8202318","2019-04-26 09:00","2019","04","26","09:00","1.9","","0.1","","87","","","M","31","","31","","","","101.56","","","","","","NA"
"-60.98","45.35","HART ISLAND (AUT)","8202318","2019-04-26 10:00","2019","04","26","10:00","2.7","","0.3","","84","","","M","30","","39","","","","101.53","","","","","","NA"
"-60.98","45.35","HART ISLAND (AUT)","8202318","2019-04-26 11:00","2019","04","26","11:00","3.3","","0.3","","81","","","M","30","","40","","","","101.51","","","","","","NA"
"-60.98","45.35","HART ISLAND (AUT)","8202318","2019-04-26 12:00","2019","04","26","12:00","3.7","","0.2","","78","","","M","30","","28","","","","101.57","","","","","","NA"
"-60.98","45.35","HART ISLAND (AUT)","8202318","2019-04-26 13:00","2019","04","26","13:00","4.5","","0.5","","75","","","M","30","","25","","","","101.57","","","","","","NA"
"-60.98","45.35","HART ISLAND (AUT)","8202318","2019-04-26 14:00","2019","04","26","14:00","4.7","","0.3","","73","","","M","30","","24","","","","101.53","","","","","","NA"
"-60.98","45.35","HART ISLAND (AUT)","8202318","2019-04-26 15:00","2019","04","26","15:00","5.2","","0.1","","70","","","M","30","","21","","","","101.52","","","","","","NA"
"-60.98","45.35","HART ISLAND (AUT)","8202318","2019-04-26 16:00","2019","04","26","16:00","5.1","","0.3","","71","","","M","30","","20","","","","101.53","","","","","","NA"
"-60.98","45.35","HART ISLAND (AUT)","8202318","2019-04-26 17:00","2019","04","26","17:00","5.5","","0.0","","68","","","M","29","","20","","","","101.60","","","","","","NA"
"-60.98","45.35","HART ISLAND (AUT)","8202318","2019-04-26 18:00","2019","04","26","18:00","5.1","","0.0","","70","","","M","30","","11","","","","101.63","","","","","","NA"
"-60.98","45.35","HART ISLAND (AUT)","8202318","2019-04-26 19:00","2019","04","26","19:00","3.9","","-1.1","","70","","","M","29","","4","","","","101.64","","","","","","NA"
"-60.98","45.35","HART ISLAND (AUT)","8202318","2019-04-26 20:00","2019","04","26","20:00","2.6","","0.2","","84","","","M","19","","11","","","","101.69","","","","","","NA"
"-60.98","45.35","HART ISLAND (AUT)","8202318","2019-04-26 21:00","2019","04","26","21:00","2.3","","-0.2","","84","","","M","22","","4","","","","101.70","","","","","","NA"
"-60.98","45.35","HART ISLAND (AUT)","8202318","2019-04-26 22:00","2019","04","26","22:00","2.0","","0.6","","90","","","M","11","","8","","","","101.68","","","","","","NA"
"-60.98","45.35","HART ISLAND (AUT)","8202318","2019-04-26 23:00","2019","04","26","23:00","2.0","","1.2","","94","","","M","13","","14","","","","101.75","","","","","","NA"
"-60.98","45.35","HART ISLAND (AUT)","8202318","2019-04-27 00:00","2019","04","27","00:00","2.0","","0.9","","92","","","M","14","","11","","","","101.77","","","","","","NA"
"-60.98","45.35","HART ISLAND (AUT)","8202318","2019-04-27 01:00","2019","04","27","01:00","2.0","","0.9","","92","","","M","15","","13","","","","101.80","","","","","","NA"
"-60.98","45.35","HART ISLAND (AUT)","8202318","2019-04-27 02:00","2019","04","27","02:00","2.1","","0.9","","92","","","M","13","","18","","","","101.71","","","","","","NA"
"-60.98","45.35","HART ISLAND (AUT)","8202318","2019-04-27 03:00","2019","04","27","03:00","1.9","","1.1","","94","","","M","11","","21","","","","101.65","","","","","","NA"
"-60.98","45.35","HART ISLAND (AUT)","8202318","2019-04-27 04:00","2019","04","27","04:00","1.8","","0.9","","93","","","M","12","","23","","","","101.58","","","","","","NA"
"-60.98","45.35","HART ISLAND (AUT)","8202318","2019-04-27 05:00","2019","04","27","05:00","1.9","","0.8","","93","","","M","11","","22","","","","101.62","","","","","","NA"
"-60.98","45.35","HART ISLAND (AUT)","8202318","2019-04-27 06:00","2019","04","27","06:00","1.9","","0.6","","91","","","M","11","","19","","","","101.63","","","","","","NA"
"-60.98","45.35","HART ISLAND (AUT)","8202318","2019-04-27 07:00","2019","04","27","07:00","1.9","","1.0","","94","","","M","10","","23","","","","101.63","","","","","","NA"
"-60.98","45.35","HART ISLAND (AUT)","8202318","2019-04-27 08:00","2019","04","27","08:00","1.8","","0.8","","93","","","M","10","","26","","","","101.58","","","","","","NA"
"-60.98","45.35","HART ISLAND (AUT)","8202318","2019-04-27 09:00","2019","04","27","09:00","1.8","","0.7","","92","","","M","10","","27","","","","101.63","","","","","","NA"
"-60.98","45.35","HART ISLAND (AUT)","8202318","2019-04-27 10:00","2019","04","27","10:00","2.1","","1.0","","92","","","M","10","","26","","","","101.57","","","","","","NA"
"-60.98","45.35","HART ISLAND (AUT)","8202318","2019-04-27 11:00","2019","04","27","11:00","2.2","","1.3","","94","","","M","11","","29","","","","101.55","","","","","","NA"
"-60.98","45.35","HART ISLAND (AUT)","8202318","2019-04-27 12:00","2019","04","27","12:00","2.3","","1.6","","96","","","M","10","","32","","","","101.44","","","","","","NA"
"-60.98","45.35","HART ISLAND (AUT)","8202318","2019-04-27 13:00","2019","04","27","13:00","2.4","","1.4","","93","","","M","10","","34","","","","101.34","","","","","","NA"
"-60.98","45.35","HART ISLAND (AUT)","8202318","2019-04-27 14:00","2019","04","27","14:00","2.2","","1.3","","94","","","M","10","","34","","","","101.22","","","","","","NA"
"-60.98","45.35","HART ISLAND (AUT)","8202318","2019-04-27 15:00","2019","04","27","15:00","2.3","","1.6","","96","","","M","10","","34","","","","101.14","","","","","","NA"
"-60.98","45.35","HART ISLAND (AUT)","8202318","2019-04-27 16:00","2019","04","27","16:00","2.5","","1.9","","96","","","M","10","","31","","","","101.01","","","","","","NA"
"-60.98","45.35","HART ISLAND (AUT)","8202318","2019-04-27 17:00","2019","04","27","17:00","2.9","","2.4","","96","","","M","11","","36","","","","100.89","","","","","","NA"
"-60.98","45.35","HART ISLAND (AUT)","8202318","2019-04-27 18:00","2019","04","27","18:00","3.5","","2.8","","96","","","M","11","","47","","","","100.72","","","","","","NA"
"-60.98","45.35","HART ISLAND (AUT)","8202318","2019-04-27 19:00","2019","04","27","19:00","3.7","","3.0","","95","","","M","12","","53","","","","100.62","","","","","","NA"
"-60.98","45.35","HART ISLAND (AUT)","8202318","2019-04-27 20:00","2019","04","27","20:00","3.8","","3.0","","95","","","M","12","","54","","","","100.56","","","","","","NA"
"-60.98","45.35","HART ISLAND (AUT)","8202318","2019-04-27 21:00","2019","04","27","21:00","3.9","","3.5","","97","","","M","13","","56","","","","100.61","","","","","","NA"
"-60.98","45.35","HART ISLAND (AUT)","8202318","2019-04-27 22:00","2019","04","27","22:00","3.9","","3.4","","97","","","M","13","","49","","","","100.51","","","","","","NA"
"-60.98","45.35","HART ISLAND (AUT)","8202318","2019-04-27 23:00","2019","04","27","23:00","3.9","","3.4","","97","","","M","14","","43","","","","100.49","","","","","","NA"
"-60.98","45.35","HART ISLAND (AUT)","8202318","2019-04-28 00:00","2019","04","28","00:00","4.1","","3.8","","98","","","M","14","","37","","","","100.47","","","","","","NA"
"-60.98","45.35","HART ISLAND (AUT)","8202318","2019-04-28 01:00","2019","04","28","01:00","3.9","","3.8","","99","","","M","15","","25","","","","100.45","","","","","","NA"
"-60.98","45.35","HART ISLAND (AUT)","8202318","2019-04-28 02:00","2019","04","28","02:00","4.4","","4.3","","100","","","M","20","","11","","","","100.42","","","","","","NA"
"-60.98","45.35","HART ISLAND (AUT)","8202318","2019-04-28 03:00","2019","04","28","03:00","3.6","","3.6","","100","","","M","20","","23","","","","100.45","","","","","","NA"
"-60.98","45.35","HART ISLAND (AUT)","8202318","2019-04-28 04:00","2019","04","28","04:00","3.6","","3.5","","100","","","M","21","","22","","","","100.50","","","","","","NA"
"-60.98","45.35","HART ISLAND (AUT)","8202318","2019-04-28 05:00","2019","04","28","05:00","3.5","","3.5","","100","","","M","21","","24","","","","100.52","","","","","","NA"
"-60.98","45.35","HART ISLAND (AUT)","8202318","2019-04-28 06:00","2019","04","28","06:00","3.4","","3.4","","100","","","M","20","","21","","","","100.60","","","","","","NA"
"-60.98","45.35","HART ISLAND (AUT)","8202318","2019-04-28 07:00","2019","04","28","07:00","4.2","","3.9","","98","","","M","20","","24","","","","100.65","","","","","","NA"
"-60.98","45.35","HART ISLAND (AUT)","8202318","2019-04-28 08:00","2019","04","28","08:00","5.3","","4.1","","92","","","M","21","","28","","","","100.65","","","","","","NA"
"-60.98","45.35","HART ISLAND (AUT)","8202318","2019-04-28 09:00","2019","04","28","09:00","5.5","","3.9","","89","","","M","20","","31","","","","100.70","","","","","","NA"
"-60.98","45.35","HART ISLAND (AUT)","8202318","2019-04-28 10:00","2019","04","28","10:00","6.8","","4.0","","83","","","M","21","","25","","","","100.76","","","","","","NA"
"-60.98","45.35","HART ISLAND (AUT)","8202318","2019-04-28 11:00","2019","04","28","11:00","7.0","","3.0","","76","","","M","22","","34","","","","100.73","","","","","","NA"
"-60.98","45.35","HART ISLAND (AUT)","8202318","2019-04-28 12:00","2019","04","28","12:00","7.9","","3.1","","72","","","M","21","","43","","","","100.73","","","","","","NA"
"-60.98","45.35","HART ISLAND (AUT)","8202318","2019-04-28 13:00","2019","04","28","13:00","8.4","","3.5","","71","","","M","22","","36","","","","100.78","","","","","","NA"
"-60.98","45.35","HART ISLAND (AUT)","8202318","2019-04-28 14:00","2019","04","28","14:00","7.5","","3.0","","73","","","M","21","","41","","","","100.81","","","","","","NA"
"-60.98","45.35","HART ISLAND (AUT)","8202318","2019-04-28 15:00","2019","04","28","15:00","7.6","","3.3","","74","","","M","22","","38","","","","100.83","","","","","","NA"
"-60.98","45.35","HART ISLAND (AUT)","8202318","2019-04-28 16:00","2019","04","28","16:00","6.8","","3.3","","78","","","M","22","","37","","","","100.87","","","","","","NA"
"-60.98","45.35","HART ISLAND (AUT)","8202318","2019-04-28 17:00","2019","04","28","17:00","6.4","","2.6","","76","","","M","22","","41","","","","100.91","","","","","","NA"
"-60.98","45.35","HART ISLAND (AUT)","8202318","2019-04-28 18:00","2019","04","28","18:00","5.3","","2.3","","81","","","M","22","","32","","","","100.99","","","","","","NA"
"-60.98","45.35","HART ISLAND (AUT)","8202318","2019-04-28 19:00","2019","04","28","19:00","4.1","","1.9","","86","","","M","22","","28","","","","101.08","","","","","","NA"
"-60.98","45.35","HART ISLAND (AUT)","8202318","2019-04-28 20:00","2019","04","28","20:00","3.6","","1.7","","87","","","M","22","","27","","","","101.15","","","","","","NA"
"-60.98","45.35","HART ISLAND (AUT)","8202318","2019-04-28 21:00","2019","04","28","21:00","3.7","","1.8","","88","","","M","24","","17","","","","101.28","","","","","","NA"
"-60.98","45.35","HART ISLAND (AUT)","8202318","2019-04-28 22:00","2019","04","28","22:00","3.9","","2.1","","88","","","M","21","","7","","","","101.27","","","","","","NA"
"-60.98","45.35","HART ISLAND (AUT)","8202318","2019-04-28 23:00","2019","04","28","23:00","3.7","","2.2","","90","","","M","18","","4","","","","101.21","","","","","","NA"
"-60.98","45.35","HART ISLAND (AUT)","8202318","2019-04-29 00:00","2019","04","29","00:00","3.7","","2.3","","91","","","M","19","","6","","","","101.19","","","","","","NA"
"-60.98","45.35","HART ISLAND (AUT)","8202318","2019-04-29 01:00","2019","04","29","01:00","4.0","","2.4","","89","","","M","23","","12","","","","101.19","","","","","","NA"
"-60.98","45.35","HART ISLAND (AUT)","8202318","2019-04-29 02:00","2019","04","29","02:00","3.9","","2.3","","89","","","M","23","","10","","","","101.16","","","","","","NA"
"-60.98","45.35","HART ISLAND (AUT)","8202318","2019-04-29 03:00","2019","04","29","03:00","4.2","","2.3","","88","","","M","23","","12","","","","101.18","","","","","","NA"
"-60.98","45.35","HART ISLAND (AUT)","8202318","2019-04-29 04:00","2019","04","29","04:00","3.5","","2.7","","94","","","M","22","","17","","","","101.18","","","","","","NA"
"-60.98","45.35","HART ISLAND (AUT)","8202318","2019-04-29 05:00","2019","04","29","05:00","3.1","","2.6","","96","","","M","24","","17","","","","101.17","","","","","","NA"
"-60.98","45.35","HART ISLAND (AUT)","8202318","2019-04-29 06:00","2019","04","29","06:00","2.9","","1.5","","90","","","M","29","","28","","","","101.22","","","","","","NA"
"-60.98","45.35","HART ISLAND (AUT)","8202318","2019-04-29 07:00","2019","04","29","07:00","3.4","","1.9","","90","","","M","28","","15","","","","101.23","","","","","","NA"
"-60.98","45.35","HART ISLAND (AUT)","8202318","2019-04-29 08:00","2019","04","29","08:00","2.8","","1.3","","90","","","M","29","","25","","","","101.27","","","","","","NA"
"-60.98","45.35","HART ISLAND (AUT)","8202318","2019-04-29 09:00","2019","04","29","09:00","4.1","","2.2","","88","","","M","30","","25","","","","101.30","","","","","","NA"
"-60.98","45.35","HART ISLAND (AUT)","8202318","2019-04-29 10:00","2019","04","29","10:00","3.1","","1.2","","87","","","M","31","","32","","","","101.31","","","","","","NA"
"-60.98","45.35","HART ISLAND (AUT)","8202318","2019-04-29 11:00","2019","04","29","11:00","4.1","","-0.6","","71","","","M","30","","34","","","","101.28","","","","","","NA"
"-60.98","45.35","HART ISLAND (AUT)","8202318","2019-04-29 12:00","2019","04","29","12:00","3.9","","-2.0","","66","","","M","29","","34","","","","101.30","","","","","","NA"
"-60.98","45.35","HART ISLAND (AUT)","8202318","2019-04-29 13:00","2019","04","29","13:00","5.2","","-1.7","","61","","","M","30","","37","","","","101.29","","","","","","NA"
"-60.98","45.35","HART ISLAND (AUT)","8202318","2019-04-29 14:00","2019","04","29","14:00","5.5","","-1.5","","61","","","M","30","","26","","","","101.30","","","","","","NA"
"-60.98","45.35","HART ISLAND (AUT)","8202318","2019-04-29 15:00","2019","04","29","15:00","4.4","","-1.9","","64","","","M","32","","29","","","","101.24","","","","","","NA"
"-60.98","45.35","HART ISLAND (AUT)","8202318","2019-04-29 16:00","2019","04","29","16:00","4.4","","-2.2","","62","","","M","31","","30","","","","101.24","","","","","","NA"
"-60.98","45.35","HART ISLAND (AUT)","8202318","2019-04-29 17:00","2019","04","29","17:00","4.5","","-1.8","","64","","","M","31","","21","","","","101.30","","","","","","NA"
"-60.98","45.35","HART ISLAND (AUT)","8202318","2019-04-29 18:00","2019","04","29","18:00","4.8","","-2.1","","61","","","M","27","","20","","","","101.36","","","","","","NA"
"-60.98","45.35","HART ISLAND (AUT)","8202318","2019-04-29 19:00","2019","04","29","19:00","5.0","","-4.0","","52","","","M","26","","25","","","","101.43","","","","","","NA"
"-60.98","45.35","HART ISLAND (AUT)","8202318","2019-04-29 20:00","2019","04","29","20:00","3.5","","-1.3","","71","","","M","30","","20","","","","101.55","","","","","","NA"
"-60.98","45.35","HART ISLAND (AUT)","8202318","2019-04-29 21:00","2019","04","29","21:00","2.9","","-2.1","","70","","","M","28","","11","","","","101.63","","","","","","NA"
"-60.98","45.35","HART ISLAND (AUT)","8202318","2019-04-29 22:00","2019","04","29","22:00","2.3","","-3.3","","66","","","M","32","","25","","","","101.70","","","","","","NA"
"-60.98","45.35","HART ISLAND (AUT)","8202318","2019-04-29 23:00","2019","04","29","23:00","1.4","","-3.9","","68","","","M","28","","14","","","","101.73","","","","","","NA"
"-60.98","45.35","HART ISLAND (AUT)","8202318","2019-04-30 00:00","2019","04","30","00:00","1.0","","-3.9","","70","","","M","27","","15","","","","101.73","","","","","","NA"
"-60.98","45.35","HART ISLAND (AUT)","8202318","2019-04-30 01:00","2019","04","30","01:00","0.4","","-4.5","","70","","","M","26","","14","","","","101.67","","","","","","NA"
"-60.98","45.35","HART ISLAND (AUT)","8202318","2019-04-30 02:00","2019","04","30","02:00","0.0","","-4.2","","73","","","M","23","","14","","","","101.67","","","","-4","","NA"
"-60.98","45.35","HART ISLAND (AUT)","8202318","2019-04-30 03:00","2019","04","30","03:00","0.5","","-4.3","","70","","","M","26","","19","","","","101.66","","","","","","NA"
"-60.98","45.35","HART ISLAND (AUT)","8202318","2019-04-30 04:00","2019","04","30","04:00","1.0","","-5.2","","63","","","M","25","","20","","","","101.68","","","","","","NA"
"-60.98","45.35","HART ISLAND (AUT)","8202318","2019-04-30 05:00","2019","04","30","05:00","-0.3","","-4.8","","72","","","M","22","","20","","","","101.71","","","","-6","","NA"
"-60.98","45.35","HART ISLAND (AUT)","8202318","2019-04-30 06:00","2019","04","30","06:00","0.6","","-5.5","","64","","","M","23","","21","","","","101.74","","","","","","NA"
"-60.98","45.35","HART ISLAND (AUT)","8202318","2019-04-30 07:00","2019","04","30","07:00","2.4","","-5.6","","56","","","M","24","","25","","","","101.77","","","","","","NA"
"-60.98","45.35","HART ISLAND (AUT)","8202318","2019-04-30 08:00","2019","04","30","08:00","4.4","","-7.4","","42","","","M","26","","25","","","","101.73","","","","","","NA"
"-60.98","45.35","HART ISLAND (AUT)","8202318","2019-04-30 09:00","2019","04","30","09:00","5.2","","-6.2","","43","","","M","28","","34","","","","101.66","","","","","","NA"
"-60.98","45.35","HART ISLAND (AUT)","8202318","2019-04-30 10:00","2019","04","30","10:00","6.1","","-5.9","","42","","","M","28","","31","","","","101.62","","","","","","NA"
"-60.98","45.35","HART ISLAND (AUT)","8202318","2019-04-30 11:00","2019","04","30","11:00","7.6","","-8.2","","32","","","M","28","","33","","","","101.55","","","","","","NA"
"-60.98","45.35","HART ISLAND (AUT)","8202318","2019-04-30 12:00","2019","04","30","12:00","6.3","","-5.0","","44","","","M","32","","22","","","","101.47","","","","","","NA"
"-60.98","45.35","HART ISLAND (AUT)","8202318","2019-04-30 13:00","2019","04","30","13:00","7.4","","-2.7","","48","","","M","31","","10","","","","101.45","","","","","","NA"
"-60.98","45.35","HART ISLAND (AUT)","8202318","2019-04-30 14:00","2019","04","30","14:00","7.6","","-4.1","","43","","","M","30","","8","","","","101.41","","","","","","NA"
"-60.98","45.35","HART ISLAND (AUT)","8202318","2019-04-30 15:00","2019","04","30","15:00","7.3","","-2.4","","50","","","M","32","","21","","","","101.32","","","","","","NA"
"-60.98","45.35","HART ISLAND (AUT)","8202318","2019-04-30 16:00","2019","04","30","16:00","8.1","","-5.0","","39","","","M","29","","13","","","","101.33","","","","","","NA"
"-60.98","45.35","HART ISLAND (AUT)","8202318","2019-04-30 17:00","2019","04","30","17:00","6.3","","-2.8","","52","","","M","32","","27","","","","101.32","","","","","","NA"
"-60.98","45.35","HART ISLAND (AUT)","8202318","2019-04-30 18:00","2019","04","30","18:00","6.1","","-2.6","","54","","","M","32","","23","","","","101.32","","","","","","NA"
"-60.98","45.35","HART ISLAND (AUT)","8202318","2019-04-30 19:00","2019","04","30","19:00","4.8","","-2.6","","59","","","M","28","","9","","","","101.36","","","","","","NA"
"-60.98","45.35","HART ISLAND (AUT)","8202318","2019-04-30 20:00","2019","04","30","20:00","3.8","","-2.8","","62","","","M","27","","11","","","","101.42","","","","","","NA"
"-60.98","45.35","HART ISLAND (AUT)","8202318","2019-04-30 21:00","2019","04","30","21:00","4.0","","-1.6","","67","","","M","32","","22","","","","101.52","","","","","","NA"
"-60.98","45.35","HART ISLAND (AUT)","8202318","2019-04-30 22:00","2019","04","30","22:00","3.1","","-4.7","","56","","","M","31","","22","","","","101.63","","","","","","NA"
"-60.98","45.35","HART ISLAND (AUT)","8202318","2019-04-30 23:00","2019","04","30","23:00","2.8","","-4.1","","60","","","M","30","","31","","","","101.63","","","","","","NA"
