"Longitude (x)","Latitude (y)","Station Name","Climate ID","Date/Time (LST)","Year","Month","Day","Time (LST)","Temp (°C)","Temp Flag","Dew Point Temp (°C)","Dew Point Temp Flag","Rel Hum (%)","Rel Hum Flag","Precip. Amount (mm)","Precip. Amount Flag","Wind Dir (10s deg)","Wind Dir Flag","Wind Spd (km/h)","Wind Spd Flag","Visibility (km)","Visibility Flag","Stn Press (kPa)","Stn Press Flag","Hmdx","Hmdx Flag","Wind Chill","Wind Chill Flag","Weather"
"-65.89","45.32","SAINT JOHN A","8104900","2012-02-01 00:00","2012","02","01","00:00","-9.1","","-13.5","","70","","","","","","0","","24.1","","100.77","","","","","","Cloudy"
"-65.89","45.32","SAINT JOHN A","8104900","2012-02-01 01:00","2012","02","01","01:00","-8.1","","-13.4","","66","","","","4","","9","","19.3","","100.71","","","","-13","","Cloudy"
"-65.89","45.32","SAINT JOHN A","8104900","2012-02-01 02:00","2012","02","01","02:00","-7.6","","-12.4","","68","","","","4","","7","","8.0","","100.68","","","","-11","","Snow"
"-65.89","45.32","SAINT JOHN A","8104900","2012-02-01 03:00","2012","02","01","03:00","-6.6","","-11.1","","70","","","","5","","4","","4.8","","100.62","","","","-9","","Snow"
"-65.89","45.32","SAINT JOHN A","8104900","2012-02-01 04:00","2012","02","01","04:00","-5.3","","-8.7","","77","","","","8","","11","","24.1","","100.54","","","","-10","","Cloudy"
"-65.89","45.32","SAINT JOHN A","8104900","2012-02-01 05:00","2012","02","01","05:00","-5.3","","-8.2","","80","","","","8","","9","","3.2","","100.47","","","","-9","","Snow"
"-65.89","45.32","SAINT JOHN A","8104900","2012-02-01 06:00","2012","02","01","06:00","-4.6","","-7.1","","83","","","","9","","11","","3.2","","100.40","","","","-9","","Snow"
"-65.89","45.32","SAINT JOHN A","8104900","2012-02-01 07:00","2012","02","01","07:00","-3.3","","-5.9","","82","","","","10","","20","","2.4","","100.26","","","","-9","","Snow"
"-65.89","45.32","SAINT JOHN A","8104900","2012-02-01 08:00","2012","02","01","08:00","-3.1","","-5.9","","81","","","","11","","22","","1.6","","100.14","","","","-9","","Snow"
"-65.89","45.32","SAINT JOHN A","8104900","2012-02-01 09:00","2012","02","01","09:00","-3.2","","-6.2","","80","","","","12","","33","","1.6","","100.09","","","","-11","","Snow"
"-65.89","45.32","SAINT JOHN A","8104900","2012-02-01 10:00","2012","02","01","10:00","-3.2","","-6.1","","80","","","","11","","30","","2.4","","100.06","","","","-11","","Snow"
"-65.89","45.32","SAINT JOHN A","8104900","2012-02-01 11:00","2012","02","01","11:00","-3.0","","-6.0","","80","","","","11","","28","","2.4","","99.97","","","","-10","","Snow"
"-65.89","45.32","SAINT JOHN A","8104900","2012-02-01 12:00","2012","02","01","12:00","-3.1","","-6.1","","80","","","","11","","41","","1.6","","99.71","","","","-12","","Snow"
"-65.89","45.32","SAINT JOHN A","8104900","2012-02-01 13:00","2012","02","01","13:00","-3.2","","-6.1","","80","","","","11","","37","","8.0","","99.49","","","","-11","","Freezing Rain,Snow,Ice Pellets"
"-65.89","45.32","SAINT JOHN A","8104900","2012-02-01 14:00","2012","02","01","14:00","-2.7","","-5.4","","82","","","","11","","20","","2.4","","99.46","","","","-9","","Snow,Ice Pellets"
"-65.89","45.32","SAINT JOHN A","8104900","2012-02-01 15:00","2012","02","01","15:00","-2.0","","-4.4","","84","","","","9","","13","","4.8","","99.43","","","","-6","","Freezing Rain,Snow,Ice Pellets"
"-65.89","45.32","SAINT JOHN A","8104900","2012-02-01 16:00","2012","02","01","16:00","-2.3","","-4.8","","83","","","","7","","17","","6.4","","99.36","","","","-8","","Snow"
"-65.89","45.32","SAINT JOHN A","8104900","2012-02-01 17:00","2012","02","01","17:00","-2.4","","-5.2","","81","","","","6","","15","","16.1","","99.34","","","","-7","","Cloudy"
"-65.89","45.32","SAINT JOHN A","8104900","2012-02-01 18:00","2012","02","01","18:00","-4.3","","-7.0","","81","","","","36","","20","","16.1","","99.41","","","","-11","","Cloudy"
"-65.89","45.32","SAINT JOHN A","8104900","2012-02-01 19:00","2012","02","01","19:00","-5.3","","-8.0","","81","","","","36","","15","","12.9","","99.46","","","","-11","","Cloudy"
"-65.89","45.32","SAINT JOHN A","8104900","2012-02-01 20:00","2012","02","01","20:00","-5.7","","-8.2","","82","","","","36","","17","","12.9","","99.54","","","","-12","","Cloudy"
"-65.89","45.32","SAINT JOHN A","8104900","2012-02-01 21:00","2012","02","01","21:00","-5.7","","-8.1","","83","","","","35","","15","","8.0","","99.58","","","","-11","","Snow,Fog"
"-65.89","45.32","SAINT JOHN A","8104900","2012-02-01 22:00","2012","02","01","22:00","-5.4","","-8.1","","81","","","","35","","15","","12.9","","99.62","","","","-11","","Snow"
"-65.89","45.32","SAINT JOHN A","8104900","2012-02-01 23:00","2012","02","01","23:00","-5.5","","-8.2","","81","","","","2","","17","","8.0","","99.61","","","","-12","","Snow"
"-65.89","45.32","SAINT JOHN A","8104900","2012-02-02 00:00","2012","02","02","00:00","-5.5","","-8.4","","80","","","","36","","15","","19.3","","99.69","","","","-11","","Cloudy"
"-65.89","45.32","SAINT JOHN A","8104900","2012-02-02 01:00","2012","02","02","01:00","-5.4","","-8.3","","80","","","","36","","9","","24.1","","99.74","","","","-9","","Cloudy"
"-65.89","45.32","SAINT JOHN A","8104900","2012-02-02 02:00","2012","02","02","02:00","-5.2","","-8.1","","80","","","","35","","19","","19.3","","99.84","","","","-12","","Cloudy"
"-65.89","45.32","SAINT JOHN A","8104900","2012-02-02 03:00","2012","02","02","03:00","-5.3","","-8.2","","80","","","","1","","17","","19.3","","99.85","","","","-11","","Snow Showers"
"-65.89","45.32","SAINT JOHN A","8104900","2012-02-02 04:00","2012","02","02","04:00","-5.5","","-8.8","","78","","","","36","","20","","19.3","","99.94","","","","-12","","Snow Showers"
"-65.89","45.32","SAINT JOHN A","8104900","2012-02-02 05:00","2012","02","02","05:00","-6.2","","-9.5","","77","","","","36","","19","","19.3","","100.07","","","","-13","","Cloudy"
"-65.89","45.32","SAINT JOHN A","8104900","2012-02-02 06:00","2012","02","02","06:00","-6.6","","-9.6","","79","","","","1","","22","","16.1","","100.12","","","","-14","","Snow Showers"
"-65.89","45.32","SAINT JOHN A","8104900","2012-02-02 07:00","2012","02","02","07:00","-6.8","","-9.8","","79","","","","1","","17","","16.1","","100.27","","","","-13","","Snow Showers"
"-65.89","45.32","SAINT JOHN A","8104900","2012-02-02 08:00","2012","02","02","08:00","-7.0","","-9.9","","80","","","","1","","19","","9.7","","100.36","","","","-14","","Snow Showers"
"-65.89","45.32","SAINT JOHN A","8104900","2012-02-02 09:00","2012","02","02","09:00","-7.3","","-10.3","","79","","","","2","","24","","9.7","","100.41","","","","-15","","Snow Showers"
"-65.89","45.32","SAINT JOHN A","8104900","2012-02-02 10:00","2012","02","02","10:00","-7.6","","-10.9","","77","","","","2","","24","","24.1","","100.44","","","","-16","","Cloudy"
"-65.89","45.32","SAINT JOHN A","8104900","2012-02-02 11:00","2012","02","02","11:00","-7.1","","-10.9","","74","","","","1","","22","","24.1","","100.45","","","","-15","","Cloudy"
"-65.89","45.32","SAINT JOHN A","8104900","2012-02-02 12:00","2012","02","02","12:00","-6.8","","-10.7","","74","","","","1","","20","","24.1","","100.47","","","","-14","","Mostly Cloudy"
"-65.89","45.32","SAINT JOHN A","8104900","2012-02-02 13:00","2012","02","02","13:00","-6.6","","-10.7","","73","","","","1","","20","","24.1","","100.48","","","","-14","","Mostly Cloudy"
"-65.89","45.32","SAINT JOHN A","8104900","2012-02-02 14:00","2012","02","02","14:00","-5.7","","-10.2","","71","","","","1","","13","","24.1","","100.50","","","","-11","","Mostly Cloudy"
"-65.89","45.32","SAINT JOHN A","8104900","2012-02-02 15:00","2012","02","02","15:00","-6.0","","-10.4","","71","","","","36","","20","","24.1","","100.53","","","","-13","","Mostly Cloudy"
"-65.89","45.32","SAINT JOHN A","8104900","2012-02-02 16:00","2012","02","02","16:00","-6.5","","-10.9","","71","","","","1","","22","","24.1","","100.55","","","","-14","","Cloudy"
"-65.89","45.32","SAINT JOHN A","8104900","2012-02-02 17:00","2012","02","02","17:00","-7.3","","-11.6","","71","","","","2","","26","","24.1","","100.54","","","","-15","","Mostly Cloudy"
"-65.89","45.32","SAINT JOHN A","8104900","2012-02-02 18:00","2012","02","02","18:00","-7.8","","-12.0","","72","","","","3","","19","","24.1","","100.63","","","","-15","","Mostly Cloudy"
"-65.89","45.32","SAINT JOHN A","8104900","2012-02-02 19:00","2012","02","02","19:00","-8.6","","-12.5","","73","","","","4","","9","","24.1","","100.72","","","","-13","","Mainly Clear"
"-65.89","45.32","SAINT JOHN A","8104900","2012-02-02 20:00","2012","02","02","20:00","-9.9","","-13.4","","76","","","","4","","9","","24.1","","100.69","","","","-15","","Clear"
"-65.89","45.32","SAINT JOHN A","8104900","2012-02-02 21:00","2012","02","02","21:00","-10.3","","-13.6","","77","","","","4","","7","","24.1","","100.69","","","","-14","","Clear"
"-65.89","45.32","SAINT JOHN A","8104900","2012-02-02 22:00","2012","02","02","22:00","-11.2","","-14.2","","78","","","","3","","4","","24.1","","100.70","","","","-14","","Mainly Clear"
"-65.89","45.32","SAINT JOHN A","8104900","2012-02-02 23:00","2012","02","02","23:00","-13.0","","-16.0","","78","","","","","","0","","24.1","","100.69","","","","","","Mainly Clear"
"-65.89","45.32","SAINT JOHN A","8104900","2012-02-03 00:00","2012","02","03","00:00","-13.5","","-16.3","","79","","","","","","0","","24.1","","100.72","","","","","","Clear"
"-65.89","45.32","SAINT JOHN A","8104900","2012-02-03 01:00","2012","02","03","01:00","-14.6","","-17.4","","79","","","","","","0","","24.1","","100.73","","","","","","Mainly Clear"
"-65.89","45.32","SAINT JOHN A","8104900","2012-02-03 02:00","2012","02","03","02:00","-16.7","","-19.5","","79","","","","","","0","","24.1","","100.74","","","","","","Mainly Clear"
"-65.89","45.32","SAINT JOHN A","8104900","2012-02-03 03:00","2012","02","03","03:00","-16.8","","-19.5","","80","","","","","","0","","24.1","","100.74","","","","","","Mainly Clear"
"-65.89","45.32","SAINT JOHN A","8104900","2012-02-03 04:00","2012","02","03","04:00","-13.6","","-16.3","","80","","","","36","","15","","24.1","","100.75","","","","-21","","Mainly Clear"
"-65.89","45.32","SAINT JOHN A","8104900","2012-02-03 05:00","2012","02","03","05:00","-14.4","","-17.5","","77","","","","2","","7","","24.1","","100.77","","","","-19","","Mainly Clear"
"-65.89","45.32","SAINT JOHN A","8104900","2012-02-03 06:00","2012","02","03","06:00","-13.7","","-16.6","","79","","","","35","","15","","24.1","","100.79","","","","-21","","Mainly Clear"
"-65.89","45.32","SAINT JOHN A","8104900","2012-02-03 07:00","2012","02","03","07:00","-14.2","","-17.2","","78","","","","36","","22","","24.1","","100.81","","","","-24","","Mainly Clear"
"-65.89","45.32","SAINT JOHN A","8104900","2012-02-03 08:00","2012","02","03","08:00","-15.0","","-18.1","","77","","","","36","","17","","24.1","","100.89","","","","-23","","Mainly Clear"
"-65.89","45.32","SAINT JOHN A","8104900","2012-02-03 09:00","2012","02","03","09:00","-14.6","","-18.1","","75","","","","36","","19","","24.1","","100.93","","","","-23","","Mainly Clear"
"-65.89","45.32","SAINT JOHN A","8104900","2012-02-03 10:00","2012","02","03","10:00","-13.2","","-17.8","","68","","","","36","","22","","24.1","","100.92","","","","-22","","Mainly Clear"
"-65.89","45.32","SAINT JOHN A","8104900","2012-02-03 11:00","2012","02","03","11:00","-11.3","","-16.8","","64","","","","36","","17","","24.1","","100.88","","","","-19","","Mainly Clear"
"-65.89","45.32","SAINT JOHN A","8104900","2012-02-03 12:00","2012","02","03","12:00","-9.3","","-16.5","","56","","","","36","","20","","24.1","","100.83","","","","-17","","Mostly Cloudy"
"-65.89","45.32","SAINT JOHN A","8104900","2012-02-03 13:00","2012","02","03","13:00","-8.5","","-15.1","","59","","","","35","","15","","24.1","","100.77","","","","-15","","Mostly Cloudy"
"-65.89","45.32","SAINT JOHN A","8104900","2012-02-03 14:00","2012","02","03","14:00","-7.9","","-15.6","","54","","","","35","","30","","24.1","","100.72","","","","-17","","Mostly Cloudy"
"-65.89","45.32","SAINT JOHN A","8104900","2012-02-03 15:00","2012","02","03","15:00","-6.9","","-14.7","","54","","","","34","","26","","24.1","","100.73","","","","-15","","Mostly Cloudy"
"-65.89","45.32","SAINT JOHN A","8104900","2012-02-03 16:00","2012","02","03","16:00","-6.4","","-14.0","","55","","","","33","","19","","24.1","","100.72","","","","-13","","Mostly Cloudy"
"-65.89","45.32","SAINT JOHN A","8104900","2012-02-03 17:00","2012","02","03","17:00"
"-65.89","45.32","SAINT JOHN A","8104900","2012-02-03 18:00","2012","02","03","18:00","-7.7","","-14.2","","60","","","","31","","11","","24.1","","100.78","","","","-13","","Mostly Cloudy"
"-65.89","45.32","SAINT JOHN A","8104900","2012-02-03 19:00","2012","02","03","19:00","-8.5","","-14.1","","64","","","","31","","15","","24.1","","100.80","","","","-15","","Mostly Cloudy"
"-65.89","45.32","SAINT JOHN A","8104900","2012-02-03 20:00","2012","02","03","20:00","-8.6","","-14.4","","63","","","","31","","17","","24.1","","100.78","","","","-15","","Mostly Cloudy"
"-65.89","45.32","SAINT JOHN A","8104900","2012-02-03 21:00","2012","02","03","21:00","-9.6","","-15.0","","65","","","","32","","15","","24.1","","100.74","","","","-16","","Mainly Clear"
"-65.89","45.32","SAINT JOHN A","8104900","2012-02-03 22:00","2012","02","03","22:00","-10.2","","-15.4","","66","","","","32","","11","","24.1","","100.77","","","","-16","","Mainly Clear"
"-65.89","45.32","SAINT JOHN A","8104900","2012-02-03 23:00","2012","02","03","23:00","-10.0","","-15.2","","66","","","","32","","11","","24.1","","100.74","","","","-16","","Mostly Cloudy"
"-65.89","45.32","SAINT JOHN A","8104900","2012-02-04 00:00","2012","02","04","00:00","-8.9","","-15.0","","61","","","","35","","13","","24.1","","100.72","","","","-15","","Mainly Clear"
"-65.89","45.32","SAINT JOHN A","8104900","2012-02-04 01:00","2012","02","04","01:00","-9.5","","-14.8","","65","","","","2","","11","","24.1","","100.64","","","","-15","","Mostly Cloudy"
"-65.89","45.32","SAINT JOHN A","8104900","2012-02-04 02:00","2012","02","04","02:00","-10.2","","-15.2","","67","","","","1","","9","","24.1","","100.62","","","","-15","","Mainly Clear"
"-65.89","45.32","SAINT JOHN A","8104900","2012-02-04 03:00","2012","02","04","03:00","-10.8","","-15.6","","68","","","","2","","7","","24.1","","100.57","","","","-15","","Mostly Cloudy"
"-65.89","45.32","SAINT JOHN A","8104900","2012-02-04 04:00","2012","02","04","04:00","-11.1","","-15.6","","69","","","","30","","7","","24.1","","100.56","","","","-15","","Mostly Cloudy"
"-65.89","45.32","SAINT JOHN A","8104900","2012-02-04 05:00","2012","02","04","05:00","-10.5","","-15.5","","67","","","","31","","7","","24.1","","100.55","","","","-15","","Cloudy"
"-65.89","45.32","SAINT JOHN A","8104900","2012-02-04 06:00","2012","02","04","06:00","-10.5","","-15.2","","68","","","","28","","6","","24.1","","100.59","","","","-14","","Snow Showers"
"-65.89","45.32","SAINT JOHN A","8104900","2012-02-04 07:00","2012","02","04","07:00","-10.3","","-14.7","","70","","","","1","","4","","24.1","","100.57","","","","-13","","Snow Showers"
"-65.89","45.32","SAINT JOHN A","8104900","2012-02-04 08:00","2012","02","04","08:00","-9.8","","-14.3","","70","","","","31","","9","","12.9","","100.55","","","","-15","","Snow Showers"
"-65.89","45.32","SAINT JOHN A","8104900","2012-02-04 09:00","2012","02","04","09:00","-9.1","","-13.3","","72","","","","32","","11","","12.9","","100.51","","","","-15","","Snow Showers"
"-65.89","45.32","SAINT JOHN A","8104900","2012-02-04 10:00","2012","02","04","10:00","-8.4","","-12.2","","74","","","","31","","11","","4.0","","100.52","","","","-14","","Snow Showers"
"-65.89","45.32","SAINT JOHN A","8104900","2012-02-04 11:00","2012","02","04","11:00","-8.0","","-11.9","","73","","","","33","","24","","12.9","","100.48","","","","-16","","Snow Showers"
"-65.89","45.32","SAINT JOHN A","8104900","2012-02-04 12:00","2012","02","04","12:00","-6.1","","-11.1","","68","","","","32","","17","","24.1","","100.40","","","","-12","","Mostly Cloudy"
"-65.89","45.32","SAINT JOHN A","8104900","2012-02-04 13:00","2012","02","04","13:00","-5.4","","-11.6","","62","","","","32","","20","","24.1","","100.32","","","","-12","","Mostly Cloudy"
"-65.89","45.32","SAINT JOHN A","8104900","2012-02-04 14:00","2012","02","04","14:00","-5.1","","-12.0","","58","","","","33","","28","","24.1","","100.26","","","","-13","","Mostly Cloudy"
"-65.89","45.32","SAINT JOHN A","8104900","2012-02-04 15:00","2012","02","04","15:00","-4.4","","-11.8","","56","","","","35","","24","","24.1","","100.24","","","","-11","","Mostly Cloudy"
"-65.89","45.32","SAINT JOHN A","8104900","2012-02-04 16:00","2012","02","04","16:00","-4.7","","-12.4","","55","","","","31","","17","","16.1","","100.22","","","","-11","","Snow Showers"
"-65.89","45.32","SAINT JOHN A","8104900","2012-02-04 17:00","2012","02","04","17:00","-4.7","","-12.4","","55","","","","34","","20","","19.3","","100.24","","","","-11","","Snow Showers"
"-65.89","45.32","SAINT JOHN A","8104900","2012-02-04 18:00","2012","02","04","18:00","-5.6","","-12.5","","58","","","","33","","30","","24.1","","100.26","","","","-14","","Mostly Cloudy"
"-65.89","45.32","SAINT JOHN A","8104900","2012-02-04 19:00","2012","02","04","19:00","-6.4","","-13.1","","59","","","","32","","24","","24.1","","100.31","","","","-14","","Mostly Cloudy"
"-65.89","45.32","SAINT JOHN A","8104900","2012-02-04 20:00","2012","02","04","20:00","-7.0","","-13.9","","58","","","","33","","15","","24.1","","100.34","","","","-13","","Mostly Cloudy"
"-65.89","45.32","SAINT JOHN A","8104900","2012-02-04 21:00","2012","02","04","21:00","-8.0","","-14.8","","58","","","","33","","20","","24.1","","100.36","","","","-15","","Mostly Cloudy"
"-65.89","45.32","SAINT JOHN A","8104900","2012-02-04 22:00","2012","02","04","22:00","-8.7","","-15.8","","56","","","","34","","32","","24.1","","100.37","","","","-18","","Mostly Cloudy"
"-65.89","45.32","SAINT JOHN A","8104900","2012-02-04 23:00","2012","02","04","23:00","-9.7","","-16.0","","60","","","","33","","24","","24.1","","100.37","","","","-18","","Mainly Clear"
"-65.89","45.32","SAINT JOHN A","8104900","2012-02-05 00:00","2012","02","05","00:00","-10.7","","-17.0","","60","","","","35","","20","","24.1","","100.35","","","","-19","","Mainly Clear"
"-65.89","45.32","SAINT JOHN A","8104900","2012-02-05 01:00","2012","02","05","01:00","-12.1","","-17.3","","65","","","","36","","17","","24.1","","100.31","","","","-20","","Clear"
"-65.89","45.32","SAINT JOHN A","8104900","2012-02-05 02:00","2012","02","05","02:00","-12.4","","-17.4","","66","","","","34","","22","","24.1","","100.31","","","","-21","","Clear"
"-65.89","45.32","SAINT JOHN A","8104900","2012-02-05 03:00","2012","02","05","03:00","-13.3","","-18.3","","66","","","","31","","15","","24.1","","100.34","","","","-21","","Clear"
"-65.89","45.32","SAINT JOHN A","8104900","2012-02-05 04:00","2012","02","05","04:00","-13.9","","-18.5","","68","","","","33","","24","","24.1","","100.31","","","","-24","","Clear"
"-65.89","45.32","SAINT JOHN A","8104900","2012-02-05 05:00","2012","02","05","05:00","-14.3","","-20.0","","62","","","","31","","13","","24.1","","100.33","","","","-21","","Clear"
"-65.89","45.32","SAINT JOHN A","8104900","2012-02-05 06:00","2012","02","05","06:00","-15.4","","-20.3","","66","","","","30","","9","","24.1","","100.37","","","","-21","","Clear"
"-65.89","45.32","SAINT JOHN A","8104900","2012-02-05 07:00","2012","02","05","07:00","-16.3","","-20.9","","68","","","","31","","4","","24.1","","100.39","","","","-19","","Clear"
"-65.89","45.32","SAINT JOHN A","8104900","2012-02-05 08:00","2012","02","05","08:00","-16.5","","-20.5","","71","","","","31","","15","","24.1","","100.38","","","","-25","","Mainly Clear"
"-65.89","45.32","SAINT JOHN A","8104900","2012-02-05 09:00","2012","02","05","09:00","-15.5","","-20.0","","68","","","","31","","17","","24.1","","100.40","","","","-24","","Mainly Clear"
"-65.89","45.32","SAINT JOHN A","8104900","2012-02-05 10:00","2012","02","05","10:00","-14.0","","-19.5","","63","","","","33","","19","","24.1","","100.35","","","","-23","","Mainly Clear"
"-65.89","45.32","SAINT JOHN A","8104900","2012-02-05 11:00","2012","02","05","11:00","-13.4","","-19.3","","61","","","","34","","26","","24.1","","100.34","","","","-23","","Mainly Clear"
"-65.89","45.32","SAINT JOHN A","8104900","2012-02-05 12:00","2012","02","05","12:00","-12.4","","-18.8","","59","","","","34","","20","","24.1","","100.28","","","","-21","","Mainly Clear"
"-65.89","45.32","SAINT JOHN A","8104900","2012-02-05 13:00","2012","02","05","13:00","-11.6","","-18.8","","55","","","","31","","24","","24.1","","100.21","","","","-21","","Mainly Clear"
"-65.89","45.32","SAINT JOHN A","8104900","2012-02-05 14:00","2012","02","05","14:00","-10.0","","-18.0","","52","","","","32","","17","","24.1","","100.12","","","","-17","","Mainly Clear"
"-65.89","45.32","SAINT JOHN A","8104900","2012-02-05 15:00","2012","02","05","15:00","-8.6","","-17.4","","49","","","","29","","13","","24.1","","100.09","","","","-15","","Mainly Clear"
"-65.89","45.32","SAINT JOHN A","8104900","2012-02-05 16:00","2012","02","05","16:00","-8.7","","-17.8","","48","","","","32","","26","","24.1","","100.09","","","","-17","","Mainly Clear"
"-65.89","45.32","SAINT JOHN A","8104900","2012-02-05 17:00","2012","02","05","17:00","-8.6","","-18.3","","45","","","","31","","19","","24.1","","100.08","","","","-16","","Mainly Clear"
"-65.89","45.32","SAINT JOHN A","8104900","2012-02-05 18:00","2012","02","05","18:00","-10.2","","-18.4","","51","","","","30","","7","","24.1","","100.13","","","","-14","","Clear"
"-65.89","45.32","SAINT JOHN A","8104900","2012-02-05 19:00","2012","02","05","19:00","-14.2","","-19.6","","64","","","","18","","6","","24.1","","100.12","","","","-18","","Clear"
"-65.89","45.32","SAINT JOHN A","8104900","2012-02-05 20:00","2012","02","05","20:00","-16.8","","-19.9","","77","","","","","","0","","24.1","","100.14","","","","","","Clear"
"-65.89","45.32","SAINT JOHN A","8104900","2012-02-05 21:00","2012","02","05","21:00","-17.6","","-20.9","","75","","","","","","0","","24.1","","100.13","","","","","","Clear"
"-65.89","45.32","SAINT JOHN A","8104900","2012-02-05 22:00","2012","02","05","22:00","-19.0","","-22.1","","76","","","","","","0","","24.1","","100.11","","","","","","Clear"
"-65.89","45.32","SAINT JOHN A","8104900","2012-02-05 23:00","2012","02","05","23:00","-19.2","","-22.2","","77","","","","","","0","","24.1","","100.04","","","","","","Clear"
"-65.89","45.32","SAINT JOHN A","8104900","2012-02-06 00:00","2012","02","06","00:00","-18.8","","-21.7","","78","","","","36","","4","","24.1","","99.97","","","","-22","","Clear"
"-65.89","45.32","SAINT JOHN A","8104900","2012-02-06 01:00","2012","02","06","01:00","-18.4","","-21.5","","77","","","","35","","4","","24.1","","99.86","","","","-22","","Mostly Cloudy"
"-65.89","45.32","SAINT JOHN A","8104900","2012-02-06 02:00","2012","02","06","02:00","-14.3","","-17.1","","79","","","","22","","4","","24.1","","99.76","","","","-17","","Cloudy"
"-65.89","45.32","SAINT JOHN A","8104900","2012-02-06 03:00","2012","02","06","03:00","-7.9","","-13.8","","63","","","","25","","7","","24.1","","99.72","","","","-12","","Cloudy"
"-65.89","45.32","SAINT JOHN A","8104900","2012-02-06 04:00","2012","02","06","04:00","-6.2","","-12.1","","63","","","","24","","9","","24.1","","99.67","","","","-10","","Cloudy"
"-65.89","45.32","SAINT JOHN A","8104900","2012-02-06 05:00","2012","02","06","05:00","-5.5","","-8.5","","79","","","","24","","17","","2.4","","99.63","","","","-12","","Snow"
"-65.89","45.32","SAINT JOHN A","8104900","2012-02-06 06:00","2012","02","06","06:00","-4.7","","-7.8","","79","","","","24","","20","","19.3","","99.52","","","","-11","","Snow"
"-65.89","45.32","SAINT JOHN A","8104900","2012-02-06 07:00","2012","02","06","07:00","-4.1","","-7.5","","77","","","","25","","13","","24.1","","99.47","","","","-9","","Mostly Cloudy"
"-65.89","45.32","SAINT JOHN A","8104900","2012-02-06 08:00","2012","02","06","08:00","-3.1","","-6.9","","75","","","","25","","22","","24.1","","99.43","","","","-9","","Cloudy"
"-65.89","45.32","SAINT JOHN A","8104900","2012-02-06 09:00","2012","02","06","09:00","-2.9","","-7.2","","72","","","","25","","15","","19.3","","99.44","","","","-8","","Snow"
"-65.89","45.32","SAINT JOHN A","8104900","2012-02-06 10:00","2012","02","06","10:00","-1.5","","-6.0","","71","","","","25","","17","","24.1","","99.44","","","","-7","","Mostly Cloudy"
"-65.89","45.32","SAINT JOHN A","8104900","2012-02-06 11:00","2012","02","06","11:00","-0.7","","-6.6","","64","","","","26","","15","","24.1","","99.39","","","","-5","","Mostly Cloudy"
"-65.89","45.32","SAINT JOHN A","8104900","2012-02-06 12:00","2012","02","06","12:00","-0.2","","-6.2","","64","","","","25","","13","","24.1","","99.37","","","","-4","","Mostly Cloudy"
"-65.89","45.32","SAINT JOHN A","8104900","2012-02-06 13:00","2012","02","06","13:00","1.4","","-6.4","","56","","","","24","","26","","24.1","","99.30","","","","","","Mostly Cloudy"
"-65.89","45.32","SAINT JOHN A","8104900","2012-02-06 14:00","2012","02","06","14:00","1.8","","-5.9","","57","","","","26","","20","","24.1","","99.24","","","","","","Mostly Cloudy"
"-65.89","45.32","SAINT JOHN A","8104900","2012-02-06 15:00","2012","02","06","15:00","1.8","","-5.4","","59","","","","23","","17","","24.1","","99.17","","","","","","Mostly Cloudy"
"-65.89","45.32","SAINT JOHN A","8104900","2012-02-06 16:00","2012","02","06","16:00","2.4","","-5.4","","56","","","","25","","20","","24.1","","99.16","","","","","","Mostly Cloudy"
"-65.89","45.32","SAINT JOHN A","8104900","2012-02-06 17:00","2012","02","06","17:00","2.4","","-5.3","","57","","","","25","","13","","24.1","","99.18","","","","","","Mostly Cloudy"
"-65.89","45.32","SAINT JOHN A","8104900","2012-02-06 18:00","2012","02","06","18:00","2.3","","-4.8","","59","","","","24","","13","","24.1","","99.20","","","","","","Mostly Cloudy"
"-65.89","45.32","SAINT JOHN A","8104900","2012-02-06 19:00","2012","02","06","19:00","2.4","","-4.6","","60","","","","26","","9","","24.1","","99.22","","","","","","Mostly Cloudy"
"-65.89","45.32","SAINT JOHN A","8104900","2012-02-06 20:00","2012","02","06","20:00","2.0","","-4.8","","61","","","","27","","11","","24.1","","99.30","","","","","","Mostly Cloudy"
"-65.89","45.32","SAINT JOHN A","8104900","2012-02-06 21:00","2012","02","06","21:00","2.0","","-5.2","","59","","","","28","","11","","24.1","","99.33","","","","","","Mostly Cloudy"
"-65.89","45.32","SAINT JOHN A","8104900","2012-02-06 22:00","2012","02","06","22:00","1.8","","-5.2","","60","","","","27","","15","","24.1","","99.33","","","","","","Mostly Cloudy"
"-65.89","45.32","SAINT JOHN A","8104900","2012-02-06 23:00","2012","02","06","23:00","0.9","","-5.4","","63","","","","28","","13","","24.1","","99.35","","","","","","Mainly Clear"
"-65.89","45.32","SAINT JOHN A","8104900","2012-02-07 00:00","2012","02","07","00:00","1.1","","-5.2","","63","","","","28","","15","","24.1","","99.36","","","","","","Mostly Cloudy"
"-65.89","45.32","SAINT JOHN A","8104900","2012-02-07 01:00","2012","02","07","01:00","1.3","","-5.4","","61","","","","26","","13","","24.1","","99.37","","","","","","Mostly Cloudy"
"-65.89","45.32","SAINT JOHN A","8104900","2012-02-07 02:00","2012","02","07","02:00","1.3","","-5.4","","61","","","","27","","13","","24.1","","99.37","","","","","","Cloudy"
"-65.89","45.32","SAINT JOHN A","8104900","2012-02-07 03:00","2012","02","07","03:00","0.8","","-5.8","","61","","","","26","","15","","24.1","","99.40","","","","","","Cloudy"
"-65.89","45.32","SAINT JOHN A","8104900","2012-02-07 04:00","2012","02","07","04:00","0.0","","-6.0","","64","","","","24","","6","","24.1","","99.43","","","","-2","","Mostly Cloudy"
"-65.89","45.32","SAINT JOHN A","8104900","2012-02-07 05:00","2012","02","07","05:00","-0.4","","-6.2","","65","","","","27","","7","","24.1","","99.49","","","","-3","","Mainly Clear"
"-65.89","45.32","SAINT JOHN A","8104900","2012-02-07 06:00","2012","02","07","06:00","-2.0","","-6.8","","70","","","","26","","6","","24.1","","99.53","","","","-4","","Mainly Clear"
"-65.89","45.32","SAINT JOHN A","8104900","2012-02-07 07:00","2012","02","07","07:00","-1.6","","-6.5","","69","","","","29","","9","","24.1","","99.59","","","","-5","","Mostly Cloudy"
"-65.89","45.32","SAINT JOHN A","8104900","2012-02-07 08:00","2012","02","07","08:00","-1.7","","-6.4","","70","","","","33","","13","","24.1","","99.67","","","","-6","","Mostly Cloudy"
"-65.89","45.32","SAINT JOHN A","8104900","2012-02-07 09:00","2012","02","07","09:00","-1.3","","-8.2","","59","","","","35","","19","","24.1","","99.82","","","","-7","","Mostly Cloudy"
"-65.89","45.32","SAINT JOHN A","8104900","2012-02-07 10:00","2012","02","07","10:00","-1.3","","-8.6","","58","","","","36","","13","","24.1","","99.89","","","","-6","","Mostly Cloudy"
"-65.89","45.32","SAINT JOHN A","8104900","2012-02-07 11:00","2012","02","07","11:00","-0.7","","-9.5","","51","","","","33","","15","","24.1","","99.89","","","","-5","","Mostly Cloudy"
"-65.89","45.32","SAINT JOHN A","8104900","2012-02-07 12:00","2012","02","07","12:00","-1.0","","-9.8","","51","","","","33","","24","","24.1","","99.87","","","","-7","","Mainly Clear"
"-65.89","45.32","SAINT JOHN A","8104900","2012-02-07 13:00","2012","02","07","13:00","-0.3","","-10.5","","46","","","","31","","24","","24.1","","99.87","","","","-6","","Mainly Clear"
"-65.89","45.32","SAINT JOHN A","8104900","2012-02-07 14:00","2012","02","07","14:00","-0.9","","-10.3","","49","","","","34","","24","","24.1","","99.83","","","","-7","","Mainly Clear"
"-65.89","45.32","SAINT JOHN A","8104900","2012-02-07 15:00","2012","02","07","15:00","-1.1","","-10.2","","50","","","","33","","26","","24.1","","99.90","","","","-7","","Mainly Clear"
"-65.89","45.32","SAINT JOHN A","8104900","2012-02-07 16:00","2012","02","07","16:00","-2.0","","-11.2","","49","","","","35","","20","","24.1","","99.97","","","","-8","","Mainly Clear"
"-65.89","45.32","SAINT JOHN A","8104900","2012-02-07 17:00","2012","02","07","17:00","-2.8","","-12.0","","49","","","","35","","26","","24.1","","100.04","","","","-10","","Mainly Clear"
"-65.89","45.32","SAINT JOHN A","8104900","2012-02-07 18:00","2012","02","07","18:00","-4.4","","-13.1","","51","","","","36","","22","","24.1","","100.12","","","","-11","","Mainly Clear"
"-65.89","45.32","SAINT JOHN A","8104900","2012-02-07 19:00","2012","02","07","19:00","-5.5","","-13.7","","52","","","","35","","19","","24.1","","100.21","","","","-12","","Clear"
"-65.89","45.32","SAINT JOHN A","8104900","2012-02-07 20:00","2012","02","07","20:00","-6.6","","-14.1","","55","","","","35","","19","","24.1","","100.29","","","","-13","","Clear"
"-65.89","45.32","SAINT JOHN A","8104900","2012-02-07 21:00","2012","02","07","21:00","-7.0","","-15.4","","51","","","","35","","22","","24.1","","100.35","","","","-14","","Clear"
"-65.89","45.32","SAINT JOHN A","8104900","2012-02-07 22:00","2012","02","07","22:00","-8.1","","-16.6","","50","","","","36","","20","","24.1","","100.41","","","","-15","","Clear"
"-65.89","45.32","SAINT JOHN A","8104900","2012-02-07 23:00","2012","02","07","23:00","-9.1","","-17.3","","51","","","","35","","19","","24.1","","100.50","","","","-17","","Clear"
"-65.89","45.32","SAINT JOHN A","8104900","2012-02-08 00:00","2012","02","08","00:00","-10.4","","-17.8","","55","","","","33","","20","","24.1","","100.58","","","","-18","","Clear"
"-65.89","45.32","SAINT JOHN A","8104900","2012-02-08 01:00","2012","02","08","01:00","-11.7","","-18.2","","58","","","","32","","13","","24.1","","100.68","","","","-18","","Clear"
"-65.89","45.32","SAINT JOHN A","8104900","2012-02-08 02:00","2012","02","08","02:00","-13.1","","-19.3","","60","","","","32","","9","","24.1","","100.75","","","","-19","","Clear"
"-65.89","45.32","SAINT JOHN A","8104900","2012-02-08 03:00","2012","02","08","03:00","-12.8","","-20.1","","54","","","","32","","20","","24.1","","100.79","","","","-21","","Clear"
"-65.89","45.32","SAINT JOHN A","8104900","2012-02-08 04:00","2012","02","08","04:00","-14.7","","-21.7","","55","","","","35","","13","","24.1","","100.81","","","","-22","","Clear"
"-65.89","45.32","SAINT JOHN A","8104900","2012-02-08 05:00","2012","02","08","05:00","-15.0","","-21.9","","56","","","","33","","19","","24.1","","100.87","","","","-24","","Clear"
"-65.89","45.32","SAINT JOHN A","8104900","2012-02-08 06:00","2012","02","08","06:00","-15.4","","-22.3","","55","","","","35","","11","","24.1","","100.89","","","","-22","","Clear"
"-65.89","45.32","SAINT JOHN A","8104900","2012-02-08 07:00","2012","02","08","07:00","-17.2","","-23.5","","58","","","","34","","7","","24.1","","100.94","","","","-22","","Clear"
"-65.89","45.32","SAINT JOHN A","8104900","2012-02-08 08:00","2012","02","08","08:00","-17.4","","-23.8","","57","","","","35","","7","","24.1","","100.96","","","","-23","","Clear"
"-65.89","45.32","SAINT JOHN A","8104900","2012-02-08 09:00","2012","02","08","09:00","-15.6","","-22.3","","56","","","","","","0","","24.1","","101.00","","","","","","Clear"
"-65.89","45.32","SAINT JOHN A","8104900","2012-02-08 10:00","2012","02","08","10:00","-12.0","","-22.3","","42","","","","26","","11","","24.1","","101.05","","","","-18","","Clear"
"-65.89","45.32","SAINT JOHN A","8104900","2012-02-08 11:00","2012","02","08","11:00","-10.0","","-20.4","","42","","","","27","","15","","24.1","","101.04","","","","-17","","Clear"
"-65.89","45.32","SAINT JOHN A","8104900","2012-02-08 12:00","2012","02","08","12:00","-7.6","","-19.3","","39","","","","23","","13","","24.1","","100.95","","","","-13","","Mainly Clear"
"-65.89","45.32","SAINT JOHN A","8104900","2012-02-08 13:00","2012","02","08","13:00","-6.6","","-18.8","","37","","","","23","","19","","24.1","","100.84","","","","-13","","Mainly Clear"
"-65.89","45.32","SAINT JOHN A","8104900","2012-02-08 14:00","2012","02","08","14:00","-5.5","","-15.1","","47","","","","24","","30","","24.1","","100.75","","","","-14","","Mainly Clear"
"-65.89","45.32","SAINT JOHN A","8104900","2012-02-08 15:00","2012","02","08","15:00","-4.7","","-13.9","","49","","","","23","","28","","24.1","","100.68","","","","-12","","Mainly Clear"
"-65.89","45.32","SAINT JOHN A","8104900","2012-02-08 16:00","2012","02","08","16:00","-3.4","","-13.0","","47","","","","25","","19","","24.1","","100.60","","","","-9","","Mainly Clear"
"-65.89","45.32","SAINT JOHN A","8104900","2012-02-08 17:00","2012","02","08","17:00","-3.2","","-10.6","","57","","","","24","","22","","24.1","","100.57","","","","-10","","Mainly Clear"
"-65.89","45.32","SAINT JOHN A","8104900","2012-02-08 18:00","2012","02","08","18:00","-2.8","","-9.6","","59","","","","22","","26","","24.1","","100.53","","","","-10","","Mainly Clear"
"-65.89","45.32","SAINT JOHN A","8104900","2012-02-08 19:00","2012","02","08","19:00","-2.9","","-11.8","","50","","","","24","","19","","24.1","","100.55","","","","-9","","Mainly Clear"
"-65.89","45.32","SAINT JOHN A","8104900","2012-02-08 20:00","2012","02","08","20:00","-1.7","","-7.2","","66","","","","23","","19","","24.1","","100.53","","","","-7","","Mostly Cloudy"
"-65.89","45.32","SAINT JOHN A","8104900","2012-02-08 21:00","2012","02","08","21:00","-0.4","","-5.9","","66","","","","25","","11","","24.1","","100.52","","","","-4","","Mostly Cloudy"
"-65.89","45.32","SAINT JOHN A","8104900","2012-02-08 22:00","2012","02","08","22:00","-0.8","","-5.7","","69","","","","25","","9","","24.1","","100.47","","","","-4","","Mostly Cloudy"
"-65.89","45.32","SAINT JOHN A","8104900","2012-02-08 23:00","2012","02","08","23:00","-0.9","","-5.8","","69","","","","5","","15","","24.1","","100.45","","","","-6","","Mostly Cloudy"
"-65.89","45.32","SAINT JOHN A","8104900","2012-02-09 00:00","2012","02","09","00:00","-1.6","","-6.3","","70","","","","26","","7","","24.1","","100.44","","","","-4","","Mostly Cloudy"
"-65.89","45.32","SAINT JOHN A","8104900","2012-02-09 01:00","2012","02","09","01:00","-2.7","","-6.8","","73","","","","28","","4","","24.1","","100.38","","","","-4","","Mainly Clear"
"-65.89","45.32","SAINT JOHN A","8104900","2012-02-09 02:00","2012","02","09","02:00","-6.9","","-9.9","","79","","","","","","0","","24.1","","100.38","","","","","","Mainly Clear"
"-65.89","45.32","SAINT JOHN A","8104900","2012-02-09 03:00","2012","02","09","03:00","-6.6","","-9.7","","79","","","","","","0","","24.1","","100.33","","","","","","Mostly Cloudy"
"-65.89","45.32","SAINT JOHN A","8104900","2012-02-09 04:00","2012","02","09","04:00","-6.2","","-9.6","","77","","","","","","0","","24.1","","100.36","","","","","","Mostly Cloudy"
"-65.89","45.32","SAINT JOHN A","8104900","2012-02-09 05:00","2012","02","09","05:00","-6.6","","-9.8","","78","","","","","","0","","24.1","","100.31","","","","","","Mostly Cloudy"
"-65.89","45.32","SAINT JOHN A","8104900","2012-02-09 06:00","2012","02","09","06:00","-6.1","","-9.5","","77","","","","36","","4","","24.1","","100.27","","","","-8","","Mostly Cloudy"
"-65.89","45.32","SAINT JOHN A","8104900","2012-02-09 07:00","2012","02","09","07:00","-6.6","","-10.0","","77","","","","","","0","","24.1","","100.24","","","","","","Mostly Cloudy"
"-65.89","45.32","SAINT JOHN A","8104900","2012-02-09 08:00","2012","02","09","08:00","-6.5","","-9.7","","78","","","","","","0","","24.1","","100.24","","","","","","Mostly Cloudy"
"-65.89","45.32","SAINT JOHN A","8104900","2012-02-09 09:00","2012","02","09","09:00","-4.8","","-8.7","","74","","","","34","","6","","24.1","","100.21","","","","-8","","Cloudy"
"-65.89","45.32","SAINT JOHN A","8104900","2012-02-09 10:00","2012","02","09","10:00","-3.1","","-7.7","","70","","","","1","","6","","24.1","","100.11","","","","-6","","Cloudy"
"-65.89","45.32","SAINT JOHN A","8104900","2012-02-09 11:00","2012","02","09","11:00","-0.9","","-7.5","","61","","","","35","","4","","24.1","","100.10","","","","-2","","Mostly Cloudy"
"-65.89","45.32","SAINT JOHN A","8104900","2012-02-09 12:00","2012","02","09","12:00","0.5","","-8.5","","51","","","","36","","4","","24.1","","100.06","","","","","","Mostly Cloudy"
"-65.89","45.32","SAINT JOHN A","8104900","2012-02-09 13:00","2012","02","09","13:00","1.8","","-7.9","","49","","","","27","","4","","24.1","","99.97","","","","","","Mostly Cloudy"
"-65.89","45.32","SAINT JOHN A","8104900","2012-02-09 14:00","2012","02","09","14:00","2.6","","-5.9","","53","","","","20","","4","","24.1","","99.84","","","","","","Mostly Cloudy"
"-65.89","45.32","SAINT JOHN A","8104900","2012-02-09 15:00","2012","02","09","15:00","2.7","","-9.6","","40","","","","32","","13","","24.1","","99.77","","","","","","Mostly Cloudy"
"-65.89","45.32","SAINT JOHN A","8104900","2012-02-09 16:00","2012","02","09","16:00","2.4","","-9.9","","40","","","","33","","7","","24.1","","99.79","","","","","","Mostly Cloudy"
"-65.89","45.32","SAINT JOHN A","8104900","2012-02-09 17:00","2012","02","09","17:00","1.4","","-9.9","","43","","","","3","","7","","24.1","","99.88","","","","","","Mostly Cloudy"
"-65.89","45.32","SAINT JOHN A","8104900","2012-02-09 18:00","2012","02","09","18:00","-1.3","","-10.6","","49","","","","32","","7","","24.1","","99.94","","","","-4","","Mostly Cloudy"
"-65.89","45.32","SAINT JOHN A","8104900","2012-02-09 19:00","2012","02","09","19:00","-4.0","","-9.9","","63","","","","","","0","","24.1","","100.02","","","","","","Mainly Clear"
"-65.89","45.32","SAINT JOHN A","8104900","2012-02-09 20:00","2012","02","09","20:00","-6.6","","-11.9","","66","","","","","","0","","24.1","","100.06","","","","","","Clear"
"-65.89","45.32","SAINT JOHN A","8104900","2012-02-09 21:00","2012","02","09","21:00","-3.8","","-12.1","","52","","","","32","","15","","24.1","","100.11","","","","-9","","Mostly Cloudy"
"-65.89","45.32","SAINT JOHN A","8104900","2012-02-09 22:00","2012","02","09","22:00","-4.7","","-11.6","","58","","","","33","","19","","24.1","","100.15","","","","-11","","Mainly Clear"
"-65.89","45.32","SAINT JOHN A","8104900","2012-02-09 23:00","2012","02","09","23:00","-4.0","","-11.1","","58","","","","32","","11","","24.1","","100.15","","","","-8","","Mainly Clear"
"-65.89","45.32","SAINT JOHN A","8104900","2012-02-10 00:00","2012","02","10","00:00","-4.3","","-11.0","","60","","","","31","","13","","24.1","","100.19","","","","-9","","Mainly Clear"
"-65.89","45.32","SAINT JOHN A","8104900","2012-02-10 01:00","2012","02","10","01:00","-5.0","","-11.2","","62","","","","31","","6","","24.1","","100.25","","","","-8","","Mainly Clear"
"-65.89","45.32","SAINT JOHN A","8104900","2012-02-10 02:00","2012","02","10","02:00","-5.5","","-11.5","","63","","","","31","","13","","24.1","","100.29","","","","-11","","Mainly Clear"
"-65.89","45.32","SAINT JOHN A","8104900","2012-02-10 03:00","2012","02","10","03:00","-9.7","","-13.5","","74","","","","31","","6","","24.1","","100.34","","","","-13","","Mainly Clear"
"-65.89","45.32","SAINT JOHN A","8104900","2012-02-10 04:00","2012","02","10","04:00","-11.0","","-13.8","","80","","","","","","0","","24.1","","100.38","","","","","","Mainly Clear"
"-65.89","45.32","SAINT JOHN A","8104900","2012-02-10 05:00","2012","02","10","05:00","-12.9","","-16.0","","78","","","","","","0","","24.1","","100.47","","","","","","Mainly Clear"
"-65.89","45.32","SAINT JOHN A","8104900","2012-02-10 06:00","2012","02","10","06:00","-12.9","","-15.9","","78","","","","2","","6","","24.1","","100.46","","","","-17","","Clear"
"-65.89","45.32","SAINT JOHN A","8104900","2012-02-10 07:00","2012","02","10","07:00","-14.2","","-17.4","","77","","","","","","0","","24.1","","100.51","","","","","","Clear"
"-65.89","45.32","SAINT JOHN A","8104900","2012-02-10 08:00","2012","02","10","08:00","-14.0","","-17.0","","78","","","","","","0","","24.1","","100.56","","","","","","Clear"
"-65.89","45.32","SAINT JOHN A","8104900","2012-02-10 09:00","2012","02","10","09:00","-10.1","","-13.1","","79","","","","","","0","","24.1","","100.63","","","","","","Clear"
"-65.89","45.32","SAINT JOHN A","8104900","2012-02-10 10:00","2012","02","10","10:00","-4.3","","-10.3","","63","","","","","","0","","24.1","","100.63","","","","","","Clear"
"-65.89","45.32","SAINT JOHN A","8104900","2012-02-10 11:00","2012","02","10","11:00","0.7","","-7.4","","55","","","","22","","17","","24.1","","100.60","","","","","","Clear"
"-65.89","45.32","SAINT JOHN A","8104900","2012-02-10 12:00","2012","02","10","12:00","1.4","","-6.4","","56","","","","21","","28","","24.1","","100.57","","","","","","Clear"
"-65.89","45.32","SAINT JOHN A","8104900","2012-02-10 13:00","2012","02","10","13:00","2.3","","-5.4","","57","","","","21","","26","","24.1","","100.44","","","","","","Mainly Clear"
"-65.89","45.32","SAINT JOHN A","8104900","2012-02-10 14:00","2012","02","10","14:00","2.5","","-5.7","","55","","","","21","","26","","24.1","","100.38","","","","","","Mainly Clear"
"-65.89","45.32","SAINT JOHN A","8104900","2012-02-10 15:00","2012","02","10","15:00","3.4","","-5.2","","53","","","","19","","33","","24.1","","100.32","","","","","","Mainly Clear"
"-65.89","45.32","SAINT JOHN A","8104900","2012-02-10 16:00","2012","02","10","16:00","3.8","","-2.7","","62","","","","21","","32","","24.1","","100.30","","","","","","Mostly Cloudy"
"-65.89","45.32","SAINT JOHN A","8104900","2012-02-10 17:00","2012","02","10","17:00","3.6","","-2.0","","67","","","","20","","28","","24.1","","100.27","","","","","","Mostly Cloudy"
"-65.89","45.32","SAINT JOHN A","8104900","2012-02-10 18:00","2012","02","10","18:00","2.8","","-1.4","","74","","","","20","","26","","24.1","","100.23","","","","","","Mostly Cloudy"
"-65.89","45.32","SAINT JOHN A","8104900","2012-02-10 19:00","2012","02","10","19:00","3.2","","-1.0","","74","","","","19","","24","","24.1","","100.23","","","","","","Mostly Cloudy"
"-65.89","45.32","SAINT JOHN A","8104900","2012-02-10 20:00","2012","02","10","20:00","3.0","","-0.6","","77","","","","19","","20","","24.1","","100.17","","","","","","Mainly Clear"
"-65.89","45.32","SAINT JOHN A","8104900","2012-02-10 21:00","2012","02","10","21:00","2.7","","-0.9","","77","","","","18","","20","","24.1","","100.15","","","","","","Mainly Clear"
"-65.89","45.32","SAINT JOHN A","8104900","2012-02-10 22:00","2012","02","10","22:00","2.4","","-0.7","","80","","","","18","","17","","24.1","","100.10","","","","","","Mainly Clear"
"-65.89","45.32","SAINT JOHN A","8104900","2012-02-10 23:00","2012","02","10","23:00","2.6","","-0.5","","80","","","","20","","22","","24.1","","100.07","","","","","","Cloudy"
"-65.89","45.32","SAINT JOHN A","8104900","2012-02-11 00:00","2012","02","11","00:00","2.8","","-0.4","","79","","","","19","","22","","24.1","","100.01","","","","","","Cloudy"
"-65.89","45.32","SAINT JOHN A","8104900","2012-02-11 01:00","2012","02","11","01:00","3.2","","-0.5","","77","","","","19","","20","","24.1","","99.93","","","","","","Cloudy"
"-65.89","45.32","SAINT JOHN A","8104900","2012-02-11 02:00","2012","02","11","02:00","2.8","","-0.1","","81","","","","18","","19","","24.1","","99.86","","","","","","Cloudy"
"-65.89","45.32","SAINT JOHN A","8104900","2012-02-11 03:00","2012","02","11","03:00","3.6","","0.8","","82","","","","19","","24","","19.3","","99.78","","","","","","Cloudy"
"-65.89","45.32","SAINT JOHN A","8104900","2012-02-11 04:00","2012","02","11","04:00","3.3","","0.8","","84","","","","21","","19","","19.3","","99.75","","","","","","Cloudy"
"-65.89","45.32","SAINT JOHN A","8104900","2012-02-11 05:00","2012","02","11","05:00","3.9","","0.3","","77","","","","22","","17","","12.9","","99.73","","","","","","Rain"
"-65.89","45.32","SAINT JOHN A","8104900","2012-02-11 06:00","2012","02","11","06:00","3.3","","0.4","","81","","","","19","","19","","9.7","","99.69","","","","","","Rain,Fog"
"-65.89","45.32","SAINT JOHN A","8104900","2012-02-11 07:00","2012","02","11","07:00","2.4","","-0.4","","82","","","","23","","7","","12.9","","99.64","","","","","","Rain"
"-65.89","45.32","SAINT JOHN A","8104900","2012-02-11 08:00","2012","02","11","08:00","1.6","","-0.7","","85","","","","19","","4","","9.7","","99.65","","","","","","Rain,Fog"
"-65.89","45.32","SAINT JOHN A","8104900","2012-02-11 09:00","2012","02","11","09:00","1.3","","-1.3","","83","","","","20","","6","","4.8","","99.58","","","","","","Rain,Fog"
"-65.89","45.32","SAINT JOHN A","8104900","2012-02-11 10:00","2012","02","11","10:00","1.2","","-1.3","","83","","","","","","0","","4.0","","99.53","","","","","","Rain,Fog"
"-65.89","45.32","SAINT JOHN A","8104900","2012-02-11 11:00","2012","02","11","11:00","1.1","","-1.3","","84","","","","19","","4","","2.4","","99.47","","","","","","Rain,Snow,Fog"
"-65.89","45.32","SAINT JOHN A","8104900","2012-02-11 12:00","2012","02","11","12:00","1.1","","-1.3","","84","","","","","","0","","2.0","","99.41","","","","","","Rain,Snow,Fog"
"-65.89","45.32","SAINT JOHN A","8104900","2012-02-11 13:00","2012","02","11","13:00","0.6","","-1.6","","85","","","","1","","6","","1.6","","99.25","","","","","","Rain,Snow,Fog"
"-65.89","45.32","SAINT JOHN A","8104900","2012-02-11 14:00","2012","02","11","14:00","0.6","","-1.6","","85","","","","36","","4","","3.2","","99.15","","","","","","Rain,Snow,Fog"
"-65.89","45.32","SAINT JOHN A","8104900","2012-02-11 15:00","2012","02","11","15:00","0.4","","-1.8","","85","","","","2","","7","","1.6","","99.04","","","","","","Snow,Fog"
"-65.89","45.32","SAINT JOHN A","8104900","2012-02-11 16:00","2012","02","11","16:00","0.3","","-2.0","","85","","","","1","","11","","1.2","","98.96","","","","","","Snow"
"-65.89","45.32","SAINT JOHN A","8104900","2012-02-11 17:00","2012","02","11","17:00","0.1","","-2.2","","84","","","","1","","19","","1.2","","98.84","","","","","","Snow"
"-65.89","45.32","SAINT JOHN A","8104900","2012-02-11 18:00","2012","02","11","18:00","0.0","","-2.4","","84","","","","36","","20","","1.6","","98.76","","","","-5","","Snow"
"-65.89","45.32","SAINT JOHN A","8104900","2012-02-11 19:00","2012","02","11","19:00","-1.8","","-4.4","","82","","","","1","","28","","2.4","","98.68","","","","-9","","Snow"
"-65.89","45.32","SAINT JOHN A","8104900","2012-02-11 20:00","2012","02","11","20:00","-3.5","","-6.3","","81","","","","1","","30","","3.2","","98.57","","","","-11","","Snow"
"-65.89","45.32","SAINT JOHN A","8104900","2012-02-11 21:00","2012","02","11","21:00","-5.4","","-8.5","","79","","","","2","","43","","1.6","","98.48","","","","-15","","Snow"
"-65.89","45.32","SAINT JOHN A","8104900","2012-02-11 22:00","2012","02","11","22:00","-6.3","","-9.4","","79","","","","1","","41","","1.2","","98.27","","","","-16","","Snow"
"-65.89","45.32","SAINT JOHN A","8104900","2012-02-11 23:00","2012","02","11","23:00","-6.6","","-9.6","","79","","","","1","","48","","1.2","","98.10","","","","-17","","Snow"
"-65.89","45.32","SAINT JOHN A","8104900","2012-02-12 00:00","2012","02","12","00:00","-6.9","","-10.0","","79","","","","36","","48","","1.2","","97.97","","","","-17","","Snow"
"-65.89","45.32","SAINT JOHN A","8104900","2012-02-12 01:00","2012","02","12","01:00","-7.3","","-10.4","","78","","","","36","","43","","1.6","","97.82","","","","-17","","Snow,Blowing Snow"
"-65.89","45.32","SAINT JOHN A","8104900","2012-02-12 02:00","2012","02","12","02:00","-7.9","","-11.0","","78","","","","35","","43","","1.6","","97.74","","","","-18","","Snow,Blowing Snow"
"-65.89","45.32","SAINT JOHN A","8104900","2012-02-12 03:00","2012","02","12","03:00","-8.5","","-11.7","","78","","","","35","","41","","1.6","","97.62","","","","-19","","Snow,Blowing Snow"
"-65.89","45.32","SAINT JOHN A","8104900","2012-02-12 04:00","2012","02","12","04:00","-8.5","","-11.8","","77","","","","34","","37","","3.2","","97.52","","","","-18","","Snow"
"-65.89","45.32","SAINT JOHN A","8104900","2012-02-12 05:00","2012","02","12","05:00","-9.5","","-12.9","","76","","","","34","","35","","6.4","","97.65","","","","-20","","Snow"
"-65.89","45.32","SAINT JOHN A","8104900","2012-02-12 06:00","2012","02","12","06:00","-11.5","","-15.1","","75","","","","32","","39","","6.4","","97.81","","","","-23","","Snow"
"-65.89","45.32","SAINT JOHN A","8104900","2012-02-12 07:00","2012","02","12","07:00","-12.3","","-16.9","","69","","","","32","","30","","9.7","","98.00","","","","-23","","Snow"
"-65.89","45.32","SAINT JOHN A","8104900","2012-02-12 08:00","2012","02","12","08:00","-13.2","","-17.7","","69","","","","32","","28","","24.1","","98.09","","","","-23","","Mostly Cloudy"
"-65.89","45.32","SAINT JOHN A","8104900","2012-02-12 09:00","2012","02","12","09:00","-14.0","","-18.9","","66","","","","33","","32","","24.1","","98.08","","","","-25","","Mainly Clear"
"-65.89","45.32","SAINT JOHN A","8104900","2012-02-12 10:00","2012","02","12","10:00","-14.1","","-18.9","","67","","","","33","","35","","24.1","","98.14","","","","-26","","Mainly Clear"
"-65.89","45.32","SAINT JOHN A","8104900","2012-02-12 11:00","2012","02","12","11:00","-13.5","","-18.9","","64","","","","33","","35","","24.1","","98.35","","","","-25","","Mainly Clear"
"-65.89","45.32","SAINT JOHN A","8104900","2012-02-12 12:00","2012","02","12","12:00","-12.9","","-18.1","","65","","","","32","","33","","24.1","","98.32","","","","-24","","Mainly Clear"
"-65.89","45.32","SAINT JOHN A","8104900","2012-02-12 13:00","2012","02","12","13:00","-12.1","","-17.1","","66","","","","32","","28","","24.1","","98.26","","","","-22","","Mainly Clear"
"-65.89","45.32","SAINT JOHN A","8104900","2012-02-12 14:00","2012","02","12","14:00","-12.4","","-17.4","","66","","","","31","","37","","24.1","","98.14","","","","-24","","Mainly Clear"
"-65.89","45.32","SAINT JOHN A","8104900","2012-02-12 15:00","2012","02","12","15:00","-11.8","","-17.1","","65","","","","33","","30","","24.1","","98.20","","","","-22","","Mainly Clear"
"-65.89","45.32","SAINT JOHN A","8104900","2012-02-12 16:00","2012","02","12","16:00","-11.8","","-17.3","","64","","","","31","","35","","24.1","","98.17","","","","-23","","Mainly Clear"
"-65.89","45.32","SAINT JOHN A","8104900","2012-02-12 17:00","2012","02","12","17:00","-12.4","","-18.4","","61","","","","32","","28","","24.1","","98.21","","","","-22","","Mainly Clear"
"-65.89","45.32","SAINT JOHN A","8104900","2012-02-12 18:00","2012","02","12","18:00","-13.0","","-19.3","","59","","","","32","","28","","24.1","","98.31","","","","-23","","Mainly Clear"
"-65.89","45.32","SAINT JOHN A","8104900","2012-02-12 19:00","2012","02","12","19:00","-13.9","","-20.1","","59","","","","31","","20","","24.1","","98.47","","","","-23","","Mainly Clear"
"-65.89","45.32","SAINT JOHN A","8104900","2012-02-12 20:00","2012","02","12","20:00","-14.7","","-20.5","","61","","","","31","","15","","24.1","","98.60","","","","-23","","Mainly Clear"
"-65.89","45.32","SAINT JOHN A","8104900","2012-02-12 21:00","2012","02","12","21:00","-15.2","","-21.4","","59","","","","31","","19","","24.1","","98.71","","","","-24","","Mainly Clear"
"-65.89","45.32","SAINT JOHN A","8104900","2012-02-12 22:00","2012","02","12","22:00","-16.2","","-21.8","","62","","","","30","","17","","24.1","","98.81","","","","-25","","Mainly Clear"
"-65.89","45.32","SAINT JOHN A","8104900","2012-02-12 23:00","2012","02","12","23:00","-16.7","","-26.6","","42","","","","31","","32","","24.1","","98.91","","","","-29","","Mainly Clear"
"-65.89","45.32","SAINT JOHN A","8104900","2012-02-13 00:00","2012","02","13","00:00","-17.5","","-26.1","","47","","","","31","","24","","24.1","","98.95","","","","-28","","Mainly Clear"
"-65.89","45.32","SAINT JOHN A","8104900","2012-02-13 01:00","2012","02","13","01:00","-18.4","","-26.4","","49","","","","30","","20","","24.1","","99.03","","","","-28","","Clear"
"-65.89","45.32","SAINT JOHN A","8104900","2012-02-13 02:00","2012","02","13","02:00","-19.5","","-26.4","","54","","","","27","","11","","24.1","","99.08","","","","-27","","Clear"
"-65.89","45.32","SAINT JOHN A","8104900","2012-02-13 03:00","2012","02","13","03:00","-20.3","","-26.2","","59","","","","26","","7","","24.1","","99.10","","","","-26","","Clear"
"-65.89","45.32","SAINT JOHN A","8104900","2012-02-13 04:00","2012","02","13","04:00","-20.2","","-25.9","","60","","","","26","","7","","24.1","","99.11","","","","-26","","Clear"
"-65.89","45.32","SAINT JOHN A","8104900","2012-02-13 05:00","2012","02","13","05:00","-20.2","","-26.3","","58","","","","27","","11","","24.1","","99.16","","","","-28","","Mainly Clear"
"-65.89","45.32","SAINT JOHN A","8104900","2012-02-13 06:00","2012","02","13","06:00","-19.8","","-26.3","","56","","","","27","","17","","24.1","","99.19","","","","-29","","Mainly Clear"
"-65.89","45.32","SAINT JOHN A","8104900","2012-02-13 07:00","2012","02","13","07:00","-19.9","","-25.9","","59","","","","27","","7","","24.1","","99.22","","","","-26","","Mainly Clear"
"-65.89","45.32","SAINT JOHN A","8104900","2012-02-13 08:00","2012","02","13","08:00","-20.5","","-25.5","","64","","","","","","0","","24.1","","99.25","","","","","","Mainly Clear"
"-65.89","45.32","SAINT JOHN A","8104900","2012-02-13 09:00","2012","02","13","09:00","-17.3","","-22.7","","63","","","","","","0","","8.0","","99.26","","","","","","Fog"
"-65.89","45.32","SAINT JOHN A","8104900","2012-02-13 10:00","2012","02","13","10:00","-13.5","","-19.3","","62","","","","27","","20","","16.1","","99.24","","","","-22","","Mostly Cloudy"
"-65.89","45.32","SAINT JOHN A","8104900","2012-02-13 11:00","2012","02","13","11:00","-12.2","","-16.5","","70","","","","27","","28","","3.2","","99.25","","","","-22","","Snow Showers"
"-65.89","45.32","SAINT JOHN A","8104900","2012-02-13 12:00","2012","02","13","12:00","-10.9","","-16.6","","63","","","","29","","20","","12.9","","99.21","","","","-19","","Mostly Cloudy"
"-65.89","45.32","SAINT JOHN A","8104900","2012-02-13 13:00","2012","02","13","13:00","-11.3","","-17.0","","63","","","","31","","22","","24.1","","99.20","","","","-20","","Mostly Cloudy"
"-65.89","45.32","SAINT JOHN A","8104900","2012-02-13 14:00","2012","02","13","14:00","-10.7","","-16.7","","61","","","","30","","20","","24.1","","99.21","","","","-19","","Mainly Clear"
"-65.89","45.32","SAINT JOHN A","8104900","2012-02-13 15:00","2012","02","13","15:00","-10.1","","-17.5","","55","","","","29","","28","","24.1","","99.23","","","","-19","","Mostly Cloudy"
"-65.89","45.32","SAINT JOHN A","8104900","2012-02-13 16:00","2012","02","13","16:00","-10.2","","-17.5","","55","","","","28","","15","","24.1","","99.29","","","","-17","","Mostly Cloudy"
"-65.89","45.32","SAINT JOHN A","8104900","2012-02-13 17:00","2012","02","13","17:00","-10.0","","-17.4","","55","","","","27","","15","","24.1","","99.37","","","","-17","","Mainly Clear"
"-65.89","45.32","SAINT JOHN A","8104900","2012-02-13 18:00","2012","02","13","18:00","-11.6","","-17.9","","60","","","","24","","11","","24.1","","99.59","","","","-18","","Mainly Clear"
"-65.89","45.32","SAINT JOHN A","8104900","2012-02-13 19:00","2012","02","13","19:00","-13.5","","-18.5","","66","","","","25","","6","","24.1","","99.60","","","","-18","","Mainly Clear"
"-65.89","45.32","SAINT JOHN A","8104900","2012-02-13 20:00","2012","02","13","20:00","-12.7","","-19.8","","55","","","","27","","11","","24.1","","99.70","","","","-19","","Mainly Clear"
"-65.89","45.32","SAINT JOHN A","8104900","2012-02-13 21:00","2012","02","13","21:00","-13.8","","-20.3","","58","","","","31","","11","","24.1","","99.79","","","","-20","","Clear"
"-65.89","45.32","SAINT JOHN A","8104900","2012-02-13 22:00","2012","02","13","22:00","-14.2","","-21.4","","54","","","","28","","7","","24.1","","99.89","","","","-19","","Clear"
"-65.89","45.32","SAINT JOHN A","8104900","2012-02-13 23:00","2012","02","13","23:00","-18.8","","-21.7","","78","","","","","","0","","24.1","","99.96","","","","","","Clear"
"-65.89","45.32","SAINT JOHN A","8104900","2012-02-14 00:00","2012","02","14","00:00","-20.8","","-25.7","","65","","","","","","0","","24.1","","100.04","","","","","","Clear"
"-65.89","45.32","SAINT JOHN A","8104900","2012-02-14 01:00","2012","02","14","01:00","-21.8","","-26.6","","65","","","","","","0","","24.1","","100.14","","","","","","Clear"
"-65.89","45.32","SAINT JOHN A","8104900","2012-02-14 02:00","2012","02","14","02:00","-22.0","","-26.5","","67","","","","1","","7","","24.1","","100.16","","","","-28","","Mainly Clear"
"-65.89","45.32","SAINT JOHN A","8104900","2012-02-14 03:00","2012","02","14","03:00","-16.0","","-20.9","","66","","","","32","","9","","24.1","","100.21","","","","-22","","Mainly Clear"
"-65.89","45.32","SAINT JOHN A","8104900","2012-02-14 04:00","2012","02","14","04:00","-17.1","","-24.8","","51","","","","31","","7","","24.1","","100.34","","","","-22","","Mainly Clear"
"-65.89","45.32","SAINT JOHN A","8104900","2012-02-14 05:00","2012","02","14","05:00","-21.6","","-26.8","","63","","","","2","","7","","24.1","","100.38","","","","-28","","Mainly Clear"
"-65.89","45.32","SAINT JOHN A","8104900","2012-02-14 06:00","2012","02","14","06:00","-20.0","","-25.4","","62","","","","","","0","","24.1","","100.48","","","","","","Mainly Clear"
"-65.89","45.32","SAINT JOHN A","8104900","2012-02-14 07:00","2012","02","14","07:00","-20.5","","-25.6","","64","","","","","","0","","24.1","","100.55","","","","","","Mostly Cloudy"
"-65.89","45.32","SAINT JOHN A","8104900","2012-02-14 08:00","2012","02","14","08:00","-19.0","","-23.7","","66","","","","","","0","","24.1","","100.62","","","","","","Mostly Cloudy"
"-65.89","45.32","SAINT JOHN A","8104900","2012-02-14 09:00","2012","02","14","09:00","-16.5","","-22.0","","62","","","","36","","4","","24.1","","100.71","","","","-20","","Mostly Cloudy"
"-65.89","45.32","SAINT JOHN A","8104900","2012-02-14 10:00","2012","02","14","10:00","-12.4","","-21.4","","47","","","","6","","6","","24.1","","100.75","","","","-16","","Mostly Cloudy"
"-65.89","45.32","SAINT JOHN A","8104900","2012-02-14 11:00","2012","02","14","11:00","-10.2","","-20.5","","43","","","","33","","6","","24.1","","100.76","","","","-14","","Mostly Cloudy"
"-65.89","45.32","SAINT JOHN A","8104900","2012-02-14 12:00","2012","02","14","12:00","-7.7","","-12.1","","71","","","","35","","4","","24.1","","100.73","","","","-10","","Mostly Cloudy"
"-65.89","45.32","SAINT JOHN A","8104900","2012-02-14 13:00","2012","02","14","13:00","-5.1","","-12.8","","55","","","","15","","13","","24.1","","100.68","","","","-10","","Mostly Cloudy"
"-65.89","45.32","SAINT JOHN A","8104900","2012-02-14 14:00","2012","02","14","14:00","-4.3","","-11.6","","57","","","","15","","13","","24.1","","100.62","","","","-9","","Mostly Cloudy"
"-65.89","45.32","SAINT JOHN A","8104900","2012-02-14 15:00","2012","02","14","15:00","-3.9","","-10.3","","61","","","","14","","19","","24.1","","100.58","","","","-10","","Mostly Cloudy"
"-65.89","45.32","SAINT JOHN A","8104900","2012-02-14 16:00","2012","02","14","16:00","-3.7","","-9.3","","65","","","","11","","13","","24.1","","100.57","","","","-9","","Mostly Cloudy"
"-65.89","45.32","SAINT JOHN A","8104900","2012-02-14 17:00","2012","02","14","17:00","-3.6","","-8.2","","70","","","","11","","19","","24.1","","100.53","","","","-10","","Mostly Cloudy"
"-65.89","45.32","SAINT JOHN A","8104900","2012-02-14 18:00","2012","02","14","18:00","-3.0","","-7.2","","73","","","","11","","20","","24.1","","100.54","","","","-9","","Mostly Cloudy"
"-65.89","45.32","SAINT JOHN A","8104900","2012-02-14 19:00","2012","02","14","19:00","-2.1","","-5.5","","77","","","","11","","22","","16.1","","100.58","","","","-8","","Snow"
"-65.89","45.32","SAINT JOHN A","8104900","2012-02-14 20:00","2012","02","14","20:00","-0.8","","-3.6","","81","","","","13","","15","","16.1","","100.59","","","","-5","","Cloudy"
"-65.89","45.32","SAINT JOHN A","8104900","2012-02-14 21:00","2012","02","14","21:00","1.4","","-1.1","","83","","","","18","","19","","19.3","","100.63","","","","","","Cloudy"
"-65.89","45.32","SAINT JOHN A","8104900","2012-02-14 22:00","2012","02","14","22:00","0.0","","-3.0","","80","","","","23","","6","","24.1","","100.67","","","","-2","","Mostly Cloudy"
"-65.89","45.32","SAINT JOHN A","8104900","2012-02-14 23:00","2012","02","14","23:00","-1.8","","-3.8","","86","","","","31","","7","","24.1","","100.70","","","","-4","","Mostly Cloudy"
"-65.89","45.32","SAINT JOHN A","8104900","2012-02-15 00:00","2012","02","15","00:00","-4.0","","-6.2","","85","","","","","","0","","24.1","","100.71","","","","","","Mostly Cloudy"
"-65.89","45.32","SAINT JOHN A","8104900","2012-02-15 01:00","2012","02","15","01:00","-4.7","","-6.7","","86","","","","3","","4","","24.1","","100.76","","","","-6","","Mostly Cloudy"
"-65.89","45.32","SAINT JOHN A","8104900","2012-02-15 02:00","2012","02","15","02:00","-5.5","","-7.8","","84","","","","","","0","","24.1","","100.78","","","","","","Mostly Cloudy"
"-65.89","45.32","SAINT JOHN A","8104900","2012-02-15 03:00","2012","02","15","03:00","-6.1","","-8.5","","83","","","","6","","4","","24.1","","100.79","","","","-8","","Mostly Cloudy"
"-65.89","45.32","SAINT JOHN A","8104900","2012-02-15 04:00","2012","02","15","04:00","-6.5","","-8.9","","83","","","","1","","4","","24.1","","100.82","","","","-8","","Mostly Cloudy"
"-65.89","45.32","SAINT JOHN A","8104900","2012-02-15 05:00","2012","02","15","05:00","-6.6","","-9.1","","82","","","","5","","4","","24.1","","100.85","","","","-9","","Mostly Cloudy"
"-65.89","45.32","SAINT JOHN A","8104900","2012-02-15 06:00","2012","02","15","06:00","-8.2","","-10.5","","83","","","","2","","4","","24.1","","100.88","","","","-10","","Mainly Clear"
"-65.89","45.32","SAINT JOHN A","8104900","2012-02-15 07:00","2012","02","15","07:00","-9.7","","-12.5","","80","","","","4","","6","","24.1","","100.88","","","","-13","","Mainly Clear"
"-65.89","45.32","SAINT JOHN A","8104900","2012-02-15 08:00","2012","02","15","08:00","-9.1","","-11.8","","81","","","","1","","4","","24.1","","100.92","","","","-11","","Mostly Cloudy"
"-65.89","45.32","SAINT JOHN A","8104900","2012-02-15 09:00","2012","02","15","09:00","-7.2","","-9.5","","84","","","","36","","6","","19.3","","100.96","","","","-10","","Mostly Cloudy"
"-65.89","45.32","SAINT JOHN A","8104900","2012-02-15 10:00","2012","02","15","10:00","-2.8","","-4.7","","87","","","","34","","7","","16.1","","100.94","","","","-6","","Mostly Cloudy"
"-65.89","45.32","SAINT JOHN A","8104900","2012-02-15 11:00","2012","02","15","11:00","1.6","","0.0","","89","","","","11","","15","","8.0","","100.92","","","","","","Fog"
"-65.89","45.32","SAINT JOHN A","8104900","2012-02-15 12:00","2012","02","15","12:00","1.9","","-0.3","","85","","","","10","","7","","16.1","","100.92","","","","","","Cloudy"
"-65.89","45.32","SAINT JOHN A","8104900","2012-02-15 13:00","2012","02","15","13:00","2.5","","-0.3","","82","","","","8","","7","","19.3","","100.85","","","","","","Mostly Cloudy"
"-65.89","45.32","SAINT JOHN A","8104900","2012-02-15 14:00","2012","02","15","14:00","3.0","","-0.2","","79","","","","","","0","","19.3","","100.85","","","","","","Mostly Cloudy"
"-65.89","45.32","SAINT JOHN A","8104900","2012-02-15 15:00","2012","02","15","15:00","3.7","","-0.2","","76","","","","15","","7","","19.3","","100.83","","","","","","Mostly Cloudy"
"-65.89","45.32","SAINT JOHN A","8104900","2012-02-15 16:00","2012","02","15","16:00","3.2","","-0.1","","79","","","","14","","6","","19.3","","100.87","","","","","","Mostly Cloudy"
"-65.89","45.32","SAINT JOHN A","8104900","2012-02-15 17:00","2012","02","15","17:00","2.7","","-0.2","","81","","","","","","0","","24.1","","100.88","","","","","","Mostly Cloudy"
"-65.89","45.32","SAINT JOHN A","8104900","2012-02-15 18:00","2012","02","15","18:00","0.3","","-1.9","","85","","","","","","0","","24.1","","100.90","","","","","","Mostly Cloudy"
"-65.89","45.32","SAINT JOHN A","8104900","2012-02-15 19:00","2012","02","15","19:00","-0.1","","-2.0","","87","","","","","","0","","24.1","","100.92","","","","","","Mostly Cloudy"
"-65.89","45.32","SAINT JOHN A","8104900","2012-02-15 20:00","2012","02","15","20:00","-0.9","","-2.8","","87","","","","","","0","","24.1","","100.92","","","","","","Cloudy"
"-65.89","45.32","SAINT JOHN A","8104900","2012-02-15 21:00","2012","02","15","21:00","-0.8","","-2.7","","87","","","","","","0","","24.1","","100.93","","","","","","Cloudy"
"-65.89","45.32","SAINT JOHN A","8104900","2012-02-15 22:00","2012","02","15","22:00","-2.1","","-4.4","","84","","","","","","0","","0.8","","100.94","","","","","","Freezing Fog"
"-65.89","45.32","SAINT JOHN A","8104900","2012-02-15 23:00","2012","02","15","23:00","-3.3","","-5.4","","85","","","","36","","6","","0.8","","100.92","","","","-6","","Freezing Fog"
"-65.89","45.32","SAINT JOHN A","8104900","2012-02-16 00:00","2012","02","16","00:00","-4.0","","-6.1","","85","","","","","","0","","0.8","","100.93","","","","","","Freezing Fog"
"-65.89","45.32","SAINT JOHN A","8104900","2012-02-16 01:00","2012","02","16","01:00","-3.9","","-5.9","","86","","","","","","0","","4.8","","100.94","","","","","","Fog"
"-65.89","45.32","SAINT JOHN A","8104900","2012-02-16 02:00","2012","02","16","02:00","-2.4","","-4.4","","86","","","","","","0","","9.7","","100.96","","","","","","Fog"
"-65.89","45.32","SAINT JOHN A","8104900","2012-02-16 03:00","2012","02","16","03:00","-1.2","","-3.2","","86","","","","","","0","","9.7","","100.94","","","","","","Fog"
"-65.89","45.32","SAINT JOHN A","8104900","2012-02-16 04:00","2012","02","16","04:00","-2.8","","-4.8","","86","","","","","","0","","24.1","","100.96","","","","","","Mainly Clear"
"-65.89","45.32","SAINT JOHN A","8104900","2012-02-16 05:00","2012","02","16","05:00","-3.9","","-11.8","","54","","","","","","0","","16.1","","100.99","","","","","","Mainly Clear"
"-65.89","45.32","SAINT JOHN A","8104900","2012-02-16 06:00","2012","02","16","06:00","-4.7","","-7.0","","84","","","","","","0","","1.2","","101.01","","","","","","Fog"
"-65.89","45.32","SAINT JOHN A","8104900","2012-02-16 07:00","2012","02","16","07:00","-3.8","","-6.1","","84","","","","","","0","","1.6","","101.04","","","","","","Fog"
"-65.89","45.32","SAINT JOHN A","8104900","2012-02-16 08:00","2012","02","16","08:00","-2.5","","-4.7","","85","","","","3","","6","","1.2","","101.06","","","","-5","","Fog"
"-65.89","45.32","SAINT JOHN A","8104900","2012-02-16 09:00","2012","02","16","09:00","-2.0","","-4.1","","86","","","","3","","9","","0.6","","101.04","","","","-5","","Freezing Fog"
"-65.89","45.32","SAINT JOHN A","8104900","2012-02-16 10:00","2012","02","16","10:00","-1.7","","-3.5","","87","","","","35","","11","","3.2","","101.04","","","","-6","","Fog"
"-65.89","45.32","SAINT JOHN A","8104900","2012-02-16 11:00","2012","02","16","11:00","-0.8","","-2.8","","86","","","","36","","6","","19.3","","101.04","","","","-3","","Mostly Cloudy"
"-65.89","45.32","SAINT JOHN A","8104900","2012-02-16 12:00","2012","02","16","12:00","-0.6","","-3.1","","83","","","","36","","7","","24.1","","101.02","","","","-3","","Mostly Cloudy"
"-65.89","45.32","SAINT JOHN A","8104900","2012-02-16 13:00","2012","02","16","13:00","0.2","","-2.9","","80","","","","2","","7","","19.3","","100.96","","","","","","Mostly Cloudy"
"-65.89","45.32","SAINT JOHN A","8104900","2012-02-16 14:00","2012","02","16","14:00","1.4","","-3.0","","72","","","","36","","7","","24.1","","100.89","","","","","","Mostly Cloudy"
"-65.89","45.32","SAINT JOHN A","8104900","2012-02-16 15:00","2012","02","16","15:00","2.2","","-3.1","","68","","","","36","","13","","24.1","","100.79","","","","","","Mostly Cloudy"
"-65.89","45.32","SAINT JOHN A","8104900","2012-02-16 16:00","2012","02","16","16:00","2.4","","-3.6","","65","","","","1","","15","","24.1","","100.75","","","","","","Mostly Cloudy"
"-65.89","45.32","SAINT JOHN A","8104900","2012-02-16 17:00","2012","02","16","17:00","1.7","","-4.3","","64","","","","36","","11","","24.1","","100.75","","","","","","Mostly Cloudy"
"-65.89","45.32","SAINT JOHN A","8104900","2012-02-16 18:00","2012","02","16","18:00","1.1","","-3.8","","70","","","","4","","7","","24.1","","100.76","","","","","","Mostly Cloudy"
"-65.89","45.32","SAINT JOHN A","8104900","2012-02-16 19:00","2012","02","16","19:00","0.5","","-4.0","","72","","","","4","","7","","24.1","","100.75","","","","","","Cloudy"
"-65.89","45.32","SAINT JOHN A","8104900","2012-02-16 20:00","2012","02","16","20:00","-0.4","","-4.1","","76","","","","","","0","","24.1","","100.75","","","","","","Cloudy"
"-65.89","45.32","SAINT JOHN A","8104900","2012-02-16 21:00","2012","02","16","21:00","-1.7","","-4.3","","82","","","","","","0","","24.1","","100.77","","","","","","Mostly Cloudy"
"-65.89","45.32","SAINT JOHN A","8104900","2012-02-16 22:00","2012","02","16","22:00","-1.3","","-3.7","","84","","","","14","","9","","2.4","","100.79","","","","-5","","Fog"
"-65.89","45.32","SAINT JOHN A","8104900","2012-02-16 23:00","2012","02","16","23:00","-1.4","","-4.1","","82","","","","10","","6","","4.8","","100.74","","","","-4","","Fog"
"-65.89","45.32","SAINT JOHN A","8104900","2012-02-17 00:00","2012","02","17","00:00","-1.7","","-4.4","","82","","","","13","","6","","4.0","","100.65","","","","-4","","Fog"
"-65.89","45.32","SAINT JOHN A","8104900","2012-02-17 01:00","2012","02","17","01:00","-2.5","","-5.0","","83","","","","5","","6","","4.0","","100.58","","","","-5","","Fog"
"-65.89","45.32","SAINT JOHN A","8104900","2012-02-17 02:00","2012","02","17","02:00","-3.1","","-5.5","","83","","","","12","","6","","3.2","","100.54","","","","-6","","Fog"
"-65.89","45.32","SAINT JOHN A","8104900","2012-02-17 03:00","2012","02","17","03:00","-4.3","","-6.9","","82","","","","","","0","","0.4","","100.50","","","","","","Freezing Fog"
"-65.89","45.32","SAINT JOHN A","8104900","2012-02-17 04:00","2012","02","17","04:00","-3.0","","-5.5","","83","","","","12","","9","","1.2","","100.44","","","","-7","","Fog"
"-65.89","45.32","SAINT JOHN A","8104900","2012-02-17 05:00","2012","02","17","05:00","-2.8","","-5.2","","84","","","","9","","6","","2.4","","100.42","","","","-5","","Fog"
"-65.89","45.32","SAINT JOHN A","8104900","2012-02-17 06:00","2012","02","17","06:00","-2.9","","-5.4","","83","","","","8","","4","","3.2","","100.39","","","","-4","","Fog"
"-65.89","45.32","SAINT JOHN A","8104900","2012-02-17 07:00","2012","02","17","07:00","-2.2","","-5.0","","81","","","","10","","13","","8.0","","100.34","","","","-7","","Fog"
"-65.89","45.32","SAINT JOHN A","8104900","2012-02-17 08:00","2012","02","17","08:00","-2.4","","-5.3","","80","","","","11","","17","","16.1","","100.35","","","","-8","","Cloudy"
"-65.89","45.32","SAINT JOHN A","8104900","2012-02-17 09:00","2012","02","17","09:00","-1.8","","-4.4","","82","","","","11","","22","","6.4","","100.33","","","","-8","","Fog"
"-65.89","45.32","SAINT JOHN A","8104900","2012-02-17 10:00","2012","02","17","10:00","-1.5","","-4.1","","82","","","","12","","17","","12.9","","100.27","","","","-7","","Snow"
"-65.89","45.32","SAINT JOHN A","8104900","2012-02-17 11:00","2012","02","17","11:00","-1.1","","-4.3","","79","","","","12","","20","","12.9","","100.20","","","","-7","","Snow"
"-65.89","45.32","SAINT JOHN A","8104900","2012-02-17 12:00","2012","02","17","12:00","-0.2","","-4.3","","74","","","","13","","20","","3.2","","100.12","","","","-5","","Snow"
"-65.89","45.32","SAINT JOHN A","8104900","2012-02-17 13:00","2012","02","17","13:00","-0.7","","-4.1","","78","","","","12","","20","","2.4","","99.97","","","","-6","","Snow"
"-65.89","45.32","SAINT JOHN A","8104900","2012-02-17 14:00","2012","02","17","14:00","-0.7","","-3.7","","80","","","","12","","20","","2.4","","99.86","","","","-6","","Snow"
"-65.89","45.32","SAINT JOHN A","8104900","2012-02-17 15:00","2012","02","17","15:00","-0.6","","-3.4","","81","","","","12","","22","","2.4","","99.75","","","","-6","","Snow"
"-65.89","45.32","SAINT JOHN A","8104900","2012-02-17 16:00","2012","02","17","16:00","0.0","","-2.8","","81","","","","11","","28","","2.4","","99.69","","","","-6","","Snow"
"-65.89","45.32","SAINT JOHN A","8104900","2012-02-17 17:00","2012","02","17","17:00","0.2","","-2.2","","84","","","","12","","26","","3.2","","99.62","","","","","","Rain,Snow,Fog"
"-65.89","45.32","SAINT JOHN A","8104900","2012-02-17 18:00","2012","02","17","18:00","0.8","","-1.6","","84","","","","11","","28","","3.2","","99.58","","","","","","Rain,Fog"
"-65.89","45.32","SAINT JOHN A","8104900","2012-02-17 19:00","2012","02","17","19:00","1.4","","-0.7","","86","","","","27","","4","","3.2","","99.55","","","","","","Rain,Fog"
"-65.89","45.32","SAINT JOHN A","8104900","2012-02-17 20:00","2012","02","17","20:00","2.4","","0.4","","87","","","","23","","9","","1.6","","99.52","","","","","","Fog"
"-65.89","45.32","SAINT JOHN A","8104900","2012-02-17 21:00","2012","02","17","21:00","1.8","","0.1","","88","","","","29","","9","","8.0","","99.54","","","","","","Fog"
"-65.89","45.32","SAINT JOHN A","8104900","2012-02-17 22:00","2012","02","17","22:00","1.3","","-0.7","","87","","","","","","0","","8.0","","99.53","","","","","","Fog"
"-65.89","45.32","SAINT JOHN A","8104900","2012-02-17 23:00","2012","02","17","23:00","0.0","","-2.1","","86","","","","34","","9","","8.0","","99.49","","","","-3","","Fog"
"-65.89","45.32","SAINT JOHN A","8104900","2012-02-18 00:00","2012","02","18","00:00","-0.1","","-2.6","","83","","","","36","","13","","6.4","","99.44","","","","-4","","Fog"
"-65.89","45.32","SAINT JOHN A","8104900","2012-02-18 01:00","2012","02","18","01:00","-0.2","","-2.5","","84","","","","36","","6","","6.4","","99.40","","","","-2","","Fog"
"-65.89","45.32","SAINT JOHN A","8104900","2012-02-18 02:00","2012","02","18","02:00","-0.8","","-7.4","","61","","","","35","","6","","6.4","","99.35","","","","-3","","Fog"
"-65.89","45.32","SAINT JOHN A","8104900","2012-02-18 03:00","2012","02","18","03:00","-1.3","","-3.4","","86","","","","32","","9","","8.0","","99.31","","","","-5","","Fog"
"-65.89","45.32","SAINT JOHN A","8104900","2012-02-18 04:00","2012","02","18","04:00","-2.8","","-5.2","","84","","","","36","","6","","4.8","","99.27","","","","-5","","Fog"
"-65.89","45.32","SAINT JOHN A","8104900","2012-02-18 05:00","2012","02","18","05:00","-2.0","","-4.2","","85","","","","","","0","","3.2","","99.24","","","","","","Fog"
"-65.89","45.32","SAINT JOHN A","8104900","2012-02-18 06:00","2012","02","18","06:00","-1.8","","-4.4","","82","","","","29","","7","","9.7","","99.23","","","","-4","","Fog"
"-65.89","45.32","SAINT JOHN A","8104900","2012-02-18 07:00","2012","02","18","07:00","-2.0","","-5.1","","79","","","","27","","9","","19.3","","99.22","","","","-5","","Mostly Cloudy"
"-65.89","45.32","SAINT JOHN A","8104900","2012-02-18 08:00","2012","02","18","08:00","-2.0","","-5.1","","79","","","","28","","11","","19.3","","99.24","","","","-6","","Mostly Cloudy"
"-65.89","45.32","SAINT JOHN A","8104900","2012-02-18 09:00","2012","02","18","09:00","-1.4","","-4.5","","79","","","","28","","13","","24.1","","99.26","","","","-6","","Snow Showers"
"-65.89","45.32","SAINT JOHN A","8104900","2012-02-18 10:00","2012","02","18","10:00","-0.2","","-4.2","","74","","","","31","","17","","24.1","","99.26","","","","-5","","Mostly Cloudy"
"-65.89","45.32","SAINT JOHN A","8104900","2012-02-18 11:00","2012","02","18","11:00","0.5","","-4.2","","71","","","","30","","20","","24.1","","99.22","","","","","","Mostly Cloudy"
"-65.89","45.32","SAINT JOHN A","8104900","2012-02-18 12:00","2012","02","18","12:00","1.1","","-4.3","","67","","","","31","","24","","24.1","","99.16","","","","","","Mostly Cloudy"
"-65.89","45.32","SAINT JOHN A","8104900","2012-02-18 13:00","2012","02","18","13:00","1.7","","-4.3","","64","","","","30","","24","","24.1","","99.08","","","","","","Mostly Cloudy"
"-65.89","45.32","SAINT JOHN A","8104900","2012-02-18 14:00","2012","02","18","14:00","2.7","","-4.8","","58","","","","30","","28","","24.1","","99.01","","","","","","Mostly Cloudy"
"-65.89","45.32","SAINT JOHN A","8104900","2012-02-18 15:00","2012","02","18","15:00","1.9","","-5.3","","59","","","","29","","28","","24.1","","99.03","","","","","","Snow Showers"
"-65.89","45.32","SAINT JOHN A","8104900","2012-02-18 16:00","2012","02","18","16:00","1.6","","-4.0","","66","","","","26","","11","","24.1","","99.07","","","","","","Mostly Cloudy"
"-65.89","45.32","SAINT JOHN A","8104900","2012-02-18 17:00","2012","02","18","17:00","1.4","","-5.4","","61","","","","29","","22","","24.1","","99.10","","","","","","Mostly Cloudy"
"-65.89","45.32","SAINT JOHN A","8104900","2012-02-18 18:00","2012","02","18","18:00","1.1","","-5.4","","62","","","","28","","13","","24.1","","99.14","","","","","","Mostly Cloudy"
"-65.89","45.32","SAINT JOHN A","8104900","2012-02-18 19:00","2012","02","18","19:00","-0.1","","-6.2","","63","","","","28","","9","","24.1","","99.20","","","","-3","","Mainly Clear"
"-65.89","45.32","SAINT JOHN A","8104900","2012-02-18 20:00","2012","02","18","20:00","-0.2","","-6.2","","64","","","","27","","13","","24.1","","99.22","","","","-4","","Mostly Cloudy"
"-65.89","45.32","SAINT JOHN A","8104900","2012-02-18 21:00","2012","02","18","21:00","-0.5","","-6.9","","62","","","","28","","7","","24.1","","99.29","","","","-3","","Mostly Cloudy"
"-65.89","45.32","SAINT JOHN A","8104900","2012-02-18 22:00","2012","02","18","22:00","-0.5","","-6.4","","64","","","","28","","13","","24.1","","99.34","","","","-5","","Mostly Cloudy"
"-65.89","45.32","SAINT JOHN A","8104900","2012-02-18 23:00","2012","02","18","23:00","-0.1","","-6.7","","61","","","","29","","15","","24.1","","99.37","","","","-5","","Mostly Cloudy"
"-65.89","45.32","SAINT JOHN A","8104900","2012-02-19 00:00","2012","02","19","00:00","-0.5","","-8.2","","56","","","","30","","19","","24.1","","99.36","","","","-6","","Mostly Cloudy"
"-65.89","45.32","SAINT JOHN A","8104900","2012-02-19 01:00","2012","02","19","01:00","-1.4","","-8.7","","58","","","","30","","15","","24.1","","99.42","","","","-6","","Mainly Clear"
"-65.89","45.32","SAINT JOHN A","8104900","2012-02-19 02:00","2012","02","19","02:00","-1.5","","-9.0","","57","","","","29","","15","","24.1","","99.42","","","","-6","","Mostly Cloudy"
"-65.89","45.32","SAINT JOHN A","8104900","2012-02-19 03:00","2012","02","19","03:00","-2.0","","-8.6","","61","","","","27","","9","","24.1","","99.44","","","","-5","","Mostly Cloudy"
"-65.89","45.32","SAINT JOHN A","8104900","2012-02-19 04:00","2012","02","19","04:00","-2.0","","-8.5","","61","","","","29","","9","","24.1","","99.50","","","","-5","","Cloudy"
"-65.89","45.32","SAINT JOHN A","8104900","2012-02-19 05:00","2012","02","19","05:00","-2.1","","-8.9","","60","","","","31","","26","","24.1","","99.55","","","","-9","","Snow Showers"
"-65.89","45.32","SAINT JOHN A","8104900","2012-02-19 06:00","2012","02","19","06:00","-3.5","","-10.6","","58","","","","33","","22","","24.1","","99.56","","","","-10","","Cloudy"
"-65.89","45.32","SAINT JOHN A","8104900","2012-02-19 07:00","2012","02","19","07:00","-4.8","","-11.5","","59","","","","33","","26","","24.1","","99.61","","","","-12","","Mainly Clear"
"-65.89","45.32","SAINT JOHN A","8104900","2012-02-19 08:00","2012","02","19","08:00","-4.9","","-11.8","","58","","","","31","","28","","24.1","","99.68","","","","-13","","Mainly Clear"
"-65.89","45.32","SAINT JOHN A","8104900","2012-02-19 09:00","2012","02","19","09:00","-4.7","","-11.9","","57","","","","31","","28","","24.1","","99.71","","","","-12","","Mainly Clear"
"-65.89","45.32","SAINT JOHN A","8104900","2012-02-19 10:00","2012","02","19","10:00","-4.4","","-11.9","","56","","","","31","","37","","24.1","","99.68","","","","-13","","Mainly Clear"
"-65.89","45.32","SAINT JOHN A","8104900","2012-02-19 11:00","2012","02","19","11:00","-3.8","","-11.7","","54","","","","31","","32","","24.1","","99.65","","","","-12","","Mainly Clear"
"-65.89","45.32","SAINT JOHN A","8104900","2012-02-19 12:00","2012","02","19","12:00","-2.9","","-11.6","","51","","","","30","","26","","24.1","","99.64","","","","-10","","Clear"
"-65.89","45.32","SAINT JOHN A","8104900","2012-02-19 13:00","2012","02","19","13:00","-2.0","","-11.3","","49","","","","31","","26","","24.1","","99.60","","","","-9","","Clear"
"-65.89","45.32","SAINT JOHN A","8104900","2012-02-19 14:00","2012","02","19","14:00","-1.1","","-10.6","","48","","","","32","","30","","24.1","","99.60","","","","-8","","Mainly Clear"
"-65.89","45.32","SAINT JOHN A","8104900","2012-02-19 15:00","2012","02","19","15:00","-1.0","","-10.9","","47","","","","32","","24","","24.1","","99.62","","","","-7","","Clear"
"-65.89","45.32","SAINT JOHN A","8104900","2012-02-19 16:00","2012","02","19","16:00","-0.6","","-11.1","","45","","","","31","","32","","24.1","","99.66","","","","-7","","Mainly Clear"
"-65.89","45.32","SAINT JOHN A","8104900","2012-02-19 17:00","2012","02","19","17:00","-0.9","","-11.8","","43","","","","32","","30","","24.1","","99.69","","","","-8","","Clear"
"-65.89","45.32","SAINT JOHN A","8104900","2012-02-19 18:00","2012","02","19","18:00","-1.9","","-12.1","","46","","","","31","","17","","24.1","","99.75","","","","-7","","Clear"
"-65.89","45.32","SAINT JOHN A","8104900","2012-02-19 19:00","2012","02","19","19:00","-2.7","","-12.4","","47","","","","32","","15","","24.1","","99.79","","","","-8","","Clear"
"-65.89","45.32","SAINT JOHN A","8104900","2012-02-19 20:00","2012","02","19","20:00","-4.3","","-12.3","","54","","","","33","","11","","24.1","","99.81","","","","-9","","Clear"
"-65.89","45.32","SAINT JOHN A","8104900","2012-02-19 21:00","2012","02","19","21:00","-3.9","","-12.8","","50","","","","31","","13","","24.1","","99.87","","","","-9","","Clear"
"-65.89","45.32","SAINT JOHN A","8104900","2012-02-19 22:00","2012","02","19","22:00","-4.7","","-12.9","","53","","","","32","","15","","24.1","","99.88","","","","-10","","Clear"
"-65.89","45.32","SAINT JOHN A","8104900","2012-02-19 23:00","2012","02","19","23:00","-5.0","","-13.4","","52","","","","32","","15","","24.1","","99.89","","","","-11","","Clear"
"-65.89","45.32","SAINT JOHN A","8104900","2012-02-20 00:00","2012","02","20","00:00","-5.6","","-14.3","","50","","","","30","","11","","24.1","","99.92","","","","-10","","Clear"
"-65.89","45.32","SAINT JOHN A","8104900","2012-02-20 01:00","2012","02","20","01:00","-6.1","","-14.3","","52","","","","32","","22","","24.1","","99.93","","","","-13","","Clear"
"-65.89","45.32","SAINT JOHN A","8104900","2012-02-20 02:00","2012","02","20","02:00","-6.6","","-14.1","","55","","","","31","","24","","24.1","","99.92","","","","-14","","Clear"
"-65.89","45.32","SAINT JOHN A","8104900","2012-02-20 03:00","2012","02","20","03:00","-7.7","","-14.6","","58","","","","32","","9","","24.1","","99.92","","","","-12","","Clear"
"-65.89","45.32","SAINT JOHN A","8104900","2012-02-20 04:00","2012","02","20","04:00","-8.6","","-15.3","","58","","","","33","","22","","24.1","","99.87","","","","-16","","Clear"
"-65.89","45.32","SAINT JOHN A","8104900","2012-02-20 05:00","2012","02","20","05:00","-9.4","","-16.2","","58","","","","34","","17","","24.1","","99.91","","","","-16","","Clear"
"-65.89","45.32","SAINT JOHN A","8104900","2012-02-20 06:00","2012","02","20","06:00","-10.3","","-16.6","","60","","","","34","","17","","24.1","","99.95","","","","-18","","Clear"
"-65.89","45.32","SAINT JOHN A","8104900","2012-02-20 07:00","2012","02","20","07:00","-11.1","","-17.2","","61","","","","36","","13","","24.1","","99.98","","","","-18","","Clear"
"-65.89","45.32","SAINT JOHN A","8104900","2012-02-20 08:00","2012","02","20","08:00","-11.1","","-17.1","","61","","","","34","","20","","24.1","","99.99","","","","-19","","Clear"
"-65.89","45.32","SAINT JOHN A","8104900","2012-02-20 09:00","2012","02","20","09:00","-10.5","","-16.7","","60","","","","35","","26","","24.1","","100.02","","","","-20","","Clear"
"-65.89","45.32","SAINT JOHN A","8104900","2012-02-20 10:00","2012","02","20","10:00","-9.4","","-16.2","","58","","","","36","","22","","24.1","","100.03","","","","-17","","Clear"
"-65.89","45.32","SAINT JOHN A","8104900","2012-02-20 11:00","2012","02","20","11:00","-7.9","","-15.5","","54","","","","34","","20","","24.1","","100.05","","","","-15","","Clear"
"-65.89","45.32","SAINT JOHN A","8104900","2012-02-20 12:00","2012","02","20","12:00","-6.1","","-15.1","","49","","","","31","","17","","24.1","","100.03","","","","-12","","Clear"
"-65.89","45.32","SAINT JOHN A","8104900","2012-02-20 13:00","2012","02","20","13:00","-4.3","","-14.0","","47","","","","34","","20","","24.1","","99.96","","","","-11","","Clear"
"-65.89","45.32","SAINT JOHN A","8104900","2012-02-20 14:00","2012","02","20","14:00","-4.0","","-14.6","","43","","","","33","","35","","24.1","","99.94","","","","-12","","Clear"
"-65.89","45.32","SAINT JOHN A","8104900","2012-02-20 15:00","2012","02","20","15:00","-3.9","","-14.8","","42","","","","32","","22","","24.1","","99.95","","","","-10","","Clear"
"-65.89","45.32","SAINT JOHN A","8104900","2012-02-20 16:00","2012","02","20","16:00","-3.9","","-14.9","","42","","","","33","","28","","24.1","","99.98","","","","-11","","Clear"
"-65.89","45.32","SAINT JOHN A","8104900","2012-02-20 17:00","2012","02","20","17:00","-4.5","","-14.7","","45","","","","33","","30","","24.1","","100.06","","","","-12","","Clear"
"-65.89","45.32","SAINT JOHN A","8104900","2012-02-20 18:00","2012","02","20","18:00","-5.5","","-15.1","","47","","","","32","","28","","24.1","","100.15","","","","-13","","Clear"
"-65.89","45.32","SAINT JOHN A","8104900","2012-02-20 19:00","2012","02","20","19:00","-6.6","","-15.7","","48","","","","32","","19","","24.1","","100.26","","","","-13","","Clear"
"-65.89","45.32","SAINT JOHN A","8104900","2012-02-20 20:00","2012","02","20","20:00","-7.4","","-16.6","","48","","","","32","","19","","24.1","","100.37","","","","-14","","Clear"
"-65.89","45.32","SAINT JOHN A","8104900","2012-02-20 21:00","2012","02","20","21:00","-8.1","","-17.0","","49","","","","33","","24","","24.1","","100.46","","","","-16","","Clear"
"-65.89","45.32","SAINT JOHN A","8104900","2012-02-20 22:00","2012","02","20","22:00","-8.5","","-17.5","","48","","","","34","","28","","24.1","","100.53","","","","-17","","Clear"
"-65.89","45.32","SAINT JOHN A","8104900","2012-02-20 23:00","2012","02","20","23:00","-9.2","","-17.5","","51","","","","35","","32","","24.1","","100.56","","","","-19","","Clear"
"-65.89","45.32","SAINT JOHN A","8104900","2012-02-21 00:00","2012","02","21","00:00","-9.8","","-17.5","","53","","","","36","","9","","24.1","","100.63","","","","-15","","Clear"
"-65.89","45.32","SAINT JOHN A","8104900","2012-02-21 01:00","2012","02","21","01:00","-10.5","","-17.6","","56","","","","36","","13","","24.1","","100.69","","","","-17","","Clear"
"-65.89","45.32","SAINT JOHN A","8104900","2012-02-21 02:00","2012","02","21","02:00","-11.1","","-17.8","","58","","","","35","","13","","24.1","","100.72","","","","-18","","Clear"
"-65.89","45.32","SAINT JOHN A","8104900","2012-02-21 03:00","2012","02","21","03:00","-11.8","","-17.9","","60","","","","35","","9","","24.1","","100.79","","","","-17","","Clear"
"-65.89","45.32","SAINT JOHN A","8104900","2012-02-21 04:00","2012","02","21","04:00","-12.3","","-18.0","","62","","","","35","","11","","24.1","","100.83","","","","-18","","Clear"
"-65.89","45.32","SAINT JOHN A","8104900","2012-02-21 05:00","2012","02","21","05:00","-12.9","","-18.3","","64","","","","35","","15","","24.1","","100.88","","","","-20","","Clear"
"-65.89","45.32","SAINT JOHN A","8104900","2012-02-21 06:00","2012","02","21","06:00","-13.4","","-18.4","","66","","","","35","","11","","24.1","","100.95","","","","-20","","Clear"
"-65.89","45.32","SAINT JOHN A","8104900","2012-02-21 07:00","2012","02","21","07:00","-13.7","","-18.4","","68","","","","1","","9","","24.1","","101.00","","","","-19","","Clear"
"-65.89","45.32","SAINT JOHN A","8104900","2012-02-21 08:00","2012","02","21","08:00","-13.2","","-17.9","","68","","","","1","","11","","24.1","","101.06","","","","-19","","Clear"
"-65.89","45.32","SAINT JOHN A","8104900","2012-02-21 09:00","2012","02","21","09:00","-10.2","","-17.0","","57","","","","35","","20","","24.1","","101.07","","","","-18","","Clear"
"-65.89","45.32","SAINT JOHN A","8104900","2012-02-21 10:00","2012","02","21","10:00","-8.7","","-16.3","","54","","","","1","","11","","24.1","","101.05","","","","-14","","Mainly Clear"
"-65.89","45.32","SAINT JOHN A","8104900","2012-02-21 11:00","2012","02","21","11:00","-6.4","","-14.8","","51","","","","36","","15","","24.1","","101.01","","","","-12","","Mainly Clear"
"-65.89","45.32","SAINT JOHN A","8104900","2012-02-21 12:00","2012","02","21","12:00","-4.3","","-13.7","","48","","","","36","","9","","24.1","","100.98","","","","-8","","Mainly Clear"
"-65.89","45.32","SAINT JOHN A","8104900","2012-02-21 13:00","2012","02","21","13:00","-2.8","","-13.0","","45","","","","32","","11","","24.1","","100.88","","","","-7","","Mainly Clear"
"-65.89","45.32","SAINT JOHN A","8104900","2012-02-21 14:00","2012","02","21","14:00","-1.5","","-12.7","","42","","","","27","","7","","24.1","","100.80","","","","-4","","Mainly Clear"
"-65.89","45.32","SAINT JOHN A","8104900","2012-02-21 15:00","2012","02","21","15:00","-0.3","","-11.9","","41","","","","26","","15","","24.1","","100.69","","","","-5","","Mainly Clear"
"-65.89","45.32","SAINT JOHN A","8104900","2012-02-21 16:00","2012","02","21","16:00","-1.5","","-8.9","","57","","","","20","","19","","24.1","","100.64","","","","-7","","Mainly Clear"
"-65.89","45.32","SAINT JOHN A","8104900","2012-02-21 17:00","2012","02","21","17:00","-2.0","","-8.8","","60","","","","21","","13","","24.1","","100.61","","","","-6","","Mostly Cloudy"
"-65.89","45.32","SAINT JOHN A","8104900","2012-02-21 18:00","2012","02","21","18:00","-1.5","","-9.7","","54","","","","22","","20","","24.1","","100.61","","","","-7","","Cloudy"
"-65.89","45.32","SAINT JOHN A","8104900","2012-02-21 19:00","2012","02","21","19:00","-2.2","","-8.7","","61","","","","21","","13","","24.1","","100.61","","","","-7","","Mostly Cloudy"
"-65.89","45.32","SAINT JOHN A","8104900","2012-02-21 20:00","2012","02","21","20:00","-3.6","","-9.6","","63","","","","21","","9","","24.1","","100.51","","","","-7","","Clear"
"-65.89","45.32","SAINT JOHN A","8104900","2012-02-21 21:00","2012","02","21","21:00","-2.7","","-8.5","","64","","","","22","","13","","24.1","","100.44","","","","-7","","Clear"
"-65.89","45.32","SAINT JOHN A","8104900","2012-02-21 22:00","2012","02","21","22:00","-2.3","","-7.7","","66","","","","22","","11","","24.1","","100.38","","","","-6","","Mostly Cloudy"
"-65.89","45.32","SAINT JOHN A","8104900","2012-02-21 23:00","2012","02","21","23:00","-0.7","","-6.3","","66","","","","21","","20","","24.1","","100.27","","","","-6","","Mostly Cloudy"
"-65.89","45.32","SAINT JOHN A","8104900","2012-02-22 00:00","2012","02","22","00:00","0.5","","-5.9","","62","","","","22","","28","","24.1","","100.18","","","","","","Cloudy"
"-65.89","45.32","SAINT JOHN A","8104900","2012-02-22 01:00","2012","02","22","01:00","1.1","","-5.3","","62","","","","21","","33","","24.1","","100.06","","","","","","Cloudy"
"-65.89","45.32","SAINT JOHN A","8104900","2012-02-22 02:00","2012","02","22","02:00","1.9","","-3.6","","67","","","","21","","30","","9.7","","99.96","","","","","","Rain,Snow"
"-65.89","45.32","SAINT JOHN A","8104900","2012-02-22 03:00","2012","02","22","03:00","2.1","","-3.2","","68","","","","21","","26","","12.9","","99.86","","","","","","Rain"
"-65.89","45.32","SAINT JOHN A","8104900","2012-02-22 04:00","2012","02","22","04:00","1.4","","-1.9","","79","","","","21","","24","","9.7","","99.74","","","","","","Snow"
"-65.89","45.32","SAINT JOHN A","8104900","2012-02-22 05:00","2012","02","22","05:00","1.6","","-1.2","","82","","","","20","","20","","9.7","","99.62","","","","","","Rain,Snow"
"-65.89","45.32","SAINT JOHN A","8104900","2012-02-22 06:00","2012","02","22","06:00","1.2","","-1.7","","81","","","","18","","19","","8.0","","99.51","","","","","","Rain,Snow"
"-65.89","45.32","SAINT JOHN A","8104900","2012-02-22 07:00","2012","02","22","07:00","1.8","","-1.2","","80","","","","19","","24","","9.7","","99.41","","","","","","Rain,Fog"
"-65.89","45.32","SAINT JOHN A","8104900","2012-02-22 08:00","2012","02","22","08:00","2.1","","-0.6","","82","","","","18","","22","","4.8","","99.36","","","","","","Rain,Fog"
"-65.89","45.32","SAINT JOHN A","8104900","2012-02-22 09:00","2012","02","22","09:00","2.2","","-0.3","","84","","","","18","","11","","4.8","","99.27","","","","","","Rain,Fog"
"-65.89","45.32","SAINT JOHN A","8104900","2012-02-22 10:00","2012","02","22","10:00","2.4","","-0.1","","84","","","","17","","13","","12.9","","99.17","","","","","","Cloudy"
"-65.89","45.32","SAINT JOHN A","8104900","2012-02-22 11:00","2012","02","22","11:00","2.5","","0.4","","86","","","","19","","9","","6.4","","99.09","","","","","","Rain,Fog"
"-65.89","45.32","SAINT JOHN A","8104900","2012-02-22 12:00","2012","02","22","12:00","2.8","","0.7","","86","","","","20","","11","","6.4","","99.02","","","","","","Drizzle,Fog"
"-65.89","45.32","SAINT JOHN A","8104900","2012-02-22 13:00","2012","02","22","13:00","3.6","","1.2","","84","","","","21","","20","","6.4","","98.92","","","","","","Drizzle,Fog"
"-65.89","45.32","SAINT JOHN A","8104900","2012-02-22 14:00","2012","02","22","14:00","4.0","","0.5","","78","","","","21","","26","","24.1","","98.84","","","","","","Mostly Cloudy"
"-65.89","45.32","SAINT JOHN A","8104900","2012-02-22 15:00","2012","02","22","15:00","4.1","","1.0","","80","","","","21","","19","","19.3","","98.79","","","","","","Cloudy"
"-65.89","45.32","SAINT JOHN A","8104900","2012-02-22 16:00","2012","02","22","16:00","4.9","","1.0","","76","","","","22","","19","","24.1","","98.73","","","","","","Mostly Cloudy"
"-65.89","45.32","SAINT JOHN A","8104900","2012-02-22 17:00","2012","02","22","17:00","3.3","","0.6","","82","","","","20","","13","","16.1","","98.68","","","","","","Cloudy"
"-65.89","45.32","SAINT JOHN A","8104900","2012-02-22 18:00","2012","02","22","18:00","3.1","","0.7","","84","","","","21","","11","","16.1","","98.67","","","","","","Cloudy"
"-65.89","45.32","SAINT JOHN A","8104900","2012-02-22 19:00","2012","02","22","19:00","3.2","","0.7","","84","","","","21","","11","","16.1","","98.74","","","","","","Cloudy"
"-65.89","45.32","SAINT JOHN A","8104900","2012-02-22 20:00","2012","02","22","20:00","4.1","","1.6","","84","","","","24","","17","","4.8","","98.76","","","","","","Drizzle,Fog"
"-65.89","45.32","SAINT JOHN A","8104900","2012-02-22 21:00","2012","02","22","21:00","3.3","","1.1","","85","","","","23","","7","","3.2","","98.79","","","","","","Drizzle,Fog"
"-65.89","45.32","SAINT JOHN A","8104900","2012-02-22 22:00","2012","02","22","22:00","2.9","","0.8","","86","","","","25","","6","","1.2","","98.85","","","","","","Fog"
"-65.89","45.32","SAINT JOHN A","8104900","2012-02-22 23:00","2012","02","22","23:00","2.1","","0.1","","87","","","","28","","6","","0.6","","98.92","","","","","","Fog"
"-65.89","45.32","SAINT JOHN A","8104900","2012-02-23 00:00","2012","02","23","00:00","-0.3","","-2.9","","83","","","","17","","4","","0.6","","98.93","","","","-2","","Freezing Fog"
"-65.89","45.32","SAINT JOHN A","8104900","2012-02-23 01:00","2012","02","23","01:00","-0.2","","-2.6","","84","","","","","","0","","0.2","","98.93","","","","","","Freezing Fog"
"-65.89","45.32","SAINT JOHN A","8104900","2012-02-23 02:00","2012","02","23","02:00","-0.1","","-2.8","","82","","","","","","0","","0.2","","98.89","","","","","","Freezing Fog"
"-65.89","45.32","SAINT JOHN A","8104900","2012-02-23 03:00","2012","02","23","03:00","-0.1","","-1.8","","88","","","","20","","6","","0.2","","98.90","","","","-2","","Freezing Fog"
"-65.89","45.32","SAINT JOHN A","8104900","2012-02-23 04:00","2012","02","23","04:00","2.2","","0.0","","85","","","","16","","9","","0.8","","98.86","","","","","","Fog"
"-65.89","45.32","SAINT JOHN A","8104900","2012-02-23 05:00","2012","02","23","05:00","2.3","","0.0","","85","","","","16","","13","","9.7","","98.83","","","","","","Fog"
"-65.89","45.32","SAINT JOHN A","8104900","2012-02-23 06:00","2012","02","23","06:00","2.9","","0.2","","82","","","","16","","19","","12.9","","98.74","","","","","","Mainly Clear"
"-65.89","45.32","SAINT JOHN A","8104900","2012-02-23 07:00","2012","02","23","07:00","2.4","","-0.4","","82","","","","14","","7","","12.9","","98.71","","","","","","Mostly Cloudy"
"-65.89","45.32","SAINT JOHN A","8104900","2012-02-23 08:00","2012","02","23","08:00","1.8","","-0.8","","83","","","","13","","9","","24.1","","98.71","","","","","","Mostly Cloudy"
"-65.89","45.32","SAINT JOHN A","8104900","2012-02-23 09:00","2012","02","23","09:00","3.0","","-0.2","","79","","","","14","","13","","24.1","","98.71","","","","","","Cloudy"
"-65.89","45.32","SAINT JOHN A","8104900","2012-02-23 10:00","2012","02","23","10:00","3.7","","-0.5","","74","","","","16","","17","","24.1","","98.64","","","","","","Cloudy"
"-65.89","45.32","SAINT JOHN A","8104900","2012-02-23 11:00","2012","02","23","11:00","4.5","","-0.8","","68","","","","15","","19","","24.1","","98.57","","","","","","Cloudy"
"-65.89","45.32","SAINT JOHN A","8104900","2012-02-23 12:00","2012","02","23","12:00","5.2","","-1.5","","62","","","","16","","28","","24.1","","98.52","","","","","","Rain"
"-65.89","45.32","SAINT JOHN A","8104900","2012-02-23 13:00","2012","02","23","13:00","4.1","","-0.1","","74","","","","12","","20","","16.1","","98.32","","","","","","Rain"
"-65.89","45.32","SAINT JOHN A","8104900","2012-02-23 14:00","2012","02","23","14:00","4.3","","0.3","","75","","","","11","","15","","16.1","","98.05","","","","","","Rain"
"-65.89","45.32","SAINT JOHN A","8104900","2012-02-23 15:00","2012","02","23","15:00","3.9","","0.8","","80","","","","13","","20","","6.4","","97.94","","","","","","Rain,Fog"
"-65.89","45.32","SAINT JOHN A","8104900","2012-02-23 16:00","2012","02","23","16:00","3.9","","0.6","","79","","","","12","","13","","6.4","","97.80","","","","","","Rain,Fog"
"-65.89","45.32","SAINT JOHN A","8104900","2012-02-23 17:00","2012","02","23","17:00","3.4","","0.7","","82","","","","11","","9","","4.8","","97.79","","","","","","Rain,Fog"
"-65.89","45.32","SAINT JOHN A","8104900","2012-02-23 18:00","2012","02","23","18:00","2.9","","0.2","","82","","","","9","","9","","6.4","","97.78","","","","","","Rain,Fog"
"-65.89","45.32","SAINT JOHN A","8104900","2012-02-23 19:00","2012","02","23","19:00","2.2","","-0.6","","82","","","","33","","13","","6.4","","97.85","","","","","","Rain,Fog"
"-65.89","45.32","SAINT JOHN A","8104900","2012-02-23 20:00","2012","02","23","20:00","1.8","","-0.7","","83","","","","31","","15","","4.8","","97.91","","","","","","Rain,Fog"
"-65.89","45.32","SAINT JOHN A","8104900","2012-02-23 21:00","2012","02","23","21:00","1.4","","-1.6","","80","","","","30","","26","","4.8","","98.03","","","","","","Rain,Fog"
"-65.89","45.32","SAINT JOHN A","8104900","2012-02-23 22:00","2012","02","23","22:00","1.7","","-1.8","","78","","","","31","","33","","6.4","","98.07","","","","","","Rain,Fog"
"-65.89","45.32","SAINT JOHN A","8104900","2012-02-23 23:00","2012","02","23","23:00","1.7","","-1.9","","77","","","","30","","33","","12.9","","98.20","","","","","","Cloudy"
"-65.89","45.32","SAINT JOHN A","8104900","2012-02-24 00:00","2012","02","24","00:00","1.8","","-1.8","","77","","","","29","","32","","12.9","","98.32","","","","","","Cloudy"
"-65.89","45.32","SAINT JOHN A","8104900","2012-02-24 01:00","2012","02","24","01:00","1.4","","-2.1","","77","","","","29","","32","","16.1","","98.47","","","","","","Cloudy"
"-65.89","45.32","SAINT JOHN A","8104900","2012-02-24 02:00","2012","02","24","02:00","1.4","","-3.4","","70","","","","30","","32","","16.1","","98.64","","","","","","Cloudy"
"-65.89","45.32","SAINT JOHN A","8104900","2012-02-24 03:00","2012","02","24","03:00","0.9","","-4.8","","66","","","","31","","43","","24.1","","98.74","","","","","","Cloudy"
"-65.89","45.32","SAINT JOHN A","8104900","2012-02-24 04:00","2012","02","24","04:00","0.2","","-5.2","","67","","","","31","","33","","24.1","","98.83","","","","","","Cloudy"
"-65.89","45.32","SAINT JOHN A","8104900","2012-02-24 05:00","2012","02","24","05:00","0.2","","-5.5","","65","","","","30","","26","","24.1","","98.97","","","","","","Mainly Clear"
"-65.89","45.32","SAINT JOHN A","8104900","2012-02-24 06:00","2012","02","24","06:00","0.2","","","M","","M","","","30","","28","","24.1","","99.09","","","","","","Mainly Clear"
"-65.89","45.32","SAINT JOHN A","8104900","2012-02-24 07:00","2012","02","24","07:00","0.1","","-5.4","","66","","","","30","","19","","24.1","","99.19","","","","","","Mainly Clear"
"-65.89","45.32","SAINT JOHN A","8104900","2012-02-24 08:00","2012","02","24","08:00","0.2","","-5.6","","65","","","","31","","13","","24.1","","99.29","","","","","","Mainly Clear"
"-65.89","45.32","SAINT JOHN A","8104900","2012-02-24 09:00","2012","02","24","09:00","0.7","","-5.5","","63","","","","31","","22","","24.1","","99.37","","","","","","Mainly Clear"
"-65.89","45.32","SAINT JOHN A","8104900","2012-02-24 10:00","2012","02","24","10:00","1.4","","-5.2","","61","","","","33","","15","","24.1","","99.38","","","","","","Mostly Cloudy"
"-65.89","45.32","SAINT JOHN A","8104900","2012-02-24 11:00","2012","02","24","11:00","2.4","","-5.4","","56","","","","32","","11","","24.1","","99.40","","","","","","Mostly Cloudy"
"-65.89","45.32","SAINT JOHN A","8104900","2012-02-24 12:00","2012","02","24","12:00","3.5","","-5.5","","52","","","","32","","7","","24.1","","99.47","","","","","","Mostly Cloudy"
"-65.89","45.32","SAINT JOHN A","8104900","2012-02-24 13:00","2012","02","24","13:00","4.3","","-5.6","","49","","","","35","","6","","24.1","","99.40","","","","","","Mostly Cloudy"
"-65.89","45.32","SAINT JOHN A","8104900","2012-02-24 14:00","2012","02","24","14:00","4.8","","-4.9","","49","","","","25","","6","","24.1","","99.39","","","","","","Mostly Cloudy"
"-65.89","45.32","SAINT JOHN A","8104900","2012-02-24 15:00","2012","02","24","15:00","4.5","","-4.4","","52","","","","24","","9","","24.1","","99.39","","","","","","Mostly Cloudy"
"-65.89","45.32","SAINT JOHN A","8104900","2012-02-24 16:00","2012","02","24","16:00","3.4","","-3.1","","62","","","","21","","13","","24.1","","99.35","","","","","","Mostly Cloudy"
"-65.89","45.32","SAINT JOHN A","8104900","2012-02-24 17:00","2012","02","24","17:00","2.5","","-3.2","","66","","","","21","","11","","24.1","","99.32","","","","","","Cloudy"
"-65.89","45.32","SAINT JOHN A","8104900","2012-02-24 18:00","2012","02","24","18:00","2.1","","-3.5","","66","","","","16","","7","","24.1","","99.33","","","","","","Cloudy"
"-65.89","45.32","SAINT JOHN A","8104900","2012-02-24 19:00","2012","02","24","19:00","1.1","","-3.2","","73","","","","13","","7","","24.1","","99.27","","","","","","Mostly Cloudy"
"-65.89","45.32","SAINT JOHN A","8104900","2012-02-24 20:00","2012","02","24","20:00","1.1","","-2.9","","75","","","","11","","9","","24.1","","99.20","","","","","","Cloudy"
"-65.89","45.32","SAINT JOHN A","8104900","2012-02-24 21:00","2012","02","24","21:00","1.3","","-3.4","","71","","","","11","","9","","24.1","","99.08","","","","","","Cloudy"
"-65.89","45.32","SAINT JOHN A","8104900","2012-02-24 22:00","2012","02","24","22:00","1.6","","-4.1","","66","","","","13","","13","","24.1","","99.05","","","","","","Cloudy"
"-65.89","45.32","SAINT JOHN A","8104900","2012-02-24 23:00","2012","02","24","23:00","1.6","","-4.3","","65","","","","10","","17","","24.1","","98.85","","","","","","Cloudy"
"-65.89","45.32","SAINT JOHN A","8104900","2012-02-25 00:00","2012","02","25","00:00","1.0","","-3.3","","73","","","","13","","9","","1.6","","98.72","","","","","","Snow"
"-65.89","45.32","SAINT JOHN A","8104900","2012-02-25 01:00","2012","02","25","01:00","0.6","","-3.0","","77","","","","10","","24","","4.8","","98.32","","","","","","Rain,Snow"
"-65.89","45.32","SAINT JOHN A","8104900","2012-02-25 02:00","2012","02","25","02:00","0.8","","-3.7","","72","","","","10","","33","","9.7","","97.85","","","","","","Rain,Fog"
"-65.89","45.32","SAINT JOHN A","8104900","2012-02-25 03:00","2012","02","25","03:00","0.2","","-3.6","","76","","","","11","","46","","9.7","","97.30","","","","","","Freezing Rain,Fog"
"-65.89","45.32","SAINT JOHN A","8104900","2012-02-25 04:00","2012","02","25","04:00","0.1","","-3.3","","78","","","","10","","46","","4.8","","96.87","","","","","","Moderate Freezing Rain,Fog"
"-65.89","45.32","SAINT JOHN A","8104900","2012-02-25 05:00","2012","02","25","05:00","0.3","","-1.1","","90","","","","11","","41","","6.4","","96.57","","","","","","Freezing Rain,Fog"
"-65.89","45.32","SAINT JOHN A","8104900","2012-02-25 06:00","2012","02","25","06:00","1.1","","-0.5","","89","","","","11","","35","","8.0","","96.17","","","","","","Rain,Fog"
"-65.89","45.32","SAINT JOHN A","8104900","2012-02-25 07:00","2012","02","25","07:00","4.5","","3.2","","91","","","","20","","54","","4.0","","95.98","","","","","","Rain,Fog"
"-65.89","45.32","SAINT JOHN A","8104900","2012-02-25 08:00","2012","02","25","08:00","2.8","","1.4","","90","","","","23","","39","","24.1","","96.09","","","","","","Mostly Cloudy"
"-65.89","45.32","SAINT JOHN A","8104900","2012-02-25 09:00","2012","02","25","09:00","0.7","","-1.5","","85","","","","25","","33","","24.1","","96.42","","","","","","Cloudy"
"-65.89","45.32","SAINT JOHN A","8104900","2012-02-25 10:00","2012","02","25","10:00","0.6","","-2.4","","80","","","","25","","33","","24.1","","96.56","","","","","","Cloudy"
"-65.89","45.32","SAINT JOHN A","8104900","2012-02-25 11:00","2012","02","25","11:00","1.3","","-3.1","","72","","","","24","","26","","24.1","","96.67","","","","","","Cloudy"
"-65.89","45.32","SAINT JOHN A","8104900","2012-02-25 12:00","2012","02","25","12:00","1.4","","-2.7","","74","","","","25","","26","","16.1","","96.73","","","","","","Snow Showers"
"-65.89","45.32","SAINT JOHN A","8104900","2012-02-25 13:00","2012","02","25","13:00","1.4","","-2.9","","73","","","","25","","33","","19.3","","96.76","","","","","","Snow Showers"
"-65.89","45.32","SAINT JOHN A","8104900","2012-02-25 14:00","2012","02","25","14:00","2.4","","-3.1","","67","","","","25","","28","","24.1","","96.79","","","","","","Cloudy"
"-65.89","45.32","SAINT JOHN A","8104900","2012-02-25 15:00","2012","02","25","15:00","2.5","","-2.9","","67","","","","26","","33","","19.3","","96.85","","","","","","Snow Showers"
"-65.89","45.32","SAINT JOHN A","8104900","2012-02-25 16:00","2012","02","25","16:00","0.2","","-1.6","","88","","","","27","","19","","1.2","","96.94","","","","","","Snow Showers"
"-65.89","45.32","SAINT JOHN A","8104900","2012-02-25 17:00","2012","02","25","17:00","0.7","","-1.9","","83","","","","25","","19","","19.3","","96.97","","","","","","Snow Showers"
"-65.89","45.32","SAINT JOHN A","8104900","2012-02-25 18:00","2012","02","25","18:00","0.9","","-2.4","","79","","","","27","","26","","1.6","","97.06","","","","","","Snow Showers"
"-65.89","45.32","SAINT JOHN A","8104900","2012-02-25 19:00","2012","02","25","19:00","0.7","","-2.6","","79","","","","26","","26","","9.7","","97.15","","","","","","Snow Showers"
"-65.89","45.32","SAINT JOHN A","8104900","2012-02-25 20:00","2012","02","25","20:00","0.6","","-3.2","","76","","","","26","","20","","24.1","","97.23","","","","","","Mostly Cloudy"
"-65.89","45.32","SAINT JOHN A","8104900","2012-02-25 21:00","2012","02","25","21:00","-0.2","","-4.9","","71","","","","30","","33","","16.1","","97.43","","","","-7","","Snow Showers"
"-65.89","45.32","SAINT JOHN A","8104900","2012-02-25 22:00","2012","02","25","22:00","-0.7","","-5.2","","72","","","","29","","20","","19.3","","97.60","","","","-6","","Cloudy"
"-65.89","45.32","SAINT JOHN A","8104900","2012-02-25 23:00","2012","02","25","23:00","-1.0","","-5.4","","72","","","","28","","13","","19.3","","97.73","","","","-5","","Cloudy"
"-65.89","45.32","SAINT JOHN A","8104900","2012-02-26 00:00","2012","02","26","00:00","-0.7","","-4.9","","73","","","","27","","19","","19.3","","97.83","","","","-6","","Cloudy"
"-65.89","45.32","SAINT JOHN A","8104900","2012-02-26 01:00","2012","02","26","01:00","-0.5","","-4.7","","73","","","","27","","20","","9.7","","97.92","","","","-6","","Snow Showers"
"-65.89","45.32","SAINT JOHN A","8104900","2012-02-26 02:00","2012","02","26","02:00","-0.1","","-4.7","","71","","","","28","","20","","16.1","","98.02","","","","-5","","Snow Showers"
"-65.89","45.32","SAINT JOHN A","8104900","2012-02-26 03:00","2012","02","26","03:00","0.2","","-5.0","","68","","","","28","","20","","19.3","","98.13","","","","","","Snow Showers"
"-65.89","45.32","SAINT JOHN A","8104900","2012-02-26 04:00","2012","02","26","04:00","0.6","","-5.9","","62","","","","31","","32","","19.3","","98.28","","","","","","Snow Showers"
"-65.89","45.32","SAINT JOHN A","8104900","2012-02-26 05:00","2012","02","26","05:00","0.4","","-5.6","","64","","","","30","","30","","19.3","","98.45","","","","","","Snow Showers"
"-65.89","45.32","SAINT JOHN A","8104900","2012-02-26 06:00","2012","02","26","06:00","-0.4","","-7.7","","58","","","","31","","54","","19.3","","98.64","","","","-9","","Snow Showers"
"-65.89","45.32","SAINT JOHN A","8104900","2012-02-26 07:00","2012","02","26","07:00","-1.5","","-8.8","","57","","","","31","","44","","19.3","","98.86","","","","-10","","Snow Showers"
"-65.89","45.32","SAINT JOHN A","8104900","2012-02-26 08:00","2012","02","26","08:00","-2.1","","-8.9","","60","","","","31","","35","","24.1","","99.11","","","","-10","","Cloudy"
"-65.89","45.32","SAINT JOHN A","8104900","2012-02-26 09:00","2012","02","26","09:00","-2.7","","-9.8","","58","","","","32","","28","","24.1","","99.30","","","","-10","","Mostly Cloudy"
"-65.89","45.32","SAINT JOHN A","8104900","2012-02-26 10:00","2012","02","26","10:00","-2.9","","-10.2","","57","","","","33","","44","","24.1","","99.42","","","","-12","","Mostly Cloudy"
"-65.89","45.32","SAINT JOHN A","8104900","2012-02-26 11:00","2012","02","26","11:00","-3.0","","-10.9","","54","","","","32","","41","","24.1","","99.53","","","","-11","","Mostly Cloudy"
"-65.89","45.32","SAINT JOHN A","8104900","2012-02-26 12:00","2012","02","26","12:00","-3.0","","-10.9","","54","","","","32","","41","","24.1","","99.67","","","","-11","","Mainly Clear"
"-65.89","45.32","SAINT JOHN A","8104900","2012-02-26 13:00","2012","02","26","13:00","-2.7","","-11.3","","52","","","","30","","41","","24.1","","99.73","","","","-11","","Mainly Clear"
"-65.89","45.32","SAINT JOHN A","8104900","2012-02-26 14:00","2012","02","26","14:00","-2.4","","-11.0","","52","","","","32","","44","","24.1","","99.83","","","","-11","","Mostly Cloudy"
"-65.89","45.32","SAINT JOHN A","8104900","2012-02-26 15:00","2012","02","26","15:00","-1.9","","-11.3","","49","","","","31","","41","","24.1","","99.94","","","","-10","","Mainly Clear"
"-65.89","45.32","SAINT JOHN A","8104900","2012-02-26 16:00","2012","02","26","16:00","-1.6","","-10.6","","50","","","","32","","37","","24.1","","100.08","","","","-9","","Mainly Clear"
"-65.89","45.32","SAINT JOHN A","8104900","2012-02-26 17:00","2012","02","26","17:00","-2.1","","-11.7","","48","","","","32","","39","","24.1","","100.24","","","","-10","","Mainly Clear"
"-65.89","45.32","SAINT JOHN A","8104900","2012-02-26 18:00","2012","02","26","18:00","-3.1","","-13.0","","46","","","","31","","43","","24.1","","100.45","","","","-12","","Mainly Clear"
"-65.89","45.32","SAINT JOHN A","8104900","2012-02-26 19:00","2012","02","26","19:00","-3.8","","-13.3","","48","","","","32","","26","","24.1","","100.64","","","","-11","","Clear"
"-65.89","45.32","SAINT JOHN A","8104900","2012-02-26 20:00","2012","02","26","20:00","-3.9","","-13.6","","47","","","","31","","30","","24.1","","100.76","","","","-12","","Clear"
"-65.89","45.32","SAINT JOHN A","8104900","2012-02-26 21:00","2012","02","26","21:00","-4.5","","-14.0","","47","","","","32","","24","","24.1","","100.87","","","","-12","","Clear"
"-65.89","45.32","SAINT JOHN A","8104900","2012-02-26 22:00","2012","02","26","22:00","-5.1","","-14.1","","49","","","","31","","28","","24.1","","101.03","","","","-13","","Clear"
"-65.89","45.32","SAINT JOHN A","8104900","2012-02-26 23:00","2012","02","26","23:00","-6.4","","-14.5","","53","","","","30","","30","","24.1","","101.06","","","","-15","","Clear"
"-65.89","45.32","SAINT JOHN A","8104900","2012-02-27 00:00","2012","02","27","00:00","-7.1","","-14.9","","54","","","","32","","32","","24.1","","101.09","","","","-16","","Clear"
"-65.89","45.32","SAINT JOHN A","8104900","2012-02-27 01:00","2012","02","27","01:00","-8.1","","-15.2","","57","","","","31","","32","","24.1","","101.18","","","","-17","","Mainly Clear"
"-65.89","45.32","SAINT JOHN A","8104900","2012-02-27 02:00","2012","02","27","02:00","-8.8","","-15.5","","58","","","","32","","26","","24.1","","101.27","","","","-17","","Mainly Clear"
"-65.89","45.32","SAINT JOHN A","8104900","2012-02-27 03:00","2012","02","27","03:00","-9.5","","-16.6","","56","","","","32","","32","","24.1","","101.26","","","","-19","","Mainly Clear"
"-65.89","45.32","SAINT JOHN A","8104900","2012-02-27 04:00","2012","02","27","04:00","-10.3","","-18.1","","53","","","","32","","32","","24.1","","101.35","","","","-20","","Clear"
"-65.89","45.32","SAINT JOHN A","8104900","2012-02-27 05:00","2012","02","27","05:00","-11.3","","-18.6","","55","","","","33","","26","","24.1","","101.45","","","","-21","","Clear"
"-65.89","45.32","SAINT JOHN A","8104900","2012-02-27 06:00","2012","02","27","06:00","-11.8","","-19.6","","52","","","","33","","33","","24.1","","101.49","","","","-22","","Mainly Clear"
"-65.89","45.32","SAINT JOHN A","8104900","2012-02-27 07:00","2012","02","27","07:00","-12.4","","-19.6","","55","","","","33","","22","","24.1","","101.55","","","","-21","","Mainly Clear"
"-65.89","45.32","SAINT JOHN A","8104900","2012-02-27 08:00","2012","02","27","08:00","-12.6","","-19.2","","58","","","","34","","19","","24.1","","101.61","","","","-21","","Mostly Cloudy"
"-65.89","45.32","SAINT JOHN A","8104900","2012-02-27 09:00","2012","02","27","09:00","-11.7","","-19.7","","51","","","","34","","19","","24.1","","101.61","","","","-20","","Mostly Cloudy"
"-65.89","45.32","SAINT JOHN A","8104900","2012-02-27 10:00","2012","02","27","10:00","-10.5","","-19.2","","49","","","","32","","15","","24.1","","101.63","","","","-17","","Mostly Cloudy"
"-65.89","45.32","SAINT JOHN A","8104900","2012-02-27 11:00","2012","02","27","11:00","-9.3","","-19.3","","44","","","","35","","17","","24.1","","101.58","","","","-16","","Mostly Cloudy"
"-65.89","45.32","SAINT JOHN A","8104900","2012-02-27 12:00","2012","02","27","12:00","-8.5","","-19.5","","41","","","","31","","11","","24.1","","101.58","","","","-14","","Mostly Cloudy"
"-65.89","45.32","SAINT JOHN A","8104900","2012-02-27 13:00","2012","02","27","13:00","-8.1","","-20.4","","36","","","","31","","6","","24.1","","101.46","","","","-11","","Mostly Cloudy"
"-65.89","45.32","SAINT JOHN A","8104900","2012-02-27 14:00","2012","02","27","14:00","-7.2","","-18.3","","41","","","","27","","13","","24.1","","101.44","","","","-13","","Mostly Cloudy"
"-65.89","45.32","SAINT JOHN A","8104900","2012-02-27 15:00","2012","02","27","15:00","-6.8","","-18.0","","40","","","","27","","13","","24.1","","101.37","","","","-12","","Mostly Cloudy"
"-65.89","45.32","SAINT JOHN A","8104900","2012-02-27 16:00","2012","02","27","16:00","-6.6","","-17.6","","41","","","","23","","7","","24.1","","101.31","","","","-10","","Cloudy"
"-65.89","45.32","SAINT JOHN A","8104900","2012-02-27 17:00","2012","02","27","17:00","-6.3","","-16.8","","43","","","","20","","9","","24.1","","101.23","","","","-11","","Cloudy"
"-65.89","45.32","SAINT JOHN A","8104900","2012-02-27 18:00","2012","02","27","18:00","-6.2","","-14.8","","51","","","","16","","7","","24.1","","101.17","","","","-10","","Cloudy"
"-65.89","45.32","SAINT JOHN A","8104900","2012-02-27 19:00","2012","02","27","19:00","-7.4","","-10.9","","76","","","","","","0","","3.2","","101.16","","","","","","Snow"
"-65.89","45.32","SAINT JOHN A","8104900","2012-02-27 20:00","2012","02","27","20:00","-7.3","","-10.7","","77","","","","8","","7","","3.2","","101.06","","","","-11","","Snow"
"-65.89","45.32","SAINT JOHN A","8104900","2012-02-27 21:00","2012","02","27","21:00","-7.2","","-10.5","","77","","","","8","","7","","3.2","","100.92","","","","-11","","Snow"
"-65.89","45.32","SAINT JOHN A","8104900","2012-02-27 22:00","2012","02","27","22:00","-6.5","","-9.8","","77","","","","9","","17","","4.8","","100.79","","","","-13","","Snow"
"-65.89","45.32","SAINT JOHN A","8104900","2012-02-27 23:00","2012","02","27","23:00","-5.8","","-9.0","","78","","","","10","","11","","1.6","","100.68","","","","-11","","Snow"
"-65.89","45.32","SAINT JOHN A","8104900","2012-02-28 00:00","2012","02","28","00:00","-4.7","","-7.8","","79","","","","13","","17","","1.6","","100.52","","","","-11","","Snow"
"-65.89","45.32","SAINT JOHN A","8104900","2012-02-28 01:00","2012","02","28","01:00","-3.8","","-6.7","","80","","","","12","","20","","2.4","","100.36","","","","-10","","Snow"
"-65.89","45.32","SAINT JOHN A","8104900","2012-02-28 02:00","2012","02","28","02:00","-3.6","","-6.6","","80","","","","10","","19","","3.2","","100.25","","","","-10","","Snow"
"-65.89","45.32","SAINT JOHN A","8104900","2012-02-28 03:00","2012","02","28","03:00","-3.5","","-6.4","","80","","","","11","","11","","1.6","","100.14","","","","-8","","Snow"
"-65.89","45.32","SAINT JOHN A","8104900","2012-02-28 04:00","2012","02","28","04:00","-3.3","","-6.3","","80","","","","9","","9","","3.2","","100.05","","","","-7","","Snow"
"-65.89","45.32","SAINT JOHN A","8104900","2012-02-28 05:00","2012","02","28","05:00","-3.4","","-6.4","","80","","","","6","","11","","6.4","","100.01","","","","-8","","Snow"
"-65.89","45.32","SAINT JOHN A","8104900","2012-02-28 06:00","2012","02","28","06:00","-5.3","","-8.3","","79","","","","1","","15","","8.0","","100.02","","","","-11","","Snow"
"-65.89","45.32","SAINT JOHN A","8104900","2012-02-28 07:00","2012","02","28","07:00","-6.5","","-9.7","","78","","","","1","","19","","24.1","","100.02","","","","-13","","Snow"
"-65.89","45.32","SAINT JOHN A","8104900","2012-02-28 08:00","2012","02","28","08:00","-6.7","","-9.9","","78","","","","34","","19","","24.1","","100.15","","","","-14","","Cloudy"
"-65.89","45.32","SAINT JOHN A","8104900","2012-02-28 09:00","2012","02","28","09:00","-6.4","","-10.1","","75","","","","36","","28","","24.1","","100.20","","","","-15","","Cloudy"
"-65.89","45.32","SAINT JOHN A","8104900","2012-02-28 10:00","2012","02","28","10:00","-6.4","","-10.0","","76","","","","35","","26","","16.1","","100.25","","","","-14","","Snow"
"-65.89","45.32","SAINT JOHN A","8104900","2012-02-28 11:00","2012","02","28","11:00","-5.9","","-10.2","","72","","","","35","","32","","24.1","","100.35","","","","-14","","Cloudy"
"-65.89","45.32","SAINT JOHN A","8104900","2012-02-28 12:00","2012","02","28","12:00","-5.2","","-9.9","","70","","","","1","","37","","24.1","","100.43","","","","-14","","Cloudy"
"-65.89","45.32","SAINT JOHN A","8104900","2012-02-28 13:00","2012","02","28","13:00","-4.7","","-9.5","","69","","","","1","","30","","24.1","","100.52","","","","-13","","Cloudy"
"-65.89","45.32","SAINT JOHN A","8104900","2012-02-28 14:00","2012","02","28","14:00","-4.9","","-9.9","","68","","","","36","","28","","24.1","","100.64","","","","-13","","Cloudy"
"-65.89","45.32","SAINT JOHN A","8104900","2012-02-28 15:00","2012","02","28","15:00","-5.2","","-9.8","","70","","","","34","","33","","11.3","","100.75","","","","-14","","Snow"
"-65.89","45.32","SAINT JOHN A","8104900","2012-02-28 16:00","2012","02","28","16:00","-5.1","","-10.6","","65","","","","36","","20","","16.1","","100.84","","","","-12","","Snow"
"-65.89","45.32","SAINT JOHN A","8104900","2012-02-28 17:00","2012","02","28","17:00","-5.4","","-11.6","","62","","","","1","","24","","24.1","","100.92","","","","-13","","Mostly Cloudy"
"-65.89","45.32","SAINT JOHN A","8104900","2012-02-28 18:00","2012","02","28","18:00","-6.5","","-11.7","","67","","","","36","","13","","24.1","","101.04","","","","-12","","Mainly Clear"
"-65.89","45.32","SAINT JOHN A","8104900","2012-02-28 19:00","2012","02","28","19:00","-8.7","","-13.1","","70","","","","34","","9","","24.1","","101.14","","","","-13","","Mainly Clear"
"-65.89","45.32","SAINT JOHN A","8104900","2012-02-28 20:00","2012","02","28","20:00","-9.0","","-13.4","","70","","","","34","","13","","24.1","","101.20","","","","-15","","Mainly Clear"
"-65.89","45.32","SAINT JOHN A","8104900","2012-02-28 21:00","2012","02","28","21:00","-8.7","","-12.7","","73","","","","32","","7","","24.1","","101.29","","","","-13","","Mainly Clear"
"-65.89","45.32","SAINT JOHN A","8104900","2012-02-28 22:00","2012","02","28","22:00","-12.7","","-15.7","","78","","","","","","0","","24.1","","101.33","","","","","","Mainly Clear"
"-65.89","45.32","SAINT JOHN A","8104900","2012-02-28 23:00","2012","02","28","23:00","-12.6","","-15.5","","79","","","","","","0","","24.1","","101.36","","","","","","Mostly Cloudy"
"-65.89","45.32","SAINT JOHN A","8104900","2012-02-29 00:00","2012","02","29","00:00","-13.3","","-16.5","","77","","","","","","0","","24.1","","101.33","","","","","","Mostly Cloudy"
"-65.89","45.32","SAINT JOHN A","8104900","2012-02-29 01:00","2012","02","29","01:00","-14.2","","-17.0","","79","","","","","","0","","24.1","","101.32","","","","","","Mainly Clear"
"-65.89","45.32","SAINT JOHN A","8104900","2012-02-29 02:00","2012","02","29","02:00","-17.1","","-19.9","","79","","","","","","0","","24.1","","101.33","","","","","","Clear"
"-65.89","45.32","SAINT JOHN A","8104900","2012-02-29 03:00","2012","02","29","03:00","-18.1","","-21.2","","77","","","","","","0","","24.1","","101.35","","","","","","Clear"
"-65.89","45.32","SAINT JOHN A","8104900","2012-02-29 04:00","2012","02","29","04:00","-18.0","","-20.9","","78","","","","","","0","","24.1","","101.34","","","","","","Mainly Clear"
"-65.89","45.32","SAINT JOHN A","8104900","2012-02-29 05:00","2012","02","29","05:00","-18.1","","-21.1","","77","","","","","","0","","24.1","","101.32","","","","","","Clear"
"-65.89","45.32","SAINT JOHN A","8104900","2012-02-29 06:00","2012","02","29","06:00","-18.9","","-21.9","","77","","","","","","0","","24.1","","101.32","","","","","","Mainly Clear"
"-65.89","45.32","SAINT JOHN A","8104900","2012-02-29 07:00","2012","02","29","07:00","-17.6","","-20.4","","79","","","","","","0","","24.1","","101.36","","","","","","Mostly Cloudy"
"-65.89","45.32","SAINT JOHN A","8104900","2012-02-29 08:00","2012","02","29","08:00","-17.4","","-20.5","","77","","","","","","0","","24.1","","101.33","","","","","","Mainly Clear"
"-65.89","45.32","SAINT JOHN A","8104900","2012-02-29 09:00","2012","02","29","09:00","-12.5","","-14.5","","85","","","","","","0","","24.1","","101.32","","","","","","Mainly Clear"
"-65.89","45.32","SAINT JOHN A","8104900","2012-02-29 10:00","2012","02","29","10:00","-7.7","","-11.3","","75","","","","28","","15","","24.1","","101.26","","","","-14","","Mainly Clear"
"-65.89","45.32","SAINT JOHN A","8104900","2012-02-29 11:00","2012","02","29","11:00","-5.9","","-12.4","","60","","","","31","","20","","24.1","","101.24","","","","-13","","Mainly Clear"
"-65.89","45.32","SAINT JOHN A","8104900","2012-02-29 12:00","2012","02","29","12:00","-4.9","","-12.4","","56","","","","29","","17","","24.1","","101.20","","","","-11","","Mostly Cloudy"
"-65.89","45.32","SAINT JOHN A","8104900","2012-02-29 13:00","2012","02","29","13:00","-3.2","","-11.9","","51","","","","28","","19","","24.1","","101.10","","","","-9","","Mostly Cloudy"
"-65.89","45.32","SAINT JOHN A","8104900","2012-02-29 14:00","2012","02","29","14:00","-3.2","","-12.6","","48","","","","27","","19","","24.1","","101.07","","","","-9","","Mostly Cloudy"
"-65.89","45.32","SAINT JOHN A","8104900","2012-02-29 15:00","2012","02","29","15:00","-2.7","","-12.4","","47","","","","27","","15","","24.1","","101.00","","","","-8","","Mostly Cloudy"
"-65.89","45.32","SAINT JOHN A","8104900","2012-02-29 16:00","2012","02","29","16:00","-2.4","","-12.6","","45","","","","30","","13","","24.1","","100.95","","","","-7","","Mostly Cloudy"
"-65.89","45.32","SAINT JOHN A","8104900","2012-02-29 17:00","2012","02","29","17:00","-3.2","","-12.4","","49","","","","35","","13","","24.1","","100.96","","","","-8","","Mostly Cloudy"
"-65.89","45.32","SAINT JOHN A","8104900","2012-02-29 18:00","2012","02","29","18:00","-4.5","","-13.1","","51","","","","36","","17","","24.1","","101.01","","","","-10","","Mostly Cloudy"
"-65.89","45.32","SAINT JOHN A","8104900","2012-02-29 19:00","2012","02","29","19:00","-6.6","","-14.1","","55","","","","36","","17","","24.1","","101.10","","","","-13","","Mostly Cloudy"
"-65.89","45.32","SAINT JOHN A","8104900","2012-02-29 20:00","2012","02","29","20:00","-9.1","","-14.0","","68","","","","4","","4","","24.1","","101.15","","","","-11","","Mostly Cloudy"
"-65.89","45.32","SAINT JOHN A","8104900","2012-02-29 21:00","2012","02","29","21:00","-9.2","","-14.6","","65","","","","1","","13","","24.1","","101.11","","","","-15","","Mainly Clear"
"-65.89","45.32","SAINT JOHN A","8104900","2012-02-29 22:00","2012","02","29","22:00","-8.8","","-15.0","","61","","","","2","","13","","24.1","","101.08","","","","-15","","Mainly Clear"
"-65.89","45.32","SAINT JOHN A","8104900","2012-02-29 23:00","2012","02","29","23:00","-8.9","","-15.3","","60","","","","1","","15","","24.1","","101.11","","","","-15","","Clear"
