"Longitude (x)","Latitude (y)","Station Name","Climate ID","Date/Time (LST)","Year","Month","Day","Time (LST)","Temp (°C)","Temp Flag","Dew Point Temp (°C)","Dew Point Temp Flag","Rel Hum (%)","Rel Hum Flag","Precip. Amount (mm)","Precip. Amount Flag","Wind Dir (10s deg)","Wind Dir Flag","Wind Spd (km/h)","Wind Spd Flag","Visibility (km)","Visibility Flag","Stn Press (kPa)","Stn Press Flag","Hmdx","Hmdx Flag","Wind Chill","Wind Chill Flag","Weather"
"-79.03","69.08","ROWLEY ISLAND","2403625","2019-04-01 00:00","2019","04","01","00:00","-20.4","","-22.4","","84","","","","6","","13","","","M","100.28","","","","-29","","NA"
"-79.03","69.08","ROWLEY ISLAND","2403625","2019-04-01 01:00","2019","04","01","01:00","-20.4","","-22.4","","84","","","","6","","15","","","M","100.27","","","","-30","","NA"
"-79.03","69.08","ROWLEY ISLAND","2403625","2019-04-01 02:00","2019","04","01","02:00","-20.3","","-22.3","","84","","","","7","","11","","","M","100.28","","","","-28","","NA"
"-79.03","69.08","ROWLEY ISLAND","2403625","2019-04-01 03:00","2019","04","01","03:00","-22.0","","-24.3","","81","","","","6","","17","","","M","100.28","","","","-32","","NA"
"-79.03","69.08","ROWLEY ISLAND","2403625","2019-04-01 04:00","2019","04","01","04:00","-23.5","","-25.7","","82","","","","7","","24","","","M","100.29","","","","-36","","NA"
"-79.03","69.08","ROWLEY ISLAND","2403625","2019-04-01 05:00","2019","04","01","05:00","-20.4","","-22.4","","84","","","","5","","15","","","M","100.29","","","","-30","","NA"
"-79.03","69.08","ROWLEY ISLAND","2403625","2019-04-01 06:00","2019","04","01","06:00","-19.0","","-21.2","","83","","","","6","","24","","","M","100.29","","","","-30","","NA"
"-79.03","69.08","ROWLEY ISLAND","2403625","2019-04-01 07:00","2019","04","01","07:00","-18.7","","-20.9","","83","","","","7","","18","","","M","100.29","","","","-28","","NA"
"-79.03","69.08","ROWLEY ISLAND","2403625","2019-04-01 08:00","2019","04","01","08:00","-17.6","","-19.9","","82","","","","7","","17","","","M","100.27","","","","-27","","NA"
"-79.03","69.08","ROWLEY ISLAND","2403625","2019-04-01 09:00","2019","04","01","09:00","-18.3","","-20.9","","80","","","","7","","13","","","M","100.27","","","","-26","","NA"
"-79.03","69.08","ROWLEY ISLAND","2403625","2019-04-01 10:00","2019","04","01","10:00","-16.6","","-19.3","","80","","","","7","","11","","","M","100.27","","","","-24","","NA"
"-79.03","69.08","ROWLEY ISLAND","2403625","2019-04-01 11:00","2019","04","01","11:00","-14.6","","-18.0","","75","","","","7","","13","","","M","100.26","","","","-22","","NA"
"-79.03","69.08","ROWLEY ISLAND","2403625","2019-04-01 12:00","2019","04","01","12:00","-14.5","","-18.2","","73","","","","7","","18","","","M","100.25","","","","-23","","NA"
"-79.03","69.08","ROWLEY ISLAND","2403625","2019-04-01 13:00","2019","04","01","13:00","-14.7","","-17.4","","80","","","","7","","18","","","M","100.26","","","","-23","","NA"
"-79.03","69.08","ROWLEY ISLAND","2403625","2019-04-01 14:00","2019","04","01","14:00","-14.1","","-17.3","","77","","","","7","","15","","","M","100.25","","","","-22","","NA"
"-79.03","69.08","ROWLEY ISLAND","2403625","2019-04-01 15:00","2019","04","01","15:00","-14.4","","-17.1","","80","","","","7","","24","","","M","100.27","","","","-24","","NA"
"-79.03","69.08","ROWLEY ISLAND","2403625","2019-04-01 16:00","2019","04","01","16:00","-14.2","","-16.8","","81","","","","7","","15","","","M","100.28","","","","-22","","NA"
"-79.03","69.08","ROWLEY ISLAND","2403625","2019-04-01 17:00","2019","04","01","17:00","-14.3","","-16.6","","83","","","","7","","15","","","M","100.29","","","","-22","","NA"
"-79.03","69.08","ROWLEY ISLAND","2403625","2019-04-01 18:00","2019","04","01","18:00","-14.6","","-16.5","","85","","","","7","","26","","","M","100.29","","","","-25","","NA"
"-79.03","69.08","ROWLEY ISLAND","2403625","2019-04-01 19:00","2019","04","01","19:00","-17.3","","-19.3","","84","","","","7","","30","","","M","100.31","","","","-29","","NA"
"-79.03","69.08","ROWLEY ISLAND","2403625","2019-04-01 20:00","2019","04","01","20:00","-18.0","","-19.8","","85","","","","6","","28","","","M","100.30","","","","-30","","NA"
"-79.03","69.08","ROWLEY ISLAND","2403625","2019-04-01 21:00","2019","04","01","21:00","-16.6","","-18.2","","87","","","","8","","15","","","M","100.30","","","","-25","","NA"
"-79.03","69.08","ROWLEY ISLAND","2403625","2019-04-01 22:00","2019","04","01","22:00","-17.4","","-19.4","","84","","","","7","","17","","","M","100.27","","","","-26","","NA"
"-79.03","69.08","ROWLEY ISLAND","2403625","2019-04-01 23:00","2019","04","01","23:00","-19.7","","-21.7","","84","","","","7","","15","","","M","100.23","","","","-29","","NA"
"-79.03","69.08","ROWLEY ISLAND","2403625","2019-04-02 00:00","2019","04","02","00:00","-20.9","","-23.0","","83","","","","7","","15","","","M","100.19","","","","-30","","NA"
"-79.03","69.08","ROWLEY ISLAND","2403625","2019-04-02 01:00","2019","04","02","01:00","-22.8","","-25.1","","81","","","","6","","26","","","M","100.16","","","","-35","","NA"
"-79.03","69.08","ROWLEY ISLAND","2403625","2019-04-02 02:00","2019","04","02","02:00","-21.9","","-24.0","","84","","","","7","","28","","","M","100.11","","","","-35","","NA"
"-79.03","69.08","ROWLEY ISLAND","2403625","2019-04-02 03:00","2019","04","02","03:00","-24.0","","-26.4","","80","","","","6","","30","","","M","100.07","","","","-38","","NA"
"-79.03","69.08","ROWLEY ISLAND","2403625","2019-04-02 04:00","2019","04","02","04:00","-23.5","","-25.9","","80","","","","5","","24","","","M","100.04","","","","-36","","NA"
"-79.03","69.08","ROWLEY ISLAND","2403625","2019-04-02 05:00","2019","04","02","05:00","-21.7","","-24.0","","81","","","","4","","18","","","M","99.97","","","","-32","","NA"
"-79.03","69.08","ROWLEY ISLAND","2403625","2019-04-02 06:00","2019","04","02","06:00","-22.6","","-24.9","","81","","","","7","","30","","","M","99.93","","","","-36","","NA"
"-79.03","69.08","ROWLEY ISLAND","2403625","2019-04-02 07:00","2019","04","02","07:00","-22.2","","-24.7","","79","","","","6","","24","","","M","99.89","","","","-34","","NA"
"-79.03","69.08","ROWLEY ISLAND","2403625","2019-04-02 08:00","2019","04","02","08:00","-22.3","","-25.2","","77","","","","6","","28","","","M","99.83","","","","-35","","NA"
"-79.03","69.08","ROWLEY ISLAND","2403625","2019-04-02 09:00","2019","04","02","09:00","-19.7","","-23.5","","71","","","","4","","18","","","M","99.73","","","","-30","","NA"
"-79.03","69.08","ROWLEY ISLAND","2403625","2019-04-02 10:00","2019","04","02","10:00","-18.8","","-23.2","","68","","","","5","","17","","","M","99.66","","","","-28","","NA"
"-79.03","69.08","ROWLEY ISLAND","2403625","2019-04-02 11:00","2019","04","02","11:00","-17.1","","-22.4","","64","","","","5","","13","","","M","99.59","","","","-25","","NA"
"-79.03","69.08","ROWLEY ISLAND","2403625","2019-04-02 12:00","2019","04","02","12:00","-13.0","","-20.1","","55","","","","2","","8","","","M","99.53","","","","-18","","NA"
"-79.03","69.08","ROWLEY ISLAND","2403625","2019-04-02 13:00","2019","04","02","13:00","-14.6","","-21.5","","56","","","","6","","8","","","M","99.50","","","","-20","","NA"
"-79.03","69.08","ROWLEY ISLAND","2403625","2019-04-02 14:00","2019","04","02","14:00","-15.9","","-21.1","","64","","","","6","","13","","","M","99.47","","","","-23","","NA"
"-79.03","69.08","ROWLEY ISLAND","2403625","2019-04-02 15:00","2019","04","02","15:00","-14.1","","-20.4","","59","","","","4","","8","","","M","99.40","","","","-19","","NA"
"-79.03","69.08","ROWLEY ISLAND","2403625","2019-04-02 16:00","2019","04","02","16:00","-12.9","","-19.0","","60","","","","1","","8","","","M","99.36","","","","-18","","NA"
"-79.03","69.08","ROWLEY ISLAND","2403625","2019-04-02 17:00","2019","04","02","17:00","-14.0","","-19.4","","63","","","","2","","9","","","M","99.32","","","","-20","","NA"
"-79.03","69.08","ROWLEY ISLAND","2403625","2019-04-02 18:00","2019","04","02","18:00","-15.0","","-19.5","","68","","","","1","","15","","","M","99.26","","","","-23","","NA"
"-79.03","69.08","ROWLEY ISLAND","2403625","2019-04-02 19:00","2019","04","02","19:00","-18.3","","-21.2","","78","","","","3","","30","","","M","99.21","","","","-30","","NA"
"-79.03","69.08","ROWLEY ISLAND","2403625","2019-04-02 20:00","2019","04","02","20:00","-18.2","","-21.0","","79","","","","3","","31","","","M","99.17","","","","-30","","NA"
"-79.03","69.08","ROWLEY ISLAND","2403625","2019-04-02 21:00","2019","04","02","21:00","-18.2","","-21.1","","78","","","","3","","31","","","M","99.13","","","","-30","","NA"
"-79.03","69.08","ROWLEY ISLAND","2403625","2019-04-02 22:00","2019","04","02","22:00","-18.2","","-21.2","","77","","","","3","","31","","","M","99.07","","","","-30","","NA"
"-79.03","69.08","ROWLEY ISLAND","2403625","2019-04-02 23:00","2019","04","02","23:00","-18.6","","-21.4","","78","","","","3","","31","","","M","99.01","","","","-31","","NA"
"-79.03","69.08","ROWLEY ISLAND","2403625","2019-04-03 00:00","2019","04","03","00:00","-19.0","","-21.7","","79","","","","3","","31","","","M","98.99","","","","-31","","NA"
"-79.03","69.08","ROWLEY ISLAND","2403625","2019-04-03 01:00","2019","04","03","01:00","-15.5","","-17.5","","85","","","","1","","35","","","M","98.96","","","","-27","","NA"
"-79.03","69.08","ROWLEY ISLAND","2403625","2019-04-03 02:00","2019","04","03","02:00","-15.6","","-17.4","","85","","","","35","","28","","","M","98.94","","","","-26","","NA"
"-79.03","69.08","ROWLEY ISLAND","2403625","2019-04-03 03:00","2019","04","03","03:00","-15.7","","-17.6","","85","","","","35","","34","","","M","98.91","","","","-28","","NA"
"-79.03","69.08","ROWLEY ISLAND","2403625","2019-04-03 04:00","2019","04","03","04:00","-16.8","","-18.9","","84","","","","35","","24","","","M","98.93","","","","-27","","NA"
"-79.03","69.08","ROWLEY ISLAND","2403625","2019-04-03 05:00","2019","04","03","05:00","-17.8","","-19.9","","83","","","","32","","34","","","M","98.96","","","","-30","","NA"
"-79.03","69.08","ROWLEY ISLAND","2403625","2019-04-03 06:00","2019","04","03","06:00","-19.9","","-22.2","","82","","","","32","","28","","","M","98.93","","","","-32","","NA"
"-79.03","69.08","ROWLEY ISLAND","2403625","2019-04-03 07:00","2019","04","03","07:00","-20.2","","-22.6","","81","","","","32","","30","","","M","98.92","","","","-33","","NA"
"-79.03","69.08","ROWLEY ISLAND","2403625","2019-04-03 08:00","2019","04","03","08:00","-19.5","","-22.2","","79","","","","33","","31","","","M","98.92","","","","-32","","NA"
"-79.03","69.08","ROWLEY ISLAND","2403625","2019-04-03 09:00","2019","04","03","09:00","-17.8","","-20.9","","77","","","","32","","26","","","M","98.97","","","","-29","","NA"
"-79.03","69.08","ROWLEY ISLAND","2403625","2019-04-03 10:00","2019","04","03","10:00","-17.3","","-20.3","","77","","","","32","","34","","","M","99.00","","","","-30","","NA"
"-79.03","69.08","ROWLEY ISLAND","2403625","2019-04-03 11:00","2019","04","03","11:00","-17.0","","-20.3","","76","","","","33","","35","","","M","99.06","","","","-29","","NA"
"-79.03","69.08","ROWLEY ISLAND","2403625","2019-04-03 12:00","2019","04","03","12:00","-17.5","","-20.8","","76","","","","33","","39","","","M","99.15","","","","-31","","NA"
"-79.03","69.08","ROWLEY ISLAND","2403625","2019-04-03 13:00","2019","04","03","13:00","-16.8","","-20.6","","72","","","","32","","35","","","M","99.21","","","","-29","","NA"
"-79.03","69.08","ROWLEY ISLAND","2403625","2019-04-03 14:00","2019","04","03","14:00","-16.9","","-20.3","","75","","","","32","","34","","","M","99.28","","","","-29","","NA"
"-79.03","69.08","ROWLEY ISLAND","2403625","2019-04-03 15:00","2019","04","03","15:00","-17.0","","-20.6","","73","","","","32","","35","","","M","99.37","","","","-29","","NA"
"-79.03","69.08","ROWLEY ISLAND","2403625","2019-04-03 16:00","2019","04","03","16:00","-17.0","","-20.4","","75","","","","32","","31","","","M","99.48","","","","-29","","NA"
"-79.03","69.08","ROWLEY ISLAND","2403625","2019-04-03 17:00","2019","04","03","17:00","-17.2","","-20.1","","78","","","","32","","34","","","M","99.56","","","","-30","","NA"
"-79.03","69.08","ROWLEY ISLAND","2403625","2019-04-03 18:00","2019","04","03","18:00","-17.7","","-20.8","","77","","","","32","","35","","","M","99.66","","","","-30","","NA"
"-79.03","69.08","ROWLEY ISLAND","2403625","2019-04-03 19:00","2019","04","03","19:00","-18.7","","-21.4","","79","","","","32","","26","","","M","99.80","","","","-30","","NA"
"-79.03","69.08","ROWLEY ISLAND","2403625","2019-04-03 20:00","2019","04","03","20:00","-18.9","","-21.1","","83","","","","32","","26","","","M","99.87","","","","-30","","NA"
"-79.03","69.08","ROWLEY ISLAND","2403625","2019-04-03 21:00","2019","04","03","21:00","-18.5","","-20.5","","84","","","","33","","26","","","M","99.98","","","","-30","","NA"
"-79.03","69.08","ROWLEY ISLAND","2403625","2019-04-03 22:00","2019","04","03","22:00","-19.6","","-22.0","","81","","","","32","","18","","","M","100.09","","","","-29","","NA"
"-79.03","69.08","ROWLEY ISLAND","2403625","2019-04-03 23:00","2019","04","03","23:00","-20.5","","-22.9","","81","","","","32","","21","","","M","100.19","","","","-31","","NA"
"-79.03","69.08","ROWLEY ISLAND","2403625","2019-04-04 00:00","2019","04","04","00:00","-20.8","","-23.0","","83","","","","34","","18","","","M","100.27","","","","-31","","NA"
"-79.03","69.08","ROWLEY ISLAND","2403625","2019-04-04 01:00","2019","04","04","01:00","-21.0","","-23.3","","81","","","","33","","13","","","M","100.36","","","","-30","","NA"
"-79.03","69.08","ROWLEY ISLAND","2403625","2019-04-04 02:00","2019","04","04","02:00","-21.8","","-24.2","","80","","","","31","","17","","","M","100.45","","","","-32","","NA"
"-79.03","69.08","ROWLEY ISLAND","2403625","2019-04-04 03:00","2019","04","04","03:00","-23.4","","-25.7","","81","","","","31","","15","","","M","100.51","","","","-33","","NA"
"-79.03","69.08","ROWLEY ISLAND","2403625","2019-04-04 04:00","2019","04","04","04:00","-22.6","","-24.7","","83","","","","33","","21","","","M","100.58","","","","-34","","NA"
"-79.03","69.08","ROWLEY ISLAND","2403625","2019-04-04 05:00","2019","04","04","05:00","-22.7","","-24.8","","83","","","","36","","9","","","M","100.63","","","","-30","","NA"
"-79.03","69.08","ROWLEY ISLAND","2403625","2019-04-04 06:00","2019","04","04","06:00","-21.8","","-24.0","","82","","","","35","","8","","","M","100.70","","","","-28","","NA"
"-79.03","69.08","ROWLEY ISLAND","2403625","2019-04-04 07:00","2019","04","04","07:00","-20.6","","-23.3","","79","","","","2","","8","","","M","100.76","","","","-27","","NA"
"-79.03","69.08","ROWLEY ISLAND","2403625","2019-04-04 08:00","2019","04","04","08:00","-19.7","","-22.9","","76","","","","6","","4","","","M","100.84","","","","-23","","NA"
"-79.03","69.08","ROWLEY ISLAND","2403625","2019-04-04 09:00","2019","04","04","09:00","-20.0","","-23.8","","72","","","","12","","5","","","M","100.90","","","","-24","","NA"
"-79.03","69.08","ROWLEY ISLAND","2403625","2019-04-04 10:00","2019","04","04","10:00","-17.6","","-22.4","","66","","","","19","","8","","","M","100.96","","","","-23","","NA"
"-79.03","69.08","ROWLEY ISLAND","2403625","2019-04-04 11:00","2019","04","04","11:00","-16.5","","-22.2","","62","","","","18","","5","","","M","101.04","","","","-20","","NA"
"-79.03","69.08","ROWLEY ISLAND","2403625","2019-04-04 12:00","2019","04","04","12:00","-11.5","","-21.0","","45","","","","20","","4","","","M","101.06","","","","-14","","NA"
"-79.03","69.08","ROWLEY ISLAND","2403625","2019-04-04 13:00","2019","04","04","13:00","-11.4","","-20.7","","46","","","","25","","4","","","M","101.10","","","","-14","","NA"
"-79.03","69.08","ROWLEY ISLAND","2403625","2019-04-04 14:00","2019","04","04","14:00","-9.3","","-20.6","","39","","","","10","","4","","","M","101.15","","","","-12","","NA"
"-79.03","69.08","ROWLEY ISLAND","2403625","2019-04-04 15:00","2019","04","04","15:00","-11.6","","-20.5","","48","","","","35","","4","","","M","101.18","","","","-14","","NA"
"-79.03","69.08","ROWLEY ISLAND","2403625","2019-04-04 16:00","2019","04","04","16:00","-14.5","","-21.5","","54","","","","5","","8","","","M","101.23","","","","-20","","NA"
"-79.03","69.08","ROWLEY ISLAND","2403625","2019-04-04 17:00","2019","04","04","17:00","-17.4","","-22.0","","67","","","","13","","5","","","M","101.28","","","","-21","","NA"
"-79.03","69.08","ROWLEY ISLAND","2403625","2019-04-04 18:00","2019","04","04","18:00","-19.6","","-22.8","","75","","","","15","","13","","","M","101.31","","","","-28","","NA"
"-79.03","69.08","ROWLEY ISLAND","2403625","2019-04-04 19:00","2019","04","04","19:00","-22.2","","-24.3","","83","","","","15","","13","","","M","101.34","","","","-31","","NA"
"-79.03","69.08","ROWLEY ISLAND","2403625","2019-04-04 20:00","2019","04","04","20:00","-22.0","","-23.8","","85","","","","9","","9","","","M","101.34","","","","-29","","NA"
"-79.03","69.08","ROWLEY ISLAND","2403625","2019-04-04 21:00","2019","04","04","21:00","-21.7","","-23.8","","83","","","","8","","8","","","M","101.33","","","","-28","","NA"
"-79.03","69.08","ROWLEY ISLAND","2403625","2019-04-04 22:00","2019","04","04","22:00","-22.3","","-24.3","","83","","","","9","","9","","","M","101.35","","","","-29","","NA"
"-79.03","69.08","ROWLEY ISLAND","2403625","2019-04-04 23:00","2019","04","04","23:00","-22.4","","-24.4","","83","","","","9","","8","","","M","101.35","","","","-29","","NA"
"-79.03","69.08","ROWLEY ISLAND","2403625","2019-04-05 00:00","2019","04","05","00:00","-22.4","","-24.6","","82","","","","6","","5","","","M","101.33","","","","-27","","NA"
"-79.03","69.08","ROWLEY ISLAND","2403625","2019-04-05 01:00","2019","04","05","01:00","-22.9","","-25.0","","83","","","","6","","5","","","M","101.33","","","","-28","","NA"
"-79.03","69.08","ROWLEY ISLAND","2403625","2019-04-05 02:00","2019","04","05","02:00","-24.3","","-26.6","","81","","","","5","","13","","","M","101.33","","","","-34","","NA"
"-79.03","69.08","ROWLEY ISLAND","2403625","2019-04-05 03:00","2019","04","05","03:00","-24.7","","-27.0","","81","","","","5","","15","","","M","101.33","","","","-35","","NA"
"-79.03","69.08","ROWLEY ISLAND","2403625","2019-04-05 04:00","2019","04","05","04:00","-25.5","","-27.7","","82","","","","3","","18","","","M","101.30","","","","-37","","NA"
"-79.03","69.08","ROWLEY ISLAND","2403625","2019-04-05 05:00","2019","04","05","05:00","-25.0","","-27.3","","82","","","","3","","21","","","M","101.28","","","","-37","","NA"
"-79.03","69.08","ROWLEY ISLAND","2403625","2019-04-05 06:00","2019","04","05","06:00","-23.7","","-26.1","","81","","","","2","","21","","","M","101.27","","","","-35","","NA"
"-79.03","69.08","ROWLEY ISLAND","2403625","2019-04-05 07:00","2019","04","05","07:00","-22.9","","-25.5","","79","","","","2","","11","","","M","101.25","","","","-31","","NA"
"-79.03","69.08","ROWLEY ISLAND","2403625","2019-04-05 08:00","2019","04","05","08:00","-20.6","","-23.2","","79","","","","1","","15","","","M","101.22","","","","-30","","NA"
"-79.03","69.08","ROWLEY ISLAND","2403625","2019-04-05 09:00","2019","04","05","09:00","-19.3","","-22.4","","76","","","","36","","21","","","M","101.15","","","","-30","","NA"
"-79.03","69.08","ROWLEY ISLAND","2403625","2019-04-05 10:00","2019","04","05","10:00","-17.9","","-21.6","","72","","","","36","","21","","","M","101.10","","","","-28","","NA"
"-79.03","69.08","ROWLEY ISLAND","2403625","2019-04-05 11:00","2019","04","05","11:00","-18.5","","-22.2","","73","","","","36","","24","","","M","101.06","","","","-29","","NA"
"-79.03","69.08","ROWLEY ISLAND","2403625","2019-04-05 12:00","2019","04","05","12:00","-17.2","","-21.1","","72","","","","36","","26","","","M","101.04","","","","-28","","NA"
"-79.03","69.08","ROWLEY ISLAND","2403625","2019-04-05 13:00","2019","04","05","13:00","-16.3","","-20.2","","71","","","","35","","26","","","M","100.95","","","","-27","","NA"
"-79.03","69.08","ROWLEY ISLAND","2403625","2019-04-05 14:00","2019","04","05","14:00","-15.9","","-19.9","","71","","","","36","","24","","","M","100.95","","","","-26","","NA"
"-79.03","69.08","ROWLEY ISLAND","2403625","2019-04-05 15:00","2019","04","05","15:00","-15.5","","-19.5","","71","","","","35","","26","","","M","100.92","","","","-26","","NA"
"-79.03","69.08","ROWLEY ISLAND","2403625","2019-04-05 16:00","2019","04","05","16:00","-16.0","","-20.1","","71","","","","35","","22","","","M","100.90","","","","-26","","NA"
"-79.03","69.08","ROWLEY ISLAND","2403625","2019-04-05 17:00","2019","04","05","17:00","-17.1","","-20.4","","75","","","","35","","24","","","M","100.87","","","","-28","","NA"
"-79.03","69.08","ROWLEY ISLAND","2403625","2019-04-05 18:00","2019","04","05","18:00","-17.8","","-20.6","","79","","","","35","","22","","","M","100.84","","","","-28","","NA"
"-79.03","69.08","ROWLEY ISLAND","2403625","2019-04-05 19:00","2019","04","05","19:00","-18.3","","-20.5","","83","","","","34","","26","","","M","100.79","","","","-30","","NA"
"-79.03","69.08","ROWLEY ISLAND","2403625","2019-04-05 20:00","2019","04","05","20:00","-18.6","","-20.5","","85","","","","35","","24","","","M","100.76","","","","-30","","NA"
"-79.03","69.08","ROWLEY ISLAND","2403625","2019-04-05 21:00","2019","04","05","21:00","-18.8","","-20.8","","85","","","","35","","22","","","M","100.73","","","","-29","","NA"
"-79.03","69.08","ROWLEY ISLAND","2403625","2019-04-05 22:00","2019","04","05","22:00","-18.3","","-20.1","","85","","","","35","","24","","","M","100.66","","","","-29","","NA"
"-79.03","69.08","ROWLEY ISLAND","2403625","2019-04-05 23:00","2019","04","05","23:00","-20.0","","-22.1","","83","","","","35","","24","","","M","100.62","","","","-31","","NA"
"-79.03","69.08","ROWLEY ISLAND","2403625","2019-04-06 00:00","2019","04","06","00:00","-17.9","","-19.4","","88","","","","35","","26","","","M","100.61","","","","-29","","NA"
"-79.03","69.08","ROWLEY ISLAND","2403625","2019-04-06 01:00","2019","04","06","01:00","-19.6","","-21.5","","85","","","","36","","24","","","M","100.61","","","","-31","","NA"
"-79.03","69.08","ROWLEY ISLAND","2403625","2019-04-06 02:00","2019","04","06","02:00"
"-79.03","69.08","ROWLEY ISLAND","2403625","2019-04-06 03:00","2019","04","06","03:00","-18.5","","-20.5","","84","","","","36","","22","","","M","100.54","","","","-29","","NA"
"-79.03","69.08","ROWLEY ISLAND","2403625","2019-04-06 04:00","2019","04","06","04:00","-17.6","","-19.5","","85","","","","36","","26","","","M","100.54","","","","-29","","NA"
"-79.03","69.08","ROWLEY ISLAND","2403625","2019-04-06 05:00","2019","04","06","05:00","-18.0","","-19.9","","85","","","","35","","21","","","M","100.56","","","","-28","","NA"
"-79.03","69.08","ROWLEY ISLAND","2403625","2019-04-06 06:00","2019","04","06","06:00","-17.5","","-19.5","","85","","","","35","","22","","","M","100.54","","","","-28","","NA"
"-79.03","69.08","ROWLEY ISLAND","2403625","2019-04-06 07:00","2019","04","06","07:00","-16.9","","-18.9","","85","","","","34","","22","","","M","100.55","","","","-27","","NA"
"-79.03","69.08","ROWLEY ISLAND","2403625","2019-04-06 08:00","2019","04","06","08:00","-16.4","","-18.5","","84","","","","33","","22","","","M","100.53","","","","-26","","NA"
"-79.03","69.08","ROWLEY ISLAND","2403625","2019-04-06 09:00","2019","04","06","09:00","-15.7","","-18.0","","83","","","","35","","24","","","M","100.53","","","","-26","","NA"
"-79.03","69.08","ROWLEY ISLAND","2403625","2019-04-06 10:00","2019","04","06","10:00","-15.3","","-17.9","","81","","","","34","","22","","","M","100.56","","","","-25","","NA"
"-79.03","69.08","ROWLEY ISLAND","2403625","2019-04-06 11:00","2019","04","06","11:00","-13.2","","-16.9","","74","","","","35","","22","","","M","100.56","","","","-22","","NA"
"-79.03","69.08","ROWLEY ISLAND","2403625","2019-04-06 12:00","2019","04","06","12:00","-12.9","","-16.5","","74","","","","35","","21","","","M","100.57","","","","-22","","NA"
"-79.03","69.08","ROWLEY ISLAND","2403625","2019-04-06 13:00","2019","04","06","13:00","-11.6","","-15.6","","72","","","","35","","18","","","M","100.60","","","","-19","","NA"
"-79.03","69.08","ROWLEY ISLAND","2403625","2019-04-06 14:00","2019","04","06","14:00","-11.6","","-15.0","","76","","","","33","","18","","","M","100.62","","","","-19","","NA"
"-79.03","69.08","ROWLEY ISLAND","2403625","2019-04-06 15:00","2019","04","06","15:00","-12.4","","-15.2","","79","","","","33","","22","","","M","100.64","","","","-21","","NA"
"-79.03","69.08","ROWLEY ISLAND","2403625","2019-04-06 16:00","2019","04","06","16:00","-13.0","","-15.4","","82","","","","34","","22","","","M","100.68","","","","-22","","NA"
"-79.03","69.08","ROWLEY ISLAND","2403625","2019-04-06 17:00","2019","04","06","17:00","-13.3","","-15.4","","84","","","","33","","22","","","M","100.69","","","","-22","","NA"
"-79.03","69.08","ROWLEY ISLAND","2403625","2019-04-06 18:00","2019","04","06","18:00","-13.4","","-15.2","","86","","","","32","","21","","","M","100.72","","","","-22","","NA"
"-79.03","69.08","ROWLEY ISLAND","2403625","2019-04-06 19:00","2019","04","06","19:00","-13.3","","-14.8","","88","","","","32","","22","","","M","100.71","","","","-22","","NA"
"-79.03","69.08","ROWLEY ISLAND","2403625","2019-04-06 20:00","2019","04","06","20:00","-13.3","","-14.7","","89","","","","31","","22","","","M","100.71","","","","-22","","NA"
"-79.03","69.08","ROWLEY ISLAND","2403625","2019-04-06 21:00","2019","04","06","21:00","-13.4","","-14.8","","89","","","","32","","22","","","M","100.71","","","","-23","","NA"
"-79.03","69.08","ROWLEY ISLAND","2403625","2019-04-06 22:00","2019","04","06","22:00","-14.1","","-15.5","","89","","","","31","","21","","","M","100.68","","","","-23","","NA"
"-79.03","69.08","ROWLEY ISLAND","2403625","2019-04-06 23:00","2019","04","06","23:00","-13.1","","-14.4","","90","","","","32","","24","","","M","100.68","","","","-23","","NA"
"-79.03","69.08","ROWLEY ISLAND","2403625","2019-04-07 00:00","2019","04","07","00:00","-13.1","","-14.5","","89","","","","33","","24","","","M","100.69","","","","-23","","NA"
"-79.03","69.08","ROWLEY ISLAND","2403625","2019-04-07 01:00","2019","04","07","01:00"
"-79.03","69.08","ROWLEY ISLAND","2403625","2019-04-07 02:00","2019","04","07","02:00","-13.4","","-15.0","","88","","","","32","","31","","","M","100.70","","","","-24","","NA"
"-79.03","69.08","ROWLEY ISLAND","2403625","2019-04-07 03:00","2019","04","07","03:00","-14.1","","-15.7","","88","","","","33","","30","","","M","100.73","","","","-25","","NA"
"-79.03","69.08","ROWLEY ISLAND","2403625","2019-04-07 04:00","2019","04","07","04:00","-14.7","","-16.3","","88","","","","34","","30","","","M","100.74","","","","-26","","NA"
"-79.03","69.08","ROWLEY ISLAND","2403625","2019-04-07 05:00","2019","04","07","05:00","-14.8","","-16.4","","88","","","","34","","37","","","M","100.74","","","","-27","","NA"
"-79.03","69.08","ROWLEY ISLAND","2403625","2019-04-07 06:00","2019","04","07","06:00","-15.0","","-16.8","","86","","","","34","","28","","","M","100.82","","","","-26","","NA"
"-79.03","69.08","ROWLEY ISLAND","2403625","2019-04-07 07:00","2019","04","07","07:00","-14.5","","-16.7","","83","","","","34","","31","","","M","100.84","","","","-26","","NA"
"-79.03","69.08","ROWLEY ISLAND","2403625","2019-04-07 08:00","2019","04","07","08:00","-13.4","","-16.1","","80","","","","32","","34","","","M","100.85","","","","-25","","NA"
"-79.03","69.08","ROWLEY ISLAND","2403625","2019-04-07 09:00","2019","04","07","09:00","-13.2","","-16.4","","76","","","","33","","30","","","M","100.87","","","","-24","","NA"
"-79.03","69.08","ROWLEY ISLAND","2403625","2019-04-07 10:00","2019","04","07","10:00","-14.2","","-17.3","","78","","","","32","","34","","","M","100.88","","","","-26","","NA"
"-79.03","69.08","ROWLEY ISLAND","2403625","2019-04-07 11:00","2019","04","07","11:00","-14.1","","-17.4","","76","","","","31","","37","","","M","100.89","","","","-26","","NA"
"-79.03","69.08","ROWLEY ISLAND","2403625","2019-04-07 12:00","2019","04","07","12:00","-14.2","","-17.9","","74","","","","31","","34","","","M","100.91","","","","-26","","NA"
"-79.03","69.08","ROWLEY ISLAND","2403625","2019-04-07 13:00","2019","04","07","13:00","-13.8","","-17.9","","71","","","","32","","34","","","M","100.97","","","","-25","","NA"
"-79.03","69.08","ROWLEY ISLAND","2403625","2019-04-07 14:00","2019","04","07","14:00","-14.2","","-17.7","","75","","","","31","","34","","","M","101.00","","","","-26","","NA"
"-79.03","69.08","ROWLEY ISLAND","2403625","2019-04-07 15:00","2019","04","07","15:00","-13.6","","-17.8","","71","","","","31","","28","","","M","101.03","","","","-24","","NA"
"-79.03","69.08","ROWLEY ISLAND","2403625","2019-04-07 16:00","2019","04","07","16:00","-14.5","","-17.5","","78","","","","31","","26","","","M","101.06","","","","-25","","NA"
"-79.03","69.08","ROWLEY ISLAND","2403625","2019-04-07 17:00","2019","04","07","17:00","-14.8","","-17.5","","80","","","","32","","26","","","M","101.12","","","","-25","","NA"
"-79.03","69.08","ROWLEY ISLAND","2403625","2019-04-07 18:00","2019","04","07","18:00","-15.5","","-17.6","","84","","","","32","","31","","","M","101.16","","","","-27","","NA"
"-79.03","69.08","ROWLEY ISLAND","2403625","2019-04-07 19:00","2019","04","07","19:00","-15.4","","-17.2","","86","","","","32","","30","","","M","101.21","","","","-27","","NA"
"-79.03","69.08","ROWLEY ISLAND","2403625","2019-04-07 20:00","2019","04","07","20:00","-15.4","","-17.1","","87","","","","32","","35","","","M","101.26","","","","-27","","NA"
"-79.03","69.08","ROWLEY ISLAND","2403625","2019-04-07 21:00","2019","04","07","21:00","-15.6","","-17.3","","86","","","","32","","41","","","M","101.28","","","","-28","","NA"
"-79.03","69.08","ROWLEY ISLAND","2403625","2019-04-07 22:00","2019","04","07","22:00","-15.7","","-17.5","","86","","","","32","","35","","","M","101.33","","","","-28","","NA"
"-79.03","69.08","ROWLEY ISLAND","2403625","2019-04-07 23:00","2019","04","07","23:00","-15.8","","-17.6","","86","","","","32","","34","","","M","101.38","","","","-28","","NA"
"-79.03","69.08","ROWLEY ISLAND","2403625","2019-04-08 00:00","2019","04","08","00:00","-16.2","","-18.1","","86","","","","32","","31","","","M","101.44","","","","-28","","NA"
"-79.03","69.08","ROWLEY ISLAND","2403625","2019-04-08 01:00","2019","04","08","01:00","-16.5","","-18.5","","84","","","","31","","34","","","M","101.52","","","","-29","","NA"
"-79.03","69.08","ROWLEY ISLAND","2403625","2019-04-08 02:00","2019","04","08","02:00","-16.8","","-19.0","","83","","","","32","","30","","","M","101.58","","","","-28","","NA"
"-79.03","69.08","ROWLEY ISLAND","2403625","2019-04-08 03:00","2019","04","08","03:00","-17.0","","-19.1","","84","","","","32","","28","","","M","101.64","","","","-28","","NA"
"-79.03","69.08","ROWLEY ISLAND","2403625","2019-04-08 04:00","2019","04","08","04:00","-16.9","","-18.9","","84","","","","32","","30","","","M","101.69","","","","-29","","NA"
"-79.03","69.08","ROWLEY ISLAND","2403625","2019-04-08 05:00","2019","04","08","05:00","-16.8","","-18.6","","86","","","","32","","30","","","M","101.75","","","","-28","","NA"
"-79.03","69.08","ROWLEY ISLAND","2403625","2019-04-08 06:00","2019","04","08","06:00","-17.2","","-19.3","","84","","","","32","","26","","","M","101.79","","","","-28","","NA"
"-79.03","69.08","ROWLEY ISLAND","2403625","2019-04-08 07:00","2019","04","08","07:00","-17.3","","-19.6","","82","","","","32","","24","","","M","101.85","","","","-28","","NA"
"-79.03","69.08","ROWLEY ISLAND","2403625","2019-04-08 08:00","2019","04","08","08:00","-16.9","","-19.8","","78","","","","32","","28","","","M","101.89","","","","-28","","NA"
"-79.03","69.08","ROWLEY ISLAND","2403625","2019-04-08 09:00","2019","04","08","09:00","-15.6","","-19.9","","70","","","","32","","24","","","M","101.95","","","","-26","","NA"
"-79.03","69.08","ROWLEY ISLAND","2403625","2019-04-08 10:00","2019","04","08","10:00","-14.5","","-19.8","","64","","","","31","","18","","","M","102.00","","","","-23","","NA"
"-79.03","69.08","ROWLEY ISLAND","2403625","2019-04-08 11:00","2019","04","08","11:00","-14.1","","-19.3","","65","","","","31","","17","","","M","102.06","","","","-22","","NA"
"-79.03","69.08","ROWLEY ISLAND","2403625","2019-04-08 12:00","2019","04","08","12:00","-12.9","","-18.2","","64","","","","32","","17","","","M","102.07","","","","-21","","NA"
"-79.03","69.08","ROWLEY ISLAND","2403625","2019-04-08 13:00","2019","04","08","13:00","-12.7","","-18.3","","63","","","","31","","17","","","M","102.11","","","","-21","","NA"
"-79.03","69.08","ROWLEY ISLAND","2403625","2019-04-08 14:00","2019","04","08","14:00","-12.2","","-17.5","","64","","","","29","","17","","","M","102.15","","","","-20","","NA"
"-79.03","69.08","ROWLEY ISLAND","2403625","2019-04-08 15:00","2019","04","08","15:00","-12.3","","-17.8","","64","","","","30","","13","","","M","102.18","","","","-19","","NA"
"-79.03","69.08","ROWLEY ISLAND","2403625","2019-04-08 16:00","2019","04","08","16:00","-13.5","","-18.1","","68","","","","27","","15","","","M","102.23","","","","-21","","NA"
"-79.03","69.08","ROWLEY ISLAND","2403625","2019-04-08 17:00","2019","04","08","17:00","-15.2","","-19.1","","72","","","","27","","15","","","M","102.25","","","","-23","","NA"
"-79.03","69.08","ROWLEY ISLAND","2403625","2019-04-08 18:00","2019","04","08","18:00","-16.3","","-19.2","","78","","","","25","","13","","","M","102.28","","","","-24","","NA"
"-79.03","69.08","ROWLEY ISLAND","2403625","2019-04-08 19:00","2019","04","08","19:00","-17.6","","-19.6","","84","","","","27","","13","","","M","102.30","","","","-25","","NA"
"-79.03","69.08","ROWLEY ISLAND","2403625","2019-04-08 20:00","2019","04","08","20:00","-17.9","","-19.5","","86","","","","25","","11","","","M","102.32","","","","-25","","NA"
"-79.03","69.08","ROWLEY ISLAND","2403625","2019-04-08 21:00","2019","04","08","21:00","-19.5","","-21.0","","88","","","","21","","8","","","M","102.33","","","","-26","","NA"
"-79.03","69.08","ROWLEY ISLAND","2403625","2019-04-08 22:00","2019","04","08","22:00","-19.7","","-21.6","","84","","","","19","","9","","","M","102.34","","","","-26","","NA"
"-79.03","69.08","ROWLEY ISLAND","2403625","2019-04-08 23:00","2019","04","08","23:00","-20.8","","-22.5","","86","","","","19","","11","","","M","102.32","","","","-29","","NA"
"-79.03","69.08","ROWLEY ISLAND","2403625","2019-04-09 00:00","2019","04","09","00:00","-21.3","","-23.1","","85","","","","18","","17","","","M","102.34","","","","-31","","NA"
"-79.03","69.08","ROWLEY ISLAND","2403625","2019-04-09 01:00","2019","04","09","01:00","-22.3","","-24.3","","84","","","","18","","18","","","M","102.34","","","","-33","","NA"
"-79.03","69.08","ROWLEY ISLAND","2403625","2019-04-09 02:00","2019","04","09","02:00","-22.7","","-24.7","","84","","","","16","","26","","","M","102.33","","","","-35","","NA"
"-79.03","69.08","ROWLEY ISLAND","2403625","2019-04-09 03:00","2019","04","09","03:00","-23.9","","-26.1","","83","","","","15","","35","","","M","102.32","","","","-39","","NA"
"-79.03","69.08","ROWLEY ISLAND","2403625","2019-04-09 04:00","2019","04","09","04:00","-24.1","","-26.3","","81","","","","16","","30","","","M","102.29","","","","-38","","NA"
"-79.03","69.08","ROWLEY ISLAND","2403625","2019-04-09 05:00","2019","04","09","05:00","-23.7","","-25.9","","81","","","","16","","26","","","M","102.29","","","","-37","","NA"
"-79.03","69.08","ROWLEY ISLAND","2403625","2019-04-09 06:00","2019","04","09","06:00","-22.0","","-24.3","","81","","","","15","","26","","","M","102.25","","","","-34","","NA"
"-79.03","69.08","ROWLEY ISLAND","2403625","2019-04-09 07:00","2019","04","09","07:00","-20.5","","-22.9","","81","","","","15","","26","","","M","102.24","","","","-32","","NA"
"-79.03","69.08","ROWLEY ISLAND","2403625","2019-04-09 08:00","2019","04","09","08:00","-18.4","","-20.9","","80","","","","16","","24","","","M","102.25","","","","-29","","NA"
"-79.03","69.08","ROWLEY ISLAND","2403625","2019-04-09 09:00","2019","04","09","09:00","-15.5","","-17.7","","83","","","","15","","30","","","M","102.19","","","","-27","","NA"
"-79.03","69.08","ROWLEY ISLAND","2403625","2019-04-09 10:00","2019","04","09","10:00","-13.9","","-16.3","","82","","","","16","","37","","","M","102.20","","","","-26","","NA"
"-79.03","69.08","ROWLEY ISLAND","2403625","2019-04-09 11:00","2019","04","09","11:00","-13.3","","-15.9","","81","","","","16","","28","","","M","102.18","","","","-24","","NA"
"-79.03","69.08","ROWLEY ISLAND","2403625","2019-04-09 12:00","2019","04","09","12:00","-12.5","","-15.2","","80","","","","15","","35","","","M","102.15","","","","-23","","NA"
"-79.03","69.08","ROWLEY ISLAND","2403625","2019-04-09 13:00","2019","04","09","13:00","-11.7","","-14.4","","80","","","","16","","39","","","M","102.14","","","","-23","","NA"
"-79.03","69.08","ROWLEY ISLAND","2403625","2019-04-09 14:00","2019","04","09","14:00","-11.3","","-13.7","","82","","","","17","","30","","","M","102.13","","","","-21","","NA"
"-79.03","69.08","ROWLEY ISLAND","2403625","2019-04-09 15:00","2019","04","09","15:00","-10.9","","-13.1","","84","","","","17","","26","","","M","102.14","","","","-20","","NA"
"-79.03","69.08","ROWLEY ISLAND","2403625","2019-04-09 16:00","2019","04","09","16:00","-9.8","","-12.4","","81","","","","18","","22","","","M","102.15","","","","-18","","NA"
"-79.03","69.08","ROWLEY ISLAND","2403625","2019-04-09 17:00","2019","04","09","17:00","-11.3","","-13.3","","85","","","","17","","18","","","M","102.12","","","","-19","","NA"
"-79.03","69.08","ROWLEY ISLAND","2403625","2019-04-09 18:00","2019","04","09","18:00","-12.1","","-13.9","","87","","","","17","","22","","","M","102.12","","","","-21","","NA"
"-79.03","69.08","ROWLEY ISLAND","2403625","2019-04-09 19:00","2019","04","09","19:00","-11.9","","-13.2","","89","","","","16","","31","","","M","102.11","","","","-22","","NA"
"-79.03","69.08","ROWLEY ISLAND","2403625","2019-04-09 20:00","2019","04","09","20:00","-12.4","","-13.6","","91","","","","15","","31","","","M","102.10","","","","-23","","NA"
"-79.03","69.08","ROWLEY ISLAND","2403625","2019-04-09 21:00","2019","04","09","21:00","-12.1","","-13.2","","91","","","","15","","31","","","M","102.11","","","","-22","","NA"
"-79.03","69.08","ROWLEY ISLAND","2403625","2019-04-09 22:00","2019","04","09","22:00","-12.4","","-13.7","","90","","","","15","","31","","","M","102.08","","","","-23","","NA"
"-79.03","69.08","ROWLEY ISLAND","2403625","2019-04-09 23:00","2019","04","09","23:00","-12.2","","-13.4","","91","","","","16","","28","","","M","102.06","","","","-22","","NA"
"-79.03","69.08","ROWLEY ISLAND","2403625","2019-04-10 00:00","2019","04","10","00:00","-13.3","","-14.6","","90","","","","16","","28","","","M","102.05","","","","-24","","NA"
"-79.03","69.08","ROWLEY ISLAND","2403625","2019-04-10 01:00","2019","04","10","01:00","-12.2","","-13.5","","90","","","","17","","22","","","M","102.03","","","","-21","","NA"
"-79.03","69.08","ROWLEY ISLAND","2403625","2019-04-10 02:00","2019","04","10","02:00","-12.0","","-13.2","","91","","","","16","","24","","","M","102.03","","","","-21","","NA"
"-79.03","69.08","ROWLEY ISLAND","2403625","2019-04-10 03:00","2019","04","10","03:00","-12.2","","-13.4","","91","","","","17","","22","","","M","102.01","","","","-21","","NA"
"-79.03","69.08","ROWLEY ISLAND","2403625","2019-04-10 04:00","2019","04","10","04:00","-12.1","","-13.3","","91","","","","17","","22","","","M","102.01","","","","-21","","NA"
"-79.03","69.08","ROWLEY ISLAND","2403625","2019-04-10 05:00","2019","04","10","05:00","-12.6","","-13.8","","90","","","","16","","21","","","M","101.99","","","","-21","","NA"
"-79.03","69.08","ROWLEY ISLAND","2403625","2019-04-10 06:00","2019","04","10","06:00","-12.5","","-13.8","","89","","","","15","","26","","","M","101.99","","","","-22","","NA"
"-79.03","69.08","ROWLEY ISLAND","2403625","2019-04-10 07:00","2019","04","10","07:00","-11.9","","-13.3","","89","","","","16","","24","","","M","101.98","","","","-21","","NA"
"-79.03","69.08","ROWLEY ISLAND","2403625","2019-04-10 08:00","2019","04","10","08:00","-10.7","","-12.3","","88","","","","16","","24","","","M","101.97","","","","-19","","NA"
"-79.03","69.08","ROWLEY ISLAND","2403625","2019-04-10 09:00","2019","04","10","09:00"
"-79.03","69.08","ROWLEY ISLAND","2403625","2019-04-10 10:00","2019","04","10","10:00","-8.3","","-10.9","","81","","","","16","","21","","","M","101.93","","","","-16","","NA"
"-79.03","69.08","ROWLEY ISLAND","2403625","2019-04-10 11:00","2019","04","10","11:00","-8.0","","-10.9","","80","","","","15","","24","","","M","101.93","","","","-16","","NA"
"-79.03","69.08","ROWLEY ISLAND","2403625","2019-04-10 12:00","2019","04","10","12:00","-7.2","","-10.4","","78","","","","16","","22","","","M","101.91","","","","-15","","NA"
"-79.03","69.08","ROWLEY ISLAND","2403625","2019-04-10 13:00","2019","04","10","13:00","-5.0","","-10.1","","67","","","","15","","21","","","M","101.86","","","","-12","","NA"
"-79.03","69.08","ROWLEY ISLAND","2403625","2019-04-10 14:00","2019","04","10","14:00","-6.0","","-10.3","","71","","","","14","","13","","","M","101.85","","","","-11","","NA"
"-79.03","69.08","ROWLEY ISLAND","2403625","2019-04-10 15:00","2019","04","10","15:00","-6.3","","-10.4","","73","","","","15","","15","","","M","101.85","","","","-12","","NA"
"-79.03","69.08","ROWLEY ISLAND","2403625","2019-04-10 16:00","2019","04","10","16:00","-6.0","","-11.0","","67","","","","15","","18","","","M","101.83","","","","-12","","NA"
"-79.03","69.08","ROWLEY ISLAND","2403625","2019-04-10 17:00","2019","04","10","17:00","-8.0","","-11.8","","74","","","","18","","13","","","M","101.80","","","","-14","","NA"
"-79.03","69.08","ROWLEY ISLAND","2403625","2019-04-10 18:00","2019","04","10","18:00","-10.6","","-13.7","","77","","","","17","","15","","","M","101.76","","","","-17","","NA"
"-79.03","69.08","ROWLEY ISLAND","2403625","2019-04-10 19:00","2019","04","10","19:00","-12.2","","-13.4","","91","","","","16","","21","","","M","101.73","","","","-21","","NA"
"-79.03","69.08","ROWLEY ISLAND","2403625","2019-04-10 20:00","2019","04","10","20:00","-14.2","","-15.3","","92","","","","15","","26","","","M","101.72","","","","-24","","NA"
"-79.03","69.08","ROWLEY ISLAND","2403625","2019-04-10 21:00","2019","04","10","21:00","-14.4","","-15.7","","90","","","","15","","28","","","M","101.70","","","","-25","","NA"
"-79.03","69.08","ROWLEY ISLAND","2403625","2019-04-10 22:00","2019","04","10","22:00","-12.8","","-14.0","","90","","","","17","","15","","","M","101.67","","","","-20","","NA"
"-79.03","69.08","ROWLEY ISLAND","2403625","2019-04-10 23:00","2019","04","10","23:00","-12.2","","-13.4","","91","","","","16","","21","","","M","101.63","","","","-21","","NA"
"-79.03","69.08","ROWLEY ISLAND","2403625","2019-04-11 00:00","2019","04","11","00:00","-12.2","","-13.4","","91","","","","15","","9","","","M","101.58","","","","-17","","NA"
"-79.03","69.08","ROWLEY ISLAND","2403625","2019-04-11 01:00","2019","04","11","01:00","-12.5","","-13.7","","91","","","","14","","11","","","M","101.57","","","","-19","","NA"
"-79.03","69.08","ROWLEY ISLAND","2403625","2019-04-11 02:00","2019","04","11","02:00","-11.5","","-12.6","","91","","","","14","","8","","","M","101.56","","","","-16","","NA"
"-79.03","69.08","ROWLEY ISLAND","2403625","2019-04-11 03:00","2019","04","11","03:00","-10.5","","-11.6","","92","","","","12","","9","","","M","101.52","","","","-15","","NA"
"-79.03","69.08","ROWLEY ISLAND","2403625","2019-04-11 04:00","2019","04","11","04:00","-11.9","","-13.1","","90","","","","15","","11","","","M","101.52","","","","-18","","NA"
"-79.03","69.08","ROWLEY ISLAND","2403625","2019-04-11 05:00","2019","04","11","05:00","-12.0","","-13.2","","91","","","","15","","13","","","M","101.51","","","","-19","","NA"
"-79.03","69.08","ROWLEY ISLAND","2403625","2019-04-11 06:00","2019","04","11","06:00","-11.5","","-12.9","","89","","","","15","","13","","","M","101.50","","","","-18","","NA"
"-79.03","69.08","ROWLEY ISLAND","2403625","2019-04-11 07:00","2019","04","11","07:00","-9.6","","-11.0","","89","","","","18","","9","","","M","101.52","","","","-14","","NA"
"-79.03","69.08","ROWLEY ISLAND","2403625","2019-04-11 08:00","2019","04","11","08:00","-8.3","","-10.4","","85","","","","21","","9","","","M","101.50","","","","-13","","NA"
"-79.03","69.08","ROWLEY ISLAND","2403625","2019-04-11 09:00","2019","04","11","09:00","-7.5","","-9.7","","84","","","","23","","8","","","M","101.50","","","","-12","","NA"
"-79.03","69.08","ROWLEY ISLAND","2403625","2019-04-11 10:00","2019","04","11","10:00","-4.6","","-8.8","","73","","","","25","","8","","","M","101.51","","","","-8","","NA"
"-79.03","69.08","ROWLEY ISLAND","2403625","2019-04-11 11:00","2019","04","11","11:00","-4.5","","-8.8","","71","","","","24","","5","","","M","101.49","","","","-7","","NA"
"-79.03","69.08","ROWLEY ISLAND","2403625","2019-04-11 12:00","2019","04","11","12:00","-2.1","","-8.4","","61","","","","22","","4","","","M","101.47","","","","-4","","NA"
"-79.03","69.08","ROWLEY ISLAND","2403625","2019-04-11 13:00","2019","04","11","13:00","0.6","","-8.3","","51","","","","21","","4","","","M","101.45","","","","","","NA"
"-79.03","69.08","ROWLEY ISLAND","2403625","2019-04-11 14:00","2019","04","11","14:00","-1.7","","-8.1","","61","","","","22","","5","","","M","101.47","","","","-4","","NA"
"-79.03","69.08","ROWLEY ISLAND","2403625","2019-04-11 15:00","2019","04","11","15:00","-3.6","","-8.3","","70","","","","28","","9","","","M","101.49","","","","-7","","NA"
"-79.03","69.08","ROWLEY ISLAND","2403625","2019-04-11 16:00","2019","04","11","16:00","-5.2","","-8.3","","78","","","","35","","11","","","M","101.49","","","","-10","","NA"
"-79.03","69.08","ROWLEY ISLAND","2403625","2019-04-11 17:00","2019","04","11","17:00","-5.5","","-8.7","","78","","","","35","","9","","","M","101.51","","","","-10","","NA"
"-79.03","69.08","ROWLEY ISLAND","2403625","2019-04-11 18:00","2019","04","11","18:00","-6.6","","-8.9","","83","","","","33","","13","","","M","101.50","","","","-12","","NA"
"-79.03","69.08","ROWLEY ISLAND","2403625","2019-04-11 19:00","2019","04","11","19:00","-7.8","","-9.4","","88","","","","33","","15","","","M","101.50","","","","-14","","NA"
"-79.03","69.08","ROWLEY ISLAND","2403625","2019-04-11 20:00","2019","04","11","20:00","-8.6","","-10.0","","90","","","","34","","15","","","M","101.50","","","","-15","","NA"
"-79.03","69.08","ROWLEY ISLAND","2403625","2019-04-11 21:00","2019","04","11","21:00","-9.0","","-10.3","","90","","","","33","","11","","","M","101.51","","","","-14","","NA"
"-79.03","69.08","ROWLEY ISLAND","2403625","2019-04-11 22:00","2019","04","11","22:00","-9.2","","-10.5","","90","","","","33","","15","","","M","101.50","","","","-16","","NA"
"-79.03","69.08","ROWLEY ISLAND","2403625","2019-04-11 23:00","2019","04","11","23:00","-9.3","","-10.6","","91","","","","32","","15","","","M","101.48","","","","-16","","NA"
"-79.03","69.08","ROWLEY ISLAND","2403625","2019-04-12 00:00","2019","04","12","00:00","-9.3","","-10.9","","88","","","","32","","17","","","M","101.45","","","","-16","","NA"
"-79.03","69.08","ROWLEY ISLAND","2403625","2019-04-12 01:00","2019","04","12","01:00","-9.6","","-10.9","","90","","","","33","","13","","","M","101.43","","","","-16","","NA"
"-79.03","69.08","ROWLEY ISLAND","2403625","2019-04-12 02:00","2019","04","12","02:00","-9.8","","-11.1","","90","","","","33","","11","","","M","101.43","","","","-15","","NA"
"-79.03","69.08","ROWLEY ISLAND","2403625","2019-04-12 03:00","2019","04","12","03:00","-9.9","","-11.1","","91","","","","34","","13","","","M","101.45","","","","-16","","NA"
"-79.03","69.08","ROWLEY ISLAND","2403625","2019-04-12 04:00","2019","04","12","04:00","-10.1","","-11.6","","89","","","","32","","17","","","M","101.43","","","","-17","","NA"
"-79.03","69.08","ROWLEY ISLAND","2403625","2019-04-12 05:00","2019","04","12","05:00","-10.4","","-11.8","","89","","","","33","","17","","","M","101.44","","","","-18","","NA"
"-79.03","69.08","ROWLEY ISLAND","2403625","2019-04-12 06:00","2019","04","12","06:00","-10.1","","-11.8","","87","","","","33","","15","","","M","101.43","","","","-17","","NA"
"-79.03","69.08","ROWLEY ISLAND","2403625","2019-04-12 07:00","2019","04","12","07:00","-9.2","","-11.7","","82","","","","33","","11","","","M","101.41","","","","-15","","NA"
"-79.03","69.08","ROWLEY ISLAND","2403625","2019-04-12 08:00","2019","04","12","08:00","-8.1","","-11.3","","77","","","","34","","9","","","M","101.37","","","","-13","","NA"
"-79.03","69.08","ROWLEY ISLAND","2403625","2019-04-12 09:00","2019","04","12","09:00","-6.7","","-10.9","","72","","","","32","","8","","","M","101.37","","","","-11","","NA"
"-79.03","69.08","ROWLEY ISLAND","2403625","2019-04-12 10:00","2019","04","12","10:00","-5.6","","-10.5","","68","","","","34","","8","","","M","101.34","","","","-9","","NA"
"-79.03","69.08","ROWLEY ISLAND","2403625","2019-04-12 11:00","2019","04","12","11:00","-5.5","","-10.4","","68","","","","36","","9","","","M","101.30","","","","-10","","NA"
"-79.03","69.08","ROWLEY ISLAND","2403625","2019-04-12 12:00","2019","04","12","12:00","-3.0","","-10.3","","57","","","","3","","2","","","M","101.28","","","","-4","","NA"
"-79.03","69.08","ROWLEY ISLAND","2403625","2019-04-12 13:00","2019","04","12","13:00","-2.5","","-10.2","","55","","","","2","","4","","","M","101.27","","","","-4","","NA"
"-79.03","69.08","ROWLEY ISLAND","2403625","2019-04-12 14:00","2019","04","12","14:00","-3.4","","-10.4","","58","","","","9","","5","","","M","101.26","","","","-5","","NA"
"-79.03","69.08","ROWLEY ISLAND","2403625","2019-04-12 15:00","2019","04","12","15:00","-3.7","","-10.2","","61","","","","5","","4","","","M","101.22","","","","-5","","NA"
"-79.03","69.08","ROWLEY ISLAND","2403625","2019-04-12 16:00","2019","04","12","16:00","-5.7","","-10.3","","70","","","","6","","5","","","M","101.21","","","","-8","","NA"
"-79.03","69.08","ROWLEY ISLAND","2403625","2019-04-12 17:00","2019","04","12","17:00","-7.7","","-10.4","","81","","","","9","","8","","","M","101.19","","","","-12","","NA"
"-79.03","69.08","ROWLEY ISLAND","2403625","2019-04-12 18:00","2019","04","12","18:00","-8.6","","-10.6","","85","","","","8","","9","","","M","101.15","","","","-13","","NA"
"-79.03","69.08","ROWLEY ISLAND","2403625","2019-04-12 19:00","2019","04","12","19:00","-9.3","","-10.9","","88","","","","9","","11","","","M","101.10","","","","-15","","NA"
"-79.03","69.08","ROWLEY ISLAND","2403625","2019-04-12 20:00","2019","04","12","20:00","-9.5","","-10.8","","90","","","","8","","11","","","M","101.05","","","","-15","","NA"
"-79.03","69.08","ROWLEY ISLAND","2403625","2019-04-12 21:00","2019","04","12","21:00","-10.1","","-11.2","","91","","","","8","","8","","","M","101.02","","","","-15","","NA"
"-79.03","69.08","ROWLEY ISLAND","2403625","2019-04-12 22:00","2019","04","12","22:00","-10.4","","-11.5","","92","","","","8","","5","","","M","100.96","","","","-13","","NA"
"-79.03","69.08","ROWLEY ISLAND","2403625","2019-04-12 23:00","2019","04","12","23:00","-10.4","","-11.4","","92","","","","9","","11","","","M","100.87","","","","-16","","NA"
"-79.03","69.08","ROWLEY ISLAND","2403625","2019-04-13 00:00","2019","04","13","00:00","-10.3","","-11.3","","93","","","","8","","9","","","M","100.83","","","","-15","","NA"
"-79.03","69.08","ROWLEY ISLAND","2403625","2019-04-13 01:00","2019","04","13","01:00","-10.0","","-11.0","","93","","","","9","","11","","","M","100.76","","","","-16","","NA"
"-79.03","69.08","ROWLEY ISLAND","2403625","2019-04-13 02:00","2019","04","13","02:00","-9.7","","-10.7","","93","","","","9","","13","","","M","100.69","","","","-16","","NA"
"-79.03","69.08","ROWLEY ISLAND","2403625","2019-04-13 03:00","2019","04","13","03:00","-9.8","","-10.7","","93","","","","11","","11","","","M","100.64","","","","-15","","NA"
"-79.03","69.08","ROWLEY ISLAND","2403625","2019-04-13 04:00","2019","04","13","04:00","-9.6","","-11.2","","88","","","","7","","8","","","M","100.59","","","","-14","","NA"
"-79.03","69.08","ROWLEY ISLAND","2403625","2019-04-13 05:00","2019","04","13","05:00","-10.1","","-11.1","","92","","","","10","","15","","","M","100.52","","","","-17","","NA"
"-79.03","69.08","ROWLEY ISLAND","2403625","2019-04-13 06:00","2019","04","13","06:00","-10.1","","-11.3","","91","","","","11","","11","","","M","100.47","","","","-16","","NA"
"-79.03","69.08","ROWLEY ISLAND","2403625","2019-04-13 07:00","2019","04","13","07:00","-9.6","","-11.1","","89","","","","11","","11","","","M","100.42","","","","-15","","NA"
"-79.03","69.08","ROWLEY ISLAND","2403625","2019-04-13 08:00","2019","04","13","08:00","-9.2","","-11.4","","84","","","","9","","11","","","M","100.36","","","","-15","","NA"
"-79.03","69.08","ROWLEY ISLAND","2403625","2019-04-13 09:00","2019","04","13","09:00","-9.5","","-12.0","","82","","","","9","","13","","","M","100.34","","","","-16","","NA"
"-79.03","69.08","ROWLEY ISLAND","2403625","2019-04-13 10:00","2019","04","13","10:00","-6.0","","-11.1","","67","","","","7","","5","","","M","100.26","","","","-8","","NA"
"-79.03","69.08","ROWLEY ISLAND","2403625","2019-04-13 11:00","2019","04","13","11:00","-8.1","","-12.1","","72","","","","5","","13","","","M","100.24","","","","-14","","NA"
"-79.03","69.08","ROWLEY ISLAND","2403625","2019-04-13 12:00","2019","04","13","12:00","-8.3","","-12.1","","74","","","","5","","17","","","M","100.21","","","","-15","","NA"
"-79.03","69.08","ROWLEY ISLAND","2403625","2019-04-13 13:00","2019","04","13","13:00","-9.5","","-12.5","","79","","","","5","","18","","","M","100.21","","","","-17","","NA"
"-79.03","69.08","ROWLEY ISLAND","2403625","2019-04-13 14:00","2019","04","13","14:00","-10.2","","-13.0","","79","","","","4","","18","","","M","100.20","","","","-18","","NA"
"-79.03","69.08","ROWLEY ISLAND","2403625","2019-04-13 15:00","2019","04","13","15:00","-11.1","","-13.8","","80","","","","4","","22","","","M","100.22","","","","-20","","NA"
"-79.03","69.08","ROWLEY ISLAND","2403625","2019-04-13 16:00","2019","04","13","16:00","-11.4","","-14.0","","81","","","","5","","18","","","M","100.30","","","","-19","","NA"
"-79.03","69.08","ROWLEY ISLAND","2403625","2019-04-13 17:00","2019","04","13","17:00","-11.5","","-13.8","","83","","","","5","","15","","","M","100.32","","","","-19","","NA"
"-79.03","69.08","ROWLEY ISLAND","2403625","2019-04-13 18:00","2019","04","13","18:00","-11.7","","-13.6","","86","","","","36","","18","","","M","100.35","","","","-20","","NA"
"-79.03","69.08","ROWLEY ISLAND","2403625","2019-04-13 19:00","2019","04","13","19:00","-12.4","","-14.1","","87","","","","35","","21","","","M","100.38","","","","-21","","NA"
"-79.03","69.08","ROWLEY ISLAND","2403625","2019-04-13 20:00","2019","04","13","20:00","-13.4","","-15.1","","87","","","","35","","21","","","M","100.40","","","","-22","","NA"
"-79.03","69.08","ROWLEY ISLAND","2403625","2019-04-13 21:00","2019","04","13","21:00","-14.9","","-16.6","","87","","","","34","","22","","","M","100.39","","","","-24","","NA"
"-79.03","69.08","ROWLEY ISLAND","2403625","2019-04-13 22:00","2019","04","13","22:00","-18.1","","-20.0","","85","","","","34","","26","","","M","100.40","","","","-29","","NA"
"-79.03","69.08","ROWLEY ISLAND","2403625","2019-04-13 23:00","2019","04","13","23:00","-19.4","","-21.4","","84","","","","34","","28","","","M","100.37","","","","-31","","NA"
"-79.03","69.08","ROWLEY ISLAND","2403625","2019-04-14 00:00","2019","04","14","00:00","-20.9","","-23.1","","82","","","","33","","26","","","M","100.37","","","","-33","","NA"
"-79.03","69.08","ROWLEY ISLAND","2403625","2019-04-14 01:00","2019","04","14","01:00","-21.5","","-23.8","","82","","","","33","","28","","","M","100.40","","","","-34","","NA"
"-79.03","69.08","ROWLEY ISLAND","2403625","2019-04-14 02:00","2019","04","14","02:00","-22.1","","-24.4","","81","","","","33","","30","","","M","100.39","","","","-35","","NA"
"-79.03","69.08","ROWLEY ISLAND","2403625","2019-04-14 03:00","2019","04","14","03:00","-23.1","","-25.5","","81","","","","33","","30","","","M","100.40","","","","-37","","NA"
"-79.03","69.08","ROWLEY ISLAND","2403625","2019-04-14 04:00","2019","04","14","04:00","-24.2","","-26.7","","80","","","","32","","30","","","M","100.42","","","","-38","","NA"
"-79.03","69.08","ROWLEY ISLAND","2403625","2019-04-14 05:00","2019","04","14","05:00","-24.7","","-27.2","","79","","","","32","","26","","","M","100.46","","","","-38","","NA"
"-79.03","69.08","ROWLEY ISLAND","2403625","2019-04-14 06:00","2019","04","14","06:00","-23.5","","-26.2","","78","","","","32","","26","","","M","100.47","","","","-36","","NA"
"-79.03","69.08","ROWLEY ISLAND","2403625","2019-04-14 07:00","2019","04","14","07:00","-22.3","","-25.5","","76","","","","32","","26","","","M","100.48","","","","-35","","NA"
"-79.03","69.08","ROWLEY ISLAND","2403625","2019-04-14 08:00","2019","04","14","08:00","-21.0","","-24.5","","73","","","","31","","30","","","M","100.48","","","","-34","","NA"
"-79.03","69.08","ROWLEY ISLAND","2403625","2019-04-14 09:00","2019","04","14","09:00","-19.9","","-23.8","","71","","","","32","","31","","","M","100.45","","","","-33","","NA"
"-79.03","69.08","ROWLEY ISLAND","2403625","2019-04-14 10:00","2019","04","14","10:00","-18.7","","-23.0","","69","","","","31","","31","","","M","100.45","","","","-31","","NA"
"-79.03","69.08","ROWLEY ISLAND","2403625","2019-04-14 11:00","2019","04","14","11:00","-18.1","","-22.7","","67","","","","32","","34","","","M","100.43","","","","-31","","NA"
"-79.03","69.08","ROWLEY ISLAND","2403625","2019-04-14 12:00","2019","04","14","12:00","-17.5","","-22.3","","66","","","","32","","39","","","M","100.41","","","","-31","","NA"
"-79.03","69.08","ROWLEY ISLAND","2403625","2019-04-14 13:00","2019","04","14","13:00","-17.1","","-21.9","","66","","","","32","","34","","","M","100.46","","","","-29","","NA"
"-79.03","69.08","ROWLEY ISLAND","2403625","2019-04-14 14:00","2019","04","14","14:00","-16.5","","-21.7","","64","","","","31","","39","","","M","100.44","","","","-29","","NA"
"-79.03","69.08","ROWLEY ISLAND","2403625","2019-04-14 15:00","2019","04","14","15:00","-16.6","","-21.5","","66","","","","32","","37","","","M","100.50","","","","-29","","NA"
"-79.03","69.08","ROWLEY ISLAND","2403625","2019-04-14 16:00","2019","04","14","16:00","-17.0","","-21.5","","68","","","","32","","37","","","M","100.55","","","","-30","","NA"
"-79.03","69.08","ROWLEY ISLAND","2403625","2019-04-14 17:00","2019","04","14","17:00","-17.6","","-21.7","","70","","","","32","","37","","","M","100.57","","","","-31","","NA"
"-79.03","69.08","ROWLEY ISLAND","2403625","2019-04-14 18:00","2019","04","14","18:00","-18.4","","-22.0","","73","","","","32","","35","","","M","100.58","","","","-31","","NA"
"-79.03","69.08","ROWLEY ISLAND","2403625","2019-04-14 19:00","2019","04","14","19:00","-19.4","","-22.6","","76","","","","32","","30","","","M","100.60","","","","-32","","NA"
"-79.03","69.08","ROWLEY ISLAND","2403625","2019-04-14 20:00","2019","04","14","20:00","-21.0","","-23.5","","80","","","","31","","26","","","M","100.60","","","","-33","","NA"
"-79.03","69.08","ROWLEY ISLAND","2403625","2019-04-14 21:00","2019","04","14","21:00","-21.7","","-24.0","","81","","","","32","","26","","","M","100.60","","","","-34","","NA"
"-79.03","69.08","ROWLEY ISLAND","2403625","2019-04-14 22:00","2019","04","14","22:00","-22.3","","-24.8","","80","","","","32","","24","","","M","100.56","","","","-34","","NA"
"-79.03","69.08","ROWLEY ISLAND","2403625","2019-04-14 23:00","2019","04","14","23:00","-23.1","","-25.5","","81","","","","32","","26","","","M","100.54","","","","-36","","NA"
"-79.03","69.08","ROWLEY ISLAND","2403625","2019-04-15 00:00","2019","04","15","00:00","-23.5","","-26.0","","80","","","","34","","30","","","M","100.53","","","","-37","","NA"
"-79.03","69.08","ROWLEY ISLAND","2403625","2019-04-15 01:00","2019","04","15","01:00","-24.3","","-26.9","","79","","","","32","","30","","","M","100.56","","","","-38","","NA"
"-79.03","69.08","ROWLEY ISLAND","2403625","2019-04-15 02:00","2019","04","15","02:00","-25.0","","-27.6","","79","","","","33","","30","","","M","100.58","","","","-39","","NA"
"-79.03","69.08","ROWLEY ISLAND","2403625","2019-04-15 03:00","2019","04","15","03:00","-25.4","","-28.0","","79","","","","33","","28","","","M","100.61","","","","-39","","NA"
"-79.03","69.08","ROWLEY ISLAND","2403625","2019-04-15 04:00","2019","04","15","04:00","-25.7","","-28.4","","78","","","","32","","31","","","M","100.59","","","","-40","","NA"
"-79.03","69.08","ROWLEY ISLAND","2403625","2019-04-15 05:00","2019","04","15","05:00","-25.5","","-28.3","","77","","","","32","","31","","","M","100.61","","","","-40","","NA"
"-79.03","69.08","ROWLEY ISLAND","2403625","2019-04-15 06:00","2019","04","15","06:00","-25.1","","-28.1","","76","","","","32","","34","","","M","100.62","","","","-40","","NA"
"-79.03","69.08","ROWLEY ISLAND","2403625","2019-04-15 07:00","2019","04","15","07:00","-24.3","","-27.6","","74","","","","32","","31","","","M","100.62","","","","-38","","NA"
"-79.03","69.08","ROWLEY ISLAND","2403625","2019-04-15 08:00","2019","04","15","08:00","-23.0","","-26.9","","70","","","","31","","34","","","M","100.62","","","","-37","","NA"
"-79.03","69.08","ROWLEY ISLAND","2403625","2019-04-15 09:00","2019","04","15","09:00","-21.8","","-26.3","","66","","","","32","","30","","","M","100.63","","","","-35","","NA"
"-79.03","69.08","ROWLEY ISLAND","2403625","2019-04-15 10:00","2019","04","15","10:00","-20.4","","-25.7","","62","","","","32","","28","","","M","100.66","","","","-33","","NA"
"-79.03","69.08","ROWLEY ISLAND","2403625","2019-04-15 11:00","2019","04","15","11:00","-19.2","","-25.3","","58","","","","34","","24","","","M","100.70","","","","-30","","NA"
"-79.03","69.08","ROWLEY ISLAND","2403625","2019-04-15 12:00","2019","04","15","12:00","-18.1","","-23.3","","63","","","","32","","28","","","M","100.68","","","","-30","","NA"
"-79.03","69.08","ROWLEY ISLAND","2403625","2019-04-15 13:00","2019","04","15","13:00","-18.1","","-23.8","","61","","","","32","","26","","","M","100.73","","","","-29","","NA"
"-79.03","69.08","ROWLEY ISLAND","2403625","2019-04-15 14:00","2019","04","15","14:00","-18.0","","-24.1","","59","","","","32","","24","","","M","100.76","","","","-29","","NA"
"-79.03","69.08","ROWLEY ISLAND","2403625","2019-04-15 15:00","2019","04","15","15:00","-18.4","","-23.9","","62","","","","32","","24","","","M","100.76","","","","-29","","NA"
"-79.03","69.08","ROWLEY ISLAND","2403625","2019-04-15 16:00","2019","04","15","16:00","-18.6","","-24.1","","62","","","","33","","15","","","M","100.79","","","","-27","","NA"
"-79.03","69.08","ROWLEY ISLAND","2403625","2019-04-15 17:00","2019","04","15","17:00","-20.1","","-24.3","","69","","","","31","","17","","","M","100.84","","","","-30","","NA"
"-79.03","69.08","ROWLEY ISLAND","2403625","2019-04-15 18:00","2019","04","15","18:00","-21.3","","-25.0","","72","","","","30","","13","","","M","100.87","","","","-30","","NA"
"-79.03","69.08","ROWLEY ISLAND","2403625","2019-04-15 19:00","2019","04","15","19:00"
"-79.03","69.08","ROWLEY ISLAND","2403625","2019-04-15 20:00","2019","04","15","20:00","-23.7","","-26.3","","79","","","","30","","18","","","M","100.92","","","","-35","","NA"
"-79.03","69.08","ROWLEY ISLAND","2403625","2019-04-15 21:00","2019","04","15","21:00","-24.9","","-27.7","","77","","","","30","","21","","","M","100.96","","","","-37","","NA"
"-79.03","69.08","ROWLEY ISLAND","2403625","2019-04-15 22:00","2019","04","15","22:00","-25.1","","-27.9","","77","","","","32","","11","","","M","100.97","","","","-34","","NA"
"-79.03","69.08","ROWLEY ISLAND","2403625","2019-04-15 23:00","2019","04","15","23:00","-24.8","","-27.0","","81","","","","30","","4","","","M","100.97","","","","-29","","NA"
"-79.03","69.08","ROWLEY ISLAND","2403625","2019-04-16 00:00","2019","04","16","00:00","-25.0","","-27.6","","79","","","","29","","13","","","M","100.96","","","","-34","","NA"
"-79.03","69.08","ROWLEY ISLAND","2403625","2019-04-16 01:00","2019","04","16","01:00","-24.8","","-27.2","","81","","","","28","","13","","","M","100.97","","","","-34","","NA"
"-79.03","69.08","ROWLEY ISLAND","2403625","2019-04-16 02:00","2019","04","16","02:00","-25.5","","-28.1","","79","","","","27","","17","","","M","100.97","","","","-37","","NA"
"-79.03","69.08","ROWLEY ISLAND","2403625","2019-04-16 03:00","2019","04","16","03:00","-25.1","","-27.8","","78","","","","25","","9","","","M","101.03","","","","-33","","NA"
"-79.03","69.08","ROWLEY ISLAND","2403625","2019-04-16 04:00","2019","04","16","04:00","-24.9","","-27.4","","80","","","","27","","17","","","M","101.05","","","","-36","","NA"
"-79.03","69.08","ROWLEY ISLAND","2403625","2019-04-16 05:00","2019","04","16","05:00","-24.5","","-26.8","","81","","","","27","","13","","","M","101.09","","","","-34","","NA"
"-79.03","69.08","ROWLEY ISLAND","2403625","2019-04-16 06:00","2019","04","16","06:00","-24.0","","-26.9","","77","","","","24","","13","","","M","101.10","","","","-33","","NA"
"-79.03","69.08","ROWLEY ISLAND","2403625","2019-04-16 07:00","2019","04","16","07:00","-23.2","","-26.3","","75","","","","22","","18","","","M","101.12","","","","-34","","NA"
"-79.03","69.08","ROWLEY ISLAND","2403625","2019-04-16 08:00","2019","04","16","08:00","-21.9","","-25.7","","71","","","","24","","17","","","M","101.13","","","","-32","","NA"
"-79.03","69.08","ROWLEY ISLAND","2403625","2019-04-16 09:00","2019","04","16","09:00","-20.1","","-25.0","","65","","","","25","","15","","","M","101.12","","","","-29","","NA"
"-79.03","69.08","ROWLEY ISLAND","2403625","2019-04-16 10:00","2019","04","16","10:00","-18.7","","-23.8","","64","","","","26","","17","","","M","101.11","","","","-28","","NA"
"-79.03","69.08","ROWLEY ISLAND","2403625","2019-04-16 11:00","2019","04","16","11:00","-18.2","","-23.2","","65","","","","27","","24","","","M","101.11","","","","-29","","NA"
"-79.03","69.08","ROWLEY ISLAND","2403625","2019-04-16 12:00","2019","04","16","12:00","-18.4","","-23.4","","65","","","","27","","21","","","M","101.13","","","","-29","","NA"
"-79.03","69.08","ROWLEY ISLAND","2403625","2019-04-16 13:00","2019","04","16","13:00","-18.0","","-23.2","","64","","","","24","","21","","","M","101.17","","","","-28","","NA"
"-79.03","69.08","ROWLEY ISLAND","2403625","2019-04-16 14:00","2019","04","16","14:00","-18.2","","-23.6","","62","","","","29","","22","","","M","101.18","","","","-29","","NA"
"-79.03","69.08","ROWLEY ISLAND","2403625","2019-04-16 15:00","2019","04","16","15:00","-18.1","","-23.7","","62","","","","29","","17","","","M","101.22","","","","-27","","NA"
"-79.03","69.08","ROWLEY ISLAND","2403625","2019-04-16 16:00","2019","04","16","16:00","-17.8","","-23.1","","63","","","","31","","17","","","M","101.24","","","","-27","","NA"
"-79.03","69.08","ROWLEY ISLAND","2403625","2019-04-16 17:00","2019","04","16","17:00","-19.3","","-23.3","","70","","","","32","","22","","","M","101.27","","","","-30","","NA"
"-79.03","69.08","ROWLEY ISLAND","2403625","2019-04-16 18:00","2019","04","16","18:00","-19.3","","-23.9","","67","","","","32","","18","","","M","101.32","","","","-29","","NA"
"-79.03","69.08","ROWLEY ISLAND","2403625","2019-04-16 19:00","2019","04","16","19:00","-21.9","","-25.2","","74","","","","32","","15","","","M","101.34","","","","-31","","NA"
"-79.03","69.08","ROWLEY ISLAND","2403625","2019-04-16 20:00","2019","04","16","20:00","-22.7","","-25.2","","79","","","","30","","18","","","M","101.34","","","","-33","","NA"
"-79.03","69.08","ROWLEY ISLAND","2403625","2019-04-16 21:00","2019","04","16","21:00","-22.4","","-24.8","","81","","","","33","","17","","","M","101.34","","","","-33","","NA"
"-79.03","69.08","ROWLEY ISLAND","2403625","2019-04-16 22:00","2019","04","16","22:00","-22.2","","-24.5","","82","","","","29","","11","","","M","101.32","","","","-30","","NA"
"-79.03","69.08","ROWLEY ISLAND","2403625","2019-04-16 23:00","2019","04","16","23:00","-22.7","","-24.7","","83","","","","32","","8","","","M","101.29","","","","-29","","NA"
"-79.03","69.08","ROWLEY ISLAND","2403625","2019-04-17 00:00","2019","04","17","00:00","-23.2","","-25.4","","82","","","","32","","8","","","M","101.27","","","","-30","","NA"
"-79.03","69.08","ROWLEY ISLAND","2403625","2019-04-17 01:00","2019","04","17","01:00","-26.4","","-29.0","","79","","","","16","","17","","","M","101.26","","","","-38","","NA"
"-79.03","69.08","ROWLEY ISLAND","2403625","2019-04-17 02:00","2019","04","17","02:00","-23.9","","-26.0","","83","","","","22","","11","","","M","101.25","","","","-32","","NA"
"-79.03","69.08","ROWLEY ISLAND","2403625","2019-04-17 03:00","2019","04","17","03:00","-25.5","","-28.2","","78","","","","20","","11","","","M","101.24","","","","-34","","NA"
"-79.03","69.08","ROWLEY ISLAND","2403625","2019-04-17 04:00","2019","04","17","04:00","-24.5","","-26.7","","82","","","","23","","9","","","M","101.24","","","","-32","","NA"
"-79.03","69.08","ROWLEY ISLAND","2403625","2019-04-17 05:00","2019","04","17","05:00","-23.0","","-25.5","","80","","","","24","","8","","","M","101.23","","","","-30","","NA"
"-79.03","69.08","ROWLEY ISLAND","2403625","2019-04-17 06:00","2019","04","17","06:00","-21.4","","-24.0","","79","","","","33","","4","","","M","101.22","","","","-25","","NA"
"-79.03","69.08","ROWLEY ISLAND","2403625","2019-04-17 07:00","2019","04","17","07:00","-23.3","","-26.6","","75","","","","16","","15","","","M","101.17","","","","-33","","NA"
"-79.03","69.08","ROWLEY ISLAND","2403625","2019-04-17 08:00","2019","04","17","08:00","-20.5","","-23.5","","77","","","","22","","9","","","M","101.14","","","","-27","","NA"
"-79.03","69.08","ROWLEY ISLAND","2403625","2019-04-17 09:00","2019","04","17","09:00","-19.0","","-23.3","","69","","","","24","","11","","","M","101.10","","","","-26","","NA"
"-79.03","69.08","ROWLEY ISLAND","2403625","2019-04-17 10:00","2019","04","17","10:00","-17.3","","-22.3","","64","","","","24","","13","","","M","101.08","","","","-25","","NA"
"-79.03","69.08","ROWLEY ISLAND","2403625","2019-04-17 11:00","2019","04","17","11:00","-16.2","","-21.1","","66","","","","23","","13","","","M","101.04","","","","-24","","NA"
"-79.03","69.08","ROWLEY ISLAND","2403625","2019-04-17 12:00","2019","04","17","12:00","-16.1","","-20.9","","66","","","","23","","13","","","M","101.01","","","","-24","","NA"
"-79.03","69.08","ROWLEY ISLAND","2403625","2019-04-17 13:00","2019","04","17","13:00","-15.9","","-20.8","","66","","","","25","","21","","","M","101.00","","","","-26","","NA"
"-79.03","69.08","ROWLEY ISLAND","2403625","2019-04-17 14:00","2019","04","17","14:00","-17.1","","-21.2","","71","","","","27","","17","","","M","101.00","","","","-26","","NA"
"-79.03","69.08","ROWLEY ISLAND","2403625","2019-04-17 15:00","2019","04","17","15:00","-16.9","","-20.6","","73","","","","26","","21","","","M","100.99","","","","-27","","NA"
"-79.03","69.08","ROWLEY ISLAND","2403625","2019-04-17 16:00","2019","04","17","16:00","-17.0","","-21.0","","71","","","","28","","18","","","M","101.00","","","","-26","","NA"
"-79.03","69.08","ROWLEY ISLAND","2403625","2019-04-17 17:00","2019","04","17","17:00","-17.4","","-21.1","","73","","","","25","","11","","","M","101.00","","","","-25","","NA"
"-79.03","69.08","ROWLEY ISLAND","2403625","2019-04-17 18:00","2019","04","17","18:00","-17.7","","-21.3","","74","","","","32","","13","","","M","101.02","","","","-26","","NA"
"-79.03","69.08","ROWLEY ISLAND","2403625","2019-04-17 19:00","2019","04","17","19:00","-17.7","","-20.9","","76","","","","30","","8","","","M","101.01","","","","-24","","NA"
"-79.03","69.08","ROWLEY ISLAND","2403625","2019-04-17 20:00","2019","04","17","20:00","-18.9","","-21.6","","79","","","","32","","8","","","M","101.02","","","","-25","","NA"
"-79.03","69.08","ROWLEY ISLAND","2403625","2019-04-17 21:00","2019","04","17","21:00","-19.7","","-21.9","","83","","","","31","","5","","","M","101.03","","","","-24","","NA"
"-79.03","69.08","ROWLEY ISLAND","2403625","2019-04-17 22:00","2019","04","17","22:00","-20.2","","-22.4","","83","","","","36","","11","","","M","100.98","","","","-28","","NA"
"-79.03","69.08","ROWLEY ISLAND","2403625","2019-04-17 23:00","2019","04","17","23:00","-21.1","","-23.4","","82","","","","34","","8","","","M","100.96","","","","-28","","NA"
"-79.03","69.08","ROWLEY ISLAND","2403625","2019-04-18 00:00","2019","04","18","00:00","-21.6","","-23.2","","87","","","","2","","5","","","M","100.95","","","","-26","","NA"
"-79.03","69.08","ROWLEY ISLAND","2403625","2019-04-18 01:00","2019","04","18","01:00","-21.8","","-23.6","","85","","","","4","","9","","","M","100.96","","","","-29","","NA"
"-79.03","69.08","ROWLEY ISLAND","2403625","2019-04-18 02:00","2019","04","18","02:00","-22.6","","-24.5","","84","","","","5","","13","","","M","100.96","","","","-32","","NA"
"-79.03","69.08","ROWLEY ISLAND","2403625","2019-04-18 03:00","2019","04","18","03:00","-23.8","","-25.9","","82","","","","6","","13","","","M","100.96","","","","-33","","NA"
"-79.03","69.08","ROWLEY ISLAND","2403625","2019-04-18 04:00","2019","04","18","04:00","-24.1","","-26.2","","82","","","","6","","15","","","M","100.96","","","","-34","","NA"
"-79.03","69.08","ROWLEY ISLAND","2403625","2019-04-18 05:00","2019","04","18","05:00","-23.9","","-26.2","","81","","","","6","","15","","","M","100.94","","","","-34","","NA"
"-79.03","69.08","ROWLEY ISLAND","2403625","2019-04-18 06:00","2019","04","18","06:00","-23.5","","-26.1","","79","","","","8","","8","","","M","100.93","","","","-30","","NA"
"-79.03","69.08","ROWLEY ISLAND","2403625","2019-04-18 07:00","2019","04","18","07:00","-20.8","","-24.0","","75","","","","7","","8","","","M","100.93","","","","-27","","NA"
"-79.03","69.08","ROWLEY ISLAND","2403625","2019-04-18 08:00","2019","04","18","08:00","-21.2","","-24.8","","72","","","","5","","15","","","M","100.90","","","","-31","","NA"
"-79.03","69.08","ROWLEY ISLAND","2403625","2019-04-18 09:00","2019","04","18","09:00","-19.6","","-24.2","","67","","","","6","","13","","","M","100.88","","","","-28","","NA"
"-79.03","69.08","ROWLEY ISLAND","2403625","2019-04-18 10:00","2019","04","18","10:00","-19.5","","-23.5","","71","","","","8","","8","","","M","100.85","","","","-26","","NA"
"-79.03","69.08","ROWLEY ISLAND","2403625","2019-04-18 11:00","2019","04","18","11:00","-18.0","","-22.6","","67","","","","8","","11","","","M","100.83","","","","-25","","NA"
"-79.03","69.08","ROWLEY ISLAND","2403625","2019-04-18 12:00","2019","04","18","12:00","-16.3","","-21.7","","63","","","","8","","8","","","M","100.81","","","","-22","","NA"
"-79.03","69.08","ROWLEY ISLAND","2403625","2019-04-18 13:00","2019","04","18","13:00","-15.5","","-21.1","","62","","","","7","","5","","","M","100.81","","","","-19","","NA"
"-79.03","69.08","ROWLEY ISLAND","2403625","2019-04-18 14:00","2019","04","18","14:00","-15.4","","-21.0","","62","","","","5","","9","","","M","100.80","","","","-21","","NA"
"-79.03","69.08","ROWLEY ISLAND","2403625","2019-04-18 15:00","2019","04","18","15:00","-16.0","","-21.0","","65","","","","6","","11","","","M","100.77","","","","-23","","NA"
"-79.03","69.08","ROWLEY ISLAND","2403625","2019-04-18 16:00","2019","04","18","16:00","-15.9","","-20.8","","66","","","","6","","9","","","M","100.74","","","","-22","","NA"
"-79.03","69.08","ROWLEY ISLAND","2403625","2019-04-18 17:00","2019","04","18","17:00","-15.8","","-20.6","","67","","","","36","","4","","","M","100.75","","","","-19","","NA"
"-79.03","69.08","ROWLEY ISLAND","2403625","2019-04-18 18:00","2019","04","18","18:00","-17.6","","-20.6","","77","","","","33","","21","","","M","100.74","","","","-28","","NA"
"-79.03","69.08","ROWLEY ISLAND","2403625","2019-04-18 19:00","2019","04","18","19:00","-18.3","","-20.9","","80","","","","35","","21","","","M","100.72","","","","-29","","NA"
"-79.03","69.08","ROWLEY ISLAND","2403625","2019-04-18 20:00","2019","04","18","20:00","-18.9","","-21.6","","79","","","","35","","15","","","M","100.70","","","","-28","","NA"
"-79.03","69.08","ROWLEY ISLAND","2403625","2019-04-18 21:00","2019","04","18","21:00","-21.3","","-23.8","","80","","","","2","","15","","","M","100.67","","","","-31","","NA"
"-79.03","69.08","ROWLEY ISLAND","2403625","2019-04-18 22:00","2019","04","18","22:00","-23.8","","-25.7","","83","","","","4","","13","","","M","100.63","","","","-33","","NA"
"-79.03","69.08","ROWLEY ISLAND","2403625","2019-04-18 23:00","2019","04","18","23:00","-24.3","","-26.1","","85","","","","6","","13","","","M","100.60","","","","-34","","NA"
"-79.03","69.08","ROWLEY ISLAND","2403625","2019-04-19 00:00","2019","04","19","00:00","-25.0","","-27.0","","83","","","","5","","13","","","M","100.55","","","","-34","","NA"
"-79.03","69.08","ROWLEY ISLAND","2403625","2019-04-19 01:00","2019","04","19","01:00","-25.0","","-27.1","","83","","","","3","","15","","","M","100.51","","","","-35","","NA"
"-79.03","69.08","ROWLEY ISLAND","2403625","2019-04-19 02:00","2019","04","19","02:00","-24.6","","-26.7","","82","","","","4","","13","","","M","100.50","","","","-34","","NA"
"-79.03","69.08","ROWLEY ISLAND","2403625","2019-04-19 03:00","2019","04","19","03:00","-25.0","","-27.2","","82","","","","7","","9","","","M","100.47","","","","-33","","NA"
"-79.03","69.08","ROWLEY ISLAND","2403625","2019-04-19 04:00","2019","04","19","04:00","-24.8","","-27.1","","81","","","","6","","13","","","M","100.44","","","","-34","","NA"
"-79.03","69.08","ROWLEY ISLAND","2403625","2019-04-19 05:00","2019","04","19","05:00","-24.7","","-27.1","","80","","","","6","","15","","","M","100.42","","","","-35","","NA"
"-79.03","69.08","ROWLEY ISLAND","2403625","2019-04-19 06:00","2019","04","19","06:00","-23.6","","-26.2","","79","","","","5","","13","","","M","100.39","","","","-33","","NA"
"-79.03","69.08","ROWLEY ISLAND","2403625","2019-04-19 07:00","2019","04","19","07:00","-22.4","","-25.4","","76","","","","6","","13","","","M","100.37","","","","-31","","NA"
"-79.03","69.08","ROWLEY ISLAND","2403625","2019-04-19 08:00","2019","04","19","08:00","-21.0","","-24.8","","72","","","","6","","13","","","M","100.33","","","","-30","","NA"
"-79.03","69.08","ROWLEY ISLAND","2403625","2019-04-19 09:00","2019","04","19","09:00","-19.9","","-24.8","","65","","","","5","","11","","","M","100.29","","","","-28","","NA"
"-79.03","69.08","ROWLEY ISLAND","2403625","2019-04-19 10:00","2019","04","19","10:00","-17.1","","-23.3","","59","","","","4","","8","","","M","100.25","","","","-23","","NA"
"-79.03","69.08","ROWLEY ISLAND","2403625","2019-04-19 11:00","2019","04","19","11:00","-16.5","","-23.5","","55","","","","5","","9","","","M","100.19","","","","-23","","NA"
"-79.03","69.08","ROWLEY ISLAND","2403625","2019-04-19 12:00","2019","04","19","12:00","-16.1","","-24.1","","50","","","","4","","8","","","M","100.17","","","","-22","","NA"
"-79.03","69.08","ROWLEY ISLAND","2403625","2019-04-19 13:00","2019","04","19","13:00","-14.4","","-23.7","","45","","","","4","","5","","","M","100.14","","","","-18","","NA"
"-79.03","69.08","ROWLEY ISLAND","2403625","2019-04-19 14:00","2019","04","19","14:00","-13.9","","-23.5","","44","","","","5","","5","","","M","100.11","","","","-17","","NA"
"-79.03","69.08","ROWLEY ISLAND","2403625","2019-04-19 15:00","2019","04","19","15:00","-14.5","","-23.2","","48","","","","4","","8","","","M","100.09","","","","-20","","NA"
"-79.03","69.08","ROWLEY ISLAND","2403625","2019-04-19 16:00","2019","04","19","16:00","-13.2","","-22.8","","44","","","","14","","4","","","M","100.07","","","","-16","","NA"
"-79.03","69.08","ROWLEY ISLAND","2403625","2019-04-19 17:00","2019","04","19","17:00","-15.1","","-23.5","","49","","","","13","","8","","","M","100.06","","","","-20","","NA"
"-79.03","69.08","ROWLEY ISLAND","2403625","2019-04-19 18:00","2019","04","19","18:00","-19.8","","-24.1","","68","","","","11","","9","","","M","100.04","","","","-27","","NA"
"-79.03","69.08","ROWLEY ISLAND","2403625","2019-04-19 19:00","2019","04","19","19:00","-20.4","","-23.4","","77","","","","8","","9","","","M","100.00","","","","-27","","NA"
"-79.03","69.08","ROWLEY ISLAND","2403625","2019-04-19 20:00","2019","04","19","20:00","-22.0","","-24.2","","82","","","","12","","11","","","M","99.98","","","","-30","","NA"
"-79.03","69.08","ROWLEY ISLAND","2403625","2019-04-19 21:00","2019","04","19","21:00","-21.0","","-23.6","","80","","","","10","","13","","","M","99.95","","","","-30","","NA"
"-79.03","69.08","ROWLEY ISLAND","2403625","2019-04-19 22:00","2019","04","19","22:00","-20.5","","-22.8","","82","","","","15","","11","","","M","99.91","","","","-28","","NA"
"-79.03","69.08","ROWLEY ISLAND","2403625","2019-04-19 23:00","2019","04","19","23:00","-21.4","","-23.2","","85","","","","24","","8","","","M","99.88","","","","-28","","NA"
"-79.03","69.08","ROWLEY ISLAND","2403625","2019-04-20 00:00","2019","04","20","00:00","-20.2","","-22.0","","85","","","","33","","5","","","M","99.87","","","","-25","","NA"
"-79.03","69.08","ROWLEY ISLAND","2403625","2019-04-20 01:00","2019","04","20","01:00","-20.0","","-21.7","","86","","","","32","","4","","","M","99.86","","","","-23","","NA"
"-79.03","69.08","ROWLEY ISLAND","2403625","2019-04-20 02:00","2019","04","20","02:00","-19.5","","-21.4","","85","","","","31","","4","","","M","99.85","","","","-23","","NA"
"-79.03","69.08","ROWLEY ISLAND","2403625","2019-04-20 03:00","2019","04","20","03:00","-19.4","","-21.4","","84","","","","34","","15","","","M","99.85","","","","-28","","NA"
"-79.03","69.08","ROWLEY ISLAND","2403625","2019-04-20 04:00","2019","04","20","04:00","-20.2","","-22.4","","82","","","","34","","15","","","M","99.84","","","","-29","","NA"
"-79.03","69.08","ROWLEY ISLAND","2403625","2019-04-20 05:00","2019","04","20","05:00","-20.3","","-22.7","","81","","","","33","","11","","","M","99.83","","","","-28","","NA"
"-79.03","69.08","ROWLEY ISLAND","2403625","2019-04-20 06:00","2019","04","20","06:00","-19.6","","-22.0","","81","","","","33","","21","","","M","99.83","","","","-30","","NA"
"-79.03","69.08","ROWLEY ISLAND","2403625","2019-04-20 07:00","2019","04","20","07:00","-19.9","","-22.8","","77","","","","33","","22","","","M","99.84","","","","-31","","NA"
"-79.03","69.08","ROWLEY ISLAND","2403625","2019-04-20 08:00","2019","04","20","08:00","-19.3","","-22.8","","74","","","","34","","18","","","M","99.86","","","","-29","","NA"
"-79.03","69.08","ROWLEY ISLAND","2403625","2019-04-20 09:00","2019","04","20","09:00","-19.3","","-23.3","","71","","","","32","","21","","","M","99.86","","","","-30","","NA"
"-79.03","69.08","ROWLEY ISLAND","2403625","2019-04-20 10:00","2019","04","20","10:00","-19.3","","-23.9","","66","","","","32","","24","","","M","99.87","","","","-31","","NA"
"-79.03","69.08","ROWLEY ISLAND","2403625","2019-04-20 11:00","2019","04","20","11:00","-19.1","","-24.4","","63","","","","30","","26","","","M","99.88","","","","-31","","NA"
"-79.03","69.08","ROWLEY ISLAND","2403625","2019-04-20 12:00","2019","04","20","12:00","-18.5","","-23.8","","62","","","","30","","24","","","M","99.89","","","","-29","","NA"
"-79.03","69.08","ROWLEY ISLAND","2403625","2019-04-20 13:00","2019","04","20","13:00","-17.8","","-23.4","","62","","","","31","","18","","","M","99.92","","","","-27","","NA"
"-79.03","69.08","ROWLEY ISLAND","2403625","2019-04-20 14:00","2019","04","20","14:00","-17.5","","-22.8","","63","","","","31","","24","","","M","99.92","","","","-28","","NA"
"-79.03","69.08","ROWLEY ISLAND","2403625","2019-04-20 15:00","2019","04","20","15:00","-17.2","","-22.8","","62","","","","30","","24","","","M","99.95","","","","-28","","NA"
"-79.03","69.08","ROWLEY ISLAND","2403625","2019-04-20 16:00","2019","04","20","16:00","-19.4","","-23.5","","69","","","","33","","22","","","M","99.99","","","","-30","","NA"
"-79.03","69.08","ROWLEY ISLAND","2403625","2019-04-20 17:00","2019","04","20","17:00","-20.6","","-24.0","","74","","","","31","","24","","","M","100.01","","","","-32","","NA"
"-79.03","69.08","ROWLEY ISLAND","2403625","2019-04-20 18:00","2019","04","20","18:00","-21.6","","-24.9","","74","","","","32","","24","","","M","100.06","","","","-33","","NA"
"-79.03","69.08","ROWLEY ISLAND","2403625","2019-04-20 19:00","2019","04","20","19:00","-22.3","","-25.3","","77","","","","31","","22","","","M","100.08","","","","-34","","NA"
"-79.03","69.08","ROWLEY ISLAND","2403625","2019-04-20 20:00","2019","04","20","20:00","-23.9","","-26.9","","76","","","","31","","24","","","M","100.10","","","","-36","","NA"
"-79.03","69.08","ROWLEY ISLAND","2403625","2019-04-20 21:00","2019","04","20","21:00","-26.0","","-28.4","","80","","","","31","","21","","","M","100.10","","","","-38","","NA"
"-79.03","69.08","ROWLEY ISLAND","2403625","2019-04-20 22:00","2019","04","20","22:00","-26.0","","-28.4","","80","","","","30","","21","","","M","100.11","","","","-38","","NA"
"-79.03","69.08","ROWLEY ISLAND","2403625","2019-04-20 23:00","2019","04","20","23:00","-25.0","","-27.5","","80","","","","31","","24","","","M","100.10","","","","-38","","NA"
"-79.03","69.08","ROWLEY ISLAND","2403625","2019-04-21 00:00","2019","04","21","00:00","-23.9","","-26.4","","80","","","","31","","31","","","M","100.09","","","","-38","","NA"
"-79.03","69.08","ROWLEY ISLAND","2403625","2019-04-21 01:00","2019","04","21","01:00","-23.2","","-25.7","","80","","","","32","","34","","","M","100.12","","","","-37","","NA"
"-79.03","69.08","ROWLEY ISLAND","2403625","2019-04-21 02:00","2019","04","21","02:00","-23.2","","-25.7","","80","","","","32","","31","","","M","100.18","","","","-37","","NA"
"-79.03","69.08","ROWLEY ISLAND","2403625","2019-04-21 03:00","2019","04","21","03:00","-24.0","","-26.6","","79","","","","33","","35","","","M","100.19","","","","-39","","NA"
"-79.03","69.08","ROWLEY ISLAND","2403625","2019-04-21 04:00","2019","04","21","04:00","-24.1","","-26.7","","79","","","","33","","31","","","M","100.25","","","","-38","","NA"
"-79.03","69.08","ROWLEY ISLAND","2403625","2019-04-21 05:00","2019","04","21","05:00","-23.9","","-26.5","","79","","","","32","","34","","","M","100.27","","","","-38","","NA"
"-79.03","69.08","ROWLEY ISLAND","2403625","2019-04-21 06:00","2019","04","21","06:00","-23.0","","-25.5","","79","","","","32","","41","","","M","100.29","","","","-38","","NA"
"-79.03","69.08","ROWLEY ISLAND","2403625","2019-04-21 07:00","2019","04","21","07:00","-22.4","","-25.4","","76","","","","32","","37","","","M","100.36","","","","-37","","NA"
"-79.03","69.08","ROWLEY ISLAND","2403625","2019-04-21 08:00","2019","04","21","08:00","-21.1","","-24.6","","73","","","","31","","28","","","M","100.41","","","","-34","","NA"
"-79.03","69.08","ROWLEY ISLAND","2403625","2019-04-21 09:00","2019","04","21","09:00","-20.7","","-24.8","","69","","","","32","","34","","","M","100.42","","","","-34","","NA"
"-79.03","69.08","ROWLEY ISLAND","2403625","2019-04-21 10:00","2019","04","21","10:00","-19.6","","-24.2","","67","","","","32","","35","","","M","100.42","","","","-33","","NA"
"-79.03","69.08","ROWLEY ISLAND","2403625","2019-04-21 11:00","2019","04","21","11:00","-18.1","","-23.8","","61","","","","32","","28","","","M","100.44","","","","-30","","NA"
"-79.03","69.08","ROWLEY ISLAND","2403625","2019-04-21 12:00","2019","04","21","12:00","-17.6","","-23.0","","63","","","","32","","24","","","M","100.45","","","","-28","","NA"
"-79.03","69.08","ROWLEY ISLAND","2403625","2019-04-21 13:00","2019","04","21","13:00","-17.4","","-22.1","","66","","","","32","","24","","","M","100.44","","","","-28","","NA"
"-79.03","69.08","ROWLEY ISLAND","2403625","2019-04-21 14:00","2019","04","21","14:00","-15.8","","-21.9","","59","","","","28","","28","","","M","100.45","","","","-27","","NA"
"-79.03","69.08","ROWLEY ISLAND","2403625","2019-04-21 15:00","2019","04","21","15:00","-17.6","","-22.5","","65","","","","26","","26","","","M","100.49","","","","-29","","NA"
"-79.03","69.08","ROWLEY ISLAND","2403625","2019-04-21 16:00","2019","04","21","16:00","-18.6","","-22.6","","70","","","","27","","26","","","M","100.47","","","","-30","","NA"
"-79.03","69.08","ROWLEY ISLAND","2403625","2019-04-21 17:00","2019","04","21","17:00","-19.0","","-23.0","","70","","","","28","","24","","","M","100.47","","","","-30","","NA"
"-79.03","69.08","ROWLEY ISLAND","2403625","2019-04-21 18:00","2019","04","21","18:00","-19.9","","-23.3","","74","","","","23","","22","","","M","100.46","","","","-31","","NA"
"-79.03","69.08","ROWLEY ISLAND","2403625","2019-04-21 19:00","2019","04","21","19:00","-20.4","","-23.6","","75","","","","24","","21","","","M","100.41","","","","-31","","NA"
"-79.03","69.08","ROWLEY ISLAND","2403625","2019-04-21 20:00","2019","04","21","20:00","-20.4","","-23.1","","79","","","","25","","15","","","M","100.41","","","","-30","","NA"
"-79.03","69.08","ROWLEY ISLAND","2403625","2019-04-21 21:00","2019","04","21","21:00","-20.4","","-22.9","","80","","","","24","","17","","","M","100.38","","","","-30","","NA"
"-79.03","69.08","ROWLEY ISLAND","2403625","2019-04-21 22:00","2019","04","21","22:00","-20.2","","-22.5","","82","","","","24","","11","","","M","100.33","","","","-28","","NA"
"-79.03","69.08","ROWLEY ISLAND","2403625","2019-04-21 23:00","2019","04","21","23:00"
"-79.03","69.08","ROWLEY ISLAND","2403625","2019-04-22 00:00","2019","04","22","00:00"
"-79.03","69.08","ROWLEY ISLAND","2403625","2019-04-22 01:00","2019","04","22","01:00","-21.1","","-23.2","","83","","","","17","","24","","","M","100.20","","","","-33","","NA"
"-79.03","69.08","ROWLEY ISLAND","2403625","2019-04-22 02:00","2019","04","22","02:00","-21.7","","-24.1","","80","","","","17","","22","","","M","100.17","","","","-33","","NA"
"-79.03","69.08","ROWLEY ISLAND","2403625","2019-04-22 03:00","2019","04","22","03:00","-21.8","","-24.2","","80","","","","16","","26","","","M","100.16","","","","-34","","NA"
"-79.03","69.08","ROWLEY ISLAND","2403625","2019-04-22 04:00","2019","04","22","04:00","-23.7","","-26.2","","79","","","","17","","18","","","M","100.15","","","","-35","","NA"
"-79.03","69.08","ROWLEY ISLAND","2403625","2019-04-22 05:00","2019","04","22","05:00","-21.0","","-23.5","","80","","","","27","","13","","","M","100.16","","","","-30","","NA"
"-79.03","69.08","ROWLEY ISLAND","2403625","2019-04-22 06:00","2019","04","22","06:00","-21.3","","-24.5","","75","","","","26","","13","","","M","100.15","","","","-30","","NA"
"-79.03","69.08","ROWLEY ISLAND","2403625","2019-04-22 07:00","2019","04","22","07:00","-20.4","","-24.2","","72","","","","29","","13","","","M","100.19","","","","-29","","NA"
"-79.03","69.08","ROWLEY ISLAND","2403625","2019-04-22 08:00","2019","04","22","08:00","-17.2","","-23.2","","60","","","","26","","8","","","M","100.20","","","","-23","","NA"
"-79.03","69.08","ROWLEY ISLAND","2403625","2019-04-22 09:00","2019","04","22","09:00","-16.2","","-22.5","","58","","","","26","","5","","","M","100.23","","","","-20","","NA"
"-79.03","69.08","ROWLEY ISLAND","2403625","2019-04-22 10:00","2019","04","22","10:00","-12.7","","-21.3","","49","","","","23","","4","","","M","100.26","","","","-15","","NA"
"-79.03","69.08","ROWLEY ISLAND","2403625","2019-04-22 11:00","2019","04","22","11:00","-11.5","","-21.0","","45","","","","25","","4","","","M","100.29","","","","-14","","NA"
"-79.03","69.08","ROWLEY ISLAND","2403625","2019-04-22 12:00","2019","04","22","12:00","-12.6","","-20.4","","52","","","","35","","13","","","M","100.32","","","","-19","","NA"
"-79.03","69.08","ROWLEY ISLAND","2403625","2019-04-22 13:00","2019","04","22","13:00","-13.1","","-20.9","","52","","","","8","","5","","","M","100.39","","","","-16","","NA"
"-79.03","69.08","ROWLEY ISLAND","2403625","2019-04-22 14:00","2019","04","22","14:00","-8.4","","-20.8","","36","","","","2","","4","","","M","100.47","","","","-11","","NA"
"-79.03","69.08","ROWLEY ISLAND","2403625","2019-04-22 15:00","2019","04","22","15:00","-17.2","","-21.5","","69","","","","36","","31","","","M","100.57","","","","-29","","NA"
"-79.03","69.08","ROWLEY ISLAND","2403625","2019-04-22 16:00","2019","04","22","16:00","-17.9","","-22.3","","68","","","","35","","34","","","M","100.65","","","","-30","","NA"
"-79.03","69.08","ROWLEY ISLAND","2403625","2019-04-22 17:00","2019","04","22","17:00","-18.4","","-23.9","","62","","","","35","","24","","","M","100.72","","","","-29","","NA"
"-79.03","69.08","ROWLEY ISLAND","2403625","2019-04-22 18:00","2019","04","22","18:00","-20.0","","-24.0","","70","","","","32","","26","","","M","100.77","","","","-32","","NA"
"-79.03","69.08","ROWLEY ISLAND","2403625","2019-04-22 19:00","2019","04","22","19:00","-21.8","","-25.4","","73","","","","33","","18","","","M","100.81","","","","-32","","NA"
"-79.03","69.08","ROWLEY ISLAND","2403625","2019-04-22 20:00","2019","04","22","20:00","-21.6","","-24.8","","76","","","","33","","15","","","M","100.81","","","","-31","","NA"
"-79.03","69.08","ROWLEY ISLAND","2403625","2019-04-22 21:00","2019","04","22","21:00","-21.3","","-23.7","","81","","","","30","","13","","","M","100.77","","","","-30","","NA"
"-79.03","69.08","ROWLEY ISLAND","2403625","2019-04-22 22:00","2019","04","22","22:00","-20.6","","-23.3","","79","","","","28","","24","","","M","100.73","","","","-32","","NA"
"-79.03","69.08","ROWLEY ISLAND","2403625","2019-04-22 23:00","2019","04","22","23:00","-21.0","","-23.8","","78","","","","28","","22","","","M","100.71","","","","-32","","NA"
"-79.03","69.08","ROWLEY ISLAND","2403625","2019-04-23 00:00","2019","04","23","00:00","-22.4","","-25.2","","77","","","","27","","22","","","M","100.70","","","","-34","","NA"
"-79.03","69.08","ROWLEY ISLAND","2403625","2019-04-23 01:00","2019","04","23","01:00","-21.3","","-24.0","","79","","","","29","","22","","","M","100.68","","","","-33","","NA"
"-79.03","69.08","ROWLEY ISLAND","2403625","2019-04-23 02:00","2019","04","23","02:00","-21.5","","-24.3","","78","","","","32","","21","","","M","100.69","","","","-33","","NA"
"-79.03","69.08","ROWLEY ISLAND","2403625","2019-04-23 03:00","2019","04","23","03:00","-22.2","","-24.9","","79","","","","35","","9","","","M","100.71","","","","-29","","NA"
"-79.03","69.08","ROWLEY ISLAND","2403625","2019-04-23 04:00","2019","04","23","04:00","-21.2","","-23.7","","80","","","","34","","17","","","M","100.71","","","","-31","","NA"
"-79.03","69.08","ROWLEY ISLAND","2403625","2019-04-23 05:00","2019","04","23","05:00","-22.3","","-25.4","","76","","","","33","","22","","","M","100.73","","","","-34","","NA"
"-79.03","69.08","ROWLEY ISLAND","2403625","2019-04-23 06:00","2019","04","23","06:00","-22.0","","-25.3","","74","","","","34","","22","","","M","100.75","","","","-34","","NA"
"-79.03","69.08","ROWLEY ISLAND","2403625","2019-04-23 07:00","2019","04","23","07:00","-20.9","","-24.9","","70","","","","32","","26","","","M","100.77","","","","-33","","NA"
"-79.03","69.08","ROWLEY ISLAND","2403625","2019-04-23 08:00","2019","04","23","08:00","-20.6","","-24.8","","69","","","","33","","26","","","M","100.79","","","","-33","","NA"
"-79.03","69.08","ROWLEY ISLAND","2403625","2019-04-23 09:00","2019","04","23","09:00","-20.3","","-24.8","","67","","","","34","","28","","","M","100.81","","","","-33","","NA"
"-79.03","69.08","ROWLEY ISLAND","2403625","2019-04-23 10:00","2019","04","23","10:00","-18.7","","-24.2","","62","","","","34","","22","","","M","100.84","","","","-29","","NA"
"-79.03","69.08","ROWLEY ISLAND","2403625","2019-04-23 11:00","2019","04","23","11:00","-17.8","","-24.2","","57","","","","33","","17","","","M","100.88","","","","-27","","NA"
"-79.03","69.08","ROWLEY ISLAND","2403625","2019-04-23 12:00","2019","04","23","12:00","-16.9","","-24.2","","53","","","","32","","17","","","M","100.90","","","","-26","","NA"
"-79.03","69.08","ROWLEY ISLAND","2403625","2019-04-23 13:00","2019","04","23","13:00","-16.5","","-24.5","","50","","","","32","","17","","","M","100.94","","","","-25","","NA"
"-79.03","69.08","ROWLEY ISLAND","2403625","2019-04-23 14:00","2019","04","23","14:00","-16.5","","-24.1","","51","","","","31","","15","","","M","100.96","","","","-25","","NA"
"-79.03","69.08","ROWLEY ISLAND","2403625","2019-04-23 15:00","2019","04","23","15:00","-16.3","","-24.0","","51","","","","29","","17","","","M","100.99","","","","-25","","NA"
"-79.03","69.08","ROWLEY ISLAND","2403625","2019-04-23 16:00","2019","04","23","16:00","-18.2","","-24.2","","59","","","","32","","18","","","M","101.03","","","","-28","","NA"
"-79.03","69.08","ROWLEY ISLAND","2403625","2019-04-23 17:00","2019","04","23","17:00","-18.6","","-24.0","","62","","","","34","","17","","","M","101.06","","","","-28","","NA"
"-79.03","69.08","ROWLEY ISLAND","2403625","2019-04-23 18:00","2019","04","23","18:00","-19.4","","-24.8","","62","","","","34","","17","","","M","101.08","","","","-29","","NA"
"-79.03","69.08","ROWLEY ISLAND","2403625","2019-04-23 19:00","2019","04","23","19:00","-21.4","","-25.7","","68","","","","35","","15","","","M","101.09","","","","-31","","NA"
"-79.03","69.08","ROWLEY ISLAND","2403625","2019-04-23 20:00","2019","04","23","20:00","-22.6","","-25.6","","76","","","","36","","11","","","M","101.11","","","","-31","","NA"
"-79.03","69.08","ROWLEY ISLAND","2403625","2019-04-23 21:00","2019","04","23","21:00","-23.5","","-25.7","","81","","","","33","","8","","","M","101.12","","","","-30","","NA"
"-79.03","69.08","ROWLEY ISLAND","2403625","2019-04-23 22:00","2019","04","23","22:00","-24.3","","-26.3","","83","","","","32","","11","","","M","101.12","","","","-33","","NA"
"-79.03","69.08","ROWLEY ISLAND","2403625","2019-04-23 23:00","2019","04","23","23:00","-24.2","","-26.2","","83","","","","35","","11","","","M","101.11","","","","-33","","NA"
"-79.03","69.08","ROWLEY ISLAND","2403625","2019-04-24 00:00","2019","04","24","00:00","-24.1","","-26.2","","83","","","","36","","11","","","M","101.10","","","","-33","","NA"
"-79.03","69.08","ROWLEY ISLAND","2403625","2019-04-24 01:00","2019","04","24","01:00","-25.4","","-27.7","","81","","","","35","","5","","","M","101.12","","","","-30","","NA"
"-79.03","69.08","ROWLEY ISLAND","2403625","2019-04-24 02:00","2019","04","24","02:00","-25.9","","-27.8","","84","","","","7","","5","","","M","101.12","","","","-31","","NA"
"-79.03","69.08","ROWLEY ISLAND","2403625","2019-04-24 03:00","2019","04","24","03:00","-26.5","","-28.5","","83","","","","17","","8","","","M","101.13","","","","-34","","NA"
"-79.03","69.08","ROWLEY ISLAND","2403625","2019-04-24 04:00","2019","04","24","04:00","-26.4","","-28.7","","81","","","","18","","8","","","M","101.13","","","","-34","","NA"
"-79.03","69.08","ROWLEY ISLAND","2403625","2019-04-24 05:00","2019","04","24","05:00","-25.4","","-27.9","","80","","","","16","","18","","","M","101.10","","","","-37","","NA"
"-79.03","69.08","ROWLEY ISLAND","2403625","2019-04-24 06:00","2019","04","24","06:00","-24.5","","-27.2","","79","","","","16","","18","","","M","101.08","","","","-36","","NA"
"-79.03","69.08","ROWLEY ISLAND","2403625","2019-04-24 07:00","2019","04","24","07:00","-20.7","","-23.8","","76","","","","16","","17","","","M","101.06","","","","-31","","NA"
"-79.03","69.08","ROWLEY ISLAND","2403625","2019-04-24 08:00","2019","04","24","08:00","-19.1","","-23.8","","66","","","","18","","9","","","M","101.07","","","","-26","","NA"
"-79.03","69.08","ROWLEY ISLAND","2403625","2019-04-24 09:00","2019","04","24","09:00","-15.4","","-21.0","","62","","","","18","","5","","","M","101.04","","","","-19","","NA"
"-79.03","69.08","ROWLEY ISLAND","2403625","2019-04-24 10:00","2019","04","24","10:00","-15.2","","-21.9","","56","","","","13","","8","","","M","100.98","","","","-21","","NA"
"-79.03","69.08","ROWLEY ISLAND","2403625","2019-04-24 11:00","2019","04","24","11:00","-14.6","","-22.2","","52","","","","14","","8","","","M","100.96","","","","-20","","NA"
"-79.03","69.08","ROWLEY ISLAND","2403625","2019-04-24 12:00","2019","04","24","12:00","-16.6","","-22.7","","59","","","","12","","8","","","M","100.95","","","","-22","","NA"
"-79.03","69.08","ROWLEY ISLAND","2403625","2019-04-24 13:00","2019","04","24","13:00","-16.1","","-22.7","","57","","","","10","","11","","","M","100.93","","","","-23","","NA"
"-79.03","69.08","ROWLEY ISLAND","2403625","2019-04-24 14:00","2019","04","24","14:00","-15.6","","-22.6","","55","","","","13","","11","","","M","100.90","","","","-22","","NA"
"-79.03","69.08","ROWLEY ISLAND","2403625","2019-04-24 15:00","2019","04","24","15:00","-14.9","","-22.4","","53","","","","11","","8","","","M","100.89","","","","-20","","NA"
"-79.03","69.08","ROWLEY ISLAND","2403625","2019-04-24 16:00","2019","04","24","16:00","-16.9","","-22.7","","60","","","","5","","11","","","M","100.85","","","","-24","","NA"
"-79.03","69.08","ROWLEY ISLAND","2403625","2019-04-24 17:00","2019","04","24","17:00","-17.9","","-22.4","","68","","","","6","","11","","","M","100.85","","","","-25","","NA"
"-79.03","69.08","ROWLEY ISLAND","2403625","2019-04-24 18:00","2019","04","24","18:00","-18.9","","-22.4","","74","","","","4","","18","","","M","100.79","","","","-29","","NA"
"-79.03","69.08","ROWLEY ISLAND","2403625","2019-04-24 19:00","2019","04","24","19:00","-17.9","","-20.7","","79","","","","11","","18","","","M","100.77","","","","-27","","NA"
"-79.03","69.08","ROWLEY ISLAND","2403625","2019-04-24 20:00","2019","04","24","20:00","-18.2","","-21.0","","78","","","","9","","18","","","M","100.74","","","","-28","","NA"
"-79.03","69.08","ROWLEY ISLAND","2403625","2019-04-24 21:00","2019","04","24","21:00","-18.4","","-21.4","","77","","","","11","","13","","","M","100.72","","","","-26","","NA"
"-79.03","69.08","ROWLEY ISLAND","2403625","2019-04-24 22:00","2019","04","24","22:00","-19.1","","-21.9","","78","","","","11","","15","","","M","100.69","","","","-28","","NA"
"-79.03","69.08","ROWLEY ISLAND","2403625","2019-04-24 23:00","2019","04","24","23:00","-19.8","","-22.2","","81","","","","9","","28","","","M","100.65","","","","-32","","NA"
"-79.03","69.08","ROWLEY ISLAND","2403625","2019-04-25 00:00","2019","04","25","00:00","-20.0","","-22.3","","82","","","","7","","17","","","M","100.60","","","","-30","","NA"
"-79.03","69.08","ROWLEY ISLAND","2403625","2019-04-25 01:00","2019","04","25","01:00","-19.9","","-22.1","","82","","","","7","","13","","","M","100.57","","","","-28","","NA"
"-79.03","69.08","ROWLEY ISLAND","2403625","2019-04-25 02:00","2019","04","25","02:00","-19.1","","-21.2","","83","","","","8","","30","","","M","100.51","","","","-31","","NA"
"-79.03","69.08","ROWLEY ISLAND","2403625","2019-04-25 03:00","2019","04","25","03:00","-19.5","","-21.7","","83","","","","7","","15","","","M","100.47","","","","-28","","NA"
"-79.03","69.08","ROWLEY ISLAND","2403625","2019-04-25 04:00","2019","04","25","04:00","-19.5","","-21.7","","83","","","","7","","22","","","M","100.41","","","","-30","","NA"
"-79.03","69.08","ROWLEY ISLAND","2403625","2019-04-25 05:00","2019","04","25","05:00","-19.5","","-21.9","","81","","","","8","","26","","","M","100.36","","","","-31","","NA"
"-79.03","69.08","ROWLEY ISLAND","2403625","2019-04-25 06:00","2019","04","25","06:00","-20.5","","-23.2","","79","","","","7","","17","","","M","100.30","","","","-30","","NA"
"-79.03","69.08","ROWLEY ISLAND","2403625","2019-04-25 07:00","2019","04","25","07:00","-20.3","","-23.5","","75","","","","7","","22","","","M","100.23","","","","-31","","NA"
"-79.03","69.08","ROWLEY ISLAND","2403625","2019-04-25 08:00","2019","04","25","08:00","-20.3","","-23.5","","75","","","","7","","34","","","M","100.13","","","","-34","","NA"
"-79.03","69.08","ROWLEY ISLAND","2403625","2019-04-25 09:00","2019","04","25","09:00","-19.6","","-22.8","","76","","","","7","","46","","","M","100.02","","","","-34","","NA"
"-79.03","69.08","ROWLEY ISLAND","2403625","2019-04-25 10:00","2019","04","25","10:00","-18.3","","-21.7","","75","","","","7","","31","","","M","99.94","","","","-31","","NA"
"-79.03","69.08","ROWLEY ISLAND","2403625","2019-04-25 11:00","2019","04","25","11:00","-16.4","","-20.0","","73","","","","7","","34","","","M","99.84","","","","-28","","NA"
"-79.03","69.08","ROWLEY ISLAND","2403625","2019-04-25 12:00","2019","04","25","12:00","-15.0","","-18.8","","73","","","","7","","26","","","M","99.77","","","","-25","","NA"
"-79.03","69.08","ROWLEY ISLAND","2403625","2019-04-25 13:00","2019","04","25","13:00","-13.8","","-17.2","","75","","","","6","","31","","","M","99.67","","","","-25","","NA"
"-79.03","69.08","ROWLEY ISLAND","2403625","2019-04-25 14:00","2019","04","25","14:00","-11.8","","-16.0","","71","","","","7","","18","","","M","99.59","","","","-20","","NA"
"-79.03","69.08","ROWLEY ISLAND","2403625","2019-04-25 15:00","2019","04","25","15:00","-10.5","","-15.1","","69","","","","7","","15","","","M","99.53","","","","-17","","NA"
"-79.03","69.08","ROWLEY ISLAND","2403625","2019-04-25 16:00","2019","04","25","16:00","-11.1","","-15.0","","73","","","","7","","22","","","M","99.47","","","","-20","","NA"
"-79.03","69.08","ROWLEY ISLAND","2403625","2019-04-25 17:00","2019","04","25","17:00","-11.4","","-15.0","","74","","","","7","","24","","","M","99.45","","","","-20","","NA"
"-79.03","69.08","ROWLEY ISLAND","2403625","2019-04-25 18:00","2019","04","25","18:00","-12.8","","-16.0","","77","","","","4","","17","","","M","99.41","","","","-21","","NA"
"-79.03","69.08","ROWLEY ISLAND","2403625","2019-04-25 19:00","2019","04","25","19:00","-14.4","","-16.6","","83","","","","3","","18","","","M","99.38","","","","-23","","NA"
"-79.03","69.08","ROWLEY ISLAND","2403625","2019-04-25 20:00","2019","04","25","20:00","-15.0","","-16.5","","88","","","","3","","18","","","M","99.35","","","","-24","","NA"
"-79.03","69.08","ROWLEY ISLAND","2403625","2019-04-25 21:00","2019","04","25","21:00","-15.4","","-16.7","","89","","","","4","","18","","","M","99.33","","","","-24","","NA"
"-79.03","69.08","ROWLEY ISLAND","2403625","2019-04-25 22:00","2019","04","25","22:00","-15.9","","-17.3","","89","","","","4","","13","","","M","99.32","","","","-23","","NA"
"-79.03","69.08","ROWLEY ISLAND","2403625","2019-04-25 23:00","2019","04","25","23:00","-15.5","","-16.8","","90","","","","1","","9","","","M","99.32","","","","-21","","NA"
"-79.03","69.08","ROWLEY ISLAND","2403625","2019-04-26 00:00","2019","04","26","00:00","-14.9","","-16.3","","89","","","","34","","9","","","M","99.32","","","","-21","","NA"
"-79.03","69.08","ROWLEY ISLAND","2403625","2019-04-26 01:00","2019","04","26","01:00","-14.3","","-15.4","","91","","","","31","","11","","","M","99.34","","","","-21","","NA"
"-79.03","69.08","ROWLEY ISLAND","2403625","2019-04-26 02:00","2019","04","26","02:00","-14.5","","-16.1","","88","","","","30","","22","","","M","99.39","","","","-24","","NA"
"-79.03","69.08","ROWLEY ISLAND","2403625","2019-04-26 03:00","2019","04","26","03:00","-14.6","","-16.0","","89","","","","30","","30","","","M","99.47","","","","-26","","NA"
"-79.03","69.08","ROWLEY ISLAND","2403625","2019-04-26 04:00","2019","04","26","04:00","-14.2","","-15.7","","88","","","","30","","28","","","M","99.55","","","","-25","","NA"
"-79.03","69.08","ROWLEY ISLAND","2403625","2019-04-26 05:00","2019","04","26","05:00","-13.8","","-15.4","","88","","","","29","","28","","","M","99.66","","","","-24","","NA"
"-79.03","69.08","ROWLEY ISLAND","2403625","2019-04-26 06:00","2019","04","26","06:00","-14.3","","-16.1","","86","","","","29","","28","","","M","99.76","","","","-25","","NA"
"-79.03","69.08","ROWLEY ISLAND","2403625","2019-04-26 07:00","2019","04","26","07:00","-14.5","","-16.4","","85","","","","27","","26","","","M","99.88","","","","-25","","NA"
"-79.03","69.08","ROWLEY ISLAND","2403625","2019-04-26 08:00","2019","04","26","08:00","-14.8","","-17.4","","80","","","","26","","22","","","M","100.01","","","","-24","","NA"
"-79.03","69.08","ROWLEY ISLAND","2403625","2019-04-26 09:00","2019","04","26","09:00","-15.2","","-18.6","","76","","","","26","","21","","","M","100.10","","","","-25","","NA"
"-79.03","69.08","ROWLEY ISLAND","2403625","2019-04-26 10:00","2019","04","26","10:00","-14.2","","-19.3","","65","","","","26","","13","","","M","100.18","","","","-21","","NA"
"-79.03","69.08","ROWLEY ISLAND","2403625","2019-04-26 11:00","2019","04","26","11:00","-14.1","","-19.1","","66","","","","24","","18","","","M","100.27","","","","-23","","NA"
"-79.03","69.08","ROWLEY ISLAND","2403625","2019-04-26 12:00","2019","04","26","12:00","-15.0","","-19.6","","68","","","","24","","26","","","M","100.36","","","","-25","","NA"
"-79.03","69.08","ROWLEY ISLAND","2403625","2019-04-26 13:00","2019","04","26","13:00","-15.7","","-20.4","","67","","","","24","","24","","","M","100.45","","","","-26","","NA"
"-79.03","69.08","ROWLEY ISLAND","2403625","2019-04-26 14:00","2019","04","26","14:00","-16.1","","-20.9","","66","","","","24","","24","","","M","100.53","","","","-26","","NA"
"-79.03","69.08","ROWLEY ISLAND","2403625","2019-04-26 15:00","2019","04","26","15:00","-16.2","","-21.0","","66","","","","24","","26","","","M","100.64","","","","-27","","NA"
"-79.03","69.08","ROWLEY ISLAND","2403625","2019-04-26 16:00","2019","04","26","16:00","-17.0","","-21.1","","70","","","","26","","24","","","M","100.75","","","","-28","","NA"
"-79.03","69.08","ROWLEY ISLAND","2403625","2019-04-26 17:00","2019","04","26","17:00","-18.1","","-22.2","","71","","","","24","","26","","","M","100.87","","","","-29","","NA"
"-79.03","69.08","ROWLEY ISLAND","2403625","2019-04-26 18:00","2019","04","26","18:00","-18.4","","-22.5","","71","","","","26","","22","","","M","100.97","","","","-29","","NA"
"-79.03","69.08","ROWLEY ISLAND","2403625","2019-04-26 19:00","2019","04","26","19:00","-20.3","","-23.7","","74","","","","25","","24","","","M","101.09","","","","-32","","NA"
"-79.03","69.08","ROWLEY ISLAND","2403625","2019-04-26 20:00","2019","04","26","20:00","-21.5","","-24.4","","78","","","","24","","22","","","M","101.17","","","","-33","","NA"
"-79.03","69.08","ROWLEY ISLAND","2403625","2019-04-26 21:00","2019","04","26","21:00","-20.9","","-24.1","","75","","","","26","","21","","","M","101.27","","","","-32","","NA"
"-79.03","69.08","ROWLEY ISLAND","2403625","2019-04-26 22:00","2019","04","26","22:00","-22.8","","-25.6","","78","","","","25","","18","","","M","101.40","","","","-33","","NA"
"-79.03","69.08","ROWLEY ISLAND","2403625","2019-04-26 23:00","2019","04","26","23:00","-22.4","","-24.7","","81","","","","25","","13","","","M","101.48","","","","-31","","NA"
"-79.03","69.08","ROWLEY ISLAND","2403625","2019-04-27 00:00","2019","04","27","00:00","-21.7","","-24.1","","81","","","","25","","13","","","M","101.53","","","","-30","","NA"
"-79.03","69.08","ROWLEY ISLAND","2403625","2019-04-27 01:00","2019","04","27","01:00","-22.3","","-24.2","","84","","","","26","","9","","","M","101.62","","","","-29","","NA"
"-79.03","69.08","ROWLEY ISLAND","2403625","2019-04-27 02:00","2019","04","27","02:00","-22.3","","-24.5","","82","","","","28","","11","","","M","101.70","","","","-30","","NA"
"-79.03","69.08","ROWLEY ISLAND","2403625","2019-04-27 03:00","2019","04","27","03:00","-22.3","","-24.4","","83","","","","28","","8","","","M","101.78","","","","-29","","NA"
"-79.03","69.08","ROWLEY ISLAND","2403625","2019-04-27 04:00","2019","04","27","04:00","-22.0","","-24.1","","83","","","","32","","2","","","M","101.85","","","","-24","","NA"
"-79.03","69.08","ROWLEY ISLAND","2403625","2019-04-27 05:00","2019","04","27","05:00","-20.1","","-23.0","","77","","","","9","","2","","","M","101.90","","","","-22","","NA"
"-79.03","69.08","ROWLEY ISLAND","2403625","2019-04-27 06:00","2019","04","27","06:00","-20.6","","-24.1","","74","","","","13","","5","","","M","101.96","","","","-25","","NA"
"-79.03","69.08","ROWLEY ISLAND","2403625","2019-04-27 07:00","2019","04","27","07:00","-18.3","","-23.2","","65","","","","12","","8","","","M","102.01","","","","-24","","NA"
"-79.03","69.08","ROWLEY ISLAND","2403625","2019-04-27 08:00","2019","04","27","08:00","-16.2","","-23.3","","54","","","","6","","8","","","M","102.07","","","","-22","","NA"
"-79.03","69.08","ROWLEY ISLAND","2403625","2019-04-27 09:00","2019","04","27","09:00","-15.3","","-23.3","","50","","","","6","","8","","","M","102.10","","","","-21","","NA"
"-79.03","69.08","ROWLEY ISLAND","2403625","2019-04-27 10:00","2019","04","27","10:00","-14.9","","-23.3","","49","","","","6","","9","","","M","102.10","","","","-21","","NA"
"-79.03","69.08","ROWLEY ISLAND","2403625","2019-04-27 11:00","2019","04","27","11:00","-12.8","","-22.0","","46","","","","3","","9","","","M","102.12","","","","-18","","NA"
"-79.03","69.08","ROWLEY ISLAND","2403625","2019-04-27 12:00","2019","04","27","12:00","-9.2","","-21.7","","35","","","","2","","5","","","M","102.11","","","","-12","","NA"
"-79.03","69.08","ROWLEY ISLAND","2403625","2019-04-27 13:00","2019","04","27","13:00","-12.6","","-21.6","","47","","","","4","","9","","","M","102.08","","","","-18","","NA"
"-79.03","69.08","ROWLEY ISLAND","2403625","2019-04-27 14:00","2019","04","27","14:00","-12.8","","-21.1","","49","","","","4","","11","","","M","102.06","","","","-19","","NA"
"-79.03","69.08","ROWLEY ISLAND","2403625","2019-04-27 15:00","2019","04","27","15:00","-13.1","","-19.4","","59","","","","3","","11","","","M","102.04","","","","-19","","NA"
"-79.03","69.08","ROWLEY ISLAND","2403625","2019-04-27 16:00","2019","04","27","16:00","-15.2","","-19.7","","68","","","","4","","18","","","M","102.00","","","","-24","","NA"
"-79.03","69.08","ROWLEY ISLAND","2403625","2019-04-27 17:00","2019","04","27","17:00","-14.8","","-19.8","","66","","","","36","","21","","","M","101.93","","","","-24","","NA"
"-79.03","69.08","ROWLEY ISLAND","2403625","2019-04-27 18:00","2019","04","27","18:00","-15.3","","-19.7","","69","","","","35","","22","","","M","101.90","","","","-25","","NA"
"-79.03","69.08","ROWLEY ISLAND","2403625","2019-04-27 19:00","2019","04","27","19:00","-17.7","","-21.1","","75","","","","36","","26","","","M","101.85","","","","-29","","NA"
"-79.03","69.08","ROWLEY ISLAND","2403625","2019-04-27 20:00","2019","04","27","20:00","-18.3","","-21.0","","79","","","","35","","28","","","M","101.78","","","","-30","","NA"
"-79.03","69.08","ROWLEY ISLAND","2403625","2019-04-27 21:00","2019","04","27","21:00","-19.1","","-21.6","","80","","","","35","","28","","","M","101.73","","","","-31","","NA"
"-79.03","69.08","ROWLEY ISLAND","2403625","2019-04-27 22:00","2019","04","27","22:00","-19.6","","-21.5","","85","","","","33","","28","","","M","101.69","","","","-32","","NA"
"-79.03","69.08","ROWLEY ISLAND","2403625","2019-04-27 23:00","2019","04","27","23:00","-19.7","","-21.8","","83","","","","35","","24","","","M","101.63","","","","-31","","NA"
"-79.03","69.08","ROWLEY ISLAND","2403625","2019-04-28 00:00","2019","04","28","00:00","-18.5","","-20.6","","84","","","","34","","24","","","M","101.54","","","","-29","","NA"
"-79.03","69.08","ROWLEY ISLAND","2403625","2019-04-28 01:00","2019","04","28","01:00","-18.3","","-20.4","","83","","","","34","","24","","","M","101.50","","","","-29","","NA"
"-79.03","69.08","ROWLEY ISLAND","2403625","2019-04-28 02:00","2019","04","28","02:00","-17.5","","-19.5","","84","","","","35","","22","","","M","101.44","","","","-28","","NA"
"-79.03","69.08","ROWLEY ISLAND","2403625","2019-04-28 03:00","2019","04","28","03:00","-17.2","","-19.0","","86","","","","35","","22","","","M","101.37","","","","-27","","NA"
"-79.03","69.08","ROWLEY ISLAND","2403625","2019-04-28 04:00","2019","04","28","04:00","-16.2","","-17.9","","87","","","","35","","22","","","M","101.30","","","","-26","","NA"
"-79.03","69.08","ROWLEY ISLAND","2403625","2019-04-28 05:00","2019","04","28","05:00","-14.7","","-16.4","","87","","","","35","","22","","","M","101.25","","","","-24","","NA"
"-79.03","69.08","ROWLEY ISLAND","2403625","2019-04-28 06:00","2019","04","28","06:00","-12.4","","-14.3","","86","","","","34","","21","","","M","101.20","","","","-21","","NA"
"-79.03","69.08","ROWLEY ISLAND","2403625","2019-04-28 07:00","2019","04","28","07:00","-10.4","","-12.4","","85","","","","34","","18","","","M","101.16","","","","-18","","NA"
"-79.03","69.08","ROWLEY ISLAND","2403625","2019-04-28 08:00","2019","04","28","08:00","-8.5","","-10.9","","83","","","","36","","15","","","M","101.12","","","","-15","","NA"
"-79.03","69.08","ROWLEY ISLAND","2403625","2019-04-28 09:00","2019","04","28","09:00","-7.4","","-10.0","","82","","","","2","","13","","","M","101.06","","","","-13","","NA"
"-79.03","69.08","ROWLEY ISLAND","2403625","2019-04-28 10:00","2019","04","28","10:00","-5.7","","-8.4","","81","","","","7","","9","","","M","101.02","","","","-10","","NA"
"-79.03","69.08","ROWLEY ISLAND","2403625","2019-04-28 11:00","2019","04","28","11:00","-3.9","","-6.6","","82","","","","11","","18","","","M","100.96","","","","-10","","NA"
"-79.03","69.08","ROWLEY ISLAND","2403625","2019-04-28 12:00","2019","04","28","12:00","-4.2","","-6.7","","83","","","","11","","18","","","M","100.92","","","","-10","","NA"
"-79.03","69.08","ROWLEY ISLAND","2403625","2019-04-28 13:00","2019","04","28","13:00","-3.7","","-6.6","","80","","","","11","","22","","","M","100.89","","","","-10","","NA"
"-79.03","69.08","ROWLEY ISLAND","2403625","2019-04-28 14:00","2019","04","28","14:00","-3.7","","-6.3","","82","","","","10","","26","","","M","100.85","","","","-11","","NA"
"-79.03","69.08","ROWLEY ISLAND","2403625","2019-04-28 15:00","2019","04","28","15:00","-4.2","","-5.5","","90","","","","10","","34","","","M","100.79","","","","-12","","NA"
"-79.03","69.08","ROWLEY ISLAND","2403625","2019-04-28 16:00","2019","04","28","16:00","-3.8","","-5.2","","90","","","","10","","31","","","M","100.75","","","","-12","","NA"
"-79.03","69.08","ROWLEY ISLAND","2403625","2019-04-28 17:00","2019","04","28","17:00","-3.8","","-4.7","","93","","","","10","","37","","","M","100.69","","","","-12","","NA"
"-79.03","69.08","ROWLEY ISLAND","2403625","2019-04-28 18:00","2019","04","28","18:00","-3.6","","-4.4","","94","","","","10","","41","","","M","100.66","","","","-12","","NA"
"-79.03","69.08","ROWLEY ISLAND","2403625","2019-04-28 19:00","2019","04","28","19:00","-3.7","","-4.5","","94","","","","9","","46","","","M","100.60","","","","-13","","NA"
"-79.03","69.08","ROWLEY ISLAND","2403625","2019-04-28 20:00","2019","04","28","20:00","-4.1","","-4.8","","95","","","","10","","41","","","M","100.56","","","","-13","","NA"
"-79.03","69.08","ROWLEY ISLAND","2403625","2019-04-28 21:00","2019","04","28","21:00","-4.1","","-4.7","","95","","","","10","","35","","","M","100.52","","","","-12","","NA"
"-79.03","69.08","ROWLEY ISLAND","2403625","2019-04-28 22:00","2019","04","28","22:00","-4.4","","-5.0","","95","","","","10","","43","","","M","100.49","","","","-14","","NA"
"-79.03","69.08","ROWLEY ISLAND","2403625","2019-04-28 23:00","2019","04","28","23:00","-4.6","","-5.2","","96","","","","9","","39","","","M","100.44","","","","-13","","NA"
"-79.03","69.08","ROWLEY ISLAND","2403625","2019-04-29 00:00","2019","04","29","00:00"
"-79.03","69.08","ROWLEY ISLAND","2403625","2019-04-29 01:00","2019","04","29","01:00","-3.9","","-4.3","","97","","","","10","","31","","","M","100.38","","","","-12","","NA"
"-79.03","69.08","ROWLEY ISLAND","2403625","2019-04-29 02:00","2019","04","29","02:00","-3.4","","-3.8","","97","","","","11","","31","","","M","100.36","","","","-11","","NA"
"-79.03","69.08","ROWLEY ISLAND","2403625","2019-04-29 03:00","2019","04","29","03:00","-3.1","","-3.5","","97","","","","11","","30","","","M","100.36","","","","-11","","NA"
"-79.03","69.08","ROWLEY ISLAND","2403625","2019-04-29 04:00","2019","04","29","04:00","-3.0","","-3.4","","97","","","","11","","34","","","M","100.39","","","","-11","","NA"
"-79.03","69.08","ROWLEY ISLAND","2403625","2019-04-29 05:00","2019","04","29","05:00","-2.8","","-3.3","","97","","","","12","","43","","","M","100.41","","","","-11","","NA"
"-79.03","69.08","ROWLEY ISLAND","2403625","2019-04-29 06:00","2019","04","29","06:00","-2.4","","-3.0","","96","","","","12","","43","","","M","100.46","","","","-11","","NA"
"-79.03","69.08","ROWLEY ISLAND","2403625","2019-04-29 07:00","2019","04","29","07:00","-2.3","","-2.9","","96","","","","12","","43","","","M","100.52","","","","-11","","NA"
"-79.03","69.08","ROWLEY ISLAND","2403625","2019-04-29 08:00","2019","04","29","08:00","-2.0","","-2.8","","94","","","","12","","43","","","M","100.57","","","","-10","","NA"
"-79.03","69.08","ROWLEY ISLAND","2403625","2019-04-29 09:00","2019","04","29","09:00","-1.7","","-2.6","","93","","","","12","","39","","","M","100.65","","","","-10","","NA"
"-79.03","69.08","ROWLEY ISLAND","2403625","2019-04-29 10:00","2019","04","29","10:00","-1.4","","-2.4","","93","","","","12","","37","","","M","100.72","","","","-9","","NA"
"-79.03","69.08","ROWLEY ISLAND","2403625","2019-04-29 11:00","2019","04","29","11:00","-1.1","","-2.3","","92","","","","12","","35","","","M","100.79","","","","-8","","NA"
"-79.03","69.08","ROWLEY ISLAND","2403625","2019-04-29 12:00","2019","04","29","12:00","-0.6","","-2.2","","89","","","","12","","31","","","M","100.83","","","","-7","","NA"
"-79.03","69.08","ROWLEY ISLAND","2403625","2019-04-29 13:00","2019","04","29","13:00","-0.7","","-2.1","","91","","","","12","","34","","","M","100.88","","","","-8","","NA"
"-79.03","69.08","ROWLEY ISLAND","2403625","2019-04-29 14:00","2019","04","29","14:00","-0.4","","-1.8","","91","","","","12","","34","","","M","100.93","","","","-7","","NA"
"-79.03","69.08","ROWLEY ISLAND","2403625","2019-04-29 15:00","2019","04","29","15:00","-0.6","","-1.8","","92","","","","12","","30","","","M","101.01","","","","-7","","NA"
"-79.03","69.08","ROWLEY ISLAND","2403625","2019-04-29 16:00","2019","04","29","16:00","-0.4","","-1.6","","91","","","","12","","26","","","M","101.04","","","","-7","","NA"
"-79.03","69.08","ROWLEY ISLAND","2403625","2019-04-29 17:00","2019","04","29","17:00","-0.4","","-1.2","","94","","","","13","","24","","","M","101.10","","","","-6","","NA"
"-79.03","69.08","ROWLEY ISLAND","2403625","2019-04-29 18:00","2019","04","29","18:00","-0.5","","-1.1","","96","","","","12","","18","","","M","101.15","","","","-6","","NA"
"-79.03","69.08","ROWLEY ISLAND","2403625","2019-04-29 19:00","2019","04","29","19:00","-0.7","","-1.1","","97","","","","14","","18","","","M","101.20","","","","-6","","NA"
"-79.03","69.08","ROWLEY ISLAND","2403625","2019-04-29 20:00","2019","04","29","20:00","-1.1","","-1.3","","98","","","","14","","17","","","M","101.23","","","","-6","","NA"
"-79.03","69.08","ROWLEY ISLAND","2403625","2019-04-29 21:00","2019","04","29","21:00","-1.4","","-1.6","","99","","","","13","","13","","","M","101.27","","","","-6","","NA"
"-79.03","69.08","ROWLEY ISLAND","2403625","2019-04-29 22:00","2019","04","29","22:00","-1.6","","-1.7","","99","","","","14","","13","","","M","101.30","","","","-6","","NA"
"-79.03","69.08","ROWLEY ISLAND","2403625","2019-04-29 23:00","2019","04","29","23:00","-1.5","","-1.7","","99","","","","23","","11","","","M","101.33","","","","-5","","NA"
"-79.03","69.08","ROWLEY ISLAND","2403625","2019-04-30 00:00","2019","04","30","00:00","-2.9","","-3.1","","99","","","","28","","21","","","M","101.40","","","","-9","","NA"
"-79.03","69.08","ROWLEY ISLAND","2403625","2019-04-30 01:00","2019","04","30","01:00","-5.8","","-6.2","","96","","","","30","","26","","","M","101.45","","","","-14","","NA"
"-79.03","69.08","ROWLEY ISLAND","2403625","2019-04-30 02:00","2019","04","30","02:00","-7.1","","-7.7","","95","","","","30","","28","","","M","101.54","","","","-15","","NA"
"-79.03","69.08","ROWLEY ISLAND","2403625","2019-04-30 03:00","2019","04","30","03:00","-7.4","","-8.1","","95","","","","30","","34","","","M","101.57","","","","-17","","NA"
"-79.03","69.08","ROWLEY ISLAND","2403625","2019-04-30 04:00","2019","04","30","04:00","-7.8","","-8.6","","94","","","","30","","35","","","M","101.64","","","","-17","","NA"
"-79.03","69.08","ROWLEY ISLAND","2403625","2019-04-30 05:00","2019","04","30","05:00","-8.0","","-8.8","","94","","","","30","","39","","","M","101.64","","","","-18","","NA"
"-79.03","69.08","ROWLEY ISLAND","2403625","2019-04-30 06:00","2019","04","30","06:00","-8.4","","-9.3","","93","","","","30","","39","","","M","101.70","","","","-19","","NA"
"-79.03","69.08","ROWLEY ISLAND","2403625","2019-04-30 07:00","2019","04","30","07:00","-8.1","","-9.3","","90","","","","30","","41","","","M","101.69","","","","-18","","NA"
"-79.03","69.08","ROWLEY ISLAND","2403625","2019-04-30 08:00","2019","04","30","08:00","-8.5","","-10.1","","88","","","","31","","52","","","M","101.68","","","","-20","","NA"
"-79.03","69.08","ROWLEY ISLAND","2403625","2019-04-30 09:00","2019","04","30","09:00","-8.5","","-10.3","","87","","","","31","","50","","","M","101.73","","","","-20","","NA"
"-79.03","69.08","ROWLEY ISLAND","2403625","2019-04-30 10:00","2019","04","30","10:00","-9.1","","-11.1","","86","","","","31","","48","","","M","101.76","","","","-20","","NA"
"-79.03","69.08","ROWLEY ISLAND","2403625","2019-04-30 11:00","2019","04","30","11:00","-9.7","","-11.8","","84","","","","31","","55","","","M","101.74","","","","-22","","NA"
"-79.03","69.08","ROWLEY ISLAND","2403625","2019-04-30 12:00","2019","04","30","12:00","-9.6","","-11.8","","84","","","","32","","55","","","M","101.74","","","","-22","","NA"
"-79.03","69.08","ROWLEY ISLAND","2403625","2019-04-30 13:00","2019","04","30","13:00","-9.8","","-12.2","","83","","","","31","","61","","","M","101.65","","","","-22","","NA"
"-79.03","69.08","ROWLEY ISLAND","2403625","2019-04-30 14:00","2019","04","30","14:00","-9.6","","-12.0","","83","","","","32","","59","","","M","101.69","","","","-22","","NA"
"-79.03","69.08","ROWLEY ISLAND","2403625","2019-04-30 15:00","2019","04","30","15:00","-10.7","","-12.6","","86","","","","32","","59","","","M","101.69","","","","-24","","NA"
"-79.03","69.08","ROWLEY ISLAND","2403625","2019-04-30 16:00","2019","04","30","16:00","-10.0","","-12.3","","83","","","","32","","54","","","M","101.75","","","","-22","","NA"
"-79.03","69.08","ROWLEY ISLAND","2403625","2019-04-30 17:00","2019","04","30","17:00","-10.7","","-12.7","","85","","","","32","","61","","","M","101.69","","","","-24","","NA"
"-79.03","69.08","ROWLEY ISLAND","2403625","2019-04-30 18:00","2019","04","30","18:00","-10.7","","-12.3","","88","","","","32","","57","","","M","101.68","","","","-23","","NA"
"-79.03","69.08","ROWLEY ISLAND","2403625","2019-04-30 19:00","2019","04","30","19:00","-11.1","","-12.6","","89","","","","31","","61","","","M","101.61","","","","-24","","NA"
"-79.03","69.08","ROWLEY ISLAND","2403625","2019-04-30 20:00","2019","04","30","20:00","-11.3","","-12.7","","89","","","","32","","63","","","M","101.60","","","","-25","","NA"
"-79.03","69.08","ROWLEY ISLAND","2403625","2019-04-30 21:00","2019","04","30","21:00","-11.4","","-12.7","","90","","","","32","","59","","","M","101.57","","","","-24","","NA"
"-79.03","69.08","ROWLEY ISLAND","2403625","2019-04-30 22:00","2019","04","30","22:00","-11.3","","-12.5","","91","","","","32","","59","","","M","101.56","","","","-24","","NA"
"-79.03","69.08","ROWLEY ISLAND","2403625","2019-04-30 23:00","2019","04","30","23:00","-11.0","","-12.1","","91","","","","32","","57","","","M","101.53","","","","-24","","NA"
