"Longitude (x)","Latitude (y)","Station Name","Climate ID","Date/Time (LST)","Year","Month","Day","Time (LST)","Temp (°C)","Temp Flag","Dew Point Temp (°C)","Dew Point Temp Flag","Rel Hum (%)","Rel Hum Flag","Precip. Amount (mm)","Precip. Amount Flag","Wind Dir (10s deg)","Wind Dir Flag","Wind Spd (km/h)","Wind Spd Flag","Visibility (km)","Visibility Flag","Stn Press (kPa)","Stn Press Flag","Hmdx","Hmdx Flag","Wind Chill","Wind Chill Flag","Weather"
"-117.81","70.76","ULUKHAKTOK A","2502503","2019-01-01 00:00","2019","01","01","00:00","-13.9","","-16.7","","80","","","M","8","","22","","","M","99.48","","","","-23","","NA"
"-117.81","70.76","ULUKHAKTOK A","2502503","2019-01-01 01:00","2019","01","01","01:00","-14.2","","-17.1","","79","","","M","7","","15","","","M","99.46","","","","-22","","NA"
"-117.81","70.76","ULUKHAKTOK A","2502503","2019-01-01 02:00","2019","01","01","02:00","-14.6","","-17.4","","79","","","M","10","","3","","","M","99.50","","","","-17","","NA"
"-117.81","70.76","ULUKHAKTOK A","2502503","2019-01-01 03:00","2019","01","01","03:00","-15.8","","-18.2","","82","","","M","34","","2","","","M","99.57","","","","-17","","NA"
"-117.81","70.76","ULUKHAKTOK A","2502503","2019-01-01 04:00","2019","01","01","04:00","-15.1","","-17.6","","81","","","M","33","","3","","","M","99.56","","","","-17","","NA"
"-117.81","70.76","ULUKHAKTOK A","2502503","2019-01-01 05:00","2019","01","01","05:00","-14.5","","-16.9","","82","","","M","9","","22","","","M","99.52","","","","-24","","NA"
"-117.81","70.76","ULUKHAKTOK A","2502503","2019-01-01 06:00","2019","01","01","06:00","-15.1","","-17.6","","82","","","M","10","","10","","","M","99.53","","","","-21","","NA"
"-117.81","70.76","ULUKHAKTOK A","2502503","2019-01-01 07:00","2019","01","01","07:00","-15.5","","-17.8","","83","","","M","12","","9","","","M","99.56","","","","-21","","NA"
"-117.81","70.76","ULUKHAKTOK A","2502503","2019-01-01 08:00","2019","01","01","08:00","-15.8","","-18.1","","83","","","M","35","","4","","","M","99.53","","","","-19","","NA"
"-117.81","70.76","ULUKHAKTOK A","2502503","2019-01-01 09:00","2019","01","01","09:00","-16.2","","-18.4","","84","","","M","14","","7","","","M","99.54","","","","-21","","NA"
"-117.81","70.76","ULUKHAKTOK A","2502503","2019-01-01 10:00","2019","01","01","10:00","-16.6","","-19.1","","81","","","M","11","","21","","","M","99.56","","","","-26","","NA"
"-117.81","70.76","ULUKHAKTOK A","2502503","2019-01-01 11:00","2019","01","01","11:00","-17.5","","-20.2","","80","","","M","12","","20","","","M","99.56","","","","-27","","NA"
"-117.81","70.76","ULUKHAKTOK A","2502503","2019-01-01 12:00","2019","01","01","12:00","-17.9","","-20.2","","82","","","M","12","","15","","","M","99.55","","","","-26","","NA"
"-117.81","70.76","ULUKHAKTOK A","2502503","2019-01-01 13:00","2019","01","01","13:00","-18.2","","-21.1","","78","","","M","8","","21","","","M","99.43","","","","-28","","NA"
"-117.81","70.76","ULUKHAKTOK A","2502503","2019-01-01 14:00","2019","01","01","14:00","-18.3","","-20.6","","82","","","M","8","","11","","","M","99.36","","","","-26","","NA"
"-117.81","70.76","ULUKHAKTOK A","2502503","2019-01-01 15:00","2019","01","01","15:00","-18.5","","-21.3","","79","","","M","24","","3","","","M","99.34","","","","-21","","NA"
"-117.81","70.76","ULUKHAKTOK A","2502503","2019-01-01 16:00","2019","01","01","16:00","-18.8","","-21.4","","80","","","M","10","","3","","","M","99.28","","","","-21","","NA"
"-117.81","70.76","ULUKHAKTOK A","2502503","2019-01-01 17:00","2019","01","01","17:00","-18.0","","-20.9","","79","","","M","32","","1","","","M","99.26","","","","-19","","NA"
"-117.81","70.76","ULUKHAKTOK A","2502503","2019-01-01 18:00","2019","01","01","18:00","-18.5","","-21.7","","76","","","M","10","","28","","","M","99.17","","","","-30","","NA"
"-117.81","70.76","ULUKHAKTOK A","2502503","2019-01-01 19:00","2019","01","01","19:00","-17.8","","-20.8","","78","","","M","10","","33","","","M","99.05","","","","-30","","NA"
"-117.81","70.76","ULUKHAKTOK A","2502503","2019-01-01 20:00","2019","01","01","20:00","-17.9","","-20.9","","78","","","M","8","","20","","","M","98.97","","","","-28","","NA"
"-117.81","70.76","ULUKHAKTOK A","2502503","2019-01-01 21:00","2019","01","01","21:00","-18.4","","-21.6","","76","","","M","6","","22","","","M","98.88","","","","-29","","NA"
"-117.81","70.76","ULUKHAKTOK A","2502503","2019-01-01 22:00","2019","01","01","22:00","-18.1","","-20.9","","79","","","M","7","","28","","","M","98.76","","","","-30","","NA"
"-117.81","70.76","ULUKHAKTOK A","2502503","2019-01-01 23:00","2019","01","01","23:00","-17.6","","-20.6","","78","","","M","8","","9","","","M","98.74","","","","-24","","NA"
"-117.81","70.76","ULUKHAKTOK A","2502503","2019-01-02 00:00","2019","01","02","00:00","-18.2","","-21.1","","79","","","M","10","","25","","","M","98.75","","","","-29","","NA"
"-117.81","70.76","ULUKHAKTOK A","2502503","2019-01-02 01:00","2019","01","02","01:00","-19.4","","-22.6","","76","","","M","5","","22","","","M","98.68","","","","-30","","NA"
"-117.81","70.76","ULUKHAKTOK A","2502503","2019-01-02 02:00","2019","01","02","02:00","-19.0","","-22.0","","77","","","M","8","","33","","","M","98.60","","","","-32","","NA"
"-117.81","70.76","ULUKHAKTOK A","2502503","2019-01-02 03:00","2019","01","02","03:00","-19.1","","-22.0","","78","","","M","8","","44","","","M","98.52","","","","-33","","NA"
"-117.81","70.76","ULUKHAKTOK A","2502503","2019-01-02 04:00","2019","01","02","04:00","-18.8","","-21.8","","77","","","M","7","","36","","","M","98.45","","","","-32","","NA"
"-117.81","70.76","ULUKHAKTOK A","2502503","2019-01-02 05:00","2019","01","02","05:00","-18.2","","-21.4","","76","","","M","9","","24","","","M","98.49","","","","-29","","NA"
"-117.81","70.76","ULUKHAKTOK A","2502503","2019-01-02 06:00","2019","01","02","06:00","-18.7","","-21.9","","76","","","M","9","","27","","","M","98.48","","","","-30","","NA"
"-117.81","70.76","ULUKHAKTOK A","2502503","2019-01-02 07:00","2019","01","02","07:00","-19.9","","-22.7","","79","","","M","7","","30","","","M","98.37","","","","-32","","NA"
"-117.81","70.76","ULUKHAKTOK A","2502503","2019-01-02 08:00","2019","01","02","08:00","-19.2","","-21.9","","79","","","M","5","","25","","","M","98.34","","","","-31","","NA"
"-117.81","70.76","ULUKHAKTOK A","2502503","2019-01-02 09:00","2019","01","02","09:00","-18.2","","-21.2","","77","","","M","8","","36","","","M","98.31","","","","-31","","NA"
"-117.81","70.76","ULUKHAKTOK A","2502503","2019-01-02 10:00","2019","01","02","10:00","-17.6","","-19.9","","83","","","M","8","","34","","","M","98.27","","","","-30","","NA"
"-117.81","70.76","ULUKHAKTOK A","2502503","2019-01-02 11:00","2019","01","02","11:00","-16.4","","-19.3","","78","","","M","8","","28","","","M","98.24","","","","-28","","NA"
"-117.81","70.76","ULUKHAKTOK A","2502503","2019-01-02 12:00","2019","01","02","12:00","-16.2","","-19.6","","75","","","M","9","","7","","","M","98.31","","","","-21","","NA"
"-117.81","70.76","ULUKHAKTOK A","2502503","2019-01-02 13:00","2019","01","02","13:00","-18.0","","-21.6","","74","","","M","5","","20","","","M","98.29","","","","-28","","NA"
"-117.81","70.76","ULUKHAKTOK A","2502503","2019-01-02 14:00","2019","01","02","14:00","-19.0","","-22.4","","75","","","M","34","","3","","","M","98.32","","","","-21","","NA"
"-117.81","70.76","ULUKHAKTOK A","2502503","2019-01-02 15:00","2019","01","02","15:00","-18.1","","-20.1","","84","","","M","31","","3","","","M","98.33","","","","-21","","NA"
"-117.81","70.76","ULUKHAKTOK A","2502503","2019-01-02 16:00","2019","01","02","16:00","-18.9","","-21.6","","80","","","M","32","","3","","","M","98.38","","","","-21","","NA"
"-117.81","70.76","ULUKHAKTOK A","2502503","2019-01-02 17:00","2019","01","02","17:00","-18.9","","-21.5","","80","","","M","30","","3","","","M","98.40","","","","-21","","NA"
"-117.81","70.76","ULUKHAKTOK A","2502503","2019-01-02 18:00","2019","01","02","18:00","-19.4","","-22.1","","80","","","M","13","","5","","","M","98.44","","","","-24","","NA"
"-117.81","70.76","ULUKHAKTOK A","2502503","2019-01-02 19:00","2019","01","02","19:00","-20.1","","-22.8","","79","","","M","32","","9","","","M","98.47","","","","-27","","NA"
"-117.81","70.76","ULUKHAKTOK A","2502503","2019-01-02 20:00","2019","01","02","20:00","-19.6","","-22.2","","80","","","M","10","","3","","","M","98.52","","","","-22","","NA"
"-117.81","70.76","ULUKHAKTOK A","2502503","2019-01-02 21:00","2019","01","02","21:00","-21.2","","-24.2","","77","","","M","5","","5","","","M","98.58","","","","-26","","NA"
"-117.81","70.76","ULUKHAKTOK A","2502503","2019-01-02 22:00","2019","01","02","22:00","-21.7","","-24.1","","82","","","M","6","","10","","","M","98.64","","","","-29","","NA"
"-117.81","70.76","ULUKHAKTOK A","2502503","2019-01-02 23:00","2019","01","02","23:00","-21.4","","-24.2","","78","","","M","6","","13","","","M","98.70","","","","-30","","NA"
"-117.81","70.76","ULUKHAKTOK A","2502503","2019-01-03 00:00","2019","01","03","00:00","-22.6","","-25.4","","79","","","M","4","","9","","","M","98.77","","","","-30","","NA"
"-117.81","70.76","ULUKHAKTOK A","2502503","2019-01-03 01:00","2019","01","03","01:00","-22.0","","-24.7","","79","","","M","25","","2","","","M","98.85","","","","-24","","NA"
"-117.81","70.76","ULUKHAKTOK A","2502503","2019-01-03 02:00","2019","01","03","02:00","-22.5","","-25.3","","78","","","M","5","","14","","","M","98.94","","","","-32","","NA"
"-117.81","70.76","ULUKHAKTOK A","2502503","2019-01-03 03:00","2019","01","03","03:00","-22.7","","-25.4","","79","","","M","5","","16","","","M","99.01","","","","-33","","NA"
"-117.81","70.76","ULUKHAKTOK A","2502503","2019-01-03 04:00","2019","01","03","04:00","-22.3","","-25.4","","76","","","M","7","","23","","","M","99.10","","","","-34","","NA"
"-117.81","70.76","ULUKHAKTOK A","2502503","2019-01-03 05:00","2019","01","03","05:00","-22.3","","-25.4","","76","","","M","5","","16","","","M","99.17","","","","-32","","NA"
"-117.81","70.76","ULUKHAKTOK A","2502503","2019-01-03 06:00","2019","01","03","06:00","-21.6","","-24.4","","79","","","M","4","","3","","","M","99.24","","","","-24","","NA"
"-117.81","70.76","ULUKHAKTOK A","2502503","2019-01-03 07:00","2019","01","03","07:00","-20.5","","-23.4","","78","","","M","4","","3","","","M","99.29","","","","-23","","NA"
"-117.81","70.76","ULUKHAKTOK A","2502503","2019-01-03 08:00","2019","01","03","08:00","-19.8","","-23.1","","75","","","M","9","","4","","","M","99.38","","","","-23","","NA"
"-117.81","70.76","ULUKHAKTOK A","2502503","2019-01-03 09:00","2019","01","03","09:00","-20.1","","-23.8","","73","","","M","9","","11","","","M","99.46","","","","-28","","NA"
"-117.81","70.76","ULUKHAKTOK A","2502503","2019-01-03 10:00","2019","01","03","10:00","-20.4","","-23.8","","75","","","M","6","","17","","","M","99.52","","","","-30","","NA"
"-117.81","70.76","ULUKHAKTOK A","2502503","2019-01-03 11:00","2019","01","03","11:00","-20.2","","-24.4","","69","","","M","7","","17","","","M","99.62","","","","-30","","NA"
"-117.81","70.76","ULUKHAKTOK A","2502503","2019-01-03 12:00","2019","01","03","12:00","-20.3","","-24.1","","72","","","M","7","","16","","","M","99.67","","","","-30","","NA"
"-117.81","70.76","ULUKHAKTOK A","2502503","2019-01-03 13:00","2019","01","03","13:00","-20.0","","-23.6","","74","","","M","8","","10","","","M","99.75","","","","-27","","NA"
"-117.81","70.76","ULUKHAKTOK A","2502503","2019-01-03 14:00","2019","01","03","14:00","-19.6","","-23.2","","73","","","M","14","","3","","","M","99.82","","","","-22","","NA"
"-117.81","70.76","ULUKHAKTOK A","2502503","2019-01-03 15:00","2019","01","03","15:00","-19.4","","-22.9","","74","","","M","11","","4","","","M","99.89","","","","-23","","NA"
"-117.81","70.76","ULUKHAKTOK A","2502503","2019-01-03 16:00","2019","01","03","16:00","-19.3","","-22.8","","74","","","M","8","","13","","","M","99.95","","","","-28","","NA"
"-117.81","70.76","ULUKHAKTOK A","2502503","2019-01-03 17:00","2019","01","03","17:00","-19.3","","-22.9","","74","","","M","6","","8","","","M","100.04","","","","-25","","NA"
"-117.81","70.76","ULUKHAKTOK A","2502503","2019-01-03 18:00","2019","01","03","18:00","-19.6","","-23.1","","74","","","M","8","","3","","","M","100.12","","","","-22","","NA"
"-117.81","70.76","ULUKHAKTOK A","2502503","2019-01-03 19:00","2019","01","03","19:00","-19.7","","-23.0","","75","","","M","2","","3","","","M","100.15","","","","-22","","NA"
"-117.81","70.76","ULUKHAKTOK A","2502503","2019-01-03 20:00","2019","01","03","20:00","-19.8","","-22.8","","78","","","M","5","","10","","","M","100.22","","","","-27","","NA"
"-117.81","70.76","ULUKHAKTOK A","2502503","2019-01-03 21:00","2019","01","03","21:00","-19.4","","-22.4","","77","","","M","4","","4","","","M","100.27","","","","-23","","NA"
"-117.81","70.76","ULUKHAKTOK A","2502503","2019-01-03 22:00","2019","01","03","22:00","-19.3","","-22.3","","78","","","M","4","","8","","","M","100.32","","","","-25","","NA"
"-117.81","70.76","ULUKHAKTOK A","2502503","2019-01-03 23:00","2019","01","03","23:00","-19.7","","-22.7","","77","","","M","2","","5","","","M","100.34","","","","-24","","NA"
"-117.81","70.76","ULUKHAKTOK A","2502503","2019-01-04 00:00","2019","01","04","00:00","-20.1","","-22.8","","79","","","M","2","","7","","","M","100.40","","","","-26","","NA"
"-117.81","70.76","ULUKHAKTOK A","2502503","2019-01-04 01:00","2019","01","04","01:00","-19.7","","-22.6","","78","","","M","5","","9","","","M","100.45","","","","-26","","NA"
"-117.81","70.76","ULUKHAKTOK A","2502503","2019-01-04 02:00","2019","01","04","02:00","-19.8","","-22.9","","77","","","M","6","","13","","","M","100.49","","","","-28","","NA"
"-117.81","70.76","ULUKHAKTOK A","2502503","2019-01-04 03:00","2019","01","04","03:00","-20.1","","-23.1","","77","","","M","5","","9","","","M","100.50","","","","-27","","NA"
"-117.81","70.76","ULUKHAKTOK A","2502503","2019-01-04 04:00","2019","01","04","04:00","-20.1","","-23.4","","75","","","M","4","","11","","","M","100.55","","","","-28","","NA"
"-117.81","70.76","ULUKHAKTOK A","2502503","2019-01-04 05:00","2019","01","04","05:00","-20.0","","-24.0","","71","","","M","7","","13","","","M","100.57","","","","-28","","NA"
"-117.81","70.76","ULUKHAKTOK A","2502503","2019-01-04 06:00","2019","01","04","06:00","-20.1","","-24.2","","71","","","M","7","","18","","","M","100.56","","","","-30","","NA"
"-117.81","70.76","ULUKHAKTOK A","2502503","2019-01-04 07:00","2019","01","04","07:00","-20.6","","-24.6","","70","","","M","6","","18","","","M","100.59","","","","-31","","NA"
"-117.81","70.76","ULUKHAKTOK A","2502503","2019-01-04 08:00","2019","01","04","08:00","-20.2","","-24.0","","73","","","M","5","","15","","","M","100.61","","","","-29","","NA"
"-117.81","70.76","ULUKHAKTOK A","2502503","2019-01-04 09:00","2019","01","04","09:00","-19.7","","-23.6","","71","","","M","6","","20","","","M","100.61","","","","-30","","NA"
"-117.81","70.76","ULUKHAKTOK A","2502503","2019-01-04 10:00","2019","01","04","10:00","-19.4","","-23.2","","73","","","M","5","","8","","","M","100.65","","","","-26","","NA"
"-117.81","70.76","ULUKHAKTOK A","2502503","2019-01-04 11:00","2019","01","04","11:00","-19.2","","-22.9","","73","","","M","8","","5","","","M","100.65","","","","-23","","NA"
"-117.81","70.76","ULUKHAKTOK A","2502503","2019-01-04 12:00","2019","01","04","12:00","-19.3","","-23.1","","73","","","M","33","","4","","","M","100.66","","","","-23","","NA"
"-117.81","70.76","ULUKHAKTOK A","2502503","2019-01-04 13:00","2019","01","04","13:00","-19.3","","-22.9","","74","","","M","","","0","","","M","100.68","","","","","","NA"
"-117.81","70.76","ULUKHAKTOK A","2502503","2019-01-04 14:00","2019","01","04","14:00","-19.3","","-22.8","","74","","","M","12","","4","","","M","100.67","","","","-23","","NA"
"-117.81","70.76","ULUKHAKTOK A","2502503","2019-01-04 15:00","2019","01","04","15:00","-19.4","","-22.8","","75","","","M","2","","5","","","M","100.68","","","","-24","","NA"
"-117.81","70.76","ULUKHAKTOK A","2502503","2019-01-04 16:00","2019","01","04","16:00","-20.0","","-22.8","","79","","","M","35","","8","","","M","100.68","","","","-26","","NA"
"-117.81","70.76","ULUKHAKTOK A","2502503","2019-01-04 17:00","2019","01","04","17:00","-20.1","","-23.2","","76","","","M","33","","3","","","M","100.70","","","","-23","","NA"
"-117.81","70.76","ULUKHAKTOK A","2502503","2019-01-04 18:00","2019","01","04","18:00","-20.2","","-23.4","","76","","","M","2","","5","","","M","100.69","","","","-25","","NA"
"-117.81","70.76","ULUKHAKTOK A","2502503","2019-01-04 19:00","2019","01","04","19:00","-20.6","","-23.8","","76","","","M","2","","8","","","M","100.67","","","","-27","","NA"
"-117.81","70.76","ULUKHAKTOK A","2502503","2019-01-04 20:00","2019","01","04","20:00","-21.0","","-24.6","","74","","","M","3","","10","","","M","100.67","","","","-28","","NA"
"-117.81","70.76","ULUKHAKTOK A","2502503","2019-01-04 21:00","2019","01","04","21:00","-20.7","","-24.4","","73","","","M","1","","5","","","M","100.66","","","","-25","","NA"
"-117.81","70.76","ULUKHAKTOK A","2502503","2019-01-04 22:00","2019","01","04","22:00","-21.1","","-24.2","","76","","","M","33","","13","","","M","100.63","","","","-30","","NA"
"-117.81","70.76","ULUKHAKTOK A","2502503","2019-01-04 23:00","2019","01","04","23:00","-20.7","","-24.1","","75","","","M","36","","11","","","M","100.61","","","","-28","","NA"
"-117.81","70.76","ULUKHAKTOK A","2502503","2019-01-05 00:00","2019","01","05","00:00","-20.7","","-23.9","","76","","","M","29","","13","","","M","100.63","","","","-29","","NA"
"-117.81","70.76","ULUKHAKTOK A","2502503","2019-01-05 01:00","2019","01","05","01:00","-20.5","","-23.5","","77","","","M","30","","14","","","M","100.63","","","","-29","","NA"
"-117.81","70.76","ULUKHAKTOK A","2502503","2019-01-05 02:00","2019","01","05","02:00","-20.8","","-23.5","","79","","","M","33","","14","","","M","100.65","","","","-30","","NA"
"-117.81","70.76","ULUKHAKTOK A","2502503","2019-01-05 03:00","2019","01","05","03:00","-21.0","","-24.8","","72","","","M","33","","13","","","M","100.63","","","","-30","","NA"
"-117.81","70.76","ULUKHAKTOK A","2502503","2019-01-05 04:00","2019","01","05","04:00","-23.4","","-27.2","","72","","","M","34","","18","","","M","100.66","","","","-34","","NA"
"-117.81","70.76","ULUKHAKTOK A","2502503","2019-01-05 05:00","2019","01","05","05:00","-24.5","","-28.4","","71","","","M","3","","16","","","M","100.66","","","","-35","","NA"
"-117.81","70.76","ULUKHAKTOK A","2502503","2019-01-05 06:00","2019","01","05","06:00","-25.8","","-29.0","","75","","","M","14","","3","","","M","100.68","","","","-29","","NA"
"-117.81","70.76","ULUKHAKTOK A","2502503","2019-01-05 07:00","2019","01","05","07:00","-25.8","","-29.0","","75","","","M","33","","27","","","M","100.63","","","","-40","","NA"
"-117.81","70.76","ULUKHAKTOK A","2502503","2019-01-05 08:00","2019","01","05","08:00","-26.7","","-29.9","","75","","","M","32","","19","","","M","100.66","","","","-39","","NA"
"-117.81","70.76","ULUKHAKTOK A","2502503","2019-01-05 09:00","2019","01","05","09:00","-26.1","","-29.1","","77","","","M","31","","25","","","M","100.67","","","","-39","","NA"
"-117.81","70.76","ULUKHAKTOK A","2502503","2019-01-05 10:00","2019","01","05","10:00","-26.0","","-29.2","","75","","","M","33","","25","","","M","100.69","","","","-39","","NA"
"-117.81","70.76","ULUKHAKTOK A","2502503","2019-01-05 11:00","2019","01","05","11:00","-25.1","","-28.2","","76","","","M","32","","21","","","M","100.64","","","","-37","","NA"
"-117.81","70.76","ULUKHAKTOK A","2502503","2019-01-05 12:00","2019","01","05","12:00","-23.3","","-25.9","","79","","","M","31","","28","","","M","100.58","","","","-36","","NA"
"-117.81","70.76","ULUKHAKTOK A","2502503","2019-01-05 13:00","2019","01","05","13:00","-22.3","","-25.0","","79","","","M","31","","22","","","M","100.63","","","","-34","","NA"
"-117.81","70.76","ULUKHAKTOK A","2502503","2019-01-05 14:00","2019","01","05","14:00","-22.2","","-24.9","","79","","","M","31","","26","","","M","100.63","","","","-35","","NA"
"-117.81","70.76","ULUKHAKTOK A","2502503","2019-01-05 15:00","2019","01","05","15:00","-22.7","","-25.5","","78","","","M","31","","27","","","M","100.62","","","","-36","","NA"
"-117.81","70.76","ULUKHAKTOK A","2502503","2019-01-05 16:00","2019","01","05","16:00","-24.1","","-27.6","","73","","","M","34","","22","","","M","100.64","","","","-36","","NA"
"-117.81","70.76","ULUKHAKTOK A","2502503","2019-01-05 17:00","2019","01","05","17:00","-26.6","","-30.1","","73","","","M","35","","9","","","M","100.67","","","","-35","","NA"
"-117.81","70.76","ULUKHAKTOK A","2502503","2019-01-05 18:00","2019","01","05","18:00","-26.9","","-30.7","","71","","","M","5","","7","","","M","100.67","","","","-34","","NA"
"-117.81","70.76","ULUKHAKTOK A","2502503","2019-01-05 19:00","2019","01","05","19:00","-26.7","","-30.4","","71","","","M","36","","25","","","M","100.68","","","","-40","","NA"
"-117.81","70.76","ULUKHAKTOK A","2502503","2019-01-05 20:00","2019","01","05","20:00","-27.7","","-31.8","","69","","","M","1","","14","","","M","100.72","","","","-38","","NA"
"-117.81","70.76","ULUKHAKTOK A","2502503","2019-01-05 21:00","2019","01","05","21:00","-26.8","","-30.8","","70","","","M","34","","8","","","M","100.80","","","","-34","","NA"
"-117.81","70.76","ULUKHAKTOK A","2502503","2019-01-05 22:00","2019","01","05","22:00","-25.6","","-30.0","","67","","","M","1","","8","","","M","100.79","","","","-33","","NA"
"-117.81","70.76","ULUKHAKTOK A","2502503","2019-01-05 23:00","2019","01","05","23:00","-25.6","","-29.7","","69","","","M","2","","19","","","M","100.77","","","","-37","","NA"
"-117.81","70.76","ULUKHAKTOK A","2502503","2019-01-06 00:00","2019","01","06","00:00","-25.6","","-29.8","","68","","","M","26","","8","","","M","100.78","","","","-33","","NA"
"-117.81","70.76","ULUKHAKTOK A","2502503","2019-01-06 01:00","2019","01","06","01:00","-25.1","","-28.7","","73","","","M","34","","16","","","M","100.78","","","","-36","","NA"
"-117.81","70.76","ULUKHAKTOK A","2502503","2019-01-06 02:00","2019","01","06","02:00","-24.9","","-28.2","","75","","","M","32","","16","","","M","100.81","","","","-35","","NA"
"-117.81","70.76","ULUKHAKTOK A","2502503","2019-01-06 03:00","2019","01","06","03:00","-24.8","","-28.1","","75","","","M","34","","5","","","M","100.80","","","","-30","","NA"
"-117.81","70.76","ULUKHAKTOK A","2502503","2019-01-06 04:00","2019","01","06","04:00","-24.6","","-27.7","","76","","","M","31","","13","","","M","100.78","","","","-34","","NA"
"-117.81","70.76","ULUKHAKTOK A","2502503","2019-01-06 05:00","2019","01","06","05:00","-24.8","","-28.0","","75","","","M","32","","26","","","M","100.75","","","","-38","","NA"
"-117.81","70.76","ULUKHAKTOK A","2502503","2019-01-06 06:00","2019","01","06","06:00","-24.2","","-27.3","","76","","","M","32","","21","","","M","100.76","","","","-36","","NA"
"-117.81","70.76","ULUKHAKTOK A","2502503","2019-01-06 07:00","2019","01","06","07:00","-23.0","","-26.4","","74","","","M","33","","17","","","M","100.74","","","","-33","","NA"
"-117.81","70.76","ULUKHAKTOK A","2502503","2019-01-06 08:00","2019","01","06","08:00","-22.8","","-26.0","","75","","","M","32","","26","","","M","100.72","","","","-35","","NA"
"-117.81","70.76","ULUKHAKTOK A","2502503","2019-01-06 09:00","2019","01","06","09:00","-24.0","","-27.5","","73","","","M","33","","16","","","M","100.73","","","","-34","","NA"
"-117.81","70.76","ULUKHAKTOK A","2502503","2019-01-06 10:00","2019","01","06","10:00","-25.7","","-29.3","","73","","","M","33","","12","","","M","100.78","","","","-35","","NA"
"-117.81","70.76","ULUKHAKTOK A","2502503","2019-01-06 11:00","2019","01","06","11:00","-24.7","","-28.5","","72","","","M","33","","25","","","M","100.76","","","","-38","","NA"
"-117.81","70.76","ULUKHAKTOK A","2502503","2019-01-06 12:00","2019","01","06","12:00","-24.0","","-27.6","","73","","","M","34","","21","","","M","100.79","","","","-36","","NA"
"-117.81","70.76","ULUKHAKTOK A","2502503","2019-01-06 13:00","2019","01","06","13:00","-24.1","","-27.5","","74","","","M","34","","30","","","M","100.78","","","","-38","","NA"
"-117.81","70.76","ULUKHAKTOK A","2502503","2019-01-06 14:00","2019","01","06","14:00","-24.7","","-28.6","","71","","","M","33","","28","","","M","100.83","","","","-38","","NA"
"-117.81","70.76","ULUKHAKTOK A","2502503","2019-01-06 15:00","2019","01","06","15:00","-25.4","","-29.5","","69","","","M","36","","21","","","M","100.86","","","","-38","","NA"
"-117.81","70.76","ULUKHAKTOK A","2502503","2019-01-06 16:00","2019","01","06","16:00","-25.2","","-29.3","","69","","","M","35","","22","","","M","100.89","","","","-38","","NA"
"-117.81","70.76","ULUKHAKTOK A","2502503","2019-01-06 17:00","2019","01","06","17:00","-25.3","","-29.8","","67","","","M","36","","15","","","M","100.95","","","","-36","","NA"
"-117.81","70.76","ULUKHAKTOK A","2502503","2019-01-06 18:00","2019","01","06","18:00","-25.6","","-29.4","","71","","","M","2","","9","","","M","100.98","","","","-33","","NA"
"-117.81","70.76","ULUKHAKTOK A","2502503","2019-01-06 19:00","2019","01","06","19:00","-25.5","","-29.8","","68","","","M","1","","17","","","M","101.02","","","","-37","","NA"
"-117.81","70.76","ULUKHAKTOK A","2502503","2019-01-06 20:00","2019","01","06","20:00","-25.5","","-29.8","","68","","","M","35","","21","","","M","101.03","","","","-38","","NA"
"-117.81","70.76","ULUKHAKTOK A","2502503","2019-01-06 21:00","2019","01","06","21:00","-25.6","","-30.2","","66","","","M","35","","21","","","M","101.04","","","","-38","","NA"
"-117.81","70.76","ULUKHAKTOK A","2502503","2019-01-06 22:00","2019","01","06","22:00","-25.6","","-30.2","","66","","","M","3","","21","","","M","101.09","","","","-38","","NA"
"-117.81","70.76","ULUKHAKTOK A","2502503","2019-01-06 23:00","2019","01","06","23:00","-25.7","","-30.5","","65","","","M","2","","14","","","M","101.16","","","","-36","","NA"
"-117.81","70.76","ULUKHAKTOK A","2502503","2019-01-07 00:00","2019","01","07","00:00","-25.9","","-30.5","","66","","","M","2","","16","","","M","101.22","","","","-37","","NA"
"-117.81","70.76","ULUKHAKTOK A","2502503","2019-01-07 01:00","2019","01","07","01:00","-27.4","","-32.0","","66","","","M","3","","11","","","M","101.29","","","","-37","","NA"
"-117.81","70.76","ULUKHAKTOK A","2502503","2019-01-07 02:00","2019","01","07","02:00","-28.4","","-32.7","","67","","","M","5","","14","","","M","101.37","","","","-39","","NA"
"-117.81","70.76","ULUKHAKTOK A","2502503","2019-01-07 03:00","2019","01","07","03:00","-28.8","","-33.2","","66","","","M","4","","13","","","M","101.45","","","","-39","","NA"
"-117.81","70.76","ULUKHAKTOK A","2502503","2019-01-07 04:00","2019","01","07","04:00","-29.5","","-33.4","","70","","","M","5","","12","","","M","101.53","","","","-40","","NA"
"-117.81","70.76","ULUKHAKTOK A","2502503","2019-01-07 05:00","2019","01","07","05:00","-30.0","","-33.6","","71","","","M","5","","15","","","M","101.59","","","","-41","","NA"
"-117.81","70.76","ULUKHAKTOK A","2502503","2019-01-07 06:00","2019","01","07","06:00","-30.2","","-33.8","","72","","","M","4","","18","","","M","101.66","","","","-43","","NA"
"-117.81","70.76","ULUKHAKTOK A","2502503","2019-01-07 07:00","2019","01","07","07:00","-31.2","","-35.0","","70","","","M","3","","19","","","M","101.72","","","","-44","","NA"
"-117.81","70.76","ULUKHAKTOK A","2502503","2019-01-07 08:00","2019","01","07","08:00","-31.5","","-35.3","","70","","","M","3","","15","","","M","101.78","","","","-43","","NA"
"-117.81","70.76","ULUKHAKTOK A","2502503","2019-01-07 09:00","2019","01","07","09:00","-31.5","","-35.2","","71","","","M","4","","17","","","M","101.84","","","","-44","","NA"
"-117.81","70.76","ULUKHAKTOK A","2502503","2019-01-07 10:00","2019","01","07","10:00","-31.5","","-35.3","","70","","","M","2","","14","","","M","101.91","","","","-43","","NA"
"-117.81","70.76","ULUKHAKTOK A","2502503","2019-01-07 11:00","2019","01","07","11:00","-31.8","","-35.6","","70","","","M","3","","13","","","M","101.95","","","","-43","","NA"
"-117.81","70.76","ULUKHAKTOK A","2502503","2019-01-07 12:00","2019","01","07","12:00","-31.7","","-35.2","","72","","","M","5","","17","","","M","101.99","","","","-44","","NA"
"-117.81","70.76","ULUKHAKTOK A","2502503","2019-01-07 13:00","2019","01","07","13:00","-31.5","","-35.3","","70","","","M","4","","19","","","M","102.03","","","","-45","","NA"
"-117.81","70.76","ULUKHAKTOK A","2502503","2019-01-07 14:00","2019","01","07","14:00","-31.3","","-35.1","","70","","","M","3","","17","","","M","102.06","","","","-44","","NA"
"-117.81","70.76","ULUKHAKTOK A","2502503","2019-01-07 15:00","2019","01","07","15:00","-31.1","","-34.6","","72","","","M","4","","12","","","M","102.10","","","","-41","","NA"
"-117.81","70.76","ULUKHAKTOK A","2502503","2019-01-07 16:00","2019","01","07","16:00","-31.1","","-34.5","","73","","","M","3","","12","","","M","102.15","","","","-41","","NA"
"-117.81","70.76","ULUKHAKTOK A","2502503","2019-01-07 17:00","2019","01","07","17:00","-30.6","","-34.8","","68","","","M","2","","13","","","M","102.18","","","","-41","","NA"
"-117.81","70.76","ULUKHAKTOK A","2502503","2019-01-07 18:00","2019","01","07","18:00","-30.4","","-34.2","","71","","","M","4","","17","","","M","102.19","","","","-43","","NA"
"-117.81","70.76","ULUKHAKTOK A","2502503","2019-01-07 19:00","2019","01","07","19:00","-29.8","","-33.7","","70","","","M","3","","16","","","M","102.19","","","","-42","","NA"
"-117.81","70.76","ULUKHAKTOK A","2502503","2019-01-07 20:00","2019","01","07","20:00","-28.3","","-32.5","","68","","","M","5","","18","","","M","102.20","","","","-40","","NA"
"-117.81","70.76","ULUKHAKTOK A","2502503","2019-01-07 21:00","2019","01","07","21:00","-27.9","","-32.0","","69","","","M","4","","18","","","M","102.21","","","","-40","","NA"
"-117.81","70.76","ULUKHAKTOK A","2502503","2019-01-07 22:00","2019","01","07","22:00","-27.2","","-31.8","","66","","","M","2","","18","","","M","102.20","","","","-39","","NA"
"-117.81","70.76","ULUKHAKTOK A","2502503","2019-01-07 23:00","2019","01","07","23:00","-26.6","","-32.0","","61","","","M","16","","2","","","M","102.26","","","","-29","","NA"
"-117.81","70.76","ULUKHAKTOK A","2502503","2019-01-08 00:00","2019","01","08","00:00","-28.4","","-33.1","","65","","","M","3","","9","","","M","102.28","","","","-37","","NA"
"-117.81","70.76","ULUKHAKTOK A","2502503","2019-01-08 01:00","2019","01","08","01:00","-29.5","","-33.9","","66","","","M","35","","18","","","M","102.28","","","","-42","","NA"
"-117.81","70.76","ULUKHAKTOK A","2502503","2019-01-08 02:00","2019","01","08","02:00","-28.8","","-33.4","","66","","","M","36","","21","","","M","102.28","","","","-42","","NA"
"-117.81","70.76","ULUKHAKTOK A","2502503","2019-01-08 03:00","2019","01","08","03:00","-27.8","","-32.6","","65","","","M","1","","22","","","M","102.30","","","","-41","","NA"
"-117.81","70.76","ULUKHAKTOK A","2502503","2019-01-08 04:00","2019","01","08","04:00","-27.8","","-32.3","","66","","","M","35","","27","","","M","102.31","","","","-42","","NA"
"-117.81","70.76","ULUKHAKTOK A","2502503","2019-01-08 05:00","2019","01","08","05:00","-28.1","","-32.6","","66","","","M","35","","20","","","M","102.31","","","","-41","","NA"
"-117.81","70.76","ULUKHAKTOK A","2502503","2019-01-08 06:00","2019","01","08","06:00","-27.2","","-31.7","","66","","","M","5","","24","","","M","102.30","","","","-41","","NA"
"-117.81","70.76","ULUKHAKTOK A","2502503","2019-01-08 07:00","2019","01","08","07:00","-26.6","","-31.1","","67","","","M","6","","19","","","M","102.31","","","","-39","","NA"
"-117.81","70.76","ULUKHAKTOK A","2502503","2019-01-08 08:00","2019","01","08","08:00","-26.3","","-30.4","","69","","","M","4","","16","","","M","102.32","","","","-37","","NA"
"-117.81","70.76","ULUKHAKTOK A","2502503","2019-01-08 09:00","2019","01","08","09:00","-26.6","","-30.5","","70","","","M","2","","8","","","M","102.35","","","","-34","","NA"
"-117.81","70.76","ULUKHAKTOK A","2502503","2019-01-08 10:00","2019","01","08","10:00","-25.5","","-29.5","","70","","","M","4","","12","","","M","102.33","","","","-35","","NA"
"-117.81","70.76","ULUKHAKTOK A","2502503","2019-01-08 11:00","2019","01","08","11:00","-25.8","","-29.9","","69","","","M","21","","3","","","M","102.35","","","","-29","","NA"
"-117.81","70.76","ULUKHAKTOK A","2502503","2019-01-08 12:00","2019","01","08","12:00","-25.7","","-29.4","","72","","","M","13","","3","","","M","102.38","","","","-29","","NA"
"-117.81","70.76","ULUKHAKTOK A","2502503","2019-01-08 13:00","2019","01","08","13:00","-26.1","","-29.4","","74","","","M","4","","7","","","M","102.38","","","","-33","","NA"
"-117.81","70.76","ULUKHAKTOK A","2502503","2019-01-08 14:00","2019","01","08","14:00","-27.1","","-30.3","","75","","","M","4","","9","","","M","102.41","","","","-35","","NA"
"-117.81","70.76","ULUKHAKTOK A","2502503","2019-01-08 15:00","2019","01","08","15:00","-27.1","","-30.4","","74","","","M","4","","14","","","M","102.41","","","","-37","","NA"
"-117.81","70.76","ULUKHAKTOK A","2502503","2019-01-08 16:00","2019","01","08","16:00","-25.7","","-29.1","","74","","","M","4","","12","","","M","102.43","","","","-35","","NA"
"-117.81","70.76","ULUKHAKTOK A","2502503","2019-01-08 17:00","2019","01","08","17:00","-25.1","","-28.5","","74","","","M","4","","11","","","M","102.44","","","","-34","","NA"
"-117.81","70.76","ULUKHAKTOK A","2502503","2019-01-08 18:00","2019","01","08","18:00","-24.5","","-27.8","","74","","","M","6","","16","","","M","102.44","","","","-35","","NA"
"-117.81","70.76","ULUKHAKTOK A","2502503","2019-01-08 19:00","2019","01","08","19:00","-24.1","","-27.5","","74","","","M","5","","15","","","M","102.43","","","","-34","","NA"
"-117.81","70.76","ULUKHAKTOK A","2502503","2019-01-08 20:00","2019","01","08","20:00","-23.7","","-27.3","","73","","","M","6","","11","","","M","102.45","","","","-32","","NA"
"-117.81","70.76","ULUKHAKTOK A","2502503","2019-01-08 21:00","2019","01","08","21:00","-23.5","","-26.9","","74","","","M","4","","9","","","M","102.46","","","","-31","","NA"
"-117.81","70.76","ULUKHAKTOK A","2502503","2019-01-08 22:00","2019","01","08","22:00","-23.9","","-27.2","","74","","","M","6","","12","","","M","102.47","","","","-33","","NA"
"-117.81","70.76","ULUKHAKTOK A","2502503","2019-01-08 23:00","2019","01","08","23:00","-24.3","","-27.6","","74","","","M","5","","10","","","M","102.50","","","","-32","","NA"
"-117.81","70.76","ULUKHAKTOK A","2502503","2019-01-09 00:00","2019","01","09","00:00","-24.1","","-27.5","","74","","","M","5","","11","","","M","102.52","","","","-33","","NA"
"-117.81","70.76","ULUKHAKTOK A","2502503","2019-01-09 01:00","2019","01","09","01:00","-24.0","","-27.4","","74","","","M","4","","12","","","M","102.55","","","","-33","","NA"
"-117.81","70.76","ULUKHAKTOK A","2502503","2019-01-09 02:00","2019","01","09","02:00","-24.0","","-27.3","","75","","","M","6","","8","","","M","102.58","","","","-31","","NA"
"-117.81","70.76","ULUKHAKTOK A","2502503","2019-01-09 03:00","2019","01","09","03:00","-24.0","","-27.3","","75","","","M","5","","9","","","M","102.61","","","","-31","","NA"
"-117.81","70.76","ULUKHAKTOK A","2502503","2019-01-09 04:00","2019","01","09","04:00","-23.9","","-27.1","","75","","","M","4","","11","","","M","102.63","","","","-32","","NA"
"-117.81","70.76","ULUKHAKTOK A","2502503","2019-01-09 05:00","2019","01","09","05:00","-23.8","","-27.0","","75","","","M","5","","8","","","M","102.66","","","","-31","","NA"
"-117.81","70.76","ULUKHAKTOK A","2502503","2019-01-09 06:00","2019","01","09","06:00","-24.0","","-27.2","","75","","","M","6","","12","","","M","102.68","","","","-33","","NA"
"-117.81","70.76","ULUKHAKTOK A","2502503","2019-01-09 07:00","2019","01","09","07:00","-24.3","","-27.6","","75","","","M","5","","8","","","M","102.71","","","","-31","","NA"
"-117.81","70.76","ULUKHAKTOK A","2502503","2019-01-09 08:00","2019","01","09","08:00","-25.1","","-28.3","","75","","","M","5","","10","","","M","102.73","","","","-33","","NA"
"-117.81","70.76","ULUKHAKTOK A","2502503","2019-01-09 09:00","2019","01","09","09:00","-25.2","","-28.5","","75","","","M","5","","13","","","M","102.77","","","","-35","","NA"
"-117.81","70.76","ULUKHAKTOK A","2502503","2019-01-09 10:00","2019","01","09","10:00","-25.2","","-28.5","","75","","","M","5","","13","","","M","102.81","","","","-35","","NA"
"-117.81","70.76","ULUKHAKTOK A","2502503","2019-01-09 11:00","2019","01","09","11:00","-25.0","","-28.3","","74","","","M","5","","15","","","M","102.85","","","","-35","","NA"
"-117.81","70.76","ULUKHAKTOK A","2502503","2019-01-09 12:00","2019","01","09","12:00","-25.2","","-28.7","","73","","","M","5","","13","","","M","102.90","","","","-35","","NA"
"-117.81","70.76","ULUKHAKTOK A","2502503","2019-01-09 13:00","2019","01","09","13:00","-26.8","","-30.4","","73","","","M","5","","13","","","M","102.93","","","","-37","","NA"
"-117.81","70.76","ULUKHAKTOK A","2502503","2019-01-09 14:00","2019","01","09","14:00","-28.4","","-31.6","","74","","","M","4","","17","","","M","102.96","","","","-40","","NA"
"-117.81","70.76","ULUKHAKTOK A","2502503","2019-01-09 15:00","2019","01","09","15:00","-28.7","","-31.9","","74","","","M","5","","15","","","M","102.98","","","","-40","","NA"
"-117.81","70.76","ULUKHAKTOK A","2502503","2019-01-09 16:00","2019","01","09","16:00","-28.6","","-31.7","","75","","","M","6","","14","","","M","103.02","","","","-39","","NA"
"-117.81","70.76","ULUKHAKTOK A","2502503","2019-01-09 17:00","2019","01","09","17:00","-27.6","","-31.1","","73","","","M","5","","16","","","M","103.05","","","","-39","","NA"
"-117.81","70.76","ULUKHAKTOK A","2502503","2019-01-09 18:00","2019","01","09","18:00","-28.5","","-32.1","","72","","","M","5","","14","","","M","103.06","","","","-39","","NA"
"-117.81","70.76","ULUKHAKTOK A","2502503","2019-01-09 19:00","2019","01","09","19:00","-29.1","","-32.6","","72","","","M","5","","13","","","M","103.08","","","","-39","","NA"
"-117.81","70.76","ULUKHAKTOK A","2502503","2019-01-09 20:00","2019","01","09","20:00","-29.4","","-32.7","","73","","","M","5","","17","","","M","103.11","","","","-41","","NA"
"-117.81","70.76","ULUKHAKTOK A","2502503","2019-01-09 21:00","2019","01","09","21:00","-29.6","","-33.1","","72","","","M","3","","10","","","M","103.14","","","","-39","","NA"
"-117.81","70.76","ULUKHAKTOK A","2502503","2019-01-09 22:00","2019","01","09","22:00","-29.4","","-32.6","","74","","","M","5","","13","","","M","103.15","","","","-40","","NA"
"-117.81","70.76","ULUKHAKTOK A","2502503","2019-01-09 23:00","2019","01","09","23:00","-28.6","","-32.1","","72","","","M","4","","18","","","M","103.16","","","","-41","","NA"
"-117.81","70.76","ULUKHAKTOK A","2502503","2019-01-10 00:00","2019","01","10","00:00","-28.7","","-32.4","","71","","","M","5","","10","","","M","103.18","","","","-38","","NA"
"-117.81","70.76","ULUKHAKTOK A","2502503","2019-01-10 01:00","2019","01","10","01:00","-29.3","","-33.0","","71","","","M","6","","8","","","M","103.21","","","","-37","","NA"
"-117.81","70.76","ULUKHAKTOK A","2502503","2019-01-10 02:00","2019","01","10","02:00","-29.4","","-32.9","","72","","","M","1","","3","","","M","103.25","","","","-33","","NA"
"-117.81","70.76","ULUKHAKTOK A","2502503","2019-01-10 03:00","2019","01","10","03:00","-28.3","","-31.7","","73","","","M","7","","6","","","M","103.28","","","","-35","","NA"
"-117.81","70.76","ULUKHAKTOK A","2502503","2019-01-10 04:00","2019","01","10","04:00","-29.2","","-32.5","","74","","","M","4","","12","","","M","103.27","","","","-39","","NA"
"-117.81","70.76","ULUKHAKTOK A","2502503","2019-01-10 05:00","2019","01","10","05:00","-27.9","","-31.3","","73","","","M","6","","14","","","M","103.27","","","","-38","","NA"
"-117.81","70.76","ULUKHAKTOK A","2502503","2019-01-10 06:00","2019","01","10","06:00","-27.3","","-31.1","","71","","","M","6","","16","","","M","103.25","","","","-38","","NA"
"-117.81","70.76","ULUKHAKTOK A","2502503","2019-01-10 07:00","2019","01","10","07:00","-27.7","","-31.8","","69","","","M","4","","11","","","M","103.25","","","","-37","","NA"
"-117.81","70.76","ULUKHAKTOK A","2502503","2019-01-10 08:00","2019","01","10","08:00","-27.9","","-31.6","","71","","","M","7","","14","","","M","103.25","","","","-38","","NA"
"-117.81","70.76","ULUKHAKTOK A","2502503","2019-01-10 09:00","2019","01","10","09:00","-28.4","","-32.0","","72","","","M","3","","4","","","M","103.26","","","","-33","","NA"
"-117.81","70.76","ULUKHAKTOK A","2502503","2019-01-10 10:00","2019","01","10","10:00","-28.2","","-32.0","","71","","","M","8","","31","","","M","103.23","","","","-43","","NA"
"-117.81","70.76","ULUKHAKTOK A","2502503","2019-01-10 11:00","2019","01","10","11:00","-27.4","","-31.1","","71","","","M","9","","30","","","M","103.21","","","","-42","","NA"
"-117.81","70.76","ULUKHAKTOK A","2502503","2019-01-10 12:00","2019","01","10","12:00","-28.1","","-32.0","","70","","","M","7","","21","","","M","103.23","","","","-41","","NA"
"-117.81","70.76","ULUKHAKTOK A","2502503","2019-01-10 13:00","2019","01","10","13:00","-28.0","","-31.7","","71","","","M","9","","29","","","M","103.21","","","","-43","","NA"
"-117.81","70.76","ULUKHAKTOK A","2502503","2019-01-10 14:00","2019","01","10","14:00","-28.3","","-31.9","","72","","","M","8","","25","","","M","103.25","","","","-42","","NA"
"-117.81","70.76","ULUKHAKTOK A","2502503","2019-01-10 15:00","2019","01","10","15:00","-28.2","","-31.9","","71","","","M","8","","25","","","M","103.25","","","","-42","","NA"
"-117.81","70.76","ULUKHAKTOK A","2502503","2019-01-10 16:00","2019","01","10","16:00","-29.3","","-33.1","","70","","","M","4","","23","","","M","103.25","","","","-43","","NA"
"-117.81","70.76","ULUKHAKTOK A","2502503","2019-01-10 17:00","2019","01","10","17:00","-29.2","","-32.9","","71","","","M","6","","15","","","M","103.23","","","","-40","","NA"
"-117.81","70.76","ULUKHAKTOK A","2502503","2019-01-10 18:00","2019","01","10","18:00","-28.4","","-32.3","","70","","","M","7","","28","","","M","103.17","","","","-43","","NA"
"-117.81","70.76","ULUKHAKTOK A","2502503","2019-01-10 19:00","2019","01","10","19:00","-28.2","","-32.1","","70","","","M","6","","27","","","M","103.12","","","","-43","","NA"
"-117.81","70.76","ULUKHAKTOK A","2502503","2019-01-10 20:00","2019","01","10","20:00","-28.5","","-32.4","","70","","","M","6","","25","","","M","103.09","","","","-43","","NA"
"-117.81","70.76","ULUKHAKTOK A","2502503","2019-01-10 21:00","2019","01","10","21:00","-28.8","","-32.8","","70","","","M","5","","22","","","M","103.08","","","","-42","","NA"
"-117.81","70.76","ULUKHAKTOK A","2502503","2019-01-10 22:00","2019","01","10","22:00","-28.5","","-32.5","","69","","","M","7","","26","","","M","103.08","","","","-43","","NA"
"-117.81","70.76","ULUKHAKTOK A","2502503","2019-01-10 23:00","2019","01","10","23:00","-28.9","","-32.8","","70","","","M","8","","27","","","M","103.07","","","","-44","","NA"
"-117.81","70.76","ULUKHAKTOK A","2502503","2019-01-11 00:00","2019","01","11","00:00","-29.4","","-33.2","","70","","","M","3","","14","","","M","103.02","","","","-40","","NA"
"-117.81","70.76","ULUKHAKTOK A","2502503","2019-01-11 01:00","2019","01","11","01:00","-28.5","","-32.2","","71","","","M","7","","22","","","M","103.00","","","","-42","","NA"
"-117.81","70.76","ULUKHAKTOK A","2502503","2019-01-11 02:00","2019","01","11","02:00","-29.4","","-33.0","","71","","","M","5","","26","","","M","102.94","","","","-44","","NA"
"-117.81","70.76","ULUKHAKTOK A","2502503","2019-01-11 03:00","2019","01","11","03:00","-28.9","","-32.6","","71","","","M","7","","25","","","M","102.86","","","","-43","","NA"
"-117.81","70.76","ULUKHAKTOK A","2502503","2019-01-11 04:00","2019","01","11","04:00","-28.3","","-32.1","","70","","","M","8","","28","","","M","102.80","","","","-43","","NA"
"-117.81","70.76","ULUKHAKTOK A","2502503","2019-01-11 05:00","2019","01","11","05:00","-28.4","","-31.9","","72","","","M","8","","37","","","M","102.69","","","","-45","","NA"
"-117.81","70.76","ULUKHAKTOK A","2502503","2019-01-11 06:00","2019","01","11","06:00","-27.6","","-31.4","","71","","","M","9","","43","","","M","102.63","","","","-45","","NA"
"-117.81","70.76","ULUKHAKTOK A","2502503","2019-01-11 07:00","2019","01","11","07:00","-27.9","","-31.8","","70","","","M","8","","46","","","M","102.59","","","","-46","","NA"
"-117.81","70.76","ULUKHAKTOK A","2502503","2019-01-11 08:00","2019","01","11","08:00","-27.8","","-31.4","","72","","","M","7","","39","","","M","102.54","","","","-44","","NA"
"-117.81","70.76","ULUKHAKTOK A","2502503","2019-01-11 09:00","2019","01","11","09:00","-27.3","","-30.5","","75","","","M","8","","36","","","M","102.55","","","","-43","","NA"
"-117.81","70.76","ULUKHAKTOK A","2502503","2019-01-11 10:00","2019","01","11","10:00","-27.7","","-30.9","","75","","","M","7","","30","","","M","102.47","","","","-43","","NA"
"-117.81","70.76","ULUKHAKTOK A","2502503","2019-01-11 11:00","2019","01","11","11:00","-26.9","","-30.3","","73","","","M","8","","27","","","M","102.46","","","","-41","","NA"
"-117.81","70.76","ULUKHAKTOK A","2502503","2019-01-11 12:00","2019","01","11","12:00","-27.4","","-30.9","","73","","","M","9","","35","","","M","102.42","","","","-43","","NA"
"-117.81","70.76","ULUKHAKTOK A","2502503","2019-01-11 13:00","2019","01","11","13:00","-27.5","","-30.9","","74","","","M","9","","35","","","M","102.36","","","","-43","","NA"
"-117.81","70.76","ULUKHAKTOK A","2502503","2019-01-11 14:00","2019","01","11","14:00","-26.9","","-30.3","","74","","","M","8","","27","","","M","102.28","","","","-41","","NA"
"-117.81","70.76","ULUKHAKTOK A","2502503","2019-01-11 15:00","2019","01","11","15:00","-26.9","","-30.3","","74","","","M","8","","32","","","M","102.23","","","","-42","","NA"
"-117.81","70.76","ULUKHAKTOK A","2502503","2019-01-11 16:00","2019","01","11","16:00","-26.9","","-30.3","","73","","","M","8","","27","","","M","102.18","","","","-41","","NA"
"-117.81","70.76","ULUKHAKTOK A","2502503","2019-01-11 17:00","2019","01","11","17:00","-27.1","","-30.5","","74","","","M","4","","22","","","M","102.11","","","","-40","","NA"
"-117.81","70.76","ULUKHAKTOK A","2502503","2019-01-11 18:00","2019","01","11","18:00","-27.1","","-30.4","","74","","","M","5","","26","","","M","102.00","","","","-41","","NA"
"-117.81","70.76","ULUKHAKTOK A","2502503","2019-01-11 19:00","2019","01","11","19:00","-26.7","","-29.9","","75","","","M","6","","28","","","M","101.91","","","","-41","","NA"
"-117.81","70.76","ULUKHAKTOK A","2502503","2019-01-11 20:00","2019","01","11","20:00","-26.3","","-29.6","","74","","","M","8","","51","","","M","101.79","","","","-44","","NA"
"-117.81","70.76","ULUKHAKTOK A","2502503","2019-01-11 21:00","2019","01","11","21:00","-26.2","","-29.6","","74","","","M","8","","30","","","M","101.80","","","","-41","","NA"
"-117.81","70.76","ULUKHAKTOK A","2502503","2019-01-11 22:00","2019","01","11","22:00","-26.8","","-30.0","","75","","","M","6","","34","","","M","101.74","","","","-42","","NA"
"-117.81","70.76","ULUKHAKTOK A","2502503","2019-01-11 23:00","2019","01","11","23:00","-26.9","","-30.1","","74","","","M","8","","47","","","M","101.66","","","","-44","","NA"
"-117.81","70.76","ULUKHAKTOK A","2502503","2019-01-12 00:00","2019","01","12","00:00","-26.8","","-30.2","","74","","","M","3","","30","","","M","101.66","","","","-41","","NA"
"-117.81","70.76","ULUKHAKTOK A","2502503","2019-01-12 01:00","2019","01","12","01:00","-26.5","","-29.8","","74","","","M","4","","37","","","M","101.58","","","","-42","","NA"
"-117.81","70.76","ULUKHAKTOK A","2502503","2019-01-12 02:00","2019","01","12","02:00","-26.6","","-29.9","","75","","","M","5","","26","","","M","101.56","","","","-40","","NA"
"-117.81","70.76","ULUKHAKTOK A","2502503","2019-01-12 03:00","2019","01","12","03:00","-26.3","","-29.4","","76","","","M","6","","37","","","M","101.48","","","","-42","","NA"
"-117.81","70.76","ULUKHAKTOK A","2502503","2019-01-12 04:00","2019","01","12","04:00","-26.0","","-29.1","","76","","","M","7","","49","","","M","101.39","","","","-43","","NA"
"-117.81","70.76","ULUKHAKTOK A","2502503","2019-01-12 05:00","2019","01","12","05:00","-25.5","","-28.5","","76","","","M","6","","38","","","M","101.40","","","","-41","","NA"
"-117.81","70.76","ULUKHAKTOK A","2502503","2019-01-12 06:00","2019","01","12","06:00","-25.1","","-28.2","","76","","","M","5","","44","","","M","101.35","","","","-42","","NA"
"-117.81","70.76","ULUKHAKTOK A","2502503","2019-01-12 07:00","2019","01","12","07:00","-25.4","","-28.6","","75","","","M","7","","48","","","M","101.33","","","","-42","","NA"
"-117.81","70.76","ULUKHAKTOK A","2502503","2019-01-12 08:00","2019","01","12","08:00","-25.7","","-29.1","","74","","","M","7","","55","","","M","101.31","","","","-44","","NA"
"-117.81","70.76","ULUKHAKTOK A","2502503","2019-01-12 09:00","2019","01","12","09:00","-25.9","","-29.4","","73","","","M","8","","52","","","M","101.36","","","","-44","","NA"
"-117.81","70.76","ULUKHAKTOK A","2502503","2019-01-12 10:00","2019","01","12","10:00","-26.1","","-30.0","","70","","","M","8","","27","","","M","101.54","","","","-40","","NA"
"-117.81","70.76","ULUKHAKTOK A","2502503","2019-01-12 11:00","2019","01","12","11:00","-25.9","","-29.5","","72","","","M","8","","25","","","M","101.58","","","","-39","","NA"
"-117.81","70.76","ULUKHAKTOK A","2502503","2019-01-12 12:00","2019","01","12","12:00","-25.8","","-29.7","","71","","","M","7","","27","","","M","101.61","","","","-40","","NA"
"-117.81","70.76","ULUKHAKTOK A","2502503","2019-01-12 13:00","2019","01","12","13:00","-25.9","","-29.9","","69","","","M","8","","28","","","M","101.69","","","","-40","","NA"
"-117.81","70.76","ULUKHAKTOK A","2502503","2019-01-12 14:00","2019","01","12","14:00","-26.0","","-30.3","","68","","","M","7","","28","","","M","101.79","","","","-40","","NA"
"-117.81","70.76","ULUKHAKTOK A","2502503","2019-01-12 15:00","2019","01","12","15:00","-26.0","","-30.6","","66","","","M","7","","27","","","M","101.89","","","","-40","","NA"
"-117.81","70.76","ULUKHAKTOK A","2502503","2019-01-12 16:00","2019","01","12","16:00","-25.9","","-30.6","","66","","","M","4","","13","","","M","101.98","","","","-36","","NA"
"-117.81","70.76","ULUKHAKTOK A","2502503","2019-01-12 17:00","2019","01","12","17:00","-25.6","","-30.3","","66","","","M","8","","17","","","M","102.05","","","","-37","","NA"
"-117.81","70.76","ULUKHAKTOK A","2502503","2019-01-12 18:00","2019","01","12","18:00","-26.1","","-30.4","","68","","","M","5","","14","","","M","102.15","","","","-36","","NA"
"-117.81","70.76","ULUKHAKTOK A","2502503","2019-01-12 19:00","2019","01","12","19:00","-25.9","","-30.4","","67","","","M","6","","10","","","M","102.26","","","","-34","","NA"
"-117.81","70.76","ULUKHAKTOK A","2502503","2019-01-12 20:00","2019","01","12","20:00","-25.7","","-30.0","","68","","","M","6","","10","","","M","102.35","","","","-34","","NA"
"-117.81","70.76","ULUKHAKTOK A","2502503","2019-01-12 21:00","2019","01","12","21:00","-26.4","","-30.9","","66","","","M","3","","9","","","M","102.42","","","","-34","","NA"
"-117.81","70.76","ULUKHAKTOK A","2502503","2019-01-12 22:00","2019","01","12","22:00","-28.4","","-32.6","","68","","","M","8","","11","","","M","102.52","","","","-38","","NA"
"-117.81","70.76","ULUKHAKTOK A","2502503","2019-01-12 23:00","2019","01","12","23:00","-28.5","","-32.7","","68","","","M","5","","13","","","M","102.59","","","","-39","","NA"
"-117.81","70.76","ULUKHAKTOK A","2502503","2019-01-13 00:00","2019","01","13","00:00","-30.1","","-34.1","","69","","","M","1","","9","","","M","102.70","","","","-39","","NA"
"-117.81","70.76","ULUKHAKTOK A","2502503","2019-01-13 01:00","2019","01","13","01:00","-30.4","","-34.1","","71","","","M","3","","11","","","M","102.79","","","","-40","","NA"
"-117.81","70.76","ULUKHAKTOK A","2502503","2019-01-13 02:00","2019","01","13","02:00","-30.6","","-34.6","","69","","","M","3","","16","","","M","102.86","","","","-43","","NA"
"-117.81","70.76","ULUKHAKTOK A","2502503","2019-01-13 03:00","2019","01","13","03:00","-30.4","","-34.2","","70","","","M","3","","14","","","M","102.92","","","","-42","","NA"
"-117.81","70.76","ULUKHAKTOK A","2502503","2019-01-13 04:00","2019","01","13","04:00","-30.2","","-34.0","","71","","","M","4","","18","","","M","102.97","","","","-43","","NA"
"-117.81","70.76","ULUKHAKTOK A","2502503","2019-01-13 05:00","2019","01","13","05:00","-30.4","","-34.3","","70","","","M","3","","15","","","M","102.98","","","","-42","","NA"
"-117.81","70.76","ULUKHAKTOK A","2502503","2019-01-13 06:00","2019","01","13","06:00","-30.4","","-34.2","","70","","","M","4","","17","","","M","103.00","","","","-43","","NA"
"-117.81","70.76","ULUKHAKTOK A","2502503","2019-01-13 07:00","2019","01","13","07:00","-30.2","","-34.0","","70","","","M","4","","20","","","M","103.02","","","","-43","","NA"
"-117.81","70.76","ULUKHAKTOK A","2502503","2019-01-13 08:00","2019","01","13","08:00","-29.4","","-33.4","","69","","","M","4","","16","","","M","103.05","","","","-41","","NA"
"-117.81","70.76","ULUKHAKTOK A","2502503","2019-01-13 09:00","2019","01","13","09:00","-29.8","","-33.8","","69","","","M","5","","23","","","M","103.08","","","","-44","","NA"
"-117.81","70.76","ULUKHAKTOK A","2502503","2019-01-13 10:00","2019","01","13","10:00","-29.6","","-33.8","","68","","","M","5","","20","","","M","103.12","","","","-43","","NA"
"-117.81","70.76","ULUKHAKTOK A","2502503","2019-01-13 11:00","2019","01","13","11:00","-29.9","","-33.9","","69","","","M","4","","18","","","M","103.14","","","","-42","","NA"
"-117.81","70.76","ULUKHAKTOK A","2502503","2019-01-13 12:00","2019","01","13","12:00","-30.4","","-34.6","","67","","","M","4","","20","","","M","103.17","","","","-44","","NA"
"-117.81","70.76","ULUKHAKTOK A","2502503","2019-01-13 13:00","2019","01","13","13:00","-30.3","","-34.3","","69","","","M","3","","18","","","M","103.22","","","","-43","","NA"
"-117.81","70.76","ULUKHAKTOK A","2502503","2019-01-13 14:00","2019","01","13","14:00","-30.9","","-34.8","","69","","","M","4","","17","","","M","103.24","","","","-43","","NA"
"-117.81","70.76","ULUKHAKTOK A","2502503","2019-01-13 15:00","2019","01","13","15:00","-31.4","","-35.5","","68","","","M","4","","18","","","M","103.26","","","","-44","","NA"
"-117.81","70.76","ULUKHAKTOK A","2502503","2019-01-13 16:00","2019","01","13","16:00","-31.1","","-35.0","","70","","","M","5","","16","","","M","103.29","","","","-43","","NA"
"-117.81","70.76","ULUKHAKTOK A","2502503","2019-01-13 17:00","2019","01","13","17:00","-31.6","","-35.5","","69","","","M","4","","16","","","M","103.32","","","","-44","","NA"
"-117.81","70.76","ULUKHAKTOK A","2502503","2019-01-13 18:00","2019","01","13","18:00","-32.2","","-36.1","","69","","","M","4","","18","","","M","103.35","","","","-45","","NA"
"-117.81","70.76","ULUKHAKTOK A","2502503","2019-01-13 19:00","2019","01","13","19:00","-31.8","","-35.5","","71","","","M","4","","18","","","M","103.36","","","","-45","","NA"
"-117.81","70.76","ULUKHAKTOK A","2502503","2019-01-13 20:00","2019","01","13","20:00","-32.9","","-36.6","","70","","","M","3","","16","","","M","103.36","","","","-45","","NA"
"-117.81","70.76","ULUKHAKTOK A","2502503","2019-01-13 21:00","2019","01","13","21:00","-32.8","","-36.5","","70","","","M","3","","16","","","M","103.38","","","","-45","","NA"
"-117.81","70.76","ULUKHAKTOK A","2502503","2019-01-13 22:00","2019","01","13","22:00","-32.8","","-36.2","","72","","","M","4","","14","","","M","103.39","","","","-44","","NA"
"-117.81","70.76","ULUKHAKTOK A","2502503","2019-01-13 23:00","2019","01","13","23:00","-32.2","","-36.0","","70","","","M","5","","10","","","M","103.40","","","","-42","","NA"
"-117.81","70.76","ULUKHAKTOK A","2502503","2019-01-14 00:00","2019","01","14","00:00","-32.9","","-36.7","","70","","","M","4","","18","","","M","103.38","","","","-46","","NA"
"-117.81","70.76","ULUKHAKTOK A","2502503","2019-01-14 01:00","2019","01","14","01:00","-33.4","","-37.0","","71","","","M","4","","18","","","M","103.41","","","","-47","","NA"
"-117.81","70.76","ULUKHAKTOK A","2502503","2019-01-14 02:00","2019","01","14","02:00","-33.5","","-37.0","","71","","","M","5","","16","","","M","103.42","","","","-46","","NA"
"-117.81","70.76","ULUKHAKTOK A","2502503","2019-01-14 03:00","2019","01","14","03:00","-33.5","","-37.0","","72","","","M","4","","16","","","M","103.45","","","","-46","","NA"
"-117.81","70.76","ULUKHAKTOK A","2502503","2019-01-14 04:00","2019","01","14","04:00","-34.0","","-37.6","","71","","","M","4","","15","","","M","103.47","","","","-46","","NA"
"-117.81","70.76","ULUKHAKTOK A","2502503","2019-01-14 05:00","2019","01","14","05:00","-34.1","","-37.6","","72","","","M","4","","17","","","M","103.48","","","","-47","","NA"
"-117.81","70.76","ULUKHAKTOK A","2502503","2019-01-14 06:00","2019","01","14","06:00","-34.3","","-37.9","","71","","","M","2","","14","","","M","103.47","","","","-46","","NA"
"-117.81","70.76","ULUKHAKTOK A","2502503","2019-01-14 07:00","2019","01","14","07:00","-34.6","","-38.1","","71","","","M","2","","14","","","M","103.46","","","","-47","","NA"
"-117.81","70.76","ULUKHAKTOK A","2502503","2019-01-14 08:00","2019","01","14","08:00","-34.3","","-37.8","","72","","","M","3","","13","","","M","103.44","","","","-46","","NA"
"-117.81","70.76","ULUKHAKTOK A","2502503","2019-01-14 09:00","2019","01","14","09:00","-34.4","","-38.0","","71","","","M","4","","16","","","M","103.44","","","","-47","","NA"
"-117.81","70.76","ULUKHAKTOK A","2502503","2019-01-14 10:00","2019","01","14","10:00","-33.9","","-37.5","","71","","","M","2","","15","","","M","103.42","","","","-46","","NA"
"-117.81","70.76","ULUKHAKTOK A","2502503","2019-01-14 11:00","2019","01","14","11:00","-33.8","","-37.3","","72","","","M","4","","9","","","M","103.42","","","","-43","","NA"
"-117.81","70.76","ULUKHAKTOK A","2502503","2019-01-14 12:00","2019","01","14","12:00","-33.9","","-37.5","","71","","","M","4","","16","","","M","103.43","","","","-47","","NA"
"-117.81","70.76","ULUKHAKTOK A","2502503","2019-01-14 13:00","2019","01","14","13:00","-33.4","","-37.0","","71","","","M","3","","14","","","M","103.43","","","","-45","","NA"
"-117.81","70.76","ULUKHAKTOK A","2502503","2019-01-14 14:00","2019","01","14","14:00","-33.2","","-36.9","","71","","","M","4","","12","","","M","103.41","","","","-44","","NA"
"-117.81","70.76","ULUKHAKTOK A","2502503","2019-01-14 15:00","2019","01","14","15:00","-32.6","","-35.9","","73","","","M","4","","11","","","M","103.42","","","","-43","","NA"
"-117.81","70.76","ULUKHAKTOK A","2502503","2019-01-14 16:00","2019","01","14","16:00","-32.2","","-35.5","","73","","","M","3","","13","","","M","103.43","","","","-43","","NA"
"-117.81","70.76","ULUKHAKTOK A","2502503","2019-01-14 17:00","2019","01","14","17:00","-32.3","","-35.7","","72","","","M","2","","13","","","M","103.40","","","","-43","","NA"
"-117.81","70.76","ULUKHAKTOK A","2502503","2019-01-14 18:00","2019","01","14","18:00","-30.2","","-33.7","","73","","","M","3","","12","","","M","103.36","","","","-40","","NA"
"-117.81","70.76","ULUKHAKTOK A","2502503","2019-01-14 19:00","2019","01","14","19:00","-30.0","","-33.8","","71","","","M","35","","15","","","M","103.38","","","","-41","","NA"
"-117.81","70.76","ULUKHAKTOK A","2502503","2019-01-14 20:00","2019","01","14","20:00","-28.3","","-31.3","","76","","","M","3","","18","","","M","103.37","","","","-40","","NA"
"-117.81","70.76","ULUKHAKTOK A","2502503","2019-01-14 21:00","2019","01","14","21:00","-26.8","","-30.9","","69","","","M","2","","17","","","M","103.34","","","","-38","","NA"
"-117.81","70.76","ULUKHAKTOK A","2502503","2019-01-14 22:00","2019","01","14","22:00","-28.0","","-31.7","","71","","","M","4","","14","","","M","103.36","","","","-39","","NA"
"-117.81","70.76","ULUKHAKTOK A","2502503","2019-01-14 23:00","2019","01","14","23:00","-27.7","","-31.1","","73","","","M","3","","13","","","M","103.36","","","","-38","","NA"
"-117.81","70.76","ULUKHAKTOK A","2502503","2019-01-15 00:00","2019","01","15","00:00","-28.8","","-32.1","","74","","","M","3","","17","","","M","103.36","","","","-41","","NA"
"-117.81","70.76","ULUKHAKTOK A","2502503","2019-01-15 01:00","2019","01","15","01:00","-28.9","","-32.1","","74","","","M","3","","12","","","M","103.38","","","","-39","","NA"
"-117.81","70.76","ULUKHAKTOK A","2502503","2019-01-15 02:00","2019","01","15","02:00","-29.5","","-32.8","","74","","","M","2","","13","","","M","103.39","","","","-40","","NA"
"-117.81","70.76","ULUKHAKTOK A","2502503","2019-01-15 03:00","2019","01","15","03:00","-27.6","","-31.3","","71","","","M","3","","12","","","M","103.37","","","","-37","","NA"
"-117.81","70.76","ULUKHAKTOK A","2502503","2019-01-15 04:00","2019","01","15","04:00","-26.5","","-28.7","","82","","","M","35","","7","","","M","103.37","","","","-33","","NA"
"-117.81","70.76","ULUKHAKTOK A","2502503","2019-01-15 05:00","2019","01","15","05:00","-25.7","","-29.0","","74","","","M","5","","21","","","M","103.39","","","","-38","","NA"
"-117.81","70.76","ULUKHAKTOK A","2502503","2019-01-15 06:00","2019","01","15","06:00","-23.2","","-26.8","","73","","","M","35","","16","","","M","103.35","","","","-33","","NA"
"-117.81","70.76","ULUKHAKTOK A","2502503","2019-01-15 07:00","2019","01","15","07:00","-25.4","","-28.3","","77","","","M","33","","22","","","M","103.34","","","","-38","","NA"
"-117.81","70.76","ULUKHAKTOK A","2502503","2019-01-15 08:00","2019","01","15","08:00","-26.2","","-29.2","","76","","","M","31","","27","","","M","103.29","","","","-40","","NA"
"-117.81","70.76","ULUKHAKTOK A","2502503","2019-01-15 09:00","2019","01","15","09:00","-25.7","","-28.8","","76","","","M","33","","35","","","M","103.27","","","","-41","","NA"
"-117.81","70.76","ULUKHAKTOK A","2502503","2019-01-15 10:00","2019","01","15","10:00","-26.7","","-30.0","","74","","","M","32","","18","","","M","103.31","","","","-38","","NA"
"-117.81","70.76","ULUKHAKTOK A","2502503","2019-01-15 11:00","2019","01","15","11:00","-25.8","","-29.4","","72","","","M","33","","22","","","M","103.32","","","","-38","","NA"
"-117.81","70.76","ULUKHAKTOK A","2502503","2019-01-15 12:00","2019","01","15","12:00","-26.8","","-30.6","","71","","","M","31","","23","","","M","103.29","","","","-40","","NA"
"-117.81","70.76","ULUKHAKTOK A","2502503","2019-01-15 13:00","2019","01","15","13:00","-25.9","","-29.8","","70","","","M","7","","21","","","M","103.29","","","","-38","","NA"
"-117.81","70.76","ULUKHAKTOK A","2502503","2019-01-15 14:00","2019","01","15","14:00","-26.3","","-30.2","","70","","","M","3","","14","","","M","103.32","","","","-36","","NA"
"-117.81","70.76","ULUKHAKTOK A","2502503","2019-01-15 15:00","2019","01","15","15:00","-25.3","","-29.7","","67","","","M","1","","22","","","M","103.32","","","","-38","","NA"
"-117.81","70.76","ULUKHAKTOK A","2502503","2019-01-15 16:00","2019","01","15","16:00","-24.2","","-29.2","","64","","","M","8","","18","","","M","103.39","","","","-35","","NA"
"-117.81","70.76","ULUKHAKTOK A","2502503","2019-01-15 17:00","2019","01","15","17:00","-23.4","","-28.4","","64","","","M","7","","23","","","M","103.40","","","","-36","","NA"
"-117.81","70.76","ULUKHAKTOK A","2502503","2019-01-15 18:00","2019","01","15","18:00","-24.2","","-29.4","","63","","","M","6","","15","","","M","103.42","","","","-34","","NA"
"-117.81","70.76","ULUKHAKTOK A","2502503","2019-01-15 19:00","2019","01","15","19:00","-22.3","","-28.6","","58","","","M","6","","8","","","M","103.46","","","","-29","","NA"
"-117.81","70.76","ULUKHAKTOK A","2502503","2019-01-15 20:00","2019","01","15","20:00","-23.9","","-29.0","","63","","","M","5","","16","","","M","103.41","","","","-34","","NA"
"-117.81","70.76","ULUKHAKTOK A","2502503","2019-01-15 21:00","2019","01","15","21:00","-23.9","","-29.4","","61","","","M","34","","7","","","M","103.39","","","","-30","","NA"
"-117.81","70.76","ULUKHAKTOK A","2502503","2019-01-15 22:00","2019","01","15","22:00","-23.6","","-28.7","","63","","","M","35","","28","","","M","103.36","","","","-37","","NA"
"-117.81","70.76","ULUKHAKTOK A","2502503","2019-01-15 23:00","2019","01","15","23:00","-24.4","","-29.5","","64","","","M","33","","34","","","M","103.29","","","","-39","","NA"
"-117.81","70.76","ULUKHAKTOK A","2502503","2019-01-16 00:00","2019","01","16","00:00","-25.3","","-29.8","","67","","","M","34","","24","","","M","103.29","","","","-38","","NA"
"-117.81","70.76","ULUKHAKTOK A","2502503","2019-01-16 01:00","2019","01","16","01:00","-23.0","","-27.8","","66","","","M","31","","24","","","M","103.29","","","","-35","","NA"
"-117.81","70.76","ULUKHAKTOK A","2502503","2019-01-16 02:00","2019","01","16","02:00","-22.8","","-27.9","","63","","","M","34","","23","","","M","103.34","","","","-35","","NA"
"-117.81","70.76","ULUKHAKTOK A","2502503","2019-01-16 03:00","2019","01","16","03:00","-24.9","","-28.7","","71","","","M","33","","18","","","M","103.36","","","","-36","","NA"
"-117.81","70.76","ULUKHAKTOK A","2502503","2019-01-16 04:00","2019","01","16","04:00","-24.1","","-27.9","","72","","","M","36","","34","","","M","103.32","","","","-39","","NA"
"-117.81","70.76","ULUKHAKTOK A","2502503","2019-01-16 05:00","2019","01","16","05:00","-23.5","","-27.5","","70","","","M","33","","30","","","M","103.33","","","","-37","","NA"
"-117.81","70.76","ULUKHAKTOK A","2502503","2019-01-16 06:00","2019","01","16","06:00","-23.3","","-26.8","","73","","","M","33","","43","","","M","103.34","","","","-39","","NA"
"-117.81","70.76","ULUKHAKTOK A","2502503","2019-01-16 07:00","2019","01","16","07:00","-22.9","","-27.1","","69","","","M","25","","9","","","M","103.44","","","","-30","","NA"
"-117.81","70.76","ULUKHAKTOK A","2502503","2019-01-16 08:00","2019","01","16","08:00","-21.9","","-27.2","","63","","","M","20","","5","","","M","103.44","","","","-26","","NA"
"-117.81","70.76","ULUKHAKTOK A","2502503","2019-01-16 09:00","2019","01","16","09:00","-23.1","","-27.2","","69","","","M","5","","6","","","M","103.47","","","","-29","","NA"
"-117.81","70.76","ULUKHAKTOK A","2502503","2019-01-16 10:00","2019","01","16","10:00","-22.9","","-28.0","","64","","","M","33","","13","","","M","103.43","","","","-32","","NA"
"-117.81","70.76","ULUKHAKTOK A","2502503","2019-01-16 11:00","2019","01","16","11:00","-24.8","","-29.1","","69","","","M","32","","22","","","M","103.39","","","","-37","","NA"
"-117.81","70.76","ULUKHAKTOK A","2502503","2019-01-16 12:00","2019","01","16","12:00","-23.9","","-27.0","","76","","","M","29","","18","","","M","103.35","","","","-35","","NA"
"-117.81","70.76","ULUKHAKTOK A","2502503","2019-01-16 13:00","2019","01","16","13:00","-22.6","","-25.6","","78","","","M","13","","10","","","M","103.33","","","","-30","","NA"
"-117.81","70.76","ULUKHAKTOK A","2502503","2019-01-16 14:00","2019","01","16","14:00","-21.7","","-25.3","","73","","","M","1","","28","","","M","103.25","","","","-34","","NA"
"-117.81","70.76","ULUKHAKTOK A","2502503","2019-01-16 15:00","2019","01","16","15:00","-20.2","","-24.7","","68","","","M","36","","33","","","M","103.28","","","","-33","","NA"
"-117.81","70.76","ULUKHAKTOK A","2502503","2019-01-16 16:00","2019","01","16","16:00","-19.6","","-24.1","","68","","","M","36","","47","","","M","103.27","","","","-35","","NA"
"-117.81","70.76","ULUKHAKTOK A","2502503","2019-01-16 17:00","2019","01","16","17:00","-19.6","","-24.2","","67","","","M","36","","43","","","M","103.23","","","","-34","","NA"
"-117.81","70.76","ULUKHAKTOK A","2502503","2019-01-16 18:00","2019","01","16","18:00","-19.5","","-24.2","","67","","","M","36","","41","","","M","103.25","","","","-34","","NA"
"-117.81","70.76","ULUKHAKTOK A","2502503","2019-01-16 19:00","2019","01","16","19:00","-20.1","","-24.4","","69","","","M","34","","30","","","M","103.25","","","","-33","","NA"
"-117.81","70.76","ULUKHAKTOK A","2502503","2019-01-16 20:00","2019","01","16","20:00","-20.8","","-25.5","","67","","","M","35","","34","","","M","103.25","","","","-34","","NA"
"-117.81","70.76","ULUKHAKTOK A","2502503","2019-01-16 21:00","2019","01","16","21:00","-23.3","","-26.9","","73","","","M","32","","24","","","M","103.22","","","","-36","","NA"
"-117.81","70.76","ULUKHAKTOK A","2502503","2019-01-16 22:00","2019","01","16","22:00","-20.5","","-25.9","","63","","","M","34","","32","","","M","103.22","","","","-34","","NA"
"-117.81","70.76","ULUKHAKTOK A","2502503","2019-01-16 23:00","2019","01","16","23:00","-20.6","","-26.7","","59","","","M","1","","7","","","M","103.26","","","","-26","","NA"
"-117.81","70.76","ULUKHAKTOK A","2502503","2019-01-17 00:00","2019","01","17","00:00","-20.7","","-26.8","","59","","","M","33","","21","","","M","103.20","","","","-32","","NA"
"-117.81","70.76","ULUKHAKTOK A","2502503","2019-01-17 01:00","2019","01","17","01:00","-21.1","","-27.4","","58","","","M","36","","29","","","M","103.13","","","","-34","","NA"
"-117.81","70.76","ULUKHAKTOK A","2502503","2019-01-17 02:00","2019","01","17","02:00","-21.0","","-25.8","","66","","","M","36","","37","","","M","103.00","","","","-35","","NA"
"-117.81","70.76","ULUKHAKTOK A","2502503","2019-01-17 03:00","2019","01","17","03:00","-19.7","","-24.4","","67","","","M","1","","47","","","M","102.93","","","","-35","","NA"
"-117.81","70.76","ULUKHAKTOK A","2502503","2019-01-17 04:00","2019","01","17","04:00","-18.4","","-24.9","","57","","","M","4","","11","","","M","103.05","","","","-26","","NA"
"-117.81","70.76","ULUKHAKTOK A","2502503","2019-01-17 05:00","2019","01","17","05:00","-18.2","","-24.8","","57","","","M","3","","12","","","M","103.06","","","","-26","","NA"
"-117.81","70.76","ULUKHAKTOK A","2502503","2019-01-17 06:00","2019","01","17","06:00","-18.5","","-25.3","","56","","","M","5","","27","","","M","103.03","","","","-30","","NA"
"-117.81","70.76","ULUKHAKTOK A","2502503","2019-01-17 07:00","2019","01","17","07:00","-19.8","","-25.7","","61","","","M","36","","14","","","M","103.06","","","","-29","","NA"
"-117.81","70.76","ULUKHAKTOK A","2502503","2019-01-17 08:00","2019","01","17","08:00","-20.8","","-26.7","","60","","","M","4","","16","","","M","103.09","","","","-30","","NA"
"-117.81","70.76","ULUKHAKTOK A","2502503","2019-01-17 09:00","2019","01","17","09:00","-21.8","","-26.7","","65","","","M","33","","3","","","M","103.09","","","","-25","","NA"
"-117.81","70.76","ULUKHAKTOK A","2502503","2019-01-17 10:00","2019","01","17","10:00","-21.9","","-27.5","","61","","","M","1","","12","","","M","103.09","","","","-30","","NA"
"-117.81","70.76","ULUKHAKTOK A","2502503","2019-01-17 11:00","2019","01","17","11:00","-22.2","","-26.9","","66","","","M","34","","7","","","M","103.08","","","","-28","","NA"
"-117.81","70.76","ULUKHAKTOK A","2502503","2019-01-17 12:00","2019","01","17","12:00","-23.1","","-29.3","","58","","","M","3","","14","","","M","103.10","","","","-33","","NA"
"-117.81","70.76","ULUKHAKTOK A","2502503","2019-01-17 13:00","2019","01","17","13:00","-22.7","","-28.7","","59","","","M","2","","14","","","M","103.11","","","","-32","","NA"
"-117.81","70.76","ULUKHAKTOK A","2502503","2019-01-17 14:00","2019","01","17","14:00","-23.2","","-28.1","","65","","","M","3","","13","","","M","103.14","","","","-32","","NA"
"-117.81","70.76","ULUKHAKTOK A","2502503","2019-01-17 15:00","2019","01","17","15:00","-23.3","","-28.6","","63","","","M","3","","17","","","M","103.18","","","","-34","","NA"
"-117.81","70.76","ULUKHAKTOK A","2502503","2019-01-17 16:00","2019","01","17","16:00","-24.1","","-30.1","","59","","","M","4","","10","","","M","103.17","","","","-32","","NA"
"-117.81","70.76","ULUKHAKTOK A","2502503","2019-01-17 17:00","2019","01","17","17:00","-24.4","","-29.5","","63","","","M","2","","13","","","M","103.17","","","","-34","","NA"
"-117.81","70.76","ULUKHAKTOK A","2502503","2019-01-17 18:00","2019","01","17","18:00","-23.2","","-28.4","","63","","","M","3","","18","","","M","103.15","","","","-34","","NA"
"-117.81","70.76","ULUKHAKTOK A","2502503","2019-01-17 19:00","2019","01","17","19:00","-22.8","","-28.7","","59","","","M","1","","4","","","M","103.14","","","","-27","","NA"
"-117.81","70.76","ULUKHAKTOK A","2502503","2019-01-17 20:00","2019","01","17","20:00","-21.6","","-27.6","","60","","","M","4","","16","","","M","103.14","","","","-31","","NA"
"-117.81","70.76","ULUKHAKTOK A","2502503","2019-01-17 21:00","2019","01","17","21:00","-21.5","","-27.9","","58","","","M","36","","5","","","M","103.18","","","","-26","","NA"
"-117.81","70.76","ULUKHAKTOK A","2502503","2019-01-17 22:00","2019","01","17","22:00","-20.7","","-27.5","","55","","","M","3","","13","","","M","103.19","","","","-29","","NA"
"-117.81","70.76","ULUKHAKTOK A","2502503","2019-01-17 23:00","2019","01","17","23:00","-20.6","","-26.8","","59","","","M","8","","8","","","M","103.19","","","","-27","","NA"
"-117.81","70.76","ULUKHAKTOK A","2502503","2019-01-18 00:00","2019","01","18","00:00","-22.7","","-28.2","","62","","","M","2","","10","","","M","103.22","","","","-30","","NA"
"-117.81","70.76","ULUKHAKTOK A","2502503","2019-01-18 01:00","2019","01","18","01:00","-22.6","","-27.4","","65","","","M","4","","8","","","M","103.25","","","","-29","","NA"
"-117.81","70.76","ULUKHAKTOK A","2502503","2019-01-18 02:00","2019","01","18","02:00","-24.9","","-30.1","","63","","","M","3","","17","","","M","103.27","","","","-36","","NA"
"-117.81","70.76","ULUKHAKTOK A","2502503","2019-01-18 03:00","2019","01","18","03:00","-24.8","","-29.7","","65","","","M","3","","18","","","M","103.27","","","","-36","","NA"
"-117.81","70.76","ULUKHAKTOK A","2502503","2019-01-18 04:00","2019","01","18","04:00","-24.2","","-29.3","","63","","","M","4","","19","","","M","103.28","","","","-36","","NA"
"-117.81","70.76","ULUKHAKTOK A","2502503","2019-01-18 05:00","2019","01","18","05:00","-25.6","","-29.9","","68","","","M","2","","18","","","M","103.28","","","","-37","","NA"
"-117.81","70.76","ULUKHAKTOK A","2502503","2019-01-18 06:00","2019","01","18","06:00","-25.3","","-30.2","","64","","","M","3","","22","","","M","103.26","","","","-38","","NA"
"-117.81","70.76","ULUKHAKTOK A","2502503","2019-01-18 07:00","2019","01","18","07:00","-25.3","","-30.5","","62","","","M","2","","17","","","M","103.25","","","","-36","","NA"
"-117.81","70.76","ULUKHAKTOK A","2502503","2019-01-18 08:00","2019","01","18","08:00","-25.8","","-30.9","","63","","","M","2","","17","","","M","103.23","","","","-37","","NA"
"-117.81","70.76","ULUKHAKTOK A","2502503","2019-01-18 09:00","2019","01","18","09:00","-26.2","","-30.8","","66","","","M","3","","19","","","M","103.22","","","","-38","","NA"
"-117.81","70.76","ULUKHAKTOK A","2502503","2019-01-18 10:00","2019","01","18","10:00","-25.9","","-30.7","","65","","","M","4","","21","","","M","103.23","","","","-38","","NA"
"-117.81","70.76","ULUKHAKTOK A","2502503","2019-01-18 11:00","2019","01","18","11:00","-26.2","","-30.5","","68","","","M","3","","18","","","M","103.19","","","","-38","","NA"
"-117.81","70.76","ULUKHAKTOK A","2502503","2019-01-18 12:00","2019","01","18","12:00","-26.7","","-31.3","","66","","","M","3","","17","","","M","103.22","","","","-38","","NA"
"-117.81","70.76","ULUKHAKTOK A","2502503","2019-01-18 13:00","2019","01","18","13:00","-26.7","","-31.0","","68","","","M","4","","20","","","M","103.19","","","","-39","","NA"
"-117.81","70.76","ULUKHAKTOK A","2502503","2019-01-18 14:00","2019","01","18","14:00","-25.2","","-29.9","","65","","","M","3","","19","","","M","103.15","","","","-37","","NA"
"-117.81","70.76","ULUKHAKTOK A","2502503","2019-01-18 15:00","2019","01","18","15:00","-24.8","","-29.6","","65","","","M","3","","17","","","M","103.15","","","","-36","","NA"
"-117.81","70.76","ULUKHAKTOK A","2502503","2019-01-18 16:00","2019","01","18","16:00","-25.5","","-30.1","","66","","","M","3","","16","","","M","103.12","","","","-36","","NA"
"-117.81","70.76","ULUKHAKTOK A","2502503","2019-01-18 17:00","2019","01","18","17:00","-25.9","","-30.3","","67","","","M","2","","15","","","M","103.11","","","","-36","","NA"
"-117.81","70.76","ULUKHAKTOK A","2502503","2019-01-18 18:00","2019","01","18","18:00","-26.4","","-30.7","","68","","","M","3","","21","","","M","103.06","","","","-39","","NA"
"-117.81","70.76","ULUKHAKTOK A","2502503","2019-01-18 19:00","2019","01","18","19:00","-25.8","","-30.2","","67","","","M","2","","10","","","M","102.99","","","","-34","","NA"
"-117.81","70.76","ULUKHAKTOK A","2502503","2019-01-18 20:00","2019","01","18","20:00","-25.1","","-29.4","","68","","","M","3","","13","","","M","102.94","","","","-35","","NA"
"-117.81","70.76","ULUKHAKTOK A","2502503","2019-01-18 21:00","2019","01","18","21:00","-24.9","","-29.0","","69","","","M","3","","14","","","M","102.91","","","","-35","","NA"
"-117.81","70.76","ULUKHAKTOK A","2502503","2019-01-18 22:00","2019","01","18","22:00","-25.3","","-29.3","","70","","","M","3","","15","","","M","102.87","","","","-36","","NA"
"-117.81","70.76","ULUKHAKTOK A","2502503","2019-01-18 23:00","2019","01","18","23:00","-25.9","","-29.7","","71","","","M","4","","13","","","M","102.82","","","","-36","","NA"
"-117.81","70.76","ULUKHAKTOK A","2502503","2019-01-19 00:00","2019","01","19","00:00","-27.0","","-30.9","","70","","","M","3","","19","","","M","102.76","","","","-39","","NA"
"-117.81","70.76","ULUKHAKTOK A","2502503","2019-01-19 01:00","2019","01","19","01:00","-26.7","","-30.7","","70","","","M","4","","22","","","M","102.71","","","","-39","","NA"
"-117.81","70.76","ULUKHAKTOK A","2502503","2019-01-19 02:00","2019","01","19","02:00","-26.2","","-30.4","","68","","","M","3","","20","","","M","102.63","","","","-38","","NA"
"-117.81","70.76","ULUKHAKTOK A","2502503","2019-01-19 03:00","2019","01","19","03:00","-26.4","","-30.7","","68","","","M","3","","17","","","M","102.58","","","","-38","","NA"
"-117.81","70.76","ULUKHAKTOK A","2502503","2019-01-19 04:00","2019","01","19","04:00","-26.3","","-30.6","","68","","","M","5","","18","","","M","102.51","","","","-38","","NA"
"-117.81","70.76","ULUKHAKTOK A","2502503","2019-01-19 05:00","2019","01","19","05:00","-26.8","","-31.0","","68","","","M","3","","14","","","M","102.43","","","","-37","","NA"
"-117.81","70.76","ULUKHAKTOK A","2502503","2019-01-19 06:00","2019","01","19","06:00","-26.2","","-30.5","","68","","","M","3","","18","","","M","102.34","","","","-38","","NA"
"-117.81","70.76","ULUKHAKTOK A","2502503","2019-01-19 07:00","2019","01","19","07:00","-26.0","","-30.5","","67","","","M","3","","19","","","M","102.25","","","","-38","","NA"
"-117.81","70.76","ULUKHAKTOK A","2502503","2019-01-19 08:00","2019","01","19","08:00","-26.9","","-31.4","","67","","","M","3","","15","","","M","102.19","","","","-38","","NA"
"-117.81","70.76","ULUKHAKTOK A","2502503","2019-01-19 09:00","2019","01","19","09:00","-26.5","","-31.3","","65","","","M","4","","20","","","M","102.13","","","","-39","","NA"
"-117.81","70.76","ULUKHAKTOK A","2502503","2019-01-19 10:00","2019","01","19","10:00","-26.2","","-31.2","","64","","","M","3","","18","","","M","102.05","","","","-38","","NA"
"-117.81","70.76","ULUKHAKTOK A","2502503","2019-01-19 11:00","2019","01","19","11:00","-25.9","","-30.9","","63","","","M","4","","18","","","M","101.99","","","","-37","","NA"
"-117.81","70.76","ULUKHAKTOK A","2502503","2019-01-19 12:00","2019","01","19","12:00","-26.5","","-31.5","","63","","","M","2","","14","","","M","101.92","","","","-37","","NA"
"-117.81","70.76","ULUKHAKTOK A","2502503","2019-01-19 13:00","2019","01","19","13:00","-26.5","","-31.4","","64","","","M","3","","19","","","M","101.85","","","","-38","","NA"
"-117.81","70.76","ULUKHAKTOK A","2502503","2019-01-19 14:00","2019","01","19","14:00","-25.8","","-30.9","","63","","","M","3","","14","","","M","101.79","","","","-36","","NA"
"-117.81","70.76","ULUKHAKTOK A","2502503","2019-01-19 15:00","2019","01","19","15:00","-25.9","","-30.9","","64","","","M","3","","18","","","M","101.73","","","","-37","","NA"
"-117.81","70.76","ULUKHAKTOK A","2502503","2019-01-19 16:00","2019","01","19","16:00","-26.2","","-31.4","","62","","","M","3","","14","","","M","101.68","","","","-36","","NA"
"-117.81","70.76","ULUKHAKTOK A","2502503","2019-01-19 17:00","2019","01","19","17:00","-25.5","","-30.4","","65","","","M","3","","23","","","M","101.61","","","","-38","","NA"
"-117.81","70.76","ULUKHAKTOK A","2502503","2019-01-19 18:00","2019","01","19","18:00","-25.3","","-30.3","","64","","","M","4","","16","","","M","101.52","","","","-36","","NA"
"-117.81","70.76","ULUKHAKTOK A","2502503","2019-01-19 19:00","2019","01","19","19:00","-26.2","","-30.9","","66","","","M","2","","18","","","M","101.46","","","","-38","","NA"
"-117.81","70.76","ULUKHAKTOK A","2502503","2019-01-19 20:00","2019","01","19","20:00","-25.9","","-30.4","","66","","","M","3","","18","","","M","101.40","","","","-37","","NA"
"-117.81","70.76","ULUKHAKTOK A","2502503","2019-01-19 21:00","2019","01","19","21:00","-25.1","","-29.7","","66","","","M","3","","16","","","M","101.34","","","","-36","","NA"
"-117.81","70.76","ULUKHAKTOK A","2502503","2019-01-19 22:00","2019","01","19","22:00","-25.1","","-29.9","","65","","","M","2","","17","","","M","101.26","","","","-36","","NA"
"-117.81","70.76","ULUKHAKTOK A","2502503","2019-01-19 23:00","2019","01","19","23:00","-25.0","","-30.4","","61","","","M","3","","15","","","M","101.24","","","","-35","","NA"
"-117.81","70.76","ULUKHAKTOK A","2502503","2019-01-20 00:00","2019","01","20","00:00","-25.9","","-30.6","","65","","","M","4","","17","","","M","101.21","","","","-37","","NA"
"-117.81","70.76","ULUKHAKTOK A","2502503","2019-01-20 01:00","2019","01","20","01:00","-25.8","","-30.3","","67","","","M","5","","12","","","M","101.20","","","","-35","","NA"
"-117.81","70.76","ULUKHAKTOK A","2502503","2019-01-20 02:00","2019","01","20","02:00","-25.5","","-30.1","","66","","","M","5","","13","","","M","101.18","","","","-35","","NA"
"-117.81","70.76","ULUKHAKTOK A","2502503","2019-01-20 03:00","2019","01","20","03:00","-24.9","","-30.2","","62","","","M","4","","11","","","M","101.16","","","","-34","","NA"
"-117.81","70.76","ULUKHAKTOK A","2502503","2019-01-20 04:00","2019","01","20","04:00","-25.5","","-30.3","","65","","","M","4","","18","","","M","101.13","","","","-37","","NA"
"-117.81","70.76","ULUKHAKTOK A","2502503","2019-01-20 05:00","2019","01","20","05:00","-25.9","","-30.6","","66","","","M","3","","14","","","M","101.10","","","","-36","","NA"
"-117.81","70.76","ULUKHAKTOK A","2502503","2019-01-20 06:00","2019","01","20","06:00","-24.2","","-28.9","","66","","","M","4","","10","","","M","101.09","","","","-32","","NA"
"-117.81","70.76","ULUKHAKTOK A","2502503","2019-01-20 07:00","2019","01","20","07:00","-25.6","","-30.4","","65","","","M","4","","11","","","M","101.06","","","","-34","","NA"
"-117.81","70.76","ULUKHAKTOK A","2502503","2019-01-20 08:00","2019","01","20","08:00","-24.7","","-29.6","","64","","","M","4","","17","","","M","101.05","","","","-36","","NA"
"-117.81","70.76","ULUKHAKTOK A","2502503","2019-01-20 09:00","2019","01","20","09:00","-23.5","","-28.7","","63","","","M","2","","10","","","M","101.06","","","","-31","","NA"
"-117.81","70.76","ULUKHAKTOK A","2502503","2019-01-20 10:00","2019","01","20","10:00","-25.2","","-30.3","","63","","","M","4","","14","","","M","101.07","","","","-35","","NA"
"-117.81","70.76","ULUKHAKTOK A","2502503","2019-01-20 11:00","2019","01","20","11:00","-22.0","","-25.6","","73","","","M","6","","12","","","M","101.04","","","","-30","","NA"
"-117.81","70.76","ULUKHAKTOK A","2502503","2019-01-20 12:00","2019","01","20","12:00","-20.6","","-24.6","","71","","","M","9","","10","","","M","101.02","","","","-28","","NA"
"-117.81","70.76","ULUKHAKTOK A","2502503","2019-01-20 13:00","2019","01","20","13:00","-20.6","","-24.3","","73","","","M","5","","12","","","M","101.03","","","","-29","","NA"
"-117.81","70.76","ULUKHAKTOK A","2502503","2019-01-20 14:00","2019","01","20","14:00","-20.6","","-24.3","","72","","","M","6","","12","","","M","101.03","","","","-29","","NA"
"-117.81","70.76","ULUKHAKTOK A","2502503","2019-01-20 15:00","2019","01","20","15:00","-20.9","","-24.4","","74","","","M","5","","16","","","M","101.02","","","","-31","","NA"
"-117.81","70.76","ULUKHAKTOK A","2502503","2019-01-20 16:00","2019","01","20","16:00","-21.2","","-24.9","","73","","","M","5","","10","","","M","101.02","","","","-29","","NA"
"-117.81","70.76","ULUKHAKTOK A","2502503","2019-01-20 17:00","2019","01","20","17:00","-21.8","","-25.7","","71","","","M","5","","15","","","M","101.00","","","","-31","","NA"
"-117.81","70.76","ULUKHAKTOK A","2502503","2019-01-20 18:00","2019","01","20","18:00","-21.6","","-26.2","","67","","","M","6","","14","","","M","101.00","","","","-31","","NA"
"-117.81","70.76","ULUKHAKTOK A","2502503","2019-01-20 19:00","2019","01","20","19:00","-22.2","","-27.2","","65","","","M","17","","1","","","M","101.00","","","","-23","","NA"
"-117.81","70.76","ULUKHAKTOK A","2502503","2019-01-20 20:00","2019","01","20","20:00","-23.3","","-28.2","","64","","","M","1","","1","","","M","100.95","","","","-24","","NA"
"-117.81","70.76","ULUKHAKTOK A","2502503","2019-01-20 21:00","2019","01","20","21:00","-25.4","","-29.9","","67","","","M","11","","4","","","M","100.96","","","","-29","","NA"
"-117.81","70.76","ULUKHAKTOK A","2502503","2019-01-20 22:00","2019","01","20","22:00","-26.8","","-31.1","","68","","","M","4","","14","","","M","100.94","","","","-37","","NA"
"-117.81","70.76","ULUKHAKTOK A","2502503","2019-01-20 23:00","2019","01","20","23:00","-28.3","","-32.2","","70","","","M","4","","15","","","M","100.94","","","","-39","","NA"
"-117.81","70.76","ULUKHAKTOK A","2502503","2019-01-21 00:00","2019","01","21","00:00","-29.2","","-33.0","","70","","","M","3","","13","","","M","100.92","","","","-40","","NA"
"-117.81","70.76","ULUKHAKTOK A","2502503","2019-01-21 01:00","2019","01","21","01:00","-30.1","","-34.0","","70","","","M","1","","16","","","M","100.90","","","","-42","","NA"
"-117.81","70.76","ULUKHAKTOK A","2502503","2019-01-21 02:00","2019","01","21","02:00","-29.9","","-33.4","","72","","","M","2","","12","","","M","100.90","","","","-40","","NA"
"-117.81","70.76","ULUKHAKTOK A","2502503","2019-01-21 03:00","2019","01","21","03:00","-29.1","","-32.9","","71","","","M","1","","14","","","M","100.90","","","","-40","","NA"
"-117.81","70.76","ULUKHAKTOK A","2502503","2019-01-21 04:00","2019","01","21","04:00","-30.1","","-33.6","","72","","","M","1","","16","","","M","100.88","","","","-42","","NA"
"-117.81","70.76","ULUKHAKTOK A","2502503","2019-01-21 05:00","2019","01","21","05:00","-30.1","","-33.3","","75","","","M","3","","9","","","M","100.85","","","","-39","","NA"
"-117.81","70.76","ULUKHAKTOK A","2502503","2019-01-21 06:00","2019","01","21","06:00","-28.8","","-32.1","","74","","","M","36","","15","","","M","100.83","","","","-40","","NA"
"-117.81","70.76","ULUKHAKTOK A","2502503","2019-01-21 07:00","2019","01","21","07:00","-27.4","","-30.5","","76","","","M","31","","13","","","M","100.80","","","","-37","","NA"
"-117.81","70.76","ULUKHAKTOK A","2502503","2019-01-21 08:00","2019","01","21","08:00","-28.0","","-31.2","","74","","","M","31","","5","","","M","100.79","","","","-33","","NA"
"-117.81","70.76","ULUKHAKTOK A","2502503","2019-01-21 09:00","2019","01","21","09:00","-26.9","","-31.1","","68","","","M","3","","11","","","M","100.78","","","","-36","","NA"
"-117.81","70.76","ULUKHAKTOK A","2502503","2019-01-21 10:00","2019","01","21","10:00","-29.0","","-33.1","","69","","","M","15","","4","","","M","100.81","","","","-33","","NA"
"-117.81","70.76","ULUKHAKTOK A","2502503","2019-01-21 11:00","2019","01","21","11:00","-27.7","","-31.9","","68","","","M","34","","18","","","M","100.82","","","","-40","","NA"
"-117.81","70.76","ULUKHAKTOK A","2502503","2019-01-21 12:00","2019","01","21","12:00","-27.8","","-31.3","","72","","","M","35","","18","","","M","100.84","","","","-40","","NA"
"-117.81","70.76","ULUKHAKTOK A","2502503","2019-01-21 13:00","2019","01","21","13:00","-28.0","","-32.1","","69","","","M","1","","28","","","M","100.87","","","","-43","","NA"
"-117.81","70.76","ULUKHAKTOK A","2502503","2019-01-21 14:00","2019","01","21","14:00","-30.6","","-34.4","","70","","","M","35","","15","","","M","100.92","","","","-42","","NA"
"-117.81","70.76","ULUKHAKTOK A","2502503","2019-01-21 15:00","2019","01","21","15:00","-31.9","","-35.7","","70","","","M","35","","15","","","M","100.95","","","","-44","","NA"
"-117.81","70.76","ULUKHAKTOK A","2502503","2019-01-21 16:00","2019","01","21","16:00","-30.5","","-34.0","","72","","","M","35","","14","","","M","100.99","","","","-42","","NA"
"-117.81","70.76","ULUKHAKTOK A","2502503","2019-01-21 17:00","2019","01","21","17:00","-30.9","","-34.4","","72","","","M","2","","8","","","M","101.02","","","","-39","","NA"
"-117.81","70.76","ULUKHAKTOK A","2502503","2019-01-21 18:00","2019","01","21","18:00","-31.2","","-34.9","","71","","","M","2","","22","","","M","101.00","","","","-45","","NA"
"-117.81","70.76","ULUKHAKTOK A","2502503","2019-01-21 19:00","2019","01","21","19:00","-31.0","","-34.9","","70","","","M","2","","25","","","M","101.01","","","","-46","","NA"
"-117.81","70.76","ULUKHAKTOK A","2502503","2019-01-21 20:00","2019","01","21","20:00","-30.6","","-34.4","","70","","","M","3","","12","","","M","101.06","","","","-41","","NA"
"-117.81","70.76","ULUKHAKTOK A","2502503","2019-01-21 21:00","2019","01","21","21:00","-31.0","","-34.9","","69","","","M","6","","14","","","M","101.10","","","","-42","","NA"
"-117.81","70.76","ULUKHAKTOK A","2502503","2019-01-21 22:00","2019","01","21","22:00","-31.1","","-35.0","","69","","","M","5","","9","","","M","101.15","","","","-40","","NA"
"-117.81","70.76","ULUKHAKTOK A","2502503","2019-01-21 23:00","2019","01","21","23:00","-31.7","","-35.9","","67","","","M","2","","17","","","M","101.21","","","","-44","","NA"
"-117.81","70.76","ULUKHAKTOK A","2502503","2019-01-22 00:00","2019","01","22","00:00","-31.7","","-36.0","","67","","","M","3","","13","","","M","101.23","","","","-43","","NA"
"-117.81","70.76","ULUKHAKTOK A","2502503","2019-01-22 01:00","2019","01","22","01:00","-32.3","","-36.4","","68","","","M","5","","19","","","M","101.28","","","","-46","","NA"
"-117.81","70.76","ULUKHAKTOK A","2502503","2019-01-22 02:00","2019","01","22","02:00","-32.4","","-36.4","","68","","","M","6","","17","","","M","101.36","","","","-45","","NA"
"-117.81","70.76","ULUKHAKTOK A","2502503","2019-01-22 03:00","2019","01","22","03:00","-33.4","","-37.7","","67","","","M","4","","16","","","M","101.42","","","","-46","","NA"
"-117.81","70.76","ULUKHAKTOK A","2502503","2019-01-22 04:00","2019","01","22","04:00","-33.7","","-37.8","","67","","","M","3","","12","","","M","101.47","","","","-45","","NA"
"-117.81","70.76","ULUKHAKTOK A","2502503","2019-01-22 05:00","2019","01","22","05:00","-34.1","","-38.0","","69","","","M","2","","11","","","M","101.52","","","","-45","","NA"
"-117.81","70.76","ULUKHAKTOK A","2502503","2019-01-22 06:00","2019","01","22","06:00","-34.7","","-38.8","","67","","","M","3","","9","","","M","101.58","","","","-44","","NA"
"-117.81","70.76","ULUKHAKTOK A","2502503","2019-01-22 07:00","2019","01","22","07:00","-35.8","","-39.9","","67","","","M","2","","9","","","M","101.61","","","","-45","","NA"
"-117.81","70.76","ULUKHAKTOK A","2502503","2019-01-22 08:00","2019","01","22","08:00","-35.4","","-39.7","","65","","","M","3","","16","","","M","101.65","","","","-48","","NA"
"-117.81","70.76","ULUKHAKTOK A","2502503","2019-01-22 09:00","2019","01","22","09:00","-35.4","","-39.5","","68","","","M","3","","10","","","M","101.66","","","","-46","","NA"
"-117.81","70.76","ULUKHAKTOK A","2502503","2019-01-22 10:00","2019","01","22","10:00","-34.6","","-39.0","","66","","","M","2","","13","","","M","101.71","","","","-46","","NA"
"-117.81","70.76","ULUKHAKTOK A","2502503","2019-01-22 11:00","2019","01","22","11:00","-35.0","","-38.9","","69","","","M","1","","11","","","M","101.73","","","","-46","","NA"
"-117.81","70.76","ULUKHAKTOK A","2502503","2019-01-22 12:00","2019","01","22","12:00","-34.7","","-38.4","","70","","","M","1","","9","","","M","101.75","","","","-44","","NA"
"-117.81","70.76","ULUKHAKTOK A","2502503","2019-01-22 13:00","2019","01","22","13:00","-33.8","","-37.7","","68","","","M","3","","9","","","M","101.78","","","","-43","","NA"
"-117.81","70.76","ULUKHAKTOK A","2502503","2019-01-22 14:00","2019","01","22","14:00","-34.6","","-38.6","","68","","","M","31","","8","","","M","101.83","","","","-43","","NA"
"-117.81","70.76","ULUKHAKTOK A","2502503","2019-01-22 15:00","2019","01","22","15:00","-34.1","","-38.0","","68","","","M","36","","11","","","M","101.87","","","","-45","","NA"
"-117.81","70.76","ULUKHAKTOK A","2502503","2019-01-22 16:00","2019","01","22","16:00","-33.8","","-38.1","","66","","","M","30","","24","","","M","101.95","","","","-49","","NA"
"-117.81","70.76","ULUKHAKTOK A","2502503","2019-01-22 17:00","2019","01","22","17:00","-33.5","","-37.1","","71","","","M","34","","8","","","M","101.98","","","","-42","","NA"
"-117.81","70.76","ULUKHAKTOK A","2502503","2019-01-22 18:00","2019","01","22","18:00","-32.6","","-36.3","","70","","","M","31","","7","","","M","101.98","","","","-40","","NA"
"-117.81","70.76","ULUKHAKTOK A","2502503","2019-01-22 19:00","2019","01","22","19:00","-31.6","","-35.4","","70","","","M","33","","13","","","M","102.00","","","","-43","","NA"
"-117.81","70.76","ULUKHAKTOK A","2502503","2019-01-22 20:00","2019","01","22","20:00","-31.7","","-35.6","","69","","","M","33","","12","","","M","102.00","","","","-42","","NA"
"-117.81","70.76","ULUKHAKTOK A","2502503","2019-01-22 21:00","2019","01","22","21:00","-32.1","","-35.8","","71","","","M","34","","17","","","M","101.99","","","","-45","","NA"
"-117.81","70.76","ULUKHAKTOK A","2502503","2019-01-22 22:00","2019","01","22","22:00","-31.2","","-35.1","","69","","","M","34","","12","","","M","101.97","","","","-42","","NA"
"-117.81","70.76","ULUKHAKTOK A","2502503","2019-01-22 23:00","2019","01","22","23:00","-32.0","","-35.7","","71","","","M","34","","15","","","M","101.97","","","","-44","","NA"
"-117.81","70.76","ULUKHAKTOK A","2502503","2019-01-23 00:00","2019","01","23","00:00","-31.7","","-35.4","","70","","","M","34","","18","","","M","101.98","","","","-45","","NA"
"-117.81","70.76","ULUKHAKTOK A","2502503","2019-01-23 01:00","2019","01","23","01:00","-32.0","","-35.4","","72","","","M","34","","16","","","M","101.97","","","","-44","","NA"
"-117.81","70.76","ULUKHAKTOK A","2502503","2019-01-23 02:00","2019","01","23","02:00","-30.3","","-33.9","","71","","","M","36","","16","","","M","101.97","","","","-42","","NA"
"-117.81","70.76","ULUKHAKTOK A","2502503","2019-01-23 03:00","2019","01","23","03:00","-30.1","","-33.8","","71","","","M","1","","11","","","M","101.98","","","","-40","","NA"
"-117.81","70.76","ULUKHAKTOK A","2502503","2019-01-23 04:00","2019","01","23","04:00","-29.7","","-33.4","","71","","","M","1","","10","","","M","101.99","","","","-39","","NA"
"-117.81","70.76","ULUKHAKTOK A","2502503","2019-01-23 05:00","2019","01","23","05:00","-29.3","","-33.1","","71","","","M","5","","8","","","M","101.96","","","","-37","","NA"
"-117.81","70.76","ULUKHAKTOK A","2502503","2019-01-23 06:00","2019","01","23","06:00","-27.8","","-31.4","","72","","","M","34","","9","","","M","101.94","","","","-36","","NA"
"-117.81","70.76","ULUKHAKTOK A","2502503","2019-01-23 07:00","2019","01","23","07:00","-27.2","","-30.9","","72","","","M","32","","14","","","M","101.90","","","","-38","","NA"
"-117.81","70.76","ULUKHAKTOK A","2502503","2019-01-23 08:00","2019","01","23","08:00","-26.8","","-30.4","","72","","","M","34","","10","","","M","101.90","","","","-35","","NA"
"-117.81","70.76","ULUKHAKTOK A","2502503","2019-01-23 09:00","2019","01","23","09:00","-26.6","","-30.2","","72","","","M","33","","9","","","M","101.89","","","","-35","","NA"
"-117.81","70.76","ULUKHAKTOK A","2502503","2019-01-23 10:00","2019","01","23","10:00","-26.6","","-29.9","","74","","","M","32","","17","","","M","101.87","","","","-38","","NA"
"-117.81","70.76","ULUKHAKTOK A","2502503","2019-01-23 11:00","2019","01","23","11:00","-29.1","","-32.2","","75","","","M","34","","14","","","M","101.87","","","","-40","","NA"
"-117.81","70.76","ULUKHAKTOK A","2502503","2019-01-23 12:00","2019","01","23","12:00","-29.5","","-33.1","","72","","","M","35","","18","","","M","101.89","","","","-42","","NA"
"-117.81","70.76","ULUKHAKTOK A","2502503","2019-01-23 13:00","2019","01","23","13:00","-30.1","","-33.5","","73","","","M","31","","14","","","M","101.92","","","","-41","","NA"
"-117.81","70.76","ULUKHAKTOK A","2502503","2019-01-23 14:00","2019","01","23","14:00","-31.3","","-35.1","","70","","","M","33","","9","","","M","101.95","","","","-40","","NA"
"-117.81","70.76","ULUKHAKTOK A","2502503","2019-01-23 15:00","2019","01","23","15:00","-30.9","","-34.2","","74","","","M","1","","10","","","M","101.97","","","","-40","","NA"
"-117.81","70.76","ULUKHAKTOK A","2502503","2019-01-23 16:00","2019","01","23","16:00","-32.1","","-35.7","","71","","","M","2","","7","","","M","101.95","","","","-40","","NA"
"-117.81","70.76","ULUKHAKTOK A","2502503","2019-01-23 17:00","2019","01","23","17:00","-31.9","","-35.0","","74","","","M","2","","8","","","M","101.93","","","","-40","","NA"
"-117.81","70.76","ULUKHAKTOK A","2502503","2019-01-23 18:00","2019","01","23","18:00","-32.8","","-36.4","","71","","","M","36","","5","","","M","101.93","","","","-39","","NA"
"-117.81","70.76","ULUKHAKTOK A","2502503","2019-01-23 19:00","2019","01","23","19:00","-32.7","","-36.3","","71","","","M","5","","8","","","M","101.89","","","","-41","","NA"
"-117.81","70.76","ULUKHAKTOK A","2502503","2019-01-23 20:00","2019","01","23","20:00","-32.7","","-36.1","","72","","","M","5","","13","","","M","101.85","","","","-44","","NA"
"-117.81","70.76","ULUKHAKTOK A","2502503","2019-01-23 21:00","2019","01","23","21:00","-31.8","","-35.2","","72","","","M","5","","16","","","M","101.82","","","","-44","","NA"
"-117.81","70.76","ULUKHAKTOK A","2502503","2019-01-23 22:00","2019","01","23","22:00","-31.8","","-35.1","","73","","","M","5","","14","","","M","101.86","","","","-43","","NA"
"-117.81","70.76","ULUKHAKTOK A","2502503","2019-01-23 23:00","2019","01","23","23:00","-31.7","","-35.1","","72","","","M","6","","17","","","M","101.86","","","","-44","","NA"
"-117.81","70.76","ULUKHAKTOK A","2502503","2019-01-24 00:00","2019","01","24","00:00","-31.7","","-35.3","","71","","","M","6","","15","","","M","101.86","","","","-44","","NA"
"-117.81","70.76","ULUKHAKTOK A","2502503","2019-01-24 01:00","2019","01","24","01:00","-32.0","","-35.6","","71","","","M","5","","12","","","M","101.87","","","","-43","","NA"
"-117.81","70.76","ULUKHAKTOK A","2502503","2019-01-24 02:00","2019","01","24","02:00","-31.8","","-35.5","","71","","","M","5","","14","","","M","101.89","","","","-43","","NA"
"-117.81","70.76","ULUKHAKTOK A","2502503","2019-01-24 03:00","2019","01","24","03:00","-32.0","","-35.5","","72","","","M","5","","15","","","M","101.86","","","","-44","","NA"
"-117.81","70.76","ULUKHAKTOK A","2502503","2019-01-24 04:00","2019","01","24","04:00","-31.9","","-35.5","","71","","","M","5","","21","","","M","101.81","","","","-46","","NA"
"-117.81","70.76","ULUKHAKTOK A","2502503","2019-01-24 05:00","2019","01","24","05:00","-31.6","","-35.3","","71","","","M","5","","19","","","M","101.79","","","","-45","","NA"
"-117.81","70.76","ULUKHAKTOK A","2502503","2019-01-24 06:00","2019","01","24","06:00","-31.8","","-35.3","","72","","","M","5","","17","","","M","101.76","","","","-44","","NA"
"-117.81","70.76","ULUKHAKTOK A","2502503","2019-01-24 07:00","2019","01","24","07:00","-31.6","","-35.1","","72","","","M","5","","18","","","M","101.72","","","","-44","","NA"
"-117.81","70.76","ULUKHAKTOK A","2502503","2019-01-24 08:00","2019","01","24","08:00","-31.8","","-35.6","","70","","","M","4","","17","","","M","101.69","","","","-44","","NA"
"-117.81","70.76","ULUKHAKTOK A","2502503","2019-01-24 09:00","2019","01","24","09:00","-31.4","","-35.1","","71","","","M","4","","17","","","M","101.67","","","","-44","","NA"
"-117.81","70.76","ULUKHAKTOK A","2502503","2019-01-24 10:00","2019","01","24","10:00","-30.7","","-34.2","","72","","","M","5","","16","","","M","101.62","","","","-43","","NA"
"-117.81","70.76","ULUKHAKTOK A","2502503","2019-01-24 11:00","2019","01","24","11:00","-30.6","","-34.1","","72","","","M","5","","23","","","M","101.57","","","","-45","","NA"
"-117.81","70.76","ULUKHAKTOK A","2502503","2019-01-24 12:00","2019","01","24","12:00","-29.7","","-33.1","","73","","","M","5","","23","","","M","101.51","","","","-44","","NA"
"-117.81","70.76","ULUKHAKTOK A","2502503","2019-01-24 13:00","2019","01","24","13:00","-29.1","","-32.7","","72","","","M","4","","22","","","M","101.49","","","","-43","","NA"
"-117.81","70.76","ULUKHAKTOK A","2502503","2019-01-24 14:00","2019","01","24","14:00","-27.7","","-31.0","","74","","","M","7","","25","","","M","101.43","","","","-42","","NA"
"-117.81","70.76","ULUKHAKTOK A","2502503","2019-01-24 15:00","2019","01","24","15:00","-28.3","","-31.9","","72","","","M","5","","28","","","M","101.36","","","","-43","","NA"
"-117.81","70.76","ULUKHAKTOK A","2502503","2019-01-24 16:00","2019","01","24","16:00","-26.6","","-30.2","","72","","","M","8","","31","","","M","101.31","","","","-41","","NA"
"-117.81","70.76","ULUKHAKTOK A","2502503","2019-01-24 17:00","2019","01","24","17:00","-26.9","","-30.5","","72","","","M","8","","33","","","M","101.25","","","","-42","","NA"
"-117.81","70.76","ULUKHAKTOK A","2502503","2019-01-24 18:00","2019","01","24","18:00","-26.3","","-30.2","","70","","","M","9","","31","","","M","101.26","","","","-41","","NA"
"-117.81","70.76","ULUKHAKTOK A","2502503","2019-01-24 19:00","2019","01","24","19:00","-26.8","","-30.6","","71","","","M","9","","34","","","M","101.27","","","","-42","","NA"
"-117.81","70.76","ULUKHAKTOK A","2502503","2019-01-24 20:00","2019","01","24","20:00","-27.1","","-30.8","","71","","","M","8","","35","","","M","101.23","","","","-43","","NA"
"-117.81","70.76","ULUKHAKTOK A","2502503","2019-01-24 21:00","2019","01","24","21:00","-26.0","","-29.9","","70","","","M","8","","35","","","M","101.18","","","","-41","","NA"
"-117.81","70.76","ULUKHAKTOK A","2502503","2019-01-24 22:00","2019","01","24","22:00","-25.5","","-29.5","","70","","","M","10","","37","","","M","101.16","","","","-41","","NA"
"-117.81","70.76","ULUKHAKTOK A","2502503","2019-01-24 23:00","2019","01","24","23:00","-25.6","","-29.7","","69","","","M","10","","32","","","M","101.22","","","","-40","","NA"
"-117.81","70.76","ULUKHAKTOK A","2502503","2019-01-25 00:00","2019","01","25","00:00","-25.6","","-29.9","","68","","","M","11","","31","","","M","101.22","","","","-40","","NA"
"-117.81","70.76","ULUKHAKTOK A","2502503","2019-01-25 01:00","2019","01","25","01:00","-25.4","","-29.7","","68","","","M","10","","34","","","M","101.18","","","","-40","","NA"
"-117.81","70.76","ULUKHAKTOK A","2502503","2019-01-25 02:00","2019","01","25","02:00","-25.4","","-29.6","","69","","","M","9","","25","","","M","101.18","","","","-39","","NA"
"-117.81","70.76","ULUKHAKTOK A","2502503","2019-01-25 03:00","2019","01","25","03:00","-25.4","","-29.8","","67","","","M","8","","22","","","M","101.20","","","","-38","","NA"
"-117.81","70.76","ULUKHAKTOK A","2502503","2019-01-25 04:00","2019","01","25","04:00","-25.9","","-30.1","","68","","","M","9","","25","","","M","101.18","","","","-39","","NA"
"-117.81","70.76","ULUKHAKTOK A","2502503","2019-01-25 05:00","2019","01","25","05:00","-26.2","","-30.2","","70","","","M","12","","31","","","M","101.16","","","","-41","","NA"
"-117.81","70.76","ULUKHAKTOK A","2502503","2019-01-25 06:00","2019","01","25","06:00","-26.1","","-30.5","","68","","","M","9","","22","","","M","101.11","","","","-39","","NA"
"-117.81","70.76","ULUKHAKTOK A","2502503","2019-01-25 07:00","2019","01","25","07:00","-26.3","","-30.7","","67","","","M","8","","24","","","M","101.13","","","","-39","","NA"
"-117.81","70.76","ULUKHAKTOK A","2502503","2019-01-25 08:00","2019","01","25","08:00","-26.0","","-30.4","","67","","","M","8","","22","","","M","101.08","","","","-39","","NA"
"-117.81","70.76","ULUKHAKTOK A","2502503","2019-01-25 09:00","2019","01","25","09:00","-25.6","","-30.0","","67","","","M","9","","21","","","M","101.07","","","","-38","","NA"
"-117.81","70.76","ULUKHAKTOK A","2502503","2019-01-25 10:00","2019","01","25","10:00","-25.0","","-29.6","","66","","","M","7","","12","","","M","101.04","","","","-34","","NA"
"-117.81","70.76","ULUKHAKTOK A","2502503","2019-01-25 11:00","2019","01","25","11:00","-25.0","","-29.6","","66","","","M","10","","21","","","M","100.99","","","","-37","","NA"
"-117.81","70.76","ULUKHAKTOK A","2502503","2019-01-25 12:00","2019","01","25","12:00","-25.5","","-30.1","","66","","","M","8","","18","","","M","100.96","","","","-37","","NA"
"-117.81","70.76","ULUKHAKTOK A","2502503","2019-01-25 13:00","2019","01","25","13:00","-26.3","","-30.6","","68","","","M","5","","16","","","M","100.92","","","","-37","","NA"
"-117.81","70.76","ULUKHAKTOK A","2502503","2019-01-25 14:00","2019","01","25","14:00","-26.6","","-31.1","","66","","","M","9","","17","","","M","100.92","","","","-38","","NA"
"-117.81","70.76","ULUKHAKTOK A","2502503","2019-01-25 15:00","2019","01","25","15:00","-26.7","","-31.1","","67","","","M","6","","18","","","M","100.87","","","","-38","","NA"
"-117.81","70.76","ULUKHAKTOK A","2502503","2019-01-25 16:00","2019","01","25","16:00","-27.6","","-31.8","","68","","","M","4","","13","","","M","100.85","","","","-38","","NA"
"-117.81","70.76","ULUKHAKTOK A","2502503","2019-01-25 17:00","2019","01","25","17:00","-28.0","","-32.3","","68","","","M","5","","14","","","M","100.90","","","","-39","","NA"
"-117.81","70.76","ULUKHAKTOK A","2502503","2019-01-25 18:00","2019","01","25","18:00","-29.5","","-33.3","","70","","","M","4","","17","","","M","100.90","","","","-42","","NA"
"-117.81","70.76","ULUKHAKTOK A","2502503","2019-01-25 19:00","2019","01","25","19:00","-30.5","","-34.1","","71","","","M","4","","17","","","M","100.87","","","","-43","","NA"
"-117.81","70.76","ULUKHAKTOK A","2502503","2019-01-25 20:00","2019","01","25","20:00","-31.1","","-34.5","","72","","","M","5","","12","","","M","100.84","","","","-41","","NA"
"-117.81","70.76","ULUKHAKTOK A","2502503","2019-01-25 21:00","2019","01","25","21:00","-31.5","","-34.9","","72","","","M","4","","7","","","M","100.88","","","","-39","","NA"
"-117.81","70.76","ULUKHAKTOK A","2502503","2019-01-25 22:00","2019","01","25","22:00","-32.0","","-35.5","","72","","","M","4","","9","","","M","100.89","","","","-41","","NA"
"-117.81","70.76","ULUKHAKTOK A","2502503","2019-01-25 23:00","2019","01","25","23:00","-32.4","","-35.8","","73","","","M","5","","12","","","M","100.85","","","","-43","","NA"
"-117.81","70.76","ULUKHAKTOK A","2502503","2019-01-26 00:00","2019","01","26","00:00","-32.7","","-36.1","","72","","","M","4","","13","","","M","100.89","","","","-44","","NA"
"-117.81","70.76","ULUKHAKTOK A","2502503","2019-01-26 01:00","2019","01","26","01:00","-32.9","","-36.3","","72","","","M","3","","12","","","M","100.89","","","","-44","","NA"
"-117.81","70.76","ULUKHAKTOK A","2502503","2019-01-26 02:00","2019","01","26","02:00","-33.1","","-36.6","","72","","","M","4","","17","","","M","100.87","","","","-46","","NA"
"-117.81","70.76","ULUKHAKTOK A","2502503","2019-01-26 03:00","2019","01","26","03:00","-33.0","","-36.5","","72","","","M","4","","14","","","M","100.83","","","","-45","","NA"
"-117.81","70.76","ULUKHAKTOK A","2502503","2019-01-26 04:00","2019","01","26","04:00","-33.2","","-36.7","","72","","","M","3","","17","","","M","100.83","","","","-46","","NA"
"-117.81","70.76","ULUKHAKTOK A","2502503","2019-01-26 05:00","2019","01","26","05:00","-33.0","","-36.3","","72","","","M","4","","16","","","M","100.85","","","","-45","","NA"
"-117.81","70.76","ULUKHAKTOK A","2502503","2019-01-26 06:00","2019","01","26","06:00","-33.4","","-36.8","","72","","","M","3","","18","","","M","100.83","","","","-47","","NA"
"-117.81","70.76","ULUKHAKTOK A","2502503","2019-01-26 07:00","2019","01","26","07:00","-33.7","","-37.1","","72","","","M","4","","14","","","M","100.83","","","","-46","","NA"
"-117.81","70.76","ULUKHAKTOK A","2502503","2019-01-26 08:00","2019","01","26","08:00","-33.6","","-37.0","","72","","","M","4","","16","","","M","100.80","","","","-46","","NA"
"-117.81","70.76","ULUKHAKTOK A","2502503","2019-01-26 09:00","2019","01","26","09:00","-33.5","","-37.0","","72","","","M","5","","17","","","M","100.82","","","","-46","","NA"
"-117.81","70.76","ULUKHAKTOK A","2502503","2019-01-26 10:00","2019","01","26","10:00","-33.5","","-37.0","","72","","","M","5","","17","","","M","100.82","","","","-46","","NA"
"-117.81","70.76","ULUKHAKTOK A","2502503","2019-01-26 11:00","2019","01","26","11:00","-33.6","","-37.2","","71","","","M","4","","20","","","M","100.81","","","","-48","","NA"
"-117.81","70.76","ULUKHAKTOK A","2502503","2019-01-26 12:00","2019","01","26","12:00","-33.3","","-36.9","","71","","","M","4","","13","","","M","100.83","","","","-45","","NA"
"-117.81","70.76","ULUKHAKTOK A","2502503","2019-01-26 13:00","2019","01","26","13:00","-33.8","","-37.3","","71","","","M","3","","15","","","M","100.87","","","","-46","","NA"
"-117.81","70.76","ULUKHAKTOK A","2502503","2019-01-26 14:00","2019","01","26","14:00","-33.9","","-37.5","","71","","","M","4","","12","","","M","100.87","","","","-45","","NA"
"-117.81","70.76","ULUKHAKTOK A","2502503","2019-01-26 15:00","2019","01","26","15:00","-33.6","","-37.0","","72","","","M","5","","13","","","M","100.90","","","","-45","","NA"
"-117.81","70.76","ULUKHAKTOK A","2502503","2019-01-26 16:00","2019","01","26","16:00","-34.1","","-37.5","","72","","","M","4","","13","","","M","100.97","","","","-46","","NA"
"-117.81","70.76","ULUKHAKTOK A","2502503","2019-01-26 17:00","2019","01","26","17:00","-33.8","","-37.1","","73","","","M","4","","12","","","M","101.03","","","","-45","","NA"
"-117.81","70.76","ULUKHAKTOK A","2502503","2019-01-26 18:00","2019","01","26","18:00","-31.9","","-34.7","","77","","","M","4","","8","","","M","101.09","","","","-40","","NA"
"-117.81","70.76","ULUKHAKTOK A","2502503","2019-01-26 19:00","2019","01","26","19:00","-31.0","","-34.3","","73","","","M","7","","14","","","M","101.16","","","","-42","","NA"
"-117.81","70.76","ULUKHAKTOK A","2502503","2019-01-26 20:00","2019","01","26","20:00","-29.9","","-33.6","","71","","","M","7","","5","","","M","101.24","","","","-36","","NA"
"-117.81","70.76","ULUKHAKTOK A","2502503","2019-01-26 21:00","2019","01","26","21:00","-29.6","","-33.7","","68","","","M","1","","22","","","M","101.34","","","","-43","","NA"
"-117.81","70.76","ULUKHAKTOK A","2502503","2019-01-26 22:00","2019","01","26","22:00","-29.8","","-34.0","","68","","","M","36","","15","","","M","101.44","","","","-41","","NA"
"-117.81","70.76","ULUKHAKTOK A","2502503","2019-01-26 23:00","2019","01","26","23:00","-31.9","","-35.5","","71","","","M","33","","11","","","M","101.53","","","","-42","","NA"
"-117.81","70.76","ULUKHAKTOK A","2502503","2019-01-27 00:00","2019","01","27","00:00","-30.5","","-34.2","","71","","","M","1","","9","","","M","101.66","","","","-39","","NA"
"-117.81","70.76","ULUKHAKTOK A","2502503","2019-01-27 01:00","2019","01","27","01:00","-31.0","","-34.6","","72","","","M","32","","8","","","M","101.77","","","","-39","","NA"
"-117.81","70.76","ULUKHAKTOK A","2502503","2019-01-27 02:00","2019","01","27","02:00","-31.5","","-35.4","","69","","","M","36","","13","","","M","101.88","","","","-42","","NA"
"-117.81","70.76","ULUKHAKTOK A","2502503","2019-01-27 03:00","2019","01","27","03:00","-32.8","","-36.6","","70","","","M","30","","14","","","M","102.02","","","","-44","","NA"
"-117.81","70.76","ULUKHAKTOK A","2502503","2019-01-27 04:00","2019","01","27","04:00","-33.8","","-37.5","","70","","","M","30","","21","","","M","102.15","","","","-48","","NA"
"-117.81","70.76","ULUKHAKTOK A","2502503","2019-01-27 05:00","2019","01","27","05:00","-32.9","","-36.5","","71","","","M","33","","35","","","M","102.22","","","","-50","","NA"
"-117.81","70.76","ULUKHAKTOK A","2502503","2019-01-27 06:00","2019","01","27","06:00","-32.6","","-36.2","","72","","","M","33","","40","","","M","102.30","","","","-51","","NA"
"-117.81","70.76","ULUKHAKTOK A","2502503","2019-01-27 07:00","2019","01","27","07:00","-32.7","","-36.2","","72","","","M","32","","34","","","M","102.41","","","","-50","","NA"
"-117.81","70.76","ULUKHAKTOK A","2502503","2019-01-27 08:00","2019","01","27","08:00","-33.1","","-36.8","","70","","","M","34","","43","","","M","102.48","","","","-52","","NA"
"-117.81","70.76","ULUKHAKTOK A","2502503","2019-01-27 09:00","2019","01","27","09:00","-34.3","","-38.0","","70","","","M","35","","30","","","M","102.64","","","","-51","","NA"
"-117.81","70.76","ULUKHAKTOK A","2502503","2019-01-27 10:00","2019","01","27","10:00","-35.3","","-39.3","","68","","","M","33","","16","","","M","102.75","","","","-48","","NA"
"-117.81","70.76","ULUKHAKTOK A","2502503","2019-01-27 11:00","2019","01","27","11:00","-35.7","","-39.6","","68","","","M","29","","14","","","M","102.88","","","","-48","","NA"
"-117.81","70.76","ULUKHAKTOK A","2502503","2019-01-27 12:00","2019","01","27","12:00","-35.4","","-39.1","","70","","","M","31","","35","","","M","102.94","","","","-54","","NA"
"-117.81","70.76","ULUKHAKTOK A","2502503","2019-01-27 13:00","2019","01","27","13:00","-35.4","","-39.2","","68","","","M","34","","7","","","M","103.07","","","","-44","","NA"
"-117.81","70.76","ULUKHAKTOK A","2502503","2019-01-27 14:00","2019","01","27","14:00","-34.7","","-38.7","","68","","","M","33","","27","","","M","103.14","","","","-51","","NA"
"-117.81","70.76","ULUKHAKTOK A","2502503","2019-01-27 15:00","2019","01","27","15:00","-35.1","","-39.2","","67","","","M","30","","13","","","M","103.28","","","","-47","","NA"
"-117.81","70.76","ULUKHAKTOK A","2502503","2019-01-27 16:00","2019","01","27","16:00","-34.6","","-38.2","","70","","","M","31","","31","","","M","103.28","","","","-52","","NA"
"-117.81","70.76","ULUKHAKTOK A","2502503","2019-01-27 17:00","2019","01","27","17:00","-33.1","","-36.6","","72","","","M","34","","14","","","M","103.37","","","","-45","","NA"
"-117.81","70.76","ULUKHAKTOK A","2502503","2019-01-27 18:00","2019","01","27","18:00","-32.6","","-36.1","","72","","","M","34","","21","","","M","103.43","","","","-47","","NA"
"-117.81","70.76","ULUKHAKTOK A","2502503","2019-01-27 19:00","2019","01","27","19:00","-31.5","","-35.7","","67","","","M","36","","25","","","M","103.46","","","","-46","","NA"
"-117.81","70.76","ULUKHAKTOK A","2502503","2019-01-27 20:00","2019","01","27","20:00","-32.4","","-36.5","","68","","","M","1","","8","","","M","103.52","","","","-41","","NA"
"-117.81","70.76","ULUKHAKTOK A","2502503","2019-01-27 21:00","2019","01","27","21:00","-33.2","","-37.2","","68","","","M","17","","3","","","M","103.54","","","","-37","","NA"
"-117.81","70.76","ULUKHAKTOK A","2502503","2019-01-27 22:00","2019","01","27","22:00","-34.5","","-38.9","","66","","","M","33","","4","","","M","103.59","","","","-39","","NA"
"-117.81","70.76","ULUKHAKTOK A","2502503","2019-01-27 23:00","2019","01","27","23:00","-30.5","","-35.4","","63","","","M","1","","14","","","M","103.58","","","","-42","","NA"
"-117.81","70.76","ULUKHAKTOK A","2502503","2019-01-28 00:00","2019","01","28","00:00","-32.7","","-37.2","","65","","","M","3","","16","","","M","103.61","","","","-45","","NA"
"-117.81","70.76","ULUKHAKTOK A","2502503","2019-01-28 01:00","2019","01","28","01:00","-32.4","","-36.6","","67","","","M","14","","8","","","M","103.65","","","","-41","","NA"
"-117.81","70.76","ULUKHAKTOK A","2502503","2019-01-28 02:00","2019","01","28","02:00","-33.2","","-37.5","","66","","","M","3","","14","","","M","103.68","","","","-45","","NA"
"-117.81","70.76","ULUKHAKTOK A","2502503","2019-01-28 03:00","2019","01","28","03:00","-33.6","","-37.6","","68","","","M","4","","16","","","M","103.66","","","","-46","","NA"
"-117.81","70.76","ULUKHAKTOK A","2502503","2019-01-28 04:00","2019","01","28","04:00","-33.5","","-37.6","","68","","","M","3","","18","","","M","103.65","","","","-47","","NA"
"-117.81","70.76","ULUKHAKTOK A","2502503","2019-01-28 05:00","2019","01","28","05:00","-33.1","","-36.9","","69","","","M","4","","15","","","M","103.64","","","","-45","","NA"
"-117.81","70.76","ULUKHAKTOK A","2502503","2019-01-28 06:00","2019","01","28","06:00","-33.2","","-37.2","","68","","","M","4","","14","","","M","103.57","","","","-45","","NA"
"-117.81","70.76","ULUKHAKTOK A","2502503","2019-01-28 07:00","2019","01","28","07:00","-33.1","","-37.1","","68","","","M","3","","17","","","M","103.59","","","","-46","","NA"
"-117.81","70.76","ULUKHAKTOK A","2502503","2019-01-28 08:00","2019","01","28","08:00","-33.6","","-37.5","","69","","","M","4","","17","","","M","103.55","","","","-47","","NA"
"-117.81","70.76","ULUKHAKTOK A","2502503","2019-01-28 09:00","2019","01","28","09:00","-32.6","","-36.6","","69","","","M","5","","19","","","M","103.50","","","","-46","","NA"
"-117.81","70.76","ULUKHAKTOK A","2502503","2019-01-28 10:00","2019","01","28","10:00","-32.9","","-36.7","","70","","","M","4","","10","","","M","103.51","","","","-43","","NA"
"-117.81","70.76","ULUKHAKTOK A","2502503","2019-01-28 11:00","2019","01","28","11:00","-32.5","","-36.2","","70","","","M","5","","20","","","M","103.46","","","","-46","","NA"
"-117.81","70.76","ULUKHAKTOK A","2502503","2019-01-28 12:00","2019","01","28","12:00","-32.5","","-36.6","","68","","","M","3","","21","","","M","103.42","","","","-47","","NA"
"-117.81","70.76","ULUKHAKTOK A","2502503","2019-01-28 13:00","2019","01","28","13:00","-32.0","","-36.2","","67","","","M","3","","17","","","M","103.39","","","","-45","","NA"
"-117.81","70.76","ULUKHAKTOK A","2502503","2019-01-28 14:00","2019","01","28","14:00","-30.9","","-35.1","","68","","","M","5","","18","","","M","103.33","","","","-44","","NA"
"-117.81","70.76","ULUKHAKTOK A","2502503","2019-01-28 15:00","2019","01","28","15:00","-30.6","","-34.5","","69","","","M","7","","7","","","M","103.34","","","","-38","","NA"
"-117.81","70.76","ULUKHAKTOK A","2502503","2019-01-28 16:00","2019","01","28","16:00","-32.3","","-36.2","","69","","","M","4","","15","","","M","103.29","","","","-44","","NA"
"-117.81","70.76","ULUKHAKTOK A","2502503","2019-01-28 17:00","2019","01","28","17:00","-30.1","","-34.4","","67","","","M","4","","23","","","M","103.20","","","","-44","","NA"
"-117.81","70.76","ULUKHAKTOK A","2502503","2019-01-28 18:00","2019","01","28","18:00","-29.8","","-34.2","","66","","","M","4","","9","","","M","103.14","","","","-38","","NA"
"-117.81","70.76","ULUKHAKTOK A","2502503","2019-01-28 19:00","2019","01","28","19:00","-29.5","","-33.8","","67","","","M","8","","6","","","M","103.12","","","","-36","","NA"
"-117.81","70.76","ULUKHAKTOK A","2502503","2019-01-28 20:00","2019","01","28","20:00","-29.4","","-34.0","","65","","","M","5","","18","","","M","103.06","","","","-42","","NA"
"-117.81","70.76","ULUKHAKTOK A","2502503","2019-01-28 21:00","2019","01","28","21:00","-29.2","","-33.8","","65","","","M","5","","9","","","M","103.01","","","","-38","","NA"
"-117.81","70.76","ULUKHAKTOK A","2502503","2019-01-28 22:00","2019","01","28","22:00","-27.9","","-32.6","","65","","","M","5","","20","","","M","102.97","","","","-40","","NA"
"-117.81","70.76","ULUKHAKTOK A","2502503","2019-01-28 23:00","2019","01","28","23:00","-27.8","","-32.5","","65","","","M","6","","21","","","M","102.94","","","","-41","","NA"
"-117.81","70.76","ULUKHAKTOK A","2502503","2019-01-29 00:00","2019","01","29","00:00","-26.7","","-31.9","","62","","","M","5","","11","","","M","102.94","","","","-36","","NA"
"-117.81","70.76","ULUKHAKTOK A","2502503","2019-01-29 01:00","2019","01","29","01:00","-26.9","","-32.6","","59","","","M","36","","13","","","M","102.94","","","","-37","","NA"
"-117.81","70.76","ULUKHAKTOK A","2502503","2019-01-29 02:00","2019","01","29","02:00","-27.8","","-32.1","","67","","","M","6","","32","","","M","102.90","","","","-43","","NA"
"-117.81","70.76","ULUKHAKTOK A","2502503","2019-01-29 03:00","2019","01","29","03:00","-26.7","","-31.5","","64","","","M","6","","37","","","M","102.86","","","","-43","","NA"
"-117.81","70.76","ULUKHAKTOK A","2502503","2019-01-29 04:00","2019","01","29","04:00","-27.4","","-32.4","","64","","","M","7","","25","","","M","102.86","","","","-41","","NA"
"-117.81","70.76","ULUKHAKTOK A","2502503","2019-01-29 05:00","2019","01","29","05:00","-26.6","","-31.3","","66","","","M","8","","36","","","M","102.80","","","","-42","","NA"
"-117.81","70.76","ULUKHAKTOK A","2502503","2019-01-29 06:00","2019","01","29","06:00","-26.8","","-31.8","","64","","","M","8","","34","","","M","102.78","","","","-42","","NA"
"-117.81","70.76","ULUKHAKTOK A","2502503","2019-01-29 07:00","2019","01","29","07:00","-26.7","","-31.6","","64","","","M","8","","35","","","M","102.76","","","","-42","","NA"
"-117.81","70.76","ULUKHAKTOK A","2502503","2019-01-29 08:00","2019","01","29","08:00","-26.9","","-31.9","","63","","","M","9","","34","","","M","102.73","","","","-42","","NA"
"-117.81","70.76","ULUKHAKTOK A","2502503","2019-01-29 09:00","2019","01","29","09:00","-26.7","","-31.8","","63","","","M","9","","32","","","M","102.73","","","","-42","","NA"
"-117.81","70.76","ULUKHAKTOK A","2502503","2019-01-29 10:00","2019","01","29","10:00","-26.6","","-31.8","","62","","","M","9","","30","","","M","102.71","","","","-41","","NA"
"-117.81","70.76","ULUKHAKTOK A","2502503","2019-01-29 11:00","2019","01","29","11:00","-26.6","","-31.8","","62","","","M","9","","26","","","M","102.71","","","","-40","","NA"
"-117.81","70.76","ULUKHAKTOK A","2502503","2019-01-29 12:00","2019","01","29","12:00","-26.7","","-31.9","","62","","","M","9","","31","","","M","102.69","","","","-42","","NA"
"-117.81","70.76","ULUKHAKTOK A","2502503","2019-01-29 13:00","2019","01","29","13:00","-26.4","","-31.7","","62","","","M","8","","31","","","M","102.60","","","","-41","","NA"
"-117.81","70.76","ULUKHAKTOK A","2502503","2019-01-29 14:00","2019","01","29","14:00","-26.7","","-32.1","","61","","","M","7","","21","","","M","102.57","","","","-39","","NA"
"-117.81","70.76","ULUKHAKTOK A","2502503","2019-01-29 15:00","2019","01","29","15:00","-26.9","","-32.0","","63","","","M","9","","30","","","M","102.53","","","","-42","","NA"
"-117.81","70.76","ULUKHAKTOK A","2502503","2019-01-29 16:00","2019","01","29","16:00","-27.6","","-32.4","","64","","","M","7","","28","","","M","102.49","","","","-42","","NA"
"-117.81","70.76","ULUKHAKTOK A","2502503","2019-01-29 17:00","2019","01","29","17:00","-27.8","","-32.5","","65","","","M","8","","25","","","M","102.40","","","","-42","","NA"
"-117.81","70.76","ULUKHAKTOK A","2502503","2019-01-29 18:00","2019","01","29","18:00","-26.9","","-31.7","","65","","","M","8","","31","","","M","102.33","","","","-42","","NA"
"-117.81","70.76","ULUKHAKTOK A","2502503","2019-01-29 19:00","2019","01","29","19:00","-27.0","","-31.8","","65","","","M","8","","28","","","M","102.28","","","","-41","","NA"
"-117.81","70.76","ULUKHAKTOK A","2502503","2019-01-29 20:00","2019","01","29","20:00","-27.3","","-31.6","","67","","","M","7","","30","","","M","102.21","","","","-42","","NA"
"-117.81","70.76","ULUKHAKTOK A","2502503","2019-01-29 21:00","2019","01","29","21:00","-26.8","","-31.1","","67","","","M","8","","40","","","M","102.11","","","","-43","","NA"
"-117.81","70.76","ULUKHAKTOK A","2502503","2019-01-29 22:00","2019","01","29","22:00","-26.5","","-30.9","","67","","","M","8","","37","","","M","102.08","","","","-42","","NA"
"-117.81","70.76","ULUKHAKTOK A","2502503","2019-01-29 23:00","2019","01","29","23:00","-26.6","","-30.8","","68","","","M","7","","37","","","M","102.01","","","","-42","","NA"
"-117.81","70.76","ULUKHAKTOK A","2502503","2019-01-30 00:00","2019","01","30","00:00","-26.4","","-30.5","","69","","","M","8","","39","","","M","101.95","","","","-43","","NA"
"-117.81","70.76","ULUKHAKTOK A","2502503","2019-01-30 01:00","2019","01","30","01:00","-25.9","","-30.0","","69","","","M","8","","37","","","M","101.91","","","","-42","","NA"
"-117.81","70.76","ULUKHAKTOK A","2502503","2019-01-30 02:00","2019","01","30","02:00","-25.4","","-29.5","","69","","","M","9","","27","","","M","101.88","","","","-39","","NA"
"-117.81","70.76","ULUKHAKTOK A","2502503","2019-01-30 03:00","2019","01","30","03:00","-25.4","","-29.7","","68","","","M","7","","31","","","M","101.84","","","","-40","","NA"
"-117.81","70.76","ULUKHAKTOK A","2502503","2019-01-30 04:00","2019","01","30","04:00","-25.5","","-29.7","","68","","","M","8","","31","","","M","101.82","","","","-40","","NA"
"-117.81","70.76","ULUKHAKTOK A","2502503","2019-01-30 05:00","2019","01","30","05:00","-25.7","","-29.8","","69","","","M","8","","35","","","M","101.80","","","","-41","","NA"
"-117.81","70.76","ULUKHAKTOK A","2502503","2019-01-30 06:00","2019","01","30","06:00","-25.6","","-29.6","","70","","","M","8","","35","","","M","101.75","","","","-41","","NA"
"-117.81","70.76","ULUKHAKTOK A","2502503","2019-01-30 07:00","2019","01","30","07:00","-26.1","","-30.0","","71","","","M","8","","33","","","M","101.73","","","","-41","","NA"
"-117.81","70.76","ULUKHAKTOK A","2502503","2019-01-30 08:00","2019","01","30","08:00","-26.2","","-30.0","","71","","","M","8","","30","","","M","101.71","","","","-41","","NA"
"-117.81","70.76","ULUKHAKTOK A","2502503","2019-01-30 09:00","2019","01","30","09:00","-24.9","","-28.7","","71","","","M","8","","29","","","M","101.71","","","","-39","","NA"
"-117.81","70.76","ULUKHAKTOK A","2502503","2019-01-30 10:00","2019","01","30","10:00","-25.2","","-29.2","","70","","","M","9","","23","","","M","101.69","","","","-38","","NA"
"-117.81","70.76","ULUKHAKTOK A","2502503","2019-01-30 11:00","2019","01","30","11:00","-24.9","","-28.8","","71","","","M","10","","32","","","M","101.66","","","","-39","","NA"
"-117.81","70.76","ULUKHAKTOK A","2502503","2019-01-30 12:00","2019","01","30","12:00","-24.7","","-28.5","","71","","","M","7","","24","","","M","101.67","","","","-37","","NA"
"-117.81","70.76","ULUKHAKTOK A","2502503","2019-01-30 13:00","2019","01","30","13:00","-25.6","","-29.4","","71","","","M","8","","30","","","M","101.66","","","","-40","","NA"
"-117.81","70.76","ULUKHAKTOK A","2502503","2019-01-30 14:00","2019","01","30","14:00","-26.5","","-30.4","","70","","","M","4","","20","","","M","101.67","","","","-39","","NA"
"-117.81","70.76","ULUKHAKTOK A","2502503","2019-01-30 15:00","2019","01","30","15:00","-26.1","","-30.0","","70","","","M","6","","16","","","M","101.66","","","","-37","","NA"
"-117.81","70.76","ULUKHAKTOK A","2502503","2019-01-30 16:00","2019","01","30","16:00","-26.5","","-30.2","","72","","","M","1","","19","","","M","101.64","","","","-38","","NA"
"-117.81","70.76","ULUKHAKTOK A","2502503","2019-01-30 17:00","2019","01","30","17:00","-25.4","","-29.4","","70","","","M","8","","23","","","M","101.64","","","","-38","","NA"
"-117.81","70.76","ULUKHAKTOK A","2502503","2019-01-30 18:00","2019","01","30","18:00","-26.2","","-31.1","","65","","","M","7","","19","","","M","101.68","","","","-38","","NA"
"-117.81","70.76","ULUKHAKTOK A","2502503","2019-01-30 19:00","2019","01","30","19:00","-28.2","","-33.0","","64","","","M","3","","13","","","M","101.69","","","","-38","","NA"
"-117.81","70.76","ULUKHAKTOK A","2502503","2019-01-30 20:00","2019","01","30","20:00","-27.7","","-31.8","","68","","","M","6","","5","","","M","101.69","","","","-33","","NA"
"-117.81","70.76","ULUKHAKTOK A","2502503","2019-01-30 21:00","2019","01","30","21:00","-28.2","","-32.5","","67","","","M","1","","9","","","M","101.71","","","","-36","","NA"
"-117.81","70.76","ULUKHAKTOK A","2502503","2019-01-30 22:00","2019","01","30","22:00","-29.1","","-32.6","","72","","","M","5","","11","","","M","101.73","","","","-39","","NA"
"-117.81","70.76","ULUKHAKTOK A","2502503","2019-01-30 23:00","2019","01","30","23:00","-29.0","","-33.1","","69","","","M","14","","3","","","M","101.74","","","","-32","","NA"
"-117.81","70.76","ULUKHAKTOK A","2502503","2019-01-31 00:00","2019","01","31","00:00","-30.3","","-33.9","","71","","","M","6","","13","","","M","101.75","","","","-41","","NA"
"-117.81","70.76","ULUKHAKTOK A","2502503","2019-01-31 01:00","2019","01","31","01:00","-31.4","","-34.8","","73","","","M","34","","5","","","M","101.77","","","","-37","","NA"
"-117.81","70.76","ULUKHAKTOK A","2502503","2019-01-31 02:00","2019","01","31","02:00","-30.0","","-33.3","","73","","","M","7","","7","","","M","101.79","","","","-37","","NA"
"-117.81","70.76","ULUKHAKTOK A","2502503","2019-01-31 03:00","2019","01","31","03:00","-31.6","","-35.1","","72","","","M","6","","9","","","M","101.82","","","","-40","","NA"
"-117.81","70.76","ULUKHAKTOK A","2502503","2019-01-31 04:00","2019","01","31","04:00","-32.1","","-35.5","","73","","","M","3","","9","","","M","101.87","","","","-41","","NA"
"-117.81","70.76","ULUKHAKTOK A","2502503","2019-01-31 05:00","2019","01","31","05:00","-33.3","","-36.8","","71","","","M","3","","9","","","M","101.90","","","","-43","","NA"
"-117.81","70.76","ULUKHAKTOK A","2502503","2019-01-31 06:00","2019","01","31","06:00","-32.5","","-36.0","","72","","","M","5","","19","","","M","101.93","","","","-46","","NA"
"-117.81","70.76","ULUKHAKTOK A","2502503","2019-01-31 07:00","2019","01","31","07:00","-32.6","","-36.0","","72","","","M","4","","17","","","M","101.94","","","","-45","","NA"
"-117.81","70.76","ULUKHAKTOK A","2502503","2019-01-31 08:00","2019","01","31","08:00","-32.7","","-36.3","","71","","","M","4","","14","","","M","101.97","","","","-44","","NA"
"-117.81","70.76","ULUKHAKTOK A","2502503","2019-01-31 09:00","2019","01","31","09:00","-33.1","","-36.6","","72","","","M","3","","18","","","M","102.01","","","","-46","","NA"
"-117.81","70.76","ULUKHAKTOK A","2502503","2019-01-31 10:00","2019","01","31","10:00","-33.4","","-37.0","","71","","","M","3","","15","","","M","102.06","","","","-46","","NA"
"-117.81","70.76","ULUKHAKTOK A","2502503","2019-01-31 11:00","2019","01","31","11:00","-33.6","","-37.1","","72","","","M","3","","16","","","M","102.11","","","","-46","","NA"
"-117.81","70.76","ULUKHAKTOK A","2502503","2019-01-31 12:00","2019","01","31","12:00","-33.0","","-36.6","","71","","","M","3","","17","","","M","102.17","","","","-46","","NA"
"-117.81","70.76","ULUKHAKTOK A","2502503","2019-01-31 13:00","2019","01","31","13:00","-32.9","","-36.5","","71","","","M","5","","14","","","M","102.24","","","","-45","","NA"
"-117.81","70.76","ULUKHAKTOK A","2502503","2019-01-31 14:00","2019","01","31","14:00","-33.0","","-36.9","","69","","","M","4","","15","","","M","102.28","","","","-45","","NA"
"-117.81","70.76","ULUKHAKTOK A","2502503","2019-01-31 15:00","2019","01","31","15:00","-33.2","","-36.6","","73","","","M","3","","14","","","M","102.31","","","","-45","","NA"
"-117.81","70.76","ULUKHAKTOK A","2502503","2019-01-31 16:00","2019","01","31","16:00","-33.5","","-36.8","","73","","","M","3","","13","","","M","102.38","","","","-45","","NA"
"-117.81","70.76","ULUKHAKTOK A","2502503","2019-01-31 17:00","2019","01","31","17:00","-32.2","","-35.3","","75","","","M","2","","10","","","M","102.42","","","","-42","","NA"
"-117.81","70.76","ULUKHAKTOK A","2502503","2019-01-31 18:00","2019","01","31","18:00","-32.8","","-36.1","","73","","","M","2","","11","","","M","102.43","","","","-43","","NA"
"-117.81","70.76","ULUKHAKTOK A","2502503","2019-01-31 19:00","2019","01","31","19:00","-33.6","","-37.0","","72","","","M","3","","14","","","M","102.45","","","","-45","","NA"
"-117.81","70.76","ULUKHAKTOK A","2502503","2019-01-31 20:00","2019","01","31","20:00","-33.9","","-37.4","","71","","","M","3","","15","","","M","102.49","","","","-46","","NA"
"-117.81","70.76","ULUKHAKTOK A","2502503","2019-01-31 21:00","2019","01","31","21:00","-33.5","","-37.0","","72","","","M","3","","13","","","M","102.51","","","","-45","","NA"
"-117.81","70.76","ULUKHAKTOK A","2502503","2019-01-31 22:00","2019","01","31","22:00","-33.3","","-36.9","","71","","","M","2","","13","","","M","102.55","","","","-45","","NA"
"-117.81","70.76","ULUKHAKTOK A","2502503","2019-01-31 23:00","2019","01","31","23:00","-33.8","","-37.2","","72","","","M","4","","15","","","M","102.60","","","","-46","","NA"
