"Longitude (x)","Latitude (y)","Station Name","Climate ID","Date/Time (LST)","Year","Month","Day","Time (LST)","Temp (°C)","Temp Flag","Dew Point Temp (°C)","Dew Point Temp Flag","Rel Hum (%)","Rel Hum Flag","Precip. Amount (mm)","Precip. Amount Flag","Wind Dir (10s deg)","Wind Dir Flag","Wind Spd (km/h)","Wind Spd Flag","Visibility (km)","Visibility Flag","Stn Press (kPa)","Stn Press Flag","Hmdx","Hmdx Flag","Wind Chill","Wind Chill Flag","Weather"
"-117.81","70.76","ULUKHAKTOK A","2502503","2019-03-01 00:00","2019","03","01","00:00","-29.6","","-32.7","","75","","","M","5","","7","","","M","104.28","","","","-37","","NA"
"-117.81","70.76","ULUKHAKTOK A","2502503","2019-03-01 01:00","2019","03","01","01:00","-30.6","","-34.0","","73","","","M","5","","12","","","M","104.33","","","","-41","","NA"
"-117.81","70.76","ULUKHAKTOK A","2502503","2019-03-01 02:00","2019","03","01","02:00","-31.2","","-34.7","","72","","","M","3","","16","","","M","104.34","","","","-43","","NA"
"-117.81","70.76","ULUKHAKTOK A","2502503","2019-03-01 03:00","2019","03","01","03:00","-30.4","","-33.6","","75","","","M","4","","19","","","M","104.32","","","","-43","","NA"
"-117.81","70.76","ULUKHAKTOK A","2502503","2019-03-01 04:00","2019","03","01","04:00","-30.6","","-33.8","","74","","","M","3","","18","","","M","104.29","","","","-43","","NA"
"-117.81","70.76","ULUKHAKTOK A","2502503","2019-03-01 05:00","2019","03","01","05:00","-30.0","","-33.1","","75","","","M","3","","17","","","M","104.28","","","","-42","","NA"
"-117.81","70.76","ULUKHAKTOK A","2502503","2019-03-01 06:00","2019","03","01","06:00","-29.9","","-33.1","","75","","","M","3","","17","","","M","104.27","","","","-42","","NA"
"-117.81","70.76","ULUKHAKTOK A","2502503","2019-03-01 07:00","2019","03","01","07:00","-30.4","","-33.8","","73","","","M","3","","17","","","M","104.27","","","","-43","","NA"
"-117.81","70.76","ULUKHAKTOK A","2502503","2019-03-01 08:00","2019","03","01","08:00","-30.3","","-33.6","","74","","","M","4","","19","","","M","104.24","","","","-43","","NA"
"-117.81","70.76","ULUKHAKTOK A","2502503","2019-03-01 09:00","2019","03","01","09:00","-29.6","","-33.0","","73","","","M","3","","15","","","M","104.26","","","","-41","","NA"
"-117.81","70.76","ULUKHAKTOK A","2502503","2019-03-01 10:00","2019","03","01","10:00","-28.2","","-31.9","","72","","","M","3","","11","","","M","104.20","","","","-38","","NA"
"-117.81","70.76","ULUKHAKTOK A","2502503","2019-03-01 11:00","2019","03","01","11:00","-26.9","","-31.1","","68","","","M","4","","10","","","M","104.20","","","","-35","","NA"
"-117.81","70.76","ULUKHAKTOK A","2502503","2019-03-01 12:00","2019","03","01","12:00","-25.7","","-30.3","","66","","","M","4","","8","","","M","104.18","","","","-33","","NA"
"-117.81","70.76","ULUKHAKTOK A","2502503","2019-03-01 13:00","2019","03","01","13:00","-25.6","","-30.0","","67","","","M","3","","9","","","M","104.19","","","","-33","","NA"
"-117.81","70.76","ULUKHAKTOK A","2502503","2019-03-01 14:00","2019","03","01","14:00","-23.7","","-29.3","","61","","","M","6","","6","","","M","104.17","","","","-29","","NA"
"-117.81","70.76","ULUKHAKTOK A","2502503","2019-03-01 15:00","2019","03","01","15:00","-23.7","","-28.4","","66","","","M","4","","7","","","M","104.14","","","","-30","","NA"
"-117.81","70.76","ULUKHAKTOK A","2502503","2019-03-01 16:00","2019","03","01","16:00","-24.0","","-28.9","","65","","","M","2","","7","","","M","104.16","","","","-30","","NA"
"-117.81","70.76","ULUKHAKTOK A","2502503","2019-03-01 17:00","2019","03","01","17:00","-25.4","","-29.8","","67","","","M","4","","8","","","M","104.09","","","","-33","","NA"
"-117.81","70.76","ULUKHAKTOK A","2502503","2019-03-01 18:00","2019","03","01","18:00","-25.0","","-28.6","","73","","","M","3","","8","","","M","104.09","","","","-32","","NA"
"-117.81","70.76","ULUKHAKTOK A","2502503","2019-03-01 19:00","2019","03","01","19:00","-24.5","","-27.9","","74","","","M","4","","4","","","M","104.06","","","","-28","","NA"
"-117.81","70.76","ULUKHAKTOK A","2502503","2019-03-01 20:00","2019","03","01","20:00","-23.7","","-26.9","","75","","","M","2","","10","","","M","104.04","","","","-32","","NA"
"-117.81","70.76","ULUKHAKTOK A","2502503","2019-03-01 21:00","2019","03","01","21:00","-23.6","","-27.1","","73","","","M","1","","4","","","M","104.01","","","","-27","","NA"
"-117.81","70.76","ULUKHAKTOK A","2502503","2019-03-01 22:00","2019","03","01","22:00","-23.1","","-26.4","","75","","","M","4","","1","","","M","103.98","","","","-24","","NA"
"-117.81","70.76","ULUKHAKTOK A","2502503","2019-03-01 23:00","2019","03","01","23:00","-23.1","","-27.1","","70","","","M","4","","3","","","M","103.98","","","","-26","","NA"
"-117.81","70.76","ULUKHAKTOK A","2502503","2019-03-02 00:00","2019","03","02","00:00","-21.8","","-25.8","","71","","","M","20","","2","","","M","103.96","","","","-24","","NA"
"-117.81","70.76","ULUKHAKTOK A","2502503","2019-03-02 01:00","2019","03","02","01:00","-21.5","","-25.4","","71","","","M","36","","4","","","M","103.95","","","","-25","","NA"
"-117.81","70.76","ULUKHAKTOK A","2502503","2019-03-02 02:00","2019","03","02","02:00","-20.8","","-24.5","","73","","","M","2","","8","","","M","103.89","","","","-27","","NA"
"-117.81","70.76","ULUKHAKTOK A","2502503","2019-03-02 03:00","2019","03","02","03:00","-19.9","","-24.2","","69","","","M","9","","1","","","M","103.86","","","","-21","","NA"
"-117.81","70.76","ULUKHAKTOK A","2502503","2019-03-02 04:00","2019","03","02","04:00","-19.0","","-22.3","","76","","","M","32","","7","","","M","103.85","","","","-24","","NA"
"-117.81","70.76","ULUKHAKTOK A","2502503","2019-03-02 05:00","2019","03","02","05:00","-19.5","","-22.7","","76","","","M","26","","5","","","M","103.81","","","","-24","","NA"
"-117.81","70.76","ULUKHAKTOK A","2502503","2019-03-02 06:00","2019","03","02","06:00","-20.6","","-23.0","","81","","","M","28","","9","","","M","103.81","","","","-27","","NA"
"-117.81","70.76","ULUKHAKTOK A","2502503","2019-03-02 07:00","2019","03","02","07:00","-20.2","","-22.8","","80","","","M","30","","7","","","M","103.84","","","","-26","","NA"
"-117.81","70.76","ULUKHAKTOK A","2502503","2019-03-02 08:00","2019","03","02","08:00","-18.5","","-22.2","","73","","","M","34","","10","","","M","103.80","","","","-25","","NA"
"-117.81","70.76","ULUKHAKTOK A","2502503","2019-03-02 09:00","2019","03","02","09:00","-17.5","","-21.7","","70","","","M","26","","8","","","M","103.79","","","","-23","","NA"
"-117.81","70.76","ULUKHAKTOK A","2502503","2019-03-02 10:00","2019","03","02","10:00","-16.7","","-20.2","","74","","","M","29","","18","","","M","103.76","","","","-26","","NA"
"-117.81","70.76","ULUKHAKTOK A","2502503","2019-03-02 11:00","2019","03","02","11:00","-16.2","","-19.6","","75","","","M","28","","16","","","M","103.73","","","","-25","","NA"
"-117.81","70.76","ULUKHAKTOK A","2502503","2019-03-02 12:00","2019","03","02","12:00","-15.6","","-19.0","","75","","","M","28","","17","","","M","103.71","","","","-24","","NA"
"-117.81","70.76","ULUKHAKTOK A","2502503","2019-03-02 13:00","2019","03","02","13:00","-15.3","","-19.1","","73","","","M","29","","15","","","M","103.68","","","","-23","","NA"
"-117.81","70.76","ULUKHAKTOK A","2502503","2019-03-02 14:00","2019","03","02","14:00","-15.2","","-19.2","","72","","","M","29","","10","","","M","103.66","","","","-21","","NA"
"-117.81","70.76","ULUKHAKTOK A","2502503","2019-03-02 15:00","2019","03","02","15:00","-16.1","","-21.3","","65","","","M","33","","7","","","M","103.64","","","","-21","","NA"
"-117.81","70.76","ULUKHAKTOK A","2502503","2019-03-02 16:00","2019","03","02","16:00","-16.3","","-22.2","","61","","","M","33","","5","","","M","103.61","","","","-20","","NA"
"-117.81","70.76","ULUKHAKTOK A","2502503","2019-03-02 17:00","2019","03","02","17:00","-19.2","","-24.9","","61","","","M","35","","10","","","M","103.57","","","","-26","","NA"
"-117.81","70.76","ULUKHAKTOK A","2502503","2019-03-02 18:00","2019","03","02","18:00","-18.9","","-24.7","","60","","","M","34","","16","","","M","103.54","","","","-28","","NA"
"-117.81","70.76","ULUKHAKTOK A","2502503","2019-03-02 19:00","2019","03","02","19:00","-19.4","","-25.4","","60","","","M","34","","16","","","M","103.49","","","","-29","","NA"
"-117.81","70.76","ULUKHAKTOK A","2502503","2019-03-02 20:00","2019","03","02","20:00","-18.4","","-25.1","","56","","","M","35","","21","","","M","103.41","","","","-29","","NA"
"-117.81","70.76","ULUKHAKTOK A","2502503","2019-03-02 21:00","2019","03","02","21:00","-18.4","","-25.4","","55","","","M","36","","8","","","M","103.35","","","","-24","","NA"
"-117.81","70.76","ULUKHAKTOK A","2502503","2019-03-02 22:00","2019","03","02","22:00","-19.9","","-26.1","","59","","","M","2","","9","","","M","103.30","","","","-27","","NA"
"-117.81","70.76","ULUKHAKTOK A","2502503","2019-03-02 23:00","2019","03","02","23:00","-20.6","","-26.4","","61","","","M","36","","2","","","M","103.29","","","","-22","","NA"
"-117.81","70.76","ULUKHAKTOK A","2502503","2019-03-03 00:00","2019","03","03","00:00","-20.5","","-25.5","","65","","","M","2","","1","","","M","103.20","","","","-21","","NA"
"-117.81","70.76","ULUKHAKTOK A","2502503","2019-03-03 01:00","2019","03","03","01:00","-21.3","","-26.8","","62","","","M","4","","10","","","M","103.17","","","","-29","","NA"
"-117.81","70.76","ULUKHAKTOK A","2502503","2019-03-03 02:00","2019","03","03","02:00","-22.1","","-27.7","","61","","","M","4","","4","","","M","103.14","","","","-26","","NA"
"-117.81","70.76","ULUKHAKTOK A","2502503","2019-03-03 03:00","2019","03","03","03:00","-21.8","","-26.9","","64","","","M","3","","10","","","M","103.09","","","","-29","","NA"
"-117.81","70.76","ULUKHAKTOK A","2502503","2019-03-03 04:00","2019","03","03","04:00","-20.7","","-26.3","","62","","","M","3","","19","","","M","103.02","","","","-31","","NA"
"-117.81","70.76","ULUKHAKTOK A","2502503","2019-03-03 05:00","2019","03","03","05:00","-21.2","","-26.7","","62","","","M","2","","15","","","M","102.94","","","","-31","","NA"
"-117.81","70.76","ULUKHAKTOK A","2502503","2019-03-03 06:00","2019","03","03","06:00","-21.6","","-27.1","","62","","","M","3","","14","","","M","102.87","","","","-31","","NA"
"-117.81","70.76","ULUKHAKTOK A","2502503","2019-03-03 07:00","2019","03","03","07:00","-20.9","","-27.3","","57","","","M","2","","12","","","M","102.84","","","","-29","","NA"
"-117.81","70.76","ULUKHAKTOK A","2502503","2019-03-03 08:00","2019","03","03","08:00","-22.0","","-27.5","","62","","","M","3","","11","","","M","102.79","","","","-30","","NA"
"-117.81","70.76","ULUKHAKTOK A","2502503","2019-03-03 09:00","2019","03","03","09:00","-22.0","","-27.6","","61","","","M","3","","13","","","M","102.71","","","","-31","","NA"
"-117.81","70.76","ULUKHAKTOK A","2502503","2019-03-03 10:00","2019","03","03","10:00","-19.9","","-26.7","","56","","","M","3","","10","","","M","102.66","","","","-27","","NA"
"-117.81","70.76","ULUKHAKTOK A","2502503","2019-03-03 11:00","2019","03","03","11:00","-18.2","","-26.0","","51","","","M","3","","7","","","M","102.60","","","","-24","","NA"
"-117.81","70.76","ULUKHAKTOK A","2502503","2019-03-03 12:00","2019","03","03","12:00","-14.2","","-23.8","","45","","","M","36","","5","","","M","102.59","","","","-18","","NA"
"-117.81","70.76","ULUKHAKTOK A","2502503","2019-03-03 13:00","2019","03","03","13:00","-11.9","","-22.5","","41","","","M","20","","4","","","M","102.53","","","","-14","","NA"
"-117.81","70.76","ULUKHAKTOK A","2502503","2019-03-03 14:00","2019","03","03","14:00","-12.6","","-21.2","","49","","","M","22","","6","","","M","102.50","","","","-17","","NA"
"-117.81","70.76","ULUKHAKTOK A","2502503","2019-03-03 15:00","2019","03","03","15:00","-13.8","","-20.5","","57","","","M","21","","6","","","M","102.48","","","","-18","","NA"
"-117.81","70.76","ULUKHAKTOK A","2502503","2019-03-03 16:00","2019","03","03","16:00","-14.0","","-20.6","","58","","","M","18","","4","","","M","102.45","","","","-17","","NA"
"-117.81","70.76","ULUKHAKTOK A","2502503","2019-03-03 17:00","2019","03","03","17:00","-16.0","","-21.1","","65","","","M","22","","3","","","M","102.40","","","","-18","","NA"
"-117.81","70.76","ULUKHAKTOK A","2502503","2019-03-03 18:00","2019","03","03","18:00","-19.4","","-23.4","","71","","","M","25","","2","","","M","102.38","","","","-21","","NA"
"-117.81","70.76","ULUKHAKTOK A","2502503","2019-03-03 19:00","2019","03","03","19:00","-20.7","","-23.7","","77","","","M","12","","3","","","M","102.32","","","","-23","","NA"
"-117.81","70.76","ULUKHAKTOK A","2502503","2019-03-03 20:00","2019","03","03","20:00","-18.4","","-20.7","","83","","","M","16","","6","","","M","102.29","","","","-23","","NA"
"-117.81","70.76","ULUKHAKTOK A","2502503","2019-03-03 21:00","2019","03","03","21:00","-17.6","","-19.5","","85","","","M","18","","6","","","M","102.22","","","","-22","","NA"
"-117.81","70.76","ULUKHAKTOK A","2502503","2019-03-03 22:00","2019","03","03","22:00","-16.7","","-18.6","","85","","","M","22","","7","","","M","102.17","","","","-22","","NA"
"-117.81","70.76","ULUKHAKTOK A","2502503","2019-03-03 23:00","2019","03","03","23:00","-17.5","","-19.7","","83","","","M","27","","13","","","M","102.17","","","","-25","","NA"
"-117.81","70.76","ULUKHAKTOK A","2502503","2019-03-04 00:00","2019","03","04","00:00","-18.9","","-21.1","","83","","","M","33","","11","","","M","102.18","","","","-26","","NA"
"-117.81","70.76","ULUKHAKTOK A","2502503","2019-03-04 01:00","2019","03","04","01:00","-20.3","","-22.7","","82","","","M","2","","5","","","M","102.24","","","","-25","","NA"
"-117.81","70.76","ULUKHAKTOK A","2502503","2019-03-04 02:00","2019","03","04","02:00","-18.5","","-20.5","","85","","","M","29","","16","","","M","102.28","","","","-28","","NA"
"-117.81","70.76","ULUKHAKTOK A","2502503","2019-03-04 03:00","2019","03","04","03:00","-16.4","","-18.6","","83","","","M","32","","39","","","M","102.31","","","","-29","","NA"
"-117.81","70.76","ULUKHAKTOK A","2502503","2019-03-04 04:00","2019","03","04","04:00","-16.9","","-19.2","","83","","","M","32","","28","","","M","102.40","","","","-28","","NA"
"-117.81","70.76","ULUKHAKTOK A","2502503","2019-03-04 05:00","2019","03","04","05:00","-16.6","","-18.8","","84","","","M","23","","6","","","M","102.50","","","","-21","","NA"
"-117.81","70.76","ULUKHAKTOK A","2502503","2019-03-04 06:00","2019","03","04","06:00","-16.7","","-18.8","","84","","","M","32","","34","","","M","102.55","","","","-29","","NA"
"-117.81","70.76","ULUKHAKTOK A","2502503","2019-03-04 07:00","2019","03","04","07:00","-15.8","","-18.4","","80","","","M","32","","19","","","M","102.71","","","","-25","","NA"
"-117.81","70.76","ULUKHAKTOK A","2502503","2019-03-04 08:00","2019","03","04","08:00","-18.1","","-20.5","","82","","","M","32","","22","","","M","102.75","","","","-29","","NA"
"-117.81","70.76","ULUKHAKTOK A","2502503","2019-03-04 09:00","2019","03","04","09:00","-16.8","","-19.5","","80","","","M","35","","21","","","M","102.84","","","","-27","","NA"
"-117.81","70.76","ULUKHAKTOK A","2502503","2019-03-04 10:00","2019","03","04","10:00","-16.9","","-20.2","","75","","","M","31","","18","","","M","102.92","","","","-26","","NA"
"-117.81","70.76","ULUKHAKTOK A","2502503","2019-03-04 11:00","2019","03","04","11:00","-15.7","","-19.6","","72","","","M","30","","10","","","M","102.98","","","","-22","","NA"
"-117.81","70.76","ULUKHAKTOK A","2502503","2019-03-04 12:00","2019","03","04","12:00","-14.5","","-18.2","","74","","","M","34","","8","","","M","102.96","","","","-20","","NA"
"-117.81","70.76","ULUKHAKTOK A","2502503","2019-03-04 13:00","2019","03","04","13:00","-13.0","","-18.4","","64","","","M","35","","3","","","M","102.99","","","","-15","","NA"
"-117.81","70.76","ULUKHAKTOK A","2502503","2019-03-04 14:00","2019","03","04","14:00","-14.0","","-16.9","","79","","","M","31","","3","","","M","102.98","","","","-16","","NA"
"-117.81","70.76","ULUKHAKTOK A","2502503","2019-03-04 15:00","2019","03","04","15:00","-15.0","","-17.9","","78","","","M","27","","6","","","M","103.01","","","","-19","","NA"
"-117.81","70.76","ULUKHAKTOK A","2502503","2019-03-04 16:00","2019","03","04","16:00","-17.4","","-20.4","","77","","","M","4","","9","","","M","103.05","","","","-24","","NA"
"-117.81","70.76","ULUKHAKTOK A","2502503","2019-03-04 17:00","2019","03","04","17:00","-17.9","","-19.5","","87","","","M","33","","8","","","M","103.05","","","","-24","","NA"
"-117.81","70.76","ULUKHAKTOK A","2502503","2019-03-04 18:00","2019","03","04","18:00","-21.2","","-23.3","","84","","","M","36","","10","","","M","103.04","","","","-29","","NA"
"-117.81","70.76","ULUKHAKTOK A","2502503","2019-03-04 19:00","2019","03","04","19:00","-18.5","","-21.1","","81","","","M","32","","17","","","M","103.01","","","","-28","","NA"
"-117.81","70.76","ULUKHAKTOK A","2502503","2019-03-04 20:00","2019","03","04","20:00","-17.3","","-20.0","","80","","","M","30","","17","","","M","102.95","","","","-26","","NA"
"-117.81","70.76","ULUKHAKTOK A","2502503","2019-03-04 21:00","2019","03","04","21:00","-18.0","","-20.4","","81","","","M","31","","17","","","M","102.97","","","","-27","","NA"
"-117.81","70.76","ULUKHAKTOK A","2502503","2019-03-04 22:00","2019","03","04","22:00","-18.9","","-21.4","","81","","","M","28","","13","","","M","102.98","","","","-27","","NA"
"-117.81","70.76","ULUKHAKTOK A","2502503","2019-03-04 23:00","2019","03","04","23:00","-18.8","","-21.3","","81","","","M","33","","19","","","M","102.97","","","","-29","","NA"
"-117.81","70.76","ULUKHAKTOK A","2502503","2019-03-05 00:00","2019","03","05","00:00","-20.6","","-22.8","","82","","","M","19","","6","","","M","102.99","","","","-26","","NA"
"-117.81","70.76","ULUKHAKTOK A","2502503","2019-03-05 01:00","2019","03","05","01:00","-20.8","","-23.2","","81","","","M","35","","10","","","M","102.95","","","","-28","","NA"
"-117.81","70.76","ULUKHAKTOK A","2502503","2019-03-05 02:00","2019","03","05","02:00","-19.9","","-22.0","","83","","","M","2","","9","","","M","102.96","","","","-27","","NA"
"-117.81","70.76","ULUKHAKTOK A","2502503","2019-03-05 03:00","2019","03","05","03:00","-19.6","","-21.8","","83","","","M","30","","7","","","M","102.94","","","","-25","","NA"
"-117.81","70.76","ULUKHAKTOK A","2502503","2019-03-05 04:00","2019","03","05","04:00","-22.1","","-24.0","","85","","","M","2","","6","","","M","102.89","","","","-27","","NA"
"-117.81","70.76","ULUKHAKTOK A","2502503","2019-03-05 05:00","2019","03","05","05:00","-22.9","","-26.1","","76","","","M","27","","6","","","M","102.85","","","","-28","","NA"
"-117.81","70.76","ULUKHAKTOK A","2502503","2019-03-05 06:00","2019","03","05","06:00","-23.0","","-25.4","","81","","","M","35","","10","","","M","102.80","","","","-31","","NA"
"-117.81","70.76","ULUKHAKTOK A","2502503","2019-03-05 07:00","2019","03","05","07:00","-23.5","","-26.4","","78","","","M","25","","3","","","M","102.74","","","","-26","","NA"
"-117.81","70.76","ULUKHAKTOK A","2502503","2019-03-05 08:00","2019","03","05","08:00","-22.7","","-25.2","","81","","","M","4","","6","","","M","102.70","","","","-28","","NA"
"-117.81","70.76","ULUKHAKTOK A","2502503","2019-03-05 09:00","2019","03","05","09:00","-22.2","","-24.7","","80","","","M","2","","18","","","M","102.59","","","","-33","","NA"
"-117.81","70.76","ULUKHAKTOK A","2502503","2019-03-05 10:00","2019","03","05","10:00","-20.1","","-22.5","","82","","","M","7","","4","","","M","102.54","","","","-24","","NA"
"-117.81","70.76","ULUKHAKTOK A","2502503","2019-03-05 11:00","2019","03","05","11:00","-18.8","","-20.9","","84","","","M","8","","4","","","M","102.47","","","","-22","","NA"
"-117.81","70.76","ULUKHAKTOK A","2502503","2019-03-05 12:00","2019","03","05","12:00","-17.9","","-20.4","","81","","","M","5","","15","","","M","102.37","","","","-26","","NA"
"-117.81","70.76","ULUKHAKTOK A","2502503","2019-03-05 13:00","2019","03","05","13:00","-17.0","","-19.2","","83","","","M","6","","15","","","M","102.27","","","","-25","","NA"
"-117.81","70.76","ULUKHAKTOK A","2502503","2019-03-05 14:00","2019","03","05","14:00","-16.5","","-18.6","","84","","","M","5","","13","","","M","102.19","","","","-24","","NA"
"-117.81","70.76","ULUKHAKTOK A","2502503","2019-03-05 15:00","2019","03","05","15:00","-15.7","","-17.7","","85","","","M","5","","11","","","M","102.11","","","","-22","","NA"
"-117.81","70.76","ULUKHAKTOK A","2502503","2019-03-05 16:00","2019","03","05","16:00","-14.2","","-15.6","","89","","","M","17","","12","","","M","101.97","","","","-21","","NA"
"-117.81","70.76","ULUKHAKTOK A","2502503","2019-03-05 17:00","2019","03","05","17:00","-14.3","","-16.3","","85","","","M","17","","12","","","M","101.85","","","","-21","","NA"
"-117.81","70.76","ULUKHAKTOK A","2502503","2019-03-05 18:00","2019","03","05","18:00","-14.5","","-16.5","","85","","","M","7","","7","","","M","101.76","","","","-19","","NA"
"-117.81","70.76","ULUKHAKTOK A","2502503","2019-03-05 19:00","2019","03","05","19:00","-15.5","","-17.7","","83","","","M","6","","13","","","M","101.68","","","","-23","","NA"
"-117.81","70.76","ULUKHAKTOK A","2502503","2019-03-05 20:00","2019","03","05","20:00","-15.5","","-17.4","","86","","","M","17","","3","","","M","101.57","","","","-18","","NA"
"-117.81","70.76","ULUKHAKTOK A","2502503","2019-03-05 21:00","2019","03","05","21:00","-15.3","","-17.3","","85","","","M","9","","8","","","M","101.47","","","","-21","","NA"
"-117.81","70.76","ULUKHAKTOK A","2502503","2019-03-05 22:00","2019","03","05","22:00","-15.2","","-17.2","","85","","","M","15","","7","","","M","101.42","","","","-20","","NA"
"-117.81","70.76","ULUKHAKTOK A","2502503","2019-03-05 23:00","2019","03","05","23:00","-15.5","","-17.4","","85","","","M","0","","1","","","M","101.35","","","","-16","","NA"
"-117.81","70.76","ULUKHAKTOK A","2502503","2019-03-06 00:00","2019","03","06","00:00","-15.4","","-17.4","","85","","","M","5","","6","","","M","101.27","","","","-20","","NA"
"-117.81","70.76","ULUKHAKTOK A","2502503","2019-03-06 01:00","2019","03","06","01:00","-15.7","","-17.7","","85","","","M","36","","4","","","M","101.23","","","","-19","","NA"
"-117.81","70.76","ULUKHAKTOK A","2502503","2019-03-06 02:00","2019","03","06","02:00","-15.8","","-17.8","","84","","","M","6","","3","","","M","101.16","","","","-18","","NA"
"-117.81","70.76","ULUKHAKTOK A","2502503","2019-03-06 03:00","2019","03","06","03:00","-15.9","","-17.9","","85","","","M","5","","2","","","M","101.14","","","","-17","","NA"
"-117.81","70.76","ULUKHAKTOK A","2502503","2019-03-06 04:00","2019","03","06","04:00","-15.8","","-17.8","","85","","","M","19","","1","","","M","101.08","","","","-17","","NA"
"-117.81","70.76","ULUKHAKTOK A","2502503","2019-03-06 05:00","2019","03","06","05:00","-16.0","","-18.1","","84","","","M","5","","5","","","M","101.06","","","","-20","","NA"
"-117.81","70.76","ULUKHAKTOK A","2502503","2019-03-06 06:00","2019","03","06","06:00","-16.1","","-18.2","","84","","","M","5","","4","","","M","101.02","","","","-19","","NA"
"-117.81","70.76","ULUKHAKTOK A","2502503","2019-03-06 07:00","2019","03","06","07:00","-16.2","","-18.2","","85","","","M","7","","7","","","M","101.02","","","","-21","","NA"
"-117.81","70.76","ULUKHAKTOK A","2502503","2019-03-06 08:00","2019","03","06","08:00","-15.5","","-17.5","","85","","","M","4","","8","","","M","100.97","","","","-21","","NA"
"-117.81","70.76","ULUKHAKTOK A","2502503","2019-03-06 09:00","2019","03","06","09:00","-15.0","","-16.9","","86","","","M","7","","1","","","M","100.95","","","","-16","","NA"
"-117.81","70.76","ULUKHAKTOK A","2502503","2019-03-06 10:00","2019","03","06","10:00","-14.0","","-15.9","","86","","","M","8","","5","","","M","100.93","","","","-17","","NA"
"-117.81","70.76","ULUKHAKTOK A","2502503","2019-03-06 11:00","2019","03","06","11:00","-13.7","","-15.8","","85","","","M","4","","7","","","M","100.94","","","","-18","","NA"
"-117.81","70.76","ULUKHAKTOK A","2502503","2019-03-06 12:00","2019","03","06","12:00","-12.4","","-14.2","","87","","","M","10","","7","","","M","100.92","","","","-17","","NA"
"-117.81","70.76","ULUKHAKTOK A","2502503","2019-03-06 13:00","2019","03","06","13:00","-12.0","","-13.8","","87","","","M","17","","6","","","M","100.90","","","","-16","","NA"
"-117.81","70.76","ULUKHAKTOK A","2502503","2019-03-06 14:00","2019","03","06","14:00","-11.9","","-14.2","","83","","","M","16","","8","","","M","100.91","","","","-17","","NA"
"-117.81","70.76","ULUKHAKTOK A","2502503","2019-03-06 15:00","2019","03","06","15:00","-12.7","","-15.5","","79","","","M","12","","7","","","M","100.88","","","","-17","","NA"
"-117.81","70.76","ULUKHAKTOK A","2502503","2019-03-06 16:00","2019","03","06","16:00","-13.2","","-15.5","","83","","","M","8","","5","","","M","100.88","","","","-17","","NA"
"-117.81","70.76","ULUKHAKTOK A","2502503","2019-03-06 17:00","2019","03","06","17:00","-14.3","","-16.4","","84","","","M","5","","8","","","M","100.83","","","","-20","","NA"
"-117.81","70.76","ULUKHAKTOK A","2502503","2019-03-06 18:00","2019","03","06","18:00","-15.1","","-17.2","","84","","","M","7","","9","","","M","100.83","","","","-21","","NA"
"-117.81","70.76","ULUKHAKTOK A","2502503","2019-03-06 19:00","2019","03","06","19:00","-15.5","","-17.4","","85","","","M","5","","16","","","M","100.86","","","","-24","","NA"
"-117.81","70.76","ULUKHAKTOK A","2502503","2019-03-06 20:00","2019","03","06","20:00","-16.3","","-18.5","","83","","","M","8","","16","","","M","100.82","","","","-25","","NA"
"-117.81","70.76","ULUKHAKTOK A","2502503","2019-03-06 21:00","2019","03","06","21:00","-16.6","","-18.5","","85","","","M","7","","17","","","M","100.80","","","","-25","","NA"
"-117.81","70.76","ULUKHAKTOK A","2502503","2019-03-06 22:00","2019","03","06","22:00","-16.3","","-18.3","","84","","","M","7","","13","","","M","100.77","","","","-24","","NA"
"-117.81","70.76","ULUKHAKTOK A","2502503","2019-03-06 23:00","2019","03","06","23:00","-15.1","","-16.5","","89","","","M","14","","12","","","M","100.78","","","","-22","","NA"
"-117.81","70.76","ULUKHAKTOK A","2502503","2019-03-07 00:00","2019","03","07","00:00","-14.6","","-16.1","","88","","","M","16","","11","","","M","100.76","","","","-21","","NA"
"-117.81","70.76","ULUKHAKTOK A","2502503","2019-03-07 01:00","2019","03","07","01:00","-14.2","","-15.9","","87","","","M","13","","10","","","M","100.76","","","","-20","","NA"
"-117.81","70.76","ULUKHAKTOK A","2502503","2019-03-07 02:00","2019","03","07","02:00","-14.2","","-15.9","","87","","","M","13","","15","","","M","100.75","","","","-22","","NA"
"-117.81","70.76","ULUKHAKTOK A","2502503","2019-03-07 03:00","2019","03","07","03:00","-14.3","","-16.1","","86","","","M","12","","14","","","M","100.71","","","","-22","","NA"
"-117.81","70.76","ULUKHAKTOK A","2502503","2019-03-07 04:00","2019","03","07","04:00","-14.3","","-16.1","","86","","","M","12","","14","","","M","100.71","","","","-22","","NA"
"-117.81","70.76","ULUKHAKTOK A","2502503","2019-03-07 05:00","2019","03","07","05:00","-14.4","","-16.1","","87","","","M","13","","16","","","M","100.70","","","","-22","","NA"
"-117.81","70.76","ULUKHAKTOK A","2502503","2019-03-07 06:00","2019","03","07","06:00","-14.2","","-16.0","","87","","","M","12","","21","","","M","100.67","","","","-23","","NA"
"-117.81","70.76","ULUKHAKTOK A","2502503","2019-03-07 07:00","2019","03","07","07:00","-14.9","","-16.9","","85","","","M","13","","27","","","M","100.66","","","","-25","","NA"
"-117.81","70.76","ULUKHAKTOK A","2502503","2019-03-07 08:00","2019","03","07","08:00","-15.4","","-17.4","","85","","","M","13","","30","","","M","100.61","","","","-27","","NA"
"-117.81","70.76","ULUKHAKTOK A","2502503","2019-03-07 09:00","2019","03","07","09:00","-15.9","","-18.0","","84","","","M","12","","23","","","M","100.60","","","","-26","","NA"
"-117.81","70.76","ULUKHAKTOK A","2502503","2019-03-07 10:00","2019","03","07","10:00","-15.8","","-18.2","","82","","","M","13","","30","","","M","100.60","","","","-27","","NA"
"-117.81","70.76","ULUKHAKTOK A","2502503","2019-03-07 11:00","2019","03","07","11:00","-15.4","","-17.6","","84","","","M","11","","30","","","M","100.56","","","","-27","","NA"
"-117.81","70.76","ULUKHAKTOK A","2502503","2019-03-07 12:00","2019","03","07","12:00","-15.1","","-17.3","","83","","","M","12","","28","","","M","100.50","","","","-26","","NA"
"-117.81","70.76","ULUKHAKTOK A","2502503","2019-03-07 13:00","2019","03","07","13:00","-14.9","","-17.4","","82","","","M","11","","26","","","M","100.51","","","","-25","","NA"
"-117.81","70.76","ULUKHAKTOK A","2502503","2019-03-07 14:00","2019","03","07","14:00","-14.8","","-17.4","","81","","","M","10","","30","","","M","100.47","","","","-26","","NA"
"-117.81","70.76","ULUKHAKTOK A","2502503","2019-03-07 15:00","2019","03","07","15:00","-15.0","","-17.8","","79","","","M","10","","30","","","M","100.41","","","","-26","","NA"
"-117.81","70.76","ULUKHAKTOK A","2502503","2019-03-07 16:00","2019","03","07","16:00","-15.3","","-18.0","","80","","","M","9","","37","","","M","100.36","","","","-27","","NA"
"-117.81","70.76","ULUKHAKTOK A","2502503","2019-03-07 17:00","2019","03","07","17:00","-15.7","","-18.4","","79","","","M","10","","34","","","M","100.35","","","","-28","","NA"
"-117.81","70.76","ULUKHAKTOK A","2502503","2019-03-07 18:00","2019","03","07","18:00","-15.7","","-18.5","","80","","","M","9","","28","","","M","100.35","","","","-27","","NA"
"-117.81","70.76","ULUKHAKTOK A","2502503","2019-03-07 19:00","2019","03","07","19:00","-15.9","","-18.9","","78","","","M","12","","29","","","M","100.37","","","","-27","","NA"
"-117.81","70.76","ULUKHAKTOK A","2502503","2019-03-07 20:00","2019","03","07","20:00","-16.2","","-19.0","","79","","","M","9","","26","","","M","100.39","","","","-27","","NA"
"-117.81","70.76","ULUKHAKTOK A","2502503","2019-03-07 21:00","2019","03","07","21:00","-16.2","","-19.1","","78","","","M","9","","26","","","M","100.39","","","","-27","","NA"
"-117.81","70.76","ULUKHAKTOK A","2502503","2019-03-07 22:00","2019","03","07","22:00","-16.4","","-19.6","","77","","","M","10","","30","","","M","100.39","","","","-28","","NA"
"-117.81","70.76","ULUKHAKTOK A","2502503","2019-03-07 23:00","2019","03","07","23:00","-16.9","","-20.2","","76","","","M","11","","17","","","M","100.40","","","","-26","","NA"
"-117.81","70.76","ULUKHAKTOK A","2502503","2019-03-08 00:00","2019","03","08","00:00","-18.1","","-20.6","","81","","","M","12","","12","","","M","100.43","","","","-26","","NA"
"-117.81","70.76","ULUKHAKTOK A","2502503","2019-03-08 01:00","2019","03","08","01:00","-18.0","","-21.1","","77","","","M","8","","7","","","M","100.46","","","","-23","","NA"
"-117.81","70.76","ULUKHAKTOK A","2502503","2019-03-08 02:00","2019","03","08","02:00","-18.5","","-21.6","","77","","","M","10","","14","","","M","100.50","","","","-27","","NA"
"-117.81","70.76","ULUKHAKTOK A","2502503","2019-03-08 03:00","2019","03","08","03:00","-19.2","","-22.4","","76","","","M","8","","9","","","M","100.56","","","","-26","","NA"
"-117.81","70.76","ULUKHAKTOK A","2502503","2019-03-08 04:00","2019","03","08","04:00","-19.6","","-22.4","","79","","","M","6","","7","","","M","100.60","","","","-25","","NA"
"-117.81","70.76","ULUKHAKTOK A","2502503","2019-03-08 05:00","2019","03","08","05:00","-19.4","","-22.7","","76","","","M","10","","7","","","M","100.59","","","","-25","","NA"
"-117.81","70.76","ULUKHAKTOK A","2502503","2019-03-08 06:00","2019","03","08","06:00","-21.3","","-24.3","","77","","","M","2","","1","","","M","100.63","","","","-22","","NA"
"-117.81","70.76","ULUKHAKTOK A","2502503","2019-03-08 07:00","2019","03","08","07:00","-20.7","","-23.3","","80","","","M","36","","5","","","M","100.65","","","","-25","","NA"
"-117.81","70.76","ULUKHAKTOK A","2502503","2019-03-08 08:00","2019","03","08","08:00","-22.9","","-25.3","","81","","","M","36","","3","","","M","100.70","","","","-26","","NA"
"-117.81","70.76","ULUKHAKTOK A","2502503","2019-03-08 09:00","2019","03","08","09:00","-25.5","","-28.6","","75","","","M","1","","7","","","M","100.75","","","","-32","","NA"
"-117.81","70.76","ULUKHAKTOK A","2502503","2019-03-08 10:00","2019","03","08","10:00","-23.3","","-27.3","","70","","","M","4","","5","","","M","100.76","","","","-28","","NA"
"-117.81","70.76","ULUKHAKTOK A","2502503","2019-03-08 11:00","2019","03","08","11:00","-21.8","","-26.0","","69","","","M","35","","3","","","M","100.80","","","","-25","","NA"
"-117.81","70.76","ULUKHAKTOK A","2502503","2019-03-08 12:00","2019","03","08","12:00","-21.7","","-26.9","","64","","","M","3","","5","","","M","100.84","","","","-26","","NA"
"-117.81","70.76","ULUKHAKTOK A","2502503","2019-03-08 13:00","2019","03","08","13:00","-22.4","","-27.0","","67","","","M","1","","8","","","M","100.86","","","","-29","","NA"
"-117.81","70.76","ULUKHAKTOK A","2502503","2019-03-08 14:00","2019","03","08","14:00","-20.8","","-27.4","","56","","","M","35","","9","","","M","100.92","","","","-28","","NA"
"-117.81","70.76","ULUKHAKTOK A","2502503","2019-03-08 15:00","2019","03","08","15:00","-20.9","","-25.9","","64","","","M","36","","1","","","M","100.93","","","","-22","","NA"
"-117.81","70.76","ULUKHAKTOK A","2502503","2019-03-08 16:00","2019","03","08","16:00","-20.2","","-24.8","","67","","","M","5","","8","","","M","100.92","","","","-26","","NA"
"-117.81","70.76","ULUKHAKTOK A","2502503","2019-03-08 17:00","2019","03","08","17:00","-23.5","","-27.2","","72","","","M","2","","9","","","M","100.93","","","","-31","","NA"
"-117.81","70.76","ULUKHAKTOK A","2502503","2019-03-08 18:00","2019","03","08","18:00","-25.0","","-27.4","","81","","","M","4","","11","","","M","100.97","","","","-34","","NA"
"-117.81","70.76","ULUKHAKTOK A","2502503","2019-03-08 19:00","2019","03","08","19:00","-24.1","","-26.8","","79","","","M","3","","8","","","M","101.02","","","","-31","","NA"
"-117.81","70.76","ULUKHAKTOK A","2502503","2019-03-08 20:00","2019","03","08","20:00","-25.0","","-27.7","","79","","","M","4","","14","","","M","100.98","","","","-35","","NA"
"-117.81","70.76","ULUKHAKTOK A","2502503","2019-03-08 21:00","2019","03","08","21:00","-25.7","","-28.5","","78","","","M","4","","16","","","M","100.97","","","","-36","","NA"
"-117.81","70.76","ULUKHAKTOK A","2502503","2019-03-08 22:00","2019","03","08","22:00","-26.1","","-28.9","","78","","","M","4","","16","","","M","100.99","","","","-37","","NA"
"-117.81","70.76","ULUKHAKTOK A","2502503","2019-03-08 23:00","2019","03","08","23:00","-26.0","","-28.9","","78","","","M","4","","14","","","M","101.07","","","","-36","","NA"
"-117.81","70.76","ULUKHAKTOK A","2502503","2019-03-09 00:00","2019","03","09","00:00","-22.8","","-25.4","","79","","","M","5","","17","","","M","101.03","","","","-33","","NA"
"-117.81","70.76","ULUKHAKTOK A","2502503","2019-03-09 01:00","2019","03","09","01:00","-21.5","","-24.0","","81","","","M","5","","12","","","M","101.06","","","","-30","","NA"
"-117.81","70.76","ULUKHAKTOK A","2502503","2019-03-09 02:00","2019","03","09","02:00","-21.1","","-23.7","","80","","","M","6","","14","","","M","101.04","","","","-30","","NA"
"-117.81","70.76","ULUKHAKTOK A","2502503","2019-03-09 03:00","2019","03","09","03:00","-20.6","","-23.2","","80","","","M","5","","14","","","M","101.03","","","","-29","","NA"
"-117.81","70.76","ULUKHAKTOK A","2502503","2019-03-09 04:00","2019","03","09","04:00","-20.4","","-22.9","","81","","","M","5","","15","","","M","101.01","","","","-30","","NA"
"-117.81","70.76","ULUKHAKTOK A","2502503","2019-03-09 05:00","2019","03","09","05:00","-20.3","","-22.9","","80","","","M","6","","12","","","M","100.96","","","","-28","","NA"
"-117.81","70.76","ULUKHAKTOK A","2502503","2019-03-09 06:00","2019","03","09","06:00","-19.5","","-22.1","","80","","","M","13","","12","","","M","100.97","","","","-27","","NA"
"-117.81","70.76","ULUKHAKTOK A","2502503","2019-03-09 07:00","2019","03","09","07:00","-19.9","","-22.4","","80","","","M","11","","12","","","M","100.92","","","","-28","","NA"
"-117.81","70.76","ULUKHAKTOK A","2502503","2019-03-09 08:00","2019","03","09","08:00","-19.7","","-22.1","","82","","","M","11","","19","","","M","100.88","","","","-30","","NA"
"-117.81","70.76","ULUKHAKTOK A","2502503","2019-03-09 09:00","2019","03","09","09:00","-19.6","","-22.4","","79","","","M","9","","14","","","M","100.86","","","","-28","","NA"
"-117.81","70.76","ULUKHAKTOK A","2502503","2019-03-09 10:00","2019","03","09","10:00","-19.3","","-22.6","","76","","","M","8","","13","","","M","100.80","","","","-28","","NA"
"-117.81","70.76","ULUKHAKTOK A","2502503","2019-03-09 11:00","2019","03","09","11:00","-18.8","","-22.1","","76","","","M","10","","24","","","M","100.74","","","","-30","","NA"
"-117.81","70.76","ULUKHAKTOK A","2502503","2019-03-09 12:00","2019","03","09","12:00","-18.3","","-21.6","","75","","","M","10","","22","","","M","100.65","","","","-29","","NA"
"-117.81","70.76","ULUKHAKTOK A","2502503","2019-03-09 13:00","2019","03","09","13:00","-17.8","","-21.4","","74","","","M","8","","10","","","M","100.57","","","","-25","","NA"
"-117.81","70.76","ULUKHAKTOK A","2502503","2019-03-09 14:00","2019","03","09","14:00","-17.4","","-20.7","","75","","","M","9","","25","","","M","100.48","","","","-28","","NA"
"-117.81","70.76","ULUKHAKTOK A","2502503","2019-03-09 15:00","2019","03","09","15:00","-16.9","","-20.3","","76","","","M","10","","30","","","M","100.37","","","","-29","","NA"
"-117.81","70.76","ULUKHAKTOK A","2502503","2019-03-09 16:00","2019","03","09","16:00","-17.0","","-20.2","","76","","","M","10","","32","","","M","100.29","","","","-29","","NA"
"-117.81","70.76","ULUKHAKTOK A","2502503","2019-03-09 17:00","2019","03","09","17:00","-16.9","","-20.0","","77","","","M","9","","40","","","M","100.16","","","","-30","","NA"
"-117.81","70.76","ULUKHAKTOK A","2502503","2019-03-09 18:00","2019","03","09","18:00","-16.7","","-19.7","","78","","","M","8","","41","","","M","100.09","","","","-30","","NA"
"-117.81","70.76","ULUKHAKTOK A","2502503","2019-03-09 19:00","2019","03","09","19:00","-16.1","","-19.4","","76","","","M","10","","38","","","M","100.01","","","","-29","","NA"
"-117.81","70.76","ULUKHAKTOK A","2502503","2019-03-09 20:00","2019","03","09","20:00","-16.0","","-19.3","","76","","","M","10","","32","","","M","99.95","","","","-28","","NA"
"-117.81","70.76","ULUKHAKTOK A","2502503","2019-03-09 21:00","2019","03","09","21:00","-16.3","","-19.4","","77","","","M","9","","34","","","M","99.86","","","","-28","","NA"
"-117.81","70.76","ULUKHAKTOK A","2502503","2019-03-09 22:00","2019","03","09","22:00","-16.1","","-19.4","","77","","","M","10","","28","","","M","99.79","","","","-27","","NA"
"-117.81","70.76","ULUKHAKTOK A","2502503","2019-03-09 23:00","2019","03","09","23:00","-16.2","","-19.3","","77","","","M","10","","30","","","M","99.71","","","","-28","","NA"
"-117.81","70.76","ULUKHAKTOK A","2502503","2019-03-10 00:00","2019","03","10","00:00","-16.2","","-19.0","","79","","","M","10","","31","","","M","99.63","","","","-28","","NA"
"-117.81","70.76","ULUKHAKTOK A","2502503","2019-03-10 01:00","2019","03","10","01:00","-16.3","","-19.3","","78","","","M","9","","35","","","M","99.58","","","","-29","","NA"
"-117.81","70.76","ULUKHAKTOK A","2502503","2019-03-10 02:00","2019","03","10","02:00","-16.0","","-19.0","","78","","","M","9","","32","","","M","99.53","","","","-28","","NA"
"-117.81","70.76","ULUKHAKTOK A","2502503","2019-03-10 03:00","2019","03","10","03:00","-15.8","","-18.6","","79","","","M","10","","27","","","M","99.48","","","","-27","","NA"
"-117.81","70.76","ULUKHAKTOK A","2502503","2019-03-10 04:00","2019","03","10","04:00","-15.8","","-18.8","","78","","","M","8","","19","","","M","99.44","","","","-25","","NA"
"-117.81","70.76","ULUKHAKTOK A","2502503","2019-03-10 05:00","2019","03","10","05:00","-16.0","","-18.8","","79","","","M","10","","26","","","M","99.37","","","","-27","","NA"
"-117.81","70.76","ULUKHAKTOK A","2502503","2019-03-10 06:00","2019","03","10","06:00","-15.8","","-18.5","","80","","","M","10","","29","","","M","99.32","","","","-27","","NA"
"-117.81","70.76","ULUKHAKTOK A","2502503","2019-03-10 07:00","2019","03","10","07:00","-15.7","","-18.4","","80","","","M","10","","29","","","M","99.29","","","","-27","","NA"
"-117.81","70.76","ULUKHAKTOK A","2502503","2019-03-10 08:00","2019","03","10","08:00","-15.5","","-18.2","","80","","","M","11","","25","","","M","99.25","","","","-26","","NA"
"-117.81","70.76","ULUKHAKTOK A","2502503","2019-03-10 09:00","2019","03","10","09:00","-15.3","","-18.5","","77","","","M","10","","16","","","M","99.24","","","","-24","","NA"
"-117.81","70.76","ULUKHAKTOK A","2502503","2019-03-10 10:00","2019","03","10","10:00","-14.4","","-17.6","","77","","","M","11","","16","","","M","99.24","","","","-22","","NA"
"-117.81","70.76","ULUKHAKTOK A","2502503","2019-03-10 11:00","2019","03","10","11:00","-14.4","","-17.4","","78","","","M","10","","21","","","M","99.21","","","","-24","","NA"
"-117.81","70.76","ULUKHAKTOK A","2502503","2019-03-10 12:00","2019","03","10","12:00","-13.0","","-16.3","","76","","","M","10","","16","","","M","99.15","","","","-21","","NA"
"-117.81","70.76","ULUKHAKTOK A","2502503","2019-03-10 13:00","2019","03","10","13:00","-12.9","","-16.2","","77","","","M","9","","11","","","M","99.15","","","","-19","","NA"
"-117.81","70.76","ULUKHAKTOK A","2502503","2019-03-10 14:00","2019","03","10","14:00","-12.3","","-15.8","","75","","","M","11","","12","","","M","99.13","","","","-19","","NA"
"-117.81","70.76","ULUKHAKTOK A","2502503","2019-03-10 15:00","2019","03","10","15:00","-12.0","","-15.3","","77","","","M","9","","4","","","M","99.12","","","","-15","","NA"
"-117.81","70.76","ULUKHAKTOK A","2502503","2019-03-10 16:00","2019","03","10","16:00","-12.5","","-15.5","","79","","","M","12","","12","","","M","99.08","","","","-19","","NA"
"-117.81","70.76","ULUKHAKTOK A","2502503","2019-03-10 17:00","2019","03","10","17:00","-12.8","","-15.1","","83","","","M","12","","13","","","M","99.05","","","","-20","","NA"
"-117.81","70.76","ULUKHAKTOK A","2502503","2019-03-10 18:00","2019","03","10","18:00","-13.0","","-14.9","","86","","","M","11","","9","","","M","99.05","","","","-18","","NA"
"-117.81","70.76","ULUKHAKTOK A","2502503","2019-03-10 19:00","2019","03","10","19:00","-13.0","","-14.4","","89","","","M","10","","13","","","M","99.00","","","","-20","","NA"
"-117.81","70.76","ULUKHAKTOK A","2502503","2019-03-10 20:00","2019","03","10","20:00","-13.4","","-14.9","","88","","","M","7","","14","","","M","98.99","","","","-21","","NA"
"-117.81","70.76","ULUKHAKTOK A","2502503","2019-03-10 21:00","2019","03","10","21:00","-13.3","","-14.7","","89","","","M","8","","17","","","M","98.96","","","","-21","","NA"
"-117.81","70.76","ULUKHAKTOK A","2502503","2019-03-10 22:00","2019","03","10","22:00","-12.8","","-14.5","","88","","","M","6","","14","","","M","98.98","","","","-20","","NA"
"-117.81","70.76","ULUKHAKTOK A","2502503","2019-03-10 23:00","2019","03","10","23:00","-13.0","","-15.0","","85","","","M","10","","14","","","M","98.96","","","","-20","","NA"
"-117.81","70.76","ULUKHAKTOK A","2502503","2019-03-11 00:00","2019","03","11","00:00","-12.7","","-14.4","","88","","","M","10","","30","","","M","98.92","","","","-23","","NA"
"-117.81","70.76","ULUKHAKTOK A","2502503","2019-03-11 01:00","2019","03","11","01:00","-12.8","","-14.4","","88","","","M","11","","25","","","M","98.92","","","","-22","","NA"
"-117.81","70.76","ULUKHAKTOK A","2502503","2019-03-11 02:00","2019","03","11","02:00","-12.9","","-14.1","","91","","","M","11","","26","","","M","98.90","","","","-23","","NA"
"-117.81","70.76","ULUKHAKTOK A","2502503","2019-03-11 03:00","2019","03","11","03:00","-12.9","","-14.3","","89","","","M","9","","17","","","M","98.83","","","","-21","","NA"
"-117.81","70.76","ULUKHAKTOK A","2502503","2019-03-11 04:00","2019","03","11","04:00","-13.6","","-15.5","","86","","","M","10","","19","","","M","98.83","","","","-22","","NA"
"-117.81","70.76","ULUKHAKTOK A","2502503","2019-03-11 05:00","2019","03","11","05:00","-14.7","","-16.6","","85","","","M","13","","11","","","M","98.84","","","","-21","","NA"
"-117.81","70.76","ULUKHAKTOK A","2502503","2019-03-11 06:00","2019","03","11","06:00","-14.5","","-16.2","","87","","","M","12","","12","","","M","98.85","","","","-21","","NA"
"-117.81","70.76","ULUKHAKTOK A","2502503","2019-03-11 07:00","2019","03","11","07:00","-13.4","","-15.2","","86","","","M","11","","35","","","M","98.84","","","","-25","","NA"
"-117.81","70.76","ULUKHAKTOK A","2502503","2019-03-11 08:00","2019","03","11","08:00","-13.2","","-15.5","","83","","","M","10","","34","","","M","98.79","","","","-24","","NA"
"-117.81","70.76","ULUKHAKTOK A","2502503","2019-03-11 09:00","2019","03","11","09:00","-13.5","","-16.0","","82","","","M","8","","37","","","M","98.76","","","","-25","","NA"
"-117.81","70.76","ULUKHAKTOK A","2502503","2019-03-11 10:00","2019","03","11","10:00","-13.1","","-15.5","","82","","","M","9","","39","","","M","98.77","","","","-25","","NA"
"-117.81","70.76","ULUKHAKTOK A","2502503","2019-03-11 11:00","2019","03","11","11:00","-12.3","","-15.2","","79","","","M","9","","27","","","M","98.78","","","","-22","","NA"
"-117.81","70.76","ULUKHAKTOK A","2502503","2019-03-11 12:00","2019","03","11","12:00","-11.6","","-14.7","","78","","","M","10","","32","","","M","98.72","","","","-22","","NA"
"-117.81","70.76","ULUKHAKTOK A","2502503","2019-03-11 13:00","2019","03","11","13:00","-10.9","","-14.5","","75","","","M","9","","25","","","M","98.77","","","","-20","","NA"
"-117.81","70.76","ULUKHAKTOK A","2502503","2019-03-11 14:00","2019","03","11","14:00","-11.0","","-14.0","","78","","","M","10","","27","","","M","98.78","","","","-20","","NA"
"-117.81","70.76","ULUKHAKTOK A","2502503","2019-03-11 15:00","2019","03","11","15:00","-10.6","","-13.5","","79","","","M","10","","31","","","M","98.81","","","","-20","","NA"
"-117.81","70.76","ULUKHAKTOK A","2502503","2019-03-11 16:00","2019","03","11","16:00","-10.4","","-13.7","","77","","","M","10","","27","","","M","98.83","","","","-20","","NA"
"-117.81","70.76","ULUKHAKTOK A","2502503","2019-03-11 17:00","2019","03","11","17:00","-11.0","","-14.1","","78","","","M","11","","31","","","M","98.88","","","","-21","","NA"
"-117.81","70.76","ULUKHAKTOK A","2502503","2019-03-11 18:00","2019","03","11","18:00","-12.1","","-14.6","","82","","","M","10","","17","","","M","98.92","","","","-20","","NA"
"-117.81","70.76","ULUKHAKTOK A","2502503","2019-03-11 19:00","2019","03","11","19:00","-11.7","","-14.1","","82","","","M","9","","21","","","M","98.94","","","","-20","","NA"
"-117.81","70.76","ULUKHAKTOK A","2502503","2019-03-11 20:00","2019","03","11","20:00","-11.7","","-13.9","","84","","","M","10","","25","","","M","99.00","","","","-21","","NA"
"-117.81","70.76","ULUKHAKTOK A","2502503","2019-03-11 21:00","2019","03","11","21:00","-12.4","","-14.6","","84","","","M","10","","25","","","M","99.07","","","","-22","","NA"
"-117.81","70.76","ULUKHAKTOK A","2502503","2019-03-11 22:00","2019","03","11","22:00","-12.1","","-14.0","","86","","","M","10","","22","","","M","99.08","","","","-21","","NA"
"-117.81","70.76","ULUKHAKTOK A","2502503","2019-03-11 23:00","2019","03","11","23:00","-10.9","","-13.2","","84","","","M","10","","26","","","M","99.08","","","","-20","","NA"
"-117.81","70.76","ULUKHAKTOK A","2502503","2019-03-12 00:00","2019","03","12","00:00","-10.9","","-12.9","","85","","","M","10","","24","","","M","99.12","","","","-20","","NA"
"-117.81","70.76","ULUKHAKTOK A","2502503","2019-03-12 01:00","2019","03","12","01:00","-11.4","","-13.4","","86","","","M","10","","26","","","M","99.16","","","","-21","","NA"
"-117.81","70.76","ULUKHAKTOK A","2502503","2019-03-12 02:00","2019","03","12","02:00","-11.3","","-13.6","","84","","","M","10","","13","","","M","99.24","","","","-18","","NA"
"-117.81","70.76","ULUKHAKTOK A","2502503","2019-03-12 03:00","2019","03","12","03:00","-11.9","","-14.1","","84","","","M","11","","17","","","M","99.32","","","","-20","","NA"
"-117.81","70.76","ULUKHAKTOK A","2502503","2019-03-12 04:00","2019","03","12","04:00","-12.1","","-14.1","","85","","","M","26","","11","","","M","99.38","","","","-18","","NA"
"-117.81","70.76","ULUKHAKTOK A","2502503","2019-03-12 05:00","2019","03","12","05:00","-12.8","","-14.8","","85","","","M","27","","12","","","M","99.47","","","","-19","","NA"
"-117.81","70.76","ULUKHAKTOK A","2502503","2019-03-12 06:00","2019","03","12","06:00","-13.2","","-15.1","","86","","","M","21","","13","","","M","99.54","","","","-20","","NA"
"-117.81","70.76","ULUKHAKTOK A","2502503","2019-03-12 07:00","2019","03","12","07:00","-13.9","","-15.7","","87","","","M","19","","12","","","M","99.61","","","","-21","","NA"
"-117.81","70.76","ULUKHAKTOK A","2502503","2019-03-12 08:00","2019","03","12","08:00","-14.5","","-16.3","","86","","","M","18","","10","","","M","99.66","","","","-21","","NA"
"-117.81","70.76","ULUKHAKTOK A","2502503","2019-03-12 09:00","2019","03","12","09:00","-14.6","","-17.0","","82","","","M","16","","7","","","M","99.73","","","","-19","","NA"
"-117.81","70.76","ULUKHAKTOK A","2502503","2019-03-12 10:00","2019","03","12","10:00","-13.9","","-16.4","","82","","","M","30","","4","","","M","99.80","","","","-17","","NA"
"-117.81","70.76","ULUKHAKTOK A","2502503","2019-03-12 11:00","2019","03","12","11:00","-17.9","","-21.3","","75","","","M","1","","21","","","M","99.89","","","","-28","","NA"
"-117.81","70.76","ULUKHAKTOK A","2502503","2019-03-12 12:00","2019","03","12","12:00"
"-117.81","70.76","ULUKHAKTOK A","2502503","2019-03-12 13:00","2019","03","12","13:00","-17.2","","-21.8","","68","","","M","36","","25","","","M","100.05","","","","-28","","NA"
"-117.81","70.76","ULUKHAKTOK A","2502503","2019-03-12 14:00","2019","03","12","14:00","-18.4","","-22.8","","68","","","M","34","","22","","","M","100.16","","","","-29","","NA"
"-117.81","70.76","ULUKHAKTOK A","2502503","2019-03-12 15:00","2019","03","12","15:00","-19.9","","-24.9","","65","","","M","35","","25","","","M","100.25","","","","-31","","NA"
"-117.81","70.76","ULUKHAKTOK A","2502503","2019-03-12 16:00","2019","03","12","16:00","-20.2","","-25.2","","65","","","M","36","","16","","","M","100.38","","","","-30","","NA"
"-117.81","70.76","ULUKHAKTOK A","2502503","2019-03-12 17:00","2019","03","12","17:00","-21.7","","-26.6","","65","","","M","36","","13","","","M","100.48","","","","-30","","NA"
"-117.81","70.76","ULUKHAKTOK A","2502503","2019-03-12 18:00","2019","03","12","18:00","-22.7","","-27.4","","66","","","M","1","","19","","","M","100.58","","","","-34","","NA"
"-117.81","70.76","ULUKHAKTOK A","2502503","2019-03-12 19:00","2019","03","12","19:00","-24.7","","-29.2","","67","","","M","1","","10","","","M","100.69","","","","-33","","NA"
"-117.81","70.76","ULUKHAKTOK A","2502503","2019-03-12 20:00","2019","03","12","20:00","-25.2","","-29.6","","67","","","M","35","","16","","","M","100.77","","","","-36","","NA"
"-117.81","70.76","ULUKHAKTOK A","2502503","2019-03-12 21:00","2019","03","12","21:00","-26.6","","-30.5","","70","","","M","34","","5","","","M","100.83","","","","-32","","NA"
"-117.81","70.76","ULUKHAKTOK A","2502503","2019-03-12 22:00","2019","03","12","22:00","-25.4","","-29.8","","68","","","M","35","","14","","","M","100.88","","","","-35","","NA"
"-117.81","70.76","ULUKHAKTOK A","2502503","2019-03-12 23:00","2019","03","12","23:00","-25.1","","-29.3","","69","","","M","35","","14","","","M","100.96","","","","-35","","NA"
"-117.81","70.76","ULUKHAKTOK A","2502503","2019-03-13 00:00","2019","03","13","00:00","-26.6","","-29.6","","76","","","M","2","","10","","","M","101.01","","","","-35","","NA"
"-117.81","70.76","ULUKHAKTOK A","2502503","2019-03-13 01:00","2019","03","13","01:00","-25.0","","-28.7","","72","","","M","34","","7","","","M","101.07","","","","-31","","NA"
"-117.81","70.76","ULUKHAKTOK A","2502503","2019-03-13 02:00","2019","03","13","02:00","-23.0","","-26.9","","71","","","M","31","","14","","","M","101.15","","","","-32","","NA"
"-117.81","70.76","ULUKHAKTOK A","2502503","2019-03-13 03:00","2019","03","13","03:00","-23.0","","-26.9","","71","","","M","30","","10","","","M","101.19","","","","-31","","NA"
"-117.81","70.76","ULUKHAKTOK A","2502503","2019-03-13 04:00","2019","03","13","04:00","-22.8","","-26.8","","70","","","M","30","","7","","","M","101.21","","","","-29","","NA"
"-117.81","70.76","ULUKHAKTOK A","2502503","2019-03-13 05:00","2019","03","13","05:00","-24.4","","-27.9","","74","","","M","32","","9","","","M","101.24","","","","-32","","NA"
"-117.81","70.76","ULUKHAKTOK A","2502503","2019-03-13 06:00","2019","03","13","06:00","-23.5","","-27.1","","73","","","M","32","","6","","","M","101.27","","","","-29","","NA"
"-117.81","70.76","ULUKHAKTOK A","2502503","2019-03-13 07:00","2019","03","13","07:00","-23.5","","-27.4","","71","","","M","31","","9","","","M","101.33","","","","-31","","NA"
"-117.81","70.76","ULUKHAKTOK A","2502503","2019-03-13 08:00","2019","03","13","08:00","-23.2","","-26.6","","74","","","M","30","","9","","","M","101.39","","","","-31","","NA"
"-117.81","70.76","ULUKHAKTOK A","2502503","2019-03-13 09:00","2019","03","13","09:00","-22.2","","-26.4","","69","","","M","2","","8","","","M","101.44","","","","-29","","NA"
"-117.81","70.76","ULUKHAKTOK A","2502503","2019-03-13 10:00","2019","03","13","10:00","-22.4","","-27.1","","66","","","M","36","","13","","","M","101.49","","","","-31","","NA"
"-117.81","70.76","ULUKHAKTOK A","2502503","2019-03-13 11:00","2019","03","13","11:00","-23.0","","-28.6","","61","","","M","2","","15","","","M","101.54","","","","-33","","NA"
"-117.81","70.76","ULUKHAKTOK A","2502503","2019-03-13 12:00","2019","03","13","12:00","-22.4","","-28.3","","60","","","M","1","","16","","","M","101.61","","","","-32","","NA"
"-117.81","70.76","ULUKHAKTOK A","2502503","2019-03-13 13:00","2019","03","13","13:00","-22.6","","-28.6","","59","","","M","1","","15","","","M","101.69","","","","-32","","NA"
"-117.81","70.76","ULUKHAKTOK A","2502503","2019-03-13 14:00","2019","03","13","14:00","-22.3","","-28.6","","57","","","M","2","","15","","","M","101.75","","","","-32","","NA"
"-117.81","70.76","ULUKHAKTOK A","2502503","2019-03-13 15:00","2019","03","13","15:00","-23.7","","-29.3","","61","","","M","1","","15","","","M","101.81","","","","-34","","NA"
"-117.81","70.76","ULUKHAKTOK A","2502503","2019-03-13 16:00","2019","03","13","16:00","-24.6","","-29.5","","64","","","M","36","","18","","","M","101.88","","","","-36","","NA"
"-117.81","70.76","ULUKHAKTOK A","2502503","2019-03-13 17:00","2019","03","13","17:00","-25.8","","-30.5","","65","","","M","34","","17","","","M","101.91","","","","-37","","NA"
"-117.81","70.76","ULUKHAKTOK A","2502503","2019-03-13 18:00","2019","03","13","18:00","-27.6","","-32.3","","65","","","M","34","","14","","","M","101.96","","","","-38","","NA"
"-117.81","70.76","ULUKHAKTOK A","2502503","2019-03-13 19:00","2019","03","13","19:00","-30.1","","-33.8","","71","","","M","1","","10","","","M","102.04","","","","-39","","NA"
"-117.81","70.76","ULUKHAKTOK A","2502503","2019-03-13 20:00","2019","03","13","20:00","-28.3","","-31.8","","72","","","M","3","","11","","","M","102.08","","","","-38","","NA"
"-117.81","70.76","ULUKHAKTOK A","2502503","2019-03-13 21:00","2019","03","13","21:00","-28.3","","-32.0","","71","","","M","5","","7","","","M","102.13","","","","-35","","NA"
"-117.81","70.76","ULUKHAKTOK A","2502503","2019-03-13 22:00","2019","03","13","22:00","-28.2","","-31.9","","71","","","M","2","","11","","","M","102.14","","","","-38","","NA"
"-117.81","70.76","ULUKHAKTOK A","2502503","2019-03-13 23:00","2019","03","13","23:00","-28.2","","-32.5","","68","","","M","7","","9","","","M","102.18","","","","-36","","NA"
"-117.81","70.76","ULUKHAKTOK A","2502503","2019-03-14 00:00","2019","03","14","00:00","-30.1","","-34.9","","64","","","M","4","","11","","","M","102.22","","","","-40","","NA"
"-117.81","70.76","ULUKHAKTOK A","2502503","2019-03-14 01:00","2019","03","14","01:00","-29.9","","-33.9","","69","","","M","3","","14","","","M","102.27","","","","-41","","NA"
"-117.81","70.76","ULUKHAKTOK A","2502503","2019-03-14 02:00","2019","03","14","02:00","-29.8","","-33.5","","71","","","M","3","","13","","","M","102.29","","","","-40","","NA"
"-117.81","70.76","ULUKHAKTOK A","2502503","2019-03-14 03:00","2019","03","14","03:00","-31.0","","-34.6","","72","","","M","4","","14","","","M","102.32","","","","-42","","NA"
"-117.81","70.76","ULUKHAKTOK A","2502503","2019-03-14 04:00","2019","03","14","04:00","-31.1","","-34.5","","73","","","M","3","","16","","","M","102.36","","","","-43","","NA"
"-117.81","70.76","ULUKHAKTOK A","2502503","2019-03-14 05:00","2019","03","14","05:00","-31.5","","-34.9","","73","","","M","3","","18","","","M","102.37","","","","-44","","NA"
"-117.81","70.76","ULUKHAKTOK A","2502503","2019-03-14 06:00","2019","03","14","06:00","-31.5","","-34.6","","75","","","M","4","","10","","","M","102.38","","","","-41","","NA"
"-117.81","70.76","ULUKHAKTOK A","2502503","2019-03-14 07:00","2019","03","14","07:00","-31.0","","-34.0","","76","","","M","3","","16","","","M","102.40","","","","-43","","NA"
"-117.81","70.76","ULUKHAKTOK A","2502503","2019-03-14 08:00","2019","03","14","08:00","-30.4","","-33.8","","73","","","M","4","","16","","","M","102.39","","","","-42","","NA"
"-117.81","70.76","ULUKHAKTOK A","2502503","2019-03-14 09:00","2019","03","14","09:00","-28.9","","-32.9","","69","","","M","4","","14","","","M","102.37","","","","-40","","NA"
"-117.81","70.76","ULUKHAKTOK A","2502503","2019-03-14 10:00","2019","03","14","10:00","-27.4","","-32.3","","64","","","M","5","","12","","","M","102.38","","","","-37","","NA"
"-117.81","70.76","ULUKHAKTOK A","2502503","2019-03-14 11:00","2019","03","14","11:00","-26.5","","-31.8","","62","","","M","4","","13","","","M","102.40","","","","-36","","NA"
"-117.81","70.76","ULUKHAKTOK A","2502503","2019-03-14 12:00","2019","03","14","12:00","-26.0","","-31.6","","60","","","M","4","","17","","","M","102.40","","","","-37","","NA"
"-117.81","70.76","ULUKHAKTOK A","2502503","2019-03-14 13:00","2019","03","14","13:00","-24.7","","-31.2","","56","","","M","5","","12","","","M","102.41","","","","-34","","NA"
"-117.81","70.76","ULUKHAKTOK A","2502503","2019-03-14 14:00","2019","03","14","14:00","-23.4","","-29.5","","58","","","M","7","","16","","","M","102.37","","","","-34","","NA"
"-117.81","70.76","ULUKHAKTOK A","2502503","2019-03-14 15:00","2019","03","14","15:00","-24.4","","-29.3","","64","","","M","8","","36","","","M","102.30","","","","-39","","NA"
"-117.81","70.76","ULUKHAKTOK A","2502503","2019-03-14 16:00","2019","03","14","16:00","-23.7","","-29.2","","61","","","M","11","","9","","","M","102.34","","","","-31","","NA"
"-117.81","70.76","ULUKHAKTOK A","2502503","2019-03-14 17:00","2019","03","14","17:00","-24.2","","-30.1","","59","","","M","8","","18","","","M","102.35","","","","-35","","NA"
"-117.81","70.76","ULUKHAKTOK A","2502503","2019-03-14 18:00","2019","03","14","18:00","-24.9","","-30.4","","61","","","M","34","","6","","","M","102.34","","","","-31","","NA"
"-117.81","70.76","ULUKHAKTOK A","2502503","2019-03-14 19:00","2019","03","14","19:00","-26.5","","-30.6","","69","","","M","9","","31","","","M","102.30","","","","-41","","NA"
"-117.81","70.76","ULUKHAKTOK A","2502503","2019-03-14 20:00","2019","03","14","20:00","-26.1","","-30.4","","68","","","M","8","","40","","","M","102.21","","","","-42","","NA"
"-117.81","70.76","ULUKHAKTOK A","2502503","2019-03-14 21:00","2019","03","14","21:00","-25.6","","-30.0","","67","","","M","8","","41","","","M","102.22","","","","-42","","NA"
"-117.81","70.76","ULUKHAKTOK A","2502503","2019-03-14 22:00","2019","03","14","22:00","-25.8","","-30.5","","66","","","M","11","","14","","","M","102.27","","","","-36","","NA"
"-117.81","70.76","ULUKHAKTOK A","2502503","2019-03-14 23:00","2019","03","14","23:00","-26.5","","-30.9","","67","","","M","8","","20","","","M","102.22","","","","-39","","NA"
"-117.81","70.76","ULUKHAKTOK A","2502503","2019-03-15 00:00","2019","03","15","00:00","-25.7","","-30.1","","68","","","M","10","","25","","","M","102.24","","","","-39","","NA"
"-117.81","70.76","ULUKHAKTOK A","2502503","2019-03-15 01:00","2019","03","15","01:00","-25.7","","-30.0","","68","","","M","10","","31","","","M","102.22","","","","-40","","NA"
"-117.81","70.76","ULUKHAKTOK A","2502503","2019-03-15 02:00","2019","03","15","02:00","-26.1","","-29.8","","72","","","M","9","","41","","","M","102.15","","","","-42","","NA"
"-117.81","70.76","ULUKHAKTOK A","2502503","2019-03-15 03:00","2019","03","15","03:00","-25.8","","-29.5","","71","","","M","9","","35","","","M","102.12","","","","-41","","NA"
"-117.81","70.76","ULUKHAKTOK A","2502503","2019-03-15 04:00","2019","03","15","04:00","-25.3","","-29.2","","70","","","M","10","","28","","","M","102.06","","","","-39","","NA"
"-117.81","70.76","ULUKHAKTOK A","2502503","2019-03-15 05:00","2019","03","15","05:00","-25.1","","-29.3","","68","","","M","10","","17","","","M","102.09","","","","-36","","NA"
"-117.81","70.76","ULUKHAKTOK A","2502503","2019-03-15 06:00","2019","03","15","06:00","-25.1","","-29.4","","68","","","M","9","","24","","","M","102.08","","","","-38","","NA"
"-117.81","70.76","ULUKHAKTOK A","2502503","2019-03-15 07:00","2019","03","15","07:00","-25.1","","-29.2","","69","","","M","9","","34","","","M","102.07","","","","-40","","NA"
"-117.81","70.76","ULUKHAKTOK A","2502503","2019-03-15 08:00","2019","03","15","08:00","-25.0","","-29.0","","70","","","M","9","","40","","","M","102.00","","","","-41","","NA"
"-117.81","70.76","ULUKHAKTOK A","2502503","2019-03-15 09:00","2019","03","15","09:00","-24.3","","-28.9","","67","","","M","9","","37","","","M","101.98","","","","-39","","NA"
"-117.81","70.76","ULUKHAKTOK A","2502503","2019-03-15 10:00","2019","03","15","10:00","-24.0","","-28.4","","67","","","M","8","","45","","","M","101.94","","","","-40","","NA"
"-117.81","70.76","ULUKHAKTOK A","2502503","2019-03-15 11:00","2019","03","15","11:00","-23.4","","-28.0","","67","","","M","8","","46","","","M","101.88","","","","-40","","NA"
"-117.81","70.76","ULUKHAKTOK A","2502503","2019-03-15 12:00","2019","03","15","12:00","-22.7","","-27.4","","66","","","M","9","","50","","","M","101.85","","","","-39","","NA"
"-117.81","70.76","ULUKHAKTOK A","2502503","2019-03-15 13:00","2019","03","15","13:00","-21.7","","-26.4","","66","","","M","10","","38","","","M","101.82","","","","-36","","NA"
"-117.81","70.76","ULUKHAKTOK A","2502503","2019-03-15 14:00","2019","03","15","14:00","-21.8","","-26.1","","69","","","M","10","","38","","","M","101.77","","","","-36","","NA"
"-117.81","70.76","ULUKHAKTOK A","2502503","2019-03-15 15:00","2019","03","15","15:00","-21.5","","-25.8","","68","","","M","9","","40","","","M","101.74","","","","-36","","NA"
"-117.81","70.76","ULUKHAKTOK A","2502503","2019-03-15 16:00","2019","03","15","16:00","-21.3","","-25.4","","70","","","M","10","","46","","","M","101.70","","","","-37","","NA"
"-117.81","70.76","ULUKHAKTOK A","2502503","2019-03-15 17:00","2019","03","15","17:00","-20.9","","-25.2","","69","","","M","10","","43","","","M","101.67","","","","-36","","NA"
"-117.81","70.76","ULUKHAKTOK A","2502503","2019-03-15 18:00","2019","03","15","18:00","-21.1","","-25.4","","69","","","M","10","","38","","","M","101.65","","","","-35","","NA"
"-117.81","70.76","ULUKHAKTOK A","2502503","2019-03-15 19:00","2019","03","15","19:00","-21.3","","-25.4","","70","","","M","10","","45","","","M","101.58","","","","-37","","NA"
"-117.81","70.76","ULUKHAKTOK A","2502503","2019-03-15 20:00","2019","03","15","20:00","-21.5","","-25.6","","70","","","M","9","","39","","","M","101.52","","","","-36","","NA"
"-117.81","70.76","ULUKHAKTOK A","2502503","2019-03-15 21:00","2019","03","15","21:00","-21.4","","-25.4","","71","","","M","9","","43","","","M","101.45","","","","-36","","NA"
"-117.81","70.76","ULUKHAKTOK A","2502503","2019-03-15 22:00","2019","03","15","22:00","-20.9","","-24.0","","77","","","M","9","","42","","","M","101.41","","","","-36","","NA"
"-117.81","70.76","ULUKHAKTOK A","2502503","2019-03-15 23:00","2019","03","15","23:00","-21.0","","-24.3","","75","","","M","9","","46","","","M","101.36","","","","-36","","NA"
"-117.81","70.76","ULUKHAKTOK A","2502503","2019-03-16 00:00","2019","03","16","00:00","-21.3","","-24.4","","76","","","M","9","","41","","","M","101.35","","","","-36","","NA"
"-117.81","70.76","ULUKHAKTOK A","2502503","2019-03-16 01:00","2019","03","16","01:00","-21.3","","-24.5","","76","","","M","9","","24","","","M","101.38","","","","-33","","NA"
"-117.81","70.76","ULUKHAKTOK A","2502503","2019-03-16 02:00","2019","03","16","02:00","-22.2","","-25.6","","74","","","M","9","","21","","","M","101.38","","","","-34","","NA"
"-117.81","70.76","ULUKHAKTOK A","2502503","2019-03-16 03:00","2019","03","16","03:00","-22.3","","-25.5","","76","","","M","10","","25","","","M","101.37","","","","-35","","NA"
"-117.81","70.76","ULUKHAKTOK A","2502503","2019-03-16 04:00","2019","03","16","04:00","-23.0","","-26.3","","75","","","M","9","","28","","","M","101.39","","","","-36","","NA"
"-117.81","70.76","ULUKHAKTOK A","2502503","2019-03-16 05:00","2019","03","16","05:00","-23.3","","-27.1","","72","","","M","8","","27","","","M","101.42","","","","-36","","NA"
"-117.81","70.76","ULUKHAKTOK A","2502503","2019-03-16 06:00","2019","03","16","06:00","-23.6","","-27.3","","72","","","M","8","","26","","","M","101.40","","","","-36","","NA"
"-117.81","70.76","ULUKHAKTOK A","2502503","2019-03-16 07:00","2019","03","16","07:00","-23.6","","-27.8","","69","","","M","8","","11","","","M","101.43","","","","-32","","NA"
"-117.81","70.76","ULUKHAKTOK A","2502503","2019-03-16 08:00","2019","03","16","08:00","-23.4","","-27.1","","72","","","M","28","","7","","","M","101.44","","","","-30","","NA"
"-117.81","70.76","ULUKHAKTOK A","2502503","2019-03-16 09:00","2019","03","16","09:00","-22.0","","-26.6","","67","","","M","36","","1","","","M","101.44","","","","-23","","NA"
"-117.81","70.76","ULUKHAKTOK A","2502503","2019-03-16 10:00","2019","03","16","10:00","-21.8","","-27.4","","61","","","M","2","","9","","","M","101.47","","","","-29","","NA"
"-117.81","70.76","ULUKHAKTOK A","2502503","2019-03-16 11:00","2019","03","16","11:00","-19.5","","-27.2","","52","","","M","17","","5","","","M","101.50","","","","-24","","NA"
"-117.81","70.76","ULUKHAKTOK A","2502503","2019-03-16 12:00","2019","03","16","12:00","-16.5","","-27.2","","40","","","M","36","","1","","","M","101.51","","","","-17","","NA"
"-117.81","70.76","ULUKHAKTOK A","2502503","2019-03-16 13:00","2019","03","16","13:00","-17.5","","-26.5","","46","","","M","2","","4","","","M","101.53","","","","-21","","NA"
"-117.81","70.76","ULUKHAKTOK A","2502503","2019-03-16 14:00","2019","03","16","14:00","-16.9","","-25.4","","49","","","M","4","","5","","","M","101.55","","","","-21","","NA"
"-117.81","70.76","ULUKHAKTOK A","2502503","2019-03-16 15:00","2019","03","16","15:00","-17.6","","-25.4","","51","","","M","4","","5","","","M","101.55","","","","-22","","NA"
"-117.81","70.76","ULUKHAKTOK A","2502503","2019-03-16 16:00","2019","03","16","16:00","-18.1","","-26.2","","50","","","M","13","","7","","","M","101.57","","","","-23","","NA"
"-117.81","70.76","ULUKHAKTOK A","2502503","2019-03-16 17:00","2019","03","16","17:00","-20.7","","-27.0","","58","","","M","7","","10","","","M","101.56","","","","-28","","NA"
"-117.81","70.76","ULUKHAKTOK A","2502503","2019-03-16 18:00","2019","03","16","18:00","-22.1","","-27.8","","61","","","M","10","","8","","","M","101.55","","","","-29","","NA"
"-117.81","70.76","ULUKHAKTOK A","2502503","2019-03-16 19:00","2019","03","16","19:00","-24.5","","-28.8","","68","","","M","4","","8","","","M","101.54","","","","-32","","NA"
"-117.81","70.76","ULUKHAKTOK A","2502503","2019-03-16 20:00","2019","03","16","20:00","-24.7","","-27.8","","76","","","M","6","","10","","","M","101.52","","","","-33","","NA"
"-117.81","70.76","ULUKHAKTOK A","2502503","2019-03-16 21:00","2019","03","16","21:00","-23.9","","-27.4","","73","","","M","13","","8","","","M","101.58","","","","-31","","NA"
"-117.81","70.76","ULUKHAKTOK A","2502503","2019-03-16 22:00","2019","03","16","22:00","-22.9","","-26.8","","71","","","M","10","","42","","","M","101.53","","","","-38","","NA"
"-117.81","70.76","ULUKHAKTOK A","2502503","2019-03-16 23:00","2019","03","16","23:00","-22.7","","-26.4","","72","","","M","8","","43","","","M","101.44","","","","-38","","NA"
"-117.81","70.76","ULUKHAKTOK A","2502503","2019-03-17 00:00","2019","03","17","00:00","-23.0","","-26.7","","72","","","M","7","","36","","","M","101.47","","","","-38","","NA"
"-117.81","70.76","ULUKHAKTOK A","2502503","2019-03-17 01:00","2019","03","17","01:00","-23.0","","-26.6","","73","","","M","7","","27","","","M","101.53","","","","-36","","NA"
"-117.81","70.76","ULUKHAKTOK A","2502503","2019-03-17 02:00","2019","03","17","02:00","-21.7","","-25.4","","73","","","M","9","","33","","","M","101.54","","","","-35","","NA"
"-117.81","70.76","ULUKHAKTOK A","2502503","2019-03-17 03:00","2019","03","17","03:00","-22.3","","-26.2","","71","","","M","8","","17","","","M","101.54","","","","-33","","NA"
"-117.81","70.76","ULUKHAKTOK A","2502503","2019-03-17 04:00","2019","03","17","04:00","-21.0","","-24.5","","74","","","M","10","","26","","","M","101.56","","","","-33","","NA"
"-117.81","70.76","ULUKHAKTOK A","2502503","2019-03-17 05:00","2019","03","17","05:00","-19.7","","-23.3","","73","","","M","7","","21","","","M","101.49","","","","-30","","NA"
"-117.81","70.76","ULUKHAKTOK A","2502503","2019-03-17 06:00","2019","03","17","06:00","-19.4","","-22.1","","79","","","M","9","","49","","","M","101.38","","","","-34","","NA"
"-117.81","70.76","ULUKHAKTOK A","2502503","2019-03-17 07:00","2019","03","17","07:00","-18.8","","-21.9","","77","","","M","10","","37","","","M","101.46","","","","-32","","NA"
"-117.81","70.76","ULUKHAKTOK A","2502503","2019-03-17 08:00","2019","03","17","08:00","-19.0","","-22.4","","75","","","M","10","","34","","","M","101.46","","","","-32","","NA"
"-117.81","70.76","ULUKHAKTOK A","2502503","2019-03-17 09:00","2019","03","17","09:00","-18.2","","-21.8","","74","","","M","11","","34","","","M","101.45","","","","-31","","NA"
"-117.81","70.76","ULUKHAKTOK A","2502503","2019-03-17 10:00","2019","03","17","10:00","-18.1","","-22.2","","71","","","M","10","","45","","","M","101.47","","","","-32","","NA"
"-117.81","70.76","ULUKHAKTOK A","2502503","2019-03-17 11:00","2019","03","17","11:00","-18.8","","-23.2","","68","","","M","9","","49","","","M","101.45","","","","-34","","NA"
"-117.81","70.76","ULUKHAKTOK A","2502503","2019-03-17 12:00","2019","03","17","12:00","-18.3","","-22.5","","70","","","M","9","","52","","","M","101.38","","","","-33","","NA"
"-117.81","70.76","ULUKHAKTOK A","2502503","2019-03-17 13:00","2019","03","17","13:00","-17.9","","-22.2","","69","","","M","9","","47","","","M","101.35","","","","-32","","NA"
"-117.81","70.76","ULUKHAKTOK A","2502503","2019-03-17 14:00","2019","03","17","14:00","-18.1","","-22.2","","70","","","M","9","","47","","","M","101.32","","","","-32","","NA"
"-117.81","70.76","ULUKHAKTOK A","2502503","2019-03-17 15:00","2019","03","17","15:00","-17.2","","-21.4","","70","","","M","10","","41","","","M","101.29","","","","-31","","NA"
"-117.81","70.76","ULUKHAKTOK A","2502503","2019-03-17 16:00","2019","03","17","16:00","-17.6","","-21.1","","75","","","M","9","","42","","","M","101.21","","","","-31","","NA"
"-117.81","70.76","ULUKHAKTOK A","2502503","2019-03-17 17:00","2019","03","17","17:00","-17.6","","-21.1","","74","","","M","10","","46","","","M","101.15","","","","-32","","NA"
"-117.81","70.76","ULUKHAKTOK A","2502503","2019-03-17 18:00","2019","03","17","18:00","-17.6","","-21.1","","75","","","M","10","","46","","","M","101.07","","","","-32","","NA"
"-117.81","70.76","ULUKHAKTOK A","2502503","2019-03-17 19:00","2019","03","17","19:00","-17.4","","-20.8","","76","","","M","9","","30","","","M","100.99","","","","-29","","NA"
"-117.81","70.76","ULUKHAKTOK A","2502503","2019-03-17 20:00","2019","03","17","20:00","-17.8","","-20.9","","77","","","M","9","","41","","","M","100.87","","","","-31","","NA"
"-117.81","70.76","ULUKHAKTOK A","2502503","2019-03-17 21:00","2019","03","17","21:00","-18.1","","-21.0","","78","","","M","6","","33","","","M","100.83","","","","-31","","NA"
"-117.81","70.76","ULUKHAKTOK A","2502503","2019-03-17 22:00","2019","03","17","22:00","-17.7","","-20.4","","80","","","M","10","","40","","","M","100.64","","","","-31","","NA"
"-117.81","70.76","ULUKHAKTOK A","2502503","2019-03-17 23:00","2019","03","17","23:00","-17.7","","-20.1","","81","","","M","10","","52","","","M","100.48","","","","-32","","NA"
"-117.81","70.76","ULUKHAKTOK A","2502503","2019-03-18 00:00","2019","03","18","00:00","-17.4","","-20.0","","81","","","M","9","","48","","","M","100.45","","","","-32","","NA"
"-117.81","70.76","ULUKHAKTOK A","2502503","2019-03-18 01:00","2019","03","18","01:00","-17.2","","-19.7","","81","","","M","9","","39","","","M","100.37","","","","-30","","NA"
"-117.81","70.76","ULUKHAKTOK A","2502503","2019-03-18 02:00","2019","03","18","02:00","-17.1","","-19.9","","79","","","M","10","","31","","","M","100.32","","","","-29","","NA"
"-117.81","70.76","ULUKHAKTOK A","2502503","2019-03-18 03:00","2019","03","18","03:00","-17.4","","-20.1","","80","","","M","9","","34","","","M","100.23","","","","-30","","NA"
"-117.81","70.76","ULUKHAKTOK A","2502503","2019-03-18 04:00","2019","03","18","04:00","-16.9","","-19.4","","81","","","M","10","","40","","","M","100.07","","","","-30","","NA"
"-117.81","70.76","ULUKHAKTOK A","2502503","2019-03-18 05:00","2019","03","18","05:00","-16.9","","-19.4","","81","","","M","10","","38","","","M","100.07","","","","-30","","NA"
"-117.81","70.76","ULUKHAKTOK A","2502503","2019-03-18 06:00","2019","03","18","06:00","-17.4","","-20.1","","80","","","M","8","","37","","","M","100.03","","","","-30","","NA"
"-117.81","70.76","ULUKHAKTOK A","2502503","2019-03-18 07:00","2019","03","18","07:00","-17.0","","-19.6","","81","","","M","7","","34","","","M","100.06","","","","-29","","NA"
"-117.81","70.76","ULUKHAKTOK A","2502503","2019-03-18 08:00","2019","03","18","08:00","-16.8","","-19.5","","80","","","M","7","","28","","","M","100.00","","","","-28","","NA"
"-117.81","70.76","ULUKHAKTOK A","2502503","2019-03-18 09:00","2019","03","18","09:00","-16.0","","-19.1","","77","","","M","8","","22","","","M","99.95","","","","-26","","NA"
"-117.81","70.76","ULUKHAKTOK A","2502503","2019-03-18 10:00","2019","03","18","10:00","-15.0","","-18.2","","77","","","M","8","","23","","","M","99.94","","","","-25","","NA"
"-117.81","70.76","ULUKHAKTOK A","2502503","2019-03-18 11:00","2019","03","18","11:00","-15.2","","-18.6","","76","","","M","8","","21","","","M","99.97","","","","-25","","NA"
"-117.81","70.76","ULUKHAKTOK A","2502503","2019-03-18 12:00","2019","03","18","12:00","-14.0","","-18.6","","69","","","M","13","","5","","","M","100.06","","","","-17","","NA"
"-117.81","70.76","ULUKHAKTOK A","2502503","2019-03-18 13:00","2019","03","18","13:00","-15.3","","-19.6","","70","","","M","7","","12","","","M","100.09","","","","-22","","NA"
"-117.81","70.76","ULUKHAKTOK A","2502503","2019-03-18 14:00","2019","03","18","14:00","-15.4","","-19.5","","71","","","M","9","","14","","","M","100.12","","","","-23","","NA"
"-117.81","70.76","ULUKHAKTOK A","2502503","2019-03-18 15:00","2019","03","18","15:00","-15.3","","-19.1","","73","","","M","9","","22","","","M","100.15","","","","-25","","NA"
"-117.81","70.76","ULUKHAKTOK A","2502503","2019-03-18 16:00","2019","03","18","16:00","-15.9","","-19.7","","73","","","M","8","","27","","","M","100.20","","","","-27","","NA"
"-117.81","70.76","ULUKHAKTOK A","2502503","2019-03-18 17:00","2019","03","18","17:00","-16.5","","-19.8","","76","","","M","9","","33","","","M","100.26","","","","-28","","NA"
"-117.81","70.76","ULUKHAKTOK A","2502503","2019-03-18 18:00","2019","03","18","18:00","-17.7","","-20.7","","78","","","M","9","","46","","","M","100.32","","","","-32","","NA"
"-117.81","70.76","ULUKHAKTOK A","2502503","2019-03-18 19:00","2019","03","18","19:00","-18.8","","-21.7","","78","","","M","9","","53","","","M","100.37","","","","-34","","NA"
"-117.81","70.76","ULUKHAKTOK A","2502503","2019-03-18 20:00","2019","03","18","20:00","-19.4","","-22.3","","78","","","M","9","","64","","","M","100.33","","","","-36","","NA"
"-117.81","70.76","ULUKHAKTOK A","2502503","2019-03-18 21:00","2019","03","18","21:00","-19.9","","-22.8","","78","","","M","9","","63","","","M","100.41","","","","-37","","NA"
"-117.81","70.76","ULUKHAKTOK A","2502503","2019-03-18 22:00","2019","03","18","22:00","-20.0","","-22.9","","78","","","M","9","","57","","","M","100.44","","","","-36","","NA"
"-117.81","70.76","ULUKHAKTOK A","2502503","2019-03-18 23:00","2019","03","18","23:00","-19.7","","-22.5","","79","","","M","9","","41","","","M","100.53","","","","-34","","NA"
"-117.81","70.76","ULUKHAKTOK A","2502503","2019-03-19 00:00","2019","03","19","00:00","-18.9","","-21.4","","81","","","M","9","","39","","","M","100.53","","","","-33","","NA"
"-117.81","70.76","ULUKHAKTOK A","2502503","2019-03-19 01:00","2019","03","19","01:00","-19.1","","-21.7","","80","","","M","9","","44","","","M","100.51","","","","-33","","NA"
"-117.81","70.76","ULUKHAKTOK A","2502503","2019-03-19 02:00","2019","03","19","02:00","-18.7","","-21.2","","81","","","M","9","","36","","","M","100.54","","","","-32","","NA"
"-117.81","70.76","ULUKHAKTOK A","2502503","2019-03-19 03:00","2019","03","19","03:00","-18.8","","-21.4","","80","","","M","9","","45","","","M","100.48","","","","-33","","NA"
"-117.81","70.76","ULUKHAKTOK A","2502503","2019-03-19 04:00","2019","03","19","04:00","-18.7","","-21.4","","80","","","M","9","","41","","","M","100.42","","","","-33","","NA"
"-117.81","70.76","ULUKHAKTOK A","2502503","2019-03-19 05:00","2019","03","19","05:00","-18.5","","-21.4","","79","","","M","9","","47","","","M","100.40","","","","-33","","NA"
"-117.81","70.76","ULUKHAKTOK A","2502503","2019-03-19 06:00","2019","03","19","06:00","-18.2","","-21.1","","78","","","M","9","","36","","","M","100.39","","","","-31","","NA"
"-117.81","70.76","ULUKHAKTOK A","2502503","2019-03-19 07:00","2019","03","19","07:00","-18.0","","-20.8","","79","","","M","9","","36","","","M","100.39","","","","-31","","NA"
"-117.81","70.76","ULUKHAKTOK A","2502503","2019-03-19 08:00","2019","03","19","08:00","-17.0","","-20.1","","78","","","M","10","","27","","","M","100.38","","","","-28","","NA"
"-117.81","70.76","ULUKHAKTOK A","2502503","2019-03-19 09:00","2019","03","19","09:00","-17.3","","-20.5","","77","","","M","10","","24","","","M","100.40","","","","-28","","NA"
"-117.81","70.76","ULUKHAKTOK A","2502503","2019-03-19 10:00","2019","03","19","10:00","-17.6","","-20.8","","76","","","M","11","","30","","","M","100.37","","","","-29","","NA"
"-117.81","70.76","ULUKHAKTOK A","2502503","2019-03-19 11:00","2019","03","19","11:00","-17.1","","-20.3","","76","","","M","11","","25","","","M","100.35","","","","-28","","NA"
"-117.81","70.76","ULUKHAKTOK A","2502503","2019-03-19 12:00","2019","03","19","12:00","-16.3","","-19.4","","77","","","M","10","","20","","","M","100.31","","","","-26","","NA"
"-117.81","70.76","ULUKHAKTOK A","2502503","2019-03-19 13:00","2019","03","19","13:00","-15.6","","-18.3","","80","","","M","10","","19","","","M","100.27","","","","-25","","NA"
"-117.81","70.76","ULUKHAKTOK A","2502503","2019-03-19 14:00","2019","03","19","14:00","-15.5","","-17.4","","85","","","M","11","","20","","","M","100.22","","","","-25","","NA"
"-117.81","70.76","ULUKHAKTOK A","2502503","2019-03-19 15:00","2019","03","19","15:00","-15.6","","-17.3","","87","","","M","11","","17","","","M","100.22","","","","-24","","NA"
"-117.81","70.76","ULUKHAKTOK A","2502503","2019-03-19 16:00","2019","03","19","16:00","-15.4","","-17.3","","86","","","M","11","","16","","","M","100.12","","","","-24","","NA"
"-117.81","70.76","ULUKHAKTOK A","2502503","2019-03-19 17:00","2019","03","19","17:00","-15.1","","-16.9","","87","","","M","6","","11","","","M","100.04","","","","-22","","NA"
"-117.81","70.76","ULUKHAKTOK A","2502503","2019-03-19 18:00","2019","03","19","18:00","-15.1","","-17.0","","86","","","M","6","","20","","","M","99.98","","","","-24","","NA"
"-117.81","70.76","ULUKHAKTOK A","2502503","2019-03-19 19:00","2019","03","19","19:00","-14.6","","-16.5","","86","","","M","5","","14","","","M","99.96","","","","-22","","NA"
"-117.81","70.76","ULUKHAKTOK A","2502503","2019-03-19 20:00","2019","03","19","20:00","-14.5","","-16.4","","86","","","M","5","","17","","","M","99.91","","","","-23","","NA"
"-117.81","70.76","ULUKHAKTOK A","2502503","2019-03-19 21:00","2019","03","19","21:00","-14.1","","-15.8","","87","","","M","6","","16","","","M","99.84","","","","-22","","NA"
"-117.81","70.76","ULUKHAKTOK A","2502503","2019-03-19 22:00","2019","03","19","22:00","-13.0","","-14.7","","88","","","M","7","","6","","","M","99.84","","","","-17","","NA"
"-117.81","70.76","ULUKHAKTOK A","2502503","2019-03-19 23:00","2019","03","19","23:00","-12.9","","-14.7","","87","","","M","6","","13","","","M","99.82","","","","-20","","NA"
"-117.81","70.76","ULUKHAKTOK A","2502503","2019-03-20 00:00","2019","03","20","00:00","-12.2","","-13.9","","87","","","M","14","","1","","","M","99.84","","","","-13","","NA"
"-117.81","70.76","ULUKHAKTOK A","2502503","2019-03-20 01:00","2019","03","20","01:00","-12.6","","-14.6","","85","","","M","14","","3","","","M","99.85","","","","-15","","NA"
"-117.81","70.76","ULUKHAKTOK A","2502503","2019-03-20 02:00","2019","03","20","02:00","-12.5","","-14.4","","86","","","M","4","","13","","","M","99.82","","","","-19","","NA"
"-117.81","70.76","ULUKHAKTOK A","2502503","2019-03-20 03:00","2019","03","20","03:00","-12.6","","-14.4","","87","","","M","7","","4","","","M","99.88","","","","-15","","NA"
"-117.81","70.76","ULUKHAKTOK A","2502503","2019-03-20 04:00","2019","03","20","04:00","-11.9","","-13.6","","87","","","M","30","","17","","","M","99.92","","","","-20","","NA"
"-117.81","70.76","ULUKHAKTOK A","2502503","2019-03-20 05:00","2019","03","20","05:00","-12.1","","-13.7","","88","","","M","30","","21","","","M","100.04","","","","-21","","NA"
"-117.81","70.76","ULUKHAKTOK A","2502503","2019-03-20 06:00","2019","03","20","06:00","-12.3","","-14.5","","84","","","M","33","","19","","","M","100.18","","","","-21","","NA"
"-117.81","70.76","ULUKHAKTOK A","2502503","2019-03-20 07:00","2019","03","20","07:00","-12.6","","-14.6","","85","","","M","31","","15","","","M","100.33","","","","-20","","NA"
"-117.81","70.76","ULUKHAKTOK A","2502503","2019-03-20 08:00","2019","03","20","08:00","-12.2","","-14.1","","86","","","M","31","","15","","","M","100.45","","","","-19","","NA"
"-117.81","70.76","ULUKHAKTOK A","2502503","2019-03-20 09:00","2019","03","20","09:00","-11.0","","-12.6","","88","","","M","29","","24","","","M","100.58","","","","-20","","NA"
"-117.81","70.76","ULUKHAKTOK A","2502503","2019-03-20 10:00","2019","03","20","10:00","-10.2","","-12.0","","87","","","M","30","","38","","","M","100.70","","","","-21","","NA"
"-117.81","70.76","ULUKHAKTOK A","2502503","2019-03-20 11:00","2019","03","20","11:00","-10.2","","-12.2","","85","","","M","30","","34","","","M","100.90","","","","-20","","NA"
"-117.81","70.76","ULUKHAKTOK A","2502503","2019-03-20 12:00","2019","03","20","12:00","-10.9","","-13.5","","81","","","M","31","","43","","","M","101.02","","","","-22","","NA"
"-117.81","70.76","ULUKHAKTOK A","2502503","2019-03-20 13:00","2019","03","20","13:00","-12.2","","-14.6","","82","","","M","31","","41","","","M","101.16","","","","-24","","NA"
"-117.81","70.76","ULUKHAKTOK A","2502503","2019-03-20 14:00","2019","03","20","14:00","-12.8","","-15.4","","81","","","M","31","","32","","","M","101.32","","","","-23","","NA"
"-117.81","70.76","ULUKHAKTOK A","2502503","2019-03-20 15:00","2019","03","20","15:00","-13.9","","-17.3","","76","","","M","30","","41","","","M","101.45","","","","-26","","NA"
"-117.81","70.76","ULUKHAKTOK A","2502503","2019-03-20 16:00","2019","03","20","16:00","-15.5","","-18.4","","79","","","M","34","","27","","","M","101.59","","","","-26","","NA"
"-117.81","70.76","ULUKHAKTOK A","2502503","2019-03-20 17:00","2019","03","20","17:00","-16.4","","-19.9","","75","","","M","32","","26","","","M","101.65","","","","-27","","NA"
"-117.81","70.76","ULUKHAKTOK A","2502503","2019-03-20 18:00","2019","03","20","18:00","-18.6","","-21.4","","79","","","M","33","","21","","","M","101.75","","","","-29","","NA"
"-117.81","70.76","ULUKHAKTOK A","2502503","2019-03-20 19:00","2019","03","20","19:00","-18.0","","-20.8","","79","","","M","32","","25","","","M","101.81","","","","-29","","NA"
"-117.81","70.76","ULUKHAKTOK A","2502503","2019-03-20 20:00","2019","03","20","20:00","-20.2","","-23.3","","76","","","M","3","","13","","","M","101.91","","","","-29","","NA"
"-117.81","70.76","ULUKHAKTOK A","2502503","2019-03-20 21:00","2019","03","20","21:00","-21.2","","-24.3","","77","","","M","34","","20","","","M","101.93","","","","-32","","NA"
"-117.81","70.76","ULUKHAKTOK A","2502503","2019-03-20 22:00","2019","03","20","22:00","-22.4","","-25.3","","78","","","M","36","","14","","","M","101.93","","","","-32","","NA"
"-117.81","70.76","ULUKHAKTOK A","2502503","2019-03-20 23:00","2019","03","20","23:00","-22.1","","-24.7","","80","","","M","34","","13","","","M","101.90","","","","-31","","NA"
"-117.81","70.76","ULUKHAKTOK A","2502503","2019-03-21 00:00","2019","03","21","00:00","-22.8","","-25.7","","78","","","M","1","","10","","","M","101.92","","","","-31","","NA"
"-117.81","70.76","ULUKHAKTOK A","2502503","2019-03-21 01:00","2019","03","21","01:00","-22.6","","-25.6","","77","","","M","5","","12","","","M","101.94","","","","-31","","NA"
"-117.81","70.76","ULUKHAKTOK A","2502503","2019-03-21 02:00","2019","03","21","02:00","-24.4","","-27.5","","76","","","M","1","","9","","","M","101.93","","","","-32","","NA"
"-117.81","70.76","ULUKHAKTOK A","2502503","2019-03-21 03:00","2019","03","21","03:00","-23.6","","-27.0","","74","","","M","4","","17","","","M","101.92","","","","-34","","NA"
"-117.81","70.76","ULUKHAKTOK A","2502503","2019-03-21 04:00","2019","03","21","04:00","-22.2","","-25.4","","76","","","M","5","","23","","","M","101.83","","","","-34","","NA"
"-117.81","70.76","ULUKHAKTOK A","2502503","2019-03-21 05:00","2019","03","21","05:00","-19.2","","-23.1","","71","","","M","5","","15","","","M","101.73","","","","-28","","NA"
"-117.81","70.76","ULUKHAKTOK A","2502503","2019-03-21 06:00","2019","03","21","06:00","-18.6","","-22.9","","70","","","M","6","","13","","","M","101.62","","","","-27","","NA"
"-117.81","70.76","ULUKHAKTOK A","2502503","2019-03-21 07:00","2019","03","21","07:00","-17.1","","-22.2","","65","","","M","7","","22","","","M","101.52","","","","-27","","NA"
"-117.81","70.76","ULUKHAKTOK A","2502503","2019-03-21 08:00","2019","03","21","08:00","-16.2","","-21.0","","67","","","M","9","","22","","","M","101.44","","","","-26","","NA"
"-117.81","70.76","ULUKHAKTOK A","2502503","2019-03-21 09:00","2019","03","21","09:00","-16.7","","-20.8","","71","","","M","7","","21","","","M","101.33","","","","-27","","NA"
"-117.81","70.76","ULUKHAKTOK A","2502503","2019-03-21 10:00","2019","03","21","10:00","-15.2","","-19.4","","71","","","M","10","","45","","","M","101.08","","","","-28","","NA"
"-117.81","70.76","ULUKHAKTOK A","2502503","2019-03-21 11:00","2019","03","21","11:00","-15.1","","-19.2","","71","","","M","9","","46","","","M","100.99","","","","-28","","NA"
"-117.81","70.76","ULUKHAKTOK A","2502503","2019-03-21 12:00","2019","03","21","12:00","-14.9","","-19.2","","70","","","M","10","","41","","","M","100.97","","","","-27","","NA"
"-117.81","70.76","ULUKHAKTOK A","2502503","2019-03-21 13:00","2019","03","21","13:00","-14.9","","-18.6","","74","","","M","9","","53","","","M","100.75","","","","-29","","NA"
"-117.81","70.76","ULUKHAKTOK A","2502503","2019-03-21 14:00","2019","03","21","14:00","-14.2","","-17.3","","78","","","M","8","","43","","","M","100.66","","","","-27","","NA"
"-117.81","70.76","ULUKHAKTOK A","2502503","2019-03-21 15:00","2019","03","21","15:00","-14.9","","-17.6","","80","","","M","9","","54","","","M","100.51","","","","-29","","NA"
"-117.81","70.76","ULUKHAKTOK A","2502503","2019-03-21 16:00","2019","03","21","16:00","-14.6","","-17.1","","81","","","M","8","","44","","","M","100.47","","","","-27","","NA"
"-117.81","70.76","ULUKHAKTOK A","2502503","2019-03-21 17:00","2019","03","21","17:00","-14.1","","-16.8","","81","","","M","8","","40","","","M","100.45","","","","-26","","NA"
"-117.81","70.76","ULUKHAKTOK A","2502503","2019-03-21 18:00","2019","03","21","18:00","-14.7","","-17.1","","82","","","M","7","","48","","","M","100.44","","","","-28","","NA"
"-117.81","70.76","ULUKHAKTOK A","2502503","2019-03-21 19:00","2019","03","21","19:00","-14.6","","-17.0","","82","","","M","7","","40","","","M","100.43","","","","-27","","NA"
"-117.81","70.76","ULUKHAKTOK A","2502503","2019-03-21 20:00","2019","03","21","20:00","-14.5","","-17.2","","80","","","M","7","","41","","","M","100.46","","","","-27","","NA"
"-117.81","70.76","ULUKHAKTOK A","2502503","2019-03-21 21:00","2019","03","21","21:00","-14.4","","-17.4","","78","","","M","6","","25","","","M","100.52","","","","-24","","NA"
"-117.81","70.76","ULUKHAKTOK A","2502503","2019-03-21 22:00","2019","03","21","22:00","-14.4","","-17.9","","75","","","M","5","","29","","","M","100.58","","","","-25","","NA"
"-117.81","70.76","ULUKHAKTOK A","2502503","2019-03-21 23:00","2019","03","21","23:00","-15.0","","-18.3","","76","","","M","1","","5","","","M","100.68","","","","-19","","NA"
"-117.81","70.76","ULUKHAKTOK A","2502503","2019-03-22 00:00","2019","03","22","00:00","-16.3","","-19.7","","75","","","M","36","","10","","","M","100.80","","","","-23","","NA"
"-117.81","70.76","ULUKHAKTOK A","2502503","2019-03-22 01:00","2019","03","22","01:00","-17.0","","-20.4","","75","","","M","7","","15","","","M","100.93","","","","-25","","NA"
"-117.81","70.76","ULUKHAKTOK A","2502503","2019-03-22 02:00","2019","03","22","02:00","-18.6","","-22.2","","74","","","M","7","","18","","","M","100.98","","","","-28","","NA"
"-117.81","70.76","ULUKHAKTOK A","2502503","2019-03-22 03:00","2019","03","22","03:00","-19.1","","-22.2","","77","","","M","3","","17","","","M","101.08","","","","-29","","NA"
"-117.81","70.76","ULUKHAKTOK A","2502503","2019-03-22 04:00","2019","03","22","04:00","-20.7","","-23.5","","79","","","M","35","","11","","","M","101.18","","","","-28","","NA"
"-117.81","70.76","ULUKHAKTOK A","2502503","2019-03-22 05:00","2019","03","22","05:00","-19.9","","-22.7","","79","","","M","35","","29","","","M","101.27","","","","-32","","NA"
"-117.81","70.76","ULUKHAKTOK A","2502503","2019-03-22 06:00","2019","03","22","06:00","-18.7","","-22.6","","72","","","M","36","","26","","","M","101.36","","","","-30","","NA"
"-117.81","70.76","ULUKHAKTOK A","2502503","2019-03-22 07:00","2019","03","22","07:00","-22.8","","-26.1","","75","","","M","1","","22","","","M","101.45","","","","-35","","NA"
"-117.81","70.76","ULUKHAKTOK A","2502503","2019-03-22 08:00","2019","03","22","08:00","-22.3","","-25.7","","74","","","M","35","","32","","","M","101.51","","","","-36","","NA"
"-117.81","70.76","ULUKHAKTOK A","2502503","2019-03-22 09:00","2019","03","22","09:00","-22.5","","-26.7","","69","","","M","35","","26","","","M","101.60","","","","-35","","NA"
"-117.81","70.76","ULUKHAKTOK A","2502503","2019-03-22 10:00","2019","03","22","10:00","-21.9","","-27.0","","64","","","M","34","","26","","","M","101.69","","","","-34","","NA"
"-117.81","70.76","ULUKHAKTOK A","2502503","2019-03-22 11:00","2019","03","22","11:00","-21.7","","-26.7","","65","","","M","34","","20","","","M","101.82","","","","-33","","NA"
"-117.81","70.76","ULUKHAKTOK A","2502503","2019-03-22 12:00","2019","03","22","12:00","-22.9","","-27.1","","69","","","M","34","","27","","","M","101.88","","","","-36","","NA"
"-117.81","70.76","ULUKHAKTOK A","2502503","2019-03-22 13:00","2019","03","22","13:00","-21.8","","-26.1","","69","","","M","34","","36","","","M","101.98","","","","-36","","NA"
"-117.81","70.76","ULUKHAKTOK A","2502503","2019-03-22 14:00","2019","03","22","14:00","-22.4","","-26.7","","68","","","M","32","","29","","","M","102.07","","","","-36","","NA"
"-117.81","70.76","ULUKHAKTOK A","2502503","2019-03-22 15:00","2019","03","22","15:00","-23.2","","-27.6","","68","","","M","35","","24","","","M","102.17","","","","-36","","NA"
"-117.81","70.76","ULUKHAKTOK A","2502503","2019-03-22 16:00","2019","03","22","16:00","-23.8","","-28.4","","67","","","M","32","","30","","","M","102.20","","","","-38","","NA"
"-117.81","70.76","ULUKHAKTOK A","2502503","2019-03-22 17:00","2019","03","22","17:00","-24.8","","-29.1","","68","","","M","32","","30","","","M","102.31","","","","-39","","NA"
"-117.81","70.76","ULUKHAKTOK A","2502503","2019-03-22 18:00","2019","03","22","18:00","-25.7","","-29.8","","69","","","M","33","","30","","","M","102.40","","","","-40","","NA"
"-117.81","70.76","ULUKHAKTOK A","2502503","2019-03-22 19:00","2019","03","22","19:00","-26.2","","-30.1","","70","","","M","35","","18","","","M","102.54","","","","-38","","NA"
"-117.81","70.76","ULUKHAKTOK A","2502503","2019-03-22 20:00","2019","03","22","20:00","-26.1","","-29.8","","71","","","M","33","","8","","","M","102.59","","","","-33","","NA"
"-117.81","70.76","ULUKHAKTOK A","2502503","2019-03-22 21:00","2019","03","22","21:00","-25.8","","-29.6","","71","","","M","35","","24","","","M","102.61","","","","-39","","NA"
"-117.81","70.76","ULUKHAKTOK A","2502503","2019-03-22 22:00","2019","03","22","22:00","-25.2","","-29.0","","71","","","M","1","","32","","","M","102.76","","","","-40","","NA"
"-117.81","70.76","ULUKHAKTOK A","2502503","2019-03-22 23:00","2019","03","22","23:00","-26.1","","-29.8","","71","","","M","9","","3","","","M","102.92","","","","-29","","NA"
"-117.81","70.76","ULUKHAKTOK A","2502503","2019-03-23 00:00","2019","03","23","00:00","-25.9","","-30.2","","68","","","M","4","","8","","","M","103.06","","","","-33","","NA"
"-117.81","70.76","ULUKHAKTOK A","2502503","2019-03-23 01:00","2019","03","23","01:00","-25.5","","-29.3","","71","","","M","2","","11","","","M","103.13","","","","-34","","NA"
"-117.81","70.76","ULUKHAKTOK A","2502503","2019-03-23 02:00","2019","03","23","02:00","-25.3","","-28.8","","73","","","M","36","","24","","","M","103.13","","","","-38","","NA"
"-117.81","70.76","ULUKHAKTOK A","2502503","2019-03-23 03:00","2019","03","23","03:00","-26.7","","-30.5","","71","","","M","3","","14","","","M","103.20","","","","-37","","NA"
"-117.81","70.76","ULUKHAKTOK A","2502503","2019-03-23 04:00","2019","03","23","04:00","-26.9","","-30.4","","73","","","M","2","","9","","","M","103.26","","","","-35","","NA"
"-117.81","70.76","ULUKHAKTOK A","2502503","2019-03-23 05:00","2019","03","23","05:00","-25.7","","-29.3","","72","","","M","5","","9","","","M","103.34","","","","-33","","NA"
"-117.81","70.76","ULUKHAKTOK A","2502503","2019-03-23 06:00","2019","03","23","06:00","-26.3","","-29.7","","73","","","M","6","","10","","","M","103.42","","","","-35","","NA"
"-117.81","70.76","ULUKHAKTOK A","2502503","2019-03-23 07:00","2019","03","23","07:00","-26.1","","-29.3","","75","","","M","2","","12","","","M","103.42","","","","-35","","NA"
"-117.81","70.76","ULUKHAKTOK A","2502503","2019-03-23 08:00","2019","03","23","08:00","-25.4","","-29.2","","71","","","M","5","","8","","","M","103.48","","","","-33","","NA"
"-117.81","70.76","ULUKHAKTOK A","2502503","2019-03-23 09:00","2019","03","23","09:00","-23.4","","-28.7","","63","","","M","5","","17","","","M","103.45","","","","-34","","NA"
"-117.81","70.76","ULUKHAKTOK A","2502503","2019-03-23 10:00","2019","03","23","10:00","-20.0","","-25.5","","63","","","M","20","","3","","","M","103.52","","","","-23","","NA"
"-117.81","70.76","ULUKHAKTOK A","2502503","2019-03-23 11:00","2019","03","23","11:00","-19.1","","-26.8","","52","","","M","3","","7","","","M","103.57","","","","-25","","NA"
"-117.81","70.76","ULUKHAKTOK A","2502503","2019-03-23 12:00","2019","03","23","12:00","-20.1","","-26.5","","57","","","M","5","","18","","","M","103.57","","","","-30","","NA"
"-117.81","70.76","ULUKHAKTOK A","2502503","2019-03-23 13:00","2019","03","23","13:00","-19.6","","-25.9","","58","","","M","4","","15","","","M","103.55","","","","-29","","NA"
"-117.81","70.76","ULUKHAKTOK A","2502503","2019-03-23 14:00","2019","03","23","14:00","-18.6","","-25.5","","55","","","M","4","","12","","","M","103.56","","","","-26","","NA"
"-117.81","70.76","ULUKHAKTOK A","2502503","2019-03-23 15:00","2019","03","23","15:00","-16.1","","-24.0","","52","","","M","6","","8","","","M","103.53","","","","-22","","NA"
"-117.81","70.76","ULUKHAKTOK A","2502503","2019-03-23 16:00","2019","03","23","16:00","-17.5","","-24.8","","54","","","M","24","","2","","","M","103.49","","","","-19","","NA"
"-117.81","70.76","ULUKHAKTOK A","2502503","2019-03-23 17:00","2019","03","23","17:00","-18.2","","-25.4","","54","","","M","15","","9","","","M","103.49","","","","-25","","NA"
"-117.81","70.76","ULUKHAKTOK A","2502503","2019-03-23 18:00","2019","03","23","18:00","-19.0","","-25.1","","59","","","M","10","","21","","","M","103.46","","","","-29","","NA"
"-117.81","70.76","ULUKHAKTOK A","2502503","2019-03-23 19:00","2019","03","23","19:00","-18.9","","-24.8","","61","","","M","8","","30","","","M","103.41","","","","-31","","NA"
"-117.81","70.76","ULUKHAKTOK A","2502503","2019-03-23 20:00","2019","03","23","20:00","-18.4","","-24.8","","58","","","M","10","","22","","","M","103.37","","","","-29","","NA"
"-117.81","70.76","ULUKHAKTOK A","2502503","2019-03-23 21:00","2019","03","23","21:00","-19.5","","-25.6","","59","","","M","6","","12","","","M","103.34","","","","-27","","NA"
"-117.81","70.76","ULUKHAKTOK A","2502503","2019-03-23 22:00","2019","03","23","22:00","-19.5","","-25.4","","60","","","M","9","","29","","","M","103.28","","","","-32","","NA"
"-117.81","70.76","ULUKHAKTOK A","2502503","2019-03-23 23:00","2019","03","23","23:00","-19.2","","-25.8","","57","","","M","12","","17","","","M","103.28","","","","-29","","NA"
"-117.81","70.76","ULUKHAKTOK A","2502503","2019-03-24 00:00","2019","03","24","00:00","-20.2","","-25.8","","61","","","M","11","","23","","","M","103.27","","","","-31","","NA"
"-117.81","70.76","ULUKHAKTOK A","2502503","2019-03-24 01:00","2019","03","24","01:00","-19.8","","-24.7","","66","","","M","9","","30","","","M","103.20","","","","-32","","NA"
"-117.81","70.76","ULUKHAKTOK A","2502503","2019-03-24 02:00","2019","03","24","02:00","-19.9","","-24.6","","67","","","M","8","","27","","","M","103.14","","","","-32","","NA"
"-117.81","70.76","ULUKHAKTOK A","2502503","2019-03-24 03:00","2019","03","24","03:00","-19.8","","-24.6","","66","","","M","9","","34","","","M","103.06","","","","-33","","NA"
"-117.81","70.76","ULUKHAKTOK A","2502503","2019-03-24 04:00","2019","03","24","04:00","-18.9","","-23.6","","67","","","M","9","","41","","","M","102.99","","","","-33","","NA"
"-117.81","70.76","ULUKHAKTOK A","2502503","2019-03-24 05:00","2019","03","24","05:00","-18.4","","-23.6","","64","","","M","9","","38","","","M","102.89","","","","-32","","NA"
"-117.81","70.76","ULUKHAKTOK A","2502503","2019-03-24 06:00","2019","03","24","06:00","-18.4","","-23.3","","66","","","M","10","","46","","","M","102.77","","","","-33","","NA"
"-117.81","70.76","ULUKHAKTOK A","2502503","2019-03-24 07:00","2019","03","24","07:00","-18.6","","-23.5","","65","","","M","9","","50","","","M","102.64","","","","-33","","NA"
"-117.81","70.76","ULUKHAKTOK A","2502503","2019-03-24 08:00","2019","03","24","08:00","-18.0","","-23.0","","66","","","M","9","","47","","","M","102.52","","","","-32","","NA"
"-117.81","70.76","ULUKHAKTOK A","2502503","2019-03-24 09:00","2019","03","24","09:00","-17.0","","-22.3","","64","","","M","10","","46","","","M","102.44","","","","-31","","NA"
"-117.81","70.76","ULUKHAKTOK A","2502503","2019-03-24 10:00","2019","03","24","10:00","-16.4","","-21.7","","64","","","M","9","","47","","","M","102.33","","","","-30","","NA"
"-117.81","70.76","ULUKHAKTOK A","2502503","2019-03-24 11:00","2019","03","24","11:00","-15.6","","-21.5","","61","","","M","10","","43","","","M","102.27","","","","-29","","NA"
"-117.81","70.76","ULUKHAKTOK A","2502503","2019-03-24 12:00","2019","03","24","12:00","-15.5","","-20.8","","64","","","M","11","","49","","","M","102.12","","","","-29","","NA"
"-117.81","70.76","ULUKHAKTOK A","2502503","2019-03-24 13:00","2019","03","24","13:00","-15.4","","-20.2","","67","","","M","11","","55","","","M","101.96","","","","-30","","NA"
"-117.81","70.76","ULUKHAKTOK A","2502503","2019-03-24 14:00","2019","03","24","14:00","-15.6","","-19.5","","73","","","M","12","","62","","","M","101.82","","","","-31","","NA"
"-117.81","70.76","ULUKHAKTOK A","2502503","2019-03-24 15:00","2019","03","24","15:00","-15.1","","-19.1","","72","","","M","11","","55","","","M","101.76","","","","-29","","NA"
"-117.81","70.76","ULUKHAKTOK A","2502503","2019-03-24 16:00","2019","03","24","16:00","-14.5","","-18.5","","72","","","M","11","","50","","","M","101.65","","","","-28","","NA"
"-117.81","70.76","ULUKHAKTOK A","2502503","2019-03-24 17:00","2019","03","24","17:00","-14.6","","-19.0","","69","","","M","10","","50","","","M","101.54","","","","-28","","NA"
"-117.81","70.76","ULUKHAKTOK A","2502503","2019-03-24 18:00","2019","03","24","18:00","-14.7","","-19.5","","67","","","M","10","","43","","","M","101.48","","","","-27","","NA"
"-117.81","70.76","ULUKHAKTOK A","2502503","2019-03-24 19:00","2019","03","24","19:00","-14.7","","-19.2","","69","","","M","10","","37","","","M","101.39","","","","-27","","NA"
"-117.81","70.76","ULUKHAKTOK A","2502503","2019-03-24 20:00","2019","03","24","20:00","-14.9","","-19.5","","69","","","M","10","","44","","","M","101.32","","","","-28","","NA"
"-117.81","70.76","ULUKHAKTOK A","2502503","2019-03-24 21:00","2019","03","24","21:00","-15.3","","-18.9","","75","","","M","11","","44","","","M","101.21","","","","-28","","NA"
"-117.81","70.76","ULUKHAKTOK A","2502503","2019-03-24 22:00","2019","03","24","22:00","-15.6","","-19.2","","75","","","M","10","","43","","","M","101.11","","","","-29","","NA"
"-117.81","70.76","ULUKHAKTOK A","2502503","2019-03-24 23:00","2019","03","24","23:00","-16.3","","-19.6","","76","","","M","11","","45","","","M","101.07","","","","-30","","NA"
"-117.81","70.76","ULUKHAKTOK A","2502503","2019-03-25 00:00","2019","03","25","00:00","-16.3","","-19.6","","76","","","M","11","","40","","","M","100.97","","","","-29","","NA"
"-117.81","70.76","ULUKHAKTOK A","2502503","2019-03-25 01:00","2019","03","25","01:00","-16.1","","-19.3","","77","","","M","10","","35","","","M","100.94","","","","-28","","NA"
"-117.81","70.76","ULUKHAKTOK A","2502503","2019-03-25 02:00","2019","03","25","02:00","-15.3","","-18.7","","75","","","M","10","","28","","","M","100.89","","","","-26","","NA"
"-117.81","70.76","ULUKHAKTOK A","2502503","2019-03-25 03:00","2019","03","25","03:00","-15.0","","-18.5","","75","","","M","9","","19","","","M","100.79","","","","-24","","NA"
"-117.81","70.76","ULUKHAKTOK A","2502503","2019-03-25 04:00","2019","03","25","04:00","-14.6","","-18.1","","75","","","M","9","","17","","","M","100.72","","","","-23","","NA"
"-117.81","70.76","ULUKHAKTOK A","2502503","2019-03-25 05:00","2019","03","25","05:00","-14.4","","-17.9","","75","","","M","9","","19","","","M","100.66","","","","-23","","NA"
"-117.81","70.76","ULUKHAKTOK A","2502503","2019-03-25 06:00","2019","03","25","06:00","-14.5","","-17.8","","76","","","M","11","","21","","","M","100.59","","","","-24","","NA"
"-117.81","70.76","ULUKHAKTOK A","2502503","2019-03-25 07:00","2019","03","25","07:00","-14.6","","-17.8","","77","","","M","9","","11","","","M","100.53","","","","-21","","NA"
"-117.81","70.76","ULUKHAKTOK A","2502503","2019-03-25 08:00","2019","03","25","08:00","-14.1","","-17.6","","76","","","M","5","","13","","","M","100.51","","","","-21","","NA"
"-117.81","70.76","ULUKHAKTOK A","2502503","2019-03-25 09:00","2019","03","25","09:00","-13.5","","-17.1","","75","","","M","6","","11","","","M","100.48","","","","-20","","NA"
"-117.81","70.76","ULUKHAKTOK A","2502503","2019-03-25 10:00","2019","03","25","10:00","-13.1","","-16.8","","74","","","M","5","","12","","","M","100.44","","","","-20","","NA"
"-117.81","70.76","ULUKHAKTOK A","2502503","2019-03-25 11:00","2019","03","25","11:00","-12.1","","-16.1","","72","","","M","4","","5","","","M","100.42","","","","-15","","NA"
"-117.81","70.76","ULUKHAKTOK A","2502503","2019-03-25 12:00","2019","03","25","12:00","-11.4","","-16.0","","69","","","M","5","","7","","","M","100.41","","","","-16","","NA"
"-117.81","70.76","ULUKHAKTOK A","2502503","2019-03-25 13:00","2019","03","25","13:00","-9.7","","-15.7","","62","","","M","34","","1","","","M","100.42","","","","-10","","NA"
"-117.81","70.76","ULUKHAKTOK A","2502503","2019-03-25 14:00","2019","03","25","14:00","-10.6","","-15.3","","69","","","M","27","","8","","","M","100.42","","","","-15","","NA"
"-117.81","70.76","ULUKHAKTOK A","2502503","2019-03-25 15:00","2019","03","25","15:00","-10.9","","-14.4","","76","","","M","33","","17","","","M","100.41","","","","-18","","NA"
"-117.81","70.76","ULUKHAKTOK A","2502503","2019-03-25 16:00","2019","03","25","16:00","-11.0","","-14.5","","75","","","M","31","","18","","","M","100.44","","","","-19","","NA"
"-117.81","70.76","ULUKHAKTOK A","2502503","2019-03-25 17:00","2019","03","25","17:00","-11.2","","-14.7","","76","","","M","31","","17","","","M","100.47","","","","-19","","NA"
"-117.81","70.76","ULUKHAKTOK A","2502503","2019-03-25 18:00","2019","03","25","18:00","-11.7","","-14.9","","78","","","M","33","","16","","","M","100.49","","","","-19","","NA"
"-117.81","70.76","ULUKHAKTOK A","2502503","2019-03-25 19:00","2019","03","25","19:00","-12.2","","-15.0","","80","","","M","32","","10","","","M","100.53","","","","-18","","NA"
"-117.81","70.76","ULUKHAKTOK A","2502503","2019-03-25 20:00","2019","03","25","20:00","-12.5","","-14.7","","83","","","M","34","","14","","","M","100.56","","","","-20","","NA"
"-117.81","70.76","ULUKHAKTOK A","2502503","2019-03-25 21:00","2019","03","25","21:00","-12.7","","-15.2","","82","","","M","34","","16","","","M","100.60","","","","-20","","NA"
"-117.81","70.76","ULUKHAKTOK A","2502503","2019-03-25 22:00","2019","03","25","22:00","-12.7","","-15.4","","80","","","M","32","","19","","","M","100.62","","","","-21","","NA"
"-117.81","70.76","ULUKHAKTOK A","2502503","2019-03-25 23:00","2019","03","25","23:00","-12.7","","-15.4","","80","","","M","32","","18","","","M","100.67","","","","-21","","NA"
"-117.81","70.76","ULUKHAKTOK A","2502503","2019-03-26 00:00","2019","03","26","00:00","-12.9","","-15.7","","80","","","M","33","","16","","","M","100.73","","","","-21","","NA"
"-117.81","70.76","ULUKHAKTOK A","2502503","2019-03-26 01:00","2019","03","26","01:00","-13.0","","-15.7","","80","","","M","33","","28","","","M","100.73","","","","-23","","NA"
"-117.81","70.76","ULUKHAKTOK A","2502503","2019-03-26 02:00","2019","03","26","02:00","-13.0","","-15.8","","80","","","M","32","","24","","","M","100.79","","","","-22","","NA"
"-117.81","70.76","ULUKHAKTOK A","2502503","2019-03-26 03:00","2019","03","26","03:00","-13.3","","-15.9","","81","","","M","32","","26","","","M","100.84","","","","-23","","NA"
"-117.81","70.76","ULUKHAKTOK A","2502503","2019-03-26 04:00","2019","03","26","04:00","-13.2","","-15.7","","81","","","M","34","","17","","","M","100.91","","","","-21","","NA"
"-117.81","70.76","ULUKHAKTOK A","2502503","2019-03-26 05:00","2019","03","26","05:00","-12.8","","-15.9","","78","","","M","36","","16","","","M","100.96","","","","-20","","NA"
"-117.81","70.76","ULUKHAKTOK A","2502503","2019-03-26 06:00","2019","03","26","06:00","-13.2","","-16.2","","78","","","M","34","","7","","","M","101.01","","","","-18","","NA"
"-117.81","70.76","ULUKHAKTOK A","2502503","2019-03-26 07:00","2019","03","26","07:00","-13.1","","-16.1","","79","","","M","35","","27","","","M","101.02","","","","-23","","NA"
"-117.81","70.76","ULUKHAKTOK A","2502503","2019-03-26 08:00","2019","03","26","08:00","-13.0","","-16.1","","78","","","M","2","","15","","","M","101.11","","","","-20","","NA"
"-117.81","70.76","ULUKHAKTOK A","2502503","2019-03-26 09:00","2019","03","26","09:00","-12.8","","-16.5","","74","","","M","35","","15","","","M","101.18","","","","-20","","NA"
"-117.81","70.76","ULUKHAKTOK A","2502503","2019-03-26 10:00","2019","03","26","10:00","-11.8","","-17.8","","61","","","M","34","","9","","","M","101.26","","","","-17","","NA"
"-117.81","70.76","ULUKHAKTOK A","2502503","2019-03-26 11:00","2019","03","26","11:00","-12.4","","-20.5","","52","","","M","35","","13","","","M","101.30","","","","-19","","NA"
"-117.81","70.76","ULUKHAKTOK A","2502503","2019-03-26 12:00","2019","03","26","12:00","-13.8","","-20.2","","59","","","M","36","","26","","","M","101.37","","","","-24","","NA"
"-117.81","70.76","ULUKHAKTOK A","2502503","2019-03-26 13:00","2019","03","26","13:00","-14.5","","-20.0","","63","","","M","36","","20","","","M","101.44","","","","-24","","NA"
"-117.81","70.76","ULUKHAKTOK A","2502503","2019-03-26 14:00","2019","03","26","14:00","-15.4","","-20.9","","63","","","M","35","","26","","","M","101.54","","","","-26","","NA"
"-117.81","70.76","ULUKHAKTOK A","2502503","2019-03-26 15:00","2019","03","26","15:00","-15.2","","-21.3","","60","","","M","32","","18","","","M","101.61","","","","-24","","NA"
"-117.81","70.76","ULUKHAKTOK A","2502503","2019-03-26 16:00","2019","03","26","16:00","-16.9","","-22.5","","62","","","M","34","","18","","","M","101.66","","","","-26","","NA"
"-117.81","70.76","ULUKHAKTOK A","2502503","2019-03-26 17:00","2019","03","26","17:00","-17.3","","-22.8","","63","","","M","1","","9","","","M","101.70","","","","-24","","NA"
"-117.81","70.76","ULUKHAKTOK A","2502503","2019-03-26 18:00","2019","03","26","18:00","-18.7","","-23.5","","66","","","M","33","","32","","","M","101.68","","","","-31","","NA"
"-117.81","70.76","ULUKHAKTOK A","2502503","2019-03-26 19:00","2019","03","26","19:00","-20.4","","-24.5","","70","","","M","33","","25","","","M","101.78","","","","-32","","NA"
"-117.81","70.76","ULUKHAKTOK A","2502503","2019-03-26 20:00","2019","03","26","20:00","-21.9","","-25.7","","72","","","M","1","","26","","","M","101.83","","","","-34","","NA"
"-117.81","70.76","ULUKHAKTOK A","2502503","2019-03-26 21:00","2019","03","26","21:00","-22.5","","-26.2","","72","","","M","35","","18","","","M","101.85","","","","-33","","NA"
"-117.81","70.76","ULUKHAKTOK A","2502503","2019-03-26 22:00","2019","03","26","22:00","-23.5","","-26.6","","76","","","M","31","","32","","","M","101.88","","","","-38","","NA"
"-117.81","70.76","ULUKHAKTOK A","2502503","2019-03-26 23:00","2019","03","26","23:00","-22.6","","-25.9","","75","","","M","32","","24","","","M","101.91","","","","-35","","NA"
"-117.81","70.76","ULUKHAKTOK A","2502503","2019-03-27 00:00","2019","03","27","00:00","-22.1","","-25.1","","77","","","M","33","","10","","","M","101.91","","","","-30","","NA"
"-117.81","70.76","ULUKHAKTOK A","2502503","2019-03-27 01:00","2019","03","27","01:00","-22.9","","-26.1","","76","","","M","2","","8","","","M","101.93","","","","-30","","NA"
"-117.81","70.76","ULUKHAKTOK A","2502503","2019-03-27 02:00","2019","03","27","02:00","-21.2","","-24.2","","77","","","M","1","","7","","","M","101.97","","","","-27","","NA"
"-117.81","70.76","ULUKHAKTOK A","2502503","2019-03-27 03:00","2019","03","27","03:00","-21.0","","-24.5","","74","","","M","1","","18","","","M","101.99","","","","-31","","NA"
"-117.81","70.76","ULUKHAKTOK A","2502503","2019-03-27 04:00","2019","03","27","04:00","-20.9","","-24.7","","72","","","M","1","","23","","","M","101.96","","","","-32","","NA"
"-117.81","70.76","ULUKHAKTOK A","2502503","2019-03-27 05:00","2019","03","27","05:00","-21.4","","-24.9","","74","","","M","1","","17","","","M","101.96","","","","-31","","NA"
"-117.81","70.76","ULUKHAKTOK A","2502503","2019-03-27 06:00","2019","03","27","06:00","-20.8","","-24.4","","73","","","M","2","","16","","","M","101.98","","","","-30","","NA"
"-117.81","70.76","ULUKHAKTOK A","2502503","2019-03-27 07:00","2019","03","27","07:00","-19.6","","-23.7","","71","","","M","36","","12","","","M","101.94","","","","-28","","NA"
"-117.81","70.76","ULUKHAKTOK A","2502503","2019-03-27 08:00","2019","03","27","08:00","-19.4","","-23.9","","68","","","M","11","","7","","","M","101.99","","","","-25","","NA"
"-117.81","70.76","ULUKHAKTOK A","2502503","2019-03-27 09:00","2019","03","27","09:00","-17.6","","-23.9","","59","","","M","6","","5","","","M","101.94","","","","-22","","NA"
"-117.81","70.76","ULUKHAKTOK A","2502503","2019-03-27 10:00","2019","03","27","10:00","-17.5","","-22.4","","66","","","M","5","","9","","","M","101.91","","","","-24","","NA"
"-117.81","70.76","ULUKHAKTOK A","2502503","2019-03-27 11:00","2019","03","27","11:00","-16.6","","-22.1","","63","","","M","5","","9","","","M","101.88","","","","-23","","NA"
"-117.81","70.76","ULUKHAKTOK A","2502503","2019-03-27 12:00","2019","03","27","12:00","-15.4","","-21.1","","62","","","M","5","","12","","","M","101.81","","","","-22","","NA"
"-117.81","70.76","ULUKHAKTOK A","2502503","2019-03-27 13:00","2019","03","27","13:00","-15.3","","-20.6","","64","","","M","3","","11","","","M","101.79","","","","-22","","NA"
"-117.81","70.76","ULUKHAKTOK A","2502503","2019-03-27 14:00","2019","03","27","14:00","-14.4","","-19.8","","64","","","M","12","","6","","","M","101.67","","","","-19","","NA"
"-117.81","70.76","ULUKHAKTOK A","2502503","2019-03-27 15:00","2019","03","27","15:00","-13.8","","-20.0","","60","","","M","4","","15","","","M","101.66","","","","-21","","NA"
"-117.81","70.76","ULUKHAKTOK A","2502503","2019-03-27 16:00","2019","03","27","16:00","-14.0","","-19.4","","64","","","M","5","","17","","","M","101.57","","","","-22","","NA"
"-117.81","70.76","ULUKHAKTOK A","2502503","2019-03-27 17:00","2019","03","27","17:00","-15.0","","-19.5","","69","","","M","5","","16","","","M","101.54","","","","-23","","NA"
"-117.81","70.76","ULUKHAKTOK A","2502503","2019-03-27 18:00","2019","03","27","18:00","-14.8","","-19.7","","67","","","M","5","","11","","","M","101.49","","","","-21","","NA"
"-117.81","70.76","ULUKHAKTOK A","2502503","2019-03-27 19:00","2019","03","27","19:00","-17.8","","-21.6","","72","","","M","6","","17","","","M","101.44","","","","-27","","NA"
"-117.81","70.76","ULUKHAKTOK A","2502503","2019-03-27 20:00","2019","03","27","20:00","-18.1","","-21.3","","76","","","M","5","","17","","","M","101.37","","","","-27","","NA"
"-117.81","70.76","ULUKHAKTOK A","2502503","2019-03-27 21:00","2019","03","27","21:00","-16.7","","-20.1","","75","","","M","5","","18","","","M","101.33","","","","-26","","NA"
"-117.81","70.76","ULUKHAKTOK A","2502503","2019-03-27 22:00","2019","03","27","22:00","-15.6","","-19.4","","73","","","M","6","","13","","","M","101.35","","","","-23","","NA"
"-117.81","70.76","ULUKHAKTOK A","2502503","2019-03-27 23:00","2019","03","27","23:00","-15.3","","-19.5","","71","","","M","7","","10","","","M","101.38","","","","-22","","NA"
"-117.81","70.76","ULUKHAKTOK A","2502503","2019-03-28 00:00","2019","03","28","00:00","-15.3","","-18.9","","75","","","M","13","","7","","","M","101.33","","","","-20","","NA"
"-117.81","70.76","ULUKHAKTOK A","2502503","2019-03-28 01:00","2019","03","28","01:00","-14.7","","-18.5","","74","","","M","10","","14","","","M","101.32","","","","-22","","NA"
"-117.81","70.76","ULUKHAKTOK A","2502503","2019-03-28 02:00","2019","03","28","02:00","-14.8","","-18.6","","74","","","M","9","","13","","","M","101.33","","","","-22","","NA"
"-117.81","70.76","ULUKHAKTOK A","2502503","2019-03-28 03:00","2019","03","28","03:00","-14.8","","-18.4","","74","","","M","15","","1","","","M","101.39","","","","-16","","NA"
"-117.81","70.76","ULUKHAKTOK A","2502503","2019-03-28 04:00","2019","03","28","04:00","-15.1","","-18.4","","77","","","M","17","","13","","","M","101.35","","","","-22","","NA"
"-117.81","70.76","ULUKHAKTOK A","2502503","2019-03-28 05:00","2019","03","28","05:00","-15.5","","-18.1","","81","","","M","17","","8","","","M","101.36","","","","-21","","NA"
"-117.81","70.76","ULUKHAKTOK A","2502503","2019-03-28 06:00","2019","03","28","06:00","-15.1","","-17.2","","84","","","M","16","","10","","","M","101.34","","","","-21","","NA"
"-117.81","70.76","ULUKHAKTOK A","2502503","2019-03-28 07:00","2019","03","28","07:00","-14.4","","-16.7","","83","","","M","14","","3","","","M","101.32","","","","-17","","NA"
"-117.81","70.76","ULUKHAKTOK A","2502503","2019-03-28 08:00","2019","03","28","08:00","-14.9","","-17.4","","81","","","M","5","","16","","","M","101.28","","","","-23","","NA"
"-117.81","70.76","ULUKHAKTOK A","2502503","2019-03-28 09:00","2019","03","28","09:00","-14.3","","-17.0","","80","","","M","6","","9","","","M","101.27","","","","-20","","NA"
"-117.81","70.76","ULUKHAKTOK A","2502503","2019-03-28 10:00","2019","03","28","10:00","-13.1","","-15.6","","82","","","M","5","","15","","","M","101.25","","","","-21","","NA"
"-117.81","70.76","ULUKHAKTOK A","2502503","2019-03-28 11:00","2019","03","28","11:00","-11.5","","-14.2","","81","","","M","5","","16","","","M","101.24","","","","-19","","NA"
"-117.81","70.76","ULUKHAKTOK A","2502503","2019-03-28 12:00","2019","03","28","12:00","-9.6","","-12.1","","82","","","M","5","","10","","","M","101.24","","","","-15","","NA"
"-117.81","70.76","ULUKHAKTOK A","2502503","2019-03-28 13:00","2019","03","28","13:00","-7.9","","-12.0","","73","","","M","4","","9","","","M","101.27","","","","-12","","NA"
"-117.81","70.76","ULUKHAKTOK A","2502503","2019-03-28 14:00","2019","03","28","14:00","-7.3","","-11.6","","72","","","M","4","","10","","","M","101.28","","","","-12","","NA"
"-117.81","70.76","ULUKHAKTOK A","2502503","2019-03-28 15:00","2019","03","28","15:00","-4.8","","-7.1","","84","","","M","29","","13","","","M","101.35","","","","-10","","NA"
"-117.81","70.76","ULUKHAKTOK A","2502503","2019-03-28 16:00","2019","03","28","16:00","-4.9","","-6.9","","86","","","M","28","","15","","","M","101.40","","","","-10","","NA"
"-117.81","70.76","ULUKHAKTOK A","2502503","2019-03-28 17:00","2019","03","28","17:00","-5.5","","-7.1","","89","","","M","27","","11","","","M","101.44","","","","-10","","NA"
"-117.81","70.76","ULUKHAKTOK A","2502503","2019-03-28 18:00","2019","03","28","18:00","-6.8","","-8.3","","89","","","M","29","","17","","","M","101.45","","","","-13","","NA"
"-117.81","70.76","ULUKHAKTOK A","2502503","2019-03-28 19:00","2019","03","28","19:00","-6.6","","-7.8","","91","","","M","20","","5","","","M","101.47","","","","-9","","NA"
"-117.81","70.76","ULUKHAKTOK A","2502503","2019-03-28 20:00","2019","03","28","20:00","-5.8","","-7.2","","90","","","M","28","","3","","","M","101.48","","","","-7","","NA"
"-117.81","70.76","ULUKHAKTOK A","2502503","2019-03-28 21:00","2019","03","28","21:00","-5.6","","-6.8","","92","","","M","24","","11","","","M","101.48","","","","-10","","NA"
"-117.81","70.76","ULUKHAKTOK A","2502503","2019-03-28 22:00","2019","03","28","22:00","-6.1","","-7.2","","92","","","M","28","","13","","","M","101.48","","","","-11","","NA"
"-117.81","70.76","ULUKHAKTOK A","2502503","2019-03-28 23:00","2019","03","28","23:00","-6.8","","-8.1","","90","","","M","28","","11","","","M","101.48","","","","-12","","NA"
"-117.81","70.76","ULUKHAKTOK A","2502503","2019-03-29 00:00","2019","03","29","00:00","-9.0","","-10.3","","90","","","M","35","","4","","","M","101.51","","","","-11","","NA"
"-117.81","70.76","ULUKHAKTOK A","2502503","2019-03-29 01:00","2019","03","29","01:00","-8.4","","-9.7","","90","","","M","16","","8","","","M","101.53","","","","-13","","NA"
"-117.81","70.76","ULUKHAKTOK A","2502503","2019-03-29 02:00","2019","03","29","02:00","-8.0","","-9.2","","92","","","M","0","","1","","","M","101.53","","","","-9","","NA"
"-117.81","70.76","ULUKHAKTOK A","2502503","2019-03-29 03:00","2019","03","29","03:00","-7.5","","-8.6","","92","","","M","25","","13","","","M","101.52","","","","-13","","NA"
"-117.81","70.76","ULUKHAKTOK A","2502503","2019-03-29 04:00","2019","03","29","04:00","-7.8","","-8.9","","91","","","M","20","","5","","","M","101.49","","","","-10","","NA"
"-117.81","70.76","ULUKHAKTOK A","2502503","2019-03-29 05:00","2019","03","29","05:00","-8.0","","-9.3","","90","","","M","16","","6","","","M","101.44","","","","-11","","NA"
"-117.81","70.76","ULUKHAKTOK A","2502503","2019-03-29 06:00","2019","03","29","06:00","-9.7","","-10.9","","91","","","M","17","","5","","","M","101.43","","","","-13","","NA"
"-117.81","70.76","ULUKHAKTOK A","2502503","2019-03-29 07:00","2019","03","29","07:00","-9.5","","-10.7","","91","","","M","20","","6","","","M","101.42","","","","-13","","NA"
"-117.81","70.76","ULUKHAKTOK A","2502503","2019-03-29 08:00","2019","03","29","08:00","-9.1","","-10.4","","91","","","M","16","","7","","","M","101.41","","","","-13","","NA"
"-117.81","70.76","ULUKHAKTOK A","2502503","2019-03-29 09:00","2019","03","29","09:00","-8.2","","-9.9","","87","","","M","6","","3","","","M","101.41","","","","-10","","NA"
"-117.81","70.76","ULUKHAKTOK A","2502503","2019-03-29 10:00","2019","03","29","10:00","-7.4","","-9.2","","87","","","M","6","","5","","","M","101.39","","","","-10","","NA"
"-117.81","70.76","ULUKHAKTOK A","2502503","2019-03-29 11:00","2019","03","29","11:00","-3.5","","-7.8","","73","","","M","17","","6","","","M","101.36","","","","-6","","NA"
"-117.81","70.76","ULUKHAKTOK A","2502503","2019-03-29 12:00","2019","03","29","12:00","-4.1","","-7.3","","78","","","M","19","","7","","","M","101.35","","","","-7","","NA"
"-117.81","70.76","ULUKHAKTOK A","2502503","2019-03-29 13:00","2019","03","29","13:00","-3.8","","-7.7","","74","","","M","17","","9","","","M","101.37","","","","-8","","NA"
"-117.81","70.76","ULUKHAKTOK A","2502503","2019-03-29 14:00","2019","03","29","14:00","-3.0","","-7.2","","73","","","M","26","","7","","","M","101.41","","","","-6","","NA"
"-117.81","70.76","ULUKHAKTOK A","2502503","2019-03-29 15:00","2019","03","29","15:00","-4.9","","-8.6","","76","","","M","25","","7","","","M","101.46","","","","-8","","NA"
"-117.81","70.76","ULUKHAKTOK A","2502503","2019-03-29 16:00","2019","03","29","16:00","-3.7","","-7.3","","76","","","M","24","","4","","","M","101.47","","","","-5","","NA"
"-117.81","70.76","ULUKHAKTOK A","2502503","2019-03-29 17:00","2019","03","29","17:00","-4.8","","-6.7","","86","","","M","28","","19","","","M","101.48","","","","-11","","NA"
"-117.81","70.76","ULUKHAKTOK A","2502503","2019-03-29 18:00","2019","03","29","18:00","-5.1","","-6.3","","91","","","M","28","","18","","","M","101.49","","","","-11","","NA"
"-117.81","70.76","ULUKHAKTOK A","2502503","2019-03-29 19:00","2019","03","29","19:00","-5.8","","-6.8","","93","","","M","28","","21","","","M","101.48","","","","-13","","NA"
"-117.81","70.76","ULUKHAKTOK A","2502503","2019-03-29 20:00","2019","03","29","20:00","-6.1","","-7.1","","92","","","M","28","","31","","","M","101.46","","","","-15","","NA"
"-117.81","70.76","ULUKHAKTOK A","2502503","2019-03-29 21:00","2019","03","29","21:00","-6.2","","-7.1","","93","","","M","28","","27","","","M","101.47","","","","-14","","NA"
"-117.81","70.76","ULUKHAKTOK A","2502503","2019-03-29 22:00","2019","03","29","22:00","-6.3","","-7.2","","93","","","M","29","","29","","","M","101.46","","","","-15","","NA"
"-117.81","70.76","ULUKHAKTOK A","2502503","2019-03-29 23:00","2019","03","29","23:00","-6.4","","-7.3","","93","","","M","28","","26","","","M","101.46","","","","-14","","NA"
"-117.81","70.76","ULUKHAKTOK A","2502503","2019-03-30 00:00","2019","03","30","00:00","-8.6","","-10.8","","85","","","M","35","","30","","","M","101.50","","","","-18","","NA"
"-117.81","70.76","ULUKHAKTOK A","2502503","2019-03-30 01:00","2019","03","30","01:00","-9.6","","-11.5","","86","","","M","33","","37","","","M","101.56","","","","-20","","NA"
"-117.81","70.76","ULUKHAKTOK A","2502503","2019-03-30 02:00","2019","03","30","02:00","-10.2","","-12.3","","85","","","M","32","","27","","","M","101.65","","","","-19","","NA"
"-117.81","70.76","ULUKHAKTOK A","2502503","2019-03-30 03:00","2019","03","30","03:00","-10.7","","-12.9","","84","","","M","31","","25","","","M","101.68","","","","-20","","NA"
"-117.81","70.76","ULUKHAKTOK A","2502503","2019-03-30 04:00","2019","03","30","04:00","-10.2","","-11.6","","89","","","M","30","","35","","","M","101.70","","","","-20","","NA"
"-117.81","70.76","ULUKHAKTOK A","2502503","2019-03-30 05:00","2019","03","30","05:00","-10.5","","-12.8","","84","","","M","32","","40","","","M","101.75","","","","-21","","NA"
"-117.81","70.76","ULUKHAKTOK A","2502503","2019-03-30 06:00","2019","03","30","06:00","-11.3","","-13.5","","84","","","M","31","","28","","","M","101.83","","","","-21","","NA"
"-117.81","70.76","ULUKHAKTOK A","2502503","2019-03-30 07:00","2019","03","30","07:00","-12.3","","-14.4","","84","","","M","30","","33","","","M","101.82","","","","-23","","NA"
"-117.81","70.76","ULUKHAKTOK A","2502503","2019-03-30 08:00","2019","03","30","08:00","-12.1","","-14.7","","81","","","M","33","","33","","","M","101.89","","","","-23","","NA"
"-117.81","70.76","ULUKHAKTOK A","2502503","2019-03-30 09:00","2019","03","30","09:00","-14.1","","-16.9","","79","","","M","31","","25","","","M","101.91","","","","-24","","NA"
"-117.81","70.76","ULUKHAKTOK A","2502503","2019-03-30 10:00","2019","03","30","10:00","-13.0","","-16.5","","75","","","M","32","","19","","","M","101.96","","","","-21","","NA"
"-117.81","70.76","ULUKHAKTOK A","2502503","2019-03-30 11:00","2019","03","30","11:00","-12.8","","-16.3","","75","","","M","31","","20","","","M","101.94","","","","-21","","NA"
"-117.81","70.76","ULUKHAKTOK A","2502503","2019-03-30 12:00","2019","03","30","12:00","-11.0","","-15.8","","68","","","M","32","","13","","","M","101.97","","","","-17","","NA"
"-117.81","70.76","ULUKHAKTOK A","2502503","2019-03-30 13:00","2019","03","30","13:00","-11.4","","-15.6","","71","","","M","32","","19","","","M","102.04","","","","-19","","NA"
"-117.81","70.76","ULUKHAKTOK A","2502503","2019-03-30 14:00","2019","03","30","14:00","-11.8","","-16.5","","68","","","M","36","","11","","","M","102.05","","","","-18","","NA"
"-117.81","70.76","ULUKHAKTOK A","2502503","2019-03-30 15:00","2019","03","30","15:00","-10.8","","-15.7","","68","","","M","31","","9","","","M","102.00","","","","-16","","NA"
"-117.81","70.76","ULUKHAKTOK A","2502503","2019-03-30 16:00","2019","03","30","16:00","-10.5","","-17.0","","59","","","M","9","","4","","","M","101.94","","","","-13","","NA"
"-117.81","70.76","ULUKHAKTOK A","2502503","2019-03-30 17:00","2019","03","30","17:00","-13.2","","-17.2","","72","","","M","5","","7","","","M","101.92","","","","-18","","NA"
"-117.81","70.76","ULUKHAKTOK A","2502503","2019-03-30 18:00","2019","03","30","18:00","-15.9","","-19.2","","76","","","M","35","","10","","","M","101.85","","","","-22","","NA"
"-117.81","70.76","ULUKHAKTOK A","2502503","2019-03-30 19:00","2019","03","30","19:00","-15.4","","-18.3","","79","","","M","2","","13","","","M","101.76","","","","-23","","NA"
"-117.81","70.76","ULUKHAKTOK A","2502503","2019-03-30 20:00","2019","03","30","20:00","-14.4","","-17.2","","79","","","M","5","","7","","","M","101.64","","","","-19","","NA"
"-117.81","70.76","ULUKHAKTOK A","2502503","2019-03-30 21:00","2019","03","30","21:00","-13.8","","-16.5","","80","","","M","5","","12","","","M","101.57","","","","-21","","NA"
"-117.81","70.76","ULUKHAKTOK A","2502503","2019-03-30 22:00","2019","03","30","22:00","-12.2","","-14.0","","87","","","M","12","","10","","","M","101.45","","","","-18","","NA"
"-117.81","70.76","ULUKHAKTOK A","2502503","2019-03-30 23:00","2019","03","30","23:00","-11.3","","-13.2","","86","","","M","14","","13","","","M","101.33","","","","-18","","NA"
"-117.81","70.76","ULUKHAKTOK A","2502503","2019-03-31 00:00","2019","03","31","00:00","-10.8","","-12.8","","85","","","M","12","","12","","","M","101.20","","","","-17","","NA"
"-117.81","70.76","ULUKHAKTOK A","2502503","2019-03-31 01:00","2019","03","31","01:00","-10.7","","-12.5","","87","","","M","13","","13","","","M","101.08","","","","-17","","NA"
"-117.81","70.76","ULUKHAKTOK A","2502503","2019-03-31 02:00","2019","03","31","02:00","-9.6","","-11.5","","86","","","M","11","","9","","","M","100.97","","","","-14","","NA"
"-117.81","70.76","ULUKHAKTOK A","2502503","2019-03-31 03:00","2019","03","31","03:00","-8.7","","-10.5","","87","","","M","13","","13","","","M","100.86","","","","-15","","NA"
"-117.81","70.76","ULUKHAKTOK A","2502503","2019-03-31 04:00","2019","03","31","04:00","-8.9","","-10.5","","88","","","M","13","","7","","","M","100.78","","","","-13","","NA"
"-117.81","70.76","ULUKHAKTOK A","2502503","2019-03-31 05:00","2019","03","31","05:00","-8.9","","-10.7","","87","","","M","5","","15","","","M","100.68","","","","-15","","NA"
"-117.81","70.76","ULUKHAKTOK A","2502503","2019-03-31 06:00","2019","03","31","06:00","-9.2","","-10.7","","89","","","M","9","","10","","","M","100.59","","","","-14","","NA"
"-117.81","70.76","ULUKHAKTOK A","2502503","2019-03-31 07:00","2019","03","31","07:00","-8.4","","-10.2","","87","","","M","9","","5","","","M","100.51","","","","-11","","NA"
"-117.81","70.76","ULUKHAKTOK A","2502503","2019-03-31 08:00","2019","03","31","08:00","-8.4","","-10.8","","83","","","M","5","","14","","","M","100.41","","","","-15","","NA"
"-117.81","70.76","ULUKHAKTOK A","2502503","2019-03-31 09:00","2019","03","31","09:00","-8.4","","-10.4","","86","","","M","5","","13","","","M","100.34","","","","-14","","NA"
"-117.81","70.76","ULUKHAKTOK A","2502503","2019-03-31 10:00","2019","03","31","10:00","-5.8","","-8.8","","80","","","M","17","","3","","","M","100.28","","","","-7","","NA"
"-117.81","70.76","ULUKHAKTOK A","2502503","2019-03-31 11:00","2019","03","31","11:00","-7.2","","-9.4","","85","","","M","18","","10","","","M","100.25","","","","-12","","NA"
"-117.81","70.76","ULUKHAKTOK A","2502503","2019-03-31 12:00","2019","03","31","12:00","-3.6","","-5.1","","90","","","M","29","","41","","","M","100.21","","","","-12","","NA"
"-117.81","70.76","ULUKHAKTOK A","2502503","2019-03-31 13:00","2019","03","31","13:00","-4.7","","-6.1","","90","","","M","29","","47","","","M","100.22","","","","-14","","NA"
"-117.81","70.76","ULUKHAKTOK A","2502503","2019-03-31 14:00","2019","03","31","14:00","-6.0","","-8.0","","86","","","M","31","","46","","","M","100.27","","","","-16","","NA"
"-117.81","70.76","ULUKHAKTOK A","2502503","2019-03-31 15:00","2019","03","31","15:00","-8.0","","-10.2","","84","","","M","31","","53","","","M","100.32","","","","-19","","NA"
"-117.81","70.76","ULUKHAKTOK A","2502503","2019-03-31 16:00","2019","03","31","16:00","-9.3","","-11.7","","83","","","M","31","","53","","","M","100.40","","","","-21","","NA"
"-117.81","70.76","ULUKHAKTOK A","2502503","2019-03-31 17:00","2019","03","31","17:00","-11.0","","-12.7","","87","","","M","32","","59","","","M","100.44","","","","-24","","NA"
"-117.81","70.76","ULUKHAKTOK A","2502503","2019-03-31 18:00","2019","03","31","18:00","-11.7","","-13.5","","87","","","M","31","","57","","","M","100.57","","","","-25","","NA"
"-117.81","70.76","ULUKHAKTOK A","2502503","2019-03-31 19:00","2019","03","31","19:00","-13.0","","-14.8","","86","","","M","33","","59","","","M","100.69","","","","-27","","NA"
"-117.81","70.76","ULUKHAKTOK A","2502503","2019-03-31 20:00","2019","03","31","20:00","-13.9","","-15.8","","86","","","M","32","","48","","","M","100.82","","","","-27","","NA"
"-117.81","70.76","ULUKHAKTOK A","2502503","2019-03-31 21:00","2019","03","31","21:00","-14.6","","-16.5","","86","","","M","32","","50","","","M","100.90","","","","-28","","NA"
"-117.81","70.76","ULUKHAKTOK A","2502503","2019-03-31 22:00","2019","03","31","22:00","-15.4","","-17.3","","85","","","M","32","","38","","","M","101.04","","","","-28","","NA"
"-117.81","70.76","ULUKHAKTOK A","2502503","2019-03-31 23:00","2019","03","31","23:00","-15.1","","-17.1","","85","","","M","32","","40","","","M","101.12","","","","-28","","NA"
