"Longitude (x)","Latitude (y)","Station Name","Climate ID","Date/Time (LST)","Year","Month","Day","Time (LST)","Temp (°C)","Temp Flag","Dew Point Temp (°C)","Dew Point Temp Flag","Rel Hum (%)","Rel Hum Flag","Precip. Amount (mm)","Precip. Amount Flag","Wind Dir (10s deg)","Wind Dir Flag","Wind Spd (km/h)","Wind Spd Flag","Visibility (km)","Visibility Flag","Stn Press (kPa)","Stn Press Flag","Hmdx","Hmdx Flag","Wind Chill","Wind Chill Flag","Weather"
"-57.04","53.68","CARTWRIGHT A","8501106","2019-01-01 00:00","2019","01","01","00:00","-24.8","","-28.4","","73","","0.0","","19","","8","","16.1","","101.66","","","","-32","","NA"
"-57.04","53.68","CARTWRIGHT A","8501106","2019-01-01 01:00","2019","01","01","01:00","-26.4","","-30.4","","70","","0.0","","21","","11","","16.1","","101.57","","","","-35","","NA"
"-57.04","53.68","CARTWRIGHT A","8501106","2019-01-01 02:00","2019","01","01","02:00","-27.1","","-30.5","","74","","0.0","","21","","11","","16.1","","101.58","","","","-36","","NA"
"-57.04","53.68","CARTWRIGHT A","8501106","2019-01-01 03:00","2019","01","01","03:00","-26.3","","-30.3","","70","","0.0","","21","","11","","16.1","","101.52","","","","-35","","NA"
"-57.04","53.68","CARTWRIGHT A","8501106","2019-01-01 04:00","2019","01","01","04:00","-24.6","","-29.8","","63","","0.0","","21","","13","","16.1","","101.35","","","","-34","","NA"
"-57.04","53.68","CARTWRIGHT A","8501106","2019-01-01 05:00","2019","01","01","05:00","-25.1","","-29.4","","68","","0.0","","23","","17","","16.1","","101.29","","","","-36","","NA"
"-57.04","53.68","CARTWRIGHT A","8501106","2019-01-01 06:00","2019","01","01","06:00","-25.4","","-30.0","","66","","0.0","","22","","15","","16.1","","101.25","","","","-36","","NA"
"-57.04","53.68","CARTWRIGHT A","8501106","2019-01-01 07:00","2019","01","01","07:00","-25.6","","-30.1","","67","","0.0","","21","","15","","16.1","","101.25","","","","-36","","NA"
"-57.04","53.68","CARTWRIGHT A","8501106","2019-01-01 08:00","2019","01","01","08:00","-25.6","","-29.9","","68","","0.0","","21","","15","","16.1","","101.19","","","","-36","","NA"
"-57.04","53.68","CARTWRIGHT A","8501106","2019-01-01 09:00","2019","01","01","09:00","-24.6","","-29.1","","67","","0.0","","21","","13","","16.1","","101.15","","","","-34","","NA"
"-57.04","53.68","CARTWRIGHT A","8501106","2019-01-01 10:00","2019","01","01","10:00","-21.9","","-27.4","","62","","0.0","","21","","15","","16.1","","101.13","","","","-31","","NA"
"-57.04","53.68","CARTWRIGHT A","8501106","2019-01-01 11:00","2019","01","01","11:00","-19.9","","-25.8","","60","","0.0","","21","","13","","16.1","","100.96","","","","-28","","NA"
"-57.04","53.68","CARTWRIGHT A","8501106","2019-01-01 12:00","2019","01","01","12:00","-18.5","","-24.7","","59","","0.0","","23","","15","","16.1","","100.89","","","","-27","","NA"
"-57.04","53.68","CARTWRIGHT A","8501106","2019-01-01 13:00","2019","01","01","13:00","-16.7","","-22.6","","61","","0.0","","21","","15","","16.1","","100.75","","","","-25","","NA"
"-57.04","53.68","CARTWRIGHT A","8501106","2019-01-01 14:00","2019","01","01","14:00","-15.1","","-21.1","","61","","0.0","","23","","17","","16.1","","100.69","","","","-24","","NA"
"-57.04","53.68","CARTWRIGHT A","8501106","2019-01-01 15:00","2019","01","01","15:00","-15.8","","-20.4","","68","","0.0","","21","","18","","16.1","","100.68","","","","-25","","NA"
"-57.04","53.68","CARTWRIGHT A","8501106","2019-01-01 16:00","2019","01","01","16:00","-15.3","","-20.0","","68","","0.0","","21","","9","","16.1","","100.66","","","","-21","","NA"
"-57.04","53.68","CARTWRIGHT A","8501106","2019-01-01 17:00","2019","01","01","17:00","-14.7","","-19.2","","69","","0.0","","20","","13","","16.1","","100.62","","","","-22","","NA"
"-57.04","53.68","CARTWRIGHT A","8501106","2019-01-01 18:00","2019","01","01","18:00","-14.3","","-18.7","","70","","0.0","","19","","9","","16.1","","100.53","","","","-20","","NA"
"-57.04","53.68","CARTWRIGHT A","8501106","2019-01-01 19:00","2019","01","01","19:00","-14.1","","-18.3","","71","","0.0","","17","","8","","16.1","","100.49","","","","-19","","NA"
"-57.04","53.68","CARTWRIGHT A","8501106","2019-01-01 20:00","2019","01","01","20:00","-14.1","","-18.1","","72","","0.0","","","","0","","16.1","","100.43","","","","","","NA"
"-57.04","53.68","CARTWRIGHT A","8501106","2019-01-01 21:00","2019","01","01","21:00","-14.1","","-17.3","","77","","0.0","","20","","9","","2.8","","100.40","","","","-20","","Snow"
"-57.04","53.68","CARTWRIGHT A","8501106","2019-01-01 22:00","2019","01","01","22:00","-13.6","","-15.9","","83","","0.0","","","M","4","","3.6","","100.35","","","","-16","","Snow"
"-57.04","53.68","CARTWRIGHT A","8501106","2019-01-01 23:00","2019","01","01","23:00","-13.4","","-15.4","","85","","0.0","","19","","5","","2.4","","100.32","","","","-17","","Snow"
"-57.04","53.68","CARTWRIGHT A","8501106","2019-01-02 00:00","2019","01","02","00:00","-13.0","","-15.0","","85","","0.0","","18","","5","","2.0","","100.28","","","","-16","","Snow"
"-57.04","53.68","CARTWRIGHT A","8501106","2019-01-02 01:00","2019","01","02","01:00","-12.8","","-14.8","","85","","0.0","","18","","5","","2.0","","100.27","","","","-16","","Snow"
"-57.04","53.68","CARTWRIGHT A","8501106","2019-01-02 02:00","2019","01","02","02:00","-12.6","","-14.5","","86","","0.2","","18","","4","","2.8","","100.31","","","","-15","","Snow"
"-57.04","53.68","CARTWRIGHT A","8501106","2019-01-02 03:00","2019","01","02","03:00","-12.1","","-14.0","","86","","0.0","","18","","5","","3.2","","100.35","","","","-15","","Snow"
"-57.04","53.68","CARTWRIGHT A","8501106","2019-01-02 04:00","2019","01","02","04:00","-11.5","","-13.3","","87","","0.2","","34","","11","","1.2","","100.40","","","","-17","","Snow"
"-57.04","53.68","CARTWRIGHT A","8501106","2019-01-02 05:00","2019","01","02","05:00","-11.8","","-14.3","","82","","0.2","","33","","26","","6.4","","100.39","","","","-21","","Snow"
"-57.04","53.68","CARTWRIGHT A","8501106","2019-01-02 06:00","2019","01","02","06:00","-14.8","","-17.8","","78","","0.0","","33","","28","","4.0","","100.48","","","","-25","","Snow"
"-57.04","53.68","CARTWRIGHT A","8501106","2019-01-02 07:00","2019","01","02","07:00","-15.5","","-18.8","","76","","0.0","","33","","26","","6.4","","100.58","","","","-26","","Snow"
"-57.04","53.68","CARTWRIGHT A","8501106","2019-01-02 08:00","2019","01","02","08:00","-16.9","","-20.7","","73","","0.0","","33","","26","","16.1","","100.70","","","","-28","","Snow"
"-57.04","53.68","CARTWRIGHT A","8501106","2019-01-02 09:00","2019","01","02","09:00","-17.9","","-21.6","","74","","0.0","","33","","24","","16.1","","100.76","","","","-29","","NA"
"-57.04","53.68","CARTWRIGHT A","8501106","2019-01-02 10:00","2019","01","02","10:00","-18.7","","-23.2","","69","","0.0","","32","","11","","16.1","","100.81","","","","-26","","NA"
"-57.04","53.68","CARTWRIGHT A","8501106","2019-01-02 11:00","2019","01","02","11:00","-19.7","","-24.9","","64","","0.0","","34","","24","","16.1","","100.79","","","","-31","","Snow"
"-57.04","53.68","CARTWRIGHT A","8501106","2019-01-02 12:00","2019","01","02","12:00","-20.1","","-25.6","","62","","0.0","","33","","21","","16.1","","100.75","","","","-31","","NA"
"-57.04","53.68","CARTWRIGHT A","8501106","2019-01-02 13:00","2019","01","02","13:00","-20.0","","-25.7","","61","","0.0","","33","","17","","16.1","","100.77","","","","-30","","NA"
"-57.04","53.68","CARTWRIGHT A","8501106","2019-01-02 14:00","2019","01","02","14:00","-20.7","","-26.6","","60","","0.0","","33","","22","","16.1","","100.79","","","","-32","","NA"
"-57.04","53.68","CARTWRIGHT A","8501106","2019-01-02 15:00","2019","01","02","15:00","-20.6","","-26.7","","59","","0.0","","33","","22","","16.1","","100.84","","","","-32","","NA"
"-57.04","53.68","CARTWRIGHT A","8501106","2019-01-02 16:00","2019","01","02","16:00","-20.6","","-27.1","","57","","0.0","","31","","22","","16.1","","100.93","","","","-32","","NA"
"-57.04","53.68","CARTWRIGHT A","8501106","2019-01-02 17:00","2019","01","02","17:00","-20.9","","-27.1","","58","","0.0","","32","","17","","16.1","","100.99","","","","-31","","NA"
"-57.04","53.68","CARTWRIGHT A","8501106","2019-01-02 18:00","2019","01","02","18:00","-21.4","","-27.4","","59","","0.0","","31","","24","","16.1","","101.01","","","","-33","","NA"
"-57.04","53.68","CARTWRIGHT A","8501106","2019-01-02 19:00","2019","01","02","19:00","-21.5","","-27.5","","59","","0.0","","30","","26","","16.1","","100.99","","","","-34","","NA"
"-57.04","53.68","CARTWRIGHT A","8501106","2019-01-02 20:00","2019","01","02","20:00","-21.6","","-27.8","","58","","0.0","","32","","17","","16.1","","100.99","","","","-32","","Snow"
"-57.04","53.68","CARTWRIGHT A","8501106","2019-01-02 21:00","2019","01","02","21:00","-21.7","","-28.1","","57","","0.0","","31","","26","","16.1","","101.01","","","","-34","","NA"
"-57.04","53.68","CARTWRIGHT A","8501106","2019-01-02 22:00","2019","01","02","22:00","-21.9","","-28.3","","57","","0.0","","32","","22","","16.1","","101.01","","","","-33","","Snow"
"-57.04","53.68","CARTWRIGHT A","8501106","2019-01-02 23:00","2019","01","02","23:00","-22.2","","-28.6","","57","","0.0","","31","","24","","16.1","","100.98","","","","-34","","NA"
"-57.04","53.68","CARTWRIGHT A","8501106","2019-01-03 00:00","2019","01","03","00:00","-22.3","","-28.4","","58","","0.0","","31","","17","","16.1","","100.93","","","","-33","","NA"
"-57.04","53.68","CARTWRIGHT A","8501106","2019-01-03 01:00","2019","01","03","01:00","-22.5","","-28.5","","59","","0.0","","31","","13","","16.1","","100.97","","","","-31","","NA"
"-57.04","53.68","CARTWRIGHT A","8501106","2019-01-03 02:00","2019","01","03","02:00","-22.9","","-28.5","","61","","0.0","","33","","9","","16.1","","101.00","","","","-30","","NA"
"-57.04","53.68","CARTWRIGHT A","8501106","2019-01-03 03:00","2019","01","03","03:00","-23.1","","-28.7","","61","","0.0","","33","","8","","16.1","","101.02","","","","-30","","NA"
"-57.04","53.68","CARTWRIGHT A","8501106","2019-01-03 04:00","2019","01","03","04:00","-23.3","","-28.9","","61","","0.0","","34","","11","","16.1","","101.04","","","","-32","","NA"
"-57.04","53.68","CARTWRIGHT A","8501106","2019-01-03 05:00","2019","01","03","05:00","-24.9","","-28.9","","70","","0.0","","","","0","","16.1","","101.01","","","","","","NA"
"-57.04","53.68","CARTWRIGHT A","8501106","2019-01-03 06:00","2019","01","03","06:00","-24.5","","-28.8","","68","","0.0","","","M","4","","16.1","","101.01","","","","-28","","NA"
"-57.04","53.68","CARTWRIGHT A","8501106","2019-01-03 07:00","2019","01","03","07:00","-26.9","","-29.9","","76","","0.0","","18","","5","","16.1","","101.03","","","","-32","","Snow"
"-57.04","53.68","CARTWRIGHT A","8501106","2019-01-03 08:00","2019","01","03","08:00","-28.8","","-32.1","","74","","0.0","","19","","9","","16.1","","101.05","","","","-37","","NA"
"-57.04","53.68","CARTWRIGHT A","8501106","2019-01-03 09:00","2019","01","03","09:00","-28.1","","-31.6","","73","","0.0","","21","","11","","16.1","","101.05","","","","-37","","NA"
"-57.04","53.68","CARTWRIGHT A","8501106","2019-01-03 10:00","2019","01","03","10:00","-23.6","","-28.8","","63","","0.0","","24","","8","","16.1","","101.00","","","","-30","","NA"
"-57.04","53.68","CARTWRIGHT A","8501106","2019-01-03 11:00","2019","01","03","11:00","-22.6","","-28.4","","60","","0.0","","23","","11","","16.1","","100.95","","","","-31","","NA"
"-57.04","53.68","CARTWRIGHT A","8501106","2019-01-03 12:00","2019","01","03","12:00","-21.8","","-28.0","","58","","0.0","","24","","13","","16.1","","100.89","","","","-31","","NA"
"-57.04","53.68","CARTWRIGHT A","8501106","2019-01-03 13:00","2019","01","03","13:00","-20.6","","-27.3","","56","","0.0","","22","","11","","16.1","","100.85","","","","-28","","NA"
"-57.04","53.68","CARTWRIGHT A","8501106","2019-01-03 14:00","2019","01","03","14:00","-20.1","","-26.6","","57","","0.0","","25","","8","","16.1","","100.81","","","","-26","","NA"
"-57.04","53.68","CARTWRIGHT A","8501106","2019-01-03 15:00","2019","01","03","15:00","-20.3","","-26.6","","58","","0.0","","23","","13","","16.1","","100.77","","","","-29","","NA"
"-57.04","53.68","CARTWRIGHT A","8501106","2019-01-03 16:00","2019","01","03","16:00","-21.7","","-26.6","","65","","0.0","","23","","11","","16.1","","100.74","","","","-30","","NA"
"-57.04","53.68","CARTWRIGHT A","8501106","2019-01-03 17:00","2019","01","03","17:00","-25.4","","-28.8","","74","","0.0","","21","","11","","16.1","","100.69","","","","-34","","Snow"
"-57.04","53.68","CARTWRIGHT A","8501106","2019-01-03 18:00","2019","01","03","18:00","-23.8","","-27.6","","72","","0.0","","19","","9","","16.1","","100.69","","","","-31","","NA"
"-57.04","53.68","CARTWRIGHT A","8501106","2019-01-03 19:00","2019","01","03","19:00","-24.3","","-27.9","","73","","0.0","","24","","5","","16.1","","100.66","","","","-29","","NA"
"-57.04","53.68","CARTWRIGHT A","8501106","2019-01-03 20:00","2019","01","03","20:00","-22.2","","-25.2","","77","","0.0","","","","0","","16.1","","100.64","","","","","","NA"
"-57.04","53.68","CARTWRIGHT A","8501106","2019-01-03 21:00","2019","01","03","21:00","-22.3","","-25.2","","78","","0.0","","","","0","","16.1","","100.63","","","","","","Snow"
"-57.04","53.68","CARTWRIGHT A","8501106","2019-01-03 22:00","2019","01","03","22:00","-22.0","","-25.6","","73","","0.0","","21","","13","","16.1","","100.58","","","","-31","","NA"
"-57.04","53.68","CARTWRIGHT A","8501106","2019-01-03 23:00","2019","01","03","23:00","-22.1","","-25.8","","72","","0.0","","21","","13","","16.1","","100.53","","","","-31","","NA"
"-57.04","53.68","CARTWRIGHT A","8501106","2019-01-04 00:00","2019","01","04","00:00","-21.8","","-25.9","","70","","0.0","","21","","8","","16.1","","100.51","","","","-28","","Snow"
"-57.04","53.68","CARTWRIGHT A","8501106","2019-01-04 01:00","2019","01","04","01:00","-20.9","","-25.2","","69","","0.0","","21","","13","","16.1","","100.52","","","","-30","","NA"
"-57.04","53.68","CARTWRIGHT A","8501106","2019-01-04 02:00","2019","01","04","02:00","-19.7","","-23.7","","71","","0.0","","22","","9","","16.1","","100.55","","","","-26","","NA"
"-57.04","53.68","CARTWRIGHT A","8501106","2019-01-04 03:00","2019","01","04","03:00","-19.4","","-24.0","","68","","0.0","","20","","13","","16.1","","100.53","","","","-28","","Snow"
"-57.04","53.68","CARTWRIGHT A","8501106","2019-01-04 04:00","2019","01","04","04:00","-19.4","","-24.1","","67","","0.0","","21","","15","","16.1","","100.56","","","","-28","","NA"
"-57.04","53.68","CARTWRIGHT A","8501106","2019-01-04 05:00","2019","01","04","05:00","-20.8","","-25.1","","69","","0.0","","21","","11","","16.1","","100.57","","","","-29","","NA"
"-57.04","53.68","CARTWRIGHT A","8501106","2019-01-04 06:00","2019","01","04","06:00","-21.4","","-25.2","","72","","0.0","","20","","13","","16.1","","100.64","","","","-30","","NA"
"-57.04","53.68","CARTWRIGHT A","8501106","2019-01-04 07:00","2019","01","04","07:00","-21.1","","-25.1","","71","","0.0","","20","","17","","16.1","","100.69","","","","-31","","NA"
"-57.04","53.68","CARTWRIGHT A","8501106","2019-01-04 08:00","2019","01","04","08:00","-21.7","","-25.3","","73","","0.0","","20","","9","","16.1","","100.74","","","","-29","","NA"
"-57.04","53.68","CARTWRIGHT A","8501106","2019-01-04 09:00","2019","01","04","09:00","-21.4","","-25.0","","73","","0.0","","21","","9","","16.1","","100.75","","","","-28","","NA"
"-57.04","53.68","CARTWRIGHT A","8501106","2019-01-04 10:00","2019","01","04","10:00","-20.3","","-24.5","","70","","0.0","","22","","11","","16.1","","100.76","","","","-28","","NA"
"-57.04","53.68","CARTWRIGHT A","8501106","2019-01-04 11:00","2019","01","04","11:00","-18.8","","-23.7","","66","","0.0","","21","","9","","16.1","","100.72","","","","-25","","NA"
"-57.04","53.68","CARTWRIGHT A","8501106","2019-01-04 12:00","2019","01","04","12:00","-16.9","","-22.0","","65","","0.0","","22","","18","","16.1","","100.67","","","","-26","","NA"
"-57.04","53.68","CARTWRIGHT A","8501106","2019-01-04 13:00","2019","01","04","13:00","-15.8","","-21.1","","64","","0.0","","22","","15","","16.1","","100.66","","","","-24","","NA"
"-57.04","53.68","CARTWRIGHT A","8501106","2019-01-04 14:00","2019","01","04","14:00","-15.3","","-20.7","","64","","0.0","","21","","9","","16.1","","100.67","","","","-21","","NA"
"-57.04","53.68","CARTWRIGHT A","8501106","2019-01-04 15:00","2019","01","04","15:00","-13.9","","-19.2","","65","","0.0","","19","","15","","16.1","","100.68","","","","-22","","NA"
"-57.04","53.68","CARTWRIGHT A","8501106","2019-01-04 16:00","2019","01","04","16:00","-14.6","","-19.3","","68","","0.0","","20","","11","","16.1","","100.67","","","","-21","","NA"
"-57.04","53.68","CARTWRIGHT A","8501106","2019-01-04 17:00","2019","01","04","17:00","-15.1","","-19.3","","71","","0.0","","18","","8","","16.1","","100.61","","","","-20","","Snow"
"-57.04","53.68","CARTWRIGHT A","8501106","2019-01-04 18:00","2019","01","04","18:00","-15.1","","-18.8","","74","","0.0","","22","","8","","16.1","","100.57","","","","-20","","NA"
"-57.04","53.68","CARTWRIGHT A","8501106","2019-01-04 19:00","2019","01","04","19:00","-15.1","","-18.4","","76","","0.0","","","","0","","16.1","","100.56","","","","","","Snow"
"-57.04","53.68","CARTWRIGHT A","8501106","2019-01-04 20:00","2019","01","04","20:00","-14.1","","-16.8","","80","","0.0","","","","0","","16.1","","100.52","","","","","","Snow"
"-57.04","53.68","CARTWRIGHT A","8501106","2019-01-04 21:00","2019","01","04","21:00","-14.1","","-16.7","","81","","0.0","","","","0","","16.1","","100.47","","","","","","Snow"
"-57.04","53.68","CARTWRIGHT A","8501106","2019-01-04 22:00","2019","01","04","22:00","-13.9","","-16.3","","82","","0.0","","","","0","","12.9","","100.40","","","","","","Snow"
"-57.04","53.68","CARTWRIGHT A","8501106","2019-01-04 23:00","2019","01","04","23:00","-13.6","","-15.9","","83","","0.0","","23","","5","","8.1","","100.33","","","","-17","","Snow"
"-57.04","53.68","CARTWRIGHT A","8501106","2019-01-05 00:00","2019","01","05","00:00","-13.0","","-15.2","","84","","0.0","","20","","4","","8.1","","100.25","","","","-16","","Snow"
"-57.04","53.68","CARTWRIGHT A","8501106","2019-01-05 01:00","2019","01","05","01:00","-13.0","","-14.9","","86","","0.0","","","","0","","4.8","","100.21","","","","","","Snow"
"-57.04","53.68","CARTWRIGHT A","8501106","2019-01-05 02:00","2019","01","05","02:00","-12.2","","-13.9","","87","","0.0","","","M","4","","8.1","","100.15","","","","-15","","Snow"
"-57.04","53.68","CARTWRIGHT A","8501106","2019-01-05 03:00","2019","01","05","03:00","-11.8","","-13.3","","89","","0.0","","","","0","","11.3","","100.13","","","","","","Snow"
"-57.04","53.68","CARTWRIGHT A","8501106","2019-01-05 04:00","2019","01","05","04:00","-11.8","","-13.6","","87","","0.0","","","","0","","3.6","","100.04","","","","","","Snow"
"-57.04","53.68","CARTWRIGHT A","8501106","2019-01-05 05:00","2019","01","05","05:00","-11.5","","-13.1","","88","","0.0","","8","","5","","8.1","","99.97","","","","-15","","Snow"
"-57.04","53.68","CARTWRIGHT A","8501106","2019-01-05 06:00","2019","01","05","06:00","-12.0","","-13.6","","88","","0.0","","21","","5","","8.1","","99.96","","","","-15","","Snow"
"-57.04","53.68","CARTWRIGHT A","8501106","2019-01-05 07:00","2019","01","05","07:00","-12.2","","-13.8","","88","","0.0","","19","","11","","16.1","","99.99","","","","-18","","Snow"
"-57.04","53.68","CARTWRIGHT A","8501106","2019-01-05 08:00","2019","01","05","08:00","-11.3","","-13.1","","87","","0.0","","18","","8","","16.1","","100.01","","","","-16","","Snow"
"-57.04","53.68","CARTWRIGHT A","8501106","2019-01-05 09:00","2019","01","05","09:00","-10.0","","-11.8","","87","","0.0","","21","","8","","16.1","","100.05","","","","-14","","NA"
"-57.04","53.68","CARTWRIGHT A","8501106","2019-01-05 10:00","2019","01","05","10:00","-10.4","","-12.3","","86","","0.0","","22","","11","","16.1","","100.08","","","","-16","","NA"
"-57.04","53.68","CARTWRIGHT A","8501106","2019-01-05 11:00","2019","01","05","11:00","-10.5","","-12.5","","86","","0.0","","20","","13","","16.1","","100.06","","","","-17","","NA"
"-57.04","53.68","CARTWRIGHT A","8501106","2019-01-05 12:00","2019","01","05","12:00","-8.8","","-11.2","","83","","0.0","","22","","8","","16.1","","100.04","","","","-13","","NA"
"-57.04","53.68","CARTWRIGHT A","8501106","2019-01-05 13:00","2019","01","05","13:00","-6.9","","-10.3","","77","","0.0","","22","","11","","16.1","","100.07","","","","-12","","NA"
"-57.04","53.68","CARTWRIGHT A","8501106","2019-01-05 14:00","2019","01","05","14:00","-7.3","","-11.0","","75","","0.0","","22","","13","","16.1","","100.16","","","","-13","","NA"
"-57.04","53.68","CARTWRIGHT A","8501106","2019-01-05 15:00","2019","01","05","15:00","-7.0","","-11.1","","73","","0.0","","21","","17","","16.1","","100.27","","","","-13","","NA"
"-57.04","53.68","CARTWRIGHT A","8501106","2019-01-05 16:00","2019","01","05","16:00","-7.4","","-11.1","","75","","0.0","","20","","21","","16.1","","100.33","","","","-15","","NA"
"-57.04","53.68","CARTWRIGHT A","8501106","2019-01-05 17:00","2019","01","05","17:00","-8.2","","-11.4","","78","","0.0","","21","","17","","16.1","","100.38","","","","-15","","NA"
"-57.04","53.68","CARTWRIGHT A","8501106","2019-01-05 18:00","2019","01","05","18:00","-7.4","","-11.1","","75","","0.0","","22","","21","","16.1","","100.40","","","","-15","","NA"
"-57.04","53.68","CARTWRIGHT A","8501106","2019-01-05 19:00","2019","01","05","19:00","-7.1","","-11.2","","73","","0.0","","19","","18","","16.1","","100.43","","","","-14","","NA"
"-57.04","53.68","CARTWRIGHT A","8501106","2019-01-05 20:00","2019","01","05","20:00","-7.2","","-11.1","","74","","0.0","","22","","18","","16.1","","100.46","","","","-14","","NA"
"-57.04","53.68","CARTWRIGHT A","8501106","2019-01-05 21:00","2019","01","05","21:00","-7.4","","-11.3","","74","","0.0","","22","","18","","16.1","","100.46","","","","-14","","NA"
"-57.04","53.68","CARTWRIGHT A","8501106","2019-01-05 22:00","2019","01","05","22:00","-9.2","","-11.7","","82","","0.0","","21","","17","","16.1","","100.50","","","","-16","","NA"
"-57.04","53.68","CARTWRIGHT A","8501106","2019-01-05 23:00","2019","01","05","23:00","-11.4","","-13.6","","84","","0.0","","19","","11","","16.1","","100.53","","","","-17","","NA"
"-57.04","53.68","CARTWRIGHT A","8501106","2019-01-06 00:00","2019","01","06","00:00","-11.7","","-13.6","","86","","0.0","","21","","18","","16.1","","100.53","","","","-20","","NA"
"-57.04","53.68","CARTWRIGHT A","8501106","2019-01-06 01:00","2019","01","06","01:00","-11.1","","-13.3","","84","","0.0","","22","","13","","16.1","","100.55","","","","-18","","NA"
"-57.04","53.68","CARTWRIGHT A","8501106","2019-01-06 02:00","2019","01","06","02:00","-12.1","","-13.8","","87","","0.0","","23","","9","","16.1","","100.58","","","","-17","","NA"
"-57.04","53.68","CARTWRIGHT A","8501106","2019-01-06 03:00","2019","01","06","03:00","-12.5","","-14.2","","87","","0.0","","","M","5","","16.1","","100.55","","","","-16","","NA"
"-57.04","53.68","CARTWRIGHT A","8501106","2019-01-06 04:00","2019","01","06","04:00","-14.0","","-15.4","","89","","0.0","","21","","5","","16.1","","100.57","","","","-17","","NA"
"-57.04","53.68","CARTWRIGHT A","8501106","2019-01-06 05:00","2019","01","06","05:00","-13.3","","-14.8","","89","","0.0","","21","","8","","16.1","","100.56","","","","-18","","NA"
"-57.04","53.68","CARTWRIGHT A","8501106","2019-01-06 06:00","2019","01","06","06:00","-14.9","","-16.5","","88","","0.0","","21","","8","","16.1","","100.57","","","","-20","","NA"
"-57.04","53.68","CARTWRIGHT A","8501106","2019-01-06 07:00","2019","01","06","07:00","-15.1","","-16.8","","87","","0.0","","","","0","","16.1","","100.55","","","","","","NA"
"-57.04","53.68","CARTWRIGHT A","8501106","2019-01-06 08:00","2019","01","06","08:00","-16.7","","-18.5","","86","","0.0","","20","","11","","16.1","","100.58","","","","-24","","NA"
"-57.04","53.68","CARTWRIGHT A","8501106","2019-01-06 09:00","2019","01","06","09:00","-14.7","","-16.7","","85","","0.0","","20","","11","","16.1","","100.58","","","","-21","","NA"
"-57.04","53.68","CARTWRIGHT A","8501106","2019-01-06 10:00","2019","01","06","10:00","-14.4","","-16.4","","85","","0.0","","","","0","","16.1","","100.57","","","","","","NA"
"-57.04","53.68","CARTWRIGHT A","8501106","2019-01-06 11:00","2019","01","06","11:00","-13.2","","-15.1","","86","","0.0","","","","0","","16.1","","100.51","","","","","","NA"
"-57.04","53.68","CARTWRIGHT A","8501106","2019-01-06 12:00","2019","01","06","12:00","-12.2","","-14.1","","86","","0.0","","5","","8","","16.1","","100.41","","","","-17","","NA"
"-57.04","53.68","CARTWRIGHT A","8501106","2019-01-06 13:00","2019","01","06","13:00","-10.6","","-12.5","","86","","0.0","","4","","9","","16.1","","100.36","","","","-16","","NA"
"-57.04","53.68","CARTWRIGHT A","8501106","2019-01-06 14:00","2019","01","06","14:00","-8.8","","-10.7","","86","","0.0","","4","","13","","16.1","","100.32","","","","-15","","NA"
"-57.04","53.68","CARTWRIGHT A","8501106","2019-01-06 15:00","2019","01","06","15:00","-7.5","","-8.7","","91","","0.0","","5","","13","","6.4","","100.24","","","","-13","","Snow"
"-57.04","53.68","CARTWRIGHT A","8501106","2019-01-06 16:00","2019","01","06","16:00","-4.2","","-5.0","","94","","0.0","","1","","30","","1.6","","100.16","","","","-12","","Snow"
"-57.04","53.68","CARTWRIGHT A","8501106","2019-01-06 17:00","2019","01","06","17:00","-3.3","","-4.3","","93","","0.0","","2","","37","","1.6","","100.05","","","","-12","","Snow"
"-57.04","53.68","CARTWRIGHT A","8501106","2019-01-06 18:00","2019","01","06","18:00","-3.5","","-4.3","","94","","0.0","","1","","45","","1.0","","99.93","","","","-13","","Snow"
"-57.04","53.68","CARTWRIGHT A","8501106","2019-01-06 19:00","2019","01","06","19:00","-3.2","","-4.0","","94","","0.2","","1","","48","","0.8","","99.83","","","","-12","","Moderate Snow"
"-57.04","53.68","CARTWRIGHT A","8501106","2019-01-06 20:00","2019","01","06","20:00","-3.4","","-4.2","","94","","0.2","","1","","46","","0.8","","99.69","","","","-12","","Moderate Snow"
"-57.04","53.68","CARTWRIGHT A","8501106","2019-01-06 21:00","2019","01","06","21:00","-2.9","","-3.7","","94","","0.0","","1","","55","","0.8","","99.54","","","","-12","","Moderate Snow"
"-57.04","53.68","CARTWRIGHT A","8501106","2019-01-06 22:00","2019","01","06","22:00","-2.5","","-3.2","","95","","0.2","","36","","52","","0.8","","99.40","","","","-12","","Moderate Snow"
"-57.04","53.68","CARTWRIGHT A","8501106","2019-01-06 23:00","2019","01","06","23:00","-2.1","","-2.8","","95","","0.0","","1","","54","","0.8","","99.24","","","","-11","","Moderate Snow"
"-57.04","53.68","CARTWRIGHT A","8501106","2019-01-07 00:00","2019","01","07","00:00","-2.0","","-2.7","","95","","0.5","","1","","55","","0.6","","99.09","","","","-11","","Moderate Snow"
"-57.04","53.68","CARTWRIGHT A","8501106","2019-01-07 01:00","2019","01","07","01:00","-2.0","","-2.7","","95","","0.2","","1","","59","","0.6","","98.93","","","","-11","","Moderate Snow"
"-57.04","53.68","CARTWRIGHT A","8501106","2019-01-07 02:00","2019","01","07","02:00","-1.9","","-2.6","","95","","0.2","","1","","68","","0.4","","98.83","","","","-12","","Heavy Snow"
"-57.04","53.68","CARTWRIGHT A","8501106","2019-01-07 03:00","2019","01","07","03:00","-1.9","","-2.5","","96","","0.2","","36","","61","","0.4","","98.71","","","","-11","","Heavy Snow"
"-57.04","53.68","CARTWRIGHT A","8501106","2019-01-07 04:00","2019","01","07","04:00","-1.7","","-2.4","","95","","0.0","","","M","","M","0.4","","98.59","","","","","","Heavy Snow"
"-57.04","53.68","CARTWRIGHT A","8501106","2019-01-07 05:00","2019","01","07","05:00","-1.7","","-2.5","","94","","0.2","","","M","","M","0.4","","98.54","","","","","","Heavy Snow"
"-57.04","53.68","CARTWRIGHT A","8501106","2019-01-07 06:00","2019","01","07","06:00","-1.9","","-2.7","","94","","0.2","","","M","","M","0.4","","98.61","","","","","","Heavy Snow"
"-57.04","53.68","CARTWRIGHT A","8501106","2019-01-07 07:00","2019","01","07","07:00"
"-57.04","53.68","CARTWRIGHT A","8501106","2019-01-07 08:00","2019","01","07","08:00","-3.2","","-4.5","","91","","0.0","","","M","","M","","M","98.73","","","","","","NA"
"-57.04","53.68","CARTWRIGHT A","8501106","2019-01-07 09:00","2019","01","07","09:00"
"-57.04","53.68","CARTWRIGHT A","8501106","2019-01-07 10:00","2019","01","07","10:00"
"-57.04","53.68","CARTWRIGHT A","8501106","2019-01-07 11:00","2019","01","07","11:00"
"-57.04","53.68","CARTWRIGHT A","8501106","2019-01-07 12:00","2019","01","07","12:00"
"-57.04","53.68","CARTWRIGHT A","8501106","2019-01-07 13:00","2019","01","07","13:00"
"-57.04","53.68","CARTWRIGHT A","8501106","2019-01-07 14:00","2019","01","07","14:00"
"-57.04","53.68","CARTWRIGHT A","8501106","2019-01-07 15:00","2019","01","07","15:00"
"-57.04","53.68","CARTWRIGHT A","8501106","2019-01-07 16:00","2019","01","07","16:00"
"-57.04","53.68","CARTWRIGHT A","8501106","2019-01-07 17:00","2019","01","07","17:00"
"-57.04","53.68","CARTWRIGHT A","8501106","2019-01-07 18:00","2019","01","07","18:00"
"-57.04","53.68","CARTWRIGHT A","8501106","2019-01-07 19:00","2019","01","07","19:00"
"-57.04","53.68","CARTWRIGHT A","8501106","2019-01-07 20:00","2019","01","07","20:00"
"-57.04","53.68","CARTWRIGHT A","8501106","2019-01-07 21:00","2019","01","07","21:00"
"-57.04","53.68","CARTWRIGHT A","8501106","2019-01-07 22:00","2019","01","07","22:00"
"-57.04","53.68","CARTWRIGHT A","8501106","2019-01-07 23:00","2019","01","07","23:00"
"-57.04","53.68","CARTWRIGHT A","8501106","2019-01-08 00:00","2019","01","08","00:00"
"-57.04","53.68","CARTWRIGHT A","8501106","2019-01-08 01:00","2019","01","08","01:00"
"-57.04","53.68","CARTWRIGHT A","8501106","2019-01-08 02:00","2019","01","08","02:00"
"-57.04","53.68","CARTWRIGHT A","8501106","2019-01-08 03:00","2019","01","08","03:00"
"-57.04","53.68","CARTWRIGHT A","8501106","2019-01-08 04:00","2019","01","08","04:00"
"-57.04","53.68","CARTWRIGHT A","8501106","2019-01-08 05:00","2019","01","08","05:00"
"-57.04","53.68","CARTWRIGHT A","8501106","2019-01-08 06:00","2019","01","08","06:00"
"-57.04","53.68","CARTWRIGHT A","8501106","2019-01-08 07:00","2019","01","08","07:00"
"-57.04","53.68","CARTWRIGHT A","8501106","2019-01-08 08:00","2019","01","08","08:00"
"-57.04","53.68","CARTWRIGHT A","8501106","2019-01-08 09:00","2019","01","08","09:00"
"-57.04","53.68","CARTWRIGHT A","8501106","2019-01-08 10:00","2019","01","08","10:00"
"-57.04","53.68","CARTWRIGHT A","8501106","2019-01-08 11:00","2019","01","08","11:00"
"-57.04","53.68","CARTWRIGHT A","8501106","2019-01-08 12:00","2019","01","08","12:00"
"-57.04","53.68","CARTWRIGHT A","8501106","2019-01-08 13:00","2019","01","08","13:00"
"-57.04","53.68","CARTWRIGHT A","8501106","2019-01-08 14:00","2019","01","08","14:00"
"-57.04","53.68","CARTWRIGHT A","8501106","2019-01-08 15:00","2019","01","08","15:00"
"-57.04","53.68","CARTWRIGHT A","8501106","2019-01-08 16:00","2019","01","08","16:00"
"-57.04","53.68","CARTWRIGHT A","8501106","2019-01-08 17:00","2019","01","08","17:00"
"-57.04","53.68","CARTWRIGHT A","8501106","2019-01-08 18:00","2019","01","08","18:00"
"-57.04","53.68","CARTWRIGHT A","8501106","2019-01-08 19:00","2019","01","08","19:00"
"-57.04","53.68","CARTWRIGHT A","8501106","2019-01-08 20:00","2019","01","08","20:00"
"-57.04","53.68","CARTWRIGHT A","8501106","2019-01-08 21:00","2019","01","08","21:00"
"-57.04","53.68","CARTWRIGHT A","8501106","2019-01-08 22:00","2019","01","08","22:00"
"-57.04","53.68","CARTWRIGHT A","8501106","2019-01-08 23:00","2019","01","08","23:00"
"-57.04","53.68","CARTWRIGHT A","8501106","2019-01-09 00:00","2019","01","09","00:00"
"-57.04","53.68","CARTWRIGHT A","8501106","2019-01-09 01:00","2019","01","09","01:00"
"-57.04","53.68","CARTWRIGHT A","8501106","2019-01-09 02:00","2019","01","09","02:00"
"-57.04","53.68","CARTWRIGHT A","8501106","2019-01-09 03:00","2019","01","09","03:00"
"-57.04","53.68","CARTWRIGHT A","8501106","2019-01-09 04:00","2019","01","09","04:00"
"-57.04","53.68","CARTWRIGHT A","8501106","2019-01-09 05:00","2019","01","09","05:00"
"-57.04","53.68","CARTWRIGHT A","8501106","2019-01-09 06:00","2019","01","09","06:00"
"-57.04","53.68","CARTWRIGHT A","8501106","2019-01-09 07:00","2019","01","09","07:00"
"-57.04","53.68","CARTWRIGHT A","8501106","2019-01-09 08:00","2019","01","09","08:00"
"-57.04","53.68","CARTWRIGHT A","8501106","2019-01-09 09:00","2019","01","09","09:00"
"-57.04","53.68","CARTWRIGHT A","8501106","2019-01-09 10:00","2019","01","09","10:00"
"-57.04","53.68","CARTWRIGHT A","8501106","2019-01-09 11:00","2019","01","09","11:00"
"-57.04","53.68","CARTWRIGHT A","8501106","2019-01-09 12:00","2019","01","09","12:00"
"-57.04","53.68","CARTWRIGHT A","8501106","2019-01-09 13:00","2019","01","09","13:00"
"-57.04","53.68","CARTWRIGHT A","8501106","2019-01-09 14:00","2019","01","09","14:00"
"-57.04","53.68","CARTWRIGHT A","8501106","2019-01-09 15:00","2019","01","09","15:00"
"-57.04","53.68","CARTWRIGHT A","8501106","2019-01-09 16:00","2019","01","09","16:00"
"-57.04","53.68","CARTWRIGHT A","8501106","2019-01-09 17:00","2019","01","09","17:00"
"-57.04","53.68","CARTWRIGHT A","8501106","2019-01-09 18:00","2019","01","09","18:00"
"-57.04","53.68","CARTWRIGHT A","8501106","2019-01-09 19:00","2019","01","09","19:00"
"-57.04","53.68","CARTWRIGHT A","8501106","2019-01-09 20:00","2019","01","09","20:00"
"-57.04","53.68","CARTWRIGHT A","8501106","2019-01-09 21:00","2019","01","09","21:00"
"-57.04","53.68","CARTWRIGHT A","8501106","2019-01-09 22:00","2019","01","09","22:00"
"-57.04","53.68","CARTWRIGHT A","8501106","2019-01-09 23:00","2019","01","09","23:00"
"-57.04","53.68","CARTWRIGHT A","8501106","2019-01-10 00:00","2019","01","10","00:00"
"-57.04","53.68","CARTWRIGHT A","8501106","2019-01-10 01:00","2019","01","10","01:00"
"-57.04","53.68","CARTWRIGHT A","8501106","2019-01-10 02:00","2019","01","10","02:00"
"-57.04","53.68","CARTWRIGHT A","8501106","2019-01-10 03:00","2019","01","10","03:00"
"-57.04","53.68","CARTWRIGHT A","8501106","2019-01-10 04:00","2019","01","10","04:00"
"-57.04","53.68","CARTWRIGHT A","8501106","2019-01-10 05:00","2019","01","10","05:00"
"-57.04","53.68","CARTWRIGHT A","8501106","2019-01-10 06:00","2019","01","10","06:00"
"-57.04","53.68","CARTWRIGHT A","8501106","2019-01-10 07:00","2019","01","10","07:00"
"-57.04","53.68","CARTWRIGHT A","8501106","2019-01-10 08:00","2019","01","10","08:00"
"-57.04","53.68","CARTWRIGHT A","8501106","2019-01-10 09:00","2019","01","10","09:00"
"-57.04","53.68","CARTWRIGHT A","8501106","2019-01-10 10:00","2019","01","10","10:00"
"-57.04","53.68","CARTWRIGHT A","8501106","2019-01-10 11:00","2019","01","10","11:00"
"-57.04","53.68","CARTWRIGHT A","8501106","2019-01-10 12:00","2019","01","10","12:00"
"-57.04","53.68","CARTWRIGHT A","8501106","2019-01-10 13:00","2019","01","10","13:00"
"-57.04","53.68","CARTWRIGHT A","8501106","2019-01-10 14:00","2019","01","10","14:00"
"-57.04","53.68","CARTWRIGHT A","8501106","2019-01-10 15:00","2019","01","10","15:00"
"-57.04","53.68","CARTWRIGHT A","8501106","2019-01-10 16:00","2019","01","10","16:00"
"-57.04","53.68","CARTWRIGHT A","8501106","2019-01-10 17:00","2019","01","10","17:00"
"-57.04","53.68","CARTWRIGHT A","8501106","2019-01-10 18:00","2019","01","10","18:00"
"-57.04","53.68","CARTWRIGHT A","8501106","2019-01-10 19:00","2019","01","10","19:00"
"-57.04","53.68","CARTWRIGHT A","8501106","2019-01-10 20:00","2019","01","10","20:00"
"-57.04","53.68","CARTWRIGHT A","8501106","2019-01-10 21:00","2019","01","10","21:00"
"-57.04","53.68","CARTWRIGHT A","8501106","2019-01-10 22:00","2019","01","10","22:00"
"-57.04","53.68","CARTWRIGHT A","8501106","2019-01-10 23:00","2019","01","10","23:00"
"-57.04","53.68","CARTWRIGHT A","8501106","2019-01-11 00:00","2019","01","11","00:00"
"-57.04","53.68","CARTWRIGHT A","8501106","2019-01-11 01:00","2019","01","11","01:00"
"-57.04","53.68","CARTWRIGHT A","8501106","2019-01-11 02:00","2019","01","11","02:00"
"-57.04","53.68","CARTWRIGHT A","8501106","2019-01-11 03:00","2019","01","11","03:00"
"-57.04","53.68","CARTWRIGHT A","8501106","2019-01-11 04:00","2019","01","11","04:00"
"-57.04","53.68","CARTWRIGHT A","8501106","2019-01-11 05:00","2019","01","11","05:00"
"-57.04","53.68","CARTWRIGHT A","8501106","2019-01-11 06:00","2019","01","11","06:00"
"-57.04","53.68","CARTWRIGHT A","8501106","2019-01-11 07:00","2019","01","11","07:00"
"-57.04","53.68","CARTWRIGHT A","8501106","2019-01-11 08:00","2019","01","11","08:00"
"-57.04","53.68","CARTWRIGHT A","8501106","2019-01-11 09:00","2019","01","11","09:00"
"-57.04","53.68","CARTWRIGHT A","8501106","2019-01-11 10:00","2019","01","11","10:00"
"-57.04","53.68","CARTWRIGHT A","8501106","2019-01-11 11:00","2019","01","11","11:00"
"-57.04","53.68","CARTWRIGHT A","8501106","2019-01-11 12:00","2019","01","11","12:00"
"-57.04","53.68","CARTWRIGHT A","8501106","2019-01-11 13:00","2019","01","11","13:00"
"-57.04","53.68","CARTWRIGHT A","8501106","2019-01-11 14:00","2019","01","11","14:00"
"-57.04","53.68","CARTWRIGHT A","8501106","2019-01-11 15:00","2019","01","11","15:00"
"-57.04","53.68","CARTWRIGHT A","8501106","2019-01-11 16:00","2019","01","11","16:00","","M","","M","","M","","M","","M","","M","","M","","M","","","","","NA"
"-57.04","53.68","CARTWRIGHT A","8501106","2019-01-11 17:00","2019","01","11","17:00","-0.7","","-1.1","","97","","0.0","","22","","13","","4.8","","99.72","","","","-5","","Snow"
"-57.04","53.68","CARTWRIGHT A","8501106","2019-01-11 18:00","2019","01","11","18:00","-1.3","","-1.6","","98","","0.0","","21","","9","","1.2","","99.72","","","","-5","","Snow"
"-57.04","53.68","CARTWRIGHT A","8501106","2019-01-11 19:00","2019","01","11","19:00","-1.4","","-1.7","","98","","0.0","","20","","9","","16.1","","99.73","","","","-5","","Snow"
"-57.04","53.68","CARTWRIGHT A","8501106","2019-01-11 20:00","2019","01","11","20:00","-1.7","","-2.2","","96","","0.0","","24","","5","","16.1","","99.78","","","","-4","","Snow"
"-57.04","53.68","CARTWRIGHT A","8501106","2019-01-11 21:00","2019","01","11","21:00","-1.6","","-2.3","","95","","0.0","","19","","9","","16.1","","99.82","","","","-5","","Snow"
"-57.04","53.68","CARTWRIGHT A","8501106","2019-01-11 22:00","2019","01","11","22:00","-2.0","","-2.7","","95","","0.0","","20","","8","","16.1","","99.84","","","","-5","","NA"
"-57.04","53.68","CARTWRIGHT A","8501106","2019-01-11 23:00","2019","01","11","23:00","-2.2","","-2.9","","95","","0.0","","19","","9","","16.1","","99.86","","","","-6","","Snow"
"-57.04","53.68","CARTWRIGHT A","8501106","2019-01-12 00:00","2019","01","12","00:00","-3.2","","-3.9","","95","","0.0","","22","","5","","16.1","","99.88","","","","-5","","NA"
"-57.04","53.68","CARTWRIGHT A","8501106","2019-01-12 01:00","2019","01","12","01:00","-3.1","","-3.9","","94","","0.0","","20","","15","","16.1","","99.90","","","","-8","","NA"
"-57.04","53.68","CARTWRIGHT A","8501106","2019-01-12 02:00","2019","01","12","02:00","-2.8","","-3.8","","93","","0.0","","21","","15","","16.1","","99.96","","","","-8","","NA"
"-57.04","53.68","CARTWRIGHT A","8501106","2019-01-12 03:00","2019","01","12","03:00","-2.2","","-3.3","","92","","0.0","","20","","18","","16.1","","100.01","","","","-8","","Snow"
"-57.04","53.68","CARTWRIGHT A","8501106","2019-01-12 04:00","2019","01","12","04:00","-2.6","","-3.7","","92","","0.0","","21","","15","","16.1","","100.06","","","","-8","","Snow"
"-57.04","53.68","CARTWRIGHT A","8501106","2019-01-12 05:00","2019","01","12","05:00","-3.7","","-5.0","","91","","0.0","","21","","15","","16.1","","100.10","","","","-9","","NA"
"-57.04","53.68","CARTWRIGHT A","8501106","2019-01-12 06:00","2019","01","12","06:00","-4.3","","-5.6","","91","","0.0","","20","","17","","16.1","","100.15","","","","-10","","NA"
"-57.04","53.68","CARTWRIGHT A","8501106","2019-01-12 07:00","2019","01","12","07:00","-4.8","","-6.2","","90","","0.0","","19","","18","","16.1","","100.22","","","","-11","","NA"
"-57.04","53.68","CARTWRIGHT A","8501106","2019-01-12 08:00","2019","01","12","08:00","-4.7","","-6.3","","89","","0.0","","19","","18","","16.1","","100.29","","","","-11","","NA"
"-57.04","53.68","CARTWRIGHT A","8501106","2019-01-12 09:00","2019","01","12","09:00","-6.3","","-7.5","","91","","0.0","","20","","17","","16.1","","100.36","","","","-13","","NA"
"-57.04","53.68","CARTWRIGHT A","8501106","2019-01-12 10:00","2019","01","12","10:00","-5.6","","-6.8","","92","","0.0","","21","","8","","16.1","","100.41","","","","-9","","NA"
"-57.04","53.68","CARTWRIGHT A","8501106","2019-01-12 11:00","2019","01","12","11:00","-5.1","","-6.4","","91","","0.0","","20","","11","","16.1","","100.43","","","","-10","","NA"
"-57.04","53.68","CARTWRIGHT A","8501106","2019-01-12 12:00","2019","01","12","12:00","-3.5","","-5.4","","87","","0.0","","19","","13","","16.1","","100.42","","","","-8","","Snow"
"-57.04","53.68","CARTWRIGHT A","8501106","2019-01-12 13:00","2019","01","12","13:00","-3.1","","-4.8","","88","","0.0","","18","","8","","16.1","","100.40","","","","-6","","NA"
"-57.04","53.68","CARTWRIGHT A","8501106","2019-01-12 14:00","2019","01","12","14:00","-2.5","","-3.9","","90","","0.0","","20","","9","","16.1","","100.41","","","","-6","","Snow"
"-57.04","53.68","CARTWRIGHT A","8501106","2019-01-12 15:00","2019","01","12","15:00","-2.6","","-4.0","","90","","0.0","","23","","9","","14.5","","100.46","","","","-6","","Snow"
"-57.04","53.68","CARTWRIGHT A","8501106","2019-01-12 16:00","2019","01","12","16:00","-2.6","","-4.2","","89","","0.0","","22","","9","","16.1","","100.52","","","","-6","","Snow"
"-57.04","53.68","CARTWRIGHT A","8501106","2019-01-12 17:00","2019","01","12","17:00","-3.6","","-4.3","","95","","0.0","","","","0","","3.2","","100.57","","","","","","Snow"
"-57.04","53.68","CARTWRIGHT A","8501106","2019-01-12 18:00","2019","01","12","18:00","-4.5","","-5.3","","94","","0.0","","2","","8","","2.8","","100.60","","","","-8","","Snow"
"-57.04","53.68","CARTWRIGHT A","8501106","2019-01-12 19:00","2019","01","12","19:00","-5.1","","-6.1","","93","","0.0","","2","","9","","11.3","","100.65","","","","-9","","Snow"
"-57.04","53.68","CARTWRIGHT A","8501106","2019-01-12 20:00","2019","01","12","20:00","-5.3","","-6.0","","95","","0.0","","6","","5","","6.4","","100.70","","","","-8","","Snow"
"-57.04","53.68","CARTWRIGHT A","8501106","2019-01-12 21:00","2019","01","12","21:00","-5.5","","-6.3","","94","","0.0","","5","","5","","8.1","","100.72","","","","-8","","Snow"
"-57.04","53.68","CARTWRIGHT A","8501106","2019-01-12 22:00","2019","01","12","22:00","-5.5","","-6.3","","94","","0.0","","12","","4","","6.4","","100.72","","","","-7","","Snow"
"-57.04","53.68","CARTWRIGHT A","8501106","2019-01-12 23:00","2019","01","12","23:00","-5.8","","-6.6","","94","","0.0","","22","","5","","16.1","","100.69","","","","-8","","NA"
"-57.04","53.68","CARTWRIGHT A","8501106","2019-01-13 00:00","2019","01","13","00:00","-6.5","","-8.5","","86","","0.0","","21","","9","","16.1","","100.67","","","","-11","","Snow"
"-57.04","53.68","CARTWRIGHT A","8501106","2019-01-13 01:00","2019","01","13","01:00","-6.6","","-8.4","","87","","0.0","","23","","9","","16.1","","100.63","","","","-11","","Snow"
"-57.04","53.68","CARTWRIGHT A","8501106","2019-01-13 02:00","2019","01","13","02:00","-6.6","","-8.1","","89","","0.0","","22","","9","","11.3","","100.63","","","","-11","","Snow"
"-57.04","53.68","CARTWRIGHT A","8501106","2019-01-13 03:00","2019","01","13","03:00","-6.8","","-8.2","","90","","0.2","","24","","11","","4.8","","100.64","","","","-12","","Snow"
"-57.04","53.68","CARTWRIGHT A","8501106","2019-01-13 04:00","2019","01","13","04:00","-7.2","","-8.6","","90","","0.2","","26","","11","","1.6","","100.61","","","","-12","","Snow"
"-57.04","53.68","CARTWRIGHT A","8501106","2019-01-13 05:00","2019","01","13","05:00","-7.6","","-9.4","","87","","0.8","","26","","11","","1.6","","100.59","","","","-13","","Snow"
"-57.04","53.68","CARTWRIGHT A","8501106","2019-01-13 06:00","2019","01","13","06:00","-7.9","","-9.9","","86","","0.2","","26","","11","","3.2","","100.55","","","","-13","","Snow"
"-57.04","53.68","CARTWRIGHT A","8501106","2019-01-13 07:00","2019","01","13","07:00","-7.7","","-9.7","","86","","0.2","","30","","22","","3.6","","100.49","","","","-15","","Snow"
"-57.04","53.68","CARTWRIGHT A","8501106","2019-01-13 08:00","2019","01","13","08:00","-7.5","","-9.5","","86","","0.0","","30","","30","","2.8","","100.46","","","","-16","","Snow"
"-57.04","53.68","CARTWRIGHT A","8501106","2019-01-13 09:00","2019","01","13","09:00","-7.2","","-9.2","","86","","0.0","","31","","26","","2.8","","100.48","","","","-15","","Snow"
"-57.04","53.68","CARTWRIGHT A","8501106","2019-01-13 10:00","2019","01","13","10:00","-7.0","","-9.3","","84","","0.0","","31","","34","","4.0","","100.45","","","","-16","","Snow"
"-57.04","53.68","CARTWRIGHT A","8501106","2019-01-13 11:00","2019","01","13","11:00","-7.4","","-9.7","","84","","0.0","","31","","37","","2.4","","100.41","","","","-17","","Snow"
"-57.04","53.68","CARTWRIGHT A","8501106","2019-01-13 12:00","2019","01","13","12:00","-7.5","","-9.9","","83","","0.0","","31","","39","","2.0","","100.37","","","","-17","","Snow"
"-57.04","53.68","CARTWRIGHT A","8501106","2019-01-13 13:00","2019","01","13","13:00","-7.9","","-10.6","","81","","0.0","","30","","43","","2.0","","100.39","","","","-18","","Snow"
"-57.04","53.68","CARTWRIGHT A","8501106","2019-01-13 14:00","2019","01","13","14:00","-8.4","","-10.8","","83","","0.0","","31","","34","","1.6","","100.44","","","","-18","","Snow"
"-57.04","53.68","CARTWRIGHT A","8501106","2019-01-13 15:00","2019","01","13","15:00","-8.6","","-11.5","","80","","0.0","","31","","43","","2.0","","100.40","","","","-19","","Snow"
"-57.04","53.68","CARTWRIGHT A","8501106","2019-01-13 16:00","2019","01","13","16:00","-9.0","","-11.4","","83","","0.0","","31","","46","","0.6","","100.44","","","","-20","","Moderate Snow"
"-57.04","53.68","CARTWRIGHT A","8501106","2019-01-13 17:00","2019","01","13","17:00","-9.0","","-12.2","","78","","0.0","","31","","37","","8.1","","100.56","","","","-19","","Snow"
"-57.04","53.68","CARTWRIGHT A","8501106","2019-01-13 18:00","2019","01","13","18:00","-9.1","","-12.4","","77","","0.0","","30","","37","","12.9","","100.65","","","","-19","","Snow"
"-57.04","53.68","CARTWRIGHT A","8501106","2019-01-13 19:00","2019","01","13","19:00","-9.7","","-12.7","","79","","0.0","","29","","22","","3.2","","100.71","","","","-18","","Snow"
"-57.04","53.68","CARTWRIGHT A","8501106","2019-01-13 20:00","2019","01","13","20:00","-9.7","","-13.2","","76","","0.0","","27","","26","","16.1","","100.76","","","","-19","","Snow"
"-57.04","53.68","CARTWRIGHT A","8501106","2019-01-13 21:00","2019","01","13","21:00","-10.1","","-13.4","","77","","0.0","","28","","35","","4.8","","100.77","","","","-20","","Snow"
"-57.04","53.68","CARTWRIGHT A","8501106","2019-01-13 22:00","2019","01","13","22:00","-10.9","","-14.5","","75","","0.0","","29","","30","","11.3","","100.78","","","","-21","","Snow"
"-57.04","53.68","CARTWRIGHT A","8501106","2019-01-13 23:00","2019","01","13","23:00","-10.5","","-14.6","","72","","0.0","","27","","18","","16.1","","100.85","","","","-18","","Snow"
"-57.04","53.68","CARTWRIGHT A","8501106","2019-01-14 00:00","2019","01","14","00:00","-11.9","","-15.7","","74","","0.0","","24","","28","","16.1","","100.90","","","","-22","","NA"
"-57.04","53.68","CARTWRIGHT A","8501106","2019-01-14 01:00","2019","01","14","01:00","-13.4","","-17.2","","73","","0.0","","24","","26","","16.1","","100.92","","","","-23","","NA"
"-57.04","53.68","CARTWRIGHT A","8501106","2019-01-14 02:00","2019","01","14","02:00","-13.6","","-18.1","","69","","0.0","","21","","11","","16.1","","100.96","","","","-20","","Snow"
"-57.04","53.68","CARTWRIGHT A","8501106","2019-01-14 03:00","2019","01","14","03:00","-13.3","","-17.5","","71","","0.0","","23","","21","","16.1","","100.97","","","","-22","","NA"
"-57.04","53.68","CARTWRIGHT A","8501106","2019-01-14 04:00","2019","01","14","04:00","-14.7","","-18.7","","72","","0.0","","22","","15","","16.1","","101.01","","","","-23","","NA"
"-57.04","53.68","CARTWRIGHT A","8501106","2019-01-14 05:00","2019","01","14","05:00","-16.3","","-20.3","","72","","0.0","","21","","11","","16.1","","101.03","","","","-23","","NA"
"-57.04","53.68","CARTWRIGHT A","8501106","2019-01-14 06:00","2019","01","14","06:00","-16.9","","-21.1","","70","","0.0","","20","","15","","16.1","","101.01","","","","-25","","NA"
"-57.04","53.68","CARTWRIGHT A","8501106","2019-01-14 07:00","2019","01","14","07:00","-17.9","","-21.8","","72","","0.0","","21","","15","","16.1","","101.03","","","","-26","","NA"
"-57.04","53.68","CARTWRIGHT A","8501106","2019-01-14 08:00","2019","01","14","08:00","-17.7","","-21.8","","71","","0.0","","21","","18","","16.1","","101.07","","","","-27","","NA"
"-57.04","53.68","CARTWRIGHT A","8501106","2019-01-14 09:00","2019","01","14","09:00","-17.0","","-21.3","","70","","0.0","","20","","22","","16.1","","101.06","","","","-27","","NA"
"-57.04","53.68","CARTWRIGHT A","8501106","2019-01-14 10:00","2019","01","14","10:00","-15.8","","-20.6","","67","","0.0","","21","","18","","16.1","","101.07","","","","-25","","NA"
"-57.04","53.68","CARTWRIGHT A","8501106","2019-01-14 11:00","2019","01","14","11:00","-15.2","","-19.9","","68","","0.0","","19","","24","","16.1","","100.98","","","","-25","","NA"
"-57.04","53.68","CARTWRIGHT A","8501106","2019-01-14 12:00","2019","01","14","12:00","-14.3","","-18.5","","71","","0.0","","21","","28","","16.1","","100.88","","","","-25","","NA"
"-57.04","53.68","CARTWRIGHT A","8501106","2019-01-14 13:00","2019","01","14","13:00","-12.7","","-17.5","","68","","0.0","","22","","22","","16.1","","100.76","","","","-22","","NA"
"-57.04","53.68","CARTWRIGHT A","8501106","2019-01-14 14:00","2019","01","14","14:00","-12.7","","-16.9","","71","","0.0","","20","","22","","16.1","","100.70","","","","-22","","NA"
"-57.04","53.68","CARTWRIGHT A","8501106","2019-01-14 15:00","2019","01","14","15:00","-11.6","","-15.9","","71","","0.0","","21","","30","","11.3","","100.68","","","","-22","","Snow"
"-57.04","53.68","CARTWRIGHT A","8501106","2019-01-14 16:00","2019","01","14","16:00","-11.3","","-15.1","","74","","0.0","","20","","21","","16.1","","100.66","","","","-20","","NA"
"-57.04","53.68","CARTWRIGHT A","8501106","2019-01-14 17:00","2019","01","14","17:00","-11.3","","-14.9","","75","","0.0","","22","","26","","16.1","","100.69","","","","-21","","NA"
"-57.04","53.68","CARTWRIGHT A","8501106","2019-01-14 18:00","2019","01","14","18:00","-11.4","","-14.8","","76","","0.0","","20","","15","","16.1","","100.75","","","","-18","","NA"
"-57.04","53.68","CARTWRIGHT A","8501106","2019-01-14 19:00","2019","01","14","19:00","-11.0","","-14.3","","77","","0.0","","21","","22","","16.1","","100.75","","","","-20","","NA"
"-57.04","53.68","CARTWRIGHT A","8501106","2019-01-14 20:00","2019","01","14","20:00","-11.9","","-14.8","","79","","0.0","","22","","13","","16.1","","100.81","","","","-19","","NA"
"-57.04","53.68","CARTWRIGHT A","8501106","2019-01-14 21:00","2019","01","14","21:00","-12.2","","-14.7","","82","","0.0","","","M","4","","16.1","","100.84","","","","-15","","NA"
"-57.04","53.68","CARTWRIGHT A","8501106","2019-01-14 22:00","2019","01","14","22:00","-11.6","","-14.6","","79","","0.0","","22","","15","","16.1","","100.84","","","","-19","","NA"
"-57.04","53.68","CARTWRIGHT A","8501106","2019-01-14 23:00","2019","01","14","23:00","-12.1","","-15.1","","79","","0.0","","22","","13","","16.1","","100.88","","","","-19","","NA"
"-57.04","53.68","CARTWRIGHT A","8501106","2019-01-15 00:00","2019","01","15","00:00","-13.1","","-15.7","","81","","0.0","","25","","8","","16.1","","100.83","","","","-18","","NA"
"-57.04","53.68","CARTWRIGHT A","8501106","2019-01-15 01:00","2019","01","15","01:00","-12.7","","-15.3","","81","","0.0","","21","","21","","16.1","","100.80","","","","-21","","NA"
"-57.04","53.68","CARTWRIGHT A","8501106","2019-01-15 02:00","2019","01","15","02:00","-12.7","","-15.5","","80","","0.0","","21","","18","","16.1","","100.88","","","","-21","","NA"
"-57.04","53.68","CARTWRIGHT A","8501106","2019-01-15 03:00","2019","01","15","03:00","-12.4","","-15.3","","79","","0.0","","21","","9","","16.1","","100.91","","","","-18","","NA"
"-57.04","53.68","CARTWRIGHT A","8501106","2019-01-15 04:00","2019","01","15","04:00","-12.2","","-15.1","","79","","0.0","","21","","13","","16.1","","100.92","","","","-19","","NA"
"-57.04","53.68","CARTWRIGHT A","8501106","2019-01-15 05:00","2019","01","15","05:00","-12.4","","-15.2","","80","","0.0","","22","","11","","16.1","","100.88","","","","-18","","NA"
"-57.04","53.68","CARTWRIGHT A","8501106","2019-01-15 06:00","2019","01","15","06:00","-13.0","","-15.6","","81","","0.0","","23","","11","","16.1","","100.89","","","","-19","","NA"
"-57.04","53.68","CARTWRIGHT A","8501106","2019-01-15 07:00","2019","01","15","07:00","-13.1","","-15.7","","81","","0.0","","23","","13","","16.1","","100.93","","","","-20","","NA"
"-57.04","53.68","CARTWRIGHT A","8501106","2019-01-15 08:00","2019","01","15","08:00","-13.5","","-16.0","","82","","0.0","","24","","13","","16.1","","100.92","","","","-20","","NA"
"-57.04","53.68","CARTWRIGHT A","8501106","2019-01-15 09:00","2019","01","15","09:00","-14.7","","-17.1","","82","","0.0","","21","","11","","16.1","","101.01","","","","-21","","NA"
"-57.04","53.68","CARTWRIGHT A","8501106","2019-01-15 10:00","2019","01","15","10:00","-12.5","","-15.4","","79","","0.0","","23","","8","","16.1","","100.98","","","","-17","","NA"
"-57.04","53.68","CARTWRIGHT A","8501106","2019-01-15 11:00","2019","01","15","11:00","-13.0","","-15.9","","79","","0.0","","","M","4","","16.1","","100.92","","","","-16","","NA"
"-57.04","53.68","CARTWRIGHT A","8501106","2019-01-15 12:00","2019","01","15","12:00","-11.7","","-15.3","","75","","0.0","","","M","4","","16.1","","100.90","","","","-14","","NA"
"-57.04","53.68","CARTWRIGHT A","8501106","2019-01-15 13:00","2019","01","15","13:00","-11.0","","-14.7","","74","","0.0","","24","","13","","16.1","","100.86","","","","-17","","NA"
"-57.04","53.68","CARTWRIGHT A","8501106","2019-01-15 14:00","2019","01","15","14:00","-11.1","","-15.6","","70","","0.0","","26","","15","","16.1","","100.90","","","","-18","","NA"
"-57.04","53.68","CARTWRIGHT A","8501106","2019-01-15 15:00","2019","01","15","15:00","-11.8","","-16.4","","69","","0.0","","","M","4","","16.1","","100.96","","","","-14","","NA"
"-57.04","53.68","CARTWRIGHT A","8501106","2019-01-15 16:00","2019","01","15","16:00","-13.1","","-17.7","","69","","0.0","","32","","5","","16.1","","101.01","","","","-16","","NA"
"-57.04","53.68","CARTWRIGHT A","8501106","2019-01-15 17:00","2019","01","15","17:00","-13.7","","-18.2","","69","","0.0","","34","","13","","16.1","","101.02","","","","-21","","Snow"
"-57.04","53.68","CARTWRIGHT A","8501106","2019-01-15 18:00","2019","01","15","18:00","-14.5","","-18.2","","74","","0.0","","33","","5","","16.1","","101.04","","","","-18","","NA"
"-57.04","53.68","CARTWRIGHT A","8501106","2019-01-15 19:00","2019","01","15","19:00","-14.7","","-18.5","","73","","0.0","","32","","18","","16.1","","101.05","","","","-23","","Snow"
"-57.04","53.68","CARTWRIGHT A","8501106","2019-01-15 20:00","2019","01","15","20:00","-15.5","","-19.3","","73","","0.0","","31","","13","","16.1","","101.05","","","","-23","","NA"
"-57.04","53.68","CARTWRIGHT A","8501106","2019-01-15 21:00","2019","01","15","21:00","-16.5","","-20.4","","72","","0.0","","32","","17","","16.1","","101.07","","","","-25","","NA"
"-57.04","53.68","CARTWRIGHT A","8501106","2019-01-15 22:00","2019","01","15","22:00","-17.7","","-21.8","","71","","0.0","","31","","15","","11.3","","101.08","","","","-26","","NA"
"-57.04","53.68","CARTWRIGHT A","8501106","2019-01-15 23:00","2019","01","15","23:00","-18.2","","-22.8","","68","","0.0","","33","","15","","11.3","","101.10","","","","-27","","NA"
"-57.04","53.68","CARTWRIGHT A","8501106","2019-01-16 00:00","2019","01","16","00:00","-18.8","","-23.3","","68","","0.0","","32","","18","","11.3","","101.13","","","","-28","","Snow"
"-57.04","53.68","CARTWRIGHT A","8501106","2019-01-16 01:00","2019","01","16","01:00","-19.4","","-23.5","","70","","0.0","","32","","11","","11.3","","101.11","","","","-27","","Snow"
"-57.04","53.68","CARTWRIGHT A","8501106","2019-01-16 02:00","2019","01","16","02:00","-19.8","","-24.5","","67","","0.0","","35","","8","","12.9","","101.14","","","","-26","","NA"
"-57.04","53.68","CARTWRIGHT A","8501106","2019-01-16 03:00","2019","01","16","03:00","-20.2","","-25.0","","66","","0.0","","30","","15","","12.9","","101.16","","","","-29","","NA"
"-57.04","53.68","CARTWRIGHT A","8501106","2019-01-16 04:00","2019","01","16","04:00","-20.2","","-25.6","","63","","0.0","","30","","24","","16.1","","101.17","","","","-32","","NA"
"-57.04","53.68","CARTWRIGHT A","8501106","2019-01-16 05:00","2019","01","16","05:00","-22.7","","-27.1","","68","","0.0","","","","0","","16.1","","101.18","","","","","","NA"
"-57.04","53.68","CARTWRIGHT A","8501106","2019-01-16 06:00","2019","01","16","06:00","-21.5","","-26.5","","65","","0.0","","","","0","","16.1","","101.18","","","","","","NA"
"-57.04","53.68","CARTWRIGHT A","8501106","2019-01-16 07:00","2019","01","16","07:00","-24.0","","-27.4","","74","","0.0","","20","","9","","16.1","","101.22","","","","-31","","NA"
"-57.04","53.68","CARTWRIGHT A","8501106","2019-01-16 08:00","2019","01","16","08:00","-25.2","","-28.7","","73","","0.0","","22","","8","","16.1","","101.28","","","","-32","","NA"
"-57.04","53.68","CARTWRIGHT A","8501106","2019-01-16 09:00","2019","01","16","09:00","-25.4","","-28.8","","74","","0.0","","20","","9","","16.1","","101.33","","","","-33","","NA"
"-57.04","53.68","CARTWRIGHT A","8501106","2019-01-16 10:00","2019","01","16","10:00","-21.7","","-26.6","","65","","0.0","","22","","13","","16.1","","101.34","","","","-30","","NA"
"-57.04","53.68","CARTWRIGHT A","8501106","2019-01-16 11:00","2019","01","16","11:00","-20.8","","-26.0","","64","","0.0","","22","","13","","16.1","","101.32","","","","-29","","NA"
"-57.04","53.68","CARTWRIGHT A","8501106","2019-01-16 12:00","2019","01","16","12:00","-19.4","","-25.9","","57","","0.0","","24","","11","","16.1","","101.30","","","","-27","","NA"
"-57.04","53.68","CARTWRIGHT A","8501106","2019-01-16 13:00","2019","01","16","13:00","-17.8","","-25.2","","53","","0.0","","23","","11","","16.1","","101.24","","","","-25","","NA"
"-57.04","53.68","CARTWRIGHT A","8501106","2019-01-16 14:00","2019","01","16","14:00","-17.3","","-24.0","","57","","0.0","","23","","11","","16.1","","101.23","","","","-24","","NA"
"-57.04","53.68","CARTWRIGHT A","8501106","2019-01-16 15:00","2019","01","16","15:00","-17.1","","-23.2","","60","","0.0","","22","","9","","16.1","","101.23","","","","-23","","NA"
"-57.04","53.68","CARTWRIGHT A","8501106","2019-01-16 16:00","2019","01","16","16:00","-17.8","","-22.7","","66","","0.0","","","","0","","16.1","","101.23","","","","","","NA"
"-57.04","53.68","CARTWRIGHT A","8501106","2019-01-16 17:00","2019","01","16","17:00","-20.0","","-23.7","","73","","0.0","","","","0","","16.1","","101.18","","","","","","Snow"
"-57.04","53.68","CARTWRIGHT A","8501106","2019-01-16 18:00","2019","01","16","18:00","-21.1","","-24.4","","75","","0.0","","20","","5","","16.1","","101.12","","","","-26","","Snow"
"-57.04","53.68","CARTWRIGHT A","8501106","2019-01-16 19:00","2019","01","16","19:00","-20.6","","-24.0","","75","","0.0","","20","","9","","16.1","","101.08","","","","-27","","NA"
"-57.04","53.68","CARTWRIGHT A","8501106","2019-01-16 20:00","2019","01","16","20:00","-19.3","","-23.7","","69","","0.0","","","M","4","","16.1","","100.98","","","","-23","","NA"
"-57.04","53.68","CARTWRIGHT A","8501106","2019-01-16 21:00","2019","01","16","21:00","-19.9","","-24.1","","70","","0.0","","20","","8","","16.1","","100.93","","","","-26","","NA"
"-57.04","53.68","CARTWRIGHT A","8501106","2019-01-16 22:00","2019","01","16","22:00","-18.7","","-22.8","","70","","0.0","","18","","15","","16.1","","100.84","","","","-27","","NA"
"-57.04","53.68","CARTWRIGHT A","8501106","2019-01-16 23:00","2019","01","16","23:00","-17.9","","-21.8","","72","","0.0","","19","","15","","16.1","","100.74","","","","-26","","NA"
"-57.04","53.68","CARTWRIGHT A","8501106","2019-01-17 00:00","2019","01","17","00:00","-17.6","","-21.5","","72","","0.0","","21","","13","","16.1","","100.69","","","","-25","","NA"
"-57.04","53.68","CARTWRIGHT A","8501106","2019-01-17 01:00","2019","01","17","01:00","-17.5","","-20.5","","78","","0.0","","","M","4","","2.8","","100.60","","","","-21","","Snow"
"-57.04","53.68","CARTWRIGHT A","8501106","2019-01-17 02:00","2019","01","17","02:00","-16.9","","-19.3","","82","","0.0","","20","","5","","3.2","","100.52","","","","-21","","Snow"
"-57.04","53.68","CARTWRIGHT A","8501106","2019-01-17 03:00","2019","01","17","03:00","-16.7","","-19.0","","83","","0.0","","18","","8","","4.8","","100.44","","","","-22","","Snow"
"-57.04","53.68","CARTWRIGHT A","8501106","2019-01-17 04:00","2019","01","17","04:00","-16.5","","-18.8","","83","","0.0","","18","","5","","6.4","","100.35","","","","-20","","Snow"
"-57.04","53.68","CARTWRIGHT A","8501106","2019-01-17 05:00","2019","01","17","05:00","-16.0","","-18.3","","83","","0.0","","17","","4","","4.8","","100.25","","","","-19","","Snow"
"-57.04","53.68","CARTWRIGHT A","8501106","2019-01-17 06:00","2019","01","17","06:00","-15.2","","-17.2","","85","","0.0","","","M","4","","3.2","","100.12","","","","-18","","Snow"
"-57.04","53.68","CARTWRIGHT A","8501106","2019-01-17 07:00","2019","01","17","07:00","-9.5","","-12.2","","81","","0.0","","17","","17","","3.6","","99.98","","","","-17","","Snow"
"-57.04","53.68","CARTWRIGHT A","8501106","2019-01-17 08:00","2019","01","17","08:00","-8.4","","-11.0","","82","","0.0","","16","","22","","2.8","","99.85","","","","-16","","Snow"
"-57.04","53.68","CARTWRIGHT A","8501106","2019-01-17 09:00","2019","01","17","09:00","-9.2","","-11.3","","85","","0.0","","19","","9","","16.1","","99.80","","","","-14","","Snow"
"-57.04","53.68","CARTWRIGHT A","8501106","2019-01-17 10:00","2019","01","17","10:00","-6.8","","-9.5","","81","","0.0","","14","","18","","4.8","","99.68","","","","-13","","Snow"
"-57.04","53.68","CARTWRIGHT A","8501106","2019-01-17 11:00","2019","01","17","11:00","-5.8","","-8.6","","81","","0.0","","16","","22","","4.8","","99.50","","","","-13","","Snow"
"-57.04","53.68","CARTWRIGHT A","8501106","2019-01-17 12:00","2019","01","17","12:00","-7.4","","-8.8","","90","","0.2","","33","","9","","0.6","","99.38","","","","-12","","Moderate Snow"
"-57.04","53.68","CARTWRIGHT A","8501106","2019-01-17 13:00","2019","01","17","13:00","-7.5","","-8.9","","90","","0.8","","31","","13","","0.8","","99.27","","","","-13","","Moderate Snow"
"-57.04","53.68","CARTWRIGHT A","8501106","2019-01-17 14:00","2019","01","17","14:00","-8.7","","-10.5","","87","","0.2","","31","","24","","1.2","","99.24","","","","-17","","Snow"
"-57.04","53.68","CARTWRIGHT A","8501106","2019-01-17 15:00","2019","01","17","15:00","-9.4","","-11.8","","83","","0.2","","32","","28","","16.1","","99.29","","","","-18","","Snow"
"-57.04","53.68","CARTWRIGHT A","8501106","2019-01-17 16:00","2019","01","17","16:00","-12.1","","-14.9","","80","","0.0","","32","","39","","2.0","","99.44","","","","-23","","Snow"
"-57.04","53.68","CARTWRIGHT A","8501106","2019-01-17 17:00","2019","01","17","17:00","-13.1","","-16.2","","78","","0.0","","31","","34","","2.8","","99.60","","","","-24","","Snow"
"-57.04","53.68","CARTWRIGHT A","8501106","2019-01-17 18:00","2019","01","17","18:00","-15.2","","-19.0","","73","","0.0","","30","","34","","3.6","","99.75","","","","-27","","Snow"
"-57.04","53.68","CARTWRIGHT A","8501106","2019-01-17 19:00","2019","01","17","19:00","-15.8","","-19.8","","72","","0.0","","28","","26","","2.8","","99.89","","","","-26","","Snow"
"-57.04","53.68","CARTWRIGHT A","8501106","2019-01-17 20:00","2019","01","17","20:00","-17.9","","-23.2","","64","","0.0","","29","","30","","9.7","","100.00","","","","-30","","Snow"
"-57.04","53.68","CARTWRIGHT A","8501106","2019-01-17 21:00","2019","01","17","21:00","-19.2","","-23.2","","71","","0.0","","26","","28","","16.1","","100.14","","","","-31","","Snow"
"-57.04","53.68","CARTWRIGHT A","8501106","2019-01-17 22:00","2019","01","17","22:00","-20.3","","-25.3","","65","","0.0","","27","","26","","16.1","","100.27","","","","-32","","Snow"
"-57.04","53.68","CARTWRIGHT A","8501106","2019-01-17 23:00","2019","01","17","23:00","-21.7","","-27.1","","62","","0.0","","27","","28","","9.7","","100.40","","","","-34","","Snow"
"-57.04","53.68","CARTWRIGHT A","8501106","2019-01-18 00:00","2019","01","18","00:00","-22.6","","-27.6","","65","","0.0","","25","","34","","16.1","","100.52","","","","-37","","Snow"
"-57.04","53.68","CARTWRIGHT A","8501106","2019-01-18 01:00","2019","01","18","01:00","-22.8","","-28.0","","63","","0.0","","26","","45","","3.6","","100.60","","","","-39","","Snow,Blowing Snow"
"-57.04","53.68","CARTWRIGHT A","8501106","2019-01-18 02:00","2019","01","18","02:00","-23.8","","-28.7","","65","","0.0","","24","","26","","16.1","","100.72","","","","-37","","Snow"
"-57.04","53.68","CARTWRIGHT A","8501106","2019-01-18 03:00","2019","01","18","03:00","-25.1","","-30.1","","64","","0.0","","21","","21","","16.1","","100.83","","","","-37","","NA"
"-57.04","53.68","CARTWRIGHT A","8501106","2019-01-18 04:00","2019","01","18","04:00","-24.7","","-29.9","","63","","0.0","","23","","28","","16.1","","100.95","","","","-38","","NA"
"-57.04","53.68","CARTWRIGHT A","8501106","2019-01-18 05:00","2019","01","18","05:00","-25.2","","-30.0","","65","","0.0","","23","","32","","16.1","","101.02","","","","-40","","NA"
"-57.04","53.68","CARTWRIGHT A","8501106","2019-01-18 06:00","2019","01","18","06:00","-25.3","","-30.6","","62","","0.0","","24","","32","","16.1","","101.14","","","","-40","","NA"
"-57.04","53.68","CARTWRIGHT A","8501106","2019-01-18 07:00","2019","01","18","07:00","-26.3","","-31.4","","63","","0.0","","22","","22","","16.1","","101.20","","","","-39","","NA"
"-57.04","53.68","CARTWRIGHT A","8501106","2019-01-18 08:00","2019","01","18","08:00","-27.1","","-32.3","","62","","0.0","","19","","30","","16.1","","101.34","","","","-42","","NA"
"-57.04","53.68","CARTWRIGHT A","8501106","2019-01-18 09:00","2019","01","18","09:00","-26.9","","-32.3","","61","","0.0","","21","","32","","16.1","","101.46","","","","-42","","NA"
"-57.04","53.68","CARTWRIGHT A","8501106","2019-01-18 10:00","2019","01","18","10:00","-26.0","","-31.7","","60","","0.0","","21","","21","","16.1","","101.57","","","","-38","","NA"
"-57.04","53.68","CARTWRIGHT A","8501106","2019-01-18 11:00","2019","01","18","11:00","-25.2","","-31.1","","59","","0.0","","22","","32","","16.1","","101.54","","","","-40","","NA"
"-57.04","53.68","CARTWRIGHT A","8501106","2019-01-18 12:00","2019","01","18","12:00","-23.7","","-30.0","","57","","0.0","","22","","35","","16.1","","101.57","","","","-38","","NA"
"-57.04","53.68","CARTWRIGHT A","8501106","2019-01-18 13:00","2019","01","18","13:00","-22.5","","-28.8","","57","","0.0","","20","","22","","16.1","","101.63","","","","-34","","NA"
"-57.04","53.68","CARTWRIGHT A","8501106","2019-01-18 14:00","2019","01","18","14:00","-21.3","","-27.7","","57","","0.0","","19","","11","","16.1","","101.66","","","","-29","","NA"
"-57.04","53.68","CARTWRIGHT A","8501106","2019-01-18 15:00","2019","01","18","15:00","-21.1","","-27.7","","56","","0.0","","20","","13","","16.1","","101.70","","","","-30","","NA"
"-57.04","53.68","CARTWRIGHT A","8501106","2019-01-18 16:00","2019","01","18","16:00","-22.2","","-28.0","","60","","0.0","","20","","18","","16.1","","101.74","","","","-33","","NA"
"-57.04","53.68","CARTWRIGHT A","8501106","2019-01-18 17:00","2019","01","18","17:00","-22.4","","-28.0","","61","","0.0","","20","","17","","16.1","","101.81","","","","-33","","NA"
"-57.04","53.68","CARTWRIGHT A","8501106","2019-01-18 18:00","2019","01","18","18:00","-22.6","","-28.0","","62","","0.0","","19","","13","","16.1","","101.84","","","","-32","","NA"
"-57.04","53.68","CARTWRIGHT A","8501106","2019-01-18 19:00","2019","01","18","19:00","-22.2","","-27.5","","63","","0.0","","19","","24","","16.1","","101.79","","","","-34","","NA"
"-57.04","53.68","CARTWRIGHT A","8501106","2019-01-18 20:00","2019","01","18","20:00","-21.7","","-27.2","","62","","0.0","","18","","18","","16.1","","101.78","","","","-32","","NA"
"-57.04","53.68","CARTWRIGHT A","8501106","2019-01-18 21:00","2019","01","18","21:00","-22.0","","-27.3","","63","","0.0","","20","","17","","16.1","","101.76","","","","-32","","NA"
"-57.04","53.68","CARTWRIGHT A","8501106","2019-01-18 22:00","2019","01","18","22:00","-22.8","","-27.4","","67","","0.0","","19","","17","","16.1","","101.71","","","","-33","","NA"
"-57.04","53.68","CARTWRIGHT A","8501106","2019-01-18 23:00","2019","01","18","23:00","-22.9","","-27.3","","68","","0.0","","20","","13","","16.1","","101.65","","","","-32","","NA"
"-57.04","53.68","CARTWRIGHT A","8501106","2019-01-19 00:00","2019","01","19","00:00","-23.1","","-27.2","","70","","0.0","","21","","11","","9.7","","101.56","","","","-31","","Snow"
"-57.04","53.68","CARTWRIGHT A","8501106","2019-01-19 01:00","2019","01","19","01:00","-23.5","","-26.9","","74","","0.0","","19","","9","","14.5","","101.46","","","","-31","","Snow"
"-57.04","53.68","CARTWRIGHT A","8501106","2019-01-19 02:00","2019","01","19","02:00","-22.4","","-25.6","","76","","0.1","","17","","8","","6.4","","101.31","","","","-29","","Snow"
"-57.04","53.68","CARTWRIGHT A","8501106","2019-01-19 03:00","2019","01","19","03:00","-21.9","","-24.8","","78","","0.0","","17","","8","","16.1","","101.18","","","","-28","","Snow"
"-57.04","53.68","CARTWRIGHT A","8501106","2019-01-19 04:00","2019","01","19","04:00","-20.4","","-23.2","","79","","0.1","","17","","4","","3.2","","101.04","","","","-24","","Snow"
"-57.04","53.68","CARTWRIGHT A","8501106","2019-01-19 05:00","2019","01","19","05:00","-20.3","","-22.9","","80","","0.1","","","","0","","2.8","","100.85","","","","","","Snow"
"-57.04","53.68","CARTWRIGHT A","8501106","2019-01-19 06:00","2019","01","19","06:00","-19.6","","-22.1","","81","","0.0","","","","0","","11.3","","100.62","","","","","","Snow"
"-57.04","53.68","CARTWRIGHT A","8501106","2019-01-19 07:00","2019","01","19","07:00","-18.9","","-21.3","","82","","0.0","","","M","4","","16.1","","100.41","","","","-22","","Snow"
"-57.04","53.68","CARTWRIGHT A","8501106","2019-01-19 08:00","2019","01","19","08:00","-12.7","","-14.3","","88","","0.0","","","M","13","","16.1","","100.16","","","","-20","","Snow"
"-57.04","53.68","CARTWRIGHT A","8501106","2019-01-19 09:00","2019","01","19","09:00","-9.6","","-12.4","","80","","0.0","","14","","21","","4.0","","99.94","","","","-18","","Snow"
"-57.04","53.68","CARTWRIGHT A","8501106","2019-01-19 10:00","2019","01","19","10:00","-8.2","","-11.1","","80","","0.0","","13","","18","","11.3","","99.69","","","","-15","","Snow"
"-57.04","53.68","CARTWRIGHT A","8501106","2019-01-19 11:00","2019","01","19","11:00","-6.1","","-9.0","","80","","0.0","","14","","17","","4.8","","99.43","","","","-12","","Snow"
"-57.04","53.68","CARTWRIGHT A","8501106","2019-01-19 12:00","2019","01","19","12:00","-11.8","","-14.0","","84","","0.0","","31","","41","","0.6","","99.43","","","","-23","","Moderate Snow,Blowing Snow"
"-57.04","53.68","CARTWRIGHT A","8501106","2019-01-19 13:00","2019","01","19","13:00","-14.1","","-16.6","","81","","0.0","","31","","41","","0.2","","99.63","","","","-26","","Heavy Snow,Blowing Snow"
"-57.04","53.68","CARTWRIGHT A","8501106","2019-01-19 14:00","2019","01","19","14:00","-18.4","","-22.1","","73","","0.0","","30","","52","","0.8","","99.99","","","","-33","","Moderate Snow,Blowing Snow"
"-57.04","53.68","CARTWRIGHT A","8501106","2019-01-19 15:00","2019","01","19","15:00","-19.7","","-24.2","","68","","0.0","","28","","37","","8.1","","100.41","","","","-33","","Snow"
"-57.04","53.68","CARTWRIGHT A","8501106","2019-01-19 16:00","2019","01","19","16:00","-20.3","","-26.0","","61","","0.0","","28","","24","","16.1","","100.65","","","","-32","","NA"
"-57.04","53.68","CARTWRIGHT A","8501106","2019-01-19 17:00","2019","01","19","17:00","-21.7","","-26.3","","67","","0.0","","27","","28","","16.1","","100.80","","","","-34","","NA"
"-57.04","53.68","CARTWRIGHT A","8501106","2019-01-19 18:00","2019","01","19","18:00","-23.8","","-28.3","","67","","0.0","","26","","37","","4.8","","100.96","","","","-39","","Haze"
"-57.04","53.68","CARTWRIGHT A","8501106","2019-01-19 19:00","2019","01","19","19:00","-25.0","","-29.6","","66","","0.0","","25","","26","","16.1","","101.12","","","","-38","","NA"
"-57.04","53.68","CARTWRIGHT A","8501106","2019-01-19 20:00","2019","01","19","20:00","-26.4","","-30.8","","67","","0.0","","25","","39","","3.6","","101.18","","","","-43","","Snow,Blowing Snow"
"-57.04","53.68","CARTWRIGHT A","8501106","2019-01-19 21:00","2019","01","19","21:00","-26.9","","-32.2","","62","","0.0","","26","","35","","12.9","","101.33","","","","-43","","Snow"
"-57.04","53.68","CARTWRIGHT A","8501106","2019-01-19 22:00","2019","01","19","22:00","-26.7","","-32.3","","60","","0.0","","26","","39","","9.7","","101.37","","","","-43","","Haze"
"-57.04","53.68","CARTWRIGHT A","8501106","2019-01-19 23:00","2019","01","19","23:00","-26.8","","-32.8","","58","","0.0","","26","","41","","14.5","","101.39","","","","-43","","NA"
"-57.04","53.68","CARTWRIGHT A","8501106","2019-01-20 00:00","2019","01","20","00:00","-26.8","","-32.4","","60","","0.0","","26","","34","","16.1","","101.52","","","","-42","","NA"
"-57.04","53.68","CARTWRIGHT A","8501106","2019-01-20 01:00","2019","01","20","01:00","-27.1","","-32.2","","63","","0.0","","24","","37","","12.9","","101.59","","","","-43","","NA"
"-57.04","53.68","CARTWRIGHT A","8501106","2019-01-20 02:00","2019","01","20","02:00","-26.9","","-31.6","","65","","0.0","","25","","43","","3.2","","101.58","","","","-44","","Snow,Blowing Snow"
"-57.04","53.68","CARTWRIGHT A","8501106","2019-01-20 03:00","2019","01","20","03:00","-26.5","","-31.8","","62","","0.0","","26","","48","","1.6","","101.64","","","","-44","","Snow,Blowing Snow"
"-57.04","53.68","CARTWRIGHT A","8501106","2019-01-20 04:00","2019","01","20","04:00","-27.0","","-32.8","","59","","0.0","","","M","15","","16.1","","101.86","","","","-38","","NA"
"-57.04","53.68","CARTWRIGHT A","8501106","2019-01-20 05:00","2019","01","20","05:00","-28.3","","-34.0","","59","","0.0","","19","","28","","16.1","","101.96","","","","-43","","NA"
"-57.04","53.68","CARTWRIGHT A","8501106","2019-01-20 06:00","2019","01","20","06:00","-27.5","","-34.0","","55","","0.0","","22","","28","","16.1","","102.04","","","","-42","","NA"
"-57.04","53.68","CARTWRIGHT A","8501106","2019-01-20 07:00","2019","01","20","07:00","-28.1","","-34.2","","57","","0.0","","20","","39","","16.1","","102.17","","","","-45","","NA"
"-57.04","53.68","CARTWRIGHT A","8501106","2019-01-20 08:00","2019","01","20","08:00","-29.1","","-34.4","","61","","0.0","","19","","18","","16.1","","102.33","","","","-41","","NA"
"-57.04","53.68","CARTWRIGHT A","8501106","2019-01-20 09:00","2019","01","20","09:00","-28.0","","-33.9","","58","","0.0","","20","","22","","16.1","","102.44","","","","-41","","NA"
"-57.04","53.68","CARTWRIGHT A","8501106","2019-01-20 10:00","2019","01","20","10:00","-26.7","","-33.6","","53","","0.0","","21","","26","","16.1","","102.50","","","","-40","","NA"
"-57.04","53.68","CARTWRIGHT A","8501106","2019-01-20 11:00","2019","01","20","11:00","-25.1","","-32.1","","53","","0.0","","22","","22","","16.1","","102.55","","","","-37","","NA"
"-57.04","53.68","CARTWRIGHT A","8501106","2019-01-20 12:00","2019","01","20","12:00","-24.6","","-31.4","","54","","0.0","","23","","22","","16.1","","102.60","","","","-37","","NA"
"-57.04","53.68","CARTWRIGHT A","8501106","2019-01-20 13:00","2019","01","20","13:00","-24.5","","-31.2","","55","","0.0","","21","","24","","16.1","","102.66","","","","-37","","NA"
"-57.04","53.68","CARTWRIGHT A","8501106","2019-01-20 14:00","2019","01","20","14:00","-24.3","","-31.0","","55","","0.0","","21","","24","","16.1","","102.68","","","","-37","","NA"
"-57.04","53.68","CARTWRIGHT A","8501106","2019-01-20 15:00","2019","01","20","15:00","-24.3","","-30.4","","58","","0.0","","21","","17","","16.1","","102.71","","","","-35","","NA"
"-57.04","53.68","CARTWRIGHT A","8501106","2019-01-20 16:00","2019","01","20","16:00","-24.3","","-30.4","","58","","0.0","","21","","22","","16.1","","102.86","","","","-36","","NA"
"-57.04","53.68","CARTWRIGHT A","8501106","2019-01-20 17:00","2019","01","20","17:00","-23.9","","-29.3","","62","","0.0","","23","","18","","16.1","","102.77","","","","-35","","NA"
"-57.04","53.68","CARTWRIGHT A","8501106","2019-01-20 18:00","2019","01","20","18:00","-23.7","","-28.9","","63","","0.0","","23","","13","","16.1","","102.80","","","","-33","","NA"
"-57.04","53.68","CARTWRIGHT A","8501106","2019-01-20 19:00","2019","01","20","19:00","-23.7","","-28.9","","63","","0.0","","20","","8","","16.1","","102.64","","","","-31","","NA"
"-57.04","53.68","CARTWRIGHT A","8501106","2019-01-20 20:00","2019","01","20","20:00","-23.3","","-28.7","","62","","0.0","","18","","5","","16.1","","102.68","","","","-28","","NA"
"-57.04","53.68","CARTWRIGHT A","8501106","2019-01-20 21:00","2019","01","20","21:00","-22.9","","-28.1","","63","","0.0","","21","","17","","16.1","","102.77","","","","-33","","NA"
"-57.04","53.68","CARTWRIGHT A","8501106","2019-01-20 22:00","2019","01","20","22:00","-23.0","","-26.7","","72","","0.1","","19","","15","","2.4","","102.68","","","","-33","","Snow"
"-57.04","53.68","CARTWRIGHT A","8501106","2019-01-20 23:00","2019","01","20","23:00","-22.9","","-26.0","","76","","0.4","","19","","9","","2.4","","102.56","","","","-30","","Snow"
"-57.04","53.68","CARTWRIGHT A","8501106","2019-01-21 00:00","2019","01","21","00:00","-23.0","","-26.0","","77","","0.7","","19","","5","","1.6","","102.41","","","","-28","","Snow"
"-57.04","53.68","CARTWRIGHT A","8501106","2019-01-21 01:00","2019","01","21","01:00","-22.8","","-25.7","","78","","0.9","","","","0","","1.0","","102.26","","","","","","Snow"
"-57.04","53.68","CARTWRIGHT A","8501106","2019-01-21 02:00","2019","01","21","02:00","-22.6","","-25.5","","78","","1.2","","8","","5","","1.0","","102.18","","","","-27","","Snow"
"-57.04","53.68","CARTWRIGHT A","8501106","2019-01-21 03:00","2019","01","21","03:00","-22.6","","-25.5","","78","","3.0","","4","","11","","1.0","","102.05","","","","-31","","Snow"
"-57.04","53.68","CARTWRIGHT A","8501106","2019-01-21 04:00","2019","01","21","04:00","-23.0","","-25.8","","78","","2.3","","3","","11","","1.2","","101.81","","","","-31","","Snow"
"-57.04","53.68","CARTWRIGHT A","8501106","2019-01-21 05:00","2019","01","21","05:00","-22.4","","-25.1","","79","","2.8","","1","","15","","1.0","","101.64","","","","-32","","Snow"
"-57.04","53.68","CARTWRIGHT A","8501106","2019-01-21 06:00","2019","01","21","06:00","-21.8","","-24.5","","79","","3.7","","4","","13","","1.0","","101.47","","","","-31","","Snow"
"-57.04","53.68","CARTWRIGHT A","8501106","2019-01-21 07:00","2019","01","21","07:00","-19.6","","-22.1","","81","","1.3","","3","","26","","1.2","","101.26","","","","-31","","Snow"
"-57.04","53.68","CARTWRIGHT A","8501106","2019-01-21 08:00","2019","01","21","08:00","-18.2","","-20.7","","81","","0.2","","3","","28","","1.0","","101.08","","","","-30","","Snow"
"-57.04","53.68","CARTWRIGHT A","8501106","2019-01-21 09:00","2019","01","21","09:00","-17.0","","-19.4","","82","","0.0","","1","","32","","1.2","","100.93","","","","-29","","Snow"
"-57.04","53.68","CARTWRIGHT A","8501106","2019-01-21 10:00","2019","01","21","10:00","-15.5","","-17.6","","84","","0.0","","1","","35","","0.8","","100.79","","","","-27","","Moderate Snow"
"-57.04","53.68","CARTWRIGHT A","8501106","2019-01-21 11:00","2019","01","21","11:00","-14.9","","-17.0","","84","","0.0","","36","","39","","1.0","","100.64","","","","-27","","Snow"
"-57.04","53.68","CARTWRIGHT A","8501106","2019-01-21 12:00","2019","01","21","12:00","-13.6","","-15.5","","86","","0.0","","36","","45","","0.4","","100.46","","","","-26","","Heavy Snow,Blowing Snow"
"-57.04","53.68","CARTWRIGHT A","8501106","2019-01-21 13:00","2019","01","21","13:00","-13.4","","-15.4","","85","","0.0","","36","","35","","0.8","","100.42","","","","-25","","Moderate Snow"
"-57.04","53.68","CARTWRIGHT A","8501106","2019-01-21 14:00","2019","01","21","14:00","-12.5","","-14.2","","87","","0.0","","36","","39","","0.6","","100.24","","","","-24","","Moderate Snow"
"-57.04","53.68","CARTWRIGHT A","8501106","2019-01-21 15:00","2019","01","21","15:00","-11.5","","-13.1","","88","","0.0","","36","","39","","0.4","","100.18","","","","-23","","Heavy Snow"
"-57.04","53.68","CARTWRIGHT A","8501106","2019-01-21 16:00","2019","01","21","16:00","-10.2","","-12.0","","87","","0.0","","35","","45","","0.8","","100.27","","","","-22","","Moderate Snow"
"-57.04","53.68","CARTWRIGHT A","8501106","2019-01-21 17:00","2019","01","21","17:00","-10.3","","-11.9","","88","","0.0","","35","","43","","1.0","","100.20","","","","-21","","Snow"
"-57.04","53.68","CARTWRIGHT A","8501106","2019-01-21 18:00","2019","01","21","18:00","-9.5","","-11.0","","89","","0.0","","35","","39","","1.6","","100.10","","","","-20","","Snow"
"-57.04","53.68","CARTWRIGHT A","8501106","2019-01-21 19:00","2019","01","21","19:00","-8.7","","-10.1","","90","","0.0","","36","","41","","1.6","","100.01","","","","-19","","Snow"
"-57.04","53.68","CARTWRIGHT A","8501106","2019-01-21 20:00","2019","01","21","20:00","-7.7","","-8.9","","91","","0.0","","1","","32","","1.2","","99.98","","","","-17","","Snow"
"-57.04","53.68","CARTWRIGHT A","8501106","2019-01-21 21:00","2019","01","21","21:00","-5.3","","-6.4","","92","","0.0","","2","","32","","1.2","","99.91","","","","-14","","Snow"
"-57.04","53.68","CARTWRIGHT A","8501106","2019-01-21 22:00","2019","01","21","22:00","-4.7","","-5.7","","93","","0.0","","2","","35","","1.6","","99.84","","","","-13","","Snow"
"-57.04","53.68","CARTWRIGHT A","8501106","2019-01-21 23:00","2019","01","21","23:00","-4.3","","-5.4","","92","","0.0","","2","","30","","2.8","","99.87","","","","-12","","Snow"
"-57.04","53.68","CARTWRIGHT A","8501106","2019-01-22 00:00","2019","01","22","00:00","-3.8","","-4.8","","93","","0.0","","2","","30","","2.4","","99.91","","","","-11","","Snow"
"-57.04","53.68","CARTWRIGHT A","8501106","2019-01-22 01:00","2019","01","22","01:00","-4.1","","-5.0","","93","","0.0","","2","","30","","3.2","","99.89","","","","-12","","Snow"
"-57.04","53.68","CARTWRIGHT A","8501106","2019-01-22 02:00","2019","01","22","02:00","-3.6","","-4.6","","93","","0.0","","1","","39","","2.0","","99.84","","","","-12","","Freezing Rain,Snow"
"-57.04","53.68","CARTWRIGHT A","8501106","2019-01-22 03:00","2019","01","22","03:00","-3.5","","-4.5","","93","","0.0","","2","","41","","2.0","","99.81","","","","-12","","Freezing Rain,Fog"
"-57.04","53.68","CARTWRIGHT A","8501106","2019-01-22 04:00","2019","01","22","04:00","-3.6","","-4.4","","94","","0.0","","1","","39","","2.4","","99.88","","","","-12","","Freezing Rain,Fog"
"-57.04","53.68","CARTWRIGHT A","8501106","2019-01-22 05:00","2019","01","22","05:00","-3.8","","-4.6","","94","","0.0","","1","","39","","2.0","","99.87","","","","-12","","Snow"
"-57.04","53.68","CARTWRIGHT A","8501106","2019-01-22 06:00","2019","01","22","06:00","-3.8","","-4.8","","93","","155.2","","1","","35","","3.2","","99.96","","","","-12","","Snow"
"-57.04","53.68","CARTWRIGHT A","8501106","2019-01-22 07:00","2019","01","22","07:00","-3.7","","-4.6","","94","","","M","36","","32","","4.0","","100.00","","","","-12","","Freezing Rain,Fog"
"-57.04","53.68","CARTWRIGHT A","8501106","2019-01-22 08:00","2019","01","22","08:00","-3.7","","-4.7","","93","","94.7","","36","","28","","2.0","","100.04","","","","-11","","Snow"
"-57.04","53.68","CARTWRIGHT A","8501106","2019-01-22 09:00","2019","01","22","09:00","-3.4","","-4.4","","93","","0.0","","35","","34","","1.0","","100.15","","","","-11","","Snow"
"-57.04","53.68","CARTWRIGHT A","8501106","2019-01-22 10:00","2019","01","22","10:00","-3.0","","-4.1","","92","","0.0","","35","","37","","1.2","","100.15","","","","-11","","Snow"
"-57.04","53.68","CARTWRIGHT A","8501106","2019-01-22 11:00","2019","01","22","11:00","-2.8","","-3.8","","93","","0.0","","34","","35","","2.0","","100.19","","","","-11","","Snow"
"-57.04","53.68","CARTWRIGHT A","8501106","2019-01-22 12:00","2019","01","22","12:00","-2.6","","-3.4","","94","","186.7","","35","","35","","1.2","","100.17","","","","-10","","Snow"
"-57.04","53.68","CARTWRIGHT A","8501106","2019-01-22 13:00","2019","01","22","13:00","-2.2","","-2.9","","95","","0.0","","36","","34","","2.0","","100.12","","","","-10","","Snow"
"-57.04","53.68","CARTWRIGHT A","8501106","2019-01-22 14:00","2019","01","22","14:00","-2.4","","-3.2","","94","","0.0","","36","","34","","4.8","","100.18","","","","-10","","Snow"
"-57.04","53.68","CARTWRIGHT A","8501106","2019-01-22 15:00","2019","01","22","15:00","-2.1","","-3.4","","91","","0.0","","2","","35","","9.7","","100.22","","","","-10","","Snow"
"-57.04","53.68","CARTWRIGHT A","8501106","2019-01-22 16:00","2019","01","22","16:00","-2.6","","-3.6","","93","","0.0","","36","","30","","16.1","","100.33","","","","-10","","Snow"
"-57.04","53.68","CARTWRIGHT A","8501106","2019-01-22 17:00","2019","01","22","17:00","-2.5","","-3.5","","93","","0.0","","1","","41","","2.0","","100.39","","","","-11","","Snow"
"-57.04","53.68","CARTWRIGHT A","8501106","2019-01-22 18:00","2019","01","22","18:00","-4.0","","-5.1","","92","","0.0","","34","","35","","2.4","","100.48","","","","-12","","Snow"
"-57.04","53.68","CARTWRIGHT A","8501106","2019-01-22 19:00","2019","01","22","19:00","-6.8","","-8.0","","91","","0.0","","34","","48","","1.2","","100.54","","","","-17","","Snow"
"-57.04","53.68","CARTWRIGHT A","8501106","2019-01-22 20:00","2019","01","22","20:00","-8.0","","-9.5","","89","","0.0","","34","","43","","2.0","","100.65","","","","-18","","Snow"
"-57.04","53.68","CARTWRIGHT A","8501106","2019-01-22 21:00","2019","01","22","21:00","-8.5","","-10.2","","88","","0.0","","35","","39","","1.0","","100.76","","","","-19","","Snow"
"-57.04","53.68","CARTWRIGHT A","8501106","2019-01-22 22:00","2019","01","22","22:00","-9.5","","-11.7","","84","","0.0","","34","","35","","4.0","","100.86","","","","-20","","Snow"
"-57.04","53.68","CARTWRIGHT A","8501106","2019-01-22 23:00","2019","01","22","23:00","-10.3","","-14.1","","74","","0.0","","33","","30","","16.1","","100.95","","","","-20","","Snow"
"-57.04","53.68","CARTWRIGHT A","8501106","2019-01-23 00:00","2019","01","23","00:00","-10.9","","-15.5","","69","","0.0","","33","","22","","16.1","","100.99","","","","-19","","Snow"
"-57.04","53.68","CARTWRIGHT A","8501106","2019-01-23 01:00","2019","01","23","01:00","-11.1","","-15.9","","68","","0.0","","32","","30","","16.1","","101.00","","","","-21","","Snow"
"-57.04","53.68","CARTWRIGHT A","8501106","2019-01-23 02:00","2019","01","23","02:00","-11.3","","-17.0","","63","","0.0","","31","","30","","16.1","","101.06","","","","-21","","Snow"
"-57.04","53.68","CARTWRIGHT A","8501106","2019-01-23 03:00","2019","01","23","03:00","-12.1","","-17.2","","66","","0.0","","30","","24","","16.1","","101.09","","","","-21","","Snow"
"-57.04","53.68","CARTWRIGHT A","8501106","2019-01-23 04:00","2019","01","23","04:00","-13.7","","-19.9","","60","","0.0","","31","","24","","16.1","","101.12","","","","-23","","Snow"
"-57.04","53.68","CARTWRIGHT A","8501106","2019-01-23 05:00","2019","01","23","05:00","-13.6","","-21.1","","54","","0.0","","29","","9","","16.1","","101.18","","","","-19","","Snow"
"-57.04","53.68","CARTWRIGHT A","8501106","2019-01-23 06:00","2019","01","23","06:00","-16.0","","-21.8","","62","","0.0","","","M","4","","16.1","","101.25","","","","-19","","Snow"
"-57.04","53.68","CARTWRIGHT A","8501106","2019-01-23 07:00","2019","01","23","07:00","-17.9","","-21.4","","75","","0.0","","18","","8","","16.1","","101.33","","","","-24","","Snow"
"-57.04","53.68","CARTWRIGHT A","8501106","2019-01-23 08:00","2019","01","23","08:00","-15.6","","-21.5","","61","","0.0","","1","","5","","16.1","","101.38","","","","-19","","Snow"
"-57.04","53.68","CARTWRIGHT A","8501106","2019-01-23 09:00","2019","01","23","09:00","-15.8","","-21.5","","62","","0.0","","","M","4","","16.1","","101.41","","","","-19","","NA"
"-57.04","53.68","CARTWRIGHT A","8501106","2019-01-23 10:00","2019","01","23","10:00","-16.1","","-21.3","","65","","0.0","","24","","8","","16.1","","101.45","","","","-22","","NA"
"-57.04","53.68","CARTWRIGHT A","8501106","2019-01-23 11:00","2019","01","23","11:00","-14.3","","-20.3","","61","","0.0","","22","","8","","16.1","","101.42","","","","-20","","NA"
"-57.04","53.68","CARTWRIGHT A","8501106","2019-01-23 12:00","2019","01","23","12:00","-13.5","","-19.0","","64","","0.0","","22","","11","","16.1","","101.37","","","","-20","","NA"
"-57.04","53.68","CARTWRIGHT A","8501106","2019-01-23 13:00","2019","01","23","13:00","-12.5","","-17.8","","65","","0.0","","22","","13","","16.1","","101.35","","","","-19","","NA"
"-57.04","53.68","CARTWRIGHT A","8501106","2019-01-23 14:00","2019","01","23","14:00","-12.6","","-17.7","","66","","0.0","","23","","17","","16.1","","101.40","","","","-20","","NA"
"-57.04","53.68","CARTWRIGHT A","8501106","2019-01-23 15:00","2019","01","23","15:00","-14.1","","-18.8","","68","","0.0","","","M","4","","16.1","","101.48","","","","-17","","NA"
"-57.04","53.68","CARTWRIGHT A","8501106","2019-01-23 16:00","2019","01","23","16:00","-15.1","","-19.0","","73","","0.0","","6","","11","","16.1","","101.57","","","","-22","","NA"
"-57.04","53.68","CARTWRIGHT A","8501106","2019-01-23 17:00","2019","01","23","17:00","-15.7","","-19.2","","75","","0.2","","9","","8","","16.1","","101.64","","","","-21","","Snow"
"-57.04","53.68","CARTWRIGHT A","8501106","2019-01-23 18:00","2019","01","23","18:00","-17.5","","-21.0","","75","","0.0","","","M","4","","16.1","","101.71","","","","-21","","Snow"
"-57.04","53.68","CARTWRIGHT A","8501106","2019-01-23 19:00","2019","01","23","19:00","-18.8","","-21.3","","81","","0.0","","18","","4","","16.1","","101.68","","","","-22","","Snow"
"-57.04","53.68","CARTWRIGHT A","8501106","2019-01-23 20:00","2019","01","23","20:00","-19.8","","-21.8","","84","","0.0","","","M","4","","16.1","","101.70","","","","-23","","Snow"
"-57.04","53.68","CARTWRIGHT A","8501106","2019-01-23 21:00","2019","01","23","21:00","-17.5","","-20.2","","80","","0.0","","21","","15","","16.1","","101.74","","","","-26","","Snow"
"-57.04","53.68","CARTWRIGHT A","8501106","2019-01-23 22:00","2019","01","23","22:00","-17.3","","-20.2","","79","","0.0","","20","","11","","16.1","","101.75","","","","-24","","Snow"
"-57.04","53.68","CARTWRIGHT A","8501106","2019-01-23 23:00","2019","01","23","23:00","-19.2","","-21.6","","82","","0.0","","21","","15","","16.1","","101.75","","","","-28","","Snow"
"-57.04","53.68","CARTWRIGHT A","8501106","2019-01-24 00:00","2019","01","24","00:00","-19.7","","-22.1","","81","","0.0","","","M","4","","16.1","","101.77","","","","-23","","Snow"
"-57.04","53.68","CARTWRIGHT A","8501106","2019-01-24 01:00","2019","01","24","01:00","-18.4","","-20.8","","82","","0.0","","","","0","","16.1","","101.75","","","","","","Snow"
"-57.04","53.68","CARTWRIGHT A","8501106","2019-01-24 02:00","2019","01","24","02:00","-19.3","","-21.1","","86","","0.0","","","","0","","16.1","","101.78","","","","","","Snow"
"-57.04","53.68","CARTWRIGHT A","8501106","2019-01-24 03:00","2019","01","24","03:00","-20.0","","-22.5","","81","","0.0","","22","","15","","16.1","","101.79","","","","-29","","Snow"
"-57.04","53.68","CARTWRIGHT A","8501106","2019-01-24 04:00","2019","01","24","04:00","-20.8","","-22.8","","84","","0.0","","","","0","","16.1","","101.78","","","","","","Snow"
"-57.04","53.68","CARTWRIGHT A","8501106","2019-01-24 05:00","2019","01","24","05:00","-19.3","","-21.8","","81","","0.0","","21","","9","","16.1","","101.78","","","","-26","","Snow"
"-57.04","53.68","CARTWRIGHT A","8501106","2019-01-24 06:00","2019","01","24","06:00","-20.3","","-22.8","","81","","0.0","","22","","13","","16.1","","101.77","","","","-29","","Snow"
"-57.04","53.68","CARTWRIGHT A","8501106","2019-01-24 07:00","2019","01","24","07:00","-21.0","","-23.3","","82","","0.0","","20","","17","","16.1","","101.68","","","","-31","","Snow"
"-57.04","53.68","CARTWRIGHT A","8501106","2019-01-24 08:00","2019","01","24","08:00","-21.0","","-23.5","","81","","0.0","","23","","13","","16.1","","101.72","","","","-30","","Snow"
"-57.04","53.68","CARTWRIGHT A","8501106","2019-01-24 09:00","2019","01","24","09:00","-20.3","","-22.6","","82","","0.0","","24","","9","","16.1","","101.66","","","","-27","","NA"
"-57.04","53.68","CARTWRIGHT A","8501106","2019-01-24 10:00","2019","01","24","10:00","-19.1","","-21.9","","79","","0.0","","20","","11","","16.1","","101.61","","","","-27","","NA"
"-57.04","53.68","CARTWRIGHT A","8501106","2019-01-24 11:00","2019","01","24","11:00","-15.9","","-18.9","","78","","0.0","","20","","9","","16.1","","101.59","","","","-22","","NA"
"-57.04","53.68","CARTWRIGHT A","8501106","2019-01-24 12:00","2019","01","24","12:00","-14.6","","-17.8","","77","","0.0","","","","0","","16.1","","101.50","","","","","","NA"
"-57.04","53.68","CARTWRIGHT A","8501106","2019-01-24 13:00","2019","01","24","13:00","-13.9","","-16.8","","79","","0.0","","21","","8","","4.8","","101.50","","","","-19","","Snow"
"-57.04","53.68","CARTWRIGHT A","8501106","2019-01-24 14:00","2019","01","24","14:00","-13.3","","-15.4","","84","","0.0","","","","0","","2.0","","101.43","","","","","","Snow"
"-57.04","53.68","CARTWRIGHT A","8501106","2019-01-24 15:00","2019","01","24","15:00","-13.2","","-15.1","","86","","0.0","","","","0","","2.4","","101.38","","","","","","Snow"
"-57.04","53.68","CARTWRIGHT A","8501106","2019-01-24 16:00","2019","01","24","16:00","-12.7","","-14.6","","86","","0.0","","","","0","","16.1","","101.30","","","","","","NA"
"-57.04","53.68","CARTWRIGHT A","8501106","2019-01-24 17:00","2019","01","24","17:00","-13.2","","-15.1","","86","","0.0","","30","","9","","16.1","","101.25","","","","-19","","Snow"
"-57.04","53.68","CARTWRIGHT A","8501106","2019-01-24 18:00","2019","01","24","18:00","-10.3","","-12.8","","82","","0.0","","","M","11","","16.1","","101.16","","","","-16","","Snow"
"-57.04","53.68","CARTWRIGHT A","8501106","2019-01-24 19:00","2019","01","24","19:00","-8.8","","-11.2","","83","","0.0","","","M","4","","16.1","","101.09","","","","-11","","Snow"
"-57.04","53.68","CARTWRIGHT A","8501106","2019-01-24 20:00","2019","01","24","20:00","-8.0","","-10.1","","85","","0.0","","16","","17","","14.5","","101.00","","","","-15","","Snow"
"-57.04","53.68","CARTWRIGHT A","8501106","2019-01-24 21:00","2019","01","24","21:00","-7.9","","-9.6","","88","","0.0","","","M","5","","16.1","","100.92","","","","-11","","Snow"
"-57.04","53.68","CARTWRIGHT A","8501106","2019-01-24 22:00","2019","01","24","22:00","-6.1","","-7.8","","88","","0.0","","14","","11","","16.1","","100.76","","","","-11","","Snow"
"-57.04","53.68","CARTWRIGHT A","8501106","2019-01-24 23:00","2019","01","24","23:00","-5.3","","-7.1","","87","","0.0","","12","","15","","12.9","","100.60","","","","-11","","Snow"
"-57.04","53.68","CARTWRIGHT A","8501106","2019-01-25 00:00","2019","01","25","00:00","-4.4","","-6.4","","86","","0.0","","13","","17","","11.3","","100.41","","","","-10","","Snow"
"-57.04","53.68","CARTWRIGHT A","8501106","2019-01-25 01:00","2019","01","25","01:00","-3.8","","-5.9","","86","","0.0","","13","","15","","8.1","","100.19","","","","-9","","Snow"
"-57.04","53.68","CARTWRIGHT A","8501106","2019-01-25 02:00","2019","01","25","02:00","-3.2","","-5.4","","85","","0.0","","12","","17","","4.0","","99.96","","","","-9","","Snow"
"-57.04","53.68","CARTWRIGHT A","8501106","2019-01-25 03:00","2019","01","25","03:00","-2.7","","-4.9","","85","","0.2","","14","","37","","2.0","","99.64","","","","-11","","Snow"
"-57.04","53.68","CARTWRIGHT A","8501106","2019-01-25 04:00","2019","01","25","04:00","-2.6","","-4.3","","88","","0.0","","12","","21","","1.6","","99.32","","","","-9","","Snow"
"-57.04","53.68","CARTWRIGHT A","8501106","2019-01-25 05:00","2019","01","25","05:00","-2.2","","-3.9","","88","","0.0","","12","","24","","2.0","","98.88","","","","-9","","Snow"
"-57.04","53.68","CARTWRIGHT A","8501106","2019-01-25 06:00","2019","01","25","06:00","-1.5","","-3.2","","88","","1.0","","15","","30","","4.0","","98.51","","","","-8","","Snow"
"-57.04","53.68","CARTWRIGHT A","8501106","2019-01-25 07:00","2019","01","25","07:00","-1.0","","-2.6","","89","","0.5","","13","","24","","4.8","","98.08","","","","-7","","Snow"
"-57.04","53.68","CARTWRIGHT A","8501106","2019-01-25 08:00","2019","01","25","08:00","0.1","","-1.8","","87","","0.0","","13","","46","","16.1","","97.63","","","","","","Freezing Rain,Snow"
"-57.04","53.68","CARTWRIGHT A","8501106","2019-01-25 09:00","2019","01","25","09:00","1.6","","-0.3","","87","","5.1","","14","","37","","16.1","","97.40","","","","","","Rain"
"-57.04","53.68","CARTWRIGHT A","8501106","2019-01-25 10:00","2019","01","25","10:00","2.8","","0.7","","86","","1.0","","15","","32","","16.1","","97.15","","","","","","NA"
"-57.04","53.68","CARTWRIGHT A","8501106","2019-01-25 11:00","2019","01","25","11:00","3.0","","1.4","","89","","0.8","","17","","21","","8.1","","97.14","","","","","","Rain,Fog"
"-57.04","53.68","CARTWRIGHT A","8501106","2019-01-25 12:00","2019","01","25","12:00","3.4","","2.1","","91","","0.2","","19","","18","","16.1","","97.11","","","","","","Rain"
"-57.04","53.68","CARTWRIGHT A","8501106","2019-01-25 13:00","2019","01","25","13:00","4.5","","1.4","","80","","0.5","","21","","39","","16.1","","97.18","","","","","","NA"
"-57.04","53.68","CARTWRIGHT A","8501106","2019-01-25 14:00","2019","01","25","14:00","2.3","","-0.3","","83","","0.0","","25","","46","","12.9","","97.42","","","","","","Rain"
"-57.04","53.68","CARTWRIGHT A","8501106","2019-01-25 15:00","2019","01","25","15:00","1.1","","-3.8","","70","","0.0","","24","","43","","16.1","","97.73","","","","","","NA"
"-57.04","53.68","CARTWRIGHT A","8501106","2019-01-25 16:00","2019","01","25","16:00","-0.3","","-5.5","","68","","0.0","","23","","45","","16.1","","97.94","","","","-8","","NA"
"-57.04","53.68","CARTWRIGHT A","8501106","2019-01-25 17:00","2019","01","25","17:00","-1.5","","-5.9","","72","","0.0","","24","","37","","16.1","","98.11","","","","-9","","Snow"
"-57.04","53.68","CARTWRIGHT A","8501106","2019-01-25 18:00","2019","01","25","18:00","-1.5","","-6.3","","70","","0.0","","23","","32","","16.1","","98.33","","","","-9","","Snow"
"-57.04","53.68","CARTWRIGHT A","8501106","2019-01-25 19:00","2019","01","25","19:00","-1.7","","-6.6","","70","","0.0","","23","","32","","16.1","","98.38","","","","-9","","Snow"
"-57.04","53.68","CARTWRIGHT A","8501106","2019-01-25 20:00","2019","01","25","20:00","-1.7","","-6.5","","70","","0.0","","23","","34","","16.1","","98.46","","","","-9","","Snow"
"-57.04","53.68","CARTWRIGHT A","8501106","2019-01-25 21:00","2019","01","25","21:00","-1.9","","-6.5","","71","","0.0","","24","","32","","16.1","","98.56","","","","-9","","Snow"
"-57.04","53.68","CARTWRIGHT A","8501106","2019-01-25 22:00","2019","01","25","22:00","-2.9","","-6.9","","74","","0.0","","23","","32","","16.1","","98.61","","","","-10","","Snow"
"-57.04","53.68","CARTWRIGHT A","8501106","2019-01-25 23:00","2019","01","25","23:00","-3.8","","-8.3","","71","","0.0","","23","","24","","16.1","","98.75","","","","-11","","Snow"
"-57.04","53.68","CARTWRIGHT A","8501106","2019-01-26 00:00","2019","01","26","00:00","-4.2","","-8.9","","70","","0.0","","23","","28","","16.1","","98.81","","","","-12","","Snow"
"-57.04","53.68","CARTWRIGHT A","8501106","2019-01-26 01:00","2019","01","26","01:00","-4.8","","-9.4","","70","","0.0","","22","","34","","16.1","","98.90","","","","-13","","Snow"
"-57.04","53.68","CARTWRIGHT A","8501106","2019-01-26 02:00","2019","01","26","02:00","-4.6","","-10.0","","66","","0.0","","22","","32","","16.1","","99.00","","","","-13","","Snow"
"-57.04","53.68","CARTWRIGHT A","8501106","2019-01-26 03:00","2019","01","26","03:00","-4.8","","-11.2","","61","","0.0","","23","","30","","16.1","","99.09","","","","-13","","Snow"
"-57.04","53.68","CARTWRIGHT A","8501106","2019-01-26 04:00","2019","01","26","04:00","-5.8","","-12.3","","60","","0.0","","23","","35","","16.1","","99.24","","","","-15","","Snow"
"-57.04","53.68","CARTWRIGHT A","8501106","2019-01-26 05:00","2019","01","26","05:00","-7.3","","-13.0","","64","","0.0","","23","","32","","16.1","","99.35","","","","-16","","Snow"
"-57.04","53.68","CARTWRIGHT A","8501106","2019-01-26 06:00","2019","01","26","06:00","-8.8","","-14.3","","65","","0.0","","25","","37","","16.1","","99.52","","","","-19","","Snow"
"-57.04","53.68","CARTWRIGHT A","8501106","2019-01-26 07:00","2019","01","26","07:00","-10.4","","-16.4","","62","","0.0","","23","","30","","16.1","","99.72","","","","-20","","Snow"
"-57.04","53.68","CARTWRIGHT A","8501106","2019-01-26 08:00","2019","01","26","08:00","-11.3","","-17.4","","61","","0.0","","23","","34","","16.1","","99.91","","","","-22","","NA"
"-57.04","53.68","CARTWRIGHT A","8501106","2019-01-26 09:00","2019","01","26","09:00","-11.8","","-18.3","","59","","0.0","","23","","34","","16.1","","100.06","","","","-22","","NA"
"-57.04","53.68","CARTWRIGHT A","8501106","2019-01-26 10:00","2019","01","26","10:00","-11.8","","-19.1","","55","","0.0","","23","","35","","16.1","","100.16","","","","-23","","NA"
"-57.04","53.68","CARTWRIGHT A","8501106","2019-01-26 11:00","2019","01","26","11:00","-11.2","","-19.2","","52","","0.0","","22","","30","","16.1","","100.27","","","","-21","","NA"
"-57.04","53.68","CARTWRIGHT A","8501106","2019-01-26 12:00","2019","01","26","12:00","-10.7","","-19.2","","50","","0.0","","22","","41","","16.1","","100.29","","","","-22","","NA"
"-57.04","53.68","CARTWRIGHT A","8501106","2019-01-26 13:00","2019","01","26","13:00","-9.9","","-19.3","","47","","0.0","","23","","43","","16.1","","100.35","","","","-21","","NA"
"-57.04","53.68","CARTWRIGHT A","8501106","2019-01-26 14:00","2019","01","26","14:00","-9.6","","-18.0","","51","","0.0","","23","","34","","16.1","","100.45","","","","-20","","NA"
"-57.04","53.68","CARTWRIGHT A","8501106","2019-01-26 15:00","2019","01","26","15:00","-10.2","","-17.7","","55","","0.0","","22","","21","","16.1","","100.57","","","","-18","","NA"
"-57.04","53.68","CARTWRIGHT A","8501106","2019-01-26 16:00","2019","01","26","16:00","-9.5","","-17.1","","55","","0.0","","23","","30","","16.1","","100.61","","","","-19","","NA"
"-57.04","53.68","CARTWRIGHT A","8501106","2019-01-26 17:00","2019","01","26","17:00","-10.1","","-17.1","","57","","0.0","","24","","22","","16.1","","100.74","","","","-18","","Snow"
"-57.04","53.68","CARTWRIGHT A","8501106","2019-01-26 18:00","2019","01","26","18:00","-11.9","","-16.9","","67","","0.0","","26","","22","","16.1","","100.91","","","","-21","","Snow"
"-57.04","53.68","CARTWRIGHT A","8501106","2019-01-26 19:00","2019","01","26","19:00","-12.6","","-19.1","","59","","0.0","","26","","24","","16.1","","101.11","","","","-22","","Snow"
"-57.04","53.68","CARTWRIGHT A","8501106","2019-01-26 20:00","2019","01","26","20:00","-14.0","","-21.2","","55","","0.0","","24","","28","","16.1","","101.30","","","","-24","","Snow"
"-57.04","53.68","CARTWRIGHT A","8501106","2019-01-26 21:00","2019","01","26","21:00","-15.3","","-21.9","","58","","0.0","","25","","30","","16.1","","101.48","","","","-26","","Snow"
"-57.04","53.68","CARTWRIGHT A","8501106","2019-01-26 22:00","2019","01","26","22:00","-16.5","","-23.6","","55","","0.0","","24","","35","","16.1","","101.66","","","","-29","","Snow"
"-57.04","53.68","CARTWRIGHT A","8501106","2019-01-26 23:00","2019","01","26","23:00","-17.8","","-25.2","","53","","0.0","","23","","28","","16.1","","101.81","","","","-29","","Snow"
"-57.04","53.68","CARTWRIGHT A","8501106","2019-01-27 00:00","2019","01","27","00:00","-18.7","","-26.1","","53","","0.0","","24","","26","","16.1","","101.93","","","","-30","","Snow"
"-57.04","53.68","CARTWRIGHT A","8501106","2019-01-27 01:00","2019","01","27","01:00","-19.9","","-27.2","","53","","0.0","","23","","30","","16.1","","102.00","","","","-32","","Snow"
"-57.04","53.68","CARTWRIGHT A","8501106","2019-01-27 02:00","2019","01","27","02:00","-20.5","","-27.5","","54","","0.0","","23","","28","","16.1","","102.14","","","","-33","","Snow"
"-57.04","53.68","CARTWRIGHT A","8501106","2019-01-27 03:00","2019","01","27","03:00","-21.2","","-28.1","","55","","0.0","","23","","30","","16.1","","102.22","","","","-34","","Snow"
"-57.04","53.68","CARTWRIGHT A","8501106","2019-01-27 04:00","2019","01","27","04:00","-22.1","","-28.5","","57","","0.0","","22","","22","","16.1","","102.29","","","","-34","","Snow"
"-57.04","53.68","CARTWRIGHT A","8501106","2019-01-27 05:00","2019","01","27","05:00","-22.6","","-29.3","","55","","0.0","","23","","26","","16.1","","102.34","","","","-35","","Snow"
"-57.04","53.68","CARTWRIGHT A","8501106","2019-01-27 06:00","2019","01","27","06:00","-23.1","","-29.4","","57","","0.0","","23","","17","","16.1","","102.40","","","","-34","","Snow"
"-57.04","53.68","CARTWRIGHT A","8501106","2019-01-27 07:00","2019","01","27","07:00","-24.0","","-31.1","","53","","0.0","","20","","11","","16.1","","102.52","","","","-32","","Snow"
"-57.04","53.68","CARTWRIGHT A","8501106","2019-01-27 08:00","2019","01","27","08:00","-24.6","","-31.4","","54","","0.0","","20","","28","","16.1","","102.63","","","","-38","","NA"
"-57.04","53.68","CARTWRIGHT A","8501106","2019-01-27 09:00","2019","01","27","09:00","-23.7","","-31.3","","50","","0.0","","21","","30","","16.1","","102.75","","","","-37","","NA"
"-57.04","53.68","CARTWRIGHT A","8501106","2019-01-27 10:00","2019","01","27","10:00","-23.3","","-30.8","","51","","0.0","","21","","22","","16.1","","102.82","","","","-35","","NA"
"-57.04","53.68","CARTWRIGHT A","8501106","2019-01-27 11:00","2019","01","27","11:00","-22.5","","-30.5","","49","","0.0","","21","","28","","16.1","","102.80","","","","-35","","NA"
"-57.04","53.68","CARTWRIGHT A","8501106","2019-01-27 12:00","2019","01","27","12:00","-21.2","","-30.0","","46","","0.0","","23","","26","","16.1","","102.78","","","","-33","","NA"
"-57.04","53.68","CARTWRIGHT A","8501106","2019-01-27 13:00","2019","01","27","13:00","-20.1","","-29.2","","45","","0.0","","20","","17","","16.1","","102.78","","","","-30","","NA"
"-57.04","53.68","CARTWRIGHT A","8501106","2019-01-27 14:00","2019","01","27","14:00","-19.0","","-29.4","","40","","0.0","","21","","18","","16.1","","102.75","","","","-29","","NA"
"-57.04","53.68","CARTWRIGHT A","8501106","2019-01-27 15:00","2019","01","27","15:00","-18.5","","-29.0","","40","","0.0","","20","","17","","16.1","","102.78","","","","-28","","NA"
"-57.04","53.68","CARTWRIGHT A","8501106","2019-01-27 16:00","2019","01","27","16:00","-19.0","","-28.7","","43","","0.0","","22","","22","","16.1","","102.74","","","","-30","","NA"
"-57.04","53.68","CARTWRIGHT A","8501106","2019-01-27 17:00","2019","01","27","17:00","-20.0","","-29.1","","45","","0.0","","20","","17","","16.1","","102.78","","","","-30","","Snow"
"-57.04","53.68","CARTWRIGHT A","8501106","2019-01-27 18:00","2019","01","27","18:00","-20.6","","-29.4","","46","","0.0","","21","","21","","16.1","","102.82","","","","-31","","Snow"
"-57.04","53.68","CARTWRIGHT A","8501106","2019-01-27 19:00","2019","01","27","19:00","-22.2","","-30.5","","48","","0.0","","21","","17","","16.1","","102.81","","","","-32","","Snow"
"-57.04","53.68","CARTWRIGHT A","8501106","2019-01-27 20:00","2019","01","27","20:00","-21.6","","-29.2","","51","","0.0","","21","","17","","16.1","","102.82","","","","-32","","Snow"
"-57.04","53.68","CARTWRIGHT A","8501106","2019-01-27 21:00","2019","01","27","21:00","-23.8","","-30.5","","55","","0.0","","20","","18","","16.1","","102.79","","","","-35","","Snow"
"-57.04","53.68","CARTWRIGHT A","8501106","2019-01-27 22:00","2019","01","27","22:00","-25.0","","-30.9","","59","","0.0","","21","","13","","16.1","","102.72","","","","-34","","Snow"
"-57.04","53.68","CARTWRIGHT A","8501106","2019-01-27 23:00","2019","01","27","23:00","-25.3","","-31.0","","60","","0.0","","19","","18","","16.1","","102.70","","","","-37","","Snow"
"-57.04","53.68","CARTWRIGHT A","8501106","2019-01-28 00:00","2019","01","28","00:00","-24.5","","-30.6","","58","","0.0","","21","","15","","16.1","","102.64","","","","-35","","Snow"
"-57.04","53.68","CARTWRIGHT A","8501106","2019-01-28 01:00","2019","01","28","01:00","-26.7","","-31.4","","65","","0.0","","20","","11","","16.1","","102.58","","","","-36","","Snow"
"-57.04","53.68","CARTWRIGHT A","8501106","2019-01-28 02:00","2019","01","28","02:00","-24.3","","-29.7","","62","","0.0","","20","","11","","16.1","","102.58","","","","-33","","Snow"
"-57.04","53.68","CARTWRIGHT A","8501106","2019-01-28 03:00","2019","01","28","03:00","-21.7","","-28.2","","57","","0.0","","19","","9","","16.1","","102.41","","","","-29","","Snow"
"-57.04","53.68","CARTWRIGHT A","8501106","2019-01-28 04:00","2019","01","28","04:00","-22.0","","-26.8","","66","","0.0","","","M","4","","16.1","","102.33","","","","-26","","Snow"
"-57.04","53.68","CARTWRIGHT A","8501106","2019-01-28 05:00","2019","01","28","05:00","-22.2","","-26.8","","67","","0.0","","","M","4","","4.0","","102.22","","","","-26","","Snow"
"-57.04","53.68","CARTWRIGHT A","8501106","2019-01-28 06:00","2019","01","28","06:00","-21.2","","-24.8","","73","","0.1","","","","0","","4.8","","102.05","","","","","","Snow"
"-57.04","53.68","CARTWRIGHT A","8501106","2019-01-28 07:00","2019","01","28","07:00","-20.5","","-23.7","","76","","0.1","","","","0","","16.1","","101.93","","","","","","Snow"
"-57.04","53.68","CARTWRIGHT A","8501106","2019-01-28 08:00","2019","01","28","08:00","-19.6","","-22.4","","79","","0.0","","","M","4","","8.1","","101.75","","","","-23","","Snow"
"-57.04","53.68","CARTWRIGHT A","8501106","2019-01-28 09:00","2019","01","28","09:00","-16.9","","-19.1","","83","","0.0","","33","","8","","2.4","","101.54","","","","-23","","Snow"
"-57.04","53.68","CARTWRIGHT A","8501106","2019-01-28 10:00","2019","01","28","10:00","-10.5","","-13.2","","81","","0.0","","15","","13","","6.4","","101.34","","","","-17","","Snow"
"-57.04","53.68","CARTWRIGHT A","8501106","2019-01-28 11:00","2019","01","28","11:00","-9.3","","-11.5","","84","","0.0","","14","","5","","16.1","","101.03","","","","-12","","Snow"
"-57.04","53.68","CARTWRIGHT A","8501106","2019-01-28 12:00","2019","01","28","12:00","-5.4","","-8.2","","81","","0.0","","14","","28","","11.3","","100.67","","","","-13","","Snow"
"-57.04","53.68","CARTWRIGHT A","8501106","2019-01-28 13:00","2019","01","28","13:00","-3.4","","-7.2","","75","","0.0","","16","","37","","16.1","","100.44","","","","-12","","NA"
"-57.04","53.68","CARTWRIGHT A","8501106","2019-01-28 14:00","2019","01","28","14:00","-2.7","","-6.5","","75","","0.0","","15","","35","","16.1","","100.19","","","","-11","","NA"
"-57.04","53.68","CARTWRIGHT A","8501106","2019-01-28 15:00","2019","01","28","15:00","-1.5","","-5.4","","75","","0.0","","16","","34","","16.1","","99.96","","","","-9","","NA"
"-57.04","53.68","CARTWRIGHT A","8501106","2019-01-28 16:00","2019","01","28","16:00","-1.1","","-5.0","","75","","0.0","","15","","41","","16.1","","99.66","","","","-9","","Snow"
"-57.04","53.68","CARTWRIGHT A","8501106","2019-01-28 17:00","2019","01","28","17:00","-1.5","","-5.0","","77","","0.0","","16","","24","","16.1","","99.49","","","","-8","","Snow"
"-57.04","53.68","CARTWRIGHT A","8501106","2019-01-28 18:00","2019","01","28","18:00","-1.4","","-4.6","","79","","0.0","","16","","39","","14.5","","99.28","","","","-9","","Snow"
"-57.04","53.68","CARTWRIGHT A","8501106","2019-01-28 19:00","2019","01","28","19:00","-1.1","","-4.8","","76","","0.0","","15","","30","","16.1","","99.02","","","","-8","","Snow"
"-57.04","53.68","CARTWRIGHT A","8501106","2019-01-28 20:00","2019","01","28","20:00","-5.9","","-10.6","","69","","0.0","","24","","45","","16.1","","99.23","","","","-16","","Snow"
"-57.04","53.68","CARTWRIGHT A","8501106","2019-01-28 21:00","2019","01","28","21:00","-8.2","","-12.1","","74","","0.0","","25","","48","","4.0","","99.41","","","","-19","","Snow"
"-57.04","53.68","CARTWRIGHT A","8501106","2019-01-28 22:00","2019","01","28","22:00","-11.1","","-17.6","","59","","0.0","","26","","45","","16.1","","99.55","","","","-23","","Snow"
"-57.04","53.68","CARTWRIGHT A","8501106","2019-01-28 23:00","2019","01","28","23:00","-13.2","","-18.9","","63","","0.0","","25","","43","","16.1","","99.65","","","","-25","","Snow"
"-57.04","53.68","CARTWRIGHT A","8501106","2019-01-29 00:00","2019","01","29","00:00","-15.3","","-20.5","","65","","0.0","","25","","37","","16.1","","99.77","","","","-27","","Snow"
"-57.04","53.68","CARTWRIGHT A","8501106","2019-01-29 01:00","2019","01","29","01:00","-16.2","","-22.4","","60","","0.0","","24","","50","","16.1","","99.71","","","","-30","","Snow"
"-57.04","53.68","CARTWRIGHT A","8501106","2019-01-29 02:00","2019","01","29","02:00","-17.6","","-23.4","","61","","0.0","","24","","50","","6.4","","99.76","","","","-32","","Snow"
"-57.04","53.68","CARTWRIGHT A","8501106","2019-01-29 03:00","2019","01","29","03:00","-18.9","","-25.8","","55","","0.0","","23","","50","","4.0","","99.71","","","","-34","","Snow,Blowing Snow"
"-57.04","53.68","CARTWRIGHT A","8501106","2019-01-29 04:00","2019","01","29","04:00","-19.8","","-26.3","","57","","0.0","","23","","41","","16.1","","99.79","","","","-34","","Snow"
"-57.04","53.68","CARTWRIGHT A","8501106","2019-01-29 05:00","2019","01","29","05:00","-20.4","","-26.9","","57","","0.0","","23","","43","","16.1","","99.80","","","","-35","","Snow"
"-57.04","53.68","CARTWRIGHT A","8501106","2019-01-29 06:00","2019","01","29","06:00","-20.3","","-26.8","","57","","0.0","","23","","37","","16.1","","99.90","","","","-34","","Snow"
"-57.04","53.68","CARTWRIGHT A","8501106","2019-01-29 07:00","2019","01","29","07:00","-20.2","","-26.3","","59","","0.0","","22","","30","","16.1","","99.88","","","","-33","","Snow"
"-57.04","53.68","CARTWRIGHT A","8501106","2019-01-29 08:00","2019","01","29","08:00","-19.1","","-25.2","","59","","0.0","","22","","39","","16.1","","99.90","","","","-33","","NA"
"-57.04","53.68","CARTWRIGHT A","8501106","2019-01-29 09:00","2019","01","29","09:00","-17.2","","-23.6","","58","","0.0","","23","","37","","16.1","","100.01","","","","-30","","NA"
"-57.04","53.68","CARTWRIGHT A","8501106","2019-01-29 10:00","2019","01","29","10:00","-15.1","","-21.4","","59","","0.0","","22","","24","","16.1","","100.17","","","","-25","","NA"
"-57.04","53.68","CARTWRIGHT A","8501106","2019-01-29 11:00","2019","01","29","11:00","-12.8","","-18.9","","61","","0.0","","24","","35","","16.1","","100.24","","","","-24","","NA"
"-57.04","53.68","CARTWRIGHT A","8501106","2019-01-29 12:00","2019","01","29","12:00","-11.1","","-16.8","","63","","0.0","","24","","32","","16.1","","100.37","","","","-21","","NA"
"-57.04","53.68","CARTWRIGHT A","8501106","2019-01-29 13:00","2019","01","29","13:00","-10.0","","-15.2","","66","","0.0","","25","","30","","16.1","","100.56","","","","-20","","NA"
"-57.04","53.68","CARTWRIGHT A","8501106","2019-01-29 14:00","2019","01","29","14:00","-9.9","","-14.4","","70","","0.0","","27","","32","","16.1","","100.77","","","","-20","","NA"
"-57.04","53.68","CARTWRIGHT A","8501106","2019-01-29 15:00","2019","01","29","15:00","-9.7","","-13.9","","72","","0.0","","27","","30","","16.1","","101.01","","","","-19","","NA"
"-57.04","53.68","CARTWRIGHT A","8501106","2019-01-29 16:00","2019","01","29","16:00","-9.9","","-14.2","","71","","0.0","","29","","30","","16.1","","101.20","","","","-19","","NA"
"-57.04","53.68","CARTWRIGHT A","8501106","2019-01-29 17:00","2019","01","29","17:00","-10.2","","-14.5","","71","","0.0","","29","","21","","16.1","","101.41","","","","-18","","Snow"
"-57.04","53.68","CARTWRIGHT A","8501106","2019-01-29 18:00","2019","01","29","18:00","-10.5","","-14.8","","71","","0.0","","31","","24","","16.1","","101.54","","","","-19","","Snow"
"-57.04","53.68","CARTWRIGHT A","8501106","2019-01-29 19:00","2019","01","29","19:00","-10.7","","-14.8","","72","","0.0","","29","","18","","16.1","","101.71","","","","-18","","Snow"
"-57.04","53.68","CARTWRIGHT A","8501106","2019-01-29 20:00","2019","01","29","20:00","-10.3","","-14.4","","72","","0.0","","28","","22","","16.1","","101.85","","","","-19","","Snow"
"-57.04","53.68","CARTWRIGHT A","8501106","2019-01-29 21:00","2019","01","29","21:00","-10.1","","-14.3","","72","","0.0","","28","","21","","16.1","","101.97","","","","-18","","Snow"
"-57.04","53.68","CARTWRIGHT A","8501106","2019-01-29 22:00","2019","01","29","22:00","-10.3","","-14.4","","72","","0.0","","29","","13","","16.1","","102.03","","","","-17","","Snow"
"-57.04","53.68","CARTWRIGHT A","8501106","2019-01-29 23:00","2019","01","29","23:00","-10.3","","-14.0","","74","","0.0","","26","","13","","16.1","","102.11","","","","-17","","Snow"
"-57.04","53.68","CARTWRIGHT A","8501106","2019-01-30 00:00","2019","01","30","00:00","-9.7","","-13.5","","74","","0.0","","26","","17","","16.1","","102.19","","","","-17","","Snow"
"-57.04","53.68","CARTWRIGHT A","8501106","2019-01-30 01:00","2019","01","30","01:00","-10.7","","-13.8","","78","","0.0","","22","","11","","16.1","","102.23","","","","-16","","Snow"
"-57.04","53.68","CARTWRIGHT A","8501106","2019-01-30 02:00","2019","01","30","02:00","-10.9","","-14.0","","78","","0.0","","21","","11","","16.1","","102.26","","","","-17","","Snow"
"-57.04","53.68","CARTWRIGHT A","8501106","2019-01-30 03:00","2019","01","30","03:00","-10.7","","-13.4","","81","","0.0","","21","","8","","16.1","","102.32","","","","-15","","Snow"
"-57.04","53.68","CARTWRIGHT A","8501106","2019-01-30 04:00","2019","01","30","04:00","-10.5","","-13.3","","80","","0.0","","22","","11","","16.1","","102.38","","","","-16","","Snow"
"-57.04","53.68","CARTWRIGHT A","8501106","2019-01-30 05:00","2019","01","30","05:00","-10.4","","-13.2","","80","","0.0","","20","","5","","16.1","","102.46","","","","-13","","Snow"
"-57.04","53.68","CARTWRIGHT A","8501106","2019-01-30 06:00","2019","01","30","06:00","-10.2","","-12.7","","82","","0.0","","22","","8","","16.1","","102.48","","","","-15","","Snow"
"-57.04","53.68","CARTWRIGHT A","8501106","2019-01-30 07:00","2019","01","30","07:00","-10.3","","-12.5","","84","","0.0","","19","","5","","16.1","","102.47","","","","-13","","Snow"
"-57.04","53.68","CARTWRIGHT A","8501106","2019-01-30 08:00","2019","01","30","08:00","-10.6","","-11.8","","91","","0.0","","21","","9","","12.9","","102.50","","","","-16","","Snow"
"-57.04","53.68","CARTWRIGHT A","8501106","2019-01-30 09:00","2019","01","30","09:00","-10.3","","-11.4","","92","","0.0","","19","","5","","4.0","","102.48","","","","-13","","Fog"
"-57.04","53.68","CARTWRIGHT A","8501106","2019-01-30 10:00","2019","01","30","10:00","-9.7","","-10.6","","93","","0.0","","","M","4","","4.0","","102.43","","","","-12","","Fog"
"-57.04","53.68","CARTWRIGHT A","8501106","2019-01-30 11:00","2019","01","30","11:00","-9.2","","-10.1","","93","","0.0","","25","","4","","4.8","","102.42","","","","-11","","Fog"
"-57.04","53.68","CARTWRIGHT A","8501106","2019-01-30 12:00","2019","01","30","12:00","-8.5","","-9.4","","93","","0.0","","","M","4","","6.4","","102.33","","","","-11","","Fog"
"-57.04","53.68","CARTWRIGHT A","8501106","2019-01-30 13:00","2019","01","30","13:00","-7.4","","-8.5","","92","","0.0","","6","","8","","12.9","","102.26","","","","-11","","NA"
"-57.04","53.68","CARTWRIGHT A","8501106","2019-01-30 14:00","2019","01","30","14:00","-6.8","","-7.9","","92","","0.0","","","M","4","","16.1","","102.22","","","","-9","","NA"
"-57.04","53.68","CARTWRIGHT A","8501106","2019-01-30 15:00","2019","01","30","15:00","-6.0","","-7.5","","89","","0.0","","13","","5","","16.1","","102.09","","","","-8","","NA"
"-57.04","53.68","CARTWRIGHT A","8501106","2019-01-30 16:00","2019","01","30","16:00","-5.8","","-7.2","","90","","0.0","","11","","9","","16.1","","101.99","","","","-10","","NA"
"-57.04","53.68","CARTWRIGHT A","8501106","2019-01-30 17:00","2019","01","30","17:00","-5.8","","-7.3","","89","","0.0","","10","","13","","16.1","","101.89","","","","-11","","Snow"
"-57.04","53.68","CARTWRIGHT A","8501106","2019-01-30 18:00","2019","01","30","18:00","-5.5","","-7.2","","88","","0.0","","16","","9","","16.1","","101.89","","","","-10","","Snow"
"-57.04","53.68","CARTWRIGHT A","8501106","2019-01-30 19:00","2019","01","30","19:00","-5.5","","-7.0","","89","","0.0","","10","","8","","16.1","","101.77","","","","-9","","Snow"
"-57.04","53.68","CARTWRIGHT A","8501106","2019-01-30 20:00","2019","01","30","20:00","-5.2","","-6.3","","92","","0.0","","12","","11","","16.1","","101.69","","","","-10","","Snow"
"-57.04","53.68","CARTWRIGHT A","8501106","2019-01-30 21:00","2019","01","30","21:00","-4.6","","-5.9","","91","","0.0","","11","","13","","16.1","","101.52","","","","-10","","Snow"
"-57.04","53.68","CARTWRIGHT A","8501106","2019-01-30 22:00","2019","01","30","22:00","-4.1","","-5.7","","89","","0.0","","13","","17","","16.1","","101.36","","","","-10","","Snow"
"-57.04","53.68","CARTWRIGHT A","8501106","2019-01-30 23:00","2019","01","30","23:00","-3.3","","-5.3","","86","","0.0","","13","","21","","16.1","","101.17","","","","-10","","Snow"
"-57.04","53.68","CARTWRIGHT A","8501106","2019-01-31 00:00","2019","01","31","00:00","-2.8","","-5.0","","85","","0.0","","14","","26","","16.1","","100.99","","","","-10","","Snow"
"-57.04","53.68","CARTWRIGHT A","8501106","2019-01-31 01:00","2019","01","31","01:00","-2.4","","-4.6","","85","","0.0","","13","","21","","16.1","","100.75","","","","-8","","Snow"
"-57.04","53.68","CARTWRIGHT A","8501106","2019-01-31 02:00","2019","01","31","02:00","-1.9","","-4.8","","81","","0.0","","14","","34","","16.1","","100.54","","","","-9","","Snow"
"-57.04","53.68","CARTWRIGHT A","8501106","2019-01-31 03:00","2019","01","31","03:00","-1.5","","-4.7","","79","","0.0","","14","","35","","16.1","","100.32","","","","-9","","Snow"
"-57.04","53.68","CARTWRIGHT A","8501106","2019-01-31 04:00","2019","01","31","04:00","-0.9","","-4.4","","77","","0.0","","15","","32","","16.1","","100.14","","","","-8","","Snow"
"-57.04","53.68","CARTWRIGHT A","8501106","2019-01-31 05:00","2019","01","31","05:00","-0.6","","-4.4","","75","","0.0","","14","","30","","16.1","","99.96","","","","-7","","Snow"
"-57.04","53.68","CARTWRIGHT A","8501106","2019-01-31 06:00","2019","01","31","06:00","-0.7","","-4.3","","77","","0.0","","14","","39","","16.1","","99.75","","","","-8","","Snow"
"-57.04","53.68","CARTWRIGHT A","8501106","2019-01-31 07:00","2019","01","31","07:00","-0.6","","-4.1","","77","","0.0","","15","","39","","16.1","","99.67","","","","-8","","Snow"
"-57.04","53.68","CARTWRIGHT A","8501106","2019-01-31 08:00","2019","01","31","08:00","-0.6","","-3.8","","79","","0.0","","15","","35","","16.1","","99.61","","","","-8","","Snow"
"-57.04","53.68","CARTWRIGHT A","8501106","2019-01-31 09:00","2019","01","31","09:00","-0.6","","-4.0","","78","","0.0","","18","","28","","16.1","","99.61","","","","-7","","Snow"
"-57.04","53.68","CARTWRIGHT A","8501106","2019-01-31 10:00","2019","01","31","10:00","-1.8","","-12.0","","46","","0.0","","22","","39","","16.1","","99.71","","","","-10","","NA"
"-57.04","53.68","CARTWRIGHT A","8501106","2019-01-31 11:00","2019","01","31","11:00","-3.5","","-13.3","","47","","0.0","","22","","24","","16.1","","99.76","","","","-10","","NA"
"-57.04","53.68","CARTWRIGHT A","8501106","2019-01-31 12:00","2019","01","31","12:00","-2.7","","-16.7","","34","","0.0","","20","","21","","16.1","","99.69","","","","-9","","NA"
"-57.04","53.68","CARTWRIGHT A","8501106","2019-01-31 13:00","2019","01","31","13:00","-2.4","","-18.6","","28","","0.0","","21","","9","","16.1","","99.56","","","","-6","","NA"
"-57.04","53.68","CARTWRIGHT A","8501106","2019-01-31 14:00","2019","01","31","14:00","-3.1","","-17.6","","32","","0.0","","24","","11","","16.1","","99.48","","","","-7","","NA"
"-57.04","53.68","CARTWRIGHT A","8501106","2019-01-31 15:00","2019","01","31","15:00","-3.5","","-19.2","","29","","0.0","","24","","11","","16.1","","99.42","","","","-8","","NA"
"-57.04","53.68","CARTWRIGHT A","8501106","2019-01-31 16:00","2019","01","31","16:00","-3.8","","-13.3","","48","","0.0","","17","","17","","16.1","","99.34","","","","-10","","NA"
"-57.04","53.68","CARTWRIGHT A","8501106","2019-01-31 17:00","2019","01","31","17:00","-6.6","","-13.4","","59","","0.0","","27","","8","","16.1","","99.24","","","","-10","","Snow"
"-57.04","53.68","CARTWRIGHT A","8501106","2019-01-31 18:00","2019","01","31","18:00","-6.8","","-16.9","","45","","0.0","","18","","5","","16.1","","99.15","","","","-9","","Snow"
"-57.04","53.68","CARTWRIGHT A","8501106","2019-01-31 19:00","2019","01","31","19:00","-7.8","","-16.8","","49","","0.0","","23","","9","","16.1","","99.11","","","","-12","","Snow"
"-57.04","53.68","CARTWRIGHT A","8501106","2019-01-31 20:00","2019","01","31","20:00","-8.7","","-10.5","","87","","0.0","","27","","18","","1.6","","99.07","","","","-16","","Snow"
"-57.04","53.68","CARTWRIGHT A","8501106","2019-01-31 21:00","2019","01","31","21:00","-9.9","","-12.7","","80","","0.0","","25","","22","","2.0","","99.09","","","","-18","","Snow"
"-57.04","53.68","CARTWRIGHT A","8501106","2019-01-31 22:00","2019","01","31","22:00","-10.3","","-15.8","","65","","0.0","","25","","30","","14.5","","99.10","","","","-20","","Snow"
"-57.04","53.68","CARTWRIGHT A","8501106","2019-01-31 23:00","2019","01","31","23:00","-11.6","","-18.1","","59","","0.0","","25","","32","","9.7","","99.12","","","","-22","","Snow"
