"Longitude (x)","Latitude (y)","Station Name","Climate ID","Date/Time (LST)","Year","Month","Day","Time (LST)","Temp (°C)","Temp Flag","Dew Point Temp (°C)","Dew Point Temp Flag","Rel Hum (%)","Rel Hum Flag","Precip. Amount (mm)","Precip. Amount Flag","Wind Dir (10s deg)","Wind Dir Flag","Wind Spd (km/h)","Wind Spd Flag","Visibility (km)","Visibility Flag","Stn Press (kPa)","Stn Press Flag","Hmdx","Hmdx Flag","Wind Chill","Wind Chill Flag","Weather"
"-70.92","48.30","LA BAIE","706Q001","2019-02-01 00:00","2019","02","01","00:00","-24.2","","-29.7","","61","","","","27","","16","","","","99.50","","","","-35","","NA"
"-70.92","48.30","LA BAIE","706Q001","2019-02-01 01:00","2019","02","01","01:00","-24.3","","-29.9","","59","","","","26","","22","","","","99.46","","","","-36","","NA"
"-70.92","48.30","LA BAIE","706Q001","2019-02-01 02:00","2019","02","01","02:00","-23.9","","-29.0","","63","","","","25","","21","","","","99.50","","","","-36","","NA"
"-70.92","48.30","LA BAIE","706Q001","2019-02-01 03:00","2019","02","01","03:00","-23.8","","-28.7","","64","","","","26","","22","","","","99.46","","","","-36","","NA"
"-70.92","48.30","LA BAIE","706Q001","2019-02-01 04:00","2019","02","01","04:00","-23.4","","-28.3","","64","","","","26","","21","","","","99.47","","","","-35","","NA"
"-70.92","48.30","LA BAIE","706Q001","2019-02-01 05:00","2019","02","01","05:00","-23.2","","-28.3","","63","","","","26","","25","","","","99.54","","","","-36","","NA"
"-70.92","48.30","LA BAIE","706Q001","2019-02-01 06:00","2019","02","01","06:00","-23.7","","-29.3","","60","","","","27","","20","","","","99.58","","","","-35","","NA"
"-70.92","48.30","LA BAIE","706Q001","2019-02-01 07:00","2019","02","01","07:00","-24.2","","-29.6","","61","","","","26","","18","","","","99.62","","","","-35","","NA"
"-70.92","48.30","LA BAIE","706Q001","2019-02-01 08:00","2019","02","01","08:00","-23.5","","-29.0","","60","","","","25","","16","","","","99.66","","","","-34","","NA"
"-70.92","48.30","LA BAIE","706Q001","2019-02-01 09:00","2019","02","01","09:00","-21.7","","-28.3","","55","","","","25","","23","","","","99.66","","","","-33","","NA"
"-70.92","48.30","LA BAIE","706Q001","2019-02-01 10:00","2019","02","01","10:00","-20.4","","-26.8","","57","","","","26","","27","","","","99.62","","","","-33","","NA"
"-70.92","48.30","LA BAIE","706Q001","2019-02-01 11:00","2019","02","01","11:00","-19.2","","-25.5","","57","","","","26","","28","","","","99.62","","","","-31","","NA"
"-70.92","48.30","LA BAIE","706Q001","2019-02-01 12:00","2019","02","01","12:00","-18.0","","-24.7","","56","","","","27","","26","","","","99.58","","","","-29","","NA"
"-70.92","48.30","LA BAIE","706Q001","2019-02-01 13:00","2019","02","01","13:00","-16.9","","-23.3","","57","","","","27","","28","","","","99.50","","","","-28","","NA"
"-70.92","48.30","LA BAIE","706Q001","2019-02-01 14:00","2019","02","01","14:00","-16.2","","-22.1","","60","","","","26","","28","","","","99.50","","","","-27","","NA"
"-70.92","48.30","LA BAIE","706Q001","2019-02-01 15:00","2019","02","01","15:00","-15.9","","-21.6","","62","","","","27","","28","","","","99.54","","","","-27","","NA"
"-70.92","48.30","LA BAIE","706Q001","2019-02-01 16:00","2019","02","01","16:00","-15.3","","-19.8","","68","","","","26","","22","","","","99.58","","","","-25","","NA"
"-70.92","48.30","LA BAIE","706Q001","2019-02-01 17:00","2019","02","01","17:00","-15.2","","-21.1","","61","","","","26","","24","","","","99.58","","","","-25","","NA"
"-70.92","48.30","LA BAIE","706Q001","2019-02-01 18:00","2019","02","01","18:00","-15.7","","-22.2","","57","","","","26","","24","","","","99.66","","","","-26","","NA"
"-70.92","48.30","LA BAIE","706Q001","2019-02-01 19:00","2019","02","01","19:00","-15.6","","-22.4","","56","","","","26","","26","","","","99.70","","","","-26","","NA"
"-70.92","48.30","LA BAIE","706Q001","2019-02-01 20:00","2019","02","01","20:00","-15.7","","-22.3","","57","","","","26","","27","","","","99.75","","","","-26","","NA"
"-70.92","48.30","LA BAIE","706Q001","2019-02-01 21:00","2019","02","01","21:00","-16.2","","-22.7","","57","","","","27","","27","","","","99.78","","","","-27","","NA"
"-70.92","48.30","LA BAIE","706Q001","2019-02-01 22:00","2019","02","01","22:00","-16.7","","-23.1","","58","","","","26","","25","","","","99.86","","","","-27","","NA"
"-70.92","48.30","LA BAIE","706Q001","2019-02-01 23:00","2019","02","01","23:00","-17.2","","-23.4","","58","","","","27","","20","","","","99.91","","","","-27","","NA"
"-70.92","48.30","LA BAIE","706Q001","2019-02-02 00:00","2019","02","02","00:00","-17.9","","-23.7","","60","","","","27","","19","","","","99.91","","","","-28","","NA"
"-70.92","48.30","LA BAIE","706Q001","2019-02-02 01:00","2019","02","02","01:00","-17.9","","-23.3","","63","","","","27","","22","","","","99.91","","","","-28","","NA"
"-70.92","48.30","LA BAIE","706Q001","2019-02-02 02:00","2019","02","02","02:00","-18.3","","-23.1","","66","","","","25","","20","","","","99.91","","","","-28","","NA"
"-70.92","48.30","LA BAIE","706Q001","2019-02-02 03:00","2019","02","02","03:00","-18.5","","-23.0","","68","","","","25","","16","","","","99.91","","","","-28","","NA"
"-70.92","48.30","LA BAIE","706Q001","2019-02-02 04:00","2019","02","02","04:00","-18.8","","-23.0","","69","","","","24","","9","","","","99.78","","","","-25","","NA"
"-70.92","48.30","LA BAIE","706Q001","2019-02-02 05:00","2019","02","02","05:00","-20.2","","-23.4","","76","","","","22","","4","","","","99.66","","","","-24","","NA"
"-70.92","48.30","LA BAIE","706Q001","2019-02-02 06:00","2019","02","02","06:00","-20.3","","-23.5","","75","","","","29","","1","","","","99.58","","","","-21","","NA"
"-70.92","48.30","LA BAIE","706Q001","2019-02-02 07:00","2019","02","02","07:00","-19.0","","-22.0","","78","","","","7","","2","","","","99.46","","","","-21","","NA"
"-70.92","48.30","LA BAIE","706Q001","2019-02-02 08:00","2019","02","02","08:00","-18.7","","-21.2","","81","","","","9","","3","","","","99.38","","","","-21","","NA"
"-70.92","48.30","LA BAIE","706Q001","2019-02-02 09:00","2019","02","02","09:00","-18.4","","-20.9","","81","","","","6","","4","","","","99.29","","","","-22","","NA"
"-70.92","48.30","LA BAIE","706Q001","2019-02-02 10:00","2019","02","02","10:00","-18.1","","-20.6","","81","","","","6","","7","","","","99.13","","","","-23","","NA"
"-70.92","48.30","LA BAIE","706Q001","2019-02-02 11:00","2019","02","02","11:00","-17.1","","-19.6","","81","","","","6","","5","","","","98.98","","","","-21","","NA"
"-70.92","48.30","LA BAIE","706Q001","2019-02-02 12:00","2019","02","02","12:00","-15.8","","-18.7","","78","","","","7","","5","","","","98.85","","","","-20","","NA"
"-70.92","48.30","LA BAIE","706Q001","2019-02-02 13:00","2019","02","02","13:00","-14.5","","-17.1","","81","","","","6","","4","","","","98.77","","","","-17","","NA"
"-70.92","48.30","LA BAIE","706Q001","2019-02-02 14:00","2019","02","02","14:00","-11.0","","-14.3","","77","","","","34","","9","","","","98.68","","","","-16","","NA"
"-70.92","48.30","LA BAIE","706Q001","2019-02-02 15:00","2019","02","02","15:00","-10.7","","-14.5","","73","","","","26","","22","","","","98.70","","","","-19","","NA"
"-70.92","48.30","LA BAIE","706Q001","2019-02-02 16:00","2019","02","02","16:00","-10.9","","-13.8","","79","","","","27","","21","","","","98.77","","","","-19","","NA"
"-70.92","48.30","LA BAIE","706Q001","2019-02-02 17:00","2019","02","02","17:00","-11.7","","-14.1","","83","","","","27","","13","","","","98.85","","","","-18","","NA"
"-70.92","48.30","LA BAIE","706Q001","2019-02-02 18:00","2019","02","02","18:00","-11.7","","-14.2","","81","","","","27","","17","","","","98.98","","","","-19","","NA"
"-70.92","48.30","LA BAIE","706Q001","2019-02-02 19:00","2019","02","02","19:00","-12.7","","-14.4","","86","","","","27","","14","","","","99.13","","","","-20","","NA"
"-70.92","48.30","LA BAIE","706Q001","2019-02-02 20:00","2019","02","02","20:00","-12.5","","-14.8","","83","","","","28","","22","","","","99.29","","","","-21","","NA"
"-70.92","48.30","LA BAIE","706Q001","2019-02-02 21:00","2019","02","02","21:00","-15.1","","-18.6","","75","","","","27","","30","","","","99.49","","","","-26","","NA"
"-70.92","48.30","LA BAIE","706Q001","2019-02-02 22:00","2019","02","02","22:00","-16.3","","-20.3","","72","","","","27","","27","","","","99.64","","","","-27","","NA"
"-70.92","48.30","LA BAIE","706Q001","2019-02-02 23:00","2019","02","02","23:00","-18.2","","-22.4","","69","","","","27","","21","","","","99.74","","","","-28","","NA"
"-70.92","48.30","LA BAIE","706Q001","2019-02-03 00:00","2019","02","03","00:00","-19.0","","-23.1","","70","","","","26","","22","","","","99.86","","","","-30","","NA"
"-70.92","48.30","LA BAIE","706Q001","2019-02-03 01:00","2019","02","03","01:00","-19.5","","-23.9","","68","","","","27","","24","","","","99.99","","","","-31","","NA"
"-70.92","48.30","LA BAIE","706Q001","2019-02-03 02:00","2019","02","03","02:00","-20.5","","-24.8","","69","","","","27","","17","","","","100.03","","","","-30","","NA"
"-70.92","48.30","LA BAIE","706Q001","2019-02-03 03:00","2019","02","03","03:00","-21.1","","-25.3","","69","","","","27","","20","","","","100.11","","","","-32","","NA"
"-70.92","48.30","LA BAIE","706Q001","2019-02-03 04:00","2019","02","03","04:00","-22.5","","-26.5","","70","","","","26","","11","","","","100.19","","","","-31","","NA"
"-70.92","48.30","LA BAIE","706Q001","2019-02-03 05:00","2019","02","03","05:00","-23.2","","-26.4","","75","","","","25","","10","","","","100.23","","","","-31","","NA"
"-70.92","48.30","LA BAIE","706Q001","2019-02-03 06:00","2019","02","03","06:00","-25.2","","-27.3","","83","","","","23","","7","","","","100.27","","","","-32","","NA"
"-70.92","48.30","LA BAIE","706Q001","2019-02-03 07:00","2019","02","03","07:00","-27.9","","-30.8","","76","","","","24","","7","","","","100.27","","","","-35","","NA"
"-70.92","48.30","LA BAIE","706Q001","2019-02-03 08:00","2019","02","03","08:00","-23.7","","-27.1","","74","","","","27","","7","","","","100.35","","","","-30","","NA"
"-70.92","48.30","LA BAIE","706Q001","2019-02-03 09:00","2019","02","03","09:00","-21.8","","-26.6","","66","","","","28","","11","","","","100.38","","","","-30","","NA"
"-70.92","48.30","LA BAIE","706Q001","2019-02-03 10:00","2019","02","03","10:00","-20.8","","-25.9","","63","","","","31","","12","","","","100.39","","","","-29","","NA"
"-70.92","48.30","LA BAIE","706Q001","2019-02-03 11:00","2019","02","03","11:00","-20.9","","-26.2","","62","","","","7","","8","","","","100.36","","","","-27","","NA"
"-70.92","48.30","LA BAIE","706Q001","2019-02-03 12:00","2019","02","03","12:00","-20.0","","-26.0","","59","","","","6","","5","","","","100.23","","","","-24","","NA"
"-70.92","48.30","LA BAIE","706Q001","2019-02-03 13:00","2019","02","03","13:00","-18.9","","-24.7","","60","","","","5","","4","","","","100.19","","","","-22","","NA"
"-70.92","48.30","LA BAIE","706Q001","2019-02-03 14:00","2019","02","03","14:00","-18.2","","-24.0","","60","","","","6","","5","","","","100.11","","","","-22","","NA"
"-70.92","48.30","LA BAIE","706Q001","2019-02-03 15:00","2019","02","03","15:00","-17.2","","-23.1","","60","","","","","","0","","","","100.06","","","","","","NA"
"-70.92","48.30","LA BAIE","706Q001","2019-02-03 16:00","2019","02","03","16:00","-16.7","","-22.4","","61","","","","23","","3","","","","100.06","","","","-19","","NA"
"-70.92","48.30","LA BAIE","706Q001","2019-02-03 17:00","2019","02","03","17:00","-16.2","","-21.1","","66","","","","","","0","","","","100.03","","","","","","NA"
"-70.92","48.30","LA BAIE","706Q001","2019-02-03 18:00","2019","02","03","18:00","-16.7","","-20.8","","70","","","","7","","5","","","","99.96","","","","-21","","NA"
"-70.92","48.30","LA BAIE","706Q001","2019-02-03 19:00","2019","02","03","19:00","-17.0","","-20.4","","75","","","","7","","5","","","","99.86","","","","-21","","NA"
"-70.92","48.30","LA BAIE","706Q001","2019-02-03 20:00","2019","02","03","20:00","-16.8","","-20.1","","76","","","","10","","2","","","","99.78","","","","-18","","NA"
"-70.92","48.30","LA BAIE","706Q001","2019-02-03 21:00","2019","02","03","21:00","-16.6","","-19.7","","77","","","","","","0","","","","99.66","","","","","","NA"
"-70.92","48.30","LA BAIE","706Q001","2019-02-03 22:00","2019","02","03","22:00","-15.3","","-18.1","","79","","","","21","","5","","","","99.50","","","","-19","","NA"
"-70.92","48.30","LA BAIE","706Q001","2019-02-03 23:00","2019","02","03","23:00","-13.8","","-16.6","","79","","","","0","","1","","","","99.38","","","","-14","","NA"
"-70.92","48.30","LA BAIE","706Q001","2019-02-04 00:00","2019","02","04","00:00","-13.0","","-15.3","","83","","","","0","","1","","","","99.29","","","","-14","","NA"
"-70.92","48.30","LA BAIE","706Q001","2019-02-04 01:00","2019","02","04","01:00","-11.3","","-13.7","","83","","","","","","0","","","","99.21","","","","","","NA"
"-70.92","48.30","LA BAIE","706Q001","2019-02-04 02:00","2019","02","04","02:00","-10.9","","-13.6","","80","","","","","","0","","","","99.17","","","","","","NA"
"-70.92","48.30","LA BAIE","706Q001","2019-02-04 03:00","2019","02","04","03:00","-10.6","","-12.3","","87","","","","20","","3","","","","99.16","","","","-12","","NA"
"-70.92","48.30","LA BAIE","706Q001","2019-02-04 04:00","2019","02","04","04:00","-10.9","","-12.0","","91","","","","25","","9","","","","99.21","","","","-16","","NA"
"-70.92","48.30","LA BAIE","706Q001","2019-02-04 05:00","2019","02","04","05:00","-10.3","","-11.4","","92","","","","26","","9","","","","99.29","","","","-15","","NA"
"-70.92","48.30","LA BAIE","706Q001","2019-02-04 06:00","2019","02","04","06:00","-10.4","","-11.6","","91","","","","28","","11","","","","99.38","","","","-16","","NA"
"-70.92","48.30","LA BAIE","706Q001","2019-02-04 07:00","2019","02","04","07:00","-10.0","","-11.3","","90","","","","27","","12","","","","99.42","","","","-16","","NA"
"-70.92","48.30","LA BAIE","706Q001","2019-02-04 08:00","2019","02","04","08:00","-9.3","","-11.4","","84","","","","28","","15","","","","99.54","","","","-16","","NA"
"-70.92","48.30","LA BAIE","706Q001","2019-02-04 09:00","2019","02","04","09:00","-9.3","","-12.0","","81","","","","29","","19","","","","99.64","","","","-17","","NA"
"-70.92","48.30","LA BAIE","706Q001","2019-02-04 10:00","2019","02","04","10:00","-9.8","","-13.0","","77","","","","29","","16","","","","99.71","","","","-17","","NA"
"-70.92","48.30","LA BAIE","706Q001","2019-02-04 11:00","2019","02","04","11:00","-10.1","","-14.5","","70","","","","29","","21","","","","99.74","","","","-18","","NA"
"-70.92","48.30","LA BAIE","706Q001","2019-02-04 12:00","2019","02","04","12:00","-9.6","","-15.1","","64","","","","28","","11","","","","99.74","","","","-15","","NA"
"-70.92","48.30","LA BAIE","706Q001","2019-02-04 13:00","2019","02","04","13:00","-9.0","","-14.5","","64","","","","30","","18","","","","99.78","","","","-16","","NA"
"-70.92","48.30","LA BAIE","706Q001","2019-02-04 14:00","2019","02","04","14:00","-8.9","","-14.8","","62","","","","28","","16","","","","99.82","","","","-16","","NA"
"-70.92","48.30","LA BAIE","706Q001","2019-02-04 15:00","2019","02","04","15:00","-9.0","","-14.4","","65","","","","28","","11","","","","99.82","","","","-14","","NA"
"-70.92","48.30","LA BAIE","706Q001","2019-02-04 16:00","2019","02","04","16:00","-9.6","","-14.7","","66","","","","27","","8","","","","99.86","","","","-14","","NA"
"-70.92","48.30","LA BAIE","706Q001","2019-02-04 17:00","2019","02","04","17:00","-10.0","","-14.6","","69","","","","29","","9","","","","99.88","","","","-15","","NA"
"-70.92","48.30","LA BAIE","706Q001","2019-02-04 18:00","2019","02","04","18:00","-10.9","","-15.1","","71","","","","19","","6","","","","99.82","","","","-15","","NA"
"-70.92","48.30","LA BAIE","706Q001","2019-02-04 19:00","2019","02","04","19:00","-13.0","","-15.7","","80","","","","20","","3","","","","99.82","","","","-15","","NA"
"-70.92","48.30","LA BAIE","706Q001","2019-02-04 20:00","2019","02","04","20:00","-11.1","","-13.6","","82","","","","0","","1","","","","99.70","","","","-12","","NA"
"-70.92","48.30","LA BAIE","706Q001","2019-02-04 21:00","2019","02","04","21:00","-10.3","","-13.6","","77","","","","8","","6","","","","99.54","","","","-14","","NA"
"-70.92","48.30","LA BAIE","706Q001","2019-02-04 22:00","2019","02","04","22:00","-10.2","","-12.7","","82","","","","7","","7","","","","99.38","","","","-14","","NA"
"-70.92","48.30","LA BAIE","706Q001","2019-02-04 23:00","2019","02","04","23:00","-9.0","","-11.6","","82","","","","8","","11","","","","99.13","","","","-14","","NA"
"-70.92","48.30","LA BAIE","706Q001","2019-02-05 00:00","2019","02","05","00:00","-6.2","","-7.9","","88","","","","9","","19","","","","98.97","","","","-13","","NA"
"-70.92","48.30","LA BAIE","706Q001","2019-02-05 01:00","2019","02","05","01:00","-7.1","","-9.0","","87","","","","7","","17","","","","98.82","","","","-14","","NA"
"-70.92","48.30","LA BAIE","706Q001","2019-02-05 02:00","2019","02","05","02:00","-6.7","","-8.5","","87","","","","8","","20","","","","98.68","","","","-14","","NA"
"-70.92","48.30","LA BAIE","706Q001","2019-02-05 03:00","2019","02","05","03:00","-6.7","","-8.3","","88","","","","7","","15","","","","98.52","","","","-13","","NA"
"-70.92","48.30","LA BAIE","706Q001","2019-02-05 04:00","2019","02","05","04:00","-6.2","","-7.6","","90","","","","6","","14","","","","98.40","","","","-12","","NA"
"-70.92","48.30","LA BAIE","706Q001","2019-02-05 05:00","2019","02","05","05:00","-5.5","","-6.2","","95","","","","6","","12","","","","98.36","","","","-10","","NA"
"-70.92","48.30","LA BAIE","706Q001","2019-02-05 06:00","2019","02","05","06:00","-6.6","","-7.5","","93","","","","6","","11","","","","98.28","","","","-12","","NA"
"-70.92","48.30","LA BAIE","706Q001","2019-02-05 07:00","2019","02","05","07:00","-6.2","","-7.3","","93","","","","6","","10","","","","98.33","","","","-11","","NA"
"-70.92","48.30","LA BAIE","706Q001","2019-02-05 08:00","2019","02","05","08:00","-6.0","","-7.1","","92","","","","5","","5","","","","98.40","","","","-8","","NA"
"-70.92","48.30","LA BAIE","706Q001","2019-02-05 09:00","2019","02","05","09:00","-5.6","","-6.3","","95","","","","6","","3","","","","98.42","","","","-7","","NA"
"-70.92","48.30","LA BAIE","706Q001","2019-02-05 10:00","2019","02","05","10:00","-5.5","","-6.1","","95","","","","30","","11","","","","98.60","","","","-10","","NA"
"-70.92","48.30","LA BAIE","706Q001","2019-02-05 11:00","2019","02","05","11:00","-7.9","","-9.8","","86","","","","27","","16","","","","98.76","","","","-14","","NA"
"-70.92","48.30","LA BAIE","706Q001","2019-02-05 12:00","2019","02","05","12:00","-8.2","","-10.2","","86","","","","27","","14","","","","98.89","","","","-14","","NA"
"-70.92","48.30","LA BAIE","706Q001","2019-02-05 13:00","2019","02","05","13:00","-8.8","","-10.8","","85","","","","27","","18","","","","99.01","","","","-16","","NA"
"-70.92","48.30","LA BAIE","706Q001","2019-02-05 14:00","2019","02","05","14:00","-9.2","","-11.8","","82","","","","28","","20","","","","99.17","","","","-17","","NA"
"-70.92","48.30","LA BAIE","706Q001","2019-02-05 15:00","2019","02","05","15:00","-9.7","","-12.5","","80","","","","27","","21","","","","99.35","","","","-18","","NA"
"-70.92","48.30","LA BAIE","706Q001","2019-02-05 16:00","2019","02","05","16:00","-9.7","","-12.2","","82","","","","27","","24","","","","99.54","","","","-18","","NA"
"-70.92","48.30","LA BAIE","706Q001","2019-02-05 17:00","2019","02","05","17:00","-10.0","","-12.7","","81","","","","27","","23","","","","99.74","","","","-18","","NA"
"-70.92","48.30","LA BAIE","706Q001","2019-02-05 18:00","2019","02","05","18:00","-10.0","","-12.7","","81","","","","27","","20","","","","99.95","","","","-18","","NA"
"-70.92","48.30","LA BAIE","706Q001","2019-02-05 19:00","2019","02","05","19:00","-9.8","","-12.7","","79","","","","28","","19","","","","100.11","","","","-17","","NA"
"-70.92","48.30","LA BAIE","706Q001","2019-02-05 20:00","2019","02","05","20:00","-10.1","","-13.1","","79","","","","28","","16","","","","100.27","","","","-17","","NA"
"-70.92","48.30","LA BAIE","706Q001","2019-02-05 21:00","2019","02","05","21:00","-10.9","","-13.9","","79","","","","28","","20","","","","100.35","","","","-19","","NA"
"-70.92","48.30","LA BAIE","706Q001","2019-02-05 22:00","2019","02","05","22:00","-11.8","","-14.5","","80","","","","28","","15","","","","100.47","","","","-19","","NA"
"-70.92","48.30","LA BAIE","706Q001","2019-02-05 23:00","2019","02","05","23:00","-12.6","","-15.4","","80","","","","28","","18","","","","100.47","","","","-21","","NA"
"-70.92","48.30","LA BAIE","706Q001","2019-02-06 00:00","2019","02","06","00:00","-13.1","","-15.9","","79","","","","27","","18","","","","100.60","","","","-21","","NA"
"-70.92","48.30","LA BAIE","706Q001","2019-02-06 01:00","2019","02","06","01:00","-14.0","","-16.9","","79","","","","27","","18","","","","100.68","","","","-22","","NA"
"-70.92","48.30","LA BAIE","706Q001","2019-02-06 02:00","2019","02","06","02:00","-15.0","","-18.1","","77","","","","27","","16","","","","100.80","","","","-23","","NA"
"-70.92","48.30","LA BAIE","706Q001","2019-02-06 03:00","2019","02","06","03:00","-16.1","","-19.2","","77","","","","26","","13","","","","100.88","","","","-24","","NA"
"-70.92","48.30","LA BAIE","706Q001","2019-02-06 04:00","2019","02","06","04:00","-17.6","","-20.5","","78","","","","27","","13","","","","100.88","","","","-25","","NA"
"-70.92","48.30","LA BAIE","706Q001","2019-02-06 05:00","2019","02","06","05:00","-19.0","","-21.9","","78","","","","28","","7","","","","100.93","","","","-24","","NA"
"-70.92","48.30","LA BAIE","706Q001","2019-02-06 06:00","2019","02","06","06:00","-21.4","","-24.1","","79","","","","29","","7","","","","101.00","","","","-27","","NA"
"-70.92","48.30","LA BAIE","706Q001","2019-02-06 07:00","2019","02","06","07:00","-21.4","","-23.3","","84","","","","14","","3","","","","101.04","","","","-24","","NA"
"-70.92","48.30","LA BAIE","706Q001","2019-02-06 08:00","2019","02","06","08:00","-22.5","","-25.2","","78","","","","13","","4","","","","101.09","","","","-26","","NA"
"-70.92","48.30","LA BAIE","706Q001","2019-02-06 09:00","2019","02","06","09:00","-19.3","","-23.1","","72","","","","3","","5","","","","101.13","","","","-23","","NA"
"-70.92","48.30","LA BAIE","706Q001","2019-02-06 10:00","2019","02","06","10:00","-18.2","","-22.7","","68","","","","5","","4","","","","101.13","","","","-21","","NA"
"-70.92","48.30","LA BAIE","706Q001","2019-02-06 11:00","2019","02","06","11:00","-17.1","","-22.0","","66","","","","22","","3","","","","101.04","","","","-19","","NA"
"-70.92","48.30","LA BAIE","706Q001","2019-02-06 12:00","2019","02","06","12:00","-16.4","","-21.4","","65","","","","7","","5","","","","100.92","","","","-20","","NA"
"-70.92","48.30","LA BAIE","706Q001","2019-02-06 13:00","2019","02","06","13:00","-14.1","","-20.2","","60","","","","8","","2","","","","100.86","","","","-15","","NA"
"-70.92","48.30","LA BAIE","706Q001","2019-02-06 14:00","2019","02","06","14:00","-14.1","","-19.5","","64","","","","30","","5","","","","100.80","","","","-18","","NA"
"-70.92","48.30","LA BAIE","706Q001","2019-02-06 15:00","2019","02","06","15:00","-14.0","","-18.4","","69","","","","25","","4","","","","100.76","","","","-17","","NA"
"-70.92","48.30","LA BAIE","706Q001","2019-02-06 16:00","2019","02","06","16:00","-13.9","","-17.9","","71","","","","","","0","","","","100.68","","","","","","NA"
"-70.92","48.30","LA BAIE","706Q001","2019-02-06 17:00","2019","02","06","17:00","-13.8","","-17.0","","77","","","","10","","2","","","","100.63","","","","-15","","NA"
"-70.92","48.30","LA BAIE","706Q001","2019-02-06 18:00","2019","02","06","18:00","-14.5","","-17.0","","81","","","","","","0","","","","100.60","","","","","","NA"
"-70.92","48.30","LA BAIE","706Q001","2019-02-06 19:00","2019","02","06","19:00","-14.9","","-17.2","","82","","","","","","0","","","","100.52","","","","","","NA"
"-70.92","48.30","LA BAIE","706Q001","2019-02-06 20:00","2019","02","06","20:00","-14.4","","-17.2","","79","","","","0","","1","","","","100.52","","","","-15","","NA"
"-70.92","48.30","LA BAIE","706Q001","2019-02-06 21:00","2019","02","06","21:00","-13.7","","-16.4","","80","","","","25","","2","","","","100.47","","","","-15","","NA"
"-70.92","48.30","LA BAIE","706Q001","2019-02-06 22:00","2019","02","06","22:00","-12.6","","-14.9","","83","","","","12","","2","","","","100.43","","","","-14","","NA"
"-70.92","48.30","LA BAIE","706Q001","2019-02-06 23:00","2019","02","06","23:00","-10.3","","-13.0","","80","","","","9","","13","","","","100.43","","","","-17","","NA"
"-70.92","48.30","LA BAIE","706Q001","2019-02-07 00:00","2019","02","07","00:00","-10.5","","-12.9","","83","","","","9","","11","","","","100.39","","","","-16","","NA"
"-70.92","48.30","LA BAIE","706Q001","2019-02-07 01:00","2019","02","07","01:00","-10.9","","-12.5","","88","","","","8","","11","","","","100.35","","","","-17","","NA"
"-70.92","48.30","LA BAIE","706Q001","2019-02-07 02:00","2019","02","07","02:00","-10.9","","-12.7","","87","","","","7","","9","","","","100.35","","","","-16","","NA"
"-70.92","48.30","LA BAIE","706Q001","2019-02-07 03:00","2019","02","07","03:00","-10.7","","-12.7","","85","","","","8","","9","","","","100.35","","","","-16","","NA"
"-70.92","48.30","LA BAIE","706Q001","2019-02-07 04:00","2019","02","07","04:00","-10.4","","-12.8","","83","","","","8","","7","","","","100.35","","","","-14","","NA"
"-70.92","48.30","LA BAIE","706Q001","2019-02-07 05:00","2019","02","07","05:00","-10.3","","-12.8","","82","","","","8","","8","","","","100.35","","","","-15","","NA"
"-70.92","48.30","LA BAIE","706Q001","2019-02-07 06:00","2019","02","07","06:00","-10.6","","-13.1","","82","","","","3","","6","","","","100.35","","","","-14","","NA"
"-70.92","48.30","LA BAIE","706Q001","2019-02-07 07:00","2019","02","07","07:00","-10.7","","-12.6","","86","","","","5","","3","","","","100.43","","","","-13","","NA"
"-70.92","48.30","LA BAIE","706Q001","2019-02-07 08:00","2019","02","07","08:00","-10.5","","-12.5","","85","","","","4","","4","","","","100.43","","","","-13","","NA"
"-70.92","48.30","LA BAIE","706Q001","2019-02-07 09:00","2019","02","07","09:00","-9.7","","-12.1","","83","","","","4","","3","","","","100.43","","","","-11","","NA"
"-70.92","48.30","LA BAIE","706Q001","2019-02-07 10:00","2019","02","07","10:00","-8.7","","-11.6","","80","","","","4","","2","","","","100.48","","","","-10","","NA"
"-70.92","48.30","LA BAIE","706Q001","2019-02-07 11:00","2019","02","07","11:00","-8.9","","-11.9","","79","","","","29","","6","","","","100.64","","","","-12","","NA"
"-70.92","48.30","LA BAIE","706Q001","2019-02-07 12:00","2019","02","07","12:00","-7.9","","-10.9","","79","","","","5","","8","","","","100.47","","","","-12","","NA"
"-70.92","48.30","LA BAIE","706Q001","2019-02-07 13:00","2019","02","07","13:00","-7.3","","-10.3","","79","","","","5","","8","","","","100.39","","","","-11","","NA"
"-70.92","48.30","LA BAIE","706Q001","2019-02-07 14:00","2019","02","07","14:00","-6.5","","-9.3","","81","","","","5","","7","","","","100.35","","","","-10","","NA"
"-70.92","48.30","LA BAIE","706Q001","2019-02-07 15:00","2019","02","07","15:00","-6.2","","-8.8","","82","","","","5","","8","","","","100.27","","","","-10","","NA"
"-70.92","48.30","LA BAIE","706Q001","2019-02-07 16:00","2019","02","07","16:00","-5.8","","-8.7","","80","","","","7","","14","","","","100.23","","","","-11","","NA"
"-70.92","48.30","LA BAIE","706Q001","2019-02-07 17:00","2019","02","07","17:00","-6.1","","-8.6","","82","","","","9","","12","","","","100.23","","","","-11","","NA"
"-70.92","48.30","LA BAIE","706Q001","2019-02-07 18:00","2019","02","07","18:00","-6.2","","-8.5","","84","","","","8","","11","","","","100.19","","","","-11","","NA"
"-70.92","48.30","LA BAIE","706Q001","2019-02-07 19:00","2019","02","07","19:00","-6.2","","-8.3","","85","","","","8","","14","","","","100.15","","","","-12","","NA"
"-70.92","48.30","LA BAIE","706Q001","2019-02-07 20:00","2019","02","07","20:00","-6.2","","-8.5","","84","","","","8","","16","","","","100.03","","","","-12","","NA"
"-70.92","48.30","LA BAIE","706Q001","2019-02-07 21:00","2019","02","07","21:00","-6.1","","-8.4","","83","","","","7","","16","","","","99.84","","","","-12","","NA"
"-70.92","48.30","LA BAIE","706Q001","2019-02-07 22:00","2019","02","07","22:00","-5.8","","-8.1","","84","","","","8","","17","","","","99.73","","","","-12","","NA"
"-70.92","48.30","LA BAIE","706Q001","2019-02-07 23:00","2019","02","07","23:00","-5.3","","-7.6","","84","","","","8","","17","","","","99.54","","","","-11","","NA"
"-70.92","48.30","LA BAIE","706Q001","2019-02-08 00:00","2019","02","08","00:00","-4.9","","-7.1","","84","","","","8","","17","","","","99.38","","","","-11","","NA"
"-70.92","48.30","LA BAIE","706Q001","2019-02-08 01:00","2019","02","08","01:00","-4.4","","-6.5","","85","","","","8","","16","","","","99.21","","","","-10","","NA"
"-70.92","48.30","LA BAIE","706Q001","2019-02-08 02:00","2019","02","08","02:00","-3.4","","-5.3","","86","","","","8","","18","","","","98.97","","","","-9","","NA"
"-70.92","48.30","LA BAIE","706Q001","2019-02-08 03:00","2019","02","08","03:00","-3.1","","-4.4","","91","","","","7","","17","","","","98.68","","","","-9","","NA"
"-70.92","48.30","LA BAIE","706Q001","2019-02-08 04:00","2019","02","08","04:00","-2.6","","-4.0","","90","","","","8","","21","","","","98.48","","","","-9","","NA"
"-70.92","48.30","LA BAIE","706Q001","2019-02-08 05:00","2019","02","08","05:00","-1.9","","-3.6","","88","","","","8","","23","","","","98.24","","","","-8","","NA"
"-70.92","48.30","LA BAIE","706Q001","2019-02-08 06:00","2019","02","08","06:00","-1.8","","-3.7","","87","","","","7","","26","","","","97.93","","","","-8","","NA"
"-70.92","48.30","LA BAIE","706Q001","2019-02-08 07:00","2019","02","08","07:00","-1.1","","-3.0","","87","","","","7","","22","","","","97.74","","","","-7","","NA"
"-70.92","48.30","LA BAIE","706Q001","2019-02-08 08:00","2019","02","08","08:00","-0.8","","-2.4","","89","","","","6","","14","","","","97.69","","","","-5","","NA"
"-70.92","48.30","LA BAIE","706Q001","2019-02-08 09:00","2019","02","08","09:00","-0.5","","-2.2","","88","","","","5","","12","","","","97.61","","","","-4","","NA"
"-70.92","48.30","LA BAIE","706Q001","2019-02-08 10:00","2019","02","08","10:00","0.2","","-1.3","","89","","","","6","","10","","","","97.54","","","","","","NA"
"-70.92","48.30","LA BAIE","706Q001","2019-02-08 11:00","2019","02","08","11:00","1.1","","-1.6","","82","","0.0","","5","","8","","","","97.50","","","","","","NA"
"-70.92","48.30","LA BAIE","706Q001","2019-02-08 12:00","2019","02","08","12:00","5.0","","0.1","","71","","0.0","","20","","12","","","","97.42","","","","","","NA"
"-70.92","48.30","LA BAIE","706Q001","2019-02-08 13:00","2019","02","08","13:00","4.0","","-1.4","","68","","0.0","","24","","30","","","","97.42","","","","","","NA"
"-70.92","48.30","LA BAIE","706Q001","2019-02-08 14:00","2019","02","08","14:00","1.9","","-4.4","","63","","0.0","","26","","42","","","","97.55","","","","","","NA"
"-70.92","48.30","LA BAIE","706Q001","2019-02-08 15:00","2019","02","08","15:00","0.9","","-7.1","","55","","0.0","","27","","32","","","","97.70","","","","","","NA"
"-70.92","48.30","LA BAIE","706Q001","2019-02-08 16:00","2019","02","08","16:00","-0.1","","-6.8","","61","","","","25","","31","","","","97.74","","","","-7","","NA"
"-70.92","48.30","LA BAIE","706Q001","2019-02-08 17:00","2019","02","08","17:00","-1.0","","-9.4","","53","","","","27","","30","","","","97.83","","","","-8","","NA"
"-70.92","48.30","LA BAIE","706Q001","2019-02-08 18:00","2019","02","08","18:00","-2.2","","-12.5","","45","","","","26","","36","","","","97.95","","","","-10","","NA"
"-70.92","48.30","LA BAIE","706Q001","2019-02-08 19:00","2019","02","08","19:00","-7.4","","-9.0","","88","","","","30","","38","","","","98.15","","","","-17","","NA"
"-70.92","48.30","LA BAIE","706Q001","2019-02-08 20:00","2019","02","08","20:00","-7.6","","-11.4","","74","","","","29","","28","","","","98.24","","","","-16","","NA"
"-70.92","48.30","LA BAIE","706Q001","2019-02-08 21:00","2019","02","08","21:00","-9.0","","-17.0","","52","","","","28","","39","","","","98.34","","","","-19","","NA"
"-70.92","48.30","LA BAIE","706Q001","2019-02-08 22:00","2019","02","08","22:00","-12.9","","-16.0","","77","","","","29","","38","","","","98.57","","","","-24","","NA"
"-70.92","48.30","LA BAIE","706Q001","2019-02-08 23:00","2019","02","08","23:00","-14.5","","-21.0","","58","","","","30","","30","","","","98.76","","","","-25","","NA"
"-70.92","48.30","LA BAIE","706Q001","2019-02-09 00:00","2019","02","09","00:00","-15.7","","-22.1","","58","","","","29","","28","","","","98.84","","","","-27","","NA"
"-70.92","48.30","LA BAIE","706Q001","2019-02-09 01:00","2019","02","09","01:00","-16.3","","-22.4","","59","","","","29","","33","","","","98.93","","","","-28","","NA"
"-70.92","48.30","LA BAIE","706Q001","2019-02-09 02:00","2019","02","09","02:00","-17.0","","-22.6","","62","","","","29","","28","","","","98.97","","","","-28","","NA"
"-70.92","48.30","LA BAIE","706Q001","2019-02-09 03:00","2019","02","09","03:00","-16.9","","-22.3","","63","","","","28","","37","","","","99.02","","","","-30","","NA"
"-70.92","48.30","LA BAIE","706Q001","2019-02-09 04:00","2019","02","09","04:00","-17.3","","-25.5","","49","","","","28","","35","","","","99.17","","","","-30","","NA"
"-70.92","48.30","LA BAIE","706Q001","2019-02-09 05:00","2019","02","09","05:00","-17.9","","-26.1","","49","","","","29","","39","","","","99.34","","","","-31","","NA"
"-70.92","48.30","LA BAIE","706Q001","2019-02-09 06:00","2019","02","09","06:00","-18.1","","-24.7","","56","","","","27","","43","","","","99.40","","","","-32","","NA"
"-70.92","48.30","LA BAIE","706Q001","2019-02-09 07:00","2019","02","09","07:00","-18.2","","-24.3","","59","","","","27","","30","","","","99.56","","","","-30","","NA"
"-70.92","48.30","LA BAIE","706Q001","2019-02-09 08:00","2019","02","09","08:00","-17.8","","-24.0","","58","","","","28","","34","","","","99.66","","","","-30","","NA"
"-70.92","48.30","LA BAIE","706Q001","2019-02-09 09:00","2019","02","09","09:00","-17.0","","-23.6","","57","","","","28","","35","","","","99.78","","","","-29","","NA"
"-70.92","48.30","LA BAIE","706Q001","2019-02-09 10:00","2019","02","09","10:00","-16.2","","-22.4","","59","","","","28","","40","","","","99.87","","","","-29","","NA"
"-70.92","48.30","LA BAIE","706Q001","2019-02-09 11:00","2019","02","09","11:00","-15.5","","-22.9","","53","","","","28","","51","","","","100.03","","","","-29","","NA"
"-70.92","48.30","LA BAIE","706Q001","2019-02-09 12:00","2019","02","09","12:00","-14.9","","-22.8","","51","","","","29","","42","","","","100.19","","","","-28","","NA"
"-70.92","48.30","LA BAIE","706Q001","2019-02-09 13:00","2019","02","09","13:00","-14.2","","-22.7","","48","","","","29","","48","","","","100.27","","","","-27","","NA"
"-70.92","48.30","LA BAIE","706Q001","2019-02-09 14:00","2019","02","09","14:00","-13.8","","-22.1","","50","","","","29","","45","","","","100.36","","","","-26","","NA"
"-70.92","48.30","LA BAIE","706Q001","2019-02-09 15:00","2019","02","09","15:00","-13.1","","-21.5","","49","","","","29","","46","","","","100.44","","","","-26","","NA"
"-70.92","48.30","LA BAIE","706Q001","2019-02-09 16:00","2019","02","09","16:00","-12.9","","-21.4","","49","","","","29","","43","","","","100.51","","","","-25","","NA"
"-70.92","48.30","LA BAIE","706Q001","2019-02-09 17:00","2019","02","09","17:00","-13.4","","-21.0","","52","","","","29","","31","","","","100.61","","","","-24","","NA"
"-70.92","48.30","LA BAIE","706Q001","2019-02-09 18:00","2019","02","09","18:00","-14.1","","-21.0","","56","","","","28","","25","","","","100.68","","","","-24","","NA"
"-70.92","48.30","LA BAIE","706Q001","2019-02-09 19:00","2019","02","09","19:00","-14.7","","-21.1","","58","","","","28","","17","","","","100.76","","","","-23","","NA"
"-70.92","48.30","LA BAIE","706Q001","2019-02-09 20:00","2019","02","09","20:00","-15.8","","-21.5","","62","","","","28","","17","","","","100.80","","","","-24","","NA"
"-70.92","48.30","LA BAIE","706Q001","2019-02-09 21:00","2019","02","09","21:00","-13.9","","-21.1","","55","","","","28","","26","","","","100.80","","","","-24","","NA"
"-70.92","48.30","LA BAIE","706Q001","2019-02-09 22:00","2019","02","09","22:00","-13.9","","-20.9","","55","","","","27","","29","","","","100.84","","","","-24","","NA"
"-70.92","48.30","LA BAIE","706Q001","2019-02-09 23:00","2019","02","09","23:00","-13.6","","-20.3","","57","","","","28","","30","","","","100.84","","","","-24","","NA"
"-70.92","48.30","LA BAIE","706Q001","2019-02-10 00:00","2019","02","10","00:00","-13.7","","-20.4","","57","","","","29","","37","","","","100.88","","","","-25","","NA"
"-70.92","48.30","LA BAIE","706Q001","2019-02-10 01:00","2019","02","10","01:00","-14.3","","-20.4","","60","","","","29","","35","","","","100.88","","","","-26","","NA"
"-70.92","48.30","LA BAIE","706Q001","2019-02-10 02:00","2019","02","10","02:00","-15.0","","-20.7","","62","","","","28","","30","","","","100.92","","","","-26","","NA"
"-70.92","48.30","LA BAIE","706Q001","2019-02-10 03:00","2019","02","10","03:00","-15.7","","-20.7","","65","","","","28","","27","","","","100.92","","","","-26","","NA"
"-70.92","48.30","LA BAIE","706Q001","2019-02-10 04:00","2019","02","10","04:00","-16.0","","-21.6","","62","","","","29","","29","","","","100.96","","","","-27","","NA"
"-70.92","48.30","LA BAIE","706Q001","2019-02-10 05:00","2019","02","10","05:00","-15.9","","-21.2","","64","","","","28","","25","","","","100.96","","","","-26","","NA"
"-70.92","48.30","LA BAIE","706Q001","2019-02-10 06:00","2019","02","10","06:00","-15.7","","-21.2","","63","","","","27","","25","","","","100.96","","","","-26","","NA"
"-70.92","48.30","LA BAIE","706Q001","2019-02-10 07:00","2019","02","10","07:00","-15.7","","-21.5","","61","","","","27","","20","","","","101.00","","","","-25","","NA"
"-70.92","48.30","LA BAIE","706Q001","2019-02-10 08:00","2019","02","10","08:00","-15.7","","-21.7","","60","","","","26","","20","","","","101.00","","","","-25","","NA"
"-70.92","48.30","LA BAIE","706Q001","2019-02-10 09:00","2019","02","10","09:00","-15.3","","-21.7","","58","","","","27","","21","","","","100.96","","","","-25","","NA"
"-70.92","48.30","LA BAIE","706Q001","2019-02-10 10:00","2019","02","10","10:00","-14.7","","-21.3","","57","","","","27","","25","","","","100.96","","","","-25","","NA"
"-70.92","48.30","LA BAIE","706Q001","2019-02-10 11:00","2019","02","10","11:00","-14.3","","-21.5","","54","","","","29","","27","","","","100.92","","","","-25","","NA"
"-70.92","48.30","LA BAIE","706Q001","2019-02-10 12:00","2019","02","10","12:00","-13.6","","-21.5","","52","","","","30","","32","","","","100.80","","","","-25","","NA"
"-70.92","48.30","LA BAIE","706Q001","2019-02-10 13:00","2019","02","10","13:00","-13.2","","-20.9","","53","","","","28","","30","","","","100.70","","","","-24","","NA"
"-70.92","48.30","LA BAIE","706Q001","2019-02-10 14:00","2019","02","10","14:00","-13.1","","-19.8","","57","","","","27","","26","","","","100.62","","","","-23","","NA"
"-70.92","48.30","LA BAIE","706Q001","2019-02-10 15:00","2019","02","10","15:00","-12.6","","-20.0","","54","","","","30","","27","","","","100.60","","","","-22","","NA"
"-70.92","48.30","LA BAIE","706Q001","2019-02-10 16:00","2019","02","10","16:00","-13.2","","-20.3","","55","","","","29","","23","","","","100.60","","","","-23","","NA"
"-70.92","48.30","LA BAIE","706Q001","2019-02-10 17:00","2019","02","10","17:00","-14.0","","-20.6","","57","","","","29","","17","","","","100.60","","","","-22","","NA"
"-70.92","48.30","LA BAIE","706Q001","2019-02-10 18:00","2019","02","10","18:00","-15.5","","-21.4","","60","","","","27","","14","","","","100.59","","","","-23","","NA"
"-70.92","48.30","LA BAIE","706Q001","2019-02-10 19:00","2019","02","10","19:00","-16.1","","-21.5","","63","","","","26","","14","","","","100.60","","","","-24","","NA"
"-70.92","48.30","LA BAIE","706Q001","2019-02-10 20:00","2019","02","10","20:00","-15.6","","-18.9","","76","","","","28","","17","","","","100.64","","","","-24","","NA"
"-70.92","48.30","LA BAIE","706Q001","2019-02-10 21:00","2019","02","10","21:00","-15.1","","-18.2","","77","","","","27","","20","","","","100.64","","","","-24","","NA"
"-70.92","48.30","LA BAIE","706Q001","2019-02-10 22:00","2019","02","10","22:00","-15.0","","-20.1","","65","","","","29","","24","","","","100.60","","","","-25","","NA"
"-70.92","48.30","LA BAIE","706Q001","2019-02-10 23:00","2019","02","10","23:00","-15.9","","-21.2","","64","","","","30","","26","","","","100.63","","","","-27","","NA"
"-70.92","48.30","LA BAIE","706Q001","2019-02-11 00:00","2019","02","11","00:00","-17.2","","-23.1","","60","","","","29","","22","","","","100.68","","","","-27","","NA"
"-70.92","48.30","LA BAIE","706Q001","2019-02-11 01:00","2019","02","11","01:00","-17.4","","-23.3","","60","","","","28","","26","","","","100.72","","","","-28","","NA"
"-70.92","48.30","LA BAIE","706Q001","2019-02-11 02:00","2019","02","11","02:00","-17.8","","-23.4","","62","","","","29","","27","","","","100.75","","","","-29","","NA"
"-70.92","48.30","LA BAIE","706Q001","2019-02-11 03:00","2019","02","11","03:00","-19.2","","-24.7","","62","","","","29","","24","","","","100.76","","","","-30","","NA"
"-70.92","48.30","LA BAIE","706Q001","2019-02-11 04:00","2019","02","11","04:00","-20.0","","-24.6","","66","","","","28","","19","","","","100.80","","","","-30","","NA"
"-70.92","48.30","LA BAIE","706Q001","2019-02-11 05:00","2019","02","11","05:00","-20.4","","-25.1","","66","","","","28","","23","","","","100.84","","","","-32","","NA"
"-70.92","48.30","LA BAIE","706Q001","2019-02-11 06:00","2019","02","11","06:00","-21.0","","-25.8","","65","","","","28","","25","","","","100.88","","","","-33","","NA"
"-70.92","48.30","LA BAIE","706Q001","2019-02-11 07:00","2019","02","11","07:00","-21.8","","-26.4","","67","","","","27","","23","","","","100.96","","","","-33","","NA"
"-70.92","48.30","LA BAIE","706Q001","2019-02-11 08:00","2019","02","11","08:00","-21.9","","-26.8","","64","","","","28","","20","","","","101.04","","","","-33","","NA"
"-70.92","48.30","LA BAIE","706Q001","2019-02-11 09:00","2019","02","11","09:00","-21.7","","-27.3","","61","","","","29","","31","","","","101.05","","","","-35","","NA"
"-70.92","48.30","LA BAIE","706Q001","2019-02-11 10:00","2019","02","11","10:00","-20.7","","-27.2","","56","","","","29","","30","","","","101.00","","","","-33","","NA"
"-70.92","48.30","LA BAIE","706Q001","2019-02-11 11:00","2019","02","11","11:00","-20.2","","-26.9","","55","","","","28","","29","","","","101.04","","","","-33","","NA"
"-70.92","48.30","LA BAIE","706Q001","2019-02-11 12:00","2019","02","11","12:00","-20.0","","-26.7","","56","","","","28","","29","","","","101.00","","","","-32","","NA"
"-70.92","48.30","LA BAIE","706Q001","2019-02-11 13:00","2019","02","11","13:00","-19.7","","-26.5","","54","","","","27","","28","","","","101.09","","","","-32","","NA"
"-70.92","48.30","LA BAIE","706Q001","2019-02-11 14:00","2019","02","11","14:00","-19.4","","-26.6","","53","","","","28","","30","","","","101.13","","","","-32","","NA"
"-70.92","48.30","LA BAIE","706Q001","2019-02-11 15:00","2019","02","11","15:00","-18.6","","-26.1","","52","","","","28","","24","","","","101.17","","","","-30","","NA"
"-70.92","48.30","LA BAIE","706Q001","2019-02-11 16:00","2019","02","11","16:00","-18.6","","-26.1","","52","","","","28","","22","","","","101.25","","","","-29","","NA"
"-70.92","48.30","LA BAIE","706Q001","2019-02-11 17:00","2019","02","11","17:00","-18.9","","-26.0","","53","","","","27","","18","","","","101.29","","","","-29","","NA"
"-70.92","48.30","LA BAIE","706Q001","2019-02-11 18:00","2019","02","11","18:00","-19.5","","-26.0","","56","","","","26","","14","","","","101.37","","","","-28","","NA"
"-70.92","48.30","LA BAIE","706Q001","2019-02-11 19:00","2019","02","11","19:00","-20.0","","-26.0","","59","","","","25","","13","","","","101.49","","","","-28","","NA"
"-70.92","48.30","LA BAIE","706Q001","2019-02-11 20:00","2019","02","11","20:00","-19.3","","-25.7","","57","","","","28","","17","","","","101.57","","","","-29","","NA"
"-70.92","48.30","LA BAIE","706Q001","2019-02-11 21:00","2019","02","11","21:00","-19.6","","-25.9","","57","","","","27","","14","","","","101.66","","","","-28","","NA"
"-70.92","48.30","LA BAIE","706Q001","2019-02-11 22:00","2019","02","11","22:00","-21.1","","-26.4","","63","","","","24","","12","","","","101.70","","","","-29","","NA"
"-70.92","48.30","LA BAIE","706Q001","2019-02-11 23:00","2019","02","11","23:00","-21.6","","-27.0","","62","","","","25","","14","","","","101.67","","","","-31","","NA"
"-70.92","48.30","LA BAIE","706Q001","2019-02-12 00:00","2019","02","12","00:00","-22.4","","-27.3","","65","","","","25","","11","","","","101.69","","","","-31","","NA"
"-70.92","48.30","LA BAIE","706Q001","2019-02-12 01:00","2019","02","12","01:00","-22.2","","-27.1","","65","","","","24","","11","","","","101.70","","","","-30","","NA"
"-70.92","48.30","LA BAIE","706Q001","2019-02-12 02:00","2019","02","12","02:00","-22.7","","-27.5","","65","","","","23","","12","","","","101.74","","","","-31","","NA"
"-70.92","48.30","LA BAIE","706Q001","2019-02-12 03:00","2019","02","12","03:00","-22.8","","-27.4","","66","","","","25","","11","","","","101.74","","","","-31","","NA"
"-70.92","48.30","LA BAIE","706Q001","2019-02-12 04:00","2019","02","12","04:00","-25.8","","-29.6","","71","","","","24","","7","","","","101.74","","","","-32","","NA"
"-70.92","48.30","LA BAIE","706Q001","2019-02-12 05:00","2019","02","12","05:00","-27.1","","-29.7","","78","","","","17","","3","","","","101.78","","","","-30","","NA"
"-70.92","48.30","LA BAIE","706Q001","2019-02-12 06:00","2019","02","12","06:00","-28.4","","-31.0","","78","","","","15","","3","","","","101.77","","","","-32","","NA"
"-70.92","48.30","LA BAIE","706Q001","2019-02-12 07:00","2019","02","12","07:00","-29.2","","-31.9","","77","","","","19","","3","","","","101.78","","","","-33","","NA"
"-70.92","48.30","LA BAIE","706Q001","2019-02-12 08:00","2019","02","12","08:00","-27.1","","-30.4","","74","","","","15","","2","","","","101.82","","","","-29","","NA"
"-70.92","48.30","LA BAIE","706Q001","2019-02-12 09:00","2019","02","12","09:00","-22.5","","-29.3","","54","","","","","","0","","","","101.84","","","","","","NA"
"-70.92","48.30","LA BAIE","706Q001","2019-02-12 10:00","2019","02","12","10:00","-21.2","","-28.1","","54","","","","8","","4","","","","101.78","","","","-25","","NA"
"-70.92","48.30","LA BAIE","706Q001","2019-02-12 11:00","2019","02","12","11:00","-20.5","","-27.1","","55","","","","7","","6","","","","101.74","","","","-26","","NA"
"-70.92","48.30","LA BAIE","706Q001","2019-02-12 12:00","2019","02","12","12:00","-18.9","","-26.2","","53","","","","10","","3","","","","101.57","","","","-21","","NA"
"-70.92","48.30","LA BAIE","706Q001","2019-02-12 13:00","2019","02","12","13:00","-18.4","","-25.2","","55","","","","6","","5","","","","101.49","","","","-22","","NA"
"-70.92","48.30","LA BAIE","706Q001","2019-02-12 14:00","2019","02","12","14:00","-17.8","","-24.6","","56","","","","6","","6","","","","101.33","","","","-22","","NA"
"-70.92","48.30","LA BAIE","706Q001","2019-02-12 15:00","2019","02","12","15:00","-17.3","","-24.6","","53","","","","21","","3","","","","101.29","","","","-20","","NA"
"-70.92","48.30","LA BAIE","706Q001","2019-02-12 16:00","2019","02","12","16:00","-17.0","","-24.0","","54","","","","","","0","","","","101.21","","","","","","NA"
"-70.92","48.30","LA BAIE","706Q001","2019-02-12 17:00","2019","02","12","17:00","-17.5","","-24.4","","55","","","","0","","1","","","","101.13","","","","-18","","NA"
"-70.92","48.30","LA BAIE","706Q001","2019-02-12 18:00","2019","02","12","18:00","-18.2","","-22.9","","66","","","","","","0","","","","101.09","","","","","","NA"
"-70.92","48.30","LA BAIE","706Q001","2019-02-12 19:00","2019","02","12","19:00","-18.3","","-23.0","","67","","","","9","","4","","","","100.92","","","","-22","","NA"
"-70.92","48.30","LA BAIE","706Q001","2019-02-12 20:00","2019","02","12","20:00","-18.2","","-23.1","","65","","","","12","","4","","","","100.76","","","","-21","","NA"
"-70.92","48.30","LA BAIE","706Q001","2019-02-12 21:00","2019","02","12","21:00","-16.8","","-22.2","","63","","","","11","","7","","","","100.64","","","","-22","","NA"
"-70.92","48.30","LA BAIE","706Q001","2019-02-12 22:00","2019","02","12","22:00","-12.0","","-21.7","","44","","","","8","","18","","","","100.60","","","","-20","","NA"
"-70.92","48.30","LA BAIE","706Q001","2019-02-12 23:00","2019","02","12","23:00","-11.4","","-21.1","","45","","","","9","","21","","","","100.47","","","","-20","","NA"
"-70.92","48.30","LA BAIE","706Q001","2019-02-13 00:00","2019","02","13","00:00","-11.6","","-20.5","","48","","","","8","","16","","","","100.39","","","","-19","","NA"
"-70.92","48.30","LA BAIE","706Q001","2019-02-13 01:00","2019","02","13","01:00","-11.4","","-16.9","","64","","","","9","","18","","","","100.31","","","","-19","","NA"
"-70.92","48.30","LA BAIE","706Q001","2019-02-13 02:00","2019","02","13","02:00","-11.8","","-15.1","","76","","","","9","","22","","","","100.15","","","","-21","","NA"
"-70.92","48.30","LA BAIE","706Q001","2019-02-13 03:00","2019","02","13","03:00","-11.8","","-15.2","","76","","","","9","","23","","","","99.98","","","","-21","","NA"
"-70.92","48.30","LA BAIE","706Q001","2019-02-13 04:00","2019","02","13","04:00","-11.7","","-14.8","","78","","","","10","","22","","","","99.77","","","","-20","","NA"
"-70.92","48.30","LA BAIE","706Q001","2019-02-13 05:00","2019","02","13","05:00","-11.2","","-15.1","","72","","","","10","","22","","","","99.54","","","","-20","","NA"
"-70.92","48.30","LA BAIE","706Q001","2019-02-13 06:00","2019","02","13","06:00","-10.8","","-14.4","","75","","","","9","","21","","","","99.34","","","","-19","","NA"
"-70.92","48.30","LA BAIE","706Q001","2019-02-13 07:00","2019","02","13","07:00","-10.4","","-13.8","","76","","","","9","","22","","","","99.23","","","","-19","","NA"
"-70.92","48.30","LA BAIE","706Q001","2019-02-13 08:00","2019","02","13","08:00","-10.1","","-13.2","","78","","","","9","","25","","","","99.09","","","","-19","","NA"
"-70.92","48.30","LA BAIE","706Q001","2019-02-13 09:00","2019","02","13","09:00","-9.2","","-13.1","","73","","","","10","","27","","","","98.93","","","","-18","","NA"
"-70.92","48.30","LA BAIE","706Q001","2019-02-13 10:00","2019","02","13","10:00","-8.8","","-12.6","","74","","","","10","","27","","","","98.74","","","","-18","","NA"
"-70.92","48.30","LA BAIE","706Q001","2019-02-13 11:00","2019","02","13","11:00","-9.2","","-12.4","","78","","","","9","","29","","","","98.72","","","","-18","","NA"
"-70.92","48.30","LA BAIE","706Q001","2019-02-13 12:00","2019","02","13","12:00","-9.5","","-12.1","","81","","","","10","","23","","","","98.68","","","","-18","","NA"
"-70.92","48.30","LA BAIE","706Q001","2019-02-13 13:00","2019","02","13","13:00","-9.7","","-12.0","","83","","","","10","","23","","","","98.68","","","","-18","","NA"
"-70.92","48.30","LA BAIE","706Q001","2019-02-13 14:00","2019","02","13","14:00","-9.5","","-11.5","","85","","","","10","","20","","","","98.52","","","","-17","","NA"
"-70.92","48.30","LA BAIE","706Q001","2019-02-13 15:00","2019","02","13","15:00","-9.3","","-11.8","","82","","","","10","","17","","","","98.48","","","","-16","","NA"
"-70.92","48.30","LA BAIE","706Q001","2019-02-13 16:00","2019","02","13","16:00","-9.2","","-11.4","","84","","","","10","","17","","","","98.44","","","","-16","","NA"
"-70.92","48.30","LA BAIE","706Q001","2019-02-13 17:00","2019","02","13","17:00","-8.9","","-11.2","","84","","","","11","","14","","","","98.40","","","","-15","","NA"
"-70.92","48.30","LA BAIE","706Q001","2019-02-13 18:00","2019","02","13","18:00","-8.8","","-11.0","","84","","","","10","","13","","","","98.37","","","","-15","","NA"
"-70.92","48.30","LA BAIE","706Q001","2019-02-13 19:00","2019","02","13","19:00","-9.2","","-11.7","","82","","","","8","","18","","","","98.40","","","","-16","","NA"
"-70.92","48.30","LA BAIE","706Q001","2019-02-13 20:00","2019","02","13","20:00","-9.6","","-12.9","","77","","","","10","","18","","","","98.39","","","","-17","","NA"
"-70.92","48.30","LA BAIE","706Q001","2019-02-13 21:00","2019","02","13","21:00","-9.9","","-13.3","","76","","","","10","","12","","","","98.38","","","","-16","","NA"
"-70.92","48.30","LA BAIE","706Q001","2019-02-13 22:00","2019","02","13","22:00","-10.4","","-13.3","","79","","","","9","","11","","","","98.36","","","","-16","","NA"
"-70.92","48.30","LA BAIE","706Q001","2019-02-13 23:00","2019","02","13","23:00","-12.3","","-13.8","","89","","","","11","","5","","","","98.28","","","","-16","","NA"
"-70.92","48.30","LA BAIE","706Q001","2019-02-14 00:00","2019","02","14","00:00","-12.8","","-14.2","","89","","","","9","","6","","","","98.32","","","","-17","","NA"
"-70.92","48.30","LA BAIE","706Q001","2019-02-14 01:00","2019","02","14","01:00","-12.6","","-14.5","","85","","","","8","","3","","","","98.33","","","","-15","","NA"
"-70.92","48.30","LA BAIE","706Q001","2019-02-14 02:00","2019","02","14","02:00","-14.3","","-16.0","","87","","","","8","","2","","","","98.36","","","","-16","","NA"
"-70.92","48.30","LA BAIE","706Q001","2019-02-14 03:00","2019","02","14","03:00","-15.2","","-16.8","","88","","","","","","0","","","","98.40","","","","","","NA"
"-70.92","48.30","LA BAIE","706Q001","2019-02-14 04:00","2019","02","14","04:00","-16.7","","-18.4","","86","","","","25","","7","","","","98.44","","","","-22","","NA"
"-70.92","48.30","LA BAIE","706Q001","2019-02-14 05:00","2019","02","14","05:00","-15.9","","-17.6","","87","","","","24","","6","","","","98.52","","","","-20","","NA"
"-70.92","48.30","LA BAIE","706Q001","2019-02-14 06:00","2019","02","14","06:00","-16.1","","-17.9","","86","","","","25","","5","","","","98.56","","","","-20","","NA"
"-70.92","48.30","LA BAIE","706Q001","2019-02-14 07:00","2019","02","14","07:00","-14.6","","-15.9","","89","","","","30","","1","","","","98.68","","","","-15","","NA"
"-70.92","48.30","LA BAIE","706Q001","2019-02-14 08:00","2019","02","14","08:00","-15.3","","-17.3","","84","","","","26","","12","","","","98.77","","","","-22","","NA"
"-70.92","48.30","LA BAIE","706Q001","2019-02-14 09:00","2019","02","14","09:00","-12.9","","-16.3","","76","","","","27","","11","","","","98.84","","","","-19","","NA"
"-70.92","48.30","LA BAIE","706Q001","2019-02-14 10:00","2019","02","14","10:00","-10.7","","-14.5","","73","","","","29","","9","","","","98.89","","","","-16","","NA"
"-70.92","48.30","LA BAIE","706Q001","2019-02-14 11:00","2019","02","14","11:00","-9.8","","-14.8","","67","","","","28","","16","","","","98.97","","","","-17","","NA"
"-70.92","48.30","LA BAIE","706Q001","2019-02-14 12:00","2019","02","14","12:00","-9.5","","-15.0","","64","","","","27","","26","","","","98.99","","","","-18","","NA"
"-70.92","48.30","LA BAIE","706Q001","2019-02-14 13:00","2019","02","14","13:00","-8.7","","-14.9","","61","","","","28","","21","","","","99.05","","","","-16","","NA"
"-70.92","48.30","LA BAIE","706Q001","2019-02-14 14:00","2019","02","14","14:00","-8.6","","-15.2","","59","","","","30","","18","","","","99.13","","","","-16","","NA"
"-70.92","48.30","LA BAIE","706Q001","2019-02-14 15:00","2019","02","14","15:00","-8.5","","-15.4","","58","","","","28","","19","","","","99.25","","","","-16","","NA"
"-70.92","48.30","LA BAIE","706Q001","2019-02-14 16:00","2019","02","14","16:00","-8.8","","-15.7","","58","","","","28","","16","","","","99.29","","","","-16","","NA"
"-70.92","48.30","LA BAIE","706Q001","2019-02-14 17:00","2019","02","14","17:00","-10.1","","-16.1","","62","","","","26","","11","","","","99.37","","","","-16","","NA"
"-70.92","48.30","LA BAIE","706Q001","2019-02-14 18:00","2019","02","14","18:00","-13.7","","-17.4","","73","","","","23","","5","","","","99.46","","","","-17","","NA"
"-70.92","48.30","LA BAIE","706Q001","2019-02-14 19:00","2019","02","14","19:00","-14.9","","-17.3","","82","","","","24","","8","","","","99.58","","","","-20","","NA"
"-70.92","48.30","LA BAIE","706Q001","2019-02-14 20:00","2019","02","14","20:00","-12.6","","-15.6","","78","","","","11","","5","","","","99.66","","","","-16","","NA"
"-70.92","48.30","LA BAIE","706Q001","2019-02-14 21:00","2019","02","14","21:00","-11.3","","-14.3","","78","","","","15","","6","","","","99.70","","","","-15","","NA"
"-70.92","48.30","LA BAIE","706Q001","2019-02-14 22:00","2019","02","14","22:00","-11.5","","-14.3","","80","","","","15","","5","","","","99.74","","","","-15","","NA"
"-70.92","48.30","LA BAIE","706Q001","2019-02-14 23:00","2019","02","14","23:00","-11.7","","-14.3","","81","","","","11","","7","","","","99.74","","","","-16","","NA"
"-70.92","48.30","LA BAIE","706Q001","2019-02-15 00:00","2019","02","15","00:00","-13.8","","-16.1","","83","","","","6","","4","","","","99.74","","","","-17","","NA"
"-70.92","48.30","LA BAIE","706Q001","2019-02-15 01:00","2019","02","15","01:00","-17.0","","-18.4","","89","","","","5","","3","","","","99.78","","","","-19","","NA"
"-70.92","48.30","LA BAIE","706Q001","2019-02-15 02:00","2019","02","15","02:00","-16.1","","-17.9","","86","","","","9","","4","","","","99.74","","","","-19","","NA"
"-70.92","48.30","LA BAIE","706Q001","2019-02-15 03:00","2019","02","15","03:00","-19.4","","-21.3","","85","","","","3","","3","","","","99.70","","","","-22","","NA"
"-70.92","48.30","LA BAIE","706Q001","2019-02-15 04:00","2019","02","15","04:00","-21.0","","-23.3","","82","","","","","","0","","","","99.74","","","","","","NA"
"-70.92","48.30","LA BAIE","706Q001","2019-02-15 05:00","2019","02","15","05:00","-16.5","","-18.3","","86","","","","12","","9","","","","99.70","","","","-23","","NA"
"-70.92","48.30","LA BAIE","706Q001","2019-02-15 06:00","2019","02","15","06:00","-14.0","","-15.9","","86","","","","9","","11","","","","99.62","","","","-20","","NA"
"-70.92","48.30","LA BAIE","706Q001","2019-02-15 07:00","2019","02","15","07:00","-13.0","","-14.8","","86","","","","8","","11","","","","99.53","","","","-19","","NA"
"-70.92","48.30","LA BAIE","706Q001","2019-02-15 08:00","2019","02","15","08:00","-10.4","","-13.0","","81","","","","8","","16","","","","99.42","","","","-17","","NA"
"-70.92","48.30","LA BAIE","706Q001","2019-02-15 09:00","2019","02","15","09:00","-8.9","","-12.3","","77","","","","8","","21","","","","99.29","","","","-17","","NA"
"-70.92","48.30","LA BAIE","706Q001","2019-02-15 10:00","2019","02","15","10:00","-8.2","","-12.2","","73","","","","8","","22","","","","99.09","","","","-16","","NA"
"-70.92","48.30","LA BAIE","706Q001","2019-02-15 11:00","2019","02","15","11:00","-7.1","","-11.6","","71","","","","8","","25","","","","99.03","","","","-15","","NA"
"-70.92","48.30","LA BAIE","706Q001","2019-02-15 12:00","2019","02","15","12:00","-7.2","","-11.2","","73","","","","8","","23","","","","98.89","","","","-15","","NA"
"-70.92","48.30","LA BAIE","706Q001","2019-02-15 13:00","2019","02","15","13:00","-6.9","","-10.9","","73","","","","8","","19","","","","98.77","","","","-14","","NA"
"-70.92","48.30","LA BAIE","706Q001","2019-02-15 14:00","2019","02","15","14:00","-6.1","","-9.7","","75","","","","7","","17","","","","98.60","","","","-12","","NA"
"-70.92","48.30","LA BAIE","706Q001","2019-02-15 15:00","2019","02","15","15:00","-5.4","","-9.5","","73","","","","8","","24","","","","98.52","","","","-13","","NA"
"-70.92","48.30","LA BAIE","706Q001","2019-02-15 16:00","2019","02","15","16:00","-5.1","","-9.0","","74","","","","8","","21","","","","98.48","","","","-12","","NA"
"-70.92","48.30","LA BAIE","706Q001","2019-02-15 17:00","2019","02","15","17:00","-5.1","","-8.9","","75","","","","8","","21","","","","98.40","","","","-12","","NA"
"-70.92","48.30","LA BAIE","706Q001","2019-02-15 18:00","2019","02","15","18:00","-5.2","","-8.7","","77","","","","8","","19","","","","98.32","","","","-12","","NA"
"-70.92","48.30","LA BAIE","706Q001","2019-02-15 19:00","2019","02","15","19:00","-4.8","","-8.2","","77","","","","8","","20","","","","98.28","","","","-11","","NA"
"-70.92","48.30","LA BAIE","706Q001","2019-02-15 20:00","2019","02","15","20:00","-4.7","","-7.9","","78","","","","8","","18","","","","98.15","","","","-11","","NA"
"-70.92","48.30","LA BAIE","706Q001","2019-02-15 21:00","2019","02","15","21:00","-4.4","","-7.4","","79","","","","8","","16","","","","98.11","","","","-10","","NA"
"-70.92","48.30","LA BAIE","706Q001","2019-02-15 22:00","2019","02","15","22:00","-5.1","","-6.4","","91","","","","8","","13","","","","97.99","","","","-10","","NA"
"-70.92","48.30","LA BAIE","706Q001","2019-02-15 23:00","2019","02","15","23:00","-5.0","","-6.7","","88","","","","7","","12","","","","97.95","","","","-10","","NA"
"-70.92","48.30","LA BAIE","706Q001","2019-02-16 00:00","2019","02","16","00:00","-5.6","","-7.1","","89","","","","7","","8","","","","97.94","","","","-9","","NA"
"-70.92","48.30","LA BAIE","706Q001","2019-02-16 01:00","2019","02","16","01:00","-6.8","","-8.0","","91","","","","5","","7","","","","97.95","","","","-10","","NA"
"-70.92","48.30","LA BAIE","706Q001","2019-02-16 02:00","2019","02","16","02:00","-6.5","","-7.7","","91","","","","8","","6","","","","97.91","","","","-9","","NA"
"-70.92","48.30","LA BAIE","706Q001","2019-02-16 03:00","2019","02","16","03:00","-6.5","","-7.5","","93","","","","","","0","","","","97.93","","","","","","NA"
"-70.92","48.30","LA BAIE","706Q001","2019-02-16 04:00","2019","02","16","04:00","-7.6","","-8.8","","91","","","","18","","3","","","","97.95","","","","-9","","NA"
"-70.92","48.30","LA BAIE","706Q001","2019-02-16 05:00","2019","02","16","05:00","-6.8","","-7.9","","92","","","","23","","5","","","","98.03","","","","-9","","NA"
"-70.92","48.30","LA BAIE","706Q001","2019-02-16 06:00","2019","02","16","06:00","-3.3","","-6.5","","78","","","","26","","12","","","","98.07","","","","-8","","NA"
"-70.92","48.30","LA BAIE","706Q001","2019-02-16 07:00","2019","02","16","07:00","-3.9","","-7.5","","76","","","","25","","13","","","","98.11","","","","-9","","NA"
"-70.92","48.30","LA BAIE","706Q001","2019-02-16 08:00","2019","02","16","08:00","-3.6","","-7.2","","76","","","","24","","10","","","","98.19","","","","-8","","NA"
"-70.92","48.30","LA BAIE","706Q001","2019-02-16 09:00","2019","02","16","09:00","-2.6","","-6.9","","72","","","","27","","22","","","","98.19","","","","-9","","NA"
"-70.92","48.30","LA BAIE","706Q001","2019-02-16 10:00","2019","02","16","10:00","-5.2","","-9.1","","74","","","","29","","29","","","","98.36","","","","-13","","NA"
"-70.92","48.30","LA BAIE","706Q001","2019-02-16 11:00","2019","02","16","11:00","-6.5","","-11.2","","69","","","","29","","29","","","","98.48","","","","-15","","NA"
"-70.92","48.30","LA BAIE","706Q001","2019-02-16 12:00","2019","02","16","12:00","-6.8","","-10.5","","75","","","","29","","31","","","","98.52","","","","-15","","NA"
"-70.92","48.30","LA BAIE","706Q001","2019-02-16 13:00","2019","02","16","13:00","-7.3","","-12.2","","68","","","","29","","28","","","","98.56","","","","-16","","NA"
"-70.92","48.30","LA BAIE","706Q001","2019-02-16 14:00","2019","02","16","14:00","-7.9","","-12.7","","69","","","","29","","31","","","","98.64","","","","-17","","NA"
"-70.92","48.30","LA BAIE","706Q001","2019-02-16 15:00","2019","02","16","15:00","-8.6","","-13.2","","69","","","","29","","27","","","","98.77","","","","-17","","NA"
"-70.92","48.30","LA BAIE","706Q001","2019-02-16 16:00","2019","02","16","16:00","-9.1","","-13.6","","69","","","","29","","27","","","","98.89","","","","-18","","NA"
"-70.92","48.30","LA BAIE","706Q001","2019-02-16 17:00","2019","02","16","17:00","-9.8","","-14.4","","69","","","","29","","29","","","","99.05","","","","-19","","NA"
"-70.92","48.30","LA BAIE","706Q001","2019-02-16 18:00","2019","02","16","18:00","-10.8","","-14.5","","74","","","","28","","28","","","","99.17","","","","-20","","NA"
"-70.92","48.30","LA BAIE","706Q001","2019-02-16 19:00","2019","02","16","19:00","-11.8","","-15.8","","72","","","","28","","36","","","","99.29","","","","-23","","NA"
"-70.92","48.30","LA BAIE","706Q001","2019-02-16 20:00","2019","02","16","20:00","-11.9","","-16.0","","72","","","","28","","35","","","","99.40","","","","-23","","NA"
"-70.92","48.30","LA BAIE","706Q001","2019-02-16 21:00","2019","02","16","21:00","-12.5","","-16.9","","69","","","","29","","37","","","","99.50","","","","-24","","NA"
"-70.92","48.30","LA BAIE","706Q001","2019-02-16 22:00","2019","02","16","22:00","-13.2","","-17.7","","69","","","","28","","30","","","","99.50","","","","-24","","NA"
"-70.92","48.30","LA BAIE","706Q001","2019-02-16 23:00","2019","02","16","23:00","-13.5","","-18.3","","67","","","","29","","26","","","","99.54","","","","-23","","NA"
"-70.92","48.30","LA BAIE","706Q001","2019-02-17 00:00","2019","02","17","00:00","-14.2","","-18.9","","67","","","","28","","27","","","","99.59","","","","-25","","NA"
"-70.92","48.30","LA BAIE","706Q001","2019-02-17 01:00","2019","02","17","01:00","-14.4","","-19.2","","67","","","","29","","33","","","","99.65","","","","-26","","NA"
"-70.92","48.30","LA BAIE","706Q001","2019-02-17 02:00","2019","02","17","02:00","-14.8","","-19.4","","68","","","","28","","25","","","","99.70","","","","-25","","NA"
"-70.92","48.30","LA BAIE","706Q001","2019-02-17 03:00","2019","02","17","03:00","-14.9","","-19.5","","68","","","","28","","21","","","","99.74","","","","-24","","NA"
"-70.92","48.30","LA BAIE","706Q001","2019-02-17 04:00","2019","02","17","04:00","-15.1","","-19.2","","71","","","","28","","25","","","","99.86","","","","-25","","NA"
"-70.92","48.30","LA BAIE","706Q001","2019-02-17 05:00","2019","02","17","05:00","-15.6","","-18.9","","76","","","","29","","20","","","","99.98","","","","-25","","NA"
"-70.92","48.30","LA BAIE","706Q001","2019-02-17 06:00","2019","02","17","06:00","-16.1","","-20.1","","71","","","","29","","21","","","","100.03","","","","-26","","NA"
"-70.92","48.30","LA BAIE","706Q001","2019-02-17 07:00","2019","02","17","07:00","-16.7","","-20.3","","73","","","","29","","19","","","","100.11","","","","-26","","NA"
"-70.92","48.30","LA BAIE","706Q001","2019-02-17 08:00","2019","02","17","08:00","-17.0","","-21.2","","70","","","","29","","24","","","","100.19","","","","-28","","NA"
"-70.92","48.30","LA BAIE","706Q001","2019-02-17 09:00","2019","02","17","09:00","-17.4","","-23.3","","60","","","","29","","21","","","","100.27","","","","-27","","NA"
"-70.92","48.30","LA BAIE","706Q001","2019-02-17 10:00","2019","02","17","10:00","-16.6","","-22.7","","59","","","","28","","23","","","","100.27","","","","-27","","NA"
"-70.92","48.30","LA BAIE","706Q001","2019-02-17 11:00","2019","02","17","11:00","-15.6","","-22.3","","56","","","","29","","18","","","","100.22","","","","-24","","NA"
"-70.92","48.30","LA BAIE","706Q001","2019-02-17 12:00","2019","02","17","12:00","-15.1","","-22.3","","54","","","","30","","18","","","","100.15","","","","-24","","NA"
"-70.92","48.30","LA BAIE","706Q001","2019-02-17 13:00","2019","02","17","13:00","-14.5","","-21.7","","54","","","","29","","19","","","","100.11","","","","-23","","NA"
"-70.92","48.30","LA BAIE","706Q001","2019-02-17 14:00","2019","02","17","14:00","-14.5","","-22.3","","51","","","","29","","21","","","","100.07","","","","-24","","NA"
"-70.92","48.30","LA BAIE","706Q001","2019-02-17 15:00","2019","02","17","15:00","-14.2","","-21.9","","52","","","","30","","16","","","","100.03","","","","-22","","NA"
"-70.92","48.30","LA BAIE","706Q001","2019-02-17 16:00","2019","02","17","16:00","-13.9","","-21.5","","53","","","","30","","13","","","","100.02","","","","-21","","NA"
"-70.92","48.30","LA BAIE","706Q001","2019-02-17 17:00","2019","02","17","17:00","-14.9","","-21.7","","56","","","","28","","12","","","","99.99","","","","-22","","NA"
"-70.92","48.30","LA BAIE","706Q001","2019-02-17 18:00","2019","02","17","18:00","-19.4","","-23.5","","70","","","","22","","8","","","","100.03","","","","-26","","NA"
"-70.92","48.30","LA BAIE","706Q001","2019-02-17 19:00","2019","02","17","19:00","-21.9","","-25.5","","72","","","","21","","8","","","","99.99","","","","-28","","NA"
"-70.92","48.30","LA BAIE","706Q001","2019-02-17 20:00","2019","02","17","20:00","-22.3","","-25.2","","77","","","","17","","4","","","","99.95","","","","-26","","NA"
"-70.92","48.30","LA BAIE","706Q001","2019-02-17 21:00","2019","02","17","21:00","-23.1","","-25.8","","78","","","","20","","7","","","","99.91","","","","-29","","NA"
"-70.92","48.30","LA BAIE","706Q001","2019-02-17 22:00","2019","02","17","22:00","-22.5","","-24.9","","81","","","","21","","7","","","","99.91","","","","-29","","NA"
"-70.92","48.30","LA BAIE","706Q001","2019-02-17 23:00","2019","02","17","23:00","-17.7","","-21.5","","72","","","","25","","15","","","","99.95","","","","-26","","NA"
"-70.92","48.30","LA BAIE","706Q001","2019-02-18 00:00","2019","02","18","00:00","-17.5","","-21.5","","71","","","","23","","11","","","","99.99","","","","-25","","NA"
"-70.92","48.30","LA BAIE","706Q001","2019-02-18 01:00","2019","02","18","01:00","-17.8","","-21.6","","72","","","","25","","12","","","","99.95","","","","-25","","NA"
"-70.92","48.30","LA BAIE","706Q001","2019-02-18 02:00","2019","02","18","02:00","-19.7","","-23.2","","74","","","","24","","10","","","","99.95","","","","-27","","NA"
"-70.92","48.30","LA BAIE","706Q001","2019-02-18 03:00","2019","02","18","03:00","-19.9","","-22.5","","79","","","","26","","8","","","","99.91","","","","-26","","NA"
"-70.92","48.30","LA BAIE","706Q001","2019-02-18 04:00","2019","02","18","04:00","-21.5","","-23.5","","84","","","","25","","9","","","","99.91","","","","-29","","NA"
"-70.92","48.30","LA BAIE","706Q001","2019-02-18 05:00","2019","02","18","05:00","-21.1","","-23.7","","79","","","","25","","12","","","","99.91","","","","-29","","NA"
"-70.92","48.30","LA BAIE","706Q001","2019-02-18 06:00","2019","02","18","06:00","-20.8","","-23.4","","80","","","","25","","13","","","","99.91","","","","-29","","NA"
"-70.92","48.30","LA BAIE","706Q001","2019-02-18 07:00","2019","02","18","07:00","-21.2","","-24.0","","78","","","","25","","13","","","","99.91","","","","-30","","NA"
"-70.92","48.30","LA BAIE","706Q001","2019-02-18 08:00","2019","02","18","08:00","-20.2","","-23.9","","72","","","","29","","14","","","","99.95","","","","-29","","NA"
"-70.92","48.30","LA BAIE","706Q001","2019-02-18 09:00","2019","02","18","09:00","-18.8","","-24.2","","62","","","","28","","17","","","","99.91","","","","-28","","NA"
"-70.92","48.30","LA BAIE","706Q001","2019-02-18 10:00","2019","02","18","10:00","-17.9","","-24.3","","57","","","","29","","22","","","","99.91","","","","-28","","NA"
"-70.92","48.30","LA BAIE","706Q001","2019-02-18 11:00","2019","02","18","11:00","-16.8","","-23.4","","57","","","","29","","19","","","","99.88","","","","-26","","NA"
"-70.92","48.30","LA BAIE","706Q001","2019-02-18 12:00","2019","02","18","12:00","-16.4","","-23.6","","54","","","","29","","24","","","","99.82","","","","-27","","NA"
"-70.92","48.30","LA BAIE","706Q001","2019-02-18 13:00","2019","02","18","13:00","-16.1","","-23.5","","53","","","","29","","20","","","","99.82","","","","-26","","NA"
"-70.92","48.30","LA BAIE","706Q001","2019-02-18 14:00","2019","02","18","14:00","-16.5","","-24.2","","51","","","","28","","24","","","","99.82","","","","-27","","NA"
"-70.92","48.30","LA BAIE","706Q001","2019-02-18 15:00","2019","02","18","15:00","-16.7","","-24.2","","52","","","","27","","24","","","","99.82","","","","-27","","NA"
"-70.92","48.30","LA BAIE","706Q001","2019-02-18 16:00","2019","02","18","16:00","-17.2","","-24.4","","53","","","","27","","23","","","","99.86","","","","-28","","NA"
"-70.92","48.30","LA BAIE","706Q001","2019-02-18 17:00","2019","02","18","17:00","-17.8","","-24.3","","57","","","","26","","21","","","","99.95","","","","-28","","NA"
"-70.92","48.30","LA BAIE","706Q001","2019-02-18 18:00","2019","02","18","18:00","-17.8","","-23.9","","59","","","","26","","21","","","","100.03","","","","-28","","NA"
"-70.92","48.30","LA BAIE","706Q001","2019-02-18 19:00","2019","02","18","19:00","-17.8","","-23.8","","60","","","","27","","23","","","","100.07","","","","-28","","NA"
"-70.92","48.30","LA BAIE","706Q001","2019-02-18 20:00","2019","02","18","20:00","-18.2","","-23.8","","61","","","","28","","21","","","","100.15","","","","-28","","NA"
"-70.92","48.30","LA BAIE","706Q001","2019-02-18 21:00","2019","02","18","21:00","-18.7","","-24.2","","62","","","","29","","24","","","","100.25","","","","-30","","NA"
"-70.92","48.30","LA BAIE","706Q001","2019-02-18 22:00","2019","02","18","22:00","-19.5","","-24.7","","64","","","","27","","20","","","","100.35","","","","-30","","NA"
"-70.92","48.30","LA BAIE","706Q001","2019-02-18 23:00","2019","02","18","23:00","-19.9","","-24.8","","65","","","","27","","23","","","","100.43","","","","-31","","NA"
"-70.92","48.30","LA BAIE","706Q001","2019-02-19 00:00","2019","02","19","00:00","-20.3","","-25.0","","66","","","","27","","24","","","","100.52","","","","-32","","NA"
"-70.92","48.30","LA BAIE","706Q001","2019-02-19 01:00","2019","02","19","01:00","-20.7","","-25.2","","67","","","","27","","24","","","","100.60","","","","-32","","NA"
"-70.92","48.30","LA BAIE","706Q001","2019-02-19 02:00","2019","02","19","02:00","-20.3","","-24.7","","68","","","","28","","23","","","","100.64","","","","-32","","NA"
"-70.92","48.30","LA BAIE","706Q001","2019-02-19 03:00","2019","02","19","03:00","-20.0","","-24.3","","69","","","","28","","21","","","","100.72","","","","-31","","NA"
"-70.92","48.30","LA BAIE","706Q001","2019-02-19 04:00","2019","02","19","04:00","-20.0","","-23.8","","72","","","","27","","15","","","","100.80","","","","-29","","NA"
"-70.92","48.30","LA BAIE","706Q001","2019-02-19 05:00","2019","02","19","05:00","-19.8","","-23.2","","74","","","","27","","15","","","","100.80","","","","-29","","NA"
"-70.92","48.30","LA BAIE","706Q001","2019-02-19 06:00","2019","02","19","06:00","-19.0","","-23.0","","71","","","","27","","18","","","","100.84","","","","-29","","NA"
"-70.92","48.30","LA BAIE","706Q001","2019-02-19 07:00","2019","02","19","07:00","-19.2","","-23.3","","69","","","","29","","22","","","","100.88","","","","-30","","NA"
"-70.92","48.30","LA BAIE","706Q001","2019-02-19 08:00","2019","02","19","08:00","-19.9","","-24.9","","64","","","","29","","23","","","","101.00","","","","-31","","NA"
"-70.92","48.30","LA BAIE","706Q001","2019-02-19 09:00","2019","02","19","09:00","-19.3","","-25.4","","58","","","","28","","25","","","","101.04","","","","-31","","NA"
"-70.92","48.30","LA BAIE","706Q001","2019-02-19 10:00","2019","02","19","10:00","-18.3","","-25.1","","55","","","","28","","24","","","","101.00","","","","-29","","NA"
"-70.92","48.30","LA BAIE","706Q001","2019-02-19 11:00","2019","02","19","11:00","-17.5","","-24.9","","52","","","","28","","26","","","","101.00","","","","-29","","NA"
"-70.92","48.30","LA BAIE","706Q001","2019-02-19 12:00","2019","02","19","12:00","-16.9","","-24.3","","53","","","","30","","27","","","","100.96","","","","-28","","NA"
"-70.92","48.30","LA BAIE","706Q001","2019-02-19 13:00","2019","02","19","13:00","-15.9","","-23.8","","51","","","","31","","27","","","","100.93","","","","-27","","NA"
"-70.92","48.30","LA BAIE","706Q001","2019-02-19 14:00","2019","02","19","14:00","-15.4","","-23.4","","50","","","","31","","27","","","","100.92","","","","-26","","NA"
"-70.92","48.30","LA BAIE","706Q001","2019-02-19 15:00","2019","02","19","15:00","-15.5","","-23.8","","49","","","","30","","25","","","","100.92","","","","-26","","NA"
"-70.92","48.30","LA BAIE","706Q001","2019-02-19 16:00","2019","02","19","16:00","-15.8","","-24.2","","48","","","","29","","24","","","","100.96","","","","-26","","NA"
"-70.92","48.30","LA BAIE","706Q001","2019-02-19 17:00","2019","02","19","17:00","-16.8","","-24.5","","52","","","","28","","18","","","","100.96","","","","-26","","NA"
"-70.92","48.30","LA BAIE","706Q001","2019-02-19 18:00","2019","02","19","18:00","-18.5","","-25.0","","57","","","","26","","13","","","","101.00","","","","-27","","NA"
"-70.92","48.30","LA BAIE","706Q001","2019-02-19 19:00","2019","02","19","19:00","-19.5","","-25.1","","61","","","","24","","12","","","","101.00","","","","-27","","NA"
"-70.92","48.30","LA BAIE","706Q001","2019-02-19 20:00","2019","02","19","20:00","-19.2","","-24.9","","61","","","","24","","13","","","","101.01","","","","-27","","NA"
"-70.92","48.30","LA BAIE","706Q001","2019-02-19 21:00","2019","02","19","21:00","-18.5","","-24.5","","59","","","","24","","14","","","","101.04","","","","-27","","NA"
"-70.92","48.30","LA BAIE","706Q001","2019-02-19 22:00","2019","02","19","22:00","-18.3","","-24.2","","60","","","","24","","18","","","","101.04","","","","-28","","NA"
"-70.92","48.30","LA BAIE","706Q001","2019-02-19 23:00","2019","02","19","23:00","-17.2","","-23.5","","58","","","","26","","18","","","","101.05","","","","-26","","NA"
"-70.92","48.30","LA BAIE","706Q001","2019-02-20 00:00","2019","02","20","00:00","-16.7","","-22.7","","59","","","","27","","20","","","","101.13","","","","-26","","NA"
"-70.92","48.30","LA BAIE","706Q001","2019-02-20 01:00","2019","02","20","01:00","-16.5","","-21.9","","63","","","","27","","22","","","","101.17","","","","-27","","NA"
"-70.92","48.30","LA BAIE","706Q001","2019-02-20 02:00","2019","02","20","02:00","-18.2","","-22.8","","67","","","","25","","14","","","","101.25","","","","-27","","NA"
"-70.92","48.30","LA BAIE","706Q001","2019-02-20 03:00","2019","02","20","03:00","-18.6","","-23.1","","68","","","","26","","12","","","","101.25","","","","-26","","NA"
"-70.92","48.30","LA BAIE","706Q001","2019-02-20 04:00","2019","02","20","04:00","-21.5","","-24.6","","76","","","","11","","7","","","","101.26","","","","-27","","NA"
"-70.92","48.30","LA BAIE","706Q001","2019-02-20 05:00","2019","02","20","05:00","-25.1","","-28.0","","76","","","","16","","5","","","","101.25","","","","-30","","NA"
"-70.92","48.30","LA BAIE","706Q001","2019-02-20 06:00","2019","02","20","06:00","-24.3","","-26.6","","81","","","","14","","7","","","","101.29","","","","-31","","NA"
"-70.92","48.30","LA BAIE","706Q001","2019-02-20 07:00","2019","02","20","07:00","-27.4","","-29.8","","80","","","","13","","6","","","","101.28","","","","-34","","NA"
"-70.92","48.30","LA BAIE","706Q001","2019-02-20 08:00","2019","02","20","08:00","-22.8","","-25.8","","76","","","","12","","8","","","","101.21","","","","-30","","NA"
"-70.92","48.30","LA BAIE","706Q001","2019-02-20 09:00","2019","02","20","09:00","-19.0","","-24.3","","63","","","","6","","4","","","","101.17","","","","-22","","NA"
"-70.92","48.30","LA BAIE","706Q001","2019-02-20 10:00","2019","02","20","10:00","-17.9","","-23.4","","62","","","","4","","7","","","","101.13","","","","-23","","NA"
"-70.92","48.30","LA BAIE","706Q001","2019-02-20 11:00","2019","02","20","11:00","-16.0","","-22.5","","57","","","","6","","7","","","","101.04","","","","-21","","NA"
"-70.92","48.30","LA BAIE","706Q001","2019-02-20 12:00","2019","02","20","12:00","-14.9","","-21.9","","55","","","","7","","8","","","","100.92","","","","-20","","NA"
"-70.92","48.30","LA BAIE","706Q001","2019-02-20 13:00","2019","02","20","13:00","-12.6","","-21.0","","49","","","","7","","5","","","","100.84","","","","-16","","NA"
"-70.92","48.30","LA BAIE","706Q001","2019-02-20 14:00","2019","02","20","14:00","-11.1","","-20.9","","44","","","","7","","6","","","","100.80","","","","-15","","NA"
"-70.92","48.30","LA BAIE","706Q001","2019-02-20 15:00","2019","02","20","15:00","-10.2","","-19.2","","48","","","","6","","6","","","","100.66","","","","-14","","NA"
"-70.92","48.30","LA BAIE","706Q001","2019-02-20 16:00","2019","02","20","16:00","-9.4","","-19.4","","44","","","","7","","3","","","","100.63","","","","-11","","NA"
"-70.92","48.30","LA BAIE","706Q001","2019-02-20 17:00","2019","02","20","17:00","-11.5","","-18.9","","54","","","","14","","3","","","","100.56","","","","-13","","NA"
"-70.92","48.30","LA BAIE","706Q001","2019-02-20 18:00","2019","02","20","18:00","-16.5","","-21.6","","64","","","","15","","7","","","","100.52","","","","-22","","NA"
"-70.92","48.30","LA BAIE","706Q001","2019-02-20 19:00","2019","02","20","19:00","-14.8","","-20.3","","63","","","","17","","10","","","","100.52","","","","-21","","NA"
"-70.92","48.30","LA BAIE","706Q001","2019-02-20 20:00","2019","02","20","20:00","-19.3","","-22.9","","73","","","","9","","2","","","","100.43","","","","-21","","NA"
"-70.92","48.30","LA BAIE","706Q001","2019-02-20 21:00","2019","02","20","21:00","-19.7","","-22.5","","78","","","","16","","4","","","","100.35","","","","-23","","NA"
"-70.92","48.30","LA BAIE","706Q001","2019-02-20 22:00","2019","02","20","22:00","-19.5","","-22.5","","77","","","","14","","6","","","","100.31","","","","-24","","NA"
"-70.92","48.30","LA BAIE","706Q001","2019-02-20 23:00","2019","02","20","23:00","-18.6","","-21.4","","79","","","","11","","6","","","","100.19","","","","-23","","NA"
"-70.92","48.30","LA BAIE","706Q001","2019-02-21 00:00","2019","02","21","00:00","-18.3","","-21.0","","79","","","","10","","7","","","","100.09","","","","-24","","NA"
"-70.92","48.30","LA BAIE","706Q001","2019-02-21 01:00","2019","02","21","01:00","-19.6","","-22.1","","80","","","","10","","5","","","","99.93","","","","-24","","NA"
"-70.92","48.30","LA BAIE","706Q001","2019-02-21 02:00","2019","02","21","02:00","-17.7","","-19.4","","87","","","","11","","5","","","","99.78","","","","-22","","NA"
"-70.92","48.30","LA BAIE","706Q001","2019-02-21 03:00","2019","02","21","03:00","-16.5","","-18.6","","84","","","","6","","5","","","","99.66","","","","-20","","NA"
"-70.92","48.30","LA BAIE","706Q001","2019-02-21 04:00","2019","02","21","04:00","-15.8","","-18.2","","82","","","","4","","1","","","","99.50","","","","-17","","NA"
"-70.92","48.30","LA BAIE","706Q001","2019-02-21 05:00","2019","02","21","05:00","-14.9","","-16.9","","85","","","","13","","2","","","","99.34","","","","-16","","NA"
"-70.92","48.30","LA BAIE","706Q001","2019-02-21 06:00","2019","02","21","06:00","-13.7","","-15.4","","87","","","","8","","6","","","","99.13","","","","-18","","NA"
"-70.92","48.30","LA BAIE","706Q001","2019-02-21 07:00","2019","02","21","07:00","-11.6","","-12.9","","90","","","","6","","11","","","","99.05","","","","-18","","NA"
"-70.92","48.30","LA BAIE","706Q001","2019-02-21 08:00","2019","02","21","08:00","-10.5","","-12.0","","89","","","","8","","15","","","","98.85","","","","-17","","NA"
"-70.92","48.30","LA BAIE","706Q001","2019-02-21 09:00","2019","02","21","09:00","-9.9","","-11.7","","87","","","","7","","12","","","","98.75","","","","-16","","NA"
"-70.92","48.30","LA BAIE","706Q001","2019-02-21 10:00","2019","02","21","10:00","-9.6","","-11.2","","88","","","","6","","9","","","","98.68","","","","-14","","NA"
"-70.92","48.30","LA BAIE","706Q001","2019-02-21 11:00","2019","02","21","11:00","-8.8","","-10.8","","85","","","","6","","7","","","","98.56","","","","-13","","NA"
"-70.92","48.30","LA BAIE","706Q001","2019-02-21 12:00","2019","02","21","12:00","-8.4","","-10.6","","84","","","","5","","9","","","","98.50","","","","-13","","NA"
"-70.92","48.30","LA BAIE","706Q001","2019-02-21 13:00","2019","02","21","13:00","-8.2","","-10.3","","85","","","","5","","9","","","","98.48","","","","-13","","NA"
"-70.92","48.30","LA BAIE","706Q001","2019-02-21 14:00","2019","02","21","14:00","-7.3","","-9.4","","85","","","","5","","5","","","","98.48","","","","-10","","NA"
"-70.92","48.30","LA BAIE","706Q001","2019-02-21 15:00","2019","02","21","15:00","-7.6","","-9.4","","87","","","","6","","4","","","","98.56","","","","-10","","NA"
"-70.92","48.30","LA BAIE","706Q001","2019-02-21 16:00","2019","02","21","16:00","-7.4","","-8.9","","89","","","","27","","6","","","","98.72","","","","-11","","NA"
"-70.92","48.30","LA BAIE","706Q001","2019-02-21 17:00","2019","02","21","17:00","-7.3","","-8.8","","89","","","","29","","12","","","","98.85","","","","-13","","NA"
"-70.92","48.30","LA BAIE","706Q001","2019-02-21 18:00","2019","02","21","18:00","-7.5","","-9.8","","84","","","","29","","18","","","","98.97","","","","-14","","NA"
"-70.92","48.30","LA BAIE","706Q001","2019-02-21 19:00","2019","02","21","19:00","-9.6","","-12.0","","83","","","","27","","14","","","","99.13","","","","-16","","NA"
"-70.92","48.30","LA BAIE","706Q001","2019-02-21 20:00","2019","02","21","20:00","-11.0","","-12.8","","86","","","","24","","11","","","","99.25","","","","-17","","NA"
"-70.92","48.30","LA BAIE","706Q001","2019-02-21 21:00","2019","02","21","21:00","-10.7","","-12.7","","85","","","","25","","15","","","","99.38","","","","-18","","NA"
"-70.92","48.30","LA BAIE","706Q001","2019-02-21 22:00","2019","02","21","22:00","-9.5","","-11.7","","84","","","","24","","13","","","","99.50","","","","-16","","NA"
"-70.92","48.30","LA BAIE","706Q001","2019-02-21 23:00","2019","02","21","23:00","-8.7","","-11.1","","83","","","","25","","14","","","","99.58","","","","-15","","NA"
"-70.92","48.30","LA BAIE","706Q001","2019-02-22 00:00","2019","02","22","00:00","-9.4","","-11.5","","85","","","","25","","13","","","","99.66","","","","-15","","NA"
"-70.92","48.30","LA BAIE","706Q001","2019-02-22 01:00","2019","02","22","01:00","-8.1","","-10.3","","84","","","","26","","15","","","","99.74","","","","-14","","NA"
"-70.92","48.30","LA BAIE","706Q001","2019-02-22 02:00","2019","02","22","02:00","-7.6","","-10.1","","83","","","","27","","13","","","","99.86","","","","-13","","NA"
"-70.92","48.30","LA BAIE","706Q001","2019-02-22 03:00","2019","02","22","03:00","-9.9","","-11.9","","85","","","","29","","14","","","","99.95","","","","-16","","NA"
"-70.92","48.30","LA BAIE","706Q001","2019-02-22 04:00","2019","02","22","04:00","-11.9","","-13.2","","90","","","","28","","9","","","","99.99","","","","-17","","NA"
"-70.92","48.30","LA BAIE","706Q001","2019-02-22 05:00","2019","02","22","05:00","-11.0","","-12.6","","88","","","","29","","8","","","","100.07","","","","-16","","NA"
"-70.92","48.30","LA BAIE","706Q001","2019-02-22 06:00","2019","02","22","06:00","-9.4","","-11.2","","87","","","","27","","16","","","","100.19","","","","-16","","NA"
"-70.92","48.30","LA BAIE","706Q001","2019-02-22 07:00","2019","02","22","07:00","-9.7","","-11.9","","83","","","","28","","19","","","","100.35","","","","-17","","NA"
"-70.92","48.30","LA BAIE","706Q001","2019-02-22 08:00","2019","02","22","08:00","-10.6","","-13.6","","79","","","","27","","21","","","","100.47","","","","-19","","NA"
"-70.92","48.30","LA BAIE","706Q001","2019-02-22 09:00","2019","02","22","09:00","-10.5","","-14.4","","73","","","","28","","26","","","","100.56","","","","-20","","NA"
"-70.92","48.30","LA BAIE","706Q001","2019-02-22 10:00","2019","02","22","10:00","-9.9","","-14.4","","70","","","","27","","25","","","","100.64","","","","-19","","NA"
"-70.92","48.30","LA BAIE","706Q001","2019-02-22 11:00","2019","02","22","11:00","-9.7","","-15.1","","65","","","","27","","22","","","","100.68","","","","-18","","NA"
"-70.92","48.30","LA BAIE","706Q001","2019-02-22 12:00","2019","02","22","12:00","-9.4","","-14.7","","65","","","","28","","20","","","","100.70","","","","-17","","NA"
"-70.92","48.30","LA BAIE","706Q001","2019-02-22 13:00","2019","02","22","13:00","-9.0","","-15.6","","59","","","","28","","23","","","","100.72","","","","-17","","NA"
"-70.92","48.30","LA BAIE","706Q001","2019-02-22 14:00","2019","02","22","14:00","-8.6","","-16.4","","53","","","","28","","21","","","","100.72","","","","-16","","NA"
"-70.92","48.30","LA BAIE","706Q001","2019-02-22 15:00","2019","02","22","15:00","-8.4","","-16.4","","52","","","","30","","20","","","","100.76","","","","-16","","NA"
"-70.92","48.30","LA BAIE","706Q001","2019-02-22 16:00","2019","02","22","16:00","-9.0","","-16.2","","56","","","","30","","18","","","","100.81","","","","-16","","NA"
"-70.92","48.30","LA BAIE","706Q001","2019-02-22 17:00","2019","02","22","17:00","-10.6","","-17.0","","59","","","","29","","15","","","","100.84","","","","-17","","NA"
"-70.92","48.30","LA BAIE","706Q001","2019-02-22 18:00","2019","02","22","18:00","-14.9","","-18.8","","72","","","","26","","7","","","","100.88","","","","-20","","NA"
"-70.92","48.30","LA BAIE","706Q001","2019-02-22 19:00","2019","02","22","19:00","-11.7","","-16.4","","68","","","","25","","14","","","","100.96","","","","-19","","NA"
"-70.92","48.30","LA BAIE","706Q001","2019-02-22 20:00","2019","02","22","20:00","-13.2","","-17.4","","71","","","","23","","11","","","","100.96","","","","-19","","NA"
"-70.92","48.30","LA BAIE","706Q001","2019-02-22 21:00","2019","02","22","21:00","-11.4","","-15.8","","70","","","","25","","15","","","","101.00","","","","-18","","NA"
"-70.92","48.30","LA BAIE","706Q001","2019-02-22 22:00","2019","02","22","22:00","-11.3","","-15.5","","71","","","","25","","13","","","","101.04","","","","-18","","NA"
"-70.92","48.30","LA BAIE","706Q001","2019-02-22 23:00","2019","02","22","23:00","-10.9","","-15.2","","71","","","","25","","13","","","","101.00","","","","-17","","NA"
"-70.92","48.30","LA BAIE","706Q001","2019-02-23 00:00","2019","02","23","00:00","-10.6","","-14.7","","72","","","","25","","15","","","","101.00","","","","-17","","NA"
"-70.92","48.30","LA BAIE","706Q001","2019-02-23 01:00","2019","02","23","01:00","-11.4","","-15.3","","73","","","","25","","13","","","","101.04","","","","-18","","NA"
"-70.92","48.30","LA BAIE","706Q001","2019-02-23 02:00","2019","02","23","02:00","-11.1","","-15.0","","73","","","","24","","13","","","","101.04","","","","-18","","NA"
"-70.92","48.30","LA BAIE","706Q001","2019-02-23 03:00","2019","02","23","03:00","-11.8","","-15.5","","74","","","","24","","12","","","","101.01","","","","-18","","NA"
"-70.92","48.30","LA BAIE","706Q001","2019-02-23 04:00","2019","02","23","04:00","-11.9","","-15.5","","75","","","","25","","12","","","","101.04","","","","-18","","NA"
"-70.92","48.30","LA BAIE","706Q001","2019-02-23 05:00","2019","02","23","05:00","-15.0","","-17.5","","81","","","","27","","8","","","","101.04","","","","-20","","NA"
"-70.92","48.30","LA BAIE","706Q001","2019-02-23 06:00","2019","02","23","06:00","-14.3","","-16.5","","83","","","","10","","3","","","","101.05","","","","-16","","NA"
"-70.92","48.30","LA BAIE","706Q001","2019-02-23 07:00","2019","02","23","07:00","-15.4","","-17.4","","85","","","","10","","4","","","","101.04","","","","-18","","NA"
"-70.92","48.30","LA BAIE","706Q001","2019-02-23 08:00","2019","02","23","08:00","-14.5","","-17.1","","81","","","","13","","1","","","","101.04","","","","-15","","NA"
"-70.92","48.30","LA BAIE","706Q001","2019-02-23 09:00","2019","02","23","09:00","-11.3","","-17.0","","63","","","","13","","1","","","","101.04","","","","-12","","NA"
"-70.92","48.30","LA BAIE","706Q001","2019-02-23 10:00","2019","02","23","10:00","-11.3","","-16.0","","68","","","","6","","7","","","","100.96","","","","-16","","NA"
"-70.92","48.30","LA BAIE","706Q001","2019-02-23 11:00","2019","02","23","11:00","-10.0","","-15.2","","65","","","","6","","7","","","","100.92","","","","-14","","NA"
"-70.92","48.30","LA BAIE","706Q001","2019-02-23 12:00","2019","02","23","12:00","-8.5","","-14.1","","64","","","","6","","8","","","","100.84","","","","-13","","NA"
"-70.92","48.30","LA BAIE","706Q001","2019-02-23 13:00","2019","02","23","13:00","-6.6","","-13.6","","57","","","","6","","5","","","","100.80","","","","-9","","NA"
"-70.92","48.30","LA BAIE","706Q001","2019-02-23 14:00","2019","02","23","14:00","-6.1","","-12.0","","63","","","","7","","7","","","","100.80","","","","-9","","NA"
"-70.92","48.30","LA BAIE","706Q001","2019-02-23 15:00","2019","02","23","15:00","-4.9","","-11.2","","62","","","","7","","5","","","","100.75","","","","-7","","NA"
"-70.92","48.30","LA BAIE","706Q001","2019-02-23 16:00","2019","02","23","16:00","-4.6","","-10.6","","63","","","","16","","3","","","","100.76","","","","-6","","NA"
"-70.92","48.30","LA BAIE","706Q001","2019-02-23 17:00","2019","02","23","17:00","-5.1","","-9.2","","73","","","","5","","3","","","","100.76","","","","-6","","NA"
"-70.92","48.30","LA BAIE","706Q001","2019-02-23 18:00","2019","02","23","18:00","-9.1","","-12.4","","77","","","","11","","3","","","","100.72","","","","-11","","NA"
"-70.92","48.30","LA BAIE","706Q001","2019-02-23 19:00","2019","02","23","19:00","-8.8","","-10.3","","89","","","","21","","1","","","","100.76","","","","-9","","NA"
"-70.92","48.30","LA BAIE","706Q001","2019-02-23 20:00","2019","02","23","20:00","-7.9","","-9.3","","90","","","","19","","6","","","","100.72","","","","-11","","NA"
"-70.92","48.30","LA BAIE","706Q001","2019-02-23 21:00","2019","02","23","21:00","-7.7","","-9.5","","87","","","","18","","7","","","","100.72","","","","-11","","NA"
"-70.92","48.30","LA BAIE","706Q001","2019-02-23 22:00","2019","02","23","22:00","-9.9","","-11.3","","89","","","","18","","5","","","","100.72","","","","-13","","NA"
"-70.92","48.30","LA BAIE","706Q001","2019-02-23 23:00","2019","02","23","23:00","-9.0","","-10.1","","92","","","","9","","8","","","","100.68","","","","-13","","NA"
"-70.92","48.30","LA BAIE","706Q001","2019-02-24 00:00","2019","02","24","00:00","-9.4","","-10.5","","91","","","","12","","7","","","","100.64","","","","-13","","NA"
"-70.92","48.30","LA BAIE","706Q001","2019-02-24 01:00","2019","02","24","01:00","-10.9","","-11.5","","95","","","","10","","4","","","","100.56","","","","-13","","NA"
"-70.92","48.30","LA BAIE","706Q001","2019-02-24 02:00","2019","02","24","02:00","-12.7","","-14.0","","90","","","","14","","5","","","","100.47","","","","-16","","NA"
"-70.92","48.30","LA BAIE","706Q001","2019-02-24 03:00","2019","02","24","03:00","-10.5","","-11.6","","92","","","","7","","5","","","","100.37","","","","-14","","NA"
"-70.92","48.30","LA BAIE","706Q001","2019-02-24 04:00","2019","02","24","04:00","-9.5","","-10.4","","93","","","","8","","3","","","","100.35","","","","-11","","NA"
"-70.92","48.30","LA BAIE","706Q001","2019-02-24 05:00","2019","02","24","05:00","-8.7","","-9.9","","91","","","","7","","5","","","","100.19","","","","-11","","NA"
"-70.92","48.30","LA BAIE","706Q001","2019-02-24 06:00","2019","02","24","06:00","-6.7","","-9.4","","81","","","","8","","14","","","","100.03","","","","-12","","NA"
"-70.92","48.30","LA BAIE","706Q001","2019-02-24 07:00","2019","02","24","07:00","-6.8","","-9.6","","80","","","","8","","15","","","","99.90","","","","-13","","NA"
"-70.92","48.30","LA BAIE","706Q001","2019-02-24 08:00","2019","02","24","08:00","-6.2","","-9.7","","76","","","","8","","18","","","","99.74","","","","-13","","NA"
"-70.92","48.30","LA BAIE","706Q001","2019-02-24 09:00","2019","02","24","09:00","-5.3","","-9.6","","72","","","","9","","22","","","","99.58","","","","-12","","NA"
"-70.92","48.30","LA BAIE","706Q001","2019-02-24 10:00","2019","02","24","10:00","-4.0","","-9.3","","67","","","","9","","25","","","","99.33","","","","-11","","NA"
"-70.92","48.30","LA BAIE","706Q001","2019-02-24 11:00","2019","02","24","11:00","-3.0","","-8.7","","65","","","","9","","24","","","","99.05","","","","-10","","NA"
"-70.92","48.30","LA BAIE","706Q001","2019-02-24 12:00","2019","02","24","12:00","-2.2","","-8.7","","61","","","","12","","34","","","","98.80","","","","-10","","NA"
"-70.92","48.30","LA BAIE","706Q001","2019-02-24 13:00","2019","02","24","13:00","-3.1","","-7.2","","73","","","","10","","24","","","","98.65","","","","-10","","NA"
"-70.92","48.30","LA BAIE","706Q001","2019-02-24 14:00","2019","02","24","14:00","-4.5","","-6.2","","88","","","","9","","25","","","","98.40","","","","-12","","NA"
"-70.92","48.30","LA BAIE","706Q001","2019-02-24 15:00","2019","02","24","15:00","-4.6","","-6.4","","87","","","","9","","26","","","","98.10","","","","-12","","NA"
"-70.92","48.30","LA BAIE","706Q001","2019-02-24 16:00","2019","02","24","16:00","-4.5","","-6.8","","84","","","","9","","24","","","","97.99","","","","-12","","NA"
"-70.92","48.30","LA BAIE","706Q001","2019-02-24 17:00","2019","02","24","17:00","-4.7","","-6.6","","86","","","","9","","26","","","","97.79","","","","-12","","NA"
"-70.92","48.30","LA BAIE","706Q001","2019-02-24 18:00","2019","02","24","18:00","-4.6","","-6.8","","85","","","","10","","26","","","","97.58","","","","-12","","NA"
"-70.92","48.30","LA BAIE","706Q001","2019-02-24 19:00","2019","02","24","19:00","-4.6","","-7.4","","81","","","","9","","24","","","","97.45","","","","-12","","NA"
"-70.92","48.30","LA BAIE","706Q001","2019-02-24 20:00","2019","02","24","20:00","-4.5","","-7.8","","78","","","","9","","24","","","","97.26","","","","-12","","NA"
"-70.92","48.30","LA BAIE","706Q001","2019-02-24 21:00","2019","02","24","21:00","-5.0","","-7.8","","81","","","","9","","24","","","","97.07","","","","-12","","NA"
"-70.92","48.30","LA BAIE","706Q001","2019-02-24 22:00","2019","02","24","22:00","-5.4","","-8.1","","81","","","","10","","25","","","","96.89","","","","-13","","NA"
"-70.92","48.30","LA BAIE","706Q001","2019-02-24 23:00","2019","02","24","23:00","-6.2","","-7.7","","89","","","","9","","25","","","","96.77","","","","-14","","NA"
"-70.92","48.30","LA BAIE","706Q001","2019-02-25 00:00","2019","02","25","00:00","-5.9","","-8.9","","80","","","","10","","24","","","","96.69","","","","-13","","NA"
"-70.92","48.30","LA BAIE","706Q001","2019-02-25 01:00","2019","02","25","01:00","-6.4","","-8.2","","87","","","","9","","20","","","","96.65","","","","-13","","NA"
"-70.92","48.30","LA BAIE","706Q001","2019-02-25 02:00","2019","02","25","02:00","-7.0","","-8.8","","87","","","","9","","23","","","","96.57","","","","-15","","NA"
"-70.92","48.30","LA BAIE","706Q001","2019-02-25 03:00","2019","02","25","03:00","-7.4","","-9.5","","85","","","","10","","23","","","","96.49","","","","-15","","NA"
"-70.92","48.30","LA BAIE","706Q001","2019-02-25 04:00","2019","02","25","04:00","-7.6","","-9.8","","85","","","","9","","19","","","","96.45","","","","-15","","NA"
"-70.92","48.30","LA BAIE","706Q001","2019-02-25 05:00","2019","02","25","05:00","-7.6","","-9.8","","84","","","","9","","18","","","","96.40","","","","-14","","NA"
"-70.92","48.30","LA BAIE","706Q001","2019-02-25 06:00","2019","02","25","06:00","-7.6","","-9.7","","85","","","","8","","12","","","","96.36","","","","-13","","NA"
"-70.92","48.30","LA BAIE","706Q001","2019-02-25 07:00","2019","02","25","07:00","-7.7","","-9.2","","89","","","","8","","12","","","","96.32","","","","-13","","NA"
"-70.92","48.30","LA BAIE","706Q001","2019-02-25 08:00","2019","02","25","08:00","-7.4","","-9.2","","87","","","","4","","10","","","","96.30","","","","-12","","NA"
"-70.92","48.30","LA BAIE","706Q001","2019-02-25 09:00","2019","02","25","09:00","-6.4","","-9.2","","81","","","","7","","11","","","","96.31","","","","-11","","NA"
"-70.92","48.30","LA BAIE","706Q001","2019-02-25 10:00","2019","02","25","10:00","-6.1","","-9.0","","80","","","","6","","9","","","","96.36","","","","-10","","NA"
"-70.92","48.30","LA BAIE","706Q001","2019-02-25 11:00","2019","02","25","11:00","-5.6","","-9.1","","76","","","","7","","11","","","","96.40","","","","-10","","NA"
"-70.92","48.30","LA BAIE","706Q001","2019-02-25 12:00","2019","02","25","12:00","-5.5","","-8.5","","79","","","","5","","11","","","","96.44","","","","-10","","NA"
"-70.92","48.30","LA BAIE","706Q001","2019-02-25 13:00","2019","02","25","13:00","-5.7","","-8.2","","82","","","","5","","10","","","","96.48","","","","-10","","NA"
"-70.92","48.30","LA BAIE","706Q001","2019-02-25 14:00","2019","02","25","14:00","-6.0","","-7.4","","90","","","","33","","8","","","","96.69","","","","-10","","NA"
"-70.92","48.30","LA BAIE","706Q001","2019-02-25 15:00","2019","02","25","15:00","-8.1","","-11.0","","80","","","","28","","50","","","","97.04","","","","-19","","NA"
"-70.92","48.30","LA BAIE","706Q001","2019-02-25 16:00","2019","02","25","16:00","-9.9","","-12.4","","82","","","","28","","42","","","","97.34","","","","-21","","NA"
"-70.92","48.30","LA BAIE","706Q001","2019-02-25 17:00","2019","02","25","17:00","-11.3","","-14.1","","80","","","","28","","45","","","","97.67","","","","-23","","NA"
"-70.92","48.30","LA BAIE","706Q001","2019-02-25 18:00","2019","02","25","18:00","-13.6","","-16.4","","79","","","","28","","52","","","","97.99","","","","-27","","NA"
"-70.92","48.30","LA BAIE","706Q001","2019-02-25 19:00","2019","02","25","19:00","-14.5","","-17.1","","81","","","","28","","47","","","","98.20","","","","-28","","NA"
"-70.92","48.30","LA BAIE","706Q001","2019-02-25 20:00","2019","02","25","20:00","-15.4","","-18.5","","77","","","","27","","39","","","","98.44","","","","-28","","NA"
"-70.92","48.30","LA BAIE","706Q001","2019-02-25 21:00","2019","02","25","21:00","-16.2","","-19.4","","76","","","","28","","38","","","","98.59","","","","-29","","NA"
"-70.92","48.30","LA BAIE","706Q001","2019-02-25 22:00","2019","02","25","22:00","-17.2","","-20.4","","76","","","","28","","41","","","","98.77","","","","-31","","NA"
"-70.92","48.30","LA BAIE","706Q001","2019-02-25 23:00","2019","02","25","23:00","-17.8","","-21.0","","76","","","","28","","38","","","","98.89","","","","-31","","NA"
"-70.92","48.30","LA BAIE","706Q001","2019-02-26 00:00","2019","02","26","00:00","-18.7","","-22.8","","70","","","","28","","40","","","","99.01","","","","-32","","NA"
"-70.92","48.30","LA BAIE","706Q001","2019-02-26 01:00","2019","02","26","01:00","-19.2","","-23.0","","72","","","","28","","37","","","","99.13","","","","-33","","NA"
"-70.92","48.30","LA BAIE","706Q001","2019-02-26 02:00","2019","02","26","02:00","-19.5","","-23.4","","71","","","","29","","38","","","","99.25","","","","-33","","NA"
"-70.92","48.30","LA BAIE","706Q001","2019-02-26 03:00","2019","02","26","03:00","-20.3","","-24.2","","71","","","","29","","39","","","","99.32","","","","-34","","NA"
"-70.92","48.30","LA BAIE","706Q001","2019-02-26 04:00","2019","02","26","04:00","-20.5","","-23.9","","74","","","","28","","34","","","","99.41","","","","-34","","NA"
"-70.92","48.30","LA BAIE","706Q001","2019-02-26 05:00","2019","02","26","05:00","-21.3","","-25.4","","70","","","","29","","38","","","","99.51","","","","-36","","NA"
"-70.92","48.30","LA BAIE","706Q001","2019-02-26 06:00","2019","02","26","06:00","-22.0","","-26.0","","70","","","","28","","37","","","","99.59","","","","-36","","NA"
"-70.92","48.30","LA BAIE","706Q001","2019-02-26 07:00","2019","02","26","07:00","-22.4","","-26.6","","68","","","","28","","42","","","","99.69","","","","-38","","NA"
"-70.92","48.30","LA BAIE","706Q001","2019-02-26 08:00","2019","02","26","08:00","-22.7","","-27.9","","62","","","","28","","31","","","","99.70","","","","-36","","NA"
"-70.92","48.30","LA BAIE","706Q001","2019-02-26 09:00","2019","02","26","09:00","-22.6","","-27.9","","62","","","","29","","44","","","","99.70","","","","-38","","NA"
"-70.92","48.30","LA BAIE","706Q001","2019-02-26 10:00","2019","02","26","10:00","-22.3","","-27.8","","61","","","","29","","37","","","","99.74","","","","-37","","NA"
"-70.92","48.30","LA BAIE","706Q001","2019-02-26 11:00","2019","02","26","11:00","-21.8","","-27.4","","61","","","","29","","44","","","","99.74","","","","-37","","NA"
"-70.92","48.30","LA BAIE","706Q001","2019-02-26 12:00","2019","02","26","12:00","-21.1","","-27.0","","59","","","","28","","37","","","","99.74","","","","-35","","NA"
"-70.92","48.30","LA BAIE","706Q001","2019-02-26 13:00","2019","02","26","13:00","-20.2","","-26.4","","58","","","","29","","45","","","","99.70","","","","-35","","NA"
"-70.92","48.30","LA BAIE","706Q001","2019-02-26 14:00","2019","02","26","14:00","-19.8","","-26.2","","57","","","","29","","46","","","","99.77","","","","-35","","NA"
"-70.92","48.30","LA BAIE","706Q001","2019-02-26 15:00","2019","02","26","15:00","-19.8","","-25.9","","58","","","","28","","43","","","","99.86","","","","-34","","NA"
"-70.92","48.30","LA BAIE","706Q001","2019-02-26 16:00","2019","02","26","16:00","-19.8","","-25.9","","58","","","","28","","46","","","","99.95","","","","-35","","NA"
"-70.92","48.30","LA BAIE","706Q001","2019-02-26 17:00","2019","02","26","17:00","-19.8","","-25.2","","62","","","","28","","46","","","","100.03","","","","-35","","NA"
"-70.92","48.30","LA BAIE","706Q001","2019-02-26 18:00","2019","02","26","18:00","-20.0","","-25.3","","63","","","","29","","43","","","","100.15","","","","-35","","NA"
"-70.92","48.30","LA BAIE","706Q001","2019-02-26 19:00","2019","02","26","19:00","-20.4","","-25.5","","63","","","","28","","44","","","","100.25","","","","-35","","NA"
"-70.92","48.30","LA BAIE","706Q001","2019-02-26 20:00","2019","02","26","20:00","-21.0","","-26.3","","62","","","","29","","39","","","","100.34","","","","-35","","NA"
"-70.92","48.30","LA BAIE","706Q001","2019-02-26 21:00","2019","02","26","21:00","-21.2","","-26.6","","62","","","","28","","36","","","","100.43","","","","-35","","NA"
"-70.92","48.30","LA BAIE","706Q001","2019-02-26 22:00","2019","02","26","22:00","-21.5","","-26.8","","63","","","","28","","35","","","","100.47","","","","-35","","NA"
"-70.92","48.30","LA BAIE","706Q001","2019-02-26 23:00","2019","02","26","23:00","-21.9","","-27.1","","62","","","","28","","33","","","","100.56","","","","-36","","NA"
"-70.92","48.30","LA BAIE","706Q001","2019-02-27 00:00","2019","02","27","00:00","-22.4","","-27.5","","63","","","","28","","29","","","","100.64","","","","-36","","NA"
"-70.92","48.30","LA BAIE","706Q001","2019-02-27 01:00","2019","02","27","01:00","-22.6","","-27.7","","63","","","","27","","31","","","","100.72","","","","-36","","NA"
"-70.92","48.30","LA BAIE","706Q001","2019-02-27 02:00","2019","02","27","02:00","-22.9","","-28.0","","63","","","","27","","29","","","","100.78","","","","-36","","NA"
"-70.92","48.30","LA BAIE","706Q001","2019-02-27 03:00","2019","02","27","03:00","-23.2","","-28.0","","64","","","","27","","26","","","","100.76","","","","-36","","NA"
"-70.92","48.30","LA BAIE","706Q001","2019-02-27 04:00","2019","02","27","04:00","-23.5","","-28.3","","64","","","","27","","27","","","","100.76","","","","-37","","NA"
"-70.92","48.30","LA BAIE","706Q001","2019-02-27 05:00","2019","02","27","05:00","-23.5","","-28.3","","65","","","","27","","25","","","","100.76","","","","-36","","NA"
"-70.92","48.30","LA BAIE","706Q001","2019-02-27 06:00","2019","02","27","06:00","-23.6","","-28.4","","65","","","","27","","27","","","","100.80","","","","-37","","NA"
"-70.92","48.30","LA BAIE","706Q001","2019-02-27 07:00","2019","02","27","07:00","-23.7","","-28.4","","65","","","","27","","25","","","","100.84","","","","-36","","NA"
"-70.92","48.30","LA BAIE","706Q001","2019-02-27 08:00","2019","02","27","08:00","-23.3","","-28.4","","63","","","","28","","22","","","","100.88","","","","-35","","NA"
"-70.92","48.30","LA BAIE","706Q001","2019-02-27 09:00","2019","02","27","09:00","-22.3","","-27.8","","61","","","","28","","28","","","","100.88","","","","-35","","NA"
"-70.92","48.30","LA BAIE","706Q001","2019-02-27 10:00","2019","02","27","10:00","-20.9","","-27.2","","57","","","","29","","26","","","","100.80","","","","-33","","NA"
"-70.92","48.30","LA BAIE","706Q001","2019-02-27 11:00","2019","02","27","11:00","-19.7","","-26.2","","56","","","","29","","23","","","","100.68","","","","-31","","NA"
"-70.92","48.30","LA BAIE","706Q001","2019-02-27 12:00","2019","02","27","12:00","-18.5","","-25.5","","54","","","","27","","25","","","","100.64","","","","-30","","NA"
"-70.92","48.30","LA BAIE","706Q001","2019-02-27 13:00","2019","02","27","13:00","-17.7","","-24.6","","55","","","","29","","22","","","","100.51","","","","-28","","NA"
"-70.92","48.30","LA BAIE","706Q001","2019-02-27 14:00","2019","02","27","14:00","-17.1","","-24.4","","53","","","","30","","20","","","","100.39","","","","-27","","NA"
"-70.92","48.30","LA BAIE","706Q001","2019-02-27 15:00","2019","02","27","15:00","-16.2","","-24.0","","51","","","","30","","19","","","","100.35","","","","-25","","NA"
"-70.92","48.30","LA BAIE","706Q001","2019-02-27 16:00","2019","02","27","16:00","-16.0","","-23.6","","52","","","","30","","15","","","","100.35","","","","-24","","NA"
"-70.92","48.30","LA BAIE","706Q001","2019-02-27 17:00","2019","02","27","17:00","-16.6","","-23.6","","55","","","","29","","12","","","","100.35","","","","-24","","NA"
"-70.92","48.30","LA BAIE","706Q001","2019-02-27 18:00","2019","02","27","18:00","-20.7","","-25.4","","66","","","","25","","8","","","","100.27","","","","-27","","NA"
"-70.92","48.30","LA BAIE","706Q001","2019-02-27 19:00","2019","02","27","19:00","-23.3","","-27.1","","71","","","","22","","10","","","","100.23","","","","-31","","NA"
"-70.92","48.30","LA BAIE","706Q001","2019-02-27 20:00","2019","02","27","20:00","-24.1","","-27.5","","74","","","","21","","11","","","","100.19","","","","-33","","NA"
"-70.92","48.30","LA BAIE","706Q001","2019-02-27 21:00","2019","02","27","21:00","-23.6","","-26.9","","74","","","","23","","10","","","","100.15","","","","-32","","NA"
"-70.92","48.30","LA BAIE","706Q001","2019-02-27 22:00","2019","02","27","22:00","-24.1","","-27.2","","76","","","","23","","11","","","","100.07","","","","-33","","NA"
"-70.92","48.30","LA BAIE","706Q001","2019-02-27 23:00","2019","02","27","23:00","-26.5","","-29.3","","78","","","","12","","2","","","","100.06","","","","-29","","NA"
"-70.92","48.30","LA BAIE","706Q001","2019-02-28 00:00","2019","02","28","00:00","-27.2","","-29.5","","81","","","","15","","5","","","","100.07","","","","-32","","NA"
"-70.92","48.30","LA BAIE","706Q001","2019-02-28 01:00","2019","02","28","01:00","-27.8","","-30.3","","79","","","","19","","6","","","","100.07","","","","-34","","NA"
"-70.92","48.30","LA BAIE","706Q001","2019-02-28 02:00","2019","02","28","02:00","-29.1","","-32.1","","75","","","","14","","5","","","","100.04","","","","-35","","NA"
"-70.92","48.30","LA BAIE","706Q001","2019-02-28 03:00","2019","02","28","03:00","-29.9","","-32.9","","75","","","","20","","1","","","","100.00","","","","-31","","NA"
"-70.92","48.30","LA BAIE","706Q001","2019-02-28 04:00","2019","02","28","04:00","-30.3","","-33.3","","75","","","","22","","5","","","","100.03","","","","-36","","NA"
"-70.92","48.30","LA BAIE","706Q001","2019-02-28 05:00","2019","02","28","05:00","-31.7","","-35.0","","73","","","","22","","3","","","","100.03","","","","-35","","NA"
"-70.92","48.30","LA BAIE","706Q001","2019-02-28 06:00","2019","02","28","06:00","-31.3","","-34.3","","75","","","","20","","2","","","","100.07","","","","-34","","NA"
"-70.92","48.30","LA BAIE","706Q001","2019-02-28 07:00","2019","02","28","07:00","-32.0","","-35.1","","74","","","","18","","2","","","","100.15","","","","-34","","NA"
"-70.92","48.30","LA BAIE","706Q001","2019-02-28 08:00","2019","02","28","08:00","-26.3","","-29.5","","75","","","","12","","4","","","","100.19","","","","-30","","NA"
"-70.92","48.30","LA BAIE","706Q001","2019-02-28 09:00","2019","02","28","09:00","-21.8","","-28.0","","57","","","","8","","1","","","","100.19","","","","-23","","NA"
"-70.92","48.30","LA BAIE","706Q001","2019-02-28 10:00","2019","02","28","10:00","-19.7","","-25.3","","61","","","","5","","5","","","","100.19","","","","-24","","NA"
"-70.92","48.30","LA BAIE","706Q001","2019-02-28 11:00","2019","02","28","11:00","-15.5","","-21.9","","58","","","","33","","8","","","","100.19","","","","-21","","NA"
"-70.92","48.30","LA BAIE","706Q001","2019-02-28 12:00","2019","02","28","12:00","-13.0","","-19.5","","58","","","","29","","16","","","","100.15","","","","-21","","NA"
"-70.92","48.30","LA BAIE","706Q001","2019-02-28 13:00","2019","02","28","13:00","-11.9","","-19.0","","56","","","","30","","19","","","","100.15","","","","-20","","NA"
"-70.92","48.30","LA BAIE","706Q001","2019-02-28 14:00","2019","02","28","14:00","-11.1","","-18.3","","55","","","","31","","16","","","","100.15","","","","-18","","NA"
"-70.92","48.30","LA BAIE","706Q001","2019-02-28 15:00","2019","02","28","15:00","-10.3","","-18.1","","52","","","","30","","15","","","","100.19","","","","-17","","NA"
"-70.92","48.30","LA BAIE","706Q001","2019-02-28 16:00","2019","02","28","16:00","-10.1","","-19.1","","48","","","","30","","17","","","","100.19","","","","-17","","NA"
"-70.92","48.30","LA BAIE","706Q001","2019-02-28 17:00","2019","02","28","17:00","-11.1","","-19.3","","51","","","","29","","10","","","","100.19","","","","-17","","NA"
"-70.92","48.30","LA BAIE","706Q001","2019-02-28 18:00","2019","02","28","18:00","-16.0","","-20.9","","66","","","","23","","5","","","","100.23","","","","-20","","NA"
"-70.92","48.30","LA BAIE","706Q001","2019-02-28 19:00","2019","02","28","19:00","-18.6","","-22.3","","72","","","","21","","10","","","","100.30","","","","-26","","NA"
"-70.92","48.30","LA BAIE","706Q001","2019-02-28 20:00","2019","02","28","20:00","-20.5","","-23.5","","77","","","","15","","8","","","","100.29","","","","-27","","NA"
"-70.92","48.30","LA BAIE","706Q001","2019-02-28 21:00","2019","02","28","21:00","-21.4","","-24.1","","78","","","","21","","8","","","","100.35","","","","-28","","NA"
"-70.92","48.30","LA BAIE","706Q001","2019-02-28 22:00","2019","02","28","22:00","-22.8","","-24.8","","83","","","","14","","8","","","","100.39","","","","-30","","NA"
"-70.92","48.30","LA BAIE","706Q001","2019-02-28 23:00","2019","02","28","23:00","-20.0","","-21.6","","87","","","","17","","11","","","","100.35","","","","-28","","NA"
