"Longitude (x)","Latitude (y)","Station Name","Climate ID","Date/Time (LST)","Year","Month","Day","Time (LST)","Temp (°C)","Temp Flag","Dew Point Temp (°C)","Dew Point Temp Flag","Rel Hum (%)","Rel Hum Flag","Precip. Amount (mm)","Precip. Amount Flag","Wind Dir (10s deg)","Wind Dir Flag","Wind Spd (km/h)","Wind Spd Flag","Visibility (km)","Visibility Flag","Stn Press (kPa)","Stn Press Flag","Hmdx","Hmdx Flag","Wind Chill","Wind Chill Flag","Weather"
"-122.78","49.02","WHITE ROCK CAMPBELL SCIENTIFIC","1108910","2018-01-01 00:00","2018","01","01","00:00","-2.1","","-4.0","","87","","","","3","","5","","","","102.63","","","","-4","","NA"
"-122.78","49.02","WHITE ROCK CAMPBELL SCIENTIFIC","1108910","2018-01-01 01:00","2018","01","01","01:00","-2.2","","-4.2","","86","","","","3","","5","","","","102.67","","","","-4","","NA"
"-122.78","49.02","WHITE ROCK CAMPBELL SCIENTIFIC","1108910","2018-01-01 02:00","2018","01","01","02:00","-2.4","","-4.3","","87","","","","4","","4","","","","102.72","","","","-4","","NA"
"-122.78","49.02","WHITE ROCK CAMPBELL SCIENTIFIC","1108910","2018-01-01 03:00","2018","01","01","03:00","-2.4","","-4.6","","85","","","","3","","6","","","","102.75","","","","-5","","NA"
"-122.78","49.02","WHITE ROCK CAMPBELL SCIENTIFIC","1108910","2018-01-01 04:00","2018","01","01","04:00","-2.4","","-4.6","","85","","","","3","","7","","","","102.78","","","","-5","","NA"
"-122.78","49.02","WHITE ROCK CAMPBELL SCIENTIFIC","1108910","2018-01-01 05:00","2018","01","01","05:00","-2.6","","-4.8","","85","","","","3","","6","","","","102.80","","","","-5","","NA"
"-122.78","49.02","WHITE ROCK CAMPBELL SCIENTIFIC","1108910","2018-01-01 06:00","2018","01","01","06:00","-2.9","","-5.1","","85","","","","4","","5","","","","102.87","","","","-5","","NA"
"-122.78","49.02","WHITE ROCK CAMPBELL SCIENTIFIC","1108910","2018-01-01 07:00","2018","01","01","07:00","-2.8","","-4.8","","86","","","","5","","3","","","","102.91","","","","-4","","NA"
"-122.78","49.02","WHITE ROCK CAMPBELL SCIENTIFIC","1108910","2018-01-01 08:00","2018","01","01","08:00","-2.3","","-4.6","","84","","","","3","","5","","","","102.94","","","","-4","","NA"
"-122.78","49.02","WHITE ROCK CAMPBELL SCIENTIFIC","1108910","2018-01-01 09:00","2018","01","01","09:00","-1.8","","-4.5","","82","","","","4","","6","","","","102.96","","","","-4","","NA"
"-122.78","49.02","WHITE ROCK CAMPBELL SCIENTIFIC","1108910","2018-01-01 10:00","2018","01","01","10:00","-1.2","","-4.2","","80","","","","6","","3","","","","103.02","","","","-2","","NA"
"-122.78","49.02","WHITE ROCK CAMPBELL SCIENTIFIC","1108910","2018-01-01 11:00","2018","01","01","11:00","1.4","","-3.6","","69","","","","8","","4","","","","103.04","","","","","","NA"
"-122.78","49.02","WHITE ROCK CAMPBELL SCIENTIFIC","1108910","2018-01-01 12:00","2018","01","01","12:00","3.3","","-2.5","","66","","","","7","","4","","","","103.00","","","","","","NA"
"-122.78","49.02","WHITE ROCK CAMPBELL SCIENTIFIC","1108910","2018-01-01 13:00","2018","01","01","13:00","3.2","","-1.8","","70","","","","11","","4","","","","102.97","","","","","","NA"
"-122.78","49.02","WHITE ROCK CAMPBELL SCIENTIFIC","1108910","2018-01-01 14:00","2018","01","01","14:00","3.5","","-1.4","","71","","","","3","","3","","","","102.98","","","","","","NA"
"-122.78","49.02","WHITE ROCK CAMPBELL SCIENTIFIC","1108910","2018-01-01 15:00","2018","01","01","15:00","3.2","","-1.5","","71","","","","17","","1","","","","103.00","","","","","","NA"
"-122.78","49.02","WHITE ROCK CAMPBELL SCIENTIFIC","1108910","2018-01-01 16:00","2018","01","01","16:00","2.2","","-1.9","","75","","","","7","","2","","","","103.04","","","","","","NA"
"-122.78","49.02","WHITE ROCK CAMPBELL SCIENTIFIC","1108910","2018-01-01 17:00","2018","01","01","17:00","0.5","","-1.9","","84","","","","35","","1","","","","103.07","","","","","","NA"
"-122.78","49.02","WHITE ROCK CAMPBELL SCIENTIFIC","1108910","2018-01-01 18:00","2018","01","01","18:00","-0.5","","-2.4","","87","","","","4","","3","","","","103.06","","","","-1","","NA"
"-122.78","49.02","WHITE ROCK CAMPBELL SCIENTIFIC","1108910","2018-01-01 19:00","2018","01","01","19:00","-0.7","","-2.7","","87","","","","3","","5","","","","103.03","","","","-2","","NA"
"-122.78","49.02","WHITE ROCK CAMPBELL SCIENTIFIC","1108910","2018-01-01 20:00","2018","01","01","20:00","-0.8","","-2.5","","88","","","","3","","5","","","","103.01","","","","-2","","NA"
"-122.78","49.02","WHITE ROCK CAMPBELL SCIENTIFIC","1108910","2018-01-01 21:00","2018","01","01","21:00","-1.2","","-2.9","","88","","","","1","","4","","","","103.03","","","","-3","","NA"
"-122.78","49.02","WHITE ROCK CAMPBELL SCIENTIFIC","1108910","2018-01-01 22:00","2018","01","01","22:00","-1.2","","-3.1","","87","","","","2","","6","","","","103.02","","","","-3","","NA"
"-122.78","49.02","WHITE ROCK CAMPBELL SCIENTIFIC","1108910","2018-01-01 23:00","2018","01","01","23:00","-1.4","","-2.8","","90","","","","2","","6","","","","103.04","","","","-4","","NA"
"-122.78","49.02","WHITE ROCK CAMPBELL SCIENTIFIC","1108910","2018-01-02 00:00","2018","01","02","00:00","-1.4","","-3.0","","89","","","","3","","4","","","","103.05","","","","-3","","NA"
"-122.78","49.02","WHITE ROCK CAMPBELL SCIENTIFIC","1108910","2018-01-02 01:00","2018","01","02","01:00","-1.7","","-3.2","","89","","","","7","","1","","","","103.03","","","","-2","","NA"
"-122.78","49.02","WHITE ROCK CAMPBELL SCIENTIFIC","1108910","2018-01-02 02:00","2018","01","02","02:00","-1.4","","-3.0","","89","","","","3","","4","","","","103.03","","","","-3","","NA"
"-122.78","49.02","WHITE ROCK CAMPBELL SCIENTIFIC","1108910","2018-01-02 03:00","2018","01","02","03:00","-2.6","","-3.7","","92","","","","0","","1","","","","103.02","","","","-3","","NA"
"-122.78","49.02","WHITE ROCK CAMPBELL SCIENTIFIC","1108910","2018-01-02 04:00","2018","01","02","04:00","-2.9","","-3.7","","94","","","","","","0","","","","103.00","","","","","","NA"
"-122.78","49.02","WHITE ROCK CAMPBELL SCIENTIFIC","1108910","2018-01-02 05:00","2018","01","02","05:00","-2.8","","-3.6","","94","","","","11","","2","","","","102.95","","","","-4","","NA"
"-122.78","49.02","WHITE ROCK CAMPBELL SCIENTIFIC","1108910","2018-01-02 06:00","2018","01","02","06:00","-1.9","","-2.7","","94","","","","2","","4","","","","102.89","","","","-3","","NA"
"-122.78","49.02","WHITE ROCK CAMPBELL SCIENTIFIC","1108910","2018-01-02 07:00","2018","01","02","07:00","-1.9","","-3.0","","92","","","","4","","1","","","","102.87","","","","-2","","NA"
"-122.78","49.02","WHITE ROCK CAMPBELL SCIENTIFIC","1108910","2018-01-02 08:00","2018","01","02","08:00","-1.0","","-2.7","","88","","","","0","","1","","","","102.80","","","","-1","","NA"
"-122.78","49.02","WHITE ROCK CAMPBELL SCIENTIFIC","1108910","2018-01-02 09:00","2018","01","02","09:00","-0.4","","-1.7","","91","","","","2","","3","","","","102.79","","","","-1","","NA"
"-122.78","49.02","WHITE ROCK CAMPBELL SCIENTIFIC","1108910","2018-01-02 10:00","2018","01","02","10:00","0.4","","-1.8","","85","","","","3","","3","","","","102.82","","","","","","NA"
"-122.78","49.02","WHITE ROCK CAMPBELL SCIENTIFIC","1108910","2018-01-02 11:00","2018","01","02","11:00","1.3","","-1.0","","85","","","","0","","1","","","","102.79","","","","","","NA"
"-122.78","49.02","WHITE ROCK CAMPBELL SCIENTIFIC","1108910","2018-01-02 12:00","2018","01","02","12:00","2.7","","-0.3","","81","","","","13","","2","","","","102.71","","","","","","NA"
"-122.78","49.02","WHITE ROCK CAMPBELL SCIENTIFIC","1108910","2018-01-02 13:00","2018","01","02","13:00","3.1","","-0.4","","78","","","","10","","3","","","","102.63","","","","","","NA"
"-122.78","49.02","WHITE ROCK CAMPBELL SCIENTIFIC","1108910","2018-01-02 14:00","2018","01","02","14:00","3.2","","0.1","","80","","","","18","","2","","","","102.59","","","","","","NA"
"-122.78","49.02","WHITE ROCK CAMPBELL SCIENTIFIC","1108910","2018-01-02 15:00","2018","01","02","15:00","3.0","","-0.1","","80","","","","16","","1","","","","102.52","","","","","","NA"
"-122.78","49.02","WHITE ROCK CAMPBELL SCIENTIFIC","1108910","2018-01-02 16:00","2018","01","02","16:00","2.5","","0.0","","84","","","","11","","2","","","","102.51","","","","","","NA"
"-122.78","49.02","WHITE ROCK CAMPBELL SCIENTIFIC","1108910","2018-01-02 17:00","2018","01","02","17:00","2.1","","0.0","","86","","","","","","0","","","","102.50","","","","","","NA"
"-122.78","49.02","WHITE ROCK CAMPBELL SCIENTIFIC","1108910","2018-01-02 18:00","2018","01","02","18:00","2.0","","0.0","","87","","","","0","","1","","","","102.48","","","","","","NA"
"-122.78","49.02","WHITE ROCK CAMPBELL SCIENTIFIC","1108910","2018-01-02 19:00","2018","01","02","19:00","1.8","","-0.1","","87","","","","3","","6","","","","102.45","","","","","","NA"
"-122.78","49.02","WHITE ROCK CAMPBELL SCIENTIFIC","1108910","2018-01-02 20:00","2018","01","02","20:00","1.7","","-0.1","","88","","","","4","","1","","","","102.45","","","","","","NA"
"-122.78","49.02","WHITE ROCK CAMPBELL SCIENTIFIC","1108910","2018-01-02 21:00","2018","01","02","21:00","1.1","","-0.3","","90","","","","9","","2","","","","102.42","","","","","","NA"
"-122.78","49.02","WHITE ROCK CAMPBELL SCIENTIFIC","1108910","2018-01-02 22:00","2018","01","02","22:00","1.4","","-0.2","","89","","","","7","","1","","","","102.41","","","","","","NA"
"-122.78","49.02","WHITE ROCK CAMPBELL SCIENTIFIC","1108910","2018-01-02 23:00","2018","01","02","23:00","1.5","","0.2","","91","","","","2","","6","","","","102.40","","","","","","NA"
"-122.78","49.02","WHITE ROCK CAMPBELL SCIENTIFIC","1108910","2018-01-03 00:00","2018","01","03","00:00","1.9","","0.6","","91","","","","36","","3","","","","102.39","","","","","","NA"
"-122.78","49.02","WHITE ROCK CAMPBELL SCIENTIFIC","1108910","2018-01-03 01:00","2018","01","03","01:00","1.1","","0.0","","92","","","","0","","1","","","","102.37","","","","","","NA"
"-122.78","49.02","WHITE ROCK CAMPBELL SCIENTIFIC","1108910","2018-01-03 02:00","2018","01","03","02:00","0.6","","-0.4","","93","","","","0","","1","","","","102.39","","","","","","NA"
"-122.78","49.02","WHITE ROCK CAMPBELL SCIENTIFIC","1108910","2018-01-03 03:00","2018","01","03","03:00","-0.4","","-1.1","","95","","","","","","0","","","","102.39","","","","","","NA"
"-122.78","49.02","WHITE ROCK CAMPBELL SCIENTIFIC","1108910","2018-01-03 04:00","2018","01","03","04:00","-0.9","","-1.4","","96","","","","0","","1","","","","102.39","","","","-1","","NA"
"-122.78","49.02","WHITE ROCK CAMPBELL SCIENTIFIC","1108910","2018-01-03 05:00","2018","01","03","05:00","-1.1","","-1.5","","97","","","","5","","1","","","","102.35","","","","-1","","NA"
"-122.78","49.02","WHITE ROCK CAMPBELL SCIENTIFIC","1108910","2018-01-03 06:00","2018","01","03","06:00","-0.4","","-0.7","","98","","","","3","","3","","","","102.34","","","","-1","","NA"
"-122.78","49.02","WHITE ROCK CAMPBELL SCIENTIFIC","1108910","2018-01-03 07:00","2018","01","03","07:00","-1.2","","-1.6","","97","","","","0","","1","","","","102.27","","","","-2","","NA"
"-122.78","49.02","WHITE ROCK CAMPBELL SCIENTIFIC","1108910","2018-01-03 08:00","2018","01","03","08:00","-1.4","","-1.8","","97","","","","","","0","","","","102.25","","","","","","NA"
"-122.78","49.02","WHITE ROCK CAMPBELL SCIENTIFIC","1108910","2018-01-03 09:00","2018","01","03","09:00","0.2","","-0.1","","98","","","","6","","2","","","","102.28","","","","","","NA"
"-122.78","49.02","WHITE ROCK CAMPBELL SCIENTIFIC","1108910","2018-01-03 10:00","2018","01","03","10:00","2.0","","1.6","","98","","","","36","","3","","","","102.27","","","","","","NA"
"-122.78","49.02","WHITE ROCK CAMPBELL SCIENTIFIC","1108910","2018-01-03 11:00","2018","01","03","11:00","2.2","","1.7","","96","","","","18","","2","","","","102.25","","","","","","NA"
"-122.78","49.02","WHITE ROCK CAMPBELL SCIENTIFIC","1108910","2018-01-03 12:00","2018","01","03","12:00","2.2","","1.7","","96","","","","13","","2","","","","102.15","","","","","","NA"
"-122.78","49.02","WHITE ROCK CAMPBELL SCIENTIFIC","1108910","2018-01-03 13:00","2018","01","03","13:00","2.0","","1.4","","96","","","","8","","3","","","","102.06","","","","","","NA"
"-122.78","49.02","WHITE ROCK CAMPBELL SCIENTIFIC","1108910","2018-01-03 14:00","2018","01","03","14:00","2.5","","1.7","","95","","","","7","","3","","","","101.99","","","","","","NA"
"-122.78","49.02","WHITE ROCK CAMPBELL SCIENTIFIC","1108910","2018-01-03 15:00","2018","01","03","15:00","2.3","","1.5","","95","","","","20","","1","","","","101.98","","","","","","NA"
"-122.78","49.02","WHITE ROCK CAMPBELL SCIENTIFIC","1108910","2018-01-03 16:00","2018","01","03","16:00","1.5","","0.8","","96","","","","5","","4","","","","101.91","","","","","","NA"
"-122.78","49.02","WHITE ROCK CAMPBELL SCIENTIFIC","1108910","2018-01-03 17:00","2018","01","03","17:00","1.4","","0.9","","97","","","","36","","1","","","","101.90","","","","","","NA"
"-122.78","49.02","WHITE ROCK CAMPBELL SCIENTIFIC","1108910","2018-01-03 18:00","2018","01","03","18:00","0.7","","0.4","","98","","","","30","","2","","","","101.88","","","","","","NA"
"-122.78","49.02","WHITE ROCK CAMPBELL SCIENTIFIC","1108910","2018-01-03 19:00","2018","01","03","19:00","0.5","","0.2","","98","","","","35","","1","","","","101.88","","","","","","NA"
"-122.78","49.02","WHITE ROCK CAMPBELL SCIENTIFIC","1108910","2018-01-03 20:00","2018","01","03","20:00","0.7","","0.5","","98","","","","4","","2","","","","101.85","","","","","","NA"
"-122.78","49.02","WHITE ROCK CAMPBELL SCIENTIFIC","1108910","2018-01-03 21:00","2018","01","03","21:00","0.8","","0.6","","99","","","","0","","1","","","","101.80","","","","","","NA"
"-122.78","49.02","WHITE ROCK CAMPBELL SCIENTIFIC","1108910","2018-01-03 22:00","2018","01","03","22:00","0.4","","0.3","","99","","","","2","","5","","","","101.76","","","","","","NA"
"-122.78","49.02","WHITE ROCK CAMPBELL SCIENTIFIC","1108910","2018-01-03 23:00","2018","01","03","23:00","-0.1","","-0.2","","99","","","","36","","4","","","","101.72","","","","-1","","NA"
"-122.78","49.02","WHITE ROCK CAMPBELL SCIENTIFIC","1108910","2018-01-04 00:00","2018","01","04","00:00","-0.8","","-0.8","","99","","","","0","","1","","","","101.66","","","","-1","","NA"
"-122.78","49.02","WHITE ROCK CAMPBELL SCIENTIFIC","1108910","2018-01-04 01:00","2018","01","04","01:00","-1.0","","-1.1","","100","","","","4","","4","","","","101.64","","","","-2","","NA"
"-122.78","49.02","WHITE ROCK CAMPBELL SCIENTIFIC","1108910","2018-01-04 02:00","2018","01","04","02:00","-1.3","","-1.4","","99","","","","6","","2","","","","101.66","","","","-2","","NA"
"-122.78","49.02","WHITE ROCK CAMPBELL SCIENTIFIC","1108910","2018-01-04 03:00","2018","01","04","03:00","-1.3","","-1.4","","99","","","","1","","4","","","","101.67","","","","-3","","NA"
"-122.78","49.02","WHITE ROCK CAMPBELL SCIENTIFIC","1108910","2018-01-04 04:00","2018","01","04","04:00","-1.3","","-1.4","","99","","","","6","","3","","","","101.64","","","","-2","","NA"
"-122.78","49.02","WHITE ROCK CAMPBELL SCIENTIFIC","1108910","2018-01-04 05:00","2018","01","04","05:00","-0.5","","-0.7","","99","","","","1","","5","","","","101.59","","","","-2","","NA"
"-122.78","49.02","WHITE ROCK CAMPBELL SCIENTIFIC","1108910","2018-01-04 06:00","2018","01","04","06:00","-0.4","","-0.6","","99","","","","8","","2","","","","101.57","","","","-1","","NA"
"-122.78","49.02","WHITE ROCK CAMPBELL SCIENTIFIC","1108910","2018-01-04 07:00","2018","01","04","07:00","0.1","","-0.1","","99","","","","4","","3","","","","101.54","","","","","","NA"
"-122.78","49.02","WHITE ROCK CAMPBELL SCIENTIFIC","1108910","2018-01-04 08:00","2018","01","04","08:00","0.9","","0.7","","98","","","","","","0","","","","101.56","","","","","","NA"
"-122.78","49.02","WHITE ROCK CAMPBELL SCIENTIFIC","1108910","2018-01-04 09:00","2018","01","04","09:00","1.2","","0.9","","98","","","","3","","4","","","","101.59","","","","","","NA"
"-122.78","49.02","WHITE ROCK CAMPBELL SCIENTIFIC","1108910","2018-01-04 10:00","2018","01","04","10:00","2.4","","2.0","","97","","","","7","","3","","","","101.62","","","","","","NA"
"-122.78","49.02","WHITE ROCK CAMPBELL SCIENTIFIC","1108910","2018-01-04 11:00","2018","01","04","11:00","3.2","","1.6","","90","","","","17","","3","","","","101.57","","","","","","NA"
"-122.78","49.02","WHITE ROCK CAMPBELL SCIENTIFIC","1108910","2018-01-04 12:00","2018","01","04","12:00","4.1","","1.2","","82","","","","6","","5","","","","101.54","","","","","","NA"
"-122.78","49.02","WHITE ROCK CAMPBELL SCIENTIFIC","1108910","2018-01-04 13:00","2018","01","04","13:00","4.9","","1.6","","79","","","","5","","5","","","","101.48","","","","","","NA"
"-122.78","49.02","WHITE ROCK CAMPBELL SCIENTIFIC","1108910","2018-01-04 14:00","2018","01","04","14:00","5.1","","1.2","","76","","","","4","","5","","","","101.47","","","","","","NA"
"-122.78","49.02","WHITE ROCK CAMPBELL SCIENTIFIC","1108910","2018-01-04 15:00","2018","01","04","15:00","5.2","","1.9","","80","","","","5","","5","","","","101.46","","","","","","NA"
"-122.78","49.02","WHITE ROCK CAMPBELL SCIENTIFIC","1108910","2018-01-04 16:00","2018","01","04","16:00","5.0","","1.7","","79","","","","7","","4","","","","101.48","","","","","","NA"
"-122.78","49.02","WHITE ROCK CAMPBELL SCIENTIFIC","1108910","2018-01-04 17:00","2018","01","04","17:00","4.6","","1.5","","80","","","","6","","4","","","","101.46","","","","","","NA"
"-122.78","49.02","WHITE ROCK CAMPBELL SCIENTIFIC","1108910","2018-01-04 18:00","2018","01","04","18:00","5.1","","1.7","","78","","","","5","","3","","","","101.41","","","","","","NA"
"-122.78","49.02","WHITE ROCK CAMPBELL SCIENTIFIC","1108910","2018-01-04 19:00","2018","01","04","19:00","5.4","","1.4","","75","","","","6","","4","","","","101.42","","","","","","NA"
"-122.78","49.02","WHITE ROCK CAMPBELL SCIENTIFIC","1108910","2018-01-04 20:00","2018","01","04","20:00","6.0","","1.5","","73","","","","6","","4","","","","101.40","","","","","","NA"
"-122.78","49.02","WHITE ROCK CAMPBELL SCIENTIFIC","1108910","2018-01-04 21:00","2018","01","04","21:00","4.8","","0.9","","76","","","","16","","3","","","","101.48","","","","","","NA"
"-122.78","49.02","WHITE ROCK CAMPBELL SCIENTIFIC","1108910","2018-01-04 22:00","2018","01","04","22:00","4.9","","1.4","","78","","","","7","","4","","","","101.46","","","","","","NA"
"-122.78","49.02","WHITE ROCK CAMPBELL SCIENTIFIC","1108910","2018-01-04 23:00","2018","01","04","23:00","5.7","","1.0","","72","","","","6","","8","","","","101.41","","","","","","NA"
"-122.78","49.02","WHITE ROCK CAMPBELL SCIENTIFIC","1108910","2018-01-05 00:00","2018","01","05","00:00","5.3","","1.6","","77","","","","9","","3","","","","101.45","","","","","","NA"
"-122.78","49.02","WHITE ROCK CAMPBELL SCIENTIFIC","1108910","2018-01-05 01:00","2018","01","05","01:00","5.0","","3.6","","90","","","","9","","3","","","","101.40","","","","","","NA"
"-122.78","49.02","WHITE ROCK CAMPBELL SCIENTIFIC","1108910","2018-01-05 02:00","2018","01","05","02:00","4.2","","3.2","","94","","","","","","0","","","","101.38","","","","","","NA"
"-122.78","49.02","WHITE ROCK CAMPBELL SCIENTIFIC","1108910","2018-01-05 03:00","2018","01","05","03:00","4.7","","3.9","","95","","","","8","","3","","","","101.37","","","","","","NA"
"-122.78","49.02","WHITE ROCK CAMPBELL SCIENTIFIC","1108910","2018-01-05 04:00","2018","01","05","04:00","5.7","","4.7","","93","","","","7","","5","","","","101.31","","","","","","NA"
"-122.78","49.02","WHITE ROCK CAMPBELL SCIENTIFIC","1108910","2018-01-05 05:00","2018","01","05","05:00","5.9","","4.7","","92","","","","8","","5","","","","101.27","","","","","","NA"
"-122.78","49.02","WHITE ROCK CAMPBELL SCIENTIFIC","1108910","2018-01-05 06:00","2018","01","05","06:00","6.4","","5.1","","91","","","","6","","6","","","","101.24","","","","","","NA"
"-122.78","49.02","WHITE ROCK CAMPBELL SCIENTIFIC","1108910","2018-01-05 07:00","2018","01","05","07:00","6.0","","5.0","","93","","","","","","0","","","","101.27","","","","","","NA"
"-122.78","49.02","WHITE ROCK CAMPBELL SCIENTIFIC","1108910","2018-01-05 08:00","2018","01","05","08:00","5.6","","4.6","","93","","","","20","","2","","","","101.29","","","","","","NA"
"-122.78","49.02","WHITE ROCK CAMPBELL SCIENTIFIC","1108910","2018-01-05 09:00","2018","01","05","09:00","5.0","","4.1","","94","","","","16","","3","","","","101.34","","","","","","NA"
"-122.78","49.02","WHITE ROCK CAMPBELL SCIENTIFIC","1108910","2018-01-05 10:00","2018","01","05","10:00","5.6","","4.9","","95","","","","10","","2","","","","101.32","","","","","","NA"
"-122.78","49.02","WHITE ROCK CAMPBELL SCIENTIFIC","1108910","2018-01-05 11:00","2018","01","05","11:00","5.7","","4.9","","95","","","","15","","2","","","","101.33","","","","","","NA"
"-122.78","49.02","WHITE ROCK CAMPBELL SCIENTIFIC","1108910","2018-01-05 12:00","2018","01","05","12:00","7.1","","6.5","","96","","","","7","","4","","","","101.26","","","","","","NA"
"-122.78","49.02","WHITE ROCK CAMPBELL SCIENTIFIC","1108910","2018-01-05 13:00","2018","01","05","13:00","7.2","","6.4","","95","","","","9","","2","","","","101.26","","","","","","NA"
"-122.78","49.02","WHITE ROCK CAMPBELL SCIENTIFIC","1108910","2018-01-05 14:00","2018","01","05","14:00","7.6","","6.7","","94","","","","6","","3","","","","101.24","","","","","","NA"
"-122.78","49.02","WHITE ROCK CAMPBELL SCIENTIFIC","1108910","2018-01-05 15:00","2018","01","05","15:00","7.8","","6.9","","94","","","","4","","7","","","","101.27","","","","","","NA"
"-122.78","49.02","WHITE ROCK CAMPBELL SCIENTIFIC","1108910","2018-01-05 16:00","2018","01","05","16:00","8.4","","7.6","","95","","","","2","","4","","","","101.30","","","","","","NA"
"-122.78","49.02","WHITE ROCK CAMPBELL SCIENTIFIC","1108910","2018-01-05 17:00","2018","01","05","17:00","7.4","","6.7","","95","","","","8","","2","","","","101.32","","","","","","NA"
"-122.78","49.02","WHITE ROCK CAMPBELL SCIENTIFIC","1108910","2018-01-05 18:00","2018","01","05","18:00","7.6","","6.8","","94","","","","4","","6","","","","101.31","","","","","","NA"
"-122.78","49.02","WHITE ROCK CAMPBELL SCIENTIFIC","1108910","2018-01-05 19:00","2018","01","05","19:00","8.7","","7.7","","93","","","","9","","6","","","","101.32","","","","","","NA"
"-122.78","49.02","WHITE ROCK CAMPBELL SCIENTIFIC","1108910","2018-01-05 20:00","2018","01","05","20:00","9.0","","7.9","","93","","","","0","","1","","","","101.35","","","","","","NA"
"-122.78","49.02","WHITE ROCK CAMPBELL SCIENTIFIC","1108910","2018-01-05 21:00","2018","01","05","21:00","9.2","","8.2","","93","","","","10","","3","","","","101.37","","","","","","NA"
"-122.78","49.02","WHITE ROCK CAMPBELL SCIENTIFIC","1108910","2018-01-05 22:00","2018","01","05","22:00","9.3","","8.3","","94","","","","7","","2","","","","101.41","","","","","","NA"
"-122.78","49.02","WHITE ROCK CAMPBELL SCIENTIFIC","1108910","2018-01-05 23:00","2018","01","05","23:00","9.7","","8.2","","90","","","","15","","4","","","","101.49","","","","","","NA"
"-122.78","49.02","WHITE ROCK CAMPBELL SCIENTIFIC","1108910","2018-01-06 00:00","2018","01","06","00:00","8.6","","7.7","","94","","","","27","","2","","","","101.57","","","","","","NA"
"-122.78","49.02","WHITE ROCK CAMPBELL SCIENTIFIC","1108910","2018-01-06 01:00","2018","01","06","01:00","6.8","","6.0","","95","","","","20","","2","","","","101.60","","","","","","NA"
"-122.78","49.02","WHITE ROCK CAMPBELL SCIENTIFIC","1108910","2018-01-06 02:00","2018","01","06","02:00","6.2","","5.7","","96","","","","26","","3","","","","101.71","","","","","","NA"
"-122.78","49.02","WHITE ROCK CAMPBELL SCIENTIFIC","1108910","2018-01-06 03:00","2018","01","06","03:00","5.9","","5.4","","96","","","","26","","4","","","","101.78","","","","","","NA"
"-122.78","49.02","WHITE ROCK CAMPBELL SCIENTIFIC","1108910","2018-01-06 04:00","2018","01","06","04:00","5.9","","5.3","","96","","","","23","","2","","","","101.79","","","","","","NA"
"-122.78","49.02","WHITE ROCK CAMPBELL SCIENTIFIC","1108910","2018-01-06 05:00","2018","01","06","05:00","6.0","","5.3","","95","","","","26","","3","","","","101.87","","","","","","NA"
"-122.78","49.02","WHITE ROCK CAMPBELL SCIENTIFIC","1108910","2018-01-06 06:00","2018","01","06","06:00","6.1","","4.7","","91","","","","28","","2","","","","101.95","","","","","","NA"
"-122.78","49.02","WHITE ROCK CAMPBELL SCIENTIFIC","1108910","2018-01-06 07:00","2018","01","06","07:00","5.8","","4.5","","91","","","","","","0","","","","102.03","","","","","","NA"
"-122.78","49.02","WHITE ROCK CAMPBELL SCIENTIFIC","1108910","2018-01-06 08:00","2018","01","06","08:00","5.7","","4.9","","95","","","","36","","3","","","","102.04","","","","","","NA"
"-122.78","49.02","WHITE ROCK CAMPBELL SCIENTIFIC","1108910","2018-01-06 09:00","2018","01","06","09:00","6.0","","5.3","","95","","","","0","","1","","","","102.17","","","","","","NA"
"-122.78","49.02","WHITE ROCK CAMPBELL SCIENTIFIC","1108910","2018-01-06 10:00","2018","01","06","10:00","6.1","","5.2","","94","","","","10","","4","","","","102.23","","","","","","NA"
"-122.78","49.02","WHITE ROCK CAMPBELL SCIENTIFIC","1108910","2018-01-06 11:00","2018","01","06","11:00","6.2","","5.3","","94","","","","15","","2","","","","102.28","","","","","","NA"
"-122.78","49.02","WHITE ROCK CAMPBELL SCIENTIFIC","1108910","2018-01-06 12:00","2018","01","06","12:00","6.7","","5.8","","94","","","","11","","2","","","","102.29","","","","","","NA"
"-122.78","49.02","WHITE ROCK CAMPBELL SCIENTIFIC","1108910","2018-01-06 13:00","2018","01","06","13:00","7.0","","5.7","","91","","","","14","","3","","","","102.25","","","","","","NA"
"-122.78","49.02","WHITE ROCK CAMPBELL SCIENTIFIC","1108910","2018-01-06 14:00","2018","01","06","14:00","7.3","","5.6","","89","","","","15","","5","","","","102.24","","","","","","NA"
"-122.78","49.02","WHITE ROCK CAMPBELL SCIENTIFIC","1108910","2018-01-06 15:00","2018","01","06","15:00","7.6","","5.5","","87","","","","15","","5","","","","102.24","","","","","","NA"
"-122.78","49.02","WHITE ROCK CAMPBELL SCIENTIFIC","1108910","2018-01-06 16:00","2018","01","06","16:00","7.4","","5.7","","89","","","","12","","4","","","","102.25","","","","","","NA"
"-122.78","49.02","WHITE ROCK CAMPBELL SCIENTIFIC","1108910","2018-01-06 17:00","2018","01","06","17:00","6.9","","5.5","","91","","","","15","","4","","","","102.25","","","","","","NA"
"-122.78","49.02","WHITE ROCK CAMPBELL SCIENTIFIC","1108910","2018-01-06 18:00","2018","01","06","18:00","6.5","","5.2","","91","","","","10","","2","","","","102.22","","","","","","NA"
"-122.78","49.02","WHITE ROCK CAMPBELL SCIENTIFIC","1108910","2018-01-06 19:00","2018","01","06","19:00","6.3","","5.1","","92","","","","6","","3","","","","102.22","","","","","","NA"
"-122.78","49.02","WHITE ROCK CAMPBELL SCIENTIFIC","1108910","2018-01-06 20:00","2018","01","06","20:00","6.0","","5.1","","94","","","","3","","2","","","","102.20","","","","","","NA"
"-122.78","49.02","WHITE ROCK CAMPBELL SCIENTIFIC","1108910","2018-01-06 21:00","2018","01","06","21:00","5.8","","5.0","","95","","","","5","","1","","","","102.18","","","","","","NA"
"-122.78","49.02","WHITE ROCK CAMPBELL SCIENTIFIC","1108910","2018-01-06 22:00","2018","01","06","22:00","5.9","","5.0","","94","","","","12","","3","","","","102.15","","","","","","NA"
"-122.78","49.02","WHITE ROCK CAMPBELL SCIENTIFIC","1108910","2018-01-06 23:00","2018","01","06","23:00","5.8","","4.8","","93","","","","6","","4","","","","102.12","","","","","","NA"
"-122.78","49.02","WHITE ROCK CAMPBELL SCIENTIFIC","1108910","2018-01-07 00:00","2018","01","07","00:00","6.0","","4.8","","92","","","","5","","2","","","","102.12","","","","","","NA"
"-122.78","49.02","WHITE ROCK CAMPBELL SCIENTIFIC","1108910","2018-01-07 01:00","2018","01","07","01:00","5.9","","4.7","","92","","","","6","","3","","","","102.07","","","","","","NA"
"-122.78","49.02","WHITE ROCK CAMPBELL SCIENTIFIC","1108910","2018-01-07 02:00","2018","01","07","02:00","5.8","","4.9","","94","","","","5","","5","","","","102.03","","","","","","NA"
"-122.78","49.02","WHITE ROCK CAMPBELL SCIENTIFIC","1108910","2018-01-07 03:00","2018","01","07","03:00","5.7","","4.9","","95","","","","6","","2","","","","102.01","","","","","","NA"
"-122.78","49.02","WHITE ROCK CAMPBELL SCIENTIFIC","1108910","2018-01-07 04:00","2018","01","07","04:00","5.4","","4.7","","95","","","","5","","6","","","","101.95","","","","","","NA"
"-122.78","49.02","WHITE ROCK CAMPBELL SCIENTIFIC","1108910","2018-01-07 05:00","2018","01","07","05:00","5.3","","4.7","","96","","","","4","","6","","","","101.90","","","","","","NA"
"-122.78","49.02","WHITE ROCK CAMPBELL SCIENTIFIC","1108910","2018-01-07 06:00","2018","01","07","06:00","5.1","","4.5","","95","","","","5","","6","","","","101.84","","","","","","NA"
"-122.78","49.02","WHITE ROCK CAMPBELL SCIENTIFIC","1108910","2018-01-07 07:00","2018","01","07","07:00","4.9","","4.3","","95","","","","4","","8","","","","101.73","","","","","","NA"
"-122.78","49.02","WHITE ROCK CAMPBELL SCIENTIFIC","1108910","2018-01-07 08:00","2018","01","07","08:00","5.1","","4.3","","95","","","","3","","10","","","","101.70","","","","","","NA"
"-122.78","49.02","WHITE ROCK CAMPBELL SCIENTIFIC","1108910","2018-01-07 09:00","2018","01","07","09:00","5.3","","4.3","","93","","","","7","","5","","","","101.70","","","","","","NA"
"-122.78","49.02","WHITE ROCK CAMPBELL SCIENTIFIC","1108910","2018-01-07 10:00","2018","01","07","10:00","5.4","","4.4","","93","","","","7","","5","","","","101.69","","","","","","NA"
"-122.78","49.02","WHITE ROCK CAMPBELL SCIENTIFIC","1108910","2018-01-07 11:00","2018","01","07","11:00","5.3","","4.4","","94","","","","4","","7","","","","101.64","","","","","","NA"
"-122.78","49.02","WHITE ROCK CAMPBELL SCIENTIFIC","1108910","2018-01-07 12:00","2018","01","07","12:00","5.4","","4.5","","94","","","","5","","8","","","","101.57","","","","","","NA"
"-122.78","49.02","WHITE ROCK CAMPBELL SCIENTIFIC","1108910","2018-01-07 13:00","2018","01","07","13:00","5.3","","4.4","","94","","","","5","","7","","","","101.51","","","","","","NA"
"-122.78","49.02","WHITE ROCK CAMPBELL SCIENTIFIC","1108910","2018-01-07 14:00","2018","01","07","14:00","4.9","","4.0","","94","","","","5","","8","","","","101.46","","","","","","NA"
"-122.78","49.02","WHITE ROCK CAMPBELL SCIENTIFIC","1108910","2018-01-07 15:00","2018","01","07","15:00","4.9","","4.2","","95","","","","5","","8","","","","101.46","","","","","","NA"
"-122.78","49.02","WHITE ROCK CAMPBELL SCIENTIFIC","1108910","2018-01-07 16:00","2018","01","07","16:00","4.9","","4.2","","95","","","","5","","8","","","","101.42","","","","","","NA"
"-122.78","49.02","WHITE ROCK CAMPBELL SCIENTIFIC","1108910","2018-01-07 17:00","2018","01","07","17:00","4.8","","4.1","","95","","","","4","","10","","","","101.40","","","","","","NA"
"-122.78","49.02","WHITE ROCK CAMPBELL SCIENTIFIC","1108910","2018-01-07 18:00","2018","01","07","18:00","4.7","","4.0","","95","","","","4","","8","","","","101.34","","","","","","NA"
"-122.78","49.02","WHITE ROCK CAMPBELL SCIENTIFIC","1108910","2018-01-07 19:00","2018","01","07","19:00","4.7","","3.9","","95","","","","3","","8","","","","101.28","","","","","","NA"
"-122.78","49.02","WHITE ROCK CAMPBELL SCIENTIFIC","1108910","2018-01-07 20:00","2018","01","07","20:00","4.8","","3.9","","94","","","","4","","9","","","","101.26","","","","","","NA"
"-122.78","49.02","WHITE ROCK CAMPBELL SCIENTIFIC","1108910","2018-01-07 21:00","2018","01","07","21:00","4.9","","4.1","","94","","","","4","","6","","","","101.24","","","","","","NA"
"-122.78","49.02","WHITE ROCK CAMPBELL SCIENTIFIC","1108910","2018-01-07 22:00","2018","01","07","22:00","5.1","","4.2","","94","","","","5","","6","","","","101.22","","","","","","NA"
"-122.78","49.02","WHITE ROCK CAMPBELL SCIENTIFIC","1108910","2018-01-07 23:00","2018","01","07","23:00","5.3","","4.4","","94","","","","4","","6","","","","101.20","","","","","","NA"
"-122.78","49.02","WHITE ROCK CAMPBELL SCIENTIFIC","1108910","2018-01-08 00:00","2018","01","08","00:00","5.4","","4.5","","94","","","","4","","6","","","","101.16","","","","","","NA"
"-122.78","49.02","WHITE ROCK CAMPBELL SCIENTIFIC","1108910","2018-01-08 01:00","2018","01","08","01:00","5.4","","4.7","","95","","","","4","","8","","","","101.11","","","","","","NA"
"-122.78","49.02","WHITE ROCK CAMPBELL SCIENTIFIC","1108910","2018-01-08 02:00","2018","01","08","02:00","5.4","","4.7","","95","","","","5","","7","","","","101.07","","","","","","NA"
"-122.78","49.02","WHITE ROCK CAMPBELL SCIENTIFIC","1108910","2018-01-08 03:00","2018","01","08","03:00","5.6","","4.9","","95","","","","5","","6","","","","101.05","","","","","","NA"
"-122.78","49.02","WHITE ROCK CAMPBELL SCIENTIFIC","1108910","2018-01-08 04:00","2018","01","08","04:00","5.3","","4.6","","95","","","","4","","7","","","","101.01","","","","","","NA"
"-122.78","49.02","WHITE ROCK CAMPBELL SCIENTIFIC","1108910","2018-01-08 05:00","2018","01","08","05:00","5.8","","5.1","","96","","","","2","","5","","","","100.99","","","","","","NA"
"-122.78","49.02","WHITE ROCK CAMPBELL SCIENTIFIC","1108910","2018-01-08 06:00","2018","01","08","06:00","5.7","","5.0","","96","","","","5","","5","","","","100.97","","","","","","NA"
"-122.78","49.02","WHITE ROCK CAMPBELL SCIENTIFIC","1108910","2018-01-08 07:00","2018","01","08","07:00","5.6","","4.9","","96","","","","5","","4","","","","100.96","","","","","","NA"
"-122.78","49.02","WHITE ROCK CAMPBELL SCIENTIFIC","1108910","2018-01-08 08:00","2018","01","08","08:00","5.2","","4.5","","96","","","","6","","7","","","","100.90","","","","","","NA"
"-122.78","49.02","WHITE ROCK CAMPBELL SCIENTIFIC","1108910","2018-01-08 09:00","2018","01","08","09:00","5.3","","4.7","","96","","","","4","","6","","","","100.90","","","","","","NA"
"-122.78","49.02","WHITE ROCK CAMPBELL SCIENTIFIC","1108910","2018-01-08 10:00","2018","01","08","10:00","5.7","","5.1","","96","","","","4","","6","","","","100.88","","","","","","NA"
"-122.78","49.02","WHITE ROCK CAMPBELL SCIENTIFIC","1108910","2018-01-08 11:00","2018","01","08","11:00","6.2","","5.5","","96","","","","4","","5","","","","100.81","","","","","","NA"
"-122.78","49.02","WHITE ROCK CAMPBELL SCIENTIFIC","1108910","2018-01-08 12:00","2018","01","08","12:00","6.8","","6.1","","95","","","","5","","4","","","","100.74","","","","","","NA"
"-122.78","49.02","WHITE ROCK CAMPBELL SCIENTIFIC","1108910","2018-01-08 13:00","2018","01","08","13:00","7.5","","6.7","","95","","","","3","","7","","","","100.62","","","","","","NA"
"-122.78","49.02","WHITE ROCK CAMPBELL SCIENTIFIC","1108910","2018-01-08 14:00","2018","01","08","14:00","7.9","","6.4","","90","","","","5","","7","","","","100.52","","","","","","NA"
"-122.78","49.02","WHITE ROCK CAMPBELL SCIENTIFIC","1108910","2018-01-08 15:00","2018","01","08","15:00","7.4","","6.4","","94","","","","3","","9","","","","100.46","","","","","","NA"
"-122.78","49.02","WHITE ROCK CAMPBELL SCIENTIFIC","1108910","2018-01-08 16:00","2018","01","08","16:00","7.3","","6.3","","94","","","","9","","3","","","","100.46","","","","","","NA"
"-122.78","49.02","WHITE ROCK CAMPBELL SCIENTIFIC","1108910","2018-01-08 17:00","2018","01","08","17:00","7.1","","6.3","","95","","","","4","","4","","","","100.39","","","","","","NA"
"-122.78","49.02","WHITE ROCK CAMPBELL SCIENTIFIC","1108910","2018-01-08 18:00","2018","01","08","18:00","6.8","","5.9","","93","","","","6","","3","","","","100.37","","","","","","NA"
"-122.78","49.02","WHITE ROCK CAMPBELL SCIENTIFIC","1108910","2018-01-08 19:00","2018","01","08","19:00","6.6","","5.4","","92","","","","8","","1","","","","100.31","","","","","","NA"
"-122.78","49.02","WHITE ROCK CAMPBELL SCIENTIFIC","1108910","2018-01-08 20:00","2018","01","08","20:00","6.3","","5.3","","93","","","","4","","4","","","","100.26","","","","","","NA"
"-122.78","49.02","WHITE ROCK CAMPBELL SCIENTIFIC","1108910","2018-01-08 21:00","2018","01","08","21:00","6.0","","5.0","","93","","","","5","","4","","","","100.20","","","","","","NA"
"-122.78","49.02","WHITE ROCK CAMPBELL SCIENTIFIC","1108910","2018-01-08 22:00","2018","01","08","22:00","6.1","","5.0","","93","","","","4","","4","","","","100.17","","","","","","NA"
"-122.78","49.02","WHITE ROCK CAMPBELL SCIENTIFIC","1108910","2018-01-08 23:00","2018","01","08","23:00","6.1","","5.0","","93","","","","6","","2","","","","100.14","","","","","","NA"
"-122.78","49.02","WHITE ROCK CAMPBELL SCIENTIFIC","1108910","2018-01-09 00:00","2018","01","09","00:00","6.0","","5.1","","94","","","","4","","5","","","","100.09","","","","","","NA"
"-122.78","49.02","WHITE ROCK CAMPBELL SCIENTIFIC","1108910","2018-01-09 01:00","2018","01","09","01:00","6.1","","5.3","","95","","","","5","","4","","","","100.05","","","","","","NA"
"-122.78","49.02","WHITE ROCK CAMPBELL SCIENTIFIC","1108910","2018-01-09 02:00","2018","01","09","02:00","5.9","","5.2","","95","","","","5","","5","","","","99.99","","","","","","NA"
"-122.78","49.02","WHITE ROCK CAMPBELL SCIENTIFIC","1108910","2018-01-09 03:00","2018","01","09","03:00","5.9","","5.2","","95","","","","4","","5","","","","100.00","","","","","","NA"
"-122.78","49.02","WHITE ROCK CAMPBELL SCIENTIFIC","1108910","2018-01-09 04:00","2018","01","09","04:00","5.9","","5.2","","95","","","","7","","3","","","","99.93","","","","","","NA"
"-122.78","49.02","WHITE ROCK CAMPBELL SCIENTIFIC","1108910","2018-01-09 05:00","2018","01","09","05:00","6.1","","5.4","","96","","","","9","","3","","","","99.89","","","","","","NA"
"-122.78","49.02","WHITE ROCK CAMPBELL SCIENTIFIC","1108910","2018-01-09 06:00","2018","01","09","06:00","5.9","","5.3","","96","","","","15","","3","","","","99.91","","","","","","NA"
"-122.78","49.02","WHITE ROCK CAMPBELL SCIENTIFIC","1108910","2018-01-09 07:00","2018","01","09","07:00","6.9","","6.4","","97","","","","22","","2","","","","99.90","","","","","","NA"
"-122.78","49.02","WHITE ROCK CAMPBELL SCIENTIFIC","1108910","2018-01-09 08:00","2018","01","09","08:00","7.1","","6.3","","95","","","","21","","3","","","","99.92","","","","","","NA"
"-122.78","49.02","WHITE ROCK CAMPBELL SCIENTIFIC","1108910","2018-01-09 09:00","2018","01","09","09:00","7.3","","6.2","","93","","","","21","","4","","","","100.01","","","","","","NA"
"-122.78","49.02","WHITE ROCK CAMPBELL SCIENTIFIC","1108910","2018-01-09 10:00","2018","01","09","10:00","7.0","","5.4","","90","","","","25","","3","","","","100.12","","","","","","NA"
"-122.78","49.02","WHITE ROCK CAMPBELL SCIENTIFIC","1108910","2018-01-09 11:00","2018","01","09","11:00","6.8","","5.0","","88","","","","27","","4","","","","100.17","","","","","","NA"
"-122.78","49.02","WHITE ROCK CAMPBELL SCIENTIFIC","1108910","2018-01-09 12:00","2018","01","09","12:00","7.3","","4.5","","82","","","","25","","5","","","","100.21","","","","","","NA"
"-122.78","49.02","WHITE ROCK CAMPBELL SCIENTIFIC","1108910","2018-01-09 13:00","2018","01","09","13:00","8.4","","4.4","","76","","","","25","","8","","","","100.20","","","","","","NA"
"-122.78","49.02","WHITE ROCK CAMPBELL SCIENTIFIC","1108910","2018-01-09 14:00","2018","01","09","14:00","7.6","","4.5","","81","","","","23","","4","","","","100.24","","","","","","NA"
"-122.78","49.02","WHITE ROCK CAMPBELL SCIENTIFIC","1108910","2018-01-09 15:00","2018","01","09","15:00","7.4","","4.1","","79","","","","27","","4","","","","100.29","","","","","","NA"
"-122.78","49.02","WHITE ROCK CAMPBELL SCIENTIFIC","1108910","2018-01-09 16:00","2018","01","09","16:00","7.0","","4.4","","83","","","","27","","3","","","","100.36","","","","","","NA"
"-122.78","49.02","WHITE ROCK CAMPBELL SCIENTIFIC","1108910","2018-01-09 17:00","2018","01","09","17:00","6.7","","4.5","","86","","","","0","","1","","","","100.41","","","","","","NA"
"-122.78","49.02","WHITE ROCK CAMPBELL SCIENTIFIC","1108910","2018-01-09 18:00","2018","01","09","18:00","6.5","","4.3","","86","","","","","","0","","","","100.43","","","","","","NA"
"-122.78","49.02","WHITE ROCK CAMPBELL SCIENTIFIC","1108910","2018-01-09 19:00","2018","01","09","19:00","6.1","","4.7","","91","","","","11","","2","","","","100.46","","","","","","NA"
"-122.78","49.02","WHITE ROCK CAMPBELL SCIENTIFIC","1108910","2018-01-09 20:00","2018","01","09","20:00","5.7","","4.7","","94","","","","0","","1","","","","100.49","","","","","","NA"
"-122.78","49.02","WHITE ROCK CAMPBELL SCIENTIFIC","1108910","2018-01-09 21:00","2018","01","09","21:00","5.6","","4.8","","94","","","","12","","1","","","","100.49","","","","","","NA"
"-122.78","49.02","WHITE ROCK CAMPBELL SCIENTIFIC","1108910","2018-01-09 22:00","2018","01","09","22:00","5.6","","4.9","","95","","","","0","","1","","","","100.56","","","","","","NA"
"-122.78","49.02","WHITE ROCK CAMPBELL SCIENTIFIC","1108910","2018-01-09 23:00","2018","01","09","23:00","5.3","","4.7","","96","","","","","","0","","","","100.60","","","","","","NA"
"-122.78","49.02","WHITE ROCK CAMPBELL SCIENTIFIC","1108910","2018-01-10 00:00","2018","01","10","00:00","5.1","","4.6","","97","","","","","","0","","","","100.66","","","","","","NA"
"-122.78","49.02","WHITE ROCK CAMPBELL SCIENTIFIC","1108910","2018-01-10 01:00","2018","01","10","01:00","6.1","","4.6","","91","","","","27","","3","","","","100.72","","","","","","NA"
"-122.78","49.02","WHITE ROCK CAMPBELL SCIENTIFIC","1108910","2018-01-10 02:00","2018","01","10","02:00","5.7","","4.6","","92","","","","0","","1","","","","100.78","","","","","","NA"
"-122.78","49.02","WHITE ROCK CAMPBELL SCIENTIFIC","1108910","2018-01-10 03:00","2018","01","10","03:00","5.6","","4.2","","91","","","","25","","1","","","","100.85","","","","","","NA"
"-122.78","49.02","WHITE ROCK CAMPBELL SCIENTIFIC","1108910","2018-01-10 04:00","2018","01","10","04:00","5.3","","3.8","","90","","","","25","","2","","","","100.86","","","","","","NA"
"-122.78","49.02","WHITE ROCK CAMPBELL SCIENTIFIC","1108910","2018-01-10 05:00","2018","01","10","05:00","5.3","","3.3","","87","","","","23","","3","","","","100.92","","","","","","NA"
"-122.78","49.02","WHITE ROCK CAMPBELL SCIENTIFIC","1108910","2018-01-10 06:00","2018","01","10","06:00","5.6","","2.7","","82","","","","25","","2","","","","100.98","","","","","","NA"
"-122.78","49.02","WHITE ROCK CAMPBELL SCIENTIFIC","1108910","2018-01-10 07:00","2018","01","10","07:00","5.4","","2.7","","83","","","","25","","2","","","","101.04","","","","","","NA"
"-122.78","49.02","WHITE ROCK CAMPBELL SCIENTIFIC","1108910","2018-01-10 08:00","2018","01","10","08:00","5.6","","2.6","","81","","","","23","","3","","","","101.13","","","","","","NA"
"-122.78","49.02","WHITE ROCK CAMPBELL SCIENTIFIC","1108910","2018-01-10 09:00","2018","01","10","09:00","6.0","","3.0","","82","","","","24","","2","","","","101.24","","","","","","NA"
"-122.78","49.02","WHITE ROCK CAMPBELL SCIENTIFIC","1108910","2018-01-10 10:00","2018","01","10","10:00","6.8","","3.0","","77","","","","23","","3","","","","101.33","","","","","","NA"
"-122.78","49.02","WHITE ROCK CAMPBELL SCIENTIFIC","1108910","2018-01-10 11:00","2018","01","10","11:00","7.0","","2.7","","74","","","","23","","3","","","","101.37","","","","","","NA"
"-122.78","49.02","WHITE ROCK CAMPBELL SCIENTIFIC","1108910","2018-01-10 12:00","2018","01","10","12:00","7.5","","2.6","","71","","","","21","","4","","","","101.39","","","","","","NA"
"-122.78","49.02","WHITE ROCK CAMPBELL SCIENTIFIC","1108910","2018-01-10 13:00","2018","01","10","13:00","7.3","","2.8","","73","","","","22","","3","","","","101.42","","","","","","NA"
"-122.78","49.02","WHITE ROCK CAMPBELL SCIENTIFIC","1108910","2018-01-10 14:00","2018","01","10","14:00","7.5","","2.9","","73","","","","22","","3","","","","101.43","","","","","","NA"
"-122.78","49.02","WHITE ROCK CAMPBELL SCIENTIFIC","1108910","2018-01-10 15:00","2018","01","10","15:00","7.4","","3.0","","74","","","","22","","3","","","","101.44","","","","","","NA"
"-122.78","49.02","WHITE ROCK CAMPBELL SCIENTIFIC","1108910","2018-01-10 16:00","2018","01","10","16:00","7.1","","4.3","","82","","","","17","","6","","","","101.54","","","","","","NA"
"-122.78","49.02","WHITE ROCK CAMPBELL SCIENTIFIC","1108910","2018-01-10 17:00","2018","01","10","17:00","6.5","","2.8","","78","","","","13","","3","","","","101.51","","","","","","NA"
"-122.78","49.02","WHITE ROCK CAMPBELL SCIENTIFIC","1108910","2018-01-10 18:00","2018","01","10","18:00","5.7","","3.5","","85","","","","10","","2","","","","101.58","","","","","","NA"
"-122.78","49.02","WHITE ROCK CAMPBELL SCIENTIFIC","1108910","2018-01-10 19:00","2018","01","10","19:00","5.9","","4.1","","88","","","","9","","4","","","","101.57","","","","","","NA"
"-122.78","49.02","WHITE ROCK CAMPBELL SCIENTIFIC","1108910","2018-01-10 20:00","2018","01","10","20:00","5.9","","4.0","","88","","","","6","","3","","","","101.56","","","","","","NA"
"-122.78","49.02","WHITE ROCK CAMPBELL SCIENTIFIC","1108910","2018-01-10 21:00","2018","01","10","21:00","5.6","","3.9","","89","","","","2","","2","","","","101.53","","","","","","NA"
"-122.78","49.02","WHITE ROCK CAMPBELL SCIENTIFIC","1108910","2018-01-10 22:00","2018","01","10","22:00","5.0","","3.4","","89","","","","3","","5","","","","101.56","","","","","","NA"
"-122.78","49.02","WHITE ROCK CAMPBELL SCIENTIFIC","1108910","2018-01-10 23:00","2018","01","10","23:00","4.8","","3.3","","90","","","","3","","5","","","","101.55","","","","","","NA"
"-122.78","49.02","WHITE ROCK CAMPBELL SCIENTIFIC","1108910","2018-01-11 00:00","2018","01","11","00:00","4.8","","3.1","","89","","","","4","","4","","","","101.51","","","","","","NA"
"-122.78","49.02","WHITE ROCK CAMPBELL SCIENTIFIC","1108910","2018-01-11 01:00","2018","01","11","01:00","4.6","","3.0","","90","","","","6","","3","","","","101.47","","","","","","NA"
"-122.78","49.02","WHITE ROCK CAMPBELL SCIENTIFIC","1108910","2018-01-11 02:00","2018","01","11","02:00","4.7","","2.9","","88","","","","6","","5","","","","101.43","","","","","","NA"
"-122.78","49.02","WHITE ROCK CAMPBELL SCIENTIFIC","1108910","2018-01-11 03:00","2018","01","11","03:00","4.4","","2.8","","90","","","","6","","4","","","","101.43","","","","","","NA"
"-122.78","49.02","WHITE ROCK CAMPBELL SCIENTIFIC","1108910","2018-01-11 04:00","2018","01","11","04:00","4.1","","2.8","","92","","","","8","","5","","","","101.37","","","","","","NA"
"-122.78","49.02","WHITE ROCK CAMPBELL SCIENTIFIC","1108910","2018-01-11 05:00","2018","01","11","05:00","3.6","","2.3","","92","","","","8","","6","","","","101.26","","","","","","NA"
"-122.78","49.02","WHITE ROCK CAMPBELL SCIENTIFIC","1108910","2018-01-11 06:00","2018","01","11","06:00","3.4","","2.2","","92","","","","6","","10","","","","101.17","","","","","","NA"
"-122.78","49.02","WHITE ROCK CAMPBELL SCIENTIFIC","1108910","2018-01-11 07:00","2018","01","11","07:00","3.2","","2.2","","93","","","","7","","10","","","","101.07","","","","","","NA"
"-122.78","49.02","WHITE ROCK CAMPBELL SCIENTIFIC","1108910","2018-01-11 08:00","2018","01","11","08:00","2.8","","1.8","","93","","","","6","","11","","","","100.98","","","","","","NA"
"-122.78","49.02","WHITE ROCK CAMPBELL SCIENTIFIC","1108910","2018-01-11 09:00","2018","01","11","09:00","2.5","","1.7","","94","","","","6","","10","","","","100.90","","","","","","NA"
"-122.78","49.02","WHITE ROCK CAMPBELL SCIENTIFIC","1108910","2018-01-11 10:00","2018","01","11","10:00","2.5","","1.7","","95","","","","7","","9","","","","100.81","","","","","","NA"
"-122.78","49.02","WHITE ROCK CAMPBELL SCIENTIFIC","1108910","2018-01-11 11:00","2018","01","11","11:00","2.5","","1.7","","94","","","","7","","10","","","","100.73","","","","","","NA"
"-122.78","49.02","WHITE ROCK CAMPBELL SCIENTIFIC","1108910","2018-01-11 12:00","2018","01","11","12:00","2.7","","1.8","","94","","","","7","","7","","","","100.56","","","","","","NA"
"-122.78","49.02","WHITE ROCK CAMPBELL SCIENTIFIC","1108910","2018-01-11 13:00","2018","01","11","13:00","2.9","","2.0","","94","","","","6","","7","","","","100.48","","","","","","NA"
"-122.78","49.02","WHITE ROCK CAMPBELL SCIENTIFIC","1108910","2018-01-11 14:00","2018","01","11","14:00","2.9","","2.0","","94","","","","7","","8","","","","100.47","","","","","","NA"
"-122.78","49.02","WHITE ROCK CAMPBELL SCIENTIFIC","1108910","2018-01-11 15:00","2018","01","11","15:00","2.6","","1.8","","94","","","","6","","11","","","","100.49","","","","","","NA"
"-122.78","49.02","WHITE ROCK CAMPBELL SCIENTIFIC","1108910","2018-01-11 16:00","2018","01","11","16:00","2.6","","1.8","","94","","","","7","","7","","","","100.64","","","","","","NA"
"-122.78","49.02","WHITE ROCK CAMPBELL SCIENTIFIC","1108910","2018-01-11 17:00","2018","01","11","17:00","2.3","","1.6","","95","","","","5","","6","","","","100.79","","","","","","NA"
"-122.78","49.02","WHITE ROCK CAMPBELL SCIENTIFIC","1108910","2018-01-11 18:00","2018","01","11","18:00","2.1","","1.4","","95","","","","4","","4","","","","100.91","","","","","","NA"
"-122.78","49.02","WHITE ROCK CAMPBELL SCIENTIFIC","1108910","2018-01-11 19:00","2018","01","11","19:00","2.1","","1.3","","95","","","","4","","4","","","","101.04","","","","","","NA"
"-122.78","49.02","WHITE ROCK CAMPBELL SCIENTIFIC","1108910","2018-01-11 20:00","2018","01","11","20:00","1.9","","1.2","","95","","","","4","","4","","","","101.17","","","","","","NA"
"-122.78","49.02","WHITE ROCK CAMPBELL SCIENTIFIC","1108910","2018-01-11 21:00","2018","01","11","21:00","1.8","","1.1","","95","","","","5","","3","","","","101.26","","","","","","NA"
"-122.78","49.02","WHITE ROCK CAMPBELL SCIENTIFIC","1108910","2018-01-11 22:00","2018","01","11","22:00","1.9","","1.2","","95","","","","6","","2","","","","101.39","","","","","","NA"
"-122.78","49.02","WHITE ROCK CAMPBELL SCIENTIFIC","1108910","2018-01-11 23:00","2018","01","11","23:00","2.1","","1.4","","95","","","","5","","7","","","","101.52","","","","","","NA"
"-122.78","49.02","WHITE ROCK CAMPBELL SCIENTIFIC","1108910","2018-01-12 00:00","2018","01","12","00:00","2.1","","1.3","","95","","","","7","","6","","","","101.57","","","","","","NA"
"-122.78","49.02","WHITE ROCK CAMPBELL SCIENTIFIC","1108910","2018-01-12 01:00","2018","01","12","01:00","1.7","","1.1","","96","","","","7","","4","","","","101.66","","","","","","NA"
"-122.78","49.02","WHITE ROCK CAMPBELL SCIENTIFIC","1108910","2018-01-12 02:00","2018","01","12","02:00","1.9","","1.4","","96","","","","7","","8","","","","101.73","","","","","","NA"
"-122.78","49.02","WHITE ROCK CAMPBELL SCIENTIFIC","1108910","2018-01-12 03:00","2018","01","12","03:00","2.0","","1.4","","96","","","","6","","6","","","","101.85","","","","","","NA"
"-122.78","49.02","WHITE ROCK CAMPBELL SCIENTIFIC","1108910","2018-01-12 04:00","2018","01","12","04:00","2.1","","1.6","","97","","","","6","","6","","","","101.93","","","","","","NA"
"-122.78","49.02","WHITE ROCK CAMPBELL SCIENTIFIC","1108910","2018-01-12 05:00","2018","01","12","05:00","2.2","","1.7","","97","","","","6","","9","","","","102.00","","","","","","NA"
"-122.78","49.02","WHITE ROCK CAMPBELL SCIENTIFIC","1108910","2018-01-12 06:00","2018","01","12","06:00","2.2","","1.7","","97","","","","6","","10","","","","102.03","","","","","","NA"
"-122.78","49.02","WHITE ROCK CAMPBELL SCIENTIFIC","1108910","2018-01-12 07:00","2018","01","12","07:00","2.3","","1.8","","97","","","","6","","9","","","","102.09","","","","","","NA"
"-122.78","49.02","WHITE ROCK CAMPBELL SCIENTIFIC","1108910","2018-01-12 08:00","2018","01","12","08:00","2.3","","1.9","","97","","","","6","","7","","","","102.09","","","","","","NA"
"-122.78","49.02","WHITE ROCK CAMPBELL SCIENTIFIC","1108910","2018-01-12 09:00","2018","01","12","09:00","2.7","","2.3","","97","","","","5","","8","","","","102.15","","","","","","NA"
"-122.78","49.02","WHITE ROCK CAMPBELL SCIENTIFIC","1108910","2018-01-12 10:00","2018","01","12","10:00","2.8","","2.3","","97","","","","8","","6","","","","102.25","","","","","","NA"
"-122.78","49.02","WHITE ROCK CAMPBELL SCIENTIFIC","1108910","2018-01-12 11:00","2018","01","12","11:00","3.3","","2.8","","97","","","","7","","5","","","","102.30","","","","","","NA"
"-122.78","49.02","WHITE ROCK CAMPBELL SCIENTIFIC","1108910","2018-01-12 12:00","2018","01","12","12:00","3.6","","3.0","","96","","","","34","","2","","","","102.40","","","","","","NA"
"-122.78","49.02","WHITE ROCK CAMPBELL SCIENTIFIC","1108910","2018-01-12 13:00","2018","01","12","13:00","3.6","","3.0","","96","","","","6","","6","","","","102.36","","","","","","NA"
"-122.78","49.02","WHITE ROCK CAMPBELL SCIENTIFIC","1108910","2018-01-12 14:00","2018","01","12","14:00","3.4","","2.7","","96","","","","17","","3","","","","102.43","","","","","","NA"
"-122.78","49.02","WHITE ROCK CAMPBELL SCIENTIFIC","1108910","2018-01-12 15:00","2018","01","12","15:00","3.1","","2.6","","96","","","","16","","2","","","","102.52","","","","","","NA"
"-122.78","49.02","WHITE ROCK CAMPBELL SCIENTIFIC","1108910","2018-01-12 16:00","2018","01","12","16:00","3.3","","2.8","","96","","","","0","","1","","","","102.58","","","","","","NA"
"-122.78","49.02","WHITE ROCK CAMPBELL SCIENTIFIC","1108910","2018-01-12 17:00","2018","01","12","17:00","3.5","","3.1","","97","","","","4","","4","","","","102.61","","","","","","NA"
"-122.78","49.02","WHITE ROCK CAMPBELL SCIENTIFIC","1108910","2018-01-12 18:00","2018","01","12","18:00","3.8","","3.3","","97","","","","8","","3","","","","102.68","","","","","","NA"
"-122.78","49.02","WHITE ROCK CAMPBELL SCIENTIFIC","1108910","2018-01-12 19:00","2018","01","12","19:00","3.5","","3.0","","97","","","","8","","3","","","","102.68","","","","","","NA"
"-122.78","49.02","WHITE ROCK CAMPBELL SCIENTIFIC","1108910","2018-01-12 20:00","2018","01","12","20:00","3.8","","3.4","","97","","","","3","","3","","","","102.67","","","","","","NA"
"-122.78","49.02","WHITE ROCK CAMPBELL SCIENTIFIC","1108910","2018-01-12 21:00","2018","01","12","21:00","4.4","","3.9","","97","","","","5","","4","","","","102.64","","","","","","NA"
"-122.78","49.02","WHITE ROCK CAMPBELL SCIENTIFIC","1108910","2018-01-12 22:00","2018","01","12","22:00","4.4","","3.9","","97","","","","2","","6","","","","102.63","","","","","","NA"
"-122.78","49.02","WHITE ROCK CAMPBELL SCIENTIFIC","1108910","2018-01-12 23:00","2018","01","12","23:00","4.6","","4.2","","97","","","","2","","9","","","","102.67","","","","","","NA"
"-122.78","49.02","WHITE ROCK CAMPBELL SCIENTIFIC","1108910","2018-01-13 00:00","2018","01","13","00:00","4.7","","4.3","","97","","","","3","","8","","","","102.71","","","","","","NA"
"-122.78","49.02","WHITE ROCK CAMPBELL SCIENTIFIC","1108910","2018-01-13 01:00","2018","01","13","01:00","5.5","","5.0","","97","","","","2","","6","","","","102.75","","","","","","NA"
"-122.78","49.02","WHITE ROCK CAMPBELL SCIENTIFIC","1108910","2018-01-13 02:00","2018","01","13","02:00","5.6","","5.0","","96","","","","4","","6","","","","102.75","","","","","","NA"
"-122.78","49.02","WHITE ROCK CAMPBELL SCIENTIFIC","1108910","2018-01-13 03:00","2018","01","13","03:00","5.5","","4.9","","96","","","","5","","7","","","","102.79","","","","","","NA"
"-122.78","49.02","WHITE ROCK CAMPBELL SCIENTIFIC","1108910","2018-01-13 04:00","2018","01","13","04:00","5.4","","4.8","","96","","","","6","","7","","","","102.82","","","","","","NA"
"-122.78","49.02","WHITE ROCK CAMPBELL SCIENTIFIC","1108910","2018-01-13 05:00","2018","01","13","05:00","5.4","","4.9","","96","","","","4","","6","","","","102.85","","","","","","NA"
"-122.78","49.02","WHITE ROCK CAMPBELL SCIENTIFIC","1108910","2018-01-13 06:00","2018","01","13","06:00","5.6","","5.1","","97","","","","4","","6","","","","102.86","","","","","","NA"
"-122.78","49.02","WHITE ROCK CAMPBELL SCIENTIFIC","1108910","2018-01-13 07:00","2018","01","13","07:00","5.7","","5.2","","97","","","","4","","7","","","","102.88","","","","","","NA"
"-122.78","49.02","WHITE ROCK CAMPBELL SCIENTIFIC","1108910","2018-01-13 08:00","2018","01","13","08:00","5.7","","5.2","","96","","","","4","","6","","","","102.91","","","","","","NA"
"-122.78","49.02","WHITE ROCK CAMPBELL SCIENTIFIC","1108910","2018-01-13 09:00","2018","01","13","09:00","5.7","","5.1","","96","","","","4","","5","","","","102.96","","","","","","NA"
"-122.78","49.02","WHITE ROCK CAMPBELL SCIENTIFIC","1108910","2018-01-13 10:00","2018","01","13","10:00","6.0","","5.3","","95","","","","5","","5","","","","103.01","","","","","","NA"
"-122.78","49.02","WHITE ROCK CAMPBELL SCIENTIFIC","1108910","2018-01-13 11:00","2018","01","13","11:00","6.5","","5.6","","94","","","","4","","5","","","","103.02","","","","","","NA"
"-122.78","49.02","WHITE ROCK CAMPBELL SCIENTIFIC","1108910","2018-01-13 12:00","2018","01","13","12:00","6.9","","5.8","","93","","","","5","","4","","","","103.02","","","","","","NA"
"-122.78","49.02","WHITE ROCK CAMPBELL SCIENTIFIC","1108910","2018-01-13 13:00","2018","01","13","13:00","7.4","","6.2","","93","","","","7","","6","","","","102.96","","","","","","NA"
"-122.78","49.02","WHITE ROCK CAMPBELL SCIENTIFIC","1108910","2018-01-13 14:00","2018","01","13","14:00","8.3","","7.1","","92","","","","6","","4","","","","102.92","","","","","","NA"
"-122.78","49.02","WHITE ROCK CAMPBELL SCIENTIFIC","1108910","2018-01-13 15:00","2018","01","13","15:00","8.6","","7.1","","90","","","","7","","4","","","","102.89","","","","","","NA"
"-122.78","49.02","WHITE ROCK CAMPBELL SCIENTIFIC","1108910","2018-01-13 16:00","2018","01","13","16:00","8.4","","6.9","","90","","","","6","","3","","","","102.85","","","","","","NA"
"-122.78","49.02","WHITE ROCK CAMPBELL SCIENTIFIC","1108910","2018-01-13 17:00","2018","01","13","17:00","7.4","","6.0","","91","","","","4","","4","","","","102.81","","","","","","NA"
"-122.78","49.02","WHITE ROCK CAMPBELL SCIENTIFIC","1108910","2018-01-13 18:00","2018","01","13","18:00","6.4","","5.2","","92","","","","0","","1","","","","102.77","","","","","","NA"
"-122.78","49.02","WHITE ROCK CAMPBELL SCIENTIFIC","1108910","2018-01-13 19:00","2018","01","13","19:00","5.8","","5.1","","95","","","","","","0","","","","102.75","","","","","","NA"
"-122.78","49.02","WHITE ROCK CAMPBELL SCIENTIFIC","1108910","2018-01-13 20:00","2018","01","13","20:00","4.9","","4.3","","96","","","","","","0","","","","102.75","","","","","","NA"
"-122.78","49.02","WHITE ROCK CAMPBELL SCIENTIFIC","1108910","2018-01-13 21:00","2018","01","13","21:00","4.6","","4.1","","97","","","","1","","1","","","","102.73","","","","","","NA"
"-122.78","49.02","WHITE ROCK CAMPBELL SCIENTIFIC","1108910","2018-01-13 22:00","2018","01","13","22:00","4.1","","3.7","","97","","","","34","","2","","","","102.71","","","","","","NA"
"-122.78","49.02","WHITE ROCK CAMPBELL SCIENTIFIC","1108910","2018-01-13 23:00","2018","01","13","23:00","4.2","","3.9","","98","","","","0","","1","","","","102.69","","","","","","NA"
"-122.78","49.02","WHITE ROCK CAMPBELL SCIENTIFIC","1108910","2018-01-14 00:00","2018","01","14","00:00","3.9","","3.6","","98","","","","0","","1","","","","102.62","","","","","","NA"
"-122.78","49.02","WHITE ROCK CAMPBELL SCIENTIFIC","1108910","2018-01-14 01:00","2018","01","14","01:00","3.3","","2.9","","98","","","","0","","1","","","","102.56","","","","","","NA"
"-122.78","49.02","WHITE ROCK CAMPBELL SCIENTIFIC","1108910","2018-01-14 02:00","2018","01","14","02:00","3.2","","2.9","","98","","","","1","","3","","","","102.53","","","","","","NA"
"-122.78","49.02","WHITE ROCK CAMPBELL SCIENTIFIC","1108910","2018-01-14 03:00","2018","01","14","03:00","2.9","","2.6","","98","","","","","","0","","","","102.49","","","","","","NA"
"-122.78","49.02","WHITE ROCK CAMPBELL SCIENTIFIC","1108910","2018-01-14 04:00","2018","01","14","04:00","2.1","","1.9","","98","","","","11","","2","","","","102.44","","","","","","NA"
"-122.78","49.02","WHITE ROCK CAMPBELL SCIENTIFIC","1108910","2018-01-14 05:00","2018","01","14","05:00","2.5","","2.3","","99","","","","","","0","","","","102.36","","","","","","NA"
"-122.78","49.02","WHITE ROCK CAMPBELL SCIENTIFIC","1108910","2018-01-14 06:00","2018","01","14","06:00","2.0","","1.8","","99","","","","5","","1","","","","102.30","","","","","","NA"
"-122.78","49.02","WHITE ROCK CAMPBELL SCIENTIFIC","1108910","2018-01-14 07:00","2018","01","14","07:00","1.2","","1.1","","99","","","","10","","2","","","","102.26","","","","","","NA"
"-122.78","49.02","WHITE ROCK CAMPBELL SCIENTIFIC","1108910","2018-01-14 08:00","2018","01","14","08:00","0.9","","0.8","","99","","","","7","","2","","","","102.21","","","","","","NA"
"-122.78","49.02","WHITE ROCK CAMPBELL SCIENTIFIC","1108910","2018-01-14 09:00","2018","01","14","09:00","1.9","","1.8","","99","","","","","","0","","","","102.21","","","","","","NA"
"-122.78","49.02","WHITE ROCK CAMPBELL SCIENTIFIC","1108910","2018-01-14 10:00","2018","01","14","10:00","3.8","","3.7","","99","","","","21","","2","","","","102.18","","","","","","NA"
"-122.78","49.02","WHITE ROCK CAMPBELL SCIENTIFIC","1108910","2018-01-14 11:00","2018","01","14","11:00","6.1","","5.1","","93","","","","11","","2","","","","102.13","","","","","","NA"
"-122.78","49.02","WHITE ROCK CAMPBELL SCIENTIFIC","1108910","2018-01-14 12:00","2018","01","14","12:00","8.9","","5.4","","79","","","","17","","2","","","","102.09","","","","","","NA"
"-122.78","49.02","WHITE ROCK CAMPBELL SCIENTIFIC","1108910","2018-01-14 13:00","2018","01","14","13:00","10.2","","6.4","","77","","","","19","","2","","","","102.03","","","","","","NA"
"-122.78","49.02","WHITE ROCK CAMPBELL SCIENTIFIC","1108910","2018-01-14 14:00","2018","01","14","14:00","10.8","","6.6","","75","","","","15","","1","","","","101.97","","","","","","NA"
"-122.78","49.02","WHITE ROCK CAMPBELL SCIENTIFIC","1108910","2018-01-14 15:00","2018","01","14","15:00","10.5","","6.4","","76","","","","3","","5","","","","101.90","","","","","","NA"
"-122.78","49.02","WHITE ROCK CAMPBELL SCIENTIFIC","1108910","2018-01-14 16:00","2018","01","14","16:00","8.9","","6.0","","82","","","","27","","1","","","","101.96","","","","","","NA"
"-122.78","49.02","WHITE ROCK CAMPBELL SCIENTIFIC","1108910","2018-01-14 17:00","2018","01","14","17:00","7.2","","5.9","","91","","","","2","","7","","","","101.92","","","","","","NA"
"-122.78","49.02","WHITE ROCK CAMPBELL SCIENTIFIC","1108910","2018-01-14 18:00","2018","01","14","18:00","6.0","","4.9","","93","","","","4","","4","","","","101.89","","","","","","NA"
"-122.78","49.02","WHITE ROCK CAMPBELL SCIENTIFIC","1108910","2018-01-14 19:00","2018","01","14","19:00","6.5","","5.7","","94","","","","3","","5","","","","101.86","","","","","","NA"
"-122.78","49.02","WHITE ROCK CAMPBELL SCIENTIFIC","1108910","2018-01-14 20:00","2018","01","14","20:00","5.6","","4.8","","94","","","","4","","6","","","","101.89","","","","","","NA"
"-122.78","49.02","WHITE ROCK CAMPBELL SCIENTIFIC","1108910","2018-01-14 21:00","2018","01","14","21:00","7.3","","4.0","","79","","","","4","","8","","","","101.85","","","","","","NA"
"-122.78","49.02","WHITE ROCK CAMPBELL SCIENTIFIC","1108910","2018-01-14 22:00","2018","01","14","22:00","5.5","","3.4","","87","","","","2","","4","","","","101.85","","","","","","NA"
"-122.78","49.02","WHITE ROCK CAMPBELL SCIENTIFIC","1108910","2018-01-14 23:00","2018","01","14","23:00","5.5","","3.7","","88","","","","0","","1","","","","101.91","","","","","","NA"
"-122.78","49.02","WHITE ROCK CAMPBELL SCIENTIFIC","1108910","2018-01-15 00:00","2018","01","15","00:00","5.5","","3.5","","87","","","","6","","2","","","","101.86","","","","","","NA"
"-122.78","49.02","WHITE ROCK CAMPBELL SCIENTIFIC","1108910","2018-01-15 01:00","2018","01","15","01:00","5.0","","3.4","","89","","","","2","","4","","","","101.86","","","","","","NA"
"-122.78","49.02","WHITE ROCK CAMPBELL SCIENTIFIC","1108910","2018-01-15 02:00","2018","01","15","02:00","4.4","","3.2","","92","","","","3","","4","","","","101.89","","","","","","NA"
"-122.78","49.02","WHITE ROCK CAMPBELL SCIENTIFIC","1108910","2018-01-15 03:00","2018","01","15","03:00","5.0","","2.9","","86","","","","3","","7","","","","101.81","","","","","","NA"
"-122.78","49.02","WHITE ROCK CAMPBELL SCIENTIFIC","1108910","2018-01-15 04:00","2018","01","15","04:00","5.2","","2.8","","85","","","","2","","5","","","","101.78","","","","","","NA"
"-122.78","49.02","WHITE ROCK CAMPBELL SCIENTIFIC","1108910","2018-01-15 05:00","2018","01","15","05:00","6.5","","2.6","","76","","","","5","","6","","","","101.67","","","","","","NA"
"-122.78","49.02","WHITE ROCK CAMPBELL SCIENTIFIC","1108910","2018-01-15 06:00","2018","01","15","06:00","5.6","","2.2","","78","","","","4","","8","","","","101.58","","","","","","NA"
"-122.78","49.02","WHITE ROCK CAMPBELL SCIENTIFIC","1108910","2018-01-15 07:00","2018","01","15","07:00","5.4","","2.4","","81","","","","0","","1","","","","101.58","","","","","","NA"
"-122.78","49.02","WHITE ROCK CAMPBELL SCIENTIFIC","1108910","2018-01-15 08:00","2018","01","15","08:00","5.1","","2.8","","85","","","","0","","1","","","","101.62","","","","","","NA"
"-122.78","49.02","WHITE ROCK CAMPBELL SCIENTIFIC","1108910","2018-01-15 09:00","2018","01","15","09:00","5.8","","3.4","","84","","","","3","","5","","","","101.66","","","","","","NA"
"-122.78","49.02","WHITE ROCK CAMPBELL SCIENTIFIC","1108910","2018-01-15 10:00","2018","01","15","10:00","8.0","","2.8","","70","","","","4","","9","","","","101.64","","","","","","NA"
"-122.78","49.02","WHITE ROCK CAMPBELL SCIENTIFIC","1108910","2018-01-15 11:00","2018","01","15","11:00","7.7","","3.0","","72","","","","4","","11","","","","101.57","","","","","","NA"
"-122.78","49.02","WHITE ROCK CAMPBELL SCIENTIFIC","1108910","2018-01-15 12:00","2018","01","15","12:00","8.5","","3.7","","72","","","","3","","5","","","","101.48","","","","","","NA"
"-122.78","49.02","WHITE ROCK CAMPBELL SCIENTIFIC","1108910","2018-01-15 13:00","2018","01","15","13:00","10.3","","4.4","","67","","","","8","","5","","","","101.27","","","","","","NA"
"-122.78","49.02","WHITE ROCK CAMPBELL SCIENTIFIC","1108910","2018-01-15 14:00","2018","01","15","14:00","13.6","","3.6","","51","","","","7","","10","","","","101.13","","","","","","NA"
"-122.78","49.02","WHITE ROCK CAMPBELL SCIENTIFIC","1108910","2018-01-15 15:00","2018","01","15","15:00","13.0","","3.2","","52","","","","7","","9","","","","101.04","","","","","","NA"
"-122.78","49.02","WHITE ROCK CAMPBELL SCIENTIFIC","1108910","2018-01-15 16:00","2018","01","15","16:00","11.2","","3.2","","58","","","","10","","4","","","","101.05","","","","","","NA"
"-122.78","49.02","WHITE ROCK CAMPBELL SCIENTIFIC","1108910","2018-01-15 17:00","2018","01","15","17:00","7.9","","4.2","","78","","","","5","","3","","","","101.02","","","","","","NA"
"-122.78","49.02","WHITE ROCK CAMPBELL SCIENTIFIC","1108910","2018-01-15 18:00","2018","01","15","18:00","7.0","","4.0","","81","","","","36","","3","","","","100.92","","","","","","NA"
"-122.78","49.02","WHITE ROCK CAMPBELL SCIENTIFIC","1108910","2018-01-15 19:00","2018","01","15","19:00","7.5","","4.6","","82","","","","0","","1","","","","100.95","","","","","","NA"
"-122.78","49.02","WHITE ROCK CAMPBELL SCIENTIFIC","1108910","2018-01-15 20:00","2018","01","15","20:00","7.4","","4.7","","83","","","","24","","1","","","","100.98","","","","","","NA"
"-122.78","49.02","WHITE ROCK CAMPBELL SCIENTIFIC","1108910","2018-01-15 21:00","2018","01","15","21:00","9.3","","3.6","","68","","","","7","","9","","","","101.08","","","","","","NA"
"-122.78","49.02","WHITE ROCK CAMPBELL SCIENTIFIC","1108910","2018-01-15 22:00","2018","01","15","22:00","9.3","","4.5","","72","","","","4","","9","","","","101.16","","","","","","NA"
"-122.78","49.02","WHITE ROCK CAMPBELL SCIENTIFIC","1108910","2018-01-15 23:00","2018","01","15","23:00","8.4","","5.2","","80","","","","6","","8","","","","101.20","","","","","","NA"
"-122.78","49.02","WHITE ROCK CAMPBELL SCIENTIFIC","1108910","2018-01-16 00:00","2018","01","16","00:00","8.4","","5.2","","80","","","","4","","9","","","","101.22","","","","","","NA"
"-122.78","49.02","WHITE ROCK CAMPBELL SCIENTIFIC","1108910","2018-01-16 01:00","2018","01","16","01:00","8.1","","5.6","","84","","","","7","","2","","","","101.34","","","","","","NA"
"-122.78","49.02","WHITE ROCK CAMPBELL SCIENTIFIC","1108910","2018-01-16 02:00","2018","01","16","02:00","8.4","","5.9","","84","","","","4","","5","","","","101.37","","","","","","NA"
"-122.78","49.02","WHITE ROCK CAMPBELL SCIENTIFIC","1108910","2018-01-16 03:00","2018","01","16","03:00","9.3","","5.9","","79","","","","6","","4","","","","101.45","","","","","","NA"
"-122.78","49.02","WHITE ROCK CAMPBELL SCIENTIFIC","1108910","2018-01-16 04:00","2018","01","16","04:00","10.2","","6.7","","79","","","","10","","5","","","","101.49","","","","","","NA"
"-122.78","49.02","WHITE ROCK CAMPBELL SCIENTIFIC","1108910","2018-01-16 05:00","2018","01","16","05:00","10.9","","7.4","","79","","","","15","","11","","","","101.57","","","","","","NA"
"-122.78","49.02","WHITE ROCK CAMPBELL SCIENTIFIC","1108910","2018-01-16 06:00","2018","01","16","06:00","10.7","","7.2","","79","","","","14","","11","","","","101.59","","","","","","NA"
"-122.78","49.02","WHITE ROCK CAMPBELL SCIENTIFIC","1108910","2018-01-16 07:00","2018","01","16","07:00","10.3","","7.1","","80","","","","15","","9","","","","101.59","","","","","","NA"
"-122.78","49.02","WHITE ROCK CAMPBELL SCIENTIFIC","1108910","2018-01-16 08:00","2018","01","16","08:00","10.2","","6.8","","79","","","","16","","11","","","","101.59","","","","","","NA"
"-122.78","49.02","WHITE ROCK CAMPBELL SCIENTIFIC","1108910","2018-01-16 09:00","2018","01","16","09:00","10.1","","6.7","","79","","","","15","","11","","","","101.68","","","","","","NA"
"-122.78","49.02","WHITE ROCK CAMPBELL SCIENTIFIC","1108910","2018-01-16 10:00","2018","01","16","10:00","10.1","","6.8","","80","","","","16","","19","","","","101.77","","","","","","NA"
"-122.78","49.02","WHITE ROCK CAMPBELL SCIENTIFIC","1108910","2018-01-16 11:00","2018","01","16","11:00","10.9","","6.6","","75","","","","17","","15","","","","101.92","","","","","","NA"
"-122.78","49.02","WHITE ROCK CAMPBELL SCIENTIFIC","1108910","2018-01-16 12:00","2018","01","16","12:00","10.5","","6.5","","76","","","","17","","12","","","","101.96","","","","","","NA"
"-122.78","49.02","WHITE ROCK CAMPBELL SCIENTIFIC","1108910","2018-01-16 13:00","2018","01","16","13:00","10.9","","6.2","","73","","","","16","","9","","","","102.06","","","","","","NA"
"-122.78","49.02","WHITE ROCK CAMPBELL SCIENTIFIC","1108910","2018-01-16 14:00","2018","01","16","14:00","10.7","","6.0","","73","","","","17","","11","","","","102.10","","","","","","NA"
"-122.78","49.02","WHITE ROCK CAMPBELL SCIENTIFIC","1108910","2018-01-16 15:00","2018","01","16","15:00","11.0","","6.1","","72","","","","20","","3","","","","102.18","","","","","","NA"
"-122.78","49.02","WHITE ROCK CAMPBELL SCIENTIFIC","1108910","2018-01-16 16:00","2018","01","16","16:00","9.9","","6.0","","77","","","","17","","3","","","","102.18","","","","","","NA"
"-122.78","49.02","WHITE ROCK CAMPBELL SCIENTIFIC","1108910","2018-01-16 17:00","2018","01","16","17:00","9.7","","5.6","","76","","","","14","","2","","","","102.20","","","","","","NA"
"-122.78","49.02","WHITE ROCK CAMPBELL SCIENTIFIC","1108910","2018-01-16 18:00","2018","01","16","18:00","9.6","","5.3","","75","","","","16","","4","","","","102.18","","","","","","NA"
"-122.78","49.02","WHITE ROCK CAMPBELL SCIENTIFIC","1108910","2018-01-16 19:00","2018","01","16","19:00","9.7","","5.1","","73","","","","17","","4","","","","102.20","","","","","","NA"
"-122.78","49.02","WHITE ROCK CAMPBELL SCIENTIFIC","1108910","2018-01-16 20:00","2018","01","16","20:00","9.8","","4.4","","69","","","","11","","3","","","","102.22","","","","","","NA"
"-122.78","49.02","WHITE ROCK CAMPBELL SCIENTIFIC","1108910","2018-01-16 21:00","2018","01","16","21:00","9.6","","4.1","","69","","","","9","","6","","","","102.16","","","","","","NA"
"-122.78","49.02","WHITE ROCK CAMPBELL SCIENTIFIC","1108910","2018-01-16 22:00","2018","01","16","22:00","9.2","","3.7","","68","","","","4","","6","","","","102.07","","","","","","NA"
"-122.78","49.02","WHITE ROCK CAMPBELL SCIENTIFIC","1108910","2018-01-16 23:00","2018","01","16","23:00","8.7","","3.7","","71","","","","2","","8","","","","102.02","","","","","","NA"
"-122.78","49.02","WHITE ROCK CAMPBELL SCIENTIFIC","1108910","2018-01-17 00:00","2018","01","17","00:00","8.2","","3.6","","73","","","","5","","6","","","","101.90","","","","","","NA"
"-122.78","49.02","WHITE ROCK CAMPBELL SCIENTIFIC","1108910","2018-01-17 01:00","2018","01","17","01:00","7.8","","3.8","","76","","","","3","","7","","","","101.81","","","","","","NA"
"-122.78","49.02","WHITE ROCK CAMPBELL SCIENTIFIC","1108910","2018-01-17 02:00","2018","01","17","02:00","7.7","","3.4","","75","","","","6","","8","","","","101.65","","","","","","NA"
"-122.78","49.02","WHITE ROCK CAMPBELL SCIENTIFIC","1108910","2018-01-17 03:00","2018","01","17","03:00","7.7","","3.4","","74","","","","7","","8","","","","101.64","","","","","","NA"
"-122.78","49.02","WHITE ROCK CAMPBELL SCIENTIFIC","1108910","2018-01-17 04:00","2018","01","17","04:00","7.7","","3.3","","74","","","","6","","12","","","","101.61","","","","","","NA"
"-122.78","49.02","WHITE ROCK CAMPBELL SCIENTIFIC","1108910","2018-01-17 05:00","2018","01","17","05:00","8.1","","3.6","","73","","","","6","","8","","","","101.56","","","","","","NA"
"-122.78","49.02","WHITE ROCK CAMPBELL SCIENTIFIC","1108910","2018-01-17 06:00","2018","01","17","06:00","7.5","","4.4","","81","","","","6","","11","","","","101.40","","","","","","NA"
"-122.78","49.02","WHITE ROCK CAMPBELL SCIENTIFIC","1108910","2018-01-17 07:00","2018","01","17","07:00","7.1","","5.1","","87","","","","5","","10","","","","101.31","","","","","","NA"
"-122.78","49.02","WHITE ROCK CAMPBELL SCIENTIFIC","1108910","2018-01-17 08:00","2018","01","17","08:00","6.7","","5.3","","91","","","","4","","11","","","","101.20","","","","","","NA"
"-122.78","49.02","WHITE ROCK CAMPBELL SCIENTIFIC","1108910","2018-01-17 09:00","2018","01","17","09:00","6.9","","4.9","","87","","","","5","","13","","","","101.13","","","","","","NA"
"-122.78","49.02","WHITE ROCK CAMPBELL SCIENTIFIC","1108910","2018-01-17 10:00","2018","01","17","10:00","7.5","","4.8","","83","","","","4","","12","","","","101.13","","","","","","NA"
"-122.78","49.02","WHITE ROCK CAMPBELL SCIENTIFIC","1108910","2018-01-17 11:00","2018","01","17","11:00","8.0","","4.9","","80","","","","5","","11","","","","101.00","","","","","","NA"
"-122.78","49.02","WHITE ROCK CAMPBELL SCIENTIFIC","1108910","2018-01-17 12:00","2018","01","17","12:00","8.7","","4.9","","77","","","","5","","12","","","","100.73","","","","","","NA"
"-122.78","49.02","WHITE ROCK CAMPBELL SCIENTIFIC","1108910","2018-01-17 13:00","2018","01","17","13:00","9.0","","5.1","","76","","","","4","","10","","","","100.53","","","","","","NA"
"-122.78","49.02","WHITE ROCK CAMPBELL SCIENTIFIC","1108910","2018-01-17 14:00","2018","01","17","14:00","10.1","","5.1","","71","","","","2","","9","","","","100.47","","","","","","NA"
"-122.78","49.02","WHITE ROCK CAMPBELL SCIENTIFIC","1108910","2018-01-17 15:00","2018","01","17","15:00","9.1","","7.1","","87","","","","3","","6","","","","100.50","","","","","","NA"
"-122.78","49.02","WHITE ROCK CAMPBELL SCIENTIFIC","1108910","2018-01-17 16:00","2018","01","17","16:00","10.9","","7.6","","80","","","","12","","5","","","","100.34","","","","","","NA"
"-122.78","49.02","WHITE ROCK CAMPBELL SCIENTIFIC","1108910","2018-01-17 17:00","2018","01","17","17:00","12.0","","7.3","","73","","","","15","","17","","","","100.37","","","","","","NA"
"-122.78","49.02","WHITE ROCK CAMPBELL SCIENTIFIC","1108910","2018-01-17 18:00","2018","01","17","18:00","11.4","","7.5","","77","","","","16","","23","","","","100.28","","","","","","NA"
"-122.78","49.02","WHITE ROCK CAMPBELL SCIENTIFIC","1108910","2018-01-17 19:00","2018","01","17","19:00","11.1","","7.6","","79","","","","16","","18","","","","100.25","","","","","","NA"
"-122.78","49.02","WHITE ROCK CAMPBELL SCIENTIFIC","1108910","2018-01-17 20:00","2018","01","17","20:00","11.0","","7.3","","78","","","","17","","16","","","","100.25","","","","","","NA"
"-122.78","49.02","WHITE ROCK CAMPBELL SCIENTIFIC","1108910","2018-01-17 21:00","2018","01","17","21:00","10.9","","7.4","","79","","","","16","","15","","","","100.20","","","","","","NA"
"-122.78","49.02","WHITE ROCK CAMPBELL SCIENTIFIC","1108910","2018-01-17 22:00","2018","01","17","22:00","11.1","","7.7","","80","","","","17","","17","","","","100.22","","","","","","NA"
"-122.78","49.02","WHITE ROCK CAMPBELL SCIENTIFIC","1108910","2018-01-17 23:00","2018","01","17","23:00","8.9","","6.7","","86","","","","25","","7","","","","100.37","","","","","","NA"
"-122.78","49.02","WHITE ROCK CAMPBELL SCIENTIFIC","1108910","2018-01-18 00:00","2018","01","18","00:00","9.8","","7.2","","84","","","","17","","9","","","","100.40","","","","","","NA"
"-122.78","49.02","WHITE ROCK CAMPBELL SCIENTIFIC","1108910","2018-01-18 01:00","2018","01","18","01:00","10.1","","4.4","","68","","","","17","","10","","","","100.35","","","","","","NA"
"-122.78","49.02","WHITE ROCK CAMPBELL SCIENTIFIC","1108910","2018-01-18 02:00","2018","01","18","02:00","9.6","","4.4","","70","","","","17","","15","","","","100.38","","","","","","NA"
"-122.78","49.02","WHITE ROCK CAMPBELL SCIENTIFIC","1108910","2018-01-18 03:00","2018","01","18","03:00","8.7","","5.8","","82","","","","16","","13","","","","100.44","","","","","","NA"
"-122.78","49.02","WHITE ROCK CAMPBELL SCIENTIFIC","1108910","2018-01-18 04:00","2018","01","18","04:00","8.4","","5.6","","82","","","","16","","16","","","","100.42","","","","","","NA"
"-122.78","49.02","WHITE ROCK CAMPBELL SCIENTIFIC","1108910","2018-01-18 05:00","2018","01","18","05:00","7.9","","4.7","","80","","","","16","","15","","","","100.38","","","","","","NA"
"-122.78","49.02","WHITE ROCK CAMPBELL SCIENTIFIC","1108910","2018-01-18 06:00","2018","01","18","06:00","7.5","","4.6","","82","","","","16","","18","","","","100.43","","","","","","NA"
"-122.78","49.02","WHITE ROCK CAMPBELL SCIENTIFIC","1108910","2018-01-18 07:00","2018","01","18","07:00","7.1","","4.6","","84","","","","17","","16","","","","100.57","","","","","","NA"
"-122.78","49.02","WHITE ROCK CAMPBELL SCIENTIFIC","1108910","2018-01-18 08:00","2018","01","18","08:00","5.9","","4.3","","89","","","","14","","9","","","","100.56","","","","","","NA"
"-122.78","49.02","WHITE ROCK CAMPBELL SCIENTIFIC","1108910","2018-01-18 09:00","2018","01","18","09:00","7.3","","4.3","","82","","","","15","","14","","","","100.64","","","","","","NA"
"-122.78","49.02","WHITE ROCK CAMPBELL SCIENTIFIC","1108910","2018-01-18 10:00","2018","01","18","10:00","8.2","","5.1","","80","","","","14","","11","","","","100.67","","","","","","NA"
"-122.78","49.02","WHITE ROCK CAMPBELL SCIENTIFIC","1108910","2018-01-18 11:00","2018","01","18","11:00","8.8","","4.6","","75","","","","16","","15","","","","100.68","","","","","","NA"
"-122.78","49.02","WHITE ROCK CAMPBELL SCIENTIFIC","1108910","2018-01-18 12:00","2018","01","18","12:00","9.1","","4.4","","72","","","","15","","13","","","","100.65","","","","","","NA"
"-122.78","49.02","WHITE ROCK CAMPBELL SCIENTIFIC","1108910","2018-01-18 13:00","2018","01","18","13:00","9.9","","4.5","","69","","","","13","","7","","","","100.55","","","","","","NA"
"-122.78","49.02","WHITE ROCK CAMPBELL SCIENTIFIC","1108910","2018-01-18 14:00","2018","01","18","14:00","9.5","","4.5","","71","","","","18","","6","","","","100.48","","","","","","NA"
"-122.78","49.02","WHITE ROCK CAMPBELL SCIENTIFIC","1108910","2018-01-18 15:00","2018","01","18","15:00","8.6","","4.3","","74","","","","17","","12","","","","100.49","","","","","","NA"
"-122.78","49.02","WHITE ROCK CAMPBELL SCIENTIFIC","1108910","2018-01-18 16:00","2018","01","18","16:00","8.6","","4.7","","76","","","","17","","12","","","","100.48","","","","","","NA"
"-122.78","49.02","WHITE ROCK CAMPBELL SCIENTIFIC","1108910","2018-01-18 17:00","2018","01","18","17:00","8.0","","4.5","","79","","","","15","","11","","","","100.46","","","","","","NA"
"-122.78","49.02","WHITE ROCK CAMPBELL SCIENTIFIC","1108910","2018-01-18 18:00","2018","01","18","18:00","7.3","","4.4","","82","","","","15","","9","","","","100.47","","","","","","NA"
"-122.78","49.02","WHITE ROCK CAMPBELL SCIENTIFIC","1108910","2018-01-18 19:00","2018","01","18","19:00","7.5","","3.8","","78","","","","15","","15","","","","100.53","","","","","","NA"
"-122.78","49.02","WHITE ROCK CAMPBELL SCIENTIFIC","1108910","2018-01-18 20:00","2018","01","18","20:00","7.3","","3.4","","76","","","","15","","12","","","","100.54","","","","","","NA"
"-122.78","49.02","WHITE ROCK CAMPBELL SCIENTIFIC","1108910","2018-01-18 21:00","2018","01","18","21:00","7.0","","3.5","","78","","","","15","","15","","","","100.58","","","","","","NA"
"-122.78","49.02","WHITE ROCK CAMPBELL SCIENTIFIC","1108910","2018-01-18 22:00","2018","01","18","22:00","7.0","","3.6","","79","","","","15","","14","","","","100.63","","","","","","NA"
"-122.78","49.02","WHITE ROCK CAMPBELL SCIENTIFIC","1108910","2018-01-18 23:00","2018","01","18","23:00","7.2","","3.3","","76","","","","15","","11","","","","100.69","","","","","","NA"
"-122.78","49.02","WHITE ROCK CAMPBELL SCIENTIFIC","1108910","2018-01-19 00:00","2018","01","19","00:00","6.9","","2.9","","75","","","","15","","12","","","","100.69","","","","","","NA"
"-122.78","49.02","WHITE ROCK CAMPBELL SCIENTIFIC","1108910","2018-01-19 01:00","2018","01","19","01:00","6.9","","3.0","","76","","","","14","","9","","","","100.71","","","","","","NA"
"-122.78","49.02","WHITE ROCK CAMPBELL SCIENTIFIC","1108910","2018-01-19 02:00","2018","01","19","02:00","6.9","","2.8","","75","","","","14","","7","","","","100.70","","","","","","NA"
"-122.78","49.02","WHITE ROCK CAMPBELL SCIENTIFIC","1108910","2018-01-19 03:00","2018","01","19","03:00","7.1","","2.8","","74","","","","15","","9","","","","100.73","","","","","","NA"
"-122.78","49.02","WHITE ROCK CAMPBELL SCIENTIFIC","1108910","2018-01-19 04:00","2018","01","19","04:00","7.2","","2.6","","72","","","","13","","9","","","","100.74","","","","","","NA"
"-122.78","49.02","WHITE ROCK CAMPBELL SCIENTIFIC","1108910","2018-01-19 05:00","2018","01","19","05:00","7.2","","2.8","","74","","","","15","","10","","","","100.76","","","","","","NA"
"-122.78","49.02","WHITE ROCK CAMPBELL SCIENTIFIC","1108910","2018-01-19 06:00","2018","01","19","06:00","7.2","","2.5","","72","","","","14","","9","","","","100.75","","","","","","NA"
"-122.78","49.02","WHITE ROCK CAMPBELL SCIENTIFIC","1108910","2018-01-19 07:00","2018","01","19","07:00","7.3","","2.5","","72","","","","14","","10","","","","100.79","","","","","","NA"
"-122.78","49.02","WHITE ROCK CAMPBELL SCIENTIFIC","1108910","2018-01-19 08:00","2018","01","19","08:00","7.4","","2.6","","72","","","","14","","12","","","","100.83","","","","","","NA"
"-122.78","49.02","WHITE ROCK CAMPBELL SCIENTIFIC","1108910","2018-01-19 09:00","2018","01","19","09:00","7.4","","2.9","","73","","","","14","","9","","","","100.88","","","","","","NA"
"-122.78","49.02","WHITE ROCK CAMPBELL SCIENTIFIC","1108910","2018-01-19 10:00","2018","01","19","10:00","7.6","","2.8","","72","","","","16","","12","","","","100.92","","","","","","NA"
"-122.78","49.02","WHITE ROCK CAMPBELL SCIENTIFIC","1108910","2018-01-19 11:00","2018","01","19","11:00","7.7","","2.8","","71","","","","15","","12","","","","100.95","","","","","","NA"
"-122.78","49.02","WHITE ROCK CAMPBELL SCIENTIFIC","1108910","2018-01-19 12:00","2018","01","19","12:00","7.9","","2.8","","71","","","","14","","9","","","","100.91","","","","","","NA"
"-122.78","49.02","WHITE ROCK CAMPBELL SCIENTIFIC","1108910","2018-01-19 13:00","2018","01","19","13:00","8.0","","2.9","","70","","","","14","","8","","","","100.86","","","","","","NA"
"-122.78","49.02","WHITE ROCK CAMPBELL SCIENTIFIC","1108910","2018-01-19 14:00","2018","01","19","14:00","7.6","","3.7","","76","","","","15","","14","","","","100.85","","","","","","NA"
"-122.78","49.02","WHITE ROCK CAMPBELL SCIENTIFIC","1108910","2018-01-19 15:00","2018","01","19","15:00","7.7","","3.6","","75","","","","16","","17","","","","100.84","","","","","","NA"
"-122.78","49.02","WHITE ROCK CAMPBELL SCIENTIFIC","1108910","2018-01-19 16:00","2018","01","19","16:00","7.4","","3.9","","78","","","","15","","16","","","","100.85","","","","","","NA"
"-122.78","49.02","WHITE ROCK CAMPBELL SCIENTIFIC","1108910","2018-01-19 17:00","2018","01","19","17:00","7.1","","4.0","","81","","","","16","","18","","","","100.84","","","","","","NA"
"-122.78","49.02","WHITE ROCK CAMPBELL SCIENTIFIC","1108910","2018-01-19 18:00","2018","01","19","18:00","6.9","","4.4","","84","","","","16","","17","","","","100.82","","","","","","NA"
"-122.78","49.02","WHITE ROCK CAMPBELL SCIENTIFIC","1108910","2018-01-19 19:00","2018","01","19","19:00","6.9","","4.3","","84","","","","16","","16","","","","100.83","","","","","","NA"
"-122.78","49.02","WHITE ROCK CAMPBELL SCIENTIFIC","1108910","2018-01-19 20:00","2018","01","19","20:00","7.0","","4.6","","84","","","","16","","13","","","","100.88","","","","","","NA"
"-122.78","49.02","WHITE ROCK CAMPBELL SCIENTIFIC","1108910","2018-01-19 21:00","2018","01","19","21:00","7.1","","4.7","","85","","","","15","","14","","","","100.93","","","","","","NA"
"-122.78","49.02","WHITE ROCK CAMPBELL SCIENTIFIC","1108910","2018-01-19 22:00","2018","01","19","22:00","7.2","","4.9","","86","","","","16","","16","","","","100.99","","","","","","NA"
"-122.78","49.02","WHITE ROCK CAMPBELL SCIENTIFIC","1108910","2018-01-19 23:00","2018","01","19","23:00","7.1","","5.1","","87","","","","16","","13","","","","101.05","","","","","","NA"
"-122.78","49.02","WHITE ROCK CAMPBELL SCIENTIFIC","1108910","2018-01-20 00:00","2018","01","20","00:00","7.1","","4.7","","84","","","","17","","11","","","","101.06","","","","","","NA"
"-122.78","49.02","WHITE ROCK CAMPBELL SCIENTIFIC","1108910","2018-01-20 01:00","2018","01","20","01:00","7.1","","4.0","","81","","","","19","","5","","","","101.08","","","","","","NA"
"-122.78","49.02","WHITE ROCK CAMPBELL SCIENTIFIC","1108910","2018-01-20 02:00","2018","01","20","02:00","6.7","","3.4","","79","","","","17","","7","","","","101.14","","","","","","NA"
"-122.78","49.02","WHITE ROCK CAMPBELL SCIENTIFIC","1108910","2018-01-20 03:00","2018","01","20","03:00","6.5","","3.6","","82","","","","16","","7","","","","101.21","","","","","","NA"
"-122.78","49.02","WHITE ROCK CAMPBELL SCIENTIFIC","1108910","2018-01-20 04:00","2018","01","20","04:00","5.8","","3.8","","87","","","","15","","5","","","","101.24","","","","","","NA"
"-122.78","49.02","WHITE ROCK CAMPBELL SCIENTIFIC","1108910","2018-01-20 05:00","2018","01","20","05:00","6.0","","4.4","","89","","","","16","","11","","","","101.26","","","","","","NA"
"-122.78","49.02","WHITE ROCK CAMPBELL SCIENTIFIC","1108910","2018-01-20 06:00","2018","01","20","06:00","5.7","","4.4","","91","","","","16","","11","","","","101.32","","","","","","NA"
"-122.78","49.02","WHITE ROCK CAMPBELL SCIENTIFIC","1108910","2018-01-20 07:00","2018","01","20","07:00","5.4","","4.1","","91","","","","15","","11","","","","101.37","","","","","","NA"
"-122.78","49.02","WHITE ROCK CAMPBELL SCIENTIFIC","1108910","2018-01-20 08:00","2018","01","20","08:00","5.4","","4.1","","91","","","","16","","11","","","","101.40","","","","","","NA"
"-122.78","49.02","WHITE ROCK CAMPBELL SCIENTIFIC","1108910","2018-01-20 09:00","2018","01","20","09:00","5.5","","3.9","","89","","","","16","","16","","","","101.43","","","","","","NA"
"-122.78","49.02","WHITE ROCK CAMPBELL SCIENTIFIC","1108910","2018-01-20 10:00","2018","01","20","10:00","5.8","","3.8","","87","","","","15","","15","","","","101.48","","","","","","NA"
"-122.78","49.02","WHITE ROCK CAMPBELL SCIENTIFIC","1108910","2018-01-20 11:00","2018","01","20","11:00","7.2","","3.9","","80","","","","15","","13","","","","101.49","","","","","","NA"
"-122.78","49.02","WHITE ROCK CAMPBELL SCIENTIFIC","1108910","2018-01-20 12:00","2018","01","20","12:00","6.5","","3.5","","81","","","","15","","11","","","","101.47","","","","","","NA"
"-122.78","49.02","WHITE ROCK CAMPBELL SCIENTIFIC","1108910","2018-01-20 13:00","2018","01","20","13:00","6.7","","3.3","","79","","","","14","","11","","","","101.39","","","","","","NA"
"-122.78","49.02","WHITE ROCK CAMPBELL SCIENTIFIC","1108910","2018-01-20 14:00","2018","01","20","14:00","6.9","","3.2","","77","","","","12","","9","","","","101.34","","","","","","NA"
"-122.78","49.02","WHITE ROCK CAMPBELL SCIENTIFIC","1108910","2018-01-20 15:00","2018","01","20","15:00","7.3","","3.4","","76","","","","15","","11","","","","101.37","","","","","","NA"
"-122.78","49.02","WHITE ROCK CAMPBELL SCIENTIFIC","1108910","2018-01-20 16:00","2018","01","20","16:00","7.2","","3.5","","77","","","","13","","9","","","","101.28","","","","","","NA"
"-122.78","49.02","WHITE ROCK CAMPBELL SCIENTIFIC","1108910","2018-01-20 17:00","2018","01","20","17:00","7.6","","3.4","","75","","","","13","","11","","","","101.24","","","","","","NA"
"-122.78","49.02","WHITE ROCK CAMPBELL SCIENTIFIC","1108910","2018-01-20 18:00","2018","01","20","18:00","8.1","","3.5","","73","","","","13","","13","","","","101.19","","","","","","NA"
"-122.78","49.02","WHITE ROCK CAMPBELL SCIENTIFIC","1108910","2018-01-20 19:00","2018","01","20","19:00","8.3","","3.6","","72","","","","13","","13","","","","101.09","","","","","","NA"
"-122.78","49.02","WHITE ROCK CAMPBELL SCIENTIFIC","1108910","2018-01-20 20:00","2018","01","20","20:00","8.6","","3.8","","71","","","","15","","21","","","","101.02","","","","","","NA"
"-122.78","49.02","WHITE ROCK CAMPBELL SCIENTIFIC","1108910","2018-01-20 21:00","2018","01","20","21:00","9.0","","3.4","","68","","","","15","","19","","","","100.97","","","","","","NA"
"-122.78","49.02","WHITE ROCK CAMPBELL SCIENTIFIC","1108910","2018-01-20 22:00","2018","01","20","22:00","9.3","","3.3","","66","","","","16","","24","","","","100.91","","","","","","NA"
"-122.78","49.02","WHITE ROCK CAMPBELL SCIENTIFIC","1108910","2018-01-20 23:00","2018","01","20","23:00","9.3","","3.1","","65","","","","15","","25","","","","100.88","","","","","","NA"
"-122.78","49.02","WHITE ROCK CAMPBELL SCIENTIFIC","1108910","2018-01-21 00:00","2018","01","21","00:00","9.5","","2.7","","62","","","","15","","24","","","","100.82","","","","","","NA"
"-122.78","49.02","WHITE ROCK CAMPBELL SCIENTIFIC","1108910","2018-01-21 01:00","2018","01","21","01:00","9.9","","2.4","","60","","","","16","","30","","","","100.76","","","","","","NA"
"-122.78","49.02","WHITE ROCK CAMPBELL SCIENTIFIC","1108910","2018-01-21 02:00","2018","01","21","02:00","10.0","","2.4","","59","","","","16","","27","","","","100.68","","","","","","NA"
"-122.78","49.02","WHITE ROCK CAMPBELL SCIENTIFIC","1108910","2018-01-21 03:00","2018","01","21","03:00","10.2","","2.5","","59","","","","16","","30","","","","100.64","","","","","","NA"
"-122.78","49.02","WHITE ROCK CAMPBELL SCIENTIFIC","1108910","2018-01-21 04:00","2018","01","21","04:00","9.7","","3.2","","64","","","","16","","28","","","","100.51","","","","","","NA"
"-122.78","49.02","WHITE ROCK CAMPBELL SCIENTIFIC","1108910","2018-01-21 05:00","2018","01","21","05:00","10.1","","3.0","","61","","","","16","","29","","","","100.40","","","","","","NA"
"-122.78","49.02","WHITE ROCK CAMPBELL SCIENTIFIC","1108910","2018-01-21 06:00","2018","01","21","06:00","10.1","","3.0","","61","","","","15","","24","","","","100.29","","","","","","NA"
"-122.78","49.02","WHITE ROCK CAMPBELL SCIENTIFIC","1108910","2018-01-21 07:00","2018","01","21","07:00","9.7","","3.2","","64","","","","15","","30","","","","100.21","","","","","","NA"
"-122.78","49.02","WHITE ROCK CAMPBELL SCIENTIFIC","1108910","2018-01-21 08:00","2018","01","21","08:00","8.8","","3.8","","71","","","","15","","28","","","","100.18","","","","","","NA"
"-122.78","49.02","WHITE ROCK CAMPBELL SCIENTIFIC","1108910","2018-01-21 09:00","2018","01","21","09:00","8.6","","4.0","","72","","","","16","","31","","","","100.19","","","","","","NA"
"-122.78","49.02","WHITE ROCK CAMPBELL SCIENTIFIC","1108910","2018-01-21 10:00","2018","01","21","10:00","9.0","","3.9","","71","","","","16","","27","","","","100.27","","","","","","NA"
"-122.78","49.02","WHITE ROCK CAMPBELL SCIENTIFIC","1108910","2018-01-21 11:00","2018","01","21","11:00","8.5","","4.9","","78","","","","16","","25","","","","100.42","","","","","","NA"
"-122.78","49.02","WHITE ROCK CAMPBELL SCIENTIFIC","1108910","2018-01-21 12:00","2018","01","21","12:00","7.5","","5.9","","89","","","","17","","19","","","","100.54","","","","","","NA"
"-122.78","49.02","WHITE ROCK CAMPBELL SCIENTIFIC","1108910","2018-01-21 13:00","2018","01","21","13:00","8.4","","5.8","","84","","","","17","","18","","","","100.58","","","","","","NA"
"-122.78","49.02","WHITE ROCK CAMPBELL SCIENTIFIC","1108910","2018-01-21 14:00","2018","01","21","14:00","9.0","","5.4","","78","","","","17","","9","","","","100.65","","","","","","NA"
"-122.78","49.02","WHITE ROCK CAMPBELL SCIENTIFIC","1108910","2018-01-21 15:00","2018","01","21","15:00","8.4","","4.5","","77","","","","16","","9","","","","100.73","","","","","","NA"
"-122.78","49.02","WHITE ROCK CAMPBELL SCIENTIFIC","1108910","2018-01-21 16:00","2018","01","21","16:00","8.1","","4.5","","78","","","","18","","8","","","","100.82","","","","","","NA"
"-122.78","49.02","WHITE ROCK CAMPBELL SCIENTIFIC","1108910","2018-01-21 17:00","2018","01","21","17:00","6.6","","3.8","","82","","","","18","","3","","","","100.85","","","","","","NA"
"-122.78","49.02","WHITE ROCK CAMPBELL SCIENTIFIC","1108910","2018-01-21 18:00","2018","01","21","18:00","6.8","","3.3","","78","","","","17","","6","","","","100.97","","","","","","NA"
"-122.78","49.02","WHITE ROCK CAMPBELL SCIENTIFIC","1108910","2018-01-21 19:00","2018","01","21","19:00","7.1","","3.0","","75","","","","19","","5","","","","101.06","","","","","","NA"
"-122.78","49.02","WHITE ROCK CAMPBELL SCIENTIFIC","1108910","2018-01-21 20:00","2018","01","21","20:00","6.8","","2.8","","76","","","","17","","8","","","","101.16","","","","","","NA"
"-122.78","49.02","WHITE ROCK CAMPBELL SCIENTIFIC","1108910","2018-01-21 21:00","2018","01","21","21:00","7.1","","2.9","","75","","","","17","","10","","","","101.20","","","","","","NA"
"-122.78","49.02","WHITE ROCK CAMPBELL SCIENTIFIC","1108910","2018-01-21 22:00","2018","01","21","22:00","6.3","","4.0","","85","","","","15","","15","","","","101.27","","","","","","NA"
"-122.78","49.02","WHITE ROCK CAMPBELL SCIENTIFIC","1108910","2018-01-21 23:00","2018","01","21","23:00","6.4","","4.2","","86","","","","16","","13","","","","101.36","","","","","","NA"
"-122.78","49.02","WHITE ROCK CAMPBELL SCIENTIFIC","1108910","2018-01-22 00:00","2018","01","22","00:00","6.6","","4.4","","86","","","","16","","10","","","","101.40","","","","","","NA"
"-122.78","49.02","WHITE ROCK CAMPBELL SCIENTIFIC","1108910","2018-01-22 01:00","2018","01","22","01:00","6.8","","4.4","","84","","","","16","","12","","","","101.44","","","","","","NA"
"-122.78","49.02","WHITE ROCK CAMPBELL SCIENTIFIC","1108910","2018-01-22 02:00","2018","01","22","02:00","6.8","","4.5","","85","","","","15","","10","","","","101.49","","","","","","NA"
"-122.78","49.02","WHITE ROCK CAMPBELL SCIENTIFIC","1108910","2018-01-22 03:00","2018","01","22","03:00","5.9","","3.6","","86","","","","16","","10","","","","101.56","","","","","","NA"
"-122.78","49.02","WHITE ROCK CAMPBELL SCIENTIFIC","1108910","2018-01-22 04:00","2018","01","22","04:00","6.3","","4.9","","91","","","","17","","4","","","","101.59","","","","","","NA"
"-122.78","49.02","WHITE ROCK CAMPBELL SCIENTIFIC","1108910","2018-01-22 05:00","2018","01","22","05:00","6.0","","4.1","","88","","","","17","","6","","","","101.61","","","","","","NA"
"-122.78","49.02","WHITE ROCK CAMPBELL SCIENTIFIC","1108910","2018-01-22 06:00","2018","01","22","06:00","6.0","","3.9","","87","","","","17","","5","","","","101.66","","","","","","NA"
"-122.78","49.02","WHITE ROCK CAMPBELL SCIENTIFIC","1108910","2018-01-22 07:00","2018","01","22","07:00","6.4","","4.1","","85","","","","18","","4","","","","101.71","","","","","","NA"
"-122.78","49.02","WHITE ROCK CAMPBELL SCIENTIFIC","1108910","2018-01-22 08:00","2018","01","22","08:00","6.3","","3.6","","83","","","","17","","7","","","","101.79","","","","","","NA"
"-122.78","49.02","WHITE ROCK CAMPBELL SCIENTIFIC","1108910","2018-01-22 09:00","2018","01","22","09:00","6.4","","3.8","","84","","","","19","","4","","","","101.92","","","","","","NA"
"-122.78","49.02","WHITE ROCK CAMPBELL SCIENTIFIC","1108910","2018-01-22 10:00","2018","01","22","10:00","6.8","","3.8","","82","","","","17","","6","","","","102.00","","","","","","NA"
"-122.78","49.02","WHITE ROCK CAMPBELL SCIENTIFIC","1108910","2018-01-22 11:00","2018","01","22","11:00","7.7","","3.8","","76","","","","20","","9","","","","102.07","","","","","","NA"
"-122.78","49.02","WHITE ROCK CAMPBELL SCIENTIFIC","1108910","2018-01-22 12:00","2018","01","22","12:00","8.3","","4.5","","77","","","","20","","6","","","","102.16","","","","","","NA"
"-122.78","49.02","WHITE ROCK CAMPBELL SCIENTIFIC","1108910","2018-01-22 13:00","2018","01","22","13:00","8.5","","4.1","","74","","","","21","","7","","","","102.22","","","","","","NA"
"-122.78","49.02","WHITE ROCK CAMPBELL SCIENTIFIC","1108910","2018-01-22 14:00","2018","01","22","14:00","8.6","","4.2","","74","","","","21","","6","","","","102.26","","","","","","NA"
"-122.78","49.02","WHITE ROCK CAMPBELL SCIENTIFIC","1108910","2018-01-22 15:00","2018","01","22","15:00","8.3","","4.3","","76","","","","18","","5","","","","102.32","","","","","","NA"
"-122.78","49.02","WHITE ROCK CAMPBELL SCIENTIFIC","1108910","2018-01-22 16:00","2018","01","22","16:00","7.5","","3.7","","77","","","","17","","4","","","","102.33","","","","","","NA"
"-122.78","49.02","WHITE ROCK CAMPBELL SCIENTIFIC","1108910","2018-01-22 17:00","2018","01","22","17:00","7.1","","3.4","","77","","","","17","","6","","","","102.35","","","","","","NA"
"-122.78","49.02","WHITE ROCK CAMPBELL SCIENTIFIC","1108910","2018-01-22 18:00","2018","01","22","18:00","7.3","","2.8","","73","","","","17","","7","","","","102.33","","","","","","NA"
"-122.78","49.02","WHITE ROCK CAMPBELL SCIENTIFIC","1108910","2018-01-22 19:00","2018","01","22","19:00","6.7","","3.4","","79","","","","16","","4","","","","102.34","","","","","","NA"
"-122.78","49.02","WHITE ROCK CAMPBELL SCIENTIFIC","1108910","2018-01-22 20:00","2018","01","22","20:00","6.3","","3.8","","84","","","","11","","3","","","","102.34","","","","","","NA"
"-122.78","49.02","WHITE ROCK CAMPBELL SCIENTIFIC","1108910","2018-01-22 21:00","2018","01","22","21:00","6.0","","3.6","","85","","","","10","","4","","","","102.31","","","","","","NA"
"-122.78","49.02","WHITE ROCK CAMPBELL SCIENTIFIC","1108910","2018-01-22 22:00","2018","01","22","22:00","5.8","","3.2","","84","","","","7","","4","","","","102.29","","","","","","NA"
"-122.78","49.02","WHITE ROCK CAMPBELL SCIENTIFIC","1108910","2018-01-22 23:00","2018","01","22","23:00","6.0","","2.6","","79","","","","8","","7","","","","102.29","","","","","","NA"
"-122.78","49.02","WHITE ROCK CAMPBELL SCIENTIFIC","1108910","2018-01-23 00:00","2018","01","23","00:00","4.9","","2.3","","83","","","","5","","8","","","","102.27","","","","","","NA"
"-122.78","49.02","WHITE ROCK CAMPBELL SCIENTIFIC","1108910","2018-01-23 01:00","2018","01","23","01:00","4.7","","2.0","","83","","","","5","","7","","","","102.22","","","","","","NA"
"-122.78","49.02","WHITE ROCK CAMPBELL SCIENTIFIC","1108910","2018-01-23 02:00","2018","01","23","02:00","4.7","","1.7","","81","","","","5","","8","","","","102.15","","","","","","NA"
"-122.78","49.02","WHITE ROCK CAMPBELL SCIENTIFIC","1108910","2018-01-23 03:00","2018","01","23","03:00","4.6","","1.6","","81","","","","5","","9","","","","102.05","","","","","","NA"
"-122.78","49.02","WHITE ROCK CAMPBELL SCIENTIFIC","1108910","2018-01-23 04:00","2018","01","23","04:00","4.9","","1.7","","80","","","","5","","9","","","","101.91","","","","","","NA"
"-122.78","49.02","WHITE ROCK CAMPBELL SCIENTIFIC","1108910","2018-01-23 05:00","2018","01","23","05:00","5.0","","1.6","","79","","","","5","","9","","","","101.75","","","","","","NA"
"-122.78","49.02","WHITE ROCK CAMPBELL SCIENTIFIC","1108910","2018-01-23 06:00","2018","01","23","06:00","5.3","","1.1","","74","","","","6","","10","","","","101.56","","","","","","NA"
"-122.78","49.02","WHITE ROCK CAMPBELL SCIENTIFIC","1108910","2018-01-23 07:00","2018","01","23","07:00","5.2","","0.9","","74","","","","5","","12","","","","101.40","","","","","","NA"
"-122.78","49.02","WHITE ROCK CAMPBELL SCIENTIFIC","1108910","2018-01-23 08:00","2018","01","23","08:00","5.2","","1.2","","75","","","","6","","10","","","","101.33","","","","","","NA"
"-122.78","49.02","WHITE ROCK CAMPBELL SCIENTIFIC","1108910","2018-01-23 09:00","2018","01","23","09:00","5.0","","2.7","","85","","","","7","","9","","","","101.33","","","","","","NA"
"-122.78","49.02","WHITE ROCK CAMPBELL SCIENTIFIC","1108910","2018-01-23 10:00","2018","01","23","10:00","4.4","","2.9","","90","","","","6","","12","","","","101.22","","","","","","NA"
"-122.78","49.02","WHITE ROCK CAMPBELL SCIENTIFIC","1108910","2018-01-23 11:00","2018","01","23","11:00","4.0","","2.8","","93","","","","5","","11","","","","101.12","","","","","","NA"
"-122.78","49.02","WHITE ROCK CAMPBELL SCIENTIFIC","1108910","2018-01-23 12:00","2018","01","23","12:00","4.3","","3.2","","92","","","","6","","7","","","","101.05","","","","","","NA"
"-122.78","49.02","WHITE ROCK CAMPBELL SCIENTIFIC","1108910","2018-01-23 13:00","2018","01","23","13:00","4.6","","3.7","","94","","","","6","","7","","","","100.94","","","","","","NA"
"-122.78","49.02","WHITE ROCK CAMPBELL SCIENTIFIC","1108910","2018-01-23 14:00","2018","01","23","14:00","4.7","","3.6","","93","","","","6","","11","","","","100.86","","","","","","NA"
"-122.78","49.02","WHITE ROCK CAMPBELL SCIENTIFIC","1108910","2018-01-23 15:00","2018","01","23","15:00","4.7","","3.6","","93","","","","5","","11","","","","100.82","","","","","","NA"
"-122.78","49.02","WHITE ROCK CAMPBELL SCIENTIFIC","1108910","2018-01-23 16:00","2018","01","23","16:00","4.4","","3.3","","93","","","","3","","10","","","","100.80","","","","","","NA"
"-122.78","49.02","WHITE ROCK CAMPBELL SCIENTIFIC","1108910","2018-01-23 17:00","2018","01","23","17:00","4.7","","3.5","","92","","","","5","","7","","","","100.75","","","","","","NA"
"-122.78","49.02","WHITE ROCK CAMPBELL SCIENTIFIC","1108910","2018-01-23 18:00","2018","01","23","18:00","4.3","","3.4","","94","","","","3","","10","","","","100.67","","","","","","NA"
"-122.78","49.02","WHITE ROCK CAMPBELL SCIENTIFIC","1108910","2018-01-23 19:00","2018","01","23","19:00","4.5","","3.6","","94","","","","4","","7","","","","100.63","","","","","","NA"
"-122.78","49.02","WHITE ROCK CAMPBELL SCIENTIFIC","1108910","2018-01-23 20:00","2018","01","23","20:00","4.5","","3.7","","95","","","","8","","10","","","","100.52","","","","","","NA"
"-122.78","49.02","WHITE ROCK CAMPBELL SCIENTIFIC","1108910","2018-01-23 21:00","2018","01","23","21:00","4.9","","4.0","","94","","","","7","","11","","","","100.45","","","","","","NA"
"-122.78","49.02","WHITE ROCK CAMPBELL SCIENTIFIC","1108910","2018-01-23 22:00","2018","01","23","22:00","4.8","","3.8","","94","","","","5","","11","","","","100.39","","","","","","NA"
"-122.78","49.02","WHITE ROCK CAMPBELL SCIENTIFIC","1108910","2018-01-23 23:00","2018","01","23","23:00","4.7","","3.9","","95","","","","4","","9","","","","100.41","","","","","","NA"
"-122.78","49.02","WHITE ROCK CAMPBELL SCIENTIFIC","1108910","2018-01-24 00:00","2018","01","24","00:00","4.6","","3.8","","95","","","","5","","9","","","","100.32","","","","","","NA"
"-122.78","49.02","WHITE ROCK CAMPBELL SCIENTIFIC","1108910","2018-01-24 01:00","2018","01","24","01:00","4.8","","4.0","","94","","","","5","","8","","","","100.28","","","","","","NA"
"-122.78","49.02","WHITE ROCK CAMPBELL SCIENTIFIC","1108910","2018-01-24 02:00","2018","01","24","02:00","5.1","","4.2","","94","","","","2","","11","","","","100.32","","","","","","NA"
"-122.78","49.02","WHITE ROCK CAMPBELL SCIENTIFIC","1108910","2018-01-24 03:00","2018","01","24","03:00","6.0","","4.9","","93","","","","3","","7","","","","100.35","","","","","","NA"
"-122.78","49.02","WHITE ROCK CAMPBELL SCIENTIFIC","1108910","2018-01-24 04:00","2018","01","24","04:00","7.8","","6.8","","93","","","","10","","3","","","","100.33","","","","","","NA"
"-122.78","49.02","WHITE ROCK CAMPBELL SCIENTIFIC","1108910","2018-01-24 05:00","2018","01","24","05:00","8.0","","6.1","","87","","","","10","","6","","","","100.34","","","","","","NA"
"-122.78","49.02","WHITE ROCK CAMPBELL SCIENTIFIC","1108910","2018-01-24 06:00","2018","01","24","06:00","6.9","","5.3","","89","","","","6","","4","","","","100.32","","","","","","NA"
"-122.78","49.02","WHITE ROCK CAMPBELL SCIENTIFIC","1108910","2018-01-24 07:00","2018","01","24","07:00","7.8","","6.0","","89","","","","11","","6","","","","100.31","","","","","","NA"
"-122.78","49.02","WHITE ROCK CAMPBELL SCIENTIFIC","1108910","2018-01-24 08:00","2018","01","24","08:00","9.1","","5.6","","79","","","","15","","12","","","","100.36","","","","","","NA"
"-122.78","49.02","WHITE ROCK CAMPBELL SCIENTIFIC","1108910","2018-01-24 09:00","2018","01","24","09:00","8.7","","5.6","","81","","","","16","","9","","","","100.36","","","","","","NA"
"-122.78","49.02","WHITE ROCK CAMPBELL SCIENTIFIC","1108910","2018-01-24 10:00","2018","01","24","10:00","9.0","","5.0","","76","","","","15","","9","","","","100.33","","","","","","NA"
"-122.78","49.02","WHITE ROCK CAMPBELL SCIENTIFIC","1108910","2018-01-24 11:00","2018","01","24","11:00","8.6","","5.3","","80","","","","16","","12","","","","100.31","","","","","","NA"
"-122.78","49.02","WHITE ROCK CAMPBELL SCIENTIFIC","1108910","2018-01-24 12:00","2018","01","24","12:00","8.2","","5.4","","83","","","","15","","8","","","","100.24","","","","","","NA"
"-122.78","49.02","WHITE ROCK CAMPBELL SCIENTIFIC","1108910","2018-01-24 13:00","2018","01","24","13:00","8.8","","5.4","","79","","","","14","","6","","","","100.15","","","","","","NA"
"-122.78","49.02","WHITE ROCK CAMPBELL SCIENTIFIC","1108910","2018-01-24 14:00","2018","01","24","14:00","8.9","","5.2","","78","","","","11","","4","","","","100.07","","","","","","NA"
"-122.78","49.02","WHITE ROCK CAMPBELL SCIENTIFIC","1108910","2018-01-24 15:00","2018","01","24","15:00","8.5","","5.1","","79","","","","6","","5","","","","100.01","","","","","","NA"
"-122.78","49.02","WHITE ROCK CAMPBELL SCIENTIFIC","1108910","2018-01-24 16:00","2018","01","24","16:00","8.0","","5.5","","84","","","","8","","4","","","","100.01","","","","","","NA"
"-122.78","49.02","WHITE ROCK CAMPBELL SCIENTIFIC","1108910","2018-01-24 17:00","2018","01","24","17:00","7.0","","5.3","","89","","","","6","","7","","","","99.96","","","","","","NA"
"-122.78","49.02","WHITE ROCK CAMPBELL SCIENTIFIC","1108910","2018-01-24 18:00","2018","01","24","18:00","6.7","","5.2","","90","","","","7","","7","","","","99.87","","","","","","NA"
"-122.78","49.02","WHITE ROCK CAMPBELL SCIENTIFIC","1108910","2018-01-24 19:00","2018","01","24","19:00","6.7","","5.1","","89","","","","7","","6","","","","99.85","","","","","","NA"
"-122.78","49.02","WHITE ROCK CAMPBELL SCIENTIFIC","1108910","2018-01-24 20:00","2018","01","24","20:00","7.0","","5.1","","87","","","","13","","6","","","","99.88","","","","","","NA"
"-122.78","49.02","WHITE ROCK CAMPBELL SCIENTIFIC","1108910","2018-01-24 21:00","2018","01","24","21:00","7.4","","4.6","","82","","","","17","","18","","","","100.03","","","","","","NA"
"-122.78","49.02","WHITE ROCK CAMPBELL SCIENTIFIC","1108910","2018-01-24 22:00","2018","01","24","22:00","6.6","","4.7","","88","","","","16","","11","","","","100.07","","","","","","NA"
"-122.78","49.02","WHITE ROCK CAMPBELL SCIENTIFIC","1108910","2018-01-24 23:00","2018","01","24","23:00","6.8","","3.5","","79","","","","17","","8","","","","100.18","","","","","","NA"
"-122.78","49.02","WHITE ROCK CAMPBELL SCIENTIFIC","1108910","2018-01-25 00:00","2018","01","25","00:00","6.7","","3.2","","79","","","","17","","7","","","","100.25","","","","","","NA"
"-122.78","49.02","WHITE ROCK CAMPBELL SCIENTIFIC","1108910","2018-01-25 01:00","2018","01","25","01:00","5.8","","3.8","","87","","","","13","","6","","","","100.27","","","","","","NA"
"-122.78","49.02","WHITE ROCK CAMPBELL SCIENTIFIC","1108910","2018-01-25 02:00","2018","01","25","02:00","5.1","","3.2","","87","","","","10","","5","","","","100.31","","","","","","NA"
"-122.78","49.02","WHITE ROCK CAMPBELL SCIENTIFIC","1108910","2018-01-25 03:00","2018","01","25","03:00","4.7","","2.7","","87","","","","15","","9","","","","100.35","","","","","","NA"
"-122.78","49.02","WHITE ROCK CAMPBELL SCIENTIFIC","1108910","2018-01-25 04:00","2018","01","25","04:00","4.1","","2.5","","89","","","","13","","8","","","","100.38","","","","","","NA"
"-122.78","49.02","WHITE ROCK CAMPBELL SCIENTIFIC","1108910","2018-01-25 05:00","2018","01","25","05:00","4.2","","2.4","","88","","","","12","","6","","","","100.35","","","","","","NA"
"-122.78","49.02","WHITE ROCK CAMPBELL SCIENTIFIC","1108910","2018-01-25 06:00","2018","01","25","06:00","4.2","","2.0","","86","","","","8","","6","","","","100.31","","","","","","NA"
"-122.78","49.02","WHITE ROCK CAMPBELL SCIENTIFIC","1108910","2018-01-25 07:00","2018","01","25","07:00","3.9","","1.9","","87","","","","4","","5","","","","100.28","","","","","","NA"
"-122.78","49.02","WHITE ROCK CAMPBELL SCIENTIFIC","1108910","2018-01-25 08:00","2018","01","25","08:00","3.8","","1.6","","86","","","","5","","7","","","","100.25","","","","","","NA"
"-122.78","49.02","WHITE ROCK CAMPBELL SCIENTIFIC","1108910","2018-01-25 09:00","2018","01","25","09:00","3.8","","1.7","","86","","","","5","","8","","","","100.25","","","","","","NA"
"-122.78","49.02","WHITE ROCK CAMPBELL SCIENTIFIC","1108910","2018-01-25 10:00","2018","01","25","10:00","4.6","","1.8","","82","","","","7","","9","","","","100.33","","","","","","NA"
"-122.78","49.02","WHITE ROCK CAMPBELL SCIENTIFIC","1108910","2018-01-25 11:00","2018","01","25","11:00","4.6","","1.8","","82","","","","10","","7","","","","100.38","","","","","","NA"
"-122.78","49.02","WHITE ROCK CAMPBELL SCIENTIFIC","1108910","2018-01-25 12:00","2018","01","25","12:00","4.4","","2.3","","86","","","","10","","5","","","","100.40","","","","","","NA"
"-122.78","49.02","WHITE ROCK CAMPBELL SCIENTIFIC","1108910","2018-01-25 13:00","2018","01","25","13:00","4.1","","2.5","","89","","","","13","","6","","","","100.43","","","","","","NA"
"-122.78","49.02","WHITE ROCK CAMPBELL SCIENTIFIC","1108910","2018-01-25 14:00","2018","01","25","14:00","4.1","","2.6","","90","","","","16","","11","","","","100.48","","","","","","NA"
"-122.78","49.02","WHITE ROCK CAMPBELL SCIENTIFIC","1108910","2018-01-25 15:00","2018","01","25","15:00","4.0","","2.5","","90","","","","16","","12","","","","100.55","","","","","","NA"
"-122.78","49.02","WHITE ROCK CAMPBELL SCIENTIFIC","1108910","2018-01-25 16:00","2018","01","25","16:00","4.9","","3.2","","89","","","","15","","13","","","","100.61","","","","","","NA"
"-122.78","49.02","WHITE ROCK CAMPBELL SCIENTIFIC","1108910","2018-01-25 17:00","2018","01","25","17:00","4.4","","2.8","","90","","","","15","","7","","","","100.67","","","","","","NA"
"-122.78","49.02","WHITE ROCK CAMPBELL SCIENTIFIC","1108910","2018-01-25 18:00","2018","01","25","18:00","4.1","","2.6","","90","","","","14","","6","","","","100.72","","","","","","NA"
"-122.78","49.02","WHITE ROCK CAMPBELL SCIENTIFIC","1108910","2018-01-25 19:00","2018","01","25","19:00","4.1","","2.7","","91","","","","14","","4","","","","100.77","","","","","","NA"
"-122.78","49.02","WHITE ROCK CAMPBELL SCIENTIFIC","1108910","2018-01-25 20:00","2018","01","25","20:00","4.5","","2.9","","89","","","","13","","4","","","","100.79","","","","","","NA"
"-122.78","49.02","WHITE ROCK CAMPBELL SCIENTIFIC","1108910","2018-01-25 21:00","2018","01","25","21:00","4.8","","2.8","","87","","","","14","","4","","","","100.83","","","","","","NA"
"-122.78","49.02","WHITE ROCK CAMPBELL SCIENTIFIC","1108910","2018-01-25 22:00","2018","01","25","22:00","4.7","","3.3","","91","","","","9","","3","","","","100.88","","","","","","NA"
"-122.78","49.02","WHITE ROCK CAMPBELL SCIENTIFIC","1108910","2018-01-25 23:00","2018","01","25","23:00","5.0","","3.6","","91","","","","15","","10","","","","100.94","","","","","","NA"
"-122.78","49.02","WHITE ROCK CAMPBELL SCIENTIFIC","1108910","2018-01-26 00:00","2018","01","26","00:00","5.4","","3.7","","88","","","","17","","13","","","","101.01","","","","","","NA"
"-122.78","49.02","WHITE ROCK CAMPBELL SCIENTIFIC","1108910","2018-01-26 01:00","2018","01","26","01:00","5.8","","2.4","","79","","","","22","","10","","","","101.09","","","","","","NA"
"-122.78","49.02","WHITE ROCK CAMPBELL SCIENTIFIC","1108910","2018-01-26 02:00","2018","01","26","02:00","5.8","","2.4","","79","","","","19","","6","","","","101.17","","","","","","NA"
"-122.78","49.02","WHITE ROCK CAMPBELL SCIENTIFIC","1108910","2018-01-26 03:00","2018","01","26","03:00","5.9","","1.8","","75","","","","22","","10","","","","101.24","","","","","","NA"
"-122.78","49.02","WHITE ROCK CAMPBELL SCIENTIFIC","1108910","2018-01-26 04:00","2018","01","26","04:00","5.9","","1.9","","76","","","","20","","7","","","","101.31","","","","","","NA"
"-122.78","49.02","WHITE ROCK CAMPBELL SCIENTIFIC","1108910","2018-01-26 05:00","2018","01","26","05:00","5.5","","1.8","","77","","","","17","","10","","","","101.38","","","","","","NA"
"-122.78","49.02","WHITE ROCK CAMPBELL SCIENTIFIC","1108910","2018-01-26 06:00","2018","01","26","06:00","4.7","","2.5","","85","","","","15","","11","","","","101.41","","","","","","NA"
"-122.78","49.02","WHITE ROCK CAMPBELL SCIENTIFIC","1108910","2018-01-26 07:00","2018","01","26","07:00","4.6","","2.4","","86","","","","16","","12","","","","101.44","","","","","","NA"
"-122.78","49.02","WHITE ROCK CAMPBELL SCIENTIFIC","1108910","2018-01-26 08:00","2018","01","26","08:00","5.0","","2.4","","83","","","","16","","11","","","","101.49","","","","","","NA"
"-122.78","49.02","WHITE ROCK CAMPBELL SCIENTIFIC","1108910","2018-01-26 09:00","2018","01","26","09:00","5.0","","2.2","","82","","","","16","","12","","","","101.56","","","","","","NA"
"-122.78","49.02","WHITE ROCK CAMPBELL SCIENTIFIC","1108910","2018-01-26 10:00","2018","01","26","10:00","5.4","","2.2","","80","","","","16","","13","","","","101.64","","","","","","NA"
"-122.78","49.02","WHITE ROCK CAMPBELL SCIENTIFIC","1108910","2018-01-26 11:00","2018","01","26","11:00","6.6","","2.6","","76","","","","19","","5","","","","101.70","","","","","","NA"
"-122.78","49.02","WHITE ROCK CAMPBELL SCIENTIFIC","1108910","2018-01-26 12:00","2018","01","26","12:00","6.9","","2.3","","73","","","","20","","8","","","","101.76","","","","","","NA"
"-122.78","49.02","WHITE ROCK CAMPBELL SCIENTIFIC","1108910","2018-01-26 13:00","2018","01","26","13:00","6.9","","1.9","","71","","","","18","","6","","","","101.79","","","","","","NA"
"-122.78","49.02","WHITE ROCK CAMPBELL SCIENTIFIC","1108910","2018-01-26 14:00","2018","01","26","14:00","6.7","","1.7","","71","","","","20","","4","","","","101.83","","","","","","NA"
"-122.78","49.02","WHITE ROCK CAMPBELL SCIENTIFIC","1108910","2018-01-26 15:00","2018","01","26","15:00","6.5","","1.8","","72","","","","16","","7","","","","101.86","","","","","","NA"
"-122.78","49.02","WHITE ROCK CAMPBELL SCIENTIFIC","1108910","2018-01-26 16:00","2018","01","26","16:00","6.1","","2.0","","75","","","","16","","9","","","","101.87","","","","","","NA"
"-122.78","49.02","WHITE ROCK CAMPBELL SCIENTIFIC","1108910","2018-01-26 17:00","2018","01","26","17:00","5.2","","2.1","","81","","","","13","","3","","","","101.87","","","","","","NA"
"-122.78","49.02","WHITE ROCK CAMPBELL SCIENTIFIC","1108910","2018-01-26 18:00","2018","01","26","18:00","4.5","","2.2","","85","","","","6","","5","","","","101.86","","","","","","NA"
"-122.78","49.02","WHITE ROCK CAMPBELL SCIENTIFIC","1108910","2018-01-26 19:00","2018","01","26","19:00","4.7","","2.3","","85","","","","8","","4","","","","101.85","","","","","","NA"
"-122.78","49.02","WHITE ROCK CAMPBELL SCIENTIFIC","1108910","2018-01-26 20:00","2018","01","26","20:00","4.7","","2.4","","85","","","","9","","3","","","","101.82","","","","","","NA"
"-122.78","49.02","WHITE ROCK CAMPBELL SCIENTIFIC","1108910","2018-01-26 21:00","2018","01","26","21:00","4.2","","2.3","","88","","","","8","","7","","","","101.77","","","","","","NA"
"-122.78","49.02","WHITE ROCK CAMPBELL SCIENTIFIC","1108910","2018-01-26 22:00","2018","01","26","22:00","3.6","","2.3","","91","","","","6","","6","","","","101.68","","","","","","NA"
"-122.78","49.02","WHITE ROCK CAMPBELL SCIENTIFIC","1108910","2018-01-26 23:00","2018","01","26","23:00","3.7","","1.8","","87","","","","7","","5","","","","101.61","","","","","","NA"
"-122.78","49.02","WHITE ROCK CAMPBELL SCIENTIFIC","1108910","2018-01-27 00:00","2018","01","27","00:00","3.7","","1.4","","85","","","","7","","7","","","","101.50","","","","","","NA"
"-122.78","49.02","WHITE ROCK CAMPBELL SCIENTIFIC","1108910","2018-01-27 01:00","2018","01","27","01:00","3.5","","1.2","","85","","","","7","","11","","","","101.32","","","","","","NA"
"-122.78","49.02","WHITE ROCK CAMPBELL SCIENTIFIC","1108910","2018-01-27 02:00","2018","01","27","02:00","2.9","","1.4","","90","","","","6","","13","","","","101.14","","","","","","NA"
"-122.78","49.02","WHITE ROCK CAMPBELL SCIENTIFIC","1108910","2018-01-27 03:00","2018","01","27","03:00","2.3","","1.2","","92","","","","5","","14","","","","100.96","","","","","","NA"
"-122.78","49.02","WHITE ROCK CAMPBELL SCIENTIFIC","1108910","2018-01-27 04:00","2018","01","27","04:00","2.1","","1.3","","94","","","","6","","13","","","","100.76","","","","","","NA"
"-122.78","49.02","WHITE ROCK CAMPBELL SCIENTIFIC","1108910","2018-01-27 05:00","2018","01","27","05:00","3.1","","2.0","","93","","","","5","","15","","","","100.63","","","","","","NA"
"-122.78","49.02","WHITE ROCK CAMPBELL SCIENTIFIC","1108910","2018-01-27 06:00","2018","01","27","06:00","3.3","","2.2","","92","","","","7","","9","","","","100.57","","","","","","NA"
"-122.78","49.02","WHITE ROCK CAMPBELL SCIENTIFIC","1108910","2018-01-27 07:00","2018","01","27","07:00","3.5","","2.2","","91","","","","5","","11","","","","100.58","","","","","","NA"
"-122.78","49.02","WHITE ROCK CAMPBELL SCIENTIFIC","1108910","2018-01-27 08:00","2018","01","27","08:00","3.7","","2.3","","90","","","","4","","11","","","","100.63","","","","","","NA"
"-122.78","49.02","WHITE ROCK CAMPBELL SCIENTIFIC","1108910","2018-01-27 09:00","2018","01","27","09:00","3.6","","2.5","","93","","","","1","","9","","","","100.75","","","","","","NA"
"-122.78","49.02","WHITE ROCK CAMPBELL SCIENTIFIC","1108910","2018-01-27 10:00","2018","01","27","10:00","4.1","","3.1","","94","","","","5","","7","","","","100.87","","","","","","NA"
"-122.78","49.02","WHITE ROCK CAMPBELL SCIENTIFIC","1108910","2018-01-27 11:00","2018","01","27","11:00","4.5","","3.7","","94","","","","5","","5","","","","100.97","","","","","","NA"
"-122.78","49.02","WHITE ROCK CAMPBELL SCIENTIFIC","1108910","2018-01-27 12:00","2018","01","27","12:00","5.4","","4.6","","95","","","","6","","5","","","","101.10","","","","","","NA"
"-122.78","49.02","WHITE ROCK CAMPBELL SCIENTIFIC","1108910","2018-01-27 13:00","2018","01","27","13:00","5.5","","4.7","","95","","","","23","","1","","","","101.27","","","","","","NA"
"-122.78","49.02","WHITE ROCK CAMPBELL SCIENTIFIC","1108910","2018-01-27 14:00","2018","01","27","14:00","5.1","","3.8","","91","","","","27","","6","","","","101.61","","","","","","NA"
"-122.78","49.02","WHITE ROCK CAMPBELL SCIENTIFIC","1108910","2018-01-27 15:00","2018","01","27","15:00","5.4","","3.7","","89","","","","27","","6","","","","101.84","","","","","","NA"
"-122.78","49.02","WHITE ROCK CAMPBELL SCIENTIFIC","1108910","2018-01-27 16:00","2018","01","27","16:00","5.4","","3.7","","89","","","","27","","1","","","","102.06","","","","","","NA"
"-122.78","49.02","WHITE ROCK CAMPBELL SCIENTIFIC","1108910","2018-01-27 17:00","2018","01","27","17:00","5.5","","3.7","","88","","","","20","","2","","","","102.23","","","","","","NA"
"-122.78","49.02","WHITE ROCK CAMPBELL SCIENTIFIC","1108910","2018-01-27 18:00","2018","01","27","18:00","4.8","","3.5","","91","","","","12","","2","","","","102.36","","","","","","NA"
"-122.78","49.02","WHITE ROCK CAMPBELL SCIENTIFIC","1108910","2018-01-27 19:00","2018","01","27","19:00","3.9","","3.1","","94","","","","2","","1","","","","102.45","","","","","","NA"
"-122.78","49.02","WHITE ROCK CAMPBELL SCIENTIFIC","1108910","2018-01-27 20:00","2018","01","27","20:00","3.8","","3.1","","95","","","","2","","3","","","","102.54","","","","","","NA"
"-122.78","49.02","WHITE ROCK CAMPBELL SCIENTIFIC","1108910","2018-01-27 21:00","2018","01","27","21:00","3.6","","2.9","","95","","","","4","","6","","","","102.64","","","","","","NA"
"-122.78","49.02","WHITE ROCK CAMPBELL SCIENTIFIC","1108910","2018-01-27 22:00","2018","01","27","22:00","4.2","","3.4","","95","","","","2","","6","","","","102.68","","","","","","NA"
"-122.78","49.02","WHITE ROCK CAMPBELL SCIENTIFIC","1108910","2018-01-27 23:00","2018","01","27","23:00","4.6","","3.6","","94","","","","3","","4","","","","102.76","","","","","","NA"
"-122.78","49.02","WHITE ROCK CAMPBELL SCIENTIFIC","1108910","2018-01-28 00:00","2018","01","28","00:00","4.4","","3.3","","93","","","","1","","6","","","","102.74","","","","","","NA"
"-122.78","49.02","WHITE ROCK CAMPBELL SCIENTIFIC","1108910","2018-01-28 01:00","2018","01","28","01:00","4.5","","3.5","","93","","","","3","","6","","","","102.68","","","","","","NA"
"-122.78","49.02","WHITE ROCK CAMPBELL SCIENTIFIC","1108910","2018-01-28 02:00","2018","01","28","02:00","4.7","","3.7","","93","","","","4","","7","","","","102.63","","","","","","NA"
"-122.78","49.02","WHITE ROCK CAMPBELL SCIENTIFIC","1108910","2018-01-28 03:00","2018","01","28","03:00","4.8","","3.7","","93","","","","4","","7","","","","102.64","","","","","","NA"
"-122.78","49.02","WHITE ROCK CAMPBELL SCIENTIFIC","1108910","2018-01-28 04:00","2018","01","28","04:00","4.7","","3.8","","94","","","","4","","5","","","","102.62","","","","","","NA"
"-122.78","49.02","WHITE ROCK CAMPBELL SCIENTIFIC","1108910","2018-01-28 05:00","2018","01","28","05:00","4.5","","3.7","","95","","","","6","","4","","","","102.58","","","","","","NA"
"-122.78","49.02","WHITE ROCK CAMPBELL SCIENTIFIC","1108910","2018-01-28 06:00","2018","01","28","06:00","4.5","","3.7","","95","","","","5","","6","","","","102.53","","","","","","NA"
"-122.78","49.02","WHITE ROCK CAMPBELL SCIENTIFIC","1108910","2018-01-28 07:00","2018","01","28","07:00","4.4","","3.7","","95","","","","5","","8","","","","102.51","","","","","","NA"
"-122.78","49.02","WHITE ROCK CAMPBELL SCIENTIFIC","1108910","2018-01-28 08:00","2018","01","28","08:00","4.5","","3.7","","95","","","","6","","11","","","","102.47","","","","","","NA"
"-122.78","49.02","WHITE ROCK CAMPBELL SCIENTIFIC","1108910","2018-01-28 09:00","2018","01","28","09:00","4.8","","4.0","","94","","","","6","","7","","","","102.47","","","","","","NA"
"-122.78","49.02","WHITE ROCK CAMPBELL SCIENTIFIC","1108910","2018-01-28 10:00","2018","01","28","10:00","4.8","","4.0","","95","","","","5","","9","","","","102.46","","","","","","NA"
"-122.78","49.02","WHITE ROCK CAMPBELL SCIENTIFIC","1108910","2018-01-28 11:00","2018","01","28","11:00","4.9","","4.2","","95","","","","4","","9","","","","102.48","","","","","","NA"
"-122.78","49.02","WHITE ROCK CAMPBELL SCIENTIFIC","1108910","2018-01-28 12:00","2018","01","28","12:00","5.1","","4.4","","95","","","","5","","9","","","","102.40","","","","","","NA"
"-122.78","49.02","WHITE ROCK CAMPBELL SCIENTIFIC","1108910","2018-01-28 13:00","2018","01","28","13:00","5.7","","5.0","","95","","","","4","","6","","","","102.36","","","","","","NA"
"-122.78","49.02","WHITE ROCK CAMPBELL SCIENTIFIC","1108910","2018-01-28 14:00","2018","01","28","14:00","6.0","","5.3","","95","","","","7","","7","","","","102.32","","","","","","NA"
"-122.78","49.02","WHITE ROCK CAMPBELL SCIENTIFIC","1108910","2018-01-28 15:00","2018","01","28","15:00","6.6","","5.9","","95","","","","5","","8","","","","102.32","","","","","","NA"
"-122.78","49.02","WHITE ROCK CAMPBELL SCIENTIFIC","1108910","2018-01-28 16:00","2018","01","28","16:00","6.9","","6.3","","96","","","","6","","7","","","","102.25","","","","","","NA"
"-122.78","49.02","WHITE ROCK CAMPBELL SCIENTIFIC","1108910","2018-01-28 17:00","2018","01","28","17:00","6.7","","6.2","","96","","","","3","","9","","","","102.23","","","","","","NA"
"-122.78","49.02","WHITE ROCK CAMPBELL SCIENTIFIC","1108910","2018-01-28 18:00","2018","01","28","18:00","6.8","","6.2","","96","","","","6","","5","","","","102.19","","","","","","NA"
"-122.78","49.02","WHITE ROCK CAMPBELL SCIENTIFIC","1108910","2018-01-28 19:00","2018","01","28","19:00","6.9","","6.3","","96","","","","5","","5","","","","102.21","","","","","","NA"
"-122.78","49.02","WHITE ROCK CAMPBELL SCIENTIFIC","1108910","2018-01-28 20:00","2018","01","28","20:00","7.3","","6.8","","97","","","","3","","9","","","","102.17","","","","","","NA"
"-122.78","49.02","WHITE ROCK CAMPBELL SCIENTIFIC","1108910","2018-01-28 21:00","2018","01","28","21:00","7.4","","6.7","","95","","","","6","","5","","","","102.18","","","","","","NA"
"-122.78","49.02","WHITE ROCK CAMPBELL SCIENTIFIC","1108910","2018-01-28 22:00","2018","01","28","22:00","7.2","","6.5","","96","","","","5","","8","","","","102.06","","","","","","NA"
"-122.78","49.02","WHITE ROCK CAMPBELL SCIENTIFIC","1108910","2018-01-28 23:00","2018","01","28","23:00","8.2","","7.3","","94","","","","4","","9","","","","102.12","","","","","","NA"
"-122.78","49.02","WHITE ROCK CAMPBELL SCIENTIFIC","1108910","2018-01-29 00:00","2018","01","29","00:00","8.8","","8.0","","95","","","","9","","10","","","","101.96","","","","","","NA"
"-122.78","49.02","WHITE ROCK CAMPBELL SCIENTIFIC","1108910","2018-01-29 01:00","2018","01","29","01:00","8.6","","7.2","","91","","","","3","","9","","","","101.93","","","","","","NA"
"-122.78","49.02","WHITE ROCK CAMPBELL SCIENTIFIC","1108910","2018-01-29 02:00","2018","01","29","02:00","8.7","","7.8","","94","","","","5","","2","","","","101.88","","","","","","NA"
"-122.78","49.02","WHITE ROCK CAMPBELL SCIENTIFIC","1108910","2018-01-29 03:00","2018","01","29","03:00","9.2","","8.3","","94","","","","3","","9","","","","101.79","","","","","","NA"
"-122.78","49.02","WHITE ROCK CAMPBELL SCIENTIFIC","1108910","2018-01-29 04:00","2018","01","29","04:00","8.6","","7.7","","94","","","","6","","7","","","","101.69","","","","","","NA"
"-122.78","49.02","WHITE ROCK CAMPBELL SCIENTIFIC","1108910","2018-01-29 05:00","2018","01","29","05:00","8.5","","7.8","","95","","","","4","","6","","","","101.57","","","","","","NA"
"-122.78","49.02","WHITE ROCK CAMPBELL SCIENTIFIC","1108910","2018-01-29 06:00","2018","01","29","06:00","8.2","","7.3","","94","","","","1","","8","","","","101.49","","","","","","NA"
"-122.78","49.02","WHITE ROCK CAMPBELL SCIENTIFIC","1108910","2018-01-29 07:00","2018","01","29","07:00","8.7","","7.9","","95","","","","7","","6","","","","101.44","","","","","","NA"
"-122.78","49.02","WHITE ROCK CAMPBELL SCIENTIFIC","1108910","2018-01-29 08:00","2018","01","29","08:00","10.5","","8.6","","88","","","","16","","11","","","","101.34","","","","","","NA"
"-122.78","49.02","WHITE ROCK CAMPBELL SCIENTIFIC","1108910","2018-01-29 09:00","2018","01","29","09:00","10.0","","8.6","","91","","","","15","","11","","","","101.27","","","","","","NA"
"-122.78","49.02","WHITE ROCK CAMPBELL SCIENTIFIC","1108910","2018-01-29 10:00","2018","01","29","10:00","9.9","","8.6","","91","","","","16","","17","","","","101.21","","","","","","NA"
"-122.78","49.02","WHITE ROCK CAMPBELL SCIENTIFIC","1108910","2018-01-29 11:00","2018","01","29","11:00","10.1","","8.4","","89","","","","16","","15","","","","101.17","","","","","","NA"
"-122.78","49.02","WHITE ROCK CAMPBELL SCIENTIFIC","1108910","2018-01-29 12:00","2018","01","29","12:00","10.1","","8.3","","89","","","","15","","12","","","","100.93","","","","","","NA"
"-122.78","49.02","WHITE ROCK CAMPBELL SCIENTIFIC","1108910","2018-01-29 13:00","2018","01","29","13:00","10.1","","8.0","","87","","","","16","","18","","","","100.92","","","","","","NA"
"-122.78","49.02","WHITE ROCK CAMPBELL SCIENTIFIC","1108910","2018-01-29 14:00","2018","01","29","14:00","9.7","","8.4","","92","","","","16","","14","","","","100.72","","","","","","NA"
"-122.78","49.02","WHITE ROCK CAMPBELL SCIENTIFIC","1108910","2018-01-29 15:00","2018","01","29","15:00","9.8","","8.6","","93","","","","16","","11","","","","100.69","","","","","","NA"
"-122.78","49.02","WHITE ROCK CAMPBELL SCIENTIFIC","1108910","2018-01-29 16:00","2018","01","29","16:00","8.6","","7.2","","91","","","","20","","4","","","","100.66","","","","","","NA"
"-122.78","49.02","WHITE ROCK CAMPBELL SCIENTIFIC","1108910","2018-01-29 17:00","2018","01","29","17:00","8.0","","6.3","","89","","","","21","","6","","","","100.65","","","","","","NA"
"-122.78","49.02","WHITE ROCK CAMPBELL SCIENTIFIC","1108910","2018-01-29 18:00","2018","01","29","18:00","8.0","","5.4","","84","","","","25","","6","","","","100.74","","","","","","NA"
"-122.78","49.02","WHITE ROCK CAMPBELL SCIENTIFIC","1108910","2018-01-29 19:00","2018","01","29","19:00","7.6","","4.2","","79","","","","26","","9","","","","100.78","","","","","","NA"
"-122.78","49.02","WHITE ROCK CAMPBELL SCIENTIFIC","1108910","2018-01-29 20:00","2018","01","29","20:00","7.5","","3.6","","76","","","","26","","7","","","","100.94","","","","","","NA"
"-122.78","49.02","WHITE ROCK CAMPBELL SCIENTIFIC","1108910","2018-01-29 21:00","2018","01","29","21:00","7.0","","3.3","","77","","","","24","","6","","","","101.05","","","","","","NA"
"-122.78","49.02","WHITE ROCK CAMPBELL SCIENTIFIC","1108910","2018-01-29 22:00","2018","01","29","22:00","6.8","","3.4","","79","","","","21","","5","","","","101.14","","","","","","NA"
"-122.78","49.02","WHITE ROCK CAMPBELL SCIENTIFIC","1108910","2018-01-29 23:00","2018","01","29","23:00","5.9","","3.5","","84","","","","18","","2","","","","101.25","","","","","","NA"
"-122.78","49.02","WHITE ROCK CAMPBELL SCIENTIFIC","1108910","2018-01-30 00:00","2018","01","30","00:00","5.2","","3.3","","87","","","","3","","3","","","","101.32","","","","","","NA"
"-122.78","49.02","WHITE ROCK CAMPBELL SCIENTIFIC","1108910","2018-01-30 01:00","2018","01","30","01:00","6.4","","4.0","","85","","","","16","","4","","","","101.35","","","","","","NA"
"-122.78","49.02","WHITE ROCK CAMPBELL SCIENTIFIC","1108910","2018-01-30 02:00","2018","01","30","02:00","7.2","","4.2","","81","","","","17","","8","","","","101.39","","","","","","NA"
"-122.78","49.02","WHITE ROCK CAMPBELL SCIENTIFIC","1108910","2018-01-30 03:00","2018","01","30","03:00","7.2","","4.2","","81","","","","17","","8","","","","101.44","","","","","","NA"
"-122.78","49.02","WHITE ROCK CAMPBELL SCIENTIFIC","1108910","2018-01-30 04:00","2018","01","30","04:00","6.5","","4.1","","85","","","","16","","9","","","","101.44","","","","","","NA"
"-122.78","49.02","WHITE ROCK CAMPBELL SCIENTIFIC","1108910","2018-01-30 05:00","2018","01","30","05:00","5.7","","3.5","","86","","","","17","","7","","","","101.44","","","","","","NA"
"-122.78","49.02","WHITE ROCK CAMPBELL SCIENTIFIC","1108910","2018-01-30 06:00","2018","01","30","06:00","5.8","","3.8","","87","","","","17","","11","","","","101.49","","","","","","NA"
"-122.78","49.02","WHITE ROCK CAMPBELL SCIENTIFIC","1108910","2018-01-30 07:00","2018","01","30","07:00","6.2","","3.9","","86","","","","18","","5","","","","101.51","","","","","","NA"
"-122.78","49.02","WHITE ROCK CAMPBELL SCIENTIFIC","1108910","2018-01-30 08:00","2018","01","30","08:00","6.1","","3.0","","81","","","","21","","8","","","","101.49","","","","","","NA"
"-122.78","49.02","WHITE ROCK CAMPBELL SCIENTIFIC","1108910","2018-01-30 09:00","2018","01","30","09:00","6.0","","3.3","","83","","","","17","","9","","","","101.58","","","","","","NA"
"-122.78","49.02","WHITE ROCK CAMPBELL SCIENTIFIC","1108910","2018-01-30 10:00","2018","01","30","10:00","7.1","","3.6","","79","","","","18","","6","","","","101.68","","","","","","NA"
"-122.78","49.02","WHITE ROCK CAMPBELL SCIENTIFIC","1108910","2018-01-30 11:00","2018","01","30","11:00","8.2","","3.4","","72","","","","19","","8","","","","101.73","","","","","","NA"
"-122.78","49.02","WHITE ROCK CAMPBELL SCIENTIFIC","1108910","2018-01-30 12:00","2018","01","30","12:00","7.6","","3.1","","73","","","","19","","5","","","","101.74","","","","","","NA"
"-122.78","49.02","WHITE ROCK CAMPBELL SCIENTIFIC","1108910","2018-01-30 13:00","2018","01","30","13:00","7.5","","3.3","","74","","","","19","","8","","","","101.75","","","","","","NA"
"-122.78","49.02","WHITE ROCK CAMPBELL SCIENTIFIC","1108910","2018-01-30 14:00","2018","01","30","14:00","7.3","","3.2","","75","","","","19","","7","","","","101.79","","","","","","NA"
"-122.78","49.02","WHITE ROCK CAMPBELL SCIENTIFIC","1108910","2018-01-30 15:00","2018","01","30","15:00","7.6","","3.2","","74","","","","22","","8","","","","101.81","","","","","","NA"
"-122.78","49.02","WHITE ROCK CAMPBELL SCIENTIFIC","1108910","2018-01-30 16:00","2018","01","30","16:00","6.7","","3.2","","78","","","","20","","6","","","","101.84","","","","","","NA"
"-122.78","49.02","WHITE ROCK CAMPBELL SCIENTIFIC","1108910","2018-01-30 17:00","2018","01","30","17:00","6.4","","3.2","","80","","","","17","","4","","","","101.87","","","","","","NA"
"-122.78","49.02","WHITE ROCK CAMPBELL SCIENTIFIC","1108910","2018-01-30 18:00","2018","01","30","18:00","6.7","","3.4","","79","","","","20","","5","","","","101.86","","","","","","NA"
"-122.78","49.02","WHITE ROCK CAMPBELL SCIENTIFIC","1108910","2018-01-30 19:00","2018","01","30","19:00","5.8","","2.6","","80","","","","17","","3","","","","101.87","","","","","","NA"
"-122.78","49.02","WHITE ROCK CAMPBELL SCIENTIFIC","1108910","2018-01-30 20:00","2018","01","30","20:00","6.1","","3.1","","81","","","","21","","8","","","","101.87","","","","","","NA"
"-122.78","49.02","WHITE ROCK CAMPBELL SCIENTIFIC","1108910","2018-01-30 21:00","2018","01","30","21:00","5.7","","3.2","","84","","","","18","","5","","","","101.91","","","","","","NA"
"-122.78","49.02","WHITE ROCK CAMPBELL SCIENTIFIC","1108910","2018-01-30 22:00","2018","01","30","22:00","6.0","","3.2","","82","","","","21","","4","","","","101.89","","","","","","NA"
"-122.78","49.02","WHITE ROCK CAMPBELL SCIENTIFIC","1108910","2018-01-30 23:00","2018","01","30","23:00","5.9","","3.3","","83","","","","22","","6","","","","101.94","","","","","","NA"
"-122.78","49.02","WHITE ROCK CAMPBELL SCIENTIFIC","1108910","2018-01-31 00:00","2018","01","31","00:00","5.8","","2.6","","80","","","","22","","5","","","","101.97","","","","","","NA"
"-122.78","49.02","WHITE ROCK CAMPBELL SCIENTIFIC","1108910","2018-01-31 01:00","2018","01","31","01:00","5.5","","2.4","","80","","","","25","","1","","","","102.00","","","","","","NA"
"-122.78","49.02","WHITE ROCK CAMPBELL SCIENTIFIC","1108910","2018-01-31 02:00","2018","01","31","02:00","5.1","","2.2","","81","","","","25","","3","","","","102.02","","","","","","NA"
"-122.78","49.02","WHITE ROCK CAMPBELL SCIENTIFIC","1108910","2018-01-31 03:00","2018","01","31","03:00","5.3","","2.4","","82","","","","17","","2","","","","102.07","","","","","","NA"
"-122.78","49.02","WHITE ROCK CAMPBELL SCIENTIFIC","1108910","2018-01-31 04:00","2018","01","31","04:00","5.6","","2.7","","81","","","","23","","3","","","","102.09","","","","","","NA"
"-122.78","49.02","WHITE ROCK CAMPBELL SCIENTIFIC","1108910","2018-01-31 05:00","2018","01","31","05:00","5.8","","2.6","","80","","","","23","","3","","","","102.10","","","","","","NA"
"-122.78","49.02","WHITE ROCK CAMPBELL SCIENTIFIC","1108910","2018-01-31 06:00","2018","01","31","06:00","5.4","","2.9","","84","","","","16","","2","","","","102.09","","","","","","NA"
"-122.78","49.02","WHITE ROCK CAMPBELL SCIENTIFIC","1108910","2018-01-31 07:00","2018","01","31","07:00","4.8","","2.9","","87","","","","13","","4","","","","102.10","","","","","","NA"
"-122.78","49.02","WHITE ROCK CAMPBELL SCIENTIFIC","1108910","2018-01-31 08:00","2018","01","31","08:00","5.0","","3.4","","89","","","","15","","7","","","","102.14","","","","","","NA"
"-122.78","49.02","WHITE ROCK CAMPBELL SCIENTIFIC","1108910","2018-01-31 09:00","2018","01","31","09:00","5.4","","3.5","","88","","","","15","","9","","","","102.16","","","","","","NA"
"-122.78","49.02","WHITE ROCK CAMPBELL SCIENTIFIC","1108910","2018-01-31 10:00","2018","01","31","10:00","5.4","","3.2","","86","","","","16","","8","","","","102.18","","","","","","NA"
"-122.78","49.02","WHITE ROCK CAMPBELL SCIENTIFIC","1108910","2018-01-31 11:00","2018","01","31","11:00","5.8","","2.9","","82","","","","16","","9","","","","102.21","","","","","","NA"
"-122.78","49.02","WHITE ROCK CAMPBELL SCIENTIFIC","1108910","2018-01-31 12:00","2018","01","31","12:00","6.1","","3.2","","81","","","","16","","8","","","","102.19","","","","","","NA"
"-122.78","49.02","WHITE ROCK CAMPBELL SCIENTIFIC","1108910","2018-01-31 13:00","2018","01","31","13:00","6.3","","2.8","","78","","","","17","","8","","","","102.13","","","","","","NA"
"-122.78","49.02","WHITE ROCK CAMPBELL SCIENTIFIC","1108910","2018-01-31 14:00","2018","01","31","14:00","6.0","","3.0","","82","","","","16","","7","","","","102.09","","","","","","NA"
"-122.78","49.02","WHITE ROCK CAMPBELL SCIENTIFIC","1108910","2018-01-31 15:00","2018","01","31","15:00","5.5","","3.3","","86","","","","14","","6","","","","102.08","","","","","","NA"
"-122.78","49.02","WHITE ROCK CAMPBELL SCIENTIFIC","1108910","2018-01-31 16:00","2018","01","31","16:00","5.0","","3.3","","89","","","","11","","5","","","","102.06","","","","","","NA"
"-122.78","49.02","WHITE ROCK CAMPBELL SCIENTIFIC","1108910","2018-01-31 17:00","2018","01","31","17:00","4.8","","3.6","","91","","","","6","","5","","","","102.02","","","","","","NA"
"-122.78","49.02","WHITE ROCK CAMPBELL SCIENTIFIC","1108910","2018-01-31 18:00","2018","01","31","18:00","4.6","","3.7","","94","","","","5","","5","","","","102.00","","","","","","NA"
"-122.78","49.02","WHITE ROCK CAMPBELL SCIENTIFIC","1108910","2018-01-31 19:00","2018","01","31","19:00","4.5","","3.7","","95","","","","4","","5","","","","102.00","","","","","","NA"
"-122.78","49.02","WHITE ROCK CAMPBELL SCIENTIFIC","1108910","2018-01-31 20:00","2018","01","31","20:00","4.1","","3.3","","95","","","","5","","5","","","","101.98","","","","","","NA"
"-122.78","49.02","WHITE ROCK CAMPBELL SCIENTIFIC","1108910","2018-01-31 21:00","2018","01","31","21:00","3.9","","3.2","","95","","","","5","","5","","","","101.96","","","","","","NA"
"-122.78","49.02","WHITE ROCK CAMPBELL SCIENTIFIC","1108910","2018-01-31 22:00","2018","01","31","22:00","4.7","","4.0","","95","","","","6","","6","","","","101.99","","","","","","NA"
"-122.78","49.02","WHITE ROCK CAMPBELL SCIENTIFIC","1108910","2018-01-31 23:00","2018","01","31","23:00","5.0","","4.1","","94","","","","10","","2","","","","102.02","","","","","","NA"
