"Longitude (x)","Latitude (y)","Station Name","Climate ID","Date/Time (LST)","Year","Month","Day","Time (LST)","Temp (°C)","Temp Flag","Dew Point Temp (°C)","Dew Point Temp Flag","Rel Hum (%)","Rel Hum Flag","Precip. Amount (mm)","Precip. Amount Flag","Wind Dir (10s deg)","Wind Dir Flag","Wind Spd (km/h)","Wind Spd Flag","Visibility (km)","Visibility Flag","Stn Press (kPa)","Stn Press Flag","Hmdx","Hmdx Flag","Wind Chill","Wind Chill Flag","Weather"
"-66.43","45.83","GAGETOWN A","8101792","2012-02-01 00:00","2012","02","01","00:00","-10.0","","-15.0","","67","","","","","","0","","24.1","","101.54","","","","","","Cloudy"
"-66.43","45.83","GAGETOWN A","8101792","2012-02-01 01:00","2012","02","01","01:00","-10.0","","-14.2","","71","","","","","","0","","16.1","","101.52","","","","","","Snow"
"-66.43","45.83","GAGETOWN A","8101792","2012-02-01 02:00","2012","02","01","02:00","-9.9","","-13.7","","74","","","","","","0","","16.1","","101.47","","","","","","Snow"
"-66.43","45.83","GAGETOWN A","8101792","2012-02-01 03:00","2012","02","01","03:00","-9.8","","-13.7","","73","","","","","","0","","16.1","","101.41","","","","","","Snow"
"-66.43","45.83","GAGETOWN A","8101792","2012-02-01 04:00","2012","02","01","04:00","-9.8","","-13.1","","77","","","","6","","6","","16.1","","101.35","","","","-13","","Snow"
"-66.43","45.83","GAGETOWN A","8101792","2012-02-01 05:00","2012","02","01","05:00","-9.6","","-13.6","","73","","","","6","","11","","16.1","","101.29","","","","-15","","Snow"
"-66.43","45.83","GAGETOWN A","8101792","2012-02-01 06:00","2012","02","01","06:00","-10.0","","-12.3","","83","","","","5","","15","","2.4","","101.24","","","","-17","","Snow"
"-66.43","45.83","GAGETOWN A","8101792","2012-02-01 07:00","2012","02","01","07:00","-10.0","","-11.7","","87","","","","5","","17","","1.6","","101.10","","","","-17","","Snow"
"-66.43","45.83","GAGETOWN A","8101792","2012-02-01 08:00","2012","02","01","08:00","-9.6","","-11.1","","89","","","","5","","11","","1.2","","101.01","","","","-15","","Snow"
"-66.43","45.83","GAGETOWN A","8101792","2012-02-01 09:00","2012","02","01","09:00","-9.1","","-10.6","","89","","","","5","","15","","0.6","","100.98","","","","-16","","Moderate Snow"
"-66.43","45.83","GAGETOWN A","8101792","2012-02-01 10:00","2012","02","01","10:00","-8.5","","-10.0","","89","","","","5","","19","","0.4","","100.88","","","","-16","","Heavy Snow"
"-66.43","45.83","GAGETOWN A","8101792","2012-02-01 11:00","2012","02","01","11:00","-8.1","","-9.6","","89","","","","6","","19","","0.4","","100.76","","","","-15","","Heavy Snow"
"-66.43","45.83","GAGETOWN A","8101792","2012-02-01 12:00","2012","02","01","12:00","-7.5","","-9.3","","87","","","","5","","17","","2.0","","100.56","","","","-14","","Snow"
"-66.43","45.83","GAGETOWN A","8101792","2012-02-01 13:00","2012","02","01","13:00","-7.1","","-8.7","","88","","","","4","","13","","1.2","","100.45","","","","-13","","Snow"
"-66.43","45.83","GAGETOWN A","8101792","2012-02-01 14:00","2012","02","01","14:00","-6.9","","-8.3","","90","","","","4","","13","","1.0","","100.38","","","","-12","","Snow"
"-66.43","45.83","GAGETOWN A","8101792","2012-02-01 15:00","2012","02","01","15:00","-6.6","","-8.1","","89","","","","4","","15","","1.2","","100.31","","","","-13","","Snow"
"-66.43","45.83","GAGETOWN A","8101792","2012-02-01 16:00","2012","02","01","16:00","-6.2","","-7.7","","89","","","","3","","13","","4.0","","100.28","","","","-12","","Snow"
"-66.43","45.83","GAGETOWN A","8101792","2012-02-01 17:00","2012","02","01","17:00","-6.3","","-8.2","","86","","","","3","","17","","19.3","","100.26","","","","-13","","Cloudy"
"-66.43","45.83","GAGETOWN A","8101792","2012-02-01 18:00","2012","02","01","18:00","-6.5","","-8.5","","86","","","","3","","19","","19.3","","100.32","","","","-13","","Cloudy"
"-66.43","45.83","GAGETOWN A","8101792","2012-02-01 19:00","2012","02","01","19:00","-6.3","","-8.3","","86","","","","2","","13","","19.3","","100.38","","","","-12","","Cloudy"
"-66.43","45.83","GAGETOWN A","8101792","2012-02-01 20:00","2012","02","01","20:00","-6.2","","-7.8","","88","","","","2","","9","","12.9","","100.39","","","","-10","","Snow"
"-66.43","45.83","GAGETOWN A","8101792","2012-02-01 21:00","2012","02","01","21:00","-6.2","","-7.8","","88","","","","36","","9","","4.0","","100.44","","","","-10","","Snow,Fog"
"-66.43","45.83","GAGETOWN A","8101792","2012-02-01 22:00","2012","02","01","22:00","-6.0","","-7.5","","89","","","","1","","11","","3.2","","100.49","","","","-11","","Snow,Fog"
"-66.43","45.83","GAGETOWN A","8101792","2012-02-01 23:00","2012","02","01","23:00","-6.3","","-8.4","","85","","","","36","","13","","19.3","","100.54","","","","-12","","Cloudy"
"-66.43","45.83","GAGETOWN A","8101792","2012-02-02 00:00","2012","02","02","00:00","-6.6","","-9.1","","82","","","","1","","17","","19.3","","100.56","","","","-13","","Cloudy"
"-66.43","45.83","GAGETOWN A","8101792","2012-02-02 01:00","2012","02","02","01:00","-6.8","","-9.3","","82","","","","36","","11","","19.3","","100.63","","","","-12","","Snow"
"-66.43","45.83","GAGETOWN A","8101792","2012-02-02 02:00","2012","02","02","02:00","-7.5","","-9.8","","84","","","","36","","9","","4.8","","100.73","","","","-12","","Snow,Fog"
"-66.43","45.83","GAGETOWN A","8101792","2012-02-02 03:00","2012","02","02","03:00","-8.1","","-10.2","","85","","","","2","","11","","19.3","","100.78","","","","-13","","Snow"
"-66.43","45.83","GAGETOWN A","8101792","2012-02-02 04:00","2012","02","02","04:00","-8.3","","-10.6","","83","","","","36","","11","","19.3","","100.84","","","","-14","","Snow"
"-66.43","45.83","GAGETOWN A","8101792","2012-02-02 05:00","2012","02","02","05:00","-8.3","","-10.7","","83","","","","","","0","","19.3","","100.97","","","","","","Snow"
"-66.43","45.83","GAGETOWN A","8101792","2012-02-02 06:00","2012","02","02","06:00","-8.4","","-10.7","","83","","","","35","","9","","19.3","","101.06","","","","-13","","Snow"
"-66.43","45.83","GAGETOWN A","8101792","2012-02-02 07:00","2012","02","02","07:00","-8.6","","-10.9","","83","","","","35","","11","","19.3","","101.16","","","","-14","","Snow"
"-66.43","45.83","GAGETOWN A","8101792","2012-02-02 08:00","2012","02","02","08:00","-8.8","","-11.1","","83","","","","35","","4","","19.3","","101.27","","","","-11","","Snow"
"-66.43","45.83","GAGETOWN A","8101792","2012-02-02 09:00","2012","02","02","09:00","-8.7","","-11.2","","82","","","","1","","11","","9.7","","101.33","","","","-14","","Snow"
"-66.43","45.83","GAGETOWN A","8101792","2012-02-02 10:00","2012","02","02","10:00","-8.5","","-11.1","","81","","","","1","","15","","8.0","","101.33","","","","-15","","Snow"
"-66.43","45.83","GAGETOWN A","8101792","2012-02-02 11:00","2012","02","02","11:00","-8.1","","-11.3","","78","","","","2","","7","","19.3","","101.35","","","","-12","","Snow"
"-66.43","45.83","GAGETOWN A","8101792","2012-02-02 12:00","2012","02","02","12:00","-7.1","","-11.2","","72","","","","2","","9","","24.1","","101.34","","","","-11","","Mostly Cloudy"
"-66.43","45.83","GAGETOWN A","8101792","2012-02-02 13:00","2012","02","02","13:00","-6.1","","-10.8","","69","","","","","","0","","24.1","","101.32","","","","","","Mostly Cloudy"
"-66.43","45.83","GAGETOWN A","8101792","2012-02-02 14:00","2012","02","02","14:00","-5.0","","-10.1","","67","","","","","","0","","24.1","","101.29","","","","","","Mostly Cloudy"
"-66.43","45.83","GAGETOWN A","8101792","2012-02-02 15:00","2012","02","02","15:00","-5.0","","-10.1","","67","","","","","","0","","24.1","","101.32","","","","","","Snow Showers"
"-66.43","45.83","GAGETOWN A","8101792","2012-02-02 16:00","2012","02","02","16:00","-5.6","","-9.3","","75","","","","9","","6","","12.9","","101.41","","","","-8","","Snow Showers"
"-66.43","45.83","GAGETOWN A","8101792","2012-02-02 17:00","2012","02","02","17:00","-6.6","","-9.5","","80","","","","","","0","","9.7","","101.40","","","","","","Snow Showers"
"-66.43","45.83","GAGETOWN A","8101792","2012-02-02 18:00","2012","02","02","18:00","-8.4","","-10.5","","85","","","","","","0","","19.3","","101.40","","","","","","Mainly Clear"
"-66.43","45.83","GAGETOWN A","8101792","2012-02-02 19:00","2012","02","02","19:00","-9.1","","-10.8","","87","","","","","","0","","24.1","","101.49","","","","","","Mainly Clear"
"-66.43","45.83","GAGETOWN A","8101792","2012-02-02 20:00","2012","02","02","20:00","-12.1","","-13.5","","89","","","","","","0","","24.1","","101.53","","","","","","Mainly Clear"
"-66.43","45.83","GAGETOWN A","8101792","2012-02-02 21:00","2012","02","02","21:00","-11.2","","-12.7","","89","","","","","","0","","24.1","","101.53","","","","","","Mostly Cloudy"
"-66.43","45.83","GAGETOWN A","8101792","2012-02-02 22:00","2012","02","02","22:00","-10.7","","-12.2","","89","","","","","","0","","24.1","","101.53","","","","","","Snow Showers"
"-66.43","45.83","GAGETOWN A","8101792","2012-02-02 23:00","2012","02","02","23:00","-10.8","","-12.0","","91","","","","","","0","","19.3","","101.51","","","","","","Snow Showers"
"-66.43","45.83","GAGETOWN A","8101792","2012-02-03 00:00","2012","02","03","00:00","-12.9","","-13.7","","94","","","","","","0","","19.3","","101.53","","","","","","Snow Showers"
"-66.43","45.83","GAGETOWN A","8101792","2012-02-03 01:00","2012","02","03","01:00","-15.5","","-17.0","","88","","","","","","0","","24.1","","101.54","","","","","","Mainly Clear"
"-66.43","45.83","GAGETOWN A","8101792","2012-02-03 02:00","2012","02","03","02:00","-16.0","","-17.0","","92","","","","","","0","","24.1","","101.56","","","","","","Mostly Cloudy"
"-66.43","45.83","GAGETOWN A","8101792","2012-02-03 03:00","2012","02","03","03:00","-13.6","","-15.0","","89","","","","","","0","","24.1","","101.58","","","","","","Mainly Clear"
"-66.43","45.83","GAGETOWN A","8101792","2012-02-03 04:00","2012","02","03","04:00","-14.5","","-16.1","","88","","","","","","0","","24.1","","101.61","","","","","","Clear"
"-66.43","45.83","GAGETOWN A","8101792","2012-02-03 05:00","2012","02","03","05:00","-14.9","","-16.4","","88","","","","","","0","","24.1","","101.65","","","","","","Clear"
"-66.43","45.83","GAGETOWN A","8101792","2012-02-03 06:00","2012","02","03","06:00","-16.0","","-17.4","","89","","","","29","","7","","24.1","","101.69","","","","-21","","Clear"
"-66.43","45.83","GAGETOWN A","8101792","2012-02-03 07:00","2012","02","03","07:00","-16.2","","-17.9","","87","","","","28","","11","","24.1","","101.72","","","","-23","","Mainly Clear"
"-66.43","45.83","GAGETOWN A","8101792","2012-02-03 08:00","2012","02","03","08:00","-16.7","","-18.5","","86","","","","28","","9","","24.1","","101.77","","","","-23","","Mainly Clear"
"-66.43","45.83","GAGETOWN A","8101792","2012-02-03 09:00","2012","02","03","09:00","-14.8","","-16.6","","86","","","","28","","7","","24.1","","101.82","","","","-20","","Clear"
"-66.43","45.83","GAGETOWN A","8101792","2012-02-03 10:00","2012","02","03","10:00","-12.5","","-15.3","","80","","","","30","","4","","24.1","","101.78","","","","-15","","Mainly Clear"
"-66.43","45.83","GAGETOWN A","8101792","2012-02-03 11:00","2012","02","03","11:00","-11.1","","-15.1","","72","","","","29","","13","","24.1","","101.78","","","","-18","","Mostly Cloudy"
"-66.43","45.83","GAGETOWN A","8101792","2012-02-03 12:00","2012","02","03","12:00","-9.0","","-14.7","","63","","","","29","","15","","24.1","","101.71","","","","-16","","Mostly Cloudy"
"-66.43","45.83","GAGETOWN A","8101792","2012-02-03 13:00","2012","02","03","13:00","-7.0","","-13.9","","58","","","","28","","11","","24.1","","101.61","","","","-12","","Mostly Cloudy"
"-66.43","45.83","GAGETOWN A","8101792","2012-02-03 14:00","2012","02","03","14:00","-5.2","","-13.8","","51","","","","30","","13","","24.1","","101.55","","","","-10","","Mostly Cloudy"
"-66.43","45.83","GAGETOWN A","8101792","2012-02-03 15:00","2012","02","03","15:00","-5.4","","-13.7","","52","","","","28","","15","","24.1","","101.53","","","","-11","","Mostly Cloudy"
"-66.43","45.83","GAGETOWN A","8101792","2012-02-03 16:00","2012","02","03","16:00","-5.4","","-13.1","","55","","","","27","","13","","24.1","","101.53","","","","-11","","Mostly Cloudy"
"-66.43","45.83","GAGETOWN A","8101792","2012-02-03 17:00","2012","02","03","17:00","-5.3","","-12.8","","56","","","","28","","9","","24.1","","101.54","","","","-9","","Mostly Cloudy"
"-66.43","45.83","GAGETOWN A","8101792","2012-02-03 18:00","2012","02","03","18:00","-7.2","","-13.3","","62","","","","29","","13","","24.1","","101.59","","","","-13","","Mostly Cloudy"
"-66.43","45.83","GAGETOWN A","8101792","2012-02-03 19:00","2012","02","03","19:00","-8.6","","-13.7","","67","","","","","","0","","24.1","","101.62","","","","","","Mostly Cloudy"
"-66.43","45.83","GAGETOWN A","8101792","2012-02-03 20:00","2012","02","03","20:00","-9.7","","-14.1","","70","","","","28","","9","","24.1","","101.57","","","","-15","","Mostly Cloudy"
"-66.43","45.83","GAGETOWN A","8101792","2012-02-03 21:00","2012","02","03","21:00","-9.8","","-14.5","","68","","","","","","0","","24.1","","101.54","","","","","","Mainly Clear"
"-66.43","45.83","GAGETOWN A","8101792","2012-02-03 22:00","2012","02","03","22:00","-11.2","","-14.4","","77","","","","24","","11","","24.1","","101.56","","","","-17","","Mainly Clear"
"-66.43","45.83","GAGETOWN A","8101792","2012-02-03 23:00","2012","02","03","23:00","-11.7","","-14.5","","80","","","","26","","7","","24.1","","101.55","","","","-16","","Mainly Clear"
"-66.43","45.83","GAGETOWN A","8101792","2012-02-04 00:00","2012","02","04","00:00","-12.8","","-14.9","","84","","","","23","","9","","24.1","","101.50","","","","-18","","Mainly Clear"
"-66.43","45.83","GAGETOWN A","8101792","2012-02-04 01:00","2012","02","04","01:00","-12.1","","-14.4","","83","","","","23","","6","","24.1","","101.46","","","","-16","","Mainly Clear"
"-66.43","45.83","GAGETOWN A","8101792","2012-02-04 02:00","2012","02","04","02:00","-11.6","","-14.1","","82","","","","23","","9","","24.1","","101.43","","","","-17","","Cloudy"
"-66.43","45.83","GAGETOWN A","8101792","2012-02-04 03:00","2012","02","04","03:00","-11.4","","-13.9","","82","","","","","","0","","24.1","","101.37","","","","","","Cloudy"
"-66.43","45.83","GAGETOWN A","8101792","2012-02-04 04:00","2012","02","04","04:00","-10.8","","-13.5","","80","","","","","","0","","24.1","","101.32","","","","","","Cloudy"
"-66.43","45.83","GAGETOWN A","8101792","2012-02-04 05:00","2012","02","04","05:00","-10.7","","-13.5","","80","","","","23","","11","","24.1","","101.35","","","","-16","","Cloudy"
"-66.43","45.83","GAGETOWN A","8101792","2012-02-04 06:00","2012","02","04","06:00","-10.7","","-13.4","","80","","","","","","0","","24.1","","101.34","","","","","","Cloudy"
"-66.43","45.83","GAGETOWN A","8101792","2012-02-04 07:00","2012","02","04","07:00","-10.2","","-13.0","","80","","","","24","","7","","19.3","","101.34","","","","-14","","Cloudy"
"-66.43","45.83","GAGETOWN A","8101792","2012-02-04 08:00","2012","02","04","08:00","-10.3","","-13.0","","81","","","","25","","7","","19.3","","101.34","","","","-14","","Snow"
"-66.43","45.83","GAGETOWN A","8101792","2012-02-04 09:00","2012","02","04","09:00","-9.7","","-11.7","","85","","","","28","","9","","16.1","","101.32","","","","-15","","Snow"
"-66.43","45.83","GAGETOWN A","8101792","2012-02-04 10:00","2012","02","04","10:00","-8.4","","-10.8","","83","","","","","","0","","16.1","","101.32","","","","","","Snow"
"-66.43","45.83","GAGETOWN A","8101792","2012-02-04 11:00","2012","02","04","11:00","-7.0","","-10.9","","74","","","","28","","13","","19.3","","101.27","","","","-13","","Snow"
"-66.43","45.83","GAGETOWN A","8101792","2012-02-04 12:00","2012","02","04","12:00","-5.8","","-11.6","","64","","","","29","","17","","24.1","","101.22","","","","-12","","Mainly Clear"
"-66.43","45.83","GAGETOWN A","8101792","2012-02-04 13:00","2012","02","04","13:00","-4.7","","-11.5","","59","","","","28","","15","","24.1","","101.12","","","","-10","","Mainly Clear"
"-66.43","45.83","GAGETOWN A","8101792","2012-02-04 14:00","2012","02","04","14:00","-3.6","","-12.4","","50","","","","29","","24","","24.1","","101.05","","","","-10","","Mainly Clear"
"-66.43","45.83","GAGETOWN A","8101792","2012-02-04 15:00","2012","02","04","15:00","-3.9","","-13.1","","49","","","","32","","17","","24.1","","101.00","","","","-10","","Mainly Clear"
"-66.43","45.83","GAGETOWN A","8101792","2012-02-04 16:00","2012","02","04","16:00","-3.9","","-12.0","","53","","","","29","","20","","24.1","","101.01","","","","-10","","Mostly Cloudy"
"-66.43","45.83","GAGETOWN A","8101792","2012-02-04 17:00","2012","02","04","17:00","-5.2","","-12.8","","55","","","","32","","15","","24.1","","101.07","","","","-11","","Mostly Cloudy"
"-66.43","45.83","GAGETOWN A","8101792","2012-02-04 18:00","2012","02","04","18:00","-7.1","","-13.5","","60","","","","32","","7","","24.1","","101.11","","","","-11","","Mainly Clear"
"-66.43","45.83","GAGETOWN A","8101792","2012-02-04 19:00","2012","02","04","19:00","-7.6","","-14.0","","60","","","","31","","19","","24.1","","101.14","","","","-15","","Mainly Clear"
"-66.43","45.83","GAGETOWN A","8101792","2012-02-04 20:00","2012","02","04","20:00","-8.3","","-14.4","","61","","","","31","","17","","24.1","","101.18","","","","-15","","Mainly Clear"
"-66.43","45.83","GAGETOWN A","8101792","2012-02-04 21:00","2012","02","04","21:00","-9.7","","-14.9","","66","","","","31","","9","","24.1","","101.21","","","","-15","","Mainly Clear"
"-66.43","45.83","GAGETOWN A","8101792","2012-02-04 22:00","2012","02","04","22:00","-10.7","","-15.5","","68","","","","28","","6","","24.1","","101.22","","","","-14","","Mainly Clear"
"-66.43","45.83","GAGETOWN A","8101792","2012-02-04 23:00","2012","02","04","23:00","-11.8","","-15.5","","74","","","","29","","7","","24.1","","101.20","","","","-16","","Mainly Clear"
"-66.43","45.83","GAGETOWN A","8101792","2012-02-05 00:00","2012","02","05","00:00"
"-66.43","45.83","GAGETOWN A","8101792","2012-02-05 01:00","2012","02","05","01:00","-14.1","","-15.9","","86","","","","","","0","","24.1","","101.15","","","","","","Mainly Clear"
"-66.43","45.83","GAGETOWN A","8101792","2012-02-05 02:00","2012","02","05","02:00","-14.6","","-15.7","","91","","","","31","","6","","24.1","","101.18","","","","-19","","Clear"
"-66.43","45.83","GAGETOWN A","8101792","2012-02-05 03:00","2012","02","05","03:00","-15.0","","-18.1","","77","","","","","","0","","24.1","","101.17","","","","","","Clear"
"-66.43","45.83","GAGETOWN A","8101792","2012-02-05 04:00","2012","02","05","04:00","-15.4","","-17.7","","83","","","","28","","11","","24.1","","101.15","","","","-22","","Clear"
"-66.43","45.83","GAGETOWN A","8101792","2012-02-05 05:00","2012","02","05","05:00","-16.7","","-19.6","","78","","","","","","0","","24.1","","101.16","","","","","","Clear"
"-66.43","45.83","GAGETOWN A","8101792","2012-02-05 06:00","2012","02","05","06:00","-16.7","","-18.9","","83","","","","26","","7","","24.1","","101.18","","","","-22","","Clear"
"-66.43","45.83","GAGETOWN A","8101792","2012-02-05 07:00","2012","02","05","07:00","-20.5","","-20.5","","100","","","","","","0","","24.1","","101.19","","","","","","Clear"
"-66.43","45.83","GAGETOWN A","8101792","2012-02-05 08:00","2012","02","05","08:00","-18.2","","-19.7","","88","","","","24","","11","","24.1","","101.20","","","","-25","","Clear"
"-66.43","45.83","GAGETOWN A","8101792","2012-02-05 09:00","2012","02","05","09:00","-16.8","","-19.2","","82","","","","23","","9","","24.1","","101.21","","","","-23","","Mainly Clear"
"-66.43","45.83","GAGETOWN A","8101792","2012-02-05 10:00","2012","02","05","10:00","-15.4","","-18.7","","76","","","","","","0","","24.1","","101.19","","","","","","Mainly Clear"
"-66.43","45.83","GAGETOWN A","8101792","2012-02-05 11:00","2012","02","05","11:00","-13.2","","-18.5","","64","","","","27","","13","","24.1","","101.17","","","","-20","","Mainly Clear"
"-66.43","45.83","GAGETOWN A","8101792","2012-02-05 12:00","2012","02","05","12:00","-11.4","","-17.9","","59","","","","27","","11","","24.1","","101.08","","","","-17","","Mainly Clear"
"-66.43","45.83","GAGETOWN A","8101792","2012-02-05 13:00","2012","02","05","13:00","-10.0","","-17.8","","53","","","","29","","17","","24.1","","100.99","","","","-17","","Mainly Clear"
"-66.43","45.83","GAGETOWN A","8101792","2012-02-05 14:00","2012","02","05","14:00","-9.2","","-17.8","","50","","","","27","","17","","24.1","","100.91","","","","-16","","Mainly Clear"
"-66.43","45.83","GAGETOWN A","8101792","2012-02-05 15:00","2012","02","05","15:00","-8.3","","-19.4","","40","","","","28","","19","","24.1","","100.88","","","","-16","","Mainly Clear"
"-66.43","45.83","GAGETOWN A","8101792","2012-02-05 16:00","2012","02","05","16:00","-8.0","","-19.2","","40","","","","27","","15","","24.1","","100.87","","","","-14","","Clear"
"-66.43","45.83","GAGETOWN A","8101792","2012-02-05 17:00","2012","02","05","17:00","-8.5","","-19.6","","40","","","","27","","15","","24.1","","100.87","","","","-15","","Clear"
"-66.43","45.83","GAGETOWN A","8101792","2012-02-05 18:00","2012","02","05","18:00","-9.7","","-19.9","","43","","","","29","","9","","24.1","","100.88","","","","-15","","Mainly Clear"
"-66.43","45.83","GAGETOWN A","8101792","2012-02-05 19:00","2012","02","05","19:00","-10.6","","-19.8","","47","","","","24","","9","","24.1","","100.84","","","","-16","","Clear"
"-66.43","45.83","GAGETOWN A","8101792","2012-02-05 20:00","2012","02","05","20:00","-11.5","","-19.1","","53","","","","21","","9","","24.1","","100.85","","","","-17","","Clear"
"-66.43","45.83","GAGETOWN A","8101792","2012-02-05 21:00","2012","02","05","21:00","-11.0","","-18.8","","53","","","","21","","9","","24.1","","100.81","","","","-16","","Mainly Clear"
"-66.43","45.83","GAGETOWN A","8101792","2012-02-05 22:00","2012","02","05","22:00","-10.9","","-18.4","","54","","","","20","","13","","24.1","","100.75","","","","-17","","Mainly Clear"
"-66.43","45.83","GAGETOWN A","8101792","2012-02-05 23:00","2012","02","05","23:00","-11.5","","-18.4","","57","","","","20","","11","","24.1","","100.67","","","","-17","","Mainly Clear"
"-66.43","45.83","GAGETOWN A","8101792","2012-02-06 00:00","2012","02","06","00:00","-11.1","","-18.3","","55","","","","22","","19","","24.1","","100.62","","","","-19","","Mainly Clear"
"-66.43","45.83","GAGETOWN A","8101792","2012-02-06 01:00","2012","02","06","01:00","-9.6","","-16.6","","57","","","","20","","13","","24.1","","100.50","","","","-16","","Mostly Cloudy"
"-66.43","45.83","GAGETOWN A","8101792","2012-02-06 02:00","2012","02","06","02:00","-8.7","","-15.1","","60","","","","22","","17","","24.1","","100.37","","","","-16","","Cloudy"
"-66.43","45.83","GAGETOWN A","8101792","2012-02-06 03:00","2012","02","06","03:00","-8.4","","-14.3","","62","","","","21","","17","","24.1","","100.33","","","","-15","","Cloudy"
"-66.43","45.83","GAGETOWN A","8101792","2012-02-06 04:00","2012","02","06","04:00","-7.8","","-13.6","","63","","","","21","","19","","19.3","","100.29","","","","-15","","Snow Showers"
"-66.43","45.83","GAGETOWN A","8101792","2012-02-06 05:00","2012","02","06","05:00","-7.5","","-9.7","","84","","","","21","","20","","19.3","","100.19","","","","-15","","Snow Showers"
"-66.43","45.83","GAGETOWN A","8101792","2012-02-06 06:00","2012","02","06","06:00","-6.5","","-10.0","","76","","","","21","","19","","24.1","","100.11","","","","-13","","Cloudy"
"-66.43","45.83","GAGETOWN A","8101792","2012-02-06 07:00","2012","02","06","07:00","-5.4","","-9.7","","72","","","","22","","20","","24.1","","100.05","","","","-12","","Cloudy"
"-66.43","45.83","GAGETOWN A","8101792","2012-02-06 08:00","2012","02","06","08:00","-4.7","","-9.1","","71","","","","22","","20","","24.1","","100.02","","","","-11","","Cloudy"
"-66.43","45.83","GAGETOWN A","8101792","2012-02-06 09:00","2012","02","06","09:00","-3.5","","-8.5","","68","","","","22","","22","","24.1","","100.03","","","","-10","","Cloudy"
"-66.43","45.83","GAGETOWN A","8101792","2012-02-06 10:00","2012","02","06","10:00","-2.3","","-7.9","","65","","","","22","","22","","24.1","","100.05","","","","-8","","Cloudy"
"-66.43","45.83","GAGETOWN A","8101792","2012-02-06 11:00","2012","02","06","11:00","-1.1","","-7.3","","63","","","","22","","20","","24.1","","100.01","","","","-7","","Cloudy"
"-66.43","45.83","GAGETOWN A","8101792","2012-02-06 12:00","2012","02","06","12:00","-0.1","","-6.5","","62","","","","22","","20","","24.1","","99.98","","","","-5","","Cloudy"
"-66.43","45.83","GAGETOWN A","8101792","2012-02-06 13:00","2012","02","06","13:00","0.9","","-5.9","","60","","","","24","","20","","24.1","","99.93","","","","","","Cloudy"
"-66.43","45.83","GAGETOWN A","8101792","2012-02-06 14:00","2012","02","06","14:00","1.9","","-4.9","","61","","","","24","","20","","24.1","","99.84","","","","","","Cloudy"
"-66.43","45.83","GAGETOWN A","8101792","2012-02-06 15:00","2012","02","06","15:00","2.7","","-4.3","","60","","","","25","","32","","24.1","","99.82","","","","","","Mostly Cloudy"
"-66.43","45.83","GAGETOWN A","8101792","2012-02-06 16:00","2012","02","06","16:00","2.6","","-3.8","","63","","","","25","","15","","24.1","","99.79","","","","","","Cloudy"
"-66.43","45.83","GAGETOWN A","8101792","2012-02-06 17:00","2012","02","06","17:00","2.6","","-3.8","","63","","","","25","","20","","24.1","","99.81","","","","","","Cloudy"
"-66.43","45.83","GAGETOWN A","8101792","2012-02-06 18:00","2012","02","06","18:00","2.1","","-4.1","","63","","","","27","","19","","24.1","","99.84","","","","","","Mostly Cloudy"
"-66.43","45.83","GAGETOWN A","8101792","2012-02-06 19:00","2012","02","06","19:00","2.4","","-4.3","","61","","","","26","","24","","24.1","","99.87","","","","","","Mostly Cloudy"
"-66.43","45.83","GAGETOWN A","8101792","2012-02-06 20:00","2012","02","06","20:00","2.3","","-4.1","","63","","","","25","","19","","24.1","","99.93","","","","","","Cloudy"
"-66.43","45.83","GAGETOWN A","8101792","2012-02-06 21:00","2012","02","06","21:00","2.1","","-3.8","","65","","","","26","","19","","24.1","","99.97","","","","","","Cloudy"
"-66.43","45.83","GAGETOWN A","8101792","2012-02-06 22:00","2012","02","06","22:00","1.9","","-4.0","","65","","","","25","","17","","24.1","","100.00","","","","","","Cloudy"
"-66.43","45.83","GAGETOWN A","8101792","2012-02-06 23:00","2012","02","06","23:00","1.8","","-4.4","","63","","","","25","","15","","24.1","","99.99","","","","","","Mostly Cloudy"
"-66.43","45.83","GAGETOWN A","8101792","2012-02-07 00:00","2012","02","07","00:00","1.4","","-4.9","","63","","","","26","","20","","24.1","","99.99","","","","","","Mostly Cloudy"
"-66.43","45.83","GAGETOWN A","8101792","2012-02-07 01:00","2012","02","07","01:00","1.5","","-4.8","","63","","","","24","","17","","24.1","","100.02","","","","","","Mostly Cloudy"
"-66.43","45.83","GAGETOWN A","8101792","2012-02-07 02:00","2012","02","07","02:00","0.6","","-5.1","","66","","","","24","","13","","24.1","","100.01","","","","","","Mainly Clear"
"-66.43","45.83","GAGETOWN A","8101792","2012-02-07 03:00","2012","02","07","03:00","-0.5","","-5.3","","70","","","","26","","11","","24.1","","100.05","","","","-4","","Mainly Clear"
"-66.43","45.83","GAGETOWN A","8101792","2012-02-07 04:00","2012","02","07","04:00","-0.4","","-5.1","","71","","","","24","","13","","24.1","","100.09","","","","-5","","Mainly Clear"
"-66.43","45.83","GAGETOWN A","8101792","2012-02-07 05:00","2012","02","07","05:00","-0.2","","-5.1","","69","","","","23","","13","","24.1","","100.17","","","","-4","","Mostly Cloudy"
"-66.43","45.83","GAGETOWN A","8101792","2012-02-07 06:00","2012","02","07","06:00","-0.7","","-5.7","","69","","","","","","0","","24.1","","100.28","","","","","","Mostly Cloudy"
"-66.43","45.83","GAGETOWN A","8101792","2012-02-07 07:00","2012","02","07","07:00","-1.2","","-7.7","","61","","","","31","","15","","24.1","","100.38","","","","-6","","Mostly Cloudy"
"-66.43","45.83","GAGETOWN A","8101792","2012-02-07 08:00","2012","02","07","08:00","-1.9","","-9.6","","56","","","","32","","17","","24.1","","100.47","","","","-7","","Mostly Cloudy"
"-66.43","45.83","GAGETOWN A","8101792","2012-02-07 09:00","2012","02","07","09:00","-2.2","","-10.4","","53","","","","32","","15","","24.1","","100.59","","","","-7","","Mostly Cloudy"
"-66.43","45.83","GAGETOWN A","8101792","2012-02-07 10:00","2012","02","07","10:00","-1.9","","-10.2","","53","","","","31","","11","","24.1","","100.65","","","","-6","","Mostly Cloudy"
"-66.43","45.83","GAGETOWN A","8101792","2012-02-07 11:00","2012","02","07","11:00","-1.7","","-10.3","","52","","","","30","","24","","24.1","","100.70","","","","-8","","Mainly Clear"
"-66.43","45.83","GAGETOWN A","8101792","2012-02-07 12:00","2012","02","07","12:00","-2.2","","-10.1","","55","","","","32","","22","E","24.1","","100.72","","","","-8","E","Mostly Cloudy"
"-66.43","45.83","GAGETOWN A","8101792","2012-02-07 13:00","2012","02","07","13:00","-1.0","","-11.4","","45","","","","30","","26","","24.1","","100.72","","","","-7","","Mainly Clear"
"-66.43","45.83","GAGETOWN A","8101792","2012-02-07 14:00","2012","02","07","14:00","-3.1","","-11.7","","51","","","","29","","30","","24.1","","100.69","","","","-11","","Mostly Cloudy"
"-66.43","45.83","GAGETOWN A","8101792","2012-02-07 15:00","2012","02","07","15:00","-2.8","","-12.0","","49","","","","30","","19","","24.1","","100.71","","","","-9","","Mainly Clear"
"-66.43","45.83","GAGETOWN A","8101792","2012-02-07 16:00","2012","02","07","16:00","-3.2","","-12.3","","49","","","","30","","20","","24.1","","100.78","","","","-9","","Clear"
"-66.43","45.83","GAGETOWN A","8101792","2012-02-07 17:00","2012","02","07","17:00","-3.9","","-12.8","","50","","","","29","","19","","24.1","","100.85","","","","-10","","Clear"
"-66.43","45.83","GAGETOWN A","8101792","2012-02-07 18:00","2012","02","07","18:00","-5.6","","-13.2","","55","","","","30","","11","","24.1","","100.89","","","","-10","","Clear"
"-66.43","45.83","GAGETOWN A","8101792","2012-02-07 19:00","2012","02","07","19:00","-6.9","","-14.0","","57","","","","30","","11","","24.1","","101.01","","","","-12","","Clear"
"-66.43","45.83","GAGETOWN A","8101792","2012-02-07 20:00","2012","02","07","20:00","-8.5","","-15.2","","58","","","","32","","13","","24.1","","101.10","","","","-14","","Clear"
"-66.43","45.83","GAGETOWN A","8101792","2012-02-07 21:00","2012","02","07","21:00","-9.3","","-16.4","","56","","","","35","","7","","24.1","","101.17","","","","-13","","Clear"
"-66.43","45.83","GAGETOWN A","8101792","2012-02-07 22:00","2012","02","07","22:00","-10.4","","-17.1","","58","","","","32","","11","","24.1","","101.22","","","","-16","","Clear"
"-66.43","45.83","GAGETOWN A","8101792","2012-02-07 23:00","2012","02","07","23:00","-11.3","","-17.4","","61","","","","32","","17","","24.1","","101.30","","","","-19","","Clear"
"-66.43","45.83","GAGETOWN A","8101792","2012-02-08 00:00","2012","02","08","00:00","-12.3","","-18.0","","62","","","","32","","9","","24.1","","101.41","","","","-18","","Clear"
"-66.43","45.83","GAGETOWN A","8101792","2012-02-08 01:00","2012","02","08","01:00","-13.1","","-18.8","","62","","","","29","","13","","24.1","","101.46","","","","-20","","Clear"
"-66.43","45.83","GAGETOWN A","8101792","2012-02-08 02:00","2012","02","08","02:00","-13.9","","-20.4","","58","","","","28","","9","","24.1","","101.53","","","","-20","","Clear"
"-66.43","45.83","GAGETOWN A","8101792","2012-02-08 03:00","2012","02","08","03:00","-14.7","","-20.3","","62","","","","28","","13","","24.1","","101.57","","","","-22","","Clear"
"-66.43","45.83","GAGETOWN A","8101792","2012-02-08 04:00","2012","02","08","04:00","-15.7","","-20.3","","68","","","","27","","13","","24.1","","101.60","","","","-23","","Clear"
"-66.43","45.83","GAGETOWN A","8101792","2012-02-08 05:00","2012","02","08","05:00","-16.4","","-21.3","","66","","","","27","","6","","24.1","","101.64","","","","-21","","Clear"
"-66.43","45.83","GAGETOWN A","8101792","2012-02-08 06:00","2012","02","08","06:00","-19.8","","-22.4","","80","","","","22","","9","","24.1","","101.64","","","","-27","","Clear"
"-66.43","45.83","GAGETOWN A","8101792","2012-02-08 07:00","2012","02","08","07:00","-18.3","","-21.7","","75","","","","21","","11","","24.1","","101.68","","","","-26","","Clear"
"-66.43","45.83","GAGETOWN A","8101792","2012-02-08 08:00","2012","02","08","08:00","-17.6","","-21.5","","72","","","","24","","11","","24.1","","101.67","","","","-25","","Clear"
"-66.43","45.83","GAGETOWN A","8101792","2012-02-08 09:00","2012","02","08","09:00","-16.2","","-21.1","","66","","","","22","","11","","24.1","","101.72","","","","-23","","Clear"
"-66.43","45.83","GAGETOWN A","8101792","2012-02-08 10:00","2012","02","08","10:00","-13.0","","-22.5","","45","","","","22","","9","","24.1","","101.71","","","","-18","","Clear"
"-66.43","45.83","GAGETOWN A","8101792","2012-02-08 11:00","2012","02","08","11:00","-10.6","","-22.1","","38","","","","22","","13","","24.1","","101.68","","","","-17","","Clear"
"-66.43","45.83","GAGETOWN A","8101792","2012-02-08 12:00","2012","02","08","12:00","-8.5","","-21.7","","34","","","","24","","17","","24.1","","101.59","","","","-15","","Clear"
"-66.43","45.83","GAGETOWN A","8101792","2012-02-08 13:00","2012","02","08","13:00","-7.3","","-21.1","","32","","","","24","","24","","24.1","","101.49","","","","-15","","Clear"
"-66.43","45.83","GAGETOWN A","8101792","2012-02-08 14:00","2012","02","08","14:00","-5.0","","-20.2","","29","","","","22","","22","","24.1","","101.38","","","","-12","","Clear"
"-66.43","45.83","GAGETOWN A","8101792","2012-02-08 15:00","2012","02","08","15:00","-3.9","","-20.2","","27","","","","23","","19","","24.1","","101.28","","","","-10","","Clear"
"-66.43","45.83","GAGETOWN A","8101792","2012-02-08 16:00","2012","02","08","16:00","-2.8","","-19.8","","26","","","","22","","19","","24.1","","101.20","","","","-9","","Clear"
"-66.43","45.83","GAGETOWN A","8101792","2012-02-08 17:00","2012","02","08","17:00","-2.8","","-19.9","","25","","","","22","","13","","24.1","","101.16","","","","-7","","Clear"
"-66.43","45.83","GAGETOWN A","8101792","2012-02-08 18:00","2012","02","08","18:00","-3.9","","-19.6","","28","","","","20","","11","","24.1","","101.14","","","","-8","","Clear"
"-66.43","45.83","GAGETOWN A","8101792","2012-02-08 19:00","2012","02","08","19:00","-4.7","","-17.7","","35","","","","19","","11","","24.1","","101.11","","","","-9","","Clear"
"-66.43","45.83","GAGETOWN A","8101792","2012-02-08 20:00","2012","02","08","20:00","-4.5","","-15.0","","44","","","","20","","20","","24.1","","101.11","","","","-11","","Clear"
"-66.43","45.83","GAGETOWN A","8101792","2012-02-08 21:00","2012","02","08","21:00","-4.4","","-11.4","","58","","","","20","","20","","24.1","","101.09","","","","-11","","Clear"
"-66.43","45.83","GAGETOWN A","8101792","2012-02-08 22:00","2012","02","08","22:00","-4.5","","-10.3","","64","","","","19","","17","","24.1","","101.07","","","","-10","","Mainly Clear"
"-66.43","45.83","GAGETOWN A","8101792","2012-02-08 23:00","2012","02","08","23:00","-4.8","","-9.6","","69","","","","20","","15","","24.1","","101.04","","","","-10","","Mainly Clear"
"-66.43","45.83","GAGETOWN A","8101792","2012-02-09 00:00","2012","02","09","00:00","-4.8","","-9.6","","69","","","","20","","17","","24.1","","101.04","","","","-11","","Mainly Clear"
"-66.43","45.83","GAGETOWN A","8101792","2012-02-09 01:00","2012","02","09","01:00","-4.8","","-9.6","","69","","","","20","","19","","24.1","","101.00","","","","-11","","Mainly Clear"
"-66.43","45.83","GAGETOWN A","8101792","2012-02-09 02:00","2012","02","09","02:00","-5.6","","-9.6","","73","","","","21","","9","","24.1","","101.04","","","","-10","","Mostly Cloudy"
"-66.43","45.83","GAGETOWN A","8101792","2012-02-09 03:00","2012","02","09","03:00","-7.1","","-9.9","","80","","","","21","","7","","24.1","","101.02","","","","-11","","Mostly Cloudy"
"-66.43","45.83","GAGETOWN A","8101792","2012-02-09 04:00","2012","02","09","04:00","-8.6","","-10.2","","88","","","","23","","6","","24.1","","100.98","","","","-12","","Mostly Cloudy"
"-66.43","45.83","GAGETOWN A","8101792","2012-02-09 05:00","2012","02","09","05:00","-9.7","","-11.5","","87","","","","23","","4","","24.1","","100.99","","","","-12","","Mostly Cloudy"
"-66.43","45.83","GAGETOWN A","8101792","2012-02-09 06:00","2012","02","09","06:00","-13.0","","-13.9","","93","","","","9","","4","","24.1","","100.96","","","","-16","","Mainly Clear"
"-66.43","45.83","GAGETOWN A","8101792","2012-02-09 07:00","2012","02","09","07:00","-12.8","","-14.3","","88","","","","10","","4","","24.1","","100.97","","","","-15","","Mainly Clear"
"-66.43","45.83","GAGETOWN A","8101792","2012-02-09 08:00","2012","02","09","08:00","-12.2","","-14.5","","83","","","","","","0","","24.1","","100.96","","","","","","Mainly Clear"
"-66.43","45.83","GAGETOWN A","8101792","2012-02-09 09:00","2012","02","09","09:00","-12.6","","-13.9","","90","","","","","","0","","24.1","","100.95","","","","","","Mostly Cloudy"
"-66.43","45.83","GAGETOWN A","8101792","2012-02-09 10:00","2012","02","09","10:00","-11.1","","-12.5","","89","","","","","","0","","24.1","","100.90","","","","","","Mostly Cloudy"
"-66.43","45.83","GAGETOWN A","8101792","2012-02-09 11:00","2012","02","09","11:00","-5.6","","-10.6","","68","","","","","","0","","24.1","","100.82","","","","","","Mostly Cloudy"
"-66.43","45.83","GAGETOWN A","8101792","2012-02-09 12:00","2012","02","09","12:00","-3.1","","-11.4","","53","","","","29","","9","","24.1","","100.79","","","","-7","","Mostly Cloudy"
"-66.43","45.83","GAGETOWN A","8101792","2012-02-09 13:00","2012","02","09","13:00","-0.7","","-10.8","","46","","","","28","","4","","24.1","","100.69","","","","-2","","Mostly Cloudy"
"-66.43","45.83","GAGETOWN A","8101792","2012-02-09 14:00","2012","02","09","14:00","0.2","","-11.2","","42","","","","31","","4","","24.1","","100.64","","","","","","Mostly Cloudy"
"-66.43","45.83","GAGETOWN A","8101792","2012-02-09 15:00","2012","02","09","15:00","0.6","","-10.7","","42","","","","30","","7","","24.1","","100.56","","","","","","Mostly Cloudy"
"-66.43","45.83","GAGETOWN A","8101792","2012-02-09 16:00","2012","02","09","16:00","0.5","","-10.7","","43","","","","30","","7","","24.1","","100.56","","","","","","Mostly Cloudy"
"-66.43","45.83","GAGETOWN A","8101792","2012-02-09 17:00","2012","02","09","17:00","1.8","","-9.7","","42","","","","29","","11","","24.1","","100.56","","","","","","Mostly Cloudy"
"-66.43","45.83","GAGETOWN A","8101792","2012-02-09 18:00","2012","02","09","18:00","-0.2","","-9.9","","48","","","","28","","7","","24.1","","100.66","","","","-3","","Mainly Clear"
"-66.43","45.83","GAGETOWN A","8101792","2012-02-09 19:00","2012","02","09","19:00","-1.7","","-9.8","","54","","","","29","","9","","24.1","","100.76","","","","-5","","Mainly Clear"
"-66.43","45.83","GAGETOWN A","8101792","2012-02-09 20:00","2012","02","09","20:00","-2.2","","-9.4","","58","","","","29","","15","","24.1","","100.82","","","","-7","","Clear"
"-66.43","45.83","GAGETOWN A","8101792","2012-02-09 21:00","2012","02","09","21:00","-3.0","","-9.6","","60","","","","29","","7","","24.1","","100.88","","","","-6","","Mainly Clear"
"-66.43","45.83","GAGETOWN A","8101792","2012-02-09 22:00","2012","02","09","22:00","-3.9","","-9.8","","64","","","","27","","9","","24.1","","100.91","","","","-8","","Clear"
"-66.43","45.83","GAGETOWN A","8101792","2012-02-09 23:00","2012","02","09","23:00","-4.3","","-9.8","","65","","","","27","","11","","24.1","","100.93","","","","-9","","Clear"
"-66.43","45.83","GAGETOWN A","8101792","2012-02-10 00:00","2012","02","10","00:00","-4.9","","-9.9","","68","","","","28","","7","","24.1","","100.93","","","","-8","","Clear"
"-66.43","45.83","GAGETOWN A","8101792","2012-02-10 01:00","2012","02","10","01:00","-6.2","","-10.1","","74","","","","25","","7","","24.1","","100.99","","","","-10","","Clear"
"-66.43","45.83","GAGETOWN A","8101792","2012-02-10 02:00","2012","02","10","02:00","-10.1","","-12.4","","83","","","","22","","6","","24.1","","101.01","","","","-14","","Clear"
"-66.43","45.83","GAGETOWN A","8101792","2012-02-10 03:00","2012","02","10","03:00","-9.0","","-10.4","","90","","","","22","","9","","24.1","","101.05","","","","-14","","Clear"
"-66.43","45.83","GAGETOWN A","8101792","2012-02-10 04:00","2012","02","10","04:00","-11.1","","-12.5","","89","","","","","","0","","24.1","","101.08","","","","","","Clear"
"-66.43","45.83","GAGETOWN A","8101792","2012-02-10 05:00","2012","02","10","05:00","-10.9","","-11.5","","95","","","","19","","6","","24.1","","101.13","","","","-15","","Clear"
"-66.43","45.83","GAGETOWN A","8101792","2012-02-10 06:00","2012","02","10","06:00","-10.7","","-12.1","","89","","","","22","","7","","24.1","","101.14","","","","-15","","Clear"
"-66.43","45.83","GAGETOWN A","8101792","2012-02-10 07:00","2012","02","10","07:00","-10.5","","-11.5","","92","","","","","","0","","24.1","","101.18","","","","","","Clear"
"-66.43","45.83","GAGETOWN A","8101792","2012-02-10 08:00","2012","02","10","08:00","-14.8","","-16.3","","88","","","","","","0","","24.1","","101.21","","","","","","Clear"
"-66.43","45.83","GAGETOWN A","8101792","2012-02-10 09:00","2012","02","10","09:00","-10.9","","-12.6","","87","","","","27","","4","","24.1","","101.27","","","","-13","","Clear"
"-66.43","45.83","GAGETOWN A","8101792","2012-02-10 10:00","2012","02","10","10:00","-7.0","","-11.0","","73","","","","31","","4","","24.1","","101.27","","","","-9","","Clear"
"-66.43","45.83","GAGETOWN A","8101792","2012-02-10 11:00","2012","02","10","11:00","-2.8","","-10.4","","56","","","","32","","4","","24.1","","101.22","","","","-4","","Clear"
"-66.43","45.83","GAGETOWN A","8101792","2012-02-10 12:00","2012","02","10","12:00","3.0","","-7.9","","45","","","","20","","20","","24.1","","101.13","","","","","","Clear"
"-66.43","45.83","GAGETOWN A","8101792","2012-02-10 13:00","2012","02","10","13:00","5.1","","-7.6","","39","","","","21","","13","","24.1","","101.00","","","","","","Clear"
"-66.43","45.83","GAGETOWN A","8101792","2012-02-10 14:00","2012","02","10","14:00","5.3","","-7.0","","41","","","","19","","22","","24.1","","100.92","","","","","","Mainly Clear"
"-66.43","45.83","GAGETOWN A","8101792","2012-02-10 15:00","2012","02","10","15:00","5.5","","-4.9","","47","","","","18","","17","","24.1","","100.87","","","","","","Mainly Clear"
"-66.43","45.83","GAGETOWN A","8101792","2012-02-10 16:00","2012","02","10","16:00","4.3","","-2.9","","59","","","","17","","20","","24.1","","100.83","","","","","","Mainly Clear"
"-66.43","45.83","GAGETOWN A","8101792","2012-02-10 17:00","2012","02","10","17:00","4.4","","-1.4","","66","","","","17","","22","","24.1","","100.80","","","","","","Mostly Cloudy"
"-66.43","45.83","GAGETOWN A","8101792","2012-02-10 18:00","2012","02","10","18:00","3.1","","-1.0","","74","","","","16","","15","","24.1","","100.74","","","","","","Mainly Clear"
"-66.43","45.83","GAGETOWN A","8101792","2012-02-10 19:00","2012","02","10","19:00","2.2","","-0.8","","81","","","","17","","11","","24.1","","100.75","","","","","","Mainly Clear"
"-66.43","45.83","GAGETOWN A","8101792","2012-02-10 20:00","2012","02","10","20:00","2.6","","-0.7","","79","","","","18","","19","","24.1","","100.70","","","","","","Cloudy"
"-66.43","45.83","GAGETOWN A","8101792","2012-02-10 21:00","2012","02","10","21:00","2.2","","-1.0","","79","","","","18","","15","","24.1","","100.69","","","","","","Cloudy"
"-66.43","45.83","GAGETOWN A","8101792","2012-02-10 22:00","2012","02","10","22:00","1.3","","-0.9","","85","","","","19","","11","","24.1","","100.69","","","","","","Cloudy"
"-66.43","45.83","GAGETOWN A","8101792","2012-02-10 23:00","2012","02","10","23:00","1.5","","-0.7","","85","","","","18","","13","","24.1","","100.64","","","","","","Cloudy"
"-66.43","45.83","GAGETOWN A","8101792","2012-02-11 00:00","2012","02","11","00:00","2.5","","0.1","","84","","","","17","","15","","24.1","","100.57","","","","","","Cloudy"
"-66.43","45.83","GAGETOWN A","8101792","2012-02-11 01:00","2012","02","11","01:00","3.0","","0.9","","86","","","","17","","11","","24.1","","100.51","","","","","","Cloudy"
"-66.43","45.83","GAGETOWN A","8101792","2012-02-11 02:00","2012","02","11","02:00","2.4","","0.8","","89","","","","16","","6","","24.1","","100.44","","","","","","Mostly Cloudy"
"-66.43","45.83","GAGETOWN A","8101792","2012-02-11 03:00","2012","02","11","03:00","-0.2","","-1.2","","93","","","","34","","6","","24.1","","100.40","","","","-2","","Cloudy"
"-66.43","45.83","GAGETOWN A","8101792","2012-02-11 04:00","2012","02","11","04:00","0.1","","-0.9","","93","","","","9","","6","","24.1","","100.35","","","","","","Cloudy"
"-66.43","45.83","GAGETOWN A","8101792","2012-02-11 05:00","2012","02","11","05:00","0.3","","-0.7","","93","","","","","","0","","24.1","","100.36","","","","","","Cloudy"
"-66.43","45.83","GAGETOWN A","8101792","2012-02-11 06:00","2012","02","11","06:00","0.6","","-0.4","","93","","","","","","0","","19.3","","100.32","","","","","","Drizzle"
"-66.43","45.83","GAGETOWN A","8101792","2012-02-11 07:00","2012","02","11","07:00","-0.1","","-0.8","","95","","","","","","0","","9.7","","100.26","","","","","","Freezing Drizzle,Fog"
"-66.43","45.83","GAGETOWN A","8101792","2012-02-11 08:00","2012","02","11","08:00","-0.5","","-1.0","","96","","","","29","","11","","3.2","","100.29","","","","-4","","Snow"
"-66.43","45.83","GAGETOWN A","8101792","2012-02-11 09:00","2012","02","11","09:00","-0.6","","-1.1","","96","","","","34","","7","","2.4","","100.27","","","","-3","","Snow"
"-66.43","45.83","GAGETOWN A","8101792","2012-02-11 10:00","2012","02","11","10:00","-0.8","","-1.5","","95","","","","35","","11","","1.6","","100.25","","","","-5","","Snow"
"-66.43","45.83","GAGETOWN A","8101792","2012-02-11 11:00","2012","02","11","11:00","-0.8","","-1.5","","95","","","","35","","7","","1.6","","100.23","","","","-3","","Snow"
"-66.43","45.83","GAGETOWN A","8101792","2012-02-11 12:00","2012","02","11","12:00"
"-66.43","45.83","GAGETOWN A","8101792","2012-02-11 13:00","2012","02","11","13:00","-0.6","","-1.3","","95","","","","33","","11","","1.2","","100.06","","","","-4","","Snow"
"-66.43","45.83","GAGETOWN A","8101792","2012-02-11 14:00","2012","02","11","14:00","-0.4","","-1.1","","95","","","","34","","9","","0.8","","99.95","","","","-4","","Moderate Snow"
"-66.43","45.83","GAGETOWN A","8101792","2012-02-11 15:00","2012","02","11","15:00","-1.0","","-1.7","","95","","","","1","","15","","0.8","","99.86","","","","-6","","Moderate Snow"
"-66.43","45.83","GAGETOWN A","8101792","2012-02-11 16:00","2012","02","11","16:00","-1.7","","-2.3","","96","","","","1","","15","","0.8","","99.81","","","","-7","","Moderate Snow"
"-66.43","45.83","GAGETOWN A","8101792","2012-02-11 17:00","2012","02","11","17:00","-2.2","","-3.1","","94","","","","36","","15","","0.8","","99.77","","","","-7","","Moderate Snow"
"-66.43","45.83","GAGETOWN A","8101792","2012-02-11 18:00","2012","02","11","18:00","-3.2","","-4.3","","92","","","","1","","19","","0.8","","99.71","","","","-9","","Moderate Snow"
"-66.43","45.83","GAGETOWN A","8101792","2012-02-11 19:00","2012","02","11","19:00","-3.8","","-5.1","","91","","","","3","","15","","0.8","","99.63","","","","-9","","Moderate Snow"
"-66.43","45.83","GAGETOWN A","8101792","2012-02-11 20:00","2012","02","11","20:00","-4.5","","-5.8","","91","","","","2","","19","","0.8","","99.59","","","","-11","","Moderate Snow"
"-66.43","45.83","GAGETOWN A","8101792","2012-02-11 21:00","2012","02","11","21:00","-5.7","","-7.4","","88","","","","36","","17","","3.2","","99.49","","","","-12","","Snow"
"-66.43","45.83","GAGETOWN A","8101792","2012-02-11 22:00","2012","02","11","22:00","-6.5","","-8.4","","86","","","","36","","17","","2.8","","99.39","","","","-13","","Snow"
"-66.43","45.83","GAGETOWN A","8101792","2012-02-11 23:00","2012","02","11","23:00","-6.9","","-8.6","","88","","","","36","","20","","2.4","","99.22","","","","-14","","Snow"
"-66.43","45.83","GAGETOWN A","8101792","2012-02-12 00:00","2012","02","12","00:00","-7.1","","-8.5","","90","","","","35","","13","","1.2","","99.10","","","","-13","","Snow"
"-66.43","45.83","GAGETOWN A","8101792","2012-02-12 01:00","2012","02","12","01:00","-7.5","","-9.0","","89","","","","35","","13","","1.2","","99.00","","","","-13","","Snow"
"-66.43","45.83","GAGETOWN A","8101792","2012-02-12 02:00","2012","02","12","02:00","-8.4","","-9.9","","89","","","","31","","22","","1.2","","98.85","","","","-16","","Snow"
"-66.43","45.83","GAGETOWN A","8101792","2012-02-12 03:00","2012","02","12","03:00","-10.3","","-12.1","","87","","","","31","","26","","1.2","","98.71","","","","-19","","Snow"
"-66.43","45.83","GAGETOWN A","8101792","2012-02-12 04:00","2012","02","12","04:00","-11.8","","-13.9","","84","","","","30","","24","","2.4","","98.67","","","","-21","","Snow"
"-66.43","45.83","GAGETOWN A","8101792","2012-02-12 05:00","2012","02","12","05:00","-12.4","","-16.1","","74","","","","30","","22","","4.0","","98.71","","","","-21","","Snow"
"-66.43","45.83","GAGETOWN A","8101792","2012-02-12 06:00","2012","02","12","06:00","-12.9","","-16.9","","72","","","","30","","24","","24.1","","98.78","","","","-22","","Cloudy"
"-66.43","45.83","GAGETOWN A","8101792","2012-02-12 07:00","2012","02","12","07:00","-13.5","","-18.0","","69","","","","29","","24","","24.1","","98.88","","","","-23","","Cloudy"
"-66.43","45.83","GAGETOWN A","8101792","2012-02-12 08:00","2012","02","12","08:00","-14.5","","-19.6","","65","","","","29","","28","","24.1","","98.98","","","","-25","","Mostly Cloudy"
"-66.43","45.83","GAGETOWN A","8101792","2012-02-12 09:00","2012","02","12","09:00","-15.5","","-19.8","","70","","","","29","","26","","24.1","","99.03","","","","-26","","Mainly Clear"
"-66.43","45.83","GAGETOWN A","8101792","2012-02-12 10:00","2012","02","12","10:00","-15.2","","-20.6","","63","","","","29","","26","","24.1","","99.03","","","","-26","","Mainly Clear"
"-66.43","45.83","GAGETOWN A","8101792","2012-02-12 11:00","2012","02","12","11:00","-14.5","","-21.6","","55","","","","27","","28","","24.1","","99.12","","","","-25","","Mainly Clear"
"-66.43","45.83","GAGETOWN A","8101792","2012-02-12 12:00","2012","02","12","12:00","-13.5","","-20.9","","54","","","","28","","24","","24.1","","99.21","","","","-23","","Clear"
"-66.43","45.83","GAGETOWN A","8101792","2012-02-12 13:00","2012","02","12","13:00","-13.4","","-21.2","","52","","","","29","","28","","24.1","","99.16","","","","-24","","Clear"
"-66.43","45.83","GAGETOWN A","8101792","2012-02-12 14:00","2012","02","12","14:00","-12.7","","-21.3","","49","","","","30","","33","","24.1","","99.02","","","","-23","","Mainly Clear"
"-66.43","45.83","GAGETOWN A","8101792","2012-02-12 15:00","2012","02","12","15:00","-12.1","","-21.3","","46","","","","29","","30","","24.1","","99.03","","","","-22","","Mainly Clear"
"-66.43","45.83","GAGETOWN A","8101792","2012-02-12 16:00","2012","02","12","16:00","-12.1","","-21.6","","45","","","","29","","28","","24.1","","99.04","","","","-22","","Mainly Clear"
"-66.43","45.83","GAGETOWN A","8101792","2012-02-12 17:00","2012","02","12","17:00","-12.4","","-22.0","","45","","","","29","","28","","24.1","","99.06","","","","-22","","Mainly Clear"
"-66.43","45.83","GAGETOWN A","8101792","2012-02-12 18:00","2012","02","12","18:00","-13.7","","-23.4","","44","","","","30","","30","","24.1","","99.13","","","","-24","","Clear"
"-66.43","45.83","GAGETOWN A","8101792","2012-02-12 19:00","2012","02","12","19:00","-15.2","","-23.8","","48","","","","30","","15","","24.1","","99.27","","","","-23","","Clear"
"-66.43","45.83","GAGETOWN A","8101792","2012-02-12 20:00","2012","02","12","20:00","-16.0","","-24.4","","48","","","","29","","17","","24.1","","99.39","","","","-25","","Clear"
"-66.43","45.83","GAGETOWN A","8101792","2012-02-12 21:00","2012","02","12","21:00","-16.3","","-25.2","","46","","","","30","","17","","24.1","","99.52","","","","-25","","Clear"
"-66.43","45.83","GAGETOWN A","8101792","2012-02-12 22:00","2012","02","12","22:00","-17.6","","-25.8","","49","","","","30","","11","","24.1","","99.61","","","","-25","","Clear"
"-66.43","45.83","GAGETOWN A","8101792","2012-02-12 23:00","2012","02","12","23:00","-17.3","","-27.3","","41","","","","28","","28","","24.1","","99.69","","","","-29","","Clear"
"-66.43","45.83","GAGETOWN A","8101792","2012-02-13 00:00","2012","02","13","00:00","-18.4","","-27.7","","44","","","","28","","19","","24.1","","99.75","","","","-28","","Clear"
"-66.43","45.83","GAGETOWN A","8101792","2012-02-13 01:00","2012","02","13","01:00","-19.3","","-27.6","","48","","","","25","","11","","24.1","","99.75","","","","-27","","Clear"
"-66.43","45.83","GAGETOWN A","8101792","2012-02-13 02:00","2012","02","13","02:00","-20.2","","-27.8","","51","","","","23","","13","","24.1","","99.76","","","","-29","","Clear"
"-66.43","45.83","GAGETOWN A","8101792","2012-02-13 03:00","2012","02","13","03:00","-20.7","","-26.8","","58","","","","23","","17","","24.1","","99.78","","","","-31","","Clear"
"-66.43","45.83","GAGETOWN A","8101792","2012-02-13 04:00","2012","02","13","04:00"
"-66.43","45.83","GAGETOWN A","8101792","2012-02-13 05:00","2012","02","13","05:00","-22.1","","-27.8","","60","","","","22","","19","","24.1","","99.83","","","","-33","","Clear"
"-66.43","45.83","GAGETOWN A","8101792","2012-02-13 06:00","2012","02","13","06:00","-22.0","","-27.6","","60","","","","22","","19","","24.1","","99.85","","","","-33","","Clear"
"-66.43","45.83","GAGETOWN A","8101792","2012-02-13 07:00","2012","02","13","07:00","-21.8","","-27.0","","63","","","","22","","17","","24.1","","99.86","","","","-32","","Mainly Clear"
"-66.43","45.83","GAGETOWN A","8101792","2012-02-13 08:00","2012","02","13","08:00","-21.2","","-26.4","","63","","","","21","","15","","24.1","","99.88","","","","-31","","Mainly Clear"
"-66.43","45.83","GAGETOWN A","8101792","2012-02-13 09:00","2012","02","13","09:00","-20.1","","-24.4","","69","","","","22","","13","","6.4","","99.96","","","","-29","","Snow Showers"
"-66.43","45.83","GAGETOWN A","8101792","2012-02-13 10:00","2012","02","13","10:00","-18.0","","-22.0","","71","","","","22","","9","","4.8","","99.99","","","","-24","","Snow Showers"
"-66.43","45.83","GAGETOWN A","8101792","2012-02-13 11:00","2012","02","13","11:00","-15.6","","-20.2","","68","","","","25","","13","","9.7","","99.97","","","","-23","","Snow Showers"
"-66.43","45.83","GAGETOWN A","8101792","2012-02-13 12:00","2012","02","13","12:00","-13.9","","-21.3","","54","","","","28","","32","","11.3","","99.96","","","","-25","","Snow Showers"
"-66.43","45.83","GAGETOWN A","8101792","2012-02-13 13:00","2012","02","13","13:00","-13.4","","-21.0","","53","","","","28","","32","","11.3","","99.94","","","","-24","","Mostly Cloudy"
"-66.43","45.83","GAGETOWN A","8101792","2012-02-13 14:00","2012","02","13","14:00","-12.2","","-22.2","","43","","","","26","","24","","24.1","","99.91","","","","-21","","Mainly Clear"
"-66.43","45.83","GAGETOWN A","8101792","2012-02-13 15:00","2012","02","13","15:00","-11.4","","-21.9","","42","","","","28","","19","","24.1","","99.90","","","","-19","","Mainly Clear"
"-66.43","45.83","GAGETOWN A","8101792","2012-02-13 16:00","2012","02","13","16:00","-10.3","","-22.0","","38","","","","27","","20","","24.1","","99.95","","","","-18","","Mainly Clear"
"-66.43","45.83","GAGETOWN A","8101792","2012-02-13 17:00","2012","02","13","17:00","-10.4","","-23.2","","34","","","","27","","17","","24.1","","100.04","","","","-18","","Mainly Clear"
"-66.43","45.83","GAGETOWN A","8101792","2012-02-13 18:00","2012","02","13","18:00","-11.4","","-23.7","","35","","","","26","","13","","24.1","","100.15","","","","-18","","Clear"
"-66.43","45.83","GAGETOWN A","8101792","2012-02-13 19:00","2012","02","13","19:00","-12.4","","-25.0","","34","","","","26","","11","","24.1","","100.28","","","","-18","","Clear"
"-66.43","45.83","GAGETOWN A","8101792","2012-02-13 20:00","2012","02","13","20:00","-14.2","","-25.0","","40","","","","22","","7","","24.1","","100.39","","","","-19","","Clear"
"-66.43","45.83","GAGETOWN A","8101792","2012-02-13 21:00","2012","02","13","21:00","-14.7","","-25.9","","38","","","","23","","11","","24.1","","100.46","","","","-21","","Clear"
"-66.43","45.83","GAGETOWN A","8101792","2012-02-13 22:00","2012","02","13","22:00","-14.6","","-26.3","","36","","","","24","","15","","24.1","","100.56","","","","-22","","Clear"
"-66.43","45.83","GAGETOWN A","8101792","2012-02-13 23:00","2012","02","13","23:00","-15.5","","-26.5","","38","","","","25","","9","","24.1","","100.64","","","","-21","","Clear"
"-66.43","45.83","GAGETOWN A","8101792","2012-02-14 00:00","2012","02","14","00:00","-16.0","","-27.5","","37","","","","27","","11","","24.1","","100.74","","","","-23","","Clear"
"-66.43","45.83","GAGETOWN A","8101792","2012-02-14 01:00","2012","02","14","01:00","-17.4","","-27.3","","42","","","","23","","7","","24.1","","100.81","","","","-23","","Clear"
"-66.43","45.83","GAGETOWN A","8101792","2012-02-14 02:00","2012","02","14","02:00","-17.5","","-27.2","","43","","","","21","","13","","24.1","","100.92","","","","-25","","Mainly Clear"
"-66.43","45.83","GAGETOWN A","8101792","2012-02-14 03:00","2012","02","14","03:00","-18.0","","-27.2","","44","","","","23","","9","","24.1","","100.96","","","","-24","","Mainly Clear"
"-66.43","45.83","GAGETOWN A","8101792","2012-02-14 04:00","2012","02","14","04:00","-19.4","","-27.0","","51","","","","27","","6","","24.1","","101.05","","","","-24","","Clear"
"-66.43","45.83","GAGETOWN A","8101792","2012-02-14 05:00","2012","02","14","05:00","-23.0","","-28.2","","62","","","","22","","4","","24.1","","101.17","","","","-27","","Clear"
"-66.43","45.83","GAGETOWN A","8101792","2012-02-14 06:00","2012","02","14","06:00","-21.9","","-27.2","","62","","","","","","0","","24.1","","101.23","","","","","","Mainly Clear"
"-66.43","45.83","GAGETOWN A","8101792","2012-02-14 07:00","2012","02","14","07:00","-23.6","","-27.5","","70","","","","","","0","","24.1","","101.29","","","","","","Mostly Cloudy"
"-66.43","45.83","GAGETOWN A","8101792","2012-02-14 08:00","2012","02","14","08:00","-24.1","","-29.0","","64","","","","","","0","","24.1","","101.36","","","","","","Cloudy"
"-66.43","45.83","GAGETOWN A","8101792","2012-02-14 09:00","2012","02","14","09:00","-21.5","","-26.4","","65","","","","","","0","","24.1","","101.45","","","","","","Cloudy"
"-66.43","45.83","GAGETOWN A","8101792","2012-02-14 10:00","2012","02","14","10:00","-18.5","","-24.6","","59","","","","33","","4","","24.1","","101.46","","","","-22","","Cloudy"
"-66.43","45.83","GAGETOWN A","8101792","2012-02-14 11:00","2012","02","14","11:00","-13.9","","-23.0","","46","","","","31","","4","","24.1","","101.46","","","","-17","","Cloudy"
"-66.43","45.83","GAGETOWN A","8101792","2012-02-14 12:00","2012","02","14","12:00","-11.5","","-21.5","","43","","","","34","","6","","24.1","","101.46","","","","-15","","Cloudy"
"-66.43","45.83","GAGETOWN A","8101792","2012-02-14 13:00","2012","02","14","13:00","-8.2","","-20.6","","36","","","","9","","7","","24.1","","101.38","","","","-12","","Cloudy"
"-66.43","45.83","GAGETOWN A","8101792","2012-02-14 14:00","2012","02","14","14:00","-6.6","","-17.9","","40","","","","5","","7","","24.1","","101.30","","","","-10","","Mostly Cloudy"
"-66.43","45.83","GAGETOWN A","8101792","2012-02-14 15:00","2012","02","14","15:00","-6.9","","-18.2","","40","","","","4","","11","","24.1","","101.24","","","","-12","","Mainly Clear"
"-66.43","45.83","GAGETOWN A","8101792","2012-02-14 16:00","2012","02","14","16:00","-5.1","","-13.5","","52","","","","4","","6","","24.1","","101.23","","","","-8","","Cloudy"
"-66.43","45.83","GAGETOWN A","8101792","2012-02-14 17:00","2012","02","14","17:00","-3.9","","-10.5","","60","","","","7","","6","","24.1","","101.23","","","","-7","","Cloudy"
"-66.43","45.83","GAGETOWN A","8101792","2012-02-14 18:00","2012","02","14","18:00","-2.5","","-6.5","","74","","","","14","","6","","24.1","","101.26","","","","-5","","Cloudy"
"-66.43","45.83","GAGETOWN A","8101792","2012-02-14 19:00","2012","02","14","19:00","-4.5","","-8.6","","73","","","","7","","4","","24.1","","101.31","","","","-6","","Mostly Cloudy"
"-66.43","45.83","GAGETOWN A","8101792","2012-02-14 20:00","2012","02","14","20:00","-5.1","","-8.5","","77","","","","6","","4","","24.1","","101.32","","","","-7","","Mostly Cloudy"
"-66.43","45.83","GAGETOWN A","8101792","2012-02-14 21:00","2012","02","14","21:00","-5.4","","-8.6","","78","","","","4","","4","","24.1","","101.35","","","","-7","","Mainly Clear"
"-66.43","45.83","GAGETOWN A","8101792","2012-02-14 22:00","2012","02","14","22:00","-6.6","","-9.1","","82","","","","10","","6","","24.1","","101.36","","","","-10","","Mainly Clear"
"-66.43","45.83","GAGETOWN A","8101792","2012-02-14 23:00","2012","02","14","23:00","-8.6","","-10.1","","89","","","","6","","4","","24.1","","101.38","","","","-11","","Mainly Clear"
"-66.43","45.83","GAGETOWN A","8101792","2012-02-15 00:00","2012","02","15","00:00","-10.5","","-11.9","","89","","","","11","","6","","24.1","","101.41","","","","-14","","Mainly Clear"
"-66.43","45.83","GAGETOWN A","8101792","2012-02-15 01:00","2012","02","15","01:00","-9.3","","-10.7","","90","","","","26","","4","","24.1","","101.44","","","","-12","","Clear"
"-66.43","45.83","GAGETOWN A","8101792","2012-02-15 02:00","2012","02","15","02:00","-11.1","","-12.5","","89","","","","27","","4","","24.1","","101.46","","","","-14","","Mainly Clear"
"-66.43","45.83","GAGETOWN A","8101792","2012-02-15 03:00","2012","02","15","03:00","-11.8","","-13.5","","87","","","","13","","4","","24.1","","101.50","","","","-14","","Mainly Clear"
"-66.43","45.83","GAGETOWN A","8101792","2012-02-15 04:00","2012","02","15","04:00","-12.4","","-13.5","","91","","","","34","","7","","24.1","","101.53","","","","-17","","Mainly Clear"
"-66.43","45.83","GAGETOWN A","8101792","2012-02-15 05:00","2012","02","15","05:00","-13.7","","-15.8","","84","","","","","","0","","24.1","","101.58","","","","","","Mainly Clear"
"-66.43","45.83","GAGETOWN A","8101792","2012-02-15 06:00","2012","02","15","06:00","-14.8","","-16.3","","88","","","","","","0","","12.9","","101.63","","","","","","Mainly Clear"
"-66.43","45.83","GAGETOWN A","8101792","2012-02-15 07:00","2012","02","15","07:00","-12.8","","-13.9","","91","","","","33","","4","","3.2","","101.64","","","","-15","","Fog"
"-66.43","45.83","GAGETOWN A","8101792","2012-02-15 08:00","2012","02","15","08:00","-14.2","","-15.7","","88","","","","","","0","","2.0","","101.67","","","","","","Fog"
"-66.43","45.83","GAGETOWN A","8101792","2012-02-15 09:00","2012","02","15","09:00","-12.0","","-13.3","","90","","","","","","0","","4.8","","101.72","","","","","","Fog"
"-66.43","45.83","GAGETOWN A","8101792","2012-02-15 10:00","2012","02","15","10:00","-9.3","","-10.2","","93","","","","","","0","","19.3","","101.72","","","","","","Mostly Cloudy"
"-66.43","45.83","GAGETOWN A","8101792","2012-02-15 11:00","2012","02","15","11:00","-9.0","","-10.1","","92","","","","29","","4","","24.1","","101.70","","","","-11","","Cloudy"
"-66.43","45.83","GAGETOWN A","8101792","2012-02-15 12:00","2012","02","15","12:00","-3.9","","-5.1","","91","","","","4","","6","","24.1","","101.65","","","","-7","","Mainly Clear"
"-66.43","45.83","GAGETOWN A","8101792","2012-02-15 13:00","2012","02","15","13:00","-0.9","","-6.2","","67","","","","30","","6","","24.1","","101.60","","","","-3","","Mostly Cloudy"
"-66.43","45.83","GAGETOWN A","8101792","2012-02-15 14:00","2012","02","15","14:00","2.4","","-5.3","","57","","","","33","","4","","24.1","","101.55","","","","","","Mainly Clear"
"-66.43","45.83","GAGETOWN A","8101792","2012-02-15 15:00","2012","02","15","15:00","4.1","","-4.6","","53","","","","34","","4","","24.1","","101.53","","","","","","Mainly Clear"
"-66.43","45.83","GAGETOWN A","8101792","2012-02-15 16:00","2012","02","15","16:00","3.7","","-3.9","","58","","","","36","","6","","24.1","","101.55","","","","","","Mostly Cloudy"
"-66.43","45.83","GAGETOWN A","8101792","2012-02-15 17:00","2012","02","15","17:00","3.4","","-3.3","","61","","","","6","","6","","24.1","","101.57","","","","","","Cloudy"
"-66.43","45.83","GAGETOWN A","8101792","2012-02-15 18:00","2012","02","15","18:00","2.7","","-3.1","","66","","","","6","","6","","24.1","","101.59","","","","","","Cloudy"
"-66.43","45.83","GAGETOWN A","8101792","2012-02-15 19:00","2012","02","15","19:00","1.6","","-2.3","","75","","","","9","","6","","24.1","","101.63","","","","","","Cloudy"
"-66.43","45.83","GAGETOWN A","8101792","2012-02-15 20:00","2012","02","15","20:00","1.1","","-1.6","","82","","","","10","","7","","24.1","","101.63","","","","","","Cloudy"
"-66.43","45.83","GAGETOWN A","8101792","2012-02-15 21:00","2012","02","15","21:00","0.7","","-1.7","","84","","","","14","","4","","24.1","","101.64","","","","","","Mainly Clear"
"-66.43","45.83","GAGETOWN A","8101792","2012-02-15 22:00","2012","02","15","22:00","-1.7","","-2.9","","91","","","","","","0","","24.1","","101.65","","","","","","Clear"
"-66.43","45.83","GAGETOWN A","8101792","2012-02-15 23:00","2012","02","15","23:00","-2.5","","-3.5","","93","","","","30","","4","","24.1","","101.66","","","","-4","","Mainly Clear"
"-66.43","45.83","GAGETOWN A","8101792","2012-02-16 00:00","2012","02","16","00:00","-3.6","","-4.5","","93","","","","","","0","","24.1","","101.68","","","","","","Mainly Clear"
"-66.43","45.83","GAGETOWN A","8101792","2012-02-16 01:00","2012","02","16","01:00","-4.5","","-5.8","","91","","","","28","","6","","24.1","","101.69","","","","-7","","Clear"
"-66.43","45.83","GAGETOWN A","8101792","2012-02-16 02:00","2012","02","16","02:00","-5.6","","-6.5","","93","","","","","","0","","24.1","","101.72","","","","","","Clear"
"-66.43","45.83","GAGETOWN A","8101792","2012-02-16 03:00","2012","02","16","03:00","-6.1","","-7.3","","91","","","","","","0","","24.1","","101.74","","","","","","Clear"
"-66.43","45.83","GAGETOWN A","8101792","2012-02-16 04:00","2012","02","16","04:00","-7.1","","-8.3","","91","","","","","","0","","14.5","","101.76","","","","","","Mainly Clear"
"-66.43","45.83","GAGETOWN A","8101792","2012-02-16 05:00","2012","02","16","05:00","-7.6","","-9.0","","90","","","","4","","6","","14.5","","101.80","","","","-11","","Mostly Cloudy"
"-66.43","45.83","GAGETOWN A","8101792","2012-02-16 06:00","2012","02","16","06:00","-5.8","","-6.7","","93","","","","4","","6","","4.8","","101.83","","","","-9","","Fog"
"-66.43","45.83","GAGETOWN A","8101792","2012-02-16 07:00","2012","02","16","07:00","-5.6","","-6.4","","94","","","","1","","6","","0.4","","101.84","","","","-8","","Freezing Fog"
"-66.43","45.83","GAGETOWN A","8101792","2012-02-16 08:00","2012","02","16","08:00","-5.6","","-6.6","","93","","","","","","0","","0.2","","101.85","","","","","","Freezing Fog"
"-66.43","45.83","GAGETOWN A","8101792","2012-02-16 09:00","2012","02","16","09:00","-4.8","","-5.7","","93","","","","6","","4","","0.2","","101.85","","","","-7","","Freezing Fog"
"-66.43","45.83","GAGETOWN A","8101792","2012-02-16 10:00","2012","02","16","10:00","-4.3","","-5.2","","93","","","","","","0","","1.2","","101.88","","","","","","Snow,Fog"
"-66.43","45.83","GAGETOWN A","8101792","2012-02-16 11:00","2012","02","16","11:00","-3.9","","-4.7","","94","","","","33","","4","","1.2","","101.86","","","","-6","","Snow,Fog"
"-66.43","45.83","GAGETOWN A","8101792","2012-02-16 12:00","2012","02","16","12:00","-3.3","","-3.9","","96","","","","32","","4","","11.3","","101.83","","","","-5","","Cloudy"
"-66.43","45.83","GAGETOWN A","8101792","2012-02-16 13:00","2012","02","16","13:00","-2.5","","-3.2","","95","","","","23","","4","","19.3","","101.78","","","","-4","","Cloudy"
"-66.43","45.83","GAGETOWN A","8101792","2012-02-16 14:00","2012","02","16","14:00","-0.8","","-1.5","","95","","","","5","","4","","24.1","","101.67","","","","-2","","Mostly Cloudy"
"-66.43","45.83","GAGETOWN A","8101792","2012-02-16 15:00","2012","02","16","15:00","1.4","","-4.1","","67","","","","9","","9","","24.1","","101.59","","","","","","Mostly Cloudy"
"-66.43","45.83","GAGETOWN A","8101792","2012-02-16 16:00","2012","02","16","16:00","1.2","","-4.1","","68","","","","8","","6","","24.1","","101.54","","","","","","Mostly Cloudy"
"-66.43","45.83","GAGETOWN A","8101792","2012-02-16 17:00","2012","02","16","17:00","1.1","","-3.2","","73","","","","14","","6","","24.1","","101.53","","","","","","Mostly Cloudy"
"-66.43","45.83","GAGETOWN A","8101792","2012-02-16 18:00","2012","02","16","18:00","0.6","","-3.3","","75","","","","8","","4","","24.1","","101.52","","","","","","Cloudy"
"-66.43","45.83","GAGETOWN A","8101792","2012-02-16 19:00","2012","02","16","19:00","0.1","","-3.2","","78","","","","10","","6","","24.1","","101.48","","","","","","Cloudy"
"-66.43","45.83","GAGETOWN A","8101792","2012-02-16 20:00","2012","02","16","20:00","-1.1","","-3.4","","84","","","","12","","4","","24.1","","101.47","","","","-2","","Mainly Clear"
"-66.43","45.83","GAGETOWN A","8101792","2012-02-16 21:00","2012","02","16","21:00","-1.5","","-3.3","","88","","","","","","0","","24.1","","101.49","","","","","","Cloudy"
"-66.43","45.83","GAGETOWN A","8101792","2012-02-16 22:00","2012","02","16","22:00","-1.7","","-3.4","","88","","","","9","","6","","24.1","","101.48","","","","-4","","Cloudy"
"-66.43","45.83","GAGETOWN A","8101792","2012-02-16 23:00","2012","02","16","23:00","-0.9","","-2.9","","86","","","","","","0","","24.1","","101.41","","","","","","Cloudy"
"-66.43","45.83","GAGETOWN A","8101792","2012-02-17 00:00","2012","02","17","00:00","-1.5","","-3.1","","89","","","","7","","4","","24.1","","101.34","","","","-3","","Cloudy"
"-66.43","45.83","GAGETOWN A","8101792","2012-02-17 01:00","2012","02","17","01:00","-2.0","","-3.4","","90","","","","4","","6","","24.1","","101.25","","","","-4","","Cloudy"
"-66.43","45.83","GAGETOWN A","8101792","2012-02-17 02:00","2012","02","17","02:00","-2.3","","-3.6","","91","","","","5","","6","","24.1","","101.21","","","","-5","","Cloudy"
"-66.43","45.83","GAGETOWN A","8101792","2012-02-17 03:00","2012","02","17","03:00","-2.6","","-3.7","","92","","","","7","","4","","24.1","","101.17","","","","-4","","Cloudy"
"-66.43","45.83","GAGETOWN A","8101792","2012-02-17 04:00","2012","02","17","04:00","-2.9","","-3.9","","93","","","","8","","6","","24.1","","101.10","","","","-5","","Cloudy"
"-66.43","45.83","GAGETOWN A","8101792","2012-02-17 05:00","2012","02","17","05:00","-3.0","","-4.1","","92","","","","6","","6","","24.1","","101.08","","","","-5","","Cloudy"
"-66.43","45.83","GAGETOWN A","8101792","2012-02-17 06:00","2012","02","17","06:00","-3.2","","-4.3","","92","","","","7","","6","","24.1","","101.06","","","","-6","","Cloudy"
"-66.43","45.83","GAGETOWN A","8101792","2012-02-17 07:00","2012","02","17","07:00","-3.8","","-4.8","","93","","","","7","","7","","24.1","","101.02","","","","-7","","Cloudy"
"-66.43","45.83","GAGETOWN A","8101792","2012-02-17 08:00","2012","02","17","08:00","-3.8","","-4.8","","93","","","","7","","4","","16.1","","101.03","","","","-5","","Cloudy"
"-66.43","45.83","GAGETOWN A","8101792","2012-02-17 09:00","2012","02","17","09:00","-3.1","","-4.7","","89","","","","5","","6","","16.1","","101.00","","","","-6","","Cloudy"
"-66.43","45.83","GAGETOWN A","8101792","2012-02-17 10:00","2012","02","17","10:00","-2.3","","-4.2","","87","","","","8","","7","","12.9","","100.92","","","","-5","","Snow"
"-66.43","45.83","GAGETOWN A","8101792","2012-02-17 11:00","2012","02","17","11:00","-0.3","","-3.2","","81","","","","11","","9","","12.9","","100.85","","","","-3","","Snow"
"-66.43","45.83","GAGETOWN A","8101792","2012-02-17 12:00","2012","02","17","12:00","-0.5","","-1.8","","91","","","","10","","13","","0.8","","100.76","","","","-5","","Moderate Snow"
"-66.43","45.83","GAGETOWN A","8101792","2012-02-17 13:00","2012","02","17","13:00","-0.2","","-1.9","","88","","","","10","","17","","11.3","","100.62","","","","-5","","Snow"
"-66.43","45.83","GAGETOWN A","8101792","2012-02-17 14:00","2012","02","17","14:00","0.2","","-1.0","","92","","","","10","","11","","3.2","","100.49","","","","","","Snow"
"-66.43","45.83","GAGETOWN A","8101792","2012-02-17 15:00","2012","02","17","15:00","0.4","","-0.7","","92","","","","11","","11","","4.8","","100.40","","","","","","Snow"
"-66.43","45.83","GAGETOWN A","8101792","2012-02-17 16:00","2012","02","17","16:00","0.7","","-0.3","","93","","","","10","","7","","4.8","","100.33","","","","","","Snow"
"-66.43","45.83","GAGETOWN A","8101792","2012-02-17 17:00","2012","02","17","17:00","0.5","","-0.1","","96","","","","10","","4","","2.4","","100.27","","","","","","Snow"
"-66.43","45.83","GAGETOWN A","8101792","2012-02-17 18:00","2012","02","17","18:00","0.1","","-0.2","","98","","","","35","","6","","2.4","","100.26","","","","","","Snow"
"-66.43","45.83","GAGETOWN A","8101792","2012-02-17 19:00","2012","02","17","19:00","-0.1","","-0.3","","99","","","","33","","7","","2.4","","100.28","","","","-3","","Snow,Fog"
"-66.43","45.83","GAGETOWN A","8101792","2012-02-17 20:00","2012","02","17","20:00","-0.1","","-0.3","","99","","","","30","","6","","3.2","","100.27","","","","-2","","Snow,Fog"
"-66.43","45.83","GAGETOWN A","8101792","2012-02-17 21:00","2012","02","17","21:00","-0.1","","-0.4","","98","","","","28","","4","","6.4","","100.28","","","","-1","","Snow,Fog"
"-66.43","45.83","GAGETOWN A","8101792","2012-02-17 22:00","2012","02","17","22:00","-0.2","","-0.6","","97","","","","27","","7","","6.4","","100.31","","","","-3","","Snow,Fog"
"-66.43","45.83","GAGETOWN A","8101792","2012-02-17 23:00","2012","02","17","23:00","-1.0","","-1.4","","97","","","","27","","4","","6.4","","100.25","","","","-2","","Fog"
"-66.43","45.83","GAGETOWN A","8101792","2012-02-18 00:00","2012","02","18","00:00","-1.8","","-2.2","","97","","","","25","","6","","4.8","","100.19","","","","-4","","Fog"
"-66.43","45.83","GAGETOWN A","8101792","2012-02-18 01:00","2012","02","18","01:00","-1.7","","-2.3","","96","","","","23","","7","","0.6","","100.11","","","","-4","","Freezing Fog"
"-66.43","45.83","GAGETOWN A","8101792","2012-02-18 02:00","2012","02","18","02:00","-1.2","","-1.5","","98","","","","","","0","","0.2","","100.04","","","","","","Freezing Fog"
"-66.43","45.83","GAGETOWN A","8101792","2012-02-18 03:00","2012","02","18","03:00","-1.2","","-1.6","","97","","","","21","","9","","0.2","","100.02","","","","-4","","Freezing Fog"
"-66.43","45.83","GAGETOWN A","8101792","2012-02-18 04:00","2012","02","18","04:00","-2.1","","-2.6","","96","","","","23","","6","","0.2","","99.98","","","","-4","","Freezing Fog"
"-66.43","45.83","GAGETOWN A","8101792","2012-02-18 05:00","2012","02","18","05:00","-2.3","","-3.0","","95","","","","26","","7","","4.0","","99.96","","","","-5","","Fog"
"-66.43","45.83","GAGETOWN A","8101792","2012-02-18 06:00","2012","02","18","06:00","-2.8","","-3.6","","94","","","","27","","6","","19.3","","99.95","","","","-5","","Cloudy"
"-66.43","45.83","GAGETOWN A","8101792","2012-02-18 07:00","2012","02","18","07:00","-3.0","","-3.8","","94","","","","25","","6","","19.3","","99.93","","","","-5","","Cloudy"
"-66.43","45.83","GAGETOWN A","8101792","2012-02-18 08:00","2012","02","18","08:00","-2.9","","-3.9","","93","","","","24","","9","","24.1","","99.94","","","","-6","","Mostly Cloudy"
"-66.43","45.83","GAGETOWN A","8101792","2012-02-18 09:00","2012","02","18","09:00","-2.3","","-3.4","","92","","","","25","","6","","24.1","","99.95","","","","-5","","Mostly Cloudy"
"-66.43","45.83","GAGETOWN A","8101792","2012-02-18 10:00","2012","02","18","10:00","-0.9","","-2.6","","88","","","","27","","15","","24.1","","99.93","","","","-6","","Mostly Cloudy"
"-66.43","45.83","GAGETOWN A","8101792","2012-02-18 11:00","2012","02","18","11:00","0.1","","-2.4","","83","","","","29","","22","","24.1","","99.91","","","","","","Mainly Clear"
"-66.43","45.83","GAGETOWN A","8101792","2012-02-18 12:00","2012","02","18","12:00","1.3","","-3.4","","71","","","","30","","28","","24.1","","99.87","","","","","","Mostly Cloudy"
"-66.43","45.83","GAGETOWN A","8101792","2012-02-18 13:00","2012","02","18","13:00","2.0","","-3.3","","68","","","","29","","20","","24.1","","99.79","","","","","","Mostly Cloudy"
"-66.43","45.83","GAGETOWN A","8101792","2012-02-18 14:00","2012","02","18","14:00","2.5","","-3.6","","64","","","","29","","20","","24.1","","99.73","","","","","","Mostly Cloudy"
"-66.43","45.83","GAGETOWN A","8101792","2012-02-18 15:00","2012","02","18","15:00","1.6","","-3.8","","67","","","","29","","26","","24.1","","99.73","","","","","","Mainly Clear"
"-66.43","45.83","GAGETOWN A","8101792","2012-02-18 16:00","2012","02","18","16:00","2.3","","-2.7","","69","","","","27","","15","","24.1","","99.75","","","","","","Mostly Cloudy"
"-66.43","45.83","GAGETOWN A","8101792","2012-02-18 17:00","2012","02","18","17:00","1.7","","-4.4","","64","","","","27","","24","","24.1","","99.79","","","","","","Mostly Cloudy"
"-66.43","45.83","GAGETOWN A","8101792","2012-02-18 18:00","2012","02","18","18:00","1.4","","-5.0","","62","","","","27","","19","","24.1","","99.84","","","","","","Mostly Cloudy"
"-66.43","45.83","GAGETOWN A","8101792","2012-02-18 19:00","2012","02","18","19:00","0.4","","-5.2","","66","","","","26","","13","","24.1","","99.88","","","","","","Mostly Cloudy"
"-66.43","45.83","GAGETOWN A","8101792","2012-02-18 20:00","2012","02","18","20:00","0.5","","-5.3","","65","","","","28","","22","","24.1","","99.92","","","","","","Mostly Cloudy"
"-66.43","45.83","GAGETOWN A","8101792","2012-02-18 21:00","2012","02","18","21:00","0.2","","-5.3","","66","","","","27","","17","","24.1","","99.99","","","","","","Mostly Cloudy"
"-66.43","45.83","GAGETOWN A","8101792","2012-02-18 22:00","2012","02","18","22:00","0.0","","-5.5","","66","","","","29","","17","","24.1","","100.03","","","","-5","","Cloudy"
"-66.43","45.83","GAGETOWN A","8101792","2012-02-18 23:00","2012","02","18","23:00","-0.1","","-6.2","","63","","","","28","","22","","24.1","","100.06","","","","-6","","Cloudy"
"-66.43","45.83","GAGETOWN A","8101792","2012-02-19 00:00","2012","02","19","00:00","-0.8","","-5.7","","69","","","","31","","11","","19.3","","100.09","","","","-5","","Snow Showers"
"-66.43","45.83","GAGETOWN A","8101792","2012-02-19 01:00","2012","02","19","01:00","-1.2","","-6.3","","68","","","","30","","15","","19.3","","100.13","","","","-6","","Snow Showers"
"-66.43","45.83","GAGETOWN A","8101792","2012-02-19 02:00","2012","02","19","02:00","-1.8","","-6.4","","71","","","","30","","15","","19.3","","100.14","","","","-7","","Snow Showers"
"-66.43","45.83","GAGETOWN A","8101792","2012-02-19 03:00","2012","02","19","03:00","-2.2","","-7.6","","66","","","","30","","24","","19.3","","100.20","","","","-9","","Snow Showers"
"-66.43","45.83","GAGETOWN A","8101792","2012-02-19 04:00","2012","02","19","04:00","-3.5","","-9.7","","62","","","","31","","26","","24.1","","100.29","","","","-11","","Mostly Cloudy"
"-66.43","45.83","GAGETOWN A","8101792","2012-02-19 05:00","2012","02","19","05:00","-4.9","","-11.1","","62","","","","29","","22","","24.1","","100.33","","","","-12","","Mainly Clear"
"-66.43","45.83","GAGETOWN A","8101792","2012-02-19 06:00","2012","02","19","06:00","-6.2","","-12.0","","63","","","","27","","20","","24.1","","100.37","","","","-13","","Mainly Clear"
"-66.43","45.83","GAGETOWN A","8101792","2012-02-19 07:00","2012","02","19","07:00","-6.9","","-12.0","","67","","","","28","","22","","24.1","","100.37","","","","-14","","Mainly Clear"
"-66.43","45.83","GAGETOWN A","8101792","2012-02-19 08:00","2012","02","19","08:00","-7.1","","-12.0","","68","","","","28","","24","","24.1","","100.44","","","","-15","","Clear"
"-66.43","45.83","GAGETOWN A","8101792","2012-02-19 09:00","2012","02","19","09:00","-6.4","","-11.8","","65","","","","28","","22","","24.1","","100.49","","","","-14","","Clear"
"-66.43","45.83","GAGETOWN A","8101792","2012-02-19 10:00","2012","02","19","10:00","-5.8","","-12.0","","62","","","","28","","28","","24.1","","100.48","","","","-14","","Clear"
"-66.43","45.83","GAGETOWN A","8101792","2012-02-19 11:00","2012","02","19","11:00","-4.9","","-11.9","","58","","","","28","","28","","24.1","","100.44","","","","-13","","Clear"
"-66.43","45.83","GAGETOWN A","8101792","2012-02-19 12:00","2012","02","19","12:00","-4.0","","-11.6","","55","","","","28","","30","","24.1","","100.42","","","","-12","","Clear"
"-66.43","45.83","GAGETOWN A","8101792","2012-02-19 13:00","2012","02","19","13:00","-3.1","","-11.4","","53","","","","30","","30","","24.1","","100.38","","","","-11","","Clear"
"-66.43","45.83","GAGETOWN A","8101792","2012-02-19 14:00","2012","02","19","14:00","-2.5","","-11.5","","50","","","","31","","26","","24.1","","100.38","","","","-9","","Clear"
"-66.43","45.83","GAGETOWN A","8101792","2012-02-19 15:00","2012","02","19","15:00","-1.7","","-11.1","","49","","","","30","","24","","24.1","","100.37","","","","-8","","Clear"
"-66.43","45.83","GAGETOWN A","8101792","2012-02-19 16:00","2012","02","19","16:00","-1.4","","-11.1","","48","","","","30","","24","","24.1","","100.42","","","","-8","","Clear"
"-66.43","45.83","GAGETOWN A","8101792","2012-02-19 17:00","2012","02","19","17:00","-1.6","","-11.2","","48","","","","29","","17","","24.1","","100.45","","","","-7","","Clear"
"-66.43","45.83","GAGETOWN A","8101792","2012-02-19 18:00","2012","02","19","18:00","-2.4","","-11.6","","49","","","","29","","17","","24.1","","100.49","","","","-8","","Clear"
"-66.43","45.83","GAGETOWN A","8101792","2012-02-19 19:00","2012","02","19","19:00","-3.2","","-11.9","","51","","","","29","","11","","24.1","","100.52","","","","-7","","Clear"
"-66.43","45.83","GAGETOWN A","8101792","2012-02-19 20:00","2012","02","19","20:00","-3.7","","-12.2","","52","","","","29","","13","","24.1","","100.54","","","","-9","","Clear"
"-66.43","45.83","GAGETOWN A","8101792","2012-02-19 21:00","2012","02","19","21:00","-4.8","","-13.0","","53","","","","31","","13","","24.1","","100.58","","","","-10","","Clear"
"-66.43","45.83","GAGETOWN A","8101792","2012-02-19 22:00","2012","02","19","22:00","-5.5","","-13.5","","53","","","","28","","11","","24.1","","100.60","","","","-10","","Clear"
"-66.43","45.83","GAGETOWN A","8101792","2012-02-19 23:00","2012","02","19","23:00","-6.1","","-13.7","","55","","","","27","","9","","24.1","","100.63","","","","-10","","Clear"
"-66.43","45.83","GAGETOWN A","8101792","2012-02-20 00:00","2012","02","20","00:00","-6.2","","-13.4","","57","","","","27","","17","","24.1","","100.63","","","","-12","","Clear"
"-66.43","45.83","GAGETOWN A","8101792","2012-02-20 01:00","2012","02","20","01:00","-6.7","","-13.4","","59","","","","28","","26","","24.1","","100.64","","","","-15","","Clear"
"-66.43","45.83","GAGETOWN A","8101792","2012-02-20 02:00","2012","02","20","02:00","-7.7","","-14.1","","60","","","","29","","17","","24.1","","100.67","","","","-14","","Clear"
"-66.43","45.83","GAGETOWN A","8101792","2012-02-20 03:00","2012","02","20","03:00","-8.8","","-15.0","","61","","","","27","","13","","24.1","","100.68","","","","-15","","Clear"
"-66.43","45.83","GAGETOWN A","8101792","2012-02-20 04:00","2012","02","20","04:00","-9.9","","-15.5","","64","","","","27","","13","","24.1","","100.67","","","","-16","","Clear"
"-66.43","45.83","GAGETOWN A","8101792","2012-02-20 05:00","2012","02","20","05:00","-10.6","","-15.7","","66","","","","27","","15","","24.1","","100.67","","","","-17","","Clear"
"-66.43","45.83","GAGETOWN A","8101792","2012-02-20 06:00","2012","02","20","06:00","-11.5","","-16.0","","69","","","","28","","13","","24.1","","100.72","","","","-18","","Clear"
"-66.43","45.83","GAGETOWN A","8101792","2012-02-20 07:00","2012","02","20","07:00","-12.1","","-16.3","","71","","","","27","","11","","24.1","","100.78","","","","-18","","Clear"
"-66.43","45.83","GAGETOWN A","8101792","2012-02-20 08:00","2012","02","20","08:00","-12.1","","-16.2","","71","","","","27","","11","","24.1","","100.83","","","","-18","","Clear"
"-66.43","45.83","GAGETOWN A","8101792","2012-02-20 09:00","2012","02","20","09:00","-11.3","","-16.0","","68","","","","29","","13","","24.1","","100.83","","","","-18","","Clear"
"-66.43","45.83","GAGETOWN A","8101792","2012-02-20 10:00","2012","02","20","10:00","-10.1","","-15.5","","65","","","","28","","15","","24.1","","100.81","","","","-17","","Clear"
"-66.43","45.83","GAGETOWN A","8101792","2012-02-20 11:00","2012","02","20","11:00","-8.0","","-15.2","","56","","","","28","","15","","24.1","","100.81","","","","-14","","Clear"
"-66.43","45.83","GAGETOWN A","8101792","2012-02-20 12:00","2012","02","20","12:00","-6.2","","-14.8","","51","","","","29","","17","","24.1","","100.82","","","","-12","","Clear"
"-66.43","45.83","GAGETOWN A","8101792","2012-02-20 13:00","2012","02","20","13:00","-5.1","","-14.6","","47","","","","30","","22","","24.1","","100.77","","","","-12","","Clear"
"-66.43","45.83","GAGETOWN A","8101792","2012-02-20 14:00","2012","02","20","14:00","-4.8","","-14.6","","46","","","","29","","22","","24.1","","100.77","","","","-12","","Clear"
"-66.43","45.83","GAGETOWN A","8101792","2012-02-20 15:00","2012","02","20","15:00","-4.7","","-14.5","","46","","","","29","","22","","24.1","","100.80","","","","-12","","Clear"
"-66.43","45.83","GAGETOWN A","8101792","2012-02-20 16:00","2012","02","20","16:00","-4.3","","-14.3","","46","","","","29","","20","","24.1","","100.82","","","","-11","","Clear"
"-66.43","45.83","GAGETOWN A","8101792","2012-02-20 17:00","2012","02","20","17:00","-4.8","","-14.8","","45","","","","30","","24","","24.1","","100.92","","","","-12","","Clear"
"-66.43","45.83","GAGETOWN A","8101792","2012-02-20 18:00","2012","02","20","18:00","-6.0","","-15.5","","47","","","","29","","17","","24.1","","101.01","","","","-12","","Clear"
"-66.43","45.83","GAGETOWN A","8101792","2012-02-20 19:00","2012","02","20","19:00","-7.0","","-16.1","","48","","","","31","","15","","24.1","","101.11","","","","-13","","Clear"
"-66.43","45.83","GAGETOWN A","8101792","2012-02-20 20:00","2012","02","20","20:00","-7.9","","-16.9","","48","","","","30","","19","","24.1","","101.19","","","","-15","","Clear"
"-66.43","45.83","GAGETOWN A","8101792","2012-02-20 21:00","2012","02","20","21:00","-8.8","","-16.8","","52","","","","30","","20","","24.1","","101.27","","","","-16","","Clear"
"-66.43","45.83","GAGETOWN A","8101792","2012-02-20 22:00","2012","02","20","22:00","-9.3","","-16.5","","56","","","","31","","17","","24.1","","101.35","","","","-16","","Clear"
"-66.43","45.83","GAGETOWN A","8101792","2012-02-20 23:00","2012","02","20","23:00","-9.8","","-16.5","","58","","","","31","","11","","24.1","","101.41","","","","-15","","Clear"
"-66.43","45.83","GAGETOWN A","8101792","2012-02-21 00:00","2012","02","21","00:00","-10.3","","-16.7","","59","","","","30","","9","","24.1","","101.41","","","","-15","","Clear"
"-66.43","45.83","GAGETOWN A","8101792","2012-02-21 01:00","2012","02","21","01:00","-10.9","","-16.6","","63","","","","31","","11","","24.1","","101.47","","","","-17","","Clear"
"-66.43","45.83","GAGETOWN A","8101792","2012-02-21 02:00","2012","02","21","02:00","-11.1","","-16.5","","64","","","","29","","6","","24.1","","101.50","","","","-15","","Clear"
"-66.43","45.83","GAGETOWN A","8101792","2012-02-21 03:00","2012","02","21","03:00","-11.2","","-16.7","","64","","","","26","","6","","24.1","","101.54","","","","-15","","Clear"
"-66.43","45.83","GAGETOWN A","8101792","2012-02-21 04:00","2012","02","21","04:00","-12.5","","-16.9","","70","","","","23","","7","","24.1","","101.56","","","","-17","","Clear"
"-66.43","45.83","GAGETOWN A","8101792","2012-02-21 05:00","2012","02","21","05:00","-12.2","","-16.8","","69","","","","25","","11","","24.1","","101.65","","","","-18","","Clear"
"-66.43","45.83","GAGETOWN A","8101792","2012-02-21 06:00","2012","02","21","06:00","-13.0","","-17.0","","72","","","","27","","11","","24.1","","101.72","","","","-19","","Clear"
"-66.43","45.83","GAGETOWN A","8101792","2012-02-21 07:00","2012","02","21","07:00","-14.2","","-17.0","","79","","","","22","","13","","24.1","","101.75","","","","-21","","Clear"
"-66.43","45.83","GAGETOWN A","8101792","2012-02-21 08:00","2012","02","21","08:00","-13.0","","-17.4","","70","","","","22","","11","","24.1","","101.81","","","","-19","","Mainly Clear"
"-66.43","45.83","GAGETOWN A","8101792","2012-02-21 09:00","2012","02","21","09:00","-11.2","","-16.4","","65","","","","22","","11","","24.1","","101.83","","","","-17","","Mainly Clear"
"-66.43","45.83","GAGETOWN A","8101792","2012-02-21 10:00","2012","02","21","10:00","-9.2","","-15.2","","62","","","","24","","9","","24.1","","101.80","","","","-14","","Mostly Cloudy"
"-66.43","45.83","GAGETOWN A","8101792","2012-02-21 11:00","2012","02","21","11:00","-6.5","","-13.9","","56","","","","28","","11","","24.1","","101.77","","","","-11","","Mostly Cloudy"
"-66.43","45.83","GAGETOWN A","8101792","2012-02-21 12:00","2012","02","21","12:00","-3.9","","-13.2","","48","","","","27","","13","","24.1","","101.71","","","","-9","","Cloudy"
"-66.43","45.83","GAGETOWN A","8101792","2012-02-21 13:00","2012","02","21","13:00","-2.3","","-12.6","","45","","","","30","","11","","24.1","","101.60","","","","-6","","Cloudy"
"-66.43","45.83","GAGETOWN A","8101792","2012-02-21 14:00","2012","02","21","14:00","-1.2","","-11.9","","44","","","","27","","15","","24.1","","101.49","","","","-6","","Mostly Cloudy"
"-66.43","45.83","GAGETOWN A","8101792","2012-02-21 15:00","2012","02","21","15:00","-0.6","","-11.5","","43","","","","27","","13","","24.1","","101.39","","","","-5","","Mostly Cloudy"
"-66.43","45.83","GAGETOWN A","8101792","2012-02-21 16:00","2012","02","21","16:00","-0.1","","-11.6","","42","","","","24","","15","","24.1","","101.30","","","","-5","","Mostly Cloudy"
"-66.43","45.83","GAGETOWN A","8101792","2012-02-21 17:00","2012","02","21","17:00","-0.2","","-11.3","","43","","","","","","0","","24.1","","101.24","","","","","","Cloudy"
"-66.43","45.83","GAGETOWN A","8101792","2012-02-21 18:00","2012","02","21","18:00","-2.0","","-11.6","","48","","","","","","0","","24.1","","101.21","","","","","","Cloudy"
"-66.43","45.83","GAGETOWN A","8101792","2012-02-21 19:00","2012","02","21","19:00","-2.6","","-11.8","","49","","","","17","","9","","24.1","","101.19","","","","-6","","Mainly Clear"
"-66.43","45.83","GAGETOWN A","8101792","2012-02-21 20:00","2012","02","21","20:00","-2.6","","-9.8","","58","","","","17","","11","","24.1","","101.08","","","","-7","","Mainly Clear"
"-66.43","45.83","GAGETOWN A","8101792","2012-02-21 21:00","2012","02","21","21:00","-2.9","","-9.1","","62","","","","18","","13","","24.1","","101.01","","","","-8","","Mainly Clear"
"-66.43","45.83","GAGETOWN A","8101792","2012-02-21 22:00","2012","02","21","22:00","-3.1","","-8.8","","65","","","","20","","15","","24.1","","100.98","","","","-8","","Cloudy"
"-66.43","45.83","GAGETOWN A","8101792","2012-02-21 23:00","2012","02","21","23:00","-3.1","","-7.6","","71","","","","19","","13","","24.1","","100.90","","","","-8","","Cloudy"
"-66.43","45.83","GAGETOWN A","8101792","2012-02-22 00:00","2012","02","22","00:00","-3.0","","-6.9","","74","","","","17","","7","","24.1","","100.78","","","","-6","","Cloudy"
"-66.43","45.83","GAGETOWN A","8101792","2012-02-22 01:00","2012","02","22","01:00","-2.2","","-5.9","","76","","","","17","","7","","24.1","","100.69","","","","-5","","Cloudy"
"-66.43","45.83","GAGETOWN A","8101792","2012-02-22 02:00","2012","02","22","02:00","-1.1","","-4.9","","75","","","","17","","9","","24.1","","100.57","","","","-4","","Cloudy"
"-66.43","45.83","GAGETOWN A","8101792","2012-02-22 03:00","2012","02","22","03:00","-0.1","","-3.6","","77","","","","19","","9","","24.1","","100.43","","","","-3","","Mostly Cloudy"
"-66.43","45.83","GAGETOWN A","8101792","2012-02-22 04:00","2012","02","22","04:00","-0.1","","-1.2","","92","","","","20","","9","","2.4","","100.33","","","","-3","","Snow Showers"
"-66.43","45.83","GAGETOWN A","8101792","2012-02-22 05:00","2012","02","22","05:00"
"-66.43","45.83","GAGETOWN A","8101792","2012-02-22 06:00","2012","02","22","06:00"
"-66.43","45.83","GAGETOWN A","8101792","2012-02-22 07:00","2012","02","22","07:00","-1.0","","-1.4","","97","","","","31","","7","","11.3","","100.04","","","","-4","","Snow Showers"
"-66.43","45.83","GAGETOWN A","8101792","2012-02-22 08:00","2012","02","22","08:00","-0.4","","-0.8","","97","","","","","","0","","11.3","","99.98","","","","","","Cloudy"
"-66.43","45.83","GAGETOWN A","8101792","2012-02-22 09:00","2012","02","22","09:00","-0.2","","-0.5","","98","","","","8","","7","","11.3","","99.88","","","","-3","","Cloudy"
"-66.43","45.83","GAGETOWN A","8101792","2012-02-22 10:00","2012","02","22","10:00","0.6","","0.1","","96","","","","","","0","","16.1","","99.80","","","","","","Drizzle"
"-66.43","45.83","GAGETOWN A","8101792","2012-02-22 11:00","2012","02","22","11:00","1.2","","0.6","","96","","","","","","0","","16.1","","99.74","","","","","","Rain Showers"
"-66.43","45.83","GAGETOWN A","8101792","2012-02-22 12:00","2012","02","22","12:00","1.6","","1.0","","96","","","","","","0","","12.9","","99.67","","","","","","Rain Showers"
"-66.43","45.83","GAGETOWN A","8101792","2012-02-22 13:00","2012","02","22","13:00","3.0","","1.7","","91","","","","26","","6","","16.1","","99.56","","","","","","Cloudy"
"-66.43","45.83","GAGETOWN A","8101792","2012-02-22 14:00","2012","02","22","14:00","3.9","","1.9","","87","","","","","","0","","19.3","","99.48","","","","","","Cloudy"
"-66.43","45.83","GAGETOWN A","8101792","2012-02-22 15:00","2012","02","22","15:00","4.9","","2.3","","83","","","","","","0","","24.1","","99.38","","","","","","Cloudy"
"-66.43","45.83","GAGETOWN A","8101792","2012-02-22 16:00","2012","02","22","16:00","4.5","","2.3","","86","","","","21","","7","","19.3","","99.33","","","","","","Rain Showers"
"-66.43","45.83","GAGETOWN A","8101792","2012-02-22 17:00","2012","02","22","17:00","4.6","","2.1","","84","","","","22","","9","","24.1","","99.27","","","","","","Cloudy"
"-66.43","45.83","GAGETOWN A","8101792","2012-02-22 18:00","2012","02","22","18:00","4.0","","2.0","","87","","","","21","","9","","24.1","","99.28","","","","","","Cloudy"
"-66.43","45.83","GAGETOWN A","8101792","2012-02-22 19:00","2012","02","22","19:00","3.5","","2.3","","92","","","","22","","9","","19.3","","99.35","","","","","","Rain Showers"
"-66.43","45.83","GAGETOWN A","8101792","2012-02-22 20:00","2012","02","22","20:00","3.3","","2.4","","94","","","","22","","11","","19.3","","99.41","","","","","","Rain Showers"
"-66.43","45.83","GAGETOWN A","8101792","2012-02-22 21:00","2012","02","22","21:00","2.6","","2.0","","96","","","","20","","9","","9.7","","99.42","","","","","","Fog"
"-66.43","45.83","GAGETOWN A","8101792","2012-02-22 22:00","2012","02","22","22:00","2.2","","1.6","","96","","","","21","","11","","9.7","","99.46","","","","","","Fog"
"-66.43","45.83","GAGETOWN A","8101792","2012-02-22 23:00","2012","02","22","23:00","1.4","","0.9","","96","","","","21","","11","","6.4","","99.52","","","","","","Fog"
"-66.43","45.83","GAGETOWN A","8101792","2012-02-23 00:00","2012","02","23","00:00","1.3","","0.9","","97","","","","19","","11","","9.7","","99.52","","","","","","Fog"
"-66.43","45.83","GAGETOWN A","8101792","2012-02-23 01:00","2012","02","23","01:00","1.1","","0.5","","96","","","","17","","9","","9.7","","99.50","","","","","","Fog"
"-66.43","45.83","GAGETOWN A","8101792","2012-02-23 02:00","2012","02","23","02:00","1.3","","0.6","","95","","","","16","","9","","9.7","","99.44","","","","","","Fog"
"-66.43","45.83","GAGETOWN A","8101792","2012-02-23 03:00","2012","02","23","03:00","0.6","","0.3","","98","","","","20","","6","","12.9","","99.44","","","","","","Mainly Clear"
"-66.43","45.83","GAGETOWN A","8101792","2012-02-23 04:00","2012","02","23","04:00","-0.7","","-1.1","","97","","","","16","","6","","12.9","","99.38","","","","-3","","Mostly Cloudy"
"-66.43","45.83","GAGETOWN A","8101792","2012-02-23 05:00","2012","02","23","05:00","0.0","","-0.6","","96","","","","","","0","","12.9","","99.33","","","","","","Mostly Cloudy"
"-66.43","45.83","GAGETOWN A","8101792","2012-02-23 06:00","2012","02","23","06:00","2.5","","1.8","","95","","","","16","","13","","14.5","","99.28","","","","","","Cloudy"
"-66.43","45.83","GAGETOWN A","8101792","2012-02-23 07:00","2012","02","23","07:00","3.4","","2.5","","94","","","","18","","13","","19.3","","99.25","","","","","","Cloudy"
"-66.43","45.83","GAGETOWN A","8101792","2012-02-23 08:00","2012","02","23","08:00","3.7","","2.4","","91","","","","15","","17","","19.3","","99.19","","","","","","Cloudy"
"-66.43","45.83","GAGETOWN A","8101792","2012-02-23 09:00","2012","02","23","09:00","4.1","","2.5","","89","","","","14","","17","","19.3","","99.17","","","","","","Cloudy"
"-66.43","45.83","GAGETOWN A","8101792","2012-02-23 10:00","2012","02","23","10:00","4.8","","2.9","","87","","","","14","","15","","19.3","","99.12","","","","","","Cloudy"
"-66.43","45.83","GAGETOWN A","8101792","2012-02-23 11:00","2012","02","23","11:00","5.7","","2.9","","82","","","","15","","19","","19.3","","99.07","","","","","","Cloudy"
"-66.43","45.83","GAGETOWN A","8101792","2012-02-23 12:00","2012","02","23","12:00","6.7","","3.4","","79","","","","17","","17","","19.3","","99.03","","","","","","Cloudy"
"-66.43","45.83","GAGETOWN A","8101792","2012-02-23 13:00","2012","02","23","13:00","5.6","","3.6","","87","","","","16","","13","","16.1","","98.89","","","","","","Rain Showers"
"-66.43","45.83","GAGETOWN A","8101792","2012-02-23 14:00","2012","02","23","14:00","5.4","","3.0","","84","","","","15","","13","","19.3","","98.74","","","","","","Rain Showers"
"-66.43","45.83","GAGETOWN A","8101792","2012-02-23 15:00","2012","02","23","15:00","4.7","","2.8","","87","","","","18","","7","","9.7","","98.64","","","","","","Rain Showers,Fog"
"-66.43","45.83","GAGETOWN A","8101792","2012-02-23 16:00","2012","02","23","16:00","3.7","","2.9","","94","","","","12","","7","","4.8","","98.59","","","","","","Rain,Fog"
"-66.43","45.83","GAGETOWN A","8101792","2012-02-23 17:00","2012","02","23","17:00","3.2","","2.3","","94","","","","22","","7","","6.4","","98.60","","","","","","Rain,Fog"
"-66.43","45.83","GAGETOWN A","8101792","2012-02-23 18:00","2012","02","23","18:00","2.6","","2.0","","96","","","","27","","6","","4.8","","98.61","","","","","","Rain,Fog"
"-66.43","45.83","GAGETOWN A","8101792","2012-02-23 19:00","2012","02","23","19:00","1.5","","0.9","","96","","","","29","","13","","9.7","","98.62","","","","","","Rain,Fog"
"-66.43","45.83","GAGETOWN A","8101792","2012-02-23 20:00","2012","02","23","20:00","1.1","","0.4","","95","","","","28","","20","","9.7","","98.70","","","","","","Rain,Snow,Fog"
"-66.43","45.83","GAGETOWN A","8101792","2012-02-23 21:00","2012","02","23","21:00","1.6","","0.4","","92","","","","28","","28","","9.7","","98.78","","","","","","Rain,Snow,Fog"
"-66.43","45.83","GAGETOWN A","8101792","2012-02-23 22:00","2012","02","23","22:00","1.8","","0.2","","89","","","","28","","26","","12.9","","98.84","","","","","","Cloudy"
"-66.43","45.83","GAGETOWN A","8101792","2012-02-23 23:00","2012","02","23","23:00","1.8","","0.0","","88","","","","28","","22","","16.1","","98.96","","","","","","Mainly Clear"
"-66.43","45.83","GAGETOWN A","8101792","2012-02-24 00:00","2012","02","24","00:00","1.8","","-0.1","","87","","","","27","","24","","16.1","","99.07","","","","","","Mainly Clear"
"-66.43","45.83","GAGETOWN A","8101792","2012-02-24 01:00","2012","02","24","01:00","1.5","","-0.9","","84","","","","28","","24","","16.1","","99.25","","","","","","Snow Showers"
"-66.43","45.83","GAGETOWN A","8101792","2012-02-24 02:00","2012","02","24","02:00","1.3","","-2.2","","77","","","","29","","32","","16.1","","99.37","","","","","","Cloudy"
"-66.43","45.83","GAGETOWN A","8101792","2012-02-24 03:00","2012","02","24","03:00"
"-66.43","45.83","GAGETOWN A","8101792","2012-02-24 04:00","2012","02","24","04:00","0.3","","-4.0","","73","","","","28","","22","","16.1","","99.59","","","","","","Mainly Clear"
"-66.43","45.83","GAGETOWN A","8101792","2012-02-24 05:00","2012","02","24","05:00","0.1","","-3.6","","76","","","","28","","15","","16.1","","99.65","","","","","","Mainly Clear"
"-66.43","45.83","GAGETOWN A","8101792","2012-02-24 06:00","2012","02","24","06:00","0.0","","-3.6","","77","","","","25","","17","","16.1","","99.83","","","","-5","","Mainly Clear"
"-66.43","45.83","GAGETOWN A","8101792","2012-02-24 07:00","2012","02","24","07:00","-0.5","","-3.6","","80","","","","28","","13","","24.1","","99.96","","","","-5","","Mainly Clear"
"-66.43","45.83","GAGETOWN A","8101792","2012-02-24 08:00","2012","02","24","08:00","-0.7","","-3.8","","79","","","","30","","9","","24.1","","99.98","","","","-4","","Mainly Clear"
"-66.43","45.83","GAGETOWN A","8101792","2012-02-24 09:00","2012","02","24","09:00","0.7","","-3.3","","75","","","","28","","9","","24.1","","100.03","","","","","","Mainly Clear"
"-66.43","45.83","GAGETOWN A","8101792","2012-02-24 10:00","2012","02","24","10:00","1.7","","-3.4","","69","","","","29","","17","","24.1","","100.08","","","","","","Mainly Clear"
"-66.43","45.83","GAGETOWN A","8101792","2012-02-24 11:00","2012","02","24","11:00","2.5","","-3.3","","66","","","","31","","17","","24.1","","100.11","","","","","","Mostly Cloudy"
"-66.43","45.83","GAGETOWN A","8101792","2012-02-24 12:00","2012","02","24","12:00","3.4","","-3.2","","62","","","","30","","13","","24.1","","100.14","","","","","","Cloudy"
"-66.43","45.83","GAGETOWN A","8101792","2012-02-24 13:00","2012","02","24","13:00","4.2","","-3.8","","56","","","","29","","11","","24.1","","100.08","","","","","","Mostly Cloudy"
"-66.43","45.83","GAGETOWN A","8101792","2012-02-24 14:00","2012","02","24","14:00","5.0","","-4.2","","51","","","","28","","7","","24.1","","100.05","","","","","","Mostly Cloudy"
"-66.43","45.83","GAGETOWN A","8101792","2012-02-24 15:00","2012","02","24","15:00","5.0","","-4.0","","52","","","","23","","9","","24.1","","100.09","","","","","","Mostly Cloudy"
"-66.43","45.83","GAGETOWN A","8101792","2012-02-24 16:00","2012","02","24","16:00","5.7","","-4.5","","48","","","","34","","6","","24.1","","99.97","","","","","","Cloudy"
"-66.43","45.83","GAGETOWN A","8101792","2012-02-24 17:00","2012","02","24","17:00","5.0","","-4.1","","52","","","","10","","4","","24.1","","99.97","","","","","","Mostly Cloudy"
"-66.43","45.83","GAGETOWN A","8101792","2012-02-24 18:00","2012","02","24","18:00","3.7","","-3.9","","58","","","","10","","6","","24.1","","99.94","","","","","","Cloudy"
"-66.43","45.83","GAGETOWN A","8101792","2012-02-24 19:00","2012","02","24","19:00","2.4","","-3.9","","63","","","","9","","6","","24.1","","99.90","","","","","","Mostly Cloudy"
"-66.43","45.83","GAGETOWN A","8101792","2012-02-24 20:00","2012","02","24","20:00","1.0","","-3.7","","71","","","","14","","9","","24.1","","99.85","","","","","","Mostly Cloudy"
"-66.43","45.83","GAGETOWN A","8101792","2012-02-24 21:00","2012","02","24","21:00","1.9","","-2.8","","71","","","","13","","11","","24.1","","99.71","","","","","","Mostly Cloudy"
"-66.43","45.83","GAGETOWN A","8101792","2012-02-24 22:00","2012","02","24","22:00","1.7","","-3.2","","70","","","","13","","9","","24.1","","99.69","","","","","","Cloudy"
"-66.43","45.83","GAGETOWN A","8101792","2012-02-24 23:00","2012","02","24","23:00","1.4","","-3.0","","72","","","","11","","7","","24.1","","99.60","","","","","","Cloudy"
"-66.43","45.83","GAGETOWN A","8101792","2012-02-25 00:00","2012","02","25","00:00","1.2","","-3.1","","73","","","","8","","11","","16.1","","99.33","","","","","","Snow"
"-66.43","45.83","GAGETOWN A","8101792","2012-02-25 01:00","2012","02","25","01:00","0.3","","-0.7","","93","","","","9","","20","","1.0","","99.00","","","","","","Snow"
"-66.43","45.83","GAGETOWN A","8101792","2012-02-25 02:00","2012","02","25","02:00","-0.1","","-0.6","","96","","","","7","","13","","0.6","","98.71","","","","-4","","Moderate Snow"
"-66.43","45.83","GAGETOWN A","8101792","2012-02-25 03:00","2012","02","25","03:00","-0.4","","-0.9","","96","","","","6","","24","","0.6","","98.18","","","","-6","","Moderate Snow"
"-66.43","45.83","GAGETOWN A","8101792","2012-02-25 04:00","2012","02","25","04:00","-0.8","","-1.4","","96","","","","7","","19","","6.4","","97.82","","","","-6","","Snow,Ice Pellets"
"-66.43","45.83","GAGETOWN A","8101792","2012-02-25 05:00","2012","02","25","05:00","-0.8","","-1.3","","96","","","","5","","17","","0.6","","97.46","","","","-6","","Moderate Snow"
"-66.43","45.83","GAGETOWN A","8101792","2012-02-25 06:00","2012","02","25","06:00","-0.8","","-1.3","","96","","","","4","","17","","0.6","","96.97","","","","-6","","Moderate Snow"
"-66.43","45.83","GAGETOWN A","8101792","2012-02-25 07:00","2012","02","25","07:00","-0.9","","-1.5","","96","","","","2","","19","","0.6","","96.68","","","","-6","","Moderate Snow"
"-66.43","45.83","GAGETOWN A","8101792","2012-02-25 08:00","2012","02","25","08:00","-1.2","","-1.8","","96","","","","30","","26","","0.6","","96.73","","","","-8","","Moderate Snow"
"-66.43","45.83","GAGETOWN A","8101792","2012-02-25 09:00","2012","02","25","09:00","-1.1","","-2.4","","91","","","","26","","24","","24.1","","96.96","","","","-7","","Mostly Cloudy"
"-66.43","45.83","GAGETOWN A","8101792","2012-02-25 10:00","2012","02","25","10:00","-0.3","","-2.3","","86","","","","24","","26","","24.1","","97.13","","","","-6","","Cloudy"
"-66.43","45.83","GAGETOWN A","8101792","2012-02-25 11:00","2012","02","25","11:00","-0.2","","-2.2","","86","","","","24","","26","","12.9","","97.21","","","","-6","","Snow"
"-66.43","45.83","GAGETOWN A","8101792","2012-02-25 12:00","2012","02","25","12:00"
"-66.43","45.83","GAGETOWN A","8101792","2012-02-25 13:00","2012","02","25","13:00","1.2","","-2.7","","75","","","","25","","30","","24.1","","97.27","","","","","","Mostly Cloudy"
"-66.43","45.83","GAGETOWN A","8101792","2012-02-25 14:00","2012","02","25","14:00","1.6","","-2.7","","73","","","","25","","26","","24.1","","97.32","","","","","","Mostly Cloudy"
"-66.43","45.83","GAGETOWN A","8101792","2012-02-25 15:00","2012","02","25","15:00","1.7","","-1.3","","80","","","","26","","28","","24.1","","97.40","","","","","","Mainly Clear"
"-66.43","45.83","GAGETOWN A","8101792","2012-02-25 16:00","2012","02","25","16:00","2.4","","-2.2","","72","","","","25","","24","","24.1","","97.45","","","","","","Mostly Cloudy"
"-66.43","45.83","GAGETOWN A","8101792","2012-02-25 17:00","2012","02","25","17:00","2.4","","-2.4","","71","","","","25","","22","","24.1","","97.53","","","","","","Mostly Cloudy"
"-66.43","45.83","GAGETOWN A","8101792","2012-02-25 18:00","2012","02","25","18:00","1.4","","-2.8","","74","","","","25","","22","","24.1","","97.64","","","","","","Mostly Cloudy"
"-66.43","45.83","GAGETOWN A","8101792","2012-02-25 19:00","2012","02","25","19:00","-0.2","","-1.0","","94","","","","26","","32","","1.0","","97.77","","","","-7","","Snow"
"-66.43","45.83","GAGETOWN A","8101792","2012-02-25 20:00","2012","02","25","20:00","-0.2","","-3.9","","76","","","","28","","28","","24.1","","97.94","","","","-7","","Cloudy"
"-66.43","45.83","GAGETOWN A","8101792","2012-02-25 21:00","2012","02","25","21:00","-0.4","","-4.3","","75","","","","28","","24","","24.1","","98.12","","","","-6","","Cloudy"
"-66.43","45.83","GAGETOWN A","8101792","2012-02-25 22:00","2012","02","25","22:00","-0.6","","-4.5","","75","","","","27","","20","","24.1","","98.26","","","","-6","","Cloudy"
"-66.43","45.83","GAGETOWN A","8101792","2012-02-25 23:00","2012","02","25","23:00","-0.6","","-4.3","","76","","","","25","","20","","24.1","","98.36","","","","-6","","Cloudy"
"-66.43","45.83","GAGETOWN A","8101792","2012-02-26 00:00","2012","02","26","00:00","-0.1","","-4.0","","75","","","","26","","20","","24.1","","98.45","","","","-5","","Cloudy"
"-66.43","45.83","GAGETOWN A","8101792","2012-02-26 01:00","2012","02","26","01:00","0.3","","-3.8","","74","","","","27","","20","","24.1","","98.55","","","","","","Snow Showers"
"-66.43","45.83","GAGETOWN A","8101792","2012-02-26 02:00","2012","02","26","02:00","0.7","","-4.6","","68","","","","28","","30","","24.1","","98.67","","","","","","Mostly Cloudy"
"-66.43","45.83","GAGETOWN A","8101792","2012-02-26 03:00","2012","02","26","03:00","0.6","","-5.4","","64","","","","29","","35","","24.1","","98.84","","","","","","Mostly Cloudy"
"-66.43","45.83","GAGETOWN A","8101792","2012-02-26 04:00","2012","02","26","04:00","0.3","","-4.5","","70","","","","28","","22","","24.1","","99.00","","","","","","Snow Showers"
"-66.43","45.83","GAGETOWN A","8101792","2012-02-26 05:00","2012","02","26","05:00","-0.4","","-5.4","","69","","","","27","","33","","24.1","","99.22","","","","-7","","Snow Showers"
"-66.43","45.83","GAGETOWN A","8101792","2012-02-26 06:00","2012","02","26","06:00","-1.7","","-7.5","","65","","","","28","","33","","24.1","","99.44","","","","-9","","Cloudy"
"-66.43","45.83","GAGETOWN A","8101792","2012-02-26 07:00","2012","02","26","07:00","-2.8","","-8.9","","63","","","","28","","41","","24.1","","99.68","","","","-11","","Cloudy"
"-66.43","45.83","GAGETOWN A","8101792","2012-02-26 08:00","2012","02","26","08:00","-3.2","","-9.1","","64","","","","29","","30","","24.1","","99.86","","","","-11","","Mostly Cloudy"
"-66.43","45.83","GAGETOWN A","8101792","2012-02-26 09:00","2012","02","26","09:00","-3.8","","-9.7","","64","","","","29","","26","","24.1","","100.08","","","","-11","","Snow Showers"
"-66.43","45.83","GAGETOWN A","8101792","2012-02-26 10:00","2012","02","26","10:00","-4.2","","-10.0","","64","","","","29","","32","","24.1","","100.23","","","","-12","","Snow Showers"
"-66.43","45.83","GAGETOWN A","8101792","2012-02-26 11:00","2012","02","26","11:00","-4.6","","-11.5","","58","","","","29","","44","","24.1","","100.37","","","","-14","","Snow Showers"
"-66.43","45.83","GAGETOWN A","8101792","2012-02-26 12:00","2012","02","26","12:00","-4.5","","-11.4","","59","","","","29","","37","","24.1","","100.53","","","","-13","","Snow Showers"
"-66.43","45.83","GAGETOWN A","8101792","2012-02-26 13:00","2012","02","26","13:00","-3.9","","-11.2","","57","","","","30","","41","","24.1","","100.60","","","","-13","","Snow Showers"
"-66.43","45.83","GAGETOWN A","8101792","2012-02-26 14:00","2012","02","26","14:00","-2.8","","-11.1","","53","","","","31","","32","","24.1","","100.67","","","","-10","","Mostly Cloudy"
"-66.43","45.83","GAGETOWN A","8101792","2012-02-26 15:00","2012","02","26","15:00","-2.5","","-11.0","","52","","","","30","","33","","24.1","","100.75","","","","-10","","Mainly Clear"
"-66.43","45.83","GAGETOWN A","8101792","2012-02-26 16:00","2012","02","26","16:00","-2.8","","-11.7","","50","","","","29","","33","","24.1","","100.91","","","","-10","","Mainly Clear"
"-66.43","45.83","GAGETOWN A","8101792","2012-02-26 17:00","2012","02","26","17:00","-3.0","","-12.2","","49","","","","29","","32","","24.1","","101.06","","","","-11","","Mainly Clear"
"-66.43","45.83","GAGETOWN A","8101792","2012-02-26 18:00","2012","02","26","18:00","-3.6","","-12.7","","49","","","","29","","28","","24.1","","101.24","","","","-11","","Clear"
"-66.43","45.83","GAGETOWN A","8101792","2012-02-26 19:00","2012","02","26","19:00","-4.1","","-12.5","","52","","","","29","","20","","24.1","","101.41","","","","-10","","Clear"
"-66.43","45.83","GAGETOWN A","8101792","2012-02-26 20:00","2012","02","26","20:00","-5.1","","-13.2","","53","","","","30","","19","","24.1","","101.52","","","","-12","","Clear"
"-66.43","45.83","GAGETOWN A","8101792","2012-02-26 21:00","2012","02","26","21:00","-5.8","","-13.4","","55","","","","28","","22","","24.1","","101.65","","","","-13","","Clear"
"-66.43","45.83","GAGETOWN A","8101792","2012-02-26 22:00","2012","02","26","22:00","-6.6","","-13.0","","60","","","","27","","20","","24.1","","101.80","","","","-14","","Mainly Clear"
"-66.43","45.83","GAGETOWN A","8101792","2012-02-26 23:00","2012","02","26","23:00","-7.6","","-13.4","","63","","","","28","","20","","24.1","","101.89","","","","-15","","Clear"
"-66.43","45.83","GAGETOWN A","8101792","2012-02-27 00:00","2012","02","27","00:00","-8.4","","-13.8","","65","","","","28","","19","","24.1","","101.90","","","","-16","","Clear"
"-66.43","45.83","GAGETOWN A","8101792","2012-02-27 01:00","2012","02","27","01:00","-9.2","","-16.0","","58","","","","29","","28","","24.1","","102.00","","","","-18","","Clear"
"-66.43","45.83","GAGETOWN A","8101792","2012-02-27 02:00","2012","02","27","02:00","-10.5","","-17.6","","56","","","","28","","20","","24.1","","102.06","","","","-18","","Clear"
"-66.43","45.83","GAGETOWN A","8101792","2012-02-27 03:00","2012","02","27","03:00","-11.3","","-18.1","","57","","","","29","","19","","24.1","","102.07","","","","-19","","Mainly Clear"
"-66.43","45.83","GAGETOWN A","8101792","2012-02-27 04:00","2012","02","27","04:00","-12.1","","-18.5","","59","","","","28","","19","","24.1","","102.20","","","","-20","","Clear"
"-66.43","45.83","GAGETOWN A","8101792","2012-02-27 05:00","2012","02","27","05:00","-12.5","","-18.9","","59","","","","28","","20","","24.1","","102.24","","","","-21","","Clear"
"-66.43","45.83","GAGETOWN A","8101792","2012-02-27 06:00","2012","02","27","06:00","-13.2","","-19.0","","62","","","","28","","19","","24.1","","102.30","","","","-22","","Clear"
"-66.43","45.83","GAGETOWN A","8101792","2012-02-27 07:00","2012","02","27","07:00","-13.8","","-19.1","","64","","","","27","","13","","24.1","","102.34","","","","-21","","Mostly Cloudy"
"-66.43","45.83","GAGETOWN A","8101792","2012-02-27 08:00","2012","02","27","08:00","-13.4","","-19.1","","62","","","","28","","17","","24.1","","102.42","","","","-21","","Cloudy"
"-66.43","45.83","GAGETOWN A","8101792","2012-02-27 09:00","2012","02","27","09:00","-12.8","","-19.2","","59","","","","30","","9","","24.1","","102.41","","","","-18","","Cloudy"
"-66.43","45.83","GAGETOWN A","8101792","2012-02-27 10:00","2012","02","27","10:00","-12.5","","-19.7","","55","","","","29","","9","","24.1","","102.45","","","","-18","","Cloudy"
"-66.43","45.83","GAGETOWN A","8101792","2012-02-27 11:00","2012","02","27","11:00","-11.8","","-21.7","","44","","","","29","","6","","24.1","","102.38","","","","-16","","Cloudy"
"-66.43","45.83","GAGETOWN A","8101792","2012-02-27 12:00","2012","02","27","12:00","-10.1","","-21.1","","40","","","","29","","7","","24.1","","102.35","","","","-14","","Cloudy"
"-66.43","45.83","GAGETOWN A","8101792","2012-02-27 13:00","2012","02","27","13:00","-9.4","","-20.9","","39","","","","29","","6","","24.1","","102.21","","","","-13","","Cloudy"
"-66.43","45.83","GAGETOWN A","8101792","2012-02-27 14:00","2012","02","27","14:00","-8.9","","-19.9","","41","","","","30","","11","","24.1","","102.16","","","","-14","","Cloudy"
"-66.43","45.83","GAGETOWN A","8101792","2012-02-27 15:00","2012","02","27","15:00","-8.3","","-18.9","","42","","","","23","","13","","24.1","","102.09","","","","-14","","Cloudy"
"-66.43","45.83","GAGETOWN A","8101792","2012-02-27 16:00","2012","02","27","16:00","-8.0","","-19.4","","39","","","","24","","6","","24.1","","102.01","","","","-11","","Cloudy"
"-66.43","45.83","GAGETOWN A","8101792","2012-02-27 17:00","2012","02","27","17:00","-7.7","","-18.9","","40","","","","14","","6","","24.1","","101.90","","","","-11","","Cloudy"
"-66.43","45.83","GAGETOWN A","8101792","2012-02-27 18:00","2012","02","27","18:00","-7.8","","-18.2","","43","","","","16","","4","","24.1","","101.91","","","","-10","","Snow"
"-66.43","45.83","GAGETOWN A","8101792","2012-02-27 19:00","2012","02","27","19:00","-9.3","","-12.7","","76","","","","14","","7","","0.8","","101.94","","","","-13","","Moderate Snow"
"-66.43","45.83","GAGETOWN A","8101792","2012-02-27 20:00","2012","02","27","20:00","-9.5","","-11.2","","87","","","","8","","6","","0.8","","101.79","","","","-13","","Moderate Snow"
"-66.43","45.83","GAGETOWN A","8101792","2012-02-27 21:00","2012","02","27","21:00","-9.4","","-10.8","","90","","","","6","","7","","4.8","","101.68","","","","-13","","Snow"
"-66.43","45.83","GAGETOWN A","8101792","2012-02-27 22:00","2012","02","27","22:00","-9.2","","-10.6","","90","","","","7","","7","","1.6","","101.57","","","","-13","","Snow"
"-66.43","45.83","GAGETOWN A","8101792","2012-02-27 23:00","2012","02","27","23:00","-9.2","","-10.6","","90","","","","5","","9","","0.8","","101.44","","","","-14","","Moderate Snow"
"-66.43","45.83","GAGETOWN A","8101792","2012-02-28 00:00","2012","02","28","00:00","-9.2","","-10.6","","90","","","","4","","11","","0.8","","101.31","","","","-15","","Moderate Snow"
"-66.43","45.83","GAGETOWN A","8101792","2012-02-28 01:00","2012","02","28","01:00","-9.0","","-10.4","","90","","","","4","","13","","0.8","","101.18","","","","-15","","Moderate Snow"
"-66.43","45.83","GAGETOWN A","8101792","2012-02-28 02:00","2012","02","28","02:00","-8.8","","-10.2","","90","","","","4","","11","","0.8","","101.07","","","","-14","","Moderate Snow"
"-66.43","45.83","GAGETOWN A","8101792","2012-02-28 03:00","2012","02","28","03:00","-8.8","","-10.3","","89","","","","3","","17","","0.8","","100.99","","","","-16","","Moderate Snow"
"-66.43","45.83","GAGETOWN A","8101792","2012-02-28 04:00","2012","02","28","04:00","-9.1","","-10.5","","90","","","","3","","15","","0.8","","100.94","","","","-16","","Moderate Snow"
"-66.43","45.83","GAGETOWN A","8101792","2012-02-28 05:00","2012","02","28","05:00","-8.8","","-10.3","","89","","","","2","","13","","2.0","","100.93","","","","-15","","Snow"
"-66.43","45.83","GAGETOWN A","8101792","2012-02-28 06:00","2012","02","28","06:00","-8.5","","-10.1","","88","","","","1","","9","","4.8","","100.95","","","","-13","","Snow"
"-66.43","45.83","GAGETOWN A","8101792","2012-02-28 07:00","2012","02","28","07:00","-8.8","","-10.5","","87","","","","1","","11","","4.8","","100.98","","","","-14","","Snow"
"-66.43","45.83","GAGETOWN A","8101792","2012-02-28 08:00","2012","02","28","08:00","-8.5","","-10.6","","85","","","","35","","11","","4.0","","101.09","","","","-14","","Snow"
"-66.43","45.83","GAGETOWN A","8101792","2012-02-28 09:00","2012","02","28","09:00","-7.8","","-10.1","","84","","","","1","","13","","3.2","","101.14","","","","-14","","Snow"
"-66.43","45.83","GAGETOWN A","8101792","2012-02-28 10:00","2012","02","28","10:00","-6.7","","-9.8","","79","","","","1","","24","","9.7","","101.23","","","","-14","","Snow"
"-66.43","45.83","GAGETOWN A","8101792","2012-02-28 11:00","2012","02","28","11:00","-5.4","","-9.3","","74","","","","35","","17","","14.5","","101.31","","","","-11","","Snow"
"-66.43","45.83","GAGETOWN A","8101792","2012-02-28 12:00","2012","02","28","12:00","-5.1","","-9.6","","71","","","","35","","17","","14.5","","101.41","","","","-11","","Snow"
"-66.43","45.83","GAGETOWN A","8101792","2012-02-28 13:00","2012","02","28","13:00","-4.9","","-9.1","","72","","","","34","","20","","4.8","","101.49","","","","-11","","Snow"
"-66.43","45.83","GAGETOWN A","8101792","2012-02-28 14:00","2012","02","28","14:00","-4.8","","-9.8","","68","","","","34","","20","","9.7","","101.58","","","","-11","","Snow"
"-66.43","45.83","GAGETOWN A","8101792","2012-02-28 15:00","2012","02","28","15:00","-3.9","","-10.1","","62","","","","36","","20","","14.5","","101.62","","","","-10","","Snow"
"-66.43","45.83","GAGETOWN A","8101792","2012-02-28 16:00","2012","02","28","16:00","-4.4","","-10.2","","64","","","","35","","17","","14.5","","101.66","","","","-10","","Snow"
"-66.43","45.83","GAGETOWN A","8101792","2012-02-28 17:00","2012","02","28","17:00","-4.5","","-9.8","","66","","","","36","","17","","14.5","","101.72","","","","-10","","Snow"
"-66.43","45.83","GAGETOWN A","8101792","2012-02-28 18:00","2012","02","28","18:00","-5.1","","-9.7","","70","","","","34","","7","","14.5","","101.83","","","","-8","","Snow"
"-66.43","45.83","GAGETOWN A","8101792","2012-02-28 19:00","2012","02","28","19:00","-5.4","","-9.9","","71","","","","34","","7","","24.1","","101.92","","","","-9","","Cloudy"
"-66.43","45.83","GAGETOWN A","8101792","2012-02-28 20:00","2012","02","28","20:00","-6.2","","-8.0","","87","","","","34","","7","","4.0","","102.00","","","","-10","","Snow"
"-66.43","45.83","GAGETOWN A","8101792","2012-02-28 21:00","2012","02","28","21:00","-6.8","","-8.3","","89","","","","27","","4","","14.5","","102.05","","","","-9","","Cloudy"
"-66.43","45.83","GAGETOWN A","8101792","2012-02-28 22:00","2012","02","28","22:00","-7.7","","-10.9","","78","","","","29","","6","","24.1","","102.09","","","","-11","","Cloudy"
"-66.43","45.83","GAGETOWN A","8101792","2012-02-28 23:00","2012","02","28","23:00","-9.2","","-11.4","","84","","","","28","","7","","24.1","","102.10","","","","-13","","Mostly Cloudy"
"-66.43","45.83","GAGETOWN A","8101792","2012-02-29 00:00","2012","02","29","00:00","-9.6","","-11.4","","87","","","","26","","7","","24.1","","102.07","","","","-14","","Mainly Clear"
"-66.43","45.83","GAGETOWN A","8101792","2012-02-29 01:00","2012","02","29","01:00","-12.9","","-14.0","","91","","","","26","","4","","24.1","","102.05","","","","-16","","Clear"
"-66.43","45.83","GAGETOWN A","8101792","2012-02-29 02:00","2012","02","29","02:00","-12.2","","-13.5","","90","","","","23","","11","","24.1","","102.09","","","","-18","","Clear"
"-66.43","45.83","GAGETOWN A","8101792","2012-02-29 03:00","2012","02","29","03:00","-12.5","","-13.9","","89","","","","23","","11","","24.1","","102.09","","","","-19","","Mainly Clear"
"-66.43","45.83","GAGETOWN A","8101792","2012-02-29 04:00","2012","02","29","04:00","-13.7","","-15.1","","89","","","","21","","6","","24.1","","102.04","","","","-18","","Mainly Clear"
"-66.43","45.83","GAGETOWN A","8101792","2012-02-29 05:00","2012","02","29","05:00","-15.3","","-16.4","","91","","","","22","","7","","24.1","","102.03","","","","-20","","Mainly Clear"
"-66.43","45.83","GAGETOWN A","8101792","2012-02-29 06:00","2012","02","29","06:00","-13.0","","-14.3","","90","","","","23","","11","","24.1","","102.06","","","","-19","","Mainly Clear"
"-66.43","45.83","GAGETOWN A","8101792","2012-02-29 07:00","2012","02","29","07:00","-12.8","","-14.4","","88","","","","22","","9","","24.1","","102.04","","","","-18","","Mostly Cloudy"
"-66.43","45.83","GAGETOWN A","8101792","2012-02-29 08:00","2012","02","29","08:00","-12.5","","-14.1","","88","","","","23","","11","","24.1","","102.04","","","","-19","","Mostly Cloudy"
"-66.43","45.83","GAGETOWN A","8101792","2012-02-29 09:00","2012","02","29","09:00","-11.7","","-13.7","","85","","","","23","","11","","24.1","","102.04","","","","-18","","Mainly Clear"
"-66.43","45.83","GAGETOWN A","8101792","2012-02-29 10:00","2012","02","29","10:00","-9.6","","-13.0","","76","","","","28","","9","","24.1","","102.02","","","","-14","","Mainly Clear"
"-66.43","45.83","GAGETOWN A","8101792","2012-02-29 11:00","2012","02","29","11:00","-7.2","","-11.9","","69","","","","29","","7","","24.1","","101.97","","","","-11","","Mainly Clear"
"-66.43","45.83","GAGETOWN A","8101792","2012-02-29 12:00","2012","02","29","12:00","-5.3","","-11.4","","62","","","","29","","11","","24.1","","101.90","","","","-10","","Mainly Clear"
"-66.43","45.83","GAGETOWN A","8101792","2012-02-29 13:00","2012","02","29","13:00","-5.3","","-11.2","","63","","","","31","","17","","24.1","","101.87","","","","-11","","Mostly Cloudy"
"-66.43","45.83","GAGETOWN A","8101792","2012-02-29 14:00","2012","02","29","14:00","-4.1","","-11.7","","55","","","","29","","17","","24.1","","101.84","","","","-10","","Mainly Clear"
"-66.43","45.83","GAGETOWN A","8101792","2012-02-29 15:00","2012","02","29","15:00","-4.5","","-12.2","","55","","","","31","","17","","24.1","","101.75","","","","-10","","Mainly Clear"
"-66.43","45.83","GAGETOWN A","8101792","2012-02-29 16:00","2012","02","29","16:00","-3.9","","-12.8","","50","","","","28","","13","","24.1","","101.73","","","","-9","","Mainly Clear"
"-66.43","45.83","GAGETOWN A","8101792","2012-02-29 17:00","2012","02","29","17:00","-3.9","","-12.5","","51","","","","27","","13","","24.1","","101.73","","","","-9","","Mainly Clear"
"-66.43","45.83","GAGETOWN A","8101792","2012-02-29 18:00","2012","02","29","18:00","-4.7","","-12.8","","53","","","","27","","13","","24.1","","101.79","","","","-10","","Mostly Cloudy"
"-66.43","45.83","GAGETOWN A","8101792","2012-02-29 19:00","2012","02","29","19:00","-6.6","","-13.5","","58","","","","28","","7","","24.1","","101.89","","","","-10","","Mainly Clear"
"-66.43","45.83","GAGETOWN A","8101792","2012-02-29 20:00","2012","02","29","20:00","-8.1","","-13.2","","67","","","","30","","7","","24.1","","101.93","","","","-12","","Mainly Clear"
"-66.43","45.83","GAGETOWN A","8101792","2012-02-29 21:00","2012","02","29","21:00","-10.5","","-14.0","","75","","","","2","","7","","24.1","","101.91","","","","-15","","Mostly Cloudy"
"-66.43","45.83","GAGETOWN A","8101792","2012-02-29 22:00","2012","02","29","22:00","-10.1","","-14.8","","68","","","","5","","6","","24.1","","101.86","","","","-14","","Mostly Cloudy"
"-66.43","45.83","GAGETOWN A","8101792","2012-02-29 23:00","2012","02","29","23:00","-11.2","","-15.3","","72","","","","4","","7","","24.1","","101.90","","","","-15","","Mainly Clear"
