"Longitude (x)","Latitude (y)","Station Name","Climate ID","Date/Time (LST)","Year","Month","Day","Time (LST)","Temp (°C)","Temp Flag","Dew Point Temp (°C)","Dew Point Temp Flag","Rel Hum (%)","Rel Hum Flag","Precip. Amount (mm)","Precip. Amount Flag","Wind Dir (10s deg)","Wind Dir Flag","Wind Spd (km/h)","Wind Spd Flag","Visibility (km)","Visibility Flag","Stn Press (kPa)","Stn Press Flag","Hmdx","Hmdx Flag","Wind Chill","Wind Chill Flag","Weather"
"-117.16","58.62","HIGH LEVEL A","3073141","2019-04-01 00:00","2019","04","01","00:00"
"-117.16","58.62","HIGH LEVEL A","3073141","2019-04-01 01:00","2019","04","01","01:00"
"-117.16","58.62","HIGH LEVEL A","3073141","2019-04-01 02:00","2019","04","01","02:00"
"-117.16","58.62","HIGH LEVEL A","3073141","2019-04-01 03:00","2019","04","01","03:00"
"-117.16","58.62","HIGH LEVEL A","3073141","2019-04-01 04:00","2019","04","01","04:00"
"-117.16","58.62","HIGH LEVEL A","3073141","2019-04-01 05:00","2019","04","01","05:00"
"-117.16","58.62","HIGH LEVEL A","3073141","2019-04-01 06:00","2019","04","01","06:00","1.2","","-2.3","","77","","","","33","","8","","24.1","","98.14","","","","","","NA"
"-117.16","58.62","HIGH LEVEL A","3073141","2019-04-01 07:00","2019","04","01","07:00","2.2","","-2.3","","72","","","","34","","16","","24.1","","98.15","","","","","","NA"
"-117.16","58.62","HIGH LEVEL A","3073141","2019-04-01 08:00","2019","04","01","08:00","1.9","","-2.6","","72","","","","32","","18","","24.1","","98.14","","","","","","Cloudy"
"-117.16","58.62","HIGH LEVEL A","3073141","2019-04-01 09:00","2019","04","01","09:00","2.0","","-2.8","","71","","","","34","","19","","24.1","","98.17","","","","","","NA"
"-117.16","58.62","HIGH LEVEL A","3073141","2019-04-01 10:00","2019","04","01","10:00","2.4","","-3.2","","67","","","","34","","31","","24.1","","98.18","","","","","","NA"
"-117.16","58.62","HIGH LEVEL A","3073141","2019-04-01 11:00","2019","04","01","11:00","4.0","","-3.5","","58","","","","33","","17","","24.1","","98.19","","","","","","Cloudy"
"-117.16","58.62","HIGH LEVEL A","3073141","2019-04-01 12:00","2019","04","01","12:00","3.1","","-4.5","","58","","","","33","","25","","24.1","","98.20","","","","","","NA"
"-117.16","58.62","HIGH LEVEL A","3073141","2019-04-01 13:00","2019","04","01","13:00","3.7","","-4.7","","54","","","","33","","28","","24.1","","98.20","","","","","","NA"
"-117.16","58.62","HIGH LEVEL A","3073141","2019-04-01 14:00","2019","04","01","14:00","4.0","","-5.2","","51","","","","32","","22","","24.1","","98.17","","","","","","Mostly Cloudy"
"-117.16","58.62","HIGH LEVEL A","3073141","2019-04-01 15:00","2019","04","01","15:00","5.1","","-5.8","","45","","","","32","","23","","24.1","","98.12","","","","","","NA"
"-117.16","58.62","HIGH LEVEL A","3073141","2019-04-01 16:00","2019","04","01","16:00","4.4","","-4.6","","52","","","","33","","21","","24.1","","98.09","","","","","","NA"
"-117.16","58.62","HIGH LEVEL A","3073141","2019-04-01 17:00","2019","04","01","17:00","3.2","","-2.7","","65","","","","35","","18","","24.1","","98.10","","","","","","Mostly Cloudy"
"-117.16","58.62","HIGH LEVEL A","3073141","2019-04-01 18:00","2019","04","01","18:00","3.2","","-3.2","","63","","","","35","","19","","24.1","","98.07","","","","","","NA"
"-117.16","58.62","HIGH LEVEL A","3073141","2019-04-01 19:00","2019","04","01","19:00","2.7","","-3.4","","64","","","","35","","17","","24.1","","98.07","","","","","","NA"
"-117.16","58.62","HIGH LEVEL A","3073141","2019-04-01 20:00","2019","04","01","20:00","1.6","","-4.3","","65","","","","36","","12","","24.1","","98.05","","","","","","Cloudy"
"-117.16","58.62","HIGH LEVEL A","3073141","2019-04-01 21:00","2019","04","01","21:00","1.0","","-4.1","","69","","","","35","","16","","24.1","","98.02","","","","","","NA"
"-117.16","58.62","HIGH LEVEL A","3073141","2019-04-01 22:00","2019","04","01","22:00"
"-117.16","58.62","HIGH LEVEL A","3073141","2019-04-01 23:00","2019","04","01","23:00"
"-117.16","58.62","HIGH LEVEL A","3073141","2019-04-02 00:00","2019","04","02","00:00"
"-117.16","58.62","HIGH LEVEL A","3073141","2019-04-02 01:00","2019","04","02","01:00"
"-117.16","58.62","HIGH LEVEL A","3073141","2019-04-02 02:00","2019","04","02","02:00"
"-117.16","58.62","HIGH LEVEL A","3073141","2019-04-02 03:00","2019","04","02","03:00"
"-117.16","58.62","HIGH LEVEL A","3073141","2019-04-02 04:00","2019","04","02","04:00"
"-117.16","58.62","HIGH LEVEL A","3073141","2019-04-02 05:00","2019","04","02","05:00"
"-117.16","58.62","HIGH LEVEL A","3073141","2019-04-02 06:00","2019","04","02","06:00","-5.6","","-12.9","","57","","","","35","","5","","24.1","","98.09","","","","-8","","NA"
"-117.16","58.62","HIGH LEVEL A","3073141","2019-04-02 07:00","2019","04","02","07:00","-5.1","","-12.6","","56","","","","31","","7","","24.1","","98.06","","","","-8","","NA"
"-117.16","58.62","HIGH LEVEL A","3073141","2019-04-02 08:00","2019","04","02","08:00","-4.1","","-12.5","","52","","","","36","","16","","24.1","","98.08","","","","-10","","Mostly Cloudy"
"-117.16","58.62","HIGH LEVEL A","3073141","2019-04-02 09:00","2019","04","02","09:00","-3.9","","-13.3","","48","","","","36","","17","","24.1","","98.06","","","","-10","","NA"
"-117.16","58.62","HIGH LEVEL A","3073141","2019-04-02 10:00","2019","04","02","10:00","-3.4","","-13.9","","44","","","","36","","12","","24.1","","98.00","","","","-8","","NA"
"-117.16","58.62","HIGH LEVEL A","3073141","2019-04-02 11:00","2019","04","02","11:00","-3.1","","-13.7","","44","","","","35","","16","","24.1","","98.00","","","","-8","","Mostly Cloudy"
"-117.16","58.62","HIGH LEVEL A","3073141","2019-04-02 12:00","2019","04","02","12:00","-1.8","","-13.4","","41","","","","1","","11","","24.1","","97.91","","","","-6","","NA"
"-117.16","58.62","HIGH LEVEL A","3073141","2019-04-02 13:00","2019","04","02","13:00","-1.2","","-13.7","","38","","","","36","","14","","24.1","","97.85","","","","-6","","NA"
"-117.16","58.62","HIGH LEVEL A","3073141","2019-04-02 14:00","2019","04","02","14:00","-0.7","","-14.3","","35","","","","35","","11","","24.1","","97.81","","","","-4","","Mostly Cloudy"
"-117.16","58.62","HIGH LEVEL A","3073141","2019-04-02 15:00","2019","04","02","15:00","-1.0","","-14.0","","37","","","","31","","14","","24.1","","97.77","","","","-5","","NA"
"-117.16","58.62","HIGH LEVEL A","3073141","2019-04-02 16:00","2019","04","02","16:00","-1.0","","-13.5","","38","","","","2","","10","","24.1","","97.72","","","","-5","","NA"
"-117.16","58.62","HIGH LEVEL A","3073141","2019-04-02 17:00","2019","04","02","17:00","-1.0","","-12.2","","43","","","","1","","6","","24.1","","97.68","","","","-3","","Mostly Cloudy"
"-117.16","58.62","HIGH LEVEL A","3073141","2019-04-02 18:00","2019","04","02","18:00","-1.4","","-12.0","","45","","","","34","","8","","24.1","","97.66","","","","-4","","NA"
"-117.16","58.62","HIGH LEVEL A","3073141","2019-04-02 19:00","2019","04","02","19:00","-1.9","","-11.1","","50","","","","3","","4","","24.1","","97.63","","","","-3","","NA"
"-117.16","58.62","HIGH LEVEL A","3073141","2019-04-02 20:00","2019","04","02","20:00","-2.5","","-9.6","","58","","","","36","","12","","24.1","","97.62","","","","-7","","Cloudy"
"-117.16","58.62","HIGH LEVEL A","3073141","2019-04-02 21:00","2019","04","02","21:00","-3.2","","-9.3","","63","","","","3","","14","","24.1","","97.62","","","","-8","","NA"
"-117.16","58.62","HIGH LEVEL A","3073141","2019-04-02 22:00","2019","04","02","22:00"
"-117.16","58.62","HIGH LEVEL A","3073141","2019-04-02 23:00","2019","04","02","23:00"
"-117.16","58.62","HIGH LEVEL A","3073141","2019-04-03 00:00","2019","04","03","00:00"
"-117.16","58.62","HIGH LEVEL A","3073141","2019-04-03 01:00","2019","04","03","01:00"
"-117.16","58.62","HIGH LEVEL A","3073141","2019-04-03 02:00","2019","04","03","02:00"
"-117.16","58.62","HIGH LEVEL A","3073141","2019-04-03 03:00","2019","04","03","03:00"
"-117.16","58.62","HIGH LEVEL A","3073141","2019-04-03 04:00","2019","04","03","04:00"
"-117.16","58.62","HIGH LEVEL A","3073141","2019-04-03 05:00","2019","04","03","05:00"
"-117.16","58.62","HIGH LEVEL A","3073141","2019-04-03 06:00","2019","04","03","06:00","-8.8","","-11.5","","81","","","","11","","12","","4.8","","97.61","","","","-14","","Snow"
"-117.16","58.62","HIGH LEVEL A","3073141","2019-04-03 07:00","2019","04","03","07:00","-9.3","","-12.1","","80","","","","9","","16","","4.0","","97.58","","","","-16","","Snow"
"-117.16","58.62","HIGH LEVEL A","3073141","2019-04-03 08:00","2019","04","03","08:00","-9.5","","-12.5","","79","","","","9","","15","","4.8","","97.57","","","","-16","","Snow"
"-117.16","58.62","HIGH LEVEL A","3073141","2019-04-03 09:00","2019","04","03","09:00","-9.4","","-12.5","","78","","","","10","","17","","4.8","","97.56","","","","-16","","Snow"
"-117.16","58.62","HIGH LEVEL A","3073141","2019-04-03 10:00","2019","04","03","10:00","-9.5","","-12.3","","80","","","","8","","15","","1.6","","97.56","","","","-16","","Snow"
"-117.16","58.62","HIGH LEVEL A","3073141","2019-04-03 11:00","2019","04","03","11:00","-8.7","","-11.6","","80","","","","8","","12","","1.6","","97.55","","","","-14","","Snow"
"-117.16","58.62","HIGH LEVEL A","3073141","2019-04-03 12:00","2019","04","03","12:00","-8.2","","-11.8","","75","","","","7","","12","","3.6","","97.50","","","","-14","","Snow"
"-117.16","58.62","HIGH LEVEL A","3073141","2019-04-03 13:00","2019","04","03","13:00","-7.1","","-10.5","","77","","","","8","","18","","3.2","","97.45","","","","-14","","Snow"
"-117.16","58.62","HIGH LEVEL A","3073141","2019-04-03 14:00","2019","04","03","14:00","-7.0","","-10.3","","77","","","","11","","7","","3.2","","97.43","","","","-11","","Snow"
"-117.16","58.62","HIGH LEVEL A","3073141","2019-04-03 15:00","2019","04","03","15:00","-6.4","","-9.9","","77","","","","7","","9","","3.2","","97.43","","","","-11","","Snow"
"-117.16","58.62","HIGH LEVEL A","3073141","2019-04-03 16:00","2019","04","03","16:00","-6.7","","-8.7","","86","","","","17","","4","","3.2","","97.43","","","","-9","","Snow"
"-117.16","58.62","HIGH LEVEL A","3073141","2019-04-03 17:00","2019","04","03","17:00","-6.6","","-8.9","","84","","","","14","","9","","4.0","","97.44","","","","-11","","Snow"
"-117.16","58.62","HIGH LEVEL A","3073141","2019-04-03 18:00","2019","04","03","18:00","-6.7","","-8.7","","86","","","","15","","8","","3.2","","97.45","","","","-11","","Snow"
"-117.16","58.62","HIGH LEVEL A","3073141","2019-04-03 19:00","2019","04","03","19:00","-6.9","","-8.6","","88","","","","10","","6","","2.4","","97.48","","","","-10","","Snow"
"-117.16","58.62","HIGH LEVEL A","3073141","2019-04-03 20:00","2019","04","03","20:00","-7.2","","-8.9","","88","","","","1","","12","","1.0","","97.52","","","","-13","","Snow"
"-117.16","58.62","HIGH LEVEL A","3073141","2019-04-03 21:00","2019","04","03","21:00","-8.5","","-10.0","","89","","","","36","","13","","1.6","","97.56","","","","-14","","Snow"
"-117.16","58.62","HIGH LEVEL A","3073141","2019-04-03 22:00","2019","04","03","22:00"
"-117.16","58.62","HIGH LEVEL A","3073141","2019-04-03 23:00","2019","04","03","23:00"
"-117.16","58.62","HIGH LEVEL A","3073141","2019-04-04 00:00","2019","04","04","00:00"
"-117.16","58.62","HIGH LEVEL A","3073141","2019-04-04 01:00","2019","04","04","01:00"
"-117.16","58.62","HIGH LEVEL A","3073141","2019-04-04 02:00","2019","04","04","02:00"
"-117.16","58.62","HIGH LEVEL A","3073141","2019-04-04 03:00","2019","04","04","03:00"
"-117.16","58.62","HIGH LEVEL A","3073141","2019-04-04 04:00","2019","04","04","04:00"
"-117.16","58.62","HIGH LEVEL A","3073141","2019-04-04 05:00","2019","04","04","05:00"
"-117.16","58.62","HIGH LEVEL A","3073141","2019-04-04 06:00","2019","04","04","06:00","-12.7","","-15.3","","81","","","","36","","16","","12.9","","98.02","","","","-20","","Snow"
"-117.16","58.62","HIGH LEVEL A","3073141","2019-04-04 07:00","2019","04","04","07:00","-12.8","","-15.5","","80","","","","36","","14","","4.8","","98.10","","","","-20","","Snow"
"-117.16","58.62","HIGH LEVEL A","3073141","2019-04-04 08:00","2019","04","04","08:00","-12.8","","-15.3","","82","","","","36","","15","","2.4","","98.16","","","","-20","","Snow"
"-117.16","58.62","HIGH LEVEL A","3073141","2019-04-04 09:00","2019","04","04","09:00","-12.7","","-15.6","","79","","","","36","","16","","3.2","","98.20","","","","-20","","Snow"
"-117.16","58.62","HIGH LEVEL A","3073141","2019-04-04 10:00","2019","04","04","10:00","-12.0","","-15.2","","78","","","","36","","15","","4.8","","98.21","","","","-19","","Snow"
"-117.16","58.62","HIGH LEVEL A","3073141","2019-04-04 11:00","2019","04","04","11:00","-11.1","","-14.4","","77","","","","3","","8","","4.8","","98.20","","","","-16","","Snow"
"-117.16","58.62","HIGH LEVEL A","3073141","2019-04-04 12:00","2019","04","04","12:00","-9.9","","-13.7","","74","","","","1","","3","","6.4","","98.20","","","","-12","","Snow"
"-117.16","58.62","HIGH LEVEL A","3073141","2019-04-04 13:00","2019","04","04","13:00","-8.7","","-13.2","","70","","","","36","","2","","6.4","","98.17","","","","-10","","Snow"
"-117.16","58.62","HIGH LEVEL A","3073141","2019-04-04 14:00","2019","04","04","14:00","-8.2","","-12.5","","72","","","","8","","3","","9.7","","98.15","","","","-10","","Snow"
"-117.16","58.62","HIGH LEVEL A","3073141","2019-04-04 15:00","2019","04","04","15:00","-7.5","","-12.4","","68","","","","15","","9","","9.7","","98.12","","","","-12","","Snow"
"-117.16","58.62","HIGH LEVEL A","3073141","2019-04-04 16:00","2019","04","04","16:00","-7.4","","-12.9","","65","","","","15","","5","","24.1","","98.07","","","","-10","","Snow"
"-117.16","58.62","HIGH LEVEL A","3073141","2019-04-04 17:00","2019","04","04","17:00","-6.9","","-12.3","","66","","","","16","","6","","24.1","","98.02","","","","-10","","Mostly Cloudy"
"-117.16","58.62","HIGH LEVEL A","3073141","2019-04-04 18:00","2019","04","04","18:00","-7.7","","-12.5","","69","","","","16","","7","","24.1","","97.99","","","","-11","","NA"
"-117.16","58.62","HIGH LEVEL A","3073141","2019-04-04 19:00","2019","04","04","19:00","-8.2","","-12.9","","69","","","","17","","7","","24.1","","97.96","","","","-12","","NA"
"-117.16","58.62","HIGH LEVEL A","3073141","2019-04-04 20:00","2019","04","04","20:00","-8.3","","-13.2","","68","","","","18","","4","","24.1","","97.94","","","","-10","","Mostly Cloudy"
"-117.16","58.62","HIGH LEVEL A","3073141","2019-04-04 21:00","2019","04","04","21:00","-8.6","","-13.5","","68","","","","0","","1","","24.1","","97.93","","","","-9","","NA"
"-117.16","58.62","HIGH LEVEL A","3073141","2019-04-04 22:00","2019","04","04","22:00"
"-117.16","58.62","HIGH LEVEL A","3073141","2019-04-04 23:00","2019","04","04","23:00"
"-117.16","58.62","HIGH LEVEL A","3073141","2019-04-05 00:00","2019","04","05","00:00"
"-117.16","58.62","HIGH LEVEL A","3073141","2019-04-05 01:00","2019","04","05","01:00"
"-117.16","58.62","HIGH LEVEL A","3073141","2019-04-05 02:00","2019","04","05","02:00"
"-117.16","58.62","HIGH LEVEL A","3073141","2019-04-05 03:00","2019","04","05","03:00"
"-117.16","58.62","HIGH LEVEL A","3073141","2019-04-05 04:00","2019","04","05","04:00"
"-117.16","58.62","HIGH LEVEL A","3073141","2019-04-05 05:00","2019","04","05","05:00"
"-117.16","58.62","HIGH LEVEL A","3073141","2019-04-05 06:00","2019","04","05","06:00","-10.0","","-12.2","","84","","","","3","","4","","16.1","","97.73","","","","-12","","Snow"
"-117.16","58.62","HIGH LEVEL A","3073141","2019-04-05 07:00","2019","04","05","07:00","-9.8","","-12.2","","83","","","","5","","4","","16.1","","97.72","","","","-12","","Snow"
"-117.16","58.62","HIGH LEVEL A","3073141","2019-04-05 08:00","2019","04","05","08:00","-9.0","","-11.8","","80","","","","9","","7","","16.1","","97.70","","","","-13","","Snow"
"-117.16","58.62","HIGH LEVEL A","3073141","2019-04-05 09:00","2019","04","05","09:00","-8.0","","-12.9","","68","","","","11","","13","","24.1","","97.65","","","","-14","","Snow"
"-117.16","58.62","HIGH LEVEL A","3073141","2019-04-05 10:00","2019","04","05","10:00","-7.1","","-12.7","","64","","","","11","","13","","24.1","","97.62","","","","-13","","Snow"
"-117.16","58.62","HIGH LEVEL A","3073141","2019-04-05 11:00","2019","04","05","11:00","-6.2","","-12.1","","63","","","","10","","10","","24.1","","97.58","","","","-11","","Snow"
"-117.16","58.62","HIGH LEVEL A","3073141","2019-04-05 12:00","2019","04","05","12:00","-5.2","","-11.0","","64","","","","13","","11","","24.1","","97.53","","","","-10","","Snow"
"-117.16","58.62","HIGH LEVEL A","3073141","2019-04-05 13:00","2019","04","05","13:00","-4.3","","-10.3","","63","","","","17","","9","","16.1","","97.46","","","","-8","","Snow"
"-117.16","58.62","HIGH LEVEL A","3073141","2019-04-05 14:00","2019","04","05","14:00","-2.9","","-9.1","","63","","","","11","","13","","24.1","","97.40","","","","-8","","Mostly Cloudy"
"-117.16","58.62","HIGH LEVEL A","3073141","2019-04-05 15:00","2019","04","05","15:00","-2.5","","-8.9","","62","","","","13","","16","","24.1","","97.34","","","","-8","","NA"
"-117.16","58.62","HIGH LEVEL A","3073141","2019-04-05 16:00","2019","04","05","16:00","-2.5","","-9.0","","61","","","","16","","10","","24.1","","97.29","","","","-6","","NA"
"-117.16","58.62","HIGH LEVEL A","3073141","2019-04-05 17:00","2019","04","05","17:00","-2.2","","-8.4","","63","","","","13","","13","","16.1","","97.26","","","","-7","","Snow"
"-117.16","58.62","HIGH LEVEL A","3073141","2019-04-05 18:00","2019","04","05","18:00","-2.4","","-8.5","","63","","","","11","","17","","16.1","","97.19","","","","-8","","Snow"
"-117.16","58.62","HIGH LEVEL A","3073141","2019-04-05 19:00","2019","04","05","19:00","-2.8","","-8.1","","67","","","","11","","10","","16.1","","97.14","","","","-7","","Snow"
"-117.16","58.62","HIGH LEVEL A","3073141","2019-04-05 20:00","2019","04","05","20:00","-3.1","","-7.8","","70","","","","9","","12","","9.7","","97.12","","","","-8","","Snow"
"-117.16","58.62","HIGH LEVEL A","3073141","2019-04-05 21:00","2019","04","05","21:00","-3.4","","-7.3","","74","","","","11","","8","","16.1","","97.10","","","","-7","","Snow"
"-117.16","58.62","HIGH LEVEL A","3073141","2019-04-05 22:00","2019","04","05","22:00"
"-117.16","58.62","HIGH LEVEL A","3073141","2019-04-05 23:00","2019","04","05","23:00"
"-117.16","58.62","HIGH LEVEL A","3073141","2019-04-06 00:00","2019","04","06","00:00"
"-117.16","58.62","HIGH LEVEL A","3073141","2019-04-06 01:00","2019","04","06","01:00"
"-117.16","58.62","HIGH LEVEL A","3073141","2019-04-06 02:00","2019","04","06","02:00"
"-117.16","58.62","HIGH LEVEL A","3073141","2019-04-06 03:00","2019","04","06","03:00"
"-117.16","58.62","HIGH LEVEL A","3073141","2019-04-06 04:00","2019","04","06","04:00"
"-117.16","58.62","HIGH LEVEL A","3073141","2019-04-06 05:00","2019","04","06","05:00"
"-117.16","58.62","HIGH LEVEL A","3073141","2019-04-06 06:00","2019","04","06","06:00","-4.0","","-7.6","","76","","","","12","","10","","24.1","","96.69","","","","-8","","NA"
"-117.16","58.62","HIGH LEVEL A","3073141","2019-04-06 07:00","2019","04","06","07:00","-3.9","","-7.8","","74","","","","13","","12","","24.1","","96.65","","","","-9","","NA"
"-117.16","58.62","HIGH LEVEL A","3073141","2019-04-06 08:00","2019","04","06","08:00","-3.8","","-8.3","","71","","","","12","","19","","24.1","","96.66","","","","-10","","Mostly Cloudy"
"-117.16","58.62","HIGH LEVEL A","3073141","2019-04-06 09:00","2019","04","06","09:00","-3.3","","-8.3","","69","","","","12","","21","","24.1","","96.62","","","","-10","","NA"
"-117.16","58.62","HIGH LEVEL A","3073141","2019-04-06 10:00","2019","04","06","10:00","-2.7","","-8.1","","67","","","","13","","13","","24.1","","96.55","","","","-7","","NA"
"-117.16","58.62","HIGH LEVEL A","3073141","2019-04-06 11:00","2019","04","06","11:00","-1.2","","-7.1","","64","","","","13","","15","","24.1","","96.52","","","","-6","","Cloudy"
"-117.16","58.62","HIGH LEVEL A","3073141","2019-04-06 12:00","2019","04","06","12:00","-0.5","","-6.6","","64","","","","13","","16","","24.1","","96.47","","","","-5","","NA"
"-117.16","58.62","HIGH LEVEL A","3073141","2019-04-06 13:00","2019","04","06","13:00","0.2","","-6.5","","61","","","","14","","20","","24.1","","96.43","","","","","","NA"
"-117.16","58.62","HIGH LEVEL A","3073141","2019-04-06 14:00","2019","04","06","14:00","-1.3","","-5.0","","76","","","","14","","15","","16.1","","96.43","","","","-6","","Snow"
"-117.16","58.62","HIGH LEVEL A","3073141","2019-04-06 15:00","2019","04","06","15:00","-1.5","","-3.8","","84","","","","15","","10","","4.8","","96.41","","","","-5","","Snow"
"-117.16","58.62","HIGH LEVEL A","3073141","2019-04-06 16:00","2019","04","06","16:00","-1.2","","-3.1","","87","","","","13","","7","","9.7","","96.36","","","","-4","","Snow"
"-117.16","58.62","HIGH LEVEL A","3073141","2019-04-06 17:00","2019","04","06","17:00","-0.5","","-2.6","","86","","","","12","","8","","4.8","","96.34","","","","-3","","Snow"
"-117.16","58.62","HIGH LEVEL A","3073141","2019-04-06 18:00","2019","04","06","18:00","-0.4","","-3.1","","82","","","","13","","12","","9.7","","96.32","","","","-4","","Snow"
"-117.16","58.62","HIGH LEVEL A","3073141","2019-04-06 19:00","2019","04","06","19:00","-0.1","","-3.5","","78","","","","13","","12","","9.7","","96.33","","","","-4","","Snow"
"-117.16","58.62","HIGH LEVEL A","3073141","2019-04-06 20:00","2019","04","06","20:00","-0.7","","-3.2","","83","","","","14","","9","","4.8","","96.36","","","","-4","","Snow"
"-117.16","58.62","HIGH LEVEL A","3073141","2019-04-06 21:00","2019","04","06","21:00","-1.3","","-2.3","","93","","","","11","","5","","3.2","","96.36","","","","-3","","Snow"
"-117.16","58.62","HIGH LEVEL A","3073141","2019-04-06 22:00","2019","04","06","22:00"
"-117.16","58.62","HIGH LEVEL A","3073141","2019-04-06 23:00","2019","04","06","23:00"
"-117.16","58.62","HIGH LEVEL A","3073141","2019-04-07 00:00","2019","04","07","00:00"
"-117.16","58.62","HIGH LEVEL A","3073141","2019-04-07 01:00","2019","04","07","01:00"
"-117.16","58.62","HIGH LEVEL A","3073141","2019-04-07 02:00","2019","04","07","02:00"
"-117.16","58.62","HIGH LEVEL A","3073141","2019-04-07 03:00","2019","04","07","03:00"
"-117.16","58.62","HIGH LEVEL A","3073141","2019-04-07 04:00","2019","04","07","04:00"
"-117.16","58.62","HIGH LEVEL A","3073141","2019-04-07 05:00","2019","04","07","05:00"
"-117.16","58.62","HIGH LEVEL A","3073141","2019-04-07 06:00","2019","04","07","06:00","-1.6","","-2.0","","97","","","","36","","2","","24.1","","96.33","","","","-2","","NA"
"-117.16","58.62","HIGH LEVEL A","3073141","2019-04-07 07:00","2019","04","07","07:00","-1.1","","-1.7","","96","","","","9","","10","","16.1","","96.24","","","","-5","","NA"
"-117.16","58.62","HIGH LEVEL A","3073141","2019-04-07 08:00","2019","04","07","08:00","-0.7","","-1.4","","95","","","","17","","5","","16.1","","96.27","","","","-2","","Cloudy"
"-117.16","58.62","HIGH LEVEL A","3073141","2019-04-07 09:00","2019","04","07","09:00","-0.7","","-1.3","","96","","","","18","","6","","16.1","","96.30","","","","-3","","NA"
"-117.16","58.62","HIGH LEVEL A","3073141","2019-04-07 10:00","2019","04","07","10:00","-0.3","","-1.2","","94","","","","16","","8","","16.1","","96.29","","","","-3","","NA"
"-117.16","58.62","HIGH LEVEL A","3073141","2019-04-07 11:00","2019","04","07","11:00","0.3","","-0.9","","92","","","","15","","8","","16.1","","96.32","","","","","","Cloudy"
"-117.16","58.62","HIGH LEVEL A","3073141","2019-04-07 12:00","2019","04","07","12:00","1.1","","-0.6","","88","","","","14","","6","","16.1","","96.32","","","","","","NA"
"-117.16","58.62","HIGH LEVEL A","3073141","2019-04-07 13:00","2019","04","07","13:00","1.5","","-0.8","","85","","","","16","","14","","16.1","","96.34","","","","","","NA"
"-117.16","58.62","HIGH LEVEL A","3073141","2019-04-07 14:00","2019","04","07","14:00","1.6","","-0.5","","86","","","","15","","10","","16.1","","96.37","","","","","","Cloudy"
"-117.16","58.62","HIGH LEVEL A","3073141","2019-04-07 15:00","2019","04","07","15:00","2.0","","-0.2","","85","","","","13","","12","","16.1","","96.37","","","","","","NA"
"-117.16","58.62","HIGH LEVEL A","3073141","2019-04-07 16:00","2019","04","07","16:00","2.1","","0.0","","86","","","","17","","7","","16.1","","96.42","","","","","","NA"
"-117.16","58.62","HIGH LEVEL A","3073141","2019-04-07 17:00","2019","04","07","17:00","2.2","","0.0","","85","","","","17","","4","","16.1","","96.44","","","","","","Cloudy"
"-117.16","58.62","HIGH LEVEL A","3073141","2019-04-07 18:00","2019","04","07","18:00","2.4","","0.2","","85","","","","18","","5","","16.1","","96.50","","","","","","NA"
"-117.16","58.62","HIGH LEVEL A","3073141","2019-04-07 19:00","2019","04","07","19:00","2.0","","-0.1","","86","","","","17","","10","","16.1","","96.53","","","","","","NA"
"-117.16","58.62","HIGH LEVEL A","3073141","2019-04-07 20:00","2019","04","07","20:00","1.6","","-0.3","","87","","","","15","","7","","16.1","","96.56","","","","","","Cloudy"
"-117.16","58.62","HIGH LEVEL A","3073141","2019-04-07 21:00","2019","04","07","21:00","1.4","","-0.4","","88","","","","2","","8","","16.1","","96.62","","","","","","NA"
"-117.16","58.62","HIGH LEVEL A","3073141","2019-04-07 22:00","2019","04","07","22:00"
"-117.16","58.62","HIGH LEVEL A","3073141","2019-04-07 23:00","2019","04","07","23:00"
"-117.16","58.62","HIGH LEVEL A","3073141","2019-04-08 00:00","2019","04","08","00:00"
"-117.16","58.62","HIGH LEVEL A","3073141","2019-04-08 01:00","2019","04","08","01:00"
"-117.16","58.62","HIGH LEVEL A","3073141","2019-04-08 02:00","2019","04","08","02:00"
"-117.16","58.62","HIGH LEVEL A","3073141","2019-04-08 03:00","2019","04","08","03:00"
"-117.16","58.62","HIGH LEVEL A","3073141","2019-04-08 04:00","2019","04","08","04:00"
"-117.16","58.62","HIGH LEVEL A","3073141","2019-04-08 05:00","2019","04","08","05:00"
"-117.16","58.62","HIGH LEVEL A","3073141","2019-04-08 06:00","2019","04","08","06:00","0.8","","0.1","","95","","","","20","","7","","8.1","","96.93","","","","","","Fog"
"-117.16","58.62","HIGH LEVEL A","3073141","2019-04-08 07:00","2019","04","08","07:00","0.9","","0.2","","95","","","","18","","8","","8.1","","96.96","","","","","","Fog"
"-117.16","58.62","HIGH LEVEL A","3073141","2019-04-08 08:00","2019","04","08","08:00","0.6","","0.2","","97","","","","16","","10","","2.4","","97.00","","","","","","Fog"
"-117.16","58.62","HIGH LEVEL A","3073141","2019-04-08 09:00","2019","04","08","09:00","0.6","","0.0","","96","","","","16","","13","","3.2","","97.03","","","","","","Fog"
"-117.16","58.62","HIGH LEVEL A","3073141","2019-04-08 10:00","2019","04","08","10:00","1.0","","0.1","","94","","","","15","","15","","3.2","","97.05","","","","","","Fog"
"-117.16","58.62","HIGH LEVEL A","3073141","2019-04-08 11:00","2019","04","08","11:00","1.6","","0.0","","89","","","","16","","13","","6.4","","97.07","","","","","","Fog"
"-117.16","58.62","HIGH LEVEL A","3073141","2019-04-08 12:00","2019","04","08","12:00","3.8","","0.5","","79","","","","15","","11","","24.1","","97.07","","","","","","NA"
"-117.16","58.62","HIGH LEVEL A","3073141","2019-04-08 13:00","2019","04","08","13:00","6.1","","0.9","","69","","","","12","","10","","24.1","","97.02","","","","","","NA"
"-117.16","58.62","HIGH LEVEL A","3073141","2019-04-08 14:00","2019","04","08","14:00","8.3","","1.4","","62","","","","17","","11","","24.1","","97.01","","","","","","Mainly Clear"
"-117.16","58.62","HIGH LEVEL A","3073141","2019-04-08 15:00","2019","04","08","15:00","9.5","","1.2","","56","","","","15","","11","","24.1","","97.00","","","","","","NA"
"-117.16","58.62","HIGH LEVEL A","3073141","2019-04-08 16:00","2019","04","08","16:00","10.4","","1.2","","53","","","","17","","8","","24.1","","96.98","","","","","","NA"
"-117.16","58.62","HIGH LEVEL A","3073141","2019-04-08 17:00","2019","04","08","17:00","10.1","","0.9","","53","","","","11","","8","","24.1","","97.00","","","","","","Mostly Cloudy"
"-117.16","58.62","HIGH LEVEL A","3073141","2019-04-08 18:00","2019","04","08","18:00","10.2","","0.7","","52","","","","13","","7","","24.1","","97.01","","","","","","NA"
"-117.16","58.62","HIGH LEVEL A","3073141","2019-04-08 19:00","2019","04","08","19:00","10.0","","0.0","","50","","","","11","","4","","24.1","","97.00","","","","","","NA"
"-117.16","58.62","HIGH LEVEL A","3073141","2019-04-08 20:00","2019","04","08","20:00","6.8","","-0.4","","60","","","","36","","1","","24.1","","97.02","","","","","","Mainly Clear"
"-117.16","58.62","HIGH LEVEL A","3073141","2019-04-08 21:00","2019","04","08","21:00","2.0","","-1.5","","78","","","","0","","1","","24.1","","97.04","","","","","","NA"
"-117.16","58.62","HIGH LEVEL A","3073141","2019-04-08 22:00","2019","04","08","22:00"
"-117.16","58.62","HIGH LEVEL A","3073141","2019-04-08 23:00","2019","04","08","23:00"
"-117.16","58.62","HIGH LEVEL A","3073141","2019-04-09 00:00","2019","04","09","00:00"
"-117.16","58.62","HIGH LEVEL A","3073141","2019-04-09 01:00","2019","04","09","01:00"
"-117.16","58.62","HIGH LEVEL A","3073141","2019-04-09 02:00","2019","04","09","02:00"
"-117.16","58.62","HIGH LEVEL A","3073141","2019-04-09 03:00","2019","04","09","03:00"
"-117.16","58.62","HIGH LEVEL A","3073141","2019-04-09 04:00","2019","04","09","04:00"
"-117.16","58.62","HIGH LEVEL A","3073141","2019-04-09 05:00","2019","04","09","05:00"
"-117.16","58.62","HIGH LEVEL A","3073141","2019-04-09 06:00","2019","04","09","06:00","-2.8","","-3.5","","95","","","","34","","5","","24.1","","97.19","","","","-5","","NA"
"-117.16","58.62","HIGH LEVEL A","3073141","2019-04-09 07:00","2019","04","09","07:00","-2.5","","-3.2","","95","","","","0","","1","","24.1","","97.22","","","","-3","","NA"
"-117.16","58.62","HIGH LEVEL A","3073141","2019-04-09 08:00","2019","04","09","08:00","1.4","","-0.1","","90","","","","21","","3","","24.1","","97.25","","","","","","Mainly Clear"
"-117.16","58.62","HIGH LEVEL A","3073141","2019-04-09 09:00","2019","04","09","09:00","4.1","","-0.3","","73","","","","14","","8","","24.1","","97.26","","","","","","NA"
"-117.16","58.62","HIGH LEVEL A","3073141","2019-04-09 10:00","2019","04","09","10:00","6.9","","0.2","","62","","","","13","","7","","24.1","","97.25","","","","","","NA"
"-117.16","58.62","HIGH LEVEL A","3073141","2019-04-09 11:00","2019","04","09","11:00","9.2","","0.2","","53","","","","14","","9","","24.1","","97.26","","","","","","Clear"
"-117.16","58.62","HIGH LEVEL A","3073141","2019-04-09 12:00","2019","04","09","12:00","11.8","","0.0","","44","","","","16","","10","","24.1","","97.25","","","","","","NA"
"-117.16","58.62","HIGH LEVEL A","3073141","2019-04-09 13:00","2019","04","09","13:00","12.8","","-2.0","","36","","","","15","","11","","24.1","","97.21","","","","","","NA"
"-117.16","58.62","HIGH LEVEL A","3073141","2019-04-09 14:00","2019","04","09","14:00","13.7","","-4.7","","28","","","","10","","8","","24.1","","97.18","","","","","","Mainly Clear"
"-117.16","58.62","HIGH LEVEL A","3073141","2019-04-09 15:00","2019","04","09","15:00","13.8","","-4.8","","27","","","","8","","8","","24.1","","97.17","","","","","","NA"
"-117.16","58.62","HIGH LEVEL A","3073141","2019-04-09 16:00","2019","04","09","16:00","13.2","","-4.3","","29","","","","3","","5","","24.1","","97.16","","","","","","NA"
"-117.16","58.62","HIGH LEVEL A","3073141","2019-04-09 17:00","2019","04","09","17:00","13.9","","-5.2","","26","","","","36","","2","","24.1","","97.16","","","","","","Mainly Clear"
"-117.16","58.62","HIGH LEVEL A","3073141","2019-04-09 18:00","2019","04","09","18:00","14.4","","-5.9","","24","","","","14","","8","","24.1","","97.16","","","","","","NA"
"-117.16","58.62","HIGH LEVEL A","3073141","2019-04-09 19:00","2019","04","09","19:00","13.4","","-6.1","","25","","","","11","","6","","24.1","","97.16","","","","","","NA"
"-117.16","58.62","HIGH LEVEL A","3073141","2019-04-09 20:00","2019","04","09","20:00","10.1","","-5.6","","33","","","","14","","6","","24.1","","97.20","","","","","","Mainly Clear"
"-117.16","58.62","HIGH LEVEL A","3073141","2019-04-09 21:00","2019","04","09","21:00","6.8","","-3.9","","46","","","","13","","4","","24.1","","97.22","","","","","","NA"
"-117.16","58.62","HIGH LEVEL A","3073141","2019-04-09 22:00","2019","04","09","22:00"
"-117.16","58.62","HIGH LEVEL A","3073141","2019-04-09 23:00","2019","04","09","23:00"
"-117.16","58.62","HIGH LEVEL A","3073141","2019-04-10 00:00","2019","04","10","00:00"
"-117.16","58.62","HIGH LEVEL A","3073141","2019-04-10 01:00","2019","04","10","01:00"
"-117.16","58.62","HIGH LEVEL A","3073141","2019-04-10 02:00","2019","04","10","02:00"
"-117.16","58.62","HIGH LEVEL A","3073141","2019-04-10 03:00","2019","04","10","03:00"
"-117.16","58.62","HIGH LEVEL A","3073141","2019-04-10 04:00","2019","04","10","04:00"
"-117.16","58.62","HIGH LEVEL A","3073141","2019-04-10 05:00","2019","04","10","05:00"
"-117.16","58.62","HIGH LEVEL A","3073141","2019-04-10 06:00","2019","04","10","06:00","-4.2","","-5.8","","89","","","","26","","3","","24.1","","97.21","","","","-5","","NA"
"-117.16","58.62","HIGH LEVEL A","3073141","2019-04-10 07:00","2019","04","10","07:00","-2.8","","-4.6","","88","","","","27","","3","","24.1","","97.21","","","","-4","","NA"
"-117.16","58.62","HIGH LEVEL A","3073141","2019-04-10 08:00","2019","04","10","08:00","2.4","","-1.5","","75","","","","16","","3","","24.1","","97.22","","","","","","Cloudy"
"-117.16","58.62","HIGH LEVEL A","3073141","2019-04-10 09:00","2019","04","10","09:00","4.4","","-4.5","","52","","","","14","","11","","24.1","","97.23","","","","","","NA"
"-117.16","58.62","HIGH LEVEL A","3073141","2019-04-10 10:00","2019","04","10","10:00","6.5","","-5.0","","44","","","","17","","7","","24.1","","97.22","","","","","","NA"
"-117.16","58.62","HIGH LEVEL A","3073141","2019-04-10 11:00","2019","04","10","11:00","8.9","","-4.5","","38","","","","14","","6","","24.1","","97.20","","","","","","Mainly Clear"
"-117.16","58.62","HIGH LEVEL A","3073141","2019-04-10 12:00","2019","04","10","12:00","11.7","","-3.9","","33","","","","18","","8","","24.1","","97.17","","","","","","NA"
"-117.16","58.62","HIGH LEVEL A","3073141","2019-04-10 13:00","2019","04","10","13:00","13.4","","-3.7","","30","","","","21","","10","","24.1","","97.13","","","","","","NA"
"-117.16","58.62","HIGH LEVEL A","3073141","2019-04-10 14:00","2019","04","10","14:00","14.9","","-4.7","","25","","","","17","","3","","24.1","","97.10","","","","","","Mainly Clear"
"-117.16","58.62","HIGH LEVEL A","3073141","2019-04-10 15:00","2019","04","10","15:00","14.3","","-6.0","","24","","","","16","","14","","24.1","","97.09","","","","","","NA"
"-117.16","58.62","HIGH LEVEL A","3073141","2019-04-10 16:00","2019","04","10","16:00","16.0","","-6.6","","21","","","","30","","4","","24.1","","97.06","","","","","","NA"
"-117.16","58.62","HIGH LEVEL A","3073141","2019-04-10 17:00","2019","04","10","17:00","15.0","","-7.6","","20","","","","26","","4","","24.1","","97.06","","","","","","Mostly Cloudy"
"-117.16","58.62","HIGH LEVEL A","3073141","2019-04-10 18:00","2019","04","10","18:00","13.3","","-6.2","","25","","","","36","","1","","24.1","","97.07","","","","","","NA"
"-117.16","58.62","HIGH LEVEL A","3073141","2019-04-10 19:00","2019","04","10","19:00","12.9","","-4.7","","29","","","","13","","13","","24.1","","97.08","","","","","","NA"
"-117.16","58.62","HIGH LEVEL A","3073141","2019-04-10 20:00","2019","04","10","20:00","10.8","","-3.9","","35","","","","15","","5","","24.1","","97.10","","","","","","Mostly Cloudy"
"-117.16","58.62","HIGH LEVEL A","3073141","2019-04-10 21:00","2019","04","10","21:00","9.6","","-3.7","","39","","","","17","","9","","24.1","","97.12","","","","","","NA"
"-117.16","58.62","HIGH LEVEL A","3073141","2019-04-10 22:00","2019","04","10","22:00"
"-117.16","58.62","HIGH LEVEL A","3073141","2019-04-10 23:00","2019","04","10","23:00"
"-117.16","58.62","HIGH LEVEL A","3073141","2019-04-11 00:00","2019","04","11","00:00"
"-117.16","58.62","HIGH LEVEL A","3073141","2019-04-11 01:00","2019","04","11","01:00"
"-117.16","58.62","HIGH LEVEL A","3073141","2019-04-11 02:00","2019","04","11","02:00"
"-117.16","58.62","HIGH LEVEL A","3073141","2019-04-11 03:00","2019","04","11","03:00"
"-117.16","58.62","HIGH LEVEL A","3073141","2019-04-11 04:00","2019","04","11","04:00"
"-117.16","58.62","HIGH LEVEL A","3073141","2019-04-11 05:00","2019","04","11","05:00"
"-117.16","58.62","HIGH LEVEL A","3073141","2019-04-11 06:00","2019","04","11","06:00","-0.6","","-3.6","","80","","","","2","","4","","24.1","","97.29","","","","-2","","NA"
"-117.16","58.62","HIGH LEVEL A","3073141","2019-04-11 07:00","2019","04","11","07:00","0.0","","-2.9","","81","","","","36","","1","","24.1","","97.31","","","","0","","NA"
"-117.16","58.62","HIGH LEVEL A","3073141","2019-04-11 08:00","2019","04","11","08:00","4.3","","-1.7","","65","","","","1","","5","","24.1","","97.33","","","","","","Mostly Cloudy"
"-117.16","58.62","HIGH LEVEL A","3073141","2019-04-11 09:00","2019","04","11","09:00","7.3","","-1.9","","52","","","","1","","5","","24.1","","97.35","","","","","","NA"
"-117.16","58.62","HIGH LEVEL A","3073141","2019-04-11 10:00","2019","04","11","10:00","9.4","","-2.4","","43","","","","3","","4","","24.1","","97.36","","","","","","NA"
"-117.16","58.62","HIGH LEVEL A","3073141","2019-04-11 11:00","2019","04","11","11:00","11.7","","-2.2","","38","","","","11","","7","","24.1","","97.36","","","","","","Mainly Clear"
"-117.16","58.62","HIGH LEVEL A","3073141","2019-04-11 12:00","2019","04","11","12:00","12.6","","-2.6","","35","","","","7","","10","","24.1","","97.35","","","","","","NA"
"-117.16","58.62","HIGH LEVEL A","3073141","2019-04-11 13:00","2019","04","11","13:00","13.3","","-3.0","","32","","","","27","","5","","24.1","","97.34","","","","","","NA"
"-117.16","58.62","HIGH LEVEL A","3073141","2019-04-11 14:00","2019","04","11","14:00","14.4","","-3.0","","30","","","","28","","3","","24.1","","97.33","","","","","","Mostly Cloudy"
"-117.16","58.62","HIGH LEVEL A","3073141","2019-04-11 15:00","2019","04","11","15:00","15.3","","-4.9","","24","","","","20","","11","","24.1","","97.32","","","","","","NA"
"-117.16","58.62","HIGH LEVEL A","3073141","2019-04-11 16:00","2019","04","11","16:00","14.3","","-5.2","","25","","","","20","","8","","24.1","","97.31","","","","","","NA"
"-117.16","58.62","HIGH LEVEL A","3073141","2019-04-11 17:00","2019","04","11","17:00","14.3","","-5.0","","26","","","","35","","14","","24.1","","97.32","","","","","","Mostly Cloudy"
"-117.16","58.62","HIGH LEVEL A","3073141","2019-04-11 18:00","2019","04","11","18:00","13.8","","-2.9","","31","","","","36","","10","","24.1","","97.31","","","","","","NA"
"-117.16","58.62","HIGH LEVEL A","3073141","2019-04-11 19:00","2019","04","11","19:00","13.8","","-3.4","","30","","","","1","","7","","24.1","","97.32","","","","","","NA"
"-117.16","58.62","HIGH LEVEL A","3073141","2019-04-11 20:00","2019","04","11","20:00","9.5","","-3.2","","41","","","","3","","4","","24.1","","97.35","","","","","","Mainly Clear"
"-117.16","58.62","HIGH LEVEL A","3073141","2019-04-11 21:00","2019","04","11","21:00","6.3","","-2.9","","52","","","","31","","4","","24.1","","97.36","","","","","","NA"
"-117.16","58.62","HIGH LEVEL A","3073141","2019-04-11 22:00","2019","04","11","22:00"
"-117.16","58.62","HIGH LEVEL A","3073141","2019-04-11 23:00","2019","04","11","23:00"
"-117.16","58.62","HIGH LEVEL A","3073141","2019-04-12 00:00","2019","04","12","00:00"
"-117.16","58.62","HIGH LEVEL A","3073141","2019-04-12 01:00","2019","04","12","01:00"
"-117.16","58.62","HIGH LEVEL A","3073141","2019-04-12 02:00","2019","04","12","02:00"
"-117.16","58.62","HIGH LEVEL A","3073141","2019-04-12 03:00","2019","04","12","03:00"
"-117.16","58.62","HIGH LEVEL A","3073141","2019-04-12 04:00","2019","04","12","04:00"
"-117.16","58.62","HIGH LEVEL A","3073141","2019-04-12 05:00","2019","04","12","05:00"
"-117.16","58.62","HIGH LEVEL A","3073141","2019-04-12 06:00","2019","04","12","06:00","-1.0","","-2.7","","88","","","","14","","3","","24.1","","97.23","","","","-2","","NA"
"-117.16","58.62","HIGH LEVEL A","3073141","2019-04-12 07:00","2019","04","12","07:00","0.3","","-1.6","","87","","","","16","","5","","24.1","","97.19","","","","","","NA"
"-117.16","58.62","HIGH LEVEL A","3073141","2019-04-12 08:00","2019","04","12","08:00","3.8","","0.9","","82","","","","17","","12","","24.1","","97.14","","","","","","Mainly Clear"
"-117.16","58.62","HIGH LEVEL A","3073141","2019-04-12 09:00","2019","04","12","09:00","5.4","","1.0","","73","","","","18","","10","","24.1","","97.09","","","","","","NA"
"-117.16","58.62","HIGH LEVEL A","3073141","2019-04-12 10:00","2019","04","12","10:00","7.5","","1.2","","64","","","","14","","10","","24.1","","97.00","","","","","","NA"
"-117.16","58.62","HIGH LEVEL A","3073141","2019-04-12 11:00","2019","04","12","11:00","10.0","","1.5","","55","","","","16","","13","","24.1","","96.90","","","","","","Mainly Clear"
"-117.16","58.62","HIGH LEVEL A","3073141","2019-04-12 12:00","2019","04","12","12:00","12.0","","1.3","","48","","","","13","","17","","24.1","","96.83","","","","","","NA"
"-117.16","58.62","HIGH LEVEL A","3073141","2019-04-12 13:00","2019","04","12","13:00","12.8","","0.5","","43","","","","15","","17","","24.1","","96.74","","","","","","NA"
"-117.16","58.62","HIGH LEVEL A","3073141","2019-04-12 14:00","2019","04","12","14:00","13.3","","-0.5","","39","","","","16","","10","","24.1","","96.65","","","","","","Mainly Clear"
"-117.16","58.62","HIGH LEVEL A","3073141","2019-04-12 15:00","2019","04","12","15:00","13.8","","-0.7","","37","","","","13","","9","","24.1","","96.57","","","","","","NA"
"-117.16","58.62","HIGH LEVEL A","3073141","2019-04-12 16:00","2019","04","12","16:00","14.2","","-1.4","","34","","","","19","","5","","24.1","","96.48","","","","","","NA"
"-117.16","58.62","HIGH LEVEL A","3073141","2019-04-12 17:00","2019","04","12","17:00","14.3","","-2.7","","31","","","","16","","18","","24.1","","96.41","","","","","","Mostly Cloudy"
"-117.16","58.62","HIGH LEVEL A","3073141","2019-04-12 18:00","2019","04","12","18:00","12.2","","0.0","","43","","","","20","","15","","24.1","","96.37","","","","","","NA"
"-117.16","58.62","HIGH LEVEL A","3073141","2019-04-12 19:00","2019","04","12","19:00","11.0","","-0.3","","46","","","","19","","8","","24.1","","96.32","","","","","","NA"
"-117.16","58.62","HIGH LEVEL A","3073141","2019-04-12 20:00","2019","04","12","20:00","9.6","","-0.5","","49","","","","16","","7","","24.1","","96.28","","","","","","Mostly Cloudy"
"-117.16","58.62","HIGH LEVEL A","3073141","2019-04-12 21:00","2019","04","12","21:00","8.7","","-0.3","","53","","","","16","","6","","24.1","","96.26","","","","","","NA"
"-117.16","58.62","HIGH LEVEL A","3073141","2019-04-12 22:00","2019","04","12","22:00"
"-117.16","58.62","HIGH LEVEL A","3073141","2019-04-12 23:00","2019","04","12","23:00"
"-117.16","58.62","HIGH LEVEL A","3073141","2019-04-13 00:00","2019","04","13","00:00"
"-117.16","58.62","HIGH LEVEL A","3073141","2019-04-13 01:00","2019","04","13","01:00"
"-117.16","58.62","HIGH LEVEL A","3073141","2019-04-13 02:00","2019","04","13","02:00"
"-117.16","58.62","HIGH LEVEL A","3073141","2019-04-13 03:00","2019","04","13","03:00"
"-117.16","58.62","HIGH LEVEL A","3073141","2019-04-13 04:00","2019","04","13","04:00"
"-117.16","58.62","HIGH LEVEL A","3073141","2019-04-13 05:00","2019","04","13","05:00"
"-117.16","58.62","HIGH LEVEL A","3073141","2019-04-13 06:00","2019","04","13","06:00","-1.1","","-3.0","","87","","","","36","","2","","24.1","","95.83","","","","-2","","NA"
"-117.16","58.62","HIGH LEVEL A","3073141","2019-04-13 07:00","2019","04","13","07:00","-1.2","","-2.9","","88","","","","0","","1","","24.1","","95.81","","","","-2","","NA"
"-117.16","58.62","HIGH LEVEL A","3073141","2019-04-13 08:00","2019","04","13","08:00","2.6","","-1.7","","74","","","","14","","7","","24.1","","95.79","","","","","","Mainly Clear"
"-117.16","58.62","HIGH LEVEL A","3073141","2019-04-13 09:00","2019","04","13","09:00","5.3","","-1.2","","63","","","","16","","3","","24.1","","95.78","","","","","","NA"
"-117.16","58.62","HIGH LEVEL A","3073141","2019-04-13 10:00","2019","04","13","10:00","7.3","","-0.7","","57","","","","25","","5","","24.1","","95.75","","","","","","NA"
"-117.16","58.62","HIGH LEVEL A","3073141","2019-04-13 11:00","2019","04","13","11:00","10.1","","-0.6","","47","","","","21","","8","","24.1","","95.71","","","","","","Mainly Clear"
"-117.16","58.62","HIGH LEVEL A","3073141","2019-04-13 12:00","2019","04","13","12:00","11.7","","-1.8","","39","","","","28","","16","","24.1","","95.69","","","","","","NA"
"-117.16","58.62","HIGH LEVEL A","3073141","2019-04-13 13:00","2019","04","13","13:00","11.7","","-4.8","","31","","","","36","","5","","24.1","","95.65","","","","","","NA"
"-117.16","58.62","HIGH LEVEL A","3073141","2019-04-13 14:00","2019","04","13","14:00","12.9","","-4.3","","30","","","","21","","8","","24.1","","95.62","","","","","","Mostly Cloudy"
"-117.16","58.62","HIGH LEVEL A","3073141","2019-04-13 15:00","2019","04","13","15:00","11.2","","-4.4","","33","","","","17","","12","","24.1","","95.61","","","","","","NA"
"-117.16","58.62","HIGH LEVEL A","3073141","2019-04-13 16:00","2019","04","13","16:00","11.9","","-5.0","","30","","","","17","","11","","24.1","","95.59","","","","","","NA"
"-117.16","58.62","HIGH LEVEL A","3073141","2019-04-13 17:00","2019","04","13","17:00","12.2","","-5.6","","28","","","","17","","9","","24.1","","95.58","","","","","","Mostly Cloudy"
"-117.16","58.62","HIGH LEVEL A","3073141","2019-04-13 18:00","2019","04","13","18:00","10.0","","-0.8","","47","","","","5","","11","","24.1","","95.60","","","","","","NA"
"-117.16","58.62","HIGH LEVEL A","3073141","2019-04-13 19:00","2019","04","13","19:00","9.2","","-0.9","","49","","","","32","","4","","24.1","","95.59","","","","","","NA"
"-117.16","58.62","HIGH LEVEL A","3073141","2019-04-13 20:00","2019","04","13","20:00","7.5","","-1.1","","55","","","","9","","4","","24.1","","95.57","","","","","","Mostly Cloudy"
"-117.16","58.62","HIGH LEVEL A","3073141","2019-04-13 21:00","2019","04","13","21:00","5.1","","-0.9","","65","","","","27","","3","","24.1","","95.56","","","","","","NA"
"-117.16","58.62","HIGH LEVEL A","3073141","2019-04-13 22:00","2019","04","13","22:00"
"-117.16","58.62","HIGH LEVEL A","3073141","2019-04-13 23:00","2019","04","13","23:00"
"-117.16","58.62","HIGH LEVEL A","3073141","2019-04-14 00:00","2019","04","14","00:00"
"-117.16","58.62","HIGH LEVEL A","3073141","2019-04-14 01:00","2019","04","14","01:00"
"-117.16","58.62","HIGH LEVEL A","3073141","2019-04-14 02:00","2019","04","14","02:00"
"-117.16","58.62","HIGH LEVEL A","3073141","2019-04-14 03:00","2019","04","14","03:00"
"-117.16","58.62","HIGH LEVEL A","3073141","2019-04-14 04:00","2019","04","14","04:00"
"-117.16","58.62","HIGH LEVEL A","3073141","2019-04-14 05:00","2019","04","14","05:00"
"-117.16","58.62","HIGH LEVEL A","3073141","2019-04-14 06:00","2019","04","14","06:00","1.8","","-0.9","","82","","","","35","","22","","24.1","","95.73","","","","","","NA"
"-117.16","58.62","HIGH LEVEL A","3073141","2019-04-14 07:00","2019","04","14","07:00","0.9","","-0.9","","88","","","","35","","24","","24.1","","95.77","","","","","","NA"
"-117.16","58.62","HIGH LEVEL A","3073141","2019-04-14 08:00","2019","04","14","08:00","2.4","","0.3","","86","","","","35","","25","","24.1","","95.81","","","","","","Mostly Cloudy"
"-117.16","58.62","HIGH LEVEL A","3073141","2019-04-14 09:00","2019","04","14","09:00","4.6","","1.1","","78","","","","34","","25","","24.1","","95.85","","","","","","NA"
"-117.16","58.62","HIGH LEVEL A","3073141","2019-04-14 10:00","2019","04","14","10:00","6.0","","1.2","","71","","","","35","","27","","24.1","","95.88","","","","","","NA"
"-117.16","58.62","HIGH LEVEL A","3073141","2019-04-14 11:00","2019","04","14","11:00","6.8","","1.2","","68","","","","34","","26","","24.1","","95.92","","","","","","Mostly Cloudy"
"-117.16","58.62","HIGH LEVEL A","3073141","2019-04-14 12:00","2019","04","14","12:00","8.1","","1.3","","62","","","","35","","26","","24.1","","95.96","","","","","","NA"
"-117.16","58.62","HIGH LEVEL A","3073141","2019-04-14 13:00","2019","04","14","13:00","7.8","","0.9","","62","","","","35","","27","","24.1","","95.99","","","","","","NA"
"-117.16","58.62","HIGH LEVEL A","3073141","2019-04-14 14:00","2019","04","14","14:00","8.1","","0.7","","59","","","","35","","29","","24.1","","96.03","","","","","","Mostly Cloudy"
"-117.16","58.62","HIGH LEVEL A","3073141","2019-04-14 15:00","2019","04","14","15:00","9.0","","-0.1","","53","","","","34","","27","","24.1","","96.06","","","","","","NA"
"-117.16","58.62","HIGH LEVEL A","3073141","2019-04-14 16:00","2019","04","14","16:00","8.6","","-1.7","","48","","","","34","","27","","24.1","","96.10","","","","","","NA"
"-117.16","58.62","HIGH LEVEL A","3073141","2019-04-14 17:00","2019","04","14","17:00","7.9","","-1.1","","53","","","","36","","21","","24.1","","96.12","","","","","","Mostly Cloudy"
"-117.16","58.62","HIGH LEVEL A","3073141","2019-04-14 18:00","2019","04","14","18:00","7.6","","-0.8","","55","","","","1","","17","","24.1","","96.15","","","","","","NA"
"-117.16","58.62","HIGH LEVEL A","3073141","2019-04-14 19:00","2019","04","14","19:00","6.7","","-0.5","","60","","","","2","","10","","24.1","","96.19","","","","","","NA"
"-117.16","58.62","HIGH LEVEL A","3073141","2019-04-14 20:00","2019","04","14","20:00","5.3","","-1.0","","64","","","","2","","9","","24.1","","96.23","","","","","","Mainly Clear"
"-117.16","58.62","HIGH LEVEL A","3073141","2019-04-14 21:00","2019","04","14","21:00","3.1","","-1.5","","72","","","","36","","4","","24.1","","96.28","","","","","","NA"
"-117.16","58.62","HIGH LEVEL A","3073141","2019-04-14 22:00","2019","04","14","22:00"
"-117.16","58.62","HIGH LEVEL A","3073141","2019-04-14 23:00","2019","04","14","23:00"
"-117.16","58.62","HIGH LEVEL A","3073141","2019-04-15 00:00","2019","04","15","00:00"
"-117.16","58.62","HIGH LEVEL A","3073141","2019-04-15 01:00","2019","04","15","01:00"
"-117.16","58.62","HIGH LEVEL A","3073141","2019-04-15 02:00","2019","04","15","02:00"
"-117.16","58.62","HIGH LEVEL A","3073141","2019-04-15 03:00","2019","04","15","03:00"
"-117.16","58.62","HIGH LEVEL A","3073141","2019-04-15 04:00","2019","04","15","04:00"
"-117.16","58.62","HIGH LEVEL A","3073141","2019-04-15 05:00","2019","04","15","05:00"
"-117.16","58.62","HIGH LEVEL A","3073141","2019-04-15 06:00","2019","04","15","06:00","0.0","","-2.5","","83","","","","35","","11","","24.1","","96.62","","","","-4","","NA"
"-117.16","58.62","HIGH LEVEL A","3073141","2019-04-15 07:00","2019","04","15","07:00","0.2","","-2.3","","83","","","","34","","14","","24.1","","96.66","","","","","","NA"
"-117.16","58.62","HIGH LEVEL A","3073141","2019-04-15 08:00","2019","04","15","08:00","0.9","","-2.2","","80","","","","35","","12","","24.1","","96.69","","","","","","Mostly Cloudy"
"-117.16","58.62","HIGH LEVEL A","3073141","2019-04-15 09:00","2019","04","15","09:00","1.8","","-2.6","","73","","","","2","","11","","24.1","","96.71","","","","","","NA"
"-117.16","58.62","HIGH LEVEL A","3073141","2019-04-15 10:00","2019","04","15","10:00","2.6","","-4.4","","60","","","","35","","16","","24.1","","96.72","","","","","","NA"
"-117.16","58.62","HIGH LEVEL A","3073141","2019-04-15 11:00","2019","04","15","11:00","3.0","","-4.4","","58","","","","36","","12","","24.1","","96.73","","","","","","Mostly Cloudy"
"-117.16","58.62","HIGH LEVEL A","3073141","2019-04-15 12:00","2019","04","15","12:00","4.0","","-4.4","","54","","","","32","","13","","24.1","","96.74","","","","","","NA"
"-117.16","58.62","HIGH LEVEL A","3073141","2019-04-15 13:00","2019","04","15","13:00","5.0","","-4.4","","51","","","","33","","12","","24.1","","96.72","","","","","","NA"
"-117.16","58.62","HIGH LEVEL A","3073141","2019-04-15 14:00","2019","04","15","14:00","6.2","","-4.3","","47","","","","6","","9","","24.1","","96.71","","","","","","Mostly Cloudy"
"-117.16","58.62","HIGH LEVEL A","3073141","2019-04-15 15:00","2019","04","15","15:00","7.3","","-4.6","","42","","","","31","","9","","24.1","","96.69","","","","","","NA"
"-117.16","58.62","HIGH LEVEL A","3073141","2019-04-15 16:00","2019","04","15","16:00","8.3","","-4.3","","41","","","","35","","12","","24.1","","96.69","","","","","","NA"
"-117.16","58.62","HIGH LEVEL A","3073141","2019-04-15 17:00","2019","04","15","17:00","7.7","","-5.0","","40","","","","36","","2","","24.1","","96.69","","","","","","Mainly Clear"
"-117.16","58.62","HIGH LEVEL A","3073141","2019-04-15 18:00","2019","04","15","18:00","6.9","","-5.0","","42","","","","6","","14","","24.1","","96.69","","","","","","NA"
"-117.16","58.62","HIGH LEVEL A","3073141","2019-04-15 19:00","2019","04","15","19:00","6.2","","-4.7","","45","","","","5","","10","","24.1","","96.69","","","","","","NA"
"-117.16","58.62","HIGH LEVEL A","3073141","2019-04-15 20:00","2019","04","15","20:00","4.7","","-5.1","","49","","","","8","","9","","24.1","","96.69","","","","","","Clear"
"-117.16","58.62","HIGH LEVEL A","3073141","2019-04-15 21:00","2019","04","15","21:00","2.1","","-5.3","","58","","","","10","","8","","24.1","","96.71","","","","","","NA"
"-117.16","58.62","HIGH LEVEL A","3073141","2019-04-15 22:00","2019","04","15","22:00"
"-117.16","58.62","HIGH LEVEL A","3073141","2019-04-15 23:00","2019","04","15","23:00"
"-117.16","58.62","HIGH LEVEL A","3073141","2019-04-16 00:00","2019","04","16","00:00"
"-117.16","58.62","HIGH LEVEL A","3073141","2019-04-16 01:00","2019","04","16","01:00"
"-117.16","58.62","HIGH LEVEL A","3073141","2019-04-16 02:00","2019","04","16","02:00"
"-117.16","58.62","HIGH LEVEL A","3073141","2019-04-16 03:00","2019","04","16","03:00"
"-117.16","58.62","HIGH LEVEL A","3073141","2019-04-16 04:00","2019","04","16","04:00"
"-117.16","58.62","HIGH LEVEL A","3073141","2019-04-16 05:00","2019","04","16","05:00"
"-117.16","58.62","HIGH LEVEL A","3073141","2019-04-16 06:00","2019","04","16","06:00","-1.0","","-4.7","","76","","","","12","","15","","24.1","","96.77","","","","-6","","NA"
"-117.16","58.62","HIGH LEVEL A","3073141","2019-04-16 07:00","2019","04","16","07:00","-0.8","","-4.4","","77","","","","13","","11","","24.1","","96.75","","","","-5","","NA"
"-117.16","58.62","HIGH LEVEL A","3073141","2019-04-16 08:00","2019","04","16","08:00","-0.6","","-4.4","","75","","","","13","","13","","24.1","","96.73","","","","-5","","Mostly Cloudy"
"-117.16","58.62","HIGH LEVEL A","3073141","2019-04-16 09:00","2019","04","16","09:00","1.8","","-3.6","","67","","","","14","","21","","24.1","","96.70","","","","","","NA"
"-117.16","58.62","HIGH LEVEL A","3073141","2019-04-16 10:00","2019","04","16","10:00","3.2","","-3.0","","64","","","","15","","18","","24.1","","96.66","","","","","","NA"
"-117.16","58.62","HIGH LEVEL A","3073141","2019-04-16 11:00","2019","04","16","11:00","5.3","","-2.1","","59","","","","12","","18","","24.1","","96.61","","","","","","Mainly Clear"
"-117.16","58.62","HIGH LEVEL A","3073141","2019-04-16 12:00","2019","04","16","12:00","8.0","","-1.2","","52","","","","15","","16","","24.1","","96.53","","","","","","NA"
"-117.16","58.62","HIGH LEVEL A","3073141","2019-04-16 13:00","2019","04","16","13:00","10.7","","-1.1","","44","","","","15","","12","","24.1","","96.45","","","","","","NA"
"-117.16","58.62","HIGH LEVEL A","3073141","2019-04-16 14:00","2019","04","16","14:00","11.6","","-1.7","","39","","","","15","","17","","24.1","","96.39","","","","","","Mostly Cloudy"
"-117.16","58.62","HIGH LEVEL A","3073141","2019-04-16 15:00","2019","04","16","15:00","11.7","","0.0","","44","","","","13","","23","","24.1","","96.37","","","","","","NA"
"-117.16","58.62","HIGH LEVEL A","3073141","2019-04-16 16:00","2019","04","16","16:00","11.0","","-1.6","","41","","","","12","","16","","24.1","","96.33","","","","","","NA"
"-117.16","58.62","HIGH LEVEL A","3073141","2019-04-16 17:00","2019","04","16","17:00","11.4","","-1.2","","41","","","","13","","19","","24.1","","96.31","","","","","","Mainly Clear"
"-117.16","58.62","HIGH LEVEL A","3073141","2019-04-16 18:00","2019","04","16","18:00","12.2","","-2.4","","36","","","","14","","18","","24.1","","96.28","","","","","","NA"
"-117.16","58.62","HIGH LEVEL A","3073141","2019-04-16 19:00","2019","04","16","19:00","9.6","","-0.3","","50","","","","12","","21","","24.1","","96.27","","","","","","NA"
"-117.16","58.62","HIGH LEVEL A","3073141","2019-04-16 20:00","2019","04","16","20:00","7.9","","0.2","","58","","","","11","","23","","24.1","","96.24","","","","","","Mainly Clear"
"-117.16","58.62","HIGH LEVEL A","3073141","2019-04-16 21:00","2019","04","16","21:00","6.8","","0.3","","63","","","","12","","10","","24.1","","96.26","","","","","","NA"
"-117.16","58.62","HIGH LEVEL A","3073141","2019-04-16 22:00","2019","04","16","22:00"
"-117.16","58.62","HIGH LEVEL A","3073141","2019-04-16 23:00","2019","04","16","23:00"
"-117.16","58.62","HIGH LEVEL A","3073141","2019-04-17 00:00","2019","04","17","00:00"
"-117.16","58.62","HIGH LEVEL A","3073141","2019-04-17 01:00","2019","04","17","01:00"
"-117.16","58.62","HIGH LEVEL A","3073141","2019-04-17 02:00","2019","04","17","02:00"
"-117.16","58.62","HIGH LEVEL A","3073141","2019-04-17 03:00","2019","04","17","03:00"
"-117.16","58.62","HIGH LEVEL A","3073141","2019-04-17 04:00","2019","04","17","04:00"
"-117.16","58.62","HIGH LEVEL A","3073141","2019-04-17 05:00","2019","04","17","05:00"
"-117.16","58.62","HIGH LEVEL A","3073141","2019-04-17 06:00","2019","04","17","06:00","-2.4","","-3.2","","94","","","","36","","3","","24.1","","96.23","","","","-4","","NA"
"-117.16","58.62","HIGH LEVEL A","3073141","2019-04-17 07:00","2019","04","17","07:00","0.0","","-1.1","","92","","","","15","","5","","24.1","","96.22","","","","-2","","NA"
"-117.16","58.62","HIGH LEVEL A","3073141","2019-04-17 08:00","2019","04","17","08:00","3.7","","-1.5","","69","","","","17","","8","","24.1","","96.23","","","","","","Mainly Clear"
"-117.16","58.62","HIGH LEVEL A","3073141","2019-04-17 09:00","2019","04","17","09:00","6.2","","-1.2","","59","","","","16","","10","","24.1","","96.22","","","","","","NA"
"-117.16","58.62","HIGH LEVEL A","3073141","2019-04-17 10:00","2019","04","17","10:00","7.4","","-1.2","","55","","","","17","","8","","24.1","","96.24","","","","","","NA"
"-117.16","58.62","HIGH LEVEL A","3073141","2019-04-17 11:00","2019","04","17","11:00","9.4","","-1.0","","48","","","","24","","5","","24.1","","96.26","","","","","","Mostly Cloudy"
"-117.16","58.62","HIGH LEVEL A","3073141","2019-04-17 12:00","2019","04","17","12:00","11.4","","-1.1","","42","","","","18","","8","","24.1","","96.30","","","","","","NA"
"-117.16","58.62","HIGH LEVEL A","3073141","2019-04-17 13:00","2019","04","17","13:00","13.0","","-1.6","","36","","","","16","","8","","24.1","","96.31","","","","","","NA"
"-117.16","58.62","HIGH LEVEL A","3073141","2019-04-17 14:00","2019","04","17","14:00","13.4","","-1.9","","34","","","","31","","11","","24.1","","96.37","","","","","","Mostly Cloudy"
"-117.16","58.62","HIGH LEVEL A","3073141","2019-04-17 15:00","2019","04","17","15:00","15.4","","-3.0","","28","","","","35","","19","","24.1","","96.41","","","","","","NA"
"-117.16","58.62","HIGH LEVEL A","3073141","2019-04-17 16:00","2019","04","17","16:00","13.6","","-0.1","","39","","","","33","","16","","24.1","","96.50","","","","","","NA"
"-117.16","58.62","HIGH LEVEL A","3073141","2019-04-17 17:00","2019","04","17","17:00","13.2","","0.1","","40","","","","34","","21","","24.1","","96.66","","","","","","Mostly Cloudy"
"-117.16","58.62","HIGH LEVEL A","3073141","2019-04-17 18:00","2019","04","17","18:00","13.9","","-2.6","","32","","","","34","","13","","24.1","","96.69","","","","","","NA"
"-117.16","58.62","HIGH LEVEL A","3073141","2019-04-17 19:00","2019","04","17","19:00","11.2","","-2.1","","39","","","","33","","11","","24.1","","96.76","","","","","","NA"
"-117.16","58.62","HIGH LEVEL A","3073141","2019-04-17 20:00","2019","04","17","20:00","10.9","","-2.2","","40","","","","35","","11","","24.1","","96.83","","","","","","Mainly Clear"
"-117.16","58.62","HIGH LEVEL A","3073141","2019-04-17 21:00","2019","04","17","21:00","6.9","","-2.3","","52","","","","20","","3","","24.1","","96.88","","","","","","NA"
"-117.16","58.62","HIGH LEVEL A","3073141","2019-04-17 22:00","2019","04","17","22:00"
"-117.16","58.62","HIGH LEVEL A","3073141","2019-04-17 23:00","2019","04","17","23:00"
"-117.16","58.62","HIGH LEVEL A","3073141","2019-04-18 00:00","2019","04","18","00:00"
"-117.16","58.62","HIGH LEVEL A","3073141","2019-04-18 01:00","2019","04","18","01:00"
"-117.16","58.62","HIGH LEVEL A","3073141","2019-04-18 02:00","2019","04","18","02:00"
"-117.16","58.62","HIGH LEVEL A","3073141","2019-04-18 03:00","2019","04","18","03:00"
"-117.16","58.62","HIGH LEVEL A","3073141","2019-04-18 04:00","2019","04","18","04:00"
"-117.16","58.62","HIGH LEVEL A","3073141","2019-04-18 05:00","2019","04","18","05:00"
"-117.16","58.62","HIGH LEVEL A","3073141","2019-04-18 06:00","2019","04","18","06:00","2.0","","-2.4","","73","","","","18","","5","","24.1","","96.78","","","","","","NA"
"-117.16","58.62","HIGH LEVEL A","3073141","2019-04-18 07:00","2019","04","18","07:00","1.4","","-1.2","","83","","","","27","","5","","24.1","","96.78","","","","","","NA"
"-117.16","58.62","HIGH LEVEL A","3073141","2019-04-18 08:00","2019","04","18","08:00","2.5","","-2.1","","72","","","","4","","4","","24.1","","96.72","","","","","","Mostly Cloudy"
"-117.16","58.62","HIGH LEVEL A","3073141","2019-04-18 09:00","2019","04","18","09:00","6.0","","-1.1","","60","","","","20","","3","","24.1","","96.59","","","","","","NA"
"-117.16","58.62","HIGH LEVEL A","3073141","2019-04-18 10:00","2019","04","18","10:00","10.0","","0.5","","52","","","","16","","21","","24.1","","96.50","","","","","","NA"
"-117.16","58.62","HIGH LEVEL A","3073141","2019-04-18 11:00","2019","04","18","11:00","12.1","","-1.0","","40","","","","20","","10","","24.1","","96.40","","","","","","Mainly Clear"
"-117.16","58.62","HIGH LEVEL A","3073141","2019-04-18 12:00","2019","04","18","12:00","14.1","","-2.1","","33","","","","23","","10","","24.1","","96.34","","","","","","NA"
"-117.16","58.62","HIGH LEVEL A","3073141","2019-04-18 13:00","2019","04","18","13:00","14.2","","-3.9","","28","","","","27","","15","","24.1","","96.28","","","","","","NA"
"-117.16","58.62","HIGH LEVEL A","3073141","2019-04-18 14:00","2019","04","18","14:00","14.2","","-3.3","","29","","","","28","","15","","24.1","","96.28","","","","","","Mostly Cloudy"
"-117.16","58.62","HIGH LEVEL A","3073141","2019-04-18 15:00","2019","04","18","15:00","14.6","","-5.0","","25","","","","27","","12","","24.1","","96.26","","","","","","NA"
"-117.16","58.62","HIGH LEVEL A","3073141","2019-04-18 16:00","2019","04","18","16:00","15.2","","-5.1","","24","","","","30","","14","","24.1","","96.24","","","","","","NA"
"-117.16","58.62","HIGH LEVEL A","3073141","2019-04-18 17:00","2019","04","18","17:00","15.1","","-5.1","","24","","","","29","","11","","24.1","","96.19","","","","","","Mostly Cloudy"
"-117.16","58.62","HIGH LEVEL A","3073141","2019-04-18 18:00","2019","04","18","18:00","15.3","","-5.4","","23","","","","32","","15","","24.1","","96.13","","","","","","NA"
"-117.16","58.62","HIGH LEVEL A","3073141","2019-04-18 19:00","2019","04","18","19:00","13.6","","-4.9","","27","","","","28","","9","","24.1","","96.11","","","","","","NA"
"-117.16","58.62","HIGH LEVEL A","3073141","2019-04-18 20:00","2019","04","18","20:00","11.5","","-4.3","","33","","","","28","","9","","24.1","","96.10","","","","","","Mostly Cloudy"
"-117.16","58.62","HIGH LEVEL A","3073141","2019-04-18 21:00","2019","04","18","21:00","10.9","","-4.5","","34","","","","25","","5","","24.1","","96.08","","","","","","NA"
"-117.16","58.62","HIGH LEVEL A","3073141","2019-04-18 22:00","2019","04","18","22:00"
"-117.16","58.62","HIGH LEVEL A","3073141","2019-04-18 23:00","2019","04","18","23:00"
"-117.16","58.62","HIGH LEVEL A","3073141","2019-04-19 00:00","2019","04","19","00:00"
"-117.16","58.62","HIGH LEVEL A","3073141","2019-04-19 01:00","2019","04","19","01:00"
"-117.16","58.62","HIGH LEVEL A","3073141","2019-04-19 02:00","2019","04","19","02:00"
"-117.16","58.62","HIGH LEVEL A","3073141","2019-04-19 03:00","2019","04","19","03:00"
"-117.16","58.62","HIGH LEVEL A","3073141","2019-04-19 04:00","2019","04","19","04:00"
"-117.16","58.62","HIGH LEVEL A","3073141","2019-04-19 05:00","2019","04","19","05:00"
"-117.16","58.62","HIGH LEVEL A","3073141","2019-04-19 06:00","2019","04","19","06:00","6.7","","-4.9","","43","","","","22","","12","","24.1","","96.16","","","","","","NA"
"-117.16","58.62","HIGH LEVEL A","3073141","2019-04-19 07:00","2019","04","19","07:00","7.8","","-5.6","","38","","","","22","","8","","24.1","","96.17","","","","","","NA"
"-117.16","58.62","HIGH LEVEL A","3073141","2019-04-19 08:00","2019","04","19","08:00","8.5","","-5.5","","37","","","","30","","9","","24.1","","96.20","","","","","","Mainly Clear"
"-117.16","58.62","HIGH LEVEL A","3073141","2019-04-19 09:00","2019","04","19","09:00","9.8","","-5.3","","34","","","","31","","25","","24.1","","96.19","","","","","","NA"
"-117.16","58.62","HIGH LEVEL A","3073141","2019-04-19 10:00","2019","04","19","10:00","11.0","","-5.4","","31","","","","31","","25","","24.1","","96.20","","","","","","NA"
"-117.16","58.62","HIGH LEVEL A","3073141","2019-04-19 11:00","2019","04","19","11:00","12.1","","-6.0","","28","","","","31","","22","","24.1","","96.19","","","","","","Mainly Clear"
"-117.16","58.62","HIGH LEVEL A","3073141","2019-04-19 12:00","2019","04","19","12:00","12.7","","-7.2","","24","","","","26","","23","","24.1","","96.21","","","","","","NA"
"-117.16","58.62","HIGH LEVEL A","3073141","2019-04-19 13:00","2019","04","19","13:00","12.3","","-7.5","","24","","","","29","","20","","24.1","","96.18","","","","","","NA"
"-117.16","58.62","HIGH LEVEL A","3073141","2019-04-19 14:00","2019","04","19","14:00","13.2","","-8.8","","21","","","","28","","13","","24.1","","96.17","","","","","","Mostly Cloudy"
"-117.16","58.62","HIGH LEVEL A","3073141","2019-04-19 15:00","2019","04","19","15:00","11.9","","-10.1","","21","","","","28","","20","","24.1","","96.15","","","","","","NA"
"-117.16","58.62","HIGH LEVEL A","3073141","2019-04-19 16:00","2019","04","19","16:00","13.3","","-10.3","","18","","","","30","","16","","24.1","","96.13","","","","","","NA"
"-117.16","58.62","HIGH LEVEL A","3073141","2019-04-19 17:00","2019","04","19","17:00","14.4","","-9.2","","19","","","","31","","18","","24.1","","96.13","","","","","","Mostly Cloudy"
"-117.16","58.62","HIGH LEVEL A","3073141","2019-04-19 18:00","2019","04","19","18:00","12.6","","-9.9","","20","","","","27","","19","","24.1","","96.17","","","","","","NA"
"-117.16","58.62","HIGH LEVEL A","3073141","2019-04-19 19:00","2019","04","19","19:00","12.1","","-9.0","","22","","","","29","","15","","24.1","","96.18","","","","","","NA"
"-117.16","58.62","HIGH LEVEL A","3073141","2019-04-19 20:00","2019","04","19","20:00","10.2","","-7.6","","28","","","","29","","7","","24.1","","96.22","","","","","","Mainly Clear"
"-117.16","58.62","HIGH LEVEL A","3073141","2019-04-19 21:00","2019","04","19","21:00","7.5","","-7.1","","35","","","","25","","3","","24.1","","96.23","","","","","","NA"
"-117.16","58.62","HIGH LEVEL A","3073141","2019-04-19 22:00","2019","04","19","22:00"
"-117.16","58.62","HIGH LEVEL A","3073141","2019-04-19 23:00","2019","04","19","23:00"
"-117.16","58.62","HIGH LEVEL A","3073141","2019-04-20 00:00","2019","04","20","00:00"
"-117.16","58.62","HIGH LEVEL A","3073141","2019-04-20 01:00","2019","04","20","01:00"
"-117.16","58.62","HIGH LEVEL A","3073141","2019-04-20 02:00","2019","04","20","02:00"
"-117.16","58.62","HIGH LEVEL A","3073141","2019-04-20 03:00","2019","04","20","03:00"
"-117.16","58.62","HIGH LEVEL A","3073141","2019-04-20 04:00","2019","04","20","04:00"
"-117.16","58.62","HIGH LEVEL A","3073141","2019-04-20 05:00","2019","04","20","05:00"
"-117.16","58.62","HIGH LEVEL A","3073141","2019-04-20 06:00","2019","04","20","06:00","3.1","","-5.8","","52","","","","25","","5","","24.1","","96.74","","","","","","NA"
"-117.16","58.62","HIGH LEVEL A","3073141","2019-04-20 07:00","2019","04","20","07:00","4.3","","-5.2","","50","","","","27","","5","","24.1","","96.83","","","","","","NA"
"-117.16","58.62","HIGH LEVEL A","3073141","2019-04-20 08:00","2019","04","20","08:00","5.7","","-5.7","","44","","","","31","","22","","24.1","","96.88","","","","","","Mainly Clear"
"-117.16","58.62","HIGH LEVEL A","3073141","2019-04-20 09:00","2019","04","20","09:00","6.8","","-6.1","","39","","","","34","","14","","24.1","","96.92","","","","","","NA"
"-117.16","58.62","HIGH LEVEL A","3073141","2019-04-20 10:00","2019","04","20","10:00","7.7","","-6.8","","35","","","","30","","13","","24.1","","96.97","","","","","","NA"
"-117.16","58.62","HIGH LEVEL A","3073141","2019-04-20 11:00","2019","04","20","11:00","9.0","","-6.5","","33","","","","31","","18","","24.1","","97.00","","","","","","Mainly Clear"
"-117.16","58.62","HIGH LEVEL A","3073141","2019-04-20 12:00","2019","04","20","12:00","10.4","","-6.5","","30","","","","28","","22","","24.1","","97.03","","","","","","NA"
"-117.16","58.62","HIGH LEVEL A","3073141","2019-04-20 13:00","2019","04","20","13:00","11.4","","-6.5","","28","","","","27","","14","","24.1","","97.05","","","","","","NA"
"-117.16","58.62","HIGH LEVEL A","3073141","2019-04-20 14:00","2019","04","20","14:00","10.3","","-7.8","","27","","","","26","","13","","24.1","","97.06","","","","","","Mostly Cloudy"
"-117.16","58.62","HIGH LEVEL A","3073141","2019-04-20 15:00","2019","04","20","15:00","11.6","","-7.3","","26","","","","28","","18","","24.1","","97.07","","","","","","NA"
"-117.16","58.62","HIGH LEVEL A","3073141","2019-04-20 16:00","2019","04","20","16:00","11.6","","-8.0","","25","","","","26","","22","","24.1","","97.11","","","","","","NA"
"-117.16","58.62","HIGH LEVEL A","3073141","2019-04-20 17:00","2019","04","20","17:00","12.2","","-8.0","","24","","","","28","","17","","24.1","","97.15","","","","","","Mostly Cloudy"
"-117.16","58.62","HIGH LEVEL A","3073141","2019-04-20 18:00","2019","04","20","18:00","12.2","","-8.6","","23","","","","26","","21","","24.1","","97.19","","","","","","NA"
"-117.16","58.62","HIGH LEVEL A","3073141","2019-04-20 19:00","2019","04","20","19:00","11.3","","-8.3","","24","","","","29","","10","","24.1","","97.25","","","","","","NA"
"-117.16","58.62","HIGH LEVEL A","3073141","2019-04-20 20:00","2019","04","20","20:00","8.1","","-0.4","","55","","","","3","","12","","24.1","","97.36","","","","","","Mostly Cloudy"
"-117.16","58.62","HIGH LEVEL A","3073141","2019-04-20 21:00","2019","04","20","21:00","6.1","","-0.5","","63","","","","35","","9","","24.1","","97.44","","","","","","NA"
"-117.16","58.62","HIGH LEVEL A","3073141","2019-04-20 22:00","2019","04","20","22:00"
"-117.16","58.62","HIGH LEVEL A","3073141","2019-04-20 23:00","2019","04","20","23:00"
"-117.16","58.62","HIGH LEVEL A","3073141","2019-04-21 00:00","2019","04","21","00:00"
"-117.16","58.62","HIGH LEVEL A","3073141","2019-04-21 01:00","2019","04","21","01:00"
"-117.16","58.62","HIGH LEVEL A","3073141","2019-04-21 02:00","2019","04","21","02:00"
"-117.16","58.62","HIGH LEVEL A","3073141","2019-04-21 03:00","2019","04","21","03:00"
"-117.16","58.62","HIGH LEVEL A","3073141","2019-04-21 04:00","2019","04","21","04:00"
"-117.16","58.62","HIGH LEVEL A","3073141","2019-04-21 05:00","2019","04","21","05:00"
"-117.16","58.62","HIGH LEVEL A","3073141","2019-04-21 06:00","2019","04","21","06:00","-3.0","","-3.1","","99","","","","36","","3","","0.2","","97.72","","","","-4","","Freezing Fog"
"-117.16","58.62","HIGH LEVEL A","3073141","2019-04-21 07:00","2019","04","21","07:00","-1.4","","-1.5","","99","","","","16","","10","","0.2","","97.75","","","","-5","","Freezing Fog"
"-117.16","58.62","HIGH LEVEL A","3073141","2019-04-21 08:00","2019","04","21","08:00","-0.7","","-0.8","","99","","","","14","","4","","0.8","","97.73","","","","-2","","Freezing Fog"
"-117.16","58.62","HIGH LEVEL A","3073141","2019-04-21 09:00","2019","04","21","09:00","2.5","","0.4","","86","","","","14","","7","","24.1","","97.69","","","","","","NA"
"-117.16","58.62","HIGH LEVEL A","3073141","2019-04-21 10:00","2019","04","21","10:00","7.2","","-4.3","","44","","","","14","","13","","24.1","","97.62","","","","","","NA"
"-117.16","58.62","HIGH LEVEL A","3073141","2019-04-21 11:00","2019","04","21","11:00","10.1","","-6.3","","31","","","","14","","22","","24.1","","97.57","","","","","","Mainly Clear"
"-117.16","58.62","HIGH LEVEL A","3073141","2019-04-21 12:00","2019","04","21","12:00","12.8","","-8.6","","22","","","","13","","21","","24.1","","97.48","","","","","","NA"
"-117.16","58.62","HIGH LEVEL A","3073141","2019-04-21 13:00","2019","04","21","13:00","14.1","","-10.0","","18","","","","21","","14","","24.1","","97.42","","","","","","NA"
"-117.16","58.62","HIGH LEVEL A","3073141","2019-04-21 14:00","2019","04","21","14:00","14.7","","-9.4","","18","","","","21","","14","","24.1","","97.36","","","","","","Mostly Cloudy"
"-117.16","58.62","HIGH LEVEL A","3073141","2019-04-21 15:00","2019","04","21","15:00","14.3","","-10.8","","17","","","","17","","11","","24.1","","97.30","","","","","","NA"
"-117.16","58.62","HIGH LEVEL A","3073141","2019-04-21 16:00","2019","04","21","16:00","14.8","","-9.6","","18","","","","20","","17","","24.1","","97.25","","","","","","NA"
"-117.16","58.62","HIGH LEVEL A","3073141","2019-04-21 17:00","2019","04","21","17:00","14.9","","-8.8","","19","","","","19","","10","","24.1","","97.23","","","","","","Cloudy"
"-117.16","58.62","HIGH LEVEL A","3073141","2019-04-21 18:00","2019","04","21","18:00","13.5","","-6.7","","24","","","","18","","9","","24.1","","97.23","","","","","","NA"
"-117.16","58.62","HIGH LEVEL A","3073141","2019-04-21 19:00","2019","04","21","19:00","13.1","","-5.9","","26","","","","21","","13","","24.1","","97.24","","","","","","NA"
"-117.16","58.62","HIGH LEVEL A","3073141","2019-04-21 20:00","2019","04","21","20:00","12.4","","-5.3","","29","","","","16","","12","","24.1","","97.21","","","","","","Mostly Cloudy"
"-117.16","58.62","HIGH LEVEL A","3073141","2019-04-21 21:00","2019","04","21","21:00","10.3","","-5.3","","33","","","","16","","8","","24.1","","97.20","","","","","","NA"
"-117.16","58.62","HIGH LEVEL A","3073141","2019-04-21 22:00","2019","04","21","22:00"
"-117.16","58.62","HIGH LEVEL A","3073141","2019-04-21 23:00","2019","04","21","23:00"
"-117.16","58.62","HIGH LEVEL A","3073141","2019-04-22 00:00","2019","04","22","00:00"
"-117.16","58.62","HIGH LEVEL A","3073141","2019-04-22 01:00","2019","04","22","01:00"
"-117.16","58.62","HIGH LEVEL A","3073141","2019-04-22 02:00","2019","04","22","02:00"
"-117.16","58.62","HIGH LEVEL A","3073141","2019-04-22 03:00","2019","04","22","03:00"
"-117.16","58.62","HIGH LEVEL A","3073141","2019-04-22 04:00","2019","04","22","04:00"
"-117.16","58.62","HIGH LEVEL A","3073141","2019-04-22 05:00","2019","04","22","05:00"
"-117.16","58.62","HIGH LEVEL A","3073141","2019-04-22 06:00","2019","04","22","06:00","0.3","","-5.9","","63","","","","15","","5","","24.1","","96.83","","","","","","NA"
"-117.16","58.62","HIGH LEVEL A","3073141","2019-04-22 07:00","2019","04","22","07:00","3.0","","-4.4","","58","","","","16","","9","","24.1","","96.81","","","","","","NA"
"-117.16","58.62","HIGH LEVEL A","3073141","2019-04-22 08:00","2019","04","22","08:00","6.1","","-3.9","","49","","","","15","","14","","24.1","","96.72","","","","","","Mostly Cloudy"
"-117.16","58.62","HIGH LEVEL A","3073141","2019-04-22 09:00","2019","04","22","09:00","8.3","","-3.3","","44","","","","16","","15","","24.1","","96.63","","","","","","NA"
"-117.16","58.62","HIGH LEVEL A","3073141","2019-04-22 10:00","2019","04","22","10:00","10.6","","-2.4","","40","","","","17","","17","","24.1","","96.55","","","","","","NA"
"-117.16","58.62","HIGH LEVEL A","3073141","2019-04-22 11:00","2019","04","22","11:00","12.2","","-1.9","","37","","","","16","","19","","24.1","","96.40","","","","","","Cloudy"
"-117.16","58.62","HIGH LEVEL A","3073141","2019-04-22 12:00","2019","04","22","12:00","13.4","","-2.3","","34","","","","19","","17","","24.1","","96.28","","","","","","NA"
"-117.16","58.62","HIGH LEVEL A","3073141","2019-04-22 13:00","2019","04","22","13:00","13.8","","-2.5","","32","","","","18","","17","","24.1","","96.18","","","","","","NA"
"-117.16","58.62","HIGH LEVEL A","3073141","2019-04-22 14:00","2019","04","22","14:00","13.2","","0.0","","40","","","","19","","21","","24.1","","96.09","","","","","","Cloudy"
"-117.16","58.62","HIGH LEVEL A","3073141","2019-04-22 15:00","2019","04","22","15:00","10.0","","5.6","","74","","","","18","","22","","24.1","","96.06","","","","","","Rain"
"-117.16","58.62","HIGH LEVEL A","3073141","2019-04-22 16:00","2019","04","22","16:00","9.3","","6.4","","82","","","","17","","18","","24.1","","95.96","","","","","","Rain"
"-117.16","58.62","HIGH LEVEL A","3073141","2019-04-22 17:00","2019","04","22","17:00","9.8","","6.5","","80","","","","17","","17","","24.1","","95.86","","","","","","Mostly Cloudy"
"-117.16","58.62","HIGH LEVEL A","3073141","2019-04-22 18:00","2019","04","22","18:00","10.3","","7.3","","81","","","","17","","13","","24.1","","95.78","","","","","","NA"
"-117.16","58.62","HIGH LEVEL A","3073141","2019-04-22 19:00","2019","04","22","19:00","11.3","","6.7","","73","","","","20","","10","","24.1","","95.74","","","","","","NA"
"-117.16","58.62","HIGH LEVEL A","3073141","2019-04-22 20:00","2019","04","22","20:00","10.3","","5.7","","73","","","","15","","12","","24.1","","95.68","","","","","","Mostly Cloudy"
"-117.16","58.62","HIGH LEVEL A","3073141","2019-04-22 21:00","2019","04","22","21:00","7.4","","5.1","","85","","","","18","","4","","24.1","","95.67","","","","","","NA"
"-117.16","58.62","HIGH LEVEL A","3073141","2019-04-22 22:00","2019","04","22","22:00"
"-117.16","58.62","HIGH LEVEL A","3073141","2019-04-22 23:00","2019","04","22","23:00"
"-117.16","58.62","HIGH LEVEL A","3073141","2019-04-23 00:00","2019","04","23","00:00"
"-117.16","58.62","HIGH LEVEL A","3073141","2019-04-23 01:00","2019","04","23","01:00"
"-117.16","58.62","HIGH LEVEL A","3073141","2019-04-23 02:00","2019","04","23","02:00"
"-117.16","58.62","HIGH LEVEL A","3073141","2019-04-23 03:00","2019","04","23","03:00"
"-117.16","58.62","HIGH LEVEL A","3073141","2019-04-23 04:00","2019","04","23","04:00"
"-117.16","58.62","HIGH LEVEL A","3073141","2019-04-23 05:00","2019","04","23","05:00"
"-117.16","58.62","HIGH LEVEL A","3073141","2019-04-23 06:00","2019","04","23","06:00","7.4","","-2.9","","48","","","","30","","20","","24.1","","96.18","","","","","","NA"
"-117.16","58.62","HIGH LEVEL A","3073141","2019-04-23 07:00","2019","04","23","07:00","7.2","","-8.5","","32","","","","30","","24","","24.1","","96.25","","","","","","NA"
"-117.16","58.62","HIGH LEVEL A","3073141","2019-04-23 08:00","2019","04","23","08:00","6.6","","-9.0","","32","","","","28","","19","","24.1","","96.38","","","","","","Mostly Cloudy"
"-117.16","58.62","HIGH LEVEL A","3073141","2019-04-23 09:00","2019","04","23","09:00","7.8","","-9.6","","28","","","","28","","20","","24.1","","96.43","","","","","","NA"
"-117.16","58.62","HIGH LEVEL A","3073141","2019-04-23 10:00","2019","04","23","10:00","8.5","","-10.2","","26","","","","30","","20","","24.1","","96.45","","","","","","NA"
"-117.16","58.62","HIGH LEVEL A","3073141","2019-04-23 11:00","2019","04","23","11:00","9.9","","-9.9","","24","","","","30","","22","","24.1","","96.44","","","","","","Clear"
"-117.16","58.62","HIGH LEVEL A","3073141","2019-04-23 12:00","2019","04","23","12:00","10.5","","-10.1","","23","","","","31","","22","","24.1","","96.46","","","","","","NA"
"-117.16","58.62","HIGH LEVEL A","3073141","2019-04-23 13:00","2019","04","23","13:00","11.4","","-10.4","","21","","","","28","","31","","24.1","","96.48","","","","","","NA"
"-117.16","58.62","HIGH LEVEL A","3073141","2019-04-23 14:00","2019","04","23","14:00","12.4","","-11.2","","18","","","","31","","25","","24.1","","96.51","","","","","","Clear"
"-117.16","58.62","HIGH LEVEL A","3073141","2019-04-23 15:00","2019","04","23","15:00","13.3","","-12.5","","15","","","","31","","20","","24.1","","96.53","","","","","","NA"
"-117.16","58.62","HIGH LEVEL A","3073141","2019-04-23 16:00","2019","04","23","16:00","13.4","","-12.3","","16","","","","29","","18","","24.1","","96.55","","","","","","NA"
"-117.16","58.62","HIGH LEVEL A","3073141","2019-04-23 17:00","2019","04","23","17:00","13.4","","-12.8","","15","","","","30","","19","","24.1","","96.56","","","","","","Clear"
"-117.16","58.62","HIGH LEVEL A","3073141","2019-04-23 18:00","2019","04","23","18:00","13.0","","-13.3","","15","","","","31","","21","","24.1","","96.58","","","","","","NA"
"-117.16","58.62","HIGH LEVEL A","3073141","2019-04-23 19:00","2019","04","23","19:00","11.9","","-13.3","","16","","","","30","","20","","24.1","","96.63","","","","","","NA"
"-117.16","58.62","HIGH LEVEL A","3073141","2019-04-23 20:00","2019","04","23","20:00","10.6","","-12.5","","19","","","","29","","14","","24.1","","96.68","","","","","","Clear"
"-117.16","58.62","HIGH LEVEL A","3073141","2019-04-23 21:00","2019","04","23","21:00","7.3","","-12.1","","24","","","","31","","8","","24.1","","96.70","","","","","","NA"
"-117.16","58.62","HIGH LEVEL A","3073141","2019-04-23 22:00","2019","04","23","22:00"
"-117.16","58.62","HIGH LEVEL A","3073141","2019-04-23 23:00","2019","04","23","23:00"
"-117.16","58.62","HIGH LEVEL A","3073141","2019-04-24 00:00","2019","04","24","00:00"
"-117.16","58.62","HIGH LEVEL A","3073141","2019-04-24 01:00","2019","04","24","01:00"
"-117.16","58.62","HIGH LEVEL A","3073141","2019-04-24 02:00","2019","04","24","02:00"
"-117.16","58.62","HIGH LEVEL A","3073141","2019-04-24 03:00","2019","04","24","03:00"
"-117.16","58.62","HIGH LEVEL A","3073141","2019-04-24 04:00","2019","04","24","04:00"
"-117.16","58.62","HIGH LEVEL A","3073141","2019-04-24 05:00","2019","04","24","05:00"
"-117.16","58.62","HIGH LEVEL A","3073141","2019-04-24 06:00","2019","04","24","06:00","-5.6","","-9.5","","74","","","","36","","2","","24.1","","96.91","","","","-7","","NA"
"-117.16","58.62","HIGH LEVEL A","3073141","2019-04-24 07:00","2019","04","24","07:00","-0.6","","-8.3","","56","","","","36","","2","","24.1","","96.93","","","","-1","","NA"
"-117.16","58.62","HIGH LEVEL A","3073141","2019-04-24 08:00","2019","04","24","08:00","4.7","","-8.9","","37","","","","11","","4","","24.1","","96.97","","","","","","Mainly Clear"
"-117.16","58.62","HIGH LEVEL A","3073141","2019-04-24 09:00","2019","04","24","09:00","7.6","","-8.9","","30","","","","2","","4","","24.1","","96.99","","","","","","NA"
"-117.16","58.62","HIGH LEVEL A","3073141","2019-04-24 10:00","2019","04","24","10:00","9.2","","-8.9","","27","","","","34","","14","","24.1","","97.00","","","","","","NA"
"-117.16","58.62","HIGH LEVEL A","3073141","2019-04-24 11:00","2019","04","24","11:00","10.3","","-9.5","","24","","","","28","","11","","24.1","","97.02","","","","","","Mainly Clear"
"-117.16","58.62","HIGH LEVEL A","3073141","2019-04-24 12:00","2019","04","24","12:00","10.6","","-9.3","","24","","","","29","","18","","24.1","","97.08","","","","","","NA"
"-117.16","58.62","HIGH LEVEL A","3073141","2019-04-24 13:00","2019","04","24","13:00","10.6","","-7.8","","27","","","","29","","21","","24.1","","97.13","","","","","","NA"
"-117.16","58.62","HIGH LEVEL A","3073141","2019-04-24 14:00","2019","04","24","14:00","11.2","","-8.0","","25","","","","29","","16","","24.1","","97.16","","","","","","Mostly Cloudy"
"-117.16","58.62","HIGH LEVEL A","3073141","2019-04-24 15:00","2019","04","24","15:00","11.2","","-9.1","","23","","","","31","","24","","24.1","","97.22","","","","","","NA"
"-117.16","58.62","HIGH LEVEL A","3073141","2019-04-24 16:00","2019","04","24","16:00","10.5","","-9.3","","24","","","","28","","15","","24.1","","97.28","","","","","","NA"
"-117.16","58.62","HIGH LEVEL A","3073141","2019-04-24 17:00","2019","04","24","17:00","10.5","","-11.8","","20","","","","29","","20","","24.1","","97.31","","","","","","Mostly Cloudy"
"-117.16","58.62","HIGH LEVEL A","3073141","2019-04-24 18:00","2019","04","24","18:00","10.3","","-12.5","","19","","","","27","","23","","24.1","","97.36","","","","","","NA"
"-117.16","58.62","HIGH LEVEL A","3073141","2019-04-24 19:00","2019","04","24","19:00","9.1","","-12.8","","20","","","","28","","15","","24.1","","97.43","","","","","","NA"
"-117.16","58.62","HIGH LEVEL A","3073141","2019-04-24 20:00","2019","04","24","20:00","7.7","","-12.8","","22","","","","28","","17","","24.1","","97.51","","","","","","Mostly Cloudy"
"-117.16","58.62","HIGH LEVEL A","3073141","2019-04-24 21:00","2019","04","24","21:00","6.3","","-12.8","","24","","","","27","","16","","24.1","","97.57","","","","","","NA"
"-117.16","58.62","HIGH LEVEL A","3073141","2019-04-24 22:00","2019","04","24","22:00"
"-117.16","58.62","HIGH LEVEL A","3073141","2019-04-24 23:00","2019","04","24","23:00"
"-117.16","58.62","HIGH LEVEL A","3073141","2019-04-25 00:00","2019","04","25","00:00"
"-117.16","58.62","HIGH LEVEL A","3073141","2019-04-25 01:00","2019","04","25","01:00"
"-117.16","58.62","HIGH LEVEL A","3073141","2019-04-25 02:00","2019","04","25","02:00"
"-117.16","58.62","HIGH LEVEL A","3073141","2019-04-25 03:00","2019","04","25","03:00"
"-117.16","58.62","HIGH LEVEL A","3073141","2019-04-25 04:00","2019","04","25","04:00"
"-117.16","58.62","HIGH LEVEL A","3073141","2019-04-25 05:00","2019","04","25","05:00"
"-117.16","58.62","HIGH LEVEL A","3073141","2019-04-25 06:00","2019","04","25","06:00","-2.7","","-9.6","","59","","","","36","","2","","24.1","","97.89","","","","-3","","NA"
"-117.16","58.62","HIGH LEVEL A","3073141","2019-04-25 07:00","2019","04","25","07:00","1.4","","-9.2","","45","","","","20","","4","","24.1","","97.89","","","","","","NA"
"-117.16","58.62","HIGH LEVEL A","3073141","2019-04-25 08:00","2019","04","25","08:00","3.4","","-8.6","","41","","","","36","","3","","24.1","","97.91","","","","","","Mainly Clear"
"-117.16","58.62","HIGH LEVEL A","3073141","2019-04-25 09:00","2019","04","25","09:00","4.1","","-4.9","","52","","","","32","","19","","24.1","","97.91","","","","","","NA"
"-117.16","58.62","HIGH LEVEL A","3073141","2019-04-25 10:00","2019","04","25","10:00","2.2","","-3.4","","67","","","","31","","15","","24.1","","97.99","","","","","","NA"
"-117.16","58.62","HIGH LEVEL A","3073141","2019-04-25 11:00","2019","04","25","11:00","0.9","","-2.0","","81","","","","34","","19","","16.1","","98.08","","","","","","Snow"
"-117.16","58.62","HIGH LEVEL A","3073141","2019-04-25 12:00","2019","04","25","12:00","3.7","","-3.4","","60","","","","32","","21","","24.1","","98.09","","","","","","NA"
"-117.16","58.62","HIGH LEVEL A","3073141","2019-04-25 13:00","2019","04","25","13:00","3.4","","-4.1","","58","","","","33","","17","","24.1","","98.11","","","","","","Snow"
"-117.16","58.62","HIGH LEVEL A","3073141","2019-04-25 14:00","2019","04","25","14:00","3.5","","-4.1","","58","","","","34","","20","","24.1","","98.13","","","","","","Mostly Cloudy"
"-117.16","58.62","HIGH LEVEL A","3073141","2019-04-25 15:00","2019","04","25","15:00","3.9","","-4.7","","54","","","","2","","14","","24.1","","98.14","","","","","","NA"
"-117.16","58.62","HIGH LEVEL A","3073141","2019-04-25 16:00","2019","04","25","16:00","5.5","","-4.3","","49","","","","32","","7","","24.1","","98.10","","","","","","NA"
"-117.16","58.62","HIGH LEVEL A","3073141","2019-04-25 17:00","2019","04","25","17:00","4.8","","-5.3","","48","","","","34","","15","","24.1","","98.10","","","","","","Mostly Cloudy"
"-117.16","58.62","HIGH LEVEL A","3073141","2019-04-25 18:00","2019","04","25","18:00","4.7","","-5.1","","49","","","","33","","7","","24.1","","98.09","","","","","","NA"
"-117.16","58.62","HIGH LEVEL A","3073141","2019-04-25 19:00","2019","04","25","19:00","4.3","","-3.9","","55","","","","32","","11","","24.1","","98.07","","","","","","NA"
"-117.16","58.62","HIGH LEVEL A","3073141","2019-04-25 20:00","2019","04","25","20:00","3.1","","-2.7","","66","","","","30","","7","","24.1","","98.08","","","","","","Mostly Cloudy"
"-117.16","58.62","HIGH LEVEL A","3073141","2019-04-25 21:00","2019","04","25","21:00","1.8","","-2.9","","71","","","","35","","8","","24.1","","98.06","","","","","","NA"
"-117.16","58.62","HIGH LEVEL A","3073141","2019-04-25 22:00","2019","04","25","22:00"
"-117.16","58.62","HIGH LEVEL A","3073141","2019-04-25 23:00","2019","04","25","23:00"
"-117.16","58.62","HIGH LEVEL A","3073141","2019-04-26 00:00","2019","04","26","00:00"
"-117.16","58.62","HIGH LEVEL A","3073141","2019-04-26 01:00","2019","04","26","01:00"
"-117.16","58.62","HIGH LEVEL A","3073141","2019-04-26 02:00","2019","04","26","02:00"
"-117.16","58.62","HIGH LEVEL A","3073141","2019-04-26 03:00","2019","04","26","03:00"
"-117.16","58.62","HIGH LEVEL A","3073141","2019-04-26 04:00","2019","04","26","04:00"
"-117.16","58.62","HIGH LEVEL A","3073141","2019-04-26 05:00","2019","04","26","05:00"
"-117.16","58.62","HIGH LEVEL A","3073141","2019-04-26 06:00","2019","04","26","06:00","-4.9","","-5.3","","97","","","","36","","2","","24.1","","98.15","","","","-6","","NA"
"-117.16","58.62","HIGH LEVEL A","3073141","2019-04-26 07:00","2019","04","26","07:00","-2.0","","-3.5","","90","","","","35","","9","","24.1","","98.16","","","","-5","","NA"
"-117.16","58.62","HIGH LEVEL A","3073141","2019-04-26 08:00","2019","04","26","08:00","0.3","","-3.6","","75","","","","1","","9","","24.1","","98.15","","","","","","Clear"
"-117.16","58.62","HIGH LEVEL A","3073141","2019-04-26 09:00","2019","04","26","09:00","2.2","","-5.5","","57","","","","4","","10","","24.1","","98.12","","","","","","NA"
"-117.16","58.62","HIGH LEVEL A","3073141","2019-04-26 10:00","2019","04","26","10:00","3.7","","-6.5","","47","","","","6","","13","","24.1","","98.09","","","","","","NA"
"-117.16","58.62","HIGH LEVEL A","3073141","2019-04-26 11:00","2019","04","26","11:00","4.1","","-7.2","","44","","","","2","","14","","24.1","","98.09","","","","","","Mainly Clear"
"-117.16","58.62","HIGH LEVEL A","3073141","2019-04-26 12:00","2019","04","26","12:00","5.6","","-7.6","","38","","","","36","","7","","24.1","","98.08","","","","","","NA"
"-117.16","58.62","HIGH LEVEL A","3073141","2019-04-26 13:00","2019","04","26","13:00","6.6","","-7.4","","36","","","","3","","12","","24.1","","98.05","","","","","","NA"
"-117.16","58.62","HIGH LEVEL A","3073141","2019-04-26 14:00","2019","04","26","14:00","5.8","","-8.2","","36","","","","5","","13","","24.1","","98.03","","","","","","Mostly Cloudy"
"-117.16","58.62","HIGH LEVEL A","3073141","2019-04-26 15:00","2019","04","26","15:00","7.0","","-8.5","","32","","","","1","","22","","24.1","","98.01","","","","","","NA"
"-117.16","58.62","HIGH LEVEL A","3073141","2019-04-26 16:00","2019","04","26","16:00","7.5","","-7.9","","33","","","","36","","21","","24.1","","98.01","","","","","","NA"
"-117.16","58.62","HIGH LEVEL A","3073141","2019-04-26 17:00","2019","04","26","17:00","7.0","","-8.2","","33","","","","2","","19","","24.1","","97.99","","","","","","Mainly Clear"
"-117.16","58.62","HIGH LEVEL A","3073141","2019-04-26 18:00","2019","04","26","18:00","6.8","","-8.3","","33","","","","1","","19","","24.1","","98.00","","","","","","NA"
"-117.16","58.62","HIGH LEVEL A","3073141","2019-04-26 19:00","2019","04","26","19:00","5.6","","-9.0","","34","","","","4","","19","","24.1","","98.01","","","","","","NA"
"-117.16","58.62","HIGH LEVEL A","3073141","2019-04-26 20:00","2019","04","26","20:00","4.0","","-9.4","","37","","","","4","","15","","24.1","","98.04","","","","","","Mainly Clear"
"-117.16","58.62","HIGH LEVEL A","3073141","2019-04-26 21:00","2019","04","26","21:00","2.0","","-9.6","","42","","","","3","","9","","24.1","","98.12","","","","","","NA"
"-117.16","58.62","HIGH LEVEL A","3073141","2019-04-26 22:00","2019","04","26","22:00"
"-117.16","58.62","HIGH LEVEL A","3073141","2019-04-26 23:00","2019","04","26","23:00"
"-117.16","58.62","HIGH LEVEL A","3073141","2019-04-27 00:00","2019","04","27","00:00"
"-117.16","58.62","HIGH LEVEL A","3073141","2019-04-27 01:00","2019","04","27","01:00"
"-117.16","58.62","HIGH LEVEL A","3073141","2019-04-27 02:00","2019","04","27","02:00"
"-117.16","58.62","HIGH LEVEL A","3073141","2019-04-27 03:00","2019","04","27","03:00"
"-117.16","58.62","HIGH LEVEL A","3073141","2019-04-27 04:00","2019","04","27","04:00"
"-117.16","58.62","HIGH LEVEL A","3073141","2019-04-27 05:00","2019","04","27","05:00"
"-117.16","58.62","HIGH LEVEL A","3073141","2019-04-27 06:00","2019","04","27","06:00","-5.1","","-9.4","","72","","","","1","","4","","24.1","","98.53","","","","-7","","NA"
"-117.16","58.62","HIGH LEVEL A","3073141","2019-04-27 07:00","2019","04","27","07:00","-2.1","","-10.5","","53","","","","36","","1","","24.1","","98.57","","","","-2","","NA"
"-117.16","58.62","HIGH LEVEL A","3073141","2019-04-27 08:00","2019","04","27","08:00","-0.4","","-10.2","","48","","","","15","","3","","24.1","","98.60","","","","-1","","Mainly Clear"
"-117.16","58.62","HIGH LEVEL A","3073141","2019-04-27 09:00","2019","04","27","09:00","1.1","","-11.2","","40","","","","36","","1","","24.1","","98.60","","","","","","NA"
"-117.16","58.62","HIGH LEVEL A","3073141","2019-04-27 10:00","2019","04","27","10:00","2.5","","-12.3","","33","","","","8","","12","","24.1","","98.59","","","","","","NA"
"-117.16","58.62","HIGH LEVEL A","3073141","2019-04-27 11:00","2019","04","27","11:00","3.3","","-12.8","","30","","","","12","","3","","24.1","","98.59","","","","","","Mainly Clear"
"-117.16","58.62","HIGH LEVEL A","3073141","2019-04-27 12:00","2019","04","27","12:00","4.7","","-12.7","","27","","","","35","","13","","24.1","","98.57","","","","","","NA"
"-117.16","58.62","HIGH LEVEL A","3073141","2019-04-27 13:00","2019","04","27","13:00","5.0","","-13.1","","26","","","","13","","4","","24.1","","98.53","","","","","","NA"
"-117.16","58.62","HIGH LEVEL A","3073141","2019-04-27 14:00","2019","04","27","14:00","6.3","","-13.0","","24","","","","29","","4","","24.1","","98.51","","","","","","Mostly Cloudy"
"-117.16","58.62","HIGH LEVEL A","3073141","2019-04-27 15:00","2019","04","27","15:00","6.0","","-14.2","","22","","","","35","","10","","24.1","","98.50","","","","","","NA"
"-117.16","58.62","HIGH LEVEL A","3073141","2019-04-27 16:00","2019","04","27","16:00","6.3","","-13.7","","22","","","","36","","13","","24.1","","98.47","","","","","","NA"
"-117.16","58.62","HIGH LEVEL A","3073141","2019-04-27 17:00","2019","04","27","17:00","6.7","","-13.1","","23","","","","29","","15","","24.1","","98.45","","","","","","Mostly Cloudy"
"-117.16","58.62","HIGH LEVEL A","3073141","2019-04-27 18:00","2019","04","27","18:00","6.7","","-12.6","","24","","","","35","","18","","24.1","","98.47","","","","","","NA"
"-117.16","58.62","HIGH LEVEL A","3073141","2019-04-27 19:00","2019","04","27","19:00","5.5","","-11.3","","29","","","","33","","16","","24.1","","98.50","","","","","","NA"
"-117.16","58.62","HIGH LEVEL A","3073141","2019-04-27 20:00","2019","04","27","20:00","4.1","","-10.8","","33","","","","34","","13","","24.1","","98.53","","","","","","Mostly Cloudy"
"-117.16","58.62","HIGH LEVEL A","3073141","2019-04-27 21:00","2019","04","27","21:00","3.0","","-9.6","","39","","","","3","","8","","24.1","","98.59","","","","","","NA"
"-117.16","58.62","HIGH LEVEL A","3073141","2019-04-27 22:00","2019","04","27","22:00"
"-117.16","58.62","HIGH LEVEL A","3073141","2019-04-27 23:00","2019","04","27","23:00"
"-117.16","58.62","HIGH LEVEL A","3073141","2019-04-28 00:00","2019","04","28","00:00"
"-117.16","58.62","HIGH LEVEL A","3073141","2019-04-28 01:00","2019","04","28","01:00"
"-117.16","58.62","HIGH LEVEL A","3073141","2019-04-28 02:00","2019","04","28","02:00"
"-117.16","58.62","HIGH LEVEL A","3073141","2019-04-28 03:00","2019","04","28","03:00"
"-117.16","58.62","HIGH LEVEL A","3073141","2019-04-28 04:00","2019","04","28","04:00"
"-117.16","58.62","HIGH LEVEL A","3073141","2019-04-28 05:00","2019","04","28","05:00"
"-117.16","58.62","HIGH LEVEL A","3073141","2019-04-28 06:00","2019","04","28","06:00","-2.4","","-5.0","","82","","","","35","","6","","24.1","","98.85","","","","-5","","NA"
"-117.16","58.62","HIGH LEVEL A","3073141","2019-04-28 07:00","2019","04","28","07:00","0.0","","-3.7","","76","","","","34","","14","","24.1","","98.86","","","","-4","","NA"
"-117.16","58.62","HIGH LEVEL A","3073141","2019-04-28 08:00","2019","04","28","08:00","1.7","","-4.4","","64","","","","34","","18","","24.1","","98.87","","","","","","Mainly Clear"
"-117.16","58.62","HIGH LEVEL A","3073141","2019-04-28 09:00","2019","04","28","09:00","2.8","","-7.5","","47","","","","34","","14","","24.1","","98.86","","","","","","NA"
"-117.16","58.62","HIGH LEVEL A","3073141","2019-04-28 10:00","2019","04","28","10:00","3.2","","-9.7","","38","","","","32","","12","","24.1","","98.85","","","","","","NA"
"-117.16","58.62","HIGH LEVEL A","3073141","2019-04-28 11:00","2019","04","28","11:00","4.6","","-11.4","","30","","","","35","","18","","24.1","","98.84","","","","","","Mainly Clear"
"-117.16","58.62","HIGH LEVEL A","3073141","2019-04-28 12:00","2019","04","28","12:00","5.9","","-12.9","","25","","","","35","","16","","24.1","","98.82","","","","","","NA"
"-117.16","58.62","HIGH LEVEL A","3073141","2019-04-28 13:00","2019","04","28","13:00","6.5","","-13.6","","22","","","","31","","13","","24.1","","98.78","","","","","","NA"
"-117.16","58.62","HIGH LEVEL A","3073141","2019-04-28 14:00","2019","04","28","14:00","6.6","","-15.8","","19","","","","36","","14","","24.1","","98.75","","","","","","Mostly Cloudy"
"-117.16","58.62","HIGH LEVEL A","3073141","2019-04-28 15:00","2019","04","28","15:00","6.8","","-14.4","","21","","","","33","","17","","24.1","","98.73","","","","","","NA"
"-117.16","58.62","HIGH LEVEL A","3073141","2019-04-28 16:00","2019","04","28","16:00","7.6","","-16.0","","17","","","","35","","18","","24.1","","98.71","","","","","","NA"
"-117.16","58.62","HIGH LEVEL A","3073141","2019-04-28 17:00","2019","04","28","17:00","6.9","","-14.8","","20","","","","33","","22","","24.1","","98.68","","","","","","Mainly Clear"
"-117.16","58.62","HIGH LEVEL A","3073141","2019-04-28 18:00","2019","04","28","18:00","7.4","","-14.0","","20","","","","32","","13","","24.1","","98.67","","","","","","NA"
"-117.16","58.62","HIGH LEVEL A","3073141","2019-04-28 19:00","2019","04","28","19:00","6.5","","-13.7","","22","","","","35","","15","","24.1","","98.64","","","","","","NA"
"-117.16","58.62","HIGH LEVEL A","3073141","2019-04-28 20:00","2019","04","28","20:00","3.9","","-10.8","","34","","","","32","","7","","24.1","","98.64","","","","","","Mainly Clear"
"-117.16","58.62","HIGH LEVEL A","3073141","2019-04-28 21:00","2019","04","28","21:00","2.8","","-12.8","","31","","","","36","","2","","24.1","","98.65","","","","","","NA"
"-117.16","58.62","HIGH LEVEL A","3073141","2019-04-28 22:00","2019","04","28","22:00"
"-117.16","58.62","HIGH LEVEL A","3073141","2019-04-28 23:00","2019","04","28","23:00"
"-117.16","58.62","HIGH LEVEL A","3073141","2019-04-29 00:00","2019","04","29","00:00"
"-117.16","58.62","HIGH LEVEL A","3073141","2019-04-29 01:00","2019","04","29","01:00"
"-117.16","58.62","HIGH LEVEL A","3073141","2019-04-29 02:00","2019","04","29","02:00"
"-117.16","58.62","HIGH LEVEL A","3073141","2019-04-29 03:00","2019","04","29","03:00"
"-117.16","58.62","HIGH LEVEL A","3073141","2019-04-29 04:00","2019","04","29","04:00"
"-117.16","58.62","HIGH LEVEL A","3073141","2019-04-29 05:00","2019","04","29","05:00"
"-117.16","58.62","HIGH LEVEL A","3073141","2019-04-29 06:00","2019","04","29","06:00","-0.6","","-4.3","","76","","","","32","","13","","24.1","","98.51","","","","-5","","NA"
"-117.16","58.62","HIGH LEVEL A","3073141","2019-04-29 07:00","2019","04","29","07:00","1.3","","-7.1","","54","","","","33","","21","","24.1","","98.52","","","","","","NA"
"-117.16","58.62","HIGH LEVEL A","3073141","2019-04-29 08:00","2019","04","29","08:00","2.1","","-8.8","","44","","","","33","","18","","24.1","","98.52","","","","","","Mostly Cloudy"
"-117.16","58.62","HIGH LEVEL A","3073141","2019-04-29 09:00","2019","04","29","09:00","2.0","","-10.4","","40","","","","34","","26","","24.1","","98.55","","","","","","NA"
"-117.16","58.62","HIGH LEVEL A","3073141","2019-04-29 10:00","2019","04","29","10:00","2.0","","-10.5","","39","","","","33","","22","","24.1","","98.55","","","","","","NA"
"-117.16","58.62","HIGH LEVEL A","3073141","2019-04-29 11:00","2019","04","29","11:00","2.6","","-9.5","","41","","","","34","","24","","24.1","","98.51","","","","","","Mainly Clear"
"-117.16","58.62","HIGH LEVEL A","3073141","2019-04-29 12:00","2019","04","29","12:00","3.3","","-9.1","","40","","","","36","","22","","24.1","","98.45","","","","","","NA"
"-117.16","58.62","HIGH LEVEL A","3073141","2019-04-29 13:00","2019","04","29","13:00","4.3","","-7.2","","43","","","","32","","16","","24.1","","98.38","","","","","","NA"
"-117.16","58.62","HIGH LEVEL A","3073141","2019-04-29 14:00","2019","04","29","14:00","2.5","","-3.7","","64","","","","34","","30","","4.8","","98.36","","","","","","Snow"
"-117.16","58.62","HIGH LEVEL A","3073141","2019-04-29 15:00","2019","04","29","15:00","2.7","","-2.9","","66","","","","36","","10","","24.1","","98.30","","","","","","Snow"
"-117.16","58.62","HIGH LEVEL A","3073141","2019-04-29 16:00","2019","04","29","16:00","2.1","","-2.9","","70","","","","34","","16","","16.1","","98.30","","","","","","Snow"
"-117.16","58.62","HIGH LEVEL A","3073141","2019-04-29 17:00","2019","04","29","17:00","0.6","","-4.6","","68","","","","36","","23","","16.1","","98.38","","","","","","Snow"
"-117.16","58.62","HIGH LEVEL A","3073141","2019-04-29 18:00","2019","04","29","18:00","-0.6","","-4.2","","77","","","","3","","22","","16.1","","98.41","","","","-6","","Snow"
"-117.16","58.62","HIGH LEVEL A","3073141","2019-04-29 19:00","2019","04","29","19:00","-1.1","","-5.5","","72","","","","2","","8","","16.1","","98.40","","","","-4","","Snow"
"-117.16","58.62","HIGH LEVEL A","3073141","2019-04-29 20:00","2019","04","29","20:00","-2.9","","-4.0","","92","","","","6","","13","","0.8","","98.42","","","","-8","","Snow"
"-117.16","58.62","HIGH LEVEL A","3073141","2019-04-29 21:00","2019","04","29","21:00","-4.0","","-6.0","","86","","","","2","","16","","2.8","","98.53","","","","-10","","Snow"
"-117.16","58.62","HIGH LEVEL A","3073141","2019-04-29 22:00","2019","04","29","22:00"
"-117.16","58.62","HIGH LEVEL A","3073141","2019-04-29 23:00","2019","04","29","23:00"
"-117.16","58.62","HIGH LEVEL A","3073141","2019-04-30 00:00","2019","04","30","00:00"
"-117.16","58.62","HIGH LEVEL A","3073141","2019-04-30 01:00","2019","04","30","01:00"
"-117.16","58.62","HIGH LEVEL A","3073141","2019-04-30 02:00","2019","04","30","02:00"
"-117.16","58.62","HIGH LEVEL A","3073141","2019-04-30 03:00","2019","04","30","03:00"
"-117.16","58.62","HIGH LEVEL A","3073141","2019-04-30 04:00","2019","04","30","04:00"
"-117.16","58.62","HIGH LEVEL A","3073141","2019-04-30 05:00","2019","04","30","05:00"
"-117.16","58.62","HIGH LEVEL A","3073141","2019-04-30 06:00","2019","04","30","06:00","-11.0","","-13.4","","83","","","","36","","5","","24.1","","98.72","","","","-14","","NA"
"-117.16","58.62","HIGH LEVEL A","3073141","2019-04-30 07:00","2019","04","30","07:00","-9.9","","-13.8","","74","","","","1","","10","","24.1","","98.73","","","","-15","","NA"
"-117.16","58.62","HIGH LEVEL A","3073141","2019-04-30 08:00","2019","04","30","08:00","-9.3","","-13.5","","72","","","","1","","10","","24.1","","98.73","","","","-14","","Mostly Cloudy"
"-117.16","58.62","HIGH LEVEL A","3073141","2019-04-30 09:00","2019","04","30","09:00","-8.2","","-12.5","","71","","","","2","","13","","24.1","","98.68","","","","-14","","NA"
"-117.16","58.62","HIGH LEVEL A","3073141","2019-04-30 10:00","2019","04","30","10:00","-7.0","","-12.4","","65","","","","32","","11","","24.1","","98.63","","","","-12","","NA"
"-117.16","58.62","HIGH LEVEL A","3073141","2019-04-30 11:00","2019","04","30","11:00","-5.7","","-12.5","","59","","","","36","","10","","24.1","","98.59","","","","-10","","Mostly Cloudy"
"-117.16","58.62","HIGH LEVEL A","3073141","2019-04-30 12:00","2019","04","30","12:00","-4.8","","-13.3","","52","","","","1","","13","","24.1","","98.54","","","","-10","","NA"
"-117.16","58.62","HIGH LEVEL A","3073141","2019-04-30 13:00","2019","04","30","13:00","-4.0","","-14.2","","45","","","","31","","13","","24.1","","98.48","","","","-9","","NA"
"-117.16","58.62","HIGH LEVEL A","3073141","2019-04-30 14:00","2019","04","30","14:00","-2.3","","-13.2","","43","","","","30","","11","","24.1","","98.41","","","","-6","","Mostly Cloudy"
"-117.16","58.62","HIGH LEVEL A","3073141","2019-04-30 15:00","2019","04","30","15:00","-2.3","","-14.0","","41","","","","33","","10","","24.1","","98.34","","","","-6","","NA"
"-117.16","58.62","HIGH LEVEL A","3073141","2019-04-30 16:00","2019","04","30","16:00","-0.7","","-14.3","","35","","","","36","","15","","24.1","","98.26","","","","-5","","NA"
"-117.16","58.62","HIGH LEVEL A","3073141","2019-04-30 17:00","2019","04","30","17:00","-0.3","","-15.2","","32","","","","34","","11","","24.1","","98.17","","","","-4","","Mostly Cloudy"
"-117.16","58.62","HIGH LEVEL A","3073141","2019-04-30 18:00","2019","04","30","18:00","-0.5","","-15.5","","32","","","","4","","9","","24.1","","98.11","","","","-4","","NA"
"-117.16","58.62","HIGH LEVEL A","3073141","2019-04-30 19:00","2019","04","30","19:00","-0.9","","-14.7","","35","","","","5","","7","","24.1","","98.05","","","","-3","","NA"
"-117.16","58.62","HIGH LEVEL A","3073141","2019-04-30 20:00","2019","04","30","20:00","-1.6","","-15.3","","35","","","","11","","4","","24.1","","98.00","","","","-3","","Mostly Cloudy"
"-117.16","58.62","HIGH LEVEL A","3073141","2019-04-30 21:00","2019","04","30","21:00","-2.8","","-15.9","","36","","","","13","","13","","24.1","","97.99","","","","-7","","NA"
"-117.16","58.62","HIGH LEVEL A","3073141","2019-04-30 22:00","2019","04","30","22:00"
"-117.16","58.62","HIGH LEVEL A","3073141","2019-04-30 23:00","2019","04","30","23:00"
