"Longitude (x)","Latitude (y)","Station Name","Climate ID","Date/Time (LST)","Year","Month","Day","Time (LST)","Temp (°C)","Temp Flag","Dew Point Temp (°C)","Dew Point Temp Flag","Rel Hum (%)","Rel Hum Flag","Precip. Amount (mm)","Precip. Amount Flag","Wind Dir (10s deg)","Wind Dir Flag","Wind Spd (km/h)","Wind Spd Flag","Visibility (km)","Visibility Flag","Stn Press (kPa)","Stn Press Flag","Hmdx","Hmdx Flag","Wind Chill","Wind Chill Flag","Weather"
"-68.47","48.51","POINTE-AU-PERE (INRS)","7056068","2012-02-01 00:00","2012","02","01","00:00","-13.7","","-17.2","","75","","","","6","","7","","","","102.08","","","","-18","","NA"
"-68.47","48.51","POINTE-AU-PERE (INRS)","7056068","2012-02-01 01:00","2012","02","01","01:00","-14.0","","-17.3","","76","","","","7","","6","","","","102.02","","","","-18","","NA"
"-68.47","48.51","POINTE-AU-PERE (INRS)","7056068","2012-02-01 02:00","2012","02","01","02:00","-13.8","","-17.4","","74","","","","7","","6","","","","102.02","","","","-18","","NA"
"-68.47","48.51","POINTE-AU-PERE (INRS)","7056068","2012-02-01 03:00","2012","02","01","03:00","-13.6","","-17.3","","74","","","","7","","7","","","","101.97","","","","-18","","NA"
"-68.47","48.51","POINTE-AU-PERE (INRS)","7056068","2012-02-01 04:00","2012","02","01","04:00","-14.1","","-17.6","","75","","","","7","","6","","","","101.91","","","","-18","","NA"
"-68.47","48.51","POINTE-AU-PERE (INRS)","7056068","2012-02-01 05:00","2012","02","01","05:00","-13.4","","-16.8","","76","","","","6","","9","","","","101.86","","","","-19","","NA"
"-68.47","48.51","POINTE-AU-PERE (INRS)","7056068","2012-02-01 06:00","2012","02","01","06:00","-13.6","","-16.9","","76","","","","6","","9","","","","101.81","","","","-19","","NA"
"-68.47","48.51","POINTE-AU-PERE (INRS)","7056068","2012-02-01 07:00","2012","02","01","07:00","-12.9","","-16.4","","75","","","","5","","11","","","","101.76","","","","-19","","NA"
"-68.47","48.51","POINTE-AU-PERE (INRS)","7056068","2012-02-01 08:00","2012","02","01","08:00","-12.7","","-15.7","","78","","","","5","","19","","","","101.74","","","","-21","","NA"
"-68.47","48.51","POINTE-AU-PERE (INRS)","7056068","2012-02-01 09:00","2012","02","01","09:00","-12.7","","-14.8","","84","","","","5","","17","","","","101.65","","","","-21","","NA"
"-68.47","48.51","POINTE-AU-PERE (INRS)","7056068","2012-02-01 10:00","2012","02","01","10:00","-12.4","","-14.4","","85","","","","5","","17","","","","101.62","","","","-20","","NA"
"-68.47","48.51","POINTE-AU-PERE (INRS)","7056068","2012-02-01 11:00","2012","02","01","11:00","-11.4","","-13.2","","86","","","","6","","17","","","","101.56","","","","-19","","NA"
"-68.47","48.51","POINTE-AU-PERE (INRS)","7056068","2012-02-01 12:00","2012","02","01","12:00","-11.1","","-12.6","","89","","","","5","","20","","","","101.48","","","","-19","","NA"
"-68.47","48.51","POINTE-AU-PERE (INRS)","7056068","2012-02-01 13:00","2012","02","01","13:00","-10.9","","-12.4","","89","","","","5","","22","","","","101.41","","","","-19","","NA"
"-68.47","48.51","POINTE-AU-PERE (INRS)","7056068","2012-02-01 14:00","2012","02","01","14:00","-10.4","","-12.4","","85","","","","5","","22","","","","101.39","","","","-19","","NA"
"-68.47","48.51","POINTE-AU-PERE (INRS)","7056068","2012-02-01 15:00","2012","02","01","15:00","-9.9","","-12.3","","83","","","","6","","20","","","","101.38","","","","-18","","NA"
"-68.47","48.51","POINTE-AU-PERE (INRS)","7056068","2012-02-01 16:00","2012","02","01","16:00","-9.5","","-12.2","","81","","","","5","","22","","","","101.40","","","","-18","","NA"
"-68.47","48.51","POINTE-AU-PERE (INRS)","7056068","2012-02-01 17:00","2012","02","01","17:00","-9.3","","-12.4","","78","","","","6","","17","","","","101.45","","","","-16","","NA"
"-68.47","48.51","POINTE-AU-PERE (INRS)","7056068","2012-02-01 18:00","2012","02","01","18:00","-9.1","","-12.2","","78","","","","6","","17","","","","101.49","","","","-16","","NA"
"-68.47","48.51","POINTE-AU-PERE (INRS)","7056068","2012-02-01 19:00","2012","02","01","19:00","-9.0","","-11.8","","80","","","","6","","15","","","","101.53","","","","-16","","NA"
"-68.47","48.51","POINTE-AU-PERE (INRS)","7056068","2012-02-01 20:00","2012","02","01","20:00","-9.0","","-11.4","","83","","","","8","","11","","","","101.57","","","","-14","","NA"
"-68.47","48.51","POINTE-AU-PERE (INRS)","7056068","2012-02-01 21:00","2012","02","01","21:00","-9.0","","-11.4","","83","","","","7","","11","","","","101.61","","","","-14","","NA"
"-68.47","48.51","POINTE-AU-PERE (INRS)","7056068","2012-02-01 22:00","2012","02","01","22:00","-8.8","","-11.2","","83","","","","7","","11","","","","101.63","","","","-14","","NA"
"-68.47","48.51","POINTE-AU-PERE (INRS)","7056068","2012-02-01 23:00","2012","02","01","23:00","-8.7","","-11.2","","82","","","","7","","11","","","","101.69","","","","-14","","NA"
"-68.47","48.51","POINTE-AU-PERE (INRS)","7056068","2012-02-02 00:00","2012","02","02","00:00","-8.8","","-11.0","","84","","","","7","","7","","","","101.72","","","","-13","","NA"
"-68.47","48.51","POINTE-AU-PERE (INRS)","7056068","2012-02-02 01:00","2012","02","02","01:00","-8.9","","-11.0","","85","","","","6","","11","","","","101.78","","","","-14","","NA"
"-68.47","48.51","POINTE-AU-PERE (INRS)","7056068","2012-02-02 02:00","2012","02","02","02:00","-8.5","","-10.1","","88","","","","4","","22","","","","101.82","","","","-16","","NA"
"-68.47","48.51","POINTE-AU-PERE (INRS)","7056068","2012-02-02 03:00","2012","02","02","03:00","-8.7","","-9.8","","92","","","","3","","15","","","","101.90","","","","-15","","NA"
"-68.47","48.51","POINTE-AU-PERE (INRS)","7056068","2012-02-02 04:00","2012","02","02","04:00","-9.7","","-10.9","","91","","","","1","","19","","","","101.94","","","","-17","","NA"
"-68.47","48.51","POINTE-AU-PERE (INRS)","7056068","2012-02-02 05:00","2012","02","02","05:00","-10.9","","-12.5","","88","","","","1","","22","","","","102.03","","","","-19","","NA"
"-68.47","48.51","POINTE-AU-PERE (INRS)","7056068","2012-02-02 06:00","2012","02","02","06:00","-11.3","","-13.5","","84","","","","1","","17","","","","102.13","","","","-19","","NA"
"-68.47","48.51","POINTE-AU-PERE (INRS)","7056068","2012-02-02 07:00","2012","02","02","07:00","-11.1","","-13.6","","82","","","","2","","13","","","","102.21","","","","-18","","NA"
"-68.47","48.51","POINTE-AU-PERE (INRS)","7056068","2012-02-02 08:00","2012","02","02","08:00","-11.2","","-13.9","","80","","","","36","","13","","","","102.30","","","","-18","","NA"
"-68.47","48.51","POINTE-AU-PERE (INRS)","7056068","2012-02-02 09:00","2012","02","02","09:00","-11.6","","-14.5","","79","","","","36","","9","","","","102.31","","","","-17","","NA"
"-68.47","48.51","POINTE-AU-PERE (INRS)","7056068","2012-02-02 10:00","2012","02","02","10:00","-11.3","","-14.4","","78","","","","36","","6","","","","102.29","","","","-15","","NA"
"-68.47","48.51","POINTE-AU-PERE (INRS)","7056068","2012-02-02 11:00","2012","02","02","11:00","-11.3","","-15.1","","73","","","","34","","6","","","","102.26","","","","-15","","NA"
"-68.47","48.51","POINTE-AU-PERE (INRS)","7056068","2012-02-02 12:00","2012","02","02","12:00","-10.7","","-15.5","","68","","","","29","","6","","","","102.25","","","","-14","","NA"
"-68.47","48.51","POINTE-AU-PERE (INRS)","7056068","2012-02-02 13:00","2012","02","02","13:00","-10.6","","-16.0","","64","","","","31","","6","","","","102.24","","","","-14","","NA"
"-68.47","48.51","POINTE-AU-PERE (INRS)","7056068","2012-02-02 14:00","2012","02","02","14:00","-9.5","","-15.5","","62","","","","24","","6","","","","102.23","","","","-13","","NA"
"-68.47","48.51","POINTE-AU-PERE (INRS)","7056068","2012-02-02 15:00","2012","02","02","15:00","-10.8","","-16.1","","65","","","","21","","9","","","","102.25","","","","-16","","NA"
"-68.47","48.51","POINTE-AU-PERE (INRS)","7056068","2012-02-02 16:00","2012","02","02","16:00","-11.7","","-16.6","","67","","","","19","","7","","","","102.27","","","","-16","","NA"
"-68.47","48.51","POINTE-AU-PERE (INRS)","7056068","2012-02-02 17:00","2012","02","02","17:00","-13.4","","-16.7","","76","","","","15","","6","","","","102.29","","","","-17","","NA"
"-68.47","48.51","POINTE-AU-PERE (INRS)","7056068","2012-02-02 18:00","2012","02","02","18:00","-14.4","","-16.9","","81","","","","13","","7","","","","102.32","","","","-19","","NA"
"-68.47","48.51","POINTE-AU-PERE (INRS)","7056068","2012-02-02 19:00","2012","02","02","19:00","-15.6","","-17.8","","83","","","","13","","7","","","","102.35","","","","-21","","NA"
"-68.47","48.51","POINTE-AU-PERE (INRS)","7056068","2012-02-02 20:00","2012","02","02","20:00","-16.5","","-18.6","","84","","","","13","","6","","","","102.38","","","","-21","","NA"
"-68.47","48.51","POINTE-AU-PERE (INRS)","7056068","2012-02-02 21:00","2012","02","02","21:00","-17.2","","-19.0","","86","","","","14","","6","","","","102.41","","","","-22","","NA"
"-68.47","48.51","POINTE-AU-PERE (INRS)","7056068","2012-02-02 22:00","2012","02","02","22:00","-18.1","","-20.0","","85","","","","15","","4","","","","102.41","","","","-21","","NA"
"-68.47","48.51","POINTE-AU-PERE (INRS)","7056068","2012-02-02 23:00","2012","02","02","23:00","-18.8","","-20.8","","84","","","","14","","6","","","","102.41","","","","-24","","NA"
"-68.47","48.51","POINTE-AU-PERE (INRS)","7056068","2012-02-03 00:00","2012","02","03","00:00","-9.9","","-13.4","","76","","","","32","","15","","","","102.41","","","","-17","","NA"
"-68.47","48.51","POINTE-AU-PERE (INRS)","7056068","2012-02-03 01:00","2012","02","03","01:00","-15.7","","-21.5","","61","","","","32","","9","","","","102.43","","","","-22","","NA"
"-68.47","48.51","POINTE-AU-PERE (INRS)","7056068","2012-02-03 02:00","2012","02","03","02:00","-19.7","","-22.2","","80","","","","17","","6","","","","102.46","","","","-25","","NA"
"-68.47","48.51","POINTE-AU-PERE (INRS)","7056068","2012-02-03 03:00","2012","02","03","03:00","-20.0","","-22.0","","84","","","","15","","6","","","","102.49","","","","-25","","NA"
"-68.47","48.51","POINTE-AU-PERE (INRS)","7056068","2012-02-03 04:00","2012","02","03","04:00","-20.5","","-22.9","","81","","","","16","","4","","","","102.50","","","","-24","","NA"
"-68.47","48.51","POINTE-AU-PERE (INRS)","7056068","2012-02-03 05:00","2012","02","03","05:00","-19.3","","-21.2","","85","","","","17","","6","","","","102.52","","","","-24","","NA"
"-68.47","48.51","POINTE-AU-PERE (INRS)","7056068","2012-02-03 06:00","2012","02","03","06:00","-19.7","","-21.9","","83","","","","14","","7","","","","102.59","","","","-25","","NA"
"-68.47","48.51","POINTE-AU-PERE (INRS)","7056068","2012-02-03 07:00","2012","02","03","07:00","-20.8","","-23.2","","81","","","","25","","2","","","","102.63","","","","-23","","NA"
"-68.47","48.51","POINTE-AU-PERE (INRS)","7056068","2012-02-03 08:00","2012","02","03","08:00","-18.7","","-20.7","","84","","","","17","","4","","","","102.66","","","","-22","","NA"
"-68.47","48.51","POINTE-AU-PERE (INRS)","7056068","2012-02-03 09:00","2012","02","03","09:00","-14.4","","-16.2","","86","","","","20","","4","","","","102.65","","","","-17","","NA"
"-68.47","48.51","POINTE-AU-PERE (INRS)","7056068","2012-02-03 10:00","2012","02","03","10:00","-10.8","","-14.2","","76","","","","27","","2","","","","102.63","","","","-12","","NA"
"-68.47","48.51","POINTE-AU-PERE (INRS)","7056068","2012-02-03 11:00","2012","02","03","11:00","-9.8","","-14.2","","70","","","","23","","6","","","","102.58","","","","-13","","NA"
"-68.47","48.51","POINTE-AU-PERE (INRS)","7056068","2012-02-03 12:00","2012","02","03","12:00","-9.3","","-14.1","","68","","","","24","","6","","","","102.52","","","","-13","","NA"
"-68.47","48.51","POINTE-AU-PERE (INRS)","7056068","2012-02-03 13:00","2012","02","03","13:00","-9.1","","-13.8","","69","","","","22","","7","","","","102.44","","","","-13","","NA"
"-68.47","48.51","POINTE-AU-PERE (INRS)","7056068","2012-02-03 14:00","2012","02","03","14:00","-9.4","","-13.7","","71","","","","21","","11","","","","102.39","","","","-15","","NA"
"-68.47","48.51","POINTE-AU-PERE (INRS)","7056068","2012-02-03 15:00","2012","02","03","15:00","-9.4","","-13.6","","71","","","","19","","6","","","","102.36","","","","-13","","NA"
"-68.47","48.51","POINTE-AU-PERE (INRS)","7056068","2012-02-03 16:00","2012","02","03","16:00","-8.6","","-13.0","","70","","","","20","","7","","","","102.34","","","","-12","","NA"
"-68.47","48.51","POINTE-AU-PERE (INRS)","7056068","2012-02-03 17:00","2012","02","03","17:00","-8.9","","-12.4","","76","","","","19","","7","","","","102.30","","","","-13","","NA"
"-68.47","48.51","POINTE-AU-PERE (INRS)","7056068","2012-02-03 18:00","2012","02","03","18:00","-8.7","","-12.0","","77","","","","19","","9","","","","102.26","","","","-13","","NA"
"-68.47","48.51","POINTE-AU-PERE (INRS)","7056068","2012-02-03 19:00","2012","02","03","19:00","-9.6","","-12.5","","79","","","","16","","6","","","","102.21","","","","-13","","NA"
"-68.47","48.51","POINTE-AU-PERE (INRS)","7056068","2012-02-03 20:00","2012","02","03","20:00","-10.9","","-13.2","","83","","","","16","","6","","","","102.19","","","","-15","","NA"
"-68.47","48.51","POINTE-AU-PERE (INRS)","7056068","2012-02-03 21:00","2012","02","03","21:00","-12.2","","-14.1","","86","","","","16","","4","","","","102.18","","","","-15","","NA"
"-68.47","48.51","POINTE-AU-PERE (INRS)","7056068","2012-02-03 22:00","2012","02","03","22:00","-10.9","","-12.7","","87","","","","16","","4","","","","102.18","","","","-13","","NA"
"-68.47","48.51","POINTE-AU-PERE (INRS)","7056068","2012-02-03 23:00","2012","02","03","23:00","-10.2","","-12.1","","86","","","","14","","4","","","","102.13","","","","-13","","NA"
"-68.47","48.51","POINTE-AU-PERE (INRS)","7056068","2012-02-04 00:00","2012","02","04","00:00","-10.1","","-11.7","","88","","","","13","","4","","","","102.07","","","","-12","","NA"
"-68.47","48.51","POINTE-AU-PERE (INRS)","7056068","2012-02-04 01:00","2012","02","04","01:00","-8.1","","-9.6","","89","","","","36","","7","","","","102.05","","","","-12","","NA"
"-68.47","48.51","POINTE-AU-PERE (INRS)","7056068","2012-02-04 02:00","2012","02","04","02:00","-7.9","","-10.1","","84","","","","34","","9","","","","102.06","","","","-12","","NA"
"-68.47","48.51","POINTE-AU-PERE (INRS)","7056068","2012-02-04 03:00","2012","02","04","03:00","-8.2","","-10.6","","83","","","","34","","11","","","","102.05","","","","-13","","NA"
"-68.47","48.51","POINTE-AU-PERE (INRS)","7056068","2012-02-04 04:00","2012","02","04","04:00","-8.7","","-11.4","","81","","","","34","","11","","","","102.04","","","","-14","","NA"
"-68.47","48.51","POINTE-AU-PERE (INRS)","7056068","2012-02-04 05:00","2012","02","04","05:00","-9.0","","-11.7","","81","","","","36","","13","","","","102.05","","","","-15","","NA"
"-68.47","48.51","POINTE-AU-PERE (INRS)","7056068","2012-02-04 06:00","2012","02","04","06:00","-9.4","","-12.8","","76","","","","33","","17","","","","102.10","","","","-16","","NA"
"-68.47","48.51","POINTE-AU-PERE (INRS)","7056068","2012-02-04 07:00","2012","02","04","07:00","-10.1","","-13.9","","74","","","","33","","17","","","","102.12","","","","-17","","NA"
"-68.47","48.51","POINTE-AU-PERE (INRS)","7056068","2012-02-04 08:00","2012","02","04","08:00","-10.3","","-14.6","","71","","","","33","","17","","","","102.17","","","","-18","","NA"
"-68.47","48.51","POINTE-AU-PERE (INRS)","7056068","2012-02-04 09:00","2012","02","04","09:00","-10.2","","-14.9","","68","","","","34","","19","","","","102.20","","","","-18","","NA"
"-68.47","48.51","POINTE-AU-PERE (INRS)","7056068","2012-02-04 10:00","2012","02","04","10:00","-10.1","","-14.8","","68","","","","33","","13","","","","102.20","","","","-16","","NA"
"-68.47","48.51","POINTE-AU-PERE (INRS)","7056068","2012-02-04 11:00","2012","02","04","11:00","-10.0","","-15.0","","67","","","","33","","15","","","","102.18","","","","-17","","NA"
"-68.47","48.51","POINTE-AU-PERE (INRS)","7056068","2012-02-04 12:00","2012","02","04","12:00","-9.7","","-15.9","","61","","","","35","","7","","","","102.12","","","","-14","","NA"
"-68.47","48.51","POINTE-AU-PERE (INRS)","7056068","2012-02-04 13:00","2012","02","04","13:00","-9.0","","-14.9","","62","","","","32","","9","","","","102.05","","","","-14","","NA"
"-68.47","48.51","POINTE-AU-PERE (INRS)","7056068","2012-02-04 14:00","2012","02","04","14:00","-8.6","","-14.7","","61","","","","34","","7","","","","102.01","","","","-12","","NA"
"-68.47","48.51","POINTE-AU-PERE (INRS)","7056068","2012-02-04 15:00","2012","02","04","15:00","-8.3","","-15.1","","58","","","","33","","15","","","","101.99","","","","-15","","NA"
"-68.47","48.51","POINTE-AU-PERE (INRS)","7056068","2012-02-04 16:00","2012","02","04","16:00","-8.7","","-14.7","","62","","","","34","","17","","","","102.00","","","","-16","","NA"
"-68.47","48.51","POINTE-AU-PERE (INRS)","7056068","2012-02-04 17:00","2012","02","04","17:00","-9.1","","-15.2","","61","","","","34","","19","","","","102.04","","","","-17","","NA"
"-68.47","48.51","POINTE-AU-PERE (INRS)","7056068","2012-02-04 18:00","2012","02","04","18:00","-9.8","","-16.5","","58","","","","35","","22","","","","102.07","","","","-18","","NA"
"-68.47","48.51","POINTE-AU-PERE (INRS)","7056068","2012-02-04 19:00","2012","02","04","19:00","-10.4","","-16.6","","60","","","","35","","20","","","","102.13","","","","-18","","NA"
"-68.47","48.51","POINTE-AU-PERE (INRS)","7056068","2012-02-04 20:00","2012","02","04","20:00","-10.8","","-16.8","","61","","","","36","","20","","","","102.15","","","","-19","","NA"
"-68.47","48.51","POINTE-AU-PERE (INRS)","7056068","2012-02-04 21:00","2012","02","04","21:00","-11.1","","-16.8","","63","","","","36","","17","","","","102.13","","","","-19","","NA"
"-68.47","48.51","POINTE-AU-PERE (INRS)","7056068","2012-02-04 22:00","2012","02","04","22:00","-11.9","","-17.4","","64","","","","33","","19","","","","102.08","","","","-20","","NA"
"-68.47","48.51","POINTE-AU-PERE (INRS)","7056068","2012-02-04 23:00","2012","02","04","23:00","-12.1","","-17.3","","65","","","","32","","19","","","","102.05","","","","-20","","NA"
"-68.47","48.51","POINTE-AU-PERE (INRS)","7056068","2012-02-05 00:00","2012","02","05","00:00","-12.1","","-16.9","","67","","","","32","","22","","","","102.02","","","","-21","","NA"
"-68.47","48.51","POINTE-AU-PERE (INRS)","7056068","2012-02-05 01:00","2012","02","05","01:00","-12.7","","-16.9","","71","","","","32","","22","","","","101.97","","","","-22","","NA"
"-68.47","48.51","POINTE-AU-PERE (INRS)","7056068","2012-02-05 02:00","2012","02","05","02:00","-13.0","","-17.3","","70","","","","33","","26","","","","101.97","","","","-23","","NA"
"-68.47","48.51","POINTE-AU-PERE (INRS)","7056068","2012-02-05 03:00","2012","02","05","03:00","-13.3","","-17.6","","70","","","","33","","24","","","","101.95","","","","-23","","NA"
"-68.47","48.51","POINTE-AU-PERE (INRS)","7056068","2012-02-05 04:00","2012","02","05","04:00","-13.6","","-18.0","","69","","","","33","","24","","","","101.98","","","","-23","","NA"
"-68.47","48.51","POINTE-AU-PERE (INRS)","7056068","2012-02-05 05:00","2012","02","05","05:00","-13.8","","-17.9","","71","","","","32","","20","","","","101.95","","","","-23","","NA"
"-68.47","48.51","POINTE-AU-PERE (INRS)","7056068","2012-02-05 06:00","2012","02","05","06:00","-13.9","","-17.8","","72","","","","32","","19","","","","101.97","","","","-23","","NA"
"-68.47","48.51","POINTE-AU-PERE (INRS)","7056068","2012-02-05 07:00","2012","02","05","07:00","-14.0","","-18.2","","70","","","","32","","17","","","","101.94","","","","-22","","NA"
"-68.47","48.51","POINTE-AU-PERE (INRS)","7056068","2012-02-05 08:00","2012","02","05","08:00","-13.7","","-17.8","","71","","","","31","","17","","","","101.93","","","","-22","","NA"
"-68.47","48.51","POINTE-AU-PERE (INRS)","7056068","2012-02-05 09:00","2012","02","05","09:00","-14.1","","-18.2","","71","","","","29","","17","","","","101.95","","","","-22","","NA"
"-68.47","48.51","POINTE-AU-PERE (INRS)","7056068","2012-02-05 10:00","2012","02","05","10:00","-13.3","","-18.1","","67","","","","29","","15","","","","101.87","","","","-21","","NA"
"-68.47","48.51","POINTE-AU-PERE (INRS)","7056068","2012-02-05 11:00","2012","02","05","11:00","-12.7","","-18.0","","64","","","","25","","19","","","","101.80","","","","-21","","NA"
"-68.47","48.51","POINTE-AU-PERE (INRS)","7056068","2012-02-05 12:00","2012","02","05","12:00","-11.1","","-16.5","","64","","","","24","","15","","","","101.68","","","","-18","","NA"
"-68.47","48.51","POINTE-AU-PERE (INRS)","7056068","2012-02-05 13:00","2012","02","05","13:00","-10.2","","-16.6","","59","","","","23","","19","","","","101.55","","","","-18","","NA"
"-68.47","48.51","POINTE-AU-PERE (INRS)","7056068","2012-02-05 14:00","2012","02","05","14:00","-9.5","","-15.0","","64","","","","23","","20","","","","101.52","","","","-17","","NA"
"-68.47","48.51","POINTE-AU-PERE (INRS)","7056068","2012-02-05 15:00","2012","02","05","15:00","-9.4","","-13.3","","73","","","","23","","26","","","","101.32","","","","-18","","NA"
"-68.47","48.51","POINTE-AU-PERE (INRS)","7056068","2012-02-05 16:00","2012","02","05","16:00","-9.6","","-14.1","","70","","","","22","","22","","","","101.29","","","","-18","","NA"
"-68.47","48.51","POINTE-AU-PERE (INRS)","7056068","2012-02-05 17:00","2012","02","05","17:00","-9.4","","-14.1","","69","","","","20","","19","","","","101.16","","","","-17","","NA"
"-68.47","48.51","POINTE-AU-PERE (INRS)","7056068","2012-02-05 18:00","2012","02","05","18:00","-9.4","","-14.5","","66","","","","21","","22","","","","101.12","","","","-17","","NA"
"-68.47","48.51","POINTE-AU-PERE (INRS)","7056068","2012-02-05 19:00","2012","02","05","19:00","-9.0","","-14.3","","65","","","","21","","24","","","","101.03","","","","-17","","NA"
"-68.47","48.51","POINTE-AU-PERE (INRS)","7056068","2012-02-05 20:00","2012","02","05","20:00","-8.5","","-12.4","","73","","","","21","","22","","","","100.90","","","","-16","","NA"
"-68.47","48.51","POINTE-AU-PERE (INRS)","7056068","2012-02-05 21:00","2012","02","05","21:00","-8.3","","-12.3","","73","","","","19","","19","","","","100.74","","","","-16","","NA"
"-68.47","48.51","POINTE-AU-PERE (INRS)","7056068","2012-02-05 22:00","2012","02","05","22:00","-8.1","","-11.2","","78","","","","20","","19","","","","100.60","","","","-15","","NA"
"-68.47","48.51","POINTE-AU-PERE (INRS)","7056068","2012-02-05 23:00","2012","02","05","23:00","-8.3","","-10.4","","85","","","","20","","20","","","","100.50","","","","-16","","NA"
"-68.47","48.51","POINTE-AU-PERE (INRS)","7056068","2012-02-06 00:00","2012","02","06","00:00","-8.0","","-9.4","","90","","","","20","","22","","","","100.39","","","","-16","","NA"
"-68.47","48.51","POINTE-AU-PERE (INRS)","7056068","2012-02-06 01:00","2012","02","06","01:00","-7.7","","-9.1","","90","","","","20","","24","","","","100.27","","","","-16","","NA"
"-68.47","48.51","POINTE-AU-PERE (INRS)","7056068","2012-02-06 02:00","2012","02","06","02:00","-6.4","","-8.3","","86","","","","20","","26","","","","100.22","","","","-14","","NA"
"-68.47","48.51","POINTE-AU-PERE (INRS)","7056068","2012-02-06 03:00","2012","02","06","03:00","-5.8","","-8.4","","82","","","","20","","22","","","","100.17","","","","-13","","NA"
"-68.47","48.51","POINTE-AU-PERE (INRS)","7056068","2012-02-06 04:00","2012","02","06","04:00","-4.9","","-7.7","","81","","","","21","","22","","","","100.12","","","","-12","","NA"
"-68.47","48.51","POINTE-AU-PERE (INRS)","7056068","2012-02-06 05:00","2012","02","06","05:00","-3.9","","-6.4","","83","","","","22","","35","","","","100.04","","","","-12","","NA"
"-68.47","48.51","POINTE-AU-PERE (INRS)","7056068","2012-02-06 06:00","2012","02","06","06:00","-3.5","","-6.1","","82","","","","22","","28","","","","100.02","","","","-11","","NA"
"-68.47","48.51","POINTE-AU-PERE (INRS)","7056068","2012-02-06 07:00","2012","02","06","07:00","-3.0","","-5.7","","82","","","","22","","28","","","","100.04","","","","-10","","NA"
"-68.47","48.51","POINTE-AU-PERE (INRS)","7056068","2012-02-06 08:00","2012","02","06","08:00","-2.2","","-5.3","","79","","","","21","","19","","","","100.03","","","","-8","","NA"
"-68.47","48.51","POINTE-AU-PERE (INRS)","7056068","2012-02-06 09:00","2012","02","06","09:00","-1.8","","-4.8","","80","","","","22","","19","","","","100.02","","","","-7","","NA"
"-68.47","48.51","POINTE-AU-PERE (INRS)","7056068","2012-02-06 10:00","2012","02","06","10:00","-1.2","","-3.9","","82","","","","22","","30","","","","100.00","","","","-8","","NA"
"-68.47","48.51","POINTE-AU-PERE (INRS)","7056068","2012-02-06 11:00","2012","02","06","11:00","-0.9","","-3.2","","84","","","","22","","32","","","","99.97","","","","-8","","NA"
"-68.47","48.51","POINTE-AU-PERE (INRS)","7056068","2012-02-06 12:00","2012","02","06","12:00","-0.6","","-2.8","","85","","","","22","","33","","","","99.93","","","","-8","","NA"
"-68.47","48.51","POINTE-AU-PERE (INRS)","7056068","2012-02-06 13:00","2012","02","06","13:00","-0.2","","-2.7","","83","","","","22","","30","","","","99.85","","","","-7","","NA"
"-68.47","48.51","POINTE-AU-PERE (INRS)","7056068","2012-02-06 14:00","2012","02","06","14:00","0.1","","-2.7","","81","","","","23","","26","","","","99.86","","","","","","NA"
"-68.47","48.51","POINTE-AU-PERE (INRS)","7056068","2012-02-06 15:00","2012","02","06","15:00","0.5","","-2.5","","80","","","","23","","32","","","","99.87","","","","","","NA"
"-68.47","48.51","POINTE-AU-PERE (INRS)","7056068","2012-02-06 16:00","2012","02","06","16:00","0.8","","-2.3","","80","","","","24","","30","","","","99.89","","","","","","NA"
"-68.47","48.51","POINTE-AU-PERE (INRS)","7056068","2012-02-06 17:00","2012","02","06","17:00","0.0","","-2.4","","84","","","","24","","28","","","","99.96","","","","-6","","NA"
"-68.47","48.51","POINTE-AU-PERE (INRS)","7056068","2012-02-06 18:00","2012","02","06","18:00","0.0","","-2.3","","84","","","","25","","24","","","","100.02","","","","-6","","NA"
"-68.47","48.51","POINTE-AU-PERE (INRS)","7056068","2012-02-06 19:00","2012","02","06","19:00","-0.3","","-2.3","","86","","","","29","","17","","","","100.15","","","","-5","","NA"
"-68.47","48.51","POINTE-AU-PERE (INRS)","7056068","2012-02-06 20:00","2012","02","06","20:00","-1.6","","-5.8","","73","","","","31","","30","","","","100.26","","","","-9","","NA"
"-68.47","48.51","POINTE-AU-PERE (INRS)","7056068","2012-02-06 21:00","2012","02","06","21:00","-2.7","","-7.8","","68","","","","33","","26","","","","100.42","","","","-10","","NA"
"-68.47","48.51","POINTE-AU-PERE (INRS)","7056068","2012-02-06 22:00","2012","02","06","22:00","-3.5","","-7.8","","72","","","","30","","22","","","","100.51","","","","-10","","NA"
"-68.47","48.51","POINTE-AU-PERE (INRS)","7056068","2012-02-06 23:00","2012","02","06","23:00","-3.5","","-8.9","","66","","","","30","","26","","","","100.59","","","","-11","","NA"
"-68.47","48.51","POINTE-AU-PERE (INRS)","7056068","2012-02-07 00:00","2012","02","07","00:00","-4.0","","-10.0","","63","","","","30","","20","","","","100.67","","","","-10","","NA"
"-68.47","48.51","POINTE-AU-PERE (INRS)","7056068","2012-02-07 01:00","2012","02","07","01:00","-4.7","","-10.1","","66","","","","29","","28","","","","100.72","","","","-12","","NA"
"-68.47","48.51","POINTE-AU-PERE (INRS)","7056068","2012-02-07 02:00","2012","02","07","02:00","-5.2","","-10.2","","68","","","","30","","26","","","","100.81","","","","-13","","NA"
"-68.47","48.51","POINTE-AU-PERE (INRS)","7056068","2012-02-07 03:00","2012","02","07","03:00","-5.0","","-10.1","","67","","","","29","","22","","","","100.86","","","","-12","","NA"
"-68.47","48.51","POINTE-AU-PERE (INRS)","7056068","2012-02-07 04:00","2012","02","07","04:00","-5.1","","-10.0","","68","","","","31","","19","","","","100.91","","","","-12","","NA"
"-68.47","48.51","POINTE-AU-PERE (INRS)","7056068","2012-02-07 05:00","2012","02","07","05:00","-5.9","","-11.3","","66","","","","30","","26","","","","101.02","","","","-14","","NA"
"-68.47","48.51","POINTE-AU-PERE (INRS)","7056068","2012-02-07 06:00","2012","02","07","06:00","-7.3","","-12.8","","65","","","","30","","32","","","","101.15","","","","-16","","NA"
"-68.47","48.51","POINTE-AU-PERE (INRS)","7056068","2012-02-07 07:00","2012","02","07","07:00","-8.1","","-13.3","","66","","","","30","","30","","","","101.29","","","","-17","","NA"
"-68.47","48.51","POINTE-AU-PERE (INRS)","7056068","2012-02-07 08:00","2012","02","07","08:00","-9.0","","-14.3","","65","","","","31","","28","","","","101.42","","","","-18","","NA"
"-68.47","48.51","POINTE-AU-PERE (INRS)","7056068","2012-02-07 09:00","2012","02","07","09:00","-9.0","","-14.5","","64","","","","32","","24","","","","101.50","","","","-17","","NA"
"-68.47","48.51","POINTE-AU-PERE (INRS)","7056068","2012-02-07 10:00","2012","02","07","10:00","-8.3","","-14.2","","62","","","","30","","17","","","","101.50","","","","-15","","NA"
"-68.47","48.51","POINTE-AU-PERE (INRS)","7056068","2012-02-07 11:00","2012","02","07","11:00","-8.2","","-13.7","","65","","","","28","","20","","","","101.51","","","","-16","","NA"
"-68.47","48.51","POINTE-AU-PERE (INRS)","7056068","2012-02-07 12:00","2012","02","07","12:00","-8.8","","-14.5","","63","","","","27","","28","","","","101.53","","","","-18","","NA"
"-68.47","48.51","POINTE-AU-PERE (INRS)","7056068","2012-02-07 13:00","2012","02","07","13:00","-8.9","","-14.8","","62","","","","28","","24","","","","101.55","","","","-17","","NA"
"-68.47","48.51","POINTE-AU-PERE (INRS)","7056068","2012-02-07 14:00","2012","02","07","14:00","-9.0","","-15.8","","58","","","","29","","24","","","","101.58","","","","-17","","NA"
"-68.47","48.51","POINTE-AU-PERE (INRS)","7056068","2012-02-07 15:00","2012","02","07","15:00","-9.3","","-15.8","","59","","","","30","","20","","","","101.64","","","","-17","","NA"
"-68.47","48.51","POINTE-AU-PERE (INRS)","7056068","2012-02-07 16:00","2012","02","07","16:00","-9.8","","-16.0","","61","","","","30","","20","","","","101.68","","","","-18","","NA"
"-68.47","48.51","POINTE-AU-PERE (INRS)","7056068","2012-02-07 17:00","2012","02","07","17:00","-10.5","","-16.9","","59","","","","29","","24","","","","101.76","","","","-19","","NA"
"-68.47","48.51","POINTE-AU-PERE (INRS)","7056068","2012-02-07 18:00","2012","02","07","18:00","-10.7","","-16.6","","62","","","","28","","22","","","","101.85","","","","-19","","NA"
"-68.47","48.51","POINTE-AU-PERE (INRS)","7056068","2012-02-07 19:00","2012","02","07","19:00","-11.4","","-17.0","","63","","","","29","","20","","","","101.92","","","","-20","","NA"
"-68.47","48.51","POINTE-AU-PERE (INRS)","7056068","2012-02-07 20:00","2012","02","07","20:00","-12.3","","-17.8","","64","","","","29","","20","","","","102.00","","","","-21","","NA"
"-68.47","48.51","POINTE-AU-PERE (INRS)","7056068","2012-02-07 21:00","2012","02","07","21:00","-13.1","","-18.8","","62","","","","29","","19","","","","102.04","","","","-22","","NA"
"-68.47","48.51","POINTE-AU-PERE (INRS)","7056068","2012-02-07 22:00","2012","02","07","22:00","-13.6","","-19.2","","63","","","","29","","19","","","","102.06","","","","-22","","NA"
"-68.47","48.51","POINTE-AU-PERE (INRS)","7056068","2012-02-07 23:00","2012","02","07","23:00","-14.2","","-19.1","","66","","","","27","","19","","","","102.12","","","","-23","","NA"
"-68.47","48.51","POINTE-AU-PERE (INRS)","7056068","2012-02-08 00:00","2012","02","08","00:00","-14.6","","-19.8","","65","","","","29","","17","","","","102.10","","","","-23","","NA"
"-68.47","48.51","POINTE-AU-PERE (INRS)","7056068","2012-02-08 01:00","2012","02","08","01:00","-14.7","","-20.2","","63","","","","28","","19","","","","102.12","","","","-24","","NA"
"-68.47","48.51","POINTE-AU-PERE (INRS)","7056068","2012-02-08 02:00","2012","02","08","02:00","-14.2","","-19.5","","64","","","","27","","15","","","","102.11","","","","-22","","NA"
"-68.47","48.51","POINTE-AU-PERE (INRS)","7056068","2012-02-08 03:00","2012","02","08","03:00","-16.2","","-20.0","","72","","","","20","","17","","","","102.01","","","","-25","","NA"
"-68.47","48.51","POINTE-AU-PERE (INRS)","7056068","2012-02-08 04:00","2012","02","08","04:00","-13.4","","-17.8","","69","","","","25","","28","","","","101.91","","","","-24","","NA"
"-68.47","48.51","POINTE-AU-PERE (INRS)","7056068","2012-02-08 05:00","2012","02","08","05:00","-15.7","","-20.3","","68","","","","22","","19","","","","101.85","","","","-25","","NA"
"-68.47","48.51","POINTE-AU-PERE (INRS)","7056068","2012-02-08 06:00","2012","02","08","06:00","-15.5","","-20.6","","65","","","","19","","24","","","","101.76","","","","-26","","NA"
"-68.47","48.51","POINTE-AU-PERE (INRS)","7056068","2012-02-08 07:00","2012","02","08","07:00","-16.1","","-20.9","","66","","","","18","","26","","","","101.68","","","","-27","","NA"
"-68.47","48.51","POINTE-AU-PERE (INRS)","7056068","2012-02-08 08:00","2012","02","08","08:00","-15.1","","-20.5","","63","","","","19","","32","","","","101.64","","","","-26","","NA"
"-68.47","48.51","POINTE-AU-PERE (INRS)","7056068","2012-02-08 09:00","2012","02","08","09:00","-14.6","","-20.4","","61","","","","18","","26","","","","101.61","","","","-25","","NA"
"-68.47","48.51","POINTE-AU-PERE (INRS)","7056068","2012-02-08 10:00","2012","02","08","10:00","-12.6","","-20.1","","53","","","","19","","30","","","","101.58","","","","-23","","NA"
"-68.47","48.51","POINTE-AU-PERE (INRS)","7056068","2012-02-08 11:00","2012","02","08","11:00","-11.3","","-18.7","","54","","","","20","","30","","","","101.48","","","","-21","","NA"
"-68.47","48.51","POINTE-AU-PERE (INRS)","7056068","2012-02-08 12:00","2012","02","08","12:00","-9.1","","-13.6","","70","","","","23","","44","","","","101.41","","","","-20","","NA"
"-68.47","48.51","POINTE-AU-PERE (INRS)","7056068","2012-02-08 13:00","2012","02","08","13:00","-8.0","","-13.4","","65","","","","23","","35","","","","101.32","","","","-18","","NA"
"-68.47","48.51","POINTE-AU-PERE (INRS)","7056068","2012-02-08 14:00","2012","02","08","14:00","-7.1","","-12.8","","64","","","","23","","32","","","","101.24","","","","-16","","NA"
"-68.47","48.51","POINTE-AU-PERE (INRS)","7056068","2012-02-08 15:00","2012","02","08","15:00","-6.5","","-12.5","","62","","","","23","","30","","","","101.17","","","","-15","","NA"
"-68.47","48.51","POINTE-AU-PERE (INRS)","7056068","2012-02-08 16:00","2012","02","08","16:00","-6.7","","-12.3","","64","","","","22","","20","","","","101.19","","","","-14","","NA"
"-68.47","48.51","POINTE-AU-PERE (INRS)","7056068","2012-02-08 17:00","2012","02","08","17:00","-6.9","","-12.6","","64","","","","23","","28","","","","101.17","","","","-15","","NA"
"-68.47","48.51","POINTE-AU-PERE (INRS)","7056068","2012-02-08 18:00","2012","02","08","18:00","-6.7","","-12.1","","65","","","","23","","22","","","","101.20","","","","-14","","NA"
"-68.47","48.51","POINTE-AU-PERE (INRS)","7056068","2012-02-08 19:00","2012","02","08","19:00","-8.1","","-14.1","","62","","","","21","","19","","","","101.16","","","","-15","","NA"
"-68.47","48.51","POINTE-AU-PERE (INRS)","7056068","2012-02-08 20:00","2012","02","08","20:00","-9.1","","-15.3","","61","","","","18","","11","","","","101.15","","","","-15","","NA"
"-68.47","48.51","POINTE-AU-PERE (INRS)","7056068","2012-02-08 21:00","2012","02","08","21:00","-8.0","","-15.0","","57","","","","20","","19","","","","101.15","","","","-15","","NA"
"-68.47","48.51","POINTE-AU-PERE (INRS)","7056068","2012-02-08 22:00","2012","02","08","22:00","-7.4","","-14.6","","56","","","","20","","20","","","","101.14","","","","-15","","NA"
"-68.47","48.51","POINTE-AU-PERE (INRS)","7056068","2012-02-08 23:00","2012","02","08","23:00","-7.0","","-13.8","","58","","","","20","","22","","","","101.10","","","","-14","","NA"
"-68.47","48.51","POINTE-AU-PERE (INRS)","7056068","2012-02-09 00:00","2012","02","09","00:00","-6.8","","-13.3","","60","","","","20","","22","","","","101.10","","","","-14","","NA"
"-68.47","48.51","POINTE-AU-PERE (INRS)","7056068","2012-02-09 01:00","2012","02","09","01:00","-6.4","","-12.8","","60","","","","19","","22","","","","101.06","","","","-14","","NA"
"-68.47","48.51","POINTE-AU-PERE (INRS)","7056068","2012-02-09 02:00","2012","02","09","02:00","-6.4","","-12.7","","61","","","","19","","24","","","","101.00","","","","-14","","NA"
"-68.47","48.51","POINTE-AU-PERE (INRS)","7056068","2012-02-09 03:00","2012","02","09","03:00","-7.5","","-13.1","","64","","","","20","","22","","","","101.01","","","","-15","","NA"
"-68.47","48.51","POINTE-AU-PERE (INRS)","7056068","2012-02-09 04:00","2012","02","09","04:00","-7.4","","-12.6","","66","","","","21","","22","","","","101.02","","","","-15","","NA"
"-68.47","48.51","POINTE-AU-PERE (INRS)","7056068","2012-02-09 05:00","2012","02","09","05:00","-7.4","","-12.3","","68","","","","21","","17","","","","101.05","","","","-14","","NA"
"-68.47","48.51","POINTE-AU-PERE (INRS)","7056068","2012-02-09 06:00","2012","02","09","06:00","-8.1","","-12.5","","71","","","","19","","9","","","","101.10","","","","-13","","NA"
"-68.47","48.51","POINTE-AU-PERE (INRS)","7056068","2012-02-09 07:00","2012","02","09","07:00","-7.5","","-11.8","","71","","","","18","","17","","","","101.12","","","","-14","","NA"
"-68.47","48.51","POINTE-AU-PERE (INRS)","7056068","2012-02-09 08:00","2012","02","09","08:00","-6.2","","-11.1","","68","","","","19","","22","","","","101.17","","","","-13","","NA"
"-68.47","48.51","POINTE-AU-PERE (INRS)","7056068","2012-02-09 09:00","2012","02","09","09:00","-5.7","","-10.9","","67","","","","20","","22","","","","101.19","","","","-13","","NA"
"-68.47","48.51","POINTE-AU-PERE (INRS)","7056068","2012-02-09 10:00","2012","02","09","10:00","-4.7","","-10.1","","66","","","","20","","17","","","","101.19","","","","-11","","NA"
"-68.47","48.51","POINTE-AU-PERE (INRS)","7056068","2012-02-09 11:00","2012","02","09","11:00","-3.5","","-8.1","","70","","","","23","","19","","","","101.18","","","","-9","","NA"
"-68.47","48.51","POINTE-AU-PERE (INRS)","7056068","2012-02-09 12:00","2012","02","09","12:00","-2.5","","-6.3","","75","","","","24","","30","","","","101.10","","","","-10","","NA"
"-68.47","48.51","POINTE-AU-PERE (INRS)","7056068","2012-02-09 13:00","2012","02","09","13:00","-2.6","","-6.4","","75","","","","23","","30","","","","101.08","","","","-10","","NA"
"-68.47","48.51","POINTE-AU-PERE (INRS)","7056068","2012-02-09 14:00","2012","02","09","14:00","-2.5","","-6.6","","73","","","","23","","24","","","","101.07","","","","-9","","NA"
"-68.47","48.51","POINTE-AU-PERE (INRS)","7056068","2012-02-09 15:00","2012","02","09","15:00","-3.2","","-7.0","","75","","","","22","","24","","","","101.13","","","","-10","","NA"
"-68.47","48.51","POINTE-AU-PERE (INRS)","7056068","2012-02-09 16:00","2012","02","09","16:00","-2.8","","-6.5","","76","","","","22","","17","","","","101.20","","","","-8","","NA"
"-68.47","48.51","POINTE-AU-PERE (INRS)","7056068","2012-02-09 17:00","2012","02","09","17:00","-4.4","","-8.0","","76","","","","19","","9","","","","101.21","","","","-8","","NA"
"-68.47","48.51","POINTE-AU-PERE (INRS)","7056068","2012-02-09 18:00","2012","02","09","18:00","-5.6","","-8.8","","78","","","","13","","4","","","","101.27","","","","-7","","NA"
"-68.47","48.51","POINTE-AU-PERE (INRS)","7056068","2012-02-09 19:00","2012","02","09","19:00","-6.3","","-9.4","","79","","","","23","","6","","","","101.33","","","","-9","","NA"
"-68.47","48.51","POINTE-AU-PERE (INRS)","7056068","2012-02-09 20:00","2012","02","09","20:00","-6.2","","-9.4","","78","","","","17","","7","","","","101.35","","","","-10","","NA"
"-68.47","48.51","POINTE-AU-PERE (INRS)","7056068","2012-02-09 21:00","2012","02","09","21:00","-4.6","","-7.9","","78","","","","19","","17","","","","101.34","","","","-10","","NA"
"-68.47","48.51","POINTE-AU-PERE (INRS)","7056068","2012-02-09 22:00","2012","02","09","22:00","-3.6","","-7.7","","73","","","","18","","17","","","","101.31","","","","-9","","NA"
"-68.47","48.51","POINTE-AU-PERE (INRS)","7056068","2012-02-09 23:00","2012","02","09","23:00","-4.0","","-8.3","","72","","","","18","","22","","","","101.29","","","","-11","","NA"
"-68.47","48.51","POINTE-AU-PERE (INRS)","7056068","2012-02-10 00:00","2012","02","10","00:00","-4.2","","-8.7","","71","","","","18","","20","","","","101.27","","","","-11","","NA"
"-68.47","48.51","POINTE-AU-PERE (INRS)","7056068","2012-02-10 01:00","2012","02","10","01:00","-4.5","","-8.9","","71","","","","18","","26","","","","101.20","","","","-12","","NA"
"-68.47","48.51","POINTE-AU-PERE (INRS)","7056068","2012-02-10 02:00","2012","02","10","02:00","-4.8","","-9.0","","72","","","","17","","24","","","","101.16","","","","-12","","NA"
"-68.47","48.51","POINTE-AU-PERE (INRS)","7056068","2012-02-10 03:00","2012","02","10","03:00","-4.6","","-8.7","","73","","","","17","","24","","","","101.11","","","","-12","","NA"
"-68.47","48.51","POINTE-AU-PERE (INRS)","7056068","2012-02-10 04:00","2012","02","10","04:00","-4.8","","-8.8","","74","","","","16","","22","","","","101.05","","","","-12","","NA"
"-68.47","48.51","POINTE-AU-PERE (INRS)","7056068","2012-02-10 05:00","2012","02","10","05:00","-5.7","","-9.7","","73","","","","21","","15","","","","101.09","","","","-11","","NA"
"-68.47","48.51","POINTE-AU-PERE (INRS)","7056068","2012-02-10 06:00","2012","02","10","06:00","-5.4","","-8.8","","77","","","","20","","20","","","","101.10","","","","-12","","NA"
"-68.47","48.51","POINTE-AU-PERE (INRS)","7056068","2012-02-10 07:00","2012","02","10","07:00","-4.4","","-7.9","","77","","","","18","","26","","","","101.11","","","","-12","","NA"
"-68.47","48.51","POINTE-AU-PERE (INRS)","7056068","2012-02-10 08:00","2012","02","10","08:00","-3.9","","-7.7","","75","","","","18","","28","","","","101.14","","","","-11","","NA"
"-68.47","48.51","POINTE-AU-PERE (INRS)","7056068","2012-02-10 09:00","2012","02","10","09:00","-2.7","","-7.1","","72","","","","19","","24","","","","101.14","","","","-9","","NA"
"-68.47","48.51","POINTE-AU-PERE (INRS)","7056068","2012-02-10 10:00","2012","02","10","10:00","-1.3","","-6.4","","68","","","","20","","22","","","","101.11","","","","-7","","NA"
"-68.47","48.51","POINTE-AU-PERE (INRS)","7056068","2012-02-10 11:00","2012","02","10","11:00","0.0","","-6.1","","63","","","","21","","26","","","","101.06","","","","-6","","NA"
"-68.47","48.51","POINTE-AU-PERE (INRS)","7056068","2012-02-10 12:00","2012","02","10","12:00","0.8","","-5.9","","61","","","","21","","28","","","","100.99","","","","","","NA"
"-68.47","48.51","POINTE-AU-PERE (INRS)","7056068","2012-02-10 13:00","2012","02","10","13:00","1.2","","-5.6","","60","","","","20","","28","","","","100.97","","","","","","NA"
"-68.47","48.51","POINTE-AU-PERE (INRS)","7056068","2012-02-10 14:00","2012","02","10","14:00","0.6","","-4.9","","67","","","","22","","39","","","","100.96","","","","","","NA"
"-68.47","48.51","POINTE-AU-PERE (INRS)","7056068","2012-02-10 15:00","2012","02","10","15:00","1.0","","-5.5","","62","","","","21","","28","","","","100.96","","","","","","NA"
"-68.47","48.51","POINTE-AU-PERE (INRS)","7056068","2012-02-10 16:00","2012","02","10","16:00","0.4","","-5.1","","67","","","","22","","24","","","","101.01","","","","","","NA"
"-68.47","48.51","POINTE-AU-PERE (INRS)","7056068","2012-02-10 17:00","2012","02","10","17:00","-0.9","","-5.0","","74","","","","23","","17","","","","101.03","","","","-6","","NA"
"-68.47","48.51","POINTE-AU-PERE (INRS)","7056068","2012-02-10 18:00","2012","02","10","18:00","-0.5","","-5.4","","69","","","","21","","20","","","","101.06","","","","-6","","NA"
"-68.47","48.51","POINTE-AU-PERE (INRS)","7056068","2012-02-10 19:00","2012","02","10","19:00","-2.4","","-5.0","","82","","","","25","","33","","","","101.12","","","","-10","","NA"
"-68.47","48.51","POINTE-AU-PERE (INRS)","7056068","2012-02-10 20:00","2012","02","10","20:00","-5.9","","-8.9","","79","","","","33","","32","","","","101.29","","","","-14","","NA"
"-68.47","48.51","POINTE-AU-PERE (INRS)","7056068","2012-02-10 21:00","2012","02","10","21:00","-7.6","","-11.0","","77","","","","33","","20","","","","101.39","","","","-15","","NA"
"-68.47","48.51","POINTE-AU-PERE (INRS)","7056068","2012-02-10 22:00","2012","02","10","22:00","-9.2","","-13.1","","73","","","","33","","20","","","","101.46","","","","-17","","NA"
"-68.47","48.51","POINTE-AU-PERE (INRS)","7056068","2012-02-10 23:00","2012","02","10","23:00","-10.2","","-14.6","","70","","","","33","","17","","","","101.51","","","","-17","","NA"
"-68.47","48.51","POINTE-AU-PERE (INRS)","7056068","2012-02-11 00:00","2012","02","11","00:00","-11.3","","-16.1","","68","","","","34","","15","","","","101.55","","","","-18","","NA"
"-68.47","48.51","POINTE-AU-PERE (INRS)","7056068","2012-02-11 01:00","2012","02","11","01:00","-12.6","","-16.6","","72","","","","35","","15","","","","101.58","","","","-20","","NA"
"-68.47","48.51","POINTE-AU-PERE (INRS)","7056068","2012-02-11 02:00","2012","02","11","02:00","-13.6","","-18.2","","68","","","","34","","19","","","","101.65","","","","-22","","NA"
"-68.47","48.51","POINTE-AU-PERE (INRS)","7056068","2012-02-11 03:00","2012","02","11","03:00","-13.9","","-19.1","","65","","","","36","","13","","","","101.64","","","","-21","","NA"
"-68.47","48.51","POINTE-AU-PERE (INRS)","7056068","2012-02-11 04:00","2012","02","11","04:00","-14.5","","-19.7","","65","","","","35","","15","","","","101.68","","","","-22","","NA"
"-68.47","48.51","POINTE-AU-PERE (INRS)","7056068","2012-02-11 05:00","2012","02","11","05:00","-14.9","","-19.2","","70","","","","35","","19","","","","101.68","","","","-24","","NA"
"-68.47","48.51","POINTE-AU-PERE (INRS)","7056068","2012-02-11 06:00","2012","02","11","06:00","-15.1","","-20.2","","65","","","","35","","17","","","","101.67","","","","-24","","NA"
"-68.47","48.51","POINTE-AU-PERE (INRS)","7056068","2012-02-11 07:00","2012","02","11","07:00","-15.2","","-18.9","","73","","","","35","","19","","","","101.67","","","","-24","","NA"
"-68.47","48.51","POINTE-AU-PERE (INRS)","7056068","2012-02-11 08:00","2012","02","11","08:00","-15.4","","-18.6","","76","","","","35","","17","","","","101.67","","","","-24","","NA"
"-68.47","48.51","POINTE-AU-PERE (INRS)","7056068","2012-02-11 09:00","2012","02","11","09:00","-15.4","","-18.7","","76","","","","36","","17","","","","101.63","","","","-24","","NA"
"-68.47","48.51","POINTE-AU-PERE (INRS)","7056068","2012-02-11 10:00","2012","02","11","10:00","-15.0","","-18.9","","72","","","","1","","11","","","","101.61","","","","-22","","NA"
"-68.47","48.51","POINTE-AU-PERE (INRS)","7056068","2012-02-11 11:00","2012","02","11","11:00","-14.6","","-19.0","","69","","","","35","","11","","","","101.56","","","","-21","","NA"
"-68.47","48.51","POINTE-AU-PERE (INRS)","7056068","2012-02-11 12:00","2012","02","11","12:00","-14.3","","-19.3","","66","","","","33","","7","","","","101.50","","","","-19","","NA"
"-68.47","48.51","POINTE-AU-PERE (INRS)","7056068","2012-02-11 13:00","2012","02","11","13:00","-14.2","","-19.7","","63","","","","36","","9","","","","101.40","","","","-20","","NA"
"-68.47","48.51","POINTE-AU-PERE (INRS)","7056068","2012-02-11 14:00","2012","02","11","14:00","-13.9","","-20.3","","58","","","","35","","9","","","","101.30","","","","-20","","NA"
"-68.47","48.51","POINTE-AU-PERE (INRS)","7056068","2012-02-11 15:00","2012","02","11","15:00","-13.6","","-21.1","","53","","","","1","","6","","","","101.31","","","","-18","","NA"
"-68.47","48.51","POINTE-AU-PERE (INRS)","7056068","2012-02-11 16:00","2012","02","11","16:00","-13.2","","-20.9","","52","","","","36","","6","","","","101.24","","","","-17","","NA"
"-68.47","48.51","POINTE-AU-PERE (INRS)","7056068","2012-02-11 17:00","2012","02","11","17:00","-13.2","","-21.1","","51","","","","36","","9","","","","101.19","","","","-19","","NA"
"-68.47","48.51","POINTE-AU-PERE (INRS)","7056068","2012-02-11 18:00","2012","02","11","18:00","-12.7","","-20.1","","54","","","","36","","15","","","","101.12","","","","-20","","NA"
"-68.47","48.51","POINTE-AU-PERE (INRS)","7056068","2012-02-11 19:00","2012","02","11","19:00","-12.6","","-18.6","","61","","","","35","","19","","","","101.06","","","","-21","","NA"
"-68.47","48.51","POINTE-AU-PERE (INRS)","7056068","2012-02-11 20:00","2012","02","11","20:00","-13.1","","-19.1","","61","","","","36","","17","","","","101.00","","","","-21","","NA"
"-68.47","48.51","POINTE-AU-PERE (INRS)","7056068","2012-02-11 21:00","2012","02","11","21:00","-13.4","","-20.0","","58","","","","35","","17","","","","100.98","","","","-21","","NA"
"-68.47","48.51","POINTE-AU-PERE (INRS)","7056068","2012-02-11 22:00","2012","02","11","22:00","-13.6","","-19.1","","63","","","","35","","19","","","","100.89","","","","-22","","NA"
"-68.47","48.51","POINTE-AU-PERE (INRS)","7056068","2012-02-11 23:00","2012","02","11","23:00","-14.0","","-20.4","","58","","","","36","","19","","","","100.81","","","","-23","","NA"
"-68.47","48.51","POINTE-AU-PERE (INRS)","7056068","2012-02-12 00:00","2012","02","12","00:00","-14.0","","-19.4","","64","","","","34","","19","","","","100.68","","","","-23","","NA"
"-68.47","48.51","POINTE-AU-PERE (INRS)","7056068","2012-02-12 01:00","2012","02","12","01:00","-14.7","","-19.8","","65","","","","34","","19","","","","100.58","","","","-24","","NA"
"-68.47","48.51","POINTE-AU-PERE (INRS)","7056068","2012-02-12 02:00","2012","02","12","02:00","-15.4","","-20.6","","64","","","","35","","24","","","","100.50","","","","-26","","NA"
"-68.47","48.51","POINTE-AU-PERE (INRS)","7056068","2012-02-12 03:00","2012","02","12","03:00","-15.5","","-20.3","","67","","","","34","","24","","","","100.38","","","","-26","","NA"
"-68.47","48.51","POINTE-AU-PERE (INRS)","7056068","2012-02-12 04:00","2012","02","12","04:00","-16.0","","-21.3","","64","","","","33","","28","","","","100.27","","","","-27","","NA"
"-68.47","48.51","POINTE-AU-PERE (INRS)","7056068","2012-02-12 05:00","2012","02","12","05:00","-16.8","","-21.6","","66","","","","33","","30","","","","100.15","","","","-28","","NA"
"-68.47","48.51","POINTE-AU-PERE (INRS)","7056068","2012-02-12 06:00","2012","02","12","06:00","-17.4","","-22.1","","67","","","","33","","28","","","","100.10","","","","-29","","NA"
"-68.47","48.51","POINTE-AU-PERE (INRS)","7056068","2012-02-12 07:00","2012","02","12","07:00","-17.0","","-21.6","","67","","","","32","","28","","","","100.06","","","","-28","","NA"
"-68.47","48.51","POINTE-AU-PERE (INRS)","7056068","2012-02-12 08:00","2012","02","12","08:00","-17.4","","-22.2","","66","","","","30","","24","","","","100.05","","","","-28","","NA"
"-68.47","48.51","POINTE-AU-PERE (INRS)","7056068","2012-02-12 09:00","2012","02","12","09:00","-17.1","","-21.4","","69","","","","30","","26","","","","100.07","","","","-28","","NA"
"-68.47","48.51","POINTE-AU-PERE (INRS)","7056068","2012-02-12 10:00","2012","02","12","10:00","-16.5","","-20.5","","71","","","","29","","26","","","","100.05","","","","-27","","NA"
"-68.47","48.51","POINTE-AU-PERE (INRS)","7056068","2012-02-12 11:00","2012","02","12","11:00","-16.1","","-20.9","","66","","","","27","","30","","","","100.03","","","","-27","","NA"
"-68.47","48.51","POINTE-AU-PERE (INRS)","7056068","2012-02-12 12:00","2012","02","12","12:00","-15.4","","-21.2","","61","","","","27","","26","","","","100.03","","","","-26","","NA"
"-68.47","48.51","POINTE-AU-PERE (INRS)","7056068","2012-02-12 13:00","2012","02","12","13:00","-15.0","","-22.2","","54","","","","28","","26","","","","99.98","","","","-25","","NA"
"-68.47","48.51","POINTE-AU-PERE (INRS)","7056068","2012-02-12 14:00","2012","02","12","14:00","-14.3","","-21.8","","53","","","","27","","24","","","","99.97","","","","-24","","NA"
"-68.47","48.51","POINTE-AU-PERE (INRS)","7056068","2012-02-12 15:00","2012","02","12","15:00","-14.1","","-20.8","","57","","","","30","","24","","","","99.96","","","","-24","","NA"
"-68.47","48.51","POINTE-AU-PERE (INRS)","7056068","2012-02-12 16:00","2012","02","12","16:00","-14.7","","-21.3","","57","","","","30","","28","","","","100.01","","","","-25","","NA"
"-68.47","48.51","POINTE-AU-PERE (INRS)","7056068","2012-02-12 17:00","2012","02","12","17:00","-15.0","","-20.5","","63","","","","31","","30","","","","100.09","","","","-26","","NA"
"-68.47","48.51","POINTE-AU-PERE (INRS)","7056068","2012-02-12 18:00","2012","02","12","18:00","-16.2","","-22.2","","60","","","","31","","30","","","","100.20","","","","-28","","NA"
"-68.47","48.51","POINTE-AU-PERE (INRS)","7056068","2012-02-12 19:00","2012","02","12","19:00","-16.7","","-22.7","","60","","","","31","","30","","","","100.22","","","","-28","","NA"
"-68.47","48.51","POINTE-AU-PERE (INRS)","7056068","2012-02-12 20:00","2012","02","12","20:00","-17.2","","-23.0","","61","","","","32","","32","","","","100.23","","","","-29","","NA"
"-68.47","48.51","POINTE-AU-PERE (INRS)","7056068","2012-02-12 21:00","2012","02","12","21:00","-17.4","","-23.0","","62","","","","31","","30","","","","100.20","","","","-29","","NA"
"-68.47","48.51","POINTE-AU-PERE (INRS)","7056068","2012-02-12 22:00","2012","02","12","22:00","-17.9","","-23.7","","60","","","","32","","32","","","","100.17","","","","-30","","NA"
"-68.47","48.51","POINTE-AU-PERE (INRS)","7056068","2012-02-12 23:00","2012","02","12","23:00","-18.3","","-24.2","","60","","","","31","","28","","","","100.16","","","","-30","","NA"
"-68.47","48.51","POINTE-AU-PERE (INRS)","7056068","2012-02-13 00:00","2012","02","13","00:00","-18.6","","-24.0","","62","","","","29","","30","","","","100.10","","","","-31","","NA"
"-68.47","48.51","POINTE-AU-PERE (INRS)","7056068","2012-02-13 01:00","2012","02","13","01:00","-19.0","","-23.9","","65","","","","28","","28","","","","100.08","","","","-31","","NA"
"-68.47","48.51","POINTE-AU-PERE (INRS)","7056068","2012-02-13 02:00","2012","02","13","02:00","-19.4","","-23.8","","68","","","","28","","30","","","","100.07","","","","-32","","NA"
"-68.47","48.51","POINTE-AU-PERE (INRS)","7056068","2012-02-13 03:00","2012","02","13","03:00","-19.7","","-23.8","","70","","","","29","","32","","","","100.04","","","","-33","","NA"
"-68.47","48.51","POINTE-AU-PERE (INRS)","7056068","2012-02-13 04:00","2012","02","13","04:00","-19.7","","-23.6","","71","","","","28","","30","","","","100.09","","","","-32","","NA"
"-68.47","48.51","POINTE-AU-PERE (INRS)","7056068","2012-02-13 05:00","2012","02","13","05:00","-19.8","","-23.9","","70","","","","28","","28","","","","100.09","","","","-32","","NA"
"-68.47","48.51","POINTE-AU-PERE (INRS)","7056068","2012-02-13 06:00","2012","02","13","06:00","-19.9","","-24.0","","70","","","","28","","32","","","","100.12","","","","-33","","NA"
"-68.47","48.51","POINTE-AU-PERE (INRS)","7056068","2012-02-13 07:00","2012","02","13","07:00","-20.0","","-24.4","","68","","","","28","","30","","","","100.16","","","","-33","","NA"
"-68.47","48.51","POINTE-AU-PERE (INRS)","7056068","2012-02-13 08:00","2012","02","13","08:00","-19.6","","-24.4","","66","","","","27","","32","","","","100.23","","","","-32","","NA"
"-68.47","48.51","POINTE-AU-PERE (INRS)","7056068","2012-02-13 09:00","2012","02","13","09:00","-19.0","","-24.1","","64","","","","27","","33","","","","100.29","","","","-32","","NA"
"-68.47","48.51","POINTE-AU-PERE (INRS)","7056068","2012-02-13 10:00","2012","02","13","10:00","-18.7","","-24.5","","60","","","","26","","32","","","","100.32","","","","-31","","NA"
"-68.47","48.51","POINTE-AU-PERE (INRS)","7056068","2012-02-13 11:00","2012","02","13","11:00","-17.5","","-23.8","","58","","","","26","","39","","","","100.32","","","","-31","","NA"
"-68.47","48.51","POINTE-AU-PERE (INRS)","7056068","2012-02-13 12:00","2012","02","13","12:00","-16.4","","-23.2","","56","","","","27","","37","","","","100.33","","","","-29","","NA"
"-68.47","48.51","POINTE-AU-PERE (INRS)","7056068","2012-02-13 13:00","2012","02","13","13:00","-15.3","","-22.4","","55","","","","26","","39","","","","100.33","","","","-28","","NA"
"-68.47","48.51","POINTE-AU-PERE (INRS)","7056068","2012-02-13 14:00","2012","02","13","14:00","-14.9","","-23.1","","50","","","","27","","32","","","","100.37","","","","-26","","NA"
"-68.47","48.51","POINTE-AU-PERE (INRS)","7056068","2012-02-13 15:00","2012","02","13","15:00","-14.6","","-20.7","","60","","","","26","","37","","","","100.43","","","","-27","","NA"
"-68.47","48.51","POINTE-AU-PERE (INRS)","7056068","2012-02-13 16:00","2012","02","13","16:00","-14.1","","-19.9","","61","","","","26","","35","","","","100.53","","","","-26","","NA"
"-68.47","48.51","POINTE-AU-PERE (INRS)","7056068","2012-02-13 17:00","2012","02","13","17:00","-14.5","","-20.5","","60","","","","26","","33","","","","100.67","","","","-26","","NA"
"-68.47","48.51","POINTE-AU-PERE (INRS)","7056068","2012-02-13 18:00","2012","02","13","18:00","-14.5","","-20.0","","63","","","","26","","35","","","","100.77","","","","-26","","NA"
"-68.47","48.51","POINTE-AU-PERE (INRS)","7056068","2012-02-13 19:00","2012","02","13","19:00","-15.1","","-22.0","","56","","","","27","","32","","","","100.89","","","","-26","","NA"
"-68.47","48.51","POINTE-AU-PERE (INRS)","7056068","2012-02-13 20:00","2012","02","13","20:00","-15.7","","-22.6","","55","","","","28","","33","","","","100.95","","","","-27","","NA"
"-68.47","48.51","POINTE-AU-PERE (INRS)","7056068","2012-02-13 21:00","2012","02","13","21:00","-15.6","","-21.8","","59","","","","28","","28","","","","101.02","","","","-26","","NA"
"-68.47","48.51","POINTE-AU-PERE (INRS)","7056068","2012-02-13 22:00","2012","02","13","22:00","-15.5","","-21.2","","62","","","","28","","24","","","","101.07","","","","-26","","NA"
"-68.47","48.51","POINTE-AU-PERE (INRS)","7056068","2012-02-13 23:00","2012","02","13","23:00","-15.6","","-21.5","","61","","","","27","","22","","","","101.11","","","","-25","","NA"
"-68.47","48.51","POINTE-AU-PERE (INRS)","7056068","2012-02-14 00:00","2012","02","14","00:00","-15.4","","-21.2","","61","","","","25","","22","","","","101.14","","","","-25","","NA"
"-68.47","48.51","POINTE-AU-PERE (INRS)","7056068","2012-02-14 01:00","2012","02","14","01:00","-15.0","","-21.0","","60","","","","26","","26","","","","101.18","","","","-25","","NA"
"-68.47","48.51","POINTE-AU-PERE (INRS)","7056068","2012-02-14 02:00","2012","02","14","02:00","-17.2","","-22.4","","64","","","","21","","17","","","","101.28","","","","-26","","NA"
"-68.47","48.51","POINTE-AU-PERE (INRS)","7056068","2012-02-14 03:00","2012","02","14","03:00","-17.8","","-22.8","","65","","","","20","","15","","","","101.35","","","","-26","","NA"
"-68.47","48.51","POINTE-AU-PERE (INRS)","7056068","2012-02-14 04:00","2012","02","14","04:00","-17.6","","-22.4","","66","","","","21","","15","","","","101.48","","","","-26","","NA"
"-68.47","48.51","POINTE-AU-PERE (INRS)","7056068","2012-02-14 05:00","2012","02","14","05:00","-17.4","","-22.1","","67","","","","21","","17","","","","101.55","","","","-26","","NA"
"-68.47","48.51","POINTE-AU-PERE (INRS)","7056068","2012-02-14 06:00","2012","02","14","06:00","-17.7","","-23.3","","62","","","","19","","19","","","","101.61","","","","-27","","NA"
"-68.47","48.51","POINTE-AU-PERE (INRS)","7056068","2012-02-14 07:00","2012","02","14","07:00","-18.5","","-24.6","","59","","","","17","","17","","","","101.68","","","","-28","","NA"
"-68.47","48.51","POINTE-AU-PERE (INRS)","7056068","2012-02-14 08:00","2012","02","14","08:00","-16.6","","-24.7","","50","","","","17","","20","","","","101.70","","","","-26","","NA"
"-68.47","48.51","POINTE-AU-PERE (INRS)","7056068","2012-02-14 09:00","2012","02","14","09:00","-15.0","","-23.6","","48","","","","17","","11","","","","101.68","","","","-22","","NA"
"-68.47","48.51","POINTE-AU-PERE (INRS)","7056068","2012-02-14 10:00","2012","02","14","10:00","-12.7","","-23.0","","42","","","","14","","6","","","","101.58","","","","-17","","NA"
"-68.47","48.51","POINTE-AU-PERE (INRS)","7056068","2012-02-14 11:00","2012","02","14","11:00","-10.9","","-19.3","","50","","","","31","","6","","","","101.49","","","","-15","","NA"
"-68.47","48.51","POINTE-AU-PERE (INRS)","7056068","2012-02-14 12:00","2012","02","14","12:00","-10.0","","-18.9","","48","","","","36","","4","","","","101.41","","","","-12","","NA"
"-68.47","48.51","POINTE-AU-PERE (INRS)","7056068","2012-02-14 13:00","2012","02","14","13:00","-8.8","","-14.8","","62","","","","","","0","","","","101.33","","","","","","NA"
"-68.47","48.51","POINTE-AU-PERE (INRS)","7056068","2012-02-14 14:00","2012","02","14","14:00","-7.0","","-13.4","","60","","","","18","","13","","","","101.30","","","","-13","","NA"
"-68.47","48.51","POINTE-AU-PERE (INRS)","7056068","2012-02-14 15:00","2012","02","14","15:00","-6.3","","-12.5","","61","","","","20","","13","","","","101.29","","","","-12","","NA"
"-68.47","48.51","POINTE-AU-PERE (INRS)","7056068","2012-02-14 16:00","2012","02","14","16:00","-6.6","","-12.9","","61","","","","18","","13","","","","101.36","","","","-12","","NA"
"-68.47","48.51","POINTE-AU-PERE (INRS)","7056068","2012-02-14 17:00","2012","02","14","17:00","-7.0","","-13.0","","62","","","","20","","7","","","","101.41","","","","-11","","NA"
"-68.47","48.51","POINTE-AU-PERE (INRS)","7056068","2012-02-14 18:00","2012","02","14","18:00","-6.4","","-12.8","","60","","","","20","","11","","","","101.45","","","","-11","","NA"
"-68.47","48.51","POINTE-AU-PERE (INRS)","7056068","2012-02-14 19:00","2012","02","14","19:00","-5.7","","-13.1","","56","","","","17","","20","","","","101.48","","","","-12","","NA"
"-68.47","48.51","POINTE-AU-PERE (INRS)","7056068","2012-02-14 20:00","2012","02","14","20:00","-5.6","","-13.1","","55","","","","18","","22","","","","101.51","","","","-13","","NA"
"-68.47","48.51","POINTE-AU-PERE (INRS)","7056068","2012-02-14 21:00","2012","02","14","21:00","-5.7","","-11.6","","63","","","","19","","13","","","","101.54","","","","-11","","NA"
"-68.47","48.51","POINTE-AU-PERE (INRS)","7056068","2012-02-14 22:00","2012","02","14","22:00","-4.0","","-9.9","","63","","","","19","","22","","","","101.56","","","","-11","","NA"
"-68.47","48.51","POINTE-AU-PERE (INRS)","7056068","2012-02-14 23:00","2012","02","14","23:00","-3.7","","-9.4","","65","","","","18","","17","","","","101.59","","","","-9","","NA"
"-68.47","48.51","POINTE-AU-PERE (INRS)","7056068","2012-02-15 00:00","2012","02","15","00:00","-3.0","","-8.3","","67","","","","19","","19","","","","101.64","","","","-9","","NA"
"-68.47","48.51","POINTE-AU-PERE (INRS)","7056068","2012-02-15 01:00","2012","02","15","01:00","-2.8","","-7.5","","70","","","","20","","17","","","","101.66","","","","-8","","NA"
"-68.47","48.51","POINTE-AU-PERE (INRS)","7056068","2012-02-15 02:00","2012","02","15","02:00","-2.5","","-6.9","","72","","","","20","","17","","","","101.73","","","","-8","","NA"
"-68.47","48.51","POINTE-AU-PERE (INRS)","7056068","2012-02-15 03:00","2012","02","15","03:00","-2.2","","-6.5","","72","","","","20","","17","","","","101.75","","","","-8","","NA"
"-68.47","48.51","POINTE-AU-PERE (INRS)","7056068","2012-02-15 04:00","2012","02","15","04:00","-2.7","","-6.1","","77","","","","21","","13","","","","101.82","","","","-7","","NA"
"-68.47","48.51","POINTE-AU-PERE (INRS)","7056068","2012-02-15 05:00","2012","02","15","05:00","-2.3","","-5.4","","79","","","","20","","11","","","","101.86","","","","-6","","NA"
"-68.47","48.51","POINTE-AU-PERE (INRS)","7056068","2012-02-15 06:00","2012","02","15","06:00","-2.1","","-5.3","","79","","","","19","","13","","","","101.90","","","","-7","","NA"
"-68.47","48.51","POINTE-AU-PERE (INRS)","7056068","2012-02-15 07:00","2012","02","15","07:00","-2.8","","-6.0","","79","","","","20","","11","","","","101.95","","","","-7","","NA"
"-68.47","48.51","POINTE-AU-PERE (INRS)","7056068","2012-02-15 08:00","2012","02","15","08:00","-3.3","","-6.7","","77","","","","21","","9","","","","102.03","","","","-7","","NA"
"-68.47","48.51","POINTE-AU-PERE (INRS)","7056068","2012-02-15 09:00","2012","02","15","09:00","-0.8","","-5.3","","72","","","","20","","13","","","","102.07","","","","-5","","NA"
"-68.47","48.51","POINTE-AU-PERE (INRS)","7056068","2012-02-15 10:00","2012","02","15","10:00","-0.2","","-5.2","","69","","","","20","","19","","","","102.08","","","","-5","","NA"
"-68.47","48.51","POINTE-AU-PERE (INRS)","7056068","2012-02-15 11:00","2012","02","15","11:00","1.4","","-4.2","","66","","","","21","","13","","","","102.09","","","","","","NA"
"-68.47","48.51","POINTE-AU-PERE (INRS)","7056068","2012-02-15 12:00","2012","02","15","12:00","1.0","","-3.7","","71","","","","29","","6","","","","102.06","","","","","","NA"
"-68.47","48.51","POINTE-AU-PERE (INRS)","7056068","2012-02-15 13:00","2012","02","15","13:00","1.9","","-3.1","","69","","","","25","","2","","","","102.07","","","","","","NA"
"-68.47","48.51","POINTE-AU-PERE (INRS)","7056068","2012-02-15 14:00","2012","02","15","14:00","0.2","","-2.9","","80","","","","32","","4","","","","102.09","","","","","","NA"
"-68.47","48.51","POINTE-AU-PERE (INRS)","7056068","2012-02-15 15:00","2012","02","15","15:00","0.3","","-3.1","","78","","","","19","","2","","","","102.13","","","","","","NA"
"-68.47","48.51","POINTE-AU-PERE (INRS)","7056068","2012-02-15 16:00","2012","02","15","16:00","0.9","","-2.9","","76","","","","12","","2","","","","102.16","","","","","","NA"
"-68.47","48.51","POINTE-AU-PERE (INRS)","7056068","2012-02-15 17:00","2012","02","15","17:00","0.4","","-3.0","","78","","","","6","","4","","","","102.21","","","","","","NA"
"-68.47","48.51","POINTE-AU-PERE (INRS)","7056068","2012-02-15 18:00","2012","02","15","18:00","0.3","","-3.0","","78","","","","6","","4","","","","102.26","","","","","","NA"
"-68.47","48.51","POINTE-AU-PERE (INRS)","7056068","2012-02-15 19:00","2012","02","15","19:00","-0.2","","-3.3","","80","","","","10","","4","","","","102.27","","","","-1","","NA"
"-68.47","48.51","POINTE-AU-PERE (INRS)","7056068","2012-02-15 20:00","2012","02","15","20:00","-0.2","","-3.0","","81","","","","8","","4","","","","102.27","","","","-1","","NA"
"-68.47","48.51","POINTE-AU-PERE (INRS)","7056068","2012-02-15 21:00","2012","02","15","21:00","-0.8","","-3.3","","83","","","","6","","4","","","","102.29","","","","-2","","NA"
"-68.47","48.51","POINTE-AU-PERE (INRS)","7056068","2012-02-15 22:00","2012","02","15","22:00","-0.6","","-3.0","","84","","","","8","","2","","","","102.30","","","","-1","","NA"
"-68.47","48.51","POINTE-AU-PERE (INRS)","7056068","2012-02-15 23:00","2012","02","15","23:00","-1.2","","-2.8","","89","","","","4","","6","","","","102.31","","","","-3","","NA"
"-68.47","48.51","POINTE-AU-PERE (INRS)","7056068","2012-02-16 00:00","2012","02","16","00:00","-1.3","","-2.3","","93","","","","4","","7","","","","102.31","","","","-4","","NA"
"-68.47","48.51","POINTE-AU-PERE (INRS)","7056068","2012-02-16 01:00","2012","02","16","01:00","-1.5","","-2.2","","95","","","","5","","9","","","","102.33","","","","-5","","NA"
"-68.47","48.51","POINTE-AU-PERE (INRS)","7056068","2012-02-16 02:00","2012","02","16","02:00","-1.8","","-2.4","","96","","","","5","","4","","","","102.34","","","","-3","","NA"
"-68.47","48.51","POINTE-AU-PERE (INRS)","7056068","2012-02-16 03:00","2012","02","16","03:00","-2.0","","-2.6","","96","","","","3","","6","","","","102.36","","","","-4","","NA"
"-68.47","48.51","POINTE-AU-PERE (INRS)","7056068","2012-02-16 04:00","2012","02","16","04:00","-2.0","","-2.5","","96","","","","9","","4","","","","102.38","","","","-3","","NA"
"-68.47","48.51","POINTE-AU-PERE (INRS)","7056068","2012-02-16 05:00","2012","02","16","05:00","-2.1","","-2.7","","96","","","","3","","2","","","","102.37","","","","-3","","NA"
"-68.47","48.51","POINTE-AU-PERE (INRS)","7056068","2012-02-16 06:00","2012","02","16","06:00","-2.1","","-2.6","","96","","","","8","","2","","","","102.34","","","","-3","","NA"
"-68.47","48.51","POINTE-AU-PERE (INRS)","7056068","2012-02-16 07:00","2012","02","16","07:00","-1.8","","-2.3","","96","","","","8","","2","","","","102.36","","","","-3","","NA"
"-68.47","48.51","POINTE-AU-PERE (INRS)","7056068","2012-02-16 08:00","2012","02","16","08:00","-1.4","","-1.9","","96","","","","3","","2","","","","102.37","","","","-2","","NA"
"-68.47","48.51","POINTE-AU-PERE (INRS)","7056068","2012-02-16 09:00","2012","02","16","09:00","-1.2","","-1.8","","96","","","","3","","4","","","","102.36","","","","-3","","NA"
"-68.47","48.51","POINTE-AU-PERE (INRS)","7056068","2012-02-16 10:00","2012","02","16","10:00","-0.6","","-1.4","","94","","","","3","","2","","","","102.33","","","","-1","","NA"
"-68.47","48.51","POINTE-AU-PERE (INRS)","7056068","2012-02-16 11:00","2012","02","16","11:00","-0.5","","-1.4","","94","","","","3","","4","","","","102.29","","","","-2","","NA"
"-68.47","48.51","POINTE-AU-PERE (INRS)","7056068","2012-02-16 12:00","2012","02","16","12:00","-0.6","","-1.7","","92","","","","3","","6","","","","102.23","","","","-3","","NA"
"-68.47","48.51","POINTE-AU-PERE (INRS)","7056068","2012-02-16 13:00","2012","02","16","13:00","-0.3","","-1.3","","93","","","","3","","6","","","","102.15","","","","-2","","NA"
"-68.47","48.51","POINTE-AU-PERE (INRS)","7056068","2012-02-16 14:00","2012","02","16","14:00","-0.7","","-1.5","","94","","","","4","","9","","","","102.08","","","","-4","","NA"
"-68.47","48.51","POINTE-AU-PERE (INRS)","7056068","2012-02-16 15:00","2012","02","16","15:00","-0.9","","-1.6","","95","","","","4","","6","","","","102.06","","","","-3","","NA"
"-68.47","48.51","POINTE-AU-PERE (INRS)","7056068","2012-02-16 16:00","2012","02","16","16:00","-1.2","","-1.8","","96","","","","4","","6","","","","102.02","","","","-3","","NA"
"-68.47","48.51","POINTE-AU-PERE (INRS)","7056068","2012-02-16 17:00","2012","02","16","17:00","-1.4","","-1.9","","96","","","","4","","6","","","","102.00","","","","-4","","NA"
"-68.47","48.51","POINTE-AU-PERE (INRS)","7056068","2012-02-16 18:00","2012","02","16","18:00","-1.5","","-1.9","","97","","","","5","","7","","","","101.95","","","","-4","","NA"
"-68.47","48.51","POINTE-AU-PERE (INRS)","7056068","2012-02-16 19:00","2012","02","16","19:00","-1.5","","-1.9","","97","","","","3","","4","","","","101.92","","","","-3","","NA"
"-68.47","48.51","POINTE-AU-PERE (INRS)","7056068","2012-02-16 20:00","2012","02","16","20:00","-1.5","","-1.8","","98","","","","5","","4","","","","101.90","","","","-3","","NA"
"-68.47","48.51","POINTE-AU-PERE (INRS)","7056068","2012-02-16 21:00","2012","02","16","21:00","-1.7","","-2.1","","97","","","","","","0","","","","101.86","","","","","","NA"
"-68.47","48.51","POINTE-AU-PERE (INRS)","7056068","2012-02-16 22:00","2012","02","16","22:00","-1.6","","-1.9","","98","","","","18","","4","","","","101.78","","","","-3","","NA"
"-68.47","48.51","POINTE-AU-PERE (INRS)","7056068","2012-02-16 23:00","2012","02","16","23:00","-1.4","","-1.7","","98","","","","15","","2","","","","101.68","","","","-2","","NA"
"-68.47","48.51","POINTE-AU-PERE (INRS)","7056068","2012-02-17 00:00","2012","02","17","00:00","-1.5","","-1.8","","98","","","","4","","4","","","","101.62","","","","-3","","NA"
"-68.47","48.51","POINTE-AU-PERE (INRS)","7056068","2012-02-17 01:00","2012","02","17","01:00","-1.3","","-1.6","","98","","","","4","","6","","","","101.53","","","","-4","","NA"
"-68.47","48.51","POINTE-AU-PERE (INRS)","7056068","2012-02-17 02:00","2012","02","17","02:00","0.5","","0.2","","98","","","","13","","9","","","","101.46","","","","","","NA"
"-68.47","48.51","POINTE-AU-PERE (INRS)","7056068","2012-02-17 03:00","2012","02","17","03:00","1.5","","-0.5","","87","","","","14","","17","","","","101.34","","","","","","NA"
"-68.47","48.51","POINTE-AU-PERE (INRS)","7056068","2012-02-17 04:00","2012","02","17","04:00","1.6","","-1.4","","80","","","","13","","19","","","","101.25","","","","","","NA"
"-68.47","48.51","POINTE-AU-PERE (INRS)","7056068","2012-02-17 05:00","2012","02","17","05:00","1.6","","-2.0","","77","","","","15","","15","","","","101.19","","","","","","NA"
"-68.47","48.51","POINTE-AU-PERE (INRS)","7056068","2012-02-17 06:00","2012","02","17","06:00","1.7","","-2.5","","74","","","","14","","26","","","","101.10","","","","","","NA"
"-68.47","48.51","POINTE-AU-PERE (INRS)","7056068","2012-02-17 07:00","2012","02","17","07:00","1.6","","-2.9","","72","","","","14","","22","","","","101.07","","","","","","NA"
"-68.47","48.51","POINTE-AU-PERE (INRS)","7056068","2012-02-17 08:00","2012","02","17","08:00","1.7","","-2.9","","71","","","","15","","24","","","","101.05","","","","","","NA"
"-68.47","48.51","POINTE-AU-PERE (INRS)","7056068","2012-02-17 09:00","2012","02","17","09:00","1.3","","-2.3","","77","","","","14","","19","","","","101.01","","","","","","NA"
"-68.47","48.51","POINTE-AU-PERE (INRS)","7056068","2012-02-17 10:00","2012","02","17","10:00","0.9","","-2.0","","81","","","","14","","26","","","","100.86","","","","","","NA"
"-68.47","48.51","POINTE-AU-PERE (INRS)","7056068","2012-02-17 11:00","2012","02","17","11:00","1.5","","-1.6","","80","","","","15","","28","","","","100.81","","","","","","NA"
"-68.47","48.51","POINTE-AU-PERE (INRS)","7056068","2012-02-17 12:00","2012","02","17","12:00","1.0","","-0.9","","87","","","","15","","20","","","","100.73","","","","","","NA"
"-68.47","48.51","POINTE-AU-PERE (INRS)","7056068","2012-02-17 13:00","2012","02","17","13:00","1.2","","0.0","","92","","","","15","","19","","","","100.62","","","","","","NA"
"-68.47","48.51","POINTE-AU-PERE (INRS)","7056068","2012-02-17 14:00","2012","02","17","14:00","1.8","","-0.2","","87","","","","15","","15","","","","100.55","","","","","","NA"
"-68.47","48.51","POINTE-AU-PERE (INRS)","7056068","2012-02-17 15:00","2012","02","17","15:00","2.1","","-0.5","","83","","","","17","","19","","","","100.53","","","","","","NA"
"-68.47","48.51","POINTE-AU-PERE (INRS)","7056068","2012-02-17 16:00","2012","02","17","16:00","2.5","","-0.6","","80","","","","18","","19","","","","100.53","","","","","","NA"
"-68.47","48.51","POINTE-AU-PERE (INRS)","7056068","2012-02-17 17:00","2012","02","17","17:00","2.3","","-0.3","","83","","","","18","","19","","","","100.56","","","","","","NA"
"-68.47","48.51","POINTE-AU-PERE (INRS)","7056068","2012-02-17 18:00","2012","02","17","18:00","1.6","","-0.3","","87","","","","21","","11","","","","100.57","","","","","","NA"
"-68.47","48.51","POINTE-AU-PERE (INRS)","7056068","2012-02-17 19:00","2012","02","17","19:00","1.9","","-0.4","","85","","","","19","","11","","","","100.59","","","","","","NA"
"-68.47","48.51","POINTE-AU-PERE (INRS)","7056068","2012-02-17 20:00","2012","02","17","20:00","1.8","","-0.4","","85","","","","20","","11","","","","100.56","","","","","","NA"
"-68.47","48.51","POINTE-AU-PERE (INRS)","7056068","2012-02-17 21:00","2012","02","17","21:00","1.5","","-0.4","","87","","","","21","","13","","","","100.55","","","","","","NA"
"-68.47","48.51","POINTE-AU-PERE (INRS)","7056068","2012-02-17 22:00","2012","02","17","22:00","1.2","","-0.8","","86","","","","19","","11","","","","100.51","","","","","","NA"
"-68.47","48.51","POINTE-AU-PERE (INRS)","7056068","2012-02-17 23:00","2012","02","17","23:00","1.2","","-1.0","","85","","","","19","","9","","","","100.47","","","","","","NA"
"-68.47","48.51","POINTE-AU-PERE (INRS)","7056068","2012-02-18 00:00","2012","02","18","00:00","0.8","","-1.5","","85","","","","20","","11","","","","100.42","","","","","","NA"
"-68.47","48.51","POINTE-AU-PERE (INRS)","7056068","2012-02-18 01:00","2012","02","18","01:00","0.3","","-2.1","","84","","","","20","","9","","","","100.39","","","","","","NA"
"-68.47","48.51","POINTE-AU-PERE (INRS)","7056068","2012-02-18 02:00","2012","02","18","02:00","-0.2","","-2.5","","84","","","","19","","6","","","","100.39","","","","-2","","NA"
"-68.47","48.51","POINTE-AU-PERE (INRS)","7056068","2012-02-18 03:00","2012","02","18","03:00","-0.2","","-2.8","","83","","","","20","","7","","","","100.34","","","","-3","","NA"
"-68.47","48.51","POINTE-AU-PERE (INRS)","7056068","2012-02-18 04:00","2012","02","18","04:00","-1.3","","-2.8","","90","","","","23","","7","","","","100.35","","","","-4","","NA"
"-68.47","48.51","POINTE-AU-PERE (INRS)","7056068","2012-02-18 05:00","2012","02","18","05:00","-1.3","","-2.7","","90","","","","22","","9","","","","100.36","","","","-5","","NA"
"-68.47","48.51","POINTE-AU-PERE (INRS)","7056068","2012-02-18 06:00","2012","02","18","06:00","-1.5","","-3.1","","89","","","","22","","7","","","","100.37","","","","-4","","NA"
"-68.47","48.51","POINTE-AU-PERE (INRS)","7056068","2012-02-18 07:00","2012","02","18","07:00","-1.3","","-3.1","","88","","","","22","","9","","","","100.41","","","","-5","","NA"
"-68.47","48.51","POINTE-AU-PERE (INRS)","7056068","2012-02-18 08:00","2012","02","18","08:00","-0.8","","-1.9","","92","","","","23","","20","","","","100.43","","","","-6","","NA"
"-68.47","48.51","POINTE-AU-PERE (INRS)","7056068","2012-02-18 09:00","2012","02","18","09:00","-0.9","","-1.5","","96","","","","24","","26","","","","100.42","","","","-7","","NA"
"-68.47","48.51","POINTE-AU-PERE (INRS)","7056068","2012-02-18 10:00","2012","02","18","10:00","-1.1","","-1.6","","96","","","","24","","28","","","","100.41","","","","-8","","NA"
"-68.47","48.51","POINTE-AU-PERE (INRS)","7056068","2012-02-18 11:00","2012","02","18","11:00","-2.1","","-4.1","","86","","","","24","","35","","","","100.43","","","","-10","","NA"
"-68.47","48.51","POINTE-AU-PERE (INRS)","7056068","2012-02-18 12:00","2012","02","18","12:00","-2.2","","-5.6","","77","","","","23","","35","","","","100.42","","","","-10","","NA"
"-68.47","48.51","POINTE-AU-PERE (INRS)","7056068","2012-02-18 13:00","2012","02","18","13:00","-2.2","","-5.8","","76","","","","23","","33","","","","100.40","","","","-10","","NA"
"-68.47","48.51","POINTE-AU-PERE (INRS)","7056068","2012-02-18 14:00","2012","02","18","14:00","-2.8","","-5.8","","80","","","","23","","33","","","","100.41","","","","-10","","NA"
"-68.47","48.51","POINTE-AU-PERE (INRS)","7056068","2012-02-18 15:00","2012","02","18","15:00","-2.7","","-5.7","","80","","","","24","","37","","","","100.44","","","","-11","","NA"
"-68.47","48.51","POINTE-AU-PERE (INRS)","7056068","2012-02-18 16:00","2012","02","18","16:00","-2.8","","-5.2","","84","","","","23","","32","","","","100.48","","","","-10","","NA"
"-68.47","48.51","POINTE-AU-PERE (INRS)","7056068","2012-02-18 17:00","2012","02","18","17:00","-2.3","","-5.9","","76","","","","29","","22","","","","100.55","","","","-8","","NA"
"-68.47","48.51","POINTE-AU-PERE (INRS)","7056068","2012-02-18 18:00","2012","02","18","18:00","-2.9","","-6.3","","77","","","","28","","24","","","","100.63","","","","-10","","NA"
"-68.47","48.51","POINTE-AU-PERE (INRS)","7056068","2012-02-18 19:00","2012","02","18","19:00","-3.3","","-7.1","","75","","","","28","","22","","","","100.68","","","","-10","","NA"
"-68.47","48.51","POINTE-AU-PERE (INRS)","7056068","2012-02-18 20:00","2012","02","18","20:00","-4.4","","-6.8","","83","","","","28","","20","","","","100.76","","","","-11","","NA"
"-68.47","48.51","POINTE-AU-PERE (INRS)","7056068","2012-02-18 21:00","2012","02","18","21:00","-4.2","","-8.4","","72","","","","30","","22","","","","100.81","","","","-11","","NA"
"-68.47","48.51","POINTE-AU-PERE (INRS)","7056068","2012-02-18 22:00","2012","02","18","22:00","-5.1","","-9.6","","71","","","","28","","24","","","","100.84","","","","-12","","NA"
"-68.47","48.51","POINTE-AU-PERE (INRS)","7056068","2012-02-18 23:00","2012","02","18","23:00","-5.6","","-9.9","","72","","","","27","","24","","","","100.88","","","","-13","","NA"
"-68.47","48.51","POINTE-AU-PERE (INRS)","7056068","2012-02-19 00:00","2012","02","19","00:00","-6.1","","-10.4","","72","","","","28","","22","","","","100.92","","","","-13","","NA"
"-68.47","48.51","POINTE-AU-PERE (INRS)","7056068","2012-02-19 01:00","2012","02","19","01:00","-6.8","","-11.0","","72","","","","28","","24","","","","100.96","","","","-14","","NA"
"-68.47","48.51","POINTE-AU-PERE (INRS)","7056068","2012-02-19 02:00","2012","02","19","02:00","-7.0","","-11.1","","73","","","","28","","26","","","","100.97","","","","-15","","NA"
"-68.47","48.51","POINTE-AU-PERE (INRS)","7056068","2012-02-19 03:00","2012","02","19","03:00","-7.3","","-11.6","","71","","","","28","","26","","","","101.04","","","","-15","","NA"
"-68.47","48.51","POINTE-AU-PERE (INRS)","7056068","2012-02-19 04:00","2012","02","19","04:00","-7.8","","-12.2","","71","","","","28","","28","","","","101.07","","","","-16","","NA"
"-68.47","48.51","POINTE-AU-PERE (INRS)","7056068","2012-02-19 05:00","2012","02","19","05:00","-8.2","","-12.3","","72","","","","27","","30","","","","101.11","","","","-17","","NA"
"-68.47","48.51","POINTE-AU-PERE (INRS)","7056068","2012-02-19 06:00","2012","02","19","06:00","-8.6","","-12.7","","72","","","","28","","32","","","","101.17","","","","-18","","NA"
"-68.47","48.51","POINTE-AU-PERE (INRS)","7056068","2012-02-19 07:00","2012","02","19","07:00","-9.2","","-13.4","","71","","","","27","","28","","","","101.24","","","","-18","","NA"
"-68.47","48.51","POINTE-AU-PERE (INRS)","7056068","2012-02-19 08:00","2012","02","19","08:00","-9.6","","-13.9","","71","","","","28","","24","","","","101.28","","","","-18","","NA"
"-68.47","48.51","POINTE-AU-PERE (INRS)","7056068","2012-02-19 09:00","2012","02","19","09:00","-10.0","","-14.5","","70","","","","28","","22","","","","101.31","","","","-18","","NA"
"-68.47","48.51","POINTE-AU-PERE (INRS)","7056068","2012-02-19 10:00","2012","02","19","10:00","-9.9","","-14.5","","69","","","","28","","22","","","","101.32","","","","-18","","NA"
"-68.47","48.51","POINTE-AU-PERE (INRS)","7056068","2012-02-19 11:00","2012","02","19","11:00","-9.2","","-13.7","","70","","","","28","","22","","","","101.31","","","","-17","","NA"
"-68.47","48.51","POINTE-AU-PERE (INRS)","7056068","2012-02-19 12:00","2012","02","19","12:00","-8.3","","-13.4","","67","","","","27","","22","","","","101.25","","","","-16","","NA"
"-68.47","48.51","POINTE-AU-PERE (INRS)","7056068","2012-02-19 13:00","2012","02","19","13:00","-7.2","","-12.1","","68","","","","26","","24","","","","101.21","","","","-15","","NA"
"-68.47","48.51","POINTE-AU-PERE (INRS)","7056068","2012-02-19 14:00","2012","02","19","14:00","-6.4","","-12.1","","64","","","","27","","30","","","","101.21","","","","-15","","NA"
"-68.47","48.51","POINTE-AU-PERE (INRS)","7056068","2012-02-19 15:00","2012","02","19","15:00","-6.5","","-10.5","","73","","","","25","","30","","","","101.23","","","","-15","","NA"
"-68.47","48.51","POINTE-AU-PERE (INRS)","7056068","2012-02-19 16:00","2012","02","19","16:00","-5.7","","-9.9","","72","","","","25","","30","","","","101.23","","","","-14","","NA"
"-68.47","48.51","POINTE-AU-PERE (INRS)","7056068","2012-02-19 17:00","2012","02","19","17:00","-5.2","","-11.0","","64","","","","28","","22","","","","101.26","","","","-12","","NA"
"-68.47","48.51","POINTE-AU-PERE (INRS)","7056068","2012-02-19 18:00","2012","02","19","18:00","-5.8","","-11.0","","67","","","","29","","30","","","","101.35","","","","-14","","NA"
"-68.47","48.51","POINTE-AU-PERE (INRS)","7056068","2012-02-19 19:00","2012","02","19","19:00","-7.0","","-11.7","","69","","","","29","","30","","","","101.42","","","","-16","","NA"
"-68.47","48.51","POINTE-AU-PERE (INRS)","7056068","2012-02-19 20:00","2012","02","19","20:00","-8.0","","-12.5","","70","","","","29","","22","","","","101.47","","","","-16","","NA"
"-68.47","48.51","POINTE-AU-PERE (INRS)","7056068","2012-02-19 21:00","2012","02","19","21:00","-8.4","","-13.0","","69","","","","29","","20","","","","101.50","","","","-16","","NA"
"-68.47","48.51","POINTE-AU-PERE (INRS)","7056068","2012-02-19 22:00","2012","02","19","22:00","-8.8","","-13.1","","71","","","","29","","22","","","","101.49","","","","-17","","NA"
"-68.47","48.51","POINTE-AU-PERE (INRS)","7056068","2012-02-19 23:00","2012","02","19","23:00","-9.1","","-13.6","","70","","","","31","","20","","","","101.54","","","","-17","","NA"
"-68.47","48.51","POINTE-AU-PERE (INRS)","7056068","2012-02-20 00:00","2012","02","20","00:00","-9.7","","-14.1","","70","","","","30","","20","","","","101.58","","","","-17","","NA"
"-68.47","48.51","POINTE-AU-PERE (INRS)","7056068","2012-02-20 01:00","2012","02","20","01:00","-10.2","","-14.5","","71","","","","31","","20","","","","101.60","","","","-18","","NA"
"-68.47","48.51","POINTE-AU-PERE (INRS)","7056068","2012-02-20 02:00","2012","02","20","02:00","-10.5","","-14.8","","71","","","","31","","20","","","","101.63","","","","-18","","NA"
"-68.47","48.51","POINTE-AU-PERE (INRS)","7056068","2012-02-20 03:00","2012","02","20","03:00","-10.6","","-14.8","","71","","","","31","","20","","","","101.63","","","","-19","","NA"
"-68.47","48.51","POINTE-AU-PERE (INRS)","7056068","2012-02-20 04:00","2012","02","20","04:00","-10.9","","-15.1","","71","","","","32","","20","","","","101.67","","","","-19","","NA"
"-68.47","48.51","POINTE-AU-PERE (INRS)","7056068","2012-02-20 05:00","2012","02","20","05:00","-10.9","","-15.1","","71","","","","31","","20","","","","101.72","","","","-19","","NA"
"-68.47","48.51","POINTE-AU-PERE (INRS)","7056068","2012-02-20 06:00","2012","02","20","06:00","-11.3","","-15.4","","72","","","","31","","20","","","","101.74","","","","-20","","NA"
"-68.47","48.51","POINTE-AU-PERE (INRS)","7056068","2012-02-20 07:00","2012","02","20","07:00","-11.7","","-16.1","","70","","","","31","","19","","","","101.81","","","","-20","","NA"
"-68.47","48.51","POINTE-AU-PERE (INRS)","7056068","2012-02-20 08:00","2012","02","20","08:00","-12.2","","-16.4","","71","","","","31","","22","","","","101.87","","","","-21","","NA"
"-68.47","48.51","POINTE-AU-PERE (INRS)","7056068","2012-02-20 09:00","2012","02","20","09:00","-12.4","","-16.8","","70","","","","31","","17","","","","101.90","","","","-20","","NA"
"-68.47","48.51","POINTE-AU-PERE (INRS)","7056068","2012-02-20 10:00","2012","02","20","10:00","-12.6","","-17.3","","68","","","","30","","17","","","","101.93","","","","-20","","NA"
"-68.47","48.51","POINTE-AU-PERE (INRS)","7056068","2012-02-20 11:00","2012","02","20","11:00","-11.7","","-16.8","","66","","","","30","","17","","","","101.96","","","","-19","","NA"
"-68.47","48.51","POINTE-AU-PERE (INRS)","7056068","2012-02-20 12:00","2012","02","20","12:00","-11.3","","-16.4","","66","","","","29","","17","","","","101.94","","","","-19","","NA"
"-68.47","48.51","POINTE-AU-PERE (INRS)","7056068","2012-02-20 13:00","2012","02","20","13:00","-10.4","","-16.4","","61","","","","27","","17","","","","101.93","","","","-18","","NA"
"-68.47","48.51","POINTE-AU-PERE (INRS)","7056068","2012-02-20 14:00","2012","02","20","14:00","-9.0","","-15.3","","60","","","","30","","11","","","","101.93","","","","-14","","NA"
"-68.47","48.51","POINTE-AU-PERE (INRS)","7056068","2012-02-20 15:00","2012","02","20","15:00","-8.8","","-14.8","","62","","","","32","","9","","","","101.98","","","","-13","","NA"
"-68.47","48.51","POINTE-AU-PERE (INRS)","7056068","2012-02-20 16:00","2012","02","20","16:00","-8.2","","-14.8","","59","","","","32","","15","","","","102.01","","","","-15","","NA"
"-68.47","48.51","POINTE-AU-PERE (INRS)","7056068","2012-02-20 17:00","2012","02","20","17:00","-8.4","","-14.3","","62","","","","31","","15","","","","102.08","","","","-15","","NA"
"-68.47","48.51","POINTE-AU-PERE (INRS)","7056068","2012-02-20 18:00","2012","02","20","18:00","-8.1","","-14.4","","60","","","","32","","19","","","","102.16","","","","-15","","NA"
"-68.47","48.51","POINTE-AU-PERE (INRS)","7056068","2012-02-20 19:00","2012","02","20","19:00","-7.7","","-14.1","","60","","","","32","","26","","","","102.22","","","","-16","","NA"
"-68.47","48.51","POINTE-AU-PERE (INRS)","7056068","2012-02-20 20:00","2012","02","20","20:00","-7.5","","-13.7","","61","","","","32","","20","","","","102.25","","","","-15","","NA"
"-68.47","48.51","POINTE-AU-PERE (INRS)","7056068","2012-02-20 21:00","2012","02","20","21:00","-7.5","","-13.8","","61","","","","32","","22","","","","102.29","","","","-15","","NA"
"-68.47","48.51","POINTE-AU-PERE (INRS)","7056068","2012-02-20 22:00","2012","02","20","22:00","-7.6","","-12.9","","66","","","","32","","17","","","","102.26","","","","-14","","NA"
"-68.47","48.51","POINTE-AU-PERE (INRS)","7056068","2012-02-20 23:00","2012","02","20","23:00","-7.4","","-12.1","","69","","","","32","","17","","","","102.29","","","","-14","","NA"
"-68.47","48.51","POINTE-AU-PERE (INRS)","7056068","2012-02-21 00:00","2012","02","21","00:00","-7.3","","-11.7","","71","","","","31","","20","","","","102.35","","","","-14","","NA"
"-68.47","48.51","POINTE-AU-PERE (INRS)","7056068","2012-02-21 01:00","2012","02","21","01:00","-7.3","","-11.4","","72","","","","30","","17","","","","102.36","","","","-14","","NA"
"-68.47","48.51","POINTE-AU-PERE (INRS)","7056068","2012-02-21 02:00","2012","02","21","02:00","-7.6","","-11.9","","71","","","","28","","13","","","","102.35","","","","-13","","NA"
"-68.47","48.51","POINTE-AU-PERE (INRS)","7056068","2012-02-21 03:00","2012","02","21","03:00","-7.2","","-11.8","","70","","","","28","","13","","","","102.35","","","","-13","","NA"
"-68.47","48.51","POINTE-AU-PERE (INRS)","7056068","2012-02-21 04:00","2012","02","21","04:00","-11.6","","-14.7","","78","","","","17","","7","","","","102.33","","","","-16","","NA"
"-68.47","48.51","POINTE-AU-PERE (INRS)","7056068","2012-02-21 05:00","2012","02","21","05:00","-10.9","","-13.7","","80","","","","16","","11","","","","102.30","","","","-17","","NA"
"-68.47","48.51","POINTE-AU-PERE (INRS)","7056068","2012-02-21 06:00","2012","02","21","06:00","-10.2","","-13.2","","79","","","","17","","13","","","","102.20","","","","-16","","NA"
"-68.47","48.51","POINTE-AU-PERE (INRS)","7056068","2012-02-21 07:00","2012","02","21","07:00","-9.5","","-12.6","","78","","","","19","","17","","","","102.20","","","","-17","","NA"
"-68.47","48.51","POINTE-AU-PERE (INRS)","7056068","2012-02-21 08:00","2012","02","21","08:00","-7.9","","-11.6","","75","","","","19","","17","","","","102.16","","","","-15","","NA"
"-68.47","48.51","POINTE-AU-PERE (INRS)","7056068","2012-02-21 09:00","2012","02","21","09:00","-7.3","","-11.3","","73","","","","20","","19","","","","102.13","","","","-14","","NA"
"-68.47","48.51","POINTE-AU-PERE (INRS)","7056068","2012-02-21 10:00","2012","02","21","10:00","-5.7","","-10.7","","68","","","","20","","19","","","","102.05","","","","-12","","NA"
"-68.47","48.51","POINTE-AU-PERE (INRS)","7056068","2012-02-21 11:00","2012","02","21","11:00","-3.6","","-9.6","","63","","","","21","","17","","","","101.94","","","","-9","","NA"
"-68.47","48.51","POINTE-AU-PERE (INRS)","7056068","2012-02-21 12:00","2012","02","21","12:00","-1.9","","-8.3","","62","","","","22","","13","","","","101.78","","","","-6","","NA"
"-68.47","48.51","POINTE-AU-PERE (INRS)","7056068","2012-02-21 13:00","2012","02","21","13:00","-0.6","","-6.4","","65","","","","24","","19","","","","101.63","","","","-6","","NA"
"-68.47","48.51","POINTE-AU-PERE (INRS)","7056068","2012-02-21 14:00","2012","02","21","14:00","-0.2","","-5.0","","70","","","","24","","17","","","","101.57","","","","-5","","NA"
"-68.47","48.51","POINTE-AU-PERE (INRS)","7056068","2012-02-21 15:00","2012","02","21","15:00","-0.5","","-4.5","","74","","","","25","","15","","","","101.46","","","","-5","","NA"
"-68.47","48.51","POINTE-AU-PERE (INRS)","7056068","2012-02-21 16:00","2012","02","21","16:00","-1.2","","-4.9","","76","","","","24","","20","","","","101.38","","","","-7","","NA"
"-68.47","48.51","POINTE-AU-PERE (INRS)","7056068","2012-02-21 17:00","2012","02","21","17:00","-2.7","","-5.7","","80","","","","21","","9","","","","101.32","","","","-6","","NA"
"-68.47","48.51","POINTE-AU-PERE (INRS)","7056068","2012-02-21 18:00","2012","02","21","18:00","-4.0","","-6.1","","85","","","","20","","4","","","","101.25","","","","-6","","NA"
"-68.47","48.51","POINTE-AU-PERE (INRS)","7056068","2012-02-21 19:00","2012","02","21","19:00","-3.6","","-7.8","","73","","","","17","","6","","","","101.14","","","","-6","","NA"
"-68.47","48.51","POINTE-AU-PERE (INRS)","7056068","2012-02-21 20:00","2012","02","21","20:00","-4.8","","-9.2","","71","","","","19","","4","","","","101.06","","","","-7","","NA"
"-68.47","48.51","POINTE-AU-PERE (INRS)","7056068","2012-02-21 21:00","2012","02","21","21:00","-3.3","","-9.9","","60","","","","19","","6","","","","100.95","","","","-6","","NA"
"-68.47","48.51","POINTE-AU-PERE (INRS)","7056068","2012-02-21 22:00","2012","02","21","22:00","-3.3","","-9.3","","63","","","","22","","9","","","","100.86","","","","-7","","NA"
"-68.47","48.51","POINTE-AU-PERE (INRS)","7056068","2012-02-21 23:00","2012","02","21","23:00","-4.1","","-8.8","","70","","","","24","","6","","","","100.78","","","","-7","","NA"
"-68.47","48.51","POINTE-AU-PERE (INRS)","7056068","2012-02-22 00:00","2012","02","22","00:00","-4.9","","-9.3","","71","","","","","","0","","","","100.74","","","","","","NA"
"-68.47","48.51","POINTE-AU-PERE (INRS)","7056068","2012-02-22 01:00","2012","02","22","01:00","-4.1","","-10.1","","63","","","","20","","7","","","","100.64","","","","-7","","NA"
"-68.47","48.51","POINTE-AU-PERE (INRS)","7056068","2012-02-22 02:00","2012","02","22","02:00","-3.0","","-9.9","","59","","","","18","","15","","","","100.56","","","","-8","","NA"
"-68.47","48.51","POINTE-AU-PERE (INRS)","7056068","2012-02-22 03:00","2012","02","22","03:00","-3.2","","-10.2","","58","","","","18","","19","","","","100.47","","","","-9","","NA"
"-68.47","48.51","POINTE-AU-PERE (INRS)","7056068","2012-02-22 04:00","2012","02","22","04:00","-3.3","","-9.9","","60","","","","17","","11","","","","100.41","","","","-8","","NA"
"-68.47","48.51","POINTE-AU-PERE (INRS)","7056068","2012-02-22 05:00","2012","02","22","05:00","-3.0","","-9.5","","61","","","","18","","17","","","","100.35","","","","-9","","NA"
"-68.47","48.51","POINTE-AU-PERE (INRS)","7056068","2012-02-22 06:00","2012","02","22","06:00","-3.4","","-9.3","","64","","","","17","","13","","","","100.28","","","","-8","","NA"
"-68.47","48.51","POINTE-AU-PERE (INRS)","7056068","2012-02-22 07:00","2012","02","22","07:00","-3.4","","-8.9","","66","","","","16","","17","","","","100.23","","","","-9","","NA"
"-68.47","48.51","POINTE-AU-PERE (INRS)","7056068","2012-02-22 08:00","2012","02","22","08:00","-2.2","","-7.8","","65","","","","17","","15","","","","100.17","","","","-7","","NA"
"-68.47","48.51","POINTE-AU-PERE (INRS)","7056068","2012-02-22 09:00","2012","02","22","09:00","-1.3","","-6.8","","66","","","","17","","13","","","","100.12","","","","-6","","NA"
"-68.47","48.51","POINTE-AU-PERE (INRS)","7056068","2012-02-22 10:00","2012","02","22","10:00","-0.1","","-6.4","","62","","","","16","","11","","","","100.04","","","","-4","","NA"
"-68.47","48.51","POINTE-AU-PERE (INRS)","7056068","2012-02-22 11:00","2012","02","22","11:00","1.7","","-5.2","","60","","","","19","","4","","","","99.96","","","","","","NA"
"-68.47","48.51","POINTE-AU-PERE (INRS)","7056068","2012-02-22 12:00","2012","02","22","12:00","-0.2","","-4.2","","74","","","","3","","9","","","","99.85","","","","-3","","NA"
"-68.47","48.51","POINTE-AU-PERE (INRS)","7056068","2012-02-22 13:00","2012","02","22","13:00","0.0","","-4.2","","73","","","","4","","13","","","","99.74","","","","-4","","NA"
"-68.47","48.51","POINTE-AU-PERE (INRS)","7056068","2012-02-22 14:00","2012","02","22","14:00","-0.2","","-3.8","","77","","","","3","","7","","","","99.65","","","","-3","","NA"
"-68.47","48.51","POINTE-AU-PERE (INRS)","7056068","2012-02-22 15:00","2012","02","22","15:00","-0.5","","-1.6","","92","","","","4","","6","","","","99.61","","","","-3","","NA"
"-68.47","48.51","POINTE-AU-PERE (INRS)","7056068","2012-02-22 16:00","2012","02","22","16:00","-0.5","","-1.3","","94","","","","19","","4","","","","99.55","","","","-2","","NA"
"-68.47","48.51","POINTE-AU-PERE (INRS)","7056068","2012-02-22 17:00","2012","02","22","17:00","-0.4","","-0.9","","96","","","","36","","2","","","","99.53","","","","-1","","NA"
"-68.47","48.51","POINTE-AU-PERE (INRS)","7056068","2012-02-22 18:00","2012","02","22","18:00","0.4","","-0.1","","96","","","","21","","2","","","","99.55","","","","","","NA"
"-68.47","48.51","POINTE-AU-PERE (INRS)","7056068","2012-02-22 19:00","2012","02","22","19:00","-0.3","","-0.7","","97","","","","31","","2","","","","99.52","","","","-1","","NA"
"-68.47","48.51","POINTE-AU-PERE (INRS)","7056068","2012-02-22 20:00","2012","02","22","20:00","-0.3","","-0.8","","96","","","","24","","24","","","","99.56","","","","-6","","NA"
"-68.47","48.51","POINTE-AU-PERE (INRS)","7056068","2012-02-22 21:00","2012","02","22","21:00","-0.5","","-0.8","","98","","","","23","","20","","","","99.60","","","","-6","","NA"
"-68.47","48.51","POINTE-AU-PERE (INRS)","7056068","2012-02-22 22:00","2012","02","22","22:00","-0.8","","-1.1","","98","","","","22","","15","","","","99.63","","","","-5","","NA"
"-68.47","48.51","POINTE-AU-PERE (INRS)","7056068","2012-02-22 23:00","2012","02","22","23:00","-0.9","","-1.2","","98","","","","22","","11","","","","99.65","","","","-5","","NA"
"-68.47","48.51","POINTE-AU-PERE (INRS)","7056068","2012-02-23 00:00","2012","02","23","00:00","-2.4","","-2.7","","98","","","","23","","9","","","","99.64","","","","-6","","NA"
"-68.47","48.51","POINTE-AU-PERE (INRS)","7056068","2012-02-23 01:00","2012","02","23","01:00","-2.1","","-2.3","","99","","","","21","","6","","","","99.63","","","","-4","","NA"
"-68.47","48.51","POINTE-AU-PERE (INRS)","7056068","2012-02-23 02:00","2012","02","23","02:00","-2.8","","-2.9","","99","","","","36","","2","","","","99.65","","","","-4","","NA"
"-68.47","48.51","POINTE-AU-PERE (INRS)","7056068","2012-02-23 03:00","2012","02","23","03:00","-2.8","","-2.9","","99","","","","33","","2","","","","99.64","","","","-4","","NA"
"-68.47","48.51","POINTE-AU-PERE (INRS)","7056068","2012-02-23 04:00","2012","02","23","04:00","-2.4","","-2.5","","99","","","","6","","4","","","","99.61","","","","-4","","NA"
"-68.47","48.51","POINTE-AU-PERE (INRS)","7056068","2012-02-23 05:00","2012","02","23","05:00","-1.7","","-1.8","","99","","","","5","","7","","","","99.62","","","","-4","","NA"
"-68.47","48.51","POINTE-AU-PERE (INRS)","7056068","2012-02-23 06:00","2012","02","23","06:00","-1.7","","-1.9","","99","","","","5","","6","","","","99.60","","","","-4","","NA"
"-68.47","48.51","POINTE-AU-PERE (INRS)","7056068","2012-02-23 07:00","2012","02","23","07:00","-1.8","","-2.1","","98","","","","7","","4","","","","99.60","","","","-3","","NA"
"-68.47","48.51","POINTE-AU-PERE (INRS)","7056068","2012-02-23 08:00","2012","02","23","08:00","-1.0","","-1.5","","96","","","","7","","2","","","","99.61","","","","-2","","NA"
"-68.47","48.51","POINTE-AU-PERE (INRS)","7056068","2012-02-23 09:00","2012","02","23","09:00","-0.7","","-1.3","","96","","","","6","","4","","","","99.64","","","","-2","","NA"
"-68.47","48.51","POINTE-AU-PERE (INRS)","7056068","2012-02-23 10:00","2012","02","23","10:00","0.5","","-0.3","","94","","","","8","","2","","","","99.64","","","","","","NA"
"-68.47","48.51","POINTE-AU-PERE (INRS)","7056068","2012-02-23 11:00","2012","02","23","11:00","-0.1","","-0.7","","96","","","","3","","6","","","","99.62","","","","-2","","NA"
"-68.47","48.51","POINTE-AU-PERE (INRS)","7056068","2012-02-23 12:00","2012","02","23","12:00","-0.5","","-0.9","","97","","","","4","","11","","","","99.55","","","","-4","","NA"
"-68.47","48.51","POINTE-AU-PERE (INRS)","7056068","2012-02-23 13:00","2012","02","23","13:00","-0.8","","-1.1","","98","","","","4","","15","","","","99.52","","","","-5","","NA"
"-68.47","48.51","POINTE-AU-PERE (INRS)","7056068","2012-02-23 14:00","2012","02","23","14:00","-1.2","","-1.4","","99","","","","5","","19","","","","99.54","","","","-7","","NA"
"-68.47","48.51","POINTE-AU-PERE (INRS)","7056068","2012-02-23 15:00","2012","02","23","15:00","-1.2","","-1.4","","99","","","","4","","19","","","","99.57","","","","-7","","NA"
"-68.47","48.51","POINTE-AU-PERE (INRS)","7056068","2012-02-23 16:00","2012","02","23","16:00","-1.2","","-1.5","","98","","","","5","","19","","","","99.63","","","","-7","","NA"
"-68.47","48.51","POINTE-AU-PERE (INRS)","7056068","2012-02-23 17:00","2012","02","23","17:00","-1.1","","-1.5","","97","","","","4","","15","","","","99.69","","","","-6","","NA"
"-68.47","48.51","POINTE-AU-PERE (INRS)","7056068","2012-02-23 18:00","2012","02","23","18:00","-1.0","","-1.4","","97","","","","4","","13","","","","99.79","","","","-5","","NA"
"-68.47","48.51","POINTE-AU-PERE (INRS)","7056068","2012-02-23 19:00","2012","02","23","19:00","-0.8","","-1.3","","96","","","","1","","6","","","","99.90","","","","-3","","NA"
"-68.47","48.51","POINTE-AU-PERE (INRS)","7056068","2012-02-23 20:00","2012","02","23","20:00","-0.7","","-1.2","","96","","","","1","","4","","","","99.94","","","","-2","","NA"
"-68.47","48.51","POINTE-AU-PERE (INRS)","7056068","2012-02-23 21:00","2012","02","23","21:00","-1.1","","-1.6","","96","","","","22","","7","","","","99.99","","","","-4","","NA"
"-68.47","48.51","POINTE-AU-PERE (INRS)","7056068","2012-02-23 22:00","2012","02","23","22:00","-1.1","","-1.5","","97","","","","22","","13","","","","100.02","","","","-5","","NA"
"-68.47","48.51","POINTE-AU-PERE (INRS)","7056068","2012-02-23 23:00","2012","02","23","23:00","-0.8","","-1.1","","98","","","","24","","15","","","","100.06","","","","-5","","NA"
"-68.47","48.51","POINTE-AU-PERE (INRS)","7056068","2012-02-24 00:00","2012","02","24","00:00","-1.4","","-1.7","","98","","","","24","","15","","","","100.13","","","","-6","","NA"
"-68.47","48.51","POINTE-AU-PERE (INRS)","7056068","2012-02-24 01:00","2012","02","24","01:00","-0.6","","-0.9","","98","","","","24","","24","","","","100.21","","","","-7","","NA"
"-68.47","48.51","POINTE-AU-PERE (INRS)","7056068","2012-02-24 02:00","2012","02","24","02:00","-0.6","","-1.0","","97","","","","25","","20","","","","100.24","","","","-6","","NA"
"-68.47","48.51","POINTE-AU-PERE (INRS)","7056068","2012-02-24 03:00","2012","02","24","03:00","-0.8","","-1.6","","94","","","","25","","19","","","","100.28","","","","-6","","NA"
"-68.47","48.51","POINTE-AU-PERE (INRS)","7056068","2012-02-24 04:00","2012","02","24","04:00","-3.5","","-4.6","","92","","","","24","","9","","","","100.34","","","","-7","","NA"
"-68.47","48.51","POINTE-AU-PERE (INRS)","7056068","2012-02-24 05:00","2012","02","24","05:00","-1.1","","-2.6","","90","","","","26","","9","","","","100.39","","","","-4","","NA"
"-68.47","48.51","POINTE-AU-PERE (INRS)","7056068","2012-02-24 06:00","2012","02","24","06:00","-5.0","","-5.9","","93","","","","22","","11","","","","100.49","","","","-10","","NA"
"-68.47","48.51","POINTE-AU-PERE (INRS)","7056068","2012-02-24 07:00","2012","02","24","07:00","-4.7","","-5.4","","95","","","","21","","13","","","","100.60","","","","-10","","NA"
"-68.47","48.51","POINTE-AU-PERE (INRS)","7056068","2012-02-24 08:00","2012","02","24","08:00","-2.6","","-3.9","","91","","","","22","","15","","","","100.66","","","","-8","","NA"
"-68.47","48.51","POINTE-AU-PERE (INRS)","7056068","2012-02-24 09:00","2012","02","24","09:00","-0.2","","-2.0","","88","","","","22","","15","","","","100.69","","","","-5","","NA"
"-68.47","48.51","POINTE-AU-PERE (INRS)","7056068","2012-02-24 10:00","2012","02","24","10:00","-0.2","","-1.7","","90","","","","24","","17","","","","100.74","","","","-5","","NA"
"-68.47","48.51","POINTE-AU-PERE (INRS)","7056068","2012-02-24 11:00","2012","02","24","11:00","0.2","","-2.1","","84","","","","25","","15","","","","100.73","","","","","","NA"
"-68.47","48.51","POINTE-AU-PERE (INRS)","7056068","2012-02-24 12:00","2012","02","24","12:00","0.3","","-2.2","","83","","","","24","","13","","","","100.70","","","","","","NA"
"-68.47","48.51","POINTE-AU-PERE (INRS)","7056068","2012-02-24 13:00","2012","02","24","13:00","0.5","","-2.4","","81","","","","24","","11","","","","100.68","","","","","","NA"
"-68.47","48.51","POINTE-AU-PERE (INRS)","7056068","2012-02-24 14:00","2012","02","24","14:00","0.5","","-2.7","","79","","","","23","","9","","","","100.65","","","","","","NA"
"-68.47","48.51","POINTE-AU-PERE (INRS)","7056068","2012-02-24 15:00","2012","02","24","15:00","1.3","","-4.3","","66","","","","26","","4","","","","100.59","","","","","","NA"
"-68.47","48.51","POINTE-AU-PERE (INRS)","7056068","2012-02-24 16:00","2012","02","24","16:00","-0.2","","-3.0","","81","","","","30","","4","","","","100.62","","","","-1","","NA"
"-68.47","48.51","POINTE-AU-PERE (INRS)","7056068","2012-02-24 17:00","2012","02","24","17:00","-0.3","","-4.3","","74","","","","8","","4","","","","100.56","","","","-2","","NA"
"-68.47","48.51","POINTE-AU-PERE (INRS)","7056068","2012-02-24 18:00","2012","02","24","18:00","-0.7","","-5.3","","71","","","","6","","6","","","","100.49","","","","-3","","NA"
"-68.47","48.51","POINTE-AU-PERE (INRS)","7056068","2012-02-24 19:00","2012","02","24","19:00","-0.5","","-5.5","","69","","","","7","","9","","","","100.37","","","","-4","","NA"
"-68.47","48.51","POINTE-AU-PERE (INRS)","7056068","2012-02-24 20:00","2012","02","24","20:00","-0.8","","-6.0","","68","","","","6","","9","","","","100.31","","","","-4","","NA"
"-68.47","48.51","POINTE-AU-PERE (INRS)","7056068","2012-02-24 21:00","2012","02","24","21:00","-0.4","","-5.9","","66","","","","7","","7","","","","100.20","","","","-3","","NA"
"-68.47","48.51","POINTE-AU-PERE (INRS)","7056068","2012-02-24 22:00","2012","02","24","22:00","-0.1","","-5.4","","67","","","","6","","13","","","","100.11","","","","-4","","NA"
"-68.47","48.51","POINTE-AU-PERE (INRS)","7056068","2012-02-24 23:00","2012","02","24","23:00","-0.8","","-5.0","","73","","","","5","","11","","","","100.02","","","","-5","","NA"
"-68.47","48.51","POINTE-AU-PERE (INRS)","7056068","2012-02-25 00:00","2012","02","25","00:00","-0.9","","-4.8","","75","","","","5","","13","","","","99.83","","","","-5","","NA"
"-68.47","48.51","POINTE-AU-PERE (INRS)","7056068","2012-02-25 01:00","2012","02","25","01:00","-1.7","","-2.6","","94","","","","5","","15","","","","99.62","","","","-7","","NA"
"-68.47","48.51","POINTE-AU-PERE (INRS)","7056068","2012-02-25 02:00","2012","02","25","02:00","-1.3","","-1.9","","96","","","","5","","15","","","","99.47","","","","-6","","NA"
"-68.47","48.51","POINTE-AU-PERE (INRS)","7056068","2012-02-25 03:00","2012","02","25","03:00","-1.4","","-1.6","","99","","","","5","","26","","","","99.17","","","","-8","","NA"
"-68.47","48.51","POINTE-AU-PERE (INRS)","7056068","2012-02-25 04:00","2012","02","25","04:00","-1.2","","-1.3","","99","","","","5","","28","","","","99.00","","","","-8","","NA"
"-68.47","48.51","POINTE-AU-PERE (INRS)","7056068","2012-02-25 05:00","2012","02","25","05:00","-1.3","","-1.3","","100","","","","5","","24","","","","98.82","","","","-7","","NA"
"-68.47","48.51","POINTE-AU-PERE (INRS)","7056068","2012-02-25 06:00","2012","02","25","06:00","-1.1","","-1.1","","100","","","","5","","28","","","","98.67","","","","-8","","NA"
"-68.47","48.51","POINTE-AU-PERE (INRS)","7056068","2012-02-25 07:00","2012","02","25","07:00","-1.2","","-1.2","","100","","","","5","","28","","","","98.58","","","","-8","","NA"
"-68.47","48.51","POINTE-AU-PERE (INRS)","7056068","2012-02-25 08:00","2012","02","25","08:00","-1.2","","-1.2","","100","","","","5","","26","","","","98.47","","","","-8","","NA"
"-68.47","48.51","POINTE-AU-PERE (INRS)","7056068","2012-02-25 09:00","2012","02","25","09:00","-1.3","","-1.3","","100","","","","4","","30","","","","98.39","","","","-8","","NA"
"-68.47","48.51","POINTE-AU-PERE (INRS)","7056068","2012-02-25 10:00","2012","02","25","10:00","-1.5","","-1.5","","100","","","","4","","33","","","","98.28","","","","-9","","NA"
"-68.47","48.51","POINTE-AU-PERE (INRS)","7056068","2012-02-25 11:00","2012","02","25","11:00","-1.8","","-1.8","","100","","","","3","","30","","","","98.23","","","","-9","","NA"
"-68.47","48.51","POINTE-AU-PERE (INRS)","7056068","2012-02-25 12:00","2012","02","25","12:00","-1.8","","-1.8","","100","","","","3","","24","","","","98.18","","","","-8","","NA"
"-68.47","48.51","POINTE-AU-PERE (INRS)","7056068","2012-02-25 13:00","2012","02","25","13:00","-1.5","","-1.5","","100","","","","1","","35","","","","98.22","","","","-9","","NA"
"-68.47","48.51","POINTE-AU-PERE (INRS)","7056068","2012-02-25 14:00","2012","02","25","14:00","-1.2","","-1.2","","100","","","","36","","30","","","","98.29","","","","-8","","NA"
"-68.47","48.51","POINTE-AU-PERE (INRS)","7056068","2012-02-25 15:00","2012","02","25","15:00","-1.0","","-1.0","","100","","","","33","","20","","","","98.37","","","","-7","","NA"
"-68.47","48.51","POINTE-AU-PERE (INRS)","7056068","2012-02-25 16:00","2012","02","25","16:00","-0.7","","-0.7","","100","","","","31","","19","","","","98.43","","","","-6","","NA"
"-68.47","48.51","POINTE-AU-PERE (INRS)","7056068","2012-02-25 17:00","2012","02","25","17:00","-0.7","","-0.7","","100","","","","33","","30","","","","98.52","","","","-7","","NA"
"-68.47","48.51","POINTE-AU-PERE (INRS)","7056068","2012-02-25 18:00","2012","02","25","18:00","-0.7","","-0.7","","100","","","","32","","26","","","","98.66","","","","-7","","NA"
"-68.47","48.51","POINTE-AU-PERE (INRS)","7056068","2012-02-25 19:00","2012","02","25","19:00","-0.8","","-0.8","","100","","","","31","","28","","","","98.73","","","","-7","","NA"
"-68.47","48.51","POINTE-AU-PERE (INRS)","7056068","2012-02-25 20:00","2012","02","25","20:00","-0.7","","-0.7","","100","","","","32","","32","","","","98.86","","","","-8","","NA"
"-68.47","48.51","POINTE-AU-PERE (INRS)","7056068","2012-02-25 21:00","2012","02","25","21:00","-0.8","","-0.9","","99","","","","32","","33","","","","99.00","","","","-8","","NA"
"-68.47","48.51","POINTE-AU-PERE (INRS)","7056068","2012-02-25 22:00","2012","02","25","22:00","-0.7","","-1.2","","96","","","","32","","30","","","","99.14","","","","-7","","NA"
"-68.47","48.51","POINTE-AU-PERE (INRS)","7056068","2012-02-25 23:00","2012","02","25","23:00","-0.6","","-1.5","","94","","","","31","","20","","","","99.26","","","","-6","","NA"
"-68.47","48.51","POINTE-AU-PERE (INRS)","7056068","2012-02-26 00:00","2012","02","26","00:00","-0.7","","-2.2","","90","","","","31","","30","","","","99.41","","","","-7","","NA"
"-68.47","48.51","POINTE-AU-PERE (INRS)","7056068","2012-02-26 01:00","2012","02","26","01:00","-0.9","","-2.7","","88","","","","31","","26","","","","99.57","","","","-7","","NA"
"-68.47","48.51","POINTE-AU-PERE (INRS)","7056068","2012-02-26 02:00","2012","02","26","02:00","-1.6","","-4.1","","83","","","","29","","37","","","","99.77","","","","-9","","NA"
"-68.47","48.51","POINTE-AU-PERE (INRS)","7056068","2012-02-26 03:00","2012","02","26","03:00","-1.9","","-4.9","","80","","","","30","","35","","","","99.96","","","","-9","","NA"
"-68.47","48.51","POINTE-AU-PERE (INRS)","7056068","2012-02-26 04:00","2012","02","26","04:00","-2.8","","-6.2","","77","","","","29","","35","","","","100.19","","","","-11","","NA"
"-68.47","48.51","POINTE-AU-PERE (INRS)","7056068","2012-02-26 05:00","2012","02","26","05:00","-4.0","","-7.5","","77","","","","29","","37","","","","100.44","","","","-12","","NA"
"-68.47","48.51","POINTE-AU-PERE (INRS)","7056068","2012-02-26 06:00","2012","02","26","06:00","-5.1","","-8.7","","76","","","","30","","33","","","","100.66","","","","-13","","NA"
"-68.47","48.51","POINTE-AU-PERE (INRS)","7056068","2012-02-26 07:00","2012","02","26","07:00","-5.7","","-9.5","","75","","","","29","","33","","","","100.87","","","","-14","","NA"
"-68.47","48.51","POINTE-AU-PERE (INRS)","7056068","2012-02-26 08:00","2012","02","26","08:00","-6.6","","-10.6","","73","","","","29","","33","","","","101.06","","","","-15","","NA"
"-68.47","48.51","POINTE-AU-PERE (INRS)","7056068","2012-02-26 09:00","2012","02","26","09:00","-7.4","","-11.6","","72","","","","29","","28","","","","101.23","","","","-16","","NA"
"-68.47","48.51","POINTE-AU-PERE (INRS)","7056068","2012-02-26 10:00","2012","02","26","10:00","-7.5","","-12.4","","68","","","","28","","26","","","","101.33","","","","-16","","NA"
"-68.47","48.51","POINTE-AU-PERE (INRS)","7056068","2012-02-26 11:00","2012","02","26","11:00","-7.6","","-12.6","","67","","","","27","","28","","","","101.46","","","","-16","","NA"
"-68.47","48.51","POINTE-AU-PERE (INRS)","7056068","2012-02-26 12:00","2012","02","26","12:00","-7.2","","-12.7","","65","","","","28","","33","","","","101.52","","","","-16","","NA"
"-68.47","48.51","POINTE-AU-PERE (INRS)","7056068","2012-02-26 13:00","2012","02","26","13:00","-6.7","","-12.5","","63","","","","28","","33","","","","101.59","","","","-16","","NA"
"-68.47","48.51","POINTE-AU-PERE (INRS)","7056068","2012-02-26 14:00","2012","02","26","14:00","-6.6","","-12.6","","62","","","","28","","32","","","","101.67","","","","-15","","NA"
"-68.47","48.51","POINTE-AU-PERE (INRS)","7056068","2012-02-26 15:00","2012","02","26","15:00","-6.4","","-12.4","","62","","","","27","","30","","","","101.81","","","","-15","","NA"
"-68.47","48.51","POINTE-AU-PERE (INRS)","7056068","2012-02-26 16:00","2012","02","26","16:00","-6.3","","-13.3","","58","","","","28","","37","","","","101.96","","","","-16","","NA"
"-68.47","48.51","POINTE-AU-PERE (INRS)","7056068","2012-02-26 17:00","2012","02","26","17:00","-7.1","","-14.3","","56","","","","29","","43","","","","102.13","","","","-17","","NA"
"-68.47","48.51","POINTE-AU-PERE (INRS)","7056068","2012-02-26 18:00","2012","02","26","18:00","-7.6","","-13.2","","64","","","","28","","37","","","","102.27","","","","-17","","NA"
"-68.47","48.51","POINTE-AU-PERE (INRS)","7056068","2012-02-26 19:00","2012","02","26","19:00","-8.6","","-14.5","","62","","","","30","","41","","","","102.37","","","","-19","","NA"
"-68.47","48.51","POINTE-AU-PERE (INRS)","7056068","2012-02-26 20:00","2012","02","26","20:00","-9.5","","-15.3","","63","","","","31","","33","","","","102.52","","","","-19","","NA"
"-68.47","48.51","POINTE-AU-PERE (INRS)","7056068","2012-02-26 21:00","2012","02","26","21:00","-10.4","","-15.8","","65","","","","31","","33","","","","102.63","","","","-20","","NA"
"-68.47","48.51","POINTE-AU-PERE (INRS)","7056068","2012-02-26 22:00","2012","02","26","22:00","-11.7","","-16.9","","65","","","","31","","33","","","","102.68","","","","-22","","NA"
"-68.47","48.51","POINTE-AU-PERE (INRS)","7056068","2012-02-26 23:00","2012","02","26","23:00","-12.8","","-17.9","","66","","","","31","","26","","","","102.72","","","","-23","","NA"
"-68.47","48.51","POINTE-AU-PERE (INRS)","7056068","2012-02-27 00:00","2012","02","27","00:00","-13.2","","-17.9","","68","","","","30","","22","","","","102.80","","","","-22","","NA"
"-68.47","48.51","POINTE-AU-PERE (INRS)","7056068","2012-02-27 01:00","2012","02","27","01:00","-13.8","","-18.5","","68","","","","32","","24","","","","102.86","","","","-23","","NA"
"-68.47","48.51","POINTE-AU-PERE (INRS)","7056068","2012-02-27 02:00","2012","02","27","02:00","-14.3","","-18.9","","68","","","","31","","22","","","","102.92","","","","-24","","NA"
"-68.47","48.51","POINTE-AU-PERE (INRS)","7056068","2012-02-27 03:00","2012","02","27","03:00","-14.5","","-18.9","","69","","","","31","","19","","","","102.98","","","","-23","","NA"
"-68.47","48.51","POINTE-AU-PERE (INRS)","7056068","2012-02-27 04:00","2012","02","27","04:00","-14.6","","-18.8","","70","","","","32","","19","","","","103.07","","","","-23","","NA"
"-68.47","48.51","POINTE-AU-PERE (INRS)","7056068","2012-02-27 05:00","2012","02","27","05:00","-14.9","","-18.9","","71","","","","32","","17","","","","103.08","","","","-23","","NA"
"-68.47","48.51","POINTE-AU-PERE (INRS)","7056068","2012-02-27 06:00","2012","02","27","06:00","-14.6","","-18.4","","73","","","","31","","13","","","","103.10","","","","-22","","NA"
"-68.47","48.51","POINTE-AU-PERE (INRS)","7056068","2012-02-27 07:00","2012","02","27","07:00","-14.9","","-18.9","","71","","","","31","","11","","","","103.11","","","","-21","","NA"
"-68.47","48.51","POINTE-AU-PERE (INRS)","7056068","2012-02-27 08:00","2012","02","27","08:00","-15.0","","-19.4","","69","","","","31","","9","","","","103.08","","","","-21","","NA"
"-68.47","48.51","POINTE-AU-PERE (INRS)","7056068","2012-02-27 09:00","2012","02","27","09:00","-14.6","","-19.3","","67","","","","32","","6","","","","103.05","","","","-19","","NA"
"-68.47","48.51","POINTE-AU-PERE (INRS)","7056068","2012-02-27 10:00","2012","02","27","10:00","-13.9","","-18.7","","67","","","","29","","6","","","","103.05","","","","-18","","NA"
"-68.47","48.51","POINTE-AU-PERE (INRS)","7056068","2012-02-27 11:00","2012","02","27","11:00","-13.3","","-18.1","","67","","","","31","","4","","","","102.97","","","","-16","","NA"
"-68.47","48.51","POINTE-AU-PERE (INRS)","7056068","2012-02-27 12:00","2012","02","27","12:00","-12.9","","-18.0","","66","","","","27","","6","","","","102.86","","","","-17","","NA"
"-68.47","48.51","POINTE-AU-PERE (INRS)","7056068","2012-02-27 13:00","2012","02","27","13:00","-12.6","","-17.4","","67","","","","30","","6","","","","102.73","","","","-17","","NA"
"-68.47","48.51","POINTE-AU-PERE (INRS)","7056068","2012-02-27 14:00","2012","02","27","14:00","-12.1","","-16.8","","68","","","","35","","4","","","","102.61","","","","-15","","NA"
"-68.47","48.51","POINTE-AU-PERE (INRS)","7056068","2012-02-27 15:00","2012","02","27","15:00","-11.3","","-16.3","","66","","","","36","","6","","","","102.53","","","","-15","","NA"
"-68.47","48.51","POINTE-AU-PERE (INRS)","7056068","2012-02-27 16:00","2012","02","27","16:00","-11.3","","-16.6","","65","","","","5","","7","","","","102.46","","","","-16","","NA"
"-68.47","48.51","POINTE-AU-PERE (INRS)","7056068","2012-02-27 17:00","2012","02","27","17:00","-11.6","","-16.4","","68","","","","8","","7","","","","102.42","","","","-16","","NA"
"-68.47","48.51","POINTE-AU-PERE (INRS)","7056068","2012-02-27 18:00","2012","02","27","18:00","-12.1","","-15.9","","73","","","","9","","9","","","","102.36","","","","-17","","NA"
"-68.47","48.51","POINTE-AU-PERE (INRS)","7056068","2012-02-27 19:00","2012","02","27","19:00","-12.0","","-15.2","","77","","","","9","","9","","","","102.35","","","","-17","","NA"
"-68.47","48.51","POINTE-AU-PERE (INRS)","7056068","2012-02-27 20:00","2012","02","27","20:00","-12.1","","-14.5","","82","","","","8","","7","","","","102.33","","","","-16","","NA"
"-68.47","48.51","POINTE-AU-PERE (INRS)","7056068","2012-02-27 21:00","2012","02","27","21:00","-12.1","","-14.0","","86","","","","7","","6","","","","102.25","","","","-16","","NA"
"-68.47","48.51","POINTE-AU-PERE (INRS)","7056068","2012-02-27 22:00","2012","02","27","22:00","-12.1","","-14.1","","85","","","","7","","6","","","","102.16","","","","-16","","NA"
"-68.47","48.51","POINTE-AU-PERE (INRS)","7056068","2012-02-27 23:00","2012","02","27","23:00","-12.1","","-14.2","","84","","","","7","","6","","","","102.13","","","","-16","","NA"
"-68.47","48.51","POINTE-AU-PERE (INRS)","7056068","2012-02-28 00:00","2012","02","28","00:00","-12.3","","-14.6","","83","","","","9","","7","","","","102.08","","","","-17","","NA"
"-68.47","48.51","POINTE-AU-PERE (INRS)","7056068","2012-02-28 01:00","2012","02","28","01:00","-12.6","","-15.0","","82","","","","9","","7","","","","102.03","","","","-17","","NA"
"-68.47","48.51","POINTE-AU-PERE (INRS)","7056068","2012-02-28 02:00","2012","02","28","02:00","-12.1","","-14.7","","81","","","","8","","7","","","","102.03","","","","-16","","NA"
"-68.47","48.51","POINTE-AU-PERE (INRS)","7056068","2012-02-28 03:00","2012","02","28","03:00","-11.4","","-14.1","","80","","","","9","","9","","","","102.09","","","","-17","","NA"
"-68.47","48.51","POINTE-AU-PERE (INRS)","7056068","2012-02-28 04:00","2012","02","28","04:00","-11.2","","-13.3","","84","","","","9","","7","","","","102.16","","","","-15","","NA"
"-68.47","48.51","POINTE-AU-PERE (INRS)","7056068","2012-02-28 05:00","2012","02","28","05:00","-11.5","","-13.6","","84","","","","9","","6","","","","102.23","","","","-15","","NA"
"-68.47","48.51","POINTE-AU-PERE (INRS)","7056068","2012-02-28 06:00","2012","02","28","06:00","-11.6","","-13.6","","85","","","","9","","6","","","","102.28","","","","-15","","NA"
"-68.47","48.51","POINTE-AU-PERE (INRS)","7056068","2012-02-28 07:00","2012","02","28","07:00","-12.0","","-13.9","","86","","","","10","","7","","","","102.33","","","","-16","","NA"
"-68.47","48.51","POINTE-AU-PERE (INRS)","7056068","2012-02-28 08:00","2012","02","28","08:00","-9.4","","-11.9","","82","","","","4","","7","","","","102.41","","","","-13","","NA"
"-68.47","48.51","POINTE-AU-PERE (INRS)","7056068","2012-02-28 09:00","2012","02","28","09:00","-8.8","","-10.5","","87","","","","8","","6","","","","102.46","","","","-12","","NA"
"-68.47","48.51","POINTE-AU-PERE (INRS)","7056068","2012-02-28 10:00","2012","02","28","10:00","-8.2","","-10.2","","85","","","","2","","17","","","","102.51","","","","-15","","NA"
"-68.47","48.51","POINTE-AU-PERE (INRS)","7056068","2012-02-28 11:00","2012","02","28","11:00","-7.9","","-11.0","","78","","","","1","","13","","","","102.58","","","","-14","","NA"
"-68.47","48.51","POINTE-AU-PERE (INRS)","7056068","2012-02-28 12:00","2012","02","28","12:00","-7.5","","-11.0","","76","","","","36","","9","","","","102.59","","","","-12","","NA"
"-68.47","48.51","POINTE-AU-PERE (INRS)","7056068","2012-02-28 13:00","2012","02","28","13:00","-7.1","","-11.4","","71","","","","33","","6","","","","102.59","","","","-10","","NA"
"-68.47","48.51","POINTE-AU-PERE (INRS)","7056068","2012-02-28 14:00","2012","02","28","14:00","-6.1","","-12.2","","62","","","","23","","2","","","","102.56","","","","-7","","NA"
"-68.47","48.51","POINTE-AU-PERE (INRS)","7056068","2012-02-28 15:00","2012","02","28","15:00","-6.6","","-13.0","","60","","","","22","","7","","","","102.56","","","","-10","","NA"
"-68.47","48.51","POINTE-AU-PERE (INRS)","7056068","2012-02-28 16:00","2012","02","28","16:00","-7.4","","-12.4","","67","","","","23","","15","","","","102.54","","","","-14","","NA"
"-68.47","48.51","POINTE-AU-PERE (INRS)","7056068","2012-02-28 17:00","2012","02","28","17:00","-8.5","","-12.9","","70","","","","19","","11","","","","102.55","","","","-14","","NA"
"-68.47","48.51","POINTE-AU-PERE (INRS)","7056068","2012-02-28 18:00","2012","02","28","18:00","-8.5","","-12.6","","72","","","","20","","15","","","","102.55","","","","-15","","NA"
"-68.47","48.51","POINTE-AU-PERE (INRS)","7056068","2012-02-28 19:00","2012","02","28","19:00","-8.6","","-13.0","","70","","","","20","","19","","","","102.55","","","","-16","","NA"
"-68.47","48.51","POINTE-AU-PERE (INRS)","7056068","2012-02-28 20:00","2012","02","28","20:00","-7.7","","-11.7","","73","","","","21","","24","","","","102.53","","","","-16","","NA"
"-68.47","48.51","POINTE-AU-PERE (INRS)","7056068","2012-02-28 21:00","2012","02","28","21:00","-7.3","","-11.6","","71","","","","26","","4","","","","102.56","","","","-9","","NA"
"-68.47","48.51","POINTE-AU-PERE (INRS)","7056068","2012-02-28 22:00","2012","02","28","22:00","-6.1","","-13.1","","58","","","","31","","15","","","","102.58","","","","-12","","NA"
"-68.47","48.51","POINTE-AU-PERE (INRS)","7056068","2012-02-28 23:00","2012","02","28","23:00","-5.9","","-12.3","","61","","","","31","","15","","","","102.55","","","","-12","","NA"
"-68.47","48.51","POINTE-AU-PERE (INRS)","7056068","2012-02-29 00:00","2012","02","29","00:00","-6.4","","-13.9","","55","","","","31","","19","","","","102.55","","","","-13","","NA"
"-68.47","48.51","POINTE-AU-PERE (INRS)","7056068","2012-02-29 01:00","2012","02","29","01:00","-6.7","","-14.5","","54","","","","31","","19","","","","102.56","","","","-14","","NA"
"-68.47","48.51","POINTE-AU-PERE (INRS)","7056068","2012-02-29 02:00","2012","02","29","02:00","-7.1","","-14.3","","56","","","","28","","17","","","","102.56","","","","-14","","NA"
"-68.47","48.51","POINTE-AU-PERE (INRS)","7056068","2012-02-29 03:00","2012","02","29","03:00","-7.4","","-14.6","","56","","","","29","","19","","","","102.53","","","","-14","","NA"
"-68.47","48.51","POINTE-AU-PERE (INRS)","7056068","2012-02-29 04:00","2012","02","29","04:00","-8.0","","-15.6","","54","","","","31","","19","","","","102.53","","","","-15","","NA"
"-68.47","48.51","POINTE-AU-PERE (INRS)","7056068","2012-02-29 05:00","2012","02","29","05:00","-8.4","","-15.8","","55","","","","31","","17","","","","102.57","","","","-15","","NA"
"-68.47","48.51","POINTE-AU-PERE (INRS)","7056068","2012-02-29 06:00","2012","02","29","06:00","-8.9","","-16.8","","53","","","","32","","17","","","","102.58","","","","-16","","NA"
"-68.47","48.51","POINTE-AU-PERE (INRS)","7056068","2012-02-29 07:00","2012","02","29","07:00","-9.6","","-15.7","","61","","","","33","","19","","","","102.61","","","","-17","","NA"
"-68.47","48.51","POINTE-AU-PERE (INRS)","7056068","2012-02-29 08:00","2012","02","29","08:00","-9.8","","-16.6","","58","","","","33","","17","","","","102.65","","","","-17","","NA"
"-68.47","48.51","POINTE-AU-PERE (INRS)","7056068","2012-02-29 09:00","2012","02","29","09:00","-9.8","","-15.9","","61","","","","33","","19","","","","102.67","","","","-17","","NA"
"-68.47","48.51","POINTE-AU-PERE (INRS)","7056068","2012-02-29 10:00","2012","02","29","10:00","-9.8","","-16.9","","56","","","","32","","19","","","","102.70","","","","-17","","NA"
"-68.47","48.51","POINTE-AU-PERE (INRS)","7056068","2012-02-29 11:00","2012","02","29","11:00","-9.4","","-16.6","","56","","","","32","","15","","","","102.69","","","","-16","","NA"
"-68.47","48.51","POINTE-AU-PERE (INRS)","7056068","2012-02-29 12:00","2012","02","29","12:00","-9.0","","-16.0","","57","","","","32","","15","","","","102.65","","","","-16","","NA"
"-68.47","48.51","POINTE-AU-PERE (INRS)","7056068","2012-02-29 13:00","2012","02","29","13:00","-8.5","","-17.7","","47","","","","30","","7","","","","102.59","","","","-12","","NA"
"-68.47","48.51","POINTE-AU-PERE (INRS)","7056068","2012-02-29 14:00","2012","02","29","14:00","-7.8","","-17.7","","45","","","","28","","4","","","","102.56","","","","-10","","NA"
"-68.47","48.51","POINTE-AU-PERE (INRS)","7056068","2012-02-29 15:00","2012","02","29","15:00","-7.5","","-18.5","","41","","","","28","","6","","","","102.56","","","","-11","","NA"
"-68.47","48.51","POINTE-AU-PERE (INRS)","7056068","2012-02-29 16:00","2012","02","29","16:00","-7.2","","-18.2","","41","","","","32","","2","","","","102.52","","","","-8","","NA"
"-68.47","48.51","POINTE-AU-PERE (INRS)","7056068","2012-02-29 17:00","2012","02","29","17:00","-10.2","","-18.2","","52","","","","17","","2","","","","102.59","","","","-11","","NA"
"-68.47","48.51","POINTE-AU-PERE (INRS)","7056068","2012-02-29 18:00","2012","02","29","18:00","-12.0","","-18.8","","57","","","","11","","7","","","","102.65","","","","-16","","NA"
"-68.47","48.51","POINTE-AU-PERE (INRS)","7056068","2012-02-29 19:00","2012","02","29","19:00","-13.0","","-19.1","","60","","","","10","","7","","","","102.64","","","","-18","","NA"
"-68.47","48.51","POINTE-AU-PERE (INRS)","7056068","2012-02-29 20:00","2012","02","29","20:00","-14.8","","-19.2","","69","","","","12","","9","","","","102.61","","","","-21","","NA"
"-68.47","48.51","POINTE-AU-PERE (INRS)","7056068","2012-02-29 21:00","2012","02","29","21:00","-14.3","","-19.2","","66","","","","10","","7","","","","102.55","","","","-19","","NA"
"-68.47","48.51","POINTE-AU-PERE (INRS)","7056068","2012-02-29 22:00","2012","02","29","22:00","-13.5","","-18.2","","68","","","","9","","7","","","","102.49","","","","-18","","NA"
"-68.47","48.51","POINTE-AU-PERE (INRS)","7056068","2012-02-29 23:00","2012","02","29","23:00","-14.7","","-19.4","","67","","","","11","","11","","","","102.51","","","","-21","","NA"
