"Longitude (x)","Latitude (y)","Station Name","Climate ID","Date/Time (LST)","Year","Month","Day","Time (LST)","Temp (°C)","Temp Flag","Dew Point Temp (°C)","Dew Point Temp Flag","Rel Hum (%)","Rel Hum Flag","Precip. Amount (mm)","Precip. Amount Flag","Wind Dir (10s deg)","Wind Dir Flag","Wind Spd (km/h)","Wind Spd Flag","Visibility (km)","Visibility Flag","Stn Press (kPa)","Stn Press Flag","Hmdx","Hmdx Flag","Wind Chill","Wind Chill Flag","Weather"
"-72.77","45.37","GRANBY","7022802","2019-03-01 00:00","2019","03","01","00:00","-18.6","","-20.6","","85","","","","","","0","","","","101.55","","","","","","NA"
"-72.77","45.37","GRANBY","7022802","2019-03-01 01:00","2019","03","01","01:00","-19.1","","-21.1","","85","","","","","","0","","","","101.57","","","","","","NA"
"-72.77","45.37","GRANBY","7022802","2019-03-01 02:00","2019","03","01","02:00","-19.3","","-21.2","","85","","","","","","0","","","","101.59","","","","","","NA"
"-72.77","45.37","GRANBY","7022802","2019-03-01 03:00","2019","03","01","03:00","-19.7","","-21.6","","84","","","","","","0","","","","101.56","","","","","","NA"
"-72.77","45.37","GRANBY","7022802","2019-03-01 04:00","2019","03","01","04:00","-20.0","","-22.0","","84","","","","","","0","","","","101.57","","","","","","NA"
"-72.77","45.37","GRANBY","7022802","2019-03-01 05:00","2019","03","01","05:00","-19.4","","-21.3","","85","","","","3","","1","","","","101.57","","","","-20","","NA"
"-72.77","45.37","GRANBY","7022802","2019-03-01 06:00","2019","03","01","06:00","-19.4","","-21.3","","85","","","","","","0","","","","101.60","","","","","","NA"
"-72.77","45.37","GRANBY","7022802","2019-03-01 07:00","2019","03","01","07:00","-19.7","","-21.7","","84","","","","","","0","","","","101.62","","","","","","NA"
"-72.77","45.37","GRANBY","7022802","2019-03-01 08:00","2019","03","01","08:00","-15.2","","-16.8","","88","","","","","","0","","","","101.65","","","","","","NA"
"-72.77","45.37","GRANBY","7022802","2019-03-01 09:00","2019","03","01","09:00","-9.0","","-14.6","","64","","","","0","","1","","","","101.67","","","","-10","","NA"
"-72.77","45.37","GRANBY","7022802","2019-03-01 10:00","2019","03","01","10:00","-7.7","","-19.0","","40","","","","23","","7","","","","101.63","","","","-11","","NA"
"-72.77","45.37","GRANBY","7022802","2019-03-01 11:00","2019","03","01","11:00","-6.2","","-17.7","","40","","","","27","","8","","","","101.63","","","","-10","","NA"
"-72.77","45.37","GRANBY","7022802","2019-03-01 12:00","2019","03","01","12:00","-4.9","","-15.5","","43","","","","25","","9","","","","101.61","","","","-9","","NA"
"-72.77","45.37","GRANBY","7022802","2019-03-01 13:00","2019","03","01","13:00","-4.1","","-13.4","","48","","","","25","","9","","","","101.57","","","","-8","","NA"
"-72.77","45.37","GRANBY","7022802","2019-03-01 14:00","2019","03","01","14:00","-4.1","","-14.8","","43","","","","26","","6","","","","101.50","","","","-7","","NA"
"-72.77","45.37","GRANBY","7022802","2019-03-01 15:00","2019","03","01","15:00","-3.5","","-14.7","","42","","","","22","","4","","","","101.45","","","","-5","","NA"
"-72.77","45.37","GRANBY","7022802","2019-03-01 16:00","2019","03","01","16:00","-3.5","","-14.0","","44","","","","26","","7","","","","101.45","","","","-6","","NA"
"-72.77","45.37","GRANBY","7022802","2019-03-01 17:00","2019","03","01","17:00","-3.5","","-14.6","","42","","","","25","","3","","","","101.36","","","","-5","","NA"
"-72.77","45.37","GRANBY","7022802","2019-03-01 18:00","2019","03","01","18:00","-6.3","","-11.2","","68","","","","2","","1","","","","101.38","","","","-7","","NA"
"-72.77","45.37","GRANBY","7022802","2019-03-01 19:00","2019","03","01","19:00","-8.6","","-12.7","","72","","","","","","0","","","","101.38","","","","","","NA"
"-72.77","45.37","GRANBY","7022802","2019-03-01 20:00","2019","03","01","20:00","-10.1","","-13.4","","77","","","","","","0","","","","101.44","","","","","","NA"
"-72.77","45.37","GRANBY","7022802","2019-03-01 21:00","2019","03","01","21:00","-11.4","","-13.1","","87","","","","","","0","","","","101.41","","","","","","NA"
"-72.77","45.37","GRANBY","7022802","2019-03-01 22:00","2019","03","01","22:00","-11.8","","-12.9","","91","","","","","","0","","","","101.40","","","","","","NA"
"-72.77","45.37","GRANBY","7022802","2019-03-01 23:00","2019","03","01","23:00","-11.6","","-12.9","","90","","","","2","","3","","","","101.37","","","","-13","","NA"
"-72.77","45.37","GRANBY","7022802","2019-03-02 00:00","2019","03","02","00:00","-11.5","","-13.6","","84","","","","0","","1","","","","101.32","","","","-12","","NA"
"-72.77","45.37","GRANBY","7022802","2019-03-02 01:00","2019","03","02","01:00","-11.9","","-13.3","","89","","","","0","","1","","","","101.33","","","","-13","","NA"
"-72.77","45.37","GRANBY","7022802","2019-03-02 02:00","2019","03","02","02:00","-10.8","","-13.6","","80","","","","3","","4","","","","101.29","","","","-13","","NA"
"-72.77","45.37","GRANBY","7022802","2019-03-02 03:00","2019","03","02","03:00","-11.3","","-13.3","","85","","","","3","","2","","","","101.22","","","","-13","","NA"
"-72.77","45.37","GRANBY","7022802","2019-03-02 04:00","2019","03","02","04:00","-11.0","","-13.1","","85","","","","4","","2","","","","101.16","","","","-12","","NA"
"-72.77","45.37","GRANBY","7022802","2019-03-02 05:00","2019","03","02","05:00","-10.9","","-13.3","","82","","","","3","","4","","","","101.14","","","","-13","","NA"
"-72.77","45.37","GRANBY","7022802","2019-03-02 06:00","2019","03","02","06:00","-10.2","","-13.6","","76","","","","2","","3","","","","101.11","","","","-12","","NA"
"-72.77","45.37","GRANBY","7022802","2019-03-02 07:00","2019","03","02","07:00","-10.9","","-13.9","","79","","","","2","","4","","","","101.09","","","","-13","","NA"
"-72.77","45.37","GRANBY","7022802","2019-03-02 08:00","2019","03","02","08:00","-8.3","","-13.5","","66","","","","2","","6","","","","101.07","","","","-12","","NA"
"-72.77","45.37","GRANBY","7022802","2019-03-02 09:00","2019","03","02","09:00","-6.0","","-12.6","","60","","","","1","","3","","","","101.02","","","","-7","","NA"
"-72.77","45.37","GRANBY","7022802","2019-03-02 10:00","2019","03","02","10:00","-2.4","","-11.9","","48","","","","1","","4","","","","100.92","","","","-4","","NA"
"-72.77","45.37","GRANBY","7022802","2019-03-02 11:00","2019","03","02","11:00","-0.2","","-10.8","","45","","","","35","","4","","","","100.81","","","","-1","","NA"
"-72.77","45.37","GRANBY","7022802","2019-03-02 12:00","2019","03","02","12:00","0.4","","-8.2","","52","","","","34","","6","","","","100.70","","","","","","NA"
"-72.77","45.37","GRANBY","7022802","2019-03-02 13:00","2019","03","02","13:00","-0.2","","-8.7","","53","","","","35","","6","","","","100.61","","","","-2","","NA"
"-72.77","45.37","GRANBY","7022802","2019-03-02 14:00","2019","03","02","14:00","-0.9","","-8.7","","56","","","","35","","7","","","","100.57","","","","-3","","NA"
"-72.77","45.37","GRANBY","7022802","2019-03-02 15:00","2019","03","02","15:00","-0.2","","-8.5","","54","","","","34","","4","","","","100.54","","","","-1","","NA"
"-72.77","45.37","GRANBY","7022802","2019-03-02 16:00","2019","03","02","16:00","-0.7","","-7.5","","60","","","","35","","4","","","","100.51","","","","-2","","NA"
"-72.77","45.37","GRANBY","7022802","2019-03-02 17:00","2019","03","02","17:00","-2.0","","-8.1","","63","","","","35","","4","","","","100.50","","","","-3","","NA"
"-72.77","45.37","GRANBY","7022802","2019-03-02 18:00","2019","03","02","18:00","-2.6","","-8.4","","64","","","","2","","6","","","","100.51","","","","-5","","NA"
"-72.77","45.37","GRANBY","7022802","2019-03-02 19:00","2019","03","02","19:00","-2.9","","-8.0","","68","","","","36","","2","","","","100.54","","","","-4","","NA"
"-72.77","45.37","GRANBY","7022802","2019-03-02 20:00","2019","03","02","20:00","-2.8","","-8.8","","63","","","","2","","7","","","","100.55","","","","-6","","NA"
"-72.77","45.37","GRANBY","7022802","2019-03-02 21:00","2019","03","02","21:00","-2.8","","-9.1","","62","","","","23","","3","","","","100.59","","","","-4","","NA"
"-72.77","45.37","GRANBY","7022802","2019-03-02 22:00","2019","03","02","22:00","-3.2","","-8.8","","66","","","","28","","6","","","","100.62","","","","-6","","NA"
"-72.77","45.37","GRANBY","7022802","2019-03-02 23:00","2019","03","02","23:00","-3.9","","-7.9","","74","","","","31","","2","","","","100.58","","","","-5","","NA"
"-72.77","45.37","GRANBY","7022802","2019-03-03 00:00","2019","03","03","00:00","-4.4","","-6.6","","85","","","","24","","2","","","","100.59","","","","-5","","NA"
"-72.77","45.37","GRANBY","7022802","2019-03-03 01:00","2019","03","03","01:00","-4.9","","-6.2","","91","","","","22","","2","","","","100.61","","","","-6","","NA"
"-72.77","45.37","GRANBY","7022802","2019-03-03 02:00","2019","03","03","02:00","-5.3","","-6.0","","95","","","","20","","2","","","","100.63","","","","-6","","NA"
"-72.77","45.37","GRANBY","7022802","2019-03-03 03:00","2019","03","03","03:00","-5.4","","-6.1","","95","","","","21","","3","","","","100.64","","","","-7","","NA"
"-72.77","45.37","GRANBY","7022802","2019-03-03 04:00","2019","03","03","04:00","-5.4","","-6.3","","93","","","","21","","3","","","","100.69","","","","-7","","NA"
"-72.77","45.37","GRANBY","7022802","2019-03-03 05:00","2019","03","03","05:00","-5.3","","-6.0","","94","","","","22","","3","","","","100.76","","","","-7","","NA"
"-72.77","45.37","GRANBY","7022802","2019-03-03 06:00","2019","03","03","06:00","-5.3","","-6.1","","94","","","","21","","5","","","","100.78","","","","-8","","NA"
"-72.77","45.37","GRANBY","7022802","2019-03-03 07:00","2019","03","03","07:00","-5.2","","-6.0","","94","","","","20","","3","","","","100.79","","","","-7","","NA"
"-72.77","45.37","GRANBY","7022802","2019-03-03 08:00","2019","03","03","08:00","-4.7","","-6.3","","89","","","","22","","6","","","","100.84","","","","-7","","NA"
"-72.77","45.37","GRANBY","7022802","2019-03-03 09:00","2019","03","03","09:00","-4.5","","-6.4","","87","","","","23","","13","","","","100.90","","","","-10","","NA"
"-72.77","45.37","GRANBY","7022802","2019-03-03 10:00","2019","03","03","10:00","-4.1","","-6.3","","84","","","","23","","9","","","","100.92","","","","-8","","NA"
"-72.77","45.37","GRANBY","7022802","2019-03-03 11:00","2019","03","03","11:00","-3.3","","-6.2","","81","","","","23","","10","","","","100.92","","","","-7","","NA"
"-72.77","45.37","GRANBY","7022802","2019-03-03 12:00","2019","03","03","12:00","-2.9","","-6.0","","79","","","","21","","7","","","","100.83","","","","-6","","NA"
"-72.77","45.37","GRANBY","7022802","2019-03-03 13:00","2019","03","03","13:00","-2.5","","-6.8","","72","","","","23","","10","","","","100.75","","","","-6","","NA"
"-72.77","45.37","GRANBY","7022802","2019-03-03 14:00","2019","03","03","14:00","-1.2","","-7.2","","64","","","","21","","8","","","","100.65","","","","-4","","NA"
"-72.77","45.37","GRANBY","7022802","2019-03-03 15:00","2019","03","03","15:00","-1.2","","-7.0","","65","","","","23","","8","","","","100.55","","","","-4","","NA"
"-72.77","45.37","GRANBY","7022802","2019-03-03 16:00","2019","03","03","16:00","-1.1","","-6.8","","65","","","","26","","8","","","","100.53","","","","-4","","NA"
"-72.77","45.37","GRANBY","7022802","2019-03-03 17:00","2019","03","03","17:00","-1.5","","-6.8","","67","","","","29","","3","","","","100.46","","","","-3","","NA"
"-72.77","45.37","GRANBY","7022802","2019-03-03 18:00","2019","03","03","18:00","-2.4","","-6.6","","73","","","","0","","1","","","","100.47","","","","-3","","NA"
"-72.77","45.37","GRANBY","7022802","2019-03-03 19:00","2019","03","03","19:00","-2.8","","-6.3","","77","","","","2","","1","","","","100.47","","","","-3","","NA"
"-72.77","45.37","GRANBY","7022802","2019-03-03 20:00","2019","03","03","20:00","-3.1","","-6.0","","80","","","","0","","1","","","","100.49","","","","-4","","NA"
"-72.77","45.37","GRANBY","7022802","2019-03-03 21:00","2019","03","03","21:00","-3.1","","-5.1","","86","","","","2","","3","","","","100.43","","","","-4","","NA"
"-72.77","45.37","GRANBY","7022802","2019-03-03 22:00","2019","03","03","22:00","-3.5","","-4.3","","94","","","","3","","3","","","","100.39","","","","-5","","NA"
"-72.77","45.37","GRANBY","7022802","2019-03-03 23:00","2019","03","03","23:00","-3.7","","-4.2","","96","","","","35","","2","","","","100.30","","","","-5","","NA"
"-72.77","45.37","GRANBY","7022802","2019-03-04 00:00","2019","03","04","00:00","-3.7","","-4.2","","96","","","","1","","2","","","","100.28","","","","-5","","NA"
"-72.77","45.37","GRANBY","7022802","2019-03-04 01:00","2019","03","04","01:00","-3.9","","-4.4","","97","","","","3","","2","","","","100.26","","","","-5","","NA"
"-72.77","45.37","GRANBY","7022802","2019-03-04 02:00","2019","03","04","02:00","-3.8","","-4.2","","97","","","","30","","1","","","","100.20","","","","-4","","NA"
"-72.77","45.37","GRANBY","7022802","2019-03-04 03:00","2019","03","04","03:00","-4.6","","-5.0","","97","","","","0","","1","","","","100.07","","","","-5","","NA"
"-72.77","45.37","GRANBY","7022802","2019-03-04 04:00","2019","03","04","04:00","-6.0","","-6.4","","97","","","","","","0","","","","100.03","","","","","","NA"
"-72.77","45.37","GRANBY","7022802","2019-03-04 05:00","2019","03","04","05:00","-6.6","","-6.9","","97","","","","27","","2","","","","100.00","","","","-8","","NA"
"-72.77","45.37","GRANBY","7022802","2019-03-04 06:00","2019","03","04","06:00","-6.2","","-6.6","","97","","","","24","","2","","","","99.93","","","","-7","","NA"
"-72.77","45.37","GRANBY","7022802","2019-03-04 07:00","2019","03","04","07:00","-5.2","","-5.5","","98","","","","0","","1","","","","99.89","","","","-6","","NA"
"-72.77","45.37","GRANBY","7022802","2019-03-04 08:00","2019","03","04","08:00","-4.6","","-5.0","","97","","","","27","","6","","","","99.89","","","","-7","","NA"
"-72.77","45.37","GRANBY","7022802","2019-03-04 09:00","2019","03","04","09:00","-4.3","","-5.0","","95","","","","28","","7","","","","99.84","","","","-7","","NA"
"-72.77","45.37","GRANBY","7022802","2019-03-04 10:00","2019","03","04","10:00","-3.9","","-6.2","","84","","","","26","","7","","","","99.79","","","","-7","","NA"
"-72.77","45.37","GRANBY","7022802","2019-03-04 11:00","2019","03","04","11:00","-3.6","","-6.0","","83","","","","25","","11","","","","99.78","","","","-8","","NA"
"-72.77","45.37","GRANBY","7022802","2019-03-04 12:00","2019","03","04","12:00","-3.4","","-6.8","","78","","","","24","","12","","","","99.75","","","","-8","","NA"
"-72.77","45.37","GRANBY","7022802","2019-03-04 13:00","2019","03","04","13:00","-2.9","","-7.3","","72","","","","24","","15","","","","99.67","","","","-8","","NA"
"-72.77","45.37","GRANBY","7022802","2019-03-04 14:00","2019","03","04","14:00","-3.1","","-8.1","","68","","","","25","","18","","","","99.65","","","","-9","","NA"
"-72.77","45.37","GRANBY","7022802","2019-03-04 15:00","2019","03","04","15:00","-4.0","","-10.1","","62","","","","25","","22","","","","99.70","","","","-11","","NA"
"-72.77","45.37","GRANBY","7022802","2019-03-04 16:00","2019","03","04","16:00","-5.1","","-14.3","","49","","","","25","","18","","","","99.73","","","","-11","","NA"
"-72.77","45.37","GRANBY","7022802","2019-03-04 17:00","2019","03","04","17:00","-6.0","","-18.9","","35","","","","25","","17","","","","99.75","","","","-12","","NA"
"-72.77","45.37","GRANBY","7022802","2019-03-04 18:00","2019","03","04","18:00","-7.1","","-17.8","","42","","","","24","","12","","","","99.80","","","","-12","","NA"
"-72.77","45.37","GRANBY","7022802","2019-03-04 19:00","2019","03","04","19:00","-8.0","","-17.7","","46","","","","23","","10","","","","99.89","","","","-13","","NA"
"-72.77","45.37","GRANBY","7022802","2019-03-04 20:00","2019","03","04","20:00","-8.0","","-16.9","","49","","","","24","","11","","","","99.91","","","","-13","","NA"
"-72.77","45.37","GRANBY","7022802","2019-03-04 21:00","2019","03","04","21:00","-9.2","","-16.9","","53","","","","22","","7","","","","99.98","","","","-13","","NA"
"-72.77","45.37","GRANBY","7022802","2019-03-04 22:00","2019","03","04","22:00","-9.2","","-15.8","","59","","","","23","","13","","","","100.01","","","","-15","","NA"
"-72.77","45.37","GRANBY","7022802","2019-03-04 23:00","2019","03","04","23:00","-9.0","","-15.4","","59","","","","23","","13","","","","100.06","","","","-15","","NA"
"-72.77","45.37","GRANBY","7022802","2019-03-05 00:00","2019","03","05","00:00","-8.5","","-15.4","","57","","","","23","","15","","","","100.08","","","","-15","","NA"
"-72.77","45.37","GRANBY","7022802","2019-03-05 01:00","2019","03","05","01:00","-9.4","","-16.1","","58","","","","22","","11","","","","100.13","","","","-15","","NA"
"-72.77","45.37","GRANBY","7022802","2019-03-05 02:00","2019","03","05","02:00","-9.7","","-16.5","","58","","","","24","","12","","","","100.18","","","","-16","","NA"
"-72.77","45.37","GRANBY","7022802","2019-03-05 03:00","2019","03","05","03:00","-11.4","","-17.9","","59","","","","23","","9","","","","100.24","","","","-17","","NA"
"-72.77","45.37","GRANBY","7022802","2019-03-05 04:00","2019","03","05","04:00","-12.4","","-18.9","","58","","","","23","","12","","","","100.27","","","","-19","","NA"
"-72.77","45.37","GRANBY","7022802","2019-03-05 05:00","2019","03","05","05:00","-13.5","","-19.7","","60","","","","23","","9","","","","100.32","","","","-19","","NA"
"-72.77","45.37","GRANBY","7022802","2019-03-05 06:00","2019","03","05","06:00","-14.4","","-19.9","","63","","","","23","","6","","","","100.37","","","","-19","","NA"
"-72.77","45.37","GRANBY","7022802","2019-03-05 07:00","2019","03","05","07:00","-14.3","","-19.9","","62","","","","20","","5","","","","100.40","","","","-18","","NA"
"-72.77","45.37","GRANBY","7022802","2019-03-05 08:00","2019","03","05","08:00","-12.2","","-19.6","","54","","","","21","","5","","","","100.43","","","","-15","","NA"
"-72.77","45.37","GRANBY","7022802","2019-03-05 09:00","2019","03","05","09:00","-10.9","","-18.4","","54","","","","23","","8","","","","100.39","","","","-16","","NA"
"-72.77","45.37","GRANBY","7022802","2019-03-05 10:00","2019","03","05","10:00","-9.7","","-16.8","","56","","","","24","","11","","","","100.36","","","","-15","","NA"
"-72.77","45.37","GRANBY","7022802","2019-03-05 11:00","2019","03","05","11:00","-9.3","","-16.6","","55","","","","24","","11","","","","100.37","","","","-15","","NA"
"-72.77","45.37","GRANBY","7022802","2019-03-05 12:00","2019","03","05","12:00","-8.7","","-16.5","","53","","","","23","","9","","","","100.31","","","","-13","","NA"
"-72.77","45.37","GRANBY","7022802","2019-03-05 13:00","2019","03","05","13:00","-8.2","","-15.9","","54","","","","24","","12","","","","100.26","","","","-14","","NA"
"-72.77","45.37","GRANBY","7022802","2019-03-05 14:00","2019","03","05","14:00","-8.0","","-15.7","","54","","","","23","","9","","","","100.21","","","","-13","","NA"
"-72.77","45.37","GRANBY","7022802","2019-03-05 15:00","2019","03","05","15:00","-8.0","","-16.0","","53","","","","23","","11","","","","100.19","","","","-13","","NA"
"-72.77","45.37","GRANBY","7022802","2019-03-05 16:00","2019","03","05","16:00","-8.0","","-15.2","","56","","","","24","","9","","","","100.16","","","","-13","","NA"
"-72.77","45.37","GRANBY","7022802","2019-03-05 17:00","2019","03","05","17:00","-8.4","","-14.7","","61","","","","27","","7","","","","100.17","","","","-12","","NA"
"-72.77","45.37","GRANBY","7022802","2019-03-05 18:00","2019","03","05","18:00","-9.4","","-14.3","","68","","","","24","","3","","","","100.21","","","","-11","","NA"
"-72.77","45.37","GRANBY","7022802","2019-03-05 19:00","2019","03","05","19:00","-11.1","","-14.6","","75","","","","26","","2","","","","100.23","","","","-12","","NA"
"-72.77","45.37","GRANBY","7022802","2019-03-05 20:00","2019","03","05","20:00","-11.9","","-14.0","","84","","","","20","","1","","","","100.24","","","","-13","","NA"
"-72.77","45.37","GRANBY","7022802","2019-03-05 21:00","2019","03","05","21:00","-10.8","","-12.9","","85","","","","18","","4","","","","100.22","","","","-13","","NA"
"-72.77","45.37","GRANBY","7022802","2019-03-05 22:00","2019","03","05","22:00","-10.4","","-12.1","","87","","","","19","","4","","","","100.18","","","","-13","","NA"
"-72.77","45.37","GRANBY","7022802","2019-03-05 23:00","2019","03","05","23:00","-10.1","","-11.9","","87","","","","22","","3","","","","100.13","","","","-12","","NA"
"-72.77","45.37","GRANBY","7022802","2019-03-06 00:00","2019","03","06","00:00","-9.5","","-12.6","","78","","","","23","","14","","","","100.10","","","","-16","","NA"
"-72.77","45.37","GRANBY","7022802","2019-03-06 01:00","2019","03","06","01:00","-10.4","","-12.8","","82","","","","23","","13","","","","100.11","","","","-17","","NA"
"-72.77","45.37","GRANBY","7022802","2019-03-06 02:00","2019","03","06","02:00","-11.3","","-13.2","","86","","","","23","","12","","","","100.11","","","","-17","","NA"
"-72.77","45.37","GRANBY","7022802","2019-03-06 03:00","2019","03","06","03:00","-12.5","","-14.8","","83","","","","23","","9","","","","100.09","","","","-18","","NA"
"-72.77","45.37","GRANBY","7022802","2019-03-06 04:00","2019","03","06","04:00","-12.4","","-14.4","","85","","","","24","","12","","","","100.11","","","","-19","","NA"
"-72.77","45.37","GRANBY","7022802","2019-03-06 05:00","2019","03","06","05:00","-13.0","","-15.2","","83","","","","23","","13","","","","100.17","","","","-20","","NA"
"-72.77","45.37","GRANBY","7022802","2019-03-06 06:00","2019","03","06","06:00","-13.8","","-16.0","","84","","","","23","","10","","","","100.23","","","","-20","","NA"
"-72.77","45.37","GRANBY","7022802","2019-03-06 07:00","2019","03","06","07:00","-13.8","","-16.2","","82","","","","25","","14","","","","100.30","","","","-21","","NA"
"-72.77","45.37","GRANBY","7022802","2019-03-06 08:00","2019","03","06","08:00","-13.8","","-16.7","","79","","","","26","","12","","","","100.41","","","","-21","","NA"
"-72.77","45.37","GRANBY","7022802","2019-03-06 09:00","2019","03","06","09:00","-13.1","","-16.8","","74","","","","26","","13","","","","100.48","","","","-20","","NA"
"-72.77","45.37","GRANBY","7022802","2019-03-06 10:00","2019","03","06","10:00","-12.0","","-17.4","","64","","","","27","","11","","","","100.53","","","","-18","","NA"
"-72.77","45.37","GRANBY","7022802","2019-03-06 11:00","2019","03","06","11:00","-11.2","","-19.2","","52","","","","26","","12","","","","100.55","","","","-17","","NA"
"-72.77","45.37","GRANBY","7022802","2019-03-06 12:00","2019","03","06","12:00","-10.8","","-19.6","","48","","","","25","","14","","","","100.55","","","","-17","","NA"
"-72.77","45.37","GRANBY","7022802","2019-03-06 13:00","2019","03","06","13:00","-9.7","","-18.1","","50","","","","24","","12","","","","100.53","","","","-16","","NA"
"-72.77","45.37","GRANBY","7022802","2019-03-06 14:00","2019","03","06","14:00","-9.7","","-20.6","","41","","","","24","","13","","","","100.50","","","","-16","","NA"
"-72.77","45.37","GRANBY","7022802","2019-03-06 15:00","2019","03","06","15:00","-9.6","","-22.1","","35","","","","25","","13","","","","100.53","","","","-16","","NA"
"-72.77","45.37","GRANBY","7022802","2019-03-06 16:00","2019","03","06","16:00","-9.7","","-19.3","","45","","","","25","","15","","","","100.53","","","","-16","","NA"
"-72.77","45.37","GRANBY","7022802","2019-03-06 17:00","2019","03","06","17:00","-10.1","","-19.7","","45","","","","25","","19","","","","100.57","","","","-18","","NA"
"-72.77","45.37","GRANBY","7022802","2019-03-06 18:00","2019","03","06","18:00","-11.2","","-19.8","","49","","","","25","","12","","","","100.63","","","","-17","","NA"
"-72.77","45.37","GRANBY","7022802","2019-03-06 19:00","2019","03","06","19:00","-11.7","","-19.3","","53","","","","24","","12","","","","100.70","","","","-18","","NA"
"-72.77","45.37","GRANBY","7022802","2019-03-06 20:00","2019","03","06","20:00","-12.4","","-18.7","","59","","","","24","","9","","","","100.75","","","","-18","","NA"
"-72.77","45.37","GRANBY","7022802","2019-03-06 21:00","2019","03","06","21:00","-12.6","","-16.8","","71","","","","27","","10","","","","100.82","","","","-18","","NA"
"-72.77","45.37","GRANBY","7022802","2019-03-06 22:00","2019","03","06","22:00","-14.6","","-18.3","","74","","","","25","","6","","","","100.86","","","","-19","","NA"
"-72.77","45.37","GRANBY","7022802","2019-03-06 23:00","2019","03","06","23:00","-17.8","","-20.7","","78","","","","25","","4","","","","100.88","","","","-21","","NA"
"-72.77","45.37","GRANBY","7022802","2019-03-07 00:00","2019","03","07","00:00","-18.1","","-20.4","","82","","","","24","","3","","","","100.90","","","","-21","","NA"
"-72.77","45.37","GRANBY","7022802","2019-03-07 01:00","2019","03","07","01:00","-18.9","","-21.1","","82","","","","24","","1","","","","100.92","","","","-20","","NA"
"-72.77","45.37","GRANBY","7022802","2019-03-07 02:00","2019","03","07","02:00","-19.0","","-21.3","","82","","","","20","","1","","","","100.92","","","","-20","","NA"
"-72.77","45.37","GRANBY","7022802","2019-03-07 03:00","2019","03","07","03:00","-19.4","","-21.7","","82","","","","24","","2","","","","100.90","","","","-21","","NA"
"-72.77","45.37","GRANBY","7022802","2019-03-07 04:00","2019","03","07","04:00","-20.6","","-22.8","","83","","","","","","0","","","","100.91","","","","","","NA"
"-72.77","45.37","GRANBY","7022802","2019-03-07 05:00","2019","03","07","05:00","-21.6","","-23.5","","84","","","","","","0","","","","100.95","","","","","","NA"
"-72.77","45.37","GRANBY","7022802","2019-03-07 06:00","2019","03","07","06:00","-21.4","","-23.5","","83","","","","","","0","","","","101.00","","","","","","NA"
"-72.77","45.37","GRANBY","7022802","2019-03-07 07:00","2019","03","07","07:00","-19.2","","-21.2","","85","","","","20","","3","","","","101.05","","","","-22","","NA"
"-72.77","45.37","GRANBY","7022802","2019-03-07 08:00","2019","03","07","08:00","-15.7","","-19.6","","72","","","","22","","3","","","","101.14","","","","-18","","NA"
"-72.77","45.37","GRANBY","7022802","2019-03-07 09:00","2019","03","07","09:00","-14.1","","-20.0","","61","","","","21","","5","","","","101.16","","","","-18","","NA"
"-72.77","45.37","GRANBY","7022802","2019-03-07 10:00","2019","03","07","10:00","-13.1","","-19.6","","58","","","","24","","7","","","","101.15","","","","-18","","NA"
"-72.77","45.37","GRANBY","7022802","2019-03-07 11:00","2019","03","07","11:00","-11.5","","-19.4","","52","","","","19","","6","","","","101.14","","","","-15","","NA"
"-72.77","45.37","GRANBY","7022802","2019-03-07 12:00","2019","03","07","12:00","-10.4","","-19.2","","49","","","","24","","5","","","","101.10","","","","-13","","NA"
"-72.77","45.37","GRANBY","7022802","2019-03-07 13:00","2019","03","07","13:00","-9.8","","-19.2","","46","","","","23","","10","","","","101.06","","","","-15","","NA"
"-72.77","45.37","GRANBY","7022802","2019-03-07 14:00","2019","03","07","14:00","-9.8","","-18.3","","50","","","","24","","13","","","","101.05","","","","-16","","NA"
"-72.77","45.37","GRANBY","7022802","2019-03-07 15:00","2019","03","07","15:00","-9.6","","-19.1","","46","","","","26","","15","","","","101.07","","","","-16","","NA"
"-72.77","45.37","GRANBY","7022802","2019-03-07 16:00","2019","03","07","16:00","-9.4","","-19.8","","43","","","","26","","17","","","","101.08","","","","-16","","NA"
"-72.77","45.37","GRANBY","7022802","2019-03-07 17:00","2019","03","07","17:00","-9.7","","-18.6","","48","","","","25","","17","","","","101.11","","","","-17","","NA"
"-72.77","45.37","GRANBY","7022802","2019-03-07 18:00","2019","03","07","18:00","-10.5","","-18.7","","51","","","","23","","10","","","","101.16","","","","-16","","NA"
"-72.77","45.37","GRANBY","7022802","2019-03-07 19:00","2019","03","07","19:00","-11.8","","-19.4","","53","","","","21","","4","","","","101.19","","","","-14","","NA"
"-72.77","45.37","GRANBY","7022802","2019-03-07 20:00","2019","03","07","20:00","-12.6","","-19.0","","59","","","","19","","6","","","","101.19","","","","-17","","NA"
"-72.77","45.37","GRANBY","7022802","2019-03-07 21:00","2019","03","07","21:00","-12.9","","-19.2","","59","","","","20","","4","","","","101.22","","","","-16","","NA"
"-72.77","45.37","GRANBY","7022802","2019-03-07 22:00","2019","03","07","22:00","-13.1","","-18.4","","64","","","","21","","5","","","","101.23","","","","-16","","NA"
"-72.77","45.37","GRANBY","7022802","2019-03-07 23:00","2019","03","07","23:00","-12.1","","-17.9","","62","","","","20","","6","","","","101.24","","","","-16","","NA"
"-72.77","45.37","GRANBY","7022802","2019-03-08 00:00","2019","03","08","00:00","-12.8","","-18.4","","63","","","","21","","4","","","","101.28","","","","-15","","NA"
"-72.77","45.37","GRANBY","7022802","2019-03-08 01:00","2019","03","08","01:00","-12.9","","-18.2","","64","","","","20","","5","","","","101.34","","","","-16","","NA"
"-72.77","45.37","GRANBY","7022802","2019-03-08 02:00","2019","03","08","02:00","-13.6","","-18.5","","67","","","","21","","3","","","","101.37","","","","-16","","NA"
"-72.77","45.37","GRANBY","7022802","2019-03-08 03:00","2019","03","08","03:00","-14.1","","-18.6","","69","","","","21","","4","","","","101.35","","","","-17","","NA"
"-72.77","45.37","GRANBY","7022802","2019-03-08 04:00","2019","03","08","04:00","-14.1","","-18.0","","72","","","","21","","5","","","","101.36","","","","-18","","NA"
"-72.77","45.37","GRANBY","7022802","2019-03-08 05:00","2019","03","08","05:00","-13.8","","-17.5","","74","","","","21","","5","","","","101.40","","","","-17","","NA"
"-72.77","45.37","GRANBY","7022802","2019-03-08 06:00","2019","03","08","06:00","-14.2","","-17.7","","75","","","","22","","4","","","","101.42","","","","-17","","NA"
"-72.77","45.37","GRANBY","7022802","2019-03-08 07:00","2019","03","08","07:00","-13.4","","-17.4","","72","","","","21","","5","","","","101.43","","","","-17","","NA"
"-72.77","45.37","GRANBY","7022802","2019-03-08 08:00","2019","03","08","08:00","-11.1","","-16.9","","62","","","","21","","8","","","","101.42","","","","-16","","NA"
"-72.77","45.37","GRANBY","7022802","2019-03-08 09:00","2019","03","08","09:00","-9.3","","-15.8","","59","","","","21","","10","","","","101.45","","","","-14","","NA"
"-72.77","45.37","GRANBY","7022802","2019-03-08 10:00","2019","03","08","10:00","-8.0","","-14.3","","60","","","","22","","14","","","","101.42","","","","-14","","NA"
"-72.77","45.37","GRANBY","7022802","2019-03-08 11:00","2019","03","08","11:00","-7.2","","-14.0","","58","","","","23","","18","","","","101.37","","","","-14","","NA"
"-72.77","45.37","GRANBY","7022802","2019-03-08 12:00","2019","03","08","12:00","-5.9","","-13.0","","57","","","","23","","15","","","","101.33","","","","-12","","NA"
"-72.77","45.37","GRANBY","7022802","2019-03-08 13:00","2019","03","08","13:00","-5.0","","-13.6","","51","","","","21","","13","","","","101.22","","","","-10","","NA"
"-72.77","45.37","GRANBY","7022802","2019-03-08 14:00","2019","03","08","14:00","-4.2","","-13.7","","48","","","","23","","12","","","","101.11","","","","-9","","NA"
"-72.77","45.37","GRANBY","7022802","2019-03-08 15:00","2019","03","08","15:00","-3.2","","-12.8","","47","","","","23","","14","","","","101.00","","","","-8","","NA"
"-72.77","45.37","GRANBY","7022802","2019-03-08 16:00","2019","03","08","16:00","-2.5","","-12.6","","46","","","","22","","9","","","","100.93","","","","-6","","NA"
"-72.77","45.37","GRANBY","7022802","2019-03-08 17:00","2019","03","08","17:00","-2.6","","-12.8","","45","","","","22","","8","","","","100.84","","","","-6","","NA"
"-72.77","45.37","GRANBY","7022802","2019-03-08 18:00","2019","03","08","18:00","-4.3","","-11.9","","55","","","","20","","5","","","","100.80","","","","-6","","NA"
"-72.77","45.37","GRANBY","7022802","2019-03-08 19:00","2019","03","08","19:00","-6.0","","-11.6","","65","","","","17","","4","","","","100.87","","","","-8","","NA"
"-72.77","45.37","GRANBY","7022802","2019-03-08 20:00","2019","03","08","20:00","-8.5","","-12.4","","74","","","","19","","1","","","","100.88","","","","-9","","NA"
"-72.77","45.37","GRANBY","7022802","2019-03-08 21:00","2019","03","08","21:00","-9.1","","-12.2","","78","","","","19","","3","","","","100.92","","","","-11","","NA"
"-72.77","45.37","GRANBY","7022802","2019-03-08 22:00","2019","03","08","22:00","-8.4","","-11.3","","80","","","","21","","3","","","","100.95","","","","-10","","NA"
"-72.77","45.37","GRANBY","7022802","2019-03-08 23:00","2019","03","08","23:00","-9.6","","-12.4","","80","","","","22","","3","","","","100.99","","","","-11","","NA"
"-72.77","45.37","GRANBY","7022802","2019-03-09 00:00","2019","03","09","00:00","-8.3","","-13.5","","66","","","","20","","5","","","","101.01","","","","-11","","NA"
"-72.77","45.37","GRANBY","7022802","2019-03-09 01:00","2019","03","09","01:00","-7.3","","-14.5","","56","","","","22","","5","","","","101.02","","","","-10","","NA"
"-72.77","45.37","GRANBY","7022802","2019-03-09 02:00","2019","03","09","02:00","-8.3","","-14.3","","62","","","","22","","4","","","","101.03","","","","-10","","NA"
"-72.77","45.37","GRANBY","7022802","2019-03-09 03:00","2019","03","09","03:00","-8.4","","-13.8","","65","","","","20","","3","","","","101.06","","","","-10","","NA"
"-72.77","45.37","GRANBY","7022802","2019-03-09 04:00","2019","03","09","04:00","-9.3","","-13.9","","69","","","","19","","5","","","","101.13","","","","-12","","NA"
"-72.77","45.37","GRANBY","7022802","2019-03-09 05:00","2019","03","09","05:00","-8.9","","-13.3","","71","","","","22","","6","","","","101.21","","","","-12","","NA"
"-72.77","45.37","GRANBY","7022802","2019-03-09 06:00","2019","03","09","06:00","-9.7","","-12.6","","79","","","","16","","6","","","","101.33","","","","-13","","NA"
"-72.77","45.37","GRANBY","7022802","2019-03-09 07:00","2019","03","09","07:00","-9.3","","-12.6","","77","","","","21","","4","","","","101.47","","","","-12","","NA"
"-72.77","45.37","GRANBY","7022802","2019-03-09 08:00","2019","03","09","08:00","-7.1","","-12.1","","68","","","","21","","5","","","","101.58","","","","-10","","NA"
"-72.77","45.37","GRANBY","7022802","2019-03-09 09:00","2019","03","09","09:00","-5.9","","-11.6","","64","","","","21","","3","","","","101.67","","","","-7","","NA"
"-72.77","45.37","GRANBY","7022802","2019-03-09 10:00","2019","03","09","10:00","-4.3","","-10.8","","60","","","","22","","4","","","","101.74","","","","-6","","NA"
"-72.77","45.37","GRANBY","7022802","2019-03-09 11:00","2019","03","09","11:00","-3.4","","-11.5","","53","","","","36","","6","","","","101.77","","","","-6","","NA"
"-72.77","45.37","GRANBY","7022802","2019-03-09 12:00","2019","03","09","12:00","-2.9","","-11.6","","51","","","","35","","5","","","","101.80","","","","-5","","NA"
"-72.77","45.37","GRANBY","7022802","2019-03-09 13:00","2019","03","09","13:00","-2.6","","-13.3","","44","","","","34","","5","","","","101.83","","","","-5","","NA"
"-72.77","45.37","GRANBY","7022802","2019-03-09 14:00","2019","03","09","14:00","-2.7","","-13.2","","44","","","","34","","6","","","","101.84","","","","-5","","NA"
"-72.77","45.37","GRANBY","7022802","2019-03-09 15:00","2019","03","09","15:00","-3.0","","-13.9","","43","","","","34","","8","","","","101.90","","","","-6","","NA"
"-72.77","45.37","GRANBY","7022802","2019-03-09 16:00","2019","03","09","16:00","-3.3","","-14.9","","40","","","","35","","5","","","","101.88","","","","-5","","NA"
"-72.77","45.37","GRANBY","7022802","2019-03-09 17:00","2019","03","09","17:00","-4.2","","-15.6","","41","","","","36","","4","","","","101.93","","","","-6","","NA"
"-72.77","45.37","GRANBY","7022802","2019-03-09 18:00","2019","03","09","18:00","-5.4","","-16.7","","41","","","","2","","4","","","","101.97","","","","-7","","NA"
"-72.77","45.37","GRANBY","7022802","2019-03-09 19:00","2019","03","09","19:00","-6.4","","-17.1","","43","","","","3","","5","","","","101.98","","","","-9","","NA"
"-72.77","45.37","GRANBY","7022802","2019-03-09 20:00","2019","03","09","20:00","-8.6","","-15.8","","56","","","","3","","5","","","","101.91","","","","-11","","NA"
"-72.77","45.37","GRANBY","7022802","2019-03-09 21:00","2019","03","09","21:00","-7.0","","-17.4","","43","","","","2","","4","","","","101.88","","","","-9","","NA"
"-72.77","45.37","GRANBY","7022802","2019-03-09 22:00","2019","03","09","22:00","-8.5","","-17.2","","50","","","","2","","6","","","","101.79","","","","-12","","NA"
"-72.77","45.37","GRANBY","7022802","2019-03-09 23:00","2019","03","09","23:00","-9.7","","-17.1","","55","","","","2","","3","","","","101.80","","","","-11","","NA"
"-72.77","45.37","GRANBY","7022802","2019-03-10 00:00","2019","03","10","00:00","-8.7","","-17.2","","50","","","","1","","4","","","","101.72","","","","-11","","NA"
"-72.77","45.37","GRANBY","7022802","2019-03-10 01:00","2019","03","10","01:00","-7.9","","-16.9","","49","","","","3","","5","","","","101.62","","","","-11","","NA"
"-72.77","45.37","GRANBY","7022802","2019-03-10 02:00","2019","03","10","02:00","-4.9","","-18.1","","35","","","","10","","8","","","","101.51","","","","-8","","NA"
"-72.77","45.37","GRANBY","7022802","2019-03-10 03:00","2019","03","10","03:00","-4.0","","-17.0","","36","","","","12","","14","","","","101.36","","","","-9","","NA"
"-72.77","45.37","GRANBY","7022802","2019-03-10 04:00","2019","03","10","04:00","-3.4","","-15.8","","38","","","","12","","10","","","","101.32","","","","-7","","NA"
"-72.77","45.37","GRANBY","7022802","2019-03-10 05:00","2019","03","10","05:00","-1.5","","-14.1","","38","","","","14","","16","","","","101.16","","","","-6","","NA"
"-72.77","45.37","GRANBY","7022802","2019-03-10 06:00","2019","03","10","06:00","-1.5","","-12.9","","41","","","","14","","14","","","","101.12","","","","-6","","NA"
"-72.77","45.37","GRANBY","7022802","2019-03-10 07:00","2019","03","10","07:00","-1.3","","-11.6","","45","","","","13","","17","","","","101.00","","","","-6","","NA"
"-72.77","45.37","GRANBY","7022802","2019-03-10 08:00","2019","03","10","08:00","-0.9","","-10.2","","49","","","","14","","18","","","","100.95","","","","-6","","NA"
"-72.77","45.37","GRANBY","7022802","2019-03-10 09:00","2019","03","10","09:00","-2.1","","-2.9","","94","","","","15","","11","","","","100.93","","","","-6","","NA"
"-72.77","45.37","GRANBY","7022802","2019-03-10 10:00","2019","03","10","10:00","-1.9","","-2.3","","97","","","","13","","14","","","","100.76","","","","-7","","NA"
"-72.77","45.37","GRANBY","7022802","2019-03-10 11:00","2019","03","10","11:00","-0.4","","-4.4","","75","","","","13","","14","","","","100.56","","","","-5","","NA"
"-72.77","45.37","GRANBY","7022802","2019-03-10 12:00","2019","03","10","12:00","-0.4","","-3.1","","82","","","","11","","10","","","","100.42","","","","-4","","NA"
"-72.77","45.37","GRANBY","7022802","2019-03-10 13:00","2019","03","10","13:00","-0.3","","-1.5","","92","","","","14","","9","","","","100.28","","","","-3","","NA"
"-72.77","45.37","GRANBY","7022802","2019-03-10 14:00","2019","03","10","14:00","1.9","","-3.3","","69","","1.0","","17","","20","","","","100.14","","","","","","NA"
"-72.77","45.37","GRANBY","7022802","2019-03-10 15:00","2019","03","10","15:00","1.8","","-2.6","","73","","1.2","","17","","18","","","","100.05","","","","","","NA"
"-72.77","45.37","GRANBY","7022802","2019-03-10 16:00","2019","03","10","16:00","1.8","","-1.5","","79","","0.8","","17","","16","","","","99.97","","","","","","NA"
"-72.77","45.37","GRANBY","7022802","2019-03-10 17:00","2019","03","10","17:00","2.0","","-1.0","","81","","1.2","","17","","16","","","","99.90","","","","","","NA"
"-72.77","45.37","GRANBY","7022802","2019-03-10 18:00","2019","03","10","18:00","2.5","","-1.0","","78","","1.4","","18","","16","","","","99.87","","","","","","NA"
"-72.77","45.37","GRANBY","7022802","2019-03-10 19:00","2019","03","10","19:00","1.6","","-0.1","","89","","1.0","","19","","8","","","","99.92","","","","","","NA"
"-72.77","45.37","GRANBY","7022802","2019-03-10 20:00","2019","03","10","20:00","1.3","","0.5","","95","","0.6","","17","","10","","","","99.85","","","","","","NA"
"-72.77","45.37","GRANBY","7022802","2019-03-10 21:00","2019","03","10","21:00","1.4","","0.7","","95","","0.4","","20","","6","","","","99.80","","","","","","NA"
"-72.77","45.37","GRANBY","7022802","2019-03-10 22:00","2019","03","10","22:00","1.1","","0.6","","97","","0.8","","22","","5","","","","99.79","","","","","","NA"
"-72.77","45.37","GRANBY","7022802","2019-03-10 23:00","2019","03","10","23:00","1.6","","0.9","","96","","0.8","","20","","7","","","","99.74","","","","","","NA"
"-72.77","45.37","GRANBY","7022802","2019-03-11 00:00","2019","03","11","00:00","2.1","","1.2","","93","","0.8","","21","","11","","","","99.71","","","","","","NA"
"-72.77","45.37","GRANBY","7022802","2019-03-11 01:00","2019","03","11","01:00","1.6","","1.0","","96","","0.2","","21","","12","","","","99.71","","","","","","NA"
"-72.77","45.37","GRANBY","7022802","2019-03-11 02:00","2019","03","11","02:00","1.8","","1.0","","95","","0.2","","22","","9","","","","99.68","","","","","","NA"
"-72.77","45.37","GRANBY","7022802","2019-03-11 03:00","2019","03","11","03:00","1.9","","-0.1","","86","","0.0","","22","","10","","","","99.66","","","","","","NA"
"-72.77","45.37","GRANBY","7022802","2019-03-11 04:00","2019","03","11","04:00","2.6","","-1.8","","72","","0.0","","23","","20","","","","99.63","","","","","","NA"
"-72.77","45.37","GRANBY","7022802","2019-03-11 05:00","2019","03","11","05:00","2.6","","-2.0","","72","","0.0","","23","","19","","","","99.63","","","","","","NA"
"-72.77","45.37","GRANBY","7022802","2019-03-11 06:00","2019","03","11","06:00","2.2","","-1.1","","79","","0.0","","23","","23","","","","99.61","","","","","","NA"
"-72.77","45.37","GRANBY","7022802","2019-03-11 07:00","2019","03","11","07:00","2.5","","-1.8","","74","","0.0","","23","","23","","","","99.60","","","","","","NA"
"-72.77","45.37","GRANBY","7022802","2019-03-11 08:00","2019","03","11","08:00","2.5","","-1.9","","73","","0.0","","23","","25","","","","99.64","","","","","","NA"
"-72.77","45.37","GRANBY","7022802","2019-03-11 09:00","2019","03","11","09:00","2.2","","-1.3","","78","","0.0","","24","","27","","","","99.69","","","","","","NA"
"-72.77","45.37","GRANBY","7022802","2019-03-11 10:00","2019","03","11","10:00","2.5","","-1.7","","74","","0.0","","24","","25","","","","99.67","","","","","","NA"
"-72.77","45.37","GRANBY","7022802","2019-03-11 11:00","2019","03","11","11:00","2.9","","-2.4","","68","","0.0","","24","","28","","","","99.66","","","","","","NA"
"-72.77","45.37","GRANBY","7022802","2019-03-11 12:00","2019","03","11","12:00","3.0","","-2.2","","69","","0.0","","24","","23","","","","99.70","","","","","","NA"
"-72.77","45.37","GRANBY","7022802","2019-03-11 13:00","2019","03","11","13:00","2.5","","-2.0","","72","","0.0","","25","","29","","","","99.69","","","","","","NA"
"-72.77","45.37","GRANBY","7022802","2019-03-11 14:00","2019","03","11","14:00","1.2","","-0.3","","90","","0.4","","25","","18","","","","99.76","","","","","","NA"
"-72.77","45.37","GRANBY","7022802","2019-03-11 15:00","2019","03","11","15:00","0.6","","-0.4","","93","","0.0","","26","","18","","","","99.80","","","","","","NA"
"-72.77","45.37","GRANBY","7022802","2019-03-11 16:00","2019","03","11","16:00","0.5","","-0.5","","93","","","","25","","18","","","","99.86","","","","","","NA"
"-72.77","45.37","GRANBY","7022802","2019-03-11 17:00","2019","03","11","17:00","0.1","","-1.9","","87","","","","26","","20","","","","99.93","","","","","","NA"
"-72.77","45.37","GRANBY","7022802","2019-03-11 18:00","2019","03","11","18:00","-0.9","","-1.7","","94","","","","27","","16","","","","100.05","","","","-6","","NA"
"-72.77","45.37","GRANBY","7022802","2019-03-11 19:00","2019","03","11","19:00","-1.5","","-2.2","","95","","","","28","","13","","","","100.16","","","","-6","","NA"
"-72.77","45.37","GRANBY","7022802","2019-03-11 20:00","2019","03","11","20:00","-2.0","","-2.6","","96","","","","28","","12","","","","100.19","","","","-6","","NA"
"-72.77","45.37","GRANBY","7022802","2019-03-11 21:00","2019","03","11","21:00","-2.3","","-2.8","","96","","","","27","","12","","","","100.23","","","","-7","","NA"
"-72.77","45.37","GRANBY","7022802","2019-03-11 22:00","2019","03","11","22:00","-2.5","","-3.3","","94","","","","28","","9","","","","100.29","","","","-6","","NA"
"-72.77","45.37","GRANBY","7022802","2019-03-11 23:00","2019","03","11","23:00","-2.9","","-3.7","","94","","","","27","","13","","","","100.32","","","","-8","","NA"
"-72.77","45.37","GRANBY","7022802","2019-03-12 00:00","2019","03","12","00:00","-3.3","","-4.8","","89","","","","27","","11","","","","100.35","","","","-8","","NA"
"-72.77","45.37","GRANBY","7022802","2019-03-12 01:00","2019","03","12","01:00","-3.9","","-6.6","","82","","","","28","","13","","","","100.45","","","","-9","","NA"
"-72.77","45.37","GRANBY","7022802","2019-03-12 02:00","2019","03","12","02:00","-3.9","","-6.7","","81","","","","27","","11","","","","100.50","","","","-8","","NA"
"-72.77","45.37","GRANBY","7022802","2019-03-12 03:00","2019","03","12","03:00","-4.4","","-7.7","","78","","","","28","","11","","","","100.54","","","","-9","","NA"
"-72.77","45.37","GRANBY","7022802","2019-03-12 04:00","2019","03","12","04:00","-5.3","","-6.4","","91","","","","24","","4","","","","100.58","","","","-7","","NA"
"-72.77","45.37","GRANBY","7022802","2019-03-12 05:00","2019","03","12","05:00","-4.5","","-7.4","","80","","","","27","","7","","","","100.65","","","","-8","","NA"
"-72.77","45.37","GRANBY","7022802","2019-03-12 06:00","2019","03","12","06:00","-5.2","","-10.0","","69","","","","28","","9","","","","100.74","","","","-9","","NA"
"-72.77","45.37","GRANBY","7022802","2019-03-12 07:00","2019","03","12","07:00","-5.3","","-9.6","","72","","","","26","","3","","","","100.83","","","","-7","","NA"
"-72.77","45.37","GRANBY","7022802","2019-03-12 08:00","2019","03","12","08:00","-4.7","","-10.4","","65","","","","32","","11","","","","100.94","","","","-9","","NA"
"-72.77","45.37","GRANBY","7022802","2019-03-12 09:00","2019","03","12","09:00","-4.6","","-10.2","","65","","","","27","","14","","","","101.02","","","","-10","","NA"
"-72.77","45.37","GRANBY","7022802","2019-03-12 10:00","2019","03","12","10:00","-4.4","","-10.4","","63","","","","27","","15","","","","101.05","","","","-10","","NA"
"-72.77","45.37","GRANBY","7022802","2019-03-12 11:00","2019","03","12","11:00","-3.8","","-10.7","","59","","","","27","","16","","","","101.06","","","","-9","","NA"
"-72.77","45.37","GRANBY","7022802","2019-03-12 12:00","2019","03","12","12:00","-3.5","","-9.9","","61","","","","26","","15","","","","101.09","","","","-9","","NA"
"-72.77","45.37","GRANBY","7022802","2019-03-12 13:00","2019","03","12","13:00","-3.0","","-9.3","","62","","","","26","","16","","","","101.11","","","","-8","","NA"
"-72.77","45.37","GRANBY","7022802","2019-03-12 14:00","2019","03","12","14:00","-3.3","","-9.9","","60","","","","26","","18","","","","101.12","","","","-9","","NA"
"-72.77","45.37","GRANBY","7022802","2019-03-12 15:00","2019","03","12","15:00","-3.7","","-9.9","","62","","","","24","","16","","","","101.15","","","","-9","","NA"
"-72.77","45.37","GRANBY","7022802","2019-03-12 16:00","2019","03","12","16:00","-3.5","","-10.2","","60","","","","26","","15","","","","101.21","","","","-9","","NA"
"-72.77","45.37","GRANBY","7022802","2019-03-12 17:00","2019","03","12","17:00","-3.3","","-10.3","","58","","","","24","","11","","","","101.24","","","","-8","","NA"
"-72.77","45.37","GRANBY","7022802","2019-03-12 18:00","2019","03","12","18:00","-4.5","","-10.1","","65","","","","20","","4","","","","101.30","","","","-6","","NA"
"-72.77","45.37","GRANBY","7022802","2019-03-12 19:00","2019","03","12","19:00","-5.6","","-10.0","","71","","","","21","","4","","","","101.31","","","","-7","","NA"
"-72.77","45.37","GRANBY","7022802","2019-03-12 20:00","2019","03","12","20:00","-6.4","","-10.3","","74","","","","20","","3","","","","101.34","","","","-8","","NA"
"-72.77","45.37","GRANBY","7022802","2019-03-12 21:00","2019","03","12","21:00","-6.6","","-10.7","","72","","","","18","","5","","","","101.36","","","","-9","","NA"
"-72.77","45.37","GRANBY","7022802","2019-03-12 22:00","2019","03","12","22:00","-8.7","","-11.7","","79","","","","22","","2","","","","101.35","","","","-10","","NA"
"-72.77","45.37","GRANBY","7022802","2019-03-12 23:00","2019","03","12","23:00","-9.4","","-11.9","","82","","","","19","","2","","","","101.35","","","","-11","","NA"
"-72.77","45.37","GRANBY","7022802","2019-03-13 00:00","2019","03","13","00:00","-9.6","","-12.2","","81","","","","21","","3","","","","101.38","","","","-11","","NA"
"-72.77","45.37","GRANBY","7022802","2019-03-13 01:00","2019","03","13","01:00","-8.2","","-11.4","","77","","","","20","","3","","","","101.43","","","","-10","","NA"
"-72.77","45.37","GRANBY","7022802","2019-03-13 02:00","2019","03","13","02:00","-6.5","","-11.4","","68","","","","19","","4","","","","101.44","","","","-8","","NA"
"-72.77","45.37","GRANBY","7022802","2019-03-13 03:00","2019","03","13","03:00","-6.1","","-10.8","","69","","","","21","","4","","","","101.39","","","","-8","","NA"
"-72.77","45.37","GRANBY","7022802","2019-03-13 04:00","2019","03","13","04:00","-3.4","","-8.9","","66","","","","20","","6","","","","101.36","","","","-6","","NA"
"-72.77","45.37","GRANBY","7022802","2019-03-13 05:00","2019","03","13","05:00","-4.0","","-9.8","","64","","","","19","","6","","","","101.40","","","","-7","","NA"
"-72.77","45.37","GRANBY","7022802","2019-03-13 06:00","2019","03","13","06:00","-5.1","","-10.1","","68","","","","21","","5","","","","101.40","","","","-7","","NA"
"-72.77","45.37","GRANBY","7022802","2019-03-13 07:00","2019","03","13","07:00","-4.3","","-9.2","","69","","","","20","","5","","","","101.45","","","","-6","","NA"
"-72.77","45.37","GRANBY","7022802","2019-03-13 08:00","2019","03","13","08:00","-3.0","","-8.9","","64","","","","21","","6","","","","101.55","","","","-5","","NA"
"-72.77","45.37","GRANBY","7022802","2019-03-13 09:00","2019","03","13","09:00","-1.1","","-8.0","","59","","","","22","","8","","","","101.56","","","","-4","","NA"
"-72.77","45.37","GRANBY","7022802","2019-03-13 10:00","2019","03","13","10:00","0.4","","-7.4","","56","","","","21","","7","","","","101.51","","","","","","NA"
"-72.77","45.37","GRANBY","7022802","2019-03-13 11:00","2019","03","13","11:00","1.1","","-6.9","","55","","0.0","","21","","6","","","","101.43","","","","","","NA"
"-72.77","45.37","GRANBY","7022802","2019-03-13 12:00","2019","03","13","12:00","2.2","","-7.4","","49","","0.0","","22","","7","","","","101.42","","","","","","NA"
"-72.77","45.37","GRANBY","7022802","2019-03-13 13:00","2019","03","13","13:00","2.1","","-6.7","","52","","0.2","","24","","8","","","","101.32","","","","","","NA"
"-72.77","45.37","GRANBY","7022802","2019-03-13 14:00","2019","03","13","14:00","2.3","","-6.7","","52","","0.0","","25","","5","","","","101.25","","","","","","NA"
"-72.77","45.37","GRANBY","7022802","2019-03-13 15:00","2019","03","13","15:00","2.1","","-6.1","","54","","0.0","","26","","6","","","","101.23","","","","","","NA"
"-72.77","45.37","GRANBY","7022802","2019-03-13 16:00","2019","03","13","16:00","2.4","","-5.7","","55","","0.0","","27","","4","","","","101.18","","","","","","NA"
"-72.77","45.37","GRANBY","7022802","2019-03-13 17:00","2019","03","13","17:00","1.8","","-5.0","","61","","0.0","","24","","7","","","","101.17","","","","","","NA"
"-72.77","45.37","GRANBY","7022802","2019-03-13 18:00","2019","03","13","18:00","1.8","","-4.8","","62","","0.0","","24","","10","","","","101.27","","","","","","NA"
"-72.77","45.37","GRANBY","7022802","2019-03-13 19:00","2019","03","13","19:00","-0.6","","-1.0","","97","","","","17","","3","","","","101.35","","","","-2","","NA"
"-72.77","45.37","GRANBY","7022802","2019-03-13 20:00","2019","03","13","20:00","-0.4","","-0.6","","98","","","","18","","3","","","","101.42","","","","-1","","NA"
"-72.77","45.37","GRANBY","7022802","2019-03-13 21:00","2019","03","13","21:00","-0.3","","-0.6","","98","","","","18","","4","","","","101.39","","","","-2","","NA"
"-72.77","45.37","GRANBY","7022802","2019-03-13 22:00","2019","03","13","22:00","-0.3","","-0.6","","98","","","","17","","4","","","","101.38","","","","-2","","NA"
"-72.77","45.37","GRANBY","7022802","2019-03-13 23:00","2019","03","13","23:00","-0.4","","-0.7","","98","","","","4","","4","","","","101.36","","","","-2","","NA"
"-72.77","45.37","GRANBY","7022802","2019-03-14 00:00","2019","03","14","00:00","-0.4","","-0.7","","98","","","","7","","1","","","","101.32","","","","-1","","NA"
"-72.77","45.37","GRANBY","7022802","2019-03-14 01:00","2019","03","14","01:00","-0.5","","-0.7","","99","","","","2","","2","","","","101.29","","","","-1","","NA"
"-72.77","45.37","GRANBY","7022802","2019-03-14 02:00","2019","03","14","02:00","0.4","","0.0","","97","","","","10","","3","","","","101.24","","","","","","NA"
"-72.77","45.37","GRANBY","7022802","2019-03-14 03:00","2019","03","14","03:00","-0.2","","-0.8","","96","","","","10","","1","","","","101.20","","","","-1","","NA"
"-72.77","45.37","GRANBY","7022802","2019-03-14 04:00","2019","03","14","04:00","-0.1","","-1.2","","92","","","","10","","3","","","","101.15","","","","-1","","NA"
"-72.77","45.37","GRANBY","7022802","2019-03-14 05:00","2019","03","14","05:00","-0.6","","-1.1","","97","","","","3","","3","","","","101.22","","","","-2","","NA"
"-72.77","45.37","GRANBY","7022802","2019-03-14 06:00","2019","03","14","06:00","-0.7","","-1.3","","95","","","","4","","3","","","","101.24","","","","-2","","NA"
"-72.77","45.37","GRANBY","7022802","2019-03-14 07:00","2019","03","14","07:00","0.7","","-0.5","","92","","0.0","","6","","3","","","","101.27","","","","","","NA"
"-72.77","45.37","GRANBY","7022802","2019-03-14 08:00","2019","03","14","08:00","1.6","","-0.3","","87","","0.4","","36","","3","","","","101.18","","","","","","NA"
"-72.77","45.37","GRANBY","7022802","2019-03-14 09:00","2019","03","14","09:00","3.2","","-0.2","","79","","2.0","","10","","8","","","","101.09","","","","","","NA"
"-72.77","45.37","GRANBY","7022802","2019-03-14 10:00","2019","03","14","10:00","4.8","","0.0","","71","","0.0","","10","","5","","","","100.98","","","","","","NA"
"-72.77","45.37","GRANBY","7022802","2019-03-14 11:00","2019","03","14","11:00","6.7","","0.3","","64","","0.0","","8","","6","","","","100.97","","","","","","NA"
"-72.77","45.37","GRANBY","7022802","2019-03-14 12:00","2019","03","14","12:00","8.5","","-0.6","","53","","0.0","","11","","8","","","","100.83","","","","","","NA"
"-72.77","45.37","GRANBY","7022802","2019-03-14 13:00","2019","03","14","13:00","9.8","","-0.1","","50","","0.0","","13","","3","","","","100.75","","","","","","NA"
"-72.77","45.37","GRANBY","7022802","2019-03-14 14:00","2019","03","14","14:00","10.6","","-0.1","","48","","0.0","","11","","5","","","","100.60","","","","","","NA"
"-72.77","45.37","GRANBY","7022802","2019-03-14 15:00","2019","03","14","15:00","10.9","","-0.2","","46","","0.0","","12","","6","","","","100.52","","","","","","NA"
"-72.77","45.37","GRANBY","7022802","2019-03-14 16:00","2019","03","14","16:00","10.7","","-0.5","","46","","0.0","","12","","6","","","","100.44","","","","","","NA"
"-72.77","45.37","GRANBY","7022802","2019-03-14 17:00","2019","03","14","17:00","9.4","","-0.8","","49","","0.0","","12","","10","","","","100.28","","","","","","NA"
"-72.77","45.37","GRANBY","7022802","2019-03-14 18:00","2019","03","14","18:00","8.5","","-0.5","","53","","0.0","","12","","9","","","","100.16","","","","","","NA"
"-72.77","45.37","GRANBY","7022802","2019-03-14 19:00","2019","03","14","19:00","7.7","","-0.1","","58","","0.0","","13","","6","","","","100.10","","","","","","NA"
"-72.77","45.37","GRANBY","7022802","2019-03-14 20:00","2019","03","14","20:00","7.2","","0.2","","61","","0.0","","15","","5","","","","100.03","","","","","","NA"
"-72.77","45.37","GRANBY","7022802","2019-03-14 21:00","2019","03","14","21:00","8.6","","0.1","","55","","0.0","","15","","11","","","","99.98","","","","","","NA"
"-72.77","45.37","GRANBY","7022802","2019-03-14 22:00","2019","03","14","22:00","9.0","","-1.0","","49","","0.0","","17","","14","","","","99.92","","","","","","NA"
"-72.77","45.37","GRANBY","7022802","2019-03-14 23:00","2019","03","14","23:00","8.7","","-0.6","","52","","0.0","","17","","11","","","","99.84","","","","","","NA"
"-72.77","45.37","GRANBY","7022802","2019-03-15 00:00","2019","03","15","00:00","9.0","","0.7","","56","","0.0","","16","","13","","","","99.71","","","","","","NA"
"-72.77","45.37","GRANBY","7022802","2019-03-15 01:00","2019","03","15","01:00","8.7","","1.8","","62","","0.0","","17","","9","","","","99.58","","","","","","NA"
"-72.77","45.37","GRANBY","7022802","2019-03-15 02:00","2019","03","15","02:00","8.5","","3.7","","72","","0.0","","17","","6","","","","99.54","","","","","","NA"
"-72.77","45.37","GRANBY","7022802","2019-03-15 03:00","2019","03","15","03:00","8.5","","4.3","","75","","0.0","","16","","8","","","","99.38","","","","","","NA"
"-72.77","45.37","GRANBY","7022802","2019-03-15 04:00","2019","03","15","04:00","8.6","","6.2","","85","","0.2","","17","","10","","","","99.21","","","","","","NA"
"-72.77","45.37","GRANBY","7022802","2019-03-15 05:00","2019","03","15","05:00","9.0","","7.0","","87","","0.4","","17","","11","","","","99.25","","","","","","NA"
"-72.77","45.37","GRANBY","7022802","2019-03-15 06:00","2019","03","15","06:00","8.8","","7.4","","91","","0.8","","18","","13","","","","99.18","","","","","","NA"
"-72.77","45.37","GRANBY","7022802","2019-03-15 07:00","2019","03","15","07:00","9.0","","7.0","","87","","0.0","","18","","10","","","","99.13","","","","","","NA"
"-72.77","45.37","GRANBY","7022802","2019-03-15 08:00","2019","03","15","08:00","9.0","","7.3","","89","","0.2","","17","","6","","","","99.11","","","","","","NA"
"-72.77","45.37","GRANBY","7022802","2019-03-15 09:00","2019","03","15","09:00","9.3","","7.8","","91","","0.8","","20","","9","","","","99.11","","","","","","NA"
"-72.77","45.37","GRANBY","7022802","2019-03-15 10:00","2019","03","15","10:00","10.1","","7.4","","83","","0.0","","21","","10","","","","99.14","","","","","","NA"
"-72.77","45.37","GRANBY","7022802","2019-03-15 11:00","2019","03","15","11:00","8.6","","6.5","","87","","0.0","","24","","12","","","","99.20","","","","","","NA"
"-72.77","45.37","GRANBY","7022802","2019-03-15 12:00","2019","03","15","12:00","8.7","","5.4","","80","","0.0","","23","","13","","","","99.26","","","","","","NA"
"-72.77","45.37","GRANBY","7022802","2019-03-15 13:00","2019","03","15","13:00","7.7","","1.7","","66","","0.0","","24","","9","","","","99.28","","","","","","NA"
"-72.77","45.37","GRANBY","7022802","2019-03-15 14:00","2019","03","15","14:00"
"-72.77","45.37","GRANBY","7022802","2019-03-15 15:00","2019","03","15","15:00","7.3","","1.8","","68","","0.0","","24","","10","","","","99.32","","","","","","NA"
"-72.77","45.37","GRANBY","7022802","2019-03-15 16:00","2019","03","15","16:00","7.6","","1.4","","65","","0.0","","25","","18","","","","99.34","","","","","","NA"
"-72.77","45.37","GRANBY","7022802","2019-03-15 17:00","2019","03","15","17:00","6.9","","1.6","","69","","0.0","","23","","12","","","","99.41","","","","","","NA"
"-72.77","45.37","GRANBY","7022802","2019-03-15 18:00","2019","03","15","18:00","7.0","","1.9","","70","","0.0","","23","","14","","","","99.40","","","","","","NA"
"-72.77","45.37","GRANBY","7022802","2019-03-15 19:00","2019","03","15","19:00","6.5","","2.3","","74","","0.0","","23","","12","","","","99.41","","","","","","NA"
"-72.77","45.37","GRANBY","7022802","2019-03-15 20:00","2019","03","15","20:00","6.5","","2.1","","74","","0.0","","22","","10","","","","99.44","","","","","","NA"
"-72.77","45.37","GRANBY","7022802","2019-03-15 21:00","2019","03","15","21:00","5.6","","1.8","","77","","0.0","","21","","10","","","","99.41","","","","","","NA"
"-72.77","45.37","GRANBY","7022802","2019-03-15 22:00","2019","03","15","22:00","5.7","","1.8","","76","","0.0","","22","","12","","","","99.40","","","","","","NA"
"-72.77","45.37","GRANBY","7022802","2019-03-15 23:00","2019","03","15","23:00","5.1","","1.5","","77","","0.0","","22","","8","","","","99.31","","","","","","NA"
"-72.77","45.37","GRANBY","7022802","2019-03-16 00:00","2019","03","16","00:00","5.0","","1.3","","77","","0.0","","23","","16","","","","99.22","","","","","","NA"
"-72.77","45.37","GRANBY","7022802","2019-03-16 01:00","2019","03","16","01:00","4.0","","1.3","","83","","0.0","","23","","12","","","","99.22","","","","","","NA"
"-72.77","45.37","GRANBY","7022802","2019-03-16 02:00","2019","03","16","02:00","3.7","","0.8","","81","","0.0","","23","","14","","","","99.24","","","","","","NA"
"-72.77","45.37","GRANBY","7022802","2019-03-16 03:00","2019","03","16","03:00","2.9","","1.1","","88","","0.0","","23","","18","","","","99.24","","","","","","NA"
"-72.77","45.37","GRANBY","7022802","2019-03-16 04:00","2019","03","16","04:00","2.8","","0.4","","84","","0.0","","22","","14","","","","99.21","","","","","","NA"
"-72.77","45.37","GRANBY","7022802","2019-03-16 05:00","2019","03","16","05:00","2.4","","-1.9","","73","","0.0","","24","","26","","","","99.30","","","","","","NA"
"-72.77","45.37","GRANBY","7022802","2019-03-16 06:00","2019","03","16","06:00","1.7","","-2.6","","73","","0.0","","25","","23","","","","99.36","","","","","","NA"
"-72.77","45.37","GRANBY","7022802","2019-03-16 07:00","2019","03","16","07:00","1.1","","-2.9","","75","","0.0","","24","","22","","","","99.45","","","","","","NA"
"-72.77","45.37","GRANBY","7022802","2019-03-16 08:00","2019","03","16","08:00","0.6","","-2.7","","79","","0.0","","24","","22","","","","99.53","","","","","","NA"
"-72.77","45.37","GRANBY","7022802","2019-03-16 09:00","2019","03","16","09:00","0.7","","-4.0","","71","","0.0","","24","","23","","","","99.59","","","","","","NA"
"-72.77","45.37","GRANBY","7022802","2019-03-16 10:00","2019","03","16","10:00","-1.2","","-3.6","","84","","","","26","","24","","","","99.74","","","","-7","","NA"
"-72.77","45.37","GRANBY","7022802","2019-03-16 11:00","2019","03","16","11:00","-1.7","","-7.2","","66","","","","25","","26","","","","99.82","","","","-8","","NA"
"-72.77","45.37","GRANBY","7022802","2019-03-16 12:00","2019","03","16","12:00","-1.2","","-8.1","","59","","","","25","","23","","","","99.90","","","","-7","","NA"
"-72.77","45.37","GRANBY","7022802","2019-03-16 13:00","2019","03","16","13:00","-1.9","","-9.1","","58","","","","25","","23","","","","99.98","","","","-8","","NA"
"-72.77","45.37","GRANBY","7022802","2019-03-16 14:00","2019","03","16","14:00","-1.8","","-9.4","","56","","","","24","","25","","","","100.03","","","","-8","","NA"
"-72.77","45.37","GRANBY","7022802","2019-03-16 15:00","2019","03","16","15:00","-1.7","","-8.4","","60","","","","24","","21","","","","100.11","","","","-8","","NA"
"-72.77","45.37","GRANBY","7022802","2019-03-16 16:00","2019","03","16","16:00","-1.8","","-8.3","","61","","","","25","","18","","","","100.18","","","","-7","","NA"
"-72.77","45.37","GRANBY","7022802","2019-03-16 17:00","2019","03","16","17:00","-1.5","","-8.8","","57","","","","27","","18","","","","100.22","","","","-7","","NA"
"-72.77","45.37","GRANBY","7022802","2019-03-16 18:00","2019","03","16","18:00","-2.0","","-9.5","","56","","","","26","","18","","","","100.25","","","","-7","","NA"
"-72.77","45.37","GRANBY","7022802","2019-03-16 19:00","2019","03","16","19:00","-2.0","","-9.2","","58","","","","27","","11","","","","100.29","","","","-6","","NA"
"-72.77","45.37","GRANBY","7022802","2019-03-16 20:00","2019","03","16","20:00","-2.0","","-8.8","","60","","","","25","","5","","","","100.34","","","","-4","","NA"
"-72.77","45.37","GRANBY","7022802","2019-03-16 21:00","2019","03","16","21:00","-1.9","","-9.9","","55","","","","28","","16","","","","100.35","","","","-7","","NA"
"-72.77","45.37","GRANBY","7022802","2019-03-16 22:00","2019","03","16","22:00","-2.4","","-9.7","","58","","","","29","","13","","","","100.37","","","","-7","","NA"
"-72.77","45.37","GRANBY","7022802","2019-03-16 23:00","2019","03","16","23:00","-2.8","","-9.5","","60","","","","27","","10","","","","100.38","","","","-7","","NA"
"-72.77","45.37","GRANBY","7022802","2019-03-17 00:00","2019","03","17","00:00","-3.5","","-10.8","","57","","","","28","","16","","","","100.41","","","","-9","","NA"
"-72.77","45.37","GRANBY","7022802","2019-03-17 01:00","2019","03","17","01:00","-4.3","","-12.3","","53","","","","29","","14","","","","100.50","","","","-9","","NA"
"-72.77","45.37","GRANBY","7022802","2019-03-17 02:00","2019","03","17","02:00","-4.7","","-13.0","","52","","","","30","","12","","","","100.54","","","","-9","","NA"
"-72.77","45.37","GRANBY","7022802","2019-03-17 03:00","2019","03","17","03:00","-5.2","","-13.9","","50","","","","28","","15","","","","100.58","","","","-11","","NA"
"-72.77","45.37","GRANBY","7022802","2019-03-17 04:00","2019","03","17","04:00","-7.3","","-11.1","","74","","","","32","","12","","","","100.66","","","","-13","","NA"
"-72.77","45.37","GRANBY","7022802","2019-03-17 05:00","2019","03","17","05:00","-6.9","","-12.1","","67","","","","28","","8","","","","100.72","","","","-11","","NA"
"-72.77","45.37","GRANBY","7022802","2019-03-17 06:00","2019","03","17","06:00","-6.6","","-12.6","","63","","","","26","","7","","","","100.79","","","","-10","","NA"
"-72.77","45.37","GRANBY","7022802","2019-03-17 07:00","2019","03","17","07:00","-7.3","","-12.5","","66","","","","33","","7","","","","100.86","","","","-11","","NA"
"-72.77","45.37","GRANBY","7022802","2019-03-17 08:00","2019","03","17","08:00","-6.7","","-14.3","","55","","","","28","","12","","","","100.93","","","","-12","","NA"
"-72.77","45.37","GRANBY","7022802","2019-03-17 09:00","2019","03","17","09:00","-6.0","","-14.5","","51","","","","28","","14","","","","100.95","","","","-12","","NA"
"-72.77","45.37","GRANBY","7022802","2019-03-17 10:00","2019","03","17","10:00","-6.0","","-14.2","","52","","","","27","","13","","","","100.95","","","","-11","","NA"
"-72.77","45.37","GRANBY","7022802","2019-03-17 11:00","2019","03","17","11:00","-5.5","","-12.6","","58","","","","25","","16","","","","100.92","","","","-11","","NA"
"-72.77","45.37","GRANBY","7022802","2019-03-17 12:00","2019","03","17","12:00","-5.5","","-13.1","","55","","","","25","","23","","","","100.92","","","","-13","","NA"
"-72.77","45.37","GRANBY","7022802","2019-03-17 13:00","2019","03","17","13:00","-5.0","","-12.4","","56","","","","26","","20","","","","100.89","","","","-12","","NA"
"-72.77","45.37","GRANBY","7022802","2019-03-17 14:00","2019","03","17","14:00","-4.8","","-12.8","","53","","","","25","","24","","","","100.87","","","","-12","","NA"
"-72.77","45.37","GRANBY","7022802","2019-03-17 15:00","2019","03","17","15:00","-4.7","","-12.7","","54","","","","26","","19","","","","100.88","","","","-11","","NA"
"-72.77","45.37","GRANBY","7022802","2019-03-17 16:00","2019","03","17","16:00","-4.5","","-13.1","","51","","","","24","","19","","","","100.85","","","","-11","","NA"
"-72.77","45.37","GRANBY","7022802","2019-03-17 17:00","2019","03","17","17:00","-4.2","","-12.7","","52","","","","24","","12","","","","100.85","","","","-9","","NA"
"-72.77","45.37","GRANBY","7022802","2019-03-17 18:00","2019","03","17","18:00","-4.2","","-12.9","","50","","","","24","","11","","","","100.87","","","","-9","","NA"
"-72.77","45.37","GRANBY","7022802","2019-03-17 19:00","2019","03","17","19:00","-5.2","","-12.6","","56","","","","22","","5","","","","100.90","","","","-7","","NA"
"-72.77","45.37","GRANBY","7022802","2019-03-17 20:00","2019","03","17","20:00","-6.1","","-11.9","","64","","","","20","","3","","","","100.92","","","","-8","","NA"
"-72.77","45.37","GRANBY","7022802","2019-03-17 21:00","2019","03","17","21:00","-7.1","","-11.3","","72","","","","21","","2","","","","100.93","","","","-8","","NA"
"-72.77","45.37","GRANBY","7022802","2019-03-17 22:00","2019","03","17","22:00","-6.6","","-11.5","","68","","","","24","","5","","","","100.95","","","","-9","","NA"
"-72.77","45.37","GRANBY","7022802","2019-03-17 23:00","2019","03","17","23:00","-8.6","","-12.0","","77","","","","26","","2","","","","100.97","","","","-10","","NA"
"-72.77","45.37","GRANBY","7022802","2019-03-18 00:00","2019","03","18","00:00","-9.4","","-11.7","","83","","","","29","","3","","","","100.99","","","","-11","","NA"
"-72.77","45.37","GRANBY","7022802","2019-03-18 01:00","2019","03","18","01:00","-10.4","","-12.0","","88","","","","22","","2","","","","101.01","","","","-12","","NA"
"-72.77","45.37","GRANBY","7022802","2019-03-18 02:00","2019","03","18","02:00","-11.0","","-11.9","","93","","","","19","","2","","","","101.03","","","","-12","","NA"
"-72.77","45.37","GRANBY","7022802","2019-03-18 03:00","2019","03","18","03:00","-11.2","","-12.2","","93","","","","20","","1","","","","101.02","","","","-12","","NA"
"-72.77","45.37","GRANBY","7022802","2019-03-18 04:00","2019","03","18","04:00","-11.5","","-12.5","","92","","","","18","","3","","","","101.05","","","","-13","","NA"
"-72.77","45.37","GRANBY","7022802","2019-03-18 05:00","2019","03","18","05:00","-11.8","","-13.0","","90","","","","19","","2","","","","101.10","","","","-13","","NA"
"-72.77","45.37","GRANBY","7022802","2019-03-18 06:00","2019","03","18","06:00","-11.2","","-12.2","","92","","","","19","","4","","","","101.14","","","","-14","","NA"
"-72.77","45.37","GRANBY","7022802","2019-03-18 07:00","2019","03","18","07:00","-8.8","","-10.7","","86","","","","20","","3","","","","101.18","","","","-10","","NA"
"-72.77","45.37","GRANBY","7022802","2019-03-18 08:00","2019","03","18","08:00","-6.3","","-11.7","","65","","","","25","","10","","","","101.25","","","","-11","","NA"
"-72.77","45.37","GRANBY","7022802","2019-03-18 09:00","2019","03","18","09:00","-5.5","","-13.2","","55","","","","25","","11","","","","101.29","","","","-10","","NA"
"-72.77","45.37","GRANBY","7022802","2019-03-18 10:00","2019","03","18","10:00","-4.5","","-13.6","","49","","","","27","","14","","","","101.30","","","","-10","","NA"
"-72.77","45.37","GRANBY","7022802","2019-03-18 11:00","2019","03","18","11:00","-4.0","","-14.3","","45","","","","29","","11","","","","101.28","","","","-8","","NA"
"-72.77","45.37","GRANBY","7022802","2019-03-18 12:00","2019","03","18","12:00","-3.0","","-13.7","","43","","","","26","","16","","","","101.30","","","","-8","","NA"
"-72.77","45.37","GRANBY","7022802","2019-03-18 13:00","2019","03","18","13:00","-2.9","","-14.4","","41","","","","25","","18","","","","101.29","","","","-9","","NA"
"-72.77","45.37","GRANBY","7022802","2019-03-18 14:00","2019","03","18","14:00","-2.4","","-12.5","","46","","","","27","","18","","","","101.25","","","","-8","","NA"
"-72.77","45.37","GRANBY","7022802","2019-03-18 15:00","2019","03","18","15:00","-2.7","","-13.5","","43","","","","25","","21","","","","101.25","","","","-9","","NA"
"-72.77","45.37","GRANBY","7022802","2019-03-18 16:00","2019","03","18","16:00","-2.4","","-13.1","","44","","","","25","","20","","","","101.25","","","","-8","","NA"
"-72.77","45.37","GRANBY","7022802","2019-03-18 17:00","2019","03","18","17:00","-2.3","","-13.3","","43","","","","26","","16","","","","101.28","","","","-7","","NA"
"-72.77","45.37","GRANBY","7022802","2019-03-18 18:00","2019","03","18","18:00","-3.1","","-13.5","","45","","","","26","","13","","","","101.33","","","","-8","","NA"
"-72.77","45.37","GRANBY","7022802","2019-03-18 19:00","2019","03","18","19:00","-3.8","","-12.5","","51","","","","25","","8","","","","101.37","","","","-7","","NA"
"-72.77","45.37","GRANBY","7022802","2019-03-18 20:00","2019","03","18","20:00","-5.5","","-12.2","","59","","","","","","0","","","","101.42","","","","","","NA"
"-72.77","45.37","GRANBY","7022802","2019-03-18 21:00","2019","03","18","21:00","-7.3","","-11.5","","72","","","","0","","1","","","","101.47","","","","-8","","NA"
"-72.77","45.37","GRANBY","7022802","2019-03-18 22:00","2019","03","18","22:00","-8.8","","-11.4","","81","","","","","","0","","","","101.49","","","","","","NA"
"-72.77","45.37","GRANBY","7022802","2019-03-18 23:00","2019","03","18","23:00","-10.2","","-11.9","","87","","","","","","0","","","","101.50","","","","","","NA"
"-72.77","45.37","GRANBY","7022802","2019-03-19 00:00","2019","03","19","00:00","-10.8","","-12.5","","88","","","","0","","1","","","","101.52","","","","-11","","NA"
"-72.77","45.37","GRANBY","7022802","2019-03-19 01:00","2019","03","19","01:00","-11.6","","-12.6","","92","","","","","","0","","","","101.56","","","","","","NA"
"-72.77","45.37","GRANBY","7022802","2019-03-19 02:00","2019","03","19","02:00","-12.7","","-13.9","","91","","","","","","0","","","","101.60","","","","","","NA"
"-72.77","45.37","GRANBY","7022802","2019-03-19 03:00","2019","03","19","03:00","-13.1","","-14.3","","91","","","","","","0","","","","101.58","","","","","","NA"
"-72.77","45.37","GRANBY","7022802","2019-03-19 04:00","2019","03","19","04:00","-13.6","","-14.9","","90","","","","","","0","","","","101.63","","","","","","NA"
"-72.77","45.37","GRANBY","7022802","2019-03-19 05:00","2019","03","19","05:00","-14.4","","-15.7","","90","","","","","","0","","","","101.67","","","","","","NA"
"-72.77","45.37","GRANBY","7022802","2019-03-19 06:00","2019","03","19","06:00","-14.3","","-15.6","","90","","","","","","0","","","","101.73","","","","","","NA"
"-72.77","45.37","GRANBY","7022802","2019-03-19 07:00","2019","03","19","07:00","-11.8","","-12.8","","93","","","","0","","1","","","","101.80","","","","-12","","NA"
"-72.77","45.37","GRANBY","7022802","2019-03-19 08:00","2019","03","19","08:00","-6.6","","-11.5","","68","","","","6","","1","","","","101.83","","","","-7","","NA"
"-72.77","45.37","GRANBY","7022802","2019-03-19 09:00","2019","03","19","09:00","-4.5","","-14.7","","45","","","","7","","2","","","","101.85","","","","-5","","NA"
"-72.77","45.37","GRANBY","7022802","2019-03-19 10:00","2019","03","19","10:00","-4.1","","-16.1","","39","","","","24","","5","","","","101.88","","","","-6","","NA"
"-72.77","45.37","GRANBY","7022802","2019-03-19 11:00","2019","03","19","11:00","-3.5","","-15.7","","38","","","","26","","9","","","","101.90","","","","-7","","NA"
"-72.77","45.37","GRANBY","7022802","2019-03-19 12:00","2019","03","19","12:00","-3.0","","-18.7","","29","","","","24","","9","","","","101.91","","","","-7","","NA"
"-72.77","45.37","GRANBY","7022802","2019-03-19 13:00","2019","03","19","13:00","-2.4","","-17.1","","31","","","","28","","9","","","","101.86","","","","-6","","NA"
"-72.77","45.37","GRANBY","7022802","2019-03-19 14:00","2019","03","19","14:00","-1.6","","-15.5","","34","","","","24","","6","","","","101.81","","","","-4","","NA"
"-72.77","45.37","GRANBY","7022802","2019-03-19 15:00","2019","03","19","15:00","-1.5","","-14.5","","36","","","","23","","9","","","","101.77","","","","-5","","NA"
"-72.77","45.37","GRANBY","7022802","2019-03-19 16:00","2019","03","19","16:00","-0.9","","-15.0","","33","","","","26","","9","","","","101.74","","","","-4","","NA"
"-72.77","45.37","GRANBY","7022802","2019-03-19 17:00","2019","03","19","17:00","-0.7","","-14.2","","35","","","","25","","6","","","","101.72","","","","-3","","NA"
"-72.77","45.37","GRANBY","7022802","2019-03-19 18:00","2019","03","19","18:00","-2.2","","-14.6","","38","","","","20","","1","","","","101.71","","","","-3","","NA"
"-72.77","45.37","GRANBY","7022802","2019-03-19 19:00","2019","03","19","19:00","-3.9","","-11.8","","54","","","","18","","2","","","","101.72","","","","-5","","NA"
"-72.77","45.37","GRANBY","7022802","2019-03-19 20:00","2019","03","19","20:00","-5.2","","-10.0","","69","","","","18","","2","","","","101.72","","","","-6","","NA"
"-72.77","45.37","GRANBY","7022802","2019-03-19 21:00","2019","03","19","21:00","-4.2","","-13.5","","48","","","","18","","3","","","","101.69","","","","-5","","NA"
"-72.77","45.37","GRANBY","7022802","2019-03-19 22:00","2019","03","19","22:00","-5.3","","-12.0","","59","","","","20","","3","","","","101.69","","","","-7","","NA"
"-72.77","45.37","GRANBY","7022802","2019-03-19 23:00","2019","03","19","23:00","-6.4","","-11.7","","66","","","","","","0","","","","101.67","","","","","","NA"
"-72.77","45.37","GRANBY","7022802","2019-03-20 00:00","2019","03","20","00:00","-7.3","","-11.0","","75","","","","","","0","","","","101.65","","","","","","NA"
"-72.77","45.37","GRANBY","7022802","2019-03-20 01:00","2019","03","20","01:00","-6.1","","-11.3","","67","","","","20","","3","","","","101.67","","","","-8","","NA"
"-72.77","45.37","GRANBY","7022802","2019-03-20 02:00","2019","03","20","02:00","-4.8","","-13.4","","51","","","","20","","4","","","","101.63","","","","-7","","NA"
"-72.77","45.37","GRANBY","7022802","2019-03-20 03:00","2019","03","20","03:00","-5.1","","-13.6","","51","","","","20","","3","","","","101.60","","","","-6","","NA"
"-72.77","45.37","GRANBY","7022802","2019-03-20 04:00","2019","03","20","04:00","-5.5","","-13.7","","53","","","","21","","3","","","","101.58","","","","-7","","NA"
"-72.77","45.37","GRANBY","7022802","2019-03-20 05:00","2019","03","20","05:00","-5.9","","-13.0","","57","","","","22","","3","","","","101.57","","","","-7","","NA"
"-72.77","45.37","GRANBY","7022802","2019-03-20 06:00","2019","03","20","06:00","-5.4","","-13.1","","55","","","","22","","3","","","","101.57","","","","-7","","NA"
"-72.77","45.37","GRANBY","7022802","2019-03-20 07:00","2019","03","20","07:00","-3.1","","-11.9","","51","","","","21","","4","","","","101.59","","","","-5","","NA"
"-72.77","45.37","GRANBY","7022802","2019-03-20 08:00","2019","03","20","08:00","-0.5","","-11.2","","44","","","","19","","8","","","","101.57","","","","-3","","NA"
"-72.77","45.37","GRANBY","7022802","2019-03-20 09:00","2019","03","20","09:00","1.8","","-7.9","","48","","0.0","","20","","9","","","","101.53","","","","","","NA"
"-72.77","45.37","GRANBY","7022802","2019-03-20 10:00","2019","03","20","10:00","3.3","","-6.7","","48","","0.0","","21","","9","","","","101.50","","","","","","NA"
"-72.77","45.37","GRANBY","7022802","2019-03-20 11:00","2019","03","20","11:00","4.4","","-6.2","","46","","0.0","","21","","9","","","","101.44","","","","","","NA"
"-72.77","45.37","GRANBY","7022802","2019-03-20 12:00","2019","03","20","12:00","5.5","","-5.7","","44","","0.0","","22","","9","","","","101.41","","","","","","NA"
"-72.77","45.37","GRANBY","7022802","2019-03-20 13:00","2019","03","20","13:00","6.0","","-6.0","","42","","0.0","","22","","11","","","","101.32","","","","","","NA"
"-72.77","45.37","GRANBY","7022802","2019-03-20 14:00","2019","03","20","14:00","6.7","","-6.5","","38","","0.0","","24","","9","","","","101.23","","","","","","NA"
"-72.77","45.37","GRANBY","7022802","2019-03-20 15:00","2019","03","20","15:00","6.6","","-6.4","","39","","0.0","","24","","8","","","","101.18","","","","","","NA"
"-72.77","45.37","GRANBY","7022802","2019-03-20 16:00","2019","03","20","16:00","7.4","","-6.8","","36","","0.0","","25","","4","","","","101.10","","","","","","NA"
"-72.77","45.37","GRANBY","7022802","2019-03-20 17:00","2019","03","20","17:00","7.3","","-7.0","","35","","0.0","","25","","4","","","","101.06","","","","","","NA"
"-72.77","45.37","GRANBY","7022802","2019-03-20 18:00","2019","03","20","18:00","3.6","","-5.0","","53","","0.0","","","","0","","","","101.07","","","","","","NA"
"-72.77","45.37","GRANBY","7022802","2019-03-20 19:00","2019","03","20","19:00","1.4","","-4.1","","66","","0.0","","0","","1","","","","101.06","","","","","","NA"
"-72.77","45.37","GRANBY","7022802","2019-03-20 20:00","2019","03","20","20:00","-0.4","","-4.8","","73","","","","","","0","","","","101.07","","","","","","NA"
"-72.77","45.37","GRANBY","7022802","2019-03-20 21:00","2019","03","20","21:00","-1.3","","-4.5","","79","","","","","","0","","","","101.08","","","","","","NA"
"-72.77","45.37","GRANBY","7022802","2019-03-20 22:00","2019","03","20","22:00","-2.2","","-4.2","","86","","","","","","0","","","","101.06","","","","","","NA"
"-72.77","45.37","GRANBY","7022802","2019-03-20 23:00","2019","03","20","23:00","-2.3","","-4.6","","84","","","","","","0","","","","101.00","","","","","","NA"
"-72.77","45.37","GRANBY","7022802","2019-03-21 00:00","2019","03","21","00:00","-1.6","","-4.1","","83","","","","","","0","","","","100.98","","","","","","NA"
"-72.77","45.37","GRANBY","7022802","2019-03-21 01:00","2019","03","21","01:00","-1.5","","-4.6","","79","","","","","","0","","","","100.96","","","","","","NA"
"-72.77","45.37","GRANBY","7022802","2019-03-21 02:00","2019","03","21","02:00","-1.2","","-4.1","","81","","","","0","","1","","","","100.91","","","","-2","","NA"
"-72.77","45.37","GRANBY","7022802","2019-03-21 03:00","2019","03","21","03:00","-0.4","","-3.3","","81","","","","20","","2","","","","100.85","","","","-1","","NA"
"-72.77","45.37","GRANBY","7022802","2019-03-21 04:00","2019","03","21","04:00","2.8","","-5.3","","55","","0.0","","20","","4","","","","100.84","","","","","","NA"
"-72.77","45.37","GRANBY","7022802","2019-03-21 05:00","2019","03","21","05:00","2.4","","-5.3","","57","","0.0","","19","","3","","","","100.82","","","","","","NA"
"-72.77","45.37","GRANBY","7022802","2019-03-21 06:00","2019","03","21","06:00","3.5","","-4.6","","55","","0.0","","20","","5","","","","100.82","","","","","","NA"
"-72.77","45.37","GRANBY","7022802","2019-03-21 07:00","2019","03","21","07:00","4.0","","-3.9","","56","","0.0","","20","","5","","","","100.83","","","","","","NA"
"-72.77","45.37","GRANBY","7022802","2019-03-21 08:00","2019","03","21","08:00","4.5","","-3.0","","58","","0.0","","23","","5","","","","100.83","","","","","","NA"
"-72.77","45.37","GRANBY","7022802","2019-03-21 09:00","2019","03","21","09:00","4.6","","-1.8","","63","","0.0","","23","","6","","","","100.78","","","","","","NA"
"-72.77","45.37","GRANBY","7022802","2019-03-21 10:00","2019","03","21","10:00","6.0","","-2.0","","57","","0.0","","24","","5","","","","100.68","","","","","","NA"
"-72.77","45.37","GRANBY","7022802","2019-03-21 11:00","2019","03","21","11:00","6.2","","-1.2","","59","","0.0","","24","","6","","","","100.60","","","","","","NA"
"-72.77","45.37","GRANBY","7022802","2019-03-21 12:00","2019","03","21","12:00","5.7","","-1.3","","61","","0.0","","24","","5","","","","100.56","","","","","","NA"
"-72.77","45.37","GRANBY","7022802","2019-03-21 13:00","2019","03","21","13:00","7.1","","-1.8","","53","","0.0","","19","","8","","","","100.44","","","","","","NA"
"-72.77","45.37","GRANBY","7022802","2019-03-21 14:00","2019","03","21","14:00","6.9","","-1.3","","56","","0.0","","19","","8","","","","100.35","","","","","","NA"
"-72.77","45.37","GRANBY","7022802","2019-03-21 15:00","2019","03","21","15:00","6.1","","1.1","","70","","0.0","","18","","8","","","","100.30","","","","","","NA"
"-72.77","45.37","GRANBY","7022802","2019-03-21 16:00","2019","03","21","16:00","6.6","","1.0","","68","","0.0","","14","","6","","","","100.21","","","","","","NA"
"-72.77","45.37","GRANBY","7022802","2019-03-21 17:00","2019","03","21","17:00","7.0","","0.8","","65","","0.0","","20","","7","","","","100.18","","","","","","NA"
"-72.77","45.37","GRANBY","7022802","2019-03-21 18:00","2019","03","21","18:00","5.2","","1.4","","76","","0.2","","17","","2","","","","100.13","","","","","","NA"
"-72.77","45.37","GRANBY","7022802","2019-03-21 19:00","2019","03","21","19:00","6.2","","0.5","","66","","0.0","","17","","8","","","","100.10","","","","","","NA"
"-72.77","45.37","GRANBY","7022802","2019-03-21 20:00","2019","03","21","20:00","4.6","","2.2","","84","","0.2","","17","","10","","","","100.10","","","","","","NA"
"-72.77","45.37","GRANBY","7022802","2019-03-21 21:00","2019","03","21","21:00","4.3","","2.0","","85","","0.2","","16","","10","","","","100.04","","","","","","NA"
"-72.77","45.37","GRANBY","7022802","2019-03-21 22:00","2019","03","21","22:00","3.5","","2.5","","93","","1.6","","17","","9","","","","99.97","","","","","","NA"
"-72.77","45.37","GRANBY","7022802","2019-03-21 23:00","2019","03","21","23:00","2.9","","2.4","","96","","2.8","","16","","2","","","","99.91","","","","","","NA"
"-72.77","45.37","GRANBY","7022802","2019-03-22 00:00","2019","03","22","00:00","2.0","","1.7","","98","","1.2","","3","","2","","","","99.79","","","","","","NA"
"-72.77","45.37","GRANBY","7022802","2019-03-22 01:00","2019","03","22","01:00","2.0","","1.7","","98","","1.2","","6","","3","","","","99.69","","","","","","NA"
"-72.77","45.37","GRANBY","7022802","2019-03-22 02:00","2019","03","22","02:00","1.6","","1.4","","98","","0.2","","3","","3","","","","99.61","","","","","","NA"
"-72.77","45.37","GRANBY","7022802","2019-03-22 03:00","2019","03","22","03:00","1.6","","1.4","","99","","0.0","","3","","1","","","","99.48","","","","","","NA"
"-72.77","45.37","GRANBY","7022802","2019-03-22 04:00","2019","03","22","04:00","1.9","","1.4","","97","","0.0","","2","","2","","","","99.32","","","","","","NA"
"-72.77","45.37","GRANBY","7022802","2019-03-22 05:00","2019","03","22","05:00","2.5","","1.5","","93","","0.0","","12","","10","","","","99.22","","","","","","NA"
"-72.77","45.37","GRANBY","7022802","2019-03-22 06:00","2019","03","22","06:00","2.2","","1.2","","93","","0.0","","12","","13","","","","99.14","","","","","","NA"
"-72.77","45.37","GRANBY","7022802","2019-03-22 07:00","2019","03","22","07:00","1.7","","0.8","","94","","0.0","","10","","13","","","","99.09","","","","","","NA"
"-72.77","45.37","GRANBY","7022802","2019-03-22 08:00","2019","03","22","08:00","1.3","","0.7","","96","","0.4","","9","","8","","","","99.00","","","","","","NA"
"-72.77","45.37","GRANBY","7022802","2019-03-22 09:00","2019","03","22","09:00","1.3","","0.9","","97","","0.2","","3","","7","","","","98.83","","","","","","NA"
"-72.77","45.37","GRANBY","7022802","2019-03-22 10:00","2019","03","22","10:00","1.7","","1.0","","95","","0.0","","3","","10","","","","98.71","","","","","","NA"
"-72.77","45.37","GRANBY","7022802","2019-03-22 11:00","2019","03","22","11:00","1.8","","1.0","","94","","0.2","","2","","9","","","","98.53","","","","","","NA"
"-72.77","45.37","GRANBY","7022802","2019-03-22 12:00","2019","03","22","12:00","0.8","","0.3","","97","","0.6","","2","","9","","","","98.42","","","","","","NA"
"-72.77","45.37","GRANBY","7022802","2019-03-22 13:00","2019","03","22","13:00","0.8","","0.6","","98","","1.4","","35","","6","","","","98.28","","","","","","NA"
"-72.77","45.37","GRANBY","7022802","2019-03-22 14:00","2019","03","22","14:00","1.2","","0.8","","98","","0.4","","36","","8","","","","98.18","","","","","","NA"
"-72.77","45.37","GRANBY","7022802","2019-03-22 15:00","2019","03","22","15:00","0.7","","0.4","","98","","0.8","","35","","6","","","","98.17","","","","","","NA"
"-72.77","45.37","GRANBY","7022802","2019-03-22 16:00","2019","03","22","16:00","0.4","","0.2","","99","","","","35","","6","","","","98.13","","","","","","NA"
"-72.77","45.37","GRANBY","7022802","2019-03-22 17:00","2019","03","22","17:00","0.3","","0.2","","99","","","","34","","9","","","","98.09","","","","","","NA"
"-72.77","45.37","GRANBY","7022802","2019-03-22 18:00","2019","03","22","18:00","0.2","","0.1","","99","","","","1","","3","","","","98.09","","","","","","NA"
"-72.77","45.37","GRANBY","7022802","2019-03-22 19:00","2019","03","22","19:00","0.5","","0.4","","100","","","","34","","7","","","","98.04","","","","","","NA"
"-72.77","45.37","GRANBY","7022802","2019-03-22 20:00","2019","03","22","20:00","0.6","","0.5","","99","","1.2","","34","","10","","","","98.06","","","","","","NA"
"-72.77","45.37","GRANBY","7022802","2019-03-22 21:00","2019","03","22","21:00","0.6","","0.5","","99","","1.0","","34","","10","","","","98.08","","","","","","NA"
"-72.77","45.37","GRANBY","7022802","2019-03-22 22:00","2019","03","22","22:00","1.0","","0.9","","99","","1.2","","33","","13","","","","98.10","","","","","","NA"
"-72.77","45.37","GRANBY","7022802","2019-03-22 23:00","2019","03","22","23:00","1.3","","1.1","","98","","2.4","","33","","11","","","","98.13","","","","","","NA"
"-72.77","45.37","GRANBY","7022802","2019-03-23 00:00","2019","03","23","00:00","1.4","","1.1","","98","","2.2","","33","","11","","","","98.19","","","","","","NA"
"-72.77","45.37","GRANBY","7022802","2019-03-23 01:00","2019","03","23","01:00","1.5","","0.8","","95","","2.0","","33","","16","","","","98.27","","","","","","NA"
"-72.77","45.37","GRANBY","7022802","2019-03-23 02:00","2019","03","23","02:00","0.8","","-0.9","","89","","0.8","","32","","17","","","","98.37","","","","","","NA"
"-72.77","45.37","GRANBY","7022802","2019-03-23 03:00","2019","03","23","03:00","0.2","","-2.9","","80","","","","32","","20","","","","98.51","","","","","","NA"
"-72.77","45.37","GRANBY","7022802","2019-03-23 04:00","2019","03","23","04:00","-0.4","","-3.8","","78","","","","32","","18","","","","98.70","","","","-5","","NA"
"-72.77","45.37","GRANBY","7022802","2019-03-23 05:00","2019","03","23","05:00","-1.1","","-4.6","","77","","","","31","","16","","","","98.88","","","","-6","","NA"
"-72.77","45.37","GRANBY","7022802","2019-03-23 06:00","2019","03","23","06:00","-1.9","","-4.6","","82","","","","30","","14","","","","99.06","","","","-7","","NA"
"-72.77","45.37","GRANBY","7022802","2019-03-23 07:00","2019","03","23","07:00","-2.6","","-3.4","","94","","","","27","","13","","","","99.22","","","","-7","","NA"
"-72.77","45.37","GRANBY","7022802","2019-03-23 08:00","2019","03","23","08:00","-4.3","","-4.7","","97","","","","26","","18","","","","99.36","","","","-10","","NA"
"-72.77","45.37","GRANBY","7022802","2019-03-23 09:00","2019","03","23","09:00","-4.6","","-5.0","","97","","","","26","","20","","","","99.47","","","","-11","","NA"
"-72.77","45.37","GRANBY","7022802","2019-03-23 10:00","2019","03","23","10:00","-4.1","","-5.5","","90","","","","24","","16","","","","99.57","","","","-10","","NA"
"-72.77","45.37","GRANBY","7022802","2019-03-23 11:00","2019","03","23","11:00","-3.9","","-8.1","","73","","","","25","","26","","","","99.67","","","","-11","","NA"
"-72.77","45.37","GRANBY","7022802","2019-03-23 12:00","2019","03","23","12:00","-3.4","","-9.1","","65","","","","24","","24","","","","99.77","","","","-10","","NA"
"-72.77","45.37","GRANBY","7022802","2019-03-23 13:00","2019","03","23","13:00","-2.2","","-9.3","","58","","","","24","","19","","","","99.82","","","","-8","","NA"
"-72.77","45.37","GRANBY","7022802","2019-03-23 14:00","2019","03","23","14:00","-2.1","","-9.9","","55","","","","24","","22","","","","99.88","","","","-8","","NA"
"-72.77","45.37","GRANBY","7022802","2019-03-23 15:00","2019","03","23","15:00","-2.5","","-9.6","","58","","","","24","","22","","","","99.96","","","","-9","","NA"
"-72.77","45.37","GRANBY","7022802","2019-03-23 16:00","2019","03","23","16:00","-2.4","","-10.0","","56","","","","24","","21","","","","100.05","","","","-8","","NA"
"-72.77","45.37","GRANBY","7022802","2019-03-23 17:00","2019","03","23","17:00","-2.5","","-11.0","","52","","","","24","","13","","","","100.12","","","","-7","","NA"
"-72.77","45.37","GRANBY","7022802","2019-03-23 18:00","2019","03","23","18:00","-2.9","","-11.5","","51","","","","24","","16","","","","100.19","","","","-8","","NA"
"-72.77","45.37","GRANBY","7022802","2019-03-23 19:00","2019","03","23","19:00","-3.0","","-11.6","","52","","","","21","","7","","","","100.28","","","","-6","","NA"
"-72.77","45.37","GRANBY","7022802","2019-03-23 20:00","2019","03","23","20:00","-3.2","","-10.8","","56","","","","17","","5","","","","100.37","","","","-5","","NA"
"-72.77","45.37","GRANBY","7022802","2019-03-23 21:00","2019","03","23","21:00","-3.8","","-11.0","","57","","","","19","","5","","","","100.37","","","","-6","","NA"
"-72.77","45.37","GRANBY","7022802","2019-03-23 22:00","2019","03","23","22:00","-4.4","","-11.1","","59","","","","22","","6","","","","100.39","","","","-7","","NA"
"-72.77","45.37","GRANBY","7022802","2019-03-23 23:00","2019","03","23","23:00","-4.3","","-10.8","","61","","","","20","","6","","","","100.41","","","","-7","","NA"
"-72.77","45.37","GRANBY","7022802","2019-03-24 00:00","2019","03","24","00:00","-4.5","","-9.8","","67","","","","21","","6","","","","100.41","","","","-7","","NA"
"-72.77","45.37","GRANBY","7022802","2019-03-24 01:00","2019","03","24","01:00","-4.0","","-9.8","","64","","","","20","","9","","","","100.42","","","","-8","","NA"
"-72.77","45.37","GRANBY","7022802","2019-03-24 02:00","2019","03","24","02:00","-3.1","","-10.1","","58","","","","21","","10","","","","100.39","","","","-7","","NA"
"-72.77","45.37","GRANBY","7022802","2019-03-24 03:00","2019","03","24","03:00","-3.7","","-10.1","","61","","","","20","","9","","","","100.38","","","","-7","","NA"
"-72.77","45.37","GRANBY","7022802","2019-03-24 04:00","2019","03","24","04:00","-4.2","","-9.3","","67","","","","17","","10","","","","100.39","","","","-8","","NA"
"-72.77","45.37","GRANBY","7022802","2019-03-24 05:00","2019","03","24","05:00","-4.0","","-8.9","","69","","","","19","","6","","","","100.36","","","","-7","","NA"
"-72.77","45.37","GRANBY","7022802","2019-03-24 06:00","2019","03","24","06:00","-3.5","","-8.0","","71","","","","22","","8","","","","100.39","","","","-7","","NA"
"-72.77","45.37","GRANBY","7022802","2019-03-24 07:00","2019","03","24","07:00","-2.1","","-7.8","","65","","","","21","","5","","","","100.46","","","","-4","","NA"
"-72.77","45.37","GRANBY","7022802","2019-03-24 08:00","2019","03","24","08:00","-0.6","","-6.6","","64","","","","21","","10","","","","100.39","","","","-4","","NA"
"-72.77","45.37","GRANBY","7022802","2019-03-24 09:00","2019","03","24","09:00","1.0","","-6.1","","59","","0.2","","23","","17","","","","100.44","","","","","","NA"
"-72.77","45.37","GRANBY","7022802","2019-03-24 10:00","2019","03","24","10:00","1.6","","-5.0","","61","","1.2","","22","","10","","","","100.45","","","","","","NA"
"-72.77","45.37","GRANBY","7022802","2019-03-24 11:00","2019","03","24","11:00","2.4","","-4.1","","62","","1.0","","25","","19","","","","100.44","","","","","","NA"
"-72.77","45.37","GRANBY","7022802","2019-03-24 12:00","2019","03","24","12:00","2.9","","-4.0","","61","","2.0","","26","","18","","","","100.43","","","","","","NA"
"-72.77","45.37","GRANBY","7022802","2019-03-24 13:00","2019","03","24","13:00","3.2","","-4.0","","60","","0.0","","27","","14","","","","100.38","","","","","","NA"
"-72.77","45.37","GRANBY","7022802","2019-03-24 14:00","2019","03","24","14:00","3.3","","-4.1","","58","","0.0","","27","","13","","","","100.34","","","","","","NA"
"-72.77","45.37","GRANBY","7022802","2019-03-24 15:00","2019","03","24","15:00","3.3","","-4.2","","58","","0.0","","28","","12","","","","100.31","","","","","","NA"
"-72.77","45.37","GRANBY","7022802","2019-03-24 16:00","2019","03","24","16:00","1.6","","-1.2","","82","","0.0","","35","","6","","","","100.32","","","","","","NA"
"-72.77","45.37","GRANBY","7022802","2019-03-24 17:00","2019","03","24","17:00","0.8","","-0.5","","91","","0.0","","32","","5","","","","100.33","","","","","","NA"
"-72.77","45.37","GRANBY","7022802","2019-03-24 18:00","2019","03","24","18:00","0.1","","-0.4","","97","","","","29","","5","","","","100.34","","","","","","NA"
"-72.77","45.37","GRANBY","7022802","2019-03-24 19:00","2019","03","24","19:00","-0.2","","-0.5","","98","","","","28","","7","","","","100.37","","","","-3","","NA"
"-72.77","45.37","GRANBY","7022802","2019-03-24 20:00","2019","03","24","20:00","-0.4","","-0.6","","98","","","","30","","4","","","","100.42","","","","-2","","NA"
"-72.77","45.37","GRANBY","7022802","2019-03-24 21:00","2019","03","24","21:00","-1.0","","-1.2","","98","","","","28","","2","","","","100.47","","","","-2","","NA"
"-72.77","45.37","GRANBY","7022802","2019-03-24 22:00","2019","03","24","22:00","-0.9","","-1.2","","98","","","","24","","7","","","","100.46","","","","-3","","NA"
"-72.77","45.37","GRANBY","7022802","2019-03-24 23:00","2019","03","24","23:00","-1.8","","-2.2","","97","","","","27","","10","","","","100.54","","","","-5","","NA"
"-72.77","45.37","GRANBY","7022802","2019-03-25 00:00","2019","03","25","00:00","-3.9","","-4.8","","93","","","","28","","4","","","","100.64","","","","-6","","NA"
"-72.77","45.37","GRANBY","7022802","2019-03-25 01:00","2019","03","25","01:00","-4.9","","-5.6","","95","","","","30","","5","","","","100.71","","","","-7","","NA"
"-72.77","45.37","GRANBY","7022802","2019-03-25 02:00","2019","03","25","02:00","-6.6","","-8.1","","89","","","","29","","4","","","","100.72","","","","-9","","NA"
"-72.77","45.37","GRANBY","7022802","2019-03-25 03:00","2019","03","25","03:00","-9.2","","-10.8","","88","","","","28","","6","","","","100.77","","","","-13","","NA"
"-72.77","45.37","GRANBY","7022802","2019-03-25 04:00","2019","03","25","04:00","-9.6","","-10.6","","93","","","","27","","6","","","","100.81","","","","-13","","NA"
"-72.77","45.37","GRANBY","7022802","2019-03-25 05:00","2019","03","25","05:00","-9.3","","-13.6","","71","","","","30","","6","","","","100.87","","","","-13","","NA"
"-72.77","45.37","GRANBY","7022802","2019-03-25 06:00","2019","03","25","06:00","-12.8","","-14.8","","86","","","","20","","2","","","","100.93","","","","-14","","NA"
"-72.77","45.37","GRANBY","7022802","2019-03-25 07:00","2019","03","25","07:00","-7.9","","-14.5","","59","","","","30","","5","","","","100.99","","","","-11","","NA"
"-72.77","45.37","GRANBY","7022802","2019-03-25 08:00","2019","03","25","08:00","-6.9","","-17.6","","42","","","","29","","7","","","","101.06","","","","-10","","NA"
"-72.77","45.37","GRANBY","7022802","2019-03-25 09:00","2019","03","25","09:00","-5.8","","-18.1","","37","","","","28","","10","","","","101.07","","","","-10","","NA"
"-72.77","45.37","GRANBY","7022802","2019-03-25 10:00","2019","03","25","10:00","-4.8","","-16.7","","39","","","","26","","11","","","","101.03","","","","-9","","NA"
"-72.77","45.37","GRANBY","7022802","2019-03-25 11:00","2019","03","25","11:00","-4.6","","-17.2","","37","","","","25","","18","","","","101.00","","","","-11","","NA"
"-72.77","45.37","GRANBY","7022802","2019-03-25 12:00","2019","03","25","12:00","-4.3","","-17.1","","36","","","","25","","17","","","","100.97","","","","-10","","NA"
"-72.77","45.37","GRANBY","7022802","2019-03-25 13:00","2019","03","25","13:00","-3.6","","-17.0","","35","","","","24","","16","","","","100.91","","","","-9","","NA"
"-72.77","45.37","GRANBY","7022802","2019-03-25 14:00","2019","03","25","14:00","-3.4","","-16.3","","36","","","","24","","20","","","","100.84","","","","-10","","NA"
"-72.77","45.37","GRANBY","7022802","2019-03-25 15:00","2019","03","25","15:00","-2.6","","-15.2","","37","","","","24","","17","","","","100.75","","","","-8","","NA"
"-72.77","45.37","GRANBY","7022802","2019-03-25 16:00","2019","03","25","16:00","-2.0","","-16.2","","33","","","","24","","15","","","","100.71","","","","-7","","NA"
"-72.77","45.37","GRANBY","7022802","2019-03-25 17:00","2019","03","25","17:00","-2.2","","-16.0","","34","","","","24","","15","","","","100.70","","","","-7","","NA"
"-72.77","45.37","GRANBY","7022802","2019-03-25 18:00","2019","03","25","18:00","-2.9","","-16.0","","36","","","","23","","12","","","","100.72","","","","-7","","NA"
"-72.77","45.37","GRANBY","7022802","2019-03-25 19:00","2019","03","25","19:00","-3.9","","-15.2","","41","","","","22","","5","","","","100.75","","","","-6","","NA"
"-72.77","45.37","GRANBY","7022802","2019-03-25 20:00","2019","03","25","20:00","-4.2","","-14.0","","46","","","","21","","5","","","","100.79","","","","-6","","NA"
"-72.77","45.37","GRANBY","7022802","2019-03-25 21:00","2019","03","25","21:00","-5.6","","-13.4","","54","","","","20","","3","","","","100.82","","","","-7","","NA"
"-72.77","45.37","GRANBY","7022802","2019-03-25 22:00","2019","03","25","22:00","-6.0","","-13.5","","56","","","","21","","3","","","","100.83","","","","-7","","NA"
"-72.77","45.37","GRANBY","7022802","2019-03-25 23:00","2019","03","25","23:00","-6.1","","-13.5","","56","","","","24","","5","","","","100.89","","","","-9","","NA"
"-72.77","45.37","GRANBY","7022802","2019-03-26 00:00","2019","03","26","00:00","-4.1","","-11.9","","55","","","","24","","10","","","","100.92","","","","-8","","NA"
"-72.77","45.37","GRANBY","7022802","2019-03-26 01:00","2019","03","26","01:00","-5.5","","-11.5","","63","","","","25","","6","","","","101.00","","","","-8","","NA"
"-72.77","45.37","GRANBY","7022802","2019-03-26 02:00","2019","03","26","02:00","-6.1","","-10.8","","69","","","","27","","5","","","","101.11","","","","-9","","NA"
"-72.77","45.37","GRANBY","7022802","2019-03-26 03:00","2019","03","26","03:00","-5.1","","-14.4","","48","","","","32","","7","","","","101.18","","","","-8","","NA"
"-72.77","45.37","GRANBY","7022802","2019-03-26 04:00","2019","03","26","04:00","-7.1","","-13.7","","59","","","","36","","5","","","","101.28","","","","-10","","NA"
"-72.77","45.37","GRANBY","7022802","2019-03-26 05:00","2019","03","26","05:00","-8.0","","-13.6","","64","","","","33","","3","","","","101.38","","","","-10","","NA"
"-72.77","45.37","GRANBY","7022802","2019-03-26 06:00","2019","03","26","06:00","-9.1","","-16.6","","54","","","","36","","4","","","","101.47","","","","-11","","NA"
"-72.77","45.37","GRANBY","7022802","2019-03-26 07:00","2019","03","26","07:00","-7.9","","-16.4","","50","","","","35","","5","","","","101.59","","","","-11","","NA"
"-72.77","45.37","GRANBY","7022802","2019-03-26 08:00","2019","03","26","08:00","-7.2","","-15.2","","53","","","","36","","7","","","","101.67","","","","-11","","NA"
"-72.77","45.37","GRANBY","7022802","2019-03-26 09:00","2019","03","26","09:00","-6.6","","-16.9","","44","","","","35","","6","","","","101.73","","","","-10","","NA"
"-72.77","45.37","GRANBY","7022802","2019-03-26 10:00","2019","03","26","10:00","-5.7","","-15.9","","44","","","","32","","6","","","","101.73","","","","-9","","NA"
"-72.77","45.37","GRANBY","7022802","2019-03-26 11:00","2019","03","26","11:00","-5.7","","-15.5","","46","","","","27","","12","","","","101.73","","","","-11","","NA"
"-72.77","45.37","GRANBY","7022802","2019-03-26 12:00","2019","03","26","12:00","-4.1","","-14.5","","44","","","","22","","9","","","","101.68","","","","-8","","NA"
"-72.77","45.37","GRANBY","7022802","2019-03-26 13:00","2019","03","26","13:00","-3.2","","-15.0","","40","","","","26","","18","","","","101.65","","","","-9","","NA"
"-72.77","45.37","GRANBY","7022802","2019-03-26 14:00","2019","03","26","14:00","-2.9","","-12.5","","48","","","","25","","15","","","","101.66","","","","-8","","NA"
"-72.77","45.37","GRANBY","7022802","2019-03-26 15:00","2019","03","26","15:00","-2.0","","-12.5","","45","","","","25","","14","","","","101.63","","","","-7","","NA"
"-72.77","45.37","GRANBY","7022802","2019-03-26 16:00","2019","03","26","16:00","-2.1","","-12.9","","43","","","","25","","14","","","","101.63","","","","-7","","NA"
"-72.77","45.37","GRANBY","7022802","2019-03-26 17:00","2019","03","26","17:00","-1.9","","-11.9","","46","","","","23","","11","","","","101.66","","","","-6","","NA"
"-72.77","45.37","GRANBY","7022802","2019-03-26 18:00","2019","03","26","18:00","-2.8","","-12.7","","46","","","","24","","8","","","","101.66","","","","-6","","NA"
"-72.77","45.37","GRANBY","7022802","2019-03-26 19:00","2019","03","26","19:00","-3.6","","-12.6","","50","","","","18","","3","","","","101.72","","","","-5","","NA"
"-72.77","45.37","GRANBY","7022802","2019-03-26 20:00","2019","03","26","20:00","-5.2","","-11.8","","60","","","","19","","2","","","","101.77","","","","-6","","NA"
"-72.77","45.37","GRANBY","7022802","2019-03-26 21:00","2019","03","26","21:00","-6.5","","-11.9","","66","","","","23","","3","","","","101.80","","","","-8","","NA"
"-72.77","45.37","GRANBY","7022802","2019-03-26 22:00","2019","03","26","22:00","-6.0","","-12.1","","62","","","","21","","3","","","","101.81","","","","-7","","NA"
"-72.77","45.37","GRANBY","7022802","2019-03-26 23:00","2019","03","26","23:00","-5.6","","-11.9","","61","","","","21","","5","","","","101.83","","","","-8","","NA"
"-72.77","45.37","GRANBY","7022802","2019-03-27 00:00","2019","03","27","00:00","-6.8","","-12.3","","65","","","","22","","3","","","","101.84","","","","-8","","NA"
"-72.77","45.37","GRANBY","7022802","2019-03-27 01:00","2019","03","27","01:00","-8.3","","-12.6","","71","","","","0","","1","","","","101.87","","","","-9","","NA"
"-72.77","45.37","GRANBY","7022802","2019-03-27 02:00","2019","03","27","02:00","-9.3","","-12.1","","80","","","","21","","2","","","","101.92","","","","-10","","NA"
"-72.77","45.37","GRANBY","7022802","2019-03-27 03:00","2019","03","27","03:00","-8.8","","-12.2","","77","","","","22","","3","","","","101.97","","","","-10","","NA"
"-72.77","45.37","GRANBY","7022802","2019-03-27 04:00","2019","03","27","04:00","-9.9","","-11.8","","86","","","","","","0","","","","102.02","","","","","","NA"
"-72.77","45.37","GRANBY","7022802","2019-03-27 05:00","2019","03","27","05:00","-10.4","","-12.1","","87","","","","","","0","","","","102.06","","","","","","NA"
"-72.77","45.37","GRANBY","7022802","2019-03-27 06:00","2019","03","27","06:00","-10.9","","-12.2","","90","","","","15","","1","","","","102.12","","","","-12","","NA"
"-72.77","45.37","GRANBY","7022802","2019-03-27 07:00","2019","03","27","07:00","-5.0","","-12.8","","54","","","","21","","4","","","","102.16","","","","-7","","NA"
"-72.77","45.37","GRANBY","7022802","2019-03-27 08:00","2019","03","27","08:00","-2.0","","-14.6","","38","","","","21","","6","","","","102.16","","","","-4","","NA"
"-72.77","45.37","GRANBY","7022802","2019-03-27 09:00","2019","03","27","09:00","-0.1","","-14.4","","33","","","","22","","6","","","","102.17","","","","-2","","NA"
"-72.77","45.37","GRANBY","7022802","2019-03-27 10:00","2019","03","27","10:00","1.3","","-12.9","","34","","0.0","","23","","11","","","","102.19","","","","","","NA"
"-72.77","45.37","GRANBY","7022802","2019-03-27 11:00","2019","03","27","11:00","2.3","","-11.4","","36","","0.0","","24","","10","","","","102.12","","","","","","NA"
"-72.77","45.37","GRANBY","7022802","2019-03-27 12:00","2019","03","27","12:00","3.5","","-11.1","","33","","0.0","","24","","10","","","","102.04","","","","","","NA"
"-72.77","45.37","GRANBY","7022802","2019-03-27 13:00","2019","03","27","13:00","4.7","","-10.9","","31","","0.0","","24","","8","","","","101.98","","","","","","NA"
"-72.77","45.37","GRANBY","7022802","2019-03-27 14:00","2019","03","27","14:00","5.2","","-15.6","","21","","0.0","","22","","10","","","","101.86","","","","","","NA"
"-72.77","45.37","GRANBY","7022802","2019-03-27 15:00","2019","03","27","15:00","5.9","","-14.6","","21","","0.0","","22","","10","","","","101.77","","","","","","NA"
"-72.77","45.37","GRANBY","7022802","2019-03-27 16:00","2019","03","27","16:00","6.1","","-12.7","","25","","0.0","","24","","11","","","","101.72","","","","","","NA"
"-72.77","45.37","GRANBY","7022802","2019-03-27 17:00","2019","03","27","17:00","6.2","","-12.7","","24","","0.0","","23","","7","","","","101.65","","","","","","NA"
"-72.77","45.37","GRANBY","7022802","2019-03-27 18:00","2019","03","27","18:00","3.7","","-10.4","","35","","0.0","","24","","3","","","","101.63","","","","","","NA"
"-72.77","45.37","GRANBY","7022802","2019-03-27 19:00","2019","03","27","19:00","0.2","","-8.1","","53","","","","0","","1","","","","101.65","","","","","","NA"
"-72.77","45.37","GRANBY","7022802","2019-03-27 20:00","2019","03","27","20:00","-1.6","","-7.2","","65","","","","0","","1","","","","101.62","","","","-2","","NA"
"-72.77","45.37","GRANBY","7022802","2019-03-27 21:00","2019","03","27","21:00","-2.5","","-7.7","","67","","","","","","0","","","","101.58","","","","","","NA"
"-72.77","45.37","GRANBY","7022802","2019-03-27 22:00","2019","03","27","22:00","-3.4","","-7.2","","74","","","","","","0","","","","101.52","","","","","","NA"
"-72.77","45.37","GRANBY","7022802","2019-03-27 23:00","2019","03","27","23:00","-0.2","","-11.2","","43","","","","20","","4","","","","101.43","","","","-1","","NA"
"-72.77","45.37","GRANBY","7022802","2019-03-28 00:00","2019","03","28","00:00","2.6","","-13.5","","29","","0.0","","19","","8","","","","101.37","","","","","","NA"
"-72.77","45.37","GRANBY","7022802","2019-03-28 01:00","2019","03","28","01:00","2.7","","-13.7","","29","","0.0","","20","","6","","","","101.35","","","","","","NA"
"-72.77","45.37","GRANBY","7022802","2019-03-28 02:00","2019","03","28","02:00","2.6","","-13.1","","31","","0.0","","19","","8","","","","101.30","","","","","","NA"
"-72.77","45.37","GRANBY","7022802","2019-03-28 03:00","2019","03","28","03:00","2.8","","-12.5","","31","","0.0","","19","","7","","","","101.25","","","","","","NA"
"-72.77","45.37","GRANBY","7022802","2019-03-28 04:00","2019","03","28","04:00","3.3","","-11.9","","32","","0.0","","18","","9","","","","101.20","","","","","","NA"
"-72.77","45.37","GRANBY","7022802","2019-03-28 05:00","2019","03","28","05:00","3.3","","-11.6","","33","","0.0","","20","","8","","","","101.18","","","","","","NA"
"-72.77","45.37","GRANBY","7022802","2019-03-28 06:00","2019","03","28","06:00","3.4","","-10.5","","35","","0.0","","18","","12","","","","101.13","","","","","","NA"
"-72.77","45.37","GRANBY","7022802","2019-03-28 07:00","2019","03","28","07:00","4.3","","-9.8","","35","","0.0","","19","","12","","","","101.11","","","","","","NA"
"-72.77","45.37","GRANBY","7022802","2019-03-28 08:00","2019","03","28","08:00","5.4","","-9.0","","35","","0.0","","19","","14","","","","101.02","","","","","","NA"
"-72.77","45.37","GRANBY","7022802","2019-03-28 09:00","2019","03","28","09:00","6.4","","-7.7","","36","","0.0","","18","","15","","","","100.93","","","","","","NA"
"-72.77","45.37","GRANBY","7022802","2019-03-28 10:00","2019","03","28","10:00","7.0","","-7.3","","35","","0.0","","20","","13","","","","100.87","","","","","","NA"
"-72.77","45.37","GRANBY","7022802","2019-03-28 11:00","2019","03","28","11:00","7.8","","-6.2","","36","","0.0","","21","","10","","","","100.79","","","","","","NA"
"-72.77","45.37","GRANBY","7022802","2019-03-28 12:00","2019","03","28","12:00","8.1","","-6.4","","35","","0.0","","20","","12","","","","100.70","","","","","","NA"
"-72.77","45.37","GRANBY","7022802","2019-03-28 13:00","2019","03","28","13:00","7.7","","-6.0","","37","","0.0","","20","","11","","","","100.63","","","","","","NA"
"-72.77","45.37","GRANBY","7022802","2019-03-28 14:00","2019","03","28","14:00","7.4","","-5.1","","41","","0.0","","19","","12","","","","100.55","","","","","","NA"
"-72.77","45.37","GRANBY","7022802","2019-03-28 15:00","2019","03","28","15:00","7.7","","-5.4","","39","","0.0","","20","","12","","","","100.51","","","","","","NA"
"-72.77","45.37","GRANBY","7022802","2019-03-28 16:00","2019","03","28","16:00","7.5","","-1.7","","52","","0.0","","19","","7","","","","100.48","","","","","","NA"
"-72.77","45.37","GRANBY","7022802","2019-03-28 17:00","2019","03","28","17:00","7.5","","-3.5","","45","","0.0","","20","","10","","","","100.48","","","","","","NA"
"-72.77","45.37","GRANBY","7022802","2019-03-28 18:00","2019","03","28","18:00","7.5","","-2.0","","51","","0.0","","19","","9","","","","100.49","","","","","","NA"
"-72.77","45.37","GRANBY","7022802","2019-03-28 19:00","2019","03","28","19:00","7.3","","-1.7","","53","","0.0","","19","","10","","","","100.51","","","","","","NA"
"-72.77","45.37","GRANBY","7022802","2019-03-28 20:00","2019","03","28","20:00","6.5","","0.7","","66","","0.0","","20","","8","","","","100.54","","","","","","NA"
"-72.77","45.37","GRANBY","7022802","2019-03-28 21:00","2019","03","28","21:00","6.9","","-0.3","","60","","0.0","","19","","8","","","","100.51","","","","","","NA"
"-72.77","45.37","GRANBY","7022802","2019-03-28 22:00","2019","03","28","22:00","5.9","","-0.6","","63","","0.0","","24","","8","","","","100.54","","","","","","NA"
"-72.77","45.37","GRANBY","7022802","2019-03-28 23:00","2019","03","28","23:00","5.3","","-0.9","","64","","0.0","","21","","5","","","","100.49","","","","","","NA"
"-72.77","45.37","GRANBY","7022802","2019-03-29 00:00","2019","03","29","00:00","5.3","","-0.9","","64","","0.0","","21","","4","","","","100.40","","","","","","NA"
"-72.77","45.37","GRANBY","7022802","2019-03-29 01:00","2019","03","29","01:00","5.3","","-0.9","","64","","0.0","","22","","4","","","","100.37","","","","","","NA"
"-72.77","45.37","GRANBY","7022802","2019-03-29 02:00","2019","03","29","02:00","5.5","","0.3","","69","","0.0","","20","","4","","","","100.39","","","","","","NA"
"-72.77","45.37","GRANBY","7022802","2019-03-29 03:00","2019","03","29","03:00","4.6","","2.2","","84","","0.4","","21","","2","","","","100.37","","","","","","NA"
"-72.77","45.37","GRANBY","7022802","2019-03-29 04:00","2019","03","29","04:00","3.0","","2.4","","95","","0.6","","0","","1","","","","100.39","","","","","","NA"
"-72.77","45.37","GRANBY","7022802","2019-03-29 05:00","2019","03","29","05:00","3.4","","3.0","","97","","0.0","","19","","4","","","","100.43","","","","","","NA"
"-72.77","45.37","GRANBY","7022802","2019-03-29 06:00","2019","03","29","06:00","3.6","","3.2","","97","","0.2","","22","","4","","","","100.48","","","","","","NA"
"-72.77","45.37","GRANBY","7022802","2019-03-29 07:00","2019","03","29","07:00","3.3","","2.9","","97","","0.0","","20","","3","","","","100.47","","","","","","NA"
"-72.77","45.37","GRANBY","7022802","2019-03-29 08:00","2019","03","29","08:00","3.5","","3.1","","97","","0.2","","20","","3","","","","100.50","","","","","","NA"
"-72.77","45.37","GRANBY","7022802","2019-03-29 09:00","2019","03","29","09:00","3.8","","3.4","","98","","0.0","","20","","3","","","","100.51","","","","","","NA"
"-72.77","45.37","GRANBY","7022802","2019-03-29 10:00","2019","03","29","10:00","3.7","","3.4","","98","","0.2","","20","","4","","","","100.53","","","","","","NA"
"-72.77","45.37","GRANBY","7022802","2019-03-29 11:00","2019","03","29","11:00","3.8","","3.5","","98","","0.0","","20","","7","","","","100.53","","","","","","NA"
"-72.77","45.37","GRANBY","7022802","2019-03-29 12:00","2019","03","29","12:00","5.1","","4.0","","93","","0.0","","21","","6","","","","100.54","","","","","","NA"
"-72.77","45.37","GRANBY","7022802","2019-03-29 13:00","2019","03","29","13:00","6.6","","1.9","","72","","0.0","","23","","18","","","","100.52","","","","","","NA"
"-72.77","45.37","GRANBY","7022802","2019-03-29 14:00","2019","03","29","14:00","6.1","","1.6","","73","","0.0","","24","","16","","","","100.55","","","","","","NA"
"-72.77","45.37","GRANBY","7022802","2019-03-29 15:00","2019","03","29","15:00","6.5","","1.0","","68","","0.0","","25","","19","","","","100.59","","","","","","NA"
"-72.77","45.37","GRANBY","7022802","2019-03-29 16:00","2019","03","29","16:00","3.1","","-0.3","","78","","0.0","","36","","5","","","","100.73","","","","","","NA"
"-72.77","45.37","GRANBY","7022802","2019-03-29 17:00","2019","03","29","17:00","3.5","","-0.4","","75","","0.0","","1","","2","","","","100.80","","","","","","NA"
"-72.77","45.37","GRANBY","7022802","2019-03-29 18:00","2019","03","29","18:00","3.1","","-0.6","","76","","0.0","","2","","2","","","","100.87","","","","","","NA"
"-72.77","45.37","GRANBY","7022802","2019-03-29 19:00","2019","03","29","19:00","0.8","","-1.1","","87","","0.0","","","","0","","","","100.93","","","","","","NA"
"-72.77","45.37","GRANBY","7022802","2019-03-29 20:00","2019","03","29","20:00","-0.8","","-1.6","","94","","","","","","0","","","","101.00","","","","","","NA"
"-72.77","45.37","GRANBY","7022802","2019-03-29 21:00","2019","03","29","21:00","-1.5","","-1.9","","97","","","","0","","1","","","","101.03","","","","-2","","NA"
"-72.77","45.37","GRANBY","7022802","2019-03-29 22:00","2019","03","29","22:00","-2.0","","-2.4","","97","","","","16","","2","","","","101.04","","","","-3","","NA"
"-72.77","45.37","GRANBY","7022802","2019-03-29 23:00","2019","03","29","23:00","-2.8","","-3.1","","98","","","","","","0","","","","101.02","","","","","","NA"
"-72.77","45.37","GRANBY","7022802","2019-03-30 00:00","2019","03","30","00:00","-2.9","","-3.2","","98","","","","10","","1","","","","101.06","","","","-3","","NA"
"-72.77","45.37","GRANBY","7022802","2019-03-30 01:00","2019","03","30","01:00","-3.4","","-3.9","","96","","","","","","0","","","","101.03","","","","","","NA"
"-72.77","45.37","GRANBY","7022802","2019-03-30 02:00","2019","03","30","02:00","-3.6","","-4.1","","96","","","","1","","1","","","","101.03","","","","-4","","NA"
"-72.77","45.37","GRANBY","7022802","2019-03-30 03:00","2019","03","30","03:00","-3.1","","-4.0","","94","","","","3","","3","","","","100.97","","","","-4","","NA"
"-72.77","45.37","GRANBY","7022802","2019-03-30 04:00","2019","03","30","04:00","-3.6","","-4.3","","95","","","","","","0","","","","100.95","","","","","","NA"
"-72.77","45.37","GRANBY","7022802","2019-03-30 05:00","2019","03","30","05:00","-3.4","","-4.7","","91","","","","35","","1","","","","100.89","","","","-4","","NA"
"-72.77","45.37","GRANBY","7022802","2019-03-30 06:00","2019","03","30","06:00","-2.2","","-3.5","","91","","","","1","","3","","","","100.85","","","","-3","","NA"
"-72.77","45.37","GRANBY","7022802","2019-03-30 07:00","2019","03","30","07:00","0.2","","-2.9","","80","","","","3","","2","","","","100.82","","","","","","NA"
"-72.77","45.37","GRANBY","7022802","2019-03-30 08:00","2019","03","30","08:00","1.9","","-2.6","","72","","0.0","","1","","3","","","","100.73","","","","","","NA"
"-72.77","45.37","GRANBY","7022802","2019-03-30 09:00","2019","03","30","09:00","3.0","","-2.0","","70","","0.0","","1","","2","","","","100.61","","","","","","NA"
"-72.77","45.37","GRANBY","7022802","2019-03-30 10:00","2019","03","30","10:00","2.1","","1.2","","94","","0.2","","11","","11","","","","100.48","","","","","","NA"
"-72.77","45.37","GRANBY","7022802","2019-03-30 11:00","2019","03","30","11:00","2.8","","1.5","","91","","0.0","","10","","7","","","","100.34","","","","","","NA"
"-72.77","45.37","GRANBY","7022802","2019-03-30 12:00","2019","03","30","12:00","2.8","","1.7","","93","","0.0","","1","","3","","","","100.22","","","","","","NA"
"-72.77","45.37","GRANBY","7022802","2019-03-30 13:00","2019","03","30","13:00","3.7","","3.2","","97","","0.0","","34","","1","","","","100.03","","","","","","NA"
"-72.77","45.37","GRANBY","7022802","2019-03-30 14:00","2019","03","30","14:00","8.6","","4.4","","75","","0.4","","16","","13","","","","99.86","","","","","","NA"
"-72.77","45.37","GRANBY","7022802","2019-03-30 15:00","2019","03","30","15:00","9.7","","4.2","","69","","0.0","","17","","16","","","","99.73","","","","","","NA"
"-72.77","45.37","GRANBY","7022802","2019-03-30 16:00","2019","03","30","16:00","10.5","","4.4","","66","","0.0","","17","","20","","","","99.60","","","","","","NA"
"-72.77","45.37","GRANBY","7022802","2019-03-30 17:00","2019","03","30","17:00","10.5","","4.6","","67","","0.0","","16","","16","","","","99.51","","","","","","NA"
"-72.77","45.37","GRANBY","7022802","2019-03-30 18:00","2019","03","30","18:00","11.0","","5.5","","69","","0.0","","16","","16","","","","99.52","","","","","","NA"
"-72.77","45.37","GRANBY","7022802","2019-03-30 19:00","2019","03","30","19:00","11.3","","5.7","","68","","0.0","","16","","18","","","","99.47","","","","","","NA"
"-72.77","45.37","GRANBY","7022802","2019-03-30 20:00","2019","03","30","20:00","12.4","","5.3","","62","","0.0","","16","","18","","","","99.43","","","","","","NA"
"-72.77","45.37","GRANBY","7022802","2019-03-30 21:00","2019","03","30","21:00","11.3","","5.0","","65","","0.0","","23","","9","","","","99.48","","","","","","NA"
"-72.77","45.37","GRANBY","7022802","2019-03-30 22:00","2019","03","30","22:00","11.6","","5.0","","64","","0.0","","18","","8","","","","99.37","","","","","","NA"
"-72.77","45.37","GRANBY","7022802","2019-03-30 23:00","2019","03","30","23:00","11.9","","4.9","","62","","0.0","","16","","12","","","","99.29","","","","","","NA"
"-72.77","45.37","GRANBY","7022802","2019-03-31 00:00","2019","03","31","00:00","12.2","","4.7","","60","","0.0","","16","","13","","","","99.18","","","","","","NA"
"-72.77","45.37","GRANBY","7022802","2019-03-31 01:00","2019","03","31","01:00","12.4","","4.2","","57","","0.0","","17","","11","","","","99.07","","","","","","NA"
"-72.77","45.37","GRANBY","7022802","2019-03-31 02:00","2019","03","31","02:00","12.6","","4.3","","57","","0.0","","16","","11","","","","98.96","","","","","","NA"
"-72.77","45.37","GRANBY","7022802","2019-03-31 03:00","2019","03","31","03:00","12.2","","4.5","","59","","0.0","","16","","15","","","","98.88","","","","","","NA"
"-72.77","45.37","GRANBY","7022802","2019-03-31 04:00","2019","03","31","04:00","12.3","","4.6","","59","","0.0","","15","","18","","","","98.78","","","","","","NA"
"-72.77","45.37","GRANBY","7022802","2019-03-31 05:00","2019","03","31","05:00","12.2","","4.8","","61","","0.0","","16","","19","","","","98.72","","","","","","NA"
"-72.77","45.37","GRANBY","7022802","2019-03-31 06:00","2019","03","31","06:00","12.0","","4.7","","61","","0.0","","17","","17","","","","98.71","","","","","","NA"
"-72.77","45.37","GRANBY","7022802","2019-03-31 07:00","2019","03","31","07:00","12.7","","5.2","","60","","0.0","","17","","17","","","","98.71","","","","","","NA"
"-72.77","45.37","GRANBY","7022802","2019-03-31 08:00","2019","03","31","08:00","1.8","","1.3","","96","","0.0","","25","","11","","","","98.94","","","","","","NA"
"-72.77","45.37","GRANBY","7022802","2019-03-31 09:00","2019","03","31","09:00","2.0","","1.7","","98","","1.6","","15","","5","","","","98.99","","","","","","NA"
"-72.77","45.37","GRANBY","7022802","2019-03-31 10:00","2019","03","31","10:00","1.6","","1.3","","98","","2.4","","24","","14","","","","99.16","","","","","","NA"
"-72.77","45.37","GRANBY","7022802","2019-03-31 11:00","2019","03","31","11:00","1.5","","1.2","","98","","2.2","","23","","11","","","","99.21","","","","","","NA"
"-72.77","45.37","GRANBY","7022802","2019-03-31 12:00","2019","03","31","12:00","0.5","","0.2","","98","","","","23","","12","","","","99.34","","","","","","NA"
"-72.77","45.37","GRANBY","7022802","2019-03-31 13:00","2019","03","31","13:00","0.3","","-0.6","","94","","","","24","","19","","","","99.41","","","","","","NA"
"-72.77","45.37","GRANBY","7022802","2019-03-31 14:00","2019","03","31","14:00","1.0","","-1.0","","86","","0.0","","24","","19","","","","99.46","","","","","","NA"
"-72.77","45.37","GRANBY","7022802","2019-03-31 15:00","2019","03","31","15:00","0.9","","-1.2","","86","","0.0","","23","","14","","","","99.54","","","","","","NA"
"-72.77","45.37","GRANBY","7022802","2019-03-31 16:00","2019","03","31","16:00","0.9","","-1.7","","82","","0.0","","25","","15","","","","99.58","","","","","","NA"
"-72.77","45.37","GRANBY","7022802","2019-03-31 17:00","2019","03","31","17:00","0.8","","-1.8","","82","","0.0","","24","","10","","","","99.67","","","","","","NA"
"-72.77","45.37","GRANBY","7022802","2019-03-31 18:00","2019","03","31","18:00","0.8","","-1.6","","84","","0.0","","25","","10","","","","99.72","","","","","","NA"
"-72.77","45.37","GRANBY","7022802","2019-03-31 19:00","2019","03","31","19:00","0.5","","-1.1","","89","","","","26","","8","","","","99.77","","","","","","NA"
"-72.77","45.37","GRANBY","7022802","2019-03-31 20:00","2019","03","31","20:00","0.0","","-0.7","","95","","","","27","","11","","","","99.82","","","","-4","","NA"
"-72.77","45.37","GRANBY","7022802","2019-03-31 21:00","2019","03","31","21:00","-0.4","","-0.9","","97","","","","30","","7","","","","99.84","","","","-3","","NA"
"-72.77","45.37","GRANBY","7022802","2019-03-31 22:00","2019","03","31","22:00","-1.0","","-1.5","","96","","","","30","","8","","","","99.85","","","","-4","","NA"
"-72.77","45.37","GRANBY","7022802","2019-03-31 23:00","2019","03","31","23:00","-0.9","","-2.1","","92","","","","31","","11","","","","99.89","","","","-5","","NA"
