"Longitude (x)","Latitude (y)","Station Name","Climate ID","Date/Time (LST)","Year","Month","Day","Time (LST)","Temp (°C)","Temp Flag","Dew Point Temp (°C)","Dew Point Temp Flag","Rel Hum (%)","Rel Hum Flag","Precip. Amount (mm)","Precip. Amount Flag","Wind Dir (10s deg)","Wind Dir Flag","Wind Spd (km/h)","Wind Spd Flag","Visibility (km)","Visibility Flag","Stn Press (kPa)","Stn Press Flag","Hmdx","Hmdx Flag","Wind Chill","Wind Chill Flag","Weather"
"-102.97","49.22","ESTEVAN A","4012400","2012-02-01 00:00","2012","02","01","00:00","-3.3","","-4.5","","91","","","","22","","11","","24.1","","94.24","","","","-8","","Mainly Clear"
"-102.97","49.22","ESTEVAN A","4012400","2012-02-01 01:00","2012","02","01","01:00","-3.1","","-4.5","","90","","","","17","","9","","24.1","","94.23","","","","-7","","Mainly Clear"
"-102.97","49.22","ESTEVAN A","4012400","2012-02-01 02:00","2012","02","01","02:00","-2.5","","-3.9","","90","","","","21","","17","","24.1","","94.22","","","","-8","","Mainly Clear"
"-102.97","49.22","ESTEVAN A","4012400","2012-02-01 03:00","2012","02","01","03:00","-2.9","","-4.5","","89","","","","22","","9","","24.1","","94.25","","","","-6","","Mainly Clear"
"-102.97","49.22","ESTEVAN A","4012400","2012-02-01 04:00","2012","02","01","04:00","-2.6","","-4.7","","85","","","","23","","20","","24.1","","94.25","","","","-9","","Mostly Cloudy"
"-102.97","49.22","ESTEVAN A","4012400","2012-02-01 05:00","2012","02","01","05:00","-2.5","","-4.2","","88","","","","23","","15","","24.1","","94.28","","","","-7","","Mostly Cloudy"
"-102.97","49.22","ESTEVAN A","4012400","2012-02-01 06:00","2012","02","01","06:00","-2.8","","-4.8","","86","","","","24","","11","","24.1","","94.33","","","","-7","","Mostly Cloudy"
"-102.97","49.22","ESTEVAN A","4012400","2012-02-01 07:00","2012","02","01","07:00","-4.0","","-5.8","","87","","","","25","","13","","24.1","","94.36","","","","-9","","Clear"
"-102.97","49.22","ESTEVAN A","4012400","2012-02-01 08:00","2012","02","01","08:00","-5.4","","-6.6","","91","","","","23","","11","","24.1","","94.42","","","","-10","","Clear"
"-102.97","49.22","ESTEVAN A","4012400","2012-02-01 09:00","2012","02","01","09:00","-3.2","","-4.1","","93","","","","27","","28","","24.1","","94.53","","","","-10","","Cloudy"
"-102.97","49.22","ESTEVAN A","4012400","2012-02-01 10:00","2012","02","01","10:00","-2.9","","-3.2","","98","","","","30","","30","","4.0","","94.56","","","","-10","","Fog"
"-102.97","49.22","ESTEVAN A","4012400","2012-02-01 11:00","2012","02","01","11:00","-2.6","","-2.8","","99","","","","29","","22","","4.8","","94.65","","","","-9","","Fog"
"-102.97","49.22","ESTEVAN A","4012400","2012-02-01 12:00","2012","02","01","12:00","-1.4","","-2.6","","92","","","","30","","32","","19.3","","94.70","","","","-9","","Mostly Cloudy"
"-102.97","49.22","ESTEVAN A","4012400","2012-02-01 13:00","2012","02","01","13:00","0.1","","-1.7","","88","","","","30","","19","","24.1","","94.70","","","","","","Mainly Clear"
"-102.97","49.22","ESTEVAN A","4012400","2012-02-01 14:00","2012","02","01","14:00","1.5","","-1.5","","80","","","","30","","19","","24.1","","94.71","","","","","","Mainly Clear"
"-102.97","49.22","ESTEVAN A","4012400","2012-02-01 15:00","2012","02","01","15:00","2.0","","-1.8","","76","","","","31","","7","","24.1","","94.76","","","","","","Mainly Clear"
"-102.97","49.22","ESTEVAN A","4012400","2012-02-01 16:00","2012","02","01","16:00","3.0","","-1.4","","73","","","","27","","7","","24.1","","94.81","","","","","","Mostly Cloudy"
"-102.97","49.22","ESTEVAN A","4012400","2012-02-01 17:00","2012","02","01","17:00","2.4","","-1.7","","74","","","","","","0","","24.1","","94.83","","","","","","Mainly Clear"
"-102.97","49.22","ESTEVAN A","4012400","2012-02-01 18:00","2012","02","01","18:00","-0.6","","-1.9","","91","","","","","","0","","24.1","","94.86","","","","","","Mostly Cloudy"
"-102.97","49.22","ESTEVAN A","4012400","2012-02-01 19:00","2012","02","01","19:00","-1.6","","-2.4","","94","","","","17","","7","","24.1","","94.88","","","","-4","","Mostly Cloudy"
"-102.97","49.22","ESTEVAN A","4012400","2012-02-01 20:00","2012","02","01","20:00","-2.7","","-3.1","","97","","","","15","","11","","24.1","","94.89","","","","-7","","Mostly Cloudy"
"-102.97","49.22","ESTEVAN A","4012400","2012-02-01 21:00","2012","02","01","21:00","-3.9","","-4.6","","95","","","","14","","9","","24.1","","94.88","","","","-8","","Mostly Cloudy"
"-102.97","49.22","ESTEVAN A","4012400","2012-02-01 22:00","2012","02","01","22:00","-4.7","","-5.2","","96","","","","13","","11","","24.1","","94.91","","","","-9","","Mostly Cloudy"
"-102.97","49.22","ESTEVAN A","4012400","2012-02-01 23:00","2012","02","01","23:00","-4.5","","-5.1","","96","","","","12","","6","","24.1","","94.93","","","","-7","","Mostly Cloudy"
"-102.97","49.22","ESTEVAN A","4012400","2012-02-02 00:00","2012","02","02","00:00","-3.6","","-4.0","","97","","","","11","","7","","24.1","","94.98","","","","-7","","Mostly Cloudy"
"-102.97","49.22","ESTEVAN A","4012400","2012-02-02 01:00","2012","02","02","01:00","-3.0","","-3.6","","96","","","","11","","15","","24.1","","94.99","","","","-8","","Mostly Cloudy"
"-102.97","49.22","ESTEVAN A","4012400","2012-02-02 02:00","2012","02","02","02:00","-2.6","","-3.8","","91","","","","14","","13","","24.1","","94.98","","","","-7","","Mostly Cloudy"
"-102.97","49.22","ESTEVAN A","4012400","2012-02-02 03:00","2012","02","02","03:00","-2.9","","-4.5","","89","","","","11","","13","","24.1","","94.99","","","","-8","","Mostly Cloudy"
"-102.97","49.22","ESTEVAN A","4012400","2012-02-02 04:00","2012","02","02","04:00","-4.7","","-5.8","","92","","","","10","","9","","24.1","","95.00","","","","-9","","Mostly Cloudy"
"-102.97","49.22","ESTEVAN A","4012400","2012-02-02 05:00","2012","02","02","05:00","-5.1","","-6.1","","93","","","","9","","9","","24.1","","95.02","","","","-9","","Mostly Cloudy"
"-102.97","49.22","ESTEVAN A","4012400","2012-02-02 06:00","2012","02","02","06:00","-4.9","","-5.9","","93","","","","10","","11","","24.1","","95.04","","","","-9","","Cloudy"
"-102.97","49.22","ESTEVAN A","4012400","2012-02-02 07:00","2012","02","02","07:00","-3.6","","-4.6","","93","","","","9","","13","","24.1","","95.07","","","","-8","","Cloudy"
"-102.97","49.22","ESTEVAN A","4012400","2012-02-02 08:00","2012","02","02","08:00","-3.4","","-4.3","","93","","","","7","","9","","24.1","","95.12","","","","-7","","Cloudy"
"-102.97","49.22","ESTEVAN A","4012400","2012-02-02 09:00","2012","02","02","09:00","-3.6","","-4.5","","93","","","","8","","9","","9.7","","95.16","","","","-7","","Fog"
"-102.97","49.22","ESTEVAN A","4012400","2012-02-02 10:00","2012","02","02","10:00","-2.9","","-3.6","","95","","","","10","","11","","8.0","","95.18","","","","-7","","Fog"
"-102.97","49.22","ESTEVAN A","4012400","2012-02-02 11:00","2012","02","02","11:00","-1.7","","-2.7","","93","","","","11","","6","","8.0","","95.24","","","","-4","","Fog"
"-102.97","49.22","ESTEVAN A","4012400","2012-02-02 12:00","2012","02","02","12:00","-0.4","","-1.9","","90","","","","","","0","","12.9","","95.29","","","","","","Cloudy"
"-102.97","49.22","ESTEVAN A","4012400","2012-02-02 13:00","2012","02","02","13:00","0.9","","-2.1","","80","","","","","","0","","24.1","","95.31","","","","","","Cloudy"
"-102.97","49.22","ESTEVAN A","4012400","2012-02-02 14:00","2012","02","02","14:00","1.3","","-2.1","","78","","","","7","","4","","24.1","","95.31","","","","","","Cloudy"
"-102.97","49.22","ESTEVAN A","4012400","2012-02-02 15:00","2012","02","02","15:00","1.8","","-1.6","","78","","","","32","","7","","24.1","","95.38","","","","","","Cloudy"
"-102.97","49.22","ESTEVAN A","4012400","2012-02-02 16:00","2012","02","02","16:00","1.3","","-1.5","","82","","","","32","","9","","24.1","","95.46","","","","","","Mainly Clear"
"-102.97","49.22","ESTEVAN A","4012400","2012-02-02 17:00","2012","02","02","17:00","0.3","","-1.6","","87","","","","29","","9","","24.1","","95.51","","","","","","Mostly Cloudy"
"-102.97","49.22","ESTEVAN A","4012400","2012-02-02 18:00","2012","02","02","18:00","-0.8","","-1.6","","94","","","","30","","15","","24.1","","95.59","","","","-5","","Cloudy"
"-102.97","49.22","ESTEVAN A","4012400","2012-02-02 19:00","2012","02","02","19:00","-1.0","","-1.8","","94","","","","30","","13","","11.3","","95.68","","","","-5","","Cloudy"
"-102.97","49.22","ESTEVAN A","4012400","2012-02-02 20:00","2012","02","02","20:00","-1.0","","-1.8","","94","","","","29","","15","","14.5","","95.77","","","","-6","","Cloudy"
"-102.97","49.22","ESTEVAN A","4012400","2012-02-02 21:00","2012","02","02","21:00","-1.4","","-2.1","","95","","","","30","","13","","14.5","","95.85","","","","-6","","Cloudy"
"-102.97","49.22","ESTEVAN A","4012400","2012-02-02 22:00","2012","02","02","22:00","-1.6","","-2.1","","96","","","","30","","13","","6.4","","95.91","","","","-6","","Fog"
"-102.97","49.22","ESTEVAN A","4012400","2012-02-02 23:00","2012","02","02","23:00","-1.8","","-2.2","","97","","","","31","","9","","3.2","","95.92","","","","-5","","Fog"
"-102.97","49.22","ESTEVAN A","4012400","2012-02-03 00:00","2012","02","03","00:00","-1.8","","-2.3","","96","","","","31","","13","","3.2","","95.99","","","","-6","","Fog"
"-102.97","49.22","ESTEVAN A","4012400","2012-02-03 01:00","2012","02","03","01:00","-1.9","","-2.4","","96","","","","34","","9","","4.8","","96.04","","","","-5","","Fog"
"-102.97","49.22","ESTEVAN A","4012400","2012-02-03 02:00","2012","02","03","02:00","-2.1","","-2.7","","96","","","","32","","9","","6.4","","96.12","","","","-6","","Fog"
"-102.97","49.22","ESTEVAN A","4012400","2012-02-03 03:00","2012","02","03","03:00","-2.0","","-2.6","","96","","","","30","","11","","6.4","","96.20","","","","-6","","Fog"
"-102.97","49.22","ESTEVAN A","4012400","2012-02-03 04:00","2012","02","03","04:00","-2.1","","-2.6","","96","","","","30","","7","","4.8","","96.20","","","","-5","","Fog"
"-102.97","49.22","ESTEVAN A","4012400","2012-02-03 05:00","2012","02","03","05:00","-2.3","","-2.6","","98","","","","31","","13","","4.8","","96.25","","","","-7","","Fog"
"-102.97","49.22","ESTEVAN A","4012400","2012-02-03 06:00","2012","02","03","06:00","-2.5","","-2.5","","100","","","","29","","2","","2.4","","96.21","","","","-3","","Fog"
"-102.97","49.22","ESTEVAN A","4012400","2012-02-03 07:00","2012","02","03","07:00","-2.5","","-2.5","","100","","","","31","","11","","0.0","","96.27","","","","-7","","Freezing Fog"
"-102.97","49.22","ESTEVAN A","4012400","2012-02-03 08:00","2012","02","03","08:00","-2.5","","-2.6","","99","","","","32","","15","","0.4","","96.35","","","","-7","","Freezing Fog"
"-102.97","49.22","ESTEVAN A","4012400","2012-02-03 09:00","2012","02","03","09:00","-3.1","","-3.1","","100","","","","30","","7","","0.6","","96.40","","","","-6","","Freezing Fog"
"-102.97","49.22","ESTEVAN A","4012400","2012-02-03 10:00","2012","02","03","10:00","-3.6","","-3.9","","98","","","","30","","13","","0.4","","96.47","","","","-8","","Freezing Fog"
"-102.97","49.22","ESTEVAN A","4012400","2012-02-03 11:00","2012","02","03","11:00","-3.4","","-3.6","","99","","","","28","","7","","0.6","","96.47","","","","-6","","Freezing Fog"
"-102.97","49.22","ESTEVAN A","4012400","2012-02-03 12:00","2012","02","03","12:00","-3.2","","-3.4","","99","","","","26","","9","","0.6","","96.46","","","","-7","","Freezing Fog"
"-102.97","49.22","ESTEVAN A","4012400","2012-02-03 13:00","2012","02","03","13:00","-3.2","","-3.4","","99","","","","27","","7","","0.6","","96.43","","","","-6","","Freezing Fog"
"-102.97","49.22","ESTEVAN A","4012400","2012-02-03 14:00","2012","02","03","14:00","-2.9","","-3.0","","99","","","","28","","11","","1.6","","96.42","","","","-7","","Fog"
"-102.97","49.22","ESTEVAN A","4012400","2012-02-03 15:00","2012","02","03","15:00","-2.8","","-2.9","","99","","","","27","","13","","1.6","","96.39","","","","-7","","Fog"
"-102.97","49.22","ESTEVAN A","4012400","2012-02-03 16:00","2012","02","03","16:00","-2.9","","-3.0","","99","","","","27","","11","","1.6","","96.35","","","","-7","","Fog"
"-102.97","49.22","ESTEVAN A","4012400","2012-02-03 17:00","2012","02","03","17:00","-2.7","","-2.8","","99","","","","27","","13","","1.6","","96.29","","","","-7","","Fog"
"-102.97","49.22","ESTEVAN A","4012400","2012-02-03 18:00","2012","02","03","18:00","-2.8","","-3.0","","99","","","","27","","7","","0.2","","96.35","","","","-6","","Freezing Fog"
"-102.97","49.22","ESTEVAN A","4012400","2012-02-03 19:00","2012","02","03","19:00","-3.0","","-3.2","","99","","","","27","","9","","0.2","","96.34","","","","-7","","Freezing Fog"
"-102.97","49.22","ESTEVAN A","4012400","2012-02-03 20:00","2012","02","03","20:00","-3.1","","-3.3","","99","","","","21","","13","","0.2","","96.34","","","","-8","","Freezing Fog"
"-102.97","49.22","ESTEVAN A","4012400","2012-02-03 21:00","2012","02","03","21:00","-3.4","","-3.6","","99","","","","21","","15","","0.4","","96.32","","","","-9","","Freezing Fog"
"-102.97","49.22","ESTEVAN A","4012400","2012-02-03 22:00","2012","02","03","22:00","-2.8","","-3.0","","99","","","","21","","13","","0.4","","96.30","","","","-7","","Freezing Fog"
"-102.97","49.22","ESTEVAN A","4012400","2012-02-03 23:00","2012","02","03","23:00","-2.8","","-2.9","","99","","","","21","","17","","0.2","","96.29","","","","-8","","Freezing Fog"
"-102.97","49.22","ESTEVAN A","4012400","2012-02-04 00:00","2012","02","04","00:00","-3.0","","-3.2","","99","","","","23","","15","","0.2","","96.27","","","","-8","","Freezing Fog"
"-102.97","49.22","ESTEVAN A","4012400","2012-02-04 01:00","2012","02","04","01:00","-2.9","","-3.0","","99","","","","22","","15","","0.2","","96.28","","","","-8","","Freezing Fog"
"-102.97","49.22","ESTEVAN A","4012400","2012-02-04 02:00","2012","02","04","02:00","-2.8","","-2.9","","99","","","","23","","11","","0.2","","96.28","","","","-7","","Freezing Fog"
"-102.97","49.22","ESTEVAN A","4012400","2012-02-04 03:00","2012","02","04","03:00","-3.4","","-3.6","","99","","","","24","","13","","0.2","","96.29","","","","-8","","Freezing Fog"
"-102.97","49.22","ESTEVAN A","4012400","2012-02-04 04:00","2012","02","04","04:00","-3.6","","-3.9","","98","","","","24","","11","","0.2","","96.29","","","","-8","","Freezing Fog"
"-102.97","49.22","ESTEVAN A","4012400","2012-02-04 05:00","2012","02","04","05:00","-3.9","","-4.2","","98","","","","24","","13","","0.2","","96.25","","","","-9","","Freezing Fog"
"-102.97","49.22","ESTEVAN A","4012400","2012-02-04 06:00","2012","02","04","06:00","-4.3","","-4.7","","97","","","","24","","11","","0.2","","96.23","","","","-9","","Freezing Fog"
"-102.97","49.22","ESTEVAN A","4012400","2012-02-04 07:00","2012","02","04","07:00","-5.1","","-5.5","","97","","","","23","","13","","0.2","","96.24","","","","-10","","Freezing Fog"
"-102.97","49.22","ESTEVAN A","4012400","2012-02-04 08:00","2012","02","04","08:00","-5.8","","-6.3","","96","","","","22","","11","","0.2","","96.24","","","","-11","","Freezing Fog"
"-102.97","49.22","ESTEVAN A","4012400","2012-02-04 09:00","2012","02","04","09:00","-6.0","","-6.5","","96","","","","21","","13","","0.4","","96.28","","","","-11","","Freezing Fog"
"-102.97","49.22","ESTEVAN A","4012400","2012-02-04 10:00","2012","02","04","10:00","-5.7","","-6.2","","96","","","","21","","9","","0.4","","96.29","","","","-10","","Freezing Fog"
"-102.97","49.22","ESTEVAN A","4012400","2012-02-04 11:00","2012","02","04","11:00","-5.4","","-5.7","","98","","","","22","","11","","1.6","","96.27","","","","-10","","Fog"
"-102.97","49.22","ESTEVAN A","4012400","2012-02-04 12:00","2012","02","04","12:00","-3.9","","-4.3","","97","","","","22","","11","","6.4","","96.25","","","","-8","","Fog"
"-102.97","49.22","ESTEVAN A","4012400","2012-02-04 13:00","2012","02","04","13:00","-1.6","","-1.7","","99","","","","23","","11","","24.1","","96.20","","","","-5","","Mainly Clear"
"-102.97","49.22","ESTEVAN A","4012400","2012-02-04 14:00","2012","02","04","14:00","-0.6","","-0.9","","98","","","","24","","13","","24.1","","96.14","","","","-5","","Mainly Clear"
"-102.97","49.22","ESTEVAN A","4012400","2012-02-04 15:00","2012","02","04","15:00","0.4","","-0.4","","94","","","","22","","11","","24.1","","96.09","","","","","","Mainly Clear"
"-102.97","49.22","ESTEVAN A","4012400","2012-02-04 16:00","2012","02","04","16:00","0.1","","-1.1","","92","","","","22","","9","","24.1","","96.06","","","","","","Mainly Clear"
"-102.97","49.22","ESTEVAN A","4012400","2012-02-04 17:00","2012","02","04","17:00","-0.1","","-1.7","","89","","","","23","","11","","24.1","","96.04","","","","-4","","Mainly Clear"
"-102.97","49.22","ESTEVAN A","4012400","2012-02-04 18:00","2012","02","04","18:00","-2.5","","-3.1","","96","","","","21","","7","","24.1","","96.01","","","","-5","","Mainly Clear"
"-102.97","49.22","ESTEVAN A","4012400","2012-02-04 19:00","2012","02","04","19:00","-3.1","","-3.6","","96","","","","21","","9","","24.1","","96.00","","","","-7","","Mainly Clear"
"-102.97","49.22","ESTEVAN A","4012400","2012-02-04 20:00","2012","02","04","20:00","-3.9","","-4.5","","96","","","","21","","9","","24.1","","95.98","","","","-8","","Mainly Clear"
"-102.97","49.22","ESTEVAN A","4012400","2012-02-04 21:00","2012","02","04","21:00","-5.0","","-5.5","","96","","","","20","","7","","24.1","","95.96","","","","-8","","Clear"
"-102.97","49.22","ESTEVAN A","4012400","2012-02-04 22:00","2012","02","04","22:00","-5.6","","-6.1","","96","","","","20","","9","","24.1","","95.95","","","","-10","","Clear"
"-102.97","49.22","ESTEVAN A","4012400","2012-02-04 23:00","2012","02","04","23:00","-5.4","","-6.1","","95","","","","20","","13","","24.1","","95.92","","","","-11","","Clear"
"-102.97","49.22","ESTEVAN A","4012400","2012-02-05 00:00","2012","02","05","00:00","-4.9","","-5.8","","93","","","","21","","13","","24.1","","95.89","","","","-10","","Clear"
"-102.97","49.22","ESTEVAN A","4012400","2012-02-05 01:00","2012","02","05","01:00","-5.3","","-6.1","","94","","","","20","","13","","24.1","","95.86","","","","-10","","Clear"
"-102.97","49.22","ESTEVAN A","4012400","2012-02-05 02:00","2012","02","05","02:00","-4.7","","-5.8","","92","","","","21","","17","","24.1","","95.82","","","","-11","","Clear"
"-102.97","49.22","ESTEVAN A","4012400","2012-02-05 03:00","2012","02","05","03:00","-5.3","","-6.3","","93","","","","20","","13","","24.1","","95.81","","","","-10","","Clear"
"-102.97","49.22","ESTEVAN A","4012400","2012-02-05 04:00","2012","02","05","04:00","-5.8","","-6.7","","93","","","","20","","15","","24.1","","95.72","","","","-12","","Clear"
"-102.97","49.22","ESTEVAN A","4012400","2012-02-05 05:00","2012","02","05","05:00","-6.2","","-7.2","","93","","","","20","","15","","24.1","","95.65","","","","-12","","Clear"
"-102.97","49.22","ESTEVAN A","4012400","2012-02-05 06:00","2012","02","05","06:00","-6.3","","-7.4","","92","","","","20","","17","","24.1","","95.58","","","","-13","","Clear"
"-102.97","49.22","ESTEVAN A","4012400","2012-02-05 07:00","2012","02","05","07:00","-6.1","","-7.5","","90","","","","22","","13","","24.1","","95.55","","","","-11","","Clear"
"-102.97","49.22","ESTEVAN A","4012400","2012-02-05 08:00","2012","02","05","08:00","-7.4","","-8.5","","92","","","","23","","7","","8.0","","95.54","","","","-11","","Fog"
"-102.97","49.22","ESTEVAN A","4012400","2012-02-05 09:00","2012","02","05","09:00","-6.0","","-7.3","","90","","","","21","","15","","12.9","","95.46","","","","-12","","Clear"
"-102.97","49.22","ESTEVAN A","4012400","2012-02-05 10:00","2012","02","05","10:00","-4.3","","-6.0","","88","","","","21","","20","","20.9","","95.43","","","","-11","","Clear"
"-102.97","49.22","ESTEVAN A","4012400","2012-02-05 11:00","2012","02","05","11:00","-1.0","","-3.3","","84","","","","24","","17","","24.1","","95.41","","","","-6","","Clear"
"-102.97","49.22","ESTEVAN A","4012400","2012-02-05 12:00","2012","02","05","12:00","1.3","","-2.2","","77","","","","22","","17","","24.1","","95.36","","","","","","Clear"
"-102.97","49.22","ESTEVAN A","4012400","2012-02-05 13:00","2012","02","05","13:00","4.0","","-1.2","","69","","","","24","","19","","24.1","","95.28","","","","","","Clear"
"-102.97","49.22","ESTEVAN A","4012400","2012-02-05 14:00","2012","02","05","14:00","5.0","","-1.0","","65","","","","24","","22","","24.1","","95.20","","","","","","Clear"
"-102.97","49.22","ESTEVAN A","4012400","2012-02-05 15:00","2012","02","05","15:00","6.4","","-0.3","","62","","","","24","","22","","24.1","","95.12","","","","","","Clear"
"-102.97","49.22","ESTEVAN A","4012400","2012-02-05 16:00","2012","02","05","16:00","6.3","","-0.2","","63","","","","23","","17","","24.1","","95.06","","","","","","Clear"
"-102.97","49.22","ESTEVAN A","4012400","2012-02-05 17:00","2012","02","05","17:00","6.0","","-0.3","","64","","","","26","","9","","24.1","","95.05","","","","","","Clear"
"-102.97","49.22","ESTEVAN A","4012400","2012-02-05 18:00","2012","02","05","18:00","1.3","","-1.5","","82","","","","25","","7","","24.1","","95.07","","","","","","Clear"
"-102.97","49.22","ESTEVAN A","4012400","2012-02-05 19:00","2012","02","05","19:00","1.9","","-1.7","","77","","","","26","","17","","24.1","","95.06","","","","","","Clear"
"-102.97","49.22","ESTEVAN A","4012400","2012-02-05 20:00","2012","02","05","20:00","-0.6","","-2.5","","87","","","","27","","11","","24.1","","95.07","","","","-4","","Clear"
"-102.97","49.22","ESTEVAN A","4012400","2012-02-05 21:00","2012","02","05","21:00","-1.8","","-3.1","","91","","","","29","","13","","24.1","","95.10","","","","-6","","Clear"
"-102.97","49.22","ESTEVAN A","4012400","2012-02-05 22:00","2012","02","05","22:00","-2.9","","-3.9","","93","","","","27","","11","","24.1","","95.15","","","","-7","","Clear"
"-102.97","49.22","ESTEVAN A","4012400","2012-02-05 23:00","2012","02","05","23:00","-2.6","","-3.8","","91","","","","29","","15","","24.1","","95.14","","","","-8","","Clear"
"-102.97","49.22","ESTEVAN A","4012400","2012-02-06 00:00","2012","02","06","00:00","-3.3","","-4.4","","92","","","","29","","15","","24.1","","95.18","","","","-8","","Clear"
"-102.97","49.22","ESTEVAN A","4012400","2012-02-06 01:00","2012","02","06","01:00","-3.8","","-5.2","","90","","","","31","","17","","24.1","","95.25","","","","-10","","Clear"
"-102.97","49.22","ESTEVAN A","4012400","2012-02-06 02:00","2012","02","06","02:00","-4.6","","-6.0","","90","","","","31","","17","","24.1","","95.31","","","","-10","","Clear"
"-102.97","49.22","ESTEVAN A","4012400","2012-02-06 03:00","2012","02","06","03:00","-5.3","","-6.7","","90","","","","31","","19","","24.1","","95.38","","","","-12","","Clear"
"-102.97","49.22","ESTEVAN A","4012400","2012-02-06 04:00","2012","02","06","04:00","-5.9","","-7.3","","90","","","","31","","15","","24.1","","95.42","","","","-12","","Clear"
"-102.97","49.22","ESTEVAN A","4012400","2012-02-06 05:00","2012","02","06","05:00","-5.2","","-6.8","","88","","","","31","","17","","24.1","","95.47","","","","-11","","Mostly Cloudy"
"-102.97","49.22","ESTEVAN A","4012400","2012-02-06 06:00","2012","02","06","06:00","-5.2","","-6.9","","88","","","","31","","15","","24.1","","95.53","","","","-11","","Mostly Cloudy"
"-102.97","49.22","ESTEVAN A","4012400","2012-02-06 07:00","2012","02","06","07:00","-6.0","","-7.4","","90","","","","32","","13","","24.1","","95.63","","","","-11","","Clear"
"-102.97","49.22","ESTEVAN A","4012400","2012-02-06 08:00","2012","02","06","08:00","-6.4","","-7.7","","90","","","","32","","15","","24.1","","95.78","","","","-12","","Mainly Clear"
"-102.97","49.22","ESTEVAN A","4012400","2012-02-06 09:00","2012","02","06","09:00","-4.0","","-6.3","","84","","","","36","","15","","24.1","","95.90","","","","-9","","Cloudy"
"-102.97","49.22","ESTEVAN A","4012400","2012-02-06 10:00","2012","02","06","10:00","-3.1","","-6.4","","78","","","","36","","19","","24.1","","95.64","","","","-9","","Cloudy"
"-102.97","49.22","ESTEVAN A","4012400","2012-02-06 11:00","2012","02","06","11:00","-2.9","","-6.1","","79","","","","1","","15","","24.1","","96.08","","","","-8","","Cloudy"
"-102.97","49.22","ESTEVAN A","4012400","2012-02-06 12:00","2012","02","06","12:00","-2.7","","-5.9","","79","","","","36","","17","","24.1","","96.13","","","","-8","","Cloudy"
"-102.97","49.22","ESTEVAN A","4012400","2012-02-06 13:00","2012","02","06","13:00","-2.8","","-6.3","","77","","","","36","","17","","24.1","","96.18","","","","-8","","Cloudy"
"-102.97","49.22","ESTEVAN A","4012400","2012-02-06 14:00","2012","02","06","14:00","-3.4","","-6.4","","80","","","","36","","26","","24.1","","96.22","","","","-10","","Cloudy"
"-102.97","49.22","ESTEVAN A","4012400","2012-02-06 15:00","2012","02","06","15:00","-4.4","","-6.8","","83","","","","33","","26","","24.1","","96.28","","","","-12","","Cloudy"
"-102.97","49.22","ESTEVAN A","4012400","2012-02-06 16:00","2012","02","06","16:00","-4.4","","-7.2","","81","","","","36","","24","","24.1","","96.34","","","","-11","","Cloudy"
"-102.97","49.22","ESTEVAN A","4012400","2012-02-06 17:00","2012","02","06","17:00","-4.8","","-7.6","","81","","","","36","","20","","24.1","","96.40","","","","-11","","Cloudy"
"-102.97","49.22","ESTEVAN A","4012400","2012-02-06 18:00","2012","02","06","18:00","-5.0","","-7.7","","81","","","","36","","17","","24.1","","96.46","","","","-11","","Cloudy"
"-102.97","49.22","ESTEVAN A","4012400","2012-02-06 19:00","2012","02","06","19:00","-5.7","","-8.3","","82","","","","1","","20","","24.1","","96.54","","","","-12","","Snow"
"-102.97","49.22","ESTEVAN A","4012400","2012-02-06 20:00","2012","02","06","20:00","-6.0","","-8.5","","82","","","","2","","15","","24.1","","96.59","","","","-12","","Snow"
"-102.97","49.22","ESTEVAN A","4012400","2012-02-06 21:00","2012","02","06","21:00","-6.5","","-9.0","","82","","","","1","","11","","24.1","","96.66","","","","-11","","Snow"
"-102.97","49.22","ESTEVAN A","4012400","2012-02-06 22:00","2012","02","06","22:00","-7.1","","-9.0","","86","","","","2","","13","","24.1","","96.72","","","","-13","","Snow"
"-102.97","49.22","ESTEVAN A","4012400","2012-02-06 23:00","2012","02","06","23:00","-7.2","","-9.4","","84","","","","2","","9","","24.1","","96.77","","","","-12","","Snow"
"-102.97","49.22","ESTEVAN A","4012400","2012-02-07 00:00","2012","02","07","00:00","-7.6","","-9.9","","84","","","","5","","13","","24.1","","96.83","","","","-13","","Snow"
"-102.97","49.22","ESTEVAN A","4012400","2012-02-07 01:00","2012","02","07","01:00","-7.9","","-9.9","","86","","","","8","","6","","24.1","","96.84","","","","-11","","Snow"
"-102.97","49.22","ESTEVAN A","4012400","2012-02-07 02:00","2012","02","07","02:00","-8.1","","-10.5","","83","","","","35","","7","","24.1","","96.84","","","","-12","","Snow"
"-102.97","49.22","ESTEVAN A","4012400","2012-02-07 03:00","2012","02","07","03:00","-8.3","","-10.6","","83","","","","","","0","","24.1","","96.85","","","","","","Snow"
"-102.97","49.22","ESTEVAN A","4012400","2012-02-07 04:00","2012","02","07","04:00","-8.3","","-10.4","","85","","","","29","","9","","24.1","","96.83","","","","-13","","Snow"
"-102.97","49.22","ESTEVAN A","4012400","2012-02-07 05:00","2012","02","07","05:00","-8.7","","-10.5","","87","","","","35","","9","","24.1","","96.80","","","","-13","","Snow"
"-102.97","49.22","ESTEVAN A","4012400","2012-02-07 06:00","2012","02","07","06:00","-8.5","","-10.1","","88","","","","29","","6","","24.1","","96.83","","","","-12","","Snow"
"-102.97","49.22","ESTEVAN A","4012400","2012-02-07 07:00","2012","02","07","07:00","-8.8","","-10.1","","90","","","","25","","11","","24.1","","96.82","","","","-14","","Snow"
"-102.97","49.22","ESTEVAN A","4012400","2012-02-07 08:00","2012","02","07","08:00","-8.9","","-9.9","","92","","","","30","","7","","24.1","","96.85","","","","-13","","Snow"
"-102.97","49.22","ESTEVAN A","4012400","2012-02-07 09:00","2012","02","07","09:00","-9.1","","-10.3","","91","","","","25","","4","","24.1","","96.82","","","","-11","","Snow"
"-102.97","49.22","ESTEVAN A","4012400","2012-02-07 10:00","2012","02","07","10:00","-9.0","","-10.0","","92","","","","28","","7","","11.3","","96.80","","","","-13","","Snow"
"-102.97","49.22","ESTEVAN A","4012400","2012-02-07 11:00","2012","02","07","11:00","-8.8","","-10.1","","90","","","","24","","6","","12.9","","96.79","","","","-12","","Snow"
"-102.97","49.22","ESTEVAN A","4012400","2012-02-07 12:00","2012","02","07","12:00","-8.7","","-10.1","","90","","","","26","","7","","12.9","","96.77","","","","-13","","Snow"
"-102.97","49.22","ESTEVAN A","4012400","2012-02-07 13:00","2012","02","07","13:00","-7.9","","-10.2","","84","","","","22","","11","","19.3","","96.70","","","","-13","","Snow"
"-102.97","49.22","ESTEVAN A","4012400","2012-02-07 14:00","2012","02","07","14:00","-7.6","","-9.8","","84","","","","24","","13","","24.1","","96.60","","","","-13","","Snow"
"-102.97","49.22","ESTEVAN A","4012400","2012-02-07 15:00","2012","02","07","15:00","-7.7","","-9.8","","85","","","","24","","15","","24.1","","96.53","","","","-14","","Snow"
"-102.97","49.22","ESTEVAN A","4012400","2012-02-07 16:00","2012","02","07","16:00","-7.4","","-9.5","","85","","","","24","","7","","24.1","","96.50","","","","-11","","Cloudy"
"-102.97","49.22","ESTEVAN A","4012400","2012-02-07 17:00","2012","02","07","17:00","-7.6","","-9.7","","85","","","","25","","9","","24.1","","96.48","","","","-12","","Cloudy"
"-102.97","49.22","ESTEVAN A","4012400","2012-02-07 18:00","2012","02","07","18:00","-7.6","","-9.5","","86","","","","23","","11","","24.1","","96.42","","","","-13","","Cloudy"
"-102.97","49.22","ESTEVAN A","4012400","2012-02-07 19:00","2012","02","07","19:00","-7.7","","-9.7","","86","","","","25","","9","","24.1","","96.38","","","","-12","","Snow"
"-102.97","49.22","ESTEVAN A","4012400","2012-02-07 20:00","2012","02","07","20:00","-7.7","","-9.9","","84","","","","23","","9","","24.1","","96.32","","","","-12","","Snow"
"-102.97","49.22","ESTEVAN A","4012400","2012-02-07 21:00","2012","02","07","21:00","-7.6","","-9.9","","84","","","","23","","15","","24.1","","96.26","","","","-14","","Snow"
"-102.97","49.22","ESTEVAN A","4012400","2012-02-07 22:00","2012","02","07","22:00","-8.1","","-10.0","","86","","","","26","","7","","24.1","","96.21","","","","-12","","Snow"
"-102.97","49.22","ESTEVAN A","4012400","2012-02-07 23:00","2012","02","07","23:00","-8.4","","-10.4","","85","","","","23","","19","","24.1","","96.19","","","","-16","","Snow"
"-102.97","49.22","ESTEVAN A","4012400","2012-02-08 00:00","2012","02","08","00:00","-10.1","","-11.3","","91","","","","23","","9","","24.1","","96.16","","","","-15","","Clear"
"-102.97","49.22","ESTEVAN A","4012400","2012-02-08 01:00","2012","02","08","01:00","-9.0","","-10.6","","88","","","","23","","17","","24.1","","96.11","","","","-16","","Cloudy"
"-102.97","49.22","ESTEVAN A","4012400","2012-02-08 02:00","2012","02","08","02:00","-9.1","","-10.7","","88","","","","24","","19","","24.1","","96.05","","","","-17","","Snow"
"-102.97","49.22","ESTEVAN A","4012400","2012-02-08 03:00","2012","02","08","03:00","-9.0","","-10.5","","89","","","","24","","13","","24.1","","96.02","","","","-15","","Snow"
"-102.97","49.22","ESTEVAN A","4012400","2012-02-08 04:00","2012","02","08","04:00","-8.9","","-10.3","","90","","","","24","","17","","24.1","","95.94","","","","-16","","Snow"
"-102.97","49.22","ESTEVAN A","4012400","2012-02-08 05:00","2012","02","08","05:00","-8.7","","-10.4","","87","","","","24","","13","","24.1","","95.87","","","","-15","","Snow"
"-102.97","49.22","ESTEVAN A","4012400","2012-02-08 06:00","2012","02","08","06:00","-8.7","","-10.3","","88","","","","24","","19","","24.1","","95.81","","","","-16","","Snow"
"-102.97","49.22","ESTEVAN A","4012400","2012-02-08 07:00","2012","02","08","07:00","-8.8","","-10.2","","90","","","","23","","24","","24.1","","95.75","","","","-17","","Snow"
"-102.97","49.22","ESTEVAN A","4012400","2012-02-08 08:00","2012","02","08","08:00","-8.9","","-10.2","","90","","","","26","","17","","24.1","","95.73","","","","-16","","Snow"
"-102.97","49.22","ESTEVAN A","4012400","2012-02-08 09:00","2012","02","08","09:00","-8.7","","-10.1","","90","","","","24","","19","","12.9","","95.73","","","","-16","","Snow"
"-102.97","49.22","ESTEVAN A","4012400","2012-02-08 10:00","2012","02","08","10:00","-8.4","","-10.0","","88","","","","24","","13","","12.9","","95.70","","","","-14","","Snow"
"-102.97","49.22","ESTEVAN A","4012400","2012-02-08 11:00","2012","02","08","11:00","-8.1","","-9.8","","88","","","","22","","11","","12.9","","95.65","","","","-13","","Cloudy"
"-102.97","49.22","ESTEVAN A","4012400","2012-02-08 12:00","2012","02","08","12:00","-7.5","","-9.3","","87","","","","22","","22","","11.3","","95.59","","","","-15","","Cloudy"
"-102.97","49.22","ESTEVAN A","4012400","2012-02-08 13:00","2012","02","08","13:00","-6.7","","-9.1","","83","","","","22","","22","","12.9","","95.51","","","","-14","","Mostly Cloudy"
"-102.97","49.22","ESTEVAN A","4012400","2012-02-08 14:00","2012","02","08","14:00","-5.2","","-8.6","","77","","","","25","","15","","16.1","","95.42","","","","-11","","Mostly Cloudy"
"-102.97","49.22","ESTEVAN A","4012400","2012-02-08 15:00","2012","02","08","15:00","-3.5","","-8.0","","71","","","","22","","20","","24.1","","95.31","","","","-10","","Mainly Clear"
"-102.97","49.22","ESTEVAN A","4012400","2012-02-08 16:00","2012","02","08","16:00","-2.4","","-7.5","","68","","","","22","","19","","24.1","","95.24","","","","-8","","Mainly Clear"
"-102.97","49.22","ESTEVAN A","4012400","2012-02-08 17:00","2012","02","08","17:00","-1.9","","-6.9","","69","","","","22","","19","","24.1","","95.16","","","","-7","","Mainly Clear"
"-102.97","49.22","ESTEVAN A","4012400","2012-02-08 18:00","2012","02","08","18:00","-3.1","","-6.8","","76","","","","21","","15","","24.1","","95.09","","","","-8","","Mainly Clear"
"-102.97","49.22","ESTEVAN A","4012400","2012-02-08 19:00","2012","02","08","19:00","-4.5","","-7.3","","81","","","","22","","15","","24.1","","95.00","","","","-10","","Mainly Clear"
"-102.97","49.22","ESTEVAN A","4012400","2012-02-08 20:00","2012","02","08","20:00","-5.2","","-7.5","","84","","","","20","","17","","24.1","","94.93","","","","-11","","Mainly Clear"
"-102.97","49.22","ESTEVAN A","4012400","2012-02-08 21:00","2012","02","08","21:00","-5.5","","-7.8","","84","","","","21","","19","","24.1","","94.87","","","","-12","","Mainly Clear"
"-102.97","49.22","ESTEVAN A","4012400","2012-02-08 22:00","2012","02","08","22:00","-6.8","","-8.6","","87","","","","22","","11","","24.1","","94.83","","","","-12","","Mainly Clear"
"-102.97","49.22","ESTEVAN A","4012400","2012-02-08 23:00","2012","02","08","23:00","-7.1","","-8.8","","88","","","","20","","13","","24.1","","94.75","","","","-13","","Mainly Clear"
"-102.97","49.22","ESTEVAN A","4012400","2012-02-09 00:00","2012","02","09","00:00","-7.8","","-9.2","","90","","","","20","","9","","24.1","","94.65","","","","-12","","Mostly Cloudy"
"-102.97","49.22","ESTEVAN A","4012400","2012-02-09 01:00","2012","02","09","01:00","-8.4","","-9.6","","91","","","","20","","11","","24.1","","94.54","","","","-14","","Mainly Clear"
"-102.97","49.22","ESTEVAN A","4012400","2012-02-09 02:00","2012","02","09","02:00","-7.2","","-8.5","","90","","","","21","","13","","24.1","","94.45","","","","-13","","Mainly Clear"
"-102.97","49.22","ESTEVAN A","4012400","2012-02-09 03:00","2012","02","09","03:00","-6.8","","-8.2","","90","","","","22","","19","","24.1","","94.36","","","","-14","","Mostly Cloudy"
"-102.97","49.22","ESTEVAN A","4012400","2012-02-09 04:00","2012","02","09","04:00","-7.0","","-8.5","","89","","","","24","","13","","24.1","","94.33","","","","-13","","Mainly Clear"
"-102.97","49.22","ESTEVAN A","4012400","2012-02-09 05:00","2012","02","09","05:00","-7.6","","-9.0","","90","","","","24","","13","","24.1","","94.34","","","","-13","","Mostly Cloudy"
"-102.97","49.22","ESTEVAN A","4012400","2012-02-09 06:00","2012","02","09","06:00","-8.0","","-9.4","","90","","","","29","","19","","24.1","","94.36","","","","-15","","Mostly Cloudy"
"-102.97","49.22","ESTEVAN A","4012400","2012-02-09 07:00","2012","02","09","07:00","-8.0","","-9.5","","89","","","","30","","19","","24.1","","94.43","","","","-15","","Mostly Cloudy"
"-102.97","49.22","ESTEVAN A","4012400","2012-02-09 08:00","2012","02","09","08:00","-9.1","","-10.3","","91","","","","30","","13","","24.1","","94.51","","","","-15","","Mostly Cloudy"
"-102.97","49.22","ESTEVAN A","4012400","2012-02-09 09:00","2012","02","09","09:00","-8.2","","-9.7","","89","","","","33","","19","","24.1","","94.70","","","","-15","","Mostly Cloudy"
"-102.97","49.22","ESTEVAN A","4012400","2012-02-09 10:00","2012","02","09","10:00","-6.8","","-8.3","","89","","","","34","","26","","24.1","","94.85","","","","-15","","Cloudy"
"-102.97","49.22","ESTEVAN A","4012400","2012-02-09 11:00","2012","02","09","11:00","-7.0","","-8.8","","87","","","","2","","26","","9.7","","95.00","","","","-15","","Snow,Fog"
"-102.97","49.22","ESTEVAN A","4012400","2012-02-09 12:00","2012","02","09","12:00","-9.3","","-12.4","","78","","","","35","","28","","12.9","","95.20","","","","-18","","Snow"
"-102.97","49.22","ESTEVAN A","4012400","2012-02-09 13:00","2012","02","09","13:00","-9.3","","-14.3","","67","","","","34","","28","","16.1","","95.31","","","","-18","","Snow"
"-102.97","49.22","ESTEVAN A","4012400","2012-02-09 14:00","2012","02","09","14:00","-9.1","","-17.4","","51","","","","33","","28","","19.3","","95.37","","","","-18","","Mainly Clear"
"-102.97","49.22","ESTEVAN A","4012400","2012-02-09 15:00","2012","02","09","15:00","-9.0","","-18.0","","48","","","","33","","37","","24.1","","95.45","","","","-19","","Mostly Cloudy"
"-102.97","49.22","ESTEVAN A","4012400","2012-02-09 16:00","2012","02","09","16:00","-9.4","","-18.1","","49","","","","32","","20","","24.1","","95.50","","","","-17","","Mostly Cloudy"
"-102.97","49.22","ESTEVAN A","4012400","2012-02-09 17:00","2012","02","09","17:00","-10.3","","-18.4","","51","","","","33","","24","","24.1","","95.57","","","","-19","","Mostly Cloudy"
"-102.97","49.22","ESTEVAN A","4012400","2012-02-09 18:00","2012","02","09","18:00","-11.5","","-18.5","","56","","","","33","","22","","24.1","","95.70","","","","-20","","Mostly Cloudy"
"-102.97","49.22","ESTEVAN A","4012400","2012-02-09 19:00","2012","02","09","19:00","-12.1","","-18.1","","61","","","","32","","19","","24.1","","95.76","","","","-20","","Mostly Cloudy"
"-102.97","49.22","ESTEVAN A","4012400","2012-02-09 20:00","2012","02","09","20:00","-13.4","","-19.7","","59","","","","33","","17","","24.1","","95.83","","","","-21","","Mainly Clear"
"-102.97","49.22","ESTEVAN A","4012400","2012-02-09 21:00","2012","02","09","21:00","-14.4","","-18.8","","69","","","","33","","28","","24.1","","95.90","","","","-25","","Mainly Clear"
"-102.97","49.22","ESTEVAN A","4012400","2012-02-09 22:00","2012","02","09","22:00","-15.6","","-20.7","","65","","","","33","","19","","24.1","","95.96","","","","-25","","Clear"
"-102.97","49.22","ESTEVAN A","4012400","2012-02-09 23:00","2012","02","09","23:00","-16.9","","-21.9","","65","","","","35","","30","","24.1","","96.02","","","","-29","","Clear"
"-102.97","49.22","ESTEVAN A","4012400","2012-02-10 00:00","2012","02","10","00:00","-18.1","","-21.9","","72","","","","35","","20","","24.1","","96.08","","","","-28","","Clear"
"-102.97","49.22","ESTEVAN A","4012400","2012-02-10 01:00","2012","02","10","01:00","-18.8","","-22.2","","74","","","","34","","9","","24.1","","96.15","","","","-25","","Clear"
"-102.97","49.22","ESTEVAN A","4012400","2012-02-10 02:00","2012","02","10","02:00","-19.4","","-22.3","","78","","","","35","","11","","24.1","","96.16","","","","-27","","Clear"
"-102.97","49.22","ESTEVAN A","4012400","2012-02-10 03:00","2012","02","10","03:00","-19.9","","-22.6","","79","","","","35","","11","","24.1","","96.23","","","","-28","","Clear"
"-102.97","49.22","ESTEVAN A","4012400","2012-02-10 04:00","2012","02","10","04:00","-20.4","","-22.7","","82","","","","34","","7","","24.1","","96.31","","","","-26","","Clear"
"-102.97","49.22","ESTEVAN A","4012400","2012-02-10 05:00","2012","02","10","05:00","-20.8","","-23.0","","82","","","","34","","9","","24.1","","96.41","","","","-28","","Clear"
"-102.97","49.22","ESTEVAN A","4012400","2012-02-10 06:00","2012","02","10","06:00","-21.1","","-22.9","","85","","","","33","","4","","24.1","","96.48","","","","-25","","Clear"
"-102.97","49.22","ESTEVAN A","4012400","2012-02-10 07:00","2012","02","10","07:00","-21.6","","-23.1","","88","","","","35","","7","","24.1","","96.55","","","","-28","","Clear"
"-102.97","49.22","ESTEVAN A","4012400","2012-02-10 08:00","2012","02","10","08:00","-21.8","","-23.6","","85","","","","2","","9","","24.1","","96.57","","","","-29","","Clear"
"-102.97","49.22","ESTEVAN A","4012400","2012-02-10 09:00","2012","02","10","09:00","-21.0","","-23.0","","84","","","","3","","9","","24.1","","96.62","","","","-28","","Clear"
"-102.97","49.22","ESTEVAN A","4012400","2012-02-10 10:00","2012","02","10","10:00","-19.3","","-22.2","","78","","","","","","0","","24.1","","96.71","","","","","","Clear"
"-102.97","49.22","ESTEVAN A","4012400","2012-02-10 11:00","2012","02","10","11:00","-18.9","","-21.8","","78","","","","6","","2","","20.9","","96.74","","","","-21","","Clear"
"-102.97","49.22","ESTEVAN A","4012400","2012-02-10 12:00","2012","02","10","12:00","-18.3","","-24.6","","58","","","","35","","7","","22.5","","96.78","","","","-24","","Mainly Clear"
"-102.97","49.22","ESTEVAN A","4012400","2012-02-10 13:00","2012","02","10","13:00","-17.4","","-25.1","","51","","","","29","","9","","24.1","","96.77","","","","-24","","Mainly Clear"
"-102.97","49.22","ESTEVAN A","4012400","2012-02-10 14:00","2012","02","10","14:00","-16.0","","-24.8","","47","","","","30","","7","","24.1","","96.75","","","","-21","","Clear"
"-102.97","49.22","ESTEVAN A","4012400","2012-02-10 15:00","2012","02","10","15:00","-15.7","","-24.5","","47","","","","35","","13","","24.1","","96.70","","","","-23","","Clear"
"-102.97","49.22","ESTEVAN A","4012400","2012-02-10 16:00","2012","02","10","16:00","-15.6","","-24.0","","49","","","","32","","11","","24.1","","96.74","","","","-22","","Clear"
"-102.97","49.22","ESTEVAN A","4012400","2012-02-10 17:00","2012","02","10","17:00","-15.4","","-23.8","","49","","","","31","","11","","24.1","","96.73","","","","-22","","Clear"
"-102.97","49.22","ESTEVAN A","4012400","2012-02-10 18:00","2012","02","10","18:00","-16.3","","-23.6","","53","","","","34","","9","","24.1","","96.74","","","","-22","","Clear"
"-102.97","49.22","ESTEVAN A","4012400","2012-02-10 19:00","2012","02","10","19:00","-17.4","","-22.4","","65","","","","33","","6","","24.1","","96.77","","","","-22","","Clear"
"-102.97","49.22","ESTEVAN A","4012400","2012-02-10 20:00","2012","02","10","20:00","-17.7","","-22.6","","66","","","","34","","6","","24.1","","96.77","","","","-22","","Clear"
"-102.97","49.22","ESTEVAN A","4012400","2012-02-10 21:00","2012","02","10","21:00","-18.4","","-23.0","","67","","","","1","","6","","24.1","","96.77","","","","-23","","Clear"
"-102.97","49.22","ESTEVAN A","4012400","2012-02-10 22:00","2012","02","10","22:00","-18.7","","-23.9","","64","","","","4","","4","","24.1","","96.79","","","","-22","","Clear"
"-102.97","49.22","ESTEVAN A","4012400","2012-02-10 23:00","2012","02","10","23:00","-20.2","","-24.7","","67","","","","","","0","","24.1","","96.79","","","","","","Clear"
"-102.97","49.22","ESTEVAN A","4012400","2012-02-11 00:00","2012","02","11","00:00","-20.6","","-24.4","","72","","","","","","0","","24.1","","96.81","","","","","","Clear"
"-102.97","49.22","ESTEVAN A","4012400","2012-02-11 01:00","2012","02","11","01:00","-21.0","","-25.0","","70","","","","25","","6","","24.1","","96.84","","","","-26","","Clear"
"-102.97","49.22","ESTEVAN A","4012400","2012-02-11 02:00","2012","02","11","02:00","-21.5","","-25.3","","71","","","","25","","7","","24.1","","96.82","","","","-27","","Clear"
"-102.97","49.22","ESTEVAN A","4012400","2012-02-11 03:00","2012","02","11","03:00","-21.1","","-25.1","","70","","","","31","","7","","24.1","","96.89","","","","-27","","Clear"
"-102.97","49.22","ESTEVAN A","4012400","2012-02-11 04:00","2012","02","11","04:00","-21.8","","-25.5","","72","","","","24","","6","","24.1","","96.80","","","","-27","","Clear"
"-102.97","49.22","ESTEVAN A","4012400","2012-02-11 05:00","2012","02","11","05:00","-21.5","","-25.5","","70","","","","26","","4","","24.1","","96.80","","","","-25","","Clear"
"-102.97","49.22","ESTEVAN A","4012400","2012-02-11 06:00","2012","02","11","06:00","-21.4","","-25.1","","72","","","","25","","4","","24.1","","96.80","","","","-25","","Clear"
"-102.97","49.22","ESTEVAN A","4012400","2012-02-11 07:00","2012","02","11","07:00","-22.1","","-26.2","","69","","","","22","","2","","24.1","","96.75","","","","-24","","Clear"
"-102.97","49.22","ESTEVAN A","4012400","2012-02-11 08:00","2012","02","11","08:00","-22.2","","-25.8","","72","","","","23","","2","","24.1","","96.71","","","","-24","","Clear"
"-102.97","49.22","ESTEVAN A","4012400","2012-02-11 09:00","2012","02","11","09:00","-20.3","","-24.2","","71","","","","22","","2","","24.1","","96.69","","","","-22","","Clear"
"-102.97","49.22","ESTEVAN A","4012400","2012-02-11 10:00","2012","02","11","10:00","-17.2","","-21.4","","70","","","","19","","7","","24.1","","96.67","","","","-22","","Clear"
"-102.97","49.22","ESTEVAN A","4012400","2012-02-11 11:00","2012","02","11","11:00","-14.8","","-21.2","","58","","","","23","","13","","24.1","","96.65","","","","-22","","Clear"
"-102.97","49.22","ESTEVAN A","4012400","2012-02-11 12:00","2012","02","11","12:00","-12.5","","-20.7","","50","","","","22","","7","","24.1","","96.59","","","","-17","","Clear"
"-102.97","49.22","ESTEVAN A","4012400","2012-02-11 13:00","2012","02","11","13:00","-10.8","","-21.6","","41","","","","25","","13","","24.1","","96.52","","","","-17","","Clear"
"-102.97","49.22","ESTEVAN A","4012400","2012-02-11 14:00","2012","02","11","14:00","-9.4","","-21.1","","38","","","","26","","6","","24.1","","96.44","","","","-13","","Clear"
"-102.97","49.22","ESTEVAN A","4012400","2012-02-11 15:00","2012","02","11","15:00","-8.5","","-19.9","","39","","","","23","","7","","24.1","","96.35","","","","-12","","Clear"
"-102.97","49.22","ESTEVAN A","4012400","2012-02-11 16:00","2012","02","11","16:00","-8.1","","-21.1","","34","","","","26","","7","","24.1","","96.32","","","","-12","","Clear"
"-102.97","49.22","ESTEVAN A","4012400","2012-02-11 17:00","2012","02","11","17:00","-7.9","","-21.8","","32","","","","27","","9","","24.1","","96.23","","","","-12","","Clear"
"-102.97","49.22","ESTEVAN A","4012400","2012-02-11 18:00","2012","02","11","18:00","-9.7","","-21.5","","38","","","","","","0","","24.1","","96.15","","","","","","Clear"
"-102.97","49.22","ESTEVAN A","4012400","2012-02-11 19:00","2012","02","11","19:00","-12.6","","-20.0","","54","","","","16","","11","","24.1","","96.10","","","","-19","","Clear"
"-102.97","49.22","ESTEVAN A","4012400","2012-02-11 20:00","2012","02","11","20:00","-13.8","","-20.5","","57","","","","14","","9","","24.1","","96.05","","","","-19","","Clear"
"-102.97","49.22","ESTEVAN A","4012400","2012-02-11 21:00","2012","02","11","21:00","-14.8","","-20.8","","60","","","","15","","11","","24.1","","95.98","","","","-21","","Clear"
"-102.97","49.22","ESTEVAN A","4012400","2012-02-11 22:00","2012","02","11","22:00","-16.3","","-21.4","","65","","","","16","","11","","24.1","","95.91","","","","-23","","Clear"
"-102.97","49.22","ESTEVAN A","4012400","2012-02-11 23:00","2012","02","11","23:00","-16.8","","-21.3","","68","","","","14","","7","","24.1","","95.86","","","","-22","","Clear"
"-102.97","49.22","ESTEVAN A","4012400","2012-02-12 00:00","2012","02","12","00:00","-17.0","","-21.9","","66","","","","14","","7","","24.1","","95.73","","","","-22","","Clear"
"-102.97","49.22","ESTEVAN A","4012400","2012-02-12 01:00","2012","02","12","01:00","-17.7","","-21.8","","70","","","","14","","7","","24.1","","95.66","","","","-23","","Clear"
"-102.97","49.22","ESTEVAN A","4012400","2012-02-12 02:00","2012","02","12","02:00","-17.7","","-22.1","","68","","","","13","","9","","24.1","","95.55","","","","-24","","Clear"
"-102.97","49.22","ESTEVAN A","4012400","2012-02-12 03:00","2012","02","12","03:00","-18.1","","-22.3","","70","","","","12","","9","","24.1","","95.48","","","","-24","","Clear"
"-102.97","49.22","ESTEVAN A","4012400","2012-02-12 04:00","2012","02","12","04:00","-18.7","","-23.0","","69","","","","14","","11","","24.1","","95.38","","","","-26","","Clear"
"-102.97","49.22","ESTEVAN A","4012400","2012-02-12 05:00","2012","02","12","05:00","-17.5","","-22.2","","67","","","","12","","9","","24.1","","95.32","","","","-24","","Clear"
"-102.97","49.22","ESTEVAN A","4012400","2012-02-12 06:00","2012","02","12","06:00","-18.7","","-23.1","","68","","","","11","","11","","24.1","","95.23","","","","-26","","Clear"
"-102.97","49.22","ESTEVAN A","4012400","2012-02-12 07:00","2012","02","12","07:00","-18.7","","-22.9","","69","","","","13","","11","","24.1","","95.12","","","","-26","","Clear"
"-102.97","49.22","ESTEVAN A","4012400","2012-02-12 08:00","2012","02","12","08:00","-18.1","","-22.5","","68","","","","11","","11","","24.1","","95.04","","","","-25","","Clear"
"-102.97","49.22","ESTEVAN A","4012400","2012-02-12 09:00","2012","02","12","09:00","-15.9","","-20.4","","68","","","","13","","9","","24.1","","94.97","","","","-22","","Clear"
"-102.97","49.22","ESTEVAN A","4012400","2012-02-12 10:00","2012","02","12","10:00","-11.0","","-16.4","","64","","","","16","","11","","24.1","","94.88","","","","-17","","Clear"
"-102.97","49.22","ESTEVAN A","4012400","2012-02-12 11:00","2012","02","12","11:00","-6.7","","-13.3","","59","","","","16","","17","","24.1","","94.77","","","","-13","","Clear"
"-102.97","49.22","ESTEVAN A","4012400","2012-02-12 12:00","2012","02","12","12:00","-3.6","","-11.6","","54","","","","18","","19","","24.1","","94.68","","","","-10","","Clear"
"-102.97","49.22","ESTEVAN A","4012400","2012-02-12 13:00","2012","02","12","13:00","-1.8","","-10.7","","51","","","","17","","20","","22.5","","94.54","","","","-8","","Clear"
"-102.97","49.22","ESTEVAN A","4012400","2012-02-12 14:00","2012","02","12","14:00","-0.8","","-10.4","","48","","","","16","","20","","22.5","","94.43","","","","-6","","Clear"
"-102.97","49.22","ESTEVAN A","4012400","2012-02-12 15:00","2012","02","12","15:00","-0.4","","-10.4","","47","","","","17","","22","","22.5","","94.33","","","","-6","","Clear"
"-102.97","49.22","ESTEVAN A","4012400","2012-02-12 16:00","2012","02","12","16:00","-0.1","","-10.4","","46","","","","17","","19","","22.5","","94.29","","","","-5","","Clear"
"-102.97","49.22","ESTEVAN A","4012400","2012-02-12 17:00","2012","02","12","17:00","-0.9","","-9.7","","51","","","","17","","17","","24.1","","94.20","","","","-6","","Clear"
"-102.97","49.22","ESTEVAN A","4012400","2012-02-12 18:00","2012","02","12","18:00","-4.4","","-9.9","","65","","","","14","","13","","24.1","","94.13","","","","-9","","Mainly Clear"
"-102.97","49.22","ESTEVAN A","4012400","2012-02-12 19:00","2012","02","12","19:00","-5.9","","-10.4","","70","","","","14","","13","","24.1","","94.08","","","","-11","","Mainly Clear"
"-102.97","49.22","ESTEVAN A","4012400","2012-02-12 20:00","2012","02","12","20:00","-8.2","","-11.1","","80","","","","14","","11","","24.1","","94.05","","","","-13","","Mainly Clear"
"-102.97","49.22","ESTEVAN A","4012400","2012-02-12 21:00","2012","02","12","21:00","-9.6","","-11.8","","84","","","","14","","11","","24.1","","93.97","","","","-15","","Clear"
"-102.97","49.22","ESTEVAN A","4012400","2012-02-12 22:00","2012","02","12","22:00","-10.9","","-12.5","","88","","","","14","","15","","24.1","","93.91","","","","-18","","Clear"
"-102.97","49.22","ESTEVAN A","4012400","2012-02-12 23:00","2012","02","12","23:00","-10.1","","-12.0","","86","","","","14","","7","","24.1","","93.89","","","","-14","","Clear"
"-102.97","49.22","ESTEVAN A","4012400","2012-02-13 00:00","2012","02","13","00:00","-10.2","","-12.1","","86","","","","16","","7","","24.1","","93.84","","","","-14","","Mainly Clear"
"-102.97","49.22","ESTEVAN A","4012400","2012-02-13 01:00","2012","02","13","01:00","-8.5","","-10.7","","84","","","","15","","11","","24.1","","93.81","","","","-14","","Mostly Cloudy"
"-102.97","49.22","ESTEVAN A","4012400","2012-02-13 02:00","2012","02","13","02:00","-8.5","","-10.5","","85","","","","16","","7","","24.1","","93.76","","","","-12","","Mainly Clear"
"-102.97","49.22","ESTEVAN A","4012400","2012-02-13 03:00","2012","02","13","03:00","-9.4","","-11.1","","87","","","","16","","9","","24.1","","93.70","","","","-14","","Clear"
"-102.97","49.22","ESTEVAN A","4012400","2012-02-13 04:00","2012","02","13","04:00","-10.3","","-11.7","","89","","","","17","","7","","24.1","","93.66","","","","-14","","Mainly Clear"
"-102.97","49.22","ESTEVAN A","4012400","2012-02-13 05:00","2012","02","13","05:00","-8.1","","-10.0","","86","","","","21","","6","","24.1","","93.64","","","","-11","","Cloudy"
"-102.97","49.22","ESTEVAN A","4012400","2012-02-13 06:00","2012","02","13","06:00","-7.8","","-9.4","","88","","","","17","","4","","24.1","","93.62","","","","-10","","Cloudy"
"-102.97","49.22","ESTEVAN A","4012400","2012-02-13 07:00","2012","02","13","07:00","-7.1","","-8.9","","87","","","","21","","2","","24.1","","93.59","","","","-8","","Cloudy"
"-102.97","49.22","ESTEVAN A","4012400","2012-02-13 08:00","2012","02","13","08:00","-7.1","","-8.9","","87","","","","21","","7","","24.1","","93.57","","","","-11","","Mostly Cloudy"
"-102.97","49.22","ESTEVAN A","4012400","2012-02-13 09:00","2012","02","13","09:00","-6.2","","-8.3","","85","","","","23","","4","","24.1","","93.58","","","","-8","","Mostly Cloudy"
"-102.97","49.22","ESTEVAN A","4012400","2012-02-13 10:00","2012","02","13","10:00","-4.8","","-7.9","","79","","","","26","","13","","24.1","","93.59","","","","-10","","Mostly Cloudy"
"-102.97","49.22","ESTEVAN A","4012400","2012-02-13 11:00","2012","02","13","11:00","-4.8","","-8.4","","76","","","","26","","13","","24.1","","93.58","","","","-10","","Mostly Cloudy"
"-102.97","49.22","ESTEVAN A","4012400","2012-02-13 12:00","2012","02","13","12:00","-4.2","","-8.4","","72","","","","28","","9","","24.1","","93.55","","","","-8","","Mostly Cloudy"
"-102.97","49.22","ESTEVAN A","4012400","2012-02-13 13:00","2012","02","13","13:00","-2.5","","-8.1","","65","","","","28","","19","","24.1","","93.52","","","","-8","","Mostly Cloudy"
"-102.97","49.22","ESTEVAN A","4012400","2012-02-13 14:00","2012","02","13","14:00","-2.3","","-8.2","","64","","","","31","","11","","24.1","","93.50","","","","-6","","Mostly Cloudy"
"-102.97","49.22","ESTEVAN A","4012400","2012-02-13 15:00","2012","02","13","15:00","-0.7","","-7.4","","60","","","","29","","7","","24.1","","93.47","","","","-3","","Mostly Cloudy"
"-102.97","49.22","ESTEVAN A","4012400","2012-02-13 16:00","2012","02","13","16:00","0.2","","-6.7","","60","","","","30","","9","","24.1","","93.47","","","","","","Mostly Cloudy"
"-102.97","49.22","ESTEVAN A","4012400","2012-02-13 17:00","2012","02","13","17:00","0.1","","-6.8","","60","","","","32","","11","","24.1","","93.45","","","","","","Mostly Cloudy"
"-102.97","49.22","ESTEVAN A","4012400","2012-02-13 18:00","2012","02","13","18:00","-3.2","","-7.2","","74","","","","31","","13","","24.1","","93.48","","","","-8","","Mainly Clear"
"-102.97","49.22","ESTEVAN A","4012400","2012-02-13 19:00","2012","02","13","19:00","-5.7","","-8.2","","82","","","","29","","9","","24.1","","93.49","","","","-10","","Mainly Clear"
"-102.97","49.22","ESTEVAN A","4012400","2012-02-13 20:00","2012","02","13","20:00","-6.7","","-8.5","","87","","","","31","","9","","24.1","","93.48","","","","-11","","Mainly Clear"
"-102.97","49.22","ESTEVAN A","4012400","2012-02-13 21:00","2012","02","13","21:00","-7.9","","-9.6","","88","","","","29","","4","","24.1","","93.47","","","","-10","","Clear"
"-102.97","49.22","ESTEVAN A","4012400","2012-02-13 22:00","2012","02","13","22:00","-8.9","","-10.5","","88","","","","","","0","","24.1","","93.48","","","","","","Clear"
"-102.97","49.22","ESTEVAN A","4012400","2012-02-13 23:00","2012","02","13","23:00","-9.9","","-11.4","","89","","","","30","","6","","24.1","","93.50","","","","-13","","Clear"
"-102.97","49.22","ESTEVAN A","4012400","2012-02-14 00:00","2012","02","14","00:00","-9.8","","-10.9","","92","","","","22","","4","","24.1","","93.50","","","","-12","","Clear"
"-102.97","49.22","ESTEVAN A","4012400","2012-02-14 01:00","2012","02","14","01:00","-10.4","","-11.5","","92","","","","23","","9","","24.1","","93.49","","","","-15","","Clear"
"-102.97","49.22","ESTEVAN A","4012400","2012-02-14 02:00","2012","02","14","02:00","-10.5","","-11.6","","92","","","","23","","11","","24.1","","93.49","","","","-16","","Clear"
"-102.97","49.22","ESTEVAN A","4012400","2012-02-14 03:00","2012","02","14","03:00","-10.3","","-11.6","","90","","","","22","","7","","24.1","","93.49","","","","-14","","Mainly Clear"
"-102.97","49.22","ESTEVAN A","4012400","2012-02-14 04:00","2012","02","14","04:00","-8.1","","-9.4","","90","","","","24","","11","","24.1","","93.48","","","","-13","","Cloudy"
"-102.97","49.22","ESTEVAN A","4012400","2012-02-14 05:00","2012","02","14","05:00","-7.6","","-8.4","","94","","","","27","","11","","24.1","","93.49","","","","-13","","Clear"
"-102.97","49.22","ESTEVAN A","4012400","2012-02-14 06:00","2012","02","14","06:00","-7.3","","-7.9","","95","","","","28","","15","","24.1","","93.46","","","","-13","","Mainly Clear"
"-102.97","49.22","ESTEVAN A","4012400","2012-02-14 07:00","2012","02","14","07:00","-8.3","","-8.8","","96","","","","28","","15","","16.1","","93.49","","","","-15","","Clear"
"-102.97","49.22","ESTEVAN A","4012400","2012-02-14 08:00","2012","02","14","08:00","-7.4","","-7.7","","98","","","","29","","13","","6.4","","93.51","","","","-13","","Fog"
"-102.97","49.22","ESTEVAN A","4012400","2012-02-14 09:00","2012","02","14","09:00","-7.4","","-8.0","","95","","","","28","","19","","16.1","","93.57","","","","-14","","Cloudy"
"-102.97","49.22","ESTEVAN A","4012400","2012-02-14 10:00","2012","02","14","10:00","-7.0","","-7.7","","95","","","","29","","15","","24.1","","93.59","","","","-13","","Mainly Clear"
"-102.97","49.22","ESTEVAN A","4012400","2012-02-14 11:00","2012","02","14","11:00","-5.1","","-6.6","","89","","","","28","","17","","24.1","","93.61","","","","-11","","Mainly Clear"
"-102.97","49.22","ESTEVAN A","4012400","2012-02-14 12:00","2012","02","14","12:00","-4.1","","-6.0","","87","","","","28","","20","","24.1","","93.64","","","","-10","","Cloudy"
"-102.97","49.22","ESTEVAN A","4012400","2012-02-14 13:00","2012","02","14","13:00","-2.7","","-5.8","","79","","","","29","","19","","24.1","","93.63","","","","-8","","Mostly Cloudy"
"-102.97","49.22","ESTEVAN A","4012400","2012-02-14 14:00","2012","02","14","14:00","-0.1","","-5.0","","70","","","","29","","22","","24.1","","93.59","","","","-6","","Mostly Cloudy"
"-102.97","49.22","ESTEVAN A","4012400","2012-02-14 15:00","2012","02","14","15:00","-0.3","","-5.1","","70","","","","31","","24","","24.1","","93.61","","","","-6","","Mostly Cloudy"
"-102.97","49.22","ESTEVAN A","4012400","2012-02-14 16:00","2012","02","14","16:00","0.3","","-4.9","","68","","","","30","","20","","24.1","","93.64","","","","","","Mainly Clear"
"-102.97","49.22","ESTEVAN A","4012400","2012-02-14 17:00","2012","02","14","17:00","0.4","","-4.5","","70","","","","32","","20","","24.1","","93.69","","","","","","Mostly Cloudy"
"-102.97","49.22","ESTEVAN A","4012400","2012-02-14 18:00","2012","02","14","18:00","-1.3","","-4.8","","77","","","","32","","19","","24.1","","93.74","","","","-7","","Cloudy"
"-102.97","49.22","ESTEVAN A","4012400","2012-02-14 19:00","2012","02","14","19:00","-2.2","","-5.2","","80","","","","30","","17","","24.1","","93.82","","","","-8","","Cloudy"
"-102.97","49.22","ESTEVAN A","4012400","2012-02-14 20:00","2012","02","14","20:00","-2.8","","-5.8","","80","","","","30","","15","","24.1","","93.80","","","","-8","","Cloudy"
"-102.97","49.22","ESTEVAN A","4012400","2012-02-14 21:00","2012","02","14","21:00","-3.2","","-6.1","","80","","","","30","","15","","24.1","","93.78","","","","-8","","Cloudy"
"-102.97","49.22","ESTEVAN A","4012400","2012-02-14 22:00","2012","02","14","22:00","-3.3","","-6.0","","82","","","","30","","13","","24.1","","93.93","","","","-8","","Cloudy"
"-102.97","49.22","ESTEVAN A","4012400","2012-02-14 23:00","2012","02","14","23:00","-2.9","","-5.9","","80","","","","29","","15","","24.1","","93.99","","","","-8","","Cloudy"
"-102.97","49.22","ESTEVAN A","4012400","2012-02-15 00:00","2012","02","15","00:00","-3.1","","-5.3","","85","","","","30","","15","","24.1","","94.03","","","","-8","","Cloudy"
"-102.97","49.22","ESTEVAN A","4012400","2012-02-15 01:00","2012","02","15","01:00","-3.1","","-3.8","","95","","","","29","","15","","4.8","","94.09","","","","-8","","Snow"
"-102.97","49.22","ESTEVAN A","4012400","2012-02-15 02:00","2012","02","15","02:00","-3.2","","-3.8","","96","","","","28","","15","","4.8","","94.12","","","","-8","","Snow"
"-102.97","49.22","ESTEVAN A","4012400","2012-02-15 03:00","2012","02","15","03:00","-3.8","","-4.3","","96","","","","27","","13","","20.9","","94.16","","","","-9","","Snow"
"-102.97","49.22","ESTEVAN A","4012400","2012-02-15 04:00","2012","02","15","04:00","-3.4","","-4.1","","95","","","","26","","15","","24.1","","94.19","","","","-9","","Snow"
"-102.97","49.22","ESTEVAN A","4012400","2012-02-15 05:00","2012","02","15","05:00","-5.0","","-6.7","","88","","","","28","","15","","24.1","","94.24","","","","-11","","Snow"
"-102.97","49.22","ESTEVAN A","4012400","2012-02-15 06:00","2012","02","15","06:00","-6.0","","-7.8","","87","","","","28","","13","","24.1","","94.26","","","","-11","","Cloudy"
"-102.97","49.22","ESTEVAN A","4012400","2012-02-15 07:00","2012","02","15","07:00","-7.7","","-9.3","","88","","","","27","","13","","24.1","","94.30","","","","-13","","Mainly Clear"
"-102.97","49.22","ESTEVAN A","4012400","2012-02-15 08:00","2012","02","15","08:00","-9.5","","-11.1","","88","","","","27","","15","","24.1","","94.35","","","","-16","","Mainly Clear"
"-102.97","49.22","ESTEVAN A","4012400","2012-02-15 09:00","2012","02","15","09:00","-8.9","","-11.0","","85","","","","25","","11","","24.1","","94.42","","","","-14","","Mostly Cloudy"
"-102.97","49.22","ESTEVAN A","4012400","2012-02-15 10:00","2012","02","15","10:00","-6.9","","-9.9","","79","","","","24","","11","","24.1","","94.47","","","","-12","","Mostly Cloudy"
"-102.97","49.22","ESTEVAN A","4012400","2012-02-15 11:00","2012","02","15","11:00","-5.0","","-8.7","","75","","","","27","","17","","24.1","","94.51","","","","-11","","Mostly Cloudy"
"-102.97","49.22","ESTEVAN A","4012400","2012-02-15 12:00","2012","02","15","12:00","-3.2","","-8.0","","69","","","","28","","20","","24.1","","94.54","","","","-9","","Mainly Clear"
"-102.97","49.22","ESTEVAN A","4012400","2012-02-15 13:00","2012","02","15","13:00","-2.7","","-7.4","","70","","","","29","","19","","24.1","","94.53","","","","-8","","Mostly Cloudy"
"-102.97","49.22","ESTEVAN A","4012400","2012-02-15 14:00","2012","02","15","14:00","-1.0","","-6.6","","66","","","","29","","24","","24.1","","94.49","","","","-7","","Mostly Cloudy"
"-102.97","49.22","ESTEVAN A","4012400","2012-02-15 15:00","2012","02","15","15:00","-1.5","","-5.9","","72","","","","29","","24","","24.1","","94.52","","","","-8","","Cloudy"
"-102.97","49.22","ESTEVAN A","4012400","2012-02-15 16:00","2012","02","15","16:00","-1.8","","-6.4","","71","","","","30","","20","","24.1","","94.58","","","","-8","","Mostly Cloudy"
"-102.97","49.22","ESTEVAN A","4012400","2012-02-15 17:00","2012","02","15","17:00","-2.9","","-6.8","","74","","","","30","","20","","24.1","","94.63","","","","-9","","Mostly Cloudy"
"-102.97","49.22","ESTEVAN A","4012400","2012-02-15 18:00","2012","02","15","18:00","-4.6","","-7.3","","81","","","","31","","15","","24.1","","94.70","","","","-10","","Mostly Cloudy"
"-102.97","49.22","ESTEVAN A","4012400","2012-02-15 19:00","2012","02","15","19:00","-5.2","","-7.4","","84","","","","28","","11","","24.1","","94.77","","","","-10","","Cloudy"
"-102.97","49.22","ESTEVAN A","4012400","2012-02-15 20:00","2012","02","15","20:00","-4.8","","-7.1","","84","","","","28","","7","","24.1","","94.78","","","","-8","","Cloudy"
"-102.97","49.22","ESTEVAN A","4012400","2012-02-15 21:00","2012","02","15","21:00","-6.1","","-7.7","","88","","","","25","","7","","24.1","","94.79","","","","-9","","Mainly Clear"
"-102.97","49.22","ESTEVAN A","4012400","2012-02-15 22:00","2012","02","15","22:00","-6.8","","-8.0","","91","","","","24","","7","","24.1","","94.82","","","","-10","","Mainly Clear"
"-102.97","49.22","ESTEVAN A","4012400","2012-02-15 23:00","2012","02","15","23:00","-7.2","","-8.2","","93","","","","21","","7","","24.1","","94.80","","","","-11","","Clear"
"-102.97","49.22","ESTEVAN A","4012400","2012-02-16 00:00","2012","02","16","00:00","-7.2","","-8.2","","93","","","","23","","13","","24.1","","94.79","","","","-13","","Clear"
"-102.97","49.22","ESTEVAN A","4012400","2012-02-16 01:00","2012","02","16","01:00","-7.8","","-8.9","","92","","","","22","","13","","24.1","","94.78","","","","-14","","Clear"
"-102.97","49.22","ESTEVAN A","4012400","2012-02-16 02:00","2012","02","16","02:00","-8.5","","-9.4","","93","","","","20","","11","","24.1","","94.75","","","","-14","","Clear"
"-102.97","49.22","ESTEVAN A","4012400","2012-02-16 03:00","2012","02","16","03:00","-9.1","","-9.9","","94","","","","22","","11","","24.1","","94.73","","","","-15","","Clear"
"-102.97","49.22","ESTEVAN A","4012400","2012-02-16 04:00","2012","02","16","04:00","-9.4","","-10.1","","95","","","","21","","11","","24.1","","94.72","","","","-15","","Clear"
"-102.97","49.22","ESTEVAN A","4012400","2012-02-16 05:00","2012","02","16","05:00","-10.0","","-10.8","","94","","","","21","","13","","24.1","","94.69","","","","-16","","Clear"
"-102.97","49.22","ESTEVAN A","4012400","2012-02-16 06:00","2012","02","16","06:00","-10.6","","-11.5","","93","","","","22","","13","","24.1","","94.66","","","","-17","","Clear"
"-102.97","49.22","ESTEVAN A","4012400","2012-02-16 07:00","2012","02","16","07:00","-10.5","","-11.6","","92","","","","21","","11","","24.1","","94.66","","","","-16","","Mainly Clear"
"-102.97","49.22","ESTEVAN A","4012400","2012-02-16 08:00","2012","02","16","08:00","-10.5","","-11.6","","92","","","","21","","9","","24.1","","94.64","","","","-15","","Mostly Cloudy"
"-102.97","49.22","ESTEVAN A","4012400","2012-02-16 09:00","2012","02","16","09:00","-10.3","","-11.6","","90","","","","21","","6","","24.1","","94.63","","","","-14","","Mostly Cloudy"
"-102.97","49.22","ESTEVAN A","4012400","2012-02-16 10:00","2012","02","16","10:00","-7.3","","-9.5","","84","","","","25","","15","","24.1","","94.66","","","","-13","","Mainly Clear"
"-102.97","49.22","ESTEVAN A","4012400","2012-02-16 11:00","2012","02","16","11:00","-5.3","","-7.9","","82","","","","28","","9","","24.1","","94.66","","","","-9","","Mostly Cloudy"
"-102.97","49.22","ESTEVAN A","4012400","2012-02-16 12:00","2012","02","16","12:00","-3.4","","-7.4","","74","","","","31","","7","","24.1","","94.68","","","","-6","","Mostly Cloudy"
"-102.97","49.22","ESTEVAN A","4012400","2012-02-16 13:00","2012","02","16","13:00","-2.2","","-6.9","","70","","","","32","","6","","24.1","","94.68","","","","-5","","Cloudy"
"-102.97","49.22","ESTEVAN A","4012400","2012-02-16 14:00","2012","02","16","14:00","-0.9","","-6.7","","65","","","","31","","15","","24.1","","94.67","","","","-6","","Cloudy"
"-102.97","49.22","ESTEVAN A","4012400","2012-02-16 15:00","2012","02","16","15:00","-0.7","","-7.0","","62","","","","31","","19","","24.1","","94.65","","","","-6","","Mainly Clear"
"-102.97","49.22","ESTEVAN A","4012400","2012-02-16 16:00","2012","02","16","16:00","0.1","","-6.9","","59","","","","31","","17","","24.1","","94.67","","","","","","Mainly Clear"
"-102.97","49.22","ESTEVAN A","4012400","2012-02-16 17:00","2012","02","16","17:00","-0.6","","-7.1","","61","","","","31","","13","","24.1","","94.68","","","","-5","","Mainly Clear"
"-102.97","49.22","ESTEVAN A","4012400","2012-02-16 18:00","2012","02","16","18:00","-3.3","","-7.5","","73","","","","31","","9","","24.1","","94.70","","","","-7","","Clear"
"-102.97","49.22","ESTEVAN A","4012400","2012-02-16 19:00","2012","02","16","19:00","-6.1","","-8.2","","85","","","","31","","9","","24.1","","94.74","","","","-10","","Clear"
"-102.97","49.22","ESTEVAN A","4012400","2012-02-16 20:00","2012","02","16","20:00","-6.5","","-8.3","","87","","","","32","","9","","24.1","","94.75","","","","-11","","Clear"
"-102.97","49.22","ESTEVAN A","4012400","2012-02-16 21:00","2012","02","16","21:00","-6.8","","-8.3","","89","","","","32","","7","","24.1","","94.76","","","","-10","","Mainly Clear"
"-102.97","49.22","ESTEVAN A","4012400","2012-02-16 22:00","2012","02","16","22:00","-7.9","","-9.0","","92","","","","28","","13","","24.1","","94.80","","","","-14","","Mainly Clear"
"-102.97","49.22","ESTEVAN A","4012400","2012-02-16 23:00","2012","02","16","23:00","-7.5","","-8.7","","91","","","","31","","11","","24.1","","94.81","","","","-13","","Mainly Clear"
"-102.97","49.22","ESTEVAN A","4012400","2012-02-17 00:00","2012","02","17","00:00","-10.1","","-11.6","","89","","","","32","","6","","24.1","","94.85","","","","-14","","Mainly Clear"
"-102.97","49.22","ESTEVAN A","4012400","2012-02-17 01:00","2012","02","17","01:00","-10.1","","-11.1","","92","","","","30","","9","","24.1","","94.88","","","","-15","","Mainly Clear"
"-102.97","49.22","ESTEVAN A","4012400","2012-02-17 02:00","2012","02","17","02:00","-9.4","","-10.4","","92","","","","30","","7","","24.1","","94.90","","","","-13","","Mainly Clear"
"-102.97","49.22","ESTEVAN A","4012400","2012-02-17 03:00","2012","02","17","03:00","-9.3","","-10.2","","93","","","","30","","9","","24.1","","94.96","","","","-14","","Mainly Clear"
"-102.97","49.22","ESTEVAN A","4012400","2012-02-17 04:00","2012","02","17","04:00","-10.3","","-11.0","","95","","","","28","","11","","24.1","","94.99","","","","-16","","Mainly Clear"
"-102.97","49.22","ESTEVAN A","4012400","2012-02-17 05:00","2012","02","17","05:00","-10.4","","-11.0","","95","","","","29","","13","","24.1","","95.03","","","","-17","","Mainly Clear"
"-102.97","49.22","ESTEVAN A","4012400","2012-02-17 06:00","2012","02","17","06:00","-7.7","","-8.4","","95","","","","31","","9","","24.1","","95.10","","","","-12","","Mostly Cloudy"
"-102.97","49.22","ESTEVAN A","4012400","2012-02-17 07:00","2012","02","17","07:00","-6.7","","-7.5","","94","","","","28","","7","","19.3","","95.14","","","","-10","","Snow"
"-102.97","49.22","ESTEVAN A","4012400","2012-02-17 08:00","2012","02","17","08:00","-6.3","","-7.1","","94","","","","31","","15","","16.1","","95.20","","","","-12","","Snow"
"-102.97","49.22","ESTEVAN A","4012400","2012-02-17 09:00","2012","02","17","09:00","-6.9","","-7.4","","96","","","","30","","19","","1.2","","95.27","","","","-14","","Fog"
"-102.97","49.22","ESTEVAN A","4012400","2012-02-17 10:00","2012","02","17","10:00","-6.5","","-7.1","","95","","","","29","","20","","1.2","","95.32","","","","-13","","Snow,Fog"
"-102.97","49.22","ESTEVAN A","4012400","2012-02-17 11:00","2012","02","17","11:00","-6.5","","-6.9","","97","","","","30","","11","","1.2","","95.35","","","","-11","","Snow,Fog"
"-102.97","49.22","ESTEVAN A","4012400","2012-02-17 12:00","2012","02","17","12:00","-6.0","","-6.6","","96","","","","31","","9","","6.4","","95.39","","","","-10","","Fog"
"-102.97","49.22","ESTEVAN A","4012400","2012-02-17 13:00","2012","02","17","13:00","-5.4","","-6.0","","96","","","","30","","15","","11.3","","95.38","","","","-11","","Cloudy"
"-102.97","49.22","ESTEVAN A","4012400","2012-02-17 14:00","2012","02","17","14:00","-4.5","","-5.1","","96","","","","28","","13","","19.3","","95.32","","","","-10","","Cloudy"
"-102.97","49.22","ESTEVAN A","4012400","2012-02-17 15:00","2012","02","17","15:00","-3.8","","-5.6","","87","","","","28","","9","","24.1","","95.32","","","","-8","","Cloudy"
"-102.97","49.22","ESTEVAN A","4012400","2012-02-17 16:00","2012","02","17","16:00","-3.5","","-5.7","","85","","","","28","","4","","24.1","","95.31","","","","-5","","Cloudy"
"-102.97","49.22","ESTEVAN A","4012400","2012-02-17 17:00","2012","02","17","17:00","-3.3","","-5.8","","83","","","","30","","6","","24.1","","95.28","","","","-6","","Mostly Cloudy"
"-102.97","49.22","ESTEVAN A","4012400","2012-02-17 18:00","2012","02","17","18:00","-3.6","","-5.8","","85","","","","3","","6","","24.1","","95.24","","","","-6","","Cloudy"
"-102.97","49.22","ESTEVAN A","4012400","2012-02-17 19:00","2012","02","17","19:00","-6.6","","-7.5","","93","","","","12","","11","","24.1","","95.20","","","","-12","","Mainly Clear"
"-102.97","49.22","ESTEVAN A","4012400","2012-02-17 20:00","2012","02","17","20:00","-8.6","","-9.2","","95","","","","15","","7","","24.1","","95.17","","","","-12","","Mainly Clear"
"-102.97","49.22","ESTEVAN A","4012400","2012-02-17 21:00","2012","02","17","21:00","-8.6","","-9.1","","96","","","","15","","9","","24.1","","95.14","","","","-13","","Mainly Clear"
"-102.97","49.22","ESTEVAN A","4012400","2012-02-17 22:00","2012","02","17","22:00","-9.8","","-10.6","","94","","","","17","","6","","24.1","","95.12","","","","-13","","Mainly Clear"
"-102.97","49.22","ESTEVAN A","4012400","2012-02-17 23:00","2012","02","17","23:00","-10.1","","-10.8","","95","","","","16","","7","","24.1","","95.07","","","","-14","","Clear"
"-102.97","49.22","ESTEVAN A","4012400","2012-02-18 00:00","2012","02","18","00:00","-9.9","","-10.3","","97","","","","19","","11","","24.1","","95.05","","","","-15","","Clear"
"-102.97","49.22","ESTEVAN A","4012400","2012-02-18 01:00","2012","02","18","01:00","-9.6","","-10.3","","95","","","","12","","9","","24.1","","95.01","","","","-14","","Clear"
"-102.97","49.22","ESTEVAN A","4012400","2012-02-18 02:00","2012","02","18","02:00","-10.8","","-11.7","","93","","","","18","","9","","24.1","","94.97","","","","-16","","Clear"
"-102.97","49.22","ESTEVAN A","4012400","2012-02-18 03:00","2012","02","18","03:00","-11.9","","-12.8","","93","","","","18","","7","","24.1","","94.94","","","","-16","","Clear"
"-102.97","49.22","ESTEVAN A","4012400","2012-02-18 04:00","2012","02","18","04:00","-12.1","","-13.3","","91","","","","15","","9","","24.1","","94.86","","","","-17","","Clear"
"-102.97","49.22","ESTEVAN A","4012400","2012-02-18 05:00","2012","02","18","05:00","-12.7","","-13.7","","92","","","","14","","7","","24.1","","94.78","","","","-17","","Clear"
"-102.97","49.22","ESTEVAN A","4012400","2012-02-18 06:00","2012","02","18","06:00","-11.4","","-11.7","","98","","","","8","","7","","24.1","","94.71","","","","-16","","Clear"
"-102.97","49.22","ESTEVAN A","4012400","2012-02-18 07:00","2012","02","18","07:00","-12.9","","-14.3","","89","","","","9","","7","","24.1","","94.68","","","","-17","","Mainly Clear"
"-102.97","49.22","ESTEVAN A","4012400","2012-02-18 08:00","2012","02","18","08:00","-13.0","","-14.5","","88","","","","5","","6","","24.1","","94.67","","","","-17","","Mostly Cloudy"
"-102.97","49.22","ESTEVAN A","4012400","2012-02-18 09:00","2012","02","18","09:00","-10.8","","-12.0","","91","","","","8","","6","","19.3","","94.65","","","","-14","","Clear"
"-102.97","49.22","ESTEVAN A","4012400","2012-02-18 10:00","2012","02","18","10:00","-6.0","","-7.3","","90","","","","","","0","","24.1","","94.64","","","","","","Clear"
"-102.97","49.22","ESTEVAN A","4012400","2012-02-18 11:00","2012","02","18","11:00","-3.4","","-7.3","","74","","","","17","","9","","24.1","","94.59","","","","-7","","Clear"
"-102.97","49.22","ESTEVAN A","4012400","2012-02-18 12:00","2012","02","18","12:00","-1.9","","-7.1","","68","","","","15","","9","","24.1","","94.54","","","","-5","","Clear"
"-102.97","49.22","ESTEVAN A","4012400","2012-02-18 13:00","2012","02","18","13:00","0.5","","-6.0","","62","","","","17","","11","","24.1","","94.46","","","","","","Clear"
"-102.97","49.22","ESTEVAN A","4012400","2012-02-18 14:00","2012","02","18","14:00","2.2","","-5.0","","59","","","","12","","7","","24.1","","94.42","","","","","","Clear"
"-102.97","49.22","ESTEVAN A","4012400","2012-02-18 15:00","2012","02","18","15:00","3.1","","-4.1","","59","","","","14","","9","","24.1","","94.37","","","","","","Clear"
"-102.97","49.22","ESTEVAN A","4012400","2012-02-18 16:00","2012","02","18","16:00","4.1","","-3.8","","56","","","","14","","13","","24.1","","94.32","","","","","","Clear"
"-102.97","49.22","ESTEVAN A","4012400","2012-02-18 17:00","2012","02","18","17:00","4.1","","-2.9","","60","","","","9","","7","","24.1","","94.31","","","","","","Clear"
"-102.97","49.22","ESTEVAN A","4012400","2012-02-18 18:00","2012","02","18","18:00","0.4","","-3.5","","75","","","","7","","11","","24.1","","94.31","","","","","","Mainly Clear"
"-102.97","49.22","ESTEVAN A","4012400","2012-02-18 19:00","2012","02","18","19:00","-1.8","","-4.4","","82","","","","8","","17","","24.1","","94.31","","","","-7","","Mostly Cloudy"
"-102.97","49.22","ESTEVAN A","4012400","2012-02-18 20:00","2012","02","18","20:00","-2.7","","-4.9","","85","","","","9","","15","","24.1","","94.30","","","","-8","","Mostly Cloudy"
"-102.97","49.22","ESTEVAN A","4012400","2012-02-18 21:00","2012","02","18","21:00","-4.0","","-5.8","","87","","","","9","","17","","24.1","","94.25","","","","-10","","Mostly Cloudy"
"-102.97","49.22","ESTEVAN A","4012400","2012-02-18 22:00","2012","02","18","22:00","-4.7","","-6.3","","89","","","","10","","19","","24.1","","94.24","","","","-11","","Mainly Clear"
"-102.97","49.22","ESTEVAN A","4012400","2012-02-18 23:00","2012","02","18","23:00","-5.4","","-6.7","","91","","","","9","","11","","24.1","","94.20","","","","-10","","Mainly Clear"
"-102.97","49.22","ESTEVAN A","4012400","2012-02-19 00:00","2012","02","19","00:00","-6.6","","-7.8","","91","","","","9","","13","","24.1","","94.15","","","","-12","","Mainly Clear"
"-102.97","49.22","ESTEVAN A","4012400","2012-02-19 01:00","2012","02","19","01:00","-6.8","","-8.3","","89","","","","9","","15","","24.1","","94.11","","","","-13","","Mainly Clear"
"-102.97","49.22","ESTEVAN A","4012400","2012-02-19 02:00","2012","02","19","02:00","-6.6","","-8.3","","88","","","","9","","13","","24.1","","94.07","","","","-12","","Clear"
"-102.97","49.22","ESTEVAN A","4012400","2012-02-19 03:00","2012","02","19","03:00","-7.6","","-9.0","","90","","","","11","","6","","24.1","","94.07","","","","-11","","Clear"
"-102.97","49.22","ESTEVAN A","4012400","2012-02-19 04:00","2012","02","19","04:00","-7.2","","-8.7","","89","","","","9","","11","","24.1","","94.00","","","","-12","","Clear"
"-102.97","49.22","ESTEVAN A","4012400","2012-02-19 05:00","2012","02","19","05:00","-8.1","","-9.4","","90","","","","9","","13","","24.1","","93.97","","","","-14","","Clear"
"-102.97","49.22","ESTEVAN A","4012400","2012-02-19 06:00","2012","02","19","06:00","-8.7","","-9.8","","92","","","","11","","11","","24.1","","93.98","","","","-14","","Clear"
"-102.97","49.22","ESTEVAN A","4012400","2012-02-19 07:00","2012","02","19","07:00","-8.7","","-9.9","","91","","","","13","","6","","24.1","","93.97","","","","-12","","Clear"
"-102.97","49.22","ESTEVAN A","4012400","2012-02-19 08:00","2012","02","19","08:00","-8.1","","-9.5","","90","","","","17","","13","","24.1","","93.95","","","","-14","","Cloudy"
"-102.97","49.22","ESTEVAN A","4012400","2012-02-19 09:00","2012","02","19","09:00","-6.1","","-7.5","","90","","","","18","","7","","24.1","","93.95","","","","-9","","Cloudy"
"-102.97","49.22","ESTEVAN A","4012400","2012-02-19 10:00","2012","02","19","10:00","-2.5","","-5.0","","83","","","","23","","15","","24.1","","93.98","","","","-7","","Cloudy"
"-102.97","49.22","ESTEVAN A","4012400","2012-02-19 11:00","2012","02","19","11:00","-1.0","","-3.6","","82","","","","23","","13","","24.1","","93.96","","","","-5","","Cloudy"
"-102.97","49.22","ESTEVAN A","4012400","2012-02-19 12:00","2012","02","19","12:00","1.6","","-2.3","","75","","","","26","","11","","24.1","","93.96","","","","","","Cloudy"
"-102.97","49.22","ESTEVAN A","4012400","2012-02-19 13:00","2012","02","19","13:00","3.4","","-2.3","","66","","","","28","","13","","24.1","","93.93","","","","","","Cloudy"
"-102.97","49.22","ESTEVAN A","4012400","2012-02-19 14:00","2012","02","19","14:00","3.8","","-2.8","","62","","","","29","","13","","24.1","","93.88","","","","","","Mostly Cloudy"
"-102.97","49.22","ESTEVAN A","4012400","2012-02-19 15:00","2012","02","19","15:00","5.1","","-3.0","","56","","","","30","","7","","24.1","","93.87","","","","","","Mostly Cloudy"
"-102.97","49.22","ESTEVAN A","4012400","2012-02-19 16:00","2012","02","19","16:00","5.2","","-3.4","","54","","","","27","","4","","24.1","","93.89","","","","","","Cloudy"
"-102.97","49.22","ESTEVAN A","4012400","2012-02-19 17:00","2012","02","19","17:00","5.2","","-3.1","","55","","","","27","","4","","24.1","","93.89","","","","","","Cloudy"
"-102.97","49.22","ESTEVAN A","4012400","2012-02-19 18:00","2012","02","19","18:00","2.3","","-3.1","","67","","","","14","","6","","24.1","","93.91","","","","","","Cloudy"
"-102.97","49.22","ESTEVAN A","4012400","2012-02-19 19:00","2012","02","19","19:00","1.2","","-3.2","","72","","","","14","","13","","24.1","","93.93","","","","","","Mostly Cloudy"
"-102.97","49.22","ESTEVAN A","4012400","2012-02-19 20:00","2012","02","19","20:00","-1.0","","-3.6","","82","","","","16","","11","","24.1","","93.94","","","","-5","","Mainly Clear"
"-102.97","49.22","ESTEVAN A","4012400","2012-02-19 21:00","2012","02","19","21:00","-1.7","","-4.1","","84","","","","16","","9","","24.1","","93.95","","","","-5","","Mainly Clear"
"-102.97","49.22","ESTEVAN A","4012400","2012-02-19 22:00","2012","02","19","22:00","-1.7","","-4.1","","84","","","","19","","9","","24.1","","93.96","","","","-5","","Mainly Clear"
"-102.97","49.22","ESTEVAN A","4012400","2012-02-19 23:00","2012","02","19","23:00","-1.9","","-3.9","","86","","","","18","","11","","24.1","","93.97","","","","-6","","Clear"
"-102.97","49.22","ESTEVAN A","4012400","2012-02-20 00:00","2012","02","20","00:00","-2.9","","-4.7","","87","","","","18","","11","","24.1","","93.95","","","","-7","","Mostly Cloudy"
"-102.97","49.22","ESTEVAN A","4012400","2012-02-20 01:00","2012","02","20","01:00","-3.1","","-5.5","","83","","","","18","","11","","24.1","","93.94","","","","-7","","Cloudy"
"-102.97","49.22","ESTEVAN A","4012400","2012-02-20 02:00","2012","02","20","02:00","-4.3","","-6.1","","87","","","","20","","11","","24.1","","93.95","","","","-9","","Cloudy"
"-102.97","49.22","ESTEVAN A","4012400","2012-02-20 03:00","2012","02","20","03:00","-5.4","","-7.2","","87","","","","20","","7","","24.1","","93.95","","","","-9","","Mainly Clear"
"-102.97","49.22","ESTEVAN A","4012400","2012-02-20 04:00","2012","02","20","04:00","-5.9","","-7.7","","87","","","","20","","9","","24.1","","93.93","","","","-10","","Mainly Clear"
"-102.97","49.22","ESTEVAN A","4012400","2012-02-20 05:00","2012","02","20","05:00","-6.0","","-8.0","","86","","","","17","","7","","24.1","","93.92","","","","-9","","Mainly Clear"
"-102.97","49.22","ESTEVAN A","4012400","2012-02-20 06:00","2012","02","20","06:00","-6.9","","-8.8","","86","","","","18","","9","","24.1","","93.89","","","","-11","","Mainly Clear"
"-102.97","49.22","ESTEVAN A","4012400","2012-02-20 07:00","2012","02","20","07:00","-6.4","","-8.5","","85","","","","20","","13","","24.1","","93.88","","","","-12","","Mainly Clear"
"-102.97","49.22","ESTEVAN A","4012400","2012-02-20 08:00","2012","02","20","08:00","-6.5","","-8.6","","85","","","","26","","13","","24.1","","93.93","","","","-12","","Mainly Clear"
"-102.97","49.22","ESTEVAN A","4012400","2012-02-20 09:00","2012","02","20","09:00","-5.2","","-7.8","","82","","","","22","","7","","24.1","","93.91","","","","-8","","Mainly Clear"
"-102.97","49.22","ESTEVAN A","4012400","2012-02-20 10:00","2012","02","20","10:00","-2.4","","-6.6","","73","","","","20","","9","","24.1","","93.92","","","","-6","","Mainly Clear"
"-102.97","49.22","ESTEVAN A","4012400","2012-02-20 11:00","2012","02","20","11:00","0.1","","-5.4","","66","","","","23","","11","","24.1","","93.90","","","","","","Mainly Clear"
"-102.97","49.22","ESTEVAN A","4012400","2012-02-20 12:00","2012","02","20","12:00","1.9","","-5.1","","60","","","","24","","11","","24.1","","93.89","","","","","","Mainly Clear"
"-102.97","49.22","ESTEVAN A","4012400","2012-02-20 13:00","2012","02","20","13:00","3.6","","-4.9","","54","","","","25","","9","","24.1","","93.85","","","","","","Mainly Clear"
"-102.97","49.22","ESTEVAN A","4012400","2012-02-20 14:00","2012","02","20","14:00","4.7","","-5.2","","49","","","","24","","13","","24.1","","93.79","","","","","","Mainly Clear"
"-102.97","49.22","ESTEVAN A","4012400","2012-02-20 15:00","2012","02","20","15:00","4.4","","-4.6","","52","","","","26","","15","","24.1","","93.75","","","","","","Mainly Clear"
"-102.97","49.22","ESTEVAN A","4012400","2012-02-20 16:00","2012","02","20","16:00","3.9","","-4.7","","53","","","","28","","22","","24.1","","93.75","","","","","","Mostly Cloudy"
"-102.97","49.22","ESTEVAN A","4012400","2012-02-20 17:00","2012","02","20","17:00","1.0","","-4.1","","69","","","","29","","20","","24.1","","93.76","","","","","","Mostly Cloudy"
"-102.97","49.22","ESTEVAN A","4012400","2012-02-20 18:00","2012","02","20","18:00","-0.7","","-4.0","","78","","","","30","","20","","24.1","","93.81","","","","-6","","Mostly Cloudy"
"-102.97","49.22","ESTEVAN A","4012400","2012-02-20 19:00","2012","02","20","19:00","-0.9","","-4.9","","74","","","","32","","20","","24.1","","93.86","","","","-6","","Cloudy"
"-102.97","49.22","ESTEVAN A","4012400","2012-02-20 20:00","2012","02","20","20:00","-1.6","","-3.7","","86","","","","31","","22","","24.1","","93.91","","","","-8","","Snow"
"-102.97","49.22","ESTEVAN A","4012400","2012-02-20 21:00","2012","02","20","21:00","-1.8","","-3.5","","88","","","","30","","19","","24.1","","93.93","","","","-7","","Snow"
"-102.97","49.22","ESTEVAN A","4012400","2012-02-20 22:00","2012","02","20","22:00","-2.3","","-3.2","","94","","","","29","","17","","24.1","","93.92","","","","-8","","Snow"
"-102.97","49.22","ESTEVAN A","4012400","2012-02-20 23:00","2012","02","20","23:00","-2.7","","-3.5","","94","","","","29","","17","","24.1","","93.91","","","","-8","","Cloudy"
"-102.97","49.22","ESTEVAN A","4012400","2012-02-21 00:00","2012","02","21","00:00","-4.3","","-5.2","","93","","","","28","","13","","24.1","","93.88","","","","-9","","Mostly Cloudy"
"-102.97","49.22","ESTEVAN A","4012400","2012-02-21 01:00","2012","02","21","01:00","-3.1","","-4.9","","87","","","","28","","15","","24.1","","93.87","","","","-8","","Cloudy"
"-102.97","49.22","ESTEVAN A","4012400","2012-02-21 02:00","2012","02","21","02:00","-2.8","","-4.9","","85","","","","28","","15","","24.1","","93.82","","","","-8","","Cloudy"
"-102.97","49.22","ESTEVAN A","4012400","2012-02-21 03:00","2012","02","21","03:00","-2.8","","-4.9","","85","","","","29","","15","","24.1","","93.79","","","","-8","","Snow"
"-102.97","49.22","ESTEVAN A","4012400","2012-02-21 04:00","2012","02","21","04:00","-3.1","","-5.1","","86","","","","28","","15","","24.1","","93.75","","","","-8","","Snow"
"-102.97","49.22","ESTEVAN A","4012400","2012-02-21 05:00","2012","02","21","05:00","-3.2","","-5.2","","86","","","","29","","19","","24.1","","93.73","","","","-9","","Snow"
"-102.97","49.22","ESTEVAN A","4012400","2012-02-21 06:00","2012","02","21","06:00","-3.6","","-5.9","","84","","","","31","","17","","24.1","","93.71","","","","-9","","Snow"
"-102.97","49.22","ESTEVAN A","4012400","2012-02-21 07:00","2012","02","21","07:00","-3.9","","-6.8","","80","","","","30","","17","","24.1","","93.72","","","","-10","","Snow"
"-102.97","49.22","ESTEVAN A","4012400","2012-02-21 08:00","2012","02","21","08:00","-4.3","","-7.3","","80","","","","30","","13","","24.1","","93.70","","","","-9","","Snow"
"-102.97","49.22","ESTEVAN A","4012400","2012-02-21 09:00","2012","02","21","09:00","-3.9","","-8.3","","71","","","","30","","15","","24.1","","93.69","","","","-9","","Snow"
"-102.97","49.22","ESTEVAN A","4012400","2012-02-21 10:00","2012","02","21","10:00","-3.6","","-8.2","","70","","","","30","","22","","24.1","","93.68","","","","-10","","Cloudy"
"-102.97","49.22","ESTEVAN A","4012400","2012-02-21 11:00","2012","02","21","11:00","-3.2","","-8.6","","66","","","","31","","15","","24.1","","93.64","","","","-8","","Cloudy"
"-102.97","49.22","ESTEVAN A","4012400","2012-02-21 12:00","2012","02","21","12:00","-2.6","","-8.1","","66","","","","32","","20","","24.1","","93.61","","","","-9","","Mostly Cloudy"
"-102.97","49.22","ESTEVAN A","4012400","2012-02-21 13:00","2012","02","21","13:00","-1.3","","-7.9","","61","","","","30","","13","","24.1","","93.51","","","","-6","","Mainly Clear"
"-102.97","49.22","ESTEVAN A","4012400","2012-02-21 14:00","2012","02","21","14:00","-1.4","","-8.1","","60","","","","33","","13","","24.1","","93.42","","","","-6","","Mainly Clear"
"-102.97","49.22","ESTEVAN A","4012400","2012-02-21 15:00","2012","02","21","15:00","-1.1","","-8.1","","59","","","","28","","6","","24.1","","93.34","","","","-3","","Mainly Clear"
"-102.97","49.22","ESTEVAN A","4012400","2012-02-21 16:00","2012","02","21","16:00","-0.1","","-7.9","","56","","","","13","","6","","24.1","","93.32","","","","-2","","Mainly Clear"
"-102.97","49.22","ESTEVAN A","4012400","2012-02-21 17:00","2012","02","21","17:00","-0.2","","-7.6","","57","","","","","","0","","24.1","","93.28","","","","","","Mostly Cloudy"
"-102.97","49.22","ESTEVAN A","4012400","2012-02-21 18:00","2012","02","21","18:00","-1.2","","-6.2","","69","","","","","","0","","24.1","","93.22","","","","","","Mostly Cloudy"
"-102.97","49.22","ESTEVAN A","4012400","2012-02-21 19:00","2012","02","21","19:00","-2.6","","-6.0","","77","","","","10","","7","","24.1","","93.17","","","","-5","","Cloudy"
"-102.97","49.22","ESTEVAN A","4012400","2012-02-21 20:00","2012","02","21","20:00","-3.0","","-6.1","","79","","","","10","","11","","24.1","","93.15","","","","-7","","Mostly Cloudy"
"-102.97","49.22","ESTEVAN A","4012400","2012-02-21 21:00","2012","02","21","21:00","-3.2","","-6.3","","79","","","","11","","15","","24.1","","93.13","","","","-8","","Cloudy"
"-102.97","49.22","ESTEVAN A","4012400","2012-02-21 22:00","2012","02","21","22:00","-3.3","","-6.2","","80","","","","11","","7","","24.1","","93.09","","","","-6","","Mostly Cloudy"
"-102.97","49.22","ESTEVAN A","4012400","2012-02-21 23:00","2012","02","21","23:00","-3.9","","-6.0","","85","","","","11","","9","","24.1","","93.01","","","","-8","","Cloudy"
"-102.97","49.22","ESTEVAN A","4012400","2012-02-22 00:00","2012","02","22","00:00","-3.3","","-5.7","","83","","","","12","","7","","24.1","","92.95","","","","-6","","Cloudy"
"-102.97","49.22","ESTEVAN A","4012400","2012-02-22 01:00","2012","02","22","01:00","-2.9","","-5.3","","83","","","","21","","4","","24.1","","92.93","","","","-4","","Cloudy"
"-102.97","49.22","ESTEVAN A","4012400","2012-02-22 02:00","2012","02","22","02:00","-4.6","","-6.0","","90","","","","26","","6","","24.1","","92.88","","","","-7","","Mainly Clear"
"-102.97","49.22","ESTEVAN A","4012400","2012-02-22 03:00","2012","02","22","03:00","-3.5","","-5.0","","89","","","","27","","19","","24.1","","92.88","","","","-9","","Mainly Clear"
"-102.97","49.22","ESTEVAN A","4012400","2012-02-22 04:00","2012","02","22","04:00","-3.5","","-5.2","","88","","","","28","","19","","24.1","","92.91","","","","-9","","Mainly Clear"
"-102.97","49.22","ESTEVAN A","4012400","2012-02-22 05:00","2012","02","22","05:00","-4.7","","-5.9","","91","","","","29","","17","","24.1","","92.85","","","","-11","","Mainly Clear"
"-102.97","49.22","ESTEVAN A","4012400","2012-02-22 06:00","2012","02","22","06:00","-5.2","","-6.2","","93","","","","28","","17","","24.1","","92.94","","","","-11","","Mainly Clear"
"-102.97","49.22","ESTEVAN A","4012400","2012-02-22 07:00","2012","02","22","07:00","-5.4","","-6.4","","93","","","","30","","15","","24.1","","93.00","","","","-11","","Mainly Clear"
"-102.97","49.22","ESTEVAN A","4012400","2012-02-22 08:00","2012","02","22","08:00","-6.1","","-7.0","","93","","","","25","","9","","24.1","","92.95","","","","-10","","Mostly Cloudy"
"-102.97","49.22","ESTEVAN A","4012400","2012-02-22 09:00","2012","02","22","09:00","-4.3","","-5.6","","91","","","","26","","11","","24.1","","92.90","","","","-9","","Mostly Cloudy"
"-102.97","49.22","ESTEVAN A","4012400","2012-02-22 10:00","2012","02","22","10:00","-2.8","","-4.6","","87","","","","24","","13","","24.1","","92.91","","","","-7","","Mostly Cloudy"
"-102.97","49.22","ESTEVAN A","4012400","2012-02-22 11:00","2012","02","22","11:00","-1.1","","-3.8","","82","","","","24","","13","","24.1","","92.88","","","","-5","","Mostly Cloudy"
"-102.97","49.22","ESTEVAN A","4012400","2012-02-22 12:00","2012","02","22","12:00","0.4","","-3.2","","77","","","","21","","13","","24.1","","92.79","","","","","","Mostly Cloudy"
"-102.97","49.22","ESTEVAN A","4012400","2012-02-22 13:00","2012","02","22","13:00","1.9","","-2.9","","70","","","","22","","9","","24.1","","92.68","","","","","","Mostly Cloudy"
"-102.97","49.22","ESTEVAN A","4012400","2012-02-22 14:00","2012","02","22","14:00","3.4","","-2.7","","64","","","","20","","9","","24.1","","92.59","","","","","","Mostly Cloudy"
"-102.97","49.22","ESTEVAN A","4012400","2012-02-22 15:00","2012","02","22","15:00","4.9","","-3.4","","55","","","","16","","6","","24.1","","92.53","","","","","","Mostly Cloudy"
"-102.97","49.22","ESTEVAN A","4012400","2012-02-22 16:00","2012","02","22","16:00","5.2","","-4.4","","50","","","","26","","4","","24.1","","92.51","","","","","","Mostly Cloudy"
"-102.97","49.22","ESTEVAN A","4012400","2012-02-22 17:00","2012","02","22","17:00","4.8","","-5.1","","49","","","","18","","4","","24.1","","92.47","","","","","","Mostly Cloudy"
"-102.97","49.22","ESTEVAN A","4012400","2012-02-22 18:00","2012","02","22","18:00","2.4","","-4.5","","60","","","","","","0","","24.1","","92.52","","","","","","Mostly Cloudy"
"-102.97","49.22","ESTEVAN A","4012400","2012-02-22 19:00","2012","02","22","19:00","1.4","","-4.2","","66","","","","6","","4","","24.1","","92.60","","","","","","Mostly Cloudy"
"-102.97","49.22","ESTEVAN A","4012400","2012-02-22 20:00","2012","02","22","20:00","0.6","","-4.3","","70","","","","6","","6","","24.1","","92.62","","","","","","Cloudy"
"-102.97","49.22","ESTEVAN A","4012400","2012-02-22 21:00","2012","02","22","21:00","0.0","","-4.4","","72","","","","8","","4","","24.1","","92.64","","","","-1","","Mostly Cloudy"
"-102.97","49.22","ESTEVAN A","4012400","2012-02-22 22:00","2012","02","22","22:00","-0.5","","-3.5","","80","","","","29","","11","","24.1","","92.72","","","","-4","","Cloudy"
"-102.97","49.22","ESTEVAN A","4012400","2012-02-22 23:00","2012","02","22","23:00","-0.3","","-2.6","","84","","","","","","0","","24.1","","92.78","","","","","","Cloudy"
"-102.97","49.22","ESTEVAN A","4012400","2012-02-23 00:00","2012","02","23","00:00","-0.6","","-1.5","","94","","","","33","","13","","6.4","","92.88","","","","-5","","Snow"
"-102.97","49.22","ESTEVAN A","4012400","2012-02-23 01:00","2012","02","23","01:00","-0.9","","-1.3","","97","","","","32","","13","","2.4","","92.95","","","","-5","","Snow"
"-102.97","49.22","ESTEVAN A","4012400","2012-02-23 02:00","2012","02","23","02:00","-1.3","","-2.0","","95","","","","30","","19","","16.1","","93.00","","","","-7","","Snow"
"-102.97","49.22","ESTEVAN A","4012400","2012-02-23 03:00","2012","02","23","03:00","-1.7","","-2.5","","94","","","","30","","19","","19.3","","93.08","","","","-7","","Snow"
"-102.97","49.22","ESTEVAN A","4012400","2012-02-23 04:00","2012","02","23","04:00","-4.0","","-4.8","","94","","","","29","","17","","24.1","","93.15","","","","-10","","Mostly Cloudy"
"-102.97","49.22","ESTEVAN A","4012400","2012-02-23 05:00","2012","02","23","05:00","-5.8","","-6.7","","93","","","","30","","17","","24.1","","93.25","","","","-12","","Mainly Clear"
"-102.97","49.22","ESTEVAN A","4012400","2012-02-23 06:00","2012","02","23","06:00","-3.6","","-4.3","","95","","","","29","","19","","24.1","","93.35","","","","-10","","Snow"
"-102.97","49.22","ESTEVAN A","4012400","2012-02-23 07:00","2012","02","23","07:00","-4.1","","-5.2","","92","","","","29","","26","","24.1","","93.44","","","","-11","","Snow"
"-102.97","49.22","ESTEVAN A","4012400","2012-02-23 08:00","2012","02","23","08:00","-4.6","","-5.7","","92","","","","29","","22","","24.1","","93.55","","","","-11","","Snow"
"-102.97","49.22","ESTEVAN A","4012400","2012-02-23 09:00","2012","02","23","09:00","-3.3","","-5.0","","88","","","","29","","24","","24.1","","93.62","","","","-10","","Snow"
"-102.97","49.22","ESTEVAN A","4012400","2012-02-23 10:00","2012","02","23","10:00","-3.3","","-5.3","","86","","","","30","","26","","16.1","","93.71","","","","-10","","Snow"
"-102.97","49.22","ESTEVAN A","4012400","2012-02-23 11:00","2012","02","23","11:00","-4.0","","-7.5","","77","","","","32","","28","","16.1","","93.81","","","","-11","","Snow"
"-102.97","49.22","ESTEVAN A","4012400","2012-02-23 12:00","2012","02","23","12:00","-3.7","","-7.2","","77","","","","30","","26","","24.1","","93.88","","","","-11","","Snow"
"-102.97","49.22","ESTEVAN A","4012400","2012-02-23 13:00","2012","02","23","13:00","-2.8","","-6.9","","73","","","","31","","20","","24.1","","93.90","","","","-9","","Snow"
"-102.97","49.22","ESTEVAN A","4012400","2012-02-23 14:00","2012","02","23","14:00","-3.3","","-7.1","","75","","","","30","","26","","24.1","","93.93","","","","-10","","Snow"
"-102.97","49.22","ESTEVAN A","4012400","2012-02-23 15:00","2012","02","23","15:00","-3.5","","-7.4","","74","","","","30","","30","","24.1","","93.99","","","","-11","","Snow"
"-102.97","49.22","ESTEVAN A","4012400","2012-02-23 16:00","2012","02","23","16:00","-3.9","","-7.8","","74","","","","32","","28","","24.1","","94.05","","","","-11","","Snow"
"-102.97","49.22","ESTEVAN A","4012400","2012-02-23 17:00","2012","02","23","17:00","-4.5","","-7.4","","80","","","","30","","28","","11.3","","94.13","","","","-12","","Snow"
"-102.97","49.22","ESTEVAN A","4012400","2012-02-23 18:00","2012","02","23","18:00","-5.4","","-9.0","","76","","","","31","","32","","19.3","","94.21","","","","-14","","Snow"
"-102.97","49.22","ESTEVAN A","4012400","2012-02-23 19:00","2012","02","23","19:00","-6.5","","-9.6","","79","","","","31","","22","","24.1","","94.30","","","","-14","","Mostly Cloudy"
"-102.97","49.22","ESTEVAN A","4012400","2012-02-23 20:00","2012","02","23","20:00","-6.5","","-10.1","","76","","","","32","","26","","24.1","","94.35","","","","-14","","Snow"
"-102.97","49.22","ESTEVAN A","4012400","2012-02-23 21:00","2012","02","23","21:00","-7.0","","-9.9","","80","","","","30","","13","","24.1","","94.40","","","","-13","","Snow"
"-102.97","49.22","ESTEVAN A","4012400","2012-02-23 22:00","2012","02","23","22:00","-6.6","","-9.1","","82","","","","29","","13","","24.1","","94.41","","","","-12","","Snow"
"-102.97","49.22","ESTEVAN A","4012400","2012-02-23 23:00","2012","02","23","23:00","-6.2","","-9.1","","80","","","","29","","15","","24.1","","94.41","","","","-12","","Snow"
"-102.97","49.22","ESTEVAN A","4012400","2012-02-24 00:00","2012","02","24","00:00","-6.1","","-8.8","","81","","","","30","","19","","24.1","","94.41","","","","-13","","Snow"
"-102.97","49.22","ESTEVAN A","4012400","2012-02-24 01:00","2012","02","24","01:00","-6.2","","-9.2","","79","","","","30","","13","","24.1","","94.44","","","","-12","","Snow"
"-102.97","49.22","ESTEVAN A","4012400","2012-02-24 02:00","2012","02","24","02:00","-6.6","","-10.2","","76","","","","32","","24","","24.1","","94.47","","","","-14","","Snow"
"-102.97","49.22","ESTEVAN A","4012400","2012-02-24 03:00","2012","02","24","03:00","-7.1","","-10.2","","78","","","","32","","22","","16.1","","94.53","","","","-15","","Snow"
"-102.97","49.22","ESTEVAN A","4012400","2012-02-24 04:00","2012","02","24","04:00","-7.5","","-10.9","","77","","","","31","","22","","24.1","","94.56","","","","-15","","Snow"
"-102.97","49.22","ESTEVAN A","4012400","2012-02-24 05:00","2012","02","24","05:00","-8.6","","-11.7","","78","","","","33","","28","","19.3","","94.63","","","","-17","","Snow"
"-102.97","49.22","ESTEVAN A","4012400","2012-02-24 06:00","2012","02","24","06:00","-10.7","","-13.4","","80","","","","33","","15","","24.1","","94.70","","","","-18","","Mainly Clear"
"-102.97","49.22","ESTEVAN A","4012400","2012-02-24 07:00","2012","02","24","07:00","-12.2","","-14.0","","86","","","","31","","11","","24.1","","94.78","","","","-18","","Mainly Clear"
"-102.97","49.22","ESTEVAN A","4012400","2012-02-24 08:00","2012","02","24","08:00","-12.5","","-14.4","","86","","","","31","","9","","24.1","","94.88","","","","-18","","Mainly Clear"
"-102.97","49.22","ESTEVAN A","4012400","2012-02-24 09:00","2012","02","24","09:00","-10.8","","-13.5","","80","","","","33","","19","","24.1","","94.98","","","","-19","","Clear"
"-102.97","49.22","ESTEVAN A","4012400","2012-02-24 10:00","2012","02","24","10:00","-9.7","","-13.4","","74","","","","33","","26","","24.1","","95.08","","","","-19","","Clear"
"-102.97","49.22","ESTEVAN A","4012400","2012-02-24 11:00","2012","02","24","11:00","-8.6","","-13.8","","66","","","","33","","28","","24.1","","95.14","","","","-17","","Clear"
"-102.97","49.22","ESTEVAN A","4012400","2012-02-24 12:00","2012","02","24","12:00","-7.1","","-15.3","","52","","","","34","","24","","24.1","","95.17","","","","-15","","Clear"
"-102.97","49.22","ESTEVAN A","4012400","2012-02-24 13:00","2012","02","24","13:00","-6.7","","-14.8","","52","","","","33","","19","","24.1","","95.19","","","","-14","","Clear"
"-102.97","49.22","ESTEVAN A","4012400","2012-02-24 14:00","2012","02","24","14:00","-6.3","","-14.8","","51","","","","34","","19","","24.1","","95.21","","","","-13","","Clear"
"-102.97","49.22","ESTEVAN A","4012400","2012-02-24 15:00","2012","02","24","15:00","-5.8","","-14.7","","49","","","","32","","20","","24.1","","95.20","","","","-13","","Mostly Cloudy"
"-102.97","49.22","ESTEVAN A","4012400","2012-02-24 16:00","2012","02","24","16:00","-5.1","","-13.8","","50","","","","30","","19","","24.1","","95.23","","","","-12","","Mostly Cloudy"
"-102.97","49.22","ESTEVAN A","4012400","2012-02-24 17:00","2012","02","24","17:00","-5.6","","-13.5","","54","","","","28","","19","","24.1","","95.25","","","","-12","","Clear"
"-102.97","49.22","ESTEVAN A","4012400","2012-02-24 18:00","2012","02","24","18:00","-6.9","","-12.1","","66","","","","27","","13","","24.1","","95.26","","","","-12","","Clear"
"-102.97","49.22","ESTEVAN A","4012400","2012-02-24 19:00","2012","02","24","19:00","-10.3","","-12.6","","83","","","","23","","7","","24.1","","95.25","","","","-14","","Clear"
"-102.97","49.22","ESTEVAN A","4012400","2012-02-24 20:00","2012","02","24","20:00","-10.4","","-12.9","","82","","","","24","","9","","24.1","","95.25","","","","-15","","Clear"
"-102.97","49.22","ESTEVAN A","4012400","2012-02-24 21:00","2012","02","24","21:00","-12.5","","-14.2","","87","","","","21","","7","","24.1","","95.24","","","","-17","","Clear"
"-102.97","49.22","ESTEVAN A","4012400","2012-02-24 22:00","2012","02","24","22:00","-12.3","","-13.9","","88","","","","17","","7","","24.1","","95.19","","","","-17","","Clear"
"-102.97","49.22","ESTEVAN A","4012400","2012-02-24 23:00","2012","02","24","23:00","-13.4","","-15.0","","88","","","","15","","7","","24.1","","95.14","","","","-18","","Clear"
"-102.97","49.22","ESTEVAN A","4012400","2012-02-25 00:00","2012","02","25","00:00","-12.7","","-14.4","","87","","","","14","","9","","24.1","","95.07","","","","-18","","Clear"
"-102.97","49.22","ESTEVAN A","4012400","2012-02-25 01:00","2012","02","25","01:00","-12.7","","-14.4","","87","","","","15","","9","","24.1","","95.06","","","","-18","","Clear"
"-102.97","49.22","ESTEVAN A","4012400","2012-02-25 02:00","2012","02","25","02:00","-12.4","","-14.2","","86","","","","15","","9","","24.1","","94.99","","","","-18","","Mainly Clear"
"-102.97","49.22","ESTEVAN A","4012400","2012-02-25 03:00","2012","02","25","03:00","-13.4","","-14.9","","88","","","","13","","7","","24.1","","94.94","","","","-18","","Clear"
"-102.97","49.22","ESTEVAN A","4012400","2012-02-25 04:00","2012","02","25","04:00","-13.2","","-14.8","","88","","","","12","","11","","24.1","","94.84","","","","-19","","Mainly Clear"
"-102.97","49.22","ESTEVAN A","4012400","2012-02-25 05:00","2012","02","25","05:00","-10.4","","-12.4","","85","","","","12","","11","","24.1","","94.78","","","","-16","","Cloudy"
"-102.97","49.22","ESTEVAN A","4012400","2012-02-25 06:00","2012","02","25","06:00","-10.0","","-12.2","","84","","","","12","","17","","24.1","","94.71","","","","-17","","Cloudy"
"-102.97","49.22","ESTEVAN A","4012400","2012-02-25 07:00","2012","02","25","07:00","-10.5","","-12.4","","86","","","","11","","17","","24.1","","94.62","","","","-18","","Cloudy"
"-102.97","49.22","ESTEVAN A","4012400","2012-02-25 08:00","2012","02","25","08:00","-10.2","","-12.4","","84","","","","10","","17","","24.1","","94.56","","","","-17","","Cloudy"
"-102.97","49.22","ESTEVAN A","4012400","2012-02-25 09:00","2012","02","25","09:00","-9.0","","-12.2","","78","","","","12","","19","","24.1","","94.45","","","","-16","","Cloudy"
"-102.97","49.22","ESTEVAN A","4012400","2012-02-25 10:00","2012","02","25","10:00","-8.3","","-12.2","","73","","","","12","","28","","24.1","","94.39","","","","-17","","Cloudy"
"-102.97","49.22","ESTEVAN A","4012400","2012-02-25 11:00","2012","02","25","11:00","-7.1","","-12.4","","66","","","","11","","26","","24.1","","94.24","","","","-15","","Cloudy"
"-102.97","49.22","ESTEVAN A","4012400","2012-02-25 12:00","2012","02","25","12:00","-6.9","","-12.9","","62","","","","11","","35","","24.1","","94.24","","","","-16","","Snow"
"-102.97","49.22","ESTEVAN A","4012400","2012-02-25 13:00","2012","02","25","13:00","-7.0","","-12.4","","65","","","","11","","35","","16.1","","94.20","","","","-16","","Snow"
"-102.97","49.22","ESTEVAN A","4012400","2012-02-25 14:00","2012","02","25","14:00","-7.9","","-10.5","","82","","","","11","","26","","1.2","","94.13","","","","-16","","Snow,Blowing Snow"
"-102.97","49.22","ESTEVAN A","4012400","2012-02-25 15:00","2012","02","25","15:00","-7.8","","-10.2","","83","","","","10","","37","","1.2","","94.01","","","","-18","","Snow,Blowing Snow"
"-102.97","49.22","ESTEVAN A","4012400","2012-02-25 16:00","2012","02","25","16:00","-8.1","","-10.1","","85","","","","9","","37","","1.6","","93.92","","","","-18","","Snow,Blowing Snow"
"-102.97","49.22","ESTEVAN A","4012400","2012-02-25 17:00","2012","02","25","17:00","-8.5","","-10.5","","85","","","","9","","37","","1.2","","93.89","","","","-18","","Snow,Blowing Snow"
"-102.97","49.22","ESTEVAN A","4012400","2012-02-25 18:00","2012","02","25","18:00","-8.7","","-10.4","","87","","","","9","","37","","1.2","","93.87","","","","-19","","Snow,Blowing Snow"
"-102.97","49.22","ESTEVAN A","4012400","2012-02-25 19:00","2012","02","25","19:00","-9.4","","-11.0","","88","","","","9","","39","","0.8","","93.93","","","","-20","","Snow,Blowing Snow"
"-102.97","49.22","ESTEVAN A","4012400","2012-02-25 20:00","2012","02","25","20:00","-9.9","","-11.6","","87","","","","9","","37","","0.8","","94.01","","","","-20","","Snow,Blowing Snow"
"-102.97","49.22","ESTEVAN A","4012400","2012-02-25 21:00","2012","02","25","21:00","-10.2","","-11.8","","88","","","","9","","37","","0.4","","94.04","","","","-21","","Moderate Snow,Blowing Snow"
"-102.97","49.22","ESTEVAN A","4012400","2012-02-25 22:00","2012","02","25","22:00","-10.4","","-11.8","","89","","","","8","","33","","0.4","","94.08","","","","-20","","Moderate Snow,Blowing Snow"
"-102.97","49.22","ESTEVAN A","4012400","2012-02-25 23:00","2012","02","25","23:00","-10.5","","-12.2","","87","","","","8","","32","","0.8","","94.09","","","","-20","","Moderate Snow,Blowing Snow"
"-102.97","49.22","ESTEVAN A","4012400","2012-02-26 00:00","2012","02","26","00:00","-10.9","","-12.5","","88","","","","7","","32","","0.8","","94.09","","","","-21","","Moderate Snow,Blowing Snow"
"-102.97","49.22","ESTEVAN A","4012400","2012-02-26 01:00","2012","02","26","01:00","-11.0","","-12.9","","86","","","","7","","32","","1.2","","94.13","","","","-21","","Snow,Blowing Snow"
"-102.97","49.22","ESTEVAN A","4012400","2012-02-26 02:00","2012","02","26","02:00","-11.2","","-13.1","","86","","","","6","","28","","2.0","","94.17","","","","-21","","Snow,Blowing Snow"
"-102.97","49.22","ESTEVAN A","4012400","2012-02-26 03:00","2012","02","26","03:00","-11.4","","-13.1","","87","","","","5","","28","","2.0","","94.22","","","","-21","","Snow,Blowing Snow"
"-102.97","49.22","ESTEVAN A","4012400","2012-02-26 04:00","2012","02","26","04:00","-11.6","","-13.6","","85","","","","5","","32","","3.2","","94.26","","","","-22","","Snow,Blowing Snow"
"-102.97","49.22","ESTEVAN A","4012400","2012-02-26 05:00","2012","02","26","05:00","-11.6","","-13.4","","86","","","","5","","26","","4.8","","94.34","","","","-21","","Snow,Blowing Snow"
"-102.97","49.22","ESTEVAN A","4012400","2012-02-26 06:00","2012","02","26","06:00","-11.4","","-13.3","","86","","","","4","","24","","3.2","","94.42","","","","-20","","Snow,Blowing Snow"
"-102.97","49.22","ESTEVAN A","4012400","2012-02-26 07:00","2012","02","26","07:00","-11.9","","-13.8","","86","","","","3","","26","","1.6","","94.53","","","","-21","","Snow,Blowing Snow"
"-102.97","49.22","ESTEVAN A","4012400","2012-02-26 08:00","2012","02","26","08:00","-12.3","","-14.3","","85","","","","3","","26","","1.6","","94.63","","","","-22","","Snow,Blowing Snow"
"-102.97","49.22","ESTEVAN A","4012400","2012-02-26 09:00","2012","02","26","09:00","-12.5","","-14.8","","83","","","","2","","28","","1.6","","94.73","","","","-22","","Snow,Blowing Snow"
"-102.97","49.22","ESTEVAN A","4012400","2012-02-26 10:00","2012","02","26","10:00","-12.5","","-15.0","","82","","","","2","","30","","2.4","","94.81","","","","-23","","Snow,Blowing Snow"
"-102.97","49.22","ESTEVAN A","4012400","2012-02-26 11:00","2012","02","26","11:00","-12.2","","-14.8","","81","","","","2","","28","","4.8","","94.90","","","","-22","","Snow,Blowing Snow"
"-102.97","49.22","ESTEVAN A","4012400","2012-02-26 12:00","2012","02","26","12:00","-11.6","","-14.9","","76","","","","1","","19","","6.4","","95.01","","","","-20","","Snow,Blowing Snow"
"-102.97","49.22","ESTEVAN A","4012400","2012-02-26 13:00","2012","02","26","13:00","-11.5","","-14.5","","78","","","","35","","19","","4.8","","95.08","","","","-20","","Snow,Blowing Snow"
"-102.97","49.22","ESTEVAN A","4012400","2012-02-26 14:00","2012","02","26","14:00","-11.1","","-14.6","","75","","","","35","","24","","8.0","","95.12","","","","-20","","Snow"
"-102.97","49.22","ESTEVAN A","4012400","2012-02-26 15:00","2012","02","26","15:00","-11.3","","-14.9","","75","","","","34","","19","","6.4","","95.19","","","","-19","","Snow"
"-102.97","49.22","ESTEVAN A","4012400","2012-02-26 16:00","2012","02","26","16:00","-11.5","","-14.9","","76","","","","34","","26","","8.0","","95.28","","","","-21","","Snow"
"-102.97","49.22","ESTEVAN A","4012400","2012-02-26 17:00","2012","02","26","17:00","-11.9","","-15.4","","75","","","","34","","26","","16.1","","95.38","","","","-21","","Snow"
"-102.97","49.22","ESTEVAN A","4012400","2012-02-26 18:00","2012","02","26","18:00","-12.7","","-15.2","","82","","","","33","","19","","24.1","","95.47","","","","-21","","Cloudy"
"-102.97","49.22","ESTEVAN A","4012400","2012-02-26 19:00","2012","02","26","19:00","-14.6","","-17.0","","82","","","","33","","15","","24.1","","95.54","","","","-22","","Mostly Cloudy"
"-102.97","49.22","ESTEVAN A","4012400","2012-02-26 20:00","2012","02","26","20:00","-15.9","","-18.0","","84","","","","32","","13","","24.1","","95.60","","","","-23","","Mainly Clear"
"-102.97","49.22","ESTEVAN A","4012400","2012-02-26 21:00","2012","02","26","21:00","-17.6","","-19.2","","87","","","","31","","11","","24.1","","95.65","","","","-25","","Clear"
"-102.97","49.22","ESTEVAN A","4012400","2012-02-26 22:00","2012","02","26","22:00","-19.5","","-20.8","","89","","","","33","","11","","24.1","","95.70","","","","-27","","Clear"
"-102.97","49.22","ESTEVAN A","4012400","2012-02-26 23:00","2012","02","26","23:00","-20.8","","-22.1","","89","","","","34","","6","","24.1","","95.70","","","","-26","","Clear"
"-102.97","49.22","ESTEVAN A","4012400","2012-02-27 00:00","2012","02","27","00:00","-22.5","","-23.7","","90","","","","29","","7","","24.1","","95.75","","","","-29","","Clear"
"-102.97","49.22","ESTEVAN A","4012400","2012-02-27 01:00","2012","02","27","01:00","-23.1","","-24.2","","91","","","","26","","9","","24.1","","95.79","","","","-30","","Clear"
"-102.97","49.22","ESTEVAN A","4012400","2012-02-27 02:00","2012","02","27","02:00","-23.5","","-26.8","","74","","","","26","","7","","24.1","","95.81","","","","-30","","Clear"
"-102.97","49.22","ESTEVAN A","4012400","2012-02-27 03:00","2012","02","27","03:00","-23.9","","-27.7","","71","","","","26","","7","","24.1","","95.84","","","","-30","","Clear"
"-102.97","49.22","ESTEVAN A","4012400","2012-02-27 04:00","2012","02","27","04:00","-25.0","","-28.9","","70","","","","23","","4","","24.1","","95.79","","","","-29","","Clear"
"-102.97","49.22","ESTEVAN A","4012400","2012-02-27 05:00","2012","02","27","05:00","-25.3","","-28.9","","72","","","","19","","4","","24.1","","95.76","","","","-29","","Clear"
"-102.97","49.22","ESTEVAN A","4012400","2012-02-27 06:00","2012","02","27","06:00","-25.0","","-28.9","","70","","","","21","","7","","24.1","","95.76","","","","-31","","Mainly Clear"
"-102.97","49.22","ESTEVAN A","4012400","2012-02-27 07:00","2012","02","27","07:00","-24.0","","-27.5","","73","","","","21","","4","","4.8","","95.75","","","","-28","","Fog"
"-102.97","49.22","ESTEVAN A","4012400","2012-02-27 08:00","2012","02","27","08:00","-23.8","","-26.9","","76","","","","19","","2","","8.0","","95.73","","","","-26","","Fog"
"-102.97","49.22","ESTEVAN A","4012400","2012-02-27 09:00","2012","02","27","09:00","-22.4","","-25.4","","77","","","","19","","2","","0.4","","95.70","","","","-24","","Freezing Fog"
"-102.97","49.22","ESTEVAN A","4012400","2012-02-27 10:00","2012","02","27","10:00","-17.6","","-19.8","","83","","","","17","","2","","8.0","","95.68","","","","-19","","Fog"
"-102.97","49.22","ESTEVAN A","4012400","2012-02-27 11:00","2012","02","27","11:00","-15.5","","-17.4","","85","","","","16","","6","","19.3","","95.67","","","","-20","","Mainly Clear"
"-102.97","49.22","ESTEVAN A","4012400","2012-02-27 12:00","2012","02","27","12:00","-13.4","","-16.0","","81","","","","15","","9","","22.5","","95.61","","","","-19","","Mainly Clear"
"-102.97","49.22","ESTEVAN A","4012400","2012-02-27 13:00","2012","02","27","13:00","-11.7","","-17.5","","62","","","","13","","11","","22.5","","95.49","","","","-18","","Mainly Clear"
"-102.97","49.22","ESTEVAN A","4012400","2012-02-27 14:00","2012","02","27","14:00","-10.7","","-16.7","","61","","","","15","","15","","24.1","","95.37","","","","-18","","Mainly Clear"
"-102.97","49.22","ESTEVAN A","4012400","2012-02-27 15:00","2012","02","27","15:00","-10.1","","-16.4","","60","","","","13","","13","","24.1","","95.29","","","","-16","","Mostly Cloudy"
"-102.97","49.22","ESTEVAN A","4012400","2012-02-27 16:00","2012","02","27","16:00","-9.3","","-16.3","","57","","","","14","","15","","24.1","","95.20","","","","-16","","Cloudy"
"-102.97","49.22","ESTEVAN A","4012400","2012-02-27 17:00","2012","02","27","17:00","-9.1","","-16.1","","57","","","","14","","15","","24.1","","95.14","","","","-16","","Cloudy"
"-102.97","49.22","ESTEVAN A","4012400","2012-02-27 18:00","2012","02","27","18:00","-10.8","","-15.4","","69","","","","9","","11","","24.1","","95.12","","","","-17","","Cloudy"
"-102.97","49.22","ESTEVAN A","4012400","2012-02-27 19:00","2012","02","27","19:00","-12.3","","-16.0","","74","","","","11","","13","","24.1","","95.10","","","","-19","","Mostly Cloudy"
"-102.97","49.22","ESTEVAN A","4012400","2012-02-27 20:00","2012","02","27","20:00","-12.8","","-16.2","","76","","","","13","","11","","24.1","","95.04","","","","-19","","Mainly Clear"
"-102.97","49.22","ESTEVAN A","4012400","2012-02-27 21:00","2012","02","27","21:00","-13.9","","-16.9","","78","","","","14","","13","","24.1","","94.98","","","","-21","","Clear"
"-102.97","49.22","ESTEVAN A","4012400","2012-02-27 22:00","2012","02","27","22:00","-15.7","","-19.2","","74","","","","6","","4","","24.1","","95.00","","","","-19","","Clear"
"-102.97","49.22","ESTEVAN A","4012400","2012-02-27 23:00","2012","02","27","23:00","-17.2","","-20.0","","79","","","","8","","6","","24.1","","95.02","","","","-22","","Clear"
"-102.97","49.22","ESTEVAN A","4012400","2012-02-28 00:00","2012","02","28","00:00","-18.7","","-21.4","","79","","","","10","","11","","24.1","","94.99","","","","-26","","Clear"
"-102.97","49.22","ESTEVAN A","4012400","2012-02-28 01:00","2012","02","28","01:00","-20.0","","-23.4","","74","","","","13","","9","","24.1","","94.94","","","","-27","","Clear"
"-102.97","49.22","ESTEVAN A","4012400","2012-02-28 02:00","2012","02","28","02:00","-20.4","","-23.5","","76","","","","14","","11","","24.1","","94.92","","","","-28","","Clear"
"-102.97","49.22","ESTEVAN A","4012400","2012-02-28 03:00","2012","02","28","03:00","-20.2","","-23.2","","77","","","","14","","6","","24.1","","94.87","","","","-25","","Clear"
"-102.97","49.22","ESTEVAN A","4012400","2012-02-28 04:00","2012","02","28","04:00","-20.2","","-23.2","","77","","","","15","","7","","24.1","","94.84","","","","-26","","Clear"
"-102.97","49.22","ESTEVAN A","4012400","2012-02-28 05:00","2012","02","28","05:00","-20.7","","-24.1","","74","","","","14","","7","","24.1","","94.76","","","","-26","","Clear"
"-102.97","49.22","ESTEVAN A","4012400","2012-02-28 06:00","2012","02","28","06:00","-20.9","","-23.9","","77","","","","14","","4","","24.1","","94.74","","","","-24","","Clear"
"-102.97","49.22","ESTEVAN A","4012400","2012-02-28 07:00","2012","02","28","07:00","-20.7","","-23.6","","78","","","","13","","7","","24.1","","94.74","","","","-26","","Clear"
"-102.97","49.22","ESTEVAN A","4012400","2012-02-28 08:00","2012","02","28","08:00","-21.4","","-24.4","","77","","","","12","","7","","19.3","","94.77","","","","-27","","Clear"
"-102.97","49.22","ESTEVAN A","4012400","2012-02-28 09:00","2012","02","28","09:00","-18.0","","-20.6","","80","","","","7","","6","","19.3","","94.74","","","","-23","","Ice Crystals"
"-102.97","49.22","ESTEVAN A","4012400","2012-02-28 10:00","2012","02","28","10:00","-15.1","","-17.1","","85","","","","","","0","","19.3","","94.72","","","","","","Ice Crystals"
"-102.97","49.22","ESTEVAN A","4012400","2012-02-28 11:00","2012","02","28","11:00","-12.7","","-15.2","","82","","","","","","0","","19.3","","94.70","","","","","","Mostly Cloudy"
"-102.97","49.22","ESTEVAN A","4012400","2012-02-28 12:00","2012","02","28","12:00","-11.0","","-14.1","","78","","","","35","","4","","24.1","","94.67","","","","-13","","Mostly Cloudy"
"-102.97","49.22","ESTEVAN A","4012400","2012-02-28 13:00","2012","02","28","13:00","-9.3","","-12.6","","77","","","","6","","6","","24.1","","94.65","","","","-13","","Mainly Clear"
"-102.97","49.22","ESTEVAN A","4012400","2012-02-28 14:00","2012","02","28","14:00","-8.3","","-11.6","","77","","","","7","","9","","24.1","","94.59","","","","-13","","Mainly Clear"
"-102.97","49.22","ESTEVAN A","4012400","2012-02-28 15:00","2012","02","28","15:00","-6.8","","-10.8","","73","","","","9","","9","","24.1","","94.58","","","","-11","","Mainly Clear"
"-102.97","49.22","ESTEVAN A","4012400","2012-02-28 16:00","2012","02","28","16:00","-5.9","","-10.1","","72","","","","8","","6","","24.1","","94.55","","","","-9","","Mainly Clear"
"-102.97","49.22","ESTEVAN A","4012400","2012-02-28 17:00","2012","02","28","17:00","-5.8","","-10.0","","72","","","","4","","9","","24.1","","94.51","","","","-10","","Mostly Cloudy"
"-102.97","49.22","ESTEVAN A","4012400","2012-02-28 18:00","2012","02","28","18:00","-8.5","","-11.4","","80","","","","2","","9","","24.1","","94.51","","","","-13","","Mostly Cloudy"
"-102.97","49.22","ESTEVAN A","4012400","2012-02-28 19:00","2012","02","28","19:00","-10.8","","-12.9","","84","","","","3","","11","","24.1","","94.52","","","","-17","","Mostly Cloudy"
"-102.97","49.22","ESTEVAN A","4012400","2012-02-28 20:00","2012","02","28","20:00","-9.8","","-12.3","","82","","","","7","","11","","24.1","","94.55","","","","-15","","Mostly Cloudy"
"-102.97","49.22","ESTEVAN A","4012400","2012-02-28 21:00","2012","02","28","21:00","-13.0","","-14.2","","91","","","","13","","7","","24.1","","94.57","","","","-18","","Mostly Cloudy"
"-102.97","49.22","ESTEVAN A","4012400","2012-02-28 22:00","2012","02","28","22:00","-13.4","","-14.9","","88","","","","12","","4","","24.1","","94.51","","","","-16","","Mostly Cloudy"
"-102.97","49.22","ESTEVAN A","4012400","2012-02-28 23:00","2012","02","28","23:00","-12.2","","-13.1","","93","","","","9","","4","","24.1","","94.50","","","","-15","","Mostly Cloudy"
"-102.97","49.22","ESTEVAN A","4012400","2012-02-29 00:00","2012","02","29","00:00","-14.1","","-15.1","","92","","","","","","0","","24.1","","94.45","","","","","","Mostly Cloudy"
"-102.97","49.22","ESTEVAN A","4012400","2012-02-29 01:00","2012","02","29","01:00","-13.5","","-15.2","","87","","","","6","","4","","24.1","","94.38","","","","-16","","Mostly Cloudy"
"-102.97","49.22","ESTEVAN A","4012400","2012-02-29 02:00","2012","02","29","02:00","-13.7","","-15.0","","90","","","","2","","9","","24.1","","94.36","","","","-19","","Mostly Cloudy"
"-102.97","49.22","ESTEVAN A","4012400","2012-02-29 03:00","2012","02","29","03:00","-13.8","","-15.1","","90","","","","34","","7","","24.1","","94.35","","","","-18","","Mostly Cloudy"
"-102.97","49.22","ESTEVAN A","4012400","2012-02-29 04:00","2012","02","29","04:00","-13.1","","-14.4","","90","","","","36","","7","","24.1","","94.31","","","","-18","","Mostly Cloudy"
"-102.97","49.22","ESTEVAN A","4012400","2012-02-29 05:00","2012","02","29","05:00","-12.9","","-14.2","","90","","","","","","0","","24.1","","94.36","","","","","","Mostly Cloudy"
"-102.97","49.22","ESTEVAN A","4012400","2012-02-29 06:00","2012","02","29","06:00","-13.0","","-14.2","","91","","","","36","","4","","24.1","","94.32","","","","-16","","Mostly Cloudy"
"-102.97","49.22","ESTEVAN A","4012400","2012-02-29 07:00","2012","02","29","07:00","-13.7","","-15.1","","89","","","","","","0","","19.3","","94.26","","","","","","Cloudy"
"-102.97","49.22","ESTEVAN A","4012400","2012-02-29 08:00","2012","02","29","08:00","-12.8","","-14.2","","89","","","","","","0","","9.7","","94.23","","","","","","Fog"
"-102.97","49.22","ESTEVAN A","4012400","2012-02-29 09:00","2012","02","29","09:00","-11.9","","-13.4","","89","","","","11","","6","","8.0","","94.20","","","","-16","","Fog"
"-102.97","49.22","ESTEVAN A","4012400","2012-02-29 10:00","2012","02","29","10:00","-9.7","","-11.4","","87","","","","9","","9","","9.7","","94.14","","","","-15","","Fog"
"-102.97","49.22","ESTEVAN A","4012400","2012-02-29 11:00","2012","02","29","11:00","-7.4","","-9.7","","84","","","","15","","9","","12.9","","94.13","","","","-12","","Cloudy"
"-102.97","49.22","ESTEVAN A","4012400","2012-02-29 12:00","2012","02","29","12:00","-5.4","","-8.6","","78","","","","15","","9","","19.3","","94.12","","","","-9","","Cloudy"
"-102.97","49.22","ESTEVAN A","4012400","2012-02-29 13:00","2012","02","29","13:00","-4.3","","-7.9","","76","","","","12","","9","","24.1","","94.04","","","","-8","","Cloudy"
"-102.97","49.22","ESTEVAN A","4012400","2012-02-29 14:00","2012","02","29","14:00","-2.8","","-6.8","","74","","","","14","","15","","24.1","","94.00","","","","-8","","Mostly Cloudy"
"-102.97","49.22","ESTEVAN A","4012400","2012-02-29 15:00","2012","02","29","15:00","-2.1","","-6.4","","72","","","","14","","13","","24.1","","93.93","","","","-7","","Mostly Cloudy"
"-102.97","49.22","ESTEVAN A","4012400","2012-02-29 16:00","2012","02","29","16:00","-1.8","","-6.3","","71","","","","12","","15","","24.1","","93.86","","","","-7","","Mainly Clear"
"-102.97","49.22","ESTEVAN A","4012400","2012-02-29 17:00","2012","02","29","17:00","-2.4","","-6.2","","75","","","","11","","19","","24.1","","93.82","","","","-8","","Mainly Clear"
"-102.97","49.22","ESTEVAN A","4012400","2012-02-29 18:00","2012","02","29","18:00","-4.1","","-6.8","","81","","","","11","","9","","24.1","","93.81","","","","-8","","Mainly Clear"
"-102.97","49.22","ESTEVAN A","4012400","2012-02-29 19:00","2012","02","29","19:00","-7.3","","-8.8","","89","","","","10","","13","","24.1","","93.75","","","","-13","","Mainly Clear"
"-102.97","49.22","ESTEVAN A","4012400","2012-02-29 20:00","2012","02","29","20:00","-7.6","","-8.7","","92","","","","9","","22","","24.1","","93.69","","","","-15","","Mostly Cloudy"
"-102.97","49.22","ESTEVAN A","4012400","2012-02-29 21:00","2012","02","29","21:00","-8.8","","-9.9","","92","","","","9","","13","","24.1","","93.69","","","","-15","","Mostly Cloudy"
"-102.97","49.22","ESTEVAN A","4012400","2012-02-29 22:00","2012","02","29","22:00","-8.5","","-9.6","","92","","","","10","","15","","24.1","","93.69","","","","-15","","Mostly Cloudy"
"-102.97","49.22","ESTEVAN A","4012400","2012-02-29 23:00","2012","02","29","23:00","-7.5","","-8.7","","91","","","","10","","15","","24.1","","93.69","","","","-14","","Cloudy"
