"Longitude (x)","Latitude (y)","Station Name","Climate ID","Date/Time (LST)","Year","Month","Day","Time (LST)","Temp (°C)","Temp Flag","Dew Point Temp (°C)","Dew Point Temp Flag","Rel Hum (%)","Rel Hum Flag","Precip. Amount (mm)","Precip. Amount Flag","Wind Dir (10s deg)","Wind Dir Flag","Wind Spd (km/h)","Wind Spd Flag","Visibility (km)","Visibility Flag","Stn Press (kPa)","Stn Press Flag","Hmdx","Hmdx Flag","Wind Chill","Wind Chill Flag","Weather"
"-64.30","44.36","LUNENBURG","8203210","2019-01-01 00:00","2019","01","01","00:00","-1.5","","-3.8","","84","","","M","14","","5","","","","102.40","","","","-3","","NA"
"-64.30","44.36","LUNENBURG","8203210","2019-01-01 01:00","2019","01","01","01:00","-0.2","","-2.1","","87","","","M","15","","14","","","","102.22","","","","-4","","NA"
"-64.30","44.36","LUNENBURG","8203210","2019-01-01 02:00","2019","01","01","02:00","0.4","","-2.1","","84","","","M","15","","18","","","","102.15","","","","","","NA"
"-64.30","44.36","LUNENBURG","8203210","2019-01-01 03:00","2019","01","01","03:00","0.6","","-3.6","","73","","","M","15","","34","","","","101.99","","","","","","NA"
"-64.30","44.36","LUNENBURG","8203210","2019-01-01 04:00","2019","01","01","04:00","0.6","","-4.3","","70","","","M","16","","31","","","","101.84","","","","","","NA"
"-64.30","44.36","LUNENBURG","8203210","2019-01-01 05:00","2019","01","01","05:00","1.0","","-5.2","","64","","","M","16","","34","","","","101.68","","","","","","NA"
"-64.30","44.36","LUNENBURG","8203210","2019-01-01 06:00","2019","01","01","06:00","0.1","","-3.3","","78","","","M","15","","36","","","","101.56","","","","","","NA"
"-64.30","44.36","LUNENBURG","8203210","2019-01-01 07:00","2019","01","01","07:00","-0.6","","-1.5","","94","","","M","14","","39","","","","101.23","","","","-8","","NA"
"-64.30","44.36","LUNENBURG","8203210","2019-01-01 08:00","2019","01","01","08:00","0.1","","-1.2","","91","","","M","13","","48","","","","100.89","","","","","","NA"
"-64.30","44.36","LUNENBURG","8203210","2019-01-01 09:00","2019","01","01","09:00","0.7","","0.2","","97","","","M","12","","52","","","","100.54","","","","","","NA"
"-64.30","44.36","LUNENBURG","8203210","2019-01-01 10:00","2019","01","01","10:00","1.3","","0.8","","97","","","M","11","","52","","","","100.16","","","","","","NA"
"-64.30","44.36","LUNENBURG","8203210","2019-01-01 11:00","2019","01","01","11:00","1.8","","1.4","","97","","","M","11","","53","","","","99.77","","","","","","NA"
"-64.30","44.36","LUNENBURG","8203210","2019-01-01 12:00","2019","01","01","12:00","2.6","","2.2","","98","","","M","11","","45","","","","99.30","","","","","","NA"
"-64.30","44.36","LUNENBURG","8203210","2019-01-01 13:00","2019","01","01","13:00","4.1","","3.8","","98","","","M","16","","27","","","","98.98","","","","","","NA"
"-64.30","44.36","LUNENBURG","8203210","2019-01-01 14:00","2019","01","01","14:00","5.0","","4.7","","98","","","M","23","","23","","","","98.78","","","","","","NA"
"-64.30","44.36","LUNENBURG","8203210","2019-01-01 15:00","2019","01","01","15:00","6.3","","4.9","","91","","","M","25","","32","","","","98.78","","","","","","NA"
"-64.30","44.36","LUNENBURG","8203210","2019-01-01 16:00","2019","01","01","16:00","6.7","","4.8","","88","","","M","26","","41","","","","98.86","","","","","","NA"
"-64.30","44.36","LUNENBURG","8203210","2019-01-01 17:00","2019","01","01","17:00","5.4","","2.9","","84","","","M","28","","40","","","","99.09","","","","","","NA"
"-64.30","44.36","LUNENBURG","8203210","2019-01-01 18:00","2019","01","01","18:00","4.2","","0.5","","77","","","M","28","","43","","","","99.30","","","","","","NA"
"-64.30","44.36","LUNENBURG","8203210","2019-01-01 19:00","2019","01","01","19:00","2.6","","-1.6","","74","","","M","29","","42","","","","99.61","","","","","","NA"
"-64.30","44.36","LUNENBURG","8203210","2019-01-01 20:00","2019","01","01","20:00","1.7","","-2.3","","75","","","M","29","","37","","","","99.72","","","","","","NA"
"-64.30","44.36","LUNENBURG","8203210","2019-01-01 21:00","2019","01","01","21:00","1.5","","-2.7","","73","","","M","29","","41","","","","99.96","","","","","","NA"
"-64.30","44.36","LUNENBURG","8203210","2019-01-01 22:00","2019","01","01","22:00","1.7","","-2.3","","75","","","M","30","","41","","","","100.12","","","","","","NA"
"-64.30","44.36","LUNENBURG","8203210","2019-01-01 23:00","2019","01","01","23:00","0.8","","-4.1","","70","","","M","29","","51","","","","100.25","","","","","","NA"
"-64.30","44.36","LUNENBURG","8203210","2019-01-02 00:00","2019","01","02","00:00","-0.4","","-5.3","","69","","","M","29","","42","","","","100.37","","","","-8","","NA"
"-64.30","44.36","LUNENBURG","8203210","2019-01-02 01:00","2019","01","02","01:00","-0.9","","-6.0","","68","","","M","30","","29","","","","100.57","","","","-8","","NA"
"-64.30","44.36","LUNENBURG","8203210","2019-01-02 02:00","2019","01","02","02:00","-1.5","","-6.6","","68","","","M","29","","36","","","","100.71","","","","-9","","NA"
"-64.30","44.36","LUNENBURG","8203210","2019-01-02 03:00","2019","01","02","03:00","-3.2","","-8.3","","68","","","M","29","","41","","","","100.90","","","","-12","","NA"
"-64.30","44.36","LUNENBURG","8203210","2019-01-02 04:00","2019","01","02","04:00","-5.0","","-10.4","","66","","","M","29","","41","","","","101.01","","","","-14","","NA"
"-64.30","44.36","LUNENBURG","8203210","2019-01-02 05:00","2019","01","02","05:00","-6.1","","-11.9","","64","","","M","29","","39","","","","101.13","","","","-15","","NA"
"-64.30","44.36","LUNENBURG","8203210","2019-01-02 06:00","2019","01","02","06:00","-6.9","","-11.9","","68","","","M","29","","35","","","","101.28","","","","-16","","NA"
"-64.30","44.36","LUNENBURG","8203210","2019-01-02 07:00","2019","01","02","07:00","-7.4","","-11.9","","70","","","M","29","","38","","","","101.38","","","","-17","","NA"
"-64.30","44.36","LUNENBURG","8203210","2019-01-02 08:00","2019","01","02","08:00","-8.0","","-12.6","","70","","","M","29","","38","","","","101.52","","","","-18","","NA"
"-64.30","44.36","LUNENBURG","8203210","2019-01-02 09:00","2019","01","02","09:00","-8.1","","-13.3","","66","","","M","28","","30","","","","101.78","","","","-17","","NA"
"-64.30","44.36","LUNENBURG","8203210","2019-01-02 10:00","2019","01","02","10:00","-7.3","","-13.1","","63","","","M","28","","36","","","","101.85","","","","-17","","NA"
"-64.30","44.36","LUNENBURG","8203210","2019-01-02 11:00","2019","01","02","11:00","-6.1","","-13.7","","55","","","M","29","","35","","","","101.89","","","","-15","","NA"
"-64.30","44.36","LUNENBURG","8203210","2019-01-02 12:00","2019","01","02","12:00","-5.3","","-13.6","","52","","","M","29","","38","","","","101.83","","","","-14","","NA"
"-64.30","44.36","LUNENBURG","8203210","2019-01-02 13:00","2019","01","02","13:00","-4.8","","-13.8","","49","","","M","29","","33","","","","101.84","","","","-13","","NA"
"-64.30","44.36","LUNENBURG","8203210","2019-01-02 14:00","2019","01","02","14:00","-4.2","","-13.7","","48","","","M","28","","31","","","","101.85","","","","-12","","NA"
"-64.30","44.36","LUNENBURG","8203210","2019-01-02 15:00","2019","01","02","15:00","-4.5","","-13.6","","49","","","M","28","","31","","","","101.94","","","","-12","","NA"
"-64.30","44.36","LUNENBURG","8203210","2019-01-02 16:00","2019","01","02","16:00","-4.9","","-12.9","","54","","","M","28","","31","","","","102.06","","","","-13","","NA"
"-64.30","44.36","LUNENBURG","8203210","2019-01-02 17:00","2019","01","02","17:00","-5.9","","-12.4","","60","","","M","30","","31","","","","102.12","","","","-14","","NA"
"-64.30","44.36","LUNENBURG","8203210","2019-01-02 18:00","2019","01","02","18:00","-7.0","","-13.2","","62","","","M","29","","18","","","","102.21","","","","-14","","NA"
"-64.30","44.36","LUNENBURG","8203210","2019-01-02 19:00","2019","01","02","19:00","-7.6","","-12.2","","69","","","M","29","","17","","","","102.28","","","","-14","","NA"
"-64.30","44.36","LUNENBURG","8203210","2019-01-02 20:00","2019","01","02","20:00","-8.6","","-13.0","","70","","","M","28","","16","","","","102.30","","","","-15","","NA"
"-64.30","44.36","LUNENBURG","8203210","2019-01-02 21:00","2019","01","02","21:00","-9.2","","-12.9","","74","","","M","29","","10","","","","102.32","","","","-14","","NA"
"-64.30","44.36","LUNENBURG","8203210","2019-01-02 22:00","2019","01","02","22:00","-9.3","","-12.6","","77","","","M","30","","15","","","","102.27","","","","-16","","NA"
"-64.30","44.36","LUNENBURG","8203210","2019-01-02 23:00","2019","01","02","23:00","-9.8","","-12.5","","81","","","M","23","","11","","","","102.33","","","","-15","","NA"
"-64.30","44.36","LUNENBURG","8203210","2019-01-03 00:00","2019","01","03","00:00","-10.1","","-12.9","","80","","","M","24","","14","","","","102.35","","","","-17","","NA"
"-64.30","44.36","LUNENBURG","8203210","2019-01-03 01:00","2019","01","03","01:00","-10.5","","-13.1","","81","","","M","28","","10","","","","102.27","","","","-16","","NA"
"-64.30","44.36","LUNENBURG","8203210","2019-01-03 02:00","2019","01","03","02:00","-10.5","","-13.3","","80","","","M","30","","9","","","","102.24","","","","-15","","NA"
"-64.30","44.36","LUNENBURG","8203210","2019-01-03 03:00","2019","01","03","03:00","-10.7","","-14.0","","77","","","M","28","","9","","","","102.22","","","","-16","","NA"
"-64.30","44.36","LUNENBURG","8203210","2019-01-03 04:00","2019","01","03","04:00","-10.7","","-14.0","","77","","","M","27","","5","","","","102.15","","","","-14","","NA"
"-64.30","44.36","LUNENBURG","8203210","2019-01-03 05:00","2019","01","03","05:00","-10.9","","-12.8","","86","","","M","26","","7","","","","102.06","","","","-15","","NA"
"-64.30","44.36","LUNENBURG","8203210","2019-01-03 06:00","2019","01","03","06:00","-10.2","","-12.4","","84","","","M","28","","3","","","","102.03","","","","-12","","NA"
"-64.30","44.36","LUNENBURG","8203210","2019-01-03 07:00","2019","01","03","07:00","-10.0","","-12.5","","82","","","M","25","","2","","","","101.93","","","","-11","","NA"
"-64.30","44.36","LUNENBURG","8203210","2019-01-03 08:00","2019","01","03","08:00","-8.6","","-11.1","","82","","","M","5","","8","","","","101.81","","","","-13","","NA"
"-64.30","44.36","LUNENBURG","8203210","2019-01-03 09:00","2019","01","03","09:00","-7.8","","-10.6","","80","","","M","36","","3","","","","101.79","","","","-9","","NA"
"-64.30","44.36","LUNENBURG","8203210","2019-01-03 10:00","2019","01","03","10:00","-7.4","","-9.1","","88","","","M","32","","12","","","","101.76","","","","-13","","NA"
"-64.30","44.36","LUNENBURG","8203210","2019-01-03 11:00","2019","01","03","11:00","-6.8","","-8.3","","90","","","M","33","","10","","","","101.68","","","","-11","","NA"
"-64.30","44.36","LUNENBURG","8203210","2019-01-03 12:00","2019","01","03","12:00","-4.5","","-7.2","","81","","","M","32","","9","","","","101.60","","","","-8","","NA"
"-64.30","44.36","LUNENBURG","8203210","2019-01-03 13:00","2019","01","03","13:00","-3.7","","-9.0","","67","","","M","8","","11","","","","101.41","","","","-8","","NA"
"-64.30","44.36","LUNENBURG","8203210","2019-01-03 14:00","2019","01","03","14:00","-3.4","","-8.6","","67","","","M","7","","12","","","","101.29","","","","-8","","NA"
"-64.30","44.36","LUNENBURG","8203210","2019-01-03 15:00","2019","01","03","15:00","-2.4","","-7.6","","67","","","M","10","","21","","","","101.18","","","","-8","","NA"
"-64.30","44.36","LUNENBURG","8203210","2019-01-03 16:00","2019","01","03","16:00","-1.7","","-6.8","","68","","","M","9","","21","","","","101.08","","","","-8","","NA"
"-64.30","44.36","LUNENBURG","8203210","2019-01-03 17:00","2019","01","03","17:00","-1.6","","-5.0","","78","","","M","6","","17","","","","101.03","","","","-7","","NA"
"-64.30","44.36","LUNENBURG","8203210","2019-01-03 18:00","2019","01","03","18:00","-2.0","","-4.9","","80","","","M","5","","14","","","","100.99","","","","-7","","NA"
"-64.30","44.36","LUNENBURG","8203210","2019-01-03 19:00","2019","01","03","19:00","-1.7","","-4.4","","82","","","M","5","","16","","","","100.99","","","","-7","","NA"
"-64.30","44.36","LUNENBURG","8203210","2019-01-03 20:00","2019","01","03","20:00","-1.5","","-4.2","","82","","","M","5","","9","","","","101.04","","","","-5","","NA"
"-64.30","44.36","LUNENBURG","8203210","2019-01-03 21:00","2019","01","03","21:00","-1.5","","-4.3","","81","","","M","3","","9","","","","101.07","","","","-5","","NA"
"-64.30","44.36","LUNENBURG","8203210","2019-01-03 22:00","2019","01","03","22:00","-2.3","","-4.2","","87","","","M","34","","9","","","","101.12","","","","-6","","NA"
"-64.30","44.36","LUNENBURG","8203210","2019-01-03 23:00","2019","01","03","23:00","-3.4","","-4.9","","90","","","M","33","","8","","","","101.10","","","","-7","","NA"
"-64.30","44.36","LUNENBURG","8203210","2019-01-04 00:00","2019","01","04","00:00","-3.6","","-5.0","","90","","","M","33","","5","","","","101.09","","","","-6","","NA"
"-64.30","44.36","LUNENBURG","8203210","2019-01-04 01:00","2019","01","04","01:00","-3.4","","-4.7","","91","","","M","33","","4","","","","101.12","","","","-5","","NA"
"-64.30","44.36","LUNENBURG","8203210","2019-01-04 02:00","2019","01","04","02:00","-3.2","","-4.5","","91","","","M","30","","3","","","","101.14","","","","-4","","NA"
"-64.30","44.36","LUNENBURG","8203210","2019-01-04 03:00","2019","01","04","03:00","-3.6","","-4.8","","91","","","M","29","","8","","","","101.09","","","","-7","","NA"
"-64.30","44.36","LUNENBURG","8203210","2019-01-04 04:00","2019","01","04","04:00","-3.9","","-5.1","","92","","","M","32","","6","","","","101.08","","","","-7","","NA"
"-64.30","44.36","LUNENBURG","8203210","2019-01-04 05:00","2019","01","04","05:00","-3.2","","-4.3","","92","","","M","0","","1","","","","101.11","","","","-4","","NA"
"-64.30","44.36","LUNENBURG","8203210","2019-01-04 06:00","2019","01","04","06:00","-2.5","","-3.4","","94","","","M","7","","10","","","","101.01","","","","-6","","NA"
"-64.30","44.36","LUNENBURG","8203210","2019-01-04 07:00","2019","01","04","07:00","-0.7","","-1.8","","93","","","M","19","","3","","","","101.08","","","","-2","","NA"
"-64.30","44.36","LUNENBURG","8203210","2019-01-04 08:00","2019","01","04","08:00","-1.5","","-2.5","","93","","","M","29","","6","","","","101.14","","","","-4","","NA"
"-64.30","44.36","LUNENBURG","8203210","2019-01-04 09:00","2019","01","04","09:00","-0.7","","-1.8","","93","","","M","23","","3","","","","101.18","","","","-2","","NA"
"-64.30","44.36","LUNENBURG","8203210","2019-01-04 10:00","2019","01","04","10:00","0.9","","-0.3","","92","","","M","17","","19","","","","101.22","","","","","","NA"
"-64.30","44.36","LUNENBURG","8203210","2019-01-04 11:00","2019","01","04","11:00","0.3","","-0.6","","94","","","M","24","","16","","","","101.19","","","","","","NA"
"-64.30","44.36","LUNENBURG","8203210","2019-01-04 12:00","2019","01","04","12:00","0.7","","0.3","","97","","","M","25","","5","","","","101.08","","","","","","NA"
"-64.30","44.36","LUNENBURG","8203210","2019-01-04 13:00","2019","01","04","13:00","1.6","","-0.1","","88","","","M","20","","5","","","","101.00","","","","","","NA"
"-64.30","44.36","LUNENBURG","8203210","2019-01-04 14:00","2019","01","04","14:00","2.3","","-1.5","","76","","","M","22","","6","","","","100.99","","","","","","NA"
"-64.30","44.36","LUNENBURG","8203210","2019-01-04 15:00","2019","01","04","15:00","2.1","","-0.4","","84","","","M","16","","10","","","","101.00","","","","","","NA"
"-64.30","44.36","LUNENBURG","8203210","2019-01-04 16:00","2019","01","04","16:00","1.6","","-0.5","","86","","","M","18","","18","","","","101.01","","","","","","NA"
"-64.30","44.36","LUNENBURG","8203210","2019-01-04 17:00","2019","01","04","17:00","1.9","","-0.9","","82","","","M","19","","16","","","","101.00","","","","","","NA"
"-64.30","44.36","LUNENBURG","8203210","2019-01-04 18:00","2019","01","04","18:00","1.7","","-1.3","","81","","","M","19","","21","","","","101.01","","","","","","NA"
"-64.30","44.36","LUNENBURG","8203210","2019-01-04 19:00","2019","01","04","19:00","1.8","","0.3","","90","","","M","19","","11","","","","101.08","","","","","","NA"
"-64.30","44.36","LUNENBURG","8203210","2019-01-04 20:00","2019","01","04","20:00","2.5","","0.5","","87","","","M","18","","20","","","","101.03","","","","","","NA"
"-64.30","44.36","LUNENBURG","8203210","2019-01-04 21:00","2019","01","04","21:00","2.5","","0.0","","84","","","M","18","","20","","","","100.98","","","","","","NA"
"-64.30","44.36","LUNENBURG","8203210","2019-01-04 22:00","2019","01","04","22:00","2.8","","0.3","","84","","","M","17","","20","","","","100.94","","","","","","NA"
"-64.30","44.36","LUNENBURG","8203210","2019-01-04 23:00","2019","01","04","23:00","2.8","","0.8","","87","","","M","19","","14","","","","100.90","","","","","","NA"
"-64.30","44.36","LUNENBURG","8203210","2019-01-05 00:00","2019","01","05","00:00","2.9","","1.3","","89","","","M","19","","19","","","","100.84","","","","","","NA"
"-64.30","44.36","LUNENBURG","8203210","2019-01-05 01:00","2019","01","05","01:00","3.1","","1.7","","91","","","M","18","","23","","","","100.80","","","","","","NA"
"-64.30","44.36","LUNENBURG","8203210","2019-01-05 02:00","2019","01","05","02:00","3.0","","1.8","","92","","","M","18","","17","","","","100.81","","","","","","NA"
"-64.30","44.36","LUNENBURG","8203210","2019-01-05 03:00","2019","01","05","03:00","2.6","","1.7","","94","","","M","20","","11","","","","100.84","","","","","","NA"
"-64.30","44.36","LUNENBURG","8203210","2019-01-05 04:00","2019","01","05","04:00","2.3","","1.5","","94","","","M","21","","10","","","","100.79","","","","","","NA"
"-64.30","44.36","LUNENBURG","8203210","2019-01-05 05:00","2019","01","05","05:00","1.6","","0.9","","95","","","M","33","","2","","","","100.71","","","","","","NA"
"-64.30","44.36","LUNENBURG","8203210","2019-01-05 06:00","2019","01","05","06:00","0.8","","0.3","","97","","","M","21","","2","","","","100.71","","","","","","NA"
"-64.30","44.36","LUNENBURG","8203210","2019-01-05 07:00","2019","01","05","07:00","0.3","","-0.1","","98","","","M","16","","3","","","","100.75","","","","","","NA"
"-64.30","44.36","LUNENBURG","8203210","2019-01-05 08:00","2019","01","05","08:00","1.4","","1.1","","98","","","M","8","","4","","","","100.79","","","","","","NA"
"-64.30","44.36","LUNENBURG","8203210","2019-01-05 09:00","2019","01","05","09:00","0.1","","-0.2","","98","","","M","0","","1","","","","100.78","","","","","","NA"
"-64.30","44.36","LUNENBURG","8203210","2019-01-05 10:00","2019","01","05","10:00","1.0","","0.7","","98","","","M","31","","5","","","","100.77","","","","","","NA"
"-64.30","44.36","LUNENBURG","8203210","2019-01-05 11:00","2019","01","05","11:00","1.9","","1.6","","98","","","M","36","","4","","","","100.67","","","","","","NA"
"-64.30","44.36","LUNENBURG","8203210","2019-01-05 12:00","2019","01","05","12:00","2.1","","1.4","","96","","","M","1","","1","","","","100.62","","","","","","NA"
"-64.30","44.36","LUNENBURG","8203210","2019-01-05 13:00","2019","01","05","13:00","2.6","","2.0","","96","","","M","1","","5","","","","100.50","","","","","","NA"
"-64.30","44.36","LUNENBURG","8203210","2019-01-05 14:00","2019","01","05","14:00","2.3","","1.9","","97","","","M","6","","7","","","","100.39","","","","","","NA"
"-64.30","44.36","LUNENBURG","8203210","2019-01-05 15:00","2019","01","05","15:00","2.9","","2.7","","99","","","M","4","","5","","","","100.34","","","","","","NA"
"-64.30","44.36","LUNENBURG","8203210","2019-01-05 16:00","2019","01","05","16:00","2.3","","2.1","","99","","","M","7","","7","","","","100.29","","","","","","NA"
"-64.30","44.36","LUNENBURG","8203210","2019-01-05 17:00","2019","01","05","17:00","2.2","","2.0","","99","","","M","7","","9","","","","100.17","","","","","","NA"
"-64.30","44.36","LUNENBURG","8203210","2019-01-05 18:00","2019","01","05","18:00","2.5","","2.3","","99","","","M","3","","10","","","","100.07","","","","","","NA"
"-64.30","44.36","LUNENBURG","8203210","2019-01-05 19:00","2019","01","05","19:00","2.7","","2.5","","99","","","M","2","","15","","","","99.97","","","","","","NA"
"-64.30","44.36","LUNENBURG","8203210","2019-01-05 20:00","2019","01","05","20:00","2.7","","2.5","","99","","","M","1","","10","","","","99.84","","","","","","NA"
"-64.30","44.36","LUNENBURG","8203210","2019-01-05 21:00","2019","01","05","21:00","2.5","","2.2","","98","","","M","33","","11","","","","99.72","","","","","","NA"
"-64.30","44.36","LUNENBURG","8203210","2019-01-05 22:00","2019","01","05","22:00","2.7","","2.3","","97","","","M","33","","17","","","","99.56","","","","","","NA"
"-64.30","44.36","LUNENBURG","8203210","2019-01-05 23:00","2019","01","05","23:00","2.6","","2.2","","97","","","M","35","","12","","","","99.34","","","","","","NA"
"-64.30","44.36","LUNENBURG","8203210","2019-01-06 00:00","2019","01","06","00:00","2.7","","2.2","","97","","","M","33","","18","","","","99.17","","","","","","NA"
"-64.30","44.36","LUNENBURG","8203210","2019-01-06 01:00","2019","01","06","01:00","2.8","","2.3","","97","","","M","32","","20","","","","99.12","","","","","","NA"
"-64.30","44.36","LUNENBURG","8203210","2019-01-06 02:00","2019","01","06","02:00","2.6","","2.0","","96","","","M","32","","24","","","","99.04","","","","","","NA"
"-64.30","44.36","LUNENBURG","8203210","2019-01-06 03:00","2019","01","06","03:00","2.8","","1.9","","94","","","M","32","","18","","","","99.03","","","","","","NA"
"-64.30","44.36","LUNENBURG","8203210","2019-01-06 04:00","2019","01","06","04:00","2.6","","1.5","","93","","","M","31","","24","","","","99.03","","","","","","NA"
"-64.30","44.36","LUNENBURG","8203210","2019-01-06 05:00","2019","01","06","05:00","2.0","","0.7","","91","","","M","31","","27","","","","99.00","","","","","","NA"
"-64.30","44.36","LUNENBURG","8203210","2019-01-06 06:00","2019","01","06","06:00","1.7","","0.3","","90","","","M","30","","27","","","","99.05","","","","","","NA"
"-64.30","44.36","LUNENBURG","8203210","2019-01-06 07:00","2019","01","06","07:00","1.7","","0.0","","89","","","M","30","","28","","","","99.17","","","","","","NA"
"-64.30","44.36","LUNENBURG","8203210","2019-01-06 08:00","2019","01","06","08:00","1.5","","-0.5","","86","","","M","29","","26","","","","99.29","","","","","","NA"
"-64.30","44.36","LUNENBURG","8203210","2019-01-06 09:00","2019","01","06","09:00","1.4","","-1.0","","84","","","M","29","","29","","","","99.42","","","","","","NA"
"-64.30","44.36","LUNENBURG","8203210","2019-01-06 10:00","2019","01","06","10:00","1.4","","-1.2","","83","","","M","30","","34","","","","99.51","","","","","","NA"
"-64.30","44.36","LUNENBURG","8203210","2019-01-06 11:00","2019","01","06","11:00","1.6","","-1.5","","80","","","M","29","","32","","","","99.63","","","","","","NA"
"-64.30","44.36","LUNENBURG","8203210","2019-01-06 12:00","2019","01","06","12:00","1.5","","-1.6","","80","","","M","29","","32","","","","99.63","","","","","","NA"
"-64.30","44.36","LUNENBURG","8203210","2019-01-06 13:00","2019","01","06","13:00","1.5","","-2.0","","78","","","M","30","","30","","","","99.68","","","","","","NA"
"-64.30","44.36","LUNENBURG","8203210","2019-01-06 14:00","2019","01","06","14:00","1.5","","-1.9","","78","","","M","29","","28","","","","99.76","","","","","","NA"
"-64.30","44.36","LUNENBURG","8203210","2019-01-06 15:00","2019","01","06","15:00","1.9","","-3.2","","69","","","M","29","","30","","","","99.83","","","","","","NA"
"-64.30","44.36","LUNENBURG","8203210","2019-01-06 16:00","2019","01","06","16:00","1.7","","-2.5","","74","","","M","29","","26","","","","99.93","","","","","","NA"
"-64.30","44.36","LUNENBURG","8203210","2019-01-06 17:00","2019","01","06","17:00","1.3","","-2.4","","76","","","M","29","","26","","","","100.00","","","","","","NA"
"-64.30","44.36","LUNENBURG","8203210","2019-01-06 18:00","2019","01","06","18:00","0.9","","-1.6","","83","","","M","26","","9","","","","100.11","","","","","","NA"
"-64.30","44.36","LUNENBURG","8203210","2019-01-06 19:00","2019","01","06","19:00","0.8","","-1.1","","87","","","M","25","","11","","","","100.19","","","","","","NA"
"-64.30","44.36","LUNENBURG","8203210","2019-01-06 20:00","2019","01","06","20:00","0.1","","-0.6","","95","","","M","28","","10","","","","100.28","","","","","","NA"
"-64.30","44.36","LUNENBURG","8203210","2019-01-06 21:00","2019","01","06","21:00","-0.1","","-0.5","","97","","","M","24","","8","","","","100.33","","","","-3","","NA"
"-64.30","44.36","LUNENBURG","8203210","2019-01-06 22:00","2019","01","06","22:00","0.1","","-0.2","","98","","","M","28","","20","","","","100.36","","","","","","NA"
"-64.30","44.36","LUNENBURG","8203210","2019-01-06 23:00","2019","01","06","23:00","-0.2","","-1.8","","89","","","M","28","","28","","","","100.37","","","","-7","","NA"
"-64.30","44.36","LUNENBURG","8203210","2019-01-07 00:00","2019","01","07","00:00","-0.9","","-2.4","","90","","","M","28","","20","","","","100.41","","","","-6","","NA"
"-64.30","44.36","LUNENBURG","8203210","2019-01-07 01:00","2019","01","07","01:00","-1.3","","-3.9","","83","","","M","28","","27","","","","100.45","","","","-8","","NA"
"-64.30","44.36","LUNENBURG","8203210","2019-01-07 02:00","2019","01","07","02:00","-2.2","","-5.4","","79","","","M","29","","34","","","","100.52","","","","-10","","NA"
"-64.30","44.36","LUNENBURG","8203210","2019-01-07 03:00","2019","01","07","03:00","-2.6","","-5.6","","80","","","M","29","","32","","","","100.62","","","","-10","","NA"
"-64.30","44.36","LUNENBURG","8203210","2019-01-07 04:00","2019","01","07","04:00","-3.1","","-6.4","","78","","","M","30","","30","","","","100.69","","","","-11","","NA"
"-64.30","44.36","LUNENBURG","8203210","2019-01-07 05:00","2019","01","07","05:00","-3.7","","-7.0","","78","","","M","29","","30","","","","100.76","","","","-11","","NA"
"-64.30","44.36","LUNENBURG","8203210","2019-01-07 06:00","2019","01","07","06:00","-4.0","","-7.3","","78","","","M","29","","38","","","","100.84","","","","-13","","NA"
"-64.30","44.36","LUNENBURG","8203210","2019-01-07 07:00","2019","01","07","07:00","-4.2","","-7.6","","77","","","M","29","","40","","","","100.98","","","","-13","","NA"
"-64.30","44.36","LUNENBURG","8203210","2019-01-07 08:00","2019","01","07","08:00","-5.1","","-8.7","","76","","","M","30","","33","","","","101.16","","","","-13","","NA"
"-64.30","44.36","LUNENBURG","8203210","2019-01-07 09:00","2019","01","07","09:00","-5.0","","-8.5","","76","","","M","30","","38","","","","101.28","","","","-14","","NA"
"-64.30","44.36","LUNENBURG","8203210","2019-01-07 10:00","2019","01","07","10:00","-5.1","","-9.0","","74","","","M","30","","30","","","","101.44","","","","-13","","NA"
"-64.30","44.36","LUNENBURG","8203210","2019-01-07 11:00","2019","01","07","11:00","-4.8","","-9.0","","72","","","M","30","","39","","","","101.50","","","","-14","","NA"
"-64.30","44.36","LUNENBURG","8203210","2019-01-07 12:00","2019","01","07","12:00","-4.6","","-8.7","","73","","","M","30","","35","","","","101.53","","","","-13","","NA"
"-64.30","44.36","LUNENBURG","8203210","2019-01-07 13:00","2019","01","07","13:00","-4.6","","-9.4","","69","","","M","30","","40","","","","101.55","","","","-14","","NA"
"-64.30","44.36","LUNENBURG","8203210","2019-01-07 14:00","2019","01","07","14:00","-4.9","","-10.1","","67","","","M","29","","41","","","","101.68","","","","-14","","NA"
"-64.30","44.36","LUNENBURG","8203210","2019-01-07 15:00","2019","01","07","15:00","-4.8","","-10.4","","65","","","M","31","","34","","","","101.87","","","","-13","","NA"
"-64.30","44.36","LUNENBURG","8203210","2019-01-07 16:00","2019","01","07","16:00","-4.6","","-9.4","","69","","","M","31","","30","","","","101.97","","","","-12","","NA"
"-64.30","44.36","LUNENBURG","8203210","2019-01-07 17:00","2019","01","07","17:00","-5.3","","-9.8","","70","","","M","30","","25","","","","102.07","","","","-13","","NA"
"-64.30","44.36","LUNENBURG","8203210","2019-01-07 18:00","2019","01","07","18:00","-6.0","","-10.4","","71","","","M","30","","21","","","","102.24","","","","-13","","NA"
"-64.30","44.36","LUNENBURG","8203210","2019-01-07 19:00","2019","01","07","19:00","-6.5","","-11.0","","70","","","M","31","","20","","","","102.35","","","","-13","","NA"
"-64.30","44.36","LUNENBURG","8203210","2019-01-07 20:00","2019","01","07","20:00","-6.7","","-12.4","","64","","","M","32","","23","","","","102.38","","","","-14","","NA"
"-64.30","44.36","LUNENBURG","8203210","2019-01-07 21:00","2019","01","07","21:00","-7.3","","-12.5","","66","","","M","32","","23","","","","102.40","","","","-15","","NA"
"-64.30","44.36","LUNENBURG","8203210","2019-01-07 22:00","2019","01","07","22:00","-7.8","","-13.1","","66","","","M","30","","22","","","","102.49","","","","-15","","NA"
"-64.30","44.36","LUNENBURG","8203210","2019-01-07 23:00","2019","01","07","23:00","-8.5","","-13.7","","66","","","M","31","","19","","","","102.51","","","","-16","","NA"
"-64.30","44.36","LUNENBURG","8203210","2019-01-08 00:00","2019","01","08","00:00","-8.2","","-11.9","","74","","","M","31","","22","","","","102.50","","","","-16","","NA"
"-64.30","44.36","LUNENBURG","8203210","2019-01-08 01:00","2019","01","08","01:00","-8.9","","-13.1","","71","","","M","32","","17","","","","102.51","","","","-16","","NA"
"-64.30","44.36","LUNENBURG","8203210","2019-01-08 02:00","2019","01","08","02:00","-8.9","","-13.4","","70","","","M","29","","14","","","","102.61","","","","-15","","NA"
"-64.30","44.36","LUNENBURG","8203210","2019-01-08 03:00","2019","01","08","03:00","-8.3","","-12.5","","72","","","M","30","","16","","","","102.61","","","","-15","","NA"
"-64.30","44.36","LUNENBURG","8203210","2019-01-08 04:00","2019","01","08","04:00","-8.2","","-12.1","","73","","","M","30","","18","","","","102.59","","","","-15","","NA"
"-64.30","44.36","LUNENBURG","8203210","2019-01-08 05:00","2019","01","08","05:00","-8.1","","-11.7","","76","","","M","31","","13","","","","102.57","","","","-14","","NA"
"-64.30","44.36","LUNENBURG","8203210","2019-01-08 06:00","2019","01","08","06:00","-8.4","","-11.7","","77","","","M","30","","11","","","","102.57","","","","-14","","NA"
"-64.30","44.36","LUNENBURG","8203210","2019-01-08 07:00","2019","01","08","07:00","-8.4","","-11.4","","78","","","M","32","","7","","","","102.58","","","","-12","","NA"
"-64.30","44.36","LUNENBURG","8203210","2019-01-08 08:00","2019","01","08","08:00","-7.5","","-10.0","","82","","","M","5","","7","","","","102.52","","","","-11","","NA"
"-64.30","44.36","LUNENBURG","8203210","2019-01-08 09:00","2019","01","08","09:00","-6.2","","-8.9","","81","","","M","4","","7","","","","102.52","","","","-10","","NA"
"-64.30","44.36","LUNENBURG","8203210","2019-01-08 10:00","2019","01","08","10:00","-5.2","","-8.1","","81","","","M","30","","5","","","","102.59","","","","-7","","NA"
"-64.30","44.36","LUNENBURG","8203210","2019-01-08 11:00","2019","01","08","11:00","-4.4","","-7.7","","78","","","M","9","","11","","","","102.48","","","","-9","","NA"
"-64.30","44.36","LUNENBURG","8203210","2019-01-08 12:00","2019","01","08","12:00","-3.7","","-7.2","","76","","","M","9","","7","","","","102.36","","","","-7","","NA"
"-64.30","44.36","LUNENBURG","8203210","2019-01-08 13:00","2019","01","08","13:00","-3.4","","-6.9","","77","","","M","15","","8","","","","102.30","","","","-7","","NA"
"-64.30","44.36","LUNENBURG","8203210","2019-01-08 14:00","2019","01","08","14:00","-2.8","","-6.3","","76","","","M","16","","11","","","","102.26","","","","-7","","NA"
"-64.30","44.36","LUNENBURG","8203210","2019-01-08 15:00","2019","01","08","15:00","-2.5","","-6.2","","76","","","M","16","","9","","","","102.20","","","","-6","","NA"
"-64.30","44.36","LUNENBURG","8203210","2019-01-08 16:00","2019","01","08","16:00","-2.1","","-5.5","","78","","","M","14","","13","","","","102.14","","","","-7","","NA"
"-64.30","44.36","LUNENBURG","8203210","2019-01-08 17:00","2019","01","08","17:00","-1.9","","-5.4","","77","","","M","14","","12","","","","102.07","","","","-6","","NA"
"-64.30","44.36","LUNENBURG","8203210","2019-01-08 18:00","2019","01","08","18:00","-1.4","","-4.5","","79","","","M","12","","18","","","","101.99","","","","-7","","NA"
"-64.30","44.36","LUNENBURG","8203210","2019-01-08 19:00","2019","01","08","19:00","-0.8","","-3.4","","82","","","M","11","","21","","","","101.96","","","","-6","","NA"
"-64.30","44.36","LUNENBURG","8203210","2019-01-08 20:00","2019","01","08","20:00","-0.2","","-2.9","","82","","","M","12","","21","","","","101.94","","","","-6","","NA"
"-64.30","44.36","LUNENBURG","8203210","2019-01-08 21:00","2019","01","08","21:00","0.2","","-1.7","","87","","","M","12","","28","","","","101.85","","","","","","NA"
"-64.30","44.36","LUNENBURG","8203210","2019-01-08 22:00","2019","01","08","22:00","1.1","","-1.2","","85","","","M","11","","32","","","","101.70","","","","","","NA"
"-64.30","44.36","LUNENBURG","8203210","2019-01-08 23:00","2019","01","08","23:00","1.4","","-0.8","","85","","","M","10","","32","","","","101.59","","","","","","NA"
"-64.30","44.36","LUNENBURG","8203210","2019-01-09 00:00","2019","01","09","00:00","1.7","","-0.6","","85","","","M","10","","32","","","","101.46","","","","","","NA"
"-64.30","44.36","LUNENBURG","8203210","2019-01-09 01:00","2019","01","09","01:00","0.5","","-0.1","","96","","","M","10","","26","","","","101.44","","","","","","NA"
"-64.30","44.36","LUNENBURG","8203210","2019-01-09 02:00","2019","01","09","02:00","0.5","","0.1","","97","","","M","9","","41","","","","101.17","","","","","","NA"
"-64.30","44.36","LUNENBURG","8203210","2019-01-09 03:00","2019","01","09","03:00","1.7","","1.0","","95","","","M","8","","45","","","","100.99","","","","","","NA"
"-64.30","44.36","LUNENBURG","8203210","2019-01-09 04:00","2019","01","09","04:00","2.1","","1.4","","95","","","M","8","","50","","","","100.78","","","","","","NA"
"-64.30","44.36","LUNENBURG","8203210","2019-01-09 05:00","2019","01","09","05:00","2.5","","1.8","","95","","","M","8","","49","","","","100.51","","","","","","NA"
"-64.30","44.36","LUNENBURG","8203210","2019-01-09 06:00","2019","01","09","06:00","2.7","","2.1","","96","","","M","8","","59","","","","100.26","","","","","","NA"
"-64.30","44.36","LUNENBURG","8203210","2019-01-09 07:00","2019","01","09","07:00","3.1","","2.5","","96","","","M","9","","66","","","","99.98","","","","","","NA"
"-64.30","44.36","LUNENBURG","8203210","2019-01-09 08:00","2019","01","09","08:00","3.0","","2.4","","96","","","M","8","","68","","","","99.82","","","","","","NA"
"-64.30","44.36","LUNENBURG","8203210","2019-01-09 09:00","2019","01","09","09:00","3.5","","2.9","","96","","","M","10","","49","","","","99.85","","","","","","NA"
"-64.30","44.36","LUNENBURG","8203210","2019-01-09 10:00","2019","01","09","10:00","3.7","","3.1","","96","","","M","10","","58","","","","99.53","","","","","","NA"
"-64.30","44.36","LUNENBURG","8203210","2019-01-09 11:00","2019","01","09","11:00","3.9","","3.5","","97","","","M","9","","46","","","","99.38","","","","","","NA"
"-64.30","44.36","LUNENBURG","8203210","2019-01-09 12:00","2019","01","09","12:00","5.0","","4.7","","98","","","M","11","","43","","","","99.10","","","","","","NA"
"-64.30","44.36","LUNENBURG","8203210","2019-01-09 13:00","2019","01","09","13:00","4.4","","4.2","","98","","","M","11","","40","","","","98.86","","","","","","NA"
"-64.30","44.36","LUNENBURG","8203210","2019-01-09 14:00","2019","01","09","14:00","5.6","","5.4","","99","","","M","14","","30","","","","98.75","","","","","","NA"
"-64.30","44.36","LUNENBURG","8203210","2019-01-09 15:00","2019","01","09","15:00","5.0","","4.8","","99","","","M","19","","23","","","","98.68","","","","","","NA"
"-64.30","44.36","LUNENBURG","8203210","2019-01-09 16:00","2019","01","09","16:00","4.2","","3.9","","99","","","M","18","","29","","","","98.69","","","","","","NA"
"-64.30","44.36","LUNENBURG","8203210","2019-01-09 17:00","2019","01","09","17:00","4.8","","3.3","","90","","","M","18","","29","","","","98.77","","","","","","NA"
"-64.30","44.36","LUNENBURG","8203210","2019-01-09 18:00","2019","01","09","18:00","4.2","","2.7","","90","","","M","18","","31","","","","98.75","","","","","","NA"
"-64.30","44.36","LUNENBURG","8203210","2019-01-09 19:00","2019","01","09","19:00","4.1","","2.4","","89","","","M","17","","29","","","","98.71","","","","","","NA"
"-64.30","44.36","LUNENBURG","8203210","2019-01-09 20:00","2019","01","09","20:00","3.6","","1.9","","88","","","M","16","","32","","","","98.67","","","","","","NA"
"-64.30","44.36","LUNENBURG","8203210","2019-01-09 21:00","2019","01","09","21:00","3.4","","1.7","","88","","","M","15","","33","","","","98.60","","","","","","NA"
"-64.30","44.36","LUNENBURG","8203210","2019-01-09 22:00","2019","01","09","22:00","3.1","","1.8","","91","","","M","16","","33","","","","98.51","","","","","","NA"
"-64.30","44.36","LUNENBURG","8203210","2019-01-09 23:00","2019","01","09","23:00","3.3","","1.5","","88","","","M","18","","32","","","","98.50","","","","","","NA"
"-64.30","44.36","LUNENBURG","8203210","2019-01-10 00:00","2019","01","10","00:00","2.7","","0.3","","84","","","M","20","","34","","","","98.47","","","","","","NA"
"-64.30","44.36","LUNENBURG","8203210","2019-01-10 01:00","2019","01","10","01:00","2.1","","0.1","","87","","","M","18","","25","","","","98.56","","","","","","NA"
"-64.30","44.36","LUNENBURG","8203210","2019-01-10 02:00","2019","01","10","02:00","2.0","","-0.6","","83","","","M","19","","32","","","","98.62","","","","","","NA"
"-64.30","44.36","LUNENBURG","8203210","2019-01-10 03:00","2019","01","10","03:00","1.4","","-0.6","","86","","","M","20","","28","","","","98.68","","","","","","NA"
"-64.30","44.36","LUNENBURG","8203210","2019-01-10 04:00","2019","01","10","04:00","1.1","","-1.2","","85","","","M","20","","30","","","","98.70","","","","","","NA"
"-64.30","44.36","LUNENBURG","8203210","2019-01-10 05:00","2019","01","10","05:00","0.7","","-1.3","","86","","","M","20","","25","","","","98.74","","","","","","NA"
"-64.30","44.36","LUNENBURG","8203210","2019-01-10 06:00","2019","01","10","06:00","0.9","","-1.3","","85","","","M","20","","26","","","","98.81","","","","","","NA"
"-64.30","44.36","LUNENBURG","8203210","2019-01-10 07:00","2019","01","10","07:00","1.1","","-1.7","","82","","","M","20","","27","","","","98.86","","","","","","NA"
"-64.30","44.36","LUNENBURG","8203210","2019-01-10 08:00","2019","01","10","08:00","1.0","","-1.9","","81","","","M","21","","25","","","","98.91","","","","","","NA"
"-64.30","44.36","LUNENBURG","8203210","2019-01-10 09:00","2019","01","10","09:00","0.7","","-2.3","","80","","","M","20","","18","","","","99.00","","","","","","NA"
"-64.30","44.36","LUNENBURG","8203210","2019-01-10 10:00","2019","01","10","10:00","1.1","","-2.4","","77","","","M","20","","21","","","","99.06","","","","","","NA"
"-64.30","44.36","LUNENBURG","8203210","2019-01-10 11:00","2019","01","10","11:00","1.5","","-2.6","","74","","","M","22","","22","","","","99.07","","","","","","NA"
"-64.30","44.36","LUNENBURG","8203210","2019-01-10 12:00","2019","01","10","12:00","1.9","","-3.3","","69","","","M","22","","23","","","","99.02","","","","","","NA"
"-64.30","44.36","LUNENBURG","8203210","2019-01-10 13:00","2019","01","10","13:00","2.2","","-2.9","","69","","","M","21","","21","","","","99.01","","","","","","NA"
"-64.30","44.36","LUNENBURG","8203210","2019-01-10 14:00","2019","01","10","14:00","2.9","","-4.1","","60","","","M","21","","20","","","","99.02","","","","","","NA"
"-64.30","44.36","LUNENBURG","8203210","2019-01-10 15:00","2019","01","10","15:00","2.7","","-3.4","","64","","","M","24","","19","","","","99.06","","","","","","NA"
"-64.30","44.36","LUNENBURG","8203210","2019-01-10 16:00","2019","01","10","16:00","2.2","","-3.6","","65","","","M","25","","20","","","","99.10","","","","","","NA"
"-64.30","44.36","LUNENBURG","8203210","2019-01-10 17:00","2019","01","10","17:00","1.6","","-4.1","","66","","","M","25","","22","","","","99.14","","","","","","NA"
"-64.30","44.36","LUNENBURG","8203210","2019-01-10 18:00","2019","01","10","18:00","1.0","","-3.6","","71","","","M","23","","15","","","","99.22","","","","","","NA"
"-64.30","44.36","LUNENBURG","8203210","2019-01-10 19:00","2019","01","10","19:00","0.5","","-4.3","","70","","","M","24","","18","","","","99.29","","","","","","NA"
"-64.30","44.36","LUNENBURG","8203210","2019-01-10 20:00","2019","01","10","20:00","-0.2","","-5.3","","69","","","M","25","","25","","","","99.34","","","","-6","","NA"
"-64.30","44.36","LUNENBURG","8203210","2019-01-10 21:00","2019","01","10","21:00","-0.3","","-6.1","","65","","","M","24","","26","","","","99.36","","","","-6","","NA"
"-64.30","44.36","LUNENBURG","8203210","2019-01-10 22:00","2019","01","10","22:00","-0.5","","-5.1","","71","","","M","23","","17","","","","99.38","","","","-5","","NA"
"-64.30","44.36","LUNENBURG","8203210","2019-01-10 23:00","2019","01","10","23:00","-0.8","","-4.1","","78","","","M","21","","19","","","","99.42","","","","-6","","NA"
"-64.30","44.36","LUNENBURG","8203210","2019-01-11 00:00","2019","01","11","00:00","-1.1","","-3.8","","82","","","M","22","","19","","","","99.44","","","","-6","","NA"
"-64.30","44.36","LUNENBURG","8203210","2019-01-11 01:00","2019","01","11","01:00","-1.0","","-4.0","","80","","","M","24","","22","","","","99.48","","","","-7","","NA"
"-64.30","44.36","LUNENBURG","8203210","2019-01-11 02:00","2019","01","11","02:00","-1.5","","-3.9","","84","","","M","24","","19","","","","99.57","","","","-7","","NA"
"-64.30","44.36","LUNENBURG","8203210","2019-01-11 03:00","2019","01","11","03:00","-1.8","","-4.6","","81","","","M","24","","22","","","","99.65","","","","-8","","NA"
"-64.30","44.36","LUNENBURG","8203210","2019-01-11 04:00","2019","01","11","04:00","-1.5","","-4.5","","80","","","M","24","","21","","","","99.70","","","","-7","","NA"
"-64.30","44.36","LUNENBURG","8203210","2019-01-11 05:00","2019","01","11","05:00","-1.7","","-5.8","","74","","","M","26","","29","","","","99.80","","","","-9","","NA"
"-64.30","44.36","LUNENBURG","8203210","2019-01-11 06:00","2019","01","11","06:00","-1.8","","-5.5","","76","","","M","26","","30","","","","99.89","","","","-9","","NA"
"-64.30","44.36","LUNENBURG","8203210","2019-01-11 07:00","2019","01","11","07:00","-2.0","","-5.5","","77","","","M","25","","23","","","","99.99","","","","-8","","NA"
"-64.30","44.36","LUNENBURG","8203210","2019-01-11 08:00","2019","01","11","08:00","-2.5","","-6.5","","74","","","M","24","","26","","","","100.15","","","","-9","","NA"
"-64.30","44.36","LUNENBURG","8203210","2019-01-11 09:00","2019","01","11","09:00","-2.7","","-7.4","","70","","","M","25","","32","","","","100.27","","","","-10","","NA"
"-64.30","44.36","LUNENBURG","8203210","2019-01-11 10:00","2019","01","11","10:00","-3.1","","-7.8","","70","","","M","24","","32","","","","100.41","","","","-11","","NA"
"-64.30","44.36","LUNENBURG","8203210","2019-01-11 11:00","2019","01","11","11:00","-3.5","","-8.6","","68","","","M","26","","33","","","","100.47","","","","-11","","NA"
"-64.30","44.36","LUNENBURG","8203210","2019-01-11 12:00","2019","01","11","12:00","-4.1","","-9.0","","68","","","M","25","","32","","","","100.48","","","","-12","","NA"
"-64.30","44.36","LUNENBURG","8203210","2019-01-11 13:00","2019","01","11","13:00","-4.4","","-9.4","","68","","","M","26","","32","","","","100.53","","","","-12","","NA"
"-64.30","44.36","LUNENBURG","8203210","2019-01-11 14:00","2019","01","11","14:00","-4.6","","-9.5","","68","","","M","25","","34","","","","100.57","","","","-13","","NA"
"-64.30","44.36","LUNENBURG","8203210","2019-01-11 15:00","2019","01","11","15:00","-5.0","","-10.1","","67","","","M","26","","34","","","","100.69","","","","-13","","NA"
"-64.30","44.36","LUNENBURG","8203210","2019-01-11 16:00","2019","01","11","16:00","-5.3","","-10.2","","68","","","M","25","","37","","","","100.79","","","","-14","","NA"
"-64.30","44.36","LUNENBURG","8203210","2019-01-11 17:00","2019","01","11","17:00","-5.6","","-10.5","","69","","","M","26","","33","","","","100.88","","","","-14","","NA"
"-64.30","44.36","LUNENBURG","8203210","2019-01-11 18:00","2019","01","11","18:00","-5.5","","-10.0","","70","","","M","25","","39","","","","100.99","","","","-15","","NA"
"-64.30","44.36","LUNENBURG","8203210","2019-01-11 19:00","2019","01","11","19:00","-5.7","","-10.8","","68","","","M","25","","33","","","","101.07","","","","-14","","NA"
"-64.30","44.36","LUNENBURG","8203210","2019-01-11 20:00","2019","01","11","20:00","-5.5","","-9.9","","71","","","M","25","","28","","","","101.14","","","","-13","","NA"
"-64.30","44.36","LUNENBURG","8203210","2019-01-11 21:00","2019","01","11","21:00","-6.0","","-10.2","","72","","","M","26","","26","","","","101.26","","","","-14","","NA"
"-64.30","44.36","LUNENBURG","8203210","2019-01-11 22:00","2019","01","11","22:00","-6.4","","-10.4","","73","","","M","27","","26","","","","101.34","","","","-14","","NA"
"-64.30","44.36","LUNENBURG","8203210","2019-01-11 23:00","2019","01","11","23:00","-6.4","","-11.0","","70","","","M","25","","32","","","","101.37","","","","-15","","NA"
"-64.30","44.36","LUNENBURG","8203210","2019-01-12 00:00","2019","01","12","00:00","-6.9","","-11.3","","71","","","M","26","","33","","","","101.41","","","","-16","","NA"
"-64.30","44.36","LUNENBURG","8203210","2019-01-12 01:00","2019","01","12","01:00","-8.0","","-11.8","","74","","","M","26","","40","","","","101.49","","","","-18","","NA"
"-64.30","44.36","LUNENBURG","8203210","2019-01-12 02:00","2019","01","12","02:00","-8.6","","-11.2","","81","","","M","27","","26","","","","101.61","","","","-17","","NA"
"-64.30","44.36","LUNENBURG","8203210","2019-01-12 03:00","2019","01","12","03:00","-8.5","","-12.0","","76","","","M","26","","33","","","","101.69","","","","-18","","NA"
"-64.30","44.36","LUNENBURG","8203210","2019-01-12 04:00","2019","01","12","04:00","-9.3","","-12.9","","75","","","M","26","","23","","","","101.70","","","","-18","","NA"
"-64.30","44.36","LUNENBURG","8203210","2019-01-12 05:00","2019","01","12","05:00","-9.3","","-12.2","","79","","","M","27","","19","","","","101.72","","","","-17","","NA"
"-64.30","44.36","LUNENBURG","8203210","2019-01-12 06:00","2019","01","12","06:00","-9.4","","-13.3","","73","","","M","25","","28","","","","101.76","","","","-18","","NA"
"-64.30","44.36","LUNENBURG","8203210","2019-01-12 07:00","2019","01","12","07:00","-9.5","","-13.7","","71","","","M","24","","26","","","","101.82","","","","-18","","NA"
"-64.30","44.36","LUNENBURG","8203210","2019-01-12 08:00","2019","01","12","08:00","-9.3","","-13.8","","70","","","M","24","","26","","","","101.87","","","","-18","","NA"
"-64.30","44.36","LUNENBURG","8203210","2019-01-12 09:00","2019","01","12","09:00","-9.2","","-13.6","","70","","","M","24","","27","","","","101.94","","","","-18","","NA"
"-64.30","44.36","LUNENBURG","8203210","2019-01-12 10:00","2019","01","12","10:00","-8.4","","-13.4","","68","","","M","25","","27","","","","101.97","","","","-17","","NA"
"-64.30","44.36","LUNENBURG","8203210","2019-01-12 11:00","2019","01","12","11:00","-8.5","","-12.9","","70","","","M","24","","31","","","","101.99","","","","-18","","NA"
"-64.30","44.36","LUNENBURG","8203210","2019-01-12 12:00","2019","01","12","12:00","-8.6","","-13.4","","68","","","M","25","","31","","","","101.93","","","","-18","","NA"
"-64.30","44.36","LUNENBURG","8203210","2019-01-12 13:00","2019","01","12","13:00","-7.6","","-12.7","","67","","","M","25","","30","","","","101.86","","","","-16","","NA"
"-64.30","44.36","LUNENBURG","8203210","2019-01-12 14:00","2019","01","12","14:00","-7.5","","-12.9","","65","","","M","24","","34","","","","101.85","","","","-17","","NA"
"-64.30","44.36","LUNENBURG","8203210","2019-01-12 15:00","2019","01","12","15:00","-7.5","","-13.6","","62","","","M","27","","30","","","","101.89","","","","-16","","NA"
"-64.30","44.36","LUNENBURG","8203210","2019-01-12 16:00","2019","01","12","16:00","-7.8","","-13.4","","64","","","M","25","","35","","","","101.96","","","","-17","","NA"
"-64.30","44.36","LUNENBURG","8203210","2019-01-12 17:00","2019","01","12","17:00","-8.3","","-12.9","","70","","","M","26","","28","","","","102.06","","","","-17","","NA"
"-64.30","44.36","LUNENBURG","8203210","2019-01-12 18:00","2019","01","12","18:00","-8.6","","-12.7","","72","","","M","26","","27","","","","102.12","","","","-17","","NA"
"-64.30","44.36","LUNENBURG","8203210","2019-01-12 19:00","2019","01","12","19:00","-8.5","","-12.0","","76","","","M","27","","19","","","","102.21","","","","-16","","NA"
"-64.30","44.36","LUNENBURG","8203210","2019-01-12 20:00","2019","01","12","20:00","-8.5","","-12.7","","72","","","M","28","","25","","","","102.27","","","","-17","","NA"
"-64.30","44.36","LUNENBURG","8203210","2019-01-12 21:00","2019","01","12","21:00","-8.5","","-12.2","","74","","","M","28","","28","","","","102.33","","","","-17","","NA"
"-64.30","44.36","LUNENBURG","8203210","2019-01-12 22:00","2019","01","12","22:00","-8.7","","-12.1","","76","","","M","28","","19","","","","102.35","","","","-16","","NA"
"-64.30","44.36","LUNENBURG","8203210","2019-01-12 23:00","2019","01","12","23:00","-8.9","","-12.7","","74","","","M","28","","22","","","","102.38","","","","-17","","NA"
"-64.30","44.36","LUNENBURG","8203210","2019-01-13 00:00","2019","01","13","00:00","-9.3","","-12.9","","75","","","M","27","","15","","","","102.39","","","","-16","","NA"
"-64.30","44.36","LUNENBURG","8203210","2019-01-13 01:00","2019","01","13","01:00","-9.4","","-12.6","","77","","","M","26","","15","","","","102.39","","","","-16","","NA"
"-64.30","44.36","LUNENBURG","8203210","2019-01-13 02:00","2019","01","13","02:00","-9.4","","-12.4","","79","","","M","26","","15","","","","102.47","","","","-16","","NA"
"-64.30","44.36","LUNENBURG","8203210","2019-01-13 03:00","2019","01","13","03:00","-9.5","","-12.3","","80","","","M","27","","13","","","","102.49","","","","-16","","NA"
"-64.30","44.36","LUNENBURG","8203210","2019-01-13 04:00","2019","01","13","04:00","-9.6","","-12.2","","81","","","M","26","","14","","","","102.50","","","","-16","","NA"
"-64.30","44.36","LUNENBURG","8203210","2019-01-13 05:00","2019","01","13","05:00","-10.1","","-12.2","","84","","","M","27","","13","","","","102.50","","","","-16","","NA"
"-64.30","44.36","LUNENBURG","8203210","2019-01-13 06:00","2019","01","13","06:00","-10.3","","-12.2","","86","","","M","27","","13","","","","102.52","","","","-17","","NA"
"-64.30","44.36","LUNENBURG","8203210","2019-01-13 07:00","2019","01","13","07:00","-10.5","","-12.4","","86","","","M","27","","10","","","","102.52","","","","-16","","NA"
"-64.30","44.36","LUNENBURG","8203210","2019-01-13 08:00","2019","01","13","08:00","-10.5","","-12.5","","85","","","M","26","","14","","","","102.56","","","","-17","","NA"
"-64.30","44.36","LUNENBURG","8203210","2019-01-13 09:00","2019","01","13","09:00","-9.8","","-12.3","","82","","","M","28","","13","","","","102.61","","","","-16","","NA"
"-64.30","44.36","LUNENBURG","8203210","2019-01-13 10:00","2019","01","13","10:00","-8.5","","-11.9","","76","","","M","29","","23","","","","102.63","","","","-17","","NA"
"-64.30","44.36","LUNENBURG","8203210","2019-01-13 11:00","2019","01","13","11:00","-6.6","","-11.9","","66","","","M","28","","18","","","","102.58","","","","-13","","NA"
"-64.30","44.36","LUNENBURG","8203210","2019-01-13 12:00","2019","01","13","12:00","-5.0","","-12.7","","55","","","M","29","","18","","","","102.48","","","","-11","","NA"
"-64.30","44.36","LUNENBURG","8203210","2019-01-13 13:00","2019","01","13","13:00","-3.7","","-13.3","","47","","","M","29","","18","","","","102.46","","","","-10","","NA"
"-64.30","44.36","LUNENBURG","8203210","2019-01-13 14:00","2019","01","13","14:00","-3.0","","-12.6","","48","","","M","29","","18","","","","102.43","","","","-9","","NA"
"-64.30","44.36","LUNENBURG","8203210","2019-01-13 15:00","2019","01","13","15:00","-2.8","","-11.8","","50","","","M","28","","20","","","","102.45","","","","-9","","NA"
"-64.30","44.36","LUNENBURG","8203210","2019-01-13 16:00","2019","01","13","16:00","-2.9","","-11.0","","54","","","M","26","","21","","","","102.47","","","","-9","","NA"
"-64.30","44.36","LUNENBURG","8203210","2019-01-13 17:00","2019","01","13","17:00","-3.6","","-10.9","","57","","","M","27","","20","","","","102.50","","","","-10","","NA"
"-64.30","44.36","LUNENBURG","8203210","2019-01-13 18:00","2019","01","13","18:00","-4.6","","-11.2","","60","","","M","28","","18","","","","102.56","","","","-11","","NA"
"-64.30","44.36","LUNENBURG","8203210","2019-01-13 19:00","2019","01","13","19:00","-5.4","","-10.7","","66","","","M","28","","15","","","","102.61","","","","-11","","NA"
"-64.30","44.36","LUNENBURG","8203210","2019-01-13 20:00","2019","01","13","20:00","-5.7","","-9.5","","74","","","M","27","","15","","","","102.60","","","","-11","","NA"
"-64.30","44.36","LUNENBURG","8203210","2019-01-13 21:00","2019","01","13","21:00","-6.7","","-10.2","","76","","","M","28","","15","","","","102.61","","","","-13","","NA"
"-64.30","44.36","LUNENBURG","8203210","2019-01-13 22:00","2019","01","13","22:00","-7.3","","-10.3","","79","","","M","29","","11","","","","102.66","","","","-12","","NA"
"-64.30","44.36","LUNENBURG","8203210","2019-01-13 23:00","2019","01","13","23:00","-7.6","","-10.4","","80","","","M","30","","10","","","","102.67","","","","-12","","NA"
"-64.30","44.36","LUNENBURG","8203210","2019-01-14 00:00","2019","01","14","00:00","-8.3","","-11.4","","78","","","M","29","","12","","","","102.64","","","","-14","","NA"
"-64.30","44.36","LUNENBURG","8203210","2019-01-14 01:00","2019","01","14","01:00","-8.5","","-11.3","","80","","","M","29","","11","","","","102.61","","","","-14","","NA"
"-64.30","44.36","LUNENBURG","8203210","2019-01-14 02:00","2019","01","14","02:00","-8.9","","-10.7","","87","","","M","24","","13","","","","102.67","","","","-15","","NA"
"-64.30","44.36","LUNENBURG","8203210","2019-01-14 03:00","2019","01","14","03:00","-9.6","","-11.7","","85","","","M","30","","12","","","","102.63","","","","-15","","NA"
"-64.30","44.36","LUNENBURG","8203210","2019-01-14 04:00","2019","01","14","04:00","-9.7","","-11.7","","85","","","M","32","","6","","","","102.60","","","","-13","","NA"
"-64.30","44.36","LUNENBURG","8203210","2019-01-14 05:00","2019","01","14","05:00","-9.4","","-11.3","","87","","","M","31","","6","","","","102.51","","","","-13","","NA"
"-64.30","44.36","LUNENBURG","8203210","2019-01-14 06:00","2019","01","14","06:00","-9.8","","-11.7","","86","","","M","30","","9","","","","102.47","","","","-15","","NA"
"-64.30","44.36","LUNENBURG","8203210","2019-01-14 07:00","2019","01","14","07:00","-10.5","","-12.3","","86","","","M","34","","7","","","","102.38","","","","-15","","NA"
"-64.30","44.36","LUNENBURG","8203210","2019-01-14 08:00","2019","01","14","08:00","-10.2","","-11.3","","92","","","M","29","","5","","","","102.50","","","","-13","","NA"
"-64.30","44.36","LUNENBURG","8203210","2019-01-14 09:00","2019","01","14","09:00","-10.2","","-11.6","","90","","","M","30","","9","","","","102.44","","","","-15","","NA"
"-64.30","44.36","LUNENBURG","8203210","2019-01-14 10:00","2019","01","14","10:00","-8.5","","-10.3","","87","","","M","33","","6","","","","102.43","","","","-12","","NA"
"-64.30","44.36","LUNENBURG","8203210","2019-01-14 11:00","2019","01","14","11:00","-7.2","","-9.5","","84","","","M","33","","9","","","","102.39","","","","-12","","NA"
"-64.30","44.36","LUNENBURG","8203210","2019-01-14 12:00","2019","01","14","12:00","-6.7","","-9.4","","81","","","M","32","","9","","","","102.29","","","","-11","","NA"
"-64.30","44.36","LUNENBURG","8203210","2019-01-14 13:00","2019","01","14","13:00","-6.1","","-9.5","","77","","","M","2","","8","","","","102.17","","","","-10","","NA"
"-64.30","44.36","LUNENBURG","8203210","2019-01-14 14:00","2019","01","14","14:00","-5.7","","-10.2","","71","","","M","3","","10","","","","102.05","","","","-10","","NA"
"-64.30","44.36","LUNENBURG","8203210","2019-01-14 15:00","2019","01","14","15:00","-5.6","","-10.6","","68","","","M","3","","13","","","","101.95","","","","-11","","NA"
"-64.30","44.36","LUNENBURG","8203210","2019-01-14 16:00","2019","01","14","16:00","-5.5","","-10.6","","67","","","M","1","","6","","","","101.89","","","","-8","","NA"
"-64.30","44.36","LUNENBURG","8203210","2019-01-14 17:00","2019","01","14","17:00","-5.4","","-10.3","","68","","","M","1","","5","","","","101.78","","","","-8","","NA"
"-64.30","44.36","LUNENBURG","8203210","2019-01-14 18:00","2019","01","14","18:00","-4.8","","-10.2","","66","","","M","4","","9","","","","101.76","","","","-9","","NA"
"-64.30","44.36","LUNENBURG","8203210","2019-01-14 19:00","2019","01","14","19:00","-5.4","","-10.8","","66","","","M","2","","8","","","","101.68","","","","-9","","NA"
"-64.30","44.36","LUNENBURG","8203210","2019-01-14 20:00","2019","01","14","20:00","-5.6","","-11.2","","65","","","M","4","","13","","","","101.63","","","","-11","","NA"
"-64.30","44.36","LUNENBURG","8203210","2019-01-14 21:00","2019","01","14","21:00","-5.8","","-11.3","","65","","","M","36","","8","","","","101.50","","","","-10","","NA"
"-64.30","44.36","LUNENBURG","8203210","2019-01-14 22:00","2019","01","14","22:00","-6.0","","-10.4","","71","","","M","34","","8","","","","101.38","","","","-10","","NA"
"-64.30","44.36","LUNENBURG","8203210","2019-01-14 23:00","2019","01","14","23:00","-6.3","","-10.8","","70","","","M","33","","10","","","","101.29","","","","-11","","NA"
"-64.30","44.36","LUNENBURG","8203210","2019-01-15 00:00","2019","01","15","00:00","-6.4","","-10.3","","74","","","M","34","","9","","","","101.18","","","","-11","","NA"
"-64.30","44.36","LUNENBURG","8203210","2019-01-15 01:00","2019","01","15","01:00","-6.7","","-10.0","","77","","","M","33","","12","","","","101.06","","","","-12","","NA"
"-64.30","44.36","LUNENBURG","8203210","2019-01-15 02:00","2019","01","15","02:00","-7.6","","-10.9","","78","","","M","33","","14","","","","101.04","","","","-14","","NA"
"-64.30","44.36","LUNENBURG","8203210","2019-01-15 03:00","2019","01","15","03:00","-7.0","","-10.1","","79","","","M","33","","9","","","","101.03","","","","-11","","NA"
"-64.30","44.36","LUNENBURG","8203210","2019-01-15 04:00","2019","01","15","04:00","-7.9","","-11.1","","78","","","M","32","","15","","","","100.94","","","","-14","","NA"
"-64.30","44.36","LUNENBURG","8203210","2019-01-15 05:00","2019","01","15","05:00","-8.3","","-11.3","","79","","","M","32","","21","","","","100.89","","","","-16","","NA"
"-64.30","44.36","LUNENBURG","8203210","2019-01-15 06:00","2019","01","15","06:00","-8.4","","-11.6","","78","","","M","32","","20","","","","100.85","","","","-16","","NA"
"-64.30","44.36","LUNENBURG","8203210","2019-01-15 07:00","2019","01","15","07:00","-8.5","","-11.4","","79","","","M","31","","26","","","","100.86","","","","-17","","NA"
"-64.30","44.36","LUNENBURG","8203210","2019-01-15 08:00","2019","01","15","08:00","-7.6","","-10.6","","79","","","M","30","","21","","","","100.86","","","","-15","","NA"
"-64.30","44.36","LUNENBURG","8203210","2019-01-15 09:00","2019","01","15","09:00","-7.6","","-11.6","","73","","","M","30","","22","","","","100.92","","","","-15","","NA"
"-64.30","44.36","LUNENBURG","8203210","2019-01-15 10:00","2019","01","15","10:00","-5.6","","-11.1","","65","","","M","31","","26","","","","100.94","","","","-13","","NA"
"-64.30","44.36","LUNENBURG","8203210","2019-01-15 11:00","2019","01","15","11:00","-3.5","","-11.6","","54","","","M","31","","24","","","","100.94","","","","-10","","NA"
"-64.30","44.36","LUNENBURG","8203210","2019-01-15 12:00","2019","01","15","12:00","-2.2","","-10.3","","54","","","M","30","","30","","","","100.91","","","","-9","","NA"
"-64.30","44.36","LUNENBURG","8203210","2019-01-15 13:00","2019","01","15","13:00","-1.1","","-8.2","","58","","","M","30","","25","","","","100.88","","","","-7","","NA"
"-64.30","44.36","LUNENBURG","8203210","2019-01-15 14:00","2019","01","15","14:00","-0.8","","-8.0","","58","","","M","31","","27","","","","100.93","","","","-7","","NA"
"-64.30","44.36","LUNENBURG","8203210","2019-01-15 15:00","2019","01","15","15:00","-0.4","","-6.9","","62","","","M","30","","31","","","","100.97","","","","-7","","NA"
"-64.30","44.36","LUNENBURG","8203210","2019-01-15 16:00","2019","01","15","16:00","-0.9","","-7.4","","62","","","M","29","","29","","","","101.07","","","","-8","","NA"
"-64.30","44.36","LUNENBURG","8203210","2019-01-15 17:00","2019","01","15","17:00","-1.6","","-6.8","","68","","","M","30","","25","","","","101.19","","","","-8","","NA"
"-64.30","44.36","LUNENBURG","8203210","2019-01-15 18:00","2019","01","15","18:00","-2.8","","-8.0","","67","","","M","32","","21","","","","101.32","","","","-9","","NA"
"-64.30","44.36","LUNENBURG","8203210","2019-01-15 19:00","2019","01","15","19:00","-3.3","","-8.1","","70","","","M","31","","21","","","","101.42","","","","-10","","NA"
"-64.30","44.36","LUNENBURG","8203210","2019-01-15 20:00","2019","01","15","20:00","-3.5","","-8.1","","70","","","M","30","","19","","","","101.47","","","","-9","","NA"
"-64.30","44.36","LUNENBURG","8203210","2019-01-15 21:00","2019","01","15","21:00","-3.4","","-7.9","","71","","","M","30","","18","","","","101.52","","","","-9","","NA"
"-64.30","44.36","LUNENBURG","8203210","2019-01-15 22:00","2019","01","15","22:00","-3.5","","-7.9","","72","","","M","30","","11","","","","101.57","","","","-8","","NA"
"-64.30","44.36","LUNENBURG","8203210","2019-01-15 23:00","2019","01","15","23:00","-3.5","","-8.2","","70","","","M","29","","9","","","","101.62","","","","-7","","NA"
"-64.30","44.36","LUNENBURG","8203210","2019-01-16 00:00","2019","01","16","00:00","-3.6","","-9.3","","65","","","M","28","","9","","","","101.64","","","","-7","","NA"
"-64.30","44.36","LUNENBURG","8203210","2019-01-16 01:00","2019","01","16","01:00","-3.7","","-8.9","","67","","","M","25","","5","","","","101.62","","","","-6","","NA"
"-64.30","44.36","LUNENBURG","8203210","2019-01-16 02:00","2019","01","16","02:00","-3.7","","-9.1","","66","","","M","21","","8","","","","101.66","","","","-7","","NA"
"-64.30","44.36","LUNENBURG","8203210","2019-01-16 03:00","2019","01","16","03:00","-3.6","","-8.4","","70","","","M","21","","12","","","","101.69","","","","-8","","NA"
"-64.30","44.36","LUNENBURG","8203210","2019-01-16 04:00","2019","01","16","04:00","-3.9","","-8.6","","69","","","M","21","","9","","","","101.63","","","","-8","","NA"
"-64.30","44.36","LUNENBURG","8203210","2019-01-16 05:00","2019","01","16","05:00","-3.8","","-8.1","","72","","","M","17","","8","","","","101.58","","","","-7","","NA"
"-64.30","44.36","LUNENBURG","8203210","2019-01-16 06:00","2019","01","16","06:00","-3.7","","-7.6","","75","","","M","18","","6","","","","101.59","","","","-6","","NA"
"-64.30","44.36","LUNENBURG","8203210","2019-01-16 07:00","2019","01","16","07:00","-4.0","","-7.4","","77","","","M","23","","7","","","","101.62","","","","-7","","NA"
"-64.30","44.36","LUNENBURG","8203210","2019-01-16 08:00","2019","01","16","08:00","-4.7","","-7.5","","80","","","M","27","","10","","","","101.64","","","","-9","","NA"
"-64.30","44.36","LUNENBURG","8203210","2019-01-16 09:00","2019","01","16","09:00","-4.6","","-7.3","","82","","","M","25","","5","","","","101.68","","","","-7","","NA"
"-64.30","44.36","LUNENBURG","8203210","2019-01-16 10:00","2019","01","16","10:00","-3.3","","-6.5","","78","","","M","26","","1","","","","101.68","","","","-4","","NA"
"-64.30","44.36","LUNENBURG","8203210","2019-01-16 11:00","2019","01","16","11:00","-0.4","","-5.0","","71","","","M","18","","13","","","","101.62","","","","-5","","NA"
"-64.30","44.36","LUNENBURG","8203210","2019-01-16 12:00","2019","01","16","12:00","-0.3","","-4.6","","73","","","M","18","","24","","","","101.51","","","","-6","","NA"
"-64.30","44.36","LUNENBURG","8203210","2019-01-16 13:00","2019","01","16","13:00","0.2","","-3.8","","74","","","M","17","","26","","","","101.37","","","","","","NA"
"-64.30","44.36","LUNENBURG","8203210","2019-01-16 14:00","2019","01","16","14:00","0.7","","-4.6","","68","","","M","17","","22","","","","101.28","","","","","","NA"
"-64.30","44.36","LUNENBURG","8203210","2019-01-16 15:00","2019","01","16","15:00","0.7","","-3.1","","76","","","M","16","","27","","","","101.22","","","","","","NA"
"-64.30","44.36","LUNENBURG","8203210","2019-01-16 16:00","2019","01","16","16:00","0.9","","-3.4","","73","","","M","17","","20","","","","101.16","","","","","","NA"
"-64.30","44.36","LUNENBURG","8203210","2019-01-16 17:00","2019","01","16","17:00","1.0","","-2.4","","78","","","M","17","","27","","","","101.09","","","","","","NA"
"-64.30","44.36","LUNENBURG","8203210","2019-01-16 18:00","2019","01","16","18:00","0.9","","-1.4","","84","","","M","16","","29","","","","101.02","","","","","","NA"
"-64.30","44.36","LUNENBURG","8203210","2019-01-16 19:00","2019","01","16","19:00","1.9","","-0.7","","83","","","M","17","","32","","","","100.98","","","","","","NA"
"-64.30","44.36","LUNENBURG","8203210","2019-01-16 20:00","2019","01","16","20:00","2.2","","0.0","","85","","","M","19","","30","","","","100.96","","","","","","NA"
"-64.30","44.36","LUNENBURG","8203210","2019-01-16 21:00","2019","01","16","21:00","2.4","","0.1","","85","","","M","19","","26","","","","100.90","","","","","","NA"
"-64.30","44.36","LUNENBURG","8203210","2019-01-16 22:00","2019","01","16","22:00","1.5","","-0.6","","86","","","M","23","","26","","","","100.95","","","","","","NA"
"-64.30","44.36","LUNENBURG","8203210","2019-01-16 23:00","2019","01","16","23:00","0.9","","-1.6","","84","","","M","23","","20","","","","101.00","","","","","","NA"
"-64.30","44.36","LUNENBURG","8203210","2019-01-17 00:00","2019","01","17","00:00","0.2","","-2.1","","85","","","M","23","","15","","","","101.04","","","","","","NA"
"-64.30","44.36","LUNENBURG","8203210","2019-01-17 01:00","2019","01","17","01:00","-0.1","","-2.8","","82","","","M","24","","16","","","","101.02","","","","-5","","NA"
"-64.30","44.36","LUNENBURG","8203210","2019-01-17 02:00","2019","01","17","02:00","0.4","","-2.8","","79","","","M","24","","26","","","","101.05","","","","","","NA"
"-64.30","44.36","LUNENBURG","8203210","2019-01-17 03:00","2019","01","17","03:00","-0.2","","-2.5","","84","","","M","27","","14","","","","101.18","","","","-4","","NA"
"-64.30","44.36","LUNENBURG","8203210","2019-01-17 04:00","2019","01","17","04:00","-1.0","","-6.8","","65","","","M","27","","29","","","","101.25","","","","-8","","NA"
"-64.30","44.36","LUNENBURG","8203210","2019-01-17 05:00","2019","01","17","05:00","-2.7","","-8.9","","62","","","M","28","","30","","","","101.38","","","","-10","","NA"
"-64.30","44.36","LUNENBURG","8203210","2019-01-17 06:00","2019","01","17","06:00","-5.0","","-10.5","","65","","","M","29","","36","","","","101.53","","","","-14","","NA"
"-64.30","44.36","LUNENBURG","8203210","2019-01-17 07:00","2019","01","17","07:00","-6.6","","-11.6","","68","","","M","28","","27","","","","101.71","","","","-15","","NA"
"-64.30","44.36","LUNENBURG","8203210","2019-01-17 08:00","2019","01","17","08:00","-7.3","","-11.8","","70","","","M","29","","29","","","","101.84","","","","-16","","NA"
"-64.30","44.36","LUNENBURG","8203210","2019-01-17 09:00","2019","01","17","09:00","-8.0","","-12.9","","68","","","M","28","","28","","","","101.95","","","","-17","","NA"
"-64.30","44.36","LUNENBURG","8203210","2019-01-17 10:00","2019","01","17","10:00","-8.7","","-14.0","","65","","","M","28","","28","","","","102.08","","","","-18","","NA"
"-64.30","44.36","LUNENBURG","8203210","2019-01-17 11:00","2019","01","17","11:00","-8.2","","-15.5","","55","","","M","28","","34","","","","102.15","","","","-18","","NA"
"-64.30","44.36","LUNENBURG","8203210","2019-01-17 12:00","2019","01","17","12:00","-7.1","","-15.6","","51","","","M","28","","33","","","","102.14","","","","-16","","NA"
"-64.30","44.36","LUNENBURG","8203210","2019-01-17 13:00","2019","01","17","13:00","-7.1","","-15.5","","51","","","M","28","","27","","","","102.13","","","","-15","","NA"
"-64.30","44.36","LUNENBURG","8203210","2019-01-17 14:00","2019","01","17","14:00","-6.8","","-16.7","","45","","","M","28","","26","","","","102.16","","","","-15","","NA"
"-64.30","44.36","LUNENBURG","8203210","2019-01-17 15:00","2019","01","17","15:00","-6.9","","-16.2","","48","","","M","27","","29","","","","102.24","","","","-15","","NA"
"-64.30","44.36","LUNENBURG","8203210","2019-01-17 16:00","2019","01","17","16:00","-7.2","","-17.4","","44","","","M","28","","28","","","","102.35","","","","-16","","NA"
"-64.30","44.36","LUNENBURG","8203210","2019-01-17 17:00","2019","01","17","17:00","-7.9","","-18.1","","44","","","M","28","","24","","","","102.42","","","","-16","","NA"
"-64.30","44.36","LUNENBURG","8203210","2019-01-17 18:00","2019","01","17","18:00","-8.6","","-16.2","","54","","","M","29","","20","","","","102.51","","","","-16","","NA"
"-64.30","44.36","LUNENBURG","8203210","2019-01-17 19:00","2019","01","17","19:00","-9.6","","-15.4","","62","","","M","30","","19","","","","102.61","","","","-17","","NA"
"-64.30","44.36","LUNENBURG","8203210","2019-01-17 20:00","2019","01","17","20:00","-10.4","","-16.1","","63","","","M","29","","15","","","","102.65","","","","-17","","NA"
"-64.30","44.36","LUNENBURG","8203210","2019-01-17 21:00","2019","01","17","21:00","-10.8","","-16.2","","65","","","M","29","","12","","","","102.72","","","","-17","","NA"
"-64.30","44.36","LUNENBURG","8203210","2019-01-17 22:00","2019","01","17","22:00","-11.5","","-16.7","","66","","","M","28","","12","","","","102.77","","","","-18","","NA"
"-64.30","44.36","LUNENBURG","8203210","2019-01-17 23:00","2019","01","17","23:00","-11.2","","-15.3","","72","","","M","29","","11","","","","102.76","","","","-17","","NA"
"-64.30","44.36","LUNENBURG","8203210","2019-01-18 00:00","2019","01","18","00:00","-11.2","","-15.8","","68","","","M","28","","7","","","","102.80","","","","-15","","NA"
"-64.30","44.36","LUNENBURG","8203210","2019-01-18 01:00","2019","01","18","01:00","-11.2","","-15.2","","72","","","M","29","","7","","","","102.76","","","","-15","","NA"
"-64.30","44.36","LUNENBURG","8203210","2019-01-18 02:00","2019","01","18","02:00","-11.0","","-15.1","","72","","","M","29","","8","","","","102.76","","","","-16","","NA"
"-64.30","44.36","LUNENBURG","8203210","2019-01-18 03:00","2019","01","18","03:00","-11.2","","-15.5","","71","","","M","31","","6","","","","102.80","","","","-15","","NA"
"-64.30","44.36","LUNENBURG","8203210","2019-01-18 04:00","2019","01","18","04:00","-10.7","","-14.3","","75","","","M","32","","8","","","","102.76","","","","-15","","NA"
"-64.30","44.36","LUNENBURG","8203210","2019-01-18 05:00","2019","01","18","05:00","-10.6","","-14.4","","73","","","M","33","","7","","","","102.72","","","","-15","","NA"
"-64.30","44.36","LUNENBURG","8203210","2019-01-18 06:00","2019","01","18","06:00","-9.9","","-13.5","","75","","","M","33","","5","","","","102.64","","","","-13","","NA"
"-64.30","44.36","LUNENBURG","8203210","2019-01-18 07:00","2019","01","18","07:00","-9.2","","-12.4","","78","","","M","35","","6","","","","102.57","","","","-13","","NA"
"-64.30","44.36","LUNENBURG","8203210","2019-01-18 08:00","2019","01","18","08:00","-6.3","","-10.0","","74","","","M","10","","14","","","","102.50","","","","-12","","NA"
"-64.30","44.36","LUNENBURG","8203210","2019-01-18 09:00","2019","01","18","09:00","-5.4","","-10.5","","67","","","M","9","","25","","","","102.44","","","","-13","","NA"
"-64.30","44.36","LUNENBURG","8203210","2019-01-18 10:00","2019","01","18","10:00","-4.5","","-10.0","","65","","","M","11","","21","","","","102.53","","","","-11","","NA"
"-64.30","44.36","LUNENBURG","8203210","2019-01-18 11:00","2019","01","18","11:00","-3.7","","-9.4","","65","","","M","12","","20","","","","102.54","","","","-10","","NA"
"-64.30","44.36","LUNENBURG","8203210","2019-01-18 12:00","2019","01","18","12:00","-3.0","","-7.8","","69","","","M","12","","14","","","","102.46","","","","-8","","NA"
"-64.30","44.36","LUNENBURG","8203210","2019-01-18 13:00","2019","01","18","13:00","-2.1","","-6.0","","74","","","M","10","","17","","","","102.26","","","","-7","","NA"
"-64.30","44.36","LUNENBURG","8203210","2019-01-18 14:00","2019","01","18","14:00","-1.5","","-5.0","","77","","","M","12","","24","","","","102.09","","","","-8","","NA"
"-64.30","44.36","LUNENBURG","8203210","2019-01-18 15:00","2019","01","18","15:00","-0.9","","-4.8","","75","","","M","10","","26","","","","101.97","","","","-7","","NA"
"-64.30","44.36","LUNENBURG","8203210","2019-01-18 16:00","2019","01","18","16:00","-0.9","","-5.3","","72","","","M","10","","26","","","","101.89","","","","-7","","NA"
"-64.30","44.36","LUNENBURG","8203210","2019-01-18 17:00","2019","01","18","17:00","-0.7","","-4.7","","74","","","M","10","","24","","","","101.82","","","","-7","","NA"
"-64.30","44.36","LUNENBURG","8203210","2019-01-18 18:00","2019","01","18","18:00","-0.3","","-3.5","","79","","","M","10","","25","","","","101.72","","","","-6","","NA"
"-64.30","44.36","LUNENBURG","8203210","2019-01-18 19:00","2019","01","18","19:00","0.0","","-2.3","","85","","","M","11","","27","","","","101.65","","","","-6","","NA"
"-64.30","44.36","LUNENBURG","8203210","2019-01-18 20:00","2019","01","18","20:00","0.1","","-1.4","","90","","","M","11","","25","","","","101.60","","","","","","NA"
"-64.30","44.36","LUNENBURG","8203210","2019-01-18 21:00","2019","01","18","21:00","0.5","","-0.7","","92","","","M","12","","22","","","","101.58","","","","","","NA"
"-64.30","44.36","LUNENBURG","8203210","2019-01-18 22:00","2019","01","18","22:00","0.7","","-0.5","","92","","","M","12","","21","","","","101.46","","","","","","NA"
"-64.30","44.36","LUNENBURG","8203210","2019-01-18 23:00","2019","01","18","23:00","0.7","","-0.2","","93","","","M","13","","11","","","","101.46","","","","","","NA"
"-64.30","44.36","LUNENBURG","8203210","2019-01-19 00:00","2019","01","19","00:00","0.8","","0.1","","95","","","M","18","","6","","","","101.48","","","","","","NA"
"-64.30","44.36","LUNENBURG","8203210","2019-01-19 01:00","2019","01","19","01:00","0.6","","-0.1","","95","","","M","25","","6","","","","101.44","","","","","","NA"
"-64.30","44.36","LUNENBURG","8203210","2019-01-19 02:00","2019","01","19","02:00","0.5","","-0.1","","96","","","M","25","","8","","","","101.45","","","","","","NA"
"-64.30","44.36","LUNENBURG","8203210","2019-01-19 03:00","2019","01","19","03:00","0.2","","-0.2","","97","","","M","24","","9","","","","101.43","","","","","","NA"
"-64.30","44.36","LUNENBURG","8203210","2019-01-19 04:00","2019","01","19","04:00","-0.1","","-0.7","","96","","","M","25","","11","","","","101.41","","","","-4","","NA"
"-64.30","44.36","LUNENBURG","8203210","2019-01-19 05:00","2019","01","19","05:00","0.3","","-1.9","","86","","","M","27","","26","","","","101.49","","","","","","NA"
"-64.30","44.36","LUNENBURG","8203210","2019-01-19 06:00","2019","01","19","06:00","-0.7","","-6.4","","65","","","M","29","","34","","","","101.58","","","","-8","","NA"
"-64.30","44.36","LUNENBURG","8203210","2019-01-19 07:00","2019","01","19","07:00","-2.5","","-8.4","","64","","","M","29","","30","","","","101.77","","","","-10","","NA"
"-64.30","44.36","LUNENBURG","8203210","2019-01-19 08:00","2019","01","19","08:00","-4.4","","-13.9","","47","","","M","29","","37","","","","101.88","","","","-13","","NA"
"-64.30","44.36","LUNENBURG","8203210","2019-01-19 09:00","2019","01","19","09:00","-5.0","","-13.7","","50","","","M","29","","31","","","","101.96","","","","-13","","NA"
"-64.30","44.36","LUNENBURG","8203210","2019-01-19 10:00","2019","01","19","10:00","-5.5","","-13.4","","54","","","M","30","","36","","","","102.07","","","","-14","","NA"
"-64.30","44.36","LUNENBURG","8203210","2019-01-19 11:00","2019","01","19","11:00","-5.0","","-13.5","","51","","","M","31","","22","","","","102.20","","","","-12","","NA"
"-64.30","44.36","LUNENBURG","8203210","2019-01-19 12:00","2019","01","19","12:00","-4.9","","-14.8","","46","","","M","31","","22","","","","102.24","","","","-12","","NA"
"-64.30","44.36","LUNENBURG","8203210","2019-01-19 13:00","2019","01","19","13:00","-4.9","","-15.6","","43","","","M","32","","21","","","","102.22","","","","-12","","NA"
"-64.30","44.36","LUNENBURG","8203210","2019-01-19 14:00","2019","01","19","14:00","-4.7","","-15.5","","43","","","M","31","","19","","","","102.26","","","","-11","","NA"
"-64.30","44.36","LUNENBURG","8203210","2019-01-19 15:00","2019","01","19","15:00","-5.0","","-16.3","","41","","","M","32","","15","","","","102.31","","","","-11","","NA"
"-64.30","44.36","LUNENBURG","8203210","2019-01-19 16:00","2019","01","19","16:00","-5.2","","-18.6","","34","","","M","32","","15","","","","102.41","","","","-11","","NA"
"-64.30","44.36","LUNENBURG","8203210","2019-01-19 17:00","2019","01","19","17:00","-6.0","","-18.9","","35","","","M","33","","10","","","","102.46","","","","-10","","NA"
"-64.30","44.36","LUNENBURG","8203210","2019-01-19 18:00","2019","01","19","18:00","-6.4","","-18.0","","39","","","M","33","","10","","","","102.57","","","","-11","","NA"
"-64.30","44.36","LUNENBURG","8203210","2019-01-19 19:00","2019","01","19","19:00","-6.8","","-15.5","","50","","","M","35","","8","","","","102.64","","","","-11","","NA"
"-64.30","44.36","LUNENBURG","8203210","2019-01-19 20:00","2019","01","19","20:00","-7.5","","-16.7","","48","","","M","33","","13","","","","102.69","","","","-13","","NA"
"-64.30","44.36","LUNENBURG","8203210","2019-01-19 21:00","2019","01","19","21:00","-7.7","","-15.9","","52","","","M","33","","10","","","","102.73","","","","-13","","NA"
"-64.30","44.36","LUNENBURG","8203210","2019-01-19 22:00","2019","01","19","22:00","-7.7","","-15.1","","55","","","M","4","","17","","","","102.71","","","","-14","","NA"
"-64.30","44.36","LUNENBURG","8203210","2019-01-19 23:00","2019","01","19","23:00","-8.2","","-15.6","","55","","","M","1","","7","","","","102.75","","","","-12","","NA"
"-64.30","44.36","LUNENBURG","8203210","2019-01-20 00:00","2019","01","20","00:00","-7.9","","-13.0","","67","","","M","5","","19","","","","102.68","","","","-15","","NA"
"-64.30","44.36","LUNENBURG","8203210","2019-01-20 01:00","2019","01","20","01:00","-8.6","","-13.1","","70","","","M","2","","17","","","","102.71","","","","-15","","NA"
"-64.30","44.36","LUNENBURG","8203210","2019-01-20 02:00","2019","01","20","02:00","-9.4","","-13.9","","70","","","M","4","","19","","","","102.69","","","","-17","","NA"
"-64.30","44.36","LUNENBURG","8203210","2019-01-20 03:00","2019","01","20","03:00","-9.4","","-14.5","","67","","","M","3","","21","","","","102.63","","","","-17","","NA"
"-64.30","44.36","LUNENBURG","8203210","2019-01-20 04:00","2019","01","20","04:00","-9.1","","-13.3","","71","","","M","4","","23","","","","102.53","","","","-17","","NA"
"-64.30","44.36","LUNENBURG","8203210","2019-01-20 05:00","2019","01","20","05:00","-8.9","","-12.1","","77","","","M","4","","23","","","","102.41","","","","-17","","NA"
"-64.30","44.36","LUNENBURG","8203210","2019-01-20 06:00","2019","01","20","06:00","-8.3","","-10.6","","83","","","M","3","","24","","","","102.33","","","","-16","","NA"
"-64.30","44.36","LUNENBURG","8203210","2019-01-20 07:00","2019","01","20","07:00","-7.6","","-9.0","","90","","","M","3","","28","","","","102.27","","","","-16","","NA"
"-64.30","44.36","LUNENBURG","8203210","2019-01-20 08:00","2019","01","20","08:00","-6.6","","-7.9","","91","","","M","3","","28","","","","102.05","","","","-15","","NA"
"-64.30","44.36","LUNENBURG","8203210","2019-01-20 09:00","2019","01","20","09:00","-5.5","","-6.5","","92","","","M","5","","30","","","","101.76","","","","-14","","NA"
"-64.30","44.36","LUNENBURG","8203210","2019-01-20 10:00","2019","01","20","10:00","-4.4","","-5.4","","93","","","M","4","","31","","","","101.64","","","","-12","","NA"
"-64.30","44.36","LUNENBURG","8203210","2019-01-20 11:00","2019","01","20","11:00","-1.8","","-2.4","","96","","","M","5","","32","","","","101.37","","","","-9","","NA"
"-64.30","44.36","LUNENBURG","8203210","2019-01-20 12:00","2019","01","20","12:00","0.4","","-0.3","","95","","","M","7","","41","","","","101.01","","","","","","NA"
"-64.30","44.36","LUNENBURG","8203210","2019-01-20 13:00","2019","01","20","13:00","1.4","","0.7","","96","","","M","7","","49","","","","100.49","","","","","","NA"
"-64.30","44.36","LUNENBURG","8203210","2019-01-20 14:00","2019","01","20","14:00","2.7","","2.5","","98","","","M","9","","49","","","","100.18","","","","","","NA"
"-64.30","44.36","LUNENBURG","8203210","2019-01-20 15:00","2019","01","20","15:00","4.2","","3.9","","98","","","M","12","","45","","","","100.09","","","","","","NA"
"-64.30","44.36","LUNENBURG","8203210","2019-01-20 16:00","2019","01","20","16:00","5.7","","4.7","","93","","","M","13","","51","","","","99.88","","","","","","NA"
"-64.30","44.36","LUNENBURG","8203210","2019-01-20 17:00","2019","01","20","17:00","6.1","","5.3","","95","","","M","14","","41","","","","99.84","","","","","","NA"
"-64.30","44.36","LUNENBURG","8203210","2019-01-20 18:00","2019","01","20","18:00","6.6","","6.0","","96","","","M","14","","49","","","","99.76","","","","","","NA"
"-64.30","44.36","LUNENBURG","8203210","2019-01-20 19:00","2019","01","20","19:00","6.6","","6.4","","98","","","M","14","","49","","","","99.54","","","","","","NA"
"-64.30","44.36","LUNENBURG","8203210","2019-01-20 20:00","2019","01","20","20:00","6.4","","6.0","","97","","","M","14","","45","","","","99.40","","","","","","NA"
"-64.30","44.36","LUNENBURG","8203210","2019-01-20 21:00","2019","01","20","21:00","7.7","","7.4","","98","","","M","14","","54","","","","99.15","","","","","","NA"
"-64.30","44.36","LUNENBURG","8203210","2019-01-20 22:00","2019","01","20","22:00","7.5","","7.3","","99","","","M","14","","49","","","","99.01","","","","","","NA"
"-64.30","44.36","LUNENBURG","8203210","2019-01-20 23:00","2019","01","20","23:00","7.6","","7.5","","99","","","M","14","","44","","","","98.88","","","","","","NA"
"-64.30","44.36","LUNENBURG","8203210","2019-01-21 00:00","2019","01","21","00:00","8.4","","8.2","","99","","","M","16","","34","","","","98.79","","","","","","NA"
"-64.30","44.36","LUNENBURG","8203210","2019-01-21 01:00","2019","01","21","01:00","7.5","","7.2","","98","","","M","17","","27","","","","98.67","","","","","","NA"
"-64.30","44.36","LUNENBURG","8203210","2019-01-21 02:00","2019","01","21","02:00","6.0","","5.9","","99","","","M","14","","35","","","","98.55","","","","","","NA"
"-64.30","44.36","LUNENBURG","8203210","2019-01-21 03:00","2019","01","21","03:00","6.8","","6.6","","99","","","M","18","","34","","","","98.45","","","","","","NA"
"-64.30","44.36","LUNENBURG","8203210","2019-01-21 04:00","2019","01","21","04:00","4.5","","4.4","","99","","","M","19","","34","","","","98.47","","","","","","NA"
"-64.30","44.36","LUNENBURG","8203210","2019-01-21 05:00","2019","01","21","05:00","3.9","","3.8","","99","","","M","18","","34","","","","98.54","","","","","","NA"
"-64.30","44.36","LUNENBURG","8203210","2019-01-21 06:00","2019","01","21","06:00","3.2","","3.0","","99","","","M","18","","26","","","","98.59","","","","","","NA"
"-64.30","44.36","LUNENBURG","8203210","2019-01-21 07:00","2019","01","21","07:00","2.6","","1.3","","91","","","M","22","","36","","","","98.76","","","","","","NA"
"-64.30","44.36","LUNENBURG","8203210","2019-01-21 08:00","2019","01","21","08:00","0.5","","-1.0","","90","","","M","22","","25","","","","98.97","","","","","","NA"
"-64.30","44.36","LUNENBURG","8203210","2019-01-21 09:00","2019","01","21","09:00","-0.5","","-2.7","","85","","","M","23","","25","","","","99.12","","","","-7","","NA"
"-64.30","44.36","LUNENBURG","8203210","2019-01-21 10:00","2019","01","21","10:00","-0.7","","-2.8","","85","","","M","22","","24","","","","99.26","","","","-7","","NA"
"-64.30","44.36","LUNENBURG","8203210","2019-01-21 11:00","2019","01","21","11:00","-1.2","","-3.4","","85","","","M","22","","31","","","","99.37","","","","-8","","NA"
"-64.30","44.36","LUNENBURG","8203210","2019-01-21 12:00","2019","01","21","12:00","-2.0","","-4.4","","84","","","M","22","","32","","","","99.45","","","","-9","","NA"
"-64.30","44.36","LUNENBURG","8203210","2019-01-21 13:00","2019","01","21","13:00","-2.6","","-4.8","","85","","","M","23","","30","","","","99.49","","","","-10","","NA"
"-64.30","44.36","LUNENBURG","8203210","2019-01-21 14:00","2019","01","21","14:00","-2.8","","-6.1","","78","","","M","25","","27","","","","99.55","","","","-10","","NA"
"-64.30","44.36","LUNENBURG","8203210","2019-01-21 15:00","2019","01","21","15:00","-2.4","","-6.3","","74","","","M","23","","27","","","","99.66","","","","-9","","NA"
"-64.30","44.36","LUNENBURG","8203210","2019-01-21 16:00","2019","01","21","16:00","-2.9","","-7.1","","73","","","M","24","","24","","","","99.77","","","","-10","","NA"
"-64.30","44.36","LUNENBURG","8203210","2019-01-21 17:00","2019","01","21","17:00","-3.9","","-7.4","","76","","","M","25","","26","","","","99.83","","","","-11","","NA"
"-64.30","44.36","LUNENBURG","8203210","2019-01-21 18:00","2019","01","21","18:00","-3.9","","-8.5","","70","","","M","30","","21","","","","99.86","","","","-10","","NA"
"-64.30","44.36","LUNENBURG","8203210","2019-01-21 19:00","2019","01","21","19:00","-4.5","","-10.3","","64","","","M","29","","16","","","","99.92","","","","-10","","NA"
"-64.30","44.36","LUNENBURG","8203210","2019-01-21 20:00","2019","01","21","20:00","-4.7","","-9.8","","67","","","M","28","","20","","","","99.88","","","","-11","","NA"
"-64.30","44.36","LUNENBURG","8203210","2019-01-21 21:00","2019","01","21","21:00","-5.3","","-11.2","","64","","","M","27","","16","","","","99.88","","","","-11","","NA"
"-64.30","44.36","LUNENBURG","8203210","2019-01-21 22:00","2019","01","21","22:00","-5.6","","-10.0","","71","","","M","26","","21","","","","99.94","","","","-12","","NA"
"-64.30","44.36","LUNENBURG","8203210","2019-01-21 23:00","2019","01","21","23:00","-6.8","","-11.2","","71","","","M","27","","20","","","","100.07","","","","-14","","NA"
"-64.30","44.36","LUNENBURG","8203210","2019-01-22 00:00","2019","01","22","00:00","-7.9","","-12.0","","73","","","M","28","","22","","","","100.12","","","","-16","","NA"
"-64.30","44.36","LUNENBURG","8203210","2019-01-22 01:00","2019","01","22","01:00","-8.2","","-11.9","","75","","","M","26","","27","","","","100.19","","","","-17","","NA"
"-64.30","44.36","LUNENBURG","8203210","2019-01-22 02:00","2019","01","22","02:00","-9.2","","-12.7","","76","","","M","26","","27","","","","100.25","","","","-18","","NA"
"-64.30","44.36","LUNENBURG","8203210","2019-01-22 03:00","2019","01","22","03:00","-9.7","","-12.8","","78","","","M","24","","24","","","","100.35","","","","-18","","NA"
"-64.30","44.36","LUNENBURG","8203210","2019-01-22 04:00","2019","01","22","04:00","-9.7","","-12.4","","81","","","M","25","","23","","","","100.39","","","","-18","","NA"
"-64.30","44.36","LUNENBURG","8203210","2019-01-22 05:00","2019","01","22","05:00","-9.5","","-11.7","","84","","","M","26","","23","","","","100.46","","","","-18","","NA"
"-64.30","44.36","LUNENBURG","8203210","2019-01-22 06:00","2019","01","22","06:00","-9.6","","-13.6","","73","","","M","27","","28","","","","100.55","","","","-19","","NA"
"-64.30","44.36","LUNENBURG","8203210","2019-01-22 07:00","2019","01","22","07:00","-9.8","","-13.6","","74","","","M","28","","27","","","","100.67","","","","-19","","NA"
"-64.30","44.36","LUNENBURG","8203210","2019-01-22 08:00","2019","01","22","08:00","-9.9","","-13.8","","73","","","M","29","","34","","","","100.79","","","","-20","","NA"
"-64.30","44.36","LUNENBURG","8203210","2019-01-22 09:00","2019","01","22","09:00","-10.2","","-14.8","","69","","","M","29","","34","","","","100.91","","","","-20","","NA"
"-64.30","44.36","LUNENBURG","8203210","2019-01-22 10:00","2019","01","22","10:00","-10.2","","-14.3","","72","","","M","29","","37","","","","101.02","","","","-21","","NA"
"-64.30","44.36","LUNENBURG","8203210","2019-01-22 11:00","2019","01","22","11:00","-10.5","","-13.3","","79","","","M","29","","32","","","","101.14","","","","-20","","NA"
"-64.30","44.36","LUNENBURG","8203210","2019-01-22 12:00","2019","01","22","12:00","-10.5","","-15.9","","64","","","M","28","","45","","","","101.16","","","","-22","","NA"
"-64.30","44.36","LUNENBURG","8203210","2019-01-22 13:00","2019","01","22","13:00","-10.4","","-14.9","","69","","","M","29","","34","","","","101.24","","","","-21","","NA"
"-64.30","44.36","LUNENBURG","8203210","2019-01-22 14:00","2019","01","22","14:00","-9.9","","-14.8","","67","","","M","28","","39","","","","101.30","","","","-21","","NA"
"-64.30","44.36","LUNENBURG","8203210","2019-01-22 15:00","2019","01","22","15:00","-9.4","","-13.9","","70","","","M","28","","43","","","","101.40","","","","-20","","NA"
"-64.30","44.36","LUNENBURG","8203210","2019-01-22 16:00","2019","01","22","16:00","-8.1","","-12.5","","71","","","M","29","","41","","","","101.56","","","","-18","","NA"
"-64.30","44.36","LUNENBURG","8203210","2019-01-22 17:00","2019","01","22","17:00","-7.9","","-13.3","","65","","","M","28","","31","","","","101.73","","","","-17","","NA"
"-64.30","44.36","LUNENBURG","8203210","2019-01-22 18:00","2019","01","22","18:00","-7.8","","-12.2","","70","","","M","27","","24","","","","101.88","","","","-16","","NA"
"-64.30","44.36","LUNENBURG","8203210","2019-01-22 19:00","2019","01","22","19:00","-7.6","","-11.8","","72","","","M","27","","25","","","","101.96","","","","-16","","NA"
"-64.30","44.36","LUNENBURG","8203210","2019-01-22 20:00","2019","01","22","20:00","-7.0","","-11.8","","68","","","M","28","","27","","","","102.08","","","","-15","","NA"
"-64.30","44.36","LUNENBURG","8203210","2019-01-22 21:00","2019","01","22","21:00","-6.6","","-12.3","","64","","","M","28","","30","","","","102.21","","","","-15","","NA"
"-64.30","44.36","LUNENBURG","8203210","2019-01-22 22:00","2019","01","22","22:00","-6.8","","-13.4","","59","","","M","28","","26","","","","102.29","","","","-15","","NA"
"-64.30","44.36","LUNENBURG","8203210","2019-01-22 23:00","2019","01","22","23:00","-6.9","","-13.7","","58","","","M","29","","25","","","","102.40","","","","-15","","NA"
"-64.30","44.36","LUNENBURG","8203210","2019-01-23 00:00","2019","01","23","00:00","-7.3","","-13.7","","60","","","M","29","","23","","","","102.51","","","","-15","","NA"
"-64.30","44.36","LUNENBURG","8203210","2019-01-23 01:00","2019","01","23","01:00","-7.8","","-14.3","","60","","","M","29","","16","","","","102.53","","","","-14","","NA"
"-64.30","44.36","LUNENBURG","8203210","2019-01-23 02:00","2019","01","23","02:00","-8.3","","-14.4","","62","","","M","28","","13","","","","102.57","","","","-14","","NA"
"-64.30","44.36","LUNENBURG","8203210","2019-01-23 03:00","2019","01","23","03:00","-8.5","","-13.9","","65","","","M","27","","10","","","","102.69","","","","-13","","NA"
"-64.30","44.36","LUNENBURG","8203210","2019-01-23 04:00","2019","01","23","04:00","-8.7","","-13.6","","68","","","M","28","","12","","","","102.70","","","","-14","","NA"
"-64.30","44.36","LUNENBURG","8203210","2019-01-23 05:00","2019","01","23","05:00","-8.8","","-13.5","","69","","","M","26","","9","","","","102.76","","","","-13","","NA"
"-64.30","44.36","LUNENBURG","8203210","2019-01-23 06:00","2019","01","23","06:00","-8.7","","-13.2","","70","","","M","24","","7","","","","102.79","","","","-13","","NA"
"-64.30","44.36","LUNENBURG","8203210","2019-01-23 07:00","2019","01","23","07:00","-8.8","","-13.1","","71","","","M","24","","8","","","","102.85","","","","-13","","NA"
"-64.30","44.36","LUNENBURG","8203210","2019-01-23 08:00","2019","01","23","08:00","-9.0","","-12.5","","76","","","M","26","","13","","","","102.88","","","","-15","","NA"
"-64.30","44.36","LUNENBURG","8203210","2019-01-23 09:00","2019","01","23","09:00","-8.7","","-12.1","","76","","","M","23","","11","","","","102.90","","","","-14","","NA"
"-64.30","44.36","LUNENBURG","8203210","2019-01-23 10:00","2019","01","23","10:00","-7.3","","-11.1","","74","","","M","26","","12","","","","102.87","","","","-13","","NA"
"-64.30","44.36","LUNENBURG","8203210","2019-01-23 11:00","2019","01","23","11:00","-6.2","","-11.5","","66","","","M","23","","9","","","","102.86","","","","-10","","NA"
"-64.30","44.36","LUNENBURG","8203210","2019-01-23 12:00","2019","01","23","12:00","-4.8","","-11.8","","58","","","M","23","","10","","","","102.73","","","","-9","","NA"
"-64.30","44.36","LUNENBURG","8203210","2019-01-23 13:00","2019","01","23","13:00","-3.3","","-10.1","","59","","","M","18","","9","","","","102.60","","","","-7","","NA"
"-64.30","44.36","LUNENBURG","8203210","2019-01-23 14:00","2019","01","23","14:00","-3.0","","-7.8","","70","","","M","18","","21","","","","102.48","","","","-9","","NA"
"-64.30","44.36","LUNENBURG","8203210","2019-01-23 15:00","2019","01","23","15:00","-2.0","","-5.8","","75","","","M","20","","24","","","","102.46","","","","-8","","NA"
"-64.30","44.36","LUNENBURG","8203210","2019-01-23 16:00","2019","01","23","16:00","-1.1","","-4.4","","78","","","M","20","","18","","","","102.43","","","","-6","","NA"
"-64.30","44.36","LUNENBURG","8203210","2019-01-23 17:00","2019","01","23","17:00","-0.2","","-3.6","","78","","","M","17","","23","","","","102.36","","","","-6","","NA"
"-64.30","44.36","LUNENBURG","8203210","2019-01-23 18:00","2019","01","23","18:00","0.1","","-2.7","","82","","","M","16","","22","","","","102.29","","","","","","NA"
"-64.30","44.36","LUNENBURG","8203210","2019-01-23 19:00","2019","01","23","19:00","0.5","","-1.8","","85","","","M","15","","22","","","","102.19","","","","","","NA"
"-64.30","44.36","LUNENBURG","8203210","2019-01-23 20:00","2019","01","23","20:00","0.5","","-1.2","","89","","","M","15","","22","","","","102.10","","","","","","NA"
"-64.30","44.36","LUNENBURG","8203210","2019-01-23 21:00","2019","01","23","21:00","1.2","","-0.5","","88","","","M","16","","20","","","","101.97","","","","","","NA"
"-64.30","44.36","LUNENBURG","8203210","2019-01-23 22:00","2019","01","23","22:00","1.8","","0.1","","89","","","M","18","","21","","","","101.81","","","","","","NA"
"-64.30","44.36","LUNENBURG","8203210","2019-01-23 23:00","2019","01","23","23:00","2.2","","0.8","","90","","","M","18","","21","","","","101.67","","","","","","NA"
"-64.30","44.36","LUNENBURG","8203210","2019-01-24 00:00","2019","01","24","00:00","2.7","","1.2","","90","","","M","19","","26","","","","101.60","","","","","","NA"
"-64.30","44.36","LUNENBURG","8203210","2019-01-24 01:00","2019","01","24","01:00","3.0","","2.1","","94","","","M","19","","30","","","","101.48","","","","","","NA"
"-64.30","44.36","LUNENBURG","8203210","2019-01-24 02:00","2019","01","24","02:00","3.1","","2.5","","96","","","M","19","","24","","","","101.38","","","","","","NA"
"-64.30","44.36","LUNENBURG","8203210","2019-01-24 03:00","2019","01","24","03:00","3.9","","3.5","","97","","","M","19","","21","","","","101.33","","","","","","NA"
"-64.30","44.36","LUNENBURG","8203210","2019-01-24 04:00","2019","01","24","04:00","3.9","","3.5","","98","","","M","20","","20","","","","101.28","","","","","","NA"
"-64.30","44.36","LUNENBURG","8203210","2019-01-24 05:00","2019","01","24","05:00","6.3","","6.1","","98","","","M","20","","21","","","","101.22","","","","","","NA"
"-64.30","44.36","LUNENBURG","8203210","2019-01-24 06:00","2019","01","24","06:00","5.5","","5.0","","97","","","M","18","","18","","","","101.17","","","","","","NA"
"-64.30","44.36","LUNENBURG","8203210","2019-01-24 07:00","2019","01","24","07:00","4.5","","3.8","","95","","","M","18","","25","","","","101.15","","","","","","NA"
"-64.30","44.36","LUNENBURG","8203210","2019-01-24 08:00","2019","01","24","08:00","4.6","","4.1","","96","","","M","18","","27","","","","101.16","","","","","","NA"
"-64.30","44.36","LUNENBURG","8203210","2019-01-24 09:00","2019","01","24","09:00","5.4","","4.8","","96","","","M","18","","28","","","","101.14","","","","","","NA"
"-64.30","44.36","LUNENBURG","8203210","2019-01-24 10:00","2019","01","24","10:00","5.2","","4.4","","95","","","M","18","","23","","","","101.13","","","","","","NA"
"-64.30","44.36","LUNENBURG","8203210","2019-01-24 11:00","2019","01","24","11:00","6.7","","5.5","","92","","","M","18","","26","","","","101.05","","","","","","NA"
"-64.30","44.36","LUNENBURG","8203210","2019-01-24 12:00","2019","01","24","12:00","6.4","","4.6","","89","","","M","18","","33","","","","100.95","","","","","","NA"
"-64.30","44.36","LUNENBURG","8203210","2019-01-24 13:00","2019","01","24","13:00","5.6","","4.4","","92","","","M","19","","38","","","","100.84","","","","","","NA"
"-64.30","44.36","LUNENBURG","8203210","2019-01-24 14:00","2019","01","24","14:00","6.1","","4.9","","92","","","M","18","","40","","","","100.71","","","","","","NA"
"-64.30","44.36","LUNENBURG","8203210","2019-01-24 15:00","2019","01","24","15:00","6.6","","5.3","","92","","","M","19","","34","","","","100.65","","","","","","NA"
"-64.30","44.36","LUNENBURG","8203210","2019-01-24 16:00","2019","01","24","16:00","7.0","","5.6","","91","","","M","18","","39","","","","100.58","","","","","","NA"
"-64.30","44.36","LUNENBURG","8203210","2019-01-24 17:00","2019","01","24","17:00","6.5","","5.4","","93","","","M","18","","33","","","","100.44","","","","","","NA"
"-64.30","44.36","LUNENBURG","8203210","2019-01-24 18:00","2019","01","24","18:00","5.7","","5.3","","97","","","M","19","","28","","","","100.36","","","","","","NA"
"-64.30","44.36","LUNENBURG","8203210","2019-01-24 19:00","2019","01","24","19:00","6.2","","5.9","","98","","","M","18","","33","","","","100.19","","","","","","NA"
"-64.30","44.36","LUNENBURG","8203210","2019-01-24 20:00","2019","01","24","20:00","7.8","","6.8","","93","","","M","17","","38","","","","99.97","","","","","","NA"
"-64.30","44.36","LUNENBURG","8203210","2019-01-24 21:00","2019","01","24","21:00","7.7","","7.0","","95","","","M","16","","50","","","","99.72","","","","","","NA"
"-64.30","44.36","LUNENBURG","8203210","2019-01-24 22:00","2019","01","24","22:00","8.1","","7.7","","98","","","M","15","","63","","","","99.37","","","","","","NA"
"-64.30","44.36","LUNENBURG","8203210","2019-01-24 23:00","2019","01","24","23:00","8.2","","7.8","","97","","","M","16","","62","","","","99.12","","","","","","NA"
"-64.30","44.36","LUNENBURG","8203210","2019-01-25 00:00","2019","01","25","00:00","9.3","","8.9","","97","","","M","17","","67","","","","99.05","","","","","","NA"
"-64.30","44.36","LUNENBURG","8203210","2019-01-25 01:00","2019","01","25","01:00","8.0","","7.6","","98","","","M","18","","51","","","","99.08","","","","","","NA"
"-64.30","44.36","LUNENBURG","8203210","2019-01-25 02:00","2019","01","25","02:00","7.2","","6.8","","97","","","M","18","","46","","","","99.17","","","","","","NA"
"-64.30","44.36","LUNENBURG","8203210","2019-01-25 03:00","2019","01","25","03:00","9.2","","7.5","","89","","","M","22","","43","","","","99.26","","","","","","NA"
"-64.30","44.36","LUNENBURG","8203210","2019-01-25 04:00","2019","01","25","04:00","7.2","","5.4","","89","","","M","23","","35","","","","99.41","","","","","","NA"
"-64.30","44.36","LUNENBURG","8203210","2019-01-25 05:00","2019","01","25","05:00","6.8","","5.3","","91","","","M","23","","24","","","","99.63","","","","","","NA"
"-64.30","44.36","LUNENBURG","8203210","2019-01-25 06:00","2019","01","25","06:00","6.1","","4.3","","88","","","M","23","","24","","","","99.78","","","","","","NA"
"-64.30","44.36","LUNENBURG","8203210","2019-01-25 07:00","2019","01","25","07:00","5.6","","3.5","","87","","","M","23","","25","","","","99.93","","","","","","NA"
"-64.30","44.36","LUNENBURG","8203210","2019-01-25 08:00","2019","01","25","08:00","4.9","","3.0","","88","","","M","23","","18","","","","100.04","","","","","","NA"
"-64.30","44.36","LUNENBURG","8203210","2019-01-25 09:00","2019","01","25","09:00","4.8","","2.8","","87","","","M","23","","20","","","","100.15","","","","","","NA"
"-64.30","44.36","LUNENBURG","8203210","2019-01-25 10:00","2019","01","25","10:00","5.1","","1.9","","80","","","M","24","","23","","","","100.17","","","","","","NA"
"-64.30","44.36","LUNENBURG","8203210","2019-01-25 11:00","2019","01","25","11:00","5.0","","1.2","","77","","","M","24","","25","","","","100.29","","","","","","NA"
"-64.30","44.36","LUNENBURG","8203210","2019-01-25 12:00","2019","01","25","12:00","4.2","","-0.9","","69","","","M","26","","30","","","","100.33","","","","","","NA"
"-64.30","44.36","LUNENBURG","8203210","2019-01-25 13:00","2019","01","25","13:00","3.9","","-2.7","","62","","","M","25","","33","","","","100.34","","","","","","NA"
"-64.30","44.36","LUNENBURG","8203210","2019-01-25 14:00","2019","01","25","14:00","3.9","","-5.1","","52","","","M","25","","31","","","","100.42","","","","","","NA"
"-64.30","44.36","LUNENBURG","8203210","2019-01-25 15:00","2019","01","25","15:00","4.0","","-4.1","","56","","","M","25","","21","","","","100.44","","","","","","NA"
"-64.30","44.36","LUNENBURG","8203210","2019-01-25 16:00","2019","01","25","16:00","3.7","","-6.2","","48","","","M","26","","33","","","","100.54","","","","","","NA"
"-64.30","44.36","LUNENBURG","8203210","2019-01-25 17:00","2019","01","25","17:00","3.0","","-6.2","","51","","","M","26","","23","","","","100.67","","","","","","NA"
"-64.30","44.36","LUNENBURG","8203210","2019-01-25 18:00","2019","01","25","18:00","1.9","","-5.3","","59","","","M","24","","15","","","","100.78","","","","","","NA"
"-64.30","44.36","LUNENBURG","8203210","2019-01-25 19:00","2019","01","25","19:00","0.8","","-4.8","","66","","","M","26","","10","","","","100.88","","","","","","NA"
"-64.30","44.36","LUNENBURG","8203210","2019-01-25 20:00","2019","01","25","20:00","0.3","","-5.1","","67","","","M","25","","15","","","","100.96","","","","","","NA"
"-64.30","44.36","LUNENBURG","8203210","2019-01-25 21:00","2019","01","25","21:00","-0.1","","-4.9","","70","","","M","24","","5","","","","101.04","","","","-2","","NA"
"-64.30","44.36","LUNENBURG","8203210","2019-01-25 22:00","2019","01","25","22:00","0.4","","-3.9","","73","","","M","22","","13","","","","101.14","","","","","","NA"
"-64.30","44.36","LUNENBURG","8203210","2019-01-25 23:00","2019","01","25","23:00","0.4","","-3.4","","76","","","M","21","","13","","","","101.20","","","","","","NA"
"-64.30","44.36","LUNENBURG","8203210","2019-01-26 00:00","2019","01","26","00:00","0.4","","-3.2","","76","","","M","23","","15","","","","101.25","","","","","","NA"
"-64.30","44.36","LUNENBURG","8203210","2019-01-26 01:00","2019","01","26","01:00","0.1","","-3.2","","79","","","M","21","","16","","","","101.31","","","","","","NA"
"-64.30","44.36","LUNENBURG","8203210","2019-01-26 02:00","2019","01","26","02:00","-0.4","","-3.4","","80","","","M","23","","13","","","","101.40","","","","-5","","NA"
"-64.30","44.36","LUNENBURG","8203210","2019-01-26 03:00","2019","01","26","03:00","-1.0","","-3.5","","83","","","M","25","","16","","","","101.56","","","","-6","","NA"
"-64.30","44.36","LUNENBURG","8203210","2019-01-26 04:00","2019","01","26","04:00","-0.9","","-3.8","","81","","","M","27","","9","","","","101.70","","","","-4","","NA"
"-64.30","44.36","LUNENBURG","8203210","2019-01-26 05:00","2019","01","26","05:00","-1.7","","-4.4","","82","","","M","25","","8","","","","101.79","","","","-5","","NA"
"-64.30","44.36","LUNENBURG","8203210","2019-01-26 06:00","2019","01","26","06:00","-1.7","","-4.5","","81","","","M","25","","6","","","","101.84","","","","-4","","NA"
"-64.30","44.36","LUNENBURG","8203210","2019-01-26 07:00","2019","01","26","07:00","-1.9","","-4.9","","80","","","M","27","","11","","","","101.90","","","","-6","","NA"
"-64.30","44.36","LUNENBURG","8203210","2019-01-26 08:00","2019","01","26","08:00","-2.2","","-5.5","","78","","","M","25","","9","","","","102.03","","","","-6","","NA"
"-64.30","44.36","LUNENBURG","8203210","2019-01-26 09:00","2019","01","26","09:00","-1.9","","-4.7","","81","","","M","24","","6","","","","102.14","","","","-4","","NA"
"-64.30","44.36","LUNENBURG","8203210","2019-01-26 10:00","2019","01","26","10:00","-1.5","","-7.7","","63","","","M","25","","8","","","","102.22","","","","-5","","NA"
"-64.30","44.36","LUNENBURG","8203210","2019-01-26 11:00","2019","01","26","11:00","-1.0","","-9.7","","52","","","M","31","","3","","","","102.25","","","","-2","","NA"
"-64.30","44.36","LUNENBURG","8203210","2019-01-26 12:00","2019","01","26","12:00","-0.7","","-9.0","","54","","","M","10","","5","","","","102.24","","","","-2","","NA"
"-64.30","44.36","LUNENBURG","8203210","2019-01-26 13:00","2019","01","26","13:00","0.2","","-6.4","","61","","","M","13","","20","","","","102.22","","","","","","NA"
"-64.30","44.36","LUNENBURG","8203210","2019-01-26 14:00","2019","01","26","14:00","0.7","","-4.8","","66","","","M","15","","22","","","","102.24","","","","","","NA"
"-64.30","44.36","LUNENBURG","8203210","2019-01-26 15:00","2019","01","26","15:00","1.3","","-4.2","","67","","","M","18","","19","","","","102.17","","","","","","NA"
"-64.30","44.36","LUNENBURG","8203210","2019-01-26 16:00","2019","01","26","16:00","2.2","","-6.3","","53","","","M","23","","24","","","","102.16","","","","","","NA"
"-64.30","44.36","LUNENBURG","8203210","2019-01-26 17:00","2019","01","26","17:00","1.6","","-8.1","","49","","","M","23","","24","","","","102.21","","","","","","NA"
"-64.30","44.36","LUNENBURG","8203210","2019-01-26 18:00","2019","01","26","18:00","0.9","","-6.3","","59","","","M","21","","10","","","","102.32","","","","","","NA"
"-64.30","44.36","LUNENBURG","8203210","2019-01-26 19:00","2019","01","26","19:00","0.4","","-5.4","","65","","","M","20","","13","","","","102.41","","","","","","NA"
"-64.30","44.36","LUNENBURG","8203210","2019-01-26 20:00","2019","01","26","20:00","0.5","","-4.0","","72","","","M","18","","12","","","","102.41","","","","","","NA"
"-64.30","44.36","LUNENBURG","8203210","2019-01-26 21:00","2019","01","26","21:00","0.4","","-3.0","","78","","","M","16","","12","","","","102.40","","","","","","NA"
"-64.30","44.36","LUNENBURG","8203210","2019-01-26 22:00","2019","01","26","22:00","0.6","","-2.3","","81","","","M","14","","14","","","","102.40","","","","","","NA"
"-64.30","44.36","LUNENBURG","8203210","2019-01-26 23:00","2019","01","26","23:00","1.2","","-1.8","","81","","","M","14","","18","","","","102.40","","","","","","NA"
"-64.30","44.36","LUNENBURG","8203210","2019-01-27 00:00","2019","01","27","00:00","1.2","","-1.5","","82","","","M","16","","16","","","","102.43","","","","","","NA"
"-64.30","44.36","LUNENBURG","8203210","2019-01-27 01:00","2019","01","27","01:00","-0.6","","-2.6","","86","","","M","26","","14","","","","102.43","","","","-5","","NA"
"-64.30","44.36","LUNENBURG","8203210","2019-01-27 02:00","2019","01","27","02:00","-1.3","","-3.3","","86","","","M","27","","6","","","","102.42","","","","-4","","NA"
"-64.30","44.36","LUNENBURG","8203210","2019-01-27 03:00","2019","01","27","03:00","-1.6","","-3.8","","85","","","M","8","","4","","","","102.45","","","","-3","","NA"
"-64.30","44.36","LUNENBURG","8203210","2019-01-27 04:00","2019","01","27","04:00","-1.0","","-3.1","","86","","","M","6","","4","","","","102.44","","","","-2","","NA"
"-64.30","44.36","LUNENBURG","8203210","2019-01-27 05:00","2019","01","27","05:00","-2.0","","-3.2","","91","","","M","30","","6","","","","102.44","","","","-4","","NA"
"-64.30","44.36","LUNENBURG","8203210","2019-01-27 06:00","2019","01","27","06:00","-1.8","","-3.0","","91","","","M","32","","4","","","","102.46","","","","-3","","NA"
"-64.30","44.36","LUNENBURG","8203210","2019-01-27 07:00","2019","01","27","07:00","-2.1","","-3.4","","90","","","M","36","","5","","","","102.52","","","","-4","","NA"
"-64.30","44.36","LUNENBURG","8203210","2019-01-27 08:00","2019","01","27","08:00","-2.3","","-3.7","","91","","","M","32","","3","","","","102.53","","","","-3","","NA"
"-64.30","44.36","LUNENBURG","8203210","2019-01-27 09:00","2019","01","27","09:00","-1.7","","-3.2","","90","","","M","5","","4","","","","102.56","","","","-3","","NA"
"-64.30","44.36","LUNENBURG","8203210","2019-01-27 10:00","2019","01","27","10:00","-1.2","","-2.7","","90","","","M","26","","2","","","","102.54","","","","-2","","NA"
"-64.30","44.36","LUNENBURG","8203210","2019-01-27 11:00","2019","01","27","11:00","2.3","","-0.3","","83","","","M","12","","4","","","","102.51","","","","","","NA"
"-64.30","44.36","LUNENBURG","8203210","2019-01-27 12:00","2019","01","27","12:00","1.4","","-0.9","","85","","","M","9","","15","","","","102.46","","","","","","NA"
"-64.30","44.36","LUNENBURG","8203210","2019-01-27 13:00","2019","01","27","13:00","1.4","","-1.0","","84","","","M","8","","16","","","","102.34","","","","","","NA"
"-64.30","44.36","LUNENBURG","8203210","2019-01-27 14:00","2019","01","27","14:00","1.4","","-0.6","","87","","","M","8","","21","","","","102.26","","","","","","NA"
"-64.30","44.36","LUNENBURG","8203210","2019-01-27 15:00","2019","01","27","15:00","1.6","","-1.0","","83","","","M","10","","20","","","","102.22","","","","","","NA"
"-64.30","44.36","LUNENBURG","8203210","2019-01-27 16:00","2019","01","27","16:00","1.5","","-1.1","","83","","","M","9","","24","","","","102.15","","","","","","NA"
"-64.30","44.36","LUNENBURG","8203210","2019-01-27 17:00","2019","01","27","17:00","1.2","","-0.9","","86","","","M","7","","16","","","","102.05","","","","","","NA"
"-64.30","44.36","LUNENBURG","8203210","2019-01-27 18:00","2019","01","27","18:00","1.4","","-0.6","","87","","","M","8","","26","","","","101.90","","","","","","NA"
"-64.30","44.36","LUNENBURG","8203210","2019-01-27 19:00","2019","01","27","19:00","1.7","","0.1","","89","","","M","8","","19","","","","101.90","","","","","","NA"
"-64.30","44.36","LUNENBURG","8203210","2019-01-27 20:00","2019","01","27","20:00","2.2","","1.2","","93","","","M","10","","4","","","","101.85","","","","","","NA"
"-64.30","44.36","LUNENBURG","8203210","2019-01-27 21:00","2019","01","27","21:00","2.7","","1.7","","93","","","M","12","","17","","","","101.75","","","","","","NA"
"-64.30","44.36","LUNENBURG","8203210","2019-01-27 22:00","2019","01","27","22:00","3.2","","0.8","","84","","","M","11","","40","","","","101.53","","","","","","NA"
"-64.30","44.36","LUNENBURG","8203210","2019-01-27 23:00","2019","01","27","23:00","3.0","","1.1","","88","","","M","12","","34","","","","101.49","","","","","","NA"
"-64.30","44.36","LUNENBURG","8203210","2019-01-28 00:00","2019","01","28","00:00","3.0","","1.1","","88","","","M","12","","30","","","","101.47","","","","","","NA"
"-64.30","44.36","LUNENBURG","8203210","2019-01-28 01:00","2019","01","28","01:00","3.2","","1.8","","91","","","M","16","","10","","","","101.49","","","","","","NA"
"-64.30","44.36","LUNENBURG","8203210","2019-01-28 02:00","2019","01","28","02:00","3.0","","2.0","","93","","","M","13","","14","","","","101.38","","","","","","NA"
"-64.30","44.36","LUNENBURG","8203210","2019-01-28 03:00","2019","01","28","03:00","3.1","","2.4","","95","","","M","16","","7","","","","101.36","","","","","","NA"
"-64.30","44.36","LUNENBURG","8203210","2019-01-28 04:00","2019","01","28","04:00","2.9","","2.3","","96","","","M","13","","10","","","","101.29","","","","","","NA"
"-64.30","44.36","LUNENBURG","8203210","2019-01-28 05:00","2019","01","28","05:00","2.7","","2.2","","97","","","M","15","","7","","","","101.26","","","","","","NA"
"-64.30","44.36","LUNENBURG","8203210","2019-01-28 06:00","2019","01","28","06:00","2.5","","2.2","","98","","","M","12","","4","","","","101.16","","","","","","NA"
"-64.30","44.36","LUNENBURG","8203210","2019-01-28 07:00","2019","01","28","07:00","2.1","","1.8","","98","","","M","13","","4","","","","101.17","","","","","","NA"
"-64.30","44.36","LUNENBURG","8203210","2019-01-28 08:00","2019","01","28","08:00","2.2","","2.0","","98","","","M","19","","6","","","","101.22","","","","","","NA"
"-64.30","44.36","LUNENBURG","8203210","2019-01-28 09:00","2019","01","28","09:00","2.1","","1.9","","99","","","M","22","","8","","","","101.25","","","","","","NA"
"-64.30","44.36","LUNENBURG","8203210","2019-01-28 10:00","2019","01","28","10:00","2.2","","2.0","","99","","","M","23","","8","","","","101.25","","","","","","NA"
"-64.30","44.36","LUNENBURG","8203210","2019-01-28 11:00","2019","01","28","11:00","2.7","","2.4","","98","","","M","26","","6","","","","101.28","","","","","","NA"
"-64.30","44.36","LUNENBURG","8203210","2019-01-28 12:00","2019","01","28","12:00","2.3","","0.5","","88","","","M","29","","25","","","","101.27","","","","","","NA"
"-64.30","44.36","LUNENBURG","8203210","2019-01-28 13:00","2019","01","28","13:00","0.7","","-2.8","","77","","","M","29","","27","","","","101.34","","","","","","NA"
"-64.30","44.36","LUNENBURG","8203210","2019-01-28 14:00","2019","01","28","14:00","0.2","","-3.5","","76","","","M","29","","20","","","","101.34","","","","","","NA"
"-64.30","44.36","LUNENBURG","8203210","2019-01-28 15:00","2019","01","28","15:00","0.0","","-5.0","","70","","","M","30","","21","","","","101.33","","","","-5","","NA"
"-64.30","44.36","LUNENBURG","8203210","2019-01-28 16:00","2019","01","28","16:00","-0.4","","-6.4","","64","","","M","30","","23","","","","101.40","","","","-6","","NA"
"-64.30","44.36","LUNENBURG","8203210","2019-01-28 17:00","2019","01","28","17:00","-1.0","","-9.8","","51","","","M","31","","21","","","","101.42","","","","-7","","NA"
"-64.30","44.36","LUNENBURG","8203210","2019-01-28 18:00","2019","01","28","18:00","-1.8","","-10.7","","51","","","M","30","","24","","","","101.58","","","","-8","","NA"
"-64.30","44.36","LUNENBURG","8203210","2019-01-28 19:00","2019","01","28","19:00","-2.8","","-11.0","","53","","","M","31","","30","","","","101.58","","","","-10","","NA"
"-64.30","44.36","LUNENBURG","8203210","2019-01-28 20:00","2019","01","28","20:00","-3.8","","-11.7","","54","","","M","32","","30","","","","101.56","","","","-11","","NA"
"-64.30","44.36","LUNENBURG","8203210","2019-01-28 21:00","2019","01","28","21:00","-4.5","","-12.6","","53","","","M","32","","20","","","","101.66","","","","-11","","NA"
"-64.30","44.36","LUNENBURG","8203210","2019-01-28 22:00","2019","01","28","22:00","-4.9","","-11.9","","58","","","M","32","","20","","","","101.72","","","","-11","","NA"
"-64.30","44.36","LUNENBURG","8203210","2019-01-28 23:00","2019","01","28","23:00","-5.2","","-13.7","","52","","","M","34","","17","","","","101.66","","","","-11","","NA"
"-64.30","44.36","LUNENBURG","8203210","2019-01-29 00:00","2019","01","29","00:00","-5.9","","-13.0","","57","","","M","33","","15","","","","101.68","","","","-12","","NA"
"-64.30","44.36","LUNENBURG","8203210","2019-01-29 01:00","2019","01","29","01:00","-6.3","","-13.1","","59","","","M","2","","18","","","","101.69","","","","-13","","NA"
"-64.30","44.36","LUNENBURG","8203210","2019-01-29 02:00","2019","01","29","02:00","-6.9","","-13.7","","58","","","M","34","","11","","","","101.71","","","","-12","","NA"
"-64.30","44.36","LUNENBURG","8203210","2019-01-29 03:00","2019","01","29","03:00","-7.0","","-12.9","","63","","","M","33","","15","","","","101.72","","","","-13","","NA"
"-64.30","44.36","LUNENBURG","8203210","2019-01-29 04:00","2019","01","29","04:00","-7.3","","-13.3","","62","","","M","33","","14","","","","101.75","","","","-13","","NA"
"-64.30","44.36","LUNENBURG","8203210","2019-01-29 05:00","2019","01","29","05:00","-7.8","","-13.3","","65","","","M","34","","12","","","","101.75","","","","-13","","NA"
"-64.30","44.36","LUNENBURG","8203210","2019-01-29 06:00","2019","01","29","06:00","-8.4","","-13.1","","69","","","M","33","","14","","","","101.72","","","","-15","","NA"
"-64.30","44.36","LUNENBURG","8203210","2019-01-29 07:00","2019","01","29","07:00","-9.0","","-14.4","","65","","","M","33","","16","","","","101.75","","","","-16","","NA"
"-64.30","44.36","LUNENBURG","8203210","2019-01-29 08:00","2019","01","29","08:00","-9.6","","-14.3","","68","","","M","33","","13","","","","101.88","","","","-16","","NA"
"-64.30","44.36","LUNENBURG","8203210","2019-01-29 09:00","2019","01","29","09:00","-9.2","","-13.4","","72","","","M","36","","11","","","","101.94","","","","-15","","NA"
"-64.30","44.36","LUNENBURG","8203210","2019-01-29 10:00","2019","01","29","10:00","-8.2","","-12.6","","71","","","M","1","","14","","","","101.98","","","","-14","","NA"
"-64.30","44.36","LUNENBURG","8203210","2019-01-29 11:00","2019","01","29","11:00","-7.2","","-12.3","","67","","","M","1","","12","","","","102.08","","","","-13","","NA"
"-64.30","44.36","LUNENBURG","8203210","2019-01-29 12:00","2019","01","29","12:00","-6.5","","-12.4","","63","","","M","3","","15","","","","101.99","","","","-12","","NA"
"-64.30","44.36","LUNENBURG","8203210","2019-01-29 13:00","2019","01","29","13:00","-5.5","","-11.8","","61","","","M","5","","12","","","","102.00","","","","-10","","NA"
"-64.30","44.36","LUNENBURG","8203210","2019-01-29 14:00","2019","01","29","14:00","-4.6","","-11.0","","61","","","M","5","","11","","","","101.99","","","","-9","","NA"
"-64.30","44.36","LUNENBURG","8203210","2019-01-29 15:00","2019","01","29","15:00","-5.2","","-11.6","","60","","","M","10","","12","","","","101.94","","","","-10","","NA"
"-64.30","44.36","LUNENBURG","8203210","2019-01-29 16:00","2019","01","29","16:00","-3.7","","-11.1","","57","","","M","13","","7","","","","102.02","","","","-7","","NA"
"-64.30","44.36","LUNENBURG","8203210","2019-01-29 17:00","2019","01","29","17:00","-4.1","","-10.2","","63","","","M","13","","8","","","","102.02","","","","-8","","NA"
"-64.30","44.36","LUNENBURG","8203210","2019-01-29 18:00","2019","01","29","18:00","-4.0","","-9.3","","67","","","M","10","","7","","","","102.02","","","","-7","","NA"
"-64.30","44.36","LUNENBURG","8203210","2019-01-29 19:00","2019","01","29","19:00","-3.5","","-8.2","","70","","","M","19","","6","","","","102.07","","","","-6","","NA"
"-64.30","44.36","LUNENBURG","8203210","2019-01-29 20:00","2019","01","29","20:00","-2.3","","-8.1","","65","","","M","10","","21","","","","102.01","","","","-8","","NA"
"-64.30","44.36","LUNENBURG","8203210","2019-01-29 21:00","2019","01","29","21:00","-1.7","","-5.5","","75","","","M","8","","23","","","","101.98","","","","-8","","NA"
"-64.30","44.36","LUNENBURG","8203210","2019-01-29 22:00","2019","01","29","22:00","-1.8","","-6.1","","72","","","M","7","","23","","","","101.89","","","","-8","","NA"
"-64.30","44.36","LUNENBURG","8203210","2019-01-29 23:00","2019","01","29","23:00","-1.4","","-4.9","","77","","","M","8","","34","","","","101.84","","","","-9","","NA"
"-64.30","44.36","LUNENBURG","8203210","2019-01-30 00:00","2019","01","30","00:00","-1.2","","-4.7","","77","","","M","8","","32","","","","101.84","","","","-8","","NA"
"-64.30","44.36","LUNENBURG","8203210","2019-01-30 01:00","2019","01","30","01:00","-0.8","","-3.8","","80","","","M","8","","31","","","","101.80","","","","-8","","NA"
"-64.30","44.36","LUNENBURG","8203210","2019-01-30 02:00","2019","01","30","02:00","-0.1","","-3.0","","81","","","M","9","","38","","","","101.71","","","","-7","","NA"
"-64.30","44.36","LUNENBURG","8203210","2019-01-30 03:00","2019","01","30","03:00","0.2","","-2.4","","82","","","M","8","","38","","","","101.65","","","","","","NA"
"-64.30","44.36","LUNENBURG","8203210","2019-01-30 04:00","2019","01","30","04:00","0.3","","-1.8","","86","","","M","9","","37","","","","101.53","","","","","","NA"
"-64.30","44.36","LUNENBURG","8203210","2019-01-30 05:00","2019","01","30","05:00","0.2","","-1.1","","90","","","M","7","","35","","","","101.39","","","","","","NA"
"-64.30","44.36","LUNENBURG","8203210","2019-01-30 06:00","2019","01","30","06:00","0.6","","-1.2","","88","","","M","7","","33","","","","101.31","","","","","","NA"
"-64.30","44.36","LUNENBURG","8203210","2019-01-30 07:00","2019","01","30","07:00","0.5","","-0.9","","90","","","M","7","","33","","","","101.19","","","","","","NA"
"-64.30","44.36","LUNENBURG","8203210","2019-01-30 08:00","2019","01","30","08:00","0.4","","-0.7","","92","","","M","7","","29","","","","101.20","","","","","","NA"
"-64.30","44.36","LUNENBURG","8203210","2019-01-30 09:00","2019","01","30","09:00","0.3","","-0.1","","97","","","M","7","","29","","","","101.13","","","","","","NA"
"-64.30","44.36","LUNENBURG","8203210","2019-01-30 10:00","2019","01","30","10:00","0.9","","0.6","","98","","","M","7","","40","","","","100.93","","","","","","NA"
"-64.30","44.36","LUNENBURG","8203210","2019-01-30 11:00","2019","01","30","11:00","1.6","","1.1","","97","","","M","7","","47","","","","100.75","","","","","","NA"
"-64.30","44.36","LUNENBURG","8203210","2019-01-30 12:00","2019","01","30","12:00","1.9","","1.5","","97","","","M","7","","47","","","","100.58","","","","","","NA"
"-64.30","44.36","LUNENBURG","8203210","2019-01-30 13:00","2019","01","30","13:00","2.0","","1.5","","97","","","M","8","","44","","","","100.42","","","","","","NA"
"-64.30","44.36","LUNENBURG","8203210","2019-01-30 14:00","2019","01","30","14:00","2.2","","1.7","","97","","","M","8","","47","","","","100.25","","","","","","NA"
"-64.30","44.36","LUNENBURG","8203210","2019-01-30 15:00","2019","01","30","15:00","2.3","","1.8","","97","","","M","8","","44","","","","100.16","","","","","","NA"
"-64.30","44.36","LUNENBURG","8203210","2019-01-30 16:00","2019","01","30","16:00","3.0","","2.6","","97","","","M","9","","47","","","","100.10","","","","","","NA"
"-64.30","44.36","LUNENBURG","8203210","2019-01-30 17:00","2019","01","30","17:00","3.5","","3.1","","97","","","M","14","","20","","","","100.14","","","","","","NA"
"-64.30","44.36","LUNENBURG","8203210","2019-01-30 18:00","2019","01","30","18:00","4.0","","3.1","","94","","","M","22","","20","","","","100.16","","","","","","NA"
"-64.30","44.36","LUNENBURG","8203210","2019-01-30 19:00","2019","01","30","19:00","2.4","","-1.1","","78","","","M","24","","44","","","","100.30","","","","","","NA"
"-64.30","44.36","LUNENBURG","8203210","2019-01-30 20:00","2019","01","30","20:00","0.7","","-2.4","","80","","","M","23","","34","","","","100.49","","","","","","NA"
"-64.30","44.36","LUNENBURG","8203210","2019-01-30 21:00","2019","01","30","21:00","0.5","","-3.9","","72","","","M","24","","31","","","","100.62","","","","","","NA"
"-64.30","44.36","LUNENBURG","8203210","2019-01-30 22:00","2019","01","30","22:00","0.1","","-5.6","","65","","","M","25","","34","","","","100.72","","","","","","NA"
"-64.30","44.36","LUNENBURG","8203210","2019-01-30 23:00","2019","01","30","23:00","-0.7","","-8.0","","58","","","M","25","","23","","","","100.82","","","","-7","","NA"
"-64.30","44.36","LUNENBURG","8203210","2019-01-31 00:00","2019","01","31","00:00","-1.4","","-7.1","","65","","","M","23","","11","","","","100.88","","","","-5","","NA"
"-64.30","44.36","LUNENBURG","8203210","2019-01-31 01:00","2019","01","31","01:00","-1.7","","-6.5","","70","","","M","18","","8","","","","100.83","","","","-5","","NA"
"-64.30","44.36","LUNENBURG","8203210","2019-01-31 02:00","2019","01","31","02:00","-1.4","","-5.8","","72","","","M","13","","16","","","","100.72","","","","-6","","NA"
"-64.30","44.36","LUNENBURG","8203210","2019-01-31 03:00","2019","01","31","03:00","-1.0","","-4.5","","78","","","M","16","","34","","","","100.72","","","","-8","","NA"
"-64.30","44.36","LUNENBURG","8203210","2019-01-31 04:00","2019","01","31","04:00","0.1","","-2.7","","82","","","M","19","","36","","","","100.63","","","","","","NA"
"-64.30","44.36","LUNENBURG","8203210","2019-01-31 05:00","2019","01","31","05:00","-0.8","","-6.1","","67","","","M","21","","42","","","","100.61","","","","-9","","NA"
"-64.30","44.36","LUNENBURG","8203210","2019-01-31 06:00","2019","01","31","06:00","-2.3","","-8.1","","64","","","M","22","","46","","","","100.66","","","","-11","","NA"
"-64.30","44.36","LUNENBURG","8203210","2019-01-31 07:00","2019","01","31","07:00","-3.7","","-8.1","","71","","","M","22","","39","","","","100.82","","","","-12","","NA"
"-64.30","44.36","LUNENBURG","8203210","2019-01-31 08:00","2019","01","31","08:00","-7.1","","-12.1","","68","","","M","27","","34","","","","101.07","","","","-16","","NA"
"-64.30","44.36","LUNENBURG","8203210","2019-01-31 09:00","2019","01","31","09:00","-7.7","","-12.9","","66","","","M","26","","33","","","","101.22","","","","-17","","NA"
"-64.30","44.36","LUNENBURG","8203210","2019-01-31 10:00","2019","01","31","10:00","-7.5","","-13.0","","65","","","M","28","","29","","","","101.30","","","","-16","","NA"
"-64.30","44.36","LUNENBURG","8203210","2019-01-31 11:00","2019","01","31","11:00","-8.6","","-13.3","","69","","","M","27","","37","","","","101.36","","","","-19","","NA"
"-64.30","44.36","LUNENBURG","8203210","2019-01-31 12:00","2019","01","31","12:00","-7.6","","-13.4","","63","","","M","26","","38","","","","101.42","","","","-17","","NA"
"-64.30","44.36","LUNENBURG","8203210","2019-01-31 13:00","2019","01","31","13:00","-7.9","","-16.1","","52","","","M","25","","41","","","","101.44","","","","-18","","NA"
"-64.30","44.36","LUNENBURG","8203210","2019-01-31 14:00","2019","01","31","14:00","-8.5","","-15.4","","57","","","M","26","","38","","","","101.46","","","","-19","","NA"
"-64.30","44.36","LUNENBURG","8203210","2019-01-31 15:00","2019","01","31","15:00","-8.0","","-16.3","","52","","","M","26","","30","","","","101.44","","","","-17","","NA"
"-64.30","44.36","LUNENBURG","8203210","2019-01-31 16:00","2019","01","31","16:00","-8.0","","-12.9","","68","","","M","22","","26","","","","101.47","","","","-16","","NA"
"-64.30","44.36","LUNENBURG","8203210","2019-01-31 17:00","2019","01","31","17:00","-7.7","","-12.0","","71","","","M","24","","42","","","","101.47","","","","-18","","NA"
"-64.30","44.36","LUNENBURG","8203210","2019-01-31 18:00","2019","01","31","18:00","-8.6","","-13.9","","65","","","M","23","","26","","","","101.52","","","","-17","","NA"
"-64.30","44.36","LUNENBURG","8203210","2019-01-31 19:00","2019","01","31","19:00","-8.9","","-13.2","","71","","","M","23","","29","","","","101.66","","","","-18","","NA"
"-64.30","44.36","LUNENBURG","8203210","2019-01-31 20:00","2019","01","31","20:00","-9.1","","-14.4","","65","","","M","25","","26","","","","101.75","","","","-18","","NA"
"-64.30","44.36","LUNENBURG","8203210","2019-01-31 21:00","2019","01","31","21:00","-9.5","","-13.3","","74","","","M","24","","22","","","","101.82","","","","-18","","NA"
"-64.30","44.36","LUNENBURG","8203210","2019-01-31 22:00","2019","01","31","22:00","-9.8","","-15.5","","64","","","M","25","","17","","","","101.87","","","","-17","","NA"
"-64.30","44.36","LUNENBURG","8203210","2019-01-31 23:00","2019","01","31","23:00","-9.9","","-16.1","","60","","","M","27","","20","","","","101.89","","","","-18","","NA"
