"Longitude (x)","Latitude (y)","Station Name","Climate ID","Date/Time (LST)","Year","Month","Day","Time (LST)","Temp (°C)","Temp Flag","Dew Point Temp (°C)","Dew Point Temp Flag","Rel Hum (%)","Rel Hum Flag","Precip. Amount (mm)","Precip. Amount Flag","Wind Dir (10s deg)","Wind Dir Flag","Wind Spd (km/h)","Wind Spd Flag","Visibility (km)","Visibility Flag","Stn Press (kPa)","Stn Press Flag","Hmdx","Hmdx Flag","Wind Chill","Wind Chill Flag","Weather"
"-56.07","48.97","BADGER (AUT)","8400301","2019-02-01 00:30","2019","02","01","00:30","-12.6","","-18.2","","63","","0.0","","22","","10","","","","99.45","","","","-18","","NA"
"-56.07","48.97","BADGER (AUT)","8400301","2019-02-01 01:30","2019","02","01","01:30","-12.7","","-18.1","","64","","0.0","","21","","12","","","","99.43","","","","-19","","NA"
"-56.07","48.97","BADGER (AUT)","8400301","2019-02-01 02:30","2019","02","01","02:30","-12.8","","-17.7","","67","","0.0","","22","","12","","","","99.47","","","","-19","","NA"
"-56.07","48.97","BADGER (AUT)","8400301","2019-02-01 03:30","2019","02","01","03:30","-12.9","","-18.7","","62","","0.0","","22","","11","","","","99.48","","","","-19","","NA"
"-56.07","48.97","BADGER (AUT)","8400301","2019-02-01 04:30","2019","02","01","04:30","-13.2","","-19.4","","60","","0.0","","22","","13","","","","99.49","","","","-20","","NA"
"-56.07","48.97","BADGER (AUT)","8400301","2019-02-01 05:30","2019","02","01","05:30","-13.3","","-20.2","","56","","0.0","","24","","14","","","","99.56","","","","-21","","NA"
"-56.07","48.97","BADGER (AUT)","8400301","2019-02-01 06:30","2019","02","01","06:30","-14.0","","-20.0","","60","","0.0","","23","","13","","","","99.58","","","","-21","","NA"
"-56.07","48.97","BADGER (AUT)","8400301","2019-02-01 07:30","2019","02","01","07:30","-14.4","","-19.6","","64","","0.0","","21","","14","","","","99.63","","","","-22","","NA"
"-56.07","48.97","BADGER (AUT)","8400301","2019-02-01 08:30","2019","02","01","08:30","-14.3","","-19.7","","64","","0.0","","21","","12","","","","99.69","","","","-21","","NA"
"-56.07","48.97","BADGER (AUT)","8400301","2019-02-01 09:30","2019","02","01","09:30","-12.4","","-19.8","","54","","0.0","","22","","12","","","","99.70","","","","-19","","NA"
"-56.07","48.97","BADGER (AUT)","8400301","2019-02-01 10:30","2019","02","01","10:30","-11.5","","-21.4","","44","","0.0","","23","","16","","","","99.72","","","","-19","","NA"
"-56.07","48.97","BADGER (AUT)","8400301","2019-02-01 11:30","2019","02","01","11:30","-10.9","","-21.1","","43","","0.0","","23","","16","","","","99.75","","","","-18","","NA"
"-56.07","48.97","BADGER (AUT)","8400301","2019-02-01 12:30","2019","02","01","12:30","-10.8","","-22.0","","39","","0.0","","24","","17","","","","99.70","","","","-18","","NA"
"-56.07","48.97","BADGER (AUT)","8400301","2019-02-01 13:30","2019","02","01","13:30","-10.3","","-22.0","","38","","0.0","","22","","20","","","","99.63","","","","-18","","NA"
"-56.07","48.97","BADGER (AUT)","8400301","2019-02-01 14:30","2019","02","01","14:30","-10.2","","-22.6","","36","","0.0","","24","","18","","","","99.58","","","","-18","","NA"
"-56.07","48.97","BADGER (AUT)","8400301","2019-02-01 15:30","2019","02","01","15:30","-10.7","","-22.5","","37","","0.0","","22","","17","","","","99.60","","","","-18","","NA"
"-56.07","48.97","BADGER (AUT)","8400301","2019-02-01 16:30","2019","02","01","16:30","-11.4","","-21.6","","43","","0.0","","22","","16","","","","99.58","","","","-19","","NA"
"-56.07","48.97","BADGER (AUT)","8400301","2019-02-01 17:30","2019","02","01","17:30","-12.4","","-20.8","","50","","0.0","","21","","15","","","","99.56","","","","-20","","NA"
"-56.07","48.97","BADGER (AUT)","8400301","2019-02-01 18:30","2019","02","01","18:30","-12.6","","-20.2","","53","","0.0","","22","","16","","","","99.56","","","","-20","","NA"
"-56.07","48.97","BADGER (AUT)","8400301","2019-02-01 19:30","2019","02","01","19:30","-13.3","","-21.8","","49","","0.0","","22","","14","","","","99.59","","","","-21","","NA"
"-56.07","48.97","BADGER (AUT)","8400301","2019-02-01 20:30","2019","02","01","20:30","-14.0","","-22.1","","50","","0.0","","23","","12","","","","99.62","","","","-21","","NA"
"-56.07","48.97","BADGER (AUT)","8400301","2019-02-01 21:30","2019","02","01","21:30","-14.1","","-21.6","","53","","0.0","","22","","15","","","","99.57","","","","-22","","NA"
"-56.07","48.97","BADGER (AUT)","8400301","2019-02-01 22:30","2019","02","01","22:30","-13.8","","-20.6","","57","","0.0","","21","","12","","","","99.53","","","","-21","","NA"
"-56.07","48.97","BADGER (AUT)","8400301","2019-02-01 23:30","2019","02","01","23:30","-13.7","","-19.8","","60","","0.0","","20","","12","","","","99.49","","","","-20","","NA"
"-56.07","48.97","BADGER (AUT)","8400301","2019-02-02 00:30","2019","02","02","00:30","-13.9","","-19.2","","64","","0.0","","19","","10","","","","99.42","","","","-20","","NA"
"-56.07","48.97","BADGER (AUT)","8400301","2019-02-02 01:30","2019","02","02","01:30","-13.2","","-18.5","","65","","0.0","","22","","12","","","","99.33","","","","-20","","NA"
"-56.07","48.97","BADGER (AUT)","8400301","2019-02-02 02:30","2019","02","02","02:30","-12.9","","-18.0","","65","","0.0","","21","","12","","","","99.32","","","","-19","","NA"
"-56.07","48.97","BADGER (AUT)","8400301","2019-02-02 03:30","2019","02","02","03:30","-13.1","","-18.1","","66","","0.0","","22","","10","","","","99.29","","","","-19","","NA"
"-56.07","48.97","BADGER (AUT)","8400301","2019-02-02 04:30","2019","02","02","04:30","-13.1","","-18.0","","66","","0.0","","21","","9","","","","99.27","","","","-19","","NA"
"-56.07","48.97","BADGER (AUT)","8400301","2019-02-02 05:30","2019","02","02","05:30","-12.6","","-18.0","","64","","0.0","","21","","12","","","","99.25","","","","-19","","NA"
"-56.07","48.97","BADGER (AUT)","8400301","2019-02-02 06:30","2019","02","02","06:30","-12.5","","-17.6","","66","","0.0","","22","","14","","","","99.22","","","","-20","","NA"
"-56.07","48.97","BADGER (AUT)","8400301","2019-02-02 07:30","2019","02","02","07:30","-12.9","","-17.7","","67","","0.0","","22","","11","","","","99.21","","","","-19","","NA"
"-56.07","48.97","BADGER (AUT)","8400301","2019-02-02 08:30","2019","02","02","08:30","-12.7","","-17.9","","65","","0.0","","23","","8","","","","99.25","","","","-18","","NA"
"-56.07","48.97","BADGER (AUT)","8400301","2019-02-02 09:30","2019","02","02","09:30","-11.5","","-18.0","","58","","0.0","","22","","14","","","","99.21","","","","-18","","NA"
"-56.07","48.97","BADGER (AUT)","8400301","2019-02-02 10:30","2019","02","02","10:30","-10.2","","-17.4","","56","","0.0","","21","","14","","","","99.20","","","","-17","","NA"
"-56.07","48.97","BADGER (AUT)","8400301","2019-02-02 11:30","2019","02","02","11:30","-8.8","","-17.2","","51","","0.0","","22","","17","","","","99.14","","","","-16","","NA"
"-56.07","48.97","BADGER (AUT)","8400301","2019-02-02 12:30","2019","02","02","12:30","-9.3","","-17.4","","52","","0.0","","24","","19","","","","99.05","","","","-17","","NA"
"-56.07","48.97","BADGER (AUT)","8400301","2019-02-02 13:30","2019","02","02","13:30","-8.5","","-18.1","","46","","0.0","","24","","20","","","","98.99","","","","-16","","NA"
"-56.07","48.97","BADGER (AUT)","8400301","2019-02-02 14:30","2019","02","02","14:30","-8.5","","-18.3","","45","","0.0","","24","","20","","","","98.99","","","","-16","","NA"
"-56.07","48.97","BADGER (AUT)","8400301","2019-02-02 15:30","2019","02","02","15:30","-9.0","","-16.8","","53","","0.0","","24","","16","","","","99.02","","","","-16","","NA"
"-56.07","48.97","BADGER (AUT)","8400301","2019-02-02 16:30","2019","02","02","16:30","-9.2","","-16.0","","57","","0.0","","25","","15","","","","99.06","","","","-16","","NA"
"-56.07","48.97","BADGER (AUT)","8400301","2019-02-02 17:30","2019","02","02","17:30","-10.1","","-15.3","","65","","0.0","","24","","11","","","","98.99","","","","-16","","NA"
"-56.07","48.97","BADGER (AUT)","8400301","2019-02-02 18:30","2019","02","02","18:30","-10.3","","-15.3","","67","","0.0","","21","","11","","","","99.01","","","","-16","","NA"
"-56.07","48.97","BADGER (AUT)","8400301","2019-02-02 19:30","2019","02","02","19:30","-10.6","","-16.2","","64","","0.0","","21","","10","","","","99.01","","","","-16","","NA"
"-56.07","48.97","BADGER (AUT)","8400301","2019-02-02 20:30","2019","02","02","20:30","-10.5","","-16.3","","63","","0.0","","21","","11","","","","98.97","","","","-16","","NA"
"-56.07","48.97","BADGER (AUT)","8400301","2019-02-02 21:30","2019","02","02","21:30","-10.8","","-14.9","","72","","0.0","","21","","11","","","","98.94","","","","-17","","NA"
"-56.07","48.97","BADGER (AUT)","8400301","2019-02-02 22:30","2019","02","02","22:30","-11.0","","-14.1","","78","","0.0","","21","","11","","","","98.90","","","","-17","","NA"
"-56.07","48.97","BADGER (AUT)","8400301","2019-02-02 23:30","2019","02","02","23:30","-11.0","","-14.4","","76","","0.0","","21","","10","","","","98.87","","","","-16","","NA"
"-56.07","48.97","BADGER (AUT)","8400301","2019-02-03 00:30","2019","02","03","00:30","-10.8","","-14.3","","75","","0.0","","21","","10","","","","98.85","","","","-16","","NA"
"-56.07","48.97","BADGER (AUT)","8400301","2019-02-03 01:30","2019","02","03","01:30","-10.8","","-14.6","","74","","0.0","","23","","9","","","","98.76","","","","-16","","NA"
"-56.07","48.97","BADGER (AUT)","8400301","2019-02-03 02:30","2019","02","03","02:30","-10.9","","-14.6","","74","","0.0","","22","","9","","","","98.71","","","","-16","","NA"
"-56.07","48.97","BADGER (AUT)","8400301","2019-02-03 03:30","2019","02","03","03:30","-11.5","","-15.1","","75","","0.0","","22","","9","","","","98.68","","","","-17","","NA"
"-56.07","48.97","BADGER (AUT)","8400301","2019-02-03 04:30","2019","02","03","04:30","-12.9","","-15.4","","82","","0.0","","22","","6","","","","98.66","","","","-17","","NA"
"-56.07","48.97","BADGER (AUT)","8400301","2019-02-03 05:30","2019","02","03","05:30","-14.0","","-15.8","","86","","0.0","","21","","4","","","","98.70","","","","-17","","NA"
"-56.07","48.97","BADGER (AUT)","8400301","2019-02-03 06:30","2019","02","03","06:30","-17.5","","-19.7","","83","","0.0","","24","","3","","","","98.72","","","","-20","","NA"
"-56.07","48.97","BADGER (AUT)","8400301","2019-02-03 07:30","2019","02","03","07:30","-19.1","","-20.7","","87","","0.0","","23","","5","","","","98.75","","","","-23","","NA"
"-56.07","48.97","BADGER (AUT)","8400301","2019-02-03 08:30","2019","02","03","08:30","-18.6","","-20.6","","84","","0.0","","23","","4","","","","98.80","","","","-22","","NA"
"-56.07","48.97","BADGER (AUT)","8400301","2019-02-03 09:30","2019","02","03","09:30","-12.5","","-15.3","","79","","0.3","","23","","8","","","","98.82","","","","-17","","NA"
"-56.07","48.97","BADGER (AUT)","8400301","2019-02-03 10:30","2019","02","03","10:30","-10.1","","-14.0","","73","","0.0","","24","","6","","","","98.83","","","","-14","","NA"
"-56.07","48.97","BADGER (AUT)","8400301","2019-02-03 11:30","2019","02","03","11:30","-7.5","","-13.2","","64","","0.0","","25","","13","","","","98.79","","","","-13","","NA"
"-56.07","48.97","BADGER (AUT)","8400301","2019-02-03 12:30","2019","02","03","12:30","-8.4","","-12.1","","74","","0.0","","28","","11","","","","98.81","","","","-14","","NA"
"-56.07","48.97","BADGER (AUT)","8400301","2019-02-03 13:30","2019","02","03","13:30","-7.0","","-14.0","","57","","0.0","","29","","14","","","","98.82","","","","-13","","NA"
"-56.07","48.97","BADGER (AUT)","8400301","2019-02-03 14:30","2019","02","03","14:30","-9.5","","-16.6","","56","","0.0","","30","","17","","","","98.90","","","","-17","","NA"
"-56.07","48.97","BADGER (AUT)","8400301","2019-02-03 15:30","2019","02","03","15:30","-10.2","","-16.3","","61","","0.0","","30","","15","","","","99.02","","","","-17","","NA"
"-56.07","48.97","BADGER (AUT)","8400301","2019-02-03 16:30","2019","02","03","16:30","-12.1","","-17.4","","65","","0.0","","30","","13","","","","99.15","","","","-19","","NA"
"-56.07","48.97","BADGER (AUT)","8400301","2019-02-03 17:30","2019","02","03","17:30","-13.0","","-18.4","","64","","0.0","","30","","11","","","","99.38","","","","-19","","NA"
"-56.07","48.97","BADGER (AUT)","8400301","2019-02-03 18:30","2019","02","03","18:30","-14.2","","-21.1","","56","","0.0","","28","","10","","","","99.56","","","","-20","","NA"
"-56.07","48.97","BADGER (AUT)","8400301","2019-02-03 19:30","2019","02","03","19:30","-15.0","","-20.8","","61","","0.0","","30","","8","","","","99.72","","","","-20","","NA"
"-56.07","48.97","BADGER (AUT)","8400301","2019-02-03 20:30","2019","02","03","20:30","-15.6","","-19.6","","72","","0.0","","24","","6","","","","99.87","","","","-20","","NA"
"-56.07","48.97","BADGER (AUT)","8400301","2019-02-03 21:30","2019","02","03","21:30","-14.9","","-19.1","","70","","0.0","","27","","7","","","","99.96","","","","-20","","NA"
"-56.07","48.97","BADGER (AUT)","8400301","2019-02-03 22:30","2019","02","03","22:30","-15.4","","-19.4","","71","","0.0","","24","","6","","","","100.06","","","","-20","","NA"
"-56.07","48.97","BADGER (AUT)","8400301","2019-02-03 23:30","2019","02","03","23:30","-15.2","","-19.0","","73","","0.0","","21","","6","","","","100.14","","","","-19","","NA"
"-56.07","48.97","BADGER (AUT)","8400301","2019-02-04 00:30","2019","02","04","00:30","-17.4","","-19.7","","82","","0.0","","17","","7","","","","100.17","","","","-23","","NA"
"-56.07","48.97","BADGER (AUT)","8400301","2019-02-04 01:30","2019","02","04","01:30","-16.3","","-17.3","","92","","0.0","","26","","5","","","","100.23","","","","-20","","NA"
"-56.07","48.97","BADGER (AUT)","8400301","2019-02-04 02:30","2019","02","04","02:30","-20.5","","-22.9","","81","","0.0","","6","","3","","","","100.32","","","","-23","","NA"
"-56.07","48.97","BADGER (AUT)","8400301","2019-02-04 03:30","2019","02","04","03:30","-21.4","","-23.1","","86","","0.0","","16","","3","","","","100.40","","","","-24","","NA"
"-56.07","48.97","BADGER (AUT)","8400301","2019-02-04 04:30","2019","02","04","04:30","-13.2","","-16.4","","77","","0.0","","25","","9","","","","100.48","","","","-19","","NA"
"-56.07","48.97","BADGER (AUT)","8400301","2019-02-04 05:30","2019","02","04","05:30","-14.2","","-17.7","","75","","0.0","","8","","4","","","","100.55","","","","-17","","NA"
"-56.07","48.97","BADGER (AUT)","8400301","2019-02-04 06:30","2019","02","04","06:30","-13.4","","-15.6","","84","","0.0","","18","","8","","","","100.59","","","","-18","","NA"
"-56.07","48.97","BADGER (AUT)","8400301","2019-02-04 07:30","2019","02","04","07:30","-12.2","","-15.5","","76","","0.0","","22","","8","","","","100.61","","","","-17","","NA"
"-56.07","48.97","BADGER (AUT)","8400301","2019-02-04 08:30","2019","02","04","08:30","-12.3","","-15.7","","76","","0.0","","24","","5","","","","100.58","","","","-16","","NA"
"-56.07","48.97","BADGER (AUT)","8400301","2019-02-04 09:30","2019","02","04","09:30","-10.6","","-14.8","","71","","0.0","","20","","6","","","","100.57","","","","-14","","NA"
"-56.07","48.97","BADGER (AUT)","8400301","2019-02-04 10:30","2019","02","04","10:30","-9.1","","-14.3","","66","","0.0","","21","","9","","","","100.55","","","","-14","","NA"
"-56.07","48.97","BADGER (AUT)","8400301","2019-02-04 11:30","2019","02","04","11:30","-7.9","","-13.3","","65","","0.0","","20","","7","","","","100.52","","","","-12","","NA"
"-56.07","48.97","BADGER (AUT)","8400301","2019-02-04 12:30","2019","02","04","12:30","-7.0","","-13.4","","60","","0.0","","19","","8","","","","100.40","","","","-11","","NA"
"-56.07","48.97","BADGER (AUT)","8400301","2019-02-04 13:30","2019","02","04","13:30","-5.8","","-11.7","","63","","0.0","","21","","10","","","","100.30","","","","-10","","NA"
"-56.07","48.97","BADGER (AUT)","8400301","2019-02-04 14:30","2019","02","04","14:30","-6.6","","-9.1","","82","","0.0","","18","","14","","","","100.14","","","","-12","","NA"
"-56.07","48.97","BADGER (AUT)","8400301","2019-02-04 15:30","2019","02","04","15:30","-6.4","","-8.3","","87","","0.3","","20","","9","","","","100.10","","","","-11","","NA"
"-56.07","48.97","BADGER (AUT)","8400301","2019-02-04 16:30","2019","02","04","16:30","-6.1","","-7.6","","89","","0.5","","19","","6","","","","100.05","","","","-9","","NA"
"-56.07","48.97","BADGER (AUT)","8400301","2019-02-04 17:30","2019","02","04","17:30","-6.1","","-7.2","","92","","0.4","","16","","4","","","","99.97","","","","-8","","NA"
"-56.07","48.97","BADGER (AUT)","8400301","2019-02-04 18:30","2019","02","04","18:30","-6.1","","-7.0","","93","","0.8","","12","","3","","","","99.91","","","","-8","","NA"
"-56.07","48.97","BADGER (AUT)","8400301","2019-02-04 19:30","2019","02","04","19:30","-6.0","","-6.9","","93","","0.6","","14","","3","","","","99.83","","","","-7","","NA"
"-56.07","48.97","BADGER (AUT)","8400301","2019-02-04 20:30","2019","02","04","20:30","-6.1","","-7.1","","93","","0.2","","10","","1","","","","99.80","","","","-7","","NA"
"-56.07","48.97","BADGER (AUT)","8400301","2019-02-04 21:30","2019","02","04","21:30","-6.5","","-7.4","","93","","0.0","","34","","2","","","","99.79","","","","-7","","NA"
"-56.07","48.97","BADGER (AUT)","8400301","2019-02-04 22:30","2019","02","04","22:30","-6.5","","-7.5","","93","","0.0","","30","","1","","","","99.80","","","","-7","","NA"
"-56.07","48.97","BADGER (AUT)","8400301","2019-02-04 23:30","2019","02","04","23:30","-6.4","","-7.2","","94","","0.0","","19","","4","","","","99.82","","","","-8","","NA"
"-56.07","48.97","BADGER (AUT)","8400301","2019-02-05 00:30","2019","02","05","00:30","-6.1","","-6.9","","94","","0.0","","22","","4","","","","99.89","","","","-8","","NA"
"-56.07","48.97","BADGER (AUT)","8400301","2019-02-05 01:30","2019","02","05","01:30","-6.5","","-7.6","","92","","0.0","","16","","4","","","","99.97","","","","-8","","NA"
"-56.07","48.97","BADGER (AUT)","8400301","2019-02-05 02:30","2019","02","05","02:30","-5.6","","-7.0","","89","","0.0","","28","","7","","","","100.07","","","","-9","","NA"
"-56.07","48.97","BADGER (AUT)","8400301","2019-02-05 03:30","2019","02","05","03:30","-7.7","","-9.5","","87","","0.0","","26","","3","","","","100.16","","","","-9","","NA"
"-56.07","48.97","BADGER (AUT)","8400301","2019-02-05 04:30","2019","02","05","04:30","-8.8","","-10.0","","91","","0.0","","33","","4","","","","100.27","","","","-11","","NA"
"-56.07","48.97","BADGER (AUT)","8400301","2019-02-05 05:30","2019","02","05","05:30","-11.1","","-12.4","","90","","0.0","","29","","2","","","","100.33","","","","-12","","NA"
"-56.07","48.97","BADGER (AUT)","8400301","2019-02-05 06:30","2019","02","05","06:30","-13.1","","-14.9","","86","","0.0","","31","","2","","","","100.40","","","","-14","","NA"
"-56.07","48.97","BADGER (AUT)","8400301","2019-02-05 07:30","2019","02","05","07:30","-14.3","","-15.8","","88","","1.1","","23","","3","","","","100.49","","","","-16","","NA"
"-56.07","48.97","BADGER (AUT)","8400301","2019-02-05 08:30","2019","02","05","08:30","-12.9","","-14.2","","90","","0.0","","13","","2","","","","100.54","","","","-14","","NA"
"-56.07","48.97","BADGER (AUT)","8400301","2019-02-05 09:30","2019","02","05","09:30","-9.2","","-10.4","","91","","0.2","","18","","1","","","","100.54","","","","-10","","NA"
"-56.07","48.97","BADGER (AUT)","8400301","2019-02-05 10:30","2019","02","05","10:30","-6.6","","-8.5","","87","","0.0","","23","","4","","","","100.62","","","","-9","","NA"
"-56.07","48.97","BADGER (AUT)","8400301","2019-02-05 11:30","2019","02","05","11:30","-4.6","","-7.0","","83","","0.0","","18","","8","","","","100.59","","","","-8","","NA"
"-56.07","48.97","BADGER (AUT)","8400301","2019-02-05 12:30","2019","02","05","12:30","-4.7","","-7.4","","81","","0.0","","17","","11","","","","100.47","","","","-9","","NA"
"-56.07","48.97","BADGER (AUT)","8400301","2019-02-05 13:30","2019","02","05","13:30","-4.5","","-7.0","","82","","0.0","","16","","8","","","","100.37","","","","-8","","NA"
"-56.07","48.97","BADGER (AUT)","8400301","2019-02-05 14:30","2019","02","05","14:30","-4.2","","-6.7","","82","","0.0","","16","","9","","","","100.24","","","","-8","","NA"
"-56.07","48.97","BADGER (AUT)","8400301","2019-02-05 15:30","2019","02","05","15:30","-3.9","","-6.7","","81","","0.0","","18","","12","","","","100.22","","","","-9","","NA"
"-56.07","48.97","BADGER (AUT)","8400301","2019-02-05 16:30","2019","02","05","16:30","-3.9","","-6.4","","83","","0.0","","15","","7","","","","100.09","","","","-7","","NA"
"-56.07","48.97","BADGER (AUT)","8400301","2019-02-05 17:30","2019","02","05","17:30","-3.5","","-5.9","","84","","0.0","","18","","8","","","","100.06","","","","-7","","NA"
"-56.07","48.97","BADGER (AUT)","8400301","2019-02-05 18:30","2019","02","05","18:30","-3.2","","-5.4","","84","","0.0","","18","","10","","","","99.98","","","","-7","","NA"
"-56.07","48.97","BADGER (AUT)","8400301","2019-02-05 19:30","2019","02","05","19:30","-2.8","","-4.4","","88","","0.0","","17","","8","","","","99.85","","","","-6","","NA"
"-56.07","48.97","BADGER (AUT)","8400301","2019-02-05 20:30","2019","02","05","20:30","-2.2","","-3.1","","93","","0.2","","20","","5","","","","99.81","","","","-4","","NA"
"-56.07","48.97","BADGER (AUT)","8400301","2019-02-05 21:30","2019","02","05","21:30","-1.9","","-2.6","","95","","0.0","","14","","3","","","","99.68","","","","-3","","NA"
"-56.07","48.97","BADGER (AUT)","8400301","2019-02-05 22:30","2019","02","05","22:30","-1.8","","-2.4","","96","","0.0","","13","","2","","","","99.63","","","","-3","","NA"
"-56.07","48.97","BADGER (AUT)","8400301","2019-02-05 23:30","2019","02","05","23:30","-1.5","","-2.1","","96","","0.0","","17","","2","","","","99.54","","","","-2","","NA"
"-56.07","48.97","BADGER (AUT)","8400301","2019-02-06 00:30","2019","02","06","00:30","-0.8","","-1.2","","97","","0.0","","14","","3","","","","99.48","","","","-2","","NA"
"-56.07","48.97","BADGER (AUT)","8400301","2019-02-06 01:30","2019","02","06","01:30","-0.9","","-1.3","","97","","0.0","","16","","4","","","","99.38","","","","-2","","NA"
"-56.07","48.97","BADGER (AUT)","8400301","2019-02-06 02:30","2019","02","06","02:30","-0.9","","-1.3","","98","","0.0","","6","","2","","","","99.31","","","","-2","","NA"
"-56.07","48.97","BADGER (AUT)","8400301","2019-02-06 03:30","2019","02","06","03:30","-1.0","","-1.3","","98","","0.0","","9","","4","","","","99.32","","","","-2","","NA"
"-56.07","48.97","BADGER (AUT)","8400301","2019-02-06 04:30","2019","02","06","04:30","-0.9","","-1.1","","99","","0.0","","29","","3","","","","99.30","","","","-2","","NA"
"-56.07","48.97","BADGER (AUT)","8400301","2019-02-06 05:30","2019","02","06","05:30","-0.8","","-0.9","","99","","0.0","","1","","2","","","","99.33","","","","-1","","NA"
"-56.07","48.97","BADGER (AUT)","8400301","2019-02-06 06:30","2019","02","06","06:30","-0.6","","-0.8","","99","","0.0","","34","","3","","","","99.39","","","","-2","","NA"
"-56.07","48.97","BADGER (AUT)","8400301","2019-02-06 07:30","2019","02","06","07:30","-1.7","","-2.3","","95","","0.0","","34","","11","","","","99.54","","","","-6","","NA"
"-56.07","48.97","BADGER (AUT)","8400301","2019-02-06 08:30","2019","02","06","08:30","-1.8","","-2.8","","93","","0.0","","1","","6","","","","99.68","","","","-4","","NA"
"-56.07","48.97","BADGER (AUT)","8400301","2019-02-06 09:30","2019","02","06","09:30","-2.5","","-4.6","","86","","0.0","","1","","15","","","","99.86","","","","-7","","NA"
"-56.07","48.97","BADGER (AUT)","8400301","2019-02-06 10:30","2019","02","06","10:30","-4.2","","-6.5","","84","","0.0","","1","","16","","","","100.00","","","","-10","","NA"
"-56.07","48.97","BADGER (AUT)","8400301","2019-02-06 11:30","2019","02","06","11:30","-5.0","","-6.9","","87","","0.0","","1","","13","","","","100.09","","","","-10","","NA"
"-56.07","48.97","BADGER (AUT)","8400301","2019-02-06 12:30","2019","02","06","12:30","-5.5","","-7.5","","86","","0.0","","1","","17","","","","100.20","","","","-12","","NA"
"-56.07","48.97","BADGER (AUT)","8400301","2019-02-06 13:30","2019","02","06","13:30","-5.8","","-8.4","","82","","0.0","","1","","14","","","","100.27","","","","-11","","NA"
"-56.07","48.97","BADGER (AUT)","8400301","2019-02-06 14:30","2019","02","06","14:30","-6.0","","-8.7","","81","","0.0","","36","","13","","","","100.38","","","","-11","","NA"
"-56.07","48.97","BADGER (AUT)","8400301","2019-02-06 15:30","2019","02","06","15:30","-6.5","","-9.1","","82","","0.0","","2","","13","","","","100.49","","","","-12","","NA"
"-56.07","48.97","BADGER (AUT)","8400301","2019-02-06 16:30","2019","02","06","16:30","-7.6","","-10.0","","83","","0.0","","2","","13","","","","100.61","","","","-13","","NA"
"-56.07","48.97","BADGER (AUT)","8400301","2019-02-06 17:30","2019","02","06","17:30","-8.8","","-11.5","","81","","0.0","","2","","16","","","","100.70","","","","-16","","NA"
"-56.07","48.97","BADGER (AUT)","8400301","2019-02-06 18:30","2019","02","06","18:30","-9.2","","-11.9","","81","","0.0","","36","","11","","","","100.84","","","","-15","","NA"
"-56.07","48.97","BADGER (AUT)","8400301","2019-02-06 19:30","2019","02","06","19:30","-9.0","","-11.4","","83","","0.0","","34","","5","","","","100.93","","","","-12","","NA"
"-56.07","48.97","BADGER (AUT)","8400301","2019-02-06 20:30","2019","02","06","20:30","-8.7","","-11.0","","84","","0.0","","36","","7","","","","100.99","","","","-13","","NA"
"-56.07","48.97","BADGER (AUT)","8400301","2019-02-06 21:30","2019","02","06","21:30","-8.5","","-10.6","","85","","0.0","","35","","7","","","","101.07","","","","-12","","NA"
"-56.07","48.97","BADGER (AUT)","8400301","2019-02-06 22:30","2019","02","06","22:30","-8.5","","-10.4","","86","","0.0","","32","","5","","","","101.13","","","","-11","","NA"
"-56.07","48.97","BADGER (AUT)","8400301","2019-02-06 23:30","2019","02","06","23:30","-8.5","","-10.2","","87","","0.0","","35","","5","","","","101.15","","","","-11","","NA"
"-56.07","48.97","BADGER (AUT)","8400301","2019-02-07 00:30","2019","02","07","00:30","-8.7","","-10.2","","89","","0.0","","36","","7","","","","101.09","","","","-13","","NA"
"-56.07","48.97","BADGER (AUT)","8400301","2019-02-07 01:30","2019","02","07","01:30","-8.6","","-9.9","","90","","0.0","","34","","3","","","","101.14","","","","-10","","NA"
"-56.07","48.97","BADGER (AUT)","8400301","2019-02-07 02:30","2019","02","07","02:30","-8.5","","-9.6","","91","","0.0","","36","","4","","","","101.18","","","","-11","","NA"
"-56.07","48.97","BADGER (AUT)","8400301","2019-02-07 03:30","2019","02","07","03:30","-8.5","","-9.5","","92","","0.0","","36","","2","","","","101.20","","","","-10","","NA"
"-56.07","48.97","BADGER (AUT)","8400301","2019-02-07 04:30","2019","02","07","04:30","-8.3","","-9.5","","92","","0.0","","1","","3","","","","101.20","","","","-10","","NA"
"-56.07","48.97","BADGER (AUT)","8400301","2019-02-07 05:30","2019","02","07","05:30","-8.3","","-9.4","","92","","0.0","","2","","3","","","","101.25","","","","-10","","NA"
"-56.07","48.97","BADGER (AUT)","8400301","2019-02-07 06:30","2019","02","07","06:30","-8.2","","-9.4","","91","","0.2","","11","","3","","","","101.29","","","","-10","","NA"
"-56.07","48.97","BADGER (AUT)","8400301","2019-02-07 07:30","2019","02","07","07:30","-8.5","","-9.8","","90","","0.0","","7","","5","","","","101.32","","","","-11","","NA"
"-56.07","48.97","BADGER (AUT)","8400301","2019-02-07 08:30","2019","02","07","08:30","-8.8","","-10.2","","89","","0.0","","8","","5","","","","101.37","","","","-12","","NA"
"-56.07","48.97","BADGER (AUT)","8400301","2019-02-07 09:30","2019","02","07","09:30","-8.3","","-9.7","","90","","0.0","","13","","1","","","","101.42","","","","-9","","NA"
"-56.07","48.97","BADGER (AUT)","8400301","2019-02-07 10:30","2019","02","07","10:30","-7.1","","-9.8","","81","","0.2","","19","","2","","","","101.44","","","","-8","","NA"
"-56.07","48.97","BADGER (AUT)","8400301","2019-02-07 11:30","2019","02","07","11:30","-6.9","","-9.9","","79","","0.0","","30","","5","","","","101.41","","","","-9","","NA"
"-56.07","48.97","BADGER (AUT)","8400301","2019-02-07 12:30","2019","02","07","12:30","-6.8","","-9.5","","81","","0.0","","30","","4","","","","101.33","","","","-9","","NA"
"-56.07","48.97","BADGER (AUT)","8400301","2019-02-07 13:30","2019","02","07","13:30","-5.8","","-9.0","","78","","0.0","","9","","2","","","","101.24","","","","-7","","NA"
"-56.07","48.97","BADGER (AUT)","8400301","2019-02-07 14:30","2019","02","07","14:30","-5.9","","-9.0","","79","","0.0","","28","","4","","","","101.24","","","","-8","","NA"
"-56.07","48.97","BADGER (AUT)","8400301","2019-02-07 15:30","2019","02","07","15:30","-5.5","","-8.9","","77","","0.0","","27","","3","","","","101.28","","","","-7","","NA"
"-56.07","48.97","BADGER (AUT)","8400301","2019-02-07 16:30","2019","02","07","16:30","-5.6","","-8.9","","77","","0.0","","4","","1","","","","101.30","","","","-6","","NA"
"-56.07","48.97","BADGER (AUT)","8400301","2019-02-07 17:30","2019","02","07","17:30","-6.0","","-8.4","","83","","0.0","","6","","2","","","","101.31","","","","-7","","NA"
"-56.07","48.97","BADGER (AUT)","8400301","2019-02-07 18:30","2019","02","07","18:30","-6.7","","-8.0","","90","","0.0","","2","","1","","","","101.36","","","","-7","","NA"
"-56.07","48.97","BADGER (AUT)","8400301","2019-02-07 19:30","2019","02","07","19:30","-10.1","","-11.9","","87","","0.0","","13","","1","","","","101.36","","","","-11","","NA"
"-56.07","48.97","BADGER (AUT)","8400301","2019-02-07 20:30","2019","02","07","20:30","-13.6","","-15.2","","88","","0.8","","16","","1","","","","101.34","","","","-14","","NA"
"-56.07","48.97","BADGER (AUT)","8400301","2019-02-07 21:30","2019","02","07","21:30","-15.2","","-16.9","","86","","0.0","","22","","2","","","","101.43","","","","-17","","NA"
"-56.07","48.97","BADGER (AUT)","8400301","2019-02-07 22:30","2019","02","07","22:30","-14.1","","-15.5","","90","","0.2","","20","","2","","","","101.44","","","","-15","","NA"
"-56.07","48.97","BADGER (AUT)","8400301","2019-02-07 23:30","2019","02","07","23:30","-14.9","","-16.3","","89","","0.0","","35","","1","","","","101.49","","","","-16","","NA"
"-56.07","48.97","BADGER (AUT)","8400301","2019-02-08 00:30","2019","02","08","00:30","-13.3","","-14.7","","89","","0.9","","23","","2","","","","101.48","","","","-15","","NA"
"-56.07","48.97","BADGER (AUT)","8400301","2019-02-08 01:30","2019","02","08","01:30","-12.4","","-13.8","","89","","0.0","","24","","2","","","","101.49","","","","-14","","NA"
"-56.07","48.97","BADGER (AUT)","8400301","2019-02-08 02:30","2019","02","08","02:30","-11.1","","-12.4","","90","","0.2","","25","","3","","","","101.44","","","","-13","","NA"
"-56.07","48.97","BADGER (AUT)","8400301","2019-02-08 03:30","2019","02","08","03:30","-10.8","","-12.2","","90","","0.0","","22","","3","","","","101.42","","","","-13","","NA"
"-56.07","48.97","BADGER (AUT)","8400301","2019-02-08 04:30","2019","02","08","04:30","-10.2","","-11.4","","91","","0.2","","21","","3","","","","101.45","","","","-12","","NA"
"-56.07","48.97","BADGER (AUT)","8400301","2019-02-08 05:30","2019","02","08","05:30","-9.5","","-10.8","","90","","0.0","","21","","4","","","","101.47","","","","-12","","NA"
"-56.07","48.97","BADGER (AUT)","8400301","2019-02-08 06:30","2019","02","08","06:30","-9.6","","-10.9","","90","","0.0","","22","","3","","","","101.36","","","","-11","","NA"
"-56.07","48.97","BADGER (AUT)","8400301","2019-02-08 07:30","2019","02","08","07:30","-9.7","","-11.1","","90","","0.0","","19","","4","","","","101.37","","","","-12","","NA"
"-56.07","48.97","BADGER (AUT)","8400301","2019-02-08 08:30","2019","02","08","08:30","-9.5","","-11.0","","89","","0.0","","16","","5","","","","101.28","","","","-12","","NA"
"-56.07","48.97","BADGER (AUT)","8400301","2019-02-08 09:30","2019","02","08","09:30","-9.0","","-10.7","","88","","0.0","","14","","5","","","","101.25","","","","-12","","NA"
"-56.07","48.97","BADGER (AUT)","8400301","2019-02-08 10:30","2019","02","08","10:30","-8.4","","-10.6","","84","","0.0","","18","","9","","","","101.13","","","","-13","","NA"
"-56.07","48.97","BADGER (AUT)","8400301","2019-02-08 11:30","2019","02","08","11:30","-7.2","","-9.7","","82","","0.0","","18","","9","","","","101.07","","","","-12","","NA"
"-56.07","48.97","BADGER (AUT)","8400301","2019-02-08 12:30","2019","02","08","12:30","-5.7","","-8.8","","79","","0.0","","16","","9","","","","100.84","","","","-10","","NA"
"-56.07","48.97","BADGER (AUT)","8400301","2019-02-08 13:30","2019","02","08","13:30","-4.3","","-7.8","","77","","0.0","","17","","18","","","","100.63","","","","-10","","NA"
"-56.07","48.97","BADGER (AUT)","8400301","2019-02-08 14:30","2019","02","08","14:30","-3.7","","-6.7","","80","","0.0","","17","","14","","","","100.47","","","","-9","","NA"
"-56.07","48.97","BADGER (AUT)","8400301","2019-02-08 15:30","2019","02","08","15:30","-3.4","","-5.2","","88","","0.0","","15","","8","","","","100.23","","","","-7","","NA"
"-56.07","48.97","BADGER (AUT)","8400301","2019-02-08 16:30","2019","02","08","16:30","-3.0","","-4.5","","89","","0.6","","16","","11","","","","100.04","","","","-7","","NA"
"-56.07","48.97","BADGER (AUT)","8400301","2019-02-08 17:30","2019","02","08","17:30","-2.3","","-3.7","","90","","1.0","","16","","12","","","","99.80","","","","-7","","NA"
"-56.07","48.97","BADGER (AUT)","8400301","2019-02-08 18:30","2019","02","08","18:30","-2.1","","-3.4","","90","","0.6","","16","","13","","","","99.57","","","","-7","","NA"
"-56.07","48.97","BADGER (AUT)","8400301","2019-02-08 19:30","2019","02","08","19:30","-1.6","","-3.0","","90","","0.9","","15","","10","","","","99.21","","","","-5","","NA"
"-56.07","48.97","BADGER (AUT)","8400301","2019-02-08 20:30","2019","02","08","20:30","-1.0","","-2.4","","91","","1.8","","16","","13","","","","98.91","","","","-5","","NA"
"-56.07","48.97","BADGER (AUT)","8400301","2019-02-08 21:30","2019","02","08","21:30","-0.5","","-1.6","","92","","0.9","","17","","13","","","","98.66","","","","-5","","NA"
"-56.07","48.97","BADGER (AUT)","8400301","2019-02-08 22:30","2019","02","08","22:30","0.9","","0.0","","93","","0.0","","17","","12","","","","98.46","","","","","","NA"
"-56.07","48.97","BADGER (AUT)","8400301","2019-02-08 23:30","2019","02","08","23:30","1.8","","0.9","","94","","0.5","","19","","16","","","","98.19","","","","","","NA"
"-56.07","48.97","BADGER (AUT)","8400301","2019-02-09 00:30","2019","02","09","00:30","2.1","","1.5","","96","","0.7","","20","","7","","","","97.94","","","","","","NA"
"-56.07","48.97","BADGER (AUT)","8400301","2019-02-09 01:30","2019","02","09","01:30","2.5","","1.9","","96","","0.0","","21","","6","","","","97.77","","","","","","NA"
"-56.07","48.97","BADGER (AUT)","8400301","2019-02-09 02:30","2019","02","09","02:30","2.9","","2.2","","95","","0.0","","21","","11","","","","97.74","","","","","","NA"
"-56.07","48.97","BADGER (AUT)","8400301","2019-02-09 03:30","2019","02","09","03:30","2.6","","1.8","","94","","0.0","","21","","8","","","","97.57","","","","","","NA"
"-56.07","48.97","BADGER (AUT)","8400301","2019-02-09 04:30","2019","02","09","04:30","2.0","","0.6","","90","","0.0","","22","","10","","","","97.54","","","","","","NA"
"-56.07","48.97","BADGER (AUT)","8400301","2019-02-09 05:30","2019","02","09","05:30","0.5","","-1.9","","84","","0.0","","22","","12","","","","97.58","","","","","","NA"
"-56.07","48.97","BADGER (AUT)","8400301","2019-02-09 06:30","2019","02","09","06:30","-0.1","","-2.3","","85","","0.0","","23","","9","","","","97.56","","","","-3","","NA"
"-56.07","48.97","BADGER (AUT)","8400301","2019-02-09 07:30","2019","02","09","07:30","-1.1","","-6.2","","68","","0.0","","25","","14","","","","97.58","","","","-6","","NA"
"-56.07","48.97","BADGER (AUT)","8400301","2019-02-09 08:30","2019","02","09","08:30","-1.6","","-5.8","","73","","0.0","","27","","11","","","","97.59","","","","-5","","NA"
"-56.07","48.97","BADGER (AUT)","8400301","2019-02-09 09:30","2019","02","09","09:30","-2.4","","-7.1","","71","","0.0","","26","","12","","","","97.60","","","","-7","","NA"
"-56.07","48.97","BADGER (AUT)","8400301","2019-02-09 10:30","2019","02","09","10:30","-2.2","","-9.2","","58","","0.0","","27","","14","","","","97.57","","","","-7","","NA"
"-56.07","48.97","BADGER (AUT)","8400301","2019-02-09 11:30","2019","02","09","11:30","-3.9","","-9.0","","68","","0.0","","27","","19","","","","97.63","","","","-10","","NA"
"-56.07","48.97","BADGER (AUT)","8400301","2019-02-09 12:30","2019","02","09","12:30","-5.2","","-10.4","","67","","0.0","","27","","21","","","","97.66","","","","-12","","NA"
"-56.07","48.97","BADGER (AUT)","8400301","2019-02-09 13:30","2019","02","09","13:30","-7.1","","-13.8","","59","","0.0","","26","","23","","","","97.72","","","","-15","","NA"
"-56.07","48.97","BADGER (AUT)","8400301","2019-02-09 14:30","2019","02","09","14:30","-7.8","","-16.1","","51","","0.0","","25","","20","","","","97.71","","","","-15","","NA"
"-56.07","48.97","BADGER (AUT)","8400301","2019-02-09 15:30","2019","02","09","15:30","-9.9","","-17.7","","53","","0.0","","25","","22","","","","97.73","","","","-18","","NA"
"-56.07","48.97","BADGER (AUT)","8400301","2019-02-09 16:30","2019","02","09","16:30","-11.9","","-20.0","","51","","0.0","","24","","20","","","","97.78","","","","-20","","NA"
"-56.07","48.97","BADGER (AUT)","8400301","2019-02-09 17:30","2019","02","09","17:30","-13.5","","-15.6","","84","","0.2","","25","","21","","","","97.78","","","","-22","","NA"
"-56.07","48.97","BADGER (AUT)","8400301","2019-02-09 18:30","2019","02","09","18:30","-13.4","","-16.5","","77","","0.3","","25","","17","","","","97.74","","","","-21","","NA"
"-56.07","48.97","BADGER (AUT)","8400301","2019-02-09 19:30","2019","02","09","19:30","-13.3","","-16.5","","77","","0.0","","25","","14","","","","97.70","","","","-21","","NA"
"-56.07","48.97","BADGER (AUT)","8400301","2019-02-09 20:30","2019","02","09","20:30","-13.0","","-17.9","","66","","0.0","","24","","17","","","","97.67","","","","-21","","NA"
"-56.07","48.97","BADGER (AUT)","8400301","2019-02-09 21:30","2019","02","09","21:30","-12.5","","-17.3","","67","","0.0","","23","","16","","","","97.62","","","","-20","","NA"
"-56.07","48.97","BADGER (AUT)","8400301","2019-02-09 22:30","2019","02","09","22:30","-12.1","","-15.9","","73","","0.0","","24","","15","","","","97.60","","","","-19","","NA"
"-56.07","48.97","BADGER (AUT)","8400301","2019-02-09 23:30","2019","02","09","23:30","-11.2","","-15.5","","70","","0.0","","26","","20","","","","97.58","","","","-19","","NA"
"-56.07","48.97","BADGER (AUT)","8400301","2019-02-10 00:30","2019","02","10","00:30","-11.2","","-15.7","","69","","0.0","","25","","21","","","","97.56","","","","-20","","NA"
"-56.07","48.97","BADGER (AUT)","8400301","2019-02-10 01:30","2019","02","10","01:30","-11.6","","-16.1","","69","","0.0","","24","","20","","","","97.53","","","","-20","","NA"
"-56.07","48.97","BADGER (AUT)","8400301","2019-02-10 02:30","2019","02","10","02:30","-11.8","","-15.8","","72","","0.0","","24","","15","","","","97.53","","","","-19","","NA"
"-56.07","48.97","BADGER (AUT)","8400301","2019-02-10 03:30","2019","02","10","03:30","-11.4","","-15.7","","70","","0.0","","23","","14","","","","97.51","","","","-18","","NA"
"-56.07","48.97","BADGER (AUT)","8400301","2019-02-10 04:30","2019","02","10","04:30","-10.7","","-16.0","","65","","0.0","","25","","23","","","","97.47","","","","-19","","NA"
"-56.07","48.97","BADGER (AUT)","8400301","2019-02-10 05:30","2019","02","10","05:30","-10.7","","-15.6","","67","","0.0","","24","","16","","","","97.51","","","","-18","","NA"
"-56.07","48.97","BADGER (AUT)","8400301","2019-02-10 06:30","2019","02","10","06:30","-10.9","","-15.6","","68","","0.0","","25","","23","","","","97.48","","","","-20","","NA"
"-56.07","48.97","BADGER (AUT)","8400301","2019-02-10 07:30","2019","02","10","07:30","-10.8","","-16.7","","62","","0.0","","26","","28","","","","97.43","","","","-20","","NA"
"-56.07","48.97","BADGER (AUT)","8400301","2019-02-10 08:30","2019","02","10","08:30","-10.8","","-15.3","","69","","0.0","","26","","23","","","","97.50","","","","-19","","NA"
"-56.07","48.97","BADGER (AUT)","8400301","2019-02-10 09:30","2019","02","10","09:30","-9.9","","-16.6","","58","","0.0","","26","","25","","","","97.54","","","","-19","","NA"
"-56.07","48.97","BADGER (AUT)","8400301","2019-02-10 10:30","2019","02","10","10:30","-10.3","","-16.2","","62","","0.0","","27","","25","","","","97.56","","","","-19","","NA"
"-56.07","48.97","BADGER (AUT)","8400301","2019-02-10 11:30","2019","02","10","11:30","-10.7","","-15.1","","70","","0.0","","27","","20","","","","97.53","","","","-19","","NA"
"-56.07","48.97","BADGER (AUT)","8400301","2019-02-10 12:30","2019","02","10","12:30","-10.6","","-15.5","","67","","0.0","","27","","19","","","","97.54","","","","-18","","NA"
"-56.07","48.97","BADGER (AUT)","8400301","2019-02-10 13:30","2019","02","10","13:30","-10.5","","-15.7","","66","","0.0","","27","","25","","","","97.51","","","","-19","","NA"
"-56.07","48.97","BADGER (AUT)","8400301","2019-02-10 14:30","2019","02","10","14:30","-10.5","","-15.2","","68","","0.0","","27","","21","","","","97.57","","","","-19","","NA"
"-56.07","48.97","BADGER (AUT)","8400301","2019-02-10 15:30","2019","02","10","15:30","-10.2","","-15.6","","65","","0.0","","26","","26","","","","97.62","","","","-19","","NA"
"-56.07","48.97","BADGER (AUT)","8400301","2019-02-10 16:30","2019","02","10","16:30","-10.0","","-15.0","","66","","0.0","","27","","21","","","","97.67","","","","-18","","NA"
"-56.07","48.97","BADGER (AUT)","8400301","2019-02-10 17:30","2019","02","10","17:30","-10.1","","-14.8","","68","","0.0","","26","","23","","","","97.73","","","","-19","","NA"
"-56.07","48.97","BADGER (AUT)","8400301","2019-02-10 18:30","2019","02","10","18:30","-10.1","","-14.7","","69","","0.0","","26","","21","","","","97.79","","","","-18","","NA"
"-56.07","48.97","BADGER (AUT)","8400301","2019-02-10 19:30","2019","02","10","19:30","-10.3","","-14.9","","69","","0.0","","27","","23","","","","97.83","","","","-19","","NA"
"-56.07","48.97","BADGER (AUT)","8400301","2019-02-10 20:30","2019","02","10","20:30","-10.2","","-15.7","","64","","0.0","","26","","26","","","","97.85","","","","-19","","NA"
"-56.07","48.97","BADGER (AUT)","8400301","2019-02-10 21:30","2019","02","10","21:30","-10.6","","-14.7","","71","","0.0","","27","","22","","","","97.85","","","","-19","","NA"
"-56.07","48.97","BADGER (AUT)","8400301","2019-02-10 22:30","2019","02","10","22:30","-10.7","","-15.5","","68","","0.0","","27","","21","","","","97.84","","","","-19","","NA"
"-56.07","48.97","BADGER (AUT)","8400301","2019-02-10 23:30","2019","02","10","23:30","-11.3","","-14.7","","76","","0.0","","26","","14","","","","97.83","","","","-18","","NA"
"-56.07","48.97","BADGER (AUT)","8400301","2019-02-11 00:30","2019","02","11","00:30","-11.9","","-15.4","","75","","0.2","","27","","20","","","","97.84","","","","-20","","NA"
"-56.07","48.97","BADGER (AUT)","8400301","2019-02-11 01:30","2019","02","11","01:30","-12.1","","-16.6","","69","","0.0","","27","","23","","","","97.76","","","","-21","","NA"
"-56.07","48.97","BADGER (AUT)","8400301","2019-02-11 02:30","2019","02","11","02:30","-12.8","","-15.9","","78","","0.0","","28","","19","","","","97.74","","","","-21","","NA"
"-56.07","48.97","BADGER (AUT)","8400301","2019-02-11 03:30","2019","02","11","03:30","-13.4","","-17.7","","70","","0.0","","28","","15","","","","97.81","","","","-21","","NA"
"-56.07","48.97","BADGER (AUT)","8400301","2019-02-11 04:30","2019","02","11","04:30","-13.9","","-18.9","","66","","0.0","","28","","16","","","","97.74","","","","-22","","NA"
"-56.07","48.97","BADGER (AUT)","8400301","2019-02-11 05:30","2019","02","11","05:30","-14.4","","-19.7","","64","","0.0","","28","","14","","","","97.78","","","","-22","","NA"
"-56.07","48.97","BADGER (AUT)","8400301","2019-02-11 06:30","2019","02","11","06:30","-14.6","","-19.3","","67","","0.0","","27","","13","","","","97.74","","","","-22","","NA"
"-56.07","48.97","BADGER (AUT)","8400301","2019-02-11 07:30","2019","02","11","07:30","-14.5","","-19.9","","63","","0.0","","27","","14","","","","97.76","","","","-22","","NA"
"-56.07","48.97","BADGER (AUT)","8400301","2019-02-11 08:30","2019","02","11","08:30","-13.5","","-19.3","","62","","0.0","","27","","13","","","","97.83","","","","-20","","NA"
"-56.07","48.97","BADGER (AUT)","8400301","2019-02-11 09:30","2019","02","11","09:30","-13.3","","-18.7","","64","","0.0","","27","","16","","","","97.87","","","","-21","","NA"
"-56.07","48.97","BADGER (AUT)","8400301","2019-02-11 10:30","2019","02","11","10:30","-12.8","","-19.0","","60","","0.0","","28","","19","","","","97.90","","","","-21","","NA"
"-56.07","48.97","BADGER (AUT)","8400301","2019-02-11 11:30","2019","02","11","11:30","-12.8","","-17.8","","66","","0.0","","28","","15","","","","97.88","","","","-20","","NA"
"-56.07","48.97","BADGER (AUT)","8400301","2019-02-11 12:30","2019","02","11","12:30","-12.1","","-17.2","","66","","0.0","","29","","15","","","","97.88","","","","-19","","NA"
"-56.07","48.97","BADGER (AUT)","8400301","2019-02-11 13:30","2019","02","11","13:30","-11.0","","-17.8","","57","","0.0","","27","","15","","","","97.88","","","","-18","","NA"
"-56.07","48.97","BADGER (AUT)","8400301","2019-02-11 14:30","2019","02","11","14:30","-10.8","","-17.4","","58","","0.0","","28","","15","","","","97.93","","","","-18","","NA"
"-56.07","48.97","BADGER (AUT)","8400301","2019-02-11 15:30","2019","02","11","15:30","-10.8","","-17.2","","59","","0.0","","28","","14","","","","98.01","","","","-17","","NA"
"-56.07","48.97","BADGER (AUT)","8400301","2019-02-11 16:30","2019","02","11","16:30","-11.1","","-16.9","","62","","0.0","","27","","19","","","","98.11","","","","-19","","NA"
"-56.07","48.97","BADGER (AUT)","8400301","2019-02-11 17:30","2019","02","11","17:30","-11.5","","-16.4","","67","","0.0","","27","","13","","","","98.20","","","","-18","","NA"
"-56.07","48.97","BADGER (AUT)","8400301","2019-02-11 18:30","2019","02","11","18:30","-9.8","","-15.2","","65","","0.0","","29","","19","","","","98.21","","","","-17","","NA"
"-56.07","48.97","BADGER (AUT)","8400301","2019-02-11 19:30","2019","02","11","19:30","-8.5","","-13.8","","66","","0.0","","28","","17","","","","98.32","","","","-15","","NA"
"-56.07","48.97","BADGER (AUT)","8400301","2019-02-11 20:30","2019","02","11","20:30","-7.9","","-13.5","","65","","0.0","","29","","20","","","","98.39","","","","-15","","NA"
"-56.07","48.97","BADGER (AUT)","8400301","2019-02-11 21:30","2019","02","11","21:30","-7.7","","-13.2","","64","","0.0","","29","","16","","","","98.50","","","","-14","","NA"
"-56.07","48.97","BADGER (AUT)","8400301","2019-02-11 22:30","2019","02","11","22:30","-7.5","","-13.2","","64","","0.0","","29","","13","","","","98.61","","","","-13","","NA"
"-56.07","48.97","BADGER (AUT)","8400301","2019-02-11 23:30","2019","02","11","23:30","-7.8","","-13.4","","64","","0.0","","30","","17","","","","98.72","","","","-14","","NA"
"-56.07","48.97","BADGER (AUT)","8400301","2019-02-12 00:30","2019","02","12","00:30","-7.9","","-12.9","","68","","0.0","","31","","24","","","","98.73","","","","-16","","NA"
"-56.07","48.97","BADGER (AUT)","8400301","2019-02-12 01:30","2019","02","12","01:30","-7.6","","-13.3","","64","","0.0","","31","","20","","","","98.79","","","","-15","","NA"
"-56.07","48.97","BADGER (AUT)","8400301","2019-02-12 02:30","2019","02","12","02:30","-7.9","","-14.1","","61","","0.0","","31","","10","","","","98.94","","","","-13","","NA"
"-56.07","48.97","BADGER (AUT)","8400301","2019-02-12 03:30","2019","02","12","03:30","-8.7","","-14.0","","65","","0.0","","28","","13","","","","99.03","","","","-15","","NA"
"-56.07","48.97","BADGER (AUT)","8400301","2019-02-12 04:30","2019","02","12","04:30","-9.2","","-14.3","","66","","0.0","","29","","18","","","","99.06","","","","-16","","NA"
"-56.07","48.97","BADGER (AUT)","8400301","2019-02-12 05:30","2019","02","12","05:30","-9.5","","-14.5","","67","","0.0","","31","","9","","","","99.20","","","","-14","","NA"
"-56.07","48.97","BADGER (AUT)","8400301","2019-02-12 06:30","2019","02","12","06:30","-9.7","","-14.9","","66","","0.0","","30","","23","","","","99.20","","","","-18","","NA"
"-56.07","48.97","BADGER (AUT)","8400301","2019-02-12 07:30","2019","02","12","07:30","-9.7","","-15.0","","65","","0.0","","29","","15","","","","99.32","","","","-16","","NA"
"-56.07","48.97","BADGER (AUT)","8400301","2019-02-12 08:30","2019","02","12","08:30","-9.7","","-15.4","","63","","0.0","","30","","14","","","","99.45","","","","-16","","NA"
"-56.07","48.97","BADGER (AUT)","8400301","2019-02-12 09:30","2019","02","12","09:30","-9.1","","-15.4","","60","","0.0","","27","","9","","","","99.57","","","","-14","","NA"
"-56.07","48.97","BADGER (AUT)","8400301","2019-02-12 10:30","2019","02","12","10:30","-7.7","","-15.5","","54","","0.0","","29","","15","","","","99.63","","","","-14","","NA"
"-56.07","48.97","BADGER (AUT)","8400301","2019-02-12 11:30","2019","02","12","11:30","-6.6","","-15.1","","51","","0.0","","30","","11","","","","99.70","","","","-12","","NA"
"-56.07","48.97","BADGER (AUT)","8400301","2019-02-12 12:30","2019","02","12","12:30","-5.7","","-14.5","","50","","0.0","","29","","14","","","","99.82","","","","-11","","NA"
"-56.07","48.97","BADGER (AUT)","8400301","2019-02-12 13:30","2019","02","12","13:30","-7.1","","-14.7","","54","","0.0","","30","","12","","","","99.85","","","","-12","","NA"
"-56.07","48.97","BADGER (AUT)","8400301","2019-02-12 14:30","2019","02","12","14:30","-7.3","","-14.9","","55","","0.0","","29","","17","","","","99.93","","","","-14","","NA"
"-56.07","48.97","BADGER (AUT)","8400301","2019-02-12 15:30","2019","02","12","15:30","-7.7","","-14.7","","58","","0.0","","29","","18","","","","100.05","","","","-15","","NA"
"-56.07","48.97","BADGER (AUT)","8400301","2019-02-12 16:30","2019","02","12","16:30","-7.8","","-14.5","","59","","0.0","","28","","14","","","","100.21","","","","-14","","NA"
"-56.07","48.97","BADGER (AUT)","8400301","2019-02-12 17:30","2019","02","12","17:30","-10.4","","-14.9","","69","","0.0","","29","","10","","","","100.21","","","","-16","","NA"
"-56.07","48.97","BADGER (AUT)","8400301","2019-02-12 18:30","2019","02","12","18:30","-11.0","","-15.4","","70","","0.0","","30","","8","","","","100.30","","","","-16","","NA"
"-56.07","48.97","BADGER (AUT)","8400301","2019-02-12 19:30","2019","02","12","19:30","-10.9","","-15.4","","69","","0.0","","27","","9","","","","100.46","","","","-16","","NA"
"-56.07","48.97","BADGER (AUT)","8400301","2019-02-12 20:30","2019","02","12","20:30","-11.4","","-15.8","","70","","0.0","","30","","10","","","","100.48","","","","-17","","NA"
"-56.07","48.97","BADGER (AUT)","8400301","2019-02-12 21:30","2019","02","12","21:30","-11.7","","-16.4","","68","","0.0","","27","","6","","","","100.62","","","","-15","","NA"
"-56.07","48.97","BADGER (AUT)","8400301","2019-02-12 22:30","2019","02","12","22:30","-11.6","","-16.7","","66","","0.0","","29","","4","","","","100.60","","","","-14","","NA"
"-56.07","48.97","BADGER (AUT)","8400301","2019-02-12 23:30","2019","02","12","23:30","-13.1","","-17.7","","68","","0.0","","23","","3","","","","100.58","","","","-15","","NA"
"-56.07","48.97","BADGER (AUT)","8400301","2019-02-13 00:30","2019","02","13","00:30","-15.9","","-18.7","","79","","0.0","","17","","3","","","","100.63","","","","-18","","NA"
"-56.07","48.97","BADGER (AUT)","8400301","2019-02-13 01:30","2019","02","13","01:30","-18.1","","-19.9","","86","","0.0","","23","","3","","","","100.66","","","","-21","","NA"
"-56.07","48.97","BADGER (AUT)","8400301","2019-02-13 02:30","2019","02","13","02:30","-19.6","","-21.6","","84","","0.6","","33","","1","","","","100.75","","","","-20","","NA"
"-56.07","48.97","BADGER (AUT)","8400301","2019-02-13 03:30","2019","02","13","03:30","-21.4","","-23.6","","83","","0.0","","26","","4","","","","100.73","","","","-25","","NA"
"-56.07","48.97","BADGER (AUT)","8400301","2019-02-13 04:30","2019","02","13","04:30","-21.4","","-23.4","","84","","0.0","","21","","2","","","","100.79","","","","-23","","NA"
"-56.07","48.97","BADGER (AUT)","8400301","2019-02-13 05:30","2019","02","13","05:30","-23.1","","-25.5","","81","","0.0","","28","","2","","","","100.78","","","","-25","","NA"
"-56.07","48.97","BADGER (AUT)","8400301","2019-02-13 06:30","2019","02","13","06:30","-24.9","","-27.5","","79","","0.0","","25","","4","","","","100.80","","","","-29","","NA"
"-56.07","48.97","BADGER (AUT)","8400301","2019-02-13 07:30","2019","02","13","07:30","-25.4","","-28.0","","79","","0.0","","28","","2","","","","100.86","","","","-27","","NA"
"-56.07","48.97","BADGER (AUT)","8400301","2019-02-13 08:30","2019","02","13","08:30","-22.1","","-24.4","","82","","0.2","","10","","3","","","","100.87","","","","-25","","NA"
"-56.07","48.97","BADGER (AUT)","8400301","2019-02-13 09:30","2019","02","13","09:30","-14.7","","-17.5","","79","","0.7","","20","","2","","","","100.93","","","","-16","","NA"
"-56.07","48.97","BADGER (AUT)","8400301","2019-02-13 10:30","2019","02","13","10:30","-11.0","","-16.5","","64","","0.0","","23","","4","","","","100.85","","","","-13","","NA"
"-56.07","48.97","BADGER (AUT)","8400301","2019-02-13 11:30","2019","02","13","11:30","-9.4","","-17.5","","52","","0.0","","24","","8","","","","100.83","","","","-14","","NA"
"-56.07","48.97","BADGER (AUT)","8400301","2019-02-13 12:30","2019","02","13","12:30","-9.4","","-17.3","","53","","0.0","","25","","3","","","","100.75","","","","-11","","NA"
"-56.07","48.97","BADGER (AUT)","8400301","2019-02-13 13:30","2019","02","13","13:30","-8.0","","-16.4","","51","","0.0","","0","","1","","","","100.65","","","","-9","","NA"
"-56.07","48.97","BADGER (AUT)","8400301","2019-02-13 14:30","2019","02","13","14:30","-7.8","","-16.7","","49","","0.0","","6","","2","","","","100.61","","","","-9","","NA"
"-56.07","48.97","BADGER (AUT)","8400301","2019-02-13 15:30","2019","02","13","15:30","-7.2","","-16.7","","47","","0.0","","5","","4","","","","100.50","","","","-9","","NA"
"-56.07","48.97","BADGER (AUT)","8400301","2019-02-13 16:30","2019","02","13","16:30","-7.4","","-16.3","","49","","0.0","","13","","3","","","","100.43","","","","-9","","NA"
"-56.07","48.97","BADGER (AUT)","8400301","2019-02-13 17:30","2019","02","13","17:30","-7.9","","-16.3","","51","","0.0","","9","","4","","","","100.39","","","","-10","","NA"
"-56.07","48.97","BADGER (AUT)","8400301","2019-02-13 18:30","2019","02","13","18:30","-8.5","","-16.0","","54","","0.0","","8","","3","","","","100.35","","","","-10","","NA"
"-56.07","48.97","BADGER (AUT)","8400301","2019-02-13 19:30","2019","02","13","19:30","-8.5","","-16.0","","54","","0.4","","10","","4","","","","100.25","","","","-11","","NA"
"-56.07","48.97","BADGER (AUT)","8400301","2019-02-13 20:30","2019","02","13","20:30","-8.7","","-15.9","","56","","0.0","","8","","5","","","","100.14","","","","-11","","NA"
"-56.07","48.97","BADGER (AUT)","8400301","2019-02-13 21:30","2019","02","13","21:30","-8.8","","-15.1","","60","","0.0","","9","","6","","","","100.07","","","","-12","","NA"
"-56.07","48.97","BADGER (AUT)","8400301","2019-02-13 22:30","2019","02","13","22:30","-9.6","","-12.2","","81","","0.3","","9","","7","","","","99.91","","","","-14","","NA"
"-56.07","48.97","BADGER (AUT)","8400301","2019-02-13 23:30","2019","02","13","23:30","-9.6","","-11.6","","85","","0.2","","9","","9","","","","99.73","","","","-14","","NA"
"-56.07","48.97","BADGER (AUT)","8400301","2019-02-14 00:30","2019","02","14","00:30","-9.3","","-11.4","","84","","0.0","","6","","9","","","","99.48","","","","-14","","NA"
"-56.07","48.97","BADGER (AUT)","8400301","2019-02-14 01:30","2019","02","14","01:30","-8.6","","-10.7","","85","","0.0","","7","","10","","","","99.33","","","","-14","","NA"
"-56.07","48.97","BADGER (AUT)","8400301","2019-02-14 02:30","2019","02","14","02:30","-7.8","","-9.2","","90","","0.0","","7","","12","","","","99.09","","","","-13","","NA"
"-56.07","48.97","BADGER (AUT)","8400301","2019-02-14 03:30","2019","02","14","03:30","-7.0","","-8.3","","90","","0.2","","6","","13","","","","98.82","","","","-13","","NA"
"-56.07","48.97","BADGER (AUT)","8400301","2019-02-14 04:30","2019","02","14","04:30","-6.6","","-7.7","","92","","1.1","","7","","12","","","","98.65","","","","-12","","NA"
"-56.07","48.97","BADGER (AUT)","8400301","2019-02-14 05:30","2019","02","14","05:30","-5.8","","-6.8","","93","","0.3","","4","","8","","","","98.50","","","","-10","","NA"
"-56.07","48.97","BADGER (AUT)","8400301","2019-02-14 06:30","2019","02","14","06:30","-5.2","","-6.0","","94","","0.3","","3","","8","","","","98.40","","","","-9","","NA"
"-56.07","48.97","BADGER (AUT)","8400301","2019-02-14 07:30","2019","02","14","07:30","-4.7","","-5.7","","93","","0.5","","4","","9","","","","98.19","","","","-9","","NA"
"-56.07","48.97","BADGER (AUT)","8400301","2019-02-14 08:30","2019","02","14","08:30","-3.8","","-4.9","","93","","0.0","","4","","10","","","","98.07","","","","-8","","NA"
"-56.07","48.97","BADGER (AUT)","8400301","2019-02-14 09:30","2019","02","14","09:30","-3.0","","-4.1","","93","","0.0","","4","","8","","","","97.92","","","","-6","","NA"
"-56.07","48.97","BADGER (AUT)","8400301","2019-02-14 10:30","2019","02","14","10:30","-2.2","","-3.3","","92","","0.2","","5","","7","","","","97.77","","","","-5","","NA"
"-56.07","48.97","BADGER (AUT)","8400301","2019-02-14 11:30","2019","02","14","11:30","-1.5","","-2.9","","90","","0.0","","5","","10","","","","97.67","","","","-5","","NA"
"-56.07","48.97","BADGER (AUT)","8400301","2019-02-14 12:30","2019","02","14","12:30","-1.1","","-2.6","","90","","0.0","","4","","7","","","","97.59","","","","-4","","NA"
"-56.07","48.97","BADGER (AUT)","8400301","2019-02-14 13:30","2019","02","14","13:30","-0.7","","-1.8","","92","","1.0","","2","","3","","","","97.53","","","","-2","","NA"
"-56.07","48.97","BADGER (AUT)","8400301","2019-02-14 14:30","2019","02","14","14:30","-0.1","","-1.1","","93","","0.3","","36","","6","","","","97.49","","","","-2","","NA"
"-56.07","48.97","BADGER (AUT)","8400301","2019-02-14 15:30","2019","02","14","15:30","-1.1","","-2.3","","91","","0.2","","34","","9","","","","97.54","","","","-4","","NA"
"-56.07","48.97","BADGER (AUT)","8400301","2019-02-14 16:30","2019","02","14","16:30","-2.0","","-3.0","","93","","0.0","","34","","9","","","","97.65","","","","-5","","NA"
"-56.07","48.97","BADGER (AUT)","8400301","2019-02-14 17:30","2019","02","14","17:30","-2.5","","-3.4","","93","","0.6","","34","","8","","","","97.70","","","","-6","","NA"
"-56.07","48.97","BADGER (AUT)","8400301","2019-02-14 18:30","2019","02","14","18:30","-2.8","","-3.7","","93","","0.2","","34","","10","","","","97.77","","","","-7","","NA"
"-56.07","48.97","BADGER (AUT)","8400301","2019-02-14 19:30","2019","02","14","19:30","-3.4","","-4.4","","93","","0.2","","34","","11","","","","97.93","","","","-8","","NA"
"-56.07","48.97","BADGER (AUT)","8400301","2019-02-14 20:30","2019","02","14","20:30","-3.9","","-5.1","","91","","0.2","","35","","13","","","","98.08","","","","-9","","NA"
"-56.07","48.97","BADGER (AUT)","8400301","2019-02-14 21:30","2019","02","14","21:30","-4.3","","-5.5","","91","","0.2","","35","","12","","","","98.25","","","","-9","","NA"
"-56.07","48.97","BADGER (AUT)","8400301","2019-02-14 22:30","2019","02","14","22:30","-4.6","","-6.0","","90","","0.2","","35","","11","","","","98.41","","","","-9","","NA"
"-56.07","48.97","BADGER (AUT)","8400301","2019-02-14 23:30","2019","02","14","23:30","-4.7","","-6.1","","90","","0.2","","34","","12","","","","98.58","","","","-9","","NA"
"-56.07","48.97","BADGER (AUT)","8400301","2019-02-15 00:30","2019","02","15","00:30","-4.6","","-6.0","","90","","0.2","","34","","12","","","","98.78","","","","-9","","NA"
"-56.07","48.97","BADGER (AUT)","8400301","2019-02-15 01:30","2019","02","15","01:30","-4.9","","-6.5","","88","","0.2","","33","","20","","","","99.02","","","","-11","","NA"
"-56.07","48.97","BADGER (AUT)","8400301","2019-02-15 02:30","2019","02","15","02:30","-5.0","","-6.7","","88","","0.0","","34","","19","","","","99.29","","","","-11","","NA"
"-56.07","48.97","BADGER (AUT)","8400301","2019-02-15 03:30","2019","02","15","03:30","-5.5","","-7.4","","86","","0.0","","34","","15","","","","99.52","","","","-11","","NA"
"-56.07","48.97","BADGER (AUT)","8400301","2019-02-15 04:30","2019","02","15","04:30","-6.4","","-8.6","","84","","0.2","","34","","10","","","","99.76","","","","-11","","NA"
"-56.07","48.97","BADGER (AUT)","8400301","2019-02-15 05:30","2019","02","15","05:30","-7.3","","-9.2","","86","","0.0","","30","","5","","","","100.00","","","","-10","","NA"
"-56.07","48.97","BADGER (AUT)","8400301","2019-02-15 06:30","2019","02","15","06:30","-6.4","","-8.5","","85","","0.0","","35","","8","","","","100.19","","","","-10","","NA"
"-56.07","48.97","BADGER (AUT)","8400301","2019-02-15 07:30","2019","02","15","07:30","-6.3","","-8.4","","85","","0.0","","31","","8","","","","100.37","","","","-10","","NA"
"-56.07","48.97","BADGER (AUT)","8400301","2019-02-15 08:30","2019","02","15","08:30","-6.0","","-8.5","","83","","0.0","","31","","10","","","","100.57","","","","-10","","NA"
"-56.07","48.97","BADGER (AUT)","8400301","2019-02-15 09:30","2019","02","15","09:30","-5.6","","-8.5","","80","","0.0","","34","","8","","","","100.68","","","","-9","","NA"
"-56.07","48.97","BADGER (AUT)","8400301","2019-02-15 10:30","2019","02","15","10:30","-4.9","","-8.5","","76","","0.0","","35","","9","","","","100.83","","","","-9","","NA"
"-56.07","48.97","BADGER (AUT)","8400301","2019-02-15 11:30","2019","02","15","11:30","-4.4","","-8.8","","71","","0.0","","32","","8","","","","100.97","","","","-8","","NA"
"-56.07","48.97","BADGER (AUT)","8400301","2019-02-15 12:30","2019","02","15","12:30","-3.2","","-8.4","","67","","0.0","","4","","5","","","","101.00","","","","-5","","NA"
"-56.07","48.97","BADGER (AUT)","8400301","2019-02-15 13:30","2019","02","15","13:30","-3.6","","-8.9","","67","","0.0","","31","","5","","","","101.06","","","","-6","","NA"
"-56.07","48.97","BADGER (AUT)","8400301","2019-02-15 14:30","2019","02","15","14:30","-2.7","","-8.8","","63","","0.0","","25","","8","","","","101.08","","","","-6","","NA"
"-56.07","48.97","BADGER (AUT)","8400301","2019-02-15 15:30","2019","02","15","15:30","-1.7","","-8.5","","60","","0.0","","22","","4","","","","101.08","","","","-3","","NA"
"-56.07","48.97","BADGER (AUT)","8400301","2019-02-15 16:30","2019","02","15","16:30","-2.5","","-9.1","","61","","0.0","","26","","5","","","","101.16","","","","-4","","NA"
"-56.07","48.97","BADGER (AUT)","8400301","2019-02-15 17:30","2019","02","15","17:30","-6.9","","-9.0","","85","","1.0","","24","","2","","","","101.22","","","","-8","","NA"
"-56.07","48.97","BADGER (AUT)","8400301","2019-02-15 18:30","2019","02","15","18:30","-11.0","","-12.5","","88","","0.0","","","","0","","","","101.21","","","","","","NA"
"-56.07","48.97","BADGER (AUT)","8400301","2019-02-15 19:30","2019","02","15","19:30","-13.7","","-15.4","","87","","1.5","","0","","1","","","","101.20","","","","-14","","NA"
"-56.07","48.97","BADGER (AUT)","8400301","2019-02-15 20:30","2019","02","15","20:30","-15.9","","-17.8","","86","","0.0","","","","0","","","","101.25","","","","","","NA"
"-56.07","48.97","BADGER (AUT)","8400301","2019-02-15 21:30","2019","02","15","21:30","-17.0","","-18.8","","86","","1.0","","","","0","","","","101.28","","","","","","NA"
"-56.07","48.97","BADGER (AUT)","8400301","2019-02-15 22:30","2019","02","15","22:30","-17.8","","-19.7","","86","","0.0","","1","","2","","","","101.28","","","","-19","","NA"
"-56.07","48.97","BADGER (AUT)","8400301","2019-02-15 23:30","2019","02","15","23:30","-17.7","","-19.6","","85","","0.0","","0","","1","","","","101.24","","","","-18","","NA"
"-56.07","48.97","BADGER (AUT)","8400301","2019-02-16 00:30","2019","02","16","00:30","-19.5","","-21.6","","84","","0.0","","36","","1","","","","101.26","","","","-20","","NA"
"-56.07","48.97","BADGER (AUT)","8400301","2019-02-16 01:30","2019","02","16","01:30","-20.6","","-22.7","","83","","0.0","","","","0","","","","101.23","","","","","","NA"
"-56.07","48.97","BADGER (AUT)","8400301","2019-02-16 02:30","2019","02","16","02:30","-18.2","","-19.6","","89","","0.8","","25","","2","","","","101.20","","","","-20","","NA"
"-56.07","48.97","BADGER (AUT)","8400301","2019-02-16 03:30","2019","02","16","03:30","-15.5","","-17.1","","88","","0.7","","0","","1","","","","101.09","","","","-16","","NA"
"-56.07","48.97","BADGER (AUT)","8400301","2019-02-16 04:30","2019","02","16","04:30","-13.1","","-14.4","","90","","0.3","","0","","1","","","","100.99","","","","-14","","NA"
"-56.07","48.97","BADGER (AUT)","8400301","2019-02-16 05:30","2019","02","16","05:30","-11.6","","-12.9","","90","","0.0","","6","","1","","","","100.94","","","","-12","","NA"
"-56.07","48.97","BADGER (AUT)","8400301","2019-02-16 06:30","2019","02","16","06:30","-10.4","","-11.2","","94","","0.0","","14","","2","","","","100.85","","","","-12","","NA"
"-56.07","48.97","BADGER (AUT)","8400301","2019-02-16 07:30","2019","02","16","07:30","-8.0","","-8.8","","94","","0.0","","11","","5","","","","100.72","","","","-11","","NA"
"-56.07","48.97","BADGER (AUT)","8400301","2019-02-16 08:30","2019","02","16","08:30","-6.2","","-7.2","","93","","0.0","","13","","5","","","","100.66","","","","-9","","NA"
"-56.07","48.97","BADGER (AUT)","8400301","2019-02-16 09:30","2019","02","16","09:30","-2.8","","-5.0","","85","","0.0","","17","","14","","","","100.55","","","","-8","","NA"
"-56.07","48.97","BADGER (AUT)","8400301","2019-02-16 10:30","2019","02","16","10:30","-2.5","","-4.6","","86","","0.0","","17","","14","","","","100.49","","","","-7","","NA"
"-56.07","48.97","BADGER (AUT)","8400301","2019-02-16 11:30","2019","02","16","11:30","-1.8","","-4.2","","84","","0.0","","17","","15","","","","100.34","","","","-7","","NA"
"-56.07","48.97","BADGER (AUT)","8400301","2019-02-16 12:30","2019","02","16","12:30","-1.0","","-3.9","","81","","0.0","","16","","15","","","","100.09","","","","-6","","NA"
"-56.07","48.97","BADGER (AUT)","8400301","2019-02-16 13:30","2019","02","16","13:30","0.1","","-3.4","","77","","0.0","","17","","18","","","","99.95","","","","","","NA"
"-56.07","48.97","BADGER (AUT)","8400301","2019-02-16 14:30","2019","02","16","14:30","0.6","","-2.5","","80","","0.0","","16","","15","","","","99.75","","","","","","NA"
"-56.07","48.97","BADGER (AUT)","8400301","2019-02-16 15:30","2019","02","16","15:30","0.8","","-1.5","","85","","0.0","","17","","17","","","","99.63","","","","","","NA"
"-56.07","48.97","BADGER (AUT)","8400301","2019-02-16 16:30","2019","02","16","16:30","0.4","","-1.2","","89","","0.0","","15","","15","","","","99.45","","","","","","NA"
"-56.07","48.97","BADGER (AUT)","8400301","2019-02-16 17:30","2019","02","16","17:30","0.4","","-2.1","","83","","0.0","","17","","18","","","","99.36","","","","","","NA"
"-56.07","48.97","BADGER (AUT)","8400301","2019-02-16 18:30","2019","02","16","18:30","0.2","","-2.0","","85","","0.0","","16","","16","","","","99.19","","","","","","NA"
"-56.07","48.97","BADGER (AUT)","8400301","2019-02-16 19:30","2019","02","16","19:30","0.0","","-1.1","","92","","0.5","","15","","13","","","","98.98","","","","-4","","NA"
"-56.07","48.97","BADGER (AUT)","8400301","2019-02-16 20:30","2019","02","16","20:30","0.7","","-0.1","","94","","0.3","","16","","15","","","","98.77","","","","","","NA"
"-56.07","48.97","BADGER (AUT)","8400301","2019-02-16 21:30","2019","02","16","21:30","1.3","","0.5","","94","","1.6","","15","","12","","","","98.56","","","","","","NA"
"-56.07","48.97","BADGER (AUT)","8400301","2019-02-16 22:30","2019","02","16","22:30","1.5","","0.7","","94","","3.4","","18","","10","","","","98.41","","","","","","NA"
"-56.07","48.97","BADGER (AUT)","8400301","2019-02-16 23:30","2019","02","16","23:30","1.3","","0.6","","95","","2.4","","17","","10","","","","98.32","","","","","","NA"
"-56.07","48.97","BADGER (AUT)","8400301","2019-02-17 00:30","2019","02","17","00:30","1.0","","0.4","","96","","1.5","","17","","7","","","","98.18","","","","","","NA"
"-56.07","48.97","BADGER (AUT)","8400301","2019-02-17 01:30","2019","02","17","01:30","1.0","","0.6","","97","","1.2","","18","","8","","","","98.06","","","","","","NA"
"-56.07","48.97","BADGER (AUT)","8400301","2019-02-17 02:30","2019","02","17","02:30","1.2","","0.7","","96","","0.0","","19","","4","","","","97.97","","","","","","NA"
"-56.07","48.97","BADGER (AUT)","8400301","2019-02-17 03:30","2019","02","17","03:30","1.1","","0.7","","97","","0.2","","21","","5","","","","97.95","","","","","","NA"
"-56.07","48.97","BADGER (AUT)","8400301","2019-02-17 04:30","2019","02","17","04:30","0.6","","-1.3","","87","","0.0","","28","","16","","","","98.02","","","","","","NA"
"-56.07","48.97","BADGER (AUT)","8400301","2019-02-17 05:30","2019","02","17","05:30","-2.0","","-4.4","","84","","0.0","","25","","13","","","","98.15","","","","-6","","NA"
"-56.07","48.97","BADGER (AUT)","8400301","2019-02-17 06:30","2019","02","17","06:30","-3.1","","-5.6","","83","","0.0","","25","","12","","","","98.24","","","","-8","","NA"
"-56.07","48.97","BADGER (AUT)","8400301","2019-02-17 07:30","2019","02","17","07:30","-3.0","","-5.5","","83","","0.0","","26","","11","","","","98.31","","","","-7","","NA"
"-56.07","48.97","BADGER (AUT)","8400301","2019-02-17 08:30","2019","02","17","08:30","-2.0","","-5.9","","75","","0.0","","27","","13","","","","98.42","","","","-6","","NA"
"-56.07","48.97","BADGER (AUT)","8400301","2019-02-17 09:30","2019","02","17","09:30","-1.1","","-5.7","","71","","0.0","","26","","14","","","","98.44","","","","-6","","NA"
"-56.07","48.97","BADGER (AUT)","8400301","2019-02-17 10:30","2019","02","17","10:30","-1.1","","-6.0","","70","","0.0","","25","","17","","","","98.56","","","","-6","","NA"
"-56.07","48.97","BADGER (AUT)","8400301","2019-02-17 11:30","2019","02","17","11:30","-0.4","","-6.1","","65","","0.0","","25","","18","","","","98.58","","","","-5","","NA"
"-56.07","48.97","BADGER (AUT)","8400301","2019-02-17 12:30","2019","02","17","12:30","-1.0","","-5.8","","70","","0.0","","27","","12","","","","98.62","","","","-5","","NA"
"-56.07","48.97","BADGER (AUT)","8400301","2019-02-17 13:30","2019","02","17","13:30","0.0","","-7.1","","58","","0.0","","26","","16","","","","98.61","","","","-5","","NA"
"-56.07","48.97","BADGER (AUT)","8400301","2019-02-17 14:30","2019","02","17","14:30","-1.2","","-8.2","","59","","0.0","","26","","18","","","","98.63","","","","-6","","NA"
"-56.07","48.97","BADGER (AUT)","8400301","2019-02-17 15:30","2019","02","17","15:30","-2.8","","-7.9","","68","","0.0","","27","","17","","","","98.70","","","","-8","","NA"
"-56.07","48.97","BADGER (AUT)","8400301","2019-02-17 16:30","2019","02","17","16:30","-3.4","","-8.4","","68","","0.0","","26","","13","","","","98.74","","","","-8","","NA"
"-56.07","48.97","BADGER (AUT)","8400301","2019-02-17 17:30","2019","02","17","17:30","-4.6","","-10.2","","65","","0.0","","24","","16","","","","98.81","","","","-10","","NA"
"-56.07","48.97","BADGER (AUT)","8400301","2019-02-17 18:30","2019","02","17","18:30","-6.6","","-12.0","","65","","0.0","","25","","15","","","","98.86","","","","-13","","NA"
"-56.07","48.97","BADGER (AUT)","8400301","2019-02-17 19:30","2019","02","17","19:30","-7.0","","-11.7","","69","","0.0","","24","","13","","","","98.91","","","","-13","","NA"
"-56.07","48.97","BADGER (AUT)","8400301","2019-02-17 20:30","2019","02","17","20:30","-7.9","","-12.0","","72","","0.0","","24","","11","","","","98.95","","","","-13","","NA"
"-56.07","48.97","BADGER (AUT)","8400301","2019-02-17 21:30","2019","02","17","21:30","-8.4","","-13.7","","65","","0.0","","26","","12","","","","98.98","","","","-14","","NA"
"-56.07","48.97","BADGER (AUT)","8400301","2019-02-17 22:30","2019","02","17","22:30","-9.2","","-14.1","","68","","0.0","","26","","12","","","","99.01","","","","-15","","NA"
"-56.07","48.97","BADGER (AUT)","8400301","2019-02-17 23:30","2019","02","17","23:30","-9.5","","-13.1","","75","","0.0","","26","","9","","","","99.05","","","","-14","","NA"
"-56.07","48.97","BADGER (AUT)","8400301","2019-02-18 00:30","2019","02","18","00:30","-10.1","","-15.1","","66","","0.0","","26","","12","","","","99.03","","","","-16","","NA"
"-56.07","48.97","BADGER (AUT)","8400301","2019-02-18 01:30","2019","02","18","01:30","-10.7","","-16.0","","65","","0.0","","25","","13","","","","99.02","","","","-17","","NA"
"-56.07","48.97","BADGER (AUT)","8400301","2019-02-18 02:30","2019","02","18","02:30","-10.6","","-15.0","","70","","0.0","","23","","9","","","","99.05","","","","-16","","NA"
"-56.07","48.97","BADGER (AUT)","8400301","2019-02-18 03:30","2019","02","18","03:30","-11.2","","-16.1","","67","","0.0","","24","","13","","","","99.04","","","","-18","","NA"
"-56.07","48.97","BADGER (AUT)","8400301","2019-02-18 04:30","2019","02","18","04:30","-10.8","","-15.6","","68","","0.0","","23","","14","","","","99.01","","","","-17","","NA"
"-56.07","48.97","BADGER (AUT)","8400301","2019-02-18 05:30","2019","02","18","05:30","-11.1","","-16.2","","66","","0.0","","23","","11","","","","99.05","","","","-17","","NA"
"-56.07","48.97","BADGER (AUT)","8400301","2019-02-18 06:30","2019","02","18","06:30","-11.3","","-16.3","","67","","0.0","","24","","13","","","","99.03","","","","-18","","NA"
"-56.07","48.97","BADGER (AUT)","8400301","2019-02-18 07:30","2019","02","18","07:30","-11.4","","-16.4","","67","","0.0","","25","","11","","","","99.02","","","","-17","","NA"
"-56.07","48.97","BADGER (AUT)","8400301","2019-02-18 08:30","2019","02","18","08:30","-10.3","","-15.9","","63","","0.0","","25","","13","","","","99.02","","","","-17","","NA"
"-56.07","48.97","BADGER (AUT)","8400301","2019-02-18 09:30","2019","02","18","09:30","-9.1","","-15.3","","61","","0.0","","26","","17","","","","99.00","","","","-16","","NA"
"-56.07","48.97","BADGER (AUT)","8400301","2019-02-18 10:30","2019","02","18","10:30","-7.6","","-15.3","","54","","0.0","","27","","17","","","","99.04","","","","-14","","NA"
"-56.07","48.97","BADGER (AUT)","8400301","2019-02-18 11:30","2019","02","18","11:30","-7.6","","-15.7","","52","","0.0","","25","","24","","","","98.91","","","","-16","","NA"
"-56.07","48.97","BADGER (AUT)","8400301","2019-02-18 12:30","2019","02","18","12:30","-7.0","","-15.5","","51","","0.0","","24","","21","","","","98.87","","","","-14","","NA"
"-56.07","48.97","BADGER (AUT)","8400301","2019-02-18 13:30","2019","02","18","13:30","-6.8","","-14.6","","54","","0.0","","23","","19","","","","98.82","","","","-14","","NA"
"-56.07","48.97","BADGER (AUT)","8400301","2019-02-18 14:30","2019","02","18","14:30","-7.3","","-15.3","","53","","0.0","","25","","22","","","","98.79","","","","-15","","NA"
"-56.07","48.97","BADGER (AUT)","8400301","2019-02-18 15:30","2019","02","18","15:30","-6.8","","-14.9","","53","","0.0","","25","","17","","","","98.80","","","","-13","","NA"
"-56.07","48.97","BADGER (AUT)","8400301","2019-02-18 16:30","2019","02","18","16:30","-7.8","","-14.6","","58","","0.0","","27","","12","","","","98.77","","","","-13","","NA"
"-56.07","48.97","BADGER (AUT)","8400301","2019-02-18 17:30","2019","02","18","17:30","-9.5","","-14.3","","68","","0.0","","25","","14","","","","98.73","","","","-16","","NA"
"-56.07","48.97","BADGER (AUT)","8400301","2019-02-18 18:30","2019","02","18","18:30","-10.2","","-14.7","","70","","0.0","","26","","10","","","","98.80","","","","-15","","NA"
"-56.07","48.97","BADGER (AUT)","8400301","2019-02-18 19:30","2019","02","18","19:30","-10.6","","-14.6","","72","","0.0","","26","","11","","","","98.78","","","","-16","","NA"
"-56.07","48.97","BADGER (AUT)","8400301","2019-02-18 20:30","2019","02","18","20:30","-10.7","","-14.3","","75","","0.0","","25","","7","","","","98.80","","","","-15","","NA"
"-56.07","48.97","BADGER (AUT)","8400301","2019-02-18 21:30","2019","02","18","21:30","-10.7","","-14.5","","74","","0.0","","26","","11","","","","98.73","","","","-16","","NA"
"-56.07","48.97","BADGER (AUT)","8400301","2019-02-18 22:30","2019","02","18","22:30","-11.2","","-14.1","","79","","0.0","","24","","3","","","","98.60","","","","-13","","NA"
"-56.07","48.97","BADGER (AUT)","8400301","2019-02-18 23:30","2019","02","18","23:30","-14.3","","-16.2","","85","","0.0","","19","","2","","","","98.48","","","","-16","","NA"
"-56.07","48.97","BADGER (AUT)","8400301","2019-02-19 00:30","2019","02","19","00:30","-16.5","","-18.4","","85","","0.0","","26","","3","","","","98.48","","","","-19","","NA"
"-56.07","48.97","BADGER (AUT)","8400301","2019-02-19 01:30","2019","02","19","01:30","-17.7","","-19.4","","86","","0.0","","8","","3","","","","98.47","","","","-20","","NA"
"-56.07","48.97","BADGER (AUT)","8400301","2019-02-19 02:30","2019","02","19","02:30","-18.9","","-20.9","","84","","0.0","","0","","1","","","","98.48","","","","-20","","NA"
"-56.07","48.97","BADGER (AUT)","8400301","2019-02-19 03:30","2019","02","19","03:30","-20.3","","-22.2","","85","","0.0","","17","","2","","","","98.48","","","","-22","","NA"
"-56.07","48.97","BADGER (AUT)","8400301","2019-02-19 04:30","2019","02","19","04:30","-21.3","","-23.5","","82","","0.0","","18","","2","","","","98.47","","","","-23","","NA"
"-56.07","48.97","BADGER (AUT)","8400301","2019-02-19 05:30","2019","02","19","05:30","-22.2","","-24.5","","82","","0.0","","28","","2","","","","98.51","","","","-24","","NA"
"-56.07","48.97","BADGER (AUT)","8400301","2019-02-19 06:30","2019","02","19","06:30","-22.2","","-24.3","","83","","0.0","","22","","1","","","","98.56","","","","-23","","NA"
"-56.07","48.97","BADGER (AUT)","8400301","2019-02-19 07:30","2019","02","19","07:30","-22.4","","-24.6","","82","","0.0","","25","","1","","","","98.62","","","","-23","","NA"
"-56.07","48.97","BADGER (AUT)","8400301","2019-02-19 08:30","2019","02","19","08:30","-16.7","","-18.4","","87","","1.2","","22","","4","","","","98.66","","","","-20","","NA"
"-56.07","48.97","BADGER (AUT)","8400301","2019-02-19 09:30","2019","02","19","09:30","-7.8","","-12.6","","68","","0.0","","28","","8","","","","98.68","","","","-12","","NA"
"-56.07","48.97","BADGER (AUT)","8400301","2019-02-19 10:30","2019","02","19","10:30","-7.7","","-13.8","","61","","0.0","","29","","11","","","","98.76","","","","-13","","NA"
"-56.07","48.97","BADGER (AUT)","8400301","2019-02-19 11:30","2019","02","19","11:30","-6.3","","-13.5","","56","","0.0","","27","","9","","","","98.77","","","","-11","","NA"
"-56.07","48.97","BADGER (AUT)","8400301","2019-02-19 12:30","2019","02","19","12:30","-7.4","","-14.9","","55","","0.0","","31","","15","","","","98.74","","","","-14","","NA"
"-56.07","48.97","BADGER (AUT)","8400301","2019-02-19 13:30","2019","02","19","13:30","-7.1","","-15.3","","52","","0.0","","29","","18","","","","98.72","","","","-14","","NA"
"-56.07","48.97","BADGER (AUT)","8400301","2019-02-19 14:30","2019","02","19","14:30","-7.7","","-15.3","","54","","0.0","","30","","20","","","","98.70","","","","-15","","NA"
"-56.07","48.97","BADGER (AUT)","8400301","2019-02-19 15:30","2019","02","19","15:30","-8.0","","-15.7","","54","","0.0","","28","","16","","","","98.75","","","","-15","","NA"
"-56.07","48.97","BADGER (AUT)","8400301","2019-02-19 16:30","2019","02","19","16:30","-9.6","","-15.6","","61","","0.0","","29","","11","","","","98.79","","","","-15","","NA"
"-56.07","48.97","BADGER (AUT)","8400301","2019-02-19 17:30","2019","02","19","17:30","-11.4","","-16.2","","68","","0.0","","27","","9","","","","98.84","","","","-17","","NA"
"-56.07","48.97","BADGER (AUT)","8400301","2019-02-19 18:30","2019","02","19","18:30","-12.2","","-16.3","","71","","0.0","","27","","8","","","","98.88","","","","-17","","NA"
"-56.07","48.97","BADGER (AUT)","8400301","2019-02-19 19:30","2019","02","19","19:30","-12.2","","-16.8","","69","","0.0","","28","","11","","","","98.90","","","","-18","","NA"
"-56.07","48.97","BADGER (AUT)","8400301","2019-02-19 20:30","2019","02","19","20:30","-11.8","","-17.5","","63","","0.0","","29","","14","","","","98.89","","","","-19","","NA"
"-56.07","48.97","BADGER (AUT)","8400301","2019-02-19 21:30","2019","02","19","21:30","-12.5","","-15.3","","79","","0.0","","29","","11","","","","98.92","","","","-19","","NA"
"-56.07","48.97","BADGER (AUT)","8400301","2019-02-19 22:30","2019","02","19","22:30","-13.0","","-17.8","","67","","0.2","","28","","13","","","","98.91","","","","-20","","NA"
"-56.07","48.97","BADGER (AUT)","8400301","2019-02-19 23:30","2019","02","19","23:30","-13.2","","-18.3","","65","","0.0","","28","","13","","","","98.91","","","","-20","","NA"
"-56.07","48.97","BADGER (AUT)","8400301","2019-02-20 00:30","2019","02","20","00:30","-14.0","","-21.2","","55","","0.0","","29","","16","","","","98.97","","","","-22","","NA"
"-56.07","48.97","BADGER (AUT)","8400301","2019-02-20 01:30","2019","02","20","01:30","-15.6","","-22.3","","56","","0.0","","30","","17","","","","99.01","","","","-24","","NA"
"-56.07","48.97","BADGER (AUT)","8400301","2019-02-20 02:30","2019","02","20","02:30","-16.6","","-22.2","","62","","0.0","","29","","16","","","","99.07","","","","-25","","NA"
"-56.07","48.97","BADGER (AUT)","8400301","2019-02-20 03:30","2019","02","20","03:30","-17.4","","-23.1","","61","","0.0","","29","","18","","","","99.09","","","","-27","","NA"
"-56.07","48.97","BADGER (AUT)","8400301","2019-02-20 04:30","2019","02","20","04:30","-18.6","","-25.3","","56","","0.0","","28","","16","","","","99.17","","","","-28","","NA"
"-56.07","48.97","BADGER (AUT)","8400301","2019-02-20 05:30","2019","02","20","05:30","-19.5","","-25.0","","62","","0.0","","28","","13","","","","99.21","","","","-28","","NA"
"-56.07","48.97","BADGER (AUT)","8400301","2019-02-20 06:30","2019","02","20","06:30","-20.1","","-26.0","","59","","0.0","","29","","12","","","","99.26","","","","-28","","NA"
"-56.07","48.97","BADGER (AUT)","8400301","2019-02-20 07:30","2019","02","20","07:30","-20.7","","-26.5","","60","","0.0","","28","","10","","","","99.30","","","","-28","","NA"
"-56.07","48.97","BADGER (AUT)","8400301","2019-02-20 08:30","2019","02","20","08:30","-19.7","","-25.9","","58","","0.0","","29","","13","","","","99.34","","","","-28","","NA"
"-56.07","48.97","BADGER (AUT)","8400301","2019-02-20 09:30","2019","02","20","09:30","-19.2","","-27.4","","49","","0.0","","29","","18","","","","99.33","","","","-29","","NA"
"-56.07","48.97","BADGER (AUT)","8400301","2019-02-20 10:30","2019","02","20","10:30","-19.0","","-27.4","","48","","0.0","","29","","19","","","","99.31","","","","-29","","NA"
"-56.07","48.97","BADGER (AUT)","8400301","2019-02-20 11:30","2019","02","20","11:30","-18.1","","-26.0","","50","","0.0","","28","","19","","","","99.27","","","","-28","","NA"
"-56.07","48.97","BADGER (AUT)","8400301","2019-02-20 12:30","2019","02","20","12:30","-18.4","","-26.1","","51","","0.0","","29","","23","","","","99.23","","","","-29","","NA"
"-56.07","48.97","BADGER (AUT)","8400301","2019-02-20 13:30","2019","02","20","13:30","-18.3","","-25.9","","51","","0.0","","28","","21","","","","99.26","","","","-29","","NA"
"-56.07","48.97","BADGER (AUT)","8400301","2019-02-20 14:30","2019","02","20","14:30","-18.2","","-26.1","","50","","0.0","","29","","18","","","","99.29","","","","-28","","NA"
"-56.07","48.97","BADGER (AUT)","8400301","2019-02-20 15:30","2019","02","20","15:30","-18.5","","-26.2","","51","","0.0","","30","","20","","","","99.34","","","","-29","","NA"
"-56.07","48.97","BADGER (AUT)","8400301","2019-02-20 16:30","2019","02","20","16:30","-19.1","","-26.4","","53","","0.0","","29","","22","","","","99.42","","","","-30","","NA"
"-56.07","48.97","BADGER (AUT)","8400301","2019-02-20 17:30","2019","02","20","17:30","-20.0","","-26.1","","58","","0.0","","29","","13","","","","99.56","","","","-28","","NA"
"-56.07","48.97","BADGER (AUT)","8400301","2019-02-20 18:30","2019","02","20","18:30","-20.4","","-26.0","","61","","0.0","","27","","9","","","","99.69","","","","-27","","NA"
"-56.07","48.97","BADGER (AUT)","8400301","2019-02-20 19:30","2019","02","20","19:30","-20.5","","-25.7","","63","","0.0","","26","","7","","","","99.74","","","","-26","","NA"
"-56.07","48.97","BADGER (AUT)","8400301","2019-02-20 20:30","2019","02","20","20:30","-20.3","","-25.1","","65","","0.0","","29","","5","","","","99.78","","","","-25","","NA"
"-56.07","48.97","BADGER (AUT)","8400301","2019-02-20 21:30","2019","02","20","21:30","-19.4","","-24.5","","64","","0.0","","29","","8","","","","99.81","","","","-26","","NA"
"-56.07","48.97","BADGER (AUT)","8400301","2019-02-20 22:30","2019","02","20","22:30","-19.7","","-24.3","","67","","0.0","","28","","4","","","","99.84","","","","-23","","NA"
"-56.07","48.97","BADGER (AUT)","8400301","2019-02-20 23:30","2019","02","20","23:30","-20.2","","-24.8","","66","","0.0","","21","","3","","","","99.88","","","","-23","","NA"
"-56.07","48.97","BADGER (AUT)","8400301","2019-02-21 00:30","2019","02","21","00:30","-23.7","","-26.4","","78","","0.0","","22","","3","","","","99.92","","","","-27","","NA"
"-56.07","48.97","BADGER (AUT)","8400301","2019-02-21 01:30","2019","02","21","01:30","-19.9","","-24.0","","70","","0.0","","26","","8","","","","99.92","","","","-26","","NA"
"-56.07","48.97","BADGER (AUT)","8400301","2019-02-21 02:30","2019","02","21","02:30","-19.3","","-24.1","","66","","0.0","","27","","7","","","","99.94","","","","-25","","NA"
"-56.07","48.97","BADGER (AUT)","8400301","2019-02-21 03:30","2019","02","21","03:30","-18.9","","-24.4","","62","","0.0","","28","","7","","","","99.98","","","","-24","","NA"
"-56.07","48.97","BADGER (AUT)","8400301","2019-02-21 04:30","2019","02","21","04:30","-19.0","","-24.6","","62","","0.0","","25","","7","","","","99.95","","","","-24","","NA"
"-56.07","48.97","BADGER (AUT)","8400301","2019-02-21 05:30","2019","02","21","05:30","-19.2","","-24.3","","64","","0.0","","28","","5","","","","99.91","","","","-23","","NA"
"-56.07","48.97","BADGER (AUT)","8400301","2019-02-21 06:30","2019","02","21","06:30","-21.4","","-25.3","","71","","0.0","","18","","3","","","","99.85","","","","-24","","NA"
"-56.07","48.97","BADGER (AUT)","8400301","2019-02-21 07:30","2019","02","21","07:30","-19.3","","-23.7","","68","","0.0","","24","","6","","","","99.84","","","","-24","","NA"
"-56.07","48.97","BADGER (AUT)","8400301","2019-02-21 08:30","2019","02","21","08:30","-16.8","","-22.7","","61","","0.0","","21","","7","","","","99.84","","","","-22","","NA"
"-56.07","48.97","BADGER (AUT)","8400301","2019-02-21 09:30","2019","02","21","09:30","-14.1","","-22.2","","51","","0.0","","25","","8","","","","99.81","","","","-19","","NA"
"-56.07","48.97","BADGER (AUT)","8400301","2019-02-21 10:30","2019","02","21","10:30","-12.8","","-21.1","","50","","0.0","","26","","11","","","","99.80","","","","-19","","NA"
"-56.07","48.97","BADGER (AUT)","8400301","2019-02-21 11:30","2019","02","21","11:30","-11.9","","-20.4","","49","","0.0","","24","","12","","","","99.74","","","","-18","","NA"
"-56.07","48.97","BADGER (AUT)","8400301","2019-02-21 12:30","2019","02","21","12:30","-10.8","","-19.2","","50","","0.0","","25","","13","","","","99.69","","","","-17","","NA"
"-56.07","48.97","BADGER (AUT)","8400301","2019-02-21 13:30","2019","02","21","13:30","-10.4","","-19.4","","48","","0.0","","26","","18","","","","99.63","","","","-18","","NA"
"-56.07","48.97","BADGER (AUT)","8400301","2019-02-21 14:30","2019","02","21","14:30","-10.0","","-19.4","","46","","0.0","","27","","15","","","","99.54","","","","-17","","NA"
"-56.07","48.97","BADGER (AUT)","8400301","2019-02-21 15:30","2019","02","21","15:30","-11.0","","-20.0","","48","","0.0","","26","","13","","","","99.49","","","","-17","","NA"
"-56.07","48.97","BADGER (AUT)","8400301","2019-02-21 16:30","2019","02","21","16:30","-11.6","","-19.8","","51","","0.0","","27","","9","","","","99.44","","","","-17","","NA"
"-56.07","48.97","BADGER (AUT)","8400301","2019-02-21 17:30","2019","02","21","17:30","-12.7","","-20.7","","51","","0.0","","31","","6","","","","99.45","","","","-17","","NA"
"-56.07","48.97","BADGER (AUT)","8400301","2019-02-21 18:30","2019","02","21","18:30","-13.3","","-20.4","","55","","0.0","","28","","9","","","","99.42","","","","-19","","NA"
"-56.07","48.97","BADGER (AUT)","8400301","2019-02-21 19:30","2019","02","21","19:30","-14.1","","-20.2","","60","","0.0","","27","","7","","","","99.39","","","","-19","","NA"
"-56.07","48.97","BADGER (AUT)","8400301","2019-02-21 20:30","2019","02","21","20:30","-16.3","","-21.0","","67","","0.0","","26","","5","","","","99.38","","","","-20","","NA"
"-56.07","48.97","BADGER (AUT)","8400301","2019-02-21 21:30","2019","02","21","21:30","-16.2","","-20.4","","70","","0.0","","27","","5","","","","99.31","","","","-20","","NA"
"-56.07","48.97","BADGER (AUT)","8400301","2019-02-21 22:30","2019","02","21","22:30","-20.0","","-23.1","","76","","0.0","","28","","5","","","","99.27","","","","-24","","NA"
"-56.07","48.97","BADGER (AUT)","8400301","2019-02-21 23:30","2019","02","21","23:30","-21.7","","-24.3","","80","","0.5","","0","","1","","","","99.27","","","","-23","","NA"
"-56.07","48.97","BADGER (AUT)","8400301","2019-02-22 00:30","2019","02","22","00:30","-22.9","","-24.8","","84","","0.0","","15","","3","","","","99.26","","","","-26","","NA"
"-56.07","48.97","BADGER (AUT)","8400301","2019-02-22 01:30","2019","02","22","01:30","-25.0","","-27.6","","79","","0.6","","26","","3","","","","99.23","","","","-28","","NA"
"-56.07","48.97","BADGER (AUT)","8400301","2019-02-22 02:30","2019","02","22","02:30","-26.1","","-28.7","","79","","0.0","","29","","2","","","","99.24","","","","-28","","NA"
"-56.07","48.97","BADGER (AUT)","8400301","2019-02-22 03:30","2019","02","22","03:30","-27.2","","-29.8","","79","","0.0","","6","","2","","","","99.27","","","","-29","","NA"
"-56.07","48.97","BADGER (AUT)","8400301","2019-02-22 04:30","2019","02","22","04:30","-28.0","","-30.8","","77","","0.0","","0","","1","","","","99.28","","","","-29","","NA"
"-56.07","48.97","BADGER (AUT)","8400301","2019-02-22 05:30","2019","02","22","05:30","-28.2","","-30.9","","78","","0.0","","0","","1","","","","99.34","","","","-29","","NA"
"-56.07","48.97","BADGER (AUT)","8400301","2019-02-22 06:30","2019","02","22","06:30","-24.7","","-26.5","","85","","0.6","","22","","5","","","","99.36","","","","-30","","NA"
"-56.07","48.97","BADGER (AUT)","8400301","2019-02-22 07:30","2019","02","22","07:30","-27.2","","-30.0","","77","","0.0","","0","","1","","","","99.41","","","","-28","","NA"
"-56.07","48.97","BADGER (AUT)","8400301","2019-02-22 08:30","2019","02","22","08:30","-22.1","","-25.0","","78","","0.7","","8","","2","","","","99.46","","","","-24","","NA"
"-56.07","48.97","BADGER (AUT)","8400301","2019-02-22 09:30","2019","02","22","09:30","-12.9","","-18.0","","65","","0.0","","16","","2","","","","99.45","","","","-14","","NA"
"-56.07","48.97","BADGER (AUT)","8400301","2019-02-22 10:30","2019","02","22","10:30","-8.9","","-18.7","","45","","0.0","","28","","10","","","","99.48","","","","-14","","NA"
"-56.07","48.97","BADGER (AUT)","8400301","2019-02-22 11:30","2019","02","22","11:30","-8.4","","-18.4","","44","","0.0","","27","","11","","","","99.48","","","","-14","","NA"
"-56.07","48.97","BADGER (AUT)","8400301","2019-02-22 12:30","2019","02","22","12:30","-7.6","","-16.9","","47","","0.0","","26","","15","","","","99.43","","","","-14","","NA"
"-56.07","48.97","BADGER (AUT)","8400301","2019-02-22 13:30","2019","02","22","13:30","-7.6","","-16.1","","50","","0.0","","27","","15","","","","99.40","","","","-14","","NA"
"-56.07","48.97","BADGER (AUT)","8400301","2019-02-22 14:30","2019","02","22","14:30","-6.1","","-17.0","","42","","0.0","","29","","16","","","","99.39","","","","-12","","NA"
"-56.07","48.97","BADGER (AUT)","8400301","2019-02-22 15:30","2019","02","22","15:30","-6.8","","-16.1","","47","","0.0","","28","","15","","","","99.37","","","","-13","","NA"
"-56.07","48.97","BADGER (AUT)","8400301","2019-02-22 16:30","2019","02","22","16:30","-7.7","","-15.4","","54","","0.0","","26","","20","","","","99.36","","","","-15","","NA"
"-56.07","48.97","BADGER (AUT)","8400301","2019-02-22 17:30","2019","02","22","17:30","-9.6","","-16.3","","58","","0.0","","28","","10","","","","99.43","","","","-15","","NA"
"-56.07","48.97","BADGER (AUT)","8400301","2019-02-22 18:30","2019","02","22","18:30","-11.1","","-16.8","","62","","0.0","","31","","3","","","","99.52","","","","-13","","NA"
"-56.07","48.97","BADGER (AUT)","8400301","2019-02-22 19:30","2019","02","22","19:30","-12.2","","-17.5","","64","","0.0","","30","","12","","","","99.60","","","","-19","","NA"
"-56.07","48.97","BADGER (AUT)","8400301","2019-02-22 20:30","2019","02","22","20:30","-12.9","","-17.7","","67","","0.0","","29","","9","","","","99.67","","","","-18","","NA"
"-56.07","48.97","BADGER (AUT)","8400301","2019-02-22 21:30","2019","02","22","21:30","-13.7","","-18.0","","70","","0.0","","25","","7","","","","99.72","","","","-18","","NA"
"-56.07","48.97","BADGER (AUT)","8400301","2019-02-22 22:30","2019","02","22","22:30","-14.0","","-18.6","","68","","0.0","","28","","8","","","","99.73","","","","-19","","NA"
"-56.07","48.97","BADGER (AUT)","8400301","2019-02-22 23:30","2019","02","22","23:30","-14.2","","-20.3","","60","","0.0","","27","","6","","","","99.75","","","","-18","","NA"
"-56.07","48.97","BADGER (AUT)","8400301","2019-02-23 00:30","2019","02","23","00:30","-14.7","","-21.0","","59","","0.0","","31","","11","","","","99.79","","","","-21","","NA"
"-56.07","48.97","BADGER (AUT)","8400301","2019-02-23 01:30","2019","02","23","01:30","-15.8","","-21.6","","61","","0.0","","33","","7","","","","99.86","","","","-21","","NA"
"-56.07","48.97","BADGER (AUT)","8400301","2019-02-23 02:30","2019","02","23","02:30","-16.9","","-22.9","","60","","0.0","","32","","8","","","","99.90","","","","-23","","NA"
"-56.07","48.97","BADGER (AUT)","8400301","2019-02-23 03:30","2019","02","23","03:30","-17.8","","-23.6","","60","","0.0","","30","","4","","","","99.91","","","","-21","","NA"
"-56.07","48.97","BADGER (AUT)","8400301","2019-02-23 04:30","2019","02","23","04:30","-18.6","","-23.8","","63","","0.0","","23","","5","","","","99.89","","","","-23","","NA"
"-56.07","48.97","BADGER (AUT)","8400301","2019-02-23 05:30","2019","02","23","05:30","-20.1","","-24.4","","68","","0.0","","25","","7","","","","99.92","","","","-26","","NA"
"-56.07","48.97","BADGER (AUT)","8400301","2019-02-23 06:30","2019","02","23","06:30","-20.6","","-24.3","","72","","0.0","","30","","3","","","","99.96","","","","-23","","NA"
"-56.07","48.97","BADGER (AUT)","8400301","2019-02-23 07:30","2019","02","23","07:30","-23.0","","-25.7","","78","","0.0","","23","","5","","","","99.98","","","","-28","","NA"
"-56.07","48.97","BADGER (AUT)","8400301","2019-02-23 08:30","2019","02","23","08:30","-16.3","","-22.0","","62","","0.8","","29","","9","","","","100.03","","","","-22","","NA"
"-56.07","48.97","BADGER (AUT)","8400301","2019-02-23 09:30","2019","02","23","09:30","-15.0","","-22.1","","55","","0.0","","28","","14","","","","100.04","","","","-23","","NA"
"-56.07","48.97","BADGER (AUT)","8400301","2019-02-23 10:30","2019","02","23","10:30","-14.3","","-22.4","","50","","0.0","","29","","18","","","","100.04","","","","-23","","NA"
"-56.07","48.97","BADGER (AUT)","8400301","2019-02-23 11:30","2019","02","23","11:30","-13.7","","-22.4","","48","","0.0","","29","","21","","","","100.00","","","","-23","","NA"
"-56.07","48.97","BADGER (AUT)","8400301","2019-02-23 12:30","2019","02","23","12:30","-13.3","","-21.8","","49","","0.0","","29","","20","","","","99.96","","","","-22","","NA"
"-56.07","48.97","BADGER (AUT)","8400301","2019-02-23 13:30","2019","02","23","13:30","-13.0","","-22.3","","46","","0.0","","30","","21","","","","99.93","","","","-22","","NA"
"-56.07","48.97","BADGER (AUT)","8400301","2019-02-23 14:30","2019","02","23","14:30","-12.5","","-21.4","","47","","0.0","","29","","18","","","","99.93","","","","-21","","NA"
"-56.07","48.97","BADGER (AUT)","8400301","2019-02-23 15:30","2019","02","23","15:30","-12.0","","-20.3","","50","","0.0","","29","","18","","","","99.94","","","","-20","","NA"
"-56.07","48.97","BADGER (AUT)","8400301","2019-02-23 16:30","2019","02","23","16:30","-12.4","","-20.5","","51","","0.0","","31","","18","","","","99.97","","","","-20","","NA"
"-56.07","48.97","BADGER (AUT)","8400301","2019-02-23 17:30","2019","02","23","17:30","-13.8","","-20.5","","57","","0.0","","28","","10","","","","100.02","","","","-20","","NA"
"-56.07","48.97","BADGER (AUT)","8400301","2019-02-23 18:30","2019","02","23","18:30","-14.8","","-20.2","","63","","0.0","","28","","7","","","","100.10","","","","-20","","NA"
"-56.07","48.97","BADGER (AUT)","8400301","2019-02-23 19:30","2019","02","23","19:30","-15.2","","-19.7","","68","","0.0","","30","","8","","","","100.11","","","","-21","","NA"
"-56.07","48.97","BADGER (AUT)","8400301","2019-02-23 20:30","2019","02","23","20:30","-15.7","","-19.4","","73","","0.0","","31","","6","","","","100.13","","","","-20","","NA"
"-56.07","48.97","BADGER (AUT)","8400301","2019-02-23 21:30","2019","02","23","21:30","-19.9","","-22.2","","81","","0.0","","16","","4","","","","100.14","","","","-23","","NA"
"-56.07","48.97","BADGER (AUT)","8400301","2019-02-23 22:30","2019","02","23","22:30","-22.5","","-24.8","","82","","0.0","","20","","1","","","","100.12","","","","-23","","NA"
"-56.07","48.97","BADGER (AUT)","8400301","2019-02-23 23:30","2019","02","23","23:30","-20.3","","-22.2","","85","","0.5","","36","","3","","","","100.09","","","","-23","","NA"
"-56.07","48.97","BADGER (AUT)","8400301","2019-02-24 00:30","2019","02","24","00:30","-14.3","","-19.1","","67","","0.5","","28","","7","","","","100.10","","","","-19","","NA"
"-56.07","48.97","BADGER (AUT)","8400301","2019-02-24 01:30","2019","02","24","01:30","-14.3","","-19.8","","63","","0.0","","28","","9","","","","100.12","","","","-20","","NA"
"-56.07","48.97","BADGER (AUT)","8400301","2019-02-24 02:30","2019","02","24","02:30","-18.0","","-21.5","","74","","0.0","","26","","3","","","","100.13","","","","-20","","NA"
"-56.07","48.97","BADGER (AUT)","8400301","2019-02-24 03:30","2019","02","24","03:30","-17.4","","-22.0","","68","","0.0","","24","","4","","","","100.17","","","","-21","","NA"
"-56.07","48.97","BADGER (AUT)","8400301","2019-02-24 04:30","2019","02","24","04:30","-15.4","","-21.4","","60","","0.0","","26","","9","","","","100.19","","","","-21","","NA"
"-56.07","48.97","BADGER (AUT)","8400301","2019-02-24 05:30","2019","02","24","05:30","-15.4","","-21.7","","59","","0.0","","27","","6","","","","100.26","","","","-20","","NA"
"-56.07","48.97","BADGER (AUT)","8400301","2019-02-24 06:30","2019","02","24","06:30","-15.2","","-21.5","","59","","0.0","","29","","14","","","","100.27","","","","-23","","NA"
"-56.07","48.97","BADGER (AUT)","8400301","2019-02-24 07:30","2019","02","24","07:30","-15.3","","-21.5","","59","","0.0","","30","","15","","","","100.27","","","","-23","","NA"
"-56.07","48.97","BADGER (AUT)","8400301","2019-02-24 08:30","2019","02","24","08:30","-14.0","","-21.3","","54","","0.0","","29","","6","","","","100.35","","","","-18","","NA"
"-56.07","48.97","BADGER (AUT)","8400301","2019-02-24 09:30","2019","02","24","09:30","-12.9","","-20.8","","51","","0.0","","29","","17","","","","100.35","","","","-21","","NA"
"-56.07","48.97","BADGER (AUT)","8400301","2019-02-24 10:30","2019","02","24","10:30","-11.9","","-20.2","","50","","0.0","","30","","17","","","","100.35","","","","-20","","NA"
"-56.07","48.97","BADGER (AUT)","8400301","2019-02-24 11:30","2019","02","24","11:30","-10.6","","-19.8","","47","","0.0","","29","","18","","","","100.39","","","","-18","","NA"
"-56.07","48.97","BADGER (AUT)","8400301","2019-02-24 12:30","2019","02","24","12:30","-9.3","","-19.3","","44","","0.0","","30","","13","","","","100.37","","","","-15","","NA"
"-56.07","48.97","BADGER (AUT)","8400301","2019-02-24 13:30","2019","02","24","13:30","-9.5","","-19.6","","44","","0.0","","30","","19","","","","100.32","","","","-17","","NA"
"-56.07","48.97","BADGER (AUT)","8400301","2019-02-24 14:30","2019","02","24","14:30","-9.4","","-19.5","","44","","0.0","","29","","18","","","","100.36","","","","-17","","NA"
"-56.07","48.97","BADGER (AUT)","8400301","2019-02-24 15:30","2019","02","24","15:30","-9.4","","-20.0","","42","","0.0","","28","","14","","","","100.36","","","","-16","","NA"
"-56.07","48.97","BADGER (AUT)","8400301","2019-02-24 16:30","2019","02","24","16:30","-9.5","","-19.3","","45","","0.0","","27","","12","","","","100.36","","","","-15","","NA"
"-56.07","48.97","BADGER (AUT)","8400301","2019-02-24 17:30","2019","02","24","17:30","-11.5","","-19.9","","50","","0.0","","26","","5","","","","100.40","","","","-15","","NA"
"-56.07","48.97","BADGER (AUT)","8400301","2019-02-24 18:30","2019","02","24","18:30","-14.0","","-20.2","","59","","0.0","","20","","5","","","","100.43","","","","-17","","NA"
"-56.07","48.97","BADGER (AUT)","8400301","2019-02-24 19:30","2019","02","24","19:30","-17.2","","-21.9","","67","","0.0","","0","","1","","","","100.44","","","","-18","","NA"
"-56.07","48.97","BADGER (AUT)","8400301","2019-02-24 20:30","2019","02","24","20:30","-21.1","","-24.0","","77","","0.0","","15","","2","","","","100.42","","","","-23","","NA"
"-56.07","48.97","BADGER (AUT)","8400301","2019-02-24 21:30","2019","02","24","21:30","-21.9","","-24.3","","81","","0.0","","15","","2","","","","100.44","","","","-24","","NA"
"-56.07","48.97","BADGER (AUT)","8400301","2019-02-24 22:30","2019","02","24","22:30","-24.1","","-26.6","","79","","0.0","","34","","3","","","","100.36","","","","-27","","NA"
"-56.07","48.97","BADGER (AUT)","8400301","2019-02-24 23:30","2019","02","24","23:30","-25.6","","-28.2","","79","","0.0","","30","","2","","","","100.28","","","","-28","","NA"
"-56.07","48.97","BADGER (AUT)","8400301","2019-02-25 00:30","2019","02","25","00:30","-26.3","","-28.8","","79","","0.0","","21","","2","","","","100.27","","","","-28","","NA"
"-56.07","48.97","BADGER (AUT)","8400301","2019-02-25 01:30","2019","02","25","01:30","-25.1","","-27.3","","83","","0.0","","14","","2","","","","100.20","","","","-27","","NA"
"-56.07","48.97","BADGER (AUT)","8400301","2019-02-25 02:30","2019","02","25","02:30","-25.8","","-28.6","","78","","0.0","","4","","1","","","","100.13","","","","-27","","NA"
"-56.07","48.97","BADGER (AUT)","8400301","2019-02-25 03:30","2019","02","25","03:30","-24.8","","-27.1","","81","","0.3","","7","","3","","","","99.92","","","","-28","","NA"
"-56.07","48.97","BADGER (AUT)","8400301","2019-02-25 04:30","2019","02","25","04:30","-24.0","","-26.6","","79","","0.2","","0","","1","","","","99.96","","","","-25","","NA"
"-56.07","48.97","BADGER (AUT)","8400301","2019-02-25 05:30","2019","02","25","05:30","-24.2","","-26.8","","79","","0.0","","0","","1","","","","99.82","","","","-25","","NA"
"-56.07","48.97","BADGER (AUT)","8400301","2019-02-25 06:30","2019","02","25","06:30","-24.3","","-26.7","","81","","0.0","","0","","1","","","","99.73","","","","-25","","NA"
"-56.07","48.97","BADGER (AUT)","8400301","2019-02-25 07:30","2019","02","25","07:30","-21.6","","-23.8","","82","","0.5","","0","","1","","","","99.68","","","","-22","","NA"
"-56.07","48.97","BADGER (AUT)","8400301","2019-02-25 08:30","2019","02","25","08:30","-18.5","","-21.2","","80","","0.0","","2","","2","","","","99.41","","","","-20","","NA"
"-56.07","48.97","BADGER (AUT)","8400301","2019-02-25 09:30","2019","02","25","09:30","-14.8","","-20.1","","64","","0.0","","10","","5","","","","99.20","","","","-18","","NA"
"-56.07","48.97","BADGER (AUT)","8400301","2019-02-25 10:30","2019","02","25","10:30","-13.3","","-18.6","","64","","0.0","","10","","9","","","","98.96","","","","-19","","NA"
"-56.07","48.97","BADGER (AUT)","8400301","2019-02-25 11:30","2019","02","25","11:30","-11.5","","-16.6","","66","","0.0","","10","","7","","","","98.77","","","","-16","","NA"
"-56.07","48.97","BADGER (AUT)","8400301","2019-02-25 12:30","2019","02","25","12:30","-10.6","","-12.4","","86","","1.0","","8","","10","","","","98.47","","","","-16","","NA"
"-56.07","48.97","BADGER (AUT)","8400301","2019-02-25 13:30","2019","02","25","13:30","-9.3","","-11.2","","86","","1.8","","8","","15","","","","98.17","","","","-16","","NA"
"-56.07","48.97","BADGER (AUT)","8400301","2019-02-25 14:30","2019","02","25","14:30","-8.3","","-10.0","","87","","1.5","","8","","12","","","","97.97","","","","-14","","NA"
"-56.07","48.97","BADGER (AUT)","8400301","2019-02-25 15:30","2019","02","25","15:30","-7.4","","-9.0","","89","","1.3","","8","","12","","","","97.79","","","","-13","","NA"
"-56.07","48.97","BADGER (AUT)","8400301","2019-02-25 16:30","2019","02","25","16:30","-6.7","","-8.2","","89","","0.7","","9","","13","","","","97.51","","","","-12","","NA"
"-56.07","48.97","BADGER (AUT)","8400301","2019-02-25 17:30","2019","02","25","17:30","-5.9","","-7.6","","88","","0.4","","9","","14","","","","97.36","","","","-11","","NA"
"-56.07","48.97","BADGER (AUT)","8400301","2019-02-25 18:30","2019","02","25","18:30","-5.6","","-7.0","","90","","0.5","","9","","13","","","","97.19","","","","-11","","NA"
"-56.07","48.97","BADGER (AUT)","8400301","2019-02-25 19:30","2019","02","25","19:30","-4.9","","-6.5","","88","","0.0","","10","","12","","","","97.04","","","","-10","","NA"
"-56.07","48.97","BADGER (AUT)","8400301","2019-02-25 20:30","2019","02","25","20:30","-4.2","","-6.1","","87","","0.0","","10","","14","","","","96.93","","","","-9","","NA"
"-56.07","48.97","BADGER (AUT)","8400301","2019-02-25 21:30","2019","02","25","21:30","-4.0","","-5.5","","89","","0.0","","11","","10","","","","96.83","","","","-8","","NA"
"-56.07","48.97","BADGER (AUT)","8400301","2019-02-25 22:30","2019","02","25","22:30","-3.9","","-5.1","","92","","0.2","","10","","9","","","","96.75","","","","-8","","NA"
"-56.07","48.97","BADGER (AUT)","8400301","2019-02-25 23:30","2019","02","25","23:30","-3.9","","-4.9","","93","","0.0","","10","","6","","","","96.70","","","","-7","","NA"
"-56.07","48.97","BADGER (AUT)","8400301","2019-02-26 00:30","2019","02","26","00:30","-4.1","","-5.0","","93","","0.0","","15","","3","","","","96.67","","","","-5","","NA"
"-56.07","48.97","BADGER (AUT)","8400301","2019-02-26 01:30","2019","02","26","01:30","-5.5","","-6.5","","93","","0.0","","","","0","","","","96.66","","","","","","NA"
"-56.07","48.97","BADGER (AUT)","8400301","2019-02-26 02:30","2019","02","26","02:30","-6.4","","-7.2","","94","","0.0","","11","","3","","","","96.61","","","","-8","","NA"
"-56.07","48.97","BADGER (AUT)","8400301","2019-02-26 03:30","2019","02","26","03:30","-4.1","","-5.0","","93","","0.0","","14","","6","","","","96.58","","","","-7","","NA"
"-56.07","48.97","BADGER (AUT)","8400301","2019-02-26 04:30","2019","02","26","04:30","-4.1","","-4.9","","94","","0.6","","11","","5","","","","96.54","","","","-6","","NA"
"-56.07","48.97","BADGER (AUT)","8400301","2019-02-26 05:30","2019","02","26","05:30","-4.1","","-4.9","","94","","0.6","","14","","5","","","","96.55","","","","-6","","NA"
"-56.07","48.97","BADGER (AUT)","8400301","2019-02-26 06:30","2019","02","26","06:30","-4.5","","-6.4","","87","","0.0","","17","","7","","","","96.54","","","","-8","","NA"
"-56.07","48.97","BADGER (AUT)","8400301","2019-02-26 07:30","2019","02","26","07:30","-5.1","","-6.7","","88","","0.0","","14","","5","","","","96.52","","","","-7","","NA"
"-56.07","48.97","BADGER (AUT)","8400301","2019-02-26 08:30","2019","02","26","08:30","-4.7","","-6.6","","87","","0.0","","13","","5","","","","96.51","","","","-7","","NA"
"-56.07","48.97","BADGER (AUT)","8400301","2019-02-26 09:30","2019","02","26","09:30","-3.7","","-6.4","","82","","0.2","","13","","6","","","","96.48","","","","-6","","NA"
"-56.07","48.97","BADGER (AUT)","8400301","2019-02-26 10:30","2019","02","26","10:30","-3.3","","-6.4","","79","","0.0","","16","","7","","","","96.47","","","","-6","","NA"
"-56.07","48.97","BADGER (AUT)","8400301","2019-02-26 11:30","2019","02","26","11:30","-2.1","","-5.8","","76","","0.0","","11","","1","","","","96.46","","","","-2","","NA"
"-56.07","48.97","BADGER (AUT)","8400301","2019-02-26 12:30","2019","02","26","12:30","-2.2","","-6.0","","75","","0.3","","24","","6","","","","96.45","","","","-5","","NA"
"-56.07","48.97","BADGER (AUT)","8400301","2019-02-26 13:30","2019","02","26","13:30","-2.4","","-5.4","","80","","0.0","","26","","10","","","","96.48","","","","-6","","NA"
"-56.07","48.97","BADGER (AUT)","8400301","2019-02-26 14:30","2019","02","26","14:30","-2.1","","-5.9","","75","","0.0","","27","","12","","","","96.51","","","","-6","","NA"
"-56.07","48.97","BADGER (AUT)","8400301","2019-02-26 15:30","2019","02","26","15:30","-2.5","","-6.1","","76","","0.0","","29","","13","","","","96.56","","","","-7","","NA"
"-56.07","48.97","BADGER (AUT)","8400301","2019-02-26 16:30","2019","02","26","16:30","-3.7","","-6.8","","79","","0.0","","26","","17","","","","96.61","","","","-9","","NA"
"-56.07","48.97","BADGER (AUT)","8400301","2019-02-26 17:30","2019","02","26","17:30","-4.6","","-7.8","","78","","0.0","","26","","19","","","","96.69","","","","-11","","NA"
"-56.07","48.97","BADGER (AUT)","8400301","2019-02-26 18:30","2019","02","26","18:30","-5.3","","-9.1","","75","","0.0","","26","","18","","","","96.75","","","","-12","","NA"
"-56.07","48.97","BADGER (AUT)","8400301","2019-02-26 19:30","2019","02","26","19:30","-5.9","","-9.3","","77","","0.0","","25","","15","","","","96.79","","","","-12","","NA"
"-56.07","48.97","BADGER (AUT)","8400301","2019-02-26 20:30","2019","02","26","20:30","-6.5","","-10.5","","73","","0.0","","24","","13","","","","96.80","","","","-12","","NA"
"-56.07","48.97","BADGER (AUT)","8400301","2019-02-26 21:30","2019","02","26","21:30","-7.1","","-11.1","","73","","0.0","","23","","14","","","","96.81","","","","-13","","NA"
"-56.07","48.97","BADGER (AUT)","8400301","2019-02-26 22:30","2019","02","26","22:30","-7.8","","-11.2","","76","","0.0","","24","","15","","","","96.81","","","","-14","","NA"
"-56.07","48.97","BADGER (AUT)","8400301","2019-02-26 23:30","2019","02","26","23:30","-8.3","","-11.2","","80","","0.0","","23","","11","","","","96.80","","","","-14","","NA"
"-56.07","48.97","BADGER (AUT)","8400301","2019-02-27 00:30","2019","02","27","00:30","-8.6","","-10.8","","84","","0.0","","23","","10","","","","96.80","","","","-14","","NA"
"-56.07","48.97","BADGER (AUT)","8400301","2019-02-27 01:30","2019","02","27","01:30","-8.7","","-10.9","","84","","0.0","","24","","11","","","","96.82","","","","-14","","NA"
"-56.07","48.97","BADGER (AUT)","8400301","2019-02-27 02:30","2019","02","27","02:30","-8.6","","-11.1","","82","","0.0","","25","","10","","","","96.82","","","","-14","","NA"
"-56.07","48.97","BADGER (AUT)","8400301","2019-02-27 03:30","2019","02","27","03:30","-8.4","","-11.0","","81","","0.0","","24","","9","","","","96.80","","","","-13","","NA"
"-56.07","48.97","BADGER (AUT)","8400301","2019-02-27 04:30","2019","02","27","04:30","-7.8","","-10.9","","79","","0.0","","24","","9","","","","96.81","","","","-12","","NA"
"-56.07","48.97","BADGER (AUT)","8400301","2019-02-27 05:30","2019","02","27","05:30","-8.6","","-11.3","","81","","0.0","","21","","6","","","","96.83","","","","-12","","NA"
"-56.07","48.97","BADGER (AUT)","8400301","2019-02-27 06:30","2019","02","27","06:30","-8.9","","-11.8","","79","","0.0","","24","","13","","","","96.86","","","","-15","","NA"
"-56.07","48.97","BADGER (AUT)","8400301","2019-02-27 07:30","2019","02","27","07:30","-7.2","","-9.5","","84","","0.0","","24","","11","","","","96.85","","","","-12","","NA"
"-56.07","48.97","BADGER (AUT)","8400301","2019-02-27 08:30","2019","02","27","08:30","-6.3","","-9.4","","78","","0.0","","23","","11","","","","96.90","","","","-11","","NA"
"-56.07","48.97","BADGER (AUT)","8400301","2019-02-27 09:30","2019","02","27","09:30","-4.3","","-8.1","","75","","0.0","","26","","16","","","","96.90","","","","-10","","NA"
"-56.07","48.97","BADGER (AUT)","8400301","2019-02-27 10:30","2019","02","27","10:30","-3.1","","-8.8","","65","","0.0","","26","","20","","","","96.86","","","","-9","","NA"
"-56.07","48.97","BADGER (AUT)","8400301","2019-02-27 11:30","2019","02","27","11:30","-3.3","","-9.0","","65","","0.0","","27","","17","","","","96.89","","","","-9","","NA"
"-56.07","48.97","BADGER (AUT)","8400301","2019-02-27 12:30","2019","02","27","12:30","-3.3","","-8.8","","65","","0.0","","25","","19","","","","96.84","","","","-9","","NA"
"-56.07","48.97","BADGER (AUT)","8400301","2019-02-27 13:30","2019","02","27","13:30","-3.8","","-8.8","","68","","0.0","","26","","21","","","","96.79","","","","-10","","NA"
"-56.07","48.97","BADGER (AUT)","8400301","2019-02-27 14:30","2019","02","27","14:30","-4.0","","-9.0","","68","","0.0","","27","","24","","","","96.78","","","","-11","","NA"
"-56.07","48.97","BADGER (AUT)","8400301","2019-02-27 15:30","2019","02","27","15:30","-4.5","","-9.2","","70","","0.0","","27","","24","","","","96.89","","","","-12","","NA"
"-56.07","48.97","BADGER (AUT)","8400301","2019-02-27 16:30","2019","02","27","16:30","-4.6","","-9.4","","69","","0.0","","28","","27","","","","96.96","","","","-12","","NA"
"-56.07","48.97","BADGER (AUT)","8400301","2019-02-27 17:30","2019","02","27","17:30","-5.4","","-9.6","","72","","0.0","","29","","29","","","","97.05","","","","-13","","NA"
"-56.07","48.97","BADGER (AUT)","8400301","2019-02-27 18:30","2019","02","27","18:30","-6.1","","-10.5","","71","","0.0","","28","","24","","","","97.18","","","","-14","","NA"
"-56.07","48.97","BADGER (AUT)","8400301","2019-02-27 19:30","2019","02","27","19:30","-6.5","","-10.9","","71","","0.0","","29","","23","","","","97.33","","","","-14","","NA"
"-56.07","48.97","BADGER (AUT)","8400301","2019-02-27 20:30","2019","02","27","20:30","-6.6","","-11.1","","70","","0.0","","27","","19","","","","97.43","","","","-13","","NA"
"-56.07","48.97","BADGER (AUT)","8400301","2019-02-27 21:30","2019","02","27","21:30","-6.7","","-11.4","","69","","0.0","","27","","21","","","","97.50","","","","-14","","NA"
"-56.07","48.97","BADGER (AUT)","8400301","2019-02-27 22:30","2019","02","27","22:30","-6.9","","-12.2","","66","","0.0","","28","","21","","","","97.62","","","","-14","","NA"
"-56.07","48.97","BADGER (AUT)","8400301","2019-02-27 23:30","2019","02","27","23:30","-7.5","","-12.3","","68","","0.0","","28","","21","","","","97.67","","","","-15","","NA"
"-56.07","48.97","BADGER (AUT)","8400301","2019-02-28 00:30","2019","02","28","00:30","-7.4","","-12.3","","68","","0.0","","27","","21","","","","97.74","","","","-15","","NA"
"-56.07","48.97","BADGER (AUT)","8400301","2019-02-28 01:30","2019","02","28","01:30","-8.1","","-12.4","","71","","0.0","","26","","14","","","","97.89","","","","-14","","NA"
"-56.07","48.97","BADGER (AUT)","8400301","2019-02-28 02:30","2019","02","28","02:30","-7.9","","-12.7","","68","","0.0","","29","","15","","","","97.90","","","","-14","","NA"
"-56.07","48.97","BADGER (AUT)","8400301","2019-02-28 03:30","2019","02","28","03:30","-8.5","","-12.7","","71","","0.0","","27","","13","","","","97.92","","","","-14","","NA"
"-56.07","48.97","BADGER (AUT)","8400301","2019-02-28 04:30","2019","02","28","04:30","-8.3","","-12.7","","70","","0.0","","26","","17","","","","98.01","","","","-15","","NA"
"-56.07","48.97","BADGER (AUT)","8400301","2019-02-28 05:30","2019","02","28","05:30","-8.7","","-12.8","","72","","0.0","","26","","25","","","","98.03","","","","-17","","NA"
"-56.07","48.97","BADGER (AUT)","8400301","2019-02-28 06:30","2019","02","28","06:30","-8.9","","-13.0","","72","","0.0","","25","","17","","","","98.09","","","","-16","","NA"
"-56.07","48.97","BADGER (AUT)","8400301","2019-02-28 07:30","2019","02","28","07:30","-8.6","","-13.4","","68","","0.0","","26","","15","","","","98.15","","","","-15","","NA"
"-56.07","48.97","BADGER (AUT)","8400301","2019-02-28 08:30","2019","02","28","08:30","-7.7","","-13.6","","63","","0.0","","25","","19","","","","98.20","","","","-15","","NA"
"-56.07","48.97","BADGER (AUT)","8400301","2019-02-28 09:30","2019","02","28","09:30","-6.9","","-13.2","","61","","0.0","","25","","18","","","","98.16","","","","-14","","NA"
"-56.07","48.97","BADGER (AUT)","8400301","2019-02-28 10:30","2019","02","28","10:30","-5.7","","-12.6","","58","","0.0","","26","","17","","","","98.19","","","","-12","","NA"
"-56.07","48.97","BADGER (AUT)","8400301","2019-02-28 11:30","2019","02","28","11:30","-5.3","","-12.8","","56","","0.0","","25","","24","","","","98.19","","","","-13","","NA"
"-56.07","48.97","BADGER (AUT)","8400301","2019-02-28 12:30","2019","02","28","12:30","-5.8","","-14.1","","52","","0.0","","24","","21","","","","98.23","","","","-13","","NA"
"-56.07","48.97","BADGER (AUT)","8400301","2019-02-28 13:30","2019","02","28","13:30","-5.5","","-13.9","","52","","0.0","","25","","20","","","","98.20","","","","-12","","NA"
"-56.07","48.97","BADGER (AUT)","8400301","2019-02-28 14:30","2019","02","28","14:30","-6.2","","-15.0","","50","","0.0","","25","","22","","","","98.15","","","","-13","","NA"
"-56.07","48.97","BADGER (AUT)","8400301","2019-02-28 15:30","2019","02","28","15:30","-6.0","","-14.1","","53","","0.0","","25","","17","","","","98.20","","","","-12","","NA"
"-56.07","48.97","BADGER (AUT)","8400301","2019-02-28 16:30","2019","02","28","16:30","-7.2","","-14.7","","55","","0.0","","25","","19","","","","98.24","","","","-14","","NA"
"-56.07","48.97","BADGER (AUT)","8400301","2019-02-28 17:30","2019","02","28","17:30","-9.1","","-15.6","","59","","0.0","","24","","16","","","","98.28","","","","-16","","NA"
"-56.07","48.97","BADGER (AUT)","8400301","2019-02-28 18:30","2019","02","28","18:30","-9.8","","-15.2","","64","","0.0","","24","","13","","","","98.30","","","","-16","","NA"
"-56.07","48.97","BADGER (AUT)","8400301","2019-02-28 19:30","2019","02","28","19:30","-9.9","","-15.3","","65","","0.0","","24","","12","","","","98.32","","","","-16","","NA"
"-56.07","48.97","BADGER (AUT)","8400301","2019-02-28 20:30","2019","02","28","20:30","-9.7","","-14.3","","69","","0.0","","25","","11","","","","98.37","","","","-15","","NA"
"-56.07","48.97","BADGER (AUT)","8400301","2019-02-28 21:30","2019","02","28","21:30","-9.2","","-13.3","","72","","0.0","","27","","13","","","","98.40","","","","-15","","NA"
"-56.07","48.97","BADGER (AUT)","8400301","2019-02-28 22:30","2019","02","28","22:30","-9.0","","-13.3","","71","","0.0","","27","","18","","","","98.43","","","","-16","","NA"
"-56.07","48.97","BADGER (AUT)","8400301","2019-02-28 23:30","2019","02","28","23:30","-9.3","","-12.7","","76","","0.0","","27","","13","","","","98.45","","","","-15","","NA"
