"Longitude (x)","Latitude (y)","Station Name","Climate ID","Date/Time (LST)","Year","Month","Day","Time (LST)","Temp (°C)","Temp Flag","Dew Point Temp (°C)","Dew Point Temp Flag","Rel Hum (%)","Rel Hum Flag","Precip. Amount (mm)","Precip. Amount Flag","Wind Dir (10s deg)","Wind Dir Flag","Wind Spd (km/h)","Wind Spd Flag","Visibility (km)","Visibility Flag","Stn Press (kPa)","Stn Press Flag","Hmdx","Hmdx Flag","Wind Chill","Wind Chill Flag","Weather"
"-68.21","48.61","MONT JOLI A","7055121","2019-01-01 00:00","2019","01","01","00:00","-4.8","","-7.5","","81","","","","14","","27","","16.1","","100.79","","","","-12","","Snow"
"-68.21","48.61","MONT JOLI A","7055121","2019-01-01 01:00","2019","01","01","01:00","-4.7","","-7.7","","80","","","","15","","34","","16.1","","100.55","","","","-13","","Snow"
"-68.21","48.61","MONT JOLI A","7055121","2019-01-01 02:00","2019","01","01","02:00","-4.0","","-7.6","","76","","","","16","","27","","24.1","","100.48","","","","-11","","Snow"
"-68.21","48.61","MONT JOLI A","7055121","2019-01-01 03:00","2019","01","01","03:00","-4.7","","-6.7","","86","","","","14","","28","","1.6","","100.29","","","","-12","","Snow,Blowing Snow"
"-68.21","48.61","MONT JOLI A","7055121","2019-01-01 04:00","2019","01","01","04:00","-4.9","","-6.8","","87","","","","14","","26","","2.0","","100.06","","","","-12","","Snow,Blowing Snow"
"-68.21","48.61","MONT JOLI A","7055121","2019-01-01 05:00","2019","01","01","05:00","-4.6","","-6.8","","84","","","","14","","29","","2.4","","99.82","","","","-12","","Snow,Blowing Snow"
"-68.21","48.61","MONT JOLI A","7055121","2019-01-01 06:00","2019","01","01","06:00","-4.5","","-6.8","","84","","","","15","","27","","3.2","","99.63","","","","-12","","Snow,Blowing Snow"
"-68.21","48.61","MONT JOLI A","7055121","2019-01-01 07:00","2019","01","01","07:00","-4.7","","-6.0","","90","","","","13","","23","","0.8","","99.30","","","","-12","","Moderate Snow"
"-68.21","48.61","MONT JOLI A","7055121","2019-01-01 08:00","2019","01","01","08:00","-3.2","","-4.7","","90","","","","14","","27","","0.8","","99.26","","","","-10","","Snow,Blowing Snow"
"-68.21","48.61","MONT JOLI A","7055121","2019-01-01 09:00","2019","01","01","09:00","-3.0","","-4.8","","87","","","","8","","4","","1.6","","99.27","","","","-5","","Snow,Blowing Snow"
"-68.21","48.61","MONT JOLI A","7055121","2019-01-01 10:00","2019","01","01","10:00","-3.2","","-4.3","","92","","","","2","","13","","2.4","","99.26","","","","-8","","Snow"
"-68.21","48.61","MONT JOLI A","7055121","2019-01-01 11:00","2019","01","01","11:00","-3.1","","-4.1","","93","","","","2","","14","","2.4","","99.22","","","","-8","","Snow"
"-68.21","48.61","MONT JOLI A","7055121","2019-01-01 12:00","2019","01","01","12:00","-3.1","","-4.1","","93","","","","1","","15","","3.2","","99.25","","","","-8","","Snow"
"-68.21","48.61","MONT JOLI A","7055121","2019-01-01 13:00","2019","01","01","13:00","-4.0","","-5.0","","92","","","","33","","33","","1.2","","99.33","","","","-12","","Snow"
"-68.21","48.61","MONT JOLI A","7055121","2019-01-01 14:00","2019","01","01","14:00","-4.2","","-7.5","","77","","","","32","","34","","24.1","","99.55","","","","-12","","Snow"
"-68.21","48.61","MONT JOLI A","7055121","2019-01-01 15:00","2019","01","01","15:00","-4.2","","-8.3","","73","","","","31","","31","","24.1","","99.78","","","","-12","","Snow"
"-68.21","48.61","MONT JOLI A","7055121","2019-01-01 16:00","2019","01","01","16:00","-5.1","","-9.7","","70","","","","31","","35","","48.3","","99.90","","","","-14","","Snow"
"-68.21","48.61","MONT JOLI A","7055121","2019-01-01 17:00","2019","01","01","17:00","-6.7","","-12.0","","66","","","","31","","42","","48.3","","100.12","","","","-17","","Blowing Snow"
"-68.21","48.61","MONT JOLI A","7055121","2019-01-01 18:00","2019","01","01","18:00","-8.7","","-13.9","","66","","","","33","","49","","48.3","","100.33","","","","-20","","Blowing Snow"
"-68.21","48.61","MONT JOLI A","7055121","2019-01-01 19:00","2019","01","01","19:00","-10.8","","-16.4","","64","","","","32","","46","","24.1","","100.56","","","","-22","","Blowing Snow"
"-68.21","48.61","MONT JOLI A","7055121","2019-01-01 20:00","2019","01","01","20:00","-11.8","","-17.9","","61","","","","32","","49","","24.1","","100.73","","","","-24","","Blowing Snow"
"-68.21","48.61","MONT JOLI A","7055121","2019-01-01 21:00","2019","01","01","21:00","-13.0","","-19.3","","60","","","","32","","32","","24.1","","100.92","","","","-24","","Blowing Snow"
"-68.21","48.61","MONT JOLI A","7055121","2019-01-01 22:00","2019","01","01","22:00","-14.1","","-20.5","","59","","","","32","","35","","24.1","","100.97","","","","-26","","Mainly Clear"
"-68.21","48.61","MONT JOLI A","7055121","2019-01-01 23:00","2019","01","01","23:00","-14.9","","-21.1","","60","","","","32","","36","","24.1","","101.08","","","","-27","","NA"
"-68.21","48.61","MONT JOLI A","7055121","2019-01-02 00:00","2019","01","02","00:00","-15.8","","-21.2","","63","","","","31","","32","","24.1","","101.23","","","","-27","","NA"
"-68.21","48.61","MONT JOLI A","7055121","2019-01-02 01:00","2019","01","02","01:00","-16.4","","-22.6","","59","","","","33","","26","","24.1","","101.35","","","","-27","","Blowing Snow"
"-68.21","48.61","MONT JOLI A","7055121","2019-01-02 02:00","2019","01","02","02:00","-16.5","","-22.7","","60","","","","32","","24","","24.1","","101.49","","","","-27","","Blowing Snow"
"-68.21","48.61","MONT JOLI A","7055121","2019-01-02 03:00","2019","01","02","03:00","-16.5","","-21.9","","63","","","","31","","24","","24.1","","101.57","","","","-27","","Blowing Snow"
"-68.21","48.61","MONT JOLI A","7055121","2019-01-02 04:00","2019","01","02","04:00","-17.0","","-22.2","","64","","","","31","","20","","24.1","","101.61","","","","-27","","Blowing Snow"
"-68.21","48.61","MONT JOLI A","7055121","2019-01-02 05:00","2019","01","02","05:00","-17.6","","-22.9","","63","","","","31","","21","","24.1","","101.65","","","","-28","","NA"
"-68.21","48.61","MONT JOLI A","7055121","2019-01-02 06:00","2019","01","02","06:00","-17.4","","-22.2","","67","","","","31","","21","","24.1","","101.78","","","","-27","","NA"
"-68.21","48.61","MONT JOLI A","7055121","2019-01-02 07:00","2019","01","02","07:00","-16.9","","-20.6","","73","","","","29","","16","","24.1","","101.84","","","","-26","","Mostly Cloudy"
"-68.21","48.61","MONT JOLI A","7055121","2019-01-02 08:00","2019","01","02","08:00","-18.3","","-22.2","","72","","","","30","","24","","48.3","","101.99","","","","-29","","NA"
"-68.21","48.61","MONT JOLI A","7055121","2019-01-02 09:00","2019","01","02","09:00","-18.7","","-22.9","","70","","","","31","","26","","48.3","","102.04","","","","-30","","NA"
"-68.21","48.61","MONT JOLI A","7055121","2019-01-02 10:00","2019","01","02","10:00","-17.6","","-22.3","","67","","","","29","","22","","48.3","","102.01","","","","-28","","Mainly Clear"
"-68.21","48.61","MONT JOLI A","7055121","2019-01-02 11:00","2019","01","02","11:00","-16.6","","-22.3","","62","","","","29","","19","","48.3","","101.93","","","","-26","","NA"
"-68.21","48.61","MONT JOLI A","7055121","2019-01-02 12:00","2019","01","02","12:00","-15.9","","-21.6","","62","","","","27","","20","","48.3","","101.90","","","","-25","","NA"
"-68.21","48.61","MONT JOLI A","7055121","2019-01-02 13:00","2019","01","02","13:00","-15.6","","-18.9","","76","","","","24","","16","","6.4","","101.95","","","","-24","","Snow"
"-68.21","48.61","MONT JOLI A","7055121","2019-01-02 14:00","2019","01","02","14:00","-14.8","","-19.6","","67","","","","25","","21","","48.3","","101.95","","","","-24","","NA"
"-68.21","48.61","MONT JOLI A","7055121","2019-01-02 15:00","2019","01","02","15:00","-15.7","","-19.8","","71","","","","24","","14","","48.3","","101.92","","","","-23","","NA"
"-68.21","48.61","MONT JOLI A","7055121","2019-01-02 16:00","2019","01","02","16:00","-17.0","","-20.9","","72","","","","21","","11","","48.3","","101.93","","","","-24","","Mainly Clear"
"-68.21","48.61","MONT JOLI A","7055121","2019-01-02 17:00","2019","01","02","17:00","-17.9","","-21.4","","74","","","","18","","8","","48.3","","101.87","","","","-24","","NA"
"-68.21","48.61","MONT JOLI A","7055121","2019-01-02 18:00","2019","01","02","18:00","-17.0","","-20.6","","74","","","","20","","14","","48.3","","101.77","","","","-25","","NA"
"-68.21","48.61","MONT JOLI A","7055121","2019-01-02 19:00","2019","01","02","19:00","-16.5","","-20.2","","74","","","","21","","16","","24.1","","101.78","","","","-25","","Mainly Clear"
"-68.21","48.61","MONT JOLI A","7055121","2019-01-02 20:00","2019","01","02","20:00","-16.3","","-20.1","","73","","","","22","","17","","24.1","","101.82","","","","-25","","NA"
"-68.21","48.61","MONT JOLI A","7055121","2019-01-02 21:00","2019","01","02","21:00","-16.8","","-20.5","","73","","","","19","","16","","24.1","","101.70","","","","-25","","NA"
"-68.21","48.61","MONT JOLI A","7055121","2019-01-02 22:00","2019","01","02","22:00","-16.4","","-19.8","","76","","","","20","","17","","24.1","","101.65","","","","-25","","Mostly Cloudy"
"-68.21","48.61","MONT JOLI A","7055121","2019-01-02 23:00","2019","01","02","23:00","-17.8","","-20.8","","78","","","","17","","14","","24.1","","101.58","","","","-26","","NA"
"-68.21","48.61","MONT JOLI A","7055121","2019-01-03 00:00","2019","01","03","00:00","-18.0","","-21.1","","77","","","","17","","18","","24.1","","101.50","","","","-27","","NA"
"-68.21","48.61","MONT JOLI A","7055121","2019-01-03 01:00","2019","01","03","01:00","-18.8","","-22.1","","76","","","","16","","18","","24.1","","101.41","","","","-28","","Mostly Cloudy"
"-68.21","48.61","MONT JOLI A","7055121","2019-01-03 02:00","2019","01","03","02:00","-19.1","","-22.5","","75","","","","16","","18","","24.1","","101.38","","","","-29","","NA"
"-68.21","48.61","MONT JOLI A","7055121","2019-01-03 03:00","2019","01","03","03:00","-18.6","","-22.1","","75","","","","17","","12","","24.1","","101.25","","","","-26","","NA"
"-68.21","48.61","MONT JOLI A","7055121","2019-01-03 04:00","2019","01","03","04:00","-18.1","","-22.0","","72","","","","13","","15","","24.1","","101.08","","","","-27","","Mostly Cloudy"
"-68.21","48.61","MONT JOLI A","7055121","2019-01-03 05:00","2019","01","03","05:00","-17.1","","-22.2","","65","","","","14","","18","","24.1","","101.00","","","","-26","","NA"
"-68.21","48.61","MONT JOLI A","7055121","2019-01-03 06:00","2019","01","03","06:00","-17.4","","-22.4","","66","","","","15","","17","","24.1","","100.96","","","","-26","","NA"
"-68.21","48.61","MONT JOLI A","7055121","2019-01-03 07:00","2019","01","03","07:00","-15.8","","-21.4","","63","","","","15","","10","","48.3","","100.96","","","","-22","","Cloudy"
"-68.21","48.61","MONT JOLI A","7055121","2019-01-03 08:00","2019","01","03","08:00","-15.1","","-20.4","","65","","","","14","","8","","48.3","","100.88","","","","-20","","NA"
"-68.21","48.61","MONT JOLI A","7055121","2019-01-03 09:00","2019","01","03","09:00","-14.6","","-17.9","","76","","","","13","","6","","4.8","","100.82","","","","-19","","Snow"
"-68.21","48.61","MONT JOLI A","7055121","2019-01-03 10:00","2019","01","03","10:00","-13.5","","-17.0","","75","","","","15","","7","","16.1","","100.74","","","","-18","","Snow"
"-68.21","48.61","MONT JOLI A","7055121","2019-01-03 11:00","2019","01","03","11:00","-12.8","","-16.2","","76","","","","36","","3","","16.1","","100.59","","","","-15","","Snow"
"-68.21","48.61","MONT JOLI A","7055121","2019-01-03 12:00","2019","01","03","12:00","-12.5","","-15.5","","79","","","","31","","8","","16.1","","100.52","","","","-17","","Snow"
"-68.21","48.61","MONT JOLI A","7055121","2019-01-03 13:00","2019","01","03","13:00","-12.1","","-14.5","","82","","","","31","","5","","3.2","","100.48","","","","-15","","Snow"
"-68.21","48.61","MONT JOLI A","7055121","2019-01-03 14:00","2019","01","03","14:00","-11.7","","-14.2","","82","","","","1","","3","","3.2","","100.46","","","","-14","","Snow"
"-68.21","48.61","MONT JOLI A","7055121","2019-01-03 15:00","2019","01","03","15:00","-12.3","","-14.3","","85","","","","0","","1","","24.1","","100.46","","","","-13","","NA"
"-68.21","48.61","MONT JOLI A","7055121","2019-01-03 16:00","2019","01","03","16:00","-12.6","","-14.3","","88","","","","12","","7","","24.1","","100.46","","","","-17","","Mainly Clear"
"-68.21","48.61","MONT JOLI A","7055121","2019-01-03 17:00","2019","01","03","17:00","-13.3","","-15.2","","86","","","","14","","8","","24.1","","100.43","","","","-18","","Snow"
"-68.21","48.61","MONT JOLI A","7055121","2019-01-03 18:00","2019","01","03","18:00","-14.3","","-16.2","","86","","","","16","","7","","24.1","","100.48","","","","-19","","Snow"
"-68.21","48.61","MONT JOLI A","7055121","2019-01-03 19:00","2019","01","03","19:00","-14.9","","-17.0","","84","","","","16","","9","","24.1","","100.48","","","","-21","","Snow"
"-68.21","48.61","MONT JOLI A","7055121","2019-01-03 20:00","2019","01","03","20:00","-13.8","","-15.9","","84","","","","17","","9","","24.1","","100.49","","","","-19","","Snow"
"-68.21","48.61","MONT JOLI A","7055121","2019-01-03 21:00","2019","01","03","21:00","-12.5","","-14.9","","82","","","","17","","11","","24.1","","100.44","","","","-19","","NA"
"-68.21","48.61","MONT JOLI A","7055121","2019-01-03 22:00","2019","01","03","22:00","-12.3","","-15.1","","80","","","","15","","10","","24.1","","100.36","","","","-18","","Snow"
"-68.21","48.61","MONT JOLI A","7055121","2019-01-03 23:00","2019","01","03","23:00","-12.3","","-14.9","","81","","","","16","","9","","24.1","","100.28","","","","-18","","Snow"
"-68.21","48.61","MONT JOLI A","7055121","2019-01-04 00:00","2019","01","04","00:00","-11.0","","-13.6","","81","","","","18","","5","","16.1","","100.25","","","","-14","","Snow"
"-68.21","48.61","MONT JOLI A","7055121","2019-01-04 01:00","2019","01","04","01:00","-10.4","","-12.8","","83","","","","17","","7","","9.7","","100.23","","","","-14","","Snow"
"-68.21","48.61","MONT JOLI A","7055121","2019-01-04 02:00","2019","01","04","02:00","-9.7","","-12.3","","82","","","","17","","8","","9.7","","100.23","","","","-14","","Snow"
"-68.21","48.61","MONT JOLI A","7055121","2019-01-04 03:00","2019","01","04","03:00","-9.0","","-11.7","","81","","","","17","","10","","16.1","","100.12","","","","-14","","Snow"
"-68.21","48.61","MONT JOLI A","7055121","2019-01-04 04:00","2019","01","04","04:00","-8.1","","-10.9","","81","","","","16","","15","","16.1","","100.05","","","","-14","","Snow"
"-68.21","48.61","MONT JOLI A","7055121","2019-01-04 05:00","2019","01","04","05:00","-8.5","","-11.6","","79","","","","15","","14","","24.1","","99.92","","","","-15","","Snow"
"-68.21","48.61","MONT JOLI A","7055121","2019-01-04 06:00","2019","01","04","06:00","-7.8","","-10.8","","79","","","","17","","15","","8.1","","99.88","","","","-14","","Snow"
"-68.21","48.61","MONT JOLI A","7055121","2019-01-04 07:00","2019","01","04","07:00","-7.2","","-9.1","","87","","","","16","","8","","2.4","","99.83","","","","-11","","Snow"
"-68.21","48.61","MONT JOLI A","7055121","2019-01-04 08:00","2019","01","04","08:00","-5.5","","-7.8","","84","","","","22","","10","","3.2","","99.78","","","","-10","","Snow"
"-68.21","48.61","MONT JOLI A","7055121","2019-01-04 09:00","2019","01","04","09:00","-3.9","","-6.9","","80","","","","20","","16","","4.8","","99.74","","","","-9","","Snow"
"-68.21","48.61","MONT JOLI A","7055121","2019-01-04 10:00","2019","01","04","10:00","-2.9","","-6.2","","78","","","","19","","21","","4.8","","99.62","","","","-9","","Snow"
"-68.21","48.61","MONT JOLI A","7055121","2019-01-04 11:00","2019","01","04","11:00","-1.9","","-6.1","","73","","","","22","","22","","24.1","","99.52","","","","-8","","NA"
"-68.21","48.61","MONT JOLI A","7055121","2019-01-04 12:00","2019","01","04","12:00","-1.8","","-5.5","","76","","","","22","","20","","24.1","","99.46","","","","-8","","NA"
"-68.21","48.61","MONT JOLI A","7055121","2019-01-04 13:00","2019","01","04","13:00","-1.2","","-4.6","","77","","","","21","","21","","16.1","","99.42","","","","-7","","Snow"
"-68.21","48.61","MONT JOLI A","7055121","2019-01-04 14:00","2019","01","04","14:00","-0.9","","-4.3","","78","","","","21","","21","","24.1","","99.40","","","","-7","","NA"
"-68.21","48.61","MONT JOLI A","7055121","2019-01-04 15:00","2019","01","04","15:00","-0.6","","-4.0","","78","","","","21","","21","","24.1","","99.41","","","","-6","","NA"
"-68.21","48.61","MONT JOLI A","7055121","2019-01-04 16:00","2019","01","04","16:00","-0.5","","-3.5","","80","","","","21","","24","","16.1","","99.43","","","","-6","","Snow"
"-68.21","48.61","MONT JOLI A","7055121","2019-01-04 17:00","2019","01","04","17:00","-0.1","","-3.2","","79","","","","22","","17","","24.1","","99.45","","","","-5","","Snow"
"-68.21","48.61","MONT JOLI A","7055121","2019-01-04 18:00","2019","01","04","18:00","0.2","","-2.9","","80","","","","21","","26","","24.1","","99.52","","","","","","Snow"
"-68.21","48.61","MONT JOLI A","7055121","2019-01-04 19:00","2019","01","04","19:00","0.9","","-2.9","","76","","","","22","","21","","24.1","","99.57","","","","","","Snow"
"-68.21","48.61","MONT JOLI A","7055121","2019-01-04 20:00","2019","01","04","20:00","1.2","","-2.8","","74","","","","24","","21","","24.1","","99.61","","","","","","NA"
"-68.21","48.61","MONT JOLI A","7055121","2019-01-04 21:00","2019","01","04","21:00","1.5","","-2.7","","73","","","","24","","18","","24.1","","99.65","","","","","","NA"
"-68.21","48.61","MONT JOLI A","7055121","2019-01-04 22:00","2019","01","04","22:00","1.0","","-2.8","","76","","","","23","","18","","24.1","","99.67","","","","","","Mostly Cloudy"
"-68.21","48.61","MONT JOLI A","7055121","2019-01-04 23:00","2019","01","04","23:00","-0.2","","-3.6","","78","","","","22","","16","","24.1","","99.72","","","","-5","","NA"
"-68.21","48.61","MONT JOLI A","7055121","2019-01-05 00:00","2019","01","05","00:00","-0.4","","-3.2","","81","","","","20","","18","","24.1","","99.78","","","","-5","","NA"
"-68.21","48.61","MONT JOLI A","7055121","2019-01-05 01:00","2019","01","05","01:00","-0.6","","-3.2","","83","","","","21","","19","","24.1","","99.81","","","","-6","","Clear"
"-68.21","48.61","MONT JOLI A","7055121","2019-01-05 02:00","2019","01","05","02:00","-0.2","","-2.9","","82","","","","21","","17","","24.1","","99.86","","","","-5","","NA"
"-68.21","48.61","MONT JOLI A","7055121","2019-01-05 03:00","2019","01","05","03:00","-0.3","","-3.1","","81","","","","21","","16","","24.1","","99.86","","","","-5","","NA"
"-68.21","48.61","MONT JOLI A","7055121","2019-01-05 04:00","2019","01","05","04:00","-0.4","","-3.5","","80","","","","21","","12","","24.1","","99.85","","","","-4","","Mainly Clear"
"-68.21","48.61","MONT JOLI A","7055121","2019-01-05 05:00","2019","01","05","05:00","-0.6","","-3.7","","80","","","","18","","8","","24.1","","99.81","","","","-3","","NA"
"-68.21","48.61","MONT JOLI A","7055121","2019-01-05 06:00","2019","01","05","06:00","-0.8","","-3.5","","82","","","","21","","11","","24.1","","99.87","","","","-5","","NA"
"-68.21","48.61","MONT JOLI A","7055121","2019-01-05 07:00","2019","01","05","07:00","-1.1","","-3.7","","83","","","","36","","2","","24.1","","99.93","","","","-2","","Cloudy"
"-68.21","48.61","MONT JOLI A","7055121","2019-01-05 08:00","2019","01","05","08:00","-1.9","","-4.1","","85","","","","10","","5","","24.1","","99.93","","","","-4","","NA"
"-68.21","48.61","MONT JOLI A","7055121","2019-01-05 09:00","2019","01","05","09:00","-1.1","","-3.7","","82","","","","16","","10","","24.1","","99.97","","","","-5","","NA"
"-68.21","48.61","MONT JOLI A","7055121","2019-01-05 10:00","2019","01","05","10:00","-0.7","","-3.3","","83","","","","30","","7","","24.1","","100.00","","","","-3","","Cloudy"
"-68.21","48.61","MONT JOLI A","7055121","2019-01-05 11:00","2019","01","05","11:00","0.3","","-2.6","","81","","","","25","","6","","24.1","","99.96","","","","","","NA"
"-68.21","48.61","MONT JOLI A","7055121","2019-01-05 12:00","2019","01","05","12:00","1.2","","-2.1","","78","","","","21","","7","","24.1","","99.90","","","","","","NA"
"-68.21","48.61","MONT JOLI A","7055121","2019-01-05 13:00","2019","01","05","13:00","1.6","","-2.0","","77","","","","15","","8","","24.1","","99.81","","","","","","Cloudy"
"-68.21","48.61","MONT JOLI A","7055121","2019-01-05 14:00","2019","01","05","14:00","1.4","","-2.1","","77","","","","14","","3","","24.1","","99.80","","","","","","NA"
"-68.21","48.61","MONT JOLI A","7055121","2019-01-05 15:00","2019","01","05","15:00","-1.2","","-2.3","","92","","","","5","","7","","24.1","","99.78","","","","-4","","NA"
"-68.21","48.61","MONT JOLI A","7055121","2019-01-05 16:00","2019","01","05","16:00","0.4","","-2.0","","84","","","","15","","11","","24.1","","99.77","","","","","","Cloudy"
"-68.21","48.61","MONT JOLI A","7055121","2019-01-05 17:00","2019","01","05","17:00","-1.1","","-2.5","","90","","","","35","","5","","24.1","","99.76","","","","-3","","NA"
"-68.21","48.61","MONT JOLI A","7055121","2019-01-05 18:00","2019","01","05","18:00","-1.8","","-3.0","","91","","","","8","","3","","24.1","","99.80","","","","-3","","NA"
"-68.21","48.61","MONT JOLI A","7055121","2019-01-05 19:00","2019","01","05","19:00","-1.5","","-3.0","","89","","","","13","","4","","24.1","","99.82","","","","-3","","Cloudy"
"-68.21","48.61","MONT JOLI A","7055121","2019-01-05 20:00","2019","01","05","20:00","-2.4","","-3.2","","94","","","","34","","6","","24.1","","99.80","","","","-5","","NA"
"-68.21","48.61","MONT JOLI A","7055121","2019-01-05 21:00","2019","01","05","21:00","-2.4","","-3.2","","94","","","","36","","2","","24.1","","99.76","","","","-3","","NA"
"-68.21","48.61","MONT JOLI A","7055121","2019-01-05 22:00","2019","01","05","22:00","-2.4","","-3.0","","96","","","","36","","4","","24.1","","99.70","","","","-4","","Cloudy"
"-68.21","48.61","MONT JOLI A","7055121","2019-01-05 23:00","2019","01","05","23:00","-2.3","","-3.0","","95","","","","13","","4","","12.9","","99.66","","","","-4","","Snow"
"-68.21","48.61","MONT JOLI A","7055121","2019-01-06 00:00","2019","01","06","00:00","-2.7","","-3.3","","96","","","","11","","7","","24.1","","99.58","","","","-6","","Snow"
"-68.21","48.61","MONT JOLI A","7055121","2019-01-06 01:00","2019","01","06","01:00","-2.2","","-3.3","","92","","","","31","","13","","16.1","","99.61","","","","-7","","Snow"
"-68.21","48.61","MONT JOLI A","7055121","2019-01-06 02:00","2019","01","06","02:00","-2.2","","-2.7","","96","","","","36","","9","","4.8","","99.63","","","","-6","","Snow,Fog"
"-68.21","48.61","MONT JOLI A","7055121","2019-01-06 03:00","2019","01","06","03:00","-2.4","","-2.8","","97","","","","36","","2","","1.0","","99.59","","","","-3","","Snow,Fog"
"-68.21","48.61","MONT JOLI A","7055121","2019-01-06 04:00","2019","01","06","04:00","-2.5","","-3.0","","97","","","","3","","6","","1.0","","99.56","","","","-5","","Snow,Fog"
"-68.21","48.61","MONT JOLI A","7055121","2019-01-06 05:00","2019","01","06","05:00","-2.4","","-2.9","","97","","","","36","","8","","2.4","","99.57","","","","-6","","Snow,Fog"
"-68.21","48.61","MONT JOLI A","7055121","2019-01-06 06:00","2019","01","06","06:00","-2.4","","-2.9","","96","","","","2","","10","","2.8","","99.60","","","","-6","","Snow"
"-68.21","48.61","MONT JOLI A","7055121","2019-01-06 07:00","2019","01","06","07:00","-2.4","","-2.8","","97","","","","33","","13","","2.8","","99.65","","","","-7","","Snow"
"-68.21","48.61","MONT JOLI A","7055121","2019-01-06 08:00","2019","01","06","08:00","-2.3","","-2.8","","97","","","","30","","14","","2.4","","99.71","","","","-7","","Snow"
"-68.21","48.61","MONT JOLI A","7055121","2019-01-06 09:00","2019","01","06","09:00","-2.8","","-3.4","","96","","","","29","","14","","16.1","","99.77","","","","-8","","Snow"
"-68.21","48.61","MONT JOLI A","7055121","2019-01-06 10:00","2019","01","06","10:00","-2.3","","-4.7","","84","","","","29","","16","","24.1","","99.80","","","","-7","","Cloudy"
"-68.21","48.61","MONT JOLI A","7055121","2019-01-06 11:00","2019","01","06","11:00","-2.6","","-5.2","","82","","","","31","","19","","24.1","","99.78","","","","-8","","Snow"
"-68.21","48.61","MONT JOLI A","7055121","2019-01-06 12:00","2019","01","06","12:00","-3.3","","-4.5","","91","","","","30","","18","","1.2","","99.79","","","","-9","","Snow"
"-68.21","48.61","MONT JOLI A","7055121","2019-01-06 13:00","2019","01","06","13:00","-2.3","","-5.0","","82","","","","32","","25","","48.3","","99.84","","","","-9","","Snow"
"-68.21","48.61","MONT JOLI A","7055121","2019-01-06 14:00","2019","01","06","14:00","-3.2","","-6.2","","80","","","","33","","38","","16.1","","99.96","","","","-11","","Snow"
"-68.21","48.61","MONT JOLI A","7055121","2019-01-06 15:00","2019","01","06","15:00","-4.2","","-7.8","","76","","","","32","","34","","24.1","","100.08","","","","-12","","Snow,Blowing Snow"
"-68.21","48.61","MONT JOLI A","7055121","2019-01-06 16:00","2019","01","06","16:00","-4.6","","-8.5","","74","","","","34","","34","","24.1","","100.20","","","","-13","","Snow,Blowing Snow"
"-68.21","48.61","MONT JOLI A","7055121","2019-01-06 17:00","2019","01","06","17:00","-5.1","","-9.4","","72","","","","33","","41","","24.1","","100.34","","","","-14","","Snow"
"-68.21","48.61","MONT JOLI A","7055121","2019-01-06 18:00","2019","01","06","18:00","-6.1","","-10.6","","71","","","","33","","40","","24.1","","100.50","","","","-16","","NA"
"-68.21","48.61","MONT JOLI A","7055121","2019-01-06 19:00","2019","01","06","19:00","-7.2","","-12.1","","68","","","","34","","36","","24.1","","100.71","","","","-17","","Cloudy"
"-68.21","48.61","MONT JOLI A","7055121","2019-01-06 20:00","2019","01","06","20:00","-8.0","","-12.9","","68","","","","34","","36","","24.1","","100.85","","","","-18","","NA"
"-68.21","48.61","MONT JOLI A","7055121","2019-01-06 21:00","2019","01","06","21:00","-8.9","","-13.9","","68","","","","33","","34","","24.1","","100.97","","","","-19","","NA"
"-68.21","48.61","MONT JOLI A","7055121","2019-01-06 22:00","2019","01","06","22:00","-10.0","","-16.1","","61","","","","33","","32","","24.1","","101.06","","","","-20","","Cloudy"
"-68.21","48.61","MONT JOLI A","7055121","2019-01-06 23:00","2019","01","06","23:00","-11.0","","-17.8","","58","","","","32","","33","","48.3","","101.17","","","","-21","","NA"
"-68.21","48.61","MONT JOLI A","7055121","2019-01-07 00:00","2019","01","07","00:00","-12.2","","-19.0","","57","","","","34","","33","","48.3","","101.27","","","","-23","","NA"
"-68.21","48.61","MONT JOLI A","7055121","2019-01-07 01:00","2019","01","07","01:00","-12.9","","-20.1","","55","","","","34","","32","","48.3","","101.41","","","","-24","","Mainly Clear"
"-68.21","48.61","MONT JOLI A","7055121","2019-01-07 02:00","2019","01","07","02:00","-13.6","","-20.9","","55","","","","33","","32","","48.3","","101.56","","","","-25","","NA"
"-68.21","48.61","MONT JOLI A","7055121","2019-01-07 03:00","2019","01","07","03:00","-13.7","","-20.7","","56","","","","33","","28","","48.3","","101.70","","","","-24","","NA"
"-68.21","48.61","MONT JOLI A","7055121","2019-01-07 04:00","2019","01","07","04:00","-14.2","","-20.5","","60","","","","32","","33","","48.3","","101.78","","","","-25","","Clear"
"-68.21","48.61","MONT JOLI A","7055121","2019-01-07 05:00","2019","01","07","05:00","-14.8","","-20.3","","63","","","","33","","28","","48.3","","101.92","","","","-25","","NA"
"-68.21","48.61","MONT JOLI A","7055121","2019-01-07 06:00","2019","01","07","06:00","-15.1","","-21.6","","59","","","","34","","34","","48.3","","102.05","","","","-27","","NA"
"-68.21","48.61","MONT JOLI A","7055121","2019-01-07 07:00","2019","01","07","07:00","-15.6","","-22.1","","58","","","","35","","26","","48.3","","102.16","","","","-26","","Mainly Clear"
"-68.21","48.61","MONT JOLI A","7055121","2019-01-07 08:00","2019","01","07","08:00","-15.2","","-22.2","","56","","","","33","","22","","48.3","","102.28","","","","-25","","NA"
"-68.21","48.61","MONT JOLI A","7055121","2019-01-07 09:00","2019","01","07","09:00","-14.8","","-22.2","","54","","","","32","","28","","48.3","","102.33","","","","-25","","NA"
"-68.21","48.61","MONT JOLI A","7055121","2019-01-07 10:00","2019","01","07","10:00","-14.5","","-21.4","","57","","","","31","","30","","48.3","","102.46","","","","-25","","Clear"
"-68.21","48.61","MONT JOLI A","7055121","2019-01-07 11:00","2019","01","07","11:00","-14.0","","-20.7","","58","","","","32","","26","","48.3","","102.45","","","","-24","","NA"
"-68.21","48.61","MONT JOLI A","7055121","2019-01-07 12:00","2019","01","07","12:00","-13.2","","-20.0","","57","","","","32","","19","","48.3","","102.39","","","","-22","","NA"
"-68.21","48.61","MONT JOLI A","7055121","2019-01-07 13:00","2019","01","07","13:00","-12.4","","-19.5","","56","","","","35","","11","","48.3","","102.36","","","","-18","","Clear"
"-68.21","48.61","MONT JOLI A","7055121","2019-01-07 14:00","2019","01","07","14:00","-12.0","","-18.9","","57","","","","35","","16","","48.3","","102.34","","","","-19","","NA"
"-68.21","48.61","MONT JOLI A","7055121","2019-01-07 15:00","2019","01","07","15:00","-11.6","","-18.4","","57","","","","31","","12","","48.3","","102.42","","","","-18","","NA"
"-68.21","48.61","MONT JOLI A","7055121","2019-01-07 16:00","2019","01","07","16:00","-12.3","","-18.1","","62","","","","26","","7","","48.3","","102.44","","","","-17","","Mainly Clear"
"-68.21","48.61","MONT JOLI A","7055121","2019-01-07 17:00","2019","01","07","17:00","-16.0","","-19.9","","72","","","","16","","8","","48.3","","102.44","","","","-22","","NA"
"-68.21","48.61","MONT JOLI A","7055121","2019-01-07 18:00","2019","01","07","18:00","-16.9","","-20.5","","74","","","","16","","8","","48.3","","102.42","","","","-23","","NA"
"-68.21","48.61","MONT JOLI A","7055121","2019-01-07 19:00","2019","01","07","19:00","-17.0","","-20.3","","76","","","","17","","9","","48.3","","102.35","","","","-23","","Clear"
"-68.21","48.61","MONT JOLI A","7055121","2019-01-07 20:00","2019","01","07","20:00","-16.9","","-20.1","","76","","","","17","","8","","48.3","","102.36","","","","-23","","NA"
"-68.21","48.61","MONT JOLI A","7055121","2019-01-07 21:00","2019","01","07","21:00","-16.2","","-19.8","","75","","","","17","","9","","48.3","","102.37","","","","-22","","NA"
"-68.21","48.61","MONT JOLI A","7055121","2019-01-07 22:00","2019","01","07","22:00","-16.0","","-19.4","","76","","","","17","","8","","48.3","","102.33","","","","-22","","Mainly Clear"
"-68.21","48.61","MONT JOLI A","7055121","2019-01-07 23:00","2019","01","07","23:00","-16.4","","-19.9","","75","","","","16","","12","","48.3","","102.23","","","","-24","","NA"
"-68.21","48.61","MONT JOLI A","7055121","2019-01-08 00:00","2019","01","08","00:00","-16.7","","-20.2","","75","","","","15","","14","","48.3","","102.13","","","","-25","","NA"
"-68.21","48.61","MONT JOLI A","7055121","2019-01-08 01:00","2019","01","08","01:00","-15.9","","-19.5","","74","","","","15","","15","","48.3","","102.03","","","","-24","","Mainly Clear"
"-68.21","48.61","MONT JOLI A","7055121","2019-01-08 02:00","2019","01","08","02:00","-14.9","","-18.6","","74","","","","13","","13","","48.3","","101.94","","","","-22","","NA"
"-68.21","48.61","MONT JOLI A","7055121","2019-01-08 03:00","2019","01","08","03:00","-14.4","","-18.8","","70","","","","14","","15","","48.3","","101.82","","","","-22","","NA"
"-68.21","48.61","MONT JOLI A","7055121","2019-01-08 04:00","2019","01","08","04:00","-13.5","","-18.3","","68","","","","15","","8","","48.3","","101.71","","","","-19","","Mostly Cloudy"
"-68.21","48.61","MONT JOLI A","7055121","2019-01-08 05:00","2019","01","08","05:00","-13.8","","-18.1","","70","","","","11","","14","","48.3","","101.62","","","","-21","","NA"
"-68.21","48.61","MONT JOLI A","7055121","2019-01-08 06:00","2019","01","08","06:00","-13.2","","-17.9","","68","","","","7","","9","","48.3","","101.50","","","","-19","","NA"
"-68.21","48.61","MONT JOLI A","7055121","2019-01-08 07:00","2019","01","08","07:00","-12.5","","-17.5","","67","","","","6","","10","","24.1","","101.41","","","","-18","","Cloudy"
"-68.21","48.61","MONT JOLI A","7055121","2019-01-08 08:00","2019","01","08","08:00","-9.6","","-17.5","","53","","","","12","","13","","24.1","","101.28","","","","-16","","NA"
"-68.21","48.61","MONT JOLI A","7055121","2019-01-08 09:00","2019","01","08","09:00","-8.6","","-17.0","","51","","","","17","","21","","8.1","","101.34","","","","-16","","Snow"
"-68.21","48.61","MONT JOLI A","7055121","2019-01-08 10:00","2019","01","08","10:00","-9.7","","-12.8","","78","","","","14","","19","","1.6","","101.17","","","","-17","","Snow"
"-68.21","48.61","MONT JOLI A","7055121","2019-01-08 11:00","2019","01","08","11:00","-8.6","","-12.5","","74","","","","15","","30","","3.2","","100.98","","","","-18","","Snow"
"-68.21","48.61","MONT JOLI A","7055121","2019-01-08 12:00","2019","01","08","12:00","-7.6","","-11.4","","74","","","","18","","19","","2.8","","100.90","","","","-15","","Snow"
"-68.21","48.61","MONT JOLI A","7055121","2019-01-08 13:00","2019","01","08","13:00","-6.7","","-11.7","","67","","","","18","","13","","24.1","","100.77","","","","-12","","Snow"
"-68.21","48.61","MONT JOLI A","7055121","2019-01-08 14:00","2019","01","08","14:00","-6.0","","-11.0","","68","","","","18","","8","","16.1","","100.76","","","","-10","","Snow"
"-68.21","48.61","MONT JOLI A","7055121","2019-01-08 15:00","2019","01","08","15:00","-5.5","","-9.8","","72","","","","17","","14","","8.1","","100.71","","","","-11","","Snow"
"-68.21","48.61","MONT JOLI A","7055121","2019-01-08 16:00","2019","01","08","16:00","-5.9","","-8.7","","81","","","","13","","11","","4.8","","100.69","","","","-11","","Snow"
"-68.21","48.61","MONT JOLI A","7055121","2019-01-08 17:00","2019","01","08","17:00","-5.8","","-8.4","","82","","","","13","","10","","2.8","","100.67","","","","-10","","Snow"
"-68.21","48.61","MONT JOLI A","7055121","2019-01-08 18:00","2019","01","08","18:00","-5.3","","-8.6","","78","","","","14","","14","","8.1","","100.66","","","","-11","","Snow"
"-68.21","48.61","MONT JOLI A","7055121","2019-01-08 19:00","2019","01","08","19:00","-5.0","","-8.7","","75","","","","16","","12","","48.3","","100.65","","","","-10","","Cloudy"
"-68.21","48.61","MONT JOLI A","7055121","2019-01-08 20:00","2019","01","08","20:00","-4.6","","-8.4","","75","","","","14","","12","","48.3","","100.65","","","","-9","","Snow"
"-68.21","48.61","MONT JOLI A","7055121","2019-01-08 21:00","2019","01","08","21:00","-4.7","","-8.3","","76","","","","15","","8","","48.3","","100.62","","","","-8","","NA"
"-68.21","48.61","MONT JOLI A","7055121","2019-01-08 22:00","2019","01","08","22:00","-4.4","","-8.1","","75","","","","15","","8","","48.3","","100.60","","","","-8","","Cloudy"
"-68.21","48.61","MONT JOLI A","7055121","2019-01-08 23:00","2019","01","08","23:00","-4.9","","-8.4","","77","","","","14","","28","","48.3","","100.52","","","","-13","","NA"
"-68.21","48.61","MONT JOLI A","7055121","2019-01-09 00:00","2019","01","09","00:00","-4.4","","-8.4","","74","","","","15","","28","","48.3","","100.43","","","","-12","","NA"
"-68.21","48.61","MONT JOLI A","7055121","2019-01-09 01:00","2019","01","09","01:00","-4.3","","-8.4","","73","","","","11","","18","","24.1","","100.41","","","","-10","","Cloudy"
"-68.21","48.61","MONT JOLI A","7055121","2019-01-09 02:00","2019","01","09","02:00","-4.3","","-8.2","","75","","","","10","","10","","16.1","","100.43","","","","-8","","NA"
"-68.21","48.61","MONT JOLI A","7055121","2019-01-09 03:00","2019","01","09","03:00","-4.7","","-7.7","","79","","","","6","","16","","16.1","","100.39","","","","-10","","Snow"
"-68.21","48.61","MONT JOLI A","7055121","2019-01-09 04:00","2019","01","09","04:00","-4.3","","-7.5","","78","","","","10","","27","","9.7","","100.25","","","","-12","","Snow"
"-68.21","48.61","MONT JOLI A","7055121","2019-01-09 05:00","2019","01","09","05:00","-4.0","","-7.6","","76","","","","8","","24","","24.1","","100.18","","","","-11","","Snow"
"-68.21","48.61","MONT JOLI A","7055121","2019-01-09 06:00","2019","01","09","06:00","-4.0","","-6.8","","81","","","","6","","23","","24.1","","100.08","","","","-11","","Snow"
"-68.21","48.61","MONT JOLI A","7055121","2019-01-09 07:00","2019","01","09","07:00","-3.8","","-6.5","","81","","","","6","","26","","24.1","","100.01","","","","-11","","Snow"
"-68.21","48.61","MONT JOLI A","7055121","2019-01-09 08:00","2019","01","09","08:00","-3.8","","-5.6","","87","","","","6","","34","","3.2","","99.98","","","","-12","","Snow,Blowing Snow"
"-68.21","48.61","MONT JOLI A","7055121","2019-01-09 09:00","2019","01","09","09:00","-3.6","","-5.0","","90","","","","7","","39","","2.4","","99.90","","","","-12","","Snow,Blowing Snow"
"-68.21","48.61","MONT JOLI A","7055121","2019-01-09 10:00","2019","01","09","10:00","-2.9","","-4.5","","89","","","","6","","42","","8.1","","99.79","","","","-11","","Snow,Blowing Snow"
"-68.21","48.61","MONT JOLI A","7055121","2019-01-09 11:00","2019","01","09","11:00","-2.3","","-3.8","","89","","","","7","","36","","4.8","","99.64","","","","-10","","Snow,Blowing Snow"
"-68.21","48.61","MONT JOLI A","7055121","2019-01-09 12:00","2019","01","09","12:00","-2.1","","-3.2","","93","","","","6","","35","","3.2","","99.51","","","","-10","","Snow,Blowing Snow"
"-68.21","48.61","MONT JOLI A","7055121","2019-01-09 13:00","2019","01","09","13:00","-2.2","","-3.3","","93","","","","6","","36","","3.2","","99.35","","","","-10","","Snow,Blowing Snow"
"-68.21","48.61","MONT JOLI A","7055121","2019-01-09 14:00","2019","01","09","14:00","-2.5","","-3.5","","93","","","","6","","54","","3.2","","99.27","","","","-12","","Snow,Blowing Snow"
"-68.21","48.61","MONT JOLI A","7055121","2019-01-09 15:00","2019","01","09","15:00","-2.5","","-3.8","","90","","","","5","","37","","2.4","","99.20","","","","-10","","Snow,Blowing Snow"
"-68.21","48.61","MONT JOLI A","7055121","2019-01-09 16:00","2019","01","09","16:00","-2.4","","-3.9","","90","","","","5","","55","","3.2","","99.11","","","","-12","","Snow,Blowing Snow"
"-68.21","48.61","MONT JOLI A","7055121","2019-01-09 17:00","2019","01","09","17:00","-2.2","","-3.4","","92","","","","5","","50","","0.8","","98.99","","","","-11","","Moderate Snow,Blowing Snow"
"-68.21","48.61","MONT JOLI A","7055121","2019-01-09 18:00","2019","01","09","18:00","-2.8","","-4.0","","92","","","","5","","57","","0.4","","98.94","","","","-12","","Moderate Snow,Blowing Snow"
"-68.21","48.61","MONT JOLI A","7055121","2019-01-09 19:00","2019","01","09","19:00","-3.1","","-4.6","","89","","","","5","","61","","0.6","","98.87","","","","-13","","Moderate Snow,Blowing Snow"
"-68.21","48.61","MONT JOLI A","7055121","2019-01-09 20:00","2019","01","09","20:00","-3.2","","-4.8","","89","","","","5","","60","","0.4","","98.81","","","","-13","","Snow,Blowing Snow"
"-68.21","48.61","MONT JOLI A","7055121","2019-01-09 21:00","2019","01","09","21:00","-3.8","","-5.1","","91","","","","5","","61","","0.4","","98.75","","","","-14","","Snow,Blowing Snow"
"-68.21","48.61","MONT JOLI A","7055121","2019-01-09 22:00","2019","01","09","22:00","-4.5","","-6.1","","89","","","","5","","59","","0.4","","98.70","","","","-15","","Moderate Snow,Blowing Snow"
"-68.21","48.61","MONT JOLI A","7055121","2019-01-09 23:00","2019","01","09","23:00","-4.4","","-6.2","","87","","","","4","","63","","0.4","","98.61","","","","-15","","Snow,Blowing Snow"
"-68.21","48.61","MONT JOLI A","7055121","2019-01-10 00:00","2019","01","10","00:00","-4.3","","-6.4","","85","","","","4","","55","","1.0","","98.53","","","","-14","","Snow,Blowing Snow"
"-68.21","48.61","MONT JOLI A","7055121","2019-01-10 01:00","2019","01","10","01:00","-4.3","","-5.8","","90","","","","5","","46","","0.8","","98.52","","","","-14","","Snow,Blowing Snow"
"-68.21","48.61","MONT JOLI A","7055121","2019-01-10 02:00","2019","01","10","02:00","-4.2","","-5.5","","90","","","","4","","43","","0.8","","98.51","","","","-13","","Snow,Blowing Snow"
"-68.21","48.61","MONT JOLI A","7055121","2019-01-10 03:00","2019","01","10","03:00","-3.9","","-5.5","","88","","","","4","","42","","1.0","","98.47","","","","-13","","Snow,Blowing Snow"
"-68.21","48.61","MONT JOLI A","7055121","2019-01-10 04:00","2019","01","10","04:00","-3.7","","-5.7","","86","","","","5","","42","","1.2","","98.44","","","","-13","","Snow,Blowing Snow"
"-68.21","48.61","MONT JOLI A","7055121","2019-01-10 05:00","2019","01","10","05:00","-3.7","","-5.7","","86","","","","4","","42","","1.2","","98.44","","","","-13","","Snow,Blowing Snow"
"-68.21","48.61","MONT JOLI A","7055121","2019-01-10 06:00","2019","01","10","06:00","-3.6","","-5.9","","84","","","","4","","43","","2.4","","98.48","","","","-12","","Snow,Blowing Snow"
"-68.21","48.61","MONT JOLI A","7055121","2019-01-10 07:00","2019","01","10","07:00","-3.6","","-5.5","","87","","","","3","","46","","2.4","","98.52","","","","-13","","Snow,Blowing Snow"
"-68.21","48.61","MONT JOLI A","7055121","2019-01-10 08:00","2019","01","10","08:00","-3.7","","-6.0","","85","","","","1","","41","","2.4","","98.57","","","","-12","","Snow,Blowing Snow"
"-68.21","48.61","MONT JOLI A","7055121","2019-01-10 09:00","2019","01","10","09:00","-3.8","","-6.5","","82","","","","1","","43","","4.8","","98.62","","","","-13","","Snow,Blowing Snow"
"-68.21","48.61","MONT JOLI A","7055121","2019-01-10 10:00","2019","01","10","10:00","-3.7","","-7.0","","78","","","","1","","36","","16.1","","98.65","","","","-12","","Snow,Blowing Snow"
"-68.21","48.61","MONT JOLI A","7055121","2019-01-10 11:00","2019","01","10","11:00","-4.0","","-6.1","","85","","","","35","","31","","2.0","","98.65","","","","-12","","Snow,Blowing Snow"
"-68.21","48.61","MONT JOLI A","7055121","2019-01-10 12:00","2019","01","10","12:00","-4.3","","-6.0","","88","","","","35","","37","","2.8","","98.67","","","","-13","","Snow,Blowing Snow"
"-68.21","48.61","MONT JOLI A","7055121","2019-01-10 13:00","2019","01","10","13:00","-4.2","","-6.5","","85","","","","35","","35","","2.8","","98.70","","","","-13","","Snow,Blowing Snow"
"-68.21","48.61","MONT JOLI A","7055121","2019-01-10 14:00","2019","01","10","14:00","-3.9","","-6.5","","83","","","","34","","33","","16.1","","98.75","","","","-12","","Snow,Blowing Snow"
"-68.21","48.61","MONT JOLI A","7055121","2019-01-10 15:00","2019","01","10","15:00","-3.9","","-6.9","","80","","","","35","","31","","24.1","","98.82","","","","-12","","Snow,Blowing Snow"
"-68.21","48.61","MONT JOLI A","7055121","2019-01-10 16:00","2019","01","10","16:00","-4.1","","-7.5","","77","","","","34","","35","","24.1","","98.88","","","","-12","","Snow,Blowing Snow"
"-68.21","48.61","MONT JOLI A","7055121","2019-01-10 17:00","2019","01","10","17:00","-4.5","","-6.2","","88","","","","34","","31","","4.0","","98.93","","","","-12","","Snow"
"-68.21","48.61","MONT JOLI A","7055121","2019-01-10 18:00","2019","01","10","18:00","-4.5","","-7.7","","78","","","","35","","34","","16.1","","98.99","","","","-13","","Snow"
"-68.21","48.61","MONT JOLI A","7055121","2019-01-10 19:00","2019","01","10","19:00","-5.1","","-7.6","","83","","","","34","","29","","6.4","","99.03","","","","-13","","Snow"
"-68.21","48.61","MONT JOLI A","7055121","2019-01-10 20:00","2019","01","10","20:00","-5.3","","-8.9","","76","","","","33","","27","","24.1","","99.08","","","","-13","","Snow"
"-68.21","48.61","MONT JOLI A","7055121","2019-01-10 21:00","2019","01","10","21:00","-5.5","","-9.4","","74","","","","33","","30","","24.1","","99.11","","","","-14","","Snow"
"-68.21","48.61","MONT JOLI A","7055121","2019-01-10 22:00","2019","01","10","22:00","-5.8","","-9.7","","74","","","","32","","28","","24.1","","99.14","","","","-14","","Snow"
"-68.21","48.61","MONT JOLI A","7055121","2019-01-10 23:00","2019","01","10","23:00","-5.9","","-10.1","","72","","","","32","","32","","24.1","","99.15","","","","-14","","Snow"
"-68.21","48.61","MONT JOLI A","7055121","2019-01-11 00:00","2019","01","11","00:00","-6.0","","-10.2","","72","","","","31","","26","","24.1","","99.18","","","","-14","","Snow"
"-68.21","48.61","MONT JOLI A","7055121","2019-01-11 01:00","2019","01","11","01:00","-6.0","","-10.7","","70","","","","31","","28","","48.3","","99.24","","","","-14","","Snow"
"-68.21","48.61","MONT JOLI A","7055121","2019-01-11 02:00","2019","01","11","02:00","-6.0","","-11.0","","68","","","","30","","33","","48.3","","99.31","","","","-15","","Snow"
"-68.21","48.61","MONT JOLI A","7055121","2019-01-11 03:00","2019","01","11","03:00","-6.8","","-9.5","","81","","","","28","","36","","24.1","","99.38","","","","-16","","Snow"
"-68.21","48.61","MONT JOLI A","7055121","2019-01-11 04:00","2019","01","11","04:00","-8.1","","-10.7","","82","","","","28","","38","","2.4","","99.45","","","","-18","","Snow"
"-68.21","48.61","MONT JOLI A","7055121","2019-01-11 05:00","2019","01","11","05:00","-9.3","","-12.1","","80","","","","27","","34","","2.8","","99.54","","","","-19","","Snow,Blowing Snow"
"-68.21","48.61","MONT JOLI A","7055121","2019-01-11 06:00","2019","01","11","06:00","-9.8","","-13.4","","75","","","","28","","37","","4.8","","99.64","","","","-20","","Snow,Blowing Snow"
"-68.21","48.61","MONT JOLI A","7055121","2019-01-11 07:00","2019","01","11","07:00","-10.4","","-13.4","","79","","","","27","","30","","3.2","","99.71","","","","-20","","Snow,Blowing Snow"
"-68.21","48.61","MONT JOLI A","7055121","2019-01-11 08:00","2019","01","11","08:00","-10.8","","-13.6","","80","","","","28","","33","","2.4","","99.82","","","","-21","","Snow,Blowing Snow"
"-68.21","48.61","MONT JOLI A","7055121","2019-01-11 09:00","2019","01","11","09:00","-11.2","","-14.5","","77","","","","26","","31","","3.2","","99.89","","","","-21","","Snow,Blowing Snow"
"-68.21","48.61","MONT JOLI A","7055121","2019-01-11 10:00","2019","01","11","10:00","-11.4","","-14.5","","78","","","","26","","35","","2.4","","99.95","","","","-22","","Snow,Blowing Snow"
"-68.21","48.61","MONT JOLI A","7055121","2019-01-11 11:00","2019","01","11","11:00","-11.7","","-14.6","","79","","","","26","","37","","1.2","","99.96","","","","-23","","Snow,Blowing Snow"
"-68.21","48.61","MONT JOLI A","7055121","2019-01-11 12:00","2019","01","11","12:00","-11.8","","-14.8","","79","","","","26","","34","","1.2","","99.97","","","","-22","","Snow,Blowing Snow"
"-68.21","48.61","MONT JOLI A","7055121","2019-01-11 13:00","2019","01","11","13:00","-11.9","","-16.0","","72","","","","25","","37","","4.0","","100.02","","","","-23","","Snow,Blowing Snow"
"-68.21","48.61","MONT JOLI A","7055121","2019-01-11 14:00","2019","01","11","14:00","-11.6","","-15.7","","72","","","","25","","35","","6.4","","100.13","","","","-22","","Snow,Blowing Snow"
"-68.21","48.61","MONT JOLI A","7055121","2019-01-11 15:00","2019","01","11","15:00","-13.5","","-16.9","","76","","","","23","","31","","6.4","","100.23","","","","-24","","Snow,Blowing Snow"
"-68.21","48.61","MONT JOLI A","7055121","2019-01-11 16:00","2019","01","11","16:00","-12.0","","-16.0","","73","","","","26","","39","","12.9","","100.31","","","","-23","","Snow,Blowing Snow"
"-68.21","48.61","MONT JOLI A","7055121","2019-01-11 17:00","2019","01","11","17:00","-12.3","","-16.9","","69","","","","26","","38","","12.9","","100.41","","","","-24","","Snow,Blowing Snow"
"-68.21","48.61","MONT JOLI A","7055121","2019-01-11 18:00","2019","01","11","18:00","-13.0","","-16.6","","75","","","","27","","41","","2.8","","100.51","","","","-25","","Snow,Blowing Snow"
"-68.21","48.61","MONT JOLI A","7055121","2019-01-11 19:00","2019","01","11","19:00","-13.2","","-17.1","","73","","","","27","","35","","2.8","","100.54","","","","-24","","Snow,Blowing Snow"
"-68.21","48.61","MONT JOLI A","7055121","2019-01-11 20:00","2019","01","11","20:00","-13.3","","-17.3","","72","","","","28","","33","","4.8","","100.58","","","","-24","","Snow,Blowing Snow"
"-68.21","48.61","MONT JOLI A","7055121","2019-01-11 21:00","2019","01","11","21:00","-13.5","","-17.8","","70","","","","27","","33","","16.1","","100.64","","","","-25","","Snow,Blowing Snow"
"-68.21","48.61","MONT JOLI A","7055121","2019-01-11 22:00","2019","01","11","22:00","-14.0","","-18.4","","69","","","","27","","37","","16.1","","100.68","","","","-26","","Snow,Blowing Snow"
"-68.21","48.61","MONT JOLI A","7055121","2019-01-11 23:00","2019","01","11","23:00","-14.2","","-18.4","","71","","","","27","","32","","8.1","","100.75","","","","-25","","Snow,Blowing Snow"
"-68.21","48.61","MONT JOLI A","7055121","2019-01-12 00:00","2019","01","12","00:00","-14.7","","-18.5","","73","","","","27","","32","","8.1","","100.78","","","","-26","","Snow,Blowing Snow"
"-68.21","48.61","MONT JOLI A","7055121","2019-01-12 01:00","2019","01","12","01:00","-14.8","","-18.8","","72","","","","27","","35","","8.1","","100.84","","","","-27","","Snow,Blowing Snow"
"-68.21","48.61","MONT JOLI A","7055121","2019-01-12 02:00","2019","01","12","02:00","-15.0","","-18.7","","74","","","","27","","34","","8.1","","100.93","","","","-27","","Snow,Blowing Snow"
"-68.21","48.61","MONT JOLI A","7055121","2019-01-12 03:00","2019","01","12","03:00","-15.2","","-18.7","","75","","","","27","","35","","8.1","","100.98","","","","-27","","Snow,Blowing Snow"
"-68.21","48.61","MONT JOLI A","7055121","2019-01-12 04:00","2019","01","12","04:00","-15.4","","-19.4","","72","","","","27","","33","","8.1","","101.02","","","","-27","","Snow,Blowing Snow"
"-68.21","48.61","MONT JOLI A","7055121","2019-01-12 05:00","2019","01","12","05:00","-15.5","","-19.3","","73","","","","27","","35","","8.1","","101.07","","","","-27","","Snow,Blowing Snow"
"-68.21","48.61","MONT JOLI A","7055121","2019-01-12 06:00","2019","01","12","06:00","-15.5","","-18.7","","77","","","","28","","30","","8.1","","101.14","","","","-27","","Snow,Blowing Snow"
"-68.21","48.61","MONT JOLI A","7055121","2019-01-12 07:00","2019","01","12","07:00","-15.5","","-18.9","","76","","","","26","","32","","2.0","","101.23","","","","-27","","Snow,Blowing Snow"
"-68.21","48.61","MONT JOLI A","7055121","2019-01-12 08:00","2019","01","12","08:00","-15.3","","-18.8","","75","","","","26","","31","","4.0","","101.34","","","","-27","","Snow,Blowing Snow"
"-68.21","48.61","MONT JOLI A","7055121","2019-01-12 09:00","2019","01","12","09:00","-15.0","","-18.5","","75","","","","27","","33","","4.8","","101.40","","","","-27","","Snow,Blowing Snow"
"-68.21","48.61","MONT JOLI A","7055121","2019-01-12 10:00","2019","01","12","10:00","-14.9","","-18.2","","76","","","","26","","31","","4.8","","101.47","","","","-26","","Snow,Blowing Snow"
"-68.21","48.61","MONT JOLI A","7055121","2019-01-12 11:00","2019","01","12","11:00","-14.9","","-18.5","","74","","","","25","","36","","8.1","","101.49","","","","-27","","Snow,Blowing Snow"
"-68.21","48.61","MONT JOLI A","7055121","2019-01-12 12:00","2019","01","12","12:00","-14.3","","-17.8","","75","","","","25","","34","","4.8","","101.50","","","","-26","","Snow,Blowing Snow"
"-68.21","48.61","MONT JOLI A","7055121","2019-01-12 13:00","2019","01","12","13:00","-14.0","","-17.1","","78","","","","24","","28","","4.8","","101.55","","","","-24","","Snow,Blowing Snow"
"-68.21","48.61","MONT JOLI A","7055121","2019-01-12 14:00","2019","01","12","14:00","-13.6","","-16.8","","77","","","","24","","31","","16.1","","101.63","","","","-24","","Snow,Blowing Snow"
"-68.21","48.61","MONT JOLI A","7055121","2019-01-12 15:00","2019","01","12","15:00","-13.5","","-16.9","","76","","","","25","","32","","48.3","","101.71","","","","-24","","Blowing Snow"
"-68.21","48.61","MONT JOLI A","7055121","2019-01-12 16:00","2019","01","12","16:00","-13.6","","-17.0","","75","","","","25","","22","","48.3","","101.79","","","","-23","","Mainly Clear"
"-68.21","48.61","MONT JOLI A","7055121","2019-01-12 17:00","2019","01","12","17:00","-14.3","","-17.1","","80","","","","23","","22","","48.3","","101.88","","","","-24","","NA"
"-68.21","48.61","MONT JOLI A","7055121","2019-01-12 18:00","2019","01","12","18:00","-13.6","","-16.4","","80","","","","24","","27","","48.3","","101.95","","","","-24","","NA"
"-68.21","48.61","MONT JOLI A","7055121","2019-01-12 19:00","2019","01","12","19:00","-12.0","","-16.5","","70","","","","27","","27","","24.1","","102.04","","","","-22","","Mainly Clear"
"-68.21","48.61","MONT JOLI A","7055121","2019-01-12 20:00","2019","01","12","20:00","-12.4","","-16.6","","71","","","","26","","24","","24.1","","102.09","","","","-22","","Blowing Snow"
"-68.21","48.61","MONT JOLI A","7055121","2019-01-12 21:00","2019","01","12","21:00","-13.1","","-17.2","","71","","","","26","","28","","24.1","","102.12","","","","-23","","Blowing Snow"
"-68.21","48.61","MONT JOLI A","7055121","2019-01-12 22:00","2019","01","12","22:00","-13.2","","-17.2","","72","","","","26","","22","","24.1","","102.15","","","","-22","","Blowing Snow"
"-68.21","48.61","MONT JOLI A","7055121","2019-01-12 23:00","2019","01","12","23:00","-13.1","","-17.1","","72","","","","26","","22","","24.1","","102.14","","","","-22","","NA"
"-68.21","48.61","MONT JOLI A","7055121","2019-01-13 00:00","2019","01","13","00:00","-12.4","","-17.2","","68","","","","29","","26","","24.1","","102.13","","","","-22","","NA"
"-68.21","48.61","MONT JOLI A","7055121","2019-01-13 01:00","2019","01","13","01:00","-12.5","","-18.0","","64","","","","30","","30","","24.1","","102.17","","","","-23","","Mainly Clear"
"-68.21","48.61","MONT JOLI A","7055121","2019-01-13 02:00","2019","01","13","02:00","-12.5","","-17.9","","64","","","","30","","24","","24.1","","102.24","","","","-22","","NA"
"-68.21","48.61","MONT JOLI A","7055121","2019-01-13 03:00","2019","01","13","03:00","-12.4","","-17.8","","65","","","","30","","23","","24.1","","102.25","","","","-21","","NA"
"-68.21","48.61","MONT JOLI A","7055121","2019-01-13 04:00","2019","01","13","04:00","-12.8","","-18.6","","62","","","","30","","27","","24.1","","102.26","","","","-23","","Cloudy"
"-68.21","48.61","MONT JOLI A","7055121","2019-01-13 05:00","2019","01","13","05:00","-13.2","","-18.9","","62","","","","30","","28","","24.1","","102.26","","","","-23","","NA"
"-68.21","48.61","MONT JOLI A","7055121","2019-01-13 06:00","2019","01","13","06:00","-13.1","","-18.8","","63","","","","30","","28","","24.1","","102.28","","","","-23","","NA"
"-68.21","48.61","MONT JOLI A","7055121","2019-01-13 07:00","2019","01","13","07:00","-13.0","","-18.3","","65","","","","30","","28","","24.1","","102.30","","","","-23","","Cloudy"
"-68.21","48.61","MONT JOLI A","7055121","2019-01-13 08:00","2019","01","13","08:00","-13.0","","-18.2","","65","","","","30","","23","","48.3","","102.35","","","","-22","","NA"
"-68.21","48.61","MONT JOLI A","7055121","2019-01-13 09:00","2019","01","13","09:00","-12.8","","-17.9","","66","","","","29","","22","","48.3","","102.39","","","","-22","","NA"
"-68.21","48.61","MONT JOLI A","7055121","2019-01-13 10:00","2019","01","13","10:00","-12.8","","-18.1","","65","","","","29","","26","","48.3","","102.38","","","","-23","","Mostly Cloudy"
"-68.21","48.61","MONT JOLI A","7055121","2019-01-13 11:00","2019","01","13","11:00","-12.4","","-17.8","","64","","","","29","","21","","48.3","","102.33","","","","-21","","NA"
"-68.21","48.61","MONT JOLI A","7055121","2019-01-13 12:00","2019","01","13","12:00","-12.1","","-16.9","","68","","","","26","","21","","48.3","","102.28","","","","-21","","NA"
"-68.21","48.61","MONT JOLI A","7055121","2019-01-13 13:00","2019","01","13","13:00","-12.0","","-16.5","","69","","","","26","","19","","48.3","","102.22","","","","-20","","Mostly Cloudy"
"-68.21","48.61","MONT JOLI A","7055121","2019-01-13 14:00","2019","01","13","14:00","-11.7","","-16.9","","66","","","","25","","27","","48.3","","102.21","","","","-21","","NA"
"-68.21","48.61","MONT JOLI A","7055121","2019-01-13 15:00","2019","01","13","15:00","-11.7","","-16.3","","69","","","","24","","16","","48.3","","102.23","","","","-19","","NA"
"-68.21","48.61","MONT JOLI A","7055121","2019-01-13 16:00","2019","01","13","16:00","-11.6","","-16.4","","68","","","","23","","17","","48.3","","102.21","","","","-19","","Mostly Cloudy"
"-68.21","48.61","MONT JOLI A","7055121","2019-01-13 17:00","2019","01","13","17:00","-11.9","","-16.5","","69","","","","22","","14","","48.3","","102.20","","","","-19","","NA"
"-68.21","48.61","MONT JOLI A","7055121","2019-01-13 18:00","2019","01","13","18:00","-11.1","","-16.3","","66","","","","31","","19","","48.3","","102.24","","","","-19","","NA"
"-68.21","48.61","MONT JOLI A","7055121","2019-01-13 19:00","2019","01","13","19:00","-11.6","","-16.5","","68","","","","31","","24","","24.1","","102.25","","","","-21","","Mostly Cloudy"
"-68.21","48.61","MONT JOLI A","7055121","2019-01-13 20:00","2019","01","13","20:00","-12.9","","-17.5","","69","","","","31","","15","","24.1","","102.24","","","","-20","","NA"
"-68.21","48.61","MONT JOLI A","7055121","2019-01-13 21:00","2019","01","13","21:00","-13.3","","-17.5","","71","","","","30","","18","","24.1","","102.24","","","","-22","","NA"
"-68.21","48.61","MONT JOLI A","7055121","2019-01-13 22:00","2019","01","13","22:00","-13.5","","-17.6","","72","","","","28","","15","","24.1","","102.24","","","","-21","","Mostly Cloudy"
"-68.21","48.61","MONT JOLI A","7055121","2019-01-13 23:00","2019","01","13","23:00","-13.8","","-18.0","","71","","","","28","","14","","24.1","","102.20","","","","-21","","NA"
"-68.21","48.61","MONT JOLI A","7055121","2019-01-14 00:00","2019","01","14","00:00","-14.0","","-17.8","","73","","","","27","","10","","24.1","","102.14","","","","-20","","NA"
"-68.21","48.61","MONT JOLI A","7055121","2019-01-14 01:00","2019","01","14","01:00"
"-68.21","48.61","MONT JOLI A","7055121","2019-01-14 02:00","2019","01","14","02:00","-14.0","","-17.3","","77","","","","22","","9","","24.1","","102.08","","","","-20","","NA"
"-68.21","48.61","MONT JOLI A","7055121","2019-01-14 03:00","2019","01","14","03:00","-14.2","","-17.4","","77","","","","22","","14","","24.1","","102.07","","","","-22","","Snow"
"-68.21","48.61","MONT JOLI A","7055121","2019-01-14 04:00","2019","01","14","04:00","-14.3","","-16.9","","81","","","","22","","13","","16.1","","101.96","","","","-21","","Snow"
"-68.21","48.61","MONT JOLI A","7055121","2019-01-14 05:00","2019","01","14","05:00","-14.3","","-17.0","","81","","","","22","","13","","16.1","","101.91","","","","-21","","Snow"
"-68.21","48.61","MONT JOLI A","7055121","2019-01-14 06:00","2019","01","14","06:00","-14.3","","-17.2","","79","","","","21","","10","","16.1","","101.87","","","","-20","","Snow"
"-68.21","48.61","MONT JOLI A","7055121","2019-01-14 07:00","2019","01","14","07:00","-14.0","","-17.2","","77","","","","20","","14","","24.1","","101.80","","","","-21","","Snow"
"-68.21","48.61","MONT JOLI A","7055121","2019-01-14 08:00","2019","01","14","08:00","-13.7","","-17.5","","74","","","","21","","18","","24.1","","101.76","","","","-22","","NA"
"-68.21","48.61","MONT JOLI A","7055121","2019-01-14 09:00","2019","01","14","09:00","-13.1","","-17.0","","73","","","","21","","20","","24.1","","101.71","","","","-22","","NA"
"-68.21","48.61","MONT JOLI A","7055121","2019-01-14 10:00","2019","01","14","10:00","-12.7","","-16.5","","73","","","","20","","19","","24.1","","101.64","","","","-21","","Mostly Cloudy"
"-68.21","48.61","MONT JOLI A","7055121","2019-01-14 11:00","2019","01","14","11:00","-11.6","","-16.3","","69","","","","20","","24","","24.1","","101.48","","","","-21","","NA"
"-68.21","48.61","MONT JOLI A","7055121","2019-01-14 12:00","2019","01","14","12:00","-9.8","","-15.8","","62","","","","21","","19","","24.1","","101.34","","","","-17","","NA"
"-68.21","48.61","MONT JOLI A","7055121","2019-01-14 13:00","2019","01","14","13:00","-9.3","","-15.3","","62","","","","22","","13","","24.1","","101.26","","","","-15","","Mostly Cloudy"
"-68.21","48.61","MONT JOLI A","7055121","2019-01-14 14:00","2019","01","14","14:00","-8.8","","-14.7","","63","","","","24","","14","","24.1","","101.27","","","","-15","","NA"
"-68.21","48.61","MONT JOLI A","7055121","2019-01-14 15:00","2019","01","14","15:00","-8.1","","-14.5","","61","","","","22","","12","","24.1","","101.24","","","","-14","","NA"
"-68.21","48.61","MONT JOLI A","7055121","2019-01-14 16:00","2019","01","14","16:00","-9.6","","-14.4","","68","","","","24","","9","","24.1","","101.22","","","","-14","","Mostly Cloudy"
"-68.21","48.61","MONT JOLI A","7055121","2019-01-14 17:00","2019","01","14","17:00","-9.3","","-14.0","","69","","","","20","","11","","24.1","","101.16","","","","-15","","NA"
"-68.21","48.61","MONT JOLI A","7055121","2019-01-14 18:00","2019","01","14","18:00","-8.5","","-13.8","","66","","","","23","","14","","24.1","","101.13","","","","-15","","NA"
"-68.21","48.61","MONT JOLI A","7055121","2019-01-14 19:00","2019","01","14","19:00","-8.4","","-13.4","","68","","","","22","","13","","24.1","","101.09","","","","-14","","Cloudy"
"-68.21","48.61","MONT JOLI A","7055121","2019-01-14 20:00","2019","01","14","20:00","-8.2","","-13.4","","67","","","","24","","19","","24.1","","101.05","","","","-15","","NA"
"-68.21","48.61","MONT JOLI A","7055121","2019-01-14 21:00","2019","01","14","21:00","-8.5","","-13.2","","69","","","","23","","16","","24.1","","101.03","","","","-15","","NA"
"-68.21","48.61","MONT JOLI A","7055121","2019-01-14 22:00","2019","01","14","22:00","-8.2","","-11.9","","75","","","","23","","20","","24.1","","101.02","","","","-16","","Snow"
"-68.21","48.61","MONT JOLI A","7055121","2019-01-14 23:00","2019","01","14","23:00","-8.3","","-11.7","","77","","","","23","","16","","24.1","","100.97","","","","-15","","Snow"
"-68.21","48.61","MONT JOLI A","7055121","2019-01-15 00:00","2019","01","15","00:00","-8.6","","-11.5","","80","","","","22","","15","","16.1","","100.92","","","","-15","","Snow"
"-68.21","48.61","MONT JOLI A","7055121","2019-01-15 01:00","2019","01","15","01:00","-8.8","","-11.4","","82","","","","23","","17","","9.7","","100.94","","","","-16","","Snow"
"-68.21","48.61","MONT JOLI A","7055121","2019-01-15 02:00","2019","01","15","02:00","-8.7","","-11.2","","82","","","","23","","17","","9.7","","100.96","","","","-16","","Snow"
"-68.21","48.61","MONT JOLI A","7055121","2019-01-15 03:00","2019","01","15","03:00","-8.7","","-11.1","","83","","","","22","","19","","9.7","","100.94","","","","-16","","Snow"
"-68.21","48.61","MONT JOLI A","7055121","2019-01-15 04:00","2019","01","15","04:00","-8.8","","-10.9","","84","","","","23","","17","","48.3","","100.93","","","","-16","","Snow"
"-68.21","48.61","MONT JOLI A","7055121","2019-01-15 05:00","2019","01","15","05:00","-8.6","","-10.6","","86","","","","23","","12","","48.3","","100.93","","","","-14","","Snow"
"-68.21","48.61","MONT JOLI A","7055121","2019-01-15 06:00","2019","01","15","06:00","-8.3","","-10.4","","85","","","","22","","9","","48.3","","100.96","","","","-13","","Snow"
"-68.21","48.61","MONT JOLI A","7055121","2019-01-15 07:00","2019","01","15","07:00","-8.4","","-10.4","","85","","","","21","","9","","48.3","","100.98","","","","-13","","Snow"
"-68.21","48.61","MONT JOLI A","7055121","2019-01-15 08:00","2019","01","15","08:00","-7.3","","-12.2","","68","","","","31","","20","","48.3","","101.03","","","","-14","","Snow"
"-68.21","48.61","MONT JOLI A","7055121","2019-01-15 09:00","2019","01","15","09:00","-7.8","","-14.1","","61","","","","31","","22","","48.3","","101.08","","","","-15","","Snow"
"-68.21","48.61","MONT JOLI A","7055121","2019-01-15 10:00","2019","01","15","10:00","-7.8","","-13.6","","63","","","","31","","21","","48.3","","101.10","","","","-15","","Mostly Cloudy"
"-68.21","48.61","MONT JOLI A","7055121","2019-01-15 11:00","2019","01","15","11:00","-9.3","","-13.8","","70","","","","34","","22","","48.3","","101.07","","","","-17","","Snow"
"-68.21","48.61","MONT JOLI A","7055121","2019-01-15 12:00","2019","01","15","12:00","-9.4","","-15.4","","62","","","","31","","21","","48.3","","101.02","","","","-17","","NA"
"-68.21","48.61","MONT JOLI A","7055121","2019-01-15 13:00","2019","01","15","13:00","-9.6","","-16.6","","57","","","","31","","19","","48.3","","101.01","","","","-17","","Mainly Clear"
"-68.21","48.61","MONT JOLI A","7055121","2019-01-15 14:00","2019","01","15","14:00","-9.7","","-16.3","","59","","","","30","","16","","48.3","","101.03","","","","-17","","NA"
"-68.21","48.61","MONT JOLI A","7055121","2019-01-15 15:00","2019","01","15","15:00","-10.0","","-16.3","","60","","","","29","","17","","48.3","","101.05","","","","-17","","NA"
"-68.21","48.61","MONT JOLI A","7055121","2019-01-15 16:00","2019","01","15","16:00","-11.1","","-17.3","","61","","","","32","","14","","48.3","","101.06","","","","-18","","Mainly Clear"
"-68.21","48.61","MONT JOLI A","7055121","2019-01-15 17:00","2019","01","15","17:00","-11.2","","-16.2","","67","","","","34","","18","","48.3","","101.09","","","","-19","","NA"
"-68.21","48.61","MONT JOLI A","7055121","2019-01-15 18:00","2019","01","15","18:00","-12.2","","-17.0","","68","","","","35","","12","","48.3","","101.11","","","","-19","","NA"
"-68.21","48.61","MONT JOLI A","7055121","2019-01-15 19:00","2019","01","15","19:00","-17.3","","-20.1","","79","","","","16","","6","","24.1","","101.11","","","","-22","","Mainly Clear"
"-68.21","48.61","MONT JOLI A","7055121","2019-01-15 20:00","2019","01","15","20:00","-17.4","","-19.9","","82","","","","17","","9","","24.1","","101.09","","","","-24","","NA"
"-68.21","48.61","MONT JOLI A","7055121","2019-01-15 21:00","2019","01","15","21:00","-17.9","","-20.3","","81","","","","15","","10","","24.1","","101.07","","","","-25","","NA"
"-68.21","48.61","MONT JOLI A","7055121","2019-01-15 22:00","2019","01","15","22:00","-16.9","","-19.6","","80","","","","16","","13","","24.1","","101.04","","","","-25","","Mainly Clear"
"-68.21","48.61","MONT JOLI A","7055121","2019-01-15 23:00","2019","01","15","23:00","-16.7","","-19.5","","80","","","","15","","14","","24.1","","100.99","","","","-25","","NA"
"-68.21","48.61","MONT JOLI A","7055121","2019-01-16 00:00","2019","01","16","00:00","-16.6","","-19.7","","77","","","","15","","16","","24.1","","100.91","","","","-25","","NA"
"-68.21","48.61","MONT JOLI A","7055121","2019-01-16 01:00","2019","01","16","01:00","-16.9","","-20.1","","77","","","","15","","15","","24.1","","100.85","","","","-25","","Cloudy"
"-68.21","48.61","MONT JOLI A","7055121","2019-01-16 02:00","2019","01","16","02:00","-14.8","","-18.7","","73","","","","15","","31","","24.1","","100.73","","","","-26","","NA"
"-68.21","48.61","MONT JOLI A","7055121","2019-01-16 03:00","2019","01","16","03:00","-14.6","","-18.4","","73","","","","16","","27","","24.1","","100.65","","","","-25","","NA"
"-68.21","48.61","MONT JOLI A","7055121","2019-01-16 04:00","2019","01","16","04:00","-12.9","","-17.2","","71","","","","14","","9","","24.1","","100.52","","","","-18","","Cloudy"
"-68.21","48.61","MONT JOLI A","7055121","2019-01-16 05:00","2019","01","16","05:00","-12.3","","-16.5","","71","","","","21","","7","","24.1","","100.39","","","","-17","","NA"
"-68.21","48.61","MONT JOLI A","7055121","2019-01-16 06:00","2019","01","16","06:00","-11.1","","-15.6","","70","","","","17","","17","","24.1","","100.30","","","","-19","","NA"
"-68.21","48.61","MONT JOLI A","7055121","2019-01-16 07:00","2019","01","16","07:00","-9.9","","-14.4","","70","","","","18","","16","","48.3","","100.18","","","","-17","","Cloudy"
"-68.21","48.61","MONT JOLI A","7055121","2019-01-16 08:00","2019","01","16","08:00","-8.1","","-12.1","","73","","","","16","","24","","3.2","","100.08","","","","-16","","Snow"
"-68.21","48.61","MONT JOLI A","7055121","2019-01-16 09:00","2019","01","16","09:00","-7.7","","-10.2","","83","","","","17","","30","","1.0","","99.96","","","","-17","","Snow"
"-68.21","48.61","MONT JOLI A","7055121","2019-01-16 10:00","2019","01","16","10:00","-7.1","","-9.2","","85","","","","16","","41","","0.4","","99.83","","","","-17","","Moderate Snow,Blowing Snow"
"-68.21","48.61","MONT JOLI A","7055121","2019-01-16 11:00","2019","01","16","11:00","-6.5","","-8.7","","85","","","","16","","39","","0.4","","99.68","","","","-16","","Moderate Snow,Blowing Snow"
"-68.21","48.61","MONT JOLI A","7055121","2019-01-16 12:00","2019","01","16","12:00","-6.0","","-8.4","","83","","","","16","","39","","1.6","","99.50","","","","-15","","Snow,Blowing Snow"
"-68.21","48.61","MONT JOLI A","7055121","2019-01-16 13:00","2019","01","16","13:00","-5.0","","-8.2","","78","","","","16","","36","","24.1","","99.34","","","","-14","","Snow"
"-68.21","48.61","MONT JOLI A","7055121","2019-01-16 14:00","2019","01","16","14:00","-2.4","","-7.1","","71","","","","19","","34","","24.1","","99.30","","","","-10","","Snow"
"-68.21","48.61","MONT JOLI A","7055121","2019-01-16 15:00","2019","01","16","15:00","-2.2","","-6.4","","73","","","","19","","35","","24.1","","99.28","","","","-10","","NA"
"-68.21","48.61","MONT JOLI A","7055121","2019-01-16 16:00","2019","01","16","16:00","-2.6","","-5.3","","82","","","","21","","28","","1.2","","99.35","","","","-10","","Snow"
"-68.21","48.61","MONT JOLI A","7055121","2019-01-16 17:00","2019","01","16","17:00","-3.2","","-7.5","","72","","","","23","","26","","48.3","","99.48","","","","-10","","NA"
"-68.21","48.61","MONT JOLI A","7055121","2019-01-16 18:00","2019","01","16","18:00","-5.2","","-9.9","","70","","","","24","","35","","48.3","","99.69","","","","-14","","Snow,Blowing Snow"
"-68.21","48.61","MONT JOLI A","7055121","2019-01-16 19:00","2019","01","16","19:00","-8.6","","-13.6","","68","","","","28","","43","","24.1","","99.90","","","","-19","","Snow,Blowing Snow"
"-68.21","48.61","MONT JOLI A","7055121","2019-01-16 20:00","2019","01","16","20:00","-11.0","","-16.2","","66","","","","27","","38","","24.1","","100.15","","","","-22","","Snow,Blowing Snow"
"-68.21","48.61","MONT JOLI A","7055121","2019-01-16 21:00","2019","01","16","21:00","-12.7","","-18.3","","63","","","","27","","39","","24.1","","100.35","","","","-24","","Snow,Blowing Snow"
"-68.21","48.61","MONT JOLI A","7055121","2019-01-16 22:00","2019","01","16","22:00","-14.1","","-20.2","","60","","","","28","","41","","24.1","","100.49","","","","-26","","Snow,Blowing Snow"
"-68.21","48.61","MONT JOLI A","7055121","2019-01-16 23:00","2019","01","16","23:00","-15.8","","-21.1","","64","","","","27","","38","","24.1","","100.67","","","","-28","","Snow,Blowing Snow"
"-68.21","48.61","MONT JOLI A","7055121","2019-01-17 00:00","2019","01","17","00:00","-17.1","","-22.4","","64","","","","28","","44","","24.1","","100.78","","","","-31","","Snow,Blowing Snow"
"-68.21","48.61","MONT JOLI A","7055121","2019-01-17 01:00","2019","01","17","01:00","-17.8","","-23.3","","63","","","","27","","28","","24.1","","100.95","","","","-29","","Snow,Blowing Snow"
"-68.21","48.61","MONT JOLI A","7055121","2019-01-17 02:00","2019","01","17","02:00","-18.0","","-23.2","","64","","","","28","","35","","24.1","","101.12","","","","-31","","Snow,Blowing Snow"
"-68.21","48.61","MONT JOLI A","7055121","2019-01-17 03:00","2019","01","17","03:00","-18.9","","-24.1","","64","","","","27","","38","","24.1","","101.26","","","","-32","","Snow,Blowing Snow"
"-68.21","48.61","MONT JOLI A","7055121","2019-01-17 04:00","2019","01","17","04:00","-19.8","","-24.4","","67","","","","28","","33","","24.1","","101.38","","","","-33","","Snow,Blowing Snow"
"-68.21","48.61","MONT JOLI A","7055121","2019-01-17 05:00","2019","01","17","05:00","-20.5","","-24.8","","69","","","","27","","37","","24.1","","101.47","","","","-34","","Snow,Blowing Snow"
"-68.21","48.61","MONT JOLI A","7055121","2019-01-17 06:00","2019","01","17","06:00","-21.3","","-25.6","","69","","","","27","","26","","24.1","","101.62","","","","-33","","Snow,Blowing Snow"
"-68.21","48.61","MONT JOLI A","7055121","2019-01-17 07:00","2019","01","17","07:00","-21.8","","-25.9","","70","","","","28","","28","","24.1","","101.73","","","","-35","","Snow,Blowing Snow"
"-68.21","48.61","MONT JOLI A","7055121","2019-01-17 08:00","2019","01","17","08:00","-22.2","","-26.3","","69","","","","29","","25","","24.1","","101.84","","","","-34","","Snow,Blowing Snow"
"-68.21","48.61","MONT JOLI A","7055121","2019-01-17 09:00","2019","01","17","09:00","-21.9","","-25.9","","71","","","","28","","22","","24.1","","101.93","","","","-33","","Snow,Blowing Snow"
"-68.21","48.61","MONT JOLI A","7055121","2019-01-17 10:00","2019","01","17","10:00","-21.6","","-25.8","","69","","","","28","","27","","24.1","","101.97","","","","-34","","Snow"
"-68.21","48.61","MONT JOLI A","7055121","2019-01-17 11:00","2019","01","17","11:00","-21.0","","-25.2","","70","","","","27","","24","","16.1","","102.00","","","","-33","","Snow"
"-68.21","48.61","MONT JOLI A","7055121","2019-01-17 12:00","2019","01","17","12:00","-19.9","","-24.3","","69","","","","26","","25","","16.1","","101.91","","","","-31","","Snow"
"-68.21","48.61","MONT JOLI A","7055121","2019-01-17 13:00","2019","01","17","13:00","-20.9","","-25.7","","66","","","","23","","26","","4.8","","101.91","","","","-33","","Snow"
"-68.21","48.61","MONT JOLI A","7055121","2019-01-17 14:00","2019","01","17","14:00","-19.9","","-24.5","","67","","","","22","","21","","4.8","","101.91","","","","-31","","Snow"
"-68.21","48.61","MONT JOLI A","7055121","2019-01-17 15:00","2019","01","17","15:00","-17.9","","-22.0","","70","","","","25","","23","","16.1","","101.88","","","","-29","","Snow"
"-68.21","48.61","MONT JOLI A","7055121","2019-01-17 16:00","2019","01","17","16:00","-18.4","","-22.2","","73","","","","22","","19","","4.0","","101.88","","","","-28","","Snow"
"-68.21","48.61","MONT JOLI A","7055121","2019-01-17 17:00","2019","01","17","17:00","-18.2","","-23.6","","63","","","","22","","19","","9.7","","101.89","","","","-28","","Snow"
"-68.21","48.61","MONT JOLI A","7055121","2019-01-17 18:00","2019","01","17","18:00","-18.5","","-23.6","","65","","","","21","","20","","9.7","","101.87","","","","-29","","Snow"
"-68.21","48.61","MONT JOLI A","7055121","2019-01-17 19:00","2019","01","17","19:00","-18.6","","-24.1","","62","","","","20","","17","","16.1","","101.88","","","","-28","","Snow"
"-68.21","48.61","MONT JOLI A","7055121","2019-01-17 20:00","2019","01","17","20:00","-18.4","","-24.4","","60","","","","21","","20","","24.1","","101.85","","","","-28","","NA"
"-68.21","48.61","MONT JOLI A","7055121","2019-01-17 21:00","2019","01","17","21:00","-18.0","","-24.0","","60","","","","21","","17","","24.1","","101.89","","","","-27","","Snow"
"-68.21","48.61","MONT JOLI A","7055121","2019-01-17 22:00","2019","01","17","22:00","-18.3","","-23.2","","66","","","","21","","18","","24.1","","101.89","","","","-28","","Snow"
"-68.21","48.61","MONT JOLI A","7055121","2019-01-17 23:00","2019","01","17","23:00","-17.8","","-23.0","","64","","","","19","","16","","24.1","","101.87","","","","-27","","Snow"
"-68.21","48.61","MONT JOLI A","7055121","2019-01-18 00:00","2019","01","18","00:00","-17.6","","-22.4","","67","","","","19","","18","","24.1","","101.80","","","","-27","","Snow"
"-68.21","48.61","MONT JOLI A","7055121","2019-01-18 01:00","2019","01","18","01:00","-17.5","","-22.4","","66","","","","17","","16","","24.1","","101.75","","","","-26","","Snow"
"-68.21","48.61","MONT JOLI A","7055121","2019-01-18 02:00","2019","01","18","02:00","-17.5","","-21.9","","69","","","","17","","19","","24.1","","101.76","","","","-27","","Snow"
"-68.21","48.61","MONT JOLI A","7055121","2019-01-18 03:00","2019","01","18","03:00","-18.3","","-23.1","","66","","","","15","","23","","24.1","","101.70","","","","-29","","Snow"
"-68.21","48.61","MONT JOLI A","7055121","2019-01-18 04:00","2019","01","18","04:00","-18.2","","-23.6","","63","","","","15","","23","","16.1","","101.59","","","","-29","","Snow"
"-68.21","48.61","MONT JOLI A","7055121","2019-01-18 05:00","2019","01","18","05:00","-18.3","","-22.6","","69","","","","15","","21","","9.7","","101.49","","","","-29","","Snow"
"-68.21","48.61","MONT JOLI A","7055121","2019-01-18 06:00","2019","01","18","06:00","-16.8","","-20.4","","74","","","","15","","17","","4.8","","101.48","","","","-26","","Snow"
"-68.21","48.61","MONT JOLI A","7055121","2019-01-18 07:00","2019","01","18","07:00","-16.5","","-21.2","","67","","","","14","","18","","16.1","","101.39","","","","-26","","Snow"
"-68.21","48.61","MONT JOLI A","7055121","2019-01-18 08:00","2019","01","18","08:00","-15.9","","-21.4","","63","","","","13","","10","","24.1","","101.33","","","","-22","","Snow"
"-68.21","48.61","MONT JOLI A","7055121","2019-01-18 09:00","2019","01","18","09:00","-14.7","","-21.3","","58","","","","28","","3","","24.1","","101.28","","","","-17","","NA"
"-68.21","48.61","MONT JOLI A","7055121","2019-01-18 10:00","2019","01","18","10:00","-12.0","","-16.2","","71","","","","20","","26","","3.2","","101.23","","","","-22","","Snow"
"-68.21","48.61","MONT JOLI A","7055121","2019-01-18 11:00","2019","01","18","11:00","-10.9","","-14.7","","74","","","","20","","14","","4.0","","101.08","","","","-18","","Snow"
"-68.21","48.61","MONT JOLI A","7055121","2019-01-18 12:00","2019","01","18","12:00","-10.2","","-14.6","","70","","","","18","","13","","4.8","","100.92","","","","-16","","Snow"
"-68.21","48.61","MONT JOLI A","7055121","2019-01-18 13:00","2019","01","18","13:00","-9.6","","-13.4","","74","","","","18","","11","","4.0","","100.73","","","","-15","","Snow"
"-68.21","48.61","MONT JOLI A","7055121","2019-01-18 14:00","2019","01","18","14:00","-8.7","","-12.5","","74","","","","16","","7","","9.7","","100.65","","","","-13","","Snow"
"-68.21","48.61","MONT JOLI A","7055121","2019-01-18 15:00","2019","01","18","15:00","-7.9","","-12.4","","70","","","","16","","11","","24.1","","100.57","","","","-13","","Snow"
"-68.21","48.61","MONT JOLI A","7055121","2019-01-18 16:00","2019","01","18","16:00","-7.9","","-12.2","","72","","","","18","","10","","24.1","","100.46","","","","-13","","Snow"
"-68.21","48.61","MONT JOLI A","7055121","2019-01-18 17:00","2019","01","18","17:00","-7.4","","-11.1","","75","","","","18","","17","","16.1","","100.37","","","","-14","","Snow"
"-68.21","48.61","MONT JOLI A","7055121","2019-01-18 18:00","2019","01","18","18:00","-7.2","","-9.9","","81","","","","17","","21","","4.0","","100.23","","","","-15","","Snow"
"-68.21","48.61","MONT JOLI A","7055121","2019-01-18 19:00","2019","01","18","19:00","-5.8","","-9.3","","76","","","","19","","28","","4.0","","100.11","","","","-14","","Snow"
"-68.21","48.61","MONT JOLI A","7055121","2019-01-18 20:00","2019","01","18","20:00","-5.4","","-8.9","","76","","","","21","","31","","4.8","","100.13","","","","-14","","Snow,Blowing Snow"
"-68.21","48.61","MONT JOLI A","7055121","2019-01-18 21:00","2019","01","18","21:00","-7.7","","-11.5","","75","","","","28","","42","","2.4","","100.37","","","","-18","","Snow,Blowing Snow"
"-68.21","48.61","MONT JOLI A","7055121","2019-01-18 22:00","2019","01","18","22:00","-9.7","","-15.6","","63","","","","28","","46","","2.8","","100.59","","","","-21","","Snow,Blowing Snow"
"-68.21","48.61","MONT JOLI A","7055121","2019-01-18 23:00","2019","01","18","23:00","-12.2","","-18.1","","62","","","","29","","46","","3.2","","100.85","","","","-24","","Snow,Blowing Snow"
"-68.21","48.61","MONT JOLI A","7055121","2019-01-19 00:00","2019","01","19","00:00","-15.2","","-22.9","","53","","","","29","","44","","3.2","","101.13","","","","-28","","Snow,Blowing Snow"
"-68.21","48.61","MONT JOLI A","7055121","2019-01-19 01:00","2019","01","19","01:00","-16.5","","-24.7","","50","","","","30","","44","","9.7","","101.27","","","","-30","","Snow,Blowing Snow"
"-68.21","48.61","MONT JOLI A","7055121","2019-01-19 02:00","2019","01","19","02:00","-17.4","","-25.5","","50","","","","29","","35","","16.1","","101.45","","","","-30","","Snow,Blowing Snow"
"-68.21","48.61","MONT JOLI A","7055121","2019-01-19 03:00","2019","01","19","03:00","-18.6","","-25.9","","54","","","","30","","32","","24.1","","101.57","","","","-31","","NA"
"-68.21","48.61","MONT JOLI A","7055121","2019-01-19 04:00","2019","01","19","04:00","-19.4","","-25.2","","61","","","","29","","29","","24.1","","101.72","","","","-32","","Mostly Cloudy"
"-68.21","48.61","MONT JOLI A","7055121","2019-01-19 05:00","2019","01","19","05:00","-21.8","","-26.9","","64","","","","30","","34","","24.1","","101.81","","","","-36","","NA"
"-68.21","48.61","MONT JOLI A","7055121","2019-01-19 06:00","2019","01","19","06:00","-22.9","","-27.8","","65","","","","30","","30","","24.1","","102.01","","","","-36","","NA"
"-68.21","48.61","MONT JOLI A","7055121","2019-01-19 07:00","2019","01","19","07:00","-24.2","","-29.0","","66","","","","29","","28","","24.1","","102.17","","","","-38","","Cloudy"
"-68.21","48.61","MONT JOLI A","7055121","2019-01-19 08:00","2019","01","19","08:00","-24.7","","-29.2","","67","","","","29","","26","","16.1","","102.33","","","","-38","","Snow"
"-68.21","48.61","MONT JOLI A","7055121","2019-01-19 09:00","2019","01","19","09:00","-25.0","","-29.7","","65","","","","28","","21","","16.1","","102.41","","","","-37","","Snow"
"-68.21","48.61","MONT JOLI A","7055121","2019-01-19 10:00","2019","01","19","10:00","-24.8","","-30.2","","61","","","","27","","20","","24.1","","102.50","","","","-37","","Mostly Cloudy"
"-68.21","48.61","MONT JOLI A","7055121","2019-01-19 11:00","2019","01","19","11:00","-24.2","","-29.6","","62","","","","27","","24","","24.1","","102.51","","","","-37","","Snow"
"-68.21","48.61","MONT JOLI A","7055121","2019-01-19 12:00","2019","01","19","12:00","-24.0","","-29.3","","62","","","","27","","25","","16.1","","102.50","","","","-37","","Snow"
"-68.21","48.61","MONT JOLI A","7055121","2019-01-19 13:00","2019","01","19","13:00","-23.9","","-29.1","","63","","","","27","","20","","16.1","","102.48","","","","-35","","Snow"
"-68.21","48.61","MONT JOLI A","7055121","2019-01-19 14:00","2019","01","19","14:00","-23.6","","-28.8","","63","","","","26","","13","","16.1","","102.44","","","","-33","","Snow"
"-68.21","48.61","MONT JOLI A","7055121","2019-01-19 15:00","2019","01","19","15:00","-23.5","","-28.4","","65","","","","25","","9","","16.1","","102.41","","","","-31","","Snow"
"-68.21","48.61","MONT JOLI A","7055121","2019-01-19 16:00","2019","01","19","16:00","-23.7","","-28.3","","67","","","","22","","13","","24.1","","102.50","","","","-33","","Snow"
"-68.21","48.61","MONT JOLI A","7055121","2019-01-19 17:00","2019","01","19","17:00","-23.6","","-27.5","","71","","","","20","","9","","16.1","","102.56","","","","-31","","Snow"
"-68.21","48.61","MONT JOLI A","7055121","2019-01-19 18:00","2019","01","19","18:00","-23.3","","-27.3","","71","","","","35","","3","","16.1","","102.57","","","","-26","","Snow"
"-68.21","48.61","MONT JOLI A","7055121","2019-01-19 19:00","2019","01","19","19:00","-23.1","","-29.1","","59","","","","34","","17","","48.3","","102.60","","","","-34","","Snow"
"-68.21","48.61","MONT JOLI A","7055121","2019-01-19 20:00","2019","01","19","20:00","-23.8","","-29.4","","61","","","","34","","15","","24.1","","102.62","","","","-34","","Snow"
"-68.21","48.61","MONT JOLI A","7055121","2019-01-19 21:00","2019","01","19","21:00","-23.9","","-29.1","","63","","","","35","","9","","16.1","","102.61","","","","-31","","Snow"
"-68.21","48.61","MONT JOLI A","7055121","2019-01-19 22:00","2019","01","19","22:00","-23.9","","-28.2","","68","","","","34","","12","","9.7","","102.62","","","","-33","","Snow"
"-68.21","48.61","MONT JOLI A","7055121","2019-01-19 23:00","2019","01","19","23:00","-23.7","","-28.2","","67","","","","35","","11","","9.7","","102.63","","","","-32","","Snow"
"-68.21","48.61","MONT JOLI A","7055121","2019-01-20 00:00","2019","01","20","00:00","-23.7","","-28.3","","67","","","","5","","4","","9.7","","102.56","","","","-28","","Snow"
"-68.21","48.61","MONT JOLI A","7055121","2019-01-20 01:00","2019","01","20","01:00","-23.9","","-27.9","","71","","","","16","","7","","16.1","","102.54","","","","-30","","Snow"
"-68.21","48.61","MONT JOLI A","7055121","2019-01-20 02:00","2019","01","20","02:00","-24.3","","-28.2","","70","","","","13","","8","","24.1","","102.49","","","","-31","","NA"
"-68.21","48.61","MONT JOLI A","7055121","2019-01-20 03:00","2019","01","20","03:00","-24.1","","-28.4","","68","","","","12","","9","","24.1","","102.45","","","","-32","","NA"
"-68.21","48.61","MONT JOLI A","7055121","2019-01-20 04:00","2019","01","20","04:00","-23.6","","-28.3","","66","","","","13","","6","","24.1","","102.36","","","","-29","","Cloudy"
"-68.21","48.61","MONT JOLI A","7055121","2019-01-20 05:00","2019","01","20","05:00","-23.2","","-28.0","","66","","","","9","","10","","24.1","","102.27","","","","-31","","NA"
"-68.21","48.61","MONT JOLI A","7055121","2019-01-20 06:00","2019","01","20","06:00","-22.8","","-27.6","","66","","","","11","","8","","24.1","","102.30","","","","-30","","Snow"
"-68.21","48.61","MONT JOLI A","7055121","2019-01-20 07:00","2019","01","20","07:00","-22.6","","-26.0","","75","","","","9","","12","","1.6","","102.27","","","","-31","","Snow"
"-68.21","48.61","MONT JOLI A","7055121","2019-01-20 08:00","2019","01","20","08:00","-21.5","","-24.5","","77","","","","7","","17","","1.6","","102.11","","","","-32","","Snow"
"-68.21","48.61","MONT JOLI A","7055121","2019-01-20 09:00","2019","01","20","09:00","-21.1","","-24.5","","75","","","","8","","16","","2.4","","102.02","","","","-31","","Snow"
"-68.21","48.61","MONT JOLI A","7055121","2019-01-20 10:00","2019","01","20","10:00","-20.7","","-23.8","","76","","","","7","","23","","1.0","","101.89","","","","-32","","Snow"
"-68.21","48.61","MONT JOLI A","7055121","2019-01-20 11:00","2019","01","20","11:00","-19.5","","-22.6","","77","","","","7","","30","","0.8","","101.65","","","","-32","","Moderate Snow"
"-68.21","48.61","MONT JOLI A","7055121","2019-01-20 12:00","2019","01","20","12:00","-17.9","","-20.8","","78","","","","8","","23","","1.0","","101.46","","","","-29","","Snow"
"-68.21","48.61","MONT JOLI A","7055121","2019-01-20 13:00","2019","01","20","13:00","-16.5","","-19.2","","80","","","","7","","28","","0.6","","101.18","","","","-28","","Moderate Snow"
"-68.21","48.61","MONT JOLI A","7055121","2019-01-20 14:00","2019","01","20","14:00","-15.0","","-17.5","","81","","","","7","","32","","0.6","","100.94","","","","-26","","Moderate Snow"
"-68.21","48.61","MONT JOLI A","7055121","2019-01-20 15:00","2019","01","20","15:00","-13.7","","-16.2","","82","","","","6","","32","","0.6","","100.75","","","","-25","","Moderate Snow"
"-68.21","48.61","MONT JOLI A","7055121","2019-01-20 16:00","2019","01","20","16:00","-12.5","","-14.5","","85","","","","6","","38","","0.2","","100.53","","","","-24","","Heavy Snow,Blowing Snow"
"-68.21","48.61","MONT JOLI A","7055121","2019-01-20 17:00","2019","01","20","17:00","-11.6","","-13.6","","86","","","","6","","48","","0.2","","100.37","","","","-24","","Heavy Snow,Blowing Snow"
"-68.21","48.61","MONT JOLI A","7055121","2019-01-20 18:00","2019","01","20","18:00","-11.1","","-13.0","","86","","","","6","","48","","0.0","","100.24","","","","-23","","Heavy Snow,Blowing Snow"
"-68.21","48.61","MONT JOLI A","7055121","2019-01-20 19:00","2019","01","20","19:00","-11.2","","-13.3","","85","","","","5","","55","","0.2","","100.17","","","","-24","","Heavy Snow,Blowing Snow"
"-68.21","48.61","MONT JOLI A","7055121","2019-01-20 20:00","2019","01","20","20:00","-10.9","","-12.9","","85","","","","5","","54","","0.2","","99.96","","","","-23","","Heavy Snow,Blowing Snow"
"-68.21","48.61","MONT JOLI A","7055121","2019-01-20 21:00","2019","01","20","21:00","-11.7","","-13.6","","86","","","","4","","62","","0.2","","99.73","","","","-25","","Heavy Snow,Blowing Snow"
"-68.21","48.61","MONT JOLI A","7055121","2019-01-20 22:00","2019","01","20","22:00","-12.3","","-14.3","","86","","","","5","","65","","0.2","","99.75","","","","-26","","Heavy Snow,Blowing Snow"
"-68.21","48.61","MONT JOLI A","7055121","2019-01-20 23:00","2019","01","20","23:00","-12.5","","-14.6","","85","","","","5","","65","","0.2","","99.64","","","","-26","","Heavy Snow,Blowing Snow"
"-68.21","48.61","MONT JOLI A","7055121","2019-01-21 00:00","2019","01","21","00:00","-12.9","","-15.0","","84","","","","3","","66","","0.2","","99.54","","","","-27","","Heavy Snow,Blowing Snow"
"-68.21","48.61","MONT JOLI A","7055121","2019-01-21 01:00","2019","01","21","01:00","-13.2","","-15.4","","84","","","","3","","58","","0.4","","99.53","","","","-27","","Heavy Snow,Blowing Snow"
"-68.21","48.61","MONT JOLI A","7055121","2019-01-21 02:00","2019","01","21","02:00","-13.5","","-15.8","","83","","","","2","","57","","0.4","","99.46","","","","-27","","Heavy Snow,Blowing Snow"
"-68.21","48.61","MONT JOLI A","7055121","2019-01-21 03:00","2019","01","21","03:00","-13.5","","-16.1","","81","","","","2","","58","","0.4","","99.41","","","","-27","","Heavy Snow,Blowing Snow"
"-68.21","48.61","MONT JOLI A","7055121","2019-01-21 04:00","2019","01","21","04:00","-13.3","","-15.7","","82","","","","1","","49","","0.8","","99.42","","","","-26","","Moderate Snow,Blowing Snow"
"-68.21","48.61","MONT JOLI A","7055121","2019-01-21 05:00","2019","01","21","05:00","-13.8","","-16.0","","84","","","","1","","38","","0.8","","99.43","","","","-26","","Moderate Snow,Blowing Snow"
"-68.21","48.61","MONT JOLI A","7055121","2019-01-21 06:00","2019","01","21","06:00","-14.8","","-17.0","","83","","","","36","","45","","0.4","","99.43","","","","-28","","Heavy Snow,Blowing Snow"
"-68.21","48.61","MONT JOLI A","7055121","2019-01-21 07:00","2019","01","21","07:00","-15.3","","-18.0","","80","","","","35","","45","","0.8","","99.52","","","","-28","","Moderate Snow,Blowing Snow"
"-68.21","48.61","MONT JOLI A","7055121","2019-01-21 08:00","2019","01","21","08:00","-15.5","","-18.5","","78","","","","35","","42","","4.8","","99.56","","","","-28","","Snow"
"-68.21","48.61","MONT JOLI A","7055121","2019-01-21 09:00","2019","01","21","09:00","-15.5","","-18.5","","78","","","","35","","37","","1.6","","99.61","","","","-28","","Snow,Blowing Snow"
"-68.21","48.61","MONT JOLI A","7055121","2019-01-21 10:00","2019","01","21","10:00","-14.9","","-17.9","","78","","","","36","","38","","0.6","","99.61","","","","-27","","Moderate Snow,Blowing Snow"
"-68.21","48.61","MONT JOLI A","7055121","2019-01-21 11:00","2019","01","21","11:00","-14.9","","-17.8","","79","","","","36","","38","","0.6","","99.61","","","","-27","","Moderate Snow,Blowing Snow"
"-68.21","48.61","MONT JOLI A","7055121","2019-01-21 12:00","2019","01","21","12:00","-14.8","","-17.5","","80","","","","34","","35","","0.8","","99.65","","","","-27","","Moderate Snow,Blowing Snow"
"-68.21","48.61","MONT JOLI A","7055121","2019-01-21 13:00","2019","01","21","13:00","-14.6","","-17.5","","79","","","","34","","39","","0.8","","99.71","","","","-27","","Moderate Snow,Blowing Snow"
"-68.21","48.61","MONT JOLI A","7055121","2019-01-21 14:00","2019","01","21","14:00","-14.2","","-17.7","","75","","","","34","","42","","0.8","","99.73","","","","-27","","Snow,Blowing Snow"
"-68.21","48.61","MONT JOLI A","7055121","2019-01-21 15:00","2019","01","21","15:00","-14.1","","-17.4","","77","","","","35","","46","","1.6","","99.82","","","","-27","","Snow,Blowing Snow"
"-68.21","48.61","MONT JOLI A","7055121","2019-01-21 16:00","2019","01","21","16:00","-14.1","","-17.5","","76","","","","35","","51","","1.6","","99.88","","","","-27","","Snow,Blowing Snow"
"-68.21","48.61","MONT JOLI A","7055121","2019-01-21 17:00","2019","01","21","17:00","-14.3","","-17.9","","75","","","","35","","44","","2.4","","99.96","","","","-27","","Moderate Snow,Blowing Snow"
"-68.21","48.61","MONT JOLI A","7055121","2019-01-21 18:00","2019","01","21","18:00","-14.5","","-18.3","","73","","","","35","","48","","2.8","","100.09","","","","-28","","Snow,Blowing Snow"
"-68.21","48.61","MONT JOLI A","7055121","2019-01-21 19:00","2019","01","21","19:00","-14.5","","-18.6","","72","","","","35","","49","","2.4","","100.14","","","","-28","","Snow,Blowing Snow"
"-68.21","48.61","MONT JOLI A","7055121","2019-01-21 20:00","2019","01","21","20:00","-14.6","","-18.9","","70","","","","35","","46","","2.0","","100.19","","","","-28","","Snow,Blowing Snow"
"-68.21","48.61","MONT JOLI A","7055121","2019-01-21 21:00","2019","01","21","21:00","-14.6","","-19.0","","70","","","","35","","46","","2.4","","100.27","","","","-28","","Snow,Blowing Snow"
"-68.21","48.61","MONT JOLI A","7055121","2019-01-21 22:00","2019","01","21","22:00","-15.0","","-19.4","","70","","","","35","","44","","2.4","","100.30","","","","-28","","Snow,Blowing Snow"
"-68.21","48.61","MONT JOLI A","7055121","2019-01-21 23:00","2019","01","21","23:00","-15.3","","-20.0","","68","","","","34","","48","","2.4","","100.39","","","","-29","","Snow,Blowing Snow"
"-68.21","48.61","MONT JOLI A","7055121","2019-01-22 00:00","2019","01","22","00:00","-15.4","","-20.1","","68","","","","34","","35","","3.2","","100.45","","","","-27","","Snow,Blowing Snow"
"-68.21","48.61","MONT JOLI A","7055121","2019-01-22 01:00","2019","01","22","01:00","-15.7","","-20.5","","67","","","","34","","40","","9.7","","100.51","","","","-28","","Snow,Blowing Snow"
"-68.21","48.61","MONT JOLI A","7055121","2019-01-22 02:00","2019","01","22","02:00","-15.5","","-20.6","","65","","","","34","","45","","9.7","","100.57","","","","-29","","Snow,Blowing Snow"
"-68.21","48.61","MONT JOLI A","7055121","2019-01-22 03:00","2019","01","22","03:00","-15.2","","-20.4","","65","","","","35","","39","","9.7","","100.66","","","","-28","","Snow,Blowing Snow"
"-68.21","48.61","MONT JOLI A","7055121","2019-01-22 04:00","2019","01","22","04:00","-15.2","","-20.9","","62","","","","35","","41","","9.7","","100.78","","","","-28","","Snow,Blowing Snow"
"-68.21","48.61","MONT JOLI A","7055121","2019-01-22 05:00","2019","01","22","05:00","-15.3","","-21.1","","62","","","","35","","39","","24.1","","100.90","","","","-28","","Blowing Snow"
"-68.21","48.61","MONT JOLI A","7055121","2019-01-22 06:00","2019","01","22","06:00","-15.7","","-20.8","","66","","","","32","","35","","24.1","","101.03","","","","-28","","Blowing Snow"
"-68.21","48.61","MONT JOLI A","7055121","2019-01-22 07:00","2019","01","22","07:00","-15.6","","-20.9","","64","","","","33","","41","","24.1","","101.13","","","","-28","","Blowing Snow"
"-68.21","48.61","MONT JOLI A","7055121","2019-01-22 08:00","2019","01","22","08:00","-15.5","","-21.0","","63","","","","31","","37","","24.1","","101.31","","","","-28","","Blowing Snow"
"-68.21","48.61","MONT JOLI A","7055121","2019-01-22 09:00","2019","01","22","09:00","-15.5","","-20.8","","64","","","","31","","30","","48.3","","101.47","","","","-27","","Blowing Snow"
"-68.21","48.61","MONT JOLI A","7055121","2019-01-22 10:00","2019","01","22","10:00","-14.9","","-21.8","","56","","","","31","","28","","48.3","","101.56","","","","-26","","Mainly Clear"
"-68.21","48.61","MONT JOLI A","7055121","2019-01-22 11:00","2019","01","22","11:00","-13.7","","-21.2","","54","","","","29","","25","","48.3","","101.60","","","","-24","","NA"
"-68.21","48.61","MONT JOLI A","7055121","2019-01-22 12:00","2019","01","22","12:00","-13.0","","-21.6","","49","","","","27","","20","","48.3","","101.70","","","","-22","","NA"
"-68.21","48.61","MONT JOLI A","7055121","2019-01-22 13:00","2019","01","22","13:00","-11.9","","-20.6","","49","","","","30","","31","","48.3","","101.68","","","","-22","","Clear"
"-68.21","48.61","MONT JOLI A","7055121","2019-01-22 14:00","2019","01","22","14:00","-11.1","","-20.0","","48","","","","31","","36","","48.3","","101.80","","","","-22","","NA"
"-68.21","48.61","MONT JOLI A","7055121","2019-01-22 15:00","2019","01","22","15:00","-10.5","","-19.3","","49","","","","30","","21","","48.3","","101.87","","","","-19","","NA"
"-68.21","48.61","MONT JOLI A","7055121","2019-01-22 16:00","2019","01","22","16:00","-10.3","","-18.8","","50","","","","30","","23","","48.3","","101.93","","","","-19","","Mainly Clear"
"-68.21","48.61","MONT JOLI A","7055121","2019-01-22 17:00","2019","01","22","17:00","-10.4","","-19.7","","47","","","","30","","19","","48.3","","102.07","","","","-18","","NA"
"-68.21","48.61","MONT JOLI A","7055121","2019-01-22 18:00","2019","01","22","18:00","-13.0","","-18.4","","65","","","","26","","15","","48.3","","102.09","","","","-20","","NA"
"-68.21","48.61","MONT JOLI A","7055121","2019-01-22 19:00","2019","01","22","19:00","-14.6","","-19.7","","65","","","","23","","18","","48.3","","102.15","","","","-23","","Clear"
"-68.21","48.61","MONT JOLI A","7055121","2019-01-22 20:00","2019","01","22","20:00","-15.2","","-19.9","","68","","","","21","","15","","48.3","","102.13","","","","-23","","NA"
"-68.21","48.61","MONT JOLI A","7055121","2019-01-22 21:00","2019","01","22","21:00","-15.0","","-19.8","","67","","","","24","","18","","48.3","","102.18","","","","-24","","NA"
"-68.21","48.61","MONT JOLI A","7055121","2019-01-22 22:00","2019","01","22","22:00","-15.2","","-19.8","","68","","","","21","","15","","48.3","","102.13","","","","-23","","Mainly Clear"
"-68.21","48.61","MONT JOLI A","7055121","2019-01-22 23:00","2019","01","22","23:00","-14.2","","-18.4","","71","","","","21","","18","","48.3","","102.12","","","","-23","","NA"
"-68.21","48.61","MONT JOLI A","7055121","2019-01-23 00:00","2019","01","23","00:00","-14.3","","-18.0","","74","","","","22","","15","","48.3","","102.15","","","","-22","","NA"
"-68.21","48.61","MONT JOLI A","7055121","2019-01-23 01:00","2019","01","23","01:00","-14.3","","-18.2","","73","","","","22","","18","","48.3","","102.14","","","","-23","","Mostly Cloudy"
"-68.21","48.61","MONT JOLI A","7055121","2019-01-23 02:00","2019","01","23","02:00","-13.7","","-17.9","","71","","","","21","","16","","48.3","","102.07","","","","-22","","NA"
"-68.21","48.61","MONT JOLI A","7055121","2019-01-23 03:00","2019","01","23","03:00","-13.4","","-18.6","","65","","","","19","","16","","48.3","","102.02","","","","-21","","NA"
"-68.21","48.61","MONT JOLI A","7055121","2019-01-23 04:00","2019","01","23","04:00","-13.7","","-19.3","","63","","","","19","","14","","48.3","","101.98","","","","-21","","Mostly Cloudy"
"-68.21","48.61","MONT JOLI A","7055121","2019-01-23 05:00","2019","01","23","05:00","-13.9","","-19.5","","63","","","","17","","10","","48.3","","101.89","","","","-20","","NA"
"-68.21","48.61","MONT JOLI A","7055121","2019-01-23 06:00","2019","01","23","06:00","-13.8","","-19.1","","65","","","","15","","10","","48.3","","101.78","","","","-20","","NA"
"-68.21","48.61","MONT JOLI A","7055121","2019-01-23 07:00","2019","01","23","07:00","-13.2","","-18.7","","64","","","","15","","12","","48.3","","101.73","","","","-20","","Cloudy"
"-68.21","48.61","MONT JOLI A","7055121","2019-01-23 08:00","2019","01","23","08:00","-12.7","","-18.2","","63","","","","14","","13","","48.3","","101.64","","","","-20","","NA"
"-68.21","48.61","MONT JOLI A","7055121","2019-01-23 09:00","2019","01","23","09:00","-11.9","","-16.9","","67","","","","15","","22","","16.1","","101.56","","","","-21","","Snow"
"-68.21","48.61","MONT JOLI A","7055121","2019-01-23 10:00","2019","01","23","10:00","-10.7","","-13.8","","78","","","","17","","8","","4.0","","101.45","","","","-15","","Snow"
"-68.21","48.61","MONT JOLI A","7055121","2019-01-23 11:00","2019","01","23","11:00","-9.8","","-12.6","","80","","","","36","","3","","16.1","","101.32","","","","-12","","Snow"
"-68.21","48.61","MONT JOLI A","7055121","2019-01-23 12:00","2019","01","23","12:00","-7.8","","-12.1","","72","","","","18","","12","","9.7","","101.22","","","","-13","","Snow"
"-68.21","48.61","MONT JOLI A","7055121","2019-01-23 13:00","2019","01","23","13:00","-7.6","","-10.7","","78","","","","23","","18","","2.4","","101.19","","","","-14","","Snow"
"-68.21","48.61","MONT JOLI A","7055121","2019-01-23 14:00","2019","01","23","14:00","-7.3","","-10.8","","77","","","","21","","8","","4.8","","101.17","","","","-11","","Snow"
"-68.21","48.61","MONT JOLI A","7055121","2019-01-23 15:00","2019","01","23","15:00","-7.7","","-11.5","","75","","","","19","","9","","4.8","","101.13","","","","-12","","Snow"
"-68.21","48.61","MONT JOLI A","7055121","2019-01-23 16:00","2019","01","23","16:00","-7.8","","-11.2","","77","","","","15","","8","","9.7","","101.07","","","","-12","","Snow"
"-68.21","48.61","MONT JOLI A","7055121","2019-01-23 17:00","2019","01","23","17:00","-8.1","","-11.7","","75","","","","17","","8","","16.1","","101.03","","","","-12","","Snow"
"-68.21","48.61","MONT JOLI A","7055121","2019-01-23 18:00","2019","01","23","18:00","-8.0","","-12.0","","73","","","","15","","10","","24.1","","100.98","","","","-13","","NA"
"-68.21","48.61","MONT JOLI A","7055121","2019-01-23 19:00","2019","01","23","19:00","-8.3","","-12.5","","72","","","","15","","18","","48.3","","100.94","","","","-15","","Cloudy"
"-68.21","48.61","MONT JOLI A","7055121","2019-01-23 20:00","2019","01","23","20:00","-8.6","","-11.9","","77","","","","15","","16","","3.2","","100.89","","","","-15","","Snow"
"-68.21","48.61","MONT JOLI A","7055121","2019-01-23 21:00","2019","01","23","21:00","-9.1","","-11.4","","84","","","","14","","21","","2.4","","100.74","","","","-17","","Snow"
"-68.21","48.61","MONT JOLI A","7055121","2019-01-23 22:00","2019","01","23","22:00","-9.1","","-11.6","","82","","","","14","","19","","4.0","","100.57","","","","-17","","Snow"
"-68.21","48.61","MONT JOLI A","7055121","2019-01-23 23:00","2019","01","23","23:00","-8.6","","-12.0","","76","","","","14","","18","","24.1","","100.50","","","","-16","","Snow"
"-68.21","48.61","MONT JOLI A","7055121","2019-01-24 00:00","2019","01","24","00:00","-8.5","","-12.0","","76","","","","13","","12","","6.4","","100.41","","","","-14","","Snow"
"-68.21","48.61","MONT JOLI A","7055121","2019-01-24 01:00","2019","01","24","01:00","-8.3","","-11.3","","79","","","","13","","18","","4.0","","100.32","","","","-15","","Snow"
"-68.21","48.61","MONT JOLI A","7055121","2019-01-24 02:00","2019","01","24","02:00","-9.0","","-10.8","","87","","","","6","","14","","3.2","","100.21","","","","-15","","Snow"
"-68.21","48.61","MONT JOLI A","7055121","2019-01-24 03:00","2019","01","24","03:00","-8.5","","-10.2","","87","","","","7","","12","","3.2","","100.04","","","","-14","","Snow"
"-68.21","48.61","MONT JOLI A","7055121","2019-01-24 04:00","2019","01","24","04:00","-7.4","","-10.0","","82","","","","11","","17","","4.0","","99.98","","","","-14","","Snow"
"-68.21","48.61","MONT JOLI A","7055121","2019-01-24 05:00","2019","01","24","05:00","-7.1","","-9.7","","82","","","","13","","18","","8.1","","99.92","","","","-14","","Snow"
"-68.21","48.61","MONT JOLI A","7055121","2019-01-24 06:00","2019","01","24","06:00","-6.9","","-9.5","","81","","","","12","","15","","12.9","","99.84","","","","-13","","Snow"
"-68.21","48.61","MONT JOLI A","7055121","2019-01-24 07:00","2019","01","24","07:00","-6.2","","-9.3","","79","","","","14","","16","","16.1","","99.78","","","","-12","","Snow"
"-68.21","48.61","MONT JOLI A","7055121","2019-01-24 08:00","2019","01","24","08:00","-5.5","","-8.7","","78","","","","11","","8","","24.1","","99.72","","","","-9","","Snow"
"-68.21","48.61","MONT JOLI A","7055121","2019-01-24 09:00","2019","01","24","09:00","-4.7","","-7.6","","80","","","","9","","8","","24.1","","99.66","","","","-8","","NA"
"-68.21","48.61","MONT JOLI A","7055121","2019-01-24 10:00","2019","01","24","10:00","-4.7","","-6.9","","85","","","","9","","10","","24.1","","99.59","","","","-9","","Cloudy"
"-68.21","48.61","MONT JOLI A","7055121","2019-01-24 11:00","2019","01","24","11:00","-4.8","","-6.5","","88","","","","6","","13","","3.2","","99.53","","","","-10","","Snow"
"-68.21","48.61","MONT JOLI A","7055121","2019-01-24 12:00","2019","01","24","12:00","-4.4","","-5.6","","91","","","","6","","13","","1.6","","99.36","","","","-9","","Snow"
"-68.21","48.61","MONT JOLI A","7055121","2019-01-24 13:00","2019","01","24","13:00","-2.9","","-4.1","","92","","","","5","","15","","16.1","","99.23","","","","-8","","Freezing Rain,Ice Pellets"
"-68.21","48.61","MONT JOLI A","7055121","2019-01-24 14:00","2019","01","24","14:00","-2.2","","-3.1","","94","","","","6","","21","","24.1","","99.11","","","","-8","","Freezing Rain,Ice Pellets"
"-68.21","48.61","MONT JOLI A","7055121","2019-01-24 15:00","2019","01","24","15:00","-2.1","","-2.7","","95","","","","5","","20","","9.7","","99.01","","","","-8","","Freezing Rain,Ice Pellets,Fog"
"-68.21","48.61","MONT JOLI A","7055121","2019-01-24 16:00","2019","01","24","16:00","-1.9","","-2.5","","96","","","","6","","23","","16.1","","98.88","","","","-8","","Freezing Rain"
"-68.21","48.61","MONT JOLI A","7055121","2019-01-24 17:00","2019","01","24","17:00","-1.7","","-2.2","","96","","","","7","","17","","12.9","","98.69","","","","-7","","Freezing Rain"
"-68.21","48.61","MONT JOLI A","7055121","2019-01-24 18:00","2019","01","24","18:00","-1.5","","-2.1","","96","","","","5","","19","","12.9","","98.63","","","","-7","","Freezing Rain"
"-68.21","48.61","MONT JOLI A","7055121","2019-01-24 19:00","2019","01","24","19:00","-1.9","","-2.4","","96","","","","6","","23","","12.9","","98.49","","","","-8","","Freezing Rain"
"-68.21","48.61","MONT JOLI A","7055121","2019-01-24 20:00","2019","01","24","20:00","-2.3","","-2.9","","96","","","","5","","28","","4.8","","98.39","","","","-9","","Snow"
"-68.21","48.61","MONT JOLI A","7055121","2019-01-24 21:00","2019","01","24","21:00","-2.6","","-3.4","","94","","","","6","","31","","3.2","","98.21","","","","-10","","Snow"
"-68.21","48.61","MONT JOLI A","7055121","2019-01-24 22:00","2019","01","24","22:00","-2.5","","-3.4","","94","","","","5","","21","","3.2","","98.06","","","","-9","","Snow"
"-68.21","48.61","MONT JOLI A","7055121","2019-01-24 23:00","2019","01","24","23:00","-2.6","","-3.2","","96","","","","34","","15","","2.4","","98.11","","","","-8","","Snow"
"-68.21","48.61","MONT JOLI A","7055121","2019-01-25 00:00","2019","01","25","00:00","-3.5","","-4.2","","95","","","","28","","22","","1.2","","98.24","","","","-10","","Snow"
"-68.21","48.61","MONT JOLI A","7055121","2019-01-25 01:00","2019","01","25","01:00","-3.5","","-4.3","","95","","","","27","","22","","2.4","","98.29","","","","-10","","Snow"
"-68.21","48.61","MONT JOLI A","7055121","2019-01-25 02:00","2019","01","25","02:00","-3.8","","-4.7","","93","","","","26","","30","","2.4","","98.40","","","","-11","","Snow"
"-68.21","48.61","MONT JOLI A","7055121","2019-01-25 03:00","2019","01","25","03:00","-3.7","","-4.7","","93","","","","24","","29","","2.8","","98.55","","","","-11","","Snow"
"-68.21","48.61","MONT JOLI A","7055121","2019-01-25 04:00","2019","01","25","04:00","-4.9","","-6.5","","88","","","","24","","32","","4.8","","98.70","","","","-13","","Snow"
"-68.21","48.61","MONT JOLI A","7055121","2019-01-25 05:00","2019","01","25","05:00","-5.5","","-8.0","","83","","","","24","","34","","9.7","","98.83","","","","-14","","Snow,Blowing Snow"
"-68.21","48.61","MONT JOLI A","7055121","2019-01-25 06:00","2019","01","25","06:00","-6.5","","-9.3","","80","","","","23","","35","","12.9","","99.01","","","","-16","","Snow,Blowing Snow"
"-68.21","48.61","MONT JOLI A","7055121","2019-01-25 07:00","2019","01","25","07:00","-7.8","","-10.8","","79","","","","23","","29","","16.1","","99.14","","","","-17","","Snow,Blowing Snow"
"-68.21","48.61","MONT JOLI A","7055121","2019-01-25 08:00","2019","01","25","08:00","-9.0","","-12.1","","78","","","","22","","22","","24.1","","99.27","","","","-17","","Snow"
"-68.21","48.61","MONT JOLI A","7055121","2019-01-25 09:00","2019","01","25","09:00","-8.9","","-12.4","","76","","","","23","","28","","24.1","","99.37","","","","-18","","Blowing Snow"
"-68.21","48.61","MONT JOLI A","7055121","2019-01-25 10:00","2019","01","25","10:00","-8.7","","-12.4","","75","","","","24","","32","","24.1","","99.45","","","","-18","","Mainly Clear"
"-68.21","48.61","MONT JOLI A","7055121","2019-01-25 11:00","2019","01","25","11:00","-8.2","","-12.6","","71","","","","23","","41","","24.1","","99.55","","","","-18","","NA"
"-68.21","48.61","MONT JOLI A","7055121","2019-01-25 12:00","2019","01","25","12:00","-7.8","","-12.0","","72","","","","24","","25","","48.3","","99.63","","","","-16","","NA"
"-68.21","48.61","MONT JOLI A","7055121","2019-01-25 13:00","2019","01","25","13:00","-8.1","","-12.3","","72","","","","25","","36","","48.3","","99.63","","","","-18","","Mainly Clear"
"-68.21","48.61","MONT JOLI A","7055121","2019-01-25 14:00","2019","01","25","14:00","-8.1","","-12.6","","71","","","","25","","35","","48.3","","99.65","","","","-18","","NA"
"-68.21","48.61","MONT JOLI A","7055121","2019-01-25 15:00","2019","01","25","15:00","-7.9","","-12.5","","70","","","","25","","32","","48.3","","99.72","","","","-17","","NA"
"-68.21","48.61","MONT JOLI A","7055121","2019-01-25 16:00","2019","01","25","16:00","-8.5","","-12.9","","71","","","","25","","30","","48.3","","99.78","","","","-18","","Mainly Clear"
"-68.21","48.61","MONT JOLI A","7055121","2019-01-25 17:00","2019","01","25","17:00","-8.6","","-13.5","","68","","","","24","","17","","48.3","","99.88","","","","-15","","NA"
"-68.21","48.61","MONT JOLI A","7055121","2019-01-25 18:00","2019","01","25","18:00","-9.0","","-12.6","","75","","","","22","","15","","48.3","","99.97","","","","-16","","NA"
"-68.21","48.61","MONT JOLI A","7055121","2019-01-25 19:00","2019","01","25","19:00","-8.9","","-11.4","","82","","","","22","","13","","48.3","","100.03","","","","-15","","Snow"
"-68.21","48.61","MONT JOLI A","7055121","2019-01-25 20:00","2019","01","25","20:00","-9.0","","-11.3","","84","","","","27","","16","","3.2","","100.08","","","","-16","","Snow"
"-68.21","48.61","MONT JOLI A","7055121","2019-01-25 21:00","2019","01","25","21:00","-9.6","","-11.4","","87","","","","30","","15","","2.0","","100.14","","","","-16","","Snow"
"-68.21","48.61","MONT JOLI A","7055121","2019-01-25 22:00","2019","01","25","22:00","-10.2","","-13.5","","77","","","","29","","12","","8.1","","100.18","","","","-16","","Snow"
"-68.21","48.61","MONT JOLI A","7055121","2019-01-25 23:00","2019","01","25","23:00","-10.8","","-12.9","","85","","","","30","","8","","3.2","","100.26","","","","-15","","Snow"
"-68.21","48.61","MONT JOLI A","7055121","2019-01-26 00:00","2019","01","26","00:00","-11.0","","-12.9","","86","","","","36","","8","","4.8","","100.26","","","","-16","","Snow"
"-68.21","48.61","MONT JOLI A","7055121","2019-01-26 01:00","2019","01","26","01:00","-12.0","","-14.0","","85","","","","31","","19","","1.2","","100.40","","","","-20","","Snow"
"-68.21","48.61","MONT JOLI A","7055121","2019-01-26 02:00","2019","01","26","02:00","-13.0","","-15.6","","81","","","","28","","24","","2.4","","100.58","","","","-22","","Snow"
"-68.21","48.61","MONT JOLI A","7055121","2019-01-26 03:00","2019","01","26","03:00","-12.9","","-18.1","","65","","","","28","","21","","2.8","","100.69","","","","-22","","Snow"
"-68.21","48.61","MONT JOLI A","7055121","2019-01-26 04:00","2019","01","26","04:00","-14.4","","-18.9","","69","","","","23","","25","","24.1","","100.86","","","","-24","","Snow"
"-68.21","48.61","MONT JOLI A","7055121","2019-01-26 05:00","2019","01","26","05:00","-15.4","","-20.1","","68","","","","22","","21","","48.3","","100.99","","","","-25","","Snow"
"-68.21","48.61","MONT JOLI A","7055121","2019-01-26 06:00","2019","01","26","06:00","-16.0","","-20.4","","69","","","","24","","14","","48.3","","101.15","","","","-24","","Snow"
"-68.21","48.61","MONT JOLI A","7055121","2019-01-26 07:00","2019","01","26","07:00","-16.6","","-21.1","","69","","","","24","","13","","48.3","","101.26","","","","-24","","Snow"
"-68.21","48.61","MONT JOLI A","7055121","2019-01-26 08:00","2019","01","26","08:00","-16.1","","-21.6","","63","","","","26","","24","","48.3","","101.37","","","","-26","","NA"
"-68.21","48.61","MONT JOLI A","7055121","2019-01-26 09:00","2019","01","26","09:00","-16.5","","-22.4","","61","","","","26","","19","","48.3","","101.47","","","","-26","","Snow"
"-68.21","48.61","MONT JOLI A","7055121","2019-01-26 10:00","2019","01","26","10:00","-16.2","","-21.9","","62","","","","26","","26","","48.3","","101.54","","","","-27","","Snow"
"-68.21","48.61","MONT JOLI A","7055121","2019-01-26 11:00","2019","01","26","11:00","-16.2","","-22.0","","62","","","","26","","25","","24.1","","101.58","","","","-27","","Snow"
"-68.21","48.61","MONT JOLI A","7055121","2019-01-26 12:00","2019","01","26","12:00","-16.3","","-21.6","","64","","","","26","","22","","16.1","","101.58","","","","-26","","Snow"
"-68.21","48.61","MONT JOLI A","7055121","2019-01-26 13:00","2019","01","26","13:00","-16.2","","-21.0","","67","","","","28","","12","","16.1","","101.60","","","","-23","","Snow"
"-68.21","48.61","MONT JOLI A","7055121","2019-01-26 14:00","2019","01","26","14:00","-15.4","","-21.6","","60","","","","27","","11","","24.1","","101.64","","","","-22","","Snow"
"-68.21","48.61","MONT JOLI A","7055121","2019-01-26 15:00","2019","01","26","15:00","-15.5","","-21.8","","59","","","","24","","13","","24.1","","101.72","","","","-23","","Snow"
"-68.21","48.61","MONT JOLI A","7055121","2019-01-26 16:00","2019","01","26","16:00","-17.1","","-20.8","","73","","","","20","","9","","48.3","","101.78","","","","-23","","Mainly Clear"
"-68.21","48.61","MONT JOLI A","7055121","2019-01-26 17:00","2019","01","26","17:00","-18.3","","-20.7","","82","","","","17","","8","","48.3","","101.84","","","","-24","","NA"
"-68.21","48.61","MONT JOLI A","7055121","2019-01-26 18:00","2019","01","26","18:00","-18.2","","-20.9","","79","","","","16","","8","","48.3","","101.92","","","","-24","","NA"
"-68.21","48.61","MONT JOLI A","7055121","2019-01-26 19:00","2019","01","26","19:00","-17.5","","-20.3","","79","","","","15","","9","","24.1","","102.00","","","","-24","","Snow"
"-68.21","48.61","MONT JOLI A","7055121","2019-01-26 20:00","2019","01","26","20:00","-17.5","","-20.2","","80","","","","15","","5","","24.1","","102.07","","","","-21","","Snow"
"-68.21","48.61","MONT JOLI A","7055121","2019-01-26 21:00","2019","01","26","21:00","-19.7","","-22.5","","78","","","","14","","7","","24.1","","102.14","","","","-25","","Snow"
"-68.21","48.61","MONT JOLI A","7055121","2019-01-26 22:00","2019","01","26","22:00","-21.8","","-24.3","","81","","","","15","","10","","48.3","","102.16","","","","-29","","Snow"
"-68.21","48.61","MONT JOLI A","7055121","2019-01-26 23:00","2019","01","26","23:00","-22.2","","-24.7","","80","","","","16","","9","","48.3","","102.16","","","","-29","","NA"
"-68.21","48.61","MONT JOLI A","7055121","2019-01-27 00:00","2019","01","27","00:00","-24.1","","-26.7","","80","","","","14","","13","","48.3","","102.18","","","","-33","","NA"
"-68.21","48.61","MONT JOLI A","7055121","2019-01-27 01:00","2019","01","27","01:00","-21.8","","-24.9","","77","","","","14","","10","","48.3","","102.17","","","","-29","","Clear"
"-68.21","48.61","MONT JOLI A","7055121","2019-01-27 02:00","2019","01","27","02:00","-22.2","","-25.5","","75","","","","12","","10","","48.3","","102.18","","","","-30","","NA"
"-68.21","48.61","MONT JOLI A","7055121","2019-01-27 03:00","2019","01","27","03:00","-22.6","","-25.8","","75","","","","13","","13","","48.3","","102.13","","","","-32","","NA"
"-68.21","48.61","MONT JOLI A","7055121","2019-01-27 04:00","2019","01","27","04:00","-22.0","","-25.8","","72","","","","13","","16","","48.3","","102.12","","","","-32","","Clear"
"-68.21","48.61","MONT JOLI A","7055121","2019-01-27 05:00","2019","01","27","05:00","-21.9","","-25.3","","74","","","","14","","19","","48.3","","102.09","","","","-33","","NA"
"-68.21","48.61","MONT JOLI A","7055121","2019-01-27 06:00","2019","01","27","06:00","-21.9","","-25.4","","74","","","","9","","10","","48.3","","102.10","","","","-29","","NA"
"-68.21","48.61","MONT JOLI A","7055121","2019-01-27 07:00","2019","01","27","07:00","-20.4","","-24.1","","73","","","","12","","16","","24.1","","102.09","","","","-30","","Cloudy"
"-68.21","48.61","MONT JOLI A","7055121","2019-01-27 08:00","2019","01","27","08:00","-19.2","","-23.3","","70","","","","10","","18","","24.1","","102.00","","","","-29","","NA"
"-68.21","48.61","MONT JOLI A","7055121","2019-01-27 09:00","2019","01","27","09:00","-15.4","","-20.5","","65","","","","13","","20","","24.1","","101.89","","","","-25","","NA"
"-68.21","48.61","MONT JOLI A","7055121","2019-01-27 10:00","2019","01","27","10:00","-13.7","","-19.1","","64","","","","13","","17","","24.1","","101.77","","","","-22","","Mostly Cloudy"
"-68.21","48.61","MONT JOLI A","7055121","2019-01-27 11:00","2019","01","27","11:00","-11.2","","-17.3","","61","","","","14","","18","","24.1","","101.62","","","","-19","","NA"
"-68.21","48.61","MONT JOLI A","7055121","2019-01-27 12:00","2019","01","27","12:00","-9.6","","-14.8","","66","","","","12","","20","","24.1","","101.40","","","","-17","","NA"
"-68.21","48.61","MONT JOLI A","7055121","2019-01-27 13:00","2019","01","27","13:00","-8.6","","-13.5","","68","","","","6","","12","","24.1","","101.27","","","","-14","","Cloudy"
"-68.21","48.61","MONT JOLI A","7055121","2019-01-27 14:00","2019","01","27","14:00","-7.6","","-12.3","","69","","","","14","","24","","24.1","","101.15","","","","-16","","NA"
"-68.21","48.61","MONT JOLI A","7055121","2019-01-27 15:00","2019","01","27","15:00","-7.8","","-11.0","","78","","","","11","","22","","3.2","","100.97","","","","-15","","Snow"
"-68.21","48.61","MONT JOLI A","7055121","2019-01-27 16:00","2019","01","27","16:00","-7.7","","-10.9","","78","","","","13","","33","","2.4","","100.73","","","","-17","","Snow"
"-68.21","48.61","MONT JOLI A","7055121","2019-01-27 17:00","2019","01","27","17:00","-7.5","","-11.3","","74","","","","15","","46","","3.2","","100.54","","","","-18","","Snow,Blowing Snow"
"-68.21","48.61","MONT JOLI A","7055121","2019-01-27 18:00","2019","01","27","18:00","-7.3","","-11.1","","74","","","","15","","48","","4.0","","100.40","","","","-18","","Snow,Blowing Snow"
"-68.21","48.61","MONT JOLI A","7055121","2019-01-27 19:00","2019","01","27","19:00","-6.9","","-10.7","","75","","","","15","","52","","4.0","","100.26","","","","-18","","Snow,Blowing Snow"
"-68.21","48.61","MONT JOLI A","7055121","2019-01-27 20:00","2019","01","27","20:00","-6.6","","-9.8","","78","","","","15","","48","","2.8","","100.18","","","","-17","","Snow,Blowing Snow"
"-68.21","48.61","MONT JOLI A","7055121","2019-01-27 21:00","2019","01","27","21:00","-6.2","","-8.3","","85","","","","16","","42","","0.8","","100.14","","","","-16","","Snow,Blowing Snow"
"-68.21","48.61","MONT JOLI A","7055121","2019-01-27 22:00","2019","01","27","22:00","-5.7","","-7.2","","89","","","","26","","13","","0.8","","100.24","","","","-11","","Snow,Blowing Snow"
"-68.21","48.61","MONT JOLI A","7055121","2019-01-27 23:00","2019","01","27","23:00","-4.5","","-8.7","","73","","","","21","","19","","24.1","","100.20","","","","-11","","Snow"
"-68.21","48.61","MONT JOLI A","7055121","2019-01-28 00:00","2019","01","28","00:00","-4.5","","-10.2","","64","","","","22","","25","","24.1","","100.22","","","","-12","","Snow"
"-68.21","48.61","MONT JOLI A","7055121","2019-01-28 01:00","2019","01","28","01:00","-5.5","","-10.8","","66","","","","22","","27","","24.1","","100.24","","","","-13","","Cloudy"
"-68.21","48.61","MONT JOLI A","7055121","2019-01-28 02:00","2019","01","28","02:00","-7.9","","-13.1","","67","","","","28","","32","","8.1","","100.41","","","","-17","","Snow"
"-68.21","48.61","MONT JOLI A","7055121","2019-01-28 03:00","2019","01","28","03:00","-9.3","","-13.4","","73","","","","27","","22","","8.1","","100.46","","","","-17","","Snow"
"-68.21","48.61","MONT JOLI A","7055121","2019-01-28 04:00","2019","01","28","04:00","-10.4","","-14.2","","74","","","","27","","29","","24.1","","100.49","","","","-20","","Snow"
"-68.21","48.61","MONT JOLI A","7055121","2019-01-28 05:00","2019","01","28","05:00","-11.8","","-17.4","","63","","","","28","","30","","48.3","","100.55","","","","-22","","Snow,Blowing Snow"
"-68.21","48.61","MONT JOLI A","7055121","2019-01-28 06:00","2019","01","28","06:00","-12.7","","-19.0","","59","","","","27","","33","","48.3","","100.65","","","","-23","","Blowing Snow"
"-68.21","48.61","MONT JOLI A","7055121","2019-01-28 07:00","2019","01","28","07:00","-12.9","","-19.5","","58","","","","25","","39","","48.3","","100.66","","","","-25","","Blowing Snow"
"-68.21","48.61","MONT JOLI A","7055121","2019-01-28 08:00","2019","01","28","08:00","-14.9","","-20.2","","65","","","","27","","43","","3.2","","100.79","","","","-28","","Blowing Snow"
"-68.21","48.61","MONT JOLI A","7055121","2019-01-28 09:00","2019","01","28","09:00","-18.5","","-24.2","","61","","","","28","","43","","4.8","","101.00","","","","-33","","Blowing Snow"
"-68.21","48.61","MONT JOLI A","7055121","2019-01-28 10:00","2019","01","28","10:00","-18.9","","-25.8","","55","","","","27","","40","","24.1","","101.12","","","","-33","","Blowing Snow"
"-68.21","48.61","MONT JOLI A","7055121","2019-01-28 11:00","2019","01","28","11:00","-19.1","","-26.0","","55","","","","28","","30","","48.3","","101.22","","","","-31","","Blowing Snow"
"-68.21","48.61","MONT JOLI A","7055121","2019-01-28 12:00","2019","01","28","12:00","-19.1","","-25.2","","59","","","","26","","30","","48.3","","101.34","","","","-31","","NA"
"-68.21","48.61","MONT JOLI A","7055121","2019-01-28 13:00","2019","01","28","13:00","-19.1","","-23.3","","70","","","","23","","22","","3.2","","101.42","","","","-30","","Snow Showers,Blowing Snow"
"-68.21","48.61","MONT JOLI A","7055121","2019-01-28 14:00","2019","01","28","14:00","-19.1","","-23.3","","70","","","","23","","23","","4.8","","101.50","","","","-30","","Snow Showers,Blowing Snow"
"-68.21","48.61","MONT JOLI A","7055121","2019-01-28 15:00","2019","01","28","15:00","-18.9","","-23.3","","69","","","","24","","27","","4.8","","101.59","","","","-31","","Snow Showers,Blowing Snow"
"-68.21","48.61","MONT JOLI A","7055121","2019-01-28 16:00","2019","01","28","16:00","-18.9","","-24.9","","59","","","","27","","23","","24.1","","101.62","","","","-30","","Mainly Clear"
"-68.21","48.61","MONT JOLI A","7055121","2019-01-28 17:00","2019","01","28","17:00","-18.9","","-25.0","","59","","","","27","","30","","24.1","","101.66","","","","-31","","NA"
"-68.21","48.61","MONT JOLI A","7055121","2019-01-28 18:00","2019","01","28","18:00","-18.9","","-24.8","","61","","","","28","","23","","24.1","","101.75","","","","-30","","NA"
"-68.21","48.61","MONT JOLI A","7055121","2019-01-28 19:00","2019","01","28","19:00","-19.5","","-25.7","","58","","","","30","","24","","24.1","","101.81","","","","-31","","Mainly Clear"
"-68.21","48.61","MONT JOLI A","7055121","2019-01-28 20:00","2019","01","28","20:00","-20.6","","-26.9","","58","","","","32","","25","","24.1","","101.81","","","","-32","","NA"
"-68.21","48.61","MONT JOLI A","7055121","2019-01-28 21:00","2019","01","28","21:00","-21.7","","-27.2","","62","","","","34","","19","","24.1","","101.79","","","","-32","","NA"
"-68.21","48.61","MONT JOLI A","7055121","2019-01-28 22:00","2019","01","28","22:00","-22.4","","-27.3","","65","","","","36","","19","","24.1","","101.79","","","","-33","","Clear"
"-68.21","48.61","MONT JOLI A","7055121","2019-01-28 23:00","2019","01","28","23:00","-22.8","","-27.4","","67","","","","1","","15","","24.1","","101.81","","","","-33","","NA"
"-68.21","48.61","MONT JOLI A","7055121","2019-01-29 00:00","2019","01","29","00:00","-22.7","","-27.0","","68","","","","33","","16","","24.1","","101.83","","","","-33","","NA"
"-68.21","48.61","MONT JOLI A","7055121","2019-01-29 01:00","2019","01","29","01:00","-23.0","","-27.3","","69","","","","36","","9","","24.1","","101.91","","","","-30","","Mainly Clear"
"-68.21","48.61","MONT JOLI A","7055121","2019-01-29 02:00","2019","01","29","02:00","-23.0","","-27.0","","70","","","","27","","8","","24.1","","102.01","","","","-30","","NA"
"-68.21","48.61","MONT JOLI A","7055121","2019-01-29 03:00","2019","01","29","03:00","-24.5","","-27.9","","74","","","","20","","6","","24.1","","102.01","","","","-30","","NA"
"-68.21","48.61","MONT JOLI A","7055121","2019-01-29 04:00","2019","01","29","04:00","-24.6","","-27.9","","75","","","","17","","7","","24.1","","102.03","","","","-31","","Mostly Cloudy"
"-68.21","48.61","MONT JOLI A","7055121","2019-01-29 05:00","2019","01","29","05:00","-25.2","","-28.4","","75","","","","16","","5","","24.1","","101.96","","","","-30","","Snow"
"-68.21","48.61","MONT JOLI A","7055121","2019-01-29 06:00","2019","01","29","06:00","-26.6","","-30.1","","73","","","","15","","9","","24.1","","101.94","","","","-35","","Snow"
"-68.21","48.61","MONT JOLI A","7055121","2019-01-29 07:00","2019","01","29","07:00","-25.0","","-28.4","","73","","","","14","","10","","24.1","","101.92","","","","-33","","Mostly Cloudy"
"-68.21","48.61","MONT JOLI A","7055121","2019-01-29 08:00","2019","01","29","08:00","-23.2","","-26.9","","72","","","","13","","8","","24.1","","101.87","","","","-30","","NA"
"-68.21","48.61","MONT JOLI A","7055121","2019-01-29 09:00","2019","01","29","09:00","-22.2","","-26.4","","69","","","","12","","6","","24.1","","101.84","","","","-28","","NA"
"-68.21","48.61","MONT JOLI A","7055121","2019-01-29 10:00","2019","01","29","10:00","-21.2","","-25.8","","67","","","","11","","7","","24.1","","101.89","","","","-27","","Cloudy"
"-68.21","48.61","MONT JOLI A","7055121","2019-01-29 11:00","2019","01","29","11:00","-20.2","","-24.8","","67","","","","9","","5","","24.1","","101.81","","","","-25","","NA"
"-68.21","48.61","MONT JOLI A","7055121","2019-01-29 12:00","2019","01","29","12:00","-19.0","","-22.8","","73","","","","5","","14","","24.1","","101.74","","","","-28","","Snow"
"-68.21","48.61","MONT JOLI A","7055121","2019-01-29 13:00","2019","01","29","13:00","-18.1","","-22.1","","71","","","","6","","18","","16.1","","101.60","","","","-28","","Snow"
"-68.21","48.61","MONT JOLI A","7055121","2019-01-29 14:00","2019","01","29","14:00","-17.2","","-21.1","","72","","","","6","","16","","4.8","","101.58","","","","-26","","Snow"
"-68.21","48.61","MONT JOLI A","7055121","2019-01-29 15:00","2019","01","29","15:00","-16.2","","-20.4","","70","","","","6","","17","","24.1","","101.56","","","","-25","","Snow"
"-68.21","48.61","MONT JOLI A","7055121","2019-01-29 16:00","2019","01","29","16:00","-15.6","","-19.3","","74","","","","7","","15","","24.1","","101.43","","","","-24","","Cloudy"
"-68.21","48.61","MONT JOLI A","7055121","2019-01-29 17:00","2019","01","29","17:00","-14.6","","-19.5","","67","","","","5","","16","","24.1","","101.44","","","","-23","","NA"
"-68.21","48.61","MONT JOLI A","7055121","2019-01-29 18:00","2019","01","29","18:00","-15.7","","-19.5","","73","","","","7","","11","","24.1","","101.42","","","","-22","","NA"
"-68.21","48.61","MONT JOLI A","7055121","2019-01-29 19:00","2019","01","29","19:00","-14.5","","-18.9","","70","","","","9","","9","","24.1","","101.44","","","","-20","","Mostly Cloudy"
"-68.21","48.61","MONT JOLI A","7055121","2019-01-29 20:00","2019","01","29","20:00","-14.2","","-18.8","","69","","","","8","","9","","24.1","","101.39","","","","-20","","NA"
"-68.21","48.61","MONT JOLI A","7055121","2019-01-29 21:00","2019","01","29","21:00","-12.7","","-18.5","","62","","","","15","","8","","24.1","","101.33","","","","-18","","NA"
"-68.21","48.61","MONT JOLI A","7055121","2019-01-29 22:00","2019","01","29","22:00","-12.4","","-18.4","","61","","","","12","","8","","24.1","","101.32","","","","-17","","Cloudy"
"-68.21","48.61","MONT JOLI A","7055121","2019-01-29 23:00","2019","01","29","23:00","-12.3","","-18.0","","63","","","","14","","18","","24.1","","101.29","","","","-20","","NA"
"-68.21","48.61","MONT JOLI A","7055121","2019-01-30 00:00","2019","01","30","00:00","-12.1","","-17.8","","63","","","","7","","7","","9.7","","101.26","","","","-16","","Snow"
"-68.21","48.61","MONT JOLI A","7055121","2019-01-30 01:00","2019","01","30","01:00","-12.5","","-15.5","","78","","","","14","","5","","1.6","","101.19","","","","-16","","Snow"
"-68.21","48.61","MONT JOLI A","7055121","2019-01-30 02:00","2019","01","30","02:00","-11.9","","-15.2","","77","","","","6","","12","","9.7","","101.09","","","","-18","","Snow,Blowing Snow"
"-68.21","48.61","MONT JOLI A","7055121","2019-01-30 03:00","2019","01","30","03:00","-11.1","","-15.6","","70","","","","10","","17","","6.4","","100.93","","","","-19","","Snow,Blowing Snow"
"-68.21","48.61","MONT JOLI A","7055121","2019-01-30 04:00","2019","01","30","04:00","-10.6","","-14.5","","73","","","","11","","30","","16.1","","100.77","","","","-20","","Snow,Blowing Snow"
"-68.21","48.61","MONT JOLI A","7055121","2019-01-30 05:00","2019","01","30","05:00","-10.1","","-14.8","","69","","","","11","","13","","24.1","","100.78","","","","-16","","Snow"
"-68.21","48.61","MONT JOLI A","7055121","2019-01-30 06:00","2019","01","30","06:00","-10.0","","-14.0","","73","","","","5","","9","","24.1","","100.70","","","","-15","","NA"
"-68.21","48.61","MONT JOLI A","7055121","2019-01-30 07:00","2019","01","30","07:00","-10.0","","-12.6","","82","","","","5","","12","","3.2","","100.63","","","","-16","","Snow"
"-68.21","48.61","MONT JOLI A","7055121","2019-01-30 08:00","2019","01","30","08:00","-9.9","","-11.6","","88","","","","5","","10","","0.8","","100.55","","","","-15","","Moderate Snow"
"-68.21","48.61","MONT JOLI A","7055121","2019-01-30 09:00","2019","01","30","09:00","-9.4","","-11.0","","88","","","","7","","22","","1.0","","100.39","","","","-17","","Snow"
"-68.21","48.61","MONT JOLI A","7055121","2019-01-30 10:00","2019","01","30","10:00","-9.2","","-10.9","","87","","","","6","","27","","1.0","","100.22","","","","-18","","Snow"
"-68.21","48.61","MONT JOLI A","7055121","2019-01-30 11:00","2019","01","30","11:00","-8.8","","-10.5","","87","","","","6","","23","","1.0","","99.99","","","","-17","","Snow"
"-68.21","48.61","MONT JOLI A","7055121","2019-01-30 12:00","2019","01","30","12:00","-7.9","","-9.5","","88","","","","5","","21","","1.0","","99.74","","","","-15","","Snow"
"-68.21","48.61","MONT JOLI A","7055121","2019-01-30 13:00","2019","01","30","13:00","-6.8","","-8.4","","88","","","","5","","19","","1.0","","99.59","","","","-14","","Snow"
"-68.21","48.61","MONT JOLI A","7055121","2019-01-30 14:00","2019","01","30","14:00","-6.6","","-8.0","","90","","","","7","","18","","0.8","","99.41","","","","-13","","Moderate Snow"
"-68.21","48.61","MONT JOLI A","7055121","2019-01-30 15:00","2019","01","30","15:00","-6.2","","-7.6","","90","","","","6","","18","","1.2","","99.25","","","","-13","","Snow"
"-68.21","48.61","MONT JOLI A","7055121","2019-01-30 16:00","2019","01","30","16:00","-6.3","","-7.5","","91","","","","8","","10","","1.6","","99.16","","","","-11","","Snow"
"-68.21","48.61","MONT JOLI A","7055121","2019-01-30 17:00","2019","01","30","17:00","-6.4","","-7.7","","91","","","","23","","10","","0.8","","99.14","","","","-11","","Moderate Snow"
"-68.21","48.61","MONT JOLI A","7055121","2019-01-30 18:00","2019","01","30","18:00","-7.5","","-10.0","","82","","","","23","","25","","9.7","","99.15","","","","-16","","Snow"
"-68.21","48.61","MONT JOLI A","7055121","2019-01-30 19:00","2019","01","30","19:00","-8.6","","-10.4","","87","","","","26","","54","","0.8","","99.23","","","","-20","","Moderate Snow,Blowing Snow"
"-68.21","48.61","MONT JOLI A","7055121","2019-01-30 20:00","2019","01","30","20:00","-8.8","","-14.0","","67","","","","26","","47","","2.4","","99.39","","","","-20","","Snow,Blowing Snow"
"-68.21","48.61","MONT JOLI A","7055121","2019-01-30 21:00","2019","01","30","21:00","-10.3","","-15.2","","68","","","","25","","42","","3.2","","99.52","","","","-21","","Snow,Blowing Snow"
"-68.21","48.61","MONT JOLI A","7055121","2019-01-30 22:00","2019","01","30","22:00","-10.8","","-17.3","","60","","","","24","","27","","16.1","","99.61","","","","-20","","Snow,Blowing Snow"
"-68.21","48.61","MONT JOLI A","7055121","2019-01-30 23:00","2019","01","30","23:00","-11.0","","-17.9","","57","","","","25","","36","","24.1","","99.63","","","","-22","","Snow,Blowing Snow"
"-68.21","48.61","MONT JOLI A","7055121","2019-01-31 00:00","2019","01","31","00:00","-11.6","","-17.2","","63","","","","25","","28","","24.1","","99.66","","","","-21","","Blowing Snow"
"-68.21","48.61","MONT JOLI A","7055121","2019-01-31 01:00","2019","01","31","01:00","-12.1","","-17.1","","67","","","","24","","20","","24.1","","99.66","","","","-21","","Blowing Snow"
"-68.21","48.61","MONT JOLI A","7055121","2019-01-31 02:00","2019","01","31","02:00","-12.6","","-18.4","","62","","","","26","","33","","24.1","","99.71","","","","-23","","Blowing Snow"
"-68.21","48.61","MONT JOLI A","7055121","2019-01-31 03:00","2019","01","31","03:00","-13.1","","-19.2","","60","","","","26","","31","","24.1","","99.77","","","","-24","","Snow,Blowing Snow"
"-68.21","48.61","MONT JOLI A","7055121","2019-01-31 04:00","2019","01","31","04:00","-13.4","","-19.8","","59","","","","25","","39","","24.1","","99.84","","","","-25","","Snow,Blowing Snow"
"-68.21","48.61","MONT JOLI A","7055121","2019-01-31 05:00","2019","01","31","05:00","-13.5","","-19.9","","59","","","","25","","27","","24.1","","99.87","","","","-24","","Snow,Blowing Snow"
"-68.21","48.61","MONT JOLI A","7055121","2019-01-31 06:00","2019","01","31","06:00","-14.7","","-17.8","","77","","","","22","","21","","1.0","","99.93","","","","-24","","Snow,Blowing Snow"
"-68.21","48.61","MONT JOLI A","7055121","2019-01-31 07:00","2019","01","31","07:00","-15.3","","-18.9","","74","","","","23","","30","","2.8","","99.97","","","","-26","","Snow"
"-68.21","48.61","MONT JOLI A","7055121","2019-01-31 08:00","2019","01","31","08:00","-15.9","","-21.2","","64","","","","23","","23","","24.1","","100.04","","","","-26","","Snow"
"-68.21","48.61","MONT JOLI A","7055121","2019-01-31 09:00","2019","01","31","09:00","-16.0","","-21.4","","64","","","","23","","26","","24.1","","100.07","","","","-27","","NA"
"-68.21","48.61","MONT JOLI A","7055121","2019-01-31 10:00","2019","01","31","10:00","-15.5","","-20.6","","65","","","","24","","33","","4.8","","100.08","","","","-27","","Snow"
"-68.21","48.61","MONT JOLI A","7055121","2019-01-31 11:00","2019","01","31","11:00","-15.4","","-21.6","","60","","","","23","","36","","4.8","","100.08","","","","-27","","Snow"
"-68.21","48.61","MONT JOLI A","7055121","2019-01-31 12:00","2019","01","31","12:00","-16.5","","-19.3","","79","","","","24","","40","","0.0","","100.08","","","","-29","","Moderate Snow,Blowing Snow"
"-68.21","48.61","MONT JOLI A","7055121","2019-01-31 13:00","2019","01","31","13:00","-16.5","","-21.6","","65","","","","25","","39","","4.8","","100.12","","","","-29","","Snow"
"-68.21","48.61","MONT JOLI A","7055121","2019-01-31 14:00","2019","01","31","14:00","-16.6","","-22.7","","60","","","","24","","40","","16.1","","100.16","","","","-30","","Snow"
"-68.21","48.61","MONT JOLI A","7055121","2019-01-31 15:00","2019","01","31","15:00","-16.7","","-20.4","","73","","","","24","","31","","2.4","","100.21","","","","-28","","Snow,Blowing Snow"
"-68.21","48.61","MONT JOLI A","7055121","2019-01-31 16:00","2019","01","31","16:00","-17.0","","-22.1","","65","","","","26","","37","","6.4","","100.25","","","","-30","","Snow"
"-68.21","48.61","MONT JOLI A","7055121","2019-01-31 17:00","2019","01","31","17:00","-17.2","","-23.0","","61","","","","26","","35","","16.1","","100.35","","","","-30","","Snow"
"-68.21","48.61","MONT JOLI A","7055121","2019-01-31 18:00","2019","01","31","18:00","-17.5","","-23.8","","58","","","","26","","41","","16.1","","100.48","","","","-31","","Snow"
"-68.21","48.61","MONT JOLI A","7055121","2019-01-31 19:00","2019","01","31","19:00","-17.8","","-24.2","","58","","","","26","","37","","48.3","","100.54","","","","-31","","Snow,Blowing Snow"
"-68.21","48.61","MONT JOLI A","7055121","2019-01-31 20:00","2019","01","31","20:00","-18.3","","-23.4","","65","","","","25","","33","","24.1","","100.59","","","","-31","","Snow,Blowing Snow"
"-68.21","48.61","MONT JOLI A","7055121","2019-01-31 21:00","2019","01","31","21:00","-18.2","","-23.1","","66","","","","24","","26","","16.1","","100.60","","","","-29","","Snow,Blowing Snow"
"-68.21","48.61","MONT JOLI A","7055121","2019-01-31 22:00","2019","01","31","22:00","-18.0","","-23.1","","65","","","","24","","39","","16.1","","100.56","","","","-31","","Snow,Blowing Snow"
"-68.21","48.61","MONT JOLI A","7055121","2019-01-31 23:00","2019","01","31","23:00","-18.9","","-22.7","","72","","","","23","","25","","16.1","","100.53","","","","-30","","Snow,Blowing Snow"
