"Longitude (x)","Latitude (y)","Station Name","Climate ID","Date/Time (LST)","Year","Month","Day","Time (LST)","Temp (°C)","Temp Flag","Dew Point Temp (°C)","Dew Point Temp Flag","Rel Hum (%)","Rel Hum Flag","Precip. Amount (mm)","Precip. Amount Flag","Wind Dir (10s deg)","Wind Dir Flag","Wind Spd (km/h)","Wind Spd Flag","Visibility (km)","Visibility Flag","Stn Press (kPa)","Stn Press Flag","Hmdx","Hmdx Flag","Wind Chill","Wind Chill Flag","Weather"
"-115.78","60.84","HAY RIVER A","2202401","2018-01-01 00:00","2018","01","01","00:00","-27.0","","-31.2","","68","","","","19","","20","","24.1","","100.31","","","","-39","","NA"
"-115.78","60.84","HAY RIVER A","2202401","2018-01-01 01:00","2018","01","01","01:00","-26.6","","-31.0","","67","","","","19","","18","","24.1","","100.28","","","","-38","","NA"
"-115.78","60.84","HAY RIVER A","2202401","2018-01-01 02:00","2018","01","01","02:00","-26.5","","-30.7","","68","","","","20","","14","","24.1","","100.19","","","","-37","","Mainly Clear"
"-115.78","60.84","HAY RIVER A","2202401","2018-01-01 03:00","2018","01","01","03:00","-26.2","","-30.3","","69","","","","19","","11","","24.1","","100.14","","","","-35","","NA"
"-115.78","60.84","HAY RIVER A","2202401","2018-01-01 04:00","2018","01","01","04:00","-26.5","","-30.4","","70","","","","19","","12","","24.1","","100.09","","","","-36","","NA"
"-115.78","60.84","HAY RIVER A","2202401","2018-01-01 05:00","2018","01","01","05:00","-27.2","","-30.9","","72","","","","18","","7","","24.1","","100.05","","","","-34","","Mainly Clear"
"-115.78","60.84","HAY RIVER A","2202401","2018-01-01 06:00","2018","01","01","06:00","-26.9","","-30.4","","73","","","","17","","5","","24.1","","99.99","","","","-32","","NA"
"-115.78","60.84","HAY RIVER A","2202401","2018-01-01 07:00","2018","01","01","07:00","-27.7","","-30.8","","75","","","","20","","9","","24.1","","99.97","","","","-36","","NA"
"-115.78","60.84","HAY RIVER A","2202401","2018-01-01 08:00","2018","01","01","08:00","-29.0","","-32.2","","75","","","","17","","8","","24.1","","99.86","","","","-37","","Mainly Clear"
"-115.78","60.84","HAY RIVER A","2202401","2018-01-01 09:00","2018","01","01","09:00","-29.2","","-32.2","","75","","","","18","","8","","24.1","","99.81","","","","-37","","NA"
"-115.78","60.84","HAY RIVER A","2202401","2018-01-01 10:00","2018","01","01","10:00","-27.7","","-30.9","","75","","","","19","","8","","24.1","","99.74","","","","-35","","NA"
"-115.78","60.84","HAY RIVER A","2202401","2018-01-01 11:00","2018","01","01","11:00","-27.0","","-30.4","","73","","","","6","","3","","24.1","","99.71","","","","-30","","Mostly Cloudy"
"-115.78","60.84","HAY RIVER A","2202401","2018-01-01 12:00","2018","01","01","12:00","-26.7","","-30.1","","74","","","","36","","3","","24.1","","99.68","","","","-30","","NA"
"-115.78","60.84","HAY RIVER A","2202401","2018-01-01 13:00","2018","01","01","13:00","-26.3","","-29.8","","73","","","","36","","2","","24.1","","99.66","","","","-28","","NA"
"-115.78","60.84","HAY RIVER A","2202401","2018-01-01 14:00","2018","01","01","14:00","-25.9","","-29.7","","71","","","","33","","7","","24.1","","99.67","","","","-33","","Mostly Cloudy"
"-115.78","60.84","HAY RIVER A","2202401","2018-01-01 15:00","2018","01","01","15:00","-26.1","","-29.8","","72","","","","30","","8","","24.1","","99.67","","","","-33","","NA"
"-115.78","60.84","HAY RIVER A","2202401","2018-01-01 16:00","2018","01","01","16:00","-26.0","","-29.5","","73","","","","29","","8","","24.1","","99.69","","","","-33","","NA"
"-115.78","60.84","HAY RIVER A","2202401","2018-01-01 17:00","2018","01","01","17:00","-26.2","","-29.5","","74","","","","29","","11","","24.1","","99.86","","","","-35","","Mostly Cloudy"
"-115.78","60.84","HAY RIVER A","2202401","2018-01-01 18:00","2018","01","01","18:00","-24.8","","-27.9","","75","","","","30","","12","","24.1","","99.90","","","","-34","","NA"
"-115.78","60.84","HAY RIVER A","2202401","2018-01-01 19:00","2018","01","01","19:00","-24.8","","-27.8","","77","","","","29","","14","","24.1","","99.98","","","","-35","","NA"
"-115.78","60.84","HAY RIVER A","2202401","2018-01-01 20:00","2018","01","01","20:00","-24.0","","-26.8","","78","","","","29","","9","","24.1","","100.02","","","","-31","","Cloudy"
"-115.78","60.84","HAY RIVER A","2202401","2018-01-01 21:00","2018","01","01","21:00","-23.1","","-26.4","","75","","","","33","","16","","24.1","","100.15","","","","-33","","NA"
"-115.78","60.84","HAY RIVER A","2202401","2018-01-01 22:00","2018","01","01","22:00","-25.2","","-28.1","","77","","","","32","","13","","24.1","","100.25","","","","-35","","NA"
"-115.78","60.84","HAY RIVER A","2202401","2018-01-01 23:00","2018","01","01","23:00","-27.2","","-30.1","","77","","","","29","","14","","24.1","","100.36","","","","-38","","Mainly Clear"
"-115.78","60.84","HAY RIVER A","2202401","2018-01-02 00:00","2018","01","02","00:00","-27.9","","-30.9","","77","","","","29","","17","","24.1","","100.48","","","","-40","","NA"
"-115.78","60.84","HAY RIVER A","2202401","2018-01-02 01:00","2018","01","02","01:00","-28.5","","-31.5","","76","","","","29","","21","","24.1","","100.63","","","","-41","","NA"
"-115.78","60.84","HAY RIVER A","2202401","2018-01-02 02:00","2018","01","02","02:00","-28.9","","-31.9","","76","","","","30","","13","","24.1","","100.69","","","","-39","","Mainly Clear"
"-115.78","60.84","HAY RIVER A","2202401","2018-01-02 03:00","2018","01","02","03:00","-29.1","","-32.1","","76","","","","30","","6","","24.1","","100.74","","","","-35","","NA"
"-115.78","60.84","HAY RIVER A","2202401","2018-01-02 04:00","2018","01","02","04:00","-29.1","","-32.1","","76","","","","28","","5","","24.1","","100.82","","","","-35","","NA"
"-115.78","60.84","HAY RIVER A","2202401","2018-01-02 05:00","2018","01","02","05:00","-29.4","","-32.4","","76","","","","36","","2","","24.1","","100.86","","","","-32","","Mostly Cloudy"
"-115.78","60.84","HAY RIVER A","2202401","2018-01-02 06:00","2018","01","02","06:00","-29.6","","-32.7","","75","","","","23","","7","","24.1","","100.91","","","","-37","","NA"
"-115.78","60.84","HAY RIVER A","2202401","2018-01-02 07:00","2018","01","02","07:00","-29.4","","-32.6","","75","","","","19","","4","","24.1","","100.86","","","","-34","","NA"
"-115.78","60.84","HAY RIVER A","2202401","2018-01-02 08:00","2018","01","02","08:00","-28.6","","-31.7","","76","","","","16","","9","","24.1","","100.79","","","","-37","","Mostly Cloudy"
"-115.78","60.84","HAY RIVER A","2202401","2018-01-02 09:00","2018","01","02","09:00","-28.0","","-31.0","","76","","","","13","","8","","24.1","","100.74","","","","-36","","NA"
"-115.78","60.84","HAY RIVER A","2202401","2018-01-02 10:00","2018","01","02","10:00","-26.9","","-29.9","","76","","","","12","","9","","24.1","","100.67","","","","-35","","NA"
"-115.78","60.84","HAY RIVER A","2202401","2018-01-02 11:00","2018","01","02","11:00","-25.5","","-28.6","","76","","","","12","","10","","24.1","","100.61","","","","-34","","Mostly Cloudy"
"-115.78","60.84","HAY RIVER A","2202401","2018-01-02 12:00","2018","01","02","12:00","-23.5","","-26.7","","76","","","","15","","12","","24.1","","100.52","","","","-32","","NA"
"-115.78","60.84","HAY RIVER A","2202401","2018-01-02 13:00","2018","01","02","13:00","-22.2","","-25.7","","74","","","","13","","14","","24.1","","100.37","","","","-31","","NA"
"-115.78","60.84","HAY RIVER A","2202401","2018-01-02 14:00","2018","01","02","14:00","-20.9","","-24.7","","72","","","","13","","14","","24.1","","100.22","","","","-30","","Cloudy"
"-115.78","60.84","HAY RIVER A","2202401","2018-01-02 15:00","2018","01","02","15:00","-20.3","","-23.7","","74","","","","13","","16","","24.1","","100.17","","","","-30","","Freezing Drizzle"
"-115.78","60.84","HAY RIVER A","2202401","2018-01-02 16:00","2018","01","02","16:00","-19.6","","-22.6","","78","","","","13","","16","","24.1","","100.02","","","","-29","","NA"
"-115.78","60.84","HAY RIVER A","2202401","2018-01-02 17:00","2018","01","02","17:00","-19.2","","-22.2","","77","","","","12","","16","","24.1","","100.04","","","","-28","","Mostly Cloudy"
"-115.78","60.84","HAY RIVER A","2202401","2018-01-02 18:00","2018","01","02","18:00","-19.8","","-22.9","","77","","","","12","","10","","24.1","","100.03","","","","-27","","NA"
"-115.78","60.84","HAY RIVER A","2202401","2018-01-02 19:00","2018","01","02","19:00","-20.3","","-23.4","","77","","","","12","","15","","24.1","","99.95","","","","-29","","NA"
"-115.78","60.84","HAY RIVER A","2202401","2018-01-02 20:00","2018","01","02","20:00","-20.6","","-23.5","","78","","","","12","","14","","24.1","","99.94","","","","-29","","Mainly Clear"
"-115.78","60.84","HAY RIVER A","2202401","2018-01-02 21:00","2018","01","02","21:00","-20.7","","-23.5","","79","","","","11","","11","","24.1","","99.93","","","","-28","","NA"
"-115.78","60.84","HAY RIVER A","2202401","2018-01-02 22:00","2018","01","02","22:00","-20.9","","-23.6","","79","","","","11","","10","","24.1","","99.94","","","","-28","","NA"
"-115.78","60.84","HAY RIVER A","2202401","2018-01-02 23:00","2018","01","02","23:00","-21.4","","-24.0","","80","","","","10","","10","","24.1","","99.93","","","","-29","","Mainly Clear"
"-115.78","60.84","HAY RIVER A","2202401","2018-01-03 00:00","2018","01","03","00:00","-21.8","","-24.2","","81","","","","11","","9","","24.1","","99.97","","","","-29","","NA"
"-115.78","60.84","HAY RIVER A","2202401","2018-01-03 01:00","2018","01","03","01:00","-22.1","","-24.7","","80","","","","12","","8","","24.1","","99.99","","","","-29","","NA"
"-115.78","60.84","HAY RIVER A","2202401","2018-01-03 02:00","2018","01","03","02:00","-21.5","","-24.3","","79","","","","11","","11","","24.1","","99.97","","","","-29","","Mostly Cloudy"
"-115.78","60.84","HAY RIVER A","2202401","2018-01-03 03:00","2018","01","03","03:00","-21.6","","-24.4","","78","","","","13","","9","","24.1","","100.01","","","","-29","","NA"
"-115.78","60.84","HAY RIVER A","2202401","2018-01-03 04:00","2018","01","03","04:00","-21.5","","-24.3","","78","","","","11","","7","","24.1","","100.06","","","","-27","","NA"
"-115.78","60.84","HAY RIVER A","2202401","2018-01-03 05:00","2018","01","03","05:00","-22.4","","-25.0","","80","","","","10","","11","","24.1","","100.04","","","","-31","","Mostly Cloudy"
"-115.78","60.84","HAY RIVER A","2202401","2018-01-03 06:00","2018","01","03","06:00","-22.7","","-25.3","","79","","","","10","","9","","24.1","","100.04","","","","-30","","NA"
"-115.78","60.84","HAY RIVER A","2202401","2018-01-03 07:00","2018","01","03","07:00","-23.3","","-25.9","","79","","","","10","","8","","24.1","","100.04","","","","-30","","NA"
"-115.78","60.84","HAY RIVER A","2202401","2018-01-03 08:00","2018","01","03","08:00","-22.9","","-25.6","","79","","","","9","","10","","24.1","","100.02","","","","-31","","Snow"
"-115.78","60.84","HAY RIVER A","2202401","2018-01-03 09:00","2018","01","03","09:00","-21.9","","-24.8","","78","","","","13","","10","","24.1","","100.00","","","","-29","","NA"
"-115.78","60.84","HAY RIVER A","2202401","2018-01-03 10:00","2018","01","03","10:00","-21.2","","-24.2","","77","","","","13","","10","","24.1","","100.01","","","","-29","","NA"
"-115.78","60.84","HAY RIVER A","2202401","2018-01-03 11:00","2018","01","03","11:00","-21.1","","-24.0","","78","","","","11","","10","","24.1","","99.99","","","","-29","","Mostly Cloudy"
"-115.78","60.84","HAY RIVER A","2202401","2018-01-03 12:00","2018","01","03","12:00","-20.9","","-23.8","","78","","","","7","","4","","24.1","","100.03","","","","-24","","NA"
"-115.78","60.84","HAY RIVER A","2202401","2018-01-03 13:00","2018","01","03","13:00","-20.5","","-23.4","","78","","","","10","","8","","24.1","","99.98","","","","-27","","NA"
"-115.78","60.84","HAY RIVER A","2202401","2018-01-03 14:00","2018","01","03","14:00","-19.7","","-22.6","","78","","","","11","","6","","24.1","","99.94","","","","-25","","Mostly Cloudy"
"-115.78","60.84","HAY RIVER A","2202401","2018-01-03 15:00","2018","01","03","15:00","-19.1","","-22.0","","78","","","","10","","9","","24.1","","99.93","","","","-26","","NA"
"-115.78","60.84","HAY RIVER A","2202401","2018-01-03 16:00","2018","01","03","16:00","-18.7","","-21.6","","78","","","","10","","9","","24.1","","99.93","","","","-25","","NA"
"-115.78","60.84","HAY RIVER A","2202401","2018-01-03 17:00","2018","01","03","17:00","-18.3","","-21.1","","79","","","","10","","10","","24.1","","99.95","","","","-25","","Cloudy"
"-115.78","60.84","HAY RIVER A","2202401","2018-01-03 18:00","2018","01","03","18:00","-17.8","","-20.6","","79","","","","12","","14","","24.1","","99.87","","","","-26","","NA"
"-115.78","60.84","HAY RIVER A","2202401","2018-01-03 19:00","2018","01","03","19:00","-17.1","","-19.9","","79","","","","11","","12","","24.1","","99.84","","","","-25","","NA"
"-115.78","60.84","HAY RIVER A","2202401","2018-01-03 20:00","2018","01","03","20:00","-16.5","","-19.2","","80","","","","12","","10","","24.1","","99.76","","","","-23","","Mostly Cloudy"
"-115.78","60.84","HAY RIVER A","2202401","2018-01-03 21:00","2018","01","03","21:00","-15.9","","-18.6","","80","","","","12","","9","","24.1","","99.77","","","","-22","","NA"
"-115.78","60.84","HAY RIVER A","2202401","2018-01-03 22:00","2018","01","03","22:00","-15.4","","-18.0","","80","","","","11","","9","","19.3","","99.77","","","","-21","","Snow"
"-115.78","60.84","HAY RIVER A","2202401","2018-01-03 23:00","2018","01","03","23:00","-15.0","","-17.4","","83","","","","11","","9","","19.3","","99.76","","","","-21","","Snow"
"-115.78","60.84","HAY RIVER A","2202401","2018-01-04 00:00","2018","01","04","00:00","-14.7","","-16.8","","84","","","","10","","7","","19.3","","99.76","","","","-19","","Snow"
"-115.78","60.84","HAY RIVER A","2202401","2018-01-04 01:00","2018","01","04","01:00","-14.2","","-16.0","","87","","","","9","","11","","19.3","","99.74","","","","-21","","Snow"
"-115.78","60.84","HAY RIVER A","2202401","2018-01-04 02:00","2018","01","04","02:00","-13.8","","-15.7","","86","","","","9","","10","","19.3","","99.78","","","","-20","","Snow"
"-115.78","60.84","HAY RIVER A","2202401","2018-01-04 03:00","2018","01","04","03:00","-13.6","","-15.4","","86","","","","7","","5","","19.3","","99.84","","","","-17","","Snow"
"-115.78","60.84","HAY RIVER A","2202401","2018-01-04 04:00","2018","01","04","04:00","-13.3","","-15.2","","86","","","","10","","8","","24.1","","99.81","","","","-18","","Snow"
"-115.78","60.84","HAY RIVER A","2202401","2018-01-04 05:00","2018","01","04","05:00","-13.1","","-15.2","","85","","","","10","","3","","19.3","","99.83","","","","-15","","Snow"
"-115.78","60.84","HAY RIVER A","2202401","2018-01-04 06:00","2018","01","04","06:00","-12.9","","-14.8","","86","","","","7","","8","","19.3","","99.81","","","","-18","","Snow"
"-115.78","60.84","HAY RIVER A","2202401","2018-01-04 07:00","2018","01","04","07:00","-12.6","","-14.6","","85","","","","10","","8","","19.3","","99.81","","","","-18","","Snow"
"-115.78","60.84","HAY RIVER A","2202401","2018-01-04 08:00","2018","01","04","08:00","-12.4","","-14.3","","86","","","","10","","7","","16.1","","99.84","","","","-17","","Snow"
"-115.78","60.84","HAY RIVER A","2202401","2018-01-04 09:00","2018","01","04","09:00","-12.3","","-14.2","","86","","","","11","","7","","24.1","","99.83","","","","-17","","Snow"
"-115.78","60.84","HAY RIVER A","2202401","2018-01-04 10:00","2018","01","04","10:00","-12.0","","-14.1","","85","","","","14","","7","","24.1","","99.87","","","","-16","","Snow"
"-115.78","60.84","HAY RIVER A","2202401","2018-01-04 11:00","2018","01","04","11:00","-11.8","","-13.8","","85","","","","15","","8","","24.1","","99.89","","","","-17","","Snow"
"-115.78","60.84","HAY RIVER A","2202401","2018-01-04 12:00","2018","01","04","12:00","-11.8","","-13.2","","90","","","","13","","10","","24.1","","99.87","","","","-17","","Snow"
"-115.78","60.84","HAY RIVER A","2202401","2018-01-04 13:00","2018","01","04","13:00","-11.8","","-13.1","","90","","","","13","","12","","16.1","","99.88","","","","-18","","Snow"
"-115.78","60.84","HAY RIVER A","2202401","2018-01-04 14:00","2018","01","04","14:00","-11.6","","-12.8","","91","","","","12","","7","","16.1","","99.87","","","","-16","","Snow"
"-115.78","60.84","HAY RIVER A","2202401","2018-01-04 15:00","2018","01","04","15:00","-11.5","","-12.8","","91","","","","11","","9","","24.1","","99.87","","","","-17","","Snow"
"-115.78","60.84","HAY RIVER A","2202401","2018-01-04 16:00","2018","01","04","16:00","-11.6","","-13.0","","89","","","","13","","9","","24.1","","99.88","","","","-17","","Snow"
"-115.78","60.84","HAY RIVER A","2202401","2018-01-04 17:00","2018","01","04","17:00","-11.8","","-13.3","","89","","","","12","","5","","24.1","","99.88","","","","-15","","Snow"
"-115.78","60.84","HAY RIVER A","2202401","2018-01-04 18:00","2018","01","04","18:00","-12.0","","-13.4","","89","","","","11","","4","","24.1","","99.87","","","","-15","","Snow"
"-115.78","60.84","HAY RIVER A","2202401","2018-01-04 19:00","2018","01","04","19:00","-11.9","","-13.2","","90","","","","8","","7","","24.1","","99.86","","","","-16","","Snow"
"-115.78","60.84","HAY RIVER A","2202401","2018-01-04 20:00","2018","01","04","20:00","-12.0","","-13.1","","91","","","","9","","9","","24.1","","99.83","","","","-17","","Snow"
"-115.78","60.84","HAY RIVER A","2202401","2018-01-04 21:00","2018","01","04","21:00","-11.9","","-13.2","","90","","","","11","","10","","24.1","","99.77","","","","-18","","Snow"
"-115.78","60.84","HAY RIVER A","2202401","2018-01-04 22:00","2018","01","04","22:00","-12.0","","-13.3","","90","","","","12","","5","","24.1","","99.78","","","","-15","","Snow"
"-115.78","60.84","HAY RIVER A","2202401","2018-01-04 23:00","2018","01","04","23:00","-12.2","","-13.7","","89","","","","9","","8","","24.1","","99.74","","","","-17","","Snow"
"-115.78","60.84","HAY RIVER A","2202401","2018-01-05 00:00","2018","01","05","00:00","-12.3","","-13.8","","89","","","","8","","10","","24.1","","99.73","","","","-18","","Snow"
"-115.78","60.84","HAY RIVER A","2202401","2018-01-05 01:00","2018","01","05","01:00","-12.5","","-14.0","","89","","","","9","","10","","24.1","","99.72","","","","-18","","Snow"
"-115.78","60.84","HAY RIVER A","2202401","2018-01-05 02:00","2018","01","05","02:00","-12.6","","-14.1","","88","","","","9","","12","","24.1","","99.68","","","","-19","","Mostly Cloudy"
"-115.78","60.84","HAY RIVER A","2202401","2018-01-05 03:00","2018","01","05","03:00","-12.5","","-14.1","","88","","","","8","","10","","24.1","","99.68","","","","-18","","NA"
"-115.78","60.84","HAY RIVER A","2202401","2018-01-05 04:00","2018","01","05","04:00","-12.4","","-14.0","","88","","","","7","","11","","24.1","","99.64","","","","-18","","NA"
"-115.78","60.84","HAY RIVER A","2202401","2018-01-05 05:00","2018","01","05","05:00","-12.3","","-13.9","","88","","","","8","","13","","24.1","","99.56","","","","-19","","Mostly Cloudy"
"-115.78","60.84","HAY RIVER A","2202401","2018-01-05 06:00","2018","01","05","06:00","-12.3","","-14.1","","87","","","","7","","9","","24.1","","99.50","","","","-18","","NA"
"-115.78","60.84","HAY RIVER A","2202401","2018-01-05 07:00","2018","01","05","07:00","-12.3","","-14.1","","86","","","","6","","10","","24.1","","99.45","","","","-18","","NA"
"-115.78","60.84","HAY RIVER A","2202401","2018-01-05 08:00","2018","01","05","08:00","-12.2","","-14.1","","86","","","","6","","7","","24.1","","99.45","","","","-17","","Cloudy"
"-115.78","60.84","HAY RIVER A","2202401","2018-01-05 09:00","2018","01","05","09:00","-12.0","","-13.9","","86","","","","7","","12","","24.1","","99.39","","","","-18","","NA"
"-115.78","60.84","HAY RIVER A","2202401","2018-01-05 10:00","2018","01","05","10:00","-11.8","","-13.7","","86","","","","9","","18","","24.1","","99.27","","","","-20","","NA"
"-115.78","60.84","HAY RIVER A","2202401","2018-01-05 11:00","2018","01","05","11:00","-11.6","","-13.6","","85","","","","15","","7","","24.1","","99.30","","","","-16","","Snow"
"-115.78","60.84","HAY RIVER A","2202401","2018-01-05 12:00","2018","01","05","12:00","-11.3","","-13.5","","84","","","","14","","5","","24.1","","99.25","","","","-14","","Snow"
"-115.78","60.84","HAY RIVER A","2202401","2018-01-05 13:00","2018","01","05","13:00","-11.1","","-13.4","","83","","","","10","","4","","16.1","","99.21","","","","-14","","Snow"
"-115.78","60.84","HAY RIVER A","2202401","2018-01-05 14:00","2018","01","05","14:00","-10.9","","-13.0","","85","","","","8","","3","","4.8","","99.17","","","","-13","","Snow"
"-115.78","60.84","HAY RIVER A","2202401","2018-01-05 15:00","2018","01","05","15:00","-10.8","","-13.2","","82","","","","8","","5","","24.1","","99.13","","","","-14","","Snow"
"-115.78","60.84","HAY RIVER A","2202401","2018-01-05 16:00","2018","01","05","16:00","-10.6","","-12.7","","84","","","","36","","3","","4.8","","99.12","","","","-12","","Snow"
"-115.78","60.84","HAY RIVER A","2202401","2018-01-05 17:00","2018","01","05","17:00","-10.7","","-12.5","","87","","","","3","","4","","4.8","","99.07","","","","-13","","Snow"
"-115.78","60.84","HAY RIVER A","2202401","2018-01-05 18:00","2018","01","05","18:00","-10.7","","-12.6","","86","","","","4","","4","","16.1","","99.02","","","","-13","","Snow"
"-115.78","60.84","HAY RIVER A","2202401","2018-01-05 19:00","2018","01","05","19:00","-10.4","","-12.5","","85","","","","36","","2","","24.1","","99.00","","","","-12","","Snow"
"-115.78","60.84","HAY RIVER A","2202401","2018-01-05 20:00","2018","01","05","20:00","-10.4","","-12.4","","85","","","","32","","8","","24.1","","98.94","","","","-15","","Snow"
"-115.78","60.84","HAY RIVER A","2202401","2018-01-05 21:00","2018","01","05","21:00","-10.3","","-12.2","","86","","","","33","","7","","24.1","","98.90","","","","-14","","Snow"
"-115.78","60.84","HAY RIVER A","2202401","2018-01-05 22:00","2018","01","05","22:00","-10.1","","-11.9","","87","","","","33","","8","","24.1","","98.85","","","","-15","","Snow"
"-115.78","60.84","HAY RIVER A","2202401","2018-01-05 23:00","2018","01","05","23:00","-10.1","","-11.7","","88","","","","34","","5","","24.1","","98.82","","","","-13","","Snow"
"-115.78","60.84","HAY RIVER A","2202401","2018-01-06 00:00","2018","01","06","00:00","-10.3","","-11.9","","88","","","","36","","5","","24.1","","98.77","","","","-13","","Snow"
"-115.78","60.84","HAY RIVER A","2202401","2018-01-06 01:00","2018","01","06","01:00","-10.4","","-12.1","","88","","","","36","","4","","24.1","","98.71","","","","-13","","NA"
"-115.78","60.84","HAY RIVER A","2202401","2018-01-06 02:00","2018","01","06","02:00","-10.5","","-12.1","","89","","","","35","","4","","24.1","","98.67","","","","-13","","Snow"
"-115.78","60.84","HAY RIVER A","2202401","2018-01-06 03:00","2018","01","06","03:00","-10.6","","-12.0","","90","","","","2","","4","","24.1","","98.61","","","","-13","","Snow"
"-115.78","60.84","HAY RIVER A","2202401","2018-01-06 04:00","2018","01","06","04:00","-10.8","","-12.3","","89","","","","3","","4","","4.8","","98.55","","","","-13","","Snow"
"-115.78","60.84","HAY RIVER A","2202401","2018-01-06 05:00","2018","01","06","05:00","-10.9","","-12.5","","88","","","","2","","7","","4.8","","98.47","","","","-15","","Snow"
"-115.78","60.84","HAY RIVER A","2202401","2018-01-06 06:00","2018","01","06","06:00","-10.9","","-12.4","","88","","","","1","","4","","4.8","","98.38","","","","-13","","Snow"
"-115.78","60.84","HAY RIVER A","2202401","2018-01-06 07:00","2018","01","06","07:00","-10.8","","-12.4","","88","","","","36","","5","","6.4","","98.32","","","","-14","","Snow"
"-115.78","60.84","HAY RIVER A","2202401","2018-01-06 08:00","2018","01","06","08:00","-10.7","","-12.3","","89","","","","33","","8","","4.8","","98.28","","","","-15","","Snow"
"-115.78","60.84","HAY RIVER A","2202401","2018-01-06 09:00","2018","01","06","09:00","-11.7","","-13.3","","88","","","","31","","17","","4.8","","98.24","","","","-19","","Snow"
"-115.78","60.84","HAY RIVER A","2202401","2018-01-06 10:00","2018","01","06","10:00","-12.0","","-13.7","","88","","","","30","","18","","2.0","","98.25","","","","-20","","Snow"
"-115.78","60.84","HAY RIVER A","2202401","2018-01-06 11:00","2018","01","06","11:00","-12.2","","-13.9","","87","","","","29","","17","","2.4","","98.22","","","","-20","","Snow,Blowing Snow"
"-115.78","60.84","HAY RIVER A","2202401","2018-01-06 12:00","2018","01","06","12:00","-12.3","","-14.0","","87","","","","30","","17","","2.4","","98.14","","","","-20","","Snow,Blowing Snow"
"-115.78","60.84","HAY RIVER A","2202401","2018-01-06 13:00","2018","01","06","13:00","-12.4","","-14.2","","87","","","","29","","16","","2.4","","98.13","","","","-20","","Snow"
"-115.78","60.84","HAY RIVER A","2202401","2018-01-06 14:00","2018","01","06","14:00","-12.4","","-14.3","","86","","","","28","","18","","1.6","","98.14","","","","-20","","Snow,Blowing Snow"
"-115.78","60.84","HAY RIVER A","2202401","2018-01-06 15:00","2018","01","06","15:00","-12.5","","-14.3","","86","","","","28","","18","","2.0","","98.11","","","","-21","","Snow,Blowing Snow"
"-115.78","60.84","HAY RIVER A","2202401","2018-01-06 16:00","2018","01","06","16:00","-12.6","","-14.4","","87","","","","28","","17","","1.2","","98.11","","","","-20","","Snow,Blowing Snow"
"-115.78","60.84","HAY RIVER A","2202401","2018-01-06 17:00","2018","01","06","17:00","-12.5","","-14.3","","87","","","","28","","24","","1.2","","98.07","","","","-22","","Snow,Blowing Snow"
"-115.78","60.84","HAY RIVER A","2202401","2018-01-06 18:00","2018","01","06","18:00","-12.3","","-14.1","","86","","","","28","","22","","1.0","","98.05","","","","-21","","Snow,Blowing Snow"
"-115.78","60.84","HAY RIVER A","2202401","2018-01-06 19:00","2018","01","06","19:00","-12.2","","-14.0","","87","","","","28","","25","","1.0","","98.01","","","","-22","","Snow,Blowing Snow"
"-115.78","60.84","HAY RIVER A","2202401","2018-01-06 20:00","2018","01","06","20:00","-11.9","","-13.7","","87","","","","29","","28","","1.0","","98.02","","","","-22","","Snow,Blowing Snow"
"-115.78","60.84","HAY RIVER A","2202401","2018-01-06 21:00","2018","01","06","21:00","-11.6","","-13.3","","87","","","","29","","28","","1.0","","98.06","","","","-21","","Snow,Blowing Snow"
"-115.78","60.84","HAY RIVER A","2202401","2018-01-06 22:00","2018","01","06","22:00","-11.4","","-13.2","","87","","","","30","","31","","1.0","","98.10","","","","-21","","Snow,Blowing Snow"
"-115.78","60.84","HAY RIVER A","2202401","2018-01-06 23:00","2018","01","06","23:00","-11.3","","-13.0","","87","","","","31","","30","","1.0","","98.18","","","","-21","","Snow,Blowing Snow"
"-115.78","60.84","HAY RIVER A","2202401","2018-01-07 00:00","2018","01","07","00:00","-11.6","","-13.5","","86","","","","31","","34","","1.0","","98.25","","","","-22","","Snow,Blowing Snow"
"-115.78","60.84","HAY RIVER A","2202401","2018-01-07 01:00","2018","01","07","01:00","-12.0","","-14.1","","84","","","","31","","34","","1.6","","98.35","","","","-23","","Snow,Blowing Snow"
"-115.78","60.84","HAY RIVER A","2202401","2018-01-07 02:00","2018","01","07","02:00","-12.4","","-14.4","","85","","","","30","","32","","1.6","","98.46","","","","-23","","Snow,Blowing Snow"
"-115.78","60.84","HAY RIVER A","2202401","2018-01-07 03:00","2018","01","07","03:00","-12.8","","-14.9","","85","","","","31","","35","","1.6","","98.58","","","","-24","","Snow,Blowing Snow"
"-115.78","60.84","HAY RIVER A","2202401","2018-01-07 04:00","2018","01","07","04:00","-13.2","","-15.4","","84","","","","31","","34","","1.6","","98.67","","","","-24","","Snow,Blowing Snow"
"-115.78","60.84","HAY RIVER A","2202401","2018-01-07 05:00","2018","01","07","05:00","-13.5","","-15.8","","83","","","","31","","30","","1.6","","98.77","","","","-24","","Snow,Blowing Snow"
"-115.78","60.84","HAY RIVER A","2202401","2018-01-07 06:00","2018","01","07","06:00","-13.7","","-16.2","","82","","","","31","","25","","16.1","","98.85","","","","-24","","Snow,Blowing Snow"
"-115.78","60.84","HAY RIVER A","2202401","2018-01-07 07:00","2018","01","07","07:00","-14.5","","-16.9","","82","","","","32","","25","","24.1","","98.89","","","","-25","","NA"
"-115.78","60.84","HAY RIVER A","2202401","2018-01-07 08:00","2018","01","07","08:00","-14.9","","-17.3","","82","","","","31","","22","","24.1","","98.94","","","","-24","","Mostly Cloudy"
"-115.78","60.84","HAY RIVER A","2202401","2018-01-07 09:00","2018","01","07","09:00","-14.8","","-17.1","","83","","","","29","","17","","24.1","","98.97","","","","-23","","NA"
"-115.78","60.84","HAY RIVER A","2202401","2018-01-07 10:00","2018","01","07","10:00","-14.7","","-17.0","","83","","","","28","","11","","24.1","","99.04","","","","-21","","NA"
"-115.78","60.84","HAY RIVER A","2202401","2018-01-07 11:00","2018","01","07","11:00","-14.6","","-17.0","","82","","","","29","","13","","24.1","","99.10","","","","-22","","Mostly Cloudy"
"-115.78","60.84","HAY RIVER A","2202401","2018-01-07 12:00","2018","01","07","12:00","-14.3","","-16.6","","83","","","","31","","16","","24.1","","99.13","","","","-22","","NA"
"-115.78","60.84","HAY RIVER A","2202401","2018-01-07 13:00","2018","01","07","13:00","-14.9","","-17.1","","83","","","","31","","10","","24.1","","99.13","","","","-21","","NA"
"-115.78","60.84","HAY RIVER A","2202401","2018-01-07 14:00","2018","01","07","14:00","-15.1","","-17.1","","84","","","","32","","8","","24.1","","99.14","","","","-20","","Mostly Cloudy"
"-115.78","60.84","HAY RIVER A","2202401","2018-01-07 15:00","2018","01","07","15:00","-14.2","","-16.5","","83","","","","33","","9","","24.1","","99.14","","","","-20","","NA"
"-115.78","60.84","HAY RIVER A","2202401","2018-01-07 16:00","2018","01","07","16:00","-14.4","","-16.4","","85","","","","32","","4","","3.6","","99.13","","","","-17","","Snow"
"-115.78","60.84","HAY RIVER A","2202401","2018-01-07 17:00","2018","01","07","17:00","-14.4","","-16.4","","85","","","","36","","2","","14.5","","99.14","","","","-16","","Snow"
"-115.78","60.84","HAY RIVER A","2202401","2018-01-07 18:00","2018","01","07","18:00","-14.4","","-16.3","","86","","","","35","","5","","8.1","","99.17","","","","-18","","Snow"
"-115.78","60.84","HAY RIVER A","2202401","2018-01-07 19:00","2018","01","07","19:00","-15.1","","-17.2","","84","","","","3","","11","","8.1","","99.18","","","","-22","","Snow"
"-115.78","60.84","HAY RIVER A","2202401","2018-01-07 20:00","2018","01","07","20:00","-16.4","","-18.6","","83","","","","1","","9","","8.1","","99.23","","","","-22","","Snow"
"-115.78","60.84","HAY RIVER A","2202401","2018-01-07 21:00","2018","01","07","21:00","-17.0","","-19.3","","82","","","","1","","10","","8.1","","99.30","","","","-24","","Snow"
"-115.78","60.84","HAY RIVER A","2202401","2018-01-07 22:00","2018","01","07","22:00","-17.4","","-19.7","","82","","","","1","","6","","16.1","","99.38","","","","-22","","Snow"
"-115.78","60.84","HAY RIVER A","2202401","2018-01-07 23:00","2018","01","07","23:00","-18.0","","-20.4","","82","","","","1","","8","","16.1","","99.46","","","","-24","","Snow"
"-115.78","60.84","HAY RIVER A","2202401","2018-01-08 00:00","2018","01","08","00:00","-18.2","","-20.6","","81","","","","35","","8","","16.1","","99.51","","","","-24","","Snow"
"-115.78","60.84","HAY RIVER A","2202401","2018-01-08 01:00","2018","01","08","01:00","-18.5","","-20.9","","82","","","","35","","8","","24.1","","99.57","","","","-24","","Snow"
"-115.78","60.84","HAY RIVER A","2202401","2018-01-08 02:00","2018","01","08","02:00","-18.7","","-21.5","","79","","","","36","","6","","24.1","","99.65","","","","-24","","Snow"
"-115.78","60.84","HAY RIVER A","2202401","2018-01-08 03:00","2018","01","08","03:00","-18.4","","-21.0","","80","","","","35","","7","","24.1","","99.70","","","","-24","","Snow"
"-115.78","60.84","HAY RIVER A","2202401","2018-01-08 04:00","2018","01","08","04:00","-18.4","","-21.5","","77","","","","34","","7","","24.1","","99.76","","","","-24","","Snow"
"-115.78","60.84","HAY RIVER A","2202401","2018-01-08 05:00","2018","01","08","05:00","-18.6","","-21.3","","79","","","","32","","13","","24.1","","99.79","","","","-27","","Snow"
"-115.78","60.84","HAY RIVER A","2202401","2018-01-08 06:00","2018","01","08","06:00","-19.2","","-21.9","","80","","","","31","","26","","24.1","","99.82","","","","-31","","Snow"
"-115.78","60.84","HAY RIVER A","2202401","2018-01-08 07:00","2018","01","08","07:00","-20.1","","-22.8","","79","","","","31","","25","","24.1","","99.89","","","","-32","","Snow"
"-115.78","60.84","HAY RIVER A","2202401","2018-01-08 08:00","2018","01","08","08:00","-22.6","","-25.5","","77","","","","31","","21","","24.1","","99.97","","","","-34","","Blowing Snow"
"-115.78","60.84","HAY RIVER A","2202401","2018-01-08 09:00","2018","01","08","09:00","-25.0","","-27.9","","78","","","","31","","20","","24.1","","100.05","","","","-37","","Blowing Snow"
"-115.78","60.84","HAY RIVER A","2202401","2018-01-08 10:00","2018","01","08","10:00","-27.2","","-29.9","","78","","","","32","","17","","24.1","","100.12","","","","-39","","NA"
"-115.78","60.84","HAY RIVER A","2202401","2018-01-08 11:00","2018","01","08","11:00","-26.8","","-29.5","","78","","","","32","","18","","24.1","","100.19","","","","-38","","Mainly Clear"
"-115.78","60.84","HAY RIVER A","2202401","2018-01-08 12:00","2018","01","08","12:00","-27.0","","-30.0","","77","","","","30","","21","","24.1","","100.26","","","","-40","","NA"
"-115.78","60.84","HAY RIVER A","2202401","2018-01-08 13:00","2018","01","08","13:00","-26.9","","-30.0","","76","","","","30","","21","","24.1","","100.30","","","","-39","","NA"
"-115.78","60.84","HAY RIVER A","2202401","2018-01-08 14:00","2018","01","08","14:00","-27.1","","-30.3","","75","","","","31","","23","","24.1","","100.35","","","","-40","","Mainly Clear"
"-115.78","60.84","HAY RIVER A","2202401","2018-01-08 15:00","2018","01","08","15:00","-27.4","","-30.5","","75","","","","30","","18","","24.1","","100.40","","","","-39","","NA"
"-115.78","60.84","HAY RIVER A","2202401","2018-01-08 16:00","2018","01","08","16:00","-28.9","","-31.7","","77","","","","30","","14","","24.1","","100.43","","","","-40","","NA"
"-115.78","60.84","HAY RIVER A","2202401","2018-01-08 17:00","2018","01","08","17:00","-29.0","","-31.8","","77","","","","31","","17","","24.1","","100.46","","","","-41","","Mainly Clear"
"-115.78","60.84","HAY RIVER A","2202401","2018-01-08 18:00","2018","01","08","18:00","-28.9","","-31.7","","77","","","","30","","18","","24.1","","100.49","","","","-41","","NA"
"-115.78","60.84","HAY RIVER A","2202401","2018-01-08 19:00","2018","01","08","19:00","-29.1","","-31.9","","77","","","","30","","16","","24.1","","100.51","","","","-41","","NA"
"-115.78","60.84","HAY RIVER A","2202401","2018-01-08 20:00","2018","01","08","20:00","-29.2","","-32.1","","77","","","","29","","22","","24.1","","100.56","","","","-43","","Mainly Clear"
"-115.78","60.84","HAY RIVER A","2202401","2018-01-08 21:00","2018","01","08","21:00","-29.1","","-32.1","","76","","","","30","","22","","24.1","","100.58","","","","-43","","NA"
"-115.78","60.84","HAY RIVER A","2202401","2018-01-08 22:00","2018","01","08","22:00","-31.2","","-34.3","","75","","","","32","","13","","24.1","","100.63","","","","-42","","NA"
"-115.78","60.84","HAY RIVER A","2202401","2018-01-08 23:00","2018","01","08","23:00","-30.9","","-33.9","","75","","","","31","","14","","24.1","","100.66","","","","-42","","Mostly Cloudy"
"-115.78","60.84","HAY RIVER A","2202401","2018-01-09 00:00","2018","01","09","00:00","-30.2","","-33.2","","76","","","","30","","15","","24.1","","100.66","","","","-42","","NA"
"-115.78","60.84","HAY RIVER A","2202401","2018-01-09 01:00","2018","01","09","01:00","-30.2","","-33.2","","76","","","","30","","13","","24.1","","100.65","","","","-41","","NA"
"-115.78","60.84","HAY RIVER A","2202401","2018-01-09 02:00","2018","01","09","02:00","-29.5","","-32.5","","76","","","","31","","17","","24.1","","100.64","","","","-42","","Mainly Clear"
"-115.78","60.84","HAY RIVER A","2202401","2018-01-09 03:00","2018","01","09","03:00","-29.0","","-32.0","","76","","","","30","","17","","24.1","","100.66","","","","-41","","NA"
"-115.78","60.84","HAY RIVER A","2202401","2018-01-09 04:00","2018","01","09","04:00","-28.6","","-31.7","","76","","","","30","","17","","24.1","","100.68","","","","-40","","NA"
"-115.78","60.84","HAY RIVER A","2202401","2018-01-09 05:00","2018","01","09","05:00","-28.4","","-31.4","","76","","","","30","","17","","19.3","","100.70","","","","-40","","Snow"
"-115.78","60.84","HAY RIVER A","2202401","2018-01-09 06:00","2018","01","09","06:00","-27.9","","-31.0","","76","","","","30","","17","","11.3","","100.70","","","","-40","","Snow"
"-115.78","60.84","HAY RIVER A","2202401","2018-01-09 07:00","2018","01","09","07:00","-27.4","","-30.6","","75","","","","30","","15","","16.1","","100.73","","","","-38","","Snow"
"-115.78","60.84","HAY RIVER A","2202401","2018-01-09 08:00","2018","01","09","08:00","-27.3","","-30.4","","75","","","","32","","17","","6.4","","100.71","","","","-39","","Snow"
"-115.78","60.84","HAY RIVER A","2202401","2018-01-09 09:00","2018","01","09","09:00","-27.6","","-30.7","","75","","","","31","","15","","24.1","","100.74","","","","-38","","NA"
"-115.78","60.84","HAY RIVER A","2202401","2018-01-09 10:00","2018","01","09","10:00","-27.1","","-30.2","","76","","","","29","","18","","24.1","","100.74","","","","-39","","NA"
"-115.78","60.84","HAY RIVER A","2202401","2018-01-09 11:00","2018","01","09","11:00","-27.7","","-30.8","","75","","","","30","","19","","24.1","","100.77","","","","-40","","Mostly Cloudy"
"-115.78","60.84","HAY RIVER A","2202401","2018-01-09 12:00","2018","01","09","12:00","-28.4","","-31.6","","75","","","","30","","20","","24.1","","100.79","","","","-41","","NA"
"-115.78","60.84","HAY RIVER A","2202401","2018-01-09 13:00","2018","01","09","13:00","-28.9","","-32.1","","75","","","","29","","21","","24.1","","100.76","","","","-42","","NA"
"-115.78","60.84","HAY RIVER A","2202401","2018-01-09 14:00","2018","01","09","14:00","-28.9","","-32.2","","74","","","","30","","20","","24.1","","100.74","","","","-42","","Mostly Cloudy"
"-115.78","60.84","HAY RIVER A","2202401","2018-01-09 15:00","2018","01","09","15:00","-28.8","","-32.1","","74","","","","29","","20","","24.1","","100.75","","","","-42","","NA"
"-115.78","60.84","HAY RIVER A","2202401","2018-01-09 16:00","2018","01","09","16:00","-29.2","","-32.5","","74","","","","30","","19","","24.1","","100.79","","","","-42","","NA"
"-115.78","60.84","HAY RIVER A","2202401","2018-01-09 17:00","2018","01","09","17:00","-29.5","","-32.5","","76","","","","29","","14","","24.1","","100.80","","","","-40","","Mostly Cloudy"
"-115.78","60.84","HAY RIVER A","2202401","2018-01-09 18:00","2018","01","09","18:00","-31.0","","-33.9","","76","","","","27","","11","","24.1","","100.79","","","","-41","","NA"
"-115.78","60.84","HAY RIVER A","2202401","2018-01-09 19:00","2018","01","09","19:00","-30.0","","-33.1","","75","","","","27","","16","","24.1","","100.77","","","","-42","","NA"
"-115.78","60.84","HAY RIVER A","2202401","2018-01-09 20:00","2018","01","09","20:00","-29.6","","-32.7","","75","","","","28","","18","","24.1","","100.77","","","","-42","","Mainly Clear"
"-115.78","60.84","HAY RIVER A","2202401","2018-01-09 21:00","2018","01","09","21:00","-30.4","","-33.5","","75","","","","26","","16","","24.1","","100.76","","","","-42","","NA"
"-115.78","60.84","HAY RIVER A","2202401","2018-01-09 22:00","2018","01","09","22:00","-30.6","","-33.7","","75","","","","27","","14","","24.1","","100.73","","","","-42","","NA"
"-115.78","60.84","HAY RIVER A","2202401","2018-01-09 23:00","2018","01","09","23:00","-31.9","","-35.1","","74","","","","26","","12","","24.1","","100.74","","","","-42","","Mainly Clear"
"-115.78","60.84","HAY RIVER A","2202401","2018-01-10 00:00","2018","01","10","00:00","-32.3","","-35.5","","74","","","","25","","14","","20.9","","100.75","","","","-44","","Ice Crystals"
"-115.78","60.84","HAY RIVER A","2202401","2018-01-10 01:00","2018","01","10","01:00","-31.7","","-35.0","","74","","","","25","","15","","24.1","","100.72","","","","-44","","Ice Crystals"
"-115.78","60.84","HAY RIVER A","2202401","2018-01-10 02:00","2018","01","10","02:00","-30.4","","-33.7","","74","","","","27","","11","","19.3","","100.72","","","","-40","","Snow"
"-115.78","60.84","HAY RIVER A","2202401","2018-01-10 03:00","2018","01","10","03:00","-32.3","","-35.5","","74","","","","24","","10","","24.1","","100.72","","","","-42","","Snow"
"-115.78","60.84","HAY RIVER A","2202401","2018-01-10 04:00","2018","01","10","04:00","-32.5","","-35.4","","76","","","","25","","16","","24.1","","100.72","","","","-45","","Ice Crystals"
"-115.78","60.84","HAY RIVER A","2202401","2018-01-10 05:00","2018","01","10","05:00","-32.8","","-35.9","","74","","","","27","","15","","24.1","","100.71","","","","-45","","Ice Crystals"
"-115.78","60.84","HAY RIVER A","2202401","2018-01-10 06:00","2018","01","10","06:00","-33.0","","-36.1","","74","","","","25","","13","","24.1","","100.73","","","","-44","","Ice Crystals"
"-115.78","60.84","HAY RIVER A","2202401","2018-01-10 07:00","2018","01","10","07:00","-32.8","","-35.9","","74","","","","26","","15","","24.1","","100.74","","","","-45","","Ice Crystals"
"-115.78","60.84","HAY RIVER A","2202401","2018-01-10 08:00","2018","01","10","08:00","-33.5","","-36.7","","74","","","","25","","14","","24.1","","100.75","","","","-45","","Ice Crystals"
"-115.78","60.84","HAY RIVER A","2202401","2018-01-10 09:00","2018","01","10","09:00","-35.9","","-39.1","","74","","","","24","","8","","24.1","","100.77","","","","-45","","Ice Crystals"
"-115.78","60.84","HAY RIVER A","2202401","2018-01-10 10:00","2018","01","10","10:00","-36.0","","-39.3","","73","","","","25","","10","","24.1","","100.81","","","","-46","","NA"
"-115.78","60.84","HAY RIVER A","2202401","2018-01-10 11:00","2018","01","10","11:00","-33.8","","-37.0","","74","","","","26","","8","","24.1","","100.83","","","","-42","","Mainly Clear"
"-115.78","60.84","HAY RIVER A","2202401","2018-01-10 12:00","2018","01","10","12:00","-30.6","","-33.7","","75","","","","26","","15","","24.1","","100.82","","","","-42","","NA"
"-115.78","60.84","HAY RIVER A","2202401","2018-01-10 13:00","2018","01","10","13:00","-30.4","","-33.5","","75","","","","25","","13","","24.1","","100.82","","","","-41","","NA"
"-115.78","60.84","HAY RIVER A","2202401","2018-01-10 14:00","2018","01","10","14:00","-29.9","","-33.0","","75","","","","27","","10","","24.1","","100.84","","","","-39","","Mostly Cloudy"
"-115.78","60.84","HAY RIVER A","2202401","2018-01-10 15:00","2018","01","10","15:00","-29.6","","-32.8","","74","","","","27","","8","","24.1","","100.87","","","","-38","","NA"
"-115.78","60.84","HAY RIVER A","2202401","2018-01-10 16:00","2018","01","10","16:00","-31.6","","-34.8","","74","","","","24","","11","","24.1","","100.84","","","","-42","","NA"
"-115.78","60.84","HAY RIVER A","2202401","2018-01-10 17:00","2018","01","10","17:00","-32.4","","-35.6","","74","","","","24","","9","","24.1","","100.85","","","","-41","","Mostly Cloudy"
"-115.78","60.84","HAY RIVER A","2202401","2018-01-10 18:00","2018","01","10","18:00","-32.7","","-35.9","","74","","","","24","","4","","24.1","","100.90","","","","-37","","NA"
"-115.78","60.84","HAY RIVER A","2202401","2018-01-10 19:00","2018","01","10","19:00","-33.4","","-36.5","","74","","","","24","","3","","24.1","","100.89","","","","-37","","NA"
"-115.78","60.84","HAY RIVER A","2202401","2018-01-10 20:00","2018","01","10","20:00","-32.9","","-36.0","","74","","","","28","","4","","24.1","","100.88","","","","-38","","Mainly Clear"
"-115.78","60.84","HAY RIVER A","2202401","2018-01-10 21:00","2018","01","10","21:00","-35.0","","-38.3","","73","","","","24","","7","","24.1","","100.89","","","","-43","","NA"
"-115.78","60.84","HAY RIVER A","2202401","2018-01-10 22:00","2018","01","10","22:00","-34.6","","-37.8","","73","","","","23","","3","","24.1","","100.89","","","","-38","","Ice Crystals"
"-115.78","60.84","HAY RIVER A","2202401","2018-01-10 23:00","2018","01","10","23:00","-34.8","","-38.0","","73","","","","24","","8","","24.1","","100.89","","","","-44","","Ice Crystals"
"-115.78","60.84","HAY RIVER A","2202401","2018-01-11 00:00","2018","01","11","00:00","-34.9","","-38.1","","73","","","","24","","4","","24.1","","100.92","","","","-40","","Ice Crystals"
"-115.78","60.84","HAY RIVER A","2202401","2018-01-11 01:00","2018","01","11","01:00","-34.4","","-37.6","","73","","","","24","","7","","24.1","","100.94","","","","-42","","Ice Crystals"
"-115.78","60.84","HAY RIVER A","2202401","2018-01-11 02:00","2018","01","11","02:00","-35.7","","-39.1","","72","","","","25","","4","","24.1","","100.93","","","","-41","","Ice Crystals"
"-115.78","60.84","HAY RIVER A","2202401","2018-01-11 03:00","2018","01","11","03:00","-35.2","","-38.6","","72","","","","36","","1","","24.1","","100.96","","","","-36","","Ice Crystals"
"-115.78","60.84","HAY RIVER A","2202401","2018-01-11 04:00","2018","01","11","04:00","-34.3","","-37.6","","73","","","","21","","4","","24.1","","100.99","","","","-39","","Ice Crystals"
"-115.78","60.84","HAY RIVER A","2202401","2018-01-11 05:00","2018","01","11","05:00","-35.7","","-39.1","","72","","","","30","","5","","24.1","","100.99","","","","-42","","Ice Crystals"
"-115.78","60.84","HAY RIVER A","2202401","2018-01-11 06:00","2018","01","11","06:00","-36.5","","-39.9","","71","","","","26","","4","","24.1","","100.98","","","","-42","","Ice Crystals"
"-115.78","60.84","HAY RIVER A","2202401","2018-01-11 07:00","2018","01","11","07:00","-37.6","","-41.1","","71","","","","36","","2","","24.1","","100.99","","","","-40","","Ice Crystals"
"-115.78","60.84","HAY RIVER A","2202401","2018-01-11 08:00","2018","01","11","08:00","-36.8","","-40.2","","71","","","","24","","7","","24.1","","101.01","","","","-45","","Ice Crystals"
"-115.78","60.84","HAY RIVER A","2202401","2018-01-11 09:00","2018","01","11","09:00","-36.3","","-39.7","","71","","","","24","","9","","24.1","","101.02","","","","-46","","NA"
"-115.78","60.84","HAY RIVER A","2202401","2018-01-11 10:00","2018","01","11","10:00","-35.4","","-38.8","","72","","","","24","","5","","24.1","","101.06","","","","-42","","NA"
"-115.78","60.84","HAY RIVER A","2202401","2018-01-11 11:00","2018","01","11","11:00","-35.4","","-38.8","","72","","","","24","","8","","24.1","","101.07","","","","-44","","Mainly Clear"
"-115.78","60.84","HAY RIVER A","2202401","2018-01-11 12:00","2018","01","11","12:00","-35.2","","-38.7","","71","","","","24","","6","","24.1","","101.07","","","","-42","","NA"
"-115.78","60.84","HAY RIVER A","2202401","2018-01-11 13:00","2018","01","11","13:00","-33.1","","-36.4","","73","","","","23","","5","","24.1","","101.06","","","","-39","","NA"
"-115.78","60.84","HAY RIVER A","2202401","2018-01-11 14:00","2018","01","11","14:00","-32.3","","-35.6","","73","","","","29","","8","","24.1","","101.07","","","","-41","","Mainly Clear"
"-115.78","60.84","HAY RIVER A","2202401","2018-01-11 15:00","2018","01","11","15:00","-32.5","","-35.8","","73","","","","28","","4","","24.1","","101.08","","","","-37","","NA"
"-115.78","60.84","HAY RIVER A","2202401","2018-01-11 16:00","2018","01","11","16:00","-33.8","","-37.1","","72","","","","36","","1","","24.1","","101.10","","","","-35","","NA"
"-115.78","60.84","HAY RIVER A","2202401","2018-01-11 17:00","2018","01","11","17:00","-34.7","","-38.0","","72","","","","36","","3","","24.1","","101.12","","","","-38","","Mainly Clear"
"-115.78","60.84","HAY RIVER A","2202401","2018-01-11 18:00","2018","01","11","18:00","-35.7","","-39.2","","72","","","","13","","3","","24.1","","101.15","","","","-40","","Ice Crystals"
"-115.78","60.84","HAY RIVER A","2202401","2018-01-11 19:00","2018","01","11","19:00","-37.4","","-40.9","","70","","","","36","","2","","24.1","","101.16","","","","-40","","Ice Crystals"
"-115.78","60.84","HAY RIVER A","2202401","2018-01-11 20:00","2018","01","11","20:00","-37.9","","-41.5","","70","","","","0","","1","","24.1","","101.16","","","","-39","","Ice Crystals"
"-115.78","60.84","HAY RIVER A","2202401","2018-01-11 21:00","2018","01","11","21:00","-37.1","","-40.7","","71","","","","23","","3","","24.1","","101.17","","","","-41","","Ice Crystals"
"-115.78","60.84","HAY RIVER A","2202401","2018-01-11 22:00","2018","01","11","22:00","-37.8","","-41.4","","70","","","","11","","4","","24.1","","101.15","","","","-43","","Ice Crystals"
"-115.78","60.84","HAY RIVER A","2202401","2018-01-11 23:00","2018","01","11","23:00","-36.8","","-40.2","","71","","","","18","","7","","24.1","","101.14","","","","-45","","Ice Crystals"
"-115.78","60.84","HAY RIVER A","2202401","2018-01-12 00:00","2018","01","12","00:00","-37.6","","-41.2","","70","","","","13","","3","","24.1","","101.19","","","","-42","","Ice Crystals"
"-115.78","60.84","HAY RIVER A","2202401","2018-01-12 01:00","2018","01","12","01:00","-37.1","","-40.7","","70","","","","10","","5","","24.1","","101.20","","","","-44","","Ice Crystals"
"-115.78","60.84","HAY RIVER A","2202401","2018-01-12 02:00","2018","01","12","02:00","-36.1","","-39.6","","71","","","","13","","7","","24.1","","101.22","","","","-44","","Ice Crystals"
"-115.78","60.84","HAY RIVER A","2202401","2018-01-12 03:00","2018","01","12","03:00","-36.4","","-39.9","","71","","","","16","","6","","24.1","","101.25","","","","-44","","Ice Crystals"
"-115.78","60.84","HAY RIVER A","2202401","2018-01-12 04:00","2018","01","12","04:00","-36.0","","-39.5","","71","","","","13","","5","","24.1","","101.22","","","","-42","","Ice Crystals"
"-115.78","60.84","HAY RIVER A","2202401","2018-01-12 05:00","2018","01","12","05:00","-35.2","","-38.7","","72","","","","15","","5","","24.1","","101.19","","","","-42","","Ice Crystals"
"-115.78","60.84","HAY RIVER A","2202401","2018-01-12 06:00","2018","01","12","06:00","-35.6","","-39.1","","71","","","","15","","7","","24.1","","101.16","","","","-44","","Ice Crystals"
"-115.78","60.84","HAY RIVER A","2202401","2018-01-12 07:00","2018","01","12","07:00","-35.5","","-39.0","","71","","","","15","","8","","24.1","","101.11","","","","-44","","Ice Crystals"
"-115.78","60.84","HAY RIVER A","2202401","2018-01-12 08:00","2018","01","12","08:00","-35.0","","-38.4","","72","","","","17","","12","","24.1","","101.05","","","","-46","","Ice Crystals"
"-115.78","60.84","HAY RIVER A","2202401","2018-01-12 09:00","2018","01","12","09:00","-34.0","","-37.3","","72","","","","16","","9","","24.1","","101.02","","","","-43","","Ice Crystals"
"-115.78","60.84","HAY RIVER A","2202401","2018-01-12 10:00","2018","01","12","10:00","-33.2","","-36.6","","73","","","","15","","10","","24.1","","100.97","","","","-43","","Ice Crystals"
"-115.78","60.84","HAY RIVER A","2202401","2018-01-12 11:00","2018","01","12","11:00","-32.0","","-35.3","","73","","","","17","","13","","24.1","","100.91","","","","-43","","Ice Crystals"
"-115.78","60.84","HAY RIVER A","2202401","2018-01-12 12:00","2018","01","12","12:00","-28.4","","-31.4","","76","","","","17","","18","","24.1","","100.84","","","","-40","","Ice Crystals"
"-115.78","60.84","HAY RIVER A","2202401","2018-01-12 13:00","2018","01","12","13:00","-26.5","","-29.4","","77","","","","18","","21","","22.5","","100.76","","","","-39","","NA"
"-115.78","60.84","HAY RIVER A","2202401","2018-01-12 14:00","2018","01","12","14:00","-25.2","","-28.0","","78","","","","17","","22","","24.1","","100.67","","","","-38","","Ice Crystals"
"-115.78","60.84","HAY RIVER A","2202401","2018-01-12 15:00","2018","01","12","15:00"
"-115.78","60.84","HAY RIVER A","2202401","2018-01-12 16:00","2018","01","12","16:00","-24.9","","-27.8","","77","","","","17","","26","","24.1","","100.50","","","","-38","","Ice Crystals"
"-115.78","60.84","HAY RIVER A","2202401","2018-01-12 17:00","2018","01","12","17:00","-24.8","","-28.0","","75","","","","18","","26","","24.1","","100.41","","","","-38","","Ice Crystals"
"-115.78","60.84","HAY RIVER A","2202401","2018-01-12 18:00","2018","01","12","18:00","-25.4","","-29.2","","71","","","","18","","26","","24.1","","100.33","","","","-39","","Ice Crystals"
"-115.78","60.84","HAY RIVER A","2202401","2018-01-12 19:00","2018","01","12","19:00","-25.8","","-29.8","","70","","","","18","","23","","24.1","","100.26","","","","-39","","Ice Crystals"
"-115.78","60.84","HAY RIVER A","2202401","2018-01-12 20:00","2018","01","12","20:00","-25.4","","-29.4","","70","","","","19","","22","","24.1","","100.14","","","","-38","","Ice Crystals"
"-115.78","60.84","HAY RIVER A","2202401","2018-01-12 21:00","2018","01","12","21:00","-26.0","","-29.8","","71","","","","19","","17","","24.1","","100.05","","","","-37","","NA"
"-115.78","60.84","HAY RIVER A","2202401","2018-01-12 22:00","2018","01","12","22:00","-27.2","","-30.8","","72","","","","19","","10","","24.1","","100.04","","","","-36","","NA"
"-115.78","60.84","HAY RIVER A","2202401","2018-01-12 23:00","2018","01","12","23:00","-28.0","","-31.2","","75","","","","19","","9","","24.1","","100.01","","","","-36","","Clear"
"-115.78","60.84","HAY RIVER A","2202401","2018-01-13 00:00","2018","01","13","00:00","-28.7","","-31.7","","76","","","","18","","8","","24.1","","99.98","","","","-36","","NA"
"-115.78","60.84","HAY RIVER A","2202401","2018-01-13 01:00","2018","01","13","01:00","-29.6","","-32.5","","76","","","","19","","6","","24.1","","99.96","","","","-36","","NA"
"-115.78","60.84","HAY RIVER A","2202401","2018-01-13 02:00","2018","01","13","02:00","-30.3","","-33.1","","77","","","","21","","5","","24.1","","99.92","","","","-36","","Clear"
"-115.78","60.84","HAY RIVER A","2202401","2018-01-13 03:00","2018","01","13","03:00","-30.7","","-33.5","","77","","","","24","","9","","24.1","","99.93","","","","-39","","NA"
"-115.78","60.84","HAY RIVER A","2202401","2018-01-13 04:00","2018","01","13","04:00","-32.3","","-35.3","","75","","","","24","","10","","24.1","","99.98","","","","-42","","NA"
"-115.78","60.84","HAY RIVER A","2202401","2018-01-13 05:00","2018","01","13","05:00","-30.8","","-33.9","","76","","","","26","","9","","24.1","","99.98","","","","-40","","Mainly Clear"
"-115.78","60.84","HAY RIVER A","2202401","2018-01-13 06:00","2018","01","13","06:00","-30.9","","-34.0","","75","","","","27","","8","","24.1","","99.97","","","","-39","","NA"
"-115.78","60.84","HAY RIVER A","2202401","2018-01-13 07:00","2018","01","13","07:00","-31.6","","-34.8","","74","","","","30","","14","","24.1","","100.02","","","","-43","","NA"
"-115.78","60.84","HAY RIVER A","2202401","2018-01-13 08:00","2018","01","13","08:00","-32.1","","-35.3","","74","","","","29","","12","","24.1","","100.08","","","","-43","","Mostly Cloudy"
"-115.78","60.84","HAY RIVER A","2202401","2018-01-13 09:00","2018","01","13","09:00","-33.8","","-37.2","","73","","","","29","","14","","24.1","","100.16","","","","-46","","NA"
"-115.78","60.84","HAY RIVER A","2202401","2018-01-13 10:00","2018","01","13","10:00","-34.3","","-37.7","","72","","","","30","","16","","24.1","","100.28","","","","-47","","NA"
"-115.78","60.84","HAY RIVER A","2202401","2018-01-13 11:00","2018","01","13","11:00","-35.0","","-38.5","","72","","","","31","","19","","24.1","","100.40","","","","-49","","Mainly Clear"
"-115.78","60.84","HAY RIVER A","2202401","2018-01-13 12:00","2018","01","13","12:00","-35.4","","-38.8","","71","","","","31","","18","","24.1","","100.55","","","","-49","","NA"
"-115.78","60.84","HAY RIVER A","2202401","2018-01-13 13:00","2018","01","13","13:00","-35.3","","-38.9","","71","","","","30","","18","","24.1","","100.63","","","","-49","","NA"
"-115.78","60.84","HAY RIVER A","2202401","2018-01-13 14:00","2018","01","13","14:00","-34.6","","-38.2","","71","","","","30","","18","","24.1","","100.76","","","","-48","","Mainly Clear"
"-115.78","60.84","HAY RIVER A","2202401","2018-01-13 15:00","2018","01","13","15:00","-32.6","","-36.1","","72","","","","28","","17","","24.1","","100.94","","","","-45","","NA"
"-115.78","60.84","HAY RIVER A","2202401","2018-01-13 16:00","2018","01","13","16:00","-32.6","","-35.9","","73","","","","29","","15","","24.1","","101.02","","","","-45","","NA"
"-115.78","60.84","HAY RIVER A","2202401","2018-01-13 17:00","2018","01","13","17:00","-32.9","","-36.2","","73","","","","30","","13","","24.1","","101.09","","","","-44","","Mainly Clear"
"-115.78","60.84","HAY RIVER A","2202401","2018-01-13 18:00","2018","01","13","18:00","-32.1","","-35.3","","74","","","","27","","14","","24.1","","101.22","","","","-44","","NA"
"-115.78","60.84","HAY RIVER A","2202401","2018-01-13 19:00","2018","01","13","19:00","-33.3","","-36.5","","74","","","","31","","10","","24.1","","101.27","","","","-43","","NA"
"-115.78","60.84","HAY RIVER A","2202401","2018-01-13 20:00","2018","01","13","20:00","-32.2","","-35.4","","74","","","","28","","14","","24.1","","101.37","","","","-44","","Mainly Clear"
"-115.78","60.84","HAY RIVER A","2202401","2018-01-13 21:00","2018","01","13","21:00","-32.3","","-35.7","","73","","","","29","","16","","24.1","","101.43","","","","-45","","NA"
"-115.78","60.84","HAY RIVER A","2202401","2018-01-13 22:00","2018","01","13","22:00","-32.3","","-35.6","","73","","","","29","","15","","24.1","","101.58","","","","-44","","NA"
"-115.78","60.84","HAY RIVER A","2202401","2018-01-13 23:00","2018","01","13","23:00","-32.2","","-35.6","","73","","","","30","","18","","24.1","","101.68","","","","-45","","Clear"
"-115.78","60.84","HAY RIVER A","2202401","2018-01-14 00:00","2018","01","14","00:00","-33.9","","-37.4","","72","","","","30","","15","","24.1","","101.72","","","","-46","","NA"
"-115.78","60.84","HAY RIVER A","2202401","2018-01-14 01:00","2018","01","14","01:00","-33.2","","-36.6","","72","","","","30","","13","","24.1","","101.73","","","","-44","","NA"
"-115.78","60.84","HAY RIVER A","2202401","2018-01-14 02:00","2018","01","14","02:00","-33.4","","-36.8","","73","","","","31","","9","","24.1","","101.81","","","","-43","","Clear"
"-115.78","60.84","HAY RIVER A","2202401","2018-01-14 03:00","2018","01","14","03:00","-33.8","","-37.0","","73","","","","23","","7","","24.1","","101.90","","","","-42","","NA"
"-115.78","60.84","HAY RIVER A","2202401","2018-01-14 04:00","2018","01","14","04:00","-34.1","","-37.3","","74","","","","28","","4","","24.1","","102.00","","","","-39","","NA"
"-115.78","60.84","HAY RIVER A","2202401","2018-01-14 05:00","2018","01","14","05:00","-34.7","","-37.9","","73","","","","12","","4","","24.1","","102.01","","","","-40","","Clear"
"-115.78","60.84","HAY RIVER A","2202401","2018-01-14 06:00","2018","01","14","06:00","-35.3","","-38.6","","72","","","","","","0","","24.1","","102.04","","","","","","NA"
"-115.78","60.84","HAY RIVER A","2202401","2018-01-14 07:00","2018","01","14","07:00","-36.4","","-39.7","","72","","","","36","","3","","24.1","","102.08","","","","-40","","NA"
"-115.78","60.84","HAY RIVER A","2202401","2018-01-14 08:00","2018","01","14","08:00","-36.2","","-39.6","","72","","","","17","","6","","24.1","","102.06","","","","-44","","Mainly Clear"
"-115.78","60.84","HAY RIVER A","2202401","2018-01-14 09:00","2018","01","14","09:00","-35.9","","-39.3","","72","","","","18","","5","","24.1","","102.11","","","","-42","","NA"
"-115.78","60.84","HAY RIVER A","2202401","2018-01-14 10:00","2018","01","14","10:00","-33.8","","-36.9","","74","","","","15","","9","","24.1","","102.08","","","","-43","","NA"
"-115.78","60.84","HAY RIVER A","2202401","2018-01-14 11:00","2018","01","14","11:00","-32.7","","-35.9","","74","","","","14","","5","","24.1","","102.05","","","","-39","","Mostly Cloudy"
"-115.78","60.84","HAY RIVER A","2202401","2018-01-14 12:00","2018","01","14","12:00","-31.2","","-34.5","","74","","","","19","","7","","24.1","","102.02","","","","-39","","NA"
"-115.78","60.84","HAY RIVER A","2202401","2018-01-14 13:00","2018","01","14","13:00","-27.9","","-31.1","","75","","","","13","","8","","24.1","","101.99","","","","-36","","NA"
"-115.78","60.84","HAY RIVER A","2202401","2018-01-14 14:00","2018","01","14","14:00","-27.0","","-30.3","","74","","","","16","","10","","24.1","","101.98","","","","-36","","Mostly Cloudy"
"-115.78","60.84","HAY RIVER A","2202401","2018-01-14 15:00","2018","01","14","15:00","-24.7","","-28.3","","73","","","","14","","14","","24.1","","101.86","","","","-35","","NA"
"-115.78","60.84","HAY RIVER A","2202401","2018-01-14 16:00","2018","01","14","16:00","-24.1","","-27.9","","71","","","","14","","15","","24.1","","101.77","","","","-34","","NA"
"-115.78","60.84","HAY RIVER A","2202401","2018-01-14 17:00","2018","01","14","17:00","-23.6","","-27.6","","70","","","","15","","13","","24.1","","101.72","","","","-33","","Mostly Cloudy"
"-115.78","60.84","HAY RIVER A","2202401","2018-01-14 18:00","2018","01","14","18:00","-22.9","","-27.0","","69","","","","14","","18","","24.1","","101.56","","","","-34","","NA"
"-115.78","60.84","HAY RIVER A","2202401","2018-01-14 19:00","2018","01","14","19:00","-22.9","","-26.8","","71","","","","16","","19","","24.1","","101.49","","","","-34","","NA"
"-115.78","60.84","HAY RIVER A","2202401","2018-01-14 20:00","2018","01","14","20:00","-22.6","","-26.3","","72","","","","16","","21","","24.1","","101.37","","","","-34","","Mainly Clear"
"-115.78","60.84","HAY RIVER A","2202401","2018-01-14 21:00","2018","01","14","21:00","-21.1","","-24.9","","72","","","","15","","22","","24.1","","101.21","","","","-32","","NA"
"-115.78","60.84","HAY RIVER A","2202401","2018-01-14 22:00","2018","01","14","22:00","-20.1","","-24.1","","71","","","","16","","22","","24.1","","101.09","","","","-31","","NA"
"-115.78","60.84","HAY RIVER A","2202401","2018-01-14 23:00","2018","01","14","23:00","-19.2","","-23.5","","69","","","","16","","24","","24.1","","100.99","","","","-30","","Mainly Clear"
"-115.78","60.84","HAY RIVER A","2202401","2018-01-15 00:00","2018","01","15","00:00","-19.7","","-23.6","","71","","","","16","","24","","24.1","","100.87","","","","-31","","NA"
"-115.78","60.84","HAY RIVER A","2202401","2018-01-15 01:00","2018","01","15","01:00","-18.7","","-22.7","","71","","","","16","","21","","24.1","","100.73","","","","-29","","NA"
"-115.78","60.84","HAY RIVER A","2202401","2018-01-15 02:00","2018","01","15","02:00","-16.6","","-21.1","","69","","","","17","","26","","24.1","","100.59","","","","-27","","Mainly Clear"
"-115.78","60.84","HAY RIVER A","2202401","2018-01-15 03:00","2018","01","15","03:00","-11.9","","-17.5","","64","","","","18","","24","","24.1","","100.51","","","","-21","","NA"
"-115.78","60.84","HAY RIVER A","2202401","2018-01-15 04:00","2018","01","15","04:00","-10.3","","-16.9","","59","","","","18","","27","","24.1","","100.35","","","","-19","","NA"
"-115.78","60.84","HAY RIVER A","2202401","2018-01-15 05:00","2018","01","15","05:00","-10.1","","-15.6","","64","","","","19","","23","","24.1","","100.20","","","","-19","","Mainly Clear"
"-115.78","60.84","HAY RIVER A","2202401","2018-01-15 06:00","2018","01","15","06:00","-7.6","","-12.5","","68","","","","19","","21","","24.1","","100.13","","","","-15","","NA"
"-115.78","60.84","HAY RIVER A","2202401","2018-01-15 07:00","2018","01","15","07:00","-7.0","","-10.8","","75","","","","19","","24","","24.1","","100.02","","","","-15","","NA"
"-115.78","60.84","HAY RIVER A","2202401","2018-01-15 08:00","2018","01","15","08:00","-7.5","","-10.6","","79","","","","19","","21","","24.1","","99.93","","","","-15","","Mainly Clear"
"-115.78","60.84","HAY RIVER A","2202401","2018-01-15 09:00","2018","01","15","09:00","-7.6","","-10.2","","81","","","","20","","20","","24.1","","99.89","","","","-15","","NA"
"-115.78","60.84","HAY RIVER A","2202401","2018-01-15 10:00","2018","01","15","10:00","-8.0","","-10.4","","83","","","","20","","21","","24.1","","99.85","","","","-16","","NA"
"-115.78","60.84","HAY RIVER A","2202401","2018-01-15 11:00","2018","01","15","11:00","-7.5","","-9.9","","83","","","","20","","17","","24.1","","99.74","","","","-14","","Mainly Clear"
"-115.78","60.84","HAY RIVER A","2202401","2018-01-15 12:00","2018","01","15","12:00","-5.8","","-8.5","","81","","","","21","","20","","24.1","","99.63","","","","-13","","NA"
"-115.78","60.84","HAY RIVER A","2202401","2018-01-15 13:00","2018","01","15","13:00","-4.7","","-7.6","","80","","","","20","","21","","24.1","","99.57","","","","-11","","NA"
"-115.78","60.84","HAY RIVER A","2202401","2018-01-15 14:00","2018","01","15","14:00","-4.0","","-7.1","","79","","","","22","","17","","24.1","","99.54","","","","-10","","Mainly Clear"
"-115.78","60.84","HAY RIVER A","2202401","2018-01-15 15:00","2018","01","15","15:00","-3.9","","-7.0","","79","","","","20","","18","","24.1","","99.44","","","","-10","","NA"
"-115.78","60.84","HAY RIVER A","2202401","2018-01-15 16:00","2018","01","15","16:00","-4.9","","-7.6","","82","","","","19","","12","","24.1","","99.42","","","","-10","","NA"
"-115.78","60.84","HAY RIVER A","2202401","2018-01-15 17:00","2018","01","15","17:00","-6.4","","-8.2","","87","","","","18","","14","","24.1","","99.41","","","","-12","","Mainly Clear"
"-115.78","60.84","HAY RIVER A","2202401","2018-01-15 18:00","2018","01","15","18:00","-5.9","","-8.1","","85","","","","19","","18","","24.1","","99.36","","","","-12","","NA"
"-115.78","60.84","HAY RIVER A","2202401","2018-01-15 19:00","2018","01","15","19:00","-5.6","","-7.9","","84","","","","20","","13","","24.1","","99.28","","","","-11","","NA"
"-115.78","60.84","HAY RIVER A","2202401","2018-01-15 20:00","2018","01","15","20:00","-5.8","","-8.1","","84","","","","20","","12","","24.1","","99.21","","","","-11","","Mainly Clear"
"-115.78","60.84","HAY RIVER A","2202401","2018-01-15 21:00","2018","01","15","21:00","-6.8","","-8.7","","87","","","","18","","9","","24.1","","99.19","","","","-11","","NA"
"-115.78","60.84","HAY RIVER A","2202401","2018-01-15 22:00","2018","01","15","22:00","-6.1","","-8.3","","85","","","","20","","14","","24.1","","99.14","","","","-12","","NA"
"-115.78","60.84","HAY RIVER A","2202401","2018-01-15 23:00","2018","01","15","23:00","-5.9","","-8.4","","83","","","","21","","9","","24.1","","99.11","","","","-10","","Mainly Clear"
"-115.78","60.84","HAY RIVER A","2202401","2018-01-16 00:00","2018","01","16","00:00","-6.0","","-8.1","","85","","","","21","","12","","24.1","","99.06","","","","-11","","NA"
"-115.78","60.84","HAY RIVER A","2202401","2018-01-16 01:00","2018","01","16","01:00","-6.0","","-8.2","","85","","","","20","","10","","24.1","","99.04","","","","-10","","NA"
"-115.78","60.84","HAY RIVER A","2202401","2018-01-16 02:00","2018","01","16","02:00","-7.7","","-9.2","","89","","","","22","","8","","24.1","","99.02","","","","-12","","Mainly Clear"
"-115.78","60.84","HAY RIVER A","2202401","2018-01-16 03:00","2018","01","16","03:00","-8.0","","-9.6","","88","","","","19","","5","","24.1","","99.02","","","","-11","","NA"
"-115.78","60.84","HAY RIVER A","2202401","2018-01-16 04:00","2018","01","16","04:00","-7.8","","-9.2","","90","","","","20","","10","","24.1","","98.97","","","","-13","","NA"
"-115.78","60.84","HAY RIVER A","2202401","2018-01-16 05:00","2018","01","16","05:00","-8.2","","-9.5","","91","","","","20","","12","","24.1","","98.98","","","","-14","","Mainly Clear"
"-115.78","60.84","HAY RIVER A","2202401","2018-01-16 06:00","2018","01","16","06:00","-7.0","","-8.6","","89","","","","20","","8","","24.1","","98.92","","","","-11","","NA"
"-115.78","60.84","HAY RIVER A","2202401","2018-01-16 07:00","2018","01","16","07:00","-7.7","","-9.4","","88","","","","23","","9","","24.1","","98.91","","","","-12","","NA"
"-115.78","60.84","HAY RIVER A","2202401","2018-01-16 08:00","2018","01","16","08:00","-8.1","","-9.4","","91","","","","20","","5","","24.1","","98.88","","","","-11","","Mainly Clear"
"-115.78","60.84","HAY RIVER A","2202401","2018-01-16 09:00","2018","01","16","09:00","-8.5","","-9.6","","92","","","","17","","6","","24.1","","98.84","","","","-12","","NA"
"-115.78","60.84","HAY RIVER A","2202401","2018-01-16 10:00","2018","01","16","10:00","-9.4","","-10.5","","92","","","","36","","1","","24.1","","98.86","","","","-10","","NA"
"-115.78","60.84","HAY RIVER A","2202401","2018-01-16 11:00","2018","01","16","11:00","-10.9","","-12.5","","88","","","","18","","9","","24.1","","98.82","","","","-16","","Mainly Clear"
"-115.78","60.84","HAY RIVER A","2202401","2018-01-16 12:00","2018","01","16","12:00","-7.4","","-9.4","","86","","","","25","","7","","24.1","","98.81","","","","-11","","NA"
"-115.78","60.84","HAY RIVER A","2202401","2018-01-16 13:00","2018","01","16","13:00","-6.8","","-9.2","","83","","","","36","","2","","24.1","","98.80","","","","-8","","NA"
"-115.78","60.84","HAY RIVER A","2202401","2018-01-16 14:00","2018","01","16","14:00","-5.7","","-8.3","","82","","","","36","","1","","24.1","","98.75","","","","-6","","Mainly Clear"
"-115.78","60.84","HAY RIVER A","2202401","2018-01-16 15:00","2018","01","16","15:00","-8.4","","-11.1","","81","","","","6","","5","","24.1","","98.72","","","","-11","","NA"
"-115.78","60.84","HAY RIVER A","2202401","2018-01-16 16:00","2018","01","16","16:00","-8.2","","-9.7","","89","","","","7","","4","","24.1","","98.74","","","","-10","","NA"
"-115.78","60.84","HAY RIVER A","2202401","2018-01-16 17:00","2018","01","16","17:00","-9.9","","-11.1","","91","","","","8","","10","","24.1","","98.70","","","","-15","","Mainly Clear"
"-115.78","60.84","HAY RIVER A","2202401","2018-01-16 18:00","2018","01","16","18:00","-11.7","","-13.1","","89","","","","36","","3","","24.1","","98.70","","","","-14","","NA"
"-115.78","60.84","HAY RIVER A","2202401","2018-01-16 19:00","2018","01","16","19:00","-14.1","","-15.4","","90","","","","36","","3","","24.1","","98.69","","","","-16","","NA"
"-115.78","60.84","HAY RIVER A","2202401","2018-01-16 20:00","2018","01","16","20:00","-15.2","","-16.7","","88","","","","36","","2","","24.1","","98.61","","","","-17","","Mainly Clear"
"-115.78","60.84","HAY RIVER A","2202401","2018-01-16 21:00","2018","01","16","21:00","-16.6","","-18.4","","86","","","","36","","2","","24.1","","98.59","","","","-18","","NA"
"-115.78","60.84","HAY RIVER A","2202401","2018-01-16 22:00","2018","01","16","22:00","-16.4","","-18.1","","87","","","","0","","1","","24.1","","98.57","","","","-17","","NA"
"-115.78","60.84","HAY RIVER A","2202401","2018-01-16 23:00","2018","01","16","23:00","-17.5","","-19.4","","86","","","","32","","3","","24.1","","98.55","","","","-20","","Clear"
"-115.78","60.84","HAY RIVER A","2202401","2018-01-17 00:00","2018","01","17","00:00","-18.2","","-20.1","","85","","","","29","","3","","24.1","","98.56","","","","-21","","NA"
"-115.78","60.84","HAY RIVER A","2202401","2018-01-17 01:00","2018","01","17","01:00","-18.4","","-20.4","","84","","","","36","","3","","24.1","","98.53","","","","-21","","NA"
"-115.78","60.84","HAY RIVER A","2202401","2018-01-17 02:00","2018","01","17","02:00","-18.1","","-20.1","","85","","","","23","","4","","24.1","","98.53","","","","-21","","Mainly Clear"
"-115.78","60.84","HAY RIVER A","2202401","2018-01-17 03:00","2018","01","17","03:00","-19.3","","-21.5","","83","","","","25","","5","","24.1","","98.52","","","","-23","","NA"
"-115.78","60.84","HAY RIVER A","2202401","2018-01-17 04:00","2018","01","17","04:00","-18.9","","-20.8","","85","","","","27","","3","","24.1","","98.48","","","","-21","","NA"
"-115.78","60.84","HAY RIVER A","2202401","2018-01-17 05:00","2018","01","17","05:00","-19.4","","-21.5","","84","","","","26","","9","","1.6","","98.48","","","","-26","","Fog"
"-115.78","60.84","HAY RIVER A","2202401","2018-01-17 06:00","2018","01","17","06:00","-18.8","","-20.7","","85","","","","25","","3","","0.2","","98.45","","","","-21","","Freezing Fog"
"-115.78","60.84","HAY RIVER A","2202401","2018-01-17 07:00","2018","01","17","07:00","-18.3","","-20.3","","84","","","","36","","1","","0.4","","98.45","","","","-19","","Freezing Fog"
"-115.78","60.84","HAY RIVER A","2202401","2018-01-17 08:00","2018","01","17","08:00","-18.1","","-20.1","","84","","","","36","","3","","0.4","","98.38","","","","-21","","Freezing Fog"
"-115.78","60.84","HAY RIVER A","2202401","2018-01-17 09:00","2018","01","17","09:00","-17.7","","-19.8","","84","","","","23","","3","","2.4","","98.36","","","","-20","","Fog"
"-115.78","60.84","HAY RIVER A","2202401","2018-01-17 10:00","2018","01","17","10:00","-16.7","","-18.6","","85","","","","36","","3","","0.8","","98.35","","","","-19","","Freezing Fog"
"-115.78","60.84","HAY RIVER A","2202401","2018-01-17 11:00","2018","01","17","11:00","-15.8","","-17.6","","86","","","","4","","3","","4.8","","98.32","","","","-18","","Fog"
"-115.78","60.84","HAY RIVER A","2202401","2018-01-17 12:00","2018","01","17","12:00","-14.4","","-16.0","","87","","","","12","","8","","19.3","","98.31","","","","-20","","NA"
"-115.78","60.84","HAY RIVER A","2202401","2018-01-17 13:00","2018","01","17","13:00","-13.7","","-15.3","","88","","","","36","","1","","19.3","","98.25","","","","-14","","NA"
"-115.78","60.84","HAY RIVER A","2202401","2018-01-17 14:00","2018","01","17","14:00","-12.9","","-14.5","","88","","","","36","","1","","24.1","","98.18","","","","-14","","Mostly Cloudy"
"-115.78","60.84","HAY RIVER A","2202401","2018-01-17 15:00","2018","01","17","15:00","-13.4","","-15.0","","88","","","","7","","8","","24.1","","98.17","","","","-18","","NA"
"-115.78","60.84","HAY RIVER A","2202401","2018-01-17 16:00","2018","01","17","16:00","-12.9","","-14.4","","88","","","","9","","5","","24.1","","98.16","","","","-16","","NA"
"-115.78","60.84","HAY RIVER A","2202401","2018-01-17 17:00","2018","01","17","17:00","-12.5","","-13.9","","89","","","","36","","1","","24.1","","98.16","","","","-13","","Mostly Cloudy"
"-115.78","60.84","HAY RIVER A","2202401","2018-01-17 18:00","2018","01","17","18:00","-11.9","","-13.3","","89","","","","36","","3","","24.1","","98.09","","","","-14","","NA"
"-115.78","60.84","HAY RIVER A","2202401","2018-01-17 19:00","2018","01","17","19:00","-12.1","","-13.6","","89","","","","36","","2","","24.1","","98.03","","","","-13","","NA"
"-115.78","60.84","HAY RIVER A","2202401","2018-01-17 20:00","2018","01","17","20:00","-12.2","","-13.6","","89","","","","36","","2","","24.1","","97.95","","","","-13","","Cloudy"
"-115.78","60.84","HAY RIVER A","2202401","2018-01-17 21:00","2018","01","17","21:00","-12.3","","-13.8","","89","","","","36","","1","","24.1","","97.90","","","","-13","","NA"
"-115.78","60.84","HAY RIVER A","2202401","2018-01-17 22:00","2018","01","17","22:00","-12.0","","-13.4","","89","","","","36","","2","","0.2","","97.86","","","","-13","","Freezing Fog"
"-115.78","60.84","HAY RIVER A","2202401","2018-01-17 23:00","2018","01","17","23:00","-11.6","","-13.0","","90","","","","8","","3","","0.2","","97.82","","","","-13","","Freezing Fog"
"-115.78","60.84","HAY RIVER A","2202401","2018-01-18 00:00","2018","01","18","00:00","-12.1","","-13.5","","89","","","","13","","3","","0.8","","97.78","","","","-14","","Freezing Fog"
"-115.78","60.84","HAY RIVER A","2202401","2018-01-18 01:00","2018","01","18","01:00","-13.0","","-14.5","","88","","","","10","","3","","16.1","","97.74","","","","-15","","NA"
"-115.78","60.84","HAY RIVER A","2202401","2018-01-18 02:00","2018","01","18","02:00","-15.3","","-17.1","","86","","","","36","","2","","0.4","","97.70","","","","-17","","Freezing Fog"
"-115.78","60.84","HAY RIVER A","2202401","2018-01-18 03:00","2018","01","18","03:00","-13.8","","-15.3","","88","","","","7","","4","","0.4","","97.66","","","","-17","","Freezing Fog"
"-115.78","60.84","HAY RIVER A","2202401","2018-01-18 04:00","2018","01","18","04:00","-12.4","","-13.8","","89","","","","36","","1","","0.2","","97.63","","","","-13","","Freezing Fog"
"-115.78","60.84","HAY RIVER A","2202401","2018-01-18 05:00","2018","01","18","05:00","-13.1","","-14.6","","88","","","","4","","3","","19.3","","97.50","","","","-15","","Cloudy"
"-115.78","60.84","HAY RIVER A","2202401","2018-01-18 06:00","2018","01","18","06:00","-11.1","","-12.4","","90","","","","9","","7","","24.1","","97.47","","","","-15","","NA"
"-115.78","60.84","HAY RIVER A","2202401","2018-01-18 07:00","2018","01","18","07:00","-11.3","","-12.6","","90","","","","36","","2","","24.1","","97.38","","","","-13","","NA"
"-115.78","60.84","HAY RIVER A","2202401","2018-01-18 08:00","2018","01","18","08:00","-12.0","","-13.4","","90","","","","36","","2","","24.1","","97.34","","","","-13","","Cloudy"
"-115.78","60.84","HAY RIVER A","2202401","2018-01-18 09:00","2018","01","18","09:00","-11.1","","-12.4","","90","","","","3","","4","","24.1","","97.32","","","","-14","","NA"
"-115.78","60.84","HAY RIVER A","2202401","2018-01-18 10:00","2018","01","18","10:00","-10.6","","-11.9","","91","","","","7","","9","","24.1","","97.32","","","","-16","","NA"
"-115.78","60.84","HAY RIVER A","2202401","2018-01-18 11:00","2018","01","18","11:00","-10.6","","-11.8","","91","","","","7","","12","","24.1","","97.32","","","","-17","","Mostly Cloudy"
"-115.78","60.84","HAY RIVER A","2202401","2018-01-18 12:00","2018","01","18","12:00","-10.8","","-12.1","","91","","","","7","","8","","24.1","","97.30","","","","-15","","NA"
"-115.78","60.84","HAY RIVER A","2202401","2018-01-18 13:00","2018","01","18","13:00","-10.8","","-12.1","","90","","","","8","","12","","24.1","","97.26","","","","-17","","NA"
"-115.78","60.84","HAY RIVER A","2202401","2018-01-18 14:00","2018","01","18","14:00","-10.4","","-11.6","","91","","","","7","","12","","24.1","","97.25","","","","-16","","Mostly Cloudy"
"-115.78","60.84","HAY RIVER A","2202401","2018-01-18 15:00","2018","01","18","15:00","-10.3","","-11.5","","91","","","","6","","13","","24.1","","97.24","","","","-17","","NA"
"-115.78","60.84","HAY RIVER A","2202401","2018-01-18 16:00","2018","01","18","16:00","-10.4","","-11.6","","91","","","","5","","14","","24.1","","97.30","","","","-17","","NA"
"-115.78","60.84","HAY RIVER A","2202401","2018-01-18 17:00","2018","01","18","17:00","-10.2","","-11.4","","91","","","","6","","9","","24.1","","97.35","","","","-15","","Cloudy"
"-115.78","60.84","HAY RIVER A","2202401","2018-01-18 18:00","2018","01","18","18:00","-9.5","","-10.7","","92","","","","7","","8","","24.1","","97.36","","","","-14","","Snow"
"-115.78","60.84","HAY RIVER A","2202401","2018-01-18 19:00","2018","01","18","19:00","-9.0","","-10.0","","92","","","","4","","3","","24.1","","97.37","","","","-11","","Snow"
"-115.78","60.84","HAY RIVER A","2202401","2018-01-18 20:00","2018","01","18","20:00","-8.2","","-9.2","","93","","","","5","","5","","0.8","","97.41","","","","-11","","Freezing Fog"
"-115.78","60.84","HAY RIVER A","2202401","2018-01-18 21:00","2018","01","18","21:00","-7.9","","-8.8","","93","","","","2","","5","","3.2","","97.42","","","","-11","","Snow"
"-115.78","60.84","HAY RIVER A","2202401","2018-01-18 22:00","2018","01","18","22:00","-8.9","","-10.0","","92","","","","1","","8","","24.1","","97.47","","","","-13","","Snow"
"-115.78","60.84","HAY RIVER A","2202401","2018-01-18 23:00","2018","01","18","23:00","-9.2","","-10.3","","92","","","","2","","7","","9.7","","97.54","","","","-13","","Snow"
"-115.78","60.84","HAY RIVER A","2202401","2018-01-19 00:00","2018","01","19","00:00","-9.3","","-10.4","","92","","","","1","","6","","9.7","","97.59","","","","-13","","Snow"
"-115.78","60.84","HAY RIVER A","2202401","2018-01-19 01:00","2018","01","19","01:00","-9.4","","-10.5","","92","","","","1","","7","","19.3","","97.64","","","","-13","","Snow"
"-115.78","60.84","HAY RIVER A","2202401","2018-01-19 02:00","2018","01","19","02:00","-9.6","","-10.7","","91","","","","1","","8","","24.1","","97.70","","","","-14","","Snow"
"-115.78","60.84","HAY RIVER A","2202401","2018-01-19 03:00","2018","01","19","03:00","-9.6","","-10.7","","91","","","","36","","10","","24.1","","97.78","","","","-15","","Snow"
"-115.78","60.84","HAY RIVER A","2202401","2018-01-19 04:00","2018","01","19","04:00","-9.8","","-11.0","","91","","","","36","","8","","19.3","","97.85","","","","-14","","Snow"
"-115.78","60.84","HAY RIVER A","2202401","2018-01-19 05:00","2018","01","19","05:00","-10.0","","-11.2","","91","","","","35","","9","","19.3","","97.88","","","","-15","","Snow"
"-115.78","60.84","HAY RIVER A","2202401","2018-01-19 06:00","2018","01","19","06:00","-10.1","","-11.3","","91","","","","35","","9","","19.3","","97.95","","","","-15","","Snow"
"-115.78","60.84","HAY RIVER A","2202401","2018-01-19 07:00","2018","01","19","07:00","-10.2","","-11.4","","91","","","","34","","8","","6.4","","97.98","","","","-15","","Snow"
"-115.78","60.84","HAY RIVER A","2202401","2018-01-19 08:00","2018","01","19","08:00","-10.4","","-11.7","","91","","","","34","","8","","4.8","","98.04","","","","-15","","Snow"
"-115.78","60.84","HAY RIVER A","2202401","2018-01-19 09:00","2018","01","19","09:00","-10.2","","-11.4","","91","","","","33","","8","","8.1","","98.11","","","","-15","","Snow"
"-115.78","60.84","HAY RIVER A","2202401","2018-01-19 10:00","2018","01","19","10:00","-10.8","","-12.1","","90","","","","33","","8","","16.1","","98.19","","","","-15","","Snow"
"-115.78","60.84","HAY RIVER A","2202401","2018-01-19 11:00","2018","01","19","11:00","-10.2","","-11.4","","91","","","","33","","8","","9.7","","98.25","","","","-15","","Snow"
"-115.78","60.84","HAY RIVER A","2202401","2018-01-19 12:00","2018","01","19","12:00","-11.0","","-12.3","","90","","","","33","","9","","20.9","","98.33","","","","-16","","Snow"
"-115.78","60.84","HAY RIVER A","2202401","2018-01-19 13:00","2018","01","19","13:00","-10.1","","-11.3","","91","","","","34","","7","","24.1","","98.36","","","","-14","","Snow"
"-115.78","60.84","HAY RIVER A","2202401","2018-01-19 14:00","2018","01","19","14:00","-10.3","","-11.5","","91","","","","2","","7","","20.9","","98.40","","","","-14","","Snow"
"-115.78","60.84","HAY RIVER A","2202401","2018-01-19 15:00","2018","01","19","15:00","-10.4","","-11.7","","91","","","","34","","5","","12.9","","98.46","","","","-13","","Snow"
"-115.78","60.84","HAY RIVER A","2202401","2018-01-19 16:00","2018","01","19","16:00","-10.4","","-11.7","","91","","","","33","","5","","12.9","","98.55","","","","-13","","Snow"
"-115.78","60.84","HAY RIVER A","2202401","2018-01-19 17:00","2018","01","19","17:00","-10.6","","-11.8","","91","","","","35","","3","","12.9","","98.61","","","","-12","","Freezing Drizzle,Snow"
"-115.78","60.84","HAY RIVER A","2202401","2018-01-19 18:00","2018","01","19","18:00","-10.5","","-11.7","","91","","","","32","","4","","11.3","","98.66","","","","-13","","Snow"
"-115.78","60.84","HAY RIVER A","2202401","2018-01-19 19:00","2018","01","19","19:00","-10.7","","-11.9","","91","","","","36","","1","","19.3","","98.67","","","","-11","","Snow"
"-115.78","60.84","HAY RIVER A","2202401","2018-01-19 20:00","2018","01","19","20:00","-10.1","","-11.3","","91","","","","29","","7","","24.1","","98.68","","","","-14","","Snow"
"-115.78","60.84","HAY RIVER A","2202401","2018-01-19 21:00","2018","01","19","21:00","-9.9","","-11.1","","91","","","","32","","6","","19.3","","98.71","","","","-13","","Snow"
"-115.78","60.84","HAY RIVER A","2202401","2018-01-19 22:00","2018","01","19","22:00","-9.8","","-10.9","","91","","","","34","","3","","19.3","","98.75","","","","-12","","Snow"
"-115.78","60.84","HAY RIVER A","2202401","2018-01-19 23:00","2018","01","19","23:00","-9.8","","-11.0","","91","","","","24","","3","","9.7","","98.77","","","","-12","","Snow"
"-115.78","60.84","HAY RIVER A","2202401","2018-01-20 00:00","2018","01","20","00:00","-9.8","","-10.9","","91","","","","36","","1","","9.7","","98.82","","","","-10","","Snow"
"-115.78","60.84","HAY RIVER A","2202401","2018-01-20 01:00","2018","01","20","01:00","-10.2","","-11.4","","91","","","","8","","5","","9.7","","98.85","","","","-13","","Snow"
"-115.78","60.84","HAY RIVER A","2202401","2018-01-20 02:00","2018","01","20","02:00","-10.5","","-11.8","","91","","","","3","","5","","9.7","","98.90","","","","-14","","Snow"
"-115.78","60.84","HAY RIVER A","2202401","2018-01-20 03:00","2018","01","20","03:00","-11.4","","-12.8","","90","","","","36","","5","","19.3","","98.95","","","","-15","","Snow"
"-115.78","60.84","HAY RIVER A","2202401","2018-01-20 04:00","2018","01","20","04:00","-11.8","","-13.2","","90","","","","35","","4","","19.3","","98.99","","","","-14","","Snow"
"-115.78","60.84","HAY RIVER A","2202401","2018-01-20 05:00","2018","01","20","05:00","-12.2","","-13.6","","89","","","","35","","7","","19.3","","99.03","","","","-17","","Snow"
"-115.78","60.84","HAY RIVER A","2202401","2018-01-20 06:00","2018","01","20","06:00","-12.6","","-14.1","","89","","","","3","","9","","24.1","","99.07","","","","-18","","Snow"
"-115.78","60.84","HAY RIVER A","2202401","2018-01-20 07:00","2018","01","20","07:00","-13.8","","-15.4","","88","","","","3","","9","","24.1","","99.16","","","","-19","","Snow"
"-115.78","60.84","HAY RIVER A","2202401","2018-01-20 08:00","2018","01","20","08:00","-15.9","","-17.8","","86","","","","5","","5","","24.1","","99.20","","","","-20","","Snow"
"-115.78","60.84","HAY RIVER A","2202401","2018-01-20 09:00","2018","01","20","09:00","-16.7","","-18.4","","86","","","","7","","5","","24.1","","99.24","","","","-21","","Snow"
"-115.78","60.84","HAY RIVER A","2202401","2018-01-20 10:00","2018","01","20","10:00","-17.2","","-19.1","","85","","","","2","","4","","24.1","","99.32","","","","-20","","Snow"
"-115.78","60.84","HAY RIVER A","2202401","2018-01-20 11:00","2018","01","20","11:00","-16.9","","-18.8","","86","","","","35","","3","","24.1","","99.38","","","","-19","","Mostly Cloudy"
"-115.78","60.84","HAY RIVER A","2202401","2018-01-20 12:00","2018","01","20","12:00","-16.9","","-18.8","","85","","","","34","","4","","24.1","","99.45","","","","-20","","NA"
"-115.78","60.84","HAY RIVER A","2202401","2018-01-20 13:00","2018","01","20","13:00","-16.8","","-18.7","","85","","","","4","","6","","24.1","","99.49","","","","-21","","NA"
"-115.78","60.84","HAY RIVER A","2202401","2018-01-20 14:00","2018","01","20","14:00","-16.4","","-18.3","","85","","","","4","","9","","24.1","","99.54","","","","-22","","Mostly Cloudy"
"-115.78","60.84","HAY RIVER A","2202401","2018-01-20 15:00","2018","01","20","15:00","-17.0","","-19.0","","85","","","","2","","8","","24.1","","99.60","","","","-23","","NA"
"-115.78","60.84","HAY RIVER A","2202401","2018-01-20 16:00","2018","01","20","16:00","-17.6","","-19.6","","85","","","","6","","6","","24.1","","99.68","","","","-22","","NA"
"-115.78","60.84","HAY RIVER A","2202401","2018-01-20 17:00","2018","01","20","17:00","-19.4","","-21.6","","83","","","","7","","8","","24.1","","99.74","","","","-26","","Mostly Cloudy"
"-115.78","60.84","HAY RIVER A","2202401","2018-01-20 18:00","2018","01","20","18:00","-21.9","","-24.1","","82","","","","8","","7","","24.1","","99.79","","","","-28","","NA"
"-115.78","60.84","HAY RIVER A","2202401","2018-01-20 19:00","2018","01","20","19:00","-23.7","","-26.2","","80","","","","11","","7","","24.1","","99.81","","","","-30","","NA"
"-115.78","60.84","HAY RIVER A","2202401","2018-01-20 20:00","2018","01","20","20:00","-24.5","","-26.9","","81","","","","7","","3","","24.1","","99.84","","","","-27","","Mainly Clear"
"-115.78","60.84","HAY RIVER A","2202401","2018-01-20 21:00","2018","01","20","21:00","-26.7","","-29.5","","78","","","","36","","2","","24.1","","99.88","","","","-29","","NA"
"-115.78","60.84","HAY RIVER A","2202401","2018-01-20 22:00","2018","01","20","22:00","-27.1","","-29.9","","78","","","","5","","3","","24.1","","99.94","","","","-30","","NA"
"-115.78","60.84","HAY RIVER A","2202401","2018-01-20 23:00","2018","01","20","23:00","-27.9","","-30.7","","78","","","","36","","3","","24.1","","99.95","","","","-31","","Clear"
"-115.78","60.84","HAY RIVER A","2202401","2018-01-21 00:00","2018","01","21","00:00","-31.8","","-35.0","","74","","","","36","","2","","24.1","","100.01","","","","-34","","NA"
"-115.78","60.84","HAY RIVER A","2202401","2018-01-21 01:00","2018","01","21","01:00","-29.8","","-32.8","","76","","","","7","","4","","24.1","","100.05","","","","-34","","NA"
"-115.78","60.84","HAY RIVER A","2202401","2018-01-21 02:00","2018","01","21","02:00","-30.1","","-33.1","","76","","","","36","","1","","24.1","","100.09","","","","-31","","Clear"
"-115.78","60.84","HAY RIVER A","2202401","2018-01-21 03:00","2018","01","21","03:00","-31.5","","-34.7","","74","","","","36","","2","","24.1","","100.10","","","","-34","","NA"
"-115.78","60.84","HAY RIVER A","2202401","2018-01-21 04:00","2018","01","21","04:00","-31.1","","-34.1","","75","","","","36","","1","","24.1","","100.13","","","","-32","","NA"
"-115.78","60.84","HAY RIVER A","2202401","2018-01-21 05:00","2018","01","21","05:00","-31.3","","-34.3","","75","","","","36","","1","","24.1","","100.11","","","","-32","","Clear"
"-115.78","60.84","HAY RIVER A","2202401","2018-01-21 06:00","2018","01","21","06:00","-31.9","","-35.0","","75","","","","36","","2","","24.1","","100.12","","","","-34","","NA"
"-115.78","60.84","HAY RIVER A","2202401","2018-01-21 07:00","2018","01","21","07:00","-31.9","","-35.0","","75","","","","8","","5","","24.1","","100.11","","","","-38","","NA"
"-115.78","60.84","HAY RIVER A","2202401","2018-01-21 08:00","2018","01","21","08:00","-32.7","","-35.9","","74","","","","10","","3","","24.1","","100.10","","","","-36","","Mainly Clear"
"-115.78","60.84","HAY RIVER A","2202401","2018-01-21 09:00","2018","01","21","09:00","-32.0","","-35.2","","74","","","","7","","5","","24.1","","100.09","","","","-38","","NA"
"-115.78","60.84","HAY RIVER A","2202401","2018-01-21 10:00","2018","01","21","10:00","-31.9","","-35.0","","75","","","","8","","5","","24.1","","100.09","","","","-38","","NA"
"-115.78","60.84","HAY RIVER A","2202401","2018-01-21 11:00","2018","01","21","11:00","-30.4","","-33.5","","75","","","","8","","4","","24.1","","100.13","","","","-35","","Mainly Clear"
"-115.78","60.84","HAY RIVER A","2202401","2018-01-21 12:00","2018","01","21","12:00","-28.3","","-31.2","","77","","","","8","","9","","24.1","","100.11","","","","-37","","NA"
"-115.78","60.84","HAY RIVER A","2202401","2018-01-21 13:00","2018","01","21","13:00","-26.6","","-29.4","","78","","","","7","","16","","24.1","","100.02","","","","-38","","NA"
"-115.78","60.84","HAY RIVER A","2202401","2018-01-21 14:00","2018","01","21","14:00","-28.0","","-30.9","","77","","","","7","","9","","24.1","","100.03","","","","-36","","Mostly Cloudy"
"-115.78","60.84","HAY RIVER A","2202401","2018-01-21 15:00","2018","01","21","15:00","-29.0","","-31.9","","76","","","","8","","10","","24.1","","100.03","","","","-38","","NA"
"-115.78","60.84","HAY RIVER A","2202401","2018-01-21 16:00","2018","01","21","16:00","-31.1","","-34.2","","74","","","","8","","11","","24.1","","100.04","","","","-41","","NA"
"-115.78","60.84","HAY RIVER A","2202401","2018-01-21 17:00","2018","01","21","17:00","-30.1","","-33.1","","76","","","","7","","13","","24.1","","99.99","","","","-41","","Mainly Clear"
"-115.78","60.84","HAY RIVER A","2202401","2018-01-21 18:00","2018","01","21","18:00","-28.5","","-31.4","","77","","","","7","","13","","24.1","","99.92","","","","-39","","NA"
"-115.78","60.84","HAY RIVER A","2202401","2018-01-21 19:00","2018","01","21","19:00","-25.7","","-28.3","","79","","","","7","","17","","24.1","","99.86","","","","-37","","Snow"
"-115.78","60.84","HAY RIVER A","2202401","2018-01-21 20:00","2018","01","21","20:00","-24.1","","-26.7","","80","","","","8","","23","","24.1","","99.81","","","","-36","","Snow"
"-115.78","60.84","HAY RIVER A","2202401","2018-01-21 21:00","2018","01","21","21:00","-22.9","","-25.4","","81","","","","9","","18","","24.1","","99.80","","","","-34","","Snow"
"-115.78","60.84","HAY RIVER A","2202401","2018-01-21 22:00","2018","01","21","22:00","-21.9","","-24.3","","81","","","","8","","22","","24.1","","99.75","","","","-33","","Snow"
"-115.78","60.84","HAY RIVER A","2202401","2018-01-21 23:00","2018","01","21","23:00","-21.1","","-23.5","","82","","","","8","","22","","24.1","","99.69","","","","-32","","Snow"
"-115.78","60.84","HAY RIVER A","2202401","2018-01-22 00:00","2018","01","22","00:00","-20.1","","-22.4","","83","","","","8","","24","","24.1","","99.63","","","","-32","","Snow"
"-115.78","60.84","HAY RIVER A","2202401","2018-01-22 01:00","2018","01","22","01:00","-19.3","","-21.4","","83","","","","7","","18","","24.1","","99.60","","","","-29","","NA"
"-115.78","60.84","HAY RIVER A","2202401","2018-01-22 02:00","2018","01","22","02:00","-18.5","","-20.6","","84","","","","7","","22","","24.1","","99.57","","","","-29","","Mostly Cloudy"
"-115.78","60.84","HAY RIVER A","2202401","2018-01-22 03:00","2018","01","22","03:00","-18.9","","-21.1","","84","","","","7","","22","","19.3","","99.54","","","","-30","","Snow"
"-115.78","60.84","HAY RIVER A","2202401","2018-01-22 04:00","2018","01","22","04:00","-19.5","","-21.6","","83","","","","7","","23","","24.1","","99.49","","","","-31","","Snow"
"-115.78","60.84","HAY RIVER A","2202401","2018-01-22 05:00","2018","01","22","05:00","-18.9","","-21.0","","84","","","","8","","22","","19.3","","99.45","","","","-30","","Snow"
"-115.78","60.84","HAY RIVER A","2202401","2018-01-22 06:00","2018","01","22","06:00","-18.7","","-20.8","","84","","","","8","","23","","24.1","","99.44","","","","-30","","Snow"
"-115.78","60.84","HAY RIVER A","2202401","2018-01-22 07:00","2018","01","22","07:00","-18.8","","-20.9","","84","","","","7","","15","","6.4","","99.43","","","","-28","","Snow"
"-115.78","60.84","HAY RIVER A","2202401","2018-01-22 08:00","2018","01","22","08:00","-19.1","","-21.2","","83","","","","6","","11","","3.6","","99.45","","","","-27","","Snow,Blowing Snow"
"-115.78","60.84","HAY RIVER A","2202401","2018-01-22 09:00","2018","01","22","09:00","-19.1","","-21.3","","84","","","","6","","11","","3.2","","99.46","","","","-27","","Snow,Blowing Snow"
"-115.78","60.84","HAY RIVER A","2202401","2018-01-22 10:00","2018","01","22","10:00","-18.6","","-20.7","","84","","","","8","","16","","4.0","","99.45","","","","-28","","Snow,Blowing Snow"
"-115.78","60.84","HAY RIVER A","2202401","2018-01-22 11:00","2018","01","22","11:00","-18.3","","-20.4","","84","","","","9","","12","","2.8","","99.46","","","","-26","","Snow,Blowing Snow"
"-115.78","60.84","HAY RIVER A","2202401","2018-01-22 12:00","2018","01","22","12:00","-17.8","","-19.8","","85","","","","13","","9","","2.8","","99.47","","","","-24","","Snow"
"-115.78","60.84","HAY RIVER A","2202401","2018-01-22 13:00","2018","01","22","13:00","-17.5","","-19.4","","85","","","","17","","3","","16.1","","99.48","","","","-20","","Snow"
"-115.78","60.84","HAY RIVER A","2202401","2018-01-22 14:00","2018","01","22","14:00","-17.8","","-19.8","","84","","","","29","","10","","24.1","","99.52","","","","-25","","Mostly Cloudy"
"-115.78","60.84","HAY RIVER A","2202401","2018-01-22 15:00","2018","01","22","15:00","-17.3","","-19.2","","85","","","","24","","12","","24.1","","99.58","","","","-25","","NA"
"-115.78","60.84","HAY RIVER A","2202401","2018-01-22 16:00","2018","01","22","16:00","-18.5","","-20.6","","84","","","","26","","12","","24.1","","99.65","","","","-26","","NA"
"-115.78","60.84","HAY RIVER A","2202401","2018-01-22 17:00","2018","01","22","17:00","-19.5","","-21.6","","83","","","","28","","10","","24.1","","99.71","","","","-27","","Mainly Clear"
"-115.78","60.84","HAY RIVER A","2202401","2018-01-22 18:00","2018","01","22","18:00","-21.8","","-24.2","","82","","","","24","","9","","24.1","","99.75","","","","-29","","NA"
"-115.78","60.84","HAY RIVER A","2202401","2018-01-22 19:00","2018","01","22","19:00","-23.7","","-26.2","","80","","","","23","","6","","24.1","","99.74","","","","-29","","NA"
"-115.78","60.84","HAY RIVER A","2202401","2018-01-22 20:00","2018","01","22","20:00","-23.3","","-25.8","","81","","","","23","","10","","24.1","","99.77","","","","-31","","Mainly Clear"
"-115.78","60.84","HAY RIVER A","2202401","2018-01-22 21:00","2018","01","22","21:00","-24.9","","-27.5","","80","","","","21","","6","","24.1","","99.79","","","","-31","","NA"
"-115.78","60.84","HAY RIVER A","2202401","2018-01-22 22:00","2018","01","22","22:00","-24.7","","-27.2","","80","","","","23","","11","","24.1","","99.79","","","","-33","","NA"
"-115.78","60.84","HAY RIVER A","2202401","2018-01-22 23:00","2018","01","22","23:00","-25.6","","-28.3","","79","","","","24","","10","","24.1","","99.81","","","","-34","","Mainly Clear"
"-115.78","60.84","HAY RIVER A","2202401","2018-01-23 00:00","2018","01","23","00:00","-24.9","","-27.4","","80","","","","23","","11","","24.1","","99.85","","","","-34","","NA"
"-115.78","60.84","HAY RIVER A","2202401","2018-01-23 01:00","2018","01","23","01:00","-24.5","","-26.9","","81","","","","15","","4","","24.1","","99.87","","","","-28","","NA"
"-115.78","60.84","HAY RIVER A","2202401","2018-01-23 02:00","2018","01","23","02:00","-25.7","","-28.4","","78","","","","20","","5","","24.1","","99.91","","","","-31","","Mainly Clear"
"-115.78","60.84","HAY RIVER A","2202401","2018-01-23 03:00","2018","01","23","03:00","-26.2","","-28.9","","78","","","","19","","5","","24.1","","99.91","","","","-31","","NA"
"-115.78","60.84","HAY RIVER A","2202401","2018-01-23 04:00","2018","01","23","04:00","-26.6","","-29.3","","78","","","","19","","4","","24.1","","99.93","","","","-31","","NA"
"-115.78","60.84","HAY RIVER A","2202401","2018-01-23 05:00","2018","01","23","05:00","-25.0","","-27.6","","80","","","","36","","2","","24.1","","99.90","","","","-27","","Mainly Clear"
"-115.78","60.84","HAY RIVER A","2202401","2018-01-23 06:00","2018","01","23","06:00","-27.2","","-30.0","","77","","","","15","","4","","24.1","","99.91","","","","-31","","NA"
"-115.78","60.84","HAY RIVER A","2202401","2018-01-23 07:00","2018","01","23","07:00","-25.7","","-28.4","","79","","","","15","","5","","24.1","","99.89","","","","-31","","NA"
"-115.78","60.84","HAY RIVER A","2202401","2018-01-23 08:00","2018","01","23","08:00","-25.4","","-28.1","","79","","","","17","","5","","24.1","","99.89","","","","-30","","Mainly Clear"
"-115.78","60.84","HAY RIVER A","2202401","2018-01-23 09:00","2018","01","23","09:00","-25.5","","-28.0","","80","","","","16","","7","","24.1","","99.87","","","","-32","","NA"
"-115.78","60.84","HAY RIVER A","2202401","2018-01-23 10:00","2018","01","23","10:00","-25.9","","-28.5","","79","","","","16","","7","","24.1","","99.87","","","","-33","","NA"
"-115.78","60.84","HAY RIVER A","2202401","2018-01-23 11:00","2018","01","23","11:00","-25.9","","-28.8","","77","","","","15","","5","","24.1","","99.87","","","","-31","","Mainly Clear"
"-115.78","60.84","HAY RIVER A","2202401","2018-01-23 12:00","2018","01","23","12:00","-23.1","","-25.5","","81","","","","36","","3","","24.1","","99.83","","","","-26","","NA"
"-115.78","60.84","HAY RIVER A","2202401","2018-01-23 13:00","2018","01","23","13:00","-20.8","","-23.0","","83","","","","16","","6","","24.1","","99.80","","","","-26","","NA"
"-115.78","60.84","HAY RIVER A","2202401","2018-01-23 14:00","2018","01","23","14:00","-19.8","","-21.9","","83","","","","16","","4","","24.1","","99.79","","","","-23","","Mainly Clear"
"-115.78","60.84","HAY RIVER A","2202401","2018-01-23 15:00","2018","01","23","15:00","-20.1","","-22.5","","82","","","","16","","8","","24.1","","99.77","","","","-26","","NA"
"-115.78","60.84","HAY RIVER A","2202401","2018-01-23 16:00","2018","01","23","16:00","-22.8","","-25.3","","80","","","","23","","3","","24.1","","99.76","","","","-26","","NA"
"-115.78","60.84","HAY RIVER A","2202401","2018-01-23 17:00","2018","01","23","17:00","-23.2","","-25.7","","80","","","","9","","3","","24.1","","99.77","","","","-26","","Mostly Cloudy"
"-115.78","60.84","HAY RIVER A","2202401","2018-01-23 18:00","2018","01","23","18:00","-23.9","","-26.4","","80","","","","36","","2","","24.1","","99.76","","","","-26","","NA"
"-115.78","60.84","HAY RIVER A","2202401","2018-01-23 19:00","2018","01","23","19:00","-25.3","","-27.9","","79","","","","36","","1","","24.1","","99.76","","","","-26","","NA"
"-115.78","60.84","HAY RIVER A","2202401","2018-01-23 20:00","2018","01","23","20:00","-25.7","","-28.4","","79","","","","36","","1","","24.1","","99.73","","","","-27","","Mainly Clear"
"-115.78","60.84","HAY RIVER A","2202401","2018-01-23 21:00","2018","01","23","21:00","-27.0","","-29.8","","78","","","","7","","4","","24.1","","99.73","","","","-31","","NA"
"-115.78","60.84","HAY RIVER A","2202401","2018-01-23 22:00","2018","01","23","22:00","-27.7","","-30.6","","77","","","","10","","4","","24.1","","99.76","","","","-32","","NA"
"-115.78","60.84","HAY RIVER A","2202401","2018-01-23 23:00","2018","01","23","23:00","-27.7","","-30.4","","78","","","","36","","2","","24.1","","99.75","","","","-30","","Mostly Cloudy"
"-115.78","60.84","HAY RIVER A","2202401","2018-01-24 00:00","2018","01","24","00:00","-29.3","","-32.3","","76","","","","36","","1","","24.1","","99.74","","","","-30","","NA"
"-115.78","60.84","HAY RIVER A","2202401","2018-01-24 01:00","2018","01","24","01:00","-30.3","","-33.3","","76","","","","36","","2","","24.1","","99.77","","","","-33","","NA"
"-115.78","60.84","HAY RIVER A","2202401","2018-01-24 02:00","2018","01","24","02:00","-30.7","","-33.8","","75","","","","16","","3","","24.1","","99.82","","","","-34","","Mainly Clear"
"-115.78","60.84","HAY RIVER A","2202401","2018-01-24 03:00","2018","01","24","03:00","-30.4","","-33.4","","76","","","","36","","1","","24.1","","99.82","","","","-32","","NA"
"-115.78","60.84","HAY RIVER A","2202401","2018-01-24 04:00","2018","01","24","04:00","-30.9","","-33.9","","75","","","","36","","1","","24.1","","99.84","","","","-32","","NA"
"-115.78","60.84","HAY RIVER A","2202401","2018-01-24 05:00","2018","01","24","05:00","-32.0","","-35.2","","74","","","","19","","3","","24.1","","99.81","","","","-36","","Mostly Cloudy"
"-115.78","60.84","HAY RIVER A","2202401","2018-01-24 06:00","2018","01","24","06:00","-31.4","","-34.5","","75","","","","36","","1","","24.1","","99.83","","","","-33","","NA"
"-115.78","60.84","HAY RIVER A","2202401","2018-01-24 07:00","2018","01","24","07:00","-31.7","","-34.8","","75","","","","36","","1","","24.1","","99.83","","","","-33","","NA"
"-115.78","60.84","HAY RIVER A","2202401","2018-01-24 08:00","2018","01","24","08:00","-32.9","","-36.1","","74","","","","24","","4","","24.1","","99.84","","","","-38","","Mainly Clear"
"-115.78","60.84","HAY RIVER A","2202401","2018-01-24 09:00","2018","01","24","09:00","-32.3","","-35.5","","74","","","","36","","1","","24.1","","99.85","","","","-33","","NA"
"-115.78","60.84","HAY RIVER A","2202401","2018-01-24 10:00","2018","01","24","10:00","-31.4","","-34.5","","75","","","","28","","3","","9.7","","99.86","","","","-35","","Fog"
"-115.78","60.84","HAY RIVER A","2202401","2018-01-24 11:00","2018","01","24","11:00","-30.6","","-33.7","","75","","","","36","","2","","9.7","","99.89","","","","-33","","Fog"
"-115.78","60.84","HAY RIVER A","2202401","2018-01-24 12:00","2018","01","24","12:00","-29.1","","-32.1","","76","","","","28","","7","","24.1","","99.92","","","","-36","","NA"
"-115.78","60.84","HAY RIVER A","2202401","2018-01-24 13:00","2018","01","24","13:00","-28.7","","-31.6","","76","","","","32","","5","","24.1","","99.91","","","","-34","","NA"
"-115.78","60.84","HAY RIVER A","2202401","2018-01-24 14:00","2018","01","24","14:00","-27.8","","-30.7","","77","","","","27","","7","","24.1","","99.91","","","","-35","","Mainly Clear"
"-115.78","60.84","HAY RIVER A","2202401","2018-01-24 15:00","2018","01","24","15:00","-28.2","","-31.1","","76","","","","29","","3","","24.1","","99.89","","","","-31","","NA"
"-115.78","60.84","HAY RIVER A","2202401","2018-01-24 16:00","2018","01","24","16:00","-28.4","","-31.4","","76","","","","25","","4","","24.1","","99.93","","","","-33","","NA"
"-115.78","60.84","HAY RIVER A","2202401","2018-01-24 17:00","2018","01","24","17:00","-27.3","","-30.1","","77","","","","36","","2","","24.1","","99.93","","","","-29","","Mostly Cloudy"
"-115.78","60.84","HAY RIVER A","2202401","2018-01-24 18:00","2018","01","24","18:00","-27.5","","-30.4","","77","","","","29","","4","","24.1","","99.93","","","","-32","","NA"
"-115.78","60.84","HAY RIVER A","2202401","2018-01-24 19:00","2018","01","24","19:00","-27.4","","-30.2","","77","","","","28","","5","","24.1","","99.93","","","","-33","","NA"
"-115.78","60.84","HAY RIVER A","2202401","2018-01-24 20:00","2018","01","24","20:00","-25.7","","-28.5","","78","","","","33","","5","","24.1","","99.90","","","","-31","","Mostly Cloudy"
"-115.78","60.84","HAY RIVER A","2202401","2018-01-24 21:00","2018","01","24","21:00","-25.4","","-28.1","","79","","","","36","","1","","24.1","","99.89","","","","-26","","NA"
"-115.78","60.84","HAY RIVER A","2202401","2018-01-24 22:00","2018","01","24","22:00","-26.1","","-28.9","","78","","","","36","","2","","24.1","","99.90","","","","-28","","NA"
"-115.78","60.84","HAY RIVER A","2202401","2018-01-24 23:00","2018","01","24","23:00","-26.9","","-29.6","","78","","","","36","","1","","24.1","","99.94","","","","-28","","Mostly Cloudy"
"-115.78","60.84","HAY RIVER A","2202401","2018-01-25 00:00","2018","01","25","00:00","-27.2","","-30.0","","77","","","","36","","3","","24.1","","99.92","","","","-30","","NA"
"-115.78","60.84","HAY RIVER A","2202401","2018-01-25 01:00","2018","01","25","01:00","-25.5","","-28.2","","79","","","","33","","5","","24.1","","99.99","","","","-31","","NA"
"-115.78","60.84","HAY RIVER A","2202401","2018-01-25 02:00","2018","01","25","02:00","-24.3","","-26.9","","79","","","","36","","3","","24.1","","99.99","","","","-27","","Mostly Cloudy"
"-115.78","60.84","HAY RIVER A","2202401","2018-01-25 03:00","2018","01","25","03:00","-23.6","","-26.2","","80","","","","2","","5","","16.1","","99.98","","","","-28","","Snow"
"-115.78","60.84","HAY RIVER A","2202401","2018-01-25 04:00","2018","01","25","04:00","-23.8","","-26.4","","80","","","","2","","4","","24.1","","99.99","","","","-28","","Snow"
"-115.78","60.84","HAY RIVER A","2202401","2018-01-25 05:00","2018","01","25","05:00","-24.5","","-27.1","","79","","","","35","","4","","24.1","","99.97","","","","-28","","Mainly Clear"
"-115.78","60.84","HAY RIVER A","2202401","2018-01-25 06:00","2018","01","25","06:00","-23.9","","-26.5","","80","","","","33","","4","","24.1","","99.99","","","","-28","","Snow"
"-115.78","60.84","HAY RIVER A","2202401","2018-01-25 07:00","2018","01","25","07:00","-23.5","","-26.0","","80","","","","1","","5","","16.1","","100.01","","","","-28","","Snow"
"-115.78","60.84","HAY RIVER A","2202401","2018-01-25 08:00","2018","01","25","08:00","-23.4","","-25.9","","80","","","","1","","4","","9.7","","100.01","","","","-27","","Snow"
"-115.78","60.84","HAY RIVER A","2202401","2018-01-25 09:00","2018","01","25","09:00","-23.1","","-25.6","","80","","","","36","","4","","12.9","","100.01","","","","-27","","Snow"
"-115.78","60.84","HAY RIVER A","2202401","2018-01-25 10:00","2018","01","25","10:00","-23.1","","-25.6","","80","","","","35","","3","","12.9","","100.03","","","","-26","","Snow"
"-115.78","60.84","HAY RIVER A","2202401","2018-01-25 11:00","2018","01","25","11:00","-22.7","","-25.1","","81","","","","1","","5","","24.1","","100.07","","","","-27","","Mostly Cloudy"
"-115.78","60.84","HAY RIVER A","2202401","2018-01-25 12:00","2018","01","25","12:00","-22.5","","-24.9","","81","","","","36","","8","","24.1","","100.11","","","","-29","","NA"
"-115.78","60.84","HAY RIVER A","2202401","2018-01-25 13:00","2018","01","25","13:00","-22.3","","-24.7","","81","","","","2","","7","","24.1","","100.11","","","","-28","","Snow"
"-115.78","60.84","HAY RIVER A","2202401","2018-01-25 14:00","2018","01","25","14:00","-21.9","","-24.3","","81","","","","35","","9","","12.9","","100.15","","","","-29","","Snow"
"-115.78","60.84","HAY RIVER A","2202401","2018-01-25 15:00","2018","01","25","15:00","-21.7","","-24.1","","81","","","","34","","7","","12.9","","100.18","","","","-28","","Snow"
"-115.78","60.84","HAY RIVER A","2202401","2018-01-25 16:00","2018","01","25","16:00","-22.3","","-24.8","","81","","","","1","","7","","16.1","","100.22","","","","-28","","Snow"
"-115.78","60.84","HAY RIVER A","2202401","2018-01-25 17:00","2018","01","25","17:00","-23.6","","-26.2","","80","","","","2","","7","","24.1","","100.27","","","","-30","","Snow"
"-115.78","60.84","HAY RIVER A","2202401","2018-01-25 18:00","2018","01","25","18:00","-24.8","","-27.4","","79","","","","5","","5","","24.1","","100.30","","","","-30","","Snow"
"-115.78","60.84","HAY RIVER A","2202401","2018-01-25 19:00","2018","01","25","19:00","-25.5","","-28.2","","79","","","","6","","7","","24.1","","100.32","","","","-32","","NA"
"-115.78","60.84","HAY RIVER A","2202401","2018-01-25 20:00","2018","01","25","20:00","-25.4","","-28.1","","79","","","","3","","4","","24.1","","100.36","","","","-29","","Mostly Cloudy"
"-115.78","60.84","HAY RIVER A","2202401","2018-01-25 21:00","2018","01","25","21:00","-25.1","","-27.8","","79","","","","2","","4","","24.1","","100.41","","","","-29","","NA"
"-115.78","60.84","HAY RIVER A","2202401","2018-01-25 22:00","2018","01","25","22:00","-24.6","","-27.2","","79","","","","35","","4","","24.1","","100.46","","","","-29","","Snow"
"-115.78","60.84","HAY RIVER A","2202401","2018-01-25 23:00","2018","01","25","23:00","-24.5","","-27.1","","79","","","","35","","7","","24.1","","100.51","","","","-31","","Snow"
"-115.78","60.84","HAY RIVER A","2202401","2018-01-26 00:00","2018","01","26","00:00","-24.6","","-27.2","","79","","","","1","","6","","24.1","","100.54","","","","-30","","Snow"
"-115.78","60.84","HAY RIVER A","2202401","2018-01-26 01:00","2018","01","26","01:00","-24.8","","-27.4","","79","","","","36","","1","","24.1","","100.60","","","","-26","","Snow"
"-115.78","60.84","HAY RIVER A","2202401","2018-01-26 02:00","2018","01","26","02:00","-25.2","","-27.9","","79","","","","2","","5","","24.1","","100.66","","","","-30","","Mostly Cloudy"
"-115.78","60.84","HAY RIVER A","2202401","2018-01-26 03:00","2018","01","26","03:00","-25.2","","-27.9","","79","","","","1","","4","","24.1","","100.72","","","","-29","","NA"
"-115.78","60.84","HAY RIVER A","2202401","2018-01-26 04:00","2018","01","26","04:00","-26.2","","-28.9","","78","","","","36","","5","","24.1","","100.74","","","","-31","","NA"
"-115.78","60.84","HAY RIVER A","2202401","2018-01-26 05:00","2018","01","26","05:00","-28.6","","-31.5","","76","","","","3","","7","","24.1","","100.80","","","","-36","","Mainly Clear"
"-115.78","60.84","HAY RIVER A","2202401","2018-01-26 06:00","2018","01","26","06:00","-29.4","","-32.3","","76","","","","2","","8","","24.1","","100.83","","","","-37","","NA"
"-115.78","60.84","HAY RIVER A","2202401","2018-01-26 07:00","2018","01","26","07:00","-31.0","","-34.0","","75","","","","32","","7","","24.1","","100.90","","","","-38","","NA"
"-115.78","60.84","HAY RIVER A","2202401","2018-01-26 08:00","2018","01","26","08:00","-32.9","","-36.1","","74","","","","28","","7","","24.1","","100.98","","","","-41","","Mainly Clear"
"-115.78","60.84","HAY RIVER A","2202401","2018-01-26 09:00","2018","01","26","09:00","-34.3","","-37.6","","73","","","","25","","5","","24.1","","101.04","","","","-41","","NA"
"-115.78","60.84","HAY RIVER A","2202401","2018-01-26 10:00","2018","01","26","10:00","-33.4","","-36.6","","74","","","","29","","9","","24.1","","101.08","","","","-43","","NA"
"-115.78","60.84","HAY RIVER A","2202401","2018-01-26 11:00","2018","01","26","11:00","-32.5","","-35.8","","74","","","","33","","14","","24.1","","101.14","","","","-44","","Mainly Clear"
"-115.78","60.84","HAY RIVER A","2202401","2018-01-26 12:00","2018","01","26","12:00","-31.7","","-34.8","","74","","","","32","","9","","24.1","","101.20","","","","-41","","NA"
"-115.78","60.84","HAY RIVER A","2202401","2018-01-26 13:00","2018","01","26","13:00","-30.5","","-33.6","","75","","","","31","","8","","24.1","","101.23","","","","-39","","NA"
"-115.78","60.84","HAY RIVER A","2202401","2018-01-26 14:00","2018","01","26","14:00","-30.4","","-33.6","","75","","","","32","","12","","24.1","","101.25","","","","-41","","Mainly Clear"
"-115.78","60.84","HAY RIVER A","2202401","2018-01-26 15:00","2018","01","26","15:00","-29.6","","-32.6","","76","","","","32","","6","","24.1","","101.32","","","","-36","","NA"
"-115.78","60.84","HAY RIVER A","2202401","2018-01-26 16:00","2018","01","26","16:00","-30.2","","-33.2","","75","","","","28","","6","","24.1","","101.40","","","","-37","","NA"
"-115.78","60.84","HAY RIVER A","2202401","2018-01-26 17:00","2018","01","26","17:00","-31.2","","-34.3","","75","","","","30","","7","","24.1","","101.43","","","","-39","","Mostly Cloudy"
"-115.78","60.84","HAY RIVER A","2202401","2018-01-26 18:00","2018","01","26","18:00","-28.9","","-31.8","","77","","","","33","","8","","24.1","","101.46","","","","-37","","Snow"
"-115.78","60.84","HAY RIVER A","2202401","2018-01-26 19:00","2018","01","26","19:00","-28.3","","-31.2","","77","","","","33","","9","","24.1","","101.47","","","","-37","","Snow"
"-115.78","60.84","HAY RIVER A","2202401","2018-01-26 20:00","2018","01","26","20:00","-28.8","","-31.8","","76","","","","27","","6","","24.1","","101.50","","","","-35","","Snow"
"-115.78","60.84","HAY RIVER A","2202401","2018-01-26 21:00","2018","01","26","21:00","-28.3","","-31.2","","77","","","","30","","5","","24.1","","101.52","","","","-34","","Snow"
"-115.78","60.84","HAY RIVER A","2202401","2018-01-26 22:00","2018","01","26","22:00","-27.7","","-30.6","","77","","","","29","","5","","24.1","","101.55","","","","-33","","Snow"
"-115.78","60.84","HAY RIVER A","2202401","2018-01-26 23:00","2018","01","26","23:00","-27.8","","-30.6","","77","","","","29","","7","","24.1","","101.59","","","","-35","","Snow"
"-115.78","60.84","HAY RIVER A","2202401","2018-01-27 00:00","2018","01","27","00:00","-27.7","","-30.6","","77","","","","29","","8","","24.1","","101.62","","","","-35","","Snow"
"-115.78","60.84","HAY RIVER A","2202401","2018-01-27 01:00","2018","01","27","01:00","-27.6","","-30.4","","77","","","","30","","7","","24.1","","101.64","","","","-34","","Snow"
"-115.78","60.84","HAY RIVER A","2202401","2018-01-27 02:00","2018","01","27","02:00","-28.0","","-30.9","","77","","","","28","","8","","24.1","","101.66","","","","-36","","Snow"
"-115.78","60.84","HAY RIVER A","2202401","2018-01-27 03:00","2018","01","27","03:00","-28.8","","-31.7","","76","","","","29","","7","","24.1","","101.69","","","","-36","","Snow"
"-115.78","60.84","HAY RIVER A","2202401","2018-01-27 04:00","2018","01","27","04:00","-29.7","","-32.7","","76","","","","29","","7","","24.1","","101.72","","","","-37","","NA"
"-115.78","60.84","HAY RIVER A","2202401","2018-01-27 05:00","2018","01","27","05:00","-30.2","","-33.2","","75","","","","30","","11","","24.1","","101.75","","","","-40","","Mostly Cloudy"
"-115.78","60.84","HAY RIVER A","2202401","2018-01-27 06:00","2018","01","27","06:00","-30.3","","-33.4","","75","","","","29","","8","","24.1","","101.76","","","","-38","","Snow"
"-115.78","60.84","HAY RIVER A","2202401","2018-01-27 07:00","2018","01","27","07:00","-30.3","","-33.3","","75","","","","28","","8","","24.1","","101.74","","","","-38","","Snow"
"-115.78","60.84","HAY RIVER A","2202401","2018-01-27 08:00","2018","01","27","08:00","-30.0","","-33.1","","75","","","","28","","5","","24.1","","101.73","","","","-36","","Snow"
"-115.78","60.84","HAY RIVER A","2202401","2018-01-27 09:00","2018","01","27","09:00","-29.9","","-33.0","","75","","","","28","","8","","24.1","","101.76","","","","-38","","Snow"
"-115.78","60.84","HAY RIVER A","2202401","2018-01-27 10:00","2018","01","27","10:00","-29.9","","-32.9","","75","","","","28","","8","","24.1","","101.76","","","","-38","","Snow"
"-115.78","60.84","HAY RIVER A","2202401","2018-01-27 11:00","2018","01","27","11:00","-28.6","","-31.5","","76","","","","29","","10","","24.1","","101.82","","","","-37","","Snow"
"-115.78","60.84","HAY RIVER A","2202401","2018-01-27 12:00","2018","01","27","12:00","-27.7","","-30.6","","77","","","","29","","10","","24.1","","101.83","","","","-36","","NA"
"-115.78","60.84","HAY RIVER A","2202401","2018-01-27 13:00","2018","01","27","13:00","-26.9","","-29.7","","78","","","","29","","11","","24.1","","101.83","","","","-36","","Snow"
"-115.78","60.84","HAY RIVER A","2202401","2018-01-27 14:00","2018","01","27","14:00","-26.4","","-29.2","","78","","","","29","","13","","24.1","","101.84","","","","-36","","Cloudy"
"-115.78","60.84","HAY RIVER A","2202401","2018-01-27 15:00","2018","01","27","15:00","-26.4","","-29.2","","78","","","","30","","14","","24.1","","101.88","","","","-37","","NA"
"-115.78","60.84","HAY RIVER A","2202401","2018-01-27 16:00","2018","01","27","16:00","-26.7","","-29.5","","78","","","","30","","12","","24.1","","101.91","","","","-36","","NA"
"-115.78","60.84","HAY RIVER A","2202401","2018-01-27 17:00","2018","01","27","17:00","-26.5","","-29.4","","78","","","","29","","12","","24.1","","101.90","","","","-36","","Cloudy"
"-115.78","60.84","HAY RIVER A","2202401","2018-01-27 18:00","2018","01","27","18:00","-26.5","","-29.3","","78","","","","30","","12","","24.1","","101.93","","","","-36","","Snow"
"-115.78","60.84","HAY RIVER A","2202401","2018-01-27 19:00","2018","01","27","19:00","-26.7","","-29.5","","78","","","","30","","13","","24.1","","101.98","","","","-37","","Snow"
"-115.78","60.84","HAY RIVER A","2202401","2018-01-27 20:00","2018","01","27","20:00","-26.9","","-29.8","","77","","","","30","","14","","24.1","","102.00","","","","-37","","Snow"
"-115.78","60.84","HAY RIVER A","2202401","2018-01-27 21:00","2018","01","27","21:00","-27.1","","-29.9","","77","","","","28","","13","","24.1","","102.05","","","","-37","","Snow"
"-115.78","60.84","HAY RIVER A","2202401","2018-01-27 22:00","2018","01","27","22:00","-27.3","","-30.2","","77","","","","29","","13","","24.1","","102.10","","","","-37","","Snow"
"-115.78","60.84","HAY RIVER A","2202401","2018-01-27 23:00","2018","01","27","23:00","-27.6","","-30.5","","77","","","","27","","9","","24.1","","102.14","","","","-36","","Snow"
"-115.78","60.84","HAY RIVER A","2202401","2018-01-28 00:00","2018","01","28","00:00","-28.4","","-31.3","","76","","","","28","","10","","24.1","","102.18","","","","-37","","Snow"
"-115.78","60.84","HAY RIVER A","2202401","2018-01-28 01:00","2018","01","28","01:00","-28.9","","-31.9","","76","","","","27","","11","","24.1","","102.20","","","","-38","","Snow"
"-115.78","60.84","HAY RIVER A","2202401","2018-01-28 02:00","2018","01","28","02:00","-28.8","","-31.7","","76","","","","26","","9","","24.1","","102.24","","","","-37","","Snow"
"-115.78","60.84","HAY RIVER A","2202401","2018-01-28 03:00","2018","01","28","03:00","-28.9","","-31.8","","76","","","","26","","8","","24.1","","102.27","","","","-37","","Snow"
"-115.78","60.84","HAY RIVER A","2202401","2018-01-28 04:00","2018","01","28","04:00","-28.7","","-31.7","","76","","","","25","","8","","24.1","","102.28","","","","-36","","Snow"
"-115.78","60.84","HAY RIVER A","2202401","2018-01-28 05:00","2018","01","28","05:00","-29.1","","-32.0","","76","","","","26","","8","","24.1","","102.30","","","","-37","","Snow"
"-115.78","60.84","HAY RIVER A","2202401","2018-01-28 06:00","2018","01","28","06:00","-28.5","","-31.4","","76","","","","25","","6","","24.1","","102.28","","","","-35","","Snow"
"-115.78","60.84","HAY RIVER A","2202401","2018-01-28 07:00","2018","01","28","07:00","-29.2","","-32.2","","76","","","","36","","3","","24.1","","102.27","","","","-33","","Snow"
"-115.78","60.84","HAY RIVER A","2202401","2018-01-28 08:00","2018","01","28","08:00","-28.9","","-31.9","","76","","","","26","","6","","24.1","","102.27","","","","-35","","Snow"
"-115.78","60.84","HAY RIVER A","2202401","2018-01-28 09:00","2018","01","28","09:00","-29.8","","-32.9","","75","","","","22","","5","","24.1","","102.25","","","","-35","","Snow"
"-115.78","60.84","HAY RIVER A","2202401","2018-01-28 10:00","2018","01","28","10:00","-29.2","","-32.2","","76","","","","36","","3","","24.1","","102.25","","","","-33","","Snow"
"-115.78","60.84","HAY RIVER A","2202401","2018-01-28 11:00","2018","01","28","11:00","-28.5","","-31.4","","76","","","","36","","2","","24.1","","102.24","","","","-31","","Mostly Cloudy"
"-115.78","60.84","HAY RIVER A","2202401","2018-01-28 12:00","2018","01","28","12:00","-27.4","","-30.4","","77","","","","23","","4","","24.1","","102.21","","","","-32","","NA"
"-115.78","60.84","HAY RIVER A","2202401","2018-01-28 13:00","2018","01","28","13:00","-26.1","","-28.9","","78","","","","36","","2","","24.1","","102.16","","","","-28","","NA"
"-115.78","60.84","HAY RIVER A","2202401","2018-01-28 14:00","2018","01","28","14:00","-25.3","","-28.1","","78","","","","11","","5","","24.1","","102.12","","","","-30","","Mostly Cloudy"
"-115.78","60.84","HAY RIVER A","2202401","2018-01-28 15:00","2018","01","28","15:00","-25.5","","-28.2","","78","","","","8","","10","","24.1","","102.05","","","","-34","","NA"
"-115.78","60.84","HAY RIVER A","2202401","2018-01-28 16:00","2018","01","28","16:00","-25.4","","-28.1","","79","","","","8","","10","","24.1","","102.04","","","","-34","","NA"
"-115.78","60.84","HAY RIVER A","2202401","2018-01-28 17:00","2018","01","28","17:00","-24.8","","-27.4","","79","","","","14","","8","","24.1","","101.98","","","","-32","","Cloudy"
"-115.78","60.84","HAY RIVER A","2202401","2018-01-28 18:00","2018","01","28","18:00","-24.5","","-27.2","","79","","","","16","","9","","24.1","","101.91","","","","-32","","NA"
"-115.78","60.84","HAY RIVER A","2202401","2018-01-28 19:00","2018","01","28","19:00","-24.6","","-27.3","","79","","","","14","","7","","24.1","","101.84","","","","-31","","Snow"
"-115.78","60.84","HAY RIVER A","2202401","2018-01-28 20:00","2018","01","28","20:00","-24.6","","-27.3","","79","","","","14","","7","","24.1","","101.79","","","","-31","","Snow"
"-115.78","60.84","HAY RIVER A","2202401","2018-01-28 21:00","2018","01","28","21:00","-24.6","","-27.3","","79","","","","14","","12","","24.1","","101.75","","","","-34","","Snow"
"-115.78","60.84","HAY RIVER A","2202401","2018-01-28 22:00","2018","01","28","22:00","-24.6","","-27.2","","79","","","","11","","9","","24.1","","101.68","","","","-32","","Snow"
"-115.78","60.84","HAY RIVER A","2202401","2018-01-28 23:00","2018","01","28","23:00","-24.4","","-27.0","","79","","","","10","","10","","24.1","","101.61","","","","-32","","Snow"
"-115.78","60.84","HAY RIVER A","2202401","2018-01-29 00:00","2018","01","29","00:00","-24.2","","-26.8","","79","","","","10","","10","","24.1","","101.54","","","","-32","","Snow"
"-115.78","60.84","HAY RIVER A","2202401","2018-01-29 01:00","2018","01","29","01:00","-23.9","","-26.5","","80","","","","9","","10","","24.1","","101.46","","","","-32","","Snow"
"-115.78","60.84","HAY RIVER A","2202401","2018-01-29 02:00","2018","01","29","02:00","-23.5","","-26.1","","80","","","","13","","6","","24.1","","101.41","","","","-29","","Snow"
"-115.78","60.84","HAY RIVER A","2202401","2018-01-29 03:00","2018","01","29","03:00","-23.2","","-25.8","","80","","","","9","","13","","24.1","","101.30","","","","-32","","Snow"
"-115.78","60.84","HAY RIVER A","2202401","2018-01-29 04:00","2018","01","29","04:00","-23.0","","-25.6","","80","","","","11","","8","","24.1","","101.25","","","","-30","","Snow"
"-115.78","60.84","HAY RIVER A","2202401","2018-01-29 05:00","2018","01","29","05:00","-24.6","","-27.2","","79","","","","9","","10","","24.1","","101.11","","","","-33","","Snow"
"-115.78","60.84","HAY RIVER A","2202401","2018-01-29 06:00","2018","01","29","06:00","-26.0","","-28.9","","78","","","","10","","8","","24.1","","101.02","","","","-33","","Snow"
"-115.78","60.84","HAY RIVER A","2202401","2018-01-29 07:00","2018","01","29","07:00","-25.2","","-27.9","","78","","","","8","","16","","24.1","","100.84","","","","-36","","NA"
"-115.78","60.84","HAY RIVER A","2202401","2018-01-29 08:00","2018","01","29","08:00","-25.2","","-27.9","","79","","","","8","","15","","24.1","","100.76","","","","-35","","Mostly Cloudy"
"-115.78","60.84","HAY RIVER A","2202401","2018-01-29 09:00","2018","01","29","09:00","-25.0","","-27.7","","79","","","","7","","18","","24.1","","100.62","","","","-36","","NA"
"-115.78","60.84","HAY RIVER A","2202401","2018-01-29 10:00","2018","01","29","10:00","-23.9","","-26.5","","80","","","","9","","17","","24.1","","100.47","","","","-35","","NA"
"-115.78","60.84","HAY RIVER A","2202401","2018-01-29 11:00","2018","01","29","11:00","-22.2","","-24.6","","81","","","","10","","13","","24.1","","100.33","","","","-31","","Mostly Cloudy"
"-115.78","60.84","HAY RIVER A","2202401","2018-01-29 12:00","2018","01","29","12:00","-21.0","","-23.4","","81","","","","9","","18","","24.1","","100.24","","","","-31","","NA"
"-115.78","60.84","HAY RIVER A","2202401","2018-01-29 13:00","2018","01","29","13:00","-20.6","","-23.0","","82","","","","9","","24","","24.1","","100.02","","","","-32","","NA"
"-115.78","60.84","HAY RIVER A","2202401","2018-01-29 14:00","2018","01","29","14:00","-20.1","","-22.5","","82","","","","10","","19","","24.1","","99.84","","","","-30","","Cloudy"
"-115.78","60.84","HAY RIVER A","2202401","2018-01-29 15:00","2018","01","29","15:00","-19.6","","-21.9","","82","","","","9","","17","","24.1","","99.78","","","","-29","","NA"
"-115.78","60.84","HAY RIVER A","2202401","2018-01-29 16:00","2018","01","29","16:00","-19.2","","-21.5","","82","","","","10","","25","","24.1","","99.56","","","","-31","","NA"
"-115.78","60.84","HAY RIVER A","2202401","2018-01-29 17:00","2018","01","29","17:00","-19.3","","-21.6","","82","","","","9","","27","","4.8","","99.43","","","","-31","","Snow,Blowing Snow"
"-115.78","60.84","HAY RIVER A","2202401","2018-01-29 18:00","2018","01","29","18:00","-19.3","","-21.6","","82","","","","9","","29","","4.8","","99.27","","","","-31","","Snow,Blowing Snow"
"-115.78","60.84","HAY RIVER A","2202401","2018-01-29 19:00","2018","01","29","19:00","-19.2","","-21.5","","82","","","","8","","24","","4.8","","99.22","","","","-30","","Snow,Blowing Snow"
"-115.78","60.84","HAY RIVER A","2202401","2018-01-29 20:00","2018","01","29","20:00","-19.0","","-21.3","","82","","","","8","","26","","3.2","","99.16","","","","-31","","Snow,Blowing Snow"
"-115.78","60.84","HAY RIVER A","2202401","2018-01-29 21:00","2018","01","29","21:00","-18.8","","-21.1","","83","","","","8","","23","","4.8","","99.03","","","","-30","","Snow,Blowing Snow"
"-115.78","60.84","HAY RIVER A","2202401","2018-01-29 22:00","2018","01","29","22:00","-18.9","","-21.2","","82","","","","7","","24","","4.8","","98.96","","","","-30","","Snow,Blowing Snow"
"-115.78","60.84","HAY RIVER A","2202401","2018-01-29 23:00","2018","01","29","23:00","-18.9","","-21.4","","82","","","","7","","23","","4.8","","99.02","","","","-30","","Snow,Blowing Snow"
"-115.78","60.84","HAY RIVER A","2202401","2018-01-30 00:00","2018","01","30","00:00","-19.2","","-21.5","","82","","","","7","","18","","3.2","","98.99","","","","-29","","Snow,Blowing Snow"
"-115.78","60.84","HAY RIVER A","2202401","2018-01-30 01:00","2018","01","30","01:00","-19.3","","-21.7","","82","","","","6","","16","","0.8","","98.96","","","","-29","","Moderate Snow,Blowing Snow"
"-115.78","60.84","HAY RIVER A","2202401","2018-01-30 02:00","2018","01","30","02:00","-20.2","","-22.7","","81","","","","5","","14","","3.2","","98.98","","","","-29","","Snow,Blowing Snow"
"-115.78","60.84","HAY RIVER A","2202401","2018-01-30 03:00","2018","01","30","03:00","-20.6","","-23.1","","81","","","","5","","12","","3.2","","99.00","","","","-29","","Snow,Blowing Snow"
"-115.78","60.84","HAY RIVER A","2202401","2018-01-30 04:00","2018","01","30","04:00","-20.9","","-23.5","","80","","","","5","","12","","4.8","","99.06","","","","-29","","Snow,Blowing Snow"
"-115.78","60.84","HAY RIVER A","2202401","2018-01-30 05:00","2018","01","30","05:00","-21.1","","-23.8","","80","","","","4","","10","","4.8","","99.10","","","","-29","","Snow,Blowing Snow"
"-115.78","60.84","HAY RIVER A","2202401","2018-01-30 06:00","2018","01","30","06:00","-21.4","","-24.1","","79","","","","1","","13","","9.7","","99.15","","","","-30","","Snow,Blowing Snow"
"-115.78","60.84","HAY RIVER A","2202401","2018-01-30 07:00","2018","01","30","07:00","-21.3","","-23.9","","80","","","","2","","13","","6.4","","99.23","","","","-30","","Snow,Blowing Snow"
"-115.78","60.84","HAY RIVER A","2202401","2018-01-30 08:00","2018","01","30","08:00","-21.9","","-24.5","","80","","","","34","","12","","11.3","","99.31","","","","-30","","Snow,Blowing Snow"
"-115.78","60.84","HAY RIVER A","2202401","2018-01-30 09:00","2018","01","30","09:00","-22.8","","-25.5","","79","","","","33","","16","","12.9","","99.37","","","","-33","","Snow,Blowing Snow"
"-115.78","60.84","HAY RIVER A","2202401","2018-01-30 10:00","2018","01","30","10:00","-22.1","","-24.9","","78","","","","34","","14","","6.4","","99.44","","","","-31","","Snow,Blowing Snow"
"-115.78","60.84","HAY RIVER A","2202401","2018-01-30 11:00","2018","01","30","11:00","-21.3","","-24.1","","79","","","","34","","12","","8.1","","99.54","","","","-30","","Snow,Blowing Snow"
"-115.78","60.84","HAY RIVER A","2202401","2018-01-30 12:00","2018","01","30","12:00","-22.0","","-25.0","","77","","","","33","","15","","11.3","","99.62","","","","-32","","Snow,Blowing Snow"
"-115.78","60.84","HAY RIVER A","2202401","2018-01-30 13:00","2018","01","30","13:00","-21.8","","-25.2","","74","","","","34","","13","","20.9","","99.75","","","","-31","","Blowing Snow"
"-115.78","60.84","HAY RIVER A","2202401","2018-01-30 14:00","2018","01","30","14:00","-22.7","","-26.1","","75","","","","33","","19","","24.1","","99.87","","","","-34","","Blowing Snow"
"-115.78","60.84","HAY RIVER A","2202401","2018-01-30 15:00","2018","01","30","15:00","-23.3","","-26.4","","76","","","","33","","16","","20.9","","100.02","","","","-33","","Blowing Snow"
"-115.78","60.84","HAY RIVER A","2202401","2018-01-30 16:00","2018","01","30","16:00","-22.0","","-25.2","","76","","","","34","","13","","24.1","","100.13","","","","-31","","Blowing Snow"
"-115.78","60.84","HAY RIVER A","2202401","2018-01-30 17:00","2018","01","30","17:00","-22.8","","-26.2","","74","","","","34","","12","","24.1","","100.22","","","","-31","","Mostly Cloudy"
"-115.78","60.84","HAY RIVER A","2202401","2018-01-30 18:00","2018","01","30","18:00","-21.3","","-24.4","","76","","","","34","","12","","22.5","","100.32","","","","-30","","Snow"
"-115.78","60.84","HAY RIVER A","2202401","2018-01-30 19:00","2018","01","30","19:00","-21.9","","-25.2","","76","","","","36","","10","","24.1","","100.41","","","","-29","","Snow"
"-115.78","60.84","HAY RIVER A","2202401","2018-01-30 20:00","2018","01","30","20:00","-23.6","","-26.6","","76","","","","1","","10","","24.1","","100.54","","","","-32","","Snow"
"-115.78","60.84","HAY RIVER A","2202401","2018-01-30 21:00","2018","01","30","21:00","-24.9","","-27.9","","77","","","","1","","9","","24.1","","100.63","","","","-33","","Snow"
"-115.78","60.84","HAY RIVER A","2202401","2018-01-30 22:00","2018","01","30","22:00","-26.0","","-29.1","","76","","","","1","","8","","24.1","","100.76","","","","-33","","NA"
"-115.78","60.84","HAY RIVER A","2202401","2018-01-30 23:00","2018","01","30","23:00","-28.0","","-31.0","","76","","","","34","","9","","24.1","","100.86","","","","-36","","Mainly Clear"
"-115.78","60.84","HAY RIVER A","2202401","2018-01-31 00:00","2018","01","31","00:00","-28.1","","-31.2","","75","","","","34","","8","","24.1","","100.97","","","","-36","","NA"
"-115.78","60.84","HAY RIVER A","2202401","2018-01-31 01:00","2018","01","31","01:00","-28.4","","-31.6","","75","","","","34","","9","","24.1","","101.06","","","","-37","","NA"
"-115.78","60.84","HAY RIVER A","2202401","2018-01-31 02:00","2018","01","31","02:00","-28.0","","-31.2","","75","","","","2","","8","","24.1","","101.14","","","","-36","","Mainly Clear"
"-115.78","60.84","HAY RIVER A","2202401","2018-01-31 03:00","2018","01","31","03:00","-28.9","","-32.1","","74","","","","36","","5","","24.1","","101.23","","","","-34","","NA"
"-115.78","60.84","HAY RIVER A","2202401","2018-01-31 04:00","2018","01","31","04:00","-29.6","","-32.9","","74","","","","36","","7","","24.1","","101.32","","","","-37","","NA"
"-115.78","60.84","HAY RIVER A","2202401","2018-01-31 05:00","2018","01","31","05:00","-32.3","","-35.5","","74","","","","33","","6","","24.1","","101.38","","","","-39","","Mainly Clear"
"-115.78","60.84","HAY RIVER A","2202401","2018-01-31 06:00","2018","01","31","06:00","-31.3","","-34.5","","74","","","","35","","7","","24.1","","101.43","","","","-39","","NA"
"-115.78","60.84","HAY RIVER A","2202401","2018-01-31 07:00","2018","01","31","07:00","-31.6","","-35.0","","73","","","","34","","8","","24.1","","101.44","","","","-40","","NA"
"-115.78","60.84","HAY RIVER A","2202401","2018-01-31 08:00","2018","01","31","08:00","-32.4","","-35.6","","73","","","","34","","9","","24.1","","101.51","","","","-41","","Mainly Clear"
"-115.78","60.84","HAY RIVER A","2202401","2018-01-31 09:00","2018","01","31","09:00","-32.8","","-36.1","","73","","","","33","","9","","24.1","","101.57","","","","-42","","NA"
"-115.78","60.84","HAY RIVER A","2202401","2018-01-31 10:00","2018","01","31","10:00","-33.0","","-36.3","","73","","","","32","","9","","24.1","","101.64","","","","-42","","NA"
"-115.78","60.84","HAY RIVER A","2202401","2018-01-31 11:00","2018","01","31","11:00","-32.6","","-36.1","","72","","","","32","","9","","24.1","","101.69","","","","-42","","Mainly Clear"
"-115.78","60.84","HAY RIVER A","2202401","2018-01-31 12:00","2018","01","31","12:00","-31.8","","-35.5","","71","","","","33","","7","","24.1","","101.75","","","","-39","","NA"
"-115.78","60.84","HAY RIVER A","2202401","2018-01-31 13:00","2018","01","31","13:00","-31.6","","-35.3","","71","","","","32","","9","","24.1","","101.79","","","","-40","","NA"
"-115.78","60.84","HAY RIVER A","2202401","2018-01-31 14:00","2018","01","31","14:00","-31.2","","-35.1","","69","","","","32","","10","","24.1","","101.78","","","","-41","","Mostly Cloudy"
"-115.78","60.84","HAY RIVER A","2202401","2018-01-31 15:00","2018","01","31","15:00","-31.6","","-35.2","","71","","","","27","","10","","24.1","","101.80","","","","-41","","NA"
"-115.78","60.84","HAY RIVER A","2202401","2018-01-31 16:00","2018","01","31","16:00","-31.8","","-35.4","","71","","","","30","","8","","24.1","","101.80","","","","-40","","NA"
"-115.78","60.84","HAY RIVER A","2202401","2018-01-31 17:00","2018","01","31","17:00","-32.0","","-35.3","","74","","","","31","","7","","24.1","","101.84","","","","-40","","Mostly Cloudy"
"-115.78","60.84","HAY RIVER A","2202401","2018-01-31 18:00","2018","01","31","18:00","-30.7","","-34.1","","73","","","","30","","9","","22.5","","101.82","","","","-39","","Snow"
"-115.78","60.84","HAY RIVER A","2202401","2018-01-31 19:00","2018","01","31","19:00","-30.2","","-33.4","","74","","","","28","","9","","24.1","","101.79","","","","-39","","Snow"
"-115.78","60.84","HAY RIVER A","2202401","2018-01-31 20:00","2018","01","31","20:00","-29.3","","-32.5","","75","","","","26","","9","","8.1","","101.80","","","","-38","","Snow"
"-115.78","60.84","HAY RIVER A","2202401","2018-01-31 21:00","2018","01","31","21:00","-28.6","","-31.8","","75","","","","29","","12","","8.1","","101.77","","","","-38","","Snow"
"-115.78","60.84","HAY RIVER A","2202401","2018-01-31 22:00","2018","01","31","22:00","-28.6","","-31.6","","75","","","","28","","11","","8.1","","101.74","","","","-38","","Snow"
"-115.78","60.84","HAY RIVER A","2202401","2018-01-31 23:00","2018","01","31","23:00","-28.4","","-31.4","","76","","","","29","","12","","16.1","","101.73","","","","-38","","Snow"
