"Longitude (x)","Latitude (y)","Station Name","Climate ID","Date/Time (LST)","Year","Month","Day","Time (LST)","Temp (°C)","Temp Flag","Dew Point Temp (°C)","Dew Point Temp Flag","Rel Hum (%)","Rel Hum Flag","Precip. Amount (mm)","Precip. Amount Flag","Wind Dir (10s deg)","Wind Dir Flag","Wind Spd (km/h)","Wind Spd Flag","Visibility (km)","Visibility Flag","Stn Press (kPa)","Stn Press Flag","Hmdx","Hmdx Flag","Wind Chill","Wind Chill Flag","Weather"
"-115.78","60.84","HAY RIVER A","2202401","2018-03-01 00:00","2018","03","01","00:00","-25.9","","-28.2","","81","","","","32","","8","","24.1","","100.61","","","","-33","","NA"
"-115.78","60.84","HAY RIVER A","2202401","2018-03-01 01:00","2018","03","01","01:00","-22.3","","-24.2","","85","","","","35","","7","","24.1","","100.73","","","","-28","","NA"
"-115.78","60.84","HAY RIVER A","2202401","2018-03-01 02:00","2018","03","01","02:00","-21.7","","-23.9","","83","","","","35","","7","","24.1","","100.85","","","","-28","","Mostly Cloudy"
"-115.78","60.84","HAY RIVER A","2202401","2018-03-01 03:00","2018","03","01","03:00","-21.9","","-23.9","","84","","","","36","","7","","24.1","","100.94","","","","-28","","NA"
"-115.78","60.84","HAY RIVER A","2202401","2018-03-01 04:00","2018","03","01","04:00","-21.1","","-23.4","","82","","","","2","","9","","24.1","","101.02","","","","-28","","NA"
"-115.78","60.84","HAY RIVER A","2202401","2018-03-01 05:00","2018","03","01","05:00","-22.6","","-25.1","","81","","","","34","","6","","24.1","","101.17","","","","-28","","Mainly Clear"
"-115.78","60.84","HAY RIVER A","2202401","2018-03-01 06:00","2018","03","01","06:00","-21.8","","-24.2","","81","","","","1","","4","","24.1","","101.29","","","","-25","","NA"
"-115.78","60.84","HAY RIVER A","2202401","2018-03-01 07:00","2018","03","01","07:00","-22.4","","-24.9","","81","","","","33","","7","","24.1","","101.40","","","","-28","","NA"
"-115.78","60.84","HAY RIVER A","2202401","2018-03-01 08:00","2018","03","01","08:00","-22.2","","-24.7","","80","","","","33","","9","","24.1","","101.49","","","","-29","","Mostly Cloudy"
"-115.78","60.84","HAY RIVER A","2202401","2018-03-01 09:00","2018","03","01","09:00","-20.7","","-23.2","","81","","","","34","","5","","24.1","","101.60","","","","-25","","NA"
"-115.78","60.84","HAY RIVER A","2202401","2018-03-01 10:00","2018","03","01","10:00","-20.2","","-22.7","","80","","","","33","","9","","24.1","","101.69","","","","-27","","NA"
"-115.78","60.84","HAY RIVER A","2202401","2018-03-01 11:00","2018","03","01","11:00","-19.5","","-22.4","","78","","","","34","","8","","24.1","","101.76","","","","-26","","Mainly Clear"
"-115.78","60.84","HAY RIVER A","2202401","2018-03-01 12:00","2018","03","01","12:00","-19.2","","-22.9","","73","","","","35","","8","","24.1","","101.84","","","","-25","","NA"
"-115.78","60.84","HAY RIVER A","2202401","2018-03-01 13:00","2018","03","01","13:00","-19.1","","-23.7","","68","","","","3","","12","","24.1","","101.89","","","","-27","","NA"
"-115.78","60.84","HAY RIVER A","2202401","2018-03-01 14:00","2018","03","01","14:00","-18.7","","-23.4","","67","","","","2","","13","","24.1","","101.93","","","","-27","","Mainly Clear"
"-115.78","60.84","HAY RIVER A","2202401","2018-03-01 15:00","2018","03","01","15:00","-19.0","","-23.6","","67","","","","6","","10","","24.1","","101.95","","","","-26","","NA"
"-115.78","60.84","HAY RIVER A","2202401","2018-03-01 16:00","2018","03","01","16:00","-19.3","","-23.8","","68","","","","7","","12","","24.1","","102.00","","","","-27","","NA"
"-115.78","60.84","HAY RIVER A","2202401","2018-03-01 17:00","2018","03","01","17:00","-20.2","","-24.1","","72","","","","6","","9","","24.1","","102.04","","","","-27","","Mainly Clear"
"-115.78","60.84","HAY RIVER A","2202401","2018-03-01 18:00","2018","03","01","18:00","-21.5","","-24.9","","75","","","","36","","3","","24.1","","102.06","","","","-24","","NA"
"-115.78","60.84","HAY RIVER A","2202401","2018-03-01 19:00","2018","03","01","19:00","-22.4","","-24.9","","81","","","","36","","4","","24.1","","102.07","","","","-26","","NA"
"-115.78","60.84","HAY RIVER A","2202401","2018-03-01 20:00","2018","03","01","20:00","-22.6","","-25.2","","80","","","","36","","3","","24.1","","102.09","","","","-25","","Mostly Cloudy"
"-115.78","60.84","HAY RIVER A","2202401","2018-03-01 21:00","2018","03","01","21:00","-22.7","","-25.0","","82","","","","33","","8","","24.1","","102.09","","","","-29","","NA"
"-115.78","60.84","HAY RIVER A","2202401","2018-03-01 22:00","2018","03","01","22:00","-21.8","","-24.6","","78","","","","2","","9","","24.1","","102.04","","","","-29","","NA"
"-115.78","60.84","HAY RIVER A","2202401","2018-03-01 23:00","2018","03","01","23:00","-21.6","","-24.6","","77","","","","5","","8","","24.1","","102.05","","","","-28","","Mainly Clear"
"-115.78","60.84","HAY RIVER A","2202401","2018-03-02 00:00","2018","03","02","00:00","-22.2","","-25.0","","79","","","","4","","3","","24.1","","102.03","","","","-25","","NA"
"-115.78","60.84","HAY RIVER A","2202401","2018-03-02 01:00","2018","03","02","01:00","-22.8","","-25.4","","79","","","","3","","5","","24.1","","102.04","","","","-27","","NA"
"-115.78","60.84","HAY RIVER A","2202401","2018-03-02 02:00","2018","03","02","02:00","-22.4","","-25.2","","78","","","","6","","9","","24.1","","102.03","","","","-30","","Mainly Clear"
"-115.78","60.84","HAY RIVER A","2202401","2018-03-02 03:00","2018","03","02","03:00","-22.5","","-25.4","","78","","","","6","","13","","24.1","","101.97","","","","-31","","NA"
"-115.78","60.84","HAY RIVER A","2202401","2018-03-02 04:00","2018","03","02","04:00","-22.7","","-25.5","","79","","","","7","","10","","24.1","","101.97","","","","-30","","NA"
"-115.78","60.84","HAY RIVER A","2202401","2018-03-02 05:00","2018","03","02","05:00","-22.9","","-25.5","","79","","","","7","","17","","24.1","","101.92","","","","-33","","Mostly Cloudy"
"-115.78","60.84","HAY RIVER A","2202401","2018-03-02 06:00","2018","03","02","06:00","-22.9","","-25.6","","79","","","","8","","20","","24.1","","101.88","","","","-34","","NA"
"-115.78","60.84","HAY RIVER A","2202401","2018-03-02 07:00","2018","03","02","07:00","-22.9","","-25.5","","79","","","","8","","19","","24.1","","101.83","","","","-34","","NA"
"-115.78","60.84","HAY RIVER A","2202401","2018-03-02 08:00","2018","03","02","08:00","-22.4","","-25.1","","79","","","","8","","16","","24.1","","101.77","","","","-32","","Mostly Cloudy"
"-115.78","60.84","HAY RIVER A","2202401","2018-03-02 09:00","2018","03","02","09:00","-21.4","","-24.3","","78","","","","8","","18","","24.1","","101.72","","","","-32","","NA"
"-115.78","60.84","HAY RIVER A","2202401","2018-03-02 10:00","2018","03","02","10:00","-20.6","","-23.7","","77","","","","9","","17","","24.1","","101.70","","","","-30","","NA"
"-115.78","60.84","HAY RIVER A","2202401","2018-03-02 11:00","2018","03","02","11:00","-19.5","","-22.7","","76","","","","8","","18","","24.1","","101.63","","","","-29","","Mostly Cloudy"
"-115.78","60.84","HAY RIVER A","2202401","2018-03-02 12:00","2018","03","02","12:00","-18.6","","-22.1","","74","","","","7","","22","","24.1","","101.58","","","","-29","","NA"
"-115.78","60.84","HAY RIVER A","2202401","2018-03-02 13:00","2018","03","02","13:00","-17.5","","-21.2","","73","","","","8","","21","","24.1","","101.55","","","","-28","","NA"
"-115.78","60.84","HAY RIVER A","2202401","2018-03-02 14:00","2018","03","02","14:00","-16.9","","-20.7","","72","","","","7","","17","","24.1","","101.51","","","","-26","","Mostly Cloudy"
"-115.78","60.84","HAY RIVER A","2202401","2018-03-02 15:00","2018","03","02","15:00","-16.7","","-20.0","","76","","","","7","","19","","24.1","","101.44","","","","-26","","NA"
"-115.78","60.84","HAY RIVER A","2202401","2018-03-02 16:00","2018","03","02","16:00","-16.0","","-20.2","","70","","","","8","","22","","24.1","","101.36","","","","-26","","NA"
"-115.78","60.84","HAY RIVER A","2202401","2018-03-02 17:00","2018","03","02","17:00","-16.1","","-20.2","","71","","","","8","","14","","24.1","","101.34","","","","-24","","Mostly Cloudy"
"-115.78","60.84","HAY RIVER A","2202401","2018-03-02 18:00","2018","03","02","18:00","-15.8","","-20.4","","69","","","","10","","12","","24.1","","101.29","","","","-23","","NA"
"-115.78","60.84","HAY RIVER A","2202401","2018-03-02 19:00","2018","03","02","19:00","-16.4","","-20.7","","70","","","","10","","12","","24.1","","101.26","","","","-24","","NA"
"-115.78","60.84","HAY RIVER A","2202401","2018-03-02 20:00","2018","03","02","20:00","-16.1","","-20.4","","70","","","","10","","14","","24.1","","101.20","","","","-24","","Mostly Cloudy"
"-115.78","60.84","HAY RIVER A","2202401","2018-03-02 21:00","2018","03","02","21:00","-15.9","","-20.2","","70","","","","11","","10","","24.1","","101.16","","","","-22","","NA"
"-115.78","60.84","HAY RIVER A","2202401","2018-03-02 22:00","2018","03","02","22:00","-15.8","","-20.3","","69","","","","12","","8","","24.1","","101.15","","","","-21","","NA"
"-115.78","60.84","HAY RIVER A","2202401","2018-03-02 23:00","2018","03","02","23:00","-17.7","","-20.6","","78","","","","4","","5","","24.1","","101.15","","","","-22","","Mainly Clear"
"-115.78","60.84","HAY RIVER A","2202401","2018-03-03 00:00","2018","03","03","00:00","-17.6","","-20.7","","77","","","","6","","5","","24.1","","101.11","","","","-22","","NA"
"-115.78","60.84","HAY RIVER A","2202401","2018-03-03 01:00","2018","03","03","01:00","-16.8","","-20.4","","74","","","","7","","7","","24.1","","101.07","","","","-22","","NA"
"-115.78","60.84","HAY RIVER A","2202401","2018-03-03 02:00","2018","03","03","02:00","-16.3","","-19.6","","76","","","","36","","1","","24.1","","101.10","","","","-17","","Mostly Cloudy"
"-115.78","60.84","HAY RIVER A","2202401","2018-03-03 03:00","2018","03","03","03:00"
"-115.78","60.84","HAY RIVER A","2202401","2018-03-03 04:00","2018","03","03","04:00","-15.8","","-19.2","","76","","","","10","","7","","24.1","","101.05","","","","-21","","NA"
"-115.78","60.84","HAY RIVER A","2202401","2018-03-03 05:00","2018","03","03","05:00","-17.0","","-19.8","","79","","","","11","","4","","24.1","","101.08","","","","-20","","Mostly Cloudy"
"-115.78","60.84","HAY RIVER A","2202401","2018-03-03 06:00","2018","03","03","06:00","-17.3","","-19.9","","80","","","","19","","3","","24.1","","101.10","","","","-20","","NA"
"-115.78","60.84","HAY RIVER A","2202401","2018-03-03 07:00","2018","03","03","07:00","-17.0","","-19.4","","83","","","","26","","5","","11.3","","101.12","","","","-21","","Snow"
"-115.78","60.84","HAY RIVER A","2202401","2018-03-03 08:00","2018","03","03","08:00","-16.9","","-19.0","","84","","","","36","","3","","8.1","","101.14","","","","-19","","Snow"
"-115.78","60.84","HAY RIVER A","2202401","2018-03-03 09:00","2018","03","03","09:00","-16.0","","-18.4","","82","","","","28","","8","","24.1","","101.18","","","","-22","","Snow"
"-115.78","60.84","HAY RIVER A","2202401","2018-03-03 10:00","2018","03","03","10:00","-15.6","","-18.8","","77","","","","30","","18","","24.1","","101.24","","","","-24","","NA"
"-115.78","60.84","HAY RIVER A","2202401","2018-03-03 11:00","2018","03","03","11:00","-16.8","","-19.9","","77","","","","30","","17","","24.1","","101.29","","","","-26","","Mostly Cloudy"
"-115.78","60.84","HAY RIVER A","2202401","2018-03-03 12:00","2018","03","03","12:00","-15.9","","-19.8","","72","","","","30","","10","","24.1","","101.31","","","","-22","","NA"
"-115.78","60.84","HAY RIVER A","2202401","2018-03-03 13:00","2018","03","03","13:00","-16.0","","-20.1","","71","","","","33","","15","","24.1","","101.26","","","","-24","","NA"
"-115.78","60.84","HAY RIVER A","2202401","2018-03-03 14:00","2018","03","03","14:00","-15.7","","-19.7","","71","","","","32","","8","","24.1","","101.29","","","","-21","","Mainly Clear"
"-115.78","60.84","HAY RIVER A","2202401","2018-03-03 15:00","2018","03","03","15:00","-15.5","","-19.6","","71","","","","31","","8","","24.1","","101.28","","","","-21","","NA"
"-115.78","60.84","HAY RIVER A","2202401","2018-03-03 16:00","2018","03","03","16:00","-15.1","","-19.4","","70","","","","36","","2","","24.1","","101.28","","","","-17","","NA"
"-115.78","60.84","HAY RIVER A","2202401","2018-03-03 17:00","2018","03","03","17:00","-14.7","","-19.5","","67","","","","7","","7","","24.1","","101.28","","","","-19","","Mainly Clear"
"-115.78","60.84","HAY RIVER A","2202401","2018-03-03 18:00","2018","03","03","18:00","-16.9","","-20.9","","72","","","","8","","9","","24.1","","101.28","","","","-23","","NA"
"-115.78","60.84","HAY RIVER A","2202401","2018-03-03 19:00","2018","03","03","19:00","-18.1","","-20.9","","79","","","","11","","5","","24.1","","101.29","","","","-22","","NA"
"-115.78","60.84","HAY RIVER A","2202401","2018-03-03 20:00","2018","03","03","20:00","-19.3","","-21.6","","82","","","","36","","3","","24.1","","101.30","","","","-22","","Mainly Clear"
"-115.78","60.84","HAY RIVER A","2202401","2018-03-03 21:00","2018","03","03","21:00","-20.8","","-22.7","","85","","","","12","","4","","24.1","","101.26","","","","-24","","NA"
"-115.78","60.84","HAY RIVER A","2202401","2018-03-03 22:00","2018","03","03","22:00","-21.7","","-23.7","","84","","","","15","","3","","24.1","","101.23","","","","-24","","NA"
"-115.78","60.84","HAY RIVER A","2202401","2018-03-03 23:00","2018","03","03","23:00","-22.2","","-24.2","","84","","","","36","","1","","24.1","","101.20","","","","-23","","Mainly Clear"
"-115.78","60.84","HAY RIVER A","2202401","2018-03-04 00:00","2018","03","04","00:00","-21.8","","-24.1","","83","","","","36","","1","","24.1","","101.19","","","","-23","","NA"
"-115.78","60.84","HAY RIVER A","2202401","2018-03-04 01:00","2018","03","04","01:00","-22.9","","-25.3","","82","","","","36","","2","","24.1","","101.19","","","","-25","","NA"
"-115.78","60.84","HAY RIVER A","2202401","2018-03-04 02:00","2018","03","04","02:00","-24.1","","-26.5","","81","","","","0","","1","","24.1","","101.18","","","","-25","","Mainly Clear"
"-115.78","60.84","HAY RIVER A","2202401","2018-03-04 03:00","2018","03","04","03:00","-24.4","","-27.0","","80","","","","8","","4","","24.1","","101.16","","","","-28","","NA"
"-115.78","60.84","HAY RIVER A","2202401","2018-03-04 04:00","2018","03","04","04:00","-25.1","","-27.6","","80","","","","36","","1","","24.1","","101.12","","","","-26","","NA"
"-115.78","60.84","HAY RIVER A","2202401","2018-03-04 05:00","2018","03","04","05:00","-24.0","","-26.6","","80","","","","14","","3","","24.1","","101.05","","","","-27","","Mostly Cloudy"
"-115.78","60.84","HAY RIVER A","2202401","2018-03-04 06:00","2018","03","04","06:00","-23.1","","-25.6","","80","","","","27","","4","","24.1","","101.04","","","","-27","","NA"
"-115.78","60.84","HAY RIVER A","2202401","2018-03-04 07:00","2018","03","04","07:00","-21.8","","-24.3","","80","","","","36","","2","","24.1","","100.99","","","","-24","","NA"
"-115.78","60.84","HAY RIVER A","2202401","2018-03-04 08:00","2018","03","04","08:00","-20.0","","-22.2","","83","","","","36","","2","","24.1","","100.94","","","","-22","","Mostly Cloudy"
"-115.78","60.84","HAY RIVER A","2202401","2018-03-04 09:00","2018","03","04","09:00","-18.8","","-21.1","","82","","","","8","","7","","24.1","","100.93","","","","-24","","NA"
"-115.78","60.84","HAY RIVER A","2202401","2018-03-04 10:00","2018","03","04","10:00","-17.0","","-19.3","","83","","","","9","","5","","24.1","","100.88","","","","-21","","NA"
"-115.78","60.84","HAY RIVER A","2202401","2018-03-04 11:00","2018","03","04","11:00","-15.2","","-18.2","","78","","","","8","","7","","24.1","","100.87","","","","-20","","Mostly Cloudy"
"-115.78","60.84","HAY RIVER A","2202401","2018-03-04 12:00","2018","03","04","12:00","-13.7","","-17.5","","74","","","","7","","8","","24.1","","100.82","","","","-19","","NA"
"-115.78","60.84","HAY RIVER A","2202401","2018-03-04 13:00","2018","03","04","13:00","-13.3","","-17.3","","73","","","","7","","11","","24.1","","100.77","","","","-20","","NA"
"-115.78","60.84","HAY RIVER A","2202401","2018-03-04 14:00","2018","03","04","14:00","-12.7","","-16.3","","75","","","","8","","13","","24.1","","100.72","","","","-20","","Mostly Cloudy"
"-115.78","60.84","HAY RIVER A","2202401","2018-03-04 15:00","2018","03","04","15:00","-12.0","","-15.3","","77","","","","8","","11","","24.1","","100.69","","","","-18","","NA"
"-115.78","60.84","HAY RIVER A","2202401","2018-03-04 16:00","2018","03","04","16:00","-11.8","","-15.0","","77","","","","8","","15","","24.1","","100.65","","","","-19","","NA"
"-115.78","60.84","HAY RIVER A","2202401","2018-03-04 17:00","2018","03","04","17:00","-11.1","","-14.2","","78","","","","7","","9","","24.1","","100.63","","","","-16","","Mostly Cloudy"
"-115.78","60.84","HAY RIVER A","2202401","2018-03-04 18:00","2018","03","04","18:00","-11.3","","-13.8","","82","","","","9","","9","","24.1","","100.62","","","","-16","","NA"
"-115.78","60.84","HAY RIVER A","2202401","2018-03-04 19:00","2018","03","04","19:00","-10.8","","-13.6","","80","","","","8","","11","","24.1","","100.59","","","","-17","","NA"
"-115.78","60.84","HAY RIVER A","2202401","2018-03-04 20:00","2018","03","04","20:00","-9.8","","-13.2","","76","","","","12","","5","","24.1","","100.57","","","","-13","","Mostly Cloudy"
"-115.78","60.84","HAY RIVER A","2202401","2018-03-04 21:00","2018","03","04","21:00","-10.5","","-13.6","","78","","","","11","","6","","24.1","","100.54","","","","-14","","NA"
"-115.78","60.84","HAY RIVER A","2202401","2018-03-04 22:00","2018","03","04","22:00","-11.7","","-14.3","","81","","","","18","","6","","24.1","","100.57","","","","-15","","NA"
"-115.78","60.84","HAY RIVER A","2202401","2018-03-04 23:00","2018","03","04","23:00","-14.4","","-15.7","","90","","","","10","","5","","24.1","","100.58","","","","-18","","Mostly Cloudy"
"-115.78","60.84","HAY RIVER A","2202401","2018-03-05 00:00","2018","03","05","00:00","-15.2","","-17.1","","86","","","","16","","5","","24.1","","100.58","","","","-19","","NA"
"-115.78","60.84","HAY RIVER A","2202401","2018-03-05 01:00","2018","03","05","01:00","-14.1","","-15.5","","89","","","","16","","5","","24.1","","100.58","","","","-18","","NA"
"-115.78","60.84","HAY RIVER A","2202401","2018-03-05 02:00","2018","03","05","02:00","-12.2","","-13.9","","88","","","","16","","9","","24.1","","100.58","","","","-17","","Mostly Cloudy"
"-115.78","60.84","HAY RIVER A","2202401","2018-03-05 03:00","2018","03","05","03:00","-12.3","","-14.3","","85","","","","16","","3","","24.1","","100.59","","","","-14","","NA"
"-115.78","60.84","HAY RIVER A","2202401","2018-03-05 04:00","2018","03","05","04:00","-11.6","","-13.7","","84","","","","36","","3","","24.1","","100.58","","","","-13","","NA"
"-115.78","60.84","HAY RIVER A","2202401","2018-03-05 05:00","2018","03","05","05:00","-13.1","","-14.8","","87","","","","8","","3","","24.1","","100.59","","","","-15","","Mostly Cloudy"
"-115.78","60.84","HAY RIVER A","2202401","2018-03-05 06:00","2018","03","05","06:00","-12.3","","-14.0","","87","","","","30","","3","","24.1","","100.61","","","","-14","","NA"
"-115.78","60.84","HAY RIVER A","2202401","2018-03-05 07:00","2018","03","05","07:00","-12.2","","-14.1","","86","","","","30","","4","","24.1","","100.68","","","","-15","","NA"
"-115.78","60.84","HAY RIVER A","2202401","2018-03-05 08:00","2018","03","05","08:00","-12.5","","-14.4","","85","","","","30","","11","","24.1","","100.70","","","","-19","","Mostly Cloudy"
"-115.78","60.84","HAY RIVER A","2202401","2018-03-05 09:00","2018","03","05","09:00","-13.7","","-16.0","","83","","","","28","","14","","24.1","","100.72","","","","-21","","NA"
"-115.78","60.84","HAY RIVER A","2202401","2018-03-05 10:00","2018","03","05","10:00","-13.4","","-15.7","","83","","","","30","","13","","24.1","","100.75","","","","-20","","NA"
"-115.78","60.84","HAY RIVER A","2202401","2018-03-05 11:00","2018","03","05","11:00","-12.2","","-14.9","","80","","","","30","","11","","24.1","","100.79","","","","-18","","Cloudy"
"-115.78","60.84","HAY RIVER A","2202401","2018-03-05 12:00","2018","03","05","12:00","-11.8","","-14.8","","78","","","","30","","14","","24.1","","100.77","","","","-19","","NA"
"-115.78","60.84","HAY RIVER A","2202401","2018-03-05 13:00","2018","03","05","13:00","-11.1","","-14.6","","75","","","","30","","14","","24.1","","100.79","","","","-18","","NA"
"-115.78","60.84","HAY RIVER A","2202401","2018-03-05 14:00","2018","03","05","14:00","-11.2","","-14.3","","78","","","","32","","14","","24.1","","100.80","","","","-18","","Snow"
"-115.78","60.84","HAY RIVER A","2202401","2018-03-05 15:00","2018","03","05","15:00","-11.3","","-13.8","","82","","","","31","","17","","11.3","","100.80","","","","-19","","Snow"
"-115.78","60.84","HAY RIVER A","2202401","2018-03-05 16:00","2018","03","05","16:00","-11.1","","-13.3","","84","","","","32","","13","","20.9","","100.81","","","","-18","","Snow"
"-115.78","60.84","HAY RIVER A","2202401","2018-03-05 17:00","2018","03","05","17:00","-10.8","","-12.9","","85","","","","31","","13","","16.1","","100.80","","","","-17","","Snow"
"-115.78","60.84","HAY RIVER A","2202401","2018-03-05 18:00","2018","03","05","18:00","-10.8","","-12.6","","87","","","","30","","13","","20.9","","100.81","","","","-17","","Snow"
"-115.78","60.84","HAY RIVER A","2202401","2018-03-05 19:00","2018","03","05","19:00","-10.8","","-12.4","","88","","","","30","","14","","14.5","","100.78","","","","-17","","Snow"
"-115.78","60.84","HAY RIVER A","2202401","2018-03-05 20:00","2018","03","05","20:00","-11.0","","-12.7","","88","","","","30","","16","","16.1","","100.76","","","","-18","","Snow"
"-115.78","60.84","HAY RIVER A","2202401","2018-03-05 21:00","2018","03","05","21:00","-11.3","","-12.8","","88","","","","29","","14","","16.1","","100.75","","","","-18","","Snow"
"-115.78","60.84","HAY RIVER A","2202401","2018-03-05 22:00","2018","03","05","22:00","-11.3","","-12.9","","88","","","","30","","16","","14.5","","100.75","","","","-19","","Snow"
"-115.78","60.84","HAY RIVER A","2202401","2018-03-05 23:00","2018","03","05","23:00","-11.5","","-13.2","","88","","","","30","","14","","9.7","","100.76","","","","-18","","Snow,Blowing Snow"
"-115.78","60.84","HAY RIVER A","2202401","2018-03-06 00:00","2018","03","06","00:00","-11.7","","-13.4","","87","","","","29","","16","","9.7","","100.75","","","","-19","","Snow,Blowing Snow"
"-115.78","60.84","HAY RIVER A","2202401","2018-03-06 01:00","2018","03","06","01:00","-12.0","","-13.8","","87","","","","30","","20","","11.3","","100.73","","","","-20","","Snow,Blowing Snow"
"-115.78","60.84","HAY RIVER A","2202401","2018-03-06 02:00","2018","03","06","02:00","-12.5","","-14.5","","85","","","","30","","19","","12.9","","100.71","","","","-21","","Snow,Blowing Snow"
"-115.78","60.84","HAY RIVER A","2202401","2018-03-06 03:00","2018","03","06","03:00","-13.1","","-15.0","","86","","","","30","","18","","16.1","","100.69","","","","-21","","Snow,Blowing Snow"
"-115.78","60.84","HAY RIVER A","2202401","2018-03-06 04:00","2018","03","06","04:00","-13.5","","-15.6","","85","","","","29","","19","","16.1","","100.68","","","","-22","","Snow,Blowing Snow"
"-115.78","60.84","HAY RIVER A","2202401","2018-03-06 05:00","2018","03","06","05:00","-13.5","","-15.6","","85","","","","29","","20","","14.5","","100.66","","","","-22","","Snow,Blowing Snow"
"-115.78","60.84","HAY RIVER A","2202401","2018-03-06 06:00","2018","03","06","06:00","-13.3","","-15.4","","85","","","","29","","18","","6.4","","100.66","","","","-22","","Snow,Blowing Snow"
"-115.78","60.84","HAY RIVER A","2202401","2018-03-06 07:00","2018","03","06","07:00","-13.4","","-15.5","","84","","","","28","","20","","6.4","","100.66","","","","-22","","Snow,Blowing Snow"
"-115.78","60.84","HAY RIVER A","2202401","2018-03-06 08:00","2018","03","06","08:00","-13.2","","-15.4","","84","","","","28","","18","","4.8","","100.62","","","","-21","","Snow,Blowing Snow"
"-115.78","60.84","HAY RIVER A","2202401","2018-03-06 09:00","2018","03","06","09:00","-13.4","","-15.7","","83","","","","28","","17","","4.8","","100.61","","","","-21","","Snow,Blowing Snow"
"-115.78","60.84","HAY RIVER A","2202401","2018-03-06 10:00","2018","03","06","10:00","-12.8","","-15.5","","81","","","","28","","19","","4.8","","100.60","","","","-21","","Snow,Blowing Snow"
"-115.78","60.84","HAY RIVER A","2202401","2018-03-06 11:00","2018","03","06","11:00","-12.0","","-15.2","","78","","","","25","","17","","8.1","","100.59","","","","-20","","Snow,Blowing Snow"
"-115.78","60.84","HAY RIVER A","2202401","2018-03-06 12:00","2018","03","06","12:00","-11.6","","-14.7","","78","","","","27","","16","","24.1","","100.57","","","","-19","","Snow,Blowing Snow"
"-115.78","60.84","HAY RIVER A","2202401","2018-03-06 13:00","2018","03","06","13:00","-10.8","","-14.2","","76","","","","29","","14","","12.9","","100.54","","","","-17","","Snow"
"-115.78","60.84","HAY RIVER A","2202401","2018-03-06 14:00","2018","03","06","14:00","-10.7","","-14.5","","74","","","","28","","16","","14.5","","100.50","","","","-18","","Snow"
"-115.78","60.84","HAY RIVER A","2202401","2018-03-06 15:00","2018","03","06","15:00","-9.7","","-14.1","","71","","","","29","","16","","24.1","","100.47","","","","-17","","NA"
"-115.78","60.84","HAY RIVER A","2202401","2018-03-06 16:00","2018","03","06","16:00","-9.8","","-13.9","","72","","","","29","","13","","24.1","","100.46","","","","-16","","NA"
"-115.78","60.84","HAY RIVER A","2202401","2018-03-06 17:00","2018","03","06","17:00","-10.2","","-13.9","","75","","","","25","","14","","9.7","","100.46","","","","-17","","Snow"
"-115.78","60.84","HAY RIVER A","2202401","2018-03-06 18:00","2018","03","06","18:00","-11.0","","-14.3","","77","","","","25","","10","","24.1","","100.44","","","","-16","","NA"
"-115.78","60.84","HAY RIVER A","2202401","2018-03-06 19:00","2018","03","06","19:00","-11.9","","-14.4","","82","","","","23","","8","","24.1","","100.40","","","","-17","","Snow"
"-115.78","60.84","HAY RIVER A","2202401","2018-03-06 20:00","2018","03","06","20:00","-12.4","","-14.4","","85","","","","24","","9","","24.1","","100.37","","","","-18","","Snow"
"-115.78","60.84","HAY RIVER A","2202401","2018-03-06 21:00","2018","03","06","21:00","-12.1","","-14.4","","84","","","","23","","6","","16.1","","100.33","","","","-16","","Snow"
"-115.78","60.84","HAY RIVER A","2202401","2018-03-06 22:00","2018","03","06","22:00","-13.6","","-15.6","","85","","","","23","","8","","24.1","","100.33","","","","-19","","Snow"
"-115.78","60.84","HAY RIVER A","2202401","2018-03-06 23:00","2018","03","06","23:00","-15.9","","-17.4","","88","","","","23","","8","","20.9","","100.30","","","","-21","","Snow"
"-115.78","60.84","HAY RIVER A","2202401","2018-03-07 00:00","2018","03","07","00:00","-16.4","","-18.0","","88","","","","24","","4","","24.1","","100.27","","","","-19","","NA"
"-115.78","60.84","HAY RIVER A","2202401","2018-03-07 01:00","2018","03","07","01:00","-16.7","","-18.2","","88","","","","23","","5","","24.1","","100.24","","","","-21","","NA"
"-115.78","60.84","HAY RIVER A","2202401","2018-03-07 02:00","2018","03","07","02:00","-17.7","","-19.2","","88","","","","36","","2","","24.1","","100.25","","","","-19","","Mainly Clear"
"-115.78","60.84","HAY RIVER A","2202401","2018-03-07 03:00","2018","03","07","03:00","-20.6","","-22.6","","84","","","","36","","2","","24.1","","100.21","","","","-22","","NA"
"-115.78","60.84","HAY RIVER A","2202401","2018-03-07 04:00","2018","03","07","04:00","-20.2","","-22.0","","86","","","","15","","7","","24.1","","100.19","","","","-26","","NA"
"-115.78","60.84","HAY RIVER A","2202401","2018-03-07 05:00","2018","03","07","05:00","-21.1","","-23.1","","84","","","","16","","5","","24.1","","100.18","","","","-26","","Mainly Clear"
"-115.78","60.84","HAY RIVER A","2202401","2018-03-07 06:00","2018","03","07","06:00","-22.0","","-24.5","","80","","","","15","","4","","24.1","","100.16","","","","-26","","NA"
"-115.78","60.84","HAY RIVER A","2202401","2018-03-07 07:00","2018","03","07","07:00","-20.7","","-22.8","","84","","","","15","","4","","24.1","","100.13","","","","-24","","NA"
"-115.78","60.84","HAY RIVER A","2202401","2018-03-07 08:00","2018","03","07","08:00","-20.6","","-22.8","","83","","","","14","","5","","24.1","","100.09","","","","-25","","Mostly Cloudy"
"-115.78","60.84","HAY RIVER A","2202401","2018-03-07 09:00","2018","03","07","09:00","-20.1","","-22.3","","83","","","","15","","5","","24.1","","100.08","","","","-24","","NA"
"-115.78","60.84","HAY RIVER A","2202401","2018-03-07 10:00","2018","03","07","10:00","-17.4","","-19.4","","84","","","","36","","3","","24.1","","100.06","","","","-20","","NA"
"-115.78","60.84","HAY RIVER A","2202401","2018-03-07 11:00","2018","03","07","11:00","-17.4","","-19.9","","81","","","","36","","3","","24.1","","100.05","","","","-20","","Mainly Clear"
"-115.78","60.84","HAY RIVER A","2202401","2018-03-07 12:00","2018","03","07","12:00","-15.8","","-18.8","","78","","","","36","","3","","24.1","","100.01","","","","-18","","NA"
"-115.78","60.84","HAY RIVER A","2202401","2018-03-07 13:00","2018","03","07","13:00","-15.3","","-19.0","","73","","","","33","","8","","24.1","","99.99","","","","-21","","NA"
"-115.78","60.84","HAY RIVER A","2202401","2018-03-07 14:00","2018","03","07","14:00","-15.1","","-19.3","","71","","","","33","","8","","24.1","","99.99","","","","-20","","Mainly Clear"
"-115.78","60.84","HAY RIVER A","2202401","2018-03-07 15:00","2018","03","07","15:00","-14.0","","-18.0","","72","","","","8","","10","","24.1","","99.98","","","","-20","","NA"
"-115.78","60.84","HAY RIVER A","2202401","2018-03-07 16:00","2018","03","07","16:00","-15.2","","-18.1","","79","","","","8","","15","","24.1","","99.96","","","","-23","","NA"
"-115.78","60.84","HAY RIVER A","2202401","2018-03-07 17:00","2018","03","07","17:00","-15.4","","-17.6","","83","","","","8","","14","","24.1","","99.96","","","","-23","","Mainly Clear"
"-115.78","60.84","HAY RIVER A","2202401","2018-03-07 18:00","2018","03","07","18:00","-15.4","","-17.6","","84","","","","9","","7","","24.1","","99.97","","","","-20","","NA"
"-115.78","60.84","HAY RIVER A","2202401","2018-03-07 19:00","2018","03","07","19:00","-17.3","","-19.0","","87","","","","9","","4","","24.1","","99.96","","","","-20","","NA"
"-115.78","60.84","HAY RIVER A","2202401","2018-03-07 20:00","2018","03","07","20:00","-19.2","","-20.8","","88","","","","11","","3","","24.1","","99.93","","","","-22","","Mainly Clear"
"-115.78","60.84","HAY RIVER A","2202401","2018-03-07 21:00","2018","03","07","21:00","-19.7","","-21.6","","85","","","","15","","3","","24.1","","99.89","","","","-22","","NA"
"-115.78","60.84","HAY RIVER A","2202401","2018-03-07 22:00","2018","03","07","22:00","-21.2","","-23.1","","84","","","","36","","2","","24.1","","99.85","","","","-23","","NA"
"-115.78","60.84","HAY RIVER A","2202401","2018-03-07 23:00","2018","03","07","23:00","-23.3","","-25.6","","82","","","","36","","2","","24.1","","99.82","","","","-25","","Mainly Clear"
"-115.78","60.84","HAY RIVER A","2202401","2018-03-08 00:00","2018","03","08","00:00","-23.9","","-26.2","","81","","","","18","","3","","24.1","","99.80","","","","-27","","NA"
"-115.78","60.84","HAY RIVER A","2202401","2018-03-08 01:00","2018","03","08","01:00","-24.4","","-26.8","","80","","","","12","","3","","24.1","","99.77","","","","-27","","NA"
"-115.78","60.84","HAY RIVER A","2202401","2018-03-08 02:00","2018","03","08","02:00","-25.5","","-28.1","","80","","","","11","","3","","24.1","","99.74","","","","-29","","Mainly Clear"
"-115.78","60.84","HAY RIVER A","2202401","2018-03-08 03:00","2018","03","08","03:00","-26.6","","-29.3","","78","","","","8","","6","","24.1","","99.69","","","","-33","","NA"
"-115.78","60.84","HAY RIVER A","2202401","2018-03-08 04:00","2018","03","08","04:00","-25.5","","-27.5","","84","","","","9","","7","","24.1","","99.65","","","","-32","","NA"
"-115.78","60.84","HAY RIVER A","2202401","2018-03-08 05:00","2018","03","08","05:00","-26.6","","-29.3","","78","","","","15","","3","","24.1","","99.62","","","","-30","","Mainly Clear"
"-115.78","60.84","HAY RIVER A","2202401","2018-03-08 06:00","2018","03","08","06:00","-26.4","","-28.9","","80","","","","8","","5","","24.1","","99.57","","","","-32","","NA"
"-115.78","60.84","HAY RIVER A","2202401","2018-03-08 07:00","2018","03","08","07:00","-27.1","","-29.8","","78","","","","10","","7","","1.0","","99.51","","","","-34","","Fog"
"-115.78","60.84","HAY RIVER A","2202401","2018-03-08 08:00","2018","03","08","08:00","-25.8","","-28.5","","79","","","","7","","8","","0.6","","99.44","","","","-33","","Freezing Fog"
"-115.78","60.84","HAY RIVER A","2202401","2018-03-08 09:00","2018","03","08","09:00","-24.7","","-27.3","","79","","","","8","","8","","19.3","","99.42","","","","-32","","NA"
"-115.78","60.84","HAY RIVER A","2202401","2018-03-08 10:00","2018","03","08","10:00","-20.8","","-23.2","","82","","","","36","","2","","24.1","","99.37","","","","-23","","NA"
"-115.78","60.84","HAY RIVER A","2202401","2018-03-08 11:00","2018","03","08","11:00","-19.4","","-21.8","","82","","","","30","","3","","24.1","","99.30","","","","-22","","Mainly Clear"
"-115.78","60.84","HAY RIVER A","2202401","2018-03-08 12:00","2018","03","08","12:00","-17.1","","-19.2","","84","","","","8","","12","","24.1","","99.24","","","","-25","","NA"
"-115.78","60.84","HAY RIVER A","2202401","2018-03-08 13:00","2018","03","08","13:00","-17.6","","-19.8","","84","","","","8","","15","","24.1","","99.17","","","","-26","","NA"
"-115.78","60.84","HAY RIVER A","2202401","2018-03-08 14:00","2018","03","08","14:00","-16.3","","-18.4","","84","","","","8","","14","","24.1","","99.10","","","","-24","","Mainly Clear"
"-115.78","60.84","HAY RIVER A","2202401","2018-03-08 15:00","2018","03","08","15:00","-16.2","","-18.4","","83","","","","8","","16","","24.1","","99.07","","","","-25","","NA"
"-115.78","60.84","HAY RIVER A","2202401","2018-03-08 16:00","2018","03","08","16:00","-16.8","","-19.4","","81","","","","7","","15","","24.1","","99.02","","","","-25","","NA"
"-115.78","60.84","HAY RIVER A","2202401","2018-03-08 17:00","2018","03","08","17:00","-18.2","","-20.7","","82","","","","7","","17","","24.1","","98.95","","","","-27","","Mostly Cloudy"
"-115.78","60.84","HAY RIVER A","2202401","2018-03-08 18:00","2018","03","08","18:00","-19.2","","-21.3","","83","","","","8","","19","","24.1","","98.90","","","","-29","","NA"
"-115.78","60.84","HAY RIVER A","2202401","2018-03-08 19:00","2018","03","08","19:00","-19.6","","-21.8","","83","","","","7","","17","","24.1","","98.82","","","","-29","","NA"
"-115.78","60.84","HAY RIVER A","2202401","2018-03-08 20:00","2018","03","08","20:00","-19.3","","-21.5","","83","","","","8","","14","","24.1","","98.75","","","","-28","","Mainly Clear"
"-115.78","60.84","HAY RIVER A","2202401","2018-03-08 21:00","2018","03","08","21:00","-18.5","","-20.9","","82","","","","8","","11","","24.1","","98.69","","","","-26","","NA"
"-115.78","60.84","HAY RIVER A","2202401","2018-03-08 22:00","2018","03","08","22:00","-17.3","","-19.9","","81","","","","7","","10","","24.1","","98.61","","","","-24","","NA"
"-115.78","60.84","HAY RIVER A","2202401","2018-03-08 23:00","2018","03","08","23:00","-15.8","","-18.2","","81","","","","8","","9","","24.1","","98.56","","","","-22","","Mostly Cloudy"
"-115.78","60.84","HAY RIVER A","2202401","2018-03-09 00:00","2018","03","09","00:00","-14.3","","-16.8","","82","","","","8","","7","","24.1","","98.53","","","","-19","","NA"
"-115.78","60.84","HAY RIVER A","2202401","2018-03-09 01:00","2018","03","09","01:00","-13.3","","-15.7","","82","","","","8","","11","","24.1","","98.45","","","","-20","","NA"
"-115.78","60.84","HAY RIVER A","2202401","2018-03-09 02:00","2018","03","09","02:00","-12.3","","-14.9","","81","","","","7","","14","","24.1","","98.40","","","","-19","","Mostly Cloudy"
"-115.78","60.84","HAY RIVER A","2202401","2018-03-09 03:00","2018","03","09","03:00","-12.2","","-14.8","","82","","","","7","","17","","24.1","","98.35","","","","-20","","NA"
"-115.78","60.84","HAY RIVER A","2202401","2018-03-09 04:00","2018","03","09","04:00","-12.4","","-15.1","","81","","","","7","","15","","24.1","","98.30","","","","-20","","NA"
"-115.78","60.84","HAY RIVER A","2202401","2018-03-09 05:00","2018","03","09","05:00","-12.3","","-14.9","","81","","","","7","","18","","24.1","","98.25","","","","-20","","Mostly Cloudy"
"-115.78","60.84","HAY RIVER A","2202401","2018-03-09 06:00","2018","03","09","06:00","-12.3","","-15.1","","80","","","","7","","19","","24.1","","98.22","","","","-21","","NA"
"-115.78","60.84","HAY RIVER A","2202401","2018-03-09 07:00","2018","03","09","07:00","-12.2","","-15.2","","79","","","","7","","14","","24.1","","98.22","","","","-19","","NA"
"-115.78","60.84","HAY RIVER A","2202401","2018-03-09 08:00","2018","03","09","08:00","-12.5","","-15.2","","80","","","","7","","13","","24.1","","98.26","","","","-19","","Mostly Cloudy"
"-115.78","60.84","HAY RIVER A","2202401","2018-03-09 09:00","2018","03","09","09:00","-12.1","","-15.1","","79","","","","7","","17","","24.1","","98.26","","","","-20","","NA"
"-115.78","60.84","HAY RIVER A","2202401","2018-03-09 10:00","2018","03","09","10:00","-12.5","","-15.2","","80","","","","7","","20","","24.1","","98.27","","","","-21","","NA"
"-115.78","60.84","HAY RIVER A","2202401","2018-03-09 11:00","2018","03","09","11:00","-12.1","","-15.3","","77","","","","8","","16","","24.1","","98.29","","","","-20","","Mostly Cloudy"
"-115.78","60.84","HAY RIVER A","2202401","2018-03-09 12:00","2018","03","09","12:00","-11.8","","-14.8","","78","","","","6","","11","","24.1","","98.31","","","","-18","","NA"
"-115.78","60.84","HAY RIVER A","2202401","2018-03-09 13:00","2018","03","09","13:00","-10.9","","-14.3","","76","","","","7","","8","","24.1","","98.36","","","","-16","","Snow"
"-115.78","60.84","HAY RIVER A","2202401","2018-03-09 14:00","2018","03","09","14:00","-11.2","","-14.7","","75","","","","8","","12","","24.1","","98.40","","","","-17","","Mainly Clear"
"-115.78","60.84","HAY RIVER A","2202401","2018-03-09 15:00","2018","03","09","15:00","-11.0","","-14.7","","75","","","","33","","10","","24.1","","98.50","","","","-16","","NA"
"-115.78","60.84","HAY RIVER A","2202401","2018-03-09 16:00","2018","03","09","16:00","-11.5","","-14.8","","77","","","","34","","7","","24.1","","98.54","","","","-16","","NA"
"-115.78","60.84","HAY RIVER A","2202401","2018-03-09 17:00","2018","03","09","17:00","-12.7","","-15.6","","79","","","","34","","5","","24.1","","98.61","","","","-16","","Mainly Clear"
"-115.78","60.84","HAY RIVER A","2202401","2018-03-09 18:00","2018","03","09","18:00","-15.0","","-17.2","","84","","","","36","","3","","24.1","","98.63","","","","-17","","NA"
"-115.78","60.84","HAY RIVER A","2202401","2018-03-09 19:00","2018","03","09","19:00","-15.8","","-17.6","","86","","","","7","","4","","24.1","","98.67","","","","-19","","NA"
"-115.78","60.84","HAY RIVER A","2202401","2018-03-09 20:00","2018","03","09","20:00","-18.0","","-19.8","","86","","","","11","","3","","24.1","","98.71","","","","-20","","Mainly Clear"
"-115.78","60.84","HAY RIVER A","2202401","2018-03-09 21:00","2018","03","09","21:00","-17.8","","-19.7","","86","","","","9","","9","","24.1","","98.68","","","","-24","","NA"
"-115.78","60.84","HAY RIVER A","2202401","2018-03-09 22:00","2018","03","09","22:00","-17.1","","-18.9","","86","","","","15","","6","","24.1","","98.72","","","","-22","","NA"
"-115.78","60.84","HAY RIVER A","2202401","2018-03-09 23:00","2018","03","09","23:00","-15.6","","-17.3","","87","","","","11","","9","","24.1","","98.68","","","","-22","","Mainly Clear"
"-115.78","60.84","HAY RIVER A","2202401","2018-03-10 00:00","2018","03","10","00:00","-14.9","","-16.9","","86","","","","14","","8","","24.1","","98.64","","","","-20","","NA"
"-115.78","60.84","HAY RIVER A","2202401","2018-03-10 01:00","2018","03","10","01:00","-13.9","","-15.7","","86","","","","13","","10","","24.1","","98.62","","","","-20","","NA"
"-115.78","60.84","HAY RIVER A","2202401","2018-03-10 02:00","2018","03","10","02:00","-13.2","","-15.1","","86","","","","15","","14","","24.1","","98.59","","","","-20","","Mostly Cloudy"
"-115.78","60.84","HAY RIVER A","2202401","2018-03-10 03:00","2018","03","10","03:00","-11.8","","-13.8","","85","","","","16","","17","","24.1","","98.54","","","","-19","","NA"
"-115.78","60.84","HAY RIVER A","2202401","2018-03-10 04:00","2018","03","10","04:00","-10.8","","-13.4","","81","","","","17","","15","","24.1","","98.51","","","","-18","","NA"
"-115.78","60.84","HAY RIVER A","2202401","2018-03-10 05:00","2018","03","10","05:00","-8.9","","-12.5","","75","","","","19","","16","","24.1","","98.50","","","","-16","","Mostly Cloudy"
"-115.78","60.84","HAY RIVER A","2202401","2018-03-10 06:00","2018","03","10","06:00","-8.1","","-12.3","","72","","","","19","","15","","24.1","","98.50","","","","-14","","NA"
"-115.78","60.84","HAY RIVER A","2202401","2018-03-10 07:00","2018","03","10","07:00","-7.1","","-12.4","","66","","","","22","","11","","24.1","","98.52","","","","-12","","NA"
"-115.78","60.84","HAY RIVER A","2202401","2018-03-10 08:00","2018","03","10","08:00","-6.8","","-11.9","","67","","","","20","","13","","24.1","","98.50","","","","-12","","Mostly Cloudy"
"-115.78","60.84","HAY RIVER A","2202401","2018-03-10 09:00","2018","03","10","09:00","-4.0","","-11.2","","58","","","","21","","15","","24.1","","98.59","","","","-9","","NA"
"-115.78","60.84","HAY RIVER A","2202401","2018-03-10 10:00","2018","03","10","10:00","-2.6","","-10.1","","56","","","","22","","12","","24.1","","98.67","","","","-7","","NA"
"-115.78","60.84","HAY RIVER A","2202401","2018-03-10 11:00","2018","03","10","11:00","2.1","","-8.7","","45","","","","26","","14","","24.1","","98.70","","","","","","Mainly Clear"
"-115.78","60.84","HAY RIVER A","2202401","2018-03-10 12:00","2018","03","10","12:00","3.2","","-8.3","","43","","","","27","","27","","24.1","","98.77","","","","","","NA"
"-115.78","60.84","HAY RIVER A","2202401","2018-03-10 13:00","2018","03","10","13:00","3.6","","-8.8","","40","","","","28","","27","","24.1","","98.88","","","","","","NA"
"-115.78","60.84","HAY RIVER A","2202401","2018-03-10 14:00","2018","03","10","14:00","2.5","","-8.0","","46","","","","30","","22","","24.1","","98.98","","","","","","Mainly Clear"
"-115.78","60.84","HAY RIVER A","2202401","2018-03-10 15:00","2018","03","10","15:00","1.6","","-8.2","","48","","","","30","","22","","24.1","","99.06","","","","","","NA"
"-115.78","60.84","HAY RIVER A","2202401","2018-03-10 16:00","2018","03","10","16:00","1.7","","-8.7","","46","","","","30","","24","","24.1","","99.13","","","","","","NA"
"-115.78","60.84","HAY RIVER A","2202401","2018-03-10 17:00","2018","03","10","17:00","1.6","","-9.9","","42","","","","29","","19","","24.1","","99.24","","","","","","Mainly Clear"
"-115.78","60.84","HAY RIVER A","2202401","2018-03-10 18:00","2018","03","10","18:00","1.0","","-10.7","","42","","","","28","","16","","24.1","","99.34","","","","","","NA"
"-115.78","60.84","HAY RIVER A","2202401","2018-03-10 19:00","2018","03","10","19:00","-0.7","","-11.8","","43","","","","27","","13","","24.1","","99.43","","","","-5","","NA"
"-115.78","60.84","HAY RIVER A","2202401","2018-03-10 20:00","2018","03","10","20:00","-3.1","","-13.4","","45","","","","26","","11","","24.1","","99.54","","","","-7","","Mainly Clear"
"-115.78","60.84","HAY RIVER A","2202401","2018-03-10 21:00","2018","03","10","21:00","-3.8","","-12.8","","50","","","","36","","2","","24.1","","99.60","","","","-5","","NA"
"-115.78","60.84","HAY RIVER A","2202401","2018-03-10 22:00","2018","03","10","22:00","-4.8","","-13.1","","53","","","","36","","2","","24.1","","99.67","","","","-6","","NA"
"-115.78","60.84","HAY RIVER A","2202401","2018-03-10 23:00","2018","03","10","23:00","-6.0","","-13.8","","55","","","","23","","7","","24.1","","99.74","","","","-9","","Mainly Clear"
"-115.78","60.84","HAY RIVER A","2202401","2018-03-11 00:00","2018","03","11","00:00","-6.6","","-14.0","","56","","","","23","","4","","24.1","","99.77","","","","-9","","NA"
"-115.78","60.84","HAY RIVER A","2202401","2018-03-11 01:00","2018","03","11","01:00","-6.1","","-14.1","","54","","","","18","","4","","24.1","","99.83","","","","-8","","NA"
"-115.78","60.84","HAY RIVER A","2202401","2018-03-11 02:00","2018","03","11","02:00","-12.6","","-16.4","","73","","","","16","","9","","24.1","","99.91","","","","-18","","Mainly Clear"
"-115.78","60.84","HAY RIVER A","2202401","2018-03-11 03:00","2018","03","11","03:00","-9.1","","-15.2","","62","","","","16","","9","","24.1","","99.98","","","","-14","","NA"
"-115.78","60.84","HAY RIVER A","2202401","2018-03-11 04:00","2018","03","11","04:00","-8.5","","-15.1","","60","","","","13","","8","","24.1","","100.02","","","","-13","","NA"
"-115.78","60.84","HAY RIVER A","2202401","2018-03-11 05:00","2018","03","11","05:00","-9.9","","-15.2","","66","","","","15","","7","","24.1","","100.05","","","","-14","","Mainly Clear"
"-115.78","60.84","HAY RIVER A","2202401","2018-03-11 06:00","2018","03","11","06:00","-10.8","","-15.6","","68","","","","15","","8","","24.1","","100.09","","","","-15","","NA"
"-115.78","60.84","HAY RIVER A","2202401","2018-03-11 07:00","2018","03","11","07:00","-11.0","","-15.6","","69","","","","15","","8","","24.1","","100.10","","","","-16","","NA"
"-115.78","60.84","HAY RIVER A","2202401","2018-03-11 08:00","2018","03","11","08:00","-10.8","","-15.2","","71","","","","16","","10","","24.1","","100.12","","","","-16","","Mainly Clear"
"-115.78","60.84","HAY RIVER A","2202401","2018-03-11 09:00","2018","03","11","09:00","-9.1","","-14.1","","67","","","","15","","8","","24.1","","100.14","","","","-13","","NA"
"-115.78","60.84","HAY RIVER A","2202401","2018-03-11 10:00","2018","03","11","10:00","-5.1","","-12.3","","57","","","","16","","10","","24.1","","100.18","","","","-9","","NA"
"-115.78","60.84","HAY RIVER A","2202401","2018-03-11 11:00","2018","03","11","11:00","-0.9","","-10.3","","49","","","","17","","9","","24.1","","100.19","","","","-4","","Mainly Clear"
"-115.78","60.84","HAY RIVER A","2202401","2018-03-11 12:00","2018","03","11","12:00","2.5","","-8.0","","46","","","","16","","8","","24.1","","100.19","","","","","","NA"
"-115.78","60.84","HAY RIVER A","2202401","2018-03-11 13:00","2018","03","11","13:00","4.7","","-7.0","","43","","","","16","","9","","24.1","","100.19","","","","","","NA"
"-115.78","60.84","HAY RIVER A","2202401","2018-03-11 14:00","2018","03","11","14:00","6.0","","-6.8","","39","","","","18","","5","","24.1","","100.18","","","","","","Mainly Clear"
"-115.78","60.84","HAY RIVER A","2202401","2018-03-11 15:00","2018","03","11","15:00","6.8","","-6.7","","38","","","","16","","4","","24.1","","100.18","","","","","","NA"
"-115.78","60.84","HAY RIVER A","2202401","2018-03-11 16:00","2018","03","11","16:00","4.1","","-6.5","","46","","","","7","","10","","24.1","","100.20","","","","","","NA"
"-115.78","60.84","HAY RIVER A","2202401","2018-03-11 17:00","2018","03","11","17:00","3.0","","-6.8","","49","","","","7","","13","","24.1","","100.19","","","","","","Mainly Clear"
"-115.78","60.84","HAY RIVER A","2202401","2018-03-11 18:00","2018","03","11","18:00","0.6","","-7.4","","55","","","","8","","10","","24.1","","100.18","","","","","","NA"
"-115.78","60.84","HAY RIVER A","2202401","2018-03-11 19:00","2018","03","11","19:00","-1.8","","-7.5","","65","","","","11","","5","","24.1","","100.18","","","","-4","","NA"
"-115.78","60.84","HAY RIVER A","2202401","2018-03-11 20:00","2018","03","11","20:00","-4.8","","-7.7","","80","","","","36","","2","","24.1","","100.20","","","","-6","","Mainly Clear"
"-115.78","60.84","HAY RIVER A","2202401","2018-03-11 21:00","2018","03","11","21:00","-4.2","","-9.1","","69","","","","9","","8","","24.1","","100.18","","","","-8","","NA"
"-115.78","60.84","HAY RIVER A","2202401","2018-03-11 22:00","2018","03","11","22:00","-5.3","","-9.4","","73","","","","14","","8","","24.1","","100.17","","","","-9","","NA"
"-115.78","60.84","HAY RIVER A","2202401","2018-03-11 23:00","2018","03","11","23:00","-3.4","","-8.4","","68","","","","16","","10","","24.1","","100.12","","","","-7","","Mainly Clear"
"-115.78","60.84","HAY RIVER A","2202401","2018-03-12 00:00","2018","03","12","00:00","-3.7","","-8.9","","68","","","","16","","10","","24.1","","100.09","","","","-8","","NA"
"-115.78","60.84","HAY RIVER A","2202401","2018-03-12 01:00","2018","03","12","01:00","-5.2","","-9.1","","74","","","","18","","10","","24.1","","100.07","","","","-10","","NA"
"-115.78","60.84","HAY RIVER A","2202401","2018-03-12 02:00","2018","03","12","02:00","-4.4","","-8.6","","73","","","","18","","9","","24.1","","100.06","","","","-8","","Mainly Clear"
"-115.78","60.84","HAY RIVER A","2202401","2018-03-12 03:00","2018","03","12","03:00","-5.0","","-8.6","","76","","","","17","","14","","24.1","","99.95","","","","-10","","NA"
"-115.78","60.84","HAY RIVER A","2202401","2018-03-12 04:00","2018","03","12","04:00","-6.7","","-8.9","","84","","","","22","","6","","24.1","","99.96","","","","-10","","NA"
"-115.78","60.84","HAY RIVER A","2202401","2018-03-12 05:00","2018","03","12","05:00","-6.9","","-9.6","","81","","","","18","","13","","24.1","","99.88","","","","-12","","Mainly Clear"
"-115.78","60.84","HAY RIVER A","2202401","2018-03-12 06:00","2018","03","12","06:00","-5.6","","-8.6","","80","","","","17","","13","","24.1","","99.81","","","","-11","","NA"
"-115.78","60.84","HAY RIVER A","2202401","2018-03-12 07:00","2018","03","12","07:00","-4.2","","-7.9","","76","","","","18","","13","","24.1","","99.77","","","","-9","","NA"
"-115.78","60.84","HAY RIVER A","2202401","2018-03-12 08:00","2018","03","12","08:00","-3.3","","-7.4","","74","","","","19","","18","","24.1","","99.68","","","","-9","","Mostly Cloudy"
"-115.78","60.84","HAY RIVER A","2202401","2018-03-12 09:00","2018","03","12","09:00","-1.3","","-6.5","","67","","","","19","","16","","24.1","","99.62","","","","-6","","NA"
"-115.78","60.84","HAY RIVER A","2202401","2018-03-12 10:00","2018","03","12","10:00","1.1","","-5.4","","62","","","","18","","17","","24.1","","99.51","","","","","","NA"
"-115.78","60.84","HAY RIVER A","2202401","2018-03-12 11:00","2018","03","12","11:00","4.7","","-4.9","","50","","","","20","","16","","24.1","","99.49","","","","","","Mostly Cloudy"
"-115.78","60.84","HAY RIVER A","2202401","2018-03-12 12:00","2018","03","12","12:00","5.8","","-4.1","","49","","","","19","","13","","24.1","","99.42","","","","","","NA"
"-115.78","60.84","HAY RIVER A","2202401","2018-03-12 13:00","2018","03","12","13:00","5.7","","-3.1","","53","","","","18","","17","","24.1","","99.36","","","","","","NA"
"-115.78","60.84","HAY RIVER A","2202401","2018-03-12 14:00","2018","03","12","14:00","6.9","","-2.6","","51","","","","18","","17","","24.1","","99.32","","","","","","Mainly Clear"
"-115.78","60.84","HAY RIVER A","2202401","2018-03-12 15:00","2018","03","12","15:00","6.4","","-2.5","","53","","","","17","","16","","24.1","","99.33","","","","","","NA"
"-115.78","60.84","HAY RIVER A","2202401","2018-03-12 16:00","2018","03","12","16:00","7.3","","-2.7","","49","","","","18","","15","","24.1","","99.31","","","","","","NA"
"-115.78","60.84","HAY RIVER A","2202401","2018-03-12 17:00","2018","03","12","17:00","6.9","","-2.6","","51","","","","20","","10","","24.1","","99.29","","","","","","Mostly Cloudy"
"-115.78","60.84","HAY RIVER A","2202401","2018-03-12 18:00","2018","03","12","18:00","4.5","","-2.3","","61","","","","18","","13","","24.1","","99.27","","","","","","NA"
"-115.78","60.84","HAY RIVER A","2202401","2018-03-12 19:00","2018","03","12","19:00","5.3","","-3.4","","53","","","","22","","7","","24.1","","99.29","","","","","","NA"
"-115.78","60.84","HAY RIVER A","2202401","2018-03-12 20:00","2018","03","12","20:00","3.7","","-3.7","","58","","","","23","","9","","24.1","","99.27","","","","","","Mainly Clear"
"-115.78","60.84","HAY RIVER A","2202401","2018-03-12 21:00","2018","03","12","21:00","3.2","","-4.0","","59","","","","23","","10","","24.1","","99.29","","","","","","NA"
"-115.78","60.84","HAY RIVER A","2202401","2018-03-12 22:00","2018","03","12","22:00","2.8","","-3.9","","61","","","","23","","15","","24.1","","99.29","","","","","","NA"
"-115.78","60.84","HAY RIVER A","2202401","2018-03-12 23:00","2018","03","12","23:00","1.5","","-4.2","","66","","","","23","","11","","24.1","","99.32","","","","","","Mainly Clear"
"-115.78","60.84","HAY RIVER A","2202401","2018-03-13 00:00","2018","03","13","00:00","0.7","","-4.7","","67","","","","23","","3","","24.1","","99.38","","","","","","NA"
"-115.78","60.84","HAY RIVER A","2202401","2018-03-13 01:00","2018","03","13","01:00","-0.9","","-5.4","","72","","","","21","","4","","24.1","","99.42","","","","-2","","NA"
"-115.78","60.84","HAY RIVER A","2202401","2018-03-13 02:00","2018","03","13","02:00","-1.4","","-5.0","","77","","","","22","","4","","24.1","","99.48","","","","-3","","Mainly Clear"
"-115.78","60.84","HAY RIVER A","2202401","2018-03-13 03:00","2018","03","13","03:00","-2.7","","-5.2","","83","","","","5","","4","","24.1","","99.56","","","","-4","","NA"
"-115.78","60.84","HAY RIVER A","2202401","2018-03-13 04:00","2018","03","13","04:00","-4.4","","-6.4","","86","","","","36","","3","","24.1","","99.57","","","","-6","","NA"
"-115.78","60.84","HAY RIVER A","2202401","2018-03-13 05:00","2018","03","13","05:00","-4.6","","-6.5","","87","","","","36","","2","","24.1","","99.63","","","","-5","","Mainly Clear"
"-115.78","60.84","HAY RIVER A","2202401","2018-03-13 06:00","2018","03","13","06:00","-7.9","","-9.3","","90","","","","36","","3","","24.1","","99.65","","","","-9","","NA"
"-115.78","60.84","HAY RIVER A","2202401","2018-03-13 07:00","2018","03","13","07:00","-8.8","","-11.5","","81","","","","36","","3","","24.1","","99.76","","","","-10","","NA"
"-115.78","60.84","HAY RIVER A","2202401","2018-03-13 08:00","2018","03","13","08:00","-7.6","","-9.0","","89","","","","11","","6","","24.1","","99.80","","","","-11","","Mainly Clear"
"-115.78","60.84","HAY RIVER A","2202401","2018-03-13 09:00","2018","03","13","09:00","-5.0","","-7.7","","81","","","","16","","7","","24.1","","99.84","","","","-8","","NA"
"-115.78","60.84","HAY RIVER A","2202401","2018-03-13 10:00","2018","03","13","10:00","-3.5","","-7.9","","72","","","","8","","8","","24.1","","99.88","","","","-7","","NA"
"-115.78","60.84","HAY RIVER A","2202401","2018-03-13 11:00","2018","03","13","11:00","0.4","","-5.9","","63","","","","8","","9","","24.1","","99.87","","","","","","Mainly Clear"
"-115.78","60.84","HAY RIVER A","2202401","2018-03-13 12:00","2018","03","13","12:00","1.9","","-4.4","","63","","","","7","","16","","24.1","","99.85","","","","","","NA"
"-115.78","60.84","HAY RIVER A","2202401","2018-03-13 13:00","2018","03","13","13:00","1.0","","-4.3","","68","","","","7","","14","","24.1","","99.83","","","","","","NA"
"-115.78","60.84","HAY RIVER A","2202401","2018-03-13 14:00","2018","03","13","14:00","2.5","","-3.5","","65","","","","7","","14","","24.1","","99.84","","","","","","Mostly Cloudy"
"-115.78","60.84","HAY RIVER A","2202401","2018-03-13 15:00","2018","03","13","15:00","0.6","","-3.9","","72","","","","7","","18","","24.1","","99.81","","","","","","NA"
"-115.78","60.84","HAY RIVER A","2202401","2018-03-13 16:00","2018","03","13","16:00","-0.6","","-4.9","","73","","","","7","","17","","24.1","","99.77","","","","-6","","NA"
"-115.78","60.84","HAY RIVER A","2202401","2018-03-13 17:00","2018","03","13","17:00","0.6","","-4.4","","69","","","","8","","12","","24.1","","99.72","","","","","","Mostly Cloudy"
"-115.78","60.84","HAY RIVER A","2202401","2018-03-13 18:00","2018","03","13","18:00","-0.6","","-4.8","","74","","","","7","","10","","24.1","","99.65","","","","-4","","NA"
"-115.78","60.84","HAY RIVER A","2202401","2018-03-13 19:00","2018","03","13","19:00","-1.2","","-4.9","","76","","","","9","","12","","24.1","","99.61","","","","-5","","NA"
"-115.78","60.84","HAY RIVER A","2202401","2018-03-13 20:00","2018","03","13","20:00","-0.2","","-5.4","","68","","","","9","","13","","24.1","","99.55","","","","-4","","Mainly Clear"
"-115.78","60.84","HAY RIVER A","2202401","2018-03-13 21:00","2018","03","13","21:00","-0.1","","-5.5","","67","","","","10","","11","","24.1","","99.50","","","","-4","","NA"
"-115.78","60.84","HAY RIVER A","2202401","2018-03-13 22:00","2018","03","13","22:00","0.7","","-5.1","","65","","","","13","","10","","24.1","","99.45","","","","","","NA"
"-115.78","60.84","HAY RIVER A","2202401","2018-03-13 23:00","2018","03","13","23:00","0.7","","-5.0","","66","","","","15","","13","","24.1","","99.43","","","","","","Mainly Clear"
"-115.78","60.84","HAY RIVER A","2202401","2018-03-14 00:00","2018","03","14","00:00","0.2","","-4.6","","70","","","","16","","16","","24.1","","99.42","","","","","","NA"
"-115.78","60.84","HAY RIVER A","2202401","2018-03-14 01:00","2018","03","14","01:00","-1.0","","-4.9","","75","","","","17","","12","","24.1","","99.41","","","","-5","","NA"
"-115.78","60.84","HAY RIVER A","2202401","2018-03-14 02:00","2018","03","14","02:00","-1.8","","-5.3","","77","","","","18","","11","","24.1","","99.37","","","","-6","","Mainly Clear"
"-115.78","60.84","HAY RIVER A","2202401","2018-03-14 03:00","2018","03","14","03:00","-1.0","","-5.5","","71","","","","15","","16","","24.1","","99.33","","","","-6","","NA"
"-115.78","60.84","HAY RIVER A","2202401","2018-03-14 04:00","2018","03","14","04:00","-2.0","","-6.0","","74","","","","16","","18","","24.1","","99.28","","","","-7","","NA"
"-115.78","60.84","HAY RIVER A","2202401","2018-03-14 05:00","2018","03","14","05:00","-2.7","","-6.3","","76","","","","16","","16","","24.1","","99.23","","","","-8","","Clear"
"-115.78","60.84","HAY RIVER A","2202401","2018-03-14 06:00","2018","03","14","06:00","-3.0","","-6.5","","77","","","","16","","17","","24.1","","99.16","","","","-9","","NA"
"-115.78","60.84","HAY RIVER A","2202401","2018-03-14 07:00","2018","03","14","07:00","-3.4","","-6.7","","78","","","","17","","14","","24.1","","99.12","","","","-8","","NA"
"-115.78","60.84","HAY RIVER A","2202401","2018-03-14 08:00","2018","03","14","08:00","-2.7","","-6.5","","75","","","","16","","17","","24.1","","99.10","","","","-8","","Mainly Clear"
"-115.78","60.84","HAY RIVER A","2202401","2018-03-14 09:00","2018","03","14","09:00","-0.4","","-5.5","","69","","","","17","","20","","24.1","","99.08","","","","-6","","NA"
"-115.78","60.84","HAY RIVER A","2202401","2018-03-14 10:00","2018","03","14","10:00","2.3","","-4.5","","61","","","","16","","17","","24.1","","99.05","","","","","","NA"
"-115.78","60.84","HAY RIVER A","2202401","2018-03-14 11:00","2018","03","14","11:00","4.2","","-3.4","","58","","","","16","","10","","24.1","","99.06","","","","","","Mostly Cloudy"
"-115.78","60.84","HAY RIVER A","2202401","2018-03-14 12:00","2018","03","14","12:00","5.7","","-3.6","","51","","","","18","","12","","24.1","","99.06","","","","","","NA"
"-115.78","60.84","HAY RIVER A","2202401","2018-03-14 13:00","2018","03","14","13:00","7.6","","-4.1","","43","","","","17","","9","","24.1","","99.02","","","","","","NA"
"-115.78","60.84","HAY RIVER A","2202401","2018-03-14 14:00","2018","03","14","14:00","7.1","","-3.4","","47","","","","16","","14","","24.1","","98.98","","","","","","Mostly Cloudy"
"-115.78","60.84","HAY RIVER A","2202401","2018-03-14 15:00","2018","03","14","15:00","8.7","","-3.1","","43","","","","15","","10","","24.1","","98.93","","","","","","NA"
"-115.78","60.84","HAY RIVER A","2202401","2018-03-14 16:00","2018","03","14","16:00","6.4","","-2.4","","53","","","","8","","10","","24.1","","98.90","","","","","","NA"
"-115.78","60.84","HAY RIVER A","2202401","2018-03-14 17:00","2018","03","14","17:00","6.8","","-3.2","","49","","","","7","","12","","24.1","","98.86","","","","","","Mainly Clear"
"-115.78","60.84","HAY RIVER A","2202401","2018-03-14 18:00","2018","03","14","18:00","6.3","","-3.6","","49","","","","8","","9","","24.1","","98.85","","","","","","NA"
"-115.78","60.84","HAY RIVER A","2202401","2018-03-14 19:00","2018","03","14","19:00","3.8","","-4.2","","56","","","","12","","9","","24.1","","98.85","","","","","","NA"
"-115.78","60.84","HAY RIVER A","2202401","2018-03-14 20:00","2018","03","14","20:00","2.9","","-4.3","","59","","","","10","","10","","24.1","","98.85","","","","","","Mainly Clear"
"-115.78","60.84","HAY RIVER A","2202401","2018-03-14 21:00","2018","03","14","21:00","0.5","","-4.8","","68","","","","10","","12","","24.1","","98.86","","","","","","NA"
"-115.78","60.84","HAY RIVER A","2202401","2018-03-14 22:00","2018","03","14","22:00","-0.1","","-5.1","","69","","","","8","","10","","24.1","","98.85","","","","-3","","NA"
"-115.78","60.84","HAY RIVER A","2202401","2018-03-14 23:00","2018","03","14","23:00","-2.9","","-6.8","","75","","","","8","","15","","24.1","","98.84","","","","-8","","Mainly Clear"
"-115.78","60.84","HAY RIVER A","2202401","2018-03-15 00:00","2018","03","15","00:00","-4.1","","-7.4","","78","","","","8","","16","","24.1","","98.81","","","","-10","","NA"
"-115.78","60.84","HAY RIVER A","2202401","2018-03-15 01:00","2018","03","15","01:00","-5.5","","-8.4","","81","","","","7","","13","","24.1","","98.82","","","","-11","","NA"
"-115.78","60.84","HAY RIVER A","2202401","2018-03-15 02:00","2018","03","15","02:00","-8.0","","-10.1","","85","","","","7","","15","","24.1","","98.83","","","","-14","","Mainly Clear"
"-115.78","60.84","HAY RIVER A","2202401","2018-03-15 03:00","2018","03","15","03:00","-8.8","","-10.8","","85","","","","7","","17","","24.1","","98.84","","","","-16","","NA"
"-115.78","60.84","HAY RIVER A","2202401","2018-03-15 04:00","2018","03","15","04:00","-8.3","","-10.2","","86","","","","7","","14","","24.1","","98.86","","","","-14","","NA"
"-115.78","60.84","HAY RIVER A","2202401","2018-03-15 05:00","2018","03","15","05:00","-8.9","","-10.8","","87","","","","8","","10","","24.1","","98.86","","","","-14","","Clear"
"-115.78","60.84","HAY RIVER A","2202401","2018-03-15 06:00","2018","03","15","06:00","-9.6","","-11.1","","89","","","","8","","9","","24.1","","98.88","","","","-14","","NA"
"-115.78","60.84","HAY RIVER A","2202401","2018-03-15 07:00","2018","03","15","07:00","-10.7","","-12.3","","89","","","","8","","12","","24.1","","98.89","","","","-17","","NA"
"-115.78","60.84","HAY RIVER A","2202401","2018-03-15 08:00","2018","03","15","08:00","-9.3","","-11.6","","84","","","","7","","14","","24.1","","98.85","","","","-16","","Mostly Cloudy"
"-115.78","60.84","HAY RIVER A","2202401","2018-03-15 09:00","2018","03","15","09:00","-8.6","","-11.1","","82","","","","7","","13","","24.1","","98.87","","","","-15","","NA"
"-115.78","60.84","HAY RIVER A","2202401","2018-03-15 10:00","2018","03","15","10:00","-6.5","","-9.9","","77","","","","7","","14","","24.1","","98.87","","","","-12","","NA"
"-115.78","60.84","HAY RIVER A","2202401","2018-03-15 11:00","2018","03","15","11:00","-3.8","","-8.4","","70","","","","9","","5","","24.1","","98.90","","","","-6","","Mostly Cloudy"
"-115.78","60.84","HAY RIVER A","2202401","2018-03-15 12:00","2018","03","15","12:00","-4.2","","-8.2","","74","","","","7","","11","","24.1","","98.90","","","","-9","","NA"
"-115.78","60.84","HAY RIVER A","2202401","2018-03-15 13:00","2018","03","15","13:00","-3.3","","-7.5","","73","","","","10","","9","","24.1","","98.93","","","","-7","","NA"
"-115.78","60.84","HAY RIVER A","2202401","2018-03-15 14:00","2018","03","15","14:00","-2.7","","-6.7","","74","","","","32","","10","","24.1","","98.92","","","","-7","","Mainly Clear"
"-115.78","60.84","HAY RIVER A","2202401","2018-03-15 15:00","2018","03","15","15:00","-3.8","","-6.5","","82","","","","32","","13","","24.1","","98.92","","","","-9","","NA"
"-115.78","60.84","HAY RIVER A","2202401","2018-03-15 16:00","2018","03","15","16:00","-3.9","","-6.8","","80","","","","32","","13","","24.1","","98.91","","","","-9","","NA"
"-115.78","60.84","HAY RIVER A","2202401","2018-03-15 17:00","2018","03","15","17:00","-4.9","","-7.5","","82","","","","35","","9","","24.1","","98.90","","","","-9","","Mainly Clear"
"-115.78","60.84","HAY RIVER A","2202401","2018-03-15 18:00","2018","03","15","18:00","-6.8","","-9.2","","83","","","","34","","9","","24.1","","98.91","","","","-11","","NA"
"-115.78","60.84","HAY RIVER A","2202401","2018-03-15 19:00","2018","03","15","19:00","-9.2","","-10.8","","89","","","","31","","6","","24.1","","98.94","","","","-13","","NA"
"-115.78","60.84","HAY RIVER A","2202401","2018-03-15 20:00","2018","03","15","20:00","-10.2","","-11.8","","88","","","","27","","7","","24.1","","98.96","","","","-14","","Mainly Clear"
"-115.78","60.84","HAY RIVER A","2202401","2018-03-15 21:00","2018","03","15","21:00","-11.2","","-12.7","","89","","","","30","","9","","24.1","","98.94","","","","-16","","NA"
"-115.78","60.84","HAY RIVER A","2202401","2018-03-15 22:00","2018","03","15","22:00","-12.1","","-13.5","","89","","","","26","","6","","24.1","","98.94","","","","-16","","NA"
"-115.78","60.84","HAY RIVER A","2202401","2018-03-15 23:00","2018","03","15","23:00","-12.9","","-14.5","","89","","","","28","","7","","24.1","","98.95","","","","-17","","Clear"
"-115.78","60.84","HAY RIVER A","2202401","2018-03-16 00:00","2018","03","16","00:00","-13.3","","-14.8","","88","","","","29","","9","","24.1","","98.97","","","","-19","","NA"
"-115.78","60.84","HAY RIVER A","2202401","2018-03-16 01:00","2018","03","16","01:00","-13.4","","-15.0","","88","","","","25","","5","","24.1","","98.95","","","","-17","","NA"
"-115.78","60.84","HAY RIVER A","2202401","2018-03-16 02:00","2018","03","16","02:00","-12.9","","-14.5","","88","","","","30","","14","","24.1","","99.00","","","","-20","","Clear"
"-115.78","60.84","HAY RIVER A","2202401","2018-03-16 03:00","2018","03","16","03:00","-13.3","","-14.7","","90","","","","28","","8","","24.1","","99.02","","","","-18","","NA"
"-115.78","60.84","HAY RIVER A","2202401","2018-03-16 04:00","2018","03","16","04:00","-13.8","","-15.4","","88","","","","30","","13","","24.1","","99.07","","","","-21","","NA"
"-115.78","60.84","HAY RIVER A","2202401","2018-03-16 05:00","2018","03","16","05:00","-13.2","","-14.5","","90","","","","28","","10","","24.1","","99.09","","","","-19","","Clear"
"-115.78","60.84","HAY RIVER A","2202401","2018-03-16 06:00","2018","03","16","06:00","-13.0","","-14.6","","88","","","","30","","15","","24.1","","99.18","","","","-20","","NA"
"-115.78","60.84","HAY RIVER A","2202401","2018-03-16 07:00","2018","03","16","07:00","-13.4","","-15.1","","87","","","","31","","22","","24.1","","99.29","","","","-23","","NA"
"-115.78","60.84","HAY RIVER A","2202401","2018-03-16 08:00","2018","03","16","08:00","-13.9","","-15.7","","87","","","","31","","20","","24.1","","99.39","","","","-23","","Mostly Cloudy"
"-115.78","60.84","HAY RIVER A","2202401","2018-03-16 09:00","2018","03","16","09:00","-14.4","","-16.3","","86","","","","31","","18","","24.1","","99.48","","","","-23","","NA"
"-115.78","60.84","HAY RIVER A","2202401","2018-03-16 10:00","2018","03","16","10:00","-13.1","","-15.6","","82","","","","32","","12","","24.1","","99.58","","","","-20","","NA"
"-115.78","60.84","HAY RIVER A","2202401","2018-03-16 11:00","2018","03","16","11:00","-11.5","","-15.1","","75","","","","32","","12","","24.1","","99.65","","","","-18","","Mainly Clear"
"-115.78","60.84","HAY RIVER A","2202401","2018-03-16 12:00","2018","03","16","12:00","-9.2","","-13.9","","69","","","","28","","10","","24.1","","99.70","","","","-14","","NA"
"-115.78","60.84","HAY RIVER A","2202401","2018-03-16 13:00","2018","03","16","13:00","-7.0","","-12.8","","64","","","","27","","7","","24.1","","99.76","","","","-11","","NA"
"-115.78","60.84","HAY RIVER A","2202401","2018-03-16 14:00","2018","03","16","14:00","-6.0","","-11.3","","66","","","","32","","13","","24.1","","99.78","","","","-11","","Mostly Cloudy"
"-115.78","60.84","HAY RIVER A","2202401","2018-03-16 15:00","2018","03","16","15:00","-5.6","","-10.1","","71","","","","33","","13","","24.1","","99.82","","","","-11","","NA"
"-115.78","60.84","HAY RIVER A","2202401","2018-03-16 16:00","2018","03","16","16:00","-5.1","","-9.6","","71","","","","32","","10","","24.1","","99.85","","","","-9","","NA"
"-115.78","60.84","HAY RIVER A","2202401","2018-03-16 17:00","2018","03","16","17:00","-4.5","","-10.1","","66","","","","31","","4","","24.1","","99.87","","","","-6","","Mostly Cloudy"
"-115.78","60.84","HAY RIVER A","2202401","2018-03-16 18:00","2018","03","16","18:00","-4.6","","-9.9","","67","","","","32","","5","","24.1","","99.86","","","","-7","","NA"
"-115.78","60.84","HAY RIVER A","2202401","2018-03-16 19:00","2018","03","16","19:00","-7.2","","-10.7","","76","","","","36","","3","","24.1","","99.88","","","","-9","","NA"
"-115.78","60.84","HAY RIVER A","2202401","2018-03-16 20:00","2018","03","16","20:00","-8.7","","-10.8","","84","","","","15","","5","","24.1","","99.92","","","","-11","","Mainly Clear"
"-115.78","60.84","HAY RIVER A","2202401","2018-03-16 21:00","2018","03","16","21:00","-9.7","","-11.4","","87","","","","36","","2","","24.1","","99.97","","","","-11","","NA"
"-115.78","60.84","HAY RIVER A","2202401","2018-03-16 22:00","2018","03","16","22:00","-10.8","","-12.8","","85","","","","17","","4","","24.1","","100.01","","","","-13","","NA"
"-115.78","60.84","HAY RIVER A","2202401","2018-03-16 23:00","2018","03","16","23:00","-11.3","","-12.7","","90","","","","36","","2","","24.1","","100.05","","","","-13","","Mainly Clear"
"-115.78","60.84","HAY RIVER A","2202401","2018-03-17 00:00","2018","03","17","00:00","-12.7","","-14.0","","90","","","","9","","5","","24.1","","100.03","","","","-16","","NA"
"-115.78","60.84","HAY RIVER A","2202401","2018-03-17 01:00","2018","03","17","01:00","-12.1","","-13.3","","90","","","","9","","8","","24.1","","100.04","","","","-17","","NA"
"-115.78","60.84","HAY RIVER A","2202401","2018-03-17 02:00","2018","03","17","02:00","-14.0","","-15.7","","87","","","","14","","5","","24.1","","100.02","","","","-17","","Mainly Clear"
"-115.78","60.84","HAY RIVER A","2202401","2018-03-17 03:00","2018","03","17","03:00","-12.0","","-13.3","","90","","","","15","","11","","24.1","","100.02","","","","-18","","NA"
"-115.78","60.84","HAY RIVER A","2202401","2018-03-17 04:00","2018","03","17","04:00","-12.0","","-13.5","","88","","","","14","","9","","24.1","","100.00","","","","-17","","NA"
"-115.78","60.84","HAY RIVER A","2202401","2018-03-17 05:00","2018","03","17","05:00","-12.1","","-13.9","","86","","","","15","","12","","24.1","","100.01","","","","-18","","Mainly Clear"
"-115.78","60.84","HAY RIVER A","2202401","2018-03-17 06:00","2018","03","17","06:00","-12.4","","-14.3","","86","","","","13","","7","","24.1","","100.07","","","","-17","","NA"
"-115.78","60.84","HAY RIVER A","2202401","2018-03-17 07:00","2018","03","17","07:00","-14.2","","-16.0","","87","","","","7","","10","","24.1","","100.09","","","","-20","","NA"
"-115.78","60.84","HAY RIVER A","2202401","2018-03-17 08:00","2018","03","17","08:00","-14.0","","-15.7","","87","","","","9","","11","","24.1","","100.11","","","","-20","","Mostly Cloudy"
"-115.78","60.84","HAY RIVER A","2202401","2018-03-17 09:00","2018","03","17","09:00","-11.9","","-14.2","","83","","","","8","","9","","24.1","","100.13","","","","-17","","NA"
"-115.78","60.84","HAY RIVER A","2202401","2018-03-17 10:00","2018","03","17","10:00","-9.6","","-13.2","","75","","","","7","","13","","24.1","","100.15","","","","-16","","NA"
"-115.78","60.84","HAY RIVER A","2202401","2018-03-17 11:00","2018","03","17","11:00","-8.8","","-13.2","","70","","","","7","","17","","24.1","","100.15","","","","-16","","Mostly Cloudy"
"-115.78","60.84","HAY RIVER A","2202401","2018-03-17 12:00","2018","03","17","12:00","-6.2","","-11.6","","66","","","","7","","17","","24.1","","100.13","","","","-12","","NA"
"-115.78","60.84","HAY RIVER A","2202401","2018-03-17 13:00","2018","03","17","13:00","-3.6","","-9.1","","66","","","","7","","19","","24.1","","100.12","","","","-10","","NA"
"-115.78","60.84","HAY RIVER A","2202401","2018-03-17 14:00","2018","03","17","14:00","-2.5","","-8.0","","66","","","","7","","16","","24.1","","100.13","","","","-8","","Mostly Cloudy"
"-115.78","60.84","HAY RIVER A","2202401","2018-03-17 15:00","2018","03","17","15:00","-3.2","","-7.6","","72","","","","7","","17","","24.1","","100.10","","","","-9","","NA"
"-115.78","60.84","HAY RIVER A","2202401","2018-03-17 16:00","2018","03","17","16:00","1.1","","-7.4","","53","","","","14","","14","","24.1","","100.06","","","","","","NA"
"-115.78","60.84","HAY RIVER A","2202401","2018-03-17 17:00","2018","03","17","17:00","1.7","","-8.3","","48","","","","14","","16","","24.1","","100.06","","","","","","Mostly Cloudy"
"-115.78","60.84","HAY RIVER A","2202401","2018-03-17 18:00","2018","03","17","18:00","1.1","","-8.5","","49","","","","14","","12","","24.1","","100.08","","","","","","NA"
"-115.78","60.84","HAY RIVER A","2202401","2018-03-17 19:00","2018","03","17","19:00","-1.8","","-8.9","","59","","","","12","","5","","24.1","","100.11","","","","-4","","NA"
"-115.78","60.84","HAY RIVER A","2202401","2018-03-17 20:00","2018","03","17","20:00","-2.9","","-9.1","","63","","","","15","","7","","24.1","","100.13","","","","-6","","Mainly Clear"
"-115.78","60.84","HAY RIVER A","2202401","2018-03-17 21:00","2018","03","17","21:00"
"-115.78","60.84","HAY RIVER A","2202401","2018-03-17 22:00","2018","03","17","22:00","-7.8","","-12.2","","71","","","","9","","14","","24.1","","100.17","","","","-14","","NA"
"-115.78","60.84","HAY RIVER A","2202401","2018-03-17 23:00","2018","03","17","23:00","-7.8","","-11.8","","73","","","","10","","10","","24.1","","100.17","","","","-13","","Mainly Clear"
"-115.78","60.84","HAY RIVER A","2202401","2018-03-18 00:00","2018","03","18","00:00","-8.5","","-11.8","","77","","","","12","","9","","24.1","","100.13","","","","-13","","NA"
"-115.78","60.84","HAY RIVER A","2202401","2018-03-18 01:00","2018","03","18","01:00","-7.7","","-11.4","","75","","","","9","","9","","24.1","","100.15","","","","-12","","NA"
"-115.78","60.84","HAY RIVER A","2202401","2018-03-18 02:00","2018","03","18","02:00","-8.0","","-11.3","","77","","","","14","","8","","24.1","","100.16","","","","-12","","Mostly Cloudy"
"-115.78","60.84","HAY RIVER A","2202401","2018-03-18 03:00","2018","03","18","03:00","-7.5","","-11.1","","76","","","","18","","7","","24.1","","100.18","","","","-11","","NA"
"-115.78","60.84","HAY RIVER A","2202401","2018-03-18 04:00","2018","03","18","04:00","-8.0","","-11.4","","77","","","","17","","8","","24.1","","100.16","","","","-12","","NA"
"-115.78","60.84","HAY RIVER A","2202401","2018-03-18 05:00","2018","03","18","05:00","-8.0","","-11.3","","77","","","","18","","10","","24.1","","100.15","","","","-13","","Mostly Cloudy"
"-115.78","60.84","HAY RIVER A","2202401","2018-03-18 06:00","2018","03","18","06:00","-8.5","","-11.3","","80","","","","18","","8","","24.1","","100.17","","","","-13","","NA"
"-115.78","60.84","HAY RIVER A","2202401","2018-03-18 07:00","2018","03","18","07:00","-9.2","","-11.6","","83","","","","16","","7","","24.1","","100.15","","","","-13","","NA"
"-115.78","60.84","HAY RIVER A","2202401","2018-03-18 08:00","2018","03","18","08:00","-8.2","","-11.5","","78","","","","19","","3","","24.1","","100.11","","","","-10","","Mainly Clear"
"-115.78","60.84","HAY RIVER A","2202401","2018-03-18 09:00","2018","03","18","09:00","-4.5","","-10.4","","64","","","","17","","10","","24.1","","100.13","","","","-9","","NA"
"-115.78","60.84","HAY RIVER A","2202401","2018-03-18 10:00","2018","03","18","10:00","-2.0","","-10.7","","52","","","","18","","12","","24.1","","100.12","","","","-6","","NA"
"-115.78","60.84","HAY RIVER A","2202401","2018-03-18 11:00","2018","03","18","11:00","0.3","","-8.7","","51","","","","17","","13","","24.1","","100.11","","","","","","Mainly Clear"
"-115.78","60.84","HAY RIVER A","2202401","2018-03-18 12:00","2018","03","18","12:00","2.4","","-9.9","","40","","","","19","","17","","24.1","","100.08","","","","","","NA"
"-115.78","60.84","HAY RIVER A","2202401","2018-03-18 13:00","2018","03","18","13:00","3.1","","-9.0","","41","","","","19","","19","","24.1","","100.04","","","","","","NA"
"-115.78","60.84","HAY RIVER A","2202401","2018-03-18 14:00","2018","03","18","14:00","3.4","","-7.1","","46","","","","16","","16","","24.1","","99.96","","","","","","Mainly Clear"
"-115.78","60.84","HAY RIVER A","2202401","2018-03-18 15:00","2018","03","18","15:00","3.4","","-7.5","","45","","","","17","","20","","24.1","","99.90","","","","","","NA"
"-115.78","60.84","HAY RIVER A","2202401","2018-03-18 16:00","2018","03","18","16:00","3.2","","-7.2","","46","","","","15","","17","","24.1","","99.84","","","","","","NA"
"-115.78","60.84","HAY RIVER A","2202401","2018-03-18 17:00","2018","03","18","17:00","2.9","","-6.9","","49","","","","16","","15","","24.1","","99.79","","","","","","Mainly Clear"
"-115.78","60.84","HAY RIVER A","2202401","2018-03-18 18:00","2018","03","18","18:00","2.0","","-7.2","","51","","","","17","","18","","24.1","","99.73","","","","","","NA"
"-115.78","60.84","HAY RIVER A","2202401","2018-03-18 19:00","2018","03","18","19:00","0.5","","-7.9","","54","","","","16","","14","","24.1","","99.69","","","","","","NA"
"-115.78","60.84","HAY RIVER A","2202401","2018-03-18 20:00","2018","03","18","20:00","-0.5","","-7.8","","58","","","","15","","16","","24.1","","99.62","","","","-5","","Mainly Clear"
"-115.78","60.84","HAY RIVER A","2202401","2018-03-18 21:00","2018","03","18","21:00","-2.3","","-8.0","","65","","","","16","","13","","24.1","","99.57","","","","-7","","NA"
"-115.78","60.84","HAY RIVER A","2202401","2018-03-18 22:00","2018","03","18","22:00","-2.6","","-8.2","","65","","","","17","","15","","24.1","","99.51","","","","-8","","NA"
"-115.78","60.84","HAY RIVER A","2202401","2018-03-18 23:00","2018","03","18","23:00","-1.9","","-8.5","","61","","","","18","","16","","24.1","","99.46","","","","-7","","Mainly Clear"
"-115.78","60.84","HAY RIVER A","2202401","2018-03-19 00:00","2018","03","19","00:00","-1.8","","-8.9","","59","","","","18","","15","","24.1","","99.38","","","","-7","","NA"
"-115.78","60.84","HAY RIVER A","2202401","2018-03-19 01:00","2018","03","19","01:00","-2.3","","-9.1","","60","","","","18","","16","","24.1","","99.32","","","","-7","","NA"
"-115.78","60.84","HAY RIVER A","2202401","2018-03-19 02:00","2018","03","19","02:00","-2.5","","-9.0","","61","","","","17","","19","","24.1","","99.26","","","","-8","","Mainly Clear"
"-115.78","60.84","HAY RIVER A","2202401","2018-03-19 03:00","2018","03","19","03:00","-2.2","","-9.1","","60","","","","18","","21","","24.1","","99.17","","","","-8","","NA"
"-115.78","60.84","HAY RIVER A","2202401","2018-03-19 04:00","2018","03","19","04:00","-1.9","","-9.2","","58","","","","18","","21","","24.1","","99.11","","","","-8","","NA"
"-115.78","60.84","HAY RIVER A","2202401","2018-03-19 05:00","2018","03","19","05:00","-1.4","","-9.5","","54","","","","18","","19","","24.1","","99.03","","","","-7","","Mainly Clear"
"-115.78","60.84","HAY RIVER A","2202401","2018-03-19 06:00","2018","03","19","06:00","-1.3","","-9.2","","55","","","","19","","17","","24.1","","98.96","","","","-6","","NA"
"-115.78","60.84","HAY RIVER A","2202401","2018-03-19 07:00","2018","03","19","07:00","-1.1","","-9.0","","55","","","","19","","15","","24.1","","98.90","","","","-6","","NA"
"-115.78","60.84","HAY RIVER A","2202401","2018-03-19 08:00","2018","03","19","08:00","-0.3","","-8.6","","54","","","","20","","14","","24.1","","98.86","","","","-5","","Mostly Cloudy"
"-115.78","60.84","HAY RIVER A","2202401","2018-03-19 09:00","2018","03","19","09:00","1.0","","-8.3","","50","","","","22","","14","","24.1","","98.85","","","","","","NA"
"-115.78","60.84","HAY RIVER A","2202401","2018-03-19 10:00","2018","03","19","10:00","1.5","","-6.5","","56","","","","24","","16","","24.1","","98.85","","","","","","NA"
"-115.78","60.84","HAY RIVER A","2202401","2018-03-19 11:00","2018","03","19","11:00","2.4","","-5.3","","57","","","","25","","14","","24.1","","98.82","","","","","","Mostly Cloudy"
"-115.78","60.84","HAY RIVER A","2202401","2018-03-19 12:00","2018","03","19","12:00","1.0","","-4.2","","68","","","","31","","18","","24.1","","98.84","","","","","","NA"
"-115.78","60.84","HAY RIVER A","2202401","2018-03-19 13:00","2018","03","19","13:00","0.2","","-4.3","","72","","","","32","","22","","24.1","","98.86","","","","","","NA"
"-115.78","60.84","HAY RIVER A","2202401","2018-03-19 14:00","2018","03","19","14:00","-0.4","","-4.9","","72","","","","32","","23","","24.1","","98.89","","","","-6","","Mostly Cloudy"
"-115.78","60.84","HAY RIVER A","2202401","2018-03-19 15:00","2018","03","19","15:00","-0.6","","-5.6","","69","","","","32","","23","","24.1","","98.93","","","","-6","","NA"
"-115.78","60.84","HAY RIVER A","2202401","2018-03-19 16:00","2018","03","19","16:00","-0.8","","-6.0","","68","","","","32","","27","","24.1","","98.97","","","","-7","","NA"
"-115.78","60.84","HAY RIVER A","2202401","2018-03-19 17:00","2018","03","19","17:00","-2.4","","-6.0","","76","","","","33","","27","","24.1","","99.02","","","","-9","","Mostly Cloudy"
"-115.78","60.84","HAY RIVER A","2202401","2018-03-19 18:00","2018","03","19","18:00","-3.9","","-7.2","","78","","","","33","","16","","24.1","","99.08","","","","-9","","NA"
"-115.78","60.84","HAY RIVER A","2202401","2018-03-19 19:00","2018","03","19","19:00","-3.6","","-6.6","","80","","","","31","","18","","24.1","","99.11","","","","-9","","NA"
"-115.78","60.84","HAY RIVER A","2202401","2018-03-19 20:00","2018","03","19","20:00","-4.0","","-6.7","","81","","","","31","","13","","24.1","","99.11","","","","-9","","Mostly Cloudy"
"-115.78","60.84","HAY RIVER A","2202401","2018-03-19 21:00","2018","03","19","21:00","-3.8","","-7.1","","78","","","","31","","15","","24.1","","99.12","","","","-9","","NA"
"-115.78","60.84","HAY RIVER A","2202401","2018-03-19 22:00","2018","03","19","22:00","-4.5","","-6.8","","85","","","","32","","17","","24.1","","99.13","","","","-10","","NA"
"-115.78","60.84","HAY RIVER A","2202401","2018-03-19 23:00","2018","03","19","23:00","-4.7","","-7.3","","82","","","","33","","10","","24.1","","99.15","","","","-9","","Mostly Cloudy"
"-115.78","60.84","HAY RIVER A","2202401","2018-03-20 00:00","2018","03","20","00:00","-4.6","","-7.3","","82","","","","34","","8","","24.1","","99.15","","","","-8","","NA"
"-115.78","60.84","HAY RIVER A","2202401","2018-03-20 01:00","2018","03","20","01:00","-4.3","","-6.9","","82","","","","33","","9","","24.1","","99.17","","","","-8","","NA"
"-115.78","60.84","HAY RIVER A","2202401","2018-03-20 02:00","2018","03","20","02:00","-4.4","","-7.4","","80","","","","35","","7","","24.1","","99.20","","","","-8","","Cloudy"
"-115.78","60.84","HAY RIVER A","2202401","2018-03-20 03:00","2018","03","20","03:00","-6.5","","-9.3","","80","","","","35","","9","","24.1","","99.22","","","","-11","","NA"
"-115.78","60.84","HAY RIVER A","2202401","2018-03-20 04:00","2018","03","20","04:00","-9.0","","-11.3","","83","","","","3","","10","","24.1","","99.26","","","","-14","","NA"
"-115.78","60.84","HAY RIVER A","2202401","2018-03-20 05:00","2018","03","20","05:00","-10.2","","-12.7","","82","","","","3","","8","","24.1","","99.33","","","","-15","","Mainly Clear"
"-115.78","60.84","HAY RIVER A","2202401","2018-03-20 06:00","2018","03","20","06:00","-12.0","","-14.2","","84","","","","3","","9","","24.1","","99.39","","","","-17","","NA"
"-115.78","60.84","HAY RIVER A","2202401","2018-03-20 07:00","2018","03","20","07:00","-12.9","","-15.2","","83","","","","5","","12","","24.1","","99.44","","","","-19","","NA"
"-115.78","60.84","HAY RIVER A","2202401","2018-03-20 08:00","2018","03","20","08:00","-13.6","","-16.2","","81","","","","6","","8","","24.1","","99.49","","","","-19","","Mostly Cloudy"
"-115.78","60.84","HAY RIVER A","2202401","2018-03-20 09:00","2018","03","20","09:00","-13.6","","-17.0","","76","","","","6","","13","","24.1","","99.54","","","","-21","","NA"
"-115.78","60.84","HAY RIVER A","2202401","2018-03-20 10:00","2018","03","20","10:00","-13.7","","-17.4","","74","","","","6","","13","","24.1","","99.58","","","","-21","","NA"
"-115.78","60.84","HAY RIVER A","2202401","2018-03-20 11:00","2018","03","20","11:00","-13.3","","-17.6","","70","","","","5","","14","","24.1","","99.65","","","","-21","","Mostly Cloudy"
"-115.78","60.84","HAY RIVER A","2202401","2018-03-20 12:00","2018","03","20","12:00","-13.6","","-17.7","","71","","","","3","","14","","24.1","","99.70","","","","-21","","NA"
"-115.78","60.84","HAY RIVER A","2202401","2018-03-20 13:00","2018","03","20","13:00","-13.3","","-17.6","","70","","","","2","","12","","24.1","","99.75","","","","-20","","NA"
"-115.78","60.84","HAY RIVER A","2202401","2018-03-20 14:00","2018","03","20","14:00","-13.6","","-17.8","","71","","","","7","","18","","24.1","","99.80","","","","-22","","Mainly Clear"
"-115.78","60.84","HAY RIVER A","2202401","2018-03-20 15:00","2018","03","20","15:00","-13.3","","-17.7","","70","","","","6","","19","","24.1","","99.86","","","","-22","","NA"
"-115.78","60.84","HAY RIVER A","2202401","2018-03-20 16:00","2018","03","20","16:00","-12.7","","-17.1","","70","","","","6","","14","","24.1","","99.91","","","","-20","","NA"
"-115.78","60.84","HAY RIVER A","2202401","2018-03-20 17:00","2018","03","20","17:00","-12.7","","-17.4","","68","","","","6","","15","","24.1","","99.96","","","","-20","","Mainly Clear"
"-115.78","60.84","HAY RIVER A","2202401","2018-03-20 18:00","2018","03","20","18:00","-13.1","","-17.0","","72","","","","5","","10","","24.1","","100.00","","","","-19","","NA"
"-115.78","60.84","HAY RIVER A","2202401","2018-03-20 19:00","2018","03","20","19:00","-14.4","","-17.7","","76","","","","4","","7","","24.1","","100.04","","","","-19","","NA"
"-115.78","60.84","HAY RIVER A","2202401","2018-03-20 20:00","2018","03","20","20:00","-15.0","","-17.9","","79","","","","4","","11","","24.1","","100.09","","","","-22","","Mainly Clear"
"-115.78","60.84","HAY RIVER A","2202401","2018-03-20 21:00","2018","03","20","21:00","-16.4","","-18.7","","82","","","","6","","10","","24.1","","100.16","","","","-23","","NA"
"-115.78","60.84","HAY RIVER A","2202401","2018-03-20 22:00","2018","03","20","22:00","-17.4","","-20.8","","75","","","","6","","14","","24.1","","100.21","","","","-26","","NA"
"-115.78","60.84","HAY RIVER A","2202401","2018-03-20 23:00","2018","03","20","23:00","-18.3","","-21.3","","78","","","","7","","16","","24.1","","100.27","","","","-27","","Mainly Clear"
"-115.78","60.84","HAY RIVER A","2202401","2018-03-21 00:00","2018","03","21","00:00","-18.0","","-20.8","","79","","","","6","","12","","24.1","","100.36","","","","-26","","NA"
"-115.78","60.84","HAY RIVER A","2202401","2018-03-21 01:00","2018","03","21","01:00","-18.2","","-20.9","","79","","","","5","","15","","24.1","","100.41","","","","-27","","NA"
"-115.78","60.84","HAY RIVER A","2202401","2018-03-21 02:00","2018","03","21","02:00","-18.6","","-21.3","","79","","","","5","","12","","24.1","","100.49","","","","-26","","Cloudy"
"-115.78","60.84","HAY RIVER A","2202401","2018-03-21 03:00","2018","03","21","03:00","-19.2","","-22.2","","78","","","","5","","13","","24.1","","100.56","","","","-27","","NA"
"-115.78","60.84","HAY RIVER A","2202401","2018-03-21 04:00","2018","03","21","04:00","-19.5","","-22.6","","77","","","","5","","10","","24.1","","100.65","","","","-27","","NA"
"-115.78","60.84","HAY RIVER A","2202401","2018-03-21 05:00","2018","03","21","05:00","-20.3","","-23.2","","78","","","","4","","9","","24.1","","100.75","","","","-27","","Snow"
"-115.78","60.84","HAY RIVER A","2202401","2018-03-21 06:00","2018","03","21","06:00","-20.9","","-23.9","","78","","","","4","","11","","24.1","","100.83","","","","-29","","Snow"
"-115.78","60.84","HAY RIVER A","2202401","2018-03-21 07:00","2018","03","21","07:00","-22.8","","-25.9","","77","","","","2","","10","","24.1","","100.92","","","","-31","","Snow"
"-115.78","60.84","HAY RIVER A","2202401","2018-03-21 08:00","2018","03","21","08:00","-22.5","","-25.8","","75","","","","3","","10","","24.1","","100.96","","","","-30","","Snow"
"-115.78","60.84","HAY RIVER A","2202401","2018-03-21 09:00","2018","03","21","09:00","-22.0","","-25.5","","74","","","","4","","8","","24.1","","101.02","","","","-29","","NA"
"-115.78","60.84","HAY RIVER A","2202401","2018-03-21 10:00","2018","03","21","10:00","-22.0","","-25.9","","71","","","","2","","14","","24.1","","101.08","","","","-31","","NA"
"-115.78","60.84","HAY RIVER A","2202401","2018-03-21 11:00","2018","03","21","11:00","-20.6","","-24.9","","69","","","","5","","15","","24.1","","101.16","","","","-30","","Mainly Clear"
"-115.78","60.84","HAY RIVER A","2202401","2018-03-21 12:00","2018","03","21","12:00","-20.7","","-25.1","","68","","","","1","","14","","24.1","","101.24","","","","-30","","NA"
"-115.78","60.84","HAY RIVER A","2202401","2018-03-21 13:00","2018","03","21","13:00","-20.4","","-24.8","","69","","","","36","","17","","24.1","","101.29","","","","-30","","NA"
"-115.78","60.84","HAY RIVER A","2202401","2018-03-21 14:00","2018","03","21","14:00","-19.5","","-24.0","","68","","","","6","","13","","24.1","","101.33","","","","-28","","Mainly Clear"
"-115.78","60.84","HAY RIVER A","2202401","2018-03-21 15:00","2018","03","21","15:00","-18.7","","-23.2","","68","","","","2","","13","","24.1","","101.38","","","","-27","","NA"
"-115.78","60.84","HAY RIVER A","2202401","2018-03-21 16:00","2018","03","21","16:00","-18.4","","-22.8","","69","","","","2","","13","","24.1","","101.41","","","","-26","","NA"
"-115.78","60.84","HAY RIVER A","2202401","2018-03-21 17:00","2018","03","21","17:00","-18.5","","-22.4","","72","","","","3","","14","","24.1","","101.47","","","","-27","","Clear"
"-115.78","60.84","HAY RIVER A","2202401","2018-03-21 18:00","2018","03","21","18:00","-18.7","","-22.3","","74","","","","5","","10","","24.1","","101.52","","","","-26","","NA"
"-115.78","60.84","HAY RIVER A","2202401","2018-03-21 19:00","2018","03","21","19:00","-19.9","","-22.8","","78","","","","4","","7","","24.1","","101.54","","","","-26","","NA"
"-115.78","60.84","HAY RIVER A","2202401","2018-03-21 20:00","2018","03","21","20:00","-20.9","","-23.5","","80","","","","3","","6","","24.1","","101.58","","","","-26","","Clear"
"-115.78","60.84","HAY RIVER A","2202401","2018-03-21 21:00","2018","03","21","21:00","-21.0","","-23.8","","78","","","","6","","10","","24.1","","101.62","","","","-28","","NA"
"-115.78","60.84","HAY RIVER A","2202401","2018-03-21 22:00","2018","03","21","22:00","-21.2","","-24.3","","77","","","","7","","13","","24.1","","101.64","","","","-30","","NA"
"-115.78","60.84","HAY RIVER A","2202401","2018-03-21 23:00","2018","03","21","23:00","-22.2","","-25.4","","76","","","","7","","16","","24.1","","101.66","","","","-32","","Clear"
"-115.78","60.84","HAY RIVER A","2202401","2018-03-22 00:00","2018","03","22","00:00","-23.0","","-26.1","","76","","","","8","","18","","24.1","","101.72","","","","-34","","NA"
"-115.78","60.84","HAY RIVER A","2202401","2018-03-22 01:00","2018","03","22","01:00","-23.3","","-26.5","","76","","","","8","","15","","24.1","","101.73","","","","-33","","NA"
"-115.78","60.84","HAY RIVER A","2202401","2018-03-22 02:00","2018","03","22","02:00","-23.1","","-26.5","","74","","","","7","","10","","24.1","","101.77","","","","-31","","Clear"
"-115.78","60.84","HAY RIVER A","2202401","2018-03-22 03:00","2018","03","22","03:00","-23.5","","-26.9","","74","","","","7","","12","","24.1","","101.80","","","","-32","","NA"
"-115.78","60.84","HAY RIVER A","2202401","2018-03-22 04:00","2018","03","22","04:00","-24.0","","-27.5","","74","","","","7","","14","","24.1","","101.80","","","","-34","","NA"
"-115.78","60.84","HAY RIVER A","2202401","2018-03-22 05:00","2018","03","22","05:00","-24.7","","-28.0","","75","","","","7","","9","","24.1","","101.79","","","","-32","","Clear"
"-115.78","60.84","HAY RIVER A","2202401","2018-03-22 06:00","2018","03","22","06:00","-25.4","","-28.5","","76","","","","4","","6","","24.1","","101.82","","","","-31","","NA"
"-115.78","60.84","HAY RIVER A","2202401","2018-03-22 07:00","2018","03","22","07:00","-25.8","","-28.8","","76","","","","6","","9","","24.1","","101.79","","","","-34","","NA"
"-115.78","60.84","HAY RIVER A","2202401","2018-03-22 08:00","2018","03","22","08:00","-25.2","","-28.9","","72","","","","7","","13","","24.1","","101.74","","","","-35","","Clear"
"-115.78","60.84","HAY RIVER A","2202401","2018-03-22 09:00","2018","03","22","09:00","-23.5","","-27.7","","69","","","","8","","8","","24.1","","101.72","","","","-30","","NA"
"-115.78","60.84","HAY RIVER A","2202401","2018-03-22 10:00","2018","03","22","10:00","-21.7","","-26.6","","65","","","","8","","10","","24.1","","101.71","","","","-29","","NA"
"-115.78","60.84","HAY RIVER A","2202401","2018-03-22 11:00","2018","03","22","11:00","-19.5","","-25.3","","61","","","","33","","5","","24.1","","101.70","","","","-24","","Mainly Clear"
"-115.78","60.84","HAY RIVER A","2202401","2018-03-22 12:00","2018","03","22","12:00","-20.0","","-25.4","","63","","","","4","","10","","24.1","","101.62","","","","-27","","NA"
"-115.78","60.84","HAY RIVER A","2202401","2018-03-22 13:00","2018","03","22","13:00","-19.7","","-24.7","","65","","","","4","","10","","24.1","","101.58","","","","-27","","NA"
"-115.78","60.84","HAY RIVER A","2202401","2018-03-22 14:00","2018","03","22","14:00","-18.9","","-23.8","","66","","","","6","","6","","24.1","","101.51","","","","-24","","Mostly Cloudy"
"-115.78","60.84","HAY RIVER A","2202401","2018-03-22 15:00","2018","03","22","15:00","-18.6","","-23.5","","66","","","","5","","12","","24.1","","101.40","","","","-26","","NA"
"-115.78","60.84","HAY RIVER A","2202401","2018-03-22 16:00","2018","03","22","16:00","-18.6","","-23.2","","68","","","","7","","17","","24.1","","101.30","","","","-28","","NA"
"-115.78","60.84","HAY RIVER A","2202401","2018-03-22 17:00","2018","03","22","17:00","-18.5","","-22.7","","70","","","","6","","11","","24.1","","101.20","","","","-26","","Mostly Cloudy"
"-115.78","60.84","HAY RIVER A","2202401","2018-03-22 18:00","2018","03","22","18:00","-18.3","","-21.9","","74","","","","6","","10","","24.1","","101.16","","","","-25","","NA"
"-115.78","60.84","HAY RIVER A","2202401","2018-03-22 19:00","2018","03","22","19:00","-18.1","","-21.5","","75","","","","4","","6","","24.1","","101.10","","","","-23","","NA"
"-115.78","60.84","HAY RIVER A","2202401","2018-03-22 20:00","2018","03","22","20:00","-18.8","","-21.6","","78","","","","4","","8","","24.1","","100.99","","","","-25","","Mostly Cloudy"
"-115.78","60.84","HAY RIVER A","2202401","2018-03-22 21:00","2018","03","22","21:00","-19.1","","-21.4","","82","","","","3","","5","","24.1","","100.89","","","","-23","","NA"
"-115.78","60.84","HAY RIVER A","2202401","2018-03-22 22:00","2018","03","22","22:00","-18.9","","-21.3","","81","","","","7","","9","","24.1","","100.76","","","","-25","","NA"
"-115.78","60.84","HAY RIVER A","2202401","2018-03-22 23:00","2018","03","22","23:00","-19.4","","-22.1","","80","","","","7","","10","","24.1","","100.66","","","","-26","","Mainly Clear"
"-115.78","60.84","HAY RIVER A","2202401","2018-03-23 00:00","2018","03","23","00:00","-19.9","","-22.8","","78","","","","7","","14","","24.1","","100.56","","","","-29","","NA"
"-115.78","60.84","HAY RIVER A","2202401","2018-03-23 01:00","2018","03","23","01:00","-20.2","","-23.1","","79","","","","7","","9","","22.5","","100.49","","","","-27","","NA"
"-115.78","60.84","HAY RIVER A","2202401","2018-03-23 02:00","2018","03","23","02:00","-19.1","","-22.1","","77","","","","7","","13","","24.1","","100.39","","","","-27","","Mostly Cloudy"
"-115.78","60.84","HAY RIVER A","2202401","2018-03-23 03:00","2018","03","23","03:00","-17.6","","-20.2","","80","","","","8","","13","","24.1","","100.29","","","","-25","","NA"
"-115.78","60.84","HAY RIVER A","2202401","2018-03-23 04:00","2018","03","23","04:00","-16.3","","-17.7","","89","","","","7","","13","","24.1","","100.20","","","","-24","","NA"
"-115.78","60.84","HAY RIVER A","2202401","2018-03-23 05:00","2018","03","23","05:00","-14.7","","-16.4","","87","","","","7","","16","","24.1","","100.12","","","","-23","","Cloudy"
"-115.78","60.84","HAY RIVER A","2202401","2018-03-23 06:00","2018","03","23","06:00","-13.7","","-15.3","","88","","","","8","","19","","24.1","","100.04","","","","-22","","Snow"
"-115.78","60.84","HAY RIVER A","2202401","2018-03-23 07:00","2018","03","23","07:00","-13.3","","-14.8","","88","","","","6","","14","","16.1","","99.94","","","","-21","","Snow"
"-115.78","60.84","HAY RIVER A","2202401","2018-03-23 08:00","2018","03","23","08:00","-13.0","","-14.5","","89","","","","6","","16","","3.2","","99.86","","","","-21","","Snow"
"-115.78","60.84","HAY RIVER A","2202401","2018-03-23 09:00","2018","03","23","09:00","-12.9","","-14.6","","88","","","","4","","11","","1.6","","99.78","","","","-19","","Snow"
"-115.78","60.84","HAY RIVER A","2202401","2018-03-23 10:00","2018","03","23","10:00","-13.2","","-14.9","","87","","","","4","","16","","1.2","","99.67","","","","-21","","Snow"
"-115.78","60.84","HAY RIVER A","2202401","2018-03-23 11:00","2018","03","23","11:00","-13.0","","-14.8","","87","","","","4","","18","","1.2","","99.57","","","","-21","","Snow"
"-115.78","60.84","HAY RIVER A","2202401","2018-03-23 12:00","2018","03","23","12:00","-12.5","","-14.4","","86","","","","5","","17","","1.2","","99.49","","","","-20","","Snow"
"-115.78","60.84","HAY RIVER A","2202401","2018-03-23 13:00","2018","03","23","13:00","-11.8","","-14.0","","84","","","","3","","14","","1.2","","99.38","","","","-19","","Snow,Blowing Snow"
"-115.78","60.84","HAY RIVER A","2202401","2018-03-23 14:00","2018","03","23","14:00","-11.8","","-13.9","","85","","","","3","","17","","1.2","","99.25","","","","-19","","Snow,Blowing Snow"
"-115.78","60.84","HAY RIVER A","2202401","2018-03-23 15:00","2018","03","23","15:00","-11.4","","-13.4","","86","","","","4","","17","","1.2","","99.16","","","","-19","","Snow,Blowing Snow"
"-115.78","60.84","HAY RIVER A","2202401","2018-03-23 16:00","2018","03","23","16:00","-11.4","","-13.2","","87","","","","2","","17","","1.2","","99.11","","","","-19","","Snow,Blowing Snow"
"-115.78","60.84","HAY RIVER A","2202401","2018-03-23 17:00","2018","03","23","17:00","-11.6","","-13.4","","87","","","","2","","17","","0.8","","99.02","","","","-19","","Moderate Snow,Blowing Snow"
"-115.78","60.84","HAY RIVER A","2202401","2018-03-23 18:00","2018","03","23","18:00","-11.7","","-13.6","","86","","","","36","","16","","0.8","","98.98","","","","-19","","Moderate Snow,Blowing Snow"
"-115.78","60.84","HAY RIVER A","2202401","2018-03-23 19:00","2018","03","23","19:00","-12.2","","-14.0","","86","","","","34","","16","","1.0","","98.92","","","","-20","","Snow,Blowing Snow"
"-115.78","60.84","HAY RIVER A","2202401","2018-03-23 20:00","2018","03","23","20:00","-12.1","","-13.9","","86","","","","34","","16","","1.2","","98.90","","","","-20","","Snow,Blowing Snow"
"-115.78","60.84","HAY RIVER A","2202401","2018-03-23 21:00","2018","03","23","21:00","-12.1","","-14.0","","86","","","","34","","16","","1.2","","98.85","","","","-20","","Snow,Blowing Snow"
"-115.78","60.84","HAY RIVER A","2202401","2018-03-23 22:00","2018","03","23","22:00","-12.4","","-14.4","","85","","","","34","","14","","2.4","","98.80","","","","-19","","Snow,Blowing Snow"
"-115.78","60.84","HAY RIVER A","2202401","2018-03-23 23:00","2018","03","23","23:00","-12.7","","-14.7","","85","","","","33","","17","","2.4","","98.76","","","","-21","","Snow,Blowing Snow"
"-115.78","60.84","HAY RIVER A","2202401","2018-03-24 00:00","2018","03","24","00:00","-13.1","","-14.9","","86","","","","32","","22","","2.4","","98.73","","","","-22","","Snow,Blowing Snow"
"-115.78","60.84","HAY RIVER A","2202401","2018-03-24 01:00","2018","03","24","01:00","-13.6","","-15.5","","86","","","","33","","22","","2.8","","98.71","","","","-23","","Snow,Blowing Snow"
"-115.78","60.84","HAY RIVER A","2202401","2018-03-24 02:00","2018","03","24","02:00","-14.5","","-16.7","","84","","","","33","","26","","2.8","","98.71","","","","-25","","Snow,Blowing Snow"
"-115.78","60.84","HAY RIVER A","2202401","2018-03-24 03:00","2018","03","24","03:00","-14.8","","-16.9","","84","","","","32","","26","","4.0","","98.67","","","","-25","","Snow,Blowing Snow"
"-115.78","60.84","HAY RIVER A","2202401","2018-03-24 04:00","2018","03","24","04:00","-14.7","","-16.8","","84","","","","31","","23","","4.8","","98.67","","","","-24","","Snow,Blowing Snow"
"-115.78","60.84","HAY RIVER A","2202401","2018-03-24 05:00","2018","03","24","05:00","-15.2","","-17.5","","83","","","","31","","32","","4.0","","98.67","","","","-27","","Snow,Blowing Snow"
"-115.78","60.84","HAY RIVER A","2202401","2018-03-24 06:00","2018","03","24","06:00","-15.4","","-17.7","","83","","","","30","","32","","3.2","","98.67","","","","-27","","Snow,Blowing Snow"
"-115.78","60.84","HAY RIVER A","2202401","2018-03-24 07:00","2018","03","24","07:00","-15.7","","-18.1","","82","","","","31","","33","","4.8","","98.68","","","","-27","","Snow,Blowing Snow"
"-115.78","60.84","HAY RIVER A","2202401","2018-03-24 08:00","2018","03","24","08:00","-16.2","","-18.6","","82","","","","30","","31","","4.8","","98.70","","","","-28","","Snow,Blowing Snow"
"-115.78","60.84","HAY RIVER A","2202401","2018-03-24 09:00","2018","03","24","09:00","-15.8","","-18.6","","80","","","","31","","35","","16.1","","98.73","","","","-28","","Snow,Blowing Snow"
"-115.78","60.84","HAY RIVER A","2202401","2018-03-24 10:00","2018","03","24","10:00","-15.6","","-18.6","","78","","","","31","","34","","16.1","","98.79","","","","-27","","Snow,Blowing Snow"
"-115.78","60.84","HAY RIVER A","2202401","2018-03-24 11:00","2018","03","24","11:00","-15.2","","-18.3","","78","","","","31","","34","","8.1","","98.83","","","","-27","","Snow,Blowing Snow"
"-115.78","60.84","HAY RIVER A","2202401","2018-03-24 12:00","2018","03","24","12:00","-15.0","","-18.2","","77","","","","31","","37","","4.8","","98.91","","","","-27","","Snow,Blowing Snow"
"-115.78","60.84","HAY RIVER A","2202401","2018-03-24 13:00","2018","03","24","13:00","-15.5","","-18.7","","77","","","","32","","42","","4.8","","98.98","","","","-28","","Snow,Blowing Snow"
"-115.78","60.84","HAY RIVER A","2202401","2018-03-24 14:00","2018","03","24","14:00","-15.4","","-18.8","","75","","","","32","","38","","8.1","","99.04","","","","-28","","Snow,Blowing Snow"
"-115.78","60.84","HAY RIVER A","2202401","2018-03-24 15:00","2018","03","24","15:00","-15.4","","-18.8","","75","","","","32","","32","","16.1","","99.14","","","","-27","","Snow,Blowing Snow"
"-115.78","60.84","HAY RIVER A","2202401","2018-03-24 16:00","2018","03","24","16:00","-15.1","","-18.3","","77","","","","32","","31","","16.1","","99.19","","","","-26","","Snow,Blowing Snow"
"-115.78","60.84","HAY RIVER A","2202401","2018-03-24 17:00","2018","03","24","17:00","-15.7","","-19.5","","73","","","","32","","28","","24.1","","99.26","","","","-27","","Blowing Snow"
"-115.78","60.84","HAY RIVER A","2202401","2018-03-24 18:00","2018","03","24","18:00","-16.7","","-20.6","","72","","","","31","","23","","24.1","","99.32","","","","-27","","NA"
"-115.78","60.84","HAY RIVER A","2202401","2018-03-24 19:00","2018","03","24","19:00","-19.6","","-22.9","","75","","","","32","","16","","24.1","","99.38","","","","-29","","NA"
"-115.78","60.84","HAY RIVER A","2202401","2018-03-24 20:00","2018","03","24","20:00","-19.0","","-22.8","","72","","","","32","","24","","24.1","","99.43","","","","-30","","Mainly Clear"
"-115.78","60.84","HAY RIVER A","2202401","2018-03-24 21:00","2018","03","24","21:00","-19.9","","-23.7","","72","","","","31","","21","","24.1","","99.49","","","","-31","","NA"
"-115.78","60.84","HAY RIVER A","2202401","2018-03-24 22:00","2018","03","24","22:00","-19.8","","-23.3","","74","","","","31","","25","","24.1","","99.52","","","","-31","","NA"
"-115.78","60.84","HAY RIVER A","2202401","2018-03-24 23:00","2018","03","24","23:00","-20.2","","-23.4","","76","","","","31","","23","","24.1","","99.55","","","","-31","","Mainly Clear"
"-115.78","60.84","HAY RIVER A","2202401","2018-03-25 00:00","2018","03","25","00:00","-21.2","","-23.9","","79","","","","30","","24","","24.1","","99.57","","","","-33","","NA"
"-115.78","60.84","HAY RIVER A","2202401","2018-03-25 01:00","2018","03","25","01:00","-22.0","","-24.5","","81","","","","31","","19","","24.1","","99.61","","","","-33","","NA"
"-115.78","60.84","HAY RIVER A","2202401","2018-03-25 02:00","2018","03","25","02:00","-22.5","","-24.9","","81","","","","31","","21","","24.1","","99.64","","","","-34","","Clear"
"-115.78","60.84","HAY RIVER A","2202401","2018-03-25 03:00","2018","03","25","03:00","-24.4","","-26.9","","80","","","","32","","16","","24.1","","99.68","","","","-35","","NA"
"-115.78","60.84","HAY RIVER A","2202401","2018-03-25 04:00","2018","03","25","04:00","-25.5","","-28.1","","79","","","","31","","12","","24.1","","99.71","","","","-35","","NA"
"-115.78","60.84","HAY RIVER A","2202401","2018-03-25 05:00","2018","03","25","05:00","-26.3","","-28.9","","79","","","","30","","11","","24.1","","99.72","","","","-35","","Clear"
"-115.78","60.84","HAY RIVER A","2202401","2018-03-25 06:00","2018","03","25","06:00","-26.0","","-28.6","","79","","","","30","","5","","24.1","","99.78","","","","-31","","NA"
"-115.78","60.84","HAY RIVER A","2202401","2018-03-25 07:00","2018","03","25","07:00","-29.2","","-32.1","","76","","","","24","","8","","24.1","","99.80","","","","-37","","NA"
"-115.78","60.84","HAY RIVER A","2202401","2018-03-25 08:00","2018","03","25","08:00","-25.9","","-28.6","","79","","","","27","","9","","24.1","","99.83","","","","-34","","Mainly Clear"
"-115.78","60.84","HAY RIVER A","2202401","2018-03-25 09:00","2018","03","25","09:00","-23.7","","-26.3","","79","","","","29","","17","","24.1","","99.86","","","","-34","","NA"
"-115.78","60.84","HAY RIVER A","2202401","2018-03-25 10:00","2018","03","25","10:00","-23.1","","-25.7","","79","","","","30","","17","","24.1","","99.88","","","","-34","","NA"
"-115.78","60.84","HAY RIVER A","2202401","2018-03-25 11:00","2018","03","25","11:00","-22.4","","-25.1","","79","","","","31","","14","","24.1","","99.90","","","","-32","","Mainly Clear"
"-115.78","60.84","HAY RIVER A","2202401","2018-03-25 12:00","2018","03","25","12:00","-21.3","","-24.3","","78","","","","33","","11","","24.1","","99.90","","","","-29","","NA"
"-115.78","60.84","HAY RIVER A","2202401","2018-03-25 13:00","2018","03","25","13:00","-20.2","","-25.0","","66","","","","33","","11","","24.1","","99.88","","","","-28","","NA"
"-115.78","60.84","HAY RIVER A","2202401","2018-03-25 14:00","2018","03","25","14:00","-18.9","","-24.6","","62","","","","33","","12","","24.1","","99.87","","","","-27","","Mainly Clear"
"-115.78","60.84","HAY RIVER A","2202401","2018-03-25 15:00","2018","03","25","15:00","-18.7","","-24.4","","61","","","","31","","13","","24.1","","99.86","","","","-27","","NA"
"-115.78","60.84","HAY RIVER A","2202401","2018-03-25 16:00","2018","03","25","16:00","-19.2","","-24.5","","63","","","","30","","8","","24.1","","99.87","","","","-25","","NA"
"-115.78","60.84","HAY RIVER A","2202401","2018-03-25 17:00","2018","03","25","17:00","-17.7","","-24.6","","56","","","","34","","9","","24.1","","99.84","","","","-24","","Mainly Clear"
"-115.78","60.84","HAY RIVER A","2202401","2018-03-25 18:00","2018","03","25","18:00","-19.4","","-25.6","","59","","","","36","","1","","24.1","","99.83","","","","-20","","NA"
"-115.78","60.84","HAY RIVER A","2202401","2018-03-25 19:00","2018","03","25","19:00","-20.1","","-24.1","","71","","","","10","","4","","24.1","","99.84","","","","-24","","NA"
"-115.78","60.84","HAY RIVER A","2202401","2018-03-25 20:00","2018","03","25","20:00","-23.4","","-25.8","","81","","","","36","","2","","24.1","","99.84","","","","-25","","Mostly Cloudy"
"-115.78","60.84","HAY RIVER A","2202401","2018-03-25 21:00","2018","03","25","21:00","-24.4","","-26.7","","82","","","","11","","3","","24.1","","99.84","","","","-27","","NA"
"-115.78","60.84","HAY RIVER A","2202401","2018-03-25 22:00","2018","03","25","22:00","-26.2","","-28.4","","82","","","","11","","4","","24.1","","99.84","","","","-30","","NA"
"-115.78","60.84","HAY RIVER A","2202401","2018-03-25 23:00","2018","03","25","23:00","-26.0","","-28.7","","79","","","","17","","5","","24.1","","99.85","","","","-31","","Mainly Clear"
"-115.78","60.84","HAY RIVER A","2202401","2018-03-26 00:00","2018","03","26","00:00","-26.8","","-29.5","","79","","","","36","","2","","24.1","","99.85","","","","-29","","NA"
"-115.78","60.84","HAY RIVER A","2202401","2018-03-26 01:00","2018","03","26","01:00","-29.7","","-33.2","","73","","","","36","","1","","24.1","","99.83","","","","-31","","NA"
"-115.78","60.84","HAY RIVER A","2202401","2018-03-26 02:00","2018","03","26","02:00","-28.7","","-31.3","","78","","","","13","","3","","24.1","","99.84","","","","-32","","Mainly Clear"
"-115.78","60.84","HAY RIVER A","2202401","2018-03-26 03:00","2018","03","26","03:00","-30.3","","-33.8","","73","","","","15","","4","","24.1","","99.85","","","","-35","","NA"
"-115.78","60.84","HAY RIVER A","2202401","2018-03-26 04:00","2018","03","26","04:00","-30.1","","-33.2","","75","","","","17","","3","","24.1","","99.85","","","","-33","","NA"
"-115.78","60.84","HAY RIVER A","2202401","2018-03-26 05:00","2018","03","26","05:00","-32.2","","-35.7","","72","","","","25","","3","","24.1","","99.85","","","","-36","","Mainly Clear"
"-115.78","60.84","HAY RIVER A","2202401","2018-03-26 06:00","2018","03","26","06:00","-32.9","","-36.6","","70","","","","0","","1","","24.1","","99.87","","","","-34","","NA"
"-115.78","60.84","HAY RIVER A","2202401","2018-03-26 07:00","2018","03","26","07:00","-33.5","","-36.9","","72","","","","25","","4","","24.1","","99.89","","","","-38","","NA"
"-115.78","60.84","HAY RIVER A","2202401","2018-03-26 08:00","2018","03","26","08:00","-29.7","","-32.6","","77","","","","26","","6","","24.1","","99.91","","","","-36","","Mainly Clear"
"-115.78","60.84","HAY RIVER A","2202401","2018-03-26 09:00","2018","03","26","09:00","-26.2","","-28.9","","79","","","","31","","7","","24.1","","99.91","","","","-33","","NA"
"-115.78","60.84","HAY RIVER A","2202401","2018-03-26 10:00","2018","03","26","10:00","-25.5","","-28.3","","78","","","","30","","8","","24.1","","99.93","","","","-33","","NA"
"-115.78","60.84","HAY RIVER A","2202401","2018-03-26 11:00","2018","03","26","11:00","-22.6","","-25.5","","78","","","","33","","13","","24.1","","99.94","","","","-32","","Mainly Clear"
"-115.78","60.84","HAY RIVER A","2202401","2018-03-26 12:00","2018","03","26","12:00","-21.6","","-25.4","","72","","","","32","","11","","24.1","","99.94","","","","-30","","NA"
"-115.78","60.84","HAY RIVER A","2202401","2018-03-26 13:00","2018","03","26","13:00","-19.1","","-24.0","","65","","","","32","","11","","24.1","","99.93","","","","-27","","NA"
"-115.78","60.84","HAY RIVER A","2202401","2018-03-26 14:00","2018","03","26","14:00","-17.7","","-24.6","","55","","","","33","","12","","24.1","","99.92","","","","-25","","Mainly Clear"
"-115.78","60.84","HAY RIVER A","2202401","2018-03-26 15:00","2018","03","26","15:00","-16.7","","-25.5","","47","","","","32","","11","","24.1","","99.88","","","","-24","","NA"
"-115.78","60.84","HAY RIVER A","2202401","2018-03-26 16:00","2018","03","26","16:00","-15.9","","-24.6","","48","","","","32","","9","","24.1","","99.84","","","","-22","","NA"
"-115.78","60.84","HAY RIVER A","2202401","2018-03-26 17:00","2018","03","26","17:00","-15.4","","-24.5","","46","","","","31","","7","","24.1","","99.81","","","","-20","","Mainly Clear"
"-115.78","60.84","HAY RIVER A","2202401","2018-03-26 18:00","2018","03","26","18:00","-15.8","","-24.4","","48","","","","33","","7","","24.1","","99.79","","","","-21","","NA"
"-115.78","60.84","HAY RIVER A","2202401","2018-03-26 19:00","2018","03","26","19:00","-17.7","","-23.0","","64","","","","27","","4","","24.1","","99.78","","","","-21","","NA"
"-115.78","60.84","HAY RIVER A","2202401","2018-03-26 20:00","2018","03","26","20:00","-19.7","","-24.2","","68","","","","16","","4","","24.1","","99.74","","","","-23","","Clear"
"-115.78","60.84","HAY RIVER A","2202401","2018-03-26 21:00","2018","03","26","21:00","-21.7","","-25.8","","70","","","","20","","12","","24.1","","99.68","","","","-30","","NA"
"-115.78","60.84","HAY RIVER A","2202401","2018-03-26 22:00","2018","03","26","22:00","-21.2","","-27.1","","60","","","","19","","10","","24.1","","99.63","","","","-29","","NA"
"-115.78","60.84","HAY RIVER A","2202401","2018-03-26 23:00","2018","03","26","23:00","-22.0","","-27.3","","63","","","","19","","11","","24.1","","99.59","","","","-30","","Clear"
"-115.78","60.84","HAY RIVER A","2202401","2018-03-27 00:00","2018","03","27","00:00","-21.6","","-27.5","","60","","","","19","","13","","24.1","","99.53","","","","-30","","NA"
"-115.78","60.84","HAY RIVER A","2202401","2018-03-27 01:00","2018","03","27","01:00","-22.8","","-27.8","","64","","","","17","","8","","24.1","","99.47","","","","-30","","NA"
"-115.78","60.84","HAY RIVER A","2202401","2018-03-27 02:00","2018","03","27","02:00","-23.5","","-28.2","","66","","","","17","","8","","24.1","","99.44","","","","-30","","Clear"
"-115.78","60.84","HAY RIVER A","2202401","2018-03-27 03:00","2018","03","27","03:00","-24.7","","-28.6","","71","","","","16","","7","","24.1","","99.41","","","","-31","","NA"
"-115.78","60.84","HAY RIVER A","2202401","2018-03-27 04:00","2018","03","27","04:00","-26.0","","-29.3","","74","","","","16","","7","","24.1","","99.39","","","","-33","","NA"
"-115.78","60.84","HAY RIVER A","2202401","2018-03-27 05:00","2018","03","27","05:00","-25.4","","-28.6","","75","","","","16","","7","","24.1","","99.36","","","","-32","","Clear"
"-115.78","60.84","HAY RIVER A","2202401","2018-03-27 06:00","2018","03","27","06:00","-28.5","","-31.4","","77","","","","30","","3","","24.1","","99.37","","","","-32","","NA"
"-115.78","60.84","HAY RIVER A","2202401","2018-03-27 07:00","2018","03","27","07:00","-27.7","","-31.2","","73","","","","17","","5","","24.1","","99.37","","","","-33","","NA"
"-115.78","60.84","HAY RIVER A","2202401","2018-03-27 08:00","2018","03","27","08:00","-24.8","","-28.4","","72","","","","23","","3","","24.1","","99.39","","","","-28","","Mostly Cloudy"
"-115.78","60.84","HAY RIVER A","2202401","2018-03-27 09:00","2018","03","27","09:00","-20.1","","-25.0","","65","","","","23","","9","","24.1","","99.39","","","","-27","","NA"
"-115.78","60.84","HAY RIVER A","2202401","2018-03-27 10:00","2018","03","27","10:00","-17.9","","-23.9","","60","","","","31","","7","","24.1","","99.41","","","","-23","","NA"
"-115.78","60.84","HAY RIVER A","2202401","2018-03-27 11:00","2018","03","27","11:00","-18.4","","-24.1","","62","","","","33","","15","","24.1","","99.45","","","","-27","","Mainly Clear"
"-115.78","60.84","HAY RIVER A","2202401","2018-03-27 12:00","2018","03","27","12:00","-17.1","","-22.8","","61","","","","33","","14","","24.1","","99.45","","","","-25","","NA"
"-115.78","60.84","HAY RIVER A","2202401","2018-03-27 13:00","2018","03","27","13:00","-15.2","","-22.2","","56","","","","32","","14","","24.1","","99.46","","","","-23","","NA"
"-115.78","60.84","HAY RIVER A","2202401","2018-03-27 14:00","2018","03","27","14:00","-13.6","","-22.0","","50","","","","33","","11","","24.1","","99.48","","","","-20","","Mainly Clear"
"-115.78","60.84","HAY RIVER A","2202401","2018-03-27 15:00","2018","03","27","15:00","-11.6","","-23.2","","38","","","","31","","11","","24.1","","99.48","","","","-18","","NA"
"-115.78","60.84","HAY RIVER A","2202401","2018-03-27 16:00","2018","03","27","16:00","-11.3","","-23.8","","36","","","","33","","14","","24.1","","99.48","","","","-18","","NA"
"-115.78","60.84","HAY RIVER A","2202401","2018-03-27 17:00","2018","03","27","17:00","-11.0","","-24.2","","33","","","","33","","9","","24.1","","99.49","","","","-16","","Mainly Clear"
"-115.78","60.84","HAY RIVER A","2202401","2018-03-27 18:00","2018","03","27","18:00","-11.3","","-23.9","","35","","","","29","","8","","24.1","","99.46","","","","-16","","NA"
"-115.78","60.84","HAY RIVER A","2202401","2018-03-27 19:00","2018","03","27","19:00","-11.4","","-23.4","","37","","","","28","","8","","24.1","","99.46","","","","-16","","NA"
"-115.78","60.84","HAY RIVER A","2202401","2018-03-27 20:00","2018","03","27","20:00","-16.5","","-20.5","","71","","","","36","","3","","24.1","","99.47","","","","-19","","Mainly Clear"
"-115.78","60.84","HAY RIVER A","2202401","2018-03-27 21:00","2018","03","27","21:00","-18.9","","-23.4","","68","","","","8","","5","","24.1","","99.52","","","","-23","","NA"
"-115.78","60.84","HAY RIVER A","2202401","2018-03-27 22:00","2018","03","27","22:00","-20.2","","-24.6","","68","","","","8","","8","","24.1","","99.60","","","","-26","","NA"
"-115.78","60.84","HAY RIVER A","2202401","2018-03-27 23:00","2018","03","27","23:00","-22.6","","-25.4","","78","","","","7","","7","","24.1","","99.69","","","","-29","","Mainly Clear"
"-115.78","60.84","HAY RIVER A","2202401","2018-03-28 00:00","2018","03","28","00:00","-25.4","","-28.1","","79","","","","36","","2","","24.1","","99.73","","","","-27","","NA"
"-115.78","60.84","HAY RIVER A","2202401","2018-03-28 01:00","2018","03","28","01:00","-27.2","","-30.2","","76","","","","25","","8","","24.1","","99.76","","","","-35","","NA"
"-115.78","60.84","HAY RIVER A","2202401","2018-03-28 02:00","2018","03","28","02:00","-26.5","","-29.2","","78","","","","18","","3","","24.1","","99.79","","","","-30","","Mainly Clear"
"-115.78","60.84","HAY RIVER A","2202401","2018-03-28 03:00","2018","03","28","03:00","-28.4","","-31.5","","75","","","","36","","2","","24.1","","99.89","","","","-31","","NA"
"-115.78","60.84","HAY RIVER A","2202401","2018-03-28 04:00","2018","03","28","04:00","-26.8","","-29.2","","81","","","","2","","7","","24.1","","100.03","","","","-34","","NA"
"-115.78","60.84","HAY RIVER A","2202401","2018-03-28 05:00","2018","03","28","05:00","-25.2","","-27.7","","81","","","","3","","9","","19.3","","100.11","","","","-33","","Snow"
"-115.78","60.84","HAY RIVER A","2202401","2018-03-28 06:00","2018","03","28","06:00","-26.9","","-29.8","","77","","","","5","","10","","24.1","","100.22","","","","-35","","Snow"
"-115.78","60.84","HAY RIVER A","2202401","2018-03-28 07:00","2018","03","28","07:00","-27.7","","-30.7","","76","","","","5","","9","","24.1","","100.33","","","","-36","","NA"
"-115.78","60.84","HAY RIVER A","2202401","2018-03-28 08:00","2018","03","28","08:00","-27.4","","-30.6","","75","","","","3","","10","","24.1","","100.46","","","","-36","","Mainly Clear"
"-115.78","60.84","HAY RIVER A","2202401","2018-03-28 09:00","2018","03","28","09:00","-27.9","","-31.7","","71","","","","3","","10","","24.1","","100.60","","","","-37","","NA"
"-115.78","60.84","HAY RIVER A","2202401","2018-03-28 10:00","2018","03","28","10:00","-28.2","","-33.0","","64","","","","4","","8","","24.1","","100.72","","","","-36","","NA"
"-115.78","60.84","HAY RIVER A","2202401","2018-03-28 11:00","2018","03","28","11:00","-28.0","","-32.8","","64","","","","32","","13","","24.1","","100.81","","","","-38","","Clear"
"-115.78","60.84","HAY RIVER A","2202401","2018-03-28 12:00","2018","03","28","12:00","-27.1","","-32.9","","58","","","","33","","13","","24.1","","100.91","","","","-37","","NA"
"-115.78","60.84","HAY RIVER A","2202401","2018-03-28 13:00","2018","03","28","13:00","-24.9","","-32.7","","50","","","","3","","9","","24.1","","100.97","","","","-33","","NA"
"-115.78","60.84","HAY RIVER A","2202401","2018-03-28 14:00","2018","03","28","14:00","-24.9","","-31.7","","54","","","","32","","13","","24.1","","101.04","","","","-34","","Clear"
"-115.78","60.84","HAY RIVER A","2202401","2018-03-28 15:00","2018","03","28","15:00","-23.2","","-30.8","","51","","","","32","","6","","24.1","","101.08","","","","-29","","NA"
"-115.78","60.84","HAY RIVER A","2202401","2018-03-28 16:00","2018","03","28","16:00","-23.1","","-30.7","","51","","","","33","","9","","24.1","","101.12","","","","-30","","NA"
"-115.78","60.84","HAY RIVER A","2202401","2018-03-28 17:00","2018","03","28","17:00","-23.1","","-30.7","","51","","","","31","","7","","24.1","","101.17","","","","-29","","Clear"
"-115.78","60.84","HAY RIVER A","2202401","2018-03-28 18:00","2018","03","28","18:00","-23.7","","-30.6","","54","","","","9","","4","","24.1","","101.19","","","","-28","","NA"
"-115.78","60.84","HAY RIVER A","2202401","2018-03-28 19:00","2018","03","28","19:00","-24.6","","-31.4","","54","","","","9","","9","","24.1","","101.21","","","","-32","","NA"
"-115.78","60.84","HAY RIVER A","2202401","2018-03-28 20:00","2018","03","28","20:00","-26.4","","-31.3","","64","","","","36","","3","","24.1","","101.25","","","","-29","","Clear"
"-115.78","60.84","HAY RIVER A","2202401","2018-03-28 21:00","2018","03","28","21:00","-27.5","","-32.1","","65","","","","36","","1","","24.1","","101.28","","","","-29","","NA"
"-115.78","60.84","HAY RIVER A","2202401","2018-03-28 22:00","2018","03","28","22:00","-28.3","","-32.4","","69","","","","36","","2","","24.1","","101.32","","","","-30","","NA"
"-115.78","60.84","HAY RIVER A","2202401","2018-03-28 23:00","2018","03","28","23:00","-29.7","","-33.2","","72","","","","15","","3","","24.1","","101.35","","","","-33","","Clear"
"-115.78","60.84","HAY RIVER A","2202401","2018-03-29 00:00","2018","03","29","00:00","-30.2","","-34.2","","69","","","","17","","4","","24.1","","101.40","","","","-35","","NA"
"-115.78","60.84","HAY RIVER A","2202401","2018-03-29 01:00","2018","03","29","01:00","-31.1","","-34.7","","71","","","","19","","3","","24.1","","101.41","","","","-35","","NA"
"-115.78","60.84","HAY RIVER A","2202401","2018-03-29 02:00","2018","03","29","02:00","-30.5","","-34.2","","71","","","","36","","3","","24.1","","101.45","","","","-34","","Mainly Clear"
"-115.78","60.84","HAY RIVER A","2202401","2018-03-29 03:00","2018","03","29","03:00","-33.5","","-36.6","","74","","","","36","","1","","24.1","","101.49","","","","-35","","NA"
"-115.78","60.84","HAY RIVER A","2202401","2018-03-29 04:00","2018","03","29","04:00","-33.2","","-36.6","","72","","","","36","","2","","24.1","","101.52","","","","-36","","NA"
"-115.78","60.84","HAY RIVER A","2202401","2018-03-29 05:00","2018","03","29","05:00","-33.9","","-37.6","","70","","","","16","","3","","24.1","","101.56","","","","-38","","Mainly Clear"
"-115.78","60.84","HAY RIVER A","2202401","2018-03-29 06:00","2018","03","29","06:00","-33.2","","-36.6","","72","","","","18","","4","","24.1","","101.59","","","","-38","","NA"
"-115.78","60.84","HAY RIVER A","2202401","2018-03-29 07:00","2018","03","29","07:00","-32.9","","-36.5","","71","","","","36","","2","","24.1","","101.59","","","","-35","","NA"
"-115.78","60.84","HAY RIVER A","2202401","2018-03-29 08:00","2018","03","29","08:00","-30.3","","-34.0","","71","","","","26","","4","","24.1","","101.60","","","","-35","","Mainly Clear"
"-115.78","60.84","HAY RIVER A","2202401","2018-03-29 09:00","2018","03","29","09:00","-29.1","","-33.4","","67","","","","33","","7","","24.1","","101.61","","","","-36","","NA"
"-115.78","60.84","HAY RIVER A","2202401","2018-03-29 10:00","2018","03","29","10:00","-27.7","","-33.0","","61","","","","30","","4","","24.1","","101.64","","","","-32","","NA"
"-115.78","60.84","HAY RIVER A","2202401","2018-03-29 11:00","2018","03","29","11:00","-23.2","","-30.3","","53","","","","7","","10","","24.1","","101.67","","","","-31","","Mainly Clear"
"-115.78","60.84","HAY RIVER A","2202401","2018-03-29 12:00","2018","03","29","12:00","-23.0","","-31.1","","49","","","","7","","14","","24.1","","101.67","","","","-32","","NA"
"-115.78","60.84","HAY RIVER A","2202401","2018-03-29 13:00","2018","03","29","13:00","-22.5","","-30.7","","48","","","","8","","13","","24.1","","101.67","","","","-31","","NA"
"-115.78","60.84","HAY RIVER A","2202401","2018-03-29 14:00","2018","03","29","14:00","-22.1","","-30.3","","48","","","","9","","9","","24.1","","101.66","","","","-29","","Mainly Clear"
"-115.78","60.84","HAY RIVER A","2202401","2018-03-29 15:00","2018","03","29","15:00","-21.3","","-30.2","","45","","","","32","","9","","24.1","","101.63","","","","-28","","NA"
"-115.78","60.84","HAY RIVER A","2202401","2018-03-29 16:00","2018","03","29","16:00","-21.5","","-29.6","","49","","","","32","","12","","24.1","","101.62","","","","-30","","NA"
"-115.78","60.84","HAY RIVER A","2202401","2018-03-29 17:00","2018","03","29","17:00","-21.9","","-29.9","","49","","","","31","","9","","24.1","","101.61","","","","-29","","Clear"
"-115.78","60.84","HAY RIVER A","2202401","2018-03-29 18:00","2018","03","29","18:00","-21.2","","-30.5","","44","","","","31","","4","","24.1","","101.59","","","","-25","","NA"
"-115.78","60.84","HAY RIVER A","2202401","2018-03-29 19:00","2018","03","29","19:00","-22.3","","-30.4","","48","","","","27","","6","","24.1","","101.54","","","","-28","","NA"
"-115.78","60.84","HAY RIVER A","2202401","2018-03-29 20:00","2018","03","29","20:00","-23.9","","-30.4","","56","","","","25","","4","","24.1","","101.50","","","","-28","","Clear"
"-115.78","60.84","HAY RIVER A","2202401","2018-03-29 21:00","2018","03","29","21:00","-26.8","","-32.7","","58","","","","23","","4","","24.1","","101.48","","","","-31","","NA"
"-115.78","60.84","HAY RIVER A","2202401","2018-03-29 22:00","2018","03","29","22:00","-27.2","","-32.9","","60","","","","36","","3","","24.1","","101.48","","","","-30","","NA"
"-115.78","60.84","HAY RIVER A","2202401","2018-03-29 23:00","2018","03","29","23:00","-26.9","","-32.7","","59","","","","27","","4","","24.1","","101.49","","","","-31","","Clear"
"-115.78","60.84","HAY RIVER A","2202401","2018-03-30 00:00","2018","03","30","00:00","-26.9","","-32.1","","62","","","","29","","4","","24.1","","101.49","","","","-31","","NA"
"-115.78","60.84","HAY RIVER A","2202401","2018-03-30 01:00","2018","03","30","01:00","-26.4","","-31.5","","63","","","","31","","8","","24.1","","101.48","","","","-34","","NA"
"-115.78","60.84","HAY RIVER A","2202401","2018-03-30 02:00","2018","03","30","02:00","-25.1","","-30.5","","62","","","","30","","14","","24.1","","101.45","","","","-35","","Clear"
"-115.78","60.84","HAY RIVER A","2202401","2018-03-30 03:00","2018","03","30","03:00","-26.0","","-31.0","","63","","","","30","","16","","24.1","","101.45","","","","-37","","NA"
"-115.78","60.84","HAY RIVER A","2202401","2018-03-30 04:00","2018","03","30","04:00","-25.9","","-30.9","","64","","","","30","","17","","24.1","","101.45","","","","-37","","NA"
"-115.78","60.84","HAY RIVER A","2202401","2018-03-30 05:00","2018","03","30","05:00","-24.9","","-30.4","","61","","","","29","","21","","24.1","","101.45","","","","-37","","Mainly Clear"
"-115.78","60.84","HAY RIVER A","2202401","2018-03-30 06:00","2018","03","30","06:00","-24.9","","-30.4","","61","","","","29","","27","","24.1","","101.46","","","","-38","","NA"
"-115.78","60.84","HAY RIVER A","2202401","2018-03-30 07:00","2018","03","30","07:00","-24.4","","-29.6","","63","","","","30","","22","","24.1","","101.50","","","","-37","","NA"
"-115.78","60.84","HAY RIVER A","2202401","2018-03-30 08:00","2018","03","30","08:00","-23.8","","-29.4","","61","","","","30","","30","","24.1","","101.53","","","","-38","","Mostly Cloudy"
"-115.78","60.84","HAY RIVER A","2202401","2018-03-30 09:00","2018","03","30","09:00","-22.7","","-28.6","","59","","","","30","","27","","24.1","","101.56","","","","-36","","NA"
"-115.78","60.84","HAY RIVER A","2202401","2018-03-30 10:00","2018","03","30","10:00","-20.6","","-27.2","","57","","","","30","","23","","24.1","","101.61","","","","-32","","NA"
"-115.78","60.84","HAY RIVER A","2202401","2018-03-30 11:00","2018","03","30","11:00","-18.7","","-26.0","","54","","","","29","","22","","24.1","","101.63","","","","-29","","Mostly Cloudy"
"-115.78","60.84","HAY RIVER A","2202401","2018-03-30 12:00","2018","03","30","12:00","-16.4","","-23.8","","53","","","","30","","24","","24.1","","101.62","","","","-27","","NA"
"-115.78","60.84","HAY RIVER A","2202401","2018-03-30 13:00","2018","03","30","13:00","-14.4","","-22.6","","50","","","","29","","25","","24.1","","101.64","","","","-24","","NA"
"-115.78","60.84","HAY RIVER A","2202401","2018-03-30 14:00","2018","03","30","14:00","-12.9","","-21.2","","51","","","","30","","25","","24.1","","101.63","","","","-22","","Mostly Cloudy"
"-115.78","60.84","HAY RIVER A","2202401","2018-03-30 15:00","2018","03","30","15:00","-11.9","","-20.1","","51","","","","30","","28","","24.1","","101.63","","","","-22","","NA"
"-115.78","60.84","HAY RIVER A","2202401","2018-03-30 16:00","2018","03","30","16:00","-11.2","","-19.7","","50","","","","30","","25","","24.1","","101.63","","","","-20","","NA"
"-115.78","60.84","HAY RIVER A","2202401","2018-03-30 17:00","2018","03","30","17:00","-10.8","","-20.0","","47","","","","30","","27","","24.1","","101.57","","","","-20","","Mostly Cloudy"
"-115.78","60.84","HAY RIVER A","2202401","2018-03-30 18:00","2018","03","30","18:00","-10.8","","-20.1","","47","","","","29","","25","","24.1","","101.53","","","","-20","","NA"
"-115.78","60.84","HAY RIVER A","2202401","2018-03-30 19:00","2018","03","30","19:00","-11.5","","-20.3","","49","","","","27","","9","","24.1","","101.47","","","","-17","","NA"
"-115.78","60.84","HAY RIVER A","2202401","2018-03-30 20:00","2018","03","30","20:00","-12.0","","-20.6","","49","","","","26","","11","","24.1","","101.42","","","","-18","","Mostly Cloudy"
"-115.78","60.84","HAY RIVER A","2202401","2018-03-30 21:00","2018","03","30","21:00","-12.5","","-21.3","","48","","","","27","","13","","24.1","","101.39","","","","-19","","NA"
"-115.78","60.84","HAY RIVER A","2202401","2018-03-30 22:00","2018","03","30","22:00","-11.9","","-21.5","","45","","","","27","","16","","24.1","","101.35","","","","-19","","NA"
"-115.78","60.84","HAY RIVER A","2202401","2018-03-30 23:00","2018","03","30","23:00","-12.5","","-21.8","","46","","","","27","","17","","24.1","","101.29","","","","-20","","Mainly Clear"
"-115.78","60.84","HAY RIVER A","2202401","2018-03-31 00:00","2018","03","31","00:00","-11.7","","-21.8","","43","","","","28","","18","","24.1","","101.26","","","","-20","","NA"
"-115.78","60.84","HAY RIVER A","2202401","2018-03-31 01:00","2018","03","31","01:00","-11.7","","-22.0","","43","","","","26","","19","","24.1","","101.22","","","","-20","","NA"
"-115.78","60.84","HAY RIVER A","2202401","2018-03-31 02:00","2018","03","31","02:00","-12.1","","-21.8","","45","","","","27","","17","","24.1","","101.20","","","","-20","","Mainly Clear"
"-115.78","60.84","HAY RIVER A","2202401","2018-03-31 03:00","2018","03","31","03:00","-13.0","","-22.1","","47","","","","27","","16","","24.1","","101.18","","","","-21","","NA"
"-115.78","60.84","HAY RIVER A","2202401","2018-03-31 04:00","2018","03","31","04:00","-13.7","","-22.4","","49","","","","27","","17","","24.1","","101.14","","","","-22","","NA"
"-115.78","60.84","HAY RIVER A","2202401","2018-03-31 05:00","2018","03","31","05:00","-13.8","","-22.6","","48","","","","27","","16","","24.1","","101.10","","","","-22","","Mainly Clear"
"-115.78","60.84","HAY RIVER A","2202401","2018-03-31 06:00","2018","03","31","06:00","-15.1","","-22.9","","52","","","","25","","14","","24.1","","101.07","","","","-23","","NA"
"-115.78","60.84","HAY RIVER A","2202401","2018-03-31 07:00","2018","03","31","07:00","-14.2","","-22.8","","49","","","","26","","17","","24.1","","101.03","","","","-22","","NA"
"-115.78","60.84","HAY RIVER A","2202401","2018-03-31 08:00","2018","03","31","08:00","-12.1","","-22.1","","44","","","","28","","23","","24.1","","100.96","","","","-21","","Mainly Clear"
"-115.78","60.84","HAY RIVER A","2202401","2018-03-31 09:00","2018","03","31","09:00","-11.3","","-21.6","","43","","","","28","","23","","24.1","","100.93","","","","-20","","NA"
"-115.78","60.84","HAY RIVER A","2202401","2018-03-31 10:00","2018","03","31","10:00","-10.5","","-20.2","","45","","","","30","","21","","24.1","","100.90","","","","-19","","NA"
"-115.78","60.84","HAY RIVER A","2202401","2018-03-31 11:00","2018","03","31","11:00","-9.7","","-19.7","","45","","","","30","","25","","24.1","","100.88","","","","-18","","Mainly Clear"
"-115.78","60.84","HAY RIVER A","2202401","2018-03-31 12:00","2018","03","31","12:00","-8.7","","-19.0","","43","","","","30","","22","","24.1","","100.87","","","","-17","","NA"
"-115.78","60.84","HAY RIVER A","2202401","2018-03-31 13:00","2018","03","31","13:00","-7.3","","-18.0","","43","","","","31","","20","","24.1","","100.85","","","","-14","","NA"
"-115.78","60.84","HAY RIVER A","2202401","2018-03-31 14:00","2018","03","31","14:00","-6.5","","-18.4","","39","","","","30","","22","","24.1","","100.81","","","","-14","","Mostly Cloudy"
"-115.78","60.84","HAY RIVER A","2202401","2018-03-31 15:00","2018","03","31","15:00","-6.0","","-17.3","","41","","","","31","","22","","24.1","","100.77","","","","-13","","NA"
"-115.78","60.84","HAY RIVER A","2202401","2018-03-31 16:00","2018","03","31","16:00","-5.6","","-16.5","","43","","","","31","","22","","24.1","","100.71","","","","-13","","NA"
"-115.78","60.84","HAY RIVER A","2202401","2018-03-31 17:00","2018","03","31","17:00","-5.9","","-15.8","","46","","","","32","","20","","24.1","","100.67","","","","-13","","Mostly Cloudy"
"-115.78","60.84","HAY RIVER A","2202401","2018-03-31 18:00","2018","03","31","18:00","-6.5","","-16.5","","45","","","","34","","12","","24.1","","100.63","","","","-12","","NA"
"-115.78","60.84","HAY RIVER A","2202401","2018-03-31 19:00","2018","03","31","19:00","-9.7","","-17.6","","53","","","","31","","9","","24.1","","100.60","","","","-15","","NA"
"-115.78","60.84","HAY RIVER A","2202401","2018-03-31 20:00","2018","03","31","20:00","-11.5","","-18.5","","57","","","","29","","5","","24.1","","100.59","","","","-15","","Mainly Clear"
"-115.78","60.84","HAY RIVER A","2202401","2018-03-31 21:00","2018","03","31","21:00","-13.0","","-18.7","","63","","","","32","","10","","24.1","","100.56","","","","-19","","NA"
"-115.78","60.84","HAY RIVER A","2202401","2018-03-31 22:00","2018","03","31","22:00","-14.0","","-19.1","","66","","","","28","","5","","24.1","","100.53","","","","-17","","NA"
"-115.78","60.84","HAY RIVER A","2202401","2018-03-31 23:00","2018","03","31","23:00","-15.5","","-20.3","","67","","","","29","","6","","24.1","","100.50","","","","-20","","Clear"
