"Longitude (x)","Latitude (y)","Station Name","Climate ID","Date/Time (LST)","Year","Month","Day","Time (LST)","Temp (°C)","Temp Flag","Dew Point Temp (°C)","Dew Point Temp Flag","Rel Hum (%)","Rel Hum Flag","Precip. Amount (mm)","Precip. Amount Flag","Wind Dir (10s deg)","Wind Dir Flag","Wind Spd (km/h)","Wind Spd Flag","Visibility (km)","Visibility Flag","Stn Press (kPa)","Stn Press Flag","Hmdx","Hmdx Flag","Wind Chill","Wind Chill Flag","Weather"
"-78.52","52.23","EASTMAIN RIVER A","7092310","2018-03-01 00:00","2018","03","01","00:00","-22.8","","-25.5","","79","","","M","5","","3","","","M","102.13","","","","-26","","NA"
"-78.52","52.23","EASTMAIN RIVER A","7092310","2018-03-01 01:00","2018","03","01","01:00","-24.5","","-27.4","","77","","","M","6","","1","","","M","102.15","","","","-25","","NA"
"-78.52","52.23","EASTMAIN RIVER A","7092310","2018-03-01 02:00","2018","03","01","02:00","-25.7","","-28.8","","76","","","M","2","","7","","","M","102.19","","","","-32","","NA"
"-78.52","52.23","EASTMAIN RIVER A","7092310","2018-03-01 03:00","2018","03","01","03:00","-25.8","","-28.9","","76","","","M","4","","6","","","M","102.22","","","","-32","","NA"
"-78.52","52.23","EASTMAIN RIVER A","7092310","2018-03-01 04:00","2018","03","01","04:00","-26.2","","-29.4","","75","","","M","15","","1","","","M","102.25","","","","-27","","NA"
"-78.52","52.23","EASTMAIN RIVER A","7092310","2018-03-01 05:00","2018","03","01","05:00","-27.9","","-31.1","","74","","","M","9","","6","","","M","102.27","","","","-34","","NA"
"-78.52","52.23","EASTMAIN RIVER A","7092310","2018-03-01 06:00","2018","03","01","06:00","-26.7","","-29.8","","75","","","M","14","","5","","","M","102.32","","","","-32","","NA"
"-78.52","52.23","EASTMAIN RIVER A","7092310","2018-03-01 07:00","2018","03","01","07:00","-29.9","","-33.5","","72","","","M","21","","3","","","M","102.36","","","","-33","","NA"
"-78.52","52.23","EASTMAIN RIVER A","7092310","2018-03-01 08:00","2018","03","01","08:00","-26.0","","-29.2","","75","","","M","8","","4","","","M","102.43","","","","-30","","NA"
"-78.52","52.23","EASTMAIN RIVER A","7092310","2018-03-01 09:00","2018","03","01","09:00","-21.8","","-24.8","","77","","","M","11","","3","","","M","102.42","","","","-25","","NA"
"-78.52","52.23","EASTMAIN RIVER A","7092310","2018-03-01 10:00","2018","03","01","10:00","-16.7","","-19.4","","80","","","M","10","","9","","","M","102.43","","","","-23","","NA"
"-78.52","52.23","EASTMAIN RIVER A","7092310","2018-03-01 11:00","2018","03","01","11:00","-13.8","","-17.1","","76","","","M","16","","3","","","M","102.45","","","","-16","","NA"
"-78.52","52.23","EASTMAIN RIVER A","7092310","2018-03-01 12:00","2018","03","01","12:00","-16.0","","-21.0","","66","","","M","28","","5","","","M","102.49","","","","-20","","NA"
"-78.52","52.23","EASTMAIN RIVER A","7092310","2018-03-01 13:00","2018","03","01","13:00","-16.3","","-20.9","","68","","","M","24","","7","","","M","102.52","","","","-21","","NA"
"-78.52","52.23","EASTMAIN RIVER A","7092310","2018-03-01 14:00","2018","03","01","14:00","-14.7","","-19.1","","70","","","M","34","","7","","","M","102.47","","","","-19","","NA"
"-78.52","52.23","EASTMAIN RIVER A","7092310","2018-03-01 15:00","2018","03","01","15:00","-14.3","","-18.5","","70","","","M","31","","5","","","M","102.42","","","","-18","","NA"
"-78.52","52.23","EASTMAIN RIVER A","7092310","2018-03-01 16:00","2018","03","01","16:00","-14.6","","-18.7","","71","","","M","31","","8","","","M","102.39","","","","-20","","NA"
"-78.52","52.23","EASTMAIN RIVER A","7092310","2018-03-01 17:00","2018","03","01","17:00","-15.1","","-18.9","","73","","","M","28","","9","","","M","102.41","","","","-21","","NA"
"-78.52","52.23","EASTMAIN RIVER A","7092310","2018-03-01 18:00","2018","03","01","18:00","-16.8","","-19.6","","79","","","M","29","","4","","","M","102.46","","","","-20","","NA"
"-78.52","52.23","EASTMAIN RIVER A","7092310","2018-03-01 19:00","2018","03","01","19:00","-19.8","","-22.0","","83","","","M","23","","4","","","M","102.53","","","","-23","","NA"
"-78.52","52.23","EASTMAIN RIVER A","7092310","2018-03-01 20:00","2018","03","01","20:00","-21.6","","-23.9","","82","","","M","19","","5","","","M","102.54","","","","-26","","NA"
"-78.52","52.23","EASTMAIN RIVER A","7092310","2018-03-01 21:00","2018","03","01","21:00","-25.3","","-28.2","","77","","","M","17","","3","","","M","102.53","","","","-28","","NA"
"-78.52","52.23","EASTMAIN RIVER A","7092310","2018-03-01 22:00","2018","03","01","22:00","-25.2","","-28.1","","78","","","M","36","","1","","","M","102.51","","","","-26","","NA"
"-78.52","52.23","EASTMAIN RIVER A","7092310","2018-03-01 23:00","2018","03","01","23:00","-27.0","","-30.3","","74","","","M","2","","4","","","M","102.53","","","","-31","","NA"
"-78.52","52.23","EASTMAIN RIVER A","7092310","2018-03-02 00:00","2018","03","02","00:00","-27.9","","-31.1","","74","","","M","7","","4","","","M","102.52","","","","-32","","NA"
"-78.52","52.23","EASTMAIN RIVER A","7092310","2018-03-02 01:00","2018","03","02","01:00","-26.4","","-29.4","","76","","","M","5","","3","","","M","102.54","","","","-29","","NA"
"-78.52","52.23","EASTMAIN RIVER A","7092310","2018-03-02 02:00","2018","03","02","02:00","-28.2","","-31.7","","73","","","M","3","","2","","","M","102.56","","","","-30","","NA"
"-78.52","52.23","EASTMAIN RIVER A","7092310","2018-03-02 03:00","2018","03","02","03:00","-27.0","","-30.3","","74","","","M","2","","3","","","M","102.56","","","","-30","","NA"
"-78.52","52.23","EASTMAIN RIVER A","7092310","2018-03-02 04:00","2018","03","02","04:00","-28.2","","-31.8","","72","","","M","3","","3","","","M","102.60","","","","-31","","NA"
"-78.52","52.23","EASTMAIN RIVER A","7092310","2018-03-02 05:00","2018","03","02","05:00","-26.5","","-29.7","","75","","","M","6","","2","","","M","102.65","","","","-29","","NA"
"-78.52","52.23","EASTMAIN RIVER A","7092310","2018-03-02 06:00","2018","03","02","06:00","-26.8","","-30.1","","74","","","M","28","","1","","","M","102.73","","","","-28","","NA"
"-78.52","52.23","EASTMAIN RIVER A","7092310","2018-03-02 07:00","2018","03","02","07:00","-27.6","","-31.1","","73","","","M","3","","5","","","M","102.78","","","","-33","","NA"
"-78.52","52.23","EASTMAIN RIVER A","7092310","2018-03-02 08:00","2018","03","02","08:00","-23.5","","-26.6","","76","","","M","7","","3","","","M","102.83","","","","-26","","NA"
"-78.52","52.23","EASTMAIN RIVER A","7092310","2018-03-02 09:00","2018","03","02","09:00","-16.5","","-19.6","","78","","","M","7","","3","","","M","102.90","","","","-19","","NA"
"-78.52","52.23","EASTMAIN RIVER A","7092310","2018-03-02 10:00","2018","03","02","10:00","-10.9","","-16.1","","66","","","M","3","","6","","","M","102.93","","","","-15","","NA"
"-78.52","52.23","EASTMAIN RIVER A","7092310","2018-03-02 11:00","2018","03","02","11:00","-8.2","","-14.5","","61","","","M","2","","8","","","M","102.88","","","","-12","","NA"
"-78.52","52.23","EASTMAIN RIVER A","7092310","2018-03-02 12:00","2018","03","02","12:00","-8.7","","-14.7","","62","","","M","31","","6","","","M","102.87","","","","-12","","NA"
"-78.52","52.23","EASTMAIN RIVER A","7092310","2018-03-02 13:00","2018","03","02","13:00","-7.1","","-13.5","","61","","","M","29","","9","","","M","102.89","","","","-11","","NA"
"-78.52","52.23","EASTMAIN RIVER A","7092310","2018-03-02 14:00","2018","03","02","14:00","-8.6","","-14.0","","66","","","M","26","","9","","","M","102.94","","","","-13","","NA"
"-78.52","52.23","EASTMAIN RIVER A","7092310","2018-03-02 15:00","2018","03","02","15:00","-9.9","","-14.0","","72","","","M","28","","10","","","M","102.98","","","","-15","","NA"
"-78.52","52.23","EASTMAIN RIVER A","7092310","2018-03-02 16:00","2018","03","02","16:00","-10.6","","-13.9","","77","","","M","31","","8","","","M","103.01","","","","-15","","NA"
"-78.52","52.23","EASTMAIN RIVER A","7092310","2018-03-02 17:00","2018","03","02","17:00","-10.7","","-13.5","","80","","","M","31","","8","","","M","103.05","","","","-15","","NA"
"-78.52","52.23","EASTMAIN RIVER A","7092310","2018-03-02 18:00","2018","03","02","18:00","-10.1","","-12.5","","83","","","M","33","","12","","","M","103.07","","","","-16","","NA"
"-78.52","52.23","EASTMAIN RIVER A","7092310","2018-03-02 19:00","2018","03","02","19:00","-10.8","","-13.1","","83","","","M","33","","9","","","M","103.10","","","","-16","","NA"
"-78.52","52.23","EASTMAIN RIVER A","7092310","2018-03-02 20:00","2018","03","02","20:00","-11.6","","-13.5","","85","","","M","32","","3","","","M","103.11","","","","-13","","NA"
"-78.52","52.23","EASTMAIN RIVER A","7092310","2018-03-02 21:00","2018","03","02","21:00","-12.6","","-14.4","","86","","","M","30","","5","","","M","103.11","","","","-16","","NA"
"-78.52","52.23","EASTMAIN RIVER A","7092310","2018-03-02 22:00","2018","03","02","22:00","-13.0","","-15.2","","84","","","M","29","","7","","","M","103.12","","","","-18","","NA"
"-78.52","52.23","EASTMAIN RIVER A","7092310","2018-03-02 23:00","2018","03","02","23:00","-13.8","","-15.7","","86","","","M","5","","3","","","M","103.12","","","","-16","","NA"
"-78.52","52.23","EASTMAIN RIVER A","7092310","2018-03-03 00:00","2018","03","03","00:00","-12.9","","-15.3","","82","","","M","32","","8","","","M","103.14","","","","-18","","NA"
"-78.52","52.23","EASTMAIN RIVER A","7092310","2018-03-03 01:00","2018","03","03","01:00","-12.9","","-15.3","","82","","","M","33","","7","","","M","103.15","","","","-17","","NA"
"-78.52","52.23","EASTMAIN RIVER A","7092310","2018-03-03 02:00","2018","03","03","02:00","-12.5","","-15.0","","82","","","M","33","","9","","","M","103.19","","","","-18","","NA"
"-78.52","52.23","EASTMAIN RIVER A","7092310","2018-03-03 03:00","2018","03","03","03:00","-12.2","","-14.8","","81","","","M","34","","9","","","M","103.23","","","","-17","","NA"
"-78.52","52.23","EASTMAIN RIVER A","7092310","2018-03-03 04:00","2018","03","03","04:00","-12.1","","-14.8","","81","","","M","33","","13","","","M","103.24","","","","-19","","NA"
"-78.52","52.23","EASTMAIN RIVER A","7092310","2018-03-03 05:00","2018","03","03","05:00","-12.3","","-15.1","","80","","","M","32","","8","","","M","103.24","","","","-17","","NA"
"-78.52","52.23","EASTMAIN RIVER A","7092310","2018-03-03 06:00","2018","03","03","06:00","-13.2","","-15.6","","82","","","M","31","","5","","","M","103.27","","","","-17","","NA"
"-78.52","52.23","EASTMAIN RIVER A","7092310","2018-03-03 07:00","2018","03","03","07:00","-14.0","","-16.3","","83","","","M","25","","5","","","M","103.31","","","","-17","","NA"
"-78.52","52.23","EASTMAIN RIVER A","7092310","2018-03-03 08:00","2018","03","03","08:00","-14.1","","-16.6","","81","","","M","28","","7","","","M","103.33","","","","-19","","NA"
"-78.52","52.23","EASTMAIN RIVER A","7092310","2018-03-03 09:00","2018","03","03","09:00","-13.1","","-15.8","","80","","","M","30","","7","","","M","103.34","","","","-18","","NA"
"-78.52","52.23","EASTMAIN RIVER A","7092310","2018-03-03 10:00","2018","03","03","10:00","-11.2","","-14.6","","76","","","M","26","","8","","","M","103.37","","","","-16","","NA"
"-78.52","52.23","EASTMAIN RIVER A","7092310","2018-03-03 11:00","2018","03","03","11:00","-10.9","","-13.7","","80","","","M","25","","10","","","M","103.40","","","","-16","","NA"
"-78.52","52.23","EASTMAIN RIVER A","7092310","2018-03-03 12:00","2018","03","03","12:00","-9.6","","-12.5","","80","","","M","24","","14","","","M","103.40","","","","-16","","NA"
"-78.52","52.23","EASTMAIN RIVER A","7092310","2018-03-03 13:00","2018","03","03","13:00","-8.8","","-11.7","","79","","","M","28","","14","","","M","103.40","","","","-15","","NA"
"-78.52","52.23","EASTMAIN RIVER A","7092310","2018-03-03 14:00","2018","03","03","14:00","-8.8","","-11.4","","81","","","M","29","","14","","","M","103.42","","","","-15","","NA"
"-78.52","52.23","EASTMAIN RIVER A","7092310","2018-03-03 15:00","2018","03","03","15:00","-8.9","","-11.4","","82","","","M","29","","12","","","M","103.44","","","","-15","","NA"
"-78.52","52.23","EASTMAIN RIVER A","7092310","2018-03-03 16:00","2018","03","03","16:00","-9.7","","-12.0","","84","","","M","27","","16","","","M","103.49","","","","-17","","NA"
"-78.52","52.23","EASTMAIN RIVER A","7092310","2018-03-03 17:00","2018","03","03","17:00","-10.1","","-12.1","","85","","","M","28","","17","","","M","103.50","","","","-17","","NA"
"-78.52","52.23","EASTMAIN RIVER A","7092310","2018-03-03 18:00","2018","03","03","18:00","-10.9","","-12.5","","88","","","M","32","","16","","","M","103.55","","","","-18","","NA"
"-78.52","52.23","EASTMAIN RIVER A","7092310","2018-03-03 19:00","2018","03","03","19:00","-11.6","","-13.2","","88","","","M","29","","12","","","M","103.58","","","","-18","","NA"
"-78.52","52.23","EASTMAIN RIVER A","7092310","2018-03-03 20:00","2018","03","03","20:00","-11.3","","-12.8","","89","","","M","30","","14","","","M","103.55","","","","-18","","NA"
"-78.52","52.23","EASTMAIN RIVER A","7092310","2018-03-03 21:00","2018","03","03","21:00","-11.7","","-13.4","","87","","","M","30","","16","","","M","103.54","","","","-19","","NA"
"-78.52","52.23","EASTMAIN RIVER A","7092310","2018-03-03 22:00","2018","03","03","22:00","-11.9","","-13.6","","87","","","M","31","","13","","","M","103.52","","","","-19","","NA"
"-78.52","52.23","EASTMAIN RIVER A","7092310","2018-03-03 23:00","2018","03","03","23:00","-12.0","","-14.0","","86","","","M","33","","22","","","M","103.54","","","","-21","","NA"
"-78.52","52.23","EASTMAIN RIVER A","7092310","2018-03-04 00:00","2018","03","04","00:00","-12.4","","-14.4","","86","","","M","32","","22","","","M","103.55","","","","-21","","NA"
"-78.52","52.23","EASTMAIN RIVER A","7092310","2018-03-04 01:00","2018","03","04","01:00","-13.0","","-15.0","","85","","","M","33","","27","","","M","103.58","","","","-23","","NA"
"-78.52","52.23","EASTMAIN RIVER A","7092310","2018-03-04 02:00","2018","03","04","02:00","-13.4","","-15.5","","84","","","M","33","","22","","","M","103.63","","","","-23","","NA"
"-78.52","52.23","EASTMAIN RIVER A","7092310","2018-03-04 03:00","2018","03","04","03:00","-13.7","","-15.8","","84","","","M","33","","18","","","M","103.64","","","","-22","","NA"
"-78.52","52.23","EASTMAIN RIVER A","7092310","2018-03-04 04:00","2018","03","04","04:00","-14.1","","-16.3","","84","","","M","33","","19","","","M","103.66","","","","-23","","NA"
"-78.52","52.23","EASTMAIN RIVER A","7092310","2018-03-04 05:00","2018","03","04","05:00","-14.5","","-16.7","","83","","","M","32","","16","","","M","103.71","","","","-23","","NA"
"-78.52","52.23","EASTMAIN RIVER A","7092310","2018-03-04 06:00","2018","03","04","06:00","-15.0","","-17.3","","83","","","M","32","","17","","","M","103.74","","","","-23","","NA"
"-78.52","52.23","EASTMAIN RIVER A","7092310","2018-03-04 07:00","2018","03","04","07:00","-15.8","","-18.1","","83","","","M","32","","13","","","M","103.79","","","","-23","","NA"
"-78.52","52.23","EASTMAIN RIVER A","7092310","2018-03-04 08:00","2018","03","04","08:00","-15.8","","-18.2","","82","","","M","33","","13","","","M","103.85","","","","-23","","NA"
"-78.52","52.23","EASTMAIN RIVER A","7092310","2018-03-04 09:00","2018","03","04","09:00","-14.8","","-17.3","","82","","","M","32","","13","","","M","103.86","","","","-22","","NA"
"-78.52","52.23","EASTMAIN RIVER A","7092310","2018-03-04 10:00","2018","03","04","10:00","-14.4","","-17.0","","81","","","M","33","","16","","","M","103.83","","","","-22","","NA"
"-78.52","52.23","EASTMAIN RIVER A","7092310","2018-03-04 11:00","2018","03","04","11:00","-14.0","","-17.2","","77","","","M","36","","16","","","M","103.85","","","","-22","","NA"
"-78.52","52.23","EASTMAIN RIVER A","7092310","2018-03-04 12:00","2018","03","04","12:00","-13.8","","-17.3","","75","","","M","32","","17","","","M","103.83","","","","-22","","NA"
"-78.52","52.23","EASTMAIN RIVER A","7092310","2018-03-04 13:00","2018","03","04","13:00","-13.4","","-16.6","","77","","","M","33","","18","","","M","103.78","","","","-22","","NA"
"-78.52","52.23","EASTMAIN RIVER A","7092310","2018-03-04 14:00","2018","03","04","14:00","-13.3","","-16.4","","78","","","M","31","","16","","","M","103.79","","","","-21","","NA"
"-78.52","52.23","EASTMAIN RIVER A","7092310","2018-03-04 15:00","2018","03","04","15:00","-13.1","","-16.3","","77","","","M","31","","13","","","M","103.79","","","","-20","","NA"
"-78.52","52.23","EASTMAIN RIVER A","7092310","2018-03-04 16:00","2018","03","04","16:00","-13.4","","-16.5","","78","","","M","30","","20","","","M","103.80","","","","-22","","NA"
"-78.52","52.23","EASTMAIN RIVER A","7092310","2018-03-04 17:00","2018","03","04","17:00","-13.3","","-16.2","","79","","","M","32","","16","","","M","103.83","","","","-21","","NA"
"-78.52","52.23","EASTMAIN RIVER A","7092310","2018-03-04 18:00","2018","03","04","18:00","-13.3","","-16.0","","80","","","M","32","","18","","","M","103.84","","","","-22","","NA"
"-78.52","52.23","EASTMAIN RIVER A","7092310","2018-03-04 19:00","2018","03","04","19:00","-13.5","","-16.0","","81","","","M","33","","21","","","M","103.86","","","","-22","","NA"
"-78.52","52.23","EASTMAIN RIVER A","7092310","2018-03-04 20:00","2018","03","04","20:00","-13.4","","-16.0","","81","","","M","35","","14","","","M","103.85","","","","-21","","NA"
"-78.52","52.23","EASTMAIN RIVER A","7092310","2018-03-04 21:00","2018","03","04","21:00","-13.6","","-16.0","","82","","","M","34","","18","","","M","103.83","","","","-22","","NA"
"-78.52","52.23","EASTMAIN RIVER A","7092310","2018-03-04 22:00","2018","03","04","22:00","-13.6","","-16.0","","82","","","M","34","","11","","","M","103.79","","","","-20","","NA"
"-78.52","52.23","EASTMAIN RIVER A","7092310","2018-03-04 23:00","2018","03","04","23:00","-14.0","","-16.2","","83","","","M","34","","15","","","M","103.77","","","","-22","","NA"
"-78.52","52.23","EASTMAIN RIVER A","7092310","2018-03-05 00:00","2018","03","05","00:00","-14.1","","-16.3","","84","","","M","34","","13","","","M","103.75","","","","-21","","NA"
"-78.52","52.23","EASTMAIN RIVER A","7092310","2018-03-05 01:00","2018","03","05","01:00","-14.1","","-16.2","","84","","","M","34","","13","","","M","103.73","","","","-21","","NA"
"-78.52","52.23","EASTMAIN RIVER A","7092310","2018-03-05 02:00","2018","03","05","02:00","-13.9","","-16.1","","84","","","M","34","","13","","","M","103.69","","","","-21","","NA"
"-78.52","52.23","EASTMAIN RIVER A","7092310","2018-03-05 03:00","2018","03","05","03:00","-13.9","","-16.0","","84","","","M","33","","10","","","M","103.68","","","","-20","","NA"
"-78.52","52.23","EASTMAIN RIVER A","7092310","2018-03-05 04:00","2018","03","05","04:00","-13.9","","-16.1","","84","","","M","33","","13","","","M","103.68","","","","-21","","NA"
"-78.52","52.23","EASTMAIN RIVER A","7092310","2018-03-05 05:00","2018","03","05","05:00","-14.2","","-16.2","","85","","","M","35","","14","","","M","103.65","","","","-22","","NA"
"-78.52","52.23","EASTMAIN RIVER A","7092310","2018-03-05 06:00","2018","03","05","06:00","-14.2","","-16.2","","85","","","M","34","","14","","","M","103.64","","","","-22","","NA"
"-78.52","52.23","EASTMAIN RIVER A","7092310","2018-03-05 07:00","2018","03","05","07:00","-14.1","","-16.1","","85","","","M","34","","16","","","M","103.63","","","","-22","","NA"
"-78.52","52.23","EASTMAIN RIVER A","7092310","2018-03-05 08:00","2018","03","05","08:00","-13.8","","-15.9","","85","","","M","34","","15","","","M","103.62","","","","-21","","NA"
"-78.52","52.23","EASTMAIN RIVER A","7092310","2018-03-05 09:00","2018","03","05","09:00","-13.4","","-15.8","","82","","","M","34","","16","","","M","103.62","","","","-21","","NA"
"-78.52","52.23","EASTMAIN RIVER A","7092310","2018-03-05 10:00","2018","03","05","10:00","-12.7","","-15.7","","79","","","M","36","","17","","","M","103.57","","","","-21","","NA"
"-78.52","52.23","EASTMAIN RIVER A","7092310","2018-03-05 11:00","2018","03","05","11:00","-11.6","","-14.9","","77","","","M","36","","14","","","M","103.52","","","","-18","","NA"
"-78.52","52.23","EASTMAIN RIVER A","7092310","2018-03-05 12:00","2018","03","05","12:00","-10.7","","-14.0","","77","","","M","31","","17","","","M","103.45","","","","-18","","NA"
"-78.52","52.23","EASTMAIN RIVER A","7092310","2018-03-05 13:00","2018","03","05","13:00","-9.7","","-12.8","","78","","","M","32","","15","","","M","103.37","","","","-16","","NA"
"-78.52","52.23","EASTMAIN RIVER A","7092310","2018-03-05 14:00","2018","03","05","14:00","-9.4","","-13.0","","75","","","M","31","","18","","","M","103.30","","","","-17","","NA"
"-78.52","52.23","EASTMAIN RIVER A","7092310","2018-03-05 15:00","2018","03","05","15:00","-9.4","","-12.7","","77","","","M","32","","14","","","M","103.27","","","","-16","","NA"
"-78.52","52.23","EASTMAIN RIVER A","7092310","2018-03-05 16:00","2018","03","05","16:00","-9.8","","-12.8","","79","","","M","33","","16","","","M","103.28","","","","-17","","NA"
"-78.52","52.23","EASTMAIN RIVER A","7092310","2018-03-05 17:00","2018","03","05","17:00","-10.0","","-12.7","","81","","","M","32","","16","","","M","103.26","","","","-17","","NA"
"-78.52","52.23","EASTMAIN RIVER A","7092310","2018-03-05 18:00","2018","03","05","18:00","-10.3","","-12.5","","84","","","M","33","","14","","","M","103.23","","","","-17","","NA"
"-78.52","52.23","EASTMAIN RIVER A","7092310","2018-03-05 19:00","2018","03","05","19:00","-10.9","","-13.1","","84","","","M","33","","17","","","M","103.18","","","","-18","","NA"
"-78.52","52.23","EASTMAIN RIVER A","7092310","2018-03-05 20:00","2018","03","05","20:00","-11.3","","-13.5","","84","","","M","34","","18","","","M","103.12","","","","-19","","NA"
"-78.52","52.23","EASTMAIN RIVER A","7092310","2018-03-05 21:00","2018","03","05","21:00","-11.4","","-13.6","","84","","","M","34","","14","","","M","103.06","","","","-18","","NA"
"-78.52","52.23","EASTMAIN RIVER A","7092310","2018-03-05 22:00","2018","03","05","22:00","-11.6","","-13.6","","85","","","M","33","","10","","","M","103.00","","","","-17","","NA"
"-78.52","52.23","EASTMAIN RIVER A","7092310","2018-03-05 23:00","2018","03","05","23:00","-11.8","","-13.7","","86","","","M","34","","9","","","M","102.91","","","","-17","","NA"
"-78.52","52.23","EASTMAIN RIVER A","7092310","2018-03-06 00:00","2018","03","06","00:00","-11.3","","-13.3","","85","","","M","34","","7","","","M","102.84","","","","-16","","NA"
"-78.52","52.23","EASTMAIN RIVER A","7092310","2018-03-06 01:00","2018","03","06","01:00","-11.3","","-13.3","","86","","","M","33","","5","","","M","102.78","","","","-14","","NA"
"-78.52","52.23","EASTMAIN RIVER A","7092310","2018-03-06 02:00","2018","03","06","02:00","-11.0","","-13.0","","85","","","M","32","","3","","","M","102.74","","","","-13","","NA"
"-78.52","52.23","EASTMAIN RIVER A","7092310","2018-03-06 03:00","2018","03","06","03:00","-11.0","","-12.9","","86","","","M","34","","7","","","M","102.67","","","","-15","","NA"
"-78.52","52.23","EASTMAIN RIVER A","7092310","2018-03-06 04:00","2018","03","06","04:00","-10.9","","-12.4","","88","","","M","34","","7","","","M","102.62","","","","-15","","NA"
"-78.52","52.23","EASTMAIN RIVER A","7092310","2018-03-06 05:00","2018","03","06","05:00","-10.7","","-12.2","","89","","","M","32","","9","","","M","102.63","","","","-16","","NA"
"-78.52","52.23","EASTMAIN RIVER A","7092310","2018-03-06 06:00","2018","03","06","06:00","-10.5","","-12.1","","88","","","M","35","","7","","","M","102.63","","","","-15","","NA"
"-78.52","52.23","EASTMAIN RIVER A","7092310","2018-03-06 07:00","2018","03","06","07:00","-10.4","","-12.0","","88","","","M","35","","7","","","M","102.62","","","","-14","","NA"
"-78.52","52.23","EASTMAIN RIVER A","7092310","2018-03-06 08:00","2018","03","06","08:00","-10.1","","-11.8","","88","","","M","36","","5","","","M","102.60","","","","-13","","NA"
"-78.52","52.23","EASTMAIN RIVER A","7092310","2018-03-06 09:00","2018","03","06","09:00","-9.6","","-11.2","","88","","","M","35","","7","","","M","102.55","","","","-14","","NA"
"-78.52","52.23","EASTMAIN RIVER A","7092310","2018-03-06 10:00","2018","03","06","10:00","-8.3","","-10.1","","87","","","M","4","","5","","","M","102.49","","","","-11","","NA"
"-78.52","52.23","EASTMAIN RIVER A","7092310","2018-03-06 11:00","2018","03","06","11:00","-6.4","","-9.5","","79","","","M","4","","8","","","M","102.41","","","","-10","","NA"
"-78.52","52.23","EASTMAIN RIVER A","7092310","2018-03-06 12:00","2018","03","06","12:00","-6.3","","-9.2","","80","","","M","33","","7","","","M","102.34","","","","-10","","NA"
"-78.52","52.23","EASTMAIN RIVER A","7092310","2018-03-06 13:00","2018","03","06","13:00","-4.0","","-8.1","","74","","","M","3","","7","","","M","102.25","","","","-7","","NA"
"-78.52","52.23","EASTMAIN RIVER A","7092310","2018-03-06 14:00","2018","03","06","14:00","-4.8","","-7.8","","80","","","M","30","","9","","","M","102.17","","","","-9","","NA"
"-78.52","52.23","EASTMAIN RIVER A","7092310","2018-03-06 15:00","2018","03","06","15:00","-4.2","","-7.2","","79","","","M","29","","8","","","M","102.12","","","","-8","","NA"
"-78.52","52.23","EASTMAIN RIVER A","7092310","2018-03-06 16:00","2018","03","06","16:00","-2.1","","-6.5","","72","","","M","35","","6","","","M","102.11","","","","-4","","NA"
"-78.52","52.23","EASTMAIN RIVER A","7092310","2018-03-06 17:00","2018","03","06","17:00","-1.5","","-6.5","","68","","","M","36","","8","","","M","102.07","","","","-5","","NA"
"-78.52","52.23","EASTMAIN RIVER A","7092310","2018-03-06 18:00","2018","03","06","18:00","-2.7","","-6.8","","74","","","M","34","","9","","","M","102.04","","","","-6","","NA"
"-78.52","52.23","EASTMAIN RIVER A","7092310","2018-03-06 19:00","2018","03","06","19:00","-4.7","","-8.2","","77","","","M","36","","11","","","M","102.02","","","","-9","","NA"
"-78.52","52.23","EASTMAIN RIVER A","7092310","2018-03-06 20:00","2018","03","06","20:00","-4.7","","-8.2","","76","","","M","1","","15","","","M","101.97","","","","-10","","NA"
"-78.52","52.23","EASTMAIN RIVER A","7092310","2018-03-06 21:00","2018","03","06","21:00","-5.6","","-8.7","","79","","","M","2","","12","","","M","101.93","","","","-11","","NA"
"-78.52","52.23","EASTMAIN RIVER A","7092310","2018-03-06 22:00","2018","03","06","22:00","-6.5","","-9.4","","80","","","M","2","","9","","","M","101.90","","","","-11","","NA"
"-78.52","52.23","EASTMAIN RIVER A","7092310","2018-03-06 23:00","2018","03","06","23:00","-8.2","","-10.3","","85","","","M","5","","8","","","M","101.85","","","","-12","","NA"
"-78.52","52.23","EASTMAIN RIVER A","7092310","2018-03-07 00:00","2018","03","07","00:00","-8.3","","-10.4","","85","","","M","7","","10","","","M","101.81","","","","-13","","NA"
"-78.52","52.23","EASTMAIN RIVER A","7092310","2018-03-07 01:00","2018","03","07","01:00","-8.1","","-10.6","","82","","","M","7","","13","","","M","101.77","","","","-14","","NA"
"-78.52","52.23","EASTMAIN RIVER A","7092310","2018-03-07 02:00","2018","03","07","02:00","-8.1","","-10.6","","82","","","M","9","","17","","","M","101.75","","","","-15","","NA"
"-78.52","52.23","EASTMAIN RIVER A","7092310","2018-03-07 03:00","2018","03","07","03:00","-8.4","","-11.1","","82","","","M","9","","17","","","M","101.70","","","","-15","","NA"
"-78.52","52.23","EASTMAIN RIVER A","7092310","2018-03-07 04:00","2018","03","07","04:00","-8.0","","-10.8","","80","","","M","8","","17","","","M","101.67","","","","-15","","NA"
"-78.52","52.23","EASTMAIN RIVER A","7092310","2018-03-07 05:00","2018","03","07","05:00","-8.2","","-11.0","","80","","","M","8","","15","","","M","101.64","","","","-15","","NA"
"-78.52","52.23","EASTMAIN RIVER A","7092310","2018-03-07 06:00","2018","03","07","06:00","-8.1","","-11.1","","79","","","M","8","","19","","","M","101.66","","","","-15","","NA"
"-78.52","52.23","EASTMAIN RIVER A","7092310","2018-03-07 07:00","2018","03","07","07:00","-8.4","","-11.4","","79","","","M","9","","14","","","M","101.71","","","","-15","","NA"
"-78.52","52.23","EASTMAIN RIVER A","7092310","2018-03-07 08:00","2018","03","07","08:00","-7.4","","-11.1","","75","","","M","9","","16","","","M","101.70","","","","-14","","NA"
"-78.52","52.23","EASTMAIN RIVER A","7092310","2018-03-07 09:00","2018","03","07","09:00","-5.5","","-10.4","","69","","","M","9","","13","","","M","101.68","","","","-11","","NA"
"-78.52","52.23","EASTMAIN RIVER A","7092310","2018-03-07 10:00","2018","03","07","10:00","-3.4","","-9.2","","64","","","M","9","","16","","","M","101.66","","","","-9","","NA"
"-78.52","52.23","EASTMAIN RIVER A","7092310","2018-03-07 11:00","2018","03","07","11:00","-1.1","","-8.2","","59","","","M","10","","20","","","M","101.64","","","","-7","","NA"
"-78.52","52.23","EASTMAIN RIVER A","7092310","2018-03-07 12:00","2018","03","07","12:00","-0.3","","-7.5","","58","","","M","11","","22","","","M","101.61","","","","-6","","NA"
"-78.52","52.23","EASTMAIN RIVER A","7092310","2018-03-07 13:00","2018","03","07","13:00","1.0","","-7.0","","56","","","M","10","","20","","","M","101.59","","","","","","NA"
"-78.52","52.23","EASTMAIN RIVER A","7092310","2018-03-07 14:00","2018","03","07","14:00","1.8","","-6.6","","54","","","M","9","","17","","","M","101.55","","","","","","NA"
"-78.52","52.23","EASTMAIN RIVER A","7092310","2018-03-07 15:00","2018","03","07","15:00","1.1","","-6.7","","56","","","M","10","","15","","","M","101.54","","","","","","NA"
"-78.52","52.23","EASTMAIN RIVER A","7092310","2018-03-07 16:00","2018","03","07","16:00","0.8","","-6.7","","57","","","M","10","","20","","","M","101.53","","","","","","NA"
"-78.52","52.23","EASTMAIN RIVER A","7092310","2018-03-07 17:00","2018","03","07","17:00","0.0","","-7.0","","59","","","M","9","","16","","","M","101.55","","","","-5","","NA"
"-78.52","52.23","EASTMAIN RIVER A","7092310","2018-03-07 18:00","2018","03","07","18:00","-1.2","","-7.4","","63","","","M","8","","12","","","M","101.57","","","","-5","","NA"
"-78.52","52.23","EASTMAIN RIVER A","7092310","2018-03-07 19:00","2018","03","07","19:00","-2.1","","-7.7","","66","","","M","9","","14","","","M","101.58","","","","-7","","NA"
"-78.52","52.23","EASTMAIN RIVER A","7092310","2018-03-07 20:00","2018","03","07","20:00","-3.1","","-8.3","","67","","","M","9","","14","","","M","101.56","","","","-8","","NA"
"-78.52","52.23","EASTMAIN RIVER A","7092310","2018-03-07 21:00","2018","03","07","21:00","-4.0","","-9.0","","68","","","M","9","","13","","","M","101.57","","","","-9","","NA"
"-78.52","52.23","EASTMAIN RIVER A","7092310","2018-03-07 22:00","2018","03","07","22:00","-4.4","","-9.3","","69","","","M","8","","12","","","M","101.55","","","","-9","","NA"
"-78.52","52.23","EASTMAIN RIVER A","7092310","2018-03-07 23:00","2018","03","07","23:00","-4.5","","-9.3","","70","","","M","9","","12","","","M","101.52","","","","-9","","NA"
"-78.52","52.23","EASTMAIN RIVER A","7092310","2018-03-08 00:00","2018","03","08","00:00","-4.5","","-9.1","","71","","","M","9","","15","","","M","101.53","","","","-10","","NA"
"-78.52","52.23","EASTMAIN RIVER A","7092310","2018-03-08 01:00","2018","03","08","01:00","-4.3","","-8.9","","70","","","M","8","","13","","","M","101.48","","","","-9","","NA"
"-78.52","52.23","EASTMAIN RIVER A","7092310","2018-03-08 02:00","2018","03","08","02:00","-4.6","","-8.9","","72","","","M","8","","10","","","M","101.45","","","","-9","","NA"
"-78.52","52.23","EASTMAIN RIVER A","7092310","2018-03-08 03:00","2018","03","08","03:00","-4.4","","-8.8","","71","","","M","9","","13","","","M","101.41","","","","-9","","NA"
"-78.52","52.23","EASTMAIN RIVER A","7092310","2018-03-08 04:00","2018","03","08","04:00","-4.6","","-8.9","","72","","","M","7","","11","","","M","101.36","","","","-9","","NA"
"-78.52","52.23","EASTMAIN RIVER A","7092310","2018-03-08 05:00","2018","03","08","05:00","-4.6","","-8.9","","72","","","M","9","","10","","","M","101.37","","","","-9","","NA"
"-78.52","52.23","EASTMAIN RIVER A","7092310","2018-03-08 06:00","2018","03","08","06:00","-4.3","","-8.6","","72","","","M","8","","10","","","M","101.34","","","","-8","","NA"
"-78.52","52.23","EASTMAIN RIVER A","7092310","2018-03-08 07:00","2018","03","08","07:00","-4.0","","-8.3","","72","","","M","9","","10","","","M","101.34","","","","-8","","NA"
"-78.52","52.23","EASTMAIN RIVER A","7092310","2018-03-08 08:00","2018","03","08","08:00","-3.7","","-8.3","","70","","","M","9","","10","","","M","101.33","","","","-8","","NA"
"-78.52","52.23","EASTMAIN RIVER A","7092310","2018-03-08 09:00","2018","03","08","09:00","-1.4","","-7.7","","63","","","M","13","","17","","","M","101.30","","","","-7","","NA"
"-78.52","52.23","EASTMAIN RIVER A","7092310","2018-03-08 10:00","2018","03","08","10:00","0.0","","-7.1","","59","","","M","12","","15","","","M","101.28","","","","-4","","NA"
"-78.52","52.23","EASTMAIN RIVER A","7092310","2018-03-08 11:00","2018","03","08","11:00","0.6","","-6.7","","58","","","M","13","","16","","","M","101.25","","","","","","NA"
"-78.52","52.23","EASTMAIN RIVER A","7092310","2018-03-08 12:00","2018","03","08","12:00","1.1","","-6.4","","57","","","M","12","","14","","","M","101.22","","","","","","NA"
"-78.52","52.23","EASTMAIN RIVER A","7092310","2018-03-08 13:00","2018","03","08","13:00","1.2","","-6.5","","57","","","M","10","","13","","","M","101.17","","","","","","NA"
"-78.52","52.23","EASTMAIN RIVER A","7092310","2018-03-08 14:00","2018","03","08","14:00","1.2","","-6.2","","58","","","M","10","","14","","","M","101.14","","","","","","NA"
"-78.52","52.23","EASTMAIN RIVER A","7092310","2018-03-08 15:00","2018","03","08","15:00","0.8","","-6.1","","60","","","M","8","","17","","","M","101.13","","","","","","NA"
"-78.52","52.23","EASTMAIN RIVER A","7092310","2018-03-08 16:00","2018","03","08","16:00","1.0","","-6.0","","60","","","M","10","","11","","","M","101.13","","","","","","NA"
"-78.52","52.23","EASTMAIN RIVER A","7092310","2018-03-08 17:00","2018","03","08","17:00","1.1","","-6.4","","58","","","M","9","","10","","","M","101.14","","","","","","NA"
"-78.52","52.23","EASTMAIN RIVER A","7092310","2018-03-08 18:00","2018","03","08","18:00","0.0","","-5.9","","65","","","M","8","","16","","","M","101.18","","","","-5","","NA"
"-78.52","52.23","EASTMAIN RIVER A","7092310","2018-03-08 19:00","2018","03","08","19:00","-0.8","","-5.2","","72","","","M","9","","13","","","M","101.20","","","","-5","","NA"
"-78.52","52.23","EASTMAIN RIVER A","7092310","2018-03-08 20:00","2018","03","08","20:00","-1.3","","-5.3","","74","","","M","9","","11","","","M","101.19","","","","-5","","NA"
"-78.52","52.23","EASTMAIN RIVER A","7092310","2018-03-08 21:00","2018","03","08","21:00","-1.7","","-5.5","","75","","","M","6","","8","","","M","101.14","","","","-5","","NA"
"-78.52","52.23","EASTMAIN RIVER A","7092310","2018-03-08 22:00","2018","03","08","22:00","-2.0","","-5.9","","75","","","M","8","","8","","","M","101.11","","","","-5","","NA"
"-78.52","52.23","EASTMAIN RIVER A","7092310","2018-03-08 23:00","2018","03","08","23:00","-2.5","","-6.5","","74","","","M","8","","11","","","M","101.07","","","","-7","","NA"
"-78.52","52.23","EASTMAIN RIVER A","7092310","2018-03-09 00:00","2018","03","09","00:00","-3.4","","-6.8","","77","","","M","7","","5","","","M","101.01","","","","-5","","NA"
"-78.52","52.23","EASTMAIN RIVER A","7092310","2018-03-09 01:00","2018","03","09","01:00","-4.8","","-7.7","","81","","","M","7","","9","","","M","100.98","","","","-9","","NA"
"-78.52","52.23","EASTMAIN RIVER A","7092310","2018-03-09 02:00","2018","03","09","02:00","-5.3","","-8.2","","80","","","M","7","","5","","","M","100.96","","","","-8","","NA"
"-78.52","52.23","EASTMAIN RIVER A","7092310","2018-03-09 03:00","2018","03","09","03:00","-5.8","","-8.6","","81","","","M","4","","7","","","M","100.92","","","","-9","","NA"
"-78.52","52.23","EASTMAIN RIVER A","7092310","2018-03-09 04:00","2018","03","09","04:00","-6.2","","-9.2","","79","","","M","5","","7","","","M","100.91","","","","-10","","NA"
"-78.52","52.23","EASTMAIN RIVER A","7092310","2018-03-09 05:00","2018","03","09","05:00","-6.0","","-9.0","","79","","","M","4","","6","","","M","100.89","","","","-9","","NA"
"-78.52","52.23","EASTMAIN RIVER A","7092310","2018-03-09 06:00","2018","03","09","06:00","-5.9","","-9.1","","78","","","M","36","","5","","","M","100.89","","","","-8","","NA"
"-78.52","52.23","EASTMAIN RIVER A","7092310","2018-03-09 07:00","2018","03","09","07:00","-6.6","","-9.3","","81","","","M","2","","5","","","M","100.88","","","","-9","","NA"
"-78.52","52.23","EASTMAIN RIVER A","7092310","2018-03-09 08:00","2018","03","09","08:00","-5.4","","-9.4","","74","","","M","4","","8","","","M","100.84","","","","-9","","NA"
"-78.52","52.23","EASTMAIN RIVER A","7092310","2018-03-09 09:00","2018","03","09","09:00","-4.3","","-9.6","","67","","","M","4","","8","","","M","100.79","","","","-8","","NA"
"-78.52","52.23","EASTMAIN RIVER A","7092310","2018-03-09 10:00","2018","03","09","10:00","-3.0","","-9.2","","63","","","M","3","","9","","","M","100.77","","","","-7","","NA"
"-78.52","52.23","EASTMAIN RIVER A","7092310","2018-03-09 11:00","2018","03","09","11:00","-1.8","","-9.1","","58","","","M","4","","11","","","M","100.74","","","","-6","","NA"
"-78.52","52.23","EASTMAIN RIVER A","7092310","2018-03-09 12:00","2018","03","09","12:00","0.2","","-8.5","","52","","","M","5","","14","","","M","100.73","","","","","","NA"
"-78.52","52.23","EASTMAIN RIVER A","7092310","2018-03-09 13:00","2018","03","09","13:00","0.5","","-8.7","","51","","","M","4","","17","","","M","100.70","","","","","","NA"
"-78.52","52.23","EASTMAIN RIVER A","7092310","2018-03-09 14:00","2018","03","09","14:00","0.8","","-8.4","","50","","","M","5","","13","","","M","100.69","","","","","","NA"
"-78.52","52.23","EASTMAIN RIVER A","7092310","2018-03-09 15:00","2018","03","09","15:00","0.5","","-9.1","","49","","","M","7","","12","","","M","100.71","","","","","","NA"
"-78.52","52.23","EASTMAIN RIVER A","7092310","2018-03-09 16:00","2018","03","09","16:00","0.0","","-8.7","","52","","","M","6","","12","","","M","100.74","","","","-4","","NA"
"-78.52","52.23","EASTMAIN RIVER A","7092310","2018-03-09 17:00","2018","03","09","17:00","-0.6","","-8.3","","56","","","M","3","","12","","","M","100.80","","","","-5","","NA"
"-78.52","52.23","EASTMAIN RIVER A","7092310","2018-03-09 18:00","2018","03","09","18:00","-1.5","","-7.8","","63","","","M","10","","5","","","M","100.86","","","","-3","","NA"
"-78.52","52.23","EASTMAIN RIVER A","7092310","2018-03-09 19:00","2018","03","09","19:00","-3.5","","-6.1","","82","","","M","31","","10","","","M","100.90","","","","-7","","NA"
"-78.52","52.23","EASTMAIN RIVER A","7092310","2018-03-09 20:00","2018","03","09","20:00","-3.8","","-6.3","","83","","","M","32","","8","","","M","100.94","","","","-7","","NA"
"-78.52","52.23","EASTMAIN RIVER A","7092310","2018-03-09 21:00","2018","03","09","21:00","-5.2","","-7.2","","86","","","M","32","","13","","","M","101.00","","","","-10","","NA"
"-78.52","52.23","EASTMAIN RIVER A","7092310","2018-03-09 22:00","2018","03","09","22:00","-5.7","","-7.7","","86","","","M","33","","12","","","M","101.01","","","","-11","","NA"
"-78.52","52.23","EASTMAIN RIVER A","7092310","2018-03-09 23:00","2018","03","09","23:00","-6.3","","-8.2","","87","","","M","33","","14","","","M","100.99","","","","-12","","NA"
"-78.52","52.23","EASTMAIN RIVER A","7092310","2018-03-10 00:00","2018","03","10","00:00","-6.7","","-8.5","","87","","","M","33","","12","","","M","101.00","","","","-12","","NA"
"-78.52","52.23","EASTMAIN RIVER A","7092310","2018-03-10 01:00","2018","03","10","01:00","-7.0","","-8.8","","87","","","M","32","","13","","","M","101.05","","","","-13","","NA"
"-78.52","52.23","EASTMAIN RIVER A","7092310","2018-03-10 02:00","2018","03","10","02:00","-8.2","","-9.8","","89","","","M","34","","5","","","M","101.10","","","","-11","","NA"
"-78.52","52.23","EASTMAIN RIVER A","7092310","2018-03-10 03:00","2018","03","10","03:00","-8.5","","-10.2","","88","","","M","33","","13","","","M","101.13","","","","-14","","NA"
"-78.52","52.23","EASTMAIN RIVER A","7092310","2018-03-10 04:00","2018","03","10","04:00","-8.2","","-10.1","","87","","","M","32","","8","","","M","101.17","","","","-12","","NA"
"-78.52","52.23","EASTMAIN RIVER A","7092310","2018-03-10 05:00","2018","03","10","05:00","-8.4","","-10.3","","86","","","M","32","","13","","","M","101.23","","","","-14","","NA"
"-78.52","52.23","EASTMAIN RIVER A","7092310","2018-03-10 06:00","2018","03","10","06:00","-8.3","","-10.3","","86","","","M","32","","17","","","M","101.29","","","","-15","","NA"
"-78.52","52.23","EASTMAIN RIVER A","7092310","2018-03-10 07:00","2018","03","10","07:00","-8.3","","-10.5","","84","","","M","33","","13","","","M","101.35","","","","-14","","NA"
"-78.52","52.23","EASTMAIN RIVER A","7092310","2018-03-10 08:00","2018","03","10","08:00","-8.5","","-10.9","","83","","","M","33","","17","","","M","101.41","","","","-15","","NA"
"-78.52","52.23","EASTMAIN RIVER A","7092310","2018-03-10 09:00","2018","03","10","09:00","-8.0","","-10.6","","82","","","M","31","","12","","","M","101.46","","","","-13","","NA"
"-78.52","52.23","EASTMAIN RIVER A","7092310","2018-03-10 10:00","2018","03","10","10:00","-7.1","","-10.0","","80","","","M","32","","11","","","M","101.50","","","","-12","","NA"
"-78.52","52.23","EASTMAIN RIVER A","7092310","2018-03-10 11:00","2018","03","10","11:00","-6.9","","-10.1","","78","","","M","30","","17","","","M","101.55","","","","-13","","NA"
"-78.52","52.23","EASTMAIN RIVER A","7092310","2018-03-10 12:00","2018","03","10","12:00","-5.9","","-8.9","","79","","","M","30","","14","","","M","101.54","","","","-11","","NA"
"-78.52","52.23","EASTMAIN RIVER A","7092310","2018-03-10 13:00","2018","03","10","13:00","-6.0","","-8.8","","80","","","M","31","","18","","","M","101.57","","","","-12","","NA"
"-78.52","52.23","EASTMAIN RIVER A","7092310","2018-03-10 14:00","2018","03","10","14:00","-5.3","","-7.9","","82","","","M","30","","17","","","M","101.57","","","","-11","","NA"
"-78.52","52.23","EASTMAIN RIVER A","7092310","2018-03-10 15:00","2018","03","10","15:00","-5.5","","-7.8","","83","","","M","31","","21","","","M","101.61","","","","-12","","NA"
"-78.52","52.23","EASTMAIN RIVER A","7092310","2018-03-10 16:00","2018","03","10","16:00","-5.6","","-8.0","","84","","","M","31","","19","","","M","101.64","","","","-12","","NA"
"-78.52","52.23","EASTMAIN RIVER A","7092310","2018-03-10 17:00","2018","03","10","17:00","-6.0","","-8.2","","84","","","M","30","","18","","","M","101.68","","","","-12","","NA"
"-78.52","52.23","EASTMAIN RIVER A","7092310","2018-03-10 18:00","2018","03","10","18:00","-6.2","","-8.3","","85","","","M","30","","16","","","M","101.76","","","","-12","","NA"
"-78.52","52.23","EASTMAIN RIVER A","7092310","2018-03-10 19:00","2018","03","10","19:00","-6.7","","-8.3","","88","","","M","29","","14","","","M","101.81","","","","-12","","NA"
"-78.52","52.23","EASTMAIN RIVER A","7092310","2018-03-10 20:00","2018","03","10","20:00","-6.5","","-8.3","","87","","","M","30","","17","","","M","101.85","","","","-13","","NA"
"-78.52","52.23","EASTMAIN RIVER A","7092310","2018-03-10 21:00","2018","03","10","21:00","-6.8","","-8.6","","87","","","M","33","","24","","","M","101.88","","","","-14","","NA"
"-78.52","52.23","EASTMAIN RIVER A","7092310","2018-03-10 22:00","2018","03","10","22:00","-7.5","","-9.3","","87","","","M","32","","21","","","M","101.86","","","","-15","","NA"
"-78.52","52.23","EASTMAIN RIVER A","7092310","2018-03-10 23:00","2018","03","10","23:00","-8.7","","-10.8","","85","","","M","32","","18","","","M","101.86","","","","-16","","NA"
"-78.52","52.23","EASTMAIN RIVER A","7092310","2018-03-11 00:00","2018","03","11","00:00","-9.0","","-11.2","","84","","","M","32","","16","","","M","101.88","","","","-16","","NA"
"-78.52","52.23","EASTMAIN RIVER A","7092310","2018-03-11 01:00","2018","03","11","01:00","-9.3","","-11.4","","85","","","M","31","","14","","","M","101.88","","","","-16","","NA"
"-78.52","52.23","EASTMAIN RIVER A","7092310","2018-03-11 02:00","2018","03","11","02:00","-9.2","","-11.6","","83","","","M","33","","21","","","M","101.91","","","","-17","","NA"
"-78.52","52.23","EASTMAIN RIVER A","7092310","2018-03-11 03:00","2018","03","11","03:00","-9.8","","-11.8","","85","","","M","34","","21","","","M","101.94","","","","-18","","NA"
"-78.52","52.23","EASTMAIN RIVER A","7092310","2018-03-11 04:00","2018","03","11","04:00","-9.7","","-11.3","","88","","","M","34","","14","","","M","101.96","","","","-16","","NA"
"-78.52","52.23","EASTMAIN RIVER A","7092310","2018-03-11 05:00","2018","03","11","05:00","-9.5","","-10.9","","89","","","M","35","","11","","","M","102.01","","","","-15","","NA"
"-78.52","52.23","EASTMAIN RIVER A","7092310","2018-03-11 06:00","2018","03","11","06:00","-9.3","","-10.6","","90","","","M","33","","14","","","M","102.05","","","","-16","","NA"
"-78.52","52.23","EASTMAIN RIVER A","7092310","2018-03-11 07:00","2018","03","11","07:00","-9.4","","-10.6","","91","","","M","32","","9","","","M","102.09","","","","-14","","NA"
"-78.52","52.23","EASTMAIN RIVER A","7092310","2018-03-11 08:00","2018","03","11","08:00","-9.1","","-10.6","","89","","","M","29","","7","","","M","102.08","","","","-13","","NA"
"-78.52","52.23","EASTMAIN RIVER A","7092310","2018-03-11 09:00","2018","03","11","09:00","-9.3","","-10.7","","90","","","M","30","","15","","","M","102.09","","","","-16","","NA"
"-78.52","52.23","EASTMAIN RIVER A","7092310","2018-03-11 10:00","2018","03","11","10:00","-9.3","","-10.8","","90","","","M","29","","11","","","M","102.09","","","","-15","","NA"
"-78.52","52.23","EASTMAIN RIVER A","7092310","2018-03-11 11:00","2018","03","11","11:00","-9.7","","-11.4","","88","","","M","25","","17","","","M","102.07","","","","-17","","NA"
"-78.52","52.23","EASTMAIN RIVER A","7092310","2018-03-11 12:00","2018","03","11","12:00","-9.8","","-13.3","","76","","","M","27","","16","","","M","102.05","","","","-17","","NA"
"-78.52","52.23","EASTMAIN RIVER A","7092310","2018-03-11 13:00","2018","03","11","13:00","-9.8","","-13.8","","72","","","M","27","","16","","","M","102.07","","","","-17","","NA"
"-78.52","52.23","EASTMAIN RIVER A","7092310","2018-03-11 14:00","2018","03","11","14:00","-10.0","","-14.2","","72","","","M","25","","16","","","M","102.06","","","","-17","","NA"
"-78.52","52.23","EASTMAIN RIVER A","7092310","2018-03-11 15:00","2018","03","11","15:00","-10.1","","-14.1","","73","","","M","27","","10","","","M","102.06","","","","-15","","NA"
"-78.52","52.23","EASTMAIN RIVER A","7092310","2018-03-11 16:00","2018","03","11","16:00","-10.0","","-14.3","","71","","","M","28","","10","","","M","102.04","","","","-15","","NA"
"-78.52","52.23","EASTMAIN RIVER A","7092310","2018-03-11 17:00","2018","03","11","17:00","-10.1","","-14.5","","70","","","M","29","","7","","","M","102.03","","","","-14","","NA"
"-78.52","52.23","EASTMAIN RIVER A","7092310","2018-03-11 18:00","2018","03","11","18:00","-10.9","","-14.5","","75","","","M","21","","3","","","M","102.02","","","","-13","","NA"
"-78.52","52.23","EASTMAIN RIVER A","7092310","2018-03-11 19:00","2018","03","11","19:00","-16.1","","-18.8","","80","","","M","12","","3","","","M","102.02","","","","-18","","NA"
"-78.52","52.23","EASTMAIN RIVER A","7092310","2018-03-11 20:00","2018","03","11","20:00","-17.7","","-19.9","","83","","","M","11","","7","","","M","102.00","","","","-23","","NA"
"-78.52","52.23","EASTMAIN RIVER A","7092310","2018-03-11 21:00","2018","03","11","21:00","-18.1","","-20.4","","83","","","M","10","","8","","","M","101.99","","","","-24","","NA"
"-78.52","52.23","EASTMAIN RIVER A","7092310","2018-03-11 22:00","2018","03","11","22:00","-17.9","","-20.0","","84","","","M","7","","5","","","M","101.98","","","","-22","","NA"
"-78.52","52.23","EASTMAIN RIVER A","7092310","2018-03-11 23:00","2018","03","11","23:00","-18.1","","-20.3","","83","","","M","9","","8","","","M","101.96","","","","-24","","NA"
"-78.52","52.23","EASTMAIN RIVER A","7092310","2018-03-12 00:00","2018","03","12","00:00","-17.6","","-20.1","","81","","","M","9","","8","","","M","101.90","","","","-23","","NA"
"-78.52","52.23","EASTMAIN RIVER A","7092310","2018-03-12 01:00","2018","03","12","01:00","-17.0","","-19.5","","82","","","M","9","","8","","","M","101.89","","","","-23","","NA"
"-78.52","52.23","EASTMAIN RIVER A","7092310","2018-03-12 02:00","2018","03","12","02:00","-17.1","","-19.5","","81","","","M","9","","8","","","M","101.87","","","","-23","","NA"
"-78.52","52.23","EASTMAIN RIVER A","7092310","2018-03-12 03:00","2018","03","12","03:00","-17.1","","-19.5","","81","","","M","5","","4","","","M","101.85","","","","-20","","NA"
"-78.52","52.23","EASTMAIN RIVER A","7092310","2018-03-12 04:00","2018","03","12","04:00","-15.7","","-18.2","","81","","","M","9","","8","","","M","101.84","","","","-21","","NA"
"-78.52","52.23","EASTMAIN RIVER A","7092310","2018-03-12 05:00","2018","03","12","05:00","-14.0","","-16.6","","81","","","M","8","","7","","","M","101.83","","","","-19","","NA"
"-78.52","52.23","EASTMAIN RIVER A","7092310","2018-03-12 06:00","2018","03","12","06:00","-13.7","","-16.4","","80","","","M","9","","9","","","M","101.84","","","","-19","","NA"
"-78.52","52.23","EASTMAIN RIVER A","7092310","2018-03-12 07:00","2018","03","12","07:00","-13.1","","-15.9","","79","","","M","9","","9","","","M","101.86","","","","-19","","NA"
"-78.52","52.23","EASTMAIN RIVER A","7092310","2018-03-12 08:00","2018","03","12","08:00","-11.9","","-15.2","","77","","","M","9","","7","","","M","101.88","","","","-16","","NA"
"-78.52","52.23","EASTMAIN RIVER A","7092310","2018-03-12 09:00","2018","03","12","09:00","-9.4","","-13.5","","72","","","M","10","","3","","","M","101.87","","","","-11","","NA"
"-78.52","52.23","EASTMAIN RIVER A","7092310","2018-03-12 10:00","2018","03","12","10:00","-5.5","","-10.2","","69","","","M","12","","4","","","M","101.85","","","","-7","","NA"
"-78.52","52.23","EASTMAIN RIVER A","7092310","2018-03-12 11:00","2018","03","12","11:00","-4.2","","-8.4","","73","","","M","12","","4","","","M","101.84","","","","-6","","NA"
"-78.52","52.23","EASTMAIN RIVER A","7092310","2018-03-12 12:00","2018","03","12","12:00","-3.6","","-8.3","","70","","","M","9","","4","","","M","101.82","","","","-5","","NA"
"-78.52","52.23","EASTMAIN RIVER A","7092310","2018-03-12 13:00","2018","03","12","13:00","-2.8","","-8.4","","66","","","M","9","","8","","","M","101.81","","","","-6","","NA"
"-78.52","52.23","EASTMAIN RIVER A","7092310","2018-03-12 14:00","2018","03","12","14:00","-3.5","","-7.0","","77","","","M","33","","8","","","M","101.82","","","","-7","","NA"
"-78.52","52.23","EASTMAIN RIVER A","7092310","2018-03-12 15:00","2018","03","12","15:00","-3.4","","-6.5","","79","","","M","35","","5","","","M","101.83","","","","-5","","NA"
"-78.52","52.23","EASTMAIN RIVER A","7092310","2018-03-12 16:00","2018","03","12","16:00","-2.9","","-7.4","","71","","","M","1","","3","","","M","101.84","","","","-4","","NA"
"-78.52","52.23","EASTMAIN RIVER A","7092310","2018-03-12 17:00","2018","03","12","17:00","-3.6","","-6.4","","81","","","M","33","","9","","","M","101.88","","","","-7","","NA"
"-78.52","52.23","EASTMAIN RIVER A","7092310","2018-03-12 18:00","2018","03","12","18:00","-4.0","","-7.0","","80","","","M","36","","8","","","M","101.92","","","","-7","","NA"
"-78.52","52.23","EASTMAIN RIVER A","7092310","2018-03-12 19:00","2018","03","12","19:00","-4.8","","-7.0","","84","","","M","1","","11","","","M","101.96","","","","-9","","NA"
"-78.52","52.23","EASTMAIN RIVER A","7092310","2018-03-12 20:00","2018","03","12","20:00","-5.9","","-7.7","","87","","","M","2","","5","","","M","101.98","","","","-8","","NA"
"-78.52","52.23","EASTMAIN RIVER A","7092310","2018-03-12 21:00","2018","03","12","21:00","-7.8","","-9.1","","90","","","M","4","","7","","","M","101.98","","","","-11","","NA"
"-78.52","52.23","EASTMAIN RIVER A","7092310","2018-03-12 22:00","2018","03","12","22:00","-6.7","","-8.8","","85","","","M","4","","5","","","M","102.00","","","","-9","","NA"
"-78.52","52.23","EASTMAIN RIVER A","7092310","2018-03-12 23:00","2018","03","12","23:00","-6.8","","-8.9","","85","","","M","3","","5","","","M","102.00","","","","-9","","NA"
"-78.52","52.23","EASTMAIN RIVER A","7092310","2018-03-13 00:00","2018","03","13","00:00","-6.6","","-8.9","","83","","","M","1","","7","","","M","102.01","","","","-10","","NA"
"-78.52","52.23","EASTMAIN RIVER A","7092310","2018-03-13 01:00","2018","03","13","01:00","-6.9","","-9.3","","83","","","M","3","","5","","","M","102.02","","","","-9","","NA"
"-78.52","52.23","EASTMAIN RIVER A","7092310","2018-03-13 02:00","2018","03","13","02:00","-7.1","","-9.4","","83","","","M","2","","7","","","M","102.04","","","","-11","","NA"
"-78.52","52.23","EASTMAIN RIVER A","7092310","2018-03-13 03:00","2018","03","13","03:00","-7.7","","-9.7","","85","","","M","1","","11","","","M","102.03","","","","-13","","NA"
"-78.52","52.23","EASTMAIN RIVER A","7092310","2018-03-13 04:00","2018","03","13","04:00","-8.5","","-10.5","","85","","","M","2","","9","","","M","102.04","","","","-13","","NA"
"-78.52","52.23","EASTMAIN RIVER A","7092310","2018-03-13 05:00","2018","03","13","05:00","-9.4","","-11.0","","88","","","M","2","","7","","","M","102.07","","","","-13","","NA"
"-78.52","52.23","EASTMAIN RIVER A","7092310","2018-03-13 06:00","2018","03","13","06:00","-11.3","","-12.9","","88","","","M","34","","12","","","M","102.09","","","","-17","","NA"
"-78.52","52.23","EASTMAIN RIVER A","7092310","2018-03-13 07:00","2018","03","13","07:00","-11.2","","-13.0","","87","","","M","36","","10","","","M","102.13","","","","-17","","NA"
"-78.52","52.23","EASTMAIN RIVER A","7092310","2018-03-13 08:00","2018","03","13","08:00","-10.4","","-12.6","","84","","","M","34","","11","","","M","102.15","","","","-16","","NA"
"-78.52","52.23","EASTMAIN RIVER A","7092310","2018-03-13 09:00","2018","03","13","09:00","-9.3","","-13.0","","74","","","M","34","","13","","","M","102.18","","","","-15","","NA"
"-78.52","52.23","EASTMAIN RIVER A","7092310","2018-03-13 10:00","2018","03","13","10:00","-8.2","","-12.9","","69","","","M","33","","13","","","M","102.19","","","","-14","","NA"
"-78.52","52.23","EASTMAIN RIVER A","7092310","2018-03-13 11:00","2018","03","13","11:00","-8.7","","-12.8","","72","","","M","31","","17","","","M","102.17","","","","-16","","NA"
"-78.52","52.23","EASTMAIN RIVER A","7092310","2018-03-13 12:00","2018","03","13","12:00","-7.3","","-11.6","","72","","","M","32","","16","","","M","102.13","","","","-14","","NA"
"-78.52","52.23","EASTMAIN RIVER A","7092310","2018-03-13 13:00","2018","03","13","13:00","-6.8","","-10.8","","74","","","M","33","","22","","","M","102.09","","","","-14","","NA"
"-78.52","52.23","EASTMAIN RIVER A","7092310","2018-03-13 14:00","2018","03","13","14:00","-6.9","","-10.9","","73","","","M","33","","27","","","M","102.05","","","","-15","","NA"
"-78.52","52.23","EASTMAIN RIVER A","7092310","2018-03-13 15:00","2018","03","13","15:00","-7.2","","-10.2","","80","","","M","33","","25","","","M","102.04","","","","-15","","NA"
"-78.52","52.23","EASTMAIN RIVER A","7092310","2018-03-13 16:00","2018","03","13","16:00","-7.6","","-10.2","","82","","","M","33","","27","","","M","102.00","","","","-16","","NA"
"-78.52","52.23","EASTMAIN RIVER A","7092310","2018-03-13 17:00","2018","03","13","17:00","-8.3","","-10.7","","84","","","M","33","","23","","","M","102.01","","","","-16","","NA"
"-78.52","52.23","EASTMAIN RIVER A","7092310","2018-03-13 18:00","2018","03","13","18:00","-9.6","","-11.5","","86","","","M","33","","16","","","M","101.99","","","","-16","","NA"
"-78.52","52.23","EASTMAIN RIVER A","7092310","2018-03-13 19:00","2018","03","13","19:00","-10.3","","-12.0","","87","","","M","33","","17","","","M","101.98","","","","-18","","NA"
"-78.52","52.23","EASTMAIN RIVER A","7092310","2018-03-13 20:00","2018","03","13","20:00","-11.0","","-12.7","","87","","","M","33","","16","","","M","101.95","","","","-18","","NA"
"-78.52","52.23","EASTMAIN RIVER A","7092310","2018-03-13 21:00","2018","03","13","21:00","-11.2","","-12.9","","87","","","M","33","","14","","","M","101.91","","","","-18","","NA"
"-78.52","52.23","EASTMAIN RIVER A","7092310","2018-03-13 22:00","2018","03","13","22:00","-11.8","","-13.4","","88","","","M","33","","8","","","M","101.85","","","","-17","","NA"
"-78.52","52.23","EASTMAIN RIVER A","7092310","2018-03-13 23:00","2018","03","13","23:00","-11.2","","-12.6","","90","","","M","33","","8","","","M","101.77","","","","-16","","NA"
"-78.52","52.23","EASTMAIN RIVER A","7092310","2018-03-14 00:00","2018","03","14","00:00","-11.4","","-12.9","","88","","","M","36","","8","","","M","101.73","","","","-16","","NA"
"-78.52","52.23","EASTMAIN RIVER A","7092310","2018-03-14 01:00","2018","03","14","01:00","-11.4","","-13.1","","88","","","M","34","","8","","","M","101.70","","","","-16","","NA"
"-78.52","52.23","EASTMAIN RIVER A","7092310","2018-03-14 02:00","2018","03","14","02:00","-11.4","","-13.2","","87","","","M","33","","9","","","M","101.64","","","","-17","","NA"
"-78.52","52.23","EASTMAIN RIVER A","7092310","2018-03-14 03:00","2018","03","14","03:00","-11.6","","-13.3","","87","","","M","32","","8","","","M","101.53","","","","-16","","NA"
"-78.52","52.23","EASTMAIN RIVER A","7092310","2018-03-14 04:00","2018","03","14","04:00","-11.8","","-13.6","","87","","","M","32","","5","","","M","101.44","","","","-15","","NA"
"-78.52","52.23","EASTMAIN RIVER A","7092310","2018-03-14 05:00","2018","03","14","05:00","-12.3","","-14.2","","86","","","M","30","","8","","","M","101.38","","","","-17","","NA"
"-78.52","52.23","EASTMAIN RIVER A","7092310","2018-03-14 06:00","2018","03","14","06:00","-12.4","","-14.3","","86","","","M","35","","8","","","M","101.33","","","","-17","","NA"
"-78.52","52.23","EASTMAIN RIVER A","7092310","2018-03-14 07:00","2018","03","14","07:00","-12.6","","-14.5","","86","","","M","35","","7","","","M","101.29","","","","-17","","NA"
"-78.52","52.23","EASTMAIN RIVER A","7092310","2018-03-14 08:00","2018","03","14","08:00","-12.7","","-14.7","","85","","","M","31","","2","","","M","101.25","","","","-14","","NA"
"-78.52","52.23","EASTMAIN RIVER A","7092310","2018-03-14 09:00","2018","03","14","09:00","-12.3","","-14.2","","86","","","M","2","","1","","","M","101.17","","","","-13","","NA"
"-78.52","52.23","EASTMAIN RIVER A","7092310","2018-03-14 10:00","2018","03","14","10:00","-11.1","","-12.9","","86","","","M","32","","6","","","M","101.11","","","","-15","","NA"
"-78.52","52.23","EASTMAIN RIVER A","7092310","2018-03-14 11:00","2018","03","14","11:00","-11.8","","-13.6","","86","","","M","30","","8","","","M","101.07","","","","-17","","NA"
"-78.52","52.23","EASTMAIN RIVER A","7092310","2018-03-14 12:00","2018","03","14","12:00","-11.7","","-13.6","","86","","","M","32","","13","","","M","100.98","","","","-18","","NA"
"-78.52","52.23","EASTMAIN RIVER A","7092310","2018-03-14 13:00","2018","03","14","13:00","-11.0","","-12.9","","87","","","M","31","","9","","","M","100.87","","","","-16","","NA"
"-78.52","52.23","EASTMAIN RIVER A","7092310","2018-03-14 14:00","2018","03","14","14:00","-10.1","","-11.8","","87","","","M","29","","11","","","M","100.78","","","","-16","","NA"
"-78.52","52.23","EASTMAIN RIVER A","7092310","2018-03-14 15:00","2018","03","14","15:00","-10.6","","-12.4","","87","","","M","32","","15","","","M","100.72","","","","-17","","NA"
"-78.52","52.23","EASTMAIN RIVER A","7092310","2018-03-14 16:00","2018","03","14","16:00","-10.4","","-12.1","","87","","","M","32","","11","","","M","100.66","","","","-16","","NA"
"-78.52","52.23","EASTMAIN RIVER A","7092310","2018-03-14 17:00","2018","03","14","17:00","-10.8","","-12.6","","87","","","M","30","","10","","","M","100.62","","","","-16","","NA"
"-78.52","52.23","EASTMAIN RIVER A","7092310","2018-03-14 18:00","2018","03","14","18:00","-12.4","","-14.4","","86","","","M","31","","11","","","M","100.61","","","","-18","","NA"
"-78.52","52.23","EASTMAIN RIVER A","7092310","2018-03-14 19:00","2018","03","14","19:00","-12.5","","-14.4","","86","","","M","33","","12","","","M","100.58","","","","-19","","NA"
"-78.52","52.23","EASTMAIN RIVER A","7092310","2018-03-14 20:00","2018","03","14","20:00","-13.2","","-15.3","","85","","","M","32","","11","","","M","100.56","","","","-19","","NA"
"-78.52","52.23","EASTMAIN RIVER A","7092310","2018-03-14 21:00","2018","03","14","21:00","-13.7","","-15.7","","85","","","M","31","","11","","","M","100.54","","","","-20","","NA"
"-78.52","52.23","EASTMAIN RIVER A","7092310","2018-03-14 22:00","2018","03","14","22:00","-14.3","","-16.4","","84","","","M","33","","16","","","M","100.49","","","","-22","","NA"
"-78.52","52.23","EASTMAIN RIVER A","7092310","2018-03-14 23:00","2018","03","14","23:00","-15.4","","-17.7","","83","","","M","32","","16","","","M","100.46","","","","-24","","NA"
"-78.52","52.23","EASTMAIN RIVER A","7092310","2018-03-15 00:00","2018","03","15","00:00","-15.9","","-18.2","","83","","","M","33","","15","","","M","100.41","","","","-24","","NA"
"-78.52","52.23","EASTMAIN RIVER A","7092310","2018-03-15 01:00","2018","03","15","01:00","-15.5","","-17.8","","83","","","M","33","","15","","","M","100.36","","","","-24","","NA"
"-78.52","52.23","EASTMAIN RIVER A","7092310","2018-03-15 02:00","2018","03","15","02:00","-14.1","","-16.2","","84","","","M","33","","18","","","M","100.33","","","","-23","","NA"
"-78.52","52.23","EASTMAIN RIVER A","7092310","2018-03-15 03:00","2018","03","15","03:00","-12.0","","-13.8","","86","","","M","33","","25","","","M","100.29","","","","-21","","NA"
"-78.52","52.23","EASTMAIN RIVER A","7092310","2018-03-15 04:00","2018","03","15","04:00","-10.9","","-12.7","","87","","","M","32","","17","","","M","100.26","","","","-18","","NA"
"-78.52","52.23","EASTMAIN RIVER A","7092310","2018-03-15 05:00","2018","03","15","05:00","-10.4","","-12.2","","87","","","M","31","","21","","","M","100.26","","","","-19","","NA"
"-78.52","52.23","EASTMAIN RIVER A","7092310","2018-03-15 06:00","2018","03","15","06:00","-10.0","","-11.7","","88","","","M","32","","27","","","M","100.27","","","","-19","","NA"
"-78.52","52.23","EASTMAIN RIVER A","7092310","2018-03-15 07:00","2018","03","15","07:00","-9.6","","-11.2","","88","","","M","32","","20","","","M","100.26","","","","-17","","NA"
"-78.52","52.23","EASTMAIN RIVER A","7092310","2018-03-15 08:00","2018","03","15","08:00","-9.6","","-11.2","","88","","","M","31","","21","","","M","100.28","","","","-18","","NA"
"-78.52","52.23","EASTMAIN RIVER A","7092310","2018-03-15 09:00","2018","03","15","09:00","-9.4","","-11.0","","88","","","M","31","","23","","","M","100.26","","","","-18","","NA"
"-78.52","52.23","EASTMAIN RIVER A","7092310","2018-03-15 10:00","2018","03","15","10:00","-9.0","","-10.6","","89","","","M","32","","23","","","M","100.24","","","","-17","","NA"
"-78.52","52.23","EASTMAIN RIVER A","7092310","2018-03-15 11:00","2018","03","15","11:00","-8.7","","-10.3","","89","","","M","32","","27","","","M","100.25","","","","-17","","NA"
"-78.52","52.23","EASTMAIN RIVER A","7092310","2018-03-15 12:00","2018","03","15","12:00","-8.4","","-10.0","","88","","","M","32","","29","","","M","100.25","","","","-17","","NA"
"-78.52","52.23","EASTMAIN RIVER A","7092310","2018-03-15 13:00","2018","03","15","13:00","-8.3","","-10.1","","87","","","M","33","","35","","","M","100.24","","","","-18","","NA"
"-78.52","52.23","EASTMAIN RIVER A","7092310","2018-03-15 14:00","2018","03","15","14:00","-7.8","","-9.9","","85","","","M","33","","34","","","M","100.23","","","","-17","","NA"
"-78.52","52.23","EASTMAIN RIVER A","7092310","2018-03-15 15:00","2018","03","15","15:00","-8.5","","-10.7","","84","","","M","33","","39","","","M","100.29","","","","-19","","NA"
"-78.52","52.23","EASTMAIN RIVER A","7092310","2018-03-15 16:00","2018","03","15","16:00","-8.9","","-11.3","","82","","","M","32","","39","","","M","100.34","","","","-19","","NA"
"-78.52","52.23","EASTMAIN RIVER A","7092310","2018-03-15 17:00","2018","03","15","17:00","-9.4","","-11.6","","84","","","M","32","","36","","","M","100.42","","","","-20","","NA"
"-78.52","52.23","EASTMAIN RIVER A","7092310","2018-03-15 18:00","2018","03","15","18:00","-10.6","","-12.8","","84","","","M","32","","37","","","M","100.49","","","","-21","","NA"
"-78.52","52.23","EASTMAIN RIVER A","7092310","2018-03-15 19:00","2018","03","15","19:00","-11.4","","-13.6","","84","","","M","32","","36","","","M","100.58","","","","-22","","NA"
"-78.52","52.23","EASTMAIN RIVER A","7092310","2018-03-15 20:00","2018","03","15","20:00","-12.3","","-14.6","","83","","","M","32","","31","","","M","100.66","","","","-23","","NA"
"-78.52","52.23","EASTMAIN RIVER A","7092310","2018-03-15 21:00","2018","03","15","21:00","-12.9","","-15.3","","82","","","M","32","","30","","","M","100.72","","","","-23","","NA"
"-78.52","52.23","EASTMAIN RIVER A","7092310","2018-03-15 22:00","2018","03","15","22:00","-13.4","","-16.0","","82","","","M","31","","27","","","M","100.74","","","","-23","","NA"
"-78.52","52.23","EASTMAIN RIVER A","7092310","2018-03-15 23:00","2018","03","15","23:00","-13.8","","-16.3","","82","","","M","31","","26","","","M","100.74","","","","-24","","NA"
"-78.52","52.23","EASTMAIN RIVER A","7092310","2018-03-16 00:00","2018","03","16","00:00","-14.3","","-16.9","","81","","","M","30","","25","","","M","100.73","","","","-24","","NA"
"-78.52","52.23","EASTMAIN RIVER A","7092310","2018-03-16 01:00","2018","03","16","01:00","-14.2","","-16.7","","82","","","M","31","","25","","","M","100.74","","","","-24","","NA"
"-78.52","52.23","EASTMAIN RIVER A","7092310","2018-03-16 02:00","2018","03","16","02:00","-14.7","","-17.3","","81","","","M","31","","27","","","M","100.77","","","","-25","","NA"
"-78.52","52.23","EASTMAIN RIVER A","7092310","2018-03-16 03:00","2018","03","16","03:00","-15.3","","-17.9","","81","","","M","31","","27","","","M","100.81","","","","-26","","NA"
"-78.52","52.23","EASTMAIN RIVER A","7092310","2018-03-16 04:00","2018","03","16","04:00","-15.6","","-18.3","","80","","","M","31","","25","","","M","100.84","","","","-26","","NA"
"-78.52","52.23","EASTMAIN RIVER A","7092310","2018-03-16 05:00","2018","03","16","05:00","-16.6","","-19.3","","80","","","M","31","","26","","","M","100.90","","","","-27","","NA"
"-78.52","52.23","EASTMAIN RIVER A","7092310","2018-03-16 06:00","2018","03","16","06:00","-17.4","","-20.1","","80","","","M","30","","22","","","M","100.95","","","","-28","","NA"
"-78.52","52.23","EASTMAIN RIVER A","7092310","2018-03-16 07:00","2018","03","16","07:00","-18.0","","-20.7","","80","","","M","30","","17","","","M","100.98","","","","-27","","NA"
"-78.52","52.23","EASTMAIN RIVER A","7092310","2018-03-16 08:00","2018","03","16","08:00","-18.5","","-21.4","","78","","","M","29","","22","","","M","100.99","","","","-29","","NA"
"-78.52","52.23","EASTMAIN RIVER A","7092310","2018-03-16 09:00","2018","03","16","09:00","-18.0","","-21.1","","77","","","M","28","","18","","","M","100.99","","","","-27","","NA"
"-78.52","52.23","EASTMAIN RIVER A","7092310","2018-03-16 10:00","2018","03","16","10:00","-17.5","","-20.9","","75","","","M","29","","20","","","M","100.99","","","","-27","","NA"
"-78.52","52.23","EASTMAIN RIVER A","7092310","2018-03-16 11:00","2018","03","16","11:00","-16.8","","-20.5","","73","","","M","29","","18","","","M","100.96","","","","-26","","NA"
"-78.52","52.23","EASTMAIN RIVER A","7092310","2018-03-16 12:00","2018","03","16","12:00","-16.0","","-20.1","","71","","","M","28","","16","","","M","100.91","","","","-24","","NA"
"-78.52","52.23","EASTMAIN RIVER A","7092310","2018-03-16 13:00","2018","03","16","13:00","-15.9","","-20.3","","69","","","M","30","","19","","","M","100.90","","","","-25","","NA"
"-78.52","52.23","EASTMAIN RIVER A","7092310","2018-03-16 14:00","2018","03","16","14:00","-15.2","","-19.8","","69","","","M","29","","20","","","M","100.88","","","","-24","","NA"
"-78.52","52.23","EASTMAIN RIVER A","7092310","2018-03-16 15:00","2018","03","16","15:00","-14.8","","-19.6","","67","","","M","30","","17","","","M","100.90","","","","-23","","NA"
"-78.52","52.23","EASTMAIN RIVER A","7092310","2018-03-16 16:00","2018","03","16","16:00","-14.6","","-19.6","","66","","","M","30","","22","","","M","100.91","","","","-24","","NA"
"-78.52","52.23","EASTMAIN RIVER A","7092310","2018-03-16 17:00","2018","03","16","17:00","-15.2","","-18.8","","74","","","M","30","","20","","","M","100.95","","","","-24","","NA"
"-78.52","52.23","EASTMAIN RIVER A","7092310","2018-03-16 18:00","2018","03","16","18:00","-15.5","","-18.6","","78","","","M","30","","19","","","M","100.97","","","","-25","","NA"
"-78.52","52.23","EASTMAIN RIVER A","7092310","2018-03-16 19:00","2018","03","16","19:00","-15.8","","-18.6","","79","","","M","31","","19","","","M","100.96","","","","-25","","NA"
"-78.52","52.23","EASTMAIN RIVER A","7092310","2018-03-16 20:00","2018","03","16","20:00","-16.6","","-19.9","","76","","","M","31","","23","","","M","100.94","","","","-27","","NA"
"-78.52","52.23","EASTMAIN RIVER A","7092310","2018-03-16 21:00","2018","03","16","21:00","-17.1","","-21.0","","72","","","M","32","","21","","","M","100.94","","","","-27","","NA"
"-78.52","52.23","EASTMAIN RIVER A","7092310","2018-03-16 22:00","2018","03","16","22:00","-19.8","","-22.8","","77","","","M","32","","26","","","M","100.96","","","","-32","","NA"
"-78.52","52.23","EASTMAIN RIVER A","7092310","2018-03-16 23:00","2018","03","16","23:00","-20.8","","-23.8","","77","","","M","31","","22","","","M","100.96","","","","-32","","NA"
"-78.52","52.23","EASTMAIN RIVER A","7092310","2018-03-17 00:00","2018","03","17","00:00","-21.4","","-24.4","","77","","","M","32","","23","","","M","100.97","","","","-33","","NA"
"-78.52","52.23","EASTMAIN RIVER A","7092310","2018-03-17 01:00","2018","03","17","01:00","-20.9","","-23.8","","78","","","M","32","","23","","","M","101.06","","","","-32","","NA"
"-78.52","52.23","EASTMAIN RIVER A","7092310","2018-03-17 02:00","2018","03","17","02:00","-21.7","","-24.8","","77","","","M","32","","22","","","M","101.17","","","","-33","","NA"
"-78.52","52.23","EASTMAIN RIVER A","7092310","2018-03-17 03:00","2018","03","17","03:00","-23.4","","-26.6","","75","","","M","32","","18","","","M","101.24","","","","-34","","NA"
"-78.52","52.23","EASTMAIN RIVER A","7092310","2018-03-17 04:00","2018","03","17","04:00","-24.4","","-27.5","","76","","","M","31","","17","","","M","101.33","","","","-35","","NA"
"-78.52","52.23","EASTMAIN RIVER A","7092310","2018-03-17 05:00","2018","03","17","05:00","-24.8","","-28.0","","75","","","M","31","","19","","","M","101.41","","","","-36","","NA"
"-78.52","52.23","EASTMAIN RIVER A","7092310","2018-03-17 06:00","2018","03","17","06:00","-25.1","","-28.5","","74","","","M","31","","16","","","M","101.45","","","","-36","","NA"
"-78.52","52.23","EASTMAIN RIVER A","7092310","2018-03-17 07:00","2018","03","17","07:00","-25.2","","-28.6","","74","","","M","31","","13","","","M","101.49","","","","-35","","NA"
"-78.52","52.23","EASTMAIN RIVER A","7092310","2018-03-17 08:00","2018","03","17","08:00","-24.9","","-28.5","","73","","","M","29","","12","","","M","101.54","","","","-34","","NA"
"-78.52","52.23","EASTMAIN RIVER A","7092310","2018-03-17 09:00","2018","03","17","09:00","-24.0","","-27.8","","71","","","M","26","","17","","","M","101.60","","","","-35","","NA"
"-78.52","52.23","EASTMAIN RIVER A","7092310","2018-03-17 10:00","2018","03","17","10:00","-23.3","","-27.4","","70","","","M","26","","19","","","M","101.57","","","","-34","","NA"
"-78.52","52.23","EASTMAIN RIVER A","7092310","2018-03-17 11:00","2018","03","17","11:00","-22.9","","-27.1","","69","","","M","28","","18","","","M","101.57","","","","-34","","NA"
"-78.52","52.23","EASTMAIN RIVER A","7092310","2018-03-17 12:00","2018","03","17","12:00","-22.1","","-26.5","","68","","","M","26","","18","","","M","101.55","","","","-33","","NA"
"-78.52","52.23","EASTMAIN RIVER A","7092310","2018-03-17 13:00","2018","03","17","13:00","-22.0","","-26.5","","67","","","M","25","","21","","","M","101.55","","","","-33","","NA"
"-78.52","52.23","EASTMAIN RIVER A","7092310","2018-03-17 14:00","2018","03","17","14:00","-20.8","","-25.2","","69","","","M","27","","17","","","M","101.52","","","","-31","","NA"
"-78.52","52.23","EASTMAIN RIVER A","7092310","2018-03-17 15:00","2018","03","17","15:00","-20.5","","-24.6","","70","","","M","27","","21","","","M","101.51","","","","-31","","NA"
"-78.52","52.23","EASTMAIN RIVER A","7092310","2018-03-17 16:00","2018","03","17","16:00","-19.9","","-23.4","","74","","","M","28","","13","","","M","101.53","","","","-28","","NA"
"-78.52","52.23","EASTMAIN RIVER A","7092310","2018-03-17 17:00","2018","03","17","17:00","-19.5","","-23.0","","75","","","M","29","","17","","","M","101.54","","","","-29","","NA"
"-78.52","52.23","EASTMAIN RIVER A","7092310","2018-03-17 18:00","2018","03","17","18:00","-20.5","","-24.1","","74","","","M","29","","13","","","M","101.55","","","","-29","","NA"
"-78.52","52.23","EASTMAIN RIVER A","7092310","2018-03-17 19:00","2018","03","17","19:00","-20.9","","-24.4","","75","","","M","32","","9","","","M","101.55","","","","-28","","NA"
"-78.52","52.23","EASTMAIN RIVER A","7092310","2018-03-17 20:00","2018","03","17","20:00","-22.3","","-25.4","","77","","","M","31","","5","","","M","101.54","","","","-27","","NA"
"-78.52","52.23","EASTMAIN RIVER A","7092310","2018-03-17 21:00","2018","03","17","21:00","-26.3","","-28.9","","79","","","M","21","","5","","","M","101.51","","","","-31","","NA"
"-78.52","52.23","EASTMAIN RIVER A","7092310","2018-03-17 22:00","2018","03","17","22:00","-27.9","","-31.1","","75","","","M","21","","7","","","M","101.48","","","","-35","","NA"
"-78.52","52.23","EASTMAIN RIVER A","7092310","2018-03-17 23:00","2018","03","17","23:00","-26.6","","-29.4","","78","","","M","21","","9","","","M","101.44","","","","-35","","NA"
"-78.52","52.23","EASTMAIN RIVER A","7092310","2018-03-18 00:00","2018","03","18","00:00","-27.0","","-30.0","","76","","","M","21","","7","","","M","101.43","","","","-34","","NA"
"-78.52","52.23","EASTMAIN RIVER A","7092310","2018-03-18 01:00","2018","03","18","01:00","-27.0","","-30.1","","76","","","M","24","","5","","","M","101.43","","","","-32","","NA"
"-78.52","52.23","EASTMAIN RIVER A","7092310","2018-03-18 02:00","2018","03","18","02:00","-27.0","","-30.0","","76","","","M","23","","6","","","M","101.44","","","","-33","","NA"
"-78.52","52.23","EASTMAIN RIVER A","7092310","2018-03-18 03:00","2018","03","18","03:00","-26.1","","-29.1","","76","","","M","34","","1","","","M","101.44","","","","-27","","NA"
"-78.52","52.23","EASTMAIN RIVER A","7092310","2018-03-18 04:00","2018","03","18","04:00","-25.1","","-28.1","","76","","","M","25","","4","","","M","101.46","","","","-29","","NA"
"-78.52","52.23","EASTMAIN RIVER A","7092310","2018-03-18 05:00","2018","03","18","05:00","-23.9","","-26.9","","77","","","M","26","","8","","","M","101.49","","","","-31","","NA"
"-78.52","52.23","EASTMAIN RIVER A","7092310","2018-03-18 06:00","2018","03","18","06:00","-23.8","","-26.8","","77","","","M","26","","10","","","M","101.53","","","","-32","","NA"
"-78.52","52.23","EASTMAIN RIVER A","7092310","2018-03-18 07:00","2018","03","18","07:00","-23.5","","-26.4","","77","","","M","27","","10","","","M","101.57","","","","-31","","NA"
"-78.52","52.23","EASTMAIN RIVER A","7092310","2018-03-18 08:00","2018","03","18","08:00","-22.2","","-25.1","","78","","","M","27","","9","","","M","101.58","","","","-29","","NA"
"-78.52","52.23","EASTMAIN RIVER A","7092310","2018-03-18 09:00","2018","03","18","09:00","-21.4","","-24.4","","78","","","M","28","","13","","","M","101.65","","","","-30","","NA"
"-78.52","52.23","EASTMAIN RIVER A","7092310","2018-03-18 10:00","2018","03","18","10:00","-20.6","","-23.5","","78","","","M","29","","8","","","M","101.68","","","","-27","","NA"
"-78.52","52.23","EASTMAIN RIVER A","7092310","2018-03-18 11:00","2018","03","18","11:00","-19.4","","-22.9","","74","","","M","29","","16","","","M","101.72","","","","-29","","NA"
"-78.52","52.23","EASTMAIN RIVER A","7092310","2018-03-18 12:00","2018","03","18","12:00","-18.4","","-22.6","","70","","","M","29","","12","","","M","101.77","","","","-26","","NA"
"-78.52","52.23","EASTMAIN RIVER A","7092310","2018-03-18 13:00","2018","03","18","13:00","-17.5","","-21.8","","70","","","M","29","","13","","","M","101.83","","","","-25","","NA"
"-78.52","52.23","EASTMAIN RIVER A","7092310","2018-03-18 14:00","2018","03","18","14:00","-17.1","","-21.7","","68","","","M","29","","18","","","M","101.87","","","","-26","","NA"
"-78.52","52.23","EASTMAIN RIVER A","7092310","2018-03-18 15:00","2018","03","18","15:00","-16.8","","-21.3","","68","","","M","31","","16","","","M","101.93","","","","-25","","NA"
"-78.52","52.23","EASTMAIN RIVER A","7092310","2018-03-18 16:00","2018","03","18","16:00","-17.2","","-22.0","","67","","","M","31","","19","","","M","102.00","","","","-27","","NA"
"-78.52","52.23","EASTMAIN RIVER A","7092310","2018-03-18 17:00","2018","03","18","17:00","-17.2","","-21.9","","67","","","M","31","","15","","","M","102.04","","","","-26","","NA"
"-78.52","52.23","EASTMAIN RIVER A","7092310","2018-03-18 18:00","2018","03","18","18:00","-17.3","","-21.2","","72","","","M","32","","16","","","M","102.11","","","","-26","","NA"
"-78.52","52.23","EASTMAIN RIVER A","7092310","2018-03-18 19:00","2018","03","18","19:00","-17.1","","-20.8","","73","","","M","33","","16","","","M","102.14","","","","-26","","NA"
"-78.52","52.23","EASTMAIN RIVER A","7092310","2018-03-18 20:00","2018","03","18","20:00","-16.8","","-20.2","","75","","","M","32","","15","","","M","102.17","","","","-25","","NA"
"-78.52","52.23","EASTMAIN RIVER A","7092310","2018-03-18 21:00","2018","03","18","21:00","-16.6","","-19.8","","77","","","M","31","","12","","","M","102.18","","","","-24","","NA"
"-78.52","52.23","EASTMAIN RIVER A","7092310","2018-03-18 22:00","2018","03","18","22:00","-16.4","","-19.3","","79","","","M","30","","13","","","M","102.15","","","","-24","","NA"
"-78.52","52.23","EASTMAIN RIVER A","7092310","2018-03-18 23:00","2018","03","18","23:00","-16.1","","-18.9","","79","","","M","29","","12","","","M","102.14","","","","-23","","NA"
"-78.52","52.23","EASTMAIN RIVER A","7092310","2018-03-19 00:00","2018","03","19","00:00","-15.4","","-18.3","","79","","","M","31","","13","","","M","102.14","","","","-23","","NA"
"-78.52","52.23","EASTMAIN RIVER A","7092310","2018-03-19 01:00","2018","03","19","01:00","-15.3","","-18.0","","80","","","M","31","","13","","","M","102.18","","","","-23","","NA"
"-78.52","52.23","EASTMAIN RIVER A","7092310","2018-03-19 02:00","2018","03","19","02:00","-15.3","","-18.0","","81","","","M","30","","11","","","M","102.19","","","","-22","","NA"
"-78.52","52.23","EASTMAIN RIVER A","7092310","2018-03-19 03:00","2018","03","19","03:00","-15.7","","-18.2","","81","","","M","29","","14","","","M","102.22","","","","-23","","NA"
"-78.52","52.23","EASTMAIN RIVER A","7092310","2018-03-19 04:00","2018","03","19","04:00","-15.8","","-18.3","","81","","","M","29","","13","","","M","102.24","","","","-23","","NA"
"-78.52","52.23","EASTMAIN RIVER A","7092310","2018-03-19 05:00","2018","03","19","05:00","-15.8","","-18.3","","81","","","M","32","","19","","","M","102.28","","","","-25","","NA"
"-78.52","52.23","EASTMAIN RIVER A","7092310","2018-03-19 06:00","2018","03","19","06:00","-15.9","","-18.2","","82","","","M","32","","15","","","M","102.30","","","","-24","","NA"
"-78.52","52.23","EASTMAIN RIVER A","7092310","2018-03-19 07:00","2018","03","19","07:00","-16.0","","-18.6","","81","","","M","33","","17","","","M","102.34","","","","-25","","NA"
"-78.52","52.23","EASTMAIN RIVER A","7092310","2018-03-19 08:00","2018","03","19","08:00","-16.0","","-18.4","","82","","","M","33","","13","","","M","102.34","","","","-24","","NA"
"-78.52","52.23","EASTMAIN RIVER A","7092310","2018-03-19 09:00","2018","03","19","09:00","-15.9","","-18.8","","79","","","M","31","","14","","","M","102.37","","","","-24","","NA"
"-78.52","52.23","EASTMAIN RIVER A","7092310","2018-03-19 10:00","2018","03","19","10:00","-15.8","","-18.9","","77","","","M","31","","17","","","M","102.40","","","","-24","","NA"
"-78.52","52.23","EASTMAIN RIVER A","7092310","2018-03-19 11:00","2018","03","19","11:00","-15.4","","-19.0","","75","","","M","28","","13","","","M","102.43","","","","-23","","NA"
"-78.52","52.23","EASTMAIN RIVER A","7092310","2018-03-19 12:00","2018","03","19","12:00","-15.3","","-19.4","","71","","","M","28","","13","","","M","102.41","","","","-23","","NA"
"-78.52","52.23","EASTMAIN RIVER A","7092310","2018-03-19 13:00","2018","03","19","13:00","-14.5","","-18.8","","71","","","M","27","","14","","","M","102.40","","","","-22","","NA"
"-78.52","52.23","EASTMAIN RIVER A","7092310","2018-03-19 14:00","2018","03","19","14:00","-14.1","","-18.4","","70","","","M","31","","17","","","M","102.37","","","","-22","","NA"
"-78.52","52.23","EASTMAIN RIVER A","7092310","2018-03-19 15:00","2018","03","19","15:00","-14.5","","-18.5","","72","","","M","32","","18","","","M","102.40","","","","-23","","NA"
"-78.52","52.23","EASTMAIN RIVER A","7092310","2018-03-19 16:00","2018","03","19","16:00","-14.4","","-18.3","","73","","","M","31","","19","","","M","102.40","","","","-23","","NA"
"-78.52","52.23","EASTMAIN RIVER A","7092310","2018-03-19 17:00","2018","03","19","17:00","-14.6","","-18.2","","75","","","M","32","","19","","","M","102.40","","","","-23","","NA"
"-78.52","52.23","EASTMAIN RIVER A","7092310","2018-03-19 18:00","2018","03","19","18:00","-14.8","","-17.8","","78","","","M","32","","18","","","M","102.40","","","","-23","","NA"
"-78.52","52.23","EASTMAIN RIVER A","7092310","2018-03-19 19:00","2018","03","19","19:00","-15.2","","-18.2","","78","","","M","31","","17","","","M","102.41","","","","-24","","NA"
"-78.52","52.23","EASTMAIN RIVER A","7092310","2018-03-19 20:00","2018","03","19","20:00","-15.5","","-18.3","","79","","","M","32","","15","","","M","102.41","","","","-24","","NA"
"-78.52","52.23","EASTMAIN RIVER A","7092310","2018-03-19 21:00","2018","03","19","21:00","-15.5","","-18.5","","78","","","M","33","","22","","","M","102.42","","","","-25","","NA"
"-78.52","52.23","EASTMAIN RIVER A","7092310","2018-03-19 22:00","2018","03","19","22:00","-15.8","","-18.8","","78","","","M","33","","18","","","M","102.40","","","","-25","","NA"
"-78.52","52.23","EASTMAIN RIVER A","7092310","2018-03-19 23:00","2018","03","19","23:00","-16.3","","-19.4","","78","","","M","33","","9","","","M","102.38","","","","-22","","NA"
"-78.52","52.23","EASTMAIN RIVER A","7092310","2018-03-20 00:00","2018","03","20","00:00","-18.0","","-20.2","","83","","","M","31","","11","","","M","102.38","","","","-25","","NA"
"-78.52","52.23","EASTMAIN RIVER A","7092310","2018-03-20 01:00","2018","03","20","01:00","-18.9","","-21.3","","81","","","M","31","","10","","","M","102.40","","","","-26","","NA"
"-78.52","52.23","EASTMAIN RIVER A","7092310","2018-03-20 02:00","2018","03","20","02:00","-19.5","","-22.0","","81","","","M","31","","5","","","M","102.40","","","","-24","","NA"
"-78.52","52.23","EASTMAIN RIVER A","7092310","2018-03-20 03:00","2018","03","20","03:00","-19.2","","-21.7","","81","","","M","32","","8","","","M","102.38","","","","-25","","NA"
"-78.52","52.23","EASTMAIN RIVER A","7092310","2018-03-20 04:00","2018","03","20","04:00","-18.2","","-20.7","","82","","","M","30","","13","","","M","102.39","","","","-26","","NA"
"-78.52","52.23","EASTMAIN RIVER A","7092310","2018-03-20 05:00","2018","03","20","05:00","-18.4","","-21.0","","81","","","M","33","","12","","","M","102.44","","","","-26","","NA"
"-78.52","52.23","EASTMAIN RIVER A","7092310","2018-03-20 06:00","2018","03","20","06:00","-18.4","","-20.8","","82","","","M","32","","14","","","M","102.45","","","","-27","","NA"
"-78.52","52.23","EASTMAIN RIVER A","7092310","2018-03-20 07:00","2018","03","20","07:00","-19.0","","-21.7","","80","","","M","33","","11","","","M","102.49","","","","-26","","NA"
"-78.52","52.23","EASTMAIN RIVER A","7092310","2018-03-20 08:00","2018","03","20","08:00","-18.5","","-21.1","","80","","","M","33","","12","","","M","102.50","","","","-26","","NA"
"-78.52","52.23","EASTMAIN RIVER A","7092310","2018-03-20 09:00","2018","03","20","09:00","-18.4","","-21.2","","79","","","M","31","","12","","","M","102.53","","","","-26","","NA"
"-78.52","52.23","EASTMAIN RIVER A","7092310","2018-03-20 10:00","2018","03","20","10:00","-17.7","","-20.7","","78","","","M","31","","13","","","M","102.52","","","","-26","","NA"
"-78.52","52.23","EASTMAIN RIVER A","7092310","2018-03-20 11:00","2018","03","20","11:00","-17.2","","-20.9","","73","","","M","32","","14","","","M","102.51","","","","-25","","NA"
"-78.52","52.23","EASTMAIN RIVER A","7092310","2018-03-20 12:00","2018","03","20","12:00","-16.4","","-20.4","","72","","","M","31","","15","","","M","102.49","","","","-25","","NA"
"-78.52","52.23","EASTMAIN RIVER A","7092310","2018-03-20 13:00","2018","03","20","13:00","-15.7","","-19.9","","71","","","M","31","","14","","","M","102.49","","","","-23","","NA"
"-78.52","52.23","EASTMAIN RIVER A","7092310","2018-03-20 14:00","2018","03","20","14:00","-15.7","","-19.5","","73","","","M","29","","15","","","M","102.49","","","","-24","","NA"
"-78.52","52.23","EASTMAIN RIVER A","7092310","2018-03-20 15:00","2018","03","20","15:00","-15.3","","-19.1","","73","","","M","31","","14","","","M","102.49","","","","-23","","NA"
"-78.52","52.23","EASTMAIN RIVER A","7092310","2018-03-20 16:00","2018","03","20","16:00","-14.9","","-18.7","","73","","","M","30","","13","","","M","102.48","","","","-22","","NA"
"-78.52","52.23","EASTMAIN RIVER A","7092310","2018-03-20 17:00","2018","03","20","17:00","-14.5","","-18.2","","74","","","M","31","","12","","","M","102.50","","","","-21","","NA"
"-78.52","52.23","EASTMAIN RIVER A","7092310","2018-03-20 18:00","2018","03","20","18:00","-14.6","","-17.5","","79","","","M","30","","9","","","M","102.53","","","","-20","","NA"
"-78.52","52.23","EASTMAIN RIVER A","7092310","2018-03-20 19:00","2018","03","20","19:00","-14.7","","-17.3","","81","","","M","31","","10","","","M","102.55","","","","-21","","NA"
"-78.52","52.23","EASTMAIN RIVER A","7092310","2018-03-20 20:00","2018","03","20","20:00","-14.4","","-17.1","","81","","","M","33","","10","","","M","102.54","","","","-21","","NA"
"-78.52","52.23","EASTMAIN RIVER A","7092310","2018-03-20 21:00","2018","03","20","21:00","-14.4","","-17.1","","80","","","M","35","","11","","","M","102.54","","","","-21","","NA"
"-78.52","52.23","EASTMAIN RIVER A","7092310","2018-03-20 22:00","2018","03","20","22:00","-14.5","","-17.2","","80","","","M","34","","9","","","M","102.52","","","","-20","","NA"
"-78.52","52.23","EASTMAIN RIVER A","7092310","2018-03-20 23:00","2018","03","20","23:00","-14.4","","-17.2","","80","","","M","34","","5","","","M","102.51","","","","-18","","NA"
"-78.52","52.23","EASTMAIN RIVER A","7092310","2018-03-21 00:00","2018","03","21","00:00","-14.7","","-17.4","","80","","","M","36","","5","","","M","102.50","","","","-18","","NA"
"-78.52","52.23","EASTMAIN RIVER A","7092310","2018-03-21 01:00","2018","03","21","01:00","-15.4","","-17.9","","82","","","M","34","","4","","","M","102.49","","","","-18","","NA"
"-78.52","52.23","EASTMAIN RIVER A","7092310","2018-03-21 02:00","2018","03","21","02:00","-17.7","","-19.8","","84","","","M","34","","2","","","M","102.50","","","","-19","","NA"
"-78.52","52.23","EASTMAIN RIVER A","7092310","2018-03-21 03:00","2018","03","21","03:00","-18.3","","-20.8","","81","","","M","34","","1","","","M","102.49","","","","-19","","NA"
"-78.52","52.23","EASTMAIN RIVER A","7092310","2018-03-21 04:00","2018","03","21","04:00","-18.1","","-20.7","","80","","","M","36","","1","","","M","102.53","","","","-19","","NA"
"-78.52","52.23","EASTMAIN RIVER A","7092310","2018-03-21 05:00","2018","03","21","05:00","-17.8","","-20.2","","81","","","M","35","","3","","","M","102.56","","","","-20","","NA"
"-78.52","52.23","EASTMAIN RIVER A","7092310","2018-03-21 06:00","2018","03","21","06:00","-16.8","","-19.4","","81","","","M","36","","2","","","M","102.59","","","","-18","","NA"
"-78.52","52.23","EASTMAIN RIVER A","7092310","2018-03-21 07:00","2018","03","21","07:00","-15.5","","-18.2","","80","","","M","1","","2","","","M","102.63","","","","-17","","NA"
"-78.52","52.23","EASTMAIN RIVER A","7092310","2018-03-21 08:00","2018","03","21","08:00","-13.8","","-17.3","","76","","","M","4","","3","","","M","102.66","","","","-16","","NA"
"-78.52","52.23","EASTMAIN RIVER A","7092310","2018-03-21 09:00","2018","03","21","09:00","-11.8","","-15.9","","72","","","M","32","","2","","","M","102.65","","","","-13","","NA"
"-78.52","52.23","EASTMAIN RIVER A","7092310","2018-03-21 10:00","2018","03","21","10:00","-9.8","","-14.7","","68","","","M","3","","11","","","M","102.63","","","","-15","","NA"
"-78.52","52.23","EASTMAIN RIVER A","7092310","2018-03-21 11:00","2018","03","21","11:00","-9.0","","-14.4","","66","","","M","3","","10","","","M","102.63","","","","-14","","NA"
"-78.52","52.23","EASTMAIN RIVER A","7092310","2018-03-21 12:00","2018","03","21","12:00","-8.4","","-14.2","","63","","","M","1","","10","","","M","102.61","","","","-13","","NA"
"-78.52","52.23","EASTMAIN RIVER A","7092310","2018-03-21 13:00","2018","03","21","13:00","-8.2","","-13.0","","69","","","M","31","","13","","","M","102.59","","","","-14","","NA"
"-78.52","52.23","EASTMAIN RIVER A","7092310","2018-03-21 14:00","2018","03","21","14:00","-8.4","","-12.4","","73","","","M","31","","14","","","M","102.59","","","","-15","","NA"
"-78.52","52.23","EASTMAIN RIVER A","7092310","2018-03-21 15:00","2018","03","21","15:00","-8.2","","-12.6","","71","","","M","32","","21","","","M","102.58","","","","-16","","NA"
"-78.52","52.23","EASTMAIN RIVER A","7092310","2018-03-21 16:00","2018","03","21","16:00","-8.4","","-12.4","","73","","","M","33","","18","","","M","102.57","","","","-15","","NA"
"-78.52","52.23","EASTMAIN RIVER A","7092310","2018-03-21 17:00","2018","03","21","17:00","-9.1","","-12.4","","77","","","M","33","","20","","","M","102.58","","","","-17","","NA"
"-78.52","52.23","EASTMAIN RIVER A","7092310","2018-03-21 18:00","2018","03","21","18:00","-10.7","","-13.6","","79","","","M","32","","15","","","M","102.61","","","","-18","","NA"
"-78.52","52.23","EASTMAIN RIVER A","7092310","2018-03-21 19:00","2018","03","21","19:00","-11.4","","-14.1","","81","","","M","33","","13","","","M","102.63","","","","-18","","NA"
"-78.52","52.23","EASTMAIN RIVER A","7092310","2018-03-21 20:00","2018","03","21","20:00","-12.0","","-14.7","","81","","","M","34","","14","","","M","102.62","","","","-19","","NA"
"-78.52","52.23","EASTMAIN RIVER A","7092310","2018-03-21 21:00","2018","03","21","21:00","-12.9","","-15.2","","83","","","M","34","","13","","","M","102.63","","","","-20","","NA"
"-78.52","52.23","EASTMAIN RIVER A","7092310","2018-03-21 22:00","2018","03","21","22:00","-13.8","","-15.8","","85","","","M","34","","12","","","M","102.63","","","","-21","","NA"
"-78.52","52.23","EASTMAIN RIVER A","7092310","2018-03-21 23:00","2018","03","21","23:00","-15.3","","-17.2","","86","","","M","32","","6","","","M","102.62","","","","-20","","NA"
"-78.52","52.23","EASTMAIN RIVER A","7092310","2018-03-22 00:00","2018","03","22","00:00","-15.3","","-17.1","","86","","","M","32","","6","","","M","102.59","","","","-20","","NA"
"-78.52","52.23","EASTMAIN RIVER A","7092310","2018-03-22 01:00","2018","03","22","01:00","-17.8","","-19.9","","84","","","M","36","","7","","","M","102.56","","","","-23","","NA"
"-78.52","52.23","EASTMAIN RIVER A","7092310","2018-03-22 02:00","2018","03","22","02:00","-20.4","","-23.1","","79","","","M","23","","5","","","M","102.54","","","","-25","","NA"
"-78.52","52.23","EASTMAIN RIVER A","7092310","2018-03-22 03:00","2018","03","22","03:00","-19.8","","-22.3","","81","","","M","27","","6","","","M","102.57","","","","-25","","NA"
"-78.52","52.23","EASTMAIN RIVER A","7092310","2018-03-22 04:00","2018","03","22","04:00","-21.1","","-23.8","","79","","","M","28","","5","","","M","102.57","","","","-26","","NA"
"-78.52","52.23","EASTMAIN RIVER A","7092310","2018-03-22 05:00","2018","03","22","05:00","-21.5","","-24.4","","78","","","M","31","","3","","","M","102.54","","","","-24","","NA"
"-78.52","52.23","EASTMAIN RIVER A","7092310","2018-03-22 06:00","2018","03","22","06:00","-22.8","","-25.6","","78","","","M","3","","1","","","M","102.55","","","","-24","","NA"
"-78.52","52.23","EASTMAIN RIVER A","7092310","2018-03-22 07:00","2018","03","22","07:00","-21.7","","-24.6","","78","","","M","7","","6","","","M","102.56","","","","-27","","NA"
"-78.52","52.23","EASTMAIN RIVER A","7092310","2018-03-22 08:00","2018","03","22","08:00","-17.9","","-20.6","","79","","","M","21","","3","","","M","102.57","","","","-20","","NA"
"-78.52","52.23","EASTMAIN RIVER A","7092310","2018-03-22 09:00","2018","03","22","09:00","-12.9","","-16.1","","77","","","M","0","","1","","","M","102.55","","","","-14","","NA"
"-78.52","52.23","EASTMAIN RIVER A","7092310","2018-03-22 10:00","2018","03","22","10:00","-14.0","","-18.5","","69","","","M","27","","9","","","M","102.56","","","","-20","","NA"
"-78.52","52.23","EASTMAIN RIVER A","7092310","2018-03-22 11:00","2018","03","22","11:00","-12.1","","-16.8","","68","","","M","26","","12","","","M","102.54","","","","-18","","NA"
"-78.52","52.23","EASTMAIN RIVER A","7092310","2018-03-22 12:00","2018","03","22","12:00","-9.9","","-14.2","","71","","","M","32","","10","","","M","102.53","","","","-15","","NA"
"-78.52","52.23","EASTMAIN RIVER A","7092310","2018-03-22 13:00","2018","03","22","13:00","-8.1","","-12.5","","71","","","M","31","","14","","","M","102.51","","","","-14","","NA"
"-78.52","52.23","EASTMAIN RIVER A","7092310","2018-03-22 14:00","2018","03","22","14:00","-6.8","","-10.8","","74","","","M","30","","17","","","M","102.49","","","","-13","","NA"
"-78.52","52.23","EASTMAIN RIVER A","7092310","2018-03-22 15:00","2018","03","22","15:00","-6.6","","-10.3","","75","","","M","30","","19","","","M","102.48","","","","-13","","NA"
"-78.52","52.23","EASTMAIN RIVER A","7092310","2018-03-22 16:00","2018","03","22","16:00","-6.6","","-9.9","","78","","","M","30","","14","","","M","102.48","","","","-12","","NA"
"-78.52","52.23","EASTMAIN RIVER A","7092310","2018-03-22 17:00","2018","03","22","17:00","-7.2","","-10.3","","78","","","M","32","","18","","","M","102.46","","","","-14","","NA"
"-78.52","52.23","EASTMAIN RIVER A","7092310","2018-03-22 18:00","2018","03","22","18:00","-8.4","","-11.1","","81","","","M","33","","20","","","M","102.47","","","","-16","","NA"
"-78.52","52.23","EASTMAIN RIVER A","7092310","2018-03-22 19:00","2018","03","22","19:00","-9.7","","-12.0","","84","","","M","33","","21","","","M","102.49","","","","-18","","NA"
"-78.52","52.23","EASTMAIN RIVER A","7092310","2018-03-22 20:00","2018","03","22","20:00","-10.8","","-13.0","","84","","","M","32","","17","","","M","102.50","","","","-18","","NA"
"-78.52","52.23","EASTMAIN RIVER A","7092310","2018-03-22 21:00","2018","03","22","21:00","-11.4","","-13.5","","85","","","M","33","","17","","","M","102.50","","","","-19","","NA"
"-78.52","52.23","EASTMAIN RIVER A","7092310","2018-03-22 22:00","2018","03","22","22:00","-12.2","","-14.6","","83","","","M","32","","15","","","M","102.50","","","","-19","","NA"
"-78.52","52.23","EASTMAIN RIVER A","7092310","2018-03-22 23:00","2018","03","22","23:00","-13.7","","-16.1","","82","","","M","32","","18","","","M","102.52","","","","-22","","NA"
"-78.52","52.23","EASTMAIN RIVER A","7092310","2018-03-23 00:00","2018","03","23","00:00","-14.7","","-17.2","","81","","","M","33","","18","","","M","102.52","","","","-23","","NA"
"-78.52","52.23","EASTMAIN RIVER A","7092310","2018-03-23 01:00","2018","03","23","01:00","-15.2","","-17.7","","81","","","M","34","","14","","","M","102.53","","","","-23","","NA"
"-78.52","52.23","EASTMAIN RIVER A","7092310","2018-03-23 02:00","2018","03","23","02:00","-16.3","","-19.1","","80","","","M","32","","13","","","M","102.56","","","","-24","","NA"
"-78.52","52.23","EASTMAIN RIVER A","7092310","2018-03-23 03:00","2018","03","23","03:00","-16.9","","-20.1","","77","","","M","33","","13","","","M","102.58","","","","-25","","NA"
"-78.52","52.23","EASTMAIN RIVER A","7092310","2018-03-23 04:00","2018","03","23","04:00","-17.5","","-20.7","","77","","","M","33","","14","","","M","102.62","","","","-26","","NA"
"-78.52","52.23","EASTMAIN RIVER A","7092310","2018-03-23 05:00","2018","03","23","05:00","-18.6","","-21.5","","79","","","M","33","","14","","","M","102.70","","","","-27","","NA"
"-78.52","52.23","EASTMAIN RIVER A","7092310","2018-03-23 06:00","2018","03","23","06:00","-18.5","","-21.7","","77","","","M","34","","17","","","M","102.77","","","","-28","","NA"
"-78.52","52.23","EASTMAIN RIVER A","7092310","2018-03-23 07:00","2018","03","23","07:00","-18.1","","-21.6","","74","","","M","34","","18","","","M","102.84","","","","-28","","NA"
"-78.52","52.23","EASTMAIN RIVER A","7092310","2018-03-23 08:00","2018","03","23","08:00","-17.5","","-21.1","","74","","","M","33","","20","","","M","102.92","","","","-27","","NA"
"-78.52","52.23","EASTMAIN RIVER A","7092310","2018-03-23 09:00","2018","03","23","09:00","-16.2","","-19.9","","74","","","M","33","","23","","","M","102.98","","","","-26","","NA"
"-78.52","52.23","EASTMAIN RIVER A","7092310","2018-03-23 10:00","2018","03","23","10:00","-15.6","","-19.2","","74","","","M","33","","34","","","M","102.99","","","","-27","","NA"
"-78.52","52.23","EASTMAIN RIVER A","7092310","2018-03-23 11:00","2018","03","23","11:00","-14.9","","-18.5","","74","","","M","33","","33","","","M","103.03","","","","-26","","NA"
"-78.52","52.23","EASTMAIN RIVER A","7092310","2018-03-23 12:00","2018","03","23","12:00","-13.8","","-17.4","","75","","","M","33","","35","","","M","103.05","","","","-25","","NA"
"-78.52","52.23","EASTMAIN RIVER A","7092310","2018-03-23 13:00","2018","03","23","13:00","-12.9","","-16.7","","73","","","M","33","","34","","","M","103.09","","","","-24","","NA"
"-78.52","52.23","EASTMAIN RIVER A","7092310","2018-03-23 14:00","2018","03","23","14:00","-12.4","","-16.2","","74","","","M","32","","36","","","M","103.10","","","","-23","","NA"
"-78.52","52.23","EASTMAIN RIVER A","7092310","2018-03-23 15:00","2018","03","23","15:00","-11.9","","-15.9","","73","","","M","32","","35","","","M","103.13","","","","-23","","NA"
"-78.52","52.23","EASTMAIN RIVER A","7092310","2018-03-23 16:00","2018","03","23","16:00","-12.1","","-16.2","","72","","","M","33","","34","","","M","103.17","","","","-23","","NA"
"-78.52","52.23","EASTMAIN RIVER A","7092310","2018-03-23 17:00","2018","03","23","17:00","-13.0","","-17.0","","72","","","M","33","","39","","","M","103.23","","","","-25","","NA"
"-78.52","52.23","EASTMAIN RIVER A","7092310","2018-03-23 18:00","2018","03","23","18:00","-14.2","","-17.8","","74","","","M","33","","30","","","M","103.29","","","","-25","","NA"
"-78.52","52.23","EASTMAIN RIVER A","7092310","2018-03-23 19:00","2018","03","23","19:00","-15.3","","-18.7","","75","","","M","33","","27","","","M","103.35","","","","-26","","NA"
"-78.52","52.23","EASTMAIN RIVER A","7092310","2018-03-23 20:00","2018","03","23","20:00","-16.0","","-19.6","","74","","","M","33","","22","","","M","103.41","","","","-26","","NA"
"-78.52","52.23","EASTMAIN RIVER A","7092310","2018-03-23 21:00","2018","03","23","21:00","-17.2","","-20.6","","75","","","M","34","","13","","","M","103.49","","","","-25","","NA"
"-78.52","52.23","EASTMAIN RIVER A","7092310","2018-03-23 22:00","2018","03","23","22:00","-18.5","","-21.6","","77","","","M","34","","11","","","M","103.56","","","","-26","","NA"
"-78.52","52.23","EASTMAIN RIVER A","7092310","2018-03-23 23:00","2018","03","23","23:00","-20.3","","-23.3","","78","","","M","32","","11","","","M","103.59","","","","-28","","NA"
"-78.52","52.23","EASTMAIN RIVER A","7092310","2018-03-24 00:00","2018","03","24","00:00","-21.7","","-24.6","","78","","","M","33","","9","","","M","103.61","","","","-29","","NA"
"-78.52","52.23","EASTMAIN RIVER A","7092310","2018-03-24 01:00","2018","03","24","01:00","-21.2","","-24.2","","77","","","M","33","","13","","","M","103.65","","","","-30","","NA"
"-78.52","52.23","EASTMAIN RIVER A","7092310","2018-03-24 02:00","2018","03","24","02:00","-23.4","","-26.3","","77","","","M","32","","10","","","M","103.69","","","","-31","","NA"
"-78.52","52.23","EASTMAIN RIVER A","7092310","2018-03-24 03:00","2018","03","24","03:00","-24.7","","-27.7","","76","","","M","33","","11","","","M","103.71","","","","-33","","NA"
"-78.52","52.23","EASTMAIN RIVER A","7092310","2018-03-24 04:00","2018","03","24","04:00","-25.3","","-28.3","","77","","","M","32","","13","","","M","103.80","","","","-35","","NA"
"-78.52","52.23","EASTMAIN RIVER A","7092310","2018-03-24 05:00","2018","03","24","05:00","-25.3","","-28.4","","76","","","M","33","","14","","","M","103.86","","","","-35","","NA"
"-78.52","52.23","EASTMAIN RIVER A","7092310","2018-03-24 06:00","2018","03","24","06:00","-25.2","","-28.3","","76","","","M","35","","7","","","M","103.88","","","","-32","","NA"
"-78.52","52.23","EASTMAIN RIVER A","7092310","2018-03-24 07:00","2018","03","24","07:00","-23.0","","-26.1","","76","","","M","1","","7","","","M","103.92","","","","-29","","NA"
"-78.52","52.23","EASTMAIN RIVER A","7092310","2018-03-24 08:00","2018","03","24","08:00","-19.8","","-24.5","","66","","","M","4","","8","","","M","103.93","","","","-26","","NA"
"-78.52","52.23","EASTMAIN RIVER A","7092310","2018-03-24 09:00","2018","03","24","09:00","-14.9","","-23.9","","47","","","M","7","","9","","","M","103.92","","","","-21","","NA"
"-78.52","52.23","EASTMAIN RIVER A","7092310","2018-03-24 10:00","2018","03","24","10:00","-11.9","","-24.8","","34","","","M","5","","16","","","M","103.95","","","","-19","","NA"
"-78.52","52.23","EASTMAIN RIVER A","7092310","2018-03-24 11:00","2018","03","24","11:00","-9.6","","-23.5","","32","","","M","5","","15","","","M","103.95","","","","-16","","NA"
"-78.52","52.23","EASTMAIN RIVER A","7092310","2018-03-24 12:00","2018","03","24","12:00","-8.4","","-23.2","","30","","","M","4","","13","","","M","103.92","","","","-14","","NA"
"-78.52","52.23","EASTMAIN RIVER A","7092310","2018-03-24 13:00","2018","03","24","13:00","-7.1","","-21.0","","33","","","M","6","","10","","","M","103.89","","","","-12","","NA"
"-78.52","52.23","EASTMAIN RIVER A","7092310","2018-03-24 14:00","2018","03","24","14:00","-8.8","","-17.4","","50","","","M","33","","13","","","M","103.85","","","","-15","","NA"
"-78.52","52.23","EASTMAIN RIVER A","7092310","2018-03-24 15:00","2018","03","24","15:00","-8.9","","-16.1","","56","","","M","32","","16","","","M","103.83","","","","-16","","NA"
"-78.52","52.23","EASTMAIN RIVER A","7092310","2018-03-24 16:00","2018","03","24","16:00","-8.7","","-15.8","","57","","","M","32","","22","","","M","103.80","","","","-17","","NA"
"-78.52","52.23","EASTMAIN RIVER A","7092310","2018-03-24 17:00","2018","03","24","17:00","-9.9","","-16.1","","61","","","M","32","","18","","","M","103.80","","","","-17","","NA"
"-78.52","52.23","EASTMAIN RIVER A","7092310","2018-03-24 18:00","2018","03","24","18:00","-10.3","","-17.2","","57","","","M","32","","7","","","M","103.79","","","","-14","","NA"
"-78.52","52.23","EASTMAIN RIVER A","7092310","2018-03-24 19:00","2018","03","24","19:00","-11.7","","-19.8","","52","","","M","2","","9","","","M","103.78","","","","-17","","NA"
"-78.52","52.23","EASTMAIN RIVER A","7092310","2018-03-24 20:00","2018","03","24","20:00","-14.0","","-22.9","","48","","","M","2","","7","","","M","103.79","","","","-19","","NA"
"-78.52","52.23","EASTMAIN RIVER A","7092310","2018-03-24 21:00","2018","03","24","21:00","-16.4","","-21.5","","65","","","M","1","","8","","","M","103.79","","","","-22","","NA"
"-78.52","52.23","EASTMAIN RIVER A","7092310","2018-03-24 22:00","2018","03","24","22:00","-19.8","","-24.4","","67","","","M","14","","3","","","M","103.79","","","","-22","","NA"
"-78.52","52.23","EASTMAIN RIVER A","7092310","2018-03-24 23:00","2018","03","24","23:00","-20.5","","-24.6","","70","","","M","6","","3","","","M","103.77","","","","-23","","NA"
"-78.52","52.23","EASTMAIN RIVER A","7092310","2018-03-25 00:00","2018","03","25","00:00","-22.1","","-26.2","","70","","","M","32","","1","","","M","103.78","","","","-23","","NA"
"-78.52","52.23","EASTMAIN RIVER A","7092310","2018-03-25 01:00","2018","03","25","01:00","-24.2","","-28.6","","67","","","M","4","","5","","","M","103.77","","","","-29","","NA"
"-78.52","52.23","EASTMAIN RIVER A","7092310","2018-03-25 02:00","2018","03","25","02:00","-22.7","","-27.1","","68","","","M","7","","1","","","M","103.79","","","","-24","","NA"
"-78.52","52.23","EASTMAIN RIVER A","7092310","2018-03-25 03:00","2018","03","25","03:00","-22.4","","-26.9","","68","","","M","8","","3","","","M","103.78","","","","-25","","NA"
"-78.52","52.23","EASTMAIN RIVER A","7092310","2018-03-25 04:00","2018","03","25","04:00","-22.7","","-26.6","","71","","","M","34","","5","","","M","103.84","","","","-27","","NA"
"-78.52","52.23","EASTMAIN RIVER A","7092310","2018-03-25 05:00","2018","03","25","05:00","-26.2","","-29.5","","74","","","M","11","","7","","","M","103.87","","","","-33","","NA"
"-78.52","52.23","EASTMAIN RIVER A","7092310","2018-03-25 06:00","2018","03","25","06:00","-25.5","","-29.4","","71","","","M","10","","5","","","M","103.91","","","","-31","","NA"
"-78.52","52.23","EASTMAIN RIVER A","7092310","2018-03-25 07:00","2018","03","25","07:00","-21.8","","-27.0","","64","","","M","10","","8","","","M","103.89","","","","-28","","NA"
"-78.52","52.23","EASTMAIN RIVER A","7092310","2018-03-25 08:00","2018","03","25","08:00","-13.9","","-23.4","","45","","","M","15","","8","","","M","103.86","","","","-19","","NA"
"-78.52","52.23","EASTMAIN RIVER A","7092310","2018-03-25 09:00","2018","03","25","09:00","-9.8","","-21.7","","38","","","M","16","","9","","","M","103.84","","","","-15","","NA"
"-78.52","52.23","EASTMAIN RIVER A","7092310","2018-03-25 10:00","2018","03","25","10:00","-7.6","","-20.7","","35","","","M","22","","15","","","M","103.80","","","","-14","","NA"
"-78.52","52.23","EASTMAIN RIVER A","7092310","2018-03-25 11:00","2018","03","25","11:00","-7.2","","-19.3","","38","","","M","21","","16","","","M","103.76","","","","-14","","NA"
"-78.52","52.23","EASTMAIN RIVER A","7092310","2018-03-25 12:00","2018","03","25","12:00","-5.8","","-18.3","","37","","","M","21","","14","","","M","103.71","","","","-11","","NA"
"-78.52","52.23","EASTMAIN RIVER A","7092310","2018-03-25 13:00","2018","03","25","13:00","-5.0","","-17.2","","38","","","M","21","","11","","","M","103.64","","","","-10","","NA"
"-78.52","52.23","EASTMAIN RIVER A","7092310","2018-03-25 14:00","2018","03","25","14:00","-3.4","","-15.2","","40","","","M","22","","7","","","M","103.60","","","","-6","","NA"
"-78.52","52.23","EASTMAIN RIVER A","7092310","2018-03-25 15:00","2018","03","25","15:00","-2.8","","-14.8","","40","","","M","19","","11","","","M","103.51","","","","-7","","NA"
"-78.52","52.23","EASTMAIN RIVER A","7092310","2018-03-25 16:00","2018","03","25","16:00","-1.1","","-14.5","","36","","","M","16","","18","","","M","103.44","","","","-6","","NA"
"-78.52","52.23","EASTMAIN RIVER A","7092310","2018-03-25 17:00","2018","03","25","17:00","-1.0","","-14.8","","35","","","M","17","","17","","","M","103.41","","","","-6","","NA"
"-78.52","52.23","EASTMAIN RIVER A","7092310","2018-03-25 18:00","2018","03","25","18:00","-1.9","","-14.3","","38","","","M","16","","10","","","M","103.36","","","","-6","","NA"
"-78.52","52.23","EASTMAIN RIVER A","7092310","2018-03-25 19:00","2018","03","25","19:00","-4.1","","-14.7","","44","","","M","14","","10","","","M","103.30","","","","-8","","NA"
"-78.52","52.23","EASTMAIN RIVER A","7092310","2018-03-25 20:00","2018","03","25","20:00","-5.0","","-14.4","","48","","","M","14","","12","","","M","103.23","","","","-10","","NA"
"-78.52","52.23","EASTMAIN RIVER A","7092310","2018-03-25 21:00","2018","03","25","21:00","-5.1","","-14.4","","49","","","M","14","","13","","","M","103.18","","","","-10","","NA"
"-78.52","52.23","EASTMAIN RIVER A","7092310","2018-03-25 22:00","2018","03","25","22:00","-4.7","","-14.2","","48","","","M","15","","15","","","M","103.11","","","","-10","","NA"
"-78.52","52.23","EASTMAIN RIVER A","7092310","2018-03-25 23:00","2018","03","25","23:00","-2.7","","-13.3","","44","","","M","16","","21","","","M","103.05","","","","-9","","NA"
"-78.52","52.23","EASTMAIN RIVER A","7092310","2018-03-26 00:00","2018","03","26","00:00","-3.8","","-13.0","","49","","","M","17","","19","","","M","103.02","","","","-10","","NA"
"-78.52","52.23","EASTMAIN RIVER A","7092310","2018-03-26 01:00","2018","03","26","01:00","-4.0","","-12.6","","51","","","M","17","","17","","","M","102.96","","","","-10","","NA"
"-78.52","52.23","EASTMAIN RIVER A","7092310","2018-03-26 02:00","2018","03","26","02:00","-4.0","","-12.1","","54","","","M","18","","17","","","M","102.95","","","","-10","","NA"
"-78.52","52.23","EASTMAIN RIVER A","7092310","2018-03-26 03:00","2018","03","26","03:00","-2.1","","-11.1","","50","","","M","19","","21","","","M","102.95","","","","-8","","NA"
"-78.52","52.23","EASTMAIN RIVER A","7092310","2018-03-26 04:00","2018","03","26","04:00","-2.4","","-11.7","","49","","","M","19","","20","","","M","102.96","","","","-8","","NA"
"-78.52","52.23","EASTMAIN RIVER A","7092310","2018-03-26 05:00","2018","03","26","05:00","-2.4","","-11.8","","48","","","M","19","","26","","","M","102.97","","","","-9","","NA"
"-78.52","52.23","EASTMAIN RIVER A","7092310","2018-03-26 06:00","2018","03","26","06:00","-2.4","","-12.1","","48","","","M","19","","21","","","M","102.98","","","","-8","","NA"
"-78.52","52.23","EASTMAIN RIVER A","7092310","2018-03-26 07:00","2018","03","26","07:00","-2.1","","-11.8","","48","","","M","19","","29","","","M","102.99","","","","-9","","NA"
"-78.52","52.23","EASTMAIN RIVER A","7092310","2018-03-26 08:00","2018","03","26","08:00","-1.8","","-11.2","","49","","","M","19","","32","","","M","102.99","","","","-9","","NA"
"-78.52","52.23","EASTMAIN RIVER A","7092310","2018-03-26 09:00","2018","03","26","09:00","-0.6","","-10.2","","48","","","M","20","","29","","","M","102.99","","","","-7","","NA"
"-78.52","52.23","EASTMAIN RIVER A","7092310","2018-03-26 10:00","2018","03","26","10:00","0.6","","-8.6","","50","","","M","21","","25","","","M","103.00","","","","","","NA"
"-78.52","52.23","EASTMAIN RIVER A","7092310","2018-03-26 11:00","2018","03","26","11:00","1.6","","-7.7","","50","","","M","21","","27","","","M","102.99","","","","","","NA"
"-78.52","52.23","EASTMAIN RIVER A","7092310","2018-03-26 12:00","2018","03","26","12:00","1.7","","-6.2","","56","","","M","21","","23","","","M","102.95","","","","","","NA"
"-78.52","52.23","EASTMAIN RIVER A","7092310","2018-03-26 13:00","2018","03","26","13:00","2.7","","-6.6","","50","","","M","23","","21","","","M","102.91","","","","","","NA"
"-78.52","52.23","EASTMAIN RIVER A","7092310","2018-03-26 14:00","2018","03","26","14:00","3.6","","-5.6","","51","","","M","23","","16","","","M","102.87","","","","","","NA"
"-78.52","52.23","EASTMAIN RIVER A","7092310","2018-03-26 15:00","2018","03","26","15:00","3.6","","-5.3","","52","","","M","21","","15","","","M","102.84","","","","","","NA"
"-78.52","52.23","EASTMAIN RIVER A","7092310","2018-03-26 16:00","2018","03","26","16:00","3.7","","-5.2","","52","","","M","21","","17","","","M","102.85","","","","","","NA"
"-78.52","52.23","EASTMAIN RIVER A","7092310","2018-03-26 17:00","2018","03","26","17:00","3.7","","-5.6","","51","","","M","20","","16","","","M","102.86","","","","","","NA"
"-78.52","52.23","EASTMAIN RIVER A","7092310","2018-03-26 18:00","2018","03","26","18:00","3.6","","-5.6","","51","","","M","19","","14","","","M","102.82","","","","","","NA"
"-78.52","52.23","EASTMAIN RIVER A","7092310","2018-03-26 19:00","2018","03","26","19:00","3.5","","-7.0","","46","","","M","14","","8","","","M","102.82","","","","","","NA"
"-78.52","52.23","EASTMAIN RIVER A","7092310","2018-03-26 20:00","2018","03","26","20:00","2.8","","-6.8","","49","","","M","15","","9","","","M","102.80","","","","","","NA"
"-78.52","52.23","EASTMAIN RIVER A","7092310","2018-03-26 21:00","2018","03","26","21:00","2.2","","-6.5","","52","","","M","14","","7","","","M","102.75","","","","","","NA"
"-78.52","52.23","EASTMAIN RIVER A","7092310","2018-03-26 22:00","2018","03","26","22:00","1.1","","-6.4","","57","","","M","10","","7","","","M","102.65","","","","","","NA"
"-78.52","52.23","EASTMAIN RIVER A","7092310","2018-03-26 23:00","2018","03","26","23:00","1.1","","-6.5","","57","","","M","14","","8","","","M","102.56","","","","","","NA"
"-78.52","52.23","EASTMAIN RIVER A","7092310","2018-03-27 00:00","2018","03","27","00:00","2.9","","-7.4","","47","","","M","16","","13","","","M","102.47","","","","","","NA"
"-78.52","52.23","EASTMAIN RIVER A","7092310","2018-03-27 01:00","2018","03","27","01:00","3.0","","-8.1","","44","","","M","16","","16","","","M","102.37","","","","","","NA"
"-78.52","52.23","EASTMAIN RIVER A","7092310","2018-03-27 02:00","2018","03","27","02:00","2.4","","-8.6","","44","","","M","16","","16","","","M","102.27","","","","","","NA"
"-78.52","52.23","EASTMAIN RIVER A","7092310","2018-03-27 03:00","2018","03","27","03:00","2.5","","-8.6","","44","","","M","16","","22","","","M","102.19","","","","","","NA"
"-78.52","52.23","EASTMAIN RIVER A","7092310","2018-03-27 04:00","2018","03","27","04:00","2.5","","-8.1","","46","","","M","16","","17","","","M","102.09","","","","","","NA"
"-78.52","52.23","EASTMAIN RIVER A","7092310","2018-03-27 05:00","2018","03","27","05:00","2.2","","-8.5","","45","","","M","16","","23","","","M","102.02","","","","","","NA"
"-78.52","52.23","EASTMAIN RIVER A","7092310","2018-03-27 06:00","2018","03","27","06:00","1.0","","-8.7","","49","","","M","15","","22","","","M","101.89","","","","","","NA"
"-78.52","52.23","EASTMAIN RIVER A","7092310","2018-03-27 07:00","2018","03","27","07:00","1.5","","-8.5","","47","","","M","16","","19","","","M","101.77","","","","","","NA"
"-78.52","52.23","EASTMAIN RIVER A","7092310","2018-03-27 08:00","2018","03","27","08:00","1.9","","-8.0","","48","","","M","16","","22","","","M","101.61","","","","","","NA"
"-78.52","52.23","EASTMAIN RIVER A","7092310","2018-03-27 09:00","2018","03","27","09:00","3.2","","-7.5","","46","","","M","17","","28","","","M","101.56","","","","","","NA"
"-78.52","52.23","EASTMAIN RIVER A","7092310","2018-03-27 10:00","2018","03","27","10:00","3.8","","-7.1","","45","","","M","17","","27","","","M","101.38","","","","","","NA"
"-78.52","52.23","EASTMAIN RIVER A","7092310","2018-03-27 11:00","2018","03","27","11:00","4.6","","-6.6","","44","","","M","16","","25","","","M","101.21","","","","","","NA"
"-78.52","52.23","EASTMAIN RIVER A","7092310","2018-03-27 12:00","2018","03","27","12:00","4.7","","-6.5","","44","","","M","16","","20","","","M","101.07","","","","","","NA"
"-78.52","52.23","EASTMAIN RIVER A","7092310","2018-03-27 13:00","2018","03","27","13:00","5.8","","-6.3","","42","","","M","17","","21","","","M","100.91","","","","","","NA"
"-78.52","52.23","EASTMAIN RIVER A","7092310","2018-03-27 14:00","2018","03","27","14:00","5.7","","-6.1","","42","","","M","17","","30","","","M","100.79","","","","","","NA"
"-78.52","52.23","EASTMAIN RIVER A","7092310","2018-03-27 15:00","2018","03","27","15:00","5.1","","-4.4","","50","","","M","18","","26","","","M","100.65","","","","","","NA"
"-78.52","52.23","EASTMAIN RIVER A","7092310","2018-03-27 16:00","2018","03","27","16:00","2.2","","-0.7","","81","","","M","17","","29","","","M","100.62","","","","","","NA"
"-78.52","52.23","EASTMAIN RIVER A","7092310","2018-03-27 17:00","2018","03","27","17:00","0.7","","-0.4","","93","","","M","17","","21","","","M","100.60","","","","","","NA"
"-78.52","52.23","EASTMAIN RIVER A","7092310","2018-03-27 18:00","2018","03","27","18:00","0.6","","-0.4","","93","","","M","17","","20","","","M","100.53","","","","","","NA"
"-78.52","52.23","EASTMAIN RIVER A","7092310","2018-03-27 19:00","2018","03","27","19:00","0.3","","-0.5","","94","","","M","17","","19","","","M","100.50","","","","","","NA"
"-78.52","52.23","EASTMAIN RIVER A","7092310","2018-03-27 20:00","2018","03","27","20:00","0.5","","-0.4","","94","","","M","18","","26","","","M","100.48","","","","","","NA"
"-78.52","52.23","EASTMAIN RIVER A","7092310","2018-03-27 21:00","2018","03","27","21:00","0.4","","-0.5","","94","","","M","20","","26","","","M","100.51","","","","","","NA"
"-78.52","52.23","EASTMAIN RIVER A","7092310","2018-03-27 22:00","2018","03","27","22:00","0.2","","-0.5","","95","","","M","22","","17","","","M","100.53","","","","","","NA"
"-78.52","52.23","EASTMAIN RIVER A","7092310","2018-03-27 23:00","2018","03","27","23:00","0.2","","-0.4","","95","","","M","23","","15","","","M","100.59","","","","","","NA"
"-78.52","52.23","EASTMAIN RIVER A","7092310","2018-03-28 00:00","2018","03","28","00:00","0.3","","-0.4","","95","","","M","26","","12","","","M","100.66","","","","","","NA"
"-78.52","52.23","EASTMAIN RIVER A","7092310","2018-03-28 01:00","2018","03","28","01:00","0.4","","-0.4","","95","","","M","26","","11","","","M","100.76","","","","","","NA"
"-78.52","52.23","EASTMAIN RIVER A","7092310","2018-03-28 02:00","2018","03","28","02:00","0.4","","-0.4","","94","","","M","27","","10","","","M","100.85","","","","","","NA"
"-78.52","52.23","EASTMAIN RIVER A","7092310","2018-03-28 03:00","2018","03","28","03:00","0.4","","-0.5","","93","","","M","27","","12","","","M","100.98","","","","","","NA"
"-78.52","52.23","EASTMAIN RIVER A","7092310","2018-03-28 04:00","2018","03","28","04:00","0.4","","-0.6","","93","","","M","29","","12","","","M","101.11","","","","","","NA"
"-78.52","52.23","EASTMAIN RIVER A","7092310","2018-03-28 05:00","2018","03","28","05:00","-0.1","","-1.6","","90","","","M","34","","24","","","M","101.21","","","","-6","","NA"
"-78.52","52.23","EASTMAIN RIVER A","7092310","2018-03-28 06:00","2018","03","28","06:00","-3.1","","-4.8","","89","","","M","32","","20","","","M","101.32","","","","-9","","NA"
"-78.52","52.23","EASTMAIN RIVER A","7092310","2018-03-28 07:00","2018","03","28","07:00","-3.8","","-5.4","","89","","","M","33","","15","","","M","101.42","","","","-9","","NA"
"-78.52","52.23","EASTMAIN RIVER A","7092310","2018-03-28 08:00","2018","03","28","08:00","-5.1","","-7.3","","84","","","M","33","","18","","","M","101.49","","","","-11","","NA"
"-78.52","52.23","EASTMAIN RIVER A","7092310","2018-03-28 09:00","2018","03","28","09:00","-6.2","","-8.5","","84","","","M","33","","11","","","M","101.57","","","","-11","","NA"
"-78.52","52.23","EASTMAIN RIVER A","7092310","2018-03-28 10:00","2018","03","28","10:00","-5.5","","-7.7","","84","","","M","36","","4","","","M","101.59","","","","-7","","NA"
"-78.52","52.23","EASTMAIN RIVER A","7092310","2018-03-28 11:00","2018","03","28","11:00","-3.4","","-5.8","","83","","","M","21","","4","","","M","101.57","","","","-5","","NA"
"-78.52","52.23","EASTMAIN RIVER A","7092310","2018-03-28 12:00","2018","03","28","12:00","-1.0","","-3.4","","84","","","M","15","","9","","","M","101.53","","","","-4","","NA"
"-78.52","52.23","EASTMAIN RIVER A","7092310","2018-03-28 13:00","2018","03","28","13:00","1.0","","-1.8","","82","","","M","16","","19","","","M","101.44","","","","","","NA"
"-78.52","52.23","EASTMAIN RIVER A","7092310","2018-03-28 14:00","2018","03","28","14:00","1.6","","-1.1","","82","","","M","17","","13","","","M","101.39","","","","","","NA"
"-78.52","52.23","EASTMAIN RIVER A","7092310","2018-03-28 15:00","2018","03","28","15:00","2.0","","-1.3","","79","","","M","17","","17","","","M","101.33","","","","","","NA"
"-78.52","52.23","EASTMAIN RIVER A","7092310","2018-03-28 16:00","2018","03","28","16:00","3.0","","-0.7","","76","","","M","15","","15","","","M","101.22","","","","","","NA"
"-78.52","52.23","EASTMAIN RIVER A","7092310","2018-03-28 17:00","2018","03","28","17:00","3.1","","-0.6","","77","","","M","13","","14","","","M","101.13","","","","","","NA"
"-78.52","52.23","EASTMAIN RIVER A","7092310","2018-03-28 18:00","2018","03","28","18:00","2.7","","-0.3","","81","","","M","12","","9","","","M","101.07","","","","","","NA"
"-78.52","52.23","EASTMAIN RIVER A","7092310","2018-03-28 19:00","2018","03","28","19:00","2.3","","-0.3","","83","","","M","11","","11","","","M","100.99","","","","","","NA"
"-78.52","52.23","EASTMAIN RIVER A","7092310","2018-03-28 20:00","2018","03","28","20:00","2.2","","-1.1","","78","","","M","13","","14","","","M","100.96","","","","","","NA"
"-78.52","52.23","EASTMAIN RIVER A","7092310","2018-03-28 21:00","2018","03","28","21:00","2.6","","-2.2","","71","","","M","15","","14","","","M","100.95","","","","","","NA"
"-78.52","52.23","EASTMAIN RIVER A","7092310","2018-03-28 22:00","2018","03","28","22:00","2.7","","-2.3","","69","","","M","16","","19","","","M","100.89","","","","","","NA"
"-78.52","52.23","EASTMAIN RIVER A","7092310","2018-03-28 23:00","2018","03","28","23:00","2.1","","-2.6","","71","","","M","16","","17","","","M","100.78","","","","","","NA"
"-78.52","52.23","EASTMAIN RIVER A","7092310","2018-03-29 00:00","2018","03","29","00:00","2.3","","-2.4","","71","","","M","16","","22","","","M","100.68","","","","","","NA"
"-78.52","52.23","EASTMAIN RIVER A","7092310","2018-03-29 01:00","2018","03","29","01:00","2.5","","-2.3","","71","","","M","17","","24","","","M","100.61","","","","","","NA"
"-78.52","52.23","EASTMAIN RIVER A","7092310","2018-03-29 02:00","2018","03","29","02:00","2.3","","-2.0","","73","","","M","17","","21","","","M","100.59","","","","","","NA"
"-78.52","52.23","EASTMAIN RIVER A","7092310","2018-03-29 03:00","2018","03","29","03:00","2.8","","-2.0","","71","","","M","18","","24","","","M","100.57","","","","","","NA"
"-78.52","52.23","EASTMAIN RIVER A","7092310","2018-03-29 04:00","2018","03","29","04:00","2.8","","-2.0","","71","","","M","18","","22","","","M","100.57","","","","","","NA"
"-78.52","52.23","EASTMAIN RIVER A","7092310","2018-03-29 05:00","2018","03","29","05:00","2.4","","-1.8","","74","","","M","20","","17","","","M","100.61","","","","","","NA"
"-78.52","52.23","EASTMAIN RIVER A","7092310","2018-03-29 06:00","2018","03","29","06:00","-2.5","","-4.5","","86","","","M","29","","26","","","M","100.75","","","","-9","","NA"
"-78.52","52.23","EASTMAIN RIVER A","7092310","2018-03-29 07:00","2018","03","29","07:00","-6.3","","-8.5","","84","","","M","30","","23","","","M","100.91","","","","-14","","NA"
"-78.52","52.23","EASTMAIN RIVER A","7092310","2018-03-29 08:00","2018","03","29","08:00","-7.6","","-9.9","","84","","","M","29","","17","","","M","101.03","","","","-14","","NA"
"-78.52","52.23","EASTMAIN RIVER A","7092310","2018-03-29 09:00","2018","03","29","09:00","-7.9","","-10.3","","83","","","M","30","","17","","","M","101.12","","","","-15","","NA"
"-78.52","52.23","EASTMAIN RIVER A","7092310","2018-03-29 10:00","2018","03","29","10:00","-8.5","","-11.4","","80","","","M","31","","20","","","M","101.25","","","","-16","","NA"
"-78.52","52.23","EASTMAIN RIVER A","7092310","2018-03-29 11:00","2018","03","29","11:00","-8.8","","-12.4","","75","","","M","31","","25","","","M","101.38","","","","-17","","NA"
"-78.52","52.23","EASTMAIN RIVER A","7092310","2018-03-29 12:00","2018","03","29","12:00","-8.6","","-12.7","","73","","","M","30","","17","","","M","101.44","","","","-15","","NA"
"-78.52","52.23","EASTMAIN RIVER A","7092310","2018-03-29 13:00","2018","03","29","13:00","-8.9","","-12.6","","75","","","M","29","","17","","","M","101.46","","","","-16","","NA"
"-78.52","52.23","EASTMAIN RIVER A","7092310","2018-03-29 14:00","2018","03","29","14:00","-8.8","","-13.6","","68","","","M","29","","15","","","M","101.48","","","","-15","","NA"
"-78.52","52.23","EASTMAIN RIVER A","7092310","2018-03-29 15:00","2018","03","29","15:00","-8.8","","-13.2","","71","","","M","31","","16","","","M","101.49","","","","-16","","NA"
"-78.52","52.23","EASTMAIN RIVER A","7092310","2018-03-29 16:00","2018","03","29","16:00","-9.2","","-13.4","","72","","","M","30","","14","","","M","101.48","","","","-16","","NA"
"-78.52","52.23","EASTMAIN RIVER A","7092310","2018-03-29 17:00","2018","03","29","17:00","-9.6","","-13.7","","72","","","M","30","","12","","","M","101.49","","","","-15","","NA"
"-78.52","52.23","EASTMAIN RIVER A","7092310","2018-03-29 18:00","2018","03","29","18:00","-10.3","","-13.9","","75","","","M","31","","10","","","M","101.51","","","","-16","","NA"
"-78.52","52.23","EASTMAIN RIVER A","7092310","2018-03-29 19:00","2018","03","29","19:00","-11.9","","-14.6","","80","","","M","29","","9","","","M","101.54","","","","-17","","NA"
"-78.52","52.23","EASTMAIN RIVER A","7092310","2018-03-29 20:00","2018","03","29","20:00","-13.2","","-15.7","","82","","","M","32","","11","","","M","101.52","","","","-19","","NA"
"-78.52","52.23","EASTMAIN RIVER A","7092310","2018-03-29 21:00","2018","03","29","21:00","-14.4","","-16.5","","84","","","M","32","","6","","","M","101.56","","","","-19","","NA"
"-78.52","52.23","EASTMAIN RIVER A","7092310","2018-03-29 22:00","2018","03","29","22:00","-15.9","","-17.9","","85","","","M","32","","5","","","M","101.53","","","","-20","","NA"
"-78.52","52.23","EASTMAIN RIVER A","7092310","2018-03-29 23:00","2018","03","29","23:00","-17.4","","-19.3","","85","","","M","32","","4","","","M","101.52","","","","-21","","NA"
"-78.52","52.23","EASTMAIN RIVER A","7092310","2018-03-30 00:00","2018","03","30","00:00","-18.3","","-20.4","","84","","","M","27","","1","","","M","101.47","","","","-19","","NA"
"-78.52","52.23","EASTMAIN RIVER A","7092310","2018-03-30 01:00","2018","03","30","01:00","-20.1","","-22.6","","81","","","M","24","","5","","","M","101.49","","","","-24","","NA"
"-78.52","52.23","EASTMAIN RIVER A","7092310","2018-03-30 02:00","2018","03","30","02:00","-20.4","","-22.9","","81","","","M","23","","4","","","M","101.50","","","","-24","","NA"
"-78.52","52.23","EASTMAIN RIVER A","7092310","2018-03-30 03:00","2018","03","30","03:00","-21.8","","-24.2","","81","","","M","25","","3","","","M","101.48","","","","-25","","NA"
"-78.52","52.23","EASTMAIN RIVER A","7092310","2018-03-30 04:00","2018","03","30","04:00","-22.5","","-25.0","","81","","","M","20","","4","","","M","101.46","","","","-26","","NA"
"-78.52","52.23","EASTMAIN RIVER A","7092310","2018-03-30 05:00","2018","03","30","05:00","-23.1","","-25.6","","80","","","M","22","","5","","","M","101.50","","","","-28","","NA"
"-78.52","52.23","EASTMAIN RIVER A","7092310","2018-03-30 06:00","2018","03","30","06:00","-23.7","","-26.3","","79","","","M","23","","4","","","M","101.53","","","","-28","","NA"
"-78.52","52.23","EASTMAIN RIVER A","7092310","2018-03-30 07:00","2018","03","30","07:00","-22.2","","-24.9","","79","","","M","19","","3","","","M","101.52","","","","-25","","NA"
"-78.52","52.23","EASTMAIN RIVER A","7092310","2018-03-30 08:00","2018","03","30","08:00","-19.7","","-22.4","","80","","","M","33","","3","","","M","101.56","","","","-22","","NA"
"-78.52","52.23","EASTMAIN RIVER A","7092310","2018-03-30 09:00","2018","03","30","09:00","-17.8","","-20.3","","81","","","M","19","","5","","","M","101.57","","","","-22","","NA"
"-78.52","52.23","EASTMAIN RIVER A","7092310","2018-03-30 10:00","2018","03","30","10:00","-14.6","","-16.9","","83","","","M","25","","7","","","M","101.60","","","","-19","","NA"
"-78.52","52.23","EASTMAIN RIVER A","7092310","2018-03-30 11:00","2018","03","30","11:00","-13.4","","-15.6","","84","","","M","26","","15","","","M","101.65","","","","-21","","NA"
"-78.52","52.23","EASTMAIN RIVER A","7092310","2018-03-30 12:00","2018","03","30","12:00","-13.1","","-15.3","","84","","","M","30","","17","","","M","101.68","","","","-21","","NA"
"-78.52","52.23","EASTMAIN RIVER A","7092310","2018-03-30 13:00","2018","03","30","13:00","-12.6","","-15.7","","78","","","M","32","","22","","","M","101.75","","","","-22","","NA"
"-78.52","52.23","EASTMAIN RIVER A","7092310","2018-03-30 14:00","2018","03","30","14:00","-12.6","","-17.4","","68","","","M","33","","24","","","M","101.81","","","","-22","","NA"
"-78.52","52.23","EASTMAIN RIVER A","7092310","2018-03-30 15:00","2018","03","30","15:00","-12.4","","-17.2","","68","","","M","29","","17","","","M","101.86","","","","-20","","NA"
"-78.52","52.23","EASTMAIN RIVER A","7092310","2018-03-30 16:00","2018","03","30","16:00","-13.2","","-17.8","","69","","","M","29","","19","","","M","101.92","","","","-22","","NA"
"-78.52","52.23","EASTMAIN RIVER A","7092310","2018-03-30 17:00","2018","03","30","17:00","-14.2","","-19.2","","66","","","M","30","","17","","","M","101.97","","","","-22","","NA"
"-78.52","52.23","EASTMAIN RIVER A","7092310","2018-03-30 18:00","2018","03","30","18:00","-15.8","","-20.2","","69","","","M","32","","14","","","M","102.03","","","","-24","","NA"
"-78.52","52.23","EASTMAIN RIVER A","7092310","2018-03-30 19:00","2018","03","30","19:00","-17.1","","-23.1","","61","","","M","30","","9","","","M","102.05","","","","-23","","NA"
"-78.52","52.23","EASTMAIN RIVER A","7092310","2018-03-30 20:00","2018","03","30","20:00","-18.0","","-23.1","","65","","","M","32","","3","","","M","102.05","","","","-20","","NA"
"-78.52","52.23","EASTMAIN RIVER A","7092310","2018-03-30 21:00","2018","03","30","21:00","-23.3","","-26.4","","76","","","M","15","","7","","","M","102.06","","","","-29","","NA"
"-78.52","52.23","EASTMAIN RIVER A","7092310","2018-03-30 22:00","2018","03","30","22:00","-21.9","","-25.0","","77","","","M","15","","9","","","M","102.05","","","","-29","","NA"
"-78.52","52.23","EASTMAIN RIVER A","7092310","2018-03-30 23:00","2018","03","30","23:00","-21.7","","-25.0","","75","","","M","14","","9","","","M","102.02","","","","-29","","NA"
"-78.52","52.23","EASTMAIN RIVER A","7092310","2018-03-31 00:00","2018","03","31","00:00","-22.4","","-25.7","","74","","","M","12","","10","","","M","102.00","","","","-30","","NA"
"-78.52","52.23","EASTMAIN RIVER A","7092310","2018-03-31 01:00","2018","03","31","01:00","-22.6","","-25.9","","75","","","M","12","","9","","","M","101.97","","","","-30","","NA"
"-78.52","52.23","EASTMAIN RIVER A","7092310","2018-03-31 02:00","2018","03","31","02:00","-22.7","","-26.1","","74","","","M","15","","8","","","M","101.97","","","","-29","","NA"
"-78.52","52.23","EASTMAIN RIVER A","7092310","2018-03-31 03:00","2018","03","31","03:00","-22.3","","-25.7","","74","","","M","16","","8","","","M","101.96","","","","-29","","NA"
"-78.52","52.23","EASTMAIN RIVER A","7092310","2018-03-31 04:00","2018","03","31","04:00","-21.4","","-24.7","","75","","","M","15","","9","","","M","101.92","","","","-28","","NA"
"-78.52","52.23","EASTMAIN RIVER A","7092310","2018-03-31 05:00","2018","03","31","05:00","-22.8","","-26.1","","75","","","M","12","","8","","","M","101.90","","","","-30","","NA"
"-78.52","52.23","EASTMAIN RIVER A","7092310","2018-03-31 06:00","2018","03","31","06:00","-22.6","","-25.8","","76","","","M","12","","9","","","M","101.91","","","","-30","","NA"
"-78.52","52.23","EASTMAIN RIVER A","7092310","2018-03-31 07:00","2018","03","31","07:00","-20.4","","-24.1","","72","","","M","12","","7","","","M","101.90","","","","-26","","NA"
"-78.52","52.23","EASTMAIN RIVER A","7092310","2018-03-31 08:00","2018","03","31","08:00","-14.8","","-22.1","","55","","","M","14","","9","","","M","101.86","","","","-21","","NA"
"-78.52","52.23","EASTMAIN RIVER A","7092310","2018-03-31 09:00","2018","03","31","09:00","-12.2","","-22.3","","43","","","M","17","","14","","","M","101.80","","","","-19","","NA"
"-78.52","52.23","EASTMAIN RIVER A","7092310","2018-03-31 10:00","2018","03","31","10:00","-10.6","","-21.7","","40","","","M","14","","15","","","M","101.73","","","","-17","","NA"
"-78.52","52.23","EASTMAIN RIVER A","7092310","2018-03-31 11:00","2018","03","31","11:00","-9.9","","-21.0","","40","","","M","20","","17","","","M","101.67","","","","-17","","NA"
"-78.52","52.23","EASTMAIN RIVER A","7092310","2018-03-31 12:00","2018","03","31","12:00","-9.0","","-21.5","","36","","","M","19","","10","","","M","101.59","","","","-14","","NA"
"-78.52","52.23","EASTMAIN RIVER A","7092310","2018-03-31 13:00","2018","03","31","13:00","-8.0","","-21.7","","33","","","M","12","","4","","","M","101.50","","","","-10","","NA"
"-78.52","52.23","EASTMAIN RIVER A","7092310","2018-03-31 14:00","2018","03","31","14:00","-7.0","","-21.2","","32","","","M","8","","13","","","M","101.37","","","","-13","","NA"
"-78.52","52.23","EASTMAIN RIVER A","7092310","2018-03-31 15:00","2018","03","31","15:00","-6.6","","-20.2","","34","","","M","8","","15","","","M","101.30","","","","-13","","NA"
"-78.52","52.23","EASTMAIN RIVER A","7092310","2018-03-31 16:00","2018","03","31","16:00","-7.2","","-20.1","","35","","","M","8","","26","","","M","101.21","","","","-15","","NA"
"-78.52","52.23","EASTMAIN RIVER A","7092310","2018-03-31 17:00","2018","03","31","17:00","-7.7","","-20.0","","37","","","M","8","","22","","","M","101.14","","","","-15","","NA"
"-78.52","52.23","EASTMAIN RIVER A","7092310","2018-03-31 18:00","2018","03","31","18:00","-8.7","","-20.7","","38","","","M","8","","19","","","M","101.08","","","","-16","","NA"
"-78.52","52.23","EASTMAIN RIVER A","7092310","2018-03-31 19:00","2018","03","31","19:00","-10.0","","-20.1","","44","","","M","8","","14","","","M","101.02","","","","-16","","NA"
"-78.52","52.23","EASTMAIN RIVER A","7092310","2018-03-31 20:00","2018","03","31","20:00","-10.8","","-20.4","","45","","","M","8","","16","","","M","100.97","","","","-18","","NA"
"-78.52","52.23","EASTMAIN RIVER A","7092310","2018-03-31 21:00","2018","03","31","21:00","-11.1","","-20.2","","47","","","M","8","","11","","","M","100.93","","","","-17","","NA"
"-78.52","52.23","EASTMAIN RIVER A","7092310","2018-03-31 22:00","2018","03","31","22:00","-11.2","","-19.4","","51","","","M","9","","13","","","M","100.90","","","","-18","","NA"
"-78.52","52.23","EASTMAIN RIVER A","7092310","2018-03-31 23:00","2018","03","31","23:00","-11.4","","-19.8","","51","","","M","8","","12","","","M","100.82","","","","-18","","NA"
