"Longitude (x)","Latitude (y)","Station Name","Climate ID","Date/Time (LST)","Year","Month","Day","Time (LST)","Temp (°C)","Temp Flag","Dew Point Temp (°C)","Dew Point Temp Flag","Rel Hum (%)","Rel Hum Flag","Precip. Amount (mm)","Precip. Amount Flag","Wind Dir (10s deg)","Wind Dir Flag","Wind Spd (km/h)","Wind Spd Flag","Visibility (km)","Visibility Flag","Stn Press (kPa)","Stn Press Flag","Hmdx","Hmdx Flag","Wind Chill","Wind Chill Flag","Weather"
"-133.03","69.43","TUKTOYAKTUK A","2203912","2012-02-01 00:00","2012","02","01","00:00"
"-133.03","69.43","TUKTOYAKTUK A","2203912","2012-02-01 01:00","2012","02","01","01:00"
"-133.03","69.43","TUKTOYAKTUK A","2203912","2012-02-01 02:00","2012","02","01","02:00"
"-133.03","69.43","TUKTOYAKTUK A","2203912","2012-02-01 03:00","2012","02","01","03:00"
"-133.03","69.43","TUKTOYAKTUK A","2203912","2012-02-01 04:00","2012","02","01","04:00"
"-133.03","69.43","TUKTOYAKTUK A","2203912","2012-02-01 05:00","2012","02","01","05:00"
"-133.03","69.43","TUKTOYAKTUK A","2203912","2012-02-01 06:00","2012","02","01","06:00"
"-133.03","69.43","TUKTOYAKTUK A","2203912","2012-02-01 07:00","2012","02","01","07:00","-38.1","","-42.5","","63","","","","23","","9","E","24.1","","100.79","","","","-48","E","Clear"
"-133.03","69.43","TUKTOYAKTUK A","2203912","2012-02-01 08:00","2012","02","01","08:00","-38.1","","-42.6","","63","","","","23","","9","E","24.1","","100.82","","","","-48","E","Clear"
"-133.03","69.43","TUKTOYAKTUK A","2203912","2012-02-01 09:00","2012","02","01","09:00","-37.3","","-42.0","","62","","","","18","","9","E","24.1","","100.85","","","","-47","E","Clear"
"-133.03","69.43","TUKTOYAKTUK A","2203912","2012-02-01 10:00","2012","02","01","10:00","-38.3","","-42.8","","63","","","","","","0","","24.1","","100.86","","","","","","Clear"
"-133.03","69.43","TUKTOYAKTUK A","2203912","2012-02-01 11:00","2012","02","01","11:00","-38.0","","-43.1","","59","","","","","","0","","24.1","","100.89","","","","","","Clear"
"-133.03","69.43","TUKTOYAKTUK A","2203912","2012-02-01 12:00","2012","02","01","12:00","-38.3","","-43.0","","61","","","","14","","9","E","24.1","","100.93","","","","-48","E","Clear"
"-133.03","69.43","TUKTOYAKTUK A","2203912","2012-02-01 13:00","2012","02","01","13:00","-38.3","","-43.1","","61","","","","9","","9","E","24.1","","100.94","","","","-48","E","Clear"
"-133.03","69.43","TUKTOYAKTUK A","2203912","2012-02-01 14:00","2012","02","01","14:00","-37.9","","-42.7","","61","","","","9","","9","E","24.1","","100.94","","","","-48","E","Mainly Clear"
"-133.03","69.43","TUKTOYAKTUK A","2203912","2012-02-01 15:00","2012","02","01","15:00","-37.3","","-41.9","","62","","","","9","","9","E","24.1","","100.94","","","","-47","E","Mostly Cloudy"
"-133.03","69.43","TUKTOYAKTUK A","2203912","2012-02-01 16:00","2012","02","01","16:00","-34.6","","-39.1","","64","","","","9","","9","E","24.1","","100.93","","","","-44","E","Mostly Cloudy"
"-133.03","69.43","TUKTOYAKTUK A","2203912","2012-02-01 17:00","2012","02","01","17:00","-33.1","","-37.7","","63","","","","5","","9","E","24.1","","100.89","","","","-42","E","Mostly Cloudy"
"-133.03","69.43","TUKTOYAKTUK A","2203912","2012-02-01 18:00","2012","02","01","18:00","-32.7","","-37.4","","63","","","","9","","9","E","24.1","","100.89","","","","-42","E","Mostly Cloudy"
"-133.03","69.43","TUKTOYAKTUK A","2203912","2012-02-01 19:00","2012","02","01","19:00","-33.1","","-37.8","","63","","","","9","","9","E","24.1","","100.78","","","","-42","E","Mostly Cloudy"
"-133.03","69.43","TUKTOYAKTUK A","2203912","2012-02-01 20:00","2012","02","01","20:00","-32.6","","-37.3","","63","","","","5","","9","E","24.1","","100.73","","","","-42","E","Cloudy"
"-133.03","69.43","TUKTOYAKTUK A","2203912","2012-02-01 21:00","2012","02","01","21:00","-32.0","","-36.6","","64","","","","5","","9","E","9.7","","100.61","","","","-41","E","Snow"
"-133.03","69.43","TUKTOYAKTUK A","2203912","2012-02-01 22:00","2012","02","01","22:00","-31.5","","-36.3","","63","","","","5","","9","E","9.7","","100.55","","","","-40","E","Snow"
"-133.03","69.43","TUKTOYAKTUK A","2203912","2012-02-01 23:00","2012","02","01","23:00","-31.5","","-36.1","","64","","","","5","","9","E","9.7","","100.36","","","","-40","E","Snow"
"-133.03","69.43","TUKTOYAKTUK A","2203912","2012-02-02 00:00","2012","02","02","00:00"
"-133.03","69.43","TUKTOYAKTUK A","2203912","2012-02-02 01:00","2012","02","02","01:00"
"-133.03","69.43","TUKTOYAKTUK A","2203912","2012-02-02 02:00","2012","02","02","02:00"
"-133.03","69.43","TUKTOYAKTUK A","2203912","2012-02-02 03:00","2012","02","02","03:00"
"-133.03","69.43","TUKTOYAKTUK A","2203912","2012-02-02 04:00","2012","02","02","04:00"
"-133.03","69.43","TUKTOYAKTUK A","2203912","2012-02-02 05:00","2012","02","02","05:00"
"-133.03","69.43","TUKTOYAKTUK A","2203912","2012-02-02 06:00","2012","02","02","06:00"
"-133.03","69.43","TUKTOYAKTUK A","2203912","2012-02-02 07:00","2012","02","02","07:00","-26.5","","-30.8","","67","","","","5","","19","E","2.4","","99.32","","","","-38","E","Snow"
"-133.03","69.43","TUKTOYAKTUK A","2203912","2012-02-02 08:00","2012","02","02","08:00","-26.1","","-30.4","","67","","","","5","","17","E","3.2","","99.30","","","","-37","E","Snow"
"-133.03","69.43","TUKTOYAKTUK A","2203912","2012-02-02 09:00","2012","02","02","09:00","-26.6","","-31.0","","66","","","","5","","17","","6.4","","99.24","","","","-38","","Snow"
"-133.03","69.43","TUKTOYAKTUK A","2203912","2012-02-02 10:00","2012","02","02","10:00","-26.1","","-30.3","","68","","","","5","","17","E","12.9","","99.24","","","","-37","E","Mostly Cloudy"
"-133.03","69.43","TUKTOYAKTUK A","2203912","2012-02-02 11:00","2012","02","02","11:00","-25.6","","-29.9","","67","","","","5","","9","E","16.1","","99.24","","","","-33","E","Mostly Cloudy"
"-133.03","69.43","TUKTOYAKTUK A","2203912","2012-02-02 12:00","2012","02","02","12:00","-24.9","","-29.3","","67","","","","36","","9","E","16.1","","99.35","","","","-33","E","Mostly Cloudy"
"-133.03","69.43","TUKTOYAKTUK A","2203912","2012-02-02 13:00","2012","02","02","13:00","-24.5","","-28.9","","67","","","","32","","9","E","24.1","","99.41","","","","-32","E","Mostly Cloudy"
"-133.03","69.43","TUKTOYAKTUK A","2203912","2012-02-02 14:00","2012","02","02","14:00","-24.6","","-29.3","","65","","","","32","","9","E","24.1","","99.45","","","","-32","E","Mostly Cloudy"
"-133.03","69.43","TUKTOYAKTUK A","2203912","2012-02-02 15:00","2012","02","02","15:00","-24.3","","-28.9","","66","","","","32","","9","E","24.1","","99.59","","","","-32","E","Mostly Cloudy"
"-133.03","69.43","TUKTOYAKTUK A","2203912","2012-02-02 16:00","2012","02","02","16:00","-24.6","","-29.0","","67","","","","27","","17","E","4.8","","99.76","","","","-35","E","Snow"
"-133.03","69.43","TUKTOYAKTUK A","2203912","2012-02-02 17:00","2012","02","02","17:00","-24.7","","-29.5","","64","","","","27","","17","E","16.1","","99.84","","","","-36","E","Snow"
"-133.03","69.43","TUKTOYAKTUK A","2203912","2012-02-02 18:00","2012","02","02","18:00","-24.6","","-29.6","","63","","","","27","","17","E","16.1","","99.88","","","","-35","E","Snow"
"-133.03","69.43","TUKTOYAKTUK A","2203912","2012-02-02 19:00","2012","02","02","19:00","-24.9","","-29.6","","65","","","","27","","17","E","16.1","","99.99","","","","-36","E","Snow"
"-133.03","69.43","TUKTOYAKTUK A","2203912","2012-02-02 20:00","2012","02","02","20:00","-25.1","","-30.2","","62","","","","27","","17","E","9.7","","100.04","","","","-36","E","Snow"
"-133.03","69.43","TUKTOYAKTUK A","2203912","2012-02-02 21:00","2012","02","02","21:00","-25.3","","-30.0","","65","","","","27","","17","E","9.7","","100.08","","","","-36","E","Snow"
"-133.03","69.43","TUKTOYAKTUK A","2203912","2012-02-02 22:00","2012","02","02","22:00","-25.5","","-30.4","","64","","","","27","","17","E","9.7","","100.15","","","","-37","E","Snow"
"-133.03","69.43","TUKTOYAKTUK A","2203912","2012-02-02 23:00","2012","02","02","23:00","-25.6","","-30.3","","65","","","","27","","17","E","4.8","","100.21","","","","-37","E","Snow"
"-133.03","69.43","TUKTOYAKTUK A","2203912","2012-02-03 00:00","2012","02","03","00:00"
"-133.03","69.43","TUKTOYAKTUK A","2203912","2012-02-03 01:00","2012","02","03","01:00"
"-133.03","69.43","TUKTOYAKTUK A","2203912","2012-02-03 02:00","2012","02","03","02:00"
"-133.03","69.43","TUKTOYAKTUK A","2203912","2012-02-03 03:00","2012","02","03","03:00"
"-133.03","69.43","TUKTOYAKTUK A","2203912","2012-02-03 04:00","2012","02","03","04:00"
"-133.03","69.43","TUKTOYAKTUK A","2203912","2012-02-03 05:00","2012","02","03","05:00"
"-133.03","69.43","TUKTOYAKTUK A","2203912","2012-02-03 06:00","2012","02","03","06:00"
"-133.03","69.43","TUKTOYAKTUK A","2203912","2012-02-03 07:00","2012","02","03","07:00","-29.7","","-34.3","","64","","","","","","0","","24.1","","100.56","","","","","","Clear"
"-133.03","69.43","TUKTOYAKTUK A","2203912","2012-02-03 08:00","2012","02","03","08:00","-30.1","","-34.9","","63","","","","5","","9","E","24.1","","100.54","","","","-39","E","Clear"
"-133.03","69.43","TUKTOYAKTUK A","2203912","2012-02-03 09:00","2012","02","03","09:00","-29.5","","-34.6","","61","","","","9","","9","","24.1","","100.44","","","","-38","","Clear"
"-133.03","69.43","TUKTOYAKTUK A","2203912","2012-02-03 10:00","2012","02","03","10:00","-29.6","","-34.4","","63","","","","9","","9","E","24.1","","100.36","","","","-38","E","Clear"
"-133.03","69.43","TUKTOYAKTUK A","2203912","2012-02-03 11:00","2012","02","03","11:00","-28.8","","-33.8","","62","","","","9","","9","E","24.1","","100.30","","","","-37","E","Mainly Clear"
"-133.03","69.43","TUKTOYAKTUK A","2203912","2012-02-03 12:00","2012","02","03","12:00","-27.8","","-32.8","","62","","","","9","","19","E","24.1","","100.12","","","","-40","E","Mostly Cloudy"
"-133.03","69.43","TUKTOYAKTUK A","2203912","2012-02-03 13:00","2012","02","03","13:00","-26.9","","-31.6","","64","","","","9","","26","E","12.9","","99.88","","","","-41","E","Mostly Cloudy"
"-133.03","69.43","TUKTOYAKTUK A","2203912","2012-02-03 14:00","2012","02","03","14:00","-25.4","","-29.9","","66","","","","9","","35","","4.8","","99.77","","","","-41","","Snow,Blowing Snow"
"-133.03","69.43","TUKTOYAKTUK A","2203912","2012-02-03 15:00","2012","02","03","15:00","-24.2","","-28.8","","66","","","","8","","19","","8.0","","99.73","","","","-36","","Snow,Blowing Snow"
"-133.03","69.43","TUKTOYAKTUK A","2203912","2012-02-03 16:00","2012","02","03","16:00","-23.0","","-27.3","","68","","","","6","","32","","4.8","","99.51","","","","-37","","Snow,Blowing Snow"
"-133.03","69.43","TUKTOYAKTUK A","2203912","2012-02-03 17:00","2012","02","03","17:00","-22.4","","-26.6","","69","","","","6","","33","","1.6","","99.36","","","","-36","","Snow,Blowing Snow"
"-133.03","69.43","TUKTOYAKTUK A","2203912","2012-02-03 18:00","2012","02","03","18:00","-22.0","","-26.2","","69","","","","3","","33","","1.6","","99.25","","","","-36","","Snow,Blowing Snow"
"-133.03","69.43","TUKTOYAKTUK A","2203912","2012-02-03 19:00","2012","02","03","19:00","-20.8","","-24.7","","71","","","","7","","20","","1.6","","99.27","","","","-31","","Snow,Blowing Snow"
"-133.03","69.43","TUKTOYAKTUK A","2203912","2012-02-03 20:00","2012","02","03","20:00","-19.9","","-23.7","","72","","","","5","","19","","4.8","","99.30","","","","-30","","Blowing Snow"
"-133.03","69.43","TUKTOYAKTUK A","2203912","2012-02-03 21:00","2012","02","03","21:00","-19.5","","-23.3","","72","","","","5","","19","","8.0","","99.37","","","","-30","","Snow"
"-133.03","69.43","TUKTOYAKTUK A","2203912","2012-02-03 22:00","2012","02","03","22:00","-18.8","","-22.5","","73","","","","","","0","","11.3","","99.49","","","","","","Cloudy"
"-133.03","69.43","TUKTOYAKTUK A","2203912","2012-02-03 23:00","2012","02","03","23:00","-18.7","","-22.5","","72","","","","33","","17","","6.4","","99.61","","","","-28","","Snow"
"-133.03","69.43","TUKTOYAKTUK A","2203912","2012-02-04 00:00","2012","02","04","00:00"
"-133.03","69.43","TUKTOYAKTUK A","2203912","2012-02-04 01:00","2012","02","04","01:00"
"-133.03","69.43","TUKTOYAKTUK A","2203912","2012-02-04 02:00","2012","02","04","02:00"
"-133.03","69.43","TUKTOYAKTUK A","2203912","2012-02-04 03:00","2012","02","04","03:00"
"-133.03","69.43","TUKTOYAKTUK A","2203912","2012-02-04 04:00","2012","02","04","04:00"
"-133.03","69.43","TUKTOYAKTUK A","2203912","2012-02-04 05:00","2012","02","04","05:00"
"-133.03","69.43","TUKTOYAKTUK A","2203912","2012-02-04 06:00","2012","02","04","06:00"
"-133.03","69.43","TUKTOYAKTUK A","2203912","2012-02-04 07:00","2012","02","04","07:00","-24.6","","-29.2","","66","","","","30","","43","","1.2","","101.25","","","","-41","","Snow,Blowing Snow"
"-133.03","69.43","TUKTOYAKTUK A","2203912","2012-02-04 08:00","2012","02","04","08:00","-24.7","","-29.3","","66","","","","29","","41","","1.2","","101.39","","","","-41","","Snow,Blowing Snow"
"-133.03","69.43","TUKTOYAKTUK A","2203912","2012-02-04 09:00","2012","02","04","09:00","-24.5","","-29.0","","66","","","","29","","35","","1.6","","101.56","","","","-39","","Snow,Blowing Snow"
"-133.03","69.43","TUKTOYAKTUK A","2203912","2012-02-04 10:00","2012","02","04","10:00","-24.7","","-29.3","","66","","","","27","","28","","2.4","","101.74","","","","-38","","Blowing Snow"
"-133.03","69.43","TUKTOYAKTUK A","2203912","2012-02-04 11:00","2012","02","04","11:00","-25.1","","-29.6","","66","","","","27","","35","","1.6","","101.86","","","","-40","","Blowing Snow"
"-133.03","69.43","TUKTOYAKTUK A","2203912","2012-02-04 12:00","2012","02","04","12:00","-24.9","","-29.7","","64","","","","28","","35","","1.6","","101.99","","","","-40","","Blowing Snow"
"-133.03","69.43","TUKTOYAKTUK A","2203912","2012-02-04 13:00","2012","02","04","13:00","-25.1","","-28.3","","75","","","","28","","35","","4.8","","102.16","","","","-40","","Blowing Snow"
"-133.03","69.43","TUKTOYAKTUK A","2203912","2012-02-04 14:00","2012","02","04","14:00","-24.7","","-28.7","","69","","","","27","","35","","4.8","","102.33","","","","-40","","Blowing Snow"
"-133.03","69.43","TUKTOYAKTUK A","2203912","2012-02-04 15:00","2012","02","04","15:00","-25.3","","-29.0","","71","","","","27","","28","","16.1","","102.49","","","","-39","","Mainly Clear"
"-133.03","69.43","TUKTOYAKTUK A","2203912","2012-02-04 16:00","2012","02","04","16:00","-26.0","","-30.2","","68","","","","27","","17","","24.1","","102.62","","","","-37","","Mainly Clear"
"-133.03","69.43","TUKTOYAKTUK A","2203912","2012-02-04 17:00","2012","02","04","17:00","-26.9","","-32.3","","60","","","","25","","20","","24.1","","102.75","","","","-39","","Clear"
"-133.03","69.43","TUKTOYAKTUK A","2203912","2012-02-04 18:00","2012","02","04","18:00","-26.8","","-31.0","","68","","","","25","","20","","24.1","","102.86","","","","-39","","Clear"
"-133.03","69.43","TUKTOYAKTUK A","2203912","2012-02-04 19:00","2012","02","04","19:00","-28.2","","-32.8","","65","","","","22","","15","","24.1","","102.93","","","","-39","","Clear"
"-133.03","69.43","TUKTOYAKTUK A","2203912","2012-02-04 20:00","2012","02","04","20:00","-28.6","","-33.0","","66","","","","20","","11","","24.1","","102.98","","","","-38","","Clear"
"-133.03","69.43","TUKTOYAKTUK A","2203912","2012-02-04 21:00","2012","02","04","21:00","-30.0","","-33.7","","70","","","","21","","11","","24.1","","103.03","","","","-40","","Clear"
"-133.03","69.43","TUKTOYAKTUK A","2203912","2012-02-04 22:00","2012","02","04","22:00","-28.0","","-32.4","","66","","","","17","","11","","24.1","","103.06","","","","-37","","Clear"
"-133.03","69.43","TUKTOYAKTUK A","2203912","2012-02-04 23:00","2012","02","04","23:00","-26.9","","-31.4","","66","","","","16","","15","","24.1","","103.04","","","","-38","","Clear"
"-133.03","69.43","TUKTOYAKTUK A","2203912","2012-02-05 00:00","2012","02","05","00:00"
"-133.03","69.43","TUKTOYAKTUK A","2203912","2012-02-05 01:00","2012","02","05","01:00"
"-133.03","69.43","TUKTOYAKTUK A","2203912","2012-02-05 02:00","2012","02","05","02:00"
"-133.03","69.43","TUKTOYAKTUK A","2203912","2012-02-05 03:00","2012","02","05","03:00"
"-133.03","69.43","TUKTOYAKTUK A","2203912","2012-02-05 04:00","2012","02","05","04:00"
"-133.03","69.43","TUKTOYAKTUK A","2203912","2012-02-05 05:00","2012","02","05","05:00"
"-133.03","69.43","TUKTOYAKTUK A","2203912","2012-02-05 06:00","2012","02","05","06:00"
"-133.03","69.43","TUKTOYAKTUK A","2203912","2012-02-05 07:00","2012","02","05","07:00","-20.4","","-25.7","","63","","","","15","","35","","16.1","","102.55","","","","-34","","Mostly Cloudy"
"-133.03","69.43","TUKTOYAKTUK A","2203912","2012-02-05 08:00","2012","02","05","08:00","-19.5","","-24.4","","65","","","","15","","22","","16.1","","102.56","","","","-30","","Mainly Clear"
"-133.03","69.43","TUKTOYAKTUK A","2203912","2012-02-05 09:00","2012","02","05","09:00","-19.7","","-24.1","","68","","","","16","","22","","16.1","","102.48","","","","-31","","Mainly Clear"
"-133.03","69.43","TUKTOYAKTUK A","2203912","2012-02-05 10:00","2012","02","05","10:00","-19.6","","-25.1","","62","","","","15","","22","","16.1","","102.45","","","","-30","","Mainly Clear"
"-133.03","69.43","TUKTOYAKTUK A","2203912","2012-02-05 11:00","2012","02","05","11:00","-19.0","","-23.6","","67","","","","16","","24","","16.1","","102.37","","","","-30","","Clear"
"-133.03","69.43","TUKTOYAKTUK A","2203912","2012-02-05 12:00","2012","02","05","12:00","-19.1","","-23.3","","69","","","","16","","13","","16.1","","102.42","","","","-27","","Clear"
"-133.03","69.43","TUKTOYAKTUK A","2203912","2012-02-05 13:00","2012","02","05","13:00","-18.5","","-23.2","","66","","","","16","","22","","16.1","","102.38","","","","-29","","Clear"
"-133.03","69.43","TUKTOYAKTUK A","2203912","2012-02-05 14:00","2012","02","05","14:00","-17.4","","-22.2","","66","","","","15","","19","","16.1","","102.35","","","","-27","","Mainly Clear"
"-133.03","69.43","TUKTOYAKTUK A","2203912","2012-02-05 15:00","2012","02","05","15:00","-16.3","","-21.9","","62","","","","15","","19","","24.1","","102.32","","","","-26","","Mostly Cloudy"
"-133.03","69.43","TUKTOYAKTUK A","2203912","2012-02-05 16:00","2012","02","05","16:00","-15.4","","-20.0","","68","","","","16","","20","","24.1","","102.27","","","","-25","","Mostly Cloudy"
"-133.03","69.43","TUKTOYAKTUK A","2203912","2012-02-05 17:00","2012","02","05","17:00","-15.5","","-19.8","","70","","","","14","","19","","24.1","","102.19","","","","-25","","Mostly Cloudy"
"-133.03","69.43","TUKTOYAKTUK A","2203912","2012-02-05 18:00","2012","02","05","18:00","-16.2","","-20.3","","71","","","","14","","22","","24.1","","102.07","","","","-26","","Mostly Cloudy"
"-133.03","69.43","TUKTOYAKTUK A","2203912","2012-02-05 19:00","2012","02","05","19:00","-15.7","","-20.0","","70","","","","13","","15","","24.1","","101.97","","","","-24","","Mainly Clear"
"-133.03","69.43","TUKTOYAKTUK A","2203912","2012-02-05 20:00","2012","02","05","20:00","-15.3","","-19.8","","68","","","","11","","20","","24.1","","101.81","","","","-25","","Mostly Cloudy"
"-133.03","69.43","TUKTOYAKTUK A","2203912","2012-02-05 21:00","2012","02","05","21:00","-14.3","","-18.8","","69","","","","12","","22","","24.1","","101.71","","","","-24","","Cloudy"
"-133.03","69.43","TUKTOYAKTUK A","2203912","2012-02-05 22:00","2012","02","05","22:00","-14.5","","-19.0","","69","","","","13","","22","","24.1","","101.58","","","","-24","","Cloudy"
"-133.03","69.43","TUKTOYAKTUK A","2203912","2012-02-05 23:00","2012","02","05","23:00","-15.2","","-19.5","","70","","","","12","","22","","24.1","","101.53","","","","-25","","Cloudy"
"-133.03","69.43","TUKTOYAKTUK A","2203912","2012-02-06 00:00","2012","02","06","00:00"
"-133.03","69.43","TUKTOYAKTUK A","2203912","2012-02-06 01:00","2012","02","06","01:00"
"-133.03","69.43","TUKTOYAKTUK A","2203912","2012-02-06 02:00","2012","02","06","02:00"
"-133.03","69.43","TUKTOYAKTUK A","2203912","2012-02-06 03:00","2012","02","06","03:00"
"-133.03","69.43","TUKTOYAKTUK A","2203912","2012-02-06 04:00","2012","02","06","04:00"
"-133.03","69.43","TUKTOYAKTUK A","2203912","2012-02-06 05:00","2012","02","06","05:00"
"-133.03","69.43","TUKTOYAKTUK A","2203912","2012-02-06 06:00","2012","02","06","06:00"
"-133.03","69.43","TUKTOYAKTUK A","2203912","2012-02-06 07:00","2012","02","06","07:00","-14.2","","-18.4","","70","","","","","","0","","24.1","","101.48","","","","","","Mostly Cloudy"
"-133.03","69.43","TUKTOYAKTUK A","2203912","2012-02-06 08:00","2012","02","06","08:00","-15.2","","-19.2","","71","","","","18","","6","E","24.1","","101.49","","","","-19","E","Mostly Cloudy"
"-133.03","69.43","TUKTOYAKTUK A","2203912","2012-02-06 09:00","2012","02","06","09:00","-13.2","","-17.6","","69","","","","","","0","","24.1","","101.53","","","","","","Mainly Clear"
"-133.03","69.43","TUKTOYAKTUK A","2203912","2012-02-06 10:00","2012","02","06","10:00","-15.3","","-19.1","","73","","","","","","0","","24.1","","101.63","","","","","","Mainly Clear"
"-133.03","69.43","TUKTOYAKTUK A","2203912","2012-02-06 11:00","2012","02","06","11:00","-14.2","","-18.6","","69","","","","23","","6","E","24.1","","101.72","","","","-18","E","Mainly Clear"
"-133.03","69.43","TUKTOYAKTUK A","2203912","2012-02-06 12:00","2012","02","06","12:00","-16.4","","-20.3","","72","","","","23","","6","E","24.1","","101.79","","","","-21","E","Clear"
"-133.03","69.43","TUKTOYAKTUK A","2203912","2012-02-06 13:00","2012","02","06","13:00","-17.0","","-20.8","","72","","","","","","0","","24.1","","101.86","","","","","","Clear"
"-133.03","69.43","TUKTOYAKTUK A","2203912","2012-02-06 14:00","2012","02","06","14:00","-17.6","","-21.2","","73","","","","","","0","","24.1","","101.94","","","","","","Clear"
"-133.03","69.43","TUKTOYAKTUK A","2203912","2012-02-06 15:00","2012","02","06","15:00","-17.4","","-20.8","","75","","","","","","0","","24.1","","102.00","","","","","","Clear"
"-133.03","69.43","TUKTOYAKTUK A","2203912","2012-02-06 16:00","2012","02","06","16:00","-20.2","","-24.1","","71","","","","","","0","","24.1","","102.10","","","","","","Clear"
"-133.03","69.43","TUKTOYAKTUK A","2203912","2012-02-06 17:00","2012","02","06","17:00","-21.3","","-25.6","","68","","","","5","","9","E","24.1","","102.15","","","","-28","E","Mainly Clear"
"-133.03","69.43","TUKTOYAKTUK A","2203912","2012-02-06 18:00","2012","02","06","18:00","-22.4","","-26.5","","69","","","","9","","9","E","24.1","","102.14","","","","-30","E","Mainly Clear"
"-133.03","69.43","TUKTOYAKTUK A","2203912","2012-02-06 19:00","2012","02","06","19:00","-22.6","","-26.9","","68","","","","5","","9","E","24.1","","102.18","","","","-30","E","Mainly Clear"
"-133.03","69.43","TUKTOYAKTUK A","2203912","2012-02-06 20:00","2012","02","06","20:00","-22.5","","-26.5","","70","","","","5","","4","","24.1","","102.20","","","","-26","","Mainly Clear"
"-133.03","69.43","TUKTOYAKTUK A","2203912","2012-02-06 21:00","2012","02","06","21:00","-23.3","","-27.6","","68","","","","5","","9","E","24.1","","102.24","","","","-31","E","Mainly Clear"
"-133.03","69.43","TUKTOYAKTUK A","2203912","2012-02-06 22:00","2012","02","06","22:00","-23.3","","-27.6","","68","","","","5","","9","E","24.1","","102.24","","","","-31","E","Mainly Clear"
"-133.03","69.43","TUKTOYAKTUK A","2203912","2012-02-06 23:00","2012","02","06","23:00","-23.3","","-27.6","","68","","","","5","","17","E","24.1","","102.31","","","","-34","E","Mostly Cloudy"
"-133.03","69.43","TUKTOYAKTUK A","2203912","2012-02-07 00:00","2012","02","07","00:00"
"-133.03","69.43","TUKTOYAKTUK A","2203912","2012-02-07 01:00","2012","02","07","01:00"
"-133.03","69.43","TUKTOYAKTUK A","2203912","2012-02-07 02:00","2012","02","07","02:00"
"-133.03","69.43","TUKTOYAKTUK A","2203912","2012-02-07 03:00","2012","02","07","03:00"
"-133.03","69.43","TUKTOYAKTUK A","2203912","2012-02-07 04:00","2012","02","07","04:00"
"-133.03","69.43","TUKTOYAKTUK A","2203912","2012-02-07 05:00","2012","02","07","05:00"
"-133.03","69.43","TUKTOYAKTUK A","2203912","2012-02-07 06:00","2012","02","07","06:00"
"-133.03","69.43","TUKTOYAKTUK A","2203912","2012-02-07 07:00","2012","02","07","07:00","-22.4","","-26.8","","67","","","","5","","9","E","24.1","","102.31","","","","-30","E","Mainly Clear"
"-133.03","69.43","TUKTOYAKTUK A","2203912","2012-02-07 08:00","2012","02","07","08:00","-21.8","","-26.2","","67","","","","5","","9","E","24.1","","102.34","","","","-29","E","Mainly Clear"
"-133.03","69.43","TUKTOYAKTUK A","2203912","2012-02-07 09:00","2012","02","07","09:00","-22.2","","-26.7","","67","","","","9","","9","E","24.1","","102.34","","","","-29","E","Mainly Clear"
"-133.03","69.43","TUKTOYAKTUK A","2203912","2012-02-07 10:00","2012","02","07","10:00","-22.1","","-26.5","","67","","","","5","","9","E","24.1","","102.35","","","","-29","E","Mainly Clear"
"-133.03","69.43","TUKTOYAKTUK A","2203912","2012-02-07 11:00","2012","02","07","11:00","-21.8","","-26.3","","67","","","","9","","19","E","24.1","","102.34","","","","-32","E","Mainly Clear"
"-133.03","69.43","TUKTOYAKTUK A","2203912","2012-02-07 12:00","2012","02","07","12:00","-21.4","","-25.8","","68","","","","9","","19","E","24.1","","102.36","","","","-32","E","Mainly Clear"
"-133.03","69.43","TUKTOYAKTUK A","2203912","2012-02-07 13:00","2012","02","07","13:00","-20.8","","-25.2","","68","","","","9","","9","E","24.1","","102.36","","","","-28","E","Mainly Clear"
"-133.03","69.43","TUKTOYAKTUK A","2203912","2012-02-07 14:00","2012","02","07","14:00","-19.8","","-24.2","","68","","","","9","","9","E","24.1","","102.34","","","","-27","E","Clear"
"-133.03","69.43","TUKTOYAKTUK A","2203912","2012-02-07 15:00","2012","02","07","15:00","-20.0","","-24.3","","69","","","","5","","9","E","24.1","","102.37","","","","-27","E","Mainly Clear"
"-133.03","69.43","TUKTOYAKTUK A","2203912","2012-02-07 16:00","2012","02","07","16:00","-20.0","","-24.4","","68","","","","9","","9","E","24.1","","102.43","","","","-27","E","Clear"
"-133.03","69.43","TUKTOYAKTUK A","2203912","2012-02-07 17:00","2012","02","07","17:00","-20.7","","-25.2","","67","","","","9","","9","","24.1","","102.43","","","","-28","","Clear"
"-133.03","69.43","TUKTOYAKTUK A","2203912","2012-02-07 18:00","2012","02","07","18:00","-20.8","","-25.5","","66","","","","9","","9","E","24.1","","102.45","","","","-28","E","Mainly Clear"
"-133.03","69.43","TUKTOYAKTUK A","2203912","2012-02-07 19:00","2012","02","07","19:00","-20.7","","-25.2","","67","","","","9","","9","E","24.1","","102.44","","","","-28","E","Clear"
"-133.03","69.43","TUKTOYAKTUK A","2203912","2012-02-07 20:00","2012","02","07","20:00","-19.2","","-23.8","","67","","","","9","","17","E","24.1","","102.45","","","","-29","E","Clear"
"-133.03","69.43","TUKTOYAKTUK A","2203912","2012-02-07 21:00","2012","02","07","21:00","-18.6","","-23.3","","66","","","","9","","26","E","24.1","","102.43","","","","-30","E","Clear"
"-133.03","69.43","TUKTOYAKTUK A","2203912","2012-02-07 22:00","2012","02","07","22:00","-18.9","","-23.4","","68","","","","9","","26","E","24.1","","102.42","","","","-30","E","Clear"
"-133.03","69.43","TUKTOYAKTUK A","2203912","2012-02-07 23:00","2012","02","07","23:00","-19.1","","-23.7","","67","","","","9","","26","","24.1","","102.44","","","","-31","","Clear"
"-133.03","69.43","TUKTOYAKTUK A","2203912","2012-02-08 00:00","2012","02","08","00:00"
"-133.03","69.43","TUKTOYAKTUK A","2203912","2012-02-08 01:00","2012","02","08","01:00"
"-133.03","69.43","TUKTOYAKTUK A","2203912","2012-02-08 02:00","2012","02","08","02:00"
"-133.03","69.43","TUKTOYAKTUK A","2203912","2012-02-08 03:00","2012","02","08","03:00"
"-133.03","69.43","TUKTOYAKTUK A","2203912","2012-02-08 04:00","2012","02","08","04:00"
"-133.03","69.43","TUKTOYAKTUK A","2203912","2012-02-08 05:00","2012","02","08","05:00"
"-133.03","69.43","TUKTOYAKTUK A","2203912","2012-02-08 06:00","2012","02","08","06:00"
"-133.03","69.43","TUKTOYAKTUK A","2203912","2012-02-08 07:00","2012","02","08","07:00","-17.8","","-22.8","","65","","","","9","","9","E","24.1","","102.48","","","","-24","E","Clear"
"-133.03","69.43","TUKTOYAKTUK A","2203912","2012-02-08 08:00","2012","02","08","08:00","-18.2","","-23.1","","65","","","","9","","9","E","24.1","","102.43","","","","-25","E","Clear"
"-133.03","69.43","TUKTOYAKTUK A","2203912","2012-02-08 09:00","2012","02","08","09:00","-17.6","","-22.5","","66","","","","14","","19","E","24.1","","102.38","","","","-27","E","Clear"
"-133.03","69.43","TUKTOYAKTUK A","2203912","2012-02-08 10:00","2012","02","08","10:00","-18.4","","-23.1","","67","","","","13","","22","","24.1","","102.37","","","","-29","","Clear"
"-133.03","69.43","TUKTOYAKTUK A","2203912","2012-02-08 11:00","2012","02","08","11:00","-18.1","","-22.9","","66","","","","13","","24","","24.1","","102.35","","","","-29","","Clear"
"-133.03","69.43","TUKTOYAKTUK A","2203912","2012-02-08 12:00","2012","02","08","12:00","-17.4","","-22.6","","64","","","","13","","24","","24.1","","102.34","","","","-28","","Clear"
"-133.03","69.43","TUKTOYAKTUK A","2203912","2012-02-08 13:00","2012","02","08","13:00","-17.0","","-22.1","","65","","","","12","","26","","24.1","","102.29","","","","-28","","Mainly Clear"
"-133.03","69.43","TUKTOYAKTUK A","2203912","2012-02-08 14:00","2012","02","08","14:00","-16.7","","-21.6","","66","","","","13","","28","","24.1","","102.26","","","","-28","","Mainly Clear"
"-133.03","69.43","TUKTOYAKTUK A","2203912","2012-02-08 15:00","2012","02","08","15:00","-16.4","","-21.4","","65","","","","14","","24","","24.1","","102.24","","","","-27","","Clear"
"-133.03","69.43","TUKTOYAKTUK A","2203912","2012-02-08 16:00","2012","02","08","16:00","-16.3","","-21.6","","64","","","","13","","28","","24.1","","102.18","","","","-27","","Clear"
"-133.03","69.43","TUKTOYAKTUK A","2203912","2012-02-08 17:00","2012","02","08","17:00","-16.0","","-21.4","","63","","","","12","","28","","24.1","","102.12","","","","-27","","Mainly Clear"
"-133.03","69.43","TUKTOYAKTUK A","2203912","2012-02-08 18:00","2012","02","08","18:00","-15.4","","-20.7","","64","","","","13","","30","","24.1","","102.05","","","","-27","","Mainly Clear"
"-133.03","69.43","TUKTOYAKTUK A","2203912","2012-02-08 19:00","2012","02","08","19:00","-15.6","","-21.1","","63","","","","13","","22","","24.1","","102.00","","","","-25","","Mainly Clear"
"-133.03","69.43","TUKTOYAKTUK A","2203912","2012-02-08 20:00","2012","02","08","20:00","-16.2","","-21.1","","66","","","","13","","24","","24.1","","101.94","","","","-27","","Clear"
"-133.03","69.43","TUKTOYAKTUK A","2203912","2012-02-08 21:00","2012","02","08","21:00","-15.3","","-20.4","","65","","","","12","","24","","24.1","","101.88","","","","-25","","Mainly Clear"
"-133.03","69.43","TUKTOYAKTUK A","2203912","2012-02-08 22:00","2012","02","08","22:00","-14.6","","-20.0","","63","","","","12","","24","","24.1","","101.82","","","","-24","","Clear"
"-133.03","69.43","TUKTOYAKTUK A","2203912","2012-02-08 23:00","2012","02","08","23:00","-14.7","","-19.6","","66","","","","13","","22","","24.1","","101.77","","","","-24","","Mainly Clear"
"-133.03","69.43","TUKTOYAKTUK A","2203912","2012-02-09 00:00","2012","02","09","00:00"
"-133.03","69.43","TUKTOYAKTUK A","2203912","2012-02-09 01:00","2012","02","09","01:00"
"-133.03","69.43","TUKTOYAKTUK A","2203912","2012-02-09 02:00","2012","02","09","02:00"
"-133.03","69.43","TUKTOYAKTUK A","2203912","2012-02-09 03:00","2012","02","09","03:00"
"-133.03","69.43","TUKTOYAKTUK A","2203912","2012-02-09 04:00","2012","02","09","04:00"
"-133.03","69.43","TUKTOYAKTUK A","2203912","2012-02-09 05:00","2012","02","09","05:00"
"-133.03","69.43","TUKTOYAKTUK A","2203912","2012-02-09 06:00","2012","02","09","06:00"
"-133.03","69.43","TUKTOYAKTUK A","2203912","2012-02-09 07:00","2012","02","09","07:00","-12.8","","-17.5","","68","","","","15","","32","","24.1","","101.37","","","","-23","","Mainly Clear"
"-133.03","69.43","TUKTOYAKTUK A","2203912","2012-02-09 08:00","2012","02","09","08:00","-12.5","","-17.3","","67","","","","15","","28","","24.1","","101.31","","","","-22","","Mainly Clear"
"-133.03","69.43","TUKTOYAKTUK A","2203912","2012-02-09 09:00","2012","02","09","09:00","-12.9","","-17.8","","67","","","","15","","26","","24.1","","101.28","","","","-23","","Mainly Clear"
"-133.03","69.43","TUKTOYAKTUK A","2203912","2012-02-09 10:00","2012","02","09","10:00","-13.5","","-17.6","","71","","","","14","","19","","24.1","","101.26","","","","-22","","Clear"
"-133.03","69.43","TUKTOYAKTUK A","2203912","2012-02-09 11:00","2012","02","09","11:00","-12.6","","-17.3","","68","","","","15","","20","","24.1","","101.20","","","","-21","","Mainly Clear"
"-133.03","69.43","TUKTOYAKTUK A","2203912","2012-02-09 12:00","2012","02","09","12:00","-12.0","","-16.9","","67","","","","16","","22","","24.1","","101.17","","","","-21","","Clear"
"-133.03","69.43","TUKTOYAKTUK A","2203912","2012-02-09 13:00","2012","02","09","13:00","-12.5","","-17.1","","68","","","","17","","17","","24.1","","101.19","","","","-20","","Mainly Clear"
"-133.03","69.43","TUKTOYAKTUK A","2203912","2012-02-09 14:00","2012","02","09","14:00","-12.4","","-16.8","","70","","","","15","","19","","24.1","","101.12","","","","-21","","Mainly Clear"
"-133.03","69.43","TUKTOYAKTUK A","2203912","2012-02-09 15:00","2012","02","09","15:00","-12.4","","-16.7","","70","","","","19","","19","","24.1","","101.16","","","","-21","","Mainly Clear"
"-133.03","69.43","TUKTOYAKTUK A","2203912","2012-02-09 16:00","2012","02","09","16:00","-11.9","","-16.4","","69","","","","16","","26","","24.1","","101.14","","","","-21","","Mainly Clear"
"-133.03","69.43","TUKTOYAKTUK A","2203912","2012-02-09 17:00","2012","02","09","17:00","-11.8","","-15.8","","72","","","","17","","24","","24.1","","101.14","","","","-21","","Clear"
"-133.03","69.43","TUKTOYAKTUK A","2203912","2012-02-09 18:00","2012","02","09","18:00","-10.3","","-14.1","","74","","","","17","","26","","24.1","","101.14","","","","-19","","Clear"
"-133.03","69.43","TUKTOYAKTUK A","2203912","2012-02-09 19:00","2012","02","09","19:00","-9.6","","-13.3","","74","","","","17","","30","","24.1","","101.12","","","","-19","","Clear"
"-133.03","69.43","TUKTOYAKTUK A","2203912","2012-02-09 20:00","2012","02","09","20:00","-9.6","","-13.2","","75","","","","17","","32","","24.1","","101.12","","","","-19","","Clear"
"-133.03","69.43","TUKTOYAKTUK A","2203912","2012-02-09 21:00","2012","02","09","21:00","-9.3","","-12.9","","75","","","","17","","30","","24.1","","101.08","","","","-19","","Clear"
"-133.03","69.43","TUKTOYAKTUK A","2203912","2012-02-09 22:00","2012","02","09","22:00","-9.4","","-12.8","","76","","","","18","","28","","24.1","","101.09","","","","-18","","Clear"
"-133.03","69.43","TUKTOYAKTUK A","2203912","2012-02-09 23:00","2012","02","09","23:00","-9.4","","-12.9","","76","","","","17","","26","","24.1","","101.13","","","","-18","","Clear"
"-133.03","69.43","TUKTOYAKTUK A","2203912","2012-02-10 00:00","2012","02","10","00:00"
"-133.03","69.43","TUKTOYAKTUK A","2203912","2012-02-10 01:00","2012","02","10","01:00"
"-133.03","69.43","TUKTOYAKTUK A","2203912","2012-02-10 02:00","2012","02","10","02:00"
"-133.03","69.43","TUKTOYAKTUK A","2203912","2012-02-10 03:00","2012","02","10","03:00"
"-133.03","69.43","TUKTOYAKTUK A","2203912","2012-02-10 04:00","2012","02","10","04:00"
"-133.03","69.43","TUKTOYAKTUK A","2203912","2012-02-10 05:00","2012","02","10","05:00"
"-133.03","69.43","TUKTOYAKTUK A","2203912","2012-02-10 06:00","2012","02","10","06:00"
"-133.03","69.43","TUKTOYAKTUK A","2203912","2012-02-10 07:00","2012","02","10","07:00","-13.4","","-16.1","","80","","","","15","","13","","24.1","","100.88","","","","-20","","Mainly Clear"
"-133.03","69.43","TUKTOYAKTUK A","2203912","2012-02-10 08:00","2012","02","10","08:00","-16.0","","-19.3","","76","","","","13","","19","","24.1","","100.83","","","","-25","","Mainly Clear"
"-133.03","69.43","TUKTOYAKTUK A","2203912","2012-02-10 09:00","2012","02","10","09:00","-14.6","","-18.3","","73","","","","15","","13","","24.1","","100.84","","","","-22","","Mainly Clear"
"-133.03","69.43","TUKTOYAKTUK A","2203912","2012-02-10 10:00","2012","02","10","10:00","-14.9","","-19.6","","67","","","","15","","28","","24.1","","100.73","","","","-26","","Mainly Clear"
"-133.03","69.43","TUKTOYAKTUK A","2203912","2012-02-10 11:00","2012","02","10","11:00","-14.9","","-18.9","","71","","","","15","","11","","24.1","","100.65","","","","-21","","Mainly Clear"
"-133.03","69.43","TUKTOYAKTUK A","2203912","2012-02-10 12:00","2012","02","10","12:00","-15.4","","-19.5","","71","","","","","","0","","24.1","","100.61","","","","","","Mostly Cloudy"
"-133.03","69.43","TUKTOYAKTUK A","2203912","2012-02-10 13:00","2012","02","10","13:00","-15.7","","-19.9","","70","","","","14","","9","E","24.1","","100.60","","","","-22","E","Mostly Cloudy"
"-133.03","69.43","TUKTOYAKTUK A","2203912","2012-02-10 14:00","2012","02","10","14:00","-16.1","","-20.2","","71","","","","14","","9","E","24.1","","100.49","","","","-22","E","Mostly Cloudy"
"-133.03","69.43","TUKTOYAKTUK A","2203912","2012-02-10 15:00","2012","02","10","15:00","-16.4","","-20.8","","69","","","","14","","17","E","24.1","","100.45","","","","-25","E","Mainly Clear"
"-133.03","69.43","TUKTOYAKTUK A","2203912","2012-02-10 16:00","2012","02","10","16:00","-17.1","","-21.2","","70","","","","14","","9","E","24.1","","100.40","","","","-23","E","Mostly Cloudy"
"-133.03","69.43","TUKTOYAKTUK A","2203912","2012-02-10 17:00","2012","02","10","17:00","-15.1","","-19.0","","72","","","","9","","9","E","24.1","","100.36","","","","-21","E","Mostly Cloudy"
"-133.03","69.43","TUKTOYAKTUK A","2203912","2012-02-10 18:00","2012","02","10","18:00","-14.6","","-18.5","","72","","","","5","","9","E","24.1","","100.26","","","","-20","E","Mostly Cloudy"
"-133.03","69.43","TUKTOYAKTUK A","2203912","2012-02-10 19:00","2012","02","10","19:00","-14.9","","-18.3","","75","","","","14","","9","E","24.1","","100.22","","","","-21","E","Mostly Cloudy"
"-133.03","69.43","TUKTOYAKTUK A","2203912","2012-02-10 20:00","2012","02","10","20:00","-14.9","","-18.6","","73","","","","14","","9","E","24.1","","100.16","","","","-21","E","Mostly Cloudy"
"-133.03","69.43","TUKTOYAKTUK A","2203912","2012-02-10 21:00","2012","02","10","21:00","-14.8","","-18.1","","76","","","","9","","9","E","24.1","","100.09","","","","-21","E","Mainly Clear"
"-133.03","69.43","TUKTOYAKTUK A","2203912","2012-02-10 22:00","2012","02","10","22:00","-16.4","","-19.8","","75","","","","9","","9","E","24.1","","100.05","","","","-22","E","Clear"
"-133.03","69.43","TUKTOYAKTUK A","2203912","2012-02-10 23:00","2012","02","10","23:00","-16.9","","-20.5","","74","","","","14","","9","E","24.1","","100.05","","","","-23","E","Clear"
"-133.03","69.43","TUKTOYAKTUK A","2203912","2012-02-11 00:00","2012","02","11","00:00"
"-133.03","69.43","TUKTOYAKTUK A","2203912","2012-02-11 01:00","2012","02","11","01:00"
"-133.03","69.43","TUKTOYAKTUK A","2203912","2012-02-11 02:00","2012","02","11","02:00"
"-133.03","69.43","TUKTOYAKTUK A","2203912","2012-02-11 03:00","2012","02","11","03:00"
"-133.03","69.43","TUKTOYAKTUK A","2203912","2012-02-11 04:00","2012","02","11","04:00"
"-133.03","69.43","TUKTOYAKTUK A","2203912","2012-02-11 05:00","2012","02","11","05:00"
"-133.03","69.43","TUKTOYAKTUK A","2203912","2012-02-11 06:00","2012","02","11","06:00"
"-133.03","69.43","TUKTOYAKTUK A","2203912","2012-02-11 07:00","2012","02","11","07:00","-15.6","","-18.3","","80","","","","","","0","","24.1","","99.87","","","","","","Clear"
"-133.03","69.43","TUKTOYAKTUK A","2203912","2012-02-11 08:00","2012","02","11","08:00","-15.2","","-18.0","","79","","","","","","0","","24.1","","99.85","","","","","","Clear"
"-133.03","69.43","TUKTOYAKTUK A","2203912","2012-02-11 09:00","2012","02","11","09:00","-17.4","","-20.4","","77","","","","27","","9","E","24.1","","99.86","","","","-24","E","Clear"
"-133.03","69.43","TUKTOYAKTUK A","2203912","2012-02-11 10:00","2012","02","11","10:00","-16.2","","-18.7","","81","","","","27","","9","E","0.4","","99.86","","","","-22","E","Freezing Fog"
"-133.03","69.43","TUKTOYAKTUK A","2203912","2012-02-11 11:00","2012","02","11","11:00","-17.0","","-19.9","","78","","","","23","","9","E","0.2","","99.90","","","","-23","E","Freezing Fog"
"-133.03","69.43","TUKTOYAKTUK A","2203912","2012-02-11 12:00","2012","02","11","12:00","-17.1","","-19.9","","79","","","","23","","9","E","4.8","","99.88","","","","-23","E","Fog"
"-133.03","69.43","TUKTOYAKTUK A","2203912","2012-02-11 13:00","2012","02","11","13:00","-17.2","","-20.0","","79","","","","23","","9","E","4.8","","99.89","","","","-23","E","Fog"
"-133.03","69.43","TUKTOYAKTUK A","2203912","2012-02-11 14:00","2012","02","11","14:00","-17.3","","-19.9","","80","","","","23","","9","E","0.2","","99.90","","","","-24","E","Freezing Fog"
"-133.03","69.43","TUKTOYAKTUK A","2203912","2012-02-11 15:00","2012","02","11","15:00","-16.0","","-18.1","","84","","","","23","","9","E","2.4","","99.91","","","","-22","E","Fog"
"-133.03","69.43","TUKTOYAKTUK A","2203912","2012-02-11 16:00","2012","02","11","16:00","-14.1","","-15.9","","86","","","","23","","9","E","16.1","","99.92","","","","-20","E","Mostly Cloudy"
"-133.03","69.43","TUKTOYAKTUK A","2203912","2012-02-11 17:00","2012","02","11","17:00","-14.7","","-16.8","","84","","","","23","","9","E","16.1","","99.91","","","","-20","E","Mainly Clear"
"-133.03","69.43","TUKTOYAKTUK A","2203912","2012-02-11 18:00","2012","02","11","18:00","-14.1","","-15.9","","86","","","","27","","17","E","0.4","","99.93","","","","-22","E","Freezing Fog"
"-133.03","69.43","TUKTOYAKTUK A","2203912","2012-02-11 19:00","2012","02","11","19:00","-15.3","","-17.6","","83","","","","27","","9","E","1.6","","99.88","","","","-21","E","Fog"
"-133.03","69.43","TUKTOYAKTUK A","2203912","2012-02-11 20:00","2012","02","11","20:00","-17.2","","-20.1","","78","","","","23","","9","E","16.1","","99.88","","","","-23","E","Mainly Clear"
"-133.03","69.43","TUKTOYAKTUK A","2203912","2012-02-11 21:00","2012","02","11","21:00","-16.7","","-19.5","","79","","","","23","","9","E","11.3","","99.91","","","","-23","E","Mostly Cloudy"
"-133.03","69.43","TUKTOYAKTUK A","2203912","2012-02-11 22:00","2012","02","11","22:00","-15.5","","-17.7","","83","","","","23","","9","E","11.3","","99.91","","","","-21","E","Cloudy"
"-133.03","69.43","TUKTOYAKTUK A","2203912","2012-02-11 23:00","2012","02","11","23:00","-14.6","","-16.7","","84","","","","23","","9","E","12.9","","99.93","","","","-20","E","Snow Grains"
"-133.03","69.43","TUKTOYAKTUK A","2203912","2012-02-12 00:00","2012","02","12","00:00"
"-133.03","69.43","TUKTOYAKTUK A","2203912","2012-02-12 01:00","2012","02","12","01:00"
"-133.03","69.43","TUKTOYAKTUK A","2203912","2012-02-12 02:00","2012","02","12","02:00"
"-133.03","69.43","TUKTOYAKTUK A","2203912","2012-02-12 03:00","2012","02","12","03:00"
"-133.03","69.43","TUKTOYAKTUK A","2203912","2012-02-12 04:00","2012","02","12","04:00"
"-133.03","69.43","TUKTOYAKTUK A","2203912","2012-02-12 05:00","2012","02","12","05:00"
"-133.03","69.43","TUKTOYAKTUK A","2203912","2012-02-12 06:00","2012","02","12","06:00"
"-133.03","69.43","TUKTOYAKTUK A","2203912","2012-02-12 07:00","2012","02","12","07:00","-12.3","","-13.3","","92","","","","36","","9","E","9.7","","99.76","","","","-18","E","Snow Grains"
"-133.03","69.43","TUKTOYAKTUK A","2203912","2012-02-12 08:00","2012","02","12","08:00","-12.7","","-13.7","","92","","","","","","0","","9.7","","99.79","","","","","","Snow Grains"
"-133.03","69.43","TUKTOYAKTUK A","2203912","2012-02-12 09:00","2012","02","12","09:00","-12.5","","-13.5","","92","","","","","","0","","9.7","","99.77","","","","","","Snow Grains"
"-133.03","69.43","TUKTOYAKTUK A","2203912","2012-02-12 10:00","2012","02","12","10:00","-12.5","","-13.6","","91","","","","","","0","","4.8","","99.78","","","","","","Snow Grains,Fog"
"-133.03","69.43","TUKTOYAKTUK A","2203912","2012-02-12 11:00","2012","02","12","11:00","-12.5","","-13.6","","91","","","","","","0","","4.8","","99.80","","","","","","Snow Grains,Fog"
"-133.03","69.43","TUKTOYAKTUK A","2203912","2012-02-12 12:00","2012","02","12","12:00","-12.5","","-13.6","","91","","","","","","0","","4.8","","99.81","","","","","","Snow Grains,Fog"
"-133.03","69.43","TUKTOYAKTUK A","2203912","2012-02-12 13:00","2012","02","12","13:00","-12.5","","-13.6","","91","","","","","","0","","4.8","","99.79","","","","","","Snow Grains,Fog"
"-133.03","69.43","TUKTOYAKTUK A","2203912","2012-02-12 14:00","2012","02","12","14:00","-12.4","","-13.5","","91","","","","","","0","","4.8","","99.81","","","","","","Snow Grains,Fog"
"-133.03","69.43","TUKTOYAKTUK A","2203912","2012-02-12 15:00","2012","02","12","15:00","-12.4","","-13.5","","91","","","","","","0","","4.8","","99.84","","","","","","Snow Grains,Fog"
"-133.03","69.43","TUKTOYAKTUK A","2203912","2012-02-12 16:00","2012","02","12","16:00","-12.4","","-13.5","","91","","","","","","0","","4.8","","99.86","","","","","","Snow Grains,Fog"
"-133.03","69.43","TUKTOYAKTUK A","2203912","2012-02-12 17:00","2012","02","12","17:00","-12.6","","-13.6","","92","","","","","","0","","4.8","","99.89","","","","","","Snow Grains,Fog"
"-133.03","69.43","TUKTOYAKTUK A","2203912","2012-02-12 18:00","2012","02","12","18:00","-12.6","","-13.8","","91","","","","3","","7","","4.8","","99.89","","","","-17","","Snow Grains,Fog"
"-133.03","69.43","TUKTOYAKTUK A","2203912","2012-02-12 19:00","2012","02","12","19:00","-12.8","","-14.0","","91","","","","4","","4","","4.8","","99.92","","","","-15","","Snow,Fog"
"-133.03","69.43","TUKTOYAKTUK A","2203912","2012-02-12 20:00","2012","02","12","20:00","-12.8","","-14.0","","91","","","","1","","7","","4.8","","99.94","","","","-17","","Snow,Fog"
"-133.03","69.43","TUKTOYAKTUK A","2203912","2012-02-12 21:00","2012","02","12","21:00","-12.8","","-14.0","","91","","","","2","","11","","4.8","","100.00","","","","-19","","Snow,Fog"
"-133.03","69.43","TUKTOYAKTUK A","2203912","2012-02-12 22:00","2012","02","12","22:00","-13.0","","-14.1","","91","","","","2","","9","","4.8","","100.06","","","","-18","","Snow,Fog"
"-133.03","69.43","TUKTOYAKTUK A","2203912","2012-02-12 23:00","2012","02","12","23:00","-13.3","","-14.5","","91","","","","2","","11","","3.2","","100.09","","","","-20","","Snow"
"-133.03","69.43","TUKTOYAKTUK A","2203912","2012-02-13 00:00","2012","02","13","00:00"
"-133.03","69.43","TUKTOYAKTUK A","2203912","2012-02-13 01:00","2012","02","13","01:00"
"-133.03","69.43","TUKTOYAKTUK A","2203912","2012-02-13 02:00","2012","02","13","02:00"
"-133.03","69.43","TUKTOYAKTUK A","2203912","2012-02-13 03:00","2012","02","13","03:00"
"-133.03","69.43","TUKTOYAKTUK A","2203912","2012-02-13 04:00","2012","02","13","04:00"
"-133.03","69.43","TUKTOYAKTUK A","2203912","2012-02-13 05:00","2012","02","13","05:00"
"-133.03","69.43","TUKTOYAKTUK A","2203912","2012-02-13 06:00","2012","02","13","06:00"
"-133.03","69.43","TUKTOYAKTUK A","2203912","2012-02-13 07:00","2012","02","13","07:00","-16.2","","-17.4","","90","","","","4","","4","","16.1","","100.44","","","","-19","","Snow"
"-133.03","69.43","TUKTOYAKTUK A","2203912","2012-02-13 08:00","2012","02","13","08:00","-15.4","","-17.1","","87","","","","6","","7","","12.9","","100.47","","","","-20","","Snow"
"-133.03","69.43","TUKTOYAKTUK A","2203912","2012-02-13 09:00","2012","02","13","09:00","-15.5","","-17.2","","87","","","","8","","6","","12.9","","100.50","","","","-20","","Snow"
"-133.03","69.43","TUKTOYAKTUK A","2203912","2012-02-13 10:00","2012","02","13","10:00","-15.8","","-17.5","","87","","","","8","","6","","11.3","","100.55","","","","-20","","Snow"
"-133.03","69.43","TUKTOYAKTUK A","2203912","2012-02-13 11:00","2012","02","13","11:00","-16.0","","-17.8","","86","","","","8","","7","","11.3","","100.56","","","","-21","","Snow"
"-133.03","69.43","TUKTOYAKTUK A","2203912","2012-02-13 12:00","2012","02","13","12:00","-16.2","","-18.1","","85","","","","8","","7","","11.3","","100.56","","","","-21","","Snow"
"-133.03","69.43","TUKTOYAKTUK A","2203912","2012-02-13 13:00","2012","02","13","13:00","-15.9","","-17.6","","87","","","","9","","7","","11.3","","100.60","","","","-21","","Snow"
"-133.03","69.43","TUKTOYAKTUK A","2203912","2012-02-13 14:00","2012","02","13","14:00","-15.3","","-17.0","","87","","","","9","","9","","11.3","","100.62","","","","-21","","Snow"
"-133.03","69.43","TUKTOYAKTUK A","2203912","2012-02-13 15:00","2012","02","13","15:00","-15.2","","-16.9","","87","","","","8","","13","","11.3","","100.62","","","","-23","","Snow"
"-133.03","69.43","TUKTOYAKTUK A","2203912","2012-02-13 16:00","2012","02","13","16:00","-14.8","","-16.4","","88","","","","8","","13","","11.3","","100.64","","","","-22","","Snow"
"-133.03","69.43","TUKTOYAKTUK A","2203912","2012-02-13 17:00","2012","02","13","17:00","-14.9","","-16.4","","88","","","","8","","19","","6.4","","100.63","","","","-24","","Snow"
"-133.03","69.43","TUKTOYAKTUK A","2203912","2012-02-13 18:00","2012","02","13","18:00","-14.9","","-16.6","","87","","","","8","","17","","4.8","","100.62","","","","-23","","Snow"
"-133.03","69.43","TUKTOYAKTUK A","2203912","2012-02-13 19:00","2012","02","13","19:00","-14.9","","-16.6","","87","","","","9","","15","","2.4","","100.68","","","","-23","","Snow"
"-133.03","69.43","TUKTOYAKTUK A","2203912","2012-02-13 20:00","2012","02","13","20:00","-15.1","","-16.8","","87","","","","9","","19","","2.4","","100.67","","","","-24","","Snow"
"-133.03","69.43","TUKTOYAKTUK A","2203912","2012-02-13 21:00","2012","02","13","21:00","-15.1","","-16.9","","86","","","","9","","17","","4.8","","100.64","","","","-24","","Snow"
"-133.03","69.43","TUKTOYAKTUK A","2203912","2012-02-13 22:00","2012","02","13","22:00","-15.2","","-16.9","","87","","","","9","","17","","4.8","","100.62","","","","-24","","Snow"
"-133.03","69.43","TUKTOYAKTUK A","2203912","2012-02-13 23:00","2012","02","13","23:00","-15.2","","-16.9","","87","","","","9","","15","","6.4","","100.62","","","","-23","","Snow"
"-133.03","69.43","TUKTOYAKTUK A","2203912","2012-02-14 00:00","2012","02","14","00:00","-15.4","","-17.1","","87","","","","9","","15","","12.9","","100.64","","","","-23","","Snow"
"-133.03","69.43","TUKTOYAKTUK A","2203912","2012-02-14 01:00","2012","02","14","01:00","-15.1","","-16.8","","87","","","","8","","17","","12.9","","100.61","","","","-24","","Snow"
"-133.03","69.43","TUKTOYAKTUK A","2203912","2012-02-14 02:00","2012","02","14","02:00"
"-133.03","69.43","TUKTOYAKTUK A","2203912","2012-02-14 03:00","2012","02","14","03:00"
"-133.03","69.43","TUKTOYAKTUK A","2203912","2012-02-14 04:00","2012","02","14","04:00"
"-133.03","69.43","TUKTOYAKTUK A","2203912","2012-02-14 05:00","2012","02","14","05:00"
"-133.03","69.43","TUKTOYAKTUK A","2203912","2012-02-14 06:00","2012","02","14","06:00"
"-133.03","69.43","TUKTOYAKTUK A","2203912","2012-02-14 07:00","2012","02","14","07:00","-15.0","","-16.7","","87","","","","7","","15","","12.9","","100.58","","","","-23","","Cloudy"
"-133.03","69.43","TUKTOYAKTUK A","2203912","2012-02-14 08:00","2012","02","14","08:00","-15.0","","-16.8","","86","","","","6","","15","","12.9","","100.57","","","","-23","","Snow"
"-133.03","69.43","TUKTOYAKTUK A","2203912","2012-02-14 09:00","2012","02","14","09:00","-15.0","","-16.8","","86","","","","6","","11","","12.9","","100.56","","","","-22","","Snow"
"-133.03","69.43","TUKTOYAKTUK A","2203912","2012-02-14 10:00","2012","02","14","10:00","-15.2","","-17.0","","86","","","","5","","15","","9.7","","100.55","","","","-23","","Snow"
"-133.03","69.43","TUKTOYAKTUK A","2203912","2012-02-14 11:00","2012","02","14","11:00","-15.3","","-17.1","","86","","","","5","","15","","8.0","","100.54","","","","-23","","Snow"
"-133.03","69.43","TUKTOYAKTUK A","2203912","2012-02-14 12:00","2012","02","14","12:00","-15.4","","-17.1","","87","","","","4","","15","","3.2","","100.54","","","","-23","","Snow"
"-133.03","69.43","TUKTOYAKTUK A","2203912","2012-02-14 13:00","2012","02","14","13:00","-15.3","","-17.1","","86","","","","5","","11","","3.2","","100.55","","","","-22","","Snow"
"-133.03","69.43","TUKTOYAKTUK A","2203912","2012-02-14 14:00","2012","02","14","14:00","-14.8","","-16.5","","87","","","","4","","9","","3.2","","100.60","","","","-21","","Snow"
"-133.03","69.43","TUKTOYAKTUK A","2203912","2012-02-14 15:00","2012","02","14","15:00","-14.5","","-16.2","","87","","","","4","","17","","3.2","","100.59","","","","-23","","Snow"
"-133.03","69.43","TUKTOYAKTUK A","2203912","2012-02-14 16:00","2012","02","14","16:00","-14.5","","-16.1","","88","","","","5","","15","","4.8","","100.58","","","","-22","","Snow"
"-133.03","69.43","TUKTOYAKTUK A","2203912","2012-02-14 17:00","2012","02","14","17:00","-14.5","","-16.2","","87","","","","4","","9","","2.4","","100.65","","","","-20","","Snow"
"-133.03","69.43","TUKTOYAKTUK A","2203912","2012-02-14 18:00","2012","02","14","18:00","-14.8","","-16.4","","88","","","","4","","11","","1.6","","100.68","","","","-21","","Snow,Fog"
"-133.03","69.43","TUKTOYAKTUK A","2203912","2012-02-14 19:00","2012","02","14","19:00","-14.6","","-16.4","","86","","","","4","","9","","2.4","","100.70","","","","-20","","Snow,Fog"
"-133.03","69.43","TUKTOYAKTUK A","2203912","2012-02-14 20:00","2012","02","14","20:00","-14.6","","-16.3","","87","","","","4","","7","","2.4","","100.78","","","","-19","","Snow,Fog"
"-133.03","69.43","TUKTOYAKTUK A","2203912","2012-02-14 21:00","2012","02","14","21:00","-14.8","","-16.5","","87","","","","4","","9","","2.4","","100.78","","","","-21","","Snow,Fog"
"-133.03","69.43","TUKTOYAKTUK A","2203912","2012-02-14 22:00","2012","02","14","22:00","-14.7","","-16.0","","90","","","","3","","7","","2.4","","100.83","","","","-19","","Fog"
"-133.03","69.43","TUKTOYAKTUK A","2203912","2012-02-14 23:00","2012","02","14","23:00","-14.7","","-15.8","","91","","","","4","","6","","2.4","","100.88","","","","-19","","Snow,Fog"
"-133.03","69.43","TUKTOYAKTUK A","2203912","2012-02-15 00:00","2012","02","15","00:00"
"-133.03","69.43","TUKTOYAKTUK A","2203912","2012-02-15 01:00","2012","02","15","01:00"
"-133.03","69.43","TUKTOYAKTUK A","2203912","2012-02-15 02:00","2012","02","15","02:00"
"-133.03","69.43","TUKTOYAKTUK A","2203912","2012-02-15 03:00","2012","02","15","03:00"
"-133.03","69.43","TUKTOYAKTUK A","2203912","2012-02-15 04:00","2012","02","15","04:00"
"-133.03","69.43","TUKTOYAKTUK A","2203912","2012-02-15 05:00","2012","02","15","05:00"
"-133.03","69.43","TUKTOYAKTUK A","2203912","2012-02-15 06:00","2012","02","15","06:00"
"-133.03","69.43","TUKTOYAKTUK A","2203912","2012-02-15 07:00","2012","02","15","07:00","-15.1","","-16.8","","87","","","","4","","4","","16.1","","101.15","","","","-18","","Mostly Cloudy"
"-133.03","69.43","TUKTOYAKTUK A","2203912","2012-02-15 08:00","2012","02","15","08:00","-15.3","","-17.1","","86","","","","6","","4","","16.1","","101.14","","","","-18","","Cloudy"
"-133.03","69.43","TUKTOYAKTUK A","2203912","2012-02-15 09:00","2012","02","15","09:00","-15.8","","-17.6","","86","","","","8","","4","","16.1","","101.16","","","","-19","","Cloudy"
"-133.03","69.43","TUKTOYAKTUK A","2203912","2012-02-15 10:00","2012","02","15","10:00","-16.7","","-18.7","","84","","","","8","","6","","12.9","","101.17","","","","-21","","Cloudy"
"-133.03","69.43","TUKTOYAKTUK A","2203912","2012-02-15 11:00","2012","02","15","11:00","-16.6","","-18.6","","84","","","","","","0","","4.8","","101.14","","","","","","Fog"
"-133.03","69.43","TUKTOYAKTUK A","2203912","2012-02-15 12:00","2012","02","15","12:00","-16.7","","-18.8","","84","","","","9","","4","","11.3","","101.15","","","","-20","","Mostly Cloudy"
"-133.03","69.43","TUKTOYAKTUK A","2203912","2012-02-15 13:00","2012","02","15","13:00","-15.0","","-17.2","","83","","","","10","","4","","9.7","","101.14","","","","-18","","Snow"
"-133.03","69.43","TUKTOYAKTUK A","2203912","2012-02-15 14:00","2012","02","15","14:00","-14.8","","-16.8","","85","","","","10","","4","","12.9","","101.17","","","","-18","","Snow"
"-133.03","69.43","TUKTOYAKTUK A","2203912","2012-02-15 15:00","2012","02","15","15:00","-14.7","","-16.8","","84","","","","9","","6","","16.1","","101.11","","","","-19","","Snow"
"-133.03","69.43","TUKTOYAKTUK A","2203912","2012-02-15 16:00","2012","02","15","16:00","-16.2","","-18.5","","82","","","","9","","6","","16.1","","101.10","","","","-21","","Snow"
"-133.03","69.43","TUKTOYAKTUK A","2203912","2012-02-15 17:00","2012","02","15","17:00","-15.2","","-17.5","","83","","","","9","","7","","9.7","","101.08","","","","-20","","Snow"
"-133.03","69.43","TUKTOYAKTUK A","2203912","2012-02-15 18:00","2012","02","15","18:00","-14.6","","-16.9","","83","","","","10","","6","","9.7","","101.10","","","","-19","","Snow"
"-133.03","69.43","TUKTOYAKTUK A","2203912","2012-02-15 19:00","2012","02","15","19:00","-14.9","","-17.1","","83","","","","8","","13","","9.7","","101.01","","","","-22","","Snow"
"-133.03","69.43","TUKTOYAKTUK A","2203912","2012-02-15 20:00","2012","02","15","20:00","-15.0","","-17.1","","84","","","","8","","9","","16.1","","101.01","","","","-21","","Snow"
"-133.03","69.43","TUKTOYAKTUK A","2203912","2012-02-15 21:00","2012","02","15","21:00","-15.2","","-17.5","","83","","","","8","","9","","16.1","","100.98","","","","-21","","Snow"
"-133.03","69.43","TUKTOYAKTUK A","2203912","2012-02-15 22:00","2012","02","15","22:00","-16.3","","-18.8","","81","","","","7","","9","","16.1","","100.93","","","","-22","","Snow"
"-133.03","69.43","TUKTOYAKTUK A","2203912","2012-02-15 23:00","2012","02","15","23:00","-18.6","","-21.9","","75","","","","8","","9","","24.1","","100.90","","","","-25","","Mainly Clear"
"-133.03","69.43","TUKTOYAKTUK A","2203912","2012-02-16 00:00","2012","02","16","00:00"
"-133.03","69.43","TUKTOYAKTUK A","2203912","2012-02-16 01:00","2012","02","16","01:00"
"-133.03","69.43","TUKTOYAKTUK A","2203912","2012-02-16 02:00","2012","02","16","02:00"
"-133.03","69.43","TUKTOYAKTUK A","2203912","2012-02-16 03:00","2012","02","16","03:00"
"-133.03","69.43","TUKTOYAKTUK A","2203912","2012-02-16 04:00","2012","02","16","04:00"
"-133.03","69.43","TUKTOYAKTUK A","2203912","2012-02-16 05:00","2012","02","16","05:00"
"-133.03","69.43","TUKTOYAKTUK A","2203912","2012-02-16 06:00","2012","02","16","06:00"
"-133.03","69.43","TUKTOYAKTUK A","2203912","2012-02-16 07:00","2012","02","16","07:00","-15.6","","-18.1","","81","","","","8","","9","","16.1","","100.48","","","","-22","","Mainly Clear"
"-133.03","69.43","TUKTOYAKTUK A","2203912","2012-02-16 08:00","2012","02","16","08:00","-15.0","","-17.2","","83","","","","8","","13","","16.1","","100.42","","","","-22","","Mostly Cloudy"
"-133.03","69.43","TUKTOYAKTUK A","2203912","2012-02-16 09:00","2012","02","16","09:00","-14.8","","-17.1","","83","","","","9","","13","","16.1","","100.41","","","","-22","","Mostly Cloudy"
"-133.03","69.43","TUKTOYAKTUK A","2203912","2012-02-16 10:00","2012","02","16","10:00","-13.9","","-15.8","","86","","","","9","","11","","16.1","","100.39","","","","-20","","Cloudy"
"-133.03","69.43","TUKTOYAKTUK A","2203912","2012-02-16 11:00","2012","02","16","11:00","-13.4","","-15.2","","86","","","","9","","7","","12.9","","100.36","","","","-18","","Cloudy"
"-133.03","69.43","TUKTOYAKTUK A","2203912","2012-02-16 12:00","2012","02","16","12:00","-12.7","","-14.1","","89","","","","7","","11","","3.2","","100.34","","","","-19","","Snow"
"-133.03","69.43","TUKTOYAKTUK A","2203912","2012-02-16 13:00","2012","02","16","13:00","-12.9","","-14.4","","88","","","","7","","15","","3.2","","100.29","","","","-20","","Snow"
"-133.03","69.43","TUKTOYAKTUK A","2203912","2012-02-16 14:00","2012","02","16","14:00","-12.0","","-13.1","","91","","","","8","","9","","3.2","","100.32","","","","-17","","Snow"
"-133.03","69.43","TUKTOYAKTUK A","2203912","2012-02-16 15:00","2012","02","16","15:00","-11.6","","-12.7","","92","","","","8","","6","","1.6","","100.31","","","","-15","","Snow"
"-133.03","69.43","TUKTOYAKTUK A","2203912","2012-02-16 16:00","2012","02","16","16:00","-11.3","","-12.4","","92","","","","8","","7","","1.6","","100.28","","","","-16","","Snow"
"-133.03","69.43","TUKTOYAKTUK A","2203912","2012-02-16 17:00","2012","02","16","17:00","-11.1","","-12.1","","92","","","","7","","7","","3.2","","100.30","","","","-15","","Snow"
"-133.03","69.43","TUKTOYAKTUK A","2203912","2012-02-16 18:00","2012","02","16","18:00","-10.9","","-12.0","","92","","","","6","","6","","1.6","","100.28","","","","-15","","Snow"
"-133.03","69.43","TUKTOYAKTUK A","2203912","2012-02-16 19:00","2012","02","16","19:00","-11.0","","-12.1","","92","","","","3","","7","","3.2","","100.30","","","","-15","","Snow"
"-133.03","69.43","TUKTOYAKTUK A","2203912","2012-02-16 20:00","2012","02","16","20:00","-12.0","","-13.3","","90","","","","2","","6","","4.8","","100.32","","","","-16","","Snow"
"-133.03","69.43","TUKTOYAKTUK A","2203912","2012-02-16 21:00","2012","02","16","21:00","-12.8","","-14.0","","91","","","","2","","9","","6.4","","100.34","","","","-18","","Snow"
"-133.03","69.43","TUKTOYAKTUK A","2203912","2012-02-16 22:00","2012","02","16","22:00","-13.5","","-14.8","","90","","","","1","","13","","4.8","","100.38","","","","-20","","Snow"
"-133.03","69.43","TUKTOYAKTUK A","2203912","2012-02-16 23:00","2012","02","16","23:00","-14.2","","-15.4","","91","","","","1","","11","","4.8","","100.43","","","","-21","","Snow"
"-133.03","69.43","TUKTOYAKTUK A","2203912","2012-02-17 00:00","2012","02","17","00:00"
"-133.03","69.43","TUKTOYAKTUK A","2203912","2012-02-17 01:00","2012","02","17","01:00"
"-133.03","69.43","TUKTOYAKTUK A","2203912","2012-02-17 02:00","2012","02","17","02:00"
"-133.03","69.43","TUKTOYAKTUK A","2203912","2012-02-17 03:00","2012","02","17","03:00"
"-133.03","69.43","TUKTOYAKTUK A","2203912","2012-02-17 04:00","2012","02","17","04:00"
"-133.03","69.43","TUKTOYAKTUK A","2203912","2012-02-17 05:00","2012","02","17","05:00"
"-133.03","69.43","TUKTOYAKTUK A","2203912","2012-02-17 06:00","2012","02","17","06:00"
"-133.03","69.43","TUKTOYAKTUK A","2203912","2012-02-17 07:00","2012","02","17","07:00","-15.6","","-16.8","","90","","","","36","","6","","9.7","","100.83","","","","-20","","Snow"
"-133.03","69.43","TUKTOYAKTUK A","2203912","2012-02-17 08:00","2012","02","17","08:00","-16.5","","-18.8","","82","","","","2","","7","","9.7","","100.88","","","","-22","","Snow"
"-133.03","69.43","TUKTOYAKTUK A","2203912","2012-02-17 09:00","2012","02","17","09:00","-18.0","","-21.3","","75","","","","4","","7","","11.3","","100.91","","","","-23","","Snow"
"-133.03","69.43","TUKTOYAKTUK A","2203912","2012-02-17 10:00","2012","02","17","10:00","-17.9","","-21.0","","77","","","","2","","6","","11.3","","100.98","","","","-23","","Snow"
"-133.03","69.43","TUKTOYAKTUK A","2203912","2012-02-17 11:00","2012","02","17","11:00","-18.8","","-22.2","","74","","","","3","","9","","12.9","","101.02","","","","-25","","Snow"
"-133.03","69.43","TUKTOYAKTUK A","2203912","2012-02-17 12:00","2012","02","17","12:00","-19.4","","-22.7","","75","","","","2","","9","","16.1","","101.06","","","","-26","","Mostly Cloudy"
"-133.03","69.43","TUKTOYAKTUK A","2203912","2012-02-17 13:00","2012","02","17","13:00","-19.6","","-23.0","","74","","","","2","","6","","24.1","","101.11","","","","-25","","Mostly Cloudy"
"-133.03","69.43","TUKTOYAKTUK A","2203912","2012-02-17 14:00","2012","02","17","14:00","-19.9","","-23.3","","74","","","","2","","4","","24.1","","101.17","","","","-23","","Mostly Cloudy"
"-133.03","69.43","TUKTOYAKTUK A","2203912","2012-02-17 15:00","2012","02","17","15:00","-20.9","","-24.3","","74","","","","3","","6","","24.1","","101.21","","","","-26","","Mostly Cloudy"
"-133.03","69.43","TUKTOYAKTUK A","2203912","2012-02-17 16:00","2012","02","17","16:00","-20.8","","-25.0","","69","","","","4","","7","","24.1","","101.23","","","","-27","","Mostly Cloudy"
"-133.03","69.43","TUKTOYAKTUK A","2203912","2012-02-17 17:00","2012","02","17","17:00","-22.3","","-26.8","","67","","","","6","","6","","24.1","","101.24","","","","-28","","Mainly Clear"
"-133.03","69.43","TUKTOYAKTUK A","2203912","2012-02-17 18:00","2012","02","17","18:00","-24.7","","-29.0","","67","","","","","","0","","24.1","","101.27","","","","","","Clear"
"-133.03","69.43","TUKTOYAKTUK A","2203912","2012-02-17 19:00","2012","02","17","19:00","-25.4","","-29.5","","69","","","","6","","6","","24.1","","101.28","","","","-31","","Clear"
"-133.03","69.43","TUKTOYAKTUK A","2203912","2012-02-17 20:00","2012","02","17","20:00","-24.4","","-28.4","","69","","","","","","0","","24.1","","101.32","","","","","","Clear"
"-133.03","69.43","TUKTOYAKTUK A","2203912","2012-02-17 21:00","2012","02","17","21:00","-23.0","","-26.9","","70","","","","","","0","","24.1","","101.33","","","","","","Clear"
"-133.03","69.43","TUKTOYAKTUK A","2203912","2012-02-17 22:00","2012","02","17","22:00","-23.3","","-27.5","","68","","","","","","0","","24.1","","101.34","","","","","","Clear"
"-133.03","69.43","TUKTOYAKTUK A","2203912","2012-02-17 23:00","2012","02","17","23:00","-23.9","","-28.1","","68","","","","","","0","","16.1","","101.35","","","","","","Snow"
"-133.03","69.43","TUKTOYAKTUK A","2203912","2012-02-18 00:00","2012","02","18","00:00"
"-133.03","69.43","TUKTOYAKTUK A","2203912","2012-02-18 01:00","2012","02","18","01:00"
"-133.03","69.43","TUKTOYAKTUK A","2203912","2012-02-18 02:00","2012","02","18","02:00"
"-133.03","69.43","TUKTOYAKTUK A","2203912","2012-02-18 03:00","2012","02","18","03:00"
"-133.03","69.43","TUKTOYAKTUK A","2203912","2012-02-18 04:00","2012","02","18","04:00"
"-133.03","69.43","TUKTOYAKTUK A","2203912","2012-02-18 05:00","2012","02","18","05:00"
"-133.03","69.43","TUKTOYAKTUK A","2203912","2012-02-18 06:00","2012","02","18","06:00"
"-133.03","69.43","TUKTOYAKTUK A","2203912","2012-02-18 07:00","2012","02","18","07:00","-19.1","","-22.4","","75","","","","7","","9","","9.7","","101.36","","","","-26","","Snow"
"-133.03","69.43","TUKTOYAKTUK A","2203912","2012-02-18 08:00","2012","02","18","08:00","-19.2","","-22.5","","75","","","","8","","9","","6.4","","101.35","","","","-26","","Snow"
"-133.03","69.43","TUKTOYAKTUK A","2203912","2012-02-18 09:00","2012","02","18","09:00","-18.5","","-21.7","","76","","","","8","","9","","9.7","","101.35","","","","-25","","Snow"
"-133.03","69.43","TUKTOYAKTUK A","2203912","2012-02-18 10:00","2012","02","18","10:00","-17.9","","-21.0","","77","","","","8","","6","","9.7","","101.36","","","","-23","","Snow"
"-133.03","69.43","TUKTOYAKTUK A","2203912","2012-02-18 11:00","2012","02","18","11:00","-17.6","","-20.8","","76","","","","8","","7","","6.4","","101.35","","","","-23","","Snow"
"-133.03","69.43","TUKTOYAKTUK A","2203912","2012-02-18 12:00","2012","02","18","12:00","-17.3","","-20.2","","78","","","","8","","9","","9.7","","101.32","","","","-24","","Snow"
"-133.03","69.43","TUKTOYAKTUK A","2203912","2012-02-18 13:00","2012","02","18","13:00","-17.0","","-20.0","","77","","","","8","","7","","11.3","","101.31","","","","-22","","Snow"
"-133.03","69.43","TUKTOYAKTUK A","2203912","2012-02-18 14:00","2012","02","18","14:00","-16.7","","-20.0","","76","","","","9","","7","","16.1","","101.31","","","","-22","","Mostly Cloudy"
"-133.03","69.43","TUKTOYAKTUK A","2203912","2012-02-18 15:00","2012","02","18","15:00","-17.1","","-21.6","","68","","","","8","","6","","24.1","","101.29","","","","-22","","Mostly Cloudy"
"-133.03","69.43","TUKTOYAKTUK A","2203912","2012-02-18 16:00","2012","02","18","16:00","-20.1","","-23.9","","72","","","","6","","7","","24.1","","101.31","","","","-26","","Mostly Cloudy"
"-133.03","69.43","TUKTOYAKTUK A","2203912","2012-02-18 17:00","2012","02","18","17:00","-18.8","","-22.0","","76","","","","6","","6","","24.1","","101.28","","","","-24","","Mostly Cloudy"
"-133.03","69.43","TUKTOYAKTUK A","2203912","2012-02-18 18:00","2012","02","18","18:00","-21.5","","-25.1","","73","","","","8","","6","","24.1","","101.29","","","","-27","","Mainly Clear"
"-133.03","69.43","TUKTOYAKTUK A","2203912","2012-02-18 19:00","2012","02","18","19:00","-24.1","","-28.0","","70","","","","7","","7","","24.1","","101.28","","","","-30","","Mainly Clear"
"-133.03","69.43","TUKTOYAKTUK A","2203912","2012-02-18 20:00","2012","02","18","20:00","-25.4","","-29.5","","69","","","","8","","6","","24.1","","101.31","","","","-31","","Mainly Clear"
"-133.03","69.43","TUKTOYAKTUK A","2203912","2012-02-18 21:00","2012","02","18","21:00","-25.0","","-28.9","","70","","","","7","","7","","24.1","","101.27","","","","-31","","Mainly Clear"
"-133.03","69.43","TUKTOYAKTUK A","2203912","2012-02-18 22:00","2012","02","18","22:00","-24.5","","-28.2","","71","","","","8","","9","","24.1","","101.25","","","","-32","","Mainly Clear"
"-133.03","69.43","TUKTOYAKTUK A","2203912","2012-02-18 23:00","2012","02","18","23:00","-24.3","","-28.3","","69","","","","7","","6","","24.1","","101.24","","","","-30","","Mainly Clear"
"-133.03","69.43","TUKTOYAKTUK A","2203912","2012-02-19 00:00","2012","02","19","00:00"
"-133.03","69.43","TUKTOYAKTUK A","2203912","2012-02-19 01:00","2012","02","19","01:00"
"-133.03","69.43","TUKTOYAKTUK A","2203912","2012-02-19 02:00","2012","02","19","02:00"
"-133.03","69.43","TUKTOYAKTUK A","2203912","2012-02-19 03:00","2012","02","19","03:00"
"-133.03","69.43","TUKTOYAKTUK A","2203912","2012-02-19 04:00","2012","02","19","04:00"
"-133.03","69.43","TUKTOYAKTUK A","2203912","2012-02-19 05:00","2012","02","19","05:00"
"-133.03","69.43","TUKTOYAKTUK A","2203912","2012-02-19 06:00","2012","02","19","06:00"
"-133.03","69.43","TUKTOYAKTUK A","2203912","2012-02-19 07:00","2012","02","19","07:00","-23.5","","-27.5","","70","","","","10","","7","","24.1","","101.24","","","","-30","","Mainly Clear"
"-133.03","69.43","TUKTOYAKTUK A","2203912","2012-02-19 08:00","2012","02","19","08:00","-22.8","","-26.8","","70","","","","8","","9","","24.1","","101.24","","","","-30","","Mostly Cloudy"
"-133.03","69.43","TUKTOYAKTUK A","2203912","2012-02-19 09:00","2012","02","19","09:00","-22.1","","-25.9","","71","","","","10","","9","","24.1","","101.22","","","","-29","","Mostly Cloudy"
"-133.03","69.43","TUKTOYAKTUK A","2203912","2012-02-19 10:00","2012","02","19","10:00","-22.2","","-26.0","","71","","","","9","","6","","24.1","","101.23","","","","-28","","Mostly Cloudy"
"-133.03","69.43","TUKTOYAKTUK A","2203912","2012-02-19 11:00","2012","02","19","11:00","-22.8","","-26.6","","71","","","","9","","7","","24.1","","101.22","","","","-29","","Mostly Cloudy"
"-133.03","69.43","TUKTOYAKTUK A","2203912","2012-02-19 12:00","2012","02","19","12:00","-21.8","","-25.6","","71","","","","10","","7","","16.1","","101.25","","","","-28","","Mostly Cloudy"
"-133.03","69.43","TUKTOYAKTUK A","2203912","2012-02-19 13:00","2012","02","19","13:00","-21.9","","-25.8","","71","","","","9","","6","","16.1","","101.24","","","","-27","","Mostly Cloudy"
"-133.03","69.43","TUKTOYAKTUK A","2203912","2012-02-19 14:00","2012","02","19","14:00","-21.8","","-25.6","","71","","","","10","","11","","16.1","","101.25","","","","-30","","Mostly Cloudy"
"-133.03","69.43","TUKTOYAKTUK A","2203912","2012-02-19 15:00","2012","02","19","15:00","-21.2","","-25.0","","71","","","","10","","9","","16.1","","101.24","","","","-28","","Mostly Cloudy"
"-133.03","69.43","TUKTOYAKTUK A","2203912","2012-02-19 16:00","2012","02","19","16:00","-21.6","","-25.5","","71","","","","8","","9","","16.1","","101.23","","","","-29","","Mostly Cloudy"
"-133.03","69.43","TUKTOYAKTUK A","2203912","2012-02-19 17:00","2012","02","19","17:00","-21.4","","-25.3","","71","","","","8","","6","","16.1","","101.22","","","","-27","","Mostly Cloudy"
"-133.03","69.43","TUKTOYAKTUK A","2203912","2012-02-19 18:00","2012","02","19","18:00","-21.3","","-25.1","","71","","","","9","","9","","16.1","","101.18","","","","-28","","Mostly Cloudy"
"-133.03","69.43","TUKTOYAKTUK A","2203912","2012-02-19 19:00","2012","02","19","19:00","-21.0","","-24.6","","73","","","","9","","9","","16.1","","101.17","","","","-28","","Cloudy"
"-133.03","69.43","TUKTOYAKTUK A","2203912","2012-02-19 20:00","2012","02","19","20:00","-20.5","","-24.1","","73","","","","12","","6","","4.8","","101.18","","","","-26","","Fog"
"-133.03","69.43","TUKTOYAKTUK A","2203912","2012-02-19 21:00","2012","02","19","21:00","-19.8","","-23.2","","74","","","","","","0","","0.4","","101.16","","","","","","Freezing Fog"
"-133.03","69.43","TUKTOYAKTUK A","2203912","2012-02-19 22:00","2012","02","19","22:00","-19.4","","-22.7","","75","","","","10","","6","","1.6","","101.13","","","","-24","","Fog"
"-133.03","69.43","TUKTOYAKTUK A","2203912","2012-02-19 23:00","2012","02","19","23:00","-19.3","","-22.7","","74","","","","9","","9","","9.7","","101.10","","","","-26","","Fog"
"-133.03","69.43","TUKTOYAKTUK A","2203912","2012-02-20 00:00","2012","02","20","00:00"
"-133.03","69.43","TUKTOYAKTUK A","2203912","2012-02-20 01:00","2012","02","20","01:00"
"-133.03","69.43","TUKTOYAKTUK A","2203912","2012-02-20 02:00","2012","02","20","02:00"
"-133.03","69.43","TUKTOYAKTUK A","2203912","2012-02-20 03:00","2012","02","20","03:00"
"-133.03","69.43","TUKTOYAKTUK A","2203912","2012-02-20 04:00","2012","02","20","04:00"
"-133.03","69.43","TUKTOYAKTUK A","2203912","2012-02-20 05:00","2012","02","20","05:00"
"-133.03","69.43","TUKTOYAKTUK A","2203912","2012-02-20 06:00","2012","02","20","06:00"
"-133.03","69.43","TUKTOYAKTUK A","2203912","2012-02-20 07:00","2012","02","20","07:00","-18.8","","-22.1","","75","","","","10","","7","","9.7","","100.82","","","","-24","","Snow"
"-133.03","69.43","TUKTOYAKTUK A","2203912","2012-02-20 08:00","2012","02","20","08:00","-18.4","","-21.7","","75","","","","10","","9","","9.7","","100.74","","","","-25","","Snow"
"-133.03","69.43","TUKTOYAKTUK A","2203912","2012-02-20 09:00","2012","02","20","09:00","-19.1","","-22.6","","74","","","","9","","9","","9.7","","100.71","","","","-26","","Snow"
"-133.03","69.43","TUKTOYAKTUK A","2203912","2012-02-20 10:00","2012","02","20","10:00","-21.1","","-24.7","","73","","","","7","","7","","9.7","","100.66","","","","-27","","Snow"
"-133.03","69.43","TUKTOYAKTUK A","2203912","2012-02-20 11:00","2012","02","20","11:00","-19.9","","-23.4","","74","","","","8","","6","","9.7","","100.59","","","","-25","","Snow"
"-133.03","69.43","TUKTOYAKTUK A","2203912","2012-02-20 12:00","2012","02","20","12:00","-19.9","","-23.5","","73","","","","9","","6","","16.1","","100.54","","","","-25","","Snow"
"-133.03","69.43","TUKTOYAKTUK A","2203912","2012-02-20 13:00","2012","02","20","13:00","-18.3","","-21.5","","76","","","","11","","13","","16.1","","100.50","","","","-26","","Snow"
"-133.03","69.43","TUKTOYAKTUK A","2203912","2012-02-20 14:00","2012","02","20","14:00","-18.1","","-21.3","","76","","","","11","","11","","16.1","","100.45","","","","-25","","Snow"
"-133.03","69.43","TUKTOYAKTUK A","2203912","2012-02-20 15:00","2012","02","20","15:00","-18.3","","-21.6","","75","","","","10","","9","","16.1","","100.40","","","","-25","","Snow"
"-133.03","69.43","TUKTOYAKTUK A","2203912","2012-02-20 16:00","2012","02","20","16:00","-18.1","","-21.4","","75","","","","10","","11","","16.1","","100.30","","","","-25","","Snow"
"-133.03","69.43","TUKTOYAKTUK A","2203912","2012-02-20 17:00","2012","02","20","17:00","-17.9","","-21.1","","76","","","","10","","7","","16.1","","100.25","","","","-23","","Snow"
"-133.03","69.43","TUKTOYAKTUK A","2203912","2012-02-20 18:00","2012","02","20","18:00","-19.1","","-22.6","","74","","","","8","","7","","16.1","","100.21","","","","-25","","Snow"
"-133.03","69.43","TUKTOYAKTUK A","2203912","2012-02-20 19:00","2012","02","20","19:00","-20.9","","-24.6","","72","","","","7","","9","","16.1","","100.15","","","","-28","","Snow"
"-133.03","69.43","TUKTOYAKTUK A","2203912","2012-02-20 20:00","2012","02","20","20:00","-19.8","","-23.4","","73","","","","7","","7","","12.9","","100.08","","","","-25","","Snow"
"-133.03","69.43","TUKTOYAKTUK A","2203912","2012-02-20 21:00","2012","02","20","21:00","-19.7","","-23.1","","74","","","","7","","9","","12.9","","100.04","","","","-26","","Snow"
"-133.03","69.43","TUKTOYAKTUK A","2203912","2012-02-20 22:00","2012","02","20","22:00","-20.7","","-24.3","","73","","","","7","","7","","12.9","","99.98","","","","-26","","Snow"
"-133.03","69.43","TUKTOYAKTUK A","2203912","2012-02-20 23:00","2012","02","20","23:00","-21.5","","-25.3","","71","","","","5","","6","","12.9","","99.97","","","","-27","","Snow"
"-133.03","69.43","TUKTOYAKTUK A","2203912","2012-02-21 00:00","2012","02","21","00:00"
"-133.03","69.43","TUKTOYAKTUK A","2203912","2012-02-21 01:00","2012","02","21","01:00"
"-133.03","69.43","TUKTOYAKTUK A","2203912","2012-02-21 02:00","2012","02","21","02:00"
"-133.03","69.43","TUKTOYAKTUK A","2203912","2012-02-21 03:00","2012","02","21","03:00"
"-133.03","69.43","TUKTOYAKTUK A","2203912","2012-02-21 04:00","2012","02","21","04:00"
"-133.03","69.43","TUKTOYAKTUK A","2203912","2012-02-21 05:00","2012","02","21","05:00"
"-133.03","69.43","TUKTOYAKTUK A","2203912","2012-02-21 06:00","2012","02","21","06:00"
"-133.03","69.43","TUKTOYAKTUK A","2203912","2012-02-21 07:00","2012","02","21","07:00","-26.7","","-31.3","","65","","","","5","","7","","24.1","","99.94","","","","-33","","Clear"
"-133.03","69.43","TUKTOYAKTUK A","2203912","2012-02-21 08:00","2012","02","21","08:00","-26.7","","-31.1","","66","","","","6","","6","","24.1","","99.98","","","","-33","","Mainly Clear"
"-133.03","69.43","TUKTOYAKTUK A","2203912","2012-02-21 09:00","2012","02","21","09:00","-26.5","","-30.8","","67","","","","5","","7","","24.1","","100.00","","","","-33","","Mainly Clear"
"-133.03","69.43","TUKTOYAKTUK A","2203912","2012-02-21 10:00","2012","02","21","10:00","-26.5","","-30.9","","66","","","","5","","6","","24.1","","100.01","","","","-32","","Mainly Clear"
"-133.03","69.43","TUKTOYAKTUK A","2203912","2012-02-21 11:00","2012","02","21","11:00","-27.3","","-31.7","","66","","","","5","","7","","24.1","","100.02","","","","-34","","Mainly Clear"
"-133.03","69.43","TUKTOYAKTUK A","2203912","2012-02-21 12:00","2012","02","21","12:00","-26.6","","-31.0","","66","","","","7","","9","","24.1","","100.07","","","","-35","","Mainly Clear"
"-133.03","69.43","TUKTOYAKTUK A","2203912","2012-02-21 13:00","2012","02","21","13:00","-25.5","","-29.8","","67","","","","4","","6","","24.1","","100.13","","","","-31","","Mostly Cloudy"
"-133.03","69.43","TUKTOYAKTUK A","2203912","2012-02-21 14:00","2012","02","21","14:00","-22.6","","-26.5","","70","","","","8","","6","","24.1","","100.17","","","","-28","","Mostly Cloudy"
"-133.03","69.43","TUKTOYAKTUK A","2203912","2012-02-21 15:00","2012","02","21","15:00","-18.8","","-22.0","","76","","","","7","","11","","24.1","","100.20","","","","-26","","Mostly Cloudy"
"-133.03","69.43","TUKTOYAKTUK A","2203912","2012-02-21 16:00","2012","02","21","16:00","-18.4","","-21.8","","75","","","","6","","7","","24.1","","100.25","","","","-24","","Mostly Cloudy"
"-133.03","69.43","TUKTOYAKTUK A","2203912","2012-02-21 17:00","2012","02","21","17:00","-18.7","","-22.0","","75","","","","6","","15","","24.1","","100.29","","","","-27","","Mostly Cloudy"
"-133.03","69.43","TUKTOYAKTUK A","2203912","2012-02-21 18:00","2012","02","21","18:00","-20.6","","-24.3","","72","","","","6","","15","","24.1","","100.34","","","","-30","","Mostly Cloudy"
"-133.03","69.43","TUKTOYAKTUK A","2203912","2012-02-21 19:00","2012","02","21","19:00","-21.9","","-25.8","","71","","","","5","","13","","24.1","","100.40","","","","-31","","Mostly Cloudy"
"-133.03","69.43","TUKTOYAKTUK A","2203912","2012-02-21 20:00","2012","02","21","20:00","-23.5","","-27.5","","70","","","","4","","11","","16.1","","100.45","","","","-32","","Snow"
"-133.03","69.43","TUKTOYAKTUK A","2203912","2012-02-21 21:00","2012","02","21","21:00","-25.9","","-30.2","","67","","","","5","","13","","24.1","","100.47","","","","-36","","Mainly Clear"
"-133.03","69.43","TUKTOYAKTUK A","2203912","2012-02-21 22:00","2012","02","21","22:00","-27.3","","-31.6","","67","","","","4","","11","","24.1","","100.50","","","","-36","","Mainly Clear"
"-133.03","69.43","TUKTOYAKTUK A","2203912","2012-02-21 23:00","2012","02","21","23:00","-28.8","","-33.5","","64","","","","4","","11","","24.1","","100.55","","","","-38","","Clear"
"-133.03","69.43","TUKTOYAKTUK A","2203912","2012-02-22 00:00","2012","02","22","00:00"
"-133.03","69.43","TUKTOYAKTUK A","2203912","2012-02-22 01:00","2012","02","22","01:00"
"-133.03","69.43","TUKTOYAKTUK A","2203912","2012-02-22 02:00","2012","02","22","02:00"
"-133.03","69.43","TUKTOYAKTUK A","2203912","2012-02-22 03:00","2012","02","22","03:00"
"-133.03","69.43","TUKTOYAKTUK A","2203912","2012-02-22 04:00","2012","02","22","04:00"
"-133.03","69.43","TUKTOYAKTUK A","2203912","2012-02-22 05:00","2012","02","22","05:00"
"-133.03","69.43","TUKTOYAKTUK A","2203912","2012-02-22 06:00","2012","02","22","06:00"
"-133.03","69.43","TUKTOYAKTUK A","2203912","2012-02-22 07:00","2012","02","22","07:00","-32.3","","-37.0","","63","","","","","","0","","24.1","","101.02","","","","","","Clear"
"-133.03","69.43","TUKTOYAKTUK A","2203912","2012-02-22 08:00","2012","02","22","08:00","-33.6","","-39.2","","57","","","","","","0","","24.1","","101.08","","","","","","Clear"
"-133.03","69.43","TUKTOYAKTUK A","2203912","2012-02-22 09:00","2012","02","22","09:00","-33.3","","-37.8","","64","","","","30","","4","","24.1","","101.15","","","","-38","","Clear"
"-133.03","69.43","TUKTOYAKTUK A","2203912","2012-02-22 10:00","2012","02","22","10:00","-33.2","","-38.0","","62","","","","","","0","","24.1","","101.21","","","","","","Mainly Clear"
"-133.03","69.43","TUKTOYAKTUK A","2203912","2012-02-22 11:00","2012","02","22","11:00","-32.7","","-38.0","","59","","","","","","0","","24.1","","101.25","","","","","","Clear"
"-133.03","69.43","TUKTOYAKTUK A","2203912","2012-02-22 12:00","2012","02","22","12:00","-30.8","","-36.0","","60","","","","","","0","","24.1","","101.30","","","","","","Clear"
"-133.03","69.43","TUKTOYAKTUK A","2203912","2012-02-22 13:00","2012","02","22","13:00","-32.2","","-37.2","","61","","","","","","0","","24.1","","101.37","","","","","","Clear"
"-133.03","69.43","TUKTOYAKTUK A","2203912","2012-02-22 14:00","2012","02","22","14:00","-32.3","","-37.0","","63","","","","25","","6","","24.1","","101.48","","","","-39","","Clear"
"-133.03","69.43","TUKTOYAKTUK A","2203912","2012-02-22 15:00","2012","02","22","15:00","-31.8","","-36.8","","61","","","","28","","4","","24.1","","101.54","","","","-36","","Clear"
"-133.03","69.43","TUKTOYAKTUK A","2203912","2012-02-22 16:00","2012","02","22","16:00","-29.3","","-33.9","","64","","","","","","0","","24.1","","101.59","","","","","","Clear"
"-133.03","69.43","TUKTOYAKTUK A","2203912","2012-02-22 17:00","2012","02","22","17:00","-31.3","","-36.1","","63","","","","","","0","","24.1","","101.64","","","","","","Clear"
"-133.03","69.43","TUKTOYAKTUK A","2203912","2012-02-22 18:00","2012","02","22","18:00","-32.4","","-37.1","","63","","","","","","0","","24.1","","101.69","","","","","","Clear"
"-133.03","69.43","TUKTOYAKTUK A","2203912","2012-02-22 19:00","2012","02","22","19:00","-33.9","","-38.7","","62","","","","","","0","","24.1","","101.75","","","","","","Mainly Clear"
"-133.03","69.43","TUKTOYAKTUK A","2203912","2012-02-22 20:00","2012","02","22","20:00","-34.7","","-39.7","","60","","","","","","0","","24.1","","101.79","","","","","","Mainly Clear"
"-133.03","69.43","TUKTOYAKTUK A","2203912","2012-02-22 21:00","2012","02","22","21:00","-34.6","","-39.4","","62","","","","","","0","","24.1","","101.83","","","","","","Clear"
"-133.03","69.43","TUKTOYAKTUK A","2203912","2012-02-22 22:00","2012","02","22","22:00","-35.0","","-39.9","","61","","","","","","0","","24.1","","101.86","","","","","","Clear"
"-133.03","69.43","TUKTOYAKTUK A","2203912","2012-02-22 23:00","2012","02","22","23:00","-36.4","","-41.2","","61","","","","","","0","","24.1","","101.89","","","","","","Clear"
"-133.03","69.43","TUKTOYAKTUK A","2203912","2012-02-23 00:00","2012","02","23","00:00"
"-133.03","69.43","TUKTOYAKTUK A","2203912","2012-02-23 01:00","2012","02","23","01:00"
"-133.03","69.43","TUKTOYAKTUK A","2203912","2012-02-23 02:00","2012","02","23","02:00"
"-133.03","69.43","TUKTOYAKTUK A","2203912","2012-02-23 03:00","2012","02","23","03:00"
"-133.03","69.43","TUKTOYAKTUK A","2203912","2012-02-23 04:00","2012","02","23","04:00"
"-133.03","69.43","TUKTOYAKTUK A","2203912","2012-02-23 05:00","2012","02","23","05:00"
"-133.03","69.43","TUKTOYAKTUK A","2203912","2012-02-23 06:00","2012","02","23","06:00"
"-133.03","69.43","TUKTOYAKTUK A","2203912","2012-02-23 07:00","2012","02","23","07:00","-33.6","","-38.5","","61","","","","","","0","","24.1","","102.23","","","","","","Clear"
"-133.03","69.43","TUKTOYAKTUK A","2203912","2012-02-23 08:00","2012","02","23","08:00","-32.9","","-37.7","","62","","","","","","0","","24.1","","102.26","","","","","","Clear"
"-133.03","69.43","TUKTOYAKTUK A","2203912","2012-02-23 09:00","2012","02","23","09:00","-33.0","","-37.9","","61","","","","","","0","","24.1","","102.29","","","","","","Mostly Cloudy"
"-133.03","69.43","TUKTOYAKTUK A","2203912","2012-02-23 10:00","2012","02","23","10:00","-32.5","","-37.1","","64","","","","","","0","","24.1","","102.30","","","","","","Mostly Cloudy"
"-133.03","69.43","TUKTOYAKTUK A","2203912","2012-02-23 11:00","2012","02","23","11:00","-32.0","","-36.6","","64","","","","","","0","","24.1","","102.36","","","","","","Mostly Cloudy"
"-133.03","69.43","TUKTOYAKTUK A","2203912","2012-02-23 12:00","2012","02","23","12:00","-31.9","","-37.1","","60","","","","","","0","","24.1","","102.41","","","","","","Mostly Cloudy"
"-133.03","69.43","TUKTOYAKTUK A","2203912","2012-02-23 13:00","2012","02","23","13:00","-31.7","","-36.4","","63","","","","","","0","","24.1","","102.46","","","","","","Mostly Cloudy"
"-133.03","69.43","TUKTOYAKTUK A","2203912","2012-02-23 14:00","2012","02","23","14:00","-31.6","","-36.5","","62","","","","","","0","","24.1","","102.51","","","","","","Mostly Cloudy"
"-133.03","69.43","TUKTOYAKTUK A","2203912","2012-02-23 15:00","2012","02","23","15:00","-32.4","","-37.3","","62","","","","","","0","","24.1","","102.56","","","","","","Mainly Clear"
"-133.03","69.43","TUKTOYAKTUK A","2203912","2012-02-23 16:00","2012","02","23","16:00","-32.1","","-37.1","","61","","","","","","0","","24.1","","102.60","","","","","","Mostly Cloudy"
"-133.03","69.43","TUKTOYAKTUK A","2203912","2012-02-23 17:00","2012","02","23","17:00","-32.8","","-37.9","","60","","","","","","0","","24.1","","102.63","","","","","","Mostly Cloudy"
"-133.03","69.43","TUKTOYAKTUK A","2203912","2012-02-23 18:00","2012","02","23","18:00","-34.4","","-39.1","","62","","","","","","0","","24.1","","102.65","","","","","","Mainly Clear"
"-133.03","69.43","TUKTOYAKTUK A","2203912","2012-02-23 19:00","2012","02","23","19:00","-35.4","","-40.1","","62","","","","","","0","","24.1","","102.69","","","","","","Mainly Clear"
"-133.03","69.43","TUKTOYAKTUK A","2203912","2012-02-23 20:00","2012","02","23","20:00","-36.1","","-41.0","","61","","","","","","0","","24.1","","102.72","","","","","","Clear"
"-133.03","69.43","TUKTOYAKTUK A","2203912","2012-02-23 21:00","2012","02","23","21:00","-36.4","","-41.0","","62","","","","","","0","","24.1","","102.76","","","","","","Clear"
"-133.03","69.43","TUKTOYAKTUK A","2203912","2012-02-23 22:00","2012","02","23","22:00","-35.8","","-40.4","","63","","","","","","0","","24.1","","102.80","","","","","","Clear"
"-133.03","69.43","TUKTOYAKTUK A","2203912","2012-02-23 23:00","2012","02","23","23:00","-36.2","","-40.6","","64","","","","","","0","","24.1","","102.83","","","","","","Clear"
"-133.03","69.43","TUKTOYAKTUK A","2203912","2012-02-24 00:00","2012","02","24","00:00"
"-133.03","69.43","TUKTOYAKTUK A","2203912","2012-02-24 01:00","2012","02","24","01:00"
"-133.03","69.43","TUKTOYAKTUK A","2203912","2012-02-24 02:00","2012","02","24","02:00"
"-133.03","69.43","TUKTOYAKTUK A","2203912","2012-02-24 03:00","2012","02","24","03:00"
"-133.03","69.43","TUKTOYAKTUK A","2203912","2012-02-24 04:00","2012","02","24","04:00"
"-133.03","69.43","TUKTOYAKTUK A","2203912","2012-02-24 05:00","2012","02","24","05:00"
"-133.03","69.43","TUKTOYAKTUK A","2203912","2012-02-24 06:00","2012","02","24","06:00"
"-133.03","69.43","TUKTOYAKTUK A","2203912","2012-02-24 07:00","2012","02","24","07:00","-33.9","","-38.6","","62","","","","25","","6","","24.1","","103.08","","","","-41","","Clear"
"-133.03","69.43","TUKTOYAKTUK A","2203912","2012-02-24 08:00","2012","02","24","08:00","-32.6","","-37.2","","63","","","","26","","6","","24.1","","103.10","","","","-40","","Mainly Clear"
"-133.03","69.43","TUKTOYAKTUK A","2203912","2012-02-24 09:00","2012","02","24","09:00","-32.4","","-36.9","","64","","","","26","","4","","16.1","","103.11","","","","-37","","Snow"
"-133.03","69.43","TUKTOYAKTUK A","2203912","2012-02-24 10:00","2012","02","24","10:00","-33.1","","-37.7","","63","","","","25","","6","","16.1","","103.13","","","","-40","","Snow"
"-133.03","69.43","TUKTOYAKTUK A","2203912","2012-02-24 11:00","2012","02","24","11:00","-33.9","","-38.6","","62","","","","25","","7","","16.1","","103.16","","","","-42","","Snow"
"-133.03","69.43","TUKTOYAKTUK A","2203912","2012-02-24 12:00","2012","02","24","12:00","-32.7","","-37.2","","64","","","","23","","6","","16.1","","103.19","","","","-40","","Snow"
"-133.03","69.43","TUKTOYAKTUK A","2203912","2012-02-24 13:00","2012","02","24","13:00","-32.4","","-37.0","","64","","","","24","","6","","16.1","","103.19","","","","-39","","Snow"
"-133.03","69.43","TUKTOYAKTUK A","2203912","2012-02-24 14:00","2012","02","24","14:00","-31.9","","-36.5","","64","","","","24","","6","","24.1","","103.23","","","","-39","","Mostly Cloudy"
"-133.03","69.43","TUKTOYAKTUK A","2203912","2012-02-24 15:00","2012","02","24","15:00","-31.4","","-36.0","","64","","","","23","","6","","24.1","","103.23","","","","-38","","Mainly Clear"
"-133.03","69.43","TUKTOYAKTUK A","2203912","2012-02-24 16:00","2012","02","24","16:00","-31.7","","-36.3","","64","","","","22","","7","","24.1","","103.25","","","","-39","","Mainly Clear"
"-133.03","69.43","TUKTOYAKTUK A","2203912","2012-02-24 17:00","2012","02","24","17:00","-32.1","","-37.0","","62","","","","23","","7","","24.1","","103.24","","","","-40","","Mainly Clear"
"-133.03","69.43","TUKTOYAKTUK A","2203912","2012-02-24 18:00","2012","02","24","18:00","-33.1","","-38.0","","61","","","","22","","9","","24.1","","103.25","","","","-42","","Mainly Clear"
"-133.03","69.43","TUKTOYAKTUK A","2203912","2012-02-24 19:00","2012","02","24","19:00","-33.5","","-38.2","","63","","","","22","","9","","24.1","","103.23","","","","-43","","Mainly Clear"
"-133.03","69.43","TUKTOYAKTUK A","2203912","2012-02-24 20:00","2012","02","24","20:00","-34.7","","-39.2","","64","","","","19","","6","","24.1","","103.24","","","","-42","","Mainly Clear"
"-133.03","69.43","TUKTOYAKTUK A","2203912","2012-02-24 21:00","2012","02","24","21:00","-34.4","","-39.1","","62","","","","19","","7","","24.1","","103.25","","","","-42","","Mainly Clear"
"-133.03","69.43","TUKTOYAKTUK A","2203912","2012-02-24 22:00","2012","02","24","22:00","-33.2","","-37.5","","65","","","","19","","7","","24.1","","103.23","","","","-41","","Mainly Clear"
"-133.03","69.43","TUKTOYAKTUK A","2203912","2012-02-24 23:00","2012","02","24","23:00","-31.0","","-35.7","","63","","","","20","","7","","16.1","","103.21","","","","-38","","Snow"
"-133.03","69.43","TUKTOYAKTUK A","2203912","2012-02-25 00:00","2012","02","25","00:00"
"-133.03","69.43","TUKTOYAKTUK A","2203912","2012-02-25 01:00","2012","02","25","01:00"
"-133.03","69.43","TUKTOYAKTUK A","2203912","2012-02-25 02:00","2012","02","25","02:00"
"-133.03","69.43","TUKTOYAKTUK A","2203912","2012-02-25 03:00","2012","02","25","03:00"
"-133.03","69.43","TUKTOYAKTUK A","2203912","2012-02-25 04:00","2012","02","25","04:00"
"-133.03","69.43","TUKTOYAKTUK A","2203912","2012-02-25 05:00","2012","02","25","05:00"
"-133.03","69.43","TUKTOYAKTUK A","2203912","2012-02-25 06:00","2012","02","25","06:00"
"-133.03","69.43","TUKTOYAKTUK A","2203912","2012-02-25 07:00","2012","02","25","07:00","-29.9","","-34.7","","63","","","","22","","6","","16.1","","103.23","","","","-36","","Snow"
"-133.03","69.43","TUKTOYAKTUK A","2203912","2012-02-25 08:00","2012","02","25","08:00","-29.8","","-34.5","","64","","","","23","","6","","16.1","","103.21","","","","-36","","Snow"
"-133.03","69.43","TUKTOYAKTUK A","2203912","2012-02-25 09:00","2012","02","25","09:00","-30.2","","-34.9","","63","","","","23","","7","","16.1","","103.21","","","","-38","","Snow"
"-133.03","69.43","TUKTOYAKTUK A","2203912","2012-02-25 10:00","2012","02","25","10:00","-30.9","","-35.7","","63","","","","20","","6","","16.1","","103.20","","","","-38","","Snow"
"-133.03","69.43","TUKTOYAKTUK A","2203912","2012-02-25 11:00","2012","02","25","11:00","-30.9","","-35.4","","65","","","","19","","4","","16.1","","103.21","","","","-35","","Snow"
"-133.03","69.43","TUKTOYAKTUK A","2203912","2012-02-25 12:00","2012","02","25","12:00","-30.0","","-35.8","","57","","","","","","0","","16.1","","103.19","","","","","","Snow"
"-133.03","69.43","TUKTOYAKTUK A","2203912","2012-02-25 13:00","2012","02","25","13:00","-30.6","","-35.8","","60","","","","","","0","","24.1","","103.17","","","","","","Mostly Cloudy"
"-133.03","69.43","TUKTOYAKTUK A","2203912","2012-02-25 14:00","2012","02","25","14:00","-29.7","","-35.1","","59","","","","","","0","","24.1","","103.15","","","","","","Mostly Cloudy"
"-133.03","69.43","TUKTOYAKTUK A","2203912","2012-02-25 15:00","2012","02","25","15:00","-30.3","","-35.3","","62","","","","","","0","","24.1","","103.15","","","","","","Snow"
"-133.03","69.43","TUKTOYAKTUK A","2203912","2012-02-25 16:00","2012","02","25","16:00","-30.3","","-35.7","","59","","","","","","0","","11.3","","103.10","","","","","","Snow"
"-133.03","69.43","TUKTOYAKTUK A","2203912","2012-02-25 17:00","2012","02","25","17:00","-29.2","","-34.0","","63","","","","","","0","","8.0","","103.06","","","","","","Snow"
"-133.03","69.43","TUKTOYAKTUK A","2203912","2012-02-25 18:00","2012","02","25","18:00","-29.2","","-33.9","","64","","","","","","0","","8.0","","103.04","","","","","","Snow"
"-133.03","69.43","TUKTOYAKTUK A","2203912","2012-02-25 19:00","2012","02","25","19:00","-28.5","","-32.9","","66","","","","5","","4","","4.8","","103.00","","","","-33","","Snow"
"-133.03","69.43","TUKTOYAKTUK A","2203912","2012-02-25 20:00","2012","02","25","20:00","-28.3","","-32.8","","65","","","","6","","7","","6.4","","102.95","","","","-35","","Snow"
"-133.03","69.43","TUKTOYAKTUK A","2203912","2012-02-25 21:00","2012","02","25","21:00","-27.8","","-32.3","","65","","","","6","","6","","11.3","","102.90","","","","-34","","Snow"
"-133.03","69.43","TUKTOYAKTUK A","2203912","2012-02-25 22:00","2012","02","25","22:00","-27.5","","-32.1","","65","","","","7","","7","","6.4","","102.85","","","","-34","","Snow"
"-133.03","69.43","TUKTOYAKTUK A","2203912","2012-02-25 23:00","2012","02","25","23:00","-27.7","","-32.2","","65","","","","9","","6","","6.4","","102.81","","","","-34","","Snow"
"-133.03","69.43","TUKTOYAKTUK A","2203912","2012-02-26 00:00","2012","02","26","00:00"
"-133.03","69.43","TUKTOYAKTUK A","2203912","2012-02-26 01:00","2012","02","26","01:00"
"-133.03","69.43","TUKTOYAKTUK A","2203912","2012-02-26 02:00","2012","02","26","02:00"
"-133.03","69.43","TUKTOYAKTUK A","2203912","2012-02-26 03:00","2012","02","26","03:00"
"-133.03","69.43","TUKTOYAKTUK A","2203912","2012-02-26 04:00","2012","02","26","04:00"
"-133.03","69.43","TUKTOYAKTUK A","2203912","2012-02-26 05:00","2012","02","26","05:00"
"-133.03","69.43","TUKTOYAKTUK A","2203912","2012-02-26 06:00","2012","02","26","06:00"
"-133.03","69.43","TUKTOYAKTUK A","2203912","2012-02-26 07:00","2012","02","26","07:00","-37.8","","-42.2","","63","","","","21","","6","","24.1","","102.38","","","","-45","","Clear"
"-133.03","69.43","TUKTOYAKTUK A","2203912","2012-02-26 08:00","2012","02","26","08:00","-38.3","","-42.7","","63","","","","24","","4","","24.1","","102.31","","","","-44","","Clear"
"-133.03","69.43","TUKTOYAKTUK A","2203912","2012-02-26 09:00","2012","02","26","09:00","-38.3","","-43.4","","59","","","","21","","6","","24.1","","102.24","","","","-46","","Clear"
"-133.03","69.43","TUKTOYAKTUK A","2203912","2012-02-26 10:00","2012","02","26","10:00","-38.5","","-42.8","","64","","","","","","0","","24.1","","102.17","","","","","","Clear"
"-133.03","69.43","TUKTOYAKTUK A","2203912","2012-02-26 11:00","2012","02","26","11:00","-38.8","","-43.2","","63","","","","18","","6","","24.1","","102.12","","","","-47","","Clear"
"-133.03","69.43","TUKTOYAKTUK A","2203912","2012-02-26 12:00","2012","02","26","12:00","-38.0","","-42.6","","62","","","","18","","4","","24.1","","102.07","","","","-43","","Clear"
"-133.03","69.43","TUKTOYAKTUK A","2203912","2012-02-26 13:00","2012","02","26","13:00","-37.2","","-41.6","","64","","","","","","0","","24.1","","101.99","","","","","","Mainly Clear"
"-133.03","69.43","TUKTOYAKTUK A","2203912","2012-02-26 14:00","2012","02","26","14:00","-36.2","","-40.8","","62","","","","","","0","","24.1","","101.94","","","","","","Mainly Clear"
"-133.03","69.43","TUKTOYAKTUK A","2203912","2012-02-26 15:00","2012","02","26","15:00","-35.4","","-39.7","","65","","","","","","0","","24.1","","101.86","","","","","","Mainly Clear"
"-133.03","69.43","TUKTOYAKTUK A","2203912","2012-02-26 16:00","2012","02","26","16:00","-34.8","","-40.2","","58","","","","","","0","","24.1","","101.77","","","","","","Mainly Clear"
"-133.03","69.43","TUKTOYAKTUK A","2203912","2012-02-26 17:00","2012","02","26","17:00","-36.4","","-42.4","","54","","","","","","0","","24.1","","101.70","","","","","","Mainly Clear"
"-133.03","69.43","TUKTOYAKTUK A","2203912","2012-02-26 18:00","2012","02","26","18:00","-37.9","","-43.3","","57","","","","","","0","","16.1","","101.63","","","","","","Mainly Clear"
"-133.03","69.43","TUKTOYAKTUK A","2203912","2012-02-26 19:00","2012","02","26","19:00","-38.4","","-42.9","","63","","","","","","0","","16.1","","101.57","","","","","","Mainly Clear"
"-133.03","69.43","TUKTOYAKTUK A","2203912","2012-02-26 20:00","2012","02","26","20:00","-38.7","","-43.6","","60","","","","9","","7","","16.1","","101.49","","","","-47","","Mainly Clear"
"-133.03","69.43","TUKTOYAKTUK A","2203912","2012-02-26 21:00","2012","02","26","21:00","-38.1","","-42.4","","64","","","","9","","6","","16.1","","101.42","","","","-46","","Mainly Clear"
"-133.03","69.43","TUKTOYAKTUK A","2203912","2012-02-26 22:00","2012","02","26","22:00","-38.0","","-42.7","","61","","","","8","","6","","16.1","","101.39","","","","-46","","Mainly Clear"
"-133.03","69.43","TUKTOYAKTUK A","2203912","2012-02-26 23:00","2012","02","26","23:00","-37.4","","-42.2","","61","","","","8","","4","","24.1","","101.36","","","","-43","","Clear"
"-133.03","69.43","TUKTOYAKTUK A","2203912","2012-02-27 00:00","2012","02","27","00:00"
"-133.03","69.43","TUKTOYAKTUK A","2203912","2012-02-27 01:00","2012","02","27","01:00"
"-133.03","69.43","TUKTOYAKTUK A","2203912","2012-02-27 02:00","2012","02","27","02:00"
"-133.03","69.43","TUKTOYAKTUK A","2203912","2012-02-27 03:00","2012","02","27","03:00"
"-133.03","69.43","TUKTOYAKTUK A","2203912","2012-02-27 04:00","2012","02","27","04:00"
"-133.03","69.43","TUKTOYAKTUK A","2203912","2012-02-27 05:00","2012","02","27","05:00"
"-133.03","69.43","TUKTOYAKTUK A","2203912","2012-02-27 06:00","2012","02","27","06:00"
"-133.03","69.43","TUKTOYAKTUK A","2203912","2012-02-27 07:00","2012","02","27","07:00","-33.1","","-37.8","","63","","","","5","","11","","16.1","","101.28","","","","-43","","Clear"
"-133.03","69.43","TUKTOYAKTUK A","2203912","2012-02-27 08:00","2012","02","27","08:00","-32.7","","-37.3","","63","","","","3","","7","","16.1","","101.31","","","","-40","","Mainly Clear"
"-133.03","69.43","TUKTOYAKTUK A","2203912","2012-02-27 09:00","2012","02","27","09:00","-31.6","","-36.3","","63","","","","3","","11","","16.1","","101.37","","","","-42","","Mostly Cloudy"
"-133.03","69.43","TUKTOYAKTUK A","2203912","2012-02-27 10:00","2012","02","27","10:00","-31.1","","-35.6","","65","","","","3","","15","","9.7","","101.34","","","","-43","","Snow"
"-133.03","69.43","TUKTOYAKTUK A","2203912","2012-02-27 11:00","2012","02","27","11:00","-30.4","","-35.0","","64","","","","1","","9","","4.8","","101.44","","","","-39","","Snow"
"-133.03","69.43","TUKTOYAKTUK A","2203912","2012-02-27 12:00","2012","02","27","12:00","-29.8","","-34.4","","64","","","","2","","11","","11.3","","101.51","","","","-39","","Mostly Cloudy"
"-133.03","69.43","TUKTOYAKTUK A","2203912","2012-02-27 13:00","2012","02","27","13:00","-29.0","","-33.5","","65","","","","36","","11","","12.9","","101.60","","","","-38","","Mostly Cloudy"
"-133.03","69.43","TUKTOYAKTUK A","2203912","2012-02-27 14:00","2012","02","27","14:00","-28.8","","-33.4","","64","","","","36","","15","","16.1","","101.66","","","","-40","","Mostly Cloudy"
"-133.03","69.43","TUKTOYAKTUK A","2203912","2012-02-27 15:00","2012","02","27","15:00","-28.5","","-33.0","","65","","","","36","","15","","16.1","","101.69","","","","-40","","Mostly Cloudy"
"-133.03","69.43","TUKTOYAKTUK A","2203912","2012-02-27 16:00","2012","02","27","16:00","-28.5","","-33.0","","65","","","","35","","13","","24.1","","101.79","","","","-39","","Mostly Cloudy"
"-133.03","69.43","TUKTOYAKTUK A","2203912","2012-02-27 17:00","2012","02","27","17:00","-28.8","","-33.3","","65","","","","36","","13","","16.1","","101.87","","","","-39","","Mostly Cloudy"
"-133.03","69.43","TUKTOYAKTUK A","2203912","2012-02-27 18:00","2012","02","27","18:00","-29.5","","-34.1","","64","","","","35","","13","","16.1","","101.92","","","","-40","","Mostly Cloudy"
"-133.03","69.43","TUKTOYAKTUK A","2203912","2012-02-27 19:00","2012","02","27","19:00","-30.5","","-35.0","","65","","","","35","","15","","24.1","","102.02","","","","-42","","Mainly Clear"
"-133.03","69.43","TUKTOYAKTUK A","2203912","2012-02-27 20:00","2012","02","27","20:00","-30.3","","-34.9","","64","","","","36","","15","","24.1","","102.09","","","","-42","","Mostly Cloudy"
"-133.03","69.43","TUKTOYAKTUK A","2203912","2012-02-27 21:00","2012","02","27","21:00","-31.1","","-35.8","","63","","","","34","","15","","24.1","","102.19","","","","-43","","Mainly Clear"
"-133.03","69.43","TUKTOYAKTUK A","2203912","2012-02-27 22:00","2012","02","27","22:00","-31.8","","-36.5","","63","","","","35","","13","","24.1","","102.28","","","","-43","","Mainly Clear"
"-133.03","69.43","TUKTOYAKTUK A","2203912","2012-02-27 23:00","2012","02","27","23:00","-32.6","","-37.4","","62","","","","34","","15","","24.1","","102.36","","","","-45","","Clear"
"-133.03","69.43","TUKTOYAKTUK A","2203912","2012-02-28 00:00","2012","02","28","00:00"
"-133.03","69.43","TUKTOYAKTUK A","2203912","2012-02-28 01:00","2012","02","28","01:00"
"-133.03","69.43","TUKTOYAKTUK A","2203912","2012-02-28 02:00","2012","02","28","02:00"
"-133.03","69.43","TUKTOYAKTUK A","2203912","2012-02-28 03:00","2012","02","28","03:00"
"-133.03","69.43","TUKTOYAKTUK A","2203912","2012-02-28 04:00","2012","02","28","04:00"
"-133.03","69.43","TUKTOYAKTUK A","2203912","2012-02-28 05:00","2012","02","28","05:00"
"-133.03","69.43","TUKTOYAKTUK A","2203912","2012-02-28 06:00","2012","02","28","06:00"
"-133.03","69.43","TUKTOYAKTUK A","2203912","2012-02-28 07:00","2012","02","28","07:00","-36.0","","-40.7","","62","","","","32","","17","","12.9","","102.94","","","","-50","","Clear"
"-133.03","69.43","TUKTOYAKTUK A","2203912","2012-02-28 08:00","2012","02","28","08:00","-36.4","","-41.0","","62","","","","31","","17","","9.7","","103.01","","","","-50","","Fog"
"-133.03","69.43","TUKTOYAKTUK A","2203912","2012-02-28 09:00","2012","02","28","09:00","-36.8","","-41.5","","62","","","","31","","13","","9.7","","103.03","","","","-49","","Fog"
"-133.03","69.43","TUKTOYAKTUK A","2203912","2012-02-28 10:00","2012","02","28","10:00","-37.2","","-41.8","","62","","","","29","","11","","6.4","","103.08","","","","-48","","Fog"
"-133.03","69.43","TUKTOYAKTUK A","2203912","2012-02-28 11:00","2012","02","28","11:00","-37.3","","-41.7","","63","","","","29","","9","","6.4","","103.12","","","","-47","","Fog"
"-133.03","69.43","TUKTOYAKTUK A","2203912","2012-02-28 12:00","2012","02","28","12:00","-36.6","","-41.2","","62","","","","28","","11","","12.9","","103.15","","","","-48","","Mainly Clear"
"-133.03","69.43","TUKTOYAKTUK A","2203912","2012-02-28 13:00","2012","02","28","13:00","-35.9","","-40.5","","63","","","","29","","11","","12.9","","103.15","","","","-47","","Clear"
"-133.03","69.43","TUKTOYAKTUK A","2203912","2012-02-28 14:00","2012","02","28","14:00","-34.7","","-39.5","","62","","","","28","","13","","12.9","","103.16","","","","-46","","Clear"
"-133.03","69.43","TUKTOYAKTUK A","2203912","2012-02-28 15:00","2012","02","28","15:00","-34.1","","-38.7","","63","","","","29","","17","","12.9","","103.16","","","","-47","","Clear"
"-133.03","69.43","TUKTOYAKTUK A","2203912","2012-02-28 16:00","2012","02","28","16:00","-33.7","","-38.5","","62","","","","28","","17","","16.1","","103.13","","","","-47","","Clear"
"-133.03","69.43","TUKTOYAKTUK A","2203912","2012-02-28 17:00","2012","02","28","17:00","-34.2","","-38.8","","63","","","","28","","13","","24.1","","103.12","","","","-46","","Clear"
"-133.03","69.43","TUKTOYAKTUK A","2203912","2012-02-28 18:00","2012","02","28","18:00","-35.0","","-39.8","","62","","","","28","","11","","24.1","","103.10","","","","-46","","Clear"
"-133.03","69.43","TUKTOYAKTUK A","2203912","2012-02-28 19:00","2012","02","28","19:00","-37.1","","-42.0","","60","","","","26","","13","","24.1","","103.13","","","","-49","","Mainly Clear"
"-133.03","69.43","TUKTOYAKTUK A","2203912","2012-02-28 20:00","2012","02","28","20:00","-36.7","","-41.3","","62","","","","27","","13","","16.1","","103.08","","","","-49","","Ice Crystals"
"-133.03","69.43","TUKTOYAKTUK A","2203912","2012-02-28 21:00","2012","02","28","21:00","-37.0","","-41.9","","60","","","","26","","13","","16.1","","103.08","","","","-49","","Ice Crystals"
"-133.03","69.43","TUKTOYAKTUK A","2203912","2012-02-28 22:00","2012","02","28","22:00","-37.0","","-41.5","","63","","","","27","","15","","16.1","","103.04","","","","-50","","Ice Crystals"
"-133.03","69.43","TUKTOYAKTUK A","2203912","2012-02-28 23:00","2012","02","28","23:00","-37.6","","-42.4","","61","","","","27","","13","","16.1","","103.05","","","","-50","","Ice Crystals"
"-133.03","69.43","TUKTOYAKTUK A","2203912","2012-02-29 00:00","2012","02","29","00:00"
"-133.03","69.43","TUKTOYAKTUK A","2203912","2012-02-29 01:00","2012","02","29","01:00"
"-133.03","69.43","TUKTOYAKTUK A","2203912","2012-02-29 02:00","2012","02","29","02:00"
"-133.03","69.43","TUKTOYAKTUK A","2203912","2012-02-29 03:00","2012","02","29","03:00"
"-133.03","69.43","TUKTOYAKTUK A","2203912","2012-02-29 04:00","2012","02","29","04:00"
"-133.03","69.43","TUKTOYAKTUK A","2203912","2012-02-29 05:00","2012","02","29","05:00"
"-133.03","69.43","TUKTOYAKTUK A","2203912","2012-02-29 06:00","2012","02","29","06:00"
"-133.03","69.43","TUKTOYAKTUK A","2203912","2012-02-29 07:00","2012","02","29","07:00","-40.4","","-45.1","","61","","","","26","","11","","16.1","","102.97","","","","-52","","Clear"
"-133.03","69.43","TUKTOYAKTUK A","2203912","2012-02-29 08:00","2012","02","29","08:00","-40.6","","-45.1","","62","","","","26","","13","","16.1","","102.97","","","","-54","","Clear"
"-133.03","69.43","TUKTOYAKTUK A","2203912","2012-02-29 09:00","2012","02","29","09:00","-40.0","","-44.4","","63","","","","27","","13","","16.1","","102.94","","","","-53","","Clear"
"-133.03","69.43","TUKTOYAKTUK A","2203912","2012-02-29 10:00","2012","02","29","10:00","-40.6","","-45.2","","61","","","","26","","11","","12.9","","102.95","","","","-52","","Clear"
"-133.03","69.43","TUKTOYAKTUK A","2203912","2012-02-29 11:00","2012","02","29","11:00","-39.8","","-44.3","","62","","","","25","","13","","12.9","","102.95","","","","-53","","Clear"
"-133.03","69.43","TUKTOYAKTUK A","2203912","2012-02-29 12:00","2012","02","29","12:00","-38.9","","-43.5","","62","","","","25","","9","","16.1","","102.96","","","","-49","","Clear"
"-133.03","69.43","TUKTOYAKTUK A","2203912","2012-02-29 13:00","2012","02","29","13:00","-37.7","","-42.3","","62","","","","26","","9","","12.9","","102.97","","","","-48","","Clear"
"-133.03","69.43","TUKTOYAKTUK A","2203912","2012-02-29 14:00","2012","02","29","14:00","-36.7","","-41.2","","63","","","","26","","9","","12.9","","102.99","","","","-47","","Mainly Clear"
"-133.03","69.43","TUKTOYAKTUK A","2203912","2012-02-29 15:00","2012","02","29","15:00","-36.5","","-41.0","","63","","","","26","","9","","16.1","","103.00","","","","-46","","Mainly Clear"
"-133.03","69.43","TUKTOYAKTUK A","2203912","2012-02-29 16:00","2012","02","29","16:00","-36.2","","-40.9","","62","","","","24","","9","","24.1","","103.01","","","","-46","","Mainly Clear"
"-133.03","69.43","TUKTOYAKTUK A","2203912","2012-02-29 17:00","2012","02","29","17:00","-37.0","","-41.7","","62","","","","23","","9","","24.1","","103.00","","","","-47","","Clear"
"-133.03","69.43","TUKTOYAKTUK A","2203912","2012-02-29 18:00","2012","02","29","18:00","-37.9","","-42.6","","61","","","","23","","9","","24.1","","103.02","","","","-48","","Clear"
"-133.03","69.43","TUKTOYAKTUK A","2203912","2012-02-29 19:00","2012","02","29","19:00","-38.8","","-43.2","","63","","","","23","","9","","24.1","","103.02","","","","-49","","Clear"
"-133.03","69.43","TUKTOYAKTUK A","2203912","2012-02-29 20:00","2012","02","29","20:00","-39.1","","-43.7","","62","","","","24","","9","","24.1","","102.99","","","","-49","","Clear"
"-133.03","69.43","TUKTOYAKTUK A","2203912","2012-02-29 21:00","2012","02","29","21:00","-39.3","","-43.7","","63","","","","22","","7","","24.1","","103.01","","","","-48","","Clear"
"-133.03","69.43","TUKTOYAKTUK A","2203912","2012-02-29 22:00","2012","02","29","22:00","-39.4","","-44.0","","62","","","","23","","11","","24.1","","103.01","","","","-51","","Clear"
"-133.03","69.43","TUKTOYAKTUK A","2203912","2012-02-29 23:00","2012","02","29","23:00","-39.7","","-44.3","","61","","","","23","","9","","24.1","","103.04","","","","-50","","Clear"
