"Longitude (x)","Latitude (y)","Station Name","Climate ID","Date/Time (LST)","Year","Month","Day","Time (LST)","Temp (°C)","Temp Flag","Dew Point Temp (°C)","Dew Point Temp Flag","Rel Hum (%)","Rel Hum Flag","Precip. Amount (mm)","Precip. Amount Flag","Wind Dir (10s deg)","Wind Dir Flag","Wind Spd (km/h)","Wind Spd Flag","Visibility (km)","Visibility Flag","Stn Press (kPa)","Stn Press Flag","Hmdx","Hmdx Flag","Wind Chill","Wind Chill Flag","Weather"
"-63.53","44.60","MCNABS ISLAND (AUT)","8203478","2019-01-01 00:00","2019","01","01","00:00","-2.7","","","M","","M","","M","15","","2","","","","102.41","","","","-3","","NA"
"-63.53","44.60","MCNABS ISLAND (AUT)","8203478","2019-01-01 01:00","2019","01","01","01:00","-2.2","","","M","","M","","M","14","","4","","","","102.28","","","","-4","","NA"
"-63.53","44.60","MCNABS ISLAND (AUT)","8203478","2019-01-01 02:00","2019","01","01","02:00","-0.7","","","M","","M","","M","19","","15","","","","102.22","","","","-5","","NA"
"-63.53","44.60","MCNABS ISLAND (AUT)","8203478","2019-01-01 03:00","2019","01","01","03:00","0.2","","","M","","M","","M","18","","31","","","","102.03","","","","","","NA"
"-63.53","44.60","MCNABS ISLAND (AUT)","8203478","2019-01-01 04:00","2019","01","01","04:00","0.2","","","M","","M","","M","17","","32","","","","101.83","","","","","","NA"
"-63.53","44.60","MCNABS ISLAND (AUT)","8203478","2019-01-01 05:00","2019","01","01","05:00","0.0","","","M","","M","","M","18","","36","","","","101.69","","","","-7","","NA"
"-63.53","44.60","MCNABS ISLAND (AUT)","8203478","2019-01-01 06:00","2019","01","01","06:00","-0.4","","","M","","M","","M","18","","33","","","","101.62","","","","-7","","NA"
"-63.53","44.60","MCNABS ISLAND (AUT)","8203478","2019-01-01 07:00","2019","01","01","07:00","-0.5","","","M","","M","","M","17","","41","","","","101.35","","","","-8","","NA"
"-63.53","44.60","MCNABS ISLAND (AUT)","8203478","2019-01-01 08:00","2019","01","01","08:00","-0.3","","","M","","M","","M","16","","46","","","","101.13","","","","-8","","NA"
"-63.53","44.60","MCNABS ISLAND (AUT)","8203478","2019-01-01 09:00","2019","01","01","09:00","-0.3","","","M","","M","","M","14","","43","","","","100.80","","","","-8","","NA"
"-63.53","44.60","MCNABS ISLAND (AUT)","8203478","2019-01-01 10:00","2019","01","01","10:00","0.4","","","M","","M","","M","13","","44","","","","100.40","","","","","","NA"
"-63.53","44.60","MCNABS ISLAND (AUT)","8203478","2019-01-01 11:00","2019","01","01","11:00","0.5","","","M","","M","","M","12","","39","","","","100.03","","","","","","NA"
"-63.53","44.60","MCNABS ISLAND (AUT)","8203478","2019-01-01 12:00","2019","01","01","12:00","0.8","","","M","","M","","M","11","","40","","","","99.54","","","","","","NA"
"-63.53","44.60","MCNABS ISLAND (AUT)","8203478","2019-01-01 13:00","2019","01","01","13:00","1.6","","","M","","M","","M","10","","33","","","","99.17","","","","","","NA"
"-63.53","44.60","MCNABS ISLAND (AUT)","8203478","2019-01-01 14:00","2019","01","01","14:00","3.3","","","M","","M","","M","9","","22","","","","98.82","","","","","","NA"
"-63.53","44.60","MCNABS ISLAND (AUT)","8203478","2019-01-01 15:00","2019","01","01","15:00","4.7","","","M","","M","","M","27","","12","","","","98.72","","","","","","NA"
"-63.53","44.60","MCNABS ISLAND (AUT)","8203478","2019-01-01 16:00","2019","01","01","16:00","4.6","","","M","","M","","M","29","","11","","","","98.76","","","","","","NA"
"-63.53","44.60","MCNABS ISLAND (AUT)","8203478","2019-01-01 17:00","2019","01","01","17:00","4.3","","","M","","M","","M","28","","14","","","","98.85","","","","","","NA"
"-63.53","44.60","MCNABS ISLAND (AUT)","8203478","2019-01-01 18:00","2019","01","01","18:00","5.0","","","M","","M","","M","30","","25","","","","99.07","","","","","","NA"
"-63.53","44.60","MCNABS ISLAND (AUT)","8203478","2019-01-01 19:00","2019","01","01","19:00","2.9","","","M","","M","","M","31","","25","","","","99.27","","","","","","NA"
"-63.53","44.60","MCNABS ISLAND (AUT)","8203478","2019-01-01 20:00","2019","01","01","20:00","1.4","","","M","","M","","M","32","","21","","","","99.46","","","","","","NA"
"-63.53","44.60","MCNABS ISLAND (AUT)","8203478","2019-01-01 21:00","2019","01","01","21:00","1.0","","","M","","M","","M","32","","26","","","","99.66","","","","","","NA"
"-63.53","44.60","MCNABS ISLAND (AUT)","8203478","2019-01-01 22:00","2019","01","01","22:00","0.9","","","M","","M","","M","32","","29","","","","99.90","","","","","","NA"
"-63.53","44.60","MCNABS ISLAND (AUT)","8203478","2019-01-01 23:00","2019","01","01","23:00","0.9","","","M","","M","","M","31","","25","","","","100.09","","","","","","NA"
"-63.53","44.60","MCNABS ISLAND (AUT)","8203478","2019-01-02 00:00","2019","01","02","00:00","0.4","","","M","","M","","M","31","","25","","","","100.11","","","","","","NA"
"-63.53","44.60","MCNABS ISLAND (AUT)","8203478","2019-01-02 01:00","2019","01","02","01:00","-1.2","","","M","","M","","M","31","","26","","","","100.30","","","","-8","","NA"
"-63.53","44.60","MCNABS ISLAND (AUT)","8203478","2019-01-02 02:00","2019","01","02","02:00","-2.0","","","M","","M","","M","32","","25","","","","100.50","","","","-8","","NA"
"-63.53","44.60","MCNABS ISLAND (AUT)","8203478","2019-01-02 03:00","2019","01","02","03:00","-3.1","","","M","","M","","M","32","","26","","","","100.71","","","","-10","","NA"
"-63.53","44.60","MCNABS ISLAND (AUT)","8203478","2019-01-02 04:00","2019","01","02","04:00","-4.8","","","M","","M","","M","33","","17","","","","100.84","","","","-11","","NA"
"-63.53","44.60","MCNABS ISLAND (AUT)","8203478","2019-01-02 05:00","2019","01","02","05:00","-6.3","","","M","","M","","M","32","","27","","","","100.93","","","","-14","","NA"
"-63.53","44.60","MCNABS ISLAND (AUT)","8203478","2019-01-02 06:00","2019","01","02","06:00","-7.0","","","M","","M","","M","30","","22","","","","101.08","","","","-14","","NA"
"-63.53","44.60","MCNABS ISLAND (AUT)","8203478","2019-01-02 07:00","2019","01","02","07:00","-7.9","","","M","","M","","M","32","","20","","","","101.21","","","","-15","","NA"
"-63.53","44.60","MCNABS ISLAND (AUT)","8203478","2019-01-02 08:00","2019","01","02","08:00","-8.2","","","M","","M","","M","33","","21","","","","101.39","","","","-16","","NA"
"-63.53","44.60","MCNABS ISLAND (AUT)","8203478","2019-01-02 09:00","2019","01","02","09:00","-8.1","","","M","","M","","M","33","","23","","","","101.54","","","","-16","","NA"
"-63.53","44.60","MCNABS ISLAND (AUT)","8203478","2019-01-02 10:00","2019","01","02","10:00","-7.4","","","M","","M","","M","33","","21","","","","101.69","","","","-15","","NA"
"-63.53","44.60","MCNABS ISLAND (AUT)","8203478","2019-01-02 11:00","2019","01","02","11:00","-6.5","","","M","","M","","M","32","","22","","","","101.75","","","","-14","","NA"
"-63.53","44.60","MCNABS ISLAND (AUT)","8203478","2019-01-02 12:00","2019","01","02","12:00","-5.5","","","M","","M","","M","30","","18","","","","101.72","","","","-12","","NA"
"-63.53","44.60","MCNABS ISLAND (AUT)","8203478","2019-01-02 13:00","2019","01","02","13:00","-4.8","","","M","","M","","M","32","","17","","","","101.69","","","","-11","","NA"
"-63.53","44.60","MCNABS ISLAND (AUT)","8203478","2019-01-02 14:00","2019","01","02","14:00","-4.8","","","M","","M","","M","32","","17","","","","101.76","","","","-11","","NA"
"-63.53","44.60","MCNABS ISLAND (AUT)","8203478","2019-01-02 15:00","2019","01","02","15:00","-5.0","","","M","","M","","M","32","","20","","","","101.81","","","","-12","","NA"
"-63.53","44.60","MCNABS ISLAND (AUT)","8203478","2019-01-02 16:00","2019","01","02","16:00","-5.4","","","M","","M","","M","32","","20","","","","101.92","","","","-12","","NA"
"-63.53","44.60","MCNABS ISLAND (AUT)","8203478","2019-01-02 17:00","2019","01","02","17:00","-6.4","","","M","","M","","M","33","","15","","","","101.99","","","","-12","","NA"
"-63.53","44.60","MCNABS ISLAND (AUT)","8203478","2019-01-02 18:00","2019","01","02","18:00","-7.1","","","M","","M","","M","31","","16","","","","102.07","","","","-13","","NA"
"-63.53","44.60","MCNABS ISLAND (AUT)","8203478","2019-01-02 19:00","2019","01","02","19:00","-7.7","","","M","","M","","M","33","","14","","","","102.13","","","","-14","","NA"
"-63.53","44.60","MCNABS ISLAND (AUT)","8203478","2019-01-02 20:00","2019","01","02","20:00","-8.8","","","M","","M","","M","33","","13","","","","102.19","","","","-15","","NA"
"-63.53","44.60","MCNABS ISLAND (AUT)","8203478","2019-01-02 21:00","2019","01","02","21:00","-9.2","","","M","","M","","M","33","","12","","","","102.23","","","","-15","","NA"
"-63.53","44.60","MCNABS ISLAND (AUT)","8203478","2019-01-02 22:00","2019","01","02","22:00","-9.7","","","M","","M","","M","29","","7","","","","102.23","","","","-14","","NA"
"-63.53","44.60","MCNABS ISLAND (AUT)","8203478","2019-01-02 23:00","2019","01","02","23:00","-10.2","","","M","","M","","M","35","","4","","","","102.21","","","","-13","","NA"
"-63.53","44.60","MCNABS ISLAND (AUT)","8203478","2019-01-03 00:00","2019","01","03","00:00","-10.0","","","M","","M","","M","25","","16","","","","102.25","","","","-17","","NA"
"-63.53","44.60","MCNABS ISLAND (AUT)","8203478","2019-01-03 01:00","2019","01","03","01:00","-10.9","","","M","","M","","M","27","","8","","","","102.24","","","","-16","","NA"
"-63.53","44.60","MCNABS ISLAND (AUT)","8203478","2019-01-03 02:00","2019","01","03","02:00","-10.5","","","M","","M","","M","31","","6","","","","102.21","","","","-14","","NA"
"-63.53","44.60","MCNABS ISLAND (AUT)","8203478","2019-01-03 03:00","2019","01","03","03:00","-11.1","","","M","","M","","M","2","","5","","","","102.18","","","","-14","","NA"
"-63.53","44.60","MCNABS ISLAND (AUT)","8203478","2019-01-03 04:00","2019","01","03","04:00","-11.6","","","M","","M","","M","3","","5","","","","102.09","","","","-15","","NA"
"-63.53","44.60","MCNABS ISLAND (AUT)","8203478","2019-01-03 05:00","2019","01","03","05:00","-11.7","","","M","","M","","M","5","","5","","","","102.01","","","","-15","","NA"
"-63.53","44.60","MCNABS ISLAND (AUT)","8203478","2019-01-03 06:00","2019","01","03","06:00","-11.1","","","M","","M","","M","8","","3","","","","102.01","","","","-13","","NA"
"-63.53","44.60","MCNABS ISLAND (AUT)","8203478","2019-01-03 07:00","2019","01","03","07:00","-10.7","","","M","","M","","M","3","","5","","","","101.94","","","","-14","","NA"
"-63.53","44.60","MCNABS ISLAND (AUT)","8203478","2019-01-03 08:00","2019","01","03","08:00","-10.3","","","M","","M","","M","3","","4","","","","101.86","","","","-13","","NA"
"-63.53","44.60","MCNABS ISLAND (AUT)","8203478","2019-01-03 09:00","2019","01","03","09:00","-10.0","","","M","","M","","M","3","","6","","","","101.80","","","","-14","","NA"
"-63.53","44.60","MCNABS ISLAND (AUT)","8203478","2019-01-03 10:00","2019","01","03","10:00","-8.3","","","M","","M","","M","1","","4","","","","101.78","","","","-10","","NA"
"-63.53","44.60","MCNABS ISLAND (AUT)","8203478","2019-01-03 11:00","2019","01","03","11:00","-6.8","","","M","","M","","M","6","","3","","","","101.71","","","","-8","","NA"
"-63.53","44.60","MCNABS ISLAND (AUT)","8203478","2019-01-03 12:00","2019","01","03","12:00","-5.8","","","M","","M","","M","5","","6","","","","101.56","","","","-9","","NA"
"-63.53","44.60","MCNABS ISLAND (AUT)","8203478","2019-01-03 13:00","2019","01","03","13:00","-4.9","","","M","","M","","M","30","","4","","","","101.50","","","","-7","","NA"
"-63.53","44.60","MCNABS ISLAND (AUT)","8203478","2019-01-03 14:00","2019","01","03","14:00","-4.3","","","M","","M","","M","8","","13","","","","101.32","","","","-9","","NA"
"-63.53","44.60","MCNABS ISLAND (AUT)","8203478","2019-01-03 15:00","2019","01","03","15:00","-3.7","","","M","","M","","M","8","","14","","","","101.23","","","","-9","","NA"
"-63.53","44.60","MCNABS ISLAND (AUT)","8203478","2019-01-03 16:00","2019","01","03","16:00","-3.3","","","M","","M","","M","9","","17","","","","101.13","","","","-9","","NA"
"-63.53","44.60","MCNABS ISLAND (AUT)","8203478","2019-01-03 17:00","2019","01","03","17:00","-3.5","","","M","","M","","M","8","","15","","","","101.05","","","","-9","","NA"
"-63.53","44.60","MCNABS ISLAND (AUT)","8203478","2019-01-03 18:00","2019","01","03","18:00","-4.5","","","M","","M","","M","5","","10","","","","101.01","","","","-9","","NA"
"-63.53","44.60","MCNABS ISLAND (AUT)","8203478","2019-01-03 19:00","2019","01","03","19:00","-4.8","","","M","","M","","M","4","","13","","","","101.02","","","","-10","","NA"
"-63.53","44.60","MCNABS ISLAND (AUT)","8203478","2019-01-03 20:00","2019","01","03","20:00","-4.8","","","M","","M","","M","4","","15","","","","101.06","","","","-10","","NA"
"-63.53","44.60","MCNABS ISLAND (AUT)","8203478","2019-01-03 21:00","2019","01","03","21:00","-4.5","","","M","","M","","M","4","","15","","","","101.06","","","","-10","","NA"
"-63.53","44.60","MCNABS ISLAND (AUT)","8203478","2019-01-03 22:00","2019","01","03","22:00","-4.6","","","M","","M","","M","5","","17","","","","101.02","","","","-10","","NA"
"-63.53","44.60","MCNABS ISLAND (AUT)","8203478","2019-01-03 23:00","2019","01","03","23:00","-4.6","","","M","","M","","M","5","","14","","","","101.06","","","","-10","","NA"
"-63.53","44.60","MCNABS ISLAND (AUT)","8203478","2019-01-04 00:00","2019","01","04","00:00","-4.4","","","M","","M","","M","34","","4","","","","101.10","","","","-6","","NA"
"-63.53","44.60","MCNABS ISLAND (AUT)","8203478","2019-01-04 01:00","2019","01","04","01:00","-4.6","","","M","","M","","M","34","","3","","","","101.09","","","","-6","","NA"
"-63.53","44.60","MCNABS ISLAND (AUT)","8203478","2019-01-04 02:00","2019","01","04","02:00","-4.7","","","M","","M","","M","5","","2","","","","101.13","","","","-6","","NA"
"-63.53","44.60","MCNABS ISLAND (AUT)","8203478","2019-01-04 03:00","2019","01","04","03:00","-5.2","","","M","","M","","M","3","","6","","","","101.07","","","","-8","","NA"
"-63.53","44.60","MCNABS ISLAND (AUT)","8203478","2019-01-04 04:00","2019","01","04","04:00","-4.8","","","M","","M","","M","33","","5","","","","101.07","","","","-7","","NA"
"-63.53","44.60","MCNABS ISLAND (AUT)","8203478","2019-01-04 05:00","2019","01","04","05:00","-4.3","","","M","","M","","M","8","","6","","","","101.07","","","","-7","","NA"
"-63.53","44.60","MCNABS ISLAND (AUT)","8203478","2019-01-04 06:00","2019","01","04","06:00","-4.3","","","M","","M","","M","8","","3","","","","101.10","","","","-6","","NA"
"-63.53","44.60","MCNABS ISLAND (AUT)","8203478","2019-01-04 07:00","2019","01","04","07:00","-3.5","","","M","","M","","M","11","","4","","","","101.06","","","","-5","","NA"
"-63.53","44.60","MCNABS ISLAND (AUT)","8203478","2019-01-04 08:00","2019","01","04","08:00","-0.1","","","M","","M","","M","16","","23","","","","101.12","","","","-6","","NA"
"-63.53","44.60","MCNABS ISLAND (AUT)","8203478","2019-01-04 09:00","2019","01","04","09:00","0.5","","","M","","M","","M","17","","23","","","","101.19","","","","","","NA"
"-63.53","44.60","MCNABS ISLAND (AUT)","8203478","2019-01-04 10:00","2019","01","04","10:00","0.6","","","M","","M","","M","18","","21","","","","101.21","","","","","","NA"
"-63.53","44.60","MCNABS ISLAND (AUT)","8203478","2019-01-04 11:00","2019","01","04","11:00","0.8","","","M","","M","","M","18","","24","","","","101.14","","","","","","NA"
"-63.53","44.60","MCNABS ISLAND (AUT)","8203478","2019-01-04 12:00","2019","01","04","12:00","1.1","","","M","","M","","M","20","","28","","","","101.02","","","","","","NA"
"-63.53","44.60","MCNABS ISLAND (AUT)","8203478","2019-01-04 13:00","2019","01","04","13:00","1.2","","","M","","M","","M","21","","19","","","","100.95","","","","","","NA"
"-63.53","44.60","MCNABS ISLAND (AUT)","8203478","2019-01-04 14:00","2019","01","04","14:00","1.2","","","M","","M","","M","24","","16","","","","100.93","","","","","","NA"
"-63.53","44.60","MCNABS ISLAND (AUT)","8203478","2019-01-04 15:00","2019","01","04","15:00","2.7","","","M","","M","","M","21","","15","","","","100.93","","","","","","NA"
"-63.53","44.60","MCNABS ISLAND (AUT)","8203478","2019-01-04 16:00","2019","01","04","16:00","2.3","","","M","","M","","M","23","","15","","","","100.93","","","","","","NA"
"-63.53","44.60","MCNABS ISLAND (AUT)","8203478","2019-01-04 17:00","2019","01","04","17:00","1.3","","","M","","M","","M","21","","19","","","","100.95","","","","","","NA"
"-63.53","44.60","MCNABS ISLAND (AUT)","8203478","2019-01-04 18:00","2019","01","04","18:00","1.6","","","M","","M","","M","20","","14","","","","101.01","","","","","","NA"
"-63.53","44.60","MCNABS ISLAND (AUT)","8203478","2019-01-04 19:00","2019","01","04","19:00","1.9","","","M","","M","","M","20","","16","","","","101.03","","","","","","NA"
"-63.53","44.60","MCNABS ISLAND (AUT)","8203478","2019-01-04 20:00","2019","01","04","20:00","2.2","","","M","","M","","M","22","","19","","","","100.98","","","","","","NA"
"-63.53","44.60","MCNABS ISLAND (AUT)","8203478","2019-01-04 21:00","2019","01","04","21:00","2.4","","","M","","M","","M","21","","20","","","","100.99","","","","","","NA"
"-63.53","44.60","MCNABS ISLAND (AUT)","8203478","2019-01-04 22:00","2019","01","04","22:00","2.3","","","M","","M","","M","20","","20","","","","100.95","","","","","","NA"
"-63.53","44.60","MCNABS ISLAND (AUT)","8203478","2019-01-04 23:00","2019","01","04","23:00","2.5","","","M","","M","","M","20","","19","","","","100.86","","","","","","NA"
"-63.53","44.60","MCNABS ISLAND (AUT)","8203478","2019-01-05 00:00","2019","01","05","00:00","2.6","","","M","","M","","M","20","","24","","","","100.82","","","","","","NA"
"-63.53","44.60","MCNABS ISLAND (AUT)","8203478","2019-01-05 01:00","2019","01","05","01:00","3.0","","","M","","M","","M","20","","28","","","","100.75","","","","","","NA"
"-63.53","44.60","MCNABS ISLAND (AUT)","8203478","2019-01-05 02:00","2019","01","05","02:00","3.4","","","M","","M","","M","22","","22","","","","100.81","","","","","","NA"
"-63.53","44.60","MCNABS ISLAND (AUT)","8203478","2019-01-05 03:00","2019","01","05","03:00","3.2","","","M","","M","","M","22","","21","","","","100.80","","","","","","NA"
"-63.53","44.60","MCNABS ISLAND (AUT)","8203478","2019-01-05 04:00","2019","01","05","04:00","3.2","","","M","","M","","M","24","","15","","","","100.76","","","","","","NA"
"-63.53","44.60","MCNABS ISLAND (AUT)","8203478","2019-01-05 05:00","2019","01","05","05:00","3.0","","","M","","M","","M","23","","13","","","","100.70","","","","","","NA"
"-63.53","44.60","MCNABS ISLAND (AUT)","8203478","2019-01-05 06:00","2019","01","05","06:00","2.5","","","M","","M","","M","23","","9","","","","100.71","","","","","","NA"
"-63.53","44.60","MCNABS ISLAND (AUT)","8203478","2019-01-05 07:00","2019","01","05","07:00","2.0","","","M","","M","","M","23","","8","","","","100.75","","","","","","NA"
"-63.53","44.60","MCNABS ISLAND (AUT)","8203478","2019-01-05 08:00","2019","01","05","08:00","2.0","","","M","","M","","M","1","","2","","","","100.75","","","","","","NA"
"-63.53","44.60","MCNABS ISLAND (AUT)","8203478","2019-01-05 09:00","2019","01","05","09:00","2.4","","","M","","M","","M","0","","1","","","","100.74","","","","","","NA"
"-63.53","44.60","MCNABS ISLAND (AUT)","8203478","2019-01-05 10:00","2019","01","05","10:00","2.7","","","M","","M","","M","4","","2","","","","100.76","","","","","","NA"
"-63.53","44.60","MCNABS ISLAND (AUT)","8203478","2019-01-05 11:00","2019","01","05","11:00","3.1","","","M","","M","","M","10","","4","","","","100.66","","","","","","NA"
"-63.53","44.60","MCNABS ISLAND (AUT)","8203478","2019-01-05 12:00","2019","01","05","12:00","2.6","","","M","","M","","M","13","","7","","","","100.59","","","","","","NA"
"-63.53","44.60","MCNABS ISLAND (AUT)","8203478","2019-01-05 13:00","2019","01","05","13:00","2.7","","","M","","M","","M","11","","7","","","","100.49","","","","","","NA"
"-63.53","44.60","MCNABS ISLAND (AUT)","8203478","2019-01-05 14:00","2019","01","05","14:00","2.8","","","M","","M","","M","13","","6","","","","100.38","","","","","","NA"
"-63.53","44.60","MCNABS ISLAND (AUT)","8203478","2019-01-05 15:00","2019","01","05","15:00","2.7","","","M","","M","","M","11","","7","","","","100.34","","","","","","NA"
"-63.53","44.60","MCNABS ISLAND (AUT)","8203478","2019-01-05 16:00","2019","01","05","16:00","2.8","","","M","","M","","M","9","","5","","","","100.29","","","","","","NA"
"-63.53","44.60","MCNABS ISLAND (AUT)","8203478","2019-01-05 17:00","2019","01","05","17:00","2.5","","","M","","M","","M","8","","7","","","","100.17","","","","","","NA"
"-63.53","44.60","MCNABS ISLAND (AUT)","8203478","2019-01-05 18:00","2019","01","05","18:00","2.3","","","M","","M","","M","3","","9","","","","100.09","","","","","","NA"
"-63.53","44.60","MCNABS ISLAND (AUT)","8203478","2019-01-05 19:00","2019","01","05","19:00","2.3","","","M","","M","","M","4","","8","","","","100.00","","","","","","NA"
"-63.53","44.60","MCNABS ISLAND (AUT)","8203478","2019-01-05 20:00","2019","01","05","20:00","2.6","","","M","","M","","M","3","","13","","","","99.86","","","","","","NA"
"-63.53","44.60","MCNABS ISLAND (AUT)","8203478","2019-01-05 21:00","2019","01","05","21:00","2.9","","","M","","M","","M","4","","11","","","","99.70","","","","","","NA"
"-63.53","44.60","MCNABS ISLAND (AUT)","8203478","2019-01-05 22:00","2019","01","05","22:00","3.3","","","M","","M","","M","1","","11","","","","99.55","","","","","","NA"
"-63.53","44.60","MCNABS ISLAND (AUT)","8203478","2019-01-05 23:00","2019","01","05","23:00","3.1","","","M","","M","","M","36","","9","","","","99.34","","","","","","NA"
"-63.53","44.60","MCNABS ISLAND (AUT)","8203478","2019-01-06 00:00","2019","01","06","00:00","3.1","","","M","","M","","M","2","","13","","","","99.11","","","","","","NA"
"-63.53","44.60","MCNABS ISLAND (AUT)","8203478","2019-01-06 01:00","2019","01","06","01:00","2.9","","","M","","M","","M","35","","14","","","","99.00","","","","","","NA"
"-63.53","44.60","MCNABS ISLAND (AUT)","8203478","2019-01-06 02:00","2019","01","06","02:00","3.1","","","M","","M","","M","35","","13","","","","98.94","","","","","","NA"
"-63.53","44.60","MCNABS ISLAND (AUT)","8203478","2019-01-06 03:00","2019","01","06","03:00","2.7","","","M","","M","","M","36","","17","","","","98.84","","","","","","NA"
"-63.53","44.60","MCNABS ISLAND (AUT)","8203478","2019-01-06 04:00","2019","01","06","04:00","2.4","","","M","","M","","M","33","","16","","","","98.83","","","","","","NA"
"-63.53","44.60","MCNABS ISLAND (AUT)","8203478","2019-01-06 05:00","2019","01","06","05:00","1.9","","","M","","M","","M","33","","19","","","","98.82","","","","","","NA"
"-63.53","44.60","MCNABS ISLAND (AUT)","8203478","2019-01-06 06:00","2019","01","06","06:00","1.7","","","M","","M","","M","33","","21","","","","98.85","","","","","","NA"
"-63.53","44.60","MCNABS ISLAND (AUT)","8203478","2019-01-06 07:00","2019","01","06","07:00","1.5","","","M","","M","","M","32","","19","","","","98.91","","","","","","NA"
"-63.53","44.60","MCNABS ISLAND (AUT)","8203478","2019-01-06 08:00","2019","01","06","08:00","1.4","","","M","","M","","M","33","","19","","","","99.00","","","","","","NA"
"-63.53","44.60","MCNABS ISLAND (AUT)","8203478","2019-01-06 09:00","2019","01","06","09:00","1.2","","","M","","M","","M","33","","15","","","","99.15","","","","","","NA"
"-63.53","44.60","MCNABS ISLAND (AUT)","8203478","2019-01-06 10:00","2019","01","06","10:00","1.1","","","M","","M","","M","32","","17","","","","99.26","","","","","","NA"
"-63.53","44.60","MCNABS ISLAND (AUT)","8203478","2019-01-06 11:00","2019","01","06","11:00","1.1","","","M","","M","","M","32","","19","","","","99.36","","","","","","NA"
"-63.53","44.60","MCNABS ISLAND (AUT)","8203478","2019-01-06 12:00","2019","01","06","12:00","1.8","","","M","","M","","M","32","","20","","","","99.39","","","","","","NA"
"-63.53","44.60","MCNABS ISLAND (AUT)","8203478","2019-01-06 13:00","2019","01","06","13:00","1.1","","","M","","M","","M","32","","22","","","","99.47","","","","","","NA"
"-63.53","44.60","MCNABS ISLAND (AUT)","8203478","2019-01-06 14:00","2019","01","06","14:00","1.0","","","M","","M","","M","32","","17","","","","99.56","","","","","","NA"
"-63.53","44.60","MCNABS ISLAND (AUT)","8203478","2019-01-06 15:00","2019","01","06","15:00","0.8","","","M","","M","","M","31","","16","","","","99.66","","","","","","NA"
"-63.53","44.60","MCNABS ISLAND (AUT)","8203478","2019-01-06 16:00","2019","01","06","16:00","0.7","","","M","","M","","M","32","","18","","","","99.77","","","","","","NA"
"-63.53","44.60","MCNABS ISLAND (AUT)","8203478","2019-01-06 17:00","2019","01","06","17:00","0.4","","","M","","M","","M","31","","12","","","","99.87","","","","","","NA"
"-63.53","44.60","MCNABS ISLAND (AUT)","8203478","2019-01-06 18:00","2019","01","06","18:00","0.3","","","M","","M","","M","31","","12","","","","99.96","","","","","","NA"
"-63.53","44.60","MCNABS ISLAND (AUT)","8203478","2019-01-06 19:00","2019","01","06","19:00","0.2","","","M","","M","","M","31","","11","","","","100.04","","","","","","NA"
"-63.53","44.60","MCNABS ISLAND (AUT)","8203478","2019-01-06 20:00","2019","01","06","20:00","0.1","","","M","","M","","M","29","","10","","","","100.12","","","","","","NA"
"-63.53","44.60","MCNABS ISLAND (AUT)","8203478","2019-01-06 21:00","2019","01","06","21:00","0.1","","","M","","M","","M","29","","9","","","","100.16","","","","","","NA"
"-63.53","44.60","MCNABS ISLAND (AUT)","8203478","2019-01-06 22:00","2019","01","06","22:00","0.2","","","M","","M","","M","29","","9","","","","100.21","","","","","","NA"
"-63.53","44.60","MCNABS ISLAND (AUT)","8203478","2019-01-06 23:00","2019","01","06","23:00","0.4","","","M","","M","","M","30","","11","","","","100.23","","","","","","NA"
"-63.53","44.60","MCNABS ISLAND (AUT)","8203478","2019-01-07 00:00","2019","01","07","00:00","-0.1","","","M","","M","","M","32","","14","","","","100.25","","","","-4","","NA"
"-63.53","44.60","MCNABS ISLAND (AUT)","8203478","2019-01-07 01:00","2019","01","07","01:00","-0.5","","","M","","M","","M","33","","17","","","","100.27","","","","-5","","NA"
"-63.53","44.60","MCNABS ISLAND (AUT)","8203478","2019-01-07 02:00","2019","01","07","02:00","-0.9","","","M","","M","","M","31","","14","","","","100.35","","","","-5","","NA"
"-63.53","44.60","MCNABS ISLAND (AUT)","8203478","2019-01-07 03:00","2019","01","07","03:00","-1.4","","","M","","M","","M","32","","14","","","","100.44","","","","-6","","NA"
"-63.53","44.60","MCNABS ISLAND (AUT)","8203478","2019-01-07 04:00","2019","01","07","04:00","-2.4","","","M","","M","","M","32","","26","","","","100.48","","","","-9","","NA"
"-63.53","44.60","MCNABS ISLAND (AUT)","8203478","2019-01-07 05:00","2019","01","07","05:00","-3.1","","","M","","M","","M","33","","22","","","","100.58","","","","-9","","NA"
"-63.53","44.60","MCNABS ISLAND (AUT)","8203478","2019-01-07 06:00","2019","01","07","06:00","-3.9","","","M","","M","","M","33","","24","","","","100.71","","","","-11","","NA"
"-63.53","44.60","MCNABS ISLAND (AUT)","8203478","2019-01-07 07:00","2019","01","07","07:00","-4.8","","","M","","M","","M","33","","25","","","","100.83","","","","-12","","NA"
"-63.53","44.60","MCNABS ISLAND (AUT)","8203478","2019-01-07 08:00","2019","01","07","08:00","-5.7","","","M","","M","","M","33","","24","","","","101.00","","","","-13","","NA"
"-63.53","44.60","MCNABS ISLAND (AUT)","8203478","2019-01-07 09:00","2019","01","07","09:00","-5.9","","","M","","M","","M","32","","27","","","","101.16","","","","-14","","NA"
"-63.53","44.60","MCNABS ISLAND (AUT)","8203478","2019-01-07 10:00","2019","01","07","10:00","-5.7","","","M","","M","","M","33","","24","","","","101.26","","","","-13","","NA"
"-63.53","44.60","MCNABS ISLAND (AUT)","8203478","2019-01-07 11:00","2019","01","07","11:00","-5.5","","","M","","M","","M","33","","25","","","","101.35","","","","-13","","NA"
"-63.53","44.60","MCNABS ISLAND (AUT)","8203478","2019-01-07 12:00","2019","01","07","12:00","-5.4","","","M","","M","","M","33","","30","","","","101.33","","","","-14","","NA"
"-63.53","44.60","MCNABS ISLAND (AUT)","8203478","2019-01-07 13:00","2019","01","07","13:00","-4.9","","","M","","M","","M","33","","25","","","","101.42","","","","-12","","NA"
"-63.53","44.60","MCNABS ISLAND (AUT)","8203478","2019-01-07 14:00","2019","01","07","14:00","-5.3","","","M","","M","","M","33","","28","","","","101.51","","","","-13","","NA"
"-63.53","44.60","MCNABS ISLAND (AUT)","8203478","2019-01-07 15:00","2019","01","07","15:00","-5.0","","","M","","M","","M","32","","23","","","","101.70","","","","-12","","NA"
"-63.53","44.60","MCNABS ISLAND (AUT)","8203478","2019-01-07 16:00","2019","01","07","16:00","-5.7","","","M","","M","","M","33","","22","","","","101.85","","","","-13","","NA"
"-63.53","44.60","MCNABS ISLAND (AUT)","8203478","2019-01-07 17:00","2019","01","07","17:00","-6.8","","","M","","M","","M","33","","23","","","","101.95","","","","-14","","NA"
"-63.53","44.60","MCNABS ISLAND (AUT)","8203478","2019-01-07 18:00","2019","01","07","18:00","-7.1","","","M","","M","","M","33","","20","","","","102.08","","","","-14","","NA"
"-63.53","44.60","MCNABS ISLAND (AUT)","8203478","2019-01-07 19:00","2019","01","07","19:00","-7.4","","","M","","M","","M","33","","22","","","","102.19","","","","-15","","NA"
"-63.53","44.60","MCNABS ISLAND (AUT)","8203478","2019-01-07 20:00","2019","01","07","20:00","-7.6","","","M","","M","","M","33","","20","","","","102.27","","","","-15","","NA"
"-63.53","44.60","MCNABS ISLAND (AUT)","8203478","2019-01-07 21:00","2019","01","07","21:00","-7.9","","","M","","M","","M","33","","21","","","","102.28","","","","-15","","NA"
"-63.53","44.60","MCNABS ISLAND (AUT)","8203478","2019-01-07 22:00","2019","01","07","22:00","-8.4","","","M","","M","","M","34","","17","","","","102.31","","","","-15","","NA"
"-63.53","44.60","MCNABS ISLAND (AUT)","8203478","2019-01-07 23:00","2019","01","07","23:00","-8.6","","","M","","M","","M","33","","20","","","","102.40","","","","-16","","NA"
"-63.53","44.60","MCNABS ISLAND (AUT)","8203478","2019-01-08 00:00","2019","01","08","00:00","-9.0","","","M","","M","","M","34","","13","","","","102.40","","","","-15","","NA"
"-63.53","44.60","MCNABS ISLAND (AUT)","8203478","2019-01-08 01:00","2019","01","08","01:00","-9.2","","","M","","M","","M","33","","19","","","","102.42","","","","-17","","NA"
"-63.53","44.60","MCNABS ISLAND (AUT)","8203478","2019-01-08 02:00","2019","01","08","02:00","-9.3","","","M","","M","","M","34","","17","","","","102.40","","","","-16","","NA"
"-63.53","44.60","MCNABS ISLAND (AUT)","8203478","2019-01-08 03:00","2019","01","08","03:00","-8.9","","","M","","M","","M","33","","14","","","","102.44","","","","-15","","NA"
"-63.53","44.60","MCNABS ISLAND (AUT)","8203478","2019-01-08 04:00","2019","01","08","04:00","-8.7","","","M","","M","","M","33","","16","","","","102.44","","","","-15","","NA"
"-63.53","44.60","MCNABS ISLAND (AUT)","8203478","2019-01-08 05:00","2019","01","08","05:00","-8.3","","","M","","M","","M","33","","12","","","","102.48","","","","-14","","NA"
"-63.53","44.60","MCNABS ISLAND (AUT)","8203478","2019-01-08 06:00","2019","01","08","06:00","-8.1","","","M","","M","","M","34","","8","","","","102.43","","","","-12","","NA"
"-63.53","44.60","MCNABS ISLAND (AUT)","8203478","2019-01-08 07:00","2019","01","08","07:00","-8.0","","","M","","M","","M","33","","8","","","","102.47","","","","-12","","NA"
"-63.53","44.60","MCNABS ISLAND (AUT)","8203478","2019-01-08 08:00","2019","01","08","08:00","-7.6","","","M","","M","","M","29","","5","","","","102.54","","","","-10","","NA"
"-63.53","44.60","MCNABS ISLAND (AUT)","8203478","2019-01-08 09:00","2019","01","08","09:00","-7.2","","","M","","M","","M","6","","4","","","","102.44","","","","-9","","NA"
"-63.53","44.60","MCNABS ISLAND (AUT)","8203478","2019-01-08 10:00","2019","01","08","10:00","-6.7","","","M","","M","","M","9","","4","","","","102.48","","","","-9","","NA"
"-63.53","44.60","MCNABS ISLAND (AUT)","8203478","2019-01-08 11:00","2019","01","08","11:00","-5.4","","","M","","M","","M","30","","3","","","","102.53","","","","-7","","NA"
"-63.53","44.60","MCNABS ISLAND (AUT)","8203478","2019-01-08 12:00","2019","01","08","12:00","-4.6","","","M","","M","","M","8","","11","","","","102.30","","","","-9","","NA"
"-63.53","44.60","MCNABS ISLAND (AUT)","8203478","2019-01-08 13:00","2019","01","08","13:00","-4.4","","","M","","M","","M","15","","8","","","","102.23","","","","-8","","NA"
"-63.53","44.60","MCNABS ISLAND (AUT)","8203478","2019-01-08 14:00","2019","01","08","14:00","-4.1","","","M","","M","","M","19","","6","","","","102.23","","","","-7","","NA"
"-63.53","44.60","MCNABS ISLAND (AUT)","8203478","2019-01-08 15:00","2019","01","08","15:00","-3.5","","","M","","M","","M","15","","8","","","","102.22","","","","-7","","NA"
"-63.53","44.60","MCNABS ISLAND (AUT)","8203478","2019-01-08 16:00","2019","01","08","16:00","-3.2","","","M","","M","","M","17","","8","","","","102.13","","","","-6","","NA"
"-63.53","44.60","MCNABS ISLAND (AUT)","8203478","2019-01-08 17:00","2019","01","08","17:00","-2.9","","","M","","M","","M","18","","8","","","","102.11","","","","-6","","NA"
"-63.53","44.60","MCNABS ISLAND (AUT)","8203478","2019-01-08 18:00","2019","01","08","18:00","-2.4","","","M","","M","","M","14","","11","","","","102.03","","","","-6","","NA"
"-63.53","44.60","MCNABS ISLAND (AUT)","8203478","2019-01-08 19:00","2019","01","08","19:00","-1.8","","","M","","M","","M","14","","14","","","","101.96","","","","-6","","NA"
"-63.53","44.60","MCNABS ISLAND (AUT)","8203478","2019-01-08 20:00","2019","01","08","20:00","-1.4","","","M","","M","","M","13","","14","","","","101.97","","","","-6","","NA"
"-63.53","44.60","MCNABS ISLAND (AUT)","8203478","2019-01-08 21:00","2019","01","08","21:00","-0.5","","","M","","M","","M","14","","21","","","","101.95","","","","-6","","NA"
"-63.53","44.60","MCNABS ISLAND (AUT)","8203478","2019-01-08 22:00","2019","01","08","22:00","0.2","","","M","","M","","M","14","","22","","","","101.84","","","","","","NA"
"-63.53","44.60","MCNABS ISLAND (AUT)","8203478","2019-01-08 23:00","2019","01","08","23:00","0.5","","","M","","M","","M","12","","21","","","","101.68","","","","","","NA"
"-63.53","44.60","MCNABS ISLAND (AUT)","8203478","2019-01-09 00:00","2019","01","09","00:00","1.1","","","M","","M","","M","13","","26","","","","101.61","","","","","","NA"
"-63.53","44.60","MCNABS ISLAND (AUT)","8203478","2019-01-09 01:00","2019","01","09","01:00","1.4","","","M","","M","","M","12","","27","","","","101.50","","","","","","NA"
"-63.53","44.60","MCNABS ISLAND (AUT)","8203478","2019-01-09 02:00","2019","01","09","02:00","0.3","","","M","","M","","M","12","","29","","","","101.42","","","","","","NA"
"-63.53","44.60","MCNABS ISLAND (AUT)","8203478","2019-01-09 03:00","2019","01","09","03:00","0.2","","","M","","M","","M","10","","36","","","","101.24","","","","","","NA"
"-63.53","44.60","MCNABS ISLAND (AUT)","8203478","2019-01-09 04:00","2019","01","09","04:00","0.4","","","M","","M","","M","10","","34","","","","101.06","","","","","","NA"
"-63.53","44.60","MCNABS ISLAND (AUT)","8203478","2019-01-09 05:00","2019","01","09","05:00","1.3","","","M","","M","","M","10","","38","","","","100.87","","","","","","NA"
"-63.53","44.60","MCNABS ISLAND (AUT)","8203478","2019-01-09 06:00","2019","01","09","06:00","1.5","","","M","","M","","M","10","","40","","","","100.67","","","","","","NA"
"-63.53","44.60","MCNABS ISLAND (AUT)","8203478","2019-01-09 07:00","2019","01","09","07:00","1.7","","","M","","M","","M","9","","45","","","","100.43","","","","","","NA"
"-63.53","44.60","MCNABS ISLAND (AUT)","8203478","2019-01-09 08:00","2019","01","09","08:00","1.6","","","M","","M","","M","10","","45","","","","100.27","","","","","","NA"
"-63.53","44.60","MCNABS ISLAND (AUT)","8203478","2019-01-09 09:00","2019","01","09","09:00","1.9","","","M","","M","","M","10","","40","","","","100.11","","","","","","NA"
"-63.53","44.60","MCNABS ISLAND (AUT)","8203478","2019-01-09 10:00","2019","01","09","10:00","2.6","","","M","","M","","M","11","","53","","","","99.95","","","","","","NA"
"-63.53","44.60","MCNABS ISLAND (AUT)","8203478","2019-01-09 11:00","2019","01","09","11:00","3.0","","","M","","M","","M","10","","48","","","","99.73","","","","","","NA"
"-63.53","44.60","MCNABS ISLAND (AUT)","8203478","2019-01-09 12:00","2019","01","09","12:00","3.6","","","M","","M","","M","10","","41","","","","99.41","","","","","","NA"
"-63.53","44.60","MCNABS ISLAND (AUT)","8203478","2019-01-09 13:00","2019","01","09","13:00","3.9","","","M","","M","","M","9","","40","","","","99.11","","","","","","NA"
"-63.53","44.60","MCNABS ISLAND (AUT)","8203478","2019-01-09 14:00","2019","01","09","14:00","4.7","","","M","","M","","M","11","","51","","","","98.84","","","","","","NA"
"-63.53","44.60","MCNABS ISLAND (AUT)","8203478","2019-01-09 15:00","2019","01","09","15:00","4.9","","","M","","M","","M","14","","38","","","","98.74","","","","","","NA"
"-63.53","44.60","MCNABS ISLAND (AUT)","8203478","2019-01-09 16:00","2019","01","09","16:00","5.9","","","M","","M","","M","19","","27","","","","98.72","","","","","","NA"
"-63.53","44.60","MCNABS ISLAND (AUT)","8203478","2019-01-09 17:00","2019","01","09","17:00","5.1","","","M","","M","","M","22","","33","","","","98.70","","","","","","NA"
"-63.53","44.60","MCNABS ISLAND (AUT)","8203478","2019-01-09 18:00","2019","01","09","18:00","4.8","","","M","","M","","M","22","","36","","","","98.76","","","","","","NA"
"-63.53","44.60","MCNABS ISLAND (AUT)","8203478","2019-01-09 19:00","2019","01","09","19:00","4.1","","","M","","M","","M","21","","33","","","","98.75","","","","","","NA"
"-63.53","44.60","MCNABS ISLAND (AUT)","8203478","2019-01-09 20:00","2019","01","09","20:00","3.8","","","M","","M","","M","20","","36","","","","98.72","","","","","","NA"
"-63.53","44.60","MCNABS ISLAND (AUT)","8203478","2019-01-09 21:00","2019","01","09","21:00","3.6","","","M","","M","","M","19","","32","","","","98.70","","","","","","NA"
"-63.53","44.60","MCNABS ISLAND (AUT)","8203478","2019-01-09 22:00","2019","01","09","22:00","3.7","","","M","","M","","M","19","","40","","","","98.60","","","","","","NA"
"-63.53","44.60","MCNABS ISLAND (AUT)","8203478","2019-01-09 23:00","2019","01","09","23:00","3.4","","","M","","M","","M","20","","45","","","","98.54","","","","","","NA"
"-63.53","44.60","MCNABS ISLAND (AUT)","8203478","2019-01-10 00:00","2019","01","10","00:00","3.2","","","M","","M","","M","21","","42","","","","98.50","","","","","","NA"
"-63.53","44.60","MCNABS ISLAND (AUT)","8203478","2019-01-10 01:00","2019","01","10","01:00","2.8","","","M","","M","","M","21","","40","","","","98.54","","","","","","NA"
"-63.53","44.60","MCNABS ISLAND (AUT)","8203478","2019-01-10 02:00","2019","01","10","02:00","2.2","","","M","","M","","M","21","","37","","","","98.61","","","","","","NA"
"-63.53","44.60","MCNABS ISLAND (AUT)","8203478","2019-01-10 03:00","2019","01","10","03:00","2.1","","","M","","M","","M","21","","31","","","","98.64","","","","","","NA"
"-63.53","44.60","MCNABS ISLAND (AUT)","8203478","2019-01-10 04:00","2019","01","10","04:00","1.9","","","M","","M","","M","22","","34","","","","98.65","","","","","","NA"
"-63.53","44.60","MCNABS ISLAND (AUT)","8203478","2019-01-10 05:00","2019","01","10","05:00","1.4","","","M","","M","","M","22","","24","","","","98.71","","","","","","NA"
"-63.53","44.60","MCNABS ISLAND (AUT)","8203478","2019-01-10 06:00","2019","01","10","06:00","1.3","","","M","","M","","M","23","","26","","","","98.74","","","","","","NA"
"-63.53","44.60","MCNABS ISLAND (AUT)","8203478","2019-01-10 07:00","2019","01","10","07:00","1.5","","","M","","M","","M","23","","27","","","","98.80","","","","","","NA"
"-63.53","44.60","MCNABS ISLAND (AUT)","8203478","2019-01-10 08:00","2019","01","10","08:00","1.7","","","M","","M","","M","23","","33","","","","98.86","","","","","","NA"
"-63.53","44.60","MCNABS ISLAND (AUT)","8203478","2019-01-10 09:00","2019","01","10","09:00","1.8","","","M","","M","","M","24","","28","","","","98.94","","","","","","NA"
"-63.53","44.60","MCNABS ISLAND (AUT)","8203478","2019-01-10 10:00","2019","01","10","10:00","1.9","","","M","","M","","M","23","","30","","","","99.00","","","","","","NA"
"-63.53","44.60","MCNABS ISLAND (AUT)","8203478","2019-01-10 11:00","2019","01","10","11:00","2.0","","","M","","M","","M","23","","33","","","","99.02","","","","","","NA"
"-63.53","44.60","MCNABS ISLAND (AUT)","8203478","2019-01-10 12:00","2019","01","10","12:00","2.2","","","M","","M","","M","24","","27","","","","98.96","","","","","","NA"
"-63.53","44.60","MCNABS ISLAND (AUT)","8203478","2019-01-10 13:00","2019","01","10","13:00","1.9","","","M","","M","","M","22","","32","","","","98.98","","","","","","NA"
"-63.53","44.60","MCNABS ISLAND (AUT)","8203478","2019-01-10 14:00","2019","01","10","14:00","2.5","","","M","","M","","M","23","","27","","","","98.97","","","","","","NA"
"-63.53","44.60","MCNABS ISLAND (AUT)","8203478","2019-01-10 15:00","2019","01","10","15:00","2.9","","","M","","M","","M","22","","28","","","","99.02","","","","","","NA"
"-63.53","44.60","MCNABS ISLAND (AUT)","8203478","2019-01-10 16:00","2019","01","10","16:00","2.2","","","M","","M","","M","23","","26","","","","99.07","","","","","","NA"
"-63.53","44.60","MCNABS ISLAND (AUT)","8203478","2019-01-10 17:00","2019","01","10","17:00","1.5","","","M","","M","","M","22","","17","","","","99.09","","","","","","NA"
"-63.53","44.60","MCNABS ISLAND (AUT)","8203478","2019-01-10 18:00","2019","01","10","18:00","1.3","","","M","","M","","M","22","","16","","","","99.13","","","","","","NA"
"-63.53","44.60","MCNABS ISLAND (AUT)","8203478","2019-01-10 19:00","2019","01","10","19:00","1.3","","","M","","M","","M","25","","14","","","","99.19","","","","","","NA"
"-63.53","44.60","MCNABS ISLAND (AUT)","8203478","2019-01-10 20:00","2019","01","10","20:00","0.6","","","M","","M","","M","27","","10","","","","99.22","","","","","","NA"
"-63.53","44.60","MCNABS ISLAND (AUT)","8203478","2019-01-10 21:00","2019","01","10","21:00","-0.1","","","M","","M","","M","27","","17","","","","99.28","","","","-5","","NA"
"-63.53","44.60","MCNABS ISLAND (AUT)","8203478","2019-01-10 22:00","2019","01","10","22:00","-0.5","","","M","","M","","M","27","","12","","","","99.31","","","","-4","","NA"
"-63.53","44.60","MCNABS ISLAND (AUT)","8203478","2019-01-10 23:00","2019","01","10","23:00","-0.5","","","M","","M","","M","22","","15","","","","99.33","","","","-5","","NA"
"-63.53","44.60","MCNABS ISLAND (AUT)","8203478","2019-01-11 00:00","2019","01","11","00:00","-0.6","","","M","","M","","M","24","","21","","","","99.34","","","","-6","","NA"
"-63.53","44.60","MCNABS ISLAND (AUT)","8203478","2019-01-11 01:00","2019","01","11","01:00","-0.8","","","M","","M","","M","25","","20","","","","99.37","","","","-6","","NA"
"-63.53","44.60","MCNABS ISLAND (AUT)","8203478","2019-01-11 02:00","2019","01","11","02:00","-1.1","","","M","","M","","M","25","","21","","","","99.45","","","","-7","","NA"
"-63.53","44.60","MCNABS ISLAND (AUT)","8203478","2019-01-11 03:00","2019","01","11","03:00","-1.4","","","M","","M","","M","26","","24","","","","99.52","","","","-8","","NA"
"-63.53","44.60","MCNABS ISLAND (AUT)","8203478","2019-01-11 04:00","2019","01","11","04:00","-1.6","","","M","","M","","M","26","","25","","","","99.58","","","","-8","","NA"
"-63.53","44.60","MCNABS ISLAND (AUT)","8203478","2019-01-11 05:00","2019","01","11","05:00","-1.6","","","M","","M","","M","27","","19","","","","99.68","","","","-7","","NA"
"-63.53","44.60","MCNABS ISLAND (AUT)","8203478","2019-01-11 06:00","2019","01","11","06:00","-1.5","","","M","","M","","M","27","","15","","","","99.77","","","","-6","","NA"
"-63.53","44.60","MCNABS ISLAND (AUT)","8203478","2019-01-11 07:00","2019","01","11","07:00","-1.7","","","M","","M","","M","27","","16","","","","99.88","","","","-7","","NA"
"-63.53","44.60","MCNABS ISLAND (AUT)","8203478","2019-01-11 08:00","2019","01","11","08:00","-1.9","","","M","","M","","M","28","","16","","","","100.03","","","","-7","","NA"
"-63.53","44.60","MCNABS ISLAND (AUT)","8203478","2019-01-11 09:00","2019","01","11","09:00","-2.0","","","M","","M","","M","27","","13","","","","100.17","","","","-6","","NA"
"-63.53","44.60","MCNABS ISLAND (AUT)","8203478","2019-01-11 10:00","2019","01","11","10:00","-2.2","","","M","","M","","M","28","","13","","","","100.27","","","","-7","","NA"
"-63.53","44.60","MCNABS ISLAND (AUT)","8203478","2019-01-11 11:00","2019","01","11","11:00","-2.4","","","M","","M","","M","26","","25","","","","100.32","","","","-9","","NA"
"-63.53","44.60","MCNABS ISLAND (AUT)","8203478","2019-01-11 12:00","2019","01","11","12:00","-2.6","","","M","","M","","M","25","","31","","","","100.31","","","","-10","","NA"
"-63.53","44.60","MCNABS ISLAND (AUT)","8203478","2019-01-11 13:00","2019","01","11","13:00","-3.0","","","M","","M","","M","26","","28","","","","100.37","","","","-10","","NA"
"-63.53","44.60","MCNABS ISLAND (AUT)","8203478","2019-01-11 14:00","2019","01","11","14:00","-3.0","","","M","","M","","M","26","","34","","","","100.42","","","","-11","","NA"
"-63.53","44.60","MCNABS ISLAND (AUT)","8203478","2019-01-11 15:00","2019","01","11","15:00","-3.2","","","M","","M","","M","26","","30","","","","100.54","","","","-11","","NA"
"-63.53","44.60","MCNABS ISLAND (AUT)","8203478","2019-01-11 16:00","2019","01","11","16:00","-4.1","","","M","","M","","M","26","","34","","","","100.65","","","","-12","","NA"
"-63.53","44.60","MCNABS ISLAND (AUT)","8203478","2019-01-11 17:00","2019","01","11","17:00","-4.8","","","M","","M","","M","27","","32","","","","100.76","","","","-13","","NA"
"-63.53","44.60","MCNABS ISLAND (AUT)","8203478","2019-01-11 18:00","2019","01","11","18:00","-5.2","","","M","","M","","M","28","","17","","","","100.88","","","","-11","","NA"
"-63.53","44.60","MCNABS ISLAND (AUT)","8203478","2019-01-11 19:00","2019","01","11","19:00","-5.6","","","M","","M","","M","27","","23","","","","100.95","","","","-13","","NA"
"-63.53","44.60","MCNABS ISLAND (AUT)","8203478","2019-01-11 20:00","2019","01","11","20:00","-5.5","","","M","","M","","M","28","","16","","","","101.07","","","","-11","","NA"
"-63.53","44.60","MCNABS ISLAND (AUT)","8203478","2019-01-11 21:00","2019","01","11","21:00","-6.0","","","M","","M","","M","27","","29","","","","101.17","","","","-14","","NA"
"-63.53","44.60","MCNABS ISLAND (AUT)","8203478","2019-01-11 22:00","2019","01","11","22:00","-5.9","","","M","","M","","M","27","","17","","","","101.21","","","","-12","","NA"
"-63.53","44.60","MCNABS ISLAND (AUT)","8203478","2019-01-11 23:00","2019","01","11","23:00","-6.6","","","M","","M","","M","30","","19","","","","101.23","","","","-13","","NA"
"-63.53","44.60","MCNABS ISLAND (AUT)","8203478","2019-01-12 00:00","2019","01","12","00:00","-7.1","","","M","","M","","M","28","","15","","","","101.29","","","","-13","","NA"
"-63.53","44.60","MCNABS ISLAND (AUT)","8203478","2019-01-12 01:00","2019","01","12","01:00","-7.5","","","M","","M","","M","28","","14","","","","101.37","","","","-13","","NA"
"-63.53","44.60","MCNABS ISLAND (AUT)","8203478","2019-01-12 02:00","2019","01","12","02:00","-7.9","","","M","","M","","M","28","","17","","","","101.48","","","","-15","","NA"
"-63.53","44.60","MCNABS ISLAND (AUT)","8203478","2019-01-12 03:00","2019","01","12","03:00","-9.3","","","M","","M","","M","28","","19","","","","101.60","","","","-17","","NA"
"-63.53","44.60","MCNABS ISLAND (AUT)","8203478","2019-01-12 04:00","2019","01","12","04:00","-9.9","","","M","","M","","M","28","","15","","","","101.61","","","","-17","","NA"
"-63.53","44.60","MCNABS ISLAND (AUT)","8203478","2019-01-12 05:00","2019","01","12","05:00","-10.1","","","M","","M","","M","28","","15","","","","101.64","","","","-17","","NA"
"-63.53","44.60","MCNABS ISLAND (AUT)","8203478","2019-01-12 06:00","2019","01","12","06:00","-10.3","","","M","","M","","M","27","","11","","","","101.67","","","","-16","","NA"
"-63.53","44.60","MCNABS ISLAND (AUT)","8203478","2019-01-12 07:00","2019","01","12","07:00","-10.6","","","M","","M","","M","27","","15","","","","101.74","","","","-17","","NA"
"-63.53","44.60","MCNABS ISLAND (AUT)","8203478","2019-01-12 08:00","2019","01","12","08:00","-10.1","","","M","","M","","M","28","","8","","","","101.78","","","","-15","","NA"
"-63.53","44.60","MCNABS ISLAND (AUT)","8203478","2019-01-12 09:00","2019","01","12","09:00","-8.7","","","M","","M","","M","27","","21","","","","101.82","","","","-16","","NA"
"-63.53","44.60","MCNABS ISLAND (AUT)","8203478","2019-01-12 10:00","2019","01","12","10:00","-7.9","","","M","","M","","M","27","","23","","","","101.84","","","","-16","","NA"
"-63.53","44.60","MCNABS ISLAND (AUT)","8203478","2019-01-12 11:00","2019","01","12","11:00","-7.7","","","M","","M","","M","27","","23","","","","101.84","","","","-15","","NA"
"-63.53","44.60","MCNABS ISLAND (AUT)","8203478","2019-01-12 12:00","2019","01","12","12:00","-7.8","","","M","","M","","M","26","","28","","","","101.80","","","","-16","","NA"
"-63.53","44.60","MCNABS ISLAND (AUT)","8203478","2019-01-12 13:00","2019","01","12","13:00","-6.2","","","M","","M","","M","27","","22","","","","101.75","","","","-13","","NA"
"-63.53","44.60","MCNABS ISLAND (AUT)","8203478","2019-01-12 14:00","2019","01","12","14:00","-6.8","","","M","","M","","M","28","","17","","","","101.76","","","","-13","","NA"
"-63.53","44.60","MCNABS ISLAND (AUT)","8203478","2019-01-12 15:00","2019","01","12","15:00","-6.1","","","M","","M","","M","26","","29","","","","101.79","","","","-14","","NA"
"-63.53","44.60","MCNABS ISLAND (AUT)","8203478","2019-01-12 16:00","2019","01","12","16:00","-7.3","","","M","","M","","M","29","","16","","","","101.86","","","","-14","","NA"
"-63.53","44.60","MCNABS ISLAND (AUT)","8203478","2019-01-12 17:00","2019","01","12","17:00","-8.6","","","M","","M","","M","28","","16","","","","101.94","","","","-15","","NA"
"-63.53","44.60","MCNABS ISLAND (AUT)","8203478","2019-01-12 18:00","2019","01","12","18:00","-8.7","","","M","","M","","M","30","","15","","","","102.04","","","","-15","","NA"
"-63.53","44.60","MCNABS ISLAND (AUT)","8203478","2019-01-12 19:00","2019","01","12","19:00","-8.9","","","M","","M","","M","29","","15","","","","102.12","","","","-15","","NA"
"-63.53","44.60","MCNABS ISLAND (AUT)","8203478","2019-01-12 20:00","2019","01","12","20:00","-9.2","","","M","","M","","M","29","","14","","","","102.19","","","","-16","","NA"
"-63.53","44.60","MCNABS ISLAND (AUT)","8203478","2019-01-12 21:00","2019","01","12","21:00","-9.3","","","M","","M","","M","30","","18","","","","102.24","","","","-17","","NA"
"-63.53","44.60","MCNABS ISLAND (AUT)","8203478","2019-01-12 22:00","2019","01","12","22:00","-9.4","","","M","","M","","M","29","","17","","","","102.29","","","","-16","","NA"
"-63.53","44.60","MCNABS ISLAND (AUT)","8203478","2019-01-12 23:00","2019","01","12","23:00","-9.5","","","M","","M","","M","30","","15","","","","102.29","","","","-16","","NA"
"-63.53","44.60","MCNABS ISLAND (AUT)","8203478","2019-01-13 00:00","2019","01","13","00:00","-9.3","","","M","","M","","M","29","","14","","","","102.27","","","","-16","","NA"
"-63.53","44.60","MCNABS ISLAND (AUT)","8203478","2019-01-13 01:00","2019","01","13","01:00","-9.9","","","M","","M","","M","28","","11","","","","102.30","","","","-15","","NA"
"-63.53","44.60","MCNABS ISLAND (AUT)","8203478","2019-01-13 02:00","2019","01","13","02:00","-10.1","","","M","","M","","M","27","","11","","","","102.36","","","","-16","","NA"
"-63.53","44.60","MCNABS ISLAND (AUT)","8203478","2019-01-13 03:00","2019","01","13","03:00","-10.0","","","M","","M","","M","28","","10","","","","102.40","","","","-15","","NA"
"-63.53","44.60","MCNABS ISLAND (AUT)","8203478","2019-01-13 04:00","2019","01","13","04:00","-9.7","","","M","","M","","M","28","","10","","","","102.38","","","","-15","","NA"
"-63.53","44.60","MCNABS ISLAND (AUT)","8203478","2019-01-13 05:00","2019","01","13","05:00","-10.1","","","M","","M","","M","28","","11","","","","102.42","","","","-16","","NA"
"-63.53","44.60","MCNABS ISLAND (AUT)","8203478","2019-01-13 06:00","2019","01","13","06:00","-10.3","","","M","","M","","M","28","","10","","","","102.42","","","","-16","","NA"
"-63.53","44.60","MCNABS ISLAND (AUT)","8203478","2019-01-13 07:00","2019","01","13","07:00","-10.5","","","M","","M","","M","30","","9","","","","102.42","","","","-15","","NA"
"-63.53","44.60","MCNABS ISLAND (AUT)","8203478","2019-01-13 08:00","2019","01","13","08:00","-10.7","","","M","","M","","M","27","","9","","","","102.47","","","","-16","","NA"
"-63.53","44.60","MCNABS ISLAND (AUT)","8203478","2019-01-13 09:00","2019","01","13","09:00","-8.6","","","M","","M","","M","28","","8","","","","102.51","","","","-13","","NA"
"-63.53","44.60","MCNABS ISLAND (AUT)","8203478","2019-01-13 10:00","2019","01","13","10:00","-8.3","","","M","","M","","M","30","","12","","","","102.56","","","","-14","","NA"
"-63.53","44.60","MCNABS ISLAND (AUT)","8203478","2019-01-13 11:00","2019","01","13","11:00","-6.7","","","M","","M","","M","30","","10","","","","102.53","","","","-11","","NA"
"-63.53","44.60","MCNABS ISLAND (AUT)","8203478","2019-01-13 12:00","2019","01","13","12:00","-5.1","","","M","","M","","M","35","","8","","","","102.40","","","","-9","","NA"
"-63.53","44.60","MCNABS ISLAND (AUT)","8203478","2019-01-13 13:00","2019","01","13","13:00","-4.0","","","M","","M","","M","31","","9","","","","102.36","","","","-8","","NA"
"-63.53","44.60","MCNABS ISLAND (AUT)","8203478","2019-01-13 14:00","2019","01","13","14:00","-2.4","","","M","","M","","M","31","","6","","","","102.34","","","","-5","","NA"
"-63.53","44.60","MCNABS ISLAND (AUT)","8203478","2019-01-13 15:00","2019","01","13","15:00","-1.4","","","M","","M","","M","28","","10","","","","102.34","","","","-5","","NA"
"-63.53","44.60","MCNABS ISLAND (AUT)","8203478","2019-01-13 16:00","2019","01","13","16:00","-1.8","","","M","","M","","M","28","","10","","","","102.36","","","","-5","","NA"
"-63.53","44.60","MCNABS ISLAND (AUT)","8203478","2019-01-13 17:00","2019","01","13","17:00","-3.6","","","M","","M","","M","30","","11","","","","102.39","","","","-8","","NA"
"-63.53","44.60","MCNABS ISLAND (AUT)","8203478","2019-01-13 18:00","2019","01","13","18:00","-4.6","","","M","","M","","M","29","","10","","","","102.45","","","","-9","","NA"
"-63.53","44.60","MCNABS ISLAND (AUT)","8203478","2019-01-13 19:00","2019","01","13","19:00","-5.6","","","M","","M","","M","31","","10","","","","102.51","","","","-10","","NA"
"-63.53","44.60","MCNABS ISLAND (AUT)","8203478","2019-01-13 20:00","2019","01","13","20:00","-6.2","","","M","","M","","M","28","","9","","","","102.51","","","","-10","","NA"
"-63.53","44.60","MCNABS ISLAND (AUT)","8203478","2019-01-13 21:00","2019","01","13","21:00","-7.2","","","M","","M","","M","33","","12","","","","102.54","","","","-13","","NA"
"-63.53","44.60","MCNABS ISLAND (AUT)","8203478","2019-01-13 22:00","2019","01","13","22:00","-9.3","","","M","","M","","M","36","","10","","","","102.61","","","","-14","","NA"
"-63.53","44.60","MCNABS ISLAND (AUT)","8203478","2019-01-13 23:00","2019","01","13","23:00","-10.7","","","M","","M","","M","3","","6","","","","102.64","","","","-14","","NA"
"-63.53","44.60","MCNABS ISLAND (AUT)","8203478","2019-01-14 00:00","2019","01","14","00:00","-11.2","","","M","","M","","M","2","","5","","","","102.59","","","","-14","","NA"
"-63.53","44.60","MCNABS ISLAND (AUT)","8203478","2019-01-14 01:00","2019","01","14","01:00","-11.9","","","M","","M","","M","5","","7","","","","102.57","","","","-16","","NA"
"-63.53","44.60","MCNABS ISLAND (AUT)","8203478","2019-01-14 02:00","2019","01","14","02:00","-11.2","","","M","","M","","M","2","","7","","","","102.58","","","","-15","","NA"
"-63.53","44.60","MCNABS ISLAND (AUT)","8203478","2019-01-14 03:00","2019","01","14","03:00","-9.6","","","M","","M","","M","25","","9","","","","102.67","","","","-14","","NA"
"-63.53","44.60","MCNABS ISLAND (AUT)","8203478","2019-01-14 04:00","2019","01","14","04:00","-11.7","","","M","","M","","M","4","","7","","","","102.58","","","","-16","","NA"
"-63.53","44.60","MCNABS ISLAND (AUT)","8203478","2019-01-14 05:00","2019","01","14","05:00","-12.0","","","M","","M","","M","6","","5","","","","102.48","","","","-15","","NA"
"-63.53","44.60","MCNABS ISLAND (AUT)","8203478","2019-01-14 06:00","2019","01","14","06:00","-11.9","","","M","","M","","M","5","","4","","","","102.49","","","","-14","","NA"
"-63.53","44.60","MCNABS ISLAND (AUT)","8203478","2019-01-14 07:00","2019","01","14","07:00","-11.5","","","M","","M","","M","2","","8","","","","102.39","","","","-16","","NA"
"-63.53","44.60","MCNABS ISLAND (AUT)","8203478","2019-01-14 08:00","2019","01","14","08:00","-12.0","","","M","","M","","M","9","","5","","","","102.46","","","","-15","","NA"
"-63.53","44.60","MCNABS ISLAND (AUT)","8203478","2019-01-14 09:00","2019","01","14","09:00","-10.3","","","M","","M","","M","5","","7","","","","102.46","","","","-14","","NA"
"-63.53","44.60","MCNABS ISLAND (AUT)","8203478","2019-01-14 10:00","2019","01","14","10:00","-9.0","","","M","","M","","M","6","","7","","","","102.46","","","","-13","","NA"
"-63.53","44.60","MCNABS ISLAND (AUT)","8203478","2019-01-14 11:00","2019","01","14","11:00","-7.7","","","M","","M","","M","5","","6","","","","102.39","","","","-11","","NA"
"-63.53","44.60","MCNABS ISLAND (AUT)","8203478","2019-01-14 12:00","2019","01","14","12:00","-6.6","","","M","","M","","M","18","","6","","","","102.29","","","","-10","","NA"
"-63.53","44.60","MCNABS ISLAND (AUT)","8203478","2019-01-14 13:00","2019","01","14","13:00","-6.6","","","M","","M","","M","15","","10","","","","102.17","","","","-11","","NA"
"-63.53","44.60","MCNABS ISLAND (AUT)","8203478","2019-01-14 14:00","2019","01","14","14:00","-5.8","","","M","","M","","M","9","","4","","","","102.06","","","","-8","","NA"
"-63.53","44.60","MCNABS ISLAND (AUT)","8203478","2019-01-14 15:00","2019","01","14","15:00","-5.6","","","M","","M","","M","5","","8","","","","101.96","","","","-9","","NA"
"-63.53","44.60","MCNABS ISLAND (AUT)","8203478","2019-01-14 16:00","2019","01","14","16:00","-5.3","","","M","","M","","M","6","","8","","","","101.90","","","","-9","","NA"
"-63.53","44.60","MCNABS ISLAND (AUT)","8203478","2019-01-14 17:00","2019","01","14","17:00","-6.5","","","M","","M","","M","3","","7","","","","101.78","","","","-10","","NA"
"-63.53","44.60","MCNABS ISLAND (AUT)","8203478","2019-01-14 18:00","2019","01","14","18:00","-7.2","","","M","","M","","M","10","","4","","","","101.76","","","","-9","","NA"
"-63.53","44.60","MCNABS ISLAND (AUT)","8203478","2019-01-14 19:00","2019","01","14","19:00","-7.7","","","M","","M","","M","4","","5","","","","101.69","","","","-10","","NA"
"-63.53","44.60","MCNABS ISLAND (AUT)","8203478","2019-01-14 20:00","2019","01","14","20:00","-7.8","","","M","","M","","M","4","","9","","","","101.61","","","","-12","","NA"
"-63.53","44.60","MCNABS ISLAND (AUT)","8203478","2019-01-14 21:00","2019","01","14","21:00","-7.3","","","M","","M","","M","1","","10","","","","101.47","","","","-12","","NA"
"-63.53","44.60","MCNABS ISLAND (AUT)","8203478","2019-01-14 22:00","2019","01","14","22:00","-7.7","","","M","","M","","M","1","","9","","","","101.36","","","","-12","","NA"
"-63.53","44.60","MCNABS ISLAND (AUT)","8203478","2019-01-14 23:00","2019","01","14","23:00","-7.7","","","M","","M","","M","1","","12","","","","101.24","","","","-13","","NA"
"-63.53","44.60","MCNABS ISLAND (AUT)","8203478","2019-01-15 00:00","2019","01","15","00:00","-8.2","","","M","","M","","M","1","","11","","","","101.19","","","","-13","","NA"
"-63.53","44.60","MCNABS ISLAND (AUT)","8203478","2019-01-15 01:00","2019","01","15","01:00","-8.0","","","M","","M","","M","36","","10","","","","101.02","","","","-13","","NA"
"-63.53","44.60","MCNABS ISLAND (AUT)","8203478","2019-01-15 02:00","2019","01","15","02:00","-7.5","","","M","","M","","M","36","","12","","","","100.98","","","","-13","","NA"
"-63.53","44.60","MCNABS ISLAND (AUT)","8203478","2019-01-15 03:00","2019","01","15","03:00","-7.6","","","M","","M","","M","34","","15","","","","100.92","","","","-14","","NA"
"-63.53","44.60","MCNABS ISLAND (AUT)","8203478","2019-01-15 04:00","2019","01","15","04:00","-7.3","","","M","","M","","M","35","","12","","","","100.85","","","","-13","","NA"
"-63.53","44.60","MCNABS ISLAND (AUT)","8203478","2019-01-15 05:00","2019","01","15","05:00","-8.2","","","M","","M","","M","34","","15","","","","100.75","","","","-15","","NA"
"-63.53","44.60","MCNABS ISLAND (AUT)","8203478","2019-01-15 06:00","2019","01","15","06:00","-8.4","","","M","","M","","M","33","","20","","","","100.70","","","","-16","","NA"
"-63.53","44.60","MCNABS ISLAND (AUT)","8203478","2019-01-15 07:00","2019","01","15","07:00","-8.6","","","M","","M","","M","33","","18","","","","100.70","","","","-16","","NA"
"-63.53","44.60","MCNABS ISLAND (AUT)","8203478","2019-01-15 08:00","2019","01","15","08:00","-8.5","","","M","","M","","M","34","","18","","","","100.71","","","","-16","","NA"
"-63.53","44.60","MCNABS ISLAND (AUT)","8203478","2019-01-15 09:00","2019","01","15","09:00","-7.5","","","M","","M","","M","33","","17","","","","100.76","","","","-14","","NA"
"-63.53","44.60","MCNABS ISLAND (AUT)","8203478","2019-01-15 10:00","2019","01","15","10:00","-5.5","","","M","","M","","M","34","","14","","","","100.82","","","","-11","","NA"
"-63.53","44.60","MCNABS ISLAND (AUT)","8203478","2019-01-15 11:00","2019","01","15","11:00","-4.6","","","M","","M","","M","34","","18","","","","100.84","","","","-11","","NA"
"-63.53","44.60","MCNABS ISLAND (AUT)","8203478","2019-01-15 12:00","2019","01","15","12:00","-2.9","","","M","","M","","M","34","","14","","","","100.76","","","","-8","","NA"
"-63.53","44.60","MCNABS ISLAND (AUT)","8203478","2019-01-15 13:00","2019","01","15","13:00","-1.4","","","M","","M","","M","33","","13","","","","100.73","","","","-6","","NA"
"-63.53","44.60","MCNABS ISLAND (AUT)","8203478","2019-01-15 14:00","2019","01","15","14:00","-1.1","","","M","","M","","M","33","","18","","","","100.80","","","","-6","","NA"
"-63.53","44.60","MCNABS ISLAND (AUT)","8203478","2019-01-15 15:00","2019","01","15","15:00","-1.9","","","M","","M","","M","34","","16","","","","100.89","","","","-7","","NA"
"-63.53","44.60","MCNABS ISLAND (AUT)","8203478","2019-01-15 16:00","2019","01","15","16:00","-2.7","","","M","","M","","M","33","","18","","","","101.01","","","","-8","","NA"
"-63.53","44.60","MCNABS ISLAND (AUT)","8203478","2019-01-15 17:00","2019","01","15","17:00","-3.8","","","M","","M","","M","33","","16","","","","101.11","","","","-9","","NA"
"-63.53","44.60","MCNABS ISLAND (AUT)","8203478","2019-01-15 18:00","2019","01","15","18:00","-3.7","","","M","","M","","M","33","","12","","","","101.23","","","","-8","","NA"
"-63.53","44.60","MCNABS ISLAND (AUT)","8203478","2019-01-15 19:00","2019","01","15","19:00","-3.6","","","M","","M","","M","33","","12","","","","101.29","","","","-8","","NA"
"-63.53","44.60","MCNABS ISLAND (AUT)","8203478","2019-01-15 20:00","2019","01","15","20:00","-3.8","","","M","","M","","M","33","","13","","","","101.36","","","","-9","","NA"
"-63.53","44.60","MCNABS ISLAND (AUT)","8203478","2019-01-15 21:00","2019","01","15","21:00","-3.8","","","M","","M","","M","33","","13","","","","101.45","","","","-9","","NA"
"-63.53","44.60","MCNABS ISLAND (AUT)","8203478","2019-01-15 22:00","2019","01","15","22:00","-4.7","","","M","","M","","M","34","","10","","","","101.51","","","","-9","","NA"
"-63.53","44.60","MCNABS ISLAND (AUT)","8203478","2019-01-15 23:00","2019","01","15","23:00","-5.4","","","M","","M","","M","35","","7","","","","101.55","","","","-9","","NA"
"-63.53","44.60","MCNABS ISLAND (AUT)","8203478","2019-01-16 00:00","2019","01","16","00:00","-6.2","","","M","","M","","M","36","","6","","","","101.55","","","","-9","","NA"
"-63.53","44.60","MCNABS ISLAND (AUT)","8203478","2019-01-16 01:00","2019","01","16","01:00","-6.0","","","M","","M","","M","35","","3","","","","101.55","","","","-7","","NA"
"-63.53","44.60","MCNABS ISLAND (AUT)","8203478","2019-01-16 02:00","2019","01","16","02:00","-5.8","","","M","","M","","M","26","","5","","","","101.61","","","","-8","","NA"
"-63.53","44.60","MCNABS ISLAND (AUT)","8203478","2019-01-16 03:00","2019","01","16","03:00","-6.2","","","M","","M","","M","","","0","","","","101.64","","","","","","NA"
"-63.53","44.60","MCNABS ISLAND (AUT)","8203478","2019-01-16 04:00","2019","01","16","04:00","-6.8","","","M","","M","","M","14","","1","","","","101.59","","","","-7","","NA"
"-63.53","44.60","MCNABS ISLAND (AUT)","8203478","2019-01-16 05:00","2019","01","16","05:00","-5.8","","","M","","M","","M","0","","1","","","","101.58","","","","-6","","NA"
"-63.53","44.60","MCNABS ISLAND (AUT)","8203478","2019-01-16 06:00","2019","01","16","06:00","-5.5","","","M","","M","","M","34","","4","","","","101.57","","","","-7","","NA"
"-63.53","44.60","MCNABS ISLAND (AUT)","8203478","2019-01-16 07:00","2019","01","16","07:00","-5.2","","","M","","M","","M","32","","2","","","","101.61","","","","-6","","NA"
"-63.53","44.60","MCNABS ISLAND (AUT)","8203478","2019-01-16 08:00","2019","01","16","08:00","-5.3","","","M","","M","","M","9","","2","","","","101.61","","","","-6","","NA"
"-63.53","44.60","MCNABS ISLAND (AUT)","8203478","2019-01-16 09:00","2019","01","16","09:00","-4.3","","","M","","M","","M","5","","1","","","","101.64","","","","-5","","NA"
"-63.53","44.60","MCNABS ISLAND (AUT)","8203478","2019-01-16 10:00","2019","01","16","10:00","-2.8","","","M","","M","","M","28","","4","","","","101.68","","","","-4","","NA"
"-63.53","44.60","MCNABS ISLAND (AUT)","8203478","2019-01-16 11:00","2019","01","16","11:00","-2.1","","","M","","M","","M","28","","2","","","","101.63","","","","-3","","NA"
"-63.53","44.60","MCNABS ISLAND (AUT)","8203478","2019-01-16 12:00","2019","01","16","12:00","-0.2","","","M","","M","","M","14","","6","","","","101.51","","","","-2","","NA"
"-63.53","44.60","MCNABS ISLAND (AUT)","8203478","2019-01-16 13:00","2019","01","16","13:00","-0.5","","","M","","M","","M","21","","23","","","","101.39","","","","-6","","NA"
"-63.53","44.60","MCNABS ISLAND (AUT)","8203478","2019-01-16 14:00","2019","01","16","14:00","-0.1","","","M","","M","","M","20","","22","","","","101.33","","","","-6","","NA"
"-63.53","44.60","MCNABS ISLAND (AUT)","8203478","2019-01-16 15:00","2019","01","16","15:00","-0.1","","","M","","M","","M","20","","28","","","","101.26","","","","-6","","NA"
"-63.53","44.60","MCNABS ISLAND (AUT)","8203478","2019-01-16 16:00","2019","01","16","16:00","0.4","","","M","","M","","M","20","","27","","","","101.20","","","","","","NA"
"-63.53","44.60","MCNABS ISLAND (AUT)","8203478","2019-01-16 17:00","2019","01","16","17:00","0.5","","","M","","M","","M","18","","28","","","","101.11","","","","","","NA"
"-63.53","44.60","MCNABS ISLAND (AUT)","8203478","2019-01-16 18:00","2019","01","16","18:00","0.6","","","M","","M","","M","18","","31","","","","101.04","","","","","","NA"
"-63.53","44.60","MCNABS ISLAND (AUT)","8203478","2019-01-16 19:00","2019","01","16","19:00","1.0","","","M","","M","","M","18","","27","","","","101.03","","","","","","NA"
"-63.53","44.60","MCNABS ISLAND (AUT)","8203478","2019-01-16 20:00","2019","01","16","20:00","1.5","","","M","","M","","M","18","","28","","","","100.97","","","","","","NA"
"-63.53","44.60","MCNABS ISLAND (AUT)","8203478","2019-01-16 21:00","2019","01","16","21:00","2.3","","","M","","M","","M","21","","25","","","","100.92","","","","","","NA"
"-63.53","44.60","MCNABS ISLAND (AUT)","8203478","2019-01-16 22:00","2019","01","16","22:00","2.1","","","M","","M","","M","21","","27","","","","100.87","","","","","","NA"
"-63.53","44.60","MCNABS ISLAND (AUT)","8203478","2019-01-16 23:00","2019","01","16","23:00","1.8","","","M","","M","","M","24","","28","","","","100.89","","","","","","NA"
"-63.53","44.60","MCNABS ISLAND (AUT)","8203478","2019-01-17 00:00","2019","01","17","00:00","1.0","","","M","","M","","M","26","","27","","","","100.91","","","","","","NA"
"-63.53","44.60","MCNABS ISLAND (AUT)","8203478","2019-01-17 01:00","2019","01","17","01:00","0.2","","","M","","M","","M","25","","21","","","","100.92","","","","","","NA"
"-63.53","44.60","MCNABS ISLAND (AUT)","8203478","2019-01-17 02:00","2019","01","17","02:00","0.0","","","M","","M","","M","25","","19","","","","100.94","","","","-5","","NA"
"-63.53","44.60","MCNABS ISLAND (AUT)","8203478","2019-01-17 03:00","2019","01","17","03:00","-0.1","","","M","","M","","M","28","","12","","","","101.04","","","","-4","","NA"
"-63.53","44.60","MCNABS ISLAND (AUT)","8203478","2019-01-17 04:00","2019","01","17","04:00","-0.7","","","M","","M","","M","29","","18","","","","101.09","","","","-6","","NA"
"-63.53","44.60","MCNABS ISLAND (AUT)","8203478","2019-01-17 05:00","2019","01","17","05:00","-2.0","","","M","","M","","M","29","","22","","","","101.22","","","","-8","","NA"
"-63.53","44.60","MCNABS ISLAND (AUT)","8203478","2019-01-17 06:00","2019","01","17","06:00","-3.8","","","M","","M","","M","29","","21","","","","101.35","","","","-10","","NA"
"-63.53","44.60","MCNABS ISLAND (AUT)","8203478","2019-01-17 07:00","2019","01","17","07:00","-5.5","","","M","","M","","M","29","","18","","","","101.54","","","","-12","","NA"
"-63.53","44.60","MCNABS ISLAND (AUT)","8203478","2019-01-17 08:00","2019","01","17","08:00","-6.5","","","M","","M","","M","30","","16","","","","101.67","","","","-13","","NA"
"-63.53","44.60","MCNABS ISLAND (AUT)","8203478","2019-01-17 09:00","2019","01","17","09:00","-7.4","","","M","","M","","M","32","","17","","","","101.79","","","","-14","","NA"
"-63.53","44.60","MCNABS ISLAND (AUT)","8203478","2019-01-17 10:00","2019","01","17","10:00","-6.5","","","M","","M","","M","32","","14","","","","101.92","","","","-12","","NA"
"-63.53","44.60","MCNABS ISLAND (AUT)","8203478","2019-01-17 11:00","2019","01","17","11:00","-6.4","","","M","","M","","M","31","","17","","","","102.02","","","","-13","","NA"
"-63.53","44.60","MCNABS ISLAND (AUT)","8203478","2019-01-17 12:00","2019","01","17","12:00","-6.2","","","M","","M","","M","30","","22","","","","102.02","","","","-13","","NA"
"-63.53","44.60","MCNABS ISLAND (AUT)","8203478","2019-01-17 13:00","2019","01","17","13:00","-5.3","","","M","","M","","M","29","","17","","","","102.00","","","","-11","","NA"
"-63.53","44.60","MCNABS ISLAND (AUT)","8203478","2019-01-17 14:00","2019","01","17","14:00","-5.7","","","M","","M","","M","32","","13","","","","102.05","","","","-11","","NA"
"-63.53","44.60","MCNABS ISLAND (AUT)","8203478","2019-01-17 15:00","2019","01","17","15:00","-6.3","","","M","","M","","M","33","","14","","","","102.16","","","","-12","","NA"
"-63.53","44.60","MCNABS ISLAND (AUT)","8203478","2019-01-17 16:00","2019","01","17","16:00","-7.2","","","M","","M","","M","33","","12","","","","102.27","","","","-13","","NA"
"-63.53","44.60","MCNABS ISLAND (AUT)","8203478","2019-01-17 17:00","2019","01","17","17:00","-8.5","","","M","","M","","M","32","","14","","","","102.34","","","","-15","","NA"
"-63.53","44.60","MCNABS ISLAND (AUT)","8203478","2019-01-17 18:00","2019","01","17","18:00","-9.1","","","M","","M","","M","32","","13","","","","102.43","","","","-15","","NA"
"-63.53","44.60","MCNABS ISLAND (AUT)","8203478","2019-01-17 19:00","2019","01","17","19:00","-9.7","","","M","","M","","M","31","","10","","","","102.53","","","","-15","","NA"
"-63.53","44.60","MCNABS ISLAND (AUT)","8203478","2019-01-17 20:00","2019","01","17","20:00","-10.5","","","M","","M","","M","30","","11","","","","102.60","","","","-16","","NA"
"-63.53","44.60","MCNABS ISLAND (AUT)","8203478","2019-01-17 21:00","2019","01","17","21:00","-10.7","","","M","","M","","M","30","","11","","","","102.67","","","","-16","","NA"
"-63.53","44.60","MCNABS ISLAND (AUT)","8203478","2019-01-17 22:00","2019","01","17","22:00","-10.9","","","M","","M","","M","32","","6","","","","102.70","","","","-15","","NA"
"-63.53","44.60","MCNABS ISLAND (AUT)","8203478","2019-01-17 23:00","2019","01","17","23:00","-10.7","","","M","","M","","M","32","","9","","","","102.74","","","","-16","","NA"
"-63.53","44.60","MCNABS ISLAND (AUT)","8203478","2019-01-18 00:00","2019","01","18","00:00","-10.5","","","M","","M","","M","33","","9","","","","102.75","","","","-15","","NA"
"-63.53","44.60","MCNABS ISLAND (AUT)","8203478","2019-01-18 01:00","2019","01","18","01:00","-11.3","","","M","","M","","M","36","","6","","","","102.74","","","","-15","","NA"
"-63.53","44.60","MCNABS ISLAND (AUT)","8203478","2019-01-18 02:00","2019","01","18","02:00","-11.4","","","M","","M","","M","35","","7","","","","102.74","","","","-16","","NA"
"-63.53","44.60","MCNABS ISLAND (AUT)","8203478","2019-01-18 03:00","2019","01","18","03:00","-11.8","","","M","","M","","M","4","","6","","","","102.78","","","","-16","","NA"
"-63.53","44.60","MCNABS ISLAND (AUT)","8203478","2019-01-18 04:00","2019","01","18","04:00","-12.1","","","M","","M","","M","7","","6","","","","102.78","","","","-16","","NA"
"-63.53","44.60","MCNABS ISLAND (AUT)","8203478","2019-01-18 05:00","2019","01","18","05:00","-12.2","","","M","","M","","M","4","","8","","","","102.75","","","","-17","","NA"
"-63.53","44.60","MCNABS ISLAND (AUT)","8203478","2019-01-18 06:00","2019","01","18","06:00","-12.1","","","M","","M","","M","4","","9","","","","102.68","","","","-17","","NA"
"-63.53","44.60","MCNABS ISLAND (AUT)","8203478","2019-01-18 07:00","2019","01","18","07:00","-12.2","","","M","","M","","M","4","","12","","","","102.63","","","","-19","","NA"
"-63.53","44.60","MCNABS ISLAND (AUT)","8203478","2019-01-18 08:00","2019","01","18","08:00","-11.6","","","M","","M","","M","5","","16","","","","102.59","","","","-19","","NA"
"-63.53","44.60","MCNABS ISLAND (AUT)","8203478","2019-01-18 09:00","2019","01","18","09:00","-9.8","","","M","","M","","M","5","","16","","","","102.50","","","","-17","","NA"
"-63.53","44.60","MCNABS ISLAND (AUT)","8203478","2019-01-18 10:00","2019","01","18","10:00","-5.3","","","M","","M","","M","11","","13","","","","102.54","","","","-10","","NA"
"-63.53","44.60","MCNABS ISLAND (AUT)","8203478","2019-01-18 11:00","2019","01","18","11:00","-4.2","","","M","","M","","M","13","","18","","","","102.56","","","","-10","","NA"
"-63.53","44.60","MCNABS ISLAND (AUT)","8203478","2019-01-18 12:00","2019","01","18","12:00","-3.3","","","M","","M","","M","15","","18","","","","102.49","","","","-9","","NA"
"-63.53","44.60","MCNABS ISLAND (AUT)","8203478","2019-01-18 13:00","2019","01","18","13:00","-2.7","","","M","","M","","M","13","","14","","","","102.34","","","","-8","","NA"
"-63.53","44.60","MCNABS ISLAND (AUT)","8203478","2019-01-18 14:00","2019","01","18","14:00","-2.2","","","M","","M","","M","14","","17","","","","102.18","","","","-8","","NA"
"-63.53","44.60","MCNABS ISLAND (AUT)","8203478","2019-01-18 15:00","2019","01","18","15:00","-1.6","","","M","","M","","M","12","","22","","","","102.05","","","","-8","","NA"
"-63.53","44.60","MCNABS ISLAND (AUT)","8203478","2019-01-18 16:00","2019","01","18","16:00","-1.1","","","M","","M","","M","12","","23","","","","101.94","","","","-7","","NA"
"-63.53","44.60","MCNABS ISLAND (AUT)","8203478","2019-01-18 17:00","2019","01","18","17:00","-1.2","","","M","","M","","M","12","","21","","","","101.85","","","","-7","","NA"
"-63.53","44.60","MCNABS ISLAND (AUT)","8203478","2019-01-18 18:00","2019","01","18","18:00","-0.7","","","M","","M","","M","12","","26","","","","101.76","","","","-7","","NA"
"-63.53","44.60","MCNABS ISLAND (AUT)","8203478","2019-01-18 19:00","2019","01","18","19:00","-0.5","","","M","","M","","M","12","","23","","","","101.69","","","","-6","","NA"
"-63.53","44.60","MCNABS ISLAND (AUT)","8203478","2019-01-18 20:00","2019","01","18","20:00","-0.4","","","M","","M","","M","12","","24","","","","101.61","","","","-6","","NA"
"-63.53","44.60","MCNABS ISLAND (AUT)","8203478","2019-01-18 21:00","2019","01","18","21:00","-0.1","","","M","","M","","M","12","","18","","","","101.60","","","","-5","","NA"
"-63.53","44.60","MCNABS ISLAND (AUT)","8203478","2019-01-18 22:00","2019","01","18","22:00","0.4","","","M","","M","","M","11","","17","","","","101.52","","","","","","NA"
"-63.53","44.60","MCNABS ISLAND (AUT)","8203478","2019-01-18 23:00","2019","01","18","23:00","0.5","","","M","","M","","M","10","","16","","","","101.43","","","","","","NA"
"-63.53","44.60","MCNABS ISLAND (AUT)","8203478","2019-01-19 00:00","2019","01","19","00:00","0.7","","","M","","M","","M","11","","11","","","","101.44","","","","","","NA"
"-63.53","44.60","MCNABS ISLAND (AUT)","8203478","2019-01-19 01:00","2019","01","19","01:00","0.7","","","M","","M","","M","11","","12","","","","101.36","","","","","","NA"
"-63.53","44.60","MCNABS ISLAND (AUT)","8203478","2019-01-19 02:00","2019","01","19","02:00","0.8","","","M","","M","","M","20","","6","","","","101.36","","","","","","NA"
"-63.53","44.60","MCNABS ISLAND (AUT)","8203478","2019-01-19 03:00","2019","01","19","03:00","0.5","","","M","","M","","M","25","","7","","","","101.37","","","","","","NA"
"-63.53","44.60","MCNABS ISLAND (AUT)","8203478","2019-01-19 04:00","2019","01","19","04:00","0.4","","","M","","M","","M","26","","15","","","","101.34","","","","","","NA"
"-63.53","44.60","MCNABS ISLAND (AUT)","8203478","2019-01-19 05:00","2019","01","19","05:00","0.4","","","M","","M","","M","28","","7","","","","101.38","","","","","","NA"
"-63.53","44.60","MCNABS ISLAND (AUT)","8203478","2019-01-19 06:00","2019","01","19","06:00","0.0","","","M","","M","","M","32","","17","","","","101.47","","","","-5","","NA"
"-63.53","44.60","MCNABS ISLAND (AUT)","8203478","2019-01-19 07:00","2019","01","19","07:00","-1.7","","","M","","M","","M","32","","17","","","","101.61","","","","-7","","NA"
"-63.53","44.60","MCNABS ISLAND (AUT)","8203478","2019-01-19 08:00","2019","01","19","08:00","-4.2","","","M","","M","","M","31","","21","","","","101.77","","","","-11","","NA"
"-63.53","44.60","MCNABS ISLAND (AUT)","8203478","2019-01-19 09:00","2019","01","19","09:00","-4.6","","","M","","M","","M","33","","20","","","","101.88","","","","-11","","NA"
"-63.53","44.60","MCNABS ISLAND (AUT)","8203478","2019-01-19 10:00","2019","01","19","10:00","-4.8","","","M","","M","","M","33","","19","","","","102.00","","","","-11","","NA"
"-63.53","44.60","MCNABS ISLAND (AUT)","8203478","2019-01-19 11:00","2019","01","19","11:00","-5.0","","","M","","M","","M","33","","17","","","","102.10","","","","-11","","NA"
"-63.53","44.60","MCNABS ISLAND (AUT)","8203478","2019-01-19 12:00","2019","01","19","12:00","-5.1","","","M","","M","","M","34","","15","","","","102.18","","","","-11","","NA"
"-63.53","44.60","MCNABS ISLAND (AUT)","8203478","2019-01-19 13:00","2019","01","19","13:00","-4.6","","","M","","M","","M","34","","14","","","","102.17","","","","-10","","NA"
"-63.53","44.60","MCNABS ISLAND (AUT)","8203478","2019-01-19 14:00","2019","01","19","14:00","-5.2","","","M","","M","","M","34","","14","","","","102.18","","","","-11","","NA"
"-63.53","44.60","MCNABS ISLAND (AUT)","8203478","2019-01-19 15:00","2019","01","19","15:00","-5.3","","","M","","M","","M","34","","11","","","","102.26","","","","-10","","NA"
"-63.53","44.60","MCNABS ISLAND (AUT)","8203478","2019-01-19 16:00","2019","01","19","16:00","-6.6","","","M","","M","","M","33","","12","","","","102.38","","","","-12","","NA"
"-63.53","44.60","MCNABS ISLAND (AUT)","8203478","2019-01-19 17:00","2019","01","19","17:00","-8.0","","","M","","M","","M","36","","11","","","","102.41","","","","-13","","NA"
"-63.53","44.60","MCNABS ISLAND (AUT)","8203478","2019-01-19 18:00","2019","01","19","18:00","-8.2","","","M","","M","","M","1","","9","","","","102.53","","","","-13","","NA"
"-63.53","44.60","MCNABS ISLAND (AUT)","8203478","2019-01-19 19:00","2019","01","19","19:00","-8.3","","","M","","M","","M","36","","7","","","","102.62","","","","-12","","NA"
"-63.53","44.60","MCNABS ISLAND (AUT)","8203478","2019-01-19 20:00","2019","01","19","20:00","-9.4","","","M","","M","","M","1","","10","","","","102.69","","","","-15","","NA"
"-63.53","44.60","MCNABS ISLAND (AUT)","8203478","2019-01-19 21:00","2019","01","19","21:00","-10.0","","","M","","M","","M","2","","11","","","","102.79","","","","-16","","NA"
"-63.53","44.60","MCNABS ISLAND (AUT)","8203478","2019-01-19 22:00","2019","01","19","22:00","-11.3","","","M","","M","","M","3","","13","","","","102.76","","","","-18","","NA"
"-63.53","44.60","MCNABS ISLAND (AUT)","8203478","2019-01-19 23:00","2019","01","19","23:00","-12.2","","","M","","M","","M","4","","14","","","","102.79","","","","-19","","NA"
"-63.53","44.60","MCNABS ISLAND (AUT)","8203478","2019-01-20 00:00","2019","01","20","00:00","-12.4","","","M","","M","","M","6","","11","","","","102.78","","","","-18","","NA"
"-63.53","44.60","MCNABS ISLAND (AUT)","8203478","2019-01-20 01:00","2019","01","20","01:00","-12.2","","","M","","M","","M","6","","12","","","","102.71","","","","-19","","NA"
"-63.53","44.60","MCNABS ISLAND (AUT)","8203478","2019-01-20 02:00","2019","01","20","02:00","-12.2","","","M","","M","","M","4","","11","","","","102.75","","","","-18","","NA"
"-63.53","44.60","MCNABS ISLAND (AUT)","8203478","2019-01-20 03:00","2019","01","20","03:00","-12.0","","","M","","M","","M","6","","11","","","","102.70","","","","-18","","NA"
"-63.53","44.60","MCNABS ISLAND (AUT)","8203478","2019-01-20 04:00","2019","01","20","04:00","-11.7","","","M","","M","","M","4","","13","","","","102.62","","","","-18","","NA"
"-63.53","44.60","MCNABS ISLAND (AUT)","8203478","2019-01-20 05:00","2019","01","20","05:00","-11.3","","","M","","M","","M","6","","17","","","","102.51","","","","-19","","NA"
"-63.53","44.60","MCNABS ISLAND (AUT)","8203478","2019-01-20 06:00","2019","01","20","06:00","-10.6","","","M","","M","","M","5","","15","","","","102.42","","","","-17","","NA"
"-63.53","44.60","MCNABS ISLAND (AUT)","8203478","2019-01-20 07:00","2019","01","20","07:00","-9.6","","","M","","M","","M","4","","13","","","","102.35","","","","-16","","NA"
"-63.53","44.60","MCNABS ISLAND (AUT)","8203478","2019-01-20 08:00","2019","01","20","08:00","-9.1","","","M","","M","","M","5","","14","","","","102.27","","","","-15","","NA"
"-63.53","44.60","MCNABS ISLAND (AUT)","8203478","2019-01-20 09:00","2019","01","20","09:00","-8.0","","","M","","M","","M","5","","22","","","","101.92","","","","-16","","NA"
"-63.53","44.60","MCNABS ISLAND (AUT)","8203478","2019-01-20 10:00","2019","01","20","10:00","-6.2","","","M","","M","","M","7","","24","","","","101.66","","","","-14","","NA"
"-63.53","44.60","MCNABS ISLAND (AUT)","8203478","2019-01-20 11:00","2019","01","20","11:00","-3.8","","","M","","M","","M","6","","12","","","","101.62","","","","-8","","NA"
"-63.53","44.60","MCNABS ISLAND (AUT)","8203478","2019-01-20 12:00","2019","01","20","12:00","-0.4","","","M","","M","","M","10","","35","","","","101.25","","","","-7","","NA"
"-63.53","44.60","MCNABS ISLAND (AUT)","8203478","2019-01-20 13:00","2019","01","20","13:00","0.2","","","M","","M","","M","9","","35","","","","100.87","","","","","","NA"
"-63.53","44.60","MCNABS ISLAND (AUT)","8203478","2019-01-20 14:00","2019","01","20","14:00","1.0","","","M","","M","","M","8","","43","","","","100.57","","","","","","NA"
"-63.53","44.60","MCNABS ISLAND (AUT)","8203478","2019-01-20 15:00","2019","01","20","15:00","3.1","","","M","","M","","M","8","","49","","","","100.33","","","","","","NA"
"-63.53","44.60","MCNABS ISLAND (AUT)","8203478","2019-01-20 16:00","2019","01","20","16:00","5.3","","","M","","M","","M","13","","38","","","","100.15","","","","","","NA"
"-63.53","44.60","MCNABS ISLAND (AUT)","8203478","2019-01-20 17:00","2019","01","20","17:00","4.6","","","M","","M","","M","16","","31","","","","100.02","","","","","","NA"
"-63.53","44.60","MCNABS ISLAND (AUT)","8203478","2019-01-20 18:00","2019","01","20","18:00","5.4","","","M","","M","","M","17","","36","","","","99.95","","","","","","NA"
"-63.53","44.60","MCNABS ISLAND (AUT)","8203478","2019-01-20 19:00","2019","01","20","19:00","5.3","","","M","","M","","M","17","","38","","","","99.78","","","","","","NA"
"-63.53","44.60","MCNABS ISLAND (AUT)","8203478","2019-01-20 20:00","2019","01","20","20:00","6.0","","","M","","M","","M","17","","39","","","","99.57","","","","","","NA"
"-63.53","44.60","MCNABS ISLAND (AUT)","8203478","2019-01-20 21:00","2019","01","20","21:00","5.9","","","M","","M","","M","17","","41","","","","99.49","","","","","","NA"
"-63.53","44.60","MCNABS ISLAND (AUT)","8203478","2019-01-20 22:00","2019","01","20","22:00","6.0","","","M","","M","","M","17","","44","","","","99.27","","","","","","NA"
"-63.53","44.60","MCNABS ISLAND (AUT)","8203478","2019-01-20 23:00","2019","01","20","23:00","6.2","","","M","","M","","M","17","","40","","","","99.01","","","","","","NA"
"-63.53","44.60","MCNABS ISLAND (AUT)","8203478","2019-01-21 00:00","2019","01","21","00:00","7.1","","","M","","M","","M","17","","43","","","","98.84","","","","","","NA"
"-63.53","44.60","MCNABS ISLAND (AUT)","8203478","2019-01-21 01:00","2019","01","21","01:00","8.7","","","M","","M","","M","22","","39","","","","98.79","","","","","","NA"
"-63.53","44.60","MCNABS ISLAND (AUT)","8203478","2019-01-21 02:00","2019","01","21","02:00","7.8","","","M","","M","","M","19","","43","","","","98.62","","","","","","NA"
"-63.53","44.60","MCNABS ISLAND (AUT)","8203478","2019-01-21 03:00","2019","01","21","03:00","7.3","","","M","","M","","M","17","","30","","","","98.54","","","","","","NA"
"-63.53","44.60","MCNABS ISLAND (AUT)","8203478","2019-01-21 04:00","2019","01","21","04:00","7.9","","","M","","M","","M","20","","50","","","","98.45","","","","","","NA"
"-63.53","44.60","MCNABS ISLAND (AUT)","8203478","2019-01-21 05:00","2019","01","21","05:00","6.0","","","M","","M","","M","21","","31","","","","98.48","","","","","","NA"
"-63.53","44.60","MCNABS ISLAND (AUT)","8203478","2019-01-21 06:00","2019","01","21","06:00","3.6","","","M","","M","","M","21","","42","","","","98.52","","","","","","NA"
"-63.53","44.60","MCNABS ISLAND (AUT)","8203478","2019-01-21 07:00","2019","01","21","07:00","2.1","","","M","","M","","M","21","","33","","","","98.69","","","","","","NA"
"-63.53","44.60","MCNABS ISLAND (AUT)","8203478","2019-01-21 08:00","2019","01","21","08:00","1.6","","","M","","M","","M","22","","35","","","","98.81","","","","","","NA"
"-63.53","44.60","MCNABS ISLAND (AUT)","8203478","2019-01-21 09:00","2019","01","21","09:00","1.3","","","M","","M","","M","25","","19","","","","98.96","","","","","","NA"
"-63.53","44.60","MCNABS ISLAND (AUT)","8203478","2019-01-21 10:00","2019","01","21","10:00","0.4","","","M","","M","","M","24","","32","","","","99.08","","","","","","NA"
"-63.53","44.60","MCNABS ISLAND (AUT)","8203478","2019-01-21 11:00","2019","01","21","11:00","0.1","","","M","","M","","M","24","","38","","","","99.22","","","","","","NA"
"-63.53","44.60","MCNABS ISLAND (AUT)","8203478","2019-01-21 12:00","2019","01","21","12:00","-0.4","","","M","","M","","M","25","","33","","","","99.31","","","","-7","","NA"
"-63.53","44.60","MCNABS ISLAND (AUT)","8203478","2019-01-21 13:00","2019","01","21","13:00","-0.7","","","M","","M","","M","25","","36","","","","99.35","","","","-8","","NA"
"-63.53","44.60","MCNABS ISLAND (AUT)","8203478","2019-01-21 14:00","2019","01","21","14:00","-1.6","","","M","","M","","M","25","","33","","","","99.42","","","","-9","","NA"
"-63.53","44.60","MCNABS ISLAND (AUT)","8203478","2019-01-21 15:00","2019","01","21","15:00","-1.7","","","M","","M","","M","25","","28","","","","99.55","","","","-8","","NA"
"-63.53","44.60","MCNABS ISLAND (AUT)","8203478","2019-01-21 16:00","2019","01","21","16:00","-2.2","","","M","","M","","M","25","","26","","","","99.64","","","","-9","","NA"
"-63.53","44.60","MCNABS ISLAND (AUT)","8203478","2019-01-21 17:00","2019","01","21","17:00","-2.4","","","M","","M","","M","25","","26","","","","99.75","","","","-9","","NA"
"-63.53","44.60","MCNABS ISLAND (AUT)","8203478","2019-01-21 18:00","2019","01","21","18:00","-2.8","","","M","","M","","M","25","","26","","","","99.86","","","","-10","","NA"
"-63.53","44.60","MCNABS ISLAND (AUT)","8203478","2019-01-21 19:00","2019","01","21","19:00","-3.3","","","M","","M","","M","28","","11","","","","99.86","","","","-8","","NA"
"-63.53","44.60","MCNABS ISLAND (AUT)","8203478","2019-01-21 20:00","2019","01","21","20:00","-3.9","","","M","","M","","M","32","","7","","","","99.78","","","","-7","","NA"
"-63.53","44.60","MCNABS ISLAND (AUT)","8203478","2019-01-21 21:00","2019","01","21","21:00","-4.4","","","M","","M","","M","30","","10","","","","99.74","","","","-9","","NA"
"-63.53","44.60","MCNABS ISLAND (AUT)","8203478","2019-01-21 22:00","2019","01","21","22:00","-4.6","","","M","","M","","M","28","","9","","","","99.86","","","","-8","","NA"
"-63.53","44.60","MCNABS ISLAND (AUT)","8203478","2019-01-21 23:00","2019","01","21","23:00","-5.3","","","M","","M","","M","28","","10","","","","99.92","","","","-10","","NA"
"-63.53","44.60","MCNABS ISLAND (AUT)","8203478","2019-01-22 00:00","2019","01","22","00:00","-5.6","","","M","","M","","M","28","","16","","","","99.98","","","","-12","","NA"
"-63.53","44.60","MCNABS ISLAND (AUT)","8203478","2019-01-22 01:00","2019","01","22","01:00","-6.8","","","M","","M","","M","28","","13","","","","100.02","","","","-12","","NA"
"-63.53","44.60","MCNABS ISLAND (AUT)","8203478","2019-01-22 02:00","2019","01","22","02:00","-7.6","","","M","","M","","M","28","","15","","","","100.10","","","","-14","","NA"
"-63.53","44.60","MCNABS ISLAND (AUT)","8203478","2019-01-22 03:00","2019","01","22","03:00","-8.4","","","M","","M","","M","27","","16","","","","100.16","","","","-15","","NA"
"-63.53","44.60","MCNABS ISLAND (AUT)","8203478","2019-01-22 04:00","2019","01","22","04:00","-9.1","","","M","","M","","M","27","","18","","","","100.21","","","","-16","","NA"
"-63.53","44.60","MCNABS ISLAND (AUT)","8203478","2019-01-22 05:00","2019","01","22","05:00","-9.1","","","M","","M","","M","28","","16","","","","100.27","","","","-16","","NA"
"-63.53","44.60","MCNABS ISLAND (AUT)","8203478","2019-01-22 06:00","2019","01","22","06:00","-8.9","","","M","","M","","M","29","","15","","","","100.36","","","","-15","","NA"
"-63.53","44.60","MCNABS ISLAND (AUT)","8203478","2019-01-22 07:00","2019","01","22","07:00","-9.2","","","M","","M","","M","29","","17","","","","100.48","","","","-16","","NA"
"-63.53","44.60","MCNABS ISLAND (AUT)","8203478","2019-01-22 08:00","2019","01","22","08:00","-9.2","","","M","","M","","M","29","","23","","","","100.62","","","","-17","","NA"
"-63.53","44.60","MCNABS ISLAND (AUT)","8203478","2019-01-22 09:00","2019","01","22","09:00","-10.0","","","M","","M","","M","32","","19","","","","100.73","","","","-18","","NA"
"-63.53","44.60","MCNABS ISLAND (AUT)","8203478","2019-01-22 10:00","2019","01","22","10:00","-9.5","","","M","","M","","M","31","","18","","","","100.85","","","","-17","","NA"
"-63.53","44.60","MCNABS ISLAND (AUT)","8203478","2019-01-22 11:00","2019","01","22","11:00","-9.4","","","M","","M","","M","30","","25","","","","100.96","","","","-18","","NA"
"-63.53","44.60","MCNABS ISLAND (AUT)","8203478","2019-01-22 12:00","2019","01","22","12:00","-10.1","","","M","","M","","M","31","","19","","","","101.01","","","","-18","","NA"
"-63.53","44.60","MCNABS ISLAND (AUT)","8203478","2019-01-22 13:00","2019","01","22","13:00","-9.9","","","M","","M","","M","31","","20","","","","101.08","","","","-18","","NA"
"-63.53","44.60","MCNABS ISLAND (AUT)","8203478","2019-01-22 14:00","2019","01","22","14:00","-9.4","","","M","","M","","M","30","","27","","","","101.17","","","","-18","","NA"
"-63.53","44.60","MCNABS ISLAND (AUT)","8203478","2019-01-22 15:00","2019","01","22","15:00","-8.8","","","M","","M","","M","30","","22","","","","101.28","","","","-17","","NA"
"-63.53","44.60","MCNABS ISLAND (AUT)","8203478","2019-01-22 16:00","2019","01","22","16:00","-8.8","","","M","","M","","M","30","","21","","","","101.42","","","","-17","","NA"
"-63.53","44.60","MCNABS ISLAND (AUT)","8203478","2019-01-22 17:00","2019","01","22","17:00","-8.8","","","M","","M","","M","30","","19","","","","101.54","","","","-16","","NA"
"-63.53","44.60","MCNABS ISLAND (AUT)","8203478","2019-01-22 18:00","2019","01","22","18:00","-8.5","","","M","","M","","M","31","","16","","","","101.67","","","","-15","","NA"
"-63.53","44.60","MCNABS ISLAND (AUT)","8203478","2019-01-22 19:00","2019","01","22","19:00","-8.3","","","M","","M","","M","28","","15","","","","101.81","","","","-15","","NA"
"-63.53","44.60","MCNABS ISLAND (AUT)","8203478","2019-01-22 20:00","2019","01","22","20:00","-8.1","","","M","","M","","M","29","","20","","","","101.89","","","","-15","","NA"
"-63.53","44.60","MCNABS ISLAND (AUT)","8203478","2019-01-22 21:00","2019","01","22","21:00","-7.4","","","M","","M","","M","31","","18","","","","102.02","","","","-14","","NA"
"-63.53","44.60","MCNABS ISLAND (AUT)","8203478","2019-01-22 22:00","2019","01","22","22:00","-7.1","","","M","","M","","M","30","","18","","","","102.14","","","","-14","","NA"
"-63.53","44.60","MCNABS ISLAND (AUT)","8203478","2019-01-22 23:00","2019","01","22","23:00","-7.4","","","M","","M","","M","30","","16","","","","102.24","","","","-14","","NA"
"-63.53","44.60","MCNABS ISLAND (AUT)","8203478","2019-01-23 00:00","2019","01","23","00:00","-7.9","","","M","","M","","M","30","","18","","","","102.30","","","","-15","","NA"
"-63.53","44.60","MCNABS ISLAND (AUT)","8203478","2019-01-23 01:00","2019","01","23","01:00","-8.3","","","M","","M","","M","30","","16","","","","102.37","","","","-15","","NA"
"-63.53","44.60","MCNABS ISLAND (AUT)","8203478","2019-01-23 02:00","2019","01","23","02:00","-8.5","","","M","","M","","M","29","","14","","","","102.44","","","","-15","","NA"
"-63.53","44.60","MCNABS ISLAND (AUT)","8203478","2019-01-23 03:00","2019","01","23","03:00","-8.8","","","M","","M","","M","30","","13","","","","102.57","","","","-15","","NA"
"-63.53","44.60","MCNABS ISLAND (AUT)","8203478","2019-01-23 04:00","2019","01","23","04:00","-9.0","","","M","","M","","M","29","","11","","","","102.60","","","","-14","","NA"
"-63.53","44.60","MCNABS ISLAND (AUT)","8203478","2019-01-23 05:00","2019","01","23","05:00","-8.8","","","M","","M","","M","29","","7","","","","102.66","","","","-13","","NA"
"-63.53","44.60","MCNABS ISLAND (AUT)","8203478","2019-01-23 06:00","2019","01","23","06:00","-9.2","","","M","","M","","M","26","","11","","","","102.75","","","","-15","","NA"
"-63.53","44.60","MCNABS ISLAND (AUT)","8203478","2019-01-23 07:00","2019","01","23","07:00","-9.6","","","M","","M","","M","28","","8","","","","102.75","","","","-14","","NA"
"-63.53","44.60","MCNABS ISLAND (AUT)","8203478","2019-01-23 08:00","2019","01","23","08:00","-8.8","","","M","","M","","M","28","","5","","","","102.80","","","","-12","","NA"
"-63.53","44.60","MCNABS ISLAND (AUT)","8203478","2019-01-23 09:00","2019","01","23","09:00","-6.9","","","M","","M","","M","27","","11","","","","102.81","","","","-12","","NA"
"-63.53","44.60","MCNABS ISLAND (AUT)","8203478","2019-01-23 10:00","2019","01","23","10:00","-6.3","","","M","","M","","M","27","","9","","","","102.82","","","","-11","","NA"
"-63.53","44.60","MCNABS ISLAND (AUT)","8203478","2019-01-23 11:00","2019","01","23","11:00","-5.5","","","M","","M","","M","25","","8","","","","102.81","","","","-9","","NA"
"-63.53","44.60","MCNABS ISLAND (AUT)","8203478","2019-01-23 12:00","2019","01","23","12:00","-3.5","","","M","","M","","M","15","","5","","","","102.68","","","","-6","","NA"
"-63.53","44.60","MCNABS ISLAND (AUT)","8203478","2019-01-23 13:00","2019","01","23","13:00","-1.6","","","M","","M","","M","21","","11","","","","102.55","","","","-5","","NA"
"-63.53","44.60","MCNABS ISLAND (AUT)","8203478","2019-01-23 14:00","2019","01","23","14:00","-2.2","","","M","","M","","M","22","","21","","","","102.44","","","","-8","","NA"
"-63.53","44.60","MCNABS ISLAND (AUT)","8203478","2019-01-23 15:00","2019","01","23","15:00","-2.2","","","M","","M","","M","23","","23","","","","102.47","","","","-8","","NA"
"-63.53","44.60","MCNABS ISLAND (AUT)","8203478","2019-01-23 16:00","2019","01","23","16:00","-1.6","","","M","","M","","M","23","","20","","","","102.46","","","","-7","","NA"
"-63.53","44.60","MCNABS ISLAND (AUT)","8203478","2019-01-23 17:00","2019","01","23","17:00","-1.3","","","M","","M","","M","21","","16","","","","102.43","","","","-6","","NA"
"-63.53","44.60","MCNABS ISLAND (AUT)","8203478","2019-01-23 18:00","2019","01","23","18:00","-0.7","","","M","","M","","M","18","","18","","","","102.39","","","","-6","","NA"
"-63.53","44.60","MCNABS ISLAND (AUT)","8203478","2019-01-23 19:00","2019","01","23","19:00","-0.5","","","M","","M","","M","17","","25","","","","102.27","","","","-7","","NA"
"-63.53","44.60","MCNABS ISLAND (AUT)","8203478","2019-01-23 20:00","2019","01","23","20:00","-0.1","","","M","","M","","M","17","","27","","","","102.19","","","","-6","","NA"
"-63.53","44.60","MCNABS ISLAND (AUT)","8203478","2019-01-23 21:00","2019","01","23","21:00","-0.1","","","M","","M","","M","16","","27","","","","102.06","","","","-6","","NA"
"-63.53","44.60","MCNABS ISLAND (AUT)","8203478","2019-01-23 22:00","2019","01","23","22:00","0.6","","","M","","M","","M","16","","24","","","","101.87","","","","","","NA"
"-63.53","44.60","MCNABS ISLAND (AUT)","8203478","2019-01-23 23:00","2019","01","23","23:00","1.5","","","M","","M","","M","17","","19","","","","101.71","","","","","","NA"
"-63.53","44.60","MCNABS ISLAND (AUT)","8203478","2019-01-24 00:00","2019","01","24","00:00","2.8","","","M","","M","","M","20","","26","","","","101.62","","","","","","NA"
"-63.53","44.60","MCNABS ISLAND (AUT)","8203478","2019-01-24 01:00","2019","01","24","01:00","3.5","","","M","","M","","M","21","","29","","","","101.50","","","","","","NA"
"-63.53","44.60","MCNABS ISLAND (AUT)","8203478","2019-01-24 02:00","2019","01","24","02:00","4.0","","","M","","M","","M","21","","34","","","","101.42","","","","","","NA"
"-63.53","44.60","MCNABS ISLAND (AUT)","8203478","2019-01-24 03:00","2019","01","24","03:00","4.3","","","M","","M","","M","22","","31","","","","101.34","","","","","","NA"
"-63.53","44.60","MCNABS ISLAND (AUT)","8203478","2019-01-24 04:00","2019","01","24","04:00","5.2","","","M","","M","","M","23","","33","","","","101.25","","","","","","NA"
"-63.53","44.60","MCNABS ISLAND (AUT)","8203478","2019-01-24 05:00","2019","01","24","05:00","5.3","","","M","","M","","M","23","","29","","","","101.19","","","","","","NA"
"-63.53","44.60","MCNABS ISLAND (AUT)","8203478","2019-01-24 06:00","2019","01","24","06:00","5.7","","","M","","M","","M","23","","28","","","","101.14","","","","","","NA"
"-63.53","44.60","MCNABS ISLAND (AUT)","8203478","2019-01-24 07:00","2019","01","24","07:00","6.2","","","M","","M","","M","23","","35","","","","101.11","","","","","","NA"
"-63.53","44.60","MCNABS ISLAND (AUT)","8203478","2019-01-24 08:00","2019","01","24","08:00","6.2","","","M","","M","","M","22","","28","","","","101.12","","","","","","NA"
"-63.53","44.60","MCNABS ISLAND (AUT)","8203478","2019-01-24 09:00","2019","01","24","09:00","7.1","","","M","","M","","M","23","","38","","","","101.10","","","","","","NA"
"-63.53","44.60","MCNABS ISLAND (AUT)","8203478","2019-01-24 10:00","2019","01","24","10:00","7.5","","","M","","M","","M","23","","36","","","","101.09","","","","","","NA"
"-63.53","44.60","MCNABS ISLAND (AUT)","8203478","2019-01-24 11:00","2019","01","24","11:00","7.5","","","M","","M","","M","23","","31","","","","101.08","","","","","","NA"
"-63.53","44.60","MCNABS ISLAND (AUT)","8203478","2019-01-24 12:00","2019","01","24","12:00","6.8","","","M","","M","","M","22","","40","","","","100.97","","","","","","NA"
"-63.53","44.60","MCNABS ISLAND (AUT)","8203478","2019-01-24 13:00","2019","01","24","13:00","7.4","","","M","","M","","M","23","","46","","","","100.84","","","","","","NA"
"-63.53","44.60","MCNABS ISLAND (AUT)","8203478","2019-01-24 14:00","2019","01","24","14:00","7.6","","","M","","M","","M","22","","33","","","","100.71","","","","","","NA"
"-63.53","44.60","MCNABS ISLAND (AUT)","8203478","2019-01-24 15:00","2019","01","24","15:00","7.2","","","M","","M","","M","22","","41","","","","100.66","","","","","","NA"
"-63.53","44.60","MCNABS ISLAND (AUT)","8203478","2019-01-24 16:00","2019","01","24","16:00","6.8","","","M","","M","","M","22","","37","","","","100.59","","","","","","NA"
"-63.53","44.60","MCNABS ISLAND (AUT)","8203478","2019-01-24 17:00","2019","01","24","17:00","6.3","","","M","","M","","M","20","","31","","","","100.49","","","","","","NA"
"-63.53","44.60","MCNABS ISLAND (AUT)","8203478","2019-01-24 18:00","2019","01","24","18:00","5.7","","","M","","M","","M","19","","29","","","","100.36","","","","","","NA"
"-63.53","44.60","MCNABS ISLAND (AUT)","8203478","2019-01-24 19:00","2019","01","24","19:00","8.7","","","M","","M","","M","20","","50","","","","100.22","","","","","","NA"
"-63.53","44.60","MCNABS ISLAND (AUT)","8203478","2019-01-24 20:00","2019","01","24","20:00","8.1","","","M","","M","","M","19","","45","","","","100.07","","","","","","NA"
"-63.53","44.60","MCNABS ISLAND (AUT)","8203478","2019-01-24 21:00","2019","01","24","21:00","7.3","","","M","","M","","M","19","","48","","","","99.87","","","","","","NA"
"-63.53","44.60","MCNABS ISLAND (AUT)","8203478","2019-01-24 22:00","2019","01","24","22:00","5.3","","","M","","M","","M","17","","42","","","","99.60","","","","","","NA"
"-63.53","44.60","MCNABS ISLAND (AUT)","8203478","2019-01-24 23:00","2019","01","24","23:00","6.4","","","M","","M","","M","18","","49","","","","99.34","","","","","","NA"
"-63.53","44.60","MCNABS ISLAND (AUT)","8203478","2019-01-25 00:00","2019","01","25","00:00","8.0","","","M","","M","","M","18","","59","","","","99.14","","","","","","NA"
"-63.53","44.60","MCNABS ISLAND (AUT)","8203478","2019-01-25 01:00","2019","01","25","01:00","8.7","","","M","","M","","M","20","","62","","","","99.11","","","","","","NA"
"-63.53","44.60","MCNABS ISLAND (AUT)","8203478","2019-01-25 02:00","2019","01","25","02:00","9.3","","","M","","M","","M","21","","66","","","","99.09","","","","","","NA"
"-63.53","44.60","MCNABS ISLAND (AUT)","8203478","2019-01-25 03:00","2019","01","25","03:00","7.9","","","M","","M","","M","23","","59","","","","99.15","","","","","","NA"
"-63.53","44.60","MCNABS ISLAND (AUT)","8203478","2019-01-25 04:00","2019","01","25","04:00","6.4","","","M","","M","","M","23","","39","","","","99.28","","","","","","NA"
"-63.53","44.60","MCNABS ISLAND (AUT)","8203478","2019-01-25 05:00","2019","01","25","05:00","6.3","","","M","","M","","M","24","","38","","","","99.47","","","","","","NA"
"-63.53","44.60","MCNABS ISLAND (AUT)","8203478","2019-01-25 06:00","2019","01","25","06:00","6.7","","","M","","M","","M","24","","32","","","","99.62","","","","","","NA"
"-63.53","44.60","MCNABS ISLAND (AUT)","8203478","2019-01-25 07:00","2019","01","25","07:00","5.4","","","M","","M","","M","24","","20","","","","99.77","","","","","","NA"
"-63.53","44.60","MCNABS ISLAND (AUT)","8203478","2019-01-25 08:00","2019","01","25","08:00","5.6","","","M","","M","","M","25","","25","","","","99.91","","","","","","NA"
"-63.53","44.60","MCNABS ISLAND (AUT)","8203478","2019-01-25 09:00","2019","01","25","09:00","6.1","","","M","","M","","M","26","","13","","","","100.02","","","","","","NA"
"-63.53","44.60","MCNABS ISLAND (AUT)","8203478","2019-01-25 10:00","2019","01","25","10:00","5.4","","","M","","M","","M","25","","14","","","","100.10","","","","","","NA"
"-63.53","44.60","MCNABS ISLAND (AUT)","8203478","2019-01-25 11:00","2019","01","25","11:00","5.8","","","M","","M","","M","26","","26","","","","100.19","","","","","","NA"
"-63.53","44.60","MCNABS ISLAND (AUT)","8203478","2019-01-25 12:00","2019","01","25","12:00","5.5","","","M","","M","","M","27","","18","","","","100.21","","","","","","NA"
"-63.53","44.60","MCNABS ISLAND (AUT)","8203478","2019-01-25 13:00","2019","01","25","13:00","5.9","","","M","","M","","M","26","","31","","","","100.24","","","","","","NA"
"-63.53","44.60","MCNABS ISLAND (AUT)","8203478","2019-01-25 14:00","2019","01","25","14:00","6.3","","","M","","M","","M","26","","22","","","","100.30","","","","","","NA"
"-63.53","44.60","MCNABS ISLAND (AUT)","8203478","2019-01-25 15:00","2019","01","25","15:00","5.8","","","M","","M","","M","26","","19","","","","100.32","","","","","","NA"
"-63.53","44.60","MCNABS ISLAND (AUT)","8203478","2019-01-25 16:00","2019","01","25","16:00","5.1","","","M","","M","","M","26","","24","","","","100.43","","","","","","NA"
"-63.53","44.60","MCNABS ISLAND (AUT)","8203478","2019-01-25 17:00","2019","01","25","17:00","3.5","","","M","","M","","M","25","","21","","","","100.56","","","","","","NA"
"-63.53","44.60","MCNABS ISLAND (AUT)","8203478","2019-01-25 18:00","2019","01","25","18:00","2.0","","","M","","M","","M","26","","14","","","","100.68","","","","","","NA"
"-63.53","44.60","MCNABS ISLAND (AUT)","8203478","2019-01-25 19:00","2019","01","25","19:00","1.0","","","M","","M","","M","26","","10","","","","100.78","","","","","","NA"
"-63.53","44.60","MCNABS ISLAND (AUT)","8203478","2019-01-25 20:00","2019","01","25","20:00","-0.1","","","M","","M","","M","29","","6","","","","100.85","","","","-2","","NA"
"-63.53","44.60","MCNABS ISLAND (AUT)","8203478","2019-01-25 21:00","2019","01","25","21:00","-0.7","","","M","","M","","M","28","","6","","","","100.97","","","","-3","","NA"
"-63.53","44.60","MCNABS ISLAND (AUT)","8203478","2019-01-25 22:00","2019","01","25","22:00","-0.3","","","M","","M","","M","28","","7","","","","101.08","","","","-3","","NA"
"-63.53","44.60","MCNABS ISLAND (AUT)","8203478","2019-01-25 23:00","2019","01","25","23:00","0.0","","","M","","M","","M","23","","15","","","","101.12","","","","-4","","NA"
"-63.53","44.60","MCNABS ISLAND (AUT)","8203478","2019-01-26 00:00","2019","01","26","00:00","0.1","","","M","","M","","M","23","","13","","","","101.19","","","","","","NA"
"-63.53","44.60","MCNABS ISLAND (AUT)","8203478","2019-01-26 01:00","2019","01","26","01:00","0.5","","","M","","M","","M","23","","14","","","","101.23","","","","","","NA"
"-63.53","44.60","MCNABS ISLAND (AUT)","8203478","2019-01-26 02:00","2019","01","26","02:00","0.4","","","M","","M","","M","25","","19","","","","101.32","","","","","","NA"
"-63.53","44.60","MCNABS ISLAND (AUT)","8203478","2019-01-26 03:00","2019","01","26","03:00","-0.1","","","M","","M","","M","25","","21","","","","101.44","","","","-6","","NA"
"-63.53","44.60","MCNABS ISLAND (AUT)","8203478","2019-01-26 04:00","2019","01","26","04:00","-0.6","","","M","","M","","M","27","","13","","","","101.59","","","","-5","","NA"
"-63.53","44.60","MCNABS ISLAND (AUT)","8203478","2019-01-26 05:00","2019","01","26","05:00","-1.7","","","M","","M","","M","28","","6","","","","101.71","","","","-4","","NA"
"-63.53","44.60","MCNABS ISLAND (AUT)","8203478","2019-01-26 06:00","2019","01","26","06:00","-2.5","","","M","","M","","M","28","","6","","","","101.78","","","","-5","","NA"
"-63.53","44.60","MCNABS ISLAND (AUT)","8203478","2019-01-26 07:00","2019","01","26","07:00","-2.7","","","M","","M","","M","29","","6","","","","101.81","","","","-5","","NA"
"-63.53","44.60","MCNABS ISLAND (AUT)","8203478","2019-01-26 08:00","2019","01","26","08:00","-2.7","","","M","","M","","M","26","","10","","","","101.96","","","","-7","","NA"
"-63.53","44.60","MCNABS ISLAND (AUT)","8203478","2019-01-26 09:00","2019","01","26","09:00","-0.7","","","M","","M","","M","27","","8","","","","102.11","","","","-4","","NA"
"-63.53","44.60","MCNABS ISLAND (AUT)","8203478","2019-01-26 10:00","2019","01","26","10:00","-0.1","","","M","","M","","M","28","","7","","","","102.18","","","","-3","","NA"
"-63.53","44.60","MCNABS ISLAND (AUT)","8203478","2019-01-26 11:00","2019","01","26","11:00","-0.6","","","M","","M","","M","30","","9","","","","102.19","","","","-4","","NA"
"-63.53","44.60","MCNABS ISLAND (AUT)","8203478","2019-01-26 12:00","2019","01","26","12:00","-0.6","","","M","","M","","M","31","","3","","","","102.22","","","","-2","","NA"
"-63.53","44.60","MCNABS ISLAND (AUT)","8203478","2019-01-26 13:00","2019","01","26","13:00","-0.4","","","M","","M","","M","13","","10","","","","102.18","","","","-4","","NA"
"-63.53","44.60","MCNABS ISLAND (AUT)","8203478","2019-01-26 14:00","2019","01","26","14:00","-0.1","","","M","","M","","M","16","","22","","","","102.21","","","","-6","","NA"
"-63.53","44.60","MCNABS ISLAND (AUT)","8203478","2019-01-26 15:00","2019","01","26","15:00","0.2","","","M","","M","","M","15","","19","","","","102.22","","","","","","NA"
"-63.53","44.60","MCNABS ISLAND (AUT)","8203478","2019-01-26 16:00","2019","01","26","16:00","0.4","","","M","","M","","M","16","","16","","","","102.22","","","","","","NA"
"-63.53","44.60","MCNABS ISLAND (AUT)","8203478","2019-01-26 17:00","2019","01","26","17:00","0.8","","","M","","M","","M","22","","19","","","","102.19","","","","","","NA"
"-63.53","44.60","MCNABS ISLAND (AUT)","8203478","2019-01-26 18:00","2019","01","26","18:00","0.5","","","M","","M","","M","21","","17","","","","102.28","","","","","","NA"
"-63.53","44.60","MCNABS ISLAND (AUT)","8203478","2019-01-26 19:00","2019","01","26","19:00","0.3","","","M","","M","","M","21","","15","","","","102.40","","","","","","NA"
"-63.53","44.60","MCNABS ISLAND (AUT)","8203478","2019-01-26 20:00","2019","01","26","20:00","0.3","","","M","","M","","M","19","","11","","","","102.42","","","","","","NA"
"-63.53","44.60","MCNABS ISLAND (AUT)","8203478","2019-01-26 21:00","2019","01","26","21:00","0.3","","","M","","M","","M","20","","13","","","","102.41","","","","","","NA"
"-63.53","44.60","MCNABS ISLAND (AUT)","8203478","2019-01-26 22:00","2019","01","26","22:00","0.1","","","M","","M","","M","18","","12","","","","102.42","","","","","","NA"
"-63.53","44.60","MCNABS ISLAND (AUT)","8203478","2019-01-26 23:00","2019","01","26","23:00","0.3","","","M","","M","","M","18","","15","","","","102.40","","","","","","NA"
"-63.53","44.60","MCNABS ISLAND (AUT)","8203478","2019-01-27 00:00","2019","01","27","00:00","0.8","","","M","","M","","M","16","","14","","","","102.42","","","","","","NA"
"-63.53","44.60","MCNABS ISLAND (AUT)","8203478","2019-01-27 01:00","2019","01","27","01:00","0.8","","","M","","M","","M","17","","12","","","","102.41","","","","","","NA"
"-63.53","44.60","MCNABS ISLAND (AUT)","8203478","2019-01-27 02:00","2019","01","27","02:00","0.7","","","M","","M","","M","19","","12","","","","102.40","","","","","","NA"
"-63.53","44.60","MCNABS ISLAND (AUT)","8203478","2019-01-27 03:00","2019","01","27","03:00","0.8","","","M","","M","","M","19","","12","","","","102.42","","","","","","NA"
"-63.53","44.60","MCNABS ISLAND (AUT)","8203478","2019-01-27 04:00","2019","01","27","04:00","-0.1","","","M","","M","","M","21","","13","","","","102.40","","","","-4","","NA"
"-63.53","44.60","MCNABS ISLAND (AUT)","8203478","2019-01-27 05:00","2019","01","27","05:00","-1.1","","","M","","M","","M","25","","5","","","","102.42","","","","-3","","NA"
"-63.53","44.60","MCNABS ISLAND (AUT)","8203478","2019-01-27 06:00","2019","01","27","06:00","-1.6","","","M","","M","","M","32","","4","","","","102.42","","","","-3","","NA"
"-63.53","44.60","MCNABS ISLAND (AUT)","8203478","2019-01-27 07:00","2019","01","27","07:00","-1.9","","","M","","M","","M","30","","4","","","","102.48","","","","-3","","NA"
"-63.53","44.60","MCNABS ISLAND (AUT)","8203478","2019-01-27 08:00","2019","01","27","08:00","-1.8","","","M","","M","","M","33","","5","","","","102.51","","","","-4","","NA"
"-63.53","44.60","MCNABS ISLAND (AUT)","8203478","2019-01-27 09:00","2019","01","27","09:00","-1.1","","","M","","M","","M","35","","2","","","","102.55","","","","-2","","NA"
"-63.53","44.60","MCNABS ISLAND (AUT)","8203478","2019-01-27 10:00","2019","01","27","10:00","0.5","","","M","","M","","M","21","","1","","","","102.52","","","","","","NA"
"-63.53","44.60","MCNABS ISLAND (AUT)","8203478","2019-01-27 11:00","2019","01","27","11:00","0.3","","","M","","M","","M","25","","2","","","","102.51","","","","","","NA"
"-63.53","44.60","MCNABS ISLAND (AUT)","8203478","2019-01-27 12:00","2019","01","27","12:00","1.7","","","M","","M","","M","15","","8","","","","102.42","","","","","","NA"
"-63.53","44.60","MCNABS ISLAND (AUT)","8203478","2019-01-27 13:00","2019","01","27","13:00","1.7","","","M","","M","","M","14","","9","","","","102.37","","","","","","NA"
"-63.53","44.60","MCNABS ISLAND (AUT)","8203478","2019-01-27 14:00","2019","01","27","14:00","1.6","","","M","","M","","M","11","","17","","","","102.31","","","","","","NA"
"-63.53","44.60","MCNABS ISLAND (AUT)","8203478","2019-01-27 15:00","2019","01","27","15:00","1.7","","","M","","M","","M","12","","19","","","","102.20","","","","","","NA"
"-63.53","44.60","MCNABS ISLAND (AUT)","8203478","2019-01-27 16:00","2019","01","27","16:00","1.3","","","M","","M","","M","11","","17","","","","102.16","","","","","","NA"
"-63.53","44.60","MCNABS ISLAND (AUT)","8203478","2019-01-27 17:00","2019","01","27","17:00","0.9","","","M","","M","","M","10","","16","","","","102.09","","","","","","NA"
"-63.53","44.60","MCNABS ISLAND (AUT)","8203478","2019-01-27 18:00","2019","01","27","18:00","0.7","","","M","","M","","M","9","","11","","","","102.00","","","","","","NA"
"-63.53","44.60","MCNABS ISLAND (AUT)","8203478","2019-01-27 19:00","2019","01","27","19:00","1.5","","","M","","M","","M","10","","20","","","","101.89","","","","","","NA"
"-63.53","44.60","MCNABS ISLAND (AUT)","8203478","2019-01-27 20:00","2019","01","27","20:00","2.3","","","M","","M","","M","11","","26","","","","101.87","","","","","","NA"
"-63.53","44.60","MCNABS ISLAND (AUT)","8203478","2019-01-27 21:00","2019","01","27","21:00","2.4","","","M","","M","","M","11","","23","","","","101.77","","","","","","NA"
"-63.53","44.60","MCNABS ISLAND (AUT)","8203478","2019-01-27 22:00","2019","01","27","22:00","2.8","","","M","","M","","M","15","","20","","","","101.71","","","","","","NA"
"-63.53","44.60","MCNABS ISLAND (AUT)","8203478","2019-01-27 23:00","2019","01","27","23:00","2.7","","","M","","M","","M","12","","17","","","","101.60","","","","","","NA"
"-63.53","44.60","MCNABS ISLAND (AUT)","8203478","2019-01-28 00:00","2019","01","28","00:00","2.5","","","M","","M","","M","12","","18","","","","101.53","","","","","","NA"
"-63.53","44.60","MCNABS ISLAND (AUT)","8203478","2019-01-28 01:00","2019","01","28","01:00","2.5","","","M","","M","","M","13","","12","","","","101.47","","","","","","NA"
"-63.53","44.60","MCNABS ISLAND (AUT)","8203478","2019-01-28 02:00","2019","01","28","02:00","2.1","","","M","","M","","M","30","","5","","","","101.41","","","","","","NA"
"-63.53","44.60","MCNABS ISLAND (AUT)","8203478","2019-01-28 03:00","2019","01","28","03:00","2.6","","","M","","M","","M","9","","11","","","","101.34","","","","","","NA"
"-63.53","44.60","MCNABS ISLAND (AUT)","8203478","2019-01-28 04:00","2019","01","28","04:00","2.8","","","M","","M","","M","10","","18","","","","101.29","","","","","","NA"
"-63.53","44.60","MCNABS ISLAND (AUT)","8203478","2019-01-28 05:00","2019","01","28","05:00","2.3","","","M","","M","","M","12","","12","","","","101.24","","","","","","NA"
"-63.53","44.60","MCNABS ISLAND (AUT)","8203478","2019-01-28 06:00","2019","01","28","06:00","1.9","","","M","","M","","M","12","","9","","","","101.13","","","","","","NA"
"-63.53","44.60","MCNABS ISLAND (AUT)","8203478","2019-01-28 07:00","2019","01","28","07:00","1.8","","","M","","M","","M","12","","5","","","","101.15","","","","","","NA"
"-63.53","44.60","MCNABS ISLAND (AUT)","8203478","2019-01-28 08:00","2019","01","28","08:00","1.7","","","M","","M","","M","19","","3","","","","101.22","","","","","","NA"
"-63.53","44.60","MCNABS ISLAND (AUT)","8203478","2019-01-28 09:00","2019","01","28","09:00","1.8","","","M","","M","","M","14","","5","","","","101.17","","","","","","NA"
"-63.53","44.60","MCNABS ISLAND (AUT)","8203478","2019-01-28 10:00","2019","01","28","10:00","1.9","","","M","","M","","M","14","","4","","","","101.19","","","","","","NA"
"-63.53","44.60","MCNABS ISLAND (AUT)","8203478","2019-01-28 11:00","2019","01","28","11:00","2.9","","","M","","M","","M","29","","6","","","","101.17","","","","","","NA"
"-63.53","44.60","MCNABS ISLAND (AUT)","8203478","2019-01-28 12:00","2019","01","28","12:00","3.4","","","M","","M","","M","29","","6","","","","101.16","","","","","","NA"
"-63.53","44.60","MCNABS ISLAND (AUT)","8203478","2019-01-28 13:00","2019","01","28","13:00","4.0","","","M","","M","","M","29","","8","","","","101.14","","","","","","NA"
"-63.53","44.60","MCNABS ISLAND (AUT)","8203478","2019-01-28 14:00","2019","01","28","14:00","2.3","","","M","","M","","M","33","","15","","","","101.20","","","","","","NA"
"-63.53","44.60","MCNABS ISLAND (AUT)","8203478","2019-01-28 15:00","2019","01","28","15:00","1.8","","","M","","M","","M","32","","11","","","","101.27","","","","","","NA"
"-63.53","44.60","MCNABS ISLAND (AUT)","8203478","2019-01-28 16:00","2019","01","28","16:00","0.8","","","M","","M","","M","33","","13","","","","101.30","","","","","","NA"
"-63.53","44.60","MCNABS ISLAND (AUT)","8203478","2019-01-28 17:00","2019","01","28","17:00","-0.3","","","M","","M","","M","33","","13","","","","101.30","","","","-4","","NA"
"-63.53","44.60","MCNABS ISLAND (AUT)","8203478","2019-01-28 18:00","2019","01","28","18:00","-1.8","","","M","","M","","M","33","","17","","","","101.44","","","","-7","","NA"
"-63.53","44.60","MCNABS ISLAND (AUT)","8203478","2019-01-28 19:00","2019","01","28","19:00","-2.7","","","M","","M","","M","33","","21","","","","101.50","","","","-9","","NA"
"-63.53","44.60","MCNABS ISLAND (AUT)","8203478","2019-01-28 20:00","2019","01","28","20:00","-3.0","","","M","","M","","M","34","","16","","","","101.54","","","","-8","","NA"
"-63.53","44.60","MCNABS ISLAND (AUT)","8203478","2019-01-28 21:00","2019","01","28","21:00","-3.9","","","M","","M","","M","35","","15","","","","101.57","","","","-9","","NA"
"-63.53","44.60","MCNABS ISLAND (AUT)","8203478","2019-01-28 22:00","2019","01","28","22:00","-5.1","","","M","","M","","M","2","","14","","","","101.67","","","","-10","","NA"
"-63.53","44.60","MCNABS ISLAND (AUT)","8203478","2019-01-28 23:00","2019","01","28","23:00","-6.6","","","M","","M","","M","1","","18","","","","101.66","","","","-13","","NA"
"-63.53","44.60","MCNABS ISLAND (AUT)","8203478","2019-01-29 00:00","2019","01","29","00:00","-7.3","","","M","","M","","M","2","","21","","","","101.67","","","","-15","","NA"
"-63.53","44.60","MCNABS ISLAND (AUT)","8203478","2019-01-29 01:00","2019","01","29","01:00","-7.8","","","M","","M","","M","1","","16","","","","101.67","","","","-14","","NA"
"-63.53","44.60","MCNABS ISLAND (AUT)","8203478","2019-01-29 02:00","2019","01","29","02:00","-7.9","","","M","","M","","M","2","","15","","","","101.68","","","","-14","","NA"
"-63.53","44.60","MCNABS ISLAND (AUT)","8203478","2019-01-29 03:00","2019","01","29","03:00","-8.1","","","M","","M","","M","1","","17","","","","101.68","","","","-15","","NA"
"-63.53","44.60","MCNABS ISLAND (AUT)","8203478","2019-01-29 04:00","2019","01","29","04:00","-8.5","","","M","","M","","M","2","","10","","","","101.73","","","","-13","","NA"
"-63.53","44.60","MCNABS ISLAND (AUT)","8203478","2019-01-29 05:00","2019","01","29","05:00","-9.1","","","M","","M","","M","1","","14","","","","101.73","","","","-15","","NA"
"-63.53","44.60","MCNABS ISLAND (AUT)","8203478","2019-01-29 06:00","2019","01","29","06:00","-9.8","","","M","","M","","M","1","","18","","","","101.68","","","","-17","","NA"
"-63.53","44.60","MCNABS ISLAND (AUT)","8203478","2019-01-29 07:00","2019","01","29","07:00","-10.3","","","M","","M","","M","1","","16","","","","101.78","","","","-17","","NA"
"-63.53","44.60","MCNABS ISLAND (AUT)","8203478","2019-01-29 08:00","2019","01","29","08:00","-10.7","","","M","","M","","M","1","","18","","","","101.84","","","","-18","","NA"
"-63.53","44.60","MCNABS ISLAND (AUT)","8203478","2019-01-29 09:00","2019","01","29","09:00","-9.4","","","M","","M","","M","1","","12","","","","101.94","","","","-15","","NA"
"-63.53","44.60","MCNABS ISLAND (AUT)","8203478","2019-01-29 10:00","2019","01","29","10:00","-8.0","","","M","","M","","M","3","","17","","","","101.93","","","","-15","","NA"
"-63.53","44.60","MCNABS ISLAND (AUT)","8203478","2019-01-29 11:00","2019","01","29","11:00","-6.4","","","M","","M","","M","2","","16","","","","101.97","","","","-13","","NA"
"-63.53","44.60","MCNABS ISLAND (AUT)","8203478","2019-01-29 12:00","2019","01","29","12:00","-4.9","","","M","","M","","M","2","","12","","","","101.95","","","","-10","","NA"
"-63.53","44.60","MCNABS ISLAND (AUT)","8203478","2019-01-29 13:00","2019","01","29","13:00","-2.7","","","M","","M","","M","6","","12","","","","101.90","","","","-7","","NA"
"-63.53","44.60","MCNABS ISLAND (AUT)","8203478","2019-01-29 14:00","2019","01","29","14:00","-2.3","","","M","","M","","M","1","","9","","","","101.88","","","","-6","","NA"
"-63.53","44.60","MCNABS ISLAND (AUT)","8203478","2019-01-29 15:00","2019","01","29","15:00","-0.7","","","M","","M","","M","6","","1","","","","101.92","","","","-1","","NA"
"-63.53","44.60","MCNABS ISLAND (AUT)","8203478","2019-01-29 16:00","2019","01","29","16:00","-2.4","","","M","","M","","M","19","","5","","","","101.90","","","","-4","","NA"
"-63.53","44.60","MCNABS ISLAND (AUT)","8203478","2019-01-29 17:00","2019","01","29","17:00","-3.0","","","M","","M","","M","17","","12","","","","101.98","","","","-7","","NA"
"-63.53","44.60","MCNABS ISLAND (AUT)","8203478","2019-01-29 18:00","2019","01","29","18:00","-3.2","","","M","","M","","M","14","","7","","","","101.97","","","","-6","","NA"
"-63.53","44.60","MCNABS ISLAND (AUT)","8203478","2019-01-29 19:00","2019","01","29","19:00","-3.4","","","M","","M","","M","12","","9","","","","102.03","","","","-7","","NA"
"-63.53","44.60","MCNABS ISLAND (AUT)","8203478","2019-01-29 20:00","2019","01","29","20:00","-3.3","","","M","","M","","M","11","","9","","","","102.05","","","","-7","","NA"
"-63.53","44.60","MCNABS ISLAND (AUT)","8203478","2019-01-29 21:00","2019","01","29","21:00","-5.1","","","M","","M","","M","4","","11","","","","102.05","","","","-10","","NA"
"-63.53","44.60","MCNABS ISLAND (AUT)","8203478","2019-01-29 22:00","2019","01","29","22:00","-5.9","","","M","","M","","M","4","","14","","","","101.98","","","","-11","","NA"
"-63.53","44.60","MCNABS ISLAND (AUT)","8203478","2019-01-29 23:00","2019","01","29","23:00","-6.1","","","M","","M","","M","5","","16","","","","101.92","","","","-12","","NA"
"-63.53","44.60","MCNABS ISLAND (AUT)","8203478","2019-01-30 00:00","2019","01","30","00:00","-5.7","","","M","","M","","M","6","","14","","","","101.88","","","","-11","","NA"
"-63.53","44.60","MCNABS ISLAND (AUT)","8203478","2019-01-30 01:00","2019","01","30","01:00","-5.2","","","M","","M","","M","6","","17","","","","101.90","","","","-11","","NA"
"-63.53","44.60","MCNABS ISLAND (AUT)","8203478","2019-01-30 02:00","2019","01","30","02:00","-4.9","","","M","","M","","M","7","","17","","","","101.78","","","","-11","","NA"
"-63.53","44.60","MCNABS ISLAND (AUT)","8203478","2019-01-30 03:00","2019","01","30","03:00","-3.7","","","M","","M","","M","8","","17","","","","101.76","","","","-9","","NA"
"-63.53","44.60","MCNABS ISLAND (AUT)","8203478","2019-01-30 04:00","2019","01","30","04:00","-0.9","","","M","","M","","M","10","","24","","","","101.62","","","","-7","","NA"
"-63.53","44.60","MCNABS ISLAND (AUT)","8203478","2019-01-30 05:00","2019","01","30","05:00","-0.5","","","M","","M","","M","10","","26","","","","101.51","","","","-7","","NA"
"-63.53","44.60","MCNABS ISLAND (AUT)","8203478","2019-01-30 06:00","2019","01","30","06:00","0.0","","","M","","M","","M","10","","25","","","","101.38","","","","-6","","NA"
"-63.53","44.60","MCNABS ISLAND (AUT)","8203478","2019-01-30 07:00","2019","01","30","07:00","0.4","","","M","","M","","M","11","","31","","","","101.29","","","","","","NA"
"-63.53","44.60","MCNABS ISLAND (AUT)","8203478","2019-01-30 08:00","2019","01","30","08:00","0.4","","","M","","M","","M","10","","33","","","","101.22","","","","","","NA"
"-63.53","44.60","MCNABS ISLAND (AUT)","8203478","2019-01-30 09:00","2019","01","30","09:00","0.7","","","M","","M","","M","10","","34","","","","101.17","","","","","","NA"
"-63.53","44.60","MCNABS ISLAND (AUT)","8203478","2019-01-30 10:00","2019","01","30","10:00","0.3","","","M","","M","","M","10","","33","","","","101.11","","","","","","NA"
"-63.53","44.60","MCNABS ISLAND (AUT)","8203478","2019-01-30 11:00","2019","01","30","11:00","0.1","","","M","","M","","M","9","","30","","","","100.99","","","","","","NA"
"-63.53","44.60","MCNABS ISLAND (AUT)","8203478","2019-01-30 12:00","2019","01","30","12:00","0.2","","","M","","M","","M","9","","29","","","","100.79","","","","","","NA"
"-63.53","44.60","MCNABS ISLAND (AUT)","8203478","2019-01-30 13:00","2019","01","30","13:00","0.7","","","M","","M","","M","8","","32","","","","100.62","","","","","","NA"
"-63.53","44.60","MCNABS ISLAND (AUT)","8203478","2019-01-30 14:00","2019","01","30","14:00","1.1","","","M","","M","","M","8","","40","","","","100.42","","","","","","NA"
"-63.53","44.60","MCNABS ISLAND (AUT)","8203478","2019-01-30 15:00","2019","01","30","15:00","1.4","","","M","","M","","M","8","","39","","","","100.26","","","","","","NA"
"-63.53","44.60","MCNABS ISLAND (AUT)","8203478","2019-01-30 16:00","2019","01","30","16:00","1.7","","","M","","M","","M","9","","30","","","","100.23","","","","","","NA"
"-63.53","44.60","MCNABS ISLAND (AUT)","8203478","2019-01-30 17:00","2019","01","30","17:00","3.0","","","M","","M","","M","11","","33","","","","100.17","","","","","","NA"
"-63.53","44.60","MCNABS ISLAND (AUT)","8203478","2019-01-30 18:00","2019","01","30","18:00","3.1","","","M","","M","","M","12","","19","","","","100.14","","","","","","NA"
"-63.53","44.60","MCNABS ISLAND (AUT)","8203478","2019-01-30 19:00","2019","01","30","19:00","4.1","","","M","","M","","M","25","","28","","","","100.12","","","","","","NA"
"-63.53","44.60","MCNABS ISLAND (AUT)","8203478","2019-01-30 20:00","2019","01","30","20:00","2.7","","","M","","M","","M","25","","40","","","","100.24","","","","","","NA"
"-63.53","44.60","MCNABS ISLAND (AUT)","8203478","2019-01-30 21:00","2019","01","30","21:00","0.5","","","M","","M","","M","25","","33","","","","100.47","","","","","","NA"
"-63.53","44.60","MCNABS ISLAND (AUT)","8203478","2019-01-30 22:00","2019","01","30","22:00","0.1","","","M","","M","","M","26","","27","","","","100.64","","","","","","NA"
"-63.53","44.60","MCNABS ISLAND (AUT)","8203478","2019-01-30 23:00","2019","01","30","23:00","-0.4","","","M","","M","","M","26","","27","","","","100.72","","","","-7","","NA"
"-63.53","44.60","MCNABS ISLAND (AUT)","8203478","2019-01-31 00:00","2019","01","31","00:00","-1.1","","","M","","M","","M","25","","18","","","","100.81","","","","-6","","NA"
"-63.53","44.60","MCNABS ISLAND (AUT)","8203478","2019-01-31 01:00","2019","01","31","01:00","-1.7","","","M","","M","","M","24","","13","","","","100.84","","","","-6","","NA"
"-63.53","44.60","MCNABS ISLAND (AUT)","8203478","2019-01-31 02:00","2019","01","31","02:00","-2.0","","","M","","M","","M","22","","8","","","","100.77","","","","-5","","NA"
"-63.53","44.60","MCNABS ISLAND (AUT)","8203478","2019-01-31 03:00","2019","01","31","03:00","-0.9","","","M","","M","","M","17","","20","","","","100.70","","","","-6","","NA"
"-63.53","44.60","MCNABS ISLAND (AUT)","8203478","2019-01-31 04:00","2019","01","31","04:00","0.1","","","M","","M","","M","18","","39","","","","100.63","","","","","","NA"
"-63.53","44.60","MCNABS ISLAND (AUT)","8203478","2019-01-31 05:00","2019","01","31","05:00","-0.4","","","M","","M","","M","22","","36","","","","100.58","","","","-8","","NA"
"-63.53","44.60","MCNABS ISLAND (AUT)","8203478","2019-01-31 06:00","2019","01","31","06:00","-0.4","","","M","","M","","M","23","","38","","","","100.52","","","","-8","","NA"
"-63.53","44.60","MCNABS ISLAND (AUT)","8203478","2019-01-31 07:00","2019","01","31","07:00","-2.4","","","M","","M","","M","24","","51","","","","100.59","","","","-11","","NA"
"-63.53","44.60","MCNABS ISLAND (AUT)","8203478","2019-01-31 08:00","2019","01","31","08:00","-3.9","","","M","","M","","M","25","","40","","","","100.81","","","","-13","","NA"
"-63.53","44.60","MCNABS ISLAND (AUT)","8203478","2019-01-31 09:00","2019","01","31","09:00","-6.8","","","M","","M","","M","26","","37","","","","101.07","","","","-16","","NA"
"-63.53","44.60","MCNABS ISLAND (AUT)","8203478","2019-01-31 10:00","2019","01","31","10:00","-6.5","","","M","","M","","M","28","","20","","","","101.19","","","","-13","","NA"
"-63.53","44.60","MCNABS ISLAND (AUT)","8203478","2019-01-31 11:00","2019","01","31","11:00","-5.9","","","M","","M","","M","28","","22","","","","101.22","","","","-13","","NA"
"-63.53","44.60","MCNABS ISLAND (AUT)","8203478","2019-01-31 12:00","2019","01","31","12:00","-6.1","","","M","","M","","M","27","","28","","","","101.24","","","","-14","","NA"
"-63.53","44.60","MCNABS ISLAND (AUT)","8203478","2019-01-31 13:00","2019","01","31","13:00","-6.7","","","M","","M","","M","25","","48","","","","101.25","","","","-17","","NA"
"-63.53","44.60","MCNABS ISLAND (AUT)","8203478","2019-01-31 14:00","2019","01","31","14:00","-7.4","","","M","","M","","M","25","","47","","","","101.27","","","","-18","","NA"
"-63.53","44.60","MCNABS ISLAND (AUT)","8203478","2019-01-31 15:00","2019","01","31","15:00","-8.0","","","M","","M","","M","26","","30","","","","101.38","","","","-17","","NA"
"-63.53","44.60","MCNABS ISLAND (AUT)","8203478","2019-01-31 16:00","2019","01","31","16:00","-7.7","","","M","","M","","M","25","","37","","","","101.39","","","","-17","","NA"
"-63.53","44.60","MCNABS ISLAND (AUT)","8203478","2019-01-31 17:00","2019","01","31","17:00","-8.0","","","M","","M","","M","25","","28","","","","101.37","","","","-17","","NA"
"-63.53","44.60","MCNABS ISLAND (AUT)","8203478","2019-01-31 18:00","2019","01","31","18:00","-8.5","","","M","","M","","M","26","","24","","","","101.43","","","","-17","","NA"
"-63.53","44.60","MCNABS ISLAND (AUT)","8203478","2019-01-31 19:00","2019","01","31","19:00","-8.1","","","M","","M","","M","25","","34","","","","101.51","","","","-18","","NA"
"-63.53","44.60","MCNABS ISLAND (AUT)","8203478","2019-01-31 20:00","2019","01","31","20:00","-9.0","","","M","","M","","M","27","","23","","","","101.64","","","","-17","","NA"
"-63.53","44.60","MCNABS ISLAND (AUT)","8203478","2019-01-31 21:00","2019","01","31","21:00","-9.4","","","M","","M","","M","27","","22","","","","101.72","","","","-17","","NA"
"-63.53","44.60","MCNABS ISLAND (AUT)","8203478","2019-01-31 22:00","2019","01","31","22:00","-9.8","","","M","","M","","M","26","","21","","","","101.78","","","","-18","","NA"
"-63.53","44.60","MCNABS ISLAND (AUT)","8203478","2019-01-31 23:00","2019","01","31","23:00","-10.1","","","M","","M","","M","27","","21","","","","101.80","","","","-18","","NA"
