"Longitude (x)","Latitude (y)","Station Name","Climate ID","Date/Time (LST)","Year","Month","Day","Time (LST)","Temp (°C)","Temp Flag","Dew Point Temp (°C)","Dew Point Temp Flag","Rel Hum (%)","Rel Hum Flag","Precip. Amount (mm)","Precip. Amount Flag","Wind Dir (10s deg)","Wind Dir Flag","Wind Spd (km/h)","Wind Spd Flag","Visibility (km)","Visibility Flag","Stn Press (kPa)","Stn Press Flag","Hmdx","Hmdx Flag","Wind Chill","Wind Chill Flag","Weather"
"-105.30","73.77","STEFANSSON ISLAND","2403756","2012-02-01 00:00","2012","02","01","00:00","-31.1","","-34.3","","73","","","","9","","20","","","","100.73","","","","-44","","NA"
"-105.30","73.77","STEFANSSON ISLAND","2403756","2012-02-01 01:00","2012","02","01","01:00","-32.0","","-35.4","","72","","","","11","","22","","","","100.71","","","","-46","","NA"
"-105.30","73.77","STEFANSSON ISLAND","2403756","2012-02-01 02:00","2012","02","01","02:00","-32.6","","-36.0","","72","","","","10","","17","","","","100.73","","","","-45","","NA"
"-105.30","73.77","STEFANSSON ISLAND","2403756","2012-02-01 03:00","2012","02","01","03:00","-33.2","","-36.6","","71","","","","9","","20","","","","100.70","","","","-47","","NA"
"-105.30","73.77","STEFANSSON ISLAND","2403756","2012-02-01 04:00","2012","02","01","04:00","-33.3","","-36.8","","71","","","","11","","19","","","","100.68","","","","-47","","NA"
"-105.30","73.77","STEFANSSON ISLAND","2403756","2012-02-01 05:00","2012","02","01","05:00","-32.9","","-36.3","","72","","","","11","","20","","","","100.66","","","","-47","","NA"
"-105.30","73.77","STEFANSSON ISLAND","2403756","2012-02-01 06:00","2012","02","01","06:00","-33.5","","-37.0","","71","","","","11","","24","","","","100.63","","","","-49","","NA"
"-105.30","73.77","STEFANSSON ISLAND","2403756","2012-02-01 07:00","2012","02","01","07:00","-33.1","","-36.6","","71","","","","11","","22","","","","100.60","","","","-48","","NA"
"-105.30","73.77","STEFANSSON ISLAND","2403756","2012-02-01 08:00","2012","02","01","08:00","-31.1","","-34.3","","73","","","","10","","20","","","","100.59","","","","-44","","NA"
"-105.30","73.77","STEFANSSON ISLAND","2403756","2012-02-01 09:00","2012","02","01","09:00","-30.9","","-34.2","","73","","","","9","","20","","","","100.56","","","","-44","","NA"
"-105.30","73.77","STEFANSSON ISLAND","2403756","2012-02-01 10:00","2012","02","01","10:00","-30.8","","-34.0","","73","","","","11","","13","","","","100.57","","","","-42","","NA"
"-105.30","73.77","STEFANSSON ISLAND","2403756","2012-02-01 11:00","2012","02","01","11:00","-29.9","","-32.9","","75","","","","5","","7","","","","100.55","","","","-37","","NA"
"-105.30","73.77","STEFANSSON ISLAND","2403756","2012-02-01 12:00","2012","02","01","12:00","-27.7","","-30.5","","77","","","","15","","17","","","","100.52","","","","-39","","NA"
"-105.30","73.77","STEFANSSON ISLAND","2403756","2012-02-01 13:00","2012","02","01","13:00","-28.1","","-31.0","","76","","","","16","","7","","","","100.57","","","","-35","","NA"
"-105.30","73.77","STEFANSSON ISLAND","2403756","2012-02-01 14:00","2012","02","01","14:00","-27.8","","-30.7","","76","","","","18","","11","","","","100.56","","","","-37","","NA"
"-105.30","73.77","STEFANSSON ISLAND","2403756","2012-02-01 15:00","2012","02","01","15:00","-29.4","","-32.6","","74","","","","15","","9","","","","100.54","","","","-38","","NA"
"-105.30","73.77","STEFANSSON ISLAND","2403756","2012-02-01 16:00","2012","02","01","16:00","-28.8","","-31.6","","77","","","","15","","11","","","","100.59","","","","-38","","NA"
"-105.30","73.77","STEFANSSON ISLAND","2403756","2012-02-01 17:00","2012","02","01","17:00","-29.5","","-32.6","","74","","","","21","","15","","","","100.63","","","","-41","","NA"
"-105.30","73.77","STEFANSSON ISLAND","2403756","2012-02-01 18:00","2012","02","01","18:00","-29.5","","-32.6","","74","","","","23","","19","","","","100.63","","","","-42","","NA"
"-105.30","73.77","STEFANSSON ISLAND","2403756","2012-02-01 19:00","2012","02","01","19:00","-29.2","","-32.2","","75","","","","24","","19","","","","100.65","","","","-42","","NA"
"-105.30","73.77","STEFANSSON ISLAND","2403756","2012-02-01 20:00","2012","02","01","20:00","-28.8","","-31.8","","75","","","","25","","17","","","","100.67","","","","-41","","NA"
"-105.30","73.77","STEFANSSON ISLAND","2403756","2012-02-01 21:00","2012","02","01","21:00","-28.9","","-31.9","","75","","","","26","","17","","","","100.69","","","","-41","","NA"
"-105.30","73.77","STEFANSSON ISLAND","2403756","2012-02-01 22:00","2012","02","01","22:00","-29.6","","-32.6","","75","","","","25","","20","","","","100.73","","","","-43","","NA"
"-105.30","73.77","STEFANSSON ISLAND","2403756","2012-02-01 23:00","2012","02","01","23:00","-29.4","","-32.4","","75","","","","23","","15","","","","100.77","","","","-41","","NA"
"-105.30","73.77","STEFANSSON ISLAND","2403756","2012-02-02 00:00","2012","02","02","00:00","-29.4","","-32.5","","74","","","","23","","19","","","","100.84","","","","-42","","NA"
"-105.30","73.77","STEFANSSON ISLAND","2403756","2012-02-02 01:00","2012","02","02","01:00","-29.6","","-32.7","","74","","","","26","","26","","","","100.87","","","","-44","","NA"
"-105.30","73.77","STEFANSSON ISLAND","2403756","2012-02-02 02:00","2012","02","02","02:00","-32.1","","-35.5","","72","","","","25","","20","","","","100.92","","","","-46","","NA"
"-105.30","73.77","STEFANSSON ISLAND","2403756","2012-02-02 03:00","2012","02","02","03:00","-33.8","","-37.4","","70","","","","24","","17","","","","100.98","","","","-47","","NA"
"-105.30","73.77","STEFANSSON ISLAND","2403756","2012-02-02 04:00","2012","02","02","04:00","-34.8","","-38.4","","70","","","","25","","20","","","","100.99","","","","-49","","NA"
"-105.30","73.77","STEFANSSON ISLAND","2403756","2012-02-02 05:00","2012","02","02","05:00","-35.6","","-39.4","","68","","","","26","","24","","","","101.01","","","","-51","","NA"
"-105.30","73.77","STEFANSSON ISLAND","2403756","2012-02-02 06:00","2012","02","02","06:00","-36.2","","-39.9","","69","","","","25","","19","","","","101.05","","","","-51","","NA"
"-105.30","73.77","STEFANSSON ISLAND","2403756","2012-02-02 07:00","2012","02","02","07:00","-36.5","","-40.3","","68","","","","26","","19","","","","101.04","","","","-51","","NA"
"-105.30","73.77","STEFANSSON ISLAND","2403756","2012-02-02 08:00","2012","02","02","08:00","-36.9","","-40.8","","67","","","","23","","11","","","","101.05","","","","-48","","NA"
"-105.30","73.77","STEFANSSON ISLAND","2403756","2012-02-02 09:00","2012","02","02","09:00","-36.8","","-40.7","","67","","","","23","","15","","","","101.01","","","","-50","","NA"
"-105.30","73.77","STEFANSSON ISLAND","2403756","2012-02-02 10:00","2012","02","02","10:00","-36.7","","-40.6","","67","","","","20","","6","","","","100.99","","","","-44","","NA"
"-105.30","73.77","STEFANSSON ISLAND","2403756","2012-02-02 11:00","2012","02","02","11:00","-36.9","","-40.9","","66","","","","13","","7","","","","100.94","","","","-45","","NA"
"-105.30","73.77","STEFANSSON ISLAND","2403756","2012-02-02 12:00","2012","02","02","12:00","-35.0","","-38.7","","69","","","","11","","9","","","","100.86","","","","-45","","NA"
"-105.30","73.77","STEFANSSON ISLAND","2403756","2012-02-02 13:00","2012","02","02","13:00","-33.0","","-36.4","","72","","","","11","","19","","","","100.76","","","","-47","","NA"
"-105.30","73.77","STEFANSSON ISLAND","2403756","2012-02-02 14:00","2012","02","02","14:00","-31.7","","-35.0","","73","","","","13","","20","","","","100.66","","","","-45","","NA"
"-105.30","73.77","STEFANSSON ISLAND","2403756","2012-02-02 15:00","2012","02","02","15:00","-31.0","","-34.3","","73","","","","10","","26","","","","100.49","","","","-46","","NA"
"-105.30","73.77","STEFANSSON ISLAND","2403756","2012-02-02 16:00","2012","02","02","16:00","-29.6","","-32.7","","74","","","","11","","28","","","","100.35","","","","-45","","NA"
"-105.30","73.77","STEFANSSON ISLAND","2403756","2012-02-02 17:00","2012","02","02","17:00","-28.8","","-31.8","","75","","","","11","","30","","","","100.26","","","","-44","","NA"
"-105.30","73.77","STEFANSSON ISLAND","2403756","2012-02-02 18:00","2012","02","02","18:00","-28.3","","-31.2","","76","","","","10","","33","","","","100.07","","","","-44","","NA"
"-105.30","73.77","STEFANSSON ISLAND","2403756","2012-02-02 19:00","2012","02","02","19:00","-27.7","","-30.5","","77","","","","9","","30","","","","99.92","","","","-43","","NA"
"-105.30","73.77","STEFANSSON ISLAND","2403756","2012-02-02 20:00","2012","02","02","20:00","-26.7","","-29.4","","78","","","","9","","28","","","","99.70","","","","-41","","NA"
"-105.30","73.77","STEFANSSON ISLAND","2403756","2012-02-02 21:00","2012","02","02","21:00","-25.2","","-27.8","","79","","","","9","","30","","","","99.52","","","","-39","","NA"
"-105.30","73.77","STEFANSSON ISLAND","2403756","2012-02-02 22:00","2012","02","02","22:00","-24.6","","-27.1","","80","","","","9","","24","","","","99.44","","","","-37","","NA"
"-105.30","73.77","STEFANSSON ISLAND","2403756","2012-02-02 23:00","2012","02","02","23:00","-24.4","","-26.9","","80","","","","8","","22","","","","99.31","","","","-37","","NA"
"-105.30","73.77","STEFANSSON ISLAND","2403756","2012-02-03 00:00","2012","02","03","00:00","-24.1","","-26.6","","80","","","","6","","24","","","","99.23","","","","-37","","NA"
"-105.30","73.77","STEFANSSON ISLAND","2403756","2012-02-03 01:00","2012","02","03","01:00","-23.9","","-26.3","","81","","","","5","","28","","","","99.13","","","","-37","","NA"
"-105.30","73.77","STEFANSSON ISLAND","2403756","2012-02-03 02:00","2012","02","03","02:00","-23.5","","-25.9","","81","","","","5","","28","","","","99.13","","","","-37","","NA"
"-105.30","73.77","STEFANSSON ISLAND","2403756","2012-02-03 03:00","2012","02","03","03:00","-23.8","","-26.2","","81","","","","2","","28","","","","99.21","","","","-37","","NA"
"-105.30","73.77","STEFANSSON ISLAND","2403756","2012-02-03 04:00","2012","02","03","04:00","-24.2","","-26.6","","80","","","","2","","32","","","","99.32","","","","-38","","NA"
"-105.30","73.77","STEFANSSON ISLAND","2403756","2012-02-03 05:00","2012","02","03","05:00","-25.0","","-27.6","","79","","","","1","","32","","","","99.45","","","","-39","","NA"
"-105.30","73.77","STEFANSSON ISLAND","2403756","2012-02-03 06:00","2012","02","03","06:00","-25.8","","-28.4","","79","","","","36","","35","","","","99.54","","","","-41","","NA"
"-105.30","73.77","STEFANSSON ISLAND","2403756","2012-02-03 07:00","2012","02","03","07:00","-27.0","","-29.7","","78","","","","36","","37","","","","99.68","","","","-43","","NA"
"-105.30","73.77","STEFANSSON ISLAND","2403756","2012-02-03 08:00","2012","02","03","08:00","-29.8","","-32.8","","75","","","","36","","37","","","","99.84","","","","-47","","NA"
"-105.30","73.77","STEFANSSON ISLAND","2403756","2012-02-03 09:00","2012","02","03","09:00","-31.5","","-34.7","","73","","","","34","","32","","","","100.02","","","","-48","","NA"
"-105.30","73.77","STEFANSSON ISLAND","2403756","2012-02-03 10:00","2012","02","03","10:00","-32.5","","-35.8","","72","","","","33","","24","","","","100.20","","","","-47","","NA"
"-105.30","73.77","STEFANSSON ISLAND","2403756","2012-02-03 11:00","2012","02","03","11:00","-33.5","","-37.0","","71","","","","32","","26","","","","100.37","","","","-49","","NA"
"-105.30","73.77","STEFANSSON ISLAND","2403756","2012-02-03 12:00","2012","02","03","12:00","-34.1","","-37.7","","70","","","","31","","24","","","","100.54","","","","-49","","NA"
"-105.30","73.77","STEFANSSON ISLAND","2403756","2012-02-03 13:00","2012","02","03","13:00","-35.1","","-38.8","","69","","","","30","","22","","","","100.69","","","","-50","","NA"
"-105.30","73.77","STEFANSSON ISLAND","2403756","2012-02-03 14:00","2012","02","03","14:00","-35.4","","-39.1","","69","","","","29","","22","","","","100.84","","","","-51","","NA"
"-105.30","73.77","STEFANSSON ISLAND","2403756","2012-02-03 15:00","2012","02","03","15:00","-36.9","","-40.8","","67","","","","28","","20","","","","101.00","","","","-52","","NA"
"-105.30","73.77","STEFANSSON ISLAND","2403756","2012-02-03 16:00","2012","02","03","16:00","-37.2","","-41.1","","67","","","","29","","17","","","","101.09","","","","-51","","NA"
"-105.30","73.77","STEFANSSON ISLAND","2403756","2012-02-03 17:00","2012","02","03","17:00","-37.3","","-41.3","","66","","","","28","","22","","","","101.20","","","","-53","","NA"
"-105.30","73.77","STEFANSSON ISLAND","2403756","2012-02-03 18:00","2012","02","03","18:00","-37.4","","-41.3","","67","","","","28","","19","","","","101.27","","","","-52","","NA"
"-105.30","73.77","STEFANSSON ISLAND","2403756","2012-02-03 19:00","2012","02","03","19:00","-37.5","","-41.5","","66","","","","28","","17","","","","101.34","","","","-51","","NA"
"-105.30","73.77","STEFANSSON ISLAND","2403756","2012-02-03 20:00","2012","02","03","20:00","-39.4","","-43.5","","65","","","","27","","11","","","","101.37","","","","-51","","NA"
"-105.30","73.77","STEFANSSON ISLAND","2403756","2012-02-03 21:00","2012","02","03","21:00","-38.6","","-42.6","","66","","","","27","","11","","","","101.37","","","","-50","","NA"
"-105.30","73.77","STEFANSSON ISLAND","2403756","2012-02-03 22:00","2012","02","03","22:00","-39.1","","-43.2","","65","","","","26","","13","","","","101.42","","","","-52","","NA"
"-105.30","73.77","STEFANSSON ISLAND","2403756","2012-02-03 23:00","2012","02","03","23:00","-39.4","","-43.6","","64","","","","25","","17","","","","101.38","","","","-54","","NA"
"-105.30","73.77","STEFANSSON ISLAND","2403756","2012-02-04 00:00","2012","02","04","00:00","-39.7","","-43.9","","64","","","","25","","13","","","","101.34","","","","-52","","NA"
"-105.30","73.77","STEFANSSON ISLAND","2403756","2012-02-04 01:00","2012","02","04","01:00","-40.0","","-44.2","","64","","","","24","","7","","","","101.36","","","","-49","","NA"
"-105.30","73.77","STEFANSSON ISLAND","2403756","2012-02-04 02:00","2012","02","04","02:00","-40.2","","-44.5","","63","","","","23","","9","","","","101.36","","","","-51","","NA"
"-105.30","73.77","STEFANSSON ISLAND","2403756","2012-02-04 03:00","2012","02","04","03:00","-40.0","","-44.3","","63","","","","23","","17","","","","101.53","","","","-55","","NA"
"-105.30","73.77","STEFANSSON ISLAND","2403756","2012-02-04 04:00","2012","02","04","04:00","-39.8","","-44.0","","64","","","","26","","6","","","","101.57","","","","-48","","NA"
"-105.30","73.77","STEFANSSON ISLAND","2403756","2012-02-04 05:00","2012","02","04","05:00","-39.9","","-44.1","","64","","","","27","","6","","","","101.57","","","","-48","","NA"
"-105.30","73.77","STEFANSSON ISLAND","2403756","2012-02-04 06:00","2012","02","04","06:00","-38.9","","-43.0","","65","","","","33","","4","","","","101.60","","","","-44","","NA"
"-105.30","73.77","STEFANSSON ISLAND","2403756","2012-02-04 07:00","2012","02","04","07:00","-39.3","","-43.4","","65","","","","4","","2","","","","101.63","","","","-42","","NA"
"-105.30","73.77","STEFANSSON ISLAND","2403756","2012-02-04 08:00","2012","02","04","08:00","-39.6","","-43.6","","66","","","","4","","2","","","","101.68","","","","-42","","NA"
"-105.30","73.77","STEFANSSON ISLAND","2403756","2012-02-04 09:00","2012","02","04","09:00","-42.1","","-46.6","","61","","","","20","","4","","","","101.76","","","","-48","","NA"
"-105.30","73.77","STEFANSSON ISLAND","2403756","2012-02-04 10:00","2012","02","04","10:00","-39.5","","-43.5","","66","","","","34","","4","","","","101.80","","","","-45","","NA"
"-105.30","73.77","STEFANSSON ISLAND","2403756","2012-02-04 11:00","2012","02","04","11:00","-40.3","","-44.5","","64","","","","30","","7","","","","101.92","","","","-49","","NA"
"-105.30","73.77","STEFANSSON ISLAND","2403756","2012-02-04 12:00","2012","02","04","12:00","-41.0","","-45.2","","64","","","","29","","9","","","","102.02","","","","-52","","NA"
"-105.30","73.77","STEFANSSON ISLAND","2403756","2012-02-04 13:00","2012","02","04","13:00","-39.9","","-44.2","","63","","","","29","","9","","","","102.15","","","","-50","","NA"
"-105.30","73.77","STEFANSSON ISLAND","2403756","2012-02-04 14:00","2012","02","04","14:00","-40.6","","-45.0","","63","","","","26","","4","","","","102.24","","","","-46","","NA"
"-105.30","73.77","STEFANSSON ISLAND","2403756","2012-02-04 15:00","2012","02","04","15:00","-42.1","","-46.6","","61","","","","25","","6","","","","102.35","","","","-50","","NA"
"-105.30","73.77","STEFANSSON ISLAND","2403756","2012-02-04 16:00","2012","02","04","16:00","-42.4","","-47.0","","61","","","","32","","2","","","","102.42","","","","-45","","NA"
"-105.30","73.77","STEFANSSON ISLAND","2403756","2012-02-04 17:00","2012","02","04","17:00","-42.7","","-47.4","","60","","","","25","","4","","","","102.54","","","","-49","","NA"
"-105.30","73.77","STEFANSSON ISLAND","2403756","2012-02-04 18:00","2012","02","04","18:00","-42.2","","-46.8","","61","","","","23","","11","","","","102.61","","","","-54","","NA"
"-105.30","73.77","STEFANSSON ISLAND","2403756","2012-02-04 19:00","2012","02","04","19:00","-41.8","","-46.3","","62","","","","22","","6","","","","102.65","","","","-50","","NA"
"-105.30","73.77","STEFANSSON ISLAND","2403756","2012-02-04 20:00","2012","02","04","20:00","-42.3","","-46.9","","61","","","","22","","2","","","","102.69","","","","-45","","NA"
"-105.30","73.77","STEFANSSON ISLAND","2403756","2012-02-04 21:00","2012","02","04","21:00","-41.2","","-45.6","","62","","","","25","","2","","","","102.77","","","","-44","","NA"
"-105.30","73.77","STEFANSSON ISLAND","2403756","2012-02-04 22:00","2012","02","04","22:00","-42.4","","-46.9","","61","","","","26","","6","","","","102.80","","","","-51","","NA"
"-105.30","73.77","STEFANSSON ISLAND","2403756","2012-02-04 23:00","2012","02","04","23:00"
"-105.30","73.77","STEFANSSON ISLAND","2403756","2012-02-05 00:00","2012","02","05","00:00","-39.2","","-43.4","","64","","","","27","","6","","","","102.89","","","","-47","","NA"
"-105.30","73.77","STEFANSSON ISLAND","2403756","2012-02-05 01:00","2012","02","05","01:00","-38.7","","-42.9","","64","","","","9","","6","","","","102.86","","","","-47","","NA"
"-105.30","73.77","STEFANSSON ISLAND","2403756","2012-02-05 02:00","2012","02","05","02:00","-38.8","","-42.9","","65","","","","14","","7","","","","102.92","","","","-48","","NA"
"-105.30","73.77","STEFANSSON ISLAND","2403756","2012-02-05 03:00","2012","02","05","03:00","-38.9","","-43.1","","64","","","","11","","4","","","","102.95","","","","-44","","NA"
"-105.30","73.77","STEFANSSON ISLAND","2403756","2012-02-05 04:00","2012","02","05","04:00","-38.8","","-43.0","","64","","","","17","","2","","","","102.93","","","","-42","","NA"
"-105.30","73.77","STEFANSSON ISLAND","2403756","2012-02-05 05:00","2012","02","05","05:00","-38.0","","-42.1","","65","","","","","","0","","","","102.91","","","","","","NA"
"-105.30","73.77","STEFANSSON ISLAND","2403756","2012-02-05 06:00","2012","02","05","06:00","-29.6","","-32.7","","74","","","","28","","9","","","","102.85","","","","-38","","NA"
"-105.30","73.77","STEFANSSON ISLAND","2403756","2012-02-05 07:00","2012","02","05","07:00","-29.3","","-32.4","","74","","","","24","","17","","","","102.78","","","","-41","","NA"
"-105.30","73.77","STEFANSSON ISLAND","2403756","2012-02-05 08:00","2012","02","05","08:00","-27.9","","-30.8","","76","","","","24","","15","","","","102.75","","","","-39","","NA"
"-105.30","73.77","STEFANSSON ISLAND","2403756","2012-02-05 09:00","2012","02","05","09:00","-27.2","","-30.1","","76","","","","26","","17","","","","102.72","","","","-39","","NA"
"-105.30","73.77","STEFANSSON ISLAND","2403756","2012-02-05 10:00","2012","02","05","10:00","-26.5","","-29.3","","77","","","","27","","20","","","","102.67","","","","-39","","NA"
"-105.30","73.77","STEFANSSON ISLAND","2403756","2012-02-05 11:00","2012","02","05","11:00","-26.4","","-29.1","","78","","","","29","","30","","","","102.63","","","","-41","","NA"
"-105.30","73.77","STEFANSSON ISLAND","2403756","2012-02-05 12:00","2012","02","05","12:00","-26.4","","-29.1","","78","","","","28","","28","","","","102.61","","","","-41","","NA"
"-105.30","73.77","STEFANSSON ISLAND","2403756","2012-02-05 13:00","2012","02","05","13:00","-26.3","","-29.0","","78","","","","29","","28","","","","102.57","","","","-40","","NA"
"-105.30","73.77","STEFANSSON ISLAND","2403756","2012-02-05 14:00","2012","02","05","14:00","-27.2","","-30.0","","77","","","","29","","24","","","","102.63","","","","-41","","NA"
"-105.30","73.77","STEFANSSON ISLAND","2403756","2012-02-05 15:00","2012","02","05","15:00","-29.1","","-32.1","","75","","","","29","","22","","","","102.69","","","","-43","","NA"
"-105.30","73.77","STEFANSSON ISLAND","2403756","2012-02-05 16:00","2012","02","05","16:00","-30.7","","-33.8","","74","","","","28","","20","","","","102.68","","","","-44","","NA"
"-105.30","73.77","STEFANSSON ISLAND","2403756","2012-02-05 17:00","2012","02","05","17:00","-31.5","","-34.8","","73","","","","27","","28","","","","102.66","","","","-47","","NA"
"-105.30","73.77","STEFANSSON ISLAND","2403756","2012-02-05 18:00","2012","02","05","18:00","-32.3","","-35.6","","72","","","","27","","22","","","","102.62","","","","-47","","NA"
"-105.30","73.77","STEFANSSON ISLAND","2403756","2012-02-05 19:00","2012","02","05","19:00","-32.3","","-35.6","","72","","","","27","","24","","","","102.55","","","","-47","","NA"
"-105.30","73.77","STEFANSSON ISLAND","2403756","2012-02-05 20:00","2012","02","05","20:00","-31.2","","-34.5","","73","","","","27","","20","","","","102.48","","","","-45","","NA"
"-105.30","73.77","STEFANSSON ISLAND","2403756","2012-02-05 21:00","2012","02","05","21:00","-29.3","","-32.3","","75","","","","28","","19","","","","102.42","","","","-42","","NA"
"-105.30","73.77","STEFANSSON ISLAND","2403756","2012-02-05 22:00","2012","02","05","22:00","-27.9","","-30.8","","76","","","","25","","15","","","","102.23","","","","-39","","NA"
"-105.30","73.77","STEFANSSON ISLAND","2403756","2012-02-05 23:00","2012","02","05","23:00","-26.3","","-29.0","","78","","","","27","","13","","","","102.14","","","","-36","","NA"
"-105.30","73.77","STEFANSSON ISLAND","2403756","2012-02-06 00:00","2012","02","06","00:00","-24.9","","-27.5","","79","","","","25","","19","","","","102.05","","","","-36","","NA"
"-105.30","73.77","STEFANSSON ISLAND","2403756","2012-02-06 01:00","2012","02","06","01:00","-24.8","","-27.3","","80","","","","23","","20","","","","101.87","","","","-37","","NA"
"-105.30","73.77","STEFANSSON ISLAND","2403756","2012-02-06 02:00","2012","02","06","02:00","-24.0","","-26.5","","80","","","","26","","32","","","","101.72","","","","-38","","NA"
"-105.30","73.77","STEFANSSON ISLAND","2403756","2012-02-06 03:00","2012","02","06","03:00","-23.5","","-25.9","","81","","","","26","","41","","","","101.54","","","","-39","","NA"
"-105.30","73.77","STEFANSSON ISLAND","2403756","2012-02-06 04:00","2012","02","06","04:00","-23.3","","-25.7","","81","","","","26","","43","","","","101.45","","","","-39","","NA"
"-105.30","73.77","STEFANSSON ISLAND","2403756","2012-02-06 05:00","2012","02","06","05:00","-24.8","","-27.3","","80","","","","27","","48","","","","101.32","","","","-42","","NA"
"-105.30","73.77","STEFANSSON ISLAND","2403756","2012-02-06 06:00","2012","02","06","06:00","-25.0","","-27.6","","79","","","","28","","37","","","","101.26","","","","-40","","NA"
"-105.30","73.77","STEFANSSON ISLAND","2403756","2012-02-06 07:00","2012","02","06","07:00","-25.3","","-27.9","","79","","","","29","","33","","","","101.27","","","","-40","","NA"
"-105.30","73.77","STEFANSSON ISLAND","2403756","2012-02-06 08:00","2012","02","06","08:00","-26.0","","-28.7","","78","","","","29","","28","","","","101.28","","","","-40","","NA"
"-105.30","73.77","STEFANSSON ISLAND","2403756","2012-02-06 09:00","2012","02","06","09:00","-26.8","","-29.6","","77","","","","30","","26","","","","101.29","","","","-41","","NA"
"-105.30","73.77","STEFANSSON ISLAND","2403756","2012-02-06 10:00","2012","02","06","10:00","-28.3","","-31.2","","76","","","","29","","22","","","","101.25","","","","-42","","NA"
"-105.30","73.77","STEFANSSON ISLAND","2403756","2012-02-06 11:00","2012","02","06","11:00","-29.4","","-32.3","","76","","","","28","","30","","","","101.21","","","","-45","","NA"
"-105.30","73.77","STEFANSSON ISLAND","2403756","2012-02-06 12:00","2012","02","06","12:00","-28.2","","-31.0","","77","","","","32","","32","","","","101.26","","","","-44","","NA"
"-105.30","73.77","STEFANSSON ISLAND","2403756","2012-02-06 13:00","2012","02","06","13:00","-28.7","","-31.7","","75","","","","32","","35","","","","101.26","","","","-45","","NA"
"-105.30","73.77","STEFANSSON ISLAND","2403756","2012-02-06 14:00","2012","02","06","14:00","-29.8","","-32.9","","74","","","","31","","37","","","","101.31","","","","-47","","NA"
"-105.30","73.77","STEFANSSON ISLAND","2403756","2012-02-06 15:00","2012","02","06","15:00","-30.5","","-33.7","","73","","","","31","","37","","","","101.38","","","","-48","","NA"
"-105.30","73.77","STEFANSSON ISLAND","2403756","2012-02-06 16:00","2012","02","06","16:00","-31.3","","-34.5","","73","","","","33","","43","","","","101.44","","","","-50","","NA"
"-105.30","73.77","STEFANSSON ISLAND","2403756","2012-02-06 17:00","2012","02","06","17:00","-32.4","","-35.8","","72","","","","32","","46","","","","101.47","","","","-52","","NA"
"-105.30","73.77","STEFANSSON ISLAND","2403756","2012-02-06 18:00","2012","02","06","18:00","-33.0","","-36.4","","72","","","","32","","44","","","","101.50","","","","-52","","NA"
"-105.30","73.77","STEFANSSON ISLAND","2403756","2012-02-06 19:00","2012","02","06","19:00","-33.0","","-36.5","","71","","","","32","","41","","","","101.52","","","","-52","","NA"
"-105.30","73.77","STEFANSSON ISLAND","2403756","2012-02-06 20:00","2012","02","06","20:00","-32.9","","-36.3","","72","","","","32","","43","","","","101.53","","","","-52","","NA"
"-105.30","73.77","STEFANSSON ISLAND","2403756","2012-02-06 21:00","2012","02","06","21:00","-33.3","","-36.8","","71","","","","33","","43","","","","101.61","","","","-52","","NA"
"-105.30","73.77","STEFANSSON ISLAND","2403756","2012-02-06 22:00","2012","02","06","22:00","-33.5","","-37.0","","71","","","","32","","37","","","","101.66","","","","-52","","NA"
"-105.30","73.77","STEFANSSON ISLAND","2403756","2012-02-06 23:00","2012","02","06","23:00","-33.8","","-37.4","","70","","","","31","","35","","","","101.78","","","","-52","","NA"
"-105.30","73.77","STEFANSSON ISLAND","2403756","2012-02-07 00:00","2012","02","07","00:00","-34.1","","-37.7","","70","","","","32","","41","","","","101.86","","","","-53","","NA"
"-105.30","73.77","STEFANSSON ISLAND","2403756","2012-02-07 01:00","2012","02","07","01:00","-34.5","","-38.1","","70","","","","31","","44","","","","101.85","","","","-54","","NA"
"-105.30","73.77","STEFANSSON ISLAND","2403756","2012-02-07 02:00","2012","02","07","02:00","-34.6","","-38.2","","70","","","","31","","39","","","","101.98","","","","-53","","NA"
"-105.30","73.77","STEFANSSON ISLAND","2403756","2012-02-07 03:00","2012","02","07","03:00","-34.6","","-38.2","","70","","","","32","","46","","","","101.98","","","","-55","","NA"
"-105.30","73.77","STEFANSSON ISLAND","2403756","2012-02-07 04:00","2012","02","07","04:00","-34.5","","-38.1","","70","","","","31","","41","","","","102.05","","","","-54","","NA"
"-105.30","73.77","STEFANSSON ISLAND","2403756","2012-02-07 05:00","2012","02","07","05:00","-34.2","","-37.8","","70","","","","31","","43","","","","102.05","","","","-54","","NA"
"-105.30","73.77","STEFANSSON ISLAND","2403756","2012-02-07 06:00","2012","02","07","06:00","-33.7","","-37.3","","70","","","","31","","52","","","","102.01","","","","-54","","NA"
"-105.30","73.77","STEFANSSON ISLAND","2403756","2012-02-07 07:00","2012","02","07","07:00","-33.5","","-37.0","","71","","","","31","","41","","","","102.06","","","","-52","","NA"
"-105.30","73.77","STEFANSSON ISLAND","2403756","2012-02-07 08:00","2012","02","07","08:00","-33.1","","-36.6","","71","","","","31","","44","","","","102.05","","","","-52","","NA"
"-105.30","73.77","STEFANSSON ISLAND","2403756","2012-02-07 09:00","2012","02","07","09:00","-32.7","","-36.2","","71","","","","31","","48","","","","102.02","","","","-52","","NA"
"-105.30","73.77","STEFANSSON ISLAND","2403756","2012-02-07 10:00","2012","02","07","10:00","-32.5","","-35.9","","72","","","","31","","50","","","","102.03","","","","-52","","NA"
"-105.30","73.77","STEFANSSON ISLAND","2403756","2012-02-07 11:00","2012","02","07","11:00","-32.3","","-35.7","","72","","","","31","","46","","","","102.10","","","","-52","","NA"
"-105.30","73.77","STEFANSSON ISLAND","2403756","2012-02-07 12:00","2012","02","07","12:00","-31.9","","-35.2","","72","","","","32","","41","","","","102.16","","","","-50","","NA"
"-105.30","73.77","STEFANSSON ISLAND","2403756","2012-02-07 13:00","2012","02","07","13:00","-31.5","","-34.8","","73","","","","32","","44","","","","102.10","","","","-50","","NA"
"-105.30","73.77","STEFANSSON ISLAND","2403756","2012-02-07 14:00","2012","02","07","14:00","-31.2","","-34.4","","73","","","","32","","39","","","","102.18","","","","-49","","NA"
"-105.30","73.77","STEFANSSON ISLAND","2403756","2012-02-07 15:00","2012","02","07","15:00","-30.9","","-34.1","","73","","","","31","","46","","","","102.15","","","","-50","","NA"
"-105.30","73.77","STEFANSSON ISLAND","2403756","2012-02-07 16:00","2012","02","07","16:00","-30.3","","-33.5","","74","","","","32","","39","","","","102.27","","","","-48","","NA"
"-105.30","73.77","STEFANSSON ISLAND","2403756","2012-02-07 17:00","2012","02","07","17:00","-30.5","","-33.7","","73","","","","33","","35","","","","102.32","","","","-47","","NA"
"-105.30","73.77","STEFANSSON ISLAND","2403756","2012-02-07 18:00","2012","02","07","18:00","-30.6","","-33.8","","73","","","","32","","30","","","","102.34","","","","-46","","NA"
"-105.30","73.77","STEFANSSON ISLAND","2403756","2012-02-07 19:00","2012","02","07","19:00","-31.1","","-34.3","","73","","","","31","","39","","","","102.34","","","","-49","","NA"
"-105.30","73.77","STEFANSSON ISLAND","2403756","2012-02-07 20:00","2012","02","07","20:00","-31.4","","-34.7","","73","","","","31","","37","","","","102.38","","","","-49","","NA"
"-105.30","73.77","STEFANSSON ISLAND","2403756","2012-02-07 21:00","2012","02","07","21:00","-31.1","","-34.4","","73","","","","32","","37","","","","102.40","","","","-48","","NA"
"-105.30","73.77","STEFANSSON ISLAND","2403756","2012-02-07 22:00","2012","02","07","22:00","-30.3","","-33.5","","74","","","","32","","37","","","","102.41","","","","-47","","NA"
"-105.30","73.77","STEFANSSON ISLAND","2403756","2012-02-07 23:00","2012","02","07","23:00","-30.5","","-33.7","","73","","","","31","","32","","","","102.47","","","","-47","","NA"
"-105.30","73.77","STEFANSSON ISLAND","2403756","2012-02-08 00:00","2012","02","08","00:00","-30.5","","-33.6","","74","","","","30","","28","","","","102.50","","","","-46","","NA"
"-105.30","73.77","STEFANSSON ISLAND","2403756","2012-02-08 01:00","2012","02","08","01:00","-30.2","","-33.4","","74","","","","30","","20","","","","102.62","","","","-43","","NA"
"-105.30","73.77","STEFANSSON ISLAND","2403756","2012-02-08 02:00","2012","02","08","02:00","-30.5","","-33.8","","73","","","","31","","26","","","","102.65","","","","-45","","NA"
"-105.30","73.77","STEFANSSON ISLAND","2403756","2012-02-08 03:00","2012","02","08","03:00","-30.1","","-33.3","","74","","","","32","","39","","","","102.67","","","","-47","","NA"
"-105.30","73.77","STEFANSSON ISLAND","2403756","2012-02-08 04:00","2012","02","08","04:00","-30.8","","-34.0","","73","","","","31","","33","","","","102.73","","","","-47","","NA"
"-105.30","73.77","STEFANSSON ISLAND","2403756","2012-02-08 05:00","2012","02","08","05:00","-30.8","","-34.0","","73","","","","30","","20","","","","102.79","","","","-44","","NA"
"-105.30","73.77","STEFANSSON ISLAND","2403756","2012-02-08 06:00","2012","02","08","06:00","-30.9","","-34.2","","73","","","","31","","32","","","","102.77","","","","-47","","NA"
"-105.30","73.77","STEFANSSON ISLAND","2403756","2012-02-08 07:00","2012","02","08","07:00","-30.7","","-33.9","","73","","","","31","","33","","","","102.81","","","","-47","","NA"
"-105.30","73.77","STEFANSSON ISLAND","2403756","2012-02-08 08:00","2012","02","08","08:00","-30.8","","-34.0","","73","","","","30","","32","","","","102.82","","","","-47","","NA"
"-105.30","73.77","STEFANSSON ISLAND","2403756","2012-02-08 09:00","2012","02","08","09:00","-30.6","","-33.8","","73","","","","32","","37","","","","102.78","","","","-48","","NA"
"-105.30","73.77","STEFANSSON ISLAND","2403756","2012-02-08 10:00","2012","02","08","10:00","-30.7","","-33.9","","73","","","","32","","35","","","","102.82","","","","-48","","NA"
"-105.30","73.77","STEFANSSON ISLAND","2403756","2012-02-08 11:00","2012","02","08","11:00","-31.1","","-34.3","","73","","","","29","","26","","","","102.88","","","","-46","","NA"
"-105.30","73.77","STEFANSSON ISLAND","2403756","2012-02-08 12:00","2012","02","08","12:00","-30.8","","-34.0","","73","","","","32","","32","","","","102.89","","","","-47","","NA"
"-105.30","73.77","STEFANSSON ISLAND","2403756","2012-02-08 13:00","2012","02","08","13:00","-30.5","","-33.7","","73","","","","31","","33","","","","102.88","","","","-47","","NA"
"-105.30","73.77","STEFANSSON ISLAND","2403756","2012-02-08 14:00","2012","02","08","14:00","-30.9","","-34.2","","73","","","","29","","26","","","","102.96","","","","-46","","NA"
"-105.30","73.77","STEFANSSON ISLAND","2403756","2012-02-08 15:00","2012","02","08","15:00","-30.7","","-33.9","","73","","","","30","","26","","","","102.96","","","","-46","","NA"
"-105.30","73.77","STEFANSSON ISLAND","2403756","2012-02-08 16:00","2012","02","08","16:00","-31.6","","-34.8","","73","","","","29","","28","","","","102.96","","","","-47","","NA"
"-105.30","73.77","STEFANSSON ISLAND","2403756","2012-02-08 17:00","2012","02","08","17:00","-31.5","","-34.8","","73","","","","28","","26","","","","102.99","","","","-47","","NA"
"-105.30","73.77","STEFANSSON ISLAND","2403756","2012-02-08 18:00","2012","02","08","18:00","-31.7","","-35.0","","73","","","","28","","30","","","","102.97","","","","-48","","NA"
"-105.30","73.77","STEFANSSON ISLAND","2403756","2012-02-08 19:00","2012","02","08","19:00","-32.6","","-36.0","","72","","","","28","","20","","","","103.01","","","","-46","","NA"
"-105.30","73.77","STEFANSSON ISLAND","2403756","2012-02-08 20:00","2012","02","08","20:00","-31.9","","-35.2","","72","","","","27","","20","","","","103.02","","","","-45","","NA"
"-105.30","73.77","STEFANSSON ISLAND","2403756","2012-02-08 21:00","2012","02","08","21:00","-32.2","","-35.6","","72","","","","29","","26","","","","102.97","","","","-48","","NA"
"-105.30","73.77","STEFANSSON ISLAND","2403756","2012-02-08 22:00","2012","02","08","22:00","-33.0","","-36.5","","71","","","","28","","20","","","","102.99","","","","-47","","NA"
"-105.30","73.77","STEFANSSON ISLAND","2403756","2012-02-08 23:00","2012","02","08","23:00","-32.9","","-36.4","","71","","","","27","","19","","","","102.97","","","","-46","","NA"
"-105.30","73.77","STEFANSSON ISLAND","2403756","2012-02-09 00:00","2012","02","09","00:00","-32.2","","-35.6","","72","","","","28","","26","","","","102.95","","","","-48","","NA"
"-105.30","73.77","STEFANSSON ISLAND","2403756","2012-02-09 01:00","2012","02","09","01:00","-30.8","","-34.0","","73","","","","28","","26","","","","102.97","","","","-46","","NA"
"-105.30","73.77","STEFANSSON ISLAND","2403756","2012-02-09 02:00","2012","02","09","02:00","-29.1","","-32.1","","75","","","","28","","20","","","","102.97","","","","-42","","NA"
"-105.30","73.77","STEFANSSON ISLAND","2403756","2012-02-09 03:00","2012","02","09","03:00","-28.6","","-31.6","","75","","","","28","","22","","","","102.93","","","","-42","","NA"
"-105.30","73.77","STEFANSSON ISLAND","2403756","2012-02-09 04:00","2012","02","09","04:00","-26.4","","-29.2","","77","","","","28","","22","","","","102.91","","","","-39","","NA"
"-105.30","73.77","STEFANSSON ISLAND","2403756","2012-02-09 05:00","2012","02","09","05:00","-26.6","","-29.4","","77","","","","28","","17","","","","102.86","","","","-38","","NA"
"-105.30","73.77","STEFANSSON ISLAND","2403756","2012-02-09 06:00","2012","02","09","06:00","-27.9","","-30.8","","76","","","","26","","15","","","","102.80","","","","-39","","NA"
"-105.30","73.77","STEFANSSON ISLAND","2403756","2012-02-09 07:00","2012","02","09","07:00","-25.2","","-28.0","","77","","","","27","","19","","","","102.77","","","","-37","","NA"
"-105.30","73.77","STEFANSSON ISLAND","2403756","2012-02-09 08:00","2012","02","09","08:00","-23.2","","-25.9","","78","","","","27","","20","","","","102.70","","","","-35","","NA"
"-105.30","73.77","STEFANSSON ISLAND","2403756","2012-02-09 09:00","2012","02","09","09:00","-21.6","","-24.2","","79","","","","26","","19","","","","102.62","","","","-32","","NA"
"-105.30","73.77","STEFANSSON ISLAND","2403756","2012-02-09 10:00","2012","02","09","10:00","-19.8","","-22.6","","78","","","","25","","32","","","","102.51","","","","-33","","NA"
"-105.30","73.77","STEFANSSON ISLAND","2403756","2012-02-09 11:00","2012","02","09","11:00","-17.9","","-21.4","","74","","","","25","","30","","","","102.41","","","","-30","","NA"
"-105.30","73.77","STEFANSSON ISLAND","2403756","2012-02-09 12:00","2012","02","09","12:00","-17.6","","-21.5","","72","","","","25","","41","","","","102.30","","","","-31","","NA"
"-105.30","73.77","STEFANSSON ISLAND","2403756","2012-02-09 13:00","2012","02","09","13:00","-17.6","","-21.7","","70","","","","23","","37","","","","102.22","","","","-31","","NA"
"-105.30","73.77","STEFANSSON ISLAND","2403756","2012-02-09 14:00","2012","02","09","14:00","-17.0","","-21.2","","70","","","","23","","39","","","","102.09","","","","-30","","NA"
"-105.30","73.77","STEFANSSON ISLAND","2403756","2012-02-09 15:00","2012","02","09","15:00","-15.7","","-20.0","","70","","","","23","","50","","","","101.95","","","","-30","","NA"
"-105.30","73.77","STEFANSSON ISLAND","2403756","2012-02-09 16:00","2012","02","09","16:00","-14.3","","-17.2","","79","","","","24","","52","","","","101.84","","","","-28","","NA"
"-105.30","73.77","STEFANSSON ISLAND","2403756","2012-02-09 17:00","2012","02","09","17:00","-12.8","","-15.8","","78","","","","24","","46","","","","101.75","","","","-25","","NA"
"-105.30","73.77","STEFANSSON ISLAND","2403756","2012-02-09 18:00","2012","02","09","18:00","-11.6","","-14.4","","80","","","","24","","44","","","","101.60","","","","-23","","NA"
"-105.30","73.77","STEFANSSON ISLAND","2403756","2012-02-09 19:00","2012","02","09","19:00","-10.2","","-12.6","","83","","","","24","","52","","","","101.39","","","","-22","","NA"
"-105.30","73.77","STEFANSSON ISLAND","2403756","2012-02-09 20:00","2012","02","09","20:00","-9.7","","-11.7","","85","","","","25","","63","","","","101.23","","","","-22","","NA"
"-105.30","73.77","STEFANSSON ISLAND","2403756","2012-02-09 21:00","2012","02","09","21:00","-9.5","","-11.2","","87","","","","25","","59","","","","101.08","","","","-22","","NA"
"-105.30","73.77","STEFANSSON ISLAND","2403756","2012-02-09 22:00","2012","02","09","22:00","-9.3","","-11.0","","87","","","","25","","59","","","","100.99","","","","-22","","NA"
"-105.30","73.77","STEFANSSON ISLAND","2403756","2012-02-09 23:00","2012","02","09","23:00","-10.3","","-12.1","","87","","","","25","","56","","","","100.92","","","","-23","","NA"
"-105.30","73.77","STEFANSSON ISLAND","2403756","2012-02-10 00:00","2012","02","10","00:00","-10.8","","-12.5","","87","","","","27","","50","","","","100.85","","","","-23","","NA"
"-105.30","73.77","STEFANSSON ISLAND","2403756","2012-02-10 01:00","2012","02","10","01:00","-12.9","","-14.6","","87","","","","27","","46","","","","100.87","","","","-25","","NA"
"-105.30","73.77","STEFANSSON ISLAND","2403756","2012-02-10 02:00","2012","02","10","02:00","-14.4","","-16.1","","87","","","","28","","41","","","","100.82","","","","-27","","NA"
"-105.30","73.77","STEFANSSON ISLAND","2403756","2012-02-10 03:00","2012","02","10","03:00","-15.9","","-17.6","","87","","","","28","","39","","","","100.88","","","","-29","","NA"
"-105.30","73.77","STEFANSSON ISLAND","2403756","2012-02-10 04:00","2012","02","10","04:00","-17.1","","-18.9","","86","","","","28","","32","","","","100.92","","","","-29","","NA"
"-105.30","73.77","STEFANSSON ISLAND","2403756","2012-02-10 05:00","2012","02","10","05:00","-18.2","","-20.1","","85","","","","29","","22","","","","100.95","","","","-29","","NA"
"-105.30","73.77","STEFANSSON ISLAND","2403756","2012-02-10 06:00","2012","02","10","06:00","-20.1","","-22.0","","85","","","","27","","24","","","","100.98","","","","-32","","NA"
"-105.30","73.77","STEFANSSON ISLAND","2403756","2012-02-10 07:00","2012","02","10","07:00","-20.6","","-22.6","","84","","","","28","","22","","","","100.97","","","","-32","","NA"
"-105.30","73.77","STEFANSSON ISLAND","2403756","2012-02-10 08:00","2012","02","10","08:00","-20.7","","-22.7","","84","","","","28","","20","","","","100.99","","","","-31","","NA"
"-105.30","73.77","STEFANSSON ISLAND","2403756","2012-02-10 09:00","2012","02","10","09:00","-21.5","","-23.3","","85","","","","26","","17","","","","100.99","","","","-32","","NA"
"-105.30","73.77","STEFANSSON ISLAND","2403756","2012-02-10 10:00","2012","02","10","10:00","-21.8","","-23.9","","83","","","","27","","19","","","","100.99","","","","-32","","NA"
"-105.30","73.77","STEFANSSON ISLAND","2403756","2012-02-10 11:00","2012","02","10","11:00","-21.8","","-23.9","","83","","","","27","","19","","","","100.95","","","","-32","","NA"
"-105.30","73.77","STEFANSSON ISLAND","2403756","2012-02-10 12:00","2012","02","10","12:00","-21.7","","-23.8","","83","","","","28","","15","","","","100.93","","","","-31","","NA"
"-105.30","73.77","STEFANSSON ISLAND","2403756","2012-02-10 13:00","2012","02","10","13:00","-22.2","","-24.5","","82","","","","30","","11","","","","100.99","","","","-30","","NA"
"-105.30","73.77","STEFANSSON ISLAND","2403756","2012-02-10 14:00","2012","02","10","14:00","-21.9","","-24.0","","83","","","","28","","13","","","","101.01","","","","-31","","NA"
"-105.30","73.77","STEFANSSON ISLAND","2403756","2012-02-10 15:00","2012","02","10","15:00","-22.1","","-24.3","","82","","","","29","","7","","","","100.97","","","","-28","","NA"
"-105.30","73.77","STEFANSSON ISLAND","2403756","2012-02-10 16:00","2012","02","10","16:00","-23.1","","-25.6","","80","","","","29","","2","","","","100.99","","","","-25","","NA"
"-105.30","73.77","STEFANSSON ISLAND","2403756","2012-02-10 17:00","2012","02","10","17:00","-22.0","","-24.2","","82","","","","1","","4","","","","100.97","","","","-26","","NA"
"-105.30","73.77","STEFANSSON ISLAND","2403756","2012-02-10 18:00","2012","02","10","18:00","-22.6","","-24.8","","82","","","","11","","4","","","","100.96","","","","-26","","NA"
"-105.30","73.77","STEFANSSON ISLAND","2403756","2012-02-10 19:00","2012","02","10","19:00","-22.6","","-24.9","","81","","","","6","","2","","","","100.91","","","","-24","","NA"
"-105.30","73.77","STEFANSSON ISLAND","2403756","2012-02-10 20:00","2012","02","10","20:00","-23.9","","-26.2","","81","","","","17","","7","","","","100.82","","","","-30","","NA"
"-105.30","73.77","STEFANSSON ISLAND","2403756","2012-02-10 21:00","2012","02","10","21:00","-22.9","","-25.1","","82","","","","2","","9","","","","100.91","","","","-30","","NA"
"-105.30","73.77","STEFANSSON ISLAND","2403756","2012-02-10 22:00","2012","02","10","22:00","-22.7","","-25.0","","81","","","","4","","6","","","","100.82","","","","-28","","NA"
"-105.30","73.77","STEFANSSON ISLAND","2403756","2012-02-10 23:00","2012","02","10","23:00","-23.1","","-25.3","","82","","","","4","","2","","","","100.84","","","","-25","","NA"
"-105.30","73.77","STEFANSSON ISLAND","2403756","2012-02-11 00:00","2012","02","11","00:00","-22.6","","-24.9","","81","","","","5","","6","","","","100.83","","","","-28","","NA"
"-105.30","73.77","STEFANSSON ISLAND","2403756","2012-02-11 01:00","2012","02","11","01:00","-24.8","","-27.3","","80","","","","6","","7","","","","100.82","","","","-31","","NA"
"-105.30","73.77","STEFANSSON ISLAND","2403756","2012-02-11 02:00","2012","02","11","02:00","-25.9","","-28.5","","79","","","","9","","4","","","","100.80","","","","-30","","NA"
"-105.30","73.77","STEFANSSON ISLAND","2403756","2012-02-11 03:00","2012","02","11","03:00","-26.1","","-28.8","","78","","","","6","","6","","","","100.80","","","","-32","","NA"
"-105.30","73.77","STEFANSSON ISLAND","2403756","2012-02-11 04:00","2012","02","11","04:00","-27.5","","-30.3","","77","","","","7","","9","","","","100.72","","","","-36","","NA"
"-105.30","73.77","STEFANSSON ISLAND","2403756","2012-02-11 05:00","2012","02","11","05:00","-26.9","","-29.6","","78","","","","9","","17","","","","100.63","","","","-38","","NA"
"-105.30","73.77","STEFANSSON ISLAND","2403756","2012-02-11 06:00","2012","02","11","06:00","-27.8","","-30.6","","77","","","","13","","15","","","","100.61","","","","-39","","NA"
"-105.30","73.77","STEFANSSON ISLAND","2403756","2012-02-11 07:00","2012","02","11","07:00","-26.4","","-29.1","","78","","","","12","","11","","","","100.58","","","","-35","","NA"
"-105.30","73.77","STEFANSSON ISLAND","2403756","2012-02-11 08:00","2012","02","11","08:00","-25.5","","-28.1","","79","","","","14","","9","","","","100.55","","","","-33","","NA"
"-105.30","73.77","STEFANSSON ISLAND","2403756","2012-02-11 09:00","2012","02","11","09:00","-24.7","","-27.2","","80","","","","14","","9","","","","100.47","","","","-32","","NA"
"-105.30","73.77","STEFANSSON ISLAND","2403756","2012-02-11 10:00","2012","02","11","10:00","-24.1","","-26.5","","80","","","","15","","11","","","","100.43","","","","-33","","NA"
"-105.30","73.77","STEFANSSON ISLAND","2403756","2012-02-11 11:00","2012","02","11","11:00","-24.1","","-26.5","","80","","","","12","","13","","","","100.39","","","","-33","","NA"
"-105.30","73.77","STEFANSSON ISLAND","2403756","2012-02-11 12:00","2012","02","11","12:00","-23.8","","-26.2","","81","","","","11","","11","","","","100.31","","","","-32","","NA"
"-105.30","73.77","STEFANSSON ISLAND","2403756","2012-02-11 13:00","2012","02","11","13:00","-22.5","","-24.7","","82","","","","10","","13","","","","100.26","","","","-31","","NA"
"-105.30","73.77","STEFANSSON ISLAND","2403756","2012-02-11 14:00","2012","02","11","14:00","-21.9","","-24.1","","82","","","","10","","22","","","","100.22","","","","-33","","NA"
"-105.30","73.77","STEFANSSON ISLAND","2403756","2012-02-11 15:00","2012","02","11","15:00","-22.1","","-24.3","","82","","","","10","","17","","","","100.18","","","","-32","","NA"
"-105.30","73.77","STEFANSSON ISLAND","2403756","2012-02-11 16:00","2012","02","11","16:00","-22.5","","-24.7","","82","","","","10","","22","","","","100.10","","","","-34","","NA"
"-105.30","73.77","STEFANSSON ISLAND","2403756","2012-02-11 17:00","2012","02","11","17:00","-21.9","","-24.1","","82","","","","11","","19","","","","100.07","","","","-33","","NA"
"-105.30","73.77","STEFANSSON ISLAND","2403756","2012-02-11 18:00","2012","02","11","18:00","-21.5","","-23.6","","83","","","","10","","17","","","","100.05","","","","-32","","NA"
"-105.30","73.77","STEFANSSON ISLAND","2403756","2012-02-11 19:00","2012","02","11","19:00","-21.3","","-23.4","","83","","","","9","","15","","","","100.01","","","","-31","","NA"
"-105.30","73.77","STEFANSSON ISLAND","2403756","2012-02-11 20:00","2012","02","11","20:00","-21.2","","-23.3","","83","","","","9","","19","","","","99.91","","","","-32","","NA"
"-105.30","73.77","STEFANSSON ISLAND","2403756","2012-02-11 21:00","2012","02","11","21:00","-21.0","","-23.1","","83","","","","7","","17","","","","99.89","","","","-31","","NA"
"-105.30","73.77","STEFANSSON ISLAND","2403756","2012-02-11 22:00","2012","02","11","22:00","-21.0","","-23.1","","83","","","","8","","17","","","","99.86","","","","-31","","NA"
"-105.30","73.77","STEFANSSON ISLAND","2403756","2012-02-11 23:00","2012","02","11","23:00","-20.8","","-22.9","","83","","","","8","","19","","","","99.85","","","","-31","","NA"
"-105.30","73.77","STEFANSSON ISLAND","2403756","2012-02-12 00:00","2012","02","12","00:00","-20.6","","-22.6","","84","","","","9","","22","","","","99.82","","","","-32","","NA"
"-105.30","73.77","STEFANSSON ISLAND","2403756","2012-02-12 01:00","2012","02","12","01:00","-20.7","","-22.7","","84","","","","9","","20","","","","99.78","","","","-31","","NA"
"-105.30","73.77","STEFANSSON ISLAND","2403756","2012-02-12 02:00","2012","02","12","02:00","-20.6","","-22.6","","84","","","","10","","19","","","","99.77","","","","-31","","NA"
"-105.30","73.77","STEFANSSON ISLAND","2403756","2012-02-12 03:00","2012","02","12","03:00","-20.4","","-22.4","","84","","","","9","","19","","","","99.77","","","","-31","","NA"
"-105.30","73.77","STEFANSSON ISLAND","2403756","2012-02-12 04:00","2012","02","12","04:00","-20.3","","-22.3","","84","","","","10","","17","","","","99.78","","","","-30","","NA"
"-105.30","73.77","STEFANSSON ISLAND","2403756","2012-02-12 05:00","2012","02","12","05:00","-20.2","","-22.2","","84","","","","10","","15","","","","99.81","","","","-29","","NA"
"-105.30","73.77","STEFANSSON ISLAND","2403756","2012-02-12 06:00","2012","02","12","06:00","-20.0","","-22.0","","84","","","","10","","13","","","","99.80","","","","-28","","NA"
"-105.30","73.77","STEFANSSON ISLAND","2403756","2012-02-12 07:00","2012","02","12","07:00","-19.7","","-21.7","","84","","","","9","","15","","","","99.81","","","","-29","","NA"
"-105.30","73.77","STEFANSSON ISLAND","2403756","2012-02-12 08:00","2012","02","12","08:00","-19.6","","-21.5","","85","","","","10","","11","","","","99.77","","","","-27","","NA"
"-105.30","73.77","STEFANSSON ISLAND","2403756","2012-02-12 09:00","2012","02","12","09:00","-19.0","","-20.9","","85","","","","10","","13","","","","99.75","","","","-27","","NA"
"-105.30","73.77","STEFANSSON ISLAND","2403756","2012-02-12 10:00","2012","02","12","10:00","-18.8","","-20.6","","86","","","","11","","15","","","","99.74","","","","-28","","NA"
"-105.30","73.77","STEFANSSON ISLAND","2403756","2012-02-12 11:00","2012","02","12","11:00","-18.7","","-20.5","","86","","","","11","","17","","","","99.73","","","","-28","","NA"
"-105.30","73.77","STEFANSSON ISLAND","2403756","2012-02-12 12:00","2012","02","12","12:00","-18.7","","-20.5","","86","","","","11","","15","","","","99.78","","","","-27","","NA"
"-105.30","73.77","STEFANSSON ISLAND","2403756","2012-02-12 13:00","2012","02","12","13:00","-19.0","","-20.9","","85","","","","12","","13","","","","99.81","","","","-27","","NA"
"-105.30","73.77","STEFANSSON ISLAND","2403756","2012-02-12 14:00","2012","02","12","14:00","-18.9","","-20.8","","85","","","","11","","9","","","","99.84","","","","-25","","NA"
"-105.30","73.77","STEFANSSON ISLAND","2403756","2012-02-12 15:00","2012","02","12","15:00","-19.0","","-20.9","","85","","","","8","","6","","","","99.87","","","","-24","","NA"
"-105.30","73.77","STEFANSSON ISLAND","2403756","2012-02-12 16:00","2012","02","12","16:00","-19.0","","-20.9","","85","","","","11","","9","","","","99.86","","","","-26","","NA"
"-105.30","73.77","STEFANSSON ISLAND","2403756","2012-02-12 17:00","2012","02","12","17:00","-19.6","","-21.5","","85","","","","14","","4","","","","99.90","","","","-23","","NA"
"-105.30","73.77","STEFANSSON ISLAND","2403756","2012-02-12 18:00","2012","02","12","18:00","-19.6","","-21.5","","85","","","","10","","2","","","","99.91","","","","-21","","NA"
"-105.30","73.77","STEFANSSON ISLAND","2403756","2012-02-12 19:00","2012","02","12","19:00","-18.9","","-20.7","","86","","","","9","","6","","","","99.94","","","","-24","","NA"
"-105.30","73.77","STEFANSSON ISLAND","2403756","2012-02-12 20:00","2012","02","12","20:00","-18.8","","-20.6","","86","","","","10","","7","","","","99.93","","","","-24","","NA"
"-105.30","73.77","STEFANSSON ISLAND","2403756","2012-02-12 21:00","2012","02","12","21:00","-19.5","","-21.4","","85","","","","13","","6","","","","99.97","","","","-24","","NA"
"-105.30","73.77","STEFANSSON ISLAND","2403756","2012-02-12 22:00","2012","02","12","22:00","-19.3","","-21.2","","85","","","","14","","7","","","","99.99","","","","-25","","NA"
"-105.30","73.77","STEFANSSON ISLAND","2403756","2012-02-12 23:00","2012","02","12","23:00","-19.7","","-21.7","","84","","","","14","","11","","","","100.02","","","","-27","","NA"
"-105.30","73.77","STEFANSSON ISLAND","2403756","2012-02-13 00:00","2012","02","13","00:00","-21.7","","-23.8","","83","","","","12","","11","","","","100.06","","","","-30","","NA"
"-105.30","73.77","STEFANSSON ISLAND","2403756","2012-02-13 01:00","2012","02","13","01:00","-22.9","","-25.2","","81","","","","14","","17","","","","100.10","","","","-33","","NA"
"-105.30","73.77","STEFANSSON ISLAND","2403756","2012-02-13 02:00","2012","02","13","02:00","-22.6","","-24.9","","81","","","","16","","13","","","","100.15","","","","-32","","NA"
"-105.30","73.77","STEFANSSON ISLAND","2403756","2012-02-13 03:00","2012","02","13","03:00","-21.9","","-24.0","","83","","","","18","","11","","","","100.21","","","","-30","","NA"
"-105.30","73.77","STEFANSSON ISLAND","2403756","2012-02-13 04:00","2012","02","13","04:00","-20.9","","-23.0","","83","","","","18","","9","","","","100.24","","","","-28","","NA"
"-105.30","73.77","STEFANSSON ISLAND","2403756","2012-02-13 05:00","2012","02","13","05:00","-20.9","","-23.0","","83","","","","11","","6","","","","100.24","","","","-26","","NA"
"-105.30","73.77","STEFANSSON ISLAND","2403756","2012-02-13 06:00","2012","02","13","06:00","-21.5","","-23.6","","83","","","","12","","7","","","","100.28","","","","-27","","NA"
"-105.30","73.77","STEFANSSON ISLAND","2403756","2012-02-13 07:00","2012","02","13","07:00","-21.3","","-23.4","","83","","","","12","","9","","","","100.28","","","","-28","","NA"
"-105.30","73.77","STEFANSSON ISLAND","2403756","2012-02-13 08:00","2012","02","13","08:00","-21.2","","-23.3","","83","","","","14","","7","","","","100.29","","","","-27","","NA"
"-105.30","73.77","STEFANSSON ISLAND","2403756","2012-02-13 09:00","2012","02","13","09:00","-20.9","","-23.0","","83","","","","13","","6","","","","100.33","","","","-26","","NA"
"-105.30","73.77","STEFANSSON ISLAND","2403756","2012-02-13 10:00","2012","02","13","10:00","-20.3","","-22.3","","84","","","","9","","4","","","","100.36","","","","-24","","NA"
"-105.30","73.77","STEFANSSON ISLAND","2403756","2012-02-13 11:00","2012","02","13","11:00","-20.1","","-22.1","","84","","","","10","","4","","","","100.37","","","","-24","","NA"
"-105.30","73.77","STEFANSSON ISLAND","2403756","2012-02-13 12:00","2012","02","13","12:00","-20.1","","-22.1","","84","","","","","","0","","","","100.38","","","","","","NA"
"-105.30","73.77","STEFANSSON ISLAND","2403756","2012-02-13 13:00","2012","02","13","13:00","-20.0","","-22.0","","84","","","","","","0","","","","100.39","","","","","","NA"
"-105.30","73.77","STEFANSSON ISLAND","2403756","2012-02-13 14:00","2012","02","13","14:00","-19.3","","-21.2","","85","","","","","","0","","","","100.45","","","","","","NA"
"-105.30","73.77","STEFANSSON ISLAND","2403756","2012-02-13 15:00","2012","02","13","15:00","-19.7","","-21.7","","84","","","","","","0","","","","100.45","","","","","","NA"
"-105.30","73.77","STEFANSSON ISLAND","2403756","2012-02-13 16:00","2012","02","13","16:00","-19.8","","-21.7","","85","","","","31","","6","","","","100.47","","","","-25","","NA"
"-105.30","73.77","STEFANSSON ISLAND","2403756","2012-02-13 17:00","2012","02","13","17:00","-19.5","","-21.4","","85","","","","31","","4","","","","100.49","","","","-23","","NA"
"-105.30","73.77","STEFANSSON ISLAND","2403756","2012-02-13 18:00","2012","02","13","18:00","-19.9","","-21.9","","84","","","","29","","4","","","","100.47","","","","-23","","NA"
"-105.30","73.77","STEFANSSON ISLAND","2403756","2012-02-13 19:00","2012","02","13","19:00","-20.3","","-22.3","","84","","","","29","","7","","","","100.46","","","","-26","","NA"
"-105.30","73.77","STEFANSSON ISLAND","2403756","2012-02-13 20:00","2012","02","13","20:00","-20.6","","-22.6","","84","","","","26","","6","","","","100.48","","","","-26","","NA"
"-105.30","73.77","STEFANSSON ISLAND","2403756","2012-02-13 21:00","2012","02","13","21:00","-20.3","","-22.3","","84","","","","28","","6","","","","100.46","","","","-25","","NA"
"-105.30","73.77","STEFANSSON ISLAND","2403756","2012-02-13 22:00","2012","02","13","22:00","-20.5","","-22.5","","84","","","","27","","6","","","","100.46","","","","-26","","NA"
"-105.30","73.77","STEFANSSON ISLAND","2403756","2012-02-13 23:00","2012","02","13","23:00","-20.3","","-22.3","","84","","","","27","","6","","","","100.47","","","","-25","","NA"
"-105.30","73.77","STEFANSSON ISLAND","2403756","2012-02-14 00:00","2012","02","14","00:00","-20.0","","-22.0","","84","","","","30","","6","","","","100.45","","","","-25","","NA"
"-105.30","73.77","STEFANSSON ISLAND","2403756","2012-02-14 01:00","2012","02","14","01:00","-19.1","","-21.0","","85","","","","33","","4","","","","100.48","","","","-22","","NA"
"-105.30","73.77","STEFANSSON ISLAND","2403756","2012-02-14 02:00","2012","02","14","02:00","-19.4","","-21.3","","85","","","","","","0","","","","100.48","","","","","","NA"
"-105.30","73.77","STEFANSSON ISLAND","2403756","2012-02-14 03:00","2012","02","14","03:00","-19.1","","-21.0","","85","","","","","","0","","","","100.50","","","","","","NA"
"-105.30","73.77","STEFANSSON ISLAND","2403756","2012-02-14 04:00","2012","02","14","04:00","-19.2","","-21.0","","86","","","","32","","4","","","","100.45","","","","-23","","NA"
"-105.30","73.77","STEFANSSON ISLAND","2403756","2012-02-14 05:00","2012","02","14","05:00","-19.2","","-21.1","","85","","","","","","0","","","","100.47","","","","","","NA"
"-105.30","73.77","STEFANSSON ISLAND","2403756","2012-02-14 06:00","2012","02","14","06:00","-19.2","","-21.1","","85","","","","7","","4","","","","100.46","","","","-23","","NA"
"-105.30","73.77","STEFANSSON ISLAND","2403756","2012-02-14 07:00","2012","02","14","07:00","-19.5","","-21.4","","85","","","","","","0","","","","100.47","","","","","","NA"
"-105.30","73.77","STEFANSSON ISLAND","2403756","2012-02-14 08:00","2012","02","14","08:00","-19.7","","-21.6","","85","","","","","","0","","","","100.45","","","","","","NA"
"-105.30","73.77","STEFANSSON ISLAND","2403756","2012-02-14 09:00","2012","02","14","09:00","-19.0","","-20.9","","85","","","","33","","9","","","","100.44","","","","-26","","NA"
"-105.30","73.77","STEFANSSON ISLAND","2403756","2012-02-14 10:00","2012","02","14","10:00","-18.9","","-20.8","","85","","","","33","","7","","","","100.42","","","","-24","","NA"
"-105.30","73.77","STEFANSSON ISLAND","2403756","2012-02-14 11:00","2012","02","14","11:00","-18.8","","-20.7","","85","","","","34","","7","","","","100.40","","","","-24","","NA"
"-105.30","73.77","STEFANSSON ISLAND","2403756","2012-02-14 12:00","2012","02","14","12:00","-18.9","","-20.8","","85","","","","32","","6","","","","100.41","","","","-24","","NA"
"-105.30","73.77","STEFANSSON ISLAND","2403756","2012-02-14 13:00","2012","02","14","13:00","-19.0","","-20.9","","85","","","","33","","7","","","","100.39","","","","-24","","NA"
"-105.30","73.77","STEFANSSON ISLAND","2403756","2012-02-14 14:00","2012","02","14","14:00","-19.1","","-21.0","","85","","","","31","","6","","","","100.43","","","","-24","","NA"
"-105.30","73.77","STEFANSSON ISLAND","2403756","2012-02-14 15:00","2012","02","14","15:00","-19.0","","-20.9","","85","","","","34","","6","","","","100.44","","","","-24","","NA"
"-105.30","73.77","STEFANSSON ISLAND","2403756","2012-02-14 16:00","2012","02","14","16:00","-19.2","","-21.1","","85","","","","33","","6","","","","100.44","","","","-24","","NA"
"-105.30","73.77","STEFANSSON ISLAND","2403756","2012-02-14 17:00","2012","02","14","17:00","-19.4","","-21.3","","85","","","","34","","7","","","","100.43","","","","-25","","NA"
"-105.30","73.77","STEFANSSON ISLAND","2403756","2012-02-14 18:00","2012","02","14","18:00","-19.1","","-21.0","","85","","","","35","","7","","","","100.44","","","","-25","","NA"
"-105.30","73.77","STEFANSSON ISLAND","2403756","2012-02-14 19:00","2012","02","14","19:00","-19.1","","-21.0","","85","","","","34","","9","","","","100.44","","","","-26","","NA"
"-105.30","73.77","STEFANSSON ISLAND","2403756","2012-02-14 20:00","2012","02","14","20:00","-19.4","","-21.3","","85","","","","35","","11","","","","100.46","","","","-27","","NA"
"-105.30","73.77","STEFANSSON ISLAND","2403756","2012-02-14 21:00","2012","02","14","21:00","-19.5","","-21.4","","85","","","","35","","11","","","","100.47","","","","-27","","NA"
"-105.30","73.77","STEFANSSON ISLAND","2403756","2012-02-14 22:00","2012","02","14","22:00","-19.4","","-21.3","","85","","","","36","","11","","","","100.49","","","","-27","","NA"
"-105.30","73.77","STEFANSSON ISLAND","2403756","2012-02-14 23:00","2012","02","14","23:00","-19.5","","-21.4","","85","","","","36","","9","","","","100.51","","","","-26","","NA"
"-105.30","73.77","STEFANSSON ISLAND","2403756","2012-02-15 00:00","2012","02","15","00:00","-19.6","","-21.5","","85","","","","35","","9","","","","100.58","","","","-26","","NA"
"-105.30","73.77","STEFANSSON ISLAND","2403756","2012-02-15 01:00","2012","02","15","01:00","-19.7","","-21.7","","84","","","","35","","11","","","","100.60","","","","-27","","NA"
"-105.30","73.77","STEFANSSON ISLAND","2403756","2012-02-15 02:00","2012","02","15","02:00","-20.1","","-22.1","","84","","","","35","","11","","","","100.64","","","","-28","","NA"
"-105.30","73.77","STEFANSSON ISLAND","2403756","2012-02-15 03:00","2012","02","15","03:00","-20.2","","-22.2","","84","","","","35","","11","","","","100.68","","","","-28","","NA"
"-105.30","73.77","STEFANSSON ISLAND","2403756","2012-02-15 04:00","2012","02","15","04:00","-20.6","","-22.6","","84","","","","33","","13","","","","100.71","","","","-29","","NA"
"-105.30","73.77","STEFANSSON ISLAND","2403756","2012-02-15 05:00","2012","02","15","05:00","-21.3","","-23.4","","83","","","","33","","15","","","","100.75","","","","-31","","NA"
"-105.30","73.77","STEFANSSON ISLAND","2403756","2012-02-15 06:00","2012","02","15","06:00","-22.8","","-25.1","","81","","","","32","","13","","","","100.79","","","","-32","","NA"
"-105.30","73.77","STEFANSSON ISLAND","2403756","2012-02-15 07:00","2012","02","15","07:00","-23.7","","-26.1","","81","","","","31","","11","","","","100.82","","","","-32","","NA"
"-105.30","73.77","STEFANSSON ISLAND","2403756","2012-02-15 08:00","2012","02","15","08:00","-27.3","","-30.0","","78","","","","28","","11","","","","100.85","","","","-36","","NA"
"-105.30","73.77","STEFANSSON ISLAND","2403756","2012-02-15 09:00","2012","02","15","09:00","-25.8","","-28.4","","79","","","","30","","11","","","","100.86","","","","-35","","NA"
"-105.30","73.77","STEFANSSON ISLAND","2403756","2012-02-15 10:00","2012","02","15","10:00","-24.7","","-27.1","","80","","","","29","","11","","","","100.84","","","","-33","","NA"
"-105.30","73.77","STEFANSSON ISLAND","2403756","2012-02-15 11:00","2012","02","15","11:00","-23.5","","-25.8","","81","","","","28","","13","","","","100.86","","","","-33","","NA"
"-105.30","73.77","STEFANSSON ISLAND","2403756","2012-02-15 12:00","2012","02","15","12:00","-25.3","","-27.9","","79","","","","27","","15","","","","100.86","","","","-36","","NA"
"-105.30","73.77","STEFANSSON ISLAND","2403756","2012-02-15 13:00","2012","02","15","13:00","-26.3","","-29.0","","78","","","","28","","9","","","","100.87","","","","-34","","NA"
"-105.30","73.77","STEFANSSON ISLAND","2403756","2012-02-15 14:00","2012","02","15","14:00","-26.6","","-29.3","","78","","","","26","","15","","","","100.88","","","","-37","","NA"
"-105.30","73.77","STEFANSSON ISLAND","2403756","2012-02-15 15:00","2012","02","15","15:00","-28.5","","-31.4","","76","","","","26","","11","","","","100.89","","","","-38","","NA"
"-105.30","73.77","STEFANSSON ISLAND","2403756","2012-02-15 16:00","2012","02","15","16:00","-27.5","","-30.2","","78","","","","28","","15","","","","100.90","","","","-38","","NA"
"-105.30","73.77","STEFANSSON ISLAND","2403756","2012-02-15 17:00","2012","02","15","17:00","-27.7","","-30.5","","77","","","","28","","19","","","","100.91","","","","-40","","NA"
"-105.30","73.77","STEFANSSON ISLAND","2403756","2012-02-15 18:00","2012","02","15","18:00","-28.3","","-31.2","","76","","","","27","","15","","","","100.95","","","","-39","","NA"
"-105.30","73.77","STEFANSSON ISLAND","2403756","2012-02-15 19:00","2012","02","15","19:00","-28.6","","-31.5","","76","","","","28","","19","","","","100.96","","","","-41","","NA"
"-105.30","73.77","STEFANSSON ISLAND","2403756","2012-02-15 20:00","2012","02","15","20:00","-28.6","","-31.5","","76","","","","28","","19","","","","101.00","","","","-41","","NA"
"-105.30","73.77","STEFANSSON ISLAND","2403756","2012-02-15 21:00","2012","02","15","21:00","-29.2","","-32.2","","75","","","","28","","17","","","","101.03","","","","-41","","NA"
"-105.30","73.77","STEFANSSON ISLAND","2403756","2012-02-15 22:00","2012","02","15","22:00","-29.8","","-32.9","","74","","","","29","","17","","","","101.08","","","","-42","","NA"
"-105.30","73.77","STEFANSSON ISLAND","2403756","2012-02-15 23:00","2012","02","15","23:00","-30.4","","-33.5","","74","","","","29","","15","","","","101.12","","","","-42","","NA"
"-105.30","73.77","STEFANSSON ISLAND","2403756","2012-02-16 00:00","2012","02","16","00:00","-30.5","","-33.6","","74","","","","29","","15","","","","101.15","","","","-42","","NA"
"-105.30","73.77","STEFANSSON ISLAND","2403756","2012-02-16 01:00","2012","02","16","01:00","-30.5","","-33.6","","74","","","","29","","15","","","","101.19","","","","-42","","NA"
"-105.30","73.77","STEFANSSON ISLAND","2403756","2012-02-16 02:00","2012","02","16","02:00","-31.1","","-34.3","","73","","","","28","","13","","","","101.26","","","","-42","","NA"
"-105.30","73.77","STEFANSSON ISLAND","2403756","2012-02-16 03:00","2012","02","16","03:00","-31.0","","-34.2","","73","","","","28","","17","","","","101.30","","","","-43","","NA"
"-105.30","73.77","STEFANSSON ISLAND","2403756","2012-02-16 04:00","2012","02","16","04:00","-30.6","","-33.7","","74","","","","28","","17","","","","101.33","","","","-43","","NA"
"-105.30","73.77","STEFANSSON ISLAND","2403756","2012-02-16 05:00","2012","02","16","05:00","-31.2","","-34.4","","73","","","","27","","15","","","","101.37","","","","-43","","NA"
"-105.30","73.77","STEFANSSON ISLAND","2403756","2012-02-16 06:00","2012","02","16","06:00","-32.5","","-35.7","","73","","","","27","","13","","","","101.40","","","","-44","","NA"
"-105.30","73.77","STEFANSSON ISLAND","2403756","2012-02-16 07:00","2012","02","16","07:00","-33.3","","-36.8","","71","","","","24","","7","","","","101.41","","","","-41","","NA"
"-105.30","73.77","STEFANSSON ISLAND","2403756","2012-02-16 08:00","2012","02","16","08:00","-33.1","","-36.4","","72","","","","26","","13","","","","101.42","","","","-44","","NA"
"-105.30","73.77","STEFANSSON ISLAND","2403756","2012-02-16 09:00","2012","02","16","09:00","-32.3","","-35.6","","72","","","","28","","9","","","","101.42","","","","-41","","NA"
"-105.30","73.77","STEFANSSON ISLAND","2403756","2012-02-16 10:00","2012","02","16","10:00","-32.8","","-36.2","","72","","","","29","","7","","","","101.43","","","","-41","","NA"
"-105.30","73.77","STEFANSSON ISLAND","2403756","2012-02-16 11:00","2012","02","16","11:00","-32.6","","-36.0","","72","","","","30","","6","","","","101.45","","","","-40","","NA"
"-105.30","73.77","STEFANSSON ISLAND","2403756","2012-02-16 12:00","2012","02","16","12:00","-31.9","","-35.2","","72","","","","25","","6","","","","101.50","","","","-39","","NA"
"-105.30","73.77","STEFANSSON ISLAND","2403756","2012-02-16 13:00","2012","02","16","13:00","-31.5","","-34.7","","73","","","","27","","7","","","","101.51","","","","-39","","NA"
"-105.30","73.77","STEFANSSON ISLAND","2403756","2012-02-16 14:00","2012","02","16","14:00","-30.5","","-33.7","","73","","","","26","","6","","","","101.53","","","","-37","","NA"
"-105.30","73.77","STEFANSSON ISLAND","2403756","2012-02-16 15:00","2012","02","16","15:00","-30.1","","-33.2","","74","","","","25","","6","","","","101.55","","","","-37","","NA"
"-105.30","73.77","STEFANSSON ISLAND","2403756","2012-02-16 16:00","2012","02","16","16:00","-29.3","","-32.4","","74","","","","27","","6","","","","101.56","","","","-36","","NA"
"-105.30","73.77","STEFANSSON ISLAND","2403756","2012-02-16 17:00","2012","02","16","17:00","-27.8","","-30.6","","77","","","","29","","7","","","","101.58","","","","-35","","NA"
"-105.30","73.77","STEFANSSON ISLAND","2403756","2012-02-16 18:00","2012","02","16","18:00","-27.3","","-30.1","","77","","","","29","","4","","","","101.56","","","","-32","","NA"
"-105.30","73.77","STEFANSSON ISLAND","2403756","2012-02-16 19:00","2012","02","16","19:00","-27.3","","-30.1","","77","","","","34","","4","","","","101.55","","","","-32","","NA"
"-105.30","73.77","STEFANSSON ISLAND","2403756","2012-02-16 20:00","2012","02","16","20:00","-28.7","","-31.6","","76","","","","","","0","","","","101.56","","","","","","NA"
"-105.30","73.77","STEFANSSON ISLAND","2403756","2012-02-16 21:00","2012","02","16","21:00","-29.9","","-32.9","","75","","","","","","0","","","","101.60","","","","","","NA"
"-105.30","73.77","STEFANSSON ISLAND","2403756","2012-02-16 22:00","2012","02","16","22:00","-33.6","","-37.0","","71","","","","","","0","","","","101.63","","","","","","NA"
"-105.30","73.77","STEFANSSON ISLAND","2403756","2012-02-16 23:00","2012","02","16","23:00","-33.9","","-37.3","","71","","","","","","0","","","","101.62","","","","","","NA"
"-105.30","73.77","STEFANSSON ISLAND","2403756","2012-02-17 00:00","2012","02","17","00:00","-33.8","","-37.2","","71","","","","","","0","","","","101.65","","","","","","NA"
"-105.30","73.77","STEFANSSON ISLAND","2403756","2012-02-17 01:00","2012","02","17","01:00","-33.7","","-37.0","","72","","","","","","0","","","","101.64","","","","","","NA"
"-105.30","73.77","STEFANSSON ISLAND","2403756","2012-02-17 02:00","2012","02","17","02:00","-34.3","","-37.7","","71","","","","11","","4","","","","101.64","","","","-39","","NA"
"-105.30","73.77","STEFANSSON ISLAND","2403756","2012-02-17 03:00","2012","02","17","03:00","-34.6","","-38.2","","70","","","","11","","4","","","","101.63","","","","-40","","NA"
"-105.30","73.77","STEFANSSON ISLAND","2403756","2012-02-17 04:00","2012","02","17","04:00","-35.0","","-38.6","","70","","","","12","","6","","","","101.63","","","","-42","","NA"
"-105.30","73.77","STEFANSSON ISLAND","2403756","2012-02-17 05:00","2012","02","17","05:00","-35.9","","-39.6","","69","","","","13","","6","","","","101.64","","","","-43","","NA"
"-105.30","73.77","STEFANSSON ISLAND","2403756","2012-02-17 06:00","2012","02","17","06:00","-35.6","","-39.3","","69","","","","11","","6","","","","101.63","","","","-43","","NA"
"-105.30","73.77","STEFANSSON ISLAND","2403756","2012-02-17 07:00","2012","02","17","07:00","-36.4","","-40.2","","68","","","","11","","6","","","","101.63","","","","-44","","NA"
"-105.30","73.77","STEFANSSON ISLAND","2403756","2012-02-17 08:00","2012","02","17","08:00","-36.4","","-40.2","","68","","","","11","","6","","","","101.64","","","","-44","","NA"
"-105.30","73.77","STEFANSSON ISLAND","2403756","2012-02-17 09:00","2012","02","17","09:00","-37.0","","-40.9","","67","","","","11","","4","","","","101.63","","","","-42","","NA"
"-105.30","73.77","STEFANSSON ISLAND","2403756","2012-02-17 10:00","2012","02","17","10:00","-36.4","","-40.2","","68","","","","11","","4","","","","101.64","","","","-42","","NA"
"-105.30","73.77","STEFANSSON ISLAND","2403756","2012-02-17 11:00","2012","02","17","11:00","-36.3","","-40.4","","66","","","","10","","4","","","","101.65","","","","-41","","NA"
"-105.30","73.77","STEFANSSON ISLAND","2403756","2012-02-17 12:00","2012","02","17","12:00","-35.7","","-39.8","","66","","","","10","","4","","","","101.66","","","","-41","","NA"
"-105.30","73.77","STEFANSSON ISLAND","2403756","2012-02-17 13:00","2012","02","17","13:00","-35.1","","-39.3","","65","","","","10","","4","","","","101.64","","","","-40","","NA"
"-105.30","73.77","STEFANSSON ISLAND","2403756","2012-02-17 14:00","2012","02","17","14:00","-35.2","","-39.2","","67","","","","12","","2","","","","101.66","","","","-38","","NA"
"-105.30","73.77","STEFANSSON ISLAND","2403756","2012-02-17 15:00","2012","02","17","15:00","-36.3","","-40.2","","67","","","","","","0","","","","101.67","","","","","","NA"
"-105.30","73.77","STEFANSSON ISLAND","2403756","2012-02-17 16:00","2012","02","17","16:00","-37.0","","-40.9","","67","","","","","","0","","","","101.68","","","","","","NA"
"-105.30","73.77","STEFANSSON ISLAND","2403756","2012-02-17 17:00","2012","02","17","17:00","-38.8","","-42.9","","65","","","","","","0","","","","101.67","","","","","","NA"
"-105.30","73.77","STEFANSSON ISLAND","2403756","2012-02-17 18:00","2012","02","17","18:00","-39.2","","-43.3","","65","","","","26","","4","","","","101.67","","","","-45","","NA"
"-105.30","73.77","STEFANSSON ISLAND","2403756","2012-02-17 19:00","2012","02","17","19:00","-38.6","","-42.6","","66","","","","30","","6","","","","101.68","","","","-46","","NA"
"-105.30","73.77","STEFANSSON ISLAND","2403756","2012-02-17 20:00","2012","02","17","20:00","-38.6","","-42.7","","65","","","","28","","4","","","","101.68","","","","-44","","NA"
"-105.30","73.77","STEFANSSON ISLAND","2403756","2012-02-17 21:00","2012","02","17","21:00","-37.5","","-41.4","","67","","","","29","","6","","","","101.69","","","","-45","","NA"
"-105.30","73.77","STEFANSSON ISLAND","2403756","2012-02-17 22:00","2012","02","17","22:00","-38.3","","-42.3","","66","","","","27","","6","","","","101.69","","","","-46","","NA"
"-105.30","73.77","STEFANSSON ISLAND","2403756","2012-02-17 23:00","2012","02","17","23:00","-38.6","","-42.7","","65","","","","26","","6","","","","101.71","","","","-46","","NA"
"-105.30","73.77","STEFANSSON ISLAND","2403756","2012-02-18 00:00","2012","02","18","00:00","-38.4","","-42.5","","65","","","","28","","7","","","","101.72","","","","-47","","NA"
"-105.30","73.77","STEFANSSON ISLAND","2403756","2012-02-18 01:00","2012","02","18","01:00","-37.5","","-41.5","","66","","","","29","","7","","","","101.74","","","","-46","","NA"
"-105.30","73.77","STEFANSSON ISLAND","2403756","2012-02-18 02:00","2012","02","18","02:00","-37.4","","-41.4","","66","","","","29","","7","","","","101.77","","","","-46","","NA"
"-105.30","73.77","STEFANSSON ISLAND","2403756","2012-02-18 03:00","2012","02","18","03:00","-37.1","","-41.0","","67","","","","30","","6","","","","101.80","","","","-45","","NA"
"-105.30","73.77","STEFANSSON ISLAND","2403756","2012-02-18 04:00","2012","02","18","04:00","-37.7","","-41.7","","66","","","","29","","7","","","","101.81","","","","-46","","NA"
"-105.30","73.77","STEFANSSON ISLAND","2403756","2012-02-18 05:00","2012","02","18","05:00","-37.2","","-41.1","","67","","","","30","","7","","","","101.81","","","","-46","","NA"
"-105.30","73.77","STEFANSSON ISLAND","2403756","2012-02-18 06:00","2012","02","18","06:00","-37.5","","-41.5","","66","","","","29","","7","","","","101.84","","","","-46","","NA"
"-105.30","73.77","STEFANSSON ISLAND","2403756","2012-02-18 07:00","2012","02","18","07:00","-37.2","","-41.1","","67","","","","28","","11","","","","101.84","","","","-48","","NA"
"-105.30","73.77","STEFANSSON ISLAND","2403756","2012-02-18 08:00","2012","02","18","08:00","-37.2","","-41.2","","66","","","","27","","13","","","","101.86","","","","-49","","NA"
"-105.30","73.77","STEFANSSON ISLAND","2403756","2012-02-18 09:00","2012","02","18","09:00","-36.9","","-40.8","","67","","","","27","","15","","","","101.83","","","","-50","","NA"
"-105.30","73.77","STEFANSSON ISLAND","2403756","2012-02-18 10:00","2012","02","18","10:00","-36.4","","-40.3","","67","","","","27","","17","","","","101.82","","","","-50","","NA"
"-105.30","73.77","STEFANSSON ISLAND","2403756","2012-02-18 11:00","2012","02","18","11:00","-35.0","","-38.7","","69","","","","28","","17","","","","101.79","","","","-48","","NA"
"-105.30","73.77","STEFANSSON ISLAND","2403756","2012-02-18 12:00","2012","02","18","12:00","-34.3","","-38.0","","69","","","","28","","17","","","","101.79","","","","-47","","NA"
"-105.30","73.77","STEFANSSON ISLAND","2403756","2012-02-18 13:00","2012","02","18","13:00","-33.2","","-36.8","","70","","","","29","","19","","","","101.76","","","","-47","","NA"
"-105.30","73.77","STEFANSSON ISLAND","2403756","2012-02-18 14:00","2012","02","18","14:00","-33.6","","-37.2","","70","","","","28","","17","","","","101.78","","","","-47","","NA"
"-105.30","73.77","STEFANSSON ISLAND","2403756","2012-02-18 15:00","2012","02","18","15:00","-33.1","","-36.6","","71","","","","29","","19","","","","101.81","","","","-47","","NA"
"-105.30","73.77","STEFANSSON ISLAND","2403756","2012-02-18 16:00","2012","02","18","16:00","-32.6","","-36.1","","71","","","","29","","17","","","","101.85","","","","-45","","NA"
"-105.30","73.77","STEFANSSON ISLAND","2403756","2012-02-18 17:00","2012","02","18","17:00","-31.7","","-35.0","","73","","","","29","","17","","","","101.85","","","","-44","","NA"
"-105.30","73.77","STEFANSSON ISLAND","2403756","2012-02-18 18:00","2012","02","18","18:00","-32.1","","-35.5","","72","","","","29","","15","","","","101.86","","","","-44","","NA"
"-105.30","73.77","STEFANSSON ISLAND","2403756","2012-02-18 19:00","2012","02","18","19:00","-31.8","","-35.1","","72","","","","28","","15","","","","101.90","","","","-44","","NA"
"-105.30","73.77","STEFANSSON ISLAND","2403756","2012-02-18 20:00","2012","02","18","20:00","-30.0","","-33.1","","74","","","","28","","15","","","","101.93","","","","-41","","NA"
"-105.30","73.77","STEFANSSON ISLAND","2403756","2012-02-18 21:00","2012","02","18","21:00","-29.1","","-32.1","","75","","","","27","","17","","","","101.92","","","","-41","","NA"
"-105.30","73.77","STEFANSSON ISLAND","2403756","2012-02-18 22:00","2012","02","18","22:00","-29.0","","-32.0","","75","","","","28","","17","","","","101.92","","","","-41","","NA"
"-105.30","73.77","STEFANSSON ISLAND","2403756","2012-02-18 23:00","2012","02","18","23:00","-29.2","","-32.2","","75","","","","28","","19","","","","101.92","","","","-42","","NA"
"-105.30","73.77","STEFANSSON ISLAND","2403756","2012-02-19 00:00","2012","02","19","00:00","-28.6","","-31.5","","76","","","","28","","22","","","","101.94","","","","-42","","NA"
"-105.30","73.77","STEFANSSON ISLAND","2403756","2012-02-19 01:00","2012","02","19","01:00","-29.0","","-32.0","","75","","","","28","","19","","","","101.96","","","","-42","","NA"
"-105.30","73.77","STEFANSSON ISLAND","2403756","2012-02-19 02:00","2012","02","19","02:00","-29.3","","-32.3","","75","","","","28","","19","","","","101.98","","","","-42","","NA"
"-105.30","73.77","STEFANSSON ISLAND","2403756","2012-02-19 03:00","2012","02","19","03:00","-29.4","","-32.4","","75","","","","28","","19","","","","102.01","","","","-42","","NA"
"-105.30","73.77","STEFANSSON ISLAND","2403756","2012-02-19 04:00","2012","02","19","04:00","-29.2","","-32.2","","75","","","","28","","19","","","","102.06","","","","-42","","NA"
"-105.30","73.77","STEFANSSON ISLAND","2403756","2012-02-19 05:00","2012","02","19","05:00","-29.6","","-32.7","","74","","","","28","","17","","","","102.08","","","","-42","","NA"
"-105.30","73.77","STEFANSSON ISLAND","2403756","2012-02-19 06:00","2012","02","19","06:00","-29.9","","-33.0","","74","","","","28","","17","","","","102.11","","","","-42","","NA"
"-105.30","73.77","STEFANSSON ISLAND","2403756","2012-02-19 07:00","2012","02","19","07:00","-30.1","","-33.2","","74","","","","28","","19","","","","102.11","","","","-43","","NA"
"-105.30","73.77","STEFANSSON ISLAND","2403756","2012-02-19 08:00","2012","02","19","08:00","-30.5","","-33.9","","72","","","","28","","15","","","","102.14","","","","-42","","NA"
"-105.30","73.77","STEFANSSON ISLAND","2403756","2012-02-19 09:00","2012","02","19","09:00","-30.3","","-33.4","","74","","","","29","","17","","","","102.14","","","","-43","","NA"
"-105.30","73.77","STEFANSSON ISLAND","2403756","2012-02-19 10:00","2012","02","19","10:00","-30.0","","-33.1","","74","","","","28","","17","","","","102.15","","","","-42","","NA"
"-105.30","73.77","STEFANSSON ISLAND","2403756","2012-02-19 11:00","2012","02","19","11:00","-30.2","","-33.3","","74","","","","28","","15","","","","102.17","","","","-42","","NA"
"-105.30","73.77","STEFANSSON ISLAND","2403756","2012-02-19 12:00","2012","02","19","12:00","-30.5","","-33.7","","73","","","","27","","15","","","","102.22","","","","-42","","NA"
"-105.30","73.77","STEFANSSON ISLAND","2403756","2012-02-19 13:00","2012","02","19","13:00","-30.1","","-33.3","","74","","","","28","","15","","","","102.24","","","","-42","","NA"
"-105.30","73.77","STEFANSSON ISLAND","2403756","2012-02-19 14:00","2012","02","19","14:00","-30.5","","-33.8","","73","","","","28","","13","","","","102.27","","","","-41","","NA"
"-105.30","73.77","STEFANSSON ISLAND","2403756","2012-02-19 15:00","2012","02","19","15:00","-31.0","","-34.2","","73","","","","27","","15","","","","102.30","","","","-43","","NA"
"-105.30","73.77","STEFANSSON ISLAND","2403756","2012-02-19 16:00","2012","02","19","16:00"
"-105.30","73.77","STEFANSSON ISLAND","2403756","2012-02-19 17:00","2012","02","19","17:00","-32.2","","-35.6","","72","","","","27","","13","","","","102.32","","","","-43","","NA"
"-105.30","73.77","STEFANSSON ISLAND","2403756","2012-02-19 18:00","2012","02","19","18:00","-32.5","","-35.7","","73","","","","27","","13","","","","102.30","","","","-44","","NA"
"-105.30","73.77","STEFANSSON ISLAND","2403756","2012-02-19 19:00","2012","02","19","19:00","-33.1","","-36.4","","72","","","","27","","11","","","","102.33","","","","-43","","NA"
"-105.30","73.77","STEFANSSON ISLAND","2403756","2012-02-19 20:00","2012","02","19","20:00","-33.9","","-37.4","","71","","","","27","","9","","","","102.34","","","","-43","","NA"
"-105.30","73.77","STEFANSSON ISLAND","2403756","2012-02-19 21:00","2012","02","19","21:00","-34.7","","-38.4","","69","","","","25","","9","","","","102.32","","","","-44","","NA"
"-105.30","73.77","STEFANSSON ISLAND","2403756","2012-02-19 22:00","2012","02","19","22:00","-33.6","","-37.1","","71","","","","26","","11","","","","102.29","","","","-44","","NA"
"-105.30","73.77","STEFANSSON ISLAND","2403756","2012-02-19 23:00","2012","02","19","23:00","-33.1","","-36.6","","71","","","","25","","7","","","","102.28","","","","-41","","NA"
"-105.30","73.77","STEFANSSON ISLAND","2403756","2012-02-20 00:00","2012","02","20","00:00","-32.6","","-35.9","","72","","","","28","","7","","","","102.30","","","","-40","","NA"
"-105.30","73.77","STEFANSSON ISLAND","2403756","2012-02-20 01:00","2012","02","20","01:00","-33.4","","-36.9","","71","","","","27","","9","","","","102.30","","","","-43","","NA"
"-105.30","73.77","STEFANSSON ISLAND","2403756","2012-02-20 02:00","2012","02","20","02:00","-32.7","","-36.0","","72","","","","25","","7","","","","102.29","","","","-40","","NA"
"-105.30","73.77","STEFANSSON ISLAND","2403756","2012-02-20 03:00","2012","02","20","03:00","-32.4","","-35.8","","72","","","","25","","6","","","","102.27","","","","-39","","NA"
"-105.30","73.77","STEFANSSON ISLAND","2403756","2012-02-20 04:00","2012","02","20","04:00","-32.3","","-35.8","","71","","","","26","","6","","","","102.24","","","","-39","","NA"
"-105.30","73.77","STEFANSSON ISLAND","2403756","2012-02-20 05:00","2012","02","20","05:00","-33.2","","-36.6","","71","","","","28","","6","","","","102.22","","","","-40","","NA"
"-105.30","73.77","STEFANSSON ISLAND","2403756","2012-02-20 06:00","2012","02","20","06:00","-33.8","","-37.3","","71","","","","27","","6","","","","102.20","","","","-41","","NA"
"-105.30","73.77","STEFANSSON ISLAND","2403756","2012-02-20 07:00","2012","02","20","07:00","-34.3","","-37.9","","70","","","","27","","4","","","","102.15","","","","-39","","NA"
"-105.30","73.77","STEFANSSON ISLAND","2403756","2012-02-20 08:00","2012","02","20","08:00"
"-105.30","73.77","STEFANSSON ISLAND","2403756","2012-02-20 09:00","2012","02","20","09:00","-33.8","","-37.3","","71","","","","","","0","","","","102.09","","","","","","NA"
"-105.30","73.77","STEFANSSON ISLAND","2403756","2012-02-20 10:00","2012","02","20","10:00","-34.3","","-37.8","","70","","","","","","0","","","","102.03","","","","","","NA"
"-105.30","73.77","STEFANSSON ISLAND","2403756","2012-02-20 11:00","2012","02","20","11:00","-33.7","","-37.3","","70","","","","","","0","","","","102.00","","","","","","NA"
"-105.30","73.77","STEFANSSON ISLAND","2403756","2012-02-20 12:00","2012","02","20","12:00","-33.4","","-37.0","","70","","","","","","0","","","","101.97","","","","","","NA"
"-105.30","73.77","STEFANSSON ISLAND","2403756","2012-02-20 13:00","2012","02","20","13:00","-32.8","","-36.3","","71","","","","","","0","","","","101.92","","","","","","NA"
"-105.30","73.77","STEFANSSON ISLAND","2403756","2012-02-20 14:00","2012","02","20","14:00","-33.0","","-36.5","","71","","","","","","0","","","","101.88","","","","","","NA"
"-105.30","73.77","STEFANSSON ISLAND","2403756","2012-02-20 15:00","2012","02","20","15:00","-33.8","","-37.5","","69","","","","","","0","","","","101.83","","","","","","NA"
"-105.30","73.77","STEFANSSON ISLAND","2403756","2012-02-20 16:00","2012","02","20","16:00","-33.5","","-37.0","","71","","","","15","","4","","","","101.77","","","","-38","","NA"
"-105.30","73.77","STEFANSSON ISLAND","2403756","2012-02-20 17:00","2012","02","20","17:00","-34.6","","-38.2","","70","","","","","","0","","","","101.70","","","","","","NA"
"-105.30","73.77","STEFANSSON ISLAND","2403756","2012-02-20 18:00","2012","02","20","18:00","-34.8","","-38.4","","70","","","","7","","2","","","","101.63","","","","-37","","NA"
"-105.30","73.77","STEFANSSON ISLAND","2403756","2012-02-20 19:00","2012","02","20","19:00","-35.9","","-39.7","","68","","","","","","0","","","","101.54","","","","","","NA"
"-105.30","73.77","STEFANSSON ISLAND","2403756","2012-02-20 20:00","2012","02","20","20:00","-35.2","","-38.9","","69","","","","","","0","","","","101.49","","","","","","NA"
"-105.30","73.77","STEFANSSON ISLAND","2403756","2012-02-20 21:00","2012","02","20","21:00","-34.9","","-38.6","","69","","","","13","","4","","","","101.41","","","","-40","","NA"
"-105.30","73.77","STEFANSSON ISLAND","2403756","2012-02-20 22:00","2012","02","20","22:00","-35.1","","-38.7","","70","","","","17","","2","","","","101.36","","","","-38","","NA"
"-105.30","73.77","STEFANSSON ISLAND","2403756","2012-02-20 23:00","2012","02","20","23:00","-34.4","","-38.0","","70","","","","12","","4","","","","101.31","","","","-39","","NA"
"-105.30","73.77","STEFANSSON ISLAND","2403756","2012-02-21 00:00","2012","02","21","00:00"
"-105.30","73.77","STEFANSSON ISLAND","2403756","2012-02-21 01:00","2012","02","21","01:00","-31.6","","-34.9","","73","","","","11","","4","","","","101.22","","","","-36","","NA"
"-105.30","73.77","STEFANSSON ISLAND","2403756","2012-02-21 02:00","2012","02","21","02:00","-32.3","","-35.7","","72","","","","12","","6","","","","101.21","","","","-39","","NA"
"-105.30","73.77","STEFANSSON ISLAND","2403756","2012-02-21 03:00","2012","02","21","03:00","-33.2","","-36.7","","71","","","","13","","6","","","","101.17","","","","-40","","NA"
"-105.30","73.77","STEFANSSON ISLAND","2403756","2012-02-21 04:00","2012","02","21","04:00","-32.5","","-35.9","","72","","","","11","","4","","","","101.11","","","","-37","","NA"
"-105.30","73.77","STEFANSSON ISLAND","2403756","2012-02-21 05:00","2012","02","21","05:00","-32.4","","-35.7","","72","","","","11","","6","","","","101.07","","","","-39","","NA"
"-105.30","73.77","STEFANSSON ISLAND","2403756","2012-02-21 06:00","2012","02","21","06:00","-30.9","","-34.1","","73","","","","11","","6","","","","101.02","","","","-38","","NA"
"-105.30","73.77","STEFANSSON ISLAND","2403756","2012-02-21 07:00","2012","02","21","07:00","-30.3","","-33.5","","74","","","","12","","6","","","","100.98","","","","-37","","NA"
"-105.30","73.77","STEFANSSON ISLAND","2403756","2012-02-21 08:00","2012","02","21","08:00","-29.8","","-32.8","","75","","","","12","","13","","","","100.94","","","","-40","","NA"
"-105.30","73.77","STEFANSSON ISLAND","2403756","2012-02-21 09:00","2012","02","21","09:00","-29.4","","-32.4","","75","","","","11","","13","","","","100.93","","","","-40","","NA"
"-105.30","73.77","STEFANSSON ISLAND","2403756","2012-02-21 10:00","2012","02","21","10:00","-28.9","","-31.9","","75","","","","12","","15","","","","100.91","","","","-40","","NA"
"-105.30","73.77","STEFANSSON ISLAND","2403756","2012-02-21 11:00","2012","02","21","11:00","-28.3","","-31.3","","75","","","","11","","15","","","","100.88","","","","-39","","NA"
"-105.30","73.77","STEFANSSON ISLAND","2403756","2012-02-21 12:00","2012","02","21","12:00","-28.2","","-31.1","","76","","","","11","","13","","","","100.88","","","","-38","","NA"
"-105.30","73.77","STEFANSSON ISLAND","2403756","2012-02-21 13:00","2012","02","21","13:00","-28.4","","-31.4","","75","","","","11","","17","","","","100.89","","","","-40","","NA"
"-105.30","73.77","STEFANSSON ISLAND","2403756","2012-02-21 14:00","2012","02","21","14:00","-28.7","","-31.7","","75","","","","11","","11","","","","100.92","","","","-38","","NA"
"-105.30","73.77","STEFANSSON ISLAND","2403756","2012-02-21 15:00","2012","02","21","15:00","-28.4","","-31.3","","76","","","","11","","15","","","","100.90","","","","-39","","NA"
"-105.30","73.77","STEFANSSON ISLAND","2403756","2012-02-21 16:00","2012","02","21","16:00"
"-105.30","73.77","STEFANSSON ISLAND","2403756","2012-02-21 17:00","2012","02","21","17:00","-28.4","","-31.4","","75","","","","11","","13","","","","100.87","","","","-39","","NA"
"-105.30","73.77","STEFANSSON ISLAND","2403756","2012-02-21 18:00","2012","02","21","18:00","-29.2","","-32.2","","75","","","","10","","11","","","","100.87","","","","-39","","NA"
"-105.30","73.77","STEFANSSON ISLAND","2403756","2012-02-21 19:00","2012","02","21","19:00","-29.3","","-32.3","","75","","","","11","","11","","","","100.86","","","","-39","","NA"
"-105.30","73.77","STEFANSSON ISLAND","2403756","2012-02-21 20:00","2012","02","21","20:00","-29.9","","-33.0","","74","","","","10","","11","","","","100.85","","","","-40","","NA"
"-105.30","73.77","STEFANSSON ISLAND","2403756","2012-02-21 21:00","2012","02","21","21:00","-30.6","","-33.8","","73","","","","9","","9","","","","100.85","","","","-39","","NA"
"-105.30","73.77","STEFANSSON ISLAND","2403756","2012-02-21 22:00","2012","02","21","22:00","-31.0","","-34.2","","73","","","","9","","9","","","","100.86","","","","-40","","NA"
"-105.30","73.77","STEFANSSON ISLAND","2403756","2012-02-21 23:00","2012","02","21","23:00","-31.0","","-34.2","","73","","","","10","","9","","","","100.88","","","","-40","","NA"
"-105.30","73.77","STEFANSSON ISLAND","2403756","2012-02-22 00:00","2012","02","22","00:00","-30.9","","-34.1","","73","","","","10","","7","","","","100.89","","","","-38","","NA"
"-105.30","73.77","STEFANSSON ISLAND","2403756","2012-02-22 01:00","2012","02","22","01:00","-32.8","","-36.2","","72","","","","10","","6","","","","100.90","","","","-40","","NA"
"-105.30","73.77","STEFANSSON ISLAND","2403756","2012-02-22 02:00","2012","02","22","02:00","-32.3","","-35.7","","72","","","","8","","6","","","","100.93","","","","-39","","NA"
"-105.30","73.77","STEFANSSON ISLAND","2403756","2012-02-22 03:00","2012","02","22","03:00","-32.9","","-36.3","","72","","","","9","","7","","","","100.95","","","","-41","","NA"
"-105.30","73.77","STEFANSSON ISLAND","2403756","2012-02-22 04:00","2012","02","22","04:00","-33.3","","-36.8","","71","","","","9","","7","","","","100.98","","","","-41","","NA"
"-105.30","73.77","STEFANSSON ISLAND","2403756","2012-02-22 05:00","2012","02","22","05:00","-34.1","","-37.6","","71","","","","9","","4","","","","100.98","","","","-39","","NA"
"-105.30","73.77","STEFANSSON ISLAND","2403756","2012-02-22 06:00","2012","02","22","06:00","-34.1","","-37.6","","71","","","","","","0","","","","100.99","","","","","","NA"
"-105.30","73.77","STEFANSSON ISLAND","2403756","2012-02-22 07:00","2012","02","22","07:00","-34.5","","-38.1","","70","","","","9","","4","","","","101.01","","","","-39","","NA"
"-105.30","73.77","STEFANSSON ISLAND","2403756","2012-02-22 08:00","2012","02","22","08:00","-35.9","","-39.6","","69","","","","","","0","","","","101.02","","","","","","NA"
"-105.30","73.77","STEFANSSON ISLAND","2403756","2012-02-22 09:00","2012","02","22","09:00","-35.4","","-39.1","","69","","","","","","0","","","","101.04","","","","","","NA"
"-105.30","73.77","STEFANSSON ISLAND","2403756","2012-02-22 10:00","2012","02","22","10:00","-35.7","","-39.5","","68","","","","","","0","","","","101.05","","","","","","NA"
"-105.30","73.77","STEFANSSON ISLAND","2403756","2012-02-22 11:00","2012","02","22","11:00","-35.1","","-38.9","","68","","","","35","","2","","","","101.07","","","","-38","","NA"
"-105.30","73.77","STEFANSSON ISLAND","2403756","2012-02-22 12:00","2012","02","22","12:00","-33.6","","-37.5","","68","","","","","","0","","","","101.11","","","","","","NA"
"-105.30","73.77","STEFANSSON ISLAND","2403756","2012-02-22 13:00","2012","02","22","13:00","-34.9","","-38.8","","68","","","","","","0","","","","101.13","","","","","","NA"
"-105.30","73.77","STEFANSSON ISLAND","2403756","2012-02-22 14:00","2012","02","22","14:00","-34.9","","-38.7","","68","","","","","","0","","","","101.16","","","","","","NA"
"-105.30","73.77","STEFANSSON ISLAND","2403756","2012-02-22 15:00","2012","02","22","15:00","-35.3","","-39.1","","68","","","","","","0","","","","101.21","","","","","","NA"
"-105.30","73.77","STEFANSSON ISLAND","2403756","2012-02-22 16:00","2012","02","22","16:00","-37.2","","-41.1","","67","","","","27","","6","","","","101.22","","","","-45","","NA"
"-105.30","73.77","STEFANSSON ISLAND","2403756","2012-02-22 17:00","2012","02","22","17:00","-36.2","","-39.9","","69","","","","28","","6","","","","101.23","","","","-44","","NA"
"-105.30","73.77","STEFANSSON ISLAND","2403756","2012-02-22 18:00","2012","02","22","18:00","-36.9","","-40.8","","67","","","","26","","7","","","","101.22","","","","-45","","NA"
"-105.30","73.77","STEFANSSON ISLAND","2403756","2012-02-22 19:00","2012","02","22","19:00","-36.6","","-40.5","","67","","","","28","","9","","","","101.21","","","","-46","","NA"
"-105.30","73.77","STEFANSSON ISLAND","2403756","2012-02-22 20:00","2012","02","22","20:00","-36.5","","-40.4","","67","","","","26","","13","","","","101.21","","","","-49","","NA"
"-105.30","73.77","STEFANSSON ISLAND","2403756","2012-02-22 21:00","2012","02","22","21:00","-34.9","","-38.6","","69","","","","28","","13","","","","101.20","","","","-47","","NA"
"-105.30","73.77","STEFANSSON ISLAND","2403756","2012-02-22 22:00","2012","02","22","22:00","-34.9","","-38.6","","69","","","","27","","17","","","","101.20","","","","-48","","NA"
"-105.30","73.77","STEFANSSON ISLAND","2403756","2012-02-22 23:00","2012","02","22","23:00","-34.5","","-38.1","","70","","","","27","","15","","","","101.17","","","","-47","","NA"
"-105.30","73.77","STEFANSSON ISLAND","2403756","2012-02-23 00:00","2012","02","23","00:00","-32.8","","-36.2","","72","","","","27","","15","","","","101.17","","","","-45","","NA"
"-105.30","73.77","STEFANSSON ISLAND","2403756","2012-02-23 01:00","2012","02","23","01:00","-31.1","","-34.4","","73","","","","29","","17","","","","101.17","","","","-44","","NA"
"-105.30","73.77","STEFANSSON ISLAND","2403756","2012-02-23 02:00","2012","02","23","02:00","-32.2","","-35.6","","72","","","","31","","15","","","","101.19","","","","-44","","NA"
"-105.30","73.77","STEFANSSON ISLAND","2403756","2012-02-23 03:00","2012","02","23","03:00","-32.0","","-35.4","","72","","","","30","","15","","","","101.19","","","","-44","","NA"
"-105.30","73.77","STEFANSSON ISLAND","2403756","2012-02-23 04:00","2012","02","23","04:00","-32.3","","-35.7","","72","","","","30","","15","","","","101.16","","","","-44","","NA"
"-105.30","73.77","STEFANSSON ISLAND","2403756","2012-02-23 05:00","2012","02","23","05:00","-32.1","","-35.5","","72","","","","32","","15","","","","101.16","","","","-44","","NA"
"-105.30","73.77","STEFANSSON ISLAND","2403756","2012-02-23 06:00","2012","02","23","06:00","-32.3","","-35.7","","72","","","","31","","15","","","","101.17","","","","-44","","NA"
"-105.30","73.77","STEFANSSON ISLAND","2403756","2012-02-23 07:00","2012","02","23","07:00","-32.6","","-36.0","","72","","","","32","","13","","","","101.17","","","","-44","","NA"
"-105.30","73.77","STEFANSSON ISLAND","2403756","2012-02-23 08:00","2012","02","23","08:00","-32.7","","-36.1","","72","","","","32","","11","","","","101.20","","","","-43","","NA"
"-105.30","73.77","STEFANSSON ISLAND","2403756","2012-02-23 09:00","2012","02","23","09:00","-32.8","","-36.2","","72","","","","32","","9","","","","101.21","","","","-42","","NA"
"-105.30","73.77","STEFANSSON ISLAND","2403756","2012-02-23 10:00","2012","02","23","10:00","-32.8","","-36.3","","71","","","","33","","11","","","","101.21","","","","-43","","NA"
"-105.30","73.77","STEFANSSON ISLAND","2403756","2012-02-23 11:00","2012","02","23","11:00","-32.9","","-36.4","","71","","","","34","","13","","","","101.25","","","","-44","","NA"
"-105.30","73.77","STEFANSSON ISLAND","2403756","2012-02-23 12:00","2012","02","23","12:00","-33.1","","-36.7","","70","","","","33","","11","","","","101.29","","","","-43","","NA"
"-105.30","73.77","STEFANSSON ISLAND","2403756","2012-02-23 13:00","2012","02","23","13:00","-33.2","","-36.8","","70","","","","32","","11","","","","101.35","","","","-44","","NA"
"-105.30","73.77","STEFANSSON ISLAND","2403756","2012-02-23 14:00","2012","02","23","14:00","-33.3","","-36.9","","70","","","","32","","11","","","","101.41","","","","-44","","NA"
"-105.30","73.77","STEFANSSON ISLAND","2403756","2012-02-23 15:00","2012","02","23","15:00","-33.5","","-37.1","","70","","","","32","","11","","","","101.46","","","","-44","","NA"
"-105.30","73.77","STEFANSSON ISLAND","2403756","2012-02-23 16:00","2012","02","23","16:00","-33.9","","-37.5","","70","","","","31","","11","","","","101.51","","","","-44","","NA"
"-105.30","73.77","STEFANSSON ISLAND","2403756","2012-02-23 17:00","2012","02","23","17:00","-34.3","","-37.9","","70","","","","32","","11","","","","101.54","","","","-45","","NA"
"-105.30","73.77","STEFANSSON ISLAND","2403756","2012-02-23 18:00","2012","02","23","18:00","-34.5","","-38.1","","70","","","","32","","11","","","","101.56","","","","-45","","NA"
"-105.30","73.77","STEFANSSON ISLAND","2403756","2012-02-23 19:00","2012","02","23","19:00","-34.7","","-38.4","","69","","","","31","","11","","","","101.61","","","","-45","","NA"
"-105.30","73.77","STEFANSSON ISLAND","2403756","2012-02-23 20:00","2012","02","23","20:00","-34.8","","-38.5","","69","","","","30","","11","","","","101.64","","","","-45","","NA"
"-105.30","73.77","STEFANSSON ISLAND","2403756","2012-02-23 21:00","2012","02","23","21:00","-35.0","","-38.7","","69","","","","31","","11","","","","101.67","","","","-46","","NA"
"-105.30","73.77","STEFANSSON ISLAND","2403756","2012-02-23 22:00","2012","02","23","22:00","-35.1","","-38.8","","69","","","","30","","11","","","","101.71","","","","-46","","NA"
"-105.30","73.77","STEFANSSON ISLAND","2403756","2012-02-23 23:00","2012","02","23","23:00","-34.8","","-38.5","","69","","","","31","","11","","","","101.74","","","","-45","","NA"
"-105.30","73.77","STEFANSSON ISLAND","2403756","2012-02-24 00:00","2012","02","24","00:00","-35.3","","-39.0","","69","","","","30","","11","","","","101.78","","","","-46","","NA"
"-105.30","73.77","STEFANSSON ISLAND","2403756","2012-02-24 01:00","2012","02","24","01:00","-34.7","","-38.2","","70","","","","30","","13","","","","101.83","","","","-46","","NA"
"-105.30","73.77","STEFANSSON ISLAND","2403756","2012-02-24 02:00","2012","02","24","02:00","-34.6","","-38.3","","69","","","","30","","13","","","","101.87","","","","-46","","NA"
"-105.30","73.77","STEFANSSON ISLAND","2403756","2012-02-24 03:00","2012","02","24","03:00","-34.5","","-38.1","","70","","","","30","","15","","","","101.90","","","","-47","","NA"
"-105.30","73.77","STEFANSSON ISLAND","2403756","2012-02-24 04:00","2012","02","24","04:00","-35.2","","-38.9","","69","","","","30","","13","","","","101.95","","","","-47","","NA"
"-105.30","73.77","STEFANSSON ISLAND","2403756","2012-02-24 05:00","2012","02","24","05:00","-35.3","","-39.0","","69","","","","29","","15","","","","101.98","","","","-48","","NA"
"-105.30","73.77","STEFANSSON ISLAND","2403756","2012-02-24 06:00","2012","02","24","06:00","-34.6","","-38.2","","70","","","","29","","17","","","","102.01","","","","-48","","NA"
"-105.30","73.77","STEFANSSON ISLAND","2403756","2012-02-24 07:00","2012","02","24","07:00","-34.9","","-38.6","","69","","","","29","","15","","","","102.06","","","","-47","","NA"
"-105.30","73.77","STEFANSSON ISLAND","2403756","2012-02-24 08:00","2012","02","24","08:00","-34.2","","-37.8","","70","","","","29","","15","","","","102.09","","","","-47","","NA"
"-105.30","73.77","STEFANSSON ISLAND","2403756","2012-02-24 09:00","2012","02","24","09:00","-34.3","","-37.8","","70","","","","28","","13","","","","102.13","","","","-46","","NA"
"-105.30","73.77","STEFANSSON ISLAND","2403756","2012-02-24 10:00","2012","02","24","10:00"
"-105.30","73.77","STEFANSSON ISLAND","2403756","2012-02-24 11:00","2012","02","24","11:00","-33.9","","-37.6","","69","","","","29","","9","","","","102.24","","","","-43","","NA"
"-105.30","73.77","STEFANSSON ISLAND","2403756","2012-02-24 12:00","2012","02","24","12:00","-33.0","","-36.6","","70","","","","30","","11","","","","102.29","","","","-43","","NA"
"-105.30","73.77","STEFANSSON ISLAND","2403756","2012-02-24 13:00","2012","02","24","13:00","-32.5","","-36.0","","71","","","","29","","11","","","","102.37","","","","-43","","NA"
"-105.30","73.77","STEFANSSON ISLAND","2403756","2012-02-24 14:00","2012","02","24","14:00","-32.6","","-36.1","","71","","","","30","","11","","","","102.43","","","","-43","","NA"
"-105.30","73.77","STEFANSSON ISLAND","2403756","2012-02-24 15:00","2012","02","24","15:00","-32.1","","-35.5","","72","","","","30","","11","","","","102.48","","","","-42","","NA"
"-105.30","73.77","STEFANSSON ISLAND","2403756","2012-02-24 16:00","2012","02","24","16:00","-33.3","","-36.8","","71","","","","28","","11","","","","102.54","","","","-44","","NA"
"-105.30","73.77","STEFANSSON ISLAND","2403756","2012-02-24 17:00","2012","02","24","17:00","-33.6","","-37.1","","71","","","","27","","15","","","","102.58","","","","-46","","NA"
"-105.30","73.77","STEFANSSON ISLAND","2403756","2012-02-24 18:00","2012","02","24","18:00","-32.9","","-36.3","","72","","","","28","","11","","","","102.59","","","","-43","","NA"
"-105.30","73.77","STEFANSSON ISLAND","2403756","2012-02-24 19:00","2012","02","24","19:00","-32.2","","-35.6","","72","","","","29","","15","","","","102.61","","","","-44","","NA"
"-105.30","73.77","STEFANSSON ISLAND","2403756","2012-02-24 20:00","2012","02","24","20:00","-33.9","","-37.5","","70","","","","27","","7","","","","102.65","","","","-42","","NA"
"-105.30","73.77","STEFANSSON ISLAND","2403756","2012-02-24 21:00","2012","02","24","21:00","-33.2","","-36.6","","71","","","","28","","13","","","","102.68","","","","-44","","NA"
"-105.30","73.77","STEFANSSON ISLAND","2403756","2012-02-24 22:00","2012","02","24","22:00","-33.3","","-36.9","","70","","","","28","","13","","","","102.68","","","","-45","","NA"
"-105.30","73.77","STEFANSSON ISLAND","2403756","2012-02-24 23:00","2012","02","24","23:00","-33.1","","-36.6","","71","","","","29","","13","","","","102.70","","","","-44","","NA"
"-105.30","73.77","STEFANSSON ISLAND","2403756","2012-02-25 00:00","2012","02","25","00:00","-32.8","","-36.2","","72","","","","27","","13","","","","102.73","","","","-44","","NA"
"-105.30","73.77","STEFANSSON ISLAND","2403756","2012-02-25 01:00","2012","02","25","01:00","-31.8","","-35.1","","72","","","","28","","15","","","","102.77","","","","-44","","NA"
"-105.30","73.77","STEFANSSON ISLAND","2403756","2012-02-25 02:00","2012","02","25","02:00","-32.8","","-36.3","","71","","","","27","","15","","","","102.79","","","","-45","","NA"
"-105.30","73.77","STEFANSSON ISLAND","2403756","2012-02-25 03:00","2012","02","25","03:00","-32.5","","-35.9","","72","","","","28","","15","","","","102.82","","","","-44","","NA"
"-105.30","73.77","STEFANSSON ISLAND","2403756","2012-02-25 04:00","2012","02","25","04:00","-32.5","","-35.9","","72","","","","28","","15","","","","102.86","","","","-44","","NA"
"-105.30","73.77","STEFANSSON ISLAND","2403756","2012-02-25 05:00","2012","02","25","05:00","-33.4","","-36.8","","71","","","","28","","15","","","","102.86","","","","-46","","NA"
"-105.30","73.77","STEFANSSON ISLAND","2403756","2012-02-25 06:00","2012","02","25","06:00","-33.1","","-36.6","","71","","","","28","","13","","","","102.87","","","","-44","","NA"
"-105.30","73.77","STEFANSSON ISLAND","2403756","2012-02-25 07:00","2012","02","25","07:00","-33.2","","-36.7","","71","","","","28","","13","","","","102.87","","","","-44","","NA"
"-105.30","73.77","STEFANSSON ISLAND","2403756","2012-02-25 08:00","2012","02","25","08:00","-32.4","","-35.8","","72","","","","29","","9","","","","102.87","","","","-41","","NA"
"-105.30","73.77","STEFANSSON ISLAND","2403756","2012-02-25 09:00","2012","02","25","09:00","-32.8","","-36.2","","72","","","","28","","11","","","","102.88","","","","-43","","NA"
"-105.30","73.77","STEFANSSON ISLAND","2403756","2012-02-25 10:00","2012","02","25","10:00","-33.5","","-37.1","","70","","","","28","","11","","","","102.90","","","","-44","","NA"
"-105.30","73.77","STEFANSSON ISLAND","2403756","2012-02-25 11:00","2012","02","25","11:00","-32.8","","-36.3","","71","","","","26","","11","","","","102.90","","","","-43","","NA"
"-105.30","73.77","STEFANSSON ISLAND","2403756","2012-02-25 12:00","2012","02","25","12:00","-32.5","","-36.0","","71","","","","28","","13","","","","102.92","","","","-44","","NA"
"-105.30","73.77","STEFANSSON ISLAND","2403756","2012-02-25 13:00","2012","02","25","13:00","-31.6","","-35.0","","72","","","","27","","11","","","","102.91","","","","-42","","NA"
"-105.30","73.77","STEFANSSON ISLAND","2403756","2012-02-25 14:00","2012","02","25","14:00","-32.1","","-35.5","","72","","","","28","","11","","","","102.93","","","","-42","","NA"
"-105.30","73.77","STEFANSSON ISLAND","2403756","2012-02-25 15:00","2012","02","25","15:00","-33.2","","-36.8","","70","","","","28","","11","","","","102.94","","","","-44","","NA"
"-105.30","73.77","STEFANSSON ISLAND","2403756","2012-02-25 16:00","2012","02","25","16:00","-33.3","","-36.8","","71","","","","27","","11","","","","102.94","","","","-44","","NA"
"-105.30","73.77","STEFANSSON ISLAND","2403756","2012-02-25 17:00","2012","02","25","17:00","-34.9","","-38.5","","70","","","","25","","7","","","","102.90","","","","-43","","NA"
"-105.30","73.77","STEFANSSON ISLAND","2403756","2012-02-25 18:00","2012","02","25","18:00","-35.7","","-39.4","","69","","","","28","","9","","","","102.89","","","","-45","","NA"
"-105.30","73.77","STEFANSSON ISLAND","2403756","2012-02-25 19:00","2012","02","25","19:00","-34.3","","-37.9","","70","","","","27","","9","","","","102.87","","","","-44","","NA"
"-105.30","73.77","STEFANSSON ISLAND","2403756","2012-02-25 20:00","2012","02","25","20:00","-35.3","","-38.9","","70","","","","26","","13","","","","102.85","","","","-47","","NA"
"-105.30","73.77","STEFANSSON ISLAND","2403756","2012-02-25 21:00","2012","02","25","21:00","-33.8","","-37.5","","69","","","","27","","13","","","","102.81","","","","-45","","NA"
"-105.30","73.77","STEFANSSON ISLAND","2403756","2012-02-25 22:00","2012","02","25","22:00","-34.5","","-38.1","","70","","","","28","","9","","","","102.81","","","","-44","","NA"
"-105.30","73.77","STEFANSSON ISLAND","2403756","2012-02-25 23:00","2012","02","25","23:00","-33.9","","-37.5","","70","","","","28","","11","","","","102.77","","","","-44","","NA"
"-105.30","73.77","STEFANSSON ISLAND","2403756","2012-02-26 00:00","2012","02","26","00:00","-35.5","","-39.1","","69","","","","26","","9","","","","102.74","","","","-45","","NA"
"-105.30","73.77","STEFANSSON ISLAND","2403756","2012-02-26 01:00","2012","02","26","01:00","-35.8","","-39.6","","68","","","","25","","7","","","","102.72","","","","-44","","NA"
"-105.30","73.77","STEFANSSON ISLAND","2403756","2012-02-26 02:00","2012","02","26","02:00","-34.1","","-37.6","","71","","","","26","","11","","","","102.68","","","","-45","","NA"
"-105.30","73.77","STEFANSSON ISLAND","2403756","2012-02-26 03:00","2012","02","26","03:00","-34.6","","-38.2","","70","","","","25","","11","","","","102.65","","","","-45","","NA"
"-105.30","73.77","STEFANSSON ISLAND","2403756","2012-02-26 04:00","2012","02","26","04:00","-34.1","","-37.6","","71","","","","25","","9","","","","102.62","","","","-43","","NA"
"-105.30","73.77","STEFANSSON ISLAND","2403756","2012-02-26 05:00","2012","02","26","05:00","-33.8","","-37.3","","71","","","","25","","11","","","","102.55","","","","-44","","NA"
"-105.30","73.77","STEFANSSON ISLAND","2403756","2012-02-26 06:00","2012","02","26","06:00","-32.5","","-35.8","","72","","","","26","","13","","","","102.48","","","","-44","","NA"
"-105.30","73.77","STEFANSSON ISLAND","2403756","2012-02-26 07:00","2012","02","26","07:00","-32.2","","-35.6","","72","","","","26","","13","","","","102.42","","","","-43","","NA"
"-105.30","73.77","STEFANSSON ISLAND","2403756","2012-02-26 08:00","2012","02","26","08:00","-33.2","","-36.7","","71","","","","27","","9","","","","102.39","","","","-42","","NA"
"-105.30","73.77","STEFANSSON ISLAND","2403756","2012-02-26 09:00","2012","02","26","09:00","-33.3","","-36.8","","71","","","","26","","13","","","","102.34","","","","-45","","NA"
"-105.30","73.77","STEFANSSON ISLAND","2403756","2012-02-26 10:00","2012","02","26","10:00","-33.4","","-36.9","","71","","","","27","","13","","","","102.30","","","","-45","","NA"
"-105.30","73.77","STEFANSSON ISLAND","2403756","2012-02-26 11:00","2012","02","26","11:00","-32.9","","-36.3","","72","","","","27","","11","","","","102.26","","","","-43","","NA"
"-105.30","73.77","STEFANSSON ISLAND","2403756","2012-02-26 12:00","2012","02","26","12:00","-31.7","","-35.0","","73","","","","28","","17","","","","102.20","","","","-44","","NA"
"-105.30","73.77","STEFANSSON ISLAND","2403756","2012-02-26 13:00","2012","02","26","13:00","-31.6","","-34.9","","73","","","","28","","17","","","","102.17","","","","-44","","NA"
"-105.30","73.77","STEFANSSON ISLAND","2403756","2012-02-26 14:00","2012","02","26","14:00","-32.0","","-35.4","","72","","","","27","","9","","","","102.15","","","","-41","","NA"
"-105.30","73.77","STEFANSSON ISLAND","2403756","2012-02-26 15:00","2012","02","26","15:00","-32.3","","-35.7","","72","","","","27","","13","","","","102.10","","","","-43","","NA"
"-105.30","73.77","STEFANSSON ISLAND","2403756","2012-02-26 16:00","2012","02","26","16:00","-32.5","","-35.9","","72","","","","28","","15","","","","102.05","","","","-44","","NA"
"-105.30","73.77","STEFANSSON ISLAND","2403756","2012-02-26 17:00","2012","02","26","17:00","-32.6","","-36.0","","72","","","","29","","13","","","","102.02","","","","-44","","NA"
"-105.30","73.77","STEFANSSON ISLAND","2403756","2012-02-26 18:00","2012","02","26","18:00","-33.0","","-36.5","","71","","","","29","","15","","","","101.95","","","","-45","","NA"
"-105.30","73.77","STEFANSSON ISLAND","2403756","2012-02-26 19:00","2012","02","26","19:00","-33.3","","-36.8","","71","","","","29","","13","","","","101.89","","","","-45","","NA"
"-105.30","73.77","STEFANSSON ISLAND","2403756","2012-02-26 20:00","2012","02","26","20:00","-33.6","","-37.1","","71","","","","28","","11","","","","101.84","","","","-44","","NA"
"-105.30","73.77","STEFANSSON ISLAND","2403756","2012-02-26 21:00","2012","02","26","21:00","-34.9","","-38.6","","69","","","","25","","11","","","","101.81","","","","-46","","NA"
"-105.30","73.77","STEFANSSON ISLAND","2403756","2012-02-26 22:00","2012","02","26","22:00","-35.5","","-39.2","","69","","","","27","","11","","","","101.75","","","","-46","","NA"
"-105.30","73.77","STEFANSSON ISLAND","2403756","2012-02-26 23:00","2012","02","26","23:00","-35.3","","-39.0","","69","","","","28","","11","","","","101.70","","","","-46","","NA"
"-105.30","73.77","STEFANSSON ISLAND","2403756","2012-02-27 00:00","2012","02","27","00:00","-36.6","","-40.5","","67","","","","27","","11","","","","101.67","","","","-48","","NA"
"-105.30","73.77","STEFANSSON ISLAND","2403756","2012-02-27 01:00","2012","02","27","01:00","-36.3","","-40.2","","67","","","","27","","13","","","","101.62","","","","-48","","NA"
"-105.30","73.77","STEFANSSON ISLAND","2403756","2012-02-27 02:00","2012","02","27","02:00","-36.4","","-40.1","","69","","","","27","","11","","","","101.58","","","","-47","","NA"
"-105.30","73.77","STEFANSSON ISLAND","2403756","2012-02-27 03:00","2012","02","27","03:00","-36.1","","-39.9","","68","","","","28","","11","","","","101.54","","","","-47","","NA"
"-105.30","73.77","STEFANSSON ISLAND","2403756","2012-02-27 04:00","2012","02","27","04:00","-36.9","","-40.9","","66","","","","27","","11","","","","101.49","","","","-48","","NA"
"-105.30","73.77","STEFANSSON ISLAND","2403756","2012-02-27 05:00","2012","02","27","05:00","-35.9","","-39.7","","68","","","","28","","13","","","","101.42","","","","-48","","NA"
"-105.30","73.77","STEFANSSON ISLAND","2403756","2012-02-27 06:00","2012","02","27","06:00","-36.5","","-40.4","","67","","","","28","","9","","","","101.37","","","","-46","","NA"
"-105.30","73.77","STEFANSSON ISLAND","2403756","2012-02-27 07:00","2012","02","27","07:00","-36.8","","-40.6","","68","","","","28","","9","","","","101.34","","","","-47","","NA"
"-105.30","73.77","STEFANSSON ISLAND","2403756","2012-02-27 08:00","2012","02","27","08:00","-36.6","","-40.5","","67","","","","27","","9","","","","101.29","","","","-46","","NA"
"-105.30","73.77","STEFANSSON ISLAND","2403756","2012-02-27 09:00","2012","02","27","09:00","-36.1","","-39.9","","68","","","","27","","11","","","","101.24","","","","-47","","NA"
"-105.30","73.77","STEFANSSON ISLAND","2403756","2012-02-27 10:00","2012","02","27","10:00","-36.0","","-39.9","","67","","","","27","","13","","","","101.20","","","","-48","","NA"
"-105.30","73.77","STEFANSSON ISLAND","2403756","2012-02-27 11:00","2012","02","27","11:00","-35.4","","-39.2","","68","","","","27","","13","","","","101.18","","","","-47","","NA"
"-105.30","73.77","STEFANSSON ISLAND","2403756","2012-02-27 12:00","2012","02","27","12:00","-34.9","","-38.7","","68","","","","28","","11","","","","101.15","","","","-46","","NA"
"-105.30","73.77","STEFANSSON ISLAND","2403756","2012-02-27 13:00","2012","02","27","13:00","-34.3","","-38.0","","69","","","","29","","11","","","","101.13","","","","-45","","NA"
"-105.30","73.77","STEFANSSON ISLAND","2403756","2012-02-27 14:00","2012","02","27","14:00","-34.5","","-38.2","","69","","","","28","","11","","","","101.11","","","","-45","","NA"
"-105.30","73.77","STEFANSSON ISLAND","2403756","2012-02-27 15:00","2012","02","27","15:00","-34.6","","-38.3","","69","","","","29","","15","","","","101.10","","","","-47","","NA"
"-105.30","73.77","STEFANSSON ISLAND","2403756","2012-02-27 16:00","2012","02","27","16:00","-35.2","","-39.0","","68","","","","26","","15","","","","101.06","","","","-48","","NA"
"-105.30","73.77","STEFANSSON ISLAND","2403756","2012-02-27 17:00","2012","02","27","17:00","-35.3","","-39.0","","69","","","","27","","15","","","","101.03","","","","-48","","NA"
"-105.30","73.77","STEFANSSON ISLAND","2403756","2012-02-27 18:00","2012","02","27","18:00","-34.1","","-37.7","","70","","","","28","","17","","","","100.98","","","","-47","","NA"
"-105.30","73.77","STEFANSSON ISLAND","2403756","2012-02-27 19:00","2012","02","27","19:00","-34.4","","-38.0","","70","","","","28","","17","","","","100.97","","","","-48","","NA"
"-105.30","73.77","STEFANSSON ISLAND","2403756","2012-02-27 20:00","2012","02","27","20:00","-34.2","","-37.8","","70","","","","28","","15","","","","100.99","","","","-47","","NA"
"-105.30","73.77","STEFANSSON ISLAND","2403756","2012-02-27 21:00","2012","02","27","21:00","-34.1","","-37.7","","70","","","","28","","15","","","","101.00","","","","-46","","NA"
"-105.30","73.77","STEFANSSON ISLAND","2403756","2012-02-27 22:00","2012","02","27","22:00","-34.8","","-38.5","","69","","","","28","","15","","","","101.00","","","","-47","","NA"
"-105.30","73.77","STEFANSSON ISLAND","2403756","2012-02-27 23:00","2012","02","27","23:00","-35.2","","-39.0","","68","","","","27","","17","","","","100.99","","","","-49","","NA"
"-105.30","73.77","STEFANSSON ISLAND","2403756","2012-02-28 00:00","2012","02","28","00:00","-36.0","","-39.8","","68","","","","28","","15","","","","101.00","","","","-49","","NA"
"-105.30","73.77","STEFANSSON ISLAND","2403756","2012-02-28 01:00","2012","02","28","01:00","-35.6","","-39.4","","68","","","","31","","11","","","","101.06","","","","-46","","NA"
"-105.30","73.77","STEFANSSON ISLAND","2403756","2012-02-28 02:00","2012","02","28","02:00","-36.1","","-39.9","","68","","","","30","","13","","","","101.09","","","","-48","","NA"
"-105.30","73.77","STEFANSSON ISLAND","2403756","2012-02-28 03:00","2012","02","28","03:00","-36.5","","-40.4","","67","","","","31","","11","","","","101.12","","","","-47","","NA"
"-105.30","73.77","STEFANSSON ISLAND","2403756","2012-02-28 04:00","2012","02","28","04:00","-37.0","","-41.0","","66","","","","31","","13","","","","101.15","","","","-49","","NA"
"-105.30","73.77","STEFANSSON ISLAND","2403756","2012-02-28 05:00","2012","02","28","05:00","-37.5","","-41.5","","66","","","","31","","11","","","","101.19","","","","-49","","NA"
"-105.30","73.77","STEFANSSON ISLAND","2403756","2012-02-28 06:00","2012","02","28","06:00","-37.7","","-41.7","","66","","","","31","","11","","","","101.24","","","","-49","","NA"
"-105.30","73.77","STEFANSSON ISLAND","2403756","2012-02-28 07:00","2012","02","28","07:00","-38.6","","-42.7","","65","","","","29","","13","","","","101.27","","","","-51","","NA"
"-105.30","73.77","STEFANSSON ISLAND","2403756","2012-02-28 08:00","2012","02","28","08:00","-38.5","","-42.6","","65","","","","30","","11","","","","101.33","","","","-50","","NA"
"-105.30","73.77","STEFANSSON ISLAND","2403756","2012-02-28 09:00","2012","02","28","09:00","-37.6","","-41.6","","66","","","","30","","11","","","","101.36","","","","-49","","NA"
"-105.30","73.77","STEFANSSON ISLAND","2403756","2012-02-28 10:00","2012","02","28","10:00","-37.9","","-42.0","","65","","","","27","","7","","","","101.41","","","","-46","","NA"
"-105.30","73.77","STEFANSSON ISLAND","2403756","2012-02-28 11:00","2012","02","28","11:00","-38.1","","-42.2","","65","","","","29","","11","","","","101.42","","","","-49","","NA"
"-105.30","73.77","STEFANSSON ISLAND","2403756","2012-02-28 12:00","2012","02","28","12:00","-37.5","","-41.6","","65","","","","29","","13","","","","101.45","","","","-50","","NA"
"-105.30","73.77","STEFANSSON ISLAND","2403756","2012-02-28 13:00","2012","02","28","13:00","-37.3","","-41.4","","66","","","","29","","13","","","","101.50","","","","-49","","NA"
"-105.30","73.77","STEFANSSON ISLAND","2403756","2012-02-28 14:00","2012","02","28","14:00","-36.5","","-40.4","","67","","","","30","","13","","","","101.49","","","","-49","","NA"
"-105.30","73.77","STEFANSSON ISLAND","2403756","2012-02-28 15:00","2012","02","28","15:00","-36.9","","-40.9","","66","","","","28","","11","","","","101.51","","","","-48","","NA"
"-105.30","73.77","STEFANSSON ISLAND","2403756","2012-02-28 16:00","2012","02","28","16:00","-37.0","","-41.0","","66","","","","28","","13","","","","101.51","","","","-49","","NA"
"-105.30","73.77","STEFANSSON ISLAND","2403756","2012-02-28 17:00","2012","02","28","17:00","-36.6","","-40.5","","67","","","","28","","9","","","","101.48","","","","-46","","NA"
"-105.30","73.77","STEFANSSON ISLAND","2403756","2012-02-28 18:00","2012","02","28","18:00","-36.1","","-39.9","","68","","","","30","","7","","","","101.48","","","","-44","","NA"
"-105.30","73.77","STEFANSSON ISLAND","2403756","2012-02-28 19:00","2012","02","28","19:00","-35.7","","-39.6","","67","","","","27","","4","","","","101.47","","","","-41","","NA"
"-105.30","73.77","STEFANSSON ISLAND","2403756","2012-02-28 20:00","2012","02","28","20:00","-34.8","","-38.4","","70","","","","28","","7","","","","101.46","","","","-43","","NA"
"-105.30","73.77","STEFANSSON ISLAND","2403756","2012-02-28 21:00","2012","02","28","21:00","-34.4","","-38.1","","69","","","","28","","9","","","","101.45","","","","-44","","NA"
"-105.30","73.77","STEFANSSON ISLAND","2403756","2012-02-28 22:00","2012","02","28","22:00","-35.3","","-39.0","","69","","","","28","","9","","","","101.42","","","","-45","","NA"
"-105.30","73.77","STEFANSSON ISLAND","2403756","2012-02-28 23:00","2012","02","28","23:00","-36.9","","-40.8","","67","","","","26","","9","","","","101.40","","","","-47","","NA"
"-105.30","73.77","STEFANSSON ISLAND","2403756","2012-02-29 00:00","2012","02","29","00:00","-37.1","","-41.0","","67","","","","28","","11","","","","101.41","","","","-48","","NA"
"-105.30","73.77","STEFANSSON ISLAND","2403756","2012-02-29 01:00","2012","02","29","01:00","-37.4","","-41.3","","67","","","","28","","9","","","","101.42","","","","-47","","NA"
"-105.30","73.77","STEFANSSON ISLAND","2403756","2012-02-29 02:00","2012","02","29","02:00","-37.6","","-41.6","","66","","","","30","","6","","","","101.45","","","","-45","","NA"
"-105.30","73.77","STEFANSSON ISLAND","2403756","2012-02-29 03:00","2012","02","29","03:00","-37.2","","-41.2","","66","","","","30","","4","","","","101.48","","","","-42","","NA"
"-105.30","73.77","STEFANSSON ISLAND","2403756","2012-02-29 04:00","2012","02","29","04:00","-39.2","","-43.4","","64","","","","31","","2","","","","101.48","","","","-42","","NA"
"-105.30","73.77","STEFANSSON ISLAND","2403756","2012-02-29 05:00","2012","02","29","05:00","-40.7","","-45.1","","63","","","","26","","4","","","","101.49","","","","-46","","NA"
"-105.30","73.77","STEFANSSON ISLAND","2403756","2012-02-29 06:00","2012","02","29","06:00","-41.0","","-45.3","","63","","","","26","","6","","","","101.52","","","","-49","","NA"
"-105.30","73.77","STEFANSSON ISLAND","2403756","2012-02-29 07:00","2012","02","29","07:00","-42.2","","-46.6","","62","","","","26","","4","","","","101.53","","","","-48","","NA"
"-105.30","73.77","STEFANSSON ISLAND","2403756","2012-02-29 08:00","2012","02","29","08:00","-41.5","","-45.8","","63","","","","26","","4","","","","101.52","","","","-47","","NA"
"-105.30","73.77","STEFANSSON ISLAND","2403756","2012-02-29 09:00","2012","02","29","09:00","-41.2","","-45.6","","62","","","","25","","4","","","","101.53","","","","-47","","NA"
"-105.30","73.77","STEFANSSON ISLAND","2403756","2012-02-29 10:00","2012","02","29","10:00","-40.1","","-44.4","","63","","","","25","","4","","","","101.54","","","","-46","","NA"
"-105.30","73.77","STEFANSSON ISLAND","2403756","2012-02-29 11:00","2012","02","29","11:00","-39.3","","-43.7","","63","","","","25","","6","","","","101.53","","","","-47","","NA"
"-105.30","73.77","STEFANSSON ISLAND","2403756","2012-02-29 12:00","2012","02","29","12:00","-38.4","","-42.7","","64","","","","28","","6","","","","101.59","","","","-46","","NA"
"-105.30","73.77","STEFANSSON ISLAND","2403756","2012-02-29 13:00","2012","02","29","13:00","-37.8","","-42.0","","65","","","","28","","7","","","","101.62","","","","-46","","NA"
"-105.30","73.77","STEFANSSON ISLAND","2403756","2012-02-29 14:00","2012","02","29","14:00","-38.2","","-42.4","","65","","","","29","","7","","","","101.63","","","","-47","","NA"
"-105.30","73.77","STEFANSSON ISLAND","2403756","2012-02-29 15:00","2012","02","29","15:00","-38.2","","-42.4","","65","","","","27","","9","","","","101.62","","","","-48","","NA"
"-105.30","73.77","STEFANSSON ISLAND","2403756","2012-02-29 16:00","2012","02","29","16:00","-39.3","","-43.6","","64","","","","27","","9","","","","101.64","","","","-50","","NA"
"-105.30","73.77","STEFANSSON ISLAND","2403756","2012-02-29 17:00","2012","02","29","17:00","-38.5","","-42.6","","65","","","","28","","11","","","","101.63","","","","-50","","NA"
"-105.30","73.77","STEFANSSON ISLAND","2403756","2012-02-29 18:00","2012","02","29","18:00","-38.7","","-42.8","","65","","","","28","","11","","","","101.65","","","","-50","","NA"
"-105.30","73.77","STEFANSSON ISLAND","2403756","2012-02-29 19:00","2012","02","29","19:00","-38.8","","-43.0","","64","","","","28","","11","","","","101.62","","","","-50","","NA"
"-105.30","73.77","STEFANSSON ISLAND","2403756","2012-02-29 20:00","2012","02","29","20:00","-38.6","","-42.8","","64","","","","28","","9","","","","101.63","","","","-49","","NA"
"-105.30","73.77","STEFANSSON ISLAND","2403756","2012-02-29 21:00","2012","02","29","21:00","-38.1","","-42.2","","65","","","","28","","13","","","","101.60","","","","-50","","NA"
"-105.30","73.77","STEFANSSON ISLAND","2403756","2012-02-29 22:00","2012","02","29","22:00","-38.0","","-42.1","","65","","","","29","","11","","","","101.61","","","","-49","","NA"
"-105.30","73.77","STEFANSSON ISLAND","2403756","2012-02-29 23:00","2012","02","29","23:00","-37.5","","-41.6","","65","","","","29","","11","","","","101.60","","","","-49","","NA"
