"Longitude (x)","Latitude (y)","Station Name","Climate ID","Date/Time (LST)","Year","Month","Day","Time (LST)","Temp (°C)","Temp Flag","Dew Point Temp (°C)","Dew Point Temp Flag","Rel Hum (%)","Rel Hum Flag","Precip. Amount (mm)","Precip. Amount Flag","Wind Dir (10s deg)","Wind Dir Flag","Wind Spd (km/h)","Wind Spd Flag","Visibility (km)","Visibility Flag","Stn Press (kPa)","Stn Press Flag","Hmdx","Hmdx Flag","Wind Chill","Wind Chill Flag","Weather"
"-125.77","49.08","TOFINO A","1038204","2019-01-01 00:00","2019","01","01","00:00"
"-125.77","49.08","TOFINO A","1038204","2019-01-01 01:00","2019","01","01","01:00"
"-125.77","49.08","TOFINO A","1038204","2019-01-01 02:00","2019","01","01","02:00"
"-125.77","49.08","TOFINO A","1038204","2019-01-01 03:00","2019","01","01","03:00"
"-125.77","49.08","TOFINO A","1038204","2019-01-01 04:00","2019","01","01","04:00"
"-125.77","49.08","TOFINO A","1038204","2019-01-01 05:00","2019","01","01","05:00"
"-125.77","49.08","TOFINO A","1038204","2019-01-01 06:00","2019","01","01","06:00"
"-125.77","49.08","TOFINO A","1038204","2019-01-01 07:00","2019","01","01","07:00","2.3","","1.9","","97","","","","3","","7","","16.1","","102.70","","","","","","Cloudy"
"-125.77","49.08","TOFINO A","1038204","2019-01-01 08:00","2019","01","01","08:00","2.5","","2.0","","97","","","","8","","4","","24.1","","102.74","","","","","","NA"
"-125.77","49.08","TOFINO A","1038204","2019-01-01 09:00","2019","01","01","09:00","3.1","","2.4","","95","","","","36","","3","","24.1","","102.78","","","","","","NA"
"-125.77","49.08","TOFINO A","1038204","2019-01-01 10:00","2019","01","01","10:00","4.3","","2.4","","88","","","","7","","9","","24.1","","102.78","","","","","","Cloudy"
"-125.77","49.08","TOFINO A","1038204","2019-01-01 11:00","2019","01","01","11:00","5.4","","2.3","","81","","","","8","","8","","24.1","","102.72","","","","","","NA"
"-125.77","49.08","TOFINO A","1038204","2019-01-01 12:00","2019","01","01","12:00","6.6","","2.2","","74","","","","10","","9","","22.5","","102.63","","","","","","NA"
"-125.77","49.08","TOFINO A","1038204","2019-01-01 13:00","2019","01","01","13:00","6.8","","3.0","","76","","","","12","","9","","24.1","","102.56","","","","","","Cloudy"
"-125.77","49.08","TOFINO A","1038204","2019-01-01 14:00","2019","01","01","14:00","6.7","","2.8","","76","","","","8","","4","","24.1","","102.53","","","","","","NA"
"-125.77","49.08","TOFINO A","1038204","2019-01-01 15:00","2019","01","01","15:00","6.8","","2.9","","76","","","","12","","11","","24.1","","102.45","","","","","","NA"
"-125.77","49.08","TOFINO A","1038204","2019-01-01 16:00","2019","01","01","16:00","6.2","","3.0","","80","","","","11","","4","","24.1","","102.47","","","","","","Cloudy"
"-125.77","49.08","TOFINO A","1038204","2019-01-01 17:00","2019","01","01","17:00","5.1","","3.3","","88","","","","13","","5","","16.1","","102.45","","","","","","NA"
"-125.77","49.08","TOFINO A","1038204","2019-01-01 18:00","2019","01","01","18:00"
"-125.77","49.08","TOFINO A","1038204","2019-01-01 19:00","2019","01","01","19:00"
"-125.77","49.08","TOFINO A","1038204","2019-01-01 20:00","2019","01","01","20:00"
"-125.77","49.08","TOFINO A","1038204","2019-01-01 21:00","2019","01","01","21:00"
"-125.77","49.08","TOFINO A","1038204","2019-01-01 22:00","2019","01","01","22:00"
"-125.77","49.08","TOFINO A","1038204","2019-01-01 23:00","2019","01","01","23:00"
"-125.77","49.08","TOFINO A","1038204","2019-01-02 00:00","2019","01","02","00:00"
"-125.77","49.08","TOFINO A","1038204","2019-01-02 01:00","2019","01","02","01:00"
"-125.77","49.08","TOFINO A","1038204","2019-01-02 02:00","2019","01","02","02:00"
"-125.77","49.08","TOFINO A","1038204","2019-01-02 03:00","2019","01","02","03:00"
"-125.77","49.08","TOFINO A","1038204","2019-01-02 04:00","2019","01","02","04:00"
"-125.77","49.08","TOFINO A","1038204","2019-01-02 05:00","2019","01","02","05:00"
"-125.77","49.08","TOFINO A","1038204","2019-01-02 06:00","2019","01","02","06:00"
"-125.77","49.08","TOFINO A","1038204","2019-01-02 07:00","2019","01","02","07:00","4.4","","3.5","","94","","","","10","","11","","4.8","","101.65","","","","","","Drizzle,Fog"
"-125.77","49.08","TOFINO A","1038204","2019-01-02 08:00","2019","01","02","08:00","4.2","","3.5","","95","","","","10","","13","","16.1","","101.58","","","","","","Drizzle"
"-125.77","49.08","TOFINO A","1038204","2019-01-02 09:00","2019","01","02","09:00","4.4","","3.6","","94","","","","10","","17","","24.1","","101.51","","","","","","Drizzle"
"-125.77","49.08","TOFINO A","1038204","2019-01-02 10:00","2019","01","02","10:00","5.1","","4.2","","94","","","","11","","19","","16.1","","101.43","","","","","","Rain"
"-125.77","49.08","TOFINO A","1038204","2019-01-02 11:00","2019","01","02","11:00","5.3","","4.4","","94","","","","12","","21","","8.1","","101.43","","","","","","Moderate Rain,Fog"
"-125.77","49.08","TOFINO A","1038204","2019-01-02 12:00","2019","01","02","12:00","5.6","","4.5","","93","","","","10","","23","","9.7","","101.20","","","","","","Moderate Rain,Fog"
"-125.77","49.08","TOFINO A","1038204","2019-01-02 13:00","2019","01","02","13:00","5.8","","4.9","","94","","","","12","","25","","8.1","","101.10","","","","","","Moderate Rain,Fog"
"-125.77","49.08","TOFINO A","1038204","2019-01-02 14:00","2019","01","02","14:00","5.9","","5.0","","94","","","","12","","27","","4.8","","101.01","","","","","","Heavy Rain,Fog"
"-125.77","49.08","TOFINO A","1038204","2019-01-02 15:00","2019","01","02","15:00","6.4","","5.5","","94","","","","12","","33","","4.8","","100.93","","","","","","Moderate Rain"
"-125.77","49.08","TOFINO A","1038204","2019-01-02 16:00","2019","01","02","16:00","6.5","","5.6","","94","","","","12","","30","","4.8","","100.87","","","","","","Moderate Rain,Fog"
"-125.77","49.08","TOFINO A","1038204","2019-01-02 17:00","2019","01","02","17:00","6.9","","6.1","","94","","","","12","","35","","4.8","","100.80","","","","","","Moderate Rain,Fog"
"-125.77","49.08","TOFINO A","1038204","2019-01-02 18:00","2019","01","02","18:00"
"-125.77","49.08","TOFINO A","1038204","2019-01-02 19:00","2019","01","02","19:00"
"-125.77","49.08","TOFINO A","1038204","2019-01-02 20:00","2019","01","02","20:00"
"-125.77","49.08","TOFINO A","1038204","2019-01-02 21:00","2019","01","02","21:00"
"-125.77","49.08","TOFINO A","1038204","2019-01-02 22:00","2019","01","02","22:00"
"-125.77","49.08","TOFINO A","1038204","2019-01-02 23:00","2019","01","02","23:00"
"-125.77","49.08","TOFINO A","1038204","2019-01-03 00:00","2019","01","03","00:00"
"-125.77","49.08","TOFINO A","1038204","2019-01-03 01:00","2019","01","03","01:00"
"-125.77","49.08","TOFINO A","1038204","2019-01-03 02:00","2019","01","03","02:00"
"-125.77","49.08","TOFINO A","1038204","2019-01-03 03:00","2019","01","03","03:00"
"-125.77","49.08","TOFINO A","1038204","2019-01-03 04:00","2019","01","03","04:00"
"-125.77","49.08","TOFINO A","1038204","2019-01-03 05:00","2019","01","03","05:00"
"-125.77","49.08","TOFINO A","1038204","2019-01-03 06:00","2019","01","03","06:00"
"-125.77","49.08","TOFINO A","1038204","2019-01-03 07:00","2019","01","03","07:00","10.2","","9.9","","98","","","","19","","12","","4.8","","99.95","","","","","","Heavy Rain,Fog"
"-125.77","49.08","TOFINO A","1038204","2019-01-03 08:00","2019","01","03","08:00","10.2","","9.8","","98","","","","17","","7","","4.8","","99.92","","","","","","Moderate Rain,Fog"
"-125.77","49.08","TOFINO A","1038204","2019-01-03 09:00","2019","01","03","09:00","10.4","","10.0","","98","","","","22","","8","","8.1","","99.95","","","","","","Rain,Fog"
"-125.77","49.08","TOFINO A","1038204","2019-01-03 10:00","2019","01","03","10:00","10.5","","10.1","","97","","","","22","","4","","6.4","","100.04","","","","","","Rain,Fog"
"-125.77","49.08","TOFINO A","1038204","2019-01-03 11:00","2019","01","03","11:00","10.4","","10.0","","97","","","","23","","8","","16.1","","100.09","","","","","","Rain"
"-125.77","49.08","TOFINO A","1038204","2019-01-03 12:00","2019","01","03","12:00","10.2","","9.7","","96","","","","19","","4","","4.8","","100.08","","","","","","Rain,Fog"
"-125.77","49.08","TOFINO A","1038204","2019-01-03 13:00","2019","01","03","13:00","10.2","","9.4","","95","","","","25","","6","","16.1","","100.03","","","","","","Mostly Cloudy"
"-125.77","49.08","TOFINO A","1038204","2019-01-03 14:00","2019","01","03","14:00","9.8","","9.1","","95","","","","14","","6","","8.1","","100.06","","","","","","Fog"
"-125.77","49.08","TOFINO A","1038204","2019-01-03 15:00","2019","01","03","15:00","9.6","","9.0","","96","","","","15","","5","","4.8","","100.01","","","","","","Fog"
"-125.77","49.08","TOFINO A","1038204","2019-01-03 16:00","2019","01","03","16:00","9.6","","8.9","","96","","","","16","","8","","4.8","","99.99","","","","","","Fog"
"-125.77","49.08","TOFINO A","1038204","2019-01-03 17:00","2019","01","03","17:00","9.5","","8.9","","96","","","","15","","12","","4.8","","99.90","","","","","","Fog"
"-125.77","49.08","TOFINO A","1038204","2019-01-03 18:00","2019","01","03","18:00"
"-125.77","49.08","TOFINO A","1038204","2019-01-03 19:00","2019","01","03","19:00"
"-125.77","49.08","TOFINO A","1038204","2019-01-03 20:00","2019","01","03","20:00"
"-125.77","49.08","TOFINO A","1038204","2019-01-03 21:00","2019","01","03","21:00"
"-125.77","49.08","TOFINO A","1038204","2019-01-03 22:00","2019","01","03","22:00"
"-125.77","49.08","TOFINO A","1038204","2019-01-03 23:00","2019","01","03","23:00"
"-125.77","49.08","TOFINO A","1038204","2019-01-04 00:00","2019","01","04","00:00"
"-125.77","49.08","TOFINO A","1038204","2019-01-04 01:00","2019","01","04","01:00"
"-125.77","49.08","TOFINO A","1038204","2019-01-04 02:00","2019","01","04","02:00"
"-125.77","49.08","TOFINO A","1038204","2019-01-04 03:00","2019","01","04","03:00"
"-125.77","49.08","TOFINO A","1038204","2019-01-04 04:00","2019","01","04","04:00"
"-125.77","49.08","TOFINO A","1038204","2019-01-04 05:00","2019","01","04","05:00"
"-125.77","49.08","TOFINO A","1038204","2019-01-04 06:00","2019","01","04","06:00"
"-125.77","49.08","TOFINO A","1038204","2019-01-04 07:00","2019","01","04","07:00","9.0","","7.4","","90","","","","17","","13","","12.9","","99.72","","","","","","Mainly Clear"
"-125.77","49.08","TOFINO A","1038204","2019-01-04 08:00","2019","01","04","08:00","9.1","","7.5","","90","","","","17","","17","","8.1","","99.76","","","","","","Moderate Rain Showers,Fog"
"-125.77","49.08","TOFINO A","1038204","2019-01-04 09:00","2019","01","04","09:00","8.7","","7.5","","92","","","","21","","8","","9.7","","99.86","","","","","","Fog"
"-125.77","49.08","TOFINO A","1038204","2019-01-04 10:00","2019","01","04","10:00","9.3","","7.1","","86","","","","36","","3","","12.9","","100.04","","","","","","Mostly Cloudy"
"-125.77","49.08","TOFINO A","1038204","2019-01-04 11:00","2019","01","04","11:00","9.2","","6.7","","84","","","","20","","9","","16.1","","100.14","","","","","","NA"
"-125.77","49.08","TOFINO A","1038204","2019-01-04 12:00","2019","01","04","12:00","9.6","","6.6","","81","","","","17","","16","","24.1","","100.17","","","","","","NA"
"-125.77","49.08","TOFINO A","1038204","2019-01-04 13:00","2019","01","04","13:00","9.5","","6.8","","83","","","","17","","17","","16.1","","100.20","","","","","","Mostly Cloudy"
"-125.77","49.08","TOFINO A","1038204","2019-01-04 14:00","2019","01","04","14:00","9.0","","6.8","","86","","","","21","","11","","12.9","","100.24","","","","","","NA"
"-125.77","49.08","TOFINO A","1038204","2019-01-04 15:00","2019","01","04","15:00","8.9","","7.7","","92","","","","17","","11","","9.7","","100.27","","","","","","Rain Showers,Fog"
"-125.77","49.08","TOFINO A","1038204","2019-01-04 16:00","2019","01","04","16:00","8.5","","7.5","","94","","","","17","","14","","4.8","","100.33","","","","","","Rain Showers,Fog"
"-125.77","49.08","TOFINO A","1038204","2019-01-04 17:00","2019","01","04","17:00","8.3","","7.7","","96","","","","16","","13","","6.4","","100.37","","","","","","Fog"
"-125.77","49.08","TOFINO A","1038204","2019-01-04 18:00","2019","01","04","18:00"
"-125.77","49.08","TOFINO A","1038204","2019-01-04 19:00","2019","01","04","19:00"
"-125.77","49.08","TOFINO A","1038204","2019-01-04 20:00","2019","01","04","20:00"
"-125.77","49.08","TOFINO A","1038204","2019-01-04 21:00","2019","01","04","21:00"
"-125.77","49.08","TOFINO A","1038204","2019-01-04 22:00","2019","01","04","22:00"
"-125.77","49.08","TOFINO A","1038204","2019-01-04 23:00","2019","01","04","23:00"
"-125.77","49.08","TOFINO A","1038204","2019-01-05 00:00","2019","01","05","00:00"
"-125.77","49.08","TOFINO A","1038204","2019-01-05 01:00","2019","01","05","01:00"
"-125.77","49.08","TOFINO A","1038204","2019-01-05 02:00","2019","01","05","02:00"
"-125.77","49.08","TOFINO A","1038204","2019-01-05 03:00","2019","01","05","03:00"
"-125.77","49.08","TOFINO A","1038204","2019-01-05 04:00","2019","01","05","04:00"
"-125.77","49.08","TOFINO A","1038204","2019-01-05 05:00","2019","01","05","05:00"
"-125.77","49.08","TOFINO A","1038204","2019-01-05 06:00","2019","01","05","06:00"
"-125.77","49.08","TOFINO A","1038204","2019-01-05 07:00","2019","01","05","07:00","6.7","","5.2","","91","","","","4","","10","","16.1","","99.74","","","","","","Rain Showers"
"-125.77","49.08","TOFINO A","1038204","2019-01-05 08:00","2019","01","05","08:00","6.4","","5.3","","92","","","","6","","10","","24.1","","99.65","","","","","","Rain"
"-125.77","49.08","TOFINO A","1038204","2019-01-05 09:00","2019","01","05","09:00","6.9","","4.9","","87","","","","6","","9","","24.1","","99.55","","","","","","NA"
"-125.77","49.08","TOFINO A","1038204","2019-01-05 10:00","2019","01","05","10:00","7.4","","4.8","","83","","","","8","","13","","24.1","","99.47","","","","","","Cloudy"
"-125.77","49.08","TOFINO A","1038204","2019-01-05 11:00","2019","01","05","11:00","8.2","","4.7","","79","","","","9","","16","","24.1","","99.38","","","","","","NA"
"-125.77","49.08","TOFINO A","1038204","2019-01-05 12:00","2019","01","05","12:00","8.8","","4.5","","74","","","","8","","13","","24.1","","99.21","","","","","","NA"
"-125.77","49.08","TOFINO A","1038204","2019-01-05 13:00","2019","01","05","13:00","9.1","","4.4","","72","","","","10","","14","","24.1","","99.08","","","","","","Cloudy"
"-125.77","49.08","TOFINO A","1038204","2019-01-05 14:00","2019","01","05","14:00","8.7","","4.8","","76","","","","10","","18","","24.1","","98.97","","","","","","Rain"
"-125.77","49.08","TOFINO A","1038204","2019-01-05 15:00","2019","01","05","15:00","7.4","","5.7","","89","","","","10","","14","","16.1","","98.92","","","","","","Rain"
"-125.77","49.08","TOFINO A","1038204","2019-01-05 16:00","2019","01","05","16:00","6.9","","5.7","","92","","","","12","","22","","12.9","","98.85","","","","","","Rain"
"-125.77","49.08","TOFINO A","1038204","2019-01-05 17:00","2019","01","05","17:00","6.4","","5.3","","93","","","","11","","17","","8.1","","98.76","","","","","","Moderate Rain,Fog"
"-125.77","49.08","TOFINO A","1038204","2019-01-05 18:00","2019","01","05","18:00"
"-125.77","49.08","TOFINO A","1038204","2019-01-05 19:00","2019","01","05","19:00"
"-125.77","49.08","TOFINO A","1038204","2019-01-05 20:00","2019","01","05","20:00"
"-125.77","49.08","TOFINO A","1038204","2019-01-05 21:00","2019","01","05","21:00"
"-125.77","49.08","TOFINO A","1038204","2019-01-05 22:00","2019","01","05","22:00"
"-125.77","49.08","TOFINO A","1038204","2019-01-05 23:00","2019","01","05","23:00"
"-125.77","49.08","TOFINO A","1038204","2019-01-06 00:00","2019","01","06","00:00"
"-125.77","49.08","TOFINO A","1038204","2019-01-06 01:00","2019","01","06","01:00"
"-125.77","49.08","TOFINO A","1038204","2019-01-06 02:00","2019","01","06","02:00"
"-125.77","49.08","TOFINO A","1038204","2019-01-06 03:00","2019","01","06","03:00"
"-125.77","49.08","TOFINO A","1038204","2019-01-06 04:00","2019","01","06","04:00"
"-125.77","49.08","TOFINO A","1038204","2019-01-06 05:00","2019","01","06","05:00"
"-125.77","49.08","TOFINO A","1038204","2019-01-06 06:00","2019","01","06","06:00"
"-125.77","49.08","TOFINO A","1038204","2019-01-06 07:00","2019","01","06","07:00","5.6","","1.7","","76","","","","26","","19","","24.1","","99.18","","","","","","Mostly Cloudy"
"-125.77","49.08","TOFINO A","1038204","2019-01-06 08:00","2019","01","06","08:00","5.0","","0.7","","73","","","","26","","17","","24.1","","99.30","","","","","","NA"
"-125.77","49.08","TOFINO A","1038204","2019-01-06 09:00","2019","01","06","09:00","6.0","","1.5","","73","","","","23","","12","","24.1","","99.41","","","","","","NA"
"-125.77","49.08","TOFINO A","1038204","2019-01-06 10:00","2019","01","06","10:00","6.2","","1.4","","71","","","","27","","17","","24.1","","99.49","","","","","","Mostly Cloudy"
"-125.77","49.08","TOFINO A","1038204","2019-01-06 11:00","2019","01","06","11:00","4.5","","2.5","","87","","","","","","0","","24.1","","99.53","","","","","","NA"
"-125.77","49.08","TOFINO A","1038204","2019-01-06 12:00","2019","01","06","12:00","6.6","","2.5","","75","","","","8","","4","","24.1","","99.53","","","","","","NA"
"-125.77","49.08","TOFINO A","1038204","2019-01-06 13:00","2019","01","06","13:00","6.6","","2.1","","73","","","","26","","9","","24.1","","99.55","","","","","","Mainly Clear"
"-125.77","49.08","TOFINO A","1038204","2019-01-06 14:00","2019","01","06","14:00","7.4","","1.7","","67","","","","25","","12","","24.1","","99.57","","","","","","NA"
"-125.77","49.08","TOFINO A","1038204","2019-01-06 15:00","2019","01","06","15:00","6.3","","1.1","","69","","","","24","","10","","24.1","","99.60","","","","","","NA"
"-125.77","49.08","TOFINO A","1038204","2019-01-06 16:00","2019","01","06","16:00","4.5","","1.5","","81","","","","31","","15","","24.1","","99.65","","","","","","Rain Showers"
"-125.77","49.08","TOFINO A","1038204","2019-01-06 17:00","2019","01","06","17:00","3.1","","2.1","","93","","","","9","","6","","24.1","","99.67","","","","","","NA"
"-125.77","49.08","TOFINO A","1038204","2019-01-06 18:00","2019","01","06","18:00"
"-125.77","49.08","TOFINO A","1038204","2019-01-06 19:00","2019","01","06","19:00"
"-125.77","49.08","TOFINO A","1038204","2019-01-06 20:00","2019","01","06","20:00"
"-125.77","49.08","TOFINO A","1038204","2019-01-06 21:00","2019","01","06","21:00"
"-125.77","49.08","TOFINO A","1038204","2019-01-06 22:00","2019","01","06","22:00"
"-125.77","49.08","TOFINO A","1038204","2019-01-06 23:00","2019","01","06","23:00"
"-125.77","49.08","TOFINO A","1038204","2019-01-07 00:00","2019","01","07","00:00"
"-125.77","49.08","TOFINO A","1038204","2019-01-07 01:00","2019","01","07","01:00"
"-125.77","49.08","TOFINO A","1038204","2019-01-07 02:00","2019","01","07","02:00"
"-125.77","49.08","TOFINO A","1038204","2019-01-07 03:00","2019","01","07","03:00"
"-125.77","49.08","TOFINO A","1038204","2019-01-07 04:00","2019","01","07","04:00"
"-125.77","49.08","TOFINO A","1038204","2019-01-07 05:00","2019","01","07","05:00"
"-125.77","49.08","TOFINO A","1038204","2019-01-07 06:00","2019","01","07","06:00"
"-125.77","49.08","TOFINO A","1038204","2019-01-07 07:00","2019","01","07","07:00","-1.1","","-1.5","","98","","","","2","","4","","16.1","","101.02","","","","-2","","Clear"
"-125.77","49.08","TOFINO A","1038204","2019-01-07 08:00","2019","01","07","08:00","-1.8","","-2.2","","97","","","","25","","3","","24.1","","101.14","","","","-3","","NA"
"-125.77","49.08","TOFINO A","1038204","2019-01-07 09:00","2019","01","07","09:00","0.3","","0.0","","98","","","","2","","8","","24.1","","101.30","","","","","","NA"
"-125.77","49.08","TOFINO A","1038204","2019-01-07 10:00","2019","01","07","10:00","1.6","","1.2","","97","","","","3","","8","","24.1","","101.45","","","","","","Clear"
"-125.77","49.08","TOFINO A","1038204","2019-01-07 11:00","2019","01","07","11:00","3.0","","1.6","","91","","","","3","","9","","24.1","","101.53","","","","","","NA"
"-125.77","49.08","TOFINO A","1038204","2019-01-07 12:00","2019","01","07","12:00","4.3","","1.2","","80","","","","1","","8","","24.1","","101.58","","","","","","NA"
"-125.77","49.08","TOFINO A","1038204","2019-01-07 13:00","2019","01","07","13:00","5.1","","-1.0","","65","","","","3","","4","","24.1","","101.62","","","","","","Clear"
"-125.77","49.08","TOFINO A","1038204","2019-01-07 14:00","2019","01","07","14:00","5.4","","1.5","","76","","","","17","","10","","24.1","","101.71","","","","","","NA"
"-125.77","49.08","TOFINO A","1038204","2019-01-07 15:00","2019","01","07","15:00","5.2","","0.1","","70","","","","16","","10","","24.1","","101.78","","","","","","NA"
"-125.77","49.08","TOFINO A","1038204","2019-01-07 16:00","2019","01","07","16:00","3.9","","1.4","","83","","","","8","","5","","24.1","","101.81","","","","","","Mainly Clear"
"-125.77","49.08","TOFINO A","1038204","2019-01-07 17:00","2019","01","07","17:00","1.2","","0.3","","93","","","","6","","5","","24.1","","101.86","","","","","","NA"
"-125.77","49.08","TOFINO A","1038204","2019-01-07 18:00","2019","01","07","18:00"
"-125.77","49.08","TOFINO A","1038204","2019-01-07 19:00","2019","01","07","19:00"
"-125.77","49.08","TOFINO A","1038204","2019-01-07 20:00","2019","01","07","20:00"
"-125.77","49.08","TOFINO A","1038204","2019-01-07 21:00","2019","01","07","21:00"
"-125.77","49.08","TOFINO A","1038204","2019-01-07 22:00","2019","01","07","22:00"
"-125.77","49.08","TOFINO A","1038204","2019-01-07 23:00","2019","01","07","23:00"
"-125.77","49.08","TOFINO A","1038204","2019-01-08 00:00","2019","01","08","00:00"
"-125.77","49.08","TOFINO A","1038204","2019-01-08 01:00","2019","01","08","01:00"
"-125.77","49.08","TOFINO A","1038204","2019-01-08 02:00","2019","01","08","02:00"
"-125.77","49.08","TOFINO A","1038204","2019-01-08 03:00","2019","01","08","03:00"
"-125.77","49.08","TOFINO A","1038204","2019-01-08 04:00","2019","01","08","04:00"
"-125.77","49.08","TOFINO A","1038204","2019-01-08 05:00","2019","01","08","05:00"
"-125.77","49.08","TOFINO A","1038204","2019-01-08 06:00","2019","01","08","06:00"
"-125.77","49.08","TOFINO A","1038204","2019-01-08 07:00","2019","01","08","07:00","5.5","","-4.4","","49","","","","6","","18","","16.1","","101.01","","","","","","Cloudy"
"-125.77","49.08","TOFINO A","1038204","2019-01-08 08:00","2019","01","08","08:00","2.9","","-0.6","","78","","","","5","","16","","16.1","","100.87","","","","","","Rain"
"-125.77","49.08","TOFINO A","1038204","2019-01-08 09:00","2019","01","08","09:00","2.8","","1.0","","87","","","","7","","11","","24.1","","100.80","","","","","","Rain"
"-125.77","49.08","TOFINO A","1038204","2019-01-08 10:00","2019","01","08","10:00","3.7","","1.5","","85","","","","6","","13","","24.1","","100.75","","","","","","Rain"
"-125.77","49.08","TOFINO A","1038204","2019-01-08 11:00","2019","01","08","11:00","4.3","","2.6","","89","","","","8","","14","","24.1","","100.66","","","","","","Rain"
"-125.77","49.08","TOFINO A","1038204","2019-01-08 12:00","2019","01","08","12:00","4.6","","2.8","","88","","","","","","","M","24.1","","100.51","","","","","","Rain"
"-125.77","49.08","TOFINO A","1038204","2019-01-08 13:00","2019","01","08","13:00","4.8","","3.3","","90","","","","6","","13","","24.1","","100.38","","","","","","Rain"
"-125.77","49.08","TOFINO A","1038204","2019-01-08 14:00","2019","01","08","14:00","5.2","","3.9","","91","","","","8","","14","","24.1","","100.29","","","","","","Rain"
"-125.77","49.08","TOFINO A","1038204","2019-01-08 15:00","2019","01","08","15:00","6.0","","4.7","","92","","","","6","","13","","24.1","","100.24","","","","","","Rain"
"-125.77","49.08","TOFINO A","1038204","2019-01-08 16:00","2019","01","08","16:00","7.2","","5.8","","91","","","","8","","18","","24.1","","100.18","","","","","","Rain"
"-125.77","49.08","TOFINO A","1038204","2019-01-08 17:00","2019","01","08","17:00","7.7","","6.3","","91","","","","9","","19","","16.1","","100.14","","","","","","Rain"
"-125.77","49.08","TOFINO A","1038204","2019-01-08 18:00","2019","01","08","18:00"
"-125.77","49.08","TOFINO A","1038204","2019-01-08 19:00","2019","01","08","19:00"
"-125.77","49.08","TOFINO A","1038204","2019-01-08 20:00","2019","01","08","20:00"
"-125.77","49.08","TOFINO A","1038204","2019-01-08 21:00","2019","01","08","21:00"
"-125.77","49.08","TOFINO A","1038204","2019-01-08 22:00","2019","01","08","22:00"
"-125.77","49.08","TOFINO A","1038204","2019-01-08 23:00","2019","01","08","23:00"
"-125.77","49.08","TOFINO A","1038204","2019-01-09 00:00","2019","01","09","00:00"
"-125.77","49.08","TOFINO A","1038204","2019-01-09 01:00","2019","01","09","01:00"
"-125.77","49.08","TOFINO A","1038204","2019-01-09 02:00","2019","01","09","02:00"
"-125.77","49.08","TOFINO A","1038204","2019-01-09 03:00","2019","01","09","03:00"
"-125.77","49.08","TOFINO A","1038204","2019-01-09 04:00","2019","01","09","04:00"
"-125.77","49.08","TOFINO A","1038204","2019-01-09 05:00","2019","01","09","05:00"
"-125.77","49.08","TOFINO A","1038204","2019-01-09 06:00","2019","01","09","06:00"
"-125.77","49.08","TOFINO A","1038204","2019-01-09 07:00","2019","01","09","07:00","9.7","","7.7","","87","","","","12","","31","","16.1","","99.68","","","","","","Rain Showers"
"-125.77","49.08","TOFINO A","1038204","2019-01-09 08:00","2019","01","09","08:00","9.5","","8.0","","91","","","","13","","34","","16.1","","99.64","","","","","","Moderate Rain Showers"
"-125.77","49.08","TOFINO A","1038204","2019-01-09 09:00","2019","01","09","09:00","9.5","","8.3","","92","","","","12","","37","","16.1","","99.66","","","","","","Rain Showers"
"-125.77","49.08","TOFINO A","1038204","2019-01-09 10:00","2019","01","09","10:00","9.8","","8.2","","89","","","","12","","34","","24.1","","99.69","","","","","","Rain Showers"
"-125.77","49.08","TOFINO A","1038204","2019-01-09 11:00","2019","01","09","11:00","9.6","","8.3","","91","","","","12","","38","","16.1","","99.62","","","","","","Rain Showers"
"-125.77","49.08","TOFINO A","1038204","2019-01-09 12:00","2019","01","09","12:00","9.8","","8.4","","91","","","","12","","41","","24.1","","99.51","","","","","","Rain Showers"
"-125.77","49.08","TOFINO A","1038204","2019-01-09 13:00","2019","01","09","13:00","9.7","","8.2","","91","","","","13","","44","","24.1","","99.41","","","","","","Rain Showers"
"-125.77","49.08","TOFINO A","1038204","2019-01-09 14:00","2019","01","09","14:00","9.4","","8.3","","93","","","","13","","38","","16.1","","99.34","","","","","","Rain Showers"
"-125.77","49.08","TOFINO A","1038204","2019-01-09 15:00","2019","01","09","15:00","9.2","","8.4","","95","","","","13","","40","","8.1","","99.37","","","","","","Rain Showers,Fog"
"-125.77","49.08","TOFINO A","1038204","2019-01-09 16:00","2019","01","09","16:00","9.5","","8.8","","95","","","","13","","45","","3.2","","99.36","","","","","","Rain Showers,Fog"
"-125.77","49.08","TOFINO A","1038204","2019-01-09 17:00","2019","01","09","17:00","9.6","","9.0","","96","","","","14","","41","","3.2","","99.42","","","","","","Heavy Rain Showers,Fog"
"-125.77","49.08","TOFINO A","1038204","2019-01-09 18:00","2019","01","09","18:00"
"-125.77","49.08","TOFINO A","1038204","2019-01-09 19:00","2019","01","09","19:00"
"-125.77","49.08","TOFINO A","1038204","2019-01-09 20:00","2019","01","09","20:00"
"-125.77","49.08","TOFINO A","1038204","2019-01-09 21:00","2019","01","09","21:00"
"-125.77","49.08","TOFINO A","1038204","2019-01-09 22:00","2019","01","09","22:00"
"-125.77","49.08","TOFINO A","1038204","2019-01-09 23:00","2019","01","09","23:00"
"-125.77","49.08","TOFINO A","1038204","2019-01-10 00:00","2019","01","10","00:00"
"-125.77","49.08","TOFINO A","1038204","2019-01-10 01:00","2019","01","10","01:00"
"-125.77","49.08","TOFINO A","1038204","2019-01-10 02:00","2019","01","10","02:00"
"-125.77","49.08","TOFINO A","1038204","2019-01-10 03:00","2019","01","10","03:00"
"-125.77","49.08","TOFINO A","1038204","2019-01-10 04:00","2019","01","10","04:00"
"-125.77","49.08","TOFINO A","1038204","2019-01-10 05:00","2019","01","10","05:00"
"-125.77","49.08","TOFINO A","1038204","2019-01-10 06:00","2019","01","10","06:00"
"-125.77","49.08","TOFINO A","1038204","2019-01-10 07:00","2019","01","10","07:00","8.3","","7.7","","96","","","","13","","13","","12.9","","101.00","","","","","","Cloudy"
"-125.77","49.08","TOFINO A","1038204","2019-01-10 08:00","2019","01","10","08:00","9.2","","8.5","","95","","","","12","","16","","9.7","","101.03","","","","","","Fog"
"-125.77","49.08","TOFINO A","1038204","2019-01-10 09:00","2019","01","10","09:00","9.1","","8.1","","94","","","","13","","21","","6.4","","101.11","","","","","","Rain Showers,Fog"
"-125.77","49.08","TOFINO A","1038204","2019-01-10 10:00","2019","01","10","10:00","9.4","","8.5","","94","","","","12","","23","","16.1","","101.14","","","","","","Mostly Cloudy"
"-125.77","49.08","TOFINO A","1038204","2019-01-10 11:00","2019","01","10","11:00","9.9","","8.9","","93","","","","13","","24","","9.7","","101.19","","","","","","Fog"
"-125.77","49.08","TOFINO A","1038204","2019-01-10 12:00","2019","01","10","12:00","9.9","","8.9","","93","","","","13","","23","","4.8","","101.15","","","","","","Rain,Fog"
"-125.77","49.08","TOFINO A","1038204","2019-01-10 13:00","2019","01","10","13:00","9.8","","8.8","","94","","","","13","","30","","6.4","","101.09","","","","","","Rain,Fog"
"-125.77","49.08","TOFINO A","1038204","2019-01-10 14:00","2019","01","10","14:00","9.7","","8.7","","94","","","","13","","27","","4.8","","101.08","","","","","","Rain,Fog"
"-125.77","49.08","TOFINO A","1038204","2019-01-10 15:00","2019","01","10","15:00","9.6","","8.6","","94","","","","13","","37","","4.8","","101.11","","","","","","Rain,Fog"
"-125.77","49.08","TOFINO A","1038204","2019-01-10 16:00","2019","01","10","16:00","9.7","","8.7","","94","","","","13","","35","","4.8","","101.10","","","","","","Rain,Fog"
"-125.77","49.08","TOFINO A","1038204","2019-01-10 17:00","2019","01","10","17:00","9.7","","8.7","","94","","","","13","","35","","8.1","","101.09","","","","","","Rain,Fog"
"-125.77","49.08","TOFINO A","1038204","2019-01-10 18:00","2019","01","10","18:00"
"-125.77","49.08","TOFINO A","1038204","2019-01-10 19:00","2019","01","10","19:00"
"-125.77","49.08","TOFINO A","1038204","2019-01-10 20:00","2019","01","10","20:00"
"-125.77","49.08","TOFINO A","1038204","2019-01-10 21:00","2019","01","10","21:00"
"-125.77","49.08","TOFINO A","1038204","2019-01-10 22:00","2019","01","10","22:00"
"-125.77","49.08","TOFINO A","1038204","2019-01-10 23:00","2019","01","10","23:00"
"-125.77","49.08","TOFINO A","1038204","2019-01-11 00:00","2019","01","11","00:00"
"-125.77","49.08","TOFINO A","1038204","2019-01-11 01:00","2019","01","11","01:00"
"-125.77","49.08","TOFINO A","1038204","2019-01-11 02:00","2019","01","11","02:00"
"-125.77","49.08","TOFINO A","1038204","2019-01-11 03:00","2019","01","11","03:00"
"-125.77","49.08","TOFINO A","1038204","2019-01-11 04:00","2019","01","11","04:00"
"-125.77","49.08","TOFINO A","1038204","2019-01-11 05:00","2019","01","11","05:00"
"-125.77","49.08","TOFINO A","1038204","2019-01-11 06:00","2019","01","11","06:00"
"-125.77","49.08","TOFINO A","1038204","2019-01-11 07:00","2019","01","11","07:00","9.4","","8.2","","92","","","","9","","18","","19.3","","101.10","","","","","","Rain"
"-125.77","49.08","TOFINO A","1038204","2019-01-11 08:00","2019","01","11","08:00","9.4","","8.2","","92","","","","8","","15","","24.1","","101.10","","","","","","Rain"
"-125.77","49.08","TOFINO A","1038204","2019-01-11 09:00","2019","01","11","09:00","10.0","","7.9","","87","","","","7","","16","","24.1","","101.11","","","","","","NA"
"-125.77","49.08","TOFINO A","1038204","2019-01-11 10:00","2019","01","11","10:00","10.6","","7.6","","81","","","","8","","13","","24.1","","101.13","","","","","","Cloudy"
"-125.77","49.08","TOFINO A","1038204","2019-01-11 11:00","2019","01","11","11:00","11.4","","7.8","","78","","","","9","","13","","24.1","","101.09","","","","","","NA"
"-125.77","49.08","TOFINO A","1038204","2019-01-11 12:00","2019","01","11","12:00","12.1","","8.2","","77","","","","8","","10","","24.1","","101.03","","","","","","NA"
"-125.77","49.08","TOFINO A","1038204","2019-01-11 13:00","2019","01","11","13:00","12.1","","8.0","","76","","","","8","","10","","24.1","","100.97","","","","","","Mostly Cloudy"
"-125.77","49.08","TOFINO A","1038204","2019-01-11 14:00","2019","01","11","14:00","12.2","","8.4","","77","","","","19","","12","","24.1","","100.93","","","","","","NA"
"-125.77","49.08","TOFINO A","1038204","2019-01-11 15:00","2019","01","11","15:00","10.3","","8.4","","87","","","","16","","8","","24.1","","100.91","","","","","","NA"
"-125.77","49.08","TOFINO A","1038204","2019-01-11 16:00","2019","01","11","16:00","9.3","","8.0","","91","","","","18","","4","","19.3","","100.90","","","","","","Mainly Clear"
"-125.77","49.08","TOFINO A","1038204","2019-01-11 17:00","2019","01","11","17:00","7.6","","6.9","","95","","","","","","0","","8.1","","100.87","","","","","","Fog"
"-125.77","49.08","TOFINO A","1038204","2019-01-11 18:00","2019","01","11","18:00"
"-125.77","49.08","TOFINO A","1038204","2019-01-11 19:00","2019","01","11","19:00"
"-125.77","49.08","TOFINO A","1038204","2019-01-11 20:00","2019","01","11","20:00"
"-125.77","49.08","TOFINO A","1038204","2019-01-11 21:00","2019","01","11","21:00"
"-125.77","49.08","TOFINO A","1038204","2019-01-11 22:00","2019","01","11","22:00"
"-125.77","49.08","TOFINO A","1038204","2019-01-11 23:00","2019","01","11","23:00"
"-125.77","49.08","TOFINO A","1038204","2019-01-12 00:00","2019","01","12","00:00"
"-125.77","49.08","TOFINO A","1038204","2019-01-12 01:00","2019","01","12","01:00"
"-125.77","49.08","TOFINO A","1038204","2019-01-12 02:00","2019","01","12","02:00"
"-125.77","49.08","TOFINO A","1038204","2019-01-12 03:00","2019","01","12","03:00"
"-125.77","49.08","TOFINO A","1038204","2019-01-12 04:00","2019","01","12","04:00"
"-125.77","49.08","TOFINO A","1038204","2019-01-12 05:00","2019","01","12","05:00"
"-125.77","49.08","TOFINO A","1038204","2019-01-12 06:00","2019","01","12","06:00"
"-125.77","49.08","TOFINO A","1038204","2019-01-12 07:00","2019","01","12","07:00","8.6","","6.9","","89","","","","17","","14","","19.3","","100.80","","","","","","Mostly Cloudy"
"-125.77","49.08","TOFINO A","1038204","2019-01-12 08:00","2019","01","12","08:00","8.6","","6.6","","87","","","","14","","20","","24.1","","100.90","","","","","","NA"
"-125.77","49.08","TOFINO A","1038204","2019-01-12 09:00","2019","01","12","09:00","8.9","","6.3","","84","","","","8","","12","","24.1","","101.00","","","","","","NA"
"-125.77","49.08","TOFINO A","1038204","2019-01-12 10:00","2019","01","12","10:00","10.6","","5.4","","70","","","","9","","13","","24.1","","101.04","","","","","","Mostly Cloudy"
"-125.77","49.08","TOFINO A","1038204","2019-01-12 11:00","2019","01","12","11:00","10.8","","5.5","","69","","","","11","","15","","24.1","","101.07","","","","","","Rain Showers"
"-125.77","49.08","TOFINO A","1038204","2019-01-12 12:00","2019","01","12","12:00","11.8","","4.9","","62","","","","9","","17","","24.1","","101.00","","","","","","NA"
"-125.77","49.08","TOFINO A","1038204","2019-01-12 13:00","2019","01","12","13:00","10.4","","7.2","","80","","","","10","","15","","24.1","","100.99","","","","","","Rain"
"-125.77","49.08","TOFINO A","1038204","2019-01-12 14:00","2019","01","12","14:00","10.0","","8.2","","89","","","","11","","16","","16.1","","101.05","","","","","","Rain"
"-125.77","49.08","TOFINO A","1038204","2019-01-12 15:00","2019","01","12","15:00","9.9","","8.6","","92","","","","11","","13","","8.1","","101.13","","","","","","Rain,Fog"
"-125.77","49.08","TOFINO A","1038204","2019-01-12 16:00","2019","01","12","16:00","9.4","","8.2","","93","","","","12","","16","","4.8","","101.23","","","","","","Moderate Rain,Fog"
"-125.77","49.08","TOFINO A","1038204","2019-01-12 17:00","2019","01","12","17:00","9.1","","7.7","","91","","","","12","","16","","8.1","","101.30","","","","","","Rain,Fog"
"-125.77","49.08","TOFINO A","1038204","2019-01-12 18:00","2019","01","12","18:00"
"-125.77","49.08","TOFINO A","1038204","2019-01-12 19:00","2019","01","12","19:00"
"-125.77","49.08","TOFINO A","1038204","2019-01-12 20:00","2019","01","12","20:00"
"-125.77","49.08","TOFINO A","1038204","2019-01-12 21:00","2019","01","12","21:00"
"-125.77","49.08","TOFINO A","1038204","2019-01-12 22:00","2019","01","12","22:00"
"-125.77","49.08","TOFINO A","1038204","2019-01-12 23:00","2019","01","12","23:00"
"-125.77","49.08","TOFINO A","1038204","2019-01-13 00:00","2019","01","13","00:00"
"-125.77","49.08","TOFINO A","1038204","2019-01-13 01:00","2019","01","13","01:00"
"-125.77","49.08","TOFINO A","1038204","2019-01-13 02:00","2019","01","13","02:00"
"-125.77","49.08","TOFINO A","1038204","2019-01-13 03:00","2019","01","13","03:00"
"-125.77","49.08","TOFINO A","1038204","2019-01-13 04:00","2019","01","13","04:00"
"-125.77","49.08","TOFINO A","1038204","2019-01-13 05:00","2019","01","13","05:00"
"-125.77","49.08","TOFINO A","1038204","2019-01-13 06:00","2019","01","13","06:00"
"-125.77","49.08","TOFINO A","1038204","2019-01-13 07:00","2019","01","13","07:00","6.6","","6.3","","98","","","","15","","4","","0.8","","101.70","","","","","","Fog"
"-125.77","49.08","TOFINO A","1038204","2019-01-13 08:00","2019","01","13","08:00","6.5","","6.2","","98","","","","17","","3","","12.9","","101.72","","","","","","NA"
"-125.77","49.08","TOFINO A","1038204","2019-01-13 09:00","2019","01","13","09:00","6.3","","6.0","","98","","","","36","","3","","6.4","","101.77","","","","","","Fog"
"-125.77","49.08","TOFINO A","1038204","2019-01-13 10:00","2019","01","13","10:00","7.5","","7.2","","98","","","","36","","2","","16.1","","101.81","","","","","","Mainly Clear"
"-125.77","49.08","TOFINO A","1038204","2019-01-13 11:00","2019","01","13","11:00","8.9","","8.5","","98","","","","18","","7","","19.3","","101.78","","","","","","NA"
"-125.77","49.08","TOFINO A","1038204","2019-01-13 12:00","2019","01","13","12:00","9.3","","8.1","","92","","","","16","","10","","24.1","","101.73","","","","","","NA"
"-125.77","49.08","TOFINO A","1038204","2019-01-13 13:00","2019","01","13","13:00","9.5","","7.4","","87","","","","17","","11","","24.1","","101.67","","","","","","Mainly Clear"
"-125.77","49.08","TOFINO A","1038204","2019-01-13 14:00","2019","01","13","14:00","9.4","","7.4","","87","","","","17","","11","","24.1","","101.66","","","","","","NA"
"-125.77","49.08","TOFINO A","1038204","2019-01-13 15:00","2019","01","13","15:00","9.6","","7.3","","86","","","","16","","14","","24.1","","101.65","","","","","","NA"
"-125.77","49.08","TOFINO A","1038204","2019-01-13 16:00","2019","01","13","16:00","9.2","","6.8","","85","","","","15","","8","","24.1","","101.67","","","","","","Clear"
"-125.77","49.08","TOFINO A","1038204","2019-01-13 17:00","2019","01","13","17:00","7.0","","6.1","","94","","","","31","","3","","19.3","","101.70","","","","","","NA"
"-125.77","49.08","TOFINO A","1038204","2019-01-13 18:00","2019","01","13","18:00"
"-125.77","49.08","TOFINO A","1038204","2019-01-13 19:00","2019","01","13","19:00"
"-125.77","49.08","TOFINO A","1038204","2019-01-13 20:00","2019","01","13","20:00"
"-125.77","49.08","TOFINO A","1038204","2019-01-13 21:00","2019","01","13","21:00"
"-125.77","49.08","TOFINO A","1038204","2019-01-13 22:00","2019","01","13","22:00"
"-125.77","49.08","TOFINO A","1038204","2019-01-13 23:00","2019","01","13","23:00"
"-125.77","49.08","TOFINO A","1038204","2019-01-14 00:00","2019","01","14","00:00"
"-125.77","49.08","TOFINO A","1038204","2019-01-14 01:00","2019","01","14","01:00"
"-125.77","49.08","TOFINO A","1038204","2019-01-14 02:00","2019","01","14","02:00"
"-125.77","49.08","TOFINO A","1038204","2019-01-14 03:00","2019","01","14","03:00"
"-125.77","49.08","TOFINO A","1038204","2019-01-14 04:00","2019","01","14","04:00"
"-125.77","49.08","TOFINO A","1038204","2019-01-14 05:00","2019","01","14","05:00"
"-125.77","49.08","TOFINO A","1038204","2019-01-14 06:00","2019","01","14","06:00"
"-125.77","49.08","TOFINO A","1038204","2019-01-14 07:00","2019","01","14","07:00","1.0","","0.8","","98","","","","36","","1","","0.8","","101.44","","","","","","Fog"
"-125.77","49.08","TOFINO A","1038204","2019-01-14 08:00","2019","01","14","08:00","0.2","","-0.1","","98","","","","36","","3","","16.1","","101.41","","","","","","NA"
"-125.77","49.08","TOFINO A","1038204","2019-01-14 09:00","2019","01","14","09:00","0.0","","-0.2","","98","","","","7","","3","","24.1","","101.44","","","","-1","","NA"
"-125.77","49.08","TOFINO A","1038204","2019-01-14 10:00","2019","01","14","10:00","3.2","","3.0","","98","","","","36","","3","","16.1","","101.44","","","","","","Clear"
"-125.77","49.08","TOFINO A","1038204","2019-01-14 11:00","2019","01","14","11:00","6.4","","6.2","","98","","","","","","0","","24.1","","101.41","","","","","","NA"
"-125.77","49.08","TOFINO A","1038204","2019-01-14 12:00","2019","01","14","12:00","7.9","","7.3","","96","","","","30","","5","","24.1","","101.29","","","","","","NA"
"-125.77","49.08","TOFINO A","1038204","2019-01-14 13:00","2019","01","14","13:00","8.7","","6.8","","88","","","","18","","7","","24.1","","101.23","","","","","","Clear"
"-125.77","49.08","TOFINO A","1038204","2019-01-14 14:00","2019","01","14","14:00","9.8","","6.5","","80","","","","29","","4","","24.1","","101.18","","","","","","NA"
"-125.77","49.08","TOFINO A","1038204","2019-01-14 15:00","2019","01","14","15:00","8.8","","5.7","","81","","","","18","","10","","24.1","","101.15","","","","","","NA"
"-125.77","49.08","TOFINO A","1038204","2019-01-14 16:00","2019","01","14","16:00","7.8","","5.3","","84","","","","17","","4","","24.1","","101.13","","","","","","Clear"
"-125.77","49.08","TOFINO A","1038204","2019-01-14 17:00","2019","01","14","17:00","5.4","","4.4","","93","","","","5","","4","","24.1","","101.09","","","","","","NA"
"-125.77","49.08","TOFINO A","1038204","2019-01-14 18:00","2019","01","14","18:00"
"-125.77","49.08","TOFINO A","1038204","2019-01-14 19:00","2019","01","14","19:00"
"-125.77","49.08","TOFINO A","1038204","2019-01-14 20:00","2019","01","14","20:00"
"-125.77","49.08","TOFINO A","1038204","2019-01-14 21:00","2019","01","14","21:00"
"-125.77","49.08","TOFINO A","1038204","2019-01-14 22:00","2019","01","14","22:00"
"-125.77","49.08","TOFINO A","1038204","2019-01-14 23:00","2019","01","14","23:00"
"-125.77","49.08","TOFINO A","1038204","2019-01-15 00:00","2019","01","15","00:00"
"-125.77","49.08","TOFINO A","1038204","2019-01-15 01:00","2019","01","15","01:00"
"-125.77","49.08","TOFINO A","1038204","2019-01-15 02:00","2019","01","15","02:00"
"-125.77","49.08","TOFINO A","1038204","2019-01-15 03:00","2019","01","15","03:00"
"-125.77","49.08","TOFINO A","1038204","2019-01-15 04:00","2019","01","15","04:00"
"-125.77","49.08","TOFINO A","1038204","2019-01-15 05:00","2019","01","15","05:00"
"-125.77","49.08","TOFINO A","1038204","2019-01-15 06:00","2019","01","15","06:00"
"-125.77","49.08","TOFINO A","1038204","2019-01-15 07:00","2019","01","15","07:00","2.7","","2.4","","98","","","","2","","16","","16.1","","100.72","","","","","","Clear"
"-125.77","49.08","TOFINO A","1038204","2019-01-15 08:00","2019","01","15","08:00","1.6","","1.2","","98","","","","4","","4","","24.1","","100.69","","","","","","NA"
"-125.77","49.08","TOFINO A","1038204","2019-01-15 09:00","2019","01","15","09:00","1.7","","1.4","","98","","","","19","","5","","24.1","","100.73","","","","","","NA"
"-125.77","49.08","TOFINO A","1038204","2019-01-15 10:00","2019","01","15","10:00","4.0","","3.7","","97","","","","15","","4","","24.1","","100.77","","","","","","Clear"
"-125.77","49.08","TOFINO A","1038204","2019-01-15 11:00","2019","01","15","11:00","6.5","","4.7","","88","","","","11","","4","","24.1","","100.75","","","","","","NA"
"-125.77","49.08","TOFINO A","1038204","2019-01-15 12:00","2019","01","15","12:00","8.2","","4.0","","75","","","","16","","8","","24.1","","100.70","","","","","","NA"
"-125.77","49.08","TOFINO A","1038204","2019-01-15 13:00","2019","01","15","13:00","8.8","","4.5","","74","","","","18","","10","","24.1","","100.62","","","","","","Mainly Clear"
"-125.77","49.08","TOFINO A","1038204","2019-01-15 14:00","2019","01","15","14:00","9.2","","5.0","","75","","","","17","","4","","24.1","","100.56","","","","","","NA"
"-125.77","49.08","TOFINO A","1038204","2019-01-15 15:00","2019","01","15","15:00","8.5","","5.2","","80","","","","17","","12","","24.1","","100.54","","","","","","NA"
"-125.77","49.08","TOFINO A","1038204","2019-01-15 16:00","2019","01","15","16:00","7.6","","4.9","","83","","","","17","","9","","24.1","","100.50","","","","","","Mainly Clear"
"-125.77","49.08","TOFINO A","1038204","2019-01-15 17:00","2019","01","15","17:00","6.9","","5.2","","89","","","","16","","8","","24.1","","100.48","","","","","","NA"
"-125.77","49.08","TOFINO A","1038204","2019-01-15 18:00","2019","01","15","18:00"
"-125.77","49.08","TOFINO A","1038204","2019-01-15 19:00","2019","01","15","19:00"
"-125.77","49.08","TOFINO A","1038204","2019-01-15 20:00","2019","01","15","20:00"
"-125.77","49.08","TOFINO A","1038204","2019-01-15 21:00","2019","01","15","21:00"
"-125.77","49.08","TOFINO A","1038204","2019-01-15 22:00","2019","01","15","22:00"
"-125.77","49.08","TOFINO A","1038204","2019-01-15 23:00","2019","01","15","23:00"
"-125.77","49.08","TOFINO A","1038204","2019-01-16 00:00","2019","01","16","00:00"
"-125.77","49.08","TOFINO A","1038204","2019-01-16 01:00","2019","01","16","01:00"
"-125.77","49.08","TOFINO A","1038204","2019-01-16 02:00","2019","01","16","02:00"
"-125.77","49.08","TOFINO A","1038204","2019-01-16 03:00","2019","01","16","03:00"
"-125.77","49.08","TOFINO A","1038204","2019-01-16 04:00","2019","01","16","04:00"
"-125.77","49.08","TOFINO A","1038204","2019-01-16 05:00","2019","01","16","05:00"
"-125.77","49.08","TOFINO A","1038204","2019-01-16 06:00","2019","01","16","06:00"
"-125.77","49.08","TOFINO A","1038204","2019-01-16 07:00","2019","01","16","07:00","4.1","","2.1","","87","","","","13","","7","","16.1","","100.22","","","","","","Cloudy"
"-125.77","49.08","TOFINO A","1038204","2019-01-16 08:00","2019","01","16","08:00","3.1","","2.1","","93","","","","14","","3","","16.1","","100.24","","","","","","NA"
"-125.77","49.08","TOFINO A","1038204","2019-01-16 09:00","2019","01","16","09:00","5.0","","3.4","","89","","","","8","","10","","24.1","","100.22","","","","","","NA"
"-125.77","49.08","TOFINO A","1038204","2019-01-16 10:00","2019","01","16","10:00","6.0","","2.7","","79","","","","8","","5","","24.1","","100.27","","","","","","Cloudy"
"-125.77","49.08","TOFINO A","1038204","2019-01-16 11:00","2019","01","16","11:00","9.4","","3.4","","66","","","","10","","6","","16.1","","100.28","","","","","","NA"
"-125.77","49.08","TOFINO A","1038204","2019-01-16 12:00","2019","01","16","12:00","10.6","","3.3","","61","","","","8","","14","","24.1","","100.19","","","","","","NA"
"-125.77","49.08","TOFINO A","1038204","2019-01-16 13:00","2019","01","16","13:00","9.7","","4.7","","71","","","","16","","13","","24.1","","100.13","","","","","","Cloudy"
"-125.77","49.08","TOFINO A","1038204","2019-01-16 14:00","2019","01","16","14:00","12.1","","2.2","","51","","","","9","","21","","24.1","","100.03","","","","","","NA"
"-125.77","49.08","TOFINO A","1038204","2019-01-16 15:00","2019","01","16","15:00","12.1","","2.9","","53","","","","8","","13","","24.1","","99.95","","","","","","NA"
"-125.77","49.08","TOFINO A","1038204","2019-01-16 16:00","2019","01","16","16:00","10.5","","4.1","","64","","","","10","","8","","24.1","","99.91","","","","","","Cloudy"
"-125.77","49.08","TOFINO A","1038204","2019-01-16 17:00","2019","01","16","17:00","10.6","","2.3","","56","","","","7","","12","","24.1","","99.79","","","","","","NA"
"-125.77","49.08","TOFINO A","1038204","2019-01-16 18:00","2019","01","16","18:00"
"-125.77","49.08","TOFINO A","1038204","2019-01-16 19:00","2019","01","16","19:00"
"-125.77","49.08","TOFINO A","1038204","2019-01-16 20:00","2019","01","16","20:00"
"-125.77","49.08","TOFINO A","1038204","2019-01-16 21:00","2019","01","16","21:00"
"-125.77","49.08","TOFINO A","1038204","2019-01-16 22:00","2019","01","16","22:00"
"-125.77","49.08","TOFINO A","1038204","2019-01-16 23:00","2019","01","16","23:00"
"-125.77","49.08","TOFINO A","1038204","2019-01-17 00:00","2019","01","17","00:00"
"-125.77","49.08","TOFINO A","1038204","2019-01-17 01:00","2019","01","17","01:00"
"-125.77","49.08","TOFINO A","1038204","2019-01-17 02:00","2019","01","17","02:00"
"-125.77","49.08","TOFINO A","1038204","2019-01-17 03:00","2019","01","17","03:00"
"-125.77","49.08","TOFINO A","1038204","2019-01-17 04:00","2019","01","17","04:00"
"-125.77","49.08","TOFINO A","1038204","2019-01-17 05:00","2019","01","17","05:00"
"-125.77","49.08","TOFINO A","1038204","2019-01-17 06:00","2019","01","17","06:00"
"-125.77","49.08","TOFINO A","1038204","2019-01-17 07:00","2019","01","17","07:00","8.7","","6.5","","86","","","","9","","21","","16.1","","99.08","","","","","","Cloudy"
"-125.77","49.08","TOFINO A","1038204","2019-01-17 08:00","2019","01","17","08:00","8.9","","6.2","","83","","","","7","","16","","24.1","","99.01","","","","","","Rain Showers"
"-125.77","49.08","TOFINO A","1038204","2019-01-17 09:00","2019","01","17","09:00","9.1","","5.5","","78","","","","8","","18","","24.1","","99.04","","","","","","Rain Showers"
"-125.77","49.08","TOFINO A","1038204","2019-01-17 10:00","2019","01","17","10:00","9.1","","6.2","","82","","","","9","","18","","24.1","","99.05","","","","","","Rain Showers"
"-125.77","49.08","TOFINO A","1038204","2019-01-17 11:00","2019","01","17","11:00","9.7","","6.0","","78","","","","9","","20","","24.1","","99.02","","","","","","NA"
"-125.77","49.08","TOFINO A","1038204","2019-01-17 12:00","2019","01","17","12:00","10.4","","5.8","","73","","","","9","","27","","24.1","","98.96","","","","","","NA"
"-125.77","49.08","TOFINO A","1038204","2019-01-17 13:00","2019","01","17","13:00","8.8","","6.5","","85","","","","9","","33","","24.1","","98.96","","","","","","Rain Showers"
"-125.77","49.08","TOFINO A","1038204","2019-01-17 14:00","2019","01","17","14:00","8.6","","6.8","","88","","","","9","","29","","24.1","","98.99","","","","","","Rain Showers"
"-125.77","49.08","TOFINO A","1038204","2019-01-17 15:00","2019","01","17","15:00","8.1","","7.0","","93","","","","10","","28","","8.1","","99.04","","","","","","Rain Showers,Fog"
"-125.77","49.08","TOFINO A","1038204","2019-01-17 16:00","2019","01","17","16:00","8.3","","7.3","","94","","","","10","","31","","8.1","","99.10","","","","","","Rain,Fog"
"-125.77","49.08","TOFINO A","1038204","2019-01-17 17:00","2019","01","17","17:00","8.9","","8.0","","94","","","","13","","29","","16.1","","99.18","","","","","","Moderate Rain"
"-125.77","49.08","TOFINO A","1038204","2019-01-17 18:00","2019","01","17","18:00"
"-125.77","49.08","TOFINO A","1038204","2019-01-17 19:00","2019","01","17","19:00"
"-125.77","49.08","TOFINO A","1038204","2019-01-17 20:00","2019","01","17","20:00"
"-125.77","49.08","TOFINO A","1038204","2019-01-17 21:00","2019","01","17","21:00"
"-125.77","49.08","TOFINO A","1038204","2019-01-17 22:00","2019","01","17","22:00"
"-125.77","49.08","TOFINO A","1038204","2019-01-17 23:00","2019","01","17","23:00"
"-125.77","49.08","TOFINO A","1038204","2019-01-18 00:00","2019","01","18","00:00"
"-125.77","49.08","TOFINO A","1038204","2019-01-18 01:00","2019","01","18","01:00"
"-125.77","49.08","TOFINO A","1038204","2019-01-18 02:00","2019","01","18","02:00"
"-125.77","49.08","TOFINO A","1038204","2019-01-18 03:00","2019","01","18","03:00"
"-125.77","49.08","TOFINO A","1038204","2019-01-18 04:00","2019","01","18","04:00"
"-125.77","49.08","TOFINO A","1038204","2019-01-18 05:00","2019","01","18","05:00"
"-125.77","49.08","TOFINO A","1038204","2019-01-18 06:00","2019","01","18","06:00"
"-125.77","49.08","TOFINO A","1038204","2019-01-18 07:00","2019","01","18","07:00","8.3","","7.1","","92","","","","13","","14","","8.1","","101.01","","","","","","Fog"
"-125.77","49.08","TOFINO A","1038204","2019-01-18 08:00","2019","01","18","08:00","9.2","","7.5","","89","","","","16","","11","","12.9","","101.10","","","","","","NA"
"-125.77","49.08","TOFINO A","1038204","2019-01-18 09:00","2019","01","18","09:00","9.2","","7.7","","91","","","","15","","18","","12.9","","101.16","","","","","","NA"
"-125.77","49.08","TOFINO A","1038204","2019-01-18 10:00","2019","01","18","10:00","9.7","","8.1","","90","","","","13","","19","","12.9","","101.16","","","","","","Mostly Cloudy"
"-125.77","49.08","TOFINO A","1038204","2019-01-18 11:00","2019","01","18","11:00","10.2","","8.3","","88","","","","14","","24","","12.9","","101.16","","","","","","NA"
"-125.77","49.08","TOFINO A","1038204","2019-01-18 12:00","2019","01","18","12:00","9.6","","7.7","","88","","","","13","","26","","12.9","","101.09","","","","","","NA"
"-125.77","49.08","TOFINO A","1038204","2019-01-18 13:00","2019","01","18","13:00","8.7","","7.2","","90","","","","12","","27","","4.8","","101.00","","","","","","Moderate Rain Showers,Fog"
"-125.77","49.08","TOFINO A","1038204","2019-01-18 14:00","2019","01","18","14:00","8.4","","7.1","","91","","","","12","","32","","8.1","","100.88","","","","","","Rain,Fog"
"-125.77","49.08","TOFINO A","1038204","2019-01-18 15:00","2019","01","18","15:00","8.3","","6.8","","90","","","","12","","28","","8.1","","100.74","","","","","","Rain,Fog"
"-125.77","49.08","TOFINO A","1038204","2019-01-18 16:00","2019","01","18","16:00","7.9","","6.5","","91","","","","12","","34","","6.4","","100.60","","","","","","Rain,Fog"
"-125.77","49.08","TOFINO A","1038204","2019-01-18 17:00","2019","01","18","17:00","6.9","","5.6","","91","","","","12","","22","","6.4","","100.39","","","","","","Moderate Rain,Fog"
"-125.77","49.08","TOFINO A","1038204","2019-01-18 18:00","2019","01","18","18:00"
"-125.77","49.08","TOFINO A","1038204","2019-01-18 19:00","2019","01","18","19:00"
"-125.77","49.08","TOFINO A","1038204","2019-01-18 20:00","2019","01","18","20:00"
"-125.77","49.08","TOFINO A","1038204","2019-01-18 21:00","2019","01","18","21:00"
"-125.77","49.08","TOFINO A","1038204","2019-01-18 22:00","2019","01","18","22:00"
"-125.77","49.08","TOFINO A","1038204","2019-01-18 23:00","2019","01","18","23:00"
"-125.77","49.08","TOFINO A","1038204","2019-01-19 00:00","2019","01","19","00:00"
"-125.77","49.08","TOFINO A","1038204","2019-01-19 01:00","2019","01","19","01:00"
"-125.77","49.08","TOFINO A","1038204","2019-01-19 02:00","2019","01","19","02:00"
"-125.77","49.08","TOFINO A","1038204","2019-01-19 03:00","2019","01","19","03:00"
"-125.77","49.08","TOFINO A","1038204","2019-01-19 04:00","2019","01","19","04:00"
"-125.77","49.08","TOFINO A","1038204","2019-01-19 05:00","2019","01","19","05:00"
"-125.77","49.08","TOFINO A","1038204","2019-01-19 06:00","2019","01","19","06:00"
"-125.77","49.08","TOFINO A","1038204","2019-01-19 07:00","2019","01","19","07:00","9.2","","5.4","","77","","","","24","","27","","16.1","","100.95","","","","","","Rain Showers"
"-125.77","49.08","TOFINO A","1038204","2019-01-19 08:00","2019","01","19","08:00","7.0","","4.5","","84","","","","36","","1","","24.1","","101.08","","","","","","NA"
"-125.77","49.08","TOFINO A","1038204","2019-01-19 09:00","2019","01","19","09:00","8.8","","3.8","","71","","","","25","","32","","24.1","","101.18","","","","","","NA"
"-125.77","49.08","TOFINO A","1038204","2019-01-19 10:00","2019","01","19","10:00","7.9","","5.4","","84","","","","2","","5","","19.3","","101.23","","","","","","Mostly Cloudy"
"-125.77","49.08","TOFINO A","1038204","2019-01-19 11:00","2019","01","19","11:00","9.4","","5.1","","74","","","","24","","24","","24.1","","101.34","","","","","","Rain Showers"
"-125.77","49.08","TOFINO A","1038204","2019-01-19 12:00","2019","01","19","12:00","9.9","","6.2","","77","","","","24","","17","","24.1","","101.37","","","","","","NA"
"-125.77","49.08","TOFINO A","1038204","2019-01-19 13:00","2019","01","19","13:00","9.9","","4.5","","69","","","","24","","24","","24.1","","101.41","","","","","","Mainly Clear"
"-125.77","49.08","TOFINO A","1038204","2019-01-19 14:00","2019","01","19","14:00","10.1","","5.4","","72","","","","24","","16","","24.1","","101.49","","","","","","NA"
"-125.77","49.08","TOFINO A","1038204","2019-01-19 15:00","2019","01","19","15:00","9.7","","5.2","","73","","","","22","","15","","24.1","","101.52","","","","","","NA"
"-125.77","49.08","TOFINO A","1038204","2019-01-19 16:00","2019","01","19","16:00","8.7","","5.8","","82","","","","23","","8","","24.1","","101.57","","","","","","Mainly Clear"
"-125.77","49.08","TOFINO A","1038204","2019-01-19 17:00","2019","01","19","17:00","8.6","","5.2","","79","","","","24","","12","","19.3","","101.60","","","","","","Rain Showers"
"-125.77","49.08","TOFINO A","1038204","2019-01-19 18:00","2019","01","19","18:00"
"-125.77","49.08","TOFINO A","1038204","2019-01-19 19:00","2019","01","19","19:00"
"-125.77","49.08","TOFINO A","1038204","2019-01-19 20:00","2019","01","19","20:00"
"-125.77","49.08","TOFINO A","1038204","2019-01-19 21:00","2019","01","19","21:00"
"-125.77","49.08","TOFINO A","1038204","2019-01-19 22:00","2019","01","19","22:00"
"-125.77","49.08","TOFINO A","1038204","2019-01-19 23:00","2019","01","19","23:00"
"-125.77","49.08","TOFINO A","1038204","2019-01-20 00:00","2019","01","20","00:00"
"-125.77","49.08","TOFINO A","1038204","2019-01-20 01:00","2019","01","20","01:00"
"-125.77","49.08","TOFINO A","1038204","2019-01-20 02:00","2019","01","20","02:00"
"-125.77","49.08","TOFINO A","1038204","2019-01-20 03:00","2019","01","20","03:00"
"-125.77","49.08","TOFINO A","1038204","2019-01-20 04:00","2019","01","20","04:00"
"-125.77","49.08","TOFINO A","1038204","2019-01-20 05:00","2019","01","20","05:00"
"-125.77","49.08","TOFINO A","1038204","2019-01-20 06:00","2019","01","20","06:00"
"-125.77","49.08","TOFINO A","1038204","2019-01-20 07:00","2019","01","20","07:00","3.8","","3.0","","94","","","","3","","9","","24.1","","101.27","","","","","","Mostly Cloudy"
"-125.77","49.08","TOFINO A","1038204","2019-01-20 08:00","2019","01","20","08:00","3.3","","2.4","","93","","","","4","","7","","24.1","","101.25","","","","","","NA"
"-125.77","49.08","TOFINO A","1038204","2019-01-20 09:00","2019","01","20","09:00","3.2","","2.5","","96","","","","3","","11","","24.1","","101.25","","","","","","NA"
"-125.77","49.08","TOFINO A","1038204","2019-01-20 10:00","2019","01","20","10:00","5.4","","3.0","","84","","","","3","","10","","24.1","","101.23","","","","","","Mainly Clear"
"-125.77","49.08","TOFINO A","1038204","2019-01-20 11:00","2019","01","20","11:00","7.3","","3.2","","75","","","","2","","5","","24.1","","101.21","","","","","","NA"
"-125.77","49.08","TOFINO A","1038204","2019-01-20 12:00","2019","01","20","12:00","8.6","","3.1","","68","","","","30","","6","","24.1","","101.14","","","","","","NA"
"-125.77","49.08","TOFINO A","1038204","2019-01-20 13:00","2019","01","20","13:00","8.7","","1.8","","62","","","","31","","16","","24.1","","101.06","","","","","","Mainly Clear"
"-125.77","49.08","TOFINO A","1038204","2019-01-20 14:00","2019","01","20","14:00","9.1","","3.4","","68","","","","30","","17","","24.1","","101.01","","","","","","NA"
"-125.77","49.08","TOFINO A","1038204","2019-01-20 15:00","2019","01","20","15:00","8.0","","3.4","","72","","","","30","","13","","24.1","","100.97","","","","","","NA"
"-125.77","49.08","TOFINO A","1038204","2019-01-20 16:00","2019","01","20","16:00","7.2","","3.7","","78","","","","30","","11","","24.1","","101.02","","","","","","Mostly Cloudy"
"-125.77","49.08","TOFINO A","1038204","2019-01-20 17:00","2019","01","20","17:00","5.7","","3.8","","87","","","","34","","5","","24.1","","101.07","","","","","","NA"
"-125.77","49.08","TOFINO A","1038204","2019-01-20 18:00","2019","01","20","18:00"
"-125.77","49.08","TOFINO A","1038204","2019-01-20 19:00","2019","01","20","19:00"
"-125.77","49.08","TOFINO A","1038204","2019-01-20 20:00","2019","01","20","20:00"
"-125.77","49.08","TOFINO A","1038204","2019-01-20 21:00","2019","01","20","21:00"
"-125.77","49.08","TOFINO A","1038204","2019-01-20 22:00","2019","01","20","22:00"
"-125.77","49.08","TOFINO A","1038204","2019-01-20 23:00","2019","01","20","23:00"
"-125.77","49.08","TOFINO A","1038204","2019-01-21 00:00","2019","01","21","00:00"
"-125.77","49.08","TOFINO A","1038204","2019-01-21 01:00","2019","01","21","01:00"
"-125.77","49.08","TOFINO A","1038204","2019-01-21 02:00","2019","01","21","02:00"
"-125.77","49.08","TOFINO A","1038204","2019-01-21 03:00","2019","01","21","03:00"
"-125.77","49.08","TOFINO A","1038204","2019-01-21 04:00","2019","01","21","04:00"
"-125.77","49.08","TOFINO A","1038204","2019-01-21 05:00","2019","01","21","05:00"
"-125.77","49.08","TOFINO A","1038204","2019-01-21 06:00","2019","01","21","06:00"
"-125.77","49.08","TOFINO A","1038204","2019-01-21 07:00","2019","01","21","07:00","-0.9","","-1.2","","98","","","","3","","4","","16.1","","101.88","","","","-2","","Clear"
"-125.77","49.08","TOFINO A","1038204","2019-01-21 08:00","2019","01","21","08:00","-1.4","","-1.8","","97","","","","36","","3","","24.1","","102.00","","","","-2","","NA"
"-125.77","49.08","TOFINO A","1038204","2019-01-21 09:00","2019","01","21","09:00","-0.2","","-0.6","","98","","","","5","","5","","24.1","","102.10","","","","-2","","NA"
"-125.77","49.08","TOFINO A","1038204","2019-01-21 10:00","2019","01","21","10:00","2.3","","2.0","","98","","","","2","","5","","24.1","","102.21","","","","","","Mainly Clear"
"-125.77","49.08","TOFINO A","1038204","2019-01-21 11:00","2019","01","21","11:00","4.9","","3.8","","92","","","","10","","6","","24.1","","102.29","","","","","","NA"
"-125.77","49.08","TOFINO A","1038204","2019-01-21 12:00","2019","01","21","12:00","6.2","","3.0","","80","","","","16","","6","","24.1","","102.34","","","","","","NA"
"-125.77","49.08","TOFINO A","1038204","2019-01-21 13:00","2019","01","21","13:00","6.7","","3.0","","77","","","","16","","9","","24.1","","102.32","","","","","","Mostly Cloudy"
"-125.77","49.08","TOFINO A","1038204","2019-01-21 14:00","2019","01","21","14:00","6.9","","2.8","","75","","","","15","","18","","24.1","","102.32","","","","","","NA"
"-125.77","49.08","TOFINO A","1038204","2019-01-21 15:00","2019","01","21","15:00","6.8","","3.4","","79","","","","13","","17","","24.1","","102.38","","","","","","NA"
"-125.77","49.08","TOFINO A","1038204","2019-01-21 16:00","2019","01","21","16:00","6.2","","3.3","","82","","","","11","","13","","24.1","","102.41","","","","","","Cloudy"
"-125.77","49.08","TOFINO A","1038204","2019-01-21 17:00","2019","01","21","17:00","5.3","","3.0","","85","","","","9","","10","","24.1","","102.39","","","","","","NA"
"-125.77","49.08","TOFINO A","1038204","2019-01-21 18:00","2019","01","21","18:00"
"-125.77","49.08","TOFINO A","1038204","2019-01-21 19:00","2019","01","21","19:00"
"-125.77","49.08","TOFINO A","1038204","2019-01-21 20:00","2019","01","21","20:00"
"-125.77","49.08","TOFINO A","1038204","2019-01-21 21:00","2019","01","21","21:00"
"-125.77","49.08","TOFINO A","1038204","2019-01-21 22:00","2019","01","21","22:00"
"-125.77","49.08","TOFINO A","1038204","2019-01-21 23:00","2019","01","21","23:00"
"-125.77","49.08","TOFINO A","1038204","2019-01-22 00:00","2019","01","22","00:00"
"-125.77","49.08","TOFINO A","1038204","2019-01-22 01:00","2019","01","22","01:00"
"-125.77","49.08","TOFINO A","1038204","2019-01-22 02:00","2019","01","22","02:00"
"-125.77","49.08","TOFINO A","1038204","2019-01-22 03:00","2019","01","22","03:00"
"-125.77","49.08","TOFINO A","1038204","2019-01-22 04:00","2019","01","22","04:00"
"-125.77","49.08","TOFINO A","1038204","2019-01-22 05:00","2019","01","22","05:00"
"-125.77","49.08","TOFINO A","1038204","2019-01-22 06:00","2019","01","22","06:00"
"-125.77","49.08","TOFINO A","1038204","2019-01-22 07:00","2019","01","22","07:00","6.8","","5.8","","93","","","","8","","16","","8.1","","101.83","","","","","","Rain,Fog"
"-125.77","49.08","TOFINO A","1038204","2019-01-22 08:00","2019","01","22","08:00","7.1","","5.9","","92","","","","11","","18","","16.1","","101.87","","","","","","NA"
"-125.77","49.08","TOFINO A","1038204","2019-01-22 09:00","2019","01","22","09:00","7.5","","6.0","","90","","","","10","","13","","16.1","","101.85","","","","","","NA"
"-125.77","49.08","TOFINO A","1038204","2019-01-22 10:00","2019","01","22","10:00","7.6","","6.0","","89","","","","9","","17","","19.3","","101.88","","","","","","Cloudy"
"-125.77","49.08","TOFINO A","1038204","2019-01-22 11:00","2019","01","22","11:00","7.9","","6.4","","90","","","","9","","10","","19.3","","101.89","","","","","","NA"
"-125.77","49.08","TOFINO A","1038204","2019-01-22 12:00","2019","01","22","12:00","7.8","","6.7","","93","","","","6","","9","","9.7","","101.82","","","","","","Rain,Fog"
"-125.77","49.08","TOFINO A","1038204","2019-01-22 13:00","2019","01","22","13:00","7.8","","6.9","","94","","","","8","","12","","6.4","","101.69","","","","","","Moderate Rain,Fog"
"-125.77","49.08","TOFINO A","1038204","2019-01-22 14:00","2019","01","22","14:00","7.8","","7.0","","94","","","","7","","10","","4.8","","101.55","","","","","","Moderate Rain,Fog"
"-125.77","49.08","TOFINO A","1038204","2019-01-22 15:00","2019","01","22","15:00","7.9","","7.0","","95","","","","9","","17","","4.8","","101.40","","","","","","Moderate Rain,Fog"
"-125.77","49.08","TOFINO A","1038204","2019-01-22 16:00","2019","01","22","16:00","7.7","","6.9","","94","","","","11","","19","","4.8","","101.23","","","","","","Moderate Rain,Fog"
"-125.77","49.08","TOFINO A","1038204","2019-01-22 17:00","2019","01","22","17:00","7.8","","6.9","","94","","","","9","","9","","6.4","","101.14","","","","","","Moderate Rain,Fog"
"-125.77","49.08","TOFINO A","1038204","2019-01-22 18:00","2019","01","22","18:00"
"-125.77","49.08","TOFINO A","1038204","2019-01-22 19:00","2019","01","22","19:00"
"-125.77","49.08","TOFINO A","1038204","2019-01-22 20:00","2019","01","22","20:00"
"-125.77","49.08","TOFINO A","1038204","2019-01-22 21:00","2019","01","22","21:00"
"-125.77","49.08","TOFINO A","1038204","2019-01-22 22:00","2019","01","22","22:00"
"-125.77","49.08","TOFINO A","1038204","2019-01-22 23:00","2019","01","22","23:00"
"-125.77","49.08","TOFINO A","1038204","2019-01-23 00:00","2019","01","23","00:00"
"-125.77","49.08","TOFINO A","1038204","2019-01-23 01:00","2019","01","23","01:00"
"-125.77","49.08","TOFINO A","1038204","2019-01-23 02:00","2019","01","23","02:00"
"-125.77","49.08","TOFINO A","1038204","2019-01-23 03:00","2019","01","23","03:00"
"-125.77","49.08","TOFINO A","1038204","2019-01-23 04:00","2019","01","23","04:00"
"-125.77","49.08","TOFINO A","1038204","2019-01-23 05:00","2019","01","23","05:00"
"-125.77","49.08","TOFINO A","1038204","2019-01-23 06:00","2019","01","23","06:00"
"-125.77","49.08","TOFINO A","1038204","2019-01-23 07:00","2019","01","23","07:00","4.2","","3.2","","93","","","","24","","3","","16.1","","101.72","","","","","","Clear"
"-125.77","49.08","TOFINO A","1038204","2019-01-23 08:00","2019","01","23","08:00","3.6","","3.1","","96","","","","3","","9","","24.1","","101.82","","","","","","NA"
"-125.77","49.08","TOFINO A","1038204","2019-01-23 09:00","2019","01","23","09:00","3.6","","3.2","","97","","","","26","","4","","24.1","","102.01","","","","","","NA"
"-125.77","49.08","TOFINO A","1038204","2019-01-23 10:00","2019","01","23","10:00","6.1","","5.7","","97","","","","36","","3","","24.1","","102.13","","","","","","Clear"
"-125.77","49.08","TOFINO A","1038204","2019-01-23 11:00","2019","01","23","11:00","7.9","","5.6","","86","","","","36","","2","","24.1","","102.24","","","","","","NA"
"-125.77","49.08","TOFINO A","1038204","2019-01-23 12:00","2019","01","23","12:00","8.5","","6.2","","85","","","","15","","12","","24.1","","102.31","","","","","","NA"
"-125.77","49.08","TOFINO A","1038204","2019-01-23 13:00","2019","01","23","13:00","9.0","","6.1","","82","","","","15","","13","","24.1","","102.38","","","","","","Clear"
"-125.77","49.08","TOFINO A","1038204","2019-01-23 14:00","2019","01","23","14:00","9.3","","6.0","","80","","","","14","","14","","24.1","","102.41","","","","","","NA"
"-125.77","49.08","TOFINO A","1038204","2019-01-23 15:00","2019","01","23","15:00","9.2","","7.0","","86","","","","15","","13","","16.1","","102.44","","","","","","NA"
"-125.77","49.08","TOFINO A","1038204","2019-01-23 16:00","2019","01","23","16:00","8.7","","6.2","","84","","","","15","","9","","24.1","","102.50","","","","","","Clear"
"-125.77","49.08","TOFINO A","1038204","2019-01-23 17:00","2019","01","23","17:00","7.3","","6.0","","92","","","","8","","4","","24.1","","102.56","","","","","","NA"
"-125.77","49.08","TOFINO A","1038204","2019-01-23 18:00","2019","01","23","18:00"
"-125.77","49.08","TOFINO A","1038204","2019-01-23 19:00","2019","01","23","19:00"
"-125.77","49.08","TOFINO A","1038204","2019-01-23 20:00","2019","01","23","20:00"
"-125.77","49.08","TOFINO A","1038204","2019-01-23 21:00","2019","01","23","21:00"
"-125.77","49.08","TOFINO A","1038204","2019-01-23 22:00","2019","01","23","22:00"
"-125.77","49.08","TOFINO A","1038204","2019-01-23 23:00","2019","01","23","23:00"
"-125.77","49.08","TOFINO A","1038204","2019-01-24 00:00","2019","01","24","00:00"
"-125.77","49.08","TOFINO A","1038204","2019-01-24 01:00","2019","01","24","01:00"
"-125.77","49.08","TOFINO A","1038204","2019-01-24 02:00","2019","01","24","02:00"
"-125.77","49.08","TOFINO A","1038204","2019-01-24 03:00","2019","01","24","03:00"
"-125.77","49.08","TOFINO A","1038204","2019-01-24 04:00","2019","01","24","04:00"
"-125.77","49.08","TOFINO A","1038204","2019-01-24 05:00","2019","01","24","05:00"
"-125.77","49.08","TOFINO A","1038204","2019-01-24 06:00","2019","01","24","06:00"
"-125.77","49.08","TOFINO A","1038204","2019-01-24 07:00","2019","01","24","07:00","4.0","","3.6","","97","","","","36","","2","","16.1","","102.90","","","","","","Cloudy"
"-125.77","49.08","TOFINO A","1038204","2019-01-24 08:00","2019","01","24","08:00","4.6","","4.3","","98","","","","6","","4","","24.1","","102.90","","","","","","NA"
"-125.77","49.08","TOFINO A","1038204","2019-01-24 09:00","2019","01","24","09:00","5.5","","5.0","","97","","","","36","","3","","24.1","","102.98","","","","","","NA"
"-125.77","49.08","TOFINO A","1038204","2019-01-24 10:00","2019","01","24","10:00","6.4","","5.9","","97","","","","4","","6","","24.1","","102.97","","","","","","Cloudy"
"-125.77","49.08","TOFINO A","1038204","2019-01-24 11:00","2019","01","24","11:00","7.5","","6.0","","91","","","","6","","3","","24.1","","103.02","","","","","","NA"
"-125.77","49.08","TOFINO A","1038204","2019-01-24 12:00","2019","01","24","12:00","7.9","","5.2","","83","","","","36","","2","","24.1","","103.04","","","","","","NA"
"-125.77","49.08","TOFINO A","1038204","2019-01-24 13:00","2019","01","24","13:00","8.3","","5.9","","85","","","","13","","10","","24.1","","102.95","","","","","","Cloudy"
"-125.77","49.08","TOFINO A","1038204","2019-01-24 14:00","2019","01","24","14:00","8.4","","5.8","","83","","","","14","","10","","24.1","","102.92","","","","","","NA"
"-125.77","49.08","TOFINO A","1038204","2019-01-24 15:00","2019","01","24","15:00","8.2","","5.8","","84","","","","16","","9","","24.1","","102.91","","","","","","NA"
"-125.77","49.08","TOFINO A","1038204","2019-01-24 16:00","2019","01","24","16:00","8.1","","6.0","","87","","","","13","","9","","24.1","","102.93","","","","","","Cloudy"
"-125.77","49.08","TOFINO A","1038204","2019-01-24 17:00","2019","01","24","17:00","7.9","","6.0","","88","","","","14","","6","","24.1","","102.91","","","","","","NA"
"-125.77","49.08","TOFINO A","1038204","2019-01-24 18:00","2019","01","24","18:00"
"-125.77","49.08","TOFINO A","1038204","2019-01-24 19:00","2019","01","24","19:00"
"-125.77","49.08","TOFINO A","1038204","2019-01-24 20:00","2019","01","24","20:00"
"-125.77","49.08","TOFINO A","1038204","2019-01-24 21:00","2019","01","24","21:00"
"-125.77","49.08","TOFINO A","1038204","2019-01-24 22:00","2019","01","24","22:00"
"-125.77","49.08","TOFINO A","1038204","2019-01-24 23:00","2019","01","24","23:00"
"-125.77","49.08","TOFINO A","1038204","2019-01-25 00:00","2019","01","25","00:00"
"-125.77","49.08","TOFINO A","1038204","2019-01-25 01:00","2019","01","25","01:00"
"-125.77","49.08","TOFINO A","1038204","2019-01-25 02:00","2019","01","25","02:00"
"-125.77","49.08","TOFINO A","1038204","2019-01-25 03:00","2019","01","25","03:00"
"-125.77","49.08","TOFINO A","1038204","2019-01-25 04:00","2019","01","25","04:00"
"-125.77","49.08","TOFINO A","1038204","2019-01-25 05:00","2019","01","25","05:00"
"-125.77","49.08","TOFINO A","1038204","2019-01-25 06:00","2019","01","25","06:00"
"-125.77","49.08","TOFINO A","1038204","2019-01-25 07:00","2019","01","25","07:00","6.1","","5.5","","96","","","","36","","2","","16.1","","102.89","","","","","","Cloudy"
"-125.77","49.08","TOFINO A","1038204","2019-01-25 08:00","2019","01","25","08:00","5.8","","5.2","","96","","","","2","","4","","24.1","","102.89","","","","","","NA"
"-125.77","49.08","TOFINO A","1038204","2019-01-25 09:00","2019","01","25","09:00","6.1","","5.6","","97","","","","34","","3","","24.1","","102.92","","","","","","NA"
"-125.77","49.08","TOFINO A","1038204","2019-01-25 10:00","2019","01","25","10:00","6.9","","6.1","","94","","","","36","","3","","24.1","","102.99","","","","","","Cloudy"
"-125.77","49.08","TOFINO A","1038204","2019-01-25 11:00","2019","01","25","11:00","7.3","","5.8","","90","","","","17","","3","","24.1","","103.04","","","","","","NA"
"-125.77","49.08","TOFINO A","1038204","2019-01-25 12:00","2019","01","25","12:00","8.3","","6.0","","86","","","","36","","3","","24.1","","103.05","","","","","","NA"
"-125.77","49.08","TOFINO A","1038204","2019-01-25 13:00","2019","01","25","13:00","8.2","","6.2","","87","","","","19","","6","","24.1","","103.06","","","","","","Cloudy"
"-125.77","49.08","TOFINO A","1038204","2019-01-25 14:00","2019","01","25","14:00","8.2","","6.5","","89","","","","21","","6","","24.1","","103.05","","","","","","NA"
"-125.77","49.08","TOFINO A","1038204","2019-01-25 15:00","2019","01","25","15:00","8.0","","7.1","","94","","","","18","","7","","24.1","","103.05","","","","","","NA"
"-125.77","49.08","TOFINO A","1038204","2019-01-25 16:00","2019","01","25","16:00","7.8","","7.1","","95","","","","18","","6","","24.1","","103.06","","","","","","Cloudy"
"-125.77","49.08","TOFINO A","1038204","2019-01-25 17:00","2019","01","25","17:00","7.7","","6.9","","95","","","","18","","4","","24.1","","103.09","","","","","","NA"
"-125.77","49.08","TOFINO A","1038204","2019-01-25 18:00","2019","01","25","18:00"
"-125.77","49.08","TOFINO A","1038204","2019-01-25 19:00","2019","01","25","19:00"
"-125.77","49.08","TOFINO A","1038204","2019-01-25 20:00","2019","01","25","20:00"
"-125.77","49.08","TOFINO A","1038204","2019-01-25 21:00","2019","01","25","21:00"
"-125.77","49.08","TOFINO A","1038204","2019-01-25 22:00","2019","01","25","22:00"
"-125.77","49.08","TOFINO A","1038204","2019-01-25 23:00","2019","01","25","23:00"
"-125.77","49.08","TOFINO A","1038204","2019-01-26 00:00","2019","01","26","00:00"
"-125.77","49.08","TOFINO A","1038204","2019-01-26 01:00","2019","01","26","01:00"
"-125.77","49.08","TOFINO A","1038204","2019-01-26 02:00","2019","01","26","02:00"
"-125.77","49.08","TOFINO A","1038204","2019-01-26 03:00","2019","01","26","03:00"
"-125.77","49.08","TOFINO A","1038204","2019-01-26 04:00","2019","01","26","04:00"
"-125.77","49.08","TOFINO A","1038204","2019-01-26 05:00","2019","01","26","05:00"
"-125.77","49.08","TOFINO A","1038204","2019-01-26 06:00","2019","01","26","06:00"
"-125.77","49.08","TOFINO A","1038204","2019-01-26 07:00","2019","01","26","07:00","6.4","","6.1","","98","","","","12","","4","","3.2","","103.16","","","","","","Drizzle,Fog"
"-125.77","49.08","TOFINO A","1038204","2019-01-26 08:00","2019","01","26","08:00","6.0","","5.7","","98","","","","11","","6","","1.6","","103.14","","","","","","Drizzle,Fog"
"-125.77","49.08","TOFINO A","1038204","2019-01-26 09:00","2019","01","26","09:00","6.2","","5.9","","98","","","","36","","2","","1.6","","103.16","","","","","","Drizzle,Fog"
"-125.77","49.08","TOFINO A","1038204","2019-01-26 10:00","2019","01","26","10:00","6.4","","6.1","","98","","","","12","","5","","4.8","","103.14","","","","","","Fog"
"-125.77","49.08","TOFINO A","1038204","2019-01-26 11:00","2019","01","26","11:00","6.6","","6.2","","98","","","","36","","3","","4.8","","103.19","","","","","","Fog"
"-125.77","49.08","TOFINO A","1038204","2019-01-26 12:00","2019","01","26","12:00","6.7","","6.3","","97","","","","16","","5","","4.8","","103.15","","","","","","Fog"
"-125.77","49.08","TOFINO A","1038204","2019-01-26 13:00","2019","01","26","13:00","6.7","","6.3","","97","","","","18","","5","","4.8","","103.08","","","","","","Fog"
"-125.77","49.08","TOFINO A","1038204","2019-01-26 14:00","2019","01","26","14:00","6.9","","6.4","","97","","","","18","","4","","6.4","","103.01","","","","","","Fog"
"-125.77","49.08","TOFINO A","1038204","2019-01-26 15:00","2019","01","26","15:00","7.0","","6.5","","97","","","","19","","7","","6.4","","102.97","","","","","","Fog"
"-125.77","49.08","TOFINO A","1038204","2019-01-26 16:00","2019","01","26","16:00","7.4","","6.9","","97","","","","29","","6","","4.8","","102.94","","","","","","Fog"
"-125.77","49.08","TOFINO A","1038204","2019-01-26 17:00","2019","01","26","17:00","7.1","","6.6","","97","","","","30","","6","","4.8","","102.94","","","","","","Fog"
"-125.77","49.08","TOFINO A","1038204","2019-01-26 18:00","2019","01","26","18:00"
"-125.77","49.08","TOFINO A","1038204","2019-01-26 19:00","2019","01","26","19:00"
"-125.77","49.08","TOFINO A","1038204","2019-01-26 20:00","2019","01","26","20:00"
"-125.77","49.08","TOFINO A","1038204","2019-01-26 21:00","2019","01","26","21:00"
"-125.77","49.08","TOFINO A","1038204","2019-01-26 22:00","2019","01","26","22:00"
"-125.77","49.08","TOFINO A","1038204","2019-01-26 23:00","2019","01","26","23:00"
"-125.77","49.08","TOFINO A","1038204","2019-01-27 00:00","2019","01","27","00:00"
"-125.77","49.08","TOFINO A","1038204","2019-01-27 01:00","2019","01","27","01:00"
"-125.77","49.08","TOFINO A","1038204","2019-01-27 02:00","2019","01","27","02:00"
"-125.77","49.08","TOFINO A","1038204","2019-01-27 03:00","2019","01","27","03:00"
"-125.77","49.08","TOFINO A","1038204","2019-01-27 04:00","2019","01","27","04:00"
"-125.77","49.08","TOFINO A","1038204","2019-01-27 05:00","2019","01","27","05:00"
"-125.77","49.08","TOFINO A","1038204","2019-01-27 06:00","2019","01","27","06:00"
"-125.77","49.08","TOFINO A","1038204","2019-01-27 07:00","2019","01","27","07:00","5.1","","4.8","","98","","","","36","","2","","1.6","","102.47","","","","","","Drizzle,Fog"
"-125.77","49.08","TOFINO A","1038204","2019-01-27 08:00","2019","01","27","08:00","5.2","","4.9","","98","","","","9","","7","","3.2","","102.51","","","","","","Drizzle,Fog"
"-125.77","49.08","TOFINO A","1038204","2019-01-27 09:00","2019","01","27","09:00","5.3","","5.1","","98","","","","8","","7","","3.2","","102.51","","","","","","Drizzle,Fog"
"-125.77","49.08","TOFINO A","1038204","2019-01-27 10:00","2019","01","27","10:00","5.8","","5.5","","98","","","","7","","8","","4.8","","102.50","","","","","","Fog"
"-125.77","49.08","TOFINO A","1038204","2019-01-27 11:00","2019","01","27","11:00","6.1","","5.8","","98","","","","8","","4","","4.8","","102.54","","","","","","Fog"
"-125.77","49.08","TOFINO A","1038204","2019-01-27 12:00","2019","01","27","12:00","6.2","","5.7","","96","","","","16","","4","","8.1","","102.57","","","","","","Fog"
"-125.77","49.08","TOFINO A","1038204","2019-01-27 13:00","2019","01","27","13:00","6.1","","5.4","","95","","","","17","","10","","8.1","","102.60","","","","","","Fog"
"-125.77","49.08","TOFINO A","1038204","2019-01-27 14:00","2019","01","27","14:00","6.5","","5.2","","91","","","","7","","8","","12.9","","102.55","","","","","","NA"
"-125.77","49.08","TOFINO A","1038204","2019-01-27 15:00","2019","01","27","15:00","6.6","","5.4","","92","","","","9","","10","","12.9","","102.48","","","","","","NA"
"-125.77","49.08","TOFINO A","1038204","2019-01-27 16:00","2019","01","27","16:00","6.2","","5.1","","93","","","","8","","5","","12.9","","102.46","","","","","","Cloudy"
"-125.77","49.08","TOFINO A","1038204","2019-01-27 17:00","2019","01","27","17:00","5.8","","4.8","","93","","","","12","","5","","19.3","","102.46","","","","","","NA"
"-125.77","49.08","TOFINO A","1038204","2019-01-27 18:00","2019","01","27","18:00"
"-125.77","49.08","TOFINO A","1038204","2019-01-27 19:00","2019","01","27","19:00"
"-125.77","49.08","TOFINO A","1038204","2019-01-27 20:00","2019","01","27","20:00"
"-125.77","49.08","TOFINO A","1038204","2019-01-27 21:00","2019","01","27","21:00"
"-125.77","49.08","TOFINO A","1038204","2019-01-27 22:00","2019","01","27","22:00"
"-125.77","49.08","TOFINO A","1038204","2019-01-27 23:00","2019","01","27","23:00"
"-125.77","49.08","TOFINO A","1038204","2019-01-28 00:00","2019","01","28","00:00"
"-125.77","49.08","TOFINO A","1038204","2019-01-28 01:00","2019","01","28","01:00"
"-125.77","49.08","TOFINO A","1038204","2019-01-28 02:00","2019","01","28","02:00"
"-125.77","49.08","TOFINO A","1038204","2019-01-28 03:00","2019","01","28","03:00"
"-125.77","49.08","TOFINO A","1038204","2019-01-28 04:00","2019","01","28","04:00"
"-125.77","49.08","TOFINO A","1038204","2019-01-28 05:00","2019","01","28","05:00"
"-125.77","49.08","TOFINO A","1038204","2019-01-28 06:00","2019","01","28","06:00"
"-125.77","49.08","TOFINO A","1038204","2019-01-28 07:00","2019","01","28","07:00","2.8","","2.5","","98","","","","33","","5","","0.8","","102.42","","","","","","Fog"
"-125.77","49.08","TOFINO A","1038204","2019-01-28 08:00","2019","01","28","08:00","2.0","","1.7","","98","","","","32","","4","","0.8","","102.42","","","","","","Fog"
"-125.77","49.08","TOFINO A","1038204","2019-01-28 09:00","2019","01","28","09:00","3.1","","2.8","","98","","","","36","","3","","8.1","","102.43","","","","","","Fog"
"-125.77","49.08","TOFINO A","1038204","2019-01-28 10:00","2019","01","28","10:00","4.3","","4.0","","98","","","","0","","1","","16.1","","102.42","","","","","","Cloudy"
"-125.77","49.08","TOFINO A","1038204","2019-01-28 11:00","2019","01","28","11:00","5.5","","5.2","","98","","","","32","","4","","24.1","","102.43","","","","","","NA"
"-125.77","49.08","TOFINO A","1038204","2019-01-28 12:00","2019","01","28","12:00","6.8","","6.3","","97","","","","2","","4","","24.1","","102.39","","","","","","NA"
"-125.77","49.08","TOFINO A","1038204","2019-01-28 13:00","2019","01","28","13:00","7.2","","5.4","","88","","","","1","","5","","24.1","","102.33","","","","","","Cloudy"
"-125.77","49.08","TOFINO A","1038204","2019-01-28 14:00","2019","01","28","14:00"
"-125.77","49.08","TOFINO A","1038204","2019-01-28 15:00","2019","01","28","15:00"
"-125.77","49.08","TOFINO A","1038204","2019-01-28 16:00","2019","01","28","16:00"
"-125.77","49.08","TOFINO A","1038204","2019-01-28 17:00","2019","01","28","17:00"
"-125.77","49.08","TOFINO A","1038204","2019-01-28 18:00","2019","01","28","18:00"
"-125.77","49.08","TOFINO A","1038204","2019-01-28 19:00","2019","01","28","19:00"
"-125.77","49.08","TOFINO A","1038204","2019-01-28 20:00","2019","01","28","20:00"
"-125.77","49.08","TOFINO A","1038204","2019-01-28 21:00","2019","01","28","21:00"
"-125.77","49.08","TOFINO A","1038204","2019-01-28 22:00","2019","01","28","22:00"
"-125.77","49.08","TOFINO A","1038204","2019-01-28 23:00","2019","01","28","23:00"
"-125.77","49.08","TOFINO A","1038204","2019-01-29 00:00","2019","01","29","00:00"
"-125.77","49.08","TOFINO A","1038204","2019-01-29 01:00","2019","01","29","01:00"
"-125.77","49.08","TOFINO A","1038204","2019-01-29 02:00","2019","01","29","02:00"
"-125.77","49.08","TOFINO A","1038204","2019-01-29 03:00","2019","01","29","03:00"
"-125.77","49.08","TOFINO A","1038204","2019-01-29 04:00","2019","01","29","04:00"
"-125.77","49.08","TOFINO A","1038204","2019-01-29 05:00","2019","01","29","05:00"
"-125.77","49.08","TOFINO A","1038204","2019-01-29 06:00","2019","01","29","06:00"
"-125.77","49.08","TOFINO A","1038204","2019-01-29 07:00","2019","01","29","07:00","0.2","","-0.1","","98","","","","4","","4","","16.1","","101.80","","","","","","Clear"
"-125.77","49.08","TOFINO A","1038204","2019-01-29 08:00","2019","01","29","08:00","0.0","","-0.3","","98","","","","4","","4","","24.1","","101.79","","","","-1","","NA"
"-125.77","49.08","TOFINO A","1038204","2019-01-29 09:00","2019","01","29","09:00","0.9","","0.6","","98","","","","36","","2","","24.1","","101.78","","","","","","NA"
"-125.77","49.08","TOFINO A","1038204","2019-01-29 10:00","2019","01","29","10:00","3.8","","3.6","","98","","","","36","","1","","24.1","","101.80","","","","","","Clear"
"-125.77","49.08","TOFINO A","1038204","2019-01-29 11:00","2019","01","29","11:00","6.9","","5.7","","92","","","","1","","5","","24.1","","101.76","","","","","","NA"
"-125.77","49.08","TOFINO A","1038204","2019-01-29 12:00","2019","01","29","12:00","8.2","","-0.1","","56","","","","18","","8","","24.1","","101.75","","","","","","NA"
"-125.77","49.08","TOFINO A","1038204","2019-01-29 13:00","2019","01","29","13:00","8.0","","0.8","","60","","","","17","","8","","24.1","","101.69","","","","","","Mainly Clear"
"-125.77","49.08","TOFINO A","1038204","2019-01-29 14:00","2019","01","29","14:00","8.4","","2.7","","67","","","","18","","12","","24.1","","101.61","","","","","","NA"
"-125.77","49.08","TOFINO A","1038204","2019-01-29 15:00","2019","01","29","15:00","8.5","","3.7","","72","","","","16","","14","","24.1","","101.55","","","","","","NA"
"-125.77","49.08","TOFINO A","1038204","2019-01-29 16:00","2019","01","29","16:00","8.1","","4.1","","76","","","","15","","12","","24.1","","101.54","","","","","","Mainly Clear"
"-125.77","49.08","TOFINO A","1038204","2019-01-29 17:00","2019","01","29","17:00","7.5","","4.6","","82","","","","16","","6","","24.1","","101.53","","","","","","NA"
"-125.77","49.08","TOFINO A","1038204","2019-01-29 18:00","2019","01","29","18:00"
"-125.77","49.08","TOFINO A","1038204","2019-01-29 19:00","2019","01","29","19:00"
"-125.77","49.08","TOFINO A","1038204","2019-01-29 20:00","2019","01","29","20:00"
"-125.77","49.08","TOFINO A","1038204","2019-01-29 21:00","2019","01","29","21:00"
"-125.77","49.08","TOFINO A","1038204","2019-01-29 22:00","2019","01","29","22:00"
"-125.77","49.08","TOFINO A","1038204","2019-01-29 23:00","2019","01","29","23:00"
"-125.77","49.08","TOFINO A","1038204","2019-01-30 00:00","2019","01","30","00:00"
"-125.77","49.08","TOFINO A","1038204","2019-01-30 01:00","2019","01","30","01:00"
"-125.77","49.08","TOFINO A","1038204","2019-01-30 02:00","2019","01","30","02:00"
"-125.77","49.08","TOFINO A","1038204","2019-01-30 03:00","2019","01","30","03:00"
"-125.77","49.08","TOFINO A","1038204","2019-01-30 04:00","2019","01","30","04:00"
"-125.77","49.08","TOFINO A","1038204","2019-01-30 05:00","2019","01","30","05:00"
"-125.77","49.08","TOFINO A","1038204","2019-01-30 06:00","2019","01","30","06:00"
"-125.77","49.08","TOFINO A","1038204","2019-01-30 07:00","2019","01","30","07:00","1.8","","1.4","","98","","","","","","0","","16.1","","101.28","","","","","","Mostly Cloudy"
"-125.77","49.08","TOFINO A","1038204","2019-01-30 08:00","2019","01","30","08:00","2.0","","1.7","","98","","","","9","","4","","24.1","","101.26","","","","","","NA"
"-125.77","49.08","TOFINO A","1038204","2019-01-30 09:00","2019","01","30","09:00","2.6","","2.2","","98","","","","36","","2","","24.1","","101.28","","","","","","NA"
"-125.77","49.08","TOFINO A","1038204","2019-01-30 10:00","2019","01","30","10:00","4.5","","4.1","","97","","","","0","","1","","24.1","","101.26","","","","","","Mostly Cloudy"
"-125.77","49.08","TOFINO A","1038204","2019-01-30 11:00","2019","01","30","11:00","6.5","","3.9","","84","","","","9","","4","","24.1","","101.27","","","","","","NA"
"-125.77","49.08","TOFINO A","1038204","2019-01-30 12:00","2019","01","30","12:00","7.2","","1.8","","68","","","","19","","3","","24.1","","101.26","","","","","","NA"
"-125.77","49.08","TOFINO A","1038204","2019-01-30 13:00","2019","01","30","13:00","7.4","","1.2","","64","","","","17","","5","","24.1","","101.19","","","","","","Mostly Cloudy"
"-125.77","49.08","TOFINO A","1038204","2019-01-30 14:00","2019","01","30","14:00","7.7","","2.0","","67","","","","36","","2","","24.1","","101.16","","","","","","NA"
"-125.77","49.08","TOFINO A","1038204","2019-01-30 15:00","2019","01","30","15:00","7.9","","3.3","","73","","","","31","","5","","24.1","","101.17","","","","","","NA"
"-125.77","49.08","TOFINO A","1038204","2019-01-30 16:00","2019","01","30","16:00","7.6","","3.2","","74","","","","36","","3","","24.1","","101.15","","","","","","Cloudy"
"-125.77","49.08","TOFINO A","1038204","2019-01-30 17:00","2019","01","30","17:00","6.6","","4.5","","87","","","","30","","4","","24.1","","101.13","","","","","","NA"
"-125.77","49.08","TOFINO A","1038204","2019-01-30 18:00","2019","01","30","18:00"
"-125.77","49.08","TOFINO A","1038204","2019-01-30 19:00","2019","01","30","19:00"
"-125.77","49.08","TOFINO A","1038204","2019-01-30 20:00","2019","01","30","20:00"
"-125.77","49.08","TOFINO A","1038204","2019-01-30 21:00","2019","01","30","21:00"
"-125.77","49.08","TOFINO A","1038204","2019-01-30 22:00","2019","01","30","22:00"
"-125.77","49.08","TOFINO A","1038204","2019-01-30 23:00","2019","01","30","23:00"
"-125.77","49.08","TOFINO A","1038204","2019-01-31 00:00","2019","01","31","00:00"
"-125.77","49.08","TOFINO A","1038204","2019-01-31 01:00","2019","01","31","01:00"
"-125.77","49.08","TOFINO A","1038204","2019-01-31 02:00","2019","01","31","02:00"
"-125.77","49.08","TOFINO A","1038204","2019-01-31 03:00","2019","01","31","03:00"
"-125.77","49.08","TOFINO A","1038204","2019-01-31 04:00","2019","01","31","04:00"
"-125.77","49.08","TOFINO A","1038204","2019-01-31 05:00","2019","01","31","05:00"
"-125.77","49.08","TOFINO A","1038204","2019-01-31 06:00","2019","01","31","06:00"
"-125.77","49.08","TOFINO A","1038204","2019-01-31 07:00","2019","01","31","07:00","5.6","","4.3","","92","","","","7","","5","","24.1","","100.74","","","","","","Cloudy"
"-125.77","49.08","TOFINO A","1038204","2019-01-31 08:00","2019","01","31","08:00","5.7","","4.0","","89","","","","9","","5","","24.1","","100.70","","","","","","NA"
"-125.77","49.08","TOFINO A","1038204","2019-01-31 09:00","2019","01","31","09:00","6.5","","2.9","","78","","","","9","","12","","24.1","","100.66","","","","","","NA"
"-125.77","49.08","TOFINO A","1038204","2019-01-31 10:00","2019","01","31","10:00","7.4","","2.9","","73","","","","10","","8","","24.1","","100.65","","","","","","Cloudy"
"-125.77","49.08","TOFINO A","1038204","2019-01-31 11:00","2019","01","31","11:00","8.3","","2.6","","67","","","","11","","13","","24.1","","100.65","","","","","","NA"
"-125.77","49.08","TOFINO A","1038204","2019-01-31 12:00","2019","01","31","12:00","7.9","","4.4","","78","","","","12","","13","","16.1","","100.65","","","","","","Rain"
"-125.77","49.08","TOFINO A","1038204","2019-01-31 13:00","2019","01","31","13:00","7.7","","5.9","","88","","","","10","","9","","6.4","","100.61","","","","","","Rain,Fog"
"-125.77","49.08","TOFINO A","1038204","2019-01-31 14:00","2019","01","31","14:00","7.4","","6.6","","95","","","","11","","5","","3.2","","100.58","","","","","","Rain,Fog"
"-125.77","49.08","TOFINO A","1038204","2019-01-31 15:00","2019","01","31","15:00","6.5","","5.7","","95","","","","8","","15","","3.2","","100.48","","","","","","Rain,Fog"
"-125.77","49.08","TOFINO A","1038204","2019-01-31 16:00","2019","01","31","16:00","6.5","","5.8","","95","","","","9","","14","","6.4","","100.41","","","","","","Rain,Fog"
"-125.77","49.08","TOFINO A","1038204","2019-01-31 17:00","2019","01","31","17:00","6.6","","5.7","","94","","","","10","","15","","8.1","","100.29","","","","","","Rain,Fog"
"-125.77","49.08","TOFINO A","1038204","2019-01-31 18:00","2019","01","31","18:00"
"-125.77","49.08","TOFINO A","1038204","2019-01-31 19:00","2019","01","31","19:00"
"-125.77","49.08","TOFINO A","1038204","2019-01-31 20:00","2019","01","31","20:00"
"-125.77","49.08","TOFINO A","1038204","2019-01-31 21:00","2019","01","31","21:00"
"-125.77","49.08","TOFINO A","1038204","2019-01-31 22:00","2019","01","31","22:00"
"-125.77","49.08","TOFINO A","1038204","2019-01-31 23:00","2019","01","31","23:00"
