"Longitude (x)","Latitude (y)","Station Name","Climate ID","Date/Time (LST)","Year","Month","Day","Time (LST)","Temp (°C)","Temp Flag","Dew Point Temp (°C)","Dew Point Temp Flag","Rel Hum (%)","Rel Hum Flag","Precip. Amount (mm)","Precip. Amount Flag","Wind Dir (10s deg)","Wind Dir Flag","Wind Spd (km/h)","Wind Spd Flag","Visibility (km)","Visibility Flag","Stn Press (kPa)","Stn Press Flag","Hmdx","Hmdx Flag","Wind Chill","Wind Chill Flag","Weather"
"-125.77","49.08","TOFINO A","1038204","2018-03-01 00:00","2018","03","01","00:00"
"-125.77","49.08","TOFINO A","1038204","2018-03-01 01:00","2018","03","01","01:00"
"-125.77","49.08","TOFINO A","1038204","2018-03-01 02:00","2018","03","01","02:00"
"-125.77","49.08","TOFINO A","1038204","2018-03-01 03:00","2018","03","01","03:00"
"-125.77","49.08","TOFINO A","1038204","2018-03-01 04:00","2018","03","01","04:00"
"-125.77","49.08","TOFINO A","1038204","2018-03-01 05:00","2018","03","01","05:00"
"-125.77","49.08","TOFINO A","1038204","2018-03-01 06:00","2018","03","01","06:00"
"-125.77","49.08","TOFINO A","1038204","2018-03-01 07:00","2018","03","01","07:00","1.3","","0.6","","95","","","","11","","10","","9.7","","99.67","","","","","","Moderate Snow"
"-125.77","49.08","TOFINO A","1038204","2018-03-01 08:00","2018","03","01","08:00","1.4","","0.7","","95","","","","6","","14","","24.1","","99.66","","","","","","NA"
"-125.77","49.08","TOFINO A","1038204","2018-03-01 09:00","2018","03","01","09:00","1.3","","0.7","","95","","","","4","","7","","9.7","","99.69","","","","","","Rain,Snow"
"-125.77","49.08","TOFINO A","1038204","2018-03-01 10:00","2018","03","01","10:00","2.2","","1.3","","94","","","","7","","7","","16.1","","99.70","","","","","","Rain Showers,Snow Showers"
"-125.77","49.08","TOFINO A","1038204","2018-03-01 11:00","2018","03","01","11:00","2.8","","1.6","","92","","","","13","","7","","4.8","","99.71","","","","","","Rain Showers,Fog"
"-125.77","49.08","TOFINO A","1038204","2018-03-01 12:00","2018","03","01","12:00","3.7","","2.4","","91","","","","9","","13","","24.1","","99.69","","","","","","Rain Showers"
"-125.77","49.08","TOFINO A","1038204","2018-03-01 13:00","2018","03","01","13:00","3.6","","2.5","","93","","","","2","","8","","24.1","","99.63","","","","","","Mostly Cloudy"
"-125.77","49.08","TOFINO A","1038204","2018-03-01 14:00","2018","03","01","14:00","4.2","","2.4","","88","","","","15","","7","","16.1","","99.67","","","","","","Rain Showers"
"-125.77","49.08","TOFINO A","1038204","2018-03-01 15:00","2018","03","01","15:00","4.2","","3.0","","92","","","","4","","4","","24.1","","99.58","","","","","","NA"
"-125.77","49.08","TOFINO A","1038204","2018-03-01 16:00","2018","03","01","16:00","5.3","","3.5","","88","","","","2","","7","","24.1","","99.59","","","","","","Mostly Cloudy"
"-125.77","49.08","TOFINO A","1038204","2018-03-01 17:00","2018","03","01","17:00","4.1","","3.0","","93","","","","36","","1","","24.1","","99.58","","","","","","NA"
"-125.77","49.08","TOFINO A","1038204","2018-03-01 18:00","2018","03","01","18:00"
"-125.77","49.08","TOFINO A","1038204","2018-03-01 19:00","2018","03","01","19:00"
"-125.77","49.08","TOFINO A","1038204","2018-03-01 20:00","2018","03","01","20:00"
"-125.77","49.08","TOFINO A","1038204","2018-03-01 21:00","2018","03","01","21:00"
"-125.77","49.08","TOFINO A","1038204","2018-03-01 22:00","2018","03","01","22:00"
"-125.77","49.08","TOFINO A","1038204","2018-03-01 23:00","2018","03","01","23:00"
"-125.77","49.08","TOFINO A","1038204","2018-03-02 00:00","2018","03","02","00:00"
"-125.77","49.08","TOFINO A","1038204","2018-03-02 01:00","2018","03","02","01:00"
"-125.77","49.08","TOFINO A","1038204","2018-03-02 02:00","2018","03","02","02:00"
"-125.77","49.08","TOFINO A","1038204","2018-03-02 03:00","2018","03","02","03:00"
"-125.77","49.08","TOFINO A","1038204","2018-03-02 04:00","2018","03","02","04:00"
"-125.77","49.08","TOFINO A","1038204","2018-03-02 05:00","2018","03","02","05:00"
"-125.77","49.08","TOFINO A","1038204","2018-03-02 06:00","2018","03","02","06:00"
"-125.77","49.08","TOFINO A","1038204","2018-03-02 07:00","2018","03","02","07:00","2.7","","1.6","","92","","","","8","","4","","8.1","","99.90","","","","","","Rain Showers"
"-125.77","49.08","TOFINO A","1038204","2018-03-02 08:00","2018","03","02","08:00","2.6","","1.7","","94","","","","4","","5","","9.7","","99.98","","","","","","Rain Showers"
"-125.77","49.08","TOFINO A","1038204","2018-03-02 09:00","2018","03","02","09:00","2.9","","2.0","","94","","","","3","","5","","9.7","","100.05","","","","","","Rain Showers"
"-125.77","49.08","TOFINO A","1038204","2018-03-02 10:00","2018","03","02","10:00","3.2","","2.5","","95","","","","2","","8","","16.1","","100.12","","","","","","Rain"
"-125.77","49.08","TOFINO A","1038204","2018-03-02 11:00","2018","03","02","11:00","3.9","","3.0","","94","","","","5","","9","","19.3","","100.18","","","","","","NA"
"-125.77","49.08","TOFINO A","1038204","2018-03-02 12:00","2018","03","02","12:00","4.9","","3.5","","91","","","","4","","8","","24.1","","100.25","","","","","","NA"
"-125.77","49.08","TOFINO A","1038204","2018-03-02 13:00","2018","03","02","13:00","5.8","","2.6","","80","","","","19","","4","","24.1","","100.27","","","","","","Rain Showers"
"-125.77","49.08","TOFINO A","1038204","2018-03-02 14:00","2018","03","02","14:00","5.8","","2.7","","80","","","","26","","4","","24.1","","100.31","","","","","","NA"
"-125.77","49.08","TOFINO A","1038204","2018-03-02 15:00","2018","03","02","15:00","6.6","","3.1","","78","","","","27","","4","","24.1","","100.35","","","","","","NA"
"-125.77","49.08","TOFINO A","1038204","2018-03-02 16:00","2018","03","02","16:00","7.0","","3.1","","76","","","","33","","5","","24.1","","100.38","","","","","","Mainly Clear"
"-125.77","49.08","TOFINO A","1038204","2018-03-02 17:00","2018","03","02","17:00","6.9","","2.5","","73","","","","18","","6","","24.1","","100.45","","","","","","NA"
"-125.77","49.08","TOFINO A","1038204","2018-03-02 18:00","2018","03","02","18:00"
"-125.77","49.08","TOFINO A","1038204","2018-03-02 19:00","2018","03","02","19:00"
"-125.77","49.08","TOFINO A","1038204","2018-03-02 20:00","2018","03","02","20:00"
"-125.77","49.08","TOFINO A","1038204","2018-03-02 21:00","2018","03","02","21:00"
"-125.77","49.08","TOFINO A","1038204","2018-03-02 22:00","2018","03","02","22:00"
"-125.77","49.08","TOFINO A","1038204","2018-03-02 23:00","2018","03","02","23:00"
"-125.77","49.08","TOFINO A","1038204","2018-03-03 00:00","2018","03","03","00:00"
"-125.77","49.08","TOFINO A","1038204","2018-03-03 01:00","2018","03","03","01:00"
"-125.77","49.08","TOFINO A","1038204","2018-03-03 02:00","2018","03","03","02:00"
"-125.77","49.08","TOFINO A","1038204","2018-03-03 03:00","2018","03","03","03:00"
"-125.77","49.08","TOFINO A","1038204","2018-03-03 04:00","2018","03","03","04:00"
"-125.77","49.08","TOFINO A","1038204","2018-03-03 05:00","2018","03","03","05:00"
"-125.77","49.08","TOFINO A","1038204","2018-03-03 06:00","2018","03","03","06:00"
"-125.77","49.08","TOFINO A","1038204","2018-03-03 07:00","2018","03","03","07:00","-0.5","","-0.8","","97","","","","36","","3","","24.1","","101.08","","","","-1","","Mainly Clear"
"-125.77","49.08","TOFINO A","1038204","2018-03-03 08:00","2018","03","03","08:00","-0.1","","-0.4","","97","","","","1","","8","","24.1","","101.12","","","","-3","","NA"
"-125.77","49.08","TOFINO A","1038204","2018-03-03 09:00","2018","03","03","09:00","2.9","","2.6","","98","","","","2","","7","","24.1","","101.16","","","","","","NA"
"-125.77","49.08","TOFINO A","1038204","2018-03-03 10:00","2018","03","03","10:00","5.6","","2.8","","82","","","","14","","3","","24.1","","101.21","","","","","","Clear"
"-125.77","49.08","TOFINO A","1038204","2018-03-03 11:00","2018","03","03","11:00","6.8","","2.8","","76","","","","18","","7","","24.1","","101.20","","","","","","NA"
"-125.77","49.08","TOFINO A","1038204","2018-03-03 12:00","2018","03","03","12:00","7.5","","2.9","","73","","","","18","","11","","24.1","","101.22","","","","","","NA"
"-125.77","49.08","TOFINO A","1038204","2018-03-03 13:00","2018","03","03","13:00","7.9","","3.3","","73","","","","22","","10","","24.1","","101.23","","","","","","Mainly Clear"
"-125.77","49.08","TOFINO A","1038204","2018-03-03 14:00","2018","03","03","14:00","8.3","","4.3","","76","","","","21","","10","","24.1","","101.22","","","","","","NA"
"-125.77","49.08","TOFINO A","1038204","2018-03-03 15:00","2018","03","03","15:00","7.8","","3.9","","76","","","","21","","13","","24.1","","101.21","","","","","","NA"
"-125.77","49.08","TOFINO A","1038204","2018-03-03 16:00","2018","03","03","16:00","7.7","","2.8","","71","","","","22","","8","","24.1","","101.21","","","","","","Mainly Clear"
"-125.77","49.08","TOFINO A","1038204","2018-03-03 17:00","2018","03","03","17:00","7.3","","2.6","","72","","","","24","","8","","24.1","","101.21","","","","","","NA"
"-125.77","49.08","TOFINO A","1038204","2018-03-03 18:00","2018","03","03","18:00"
"-125.77","49.08","TOFINO A","1038204","2018-03-03 19:00","2018","03","03","19:00"
"-125.77","49.08","TOFINO A","1038204","2018-03-03 20:00","2018","03","03","20:00"
"-125.77","49.08","TOFINO A","1038204","2018-03-03 21:00","2018","03","03","21:00"
"-125.77","49.08","TOFINO A","1038204","2018-03-03 22:00","2018","03","03","22:00"
"-125.77","49.08","TOFINO A","1038204","2018-03-03 23:00","2018","03","03","23:00"
"-125.77","49.08","TOFINO A","1038204","2018-03-04 00:00","2018","03","04","00:00"
"-125.77","49.08","TOFINO A","1038204","2018-03-04 01:00","2018","03","04","01:00"
"-125.77","49.08","TOFINO A","1038204","2018-03-04 02:00","2018","03","04","02:00"
"-125.77","49.08","TOFINO A","1038204","2018-03-04 03:00","2018","03","04","03:00"
"-125.77","49.08","TOFINO A","1038204","2018-03-04 04:00","2018","03","04","04:00"
"-125.77","49.08","TOFINO A","1038204","2018-03-04 05:00","2018","03","04","05:00"
"-125.77","49.08","TOFINO A","1038204","2018-03-04 06:00","2018","03","04","06:00"
"-125.77","49.08","TOFINO A","1038204","2018-03-04 07:00","2018","03","04","07:00","0.8","","0.4","","97","","","","36","","2","","24.1","","101.55","","","","","","Mostly Cloudy"
"-125.77","49.08","TOFINO A","1038204","2018-03-04 08:00","2018","03","04","08:00","1.3","","0.9","","97","","","","5","","6","","24.1","","101.61","","","","","","NA"
"-125.77","49.08","TOFINO A","1038204","2018-03-04 09:00","2018","03","04","09:00","3.0","","2.5","","97","","","","2","","7","","24.1","","101.69","","","","","","NA"
"-125.77","49.08","TOFINO A","1038204","2018-03-04 10:00","2018","03","04","10:00","4.0","","2.8","","92","","","","13","","12","","24.1","","101.77","","","","","","Mostly Cloudy"
"-125.77","49.08","TOFINO A","1038204","2018-03-04 11:00","2018","03","04","11:00","4.0","","2.4","","89","","","","10","","10","","24.1","","101.83","","","","","","NA"
"-125.77","49.08","TOFINO A","1038204","2018-03-04 12:00","2018","03","04","12:00","5.6","","3.4","","85","","","","14","","10","","24.1","","101.87","","","","","","NA"
"-125.77","49.08","TOFINO A","1038204","2018-03-04 13:00","2018","03","04","13:00","5.3","","2.6","","83","","","","16","","9","","24.1","","101.89","","","","","","Mostly Cloudy"
"-125.77","49.08","TOFINO A","1038204","2018-03-04 14:00","2018","03","04","14:00","6.7","","1.9","","71","","","","22","","10","","24.1","","101.93","","","","","","NA"
"-125.77","49.08","TOFINO A","1038204","2018-03-04 15:00","2018","03","04","15:00","6.4","","2.0","","73","","","","21","","7","","24.1","","101.97","","","","","","NA"
"-125.77","49.08","TOFINO A","1038204","2018-03-04 16:00","2018","03","04","16:00","6.4","","2.2","","74","","","","21","","9","","24.1","","101.98","","","","","","Mainly Clear"
"-125.77","49.08","TOFINO A","1038204","2018-03-04 17:00","2018","03","04","17:00","5.9","","1.7","","75","","","","27","","8","","24.1","","102.02","","","","","","NA"
"-125.77","49.08","TOFINO A","1038204","2018-03-04 18:00","2018","03","04","18:00"
"-125.77","49.08","TOFINO A","1038204","2018-03-04 19:00","2018","03","04","19:00"
"-125.77","49.08","TOFINO A","1038204","2018-03-04 20:00","2018","03","04","20:00"
"-125.77","49.08","TOFINO A","1038204","2018-03-04 21:00","2018","03","04","21:00"
"-125.77","49.08","TOFINO A","1038204","2018-03-04 22:00","2018","03","04","22:00"
"-125.77","49.08","TOFINO A","1038204","2018-03-04 23:00","2018","03","04","23:00"
"-125.77","49.08","TOFINO A","1038204","2018-03-05 00:00","2018","03","05","00:00"
"-125.77","49.08","TOFINO A","1038204","2018-03-05 01:00","2018","03","05","01:00"
"-125.77","49.08","TOFINO A","1038204","2018-03-05 02:00","2018","03","05","02:00"
"-125.77","49.08","TOFINO A","1038204","2018-03-05 03:00","2018","03","05","03:00"
"-125.77","49.08","TOFINO A","1038204","2018-03-05 04:00","2018","03","05","04:00"
"-125.77","49.08","TOFINO A","1038204","2018-03-05 05:00","2018","03","05","05:00"
"-125.77","49.08","TOFINO A","1038204","2018-03-05 06:00","2018","03","05","06:00"
"-125.77","49.08","TOFINO A","1038204","2018-03-05 07:00","2018","03","05","07:00","1.6","","1.2","","97","","","","7","","5","","24.1","","102.45","","","","","","Cloudy"
"-125.77","49.08","TOFINO A","1038204","2018-03-05 08:00","2018","03","05","08:00","2.0","","1.5","","97","","","","5","","7","","24.1","","102.48","","","","","","NA"
"-125.77","49.08","TOFINO A","1038204","2018-03-05 09:00","2018","03","05","09:00","3.3","","2.7","","96","","","","36","","3","","24.1","","102.52","","","","","","NA"
"-125.77","49.08","TOFINO A","1038204","2018-03-05 10:00","2018","03","05","10:00","4.9","","2.3","","83","","","","36","","1","","24.1","","102.55","","","","","","Cloudy"
"-125.77","49.08","TOFINO A","1038204","2018-03-05 11:00","2018","03","05","11:00","3.8","","1.8","","86","","","","36","","1","","16.1","","102.56","","","","","","Rain Showers"
"-125.77","49.08","TOFINO A","1038204","2018-03-05 12:00","2018","03","05","12:00","5.6","","3.3","","85","","","","24","","4","","24.1","","102.58","","","","","","NA"
"-125.77","49.08","TOFINO A","1038204","2018-03-05 13:00","2018","03","05","13:00","6.2","","2.6","","77","","","","19","","11","","24.1","","102.58","","","","","","Mostly Cloudy"
"-125.77","49.08","TOFINO A","1038204","2018-03-05 14:00","2018","03","05","14:00","6.5","","2.9","","77","","","","17","","10","","24.1","","102.55","","","","","","NA"
"-125.77","49.08","TOFINO A","1038204","2018-03-05 15:00","2018","03","05","15:00","6.6","","1.7","","71","","","","26","","9","","24.1","","102.54","","","","","","NA"
"-125.77","49.08","TOFINO A","1038204","2018-03-05 16:00","2018","03","05","16:00","6.3","","1.8","","72","","","","27","","13","","24.1","","102.54","","","","","","Cloudy"
"-125.77","49.08","TOFINO A","1038204","2018-03-05 17:00","2018","03","05","17:00","6.1","","1.5","","72","","","","30","","9","","24.1","","102.52","","","","","","NA"
"-125.77","49.08","TOFINO A","1038204","2018-03-05 18:00","2018","03","05","18:00"
"-125.77","49.08","TOFINO A","1038204","2018-03-05 19:00","2018","03","05","19:00"
"-125.77","49.08","TOFINO A","1038204","2018-03-05 20:00","2018","03","05","20:00"
"-125.77","49.08","TOFINO A","1038204","2018-03-05 21:00","2018","03","05","21:00"
"-125.77","49.08","TOFINO A","1038204","2018-03-05 22:00","2018","03","05","22:00"
"-125.77","49.08","TOFINO A","1038204","2018-03-05 23:00","2018","03","05","23:00"
"-125.77","49.08","TOFINO A","1038204","2018-03-06 00:00","2018","03","06","00:00"
"-125.77","49.08","TOFINO A","1038204","2018-03-06 01:00","2018","03","06","01:00"
"-125.77","49.08","TOFINO A","1038204","2018-03-06 02:00","2018","03","06","02:00"
"-125.77","49.08","TOFINO A","1038204","2018-03-06 03:00","2018","03","06","03:00"
"-125.77","49.08","TOFINO A","1038204","2018-03-06 04:00","2018","03","06","04:00"
"-125.77","49.08","TOFINO A","1038204","2018-03-06 05:00","2018","03","06","05:00"
"-125.77","49.08","TOFINO A","1038204","2018-03-06 06:00","2018","03","06","06:00"
"-125.77","49.08","TOFINO A","1038204","2018-03-06 07:00","2018","03","06","07:00","3.4","","2.1","","92","","","","12","","5","","24.1","","102.46","","","","","","Rain"
"-125.77","49.08","TOFINO A","1038204","2018-03-06 08:00","2018","03","06","08:00","3.6","","2.8","","94","","","","5","","5","","24.1","","102.48","","","","","","Rain"
"-125.77","49.08","TOFINO A","1038204","2018-03-06 09:00","2018","03","06","09:00","4.5","","3.6","","94","","","","9","","7","","24.1","","102.49","","","","","","NA"
"-125.77","49.08","TOFINO A","1038204","2018-03-06 10:00","2018","03","06","10:00","5.3","","3.8","","90","","","","7","","7","","24.1","","102.50","","","","","","Cloudy"
"-125.77","49.08","TOFINO A","1038204","2018-03-06 11:00","2018","03","06","11:00","6.2","","3.9","","85","","","","8","","7","","24.1","","102.50","","","","","","NA"
"-125.77","49.08","TOFINO A","1038204","2018-03-06 12:00","2018","03","06","12:00","6.7","","3.7","","81","","","","10","","9","","24.1","","102.49","","","","","","NA"
"-125.77","49.08","TOFINO A","1038204","2018-03-06 13:00","2018","03","06","13:00","7.4","","4.0","","79","","","","11","","14","","24.1","","102.45","","","","","","Cloudy"
"-125.77","49.08","TOFINO A","1038204","2018-03-06 14:00","2018","03","06","14:00","6.9","","3.8","","80","","","","19","","7","","24.1","","102.40","","","","","","Rain Showers"
"-125.77","49.08","TOFINO A","1038204","2018-03-06 15:00","2018","03","06","15:00","6.4","","4.1","","86","","","","24","","4","","24.1","","102.37","","","","","","Rain Showers"
"-125.77","49.08","TOFINO A","1038204","2018-03-06 16:00","2018","03","06","16:00","6.5","","4.3","","86","","","","18","","5","","24.1","","102.30","","","","","","Rain Showers"
"-125.77","49.08","TOFINO A","1038204","2018-03-06 17:00","2018","03","06","17:00","6.4","","4.0","","85","","","","29","","5","","24.1","","102.25","","","","","","NA"
"-125.77","49.08","TOFINO A","1038204","2018-03-06 18:00","2018","03","06","18:00"
"-125.77","49.08","TOFINO A","1038204","2018-03-06 19:00","2018","03","06","19:00"
"-125.77","49.08","TOFINO A","1038204","2018-03-06 20:00","2018","03","06","20:00"
"-125.77","49.08","TOFINO A","1038204","2018-03-06 21:00","2018","03","06","21:00"
"-125.77","49.08","TOFINO A","1038204","2018-03-06 22:00","2018","03","06","22:00"
"-125.77","49.08","TOFINO A","1038204","2018-03-06 23:00","2018","03","06","23:00"
"-125.77","49.08","TOFINO A","1038204","2018-03-07 00:00","2018","03","07","00:00"
"-125.77","49.08","TOFINO A","1038204","2018-03-07 01:00","2018","03","07","01:00"
"-125.77","49.08","TOFINO A","1038204","2018-03-07 02:00","2018","03","07","02:00"
"-125.77","49.08","TOFINO A","1038204","2018-03-07 03:00","2018","03","07","03:00"
"-125.77","49.08","TOFINO A","1038204","2018-03-07 04:00","2018","03","07","04:00"
"-125.77","49.08","TOFINO A","1038204","2018-03-07 05:00","2018","03","07","05:00"
"-125.77","49.08","TOFINO A","1038204","2018-03-07 06:00","2018","03","07","06:00"
"-125.77","49.08","TOFINO A","1038204","2018-03-07 07:00","2018","03","07","07:00","-0.2","","-0.5","","98","","","","26","","4","","16.1","","101.59","","","","-1","","Mostly Cloudy"
"-125.77","49.08","TOFINO A","1038204","2018-03-07 08:00","2018","03","07","08:00","0.2","","-0.1","","98","","","","7","","4","","24.1","","101.54","","","","","","NA"
"-125.77","49.08","TOFINO A","1038204","2018-03-07 09:00","2018","03","07","09:00","2.5","","2.2","","98","","","","2","","4","","24.1","","101.45","","","","","","NA"
"-125.77","49.08","TOFINO A","1038204","2018-03-07 10:00","2018","03","07","10:00","4.3","","3.9","","97","","","","17","","3","","24.1","","101.40","","","","","","Cloudy"
"-125.77","49.08","TOFINO A","1038204","2018-03-07 11:00","2018","03","07","11:00","5.5","","3.3","","86","","","","17","","5","","24.1","","101.33","","","","","","NA"
"-125.77","49.08","TOFINO A","1038204","2018-03-07 12:00","2018","03","07","12:00","6.4","","2.8","","78","","","","20","","4","","24.1","","101.27","","","","","","NA"
"-125.77","49.08","TOFINO A","1038204","2018-03-07 13:00","2018","03","07","13:00","7.5","","3.3","","75","","","","19","","14","","24.1","","101.18","","","","","","Cloudy"
"-125.77","49.08","TOFINO A","1038204","2018-03-07 14:00","2018","03","07","14:00","7.0","","2.8","","74","","","","18","","6","","24.1","","101.06","","","","","","NA"
"-125.77","49.08","TOFINO A","1038204","2018-03-07 15:00","2018","03","07","15:00","7.2","","2.2","","70","","","","21","","6","","24.1","","100.92","","","","","","NA"
"-125.77","49.08","TOFINO A","1038204","2018-03-07 16:00","2018","03","07","16:00","6.7","","2.6","","75","","","","22","","8","","24.1","","100.90","","","","","","Cloudy"
"-125.77","49.08","TOFINO A","1038204","2018-03-07 17:00","2018","03","07","17:00","6.6","","2.8","","77","","","","1","","6","","24.1","","100.79","","","","","","NA"
"-125.77","49.08","TOFINO A","1038204","2018-03-07 18:00","2018","03","07","18:00"
"-125.77","49.08","TOFINO A","1038204","2018-03-07 19:00","2018","03","07","19:00"
"-125.77","49.08","TOFINO A","1038204","2018-03-07 20:00","2018","03","07","20:00"
"-125.77","49.08","TOFINO A","1038204","2018-03-07 21:00","2018","03","07","21:00"
"-125.77","49.08","TOFINO A","1038204","2018-03-07 22:00","2018","03","07","22:00"
"-125.77","49.08","TOFINO A","1038204","2018-03-07 23:00","2018","03","07","23:00"
"-125.77","49.08","TOFINO A","1038204","2018-03-08 00:00","2018","03","08","00:00"
"-125.77","49.08","TOFINO A","1038204","2018-03-08 01:00","2018","03","08","01:00"
"-125.77","49.08","TOFINO A","1038204","2018-03-08 02:00","2018","03","08","02:00"
"-125.77","49.08","TOFINO A","1038204","2018-03-08 03:00","2018","03","08","03:00"
"-125.77","49.08","TOFINO A","1038204","2018-03-08 04:00","2018","03","08","04:00"
"-125.77","49.08","TOFINO A","1038204","2018-03-08 05:00","2018","03","08","05:00"
"-125.77","49.08","TOFINO A","1038204","2018-03-08 06:00","2018","03","08","06:00"
"-125.77","49.08","TOFINO A","1038204","2018-03-08 07:00","2018","03","08","07:00","6.6","","5.4","","92","","","","3","","13","","24.1","","99.91","","","","","","Rain Showers"
"-125.77","49.08","TOFINO A","1038204","2018-03-08 08:00","2018","03","08","08:00","6.8","","5.2","","90","","","","11","","10","","24.1","","99.88","","","","","","Rain Showers"
"-125.77","49.08","TOFINO A","1038204","2018-03-08 09:00","2018","03","08","09:00","6.6","","5.8","","94","","","","4","","7","","24.1","","99.82","","","","","","Rain Showers"
"-125.77","49.08","TOFINO A","1038204","2018-03-08 10:00","2018","03","08","10:00","7.2","","5.6","","89","","","","3","","8","","24.1","","99.80","","","","","","Rain Showers"
"-125.77","49.08","TOFINO A","1038204","2018-03-08 11:00","2018","03","08","11:00","7.4","","6.0","","91","","","","3","","8","","24.1","","99.80","","","","","","Rain Showers"
"-125.77","49.08","TOFINO A","1038204","2018-03-08 12:00","2018","03","08","12:00","7.6","","6.1","","90","","","","3","","8","","24.1","","99.80","","","","","","Rain Showers"
"-125.77","49.08","TOFINO A","1038204","2018-03-08 13:00","2018","03","08","13:00","8.2","","7.0","","92","","","","35","","4","","24.1","","99.80","","","","","","Rain Showers"
"-125.77","49.08","TOFINO A","1038204","2018-03-08 14:00","2018","03","08","14:00","8.3","","7.3","","94","","","","34","","7","","16.1","","99.81","","","","","","Rain Showers"
"-125.77","49.08","TOFINO A","1038204","2018-03-08 15:00","2018","03","08","15:00","7.8","","7.0","","95","","","","29","","12","","4.0","","99.84","","","","","","Rain Showers,Fog"
"-125.77","49.08","TOFINO A","1038204","2018-03-08 16:00","2018","03","08","16:00","7.5","","6.7","","95","","","","30","","17","","11.3","","99.89","","","","","","Rain Showers"
"-125.77","49.08","TOFINO A","1038204","2018-03-08 17:00","2018","03","08","17:00","7.0","","6.0","","94","","","","30","","16","","24.1","","99.94","","","","","","Rain Showers"
"-125.77","49.08","TOFINO A","1038204","2018-03-08 18:00","2018","03","08","18:00"
"-125.77","49.08","TOFINO A","1038204","2018-03-08 19:00","2018","03","08","19:00"
"-125.77","49.08","TOFINO A","1038204","2018-03-08 20:00","2018","03","08","20:00"
"-125.77","49.08","TOFINO A","1038204","2018-03-08 21:00","2018","03","08","21:00"
"-125.77","49.08","TOFINO A","1038204","2018-03-08 22:00","2018","03","08","22:00"
"-125.77","49.08","TOFINO A","1038204","2018-03-08 23:00","2018","03","08","23:00"
"-125.77","49.08","TOFINO A","1038204","2018-03-09 00:00","2018","03","09","00:00"
"-125.77","49.08","TOFINO A","1038204","2018-03-09 01:00","2018","03","09","01:00"
"-125.77","49.08","TOFINO A","1038204","2018-03-09 02:00","2018","03","09","02:00"
"-125.77","49.08","TOFINO A","1038204","2018-03-09 03:00","2018","03","09","03:00"
"-125.77","49.08","TOFINO A","1038204","2018-03-09 04:00","2018","03","09","04:00"
"-125.77","49.08","TOFINO A","1038204","2018-03-09 05:00","2018","03","09","05:00"
"-125.77","49.08","TOFINO A","1038204","2018-03-09 06:00","2018","03","09","06:00"
"-125.77","49.08","TOFINO A","1038204","2018-03-09 07:00","2018","03","09","07:00","-0.3","","-0.7","","97","","","","3","","3","","24.1","","101.09","","","","-1","","Mainly Clear"
"-125.77","49.08","TOFINO A","1038204","2018-03-09 08:00","2018","03","09","08:00","1.4","","0.9","","97","","","","4","","3","","24.1","","101.18","","","","","","NA"
"-125.77","49.08","TOFINO A","1038204","2018-03-09 09:00","2018","03","09","09:00","4.4","","1.8","","83","","","","7","","4","","24.1","","101.25","","","","","","NA"
"-125.77","49.08","TOFINO A","1038204","2018-03-09 10:00","2018","03","09","10:00","6.5","","1.9","","72","","","","20","","5","","24.1","","101.33","","","","","","Mainly Clear"
"-125.77","49.08","TOFINO A","1038204","2018-03-09 11:00","2018","03","09","11:00","7.4","","2.9","","73","","","","17","","9","","24.1","","101.40","","","","","","NA"
"-125.77","49.08","TOFINO A","1038204","2018-03-09 12:00","2018","03","09","12:00","7.8","","2.7","","70","","","","20","","12","","24.1","","101.44","","","","","","NA"
"-125.77","49.08","TOFINO A","1038204","2018-03-09 13:00","2018","03","09","13:00","7.7","","2.4","","69","","","","20","","14","","24.1","","101.47","","","","","","Mainly Clear"
"-125.77","49.08","TOFINO A","1038204","2018-03-09 14:00","2018","03","09","14:00","8.0","","2.4","","67","","","","20","","16","","24.1","","101.49","","","","","","NA"
"-125.77","49.08","TOFINO A","1038204","2018-03-09 15:00","2018","03","09","15:00","8.0","","1.4","","63","","","","23","","11","","24.1","","101.52","","","","","","NA"
"-125.77","49.08","TOFINO A","1038204","2018-03-09 16:00","2018","03","09","16:00","7.8","","2.0","","66","","","","19","","11","","24.1","","101.54","","","","","","Mainly Clear"
"-125.77","49.08","TOFINO A","1038204","2018-03-09 17:00","2018","03","09","17:00","7.5","","1.7","","67","","","","19","","8","","24.1","","101.55","","","","","","NA"
"-125.77","49.08","TOFINO A","1038204","2018-03-09 18:00","2018","03","09","18:00"
"-125.77","49.08","TOFINO A","1038204","2018-03-09 19:00","2018","03","09","19:00"
"-125.77","49.08","TOFINO A","1038204","2018-03-09 20:00","2018","03","09","20:00"
"-125.77","49.08","TOFINO A","1038204","2018-03-09 21:00","2018","03","09","21:00"
"-125.77","49.08","TOFINO A","1038204","2018-03-09 22:00","2018","03","09","22:00"
"-125.77","49.08","TOFINO A","1038204","2018-03-09 23:00","2018","03","09","23:00"
"-125.77","49.08","TOFINO A","1038204","2018-03-10 00:00","2018","03","10","00:00"
"-125.77","49.08","TOFINO A","1038204","2018-03-10 01:00","2018","03","10","01:00"
"-125.77","49.08","TOFINO A","1038204","2018-03-10 02:00","2018","03","10","02:00"
"-125.77","49.08","TOFINO A","1038204","2018-03-10 03:00","2018","03","10","03:00"
"-125.77","49.08","TOFINO A","1038204","2018-03-10 04:00","2018","03","10","04:00"
"-125.77","49.08","TOFINO A","1038204","2018-03-10 05:00","2018","03","10","05:00"
"-125.77","49.08","TOFINO A","1038204","2018-03-10 06:00","2018","03","10","06:00"
"-125.77","49.08","TOFINO A","1038204","2018-03-10 07:00","2018","03","10","07:00","0.6","","-0.1","","95","","","","2","","11","","24.1","","101.56","","","","","","Clear"
"-125.77","49.08","TOFINO A","1038204","2018-03-10 08:00","2018","03","10","08:00","1.1","","0.4","","95","","","","3","","4","","24.1","","101.55","","","","","","NA"
"-125.77","49.08","TOFINO A","1038204","2018-03-10 09:00","2018","03","10","09:00","6.0","","2.1","","76","","","","8","","3","","24.1","","101.57","","","","","","NA"
"-125.77","49.08","TOFINO A","1038204","2018-03-10 10:00","2018","03","10","10:00","6.6","","1.6","","70","","","","20","","9","","24.1","","101.56","","","","","","Clear"
"-125.77","49.08","TOFINO A","1038204","2018-03-10 11:00","2018","03","10","11:00","7.1","","2.4","","72","","","","20","","11","","24.1","","101.55","","","","","","NA"
"-125.77","49.08","TOFINO A","1038204","2018-03-10 12:00","2018","03","10","12:00","8.4","","3.4","","71","","","","16","","10","","24.1","","101.49","","","","","","NA"
"-125.77","49.08","TOFINO A","1038204","2018-03-10 13:00","2018","03","10","13:00","8.4","","3.0","","69","","","","18","","15","","24.1","","101.46","","","","","","Mainly Clear"
"-125.77","49.08","TOFINO A","1038204","2018-03-10 14:00","2018","03","10","14:00","8.6","","4.4","","75","","","","17","","15","","24.1","","101.39","","","","","","NA"
"-125.77","49.08","TOFINO A","1038204","2018-03-10 15:00","2018","03","10","15:00","8.7","","4.2","","73","","","","17","","14","","24.1","","101.37","","","","","","NA"
"-125.77","49.08","TOFINO A","1038204","2018-03-10 16:00","2018","03","10","16:00","8.6","","4.7","","76","","","","18","","9","","24.1","","101.34","","","","","","Clear"
"-125.77","49.08","TOFINO A","1038204","2018-03-10 17:00","2018","03","10","17:00","8.3","","5.1","","80","","","","15","","11","","24.1","","101.28","","","","","","NA"
"-125.77","49.08","TOFINO A","1038204","2018-03-10 18:00","2018","03","10","18:00"
"-125.77","49.08","TOFINO A","1038204","2018-03-10 19:00","2018","03","10","19:00"
"-125.77","49.08","TOFINO A","1038204","2018-03-10 20:00","2018","03","10","20:00"
"-125.77","49.08","TOFINO A","1038204","2018-03-10 21:00","2018","03","10","21:00"
"-125.77","49.08","TOFINO A","1038204","2018-03-10 22:00","2018","03","10","22:00"
"-125.77","49.08","TOFINO A","1038204","2018-03-10 23:00","2018","03","10","23:00"
"-125.77","49.08","TOFINO A","1038204","2018-03-11 00:00","2018","03","11","00:00"
"-125.77","49.08","TOFINO A","1038204","2018-03-11 01:00","2018","03","11","01:00"
"-125.77","49.08","TOFINO A","1038204","2018-03-11 02:00","2018","03","11","02:00"
"-125.77","49.08","TOFINO A","1038204","2018-03-11 03:00","2018","03","11","03:00"
"-125.77","49.08","TOFINO A","1038204","2018-03-11 04:00","2018","03","11","04:00"
"-125.77","49.08","TOFINO A","1038204","2018-03-11 05:00","2018","03","11","05:00","3.9","","2.7","","92","","","","14","","5","","24.1","","101.60","","","","","","NA"
"-125.77","49.08","TOFINO A","1038204","2018-03-11 06:00","2018","03","11","06:00","5.3","","3.4","","87","","","","15","","8","","24.1","","101.64","","","","","","NA"
"-125.77","49.08","TOFINO A","1038204","2018-03-11 07:00","2018","03","11","07:00","6.1","","3.4","","83","","","","16","","6","","24.1","","101.67","","","","","","Mostly Cloudy"
"-125.77","49.08","TOFINO A","1038204","2018-03-11 08:00","2018","03","11","08:00","6.5","","3.6","","82","","","","36","","3","","24.1","","101.73","","","","","","NA"
"-125.77","49.08","TOFINO A","1038204","2018-03-11 09:00","2018","03","11","09:00","8.1","","4.5","","78","","","","13","","4","","24.1","","101.81","","","","","","NA"
"-125.77","49.08","TOFINO A","1038204","2018-03-11 10:00","2018","03","11","10:00","9.1","","5.0","","75","","","","17","","8","","24.1","","101.85","","","","","","Mostly Cloudy"
"-125.77","49.08","TOFINO A","1038204","2018-03-11 11:00","2018","03","11","11:00","9.0","","5.1","","76","","","","16","","16","","24.1","","101.85","","","","","","NA"
"-125.77","49.08","TOFINO A","1038204","2018-03-11 12:00","2018","03","11","12:00","10.2","","5.7","","73","","","","16","","16","","24.1","","101.85","","","","","","NA"
"-125.77","49.08","TOFINO A","1038204","2018-03-11 13:00","2018","03","11","13:00","8.9","","5.9","","81","","","","15","","16","","24.1","","101.85","","","","","","Mostly Cloudy"
"-125.77","49.08","TOFINO A","1038204","2018-03-11 14:00","2018","03","11","14:00","9.2","","6.2","","82","","","","15","","18","","24.1","","101.82","","","","","","NA"
"-125.77","49.08","TOFINO A","1038204","2018-03-11 15:00","2018","03","11","15:00","10.5","","6.3","","75","","","","15","","18","","24.1","","101.81","","","","","","NA"
"-125.77","49.08","TOFINO A","1038204","2018-03-11 16:00","2018","03","11","16:00","9.9","","5.3","","73","","","","14","","14","","24.1","","101.78","","","","","","Mainly Clear"
"-125.77","49.08","TOFINO A","1038204","2018-03-11 17:00","2018","03","11","17:00","10.8","","5.2","","68","","","","13","","14","","24.1","","101.71","","","","","","NA"
"-125.77","49.08","TOFINO A","1038204","2018-03-11 18:00","2018","03","11","18:00"
"-125.77","49.08","TOFINO A","1038204","2018-03-11 19:00","2018","03","11","19:00"
"-125.77","49.08","TOFINO A","1038204","2018-03-11 20:00","2018","03","11","20:00"
"-125.77","49.08","TOFINO A","1038204","2018-03-11 21:00","2018","03","11","21:00"
"-125.77","49.08","TOFINO A","1038204","2018-03-11 22:00","2018","03","11","22:00"
"-125.77","49.08","TOFINO A","1038204","2018-03-11 23:00","2018","03","11","23:00"
"-125.77","49.08","TOFINO A","1038204","2018-03-12 00:00","2018","03","12","00:00"
"-125.77","49.08","TOFINO A","1038204","2018-03-12 01:00","2018","03","12","01:00"
"-125.77","49.08","TOFINO A","1038204","2018-03-12 02:00","2018","03","12","02:00"
"-125.77","49.08","TOFINO A","1038204","2018-03-12 03:00","2018","03","12","03:00"
"-125.77","49.08","TOFINO A","1038204","2018-03-12 04:00","2018","03","12","04:00"
"-125.77","49.08","TOFINO A","1038204","2018-03-12 05:00","2018","03","12","05:00","8.1","","2.9","","70","","","","8","","10","","24.1","","101.26","","","","","","NA"
"-125.77","49.08","TOFINO A","1038204","2018-03-12 06:00","2018","03","12","06:00","9.6","","1.7","","58","","","","8","","14","","24.1","","101.24","","","","","","NA"
"-125.77","49.08","TOFINO A","1038204","2018-03-12 07:00","2018","03","12","07:00","10.5","","1.9","","55","","","","8","","17","","24.1","","101.21","","","","","","Mostly Cloudy"
"-125.77","49.08","TOFINO A","1038204","2018-03-12 08:00","2018","03","12","08:00","12.6","","2.3","","49","","","","7","","11","","24.1","","101.21","","","","","","NA"
"-125.77","49.08","TOFINO A","1038204","2018-03-12 09:00","2018","03","12","09:00","14.8","","2.7","","44","","","","9","","13","","24.1","","101.19","","","","","","NA"
"-125.77","49.08","TOFINO A","1038204","2018-03-12 10:00","2018","03","12","10:00","16.9","","3.2","","40","","","","11","","15","","24.1","","101.18","","","","","","Mainly Clear"
"-125.77","49.08","TOFINO A","1038204","2018-03-12 11:00","2018","03","12","11:00","12.5","","5.8","","64","","","","18","","16","","24.1","","101.15","","","","","","NA"
"-125.77","49.08","TOFINO A","1038204","2018-03-12 12:00","2018","03","12","12:00","12.6","","6.4","","66","","","","17","","14","","24.1","","101.10","","","","","","NA"
"-125.77","49.08","TOFINO A","1038204","2018-03-12 13:00","2018","03","12","13:00","11.4","","6.8","","73","","","","16","","24","","24.1","","101.05","","","","","","Mostly Cloudy"
"-125.77","49.08","TOFINO A","1038204","2018-03-12 14:00","2018","03","12","14:00","11.3","","6.1","","70","","","","16","","25","","24.1","","100.96","","","","","","NA"
"-125.77","49.08","TOFINO A","1038204","2018-03-12 15:00","2018","03","12","15:00","12.4","","5.6","","63","","","","16","","27","","24.1","","100.91","","","","","","NA"
"-125.77","49.08","TOFINO A","1038204","2018-03-12 16:00","2018","03","12","16:00","14.5","","4.6","","51","","","","15","","19","","24.1","","100.83","","","","","","Mostly Cloudy"
"-125.77","49.08","TOFINO A","1038204","2018-03-12 17:00","2018","03","12","17:00","13.5","","5.4","","57","","","","13","","11","","24.1","","100.75","","","","","","NA"
"-125.77","49.08","TOFINO A","1038204","2018-03-12 18:00","2018","03","12","18:00"
"-125.77","49.08","TOFINO A","1038204","2018-03-12 19:00","2018","03","12","19:00"
"-125.77","49.08","TOFINO A","1038204","2018-03-12 20:00","2018","03","12","20:00"
"-125.77","49.08","TOFINO A","1038204","2018-03-12 21:00","2018","03","12","21:00"
"-125.77","49.08","TOFINO A","1038204","2018-03-12 22:00","2018","03","12","22:00"
"-125.77","49.08","TOFINO A","1038204","2018-03-12 23:00","2018","03","12","23:00"
"-125.77","49.08","TOFINO A","1038204","2018-03-13 00:00","2018","03","13","00:00"
"-125.77","49.08","TOFINO A","1038204","2018-03-13 01:00","2018","03","13","01:00"
"-125.77","49.08","TOFINO A","1038204","2018-03-13 02:00","2018","03","13","02:00"
"-125.77","49.08","TOFINO A","1038204","2018-03-13 03:00","2018","03","13","03:00"
"-125.77","49.08","TOFINO A","1038204","2018-03-13 04:00","2018","03","13","04:00"
"-125.77","49.08","TOFINO A","1038204","2018-03-13 05:00","2018","03","13","05:00","14.3","","1.6","","42","","","","14","","10","","24.1","","99.84","","","","","","NA"
"-125.77","49.08","TOFINO A","1038204","2018-03-13 06:00","2018","03","13","06:00","12.0","","4.5","","60","","","","13","","24","","24.1","","100.02","","","","","","NA"
"-125.77","49.08","TOFINO A","1038204","2018-03-13 07:00","2018","03","13","07:00","13.9","","2.8","","47","","","","10","","17","","24.1","","100.02","","","","","","Rain"
"-125.77","49.08","TOFINO A","1038204","2018-03-13 08:00","2018","03","13","08:00","10.8","","5.6","","70","","","","15","","16","","16.1","","100.12","","","","","","Rain"
"-125.77","49.08","TOFINO A","1038204","2018-03-13 09:00","2018","03","13","09:00","9.3","","7.7","","89","","","","11","","19","","6.4","","100.24","","","","","","Moderate Rain,Fog"
"-125.77","49.08","TOFINO A","1038204","2018-03-13 10:00","2018","03","13","10:00","10.1","","9.2","","94","","","","13","","18","","4.8","","100.32","","","","","","Moderate Rain,Fog"
"-125.77","49.08","TOFINO A","1038204","2018-03-13 11:00","2018","03","13","11:00","10.0","","8.9","","93","","","","11","","21","","9.7","","100.32","","","","","","Rain,Fog"
"-125.77","49.08","TOFINO A","1038204","2018-03-13 12:00","2018","03","13","12:00","9.8","","8.5","","91","","","","12","","34","","8.1","","100.44","","","","","","Moderate Rain,Fog"
"-125.77","49.08","TOFINO A","1038204","2018-03-13 13:00","2018","03","13","13:00","9.8","","8.4","","91","","","","12","","28","","16.1","","100.44","","","","","","Rain"
"-125.77","49.08","TOFINO A","1038204","2018-03-13 14:00","2018","03","13","14:00","9.6","","8.1","","90","","","","12","","22","","19.3","","100.44","","","","","","Rain"
"-125.77","49.08","TOFINO A","1038204","2018-03-13 15:00","2018","03","13","15:00","9.3","","7.8","","90","","","","11","","20","","24.1","","100.44","","","","","","Rain"
"-125.77","49.08","TOFINO A","1038204","2018-03-13 16:00","2018","03","13","16:00","9.8","","7.9","","88","","","","11","","16","","24.1","","100.42","","","","","","Cloudy"
"-125.77","49.08","TOFINO A","1038204","2018-03-13 17:00","2018","03","13","17:00","9.6","","7.1","","84","","","","12","","20","","24.1","","100.42","","","","","","NA"
"-125.77","49.08","TOFINO A","1038204","2018-03-13 18:00","2018","03","13","18:00"
"-125.77","49.08","TOFINO A","1038204","2018-03-13 19:00","2018","03","13","19:00"
"-125.77","49.08","TOFINO A","1038204","2018-03-13 20:00","2018","03","13","20:00"
"-125.77","49.08","TOFINO A","1038204","2018-03-13 21:00","2018","03","13","21:00"
"-125.77","49.08","TOFINO A","1038204","2018-03-13 22:00","2018","03","13","22:00"
"-125.77","49.08","TOFINO A","1038204","2018-03-13 23:00","2018","03","13","23:00"
"-125.77","49.08","TOFINO A","1038204","2018-03-14 00:00","2018","03","14","00:00"
"-125.77","49.08","TOFINO A","1038204","2018-03-14 01:00","2018","03","14","01:00"
"-125.77","49.08","TOFINO A","1038204","2018-03-14 02:00","2018","03","14","02:00"
"-125.77","49.08","TOFINO A","1038204","2018-03-14 03:00","2018","03","14","03:00"
"-125.77","49.08","TOFINO A","1038204","2018-03-14 04:00","2018","03","14","04:00"
"-125.77","49.08","TOFINO A","1038204","2018-03-14 05:00","2018","03","14","05:00","6.2","","4.7","","90","","","","24","","5","","16.1","","100.69","","","","","","NA"
"-125.77","49.08","TOFINO A","1038204","2018-03-14 06:00","2018","03","14","06:00","5.1","","4.1","","93","","","","36","","1","","19.3","","100.71","","","","","","NA"
"-125.77","49.08","TOFINO A","1038204","2018-03-14 07:00","2018","03","14","07:00","5.1","","3.2","","87","","","","36","","3","","24.1","","100.72","","","","","","Mainly Clear"
"-125.77","49.08","TOFINO A","1038204","2018-03-14 08:00","2018","03","14","08:00","6.0","","4.8","","92","","","","8","","4","","24.1","","100.75","","","","","","NA"
"-125.77","49.08","TOFINO A","1038204","2018-03-14 09:00","2018","03","14","09:00","8.3","","3.4","","71","","","","17","","10","","24.1","","100.80","","","","","","NA"
"-125.77","49.08","TOFINO A","1038204","2018-03-14 10:00","2018","03","14","10:00","7.9","","4.4","","79","","","","16","","9","","24.1","","100.80","","","","","","Mainly Clear"
"-125.77","49.08","TOFINO A","1038204","2018-03-14 11:00","2018","03","14","11:00","8.5","","3.1","","69","","","","16","","13","","24.1","","100.82","","","","","","NA"
"-125.77","49.08","TOFINO A","1038204","2018-03-14 12:00","2018","03","14","12:00","8.9","","2.9","","66","","","","18","","14","","24.1","","100.85","","","","","","NA"
"-125.77","49.08","TOFINO A","1038204","2018-03-14 13:00","2018","03","14","13:00","9.0","","3.5","","68","","","","15","","18","","24.1","","100.84","","","","","","Mainly Clear"
"-125.77","49.08","TOFINO A","1038204","2018-03-14 14:00","2018","03","14","14:00","9.3","","3.9","","69","","","","16","","14","","24.1","","100.83","","","","","","NA"
"-125.77","49.08","TOFINO A","1038204","2018-03-14 15:00","2018","03","14","15:00","8.8","","3.5","","69","","","","16","","16","","24.1","","100.83","","","","","","NA"
"-125.77","49.08","TOFINO A","1038204","2018-03-14 16:00","2018","03","14","16:00","8.0","","2.8","","69","","","","15","","16","","24.1","","100.82","","","","","","Mostly Cloudy"
"-125.77","49.08","TOFINO A","1038204","2018-03-14 17:00","2018","03","14","17:00","8.0","","2.5","","68","","","","14","","18","","24.1","","100.80","","","","","","NA"
"-125.77","49.08","TOFINO A","1038204","2018-03-14 18:00","2018","03","14","18:00"
"-125.77","49.08","TOFINO A","1038204","2018-03-14 19:00","2018","03","14","19:00"
"-125.77","49.08","TOFINO A","1038204","2018-03-14 20:00","2018","03","14","20:00"
"-125.77","49.08","TOFINO A","1038204","2018-03-14 21:00","2018","03","14","21:00"
"-125.77","49.08","TOFINO A","1038204","2018-03-14 22:00","2018","03","14","22:00"
"-125.77","49.08","TOFINO A","1038204","2018-03-14 23:00","2018","03","14","23:00"
"-125.77","49.08","TOFINO A","1038204","2018-03-15 00:00","2018","03","15","00:00"
"-125.77","49.08","TOFINO A","1038204","2018-03-15 01:00","2018","03","15","01:00"
"-125.77","49.08","TOFINO A","1038204","2018-03-15 02:00","2018","03","15","02:00"
"-125.77","49.08","TOFINO A","1038204","2018-03-15 03:00","2018","03","15","03:00"
"-125.77","49.08","TOFINO A","1038204","2018-03-15 04:00","2018","03","15","04:00"
"-125.77","49.08","TOFINO A","1038204","2018-03-15 05:00","2018","03","15","05:00","4.4","","2.8","","89","","","","9","","5","","16.1","","100.55","","","","","","NA"
"-125.77","49.08","TOFINO A","1038204","2018-03-15 06:00","2018","03","15","06:00","4.6","","2.5","","86","","","","7","","5","","19.3","","100.53","","","","","","NA"
"-125.77","49.08","TOFINO A","1038204","2018-03-15 07:00","2018","03","15","07:00","5.2","","1.7","","78","","","","7","","8","","24.1","","100.54","","","","","","Mostly Cloudy"
"-125.77","49.08","TOFINO A","1038204","2018-03-15 08:00","2018","03","15","08:00","7.1","","1.4","","67","","","","6","","7","","24.1","","100.52","","","","","","NA"
"-125.77","49.08","TOFINO A","1038204","2018-03-15 09:00","2018","03","15","09:00","8.9","","2.0","","62","","","","6","","11","","24.1","","100.55","","","","","","NA"
"-125.77","49.08","TOFINO A","1038204","2018-03-15 10:00","2018","03","15","10:00","9.9","","0.4","","51","","","","5","","13","","24.1","","100.58","","","","","","Mainly Clear"
"-125.77","49.08","TOFINO A","1038204","2018-03-15 11:00","2018","03","15","11:00","10.2","","-0.1","","49","","","","3","","12","","24.1","","100.60","","","","","","NA"
"-125.77","49.08","TOFINO A","1038204","2018-03-15 12:00","2018","03","15","12:00","9.7","","1.6","","57","","","","21","","8","","24.1","","100.59","","","","","","NA"
"-125.77","49.08","TOFINO A","1038204","2018-03-15 13:00","2018","03","15","13:00","10.7","","1.9","","54","","","","21","","16","","24.1","","100.56","","","","","","Mainly Clear"
"-125.77","49.08","TOFINO A","1038204","2018-03-15 14:00","2018","03","15","14:00","10.7","","1.8","","54","","","","21","","13","","24.1","","100.55","","","","","","NA"
"-125.77","49.08","TOFINO A","1038204","2018-03-15 15:00","2018","03","15","15:00","11.3","","0.8","","48","","","","26","","12","","24.1","","100.57","","","","","","NA"
"-125.77","49.08","TOFINO A","1038204","2018-03-15 16:00","2018","03","15","16:00","10.4","","1.4","","53","","","","28","","22","","24.1","","100.57","","","","","","Mainly Clear"
"-125.77","49.08","TOFINO A","1038204","2018-03-15 17:00","2018","03","15","17:00","9.7","","2.7","","62","","","","29","","21","","24.1","","100.59","","","","","","NA"
"-125.77","49.08","TOFINO A","1038204","2018-03-15 18:00","2018","03","15","18:00"
"-125.77","49.08","TOFINO A","1038204","2018-03-15 19:00","2018","03","15","19:00"
"-125.77","49.08","TOFINO A","1038204","2018-03-15 20:00","2018","03","15","20:00"
"-125.77","49.08","TOFINO A","1038204","2018-03-15 21:00","2018","03","15","21:00"
"-125.77","49.08","TOFINO A","1038204","2018-03-15 22:00","2018","03","15","22:00"
"-125.77","49.08","TOFINO A","1038204","2018-03-15 23:00","2018","03","15","23:00"
"-125.77","49.08","TOFINO A","1038204","2018-03-16 00:00","2018","03","16","00:00"
"-125.77","49.08","TOFINO A","1038204","2018-03-16 01:00","2018","03","16","01:00"
"-125.77","49.08","TOFINO A","1038204","2018-03-16 02:00","2018","03","16","02:00"
"-125.77","49.08","TOFINO A","1038204","2018-03-16 03:00","2018","03","16","03:00"
"-125.77","49.08","TOFINO A","1038204","2018-03-16 04:00","2018","03","16","04:00"
"-125.77","49.08","TOFINO A","1038204","2018-03-16 05:00","2018","03","16","05:00","-0.3","","-1.1","","94","","","","6","","3","","24.1","","100.79","","","","-1","","NA"
"-125.77","49.08","TOFINO A","1038204","2018-03-16 06:00","2018","03","16","06:00","-0.1","","-0.8","","95","","","","36","","4","","24.1","","100.81","","","","-1","","NA"
"-125.77","49.08","TOFINO A","1038204","2018-03-16 07:00","2018","03","16","07:00","0.2","","-0.4","","96","","","","30","","7","","24.1","","100.83","","","","","","Clear"
"-125.77","49.08","TOFINO A","1038204","2018-03-16 08:00","2018","03","16","08:00","2.7","","2.1","","96","","","","0","","1","","24.1","","100.86","","","","","","NA"
"-125.77","49.08","TOFINO A","1038204","2018-03-16 09:00","2018","03","16","09:00","7.6","","3.0","","73","","","","36","","1","","24.1","","100.87","","","","","","NA"
"-125.77","49.08","TOFINO A","1038204","2018-03-16 10:00","2018","03","16","10:00","8.8","","1.9","","62","","","","17","","6","","24.1","","100.88","","","","","","Clear"
"-125.77","49.08","TOFINO A","1038204","2018-03-16 11:00","2018","03","16","11:00","9.0","","1.5","","60","","","","19","","10","","24.1","","100.89","","","","","","NA"
"-125.77","49.08","TOFINO A","1038204","2018-03-16 12:00","2018","03","16","12:00","10.0","","2.1","","58","","","","20","","12","","24.1","","100.89","","","","","","NA"
"-125.77","49.08","TOFINO A","1038204","2018-03-16 13:00","2018","03","16","13:00","11.4","","3.5","","58","","","","23","","14","","24.1","","100.83","","","","","","Clear"
"-125.77","49.08","TOFINO A","1038204","2018-03-16 14:00","2018","03","16","14:00","11.8","","4.0","","58","","","","22","","14","","24.1","","100.80","","","","","","NA"
"-125.77","49.08","TOFINO A","1038204","2018-03-16 15:00","2018","03","16","15:00","12.0","","-0.2","","43","","","","29","","17","","24.1","","100.79","","","","","","NA"
"-125.77","49.08","TOFINO A","1038204","2018-03-16 16:00","2018","03","16","16:00","10.8","","2.3","","55","","","","29","","17","","24.1","","100.77","","","","","","Clear"
"-125.77","49.08","TOFINO A","1038204","2018-03-16 17:00","2018","03","16","17:00","10.1","","3.2","","62","","","","29","","18","","24.1","","100.75","","","","","","NA"
"-125.77","49.08","TOFINO A","1038204","2018-03-16 18:00","2018","03","16","18:00"
"-125.77","49.08","TOFINO A","1038204","2018-03-16 19:00","2018","03","16","19:00"
"-125.77","49.08","TOFINO A","1038204","2018-03-16 20:00","2018","03","16","20:00"
"-125.77","49.08","TOFINO A","1038204","2018-03-16 21:00","2018","03","16","21:00"
"-125.77","49.08","TOFINO A","1038204","2018-03-16 22:00","2018","03","16","22:00"
"-125.77","49.08","TOFINO A","1038204","2018-03-16 23:00","2018","03","16","23:00"
"-125.77","49.08","TOFINO A","1038204","2018-03-17 00:00","2018","03","17","00:00"
"-125.77","49.08","TOFINO A","1038204","2018-03-17 01:00","2018","03","17","01:00"
"-125.77","49.08","TOFINO A","1038204","2018-03-17 02:00","2018","03","17","02:00"
"-125.77","49.08","TOFINO A","1038204","2018-03-17 03:00","2018","03","17","03:00"
"-125.77","49.08","TOFINO A","1038204","2018-03-17 04:00","2018","03","17","04:00"
"-125.77","49.08","TOFINO A","1038204","2018-03-17 05:00","2018","03","17","05:00","4.8","","3.6","","92","","","","8","","8","","19.3","","100.69","","","","","","NA"
"-125.77","49.08","TOFINO A","1038204","2018-03-17 06:00","2018","03","17","06:00","4.7","","3.5","","92","","","","9","","9","","19.3","","100.70","","","","","","NA"
"-125.77","49.08","TOFINO A","1038204","2018-03-17 07:00","2018","03","17","07:00","4.8","","3.7","","92","","","","9","","12","","24.1","","100.73","","","","","","Cloudy"
"-125.77","49.08","TOFINO A","1038204","2018-03-17 08:00","2018","03","17","08:00","5.4","","4.1","","91","","","","10","","10","","24.1","","100.75","","","","","","NA"
"-125.77","49.08","TOFINO A","1038204","2018-03-17 09:00","2018","03","17","09:00","6.9","","4.9","","87","","","","10","","13","","24.1","","100.79","","","","","","NA"
"-125.77","49.08","TOFINO A","1038204","2018-03-17 10:00","2018","03","17","10:00","8.0","","4.7","","80","","","","12","","12","","24.1","","100.84","","","","","","Cloudy"
"-125.77","49.08","TOFINO A","1038204","2018-03-17 11:00","2018","03","17","11:00","8.9","","5.5","","79","","","","15","","20","","24.1","","100.88","","","","","","NA"
"-125.77","49.08","TOFINO A","1038204","2018-03-17 12:00","2018","03","17","12:00","8.7","","5.3","","79","","","","16","","17","","24.1","","100.93","","","","","","NA"
"-125.77","49.08","TOFINO A","1038204","2018-03-17 13:00","2018","03","17","13:00","8.7","","4.8","","76","","","","21","","11","","24.1","","100.98","","","","","","Mostly Cloudy"
"-125.77","49.08","TOFINO A","1038204","2018-03-17 14:00","2018","03","17","14:00","8.4","","5.1","","80","","","","21","","10","","24.1","","100.98","","","","","","NA"
"-125.77","49.08","TOFINO A","1038204","2018-03-17 15:00","2018","03","17","15:00","8.3","","4.7","","78","","","","22","","10","","24.1","","101.00","","","","","","NA"
"-125.77","49.08","TOFINO A","1038204","2018-03-17 16:00","2018","03","17","16:00","8.2","","5.0","","80","","","","16","","8","","24.1","","101.01","","","","","","Cloudy"
"-125.77","49.08","TOFINO A","1038204","2018-03-17 17:00","2018","03","17","17:00","7.8","","5.0","","82","","","","17","","5","","24.1","","101.05","","","","","","NA"
"-125.77","49.08","TOFINO A","1038204","2018-03-17 18:00","2018","03","17","18:00"
"-125.77","49.08","TOFINO A","1038204","2018-03-17 19:00","2018","03","17","19:00"
"-125.77","49.08","TOFINO A","1038204","2018-03-17 20:00","2018","03","17","20:00"
"-125.77","49.08","TOFINO A","1038204","2018-03-17 21:00","2018","03","17","21:00"
"-125.77","49.08","TOFINO A","1038204","2018-03-17 22:00","2018","03","17","22:00"
"-125.77","49.08","TOFINO A","1038204","2018-03-17 23:00","2018","03","17","23:00"
"-125.77","49.08","TOFINO A","1038204","2018-03-18 00:00","2018","03","18","00:00"
"-125.77","49.08","TOFINO A","1038204","2018-03-18 01:00","2018","03","18","01:00"
"-125.77","49.08","TOFINO A","1038204","2018-03-18 02:00","2018","03","18","02:00"
"-125.77","49.08","TOFINO A","1038204","2018-03-18 03:00","2018","03","18","03:00"
"-125.77","49.08","TOFINO A","1038204","2018-03-18 04:00","2018","03","18","04:00"
"-125.77","49.08","TOFINO A","1038204","2018-03-18 05:00","2018","03","18","05:00","4.5","","3.0","","90","","","","5","","5","","16.1","","101.50","","","","","","NA"
"-125.77","49.08","TOFINO A","1038204","2018-03-18 06:00","2018","03","18","06:00","3.1","","2.0","","93","","","","36","","3","","16.1","","101.55","","","","","","NA"
"-125.77","49.08","TOFINO A","1038204","2018-03-18 07:00","2018","03","18","07:00","3.1","","2.4","","95","","","","3","","7","","24.1","","101.60","","","","","","Mostly Cloudy"
"-125.77","49.08","TOFINO A","1038204","2018-03-18 08:00","2018","03","18","08:00","4.6","","4.0","","95","","","","5","","3","","24.1","","101.65","","","","","","NA"
"-125.77","49.08","TOFINO A","1038204","2018-03-18 09:00","2018","03","18","09:00","7.3","","3.2","","75","","","","7","","5","","24.1","","101.71","","","","","","NA"
"-125.77","49.08","TOFINO A","1038204","2018-03-18 10:00","2018","03","18","10:00","8.4","","3.8","","72","","","","18","","7","","24.1","","101.78","","","","","","Mainly Clear"
"-125.77","49.08","TOFINO A","1038204","2018-03-18 11:00","2018","03","18","11:00","9.2","","5.4","","77","","","","15","","19","","24.1","","101.84","","","","","","NA"
"-125.77","49.08","TOFINO A","1038204","2018-03-18 12:00","2018","03","18","12:00","9.2","","5.4","","77","","","","17","","16","","24.1","","101.87","","","","","","NA"
"-125.77","49.08","TOFINO A","1038204","2018-03-18 13:00","2018","03","18","13:00","9.5","","4.9","","73","","","","17","","17","","24.1","","101.89","","","","","","Mainly Clear"
"-125.77","49.08","TOFINO A","1038204","2018-03-18 14:00","2018","03","18","14:00","9.9","","4.8","","71","","","","18","","12","","24.1","","101.89","","","","","","NA"
"-125.77","49.08","TOFINO A","1038204","2018-03-18 15:00","2018","03","18","15:00","9.7","","4.9","","72","","","","18","","10","","24.1","","101.90","","","","","","NA"
"-125.77","49.08","TOFINO A","1038204","2018-03-18 16:00","2018","03","18","16:00","9.2","","5.1","","76","","","","17","","5","","24.1","","101.94","","","","","","Mostly Cloudy"
"-125.77","49.08","TOFINO A","1038204","2018-03-18 17:00","2018","03","18","17:00","8.2","","4.5","","77","","","","19","","8","","24.1","","101.97","","","","","","NA"
"-125.77","49.08","TOFINO A","1038204","2018-03-18 18:00","2018","03","18","18:00"
"-125.77","49.08","TOFINO A","1038204","2018-03-18 19:00","2018","03","18","19:00"
"-125.77","49.08","TOFINO A","1038204","2018-03-18 20:00","2018","03","18","20:00"
"-125.77","49.08","TOFINO A","1038204","2018-03-18 21:00","2018","03","18","21:00"
"-125.77","49.08","TOFINO A","1038204","2018-03-18 22:00","2018","03","18","22:00"
"-125.77","49.08","TOFINO A","1038204","2018-03-18 23:00","2018","03","18","23:00"
"-125.77","49.08","TOFINO A","1038204","2018-03-19 00:00","2018","03","19","00:00"
"-125.77","49.08","TOFINO A","1038204","2018-03-19 01:00","2018","03","19","01:00"
"-125.77","49.08","TOFINO A","1038204","2018-03-19 02:00","2018","03","19","02:00"
"-125.77","49.08","TOFINO A","1038204","2018-03-19 03:00","2018","03","19","03:00"
"-125.77","49.08","TOFINO A","1038204","2018-03-19 04:00","2018","03","19","04:00"
"-125.77","49.08","TOFINO A","1038204","2018-03-19 05:00","2018","03","19","05:00","4.1","","3.6","","97","","","","36","","2","","16.1","","102.16","","","","","","NA"
"-125.77","49.08","TOFINO A","1038204","2018-03-19 06:00","2018","03","19","06:00","4.2","","3.8","","97","","","","1","","5","","16.1","","102.17","","","","","","NA"
"-125.77","49.08","TOFINO A","1038204","2018-03-19 07:00","2018","03","19","07:00","4.4","","3.9","","97","","","","1","","3","","24.1","","102.19","","","","","","Mostly Cloudy"
"-125.77","49.08","TOFINO A","1038204","2018-03-19 08:00","2018","03","19","08:00","6.4","","5.6","","95","","","","35","","8","","24.1","","102.20","","","","","","NA"
"-125.77","49.08","TOFINO A","1038204","2018-03-19 09:00","2018","03","19","09:00","7.8","","4.9","","81","","","","36","","2","","24.1","","102.20","","","","","","NA"
"-125.77","49.08","TOFINO A","1038204","2018-03-19 10:00","2018","03","19","10:00","7.7","","4.4","","80","","","","36","","1","","24.1","","102.21","","","","","","Cloudy"
"-125.77","49.08","TOFINO A","1038204","2018-03-19 11:00","2018","03","19","11:00","8.2","","3.9","","75","","","","31","","10","","24.1","","102.21","","","","","","NA"
"-125.77","49.08","TOFINO A","1038204","2018-03-19 12:00","2018","03","19","12:00","9.1","","4.4","","72","","","","23","","6","","24.1","","102.17","","","","","","NA"
"-125.77","49.08","TOFINO A","1038204","2018-03-19 13:00","2018","03","19","13:00","8.9","","4.2","","72","","","","25","","16","","24.1","","102.13","","","","","","Cloudy"
"-125.77","49.08","TOFINO A","1038204","2018-03-19 14:00","2018","03","19","14:00","9.3","","4.4","","71","","","","30","","16","","24.1","","102.09","","","","","","NA"
"-125.77","49.08","TOFINO A","1038204","2018-03-19 15:00","2018","03","19","15:00","8.8","","5.1","","78","","","","21","","14","","24.1","","102.06","","","","","","NA"
"-125.77","49.08","TOFINO A","1038204","2018-03-19 16:00","2018","03","19","16:00","9.3","","5.2","","75","","","","25","","16","","24.1","","102.04","","","","","","Mostly Cloudy"
"-125.77","49.08","TOFINO A","1038204","2018-03-19 17:00","2018","03","19","17:00","7.8","","4.3","","79","","","","28","","18","","24.1","","102.02","","","","","","NA"
"-125.77","49.08","TOFINO A","1038204","2018-03-19 18:00","2018","03","19","18:00"
"-125.77","49.08","TOFINO A","1038204","2018-03-19 19:00","2018","03","19","19:00"
"-125.77","49.08","TOFINO A","1038204","2018-03-19 20:00","2018","03","19","20:00"
"-125.77","49.08","TOFINO A","1038204","2018-03-19 21:00","2018","03","19","21:00"
"-125.77","49.08","TOFINO A","1038204","2018-03-19 22:00","2018","03","19","22:00"
"-125.77","49.08","TOFINO A","1038204","2018-03-19 23:00","2018","03","19","23:00"
"-125.77","49.08","TOFINO A","1038204","2018-03-20 00:00","2018","03","20","00:00"
"-125.77","49.08","TOFINO A","1038204","2018-03-20 01:00","2018","03","20","01:00"
"-125.77","49.08","TOFINO A","1038204","2018-03-20 02:00","2018","03","20","02:00"
"-125.77","49.08","TOFINO A","1038204","2018-03-20 03:00","2018","03","20","03:00"
"-125.77","49.08","TOFINO A","1038204","2018-03-20 04:00","2018","03","20","04:00"
"-125.77","49.08","TOFINO A","1038204","2018-03-20 05:00","2018","03","20","05:00","5.5","","3.8","","89","","","","36","","2","","16.1","","101.73","","","","","","NA"
"-125.77","49.08","TOFINO A","1038204","2018-03-20 06:00","2018","03","20","06:00","5.0","","4.0","","93","","","","36","","1","","24.1","","101.69","","","","","","NA"
"-125.77","49.08","TOFINO A","1038204","2018-03-20 07:00","2018","03","20","07:00","5.0","","4.2","","95","","","","36","","2","","6.4","","101.68","","","","","","Fog"
"-125.77","49.08","TOFINO A","1038204","2018-03-20 08:00","2018","03","20","08:00","5.6","","4.7","","94","","","","36","","1","","24.1","","101.63","","","","","","NA"
"-125.77","49.08","TOFINO A","1038204","2018-03-20 09:00","2018","03","20","09:00","6.1","","5.0","","93","","","","10","","7","","24.1","","101.61","","","","","","NA"
"-125.77","49.08","TOFINO A","1038204","2018-03-20 10:00","2018","03","20","10:00","7.1","","4.8","","85","","","","20","","8","","24.1","","101.59","","","","","","Cloudy"
"-125.77","49.08","TOFINO A","1038204","2018-03-20 11:00","2018","03","20","11:00","7.5","","4.9","","84","","","","20","","10","","24.1","","101.58","","","","","","NA"
"-125.77","49.08","TOFINO A","1038204","2018-03-20 12:00","2018","03","20","12:00","7.8","","4.3","","79","","","","19","","8","","24.1","","101.55","","","","","","NA"
"-125.77","49.08","TOFINO A","1038204","2018-03-20 13:00","2018","03","20","13:00","8.6","","3.6","","71","","","","25","","9","","24.1","","101.48","","","","","","Cloudy"
"-125.77","49.08","TOFINO A","1038204","2018-03-20 14:00","2018","03","20","14:00","8.9","","3.5","","69","","","","25","","17","","24.1","","101.42","","","","","","NA"
"-125.77","49.08","TOFINO A","1038204","2018-03-20 15:00","2018","03","20","15:00","8.3","","3.0","","69","","","","31","","12","","24.1","","101.36","","","","","","NA"
"-125.77","49.08","TOFINO A","1038204","2018-03-20 16:00","2018","03","20","16:00","8.5","","2.4","","65","","","","32","","10","","24.1","","101.28","","","","","","Cloudy"
"-125.77","49.08","TOFINO A","1038204","2018-03-20 17:00","2018","03","20","17:00","8.3","","3.1","","70","","","","29","","10","","24.1","","101.22","","","","","","NA"
"-125.77","49.08","TOFINO A","1038204","2018-03-20 18:00","2018","03","20","18:00"
"-125.77","49.08","TOFINO A","1038204","2018-03-20 19:00","2018","03","20","19:00"
"-125.77","49.08","TOFINO A","1038204","2018-03-20 20:00","2018","03","20","20:00"
"-125.77","49.08","TOFINO A","1038204","2018-03-20 21:00","2018","03","20","21:00"
"-125.77","49.08","TOFINO A","1038204","2018-03-20 22:00","2018","03","20","22:00"
"-125.77","49.08","TOFINO A","1038204","2018-03-20 23:00","2018","03","20","23:00"
"-125.77","49.08","TOFINO A","1038204","2018-03-21 00:00","2018","03","21","00:00"
"-125.77","49.08","TOFINO A","1038204","2018-03-21 01:00","2018","03","21","01:00"
"-125.77","49.08","TOFINO A","1038204","2018-03-21 02:00","2018","03","21","02:00"
"-125.77","49.08","TOFINO A","1038204","2018-03-21 03:00","2018","03","21","03:00"
"-125.77","49.08","TOFINO A","1038204","2018-03-21 04:00","2018","03","21","04:00"
"-125.77","49.08","TOFINO A","1038204","2018-03-21 05:00","2018","03","21","05:00","4.1","","3.4","","96","","","","9","","8","","16.1","","100.50","","","","","","NA"
"-125.77","49.08","TOFINO A","1038204","2018-03-21 06:00","2018","03","21","06:00","4.3","","3.6","","95","","","","8","","7","","24.1","","100.44","","","","","","NA"
"-125.77","49.08","TOFINO A","1038204","2018-03-21 07:00","2018","03","21","07:00","4.3","","3.4","","94","","","","9","","8","","24.1","","100.42","","","","","","Cloudy"
"-125.77","49.08","TOFINO A","1038204","2018-03-21 08:00","2018","03","21","08:00","5.1","","4.1","","93","","","","9","","7","","24.1","","100.37","","","","","","NA"
"-125.77","49.08","TOFINO A","1038204","2018-03-21 09:00","2018","03","21","09:00","5.9","","4.2","","89","","","","13","","7","","24.1","","100.35","","","","","","NA"
"-125.77","49.08","TOFINO A","1038204","2018-03-21 10:00","2018","03","21","10:00","6.4","","4.7","","89","","","","17","","5","","9.7","","100.35","","","","","","Drizzle"
"-125.77","49.08","TOFINO A","1038204","2018-03-21 11:00","2018","03","21","11:00","7.3","","5.0","","85","","","","16","","14","","24.1","","100.31","","","","","","NA"
"-125.77","49.08","TOFINO A","1038204","2018-03-21 12:00","2018","03","21","12:00","7.3","","4.6","","83","","","","16","","18","","24.1","","100.28","","","","","","NA"
"-125.77","49.08","TOFINO A","1038204","2018-03-21 13:00","2018","03","21","13:00","6.8","","5.0","","88","","","","15","","15","","24.1","","100.22","","","","","","Rain"
"-125.77","49.08","TOFINO A","1038204","2018-03-21 14:00","2018","03","21","14:00","6.9","","5.0","","88","","","","15","","10","","24.1","","100.15","","","","","","Rain"
"-125.77","49.08","TOFINO A","1038204","2018-03-21 15:00","2018","03","21","15:00","7.0","","4.7","","85","","","","14","","6","","24.1","","100.06","","","","","","Rain"
"-125.77","49.08","TOFINO A","1038204","2018-03-21 16:00","2018","03","21","16:00","7.4","","5.9","","90","","","","4","","4","","24.1","","99.98","","","","","","Cloudy"
"-125.77","49.08","TOFINO A","1038204","2018-03-21 17:00","2018","03","21","17:00","7.4","","5.6","","88","","","","20","","5","","24.1","","99.94","","","","","","NA"
"-125.77","49.08","TOFINO A","1038204","2018-03-21 18:00","2018","03","21","18:00"
"-125.77","49.08","TOFINO A","1038204","2018-03-21 19:00","2018","03","21","19:00"
"-125.77","49.08","TOFINO A","1038204","2018-03-21 20:00","2018","03","21","20:00"
"-125.77","49.08","TOFINO A","1038204","2018-03-21 21:00","2018","03","21","21:00"
"-125.77","49.08","TOFINO A","1038204","2018-03-21 22:00","2018","03","21","22:00"
"-125.77","49.08","TOFINO A","1038204","2018-03-21 23:00","2018","03","21","23:00"
"-125.77","49.08","TOFINO A","1038204","2018-03-22 00:00","2018","03","22","00:00"
"-125.77","49.08","TOFINO A","1038204","2018-03-22 01:00","2018","03","22","01:00"
"-125.77","49.08","TOFINO A","1038204","2018-03-22 02:00","2018","03","22","02:00"
"-125.77","49.08","TOFINO A","1038204","2018-03-22 03:00","2018","03","22","03:00"
"-125.77","49.08","TOFINO A","1038204","2018-03-22 04:00","2018","03","22","04:00"
"-125.77","49.08","TOFINO A","1038204","2018-03-22 05:00","2018","03","22","05:00","4.0","","2.8","","92","","","","24","","10","","16.1","","99.37","","","","","","Heavy Rain"
"-125.77","49.08","TOFINO A","1038204","2018-03-22 06:00","2018","03","22","06:00","3.5","","2.5","","93","","","","8","","12","","16.1","","99.34","","","","","","Rain"
"-125.77","49.08","TOFINO A","1038204","2018-03-22 07:00","2018","03","22","07:00","3.2","","2.4","","94","","","","7","","7","","24.1","","99.38","","","","","","Rain"
"-125.77","49.08","TOFINO A","1038204","2018-03-22 08:00","2018","03","22","08:00","3.5","","2.7","","94","","","","6","","7","","24.1","","99.41","","","","","","Rain"
"-125.77","49.08","TOFINO A","1038204","2018-03-22 09:00","2018","03","22","09:00","3.6","","2.5","","93","","","","23","","7","","16.1","","99.50","","","","","","Rain"
"-125.77","49.08","TOFINO A","1038204","2018-03-22 10:00","2018","03","22","10:00","3.8","","2.6","","92","","","","32","","4","","24.1","","99.59","","","","","","Rain"
"-125.77","49.08","TOFINO A","1038204","2018-03-22 11:00","2018","03","22","11:00","3.4","","2.3","","93","","","","30","","10","","24.1","","99.70","","","","","","Rain"
"-125.77","49.08","TOFINO A","1038204","2018-03-22 12:00","2018","03","22","12:00","4.5","","2.6","","88","","","","27","","9","","24.1","","99.80","","","","","","NA"
"-125.77","49.08","TOFINO A","1038204","2018-03-22 13:00","2018","03","22","13:00","5.8","","2.1","","77","","","","19","","7","","24.1","","99.89","","","","","","Mainly Clear"
"-125.77","49.08","TOFINO A","1038204","2018-03-22 14:00","2018","03","22","14:00","6.2","","1.9","","74","","","","26","","13","","24.1","","99.94","","","","","","Rain Showers"
"-125.77","49.08","TOFINO A","1038204","2018-03-22 15:00","2018","03","22","15:00","7.4","","-0.6","","57","","","","18","","13","","24.1","","100.00","","","","","","NA"
"-125.77","49.08","TOFINO A","1038204","2018-03-22 16:00","2018","03","22","16:00","6.6","","-1.1","","58","","","","18","","12","","24.1","","100.02","","","","","","Mostly Cloudy"
"-125.77","49.08","TOFINO A","1038204","2018-03-22 17:00","2018","03","22","17:00","6.5","","0.8","","67","","","","13","","14","","24.1","","100.03","","","","","","NA"
"-125.77","49.08","TOFINO A","1038204","2018-03-22 18:00","2018","03","22","18:00"
"-125.77","49.08","TOFINO A","1038204","2018-03-22 19:00","2018","03","22","19:00"
"-125.77","49.08","TOFINO A","1038204","2018-03-22 20:00","2018","03","22","20:00"
"-125.77","49.08","TOFINO A","1038204","2018-03-22 21:00","2018","03","22","21:00"
"-125.77","49.08","TOFINO A","1038204","2018-03-22 22:00","2018","03","22","22:00"
"-125.77","49.08","TOFINO A","1038204","2018-03-22 23:00","2018","03","22","23:00"
"-125.77","49.08","TOFINO A","1038204","2018-03-23 00:00","2018","03","23","00:00"
"-125.77","49.08","TOFINO A","1038204","2018-03-23 01:00","2018","03","23","01:00"
"-125.77","49.08","TOFINO A","1038204","2018-03-23 02:00","2018","03","23","02:00"
"-125.77","49.08","TOFINO A","1038204","2018-03-23 03:00","2018","03","23","03:00"
"-125.77","49.08","TOFINO A","1038204","2018-03-23 04:00","2018","03","23","04:00"
"-125.77","49.08","TOFINO A","1038204","2018-03-23 05:00","2018","03","23","05:00","0.5","","-0.1","","96","","","","6","","5","","12.9","","100.11","","","","","","Rain Showers"
"-125.77","49.08","TOFINO A","1038204","2018-03-23 06:00","2018","03","23","06:00","0.6","","0.0","","96","","","","6","","11","","19.3","","100.15","","","","","","Rain Showers"
"-125.77","49.08","TOFINO A","1038204","2018-03-23 07:00","2018","03","23","07:00","0.7","","0.1","","96","","","","7","","15","","16.1","","100.21","","","","","","Rain Showers"
"-125.77","49.08","TOFINO A","1038204","2018-03-23 08:00","2018","03","23","08:00","1.0","","0.3","","95","","","","6","","8","","19.3","","100.25","","","","","","NA"
"-125.77","49.08","TOFINO A","1038204","2018-03-23 09:00","2018","03","23","09:00","2.9","","1.6","","92","","","","9","","16","","24.1","","100.28","","","","","","NA"
"-125.77","49.08","TOFINO A","1038204","2018-03-23 10:00","2018","03","23","10:00","2.5","","1.2","","92","","","","9","","16","","24.1","","100.32","","","","","","Rain Showers"
"-125.77","49.08","TOFINO A","1038204","2018-03-23 11:00","2018","03","23","11:00","1.9","","0.8","","93","","","","10","","13","","9.7","","100.39","","","","","","Rain Showers"
"-125.77","49.08","TOFINO A","1038204","2018-03-23 12:00","2018","03","23","12:00","3.0","","1.8","","92","","","","8","","23","","16.1","","100.39","","","","","","Rain Showers"
"-125.77","49.08","TOFINO A","1038204","2018-03-23 13:00","2018","03","23","13:00","4.5","","3.2","","91","","","","13","","25","","19.3","","100.41","","","","","","Mostly Cloudy"
"-125.77","49.08","TOFINO A","1038204","2018-03-23 14:00","2018","03","23","14:00","3.1","","2.1","","93","","","","8","","15","","16.1","","100.41","","","","","","Rain Showers"
"-125.77","49.08","TOFINO A","1038204","2018-03-23 15:00","2018","03","23","15:00","2.7","","1.6","","93","","","","8","","18","","12.9","","100.42","","","","","","Rain Showers"
"-125.77","49.08","TOFINO A","1038204","2018-03-23 16:00","2018","03","23","16:00","3.2","","2.3","","93","","","","8","","14","","24.1","","100.44","","","","","","Rain Showers"
"-125.77","49.08","TOFINO A","1038204","2018-03-23 17:00","2018","03","23","17:00","3.7","","2.4","","91","","","","8","","17","","24.1","","100.42","","","","","","NA"
"-125.77","49.08","TOFINO A","1038204","2018-03-23 18:00","2018","03","23","18:00"
"-125.77","49.08","TOFINO A","1038204","2018-03-23 19:00","2018","03","23","19:00"
"-125.77","49.08","TOFINO A","1038204","2018-03-23 20:00","2018","03","23","20:00"
"-125.77","49.08","TOFINO A","1038204","2018-03-23 21:00","2018","03","23","21:00"
"-125.77","49.08","TOFINO A","1038204","2018-03-23 22:00","2018","03","23","22:00"
"-125.77","49.08","TOFINO A","1038204","2018-03-23 23:00","2018","03","23","23:00"
"-125.77","49.08","TOFINO A","1038204","2018-03-24 00:00","2018","03","24","00:00"
"-125.77","49.08","TOFINO A","1038204","2018-03-24 01:00","2018","03","24","01:00"
"-125.77","49.08","TOFINO A","1038204","2018-03-24 02:00","2018","03","24","02:00"
"-125.77","49.08","TOFINO A","1038204","2018-03-24 03:00","2018","03","24","03:00"
"-125.77","49.08","TOFINO A","1038204","2018-03-24 04:00","2018","03","24","04:00"
"-125.77","49.08","TOFINO A","1038204","2018-03-24 05:00","2018","03","24","05:00","-0.4","","-0.9","","96","","","","31","","5","","24.1","","100.68","","","","-2","","NA"
"-125.77","49.08","TOFINO A","1038204","2018-03-24 06:00","2018","03","24","06:00","0.1","","-0.4","","97","","","","4","","5","","16.1","","100.73","","","","","","NA"
"-125.77","49.08","TOFINO A","1038204","2018-03-24 07:00","2018","03","24","07:00","1.0","","0.6","","97","","","","1","","8","","24.1","","100.82","","","","","","Mostly Cloudy"
"-125.77","49.08","TOFINO A","1038204","2018-03-24 08:00","2018","03","24","08:00","1.9","","1.5","","97","","","","4","","8","","24.1","","100.85","","","","","","NA"
"-125.77","49.08","TOFINO A","1038204","2018-03-24 09:00","2018","03","24","09:00","4.3","","2.3","","87","","","","34","","3","","24.1","","100.87","","","","","","NA"
"-125.77","49.08","TOFINO A","1038204","2018-03-24 10:00","2018","03","24","10:00","5.5","","1.8","","77","","","","16","","9","","24.1","","100.89","","","","","","Mainly Clear"
"-125.77","49.08","TOFINO A","1038204","2018-03-24 11:00","2018","03","24","11:00","5.8","","1.7","","75","","","","21","","11","","24.1","","100.93","","","","","","NA"
"-125.77","49.08","TOFINO A","1038204","2018-03-24 12:00","2018","03","24","12:00","5.7","","2.5","","80","","","","20","","11","","24.1","","100.96","","","","","","NA"
"-125.77","49.08","TOFINO A","1038204","2018-03-24 13:00","2018","03","24","13:00","6.4","","1.6","","72","","","","20","","14","","24.1","","101.00","","","","","","Mainly Clear"
"-125.77","49.08","TOFINO A","1038204","2018-03-24 14:00","2018","03","24","14:00","6.8","","1.5","","69","","","","21","","14","","24.1","","101.00","","","","","","NA"
"-125.77","49.08","TOFINO A","1038204","2018-03-24 15:00","2018","03","24","15:00","7.2","","2.1","","70","","","","20","","13","","24.1","","101.02","","","","","","NA"
"-125.77","49.08","TOFINO A","1038204","2018-03-24 16:00","2018","03","24","16:00","7.1","","1.8","","69","","","","22","","13","","24.1","","101.03","","","","","","Mainly Clear"
"-125.77","49.08","TOFINO A","1038204","2018-03-24 17:00","2018","03","24","17:00","6.9","","1.3","","67","","","","28","","12","","24.1","","101.04","","","","","","NA"
"-125.77","49.08","TOFINO A","1038204","2018-03-24 18:00","2018","03","24","18:00"
"-125.77","49.08","TOFINO A","1038204","2018-03-24 19:00","2018","03","24","19:00"
"-125.77","49.08","TOFINO A","1038204","2018-03-24 20:00","2018","03","24","20:00"
"-125.77","49.08","TOFINO A","1038204","2018-03-24 21:00","2018","03","24","21:00"
"-125.77","49.08","TOFINO A","1038204","2018-03-24 22:00","2018","03","24","22:00"
"-125.77","49.08","TOFINO A","1038204","2018-03-24 23:00","2018","03","24","23:00"
"-125.77","49.08","TOFINO A","1038204","2018-03-25 00:00","2018","03","25","00:00"
"-125.77","49.08","TOFINO A","1038204","2018-03-25 01:00","2018","03","25","01:00"
"-125.77","49.08","TOFINO A","1038204","2018-03-25 02:00","2018","03","25","02:00"
"-125.77","49.08","TOFINO A","1038204","2018-03-25 03:00","2018","03","25","03:00"
"-125.77","49.08","TOFINO A","1038204","2018-03-25 04:00","2018","03","25","04:00"
"-125.77","49.08","TOFINO A","1038204","2018-03-25 05:00","2018","03","25","05:00","-0.5","","-0.9","","97","","","","36","","2","","24.1","","101.30","","","","-1","","NA"
"-125.77","49.08","TOFINO A","1038204","2018-03-25 06:00","2018","03","25","06:00","-0.6","","-1.0","","97","","","","5","","5","","24.1","","101.33","","","","-2","","NA"
"-125.77","49.08","TOFINO A","1038204","2018-03-25 07:00","2018","03","25","07:00","0.7","","0.3","","97","","","","6","","9","","24.1","","101.34","","","","","","Mostly Cloudy"
"-125.77","49.08","TOFINO A","1038204","2018-03-25 08:00","2018","03","25","08:00","2.1","","1.6","","97","","","","6","","5","","24.1","","101.37","","","","","","NA"
"-125.77","49.08","TOFINO A","1038204","2018-03-25 09:00","2018","03","25","09:00","3.3","","2.3","","93","","","","9","","5","","12.9","","101.44","","","","","","Rain Showers"
"-125.77","49.08","TOFINO A","1038204","2018-03-25 10:00","2018","03","25","10:00","5.3","","3.6","","89","","","","12","","16","","16.1","","101.44","","","","","","Rain Showers"
"-125.77","49.08","TOFINO A","1038204","2018-03-25 11:00","2018","03","25","11:00","6.5","","3.9","","83","","","","14","","12","","24.1","","101.51","","","","","","NA"
"-125.77","49.08","TOFINO A","1038204","2018-03-25 12:00","2018","03","25","12:00","6.2","","3.7","","84","","","","7","","4","","24.1","","101.51","","","","","","Rain Showers"
"-125.77","49.08","TOFINO A","1038204","2018-03-25 13:00","2018","03","25","13:00","7.1","","4.6","","84","","","","14","","8","","24.1","","101.55","","","","","","Mostly Cloudy"
"-125.77","49.08","TOFINO A","1038204","2018-03-25 14:00","2018","03","25","14:00","8.4","","4.8","","78","","","","15","","12","","24.1","","101.54","","","","","","NA"
"-125.77","49.08","TOFINO A","1038204","2018-03-25 15:00","2018","03","25","15:00","7.4","","2.6","","72","","","","18","","6","","24.1","","101.50","","","","","","NA"
"-125.77","49.08","TOFINO A","1038204","2018-03-25 16:00","2018","03","25","16:00","6.1","","3.3","","82","","","","16","","9","","16.1","","101.54","","","","","","Rain Showers"
"-125.77","49.08","TOFINO A","1038204","2018-03-25 17:00","2018","03","25","17:00","6.9","","4.1","","82","","","","18","","14","","24.1","","101.51","","","","","","NA"
"-125.77","49.08","TOFINO A","1038204","2018-03-25 18:00","2018","03","25","18:00"
"-125.77","49.08","TOFINO A","1038204","2018-03-25 19:00","2018","03","25","19:00"
"-125.77","49.08","TOFINO A","1038204","2018-03-25 20:00","2018","03","25","20:00"
"-125.77","49.08","TOFINO A","1038204","2018-03-25 21:00","2018","03","25","21:00"
"-125.77","49.08","TOFINO A","1038204","2018-03-25 22:00","2018","03","25","22:00"
"-125.77","49.08","TOFINO A","1038204","2018-03-25 23:00","2018","03","25","23:00"
"-125.77","49.08","TOFINO A","1038204","2018-03-26 00:00","2018","03","26","00:00"
"-125.77","49.08","TOFINO A","1038204","2018-03-26 01:00","2018","03","26","01:00"
"-125.77","49.08","TOFINO A","1038204","2018-03-26 02:00","2018","03","26","02:00"
"-125.77","49.08","TOFINO A","1038204","2018-03-26 03:00","2018","03","26","03:00"
"-125.77","49.08","TOFINO A","1038204","2018-03-26 04:00","2018","03","26","04:00"
"-125.77","49.08","TOFINO A","1038204","2018-03-26 05:00","2018","03","26","05:00","4.7","","4.0","","96","","","","36","","3","","16.1","","101.63","","","","","","Rain"
"-125.77","49.08","TOFINO A","1038204","2018-03-26 06:00","2018","03","26","06:00","4.5","","4.0","","97","","","","9","","6","","16.1","","101.64","","","","","","Rain"
"-125.77","49.08","TOFINO A","1038204","2018-03-26 07:00","2018","03","26","07:00","4.7","","4.2","","97","","","","9","","7","","16.1","","101.66","","","","","","Rain"
"-125.77","49.08","TOFINO A","1038204","2018-03-26 08:00","2018","03","26","08:00","5.5","","5.1","","97","","","","36","","9","","6.4","","101.63","","","","","","Rain,Fog"
"-125.77","49.08","TOFINO A","1038204","2018-03-26 09:00","2018","03","26","09:00","7.2","","6.8","","97","","","","26","","4","","9.7","","101.65","","","","","","Rain,Fog"
"-125.77","49.08","TOFINO A","1038204","2018-03-26 10:00","2018","03","26","10:00","7.8","","7.2","","96","","","","23","","18","","4.8","","101.69","","","","","","Rain,Fog"
"-125.77","49.08","TOFINO A","1038204","2018-03-26 11:00","2018","03","26","11:00","8.1","","7.4","","95","","","","23","","17","","4.8","","101.72","","","","","","Moderate Rain,Fog"
"-125.77","49.08","TOFINO A","1038204","2018-03-26 12:00","2018","03","26","12:00","8.2","","7.5","","96","","","","23","","13","","4.8","","101.75","","","","","","Moderate Rain,Fog"
"-125.77","49.08","TOFINO A","1038204","2018-03-26 13:00","2018","03","26","13:00","8.3","","7.6","","96","","","","25","","17","","4.8","","101.79","","","","","","Moderate Rain,Fog"
"-125.77","49.08","TOFINO A","1038204","2018-03-26 14:00","2018","03","26","14:00","8.4","","7.7","","96","","","","24","","16","","4.8","","101.84","","","","","","Rain,Fog"
"-125.77","49.08","TOFINO A","1038204","2018-03-26 15:00","2018","03","26","15:00","8.2","","7.6","","96","","","","23","","13","","4.8","","101.87","","","","","","Rain,Fog"
"-125.77","49.08","TOFINO A","1038204","2018-03-26 16:00","2018","03","26","16:00","8.1","","7.4","","96","","","","24","","6","","4.8","","101.91","","","","","","Moderate Rain,Fog"
"-125.77","49.08","TOFINO A","1038204","2018-03-26 17:00","2018","03","26","17:00","8.2","","7.5","","96","","","","24","","17","","3.2","","101.94","","","","","","Moderate Rain,Fog"
"-125.77","49.08","TOFINO A","1038204","2018-03-26 18:00","2018","03","26","18:00"
"-125.77","49.08","TOFINO A","1038204","2018-03-26 19:00","2018","03","26","19:00"
"-125.77","49.08","TOFINO A","1038204","2018-03-26 20:00","2018","03","26","20:00"
"-125.77","49.08","TOFINO A","1038204","2018-03-26 21:00","2018","03","26","21:00"
"-125.77","49.08","TOFINO A","1038204","2018-03-26 22:00","2018","03","26","22:00"
"-125.77","49.08","TOFINO A","1038204","2018-03-26 23:00","2018","03","26","23:00"
"-125.77","49.08","TOFINO A","1038204","2018-03-27 00:00","2018","03","27","00:00"
"-125.77","49.08","TOFINO A","1038204","2018-03-27 01:00","2018","03","27","01:00"
"-125.77","49.08","TOFINO A","1038204","2018-03-27 02:00","2018","03","27","02:00"
"-125.77","49.08","TOFINO A","1038204","2018-03-27 03:00","2018","03","27","03:00"
"-125.77","49.08","TOFINO A","1038204","2018-03-27 04:00","2018","03","27","04:00"
"-125.77","49.08","TOFINO A","1038204","2018-03-27 05:00","2018","03","27","05:00","8.4","","8.0","","97","","","","25","","18","","8.1","","101.88","","","","","","Moderate Rain,Fog"
"-125.77","49.08","TOFINO A","1038204","2018-03-27 06:00","2018","03","27","06:00","8.4","","8.0","","97","","","","26","","18","","9.7","","101.88","","","","","","Moderate Rain,Fog"
"-125.77","49.08","TOFINO A","1038204","2018-03-27 07:00","2018","03","27","07:00","8.4","","8.0","","97","","","","28","","15","","3.2","","101.94","","","","","","Rain,Fog"
"-125.77","49.08","TOFINO A","1038204","2018-03-27 08:00","2018","03","27","08:00","8.5","","8.0","","97","","","","29","","23","","16.1","","102.00","","","","","","Rain"
"-125.77","49.08","TOFINO A","1038204","2018-03-27 09:00","2018","03","27","09:00","8.8","","8.2","","97","","","","29","","23","","2.4","","102.06","","","","","","Drizzle"
"-125.77","49.08","TOFINO A","1038204","2018-03-27 10:00","2018","03","27","10:00","9.0","","8.4","","96","","","","30","","21","","16.1","","102.14","","","","","","Cloudy"
"-125.77","49.08","TOFINO A","1038204","2018-03-27 11:00","2018","03","27","11:00","10.0","","7.8","","86","","","","29","","28","","24.1","","102.18","","","","","","NA"
"-125.77","49.08","TOFINO A","1038204","2018-03-27 12:00","2018","03","27","12:00","10.2","","7.5","","83","","","","29","","27","","24.1","","102.25","","","","","","NA"
"-125.77","49.08","TOFINO A","1038204","2018-03-27 13:00","2018","03","27","13:00","10.7","","6.0","","73","","","","29","","27","","24.1","","102.30","","","","","","Mostly Cloudy"
"-125.77","49.08","TOFINO A","1038204","2018-03-27 14:00","2018","03","27","14:00","10.2","","4.2","","66","","","","29","","34","","24.1","","102.33","","","","","","NA"
"-125.77","49.08","TOFINO A","1038204","2018-03-27 15:00","2018","03","27","15:00","9.8","","3.7","","65","","","","29","","26","","24.1","","102.35","","","","","","NA"
"-125.77","49.08","TOFINO A","1038204","2018-03-27 16:00","2018","03","27","16:00","9.7","","3.6","","65","","","","29","","39","","24.1","","102.37","","","","","","Mostly Cloudy"
"-125.77","49.08","TOFINO A","1038204","2018-03-27 17:00","2018","03","27","17:00","9.1","","4.2","","71","","","","29","","28","","24.1","","102.41","","","","","","NA"
"-125.77","49.08","TOFINO A","1038204","2018-03-27 18:00","2018","03","27","18:00"
"-125.77","49.08","TOFINO A","1038204","2018-03-27 19:00","2018","03","27","19:00"
"-125.77","49.08","TOFINO A","1038204","2018-03-27 20:00","2018","03","27","20:00"
"-125.77","49.08","TOFINO A","1038204","2018-03-27 21:00","2018","03","27","21:00"
"-125.77","49.08","TOFINO A","1038204","2018-03-27 22:00","2018","03","27","22:00"
"-125.77","49.08","TOFINO A","1038204","2018-03-27 23:00","2018","03","27","23:00"
"-125.77","49.08","TOFINO A","1038204","2018-03-28 00:00","2018","03","28","00:00"
"-125.77","49.08","TOFINO A","1038204","2018-03-28 01:00","2018","03","28","01:00"
"-125.77","49.08","TOFINO A","1038204","2018-03-28 02:00","2018","03","28","02:00"
"-125.77","49.08","TOFINO A","1038204","2018-03-28 03:00","2018","03","28","03:00"
"-125.77","49.08","TOFINO A","1038204","2018-03-28 04:00","2018","03","28","04:00"
"-125.77","49.08","TOFINO A","1038204","2018-03-28 05:00","2018","03","28","05:00","2.9","","2.5","","97","","","","1","","6","","16.1","","102.71","","","","","","NA"
"-125.77","49.08","TOFINO A","1038204","2018-03-28 06:00","2018","03","28","06:00","3.9","","3.4","","96","","","","32","","8","","24.1","","102.74","","","","","","NA"
"-125.77","49.08","TOFINO A","1038204","2018-03-28 07:00","2018","03","28","07:00","3.8","","3.1","","95","","","","32","","6","","24.1","","102.74","","","","","","Cloudy"
"-125.77","49.08","TOFINO A","1038204","2018-03-28 08:00","2018","03","28","08:00","5.0","","3.7","","92","","","","34","","4","","24.1","","102.75","","","","","","NA"
"-125.77","49.08","TOFINO A","1038204","2018-03-28 09:00","2018","03","28","09:00","5.9","","3.5","","85","","","","32","","5","","24.1","","102.76","","","","","","NA"
"-125.77","49.08","TOFINO A","1038204","2018-03-28 10:00","2018","03","28","10:00","7.9","","2.6","","69","","","","29","","17","","24.1","","102.79","","","","","","Cloudy"
"-125.77","49.08","TOFINO A","1038204","2018-03-28 11:00","2018","03","28","11:00","9.1","","2.4","","63","","","","30","","12","","24.1","","102.75","","","","","","NA"
"-125.77","49.08","TOFINO A","1038204","2018-03-28 12:00","2018","03","28","12:00","8.8","","3.0","","67","","","","28","","23","","24.1","","102.73","","","","","","NA"
"-125.77","49.08","TOFINO A","1038204","2018-03-28 13:00","2018","03","28","13:00","8.9","","2.7","","65","","","","29","","29","","24.1","","102.72","","","","","","Cloudy"
"-125.77","49.08","TOFINO A","1038204","2018-03-28 14:00","2018","03","28","14:00","9.6","","3.8","","67","","","","29","","28","","24.1","","102.71","","","","","","NA"
"-125.77","49.08","TOFINO A","1038204","2018-03-28 15:00","2018","03","28","15:00","9.5","","4.3","","70","","","","28","","26","","24.1","","102.71","","","","","","NA"
"-125.77","49.08","TOFINO A","1038204","2018-03-28 16:00","2018","03","28","16:00","9.0","","4.3","","72","","","","30","","24","","24.1","","102.69","","","","","","Cloudy"
"-125.77","49.08","TOFINO A","1038204","2018-03-28 17:00","2018","03","28","17:00","8.1","","4.0","","76","","","","29","","26","","24.1","","102.66","","","","","","NA"
"-125.77","49.08","TOFINO A","1038204","2018-03-28 18:00","2018","03","28","18:00"
"-125.77","49.08","TOFINO A","1038204","2018-03-28 19:00","2018","03","28","19:00"
"-125.77","49.08","TOFINO A","1038204","2018-03-28 20:00","2018","03","28","20:00"
"-125.77","49.08","TOFINO A","1038204","2018-03-28 21:00","2018","03","28","21:00"
"-125.77","49.08","TOFINO A","1038204","2018-03-28 22:00","2018","03","28","22:00"
"-125.77","49.08","TOFINO A","1038204","2018-03-28 23:00","2018","03","28","23:00"
"-125.77","49.08","TOFINO A","1038204","2018-03-29 00:00","2018","03","29","00:00"
"-125.77","49.08","TOFINO A","1038204","2018-03-29 01:00","2018","03","29","01:00"
"-125.77","49.08","TOFINO A","1038204","2018-03-29 02:00","2018","03","29","02:00"
"-125.77","49.08","TOFINO A","1038204","2018-03-29 03:00","2018","03","29","03:00"
"-125.77","49.08","TOFINO A","1038204","2018-03-29 04:00","2018","03","29","04:00"
"-125.77","49.08","TOFINO A","1038204","2018-03-29 05:00","2018","03","29","05:00","5.7","","5.1","","96","","","","7","","9","","16.1","","102.49","","","","","","Rain"
"-125.77","49.08","TOFINO A","1038204","2018-03-29 06:00","2018","03","29","06:00","5.8","","5.2","","96","","","","6","","8","","16.1","","102.45","","","","","","Rain"
"-125.77","49.08","TOFINO A","1038204","2018-03-29 07:00","2018","03","29","07:00","5.8","","5.3","","97","","","","36","","3","","3.2","","102.46","","","","","","Rain,Drizzle"
"-125.77","49.08","TOFINO A","1038204","2018-03-29 08:00","2018","03","29","08:00","6.1","","5.6","","97","","","","6","","3","","16.1","","102.45","","","","","","Rain"
"-125.77","49.08","TOFINO A","1038204","2018-03-29 09:00","2018","03","29","09:00","6.6","","6.0","","96","","","","7","","7","","24.1","","102.43","","","","","","Rain"
"-125.77","49.08","TOFINO A","1038204","2018-03-29 10:00","2018","03","29","10:00","7.3","","6.7","","96","","","","13","","4","","24.1","","102.43","","","","","","Rain"
"-125.77","49.08","TOFINO A","1038204","2018-03-29 11:00","2018","03","29","11:00","7.5","","6.8","","95","","","","15","","4","","4.8","","102.43","","","","","","Rain,Fog"
"-125.77","49.08","TOFINO A","1038204","2018-03-29 12:00","2018","03","29","12:00","8.0","","7.3","","95","","","","14","","10","","4.0","","102.36","","","","","","Rain,Drizzle"
"-125.77","49.08","TOFINO A","1038204","2018-03-29 13:00","2018","03","29","13:00","8.3","","7.8","","97","","","","21","","9","","2.4","","102.33","","","","","","Drizzle"
"-125.77","49.08","TOFINO A","1038204","2018-03-29 14:00","2018","03","29","14:00","8.7","","8.1","","96","","","","28","","15","","4.8","","102.29","","","","","","Rain"
"-125.77","49.08","TOFINO A","1038204","2018-03-29 15:00","2018","03","29","15:00","8.8","","7.8","","93","","","","28","","18","","16.1","","102.25","","","","","","NA"
"-125.77","49.08","TOFINO A","1038204","2018-03-29 16:00","2018","03","29","16:00","8.2","","7.3","","94","","","","26","","18","","4.0","","102.22","","","","","","Drizzle"
"-125.77","49.08","TOFINO A","1038204","2018-03-29 17:00","2018","03","29","17:00","8.3","","7.5","","94","","","","29","","11","","16.1","","102.19","","","","","","NA"
"-125.77","49.08","TOFINO A","1038204","2018-03-29 18:00","2018","03","29","18:00"
"-125.77","49.08","TOFINO A","1038204","2018-03-29 19:00","2018","03","29","19:00"
"-125.77","49.08","TOFINO A","1038204","2018-03-29 20:00","2018","03","29","20:00"
"-125.77","49.08","TOFINO A","1038204","2018-03-29 21:00","2018","03","29","21:00"
"-125.77","49.08","TOFINO A","1038204","2018-03-29 22:00","2018","03","29","22:00"
"-125.77","49.08","TOFINO A","1038204","2018-03-29 23:00","2018","03","29","23:00"
"-125.77","49.08","TOFINO A","1038204","2018-03-30 00:00","2018","03","30","00:00"
"-125.77","49.08","TOFINO A","1038204","2018-03-30 01:00","2018","03","30","01:00"
"-125.77","49.08","TOFINO A","1038204","2018-03-30 02:00","2018","03","30","02:00"
"-125.77","49.08","TOFINO A","1038204","2018-03-30 03:00","2018","03","30","03:00"
"-125.77","49.08","TOFINO A","1038204","2018-03-30 04:00","2018","03","30","04:00"
"-125.77","49.08","TOFINO A","1038204","2018-03-30 05:00","2018","03","30","05:00","7.4","","6.9","","97","","","","31","","17","","8.1","","101.72","","","","","","Fog"
"-125.77","49.08","TOFINO A","1038204","2018-03-30 06:00","2018","03","30","06:00","6.8","","6.1","","95","","","","30","","18","","24.1","","101.74","","","","","","NA"
"-125.77","49.08","TOFINO A","1038204","2018-03-30 07:00","2018","03","30","07:00","6.6","","5.4","","92","","","","29","","14","","24.1","","101.79","","","","","","Mainly Clear"
"-125.77","49.08","TOFINO A","1038204","2018-03-30 08:00","2018","03","30","08:00","7.3","","5.5","","88","","","","30","","13","","24.1","","101.83","","","","","","NA"
"-125.77","49.08","TOFINO A","1038204","2018-03-30 09:00","2018","03","30","09:00","8.3","","5.6","","83","","","","29","","10","","24.1","","101.89","","","","","","NA"
"-125.77","49.08","TOFINO A","1038204","2018-03-30 10:00","2018","03","30","10:00","9.0","","5.9","","81","","","","20","","5","","24.1","","101.94","","","","","","Mostly Cloudy"
"-125.77","49.08","TOFINO A","1038204","2018-03-30 11:00","2018","03","30","11:00","9.3","","5.8","","79","","","","18","","8","","24.1","","101.98","","","","","","NA"
"-125.77","49.08","TOFINO A","1038204","2018-03-30 12:00","2018","03","30","12:00","9.7","","6.0","","77","","","","21","","11","","24.1","","102.00","","","","","","NA"
"-125.77","49.08","TOFINO A","1038204","2018-03-30 13:00","2018","03","30","13:00","11.0","","7.1","","76","","","","24","","15","","24.1","","102.03","","","","","","Mostly Cloudy"
"-125.77","49.08","TOFINO A","1038204","2018-03-30 14:00","2018","03","30","14:00","10.9","","6.4","","73","","","","24","","14","","24.1","","102.04","","","","","","NA"
"-125.77","49.08","TOFINO A","1038204","2018-03-30 15:00","2018","03","30","15:00","11.0","","5.6","","69","","","","28","","13","","24.1","","102.04","","","","","","NA"
"-125.77","49.08","TOFINO A","1038204","2018-03-30 16:00","2018","03","30","16:00","10.7","","4.8","","66","","","","29","","16","","24.1","","102.04","","","","","","Mainly Clear"
"-125.77","49.08","TOFINO A","1038204","2018-03-30 17:00","2018","03","30","17:00","10.3","","5.4","","71","","","","28","","9","","24.1","","102.01","","","","","","NA"
"-125.77","49.08","TOFINO A","1038204","2018-03-30 18:00","2018","03","30","18:00"
"-125.77","49.08","TOFINO A","1038204","2018-03-30 19:00","2018","03","30","19:00"
"-125.77","49.08","TOFINO A","1038204","2018-03-30 20:00","2018","03","30","20:00"
"-125.77","49.08","TOFINO A","1038204","2018-03-30 21:00","2018","03","30","21:00"
"-125.77","49.08","TOFINO A","1038204","2018-03-30 22:00","2018","03","30","22:00"
"-125.77","49.08","TOFINO A","1038204","2018-03-30 23:00","2018","03","30","23:00"
"-125.77","49.08","TOFINO A","1038204","2018-03-31 00:00","2018","03","31","00:00"
"-125.77","49.08","TOFINO A","1038204","2018-03-31 01:00","2018","03","31","01:00"
"-125.77","49.08","TOFINO A","1038204","2018-03-31 02:00","2018","03","31","02:00"
"-125.77","49.08","TOFINO A","1038204","2018-03-31 03:00","2018","03","31","03:00"
"-125.77","49.08","TOFINO A","1038204","2018-03-31 04:00","2018","03","31","04:00"
"-125.77","49.08","TOFINO A","1038204","2018-03-31 05:00","2018","03","31","05:00","4.7","","4.2","","97","","","","3","","7","","24.1","","102.08","","","","","","NA"
"-125.77","49.08","TOFINO A","1038204","2018-03-31 06:00","2018","03","31","06:00","4.5","","4.0","","97","","","","3","","7","","24.1","","102.07","","","","","","NA"
"-125.77","49.08","TOFINO A","1038204","2018-03-31 07:00","2018","03","31","07:00","4.5","","4.0","","97","","","","6","","4","","24.1","","102.09","","","","","","Mostly Cloudy"
"-125.77","49.08","TOFINO A","1038204","2018-03-31 08:00","2018","03","31","08:00","6.2","","5.8","","97","","","","7","","4","","24.1","","102.08","","","","","","NA"
"-125.77","49.08","TOFINO A","1038204","2018-03-31 09:00","2018","03","31","09:00","7.9","","6.2","","89","","","","15","","4","","24.1","","102.08","","","","","","NA"
"-125.77","49.08","TOFINO A","1038204","2018-03-31 10:00","2018","03","31","10:00","8.8","","5.4","","79","","","","16","","8","","24.1","","102.11","","","","","","Mostly Cloudy"
"-125.77","49.08","TOFINO A","1038204","2018-03-31 11:00","2018","03","31","11:00","9.8","","5.7","","75","","","","17","","15","","24.1","","102.12","","","","","","NA"
"-125.77","49.08","TOFINO A","1038204","2018-03-31 12:00","2018","03","31","12:00","9.7","","6.2","","78","","","","16","","13","","24.1","","102.12","","","","","","NA"
"-125.77","49.08","TOFINO A","1038204","2018-03-31 13:00","2018","03","31","13:00","9.6","","6.1","","79","","","","19","","11","","24.1","","102.09","","","","","","Mostly Cloudy"
"-125.77","49.08","TOFINO A","1038204","2018-03-31 14:00","2018","03","31","14:00","9.0","","5.5","","79","","","","20","","10","","24.1","","102.03","","","","","","NA"
"-125.77","49.08","TOFINO A","1038204","2018-03-31 15:00","2018","03","31","15:00","10.2","","6.9","","80","","","","19","","8","","24.1","","101.96","","","","","","NA"
"-125.77","49.08","TOFINO A","1038204","2018-03-31 16:00","2018","03","31","16:00","8.9","","5.5","","79","","","","21","","9","","24.1","","101.88","","","","","","Mostly Cloudy"
"-125.77","49.08","TOFINO A","1038204","2018-03-31 17:00","2018","03","31","17:00","8.3","","5.3","","81","","","","19","","7","","24.1","","101.83","","","","","","NA"
"-125.77","49.08","TOFINO A","1038204","2018-03-31 18:00","2018","03","31","18:00"
"-125.77","49.08","TOFINO A","1038204","2018-03-31 19:00","2018","03","31","19:00"
"-125.77","49.08","TOFINO A","1038204","2018-03-31 20:00","2018","03","31","20:00"
"-125.77","49.08","TOFINO A","1038204","2018-03-31 21:00","2018","03","31","21:00"
"-125.77","49.08","TOFINO A","1038204","2018-03-31 22:00","2018","03","31","22:00"
"-125.77","49.08","TOFINO A","1038204","2018-03-31 23:00","2018","03","31","23:00"
