"Longitude (x)","Latitude (y)","Station Name","Climate ID","Date/Time (LST)","Year","Month","Day","Time (LST)","Temp (°C)","Temp Flag","Dew Point Temp (°C)","Dew Point Temp Flag","Rel Hum (%)","Rel Hum Flag","Precip. Amount (mm)","Precip. Amount Flag","Wind Dir (10s deg)","Wind Dir Flag","Wind Spd (km/h)","Wind Spd Flag","Visibility (km)","Visibility Flag","Stn Press (kPa)","Stn Press Flag","Hmdx","Hmdx Flag","Wind Chill","Wind Chill Flag","Weather"
"-94.97","74.72","RESOLUTE BAY A","2403497","2019-01-01 00:00","2019","01","01","00:00","-22.2","","-24.9","","79","","","M","12","","40","","","M","100.27","","","","-37","","NA"
"-94.97","74.72","RESOLUTE BAY A","2403497","2019-01-01 01:00","2019","01","01","01:00","-21.8","","-24.6","","78","","","M","10","","46","","","M","100.27","","","","-37","","NA"
"-94.97","74.72","RESOLUTE BAY A","2403497","2019-01-01 02:00","2019","01","01","02:00","-22.4","","-25.1","","79","","","M","12","","30","","","M","100.29","","","","-36","","NA"
"-94.97","74.72","RESOLUTE BAY A","2403497","2019-01-01 03:00","2019","01","01","03:00","-21.7","","-24.4","","79","","","M","12","","36","","","M","100.28","","","","-36","","NA"
"-94.97","74.72","RESOLUTE BAY A","2403497","2019-01-01 04:00","2019","01","01","04:00","-21.7","","-24.5","","79","","","M","11","","40","","","M","100.23","","","","-36","","NA"
"-94.97","74.72","RESOLUTE BAY A","2403497","2019-01-01 05:00","2019","01","01","05:00","-21.9","","-24.6","","79","","","M","13","","35","","","M","100.18","","","","-36","","NA"
"-94.97","74.72","RESOLUTE BAY A","2403497","2019-01-01 06:00","2019","01","01","06:00","-21.6","","-24.2","","80","","","M","11","","35","","","M","100.10","","","","-36","","NA"
"-94.97","74.72","RESOLUTE BAY A","2403497","2019-01-01 07:00","2019","01","01","07:00","-21.3","","-24.0","","79","","","M","11","","37","","","M","100.00","","","","-35","","NA"
"-94.97","74.72","RESOLUTE BAY A","2403497","2019-01-01 08:00","2019","01","01","08:00","-21.7","","-24.5","","78","","","M","13","","31","","","M","99.99","","","","-35","","NA"
"-94.97","74.72","RESOLUTE BAY A","2403497","2019-01-01 09:00","2019","01","01","09:00","-22.1","","-24.8","","79","","","M","12","","27","","","M","100.05","","","","-35","","NA"
"-94.97","74.72","RESOLUTE BAY A","2403497","2019-01-01 10:00","2019","01","01","10:00","-21.8","","-24.7","","78","","","M","12","","37","","","M","99.94","","","","-36","","NA"
"-94.97","74.72","RESOLUTE BAY A","2403497","2019-01-01 11:00","2019","01","01","11:00","-22.3","","-25.0","","79","","","M","12","","34","","","M","99.93","","","","-36","","NA"
"-94.97","74.72","RESOLUTE BAY A","2403497","2019-01-01 12:00","2019","01","01","12:00","-22.7","","-25.9","","76","","","M","12","","25","","","M","99.85","","","","-35","","NA"
"-94.97","74.72","RESOLUTE BAY A","2403497","2019-01-01 13:00","2019","01","01","13:00","-24.2","","-26.9","","79","","","M","13","","21","","","M","99.78","","","","-36","","NA"
"-94.97","74.72","RESOLUTE BAY A","2403497","2019-01-01 14:00","2019","01","01","14:00","-23.8","","-26.4","","80","","","M","14","","20","","","M","99.78","","","","-35","","NA"
"-94.97","74.72","RESOLUTE BAY A","2403497","2019-01-01 15:00","2019","01","01","15:00","-23.8","","-26.6","","78","","","M","12","","17","","","M","99.76","","","","-34","","NA"
"-94.97","74.72","RESOLUTE BAY A","2403497","2019-01-01 16:00","2019","01","01","16:00","-24.5","","-27.3","","78","","","M","12","","17","","","M","99.73","","","","-35","","NA"
"-94.97","74.72","RESOLUTE BAY A","2403497","2019-01-01 17:00","2019","01","01","17:00","-23.9","","-26.8","","77","","","M","12","","16","","","M","99.67","","","","-34","","NA"
"-94.97","74.72","RESOLUTE BAY A","2403497","2019-01-01 18:00","2019","01","01","18:00","-23.5","","-26.3","","78","","","M","12","","17","","","M","99.60","","","","-34","","NA"
"-94.97","74.72","RESOLUTE BAY A","2403497","2019-01-01 19:00","2019","01","01","19:00","-23.8","","-26.5","","78","","","M","14","","21","","","M","99.51","","","","-36","","NA"
"-94.97","74.72","RESOLUTE BAY A","2403497","2019-01-01 20:00","2019","01","01","20:00","-25.3","","-28.2","","77","","","M","13","","16","","","M","99.48","","","","-36","","NA"
"-94.97","74.72","RESOLUTE BAY A","2403497","2019-01-01 21:00","2019","01","01","21:00","-24.4","","-27.1","","79","","","M","14","","18","","","M","99.45","","","","-35","","NA"
"-94.97","74.72","RESOLUTE BAY A","2403497","2019-01-01 22:00","2019","01","01","22:00","-24.1","","-26.4","","82","","","M","12","","21","","","M","99.41","","","","-36","","NA"
"-94.97","74.72","RESOLUTE BAY A","2403497","2019-01-01 23:00","2019","01","01","23:00","-24.0","","-26.4","","81","","","M","13","","21","","","M","99.38","","","","-36","","NA"
"-94.97","74.72","RESOLUTE BAY A","2403497","2019-01-02 00:00","2019","01","02","00:00","-23.8","","-26.4","","80","","","M","12","","27","","","M","99.30","","","","-37","","NA"
"-94.97","74.72","RESOLUTE BAY A","2403497","2019-01-02 01:00","2019","01","02","01:00","-23.9","","-26.5","","79","","","M","12","","24","","","M","99.28","","","","-36","","NA"
"-94.97","74.72","RESOLUTE BAY A","2403497","2019-01-02 02:00","2019","01","02","02:00","-23.9","","-26.6","","79","","","M","13","","14","","","M","99.31","","","","-34","","NA"
"-94.97","74.72","RESOLUTE BAY A","2403497","2019-01-02 03:00","2019","01","02","03:00","-23.6","","-26.1","","80","","","M","13","","24","","","M","99.29","","","","-36","","NA"
"-94.97","74.72","RESOLUTE BAY A","2403497","2019-01-02 04:00","2019","01","02","04:00","-23.5","","-26.1","","80","","","M","13","","21","","","M","99.30","","","","-35","","NA"
"-94.97","74.72","RESOLUTE BAY A","2403497","2019-01-02 05:00","2019","01","02","05:00","-23.1","","-25.6","","80","","","M","12","","19","","","M","99.28","","","","-34","","NA"
"-94.97","74.72","RESOLUTE BAY A","2403497","2019-01-02 06:00","2019","01","02","06:00","-23.1","","-25.7","","80","","","M","13","","18","","","M","99.27","","","","-34","","NA"
"-94.97","74.72","RESOLUTE BAY A","2403497","2019-01-02 07:00","2019","01","02","07:00","-22.9","","-25.4","","80","","","M","12","","13","","","M","99.28","","","","-32","","NA"
"-94.97","74.72","RESOLUTE BAY A","2403497","2019-01-02 08:00","2019","01","02","08:00","-24.5","","-27.3","","78","","","M","13","","15","","","M","99.28","","","","-35","","NA"
"-94.97","74.72","RESOLUTE BAY A","2403497","2019-01-02 09:00","2019","01","02","09:00","-24.6","","-27.4","","78","","","M","12","","18","","","M","99.27","","","","-36","","NA"
"-94.97","74.72","RESOLUTE BAY A","2403497","2019-01-02 10:00","2019","01","02","10:00","-24.6","","-27.6","","77","","","M","13","","15","","","M","99.25","","","","-35","","NA"
"-94.97","74.72","RESOLUTE BAY A","2403497","2019-01-02 11:00","2019","01","02","11:00","-24.6","","-27.6","","77","","","M","15","","10","","","M","99.26","","","","-33","","NA"
"-94.97","74.72","RESOLUTE BAY A","2403497","2019-01-02 12:00","2019","01","02","12:00","-24.5","","-27.5","","77","","","M","11","","10","","","M","99.29","","","","-33","","NA"
"-94.97","74.72","RESOLUTE BAY A","2403497","2019-01-02 13:00","2019","01","02","13:00","-24.7","","-27.7","","77","","","M","11","","13","","","M","99.31","","","","-34","","NA"
"-94.97","74.72","RESOLUTE BAY A","2403497","2019-01-02 14:00","2019","01","02","14:00","-23.5","","-26.4","","77","","","M","13","","8","","","M","99.33","","","","-30","","NA"
"-94.97","74.72","RESOLUTE BAY A","2403497","2019-01-02 15:00","2019","01","02","15:00","-24.0","","-27.0","","77","","","M","12","","9","","","M","99.36","","","","-31","","NA"
"-94.97","74.72","RESOLUTE BAY A","2403497","2019-01-02 16:00","2019","01","02","16:00","-24.9","","-28.0","","75","","","M","10","","15","","","M","99.40","","","","-35","","NA"
"-94.97","74.72","RESOLUTE BAY A","2403497","2019-01-02 17:00","2019","01","02","17:00","-24.0","","-27.1","","76","","","M","11","","13","","","M","99.40","","","","-33","","NA"
"-94.97","74.72","RESOLUTE BAY A","2403497","2019-01-02 18:00","2019","01","02","18:00","-23.5","","-26.8","","75","","","M","9","","15","","","M","99.41","","","","-33","","NA"
"-94.97","74.72","RESOLUTE BAY A","2403497","2019-01-02 19:00","2019","01","02","19:00","-24.0","","-27.1","","76","","","M","12","","19","","","M","99.42","","","","-35","","NA"
"-94.97","74.72","RESOLUTE BAY A","2403497","2019-01-02 20:00","2019","01","02","20:00","-24.0","","-27.0","","77","","","M","12","","14","","","M","99.41","","","","-34","","NA"
"-94.97","74.72","RESOLUTE BAY A","2403497","2019-01-02 21:00","2019","01","02","21:00","-23.7","","-26.8","","76","","","M","11","","20","","","M","99.43","","","","-35","","NA"
"-94.97","74.72","RESOLUTE BAY A","2403497","2019-01-02 22:00","2019","01","02","22:00","-23.9","","-27.7","","72","","","M","11","","17","","","M","99.46","","","","-35","","NA"
"-94.97","74.72","RESOLUTE BAY A","2403497","2019-01-02 23:00","2019","01","02","23:00","-24.8","","-27.9","","76","","","M","13","","30","","","M","99.47","","","","-39","","NA"
"-94.97","74.72","RESOLUTE BAY A","2403497","2019-01-03 00:00","2019","01","03","00:00","-24.7","","-27.7","","76","","","M","12","","27","","","M","99.49","","","","-38","","NA"
"-94.97","74.72","RESOLUTE BAY A","2403497","2019-01-03 01:00","2019","01","03","01:00","-23.3","","-26.1","","78","","","M","12","","25","","","M","99.51","","","","-36","","NA"
"-94.97","74.72","RESOLUTE BAY A","2403497","2019-01-03 02:00","2019","01","03","02:00","-23.6","","-26.4","","78","","","M","11","","17","","","M","99.55","","","","-34","","NA"
"-94.97","74.72","RESOLUTE BAY A","2403497","2019-01-03 03:00","2019","01","03","03:00","-23.4","","-25.8","","81","","","M","10","","21","","","M","99.55","","","","-35","","NA"
"-94.97","74.72","RESOLUTE BAY A","2403497","2019-01-03 04:00","2019","01","03","04:00","-23.4","","-25.8","","81","","","M","10","","16","","","M","99.56","","","","-34","","NA"
"-94.97","74.72","RESOLUTE BAY A","2403497","2019-01-03 05:00","2019","01","03","05:00","-23.6","","-26.4","","79","","","M","11","","26","","","M","99.56","","","","-36","","NA"
"-94.97","74.72","RESOLUTE BAY A","2403497","2019-01-03 06:00","2019","01","03","06:00","-24.5","","-27.4","","77","","","M","13","","20","","","M","99.57","","","","-36","","NA"
"-94.97","74.72","RESOLUTE BAY A","2403497","2019-01-03 07:00","2019","01","03","07:00","-25.4","","-28.4","","76","","","M","12","","13","","","M","99.58","","","","-35","","NA"
"-94.97","74.72","RESOLUTE BAY A","2403497","2019-01-03 08:00","2019","01","03","08:00","-25.5","","-28.4","","77","","","M","9","","14","","","M","99.58","","","","-35","","NA"
"-94.97","74.72","RESOLUTE BAY A","2403497","2019-01-03 09:00","2019","01","03","09:00","-25.4","","-28.4","","76","","","M","10","","9","","","M","99.58","","","","-33","","NA"
"-94.97","74.72","RESOLUTE BAY A","2403497","2019-01-03 10:00","2019","01","03","10:00","-25.3","","-28.2","","77","","","M","10","","10","","","M","99.60","","","","-34","","NA"
"-94.97","74.72","RESOLUTE BAY A","2403497","2019-01-03 11:00","2019","01","03","11:00","-26.7","","-29.7","","76","","","M","7","","4","","","M","99.64","","","","-31","","NA"
"-94.97","74.72","RESOLUTE BAY A","2403497","2019-01-03 12:00","2019","01","03","12:00","-26.4","","-29.1","","78","","","M","8","","16","","","M","99.67","","","","-37","","NA"
"-94.97","74.72","RESOLUTE BAY A","2403497","2019-01-03 13:00","2019","01","03","13:00","-26.5","","-29.3","","78","","","M","8","","10","","","M","99.68","","","","-35","","NA"
"-94.97","74.72","RESOLUTE BAY A","2403497","2019-01-03 14:00","2019","01","03","14:00","-26.8","","-29.7","","77","","","M","9","","8","","","M","99.72","","","","-34","","NA"
"-94.97","74.72","RESOLUTE BAY A","2403497","2019-01-03 15:00","2019","01","03","15:00","-25.5","","-28.1","","79","","","M","9","","5","","","M","99.75","","","","-31","","NA"
"-94.97","74.72","RESOLUTE BAY A","2403497","2019-01-03 16:00","2019","01","03","16:00","-26.2","","-29.0","","78","","","M","9","","4","","","M","99.78","","","","-30","","NA"
"-94.97","74.72","RESOLUTE BAY A","2403497","2019-01-03 17:00","2019","01","03","17:00","-26.5","","-29.4","","77","","","M","34","","3","","","M","99.80","","","","-30","","NA"
"-94.97","74.72","RESOLUTE BAY A","2403497","2019-01-03 18:00","2019","01","03","18:00","-27.2","","-30.3","","76","","","M","2","","7","","","M","99.81","","","","-34","","NA"
"-94.97","74.72","RESOLUTE BAY A","2403497","2019-01-03 19:00","2019","01","03","19:00","-28.7","","-31.9","","74","","","M","34","","12","","","M","99.80","","","","-39","","NA"
"-94.97","74.72","RESOLUTE BAY A","2403497","2019-01-03 20:00","2019","01","03","20:00","-28.0","","-31.2","","75","","","M","34","","14","","","M","99.81","","","","-39","","NA"
"-94.97","74.72","RESOLUTE BAY A","2403497","2019-01-03 21:00","2019","01","03","21:00","-28.6","","-31.9","","74","","","M","34","","9","","","M","99.81","","","","-37","","NA"
"-94.97","74.72","RESOLUTE BAY A","2403497","2019-01-03 22:00","2019","01","03","22:00","-28.3","","-31.6","","74","","","M","33","","7","","","M","99.83","","","","-35","","NA"
"-94.97","74.72","RESOLUTE BAY A","2403497","2019-01-03 23:00","2019","01","03","23:00","-29.6","","-33.0","","73","","","M","27","","4","","","M","99.82","","","","-34","","NA"
"-94.97","74.72","RESOLUTE BAY A","2403497","2019-01-04 00:00","2019","01","04","00:00","-28.7","","-32.0","","74","","","M","33","","14","","","M","99.79","","","","-39","","NA"
"-94.97","74.72","RESOLUTE BAY A","2403497","2019-01-04 01:00","2019","01","04","01:00","-32.6","","-36.3","","71","","","M","32","","9","","","M","99.81","","","","-42","","NA"
"-94.97","74.72","RESOLUTE BAY A","2403497","2019-01-04 02:00","2019","01","04","02:00","-26.3","","-29.4","","76","","","M","4","","15","","","M","99.80","","","","-37","","NA"
"-94.97","74.72","RESOLUTE BAY A","2403497","2019-01-04 03:00","2019","01","04","03:00","-26.1","","-29.1","","76","","","M","35","","6","","","M","99.77","","","","-32","","NA"
"-94.97","74.72","RESOLUTE BAY A","2403497","2019-01-04 04:00","2019","01","04","04:00","-26.9","","-30.0","","76","","","M","5","","21","","","M","99.76","","","","-39","","NA"
"-94.97","74.72","RESOLUTE BAY A","2403497","2019-01-04 05:00","2019","01","04","05:00","-28.6","","-31.9","","74","","","M","5","","16","","","M","99.71","","","","-40","","NA"
"-94.97","74.72","RESOLUTE BAY A","2403497","2019-01-04 06:00","2019","01","04","06:00","-32.5","","-36.0","","71","","","M","31","","19","","","M","99.64","","","","-46","","NA"
"-94.97","74.72","RESOLUTE BAY A","2403497","2019-01-04 07:00","2019","01","04","07:00","-29.9","","-33.3","","73","","","M","1","","18","","","M","99.59","","","","-42","","NA"
"-94.97","74.72","RESOLUTE BAY A","2403497","2019-01-04 08:00","2019","01","04","08:00","-30.0","","-33.4","","73","","","M","1","","13","","","M","99.54","","","","-41","","NA"
"-94.97","74.72","RESOLUTE BAY A","2403497","2019-01-04 09:00","2019","01","04","09:00","-32.7","","-36.3","","71","","","M","34","","25","","","M","99.47","","","","-48","","NA"
"-94.97","74.72","RESOLUTE BAY A","2403497","2019-01-04 10:00","2019","01","04","10:00","-31.9","","-35.4","","72","","","M","33","","19","","","M","99.43","","","","-45","","NA"
"-94.97","74.72","RESOLUTE BAY A","2403497","2019-01-04 11:00","2019","01","04","11:00","-32.0","","-35.6","","71","","","M","3","","24","","","M","99.43","","","","-47","","NA"
"-94.97","74.72","RESOLUTE BAY A","2403497","2019-01-04 12:00","2019","01","04","12:00","-34.0","","-37.7","","70","","","M","36","","16","","","M","99.38","","","","-47","","NA"
"-94.97","74.72","RESOLUTE BAY A","2403497","2019-01-04 13:00","2019","01","04","13:00","-35.8","","-39.6","","69","","","M","33","","18","","","M","99.32","","","","-50","","NA"
"-94.97","74.72","RESOLUTE BAY A","2403497","2019-01-04 14:00","2019","01","04","14:00","-36.6","","-40.5","","68","","","M","34","","14","","","M","99.28","","","","-49","","NA"
"-94.97","74.72","RESOLUTE BAY A","2403497","2019-01-04 15:00","2019","01","04","15:00","-34.5","","-38.2","","70","","","M","36","","16","","","M","99.23","","","","-47","","NA"
"-94.97","74.72","RESOLUTE BAY A","2403497","2019-01-04 16:00","2019","01","04","16:00","-37.9","","-41.9","","67","","","M","32","","19","","","M","99.21","","","","-53","","NA"
"-94.97","74.72","RESOLUTE BAY A","2403497","2019-01-04 17:00","2019","01","04","17:00","-38.5","","-42.5","","67","","","M","32","","18","","","M","99.14","","","","-53","","NA"
"-94.97","74.72","RESOLUTE BAY A","2403497","2019-01-04 18:00","2019","01","04","18:00","-37.6","","-41.6","","67","","","M","32","","18","","","M","99.15","","","","-52","","NA"
"-94.97","74.72","RESOLUTE BAY A","2403497","2019-01-04 19:00","2019","01","04","19:00","-38.8","","-42.9","","66","","","M","30","","19","","","M","99.16","","","","-54","","NA"
"-94.97","74.72","RESOLUTE BAY A","2403497","2019-01-04 20:00","2019","01","04","20:00","-38.8","","-42.9","","66","","","M","31","","23","","","M","99.12","","","","-55","","NA"
"-94.97","74.72","RESOLUTE BAY A","2403497","2019-01-04 21:00","2019","01","04","21:00","-38.5","","-42.6","","66","","","M","32","","26","","","M","99.11","","","","-56","","NA"
"-94.97","74.72","RESOLUTE BAY A","2403497","2019-01-04 22:00","2019","01","04","22:00","-38.1","","-42.2","","67","","","M","32","","25","","","M","99.10","","","","-55","","NA"
"-94.97","74.72","RESOLUTE BAY A","2403497","2019-01-04 23:00","2019","01","04","23:00","-38.1","","-42.2","","67","","","M","31","","24","","","M","99.11","","","","-55","","NA"
"-94.97","74.72","RESOLUTE BAY A","2403497","2019-01-05 00:00","2019","01","05","00:00","-38.1","","-42.2","","67","","","M","32","","25","","","M","99.14","","","","-55","","NA"
"-94.97","74.72","RESOLUTE BAY A","2403497","2019-01-05 01:00","2019","01","05","01:00","-37.4","","-41.4","","67","","","M","32","","16","","","M","99.18","","","","-51","","NA"
"-94.97","74.72","RESOLUTE BAY A","2403497","2019-01-05 02:00","2019","01","05","02:00","-36.9","","-40.9","","67","","","M","32","","21","","","M","99.16","","","","-52","","NA"
"-94.97","74.72","RESOLUTE BAY A","2403497","2019-01-05 03:00","2019","01","05","03:00","-36.1","","-40.0","","68","","","M","33","","22","","","M","99.20","","","","-51","","NA"
"-94.97","74.72","RESOLUTE BAY A","2403497","2019-01-05 04:00","2019","01","05","04:00","-35.9","","-39.8","","68","","","M","32","","19","","","M","99.25","","","","-50","","NA"
"-94.97","74.72","RESOLUTE BAY A","2403497","2019-01-05 05:00","2019","01","05","05:00","-35.3","","-39.2","","69","","","M","34","","16","","","M","99.29","","","","-48","","NA"
"-94.97","74.72","RESOLUTE BAY A","2403497","2019-01-05 06:00","2019","01","05","06:00","-34.9","","-38.8","","69","","","M","32","","18","","","M","99.34","","","","-49","","NA"
"-94.97","74.72","RESOLUTE BAY A","2403497","2019-01-05 07:00","2019","01","05","07:00","-34.6","","-38.5","","69","","","M","32","","17","","","M","99.36","","","","-48","","NA"
"-94.97","74.72","RESOLUTE BAY A","2403497","2019-01-05 08:00","2019","01","05","08:00","-34.2","","-38.0","","69","","","M","34","","16","","","M","99.40","","","","-47","","NA"
"-94.97","74.72","RESOLUTE BAY A","2403497","2019-01-05 09:00","2019","01","05","09:00","-34.0","","-37.8","","69","","","M","33","","10","","","M","99.43","","","","-44","","NA"
"-94.97","74.72","RESOLUTE BAY A","2403497","2019-01-05 10:00","2019","01","05","10:00","-33.3","","-37.1","","70","","","M","33","","14","","","M","99.44","","","","-45","","NA"
"-94.97","74.72","RESOLUTE BAY A","2403497","2019-01-05 11:00","2019","01","05","11:00","-33.0","","-36.7","","70","","","M","31","","7","","","M","99.48","","","","-41","","NA"
"-94.97","74.72","RESOLUTE BAY A","2403497","2019-01-05 12:00","2019","01","05","12:00","-31.9","","-35.5","","71","","","M","4","","3","","","M","99.58","","","","-35","","NA"
"-94.97","74.72","RESOLUTE BAY A","2403497","2019-01-05 13:00","2019","01","05","13:00","-29.9","","-33.4","","73","","","M","33","","10","","","M","99.58","","","","-39","","NA"
"-94.97","74.72","RESOLUTE BAY A","2403497","2019-01-05 14:00","2019","01","05","14:00","-29.9","","-33.4","","72","","","M","33","","10","","","M","99.63","","","","-39","","NA"
"-94.97","74.72","RESOLUTE BAY A","2403497","2019-01-05 15:00","2019","01","05","15:00","-29.6","","-33.1","","73","","","M","2","","4","","","M","99.73","","","","-34","","NA"
"-94.97","74.72","RESOLUTE BAY A","2403497","2019-01-05 16:00","2019","01","05","16:00","-31.0","","-34.6","","72","","","M","36","","7","","","M","99.77","","","","-38","","NA"
"-94.97","74.72","RESOLUTE BAY A","2403497","2019-01-05 17:00","2019","01","05","17:00","-29.0","","-32.4","","73","","","M","6","","3","","","M","99.82","","","","-32","","NA"
"-94.97","74.72","RESOLUTE BAY A","2403497","2019-01-05 18:00","2019","01","05","18:00","-30.5","","-34.0","","72","","","M","7","","3","","","M","99.85","","","","-34","","NA"
"-94.97","74.72","RESOLUTE BAY A","2403497","2019-01-05 19:00","2019","01","05","19:00","-30.1","","-33.5","","72","","","M","8","","13","","","M","99.93","","","","-41","","NA"
"-94.97","74.72","RESOLUTE BAY A","2403497","2019-01-05 20:00","2019","01","05","20:00","-30.2","","-33.6","","72","","","M","13","","8","","","M","99.96","","","","-38","","NA"
"-94.97","74.72","RESOLUTE BAY A","2403497","2019-01-05 21:00","2019","01","05","21:00","-29.1","","-32.5","","73","","","M","11","","21","","","M","100.01","","","","-42","","NA"
"-94.97","74.72","RESOLUTE BAY A","2403497","2019-01-05 22:00","2019","01","05","22:00","-28.4","","-31.7","","74","","","M","12","","23","","","M","100.03","","","","-42","","NA"
"-94.97","74.72","RESOLUTE BAY A","2403497","2019-01-05 23:00","2019","01","05","23:00","-27.9","","-31.2","","74","","","M","12","","27","","","M","100.06","","","","-42","","NA"
"-94.97","74.72","RESOLUTE BAY A","2403497","2019-01-06 00:00","2019","01","06","00:00","-27.2","","-30.5","","75","","","M","9","","32","","","M","100.12","","","","-42","","NA"
"-94.97","74.72","RESOLUTE BAY A","2403497","2019-01-06 01:00","2019","01","06","01:00","-27.4","","-30.6","","75","","","M","9","","34","","","M","100.16","","","","-43","","NA"
"-94.97","74.72","RESOLUTE BAY A","2403497","2019-01-06 02:00","2019","01","06","02:00","-27.1","","-30.3","","75","","","M","9","","32","","","M","100.20","","","","-42","","NA"
"-94.97","74.72","RESOLUTE BAY A","2403497","2019-01-06 03:00","2019","01","06","03:00","-27.3","","-30.6","","75","","","M","11","","31","","","M","100.26","","","","-42","","NA"
"-94.97","74.72","RESOLUTE BAY A","2403497","2019-01-06 04:00","2019","01","06","04:00","-27.2","","-30.4","","75","","","M","11","","35","","","M","100.29","","","","-43","","NA"
"-94.97","74.72","RESOLUTE BAY A","2403497","2019-01-06 05:00","2019","01","06","05:00","-27.6","","-30.8","","75","","","M","12","","25","","","M","100.35","","","","-41","","NA"
"-94.97","74.72","RESOLUTE BAY A","2403497","2019-01-06 06:00","2019","01","06","06:00","-27.5","","-30.8","","74","","","M","11","","16","","","M","100.40","","","","-39","","NA"
"-94.97","74.72","RESOLUTE BAY A","2403497","2019-01-06 07:00","2019","01","06","07:00","-27.1","","-30.3","","75","","","M","7","","18","","","M","100.42","","","","-39","","NA"
"-94.97","74.72","RESOLUTE BAY A","2403497","2019-01-06 08:00","2019","01","06","08:00","-27.2","","-30.4","","75","","","M","8","","30","","","M","100.42","","","","-42","","NA"
"-94.97","74.72","RESOLUTE BAY A","2403497","2019-01-06 09:00","2019","01","06","09:00","-27.9","","-31.2","","74","","","M","6","","28","","","M","100.43","","","","-42","","NA"
"-94.97","74.72","RESOLUTE BAY A","2403497","2019-01-06 10:00","2019","01","06","10:00","-28.1","","-31.4","","74","","","M","5","","39","","","M","100.41","","","","-45","","NA"
"-94.97","74.72","RESOLUTE BAY A","2403497","2019-01-06 11:00","2019","01","06","11:00","-27.0","","-30.2","","75","","","M","5","","47","","","M","100.35","","","","-45","","NA"
"-94.97","74.72","RESOLUTE BAY A","2403497","2019-01-06 12:00","2019","01","06","12:00","-26.7","","-29.9","","75","","","M","5","","42","","","M","100.37","","","","-43","","NA"
"-94.97","74.72","RESOLUTE BAY A","2403497","2019-01-06 13:00","2019","01","06","13:00","-26.6","","-29.7","","75","","","M","4","","32","","","M","100.36","","","","-42","","NA"
"-94.97","74.72","RESOLUTE BAY A","2403497","2019-01-06 14:00","2019","01","06","14:00","-28.4","","-31.7","","74","","","M","3","","27","","","M","100.38","","","","-43","","NA"
"-94.97","74.72","RESOLUTE BAY A","2403497","2019-01-06 15:00","2019","01","06","15:00","-25.4","","-28.5","","76","","","M","5","","25","","","M","100.36","","","","-39","","NA"
"-94.97","74.72","RESOLUTE BAY A","2403497","2019-01-06 16:00","2019","01","06","16:00","-24.7","","-27.7","","77","","","M","5","","38","","","M","100.33","","","","-40","","NA"
"-94.97","74.72","RESOLUTE BAY A","2403497","2019-01-06 17:00","2019","01","06","17:00","-25.5","","-28.5","","76","","","M","1","","27","","","M","100.40","","","","-39","","NA"
"-94.97","74.72","RESOLUTE BAY A","2403497","2019-01-06 18:00","2019","01","06","18:00","-25.8","","-29.0","","75","","","M","1","","34","","","M","100.42","","","","-41","","NA"
"-94.97","74.72","RESOLUTE BAY A","2403497","2019-01-06 19:00","2019","01","06","19:00","-24.6","","-27.7","","76","","","M","2","","36","","","M","100.42","","","","-40","","NA"
"-94.97","74.72","RESOLUTE BAY A","2403497","2019-01-06 20:00","2019","01","06","20:00","-24.8","","-27.9","","76","","","M","1","","27","","","M","100.44","","","","-38","","NA"
"-94.97","74.72","RESOLUTE BAY A","2403497","2019-01-06 21:00","2019","01","06","21:00","-25.5","","-28.6","","76","","","M","3","","32","","","M","100.45","","","","-40","","NA"
"-94.97","74.72","RESOLUTE BAY A","2403497","2019-01-06 22:00","2019","01","06","22:00","-26.7","","-30.0","","75","","","M","3","","25","","","M","100.48","","","","-40","","NA"
"-94.97","74.72","RESOLUTE BAY A","2403497","2019-01-06 23:00","2019","01","06","23:00","-25.5","","-28.6","","76","","","M","3","","25","","","M","100.48","","","","-39","","NA"
"-94.97","74.72","RESOLUTE BAY A","2403497","2019-01-07 00:00","2019","01","07","00:00","-20.7","","-23.4","","79","","","M","7","","34","","","M","100.52","","","","-34","","NA"
"-94.97","74.72","RESOLUTE BAY A","2403497","2019-01-07 01:00","2019","01","07","01:00","-20.6","","-23.5","","78","","","M","6","","17","","","M","100.53","","","","-30","","NA"
"-94.97","74.72","RESOLUTE BAY A","2403497","2019-01-07 02:00","2019","01","07","02:00","-20.4","","-23.4","","78","","","M","6","","34","","","M","100.55","","","","-34","","NA"
"-94.97","74.72","RESOLUTE BAY A","2403497","2019-01-07 03:00","2019","01","07","03:00","-20.8","","-23.8","","77","","","M","5","","36","","","M","100.59","","","","-35","","NA"
"-94.97","74.72","RESOLUTE BAY A","2403497","2019-01-07 04:00","2019","01","07","04:00","-21.4","","-24.4","","77","","","M","4","","27","","","M","100.67","","","","-34","","NA"
"-94.97","74.72","RESOLUTE BAY A","2403497","2019-01-07 05:00","2019","01","07","05:00","-20.8","","-24.2","","74","","","M","5","","39","","","M","100.67","","","","-35","","NA"
"-94.97","74.72","RESOLUTE BAY A","2403497","2019-01-07 06:00","2019","01","07","06:00","-21.4","","-25.0","","73","","","M","3","","36","","","M","100.68","","","","-35","","NA"
"-94.97","74.72","RESOLUTE BAY A","2403497","2019-01-07 07:00","2019","01","07","07:00","-20.2","","-24.4","","70","","","M","5","","50","","","M","100.68","","","","-36","","NA"
"-94.97","74.72","RESOLUTE BAY A","2403497","2019-01-07 08:00","2019","01","07","08:00","-19.8","","-24.5","","67","","","M","5","","53","","","M","100.68","","","","-35","","NA"
"-94.97","74.72","RESOLUTE BAY A","2403497","2019-01-07 09:00","2019","01","07","09:00","-20.2","","-25.2","","65","","","M","6","","49","","","M","100.72","","","","-36","","NA"
"-94.97","74.72","RESOLUTE BAY A","2403497","2019-01-07 10:00","2019","01","07","10:00","-20.4","","-25.9","","62","","","M","6","","43","","","M","100.76","","","","-35","","NA"
"-94.97","74.72","RESOLUTE BAY A","2403497","2019-01-07 11:00","2019","01","07","11:00","-20.8","","-26.8","","60","","","M","7","","39","","","M","100.79","","","","-35","","NA"
"-94.97","74.72","RESOLUTE BAY A","2403497","2019-01-07 12:00","2019","01","07","12:00","-20.4","","-27.0","","56","","","M","8","","40","","","M","100.79","","","","-35","","NA"
"-94.97","74.72","RESOLUTE BAY A","2403497","2019-01-07 13:00","2019","01","07","13:00","-20.8","","-26.8","","59","","","M","7","","36","","","M","100.85","","","","-35","","NA"
"-94.97","74.72","RESOLUTE BAY A","2403497","2019-01-07 14:00","2019","01","07","14:00","-20.4","","-27.0","","56","","","M","7","","40","","","M","100.87","","","","-35","","NA"
"-94.97","74.72","RESOLUTE BAY A","2403497","2019-01-07 15:00","2019","01","07","15:00","-20.8","","-27.0","","58","","","M","3","","33","","","M","100.89","","","","-34","","NA"
"-94.97","74.72","RESOLUTE BAY A","2403497","2019-01-07 16:00","2019","01","07","16:00","-23.7","","-29.7","","59","","","M","4","","37","","","M","100.94","","","","-39","","NA"
"-94.97","74.72","RESOLUTE BAY A","2403497","2019-01-07 17:00","2019","01","07","17:00","-17.6","","-27.2","","44","","","M","8","","25","","","M","100.96","","","","-29","","NA"
"-94.97","74.72","RESOLUTE BAY A","2403497","2019-01-07 18:00","2019","01","07","18:00","-19.0","","-28.3","","44","","","M","32","","7","","","M","101.00","","","","-24","","NA"
"-94.97","74.72","RESOLUTE BAY A","2403497","2019-01-07 19:00","2019","01","07","19:00","-21.8","","-28.9","","54","","","M","4","","19","","","M","101.01","","","","-32","","NA"
"-94.97","74.72","RESOLUTE BAY A","2403497","2019-01-07 20:00","2019","01","07","20:00","-21.0","","-28.7","","51","","","M","4","","17","","","M","101.00","","","","-31","","NA"
"-94.97","74.72","RESOLUTE BAY A","2403497","2019-01-07 21:00","2019","01","07","21:00","-22.0","","-29.2","","53","","","M","2","","25","","","M","100.97","","","","-34","","NA"
"-94.97","74.72","RESOLUTE BAY A","2403497","2019-01-07 22:00","2019","01","07","22:00","-23.7","","-30.1","","56","","","M","4","","38","","","M","100.91","","","","-39","","NA"
"-94.97","74.72","RESOLUTE BAY A","2403497","2019-01-07 23:00","2019","01","07","23:00","-23.4","","-29.3","","59","","","M","4","","35","","","M","100.88","","","","-38","","NA"
"-94.97","74.72","RESOLUTE BAY A","2403497","2019-01-08 00:00","2019","01","08","00:00","-20.9","","-29.0","","49","","","M","11","","7","","","M","100.89","","","","-27","","NA"
"-94.97","74.72","RESOLUTE BAY A","2403497","2019-01-08 01:00","2019","01","08","01:00","-22.1","","-29.0","","55","","","M","5","","30","","","M","100.87","","","","-35","","NA"
"-94.97","74.72","RESOLUTE BAY A","2403497","2019-01-08 02:00","2019","01","08","02:00","-22.6","","-29.5","","54","","","M","1","","8","","","M","100.90","","","","-29","","NA"
"-94.97","74.72","RESOLUTE BAY A","2403497","2019-01-08 03:00","2019","01","08","03:00","-24.1","","-29.9","","60","","","M","31","","16","","","M","100.91","","","","-34","","NA"
"-94.97","74.72","RESOLUTE BAY A","2403497","2019-01-08 04:00","2019","01","08","04:00","-22.3","","-29.7","","52","","","M","35","","7","","","M","100.91","","","","-28","","NA"
"-94.97","74.72","RESOLUTE BAY A","2403497","2019-01-08 05:00","2019","01","08","05:00","-24.4","","-30.5","","58","","","M","34","","10","","","M","100.91","","","","-32","","NA"
"-94.97","74.72","RESOLUTE BAY A","2403497","2019-01-08 06:00","2019","01","08","06:00","-22.9","","-30.2","","52","","","M","13","","4","","","M","100.87","","","","-27","","NA"
"-94.97","74.72","RESOLUTE BAY A","2403497","2019-01-08 07:00","2019","01","08","07:00","-22.6","","-30.5","","50","","","M","3","","49","","","M","100.85","","","","-39","","NA"
"-94.97","74.72","RESOLUTE BAY A","2403497","2019-01-08 08:00","2019","01","08","08:00","-23.4","","-31.3","","50","","","M","32","","25","","","M","100.89","","","","-36","","NA"
"-94.97","74.72","RESOLUTE BAY A","2403497","2019-01-08 09:00","2019","01","08","09:00","-25.1","","-31.5","","56","","","M","29","","13","","","M","100.89","","","","-35","","NA"
"-94.97","74.72","RESOLUTE BAY A","2403497","2019-01-08 10:00","2019","01","08","10:00","-25.5","","-31.2","","60","","","M","31","","10","","","M","100.92","","","","-34","","NA"
"-94.97","74.72","RESOLUTE BAY A","2403497","2019-01-08 11:00","2019","01","08","11:00","-26.1","","-30.3","","69","","","M","35","","46","","","M","100.89","","","","-43","","NA"
"-94.97","74.72","RESOLUTE BAY A","2403497","2019-01-08 12:00","2019","01","08","12:00","-28.5","","-32.4","","70","","","M","33","","34","","","M","100.95","","","","-44","","NA"
"-94.97","74.72","RESOLUTE BAY A","2403497","2019-01-08 13:00","2019","01","08","13:00","-29.9","","-33.8","","70","","","M","33","","28","","","M","100.95","","","","-45","","NA"
"-94.97","74.72","RESOLUTE BAY A","2403497","2019-01-08 14:00","2019","01","08","14:00","-30.1","","-34.0","","70","","","M","35","","39","","","M","100.93","","","","-47","","NA"
"-94.97","74.72","RESOLUTE BAY A","2403497","2019-01-08 15:00","2019","01","08","15:00","-29.6","","-33.4","","70","","","M","32","","17","","","M","100.94","","","","-42","","NA"
"-94.97","74.72","RESOLUTE BAY A","2403497","2019-01-08 16:00","2019","01","08","16:00","-30.5","","-34.1","","72","","","M","32","","26","","","M","100.96","","","","-45","","NA"
"-94.97","74.72","RESOLUTE BAY A","2403497","2019-01-08 17:00","2019","01","08","17:00","-31.0","","-34.6","","71","","","M","33","","28","","","M","100.93","","","","-46","","NA"
"-94.97","74.72","RESOLUTE BAY A","2403497","2019-01-08 18:00","2019","01","08","18:00","-30.8","","-34.2","","73","","","M","32","","19","","","M","100.91","","","","-44","","NA"
"-94.97","74.72","RESOLUTE BAY A","2403497","2019-01-08 19:00","2019","01","08","19:00","-29.8","","-33.3","","72","","","M","31","","30","","","M","100.91","","","","-45","","NA"
"-94.97","74.72","RESOLUTE BAY A","2403497","2019-01-08 20:00","2019","01","08","20:00","-30.4","","-33.8","","72","","","M","30","","22","","","M","100.91","","","","-44","","NA"
"-94.97","74.72","RESOLUTE BAY A","2403497","2019-01-08 21:00","2019","01","08","21:00","-30.3","","-33.9","","72","","","M","31","","37","","","M","100.88","","","","-47","","NA"
"-94.97","74.72","RESOLUTE BAY A","2403497","2019-01-08 22:00","2019","01","08","22:00","-31.6","","-35.3","","71","","","M","34","","28","","","M","100.85","","","","-47","","NA"
"-94.97","74.72","RESOLUTE BAY A","2403497","2019-01-08 23:00","2019","01","08","23:00","-30.6","","-34.4","","70","","","M","31","","24","","","M","100.85","","","","-45","","NA"
"-94.97","74.72","RESOLUTE BAY A","2403497","2019-01-09 00:00","2019","01","09","00:00","-31.2","","-34.6","","72","","","M","32","","30","","","M","100.86","","","","-47","","NA"
"-94.97","74.72","RESOLUTE BAY A","2403497","2019-01-09 01:00","2019","01","09","01:00","-31.4","","-35.0","","72","","","M","32","","32","","","M","100.89","","","","-48","","NA"
"-94.97","74.72","RESOLUTE BAY A","2403497","2019-01-09 02:00","2019","01","09","02:00","-30.5","","-34.1","","72","","","M","32","","47","","","M","100.88","","","","-49","","NA"
"-94.97","74.72","RESOLUTE BAY A","2403497","2019-01-09 03:00","2019","01","09","03:00","-30.9","","-34.5","","71","","","M","32","","35","","","M","100.96","","","","-48","","NA"
"-94.97","74.72","RESOLUTE BAY A","2403497","2019-01-09 04:00","2019","01","09","04:00","-31.1","","-34.7","","71","","","M","31","","24","","","M","101.01","","","","-46","","NA"
"-94.97","74.72","RESOLUTE BAY A","2403497","2019-01-09 05:00","2019","01","09","05:00","-30.8","","-34.4","","71","","","M","31","","26","","","M","101.07","","","","-46","","NA"
"-94.97","74.72","RESOLUTE BAY A","2403497","2019-01-09 06:00","2019","01","09","06:00","-31.6","","-35.3","","71","","","M","33","","30","","","M","101.14","","","","-48","","NA"
"-94.97","74.72","RESOLUTE BAY A","2403497","2019-01-09 07:00","2019","01","09","07:00","-31.2","","-34.9","","71","","","M","31","","26","","","M","101.18","","","","-46","","NA"
"-94.97","74.72","RESOLUTE BAY A","2403497","2019-01-09 08:00","2019","01","09","08:00","-31.3","","-35.1","","70","","","M","30","","24","","","M","101.24","","","","-46","","NA"
"-94.97","74.72","RESOLUTE BAY A","2403497","2019-01-09 09:00","2019","01","09","09:00","-32.7","","-36.4","","70","","","M","28","","14","","","M","101.35","","","","-44","","NA"
"-94.97","74.72","RESOLUTE BAY A","2403497","2019-01-09 10:00","2019","01","09","10:00","-33.0","","-36.7","","70","","","M","31","","25","","","M","101.41","","","","-48","","NA"
"-94.97","74.72","RESOLUTE BAY A","2403497","2019-01-09 11:00","2019","01","09","11:00","-33.3","","-36.9","","71","","","M","30","","25","","","M","101.49","","","","-49","","NA"
"-94.97","74.72","RESOLUTE BAY A","2403497","2019-01-09 12:00","2019","01","09","12:00","-33.8","","-37.6","","69","","","M","32","","27","","","M","101.56","","","","-50","","NA"
"-94.97","74.72","RESOLUTE BAY A","2403497","2019-01-09 13:00","2019","01","09","13:00","-34.7","","-38.4","","70","","","M","32","","26","","","M","101.62","","","","-51","","NA"
"-94.97","74.72","RESOLUTE BAY A","2403497","2019-01-09 14:00","2019","01","09","14:00","-34.9","","-38.7","","69","","","M","31","","18","","","M","101.75","","","","-49","","NA"
"-94.97","74.72","RESOLUTE BAY A","2403497","2019-01-09 15:00","2019","01","09","15:00","-34.9","","-38.7","","69","","","M","32","","25","","","M","101.82","","","","-51","","NA"
"-94.97","74.72","RESOLUTE BAY A","2403497","2019-01-09 16:00","2019","01","09","16:00","-35.5","","-39.4","","69","","","M","32","","23","","","M","101.91","","","","-51","","NA"
"-94.97","74.72","RESOLUTE BAY A","2403497","2019-01-09 17:00","2019","01","09","17:00","-36.1","","-40.0","","68","","","M","33","","24","","","M","101.99","","","","-52","","NA"
"-94.97","74.72","RESOLUTE BAY A","2403497","2019-01-09 18:00","2019","01","09","18:00","-34.9","","-38.9","","68","","","M","33","","27","","","M","102.04","","","","-51","","NA"
"-94.97","74.72","RESOLUTE BAY A","2403497","2019-01-09 19:00","2019","01","09","19:00","-36.2","","-40.2","","67","","","M","33","","14","","","M","102.14","","","","-49","","NA"
"-94.97","74.72","RESOLUTE BAY A","2403497","2019-01-09 20:00","2019","01","09","20:00","-36.1","","-40.0","","68","","","M","33","","25","","","M","102.17","","","","-52","","NA"
"-94.97","74.72","RESOLUTE BAY A","2403497","2019-01-09 21:00","2019","01","09","21:00","-35.6","","-39.5","","68","","","M","33","","25","","","M","102.25","","","","-52","","NA"
"-94.97","74.72","RESOLUTE BAY A","2403497","2019-01-09 22:00","2019","01","09","22:00","-36.4","","-40.4","","68","","","M","32","","23","","","M","102.30","","","","-52","","NA"
"-94.97","74.72","RESOLUTE BAY A","2403497","2019-01-09 23:00","2019","01","09","23:00","-36.6","","-40.5","","69","","","M","33","","23","","","M","102.34","","","","-52","","NA"
"-94.97","74.72","RESOLUTE BAY A","2403497","2019-01-10 00:00","2019","01","10","00:00","-36.3","","-40.0","","69","","","M","33","","11","","","M","102.42","","","","-47","","NA"
"-94.97","74.72","RESOLUTE BAY A","2403497","2019-01-10 01:00","2019","01","10","01:00","-34.2","","-37.8","","71","","","M","34","","17","","","M","102.48","","","","-47","","NA"
"-94.97","74.72","RESOLUTE BAY A","2403497","2019-01-10 02:00","2019","01","10","02:00","-34.8","","-38.4","","70","","","M","32","","14","","","M","102.54","","","","-47","","NA"
"-94.97","74.72","RESOLUTE BAY A","2403497","2019-01-10 03:00","2019","01","10","03:00","-35.6","","-39.2","","70","","","M","34","","11","","","M","102.59","","","","-46","","NA"
"-94.97","74.72","RESOLUTE BAY A","2403497","2019-01-10 04:00","2019","01","10","04:00","-36.2","","-39.9","","70","","","M","32","","12","","","M","102.60","","","","-48","","NA"
"-94.97","74.72","RESOLUTE BAY A","2403497","2019-01-10 05:00","2019","01","10","05:00","-35.7","","-39.3","","70","","","M","33","","12","","","M","102.64","","","","-47","","NA"
"-94.97","74.72","RESOLUTE BAY A","2403497","2019-01-10 06:00","2019","01","10","06:00","-34.7","","-38.3","","71","","","M","32","","7","","","M","102.63","","","","-43","","NA"
"-94.97","74.72","RESOLUTE BAY A","2403497","2019-01-10 07:00","2019","01","10","07:00","-36.2","","-39.8","","70","","","M","31","","13","","","M","102.64","","","","-48","","NA"
"-94.97","74.72","RESOLUTE BAY A","2403497","2019-01-10 08:00","2019","01","10","08:00","-36.9","","-40.6","","69","","","M","33","","14","","","M","102.64","","","","-49","","NA"
"-94.97","74.72","RESOLUTE BAY A","2403497","2019-01-10 09:00","2019","01","10","09:00","-35.7","","-39.5","","69","","","M","35","","7","","","M","102.67","","","","-44","","NA"
"-94.97","74.72","RESOLUTE BAY A","2403497","2019-01-10 10:00","2019","01","10","10:00","-36.6","","-40.6","","68","","","M","34","","11","","","M","102.68","","","","-48","","NA"
"-94.97","74.72","RESOLUTE BAY A","2403497","2019-01-10 11:00","2019","01","10","11:00","-36.1","","-40.0","","68","","","M","33","","7","","","M","102.70","","","","-44","","NA"
"-94.97","74.72","RESOLUTE BAY A","2403497","2019-01-10 12:00","2019","01","10","12:00","-37.2","","-41.2","","68","","","M","33","","10","","","M","102.70","","","","-48","","NA"
"-94.97","74.72","RESOLUTE BAY A","2403497","2019-01-10 13:00","2019","01","10","13:00","-35.8","","-39.6","","69","","","M","33","","10","","","M","102.69","","","","-46","","NA"
"-94.97","74.72","RESOLUTE BAY A","2403497","2019-01-10 14:00","2019","01","10","14:00","-35.8","","-39.7","","69","","","M","33","","8","","","M","102.68","","","","-45","","NA"
"-94.97","74.72","RESOLUTE BAY A","2403497","2019-01-10 15:00","2019","01","10","15:00","-36.2","","-40.1","","68","","","M","30","","5","","","M","102.69","","","","-43","","NA"
"-94.97","74.72","RESOLUTE BAY A","2403497","2019-01-10 16:00","2019","01","10","16:00","-37.0","","-41.1","","67","","","M","30","","7","","","M","102.68","","","","-45","","NA"
"-94.97","74.72","RESOLUTE BAY A","2403497","2019-01-10 17:00","2019","01","10","17:00","-37.1","","-41.2","","67","","","M","30","","10","","","M","102.67","","","","-48","","NA"
"-94.97","74.72","RESOLUTE BAY A","2403497","2019-01-10 18:00","2019","01","10","18:00","-37.9","","-42.0","","67","","","M","34","","6","","","M","102.64","","","","-46","","NA"
"-94.97","74.72","RESOLUTE BAY A","2403497","2019-01-10 19:00","2019","01","10","19:00","-36.7","","-40.6","","68","","","M","34","","7","","","M","102.59","","","","-45","","NA"
"-94.97","74.72","RESOLUTE BAY A","2403497","2019-01-10 20:00","2019","01","10","20:00","-38.2","","-42.4","","66","","","M","33","","8","","","M","102.59","","","","-48","","NA"
"-94.97","74.72","RESOLUTE BAY A","2403497","2019-01-10 21:00","2019","01","10","21:00","-37.9","","-42.0","","66","","","M","34","","12","","","M","102.53","","","","-50","","NA"
"-94.97","74.72","RESOLUTE BAY A","2403497","2019-01-10 22:00","2019","01","10","22:00","-38.3","","-42.5","","66","","","M","32","","12","","","M","102.49","","","","-50","","NA"
"-94.97","74.72","RESOLUTE BAY A","2403497","2019-01-10 23:00","2019","01","10","23:00","-37.1","","-41.1","","67","","","M","34","","13","","","M","102.50","","","","-49","","NA"
"-94.97","74.72","RESOLUTE BAY A","2403497","2019-01-11 00:00","2019","01","11","00:00","-37.1","","-41.2","","67","","","M","34","","11","","","M","102.50","","","","-48","","NA"
"-94.97","74.72","RESOLUTE BAY A","2403497","2019-01-11 01:00","2019","01","11","01:00","-37.7","","-41.8","","66","","","M","34","","10","","","M","102.48","","","","-48","","NA"
"-94.97","74.72","RESOLUTE BAY A","2403497","2019-01-11 02:00","2019","01","11","02:00","-38.2","","-42.4","","66","","","M","34","","14","","","M","102.50","","","","-51","","NA"
"-94.97","74.72","RESOLUTE BAY A","2403497","2019-01-11 03:00","2019","01","11","03:00","-38.6","","-42.8","","66","","","M","35","","10","","","M","102.52","","","","-49","","NA"
"-94.97","74.72","RESOLUTE BAY A","2403497","2019-01-11 04:00","2019","01","11","04:00","-38.8","","-43.0","","65","","","M","33","","10","","","M","102.49","","","","-50","","NA"
"-94.97","74.72","RESOLUTE BAY A","2403497","2019-01-11 05:00","2019","01","11","05:00","-39.5","","-43.8","","65","","","M","34","","9","","","M","102.48","","","","-50","","NA"
"-94.97","74.72","RESOLUTE BAY A","2403497","2019-01-11 06:00","2019","01","11","06:00","-38.8","","-43.0","","66","","","M","32","","8","","","M","102.47","","","","-48","","NA"
"-94.97","74.72","RESOLUTE BAY A","2403497","2019-01-11 07:00","2019","01","11","07:00","-41.4","","-45.8","","64","","","M","35","","12","","","M","102.49","","","","-54","","NA"
"-94.97","74.72","RESOLUTE BAY A","2403497","2019-01-11 08:00","2019","01","11","08:00","-40.6","","-45.0","","64","","","M","1","","14","","","M","102.50","","","","-54","","NA"
"-94.97","74.72","RESOLUTE BAY A","2403497","2019-01-11 09:00","2019","01","11","09:00","-40.0","","-44.3","","65","","","M","33","","7","","","M","102.53","","","","-49","","NA"
"-94.97","74.72","RESOLUTE BAY A","2403497","2019-01-11 10:00","2019","01","11","10:00","-39.6","","-43.9","","65","","","M","34","","12","","","M","102.53","","","","-52","","NA"
"-94.97","74.72","RESOLUTE BAY A","2403497","2019-01-11 11:00","2019","01","11","11:00","-40.0","","-44.3","","65","","","M","34","","12","","","M","102.53","","","","-52","","NA"
"-94.97","74.72","RESOLUTE BAY A","2403497","2019-01-11 12:00","2019","01","11","12:00","-40.1","","-44.4","","65","","","M","34","","14","","","M","102.53","","","","-53","","NA"
"-94.97","74.72","RESOLUTE BAY A","2403497","2019-01-11 13:00","2019","01","11","13:00","-40.6","","-44.9","","64","","","M","33","","12","","","M","102.53","","","","-53","","NA"
"-94.97","74.72","RESOLUTE BAY A","2403497","2019-01-11 14:00","2019","01","11","14:00","-40.4","","-44.7","","64","","","M","34","","7","","","M","102.55","","","","-49","","NA"
"-94.97","74.72","RESOLUTE BAY A","2403497","2019-01-11 15:00","2019","01","11","15:00","-38.3","","-42.5","","66","","","M","31","","7","","","M","102.54","","","","-47","","NA"
"-94.97","74.72","RESOLUTE BAY A","2403497","2019-01-11 16:00","2019","01","11","16:00","-41.3","","-45.7","","64","","","M","35","","10","","","M","102.53","","","","-53","","NA"
"-94.97","74.72","RESOLUTE BAY A","2403497","2019-01-11 17:00","2019","01","11","17:00","-39.3","","-43.6","","65","","","M","32","","11","","","M","102.51","","","","-51","","NA"
"-94.97","74.72","RESOLUTE BAY A","2403497","2019-01-11 18:00","2019","01","11","18:00","-39.6","","-43.9","","65","","","M","32","","7","","","M","102.49","","","","-48","","NA"
"-94.97","74.72","RESOLUTE BAY A","2403497","2019-01-11 19:00","2019","01","11","19:00","-38.1","","-42.3","","66","","","M","25","","3","","","M","102.45","","","","-42","","NA"
"-94.97","74.72","RESOLUTE BAY A","2403497","2019-01-11 20:00","2019","01","11","20:00","-40.5","","-44.8","","64","","","M","34","","5","","","M","102.43","","","","-48","","NA"
"-94.97","74.72","RESOLUTE BAY A","2403497","2019-01-11 21:00","2019","01","11","21:00","-38.7","","-43.0","","65","","","M","33","","6","","","M","102.40","","","","-47","","NA"
"-94.97","74.72","RESOLUTE BAY A","2403497","2019-01-11 22:00","2019","01","11","22:00","-37.4","","-41.6","","66","","","M","34","","5","","","M","102.36","","","","-44","","NA"
"-94.97","74.72","RESOLUTE BAY A","2403497","2019-01-11 23:00","2019","01","11","23:00","-36.9","","-41.0","","66","","","M","36","","6","","","M","102.31","","","","-44","","NA"
"-94.97","74.72","RESOLUTE BAY A","2403497","2019-01-12 00:00","2019","01","12","00:00","-36.8","","-40.9","","67","","","M","34","","5","","","M","102.29","","","","-43","","NA"
"-94.97","74.72","RESOLUTE BAY A","2403497","2019-01-12 01:00","2019","01","12","01:00","-36.5","","-40.6","","67","","","M","36","","5","","","M","102.24","","","","-43","","NA"
"-94.97","74.72","RESOLUTE BAY A","2403497","2019-01-12 02:00","2019","01","12","02:00","-37.6","","-41.8","","66","","","M","2","","6","","","M","102.21","","","","-45","","NA"
"-94.97","74.72","RESOLUTE BAY A","2403497","2019-01-12 03:00","2019","01","12","03:00","-36.7","","-40.8","","67","","","M","1","","4","","","M","102.19","","","","-42","","NA"
"-94.97","74.72","RESOLUTE BAY A","2403497","2019-01-12 04:00","2019","01","12","04:00","-36.0","","-40.1","","67","","","M","1","","4","","","M","102.14","","","","-41","","NA"
"-94.97","74.72","RESOLUTE BAY A","2403497","2019-01-12 05:00","2019","01","12","05:00","-35.9","","-39.9","","68","","","M","36","","4","","","M","102.10","","","","-41","","NA"
"-94.97","74.72","RESOLUTE BAY A","2403497","2019-01-12 06:00","2019","01","12","06:00","-37.5","","-41.7","","66","","","M","1","","9","","","M","102.06","","","","-47","","NA"
"-94.97","74.72","RESOLUTE BAY A","2403497","2019-01-12 07:00","2019","01","12","07:00","-35.7","","-39.7","","68","","","M","35","","5","","","M","102.01","","","","-42","","NA"
"-94.97","74.72","RESOLUTE BAY A","2403497","2019-01-12 08:00","2019","01","12","08:00","-35.5","","-39.5","","68","","","M","1","","8","","","M","101.96","","","","-44","","NA"
"-94.97","74.72","RESOLUTE BAY A","2403497","2019-01-12 09:00","2019","01","12","09:00","-34.8","","-38.7","","68","","","M","4","","11","","","M","101.93","","","","-45","","NA"
"-94.97","74.72","RESOLUTE BAY A","2403497","2019-01-12 10:00","2019","01","12","10:00","-34.8","","-38.7","","68","","","M","4","","13","","","M","101.89","","","","-46","","NA"
"-94.97","74.72","RESOLUTE BAY A","2403497","2019-01-12 11:00","2019","01","12","11:00","-34.1","","-38.0","","69","","","M","3","","7","","","M","101.86","","","","-42","","NA"
"-94.97","74.72","RESOLUTE BAY A","2403497","2019-01-12 12:00","2019","01","12","12:00","-33.7","","-37.5","","69","","","M","4","","6","","","M","101.83","","","","-41","","NA"
"-94.97","74.72","RESOLUTE BAY A","2403497","2019-01-12 13:00","2019","01","12","13:00","-33.5","","-37.3","","69","","","M","3","","5","","","M","101.81","","","","-40","","NA"
"-94.97","74.72","RESOLUTE BAY A","2403497","2019-01-12 14:00","2019","01","12","14:00","-33.5","","-37.4","","69","","","M","6","","5","","","M","101.80","","","","-40","","NA"
"-94.97","74.72","RESOLUTE BAY A","2403497","2019-01-12 15:00","2019","01","12","15:00","-34.6","","-38.6","","68","","","M","","M","","M","","M","101.79","","","","","","NA"
"-94.97","74.72","RESOLUTE BAY A","2403497","2019-01-12 16:00","2019","01","12","16:00","-35.7","","-39.8","","68","","","M","0","","1","","","M","101.79","","","","-37","","NA"
"-94.97","74.72","RESOLUTE BAY A","2403497","2019-01-12 17:00","2019","01","12","17:00","-34.7","","-38.7","","68","","","M","4","","13","","","M","101.77","","","","-46","","NA"
"-94.97","74.72","RESOLUTE BAY A","2403497","2019-01-12 18:00","2019","01","12","18:00","-36.0","","-40.0","","67","","","M","4","","18","","","M","101.74","","","","-50","","NA"
"-94.97","74.72","RESOLUTE BAY A","2403497","2019-01-12 19:00","2019","01","12","19:00","-35.1","","-39.1","","68","","","M","11","","3","","","M","101.72","","","","-39","","NA"
"-94.97","74.72","RESOLUTE BAY A","2403497","2019-01-12 20:00","2019","01","12","20:00","-35.0","","-38.9","","68","","","M","16","","6","","","M","101.76","","","","-42","","NA"
"-94.97","74.72","RESOLUTE BAY A","2403497","2019-01-12 21:00","2019","01","12","21:00","-32.6","","-36.4","","70","","","M","3","","9","","","M","101.76","","","","-42","","NA"
"-94.97","74.72","RESOLUTE BAY A","2403497","2019-01-12 22:00","2019","01","12","22:00","-33.1","","-37.0","","69","","","M","26","","2","","","M","101.75","","","","-36","","NA"
"-94.97","74.72","RESOLUTE BAY A","2403497","2019-01-12 23:00","2019","01","12","23:00","-35.3","","-39.4","","68","","","M","31","","3","","","M","101.74","","","","-39","","NA"
"-94.97","74.72","RESOLUTE BAY A","2403497","2019-01-13 00:00","2019","01","13","00:00","-34.5","","-38.4","","68","","","M","36","","1","","","M","101.75","","","","-36","","NA"
"-94.97","74.72","RESOLUTE BAY A","2403497","2019-01-13 01:00","2019","01","13","01:00","-36.5","","-40.6","","67","","","M","29","","12","","","M","101.75","","","","-48","","NA"
"-94.97","74.72","RESOLUTE BAY A","2403497","2019-01-13 02:00","2019","01","13","02:00","-35.1","","-39.1","","68","","","M","4","","42","","","M","101.70","","","","-55","","NA"
"-94.97","74.72","RESOLUTE BAY A","2403497","2019-01-13 03:00","2019","01","13","03:00","-34.4","","-38.4","","68","","","M","4","","41","","","M","101.74","","","","-54","","NA"
"-94.97","74.72","RESOLUTE BAY A","2403497","2019-01-13 04:00","2019","01","13","04:00","-34.6","","-38.5","","68","","","M","3","","37","","","M","101.78","","","","-53","","NA"
"-94.97","74.72","RESOLUTE BAY A","2403497","2019-01-13 05:00","2019","01","13","05:00","-34.8","","-38.8","","68","","","M","4","","39","","","M","101.77","","","","-54","","NA"
"-94.97","74.72","RESOLUTE BAY A","2403497","2019-01-13 06:00","2019","01","13","06:00","-36.1","","-40.2","","67","","","M","4","","38","","","M","101.76","","","","-55","","NA"
"-94.97","74.72","RESOLUTE BAY A","2403497","2019-01-13 07:00","2019","01","13","07:00","-36.8","","-40.9","","66","","","M","3","","28","","","M","101.78","","","","-54","","NA"
"-94.97","74.72","RESOLUTE BAY A","2403497","2019-01-13 08:00","2019","01","13","08:00","-37.2","","-41.5","","66","","","M","1","","20","","","M","101.80","","","","-52","","NA"
"-94.97","74.72","RESOLUTE BAY A","2403497","2019-01-13 09:00","2019","01","13","09:00","-37.4","","-41.7","","65","","","M","12","","2","","","M","101.83","","","","-40","","NA"
"-94.97","74.72","RESOLUTE BAY A","2403497","2019-01-13 10:00","2019","01","13","10:00","-37.5","","-41.8","","65","","","M","36","","15","","","M","101.82","","","","-51","","NA"
"-94.97","74.72","RESOLUTE BAY A","2403497","2019-01-13 11:00","2019","01","13","11:00","-36.1","","-40.3","","67","","","M","36","","17","","","M","101.80","","","","-50","","NA"
"-94.97","74.72","RESOLUTE BAY A","2403497","2019-01-13 12:00","2019","01","13","12:00","-37.1","","-41.4","","66","","","M","35","","24","","","M","101.79","","","","-53","","NA"
"-94.97","74.72","RESOLUTE BAY A","2403497","2019-01-13 13:00","2019","01","13","13:00","-37.9","","-42.3","","64","","","M","33","","7","","","M","101.79","","","","-46","","NA"
"-94.97","74.72","RESOLUTE BAY A","2403497","2019-01-13 14:00","2019","01","13","14:00","-38.0","","-42.2","","66","","","M","33","","9","","","M","101.78","","","","-48","","NA"
"-94.97","74.72","RESOLUTE BAY A","2403497","2019-01-13 15:00","2019","01","13","15:00","-39.4","","-43.9","","64","","","M","31","","15","","","M","101.78","","","","-53","","NA"
"-94.97","74.72","RESOLUTE BAY A","2403497","2019-01-13 16:00","2019","01","13","16:00","-37.3","","-41.2","","68","","","M","12","","3","","","M","101.77","","","","-41","","NA"
"-94.97","74.72","RESOLUTE BAY A","2403497","2019-01-13 17:00","2019","01","13","17:00","-36.4","","-40.5","","66","","","M","3","","15","","","M","101.78","","","","-49","","NA"
"-94.97","74.72","RESOLUTE BAY A","2403497","2019-01-13 18:00","2019","01","13","18:00","-34.5","","-38.5","","68","","","M","32","","4","","","M","101.77","","","","-39","","NA"
"-94.97","74.72","RESOLUTE BAY A","2403497","2019-01-13 19:00","2019","01","13","19:00","-38.0","","-42.1","","66","","","M","33","","18","","","M","101.75","","","","-52","","NA"
"-94.97","74.72","RESOLUTE BAY A","2403497","2019-01-13 20:00","2019","01","13","20:00","-38.6","","-42.8","","66","","","M","32","","14","","","M","101.77","","","","-52","","NA"
"-94.97","74.72","RESOLUTE BAY A","2403497","2019-01-13 21:00","2019","01","13","21:00","-37.5","","-41.7","","66","","","M","29","","5","","","M","101.75","","","","-44","","NA"
"-94.97","74.72","RESOLUTE BAY A","2403497","2019-01-13 22:00","2019","01","13","22:00","-38.8","","-43.0","","65","","","M","33","","19","","","M","101.75","","","","-54","","NA"
"-94.97","74.72","RESOLUTE BAY A","2403497","2019-01-13 23:00","2019","01","13","23:00","-36.8","","-40.9","","67","","","M","32","","9","","","M","101.73","","","","-47","","NA"
"-94.97","74.72","RESOLUTE BAY A","2403497","2019-01-14 00:00","2019","01","14","00:00","-37.4","","-41.6","","65","","","M","25","","26","","","M","101.74","","","","-54","","NA"
"-94.97","74.72","RESOLUTE BAY A","2403497","2019-01-14 01:00","2019","01","14","01:00","-36.5","","-40.7","","66","","","M","33","","19","","","M","101.67","","","","-51","","NA"
"-94.97","74.72","RESOLUTE BAY A","2403497","2019-01-14 02:00","2019","01","14","02:00","-35.0","","-39.4","","66","","","M","4","","39","","","M","101.65","","","","-54","","NA"
"-94.97","74.72","RESOLUTE BAY A","2403497","2019-01-14 03:00","2019","01","14","03:00","-36.5","","-40.8","","65","","","M","35","","26","","","M","101.67","","","","-53","","NA"
"-94.97","74.72","RESOLUTE BAY A","2403497","2019-01-14 04:00","2019","01","14","04:00","-35.9","","-40.2","","66","","","M","34","","16","","","M","101.65","","","","-49","","NA"
"-94.97","74.72","RESOLUTE BAY A","2403497","2019-01-14 05:00","2019","01","14","05:00","-35.8","","-40.0","","66","","","M","29","","13","","","M","101.66","","","","-48","","NA"
"-94.97","74.72","RESOLUTE BAY A","2403497","2019-01-14 06:00","2019","01","14","06:00","-35.9","","-40.0","","67","","","M","33","","36","","","M","101.56","","","","-55","","NA"
"-94.97","74.72","RESOLUTE BAY A","2403497","2019-01-14 07:00","2019","01","14","07:00","-36.6","","-40.8","","66","","","M","34","","23","","","M","101.49","","","","-52","","NA"
"-94.97","74.72","RESOLUTE BAY A","2403497","2019-01-14 08:00","2019","01","14","08:00","-36.1","","-40.2","","67","","","M","30","","20","","","M","101.47","","","","-51","","NA"
"-94.97","74.72","RESOLUTE BAY A","2403497","2019-01-14 09:00","2019","01","14","09:00","-35.8","","-39.9","","67","","","M","33","","21","","","M","101.44","","","","-51","","NA"
"-94.97","74.72","RESOLUTE BAY A","2403497","2019-01-14 10:00","2019","01","14","10:00","-33.9","","-37.9","","68","","","M","34","","20","","","M","101.40","","","","-48","","NA"
"-94.97","74.72","RESOLUTE BAY A","2403497","2019-01-14 11:00","2019","01","14","11:00","-32.2","","-36.1","","70","","","M","32","","26","","","M","101.37","","","","-48","","NA"
"-94.97","74.72","RESOLUTE BAY A","2403497","2019-01-14 12:00","2019","01","14","12:00","-31.2","","-35.0","","70","","","M","34","","48","","","M","101.25","","","","-50","","NA"
"-94.97","74.72","RESOLUTE BAY A","2403497","2019-01-14 13:00","2019","01","14","13:00","-32.2","","-36.0","","70","","","M","30","","29","","","M","101.27","","","","-48","","NA"
"-94.97","74.72","RESOLUTE BAY A","2403497","2019-01-14 14:00","2019","01","14","14:00","-33.8","","-37.7","","69","","","M","31","","22","","","M","101.16","","","","-49","","NA"
"-94.97","74.72","RESOLUTE BAY A","2403497","2019-01-14 15:00","2019","01","14","15:00","-33.5","","-37.4","","69","","","M","32","","38","","","M","101.12","","","","-52","","NA"
"-94.97","74.72","RESOLUTE BAY A","2403497","2019-01-14 16:00","2019","01","14","16:00","-32.7","","-36.5","","70","","","M","32","","30","","","M","101.08","","","","-49","","NA"
"-94.97","74.72","RESOLUTE BAY A","2403497","2019-01-14 17:00","2019","01","14","17:00","-30.7","","-34.4","","71","","","M","33","","36","","","M","101.00","","","","-48","","NA"
"-94.97","74.72","RESOLUTE BAY A","2403497","2019-01-14 18:00","2019","01","14","18:00","-28.4","","-31.9","","73","","","M","34","","50","","","M","100.92","","","","-47","","NA"
"-94.97","74.72","RESOLUTE BAY A","2403497","2019-01-14 19:00","2019","01","14","19:00","-28.9","","-32.4","","72","","","M","33","","40","","","M","100.90","","","","-46","","NA"
"-94.97","74.72","RESOLUTE BAY A","2403497","2019-01-14 20:00","2019","01","14","20:00","-29.3","","-33.0","","72","","","M","33","","50","","","M","100.79","","","","-48","","NA"
"-94.97","74.72","RESOLUTE BAY A","2403497","2019-01-14 21:00","2019","01","14","21:00","-29.8","","-33.5","","71","","","M","33","","30","","","M","100.68","","","","-45","","NA"
"-94.97","74.72","RESOLUTE BAY A","2403497","2019-01-14 22:00","2019","01","14","22:00","-30.2","","-33.8","","72","","","M","34","","40","","","M","100.61","","","","-48","","NA"
"-94.97","74.72","RESOLUTE BAY A","2403497","2019-01-14 23:00","2019","01","14","23:00","-30.6","","-34.2","","71","","","M","35","","45","","","M","100.61","","","","-49","","NA"
"-94.97","74.72","RESOLUTE BAY A","2403497","2019-01-15 00:00","2019","01","15","00:00","-30.5","","-34.1","","71","","","M","32","","38","","","M","100.62","","","","-48","","NA"
"-94.97","74.72","RESOLUTE BAY A","2403497","2019-01-15 01:00","2019","01","15","01:00","-30.9","","-34.5","","71","","","M","34","","41","","","M","100.57","","","","-49","","NA"
"-94.97","74.72","RESOLUTE BAY A","2403497","2019-01-15 02:00","2019","01","15","02:00","-30.6","","-34.2","","71","","","M","36","","46","","","M","100.53","","","","-49","","NA"
"-94.97","74.72","RESOLUTE BAY A","2403497","2019-01-15 03:00","2019","01","15","03:00","-29.8","","-33.4","","71","","","M","36","","70","","","M","100.45","","","","-51","","NA"
"-94.97","74.72","RESOLUTE BAY A","2403497","2019-01-15 04:00","2019","01","15","04:00","-30.2","","-34.0","","70","","","M","36","","49","","","M","100.49","","","","-49","","NA"
"-94.97","74.72","RESOLUTE BAY A","2403497","2019-01-15 05:00","2019","01","15","05:00","-31.4","","-35.3","","69","","","M","30","","5","","","M","100.58","","","","-37","","NA"
"-94.97","74.72","RESOLUTE BAY A","2403497","2019-01-15 06:00","2019","01","15","06:00","-31.8","","-35.6","","69","","","M","35","","25","","","M","100.65","","","","-47","","NA"
"-94.97","74.72","RESOLUTE BAY A","2403497","2019-01-15 07:00","2019","01","15","07:00","-31.9","","-35.9","","69","","","M","2","","36","","","M","100.64","","","","-49","","NA"
"-94.97","74.72","RESOLUTE BAY A","2403497","2019-01-15 08:00","2019","01","15","08:00","-31.3","","-35.1","","70","","","M","36","","40","","","M","100.63","","","","-49","","NA"
"-94.97","74.72","RESOLUTE BAY A","2403497","2019-01-15 09:00","2019","01","15","09:00","-31.0","","-34.8","","70","","","M","3","","55","","","M","100.60","","","","-51","","NA"
"-94.97","74.72","RESOLUTE BAY A","2403497","2019-01-15 10:00","2019","01","15","10:00","-29.8","","-33.5","","71","","","M","3","","54","","","M","100.66","","","","-49","","NA"
"-94.97","74.72","RESOLUTE BAY A","2403497","2019-01-15 11:00","2019","01","15","11:00","-30.4","","-34.5","","68","","","M","2","","32","","","M","100.72","","","","-47","","NA"
"-94.97","74.72","RESOLUTE BAY A","2403497","2019-01-15 12:00","2019","01","15","12:00","-31.2","","-35.2","","69","","","M","3","","50","","","M","100.62","","","","-51","","NA"
"-94.97","74.72","RESOLUTE BAY A","2403497","2019-01-15 13:00","2019","01","15","13:00","-31.5","","-35.5","","69","","","M","1","","53","","","M","100.66","","","","-51","","NA"
"-94.97","74.72","RESOLUTE BAY A","2403497","2019-01-15 14:00","2019","01","15","14:00","-32.0","","-36.1","","68","","","M","1","","47","","","M","100.68","","","","-51","","NA"
"-94.97","74.72","RESOLUTE BAY A","2403497","2019-01-15 15:00","2019","01","15","15:00","-32.8","","-36.7","","69","","","M","33","","22","","","M","100.74","","","","-47","","NA"
"-94.97","74.72","RESOLUTE BAY A","2403497","2019-01-15 16:00","2019","01","15","16:00","-32.3","","-36.2","","69","","","M","36","","29","","","M","100.76","","","","-48","","NA"
"-94.97","74.72","RESOLUTE BAY A","2403497","2019-01-15 17:00","2019","01","15","17:00","-32.7","","-36.6","","69","","","M","34","","29","","","M","100.74","","","","-49","","NA"
"-94.97","74.72","RESOLUTE BAY A","2403497","2019-01-15 18:00","2019","01","15","18:00","-32.5","","-36.3","","69","","","M","35","","34","","","M","100.70","","","","-50","","NA"
"-94.97","74.72","RESOLUTE BAY A","2403497","2019-01-15 19:00","2019","01","15","19:00","-32.6","","-36.5","","69","","","M","36","","29","","","M","100.70","","","","-49","","NA"
"-94.97","74.72","RESOLUTE BAY A","2403497","2019-01-15 20:00","2019","01","15","20:00","-32.3","","-36.1","","70","","","M","34","","36","","","M","100.61","","","","-50","","NA"
"-94.97","74.72","RESOLUTE BAY A","2403497","2019-01-15 21:00","2019","01","15","21:00","-31.8","","-35.5","","70","","","M","32","","27","","","M","100.62","","","","-47","","NA"
"-94.97","74.72","RESOLUTE BAY A","2403497","2019-01-15 22:00","2019","01","15","22:00","-31.7","","-35.5","","70","","","M","34","","34","","","M","100.58","","","","-49","","NA"
"-94.97","74.72","RESOLUTE BAY A","2403497","2019-01-15 23:00","2019","01","15","23:00","-32.0","","-35.7","","70","","","M","33","","34","","","M","100.59","","","","-49","","NA"
"-94.97","74.72","RESOLUTE BAY A","2403497","2019-01-16 00:00","2019","01","16","00:00","-31.6","","-35.3","","71","","","M","32","","37","","","M","100.55","","","","-49","","NA"
"-94.97","74.72","RESOLUTE BAY A","2403497","2019-01-16 01:00","2019","01","16","01:00","-31.7","","-35.4","","70","","","M","35","","31","","","M","100.50","","","","-48","","NA"
"-94.97","74.72","RESOLUTE BAY A","2403497","2019-01-16 02:00","2019","01","16","02:00","-31.7","","-35.4","","70","","","M","33","","35","","","M","100.54","","","","-49","","NA"
"-94.97","74.72","RESOLUTE BAY A","2403497","2019-01-16 03:00","2019","01","16","03:00","-32.6","","-36.4","","70","","","M","33","","23","","","M","100.53","","","","-47","","NA"
"-94.97","74.72","RESOLUTE BAY A","2403497","2019-01-16 04:00","2019","01","16","04:00","-30.9","","-34.9","","69","","","M","36","","38","","","M","100.48","","","","-48","","NA"
"-94.97","74.72","RESOLUTE BAY A","2403497","2019-01-16 05:00","2019","01","16","05:00","-30.0","","-34.0","","69","","","M","2","","47","","","M","100.43","","","","-49","","NA"
"-94.97","74.72","RESOLUTE BAY A","2403497","2019-01-16 06:00","2019","01","16","06:00","-29.1","","-32.9","","71","","","M","3","","35","","","M","100.47","","","","-45","","NA"
"-94.97","74.72","RESOLUTE BAY A","2403497","2019-01-16 07:00","2019","01","16","07:00","-28.3","","-32.1","","70","","","M","2","","42","","","M","100.47","","","","-46","","NA"
"-94.97","74.72","RESOLUTE BAY A","2403497","2019-01-16 08:00","2019","01","16","08:00","-28.6","","-32.5","","70","","","M","1","","44","","","M","100.51","","","","-46","","NA"
"-94.97","74.72","RESOLUTE BAY A","2403497","2019-01-16 09:00","2019","01","16","09:00","-28.3","","-32.1","","71","","","M","2","","54","","","M","100.53","","","","-47","","NA"
"-94.97","74.72","RESOLUTE BAY A","2403497","2019-01-16 10:00","2019","01","16","10:00","-28.6","","-32.4","","70","","","M","2","","45","","","M","100.58","","","","-46","","NA"
"-94.97","74.72","RESOLUTE BAY A","2403497","2019-01-16 11:00","2019","01","16","11:00","-29.5","","-33.4","","70","","","M","3","","40","","","M","100.67","","","","-47","","NA"
"-94.97","74.72","RESOLUTE BAY A","2403497","2019-01-16 12:00","2019","01","16","12:00","-29.5","","-33.6","","68","","","M","4","","40","","","M","100.62","","","","-47","","NA"
"-94.97","74.72","RESOLUTE BAY A","2403497","2019-01-16 13:00","2019","01","16","13:00","-31.2","","-35.4","","67","","","M","1","","26","","","M","100.67","","","","-46","","NA"
"-94.97","74.72","RESOLUTE BAY A","2403497","2019-01-16 14:00","2019","01","16","14:00","-30.1","","-34.0","","70","","","M","2","","44","","","M","100.69","","","","-48","","NA"
"-94.97","74.72","RESOLUTE BAY A","2403497","2019-01-16 15:00","2019","01","16","15:00","-29.1","","-32.9","","71","","","M","3","","47","","","M","100.71","","","","-47","","NA"
"-94.97","74.72","RESOLUTE BAY A","2403497","2019-01-16 16:00","2019","01","16","16:00","-30.0","","-33.9","","69","","","M","2","","47","","","M","100.74","","","","-49","","NA"
"-94.97","74.72","RESOLUTE BAY A","2403497","2019-01-16 17:00","2019","01","16","17:00","-29.1","","-32.9","","70","","","M","2","","52","","","M","100.74","","","","-48","","NA"
"-94.97","74.72","RESOLUTE BAY A","2403497","2019-01-16 18:00","2019","01","16","18:00","-29.3","","-33.2","","70","","","M","1","","33","","","M","100.81","","","","-45","","NA"
"-94.97","74.72","RESOLUTE BAY A","2403497","2019-01-16 19:00","2019","01","16","19:00","-29.5","","-33.4","","70","","","M","1","","32","","","M","100.82","","","","-45","","NA"
"-94.97","74.72","RESOLUTE BAY A","2403497","2019-01-16 20:00","2019","01","16","20:00","-28.9","","-32.8","","70","","","M","36","","49","","","M","100.82","","","","-47","","NA"
"-94.97","74.72","RESOLUTE BAY A","2403497","2019-01-16 21:00","2019","01","16","21:00","-30.0","","-33.7","","71","","","M","36","","38","","","M","100.85","","","","-47","","NA"
"-94.97","74.72","RESOLUTE BAY A","2403497","2019-01-16 22:00","2019","01","16","22:00","-30.4","","-34.2","","70","","","M","34","","35","","","M","100.92","","","","-47","","NA"
"-94.97","74.72","RESOLUTE BAY A","2403497","2019-01-16 23:00","2019","01","16","23:00","-30.0","","-34.0","","69","","","M","36","","30","","","M","100.93","","","","-46","","NA"
"-94.97","74.72","RESOLUTE BAY A","2403497","2019-01-17 00:00","2019","01","17","00:00","-29.7","","-33.7","","69","","","M","36","","40","","","M","100.87","","","","-47","","NA"
"-94.97","74.72","RESOLUTE BAY A","2403497","2019-01-17 01:00","2019","01","17","01:00","-29.6","","-33.9","","67","","","M","35","","37","","","M","100.89","","","","-46","","NA"
"-94.97","74.72","RESOLUTE BAY A","2403497","2019-01-17 02:00","2019","01","17","02:00","-29.8","","-34.1","","67","","","M","1","","30","","","M","100.92","","","","-45","","NA"
"-94.97","74.72","RESOLUTE BAY A","2403497","2019-01-17 03:00","2019","01","17","03:00","-30.2","","-34.4","","67","","","M","36","","26","","","M","100.95","","","","-45","","NA"
"-94.97","74.72","RESOLUTE BAY A","2403497","2019-01-17 04:00","2019","01","17","04:00","-31.8","","-35.7","","69","","","M","28","","10","","","M","101.02","","","","-41","","NA"
"-94.97","74.72","RESOLUTE BAY A","2403497","2019-01-17 05:00","2019","01","17","05:00","-30.7","","-34.7","","68","","","M","28","","6","","","M","101.07","","","","-37","","NA"
"-94.97","74.72","RESOLUTE BAY A","2403497","2019-01-17 06:00","2019","01","17","06:00","-29.0","","-33.7","","65","","","M","1","","27","","","M","101.06","","","","-44","","NA"
"-94.97","74.72","RESOLUTE BAY A","2403497","2019-01-17 07:00","2019","01","17","07:00","-30.1","","-34.8","","64","","","M","1","","16","","","M","101.06","","","","-42","","NA"
"-94.97","74.72","RESOLUTE BAY A","2403497","2019-01-17 08:00","2019","01","17","08:00","-30.3","","-34.8","","66","","","M","4","","23","","","M","101.12","","","","-44","","NA"
"-94.97","74.72","RESOLUTE BAY A","2403497","2019-01-17 09:00","2019","01","17","09:00","-32.4","","-36.1","","70","","","M","29","","7","","","M","101.15","","","","-40","","NA"
"-94.97","74.72","RESOLUTE BAY A","2403497","2019-01-17 10:00","2019","01","17","10:00","-31.2","","-35.1","","69","","","M","35","","19","","","M","101.17","","","","-44","","NA"
"-94.97","74.72","RESOLUTE BAY A","2403497","2019-01-17 11:00","2019","01","17","11:00","-29.2","","-34.4","","62","","","M","34","","10","","","M","101.19","","","","-38","","NA"
"-94.97","74.72","RESOLUTE BAY A","2403497","2019-01-17 12:00","2019","01","17","12:00","-30.4","","-34.8","","66","","","M","31","","17","","","M","101.24","","","","-43","","NA"
"-94.97","74.72","RESOLUTE BAY A","2403497","2019-01-17 13:00","2019","01","17","13:00","-29.8","","-34.8","","62","","","M","1","","9","","","M","101.27","","","","-38","","NA"
"-94.97","74.72","RESOLUTE BAY A","2403497","2019-01-17 14:00","2019","01","17","14:00","-29.9","","-34.6","","64","","","M","36","","12","","","M","101.32","","","","-40","","NA"
"-94.97","74.72","RESOLUTE BAY A","2403497","2019-01-17 15:00","2019","01","17","15:00","-30.8","","-35.2","","66","","","M","34","","6","","","M","101.37","","","","-37","","NA"
"-94.97","74.72","RESOLUTE BAY A","2403497","2019-01-17 16:00","2019","01","17","16:00","-28.5","","-32.8","","67","","","M","29","","18","","","M","101.37","","","","-41","","NA"
"-94.97","74.72","RESOLUTE BAY A","2403497","2019-01-17 17:00","2019","01","17","17:00","-29.9","","-34.1","","68","","","M","34","","27","","","M","101.42","","","","-45","","NA"
"-94.97","74.72","RESOLUTE BAY A","2403497","2019-01-17 18:00","2019","01","17","18:00","-29.1","","-33.3","","67","","","M","35","","24","","","M","101.41","","","","-43","","NA"
"-94.97","74.72","RESOLUTE BAY A","2403497","2019-01-17 19:00","2019","01","17","19:00","-29.9","","-33.9","","68","","","M","35","","21","","","M","101.40","","","","-43","","NA"
"-94.97","74.72","RESOLUTE BAY A","2403497","2019-01-17 20:00","2019","01","17","20:00","-28.6","","-32.5","","70","","","M","35","","22","","","M","101.43","","","","-42","","NA"
"-94.97","74.72","RESOLUTE BAY A","2403497","2019-01-17 21:00","2019","01","17","21:00","-28.5","","-32.4","","70","","","M","1","","26","","","M","101.45","","","","-43","","NA"
"-94.97","74.72","RESOLUTE BAY A","2403497","2019-01-17 22:00","2019","01","17","22:00","-27.6","","-31.6","","69","","","M","35","","22","","","M","101.45","","","","-41","","NA"
"-94.97","74.72","RESOLUTE BAY A","2403497","2019-01-17 23:00","2019","01","17","23:00","-26.4","","-30.8","","67","","","M","36","","16","","","M","101.42","","","","-37","","NA"
"-94.97","74.72","RESOLUTE BAY A","2403497","2019-01-18 00:00","2019","01","18","00:00","-26.7","","-30.5","","71","","","M","1","","10","","","M","101.41","","","","-35","","NA"
"-94.97","74.72","RESOLUTE BAY A","2403497","2019-01-18 01:00","2019","01","18","01:00","-28.1","","-31.6","","73","","","M","33","","8","","","M","101.40","","","","-36","","NA"
"-94.97","74.72","RESOLUTE BAY A","2403497","2019-01-18 02:00","2019","01","18","02:00","-27.5","","-30.9","","73","","","M","33","","22","","","M","101.37","","","","-40","","NA"
"-94.97","74.72","RESOLUTE BAY A","2403497","2019-01-18 03:00","2019","01","18","03:00","-27.9","","-31.2","","74","","","M","33","","30","","","M","101.35","","","","-43","","NA"
"-94.97","74.72","RESOLUTE BAY A","2403497","2019-01-18 04:00","2019","01","18","04:00","-27.3","","-30.7","","73","","","M","32","","22","","","M","101.34","","","","-40","","NA"
"-94.97","74.72","RESOLUTE BAY A","2403497","2019-01-18 05:00","2019","01","18","05:00","-27.7","","-31.0","","74","","","M","33","","27","","","M","101.24","","","","-42","","NA"
"-94.97","74.72","RESOLUTE BAY A","2403497","2019-01-18 06:00","2019","01","18","06:00","-27.7","","-31.2","","73","","","M","33","","18","","","M","101.15","","","","-40","","NA"
"-94.97","74.72","RESOLUTE BAY A","2403497","2019-01-18 07:00","2019","01","18","07:00","-27.8","","-31.0","","75","","","M","32","","17","","","M","101.03","","","","-39","","NA"
"-94.97","74.72","RESOLUTE BAY A","2403497","2019-01-18 08:00","2019","01","18","08:00","-27.8","","-31.1","","74","","","M","33","","14","","","M","100.92","","","","-38","","NA"
"-94.97","74.72","RESOLUTE BAY A","2403497","2019-01-18 09:00","2019","01","18","09:00","-28.5","","-31.4","","76","","","M","32","","16","","","M","100.83","","","","-40","","NA"
"-94.97","74.72","RESOLUTE BAY A","2403497","2019-01-18 10:00","2019","01","18","10:00","-26.7","","-29.7","","76","","","M","31","","20","","","M","100.68","","","","-39","","NA"
"-94.97","74.72","RESOLUTE BAY A","2403497","2019-01-18 11:00","2019","01","18","11:00","-25.0","","-28.0","","77","","","M","33","","10","","","M","100.57","","","","-33","","NA"
"-94.97","74.72","RESOLUTE BAY A","2403497","2019-01-18 12:00","2019","01","18","12:00","-23.6","","-26.4","","78","","","M","33","","12","","","M","100.48","","","","-32","","NA"
"-94.97","74.72","RESOLUTE BAY A","2403497","2019-01-18 13:00","2019","01","18","13:00","-22.1","","-24.8","","79","","","M","32","","21","","","M","100.40","","","","-33","","NA"
"-94.97","74.72","RESOLUTE BAY A","2403497","2019-01-18 14:00","2019","01","18","14:00","-21.3","","-24.0","","79","","","M","31","","27","","","M","100.36","","","","-34","","NA"
"-94.97","74.72","RESOLUTE BAY A","2403497","2019-01-18 15:00","2019","01","18","15:00","-21.1","","-23.8","","80","","","M","31","","26","","","M","100.33","","","","-33","","NA"
"-94.97","74.72","RESOLUTE BAY A","2403497","2019-01-18 16:00","2019","01","18","16:00","-21.2","","-23.9","","79","","","M","31","","25","","","M","100.29","","","","-33","","NA"
"-94.97","74.72","RESOLUTE BAY A","2403497","2019-01-18 17:00","2019","01","18","17:00","-20.9","","-23.6","","79","","","M","31","","22","","","M","100.27","","","","-32","","NA"
"-94.97","74.72","RESOLUTE BAY A","2403497","2019-01-18 18:00","2019","01","18","18:00","-20.9","","-23.6","","79","","","M","32","","28","","","M","100.22","","","","-33","","NA"
"-94.97","74.72","RESOLUTE BAY A","2403497","2019-01-18 19:00","2019","01","18","19:00","-21.3","","-24.1","","78","","","M","33","","22","","","M","100.19","","","","-33","","NA"
"-94.97","74.72","RESOLUTE BAY A","2403497","2019-01-18 20:00","2019","01","18","20:00","-21.5","","-24.4","","78","","","M","33","","35","","","M","100.13","","","","-35","","NA"
"-94.97","74.72","RESOLUTE BAY A","2403497","2019-01-18 21:00","2019","01","18","21:00","-22.6","","-25.5","","77","","","M","32","","40","","","M","100.11","","","","-38","","NA"
"-94.97","74.72","RESOLUTE BAY A","2403497","2019-01-18 22:00","2019","01","18","22:00","-23.8","","-26.9","","76","","","M","35","","59","","","M","100.00","","","","-42","","NA"
"-94.97","74.72","RESOLUTE BAY A","2403497","2019-01-18 23:00","2019","01","18","23:00","-25.2","","-28.4","","75","","","M","34","","60","","","M","99.96","","","","-44","","NA"
"-94.97","74.72","RESOLUTE BAY A","2403497","2019-01-19 00:00","2019","01","19","00:00","-25.9","","-29.2","","74","","","M","34","","58","","","M","99.96","","","","-44","","NA"
"-94.97","74.72","RESOLUTE BAY A","2403497","2019-01-19 01:00","2019","01","19","01:00","-26.7","","-30.2","","73","","","M","34","","45","","","M","100.01","","","","-44","","NA"
"-94.97","74.72","RESOLUTE BAY A","2403497","2019-01-19 02:00","2019","01","19","02:00","-28.0","","-31.4","","73","","","M","33","","56","","","M","99.91","","","","-47","","NA"
"-94.97","74.72","RESOLUTE BAY A","2403497","2019-01-19 03:00","2019","01","19","03:00","-28.8","","-32.3","","72","","","M","33","","43","","","M","99.94","","","","-46","","NA"
"-94.97","74.72","RESOLUTE BAY A","2403497","2019-01-19 04:00","2019","01","19","04:00","-29.3","","-32.8","","72","","","M","35","","60","","","M","99.85","","","","-49","","NA"
"-94.97","74.72","RESOLUTE BAY A","2403497","2019-01-19 05:00","2019","01","19","05:00","-29.8","","-33.4","","72","","","M","34","","54","","","M","99.84","","","","-49","","NA"
"-94.97","74.72","RESOLUTE BAY A","2403497","2019-01-19 06:00","2019","01","19","06:00","-30.4","","-34.1","","71","","","M","34","","62","","","M","99.79","","","","-51","","NA"
"-94.97","74.72","RESOLUTE BAY A","2403497","2019-01-19 07:00","2019","01","19","07:00","-30.7","","-34.3","","71","","","M","35","","65","","","M","99.75","","","","-52","","NA"
"-94.97","74.72","RESOLUTE BAY A","2403497","2019-01-19 08:00","2019","01","19","08:00","-30.9","","-34.7","","70","","","M","34","","54","","","M","99.80","","","","-51","","NA"
"-94.97","74.72","RESOLUTE BAY A","2403497","2019-01-19 09:00","2019","01","19","09:00","-32.1","","-35.8","","70","","","M","35","","53","","","M","99.80","","","","-52","","NA"
"-94.97","74.72","RESOLUTE BAY A","2403497","2019-01-19 10:00","2019","01","19","10:00","-32.8","","-36.6","","70","","","M","35","","46","","","M","99.84","","","","-52","","NA"
"-94.97","74.72","RESOLUTE BAY A","2403497","2019-01-19 11:00","2019","01","19","11:00","-32.6","","-36.7","","68","","","M","36","","38","","","M","99.80","","","","-51","","NA"
"-94.97","74.72","RESOLUTE BAY A","2403497","2019-01-19 12:00","2019","01","19","12:00","-32.5","","-36.6","","68","","","M","1","","44","","","M","99.79","","","","-52","","NA"
"-94.97","74.72","RESOLUTE BAY A","2403497","2019-01-19 13:00","2019","01","19","13:00","-33.3","","-37.5","","67","","","M","2","","37","","","M","99.83","","","","-51","","NA"
"-94.97","74.72","RESOLUTE BAY A","2403497","2019-01-19 14:00","2019","01","19","14:00","-33.1","","-37.3","","67","","","M","3","","40","","","M","99.85","","","","-52","","NA"
"-94.97","74.72","RESOLUTE BAY A","2403497","2019-01-19 15:00","2019","01","19","15:00","-33.6","","-38.0","","66","","","M","36","","37","","","M","99.90","","","","-52","","NA"
"-94.97","74.72","RESOLUTE BAY A","2403497","2019-01-19 16:00","2019","01","19","16:00","-34.2","","-38.2","","68","","","M","36","","36","","","M","99.94","","","","-52","","NA"
"-94.97","74.72","RESOLUTE BAY A","2403497","2019-01-19 17:00","2019","01","19","17:00","-34.3","","-38.3","","68","","","M","36","","52","","","M","99.87","","","","-55","","NA"
"-94.97","74.72","RESOLUTE BAY A","2403497","2019-01-19 18:00","2019","01","19","18:00","-35.1","","-39.3","","66","","","M","36","","36","","","M","99.92","","","","-54","","NA"
"-94.97","74.72","RESOLUTE BAY A","2403497","2019-01-19 19:00","2019","01","19","19:00","-35.0","","-39.3","","66","","","M","2","","44","","","M","99.84","","","","-55","","NA"
"-94.97","74.72","RESOLUTE BAY A","2403497","2019-01-19 20:00","2019","01","19","20:00","-35.3","","-39.5","","66","","","M","34","","27","","","M","99.87","","","","-52","","NA"
"-94.97","74.72","RESOLUTE BAY A","2403497","2019-01-19 21:00","2019","01","19","21:00","-36.0","","-40.1","","66","","","M","34","","31","","","M","99.83","","","","-54","","NA"
"-94.97","74.72","RESOLUTE BAY A","2403497","2019-01-19 22:00","2019","01","19","22:00","-36.2","","-40.3","","67","","","M","32","","34","","","M","99.70","","","","-55","","NA"
"-94.97","74.72","RESOLUTE BAY A","2403497","2019-01-19 23:00","2019","01","19","23:00","-35.5","","-39.4","","68","","","M","32","","30","","","M","99.63","","","","-53","","NA"
"-94.97","74.72","RESOLUTE BAY A","2403497","2019-01-20 00:00","2019","01","20","00:00","-35.7","","-39.9","","67","","","M","33","","32","","","M","99.58","","","","-54","","NA"
"-94.97","74.72","RESOLUTE BAY A","2403497","2019-01-20 01:00","2019","01","20","01:00","-36.0","","-40.1","","67","","","M","34","","40","","","M","99.52","","","","-56","","NA"
"-94.97","74.72","RESOLUTE BAY A","2403497","2019-01-20 02:00","2019","01","20","02:00","-35.9","","-40.1","","66","","","M","36","","39","","","M","99.53","","","","-55","","NA"
"-94.97","74.72","RESOLUTE BAY A","2403497","2019-01-20 03:00","2019","01","20","03:00","-35.7","","-40.0","","66","","","M","35","","32","","","M","99.59","","","","-54","","NA"
"-94.97","74.72","RESOLUTE BAY A","2403497","2019-01-20 04:00","2019","01","20","04:00","-35.7","","-40.0","","66","","","M","1","","42","","","M","99.56","","","","-55","","NA"
"-94.97","74.72","RESOLUTE BAY A","2403497","2019-01-20 05:00","2019","01","20","05:00","-35.9","","-40.2","","66","","","M","3","","42","","","M","99.55","","","","-56","","NA"
"-94.97","74.72","RESOLUTE BAY A","2403497","2019-01-20 06:00","2019","01","20","06:00","-36.1","","-40.5","","65","","","M","4","","43","","","M","99.50","","","","-56","","NA"
"-94.97","74.72","RESOLUTE BAY A","2403497","2019-01-20 07:00","2019","01","20","07:00","-35.0","","-39.6","","64","","","M","3","","38","","","M","99.50","","","","-54","","NA"
"-94.97","74.72","RESOLUTE BAY A","2403497","2019-01-20 08:00","2019","01","20","08:00","-34.5","","-39.3","","63","","","M","25","","11","","","M","99.52","","","","-45","","NA"
"-94.97","74.72","RESOLUTE BAY A","2403497","2019-01-20 09:00","2019","01","20","09:00","-35.3","","-39.9","","64","","","M","5","","9","","","M","99.51","","","","-45","","NA"
"-94.97","74.72","RESOLUTE BAY A","2403497","2019-01-20 10:00","2019","01","20","10:00","-38.2","","-42.7","","64","","","M","33","","9","","","M","99.53","","","","-48","","NA"
"-94.97","74.72","RESOLUTE BAY A","2403497","2019-01-20 11:00","2019","01","20","11:00","-37.8","","-42.0","","65","","","M","32","","15","","","M","99.49","","","","-51","","NA"
"-94.97","74.72","RESOLUTE BAY A","2403497","2019-01-20 12:00","2019","01","20","12:00","-37.2","","-41.3","","67","","","M","35","","17","","","M","99.47","","","","-51","","NA"
"-94.97","74.72","RESOLUTE BAY A","2403497","2019-01-20 13:00","2019","01","20","13:00","-37.0","","-41.3","","66","","","M","34","","4","","","M","99.51","","","","-42","","NA"
"-94.97","74.72","RESOLUTE BAY A","2403497","2019-01-20 14:00","2019","01","20","14:00","-35.2","","-39.6","","65","","","M","30","","1","","","M","99.49","","","","-36","","NA"
"-94.97","74.72","RESOLUTE BAY A","2403497","2019-01-20 15:00","2019","01","20","15:00","-32.8","","-37.4","","65","","","M","8","","5","","","M","99.51","","","","-39","","NA"
"-94.97","74.72","RESOLUTE BAY A","2403497","2019-01-20 16:00","2019","01","20","16:00","-31.5","","-36.9","","60","","","M","4","","2","","","M","99.52","","","","-34","","NA"
"-94.97","74.72","RESOLUTE BAY A","2403497","2019-01-20 17:00","2019","01","20","17:00","-33.6","","-38.8","","61","","","M","5","","5","","","M","99.55","","","","-40","","NA"
"-94.97","74.72","RESOLUTE BAY A","2403497","2019-01-20 18:00","2019","01","20","18:00","-32.9","","-38.5","","59","","","M","7","","8","","","M","99.53","","","","-41","","NA"
"-94.97","74.72","RESOLUTE BAY A","2403497","2019-01-20 19:00","2019","01","20","19:00","-33.9","","-39.5","","58","","","M","7","","9","","","M","99.53","","","","-43","","NA"
"-94.97","74.72","RESOLUTE BAY A","2403497","2019-01-20 20:00","2019","01","20","20:00","-32.4","","-38.0","","59","","","M","2","","7","","","M","99.52","","","","-40","","NA"
"-94.97","74.72","RESOLUTE BAY A","2403497","2019-01-20 21:00","2019","01","20","21:00","-32.0","","-37.8","","58","","","M","5","","4","","","M","99.55","","","","-37","","NA"
"-94.97","74.72","RESOLUTE BAY A","2403497","2019-01-20 22:00","2019","01","20","22:00","-34.1","","-39.2","","61","","","M","35","","8","","","M","99.57","","","","-43","","NA"
"-94.97","74.72","RESOLUTE BAY A","2403497","2019-01-20 23:00","2019","01","20","23:00","-33.2","","-38.6","","60","","","M","7","","14","","","M","99.59","","","","-45","","NA"
"-94.97","74.72","RESOLUTE BAY A","2403497","2019-01-21 00:00","2019","01","21","00:00","-32.6","","-37.8","","61","","","M","8","","15","","","M","99.61","","","","-45","","NA"
"-94.97","74.72","RESOLUTE BAY A","2403497","2019-01-21 01:00","2019","01","21","01:00","-32.7","","-37.8","","61","","","M","8","","14","","","M","99.62","","","","-44","","NA"
"-94.97","74.72","RESOLUTE BAY A","2403497","2019-01-21 02:00","2019","01","21","02:00","-32.4","","-37.1","","64","","","M","9","","9","","","M","99.66","","","","-41","","NA"
"-94.97","74.72","RESOLUTE BAY A","2403497","2019-01-21 03:00","2019","01","21","03:00","-30.8","","-35.3","","65","","","M","10","","4","","","M","99.70","","","","-35","","NA"
"-94.97","74.72","RESOLUTE BAY A","2403497","2019-01-21 04:00","2019","01","21","04:00","-32.9","","-37.1","","66","","","M","4","","3","","","M","99.75","","","","-37","","NA"
"-94.97","74.72","RESOLUTE BAY A","2403497","2019-01-21 05:00","2019","01","21","05:00","-32.7","","-37.7","","62","","","M","31","","6","","","M","99.80","","","","-40","","NA"
"-94.97","74.72","RESOLUTE BAY A","2403497","2019-01-21 06:00","2019","01","21","06:00","-33.4","","-38.3","","63","","","M","35","","4","","","M","99.85","","","","-38","","NA"
"-94.97","74.72","RESOLUTE BAY A","2403497","2019-01-21 07:00","2019","01","21","07:00","-31.8","","-36.9","","61","","","M","12","","8","","","M","99.88","","","","-40","","NA"
"-94.97","74.72","RESOLUTE BAY A","2403497","2019-01-21 08:00","2019","01","21","08:00","-33.0","","-38.3","","60","","","M","11","","6","","","M","99.93","","","","-40","","NA"
"-94.97","74.72","RESOLUTE BAY A","2403497","2019-01-21 09:00","2019","01","21","09:00","-30.1","","-35.3","","62","","","M","21","","2","","","M","99.98","","","","-32","","NA"
"-94.97","74.72","RESOLUTE BAY A","2403497","2019-01-21 10:00","2019","01","21","10:00","-31.2","","-35.6","","66","","","M","22","","1","","","M","100.03","","","","-32","","NA"
"-94.97","74.72","RESOLUTE BAY A","2403497","2019-01-21 11:00","2019","01","21","11:00","-28.1","","-31.8","","72","","","M","9","","16","","","M","100.08","","","","-39","","NA"
"-94.97","74.72","RESOLUTE BAY A","2403497","2019-01-21 12:00","2019","01","21","12:00","-28.3","","-31.8","","73","","","M","7","","15","","","M","100.15","","","","-39","","NA"
"-94.97","74.72","RESOLUTE BAY A","2403497","2019-01-21 13:00","2019","01","21","13:00","-28.9","","-32.4","","73","","","M","5","","27","","","M","100.18","","","","-44","","NA"
"-94.97","74.72","RESOLUTE BAY A","2403497","2019-01-21 14:00","2019","01","21","14:00","-27.6","","-31.7","","69","","","M","7","","26","","","M","100.26","","","","-42","","NA"
"-94.97","74.72","RESOLUTE BAY A","2403497","2019-01-21 15:00","2019","01","21","15:00","-27.0","","-31.5","","67","","","M","7","","25","","","M","100.30","","","","-41","","NA"
"-94.97","74.72","RESOLUTE BAY A","2403497","2019-01-21 16:00","2019","01","21","16:00","-27.5","","-32.0","","66","","","M","6","","26","","","M","100.36","","","","-41","","NA"
"-94.97","74.72","RESOLUTE BAY A","2403497","2019-01-21 17:00","2019","01","21","17:00","-26.9","","-32.2","","61","","","M","8","","19","","","M","100.41","","","","-39","","NA"
"-94.97","74.72","RESOLUTE BAY A","2403497","2019-01-21 18:00","2019","01","21","18:00","-29.3","","-34.6","","61","","","M","4","","22","","","M","100.43","","","","-43","","NA"
"-94.97","74.72","RESOLUTE BAY A","2403497","2019-01-21 19:00","2019","01","21","19:00","-28.5","","-32.8","","67","","","M","4","","20","","","M","100.45","","","","-41","","NA"
"-94.97","74.72","RESOLUTE BAY A","2403497","2019-01-21 20:00","2019","01","21","20:00","-26.6","","-31.2","","66","","","M","2","","15","","","M","100.46","","","","-37","","NA"
"-94.97","74.72","RESOLUTE BAY A","2403497","2019-01-21 21:00","2019","01","21","21:00","-28.2","","-32.1","","70","","","M","3","","22","","","M","100.45","","","","-41","","NA"
"-94.97","74.72","RESOLUTE BAY A","2403497","2019-01-21 22:00","2019","01","21","22:00","-27.6","","-31.8","","68","","","M","3","","18","","","M","100.46","","","","-39","","NA"
"-94.97","74.72","RESOLUTE BAY A","2403497","2019-01-21 23:00","2019","01","21","23:00","-27.3","","-31.8","","67","","","M","2","","14","","","M","100.48","","","","-38","","NA"
"-94.97","74.72","RESOLUTE BAY A","2403497","2019-01-22 00:00","2019","01","22","00:00","-27.4","","-32.3","","64","","","M","5","","13","","","M","100.50","","","","-37","","NA"
"-94.97","74.72","RESOLUTE BAY A","2403497","2019-01-22 01:00","2019","01","22","01:00","-26.9","","-31.7","","65","","","M","4","","12","","","M","100.52","","","","-36","","NA"
"-94.97","74.72","RESOLUTE BAY A","2403497","2019-01-22 02:00","2019","01","22","02:00","-28.2","","-31.8","","72","","","M","11","","13","","","M","100.56","","","","-38","","NA"
"-94.97","74.72","RESOLUTE BAY A","2403497","2019-01-22 03:00","2019","01","22","03:00","-26.6","","-30.8","","68","","","M","11","","12","","","M","100.56","","","","-36","","NA"
"-94.97","74.72","RESOLUTE BAY A","2403497","2019-01-22 04:00","2019","01","22","04:00","-27.6","","-31.8","","69","","","M","36","","4","","","M","100.56","","","","-32","","NA"
"-94.97","74.72","RESOLUTE BAY A","2403497","2019-01-22 05:00","2019","01","22","05:00","-30.6","","-34.9","","67","","","M","34","","6","","","M","100.55","","","","-37","","NA"
"-94.97","74.72","RESOLUTE BAY A","2403497","2019-01-22 06:00","2019","01","22","06:00","-28.9","","-32.8","","70","","","M","4","","17","","","M","100.53","","","","-41","","NA"
"-94.97","74.72","RESOLUTE BAY A","2403497","2019-01-22 07:00","2019","01","22","07:00","-29.1","","-33.4","","67","","","M","3","","23","","","M","100.51","","","","-43","","NA"
"-94.97","74.72","RESOLUTE BAY A","2403497","2019-01-22 08:00","2019","01","22","08:00","-28.0","","-32.0","","69","","","M","35","","11","","","M","100.50","","","","-37","","NA"
"-94.97","74.72","RESOLUTE BAY A","2403497","2019-01-22 09:00","2019","01","22","09:00","-30.7","","-34.2","","72","","","M","3","","34","","","M","100.43","","","","-47","","NA"
"-94.97","74.72","RESOLUTE BAY A","2403497","2019-01-22 10:00","2019","01","22","10:00","-30.2","","-33.8","","72","","","M","4","","34","","","M","100.41","","","","-47","","NA"
"-94.97","74.72","RESOLUTE BAY A","2403497","2019-01-22 11:00","2019","01","22","11:00","-31.4","","-34.9","","72","","","M","4","","39","","","M","100.37","","","","-49","","NA"
"-94.97","74.72","RESOLUTE BAY A","2403497","2019-01-22 12:00","2019","01","22","12:00","-32.6","","-36.5","","69","","","M","4","","37","","","M","100.35","","","","-50","","NA"
"-94.97","74.72","RESOLUTE BAY A","2403497","2019-01-22 13:00","2019","01","22","13:00","-33.2","","-37.1","","69","","","M","4","","40","","","M","100.31","","","","-52","","NA"
"-94.97","74.72","RESOLUTE BAY A","2403497","2019-01-22 14:00","2019","01","22","14:00","-32.2","","-36.1","","69","","","M","3","","35","","","M","100.32","","","","-50","","NA"
"-94.97","74.72","RESOLUTE BAY A","2403497","2019-01-22 15:00","2019","01","22","15:00","-32.3","","-36.1","","70","","","M","30","","10","","","M","100.39","","","","-42","","NA"
"-94.97","74.72","RESOLUTE BAY A","2403497","2019-01-22 16:00","2019","01","22","16:00","-31.9","","-35.4","","72","","","M","33","","10","","","M","100.40","","","","-41","","NA"
"-94.97","74.72","RESOLUTE BAY A","2403497","2019-01-22 17:00","2019","01","22","17:00","-32.1","","-35.9","","70","","","M","25","","1","","","M","100.40","","","","-33","","NA"
"-94.97","74.72","RESOLUTE BAY A","2403497","2019-01-22 18:00","2019","01","22","18:00","-29.4","","-32.7","","74","","","M","30","","16","","","M","100.39","","","","-41","","NA"
"-94.97","74.72","RESOLUTE BAY A","2403497","2019-01-22 19:00","2019","01","22","19:00","-35.9","","-39.5","","71","","","M","32","","7","","","M","100.39","","","","-44","","NA"
"-94.97","74.72","RESOLUTE BAY A","2403497","2019-01-22 20:00","2019","01","22","20:00","-29.5","","-32.9","","74","","","M","2","","21","","","M","100.38","","","","-43","","NA"
"-94.97","74.72","RESOLUTE BAY A","2403497","2019-01-22 21:00","2019","01","22","21:00","-34.6","","-38.0","","72","","","M","30","","10","","","M","100.38","","","","-45","","NA"
"-94.97","74.72","RESOLUTE BAY A","2403497","2019-01-22 22:00","2019","01","22","22:00","-30.1","","-34.3","","68","","","M","2","","24","","","M","100.38","","","","-44","","NA"
"-94.97","74.72","RESOLUTE BAY A","2403497","2019-01-22 23:00","2019","01","22","23:00","-30.4","","-34.7","","67","","","M","13","","3","","","M","100.37","","","","-34","","NA"
"-94.97","74.72","RESOLUTE BAY A","2403497","2019-01-23 00:00","2019","01","23","00:00","-31.2","","-35.6","","66","","","M","4","","12","","","M","100.38","","","","-42","","NA"
"-94.97","74.72","RESOLUTE BAY A","2403497","2019-01-23 01:00","2019","01","23","01:00","-30.4","","-34.7","","67","","","M","30","","7","","","M","100.42","","","","-38","","NA"
"-94.97","74.72","RESOLUTE BAY A","2403497","2019-01-23 02:00","2019","01","23","02:00","-31.5","","-35.8","","67","","","M","3","","21","","","M","100.43","","","","-45","","NA"
"-94.97","74.72","RESOLUTE BAY A","2403497","2019-01-23 03:00","2019","01","23","03:00","-30.9","","-35.3","","66","","","M","28","","9","","","M","100.44","","","","-40","","NA"
"-94.97","74.72","RESOLUTE BAY A","2403497","2019-01-23 04:00","2019","01","23","04:00","-31.8","","-36.5","","64","","","M","12","","6","","","M","100.46","","","","-39","","NA"
"-94.97","74.72","RESOLUTE BAY A","2403497","2019-01-23 05:00","2019","01","23","05:00","-31.0","","-35.5","","65","","","M","33","","12","","","M","100.47","","","","-41","","NA"
"-94.97","74.72","RESOLUTE BAY A","2403497","2019-01-23 06:00","2019","01","23","06:00","-31.5","","-35.9","","66","","","M","5","","34","","","M","100.44","","","","-48","","NA"
"-94.97","74.72","RESOLUTE BAY A","2403497","2019-01-23 07:00","2019","01","23","07:00","-30.6","","-35.0","","66","","","M","4","","8","","","M","100.46","","","","-39","","NA"
"-94.97","74.72","RESOLUTE BAY A","2403497","2019-01-23 08:00","2019","01","23","08:00","-32.0","","-36.3","","66","","","M","27","","17","","","M","100.46","","","","-45","","NA"
"-94.97","74.72","RESOLUTE BAY A","2403497","2019-01-23 09:00","2019","01","23","09:00","-29.6","","-33.7","","68","","","M","4","","7","","","M","100.43","","","","-37","","NA"
"-94.97","74.72","RESOLUTE BAY A","2403497","2019-01-23 10:00","2019","01","23","10:00","-30.8","","-34.8","","69","","","M","34","","7","","","M","100.42","","","","-38","","NA"
"-94.97","74.72","RESOLUTE BAY A","2403497","2019-01-23 11:00","2019","01","23","11:00","-32.4","","-36.6","","67","","","M","35","","8","","","M","100.43","","","","-41","","NA"
"-94.97","74.72","RESOLUTE BAY A","2403497","2019-01-23 12:00","2019","01","23","12:00","-30.8","","-34.9","","69","","","M","30","","22","","","M","100.44","","","","-45","","NA"
"-94.97","74.72","RESOLUTE BAY A","2403497","2019-01-23 13:00","2019","01","23","13:00","-29.9","","-34.3","","67","","","M","2","","13","","","M","100.42","","","","-40","","NA"
"-94.97","74.72","RESOLUTE BAY A","2403497","2019-01-23 14:00","2019","01","23","14:00","-29.3","","-33.7","","67","","","M","1","","18","","","M","100.42","","","","-42","","NA"
"-94.97","74.72","RESOLUTE BAY A","2403497","2019-01-23 15:00","2019","01","23","15:00","-32.2","","-36.4","","68","","","M","1","","5","","","M","100.46","","","","-38","","NA"
"-94.97","74.72","RESOLUTE BAY A","2403497","2019-01-23 16:00","2019","01","23","16:00","-34.4","","-38.2","","69","","","M","31","","6","","","M","100.51","","","","-42","","NA"
"-94.97","74.72","RESOLUTE BAY A","2403497","2019-01-23 17:00","2019","01","23","17:00","-33.4","","-37.4","","68","","","M","32","","4","","","M","100.52","","","","-38","","NA"
"-94.97","74.72","RESOLUTE BAY A","2403497","2019-01-23 18:00","2019","01","23","18:00","-33.5","","-37.2","","70","","","M","31","","4","","","M","100.51","","","","-38","","NA"
"-94.97","74.72","RESOLUTE BAY A","2403497","2019-01-23 19:00","2019","01","23","19:00","-33.5","","-37.4","","69","","","M","29","","7","","","M","100.51","","","","-41","","NA"
"-94.97","74.72","RESOLUTE BAY A","2403497","2019-01-23 20:00","2019","01","23","20:00","-32.7","","-37.0","","67","","","M","32","","8","","","M","100.52","","","","-41","","NA"
"-94.97","74.72","RESOLUTE BAY A","2403497","2019-01-23 21:00","2019","01","23","21:00","-31.8","","-36.3","","65","","","M","4","","17","","","M","100.50","","","","-44","","NA"
"-94.97","74.72","RESOLUTE BAY A","2403497","2019-01-23 22:00","2019","01","23","22:00","-32.2","","-36.8","","65","","","M","5","","21","","","M","100.50","","","","-46","","NA"
"-94.97","74.72","RESOLUTE BAY A","2403497","2019-01-23 23:00","2019","01","23","23:00","-33.2","","-37.6","","66","","","M","4","","27","","","M","100.51","","","","-49","","NA"
"-94.97","74.72","RESOLUTE BAY A","2403497","2019-01-24 00:00","2019","01","24","00:00","-33.4","","-37.6","","67","","","M","4","","8","","","M","100.54","","","","-42","","NA"
"-94.97","74.72","RESOLUTE BAY A","2403497","2019-01-24 01:00","2019","01","24","01:00","-33.6","","-37.4","","69","","","M","4","","18","","","M","100.60","","","","-47","","NA"
"-94.97","74.72","RESOLUTE BAY A","2403497","2019-01-24 02:00","2019","01","24","02:00","-35.9","","-40.0","","67","","","M","26","","13","","","M","100.62","","","","-48","","NA"
"-94.97","74.72","RESOLUTE BAY A","2403497","2019-01-24 03:00","2019","01","24","03:00","-36.2","","-39.9","","69","","","M","29","","4","","","M","100.64","","","","-41","","NA"
"-94.97","74.72","RESOLUTE BAY A","2403497","2019-01-24 04:00","2019","01","24","04:00","-36.2","","-40.0","","69","","","M","5","","5","","","M","100.65","","","","-43","","NA"
"-94.97","74.72","RESOLUTE BAY A","2403497","2019-01-24 05:00","2019","01","24","05:00","-36.0","","-39.7","","70","","","M","28","","3","","","M","100.69","","","","-40","","NA"
"-94.97","74.72","RESOLUTE BAY A","2403497","2019-01-24 06:00","2019","01","24","06:00","-34.8","","-38.3","","72","","","M","2","","5","","","M","100.74","","","","-41","","NA"
"-94.97","74.72","RESOLUTE BAY A","2403497","2019-01-24 07:00","2019","01","24","07:00","-36.6","","-40.3","","69","","","M","36","","7","","","M","100.74","","","","-45","","NA"
"-94.97","74.72","RESOLUTE BAY A","2403497","2019-01-24 08:00","2019","01","24","08:00","-35.1","","-38.2","","74","","","M","2","","6","","","M","100.75","","","","-42","","NA"
"-94.97","74.72","RESOLUTE BAY A","2403497","2019-01-24 09:00","2019","01","24","09:00","-34.5","","-37.9","","72","","","M","3","","6","","","M","100.78","","","","-42","","NA"
"-94.97","74.72","RESOLUTE BAY A","2403497","2019-01-24 10:00","2019","01","24","10:00","-35.7","","-39.4","","70","","","M","30","","5","","","M","100.82","","","","-42","","NA"
"-94.97","74.72","RESOLUTE BAY A","2403497","2019-01-24 11:00","2019","01","24","11:00","-35.3","","-38.9","","71","","","M","35","","7","","","M","100.83","","","","-43","","NA"
"-94.97","74.72","RESOLUTE BAY A","2403497","2019-01-24 12:00","2019","01","24","12:00","-34.3","","-37.7","","72","","","M","35","","7","","","M","100.85","","","","-42","","NA"
"-94.97","74.72","RESOLUTE BAY A","2403497","2019-01-24 13:00","2019","01","24","13:00","-36.3","","-39.8","","71","","","M","13","","2","","","M","100.90","","","","-39","","NA"
"-94.97","74.72","RESOLUTE BAY A","2403497","2019-01-24 14:00","2019","01","24","14:00","-36.0","","-39.6","","70","","","M","20","","3","","","M","100.92","","","","-40","","NA"
"-94.97","74.72","RESOLUTE BAY A","2403497","2019-01-24 15:00","2019","01","24","15:00","-37.9","","-41.6","","69","","","M","27","","10","","","M","100.94","","","","-49","","NA"
"-94.97","74.72","RESOLUTE BAY A","2403497","2019-01-24 16:00","2019","01","24","16:00","-35.5","","-39.0","","71","","","M","8","","2","","","M","100.99","","","","-38","","NA"
"-94.97","74.72","RESOLUTE BAY A","2403497","2019-01-24 17:00","2019","01","24","17:00","-33.6","","-36.8","","74","","","M","16","","4","","","M","101.02","","","","-38","","NA"
"-94.97","74.72","RESOLUTE BAY A","2403497","2019-01-24 18:00","2019","01","24","18:00","-34.8","","-38.1","","72","","","M","18","","3","","","M","101.05","","","","-39","","NA"
"-94.97","74.72","RESOLUTE BAY A","2403497","2019-01-24 19:00","2019","01","24","19:00","-33.7","","-37.0","","73","","","M","13","","11","","","M","101.07","","","","-44","","NA"
"-94.97","74.72","RESOLUTE BAY A","2403497","2019-01-24 20:00","2019","01","24","20:00","-34.8","","-38.1","","72","","","M","11","","10","","","M","101.08","","","","-45","","NA"
"-94.97","74.72","RESOLUTE BAY A","2403497","2019-01-24 21:00","2019","01","24","21:00","-35.2","","-38.6","","72","","","M","12","","7","","","M","101.10","","","","-43","","NA"
"-94.97","74.72","RESOLUTE BAY A","2403497","2019-01-24 22:00","2019","01","24","22:00","-35.5","","-39.0","","71","","","M","22","","1","","","M","101.13","","","","-37","","NA"
"-94.97","74.72","RESOLUTE BAY A","2403497","2019-01-24 23:00","2019","01","24","23:00","-32.1","","-35.6","","72","","","M","13","","6","","","M","101.14","","","","-39","","NA"
"-94.97","74.72","RESOLUTE BAY A","2403497","2019-01-25 00:00","2019","01","25","00:00","-33.6","","-37.1","","72","","","M","12","","4","","","M","101.16","","","","-38","","NA"
"-94.97","74.72","RESOLUTE BAY A","2403497","2019-01-25 01:00","2019","01","25","01:00","-31.8","","-35.3","","72","","","M","13","","7","","","M","101.18","","","","-39","","NA"
"-94.97","74.72","RESOLUTE BAY A","2403497","2019-01-25 02:00","2019","01","25","02:00","-32.0","","-35.5","","72","","","M","14","","5","","","M","101.21","","","","-38","","NA"
"-94.97","74.72","RESOLUTE BAY A","2403497","2019-01-25 03:00","2019","01","25","03:00","-32.0","","-35.5","","72","","","M","12","","6","","","M","101.22","","","","-39","","NA"
"-94.97","74.72","RESOLUTE BAY A","2403497","2019-01-25 04:00","2019","01","25","04:00","-32.3","","-35.8","","72","","","M","12","","3","","","M","101.24","","","","-36","","NA"
"-94.97","74.72","RESOLUTE BAY A","2403497","2019-01-25 05:00","2019","01","25","05:00","-32.0","","-35.5","","71","","","M","13","","7","","","M","101.25","","","","-40","","NA"
"-94.97","74.72","RESOLUTE BAY A","2403497","2019-01-25 06:00","2019","01","25","06:00","-32.4","","-35.9","","71","","","M","11","","10","","","M","101.25","","","","-42","","NA"
"-94.97","74.72","RESOLUTE BAY A","2403497","2019-01-25 07:00","2019","01","25","07:00","-32.9","","-36.5","","71","","","M","13","","12","","","M","101.24","","","","-44","","NA"
"-94.97","74.72","RESOLUTE BAY A","2403497","2019-01-25 08:00","2019","01","25","08:00","-33.1","","-36.8","","70","","","M","12","","14","","","M","101.24","","","","-45","","NA"
"-94.97","74.72","RESOLUTE BAY A","2403497","2019-01-25 09:00","2019","01","25","09:00","-35.1","","-39.0","","69","","","M","12","","15","","","M","101.22","","","","-48","","NA"
"-94.97","74.72","RESOLUTE BAY A","2403497","2019-01-25 10:00","2019","01","25","10:00","-34.6","","-38.5","","69","","","M","13","","16","","","M","101.21","","","","-47","","NA"
"-94.97","74.72","RESOLUTE BAY A","2403497","2019-01-25 11:00","2019","01","25","11:00","-34.5","","-38.3","","69","","","M","14","","13","","","M","101.20","","","","-46","","NA"
"-94.97","74.72","RESOLUTE BAY A","2403497","2019-01-25 12:00","2019","01","25","12:00","-34.5","","-38.4","","69","","","M","14","","16","","","M","101.18","","","","-47","","NA"
"-94.97","74.72","RESOLUTE BAY A","2403497","2019-01-25 13:00","2019","01","25","13:00","-34.0","","-37.8","","69","","","M","15","","17","","","M","101.17","","","","-47","","NA"
"-94.97","74.72","RESOLUTE BAY A","2403497","2019-01-25 14:00","2019","01","25","14:00","-33.8","","-37.6","","69","","","M","14","","22","","","M","101.16","","","","-49","","NA"
"-94.97","74.72","RESOLUTE BAY A","2403497","2019-01-25 15:00","2019","01","25","15:00","-33.9","","-37.7","","69","","","M","14","","23","","","M","101.14","","","","-49","","NA"
"-94.97","74.72","RESOLUTE BAY A","2403497","2019-01-25 16:00","2019","01","25","16:00","-33.5","","-37.3","","70","","","M","14","","21","","","M","101.12","","","","-48","","NA"
"-94.97","74.72","RESOLUTE BAY A","2403497","2019-01-25 17:00","2019","01","25","17:00","-34.3","","-38.1","","69","","","M","13","","22","","","M","101.08","","","","-49","","NA"
"-94.97","74.72","RESOLUTE BAY A","2403497","2019-01-25 18:00","2019","01","25","18:00","-34.1","","-38.0","","69","","","M","15","","31","","","M","101.09","","","","-51","","NA"
"-94.97","74.72","RESOLUTE BAY A","2403497","2019-01-25 19:00","2019","01","25","19:00","-33.7","","-37.5","","70","","","M","15","","25","","","M","101.06","","","","-49","","NA"
"-94.97","74.72","RESOLUTE BAY A","2403497","2019-01-25 20:00","2019","01","25","20:00","-33.2","","-37.0","","70","","","M","15","","25","","","M","101.01","","","","-49","","NA"
"-94.97","74.72","RESOLUTE BAY A","2403497","2019-01-25 21:00","2019","01","25","21:00","-32.7","","-36.5","","70","","","M","15","","28","","","M","100.97","","","","-49","","NA"
"-94.97","74.72","RESOLUTE BAY A","2403497","2019-01-25 22:00","2019","01","25","22:00","-33.4","","-37.2","","70","","","M","15","","21","","","M","100.95","","","","-48","","NA"
"-94.97","74.72","RESOLUTE BAY A","2403497","2019-01-25 23:00","2019","01","25","23:00","-33.3","","-37.1","","70","","","M","16","","19","","","M","100.94","","","","-47","","NA"
"-94.97","74.72","RESOLUTE BAY A","2403497","2019-01-26 00:00","2019","01","26","00:00","-33.2","","-36.9","","70","","","M","15","","23","","","M","100.93","","","","-48","","NA"
"-94.97","74.72","RESOLUTE BAY A","2403497","2019-01-26 01:00","2019","01","26","01:00","-33.2","","-37.0","","70","","","M","15","","25","","","M","100.88","","","","-49","","NA"
"-94.97","74.72","RESOLUTE BAY A","2403497","2019-01-26 02:00","2019","01","26","02:00","-32.8","","-36.5","","70","","","M","15","","29","","","M","100.86","","","","-49","","NA"
"-94.97","74.72","RESOLUTE BAY A","2403497","2019-01-26 03:00","2019","01","26","03:00","-34.0","","-37.8","","69","","","M","15","","19","","","M","100.84","","","","-48","","NA"
"-94.97","74.72","RESOLUTE BAY A","2403497","2019-01-26 04:00","2019","01","26","04:00","-33.2","","-37.0","","70","","","M","16","","20","","","M","100.82","","","","-47","","NA"
"-94.97","74.72","RESOLUTE BAY A","2403497","2019-01-26 05:00","2019","01","26","05:00","-33.4","","-37.2","","70","","","M","17","","18","","","M","100.77","","","","-47","","NA"
"-94.97","74.72","RESOLUTE BAY A","2403497","2019-01-26 06:00","2019","01","26","06:00","-33.1","","-36.9","","70","","","M","15","","27","","","M","100.74","","","","-49","","NA"
"-94.97","74.72","RESOLUTE BAY A","2403497","2019-01-26 07:00","2019","01","26","07:00","-34.2","","-38.1","","69","","","M","16","","24","","","M","100.69","","","","-50","","NA"
"-94.97","74.72","RESOLUTE BAY A","2403497","2019-01-26 08:00","2019","01","26","08:00","-34.1","","-38.0","","69","","","M","15","","24","","","M","100.67","","","","-49","","NA"
"-94.97","74.72","RESOLUTE BAY A","2403497","2019-01-26 09:00","2019","01","26","09:00","-33.9","","-37.7","","69","","","M","17","","23","","","M","100.65","","","","-49","","NA"
"-94.97","74.72","RESOLUTE BAY A","2403497","2019-01-26 10:00","2019","01","26","10:00","-33.6","","-37.4","","70","","","M","17","","25","","","M","100.62","","","","-49","","NA"
"-94.97","74.72","RESOLUTE BAY A","2403497","2019-01-26 11:00","2019","01","26","11:00","-34.2","","-38.1","","69","","","M","15","","16","","","M","100.58","","","","-47","","NA"
"-94.97","74.72","RESOLUTE BAY A","2403497","2019-01-26 12:00","2019","01","26","12:00","-34.7","","-38.6","","69","","","M","14","","14","","","M","100.54","","","","-47","","NA"
"-94.97","74.72","RESOLUTE BAY A","2403497","2019-01-26 13:00","2019","01","26","13:00","-34.2","","-38.1","","69","","","M","17","","21","","","M","100.50","","","","-49","","NA"
"-94.97","74.72","RESOLUTE BAY A","2403497","2019-01-26 14:00","2019","01","26","14:00","-35.2","","-39.1","","68","","","M","16","","21","","","M","100.47","","","","-50","","NA"
"-94.97","74.72","RESOLUTE BAY A","2403497","2019-01-26 15:00","2019","01","26","15:00","-36.3","","-40.3","","67","","","M","14","","16","","","M","100.48","","","","-50","","NA"
"-94.97","74.72","RESOLUTE BAY A","2403497","2019-01-26 16:00","2019","01","26","16:00","-35.3","","-39.2","","68","","","M","12","","14","","","M","100.45","","","","-48","","NA"
"-94.97","74.72","RESOLUTE BAY A","2403497","2019-01-26 17:00","2019","01","26","17:00","-34.9","","-38.8","","69","","","M","16","","16","","","M","100.41","","","","-48","","NA"
"-94.97","74.72","RESOLUTE BAY A","2403497","2019-01-26 18:00","2019","01","26","18:00","-34.8","","-38.7","","69","","","M","15","","16","","","M","100.38","","","","-48","","NA"
"-94.97","74.72","RESOLUTE BAY A","2403497","2019-01-26 19:00","2019","01","26","19:00","-35.8","","-39.7","","68","","","M","13","","10","","","M","100.36","","","","-46","","NA"
"-94.97","74.72","RESOLUTE BAY A","2403497","2019-01-26 20:00","2019","01","26","20:00","-35.3","","-39.2","","69","","","M","15","","11","","","M","100.34","","","","-46","","NA"
"-94.97","74.72","RESOLUTE BAY A","2403497","2019-01-26 21:00","2019","01","26","21:00","-34.6","","-38.4","","69","","","M","12","","13","","","M","100.34","","","","-46","","NA"
"-94.97","74.72","RESOLUTE BAY A","2403497","2019-01-26 22:00","2019","01","26","22:00","-34.7","","-38.5","","69","","","M","13","","9","","","M","100.31","","","","-44","","NA"
"-94.97","74.72","RESOLUTE BAY A","2403497","2019-01-26 23:00","2019","01","26","23:00","-34.0","","-37.8","","69","","","M","13","","4","","","M","100.32","","","","-39","","NA"
"-94.97","74.72","RESOLUTE BAY A","2403497","2019-01-27 00:00","2019","01","27","00:00","-35.2","","-39.2","","68","","","M","29","","2","","","M","100.33","","","","-38","","NA"
"-94.97","74.72","RESOLUTE BAY A","2403497","2019-01-27 01:00","2019","01","27","01:00","-35.7","","-39.7","","68","","","M","3","","7","","","M","100.34","","","","-44","","NA"
"-94.97","74.72","RESOLUTE BAY A","2403497","2019-01-27 02:00","2019","01","27","02:00","-34.8","","-38.7","","69","","","M","3","","9","","","M","100.36","","","","-44","","NA"
"-94.97","74.72","RESOLUTE BAY A","2403497","2019-01-27 03:00","2019","01","27","03:00","-34.7","","-38.6","","69","","","M","3","","8","","","M","100.36","","","","-43","","NA"
"-94.97","74.72","RESOLUTE BAY A","2403497","2019-01-27 04:00","2019","01","27","04:00","-35.8","","-39.8","","68","","","M","2","","9","","","M","100.38","","","","-45","","NA"
"-94.97","74.72","RESOLUTE BAY A","2403497","2019-01-27 05:00","2019","01","27","05:00","-35.3","","-39.2","","68","","","M","1","","3","","","M","100.40","","","","-39","","NA"
"-94.97","74.72","RESOLUTE BAY A","2403497","2019-01-27 06:00","2019","01","27","06:00","-34.1","","-38.0","","69","","","M","3","","13","","","M","100.44","","","","-46","","NA"
"-94.97","74.72","RESOLUTE BAY A","2403497","2019-01-27 07:00","2019","01","27","07:00","-35.1","","-39.1","","68","","","M","35","","16","","","M","100.49","","","","-48","","NA"
"-94.97","74.72","RESOLUTE BAY A","2403497","2019-01-27 08:00","2019","01","27","08:00","-34.5","","-38.4","","69","","","M","34","","14","","","M","100.50","","","","-47","","NA"
"-94.97","74.72","RESOLUTE BAY A","2403497","2019-01-27 09:00","2019","01","27","09:00","-36.6","","-40.6","","67","","","M","34","","20","","","M","100.53","","","","-51","","NA"
"-94.97","74.72","RESOLUTE BAY A","2403497","2019-01-27 10:00","2019","01","27","10:00","-35.1","","-39.0","","68","","","M","30","","25","","","M","100.55","","","","-51","","NA"
"-94.97","74.72","RESOLUTE BAY A","2403497","2019-01-27 11:00","2019","01","27","11:00","-34.0","","-37.9","","69","","","M","31","","18","","","M","100.57","","","","-47","","NA"
"-94.97","74.72","RESOLUTE BAY A","2403497","2019-01-27 12:00","2019","01","27","12:00","-33.9","","-37.7","","69","","","M","36","","13","","","M","100.61","","","","-45","","NA"
"-94.97","74.72","RESOLUTE BAY A","2403497","2019-01-27 13:00","2019","01","27","13:00","-33.4","","-37.2","","69","","","M","2","","37","","","M","100.62","","","","-51","","NA"
"-94.97","74.72","RESOLUTE BAY A","2403497","2019-01-27 14:00","2019","01","27","14:00","-32.8","","-36.5","","70","","","M","2","","39","","","M","100.65","","","","-51","","NA"
"-94.97","74.72","RESOLUTE BAY A","2403497","2019-01-27 15:00","2019","01","27","15:00","-33.0","","-36.8","","70","","","M","3","","46","","","M","100.71","","","","-53","","NA"
"-94.97","74.72","RESOLUTE BAY A","2403497","2019-01-27 16:00","2019","01","27","16:00","-36.0","","-40.0","","68","","","M","2","","46","","","M","100.81","","","","-57","","NA"
"-94.97","74.72","RESOLUTE BAY A","2403497","2019-01-27 17:00","2019","01","27","17:00","-37.4","","-41.5","","67","","","M","31","","30","","","M","100.87","","","","-55","","NA"
"-94.97","74.72","RESOLUTE BAY A","2403497","2019-01-27 18:00","2019","01","27","18:00","-37.4","","-41.5","","67","","","M","3","","33","","","M","100.89","","","","-56","","NA"
"-94.97","74.72","RESOLUTE BAY A","2403497","2019-01-27 19:00","2019","01","27","19:00","-37.3","","-41.4","","67","","","M","34","","34","","","M","100.92","","","","-56","","NA"
"-94.97","74.72","RESOLUTE BAY A","2403497","2019-01-27 20:00","2019","01","27","20:00","-37.6","","-41.7","","67","","","M","35","","37","","","M","100.92","","","","-57","","NA"
"-94.97","74.72","RESOLUTE BAY A","2403497","2019-01-27 21:00","2019","01","27","21:00","-38.0","","-42.1","","66","","","M","36","","32","","","M","100.90","","","","-57","","NA"
"-94.97","74.72","RESOLUTE BAY A","2403497","2019-01-27 22:00","2019","01","27","22:00","-37.5","","-41.6","","67","","","M","3","","43","","","M","100.93","","","","-58","","NA"
"-94.97","74.72","RESOLUTE BAY A","2403497","2019-01-27 23:00","2019","01","27","23:00","-37.9","","-42.1","","66","","","M","3","","18","","","M","100.97","","","","-52","","NA"
"-94.97","74.72","RESOLUTE BAY A","2403497","2019-01-28 00:00","2019","01","28","00:00","-38.1","","-42.2","","66","","","M","1","","36","","","M","100.98","","","","-58","","NA"
"-94.97","74.72","RESOLUTE BAY A","2403497","2019-01-28 01:00","2019","01","28","01:00","-38.0","","-42.2","","66","","","M","34","","18","","","M","101.00","","","","-52","","NA"
"-94.97","74.72","RESOLUTE BAY A","2403497","2019-01-28 02:00","2019","01","28","02:00","-38.1","","-42.2","","66","","","M","32","","12","","","M","101.05","","","","-50","","NA"
"-94.97","74.72","RESOLUTE BAY A","2403497","2019-01-28 03:00","2019","01","28","03:00","-38.1","","-42.3","","66","","","M","31","","19","","","M","101.09","","","","-53","","NA"
"-94.97","74.72","RESOLUTE BAY A","2403497","2019-01-28 04:00","2019","01","28","04:00","-37.8","","-41.9","","66","","","M","1","","35","","","M","101.13","","","","-57","","NA"
"-94.97","74.72","RESOLUTE BAY A","2403497","2019-01-28 05:00","2019","01","28","05:00","-37.8","","-42.0","","66","","","M","33","","19","","","M","101.18","","","","-53","","NA"
"-94.97","74.72","RESOLUTE BAY A","2403497","2019-01-28 06:00","2019","01","28","06:00","-37.9","","-42.0","","66","","","M","33","","32","","","M","101.19","","","","-56","","NA"
"-94.97","74.72","RESOLUTE BAY A","2403497","2019-01-28 07:00","2019","01","28","07:00","-37.1","","-41.2","","67","","","M","34","","32","","","M","101.22","","","","-55","","NA"
"-94.97","74.72","RESOLUTE BAY A","2403497","2019-01-28 08:00","2019","01","28","08:00","-36.5","","-40.6","","67","","","M","36","","44","","","M","101.25","","","","-57","","NA"
"-94.97","74.72","RESOLUTE BAY A","2403497","2019-01-28 09:00","2019","01","28","09:00","-36.6","","-40.7","","67","","","M","36","","54","","","M","101.24","","","","-59","","NA"
"-94.97","74.72","RESOLUTE BAY A","2403497","2019-01-28 10:00","2019","01","28","10:00","-37.2","","-41.3","","67","","","M","1","","59","","","M","101.20","","","","-60","","NA"
"-94.97","74.72","RESOLUTE BAY A","2403497","2019-01-28 11:00","2019","01","28","11:00","-37.3","","-41.5","","66","","","M","3","","50","","","M","101.22","","","","-59","","NA"
"-94.97","74.72","RESOLUTE BAY A","2403497","2019-01-28 12:00","2019","01","28","12:00","-36.0","","-40.0","","68","","","M","30","","14","","","M","101.38","","","","-48","","NA"
"-94.97","74.72","RESOLUTE BAY A","2403497","2019-01-28 13:00","2019","01","28","13:00","-37.5","","-41.6","","66","","","M","34","","19","","","M","101.38","","","","-52","","NA"
"-94.97","74.72","RESOLUTE BAY A","2403497","2019-01-28 14:00","2019","01","28","14:00","-37.5","","-41.6","","66","","","M","30","","19","","","M","101.41","","","","-52","","NA"
"-94.97","74.72","RESOLUTE BAY A","2403497","2019-01-28 15:00","2019","01","28","15:00","-37.2","","-41.3","","67","","","M","28","","12","","","M","101.44","","","","-49","","NA"
"-94.97","74.72","RESOLUTE BAY A","2403497","2019-01-28 16:00","2019","01","28","16:00","-37.8","","-42.0","","66","","","M","34","","21","","","M","101.49","","","","-53","","NA"
"-94.97","74.72","RESOLUTE BAY A","2403497","2019-01-28 17:00","2019","01","28","17:00","-37.8","","-41.9","","66","","","M","30","","13","","","M","101.54","","","","-50","","NA"
"-94.97","74.72","RESOLUTE BAY A","2403497","2019-01-28 18:00","2019","01","28","18:00","-36.4","","-40.4","","67","","","M","30","","16","","","M","101.51","","","","-50","","NA"
"-94.97","74.72","RESOLUTE BAY A","2403497","2019-01-28 19:00","2019","01","28","19:00","-37.1","","-41.2","","67","","","M","35","","14","","","M","101.54","","","","-50","","NA"
"-94.97","74.72","RESOLUTE BAY A","2403497","2019-01-28 20:00","2019","01","28","20:00","-37.5","","-41.7","","66","","","M","31","","16","","","M","101.56","","","","-51","","NA"
"-94.97","74.72","RESOLUTE BAY A","2403497","2019-01-28 21:00","2019","01","28","21:00","-37.2","","-41.2","","67","","","M","31","","11","","","M","101.54","","","","-48","","NA"
"-94.97","74.72","RESOLUTE BAY A","2403497","2019-01-28 22:00","2019","01","28","22:00","-37.3","","-41.5","","67","","","M","34","","22","","","M","101.54","","","","-53","","NA"
"-94.97","74.72","RESOLUTE BAY A","2403497","2019-01-28 23:00","2019","01","28","23:00","-36.4","","-40.4","","67","","","M","35","","2","","","M","101.58","","","","-39","","NA"
"-94.97","74.72","RESOLUTE BAY A","2403497","2019-01-29 00:00","2019","01","29","00:00","-36.4","","-40.5","","67","","","M","28","","20","","","M","101.57","","","","-51","","NA"
"-94.97","74.72","RESOLUTE BAY A","2403497","2019-01-29 01:00","2019","01","29","01:00","-36.3","","-40.4","","67","","","M","31","","11","","","M","101.58","","","","-47","","NA"
"-94.97","74.72","RESOLUTE BAY A","2403497","2019-01-29 02:00","2019","01","29","02:00","-34.5","","-38.4","","69","","","M","31","","5","","","M","101.58","","","","-41","","NA"
"-94.97","74.72","RESOLUTE BAY A","2403497","2019-01-29 03:00","2019","01","29","03:00","-33.4","","-37.3","","69","","","M","29","","25","","","M","101.61","","","","-49","","NA"
"-94.97","74.72","RESOLUTE BAY A","2403497","2019-01-29 04:00","2019","01","29","04:00","-32.1","","-35.9","","70","","","M","25","","4","","","M","101.62","","","","-37","","NA"
"-94.97","74.72","RESOLUTE BAY A","2403497","2019-01-29 05:00","2019","01","29","05:00","-32.5","","-36.3","","70","","","M","33","","22","","","M","101.64","","","","-47","","NA"
"-94.97","74.72","RESOLUTE BAY A","2403497","2019-01-29 06:00","2019","01","29","06:00","-34.0","","-38.0","","69","","","M","29","","12","","","M","101.64","","","","-45","","NA"
"-94.97","74.72","RESOLUTE BAY A","2403497","2019-01-29 07:00","2019","01","29","07:00","-32.5","","-36.3","","70","","","M","3","","14","","","M","101.62","","","","-44","","NA"
"-94.97","74.72","RESOLUTE BAY A","2403497","2019-01-29 08:00","2019","01","29","08:00","-33.5","","-37.4","","69","","","M","16","","3","","","M","101.62","","","","-37","","NA"
"-94.97","74.72","RESOLUTE BAY A","2403497","2019-01-29 09:00","2019","01","29","09:00","-33.8","","-37.7","","69","","","M","21","","4","","","M","101.59","","","","-39","","NA"
"-94.97","74.72","RESOLUTE BAY A","2403497","2019-01-29 10:00","2019","01","29","10:00","-31.8","","-35.5","","70","","","M","8","","13","","","M","101.58","","","","-43","","NA"
"-94.97","74.72","RESOLUTE BAY A","2403497","2019-01-29 11:00","2019","01","29","11:00","-31.6","","-35.4","","70","","","M","8","","10","","","M","101.57","","","","-41","","NA"
"-94.97","74.72","RESOLUTE BAY A","2403497","2019-01-29 12:00","2019","01","29","12:00","-33.0","","-36.9","","69","","","M","1","","7","","","M","101.56","","","","-41","","NA"
"-94.97","74.72","RESOLUTE BAY A","2403497","2019-01-29 13:00","2019","01","29","13:00","-32.3","","-36.1","","70","","","M","35","","3","","","M","101.54","","","","-36","","NA"
"-94.97","74.72","RESOLUTE BAY A","2403497","2019-01-29 14:00","2019","01","29","14:00","-33.2","","-37.1","","69","","","M","21","","4","","","M","101.55","","","","-38","","NA"
"-94.97","74.72","RESOLUTE BAY A","2403497","2019-01-29 15:00","2019","01","29","15:00","-33.6","","-37.6","","69","","","M","16","","2","","","M","101.54","","","","-36","","NA"
"-94.97","74.72","RESOLUTE BAY A","2403497","2019-01-29 16:00","2019","01","29","16:00","-33.5","","-37.3","","69","","","M","25","","3","","","M","101.55","","","","-37","","NA"
"-94.97","74.72","RESOLUTE BAY A","2403497","2019-01-29 17:00","2019","01","29","17:00","-33.8","","-37.7","","68","","","M","34","","3","","","M","101.52","","","","-37","","NA"
"-94.97","74.72","RESOLUTE BAY A","2403497","2019-01-29 18:00","2019","01","29","18:00","-32.8","","-36.7","","69","","","M","28","","5","","","M","101.51","","","","-39","","NA"
"-94.97","74.72","RESOLUTE BAY A","2403497","2019-01-29 19:00","2019","01","29","19:00","-33.5","","-37.3","","69","","","M","24","","3","","","M","101.46","","","","-37","","NA"
"-94.97","74.72","RESOLUTE BAY A","2403497","2019-01-29 20:00","2019","01","29","20:00","-33.5","","-37.4","","69","","","M","14","","2","","","M","101.44","","","","-36","","NA"
"-94.97","74.72","RESOLUTE BAY A","2403497","2019-01-29 21:00","2019","01","29","21:00","-32.5","","-36.4","","69","","","M","3","","3","","","M","101.39","","","","-36","","NA"
"-94.97","74.72","RESOLUTE BAY A","2403497","2019-01-29 22:00","2019","01","29","22:00","-32.2","","-36.1","","69","","","M","35","","2","","","M","101.31","","","","-35","","NA"
"-94.97","74.72","RESOLUTE BAY A","2403497","2019-01-29 23:00","2019","01","29","23:00","-35.8","","-39.8","","68","","","M","31","","1","","","M","101.28","","","","-37","","NA"
"-94.97","74.72","RESOLUTE BAY A","2403497","2019-01-30 00:00","2019","01","30","00:00","-35.2","","-39.2","","68","","","M","9","","5","","","M","101.25","","","","-42","","NA"
"-94.97","74.72","RESOLUTE BAY A","2403497","2019-01-30 01:00","2019","01","30","01:00","-33.5","","-37.3","","69","","","M","","","0","","","M","101.23","","","","","","NA"
"-94.97","74.72","RESOLUTE BAY A","2403497","2019-01-30 02:00","2019","01","30","02:00","-36.9","","-40.9","","68","","","M","36","","4","","","M","101.24","","","","-42","","NA"
"-94.97","74.72","RESOLUTE BAY A","2403497","2019-01-30 03:00","2019","01","30","03:00","-35.5","","-39.4","","69","","","M","26","","2","","","M","101.24","","","","-38","","NA"
"-94.97","74.72","RESOLUTE BAY A","2403497","2019-01-30 04:00","2019","01","30","04:00","-34.5","","-38.3","","69","","","M","9","","4","","","M","101.25","","","","-39","","NA"
"-94.97","74.72","RESOLUTE BAY A","2403497","2019-01-30 05:00","2019","01","30","05:00","-37.7","","-41.7","","67","","","M","34","","5","","","M","101.23","","","","-44","","NA"
"-94.97","74.72","RESOLUTE BAY A","2403497","2019-01-30 06:00","2019","01","30","06:00","-38.7","","-42.9","","66","","","M","35","","8","","","M","101.22","","","","-48","","NA"
"-94.97","74.72","RESOLUTE BAY A","2403497","2019-01-30 07:00","2019","01","30","07:00","-35.5","","-39.5","","68","","","M","4","","9","","","M","101.21","","","","-45","","NA"
"-94.97","74.72","RESOLUTE BAY A","2403497","2019-01-30 08:00","2019","01","30","08:00","-37.6","","-41.7","","67","","","M","29","","8","","","M","101.21","","","","-47","","NA"
"-94.97","74.72","RESOLUTE BAY A","2403497","2019-01-30 09:00","2019","01","30","09:00","-38.9","","-43.0","","66","","","M","28","","7","","","M","101.20","","","","-48","","NA"
"-94.97","74.72","RESOLUTE BAY A","2403497","2019-01-30 10:00","2019","01","30","10:00","-39.5","","-43.7","","65","","","M","30","","5","","","M","101.20","","","","-46","","NA"
"-94.97","74.72","RESOLUTE BAY A","2403497","2019-01-30 11:00","2019","01","30","11:00","-37.8","","-41.9","","67","","","M","31","","5","","","M","101.21","","","","-44","","NA"
"-94.97","74.72","RESOLUTE BAY A","2403497","2019-01-30 12:00","2019","01","30","12:00","-39.2","","-43.4","","66","","","M","28","","12","","","M","101.21","","","","-51","","NA"
"-94.97","74.72","RESOLUTE BAY A","2403497","2019-01-30 13:00","2019","01","30","13:00","-40.3","","-44.6","","65","","","M","34","","9","","","M","101.24","","","","-51","","NA"
"-94.97","74.72","RESOLUTE BAY A","2403497","2019-01-30 14:00","2019","01","30","14:00","-36.8","","-40.9","","67","","","M","34","","9","","","M","101.26","","","","-47","","NA"
"-94.97","74.72","RESOLUTE BAY A","2403497","2019-01-30 15:00","2019","01","30","15:00","-39.1","","-43.3","","65","","","M","32","","14","","","M","101.32","","","","-52","","NA"
"-94.97","74.72","RESOLUTE BAY A","2403497","2019-01-30 16:00","2019","01","30","16:00","-39.2","","-43.5","","65","","","M","32","","17","","","M","101.35","","","","-54","","NA"
"-94.97","74.72","RESOLUTE BAY A","2403497","2019-01-30 17:00","2019","01","30","17:00","-35.7","","-39.7","","68","","","M","36","","21","","","M","101.35","","","","-51","","NA"
"-94.97","74.72","RESOLUTE BAY A","2403497","2019-01-30 18:00","2019","01","30","18:00","-36.4","","-40.5","","67","","","M","33","","17","","","M","101.38","","","","-50","","NA"
"-94.97","74.72","RESOLUTE BAY A","2403497","2019-01-30 19:00","2019","01","30","19:00","-38.3","","-42.5","","66","","","M","32","","12","","","M","101.40","","","","-50","","NA"
"-94.97","74.72","RESOLUTE BAY A","2403497","2019-01-30 20:00","2019","01","30","20:00","-38.4","","-42.5","","66","","","M","31","","12","","","M","101.39","","","","-50","","NA"
"-94.97","74.72","RESOLUTE BAY A","2403497","2019-01-30 21:00","2019","01","30","21:00","-36.7","","-40.8","","67","","","M","33","","9","","","M","101.41","","","","-47","","NA"
"-94.97","74.72","RESOLUTE BAY A","2403497","2019-01-30 22:00","2019","01","30","22:00","-35.9","","-40.0","","68","","","M","34","","16","","","M","101.43","","","","-49","","NA"
"-94.97","74.72","RESOLUTE BAY A","2403497","2019-01-30 23:00","2019","01","30","23:00","-37.5","","-41.7","","66","","","M","32","","12","","","M","101.46","","","","-49","","NA"
"-94.97","74.72","RESOLUTE BAY A","2403497","2019-01-31 00:00","2019","01","31","00:00","-37.7","","-41.8","","66","","","M","32","","10","","","M","101.48","","","","-48","","NA"
"-94.97","74.72","RESOLUTE BAY A","2403497","2019-01-31 01:00","2019","01","31","01:00","-36.7","","-40.8","","67","","","M","35","","10","","","M","101.49","","","","-47","","NA"
"-94.97","74.72","RESOLUTE BAY A","2403497","2019-01-31 02:00","2019","01","31","02:00","-37.5","","-41.6","","66","","","M","30","","1","","","M","101.51","","","","-39","","NA"
"-94.97","74.72","RESOLUTE BAY A","2403497","2019-01-31 03:00","2019","01","31","03:00","-36.7","","-40.8","","67","","","M","34","","3","","","M","101.54","","","","-41","","NA"
"-94.97","74.72","RESOLUTE BAY A","2403497","2019-01-31 04:00","2019","01","31","04:00","-36.7","","-40.8","","67","","","M","34","","7","","","M","101.55","","","","-45","","NA"
"-94.97","74.72","RESOLUTE BAY A","2403497","2019-01-31 05:00","2019","01","31","05:00","-36.8","","-40.9","","67","","","M","33","","5","","","M","101.56","","","","-43","","NA"
"-94.97","74.72","RESOLUTE BAY A","2403497","2019-01-31 06:00","2019","01","31","06:00","-36.4","","-40.5","","67","","","M","31","","5","","","M","101.61","","","","-43","","NA"
"-94.97","74.72","RESOLUTE BAY A","2403497","2019-01-31 07:00","2019","01","31","07:00","-36.9","","-40.9","","67","","","M","32","","5","","","M","101.58","","","","-43","","NA"
"-94.97","74.72","RESOLUTE BAY A","2403497","2019-01-31 08:00","2019","01","31","08:00","-36.6","","-40.7","","67","","","M","26","","4","","","M","101.59","","","","-42","","NA"
"-94.97","74.72","RESOLUTE BAY A","2403497","2019-01-31 09:00","2019","01","31","09:00","-36.4","","-40.4","","67","","","M","35","","5","","","M","101.61","","","","-43","","NA"
"-94.97","74.72","RESOLUTE BAY A","2403497","2019-01-31 10:00","2019","01","31","10:00","-35.8","","-39.8","","68","","","M","12","","4","","","M","101.62","","","","-41","","NA"
"-94.97","74.72","RESOLUTE BAY A","2403497","2019-01-31 11:00","2019","01","31","11:00","-35.9","","-39.9","","68","","","M","11","","3","","","M","101.64","","","","-40","","NA"
"-94.97","74.72","RESOLUTE BAY A","2403497","2019-01-31 12:00","2019","01","31","12:00","-35.0","","-39.0","","68","","","M","13","","8","","","M","101.67","","","","-44","","NA"
"-94.97","74.72","RESOLUTE BAY A","2403497","2019-01-31 13:00","2019","01","31","13:00","-34.2","","-38.0","","69","","","M","15","","3","","","M","101.68","","","","-38","","NA"
"-94.97","74.72","RESOLUTE BAY A","2403497","2019-01-31 14:00","2019","01","31","14:00","-34.5","","-38.3","","69","","","M","11","","5","","","M","101.69","","","","-41","","NA"
"-94.97","74.72","RESOLUTE BAY A","2403497","2019-01-31 15:00","2019","01","31","15:00","-33.8","","-37.6","","69","","","M","12","","6","","","M","101.70","","","","-41","","NA"
"-94.97","74.72","RESOLUTE BAY A","2403497","2019-01-31 16:00","2019","01","31","16:00","-33.9","","-37.7","","69","","","M","11","","8","","","M","101.74","","","","-43","","NA"
"-94.97","74.72","RESOLUTE BAY A","2403497","2019-01-31 17:00","2019","01","31","17:00","-33.7","","-37.6","","69","","","M","11","","8","","","M","101.76","","","","-42","","NA"
"-94.97","74.72","RESOLUTE BAY A","2403497","2019-01-31 18:00","2019","01","31","18:00","-33.9","","-37.8","","69","","","M","10","","10","","","M","101.77","","","","-44","","NA"
"-94.97","74.72","RESOLUTE BAY A","2403497","2019-01-31 19:00","2019","01","31","19:00","-34.2","","-38.1","","69","","","M","9","","6","","","M","101.76","","","","-41","","NA"
"-94.97","74.72","RESOLUTE BAY A","2403497","2019-01-31 20:00","2019","01","31","20:00","-34.4","","-38.3","","69","","","M","7","","5","","","M","101.75","","","","-41","","NA"
"-94.97","74.72","RESOLUTE BAY A","2403497","2019-01-31 21:00","2019","01","31","21:00","-33.0","","-36.8","","70","","","M","24","","1","","","M","101.75","","","","-34","","NA"
"-94.97","74.72","RESOLUTE BAY A","2403497","2019-01-31 22:00","2019","01","31","22:00","-33.0","","-36.8","","70","","","M","13","","3","","","M","101.73","","","","-37","","NA"
"-94.97","74.72","RESOLUTE BAY A","2403497","2019-01-31 23:00","2019","01","31","23:00","-32.7","","-36.4","","70","","","M","35","","4","","","M","101.72","","","","-37","","NA"
