"Longitude (x)","Latitude (y)","Station Name","Climate ID","Date/Time (LST)","Year","Month","Day","Time (LST)","Temp (°C)","Temp Flag","Dew Point Temp (°C)","Dew Point Temp Flag","Rel Hum (%)","Rel Hum Flag","Precip. Amount (mm)","Precip. Amount Flag","Wind Dir (10s deg)","Wind Dir Flag","Wind Spd (km/h)","Wind Spd Flag","Visibility (km)","Visibility Flag","Stn Press (kPa)","Stn Press Flag","Hmdx","Hmdx Flag","Wind Chill","Wind Chill Flag","Weather"
"-122.60","58.84","FORT NELSON A","1192946","2019-02-01 00:00","2019","02","01","00:00","-22.1","","-25.0","","77","","","","32","","5","","24.1","","97.81","","","","-27","","Snow"
"-122.60","58.84","FORT NELSON A","1192946","2019-02-01 01:00","2019","02","01","01:00","-23.4","","-26.2","","78","","","","29","","3","","19.3","","97.83","","","","-26","","Snow"
"-122.60","58.84","FORT NELSON A","1192946","2019-02-01 02:00","2019","02","01","02:00","-23.6","","-26.3","","79","","","","35","","7","","12.9","","97.85","","","","-30","","Snow"
"-122.60","58.84","FORT NELSON A","1192946","2019-02-01 03:00","2019","02","01","03:00","-23.4","","-26.5","","76","","","","33","","9","","24.1","","97.85","","","","-31","","Snow"
"-122.60","58.84","FORT NELSON A","1192946","2019-02-01 04:00","2019","02","01","04:00","-22.9","","-27.2","","69","","","","31","","9","","24.1","","97.86","","","","-30","","Snow"
"-122.60","58.84","FORT NELSON A","1192946","2019-02-01 05:00","2019","02","01","05:00","-23.3","","-27.4","","69","","","","34","","10","","24.1","","97.86","","","","-31","","Snow"
"-122.60","58.84","FORT NELSON A","1192946","2019-02-01 06:00","2019","02","01","06:00","-23.6","","-27.7","","70","","","","35","","8","","6.4","","97.84","","","","-30","","Snow"
"-122.60","58.84","FORT NELSON A","1192946","2019-02-01 07:00","2019","02","01","07:00","-24.1","","-27.9","","71","","","","35","","14","","6.4","","97.83","","","","-34","","Snow"
"-122.60","58.84","FORT NELSON A","1192946","2019-02-01 08:00","2019","02","01","08:00","-24.5","","-28.3","","72","","","","33","","15","","4.8","","97.88","","","","-35","","Snow"
"-122.60","58.84","FORT NELSON A","1192946","2019-02-01 09:00","2019","02","01","09:00","-24.9","","-28.7","","71","","","","34","","12","","6.4","","97.87","","","","-34","","Snow"
"-122.60","58.84","FORT NELSON A","1192946","2019-02-01 10:00","2019","02","01","10:00","-24.9","","-28.9","","70","","","","33","","13","","8.1","","97.87","","","","-34","","Snow"
"-122.60","58.84","FORT NELSON A","1192946","2019-02-01 11:00","2019","02","01","11:00","-25.1","","-29.0","","71","","","","34","","11","","4.8","","97.87","","","","-34","","Snow"
"-122.60","58.84","FORT NELSON A","1192946","2019-02-01 12:00","2019","02","01","12:00","-25.1","","-29.1","","70","","","","36","","16","","2.4","","97.86","","","","-36","","Snow"
"-122.60","58.84","FORT NELSON A","1192946","2019-02-01 13:00","2019","02","01","13:00","-24.8","","-28.5","","72","","","","34","","10","","2.4","","97.82","","","","-33","","Snow"
"-122.60","58.84","FORT NELSON A","1192946","2019-02-01 14:00","2019","02","01","14:00","-24.8","","-28.7","","70","","","","33","","15","","2.4","","97.80","","","","-35","","Snow,Blowing Snow"
"-122.60","58.84","FORT NELSON A","1192946","2019-02-01 15:00","2019","02","01","15:00","-24.8","","-28.7","","70","","","","32","","17","","2.8","","97.77","","","","-36","","Snow,Blowing Snow"
"-122.60","58.84","FORT NELSON A","1192946","2019-02-01 16:00","2019","02","01","16:00","-24.7","","-28.3","","72","","","","34","","18","","2.8","","97.78","","","","-36","","Snow,Blowing Snow"
"-122.60","58.84","FORT NELSON A","1192946","2019-02-01 17:00","2019","02","01","17:00","-24.8","","-28.4","","73","","","","34","","14","","2.4","","97.78","","","","-35","","Snow,Blowing Snow"
"-122.60","58.84","FORT NELSON A","1192946","2019-02-01 18:00","2019","02","01","18:00","-24.9","","-28.4","","74","","","","32","","13","","2.4","","97.82","","","","-34","","Snow"
"-122.60","58.84","FORT NELSON A","1192946","2019-02-01 19:00","2019","02","01","19:00","-24.9","","-28.5","","73","","","","33","","18","","2.4","","97.82","","","","-36","","Snow"
"-122.60","58.84","FORT NELSON A","1192946","2019-02-01 20:00","2019","02","01","20:00","-25.0","","-28.5","","73","","","","34","","17","","2.4","","97.80","","","","-36","","Snow"
"-122.60","58.84","FORT NELSON A","1192946","2019-02-01 21:00","2019","02","01","21:00","-25.0","","-28.6","","73","","","","33","","15","","2.4","","97.80","","","","-35","","Snow"
"-122.60","58.84","FORT NELSON A","1192946","2019-02-01 22:00","2019","02","01","22:00","-25.0","","-28.6","","73","","","","33","","18","","2.4","","97.82","","","","-36","","Snow"
"-122.60","58.84","FORT NELSON A","1192946","2019-02-01 23:00","2019","02","01","23:00","-25.1","","-28.8","","72","","","","32","","22","","2.8","","97.86","","","","-37","","Snow,Blowing Snow"
"-122.60","58.84","FORT NELSON A","1192946","2019-02-02 00:00","2019","02","02","00:00","-25.2","","-28.8","","72","","","","33","","18","","2.8","","97.89","","","","-36","","Snow,Blowing Snow"
"-122.60","58.84","FORT NELSON A","1192946","2019-02-02 01:00","2019","02","02","01:00","-25.2","","-29.0","","72","","","","32","","16","","3.2","","97.96","","","","-36","","Snow,Blowing Snow"
"-122.60","58.84","FORT NELSON A","1192946","2019-02-02 02:00","2019","02","02","02:00","-25.4","","-29.1","","72","","","","33","","16","","3.2","","97.98","","","","-36","","Snow,Blowing Snow"
"-122.60","58.84","FORT NELSON A","1192946","2019-02-02 03:00","2019","02","02","03:00","-25.3","","-29.1","","72","","","","32","","14","","3.2","","98.02","","","","-35","","Snow,Blowing Snow"
"-122.60","58.84","FORT NELSON A","1192946","2019-02-02 04:00","2019","02","02","04:00","-25.2","","-29.0","","72","","","","32","","16","","3.2","","98.07","","","","-36","","Snow,Blowing Snow"
"-122.60","58.84","FORT NELSON A","1192946","2019-02-02 05:00","2019","02","02","05:00","-25.2","","-29.0","","71","","","","32","","19","","3.2","","98.11","","","","-37","","Snow,Blowing Snow"
"-122.60","58.84","FORT NELSON A","1192946","2019-02-02 06:00","2019","02","02","06:00","-25.3","","-29.2","","70","","","","32","","20","","4.8","","98.16","","","","-37","","Snow,Blowing Snow"
"-122.60","58.84","FORT NELSON A","1192946","2019-02-02 07:00","2019","02","02","07:00","-25.4","","-29.3","","70","","","","32","","18","","8.1","","98.22","","","","-37","","Snow"
"-122.60","58.84","FORT NELSON A","1192946","2019-02-02 08:00","2019","02","02","08:00","-25.5","","-29.5","","70","","","","31","","16","","8.1","","98.25","","","","-36","","Snow"
"-122.60","58.84","FORT NELSON A","1192946","2019-02-02 09:00","2019","02","02","09:00","-25.4","","-29.5","","70","","","","32","","15","","8.1","","98.33","","","","-36","","Snow"
"-122.60","58.84","FORT NELSON A","1192946","2019-02-02 10:00","2019","02","02","10:00","-25.2","","-29.3","","69","","","","31","","17","","8.1","","98.38","","","","-36","","Snow"
"-122.60","58.84","FORT NELSON A","1192946","2019-02-02 11:00","2019","02","02","11:00","-25.1","","-29.3","","68","","","","31","","12","","8.1","","98.43","","","","-34","","Snow"
"-122.60","58.84","FORT NELSON A","1192946","2019-02-02 12:00","2019","02","02","12:00","-24.3","","-29.1","","65","","","","32","","17","","16.1","","98.46","","","","-35","","Snow"
"-122.60","58.84","FORT NELSON A","1192946","2019-02-02 13:00","2019","02","02","13:00","-23.9","","-28.5","","67","","","","31","","15","","16.1","","98.45","","","","-34","","Cloudy"
"-122.60","58.84","FORT NELSON A","1192946","2019-02-02 14:00","2019","02","02","14:00","-23.8","","-28.6","","65","","","","32","","15","","19.3","","98.48","","","","-34","","NA"
"-122.60","58.84","FORT NELSON A","1192946","2019-02-02 15:00","2019","02","02","15:00","-23.4","","-27.7","","68","","","","32","","10","","19.3","","98.49","","","","-31","","NA"
"-122.60","58.84","FORT NELSON A","1192946","2019-02-02 16:00","2019","02","02","16:00","-23.7","","-27.9","","69","","","","33","","11","","19.3","","98.53","","","","-32","","Mostly Cloudy"
"-122.60","58.84","FORT NELSON A","1192946","2019-02-02 17:00","2019","02","02","17:00","-24.3","","-27.4","","76","","","","36","","2","","6.4","","98.55","","","","-26","","Snow"
"-122.60","58.84","FORT NELSON A","1192946","2019-02-02 18:00","2019","02","02","18:00","-27.0","","-30.0","","77","","","","24","","4","","6.4","","98.56","","","","-31","","Snow"
"-122.60","58.84","FORT NELSON A","1192946","2019-02-02 19:00","2019","02","02","19:00","-25.4","","-28.6","","76","","","","36","","3","","6.4","","98.56","","","","-28","","Snow"
"-122.60","58.84","FORT NELSON A","1192946","2019-02-02 20:00","2019","02","02","20:00","-26.8","","-29.7","","77","","","","21","","3","","6.4","","98.59","","","","-30","","Snow"
"-122.60","58.84","FORT NELSON A","1192946","2019-02-02 21:00","2019","02","02","21:00","-26.6","","-29.4","","77","","","","36","","1","","24.1","","98.60","","","","-28","","NA"
"-122.60","58.84","FORT NELSON A","1192946","2019-02-02 22:00","2019","02","02","22:00","-27.5","","-30.3","","77","","","","36","","2","","24.1","","98.61","","","","-30","","Mainly Clear"
"-122.60","58.84","FORT NELSON A","1192946","2019-02-02 23:00","2019","02","02","23:00","-29.7","","-32.6","","76","","","","28","","4","","24.1","","98.59","","","","-34","","Snow"
"-122.60","58.84","FORT NELSON A","1192946","2019-02-03 00:00","2019","02","03","00:00","-31.0","","-34.2","","74","","","","23","","5","","4.8","","98.57","","","","-37","","Ice Crystals"
"-122.60","58.84","FORT NELSON A","1192946","2019-02-03 01:00","2019","02","03","01:00","-32.1","","-35.5","","72","","","","26","","4","","2.4","","98.55","","","","-37","","Ice Crystals"
"-122.60","58.84","FORT NELSON A","1192946","2019-02-03 02:00","2019","02","03","02:00","-32.7","","-36.1","","72","","","","20","","3","","1.6","","98.53","","","","-36","","Ice Crystals"
"-122.60","58.84","FORT NELSON A","1192946","2019-02-03 03:00","2019","02","03","03:00","-33.8","","-37.2","","72","","","","18","","8","","8.1","","98.51","","","","-42","","Ice Crystals"
"-122.60","58.84","FORT NELSON A","1192946","2019-02-03 04:00","2019","02","03","04:00","-33.8","","-37.2","","72","","","","17","","8","","24.1","","98.47","","","","-42","","Ice Crystals"
"-122.60","58.84","FORT NELSON A","1192946","2019-02-03 05:00","2019","02","03","05:00","-33.8","","-37.1","","72","","","","18","","9","","24.1","","98.43","","","","-43","","Ice Crystals"
"-122.60","58.84","FORT NELSON A","1192946","2019-02-03 06:00","2019","02","03","06:00","-31.1","","-34.4","","73","","","","18","","7","","24.1","","98.43","","","","-39","","NA"
"-122.60","58.84","FORT NELSON A","1192946","2019-02-03 07:00","2019","02","03","07:00","-31.9","","-35.3","","73","","","","17","","7","","24.1","","98.41","","","","-39","","Ice Crystals"
"-122.60","58.84","FORT NELSON A","1192946","2019-02-03 08:00","2019","02","03","08:00","-31.9","","-35.4","","72","","","","18","","8","","24.1","","98.39","","","","-40","","Ice Crystals"
"-122.60","58.84","FORT NELSON A","1192946","2019-02-03 09:00","2019","02","03","09:00","-31.3","","-34.7","","73","","","","18","","9","","48.3","","98.37","","","","-40","","NA"
"-122.60","58.84","FORT NELSON A","1192946","2019-02-03 10:00","2019","02","03","10:00","-29.8","","-33.2","","73","","","","17","","13","","48.3","","98.33","","","","-40","","Clear"
"-122.60","58.84","FORT NELSON A","1192946","2019-02-03 11:00","2019","02","03","11:00","-28.1","","-31.6","","72","","","","18","","8","","48.3","","98.30","","","","-36","","NA"
"-122.60","58.84","FORT NELSON A","1192946","2019-02-03 12:00","2019","02","03","12:00","-27.2","","-31.2","","69","","","","14","","5","","48.3","","98.25","","","","-32","","NA"
"-122.60","58.84","FORT NELSON A","1192946","2019-02-03 13:00","2019","02","03","13:00","-25.1","","-29.6","","67","","","","13","","8","","48.3","","98.20","","","","-32","","Clear"
"-122.60","58.84","FORT NELSON A","1192946","2019-02-03 14:00","2019","02","03","14:00","-23.5","","-28.2","","66","","","","16","","7","","48.3","","98.13","","","","-30","","NA"
"-122.60","58.84","FORT NELSON A","1192946","2019-02-03 15:00","2019","02","03","15:00","-23.3","","-27.6","","69","","","","22","","4","","48.3","","98.05","","","","-27","","NA"
"-122.60","58.84","FORT NELSON A","1192946","2019-02-03 16:00","2019","02","03","16:00","-22.6","","-26.5","","71","","","","36","","2","","48.3","","98.03","","","","-24","","Clear"
"-122.60","58.84","FORT NELSON A","1192946","2019-02-03 17:00","2019","02","03","17:00","-26.9","","-29.9","","76","","","","28","","5","","48.3","","98.00","","","","-32","","NA"
"-122.60","58.84","FORT NELSON A","1192946","2019-02-03 18:00","2019","02","03","18:00","-28.6","","-31.6","","75","","","","36","","3","","24.1","","97.97","","","","-32","","NA"
"-122.60","58.84","FORT NELSON A","1192946","2019-02-03 19:00","2019","02","03","19:00","-30.4","","-33.5","","74","","","","20","","5","","24.1","","97.93","","","","-36","","Clear"
"-122.60","58.84","FORT NELSON A","1192946","2019-02-03 20:00","2019","02","03","20:00","-30.5","","-33.6","","75","","","","24","","7","","24.1","","97.90","","","","-38","","NA"
"-122.60","58.84","FORT NELSON A","1192946","2019-02-03 21:00","2019","02","03","21:00","-31.1","","-34.2","","75","","","","24","","5","","24.1","","97.86","","","","-37","","NA"
"-122.60","58.84","FORT NELSON A","1192946","2019-02-03 22:00","2019","02","03","22:00","-33.6","","-36.9","","73","","","","18","","8","","24.1","","97.81","","","","-42","","Clear"
"-122.60","58.84","FORT NELSON A","1192946","2019-02-03 23:00","2019","02","03","23:00","-32.0","","-35.1","","75","","","","16","","6","","4.8","","97.76","","","","-39","","Ice Crystals"
"-122.60","58.84","FORT NELSON A","1192946","2019-02-04 00:00","2019","02","04","00:00","-31.4","","-34.7","","73","","","","20","","7","","24.1","","97.73","","","","-39","","Ice Crystals"
"-122.60","58.84","FORT NELSON A","1192946","2019-02-04 01:00","2019","02","04","01:00","-32.6","","-35.9","","73","","","","24","","7","","4.8","","97.71","","","","-40","","Ice Crystals"
"-122.60","58.84","FORT NELSON A","1192946","2019-02-04 02:00","2019","02","04","02:00","-33.4","","-37.0","","71","","","","24","","6","","8.1","","97.68","","","","-40","","Ice Crystals"
"-122.60","58.84","FORT NELSON A","1192946","2019-02-04 03:00","2019","02","04","03:00","-34.2","","-37.8","","71","","","","23","","5","","24.1","","97.64","","","","-40","","Ice Crystals"
"-122.60","58.84","FORT NELSON A","1192946","2019-02-04 04:00","2019","02","04","04:00","-34.7","","-38.3","","71","","","","22","","6","","24.1","","97.60","","","","-42","","Ice Crystals"
"-122.60","58.84","FORT NELSON A","1192946","2019-02-04 05:00","2019","02","04","05:00","-34.8","","-38.5","","70","","","","23","","8","","24.1","","97.54","","","","-44","","Ice Crystals"
"-122.60","58.84","FORT NELSON A","1192946","2019-02-04 06:00","2019","02","04","06:00","-35.7","","-39.4","","70","","","","24","","6","","24.1","","97.52","","","","-43","","NA"
"-122.60","58.84","FORT NELSON A","1192946","2019-02-04 07:00","2019","02","04","07:00","-36.1","","-39.8","","70","","","","25","","3","","24.1","","97.46","","","","-40","","Clear"
"-122.60","58.84","FORT NELSON A","1192946","2019-02-04 08:00","2019","02","04","08:00","-36.5","","-40.1","","70","","","","24","","5","","48.3","","97.43","","","","-43","","NA"
"-122.60","58.84","FORT NELSON A","1192946","2019-02-04 09:00","2019","02","04","09:00","-36.4","","-40.1","","70","","","","23","","4","","48.3","","97.40","","","","-42","","NA"
"-122.60","58.84","FORT NELSON A","1192946","2019-02-04 10:00","2019","02","04","10:00","-32.3","","-35.7","","73","","","","18","","7","","48.3","","97.31","","","","-40","","Clear"
"-122.60","58.84","FORT NELSON A","1192946","2019-02-04 11:00","2019","02","04","11:00","-30.8","","-34.2","","72","","","","25","","4","","48.3","","97.28","","","","-35","","NA"
"-122.60","58.84","FORT NELSON A","1192946","2019-02-04 12:00","2019","02","04","12:00","-28.3","","-31.6","","73","","","","36","","3","","48.3","","97.23","","","","-32","","NA"
"-122.60","58.84","FORT NELSON A","1192946","2019-02-04 13:00","2019","02","04","13:00","-27.4","","-31.0","","72","","","","27","","4","","48.3","","97.17","","","","-32","","Mainly Clear"
"-122.60","58.84","FORT NELSON A","1192946","2019-02-04 14:00","2019","02","04","14:00","-25.4","","-29.6","","69","","","","36","","1","","48.3","","97.11","","","","-26","","NA"
"-122.60","58.84","FORT NELSON A","1192946","2019-02-04 15:00","2019","02","04","15:00","-25.8","","-29.4","","73","","","","25","","4","","48.3","","97.09","","","","-30","","NA"
"-122.60","58.84","FORT NELSON A","1192946","2019-02-04 16:00","2019","02","04","16:00","-25.6","","-28.8","","75","","","","23","","5","","48.3","","97.10","","","","-31","","Mostly Cloudy"
"-122.60","58.84","FORT NELSON A","1192946","2019-02-04 17:00","2019","02","04","17:00","-25.2","","-28.7","","73","","","","36","","3","","24.1","","97.08","","","","-28","","NA"
"-122.60","58.84","FORT NELSON A","1192946","2019-02-04 18:00","2019","02","04","18:00","-24.6","","-28.2","","73","","","","36","","3","","24.1","","97.08","","","","-28","","NA"
"-122.60","58.84","FORT NELSON A","1192946","2019-02-04 19:00","2019","02","04","19:00","-25.5","","-28.6","","76","","","","10","","7","","8.1","","97.11","","","","-32","","Snow"
"-122.60","58.84","FORT NELSON A","1192946","2019-02-04 20:00","2019","02","04","20:00","-25.5","","-28.5","","77","","","","0","","1","","16.1","","97.14","","","","-27","","Snow"
"-122.60","58.84","FORT NELSON A","1192946","2019-02-04 21:00","2019","02","04","21:00","-25.1","","-28.1","","76","","","","36","","1","","16.1","","97.16","","","","-26","","Snow"
"-122.60","58.84","FORT NELSON A","1192946","2019-02-04 22:00","2019","02","04","22:00","-24.8","","-27.8","","77","","","","36","","2","","16.1","","97.19","","","","-27","","Snow"
"-122.60","58.84","FORT NELSON A","1192946","2019-02-04 23:00","2019","02","04","23:00","-25.2","","-28.1","","77","","","","0","","1","","9.7","","97.24","","","","-26","","Snow"
"-122.60","58.84","FORT NELSON A","1192946","2019-02-05 00:00","2019","02","05","00:00","-25.6","","-28.5","","77","","","","36","","1","","12.9","","97.27","","","","-27","","Snow"
"-122.60","58.84","FORT NELSON A","1192946","2019-02-05 01:00","2019","02","05","01:00","-25.6","","-28.5","","77","","","","36","","3","","8.1","","97.32","","","","-29","","Snow"
"-122.60","58.84","FORT NELSON A","1192946","2019-02-05 02:00","2019","02","05","02:00","-25.9","","-28.7","","78","","","","36","","3","","24.1","","97.37","","","","-29","","Snow"
"-122.60","58.84","FORT NELSON A","1192946","2019-02-05 03:00","2019","02","05","03:00","-27.6","","-30.4","","78","","","","22","","5","","9.7","","97.40","","","","-33","","Snow"
"-122.60","58.84","FORT NELSON A","1192946","2019-02-05 04:00","2019","02","05","04:00","-25.8","","-28.9","","76","","","","36","","2","","8.1","","97.45","","","","-28","","Snow"
"-122.60","58.84","FORT NELSON A","1192946","2019-02-05 05:00","2019","02","05","05:00","-25.9","","-28.9","","76","","","","36","","1","","6.4","","97.47","","","","-27","","Snow"
"-122.60","58.84","FORT NELSON A","1192946","2019-02-05 06:00","2019","02","05","06:00","-26.1","","-29.2","","76","","","","36","","2","","8.1","","97.54","","","","-28","","Snow"
"-122.60","58.84","FORT NELSON A","1192946","2019-02-05 07:00","2019","02","05","07:00","-27.0","","-30.1","","76","","","","36","","2","","24.1","","97.62","","","","-29","","Snow"
"-122.60","58.84","FORT NELSON A","1192946","2019-02-05 08:00","2019","02","05","08:00","-28.7","","-31.8","","75","","","","27","","4","","48.3","","97.67","","","","-33","","NA"
"-122.60","58.84","FORT NELSON A","1192946","2019-02-05 09:00","2019","02","05","09:00","-28.5","","-31.6","","75","","","","36","","1","","48.3","","97.72","","","","-30","","NA"
"-122.60","58.84","FORT NELSON A","1192946","2019-02-05 10:00","2019","02","05","10:00","-26.7","","-29.8","","76","","","","3","","4","","48.3","","97.79","","","","-31","","Mainly Clear"
"-122.60","58.84","FORT NELSON A","1192946","2019-02-05 11:00","2019","02","05","11:00","-26.1","","-29.7","","72","","","","10","","7","","48.3","","97.83","","","","-33","","NA"
"-122.60","58.84","FORT NELSON A","1192946","2019-02-05 12:00","2019","02","05","12:00","-24.7","","-28.8","","69","","","","10","","3","","48.3","","97.86","","","","-28","","NA"
"-122.60","58.84","FORT NELSON A","1192946","2019-02-05 13:00","2019","02","05","13:00","-23.8","","-28.1","","68","","","","9","","5","","48.3","","97.83","","","","-29","","Clear"
"-122.60","58.84","FORT NELSON A","1192946","2019-02-05 14:00","2019","02","05","14:00","-23.0","","-27.9","","65","","","","36","","1","","48.3","","97.83","","","","-24","","NA"
"-122.60","58.84","FORT NELSON A","1192946","2019-02-05 15:00","2019","02","05","15:00","-22.4","","-26.9","","67","","","","36","","3","","48.3","","97.85","","","","-25","","NA"
"-122.60","58.84","FORT NELSON A","1192946","2019-02-05 16:00","2019","02","05","16:00","-22.6","","-26.4","","72","","","","3","","5","","48.3","","97.88","","","","-27","","Mainly Clear"
"-122.60","58.84","FORT NELSON A","1192946","2019-02-05 17:00","2019","02","05","17:00","-24.3","","-27.4","","76","","","","36","","1","","24.1","","97.90","","","","-25","","NA"
"-122.60","58.84","FORT NELSON A","1192946","2019-02-05 18:00","2019","02","05","18:00","-27.4","","-30.1","","78","","","","34","","4","","24.1","","97.91","","","","-32","","NA"
"-122.60","58.84","FORT NELSON A","1192946","2019-02-05 19:00","2019","02","05","19:00","-28.7","","-31.6","","77","","","","36","","1","","24.1","","97.93","","","","-30","","Mainly Clear"
"-122.60","58.84","FORT NELSON A","1192946","2019-02-05 20:00","2019","02","05","20:00","-27.7","","-30.4","","78","","","","10","","5","","24.1","","97.95","","","","-33","","NA"
"-122.60","58.84","FORT NELSON A","1192946","2019-02-05 21:00","2019","02","05","21:00","-26.1","","-29.4","","75","","","","11","","8","","24.1","","97.95","","","","-33","","NA"
"-122.60","58.84","FORT NELSON A","1192946","2019-02-05 22:00","2019","02","05","22:00","-27.0","","-30.3","","75","","","","11","","10","","24.1","","97.99","","","","-36","","Mainly Clear"
"-122.60","58.84","FORT NELSON A","1192946","2019-02-05 23:00","2019","02","05","23:00","-27.8","","-31.3","","73","","","","14","","3","","24.1","","98.02","","","","-31","","NA"
"-122.60","58.84","FORT NELSON A","1192946","2019-02-06 00:00","2019","02","06","00:00","-28.1","","-31.6","","73","","","","12","","9","","24.1","","98.05","","","","-36","","NA"
"-122.60","58.84","FORT NELSON A","1192946","2019-02-06 01:00","2019","02","06","01:00","-31.2","","-34.6","","73","","","","36","","1","","24.1","","98.06","","","","-32","","Mostly Cloudy"
"-122.60","58.84","FORT NELSON A","1192946","2019-02-06 02:00","2019","02","06","02:00","-28.8","","-32.1","","74","","","","18","","4","","24.1","","98.06","","","","-33","","NA"
"-122.60","58.84","FORT NELSON A","1192946","2019-02-06 03:00","2019","02","06","03:00","-28.1","","-31.7","","72","","","","14","","5","","24.1","","98.05","","","","-33","","NA"
"-122.60","58.84","FORT NELSON A","1192946","2019-02-06 04:00","2019","02","06","04:00","-28.0","","-31.5","","73","","","","13","","7","","24.1","","98.01","","","","-35","","Cloudy"
"-122.60","58.84","FORT NELSON A","1192946","2019-02-06 05:00","2019","02","06","05:00","-28.3","","-31.8","","73","","","","14","","5","","24.1","","98.02","","","","-34","","Snow"
"-122.60","58.84","FORT NELSON A","1192946","2019-02-06 06:00","2019","02","06","06:00","-29.1","","-32.4","","74","","","","10","","7","","24.1","","98.03","","","","-36","","Snow"
"-122.60","58.84","FORT NELSON A","1192946","2019-02-06 07:00","2019","02","06","07:00","-30.0","","-33.3","","74","","","","11","","7","","24.1","","98.02","","","","-37","","Mainly Clear"
"-122.60","58.84","FORT NELSON A","1192946","2019-02-06 08:00","2019","02","06","08:00","-30.0","","-33.4","","73","","","","12","","3","","48.3","","98.04","","","","-33","","NA"
"-122.60","58.84","FORT NELSON A","1192946","2019-02-06 09:00","2019","02","06","09:00","-30.3","","-33.8","","72","","","","17","","4","","48.3","","98.04","","","","-35","","NA"
"-122.60","58.84","FORT NELSON A","1192946","2019-02-06 10:00","2019","02","06","10:00","-29.7","","-33.2","","72","","","","16","","5","","48.3","","98.04","","","","-35","","Mostly Cloudy"
"-122.60","58.84","FORT NELSON A","1192946","2019-02-06 11:00","2019","02","06","11:00","-28.7","","-32.3","","72","","","","36","","1","","48.3","","98.03","","","","-30","","NA"
"-122.60","58.84","FORT NELSON A","1192946","2019-02-06 12:00","2019","02","06","12:00","-27.8","","-31.6","","71","","","","36","","2","","48.3","","98.00","","","","-30","","Snow"
"-122.60","58.84","FORT NELSON A","1192946","2019-02-06 13:00","2019","02","06","13:00","-26.9","","-30.6","","72","","","","28","","3","","48.3","","97.99","","","","-30","","Snow"
"-122.60","58.84","FORT NELSON A","1192946","2019-02-06 14:00","2019","02","06","14:00","-26.1","","-29.9","","71","","","","0","","1","","19.3","","97.98","","","","-27","","Snow"
"-122.60","58.84","FORT NELSON A","1192946","2019-02-06 15:00","2019","02","06","15:00","-25.4","","-29.2","","72","","","","36","","2","","8.1","","97.98","","","","-27","","Snow"
"-122.60","58.84","FORT NELSON A","1192946","2019-02-06 16:00","2019","02","06","16:00","-25.1","","-28.8","","71","","","","36","","2","","8.1","","97.99","","","","-27","","Snow"
"-122.60","58.84","FORT NELSON A","1192946","2019-02-06 17:00","2019","02","06","17:00","-24.9","","-28.2","","75","","","","36","","1","","8.1","","98.01","","","","-26","","Snow"
"-122.60","58.84","FORT NELSON A","1192946","2019-02-06 18:00","2019","02","06","18:00","-24.4","","-28.0","","73","","","","36","","1","","8.1","","98.03","","","","-25","","Snow"
"-122.60","58.84","FORT NELSON A","1192946","2019-02-06 19:00","2019","02","06","19:00","-24.4","","-27.5","","76","","","","11","","4","","16.1","","98.04","","","","-28","","Snow"
"-122.60","58.84","FORT NELSON A","1192946","2019-02-06 20:00","2019","02","06","20:00","-24.2","","-27.4","","76","","","","14","","4","","16.1","","98.06","","","","-28","","Snow"
"-122.60","58.84","FORT NELSON A","1192946","2019-02-06 21:00","2019","02","06","21:00","-24.1","","-27.3","","75","","","","36","","2","","16.1","","98.10","","","","-26","","Snow"
"-122.60","58.84","FORT NELSON A","1192946","2019-02-06 22:00","2019","02","06","22:00","-23.9","","-27.1","","76","","","","18","","3","","16.1","","98.13","","","","-27","","Snow"
"-122.60","58.84","FORT NELSON A","1192946","2019-02-06 23:00","2019","02","06","23:00","-23.7","","-26.8","","76","","","","11","","3","","24.1","","98.15","","","","-27","","Snow"
"-122.60","58.84","FORT NELSON A","1192946","2019-02-07 00:00","2019","02","07","00:00","-23.5","","-26.4","","77","","","","36","","2","","24.1","","98.19","","","","-25","","Snow"
"-122.60","58.84","FORT NELSON A","1192946","2019-02-07 01:00","2019","02","07","01:00","-23.4","","-26.4","","77","","","","36","","3","","24.1","","98.23","","","","-26","","Snow"
"-122.60","58.84","FORT NELSON A","1192946","2019-02-07 02:00","2019","02","07","02:00","-23.5","","-26.4","","78","","","","3","","5","","24.1","","98.23","","","","-28","","Snow"
"-122.60","58.84","FORT NELSON A","1192946","2019-02-07 03:00","2019","02","07","03:00","-24.1","","-27.0","","78","","","","36","","3","","24.1","","98.28","","","","-27","","Snow"
"-122.60","58.84","FORT NELSON A","1192946","2019-02-07 04:00","2019","02","07","04:00","-24.1","","-27.0","","77","","","","5","","4","","24.1","","98.29","","","","-28","","Snow"
"-122.60","58.84","FORT NELSON A","1192946","2019-02-07 05:00","2019","02","07","05:00","-24.0","","-27.1","","76","","","","5","","4","","24.1","","98.30","","","","-28","","Snow"
"-122.60","58.84","FORT NELSON A","1192946","2019-02-07 06:00","2019","02","07","06:00","-24.3","","-27.2","","77","","","","22","","3","","24.1","","98.32","","","","-27","","Snow"
"-122.60","58.84","FORT NELSON A","1192946","2019-02-07 07:00","2019","02","07","07:00","-24.1","","-27.2","","76","","","","6","","4","","24.1","","98.34","","","","-28","","Snow"
"-122.60","58.84","FORT NELSON A","1192946","2019-02-07 08:00","2019","02","07","08:00","-24.2","","-27.3","","76","","","","2","","7","","19.3","","98.39","","","","-31","","Snow"
"-122.60","58.84","FORT NELSON A","1192946","2019-02-07 09:00","2019","02","07","09:00","-24.2","","-27.4","","75","","","","33","","4","","24.1","","98.46","","","","-28","","Snow"
"-122.60","58.84","FORT NELSON A","1192946","2019-02-07 10:00","2019","02","07","10:00","-24.0","","-27.2","","75","","","","10","","4","","24.1","","98.50","","","","-28","","Snow"
"-122.60","58.84","FORT NELSON A","1192946","2019-02-07 11:00","2019","02","07","11:00","-23.6","","-26.9","","75","","","","9","","4","","24.1","","98.49","","","","-27","","NA"
"-122.60","58.84","FORT NELSON A","1192946","2019-02-07 12:00","2019","02","07","12:00","-22.9","","-26.2","","74","","","","9","","5","","32.2","","98.55","","","","-28","","NA"
"-122.60","58.84","FORT NELSON A","1192946","2019-02-07 13:00","2019","02","07","13:00","-21.6","","-25.4","","72","","","","11","","4","","32.2","","98.58","","","","-25","","Mostly Cloudy"
"-122.60","58.84","FORT NELSON A","1192946","2019-02-07 14:00","2019","02","07","14:00","-20.6","","-24.5","","72","","","","9","","5","","32.2","","98.61","","","","-25","","NA"
"-122.60","58.84","FORT NELSON A","1192946","2019-02-07 15:00","2019","02","07","15:00","-19.6","","-23.6","","71","","","","1","","9","","24.1","","98.64","","","","-26","","NA"
"-122.60","58.84","FORT NELSON A","1192946","2019-02-07 16:00","2019","02","07","16:00","-20.2","","-23.9","","73","","","","36","","9","","24.1","","98.67","","","","-27","","Mostly Cloudy"
"-122.60","58.84","FORT NELSON A","1192946","2019-02-07 17:00","2019","02","07","17:00","-20.8","","-24.0","","76","","","","36","","6","","24.1","","98.73","","","","-26","","NA"
"-122.60","58.84","FORT NELSON A","1192946","2019-02-07 18:00","2019","02","07","18:00","-21.1","","-24.2","","76","","","","2","","4","","24.1","","98.78","","","","-25","","NA"
"-122.60","58.84","FORT NELSON A","1192946","2019-02-07 19:00","2019","02","07","19:00","-21.2","","-24.2","","78","","","","1","","4","","16.1","","98.82","","","","-25","","Snow"
"-122.60","58.84","FORT NELSON A","1192946","2019-02-07 20:00","2019","02","07","20:00","-21.0","","-24.0","","78","","","","2","","4","","16.1","","98.84","","","","-25","","Snow"
"-122.60","58.84","FORT NELSON A","1192946","2019-02-07 21:00","2019","02","07","21:00","-21.4","","-24.2","","78","","","","36","","7","","16.1","","98.92","","","","-27","","Snow"
"-122.60","58.84","FORT NELSON A","1192946","2019-02-07 22:00","2019","02","07","22:00","-21.3","","-24.2","","78","","","","34","","7","","16.1","","99.03","","","","-27","","Mostly Cloudy"
"-122.60","58.84","FORT NELSON A","1192946","2019-02-07 23:00","2019","02","07","23:00","-21.3","","-24.5","","76","","","","31","","10","","6.4","","99.11","","","","-29","","Snow"
"-122.60","58.84","FORT NELSON A","1192946","2019-02-08 00:00","2019","02","08","00:00","-21.7","","-24.9","","76","","","","30","","8","","8.1","","99.21","","","","-28","","Snow"
"-122.60","58.84","FORT NELSON A","1192946","2019-02-08 01:00","2019","02","08","01:00","-22.5","","-25.8","","75","","","","32","","12","","9.7","","99.29","","","","-31","","Snow"
"-122.60","58.84","FORT NELSON A","1192946","2019-02-08 02:00","2019","02","08","02:00","-23.2","","-26.5","","75","","","","31","","14","","24.1","","99.38","","","","-33","","Snow"
"-122.60","58.84","FORT NELSON A","1192946","2019-02-08 03:00","2019","02","08","03:00","-23.4","","-26.7","","74","","","","31","","12","","16.1","","99.49","","","","-32","","Snow"
"-122.60","58.84","FORT NELSON A","1192946","2019-02-08 04:00","2019","02","08","04:00","-24.2","","-27.7","","74","","","","31","","12","","24.1","","99.56","","","","-33","","Snow"
"-122.60","58.84","FORT NELSON A","1192946","2019-02-08 05:00","2019","02","08","05:00","-25.1","","-28.4","","74","","","","33","","7","","24.1","","99.64","","","","-32","","Snow"
"-122.60","58.84","FORT NELSON A","1192946","2019-02-08 06:00","2019","02","08","06:00","-26.6","","-29.2","","79","","","","36","","4","","24.1","","99.73","","","","-31","","NA"
"-122.60","58.84","FORT NELSON A","1192946","2019-02-08 07:00","2019","02","08","07:00","-28.4","","-31.5","","75","","","","35","","9","","24.1","","99.81","","","","-37","","Mainly Clear"
"-122.60","58.84","FORT NELSON A","1192946","2019-02-08 08:00","2019","02","08","08:00","-30.8","","-34.0","","74","","","","35","","6","","48.3","","99.87","","","","-37","","NA"
"-122.60","58.84","FORT NELSON A","1192946","2019-02-08 09:00","2019","02","08","09:00","-29.2","","-32.4","","75","","","","35","","5","","48.3","","99.92","","","","-35","","NA"
"-122.60","58.84","FORT NELSON A","1192946","2019-02-08 10:00","2019","02","08","10:00","-27.6","","-31.0","","74","","","","7","","3","","48.3","","99.97","","","","-31","","Clear"
"-122.60","58.84","FORT NELSON A","1192946","2019-02-08 11:00","2019","02","08","11:00","-26.4","","-30.2","","71","","","","13","","5","","48.3","","99.97","","","","-32","","NA"
"-122.60","58.84","FORT NELSON A","1192946","2019-02-08 12:00","2019","02","08","12:00","-25.4","","-29.6","","68","","","","11","","5","","48.3","","99.94","","","","-30","","NA"
"-122.60","58.84","FORT NELSON A","1192946","2019-02-08 13:00","2019","02","08","13:00","-24.2","","-28.7","","67","","","","8","","4","","48.3","","99.92","","","","-28","","Clear"
"-122.60","58.84","FORT NELSON A","1192946","2019-02-08 14:00","2019","02","08","14:00","-23.4","","-28.2","","66","","","","8","","3","","48.3","","99.90","","","","-26","","NA"
"-122.60","58.84","FORT NELSON A","1192946","2019-02-08 15:00","2019","02","08","15:00","-23.2","","-27.9","","66","","","","11","","4","","48.3","","99.88","","","","-27","","NA"
"-122.60","58.84","FORT NELSON A","1192946","2019-02-08 16:00","2019","02","08","16:00","-23.3","","-27.9","","67","","","","13","","5","","48.3","","99.87","","","","-28","","Clear"
"-122.60","58.84","FORT NELSON A","1192946","2019-02-08 17:00","2019","02","08","17:00","-24.8","","-27.8","","77","","","","36","","2","","48.3","","99.84","","","","-27","","NA"
"-122.60","58.84","FORT NELSON A","1192946","2019-02-08 18:00","2019","02","08","18:00","-28.6","","-31.6","","76","","","","23","","4","","48.3","","99.76","","","","-33","","NA"
"-122.60","58.84","FORT NELSON A","1192946","2019-02-08 19:00","2019","02","08","19:00","-29.3","","-32.4","","75","","","","18","","5","","24.1","","99.74","","","","-35","","Clear"
"-122.60","58.84","FORT NELSON A","1192946","2019-02-08 20:00","2019","02","08","20:00","-30.7","","-33.7","","76","","","","16","","8","","24.1","","99.71","","","","-39","","NA"
"-122.60","58.84","FORT NELSON A","1192946","2019-02-08 21:00","2019","02","08","21:00","-30.7","","-33.7","","76","","","","17","","5","","24.1","","99.68","","","","-36","","NA"
"-122.60","58.84","FORT NELSON A","1192946","2019-02-08 22:00","2019","02","08","22:00","-29.1","","-31.8","","78","","","","16","","10","","24.1","","99.63","","","","-38","","Clear"
"-122.60","58.84","FORT NELSON A","1192946","2019-02-08 23:00","2019","02","08","23:00","-29.6","","-32.6","","76","","","","16","","7","","24.1","","99.58","","","","-37","","NA"
"-122.60","58.84","FORT NELSON A","1192946","2019-02-09 00:00","2019","02","09","00:00","-29.4","","-32.2","","77","","","","17","","9","","24.1","","99.52","","","","-38","","NA"
"-122.60","58.84","FORT NELSON A","1192946","2019-02-09 01:00","2019","02","09","01:00","-28.2","","-31.2","","76","","","","15","","8","","24.1","","99.44","","","","-36","","Clear"
"-122.60","58.84","FORT NELSON A","1192946","2019-02-09 02:00","2019","02","09","02:00","-29.4","","-32.5","","75","","","","15","","9","","24.1","","99.37","","","","-38","","NA"
"-122.60","58.84","FORT NELSON A","1192946","2019-02-09 03:00","2019","02","09","03:00","-29.3","","-32.6","","74","","","","16","","11","","24.1","","99.25","","","","-39","","NA"
"-122.60","58.84","FORT NELSON A","1192946","2019-02-09 04:00","2019","02","09","04:00","-32.8","","-36.2","","72","","","","18","","7","","24.1","","99.13","","","","-41","","Clear"
"-122.60","58.84","FORT NELSON A","1192946","2019-02-09 05:00","2019","02","09","05:00","-30.1","","-33.4","","74","","","","16","","10","","24.1","","98.98","","","","-39","","NA"
"-122.60","58.84","FORT NELSON A","1192946","2019-02-09 06:00","2019","02","09","06:00","-30.9","","-34.1","","74","","","","16","","10","","24.1","","98.93","","","","-40","","NA"
"-122.60","58.84","FORT NELSON A","1192946","2019-02-09 07:00","2019","02","09","07:00","-31.1","","-34.5","","73","","","","16","","9","","24.1","","98.86","","","","-40","","Mainly Clear"
"-122.60","58.84","FORT NELSON A","1192946","2019-02-09 08:00","2019","02","09","08:00","-30.9","","-34.2","","73","","","","","","","M","48.3","","98.62","","","","","","NA"
"-122.60","58.84","FORT NELSON A","1192946","2019-02-09 09:00","2019","02","09","09:00","-30.5","","-33.9","","73","","","","17","","9","","48.3","","98.48","","","","-39","","NA"
"-122.60","58.84","FORT NELSON A","1192946","2019-02-09 10:00","2019","02","09","10:00","-28.4","","-31.7","","74","","","","15","","9","","48.3","","98.31","","","","-37","","Mainly Clear"
"-122.60","58.84","FORT NELSON A","1192946","2019-02-09 11:00","2019","02","09","11:00","-27.1","","-30.4","","74","","","","18","","3","","48.3","","98.18","","","","-30","","NA"
"-122.60","58.84","FORT NELSON A","1192946","2019-02-09 12:00","2019","02","09","12:00","-24.9","","-28.1","","75","","","","17","","3","","48.3","","98.03","","","","-28","","NA"
"-122.60","58.84","FORT NELSON A","1192946","2019-02-09 13:00","2019","02","09","13:00","-23.4","","-26.6","","76","","","","13","","4","","19.3","","97.94","","","","-27","","Mostly Cloudy"
"-122.60","58.84","FORT NELSON A","1192946","2019-02-09 14:00","2019","02","09","14:00","-22.2","","-25.1","","78","","","","24","","4","","1.6","","97.90","","","","-26","","Snow"
"-122.60","58.84","FORT NELSON A","1192946","2019-02-09 15:00","2019","02","09","15:00","-21.7","","-24.5","","79","","","","18","","6","","1.6","","97.83","","","","-27","","Snow"
"-122.60","58.84","FORT NELSON A","1192946","2019-02-09 16:00","2019","02","09","16:00","-22.1","","-24.9","","78","","","","17","","10","","1.2","","97.75","","","","-30","","Snow"
"-122.60","58.84","FORT NELSON A","1192946","2019-02-09 17:00","2019","02","09","17:00","-21.5","","-24.3","","78","","","","3","","7","","3.2","","97.76","","","","-27","","Snow"
"-122.60","58.84","FORT NELSON A","1192946","2019-02-09 18:00","2019","02","09","18:00","-21.4","","-24.2","","79","","","","36","","2","","4.8","","97.74","","","","-23","","Snow"
"-122.60","58.84","FORT NELSON A","1192946","2019-02-09 19:00","2019","02","09","19:00","-20.8","","-23.5","","80","","","","15","","4","","1.6","","97.75","","","","-24","","Snow"
"-122.60","58.84","FORT NELSON A","1192946","2019-02-09 20:00","2019","02","09","20:00","-20.1","","-22.7","","80","","","","36","","2","","3.2","","97.75","","","","-22","","Snow"
"-122.60","58.84","FORT NELSON A","1192946","2019-02-09 21:00","2019","02","09","21:00","-18.9","","-21.5","","81","","","","16","","5","","3.2","","97.74","","","","-23","","Snow"
"-122.60","58.84","FORT NELSON A","1192946","2019-02-09 22:00","2019","02","09","22:00","-8.3","","-10.7","","83","","","","30","","16","","8.1","","97.74","","","","-15","","Snow,Blowing Snow"
"-122.60","58.84","FORT NELSON A","1192946","2019-02-09 23:00","2019","02","09","23:00","-8.0","","-10.4","","83","","","","29","","25","","3.2","","97.74","","","","-16","","Snow,Blowing Snow"
"-122.60","58.84","FORT NELSON A","1192946","2019-02-10 00:00","2019","02","10","00:00","-7.3","","-9.6","","84","","","","31","","23","","3.2","","97.72","","","","-15","","Snow,Blowing Snow"
"-122.60","58.84","FORT NELSON A","1192946","2019-02-10 01:00","2019","02","10","01:00","-7.0","","-9.3","","84","","","","31","","21","","3.2","","97.75","","","","-14","","Snow,Blowing Snow"
"-122.60","58.84","FORT NELSON A","1192946","2019-02-10 02:00","2019","02","10","02:00","-7.2","","-9.4","","85","","","","33","","20","","3.2","","97.85","","","","-14","","Snow,Blowing Snow"
"-122.60","58.84","FORT NELSON A","1192946","2019-02-10 03:00","2019","02","10","03:00","-7.5","","-9.3","","87","","","","31","","17","","3.2","","97.91","","","","-14","","Snow,Blowing Snow"
"-122.60","58.84","FORT NELSON A","1192946","2019-02-10 04:00","2019","02","10","04:00","-7.0","","-9.0","","86","","","","31","","16","","4.8","","97.91","","","","-13","","Snow,Blowing Snow"
"-122.60","58.84","FORT NELSON A","1192946","2019-02-10 05:00","2019","02","10","05:00","-6.7","","-8.9","","84","","","","29","","22","","8.1","","97.91","","","","-14","","Snow,Blowing Snow"
"-122.60","58.84","FORT NELSON A","1192946","2019-02-10 06:00","2019","02","10","06:00","-6.7","","-8.8","","85","","","","30","","18","","8.1","","97.92","","","","-13","","Snow,Blowing Snow"
"-122.60","58.84","FORT NELSON A","1192946","2019-02-10 07:00","2019","02","10","07:00","-6.9","","-9.1","","85","","","","31","","23","","24.1","","97.89","","","","-14","","Snow,Blowing Snow"
"-122.60","58.84","FORT NELSON A","1192946","2019-02-10 08:00","2019","02","10","08:00","-7.1","","-9.4","","84","","","","31","","18","","24.1","","97.90","","","","-14","","Snow,Blowing Snow"
"-122.60","58.84","FORT NELSON A","1192946","2019-02-10 09:00","2019","02","10","09:00","-7.0","","-9.3","","84","","","","31","","17","","24.1","","97.88","","","","-13","","Snow,Blowing Snow"
"-122.60","58.84","FORT NELSON A","1192946","2019-02-10 10:00","2019","02","10","10:00","-6.9","","-9.2","","84","","","","31","","17","","24.1","","97.84","","","","-13","","Snow"
"-122.60","58.84","FORT NELSON A","1192946","2019-02-10 11:00","2019","02","10","11:00","-6.8","","-9.3","","82","","","","31","","17","","24.1","","97.79","","","","-13","","NA"
"-122.60","58.84","FORT NELSON A","1192946","2019-02-10 12:00","2019","02","10","12:00","-6.1","","-9.4","","78","","","","30","","17","","24.1","","97.72","","","","-12","","NA"
"-122.60","58.84","FORT NELSON A","1192946","2019-02-10 13:00","2019","02","10","13:00","-7.1","","-10.1","","80","","","","34","","16","","32.2","","97.65","","","","-13","","Mainly Clear"
"-122.60","58.84","FORT NELSON A","1192946","2019-02-10 14:00","2019","02","10","14:00","-6.8","","-9.6","","80","","","","34","","13","","32.2","","97.57","","","","-12","","NA"
"-122.60","58.84","FORT NELSON A","1192946","2019-02-10 15:00","2019","02","10","15:00","-6.4","","-9.5","","79","","","","34","","12","","48.3","","97.51","","","","-12","","NA"
"-122.60","58.84","FORT NELSON A","1192946","2019-02-10 16:00","2019","02","10","16:00","-7.1","","-10.0","","80","","","","1","","11","","48.3","","97.45","","","","-12","","Mainly Clear"
"-122.60","58.84","FORT NELSON A","1192946","2019-02-10 17:00","2019","02","10","17:00","-9.7","","-10.5","","94","","","","27","","3","","48.3","","97.39","","","","-11","","NA"
"-122.60","58.84","FORT NELSON A","1192946","2019-02-10 18:00","2019","02","10","18:00","-13.2","","-14.9","","87","","","","25","","6","","24.1","","97.34","","","","-17","","NA"
"-122.60","58.84","FORT NELSON A","1192946","2019-02-10 19:00","2019","02","10","19:00","-13.2","","-14.6","","89","","","","36","","1","","24.1","","97.29","","","","-14","","Mostly Cloudy"
"-122.60","58.84","FORT NELSON A","1192946","2019-02-10 20:00","2019","02","10","20:00","-15.0","","-16.9","","86","","","","24","","6","","24.1","","97.26","","","","-19","","NA"
"-122.60","58.84","FORT NELSON A","1192946","2019-02-10 21:00","2019","02","10","21:00","-16.2","","-18.5","","83","","","","28","","3","","24.1","","97.24","","","","-18","","NA"
"-122.60","58.84","FORT NELSON A","1192946","2019-02-10 22:00","2019","02","10","22:00","-15.3","","-17.2","","85","","","","26","","4","","24.1","","97.22","","","","-18","","Mostly Cloudy"
"-122.60","58.84","FORT NELSON A","1192946","2019-02-10 23:00","2019","02","10","23:00","-14.8","","-16.8","","85","","","","36","","2","","12.9","","97.21","","","","-16","","NA"
"-122.60","58.84","FORT NELSON A","1192946","2019-02-11 00:00","2019","02","11","00:00","-15.0","","-16.9","","85","","","","26","","4","","12.9","","97.16","","","","-18","","NA"
"-122.60","58.84","FORT NELSON A","1192946","2019-02-11 01:00","2019","02","11","01:00","-14.7","","-16.6","","86","","","","28","","4","","12.9","","97.14","","","","-18","","Cloudy"
"-122.60","58.84","FORT NELSON A","1192946","2019-02-11 02:00","2019","02","11","02:00","-15.1","","-17.2","","84","","","","28","","3","","12.9","","97.14","","","","-17","","NA"
"-122.60","58.84","FORT NELSON A","1192946","2019-02-11 03:00","2019","02","11","03:00","-16.3","","-18.2","","85","","","","36","","2","","12.9","","97.15","","","","-18","","NA"
"-122.60","58.84","FORT NELSON A","1192946","2019-02-11 04:00","2019","02","11","04:00","-17.3","","-19.2","","85","","","","36","","1","","24.1","","97.15","","","","-18","","Mainly Clear"
"-122.60","58.84","FORT NELSON A","1192946","2019-02-11 05:00","2019","02","11","05:00","-18.7","","-20.9","","83","","","","36","","3","","24.1","","97.16","","","","-21","","NA"
"-122.60","58.84","FORT NELSON A","1192946","2019-02-11 06:00","2019","02","11","06:00","-18.9","","-21.1","","83","","","","36","","1","","24.1","","97.22","","","","-20","","NA"
"-122.60","58.84","FORT NELSON A","1192946","2019-02-11 07:00","2019","02","11","07:00","-18.4","","-20.7","","82","","","","18","","4","","24.1","","97.25","","","","-22","","Mostly Cloudy"
"-122.60","58.84","FORT NELSON A","1192946","2019-02-11 08:00","2019","02","11","08:00","-18.3","","-20.6","","83","","","","36","","2","","24.1","","97.29","","","","-20","","NA"
"-122.60","58.84","FORT NELSON A","1192946","2019-02-11 09:00","2019","02","11","09:00","-18.1","","-20.4","","83","","","","1","","4","","24.1","","97.37","","","","-21","","NA"
"-122.60","58.84","FORT NELSON A","1192946","2019-02-11 10:00","2019","02","11","10:00","-17.4","","-19.6","","84","","","","12","","3","","16.1","","97.42","","","","-20","","Snow"
"-122.60","58.84","FORT NELSON A","1192946","2019-02-11 11:00","2019","02","11","11:00","-16.0","","-18.1","","84","","","","36","","1","","8.1","","97.48","","","","-17","","Snow"
"-122.60","58.84","FORT NELSON A","1192946","2019-02-11 12:00","2019","02","11","12:00","-14.9","","-17.2","","83","","","","12","","5","","24.1","","97.51","","","","-18","","NA"
"-122.60","58.84","FORT NELSON A","1192946","2019-02-11 13:00","2019","02","11","13:00","-10.8","","-13.3","","82","","","","32","","15","","19.3","","97.56","","","","-18","","Snow"
"-122.60","58.84","FORT NELSON A","1192946","2019-02-11 14:00","2019","02","11","14:00","-9.9","","-13.7","","74","","","","32","","18","","16.1","","97.55","","","","-17","","Snow"
"-122.60","58.84","FORT NELSON A","1192946","2019-02-11 15:00","2019","02","11","15:00","-9.9","","-13.4","","76","","","","31","","16","","16.1","","97.59","","","","-17","","Snow"
"-122.60","58.84","FORT NELSON A","1192946","2019-02-11 16:00","2019","02","11","16:00","-10.1","","-13.1","","79","","","","30","","14","","8.1","","97.63","","","","-17","","Snow"
"-122.60","58.84","FORT NELSON A","1192946","2019-02-11 17:00","2019","02","11","17:00","-10.6","","-13.0","","82","","","","31","","11","","12.9","","97.66","","","","-16","","Snow"
"-122.60","58.84","FORT NELSON A","1192946","2019-02-11 18:00","2019","02","11","18:00","-10.9","","-13.3","","83","","","","31","","9","","19.3","","97.69","","","","-16","","Snow"
"-122.60","58.84","FORT NELSON A","1192946","2019-02-11 19:00","2019","02","11","19:00","-11.2","","-13.6","","82","","","","31","","10","","24.1","","97.72","","","","-17","","Snow"
"-122.60","58.84","FORT NELSON A","1192946","2019-02-11 20:00","2019","02","11","20:00","-11.4","","-13.9","","82","","","","31","","9","","24.1","","97.74","","","","-17","","NA"
"-122.60","58.84","FORT NELSON A","1192946","2019-02-11 21:00","2019","02","11","21:00","-11.7","","-14.1","","82","","","","32","","4","","24.1","","97.77","","","","-14","","NA"
"-122.60","58.84","FORT NELSON A","1192946","2019-02-11 22:00","2019","02","11","22:00","-12.4","","-14.3","","86","","","","36","","2","","24.1","","97.78","","","","-14","","Snow"
"-122.60","58.84","FORT NELSON A","1192946","2019-02-11 23:00","2019","02","11","23:00","-14.2","","-15.7","","88","","","","18","","4","","24.1","","97.79","","","","-17","","Snow"
"-122.60","58.84","FORT NELSON A","1192946","2019-02-12 00:00","2019","02","12","00:00","-13.6","","-15.2","","88","","","","0","","1","","24.1","","97.79","","","","-14","","Snow"
"-122.60","58.84","FORT NELSON A","1192946","2019-02-12 01:00","2019","02","12","01:00","-13.8","","-15.4","","87","","","","24","","3","","12.9","","97.77","","","","-16","","Snow"
"-122.60","58.84","FORT NELSON A","1192946","2019-02-12 02:00","2019","02","12","02:00","-14.0","","-15.9","","86","","","","36","","3","","12.9","","97.75","","","","-16","","Snow"
"-122.60","58.84","FORT NELSON A","1192946","2019-02-12 03:00","2019","02","12","03:00","-13.6","","-15.2","","88","","","","15","","5","","12.9","","97.70","","","","-17","","Snow"
"-122.60","58.84","FORT NELSON A","1192946","2019-02-12 04:00","2019","02","12","04:00","-13.4","","-15.4","","85","","","","15","","7","","12.9","","97.67","","","","-18","","Snow"
"-122.60","58.84","FORT NELSON A","1192946","2019-02-12 05:00","2019","02","12","05:00","-14.4","","-16.6","","83","","","","15","","12","","24.1","","97.62","","","","-21","","Snow"
"-122.60","58.84","FORT NELSON A","1192946","2019-02-12 06:00","2019","02","12","06:00","-16.6","","-18.7","","84","","","","12","","6","","24.1","","97.56","","","","-21","","Snow"
"-122.60","58.84","FORT NELSON A","1192946","2019-02-12 07:00","2019","02","12","07:00","-18.0","","-19.9","","85","","","","13","","8","","24.1","","97.51","","","","-24","","Snow"
"-122.60","58.84","FORT NELSON A","1192946","2019-02-12 08:00","2019","02","12","08:00","-19.9","","-21.8","","85","","","","12","","5","","32.2","","97.49","","","","-24","","NA"
"-122.60","58.84","FORT NELSON A","1192946","2019-02-12 09:00","2019","02","12","09:00","-20.2","","-22.3","","84","","","","36","","3","","48.3","","97.45","","","","-23","","NA"
"-122.60","58.84","FORT NELSON A","1192946","2019-02-12 10:00","2019","02","12","10:00","-18.8","","-20.8","","84","","","","11","","4","","48.3","","97.35","","","","-22","","Mainly Clear"
"-122.60","58.84","FORT NELSON A","1192946","2019-02-12 11:00","2019","02","12","11:00","-17.2","","-19.4","","83","","","","36","","2","","48.3","","97.26","","","","-19","","NA"
"-122.60","58.84","FORT NELSON A","1192946","2019-02-12 12:00","2019","02","12","12:00","-15.5","","-17.8","","83","","","","10","","8","","48.3","","97.14","","","","-21","","NA"
"-122.60","58.84","FORT NELSON A","1192946","2019-02-12 13:00","2019","02","12","13:00","-14.2","","-17.6","","76","","","","10","","15","","48.3","","97.00","","","","-22","","Mainly Clear"
"-122.60","58.84","FORT NELSON A","1192946","2019-02-12 14:00","2019","02","12","14:00","-13.4","","-16.7","","77","","","","8","","14","","48.3","","96.87","","","","-21","","NA"
"-122.60","58.84","FORT NELSON A","1192946","2019-02-12 15:00","2019","02","12","15:00","-13.3","","-16.6","","77","","","","10","","15","","48.3","","96.77","","","","-21","","NA"
"-122.60","58.84","FORT NELSON A","1192946","2019-02-12 16:00","2019","02","12","16:00","-14.2","","-16.7","","81","","","","8","","12","","48.3","","96.69","","","","-21","","Mainly Clear"
"-122.60","58.84","FORT NELSON A","1192946","2019-02-12 17:00","2019","02","12","17:00","-15.4","","-17.9","","82","","","","10","","12","","48.3","","96.62","","","","-22","","NA"
"-122.60","58.84","FORT NELSON A","1192946","2019-02-12 18:00","2019","02","12","18:00","-15.8","","-17.8","","85","","","","10","","8","","32.2","","96.53","","","","-21","","NA"
"-122.60","58.84","FORT NELSON A","1192946","2019-02-12 19:00","2019","02","12","19:00","-16.4","","-18.2","","86","","","","12","","9","","32.2","","96.42","","","","-22","","Mainly Clear"
"-122.60","58.84","FORT NELSON A","1192946","2019-02-12 20:00","2019","02","12","20:00","-16.6","","-18.8","","83","","","","13","","3","","24.1","","96.29","","","","-19","","NA"
"-122.60","58.84","FORT NELSON A","1192946","2019-02-12 21:00","2019","02","12","21:00","-16.8","","-18.8","","85","","","","36","","1","","24.1","","96.26","","","","-18","","NA"
"-122.60","58.84","FORT NELSON A","1192946","2019-02-12 22:00","2019","02","12","22:00","-21.4","","-23.2","","85","","","","36","","1","","24.1","","96.19","","","","-22","","Mainly Clear"
"-122.60","58.84","FORT NELSON A","1192946","2019-02-12 23:00","2019","02","12","23:00","-21.8","","-23.7","","85","","","","10","","3","","24.1","","96.10","","","","-25","","NA"
"-122.60","58.84","FORT NELSON A","1192946","2019-02-13 00:00","2019","02","13","00:00","-24.8","","-27.5","","79","","","","26","","3","","24.1","","96.05","","","","-28","","NA"
"-122.60","58.84","FORT NELSON A","1192946","2019-02-13 01:00","2019","02","13","01:00","-25.4","","-28.1","","79","","","","25","","6","","24.1","","96.01","","","","-31","","Mainly Clear"
"-122.60","58.84","FORT NELSON A","1192946","2019-02-13 02:00","2019","02","13","02:00","-25.2","","-27.9","","78","","","","0","","1","","24.1","","95.98","","","","-26","","NA"
"-122.60","58.84","FORT NELSON A","1192946","2019-02-13 03:00","2019","02","13","03:00","-25.5","","-28.3","","78","","","","36","","3","","24.1","","95.92","","","","-29","","NA"
"-122.60","58.84","FORT NELSON A","1192946","2019-02-13 04:00","2019","02","13","04:00","-26.8","","-29.8","","76","","","","22","","5","","24.1","","95.89","","","","-32","","Mostly Cloudy"
"-122.60","58.84","FORT NELSON A","1192946","2019-02-13 05:00","2019","02","13","05:00","-27.4","","-30.5","","76","","","","0","","1","","24.1","","95.87","","","","-28","","NA"
"-122.60","58.84","FORT NELSON A","1192946","2019-02-13 06:00","2019","02","13","06:00","-27.6","","-30.5","","77","","","","23","","6","","24.1","","95.88","","","","-34","","NA"
"-122.60","58.84","FORT NELSON A","1192946","2019-02-13 07:00","2019","02","13","07:00","-27.0","","-30.0","","77","","","","15","","4","","24.1","","95.86","","","","-31","","Mostly Cloudy"
"-122.60","58.84","FORT NELSON A","1192946","2019-02-13 08:00","2019","02","13","08:00","-25.7","","-28.6","","78","","","","18","","4","","24.1","","95.87","","","","-30","","NA"
"-122.60","58.84","FORT NELSON A","1192946","2019-02-13 09:00","2019","02","13","09:00","-24.8","","-27.5","","79","","","","14","","4","","24.1","","95.88","","","","-29","","NA"
"-122.60","58.84","FORT NELSON A","1192946","2019-02-13 10:00","2019","02","13","10:00","-23.3","","-25.9","","79","","","","17","","7","","24.1","","95.89","","","","-29","","Mostly Cloudy"
"-122.60","58.84","FORT NELSON A","1192946","2019-02-13 11:00","2019","02","13","11:00","-21.8","","-24.4","","80","","","","15","","6","","48.3","","95.87","","","","-27","","NA"
"-122.60","58.84","FORT NELSON A","1192946","2019-02-13 12:00","2019","02","13","12:00","-20.3","","-22.9","","80","","","","9","","4","","48.3","","95.89","","","","-24","","NA"
"-122.60","58.84","FORT NELSON A","1192946","2019-02-13 13:00","2019","02","13","13:00","-18.1","","-20.6","","81","","","","15","","5","","48.3","","95.89","","","","-22","","Mainly Clear"
"-122.60","58.84","FORT NELSON A","1192946","2019-02-13 14:00","2019","02","13","14:00","-17.2","","-20.3","","77","","","","36","","1","","48.3","","95.89","","","","-18","","NA"
"-122.60","58.84","FORT NELSON A","1192946","2019-02-13 15:00","2019","02","13","15:00","-16.0","","-20.0","","71","","","","36","","2","","48.3","","95.93","","","","-17","","NA"
"-122.60","58.84","FORT NELSON A","1192946","2019-02-13 16:00","2019","02","13","16:00","-15.6","","-19.4","","73","","","","36","","1","","48.3","","95.98","","","","-16","","Mostly Cloudy"
"-122.60","58.84","FORT NELSON A","1192946","2019-02-13 17:00","2019","02","13","17:00","-16.5","","-19.5","","78","","","","36","","3","","48.3","","96.03","","","","-19","","NA"
"-122.60","58.84","FORT NELSON A","1192946","2019-02-13 18:00","2019","02","13","18:00","-17.2","","-19.5","","82","","","","34","","4","","24.1","","96.09","","","","-20","","Snow"
"-122.60","58.84","FORT NELSON A","1192946","2019-02-13 19:00","2019","02","13","19:00","-17.9","","-19.9","","84","","","","27","","4","","24.1","","96.17","","","","-21","","Snow"
"-122.60","58.84","FORT NELSON A","1192946","2019-02-13 20:00","2019","02","13","20:00","-19.4","","-21.4","","85","","","","36","","3","","6.4","","96.24","","","","-22","","Snow"
"-122.60","58.84","FORT NELSON A","1192946","2019-02-13 21:00","2019","02","13","21:00","-19.0","","-21.3","","82","","","","22","","5","","9.7","","96.34","","","","-23","","Snow"
"-122.60","58.84","FORT NELSON A","1192946","2019-02-13 22:00","2019","02","13","22:00","-17.5","","-19.9","","82","","","","36","","1","","8.1","","96.38","","","","-18","","Snow"
"-122.60","58.84","FORT NELSON A","1192946","2019-02-13 23:00","2019","02","13","23:00","-17.1","","-19.4","","82","","","","20","","5","","8.1","","96.45","","","","-21","","Snow"
"-122.60","58.84","FORT NELSON A","1192946","2019-02-14 00:00","2019","02","14","00:00","-17.0","","-19.2","","84","","","","17","","4","","19.3","","96.55","","","","-20","","Snow"
"-122.60","58.84","FORT NELSON A","1192946","2019-02-14 01:00","2019","02","14","01:00","-16.1","","-18.4","","83","","","","36","","2","","24.1","","96.64","","","","-18","","Cloudy"
"-122.60","58.84","FORT NELSON A","1192946","2019-02-14 02:00","2019","02","14","02:00","-15.8","","-18.1","","83","","","","36","","2","","12.9","","96.71","","","","-17","","Snow"
"-122.60","58.84","FORT NELSON A","1192946","2019-02-14 03:00","2019","02","14","03:00","-15.4","","-17.7","","83","","","","0","","1","","16.1","","96.78","","","","-16","","Snow"
"-122.60","58.84","FORT NELSON A","1192946","2019-02-14 04:00","2019","02","14","04:00","-15.1","","-17.3","","83","","","","0","","1","","8.1","","96.85","","","","-16","","Snow"
"-122.60","58.84","FORT NELSON A","1192946","2019-02-14 05:00","2019","02","14","05:00","-14.5","","-16.6","","84","","","","36","","1","","12.9","","96.90","","","","-15","","Snow"
"-122.60","58.84","FORT NELSON A","1192946","2019-02-14 06:00","2019","02","14","06:00","-13.9","","-15.9","","85","","","","36","","1","","16.1","","96.99","","","","-15","","Snow"
"-122.60","58.84","FORT NELSON A","1192946","2019-02-14 07:00","2019","02","14","07:00","-9.8","","-12.3","","82","","","","33","","13","","16.1","","97.07","","","","-16","","Snow"
"-122.60","58.84","FORT NELSON A","1192946","2019-02-14 08:00","2019","02","14","08:00","-10.0","","-12.7","","81","","","","33","","12","","24.1","","97.13","","","","-16","","Snow"
"-122.60","58.84","FORT NELSON A","1192946","2019-02-14 09:00","2019","02","14","09:00","-9.8","","-12.6","","80","","","","33","","10","","6.4","","97.21","","","","-15","","Snow"
"-122.60","58.84","FORT NELSON A","1192946","2019-02-14 10:00","2019","02","14","10:00","-9.5","","-12.4","","80","","","","31","","13","","6.4","","97.28","","","","-16","","Snow"
"-122.60","58.84","FORT NELSON A","1192946","2019-02-14 11:00","2019","02","14","11:00","-9.3","","-12.6","","77","","","","33","","18","","16.1","","97.32","","","","-17","","Snow"
"-122.60","58.84","FORT NELSON A","1192946","2019-02-14 12:00","2019","02","14","12:00","-9.3","","-12.5","","78","","","","34","","16","","16.1","","97.35","","","","-16","","Snow"
"-122.60","58.84","FORT NELSON A","1192946","2019-02-14 13:00","2019","02","14","13:00","-9.6","","-12.1","","82","","","","33","","14","","3.2","","97.37","","","","-16","","Snow"
"-122.60","58.84","FORT NELSON A","1192946","2019-02-14 14:00","2019","02","14","14:00","-10.1","","-13.2","","78","","","","35","","16","","4.0","","97.38","","","","-17","","Snow"
"-122.60","58.84","FORT NELSON A","1192946","2019-02-14 15:00","2019","02","14","15:00","-10.6","","-13.8","","78","","","","34","","18","","6.4","","97.41","","","","-18","","Snow"
"-122.60","58.84","FORT NELSON A","1192946","2019-02-14 16:00","2019","02","14","16:00","-11.1","","-14.1","","79","","","","34","","23","","6.4","","97.43","","","","-20","","Snow"
"-122.60","58.84","FORT NELSON A","1192946","2019-02-14 17:00","2019","02","14","17:00","-11.7","","-14.5","","80","","","","33","","15","","9.7","","97.46","","","","-19","","Snow"
"-122.60","58.84","FORT NELSON A","1192946","2019-02-14 18:00","2019","02","14","18:00","-12.5","","-14.9","","82","","","","33","","16","","11.3","","97.49","","","","-20","","Snow"
"-122.60","58.84","FORT NELSON A","1192946","2019-02-14 19:00","2019","02","14","19:00","-12.8","","-14.9","","85","","","","34","","9","","4.0","","97.54","","","","-18","","Snow"
"-122.60","58.84","FORT NELSON A","1192946","2019-02-14 20:00","2019","02","14","20:00","-13.3","","-15.2","","86","","","","33","","14","","6.4","","97.56","","","","-21","","Snow"
"-122.60","58.84","FORT NELSON A","1192946","2019-02-14 21:00","2019","02","14","21:00","-13.6","","-15.3","","87","","","","34","","11","","4.8","","97.55","","","","-20","","Snow"
"-122.60","58.84","FORT NELSON A","1192946","2019-02-14 22:00","2019","02","14","22:00","-13.8","","-15.5","","87","","","","34","","11","","4.8","","97.55","","","","-20","","Snow"
"-122.60","58.84","FORT NELSON A","1192946","2019-02-14 23:00","2019","02","14","23:00","-14.1","","-16.1","","85","","","","34","","13","","6.4","","97.56","","","","-21","","Snow"
"-122.60","58.84","FORT NELSON A","1192946","2019-02-15 00:00","2019","02","15","00:00","-14.7","","-17.0","","83","","","","36","","14","","8.1","","97.54","","","","-22","","Snow"
"-122.60","58.84","FORT NELSON A","1192946","2019-02-15 01:00","2019","02","15","01:00","-15.0","","-17.4","","82","","","","36","","12","","1.6","","97.54","","","","-22","","Snow"
"-122.60","58.84","FORT NELSON A","1192946","2019-02-15 02:00","2019","02","15","02:00","-15.3","","-17.8","","82","","","","36","","11","","6.4","","97.53","","","","-22","","Snow"
"-122.60","58.84","FORT NELSON A","1192946","2019-02-15 03:00","2019","02","15","03:00","-15.7","","-18.2","","82","","","","34","","12","","6.4","","97.52","","","","-23","","Snow"
"-122.60","58.84","FORT NELSON A","1192946","2019-02-15 04:00","2019","02","15","04:00","-16.2","","-18.7","","82","","","","34","","12","","9.7","","97.52","","","","-23","","Snow"
"-122.60","58.84","FORT NELSON A","1192946","2019-02-15 05:00","2019","02","15","05:00","-16.5","","-19.0","","82","","","","33","","12","","8.1","","97.53","","","","-24","","Snow"
"-122.60","58.84","FORT NELSON A","1192946","2019-02-15 06:00","2019","02","15","06:00","-16.7","","-19.1","","82","","","","34","","9","","8.1","","97.54","","","","-23","","Snow"
"-122.60","58.84","FORT NELSON A","1192946","2019-02-15 07:00","2019","02","15","07:00","-17.4","","-19.8","","82","","","","33","","10","","16.1","","97.52","","","","-24","","Snow"
"-122.60","58.84","FORT NELSON A","1192946","2019-02-15 08:00","2019","02","15","08:00","-17.9","","-20.2","","82","","","","32","","9","","16.1","","97.55","","","","-24","","Snow"
"-122.60","58.84","FORT NELSON A","1192946","2019-02-15 09:00","2019","02","15","09:00","-17.1","","-19.6","","81","","","","33","","8","","16.1","","97.57","","","","-23","","NA"
"-122.60","58.84","FORT NELSON A","1192946","2019-02-15 10:00","2019","02","15","10:00","-16.5","","-19.2","","80","","","","35","","8","","16.1","","97.58","","","","-22","","Snow"
"-122.60","58.84","FORT NELSON A","1192946","2019-02-15 11:00","2019","02","15","11:00","-16.3","","-19.3","","78","","","","5","","3","","16.1","","97.58","","","","-19","","Snow"
"-122.60","58.84","FORT NELSON A","1192946","2019-02-15 12:00","2019","02","15","12:00","-15.3","","-18.5","","77","","","","34","","6","","16.1","","97.56","","","","-20","","Snow"
"-122.60","58.84","FORT NELSON A","1192946","2019-02-15 13:00","2019","02","15","13:00","-15.2","","-18.3","","77","","","","31","","9","","9.7","","97.55","","","","-21","","Snow"
"-122.60","58.84","FORT NELSON A","1192946","2019-02-15 14:00","2019","02","15","14:00","-15.1","","-18.2","","78","","","","35","","11","","6.4","","97.54","","","","-22","","Snow"
"-122.60","58.84","FORT NELSON A","1192946","2019-02-15 15:00","2019","02","15","15:00","-15.1","","-18.1","","78","","","","34","","10","","6.4","","97.56","","","","-21","","Snow"
"-122.60","58.84","FORT NELSON A","1192946","2019-02-15 16:00","2019","02","15","16:00","-14.9","","-17.9","","78","","","","32","","12","","6.4","","97.58","","","","-22","","Snow"
"-122.60","58.84","FORT NELSON A","1192946","2019-02-15 17:00","2019","02","15","17:00","-15.1","","-17.9","","79","","","","33","","8","","4.8","","97.59","","","","-20","","Snow"
"-122.60","58.84","FORT NELSON A","1192946","2019-02-15 18:00","2019","02","15","18:00","-15.3","","-17.7","","82","","","","33","","8","","3.2","","97.62","","","","-21","","Snow"
"-122.60","58.84","FORT NELSON A","1192946","2019-02-15 19:00","2019","02","15","19:00","-15.5","","-17.9","","83","","","","35","","8","","4.8","","97.65","","","","-21","","Snow"
"-122.60","58.84","FORT NELSON A","1192946","2019-02-15 20:00","2019","02","15","20:00","-15.9","","-18.3","","82","","","","34","","7","","9.7","","97.68","","","","-21","","Snow"
"-122.60","58.84","FORT NELSON A","1192946","2019-02-15 21:00","2019","02","15","21:00","-16.3","","-18.8","","81","","","","33","","11","","9.7","","97.72","","","","-23","","Snow"
"-122.60","58.84","FORT NELSON A","1192946","2019-02-15 22:00","2019","02","15","22:00","-16.8","","-19.2","","82","","","","34","","11","","16.1","","97.75","","","","-24","","Snow"
"-122.60","58.84","FORT NELSON A","1192946","2019-02-15 23:00","2019","02","15","23:00","-17.4","","-19.8","","82","","","","34","","10","","16.1","","97.78","","","","-24","","Snow"
"-122.60","58.84","FORT NELSON A","1192946","2019-02-16 00:00","2019","02","16","00:00","-17.9","","-20.3","","82","","","","33","","9","","12.9","","97.82","","","","-24","","Snow"
"-122.60","58.84","FORT NELSON A","1192946","2019-02-16 01:00","2019","02","16","01:00","-17.7","","-20.2","","82","","","","33","","9","","12.9","","97.88","","","","-24","","Snow"
"-122.60","58.84","FORT NELSON A","1192946","2019-02-16 02:00","2019","02","16","02:00","-17.7","","-20.2","","81","","","","33","","8","","4.8","","97.93","","","","-24","","Snow"
"-122.60","58.84","FORT NELSON A","1192946","2019-02-16 03:00","2019","02","16","03:00","-18.2","","-20.7","","81","","","","34","","8","","8.1","","97.96","","","","-24","","Snow"
"-122.60","58.84","FORT NELSON A","1192946","2019-02-16 04:00","2019","02","16","04:00","-18.6","","-21.2","","80","","","","35","","8","","8.1","","98.01","","","","-25","","Snow"
"-122.60","58.84","FORT NELSON A","1192946","2019-02-16 05:00","2019","02","16","05:00","-19.1","","-21.6","","81","","","","31","","7","","12.9","","98.10","","","","-25","","Snow"
"-122.60","58.84","FORT NELSON A","1192946","2019-02-16 06:00","2019","02","16","06:00","-19.6","","-22.2","","80","","","","32","","8","","19.3","","98.16","","","","-26","","Snow"
"-122.60","58.84","FORT NELSON A","1192946","2019-02-16 07:00","2019","02","16","07:00","-20.1","","-22.6","","81","","","","32","","7","","24.1","","98.22","","","","-26","","Snow"
"-122.60","58.84","FORT NELSON A","1192946","2019-02-16 08:00","2019","02","16","08:00","-21.4","","-23.9","","81","","","","30","","7","","24.1","","98.29","","","","-27","","Snow"
"-122.60","58.84","FORT NELSON A","1192946","2019-02-16 09:00","2019","02","16","09:00","-20.7","","-23.3","","80","","","","29","","9","","24.1","","98.37","","","","-28","","Snow"
"-122.60","58.84","FORT NELSON A","1192946","2019-02-16 10:00","2019","02","16","10:00","-19.3","","-22.2","","78","","","","30","","7","","16.1","","98.44","","","","-25","","Snow"
"-122.60","58.84","FORT NELSON A","1192946","2019-02-16 11:00","2019","02","16","11:00","-18.1","","-21.9","","72","","","","33","","8","","6.4","","98.50","","","","-24","","Snow"
"-122.60","58.84","FORT NELSON A","1192946","2019-02-16 12:00","2019","02","16","12:00","-17.8","","-22.2","","69","","","","32","","13","","4.8","","98.54","","","","-26","","Snow"
"-122.60","58.84","FORT NELSON A","1192946","2019-02-16 13:00","2019","02","16","13:00","-17.1","","-22.2","","66","","","","33","","13","","12.9","","98.56","","","","-25","","Snow"
"-122.60","58.84","FORT NELSON A","1192946","2019-02-16 14:00","2019","02","16","14:00","-17.1","","-22.3","","65","","","","31","","10","","24.1","","98.60","","","","-24","","Snow"
"-122.60","58.84","FORT NELSON A","1192946","2019-02-16 15:00","2019","02","16","15:00","-17.4","","-22.2","","67","","","","33","","12","","8.1","","98.67","","","","-25","","Snow"
"-122.60","58.84","FORT NELSON A","1192946","2019-02-16 16:00","2019","02","16","16:00","-17.6","","-22.3","","67","","","","34","","13","","12.9","","98.74","","","","-25","","Mostly Cloudy"
"-122.60","58.84","FORT NELSON A","1192946","2019-02-16 17:00","2019","02","16","17:00","-18.4","","-21.9","","74","","","","32","","6","","16.1","","98.77","","","","-23","","NA"
"-122.60","58.84","FORT NELSON A","1192946","2019-02-16 18:00","2019","02","16","18:00","-19.2","","-22.1","","78","","","","28","","6","","16.1","","98.83","","","","-24","","NA"
"-122.60","58.84","FORT NELSON A","1192946","2019-02-16 19:00","2019","02","16","19:00","-22.4","","-24.7","","82","","","","26","","10","","24.1","","98.89","","","","-30","","Mainly Clear"
"-122.60","58.84","FORT NELSON A","1192946","2019-02-16 20:00","2019","02","16","20:00","-21.2","","-24.0","","79","","","","27","","10","","24.1","","98.91","","","","-29","","NA"
"-122.60","58.84","FORT NELSON A","1192946","2019-02-16 21:00","2019","02","16","21:00","-23.6","","-26.5","","78","","","","27","","8","","24.1","","98.94","","","","-30","","NA"
"-122.60","58.84","FORT NELSON A","1192946","2019-02-16 22:00","2019","02","16","22:00","-23.9","","-26.5","","80","","","","14","","4","","24.1","","98.96","","","","-28","","Mainly Clear"
"-122.60","58.84","FORT NELSON A","1192946","2019-02-16 23:00","2019","02","16","23:00","-25.5","","-27.8","","81","","","","36","","2","","24.1","","99.00","","","","-28","","NA"
"-122.60","58.84","FORT NELSON A","1192946","2019-02-17 00:00","2019","02","17","00:00","-26.5","","-28.8","","82","","","","36","","1","","24.1","","99.02","","","","-28","","NA"
"-122.60","58.84","FORT NELSON A","1192946","2019-02-17 01:00","2019","02","17","01:00","-27.1","","-29.8","","78","","","","36","","1","","24.1","","99.04","","","","-28","","Mainly Clear"
"-122.60","58.84","FORT NELSON A","1192946","2019-02-17 02:00","2019","02","17","02:00","-27.9","","-30.5","","79","","","","19","","4","","24.1","","99.04","","","","-32","","NA"
"-122.60","58.84","FORT NELSON A","1192946","2019-02-17 03:00","2019","02","17","03:00","-27.8","","-30.4","","79","","","","18","","8","","24.1","","99.02","","","","-35","","NA"
"-122.60","58.84","FORT NELSON A","1192946","2019-02-17 04:00","2019","02","17","04:00","-26.0","","-28.5","","80","","","","17","","10","","24.1","","99.00","","","","-34","","Clear"
"-122.60","58.84","FORT NELSON A","1192946","2019-02-17 05:00","2019","02","17","05:00","-26.7","","-29.6","","77","","","","18","","10","","24.1","","99.01","","","","-35","","NA"
"-122.60","58.84","FORT NELSON A","1192946","2019-02-17 06:00","2019","02","17","06:00","-26.4","","-29.4","","76","","","","17","","9","","24.1","","99.01","","","","-34","","NA"
"-122.60","58.84","FORT NELSON A","1192946","2019-02-17 07:00","2019","02","17","07:00","-26.6","","-29.7","","76","","","","17","","11","","24.1","","99.00","","","","-36","","Clear"
"-122.60","58.84","FORT NELSON A","1192946","2019-02-17 08:00","2019","02","17","08:00","-26.3","","-29.5","","75","","","","18","","10","","48.3","","99.00","","","","-35","","NA"
"-122.60","58.84","FORT NELSON A","1192946","2019-02-17 09:00","2019","02","17","09:00","-25.4","","-28.6","","75","","","","18","","8","","48.3","","98.98","","","","-33","","NA"
"-122.60","58.84","FORT NELSON A","1192946","2019-02-17 10:00","2019","02","17","10:00","-23.3","","-26.8","","74","","","","18","","11","","48.3","","98.94","","","","-32","","Clear"
"-122.60","58.84","FORT NELSON A","1192946","2019-02-17 11:00","2019","02","17","11:00","-21.9","","-26.0","","70","","","","17","","7","","48.3","","98.88","","","","-28","","NA"
"-122.60","58.84","FORT NELSON A","1192946","2019-02-17 12:00","2019","02","17","12:00","-20.3","","-24.8","","68","","","","15","","5","","48.3","","98.85","","","","-25","","NA"
"-122.60","58.84","FORT NELSON A","1192946","2019-02-17 13:00","2019","02","17","13:00","-17.2","","-22.3","","65","","","","17","","7","","48.3","","98.79","","","","-22","","Mainly Clear"
"-122.60","58.84","FORT NELSON A","1192946","2019-02-17 14:00","2019","02","17","14:00","-15.9","","-20.9","","66","","","","14","","5","","48.3","","98.68","","","","-20","","NA"
"-122.60","58.84","FORT NELSON A","1192946","2019-02-17 15:00","2019","02","17","15:00","-14.0","","-19.5","","64","","","","36","","3","","48.3","","98.62","","","","-16","","NA"
"-122.60","58.84","FORT NELSON A","1192946","2019-02-17 16:00","2019","02","17","16:00","-13.3","","-18.9","","64","","","","36","","2","","48.3","","98.53","","","","-15","","Mainly Clear"
"-122.60","58.84","FORT NELSON A","1192946","2019-02-17 17:00","2019","02","17","17:00","-13.9","","-18.3","","69","","","","12","","6","","48.3","","98.48","","","","-18","","NA"
"-122.60","58.84","FORT NELSON A","1192946","2019-02-17 18:00","2019","02","17","18:00","-14.7","","-18.6","","72","","","","16","","7","","32.2","","98.39","","","","-19","","NA"
"-122.60","58.84","FORT NELSON A","1192946","2019-02-17 19:00","2019","02","17","19:00","-15.5","","-18.8","","76","","","","15","","7","","24.1","","98.30","","","","-20","","Mainly Clear"
"-122.60","58.84","FORT NELSON A","1192946","2019-02-17 20:00","2019","02","17","20:00","-17.3","","-19.5","","83","","","","36","","2","","24.1","","98.21","","","","-19","","NA"
"-122.60","58.84","FORT NELSON A","1192946","2019-02-17 21:00","2019","02","17","21:00","-21.3","","-23.5","","82","","","","25","","5","","24.1","","98.15","","","","-26","","NA"
"-122.60","58.84","FORT NELSON A","1192946","2019-02-17 22:00","2019","02","17","22:00","-22.6","","-25.0","","81","","","","14","","5","","24.1","","98.02","","","","-27","","Mainly Clear"
"-122.60","58.84","FORT NELSON A","1192946","2019-02-17 23:00","2019","02","17","23:00","-20.9","","-23.1","","83","","","","15","","6","","24.1","","97.91","","","","-26","","NA"
"-122.60","58.84","FORT NELSON A","1192946","2019-02-18 00:00","2019","02","18","00:00","-23.9","","-26.9","","77","","","","1","","4","","24.1","","97.87","","","","-28","","NA"
"-122.60","58.84","FORT NELSON A","1192946","2019-02-18 01:00","2019","02","18","01:00","-24.6","","-27.4","","78","","","","21","","3","","24.1","","97.74","","","","-28","","Mostly Cloudy"
"-122.60","58.84","FORT NELSON A","1192946","2019-02-18 02:00","2019","02","18","02:00","-24.6","","-27.4","","78","","","","20","","5","","24.1","","97.66","","","","-29","","NA"
"-122.60","58.84","FORT NELSON A","1192946","2019-02-18 03:00","2019","02","18","03:00","-24.0","","-26.5","","81","","","","21","","7","","24.1","","97.59","","","","-30","","NA"
"-122.60","58.84","FORT NELSON A","1192946","2019-02-18 04:00","2019","02","18","04:00","-23.3","","-25.8","","80","","","","17","","6","","24.1","","97.42","","","","-29","","Mostly Cloudy"
"-122.60","58.84","FORT NELSON A","1192946","2019-02-18 05:00","2019","02","18","05:00","-21.9","","-24.5","","79","","","","17","","7","","24.1","","97.29","","","","-28","","NA"
"-122.60","58.84","FORT NELSON A","1192946","2019-02-18 06:00","2019","02","18","06:00","-21.4","","-24.1","","79","","","","17","","6","","24.1","","97.17","","","","-27","","NA"
"-122.60","58.84","FORT NELSON A","1192946","2019-02-18 07:00","2019","02","18","07:00","-21.0","","-23.7","","79","","","","36","","2","","24.1","","97.10","","","","-23","","Mostly Cloudy"
"-122.60","58.84","FORT NELSON A","1192946","2019-02-18 08:00","2019","02","18","08:00","-20.5","","-23.1","","80","","","","15","","8","","24.1","","97.01","","","","-27","","NA"
"-122.60","58.84","FORT NELSON A","1192946","2019-02-18 09:00","2019","02","18","09:00","-20.5","","-23.1","","80","","","","19","","9","","48.3","","96.90","","","","-27","","NA"
"-122.60","58.84","FORT NELSON A","1192946","2019-02-18 10:00","2019","02","18","10:00","-20.0","","-22.6","","80","","","","18","","11","","48.3","","96.77","","","","-28","","Mostly Cloudy"
"-122.60","58.84","FORT NELSON A","1192946","2019-02-18 11:00","2019","02","18","11:00","-18.7","","-21.4","","80","","","","16","","5","","48.3","","96.66","","","","-23","","NA"
"-122.60","58.84","FORT NELSON A","1192946","2019-02-18 12:00","2019","02","18","12:00","-17.2","","-20.4","","77","","","","36","","2","","48.3","","96.59","","","","-19","","NA"
"-122.60","58.84","FORT NELSON A","1192946","2019-02-18 13:00","2019","02","18","13:00","-15.5","","-19.3","","73","","","","7","","5","","48.3","","96.51","","","","-19","","Mostly Cloudy"
"-122.60","58.84","FORT NELSON A","1192946","2019-02-18 14:00","2019","02","18","14:00","-12.4","","-16.9","","69","","","","17","","9","","48.3","","96.40","","","","-18","","NA"
"-122.60","58.84","FORT NELSON A","1192946","2019-02-18 15:00","2019","02","18","15:00","-10.2","","-15.3","","67","","","","16","","12","","48.3","","96.35","","","","-16","","NA"
"-122.60","58.84","FORT NELSON A","1192946","2019-02-18 16:00","2019","02","18","16:00","-10.4","","-14.8","","70","","","","10","","7","","48.3","","96.34","","","","-14","","Clear"
"-122.60","58.84","FORT NELSON A","1192946","2019-02-18 17:00","2019","02","18","17:00","-11.4","","-14.7","","77","","","","18","","7","","48.3","","96.33","","","","-16","","NA"
"-122.60","58.84","FORT NELSON A","1192946","2019-02-18 18:00","2019","02","18","18:00","-15.1","","-17.8","","80","","","","20","","4","","48.3","","96.31","","","","-18","","NA"
"-122.60","58.84","FORT NELSON A","1192946","2019-02-18 19:00","2019","02","18","19:00","-15.5","","-18.0","","82","","","","21","","5","","24.1","","96.29","","","","-19","","Mainly Clear"
"-122.60","58.84","FORT NELSON A","1192946","2019-02-18 20:00","2019","02","18","20:00","-15.6","","-17.2","","87","","","","19","","5","","24.1","","96.29","","","","-19","","NA"
"-122.60","58.84","FORT NELSON A","1192946","2019-02-18 21:00","2019","02","18","21:00","-14.9","","-16.9","","85","","","","16","","5","","24.1","","96.25","","","","-18","","NA"
"-122.60","58.84","FORT NELSON A","1192946","2019-02-18 22:00","2019","02","18","22:00","-13.1","","-15.1","","85","","","","18","","5","","24.1","","96.23","","","","-16","","Cloudy"
"-122.60","58.84","FORT NELSON A","1192946","2019-02-18 23:00","2019","02","18","23:00","-14.2","","-16.6","","82","","","","18","","3","","24.1","","96.17","","","","-16","","NA"
"-122.60","58.84","FORT NELSON A","1192946","2019-02-19 00:00","2019","02","19","00:00","-11.8","","-14.2","","83","","","","16","","8","","24.1","","96.08","","","","-17","","NA"
"-122.60","58.84","FORT NELSON A","1192946","2019-02-19 01:00","2019","02","19","01:00","-11.8","","-14.3","","82","","","","36","","1","","24.1","","96.00","","","","-12","","Mostly Cloudy"
"-122.60","58.84","FORT NELSON A","1192946","2019-02-19 02:00","2019","02","19","02:00","-11.8","","-14.2","","83","","","","19","","5","","24.1","","95.93","","","","-15","","NA"
"-122.60","58.84","FORT NELSON A","1192946","2019-02-19 03:00","2019","02","19","03:00","-11.8","","-14.1","","83","","","","17","","4","","24.1","","95.91","","","","-14","","NA"
"-122.60","58.84","FORT NELSON A","1192946","2019-02-19 04:00","2019","02","19","04:00","-11.4","","-13.5","","84","","","","17","","11","","24.1","","95.84","","","","-17","","Cloudy"
"-122.60","58.84","FORT NELSON A","1192946","2019-02-19 05:00","2019","02","19","05:00","-11.4","","-13.2","","86","","","","17","","8","","24.1","","95.81","","","","-16","","NA"
"-122.60","58.84","FORT NELSON A","1192946","2019-02-19 06:00","2019","02","19","06:00","-11.5","","-13.4","","86","","","","22","","6","","24.1","","95.77","","","","-15","","NA"
"-122.60","58.84","FORT NELSON A","1192946","2019-02-19 07:00","2019","02","19","07:00","-10.8","","-12.4","","88","","","","17","","7","","24.1","","95.75","","","","-15","","Mostly Cloudy"
"-122.60","58.84","FORT NELSON A","1192946","2019-02-19 08:00","2019","02","19","08:00","-10.8","","-12.4","","88","","","","17","","9","","48.3","","95.73","","","","-16","","NA"
"-122.60","58.84","FORT NELSON A","1192946","2019-02-19 09:00","2019","02","19","09:00","-10.3","","-12.2","","86","","","","20","","7","","48.3","","95.71","","","","-14","","NA"
"-122.60","58.84","FORT NELSON A","1192946","2019-02-19 10:00","2019","02","19","10:00","-10.4","","-12.2","","87","","","","25","","5","","48.3","","95.72","","","","-13","","Mostly Cloudy"
"-122.60","58.84","FORT NELSON A","1192946","2019-02-19 11:00","2019","02","19","11:00","-8.7","","-11.4","","81","","","","36","","1","","48.3","","95.77","","","","-9","","NA"
"-122.60","58.84","FORT NELSON A","1192946","2019-02-19 12:00","2019","02","19","12:00","-6.8","","-9.9","","79","","","","16","","4","","48.3","","95.81","","","","-9","","NA"
"-122.60","58.84","FORT NELSON A","1192946","2019-02-19 13:00","2019","02","19","13:00","-6.3","","-9.8","","76","","","","22","","4","","8.1","","95.85","","","","-8","","Snow"
"-122.60","58.84","FORT NELSON A","1192946","2019-02-19 14:00","2019","02","19","14:00","-4.7","","-7.2","","83","","","","8","","8","","6.4","","95.88","","","","-8","","Snow"
"-122.60","58.84","FORT NELSON A","1192946","2019-02-19 15:00","2019","02","19","15:00","-3.8","","-5.9","","86","","","","24","","4","","12.9","","95.95","","","","-5","","Snow"
"-122.60","58.84","FORT NELSON A","1192946","2019-02-19 16:00","2019","02","19","16:00","-2.6","","-4.6","","86","","","","33","","14","","12.9","","96.05","","","","-7","","Snow"
"-122.60","58.84","FORT NELSON A","1192946","2019-02-19 17:00","2019","02","19","17:00","-4.8","","-7.2","","84","","","","33","","19","","24.1","","96.17","","","","-11","","Snow"
"-122.60","58.84","FORT NELSON A","1192946","2019-02-19 18:00","2019","02","19","18:00","-6.3","","-8.4","","85","","","","32","","15","","24.1","","96.32","","","","-12","","NA"
"-122.60","58.84","FORT NELSON A","1192946","2019-02-19 19:00","2019","02","19","19:00","-7.0","","-9.4","","84","","","","32","","14","","24.1","","96.45","","","","-13","","Mostly Cloudy"
"-122.60","58.84","FORT NELSON A","1192946","2019-02-19 20:00","2019","02","19","20:00","-7.5","","-9.8","","84","","","","32","","14","","24.1","","96.56","","","","-13","","NA"
"-122.60","58.84","FORT NELSON A","1192946","2019-02-19 21:00","2019","02","19","21:00","-8.0","","-10.5","","82","","","","32","","14","","24.1","","96.68","","","","-14","","NA"
"-122.60","58.84","FORT NELSON A","1192946","2019-02-19 22:00","2019","02","19","22:00","-8.4","","-11.1","","81","","","","33","","12","","16.1","","96.80","","","","-14","","Snow"
"-122.60","58.84","FORT NELSON A","1192946","2019-02-19 23:00","2019","02","19","23:00","-8.9","","-11.3","","83","","","","32","","9","","16.1","","96.89","","","","-14","","Snow"
"-122.60","58.84","FORT NELSON A","1192946","2019-02-20 00:00","2019","02","20","00:00","-9.4","","-11.6","","84","","","","33","","11","","6.4","","96.98","","","","-15","","Snow"
"-122.60","58.84","FORT NELSON A","1192946","2019-02-20 01:00","2019","02","20","01:00","-10.9","","-13.0","","85","","","","33","","8","","16.1","","97.07","","","","-16","","Snow"
"-122.60","58.84","FORT NELSON A","1192946","2019-02-20 02:00","2019","02","20","02:00","-11.4","","-12.9","","89","","","","33","","5","","24.1","","97.19","","","","-15","","Snow"
"-122.60","58.84","FORT NELSON A","1192946","2019-02-20 03:00","2019","02","20","03:00","-11.9","","-13.4","","89","","","","36","","7","","24.1","","97.28","","","","-16","","Snow"
"-122.60","58.84","FORT NELSON A","1192946","2019-02-20 04:00","2019","02","20","04:00","-14.9","","-16.7","","86","","","","34","","4","","24.1","","97.35","","","","-18","","Snow"
"-122.60","58.84","FORT NELSON A","1192946","2019-02-20 05:00","2019","02","20","05:00","-15.8","","-17.5","","87","","","","36","","2","","9.7","","97.42","","","","-17","","Snow"
"-122.60","58.84","FORT NELSON A","1192946","2019-02-20 06:00","2019","02","20","06:00","-14.2","","-15.8","","88","","","","36","","1","","6.4","","97.51","","","","-15","","Snow"
"-122.60","58.84","FORT NELSON A","1192946","2019-02-20 07:00","2019","02","20","07:00","-14.3","","-16.1","","86","","","","36","","1","","4.8","","97.56","","","","-15","","Snow"
"-122.60","58.84","FORT NELSON A","1192946","2019-02-20 08:00","2019","02","20","08:00","-14.0","","-15.8","","86","","","","36","","2","","6.4","","97.64","","","","-15","","Snow"
"-122.60","58.84","FORT NELSON A","1192946","2019-02-20 09:00","2019","02","20","09:00","-14.3","","-16.2","","86","","","","15","","3","","12.9","","97.68","","","","-16","","Snow"
"-122.60","58.84","FORT NELSON A","1192946","2019-02-20 10:00","2019","02","20","10:00","-12.2","","-14.2","","85","","","","36","","2","","8.1","","97.72","","","","-13","","Snow"
"-122.60","58.84","FORT NELSON A","1192946","2019-02-20 11:00","2019","02","20","11:00","-10.6","","-12.7","","85","","","","16","","4","","8.1","","97.74","","","","-13","","Snow"
"-122.60","58.84","FORT NELSON A","1192946","2019-02-20 12:00","2019","02","20","12:00","-9.8","","-12.5","","81","","","","10","","5","","16.1","","97.78","","","","-13","","Snow"
"-122.60","58.84","FORT NELSON A","1192946","2019-02-20 13:00","2019","02","20","13:00","-8.6","","-11.8","","77","","","","8","","3","","48.3","","97.76","","","","-10","","Mostly Cloudy"
"-122.60","58.84","FORT NELSON A","1192946","2019-02-20 14:00","2019","02","20","14:00","-7.6","","-11.2","","76","","","","9","","5","","48.3","","97.74","","","","-10","","NA"
"-122.60","58.84","FORT NELSON A","1192946","2019-02-20 15:00","2019","02","20","15:00","-7.2","","-11.4","","72","","","","10","","7","","48.3","","97.69","","","","-11","","NA"
"-122.60","58.84","FORT NELSON A","1192946","2019-02-20 16:00","2019","02","20","16:00","-7.1","","-11.4","","71","","","","36","","3","","48.3","","97.69","","","","-9","","Mainly Clear"
"-122.60","58.84","FORT NELSON A","1192946","2019-02-20 17:00","2019","02","20","17:00","-7.5","","-10.8","","77","","","","12","","4","","48.3","","97.71","","","","-10","","NA"
"-122.60","58.84","FORT NELSON A","1192946","2019-02-20 18:00","2019","02","20","18:00","-9.0","","-11.7","","81","","","","12","","9","","48.3","","97.64","","","","-14","","NA"
"-122.60","58.84","FORT NELSON A","1192946","2019-02-20 19:00","2019","02","20","19:00","-9.4","","-12.2","","81","","","","13","","6","","24.1","","97.62","","","","-13","","Mainly Clear"
"-122.60","58.84","FORT NELSON A","1192946","2019-02-20 20:00","2019","02","20","20:00","-10.2","","-12.6","","82","","","","14","","8","","24.1","","97.57","","","","-15","","NA"
"-122.60","58.84","FORT NELSON A","1192946","2019-02-20 21:00","2019","02","20","21:00","-10.9","","-13.0","","85","","","","15","","7","","24.1","","97.50","","","","-15","","NA"
"-122.60","58.84","FORT NELSON A","1192946","2019-02-20 22:00","2019","02","20","22:00","-11.8","","-14.1","","84","","","","15","","10","","24.1","","97.42","","","","-17","","Mainly Clear"
"-122.60","58.84","FORT NELSON A","1192946","2019-02-20 23:00","2019","02","20","23:00","-12.9","","-14.9","","85","","","","16","","10","","24.1","","97.36","","","","-19","","NA"
"-122.60","58.84","FORT NELSON A","1192946","2019-02-21 00:00","2019","02","21","00:00","-15.1","","-16.7","","87","","","","17","","5","","24.1","","97.34","","","","-19","","NA"
"-122.60","58.84","FORT NELSON A","1192946","2019-02-21 01:00","2019","02","21","01:00","-16.7","","-18.1","","89","","","","12","","4","","24.1","","97.29","","","","-20","","Mainly Clear"
"-122.60","58.84","FORT NELSON A","1192946","2019-02-21 02:00","2019","02","21","02:00","-18.4","","-20.1","","87","","","","17","","8","","24.1","","97.21","","","","-24","","NA"
"-122.60","58.84","FORT NELSON A","1192946","2019-02-21 03:00","2019","02","21","03:00","-16.2","","-18.1","","86","","","","16","","8","","24.1","","97.09","","","","-22","","NA"
"-122.60","58.84","FORT NELSON A","1192946","2019-02-21 04:00","2019","02","21","04:00","-18.8","","-20.6","","86","","","","15","","7","","24.1","","97.03","","","","-24","","Mainly Clear"
"-122.60","58.84","FORT NELSON A","1192946","2019-02-21 05:00","2019","02","21","05:00","-19.1","","-21.1","","84","","","","14","","8","","24.1","","96.93","","","","-25","","NA"
"-122.60","58.84","FORT NELSON A","1192946","2019-02-21 06:00","2019","02","21","06:00","-18.8","","-20.9","","84","","","","15","","6","","24.1","","96.86","","","","-24","","NA"
"-122.60","58.84","FORT NELSON A","1192946","2019-02-21 07:00","2019","02","21","07:00","-19.6","","-22.0","","81","","","","17","","3","","24.1","","96.76","","","","-22","","Snow"
"-122.60","58.84","FORT NELSON A","1192946","2019-02-21 08:00","2019","02","21","08:00","-20.1","","-22.5","","81","","","","21","","4","","48.3","","96.68","","","","-24","","NA"
"-122.60","58.84","FORT NELSON A","1192946","2019-02-21 09:00","2019","02","21","09:00","-18.2","","-20.5","","82","","","","13","","4","","48.3","","96.59","","","","-21","","NA"
"-122.60","58.84","FORT NELSON A","1192946","2019-02-21 10:00","2019","02","21","10:00","-17.2","","-19.4","","83","","","","36","","3","","48.3","","96.52","","","","-20","","Cloudy"
"-122.60","58.84","FORT NELSON A","1192946","2019-02-21 11:00","2019","02","21","11:00","-16.2","","-18.4","","83","","","","20","","4","","48.3","","96.45","","","","-19","","NA"
"-122.60","58.84","FORT NELSON A","1192946","2019-02-21 12:00","2019","02","21","12:00","-15.1","","-17.4","","83","","","","36","","1","","48.3","","96.35","","","","-16","","NA"
"-122.60","58.84","FORT NELSON A","1192946","2019-02-21 13:00","2019","02","21","13:00","-13.2","","-15.7","","82","","","","0","","1","","48.3","","96.25","","","","-14","","Mostly Cloudy"
"-122.60","58.84","FORT NELSON A","1192946","2019-02-21 14:00","2019","02","21","14:00","-12.5","","-15.7","","77","","","","36","","2","","48.3","","96.17","","","","-14","","NA"
"-122.60","58.84","FORT NELSON A","1192946","2019-02-21 15:00","2019","02","21","15:00","-11.8","","-15.2","","77","","","","36","","2","","48.3","","96.11","","","","-13","","NA"
"-122.60","58.84","FORT NELSON A","1192946","2019-02-21 16:00","2019","02","21","16:00","-11.1","","-14.2","","78","","","","36","","1","","48.3","","96.07","","","","-12","","Mostly Cloudy"
"-122.60","58.84","FORT NELSON A","1192946","2019-02-21 17:00","2019","02","21","17:00","-12.2","","-14.6","","83","","","","36","","1","","48.3","","96.03","","","","-13","","NA"
"-122.60","58.84","FORT NELSON A","1192946","2019-02-21 18:00","2019","02","21","18:00","-12.8","","-14.7","","86","","","","36","","2","","24.1","","95.99","","","","-14","","NA"
"-122.60","58.84","FORT NELSON A","1192946","2019-02-21 19:00","2019","02","21","19:00","-13.4","","-15.4","","85","","","","34","","4","","24.1","","96.02","","","","-16","","Mostly Cloudy"
"-122.60","58.84","FORT NELSON A","1192946","2019-02-21 20:00","2019","02","21","20:00","-13.1","","-15.1","","85","","","","35","","7","","24.1","","96.03","","","","-18","","NA"
"-122.60","58.84","FORT NELSON A","1192946","2019-02-21 21:00","2019","02","21","21:00","-11.6","","-13.7","","85","","","","34","","10","","16.1","","96.03","","","","-17","","Snow"
"-122.60","58.84","FORT NELSON A","1192946","2019-02-21 22:00","2019","02","21","22:00","-11.4","","-13.6","","84","","","","32","","6","","8.1","","96.04","","","","-15","","Snow"
"-122.60","58.84","FORT NELSON A","1192946","2019-02-21 23:00","2019","02","21","23:00","-12.6","","-14.3","","87","","","","7","","4","","8.1","","96.09","","","","-15","","Snow"
"-122.60","58.84","FORT NELSON A","1192946","2019-02-22 00:00","2019","02","22","00:00","-10.5","","-12.5","","85","","","","35","","13","","6.4","","96.14","","","","-17","","Snow"
"-122.60","58.84","FORT NELSON A","1192946","2019-02-22 01:00","2019","02","22","01:00","-10.3","","-12.1","","87","","","","35","","11","","4.8","","96.21","","","","-16","","Snow"
"-122.60","58.84","FORT NELSON A","1192946","2019-02-22 02:00","2019","02","22","02:00","-10.9","","-13.1","","84","","","","32","","16","","4.8","","96.38","","","","-18","","Snow"
"-122.60","58.84","FORT NELSON A","1192946","2019-02-22 03:00","2019","02","22","03:00","-12.2","","-14.6","","83","","","","33","","21","","3.2","","96.50","","","","-21","","Snow"
"-122.60","58.84","FORT NELSON A","1192946","2019-02-22 04:00","2019","02","22","04:00","-12.8","","-15.4","","81","","","","34","","21","","4.8","","96.61","","","","-22","","Snow,Blowing Snow"
"-122.60","58.84","FORT NELSON A","1192946","2019-02-22 05:00","2019","02","22","05:00","-13.3","","-15.9","","81","","","","34","","18","","4.8","","96.76","","","","-22","","Snow"
"-122.60","58.84","FORT NELSON A","1192946","2019-02-22 06:00","2019","02","22","06:00","-13.5","","-16.0","","82","","","","33","","19","","4.8","","96.87","","","","-22","","Snow,Blowing Snow"
"-122.60","58.84","FORT NELSON A","1192946","2019-02-22 07:00","2019","02","22","07:00","-13.8","","-16.2","","82","","","","31","","13","","2.4","","97.01","","","","-21","","Snow,Blowing Snow"
"-122.60","58.84","FORT NELSON A","1192946","2019-02-22 08:00","2019","02","22","08:00","-13.8","","-16.3","","81","","","","32","","17","","2.4","","97.12","","","","-22","","Snow,Blowing Snow"
"-122.60","58.84","FORT NELSON A","1192946","2019-02-22 09:00","2019","02","22","09:00","-13.4","","-16.1","","80","","","","33","","18","","4.8","","97.21","","","","-22","","Snow,Blowing Snow"
"-122.60","58.84","FORT NELSON A","1192946","2019-02-22 10:00","2019","02","22","10:00","-13.0","","-16.3","","77","","","","33","","20","","6.4","","97.35","","","","-22","","Snow,Blowing Snow"
"-122.60","58.84","FORT NELSON A","1192946","2019-02-22 11:00","2019","02","22","11:00","-12.7","","-16.0","","76","","","","34","","14","","6.4","","97.45","","","","-20","","Snow,Blowing Snow"
"-122.60","58.84","FORT NELSON A","1192946","2019-02-22 12:00","2019","02","22","12:00","-12.0","","-15.8","","73","","","","32","","14","","11.3","","97.53","","","","-19","","Snow,Blowing Snow"
"-122.60","58.84","FORT NELSON A","1192946","2019-02-22 13:00","2019","02","22","13:00","-11.7","","-15.5","","74","","","","32","","21","","4.8","","97.59","","","","-20","","Snow,Blowing Snow"
"-122.60","58.84","FORT NELSON A","1192946","2019-02-22 14:00","2019","02","22","14:00","-12.0","","-17.5","","64","","","","34","","25","","11.3","","97.66","","","","-21","","Snow,Blowing Snow"
"-122.60","58.84","FORT NELSON A","1192946","2019-02-22 15:00","2019","02","22","15:00","-12.5","","-17.2","","68","","","","34","","22","","12.9","","97.76","","","","-21","","Snow,Blowing Snow"
"-122.60","58.84","FORT NELSON A","1192946","2019-02-22 16:00","2019","02","22","16:00","-12.6","","-17.4","","67","","","","33","","12","","16.1","","97.85","","","","-19","","Snow,Blowing Snow"
"-122.60","58.84","FORT NELSON A","1192946","2019-02-22 17:00","2019","02","22","17:00","-12.8","","-16.8","","72","","","","34","","13","","16.1","","97.94","","","","-20","","Snow"
"-122.60","58.84","FORT NELSON A","1192946","2019-02-22 18:00","2019","02","22","18:00","-13.1","","-15.8","","80","","","","34","","9","","16.1","","98.05","","","","-19","","Snow"
"-122.60","58.84","FORT NELSON A","1192946","2019-02-22 19:00","2019","02","22","19:00","-13.7","","-18.1","","70","","","","34","","9","","16.1","","98.19","","","","-19","","Snow"
"-122.60","58.84","FORT NELSON A","1192946","2019-02-22 20:00","2019","02","22","20:00","-13.7","","-17.6","","73","","","","29","","8","","16.1","","98.30","","","","-19","","Snow"
"-122.60","58.84","FORT NELSON A","1192946","2019-02-22 21:00","2019","02","22","21:00","-14.8","","-18.1","","76","","","","28","","7","","16.1","","98.39","","","","-20","","Snow"
"-122.60","58.84","FORT NELSON A","1192946","2019-02-22 22:00","2019","02","22","22:00","-15.8","","-18.9","","77","","","","29","","8","","24.1","","98.46","","","","-21","","Mainly Clear"
"-122.60","58.84","FORT NELSON A","1192946","2019-02-22 23:00","2019","02","22","23:00","-16.6","","-20.4","","73","","","","30","","11","","24.1","","98.57","","","","-24","","NA"
"-122.60","58.84","FORT NELSON A","1192946","2019-02-23 00:00","2019","02","23","00:00","-17.9","","-21.2","","76","","","","28","","9","","24.1","","98.67","","","","-24","","NA"
"-122.60","58.84","FORT NELSON A","1192946","2019-02-23 01:00","2019","02","23","01:00","-18.1","","-21.4","","76","","","","30","","6","","24.1","","98.74","","","","-23","","Mainly Clear"
"-122.60","58.84","FORT NELSON A","1192946","2019-02-23 02:00","2019","02","23","02:00","-20.4","","-23.8","","75","","","","32","","3","","24.1","","98.81","","","","-23","","NA"
"-122.60","58.84","FORT NELSON A","1192946","2019-02-23 03:00","2019","02","23","03:00","-22.7","","-24.6","","84","","","","23","","7","","24.1","","98.88","","","","-29","","NA"
"-122.60","58.84","FORT NELSON A","1192946","2019-02-23 04:00","2019","02","23","04:00","-23.0","","-25.4","","81","","","","36","","1","","24.1","","98.95","","","","-24","","Clear"
"-122.60","58.84","FORT NELSON A","1192946","2019-02-23 05:00","2019","02","23","05:00","-25.0","","-27.2","","82","","","","36","","2","","24.1","","99.00","","","","-27","","NA"
"-122.60","58.84","FORT NELSON A","1192946","2019-02-23 06:00","2019","02","23","06:00","-25.2","","-27.8","","80","","","","24","","4","","24.1","","99.03","","","","-29","","NA"
"-122.60","58.84","FORT NELSON A","1192946","2019-02-23 07:00","2019","02","23","07:00","-23.6","","-26.4","","78","","","","17","","5","","24.1","","99.07","","","","-28","","Mostly Cloudy"
"-122.60","58.84","FORT NELSON A","1192946","2019-02-23 08:00","2019","02","23","08:00","-22.7","","-25.4","","79","","","","0","","1","","32.2","","99.11","","","","-24","","NA"
"-122.60","58.84","FORT NELSON A","1192946","2019-02-23 09:00","2019","02","23","09:00","-21.4","","-23.9","","80","","","","17","","4","","48.3","","99.16","","","","-25","","NA"
"-122.60","58.84","FORT NELSON A","1192946","2019-02-23 10:00","2019","02","23","10:00","-20.8","","-23.7","","79","","","","22","","4","","48.3","","99.17","","","","-24","","Mainly Clear"
"-122.60","58.84","FORT NELSON A","1192946","2019-02-23 11:00","2019","02","23","11:00","-17.8","","-21.6","","73","","","","9","","4","","48.3","","99.16","","","","-21","","NA"
"-122.60","58.84","FORT NELSON A","1192946","2019-02-23 12:00","2019","02","23","12:00","-15.4","","-20.6","","65","","","","36","","2","","48.3","","99.13","","","","-17","","NA"
"-122.60","58.84","FORT NELSON A","1192946","2019-02-23 13:00","2019","02","23","13:00","-13.5","","-20.2","","57","","","","8","","4","","48.3","","99.06","","","","-16","","Mainly Clear"
"-122.60","58.84","FORT NELSON A","1192946","2019-02-23 14:00","2019","02","23","14:00","-12.8","","-20.0","","56","","","","12","","7","","48.3","","99.02","","","","-17","","NA"
"-122.60","58.84","FORT NELSON A","1192946","2019-02-23 15:00","2019","02","23","15:00","-12.5","","-19.1","","58","","","","10","","8","","48.3","","98.98","","","","-17","","NA"
"-122.60","58.84","FORT NELSON A","1192946","2019-02-23 16:00","2019","02","23","16:00","-11.9","","-18.6","","58","","","","15","","6","","48.3","","98.93","","","","-16","","Clear"
"-122.60","58.84","FORT NELSON A","1192946","2019-02-23 17:00","2019","02","23","17:00","-13.0","","-18.3","","65","","","","13","","5","","48.3","","98.88","","","","-16","","NA"
"-122.60","58.84","FORT NELSON A","1192946","2019-02-23 18:00","2019","02","23","18:00","-17.7","","-20.3","","81","","","","17","","3","","48.3","","98.86","","","","-20","","NA"
"-122.60","58.84","FORT NELSON A","1192946","2019-02-23 19:00","2019","02","23","19:00","-18.4","","-20.7","","82","","","","15","","8","","24.1","","98.84","","","","-24","","Clear"
"-122.60","58.84","FORT NELSON A","1192946","2019-02-23 20:00","2019","02","23","20:00","-19.2","","-21.8","","80","","","","17","","9","","24.1","","98.77","","","","-26","","NA"
"-122.60","58.84","FORT NELSON A","1192946","2019-02-23 21:00","2019","02","23","21:00","-21.9","","-24.3","","81","","","","15","","7","","24.1","","98.71","","","","-28","","NA"
"-122.60","58.84","FORT NELSON A","1192946","2019-02-23 22:00","2019","02","23","22:00","-22.0","","-24.7","","79","","","","15","","7","","24.1","","98.72","","","","-28","","Clear"
"-122.60","58.84","FORT NELSON A","1192946","2019-02-23 23:00","2019","02","23","23:00","-18.6","","-20.8","","83","","","","16","","8","","24.1","","98.68","","","","-25","","NA"
"-122.60","58.84","FORT NELSON A","1192946","2019-02-24 00:00","2019","02","24","00:00","-19.2","","-21.6","","82","","","","17","","9","","24.1","","98.67","","","","-26","","NA"
"-122.60","58.84","FORT NELSON A","1192946","2019-02-24 01:00","2019","02","24","01:00","-20.1","","-22.6","","81","","","","17","","12","","24.1","","98.64","","","","-28","","Clear"
"-122.60","58.84","FORT NELSON A","1192946","2019-02-24 02:00","2019","02","24","02:00","-20.8","","-23.4","","80","","","","19","","9","","24.1","","98.62","","","","-28","","NA"
"-122.60","58.84","FORT NELSON A","1192946","2019-02-24 03:00","2019","02","24","03:00","-21.6","","-24.4","","79","","","","18","","10","","24.1","","98.58","","","","-29","","NA"
"-122.60","58.84","FORT NELSON A","1192946","2019-02-24 04:00","2019","02","24","04:00","-22.6","","-25.3","","79","","","","18","","8","","24.1","","98.54","","","","-29","","Clear"
"-122.60","58.84","FORT NELSON A","1192946","2019-02-24 05:00","2019","02","24","05:00","-23.7","","-26.4","","79","","","","17","","12","","24.1","","98.51","","","","-33","","NA"
"-122.60","58.84","FORT NELSON A","1192946","2019-02-24 06:00","2019","02","24","06:00","-24.2","","-27.0","","78","","","","17","","10","","24.1","","98.48","","","","-32","","NA"
"-122.60","58.84","FORT NELSON A","1192946","2019-02-24 07:00","2019","02","24","07:00","-24.7","","-27.5","","78","","","","18","","12","","48.3","","98.46","","","","-34","","Clear"
"-122.60","58.84","FORT NELSON A","1192946","2019-02-24 08:00","2019","02","24","08:00","-24.8","","-27.5","","78","","","","18","","12","","48.3","","98.45","","","","-34","","NA"
"-122.60","58.84","FORT NELSON A","1192946","2019-02-24 09:00","2019","02","24","09:00","-23.2","","-26.0","","78","","","","18","","13","","48.3","","98.47","","","","-32","","NA"
"-122.60","58.84","FORT NELSON A","1192946","2019-02-24 10:00","2019","02","24","10:00","-21.3","","-24.3","","77","","","","18","","13","","48.3","","98.46","","","","-30","","Clear"
"-122.60","58.84","FORT NELSON A","1192946","2019-02-24 11:00","2019","02","24","11:00","-19.0","","-23.2","","70","","","","16","","8","","48.3","","98.44","","","","-25","","NA"
"-122.60","58.84","FORT NELSON A","1192946","2019-02-24 12:00","2019","02","24","12:00","-16.2","","-21.8","","62","","","","19","","3","","48.3","","98.43","","","","-18","","NA"
"-122.60","58.84","FORT NELSON A","1192946","2019-02-24 13:00","2019","02","24","13:00","-14.4","","-20.5","","60","","","","4","","4","","48.3","","98.41","","","","-17","","Clear"
"-122.60","58.84","FORT NELSON A","1192946","2019-02-24 14:00","2019","02","24","14:00","-11.9","","-19.2","","55","","","","36","","2","","48.3","","98.37","","","","-13","","NA"
"-122.60","58.84","FORT NELSON A","1192946","2019-02-24 15:00","2019","02","24","15:00","-11.7","","-18.7","","57","","","","9","","6","","24.1","","98.34","","","","-15","","NA"
"-122.60","58.84","FORT NELSON A","1192946","2019-02-24 16:00","2019","02","24","16:00","-11.2","","-18.3","","56","","","","9","","3","","48.3","","98.32","","","","-13","","Mainly Clear"
"-122.60","58.84","FORT NELSON A","1192946","2019-02-24 17:00","2019","02","24","17:00","-11.7","","-18.0","","60","","","","8","","5","","24.1","","98.30","","","","-15","","NA"
"-122.60","58.84","FORT NELSON A","1192946","2019-02-24 18:00","2019","02","24","18:00","-16.6","","-18.4","","86","","","","26","","5","","48.3","","98.29","","","","-20","","NA"
"-122.60","58.84","FORT NELSON A","1192946","2019-02-24 19:00","2019","02","24","19:00","-18.3","","-20.2","","85","","","","29","","4","","24.1","","98.31","","","","-22","","Mainly Clear"
"-122.60","58.84","FORT NELSON A","1192946","2019-02-24 20:00","2019","02","24","20:00","-20.3","","-22.6","","82","","","","24","","5","","24.1","","98.29","","","","-25","","NA"
"-122.60","58.84","FORT NELSON A","1192946","2019-02-24 21:00","2019","02","24","21:00","-20.6","","-23.0","","81","","","","24","","4","","24.1","","98.28","","","","-24","","NA"
"-122.60","58.84","FORT NELSON A","1192946","2019-02-24 22:00","2019","02","24","22:00","-22.6","","-25.1","","81","","","","25","","3","","24.1","","98.30","","","","-25","","Mainly Clear"
"-122.60","58.84","FORT NELSON A","1192946","2019-02-24 23:00","2019","02","24","23:00","-23.9","","-26.5","","79","","","","24","","3","","24.1","","98.29","","","","-27","","NA"
"-122.60","58.84","FORT NELSON A","1192946","2019-02-25 00:00","2019","02","25","00:00","-22.6","","-25.0","","82","","","","17","","5","","24.1","","98.29","","","","-27","","NA"
"-122.60","58.84","FORT NELSON A","1192946","2019-02-25 01:00","2019","02","25","01:00","-24.5","","-27.2","","79","","","","18","","8","","24.1","","98.28","","","","-32","","Mainly Clear"
"-122.60","58.84","FORT NELSON A","1192946","2019-02-25 02:00","2019","02","25","02:00","-20.6","","-22.9","","82","","","","18","","11","","24.1","","98.26","","","","-28","","NA"
"-122.60","58.84","FORT NELSON A","1192946","2019-02-25 03:00","2019","02","25","03:00","-22.3","","-24.8","","80","","","","19","","4","","24.1","","98.25","","","","-26","","NA"
"-122.60","58.84","FORT NELSON A","1192946","2019-02-25 04:00","2019","02","25","04:00","-20.3","","-22.9","","80","","","","17","","7","","24.1","","98.23","","","","-26","","Mainly Clear"
"-122.60","58.84","FORT NELSON A","1192946","2019-02-25 05:00","2019","02","25","05:00","-20.7","","-23.3","","80","","","","18","","9","","24.1","","98.21","","","","-28","","NA"
"-122.60","58.84","FORT NELSON A","1192946","2019-02-25 06:00","2019","02","25","06:00","-20.4","","-22.9","","80","","","","18","","8","","24.1","","98.19","","","","-27","","NA"
"-122.60","58.84","FORT NELSON A","1192946","2019-02-25 07:00","2019","02","25","07:00","-20.0","","-22.6","","80","","","","17","","5","","48.3","","98.15","","","","-24","","Mostly Cloudy"
"-122.60","58.84","FORT NELSON A","1192946","2019-02-25 08:00","2019","02","25","08:00","-19.3","","-21.8","","81","","","","19","","5","","48.3","","98.15","","","","-23","","NA"
"-122.60","58.84","FORT NELSON A","1192946","2019-02-25 09:00","2019","02","25","09:00","-18.6","","-21.3","","80","","","","18","","5","","48.3","","98.20","","","","-23","","NA"
"-122.60","58.84","FORT NELSON A","1192946","2019-02-25 10:00","2019","02","25","10:00","-17.6","","-20.2","","80","","","","14","","5","","48.3","","98.18","","","","-22","","Mostly Cloudy"
"-122.60","58.84","FORT NELSON A","1192946","2019-02-25 11:00","2019","02","25","11:00","-16.4","","-19.5","","78","","","","9","","4","","48.3","","98.19","","","","-19","","NA"
"-122.60","58.84","FORT NELSON A","1192946","2019-02-25 12:00","2019","02","25","12:00","-14.5","","-18.2","","74","","","","36","","2","","48.3","","98.20","","","","-16","","NA"
"-122.60","58.84","FORT NELSON A","1192946","2019-02-25 13:00","2019","02","25","13:00","-12.5","","-17.0","","70","","","","15","","8","","48.3","","98.20","","","","-17","","Cloudy"
"-122.60","58.84","FORT NELSON A","1192946","2019-02-25 14:00","2019","02","25","14:00","-10.9","","-16.2","","65","","","","","","0","","48.3","","98.16","","","","","","NA"
"-122.60","58.84","FORT NELSON A","1192946","2019-02-25 15:00","2019","02","25","15:00","-10.3","","-14.9","","69","","","","36","","3","","48.3","","98.13","","","","-12","","NA"
"-122.60","58.84","FORT NELSON A","1192946","2019-02-25 16:00","2019","02","25","16:00","-9.6","","-14.3","","69","","","","23","","5","","48.3","","98.12","","","","-12","","Mostly Cloudy"
"-122.60","58.84","FORT NELSON A","1192946","2019-02-25 17:00","2019","02","25","17:00","-9.6","","-14.5","","68","","","","36","","2","","48.3","","98.07","","","","-11","","NA"
"-122.60","58.84","FORT NELSON A","1192946","2019-02-25 18:00","2019","02","25","18:00","-12.2","","-14.1","","86","","","","36","","1","","24.1","","98.10","","","","-13","","NA"
"-122.60","58.84","FORT NELSON A","1192946","2019-02-25 19:00","2019","02","25","19:00","-13.9","","-15.4","","89","","","","26","","5","","24.1","","98.13","","","","-17","","Mainly Clear"
"-122.60","58.84","FORT NELSON A","1192946","2019-02-25 20:00","2019","02","25","20:00","-16.4","","-18.3","","86","","","","25","","7","","24.1","","98.14","","","","-21","","NA"
"-122.60","58.84","FORT NELSON A","1192946","2019-02-25 21:00","2019","02","25","21:00","-15.3","","-17.1","","86","","","","24","","4","","24.1","","98.16","","","","-18","","NA"
"-122.60","58.84","FORT NELSON A","1192946","2019-02-25 22:00","2019","02","25","22:00","-17.0","","-18.9","","85","","","","36","","2","","24.1","","98.21","","","","-19","","Mainly Clear"
"-122.60","58.84","FORT NELSON A","1192946","2019-02-25 23:00","2019","02","25","23:00","-17.6","","-19.7","","84","","","","24","","4","","24.1","","98.20","","","","-21","","NA"
"-122.60","58.84","FORT NELSON A","1192946","2019-02-26 00:00","2019","02","26","00:00","-18.8","","-21.0","","83","","","","36","","1","","24.1","","98.20","","","","-20","","NA"
"-122.60","58.84","FORT NELSON A","1192946","2019-02-26 01:00","2019","02","26","01:00","-20.4","","-22.7","","82","","","","21","","5","","24.1","","98.16","","","","-25","","Clear"
"-122.60","58.84","FORT NELSON A","1192946","2019-02-26 02:00","2019","02","26","02:00","-20.1","","-22.4","","82","","","","36","","3","","24.1","","98.14","","","","-23","","NA"
"-122.60","58.84","FORT NELSON A","1192946","2019-02-26 03:00","2019","02","26","03:00","-20.9","","-23.5","","80","","","","36","","2","","24.1","","98.13","","","","-23","","NA"
"-122.60","58.84","FORT NELSON A","1192946","2019-02-26 04:00","2019","02","26","04:00","-21.4","","-24.1","","79","","","","20","","4","","24.1","","98.15","","","","-25","","Clear"
"-122.60","58.84","FORT NELSON A","1192946","2019-02-26 05:00","2019","02","26","05:00","-21.8","","-24.3","","80","","","","22","","5","","24.1","","98.13","","","","-26","","NA"
"-122.60","58.84","FORT NELSON A","1192946","2019-02-26 06:00","2019","02","26","06:00","-19.0","","-21.2","","83","","","","17","","7","","24.1","","98.08","","","","-24","","NA"
"-122.60","58.84","FORT NELSON A","1192946","2019-02-26 07:00","2019","02","26","07:00","-20.0","","-22.3","","83","","","","36","","3","","48.3","","98.04","","","","-23","","Mainly Clear"
"-122.60","58.84","FORT NELSON A","1192946","2019-02-26 08:00","2019","02","26","08:00","-20.5","","-22.6","","84","","","","18","","8","","24.1","","98.00","","","","-27","","NA"
"-122.60","58.84","FORT NELSON A","1192946","2019-02-26 09:00","2019","02","26","09:00","-14.8","","-16.9","","84","","","","17","","7","","48.3","","98.01","","","","-20","","NA"
"-122.60","58.84","FORT NELSON A","1192946","2019-02-26 10:00","2019","02","26","10:00","-12.6","","-14.7","","84","","","","18","","9","","48.3","","97.95","","","","-18","","Mainly Clear"
"-122.60","58.84","FORT NELSON A","1192946","2019-02-26 11:00","2019","02","26","11:00","-9.6","","-13.9","","71","","","","19","","9","","48.3","","97.92","","","","-14","","NA"
"-122.60","58.84","FORT NELSON A","1192946","2019-02-26 12:00","2019","02","26","12:00","-6.5","","-12.7","","62","","","","18","","9","","48.3","","97.86","","","","-11","","NA"
"-122.60","58.84","FORT NELSON A","1192946","2019-02-26 13:00","2019","02","26","13:00","-4.2","","-11.3","","58","","","","16","","11","","48.3","","97.82","","","","-9","","Mainly Clear"
"-122.60","58.84","FORT NELSON A","1192946","2019-02-26 14:00","2019","02","26","14:00","-3.0","","-10.2","","58","","","","7","","7","","48.3","","97.81","","","","-6","","NA"
"-122.60","58.84","FORT NELSON A","1192946","2019-02-26 15:00","2019","02","26","15:00","-1.6","","-9.9","","53","","","","36","","1","","48.3","","97.84","","","","-2","","NA"
"-122.60","58.84","FORT NELSON A","1192946","2019-02-26 16:00","2019","02","26","16:00","-1.0","","-9.9","","51","","","","36","","2","","48.3","","97.83","","","","-2","","Mostly Cloudy"
"-122.60","58.84","FORT NELSON A","1192946","2019-02-26 17:00","2019","02","26","17:00","-1.1","","-8.7","","56","","","","29","","6","","48.3","","97.85","","","","-3","","NA"
"-122.60","58.84","FORT NELSON A","1192946","2019-02-26 18:00","2019","02","26","18:00","-3.2","","-7.3","","73","","","","33","","6","","48.3","","97.87","","","","-6","","NA"
"-122.60","58.84","FORT NELSON A","1192946","2019-02-26 19:00","2019","02","26","19:00","-6.0","","-7.3","","90","","","","28","","4","","24.1","","97.93","","","","-8","","Mainly Clear"
"-122.60","58.84","FORT NELSON A","1192946","2019-02-26 20:00","2019","02","26","20:00","-5.6","","-8.7","","79","","","","29","","7","","24.1","","98.00","","","","-9","","NA"
"-122.60","58.84","FORT NELSON A","1192946","2019-02-26 21:00","2019","02","26","21:00","-3.6","","-8.4","","69","","","","36","","1","","24.1","","98.05","","","","-4","","NA"
"-122.60","58.84","FORT NELSON A","1192946","2019-02-26 22:00","2019","02","26","22:00","-2.5","","-8.1","","65","","","","31","","10","","24.1","","98.11","","","","-6","","Cloudy"
"-122.60","58.84","FORT NELSON A","1192946","2019-02-26 23:00","2019","02","26","23:00","-2.6","","-8.0","","67","","","","32","","8","","24.1","","98.14","","","","-6","","NA"
"-122.60","58.84","FORT NELSON A","1192946","2019-02-27 00:00","2019","02","27","00:00","-3.2","","-8.6","","66","","","","28","","9","","24.1","","98.20","","","","-7","","NA"
"-122.60","58.84","FORT NELSON A","1192946","2019-02-27 01:00","2019","02","27","01:00","-4.5","","-8.7","","73","","","","27","","10","","24.1","","98.20","","","","-9","","Mostly Cloudy"
"-122.60","58.84","FORT NELSON A","1192946","2019-02-27 02:00","2019","02","27","02:00","-8.2","","-10.2","","86","","","","16","","5","","24.1","","98.19","","","","-11","","NA"
"-122.60","58.84","FORT NELSON A","1192946","2019-02-27 03:00","2019","02","27","03:00","-10.5","","-11.3","","94","","","","36","","1","","24.1","","98.18","","","","-11","","NA"
"-122.60","58.84","FORT NELSON A","1192946","2019-02-27 04:00","2019","02","27","04:00","-11.8","","-13.0","","90","","","","23","","5","","24.1","","98.14","","","","-15","","Mainly Clear"
"-122.60","58.84","FORT NELSON A","1192946","2019-02-27 05:00","2019","02","27","05:00","-11.5","","-13.3","","86","","","","36","","2","","24.1","","98.13","","","","-13","","NA"
"-122.60","58.84","FORT NELSON A","1192946","2019-02-27 06:00","2019","02","27","06:00","-14.8","","-17.2","","82","","","","17","","5","","24.1","","98.10","","","","-18","","NA"
"-122.60","58.84","FORT NELSON A","1192946","2019-02-27 07:00","2019","02","27","07:00","-15.7","","-17.6","","85","","","","36","","3","","48.3","","98.10","","","","-18","","Mainly Clear"
"-122.60","58.84","FORT NELSON A","1192946","2019-02-27 08:00","2019","02","27","08:00","-15.6","","-17.7","","84","","","","36","","3","","48.3","","98.09","","","","-18","","NA"
"-122.60","58.84","FORT NELSON A","1192946","2019-02-27 09:00","2019","02","27","09:00","-13.0","","-14.6","","88","","","","21","","3","","48.3","","98.11","","","","-15","","NA"
"-122.60","58.84","FORT NELSON A","1192946","2019-02-27 10:00","2019","02","27","10:00","-10.6","","-12.1","","88","","","","36","","3","","48.3","","98.15","","","","-12","","Mostly Cloudy"
"-122.60","58.84","FORT NELSON A","1192946","2019-02-27 11:00","2019","02","27","11:00","-8.0","","-10.1","","85","","","","4","","3","","48.3","","98.15","","","","-10","","NA"
"-122.60","58.84","FORT NELSON A","1192946","2019-02-27 12:00","2019","02","27","12:00","-5.5","","-9.1","","76","","","","36","","2","","48.3","","98.13","","","","-6","","NA"
"-122.60","58.84","FORT NELSON A","1192946","2019-02-27 13:00","2019","02","27","13:00","-3.7","","-8.3","","70","","","","17","","7","","48.3","","98.03","","","","-7","","Mainly Clear"
"-122.60","58.84","FORT NELSON A","1192946","2019-02-27 14:00","2019","02","27","14:00","-2.4","","-7.8","","67","","","","10","","6","","48.3","","97.99","","","","-5","","NA"
"-122.60","58.84","FORT NELSON A","1192946","2019-02-27 15:00","2019","02","27","15:00","-0.9","","-7.3","","62","","","","15","","3","","48.3","","97.94","","","","-2","","NA"
"-122.60","58.84","FORT NELSON A","1192946","2019-02-27 16:00","2019","02","27","16:00","-1.0","","-7.4","","62","","","","9","","4","","48.3","","97.92","","","","-2","","Mostly Cloudy"
"-122.60","58.84","FORT NELSON A","1192946","2019-02-27 17:00","2019","02","27","17:00","-1.4","","-6.9","","67","","","","36","","1","","48.3","","97.89","","","","-2","","NA"
"-122.60","58.84","FORT NELSON A","1192946","2019-02-27 18:00","2019","02","27","18:00","-4.1","","-5.8","","88","","","","29","","4","","48.3","","97.87","","","","-6","","NA"
"-122.60","58.84","FORT NELSON A","1192946","2019-02-27 19:00","2019","02","27","19:00","-5.2","","-5.8","","96","","","","4","","3","","24.1","","97.86","","","","-7","","Mainly Clear"
"-122.60","58.84","FORT NELSON A","1192946","2019-02-27 20:00","2019","02","27","20:00","-6.8","","-7.4","","96","","","","36","","1","","24.1","","97.86","","","","-7","","NA"
"-122.60","58.84","FORT NELSON A","1192946","2019-02-27 21:00","2019","02","27","21:00","-6.6","","-7.9","","91","","","","17","","6","","24.1","","97.80","","","","-10","","NA"
"-122.60","58.84","FORT NELSON A","1192946","2019-02-27 22:00","2019","02","27","22:00","-5.0","","-7.0","","86","","","","32","","5","","24.1","","97.86","","","","-7","","Mostly Cloudy"
"-122.60","58.84","FORT NELSON A","1192946","2019-02-27 23:00","2019","02","27","23:00","-5.8","","-7.1","","91","","","","24","","3","","24.1","","97.88","","","","-7","","NA"
"-122.60","58.84","FORT NELSON A","1192946","2019-02-28 00:00","2019","02","28","00:00","-6.6","","-7.8","","91","","","","36","","1","","24.1","","97.87","","","","-7","","NA"
"-122.60","58.84","FORT NELSON A","1192946","2019-02-28 01:00","2019","02","28","01:00","-5.8","","-7.1","","91","","","","11","","5","","24.1","","97.87","","","","-8","","Mostly Cloudy"
"-122.60","58.84","FORT NELSON A","1192946","2019-02-28 02:00","2019","02","28","02:00","-6.5","","-7.6","","92","","","","24","","3","","24.1","","97.90","","","","-8","","NA"
"-122.60","58.84","FORT NELSON A","1192946","2019-02-28 03:00","2019","02","28","03:00","-6.7","","-7.8","","92","","","","4","","5","","24.1","","97.91","","","","-9","","NA"
"-122.60","58.84","FORT NELSON A","1192946","2019-02-28 04:00","2019","02","28","04:00","-5.8","","-7.9","","85","","","","36","","8","","24.1","","97.93","","","","-10","","Cloudy"
"-122.60","58.84","FORT NELSON A","1192946","2019-02-28 05:00","2019","02","28","05:00","-6.3","","-10.2","","74","","","","34","","8","","24.1","","97.97","","","","-10","","NA"
"-122.60","58.84","FORT NELSON A","1192946","2019-02-28 06:00","2019","02","28","06:00","-6.7","","-10.7","","74","","","","31","","6","","24.1","","97.95","","","","-10","","NA"
"-122.60","58.84","FORT NELSON A","1192946","2019-02-28 07:00","2019","02","28","07:00","-7.5","","-12.2","","69","","","","2","","5","","48.3","","97.94","","","","-10","","Mostly Cloudy"
"-122.60","58.84","FORT NELSON A","1192946","2019-02-28 08:00","2019","02","28","08:00","-7.7","","-12.9","","67","","","","35","","9","","48.3","","97.97","","","","-12","","NA"
"-122.60","58.84","FORT NELSON A","1192946","2019-02-28 09:00","2019","02","28","09:00","-8.1","","-16.8","","50","","","","1","","16","","48.3","","98.01","","","","-15","","NA"
"-122.60","58.84","FORT NELSON A","1192946","2019-02-28 10:00","2019","02","28","10:00","-7.8","","-17.8","","45","","","","2","","11","","48.3","","98.06","","","","-13","","Mostly Cloudy"
"-122.60","58.84","FORT NELSON A","1192946","2019-02-28 11:00","2019","02","28","11:00","-8.0","","-17.7","","46","","","","34","","11","","19.3","","98.10","","","","-13","","Snow"
"-122.60","58.84","FORT NELSON A","1192946","2019-02-28 12:00","2019","02","28","12:00","-7.8","","-17.6","","46","","","","35","","14","","19.3","","98.16","","","","-14","","NA"
"-122.60","58.84","FORT NELSON A","1192946","2019-02-28 13:00","2019","02","28","13:00","-7.5","","-17.1","","46","","","","32","","22","","32.2","","98.18","","","","-15","","Mainly Clear"
"-122.60","58.84","FORT NELSON A","1192946","2019-02-28 14:00","2019","02","28","14:00","-7.7","","-20.7","","35","","","","35","","25","","48.3","","98.24","","","","-16","","NA"
"-122.60","58.84","FORT NELSON A","1192946","2019-02-28 15:00","2019","02","28","15:00","-8.4","","-20.9","","36","","","","33","","18","","32.2","","98.33","","","","-15","","NA"
"-122.60","58.84","FORT NELSON A","1192946","2019-02-28 16:00","2019","02","28","16:00","-9.1","","-20.4","","40","","","","34","","14","","32.2","","98.39","","","","-15","","Mostly Cloudy"
"-122.60","58.84","FORT NELSON A","1192946","2019-02-28 17:00","2019","02","28","17:00","-10.2","","-20.7","","42","","","","35","","18","","24.1","","98.48","","","","-18","","NA"
"-122.60","58.84","FORT NELSON A","1192946","2019-02-28 18:00","2019","02","28","18:00","-12.4","","-20.3","","52","","","","1","","14","","24.1","","98.60","","","","-19","","NA"
"-122.60","58.84","FORT NELSON A","1192946","2019-02-28 19:00","2019","02","28","19:00","-14.3","","-21.0","","57","","","","3","","16","","24.1","","98.72","","","","-22","","Mainly Clear"
"-122.60","58.84","FORT NELSON A","1192946","2019-02-28 20:00","2019","02","28","20:00","-15.7","","-21.4","","62","","","","3","","19","","24.1","","98.88","","","","-25","","NA"
"-122.60","58.84","FORT NELSON A","1192946","2019-02-28 21:00","2019","02","28","21:00","-17.1","","-22.3","","64","","","","6","","10","","24.1","","99.03","","","","-24","","NA"
"-122.60","58.84","FORT NELSON A","1192946","2019-02-28 22:00","2019","02","28","22:00","-18.7","","-24.2","","62","","","","5","","16","","24.1","","99.15","","","","-28","","Clear"
"-122.60","58.84","FORT NELSON A","1192946","2019-02-28 23:00","2019","02","28","23:00","-20.7","","-24.9","","70","","","","2","","6","","24.1","","99.27","","","","-26","","NA"
