"Longitude (x)","Latitude (y)","Station Name","Climate ID","Date/Time (LST)","Year","Month","Day","Time (LST)","Temp (°C)","Temp Flag","Dew Point Temp (°C)","Dew Point Temp Flag","Rel Hum (%)","Rel Hum Flag","Precip. Amount (mm)","Precip. Amount Flag","Wind Dir (10s deg)","Wind Dir Flag","Wind Spd (km/h)","Wind Spd Flag","Visibility (km)","Visibility Flag","Stn Press (kPa)","Stn Press Flag","Hmdx","Hmdx Flag","Wind Chill","Wind Chill Flag","Weather"
"-97.24","49.91","WINNIPEG INTL A","5023227","2019-04-01 00:00","2019","04","01","00:00","-0.8","","-3.3","","83","","","","31","","7","","24.1","","99.35","","","","-3","","Snow"
"-97.24","49.91","WINNIPEG INTL A","5023227","2019-04-01 01:00","2019","04","01","01:00","-1.0","","-3.3","","85","","","","","","0","","24.1","","99.33","","","","","","Snow"
"-97.24","49.91","WINNIPEG INTL A","5023227","2019-04-01 02:00","2019","04","01","02:00","-1.1","","-3.5","","84","","","","6","","7","","24.1","","99.27","","","","-4","","Snow"
"-97.24","49.91","WINNIPEG INTL A","5023227","2019-04-01 03:00","2019","04","01","03:00","-1.3","","-3.8","","83","","","","7","","5","","24.1","","99.21","","","","-3","","Snow"
"-97.24","49.91","WINNIPEG INTL A","5023227","2019-04-01 04:00","2019","04","01","04:00","-1.3","","-3.3","","86","","","","14","","4","","24.1","","99.17","","","","-3","","Snow"
"-97.24","49.91","WINNIPEG INTL A","5023227","2019-04-01 05:00","2019","04","01","05:00","-1.3","","-3.5","","85","","","","17","","7","","24.1","","99.11","","","","-4","","Snow"
"-97.24","49.91","WINNIPEG INTL A","5023227","2019-04-01 06:00","2019","04","01","06:00","-1.7","","-3.6","","87","","","","17","","8","","24.1","","99.03","","","","-5","","Cloudy"
"-97.24","49.91","WINNIPEG INTL A","5023227","2019-04-01 07:00","2019","04","01","07:00","-1.8","","-3.5","","88","","","","17","","10","","24.1","","98.97","","","","-5","","NA"
"-97.24","49.91","WINNIPEG INTL A","5023227","2019-04-01 08:00","2019","04","01","08:00","-0.1","","-3.9","","76","","","","19","","11","","24.1","","98.90","","","","-4","","NA"
"-97.24","49.91","WINNIPEG INTL A","5023227","2019-04-01 09:00","2019","04","01","09:00","0.7","","-4.8","","67","","","","22","","18","","24.1","","98.85","","","","","","Mostly Cloudy"
"-97.24","49.91","WINNIPEG INTL A","5023227","2019-04-01 10:00","2019","04","01","10:00","1.4","","-5.1","","62","","","","26","","18","","24.1","","98.76","","","","","","NA"
"-97.24","49.91","WINNIPEG INTL A","5023227","2019-04-01 11:00","2019","04","01","11:00","2.8","","-4.7","","58","","","","25","","26","","24.1","","98.68","","","","","","NA"
"-97.24","49.91","WINNIPEG INTL A","5023227","2019-04-01 12:00","2019","04","01","12:00","3.6","","-4.1","","57","","","","26","","18","","24.1","","98.57","","","","","","Mostly Cloudy"
"-97.24","49.91","WINNIPEG INTL A","5023227","2019-04-01 13:00","2019","04","01","13:00","4.7","","-4.2","","53","","","","22","","22","","24.1","","98.46","","","","","","NA"
"-97.24","49.91","WINNIPEG INTL A","5023227","2019-04-01 14:00","2019","04","01","14:00","6.0","","-3.4","","51","","","","24","","23","","24.1","","98.33","","","","","","NA"
"-97.24","49.91","WINNIPEG INTL A","5023227","2019-04-01 15:00","2019","04","01","15:00","6.8","","-3.8","","47","","","","26","","29","","24.1","","98.23","","","","","","Mostly Cloudy"
"-97.24","49.91","WINNIPEG INTL A","5023227","2019-04-01 16:00","2019","04","01","16:00","6.5","","-3.2","","50","","","","28","","23","","24.1","","98.18","","","","","","NA"
"-97.24","49.91","WINNIPEG INTL A","5023227","2019-04-01 17:00","2019","04","01","17:00","6.0","","-2.6","","54","","","","27","","24","","24.1","","98.12","","","","","","NA"
"-97.24","49.91","WINNIPEG INTL A","5023227","2019-04-01 18:00","2019","04","01","18:00","5.1","","-1.9","","61","","","","27","","18","","24.1","","98.09","","","","","","Mostly Cloudy"
"-97.24","49.91","WINNIPEG INTL A","5023227","2019-04-01 19:00","2019","04","01","19:00","3.4","","-2.0","","68","","","","27","","18","","24.1","","98.06","","","","","","NA"
"-97.24","49.91","WINNIPEG INTL A","5023227","2019-04-01 20:00","2019","04","01","20:00","2.2","","-1.7","","75","","","","26","","18","","24.1","","98.05","","","","","","NA"
"-97.24","49.91","WINNIPEG INTL A","5023227","2019-04-01 21:00","2019","04","01","21:00","1.0","","-2.1","","80","","","","26","","15","","24.1","","98.05","","","","","","Mainly Clear"
"-97.24","49.91","WINNIPEG INTL A","5023227","2019-04-01 22:00","2019","04","01","22:00","1.6","","-2.8","","72","","","","24","","13","","24.1","","97.96","","","","","","NA"
"-97.24","49.91","WINNIPEG INTL A","5023227","2019-04-01 23:00","2019","04","01","23:00","1.4","","-2.9","","73","","","","23","","18","","24.1","","97.87","","","","","","NA"
"-97.24","49.91","WINNIPEG INTL A","5023227","2019-04-02 00:00","2019","04","02","00:00","1.4","","-0.3","","89","","","","30","","23","","16.1","","97.86","","","","","","Rain Showers,Snow Showers"
"-97.24","49.91","WINNIPEG INTL A","5023227","2019-04-02 01:00","2019","04","02","01:00","0.3","","-0.6","","93","","","","25","","18","","16.1","","97.76","","","","","","Rain Showers,Snow Showers"
"-97.24","49.91","WINNIPEG INTL A","5023227","2019-04-02 02:00","2019","04","02","02:00","0.6","","-0.3","","94","","","","27","","25","","24.1","","97.71","","","","","","NA"
"-97.24","49.91","WINNIPEG INTL A","5023227","2019-04-02 03:00","2019","04","02","03:00","0.4","","-0.9","","91","","","","30","","25","","24.1","","97.73","","","","","","Mostly Cloudy"
"-97.24","49.91","WINNIPEG INTL A","5023227","2019-04-02 04:00","2019","04","02","04:00","-0.1","","-1.6","","90","","","","31","","23","","24.1","","97.77","","","","-6","","NA"
"-97.24","49.91","WINNIPEG INTL A","5023227","2019-04-02 05:00","2019","04","02","05:00","-0.4","","-2.0","","89","","","","30","","18","","24.1","","97.77","","","","-5","","NA"
"-97.24","49.91","WINNIPEG INTL A","5023227","2019-04-02 06:00","2019","04","02","06:00","-0.6","","-2.4","","88","","","","29","","19","","24.1","","97.82","","","","-6","","Mostly Cloudy"
"-97.24","49.91","WINNIPEG INTL A","5023227","2019-04-02 07:00","2019","04","02","07:00","-0.6","","-3.1","","83","","","","32","","25","","12.9","","97.84","","","","-7","","Snow Showers"
"-97.24","49.91","WINNIPEG INTL A","5023227","2019-04-02 08:00","2019","04","02","08:00","-1.4","","-3.5","","86","","","","32","","31","","14.5","","97.91","","","","-8","","Snow Showers"
"-97.24","49.91","WINNIPEG INTL A","5023227","2019-04-02 09:00","2019","04","02","09:00","-1.4","","-4.8","","77","","","","33","","35","","24.1","","97.94","","","","-9","","Snow Showers"
"-97.24","49.91","WINNIPEG INTL A","5023227","2019-04-02 10:00","2019","04","02","10:00","-1.2","","-7.2","","64","","","","32","","28","","24.1","","98.01","","","","-8","","NA"
"-97.24","49.91","WINNIPEG INTL A","5023227","2019-04-02 11:00","2019","04","02","11:00","-1.3","","-7.8","","61","","","","33","","26","","11.3","","98.03","","","","-8","","Snow Showers"
"-97.24","49.91","WINNIPEG INTL A","5023227","2019-04-02 12:00","2019","04","02","12:00","-0.8","","-6.5","","65","","","","31","","32","","24.1","","98.04","","","","-8","","Mostly Cloudy"
"-97.24","49.91","WINNIPEG INTL A","5023227","2019-04-02 13:00","2019","04","02","13:00","-1.9","","-5.2","","78","","","","31","","40","","9.7","","98.10","","","","-10","","Snow Showers"
"-97.24","49.91","WINNIPEG INTL A","5023227","2019-04-02 14:00","2019","04","02","14:00","-1.1","","-8.3","","58","","","","31","","47","","24.1","","98.12","","","","-9","","NA"
"-97.24","49.91","WINNIPEG INTL A","5023227","2019-04-02 15:00","2019","04","02","15:00","-0.7","","-8.6","","55","","","","32","","43","","24.1","","98.15","","","","-9","","Mainly Clear"
"-97.24","49.91","WINNIPEG INTL A","5023227","2019-04-02 16:00","2019","04","02","16:00","-0.7","","-9.4","","52","","","","31","","38","","24.1","","98.19","","","","-8","","NA"
"-97.24","49.91","WINNIPEG INTL A","5023227","2019-04-02 17:00","2019","04","02","17:00","-0.7","","-9.4","","52","","","","33","","37","","24.1","","98.23","","","","-8","","NA"
"-97.24","49.91","WINNIPEG INTL A","5023227","2019-04-02 18:00","2019","04","02","18:00","-1.9","","-9.2","","58","","","","30","","30","","24.1","","98.32","","","","-9","","Mainly Clear"
"-97.24","49.91","WINNIPEG INTL A","5023227","2019-04-02 19:00","2019","04","02","19:00","-3.0","","-8.5","","66","","","","30","","19","","24.1","","98.33","","","","-9","","NA"
"-97.24","49.91","WINNIPEG INTL A","5023227","2019-04-02 20:00","2019","04","02","20:00","-3.0","","-8.1","","68","","","","30","","16","","24.1","","98.37","","","","-8","","NA"
"-97.24","49.91","WINNIPEG INTL A","5023227","2019-04-02 21:00","2019","04","02","21:00","-3.5","","-8.0","","71","","","","29","","21","","24.1","","98.45","","","","-10","","Mainly Clear"
"-97.24","49.91","WINNIPEG INTL A","5023227","2019-04-02 22:00","2019","04","02","22:00","-3.9","","-7.0","","79","","","","30","","17","","24.1","","98.50","","","","-10","","NA"
"-97.24","49.91","WINNIPEG INTL A","5023227","2019-04-02 23:00","2019","04","02","23:00","-3.8","","-6.7","","80","","","","31","","13","","24.1","","98.55","","","","-9","","NA"
"-97.24","49.91","WINNIPEG INTL A","5023227","2019-04-03 00:00","2019","04","03","00:00","-4.4","","-7.5","","79","","","","30","","14","","24.1","","98.63","","","","-10","","Clear"
"-97.24","49.91","WINNIPEG INTL A","5023227","2019-04-03 01:00","2019","04","03","01:00","-4.0","","-7.3","","78","","","","30","","13","","24.1","","98.70","","","","-9","","NA"
"-97.24","49.91","WINNIPEG INTL A","5023227","2019-04-03 02:00","2019","04","03","02:00","-3.8","","-7.5","","75","","","","33","","17","","24.1","","98.77","","","","-10","","NA"
"-97.24","49.91","WINNIPEG INTL A","5023227","2019-04-03 03:00","2019","04","03","03:00","-4.1","","-8.3","","73","","","","31","","22","","24.1","","98.84","","","","-11","","Mostly Cloudy"
"-97.24","49.91","WINNIPEG INTL A","5023227","2019-04-03 04:00","2019","04","03","04:00","-4.7","","-8.8","","74","","","","31","","23","","24.1","","98.90","","","","-12","","NA"
"-97.24","49.91","WINNIPEG INTL A","5023227","2019-04-03 05:00","2019","04","03","05:00","-4.7","","-8.5","","75","","","","31","","21","","24.1","","98.97","","","","-11","","Snow Showers"
"-97.24","49.91","WINNIPEG INTL A","5023227","2019-04-03 06:00","2019","04","03","06:00","-5.2","","-9.4","","72","","","","30","","18","","24.1","","99.07","","","","-11","","Mainly Clear"
"-97.24","49.91","WINNIPEG INTL A","5023227","2019-04-03 07:00","2019","04","03","07:00","-4.7","","-9.3","","70","","","","32","","22","","24.1","","99.15","","","","-12","","NA"
"-97.24","49.91","WINNIPEG INTL A","5023227","2019-04-03 08:00","2019","04","03","08:00","-4.4","","-11.0","","60","","","","32","","20","","24.1","","99.24","","","","-11","","NA"
"-97.24","49.91","WINNIPEG INTL A","5023227","2019-04-03 09:00","2019","04","03","09:00","-3.8","","-12.7","","50","","","","32","","22","","24.1","","99.32","","","","-10","","Mainly Clear"
"-97.24","49.91","WINNIPEG INTL A","5023227","2019-04-03 10:00","2019","04","03","10:00","-2.9","","-10.7","","55","","","","33","","19","","24.1","","99.40","","","","-9","","NA"
"-97.24","49.91","WINNIPEG INTL A","5023227","2019-04-03 11:00","2019","04","03","11:00","-2.2","","-9.9","","56","","","","30","","16","","24.1","","99.48","","","","-7","","NA"
"-97.24","49.91","WINNIPEG INTL A","5023227","2019-04-03 12:00","2019","04","03","12:00","-2.0","","-10.7","","52","","","","31","","21","","24.1","","99.52","","","","-8","","Mainly Clear"
"-97.24","49.91","WINNIPEG INTL A","5023227","2019-04-03 13:00","2019","04","03","13:00","-1.6","","-10.9","","49","","","","30","","23","","24.1","","99.57","","","","-8","","NA"
"-97.24","49.91","WINNIPEG INTL A","5023227","2019-04-03 14:00","2019","04","03","14:00","-1.6","","-12.9","","42","","","","30","","27","","24.1","","99.59","","","","-8","","NA"
"-97.24","49.91","WINNIPEG INTL A","5023227","2019-04-03 15:00","2019","04","03","15:00","-0.8","","-9.6","","52","","","","32","","23","","24.1","","99.59","","","","-7","","Mainly Clear"
"-97.24","49.91","WINNIPEG INTL A","5023227","2019-04-03 16:00","2019","04","03","16:00","-0.4","","-10.6","","46","","","","31","","19","","24.1","","99.60","","","","-6","","NA"
"-97.24","49.91","WINNIPEG INTL A","5023227","2019-04-03 17:00","2019","04","03","17:00","-0.1","","-10.6","","45","","","","35","","12","","24.1","","99.62","","","","-4","","NA"
"-97.24","49.91","WINNIPEG INTL A","5023227","2019-04-03 18:00","2019","04","03","18:00","-0.6","","-11.6","","44","","","","1","","5","","24.1","","99.62","","","","-2","","Mainly Clear"
"-97.24","49.91","WINNIPEG INTL A","5023227","2019-04-03 19:00","2019","04","03","19:00","-1.5","","-9.5","","54","","","","36","","3","","24.1","","99.64","","","","-3","","NA"
"-97.24","49.91","WINNIPEG INTL A","5023227","2019-04-03 20:00","2019","04","03","20:00","-2.5","","-9.9","","57","","","","12","","8","","24.1","","99.64","","","","-6","","NA"
"-97.24","49.91","WINNIPEG INTL A","5023227","2019-04-03 21:00","2019","04","03","21:00","-3.4","","-9.4","","63","","","","14","","10","","24.1","","99.67","","","","-7","","Clear"
"-97.24","49.91","WINNIPEG INTL A","5023227","2019-04-03 22:00","2019","04","03","22:00","-4.0","","-10.0","","63","","","","16","","14","","24.1","","99.69","","","","-9","","NA"
"-97.24","49.91","WINNIPEG INTL A","5023227","2019-04-03 23:00","2019","04","03","23:00","-3.1","","-9.8","","60","","","","15","","16","","24.1","","99.68","","","","-8","","NA"
"-97.24","49.91","WINNIPEG INTL A","5023227","2019-04-04 00:00","2019","04","04","00:00","-3.2","","-9.5","","62","","","","16","","17","","24.1","","99.69","","","","-9","","Mainly Clear"
"-97.24","49.91","WINNIPEG INTL A","5023227","2019-04-04 01:00","2019","04","04","01:00","-3.0","","-9.3","","62","","","","16","","21","","24.1","","99.70","","","","-9","","NA"
"-97.24","49.91","WINNIPEG INTL A","5023227","2019-04-04 02:00","2019","04","04","02:00","-3.1","","-9.2","","63","","","","16","","22","","24.1","","99.66","","","","-9","","NA"
"-97.24","49.91","WINNIPEG INTL A","5023227","2019-04-04 03:00","2019","04","04","03:00","-3.5","","-8.9","","66","","","","15","","21","","24.1","","99.61","","","","-10","","Mostly Cloudy"
"-97.24","49.91","WINNIPEG INTL A","5023227","2019-04-04 04:00","2019","04","04","04:00","-3.2","","-8.9","","65","","","","16","","24","","24.1","","99.55","","","","-10","","NA"
"-97.24","49.91","WINNIPEG INTL A","5023227","2019-04-04 05:00","2019","04","04","05:00","-3.0","","-9.5","","61","","","","16","","26","","24.1","","99.48","","","","-10","","NA"
"-97.24","49.91","WINNIPEG INTL A","5023227","2019-04-04 06:00","2019","04","04","06:00","-3.1","","-9.9","","60","","","","15","","30","","24.1","","99.38","","","","-11","","Mainly Clear"
"-97.24","49.91","WINNIPEG INTL A","5023227","2019-04-04 07:00","2019","04","04","07:00","-2.3","","-10.3","","55","","","","16","","32","","24.1","","99.35","","","","-10","","NA"
"-97.24","49.91","WINNIPEG INTL A","5023227","2019-04-04 08:00","2019","04","04","08:00","0.4","","-10.7","","44","","","","16","","34","","24.1","","99.29","","","","","","NA"
"-97.24","49.91","WINNIPEG INTL A","5023227","2019-04-04 09:00","2019","04","04","09:00","1.0","","-8.7","","49","","","","17","","39","","24.1","","99.17","","","","","","Cloudy"
"-97.24","49.91","WINNIPEG INTL A","5023227","2019-04-04 10:00","2019","04","04","10:00","1.2","","-8.0","","50","","","","17","","46","","24.1","","99.11","","","","","","NA"
"-97.24","49.91","WINNIPEG INTL A","5023227","2019-04-04 11:00","2019","04","04","11:00","1.1","","-7.6","","52","","","","18","","52","","24.1","","99.05","","","","","","NA"
"-97.24","49.91","WINNIPEG INTL A","5023227","2019-04-04 12:00","2019","04","04","12:00","1.0","","-6.1","","60","","","","18","","44","","24.1","","98.95","","","","","","Cloudy"
"-97.24","49.91","WINNIPEG INTL A","5023227","2019-04-04 13:00","2019","04","04","13:00","1.2","","-4.8","","64","","","","18","","49","","4.8","","98.85","","","","","","Snow"
"-97.24","49.91","WINNIPEG INTL A","5023227","2019-04-04 14:00","2019","04","04","14:00","0.1","","-2.3","","84","","","","17","","39","","3.2","","98.73","","","","","","Snow"
"-97.24","49.91","WINNIPEG INTL A","5023227","2019-04-04 15:00","2019","04","04","15:00","0.5","","-2.4","","81","","","","17","","45","","3.2","","98.61","","","","","","Snow,Ice Pellets"
"-97.24","49.91","WINNIPEG INTL A","5023227","2019-04-04 16:00","2019","04","04","16:00","1.4","","-2.2","","77","","","","18","","45","","19.3","","98.56","","","","","","NA"
"-97.24","49.91","WINNIPEG INTL A","5023227","2019-04-04 17:00","2019","04","04","17:00","1.4","","-0.8","","86","","","","18","","32","","16.1","","98.48","","","","","","Snow"
"-97.24","49.91","WINNIPEG INTL A","5023227","2019-04-04 18:00","2019","04","04","18:00","1.7","","-0.5","","85","","","","18","","32","","19.3","","98.47","","","","","","Cloudy"
"-97.24","49.91","WINNIPEG INTL A","5023227","2019-04-04 19:00","2019","04","04","19:00","2.1","","0.2","","88","","","","19","","32","","19.3","","98.43","","","","","","NA"
"-97.24","49.91","WINNIPEG INTL A","5023227","2019-04-04 20:00","2019","04","04","20:00","2.0","","0.7","","91","","","","18","","39","","16.1","","98.40","","","","","","NA"
"-97.24","49.91","WINNIPEG INTL A","5023227","2019-04-04 21:00","2019","04","04","21:00","2.0","","1.0","","93","","","","19","","34","","9.7","","98.39","","","","","","Fog"
"-97.24","49.91","WINNIPEG INTL A","5023227","2019-04-04 22:00","2019","04","04","22:00","1.9","","1.1","","94","","","","18","","35","","3.2","","98.39","","","","","","Fog"
"-97.24","49.91","WINNIPEG INTL A","5023227","2019-04-04 23:00","2019","04","04","23:00","1.9","","1.2","","95","","","","19","","25","","3.2","","98.36","","","","","","Rain Showers,Fog"
"-97.24","49.91","WINNIPEG INTL A","5023227","2019-04-05 00:00","2019","04","05","00:00","2.1","","1.2","","94","","","","20","","17","","8.1","","98.42","","","","","","Fog"
"-97.24","49.91","WINNIPEG INTL A","5023227","2019-04-05 01:00","2019","04","05","01:00","1.9","","1.0","","94","","","","20","","14","","9.7","","98.45","","","","","","Fog"
"-97.24","49.91","WINNIPEG INTL A","5023227","2019-04-05 02:00","2019","04","05","02:00","1.8","","1.0","","94","","","","20","","10","","4.8","","98.45","","","","","","Fog"
"-97.24","49.91","WINNIPEG INTL A","5023227","2019-04-05 03:00","2019","04","05","03:00","1.6","","0.9","","95","","","","25","","4","","8.1","","98.45","","","","","","Fog"
"-97.24","49.91","WINNIPEG INTL A","5023227","2019-04-05 04:00","2019","04","05","04:00","1.0","","0.4","","95","","","","1","","7","","1.6","","98.48","","","","","","Fog"
"-97.24","49.91","WINNIPEG INTL A","5023227","2019-04-05 05:00","2019","04","05","05:00","1.0","","0.4","","96","","","","35","","14","","0.8","","98.54","","","","","","Fog,Smoke"
"-97.24","49.91","WINNIPEG INTL A","5023227","2019-04-05 06:00","2019","04","05","06:00","0.8","","0.2","","96","","","","3","","18","","1.0","","98.64","","","","","","Fog"
"-97.24","49.91","WINNIPEG INTL A","5023227","2019-04-05 07:00","2019","04","05","07:00","0.5","","-0.1","","96","","","","3","","22","","12.9","","98.69","","","","","","NA"
"-97.24","49.91","WINNIPEG INTL A","5023227","2019-04-05 08:00","2019","04","05","08:00","0.5","","-0.7","","91","","","","2","","21","","19.3","","98.72","","","","","","NA"
"-97.24","49.91","WINNIPEG INTL A","5023227","2019-04-05 09:00","2019","04","05","09:00","0.4","","-0.6","","93","","","","1","","19","","19.3","","98.74","","","","","","Cloudy"
"-97.24","49.91","WINNIPEG INTL A","5023227","2019-04-05 10:00","2019","04","05","10:00","0.3","","-1.5","","87","","","","1","","23","","19.3","","98.83","","","","","","NA"
"-97.24","49.91","WINNIPEG INTL A","5023227","2019-04-05 11:00","2019","04","05","11:00","0.5","","-1.8","","84","","","","35","","23","","24.1","","98.91","","","","","","NA"
"-97.24","49.91","WINNIPEG INTL A","5023227","2019-04-05 12:00","2019","04","05","12:00","1.2","","-1.6","","81","","","","36","","20","","24.1","","98.90","","","","","","Cloudy"
"-97.24","49.91","WINNIPEG INTL A","5023227","2019-04-05 13:00","2019","04","05","13:00","1.8","","-1.4","","79","","","","2","","18","","24.1","","98.90","","","","","","NA"
"-97.24","49.91","WINNIPEG INTL A","5023227","2019-04-05 14:00","2019","04","05","14:00","1.1","","-1.6","","82","","","","4","","16","","24.1","","98.92","","","","","","NA"
"-97.24","49.91","WINNIPEG INTL A","5023227","2019-04-05 15:00","2019","04","05","15:00","0.7","","-2.1","","82","","","","3","","18","","24.1","","98.92","","","","","","Cloudy"
"-97.24","49.91","WINNIPEG INTL A","5023227","2019-04-05 16:00","2019","04","05","16:00","0.6","","-2.2","","81","","","","4","","16","","24.1","","98.92","","","","","","NA"
"-97.24","49.91","WINNIPEG INTL A","5023227","2019-04-05 17:00","2019","04","05","17:00","0.2","","-2.2","","84","","","","3","","17","","24.1","","98.95","","","","","","NA"
"-97.24","49.91","WINNIPEG INTL A","5023227","2019-04-05 18:00","2019","04","05","18:00","-0.3","","-2.6","","85","","","","3","","16","","24.1","","98.97","","","","-5","","Mostly Cloudy"
"-97.24","49.91","WINNIPEG INTL A","5023227","2019-04-05 19:00","2019","04","05","19:00","-0.9","","-3.0","","85","","","","4","","12","","24.1","","99.02","","","","-5","","NA"
"-97.24","49.91","WINNIPEG INTL A","5023227","2019-04-05 20:00","2019","04","05","20:00","-1.4","","-3.4","","86","","","","5","","13","","24.1","","99.04","","","","-6","","NA"
"-97.24","49.91","WINNIPEG INTL A","5023227","2019-04-05 21:00","2019","04","05","21:00","-2.2","","-4.0","","87","","","","5","","11","","24.1","","99.10","","","","-6","","Mainly Clear"
"-97.24","49.91","WINNIPEG INTL A","5023227","2019-04-05 22:00","2019","04","05","22:00","-2.8","","-4.9","","86","","","","6","","8","","24.1","","99.12","","","","-6","","NA"
"-97.24","49.91","WINNIPEG INTL A","5023227","2019-04-05 23:00","2019","04","05","23:00","-3.1","","-5.2","","85","","","","6","","6","","24.1","","99.12","","","","-6","","NA"
"-97.24","49.91","WINNIPEG INTL A","5023227","2019-04-06 00:00","2019","04","06","00:00","-3.0","","-5.5","","83","","","","4","","8","","24.1","","99.10","","","","-6","","Clear"
"-97.24","49.91","WINNIPEG INTL A","5023227","2019-04-06 01:00","2019","04","06","01:00","-3.5","","-5.3","","88","","","","4","","8","","24.1","","99.12","","","","-7","","NA"
"-97.24","49.91","WINNIPEG INTL A","5023227","2019-04-06 02:00","2019","04","06","02:00","-3.6","","-5.1","","89","","","","5","","16","","24.1","","99.09","","","","-9","","NA"
"-97.24","49.91","WINNIPEG INTL A","5023227","2019-04-06 03:00","2019","04","06","03:00","-4.0","","-5.6","","89","","","","5","","12","","24.1","","99.06","","","","-9","","Clear"
"-97.24","49.91","WINNIPEG INTL A","5023227","2019-04-06 04:00","2019","04","06","04:00","-4.3","","-6.1","","87","","","","6","","9","","24.1","","99.07","","","","-8","","NA"
"-97.24","49.91","WINNIPEG INTL A","5023227","2019-04-06 05:00","2019","04","06","05:00","-4.5","","-6.2","","88","","","","6","","7","","24.1","","99.09","","","","-8","","NA"
"-97.24","49.91","WINNIPEG INTL A","5023227","2019-04-06 06:00","2019","04","06","06:00","-4.6","","-6.1","","89","","","","7","","7","","24.1","","99.13","","","","-8","","Mainly Clear"
"-97.24","49.91","WINNIPEG INTL A","5023227","2019-04-06 07:00","2019","04","06","07:00","-3.3","","-4.9","","89","","","","5","","16","","24.1","","99.08","","","","-9","","NA"
"-97.24","49.91","WINNIPEG INTL A","5023227","2019-04-06 08:00","2019","04","06","08:00","-2.2","","-4.3","","86","","","","8","","13","","24.1","","99.07","","","","-7","","NA"
"-97.24","49.91","WINNIPEG INTL A","5023227","2019-04-06 09:00","2019","04","06","09:00","-1.2","","-3.5","","84","","","","9","","13","","24.1","","99.04","","","","-5","","Mostly Cloudy"
"-97.24","49.91","WINNIPEG INTL A","5023227","2019-04-06 10:00","2019","04","06","10:00","0.0","","-2.7","","82","","","","6","","15","","24.1","","98.99","","","","-4","","NA"
"-97.24","49.91","WINNIPEG INTL A","5023227","2019-04-06 11:00","2019","04","06","11:00","2.0","","-1.5","","78","","","","9","","11","","24.1","","98.98","","","","","","NA"
"-97.24","49.91","WINNIPEG INTL A","5023227","2019-04-06 12:00","2019","04","06","12:00","4.3","","-0.4","","72","","","","7","","13","","24.1","","98.94","","","","","","Cloudy"
"-97.24","49.91","WINNIPEG INTL A","5023227","2019-04-06 13:00","2019","04","06","13:00","5.3","","0.0","","68","","","","10","","12","","24.1","","98.86","","","","","","NA"
"-97.24","49.91","WINNIPEG INTL A","5023227","2019-04-06 14:00","2019","04","06","14:00","5.7","","-0.2","","66","","","","6","","17","","24.1","","98.75","","","","","","NA"
"-97.24","49.91","WINNIPEG INTL A","5023227","2019-04-06 15:00","2019","04","06","15:00","6.9","","0.2","","62","","","","6","","19","","24.1","","98.65","","","","","","Mainly Clear"
"-97.24","49.91","WINNIPEG INTL A","5023227","2019-04-06 16:00","2019","04","06","16:00","7.3","","0.0","","60","","","","8","","21","","24.1","","98.57","","","","","","NA"
"-97.24","49.91","WINNIPEG INTL A","5023227","2019-04-06 17:00","2019","04","06","17:00","8.4","","0.8","","59","","","","7","","23","","24.1","","98.51","","","","","","NA"
"-97.24","49.91","WINNIPEG INTL A","5023227","2019-04-06 18:00","2019","04","06","18:00","7.2","","1.1","","65","","","","5","","13","","24.1","","98.47","","","","","","Mostly Cloudy"
"-97.24","49.91","WINNIPEG INTL A","5023227","2019-04-06 19:00","2019","04","06","19:00","5.4","","0.9","","73","","","","3","","8","","24.1","","98.42","","","","","","NA"
"-97.24","49.91","WINNIPEG INTL A","5023227","2019-04-06 20:00","2019","04","06","20:00","7.7","","0.3","","59","","","","11","","24","","24.1","","98.29","","","","","","NA"
"-97.24","49.91","WINNIPEG INTL A","5023227","2019-04-06 21:00","2019","04","06","21:00","7.1","","0.2","","61","","","","13","","17","","19.3","","98.26","","","","","","Rain Showers"
"-97.24","49.91","WINNIPEG INTL A","5023227","2019-04-06 22:00","2019","04","06","22:00","6.1","","1.1","","71","","","","13","","22","","19.3","","98.22","","","","","","Rain Showers"
"-97.24","49.91","WINNIPEG INTL A","5023227","2019-04-06 23:00","2019","04","06","23:00","4.6","","2.4","","85","","","","10","","11","","19.3","","98.23","","","","","","Rain Showers"
"-97.24","49.91","WINNIPEG INTL A","5023227","2019-04-07 00:00","2019","04","07","00:00","4.3","","2.5","","88","","","","30","","6","","19.3","","98.27","","","","","","Rain Showers"
"-97.24","49.91","WINNIPEG INTL A","5023227","2019-04-07 01:00","2019","04","07","01:00","3.4","","2.4","","93","","","","3","","9","","9.7","","98.24","","","","","","Rain Showers,Fog"
"-97.24","49.91","WINNIPEG INTL A","5023227","2019-04-07 02:00","2019","04","07","02:00","3.5","","2.8","","95","","","","10","","12","","3.2","","98.15","","","","","","Rain Showers,Fog"
"-97.24","49.91","WINNIPEG INTL A","5023227","2019-04-07 03:00","2019","04","07","03:00","4.8","","4.2","","96","","","","15","","17","","8.1","","98.04","","","","","","Rain Showers,Fog"
"-97.24","49.91","WINNIPEG INTL A","5023227","2019-04-07 04:00","2019","04","07","04:00","4.7","","4.1","","95","","","","17","","14","","4.8","","97.99","","","","","","Rain Showers,Fog"
"-97.24","49.91","WINNIPEG INTL A","5023227","2019-04-07 05:00","2019","04","07","05:00","4.2","","3.5","","96","","","","18","","7","","1.6","","97.97","","","","","","Rain Showers,Fog"
"-97.24","49.91","WINNIPEG INTL A","5023227","2019-04-07 06:00","2019","04","07","06:00","4.0","","3.5","","96","","","","21","","5","","0.8","","98.01","","","","","","Fog"
"-97.24","49.91","WINNIPEG INTL A","5023227","2019-04-07 07:00","2019","04","07","07:00","3.6","","3.1","","96","","","","16","","9","","1.2","","97.99","","","","","","Fog"
"-97.24","49.91","WINNIPEG INTL A","5023227","2019-04-07 08:00","2019","04","07","08:00","4.2","","3.7","","96","","","","18","","12","","1.2","","97.92","","","","","","Drizzle,Fog"
"-97.24","49.91","WINNIPEG INTL A","5023227","2019-04-07 09:00","2019","04","07","09:00","4.5","","4.0","","97","","","","24","","9","","1.2","","97.86","","","","","","Drizzle,Fog"
"-97.24","49.91","WINNIPEG INTL A","5023227","2019-04-07 10:00","2019","04","07","10:00","4.6","","4.1","","97","","","","26","","14","","1.2","","97.86","","","","","","Fog"
"-97.24","49.91","WINNIPEG INTL A","5023227","2019-04-07 11:00","2019","04","07","11:00","4.9","","4.4","","96","","","","30","","14","","9.7","","97.84","","","","","","Fog"
"-97.24","49.91","WINNIPEG INTL A","5023227","2019-04-07 12:00","2019","04","07","12:00","4.8","","3.9","","94","","","","29","","17","","9.7","","97.85","","","","","","Drizzle,Fog"
"-97.24","49.91","WINNIPEG INTL A","5023227","2019-04-07 13:00","2019","04","07","13:00","5.4","","4.1","","91","","","","31","","11","","16.1","","97.75","","","","","","NA"
"-97.24","49.91","WINNIPEG INTL A","5023227","2019-04-07 14:00","2019","04","07","14:00","6.5","","4.5","","87","","","","29","","11","","24.1","","97.77","","","","","","NA"
"-97.24","49.91","WINNIPEG INTL A","5023227","2019-04-07 15:00","2019","04","07","15:00","7.3","","5.0","","85","","","","29","","16","","24.1","","97.79","","","","","","Cloudy"
"-97.24","49.91","WINNIPEG INTL A","5023227","2019-04-07 16:00","2019","04","07","16:00","7.3","","4.5","","82","","","","29","","18","","24.1","","97.82","","","","","","NA"
"-97.24","49.91","WINNIPEG INTL A","5023227","2019-04-07 17:00","2019","04","07","17:00","7.4","","4.6","","82","","","","32","","19","","24.1","","97.80","","","","","","NA"
"-97.24","49.91","WINNIPEG INTL A","5023227","2019-04-07 18:00","2019","04","07","18:00","6.6","","4.1","","84","","","","34","","20","","24.1","","97.85","","","","","","Cloudy"
"-97.24","49.91","WINNIPEG INTL A","5023227","2019-04-07 19:00","2019","04","07","19:00","5.7","","3.2","","84","","","","35","","17","","24.1","","97.87","","","","","","NA"
"-97.24","49.91","WINNIPEG INTL A","5023227","2019-04-07 20:00","2019","04","07","20:00","4.3","","2.9","","91","","","","36","","8","","24.1","","97.90","","","","","","NA"
"-97.24","49.91","WINNIPEG INTL A","5023227","2019-04-07 21:00","2019","04","07","21:00","3.6","","2.5","","93","","","","35","","5","","24.1","","97.93","","","","","","Mainly Clear"
"-97.24","49.91","WINNIPEG INTL A","5023227","2019-04-07 22:00","2019","04","07","22:00","2.4","","1.6","","94","","","","27","","5","","24.1","","97.94","","","","","","NA"
"-97.24","49.91","WINNIPEG INTL A","5023227","2019-04-07 23:00","2019","04","07","23:00","3.3","","2.3","","93","","","","33","","8","","24.1","","97.93","","","","","","NA"
"-97.24","49.91","WINNIPEG INTL A","5023227","2019-04-08 00:00","2019","04","08","00:00","3.4","","2.0","","91","","","","34","","14","","24.1","","97.90","","","","","","Cloudy"
"-97.24","49.91","WINNIPEG INTL A","5023227","2019-04-08 01:00","2019","04","08","01:00","3.1","","1.6","","90","","","","3","","13","","24.1","","97.87","","","","","","NA"
"-97.24","49.91","WINNIPEG INTL A","5023227","2019-04-08 02:00","2019","04","08","02:00","2.2","","1.2","","93","","","","25","","7","","24.1","","97.90","","","","","","NA"
"-97.24","49.91","WINNIPEG INTL A","5023227","2019-04-08 03:00","2019","04","08","03:00","1.6","","0.7","","94","","","","29","","4","","24.1","","97.84","","","","","","Mostly Cloudy"
"-97.24","49.91","WINNIPEG INTL A","5023227","2019-04-08 04:00","2019","04","08","04:00","1.1","","0.4","","95","","","","32","","16","","24.1","","97.86","","","","","","NA"
"-97.24","49.91","WINNIPEG INTL A","5023227","2019-04-08 05:00","2019","04","08","05:00","1.3","","0.6","","95","","","","1","","7","","24.1","","97.91","","","","","","NA"
"-97.24","49.91","WINNIPEG INTL A","5023227","2019-04-08 06:00","2019","04","08","06:00","0.9","","0.2","","95","","","","31","","7","","24.1","","97.90","","","","","","Cloudy"
"-97.24","49.91","WINNIPEG INTL A","5023227","2019-04-08 07:00","2019","04","08","07:00","1.4","","0.7","","95","","","","24","","7","","14.5","","98.00","","","","","","Rain Showers"
"-97.24","49.91","WINNIPEG INTL A","5023227","2019-04-08 08:00","2019","04","08","08:00","1.8","","1.1","","95","","","","33","","9","","14.5","","97.96","","","","","","NA"
"-97.24","49.91","WINNIPEG INTL A","5023227","2019-04-08 09:00","2019","04","08","09:00","2.1","","1.2","","94","","","","33","","22","","16.1","","98.01","","","","","","Cloudy"
"-97.24","49.91","WINNIPEG INTL A","5023227","2019-04-08 10:00","2019","04","08","10:00","2.5","","1.0","","89","","","","33","","22","","24.1","","98.08","","","","","","NA"
"-97.24","49.91","WINNIPEG INTL A","5023227","2019-04-08 11:00","2019","04","08","11:00","3.3","","1.4","","87","","","","32","","16","","24.1","","98.13","","","","","","NA"
"-97.24","49.91","WINNIPEG INTL A","5023227","2019-04-08 12:00","2019","04","08","12:00","4.4","","2.0","","85","","","","31","","28","","24.1","","98.16","","","","","","Cloudy"
"-97.24","49.91","WINNIPEG INTL A","5023227","2019-04-08 13:00","2019","04","08","13:00","5.0","","1.6","","79","","","","30","","35","","24.1","","98.19","","","","","","NA"
"-97.24","49.91","WINNIPEG INTL A","5023227","2019-04-08 14:00","2019","04","08","14:00","4.9","","0.0","","70","","","","32","","47","","24.1","","98.25","","","","","","NA"
"-97.24","49.91","WINNIPEG INTL A","5023227","2019-04-08 15:00","2019","04","08","15:00","5.0","","0.6","","73","","","","32","","39","","24.1","","98.27","","","","","","Mostly Cloudy"
"-97.24","49.91","WINNIPEG INTL A","5023227","2019-04-08 16:00","2019","04","08","16:00","4.6","","-0.1","","72","","","","32","","32","","24.1","","98.31","","","","","","NA"
"-97.24","49.91","WINNIPEG INTL A","5023227","2019-04-08 17:00","2019","04","08","17:00","3.6","","-0.4","","75","","","","34","","29","","24.1","","98.35","","","","","","NA"
"-97.24","49.91","WINNIPEG INTL A","5023227","2019-04-08 18:00","2019","04","08","18:00","1.3","","-0.4","","89","","","","33","","19","","4.8","","98.42","","","","","","Rain Showers,Snow Showers"
"-97.24","49.91","WINNIPEG INTL A","5023227","2019-04-08 19:00","2019","04","08","19:00","0.1","","-0.9","","93","","","","34","","21","","1.2","","98.49","","","","","","Snow Showers"
"-97.24","49.91","WINNIPEG INTL A","5023227","2019-04-08 20:00","2019","04","08","20:00","-0.4","","-1.5","","92","","","","36","","12","","24.1","","98.57","","","","-4","","Snow Showers"
"-97.24","49.91","WINNIPEG INTL A","5023227","2019-04-08 21:00","2019","04","08","21:00","-1.8","","-4.8","","80","","","","2","","27","","24.1","","98.65","","","","-8","","Cloudy"
"-97.24","49.91","WINNIPEG INTL A","5023227","2019-04-08 22:00","2019","04","08","22:00","-3.0","","-6.8","","75","","","","36","","27","","24.1","","98.71","","","","-10","","NA"
"-97.24","49.91","WINNIPEG INTL A","5023227","2019-04-08 23:00","2019","04","08","23:00","-3.5","","-6.9","","77","","","","35","","27","","24.1","","98.75","","","","-11","","NA"
"-97.24","49.91","WINNIPEG INTL A","5023227","2019-04-09 00:00","2019","04","09","00:00","-3.8","","-7.7","","75","","","","34","","28","","24.1","","98.78","","","","-11","","Cloudy"
"-97.24","49.91","WINNIPEG INTL A","5023227","2019-04-09 01:00","2019","04","09","01:00","-4.1","","-8.3","","73","","","","36","","23","","24.1","","98.82","","","","-11","","NA"
"-97.24","49.91","WINNIPEG INTL A","5023227","2019-04-09 02:00","2019","04","09","02:00","-4.4","","-8.3","","74","","","","34","","30","","24.1","","98.84","","","","-12","","NA"
"-97.24","49.91","WINNIPEG INTL A","5023227","2019-04-09 03:00","2019","04","09","03:00","-4.7","","-8.8","","73","","","","35","","29","","24.1","","98.89","","","","-12","","Snow Showers"
"-97.24","49.91","WINNIPEG INTL A","5023227","2019-04-09 04:00","2019","04","09","04:00","-5.8","","-10.8","","68","","","","36","","23","","24.1","","98.97","","","","-13","","NA"
"-97.24","49.91","WINNIPEG INTL A","5023227","2019-04-09 05:00","2019","04","09","05:00","-6.0","","-10.9","","69","","","","36","","28","","24.1","","99.03","","","","-14","","Snow Showers"
"-97.24","49.91","WINNIPEG INTL A","5023227","2019-04-09 06:00","2019","04","09","06:00","-6.5","","-11.2","","69","","","","36","","26","","24.1","","99.11","","","","-14","","Snow Showers"
"-97.24","49.91","WINNIPEG INTL A","5023227","2019-04-09 07:00","2019","04","09","07:00","-6.8","","-11.3","","70","","","","36","","27","","24.1","","99.19","","","","-15","","Snow Showers"
"-97.24","49.91","WINNIPEG INTL A","5023227","2019-04-09 08:00","2019","04","09","08:00","-6.7","","-10.6","","74","","","","36","","24","","12.9","","99.25","","","","-14","","Snow Showers"
"-97.24","49.91","WINNIPEG INTL A","5023227","2019-04-09 09:00","2019","04","09","09:00","-6.7","","-11.8","","67","","","","1","","31","","12.9","","99.24","","","","-15","","Snow Showers"
"-97.24","49.91","WINNIPEG INTL A","5023227","2019-04-09 10:00","2019","04","09","10:00","-6.3","","-11.5","","67","","","","2","","22","","20.9","","99.31","","","","-14","","Snow Showers"
"-97.24","49.91","WINNIPEG INTL A","5023227","2019-04-09 11:00","2019","04","09","11:00","-6.0","","-10.9","","68","","","","2","","23","","20.9","","99.34","","","","-13","","Snow Showers"
"-97.24","49.91","WINNIPEG INTL A","5023227","2019-04-09 12:00","2019","04","09","12:00","-5.4","","-10.4","","68","","","","2","","22","","14.5","","99.34","","","","-12","","Snow Showers"
"-97.24","49.91","WINNIPEG INTL A","5023227","2019-04-09 13:00","2019","04","09","13:00","-5.2","","-10.6","","66","","","","36","","21","","19.3","","99.38","","","","-12","","Snow Showers"
"-97.24","49.91","WINNIPEG INTL A","5023227","2019-04-09 14:00","2019","04","09","14:00","-4.5","","-11.2","","60","","","","2","","21","","24.1","","99.34","","","","-11","","NA"
"-97.24","49.91","WINNIPEG INTL A","5023227","2019-04-09 15:00","2019","04","09","15:00","-4.2","","-10.0","","64","","","","2","","17","","24.1","","99.35","","","","-10","","Mostly Cloudy"
"-97.24","49.91","WINNIPEG INTL A","5023227","2019-04-09 16:00","2019","04","09","16:00","-3.7","","-9.5","","64","","","","1","","14","","24.1","","99.38","","","","-9","","Snow Showers"
"-97.24","49.91","WINNIPEG INTL A","5023227","2019-04-09 17:00","2019","04","09","17:00","-3.4","","-9.1","","65","","","","2","","18","","24.1","","99.38","","","","-9","","Snow Showers"
"-97.24","49.91","WINNIPEG INTL A","5023227","2019-04-09 18:00","2019","04","09","18:00","-2.9","","-9.0","","63","","","","3","","19","","24.1","","99.38","","","","-9","","Mainly Clear"
"-97.24","49.91","WINNIPEG INTL A","5023227","2019-04-09 19:00","2019","04","09","19:00","-3.1","","-9.1","","63","","","","3","","19","","24.1","","99.43","","","","-9","","NA"
"-97.24","49.91","WINNIPEG INTL A","5023227","2019-04-09 20:00","2019","04","09","20:00","-3.2","","-8.9","","65","","","","3","","15","","24.1","","99.47","","","","-8","","NA"
"-97.24","49.91","WINNIPEG INTL A","5023227","2019-04-09 21:00","2019","04","09","21:00","-3.0","","-8.5","","66","","","","3","","17","","24.1","","99.56","","","","-9","","Mainly Clear"
"-97.24","49.91","WINNIPEG INTL A","5023227","2019-04-09 22:00","2019","04","09","22:00","-2.7","","-7.7","","69","","","","5","","16","","24.1","","99.61","","","","-8","","NA"
"-97.24","49.91","WINNIPEG INTL A","5023227","2019-04-09 23:00","2019","04","09","23:00","-3.0","","-8.3","","67","","","","7","","16","","24.1","","99.60","","","","-8","","NA"
"-97.24","49.91","WINNIPEG INTL A","5023227","2019-04-10 00:00","2019","04","10","00:00","-3.6","","-7.8","","73","","","","6","","14","","24.1","","99.55","","","","-9","","Mainly Clear"
"-97.24","49.91","WINNIPEG INTL A","5023227","2019-04-10 01:00","2019","04","10","01:00","-4.1","","-8.8","","70","","","","9","","9","","24.1","","99.60","","","","-8","","NA"
"-97.24","49.91","WINNIPEG INTL A","5023227","2019-04-10 02:00","2019","04","10","02:00","-4.2","","-8.1","","74","","","","5","","5","","24.1","","99.60","","","","-6","","NA"
"-97.24","49.91","WINNIPEG INTL A","5023227","2019-04-10 03:00","2019","04","10","03:00","-3.9","","-7.8","","74","","","","2","","5","","24.1","","99.57","","","","-6","","Mostly Cloudy"
"-97.24","49.91","WINNIPEG INTL A","5023227","2019-04-10 04:00","2019","04","10","04:00","-3.3","","-7.5","","73","","","","6","","9","","24.1","","99.56","","","","-7","","NA"
"-97.24","49.91","WINNIPEG INTL A","5023227","2019-04-10 05:00","2019","04","10","05:00","-3.0","","-7.8","","69","","","","8","","12","","24.1","","99.56","","","","-7","","Snow Showers"
"-97.24","49.91","WINNIPEG INTL A","5023227","2019-04-10 06:00","2019","04","10","06:00","-2.9","","-6.6","","75","","","","3","","15","","24.1","","99.61","","","","-8","","Snow Showers"
"-97.24","49.91","WINNIPEG INTL A","5023227","2019-04-10 07:00","2019","04","10","07:00","-2.4","","-5.6","","79","","","","4","","18","","24.1","","99.63","","","","-8","","NA"
"-97.24","49.91","WINNIPEG INTL A","5023227","2019-04-10 08:00","2019","04","10","08:00","-2.0","","-5.4","","78","","","","7","","13","","24.1","","99.77","","","","-6","","Snow Showers"
"-97.24","49.91","WINNIPEG INTL A","5023227","2019-04-10 09:00","2019","04","10","09:00","-0.6","","-4.5","","75","","","","6","","16","","24.1","","99.71","","","","-5","","Mainly Clear"
"-97.24","49.91","WINNIPEG INTL A","5023227","2019-04-10 10:00","2019","04","10","10:00","0.9","","-3.9","","70","","","","4","","21","","24.1","","99.65","","","","","","NA"
"-97.24","49.91","WINNIPEG INTL A","5023227","2019-04-10 11:00","2019","04","10","11:00","2.0","","-4.1","","64","","","","4","","21","","24.1","","99.65","","","","","","NA"
"-97.24","49.91","WINNIPEG INTL A","5023227","2019-04-10 12:00","2019","04","10","12:00","3.4","","-5.4","","52","","","","8","","25","","24.1","","99.62","","","","","","Mainly Clear"
"-97.24","49.91","WINNIPEG INTL A","5023227","2019-04-10 13:00","2019","04","10","13:00","4.0","","-6.0","","48","","","","7","","25","","24.1","","99.54","","","","","","NA"
"-97.24","49.91","WINNIPEG INTL A","5023227","2019-04-10 14:00","2019","04","10","14:00","4.6","","-6.1","","46","","","","8","","26","","24.1","","99.49","","","","","","NA"
"-97.24","49.91","WINNIPEG INTL A","5023227","2019-04-10 15:00","2019","04","10","15:00","5.3","","-6.3","","43","","","","6","","22","","24.1","","99.47","","","","","","Mostly Cloudy"
"-97.24","49.91","WINNIPEG INTL A","5023227","2019-04-10 16:00","2019","04","10","16:00","5.3","","-7.7","","39","","","","6","","31","","24.1","","99.43","","","","","","NA"
"-97.24","49.91","WINNIPEG INTL A","5023227","2019-04-10 17:00","2019","04","10","17:00","5.0","","-9.2","","35","","","","7","","23","","24.1","","99.46","","","","","","NA"
"-97.24","49.91","WINNIPEG INTL A","5023227","2019-04-10 18:00","2019","04","10","18:00","4.6","","-9.8","","34","","","","7","","22","","24.1","","99.55","","","","","","Mostly Cloudy"
"-97.24","49.91","WINNIPEG INTL A","5023227","2019-04-10 19:00","2019","04","10","19:00","3.5","","-10.3","","36","","","","8","","21","","24.1","","99.58","","","","","","NA"
"-97.24","49.91","WINNIPEG INTL A","5023227","2019-04-10 20:00","2019","04","10","20:00","2.1","","-8.7","","45","","","","6","","16","","24.1","","99.60","","","","","","NA"
"-97.24","49.91","WINNIPEG INTL A","5023227","2019-04-10 21:00","2019","04","10","21:00","1.2","","-7.9","","51","","","","6","","17","","24.1","","99.64","","","","","","Mostly Cloudy"
"-97.24","49.91","WINNIPEG INTL A","5023227","2019-04-10 22:00","2019","04","10","22:00","0.8","","-9.0","","48","","","","8","","17","","24.1","","99.67","","","","","","NA"
"-97.24","49.91","WINNIPEG INTL A","5023227","2019-04-10 23:00","2019","04","10","23:00","-0.2","","-8.2","","55","","","","8","","17","","24.1","","99.70","","","","-5","","NA"
"-97.24","49.91","WINNIPEG INTL A","5023227","2019-04-11 00:00","2019","04","11","00:00","-0.9","","-8.3","","57","","","","8","","17","","24.1","","99.70","","","","-6","","Mainly Clear"
"-97.24","49.91","WINNIPEG INTL A","5023227","2019-04-11 01:00","2019","04","11","01:00","-1.7","","-8.1","","62","","","","7","","17","","24.1","","99.68","","","","-7","","NA"
"-97.24","49.91","WINNIPEG INTL A","5023227","2019-04-11 02:00","2019","04","11","02:00","-2.6","","-7.7","","68","","","","6","","15","","24.1","","99.59","","","","-8","","NA"
"-97.24","49.91","WINNIPEG INTL A","5023227","2019-04-11 03:00","2019","04","11","03:00","-3.0","","-7.6","","71","","","","7","","12","","24.1","","99.60","","","","-7","","Mainly Clear"
"-97.24","49.91","WINNIPEG INTL A","5023227","2019-04-11 04:00","2019","04","11","04:00","-3.0","","-7.9","","69","","","","8","","15","","24.1","","99.65","","","","-8","","NA"
"-97.24","49.91","WINNIPEG INTL A","5023227","2019-04-11 05:00","2019","04","11","05:00","-3.4","","-8.2","","70","","","","8","","16","","24.1","","99.63","","","","-9","","NA"
"-97.24","49.91","WINNIPEG INTL A","5023227","2019-04-11 06:00","2019","04","11","06:00","-3.8","","-8.2","","72","","","","6","","16","","24.1","","99.60","","","","-9","","Mainly Clear"
"-97.24","49.91","WINNIPEG INTL A","5023227","2019-04-11 07:00","2019","04","11","07:00","-2.5","","-8.3","","65","","","","7","","20","","24.1","","99.62","","","","-8","","NA"
"-97.24","49.91","WINNIPEG INTL A","5023227","2019-04-11 08:00","2019","04","11","08:00","-0.8","","-8.6","","56","","","","9","","21","","24.1","","99.60","","","","-6","","NA"
"-97.24","49.91","WINNIPEG INTL A","5023227","2019-04-11 09:00","2019","04","11","09:00","0.8","","-8.0","","52","","","","8","","21","","24.1","","99.50","","","","","","Mainly Clear"
"-97.24","49.91","WINNIPEG INTL A","5023227","2019-04-11 10:00","2019","04","11","10:00","1.1","","-7.2","","54","","","","5","","30","","24.1","","99.38","","","","","","NA"
"-97.24","49.91","WINNIPEG INTL A","5023227","2019-04-11 11:00","2019","04","11","11:00","2.1","","-7.9","","47","","","","8","","27","","24.1","","99.33","","","","","","NA"
"-97.24","49.91","WINNIPEG INTL A","5023227","2019-04-11 12:00","2019","04","11","12:00","3.2","","-5.4","","53","","","","4","","37","","24.1","","99.28","","","","","","Cloudy"
"-97.24","49.91","WINNIPEG INTL A","5023227","2019-04-11 13:00","2019","04","11","13:00","3.6","","-5.8","","50","","","","7","","36","","24.1","","99.16","","","","","","NA"
"-97.24","49.91","WINNIPEG INTL A","5023227","2019-04-11 14:00","2019","04","11","14:00","4.7","","-5.8","","46","","","","5","","45","","24.1","","99.00","","","","","","NA"
"-97.24","49.91","WINNIPEG INTL A","5023227","2019-04-11 15:00","2019","04","11","15:00","5.2","","-5.9","","45","","","","5","","46","","24.1","","98.89","","","","","","Mostly Cloudy"
"-97.24","49.91","WINNIPEG INTL A","5023227","2019-04-11 16:00","2019","04","11","16:00","5.1","","-6.0","","44","","","","6","","39","","24.1","","98.80","","","","","","NA"
"-97.24","49.91","WINNIPEG INTL A","5023227","2019-04-11 17:00","2019","04","11","17:00","4.5","","-6.7","","44","","","","6","","44","","24.1","","98.78","","","","","","NA"
"-97.24","49.91","WINNIPEG INTL A","5023227","2019-04-11 18:00","2019","04","11","18:00","3.7","","-5.8","","50","","","","5","","29","","24.1","","98.77","","","","","","Cloudy"
"-97.24","49.91","WINNIPEG INTL A","5023227","2019-04-11 19:00","2019","04","11","19:00","3.2","","-6.6","","49","","","","6","","35","","24.1","","98.75","","","","","","NA"
"-97.24","49.91","WINNIPEG INTL A","5023227","2019-04-11 20:00","2019","04","11","20:00","2.8","","-6.7","","50","","","","5","","30","","24.1","","98.73","","","","","","NA"
"-97.24","49.91","WINNIPEG INTL A","5023227","2019-04-11 21:00","2019","04","11","21:00","2.4","","-6.7","","51","","","","6","","26","","24.1","","98.70","","","","","","Mostly Cloudy"
"-97.24","49.91","WINNIPEG INTL A","5023227","2019-04-11 22:00","2019","04","11","22:00","2.3","","-6.7","","51","","","","5","","31","","24.1","","98.63","","","","","","NA"
"-97.24","49.91","WINNIPEG INTL A","5023227","2019-04-11 23:00","2019","04","11","23:00","2.0","","-6.7","","52","","","","6","","20","","24.1","","98.55","","","","","","NA"
"-97.24","49.91","WINNIPEG INTL A","5023227","2019-04-12 00:00","2019","04","12","00:00","1.9","","-6.8","","53","","","","6","","24","","24.1","","98.47","","","","","","Cloudy"
"-97.24","49.91","WINNIPEG INTL A","5023227","2019-04-12 01:00","2019","04","12","01:00","1.3","","-7.2","","53","","","","9","","34","","16.1","","98.44","","","","","","Snow Showers"
"-97.24","49.91","WINNIPEG INTL A","5023227","2019-04-12 02:00","2019","04","12","02:00","0.4","","-5.7","","64","","","","3","","24","","24.1","","98.29","","","","","","NA"
"-97.24","49.91","WINNIPEG INTL A","5023227","2019-04-12 03:00","2019","04","12","03:00","0.6","","-6.3","","60","","","","5","","34","","24.1","","98.27","","","","","","Snow Showers"
"-97.24","49.91","WINNIPEG INTL A","5023227","2019-04-12 04:00","2019","04","12","04:00","-0.2","","-5.8","","66","","","","4","","37","","16.1","","98.20","","","","-7","","Snow Showers"
"-97.24","49.91","WINNIPEG INTL A","5023227","2019-04-12 05:00","2019","04","12","05:00","-1.6","","-3.9","","84","","","","5","","21","","2.8","","98.17","","","","-7","","Snow"
"-97.24","49.91","WINNIPEG INTL A","5023227","2019-04-12 06:00","2019","04","12","06:00","-1.8","","-3.5","","88","","","","4","","24","","2.8","","98.14","","","","-8","","Snow"
"-97.24","49.91","WINNIPEG INTL A","5023227","2019-04-12 07:00","2019","04","12","07:00","-2.2","","-3.9","","88","","","","3","","27","","3.6","","98.09","","","","-9","","Snow"
"-97.24","49.91","WINNIPEG INTL A","5023227","2019-04-12 08:00","2019","04","12","08:00","-1.3","","-5.7","","72","","","","3","","36","","6.4","","98.03","","","","-9","","Snow"
"-97.24","49.91","WINNIPEG INTL A","5023227","2019-04-12 09:00","2019","04","12","09:00","-1.8","","-4.4","","83","","","","3","","37","","4.0","","98.00","","","","-10","","Snow"
"-97.24","49.91","WINNIPEG INTL A","5023227","2019-04-12 10:00","2019","04","12","10:00","-1.2","","-4.2","","80","","","","3","","31","","9.7","","97.97","","","","-8","","Snow"
"-97.24","49.91","WINNIPEG INTL A","5023227","2019-04-12 11:00","2019","04","12","11:00","-0.3","","-3.8","","77","","","","2","","34","","24.1","","97.90","","","","-7","","NA"
"-97.24","49.91","WINNIPEG INTL A","5023227","2019-04-12 12:00","2019","04","12","12:00","0.8","","-3.2","","75","","","","3","","39","","24.1","","97.82","","","","","","Cloudy"
"-97.24","49.91","WINNIPEG INTL A","5023227","2019-04-12 13:00","2019","04","12","13:00","0.5","","-2.6","","79","","","","1","","44","","24.1","","97.79","","","","","","NA"
"-97.24","49.91","WINNIPEG INTL A","5023227","2019-04-12 14:00","2019","04","12","14:00","1.4","","-2.5","","76","","","","2","","42","","24.1","","97.77","","","","","","NA"
"-97.24","49.91","WINNIPEG INTL A","5023227","2019-04-12 15:00","2019","04","12","15:00","2.4","","-2.9","","68","","","","2","","42","","24.1","","97.79","","","","","","Mostly Cloudy"
"-97.24","49.91","WINNIPEG INTL A","5023227","2019-04-12 16:00","2019","04","12","16:00","2.8","","-2.9","","66","","","","2","","37","","24.1","","97.82","","","","","","NA"
"-97.24","49.91","WINNIPEG INTL A","5023227","2019-04-12 17:00","2019","04","12","17:00","2.7","","-6.0","","52","","","","2","","42","","24.1","","97.90","","","","","","NA"
"-97.24","49.91","WINNIPEG INTL A","5023227","2019-04-12 18:00","2019","04","12","18:00","2.9","","-6.7","","50","","","","2","","39","","24.1","","97.93","","","","","","Mostly Cloudy"
"-97.24","49.91","WINNIPEG INTL A","5023227","2019-04-12 19:00","2019","04","12","19:00","1.5","","-4.5","","65","","","","1","","31","","24.1","","97.98","","","","","","NA"
"-97.24","49.91","WINNIPEG INTL A","5023227","2019-04-12 20:00","2019","04","12","20:00","1.0","","-3.9","","70","","","","2","","22","","24.1","","98.04","","","","","","NA"
"-97.24","49.91","WINNIPEG INTL A","5023227","2019-04-12 21:00","2019","04","12","21:00","0.3","","-4.4","","71","","","","35","","16","","24.1","","98.09","","","","","","Mostly Cloudy"
"-97.24","49.91","WINNIPEG INTL A","5023227","2019-04-12 22:00","2019","04","12","22:00","-0.5","","-5.5","","69","","","","36","","15","","24.1","","98.14","","","","-5","","NA"
"-97.24","49.91","WINNIPEG INTL A","5023227","2019-04-12 23:00","2019","04","12","23:00","-0.8","","-7.0","","63","","","","1","","17","","24.1","","98.17","","","","-6","","NA"
"-97.24","49.91","WINNIPEG INTL A","5023227","2019-04-13 00:00","2019","04","13","00:00","-1.4","","-5.6","","73","","","","33","","11","","24.1","","98.22","","","","-5","","Mainly Clear"
"-97.24","49.91","WINNIPEG INTL A","5023227","2019-04-13 01:00","2019","04","13","01:00","-1.7","","-6.2","","71","","","","36","","8","","24.1","","98.28","","","","-5","","NA"
"-97.24","49.91","WINNIPEG INTL A","5023227","2019-04-13 02:00","2019","04","13","02:00","-1.9","","-5.2","","78","","","","33","","13","","24.1","","98.31","","","","-6","","NA"
"-97.24","49.91","WINNIPEG INTL A","5023227","2019-04-13 03:00","2019","04","13","03:00","-1.9","","-5.9","","74","","","","32","","16","","24.1","","98.37","","","","-7","","Mainly Clear"
"-97.24","49.91","WINNIPEG INTL A","5023227","2019-04-13 04:00","2019","04","13","04:00","-2.6","","-5.8","","79","","","","33","","11","","24.1","","98.44","","","","-7","","NA"
"-97.24","49.91","WINNIPEG INTL A","5023227","2019-04-13 05:00","2019","04","13","05:00","-4.1","","-6.9","","81","","","","30","","13","","24.1","","98.52","","","","-9","","NA"
"-97.24","49.91","WINNIPEG INTL A","5023227","2019-04-13 06:00","2019","04","13","06:00","-4.2","","-7.1","","80","","","","30","","14","","24.1","","98.59","","","","-9","","Mainly Clear"
"-97.24","49.91","WINNIPEG INTL A","5023227","2019-04-13 07:00","2019","04","13","07:00","-2.2","","-6.2","","74","","","","32","","10","","24.1","","98.67","","","","-6","","NA"
"-97.24","49.91","WINNIPEG INTL A","5023227","2019-04-13 08:00","2019","04","13","08:00","-0.2","","-6.5","","63","","","","33","","8","","24.1","","98.74","","","","-3","","NA"
"-97.24","49.91","WINNIPEG INTL A","5023227","2019-04-13 09:00","2019","04","13","09:00","1.5","","-6.5","","55","","","","28","","10","","24.1","","98.79","","","","","","Mainly Clear"
"-97.24","49.91","WINNIPEG INTL A","5023227","2019-04-13 10:00","2019","04","13","10:00","3.2","","-6.7","","48","","","","30","","11","","24.1","","98.84","","","","","","NA"
"-97.24","49.91","WINNIPEG INTL A","5023227","2019-04-13 11:00","2019","04","13","11:00","4.5","","-6.6","","45","","","","28","","10","","24.1","","98.88","","","","","","NA"
"-97.24","49.91","WINNIPEG INTL A","5023227","2019-04-13 12:00","2019","04","13","12:00","5.5","","-8.1","","37","","","","29","","8","","24.1","","98.88","","","","","","Mainly Clear"
"-97.24","49.91","WINNIPEG INTL A","5023227","2019-04-13 13:00","2019","04","13","13:00","6.6","","-9.2","","31","","","","26","","6","","24.1","","98.85","","","","","","NA"
"-97.24","49.91","WINNIPEG INTL A","5023227","2019-04-13 14:00","2019","04","13","14:00","8.2","","-5.0","","39","","","","30","","13","","24.1","","98.82","","","","","","NA"
"-97.24","49.91","WINNIPEG INTL A","5023227","2019-04-13 15:00","2019","04","13","15:00","8.5","","-7.2","","32","","","","25","","13","","24.1","","98.83","","","","","","Mainly Clear"
"-97.24","49.91","WINNIPEG INTL A","5023227","2019-04-13 16:00","2019","04","13","16:00","9.4","","-5.0","","36","","","","23","","9","","24.1","","98.83","","","","","","NA"
"-97.24","49.91","WINNIPEG INTL A","5023227","2019-04-13 17:00","2019","04","13","17:00","9.2","","-7.0","","31","","","","21","","12","","24.1","","98.84","","","","","","NA"
"-97.24","49.91","WINNIPEG INTL A","5023227","2019-04-13 18:00","2019","04","13","18:00","9.2","","-6.4","","33","","","","20","","18","","24.1","","98.83","","","","","","Mainly Clear"
"-97.24","49.91","WINNIPEG INTL A","5023227","2019-04-13 19:00","2019","04","13","19:00","6.9","","-4.9","","43","","","","17","","17","","24.1","","98.78","","","","","","NA"
"-97.24","49.91","WINNIPEG INTL A","5023227","2019-04-13 20:00","2019","04","13","20:00","4.2","","-5.2","","51","","","","18","","18","","24.1","","98.77","","","","","","NA"
"-97.24","49.91","WINNIPEG INTL A","5023227","2019-04-13 21:00","2019","04","13","21:00","3.9","","-1.5","","68","","","","18","","19","","24.1","","98.77","","","","","","Clear"
"-97.24","49.91","WINNIPEG INTL A","5023227","2019-04-13 22:00","2019","04","13","22:00","2.5","","-2.2","","71","","","","19","","22","","24.1","","98.77","","","","","","NA"
"-97.24","49.91","WINNIPEG INTL A","5023227","2019-04-13 23:00","2019","04","13","23:00","1.1","","-3.1","","74","","","","18","","22","","24.1","","98.73","","","","","","NA"
"-97.24","49.91","WINNIPEG INTL A","5023227","2019-04-14 00:00","2019","04","14","00:00","1.2","","-4.1","","68","","","","18","","25","","24.1","","98.71","","","","","","Mainly Clear"
"-97.24","49.91","WINNIPEG INTL A","5023227","2019-04-14 01:00","2019","04","14","01:00","0.5","","-3.8","","73","","","","18","","22","","24.1","","98.69","","","","","","NA"
"-97.24","49.91","WINNIPEG INTL A","5023227","2019-04-14 02:00","2019","04","14","02:00","0.1","","-3.4","","77","","","","18","","23","","24.1","","98.65","","","","","","NA"
"-97.24","49.91","WINNIPEG INTL A","5023227","2019-04-14 03:00","2019","04","14","03:00","-0.5","","-3.5","","80","","","","17","","20","","24.1","","98.60","","","","-6","","Mainly Clear"
"-97.24","49.91","WINNIPEG INTL A","5023227","2019-04-14 04:00","2019","04","14","04:00","-1.4","","-4.0","","83","","","","17","","17","","24.1","","98.59","","","","-7","","NA"
"-97.24","49.91","WINNIPEG INTL A","5023227","2019-04-14 05:00","2019","04","14","05:00","-1.7","","-4.3","","83","","","","16","","16","","24.1","","98.56","","","","-7","","NA"
"-97.24","49.91","WINNIPEG INTL A","5023227","2019-04-14 06:00","2019","04","14","06:00","-1.8","","-4.7","","81","","","","17","","16","","24.1","","98.52","","","","-7","","Mainly Clear"
"-97.24","49.91","WINNIPEG INTL A","5023227","2019-04-14 07:00","2019","04","14","07:00","0.1","","-4.1","","73","","","","17","","21","","24.1","","98.51","","","","","","NA"
"-97.24","49.91","WINNIPEG INTL A","5023227","2019-04-14 08:00","2019","04","14","08:00","2.0","","-3.6","","66","","","","17","","22","","24.1","","98.52","","","","","","NA"
"-97.24","49.91","WINNIPEG INTL A","5023227","2019-04-14 09:00","2019","04","14","09:00","4.2","","-3.3","","58","","","","18","","25","","24.1","","98.47","","","","","","Mainly Clear"
"-97.24","49.91","WINNIPEG INTL A","5023227","2019-04-14 10:00","2019","04","14","10:00","6.0","","-3.4","","51","","","","18","","35","","24.1","","98.44","","","","","","NA"
"-97.24","49.91","WINNIPEG INTL A","5023227","2019-04-14 11:00","2019","04","14","11:00","6.9","","-3.7","","47","","","","17","","40","","24.1","","98.42","","","","","","NA"
"-97.24","49.91","WINNIPEG INTL A","5023227","2019-04-14 12:00","2019","04","14","12:00","7.3","","-3.6","","46","","","","18","","41","","24.1","","98.34","","","","","","Mainly Clear"
"-97.24","49.91","WINNIPEG INTL A","5023227","2019-04-14 13:00","2019","04","14","13:00","7.8","","-3.0","","46","","","","19","","34","","24.1","","98.28","","","","","","NA"
"-97.24","49.91","WINNIPEG INTL A","5023227","2019-04-14 14:00","2019","04","14","14:00","8.1","","-1.9","","49","","","","16","","33","","24.1","","98.20","","","","","","NA"
"-97.24","49.91","WINNIPEG INTL A","5023227","2019-04-14 15:00","2019","04","14","15:00","8.5","","-2.4","","46","","","","16","","35","","24.1","","98.13","","","","","","Cloudy"
"-97.24","49.91","WINNIPEG INTL A","5023227","2019-04-14 16:00","2019","04","14","16:00","8.6","","-2.3","","46","","","","17","","43","","24.1","","98.08","","","","","","NA"
"-97.24","49.91","WINNIPEG INTL A","5023227","2019-04-14 17:00","2019","04","14","17:00","8.2","","-2.7","","46","","","","18","","37","","24.1","","98.06","","","","","","NA"
"-97.24","49.91","WINNIPEG INTL A","5023227","2019-04-14 18:00","2019","04","14","18:00","6.8","","-0.2","","61","","","","18","","27","","24.1","","98.04","","","","","","Cloudy"
"-97.24","49.91","WINNIPEG INTL A","5023227","2019-04-14 19:00","2019","04","14","19:00","5.9","","-0.6","","63","","","","18","","28","","24.1","","98.01","","","","","","NA"
"-97.24","49.91","WINNIPEG INTL A","5023227","2019-04-14 20:00","2019","04","14","20:00","4.5","","0.1","","73","","","","18","","22","","24.1","","98.01","","","","","","NA"
"-97.24","49.91","WINNIPEG INTL A","5023227","2019-04-14 21:00","2019","04","14","21:00","3.3","","-0.5","","76","","","","18","","25","","24.1","","97.99","","","","","","Mostly Cloudy"
"-97.24","49.91","WINNIPEG INTL A","5023227","2019-04-14 22:00","2019","04","14","22:00","3.1","","-0.7","","76","","","","18","","26","","24.1","","97.96","","","","","","NA"
"-97.24","49.91","WINNIPEG INTL A","5023227","2019-04-14 23:00","2019","04","14","23:00","2.9","","-0.6","","78","","","","18","","27","","24.1","","97.94","","","","","","NA"
"-97.24","49.91","WINNIPEG INTL A","5023227","2019-04-15 00:00","2019","04","15","00:00","2.7","","-1.3","","75","","","","17","","33","","24.1","","97.88","","","","","","Cloudy"
"-97.24","49.91","WINNIPEG INTL A","5023227","2019-04-15 01:00","2019","04","15","01:00","2.5","","-2.0","","72","","","","17","","30","","24.1","","97.83","","","","","","NA"
"-97.24","49.91","WINNIPEG INTL A","5023227","2019-04-15 02:00","2019","04","15","02:00","2.1","","-2.1","","74","","","","17","","28","","24.1","","97.78","","","","","","NA"
"-97.24","49.91","WINNIPEG INTL A","5023227","2019-04-15 03:00","2019","04","15","03:00","1.7","","-2.2","","76","","","","18","","29","","24.1","","97.76","","","","","","Cloudy"
"-97.24","49.91","WINNIPEG INTL A","5023227","2019-04-15 04:00","2019","04","15","04:00","1.5","","-2.2","","76","","","","17","","34","","24.1","","97.72","","","","","","NA"
"-97.24","49.91","WINNIPEG INTL A","5023227","2019-04-15 05:00","2019","04","15","05:00","0.4","","-0.9","","91","","","","17","","35","","4.8","","97.66","","","","","","Snow"
"-97.24","49.91","WINNIPEG INTL A","5023227","2019-04-15 06:00","2019","04","15","06:00","0.3","","-0.9","","91","","","","17","","39","","4.8","","97.65","","","","","","Snow"
"-97.24","49.91","WINNIPEG INTL A","5023227","2019-04-15 07:00","2019","04","15","07:00","0.4","","-0.7","","92","","","","17","","34","","3.2","","97.62","","","","","","Snow"
"-97.24","49.91","WINNIPEG INTL A","5023227","2019-04-15 08:00","2019","04","15","08:00","0.4","","-0.8","","92","","","","17","","39","","2.4","","97.60","","","","","","Snow"
"-97.24","49.91","WINNIPEG INTL A","5023227","2019-04-15 09:00","2019","04","15","09:00","0.8","","-0.9","","88","","","","17","","32","","24.1","","97.57","","","","","","Cloudy"
"-97.24","49.91","WINNIPEG INTL A","5023227","2019-04-15 10:00","2019","04","15","10:00","1.6","","-0.7","","85","","","","17","","34","","24.1","","97.56","","","","","","NA"
"-97.24","49.91","WINNIPEG INTL A","5023227","2019-04-15 11:00","2019","04","15","11:00","3.6","","0.9","","83","","","","18","","35","","24.1","","97.51","","","","","","NA"
"-97.24","49.91","WINNIPEG INTL A","5023227","2019-04-15 12:00","2019","04","15","12:00","4.9","","1.8","","80","","","","18","","35","","24.1","","97.52","","","","","","Cloudy"
"-97.24","49.91","WINNIPEG INTL A","5023227","2019-04-15 13:00","2019","04","15","13:00","5.9","","2.5","","79","","","","18","","28","","24.1","","97.48","","","","","","NA"
"-97.24","49.91","WINNIPEG INTL A","5023227","2019-04-15 14:00","2019","04","15","14:00","7.6","","3.8","","77","","","","17","","32","","24.1","","97.47","","","","","","NA"
"-97.24","49.91","WINNIPEG INTL A","5023227","2019-04-15 15:00","2019","04","15","15:00","8.6","","4.0","","73","","","","17","","34","","24.1","","97.44","","","","","","Mostly Cloudy"
"-97.24","49.91","WINNIPEG INTL A","5023227","2019-04-15 16:00","2019","04","15","16:00","10.2","","5.5","","73","","","","17","","37","","24.1","","97.42","","","","","","NA"
"-97.24","49.91","WINNIPEG INTL A","5023227","2019-04-15 17:00","2019","04","15","17:00","8.8","","5.2","","78","","","","17","","32","","24.1","","97.43","","","","","","NA"
"-97.24","49.91","WINNIPEG INTL A","5023227","2019-04-15 18:00","2019","04","15","18:00","8.2","","5.0","","80","","","","18","","32","","24.1","","97.51","","","","","","Thunderstorms,Rain Showers"
"-97.24","49.91","WINNIPEG INTL A","5023227","2019-04-15 19:00","2019","04","15","19:00","7.5","","5.6","","88","","","","19","","16","","24.1","","97.55","","","","","","Rain Showers"
"-97.24","49.91","WINNIPEG INTL A","5023227","2019-04-15 20:00","2019","04","15","20:00","6.4","","5.1","","91","","","","17","","21","","24.1","","97.57","","","","","","NA"
"-97.24","49.91","WINNIPEG INTL A","5023227","2019-04-15 21:00","2019","04","15","21:00","4.8","","3.8","","93","","","","17","","12","","24.1","","97.63","","","","","","Mostly Cloudy"
"-97.24","49.91","WINNIPEG INTL A","5023227","2019-04-15 22:00","2019","04","15","22:00","5.2","","3.8","","91","","","","19","","21","","24.1","","97.66","","","","","","NA"
"-97.24","49.91","WINNIPEG INTL A","5023227","2019-04-15 23:00","2019","04","15","23:00","4.5","","3.3","","92","","","","20","","25","","24.1","","97.69","","","","","","NA"
"-97.24","49.91","WINNIPEG INTL A","5023227","2019-04-16 00:00","2019","04","16","00:00","3.8","","2.7","","93","","","","20","","22","","24.1","","97.72","","","","","","Clear"
"-97.24","49.91","WINNIPEG INTL A","5023227","2019-04-16 01:00","2019","04","16","01:00","3.5","","2.5","","93","","","","20","","20","","24.1","","97.74","","","","","","NA"
"-97.24","49.91","WINNIPEG INTL A","5023227","2019-04-16 02:00","2019","04","16","02:00","2.8","","1.9","","93","","","","20","","16","","24.1","","97.78","","","","","","NA"
"-97.24","49.91","WINNIPEG INTL A","5023227","2019-04-16 03:00","2019","04","16","03:00","1.8","","1.0","","94","","","","20","","16","","24.1","","97.81","","","","","","Clear"
"-97.24","49.91","WINNIPEG INTL A","5023227","2019-04-16 04:00","2019","04","16","04:00","1.3","","0.3","","93","","","","19","","13","","24.1","","97.85","","","","","","NA"
"-97.24","49.91","WINNIPEG INTL A","5023227","2019-04-16 05:00","2019","04","16","05:00","1.4","","-0.1","","90","","","","20","","11","","24.1","","97.90","","","","","","NA"
"-97.24","49.91","WINNIPEG INTL A","5023227","2019-04-16 06:00","2019","04","16","06:00","1.8","","-0.3","","86","","","","25","","11","","24.1","","97.96","","","","","","Clear"
"-97.24","49.91","WINNIPEG INTL A","5023227","2019-04-16 07:00","2019","04","16","07:00","3.0","","0.3","","82","","","","26","","17","","19.3","","98.06","","","","","","NA"
"-97.24","49.91","WINNIPEG INTL A","5023227","2019-04-16 08:00","2019","04","16","08:00","5.8","","2.0","","76","","","","27","","15","","24.1","","98.13","","","","","","NA"
"-97.24","49.91","WINNIPEG INTL A","5023227","2019-04-16 09:00","2019","04","16","09:00","8.2","","3.4","","72","","","","28","","16","","24.1","","98.19","","","","","","Clear"
"-97.24","49.91","WINNIPEG INTL A","5023227","2019-04-16 10:00","2019","04","16","10:00","10.2","","4.7","","68","","","","28","","22","","24.1","","98.23","","","","","","NA"
"-97.24","49.91","WINNIPEG INTL A","5023227","2019-04-16 11:00","2019","04","16","11:00","11.3","","3.9","","60","","","","30","","21","","24.1","","98.25","","","","","","NA"
"-97.24","49.91","WINNIPEG INTL A","5023227","2019-04-16 12:00","2019","04","16","12:00","12.3","","3.9","","56","","","","29","","19","","24.1","","98.31","","","","","","Mainly Clear"
"-97.24","49.91","WINNIPEG INTL A","5023227","2019-04-16 13:00","2019","04","16","13:00","13.2","","4.8","","56","","","","27","","23","","24.1","","98.30","","","","","","NA"
"-97.24","49.91","WINNIPEG INTL A","5023227","2019-04-16 14:00","2019","04","16","14:00","14.4","","2.2","","44","","","","26","","31","","24.1","","98.30","","","","","","NA"
"-97.24","49.91","WINNIPEG INTL A","5023227","2019-04-16 15:00","2019","04","16","15:00","14.9","","3.4","","46","","","","29","","27","","24.1","","98.32","","","","","","Mostly Cloudy"
"-97.24","49.91","WINNIPEG INTL A","5023227","2019-04-16 16:00","2019","04","16","16:00","14.9","","3.0","","45","","","","29","","29","","24.1","","98.35","","","","","","NA"
"-97.24","49.91","WINNIPEG INTL A","5023227","2019-04-16 17:00","2019","04","16","17:00","14.0","","1.8","","43","","","","31","","23","","24.1","","98.37","","","","","","NA"
"-97.24","49.91","WINNIPEG INTL A","5023227","2019-04-16 18:00","2019","04","16","18:00","12.2","","4.7","","60","","","","33","","14","","24.1","","98.44","","","","","","Mostly Cloudy"
"-97.24","49.91","WINNIPEG INTL A","5023227","2019-04-16 19:00","2019","04","16","19:00","9.9","","4.0","","67","","","","36","","14","","24.1","","98.46","","","","","","NA"
"-97.24","49.91","WINNIPEG INTL A","5023227","2019-04-16 20:00","2019","04","16","20:00","7.9","","2.5","","69","","","","33","","6","","24.1","","98.52","","","","","","NA"
"-97.24","49.91","WINNIPEG INTL A","5023227","2019-04-16 21:00","2019","04","16","21:00","7.6","","1.6","","66","","","","36","","10","","24.1","","98.55","","","","","","Mostly Cloudy"
"-97.24","49.91","WINNIPEG INTL A","5023227","2019-04-16 22:00","2019","04","16","22:00","6.5","","1.0","","68","","","","6","","18","","24.1","","98.60","","","","","","NA"
"-97.24","49.91","WINNIPEG INTL A","5023227","2019-04-16 23:00","2019","04","16","23:00","5.6","","0.4","","69","","","","7","","13","","24.1","","98.64","","","","","","NA"
"-97.24","49.91","WINNIPEG INTL A","5023227","2019-04-17 00:00","2019","04","17","00:00","4.7","","-0.2","","71","","","","8","","5","","24.1","","98.67","","","","","","Cloudy"
"-97.24","49.91","WINNIPEG INTL A","5023227","2019-04-17 01:00","2019","04","17","01:00","3.8","","-0.5","","74","","","","10","","11","","24.1","","98.68","","","","","","NA"
"-97.24","49.91","WINNIPEG INTL A","5023227","2019-04-17 02:00","2019","04","17","02:00","4.1","","-0.5","","72","","","","9","","13","","24.1","","98.69","","","","","","NA"
"-97.24","49.91","WINNIPEG INTL A","5023227","2019-04-17 03:00","2019","04","17","03:00","3.1","","-0.9","","75","","","","7","","10","","24.1","","98.67","","","","","","Mostly Cloudy"
"-97.24","49.91","WINNIPEG INTL A","5023227","2019-04-17 04:00","2019","04","17","04:00","2.1","","-0.7","","82","","","","5","","10","","24.1","","98.70","","","","","","NA"
"-97.24","49.91","WINNIPEG INTL A","5023227","2019-04-17 05:00","2019","04","17","05:00","1.5","","-0.9","","84","","","","8","","7","","24.1","","98.67","","","","","","NA"
"-97.24","49.91","WINNIPEG INTL A","5023227","2019-04-17 06:00","2019","04","17","06:00","2.1","","-0.6","","82","","","","17","","5","","24.1","","98.74","","","","","","Cloudy"
"-97.24","49.91","WINNIPEG INTL A","5023227","2019-04-17 07:00","2019","04","17","07:00","3.5","","0.3","","79","","","","4","","5","","24.1","","98.70","","","","","","NA"
"-97.24","49.91","WINNIPEG INTL A","5023227","2019-04-17 08:00","2019","04","17","08:00","6.1","","0.3","","66","","","","10","","14","","24.1","","98.66","","","","","","NA"
"-97.24","49.91","WINNIPEG INTL A","5023227","2019-04-17 09:00","2019","04","17","09:00","7.4","","0.3","","60","","","","10","","18","","24.1","","98.59","","","","","","Cloudy"
"-97.24","49.91","WINNIPEG INTL A","5023227","2019-04-17 10:00","2019","04","17","10:00","9.5","","1.1","","56","","","","10","","16","","24.1","","98.55","","","","","","NA"
"-97.24","49.91","WINNIPEG INTL A","5023227","2019-04-17 11:00","2019","04","17","11:00","10.4","","0.0","","48","","","","5","","19","","24.1","","98.51","","","","","","NA"
"-97.24","49.91","WINNIPEG INTL A","5023227","2019-04-17 12:00","2019","04","17","12:00","11.7","","-0.3","","43","","","","8","","16","","24.1","","98.44","","","","","","Mostly Cloudy"
"-97.24","49.91","WINNIPEG INTL A","5023227","2019-04-17 13:00","2019","04","17","13:00","12.8","","0.1","","41","","","","4","","17","","24.1","","98.36","","","","","","NA"
"-97.24","49.91","WINNIPEG INTL A","5023227","2019-04-17 14:00","2019","04","17","14:00","13.3","","0.6","","42","","","","6","","13","","24.1","","98.30","","","","","","NA"
"-97.24","49.91","WINNIPEG INTL A","5023227","2019-04-17 15:00","2019","04","17","15:00","13.4","","2.3","","47","","","","3","","17","","24.1","","98.27","","","","","","Mostly Cloudy"
"-97.24","49.91","WINNIPEG INTL A","5023227","2019-04-17 16:00","2019","04","17","16:00","12.5","","1.6","","47","","","","2","","21","","24.1","","98.24","","","","","","NA"
"-97.24","49.91","WINNIPEG INTL A","5023227","2019-04-17 17:00","2019","04","17","17:00","12.3","","-0.4","","41","","","","2","","19","","24.1","","98.24","","","","","","NA"
"-97.24","49.91","WINNIPEG INTL A","5023227","2019-04-17 18:00","2019","04","17","18:00","10.4","","-0.3","","47","","","","3","","19","","24.1","","98.25","","","","","","Cloudy"
"-97.24","49.91","WINNIPEG INTL A","5023227","2019-04-17 19:00","2019","04","17","19:00","8.9","","0.8","","57","","","","3","","20","","24.1","","98.25","","","","","","NA"
"-97.24","49.91","WINNIPEG INTL A","5023227","2019-04-17 20:00","2019","04","17","20:00","7.5","","0.8","","63","","","","4","","13","","24.1","","98.27","","","","","","NA"
"-97.24","49.91","WINNIPEG INTL A","5023227","2019-04-17 21:00","2019","04","17","21:00","6.1","","0.1","","66","","","","4","","14","","24.1","","98.31","","","","","","Mostly Cloudy"
"-97.24","49.91","WINNIPEG INTL A","5023227","2019-04-17 22:00","2019","04","17","22:00","5.4","","-1.5","","61","","","","3","","15","","24.1","","98.33","","","","","","NA"
"-97.24","49.91","WINNIPEG INTL A","5023227","2019-04-17 23:00","2019","04","17","23:00","4.6","","-1.3","","66","","","","3","","16","","24.1","","98.34","","","","","","NA"
"-97.24","49.91","WINNIPEG INTL A","5023227","2019-04-18 00:00","2019","04","18","00:00","2.7","","-1.1","","76","","","","3","","13","","24.1","","98.37","","","","","","Cloudy"
"-97.24","49.91","WINNIPEG INTL A","5023227","2019-04-18 01:00","2019","04","18","01:00","1.3","","-1.8","","80","","","","1","","7","","24.1","","98.38","","","","","","NA"
"-97.24","49.91","WINNIPEG INTL A","5023227","2019-04-18 02:00","2019","04","18","02:00","0.7","","-2.0","","82","","","","5","","5","","24.1","","98.38","","","","","","NA"
"-97.24","49.91","WINNIPEG INTL A","5023227","2019-04-18 03:00","2019","04","18","03:00","0.5","","-2.2","","83","","","","2","","7","","24.1","","98.37","","","","","","Mostly Cloudy"
"-97.24","49.91","WINNIPEG INTL A","5023227","2019-04-18 04:00","2019","04","18","04:00","0.1","","-2.4","","83","","","","2","","6","","24.1","","98.38","","","","","","NA"
"-97.24","49.91","WINNIPEG INTL A","5023227","2019-04-18 05:00","2019","04","18","05:00","-0.1","","-2.7","","83","","","","1","","5","","24.1","","98.43","","","","-2","","NA"
"-97.24","49.91","WINNIPEG INTL A","5023227","2019-04-18 06:00","2019","04","18","06:00","-0.4","","-2.8","","84","","","","35","","4","","24.1","","98.50","","","","-2","","Mostly Cloudy"
"-97.24","49.91","WINNIPEG INTL A","5023227","2019-04-18 07:00","2019","04","18","07:00","1.5","","-1.3","","82","","","","34","","5","","19.3","","98.56","","","","","","NA"
"-97.24","49.91","WINNIPEG INTL A","5023227","2019-04-18 08:00","2019","04","18","08:00","4.9","","-0.1","","70","","","","34","","5","","24.1","","98.62","","","","","","NA"
"-97.24","49.91","WINNIPEG INTL A","5023227","2019-04-18 09:00","2019","04","18","09:00","9.0","","-0.3","","52","","","","34","","9","","19.3","","98.66","","","","","","Mostly Cloudy"
"-97.24","49.91","WINNIPEG INTL A","5023227","2019-04-18 10:00","2019","04","18","10:00","11.8","","-0.8","","41","","","","35","","14","","24.1","","98.68","","","","","","NA"
"-97.24","49.91","WINNIPEG INTL A","5023227","2019-04-18 11:00","2019","04","18","11:00","12.3","","-2.0","","37","","","","3","","10","","24.1","","98.72","","","","","","NA"
"-97.24","49.91","WINNIPEG INTL A","5023227","2019-04-18 12:00","2019","04","18","12:00","13.0","","-1.8","","36","","","","35","","13","","24.1","","98.74","","","","","","Mainly Clear"
"-97.24","49.91","WINNIPEG INTL A","5023227","2019-04-18 13:00","2019","04","18","13:00","13.4","","-1.0","","37","","","","31","","15","","24.1","","98.74","","","","","","NA"
"-97.24","49.91","WINNIPEG INTL A","5023227","2019-04-18 14:00","2019","04","18","14:00","14.6","","-0.7","","35","","","","35","","17","","24.1","","98.73","","","","","","NA"
"-97.24","49.91","WINNIPEG INTL A","5023227","2019-04-18 15:00","2019","04","18","15:00","14.6","","-2.7","","30","","","","26","","16","","24.1","","98.70","","","","","","Mainly Clear"
"-97.24","49.91","WINNIPEG INTL A","5023227","2019-04-18 16:00","2019","04","18","16:00","15.0","","-0.5","","34","","","","28","","18","","24.1","","98.69","","","","","","NA"
"-97.24","49.91","WINNIPEG INTL A","5023227","2019-04-18 17:00","2019","04","18","17:00","14.8","","-1.3","","33","","","","29","","22","","24.1","","98.68","","","","","","NA"
"-97.24","49.91","WINNIPEG INTL A","5023227","2019-04-18 18:00","2019","04","18","18:00","14.1","","-1.8","","33","","","","30","","20","","24.1","","98.69","","","","","","Clear"
"-97.24","49.91","WINNIPEG INTL A","5023227","2019-04-18 19:00","2019","04","18","19:00","10.8","","1.1","","51","","","","29","","13","","24.1","","98.67","","","","","","NA"
"-97.24","49.91","WINNIPEG INTL A","5023227","2019-04-18 20:00","2019","04","18","20:00","11.0","","-2.2","","39","","","","27","","9","","24.1","","98.69","","","","","","NA"
"-97.24","49.91","WINNIPEG INTL A","5023227","2019-04-18 21:00","2019","04","18","21:00","6.9","","-1.7","","54","","","","22","","7","","24.1","","98.67","","","","","","Clear"
"-97.24","49.91","WINNIPEG INTL A","5023227","2019-04-18 22:00","2019","04","18","22:00","7.1","","-1.2","","55","","","","24","","13","","24.1","","98.69","","","","","","NA"
"-97.24","49.91","WINNIPEG INTL A","5023227","2019-04-18 23:00","2019","04","18","23:00","6.3","","0.0","","64","","","","26","","14","","24.1","","98.68","","","","","","NA"
"-97.24","49.91","WINNIPEG INTL A","5023227","2019-04-19 00:00","2019","04","19","00:00","6.7","","1.0","","67","","","","26","","15","","24.1","","98.65","","","","","","Clear"
"-97.24","49.91","WINNIPEG INTL A","5023227","2019-04-19 01:00","2019","04","19","01:00","6.0","","0.6","","68","","","","24","","13","","24.1","","98.63","","","","","","NA"
"-97.24","49.91","WINNIPEG INTL A","5023227","2019-04-19 02:00","2019","04","19","02:00","4.4","","0.6","","76","","","","22","","15","","24.1","","98.58","","","","","","NA"
"-97.24","49.91","WINNIPEG INTL A","5023227","2019-04-19 03:00","2019","04","19","03:00","3.9","","0.6","","79","","","","21","","16","","24.1","","98.53","","","","","","Clear"
"-97.24","49.91","WINNIPEG INTL A","5023227","2019-04-19 04:00","2019","04","19","04:00","3.8","","0.4","","79","","","","21","","16","","24.1","","98.53","","","","","","NA"
"-97.24","49.91","WINNIPEG INTL A","5023227","2019-04-19 05:00","2019","04","19","05:00","3.5","","0.3","","79","","","","20","","18","","24.1","","98.48","","","","","","NA"
"-97.24","49.91","WINNIPEG INTL A","5023227","2019-04-19 06:00","2019","04","19","06:00","2.9","","0.2","","82","","","","20","","16","","24.1","","98.45","","","","","","Mostly Cloudy"
"-97.24","49.91","WINNIPEG INTL A","5023227","2019-04-19 07:00","2019","04","19","07:00","4.8","","1.2","","77","","","","20","","16","","24.1","","98.46","","","","","","NA"
"-97.24","49.91","WINNIPEG INTL A","5023227","2019-04-19 08:00","2019","04","19","08:00","8.0","","2.7","","69","","","","19","","16","","24.1","","98.41","","","","","","NA"
"-97.24","49.91","WINNIPEG INTL A","5023227","2019-04-19 09:00","2019","04","19","09:00","11.0","","3.4","","59","","","","20","","18","","24.1","","98.33","","","","","","Cloudy"
"-97.24","49.91","WINNIPEG INTL A","5023227","2019-04-19 10:00","2019","04","19","10:00","13.5","","4.4","","54","","","","18","","19","","24.1","","98.25","","","","","","NA"
"-97.24","49.91","WINNIPEG INTL A","5023227","2019-04-19 11:00","2019","04","19","11:00","15.5","","2.6","","41","","","","20","","25","","24.1","","98.18","","","","","","NA"
"-97.24","49.91","WINNIPEG INTL A","5023227","2019-04-19 12:00","2019","04","19","12:00","16.1","","2.5","","40","","","","19","","28","","24.1","","98.06","","","","","","Cloudy"
"-97.24","49.91","WINNIPEG INTL A","5023227","2019-04-19 13:00","2019","04","19","13:00","16.8","","3.5","","41","","","","19","","31","","24.1","","97.96","","","","","","NA"
"-97.24","49.91","WINNIPEG INTL A","5023227","2019-04-19 14:00","2019","04","19","14:00","17.1","","3.9","","41","","","","18","","37","","24.1","","97.88","","","","","","NA"
"-97.24","49.91","WINNIPEG INTL A","5023227","2019-04-19 15:00","2019","04","19","15:00","18.0","","6.2","","46","","","","17","","40","","24.1","","97.73","","","","","","Mostly Cloudy"
"-97.24","49.91","WINNIPEG INTL A","5023227","2019-04-19 16:00","2019","04","19","16:00","18.3","","5.5","","43","","","","17","","39","","24.1","","97.62","","","","","","NA"
"-97.24","49.91","WINNIPEG INTL A","5023227","2019-04-19 17:00","2019","04","19","17:00","18.0","","3.3","","37","","","","19","","46","","24.1","","97.55","","","","","","NA"
"-97.24","49.91","WINNIPEG INTL A","5023227","2019-04-19 18:00","2019","04","19","18:00","16.9","","5.7","","47","","","","18","","40","","24.1","","97.46","","","","","","Mostly Cloudy"
"-97.24","49.91","WINNIPEG INTL A","5023227","2019-04-19 19:00","2019","04","19","19:00","15.4","","6.7","","56","","","","18","","38","","24.1","","97.39","","","","","","NA"
"-97.24","49.91","WINNIPEG INTL A","5023227","2019-04-19 20:00","2019","04","19","20:00","13.7","","7.3","","65","","","","18","","37","","24.1","","97.32","","","","","","NA"
"-97.24","49.91","WINNIPEG INTL A","5023227","2019-04-19 21:00","2019","04","19","21:00","12.9","","6.9","","67","","","","18","","38","","24.1","","97.28","","","","","","Mostly Cloudy"
"-97.24","49.91","WINNIPEG INTL A","5023227","2019-04-19 22:00","2019","04","19","22:00","12.8","","6.5","","65","","","","19","","40","","24.1","","97.23","","","","","","NA"
"-97.24","49.91","WINNIPEG INTL A","5023227","2019-04-19 23:00","2019","04","19","23:00","12.4","","6.3","","66","","","","19","","41","","24.1","","97.18","","","","","","NA"
"-97.24","49.91","WINNIPEG INTL A","5023227","2019-04-20 00:00","2019","04","20","00:00","11.4","","5.9","","69","","","","21","","19","","24.1","","97.29","","","","","","Mostly Cloudy"
"-97.24","49.91","WINNIPEG INTL A","5023227","2019-04-20 01:00","2019","04","20","01:00","11.0","","5.8","","70","","","","20","","19","","24.1","","97.26","","","","","","NA"
"-97.24","49.91","WINNIPEG INTL A","5023227","2019-04-20 02:00","2019","04","20","02:00","8.6","","5.6","","82","","","","28","","9","","24.1","","97.37","","","","","","NA"
"-97.24","49.91","WINNIPEG INTL A","5023227","2019-04-20 03:00","2019","04","20","03:00","10.1","","3.8","","65","","","","2","","22","","24.1","","97.36","","","","","","Mostly Cloudy"
"-97.24","49.91","WINNIPEG INTL A","5023227","2019-04-20 04:00","2019","04","20","04:00","9.7","","3.1","","64","","","","2","","8","","24.1","","97.49","","","","","","NA"
"-97.24","49.91","WINNIPEG INTL A","5023227","2019-04-20 05:00","2019","04","20","05:00","7.3","","3.5","","77","","","","28","","4","","24.1","","97.52","","","","","","NA"
"-97.24","49.91","WINNIPEG INTL A","5023227","2019-04-20 06:00","2019","04","20","06:00","8.2","","3.0","","69","","","","36","","3","","24.1","","97.57","","","","","","Cloudy"
"-97.24","49.91","WINNIPEG INTL A","5023227","2019-04-20 07:00","2019","04","20","07:00","8.0","","4.3","","77","","","","30","","6","","24.1","","97.60","","","","","","NA"
"-97.24","49.91","WINNIPEG INTL A","5023227","2019-04-20 08:00","2019","04","20","08:00","9.2","","4.2","","71","","","","34","","10","","24.1","","97.67","","","","","","NA"
"-97.24","49.91","WINNIPEG INTL A","5023227","2019-04-20 09:00","2019","04","20","09:00","11.0","","3.1","","58","","","","36","","11","","24.1","","97.71","","","","","","Rain Showers"
"-97.24","49.91","WINNIPEG INTL A","5023227","2019-04-20 10:00","2019","04","20","10:00","12.6","","2.5","","50","","","","35","","14","","24.1","","97.81","","","","","","NA"
"-97.24","49.91","WINNIPEG INTL A","5023227","2019-04-20 11:00","2019","04","20","11:00","14.2","","3.2","","47","","","","34","","17","","24.1","","97.85","","","","","","NA"
"-97.24","49.91","WINNIPEG INTL A","5023227","2019-04-20 12:00","2019","04","20","12:00","15.5","","1.0","","37","","","","4","","19","","24.1","","97.87","","","","","","Mostly Cloudy"
"-97.24","49.91","WINNIPEG INTL A","5023227","2019-04-20 13:00","2019","04","20","13:00","15.4","","1.9","","40","","","","3","","13","","24.1","","97.90","","","","","","NA"
"-97.24","49.91","WINNIPEG INTL A","5023227","2019-04-20 14:00","2019","04","20","14:00","14.9","","2.1","","42","","","","36","","11","","24.1","","97.95","","","","","","NA"
"-97.24","49.91","WINNIPEG INTL A","5023227","2019-04-20 15:00","2019","04","20","15:00","15.5","","1.3","","38","","","","5","","6","","24.1","","97.96","","","","","","Mostly Cloudy"
"-97.24","49.91","WINNIPEG INTL A","5023227","2019-04-20 16:00","2019","04","20","16:00","16.3","","1.1","","35","","","","8","","3","","24.1","","97.94","","","","","","NA"
"-97.24","49.91","WINNIPEG INTL A","5023227","2019-04-20 17:00","2019","04","20","17:00","16.8","","2.5","","38","","","","36","","5","","24.1","","97.98","","","","","","NA"
"-97.24","49.91","WINNIPEG INTL A","5023227","2019-04-20 18:00","2019","04","20","18:00","16.4","","1.2","","35","","","","35","","4","","24.1","","98.04","","","","","","Mostly Cloudy"
"-97.24","49.91","WINNIPEG INTL A","5023227","2019-04-20 19:00","2019","04","20","19:00","15.7","","0.5","","35","","","","36","","2","","24.1","","98.11","","","","","","NA"
"-97.24","49.91","WINNIPEG INTL A","5023227","2019-04-20 20:00","2019","04","20","20:00","12.6","","1.4","","46","","","","9","","10","","24.1","","98.19","","","","","","NA"
"-97.24","49.91","WINNIPEG INTL A","5023227","2019-04-20 21:00","2019","04","20","21:00","11.3","","1.4","","50","","","","9","","12","","24.1","","98.24","","","","","","Mostly Cloudy"
"-97.24","49.91","WINNIPEG INTL A","5023227","2019-04-20 22:00","2019","04","20","22:00","9.2","","2.5","","63","","","","5","","15","","24.1","","98.30","","","","","","NA"
"-97.24","49.91","WINNIPEG INTL A","5023227","2019-04-20 23:00","2019","04","20","23:00","9.0","","0.6","","56","","","","6","","15","","24.1","","98.33","","","","","","NA"
"-97.24","49.91","WINNIPEG INTL A","5023227","2019-04-21 00:00","2019","04","21","00:00","7.2","","0.2","","61","","","","5","","14","","24.1","","98.38","","","","","","Mostly Cloudy"
"-97.24","49.91","WINNIPEG INTL A","5023227","2019-04-21 01:00","2019","04","21","01:00","6.5","","-0.6","","60","","","","4","","11","","24.1","","98.43","","","","","","NA"
"-97.24","49.91","WINNIPEG INTL A","5023227","2019-04-21 02:00","2019","04","21","02:00","6.2","","-0.4","","62","","","","4","","16","","24.1","","98.46","","","","","","NA"
"-97.24","49.91","WINNIPEG INTL A","5023227","2019-04-21 03:00","2019","04","21","03:00","5.8","","-0.2","","65","","","","3","","10","","24.1","","98.49","","","","","","Cloudy"
"-97.24","49.91","WINNIPEG INTL A","5023227","2019-04-21 04:00","2019","04","21","04:00","4.0","","-0.1","","74","","","","3","","11","","24.1","","98.56","","","","","","NA"
"-97.24","49.91","WINNIPEG INTL A","5023227","2019-04-21 05:00","2019","04","21","05:00","2.7","","-0.5","","79","","","","5","","8","","24.1","","98.61","","","","","","NA"
"-97.24","49.91","WINNIPEG INTL A","5023227","2019-04-21 06:00","2019","04","21","06:00","2.4","","-0.4","","81","","","","4","","7","","24.1","","98.66","","","","","","Mainly Clear"
"-97.24","49.91","WINNIPEG INTL A","5023227","2019-04-21 07:00","2019","04","21","07:00","5.6","","0.5","","69","","","","4","","9","","24.1","","98.74","","","","","","NA"
"-97.24","49.91","WINNIPEG INTL A","5023227","2019-04-21 08:00","2019","04","21","08:00","8.3","","0.6","","58","","","","6","","6","","24.1","","98.79","","","","","","NA"
"-97.24","49.91","WINNIPEG INTL A","5023227","2019-04-21 09:00","2019","04","21","09:00","11.6","","1.5","","50","","","","36","","5","","24.1","","98.83","","","","","","Mostly Cloudy"
"-97.24","49.91","WINNIPEG INTL A","5023227","2019-04-21 10:00","2019","04","21","10:00","13.9","","0.7","","40","","","","11","","9","","24.1","","98.81","","","","","","NA"
"-97.24","49.91","WINNIPEG INTL A","5023227","2019-04-21 11:00","2019","04","21","11:00","15.8","","-3.2","","27","","","","9","","12","","24.1","","98.88","","","","","","NA"
"-97.24","49.91","WINNIPEG INTL A","5023227","2019-04-21 12:00","2019","04","21","12:00","17.1","","-1.7","","27","","","","17","","9","","24.1","","98.90","","","","","","Mostly Cloudy"
"-97.24","49.91","WINNIPEG INTL A","5023227","2019-04-21 13:00","2019","04","21","13:00","17.8","","-1.1","","28","","","","13","","4","","24.1","","98.87","","","","","","NA"
"-97.24","49.91","WINNIPEG INTL A","5023227","2019-04-21 14:00","2019","04","21","14:00","18.6","","-0.7","","27","","","","26","","14","","24.1","","98.86","","","","","","NA"
"-97.24","49.91","WINNIPEG INTL A","5023227","2019-04-21 15:00","2019","04","21","15:00","18.9","","-0.9","","26","","","","23","","8","","24.1","","98.84","","","","","","Mostly Cloudy"
"-97.24","49.91","WINNIPEG INTL A","5023227","2019-04-21 16:00","2019","04","21","16:00","18.2","","-1.6","","26","","","","32","","7","","24.1","","98.84","","","","","","NA"
"-97.24","49.91","WINNIPEG INTL A","5023227","2019-04-21 17:00","2019","04","21","17:00","17.2","","0.6","","32","","","","30","","7","","24.1","","98.88","","","","","","NA"
"-97.24","49.91","WINNIPEG INTL A","5023227","2019-04-21 18:00","2019","04","21","18:00","17.0","","0.9","","33","","","","24","","7","","24.1","","98.91","","","","","","Mostly Cloudy"
"-97.24","49.91","WINNIPEG INTL A","5023227","2019-04-21 19:00","2019","04","21","19:00","16.5","","0.7","","34","","","","22","","12","","24.1","","98.94","","","","","","NA"
"-97.24","49.91","WINNIPEG INTL A","5023227","2019-04-21 20:00","2019","04","21","20:00","15.4","","-0.3","","34","","","","19","","4","","24.1","","98.99","","","","","","NA"
"-97.24","49.91","WINNIPEG INTL A","5023227","2019-04-21 21:00","2019","04","21","21:00","11.3","","3.2","","57","","","","3","","8","","24.1","","99.04","","","","","","Mostly Cloudy"
"-97.24","49.91","WINNIPEG INTL A","5023227","2019-04-21 22:00","2019","04","21","22:00","7.9","","3.2","","72","","","","2","","14","","24.1","","99.07","","","","","","NA"
"-97.24","49.91","WINNIPEG INTL A","5023227","2019-04-21 23:00","2019","04","21","23:00","8.7","","2.8","","66","","","","3","","17","","24.1","","99.12","","","","","","NA"
"-97.24","49.91","WINNIPEG INTL A","5023227","2019-04-22 00:00","2019","04","22","00:00","6.9","","2.3","","72","","","","5","","8","","24.1","","99.18","","","","","","Mainly Clear"
"-97.24","49.91","WINNIPEG INTL A","5023227","2019-04-22 01:00","2019","04","22","01:00","5.5","","2.4","","80","","","","7","","9","","24.1","","99.21","","","","","","NA"
"-97.24","49.91","WINNIPEG INTL A","5023227","2019-04-22 02:00","2019","04","22","02:00","6.5","","2.8","","77","","","","4","","14","","24.1","","99.22","","","","","","NA"
"-97.24","49.91","WINNIPEG INTL A","5023227","2019-04-22 03:00","2019","04","22","03:00","4.4","","2.0","","84","","","","1","","16","","24.1","","99.25","","","","","","Clear"
"-97.24","49.91","WINNIPEG INTL A","5023227","2019-04-22 04:00","2019","04","22","04:00","3.4","","1.2","","86","","","","1","","16","","24.1","","99.32","","","","","","NA"
"-97.24","49.91","WINNIPEG INTL A","5023227","2019-04-22 05:00","2019","04","22","05:00","3.2","","1.1","","86","","","","2","","18","","24.1","","99.36","","","","","","NA"
"-97.24","49.91","WINNIPEG INTL A","5023227","2019-04-22 06:00","2019","04","22","06:00","2.9","","1.2","","88","","","","2","","12","","24.1","","99.42","","","","","","Mainly Clear"
"-97.24","49.91","WINNIPEG INTL A","5023227","2019-04-22 07:00","2019","04","22","07:00","5.0","","2.7","","85","","","","4","","18","","24.1","","99.47","","","","","","NA"
"-97.24","49.91","WINNIPEG INTL A","5023227","2019-04-22 08:00","2019","04","22","08:00","7.5","","3.4","","75","","","","3","","17","","24.1","","99.49","","","","","","NA"
"-97.24","49.91","WINNIPEG INTL A","5023227","2019-04-22 09:00","2019","04","22","09:00","10.2","","3.8","","64","","","","36","","22","","24.1","","99.50","","","","","","Mainly Clear"
"-97.24","49.91","WINNIPEG INTL A","5023227","2019-04-22 10:00","2019","04","22","10:00","12.4","","3.8","","55","","","","36","","25","","24.1","","99.49","","","","","","NA"
"-97.24","49.91","WINNIPEG INTL A","5023227","2019-04-22 11:00","2019","04","22","11:00","14.2","","2.9","","46","","","","2","","29","","24.1","","99.50","","","","","","NA"
"-97.24","49.91","WINNIPEG INTL A","5023227","2019-04-22 12:00","2019","04","22","12:00","14.7","","3.3","","46","","","","1","","25","","24.1","","99.48","","","","","","Mainly Clear"
"-97.24","49.91","WINNIPEG INTL A","5023227","2019-04-22 13:00","2019","04","22","13:00","15.6","","2.1","","40","","","","3","","28","","24.1","","99.44","","","","","","NA"
"-97.24","49.91","WINNIPEG INTL A","5023227","2019-04-22 14:00","2019","04","22","14:00","15.8","","1.0","","37","","","","3","","27","","24.1","","99.42","","","","","","NA"
"-97.24","49.91","WINNIPEG INTL A","5023227","2019-04-22 15:00","2019","04","22","15:00","14.8","","-0.8","","34","","","","1","","22","","24.1","","99.38","","","","","","Mostly Cloudy"
"-97.24","49.91","WINNIPEG INTL A","5023227","2019-04-22 16:00","2019","04","22","16:00","14.6","","-1.2","","34","","","","3","","15","","24.1","","99.36","","","","","","NA"
"-97.24","49.91","WINNIPEG INTL A","5023227","2019-04-22 17:00","2019","04","22","17:00","15.3","","-1.2","","32","","","","1","","23","","24.1","","99.37","","","","","","NA"
"-97.24","49.91","WINNIPEG INTL A","5023227","2019-04-22 18:00","2019","04","22","18:00","14.3","","-2.0","","32","","","","3","","22","","24.1","","99.35","","","","","","Mainly Clear"
"-97.24","49.91","WINNIPEG INTL A","5023227","2019-04-22 19:00","2019","04","22","19:00","12.5","","-1.9","","37","","","","2","","12","","24.1","","99.35","","","","","","NA"
"-97.24","49.91","WINNIPEG INTL A","5023227","2019-04-22 20:00","2019","04","22","20:00","10.6","","-1.6","","42","","","","3","","8","","24.1","","99.36","","","","","","NA"
"-97.24","49.91","WINNIPEG INTL A","5023227","2019-04-22 21:00","2019","04","22","21:00","6.2","","-1.2","","59","","","","3","","3","","24.1","","99.36","","","","","","Mainly Clear"
"-97.24","49.91","WINNIPEG INTL A","5023227","2019-04-22 22:00","2019","04","22","22:00","5.0","","-1.0","","65","","","","4","","7","","24.1","","99.32","","","","","","NA"
"-97.24","49.91","WINNIPEG INTL A","5023227","2019-04-22 23:00","2019","04","22","23:00","6.3","","-1.3","","58","","","","4","","4","","24.1","","99.28","","","","","","NA"
"-97.24","49.91","WINNIPEG INTL A","5023227","2019-04-23 00:00","2019","04","23","00:00","3.8","","-1.1","","70","","","","1","","5","","24.1","","99.26","","","","","","Clear"
"-97.24","49.91","WINNIPEG INTL A","5023227","2019-04-23 01:00","2019","04","23","01:00","3.0","","-1.9","","70","","","","8","","3","","24.1","","99.21","","","","","","NA"
"-97.24","49.91","WINNIPEG INTL A","5023227","2019-04-23 02:00","2019","04","23","02:00","2.6","","-1.8","","73","","","","36","","2","","24.1","","99.14","","","","","","NA"
"-97.24","49.91","WINNIPEG INTL A","5023227","2019-04-23 03:00","2019","04","23","03:00","1.9","","-2.6","","72","","","","16","","3","","24.1","","99.12","","","","","","Clear"
"-97.24","49.91","WINNIPEG INTL A","5023227","2019-04-23 04:00","2019","04","23","04:00","1.3","","-2.9","","74","","","","18","","4","","24.1","","99.07","","","","","","NA"
"-97.24","49.91","WINNIPEG INTL A","5023227","2019-04-23 05:00","2019","04","23","05:00","1.9","","-2.7","","71","","","","17","","11","","24.1","","99.02","","","","","","NA"
"-97.24","49.91","WINNIPEG INTL A","5023227","2019-04-23 06:00","2019","04","23","06:00","3.8","","-1.6","","68","","","","18","","14","","24.1","","99.00","","","","","","Mostly Cloudy"
"-97.24","49.91","WINNIPEG INTL A","5023227","2019-04-23 07:00","2019","04","23","07:00","6.1","","-0.8","","61","","","","18","","17","","24.1","","98.95","","","","","","NA"
"-97.24","49.91","WINNIPEG INTL A","5023227","2019-04-23 08:00","2019","04","23","08:00","8.0","","0.6","","59","","","","18","","19","","24.1","","98.90","","","","","","NA"
"-97.24","49.91","WINNIPEG INTL A","5023227","2019-04-23 09:00","2019","04","23","09:00","10.6","","2.0","","55","","","","18","","22","","24.1","","98.81","","","","","","Cloudy"
"-97.24","49.91","WINNIPEG INTL A","5023227","2019-04-23 10:00","2019","04","23","10:00","13.6","","2.0","","45","","","","18","","26","","24.1","","98.71","","","","","","NA"
"-97.24","49.91","WINNIPEG INTL A","5023227","2019-04-23 11:00","2019","04","23","11:00","15.0","","1.4","","39","","","","17","","35","","24.1","","98.62","","","","","","NA"
"-97.24","49.91","WINNIPEG INTL A","5023227","2019-04-23 12:00","2019","04","23","12:00","15.4","","-0.8","","33","","","","18","","39","","24.1","","98.50","","","","","","Cloudy"
"-97.24","49.91","WINNIPEG INTL A","5023227","2019-04-23 13:00","2019","04","23","13:00","15.6","","-0.6","","33","","","","18","","39","","24.1","","98.36","","","","","","NA"
"-97.24","49.91","WINNIPEG INTL A","5023227","2019-04-23 14:00","2019","04","23","14:00","16.4","","0.5","","34","","","","17","","41","","24.1","","98.24","","","","","","NA"
"-97.24","49.91","WINNIPEG INTL A","5023227","2019-04-23 15:00","2019","04","23","15:00","16.4","","4.1","","44","","","","17","","38","","24.1","","98.12","","","","","","Rain"
"-97.24","49.91","WINNIPEG INTL A","5023227","2019-04-23 16:00","2019","04","23","16:00","16.8","","5.5","","47","","","","17","","34","","24.1","","98.03","","","","","","NA"
"-97.24","49.91","WINNIPEG INTL A","5023227","2019-04-23 17:00","2019","04","23","17:00","15.0","","8.1","","63","","","","18","","32","","16.1","","97.96","","","","","","Rain"
"-97.24","49.91","WINNIPEG INTL A","5023227","2019-04-23 18:00","2019","04","23","18:00","14.4","","7.8","","64","","","","17","","21","","24.1","","97.91","","","","","","Rain"
"-97.24","49.91","WINNIPEG INTL A","5023227","2019-04-23 19:00","2019","04","23","19:00","14.4","","7.1","","61","","","","17","","34","","24.1","","97.74","","","","","","Rain"
"-97.24","49.91","WINNIPEG INTL A","5023227","2019-04-23 20:00","2019","04","23","20:00","14.4","","6.7","","60","","","","17","","34","","24.1","","97.65","","","","","","NA"
"-97.24","49.91","WINNIPEG INTL A","5023227","2019-04-23 21:00","2019","04","23","21:00","14.0","","5.9","","58","","","","18","","28","","24.1","","97.63","","","","","","Mostly Cloudy"
"-97.24","49.91","WINNIPEG INTL A","5023227","2019-04-23 22:00","2019","04","23","22:00","13.8","","5.4","","57","","","","19","","27","","24.1","","97.60","","","","","","NA"
"-97.24","49.91","WINNIPEG INTL A","5023227","2019-04-23 23:00","2019","04","23","23:00","13.3","","5.6","","59","","","","19","","24","","24.1","","97.52","","","","","","NA"
"-97.24","49.91","WINNIPEG INTL A","5023227","2019-04-24 00:00","2019","04","24","00:00","12.2","","5.8","","64","","","","21","","20","","24.1","","97.51","","","","","","Mainly Clear"
"-97.24","49.91","WINNIPEG INTL A","5023227","2019-04-24 01:00","2019","04","24","01:00","10.5","","5.5","","71","","","","22","","8","","24.1","","97.48","","","","","","NA"
"-97.24","49.91","WINNIPEG INTL A","5023227","2019-04-24 02:00","2019","04","24","02:00","8.6","","4.5","","75","","","","23","","10","","24.1","","97.43","","","","","","NA"
"-97.24","49.91","WINNIPEG INTL A","5023227","2019-04-24 03:00","2019","04","24","03:00","8.3","","3.2","","70","","","","25","","14","","24.1","","97.43","","","","","","Mostly Cloudy"
"-97.24","49.91","WINNIPEG INTL A","5023227","2019-04-24 04:00","2019","04","24","04:00","6.2","","1.5","","72","","","","26","","16","","24.1","","97.43","","","","","","NA"
"-97.24","49.91","WINNIPEG INTL A","5023227","2019-04-24 05:00","2019","04","24","05:00","7.0","","0.0","","61","","","","27","","19","","24.1","","97.45","","","","","","NA"
"-97.24","49.91","WINNIPEG INTL A","5023227","2019-04-24 06:00","2019","04","24","06:00","7.5","","-0.4","","57","","","","28","","18","","24.1","","97.51","","","","","","Mostly Cloudy"
"-97.24","49.91","WINNIPEG INTL A","5023227","2019-04-24 07:00","2019","04","24","07:00","8.8","","-0.5","","52","","","","29","","21","","24.1","","97.60","","","","","","NA"
"-97.24","49.91","WINNIPEG INTL A","5023227","2019-04-24 08:00","2019","04","24","08:00","13.3","","0.8","","42","","","","32","","22","","24.1","","97.59","","","","","","NA"
"-97.24","49.91","WINNIPEG INTL A","5023227","2019-04-24 09:00","2019","04","24","09:00","15.4","","2.9","","43","","","","30","","22","","24.1","","97.57","","","","","","Mostly Cloudy"
"-97.24","49.91","WINNIPEG INTL A","5023227","2019-04-24 10:00","2019","04","24","10:00","16.4","","2.7","","40","","","","29","","26","","24.1","","97.57","","","","","","NA"
"-97.24","49.91","WINNIPEG INTL A","5023227","2019-04-24 11:00","2019","04","24","11:00","18.8","","3.3","","35","","","","30","","28","","24.1","","97.53","","","","","","NA"
"-97.24","49.91","WINNIPEG INTL A","5023227","2019-04-24 12:00","2019","04","24","12:00","19.4","","2.8","","33","","","","31","","35","","24.1","","97.55","","","","","","Clear"
"-97.24","49.91","WINNIPEG INTL A","5023227","2019-04-24 13:00","2019","04","24","13:00","19.8","","3.3","","33","","","","32","","27","","24.1","","97.55","","","","","","NA"
"-97.24","49.91","WINNIPEG INTL A","5023227","2019-04-24 14:00","2019","04","24","14:00","19.8","","3.3","","33","","","","31","","26","","24.1","","97.55","","","","","","NA"
"-97.24","49.91","WINNIPEG INTL A","5023227","2019-04-24 15:00","2019","04","24","15:00","19.7","","0.6","","27","","","","35","","31","","24.1","","97.58","","","","","","Mainly Clear"
"-97.24","49.91","WINNIPEG INTL A","5023227","2019-04-24 16:00","2019","04","24","16:00","19.7","","-0.4","","26","","","","34","","23","","24.1","","97.61","","","","","","NA"
"-97.24","49.91","WINNIPEG INTL A","5023227","2019-04-24 17:00","2019","04","24","17:00","19.1","","-1.7","","24","","","","31","","33","","24.1","","97.65","","","","","","NA"
"-97.24","49.91","WINNIPEG INTL A","5023227","2019-04-24 18:00","2019","04","24","18:00","17.0","","-2.8","","26","","","","31","","26","","24.1","","97.67","","","","","","Mainly Clear"
"-97.24","49.91","WINNIPEG INTL A","5023227","2019-04-24 19:00","2019","04","24","19:00","15.4","","-1.4","","32","","","","30","","22","","24.1","","97.71","","","","","","NA"
"-97.24","49.91","WINNIPEG INTL A","5023227","2019-04-24 20:00","2019","04","24","20:00","12.1","","-1.0","","40","","","","34","","10","","24.1","","97.75","","","","","","NA"
"-97.24","49.91","WINNIPEG INTL A","5023227","2019-04-24 21:00","2019","04","24","21:00","10.2","","-1.3","","45","","","","28","","10","","24.1","","97.81","","","","","","Clear"
"-97.24","49.91","WINNIPEG INTL A","5023227","2019-04-24 22:00","2019","04","24","22:00","6.7","","-1.3","","57","","","","27","","10","","24.1","","97.86","","","","","","NA"
"-97.24","49.91","WINNIPEG INTL A","5023227","2019-04-24 23:00","2019","04","24","23:00","5.7","","-2.1","","57","","","","30","","11","","24.1","","97.90","","","","","","NA"
"-97.24","49.91","WINNIPEG INTL A","5023227","2019-04-25 00:00","2019","04","25","00:00","6.0","","-2.4","","55","","","","33","","5","","24.1","","97.95","","","","","","Mainly Clear"
"-97.24","49.91","WINNIPEG INTL A","5023227","2019-04-25 01:00","2019","04","25","01:00","4.0","","-2.1","","64","","","","36","","6","","24.1","","97.98","","","","","","NA"
"-97.24","49.91","WINNIPEG INTL A","5023227","2019-04-25 02:00","2019","04","25","02:00","3.5","","-2.4","","65","","","","33","","4","","24.1","","98.02","","","","","","NA"
"-97.24","49.91","WINNIPEG INTL A","5023227","2019-04-25 03:00","2019","04","25","03:00","1.4","","-3.2","","71","","","","29","","8","","24.1","","98.04","","","","","","Clear"
"-97.24","49.91","WINNIPEG INTL A","5023227","2019-04-25 04:00","2019","04","25","04:00","-1.0","","-3.9","","81","","","","26","","11","","24.1","","98.08","","","","-5","","NA"
"-97.24","49.91","WINNIPEG INTL A","5023227","2019-04-25 05:00","2019","04","25","05:00","0.8","","-2.9","","76","","","","25","","16","","24.1","","98.15","","","","","","NA"
"-97.24","49.91","WINNIPEG INTL A","5023227","2019-04-25 06:00","2019","04","25","06:00","1.9","","-3.8","","66","","","","24","","9","","19.3","","98.15","","","","","","Clear"
"-97.24","49.91","WINNIPEG INTL A","5023227","2019-04-25 07:00","2019","04","25","07:00","5.7","","-2.2","","57","","","","27","","11","","19.3","","98.15","","","","","","NA"
"-97.24","49.91","WINNIPEG INTL A","5023227","2019-04-25 08:00","2019","04","25","08:00","8.4","","-2.0","","48","","","","26","","22","","24.1","","98.18","","","","","","NA"
"-97.24","49.91","WINNIPEG INTL A","5023227","2019-04-25 09:00","2019","04","25","09:00","11.6","","-1.7","","39","","","","28","","26","","24.1","","98.15","","","","","","Mainly Clear"
"-97.24","49.91","WINNIPEG INTL A","5023227","2019-04-25 10:00","2019","04","25","10:00","13.7","","-3.4","","30","","","","28","","49","","24.1","","98.12","","","","","","NA"
"-97.24","49.91","WINNIPEG INTL A","5023227","2019-04-25 11:00","2019","04","25","11:00","14.0","","-2.1","","33","","","","30","","43","","24.1","","98.15","","","","","","NA"
"-97.24","49.91","WINNIPEG INTL A","5023227","2019-04-25 12:00","2019","04","25","12:00","12.6","","-1.7","","37","","","","32","","47","","24.1","","98.14","","","","","","Mostly Cloudy"
"-97.24","49.91","WINNIPEG INTL A","5023227","2019-04-25 13:00","2019","04","25","13:00","12.9","","-0.9","","38","","","","32","","32","","24.1","","98.19","","","","","","NA"
"-97.24","49.91","WINNIPEG INTL A","5023227","2019-04-25 14:00","2019","04","25","14:00","12.8","","-0.7","","39","","","","31","","40","","24.1","","98.26","","","","","","NA"
"-97.24","49.91","WINNIPEG INTL A","5023227","2019-04-25 15:00","2019","04","25","15:00","10.4","","0.2","","49","","","","34","","49","","24.1","","98.36","","","","","","Mostly Cloudy"
"-97.24","49.91","WINNIPEG INTL A","5023227","2019-04-25 16:00","2019","04","25","16:00","8.3","","0.0","","56","","","","35","","38","","24.1","","98.47","","","","","","NA"
"-97.24","49.91","WINNIPEG INTL A","5023227","2019-04-25 17:00","2019","04","25","17:00","8.1","","-0.6","","54","","","","35","","40","","24.1","","98.57","","","","","","NA"
"-97.24","49.91","WINNIPEG INTL A","5023227","2019-04-25 18:00","2019","04","25","18:00","7.7","","-1.4","","52","","","","33","","46","","24.1","","98.66","","","","","","Mostly Cloudy"
"-97.24","49.91","WINNIPEG INTL A","5023227","2019-04-25 19:00","2019","04","25","19:00","7.1","","0.2","","61","","","","33","","22","","24.1","","98.72","","","","","","NA"
"-97.24","49.91","WINNIPEG INTL A","5023227","2019-04-25 20:00","2019","04","25","20:00","5.2","","0.6","","72","","","","32","","21","","24.1","","98.77","","","","","","NA"
"-97.24","49.91","WINNIPEG INTL A","5023227","2019-04-25 21:00","2019","04","25","21:00","4.4","","0.8","","78","","","","32","","19","","24.1","","98.87","","","","","","Mostly Cloudy"
"-97.24","49.91","WINNIPEG INTL A","5023227","2019-04-25 22:00","2019","04","25","22:00","0.6","","-1.3","","87","","","","34","","11","","24.1","","98.93","","","","","","NA"
"-97.24","49.91","WINNIPEG INTL A","5023227","2019-04-25 23:00","2019","04","25","23:00","-0.9","","-3.0","","86","","","","33","","12","","24.1","","98.97","","","","-5","","NA"
"-97.24","49.91","WINNIPEG INTL A","5023227","2019-04-26 00:00","2019","04","26","00:00","-2.4","","-4.9","","83","","","","29","","9","","24.1","","98.97","","","","-6","","Clear"
"-97.24","49.91","WINNIPEG INTL A","5023227","2019-04-26 01:00","2019","04","26","01:00","-2.2","","-3.8","","89","","","","27","","13","","24.1","","98.96","","","","-7","","NA"
"-97.24","49.91","WINNIPEG INTL A","5023227","2019-04-26 02:00","2019","04","26","02:00","-2.6","","-3.8","","92","","","","29","","15","","24.1","","98.96","","","","-8","","NA"
"-97.24","49.91","WINNIPEG INTL A","5023227","2019-04-26 03:00","2019","04","26","03:00","-1.0","","-2.3","","91","","","","29","","9","","24.1","","98.96","","","","-4","","Mostly Cloudy"
"-97.24","49.91","WINNIPEG INTL A","5023227","2019-04-26 04:00","2019","04","26","04:00","-0.7","","-2.4","","88","","","","28","","12","","24.1","","98.98","","","","-5","","NA"
"-97.24","49.91","WINNIPEG INTL A","5023227","2019-04-26 05:00","2019","04","26","05:00","0.0","","-1.6","","89","","","","27","","11","","24.1","","98.99","","","","-4","","NA"
"-97.24","49.91","WINNIPEG INTL A","5023227","2019-04-26 06:00","2019","04","26","06:00","0.8","","-1.3","","86","","","","33","","9","","24.1","","99.02","","","","","","Mostly Cloudy"
"-97.24","49.91","WINNIPEG INTL A","5023227","2019-04-26 07:00","2019","04","26","07:00","1.8","","-0.2","","87","","","","29","","6","","24.1","","99.06","","","","","","NA"
"-97.24","49.91","WINNIPEG INTL A","5023227","2019-04-26 08:00","2019","04","26","08:00","3.4","","-0.4","","76","","","","33","","6","","24.1","","99.07","","","","","","NA"
"-97.24","49.91","WINNIPEG INTL A","5023227","2019-04-26 09:00","2019","04","26","09:00","6.1","","0.2","","66","","","","28","","13","","24.1","","99.05","","","","","","Mainly Clear"
"-97.24","49.91","WINNIPEG INTL A","5023227","2019-04-26 10:00","2019","04","26","10:00","7.7","","-0.2","","58","","","","30","","16","","24.1","","99.01","","","","","","NA"
"-97.24","49.91","WINNIPEG INTL A","5023227","2019-04-26 11:00","2019","04","26","11:00","9.4","","-2.4","","43","","","","33","","27","","24.1","","98.98","","","","","","NA"
"-97.24","49.91","WINNIPEG INTL A","5023227","2019-04-26 12:00","2019","04","26","12:00","9.8","","-6.5","","31","","","","32","","37","","24.1","","98.94","","","","","","Mainly Clear"
"-97.24","49.91","WINNIPEG INTL A","5023227","2019-04-26 13:00","2019","04","26","13:00","10.4","","-5.4","","32","","","","32","","36","","24.1","","98.89","","","","","","NA"
"-97.24","49.91","WINNIPEG INTL A","5023227","2019-04-26 14:00","2019","04","26","14:00","11.3","","-6.3","","29","","","","32","","42","","24.1","","98.89","","","","","","NA"
"-97.24","49.91","WINNIPEG INTL A","5023227","2019-04-26 15:00","2019","04","26","15:00","11.5","","-5.7","","30","","","","33","","35","","24.1","","98.85","","","","","","Mainly Clear"
"-97.24","49.91","WINNIPEG INTL A","5023227","2019-04-26 16:00","2019","04","26","16:00","11.1","","-7.5","","26","","","","33","","31","","24.1","","98.86","","","","","","NA"
"-97.24","49.91","WINNIPEG INTL A","5023227","2019-04-26 17:00","2019","04","26","17:00","10.2","","-1.3","","45","","","","5","","37","","24.1","","98.86","","","","","","NA"
"-97.24","49.91","WINNIPEG INTL A","5023227","2019-04-26 18:00","2019","04","26","18:00","8.5","","-1.3","","50","","","","5","","24","","24.1","","98.88","","","","","","Mainly Clear"
"-97.24","49.91","WINNIPEG INTL A","5023227","2019-04-26 19:00","2019","04","26","19:00","6.9","","-2.4","","52","","","","5","","17","","24.1","","98.89","","","","","","NA"
"-97.24","49.91","WINNIPEG INTL A","5023227","2019-04-26 20:00","2019","04","26","20:00","4.7","","-3.2","","57","","","","6","","14","","24.1","","98.87","","","","","","NA"
"-97.24","49.91","WINNIPEG INTL A","5023227","2019-04-26 21:00","2019","04","26","21:00","2.8","","-3.8","","62","","","","8","","8","","24.1","","98.91","","","","","","Clear"
"-97.24","49.91","WINNIPEG INTL A","5023227","2019-04-26 22:00","2019","04","26","22:00","1.7","","-4.1","","65","","","","8","","7","","24.1","","98.98","","","","","","NA"
"-97.24","49.91","WINNIPEG INTL A","5023227","2019-04-26 23:00","2019","04","26","23:00","1.2","","-3.5","","71","","","","8","","5","","24.1","","98.94","","","","","","NA"
"-97.24","49.91","WINNIPEG INTL A","5023227","2019-04-27 00:00","2019","04","27","00:00","0.5","","-3.9","","72","","","","8","","4","","24.1","","98.94","","","","","","Clear"
"-97.24","49.91","WINNIPEG INTL A","5023227","2019-04-27 01:00","2019","04","27","01:00","-2.5","","-4.5","","86","","","","1","","6","","24.1","","98.95","","","","-5","","NA"
"-97.24","49.91","WINNIPEG INTL A","5023227","2019-04-27 02:00","2019","04","27","02:00","-2.7","","-4.7","","86","","","","1","","12","","24.1","","98.95","","","","-7","","NA"
"-97.24","49.91","WINNIPEG INTL A","5023227","2019-04-27 03:00","2019","04","27","03:00","-1.7","","-4.7","","80","","","","3","","14","","24.1","","98.98","","","","-6","","Mainly Clear"
"-97.24","49.91","WINNIPEG INTL A","5023227","2019-04-27 04:00","2019","04","27","04:00","-2.2","","-5.6","","78","","","","3","","12","","24.1","","99.04","","","","-6","","NA"
"-97.24","49.91","WINNIPEG INTL A","5023227","2019-04-27 05:00","2019","04","27","05:00","-2.5","","-5.5","","80","","","","4","","13","","24.1","","99.05","","","","-7","","NA"
"-97.24","49.91","WINNIPEG INTL A","5023227","2019-04-27 06:00","2019","04","27","06:00","-2.3","","-5.2","","81","","","","2","","10","","24.1","","99.11","","","","-6","","Clear"
"-97.24","49.91","WINNIPEG INTL A","5023227","2019-04-27 07:00","2019","04","27","07:00","0.4","","-3.5","","75","","","","4","","8","","24.1","","99.17","","","","","","NA"
"-97.24","49.91","WINNIPEG INTL A","5023227","2019-04-27 08:00","2019","04","27","08:00","3.8","","-4.6","","54","","","","4","","16","","24.1","","99.18","","","","","","NA"
"-97.24","49.91","WINNIPEG INTL A","5023227","2019-04-27 09:00","2019","04","27","09:00","4.8","","-5.5","","47","","","","6","","17","","24.1","","99.16","","","","","","Clear"
"-97.24","49.91","WINNIPEG INTL A","5023227","2019-04-27 10:00","2019","04","27","10:00","5.8","","-4.6","","47","","","","5","","17","","24.1","","99.15","","","","","","NA"
"-97.24","49.91","WINNIPEG INTL A","5023227","2019-04-27 11:00","2019","04","27","11:00","6.3","","-5.1","","44","","","","2","","10","","24.1","","99.15","","","","","","NA"
"-97.24","49.91","WINNIPEG INTL A","5023227","2019-04-27 12:00","2019","04","27","12:00","7.0","","-5.8","","40","","","","4","","8","","24.1","","99.09","","","","","","Mostly Cloudy"
"-97.24","49.91","WINNIPEG INTL A","5023227","2019-04-27 13:00","2019","04","27","13:00","7.4","","-4.3","","43","","","","1","","14","","24.1","","99.08","","","","","","Rain Showers"
"-97.24","49.91","WINNIPEG INTL A","5023227","2019-04-27 14:00","2019","04","27","14:00","7.6","","-3.0","","47","","","","3","","21","","24.1","","99.04","","","","","","NA"
"-97.24","49.91","WINNIPEG INTL A","5023227","2019-04-27 15:00","2019","04","27","15:00","8.0","","-1.9","","50","","","","2","","13","","24.1","","99.01","","","","","","Mostly Cloudy"
"-97.24","49.91","WINNIPEG INTL A","5023227","2019-04-27 16:00","2019","04","27","16:00","7.5","","-3.2","","46","","","","36","","17","","24.1","","98.99","","","","","","NA"
"-97.24","49.91","WINNIPEG INTL A","5023227","2019-04-27 17:00","2019","04","27","17:00","7.9","","-4.8","","40","","","","35","","15","","24.1","","98.97","","","","","","NA"
"-97.24","49.91","WINNIPEG INTL A","5023227","2019-04-27 18:00","2019","04","27","18:00","7.0","","-5.8","","40","","","","5","","23","","24.1","","98.94","","","","","","Mostly Cloudy"
"-97.24","49.91","WINNIPEG INTL A","5023227","2019-04-27 19:00","2019","04","27","19:00","6.2","","-6.2","","41","","","","4","","21","","24.1","","98.94","","","","","","NA"
"-97.24","49.91","WINNIPEG INTL A","5023227","2019-04-27 20:00","2019","04","27","20:00","5.1","","-7.2","","41","","","","4","","16","","24.1","","99.00","","","","","","NA"
"-97.24","49.91","WINNIPEG INTL A","5023227","2019-04-27 21:00","2019","04","27","21:00","4.6","","-7.9","","40","","","","4","","16","","24.1","","99.07","","","","","","Cloudy"
"-97.24","49.91","WINNIPEG INTL A","5023227","2019-04-27 22:00","2019","04","27","22:00","3.9","","-8.6","","40","","","","5","","15","","24.1","","99.11","","","","","","NA"
"-97.24","49.91","WINNIPEG INTL A","5023227","2019-04-27 23:00","2019","04","27","23:00","3.3","","-7.8","","44","","","","4","","15","","24.1","","99.12","","","","","","NA"
"-97.24","49.91","WINNIPEG INTL A","5023227","2019-04-28 00:00","2019","04","28","00:00","3.1","","-7.3","","46","","","","5","","21","","24.1","","99.16","","","","","","Cloudy"
"-97.24","49.91","WINNIPEG INTL A","5023227","2019-04-28 01:00","2019","04","28","01:00","2.6","","-7.3","","48","","","","3","","17","","24.1","","99.16","","","","","","NA"
"-97.24","49.91","WINNIPEG INTL A","5023227","2019-04-28 02:00","2019","04","28","02:00","1.7","","-7.5","","51","","","","3","","13","","24.1","","99.13","","","","","","NA"
"-97.24","49.91","WINNIPEG INTL A","5023227","2019-04-28 03:00","2019","04","28","03:00","1.0","","-6.8","","56","","","","1","","14","","24.1","","99.23","","","","","","Cloudy"
"-97.24","49.91","WINNIPEG INTL A","5023227","2019-04-28 04:00","2019","04","28","04:00","0.2","","-5.7","","65","","","","4","","15","","24.1","","99.24","","","","","","NA"
"-97.24","49.91","WINNIPEG INTL A","5023227","2019-04-28 05:00","2019","04","28","05:00","0.0","","-5.2","","68","","","","4","","13","","24.1","","99.27","","","","-4","","NA"
"-97.24","49.91","WINNIPEG INTL A","5023227","2019-04-28 06:00","2019","04","28","06:00","-0.1","","-4.6","","72","","","","4","","13","","24.1","","99.34","","","","-4","","Mostly Cloudy"
"-97.24","49.91","WINNIPEG INTL A","5023227","2019-04-28 07:00","2019","04","28","07:00","0.9","","-4.0","","70","","","","5","","12","","24.1","","99.41","","","","","","NA"
"-97.24","49.91","WINNIPEG INTL A","5023227","2019-04-28 08:00","2019","04","28","08:00","2.5","","-4.9","","58","","","","5","","16","","24.1","","99.38","","","","","","NA"
"-97.24","49.91","WINNIPEG INTL A","5023227","2019-04-28 09:00","2019","04","28","09:00","4.0","","-4.3","","55","","","","6","","20","","24.1","","99.33","","","","","","Mostly Cloudy"
"-97.24","49.91","WINNIPEG INTL A","5023227","2019-04-28 10:00","2019","04","28","10:00","5.4","","-4.7","","48","","","","5","","25","","24.1","","99.28","","","","","","NA"
"-97.24","49.91","WINNIPEG INTL A","5023227","2019-04-28 11:00","2019","04","28","11:00","6.2","","-6.6","","39","","","","9","","26","","24.1","","99.26","","","","","","NA"
"-97.24","49.91","WINNIPEG INTL A","5023227","2019-04-28 12:00","2019","04","28","12:00","6.2","","-7.1","","38","","","","6","","17","","24.1","","99.29","","","","","","Mostly Cloudy"
"-97.24","49.91","WINNIPEG INTL A","5023227","2019-04-28 13:00","2019","04","28","13:00","7.0","","-6.9","","36","","","","9","","21","","24.1","","99.24","","","","","","NA"
"-97.24","49.91","WINNIPEG INTL A","5023227","2019-04-28 14:00","2019","04","28","14:00","7.5","","-6.9","","35","","","","6","","19","","24.1","","99.23","","","","","","NA"
"-97.24","49.91","WINNIPEG INTL A","5023227","2019-04-28 15:00","2019","04","28","15:00","7.4","","-8.0","","32","","","","7","","32","","24.1","","99.21","","","","","","Mostly Cloudy"
"-97.24","49.91","WINNIPEG INTL A","5023227","2019-04-28 16:00","2019","04","28","16:00","7.4","","-7.2","","35","","","","7","","21","","24.1","","99.18","","","","","","NA"
"-97.24","49.91","WINNIPEG INTL A","5023227","2019-04-28 17:00","2019","04","28","17:00","7.1","","-6.5","","37","","","","9","","22","","24.1","","99.17","","","","","","NA"
"-97.24","49.91","WINNIPEG INTL A","5023227","2019-04-28 18:00","2019","04","28","18:00","6.9","","-7.4","","35","","","","7","","23","","24.1","","99.17","","","","","","Cloudy"
"-97.24","49.91","WINNIPEG INTL A","5023227","2019-04-28 19:00","2019","04","28","19:00","5.2","","-7.3","","40","","","","4","","13","","24.1","","99.19","","","","","","NA"
"-97.24","49.91","WINNIPEG INTL A","5023227","2019-04-28 20:00","2019","04","28","20:00","6.1","","-6.2","","41","","","","10","","18","","24.1","","99.24","","","","","","NA"
"-97.24","49.91","WINNIPEG INTL A","5023227","2019-04-28 21:00","2019","04","28","21:00","5.5","","-6.3","","42","","","","11","","26","","24.1","","99.31","","","","","","Cloudy"
"-97.24","49.91","WINNIPEG INTL A","5023227","2019-04-28 22:00","2019","04","28","22:00","5.1","","-5.8","","45","","","","9","","23","","24.1","","99.34","","","","","","NA"
"-97.24","49.91","WINNIPEG INTL A","5023227","2019-04-28 23:00","2019","04","28","23:00","4.8","","-5.8","","46","","","","12","","25","","24.1","","99.35","","","","","","NA"
"-97.24","49.91","WINNIPEG INTL A","5023227","2019-04-29 00:00","2019","04","29","00:00","4.1","","-5.0","","51","","","","8","","18","","24.1","","99.33","","","","","","Cloudy"
"-97.24","49.91","WINNIPEG INTL A","5023227","2019-04-29 01:00","2019","04","29","01:00","3.9","","-5.4","","51","","","","7","","22","","24.1","","99.30","","","","","","NA"
"-97.24","49.91","WINNIPEG INTL A","5023227","2019-04-29 02:00","2019","04","29","02:00","2.9","","-3.8","","61","","","","9","","20","","24.1","","99.28","","","","","","NA"
"-97.24","49.91","WINNIPEG INTL A","5023227","2019-04-29 03:00","2019","04","29","03:00","2.7","","-3.6","","63","","","","8","","19","","24.1","","99.26","","","","","","Cloudy"
"-97.24","49.91","WINNIPEG INTL A","5023227","2019-04-29 04:00","2019","04","29","04:00","2.6","","-4.7","","59","","","","8","","23","","24.1","","99.27","","","","","","NA"
"-97.24","49.91","WINNIPEG INTL A","5023227","2019-04-29 05:00","2019","04","29","05:00","1.4","","-3.1","","72","","","","8","","29","","4.8","","99.32","","","","","","Snow"
"-97.24","49.91","WINNIPEG INTL A","5023227","2019-04-29 06:00","2019","04","29","06:00","0.5","","-1.8","","85","","","","5","","17","","3.2","","99.37","","","","","","Snow"
"-97.24","49.91","WINNIPEG INTL A","5023227","2019-04-29 07:00","2019","04","29","07:00","0.8","","-1.2","","86","","","","5","","23","","3.6","","99.39","","","","","","Snow"
"-97.24","49.91","WINNIPEG INTL A","5023227","2019-04-29 08:00","2019","04","29","08:00","1.8","","-0.3","","86","","","","6","","25","","6.4","","99.38","","","","","","Drizzle,Snow"
"-97.24","49.91","WINNIPEG INTL A","5023227","2019-04-29 09:00","2019","04","29","09:00","4.1","","-3.7","","57","","","","5","","25","","24.1","","99.37","","","","","","Cloudy"
"-97.24","49.91","WINNIPEG INTL A","5023227","2019-04-29 10:00","2019","04","29","10:00","3.8","","-4.5","","55","","","","6","","24","","24.1","","99.38","","","","","","Snow"
"-97.24","49.91","WINNIPEG INTL A","5023227","2019-04-29 11:00","2019","04","29","11:00","2.7","","-2.2","","70","","","","4","","24","","16.1","","99.44","","","","","","Snow"
"-97.24","49.91","WINNIPEG INTL A","5023227","2019-04-29 12:00","2019","04","29","12:00","3.9","","0.4","","78","","","","8","","19","","11.3","","99.45","","","","","","Drizzle"
"-97.24","49.91","WINNIPEG INTL A","5023227","2019-04-29 13:00","2019","04","29","13:00","5.2","","-1.1","","64","","","","7","","21","","24.1","","99.44","","","","","","NA"
"-97.24","49.91","WINNIPEG INTL A","5023227","2019-04-29 14:00","2019","04","29","14:00","5.3","","-1.1","","63","","","","6","","16","","24.1","","99.47","","","","","","NA"
"-97.24","49.91","WINNIPEG INTL A","5023227","2019-04-29 15:00","2019","04","29","15:00","5.9","","-0.8","","62","","","","7","","15","","24.1","","99.46","","","","","","Cloudy"
"-97.24","49.91","WINNIPEG INTL A","5023227","2019-04-29 16:00","2019","04","29","16:00","6.3","","-1.5","","57","","","","6","","13","","24.1","","99.47","","","","","","NA"
"-97.24","49.91","WINNIPEG INTL A","5023227","2019-04-29 17:00","2019","04","29","17:00","5.2","","0.2","","70","","","","14","","20","","24.1","","99.50","","","","","","NA"
"-97.24","49.91","WINNIPEG INTL A","5023227","2019-04-29 18:00","2019","04","29","18:00","5.5","","-0.9","","63","","","","14","","16","","24.1","","99.53","","","","","","Mostly Cloudy"
"-97.24","49.91","WINNIPEG INTL A","5023227","2019-04-29 19:00","2019","04","29","19:00","4.2","","-0.8","","70","","","","15","","18","","24.1","","99.58","","","","","","NA"
"-97.24","49.91","WINNIPEG INTL A","5023227","2019-04-29 20:00","2019","04","29","20:00","3.5","","-1.3","","71","","","","13","","13","","24.1","","99.65","","","","","","NA"
"-97.24","49.91","WINNIPEG INTL A","5023227","2019-04-29 21:00","2019","04","29","21:00","2.8","","-2.8","","66","","","","12","","17","","24.1","","99.69","","","","","","Mostly Cloudy"
"-97.24","49.91","WINNIPEG INTL A","5023227","2019-04-29 22:00","2019","04","29","22:00","2.0","","-2.8","","71","","","","14","","15","","24.1","","99.70","","","","","","NA"
"-97.24","49.91","WINNIPEG INTL A","5023227","2019-04-29 23:00","2019","04","29","23:00","0.4","","-3.0","","78","","","","18","","8","","24.1","","99.76","","","","","","NA"
"-97.24","49.91","WINNIPEG INTL A","5023227","2019-04-30 00:00","2019","04","30","00:00","-0.2","","-2.9","","82","","","","10","","7","","24.1","","99.79","","","","-3","","Mostly Cloudy"
"-97.24","49.91","WINNIPEG INTL A","5023227","2019-04-30 01:00","2019","04","30","01:00","-1.0","","-3.0","","86","","","","12","","12","","24.1","","99.79","","","","-5","","NA"
"-97.24","49.91","WINNIPEG INTL A","5023227","2019-04-30 02:00","2019","04","30","02:00","-1.5","","-3.2","","89","","","","14","","7","","24.1","","99.74","","","","-4","","NA"
"-97.24","49.91","WINNIPEG INTL A","5023227","2019-04-30 03:00","2019","04","30","03:00","-1.9","","-3.4","","90","","","","15","","8","","24.1","","99.74","","","","-5","","Mainly Clear"
"-97.24","49.91","WINNIPEG INTL A","5023227","2019-04-30 04:00","2019","04","30","04:00","-0.9","","-2.4","","90","","","","12","","4","","24.1","","99.76","","","","-2","","NA"
"-97.24","49.91","WINNIPEG INTL A","5023227","2019-04-30 05:00","2019","04","30","05:00","-0.2","","-1.9","","88","","","","15","","8","","24.1","","99.77","","","","-3","","NA"
"-97.24","49.91","WINNIPEG INTL A","5023227","2019-04-30 06:00","2019","04","30","06:00","0.6","","-1.4","","87","","","","14","","8","","24.1","","99.77","","","","","","Mostly Cloudy"
"-97.24","49.91","WINNIPEG INTL A","5023227","2019-04-30 07:00","2019","04","30","07:00","1.9","","-0.9","","82","","","","12","","18","","24.1","","99.79","","","","","","NA"
"-97.24","49.91","WINNIPEG INTL A","5023227","2019-04-30 08:00","2019","04","30","08:00","2.5","","-1.2","","77","","","","13","","15","","24.1","","99.79","","","","","","NA"
"-97.24","49.91","WINNIPEG INTL A","5023227","2019-04-30 09:00","2019","04","30","09:00","3.3","","-1.4","","71","","","","13","","6","","24.1","","99.77","","","","","","Mostly Cloudy"
"-97.24","49.91","WINNIPEG INTL A","5023227","2019-04-30 10:00","2019","04","30","10:00","5.5","","-1.5","","61","","","","16","","16","","24.1","","99.78","","","","","","NA"
"-97.24","49.91","WINNIPEG INTL A","5023227","2019-04-30 11:00","2019","04","30","11:00","5.8","","-2.8","","54","","","","17","","18","","24.1","","99.79","","","","","","NA"
"-97.24","49.91","WINNIPEG INTL A","5023227","2019-04-30 12:00","2019","04","30","12:00","6.2","","-3.1","","51","","","","20","","8","","24.1","","99.72","","","","","","Mostly Cloudy"
"-97.24","49.91","WINNIPEG INTL A","5023227","2019-04-30 13:00","2019","04","30","13:00","6.9","","-3.5","","47","","","","16","","11","","24.1","","99.68","","","","","","NA"
"-97.24","49.91","WINNIPEG INTL A","5023227","2019-04-30 14:00","2019","04","30","14:00","7.5","","-4.0","","44","","","","13","","18","","24.1","","99.66","","","","","","NA"
"-97.24","49.91","WINNIPEG INTL A","5023227","2019-04-30 15:00","2019","04","30","15:00","7.4","","-3.8","","45","","","","15","","10","","24.1","","99.62","","","","","","Cloudy"
"-97.24","49.91","WINNIPEG INTL A","5023227","2019-04-30 16:00","2019","04","30","16:00","7.4","","-3.2","","47","","","","8","","14","","24.1","","99.56","","","","","","NA"
"-97.24","49.91","WINNIPEG INTL A","5023227","2019-04-30 17:00","2019","04","30","17:00","7.2","","-3.4","","47","","","","10","","17","","24.1","","99.56","","","","","","NA"
"-97.24","49.91","WINNIPEG INTL A","5023227","2019-04-30 18:00","2019","04","30","18:00","6.5","","-3.7","","48","","","","12","","16","","24.1","","99.57","","","","","","Cloudy"
"-97.24","49.91","WINNIPEG INTL A","5023227","2019-04-30 19:00","2019","04","30","19:00","5.9","","-3.4","","51","","","","12","","17","","24.1","","99.53","","","","","","NA"
"-97.24","49.91","WINNIPEG INTL A","5023227","2019-04-30 20:00","2019","04","30","20:00","4.9","","-3.7","","54","","","","13","","19","","24.1","","99.55","","","","","","NA"
"-97.24","49.91","WINNIPEG INTL A","5023227","2019-04-30 21:00","2019","04","30","21:00","5.2","","-3.2","","55","","","","11","","12","","24.1","","99.56","","","","","","Cloudy"
"-97.24","49.91","WINNIPEG INTL A","5023227","2019-04-30 22:00","2019","04","30","22:00","4.9","","-1.6","","63","","","","11","","16","","24.1","","99.51","","","","","","NA"
"-97.24","49.91","WINNIPEG INTL A","5023227","2019-04-30 23:00","2019","04","30","23:00","4.5","","-1.0","","67","","","","11","","11","","24.1","","99.48","","","","","","NA"
