"Longitude (x)","Latitude (y)","Station Name","Climate ID","Date/Time (LST)","Year","Month","Day","Time (LST)","Temp (°C)","Temp Flag","Dew Point Temp (°C)","Dew Point Temp Flag","Rel Hum (%)","Rel Hum Flag","Precip. Amount (mm)","Precip. Amount Flag","Wind Dir (10s deg)","Wind Dir Flag","Wind Spd (km/h)","Wind Spd Flag","Visibility (km)","Visibility Flag","Stn Press (kPa)","Stn Press Flag","Hmdx","Hmdx Flag","Wind Chill","Wind Chill Flag","Weather"
"-64.15","63.34","BREVOORT ISLAND","2400565","2019-04-01 00:00","2019","04","01","00:00","-16.4","","-18.8","","82","","","","24","","17","","","M","96.29","","","","-25","","NA"
"-64.15","63.34","BREVOORT ISLAND","2400565","2019-04-01 01:00","2019","04","01","01:00","-16.3","","-18.4","","83","","","","26","","17","","","M","96.28","","","","-25","","NA"
"-64.15","63.34","BREVOORT ISLAND","2400565","2019-04-01 02:00","2019","04","01","02:00","-16.7","","-18.7","","84","","","","24","","15","","","M","96.28","","","","-25","","NA"
"-64.15","63.34","BREVOORT ISLAND","2400565","2019-04-01 03:00","2019","04","01","03:00","-16.7","","-18.5","","86","","","","23","","9","","","M","96.29","","","","-23","","NA"
"-64.15","63.34","BREVOORT ISLAND","2400565","2019-04-01 04:00","2019","04","01","04:00","-16.3","","-18.0","","87","","","","24","","5","","","M","96.30","","","","-20","","NA"
"-64.15","63.34","BREVOORT ISLAND","2400565","2019-04-01 05:00","2019","04","01","05:00","-16.0","","-17.6","","88","","","","23","","11","","","M","96.34","","","","-23","","NA"
"-64.15","63.34","BREVOORT ISLAND","2400565","2019-04-01 06:00","2019","04","01","06:00","-15.9","","-17.5","","87","","","","23","","5","","","M","96.34","","","","-20","","NA"
"-64.15","63.34","BREVOORT ISLAND","2400565","2019-04-01 07:00","2019","04","01","07:00","-15.5","","-17.3","","87","","","","14","","5","","","M","96.31","","","","-19","","NA"
"-64.15","63.34","BREVOORT ISLAND","2400565","2019-04-01 08:00","2019","04","01","08:00","-15.6","","-17.6","","84","","","","14","","5","","","M","96.28","","","","-19","","NA"
"-64.15","63.34","BREVOORT ISLAND","2400565","2019-04-01 09:00","2019","04","01","09:00","-15.7","","-17.9","","83","","","","8","","8","","","M","96.23","","","","-21","","NA"
"-64.15","63.34","BREVOORT ISLAND","2400565","2019-04-01 10:00","2019","04","01","10:00","-16.3","","-18.7","","81","","","","5","","13","","","M","96.19","","","","-24","","NA"
"-64.15","63.34","BREVOORT ISLAND","2400565","2019-04-01 11:00","2019","04","01","11:00","-16.3","","-18.9","","81","","","","4","","13","","","M","96.14","","","","-24","","NA"
"-64.15","63.34","BREVOORT ISLAND","2400565","2019-04-01 12:00","2019","04","01","12:00","-16.7","","-19.3","","80","","","","4","","17","","","M","96.09","","","","-26","","NA"
"-64.15","63.34","BREVOORT ISLAND","2400565","2019-04-01 13:00","2019","04","01","13:00","-16.6","","-19.2","","80","","","","4","","18","","","M","96.03","","","","-26","","NA"
"-64.15","63.34","BREVOORT ISLAND","2400565","2019-04-01 14:00","2019","04","01","14:00","-16.5","","-19.0","","80","","","","4","","31","","","M","95.92","","","","-28","","NA"
"-64.15","63.34","BREVOORT ISLAND","2400565","2019-04-01 15:00","2019","04","01","15:00","-16.8","","-19.1","","82","","","","4","","35","","","M","95.84","","","","-29","","NA"
"-64.15","63.34","BREVOORT ISLAND","2400565","2019-04-01 16:00","2019","04","01","16:00","-17.2","","-19.2","","84","","","","4","","43","","","M","95.75","","","","-31","","NA"
"-64.15","63.34","BREVOORT ISLAND","2400565","2019-04-01 17:00","2019","04","01","17:00","-17.1","","-19.0","","85","","","","4","","44","","","M","95.67","","","","-31","","NA"
"-64.15","63.34","BREVOORT ISLAND","2400565","2019-04-01 18:00","2019","04","01","18:00","-17.3","","-19.1","","86","","","","4","","48","","","M","95.63","","","","-31","","NA"
"-64.15","63.34","BREVOORT ISLAND","2400565","2019-04-01 19:00","2019","04","01","19:00","-17.1","","-18.9","","86","","","","4","","50","","","M","95.55","","","","-31","","NA"
"-64.15","63.34","BREVOORT ISLAND","2400565","2019-04-01 20:00","2019","04","01","20:00","-17.2","","-18.9","","86","","","","4","","52","","","M","95.44","","","","-32","","NA"
"-64.15","63.34","BREVOORT ISLAND","2400565","2019-04-01 21:00","2019","04","01","21:00","-17.3","","-19.1","","86","","","","4","","61","","","M","95.28","","","","-33","","NA"
"-64.15","63.34","BREVOORT ISLAND","2400565","2019-04-01 22:00","2019","04","01","22:00","-17.0","","-18.7","","86","","","","3","","63","","","M","95.14","","","","-33","","NA"
"-64.15","63.34","BREVOORT ISLAND","2400565","2019-04-01 23:00","2019","04","01","23:00","-16.8","","-18.5","","86","","","","3","","55","","","M","94.96","","","","-32","","NA"
"-64.15","63.34","BREVOORT ISLAND","2400565","2019-04-02 00:00","2019","04","02","00:00","-16.5","","-18.2","","87","","","","3","","72","","","M","94.74","","","","-33","","NA"
"-64.15","63.34","BREVOORT ISLAND","2400565","2019-04-02 01:00","2019","04","02","01:00","-16.5","","-18.2","","87","","","","4","","76","","","M","94.65","","","","-33","","NA"
"-64.15","63.34","BREVOORT ISLAND","2400565","2019-04-02 02:00","2019","04","02","02:00","-16.6","","-18.3","","87","","","","3","","74","","","M","94.54","","","","-33","","NA"
"-64.15","63.34","BREVOORT ISLAND","2400565","2019-04-02 03:00","2019","04","02","03:00","-16.7","","-18.4","","87","","","","3","","65","","","M","94.48","","","","-32","","NA"
"-64.15","63.34","BREVOORT ISLAND","2400565","2019-04-02 04:00","2019","04","02","04:00","-16.6","","-18.3","","87","","","","2","","70","","","M","94.33","","","","-33","","NA"
"-64.15","63.34","BREVOORT ISLAND","2400565","2019-04-02 05:00","2019","04","02","05:00","-16.4","","-18.1","","87","","","","3","","76","","","M","94.16","","","","-33","","NA"
"-64.15","63.34","BREVOORT ISLAND","2400565","2019-04-02 06:00","2019","04","02","06:00","-16.2","","-17.8","","87","","","","3","","74","","","M","94.08","","","","-32","","NA"
"-64.15","63.34","BREVOORT ISLAND","2400565","2019-04-02 07:00","2019","04","02","07:00","-15.6","","-17.2","","88","","","","2","","67","","","M","93.94","","","","-31","","NA"
"-64.15","63.34","BREVOORT ISLAND","2400565","2019-04-02 08:00","2019","04","02","08:00","-14.6","","-16.1","","88","","","","2","","76","","","M","93.81","","","","-30","","NA"
"-64.15","63.34","BREVOORT ISLAND","2400565","2019-04-02 09:00","2019","04","02","09:00","-14.0","","-15.4","","89","","","","2","","70","","","M","93.76","","","","-29","","NA"
"-64.15","63.34","BREVOORT ISLAND","2400565","2019-04-02 10:00","2019","04","02","10:00","-13.4","","-14.8","","89","","","","2","","65","","","M","93.66","","","","-28","","NA"
"-64.15","63.34","BREVOORT ISLAND","2400565","2019-04-02 11:00","2019","04","02","11:00","-13.0","","-14.4","","89","","","","1","","63","","","M","93.56","","","","-27","","NA"
"-64.15","63.34","BREVOORT ISLAND","2400565","2019-04-02 12:00","2019","04","02","12:00","-12.8","","-14.2","","89","","","","36","","63","","","M","93.51","","","","-27","","NA"
"-64.15","63.34","BREVOORT ISLAND","2400565","2019-04-02 13:00","2019","04","02","13:00","-12.4","","-13.7","","90","","","","36","","67","","","M","93.48","","","","-27","","NA"
"-64.15","63.34","BREVOORT ISLAND","2400565","2019-04-02 14:00","2019","04","02","14:00","-12.0","","-13.2","","90","","","","36","","52","","","M","93.55","","","","-25","","NA"
"-64.15","63.34","BREVOORT ISLAND","2400565","2019-04-02 15:00","2019","04","02","15:00","-12.9","","-14.2","","89","","","","35","","48","","","M","93.58","","","","-26","","NA"
"-64.15","63.34","BREVOORT ISLAND","2400565","2019-04-02 16:00","2019","04","02","16:00","-13.3","","-14.7","","89","","","","35","","46","","","M","93.60","","","","-26","","NA"
"-64.15","63.34","BREVOORT ISLAND","2400565","2019-04-02 17:00","2019","04","02","17:00","-13.6","","-15.0","","89","","","","34","","50","","","M","93.62","","","","-27","","NA"
"-64.15","63.34","BREVOORT ISLAND","2400565","2019-04-02 18:00","2019","04","02","18:00","-13.7","","-15.1","","89","","","","33","","44","","","M","93.70","","","","-26","","NA"
"-64.15","63.34","BREVOORT ISLAND","2400565","2019-04-02 19:00","2019","04","02","19:00","-13.8","","-15.2","","89","","","","33","","48","","","M","93.78","","","","-27","","NA"
"-64.15","63.34","BREVOORT ISLAND","2400565","2019-04-02 20:00","2019","04","02","20:00","-14.7","","-16.3","","88","","","","33","","44","","","M","93.86","","","","-28","","NA"
"-64.15","63.34","BREVOORT ISLAND","2400565","2019-04-02 21:00","2019","04","02","21:00","-16.0","","-17.6","","87","","","","31","","41","","","M","93.93","","","","-29","","NA"
"-64.15","63.34","BREVOORT ISLAND","2400565","2019-04-02 22:00","2019","04","02","22:00","-16.5","","-18.3","","86","","","","32","","52","","","M","94.02","","","","-31","","NA"
"-64.15","63.34","BREVOORT ISLAND","2400565","2019-04-02 23:00","2019","04","02","23:00","-16.6","","-18.5","","85","","","","31","","54","","","M","94.07","","","","-31","","NA"
"-64.15","63.34","BREVOORT ISLAND","2400565","2019-04-03 00:00","2019","04","03","00:00","-17.1","","-19.1","","84","","","","30","","50","","","M","94.36","","","","-31","","NA"
"-64.15","63.34","BREVOORT ISLAND","2400565","2019-04-03 01:00","2019","04","03","01:00","-17.7","","-19.6","","84","","","","31","","50","","","M","94.47","","","","-32","","NA"
"-64.15","63.34","BREVOORT ISLAND","2400565","2019-04-03 02:00","2019","04","03","02:00","-17.8","","-20.1","","82","","","","29","","35","","","M","94.66","","","","-30","","NA"
"-64.15","63.34","BREVOORT ISLAND","2400565","2019-04-03 03:00","2019","04","03","03:00","-17.7","","-20.0","","82","","","","28","","50","","","M","94.70","","","","-32","","NA"
"-64.15","63.34","BREVOORT ISLAND","2400565","2019-04-03 04:00","2019","04","03","04:00","-17.7","","-20.3","","80","","","","29","","35","","","M","94.98","","","","-30","","NA"
"-64.15","63.34","BREVOORT ISLAND","2400565","2019-04-03 05:00","2019","04","03","05:00","-17.4","","-20.1","","79","","","","28","","28","","","M","95.15","","","","-29","","NA"
"-64.15","63.34","BREVOORT ISLAND","2400565","2019-04-03 06:00","2019","04","03","06:00","-17.0","","-20.1","","77","","","","28","","30","","","M","95.25","","","","-29","","NA"
"-64.15","63.34","BREVOORT ISLAND","2400565","2019-04-03 07:00","2019","04","03","07:00","-16.7","","-19.8","","77","","","","27","","30","","","M","95.36","","","","-28","","NA"
"-64.15","63.34","BREVOORT ISLAND","2400565","2019-04-03 08:00","2019","04","03","08:00","-16.0","","-19.2","","76","","","","26","","35","","","M","95.45","","","","-28","","NA"
"-64.15","63.34","BREVOORT ISLAND","2400565","2019-04-03 09:00","2019","04","03","09:00","-15.3","","-18.9","","74","","","","25","","28","","","M","95.59","","","","-26","","NA"
"-64.15","63.34","BREVOORT ISLAND","2400565","2019-04-03 10:00","2019","04","03","10:00","-14.6","","-18.1","","75","","","","25","","24","","","M","95.67","","","","-24","","NA"
"-64.15","63.34","BREVOORT ISLAND","2400565","2019-04-03 11:00","2019","04","03","11:00","-14.4","","-16.9","","81","","","","23","","24","","","M","95.73","","","","-24","","NA"
"-64.15","63.34","BREVOORT ISLAND","2400565","2019-04-03 12:00","2019","04","03","12:00","-14.0","","-16.1","","84","","","","24","","21","","","M","95.79","","","","-23","","NA"
"-64.15","63.34","BREVOORT ISLAND","2400565","2019-04-03 13:00","2019","04","03","13:00","-12.7","","-14.5","","87","","","","20","","22","","","M","95.81","","","","-22","","NA"
"-64.15","63.34","BREVOORT ISLAND","2400565","2019-04-03 14:00","2019","04","03","14:00","-11.7","","-13.2","","89","","","","17","","18","","","M","95.88","","","","-20","","NA"
"-64.15","63.34","BREVOORT ISLAND","2400565","2019-04-03 15:00","2019","04","03","15:00","-10.4","","-11.8","","89","","","","16","","17","","","M","95.93","","","","-18","","NA"
"-64.15","63.34","BREVOORT ISLAND","2400565","2019-04-03 16:00","2019","04","03","16:00","-11.0","","-12.5","","89","","","","14","","9","","","M","95.99","","","","-16","","NA"
"-64.15","63.34","BREVOORT ISLAND","2400565","2019-04-03 17:00","2019","04","03","17:00","-12.4","","-14.1","","87","","","","9","","9","","","M","96.04","","","","-18","","NA"
"-64.15","63.34","BREVOORT ISLAND","2400565","2019-04-03 18:00","2019","04","03","18:00","-12.5","","-14.1","","88","","","","8","","15","","","M","96.10","","","","-20","","NA"
"-64.15","63.34","BREVOORT ISLAND","2400565","2019-04-03 19:00","2019","04","03","19:00","-13.1","","-14.6","","88","","","","7","","17","","","M","96.13","","","","-21","","NA"
"-64.15","63.34","BREVOORT ISLAND","2400565","2019-04-03 20:00","2019","04","03","20:00","-13.5","","-15.1","","87","","","","5","","18","","","M","96.16","","","","-22","","NA"
"-64.15","63.34","BREVOORT ISLAND","2400565","2019-04-03 21:00","2019","04","03","21:00","-13.7","","-15.3","","87","","","","4","","28","","","M","96.20","","","","-24","","NA"
"-64.15","63.34","BREVOORT ISLAND","2400565","2019-04-03 22:00","2019","04","03","22:00","-14.0","","-15.6","","87","","","","4","","30","","","M","96.22","","","","-25","","NA"
"-64.15","63.34","BREVOORT ISLAND","2400565","2019-04-03 23:00","2019","04","03","23:00","-14.1","","-15.7","","87","","","","4","","26","","","M","96.26","","","","-24","","NA"
"-64.15","63.34","BREVOORT ISLAND","2400565","2019-04-04 00:00","2019","04","04","00:00","-14.5","","-16.2","","87","","","","4","","35","","","M","96.28","","","","-26","","NA"
"-64.15","63.34","BREVOORT ISLAND","2400565","2019-04-04 01:00","2019","04","04","01:00","-14.7","","-16.3","","87","","","","4","","34","","","M","96.33","","","","-26","","NA"
"-64.15","63.34","BREVOORT ISLAND","2400565","2019-04-04 02:00","2019","04","04","02:00","-14.9","","-16.7","","86","","","","5","","35","","","M","96.32","","","","-27","","NA"
"-64.15","63.34","BREVOORT ISLAND","2400565","2019-04-04 03:00","2019","04","04","03:00","-15.0","","-16.8","","86","","","","6","","37","","","M","96.35","","","","-27","","NA"
"-64.15","63.34","BREVOORT ISLAND","2400565","2019-04-04 04:00","2019","04","04","04:00","-15.0","","-16.8","","87","","","","4","","39","","","M","96.35","","","","-27","","NA"
"-64.15","63.34","BREVOORT ISLAND","2400565","2019-04-04 05:00","2019","04","04","05:00","-15.2","","-17.0","","86","","","","5","","41","","","M","96.37","","","","-28","","NA"
"-64.15","63.34","BREVOORT ISLAND","2400565","2019-04-04 06:00","2019","04","04","06:00","-15.1","","-16.9","","86","","","","5","","41","","","M","96.35","","","","-28","","NA"
"-64.15","63.34","BREVOORT ISLAND","2400565","2019-04-04 07:00","2019","04","04","07:00","-15.2","","-17.1","","85","","","","4","","41","","","M","96.34","","","","-28","","NA"
"-64.15","63.34","BREVOORT ISLAND","2400565","2019-04-04 08:00","2019","04","04","08:00","-15.2","","-17.2","","84","","","","5","","39","","","M","96.34","","","","-28","","NA"
"-64.15","63.34","BREVOORT ISLAND","2400565","2019-04-04 09:00","2019","04","04","09:00","-15.3","","-17.4","","84","","","","4","","48","","","M","96.30","","","","-29","","NA"
"-64.15","63.34","BREVOORT ISLAND","2400565","2019-04-04 10:00","2019","04","04","10:00","-15.1","","-17.3","","83","","","","4","","50","","","M","96.28","","","","-29","","NA"
"-64.15","63.34","BREVOORT ISLAND","2400565","2019-04-04 11:00","2019","04","04","11:00","-14.8","","-17.0","","84","","","","4","","50","","","M","96.23","","","","-28","","NA"
"-64.15","63.34","BREVOORT ISLAND","2400565","2019-04-04 12:00","2019","04","04","12:00","-15.0","","-16.9","","85","","","","4","","59","","","M","96.19","","","","-29","","NA"
"-64.15","63.34","BREVOORT ISLAND","2400565","2019-04-04 13:00","2019","04","04","13:00","-14.8","","-16.6","","86","","","","4","","63","","","M","96.14","","","","-30","","NA"
"-64.15","63.34","BREVOORT ISLAND","2400565","2019-04-04 14:00","2019","04","04","14:00","-15.2","","-16.9","","87","","","","3","","67","","","M","96.07","","","","-30","","NA"
"-64.15","63.34","BREVOORT ISLAND","2400565","2019-04-04 15:00","2019","04","04","15:00","-15.4","","-16.9","","88","","","","4","","74","","","M","96.01","","","","-31","","NA"
"-64.15","63.34","BREVOORT ISLAND","2400565","2019-04-04 16:00","2019","04","04","16:00","-15.1","","-16.6","","88","","","","4","","74","","","M","95.97","","","","-31","","NA"
"-64.15","63.34","BREVOORT ISLAND","2400565","2019-04-04 17:00","2019","04","04","17:00","-14.9","","-16.5","","88","","","","4","","74","","","M","95.95","","","","-31","","NA"
"-64.15","63.34","BREVOORT ISLAND","2400565","2019-04-04 18:00","2019","04","04","18:00","-14.4","","-15.9","","89","","","","3","","72","","","M","95.94","","","","-30","","NA"
"-64.15","63.34","BREVOORT ISLAND","2400565","2019-04-04 19:00","2019","04","04","19:00","-14.7","","-16.2","","88","","","","3","","70","","","M","95.89","","","","-30","","NA"
"-64.15","63.34","BREVOORT ISLAND","2400565","2019-04-04 20:00","2019","04","04","20:00","-14.7","","-16.2","","88","","","","3","","72","","","M","95.87","","","","-30","","NA"
"-64.15","63.34","BREVOORT ISLAND","2400565","2019-04-04 21:00","2019","04","04","21:00","-14.4","","-15.9","","89","","","","3","","68","","","M","95.82","","","","-29","","NA"
"-64.15","63.34","BREVOORT ISLAND","2400565","2019-04-04 22:00","2019","04","04","22:00","-14.4","","-15.8","","89","","","","3","","68","","","M","95.74","","","","-29","","NA"
"-64.15","63.34","BREVOORT ISLAND","2400565","2019-04-04 23:00","2019","04","04","23:00","-14.2","","-15.7","","89","","","","3","","55","","","M","95.70","","","","-28","","NA"
"-64.15","63.34","BREVOORT ISLAND","2400565","2019-04-05 00:00","2019","04","05","00:00","-13.8","","-15.2","","89","","","","1","","57","","","M","95.65","","","","-28","","NA"
"-64.15","63.34","BREVOORT ISLAND","2400565","2019-04-05 01:00","2019","04","05","01:00","-13.6","","-15.0","","89","","","","3","","63","","","M","95.62","","","","-28","","NA"
"-64.15","63.34","BREVOORT ISLAND","2400565","2019-04-05 02:00","2019","04","05","02:00","-13.4","","-14.7","","90","","","","2","","55","","","M","95.57","","","","-27","","NA"
"-64.15","63.34","BREVOORT ISLAND","2400565","2019-04-05 03:00","2019","04","05","03:00","-13.1","","-14.4","","90","","","","2","","61","","","M","95.50","","","","-27","","NA"
"-64.15","63.34","BREVOORT ISLAND","2400565","2019-04-05 04:00","2019","04","05","04:00","-13.0","","-14.3","","90","","","","2","","59","","","M","95.49","","","","-27","","NA"
"-64.15","63.34","BREVOORT ISLAND","2400565","2019-04-05 05:00","2019","04","05","05:00","-12.5","","-13.7","","91","","","","2","","65","","","M","95.44","","","","-26","","NA"
"-64.15","63.34","BREVOORT ISLAND","2400565","2019-04-05 06:00","2019","04","05","06:00","-11.8","","-12.9","","91","","","","2","","59","","","M","95.44","","","","-25","","NA"
"-64.15","63.34","BREVOORT ISLAND","2400565","2019-04-05 07:00","2019","04","05","07:00","-11.2","","-12.3","","92","","","","2","","48","","","M","95.46","","","","-23","","NA"
"-64.15","63.34","BREVOORT ISLAND","2400565","2019-04-05 08:00","2019","04","05","08:00","-11.1","","-12.2","","92","","","","3","","50","","","M","95.46","","","","-23","","NA"
"-64.15","63.34","BREVOORT ISLAND","2400565","2019-04-05 09:00","2019","04","05","09:00","-11.1","","-12.2","","92","","","","3","","44","","","M","95.46","","","","-23","","NA"
"-64.15","63.34","BREVOORT ISLAND","2400565","2019-04-05 10:00","2019","04","05","10:00","-10.7","","-11.8","","92","","","","3","","44","","","M","95.43","","","","-22","","NA"
"-64.15","63.34","BREVOORT ISLAND","2400565","2019-04-05 11:00","2019","04","05","11:00","-10.8","","-11.9","","92","","","","4","","44","","","M","95.41","","","","-22","","NA"
"-64.15","63.34","BREVOORT ISLAND","2400565","2019-04-05 12:00","2019","04","05","12:00","-11.0","","-12.0","","92","","","","4","","52","","","M","95.38","","","","-23","","NA"
"-64.15","63.34","BREVOORT ISLAND","2400565","2019-04-05 13:00","2019","04","05","13:00","-11.1","","-12.2","","92","","","","3","","54","","","M","95.34","","","","-24","","NA"
"-64.15","63.34","BREVOORT ISLAND","2400565","2019-04-05 14:00","2019","04","05","14:00","-11.3","","-12.4","","92","","","","4","","54","","","M","95.35","","","","-24","","NA"
"-64.15","63.34","BREVOORT ISLAND","2400565","2019-04-05 15:00","2019","04","05","15:00","-11.4","","-12.5","","91","","","","4","","52","","","M","95.34","","","","-24","","NA"
"-64.15","63.34","BREVOORT ISLAND","2400565","2019-04-05 16:00","2019","04","05","16:00","-11.6","","-12.7","","91","","","","3","","63","","","M","95.31","","","","-25","","NA"
"-64.15","63.34","BREVOORT ISLAND","2400565","2019-04-05 17:00","2019","04","05","17:00","-11.7","","-12.8","","91","","","","4","","65","","","M","95.32","","","","-25","","NA"
"-64.15","63.34","BREVOORT ISLAND","2400565","2019-04-05 18:00","2019","04","05","18:00","-11.7","","-12.9","","91","","","","3","","57","","","M","95.35","","","","-25","","NA"
"-64.15","63.34","BREVOORT ISLAND","2400565","2019-04-05 19:00","2019","04","05","19:00","-11.8","","-12.9","","91","","","","3","","59","","","M","95.34","","","","-25","","NA"
"-64.15","63.34","BREVOORT ISLAND","2400565","2019-04-05 20:00","2019","04","05","20:00","-11.9","","-13.0","","91","","","","3","","55","","","M","95.32","","","","-25","","NA"
"-64.15","63.34","BREVOORT ISLAND","2400565","2019-04-05 21:00","2019","04","05","21:00","-12.1","","-13.3","","91","","","","4","","61","","","M","95.29","","","","-26","","NA"
"-64.15","63.34","BREVOORT ISLAND","2400565","2019-04-05 22:00","2019","04","05","22:00","-12.2","","-13.4","","91","","","","4","","54","","","M","95.27","","","","-25","","NA"
"-64.15","63.34","BREVOORT ISLAND","2400565","2019-04-05 23:00","2019","04","05","23:00","-12.3","","-13.5","","91","","","","3","","55","","","M","95.26","","","","-25","","NA"
"-64.15","63.34","BREVOORT ISLAND","2400565","2019-04-06 00:00","2019","04","06","00:00","-12.4","","-13.6","","91","","","","4","","52","","","M","95.26","","","","-25","","NA"
"-64.15","63.34","BREVOORT ISLAND","2400565","2019-04-06 01:00","2019","04","06","01:00","-12.6","","-13.8","","90","","","","4","","59","","","M","95.26","","","","-26","","NA"
"-64.15","63.34","BREVOORT ISLAND","2400565","2019-04-06 02:00","2019","04","06","02:00","-12.8","","-14.0","","90","","","","4","","59","","","M","95.24","","","","-26","","NA"
"-64.15","63.34","BREVOORT ISLAND","2400565","2019-04-06 03:00","2019","04","06","03:00","-12.8","","-14.1","","90","","","","4","","57","","","M","95.25","","","","-26","","NA"
"-64.15","63.34","BREVOORT ISLAND","2400565","2019-04-06 04:00","2019","04","06","04:00","-13.2","","-14.5","","90","","","","4","","55","","","M","95.26","","","","-27","","NA"
"-64.15","63.34","BREVOORT ISLAND","2400565","2019-04-06 05:00","2019","04","06","05:00","-13.2","","-14.5","","90","","","","4","","59","","","M","95.28","","","","-27","","NA"
"-64.15","63.34","BREVOORT ISLAND","2400565","2019-04-06 06:00","2019","04","06","06:00","-13.1","","-14.4","","90","","","","4","","61","","","M","95.28","","","","-27","","NA"
"-64.15","63.34","BREVOORT ISLAND","2400565","2019-04-06 07:00","2019","04","06","07:00","-13.1","","-14.4","","90","","","","4","","57","","","M","95.29","","","","-27","","NA"
"-64.15","63.34","BREVOORT ISLAND","2400565","2019-04-06 08:00","2019","04","06","08:00","-12.9","","-14.2","","90","","","","4","","61","","","M","95.28","","","","-27","","NA"
"-64.15","63.34","BREVOORT ISLAND","2400565","2019-04-06 09:00","2019","04","06","09:00","-12.7","","-14.0","","90","","","","4","","55","","","M","95.29","","","","-26","","NA"
"-64.15","63.34","BREVOORT ISLAND","2400565","2019-04-06 10:00","2019","04","06","10:00","-12.7","","-14.0","","90","","","","4","","65","","","M","95.28","","","","-27","","NA"
"-64.15","63.34","BREVOORT ISLAND","2400565","2019-04-06 11:00","2019","04","06","11:00","-12.4","","-13.7","","90","","","","4","","65","","","M","95.26","","","","-26","","NA"
"-64.15","63.34","BREVOORT ISLAND","2400565","2019-04-06 12:00","2019","04","06","12:00","-12.3","","-13.5","","90","","","","4","","63","","","M","95.27","","","","-26","","NA"
"-64.15","63.34","BREVOORT ISLAND","2400565","2019-04-06 13:00","2019","04","06","13:00","-12.1","","-13.3","","91","","","","3","","61","","","M","95.28","","","","-26","","NA"
"-64.15","63.34","BREVOORT ISLAND","2400565","2019-04-06 14:00","2019","04","06","14:00","-12.1","","-13.3","","91","","","","4","","59","","","M","95.29","","","","-25","","NA"
"-64.15","63.34","BREVOORT ISLAND","2400565","2019-04-06 15:00","2019","04","06","15:00","-12.2","","-13.4","","91","","","","4","","59","","","M","95.28","","","","-26","","NA"
"-64.15","63.34","BREVOORT ISLAND","2400565","2019-04-06 16:00","2019","04","06","16:00","-12.3","","-13.5","","91","","","","4","","63","","","M","95.30","","","","-26","","NA"
"-64.15","63.34","BREVOORT ISLAND","2400565","2019-04-06 17:00","2019","04","06","17:00","-12.2","","-13.4","","91","","","","4","","57","","","M","95.34","","","","-25","","NA"
"-64.15","63.34","BREVOORT ISLAND","2400565","2019-04-06 18:00","2019","04","06","18:00","-12.1","","-13.3","","91","","","","4","","50","","","M","95.35","","","","-25","","NA"
"-64.15","63.34","BREVOORT ISLAND","2400565","2019-04-06 19:00","2019","04","06","19:00","-12.3","","-13.5","","91","","","","4","","54","","","M","95.36","","","","-25","","NA"
"-64.15","63.34","BREVOORT ISLAND","2400565","2019-04-06 20:00","2019","04","06","20:00","-12.4","","-13.6","","91","","","","3","","59","","","M","95.34","","","","-26","","NA"
"-64.15","63.34","BREVOORT ISLAND","2400565","2019-04-06 21:00","2019","04","06","21:00","-12.8","","-14.0","","90","","","","4","","55","","","M","95.32","","","","-26","","NA"
"-64.15","63.34","BREVOORT ISLAND","2400565","2019-04-06 22:00","2019","04","06","22:00","-13.1","","-14.3","","90","","","","3","","63","","","M","95.28","","","","-27","","NA"
"-64.15","63.34","BREVOORT ISLAND","2400565","2019-04-06 23:00","2019","04","06","23:00","-13.1","","-14.3","","90","","","","3","","59","","","M","95.28","","","","-27","","NA"
"-64.15","63.34","BREVOORT ISLAND","2400565","2019-04-07 00:00","2019","04","07","00:00","-12.9","","-14.2","","90","","","","4","","61","","","M","95.27","","","","-27","","NA"
"-64.15","63.34","BREVOORT ISLAND","2400565","2019-04-07 01:00","2019","04","07","01:00","-12.8","","-14.0","","90","","","","4","","59","","","M","95.29","","","","-26","","NA"
"-64.15","63.34","BREVOORT ISLAND","2400565","2019-04-07 02:00","2019","04","07","02:00","-12.3","","-13.5","","91","","","","3","","63","","","M","95.32","","","","-26","","NA"
"-64.15","63.34","BREVOORT ISLAND","2400565","2019-04-07 03:00","2019","04","07","03:00","-12.3","","-13.5","","91","","","","4","","63","","","M","95.32","","","","-26","","NA"
"-64.15","63.34","BREVOORT ISLAND","2400565","2019-04-07 04:00","2019","04","07","04:00","-12.2","","-13.4","","91","","","","4","","61","","","M","95.38","","","","-26","","NA"
"-64.15","63.34","BREVOORT ISLAND","2400565","2019-04-07 05:00","2019","04","07","05:00","-12.1","","-13.3","","91","","","","4","","61","","","M","95.42","","","","-26","","NA"
"-64.15","63.34","BREVOORT ISLAND","2400565","2019-04-07 06:00","2019","04","07","06:00","-11.8","","-13.0","","91","","","","4","","55","","","M","95.52","","","","-25","","NA"
"-64.15","63.34","BREVOORT ISLAND","2400565","2019-04-07 07:00","2019","04","07","07:00","-11.4","","-12.5","","91","","","","3","","46","","","M","95.66","","","","-23","","NA"
"-64.15","63.34","BREVOORT ISLAND","2400565","2019-04-07 08:00","2019","04","07","08:00","-10.7","","-11.8","","92","","","","3","","37","","","M","95.73","","","","-21","","NA"
"-64.15","63.34","BREVOORT ISLAND","2400565","2019-04-07 09:00","2019","04","07","09:00","-10.3","","-11.3","","92","","","","3","","28","","","M","95.83","","","","-20","","NA"
"-64.15","63.34","BREVOORT ISLAND","2400565","2019-04-07 10:00","2019","04","07","10:00","-9.6","","-10.6","","93","","","","2","","26","","","M","95.92","","","","-18","","NA"
"-64.15","63.34","BREVOORT ISLAND","2400565","2019-04-07 11:00","2019","04","07","11:00","-8.9","","-9.8","","93","","","","33","","9","","","M","96.06","","","","-14","","NA"
"-64.15","63.34","BREVOORT ISLAND","2400565","2019-04-07 12:00","2019","04","07","12:00","-8.3","","-9.1","","94","","","","30","","13","","","M","96.17","","","","-14","","NA"
"-64.15","63.34","BREVOORT ISLAND","2400565","2019-04-07 13:00","2019","04","07","13:00","-9.8","","-10.7","","93","","","","23","","26","","","M","96.24","","","","-19","","NA"
"-64.15","63.34","BREVOORT ISLAND","2400565","2019-04-07 14:00","2019","04","07","14:00","-10.2","","-11.2","","92","","","","22","","28","","","M","96.37","","","","-19","","NA"
"-64.15","63.34","BREVOORT ISLAND","2400565","2019-04-07 15:00","2019","04","07","15:00","-10.6","","-11.6","","92","","","","21","","24","","","M","96.47","","","","-19","","NA"
"-64.15","63.34","BREVOORT ISLAND","2400565","2019-04-07 16:00","2019","04","07","16:00","-11.1","","-12.2","","92","","","","21","","22","","","M","96.55","","","","-20","","NA"
"-64.15","63.34","BREVOORT ISLAND","2400565","2019-04-07 17:00","2019","04","07","17:00","-11.5","","-12.7","","91","","","","20","","22","","","M","96.66","","","","-20","","NA"
"-64.15","63.34","BREVOORT ISLAND","2400565","2019-04-07 18:00","2019","04","07","18:00","-12.1","","-13.2","","91","","","","20","","24","","","M","96.74","","","","-21","","NA"
"-64.15","63.34","BREVOORT ISLAND","2400565","2019-04-07 19:00","2019","04","07","19:00","-12.4","","-13.6","","91","","","","21","","28","","","M","96.82","","","","-22","","NA"
"-64.15","63.34","BREVOORT ISLAND","2400565","2019-04-07 20:00","2019","04","07","20:00","-12.4","","-13.6","","91","","","","22","","21","","","M","96.89","","","","-21","","NA"
"-64.15","63.34","BREVOORT ISLAND","2400565","2019-04-07 21:00","2019","04","07","21:00","-13.3","","-14.6","","90","","","","21","","18","","","M","96.95","","","","-22","","NA"
"-64.15","63.34","BREVOORT ISLAND","2400565","2019-04-07 22:00","2019","04","07","22:00","-15.0","","-16.5","","88","","","","21","","21","","","M","97.01","","","","-24","","NA"
"-64.15","63.34","BREVOORT ISLAND","2400565","2019-04-07 23:00","2019","04","07","23:00","-14.2","","-15.6","","89","","","","22","","17","","","M","97.07","","","","-22","","NA"
"-64.15","63.34","BREVOORT ISLAND","2400565","2019-04-08 00:00","2019","04","08","00:00","-12.9","","-14.2","","90","","","","23","","17","","","M","97.10","","","","-21","","NA"
"-64.15","63.34","BREVOORT ISLAND","2400565","2019-04-08 01:00","2019","04","08","01:00","-12.5","","-13.7","","91","","","","23","","15","","","M","97.12","","","","-20","","NA"
"-64.15","63.34","BREVOORT ISLAND","2400565","2019-04-08 02:00","2019","04","08","02:00","-10.2","","-11.2","","93","","","","27","","8","","","M","97.19","","","","-15","","NA"
"-64.15","63.34","BREVOORT ISLAND","2400565","2019-04-08 03:00","2019","04","08","03:00","-10.3","","-11.3","","93","","","","34","","4","","","M","97.23","","","","-13","","NA"
"-64.15","63.34","BREVOORT ISLAND","2400565","2019-04-08 04:00","2019","04","08","04:00","-10.5","","-11.5","","92","","","","35","","4","","","M","97.26","","","","-13","","NA"
"-64.15","63.34","BREVOORT ISLAND","2400565","2019-04-08 05:00","2019","04","08","05:00","-10.6","","-11.6","","92","","","","4","","15","","","M","97.30","","","","-17","","NA"
"-64.15","63.34","BREVOORT ISLAND","2400565","2019-04-08 06:00","2019","04","08","06:00","-9.9","","-10.9","","93","","","","4","","13","","","M","97.33","","","","-16","","NA"
"-64.15","63.34","BREVOORT ISLAND","2400565","2019-04-08 07:00","2019","04","08","07:00","-10.1","","-11.1","","92","","","","5","","15","","","M","97.40","","","","-17","","NA"
"-64.15","63.34","BREVOORT ISLAND","2400565","2019-04-08 08:00","2019","04","08","08:00","-9.9","","-11.0","","92","","","","3","","17","","","M","97.46","","","","-17","","NA"
"-64.15","63.34","BREVOORT ISLAND","2400565","2019-04-08 09:00","2019","04","08","09:00","-9.6","","-10.6","","92","","","","5","","13","","","M","97.48","","","","-16","","NA"
"-64.15","63.34","BREVOORT ISLAND","2400565","2019-04-08 10:00","2019","04","08","10:00","-8.8","","-9.8","","92","","","","5","","15","","","M","97.49","","","","-15","","NA"
"-64.15","63.34","BREVOORT ISLAND","2400565","2019-04-08 11:00","2019","04","08","11:00","-8.7","","-9.7","","92","","","","5","","18","","","M","97.49","","","","-16","","NA"
"-64.15","63.34","BREVOORT ISLAND","2400565","2019-04-08 12:00","2019","04","08","12:00","-8.4","","-9.4","","93","","","","4","","22","","","M","97.49","","","","-16","","NA"
"-64.15","63.34","BREVOORT ISLAND","2400565","2019-04-08 13:00","2019","04","08","13:00","-8.6","","-9.6","","92","","","","5","","21","","","M","97.50","","","","-16","","NA"
"-64.15","63.34","BREVOORT ISLAND","2400565","2019-04-08 14:00","2019","04","08","14:00","-10.1","","-11.1","","92","","","","4","","22","","","M","97.54","","","","-18","","NA"
"-64.15","63.34","BREVOORT ISLAND","2400565","2019-04-08 15:00","2019","04","08","15:00","-10.3","","-11.4","","92","","","","4","","22","","","M","97.56","","","","-19","","NA"
"-64.15","63.34","BREVOORT ISLAND","2400565","2019-04-08 16:00","2019","04","08","16:00","-9.2","","-10.2","","92","","","","4","","18","","","M","97.60","","","","-16","","NA"
"-64.15","63.34","BREVOORT ISLAND","2400565","2019-04-08 17:00","2019","04","08","17:00","-9.9","","-10.9","","92","","","","3","","22","","","M","97.60","","","","-18","","NA"
"-64.15","63.34","BREVOORT ISLAND","2400565","2019-04-08 18:00","2019","04","08","18:00","-10.2","","-11.2","","92","","","","1","","18","","","M","97.62","","","","-18","","NA"
"-64.15","63.34","BREVOORT ISLAND","2400565","2019-04-08 19:00","2019","04","08","19:00","-10.6","","-11.6","","92","","","","36","","17","","","M","97.63","","","","-18","","NA"
"-64.15","63.34","BREVOORT ISLAND","2400565","2019-04-08 20:00","2019","04","08","20:00","-10.6","","-11.7","","92","","","","1","","21","","","M","97.65","","","","-19","","NA"
"-64.15","63.34","BREVOORT ISLAND","2400565","2019-04-08 21:00","2019","04","08","21:00","-10.7","","-11.7","","92","","","","2","","22","","","M","97.65","","","","-19","","NA"
"-64.15","63.34","BREVOORT ISLAND","2400565","2019-04-08 22:00","2019","04","08","22:00","-12.0","","-13.2","","91","","","","2","","21","","","M","97.67","","","","-21","","NA"
"-64.15","63.34","BREVOORT ISLAND","2400565","2019-04-08 23:00","2019","04","08","23:00","-12.8","","-14.1","","90","","","","3","","35","","","M","97.62","","","","-24","","NA"
"-64.15","63.34","BREVOORT ISLAND","2400565","2019-04-09 00:00","2019","04","09","00:00","-12.8","","-14.1","","90","","","","3","","39","","","M","97.60","","","","-24","","NA"
"-64.15","63.34","BREVOORT ISLAND","2400565","2019-04-09 01:00","2019","04","09","01:00","-13.5","","-14.9","","89","","","","3","","39","","","M","97.63","","","","-25","","NA"
"-64.15","63.34","BREVOORT ISLAND","2400565","2019-04-09 02:00","2019","04","09","02:00","-14.3","","-15.8","","89","","","","4","","35","","","M","97.69","","","","-26","","NA"
"-64.15","63.34","BREVOORT ISLAND","2400565","2019-04-09 03:00","2019","04","09","03:00","-14.7","","-16.2","","88","","","","4","","34","","","M","97.68","","","","-26","","NA"
"-64.15","63.34","BREVOORT ISLAND","2400565","2019-04-09 04:00","2019","04","09","04:00","-15.1","","-16.6","","88","","","","4","","35","","","M","97.69","","","","-27","","NA"
"-64.15","63.34","BREVOORT ISLAND","2400565","2019-04-09 05:00","2019","04","09","05:00","-13.7","","-15.2","","88","","","","5","","22","","","M","97.76","","","","-23","","NA"
"-64.15","63.34","BREVOORT ISLAND","2400565","2019-04-09 06:00","2019","04","09","06:00","-12.9","","-14.3","","88","","","","4","","24","","","M","97.74","","","","-22","","NA"
"-64.15","63.34","BREVOORT ISLAND","2400565","2019-04-09 07:00","2019","04","09","07:00","-13.4","","-15.1","","87","","","","4","","30","","","M","97.73","","","","-24","","NA"
"-64.15","63.34","BREVOORT ISLAND","2400565","2019-04-09 08:00","2019","04","09","08:00","-13.0","","-14.7","","87","","","","4","","30","","","M","97.72","","","","-23","","NA"
"-64.15","63.34","BREVOORT ISLAND","2400565","2019-04-09 09:00","2019","04","09","09:00","-12.4","","-14.1","","87","","","","4","","34","","","M","97.69","","","","-23","","NA"
"-64.15","63.34","BREVOORT ISLAND","2400565","2019-04-09 10:00","2019","04","09","10:00","-12.3","","-14.2","","86","","","","3","","35","","","M","97.67","","","","-23","","NA"
"-64.15","63.34","BREVOORT ISLAND","2400565","2019-04-09 11:00","2019","04","09","11:00","-11.9","","-13.9","","85","","","","3","","31","","","M","97.69","","","","-22","","NA"
"-64.15","63.34","BREVOORT ISLAND","2400565","2019-04-09 12:00","2019","04","09","12:00","-10.5","","-12.5","","85","","","","4","","35","","","M","97.69","","","","-21","","NA"
"-64.15","63.34","BREVOORT ISLAND","2400565","2019-04-09 13:00","2019","04","09","13:00","-10.5","","-12.7","","84","","","","3","","35","","","M","97.66","","","","-21","","NA"
"-64.15","63.34","BREVOORT ISLAND","2400565","2019-04-09 14:00","2019","04","09","14:00","-13.1","","-14.9","","86","","","","4","","35","","","M","97.69","","","","-24","","NA"
"-64.15","63.34","BREVOORT ISLAND","2400565","2019-04-09 15:00","2019","04","09","15:00","-12.8","","-14.6","","87","","","","3","","35","","","M","97.68","","","","-24","","NA"
"-64.15","63.34","BREVOORT ISLAND","2400565","2019-04-09 16:00","2019","04","09","16:00","-11.9","","-13.9","","85","","","","3","","37","","","M","97.69","","","","-23","","NA"
"-64.15","63.34","BREVOORT ISLAND","2400565","2019-04-09 17:00","2019","04","09","17:00","-12.6","","-14.5","","85","","","","3","","43","","","M","97.66","","","","-25","","NA"
"-64.15","63.34","BREVOORT ISLAND","2400565","2019-04-09 18:00","2019","04","09","18:00","-12.7","","-14.5","","86","","","","3","","34","","","M","97.66","","","","-24","","NA"
"-64.15","63.34","BREVOORT ISLAND","2400565","2019-04-09 19:00","2019","04","09","19:00","-13.5","","-15.3","","86","","","","4","","35","","","M","97.63","","","","-25","","NA"
"-64.15","63.34","BREVOORT ISLAND","2400565","2019-04-09 20:00","2019","04","09","20:00","-14.1","","-15.9","","86","","","","4","","46","","","M","97.61","","","","-27","","NA"
"-64.15","63.34","BREVOORT ISLAND","2400565","2019-04-09 21:00","2019","04","09","21:00","-14.0","","-15.8","","86","","","","4","","37","","","M","97.61","","","","-26","","NA"
"-64.15","63.34","BREVOORT ISLAND","2400565","2019-04-09 22:00","2019","04","09","22:00","-14.4","","-16.3","","85","","","","4","","46","","","M","97.55","","","","-27","","NA"
"-64.15","63.34","BREVOORT ISLAND","2400565","2019-04-09 23:00","2019","04","09","23:00","-14.2","","-16.2","","85","","","","4","","43","","","M","97.56","","","","-27","","NA"
"-64.15","63.34","BREVOORT ISLAND","2400565","2019-04-10 00:00","2019","04","10","00:00","-13.6","","-15.8","","83","","","","4","","37","","","M","97.57","","","","-25","","NA"
"-64.15","63.34","BREVOORT ISLAND","2400565","2019-04-10 01:00","2019","04","10","01:00","-13.1","","-15.5","","82","","","","3","","39","","","M","97.55","","","","-25","","NA"
"-64.15","63.34","BREVOORT ISLAND","2400565","2019-04-10 02:00","2019","04","10","02:00","-12.9","","-15.7","","79","","","","3","","44","","","M","97.51","","","","-25","","NA"
"-64.15","63.34","BREVOORT ISLAND","2400565","2019-04-10 03:00","2019","04","10","03:00","-12.1","","-15.4","","76","","","","3","","43","","","M","97.47","","","","-24","","NA"
"-64.15","63.34","BREVOORT ISLAND","2400565","2019-04-10 04:00","2019","04","10","04:00","-13.7","","-16.8","","77","","","","3","","41","","","M","97.48","","","","-26","","NA"
"-64.15","63.34","BREVOORT ISLAND","2400565","2019-04-10 05:00","2019","04","10","05:00","-14.0","","-17.3","","76","","","","4","","39","","","M","97.49","","","","-26","","NA"
"-64.15","63.34","BREVOORT ISLAND","2400565","2019-04-10 06:00","2019","04","10","06:00","-14.3","","-17.6","","76","","","","3","","39","","","M","97.48","","","","-26","","NA"
"-64.15","63.34","BREVOORT ISLAND","2400565","2019-04-10 07:00","2019","04","10","07:00","-13.6","","-17.2","","74","","","","2","","43","","","M","97.47","","","","-26","","NA"
"-64.15","63.34","BREVOORT ISLAND","2400565","2019-04-10 08:00","2019","04","10","08:00","-14.0","","-17.7","","74","","","","3","","41","","","M","97.47","","","","-26","","NA"
"-64.15","63.34","BREVOORT ISLAND","2400565","2019-04-10 09:00","2019","04","10","09:00"
"-64.15","63.34","BREVOORT ISLAND","2400565","2019-04-10 10:00","2019","04","10","10:00","-13.6","","-18.1","","69","","","","5","","39","","","M","97.41","","","","-25","","NA"
"-64.15","63.34","BREVOORT ISLAND","2400565","2019-04-10 11:00","2019","04","10","11:00","-14.1","","-17.9","","73","","","","5","","35","","","M","97.42","","","","-26","","NA"
"-64.15","63.34","BREVOORT ISLAND","2400565","2019-04-10 12:00","2019","04","10","12:00","-13.8","","-17.4","","74","","","","4","","35","","","M","97.40","","","","-25","","NA"
"-64.15","63.34","BREVOORT ISLAND","2400565","2019-04-10 13:00","2019","04","10","13:00","-12.9","","-16.9","","72","","","","3","","35","","","M","97.39","","","","-24","","NA"
"-64.15","63.34","BREVOORT ISLAND","2400565","2019-04-10 14:00","2019","04","10","14:00","-13.1","","-16.8","","73","","","","4","","30","","","M","97.37","","","","-24","","NA"
"-64.15","63.34","BREVOORT ISLAND","2400565","2019-04-10 15:00","2019","04","10","15:00","-12.7","","-16.9","","70","","","","3","","34","","","M","97.34","","","","-24","","NA"
"-64.15","63.34","BREVOORT ISLAND","2400565","2019-04-10 16:00","2019","04","10","16:00","-12.1","","-16.8","","68","","","","3","","34","","","M","97.32","","","","-23","","NA"
"-64.15","63.34","BREVOORT ISLAND","2400565","2019-04-10 17:00","2019","04","10","17:00","-12.8","","-16.8","","72","","","","3","","34","","","M","97.32","","","","-24","","NA"
"-64.15","63.34","BREVOORT ISLAND","2400565","2019-04-10 18:00","2019","04","10","18:00","-13.1","","-16.9","","73","","","","3","","22","","","M","97.33","","","","-22","","NA"
"-64.15","63.34","BREVOORT ISLAND","2400565","2019-04-10 19:00","2019","04","10","19:00","-13.0","","-16.9","","72","","","","2","","26","","","M","97.30","","","","-23","","NA"
"-64.15","63.34","BREVOORT ISLAND","2400565","2019-04-10 20:00","2019","04","10","20:00","-13.6","","-17.4","","73","","","","3","","22","","","M","97.31","","","","-23","","NA"
"-64.15","63.34","BREVOORT ISLAND","2400565","2019-04-10 21:00","2019","04","10","21:00","-12.9","","-16.7","","73","","","","","M","","M","","M","97.29","","","","","","NA"
"-64.15","63.34","BREVOORT ISLAND","2400565","2019-04-10 22:00","2019","04","10","22:00","-12.5","","-15.6","","77","","","","","M","","M","","M","97.25","","","","","","NA"
"-64.15","63.34","BREVOORT ISLAND","2400565","2019-04-10 23:00","2019","04","10","23:00","-13.6","","-16.2","","81","","","","","M","","M","","M","97.22","","","","","","NA"
"-64.15","63.34","BREVOORT ISLAND","2400565","2019-04-11 00:00","2019","04","11","00:00","-13.7","","-15.9","","84","","","","","M","","M","","M","97.20","","","","","","NA"
"-64.15","63.34","BREVOORT ISLAND","2400565","2019-04-11 01:00","2019","04","11","01:00","-13.8","","-15.7","","85","","","","","M","","M","","M","97.21","","","","","","NA"
"-64.15","63.34","BREVOORT ISLAND","2400565","2019-04-11 02:00","2019","04","11","02:00","-14.2","","-15.8","","88","","","","","M","","M","","M","97.22","","","","","","NA"
"-64.15","63.34","BREVOORT ISLAND","2400565","2019-04-11 03:00","2019","04","11","03:00","-13.0","","-14.6","","88","","","","","M","","M","","M","97.22","","","","","","NA"
"-64.15","63.34","BREVOORT ISLAND","2400565","2019-04-11 04:00","2019","04","11","04:00","-12.7","","-14.3","","88","","","","","M","","M","","M","97.21","","","","","","NA"
"-64.15","63.34","BREVOORT ISLAND","2400565","2019-04-11 05:00","2019","04","11","05:00","-12.8","","-14.9","","84","","","","","M","","M","","M","97.23","","","","","","NA"
"-64.15","63.34","BREVOORT ISLAND","2400565","2019-04-11 06:00","2019","04","11","06:00","-11.6","","-13.8","","84","","","","","M","","M","","M","97.24","","","","","","NA"
"-64.15","63.34","BREVOORT ISLAND","2400565","2019-04-11 07:00","2019","04","11","07:00","-10.3","","-13.6","","77","","","","","M","","M","","M","97.24","","","","","","NA"
"-64.15","63.34","BREVOORT ISLAND","2400565","2019-04-11 08:00","2019","04","11","08:00","-9.6","","-13.3","","74","","","","","M","","M","","M","97.23","","","","","","NA"
"-64.15","63.34","BREVOORT ISLAND","2400565","2019-04-11 09:00","2019","04","11","09:00","-9.3","","-13.9","","69","","","","","M","","M","","M","97.23","","","","","","NA"
"-64.15","63.34","BREVOORT ISLAND","2400565","2019-04-11 10:00","2019","04","11","10:00","-8.9","","-13.4","","70","","","","","M","","M","","M","97.23","","","","","","NA"
"-64.15","63.34","BREVOORT ISLAND","2400565","2019-04-11 11:00","2019","04","11","11:00","-8.1","","-13.3","","66","","","","","M","","M","","M","97.21","","","","","","NA"
"-64.15","63.34","BREVOORT ISLAND","2400565","2019-04-11 12:00","2019","04","11","12:00","-7.4","","-13.0","","64","","","","","M","","M","","M","97.19","","","","","","NA"
"-64.15","63.34","BREVOORT ISLAND","2400565","2019-04-11 13:00","2019","04","11","13:00","-7.8","","-12.9","","67","","","","","M","","M","","M","97.15","","","","","","NA"
"-64.15","63.34","BREVOORT ISLAND","2400565","2019-04-11 14:00","2019","04","11","14:00","-8.4","","-12.8","","71","","","","","M","","M","","M","97.14","","","","","","NA"
"-64.15","63.34","BREVOORT ISLAND","2400565","2019-04-11 15:00","2019","04","11","15:00","-10.0","","-13.6","","74","","","","","M","","M","","M","97.13","","","","","","NA"
"-64.15","63.34","BREVOORT ISLAND","2400565","2019-04-11 16:00","2019","04","11","16:00","-8.0","","-13.7","","63","","","","","M","","M","","M","97.11","","","","","","NA"
"-64.15","63.34","BREVOORT ISLAND","2400565","2019-04-11 17:00","2019","04","11","17:00","-8.1","","-13.1","","67","","","","","M","","M","","M","97.08","","","","","","NA"
"-64.15","63.34","BREVOORT ISLAND","2400565","2019-04-11 18:00","2019","04","11","18:00","-8.7","","-13.5","","68","","","","","M","","M","","M","97.06","","","","","","NA"
"-64.15","63.34","BREVOORT ISLAND","2400565","2019-04-11 19:00","2019","04","11","19:00","-9.4","","-14.4","","67","","","","","M","","M","","M","97.02","","","","","","NA"
"-64.15","63.34","BREVOORT ISLAND","2400565","2019-04-11 20:00","2019","04","11","20:00","-9.0","","-14.3","","65","","","","","M","","M","","M","96.98","","","","","","NA"
"-64.15","63.34","BREVOORT ISLAND","2400565","2019-04-11 21:00","2019","04","11","21:00","-9.2","","-14.1","","68","","","","","M","","M","","M","96.96","","","","","","NA"
"-64.15","63.34","BREVOORT ISLAND","2400565","2019-04-11 22:00","2019","04","11","22:00","-10.3","","-14.3","","72","","","","","M","","M","","M","96.93","","","","","","NA"
"-64.15","63.34","BREVOORT ISLAND","2400565","2019-04-11 23:00","2019","04","11","23:00","-11.3","","-14.3","","78","","","","","M","","M","","M","96.90","","","","","","NA"
"-64.15","63.34","BREVOORT ISLAND","2400565","2019-04-12 00:00","2019","04","12","00:00","-11.9","","-14.0","","81","","","","","M","","M","","M","87.79","","","","","","NA"
"-64.15","63.34","BREVOORT ISLAND","2400565","2019-04-12 01:00","2019","04","12","01:00","-11.3","","-13.7","","82","","","","","M","","M","","M","96.82","","","","","","NA"
"-64.15","63.34","BREVOORT ISLAND","2400565","2019-04-12 02:00","2019","04","12","02:00","-11.8","","-14.2","","82","","","","","M","","M","","M","96.81","","","","","","NA"
"-64.15","63.34","BREVOORT ISLAND","2400565","2019-04-12 03:00","2019","04","12","03:00","-10.7","","-13.4","","81","","","","","M","","M","","M","96.77","","","","","","NA"
"-64.15","63.34","BREVOORT ISLAND","2400565","2019-04-12 04:00","2019","04","12","04:00","-10.4","","-13.1","","81","","","","","M","","M","","M","96.80","","","","","","NA"
"-64.15","63.34","BREVOORT ISLAND","2400565","2019-04-12 05:00","2019","04","12","05:00","-9.7","","-12.9","","77","","","","","M","","M","","M","96.79","","","","","","NA"
"-64.15","63.34","BREVOORT ISLAND","2400565","2019-04-12 06:00","2019","04","12","06:00","-8.7","","-11.9","","77","","","","","M","","M","","M","96.80","","","","","","NA"
"-64.15","63.34","BREVOORT ISLAND","2400565","2019-04-12 07:00","2019","04","12","07:00","-7.1","","-11.1","","73","","","","","M","","M","","M","96.74","","","","","","NA"
"-64.15","63.34","BREVOORT ISLAND","2400565","2019-04-12 08:00","2019","04","12","08:00","-6.8","","-10.1","","77","","","","","M","","M","","M","96.75","","","","","","NA"
"-64.15","63.34","BREVOORT ISLAND","2400565","2019-04-12 09:00","2019","04","12","09:00","-6.4","","-9.8","","77","","","","","M","","M","","M","96.71","","","","","","NA"
"-64.15","63.34","BREVOORT ISLAND","2400565","2019-04-12 10:00","2019","04","12","10:00","-6.1","","-9.4","","78","","","","","M","","M","","M","96.69","","","","","","NA"
"-64.15","63.34","BREVOORT ISLAND","2400565","2019-04-12 11:00","2019","04","12","11:00","-6.2","","-9.3","","78","","","","","M","","M","","M","96.64","","","","","","NA"
"-64.15","63.34","BREVOORT ISLAND","2400565","2019-04-12 12:00","2019","04","12","12:00","-5.9","","-8.9","","79","","","","","M","","M","","M","96.62","","","","","","NA"
"-64.15","63.34","BREVOORT ISLAND","2400565","2019-04-12 13:00","2019","04","12","13:00","-5.8","","-9.1","","77","","","","","M","","M","","M","96.59","","","","","","NA"
"-64.15","63.34","BREVOORT ISLAND","2400565","2019-04-12 14:00","2019","04","12","14:00","-6.6","","-9.5","","80","","","","","M","","M","","M","96.56","","","","","","NA"
"-64.15","63.34","BREVOORT ISLAND","2400565","2019-04-12 15:00","2019","04","12","15:00","-6.6","","-9.5","","80","","","","","M","","M","","M","96.55","","","","","","NA"
"-64.15","63.34","BREVOORT ISLAND","2400565","2019-04-12 16:00","2019","04","12","16:00","-5.6","","-8.8","","78","","","","","M","","M","","M","96.55","","","","","","NA"
"-64.15","63.34","BREVOORT ISLAND","2400565","2019-04-12 17:00","2019","04","12","17:00","-6.4","","-9.3","","79","","","","","M","","M","","M","96.54","","","","","","NA"
"-64.15","63.34","BREVOORT ISLAND","2400565","2019-04-12 18:00","2019","04","12","18:00","-7.4","","-9.8","","83","","","","","M","","M","","M","96.50","","","","","","NA"
"-64.15","63.34","BREVOORT ISLAND","2400565","2019-04-12 19:00","2019","04","12","19:00","-7.5","","-9.4","","87","","","","","M","","M","","M","96.44","","","","","","NA"
"-64.15","63.34","BREVOORT ISLAND","2400565","2019-04-12 20:00","2019","04","12","20:00","-7.8","","-9.8","","85","","","","","M","","M","","M","96.37","","","","","","NA"
"-64.15","63.34","BREVOORT ISLAND","2400565","2019-04-12 21:00","2019","04","12","21:00","-7.4","","-9.6","","84","","","","","M","","M","","M","96.26","","","","","","NA"
"-64.15","63.34","BREVOORT ISLAND","2400565","2019-04-12 22:00","2019","04","12","22:00","-7.8","","-9.8","","85","","","","","M","","M","","M","96.15","","","","","","NA"
"-64.15","63.34","BREVOORT ISLAND","2400565","2019-04-12 23:00","2019","04","12","23:00","-8.2","","-10.1","","86","","","","","M","","M","","M","96.07","","","","","","NA"
"-64.15","63.34","BREVOORT ISLAND","2400565","2019-04-13 00:00","2019","04","13","00:00","-7.7","","-10.2","","82","","","","","M","","M","","M","96.04","","","","","","NA"
"-64.15","63.34","BREVOORT ISLAND","2400565","2019-04-13 01:00","2019","04","13","01:00","-8.1","","-10.5","","83","","","","","M","","M","","M","95.95","","","","","","NA"
"-64.15","63.34","BREVOORT ISLAND","2400565","2019-04-13 02:00","2019","04","13","02:00","-8.3","","-10.9","","81","","","","","M","","M","","M","95.88","","","","","","NA"
"-64.15","63.34","BREVOORT ISLAND","2400565","2019-04-13 03:00","2019","04","13","03:00","-8.9","","-11.6","","80","","","","","M","","M","","M","95.86","","","","","","NA"
"-64.15","63.34","BREVOORT ISLAND","2400565","2019-04-13 04:00","2019","04","13","04:00","-9.8","","-12.3","","82","","","","","M","","M","","M","95.81","","","","","","NA"
"-64.15","63.34","BREVOORT ISLAND","2400565","2019-04-13 05:00","2019","04","13","05:00","-9.8","","-12.4","","81","","","","","M","","M","","M","95.72","","","","","","NA"
"-64.15","63.34","BREVOORT ISLAND","2400565","2019-04-13 06:00","2019","04","13","06:00","-9.4","","-12.9","","75","","","","","M","","M","","M","95.68","","","","","","NA"
"-64.15","63.34","BREVOORT ISLAND","2400565","2019-04-13 07:00","2019","04","13","07:00","-8.2","","-13.5","","65","","","","","M","","M","","M","95.69","","","","","","NA"
"-64.15","63.34","BREVOORT ISLAND","2400565","2019-04-13 08:00","2019","04","13","08:00","-7.8","","-13.8","","62","","","","","M","","M","","M","95.65","","","","","","NA"
"-64.15","63.34","BREVOORT ISLAND","2400565","2019-04-13 09:00","2019","04","13","09:00","-6.8","","-13.3","","60","","","","","M","","M","","M","95.65","","","","","","NA"
"-64.15","63.34","BREVOORT ISLAND","2400565","2019-04-13 10:00","2019","04","13","10:00","-6.6","","-12.7","","62","","","","","M","","M","","M","95.66","","","","","","NA"
"-64.15","63.34","BREVOORT ISLAND","2400565","2019-04-13 11:00","2019","04","13","11:00","-5.1","","-13.2","","53","","","","","M","","M","","M","95.69","","","","","","NA"
"-64.15","63.34","BREVOORT ISLAND","2400565","2019-04-13 12:00","2019","04","13","12:00","-5.6","","-12.7","","57","","","","","M","","M","","M","95.72","","","","","","NA"
"-64.15","63.34","BREVOORT ISLAND","2400565","2019-04-13 13:00","2019","04","13","13:00","-4.9","","-12.4","","56","","","","","M","","M","","M","95.71","","","","","","NA"
"-64.15","63.34","BREVOORT ISLAND","2400565","2019-04-13 14:00","2019","04","13","14:00","-5.7","","-12.0","","61","","","","","M","","M","","M","95.74","","","","","","NA"
"-64.15","63.34","BREVOORT ISLAND","2400565","2019-04-13 15:00","2019","04","13","15:00","-5.6","","-11.3","","64","","","","","M","","M","","M","95.79","","","","","","NA"
"-64.15","63.34","BREVOORT ISLAND","2400565","2019-04-13 16:00","2019","04","13","16:00","-5.5","","-11.6","","62","","","","","M","","M","","M","95.82","","","","","","NA"
"-64.15","63.34","BREVOORT ISLAND","2400565","2019-04-13 17:00","2019","04","13","17:00","-6.7","","-11.8","","67","","","","","M","","M","","M","95.87","","","","","","NA"
"-64.15","63.34","BREVOORT ISLAND","2400565","2019-04-13 18:00","2019","04","13","18:00","-7.5","","-11.9","","70","","","","","M","","M","","M","95.90","","","","","","NA"
"-64.15","63.34","BREVOORT ISLAND","2400565","2019-04-13 19:00","2019","04","13","19:00","-7.6","","-11.9","","71","","","","","M","","M","","M","95.92","","","","","","NA"
"-64.15","63.34","BREVOORT ISLAND","2400565","2019-04-13 20:00","2019","04","13","20:00","-7.9","","-12.4","","70","","","","","M","","M","","M","95.89","","","","","","NA"
"-64.15","63.34","BREVOORT ISLAND","2400565","2019-04-13 21:00","2019","04","13","21:00","-8.6","","-12.0","","76","","","","","M","","M","","M","95.88","","","","","","NA"
"-64.15","63.34","BREVOORT ISLAND","2400565","2019-04-13 22:00","2019","04","13","22:00","-8.5","","-12.3","","74","","","","","M","","M","","M","95.84","","","","","","NA"
"-64.15","63.34","BREVOORT ISLAND","2400565","2019-04-13 23:00","2019","04","13","23:00","-8.8","","-12.2","","77","","","","","M","","M","","M","95.79","","","","","","NA"
"-64.15","63.34","BREVOORT ISLAND","2400565","2019-04-14 00:00","2019","04","14","00:00","-9.2","","-12.3","","77","","","","","M","","M","","M","95.73","","","","","","NA"
"-64.15","63.34","BREVOORT ISLAND","2400565","2019-04-14 01:00","2019","04","14","01:00","-8.6","","-12.3","","75","","","","","M","","M","","M","95.67","","","","","","NA"
"-64.15","63.34","BREVOORT ISLAND","2400565","2019-04-14 02:00","2019","04","14","02:00","-9.1","","-13.0","","73","","","","","M","","M","","M","95.65","","","","","","NA"
"-64.15","63.34","BREVOORT ISLAND","2400565","2019-04-14 03:00","2019","04","14","03:00","-9.0","","-13.1","","72","","","","","M","","M","","M","95.63","","","","","","NA"
"-64.15","63.34","BREVOORT ISLAND","2400565","2019-04-14 04:00","2019","04","14","04:00","-8.1","","-12.7","","69","","","","","M","","M","","M","95.62","","","","","","NA"
"-64.15","63.34","BREVOORT ISLAND","2400565","2019-04-14 05:00","2019","04","14","05:00","-7.8","","-12.2","","71","","","","","M","","M","","M","95.61","","","","","","NA"
"-64.15","63.34","BREVOORT ISLAND","2400565","2019-04-14 06:00","2019","04","14","06:00","-8.1","","-12.4","","71","","","","","M","","M","","M","95.60","","","","","","NA"
"-64.15","63.34","BREVOORT ISLAND","2400565","2019-04-14 07:00","2019","04","14","07:00","-6.8","","-11.2","","71","","","","","M","","M","","M","95.55","","","","","","NA"
"-64.15","63.34","BREVOORT ISLAND","2400565","2019-04-14 08:00","2019","04","14","08:00","-6.8","","-10.7","","74","","","","","M","","M","","M","95.53","","","","","","NA"
"-64.15","63.34","BREVOORT ISLAND","2400565","2019-04-14 09:00","2019","04","14","09:00","-5.8","","-10.1","","71","","","","","M","","M","","M","95.51","","","","","","NA"
"-64.15","63.34","BREVOORT ISLAND","2400565","2019-04-14 10:00","2019","04","14","10:00","-5.0","","-9.2","","72","","","","","M","","M","","M","95.49","","","","","","NA"
"-64.15","63.34","BREVOORT ISLAND","2400565","2019-04-14 11:00","2019","04","14","11:00","-4.8","","-8.7","","74","","","","","M","","M","","M","95.45","","","","","","NA"
"-64.15","63.34","BREVOORT ISLAND","2400565","2019-04-14 12:00","2019","04","14","12:00","-4.5","","-8.1","","76","","","","","M","","M","","M","95.41","","","","","","NA"
"-64.15","63.34","BREVOORT ISLAND","2400565","2019-04-14 13:00","2019","04","14","13:00","-4.0","","-8.0","","74","","","","","M","","M","","M","95.44","","","","","","NA"
"-64.15","63.34","BREVOORT ISLAND","2400565","2019-04-14 14:00","2019","04","14","14:00","-4.8","","-7.8","","79","","","","","M","","M","","M","95.42","","","","","","NA"
"-64.15","63.34","BREVOORT ISLAND","2400565","2019-04-14 15:00","2019","04","14","15:00","-4.7","","-7.5","","81","","","","","M","","M","","M","95.43","","","","","","NA"
"-64.15","63.34","BREVOORT ISLAND","2400565","2019-04-14 16:00","2019","04","14","16:00","-4.6","","-7.6","","80","","","","","M","","M","","M","95.44","","","","","","NA"
"-64.15","63.34","BREVOORT ISLAND","2400565","2019-04-14 17:00","2019","04","14","17:00","-4.4","","-7.6","","79","","","","","M","","M","","M","95.46","","","","","","NA"
"-64.15","63.34","BREVOORT ISLAND","2400565","2019-04-14 18:00","2019","04","14","18:00","-4.8","","-8.0","","77","","","","","M","","M","","M","95.46","","","","","","NA"
"-64.15","63.34","BREVOORT ISLAND","2400565","2019-04-14 19:00","2019","04","14","19:00","-5.2","","-8.4","","78","","","","","M","","M","","M","95.42","","","","","","NA"
"-64.15","63.34","BREVOORT ISLAND","2400565","2019-04-14 20:00","2019","04","14","20:00","-6.1","","-9.4","","77","","","","","M","","M","","M","95.45","","","","","","NA"
"-64.15","63.34","BREVOORT ISLAND","2400565","2019-04-14 21:00","2019","04","14","21:00","-6.5","","-10.1","","76","","","","","M","","M","","M","95.48","","","","","","NA"
"-64.15","63.34","BREVOORT ISLAND","2400565","2019-04-14 22:00","2019","04","14","22:00","-6.2","","-11.1","","68","","","","","M","","M","","M","95.52","","","","","","NA"
"-64.15","63.34","BREVOORT ISLAND","2400565","2019-04-14 23:00","2019","04","14","23:00","-7.3","","-12.5","","67","","","","","M","","M","","M","95.53","","","","","","NA"
"-64.15","63.34","BREVOORT ISLAND","2400565","2019-04-15 00:00","2019","04","15","00:00","-8.1","","-13.2","","66","","","","","M","","M","","M","95.58","","","","","","NA"
"-64.15","63.34","BREVOORT ISLAND","2400565","2019-04-15 01:00","2019","04","15","01:00","-8.1","","-14.1","","62","","","","","M","","M","","M","95.66","","","","","","NA"
"-64.15","63.34","BREVOORT ISLAND","2400565","2019-04-15 02:00","2019","04","15","02:00","-9.0","","-14.5","","64","","","","","M","","M","","M","95.73","","","","","","NA"
"-64.15","63.34","BREVOORT ISLAND","2400565","2019-04-15 03:00","2019","04","15","03:00","-9.4","","-15.0","","63","","","","","M","","M","","M","95.75","","","","","","NA"
"-64.15","63.34","BREVOORT ISLAND","2400565","2019-04-15 04:00","2019","04","15","04:00","-9.9","","-15.9","","62","","","","","M","","M","","M","95.80","","","","","","NA"
"-64.15","63.34","BREVOORT ISLAND","2400565","2019-04-15 05:00","2019","04","15","05:00","-10.0","","-16.8","","58","","","","","M","","M","","M","95.86","","","","","","NA"
"-64.15","63.34","BREVOORT ISLAND","2400565","2019-04-15 06:00","2019","04","15","06:00","-9.2","","-17.3","","52","","","","","M","","M","","M","95.91","","","","","","NA"
"-64.15","63.34","BREVOORT ISLAND","2400565","2019-04-15 07:00","2019","04","15","07:00","-9.0","","-17.6","","50","","","","","M","","M","","M","95.98","","","","","","NA"
"-64.15","63.34","BREVOORT ISLAND","2400565","2019-04-15 08:00","2019","04","15","08:00","-9.5","","-16.7","","56","","","","","M","","M","","M","96.03","","","","","","NA"
"-64.15","63.34","BREVOORT ISLAND","2400565","2019-04-15 09:00","2019","04","15","09:00","-8.8","","-16.2","","55","","","","","M","","M","","M","96.08","","","","","","NA"
"-64.15","63.34","BREVOORT ISLAND","2400565","2019-04-15 10:00","2019","04","15","10:00","-8.0","","-16.3","","52","","","","","M","","M","","M","96.12","","","","","","NA"
"-64.15","63.34","BREVOORT ISLAND","2400565","2019-04-15 11:00","2019","04","15","11:00","-7.6","","-16.7","","48","","","","","M","","M","","M","96.15","","","","","","NA"
"-64.15","63.34","BREVOORT ISLAND","2400565","2019-04-15 12:00","2019","04","15","12:00","-7.6","","-15.6","","52","","","","","M","","M","","M","96.17","","","","","","NA"
"-64.15","63.34","BREVOORT ISLAND","2400565","2019-04-15 13:00","2019","04","15","13:00","-7.6","","-19.7","","37","","","","","M","","M","","M","96.22","","","","","","NA"
"-64.15","63.34","BREVOORT ISLAND","2400565","2019-04-15 14:00","2019","04","15","14:00","-8.9","","-17.4","","50","","","","","M","","M","","M","96.29","","","","","","NA"
"-64.15","63.34","BREVOORT ISLAND","2400565","2019-04-15 15:00","2019","04","15","15:00","-9.1","","-16.4","","55","","","","","M","","M","","M","96.34","","","","","","NA"
"-64.15","63.34","BREVOORT ISLAND","2400565","2019-04-15 16:00","2019","04","15","16:00","-9.3","","-16.9","","54","","","","","M","","M","","M","96.38","","","","","","NA"
"-64.15","63.34","BREVOORT ISLAND","2400565","2019-04-15 17:00","2019","04","15","17:00","-10.2","","-17.5","","55","","","","","M","","M","","M","96.44","","","","","","NA"
"-64.15","63.34","BREVOORT ISLAND","2400565","2019-04-15 18:00","2019","04","15","18:00","-10.3","","-19.2","","48","","","","","M","","M","","M","96.52","","","","","","NA"
"-64.15","63.34","BREVOORT ISLAND","2400565","2019-04-15 19:00","2019","04","15","19:00","-11.3","","-20.1","","48","","","","","M","","M","","M","96.56","","","","","","NA"
"-64.15","63.34","BREVOORT ISLAND","2400565","2019-04-15 20:00","2019","04","15","20:00","-11.0","","-21.2","","43","","","","","M","","M","","M","96.59","","","","","","NA"
"-64.15","63.34","BREVOORT ISLAND","2400565","2019-04-15 21:00","2019","04","15","21:00","-11.7","","-20.3","","48","","","","","M","","M","","M","96.61","","","","","","NA"
"-64.15","63.34","BREVOORT ISLAND","2400565","2019-04-15 22:00","2019","04","15","22:00","-12.7","","-17.3","","68","","","","","M","","M","","M","96.65","","","","","","NA"
"-64.15","63.34","BREVOORT ISLAND","2400565","2019-04-15 23:00","2019","04","15","23:00","-12.2","","-19.4","","55","","","","","M","","M","","M","96.66","","","","","","NA"
"-64.15","63.34","BREVOORT ISLAND","2400565","2019-04-16 00:00","2019","04","16","00:00","-13.6","","-16.9","","76","","","","","M","","M","","M","96.66","","","","","","NA"
"-64.15","63.34","BREVOORT ISLAND","2400565","2019-04-16 01:00","2019","04","16","01:00","-13.9","","-17.2","","76","","","","","M","","M","","M","96.69","","","","","","NA"
"-64.15","63.34","BREVOORT ISLAND","2400565","2019-04-16 02:00","2019","04","16","02:00","-13.7","","-17.2","","75","","","","","M","","M","","M","96.72","","","","","","NA"
"-64.15","63.34","BREVOORT ISLAND","2400565","2019-04-16 03:00","2019","04","16","03:00","-14.4","","-17.3","","79","","","","","M","","M","","M","96.76","","","","","","NA"
"-64.15","63.34","BREVOORT ISLAND","2400565","2019-04-16 04:00","2019","04","16","04:00","-13.5","","-17.3","","73","","","","","M","","M","","M","96.82","","","","","","NA"
"-64.15","63.34","BREVOORT ISLAND","2400565","2019-04-16 05:00","2019","04","16","05:00","-14.4","","-17.3","","79","","","","","M","","M","","M","96.87","","","","","","NA"
"-64.15","63.34","BREVOORT ISLAND","2400565","2019-04-16 06:00","2019","04","16","06:00","-13.8","","-17.2","","75","","","","","M","","M","","M","96.90","","","","","","NA"
"-64.15","63.34","BREVOORT ISLAND","2400565","2019-04-16 07:00","2019","04","16","07:00","-13.1","","-17.5","","70","","","","","M","","M","","M","96.92","","","","","","NA"
"-64.15","63.34","BREVOORT ISLAND","2400565","2019-04-16 08:00","2019","04","16","08:00","-12.7","","-17.8","","66","","","","","M","","M","","M","96.93","","","","","","NA"
"-64.15","63.34","BREVOORT ISLAND","2400565","2019-04-16 09:00","2019","04","16","09:00","-13.2","","-17.8","","68","","","","","M","","M","","M","96.93","","","","","","NA"
"-64.15","63.34","BREVOORT ISLAND","2400565","2019-04-16 10:00","2019","04","16","10:00","-12.4","","-17.6","","65","","","","","M","","M","","M","96.92","","","","","","NA"
"-64.15","63.34","BREVOORT ISLAND","2400565","2019-04-16 11:00","2019","04","16","11:00","-12.3","","-17.1","","67","","","","","M","","M","","M","96.92","","","","","","NA"
"-64.15","63.34","BREVOORT ISLAND","2400565","2019-04-16 12:00","2019","04","16","12:00","-12.7","","-17.3","","69","","","","","M","","M","","M","96.90","","","","","","NA"
"-64.15","63.34","BREVOORT ISLAND","2400565","2019-04-16 13:00","2019","04","16","13:00","-13.2","","-16.2","","78","","","","","M","","M","","M","96.91","","","","","","NA"
"-64.15","63.34","BREVOORT ISLAND","2400565","2019-04-16 14:00","2019","04","16","14:00","-13.9","","-16.6","","80","","","","","M","","M","","M","96.91","","","","","","NA"
"-64.15","63.34","BREVOORT ISLAND","2400565","2019-04-16 15:00","2019","04","16","15:00","-13.9","","-16.2","","82","","","","","M","","M","","M","96.92","","","","","","NA"
"-64.15","63.34","BREVOORT ISLAND","2400565","2019-04-16 16:00","2019","04","16","16:00","-12.9","","-16.0","","77","","","","","M","","M","","M","96.93","","","","","","NA"
"-64.15","63.34","BREVOORT ISLAND","2400565","2019-04-16 17:00","2019","04","16","17:00","-13.7","","-16.9","","77","","","","","M","","M","","M","96.96","","","","","","NA"
"-64.15","63.34","BREVOORT ISLAND","2400565","2019-04-16 18:00","2019","04","16","18:00","-14.8","","-19.4","","68","","","","","M","","M","","M","96.97","","","","","","NA"
"-64.15","63.34","BREVOORT ISLAND","2400565","2019-04-16 19:00","2019","04","16","19:00","-15.0","","-18.0","","78","","","","","M","","M","","M","96.95","","","","","","NA"
"-64.15","63.34","BREVOORT ISLAND","2400565","2019-04-16 20:00","2019","04","16","20:00","-15.1","","-19.0","","72","","","","","M","","M","","M","96.94","","","","","","NA"
"-64.15","63.34","BREVOORT ISLAND","2400565","2019-04-16 21:00","2019","04","16","21:00","-14.8","","-20.7","","60","","","","","M","","M","","M","96.93","","","","","","NA"
"-64.15","63.34","BREVOORT ISLAND","2400565","2019-04-16 22:00","2019","04","16","22:00","-14.6","","-21.7","","55","","","","","M","","M","","M","96.89","","","","","","NA"
"-64.15","63.34","BREVOORT ISLAND","2400565","2019-04-16 23:00","2019","04","16","23:00","-14.6","","-21.6","","55","","","","","M","","M","","M","96.85","","","","","","NA"
"-64.15","63.34","BREVOORT ISLAND","2400565","2019-04-17 00:00","2019","04","17","00:00","-14.8","","-17.4","","80","","","","","M","","M","","M","96.83","","","","","","NA"
"-64.15","63.34","BREVOORT ISLAND","2400565","2019-04-17 01:00","2019","04","17","01:00","-14.9","","-17.1","","84","","","","","M","","M","","M","96.82","","","","","","NA"
"-64.15","63.34","BREVOORT ISLAND","2400565","2019-04-17 02:00","2019","04","17","02:00","-14.9","","-17.1","","84","","","","","M","","M","","M","96.82","","","","","","NA"
"-64.15","63.34","BREVOORT ISLAND","2400565","2019-04-17 03:00","2019","04","17","03:00","-15.7","","-18.8","","77","","","","","M","","M","","M","96.84","","","","","","NA"
"-64.15","63.34","BREVOORT ISLAND","2400565","2019-04-17 04:00","2019","04","17","04:00","-16.4","","-21.2","","66","","","","","M","","M","","M","96.84","","","","","","NA"
"-64.15","63.34","BREVOORT ISLAND","2400565","2019-04-17 05:00","2019","04","17","05:00","-15.7","","-21.1","","63","","","","","M","","M","","M","96.86","","","","","","NA"
"-64.15","63.34","BREVOORT ISLAND","2400565","2019-04-17 06:00","2019","04","17","06:00","-14.9","","-21.4","","57","","","","","M","","M","","M","96.87","","","","","","NA"
"-64.15","63.34","BREVOORT ISLAND","2400565","2019-04-17 07:00","2019","04","17","07:00","-15.2","","-21.1","","60","","","","","M","","M","","M","96.89","","","","","","NA"
"-64.15","63.34","BREVOORT ISLAND","2400565","2019-04-17 08:00","2019","04","17","08:00","-15.5","","-21.0","","62","","","","","M","","M","","M","96.90","","","","","","NA"
"-64.15","63.34","BREVOORT ISLAND","2400565","2019-04-17 09:00","2019","04","17","09:00","-14.3","","-20.4","","60","","","","","M","","M","","M","96.89","","","","","","NA"
"-64.15","63.34","BREVOORT ISLAND","2400565","2019-04-17 10:00","2019","04","17","10:00","-14.9","","-18.8","","72","","","","","M","","M","","M","96.89","","","","","","NA"
"-64.15","63.34","BREVOORT ISLAND","2400565","2019-04-17 11:00","2019","04","17","11:00","-14.8","","-18.3","","75","","","","","M","","M","","M","96.89","","","","","","NA"
"-64.15","63.34","BREVOORT ISLAND","2400565","2019-04-17 12:00","2019","04","17","12:00","-13.6","","-19.5","","61","","","","","M","","M","","M","96.90","","","","","","NA"
"-64.15","63.34","BREVOORT ISLAND","2400565","2019-04-17 13:00","2019","04","17","13:00","-13.2","","-19.7","","58","","","","","M","","M","","M","96.91","","","","","","NA"
"-64.15","63.34","BREVOORT ISLAND","2400565","2019-04-17 14:00","2019","04","17","14:00","-13.6","","-20.3","","57","","","","","M","","M","","M","96.93","","","","","","NA"
"-64.15","63.34","BREVOORT ISLAND","2400565","2019-04-17 15:00","2019","04","17","15:00","-14.3","","-18.4","","71","","","","","M","","M","","M","96.95","","","","","","NA"
"-64.15","63.34","BREVOORT ISLAND","2400565","2019-04-17 16:00","2019","04","17","16:00","-13.7","","-18.9","","65","","","","","M","","M","","M","96.96","","","","","","NA"
"-64.15","63.34","BREVOORT ISLAND","2400565","2019-04-17 17:00","2019","04","17","17:00","-14.0","","-20.5","","58","","","","","M","","M","","M","96.98","","","","","","NA"
"-64.15","63.34","BREVOORT ISLAND","2400565","2019-04-17 18:00","2019","04","17","18:00","-14.9","","-20.7","","61","","","","","M","","M","","M","96.98","","","","","","NA"
"-64.15","63.34","BREVOORT ISLAND","2400565","2019-04-17 19:00","2019","04","17","19:00","-15.6","","-18.7","","77","","","","","M","","M","","M","96.98","","","","","","NA"
"-64.15","63.34","BREVOORT ISLAND","2400565","2019-04-17 20:00","2019","04","17","20:00","-15.8","","-17.9","","84","","","","","M","","M","","M","96.99","","","","","","NA"
"-64.15","63.34","BREVOORT ISLAND","2400565","2019-04-17 21:00","2019","04","17","21:00","-15.9","","-17.5","","87","","","","","M","","M","","M","96.96","","","","","","NA"
"-64.15","63.34","BREVOORT ISLAND","2400565","2019-04-17 22:00","2019","04","17","22:00","-16.0","","-17.7","","87","","","","","M","","M","","M","96.91","","","","","","NA"
"-64.15","63.34","BREVOORT ISLAND","2400565","2019-04-17 23:00","2019","04","17","23:00","-15.6","","-17.3","","87","","","","","M","","M","","M","96.87","","","","","","NA"
"-64.15","63.34","BREVOORT ISLAND","2400565","2019-04-18 00:00","2019","04","18","00:00","-15.4","","-17.0","","87","","","","","M","","M","","M","96.85","","","","","","NA"
"-64.15","63.34","BREVOORT ISLAND","2400565","2019-04-18 01:00","2019","04","18","01:00","-15.1","","-16.7","","88","","","","","M","","M","","M","96.84","","","","","","NA"
"-64.15","63.34","BREVOORT ISLAND","2400565","2019-04-18 02:00","2019","04","18","02:00","-15.4","","-17.0","","88","","","","","M","","M","","M","96.83","","","","","","NA"
"-64.15","63.34","BREVOORT ISLAND","2400565","2019-04-18 03:00","2019","04","18","03:00","-15.3","","-16.9","","88","","","","","M","","M","","M","96.82","","","","","","NA"
"-64.15","63.34","BREVOORT ISLAND","2400565","2019-04-18 04:00","2019","04","18","04:00","-13.9","","-15.3","","89","","","","","M","","M","","M","96.81","","","","","","NA"
"-64.15","63.34","BREVOORT ISLAND","2400565","2019-04-18 05:00","2019","04","18","05:00","-13.8","","-15.3","","89","","","","","M","","M","","M","96.80","","","","","","NA"
"-64.15","63.34","BREVOORT ISLAND","2400565","2019-04-18 06:00","2019","04","18","06:00","-13.1","","-14.6","","89","","","","","M","","M","","M","96.76","","","","","","NA"
"-64.15","63.34","BREVOORT ISLAND","2400565","2019-04-18 07:00","2019","04","18","07:00","-12.3","","-13.8","","89","","","","","M","","M","","M","96.74","","","","","","NA"
"-64.15","63.34","BREVOORT ISLAND","2400565","2019-04-18 08:00","2019","04","18","08:00","-11.3","","-12.9","","88","","","","","M","","M","","M","96.69","","","","","","NA"
"-64.15","63.34","BREVOORT ISLAND","2400565","2019-04-18 09:00","2019","04","18","09:00","-11.0","","-12.9","","86","","","","","M","","M","","M","96.65","","","","","","NA"
"-64.15","63.34","BREVOORT ISLAND","2400565","2019-04-18 10:00","2019","04","18","10:00","-10.4","","-12.8","","82","","","","","M","","M","","M","96.59","","","","","","NA"
"-64.15","63.34","BREVOORT ISLAND","2400565","2019-04-18 11:00","2019","04","18","11:00","-10.4","","-13.1","","80","","","","","M","","M","","M","96.54","","","","","","NA"
"-64.15","63.34","BREVOORT ISLAND","2400565","2019-04-18 12:00","2019","04","18","12:00","-9.9","","-12.4","","82","","","","","M","","M","","M","96.49","","","","","","NA"
"-64.15","63.34","BREVOORT ISLAND","2400565","2019-04-18 13:00","2019","04","18","13:00","-9.6","","-12.0","","83","","","","","M","","M","","M","96.45","","","","","","NA"
"-64.15","63.34","BREVOORT ISLAND","2400565","2019-04-18 14:00","2019","04","18","14:00","-8.5","","-10.7","","83","","","","","M","","M","","M","96.40","","","","","","NA"
"-64.15","63.34","BREVOORT ISLAND","2400565","2019-04-18 15:00","2019","04","18","15:00","-8.7","","-10.6","","86","","","","","M","","M","","M","96.33","","","","","","NA"
"-64.15","63.34","BREVOORT ISLAND","2400565","2019-04-18 16:00","2019","04","18","16:00","-8.5","","-10.1","","88","","","","","M","","M","","M","96.29","","","","","","NA"
"-64.15","63.34","BREVOORT ISLAND","2400565","2019-04-18 17:00","2019","04","18","17:00","-8.4","","-9.8","","90","","","","","M","","M","","M","96.26","","","","","","NA"
"-64.15","63.34","BREVOORT ISLAND","2400565","2019-04-18 18:00","2019","04","18","18:00","-9.0","","-10.3","","90","","","","","M","","M","","M","96.22","","","","","","NA"
"-64.15","63.34","BREVOORT ISLAND","2400565","2019-04-18 19:00","2019","04","18","19:00","-9.1","","-10.3","","91","","","","","M","","M","","M","96.17","","","","","","NA"
"-64.15","63.34","BREVOORT ISLAND","2400565","2019-04-18 20:00","2019","04","18","20:00","-9.1","","-10.3","","91","","","","","M","","M","","M","96.13","","","","","","NA"
"-64.15","63.34","BREVOORT ISLAND","2400565","2019-04-18 21:00","2019","04","18","21:00","-8.8","","-10.0","","91","","","","","M","","M","","M","96.06","","","","","","NA"
"-64.15","63.34","BREVOORT ISLAND","2400565","2019-04-18 22:00","2019","04","18","22:00","-8.8","","-10.0","","91","","","","","M","","M","","M","95.98","","","","","","NA"
"-64.15","63.34","BREVOORT ISLAND","2400565","2019-04-18 23:00","2019","04","18","23:00","-8.6","","-9.8","","91","","","","","M","","M","","M","95.92","","","","","","NA"
"-64.15","63.34","BREVOORT ISLAND","2400565","2019-04-19 00:00","2019","04","19","00:00","-8.8","","-10.0","","91","","","","","M","","M","","M","95.86","","","","","","NA"
"-64.15","63.34","BREVOORT ISLAND","2400565","2019-04-19 01:00","2019","04","19","01:00","-9.0","","-10.2","","91","","","","","M","","M","","M","95.80","","","","","","NA"
"-64.15","63.34","BREVOORT ISLAND","2400565","2019-04-19 02:00","2019","04","19","02:00","-9.1","","-10.3","","91","","","","","M","","M","","M","95.74","","","","","","NA"
"-64.15","63.34","BREVOORT ISLAND","2400565","2019-04-19 03:00","2019","04","19","03:00","-9.3","","-10.4","","91","","","","","M","","M","","M","95.70","","","","","","NA"
"-64.15","63.34","BREVOORT ISLAND","2400565","2019-04-19 04:00","2019","04","19","04:00","-9.4","","-10.6","","91","","","","","M","","M","","M","95.65","","","","","","NA"
"-64.15","63.34","BREVOORT ISLAND","2400565","2019-04-19 05:00","2019","04","19","05:00","-9.5","","-10.8","","90","","","","","M","","M","","M","95.60","","","","","","NA"
"-64.15","63.34","BREVOORT ISLAND","2400565","2019-04-19 06:00","2019","04","19","06:00","-9.6","","-11.0","","89","","","","","M","","M","","M","95.54","","","","","","NA"
"-64.15","63.34","BREVOORT ISLAND","2400565","2019-04-19 07:00","2019","04","19","07:00","-9.7","","-11.3","","88","","","","","M","","M","","M","95.52","","","","","","NA"
"-64.15","63.34","BREVOORT ISLAND","2400565","2019-04-19 08:00","2019","04","19","08:00","-9.8","","-11.5","","87","","","","","M","","M","","M","95.47","","","","","","NA"
"-64.15","63.34","BREVOORT ISLAND","2400565","2019-04-19 09:00","2019","04","19","09:00","-9.4","","-11.4","","85","","","","","M","","M","","M","95.43","","","","","","NA"
"-64.15","63.34","BREVOORT ISLAND","2400565","2019-04-19 10:00","2019","04","19","10:00","-9.0","","-10.9","","86","","","","","M","","M","","M","95.38","","","","","","NA"
"-64.15","63.34","BREVOORT ISLAND","2400565","2019-04-19 11:00","2019","04","19","11:00","-8.9","","-10.6","","87","","","","","M","","M","","M","95.34","","","","","","NA"
"-64.15","63.34","BREVOORT ISLAND","2400565","2019-04-19 12:00","2019","04","19","12:00","-8.3","","-10.2","","85","","","","","M","","M","","M","95.29","","","","","","NA"
"-64.15","63.34","BREVOORT ISLAND","2400565","2019-04-19 13:00","2019","04","19","13:00","-8.0","","-10.0","","86","","","","","M","","M","","M","95.28","","","","","","NA"
"-64.15","63.34","BREVOORT ISLAND","2400565","2019-04-19 14:00","2019","04","19","14:00","-8.2","","-10.1","","86","","","","","M","","M","","M","95.25","","","","","","NA"
"-64.15","63.34","BREVOORT ISLAND","2400565","2019-04-19 15:00","2019","04","19","15:00","-8.7","","-10.3","","88","","","","","M","","M","","M","95.23","","","","","","NA"
"-64.15","63.34","BREVOORT ISLAND","2400565","2019-04-19 16:00","2019","04","19","16:00","-9.0","","-10.4","","90","","","","","M","","M","","M","95.22","","","","","","NA"
"-64.15","63.34","BREVOORT ISLAND","2400565","2019-04-19 17:00","2019","04","19","17:00","-9.1","","-10.4","","90","","","","","M","","M","","M","95.23","","","","","","NA"
"-64.15","63.34","BREVOORT ISLAND","2400565","2019-04-19 18:00","2019","04","19","18:00","-9.3","","-10.7","","90","","","","","M","","M","","M","95.26","","","","","","NA"
"-64.15","63.34","BREVOORT ISLAND","2400565","2019-04-19 19:00","2019","04","19","19:00","-9.5","","-10.7","","91","","","","","M","","M","","M","95.25","","","","","","NA"
"-64.15","63.34","BREVOORT ISLAND","2400565","2019-04-19 20:00","2019","04","19","20:00","-9.7","","-10.8","","91","","","","","M","","M","","M","95.26","","","","","","NA"
"-64.15","63.34","BREVOORT ISLAND","2400565","2019-04-19 21:00","2019","04","19","21:00","-9.8","","-11.1","","91","","","","","M","","M","","M","95.25","","","","","","NA"
"-64.15","63.34","BREVOORT ISLAND","2400565","2019-04-19 22:00","2019","04","19","22:00","-10.0","","-11.2","","91","","","","","M","","M","","M","95.21","","","","","","NA"
"-64.15","63.34","BREVOORT ISLAND","2400565","2019-04-19 23:00","2019","04","19","23:00","-10.1","","-11.4","","90","","","","","M","","M","","M","95.21","","","","","","NA"
"-64.15","63.34","BREVOORT ISLAND","2400565","2019-04-20 00:00","2019","04","20","00:00","-10.2","","-11.5","","90","","","","","M","","M","","M","95.20","","","","","","NA"
"-64.15","63.34","BREVOORT ISLAND","2400565","2019-04-20 01:00","2019","04","20","01:00","-10.1","","-11.5","","90","","","","","M","","M","","M","95.21","","","","","","NA"
"-64.15","63.34","BREVOORT ISLAND","2400565","2019-04-20 02:00","2019","04","20","02:00","-10.1","","-11.5","","90","","","","","M","","M","","M","95.24","","","","","","NA"
"-64.15","63.34","BREVOORT ISLAND","2400565","2019-04-20 03:00","2019","04","20","03:00","-10.2","","-11.6","","89","","","","","M","","M","","M","95.25","","","","","","NA"
"-64.15","63.34","BREVOORT ISLAND","2400565","2019-04-20 04:00","2019","04","20","04:00","-10.2","","-11.6","","89","","","","","M","","M","","M","95.25","","","","","","NA"
"-64.15","63.34","BREVOORT ISLAND","2400565","2019-04-20 05:00","2019","04","20","05:00","-9.8","","-11.2","","89","","","","","M","","M","","M","95.27","","","","","","NA"
"-64.15","63.34","BREVOORT ISLAND","2400565","2019-04-20 06:00","2019","04","20","06:00","-9.7","","-11.4","","88","","","","","M","","M","","M","95.27","","","","","","NA"
"-64.15","63.34","BREVOORT ISLAND","2400565","2019-04-20 07:00","2019","04","20","07:00","-9.0","","-11.0","","85","","","","","M","","M","","M","95.30","","","","","","NA"
"-64.15","63.34","BREVOORT ISLAND","2400565","2019-04-20 08:00","2019","04","20","08:00","-8.1","","-10.5","","83","","","","","M","","M","","M","95.32","","","","","","NA"
"-64.15","63.34","BREVOORT ISLAND","2400565","2019-04-20 09:00","2019","04","20","09:00","-7.3","","-9.9","","82","","","","","M","","M","","M","95.36","","","","","","NA"
"-64.15","63.34","BREVOORT ISLAND","2400565","2019-04-20 10:00","2019","04","20","10:00","-6.7","","-9.6","","79","","","","","M","","M","","M","95.41","","","","","","NA"
"-64.15","63.34","BREVOORT ISLAND","2400565","2019-04-20 11:00","2019","04","20","11:00","-6.2","","-9.2","","79","","","","","M","","M","","M","95.43","","","","","","NA"
"-64.15","63.34","BREVOORT ISLAND","2400565","2019-04-20 12:00","2019","04","20","12:00","-5.5","","-8.8","","78","","","","","M","","M","","M","95.51","","","","","","NA"
"-64.15","63.34","BREVOORT ISLAND","2400565","2019-04-20 13:00","2019","04","20","13:00","-5.7","","-8.9","","78","","","","","M","","M","","M","95.59","","","","","","NA"
"-64.15","63.34","BREVOORT ISLAND","2400565","2019-04-20 14:00","2019","04","20","14:00","-7.5","","-9.8","","83","","","","","M","","M","","M","95.67","","","","","","NA"
"-64.15","63.34","BREVOORT ISLAND","2400565","2019-04-20 15:00","2019","04","20","15:00","-8.8","","-10.5","","87","","","","","M","","M","","M","95.77","","","","","","NA"
"-64.15","63.34","BREVOORT ISLAND","2400565","2019-04-20 16:00","2019","04","20","16:00","-8.7","","-10.6","","86","","","","","M","","M","","M","95.86","","","","","","NA"
"-64.15","63.34","BREVOORT ISLAND","2400565","2019-04-20 17:00","2019","04","20","17:00","-7.9","","-10.3","","83","","","","","M","","M","","M","95.98","","","","","","NA"
"-64.15","63.34","BREVOORT ISLAND","2400565","2019-04-20 18:00","2019","04","20","18:00","-9.1","","-10.6","","89","","","","","M","","M","","M","96.07","","","","","","NA"
"-64.15","63.34","BREVOORT ISLAND","2400565","2019-04-20 19:00","2019","04","20","19:00","-8.8","","-10.5","","87","","","","","M","","M","","M","96.14","","","","","","NA"
"-64.15","63.34","BREVOORT ISLAND","2400565","2019-04-20 20:00","2019","04","20","20:00","-9.1","","-12.1","","78","","","","","M","","M","","M","96.16","","","","","","NA"
"-64.15","63.34","BREVOORT ISLAND","2400565","2019-04-20 21:00","2019","04","20","21:00","-9.9","","-13.2","","76","","","","","M","","M","","M","96.23","","","","","","NA"
"-64.15","63.34","BREVOORT ISLAND","2400565","2019-04-20 22:00","2019","04","20","22:00","-10.1","","-13.5","","76","","","","","M","","M","","M","96.28","","","","","","NA"
"-64.15","63.34","BREVOORT ISLAND","2400565","2019-04-20 23:00","2019","04","20","23:00","-10.0","","-17.6","","53","","","","","M","","M","","M","96.28","","","","","","NA"
"-64.15","63.34","BREVOORT ISLAND","2400565","2019-04-21 00:00","2019","04","21","00:00","-9.4","","-19.1","","45","","","","","M","","M","","M","96.26","","","","","","NA"
"-64.15","63.34","BREVOORT ISLAND","2400565","2019-04-21 01:00","2019","04","21","01:00","-10.3","","-18.6","","50","","","","","M","","M","","M","96.27","","","","","","NA"
"-64.15","63.34","BREVOORT ISLAND","2400565","2019-04-21 02:00","2019","04","21","02:00","-10.6","","-19.3","","48","","","","","M","","M","","M","96.24","","","","","","NA"
"-64.15","63.34","BREVOORT ISLAND","2400565","2019-04-21 03:00","2019","04","21","03:00","-10.0","","-20.2","","43","","","","","M","","M","","M","96.20","","","","","","NA"
"-64.15","63.34","BREVOORT ISLAND","2400565","2019-04-21 04:00","2019","04","21","04:00","-11.3","","-19.1","","52","","","","","M","","M","","M","96.15","","","","","","NA"
"-64.15","63.34","BREVOORT ISLAND","2400565","2019-04-21 05:00","2019","04","21","05:00","-10.6","","-13.1","","82","","","","","M","","M","","M","96.06","","","","","","NA"
"-64.15","63.34","BREVOORT ISLAND","2400565","2019-04-21 06:00","2019","04","21","06:00","-12.3","","-13.9","","88","","","","","M","","M","","M","95.98","","","","","","NA"
"-64.15","63.34","BREVOORT ISLAND","2400565","2019-04-21 07:00","2019","04","21","07:00","-12.7","","-14.6","","86","","","","","M","","M","","M","95.92","","","","","","NA"
"-64.15","63.34","BREVOORT ISLAND","2400565","2019-04-21 08:00","2019","04","21","08:00","-13.1","","-14.5","","89","","","","","M","","M","","M","95.85","","","","","","NA"
"-64.15","63.34","BREVOORT ISLAND","2400565","2019-04-21 09:00","2019","04","21","09:00","-12.1","","-13.6","","89","","","","","M","","M","","M","95.76","","","","","","NA"
"-64.15","63.34","BREVOORT ISLAND","2400565","2019-04-21 10:00","2019","04","21","10:00","-11.7","","-13.3","","88","","","","","M","","M","","M","95.65","","","","","","NA"
"-64.15","63.34","BREVOORT ISLAND","2400565","2019-04-21 11:00","2019","04","21","11:00","-11.6","","-13.1","","88","","","","","M","","M","","M","95.52","","","","","","NA"
"-64.15","63.34","BREVOORT ISLAND","2400565","2019-04-21 12:00","2019","04","21","12:00","-11.5","","-13.1","","88","","","","","M","","M","","M","95.42","","","","","","NA"
"-64.15","63.34","BREVOORT ISLAND","2400565","2019-04-21 13:00","2019","04","21","13:00","-11.6","","-13.3","","87","","","","","M","","M","","M","95.36","","","","","","NA"
"-64.15","63.34","BREVOORT ISLAND","2400565","2019-04-21 14:00","2019","04","21","14:00","-11.9","","-13.5","","87","","","","","M","","M","","M","95.32","","","","","","NA"
"-64.15","63.34","BREVOORT ISLAND","2400565","2019-04-21 15:00","2019","04","21","15:00","-12.4","","-13.9","","88","","","","","M","","M","","M","95.26","","","","","","NA"
"-64.15","63.34","BREVOORT ISLAND","2400565","2019-04-21 16:00","2019","04","21","16:00","-13.0","","-14.4","","89","","","","","M","","M","","M","95.25","","","","","","NA"
"-64.15","63.34","BREVOORT ISLAND","2400565","2019-04-21 17:00","2019","04","21","17:00","-13.1","","-14.5","","89","","","","","M","","M","","M","95.27","","","","","","NA"
"-64.15","63.34","BREVOORT ISLAND","2400565","2019-04-21 18:00","2019","04","21","18:00","-13.6","","-15.0","","89","","","","","M","","M","","M","95.27","","","","","","NA"
"-64.15","63.34","BREVOORT ISLAND","2400565","2019-04-21 19:00","2019","04","21","19:00","-13.9","","-15.3","","89","","","","","M","","M","","M","95.29","","","","","","NA"
"-64.15","63.34","BREVOORT ISLAND","2400565","2019-04-21 20:00","2019","04","21","20:00","-14.0","","-15.5","","88","","","","","M","","M","","M","95.31","","","","","","NA"
"-64.15","63.34","BREVOORT ISLAND","2400565","2019-04-21 21:00","2019","04","21","21:00","-14.1","","-15.7","","87","","","","","M","","M","","M","95.33","","","","","","NA"
"-64.15","63.34","BREVOORT ISLAND","2400565","2019-04-21 22:00","2019","04","21","22:00","-13.9","","-16.2","","83","","","","","M","","M","","M","95.35","","","","","","NA"
"-64.15","63.34","BREVOORT ISLAND","2400565","2019-04-21 23:00","2019","04","21","23:00","-14.2","","-17.7","","74","","","","","M","","M","","M","95.37","","","","","","NA"
"-64.15","63.34","BREVOORT ISLAND","2400565","2019-04-22 00:00","2019","04","22","00:00","-14.5","","-20.1","","62","","","","","M","","M","","M","95.43","","","","","","NA"
"-64.15","63.34","BREVOORT ISLAND","2400565","2019-04-22 01:00","2019","04","22","01:00","-14.9","","-21.2","","59","","","","","M","","M","","M","95.51","","","","","","NA"
"-64.15","63.34","BREVOORT ISLAND","2400565","2019-04-22 02:00","2019","04","22","02:00","-15.3","","-23.0","","52","","","","","M","","M","","M","95.59","","","","","","NA"
"-64.15","63.34","BREVOORT ISLAND","2400565","2019-04-22 03:00","2019","04","22","03:00","-14.8","","-24.8","","42","","","","","M","","M","","M","95.63","","","","","","NA"
"-64.15","63.34","BREVOORT ISLAND","2400565","2019-04-22 04:00","2019","04","22","04:00","-15.2","","-24.9","","43","","","","","M","","M","","M","95.65","","","","","","NA"
"-64.15","63.34","BREVOORT ISLAND","2400565","2019-04-22 05:00","2019","04","22","05:00","-15.1","","-24.9","","42","","","","","M","","M","","M","95.72","","","","","","NA"
"-64.15","63.34","BREVOORT ISLAND","2400565","2019-04-22 06:00","2019","04","22","06:00","-14.8","","-24.8","","42","","","","","M","","M","","M","95.75","","","","","","NA"
"-64.15","63.34","BREVOORT ISLAND","2400565","2019-04-22 07:00","2019","04","22","07:00","-14.5","","-24.7","","42","","","","","M","","M","","M","95.81","","","","","","NA"
"-64.15","63.34","BREVOORT ISLAND","2400565","2019-04-22 08:00","2019","04","22","08:00","-13.7","","-24.1","","41","","","","","M","","M","","M","95.84","","","","","","NA"
"-64.15","63.34","BREVOORT ISLAND","2400565","2019-04-22 09:00","2019","04","22","09:00","-13.3","","-23.7","","41","","","","","M","","M","","M","95.88","","","","","","NA"
"-64.15","63.34","BREVOORT ISLAND","2400565","2019-04-22 10:00","2019","04","22","10:00","-13.2","","-22.3","","46","","","","","M","","M","","M","95.87","","","","","","NA"
"-64.15","63.34","BREVOORT ISLAND","2400565","2019-04-22 11:00","2019","04","22","11:00","-13.9","","-20.8","","55","","","","","M","","M","","M","95.90","","","","","","NA"
"-64.15","63.34","BREVOORT ISLAND","2400565","2019-04-22 12:00","2019","04","22","12:00","-12.8","","-19.9","","55","","","","","M","","M","","M","95.93","","","","","","NA"
"-64.15","63.34","BREVOORT ISLAND","2400565","2019-04-22 13:00","2019","04","22","13:00","-14.4","","-19.3","","66","","","","","M","","M","","M","95.96","","","","","","NA"
"-64.15","63.34","BREVOORT ISLAND","2400565","2019-04-22 14:00","2019","04","22","14:00","-14.0","","-17.8","","73","","","","","M","","M","","M","95.98","","","","","","NA"
"-64.15","63.34","BREVOORT ISLAND","2400565","2019-04-22 15:00","2019","04","22","15:00","-14.6","","-18.2","","74","","","","","M","","M","","M","96.02","","","","","","NA"
"-64.15","63.34","BREVOORT ISLAND","2400565","2019-04-22 16:00","2019","04","22","16:00","-13.8","","-18.0","","70","","","","","M","","M","","M","96.06","","","","","","NA"
"-64.15","63.34","BREVOORT ISLAND","2400565","2019-04-22 17:00","2019","04","22","17:00","-15.5","","-20.5","","65","","","","","M","","M","","M","96.08","","","","","","NA"
"-64.15","63.34","BREVOORT ISLAND","2400565","2019-04-22 18:00","2019","04","22","18:00","-17.0","","-20.9","","72","","","","","M","","M","","M","96.11","","","","","","NA"
"-64.15","63.34","BREVOORT ISLAND","2400565","2019-04-22 19:00","2019","04","22","19:00","-17.3","","-21.4","","70","","","","","M","","M","","M","96.19","","","","","","NA"
"-64.15","63.34","BREVOORT ISLAND","2400565","2019-04-22 20:00","2019","04","22","20:00","-17.0","","-21.3","","69","","","","","M","","M","","M","96.16","","","","","","NA"
"-64.15","63.34","BREVOORT ISLAND","2400565","2019-04-22 21:00","2019","04","22","21:00","-17.5","","-21.6","","70","","","","","M","","M","","M","96.15","","","","","","NA"
"-64.15","63.34","BREVOORT ISLAND","2400565","2019-04-22 22:00","2019","04","22","22:00","-17.8","","-21.5","","72","","","","","M","","M","","M","96.15","","","","","","NA"
"-64.15","63.34","BREVOORT ISLAND","2400565","2019-04-22 23:00","2019","04","22","23:00","-18.1","","-21.4","","75","","","","","M","","M","","M","96.17","","","","","","NA"
"-64.15","63.34","BREVOORT ISLAND","2400565","2019-04-23 00:00","2019","04","23","00:00","-18.2","","-21.5","","75","","","","","M","","M","","M","96.15","","","","","","NA"
"-64.15","63.34","BREVOORT ISLAND","2400565","2019-04-23 01:00","2019","04","23","01:00","-18.4","","-21.7","","75","","","","","M","","M","","M","96.15","","","","","","NA"
"-64.15","63.34","BREVOORT ISLAND","2400565","2019-04-23 02:00","2019","04","23","02:00","-18.6","","-21.8","","75","","","","","M","","M","","M","96.17","","","","","","NA"
"-64.15","63.34","BREVOORT ISLAND","2400565","2019-04-23 03:00","2019","04","23","03:00","-19.1","","-22.7","","73","","","","","M","","M","","M","96.17","","","","","","NA"
"-64.15","63.34","BREVOORT ISLAND","2400565","2019-04-23 04:00","2019","04","23","04:00","-20.9","","-24.8","","71","","","","","M","","M","","M","96.17","","","","","","NA"
"-64.15","63.34","BREVOORT ISLAND","2400565","2019-04-23 05:00","2019","04","23","05:00","-21.6","","-25.9","","68","","","","","M","","M","","M","96.23","","","","","","NA"
"-64.15","63.34","BREVOORT ISLAND","2400565","2019-04-23 06:00","2019","04","23","06:00","-21.0","","-25.3","","68","","","","","M","","M","","M","96.31","","","","","","NA"
"-64.15","63.34","BREVOORT ISLAND","2400565","2019-04-23 07:00","2019","04","23","07:00","-19.8","","-24.5","","66","","","","","M","","M","","M","96.42","","","","","","NA"
"-64.15","63.34","BREVOORT ISLAND","2400565","2019-04-23 08:00","2019","04","23","08:00","-18.9","","-23.5","","67","","","","","M","","M","","M","82.72","","","","","","NA"
"-64.15","63.34","BREVOORT ISLAND","2400565","2019-04-23 09:00","2019","04","23","09:00","-18.5","","-23.2","","66","","","","","M","","M","","M","96.57","","","","","","NA"
"-64.15","63.34","BREVOORT ISLAND","2400565","2019-04-23 10:00","2019","04","23","10:00","-18.6","","-23.3","","67","","","","","M","","M","","M","96.61","","","","","","NA"
"-64.15","63.34","BREVOORT ISLAND","2400565","2019-04-23 11:00","2019","04","23","11:00","-18.1","","-22.7","","67","","","","","M","","M","","M","96.64","","","","","","NA"
"-64.15","63.34","BREVOORT ISLAND","2400565","2019-04-23 12:00","2019","04","23","12:00","-17.8","","-22.7","","66","","","","","M","","M","","M","96.75","","","","","","NA"
"-64.15","63.34","BREVOORT ISLAND","2400565","2019-04-23 13:00","2019","04","23","13:00","-17.2","","-22.3","","65","","","","","M","","M","","M","96.81","","","","","","NA"
"-64.15","63.34","BREVOORT ISLAND","2400565","2019-04-23 14:00","2019","04","23","14:00","-17.3","","-22.3","","65","","","","","M","","M","","M","96.85","","","","","","NA"
"-64.15","63.34","BREVOORT ISLAND","2400565","2019-04-23 15:00","2019","04","23","15:00","-17.2","","-22.2","","65","","","","","M","","M","","M","96.92","","","","","","NA"
"-64.15","63.34","BREVOORT ISLAND","2400565","2019-04-23 16:00","2019","04","23","16:00","-16.9","","-22.7","","60","","","","","M","","M","","M","96.98","","","","","","NA"
"-64.15","63.34","BREVOORT ISLAND","2400565","2019-04-23 17:00","2019","04","23","17:00","-17.5","","-23.0","","62","","","","","M","","M","","M","96.97","","","","","","NA"
"-64.15","63.34","BREVOORT ISLAND","2400565","2019-04-23 18:00","2019","04","23","18:00","-18.0","","-22.6","","67","","","","","M","","M","","M","96.98","","","","","","NA"
"-64.15","63.34","BREVOORT ISLAND","2400565","2019-04-23 19:00","2019","04","23","19:00","-19.0","","-23.4","","68","","","","","M","","M","","M","97.02","","","","","","NA"
"-64.15","63.34","BREVOORT ISLAND","2400565","2019-04-23 20:00","2019","04","23","20:00","-19.1","","-23.5","","68","","","","","M","","M","","M","96.99","","","","","","NA"
"-64.15","63.34","BREVOORT ISLAND","2400565","2019-04-23 21:00","2019","04","23","21:00","-19.2","","-23.5","","68","","","","","M","","M","","M","96.97","","","","","","NA"
"-64.15","63.34","BREVOORT ISLAND","2400565","2019-04-23 22:00","2019","04","23","22:00","-19.7","","-24.3","","66","","","","","M","","M","","M","96.96","","","","","","NA"
"-64.15","63.34","BREVOORT ISLAND","2400565","2019-04-23 23:00","2019","04","23","23:00","-20.0","","-24.8","","66","","","","","M","","M","","M","96.94","","","","","","NA"
"-64.15","63.34","BREVOORT ISLAND","2400565","2019-04-24 00:00","2019","04","24","00:00","-19.8","","-25.3","","61","","","","","M","","M","","M","96.91","","","","","","NA"
"-64.15","63.34","BREVOORT ISLAND","2400565","2019-04-24 01:00","2019","04","24","01:00","-19.9","","-25.4","","61","","","","","M","","M","","M","96.92","","","","","","NA"
"-64.15","63.34","BREVOORT ISLAND","2400565","2019-04-24 02:00","2019","04","24","02:00","-20.2","","-25.8","","61","","","","","M","","M","","M","96.93","","","","","","NA"
"-64.15","63.34","BREVOORT ISLAND","2400565","2019-04-24 03:00","2019","04","24","03:00","-20.2","","-25.8","","61","","","","","M","","M","","M","96.93","","","","","","NA"
"-64.15","63.34","BREVOORT ISLAND","2400565","2019-04-24 04:00","2019","04","24","04:00","-19.6","","-25.7","","58","","","","","M","","M","","M","96.94","","","","","","NA"
"-64.15","63.34","BREVOORT ISLAND","2400565","2019-04-24 05:00","2019","04","24","05:00","-18.7","","-25.4","","55","","","","","M","","M","","M","96.91","","","","","","NA"
"-64.15","63.34","BREVOORT ISLAND","2400565","2019-04-24 06:00","2019","04","24","06:00","-18.3","","-24.2","","60","","","","","M","","M","","M","96.93","","","","","","NA"
"-64.15","63.34","BREVOORT ISLAND","2400565","2019-04-24 07:00","2019","04","24","07:00","-17.5","","-23.2","","61","","","","","M","","M","","M","96.92","","","","","","NA"
"-64.15","63.34","BREVOORT ISLAND","2400565","2019-04-24 08:00","2019","04","24","08:00","-16.1","","-22.6","","57","","","","","M","","M","","M","96.92","","","","","","NA"
"-64.15","63.34","BREVOORT ISLAND","2400565","2019-04-24 09:00","2019","04","24","09:00","-15.3","","-21.5","","59","","","","","M","","M","","M","96.92","","","","","","NA"
"-64.15","63.34","BREVOORT ISLAND","2400565","2019-04-24 10:00","2019","04","24","10:00","-15.3","","-20.8","","63","","","","","M","","M","","M","96.90","","","","","","NA"
"-64.15","63.34","BREVOORT ISLAND","2400565","2019-04-24 11:00","2019","04","24","11:00","-14.6","","-20.5","","61","","","","","M","","M","","M","96.91","","","","","","NA"
"-64.15","63.34","BREVOORT ISLAND","2400565","2019-04-24 12:00","2019","04","24","12:00","-14.2","","-20.1","","61","","","","","M","","M","","M","96.91","","","","","","NA"
"-64.15","63.34","BREVOORT ISLAND","2400565","2019-04-24 13:00","2019","04","24","13:00","-13.9","","-19.3","","63","","","","","M","","M","","M","96.90","","","","","","NA"
"-64.15","63.34","BREVOORT ISLAND","2400565","2019-04-24 14:00","2019","04","24","14:00","-14.5","","-19.6","","65","","","","","M","","M","","M","96.92","","","","","","NA"
"-64.15","63.34","BREVOORT ISLAND","2400565","2019-04-24 15:00","2019","04","24","15:00","-14.1","","-19.4","","64","","","","","M","","M","","M","96.91","","","","","","NA"
"-64.15","63.34","BREVOORT ISLAND","2400565","2019-04-24 16:00","2019","04","24","16:00","-13.2","","-18.7","","63","","","","","M","","M","","M","96.96","","","","","","NA"
"-64.15","63.34","BREVOORT ISLAND","2400565","2019-04-24 17:00","2019","04","24","17:00","-13.8","","-18.4","","68","","","","","M","","M","","M","96.98","","","","","","NA"
"-64.15","63.34","BREVOORT ISLAND","2400565","2019-04-24 18:00","2019","04","24","18:00","-14.2","","-18.8","","68","","","","","M","","M","","M","96.99","","","","","","NA"
"-64.15","63.34","BREVOORT ISLAND","2400565","2019-04-24 19:00","2019","04","24","19:00","-15.0","","-18.8","","73","","","","","M","","M","","M","97.00","","","","","","NA"
"-64.15","63.34","BREVOORT ISLAND","2400565","2019-04-24 20:00","2019","04","24","20:00","-14.7","","-18.1","","75","","","","","M","","M","","M","97.01","","","","","","NA"
"-64.15","63.34","BREVOORT ISLAND","2400565","2019-04-24 21:00","2019","04","24","21:00","-14.9","","-18.4","","75","","","","","M","","M","","M","97.00","","","","","","NA"
"-64.15","63.34","BREVOORT ISLAND","2400565","2019-04-24 22:00","2019","04","24","22:00","-14.9","","-18.0","","77","","","","","M","","M","","M","96.99","","","","","","NA"
"-64.15","63.34","BREVOORT ISLAND","2400565","2019-04-24 23:00","2019","04","24","23:00","-14.9","","-18.4","","74","","","","","M","","M","","M","96.98","","","","","","NA"
"-64.15","63.34","BREVOORT ISLAND","2400565","2019-04-25 00:00","2019","04","25","00:00","-14.8","","-18.1","","76","","","","","M","","M","","M","96.94","","","","","","NA"
"-64.15","63.34","BREVOORT ISLAND","2400565","2019-04-25 01:00","2019","04","25","01:00","-14.9","","-18.0","","77","","","","","M","","M","","M","96.92","","","","","","NA"
"-64.15","63.34","BREVOORT ISLAND","2400565","2019-04-25 02:00","2019","04","25","02:00","-14.9","","-16.8","","86","","","","","M","","M","","M","96.89","","","","","","NA"
"-64.15","63.34","BREVOORT ISLAND","2400565","2019-04-25 03:00","2019","04","25","03:00","-14.8","","-16.3","","88","","","","","M","","M","","M","96.86","","","","","","NA"
"-64.15","63.34","BREVOORT ISLAND","2400565","2019-04-25 04:00","2019","04","25","04:00","-13.7","","-15.0","","89","","","","","M","","M","","M","96.82","","","","","","NA"
"-64.15","63.34","BREVOORT ISLAND","2400565","2019-04-25 05:00","2019","04","25","05:00","-13.3","","-14.6","","89","","","","","M","","M","","M","96.82","","","","","","NA"
"-64.15","63.34","BREVOORT ISLAND","2400565","2019-04-25 06:00","2019","04","25","06:00","-12.8","","-14.1","","90","","","","","M","","M","","M","96.79","","","","","","NA"
"-64.15","63.34","BREVOORT ISLAND","2400565","2019-04-25 07:00","2019","04","25","07:00","-12.5","","-13.9","","89","","","","","M","","M","","M","96.77","","","","","","NA"
"-64.15","63.34","BREVOORT ISLAND","2400565","2019-04-25 08:00","2019","04","25","08:00","-12.2","","-13.7","","88","","","","","M","","M","","M","96.71","","","","","","NA"
"-64.15","63.34","BREVOORT ISLAND","2400565","2019-04-25 09:00","2019","04","25","09:00","-11.3","","-13.1","","87","","","","","M","","M","","M","96.68","","","","","","NA"
"-64.15","63.34","BREVOORT ISLAND","2400565","2019-04-25 10:00","2019","04","25","10:00","-10.2","","-12.2","","86","","","","","M","","M","","M","96.65","","","","","","NA"
"-64.15","63.34","BREVOORT ISLAND","2400565","2019-04-25 11:00","2019","04","25","11:00","-9.7","","-11.8","","85","","","","","M","","M","","M","96.62","","","","","","NA"
"-64.15","63.34","BREVOORT ISLAND","2400565","2019-04-25 12:00","2019","04","25","12:00","-8.7","","-10.9","","84","","","","","M","","M","","M","96.60","","","","","","NA"
"-64.15","63.34","BREVOORT ISLAND","2400565","2019-04-25 13:00","2019","04","25","13:00","-7.9","","-10.2","","84","","","","","M","","M","","M","96.59","","","","","","NA"
"-64.15","63.34","BREVOORT ISLAND","2400565","2019-04-25 14:00","2019","04","25","14:00","-7.7","","-9.7","","86","","","","","M","","M","","M","96.55","","","","","","NA"
"-64.15","63.34","BREVOORT ISLAND","2400565","2019-04-25 15:00","2019","04","25","15:00","-8.3","","-10.0","","88","","","","","M","","M","","M","96.52","","","","","","NA"
"-64.15","63.34","BREVOORT ISLAND","2400565","2019-04-25 16:00","2019","04","25","16:00","-8.1","","-9.7","","89","","","","","M","","M","","M","96.54","","","","","","NA"
"-64.15","63.34","BREVOORT ISLAND","2400565","2019-04-25 17:00","2019","04","25","17:00","-7.8","","-9.3","","89","","","","","M","","M","","M","96.55","","","","","","NA"
"-64.15","63.34","BREVOORT ISLAND","2400565","2019-04-25 18:00","2019","04","25","18:00","-8.5","","-9.9","","89","","","","","M","","M","","M","96.55","","","","","","NA"
"-64.15","63.34","BREVOORT ISLAND","2400565","2019-04-25 19:00","2019","04","25","19:00","-8.9","","-10.1","","91","","","","","M","","M","","M","96.56","","","","","","NA"
"-64.15","63.34","BREVOORT ISLAND","2400565","2019-04-25 20:00","2019","04","25","20:00","-8.8","","-9.9","","92","","","","","M","","M","","M","96.54","","","","","","NA"
"-64.15","63.34","BREVOORT ISLAND","2400565","2019-04-25 21:00","2019","04","25","21:00","-8.7","","-9.7","","92","","","","","M","","M","","M","96.55","","","","","","NA"
"-64.15","63.34","BREVOORT ISLAND","2400565","2019-04-25 22:00","2019","04","25","22:00","-8.4","","-9.4","","92","","","","","M","","M","","M","96.51","","","","","","NA"
"-64.15","63.34","BREVOORT ISLAND","2400565","2019-04-25 23:00","2019","04","25","23:00","-8.4","","-9.4","","92","","","","","M","","M","","M","96.47","","","","","","NA"
"-64.15","63.34","BREVOORT ISLAND","2400565","2019-04-26 00:00","2019","04","26","00:00","-8.4","","-9.4","","92","","","","","M","","M","","M","96.45","","","","","","NA"
"-64.15","63.34","BREVOORT ISLAND","2400565","2019-04-26 01:00","2019","04","26","01:00","-8.4","","-9.4","","92","","","","","M","","M","","M","96.43","","","","","","NA"
"-64.15","63.34","BREVOORT ISLAND","2400565","2019-04-26 02:00","2019","04","26","02:00","-8.4","","-9.5","","92","","","","","M","","M","","M","96.42","","","","","","NA"
"-64.15","63.34","BREVOORT ISLAND","2400565","2019-04-26 03:00","2019","04","26","03:00","-8.4","","-9.5","","92","","","","","M","","M","","M","96.39","","","","","","NA"
"-64.15","63.34","BREVOORT ISLAND","2400565","2019-04-26 04:00","2019","04","26","04:00","-6.6","","-7.7","","92","","","","","M","","M","","M","96.38","","","","","","NA"
"-64.15","63.34","BREVOORT ISLAND","2400565","2019-04-26 05:00","2019","04","26","05:00","-5.4","","-7.2","","87","","","","","M","","M","","M","96.40","","","","","","NA"
"-64.15","63.34","BREVOORT ISLAND","2400565","2019-04-26 06:00","2019","04","26","06:00","-4.2","","-6.7","","82","","","","","M","","M","","M","96.42","","","","","","NA"
"-64.15","63.34","BREVOORT ISLAND","2400565","2019-04-26 07:00","2019","04","26","07:00","-4.1","","-6.4","","84","","","","","M","","M","","M","96.44","","","","","","NA"
"-64.15","63.34","BREVOORT ISLAND","2400565","2019-04-26 08:00","2019","04","26","08:00","-4.4","","-6.5","","85","","","","","M","","M","","M","96.48","","","","","","NA"
"-64.15","63.34","BREVOORT ISLAND","2400565","2019-04-26 09:00","2019","04","26","09:00","-4.5","","-6.7","","85","","","","","M","","M","","M","96.49","","","","","","NA"
"-64.15","63.34","BREVOORT ISLAND","2400565","2019-04-26 10:00","2019","04","26","10:00","-3.5","","-6.9","","77","","","","","M","","M","","M","96.51","","","","","","NA"
"-64.15","63.34","BREVOORT ISLAND","2400565","2019-04-26 11:00","2019","04","26","11:00","-3.0","","-6.9","","74","","","","","M","","M","","M","96.52","","","","","","NA"
"-64.15","63.34","BREVOORT ISLAND","2400565","2019-04-26 12:00","2019","04","26","12:00","-2.8","","-6.8","","74","","","","","M","","M","","M","96.53","","","","","","NA"
"-64.15","63.34","BREVOORT ISLAND","2400565","2019-04-26 13:00","2019","04","26","13:00","-2.2","","-6.9","","71","","","","","M","","M","","M","96.55","","","","","","NA"
"-64.15","63.34","BREVOORT ISLAND","2400565","2019-04-26 14:00","2019","04","26","14:00","-3.2","","-6.9","","76","","","","","M","","M","","M","96.57","","","","","","NA"
"-64.15","63.34","BREVOORT ISLAND","2400565","2019-04-26 15:00","2019","04","26","15:00","-1.6","","-7.0","","67","","","","","M","","M","","M","96.61","","","","","","NA"
"-64.15","63.34","BREVOORT ISLAND","2400565","2019-04-26 16:00","2019","04","26","16:00","-2.3","","-6.2","","74","","","","","M","","M","","M","96.64","","","","","","NA"
"-64.15","63.34","BREVOORT ISLAND","2400565","2019-04-26 17:00","2019","04","26","17:00","-3.5","","-4.7","","91","","","","","M","","M","","M","96.67","","","","","","NA"
"-64.15","63.34","BREVOORT ISLAND","2400565","2019-04-26 18:00","2019","04","26","18:00","-3.8","","-4.5","","95","","","","","M","","M","","M","96.71","","","","","","NA"
"-64.15","63.34","BREVOORT ISLAND","2400565","2019-04-26 19:00","2019","04","26","19:00","-3.9","","-4.5","","95","","","","","M","","M","","M","96.73","","","","","","NA"
"-64.15","63.34","BREVOORT ISLAND","2400565","2019-04-26 20:00","2019","04","26","20:00","-3.6","","-4.2","","95","","","","","M","","M","","M","96.76","","","","","","NA"
"-64.15","63.34","BREVOORT ISLAND","2400565","2019-04-26 21:00","2019","04","26","21:00","-3.4","","-4.5","","92","","","","","M","","M","","M","96.76","","","","","","NA"
"-64.15","63.34","BREVOORT ISLAND","2400565","2019-04-26 22:00","2019","04","26","22:00","-2.9","","-6.7","","75","","","","","M","","M","","M","96.78","","","","","","NA"
"-64.15","63.34","BREVOORT ISLAND","2400565","2019-04-26 23:00","2019","04","26","23:00","-3.0","","-6.9","","74","","","","","M","","M","","M","96.80","","","","","","NA"
"-64.15","63.34","BREVOORT ISLAND","2400565","2019-04-27 00:00","2019","04","27","00:00","-2.9","","-7.1","","73","","","","","M","","M","","M","96.82","","","","","","NA"
"-64.15","63.34","BREVOORT ISLAND","2400565","2019-04-27 01:00","2019","04","27","01:00","-2.9","","-8.8","","64","","","","","M","","M","","M","96.86","","","","","","NA"
"-64.15","63.34","BREVOORT ISLAND","2400565","2019-04-27 02:00","2019","04","27","02:00","-2.2","","-8.9","","60","","","","","M","","M","","M","96.90","","","","","","NA"
"-64.15","63.34","BREVOORT ISLAND","2400565","2019-04-27 03:00","2019","04","27","03:00","-2.9","","-9.8","","59","","","","","M","","M","","M","96.92","","","","","","NA"
"-64.15","63.34","BREVOORT ISLAND","2400565","2019-04-27 04:00","2019","04","27","04:00","-2.3","","-10.0","","55","","","","","M","","M","","M","96.95","","","","","","NA"
"-64.15","63.34","BREVOORT ISLAND","2400565","2019-04-27 05:00","2019","04","27","05:00","-1.6","","-9.7","","54","","","","","M","","M","","M","96.99","","","","","","NA"
"-64.15","63.34","BREVOORT ISLAND","2400565","2019-04-27 06:00","2019","04","27","06:00","-0.3","","-10.1","","48","","","","","M","","M","","M","97.03","","","","","","NA"
"-64.15","63.34","BREVOORT ISLAND","2400565","2019-04-27 07:00","2019","04","27","07:00","-0.4","","-9.8","","49","","","","","M","","M","","M","97.07","","","","","","NA"
"-64.15","63.34","BREVOORT ISLAND","2400565","2019-04-27 08:00","2019","04","27","08:00","-1.6","","-8.6","","59","","","","","M","","M","","M","97.14","","","","","","NA"
"-64.15","63.34","BREVOORT ISLAND","2400565","2019-04-27 09:00","2019","04","27","09:00","-2.3","","-7.6","","67","","","","","M","","M","","M","97.17","","","","","","NA"
"-64.15","63.34","BREVOORT ISLAND","2400565","2019-04-27 10:00","2019","04","27","10:00","-3.1","","-6.6","","77","","","","","M","","M","","M","97.19","","","","","","NA"
"-64.15","63.34","BREVOORT ISLAND","2400565","2019-04-27 11:00","2019","04","27","11:00","-2.0","","-6.1","","74","","","","","M","","M","","M","97.21","","","","","","NA"
"-64.15","63.34","BREVOORT ISLAND","2400565","2019-04-27 12:00","2019","04","27","12:00","-3.5","","-6.7","","79","","","","","M","","M","","M","97.20","","","","","","NA"
"-64.15","63.34","BREVOORT ISLAND","2400565","2019-04-27 13:00","2019","04","27","13:00","-4.0","","-6.6","","82","","","","","M","","M","","M","97.21","","","","","","NA"
"-64.15","63.34","BREVOORT ISLAND","2400565","2019-04-27 14:00","2019","04","27","14:00","-6.1","","-7.2","","92","","","","","M","","M","","M","97.23","","","","","","NA"
"-64.15","63.34","BREVOORT ISLAND","2400565","2019-04-27 15:00","2019","04","27","15:00","-5.2","","-5.9","","94","","","","","M","","M","","M","97.24","","","","","","NA"
"-64.15","63.34","BREVOORT ISLAND","2400565","2019-04-27 16:00","2019","04","27","16:00","-5.0","","-5.8","","94","","","","","M","","M","","M","97.24","","","","","","NA"
"-64.15","63.34","BREVOORT ISLAND","2400565","2019-04-27 17:00","2019","04","27","17:00","-5.3","","-6.1","","94","","","","","M","","M","","M","97.29","","","","","","NA"
"-64.15","63.34","BREVOORT ISLAND","2400565","2019-04-27 18:00","2019","04","27","18:00","-5.4","","-6.1","","94","","","","","M","","M","","M","97.31","","","","","","NA"
"-64.15","63.34","BREVOORT ISLAND","2400565","2019-04-27 19:00","2019","04","27","19:00","-5.9","","-6.5","","95","","","","","M","","M","","M","97.32","","","","","","NA"
"-64.15","63.34","BREVOORT ISLAND","2400565","2019-04-27 20:00","2019","04","27","20:00","-6.2","","-6.8","","95","","","","","M","","M","","M","97.41","","","","","","NA"
"-64.15","63.34","BREVOORT ISLAND","2400565","2019-04-27 21:00","2019","04","27","21:00","-6.8","","-7.3","","96","","","","","M","","M","","M","97.36","","","","","","NA"
"-64.15","63.34","BREVOORT ISLAND","2400565","2019-04-27 22:00","2019","04","27","22:00","-7.2","","-7.9","","95","","","","","M","","M","","M","97.34","","","","","","NA"
"-64.15","63.34","BREVOORT ISLAND","2400565","2019-04-27 23:00","2019","04","27","23:00","-7.7","","-8.4","","95","","","","","M","","M","","M","97.31","","","","","","NA"
"-64.15","63.34","BREVOORT ISLAND","2400565","2019-04-28 00:00","2019","04","28","00:00","-8.2","","-8.9","","94","","","","","M","","M","","M","97.27","","","","","","NA"
"-64.15","63.34","BREVOORT ISLAND","2400565","2019-04-28 01:00","2019","04","28","01:00","-8.6","","-9.4","","94","","","","","M","","M","","M","97.29","","","","","","NA"
"-64.15","63.34","BREVOORT ISLAND","2400565","2019-04-28 02:00","2019","04","28","02:00","-8.6","","-9.4","","94","","","","","M","","M","","M","97.30","","","","","","NA"
"-64.15","63.34","BREVOORT ISLAND","2400565","2019-04-28 03:00","2019","04","28","03:00","-8.7","","-9.5","","94","","","","","M","","M","","M","97.27","","","","","","NA"
"-64.15","63.34","BREVOORT ISLAND","2400565","2019-04-28 04:00","2019","04","28","04:00","-9.0","","-9.8","","94","","","","","M","","M","","M","97.22","","","","","","NA"
"-64.15","63.34","BREVOORT ISLAND","2400565","2019-04-28 05:00","2019","04","28","05:00","-9.1","","-9.9","","94","","","","","M","","M","","M","97.20","","","","","","NA"
"-64.15","63.34","BREVOORT ISLAND","2400565","2019-04-28 06:00","2019","04","28","06:00","-8.9","","-9.7","","94","","","","","M","","M","","M","97.23","","","","","","NA"
"-64.15","63.34","BREVOORT ISLAND","2400565","2019-04-28 07:00","2019","04","28","07:00","-8.3","","-9.1","","94","","","","","M","","M","","M","97.21","","","","","","NA"
"-64.15","63.34","BREVOORT ISLAND","2400565","2019-04-28 08:00","2019","04","28","08:00","-7.7","","-8.4","","94","","","","","M","","M","","M","97.20","","","","","","NA"
"-64.15","63.34","BREVOORT ISLAND","2400565","2019-04-28 09:00","2019","04","28","09:00","-6.8","","-7.9","","91","","","","","M","","M","","M","97.18","","","","","","NA"
"-64.15","63.34","BREVOORT ISLAND","2400565","2019-04-28 10:00","2019","04","28","10:00","-6.2","","-7.7","","89","","","","","M","","M","","M","97.13","","","","","","NA"
"-64.15","63.34","BREVOORT ISLAND","2400565","2019-04-28 11:00","2019","04","28","11:00","-5.3","","-7.0","","88","","","","","M","","M","","M","97.13","","","","","","NA"
"-64.15","63.34","BREVOORT ISLAND","2400565","2019-04-28 12:00","2019","04","28","12:00","-4.4","","-6.1","","88","","","","","M","","M","","M","97.08","","","","","","NA"
"-64.15","63.34","BREVOORT ISLAND","2400565","2019-04-28 13:00","2019","04","28","13:00","-4.1","","-5.6","","89","","","","","M","","M","","M","97.05","","","","","","NA"
"-64.15","63.34","BREVOORT ISLAND","2400565","2019-04-28 14:00","2019","04","28","14:00","-3.9","","-5.2","","90","","","","","M","","M","","M","97.06","","","","","","NA"
"-64.15","63.34","BREVOORT ISLAND","2400565","2019-04-28 15:00","2019","04","28","15:00","-3.2","","-4.6","","91","","","","","M","","M","","M","97.08","","","","","","NA"
"-64.15","63.34","BREVOORT ISLAND","2400565","2019-04-28 16:00","2019","04","28","16:00","-3.5","","-4.7","","91","","","","","M","","M","","M","97.07","","","","","","NA"
"-64.15","63.34","BREVOORT ISLAND","2400565","2019-04-28 17:00","2019","04","28","17:00","-3.3","","-4.4","","92","","","","","M","","M","","M","97.09","","","","","","NA"
"-64.15","63.34","BREVOORT ISLAND","2400565","2019-04-28 18:00","2019","04","28","18:00","-3.6","","-4.4","","94","","","","","M","","M","","M","97.11","","","","","","NA"
"-64.15","63.34","BREVOORT ISLAND","2400565","2019-04-28 19:00","2019","04","28","19:00","-3.6","","-4.4","","94","","","","","M","","M","","M","97.11","","","","","","NA"
"-64.15","63.34","BREVOORT ISLAND","2400565","2019-04-28 20:00","2019","04","28","20:00","-4.0","","-4.7","","95","","","","","M","","M","","M","97.10","","","","","","NA"
"-64.15","63.34","BREVOORT ISLAND","2400565","2019-04-28 21:00","2019","04","28","21:00","-4.4","","-5.0","","95","","","","","M","","M","","M","97.11","","","","","","NA"
"-64.15","63.34","BREVOORT ISLAND","2400565","2019-04-28 22:00","2019","04","28","22:00","-5.0","","-5.7","","95","","","","","M","","M","","M","97.09","","","","","","NA"
"-64.15","63.34","BREVOORT ISLAND","2400565","2019-04-28 23:00","2019","04","28","23:00","-5.0","","-5.7","","95","","","","","M","","M","","M","97.06","","","","","","NA"
"-64.15","63.34","BREVOORT ISLAND","2400565","2019-04-29 00:00","2019","04","29","00:00","-5.4","","-6.1","","95","","","","","M","","M","","M","97.03","","","","","","NA"
"-64.15","63.34","BREVOORT ISLAND","2400565","2019-04-29 01:00","2019","04","29","01:00","-5.7","","-6.4","","94","","","","","M","","M","","M","97.02","","","","","","NA"
"-64.15","63.34","BREVOORT ISLAND","2400565","2019-04-29 02:00","2019","04","29","02:00","-6.3","","-7.1","","94","","","","","M","","M","","M","97.01","","","","","","NA"
"-64.15","63.34","BREVOORT ISLAND","2400565","2019-04-29 03:00","2019","04","29","03:00","-6.6","","-7.4","","94","","","","","M","","M","","M","97.03","","","","","","NA"
"-64.15","63.34","BREVOORT ISLAND","2400565","2019-04-29 04:00","2019","04","29","04:00","-7.2","","-8.0","","94","","","","","M","","M","","M","97.04","","","","","","NA"
"-64.15","63.34","BREVOORT ISLAND","2400565","2019-04-29 05:00","2019","04","29","05:00","-7.4","","-8.3","","94","","","","","M","","M","","M","97.03","","","","","","NA"
"-64.15","63.34","BREVOORT ISLAND","2400565","2019-04-29 06:00","2019","04","29","06:00","-7.2","","-8.1","","93","","","","","M","","M","","M","97.00","","","","","","NA"
"-64.15","63.34","BREVOORT ISLAND","2400565","2019-04-29 07:00","2019","04","29","07:00","-7.0","","-8.1","","92","","","","","M","","M","","M","96.99","","","","","","NA"
"-64.15","63.34","BREVOORT ISLAND","2400565","2019-04-29 08:00","2019","04","29","08:00","-6.8","","-8.1","","90","","","","","M","","M","","M","96.94","","","","","","NA"
"-64.15","63.34","BREVOORT ISLAND","2400565","2019-04-29 09:00","2019","04","29","09:00","-6.3","","-7.7","","89","","","","","M","","M","","M","96.91","","","","","","NA"
"-64.15","63.34","BREVOORT ISLAND","2400565","2019-04-29 10:00","2019","04","29","10:00"
"-64.15","63.34","BREVOORT ISLAND","2400565","2019-04-29 11:00","2019","04","29","11:00","-5.1","","-7.6","","83","","","","","M","","M","","M","96.82","","","","","","NA"
"-64.15","63.34","BREVOORT ISLAND","2400565","2019-04-29 12:00","2019","04","29","12:00","-4.9","","-7.7","","81","","","","","M","","M","","M","96.75","","","","","","NA"
"-64.15","63.34","BREVOORT ISLAND","2400565","2019-04-29 13:00","2019","04","29","13:00","-5.0","","-8.0","","80","","","","","M","","M","","M","96.70","","","","","","NA"
"-64.15","63.34","BREVOORT ISLAND","2400565","2019-04-29 14:00","2019","04","29","14:00","-6.1","","-8.4","","84","","","","","M","","M","","M","96.68","","","","","","NA"
"-64.15","63.34","BREVOORT ISLAND","2400565","2019-04-29 15:00","2019","04","29","15:00","-6.0","","-7.7","","87","","","","","M","","M","","M","96.64","","","","","","NA"
"-64.15","63.34","BREVOORT ISLAND","2400565","2019-04-29 16:00","2019","04","29","16:00","-5.2","","-7.3","","85","","","","","M","","M","","M","96.66","","","","","","NA"
"-64.15","63.34","BREVOORT ISLAND","2400565","2019-04-29 17:00","2019","04","29","17:00","-4.1","","-6.7","","82","","","","","M","","M","","M","96.64","","","","","","NA"
"-64.15","63.34","BREVOORT ISLAND","2400565","2019-04-29 18:00","2019","04","29","18:00","-3.4","","-6.6","","79","","","","","M","","M","","M","96.61","","","","","","NA"
"-64.15","63.34","BREVOORT ISLAND","2400565","2019-04-29 19:00","2019","04","29","19:00","-2.9","","-6.6","","76","","","","","M","","M","","M","96.58","","","","","","NA"
"-64.15","63.34","BREVOORT ISLAND","2400565","2019-04-29 20:00","2019","04","29","20:00","-4.2","","-6.9","","81","","","","","M","","M","","M","96.54","","","","","","NA"
"-64.15","63.34","BREVOORT ISLAND","2400565","2019-04-29 21:00","2019","04","29","21:00","-4.1","","-6.2","","85","","","","","M","","M","","M","96.50","","","","","","NA"
"-64.15","63.34","BREVOORT ISLAND","2400565","2019-04-29 22:00","2019","04","29","22:00","-5.2","","-6.7","","90","","","","","M","","M","","M","96.46","","","","","","NA"
"-64.15","63.34","BREVOORT ISLAND","2400565","2019-04-29 23:00","2019","04","29","23:00","-6.0","","-7.1","","92","","","","","M","","M","","M","96.41","","","","","","NA"
"-64.15","63.34","BREVOORT ISLAND","2400565","2019-04-30 00:00","2019","04","30","00:00","-6.0","","-6.7","","94","","","","","M","","M","","M","96.39","","","","","","NA"
"-64.15","63.34","BREVOORT ISLAND","2400565","2019-04-30 01:00","2019","04","30","01:00","-6.2","","-6.9","","94","","","","","M","","M","","M","96.40","","","","","","NA"
"-64.15","63.34","BREVOORT ISLAND","2400565","2019-04-30 02:00","2019","04","30","02:00","-5.9","","-6.8","","93","","","","","M","","M","","M","96.39","","","","","","NA"
"-64.15","63.34","BREVOORT ISLAND","2400565","2019-04-30 03:00","2019","04","30","03:00","-5.8","","-6.7","","93","","","","","M","","M","","M","96.44","","","","","","NA"
"-64.15","63.34","BREVOORT ISLAND","2400565","2019-04-30 04:00","2019","04","30","04:00","-6.0","","-6.9","","93","","","","","M","","M","","M","96.40","","","","","","NA"
"-64.15","63.34","BREVOORT ISLAND","2400565","2019-04-30 05:00","2019","04","30","05:00","-6.0","","-6.9","","93","","","","","M","","M","","M","96.37","","","","","","NA"
"-64.15","63.34","BREVOORT ISLAND","2400565","2019-04-30 06:00","2019","04","30","06:00","-5.7","","-6.8","","92","","","","","M","","M","","M","96.38","","","","","","NA"
"-64.15","63.34","BREVOORT ISLAND","2400565","2019-04-30 07:00","2019","04","30","07:00","-5.1","","-6.6","","89","","","","","M","","M","","M","96.38","","","","","","NA"
"-64.15","63.34","BREVOORT ISLAND","2400565","2019-04-30 08:00","2019","04","30","08:00","-5.5","","-6.8","","91","","","","","M","","M","","M","96.40","","","","","","NA"
"-64.15","63.34","BREVOORT ISLAND","2400565","2019-04-30 09:00","2019","04","30","09:00","-4.1","","-5.7","","89","","","","","M","","M","","M","96.43","","","","","","NA"
"-64.15","63.34","BREVOORT ISLAND","2400565","2019-04-30 10:00","2019","04","30","10:00","-4.5","","-5.9","","90","","","","","M","","M","","M","96.47","","","","","","NA"
"-64.15","63.34","BREVOORT ISLAND","2400565","2019-04-30 11:00","2019","04","30","11:00","-5.0","","-6.1","","92","","","","","M","","M","","M","96.49","","","","","","NA"
"-64.15","63.34","BREVOORT ISLAND","2400565","2019-04-30 12:00","2019","04","30","12:00","-4.7","","-5.8","","92","","","","","M","","M","","M","96.52","","","","","","NA"
"-64.15","63.34","BREVOORT ISLAND","2400565","2019-04-30 13:00","2019","04","30","13:00","-4.8","","-5.8","","93","","","","","M","","M","","M","96.58","","","","","","NA"
"-64.15","63.34","BREVOORT ISLAND","2400565","2019-04-30 14:00","2019","04","30","14:00","-4.8","","-5.8","","93","","","","","M","","M","","M","96.58","","","","","","NA"
"-64.15","63.34","BREVOORT ISLAND","2400565","2019-04-30 15:00","2019","04","30","15:00","-3.9","","-5.0","","92","","","","","M","","M","","M","96.66","","","","","","NA"
"-64.15","63.34","BREVOORT ISLAND","2400565","2019-04-30 16:00","2019","04","30","16:00","-4.3","","-5.4","","92","","","","","M","","M","","M","96.76","","","","","","NA"
"-64.15","63.34","BREVOORT ISLAND","2400565","2019-04-30 17:00","2019","04","30","17:00","-4.4","","-5.3","","93","","","","","M","","M","","M","96.86","","","","","","NA"
"-64.15","63.34","BREVOORT ISLAND","2400565","2019-04-30 18:00","2019","04","30","18:00","-4.5","","-5.3","","94","","","","","M","","M","","M","96.93","","","","","","NA"
"-64.15","63.34","BREVOORT ISLAND","2400565","2019-04-30 19:00","2019","04","30","19:00","-4.9","","-5.6","","95","","","","","M","","M","","M","96.98","","","","","","NA"
"-64.15","63.34","BREVOORT ISLAND","2400565","2019-04-30 20:00","2019","04","30","20:00","-4.8","","-5.5","","95","","","","","M","","M","","M","97.00","","","","","","NA"
"-64.15","63.34","BREVOORT ISLAND","2400565","2019-04-30 21:00","2019","04","30","21:00","-4.7","","-5.4","","95","","","","","M","","M","","M","97.04","","","","","","NA"
"-64.15","63.34","BREVOORT ISLAND","2400565","2019-04-30 22:00","2019","04","30","22:00","-4.6","","-5.3","","95","","","","","M","","M","","M","97.09","","","","","","NA"
"-64.15","63.34","BREVOORT ISLAND","2400565","2019-04-30 23:00","2019","04","30","23:00","-4.6","","-5.3","","95","","","","","M","","M","","M","97.12","","","","","","NA"
