"Longitude (x)","Latitude (y)","Station Name","Climate ID","Date/Time (LST)","Year","Month","Day","Time (LST)","Temp (°C)","Temp Flag","Dew Point Temp (°C)","Dew Point Temp Flag","Rel Hum (%)","Rel Hum Flag","Precip. Amount (mm)","Precip. Amount Flag","Wind Dir (10s deg)","Wind Dir Flag","Wind Spd (km/h)","Wind Spd Flag","Visibility (km)","Visibility Flag","Stn Press (kPa)","Stn Press Flag","Hmdx","Hmdx Flag","Wind Chill","Wind Chill Flag","Weather"
"-77.53","44.12","TRENTON A","6158875","2012-02-01 00:00","2012","02","01","00:00"
"-77.53","44.12","TRENTON A","6158875","2012-02-01 01:00","2012","02","01","01:00"
"-77.53","44.12","TRENTON A","6158875","2012-02-01 02:00","2012","02","01","02:00"
"-77.53","44.12","TRENTON A","6158875","2012-02-01 03:00","2012","02","01","03:00"
"-77.53","44.12","TRENTON A","6158875","2012-02-01 04:00","2012","02","01","04:00"
"-77.53","44.12","TRENTON A","6158875","2012-02-01 05:00","2012","02","01","05:00"
"-77.53","44.12","TRENTON A","6158875","2012-02-01 06:00","2012","02","01","06:00","5.9","","4.6","","91","","","","21","","13","","14.5","","99.65","","","","","","Cloudy"
"-77.53","44.12","TRENTON A","6158875","2012-02-01 07:00","2012","02","01","07:00","5.8","","4.5","","91","","","","21","","13","","14.5","","99.67","","","","","","Mostly Cloudy"
"-77.53","44.12","TRENTON A","6158875","2012-02-01 08:00","2012","02","01","08:00","6.0","","5.0","","93","","","","22","","13","","11.3","","99.72","","","","","","Mostly Cloudy"
"-77.53","44.12","TRENTON A","6158875","2012-02-01 09:00","2012","02","01","09:00","7.3","","5.3","","87","","","","25","","17","","11.3","","99.78","","","","","","Mostly Cloudy"
"-77.53","44.12","TRENTON A","6158875","2012-02-01 10:00","2012","02","01","10:00","8.2","","5.0","","80","","","","23","","17","","16.1","","99.75","","","","","","Mostly Cloudy"
"-77.53","44.12","TRENTON A","6158875","2012-02-01 11:00","2012","02","01","11:00","7.8","","3.9","","76","","","","26","","24","","16.1","","99.80","","","","","","Cloudy"
"-77.53","44.12","TRENTON A","6158875","2012-02-01 12:00","2012","02","01","12:00","5.9","","1.6","","74","","","","29","","32","","16.1","","99.90","","","","","","Cloudy"
"-77.53","44.12","TRENTON A","6158875","2012-02-01 13:00","2012","02","01","13:00","4.8","","0.2","","72","","","","29","","30","","24.1","","100.00","","","","","","Mostly Cloudy"
"-77.53","44.12","TRENTON A","6158875","2012-02-01 14:00","2012","02","01","14:00","4.3","","0.3","","75","","","","27","","24","","24.1","","100.10","","","","","","Cloudy"
"-77.53","44.12","TRENTON A","6158875","2012-02-01 15:00","2012","02","01","15:00","4.4","","0.4","","75","","","","27","","32","","16.1","","100.22","","","","","","Drizzle"
"-77.53","44.12","TRENTON A","6158875","2012-02-01 16:00","2012","02","01","16:00","3.9","","0.1","","76","","","","26","","28","","16.1","","100.35","","","","","","Mostly Cloudy"
"-77.53","44.12","TRENTON A","6158875","2012-02-01 17:00","2012","02","01","17:00","3.4","","-0.8","","74","","","","26","","20","","19.3","","100.47","","","","","","Cloudy"
"-77.53","44.12","TRENTON A","6158875","2012-02-01 18:00","2012","02","01","18:00","3.2","","-1.4","","72","","","","27","","26","","24.1","","100.56","","","","","","Cloudy"
"-77.53","44.12","TRENTON A","6158875","2012-02-01 19:00","2012","02","01","19:00","3.2","","-1.5","","71","","","","28","","28","","24.1","","100.60","","","","","","Cloudy"
"-77.53","44.12","TRENTON A","6158875","2012-02-01 20:00","2012","02","01","20:00","2.8","","-1.6","","73","","","","28","","20","","24.1","","100.64","","","","","","Cloudy"
"-77.53","44.12","TRENTON A","6158875","2012-02-01 21:00","2012","02","01","21:00","2.6","","-2.3","","70","","","","28","","22","","24.1","","100.71","","","","","","Cloudy"
"-77.53","44.12","TRENTON A","6158875","2012-02-01 22:00","2012","02","01","22:00"
"-77.53","44.12","TRENTON A","6158875","2012-02-01 23:00","2012","02","01","23:00"
"-77.53","44.12","TRENTON A","6158875","2012-02-02 00:00","2012","02","02","00:00"
"-77.53","44.12","TRENTON A","6158875","2012-02-02 01:00","2012","02","02","01:00"
"-77.53","44.12","TRENTON A","6158875","2012-02-02 02:00","2012","02","02","02:00"
"-77.53","44.12","TRENTON A","6158875","2012-02-02 03:00","2012","02","02","03:00"
"-77.53","44.12","TRENTON A","6158875","2012-02-02 04:00","2012","02","02","04:00"
"-77.53","44.12","TRENTON A","6158875","2012-02-02 05:00","2012","02","02","05:00"
"-77.53","44.12","TRENTON A","6158875","2012-02-02 06:00","2012","02","02","06:00","-1.0","","-5.7","","70","","","","2","","11","","24.1","","100.93","","","","-5","","Cloudy"
"-77.53","44.12","TRENTON A","6158875","2012-02-02 07:00","2012","02","02","07:00","-1.3","","-6.0","","70","","","","1","","9","","24.1","","101.02","","","","-5","","Cloudy"
"-77.53","44.12","TRENTON A","6158875","2012-02-02 08:00","2012","02","02","08:00","-1.6","","-6.2","","71","","","","36","","11","","24.1","","101.11","","","","-5","","Cloudy"
"-77.53","44.12","TRENTON A","6158875","2012-02-02 09:00","2012","02","02","09:00","-1.5","","-6.5","","69","","","","2","","15","","24.1","","101.14","","","","-6","","Cloudy"
"-77.53","44.12","TRENTON A","6158875","2012-02-02 10:00","2012","02","02","10:00","-1.4","","-6.5","","68","","","","3","","11","","24.1","","101.17","","","","-5","","Cloudy"
"-77.53","44.12","TRENTON A","6158875","2012-02-02 11:00","2012","02","02","11:00","-1.4","","-5.6","","73","","","","4","","15","","24.1","","101.23","","","","-6","","Cloudy"
"-77.53","44.12","TRENTON A","6158875","2012-02-02 12:00","2012","02","02","12:00","-1.6","","-6.1","","71","","","","3","","17","","24.1","","101.23","","","","-7","","Cloudy"
"-77.53","44.12","TRENTON A","6158875","2012-02-02 13:00","2012","02","02","13:00","-1.0","","-6.5","","66","","","","1","","11","","24.1","","101.22","","","","-5","","Cloudy"
"-77.53","44.12","TRENTON A","6158875","2012-02-02 14:00","2012","02","02","14:00","-1.2","","-7.1","","64","","","","36","","9","","24.1","","101.23","","","","-4","","Mostly Cloudy"
"-77.53","44.12","TRENTON A","6158875","2012-02-02 15:00","2012","02","02","15:00","-1.0","","-7.1","","63","","","","34","","15","","24.1","","101.26","","","","-6","","Mostly Cloudy"
"-77.53","44.12","TRENTON A","6158875","2012-02-02 16:00","2012","02","02","16:00","-0.9","","-7.0","","63","","","","36","","9","","24.1","","101.32","","","","-4","","Mostly Cloudy"
"-77.53","44.12","TRENTON A","6158875","2012-02-02 17:00","2012","02","02","17:00","-1.4","","-7.2","","65","","","","30","","7","","24.1","","101.40","","","","-4","","Mostly Cloudy"
"-77.53","44.12","TRENTON A","6158875","2012-02-02 18:00","2012","02","02","18:00","-1.9","","-7.3","","67","","","","27","","4","","24.1","","101.48","","","","-3","","Mostly Cloudy"
"-77.53","44.12","TRENTON A","6158875","2012-02-02 19:00","2012","02","02","19:00","-2.7","","-6.9","","73","","","","24","","4","","24.1","","101.55","","","","-4","","Mainly Clear"
"-77.53","44.12","TRENTON A","6158875","2012-02-02 20:00","2012","02","02","20:00","-2.9","","-6.9","","74","","","","27","","4","","24.1","","101.63","","","","-4","","Mainly Clear"
"-77.53","44.12","TRENTON A","6158875","2012-02-02 21:00","2012","02","02","21:00","-5.0","","-7.2","","85","","","","4","","7","","24.1","","101.71","","","","-8","","Mainly Clear"
"-77.53","44.12","TRENTON A","6158875","2012-02-02 22:00","2012","02","02","22:00"
"-77.53","44.12","TRENTON A","6158875","2012-02-02 23:00","2012","02","02","23:00"
"-77.53","44.12","TRENTON A","6158875","2012-02-03 00:00","2012","02","03","00:00"
"-77.53","44.12","TRENTON A","6158875","2012-02-03 01:00","2012","02","03","01:00"
"-77.53","44.12","TRENTON A","6158875","2012-02-03 02:00","2012","02","03","02:00"
"-77.53","44.12","TRENTON A","6158875","2012-02-03 03:00","2012","02","03","03:00"
"-77.53","44.12","TRENTON A","6158875","2012-02-03 04:00","2012","02","03","04:00"
"-77.53","44.12","TRENTON A","6158875","2012-02-03 05:00","2012","02","03","05:00"
"-77.53","44.12","TRENTON A","6158875","2012-02-03 06:00","2012","02","03","06:00","-7.4","","-9.1","","88","","","","22","","4","","24.1","","102.03","","","","-9","","Clear"
"-77.53","44.12","TRENTON A","6158875","2012-02-03 07:00","2012","02","03","07:00","-8.0","","-9.2","","91","","","","","","0","","24.1","","102.06","","","","","","Mostly Cloudy"
"-77.53","44.12","TRENTON A","6158875","2012-02-03 08:00","2012","02","03","08:00","-5.8","","-7.2","","90","","","","","","0","","24.1","","102.11","","","","","","Cloudy"
"-77.53","44.12","TRENTON A","6158875","2012-02-03 09:00","2012","02","03","09:00","-3.2","","-5.7","","83","","","","20","","7","","24.1","","102.08","","","","-6","","Cloudy"
"-77.53","44.12","TRENTON A","6158875","2012-02-03 10:00","2012","02","03","10:00","-2.0","","-5.0","","80","","","","22","","7","","24.1","","102.07","","","","-5","","Cloudy"
"-77.53","44.12","TRENTON A","6158875","2012-02-03 11:00","2012","02","03","11:00","-0.9","","-4.1","","79","","","","20","","7","","24.1","","102.03","","","","-3","","Snow Showers"
"-77.53","44.12","TRENTON A","6158875","2012-02-03 12:00","2012","02","03","12:00","0.3","","-2.7","","80","","","","21","","7","","24.1","","101.89","","","","","","Snow Showers"
"-77.53","44.12","TRENTON A","6158875","2012-02-03 13:00","2012","02","03","13:00","2.2","","-0.8","","81","","","","24","","9","","24.1","","101.82","","","","","","Cloudy"
"-77.53","44.12","TRENTON A","6158875","2012-02-03 14:00","2012","02","03","14:00","3.0","","-1.5","","72","","","","27","","19","","24.1","","101.77","","","","","","Cloudy"
"-77.53","44.12","TRENTON A","6158875","2012-02-03 15:00","2012","02","03","15:00","3.1","","-1.8","","70","","","","26","","15","","24.1","","101.77","","","","","","Cloudy"
"-77.53","44.12","TRENTON A","6158875","2012-02-03 16:00","2012","02","03","16:00","2.4","","-1.6","","75","","","","22","","9","","24.1","","101.74","","","","","","Cloudy"
"-77.53","44.12","TRENTON A","6158875","2012-02-03 17:00","2012","02","03","17:00","2.1","","-1.0","","80","","","","23","","7","","19.3","","101.70","","","","","","Cloudy"
"-77.53","44.12","TRENTON A","6158875","2012-02-03 18:00","2012","02","03","18:00","2.2","","-1.0","","79","","","","23","","13","","19.3","","101.70","","","","","","Cloudy"
"-77.53","44.12","TRENTON A","6158875","2012-02-03 19:00","2012","02","03","19:00","1.8","","-1.2","","80","","","","24","","11","","24.1","","101.71","","","","","","Cloudy"
"-77.53","44.12","TRENTON A","6158875","2012-02-03 20:00","2012","02","03","20:00","2.1","","-1.4","","78","","","","23","","9","","19.3","","101.72","","","","","","Cloudy"
"-77.53","44.12","TRENTON A","6158875","2012-02-03 21:00","2012","02","03","21:00","2.2","","-1.3","","78","","","","26","","13","","24.1","","101.72","","","","","","Cloudy"
"-77.53","44.12","TRENTON A","6158875","2012-02-03 22:00","2012","02","03","22:00"
"-77.53","44.12","TRENTON A","6158875","2012-02-03 23:00","2012","02","03","23:00"
"-77.53","44.12","TRENTON A","6158875","2012-02-04 00:00","2012","02","04","00:00"
"-77.53","44.12","TRENTON A","6158875","2012-02-04 01:00","2012","02","04","01:00"
"-77.53","44.12","TRENTON A","6158875","2012-02-04 02:00","2012","02","04","02:00"
"-77.53","44.12","TRENTON A","6158875","2012-02-04 03:00","2012","02","04","03:00"
"-77.53","44.12","TRENTON A","6158875","2012-02-04 04:00","2012","02","04","04:00"
"-77.53","44.12","TRENTON A","6158875","2012-02-04 05:00","2012","02","04","05:00"
"-77.53","44.12","TRENTON A","6158875","2012-02-04 06:00","2012","02","04","06:00","-3.6","","-5.2","","89","","","","","","0","","24.1","","101.65","","","","","","Mainly Clear"
"-77.53","44.12","TRENTON A","6158875","2012-02-04 07:00","2012","02","04","07:00","-4.5","","-5.5","","93","","","","34","","4","","24.1","","101.73","","","","-6","","Mainly Clear"
"-77.53","44.12","TRENTON A","6158875","2012-02-04 08:00","2012","02","04","08:00","-3.3","","-5.4","","85","","","","3","","19","","24.1","","101.78","","","","-9","","Mostly Cloudy"
"-77.53","44.12","TRENTON A","6158875","2012-02-04 09:00","2012","02","04","09:00","-3.5","","-7.3","","75","","","","4","","17","","24.1","","101.76","","","","-9","","Mostly Cloudy"
"-77.53","44.12","TRENTON A","6158875","2012-02-04 10:00","2012","02","04","10:00","-3.2","","-7.4","","73","","","","2","","17","","24.1","","101.73","","","","-9","","Mainly Clear"
"-77.53","44.12","TRENTON A","6158875","2012-02-04 11:00","2012","02","04","11:00","-2.9","","-9.3","","61","","","","4","","9","","24.1","","101.68","","","","-6","","Mostly Cloudy"
"-77.53","44.12","TRENTON A","6158875","2012-02-04 12:00","2012","02","04","12:00","-2.2","","-9.0","","60","","","","9","","9","","24.1","","101.59","","","","-6","","Mostly Cloudy"
"-77.53","44.12","TRENTON A","6158875","2012-02-04 13:00","2012","02","04","13:00","-1.3","","-7.8","","61","","","","14","","9","","24.1","","101.48","","","","-5","","Mostly Cloudy"
"-77.53","44.12","TRENTON A","6158875","2012-02-04 14:00","2012","02","04","14:00","-0.1","","-7.1","","59","","","","14","","6","","24.1","","101.40","","","","-2","","Mostly Cloudy"
"-77.53","44.12","TRENTON A","6158875","2012-02-04 15:00","2012","02","04","15:00","0.8","","-7.4","","54","","","","","","0","","24.1","","101.37","","","","","","Mainly Clear"
"-77.53","44.12","TRENTON A","6158875","2012-02-04 16:00","2012","02","04","16:00","-0.4","","-7.8","","57","","","","22","","9","","19.3","","101.34","","","","-4","","Mainly Clear"
"-77.53","44.12","TRENTON A","6158875","2012-02-04 17:00","2012","02","04","17:00","-1.7","","-5.9","","73","","","","21","","9","","19.3","","101.30","","","","-5","","Mainly Clear"
"-77.53","44.12","TRENTON A","6158875","2012-02-04 18:00","2012","02","04","18:00","-2.7","","-5.6","","80","","","","18","","4","","24.1","","101.30","","","","-4","","Mainly Clear"
"-77.53","44.12","TRENTON A","6158875","2012-02-04 19:00","2012","02","04","19:00","-2.6","","-5.3","","82","","","","15","","4","","24.1","","101.29","","","","-4","","Mostly Cloudy"
"-77.53","44.12","TRENTON A","6158875","2012-02-04 20:00","2012","02","04","20:00","-3.7","","-5.8","","85","","","","5","","4","","24.1","","101.24","","","","-5","","Mainly Clear"
"-77.53","44.12","TRENTON A","6158875","2012-02-04 21:00","2012","02","04","21:00","-4.5","","-6.0","","89","","","","5","","6","","24.1","","101.29","","","","-7","","Mostly Cloudy"
"-77.53","44.12","TRENTON A","6158875","2012-02-04 22:00","2012","02","04","22:00"
"-77.53","44.12","TRENTON A","6158875","2012-02-04 23:00","2012","02","04","23:00"
"-77.53","44.12","TRENTON A","6158875","2012-02-05 00:00","2012","02","05","00:00"
"-77.53","44.12","TRENTON A","6158875","2012-02-05 01:00","2012","02","05","01:00"
"-77.53","44.12","TRENTON A","6158875","2012-02-05 02:00","2012","02","05","02:00"
"-77.53","44.12","TRENTON A","6158875","2012-02-05 03:00","2012","02","05","03:00"
"-77.53","44.12","TRENTON A","6158875","2012-02-05 04:00","2012","02","05","04:00"
"-77.53","44.12","TRENTON A","6158875","2012-02-05 05:00","2012","02","05","05:00"
"-77.53","44.12","TRENTON A","6158875","2012-02-05 06:00","2012","02","05","06:00","-3.6","","-9.5","","64","","","","7","","7","","24.1","","101.19","","","","-7","","Snow Showers"
"-77.53","44.12","TRENTON A","6158875","2012-02-05 07:00","2012","02","05","07:00","-3.8","","-9.3","","66","","","","9","","7","","24.1","","101.29","","","","-7","","Snow"
"-77.53","44.12","TRENTON A","6158875","2012-02-05 08:00","2012","02","05","08:00","-3.8","","-8.8","","68","","","","","","0","","24.1","","101.33","","","","","","Snow"
"-77.53","44.12","TRENTON A","6158875","2012-02-05 09:00","2012","02","05","09:00","-3.3","","-8.0","","70","","","","15","","4","","19.3","","101.34","","","","-5","","Snow"
"-77.53","44.12","TRENTON A","6158875","2012-02-05 10:00","2012","02","05","10:00","-2.6","","-8.1","","66","","","","","","0","","24.1","","101.37","","","","","","Snow"
"-77.53","44.12","TRENTON A","6158875","2012-02-05 11:00","2012","02","05","11:00","-0.7","","-7.4","","60","","","","24","","4","","24.1","","101.33","","","","-2","","Mostly Cloudy"
"-77.53","44.12","TRENTON A","6158875","2012-02-05 12:00","2012","02","05","12:00","-0.5","","-6.1","","66","","","","24","","7","","24.1","","101.28","","","","-3","","Mostly Cloudy"
"-77.53","44.12","TRENTON A","6158875","2012-02-05 13:00","2012","02","05","13:00","0.7","","-4.8","","67","","","","22","","13","","24.1","","101.22","","","","","","Mostly Cloudy"
"-77.53","44.12","TRENTON A","6158875","2012-02-05 14:00","2012","02","05","14:00","0.7","","-4.6","","68","","","","21","","13","","24.1","","101.14","","","","","","Mainly Clear"
"-77.53","44.12","TRENTON A","6158875","2012-02-05 15:00","2012","02","05","15:00","1.3","","-4.0","","68","","","","18","","17","","24.1","","101.07","","","","","","Mostly Cloudy"
"-77.53","44.12","TRENTON A","6158875","2012-02-05 16:00","2012","02","05","16:00","0.2","","-4.4","","71","","","","21","","19","","24.1","","101.05","","","","","","Mostly Cloudy"
"-77.53","44.12","TRENTON A","6158875","2012-02-05 17:00","2012","02","05","17:00","0.5","","-4.4","","70","","","","22","","19","","24.1","","101.01","","","","","","Mostly Cloudy"
"-77.53","44.12","TRENTON A","6158875","2012-02-05 18:00","2012","02","05","18:00","0.7","","-3.6","","73","","","","23","","19","","24.1","","100.99","","","","","","Mostly Cloudy"
"-77.53","44.12","TRENTON A","6158875","2012-02-05 19:00","2012","02","05","19:00","0.9","","-3.0","","75","","","","23","","17","","24.1","","100.96","","","","","","Mostly Cloudy"
"-77.53","44.12","TRENTON A","6158875","2012-02-05 20:00","2012","02","05","20:00","1.2","","-3.7","","70","","","","23","","19","","24.1","","100.91","","","","","","Cloudy"
"-77.53","44.12","TRENTON A","6158875","2012-02-05 21:00","2012","02","05","21:00","1.4","","-3.8","","68","","","","23","","20","","24.1","","100.87","","","","","","Cloudy"
"-77.53","44.12","TRENTON A","6158875","2012-02-05 22:00","2012","02","05","22:00"
"-77.53","44.12","TRENTON A","6158875","2012-02-05 23:00","2012","02","05","23:00"
"-77.53","44.12","TRENTON A","6158875","2012-02-06 00:00","2012","02","06","00:00"
"-77.53","44.12","TRENTON A","6158875","2012-02-06 01:00","2012","02","06","01:00"
"-77.53","44.12","TRENTON A","6158875","2012-02-06 02:00","2012","02","06","02:00"
"-77.53","44.12","TRENTON A","6158875","2012-02-06 03:00","2012","02","06","03:00"
"-77.53","44.12","TRENTON A","6158875","2012-02-06 04:00","2012","02","06","04:00"
"-77.53","44.12","TRENTON A","6158875","2012-02-06 05:00","2012","02","06","05:00"
"-77.53","44.12","TRENTON A","6158875","2012-02-06 06:00","2012","02","06","06:00","0.1","","-1.9","","86","","","","24","","17","","11.3","","100.48","","","","","","Clear"
"-77.53","44.12","TRENTON A","6158875","2012-02-06 07:00","2012","02","06","07:00","0.6","","-2.2","","81","","","","24","","20","","14.5","","100.46","","","","","","Clear"
"-77.53","44.12","TRENTON A","6158875","2012-02-06 08:00","2012","02","06","08:00","0.9","","-1.7","","83","","","","24","","22","","14.5","","100.44","","","","","","Mainly Clear"
"-77.53","44.12","TRENTON A","6158875","2012-02-06 09:00","2012","02","06","09:00","2.1","","-1.4","","78","","","","24","","26","","14.5","","100.43","","","","","","Mainly Clear"
"-77.53","44.12","TRENTON A","6158875","2012-02-06 10:00","2012","02","06","10:00","3.4","","-1.6","","70","","","","25","","28","","14.5","","100.39","","","","","","Mainly Clear"
"-77.53","44.12","TRENTON A","6158875","2012-02-06 11:00","2012","02","06","11:00","4.1","","-1.4","","67","","","","23","","24","","19.3","","100.37","","","","","","Mainly Clear"
"-77.53","44.12","TRENTON A","6158875","2012-02-06 12:00","2012","02","06","12:00","3.6","","-1.2","","71","","","","22","","24","","19.3","","100.27","","","","","","Clear"
"-77.53","44.12","TRENTON A","6158875","2012-02-06 13:00","2012","02","06","13:00","4.7","","-0.9","","67","","","","23","","26","","19.3","","100.21","","","","","","Clear"
"-77.53","44.12","TRENTON A","6158875","2012-02-06 14:00","2012","02","06","14:00","5.1","","-0.7","","66","","","","23","","28","","24.1","","100.15","","","","","","Clear"
"-77.53","44.12","TRENTON A","6158875","2012-02-06 15:00","2012","02","06","15:00","5.7","","-0.9","","62","","","","23","","20","","24.1","","100.12","","","","","","Clear"
"-77.53","44.12","TRENTON A","6158875","2012-02-06 16:00","2012","02","06","16:00","5.6","","-1.0","","62","","","","24","","22","","24.1","","100.14","","","","","","Clear"
"-77.53","44.12","TRENTON A","6158875","2012-02-06 17:00","2012","02","06","17:00","4.6","","-1.6","","64","","","","25","","20","","24.1","","100.18","","","","","","Clear"
"-77.53","44.12","TRENTON A","6158875","2012-02-06 18:00","2012","02","06","18:00","3.5","","-2.1","","67","","","","26","","15","","24.1","","100.25","","","","","","Clear"
"-77.53","44.12","TRENTON A","6158875","2012-02-06 19:00","2012","02","06","19:00","2.0","","-2.4","","73","","","","26","","11","","24.1","","100.30","","","","","","Clear"
"-77.53","44.12","TRENTON A","6158875","2012-02-06 20:00","2012","02","06","20:00","2.2","","-2.4","","72","","","","29","","11","","24.1","","100.37","","","","","","Mainly Clear"
"-77.53","44.12","TRENTON A","6158875","2012-02-06 21:00","2012","02","06","21:00","2.4","","-2.7","","69","","","","31","","19","","24.1","","100.40","","","","","","Mostly Cloudy"
"-77.53","44.12","TRENTON A","6158875","2012-02-06 22:00","2012","02","06","22:00"
"-77.53","44.12","TRENTON A","6158875","2012-02-06 23:00","2012","02","06","23:00"
"-77.53","44.12","TRENTON A","6158875","2012-02-07 00:00","2012","02","07","00:00"
"-77.53","44.12","TRENTON A","6158875","2012-02-07 01:00","2012","02","07","01:00"
"-77.53","44.12","TRENTON A","6158875","2012-02-07 02:00","2012","02","07","02:00"
"-77.53","44.12","TRENTON A","6158875","2012-02-07 03:00","2012","02","07","03:00"
"-77.53","44.12","TRENTON A","6158875","2012-02-07 04:00","2012","02","07","04:00"
"-77.53","44.12","TRENTON A","6158875","2012-02-07 05:00","2012","02","07","05:00"
"-77.53","44.12","TRENTON A","6158875","2012-02-07 06:00","2012","02","07","06:00","1.1","","-3.0","","74","","","","35","","11","","24.1","","100.78","","","","","","Cloudy"
"-77.53","44.12","TRENTON A","6158875","2012-02-07 07:00","2012","02","07","07:00","0.7","","-2.6","","79","","","","1","","11","","24.1","","100.86","","","","","","Snow Showers"
"-77.53","44.12","TRENTON A","6158875","2012-02-07 08:00","2012","02","07","08:00","0.5","","-2.6","","80","","","","35","","7","","24.1","","100.98","","","","","","Snow Showers"
"-77.53","44.12","TRENTON A","6158875","2012-02-07 09:00","2012","02","07","09:00","-0.1","","-5.1","","69","","","","3","","17","","24.1","","101.08","","","","-5","","Snow Showers"
"-77.53","44.12","TRENTON A","6158875","2012-02-07 10:00","2012","02","07","10:00","-0.6","","-6.0","","67","","","","36","","15","","24.1","","101.17","","","","-5","","Snow Showers"
"-77.53","44.12","TRENTON A","6158875","2012-02-07 11:00","2012","02","07","11:00","-1.0","","-8.8","","55","","","","1","","19","","24.1","","101.27","","","","-6","","Cloudy"
"-77.53","44.12","TRENTON A","6158875","2012-02-07 12:00","2012","02","07","12:00","-1.2","","-9.4","","54","","","","34","","13","","24.1","","101.29","","","","-5","","Mostly Cloudy"
"-77.53","44.12","TRENTON A","6158875","2012-02-07 13:00","2012","02","07","13:00","-0.4","","-9.5","","50","","","","34","","17","","24.1","","101.27","","","","-5","","Mainly Clear"
"-77.53","44.12","TRENTON A","6158875","2012-02-07 14:00","2012","02","07","14:00","-0.1","","-11.0","","44","","","","31","","15","","24.1","","101.28","","","","-5","","Mainly Clear"
"-77.53","44.12","TRENTON A","6158875","2012-02-07 15:00","2012","02","07","15:00","-0.3","","-10.9","","45","","","","35","","15","","24.1","","101.32","","","","-5","","Mostly Cloudy"
"-77.53","44.12","TRENTON A","6158875","2012-02-07 16:00","2012","02","07","16:00","-0.9","","-11.3","","45","","","","33","","13","","24.1","","101.37","","","","-5","","Mostly Cloudy"
"-77.53","44.12","TRENTON A","6158875","2012-02-07 17:00","2012","02","07","17:00","-1.6","","-11.9","","45","","","","36","","9","","24.1","","101.42","","","","-5","","Clear"
"-77.53","44.12","TRENTON A","6158875","2012-02-07 18:00","2012","02","07","18:00","-2.8","","-11.3","","52","","","","36","","6","","24.1","","101.50","","","","-5","","Clear"
"-77.53","44.12","TRENTON A","6158875","2012-02-07 19:00","2012","02","07","19:00","-3.1","","-10.9","","55","","","","31","","6","","24.1","","101.56","","","","-6","","Clear"
"-77.53","44.12","TRENTON A","6158875","2012-02-07 20:00","2012","02","07","20:00","-3.6","","-10.6","","58","","","","31","","6","","24.1","","101.57","","","","-6","","Clear"
"-77.53","44.12","TRENTON A","6158875","2012-02-07 21:00","2012","02","07","21:00","-4.3","","-10.9","","60","","","","32","","6","","24.1","","101.59","","","","-7","","Mainly Clear"
"-77.53","44.12","TRENTON A","6158875","2012-02-07 22:00","2012","02","07","22:00"
"-77.53","44.12","TRENTON A","6158875","2012-02-07 23:00","2012","02","07","23:00"
"-77.53","44.12","TRENTON A","6158875","2012-02-08 00:00","2012","02","08","00:00"
"-77.53","44.12","TRENTON A","6158875","2012-02-08 01:00","2012","02","08","01:00"
"-77.53","44.12","TRENTON A","6158875","2012-02-08 02:00","2012","02","08","02:00"
"-77.53","44.12","TRENTON A","6158875","2012-02-08 03:00","2012","02","08","03:00"
"-77.53","44.12","TRENTON A","6158875","2012-02-08 04:00","2012","02","08","04:00"
"-77.53","44.12","TRENTON A","6158875","2012-02-08 05:00","2012","02","08","05:00"
"-77.53","44.12","TRENTON A","6158875","2012-02-08 06:00","2012","02","08","06:00","-9.6","","-14.8","","66","","","","","","0","","24.1","","101.55","","","","","","Clear"
"-77.53","44.12","TRENTON A","6158875","2012-02-08 07:00","2012","02","08","07:00","-10.3","","-14.0","","74","","","","15","","4","","24.1","","101.52","","","","-13","","Clear"
"-77.53","44.12","TRENTON A","6158875","2012-02-08 08:00","2012","02","08","08:00","-9.5","","-13.3","","74","","","","","","0","","24.1","","101.54","","","","","","Mainly Clear"
"-77.53","44.12","TRENTON A","6158875","2012-02-08 09:00","2012","02","08","09:00","-7.6","","-13.7","","62","","","","22","","4","","24.1","","101.54","","","","-10","","Mainly Clear"
"-77.53","44.12","TRENTON A","6158875","2012-02-08 10:00","2012","02","08","10:00","-4.6","","-10.7","","62","","","","20","","11","","24.1","","101.54","","","","-9","","Mainly Clear"
"-77.53","44.12","TRENTON A","6158875","2012-02-08 11:00","2012","02","08","11:00","-2.6","","-10.0","","57","","","","21","","15","","24.1","","101.43","","","","-8","","Mainly Clear"
"-77.53","44.12","TRENTON A","6158875","2012-02-08 12:00","2012","02","08","12:00","-1.3","","-10.1","","51","","","","21","","13","","24.1","","101.33","","","","-6","","Mainly Clear"
"-77.53","44.12","TRENTON A","6158875","2012-02-08 13:00","2012","02","08","13:00","-1.2","","-9.9","","52","","","","20","","19","","24.1","","101.21","","","","-7","","Mainly Clear"
"-77.53","44.12","TRENTON A","6158875","2012-02-08 14:00","2012","02","08","14:00","-1.0","","-8.9","","55","","","","21","","20","","24.1","","101.10","","","","-7","","Mostly Cloudy"
"-77.53","44.12","TRENTON A","6158875","2012-02-08 15:00","2012","02","08","15:00","-0.6","","-7.5","","60","","","","21","","19","","24.1","","101.02","","","","-6","","Mostly Cloudy"
"-77.53","44.12","TRENTON A","6158875","2012-02-08 16:00","2012","02","08","16:00","-0.7","","-7.0","","62","","","","22","","19","","24.1","","100.97","","","","-6","","Mostly Cloudy"
"-77.53","44.12","TRENTON A","6158875","2012-02-08 17:00","2012","02","08","17:00","-0.9","","-6.8","","64","","","","23","","22","","24.1","","100.93","","","","-7","","Mostly Cloudy"
"-77.53","44.12","TRENTON A","6158875","2012-02-08 18:00","2012","02","08","18:00","-1.3","","-6.5","","68","","","","23","","15","","24.1","","100.89","","","","-6","","Mostly Cloudy"
"-77.53","44.12","TRENTON A","6158875","2012-02-08 19:00","2012","02","08","19:00","-1.7","","-6.1","","72","","","","23","","17","","24.1","","100.86","","","","-7","","Mostly Cloudy"
"-77.53","44.12","TRENTON A","6158875","2012-02-08 20:00","2012","02","08","20:00","-1.9","","-5.8","","75","","","","25","","15","","24.1","","100.84","","","","-7","","Mostly Cloudy"
"-77.53","44.12","TRENTON A","6158875","2012-02-08 21:00","2012","02","08","21:00","-3.2","","-6.2","","80","","","","24","","9","","24.1","","100.81","","","","-7","","Mostly Cloudy"
"-77.53","44.12","TRENTON A","6158875","2012-02-08 22:00","2012","02","08","22:00"
"-77.53","44.12","TRENTON A","6158875","2012-02-08 23:00","2012","02","08","23:00"
"-77.53","44.12","TRENTON A","6158875","2012-02-09 00:00","2012","02","09","00:00"
"-77.53","44.12","TRENTON A","6158875","2012-02-09 01:00","2012","02","09","01:00"
"-77.53","44.12","TRENTON A","6158875","2012-02-09 02:00","2012","02","09","02:00"
"-77.53","44.12","TRENTON A","6158875","2012-02-09 03:00","2012","02","09","03:00"
"-77.53","44.12","TRENTON A","6158875","2012-02-09 04:00","2012","02","09","04:00"
"-77.53","44.12","TRENTON A","6158875","2012-02-09 05:00","2012","02","09","05:00"
"-77.53","44.12","TRENTON A","6158875","2012-02-09 06:00","2012","02","09","06:00","-2.1","","-7.3","","68","","","","22","","11","","24.1","","100.74","","","","-6","","Clear"
"-77.53","44.12","TRENTON A","6158875","2012-02-09 07:00","2012","02","09","07:00","-2.5","","-7.1","","71","","","","23","","11","","24.1","","100.78","","","","-7","","Clear"
"-77.53","44.12","TRENTON A","6158875","2012-02-09 08:00","2012","02","09","08:00","-1.7","","-7.0","","67","","","","23","","15","","24.1","","100.84","","","","-7","","Clear"
"-77.53","44.12","TRENTON A","6158875","2012-02-09 09:00","2012","02","09","09:00","0.2","","-6.3","","62","","","","24","","15","","24.1","","100.89","","","","","","Clear"
"-77.53","44.12","TRENTON A","6158875","2012-02-09 10:00","2012","02","09","10:00","1.7","","-5.9","","57","","","","24","","17","","24.1","","100.88","","","","","","Clear"
"-77.53","44.12","TRENTON A","6158875","2012-02-09 11:00","2012","02","09","11:00","2.1","","-5.3","","58","","","","21","","19","","24.1","","100.87","","","","","","Clear"
"-77.53","44.12","TRENTON A","6158875","2012-02-09 12:00","2012","02","09","12:00","2.0","","-4.2","","63","","","","21","","24","","24.1","","100.79","","","","","","Clear"
"-77.53","44.12","TRENTON A","6158875","2012-02-09 13:00","2012","02","09","13:00","2.3","","-3.2","","67","","","","22","","22","","24.1","","100.73","","","","","","Mainly Clear"
"-77.53","44.12","TRENTON A","6158875","2012-02-09 14:00","2012","02","09","14:00","2.0","","-3.4","","67","","","","22","","22","","24.1","","100.67","","","","","","Mainly Clear"
"-77.53","44.12","TRENTON A","6158875","2012-02-09 15:00","2012","02","09","15:00","2.9","","-3.6","","62","","","","24","","22","","24.1","","100.64","","","","","","Clear"
"-77.53","44.12","TRENTON A","6158875","2012-02-09 16:00","2012","02","09","16:00","3.1","","-5.6","","53","","","","24","","33","","24.1","","100.65","","","","","","Clear"
"-77.53","44.12","TRENTON A","6158875","2012-02-09 17:00","2012","02","09","17:00","2.6","","-4.1","","61","","","","23","","26","","24.1","","100.65","","","","","","Clear"
"-77.53","44.12","TRENTON A","6158875","2012-02-09 18:00","2012","02","09","18:00","2.2","","-3.4","","66","","","","23","","22","","24.1","","100.66","","","","","","Clear"
"-77.53","44.12","TRENTON A","6158875","2012-02-09 19:00","2012","02","09","19:00","1.7","","-3.3","","69","","","","23","","20","","24.1","","100.67","","","","","","Clear"
"-77.53","44.12","TRENTON A","6158875","2012-02-09 20:00","2012","02","09","20:00","0.8","","-3.2","","75","","","","24","","19","","24.1","","100.67","","","","","","Clear"
"-77.53","44.12","TRENTON A","6158875","2012-02-09 21:00","2012","02","09","21:00","0.9","","-2.7","","77","","","","23","","20","","24.1","","100.68","","","","","","Clear"
"-77.53","44.12","TRENTON A","6158875","2012-02-09 22:00","2012","02","09","22:00"
"-77.53","44.12","TRENTON A","6158875","2012-02-09 23:00","2012","02","09","23:00"
"-77.53","44.12","TRENTON A","6158875","2012-02-10 00:00","2012","02","10","00:00"
"-77.53","44.12","TRENTON A","6158875","2012-02-10 01:00","2012","02","10","01:00"
"-77.53","44.12","TRENTON A","6158875","2012-02-10 02:00","2012","02","10","02:00"
"-77.53","44.12","TRENTON A","6158875","2012-02-10 03:00","2012","02","10","03:00"
"-77.53","44.12","TRENTON A","6158875","2012-02-10 04:00","2012","02","10","04:00"
"-77.53","44.12","TRENTON A","6158875","2012-02-10 05:00","2012","02","10","05:00"
"-77.53","44.12","TRENTON A","6158875","2012-02-10 06:00","2012","02","10","06:00","0.6","","-5.2","","65","","","","24","","22","","24.1","","100.55","","","","","","Mostly Cloudy"
"-77.53","44.12","TRENTON A","6158875","2012-02-10 07:00","2012","02","10","07:00","0.3","","-5.0","","68","","","","25","","20","","24.1","","100.56","","","","","","Cloudy"
"-77.53","44.12","TRENTON A","6158875","2012-02-10 08:00","2012","02","10","08:00","0.1","","-5.2","","67","","","","25","","17","","24.1","","100.59","","","","","","Cloudy"
"-77.53","44.12","TRENTON A","6158875","2012-02-10 09:00","2012","02","10","09:00","-0.1","","-5.5","","67","","","","25","","19","","19.3","","100.62","","","","-5","","Cloudy"
"-77.53","44.12","TRENTON A","6158875","2012-02-10 10:00","2012","02","10","10:00","-0.1","","-6.3","","63","","","","24","","17","","19.3","","100.56","","","","-5","","Cloudy"
"-77.53","44.12","TRENTON A","6158875","2012-02-10 11:00","2012","02","10","11:00"
"-77.53","44.12","TRENTON A","6158875","2012-02-10 12:00","2012","02","10","12:00","0.5","","-6.9","","58","","","","25","","24","","24.1","","100.49","","","","","","Cloudy"
"-77.53","44.12","TRENTON A","6158875","2012-02-10 13:00","2012","02","10","13:00","0.6","","-6.2","","60","","","","25","","20","","24.1","","100.44","","","","","","Cloudy"
"-77.53","44.12","TRENTON A","6158875","2012-02-10 14:00","2012","02","10","14:00","0.3","","-5.2","","67","","","","25","","13","","11.3","","100.37","","","","","","Snow"
"-77.53","44.12","TRENTON A","6158875","2012-02-10 15:00","2012","02","10","15:00","-0.4","","-4.1","","76","","","","25","","15","","4.8","","100.32","","","","-5","","Snow"
"-77.53","44.12","TRENTON A","6158875","2012-02-10 16:00","2012","02","10","16:00","-1.1","","-3.0","","87","","","","24","","9","","4.0","","100.31","","","","-4","","Snow"
"-77.53","44.12","TRENTON A","6158875","2012-02-10 17:00","2012","02","10","17:00","-1.2","","-2.7","","90","","","","20","","7","","4.8","","100.31","","","","-4","","Snow"
"-77.53","44.12","TRENTON A","6158875","2012-02-10 18:00","2012","02","10","18:00","-1.5","","-3.1","","89","","","","16","","4","","11.3","","100.30","","","","-3","","Cloudy"
"-77.53","44.12","TRENTON A","6158875","2012-02-10 19:00","2012","02","10","19:00","-1.4","","-3.4","","86","","","","14","","4","","11.3","","100.30","","","","-3","","Cloudy"
"-77.53","44.12","TRENTON A","6158875","2012-02-10 20:00","2012","02","10","20:00","-1.1","","-2.2","","92","","","","27","","9","","1.6","","100.30","","","","-4","","Snow"
"-77.53","44.12","TRENTON A","6158875","2012-02-10 21:00","2012","02","10","21:00","-1.3","","-2.4","","92","","","","16","","4","","4.8","","100.24","","","","-3","","Snow"
"-77.53","44.12","TRENTON A","6158875","2012-02-10 22:00","2012","02","10","22:00"
"-77.53","44.12","TRENTON A","6158875","2012-02-10 23:00","2012","02","10","23:00"
"-77.53","44.12","TRENTON A","6158875","2012-02-11 00:00","2012","02","11","00:00"
"-77.53","44.12","TRENTON A","6158875","2012-02-11 01:00","2012","02","11","01:00"
"-77.53","44.12","TRENTON A","6158875","2012-02-11 02:00","2012","02","11","02:00"
"-77.53","44.12","TRENTON A","6158875","2012-02-11 03:00","2012","02","11","03:00"
"-77.53","44.12","TRENTON A","6158875","2012-02-11 04:00","2012","02","11","04:00"
"-77.53","44.12","TRENTON A","6158875","2012-02-11 05:00","2012","02","11","05:00"
"-77.53","44.12","TRENTON A","6158875","2012-02-11 06:00","2012","02","11","06:00","-12.3","","-15.6","","76","","","","3","","22","","6.4","","100.20","","","","-21","","Snow"
"-77.53","44.12","TRENTON A","6158875","2012-02-11 07:00","2012","02","11","07:00","-13.0","","-16.5","","75","","","","3","","32","","6.4","","100.21","","","","-24","","Snow"
"-77.53","44.12","TRENTON A","6158875","2012-02-11 08:00","2012","02","11","08:00","-12.9","","-16.5","","74","","","","2","","30","","14.5","","100.27","","","","-23","","Snow"
"-77.53","44.12","TRENTON A","6158875","2012-02-11 09:00","2012","02","11","09:00","-13.2","","-16.9","","74","","","","1","","24","","4.8","","100.33","","","","-23","","Snow"
"-77.53","44.12","TRENTON A","6158875","2012-02-11 10:00","2012","02","11","10:00","-12.7","","-16.3","","74","","","","3","","22","","4.0","","100.34","","","","-22","","Snow"
"-77.53","44.12","TRENTON A","6158875","2012-02-11 11:00","2012","02","11","11:00","-12.3","","-15.9","","74","","","","36","","24","","4.8","","100.33","","","","-22","","Snow"
"-77.53","44.12","TRENTON A","6158875","2012-02-11 12:00","2012","02","11","12:00","-11.0","","-16.8","","62","","","","1","","19","","16.1","","100.26","","","","-19","","Snow"
"-77.53","44.12","TRENTON A","6158875","2012-02-11 13:00","2012","02","11","13:00","-9.6","","-19.5","","44","","","","35","","26","","24.1","","100.21","","","","-18","","Cloudy"
"-77.53","44.12","TRENTON A","6158875","2012-02-11 14:00","2012","02","11","14:00","-8.8","","-19.3","","42","","","","36","","26","","24.1","","100.14","","","","-17","","Cloudy"
"-77.53","44.12","TRENTON A","6158875","2012-02-11 15:00","2012","02","11","15:00","-7.9","","-19.1","","40","","","","1","","22","","24.1","","100.13","","","","-16","","Mostly Cloudy"
"-77.53","44.12","TRENTON A","6158875","2012-02-11 16:00","2012","02","11","16:00","-7.7","","-20.0","","37","","","","1","","20","","24.1","","100.17","","","","-15","","Mostly Cloudy"
"-77.53","44.12","TRENTON A","6158875","2012-02-11 17:00","2012","02","11","17:00","-8.3","","-20.3","","37","","","","35","","11","","24.1","","100.22","","","","-14","","Mostly Cloudy"
"-77.53","44.12","TRENTON A","6158875","2012-02-11 18:00","2012","02","11","18:00","-9.0","","-21.1","","37","","","","33","","9","","24.1","","100.30","","","","-14","","Mainly Clear"
"-77.53","44.12","TRENTON A","6158875","2012-02-11 19:00","2012","02","11","19:00","-10.3","","-21.4","","40","","","","2","","4","","24.1","","100.39","","","","-13","","Clear"
"-77.53","44.12","TRENTON A","6158875","2012-02-11 20:00","2012","02","11","20:00","-12.8","","-20.9","","51","","","","","","0","","24.1","","100.42","","","","","","Clear"
"-77.53","44.12","TRENTON A","6158875","2012-02-11 21:00","2012","02","11","21:00","-11.0","","-19.1","","51","","","","29","","15","","24.1","","100.43","","","","-18","","Clear"
"-77.53","44.12","TRENTON A","6158875","2012-02-11 22:00","2012","02","11","22:00"
"-77.53","44.12","TRENTON A","6158875","2012-02-11 23:00","2012","02","11","23:00"
"-77.53","44.12","TRENTON A","6158875","2012-02-12 00:00","2012","02","12","00:00"
"-77.53","44.12","TRENTON A","6158875","2012-02-12 01:00","2012","02","12","01:00"
"-77.53","44.12","TRENTON A","6158875","2012-02-12 02:00","2012","02","12","02:00"
"-77.53","44.12","TRENTON A","6158875","2012-02-12 03:00","2012","02","12","03:00"
"-77.53","44.12","TRENTON A","6158875","2012-02-12 04:00","2012","02","12","04:00"
"-77.53","44.12","TRENTON A","6158875","2012-02-12 05:00","2012","02","12","05:00"
"-77.53","44.12","TRENTON A","6158875","2012-02-12 06:00","2012","02","12","06:00","-11.0","","-14.1","","78","","","","4","","7","","9.7","","100.11","","","","-15","","Snow"
"-77.53","44.12","TRENTON A","6158875","2012-02-12 07:00","2012","02","12","07:00","-10.8","","-13.0","","84","","","","4","","9","","3.2","","100.09","","","","-16","","Snow"
"-77.53","44.12","TRENTON A","6158875","2012-02-12 08:00","2012","02","12","08:00","-10.9","","-13.0","","84","","","","3","","11","","3.2","","100.14","","","","-17","","Snow"
"-77.53","44.12","TRENTON A","6158875","2012-02-12 09:00","2012","02","12","09:00","-10.8","","-13.6","","80","","","","35","","17","","11.3","","100.19","","","","-18","","Mainly Clear"
"-77.53","44.12","TRENTON A","6158875","2012-02-12 10:00","2012","02","12","10:00","-10.5","","-14.3","","74","","","","36","","13","","24.1","","100.23","","","","-17","","Mainly Clear"
"-77.53","44.12","TRENTON A","6158875","2012-02-12 11:00","2012","02","12","11:00"
"-77.53","44.12","TRENTON A","6158875","2012-02-12 12:00","2012","02","12","12:00","-9.6","","-16.2","","59","","","","31","","19","","24.1","","100.29","","","","-17","","Cloudy"
"-77.53","44.12","TRENTON A","6158875","2012-02-12 13:00","2012","02","12","13:00","-9.2","","-16.3","","56","","","","32","","22","","24.1","","100.26","","","","-17","","Cloudy"
"-77.53","44.12","TRENTON A","6158875","2012-02-12 14:00","2012","02","12","14:00","-8.9","","-16.0","","56","","","","30","","19","","24.1","","100.25","","","","-16","","Cloudy"
"-77.53","44.12","TRENTON A","6158875","2012-02-12 15:00","2012","02","12","15:00","-8.5","","-16.1","","54","","","","28","","24","","24.1","","100.24","","","","-17","","Mostly Cloudy"
"-77.53","44.12","TRENTON A","6158875","2012-02-12 16:00","2012","02","12","16:00","-7.8","","-16.1","","51","","","","28","","22","","24.1","","100.25","","","","-15","","Mostly Cloudy"
"-77.53","44.12","TRENTON A","6158875","2012-02-12 17:00","2012","02","12","17:00","-8.1","","-15.2","","57","","","","27","","20","","24.1","","100.21","","","","-15","","Mostly Cloudy"
"-77.53","44.12","TRENTON A","6158875","2012-02-12 18:00","2012","02","12","18:00","-7.8","","-13.8","","62","","","","24","","15","","24.1","","100.22","","","","-14","","Cloudy"
"-77.53","44.12","TRENTON A","6158875","2012-02-12 19:00","2012","02","12","19:00","-7.8","","-13.1","","66","","","","23","","9","","24.1","","100.21","","","","-12","","Cloudy"
"-77.53","44.12","TRENTON A","6158875","2012-02-12 20:00","2012","02","12","20:00","-7.3","","-11.1","","74","","","","24","","9","","9.7","","100.19","","","","-12","","Snow"
"-77.53","44.12","TRENTON A","6158875","2012-02-12 21:00","2012","02","12","21:00","-5.3","","-8.5","","78","","","","27","","11","","9.7","","100.19","","","","-10","","Snow"
"-77.53","44.12","TRENTON A","6158875","2012-02-12 22:00","2012","02","12","22:00"
"-77.53","44.12","TRENTON A","6158875","2012-02-12 23:00","2012","02","12","23:00"
"-77.53","44.12","TRENTON A","6158875","2012-02-13 00:00","2012","02","13","00:00"
"-77.53","44.12","TRENTON A","6158875","2012-02-13 01:00","2012","02","13","01:00"
"-77.53","44.12","TRENTON A","6158875","2012-02-13 02:00","2012","02","13","02:00"
"-77.53","44.12","TRENTON A","6158875","2012-02-13 03:00","2012","02","13","03:00"
"-77.53","44.12","TRENTON A","6158875","2012-02-13 04:00","2012","02","13","04:00"
"-77.53","44.12","TRENTON A","6158875","2012-02-13 05:00","2012","02","13","05:00"
"-77.53","44.12","TRENTON A","6158875","2012-02-13 06:00","2012","02","13","06:00","-2.1","","-7.1","","69","","","","23","","11","","24.1","","100.12","","","","-6","","Mostly Cloudy"
"-77.53","44.12","TRENTON A","6158875","2012-02-13 07:00","2012","02","13","07:00","-3.8","","-7.7","","74","","","","23","","13","","24.1","","100.15","","","","-9","","Mainly Clear"
"-77.53","44.12","TRENTON A","6158875","2012-02-13 08:00","2012","02","13","08:00","-4.0","","-8.1","","73","","","","23","","11","","24.1","","100.19","","","","-8","","Mostly Cloudy"
"-77.53","44.12","TRENTON A","6158875","2012-02-13 09:00","2012","02","13","09:00","-2.2","","-7.5","","67","","","","23","","17","","24.1","","100.22","","","","-8","","Mainly Clear"
"-77.53","44.12","TRENTON A","6158875","2012-02-13 10:00","2012","02","13","10:00","-0.8","","-6.7","","64","","","","23","","17","","24.1","","100.21","","","","-6","","Mainly Clear"
"-77.53","44.12","TRENTON A","6158875","2012-02-13 11:00","2012","02","13","11:00","0.7","","-6.2","","60","","","","23","","17","","24.1","","100.17","","","","","","Mainly Clear"
"-77.53","44.12","TRENTON A","6158875","2012-02-13 12:00","2012","02","13","12:00","1.5","","-5.2","","61","","","","23","","22","","24.1","","100.14","","","","","","Mostly Cloudy"
"-77.53","44.12","TRENTON A","6158875","2012-02-13 13:00","2012","02","13","13:00","2.5","","-5.5","","56","","","","27","","32","","24.1","","100.11","","","","","","Mostly Cloudy"
"-77.53","44.12","TRENTON A","6158875","2012-02-13 14:00","2012","02","13","14:00"
"-77.53","44.12","TRENTON A","6158875","2012-02-13 15:00","2012","02","13","15:00"
"-77.53","44.12","TRENTON A","6158875","2012-02-13 16:00","2012","02","13","16:00","2.0","","-3.6","","66","","","","23","","26","","24.1","","100.12","","","","","","Mainly Clear"
"-77.53","44.12","TRENTON A","6158875","2012-02-13 17:00","2012","02","13","17:00","1.6","","-3.5","","69","","","","23","","28","","24.1","","100.12","","","","","","Clear"
"-77.53","44.12","TRENTON A","6158875","2012-02-13 18:00","2012","02","13","18:00","0.8","","-3.6","","72","","","","24","","30","","24.1","","100.18","","","","","","Mainly Clear"
"-77.53","44.12","TRENTON A","6158875","2012-02-13 19:00","2012","02","13","19:00","0.3","","-4.9","","68","","","","24","","20","","24.1","","100.23","","","","","","Mainly Clear"
"-77.53","44.12","TRENTON A","6158875","2012-02-13 20:00","2012","02","13","20:00","-0.4","","-5.7","","67","","","","24","","17","","24.1","","100.24","","","","-5","","Clear"
"-77.53","44.12","TRENTON A","6158875","2012-02-13 21:00","2012","02","13","21:00","-0.3","","-9.3","","51","","","","25","","30","","24.1","","100.26","","","","-7","","Clear"
"-77.53","44.12","TRENTON A","6158875","2012-02-13 22:00","2012","02","13","22:00"
"-77.53","44.12","TRENTON A","6158875","2012-02-13 23:00","2012","02","13","23:00"
"-77.53","44.12","TRENTON A","6158875","2012-02-14 00:00","2012","02","14","00:00"
"-77.53","44.12","TRENTON A","6158875","2012-02-14 01:00","2012","02","14","01:00"
"-77.53","44.12","TRENTON A","6158875","2012-02-14 02:00","2012","02","14","02:00"
"-77.53","44.12","TRENTON A","6158875","2012-02-14 03:00","2012","02","14","03:00"
"-77.53","44.12","TRENTON A","6158875","2012-02-14 04:00","2012","02","14","04:00"
"-77.53","44.12","TRENTON A","6158875","2012-02-14 05:00","2012","02","14","05:00"
"-77.53","44.12","TRENTON A","6158875","2012-02-14 06:00","2012","02","14","06:00","0.8","","-5.1","","65","","","","23","","15","","24.1","","100.36","","","","","","Cloudy"
"-77.53","44.12","TRENTON A","6158875","2012-02-14 07:00","2012","02","14","07:00","0.3","","-4.0","","73","","","","24","","13","","24.1","","100.38","","","","","","Cloudy"
"-77.53","44.12","TRENTON A","6158875","2012-02-14 08:00","2012","02","14","08:00","0.2","","-4.1","","73","","","","24","","9","","24.1","","100.43","","","","","","Cloudy"
"-77.53","44.12","TRENTON A","6158875","2012-02-14 09:00","2012","02","14","09:00","0.9","","-5.1","","64","","","","23","","11","","24.1","","100.45","","","","","","Cloudy"
"-77.53","44.12","TRENTON A","6158875","2012-02-14 10:00","2012","02","14","10:00","2.1","","-5.6","","57","","","","21","","11","","24.1","","100.44","","","","","","Mostly Cloudy"
"-77.53","44.12","TRENTON A","6158875","2012-02-14 11:00","2012","02","14","11:00","2.3","","-4.2","","62","","","","20","","15","","24.1","","100.44","","","","","","Cloudy"
"-77.53","44.12","TRENTON A","6158875","2012-02-14 12:00","2012","02","14","12:00","2.7","","-4.2","","60","","","","21","","15","","24.1","","100.40","","","","","","Mostly Cloudy"
"-77.53","44.12","TRENTON A","6158875","2012-02-14 13:00","2012","02","14","13:00","3.0","","-4.5","","58","","","","22","","22","","24.1","","100.34","","","","","","Mostly Cloudy"
"-77.53","44.12","TRENTON A","6158875","2012-02-14 14:00","2012","02","14","14:00","2.1","","-3.3","","67","","","","22","","22","","24.1","","100.31","","","","","","Cloudy"
"-77.53","44.12","TRENTON A","6158875","2012-02-14 15:00","2012","02","14","15:00","1.2","","-1.6","","82","","","","22","","13","","11.3","","100.32","","","","","","Snow"
"-77.53","44.12","TRENTON A","6158875","2012-02-14 16:00","2012","02","14","16:00","0.9","","-1.6","","83","","","","18","","7","","12.9","","100.33","","","","","","Snow"
"-77.53","44.12","TRENTON A","6158875","2012-02-14 17:00","2012","02","14","17:00","0.9","","-1.3","","85","","","","18","","6","","14.5","","100.35","","","","","","Snow"
"-77.53","44.12","TRENTON A","6158875","2012-02-14 18:00","2012","02","14","18:00","0.9","","-0.9","","88","","","","15","","6","","14.5","","100.38","","","","","","Snow"
"-77.53","44.12","TRENTON A","6158875","2012-02-14 19:00","2012","02","14","19:00","0.9","","-0.6","","90","","","","15","","4","","14.5","","100.40","","","","","","Snow"
"-77.53","44.12","TRENTON A","6158875","2012-02-14 20:00","2012","02","14","20:00","1.1","","0.1","","93","","","","19","","7","","9.7","","100.42","","","","","","Fog"
"-77.53","44.12","TRENTON A","6158875","2012-02-14 21:00","2012","02","14","21:00","1.5","","0.4","","92","","","","20","","7","","12.9","","100.44","","","","","","Cloudy"
"-77.53","44.12","TRENTON A","6158875","2012-02-14 22:00","2012","02","14","22:00"
"-77.53","44.12","TRENTON A","6158875","2012-02-14 23:00","2012","02","14","23:00"
"-77.53","44.12","TRENTON A","6158875","2012-02-15 00:00","2012","02","15","00:00"
"-77.53","44.12","TRENTON A","6158875","2012-02-15 01:00","2012","02","15","01:00"
"-77.53","44.12","TRENTON A","6158875","2012-02-15 02:00","2012","02","15","02:00"
"-77.53","44.12","TRENTON A","6158875","2012-02-15 03:00","2012","02","15","03:00"
"-77.53","44.12","TRENTON A","6158875","2012-02-15 04:00","2012","02","15","04:00"
"-77.53","44.12","TRENTON A","6158875","2012-02-15 05:00","2012","02","15","05:00"
"-77.53","44.12","TRENTON A","6158875","2012-02-15 06:00","2012","02","15","06:00","0.9","","-0.2","","92","","","","24","","7","","6.4","","100.77","","","","","","Rain,Fog"
"-77.53","44.12","TRENTON A","6158875","2012-02-15 07:00","2012","02","15","07:00","1.0","","-0.1","","92","","","","23","","7","","3.2","","100.84","","","","","","Rain,Fog"
"-77.53","44.12","TRENTON A","6158875","2012-02-15 08:00","2012","02","15","08:00","0.8","","-0.2","","93","","","","24","","9","","3.2","","100.95","","","","","","Fog"
"-77.53","44.12","TRENTON A","6158875","2012-02-15 09:00","2012","02","15","09:00","1.3","","-0.1","","90","","","","22","","9","","4.8","","101.04","","","","","","Snow,Fog"
"-77.53","44.12","TRENTON A","6158875","2012-02-15 10:00","2012","02","15","10:00","2.3","","0.2","","86","","","","22","","9","","11.3","","101.10","","","","","","Cloudy"
"-77.53","44.12","TRENTON A","6158875","2012-02-15 11:00","2012","02","15","11:00","3.3","","-0.5","","76","","","","26","","19","","24.1","","101.13","","","","","","Cloudy"
"-77.53","44.12","TRENTON A","6158875","2012-02-15 12:00","2012","02","15","12:00","3.7","","-0.5","","74","","","","24","","11","","24.1","","101.14","","","","","","Cloudy"
"-77.53","44.12","TRENTON A","6158875","2012-02-15 13:00","2012","02","15","13:00","3.1","","-0.9","","75","","","","22","","15","","24.1","","101.13","","","","","","Cloudy"
"-77.53","44.12","TRENTON A","6158875","2012-02-15 14:00","2012","02","15","14:00","3.2","","-0.6","","76","","","","23","","24","","16.1","","101.16","","","","","","Cloudy"
"-77.53","44.12","TRENTON A","6158875","2012-02-15 15:00","2012","02","15","15:00","3.6","","-0.4","","75","","","","24","","13","","19.3","","101.16","","","","","","Cloudy"
"-77.53","44.12","TRENTON A","6158875","2012-02-15 16:00","2012","02","15","16:00","3.4","","-0.4","","76","","","","23","","13","","19.3","","101.19","","","","","","Cloudy"
"-77.53","44.12","TRENTON A","6158875","2012-02-15 17:00","2012","02","15","17:00","2.9","","-0.4","","79","","","","23","","15","","16.1","","101.23","","","","","","Cloudy"
"-77.53","44.12","TRENTON A","6158875","2012-02-15 18:00","2012","02","15","18:00","2.4","","-0.5","","81","","","","24","","11","","12.9","","101.31","","","","","","Cloudy"
"-77.53","44.12","TRENTON A","6158875","2012-02-15 19:00","2012","02","15","19:00","2.5","","-0.7","","79","","","","24","","11","","12.9","","101.33","","","","","","Cloudy"
"-77.53","44.12","TRENTON A","6158875","2012-02-15 20:00","2012","02","15","20:00","2.4","","-0.6","","81","","","","21","","7","","12.9","","101.35","","","","","","Cloudy"
"-77.53","44.12","TRENTON A","6158875","2012-02-15 21:00","2012","02","15","21:00","2.5","","-0.4","","81","","","","22","","11","","12.9","","101.35","","","","","","Cloudy"
"-77.53","44.12","TRENTON A","6158875","2012-02-15 22:00","2012","02","15","22:00"
"-77.53","44.12","TRENTON A","6158875","2012-02-15 23:00","2012","02","15","23:00"
"-77.53","44.12","TRENTON A","6158875","2012-02-16 00:00","2012","02","16","00:00"
"-77.53","44.12","TRENTON A","6158875","2012-02-16 01:00","2012","02","16","01:00"
"-77.53","44.12","TRENTON A","6158875","2012-02-16 02:00","2012","02","16","02:00"
"-77.53","44.12","TRENTON A","6158875","2012-02-16 03:00","2012","02","16","03:00"
"-77.53","44.12","TRENTON A","6158875","2012-02-16 04:00","2012","02","16","04:00"
"-77.53","44.12","TRENTON A","6158875","2012-02-16 05:00","2012","02","16","05:00"
"-77.53","44.12","TRENTON A","6158875","2012-02-16 06:00","2012","02","16","06:00","-1.9","","-3.0","","92","","","","4","","7","","6.4","","101.10","","","","-5","","Fog"
"-77.53","44.12","TRENTON A","6158875","2012-02-16 07:00","2012","02","16","07:00","-1.2","","-2.4","","92","","","","10","","4","","11.3","","101.11","","","","-3","","Cloudy"
"-77.53","44.12","TRENTON A","6158875","2012-02-16 08:00","2012","02","16","08:00","-0.3","","-1.6","","91","","","","6","","7","","11.3","","101.02","","","","-3","","Mostly Cloudy"
"-77.53","44.12","TRENTON A","6158875","2012-02-16 09:00","2012","02","16","09:00","0.7","","-0.9","","89","","","","7","","11","","11.3","","100.90","","","","","","Mostly Cloudy"
"-77.53","44.12","TRENTON A","6158875","2012-02-16 10:00","2012","02","16","10:00","1.6","","-0.4","","87","","","","10","","7","","9.7","","100.82","","","","","","Rain Showers,Fog"
"-77.53","44.12","TRENTON A","6158875","2012-02-16 11:00","2012","02","16","11:00","2.3","","-0.5","","82","","","","12","","7","","12.9","","100.75","","","","","","Rain Showers"
"-77.53","44.12","TRENTON A","6158875","2012-02-16 12:00","2012","02","16","12:00","2.4","","0.0","","84","","","","11","","11","","11.3","","100.64","","","","","","Rain"
"-77.53","44.12","TRENTON A","6158875","2012-02-16 13:00","2012","02","16","13:00","2.9","","1.2","","89","","","","13","","7","","8.0","","100.48","","","","","","Rain,Fog"
"-77.53","44.12","TRENTON A","6158875","2012-02-16 14:00","2012","02","16","14:00","2.9","","1.4","","90","","","","13","","13","","8.0","","100.36","","","","","","Rain,Fog"
"-77.53","44.12","TRENTON A","6158875","2012-02-16 15:00","2012","02","16","15:00","3.1","","1.6","","90","","","","11","","6","","8.0","","100.28","","","","","","Rain,Fog"
"-77.53","44.12","TRENTON A","6158875","2012-02-16 16:00","2012","02","16","16:00","3.1","","1.9","","92","","","","14","","11","","6.4","","100.22","","","","","","Rain,Fog"
"-77.53","44.12","TRENTON A","6158875","2012-02-16 17:00","2012","02","16","17:00","3.2","","2.3","","94","","","","14","","6","","4.8","","100.15","","","","","","Rain,Fog"
"-77.53","44.12","TRENTON A","6158875","2012-02-16 18:00","2012","02","16","18:00","3.4","","2.5","","94","","","","16","","6","","3.2","","100.10","","","","","","Rain,Fog"
"-77.53","44.12","TRENTON A","6158875","2012-02-16 19:00","2012","02","16","19:00","3.9","","3.3","","96","","","","17","","17","","4.8","","100.04","","","","","","Rain,Fog"
"-77.53","44.12","TRENTON A","6158875","2012-02-16 20:00","2012","02","16","20:00","4.1","","3.7","","97","","","","19","","19","","3.2","","100.04","","","","","","Rain,Fog"
"-77.53","44.12","TRENTON A","6158875","2012-02-16 21:00","2012","02","16","21:00","3.8","","3.3","","97","","","","21","","13","","0.8","","100.05","","","","","","Rain,Fog"
"-77.53","44.12","TRENTON A","6158875","2012-02-16 22:00","2012","02","16","22:00"
"-77.53","44.12","TRENTON A","6158875","2012-02-16 23:00","2012","02","16","23:00"
"-77.53","44.12","TRENTON A","6158875","2012-02-17 00:00","2012","02","17","00:00"
"-77.53","44.12","TRENTON A","6158875","2012-02-17 01:00","2012","02","17","01:00"
"-77.53","44.12","TRENTON A","6158875","2012-02-17 02:00","2012","02","17","02:00"
"-77.53","44.12","TRENTON A","6158875","2012-02-17 03:00","2012","02","17","03:00"
"-77.53","44.12","TRENTON A","6158875","2012-02-17 04:00","2012","02","17","04:00"
"-77.53","44.12","TRENTON A","6158875","2012-02-17 05:00","2012","02","17","05:00"
"-77.53","44.12","TRENTON A","6158875","2012-02-17 06:00","2012","02","17","06:00","0.9","","-2.9","","76","","","","23","","20","","24.1","","100.37","","","","","","Mainly Clear"
"-77.53","44.12","TRENTON A","6158875","2012-02-17 07:00","2012","02","17","07:00","1.1","","-2.1","","79","","","","24","","19","","24.1","","100.44","","","","","","Mostly Cloudy"
"-77.53","44.12","TRENTON A","6158875","2012-02-17 08:00","2012","02","17","08:00","1.5","","-2.1","","77","","","","24","","19","","19.3","","100.52","","","","","","Mainly Clear"
"-77.53","44.12","TRENTON A","6158875","2012-02-17 09:00","2012","02","17","09:00","2.5","","-2.1","","72","","","","25","","22","","24.1","","100.49","","","","","","Clear"
"-77.53","44.12","TRENTON A","6158875","2012-02-17 10:00","2012","02","17","10:00","4.0","","-4.4","","54","","","","26","","24","","24.1","","100.46","","","","","","Clear"
"-77.53","44.12","TRENTON A","6158875","2012-02-17 11:00","2012","02","17","11:00","4.1","","-5.7","","49","","","","27","","30","","24.1","","100.43","","","","","","Mainly Clear"
"-77.53","44.12","TRENTON A","6158875","2012-02-17 12:00","2012","02","17","12:00","4.4","","-6.1","","46","","","","25","","24","","24.1","","100.37","","","","","","Mostly Cloudy"
"-77.53","44.12","TRENTON A","6158875","2012-02-17 13:00","2012","02","17","13:00","3.2","","-1.9","","69","","","","23","","20","","24.1","","100.33","","","","","","Mostly Cloudy"
"-77.53","44.12","TRENTON A","6158875","2012-02-17 14:00","2012","02","17","14:00","3.1","","-1.9","","70","","","","23","","15","","24.1","","100.31","","","","","","Mostly Cloudy"
"-77.53","44.12","TRENTON A","6158875","2012-02-17 15:00","2012","02","17","15:00","3.3","","-4.2","","58","","","","25","","22","","24.1","","100.32","","","","","","Mostly Cloudy"
"-77.53","44.12","TRENTON A","6158875","2012-02-17 16:00","2012","02","17","16:00","2.0","","-5.1","","59","","","","27","","19","","24.1","","100.39","","","","","","Mostly Cloudy"
"-77.53","44.12","TRENTON A","6158875","2012-02-17 17:00","2012","02","17","17:00","2.3","","-5.0","","58","","","","28","","26","","24.1","","100.40","","","","","","Mostly Cloudy"
"-77.53","44.12","TRENTON A","6158875","2012-02-17 18:00","2012","02","17","18:00","2.0","","-4.5","","62","","","","27","","20","","24.1","","100.48","","","","","","Mostly Cloudy"
"-77.53","44.12","TRENTON A","6158875","2012-02-17 19:00","2012","02","17","19:00","0.7","","-4.8","","67","","","","28","","20","","24.1","","100.52","","","","","","Mainly Clear"
"-77.53","44.12","TRENTON A","6158875","2012-02-17 20:00","2012","02","17","20:00","0.9","","-4.5","","67","","","","26","","20","","24.1","","100.58","","","","","","Mostly Cloudy"
"-77.53","44.12","TRENTON A","6158875","2012-02-17 21:00","2012","02","17","21:00","0.7","","-3.8","","72","","","","26","","19","","19.3","","100.61","","","","","","Snow Showers"
"-77.53","44.12","TRENTON A","6158875","2012-02-17 22:00","2012","02","17","22:00"
"-77.53","44.12","TRENTON A","6158875","2012-02-17 23:00","2012","02","17","23:00"
"-77.53","44.12","TRENTON A","6158875","2012-02-18 00:00","2012","02","18","00:00"
"-77.53","44.12","TRENTON A","6158875","2012-02-18 01:00","2012","02","18","01:00"
"-77.53","44.12","TRENTON A","6158875","2012-02-18 02:00","2012","02","18","02:00"
"-77.53","44.12","TRENTON A","6158875","2012-02-18 03:00","2012","02","18","03:00"
"-77.53","44.12","TRENTON A","6158875","2012-02-18 04:00","2012","02","18","04:00"
"-77.53","44.12","TRENTON A","6158875","2012-02-18 05:00","2012","02","18","05:00"
"-77.53","44.12","TRENTON A","6158875","2012-02-18 06:00","2012","02","18","06:00","-5.0","","-6.4","","90","","","","","","0","","24.1","","100.46","","","","","","Mainly Clear"
"-77.53","44.12","TRENTON A","6158875","2012-02-18 07:00","2012","02","18","07:00","-4.3","","-5.7","","90","","","","5","","4","","24.1","","100.40","","","","-6","","Cloudy"
"-77.53","44.12","TRENTON A","6158875","2012-02-18 08:00","2012","02","18","08:00","-2.7","","-4.4","","88","","","","7","","4","","24.1","","100.36","","","","-4","","Cloudy"
"-77.53","44.12","TRENTON A","6158875","2012-02-18 09:00","2012","02","18","09:00","-1.1","","-2.9","","88","","","","4","","7","","3.2","","100.32","","","","-4","","Snow"
"-77.53","44.12","TRENTON A","6158875","2012-02-18 10:00","2012","02","18","10:00","-0.5","","-1.8","","91","","","","7","","7","","1.6","","100.25","","","","-3","","Snow"
"-77.53","44.12","TRENTON A","6158875","2012-02-18 11:00","2012","02","18","11:00","0.0","","-0.9","","94","","","","8","","9","","1.2","","100.21","","","","-3","","Snow"
"-77.53","44.12","TRENTON A","6158875","2012-02-18 12:00","2012","02","18","12:00","0.6","","-0.5","","92","","","","8","","7","","1.6","","100.14","","","","","","Snow"
"-77.53","44.12","TRENTON A","6158875","2012-02-18 13:00","2012","02","18","13:00","0.5","","-0.9","","90","","","","5","","9","","8.0","","100.07","","","","","","Snow"
"-77.53","44.12","TRENTON A","6158875","2012-02-18 14:00","2012","02","18","14:00","0.6","","-0.6","","92","","","","5","","13","","3.2","","100.07","","","","","","Snow"
"-77.53","44.12","TRENTON A","6158875","2012-02-18 15:00","2012","02","18","15:00","0.9","","-0.4","","91","","","","3","","7","","12.9","","100.12","","","","","","Snow"
"-77.53","44.12","TRENTON A","6158875","2012-02-18 16:00","2012","02","18","16:00","0.9","","-1.1","","86","","","","3","","15","","24.1","","100.22","","","","","","Snow Showers"
"-77.53","44.12","TRENTON A","6158875","2012-02-18 17:00","2012","02","18","17:00","0.9","","-0.9","","88","","","","36","","4","","24.1","","100.33","","","","","","Mostly Cloudy"
"-77.53","44.12","TRENTON A","6158875","2012-02-18 18:00","2012","02","18","18:00","-0.1","","-2.2","","86","","","","32","","7","","24.1","","100.46","","","","-3","","Mostly Cloudy"
"-77.53","44.12","TRENTON A","6158875","2012-02-18 19:00","2012","02","18","19:00","-1.8","","-3.3","","89","","","","24","","7","","24.1","","100.59","","","","-4","","Mainly Clear"
"-77.53","44.12","TRENTON A","6158875","2012-02-18 20:00","2012","02","18","20:00","-2.9","","-3.6","","95","","","","31","","6","","24.1","","100.72","","","","-5","","Mostly Cloudy"
"-77.53","44.12","TRENTON A","6158875","2012-02-18 21:00","2012","02","18","21:00","-2.0","","-3.5","","89","","","","34","","9","","24.1","","100.82","","","","-5","","Mostly Cloudy"
"-77.53","44.12","TRENTON A","6158875","2012-02-18 22:00","2012","02","18","22:00"
"-77.53","44.12","TRENTON A","6158875","2012-02-18 23:00","2012","02","18","23:00"
"-77.53","44.12","TRENTON A","6158875","2012-02-19 00:00","2012","02","19","00:00"
"-77.53","44.12","TRENTON A","6158875","2012-02-19 01:00","2012","02","19","01:00"
"-77.53","44.12","TRENTON A","6158875","2012-02-19 02:00","2012","02","19","02:00"
"-77.53","44.12","TRENTON A","6158875","2012-02-19 03:00","2012","02","19","03:00"
"-77.53","44.12","TRENTON A","6158875","2012-02-19 04:00","2012","02","19","04:00"
"-77.53","44.12","TRENTON A","6158875","2012-02-19 05:00","2012","02","19","05:00"
"-77.53","44.12","TRENTON A","6158875","2012-02-19 06:00","2012","02","19","06:00","-2.4","","-4.8","","84","","","","","","0","","16.1","","100.98","","","","","","Snow"
"-77.53","44.12","TRENTON A","6158875","2012-02-19 07:00","2012","02","19","07:00","-2.6","","-4.6","","86","","","","29","","6","","3.2","","101.01","","","","-5","","Snow"
"-77.53","44.12","TRENTON A","6158875","2012-02-19 08:00","2012","02","19","08:00","-2.7","","-4.4","","88","","","","33","","11","","4.8","","101.05","","","","-7","","Snow"
"-77.53","44.12","TRENTON A","6158875","2012-02-19 09:00","2012","02","19","09:00","-2.4","","-4.2","","87","","","","32","","15","","3.6","","101.08","","","","-7","","Snow"
"-77.53","44.12","TRENTON A","6158875","2012-02-19 10:00","2012","02","19","10:00","-2.3","","-5.4","","79","","","","33","","17","","24.1","","101.09","","","","-8","","Mostly Cloudy"
"-77.53","44.12","TRENTON A","6158875","2012-02-19 11:00","2012","02","19","11:00","-1.8","","-7.2","","67","","","","33","","19","","24.1","","101.09","","","","-7","","Mainly Clear"
"-77.53","44.12","TRENTON A","6158875","2012-02-19 12:00","2012","02","19","12:00","-1.1","","-7.0","","64","","","","34","","13","","24.1","","101.04","","","","-5","","Mostly Cloudy"
"-77.53","44.12","TRENTON A","6158875","2012-02-19 13:00","2012","02","19","13:00","-0.6","","-7.2","","61","","","","1","","6","","24.1","","100.96","","","","-3","","Mainly Clear"
"-77.53","44.12","TRENTON A","6158875","2012-02-19 14:00","2012","02","19","14:00","1.0","","-6.8","","56","","","","19","","4","","24.1","","100.90","","","","","","Mainly Clear"
"-77.53","44.12","TRENTON A","6158875","2012-02-19 15:00","2012","02","19","15:00","0.6","","-7.4","","55","","","","19","","6","","24.1","","100.85","","","","","","Mostly Cloudy"
"-77.53","44.12","TRENTON A","6158875","2012-02-19 16:00","2012","02","19","16:00","-0.6","","-7.5","","60","","","","21","","20","","24.1","","100.85","","","","-6","","Mainly Clear"
"-77.53","44.12","TRENTON A","6158875","2012-02-19 17:00","2012","02","19","17:00","-0.9","","-7.7","","60","","","","22","","11","","24.1","","100.84","","","","-5","","Mainly Clear"
"-77.53","44.12","TRENTON A","6158875","2012-02-19 18:00","2012","02","19","18:00","-2.0","","-8.8","","60","","","","27","","13","","24.1","","100.89","","","","-6","","Mainly Clear"
"-77.53","44.12","TRENTON A","6158875","2012-02-19 19:00","2012","02","19","19:00","-3.3","","-9.6","","62","","","","29","","7","","24.1","","100.94","","","","-6","","Clear"
"-77.53","44.12","TRENTON A","6158875","2012-02-19 20:00","2012","02","19","20:00","-3.8","","-9.7","","64","","","","30","","11","","24.1","","100.96","","","","-8","","Clear"
"-77.53","44.12","TRENTON A","6158875","2012-02-19 21:00","2012","02","19","21:00","-4.2","","-10.0","","64","","","","32","","9","","24.1","","100.96","","","","-8","","Clear"
"-77.53","44.12","TRENTON A","6158875","2012-02-19 22:00","2012","02","19","22:00"
"-77.53","44.12","TRENTON A","6158875","2012-02-19 23:00","2012","02","19","23:00"
"-77.53","44.12","TRENTON A","6158875","2012-02-20 00:00","2012","02","20","00:00"
"-77.53","44.12","TRENTON A","6158875","2012-02-20 01:00","2012","02","20","01:00"
"-77.53","44.12","TRENTON A","6158875","2012-02-20 02:00","2012","02","20","02:00"
"-77.53","44.12","TRENTON A","6158875","2012-02-20 03:00","2012","02","20","03:00"
"-77.53","44.12","TRENTON A","6158875","2012-02-20 04:00","2012","02","20","04:00"
"-77.53","44.12","TRENTON A","6158875","2012-02-20 05:00","2012","02","20","05:00"
"-77.53","44.12","TRENTON A","6158875","2012-02-20 06:00","2012","02","20","06:00","-8.2","","-12.3","","72","","","","34","","6","","24.1","","101.39","","","","-11","","Clear"
"-77.53","44.12","TRENTON A","6158875","2012-02-20 07:00","2012","02","20","07:00","-8.5","","-12.5","","73","","","","32","","9","","24.1","","101.45","","","","-13","","Clear"
"-77.53","44.12","TRENTON A","6158875","2012-02-20 08:00","2012","02","20","08:00","-7.5","","-12.2","","69","","","","33","","6","","24.1","","101.52","","","","-11","","Clear"
"-77.53","44.12","TRENTON A","6158875","2012-02-20 09:00","2012","02","20","09:00","-5.7","","-11.3","","65","","","","30","","6","","24.1","","101.58","","","","-9","","Clear"
"-77.53","44.12","TRENTON A","6158875","2012-02-20 10:00","2012","02","20","10:00","-3.3","","-9.9","","60","","","","30","","11","","24.1","","101.65","","","","-8","","Clear"
"-77.53","44.12","TRENTON A","6158875","2012-02-20 11:00","2012","02","20","11:00","-1.0","","-8.3","","58","","","","27","","7","","24.1","","101.70","","","","-4","","Clear"
"-77.53","44.12","TRENTON A","6158875","2012-02-20 12:00","2012","02","20","12:00","-0.1","","-7.7","","57","","","","20","","13","","24.1","","101.72","","","","-4","","Clear"
"-77.53","44.12","TRENTON A","6158875","2012-02-20 13:00","2012","02","20","13:00","0.1","","-6.3","","62","","","","21","","15","","24.1","","101.71","","","","","","Clear"
"-77.53","44.12","TRENTON A","6158875","2012-02-20 14:00","2012","02","20","14:00","0.7","","-6.2","","60","","","","21","","17","","24.1","","101.68","","","","","","Clear"
"-77.53","44.12","TRENTON A","6158875","2012-02-20 15:00","2012","02","20","15:00","0.7","","-5.5","","63","","","","20","","19","","24.1","","101.68","","","","","","Clear"
"-77.53","44.12","TRENTON A","6158875","2012-02-20 16:00","2012","02","20","16:00","0.9","","-5.7","","61","","","","21","","13","","24.1","","101.63","","","","","","Clear"
"-77.53","44.12","TRENTON A","6158875","2012-02-20 17:00","2012","02","20","17:00","0.6","","-5.7","","63","","","","23","","17","","24.1","","101.62","","","","","","Clear"
"-77.53","44.12","TRENTON A","6158875","2012-02-20 18:00","2012","02","20","18:00","-0.6","","-5.9","","67","","","","22","","13","","24.1","","101.64","","","","-5","","Clear"
"-77.53","44.12","TRENTON A","6158875","2012-02-20 19:00","2012","02","20","19:00","-1.9","","-5.7","","75","","","","22","","9","","24.1","","101.64","","","","-5","","Clear"
"-77.53","44.12","TRENTON A","6158875","2012-02-20 20:00","2012","02","20","20:00","-1.9","","-5.9","","74","","","","23","","9","","24.1","","101.61","","","","-5","","Clear"
"-77.53","44.12","TRENTON A","6158875","2012-02-20 21:00","2012","02","20","21:00","-2.9","","-6.3","","77","","","","21","","4","","24.1","","101.60","","","","-4","","Clear"
"-77.53","44.12","TRENTON A","6158875","2012-02-20 22:00","2012","02","20","22:00"
"-77.53","44.12","TRENTON A","6158875","2012-02-20 23:00","2012","02","20","23:00"
"-77.53","44.12","TRENTON A","6158875","2012-02-21 00:00","2012","02","21","00:00"
"-77.53","44.12","TRENTON A","6158875","2012-02-21 01:00","2012","02","21","01:00"
"-77.53","44.12","TRENTON A","6158875","2012-02-21 02:00","2012","02","21","02:00"
"-77.53","44.12","TRENTON A","6158875","2012-02-21 03:00","2012","02","21","03:00"
"-77.53","44.12","TRENTON A","6158875","2012-02-21 04:00","2012","02","21","04:00"
"-77.53","44.12","TRENTON A","6158875","2012-02-21 05:00","2012","02","21","05:00"
"-77.53","44.12","TRENTON A","6158875","2012-02-21 06:00","2012","02","21","06:00","-3.8","","-5.8","","86","","","","8","","7","","24.1","","101.06","","","","-7","","Cloudy"
"-77.53","44.12","TRENTON A","6158875","2012-02-21 07:00","2012","02","21","07:00","-3.3","","-5.7","","83","","","","6","","7","","24.1","","100.98","","","","-6","","Cloudy"
"-77.53","44.12","TRENTON A","6158875","2012-02-21 08:00","2012","02","21","08:00","-2.3","","-5.6","","78","","","","8","","9","","24.1","","100.89","","","","-6","","Mostly Cloudy"
"-77.53","44.12","TRENTON A","6158875","2012-02-21 09:00","2012","02","21","09:00","-0.4","","-4.7","","73","","","","9","","9","","24.1","","100.75","","","","-4","","Cloudy"
"-77.53","44.12","TRENTON A","6158875","2012-02-21 10:00","2012","02","21","10:00","1.0","","-4.3","","68","","","","14","","20","","24.1","","100.58","","","","","","Cloudy"
"-77.53","44.12","TRENTON A","6158875","2012-02-21 11:00","2012","02","21","11:00","1.4","","-4.5","","65","","","","15","","19","","24.1","","100.51","","","","","","Cloudy"
"-77.53","44.12","TRENTON A","6158875","2012-02-21 12:00","2012","02","21","12:00","2.3","","-5.1","","58","","","","14","","15","","24.1","","100.34","","","","","","Cloudy"
"-77.53","44.12","TRENTON A","6158875","2012-02-21 13:00","2012","02","21","13:00","2.8","","-4.1","","60","","","","13","","13","","24.1","","100.12","","","","","","Cloudy"
"-77.53","44.12","TRENTON A","6158875","2012-02-21 14:00","2012","02","21","14:00","3.6","","-4.4","","56","","","","15","","15","","24.1","","99.96","","","","","","Cloudy"
"-77.53","44.12","TRENTON A","6158875","2012-02-21 15:00","2012","02","21","15:00","3.9","","-4.5","","54","","","","15","","19","","24.1","","99.84","","","","","","Cloudy"
"-77.53","44.12","TRENTON A","6158875","2012-02-21 16:00","2012","02","21","16:00","3.5","","-2.8","","63","","","","21","","13","","24.1","","99.78","","","","","","Cloudy"
"-77.53","44.12","TRENTON A","6158875","2012-02-21 17:00","2012","02","21","17:00","0.7","","-0.6","","91","","","","18","","19","","1.2","","99.76","","","","","","Snow"
"-77.53","44.12","TRENTON A","6158875","2012-02-21 18:00","2012","02","21","18:00","0.9","","-0.2","","92","","","","16","","7","","8.0","","99.72","","","","","","Snow,Fog"
"-77.53","44.12","TRENTON A","6158875","2012-02-21 19:00","2012","02","21","19:00","0.9","","-0.1","","93","","","","15","","6","","9.7","","99.64","","","","","","Snow,Fog"
"-77.53","44.12","TRENTON A","6158875","2012-02-21 20:00","2012","02","21","20:00","1.9","","0.2","","88","","","","18","","17","","11.3","","99.54","","","","","","Rain"
"-77.53","44.12","TRENTON A","6158875","2012-02-21 21:00","2012","02","21","21:00","2.0","","0.5","","90","","","","18","","7","","11.3","","99.46","","","","","","Rain"
"-77.53","44.12","TRENTON A","6158875","2012-02-21 22:00","2012","02","21","22:00"
"-77.53","44.12","TRENTON A","6158875","2012-02-21 23:00","2012","02","21","23:00"
"-77.53","44.12","TRENTON A","6158875","2012-02-22 00:00","2012","02","22","00:00"
"-77.53","44.12","TRENTON A","6158875","2012-02-22 01:00","2012","02","22","01:00"
"-77.53","44.12","TRENTON A","6158875","2012-02-22 02:00","2012","02","22","02:00"
"-77.53","44.12","TRENTON A","6158875","2012-02-22 03:00","2012","02","22","03:00"
"-77.53","44.12","TRENTON A","6158875","2012-02-22 04:00","2012","02","22","04:00"
"-77.53","44.12","TRENTON A","6158875","2012-02-22 05:00","2012","02","22","05:00"
"-77.53","44.12","TRENTON A","6158875","2012-02-22 06:00","2012","02","22","06:00"
"-77.53","44.12","TRENTON A","6158875","2012-02-22 07:00","2012","02","22","07:00","2.6","","0.3","","85","","","","23","","17","","24.1","","99.19","","","","","","Mainly Clear"
"-77.53","44.12","TRENTON A","6158875","2012-02-22 08:00","2012","02","22","08:00","3.0","","0.5","","84","","","","21","","24","","24.1","","99.19","","","","","","Mainly Clear"
"-77.53","44.12","TRENTON A","6158875","2012-02-22 09:00","2012","02","22","09:00","3.0","","0.7","","85","","","","21","","17","","24.1","","99.15","","","","","","Cloudy"
"-77.53","44.12","TRENTON A","6158875","2012-02-22 10:00","2012","02","22","10:00","3.8","","1.4","","84","","","","23","","22","","24.1","","99.08","","","","","","Cloudy"
"-77.53","44.12","TRENTON A","6158875","2012-02-22 11:00","2012","02","22","11:00","3.9","","1.8","","86","","","","21","","17","","16.1","","98.95","","","","","","Cloudy"
"-77.53","44.12","TRENTON A","6158875","2012-02-22 12:00","2012","02","22","12:00","5.4","","1.6","","76","","","","23","","32","","19.3","","98.88","","","","","","Cloudy"
"-77.53","44.12","TRENTON A","6158875","2012-02-22 13:00","2012","02","22","13:00","5.8","","0.7","","70","","","","23","","37","","24.1","","98.74","","","","","","Mostly Cloudy"
"-77.53","44.12","TRENTON A","6158875","2012-02-22 14:00","2012","02","22","14:00","5.6","","-0.6","","64","","","","22","","33","","24.1","","98.71","","","","","","Mostly Cloudy"
"-77.53","44.12","TRENTON A","6158875","2012-02-22 15:00","2012","02","22","15:00","5.6","","-0.9","","63","","","","22","","32","","24.1","","98.71","","","","","","Cloudy"
"-77.53","44.12","TRENTON A","6158875","2012-02-22 16:00","2012","02","22","16:00","4.8","","-1.0","","66","","","","23","","26","","24.1","","98.69","","","","","","Cloudy"
"-77.53","44.12","TRENTON A","6158875","2012-02-22 17:00","2012","02","22","17:00","4.1","","-0.9","","70","","","","22","","20","","24.1","","98.68","","","","","","Mostly Cloudy"
"-77.53","44.12","TRENTON A","6158875","2012-02-22 18:00","2012","02","22","18:00","3.0","","0.4","","83","","","","20","","24","","24.1","","98.72","","","","","","Cloudy"
"-77.53","44.12","TRENTON A","6158875","2012-02-22 19:00","2012","02","22","19:00","2.1","","0.6","","90","","","","21","","17","","24.1","","98.73","","","","","","Rain Showers"
"-77.53","44.12","TRENTON A","6158875","2012-02-22 20:00","2012","02","22","20:00","1.6","","0.4","","92","","","","21","","15","","24.1","","98.69","","","","","","Rain Showers"
"-77.53","44.12","TRENTON A","6158875","2012-02-22 21:00","2012","02","22","21:00","1.7","","0.3","","90","","","","21","","15","","24.1","","98.68","","","","","","Cloudy"
"-77.53","44.12","TRENTON A","6158875","2012-02-22 22:00","2012","02","22","22:00"
"-77.53","44.12","TRENTON A","6158875","2012-02-22 23:00","2012","02","22","23:00"
"-77.53","44.12","TRENTON A","6158875","2012-02-23 00:00","2012","02","23","00:00"
"-77.53","44.12","TRENTON A","6158875","2012-02-23 01:00","2012","02","23","01:00"
"-77.53","44.12","TRENTON A","6158875","2012-02-23 02:00","2012","02","23","02:00"
"-77.53","44.12","TRENTON A","6158875","2012-02-23 03:00","2012","02","23","03:00"
"-77.53","44.12","TRENTON A","6158875","2012-02-23 04:00","2012","02","23","04:00"
"-77.53","44.12","TRENTON A","6158875","2012-02-23 05:00","2012","02","23","05:00"
"-77.53","44.12","TRENTON A","6158875","2012-02-23 06:00","2012","02","23","06:00","0.3","","-1.1","","90","","","","26","","9","","24.1","","98.67","","","","","","Mostly Cloudy"
"-77.53","44.12","TRENTON A","6158875","2012-02-23 07:00","2012","02","23","07:00","0.3","","-1.2","","90","","","","25","","6","","24.1","","98.72","","","","","","Mostly Cloudy"
"-77.53","44.12","TRENTON A","6158875","2012-02-23 08:00","2012","02","23","08:00","0.9","","-1.2","","86","","","","27","","13","","19.3","","98.85","","","","","","Mostly Cloudy"
"-77.53","44.12","TRENTON A","6158875","2012-02-23 09:00","2012","02","23","09:00","1.4","","-1.4","","82","","","","29","","13","","24.1","","98.95","","","","","","Mostly Cloudy"
"-77.53","44.12","TRENTON A","6158875","2012-02-23 10:00","2012","02","23","10:00","2.7","","-1.1","","76","","","","27","","17","","24.1","","99.04","","","","","","Mostly Cloudy"
"-77.53","44.12","TRENTON A","6158875","2012-02-23 11:00","2012","02","23","11:00","3.8","","-1.9","","66","","","","28","","20","","24.1","","99.08","","","","","","Mostly Cloudy"
"-77.53","44.12","TRENTON A","6158875","2012-02-23 12:00","2012","02","23","12:00","4.4","","-3.4","","57","","","","28","","22","","24.1","","99.12","","","","","","Mostly Cloudy"
"-77.53","44.12","TRENTON A","6158875","2012-02-23 13:00","2012","02","23","13:00","4.4","","-3.5","","56","","","","31","","17","","24.1","","99.11","","","","","","Mostly Cloudy"
"-77.53","44.12","TRENTON A","6158875","2012-02-23 14:00","2012","02","23","14:00","4.6","","-3.6","","55","","","","27","","9","","24.1","","99.21","","","","","","Mostly Cloudy"
"-77.53","44.12","TRENTON A","6158875","2012-02-23 15:00","2012","02","23","15:00","6.2","","-4.0","","48","","","","28","","9","","24.1","","99.21","","","","","","Mostly Cloudy"
"-77.53","44.12","TRENTON A","6158875","2012-02-23 16:00","2012","02","23","16:00","4.7","","-3.7","","54","","","","25","","13","","24.1","","99.37","","","","","","Mostly Cloudy"
"-77.53","44.12","TRENTON A","6158875","2012-02-23 17:00","2012","02","23","17:00","3.6","","-0.4","","75","","","","23","","20","","9.7","","99.42","","","","","","Haze"
"-77.53","44.12","TRENTON A","6158875","2012-02-23 18:00","2012","02","23","18:00","2.4","","-1.0","","78","","","","24","","11","","24.1","","99.48","","","","","","Mostly Cloudy"
"-77.53","44.12","TRENTON A","6158875","2012-02-23 19:00","2012","02","23","19:00","2.5","","-2.0","","72","","","","22","","6","","24.1","","99.57","","","","","","Mostly Cloudy"
"-77.53","44.12","TRENTON A","6158875","2012-02-23 20:00","2012","02","23","20:00","1.0","","-1.9","","81","","","","18","","4","","24.1","","99.59","","","","","","Mostly Cloudy"
"-77.53","44.12","TRENTON A","6158875","2012-02-23 21:00","2012","02","23","21:00","-0.6","","-2.4","","88","","","","16","","6","","14.5","","99.62","","","","-3","","Mainly Clear"
"-77.53","44.12","TRENTON A","6158875","2012-02-23 22:00","2012","02","23","22:00"
"-77.53","44.12","TRENTON A","6158875","2012-02-23 23:00","2012","02","23","23:00"
"-77.53","44.12","TRENTON A","6158875","2012-02-24 00:00","2012","02","24","00:00"
"-77.53","44.12","TRENTON A","6158875","2012-02-24 01:00","2012","02","24","01:00"
"-77.53","44.12","TRENTON A","6158875","2012-02-24 02:00","2012","02","24","02:00"
"-77.53","44.12","TRENTON A","6158875","2012-02-24 03:00","2012","02","24","03:00"
"-77.53","44.12","TRENTON A","6158875","2012-02-24 04:00","2012","02","24","04:00"
"-77.53","44.12","TRENTON A","6158875","2012-02-24 05:00","2012","02","24","05:00"
"-77.53","44.12","TRENTON A","6158875","2012-02-24 06:00","2012","02","24","06:00","0.0","","-1.1","","92","","","","6","","9","","9.7","","99.18","","","","-3","","Fog"
"-77.53","44.12","TRENTON A","6158875","2012-02-24 07:00","2012","02","24","07:00","0.4","","-1.0","","90","","","","6","","9","","9.7","","99.16","","","","","","Fog"
"-77.53","44.12","TRENTON A","6158875","2012-02-24 08:00","2012","02","24","08:00","0.1","","-0.9","","93","","","","7","","13","","1.6","","99.23","","","","","","Snow"
"-77.53","44.12","TRENTON A","6158875","2012-02-24 09:00","2012","02","24","09:00","-0.1","","-0.9","","94","","","","8","","17","","1.6","","99.07","","","","-5","","Snow"
"-77.53","44.12","TRENTON A","6158875","2012-02-24 10:00","2012","02","24","10:00","0.0","","-0.8","","94","","","","8","","17","","6.4","","98.91","","","","-5","","Snow"
"-77.53","44.12","TRENTON A","6158875","2012-02-24 11:00","2012","02","24","11:00","0.1","","-0.6","","95","","","","7","","15","","2.4","","98.69","","","","","","Snow"
"-77.53","44.12","TRENTON A","6158875","2012-02-24 12:00","2012","02","24","12:00","0.1","","-0.6","","95","","","","7","","17","","1.2","","98.59","","","","","","Snow"
"-77.53","44.12","TRENTON A","6158875","2012-02-24 13:00","2012","02","24","13:00","0.2","","-0.3","","96","","","","8","","17","","0.6","","98.36","","","","","","Moderate Snow"
"-77.53","44.12","TRENTON A","6158875","2012-02-24 14:00","2012","02","24","14:00","0.3","","-0.2","","96","","","","9","","17","","1.2","","98.18","","","","","","Snow"
"-77.53","44.12","TRENTON A","6158875","2012-02-24 15:00","2012","02","24","15:00","0.3","","-0.2","","96","","","","11","","13","","1.2","","97.97","","","","","","Snow"
"-77.53","44.12","TRENTON A","6158875","2012-02-24 16:00","2012","02","24","16:00","0.9","","0.2","","95","","","","9","","7","","16.1","","97.99","","","","","","Rain"
"-77.53","44.12","TRENTON A","6158875","2012-02-24 17:00","2012","02","24","17:00","1.7","","1.0","","95","","","","11","","7","","16.1","","97.88","","","","","","Rain Showers"
"-77.53","44.12","TRENTON A","6158875","2012-02-24 18:00","2012","02","24","18:00","4.1","","1.2","","81","","","","23","","35","","24.1","","97.81","","","","","","Mostly Cloudy"
"-77.53","44.12","TRENTON A","6158875","2012-02-24 19:00","2012","02","24","19:00","4.0","","-0.2","","74","","","","22","","44","","24.1","","97.74","","","","","","Cloudy"
"-77.53","44.12","TRENTON A","6158875","2012-02-24 20:00","2012","02","24","20:00","3.0","","0.1","","81","","","","23","","32","","12.9","","97.66","","","","","","Rain Showers"
"-77.53","44.12","TRENTON A","6158875","2012-02-24 21:00","2012","02","24","21:00","2.5","","-0.1","","83","","","","24","","28","","12.9","","97.60","","","","","","Drizzle"
"-77.53","44.12","TRENTON A","6158875","2012-02-24 22:00","2012","02","24","22:00"
"-77.53","44.12","TRENTON A","6158875","2012-02-24 23:00","2012","02","24","23:00"
"-77.53","44.12","TRENTON A","6158875","2012-02-25 00:00","2012","02","25","00:00"
"-77.53","44.12","TRENTON A","6158875","2012-02-25 01:00","2012","02","25","01:00"
"-77.53","44.12","TRENTON A","6158875","2012-02-25 02:00","2012","02","25","02:00"
"-77.53","44.12","TRENTON A","6158875","2012-02-25 03:00","2012","02","25","03:00"
"-77.53","44.12","TRENTON A","6158875","2012-02-25 04:00","2012","02","25","04:00"
"-77.53","44.12","TRENTON A","6158875","2012-02-25 05:00","2012","02","25","05:00"
"-77.53","44.12","TRENTON A","6158875","2012-02-25 06:00","2012","02","25","06:00","-2.2","","-6.8","","71","","","","30","","20","","24.1","","98.65","","","","-8","","Mainly Clear"
"-77.53","44.12","TRENTON A","6158875","2012-02-25 07:00","2012","02","25","07:00","-2.6","","-7.4","","70","","","","29","","28","","24.1","","98.74","","","","-10","","Mostly Cloudy"
"-77.53","44.12","TRENTON A","6158875","2012-02-25 08:00","2012","02","25","08:00","-2.8","","-7.3","","71","","","","28","","28","","24.1","","98.86","","","","-10","","Cloudy"
"-77.53","44.12","TRENTON A","6158875","2012-02-25 09:00","2012","02","25","09:00","-3.0","","-7.7","","70","","","","29","","28","","24.1","","98.92","","","","-10","","Cloudy"
"-77.53","44.12","TRENTON A","6158875","2012-02-25 10:00","2012","02","25","10:00","-3.0","","-8.3","","67","","","","29","","32","","24.1","","99.01","","","","-11","","Cloudy"
"-77.53","44.12","TRENTON A","6158875","2012-02-25 11:00","2012","02","25","11:00","-2.9","","-9.0","","63","","","","29","","33","","24.1","","99.09","","","","-11","","Mostly Cloudy"
"-77.53","44.12","TRENTON A","6158875","2012-02-25 12:00","2012","02","25","12:00","-2.0","","-9.3","","57","","","","29","","35","","24.1","","99.20","","","","-10","","Mostly Cloudy"
"-77.53","44.12","TRENTON A","6158875","2012-02-25 13:00","2012","02","25","13:00","-1.8","","-8.6","","60","","","","31","","28","","24.1","","99.29","","","","-9","","Cloudy"
"-77.53","44.12","TRENTON A","6158875","2012-02-25 14:00","2012","02","25","14:00","-2.1","","-8.8","","60","","","","29","","35","","24.1","","99.40","","","","-10","","Mostly Cloudy"
"-77.53","44.12","TRENTON A","6158875","2012-02-25 15:00","2012","02","25","15:00","-2.0","","-8.7","","60","","","","29","","39","","24.1","","99.52","","","","-10","","Mostly Cloudy"
"-77.53","44.12","TRENTON A","6158875","2012-02-25 16:00","2012","02","25","16:00","-2.6","","-10.2","","56","","","","29","","37","","24.1","","99.69","","","","-11","","Mostly Cloudy"
"-77.53","44.12","TRENTON A","6158875","2012-02-25 17:00","2012","02","25","17:00","-2.7","","-11.0","","53","","","","30","","30","","24.1","","99.90","","","","-10","","Mostly Cloudy"
"-77.53","44.12","TRENTON A","6158875","2012-02-25 18:00","2012","02","25","18:00","-3.7","","-11.6","","54","","","","30","","32","","24.1","","100.08","","","","-12","","Mostly Cloudy"
"-77.53","44.12","TRENTON A","6158875","2012-02-25 19:00","2012","02","25","19:00","-4.3","","-11.9","","55","","","","30","","28","","24.1","","100.30","","","","-12","","Mostly Cloudy"
"-77.53","44.12","TRENTON A","6158875","2012-02-25 20:00","2012","02","25","20:00","-4.7","","-12.7","","54","","","","30","","33","","24.1","","100.49","","","","-13","","Mainly Clear"
"-77.53","44.12","TRENTON A","6158875","2012-02-25 21:00","2012","02","25","21:00","-5.4","","-12.8","","56","","","","31","","33","","24.1","","100.71","","","","-14","","Mainly Clear"
"-77.53","44.12","TRENTON A","6158875","2012-02-25 22:00","2012","02","25","22:00"
"-77.53","44.12","TRENTON A","6158875","2012-02-25 23:00","2012","02","25","23:00"
"-77.53","44.12","TRENTON A","6158875","2012-02-26 00:00","2012","02","26","00:00"
"-77.53","44.12","TRENTON A","6158875","2012-02-26 01:00","2012","02","26","01:00"
"-77.53","44.12","TRENTON A","6158875","2012-02-26 02:00","2012","02","26","02:00"
"-77.53","44.12","TRENTON A","6158875","2012-02-26 03:00","2012","02","26","03:00"
"-77.53","44.12","TRENTON A","6158875","2012-02-26 04:00","2012","02","26","04:00"
"-77.53","44.12","TRENTON A","6158875","2012-02-26 05:00","2012","02","26","05:00"
"-77.53","44.12","TRENTON A","6158875","2012-02-26 06:00","2012","02","26","06:00","-10.4","","-15.8","","65","","","","28","","7","","24.1","","101.81","","","","-14","","Clear"
"-77.53","44.12","TRENTON A","6158875","2012-02-26 07:00","2012","02","26","07:00","-10.5","","-16.3","","62","","","","32","","7","","24.1","","101.85","","","","-15","","Clear"
"-77.53","44.12","TRENTON A","6158875","2012-02-26 08:00","2012","02","26","08:00","-10.3","","-15.8","","64","","","","30","","7","","24.1","","101.93","","","","-14","","Clear"
"-77.53","44.12","TRENTON A","6158875","2012-02-26 09:00","2012","02","26","09:00","-8.9","","-17.3","","51","","","","32","","11","","24.1","","102.02","","","","-14","","Mainly Clear"
"-77.53","44.12","TRENTON A","6158875","2012-02-26 10:00","2012","02","26","10:00","-7.9","","-17.0","","48","","","","31","","9","","24.1","","102.08","","","","-12","","Mainly Clear"
"-77.53","44.12","TRENTON A","6158875","2012-02-26 11:00","2012","02","26","11:00","-6.1","","-18.1","","38","","","","29","","4","","24.1","","102.09","","","","-8","","Mainly Clear"
"-77.53","44.12","TRENTON A","6158875","2012-02-26 12:00","2012","02","26","12:00","-5.0","","-17.0","","38","","","","20","","7","","24.1","","102.04","","","","-8","","Mainly Clear"
"-77.53","44.12","TRENTON A","6158875","2012-02-26 13:00","2012","02","26","13:00","-3.9","","-15.5","","40","","","","31","","13","","24.1","","102.01","","","","-9","","Mainly Clear"
"-77.53","44.12","TRENTON A","6158875","2012-02-26 14:00","2012","02","26","14:00","-3.0","","-14.3","","41","","","","19","","9","","24.1","","101.99","","","","-7","","Mostly Cloudy"
"-77.53","44.12","TRENTON A","6158875","2012-02-26 15:00","2012","02","26","15:00","-2.6","","-13.0","","45","","","","19","","9","","24.1","","101.97","","","","-6","","Mostly Cloudy"
"-77.53","44.12","TRENTON A","6158875","2012-02-26 16:00","2012","02","26","16:00","-2.4","","-11.7","","49","","","","21","","9","","24.1","","101.95","","","","-6","","Mostly Cloudy"
"-77.53","44.12","TRENTON A","6158875","2012-02-26 17:00","2012","02","26","17:00","-2.7","","-11.0","","53","","","","19","","7","","24.1","","101.90","","","","-6","","Cloudy"
"-77.53","44.12","TRENTON A","6158875","2012-02-26 18:00","2012","02","26","18:00","-3.5","","-11.0","","56","","","","17","","4","","24.1","","101.87","","","","-5","","Cloudy"
"-77.53","44.12","TRENTON A","6158875","2012-02-26 19:00","2012","02","26","19:00","-4.0","","-11.0","","58","","","","16","","4","","24.1","","101.88","","","","-6","","Cloudy"
"-77.53","44.12","TRENTON A","6158875","2012-02-26 20:00","2012","02","26","20:00","-4.0","","-10.4","","61","","","","12","","6","","24.1","","101.88","","","","-7","","Cloudy"
"-77.53","44.12","TRENTON A","6158875","2012-02-26 21:00","2012","02","26","21:00","-4.1","","-10.3","","62","","","","9","","6","","24.1","","101.83","","","","-7","","Cloudy"
"-77.53","44.12","TRENTON A","6158875","2012-02-26 22:00","2012","02","26","22:00"
"-77.53","44.12","TRENTON A","6158875","2012-02-26 23:00","2012","02","26","23:00"
"-77.53","44.12","TRENTON A","6158875","2012-02-27 00:00","2012","02","27","00:00"
"-77.53","44.12","TRENTON A","6158875","2012-02-27 01:00","2012","02","27","01:00"
"-77.53","44.12","TRENTON A","6158875","2012-02-27 02:00","2012","02","27","02:00"
"-77.53","44.12","TRENTON A","6158875","2012-02-27 03:00","2012","02","27","03:00"
"-77.53","44.12","TRENTON A","6158875","2012-02-27 04:00","2012","02","27","04:00"
"-77.53","44.12","TRENTON A","6158875","2012-02-27 05:00","2012","02","27","05:00"
"-77.53","44.12","TRENTON A","6158875","2012-02-27 06:00","2012","02","27","06:00","-3.5","","-6.2","","82","","","","7","","7","","24.1","","101.10","","","","-6","","Mainly Clear"
"-77.53","44.12","TRENTON A","6158875","2012-02-27 07:00","2012","02","27","07:00","-2.4","","-4.8","","84","","","","8","","7","","24.1","","100.99","","","","-5","","Cloudy"
"-77.53","44.12","TRENTON A","6158875","2012-02-27 08:00","2012","02","27","08:00","-1.8","","-4.0","","85","","","","5","","7","","24.1","","100.89","","","","-4","","Cloudy"
"-77.53","44.12","TRENTON A","6158875","2012-02-27 09:00","2012","02","27","09:00","2.3","","-2.7","","69","","","","16","","13","","24.1","","100.72","","","","","","Cloudy"
"-77.53","44.12","TRENTON A","6158875","2012-02-27 10:00","2012","02","27","10:00","3.1","","-2.8","","65","","","","21","","6","","24.1","","100.67","","","","","","Cloudy"
"-77.53","44.12","TRENTON A","6158875","2012-02-27 11:00","2012","02","27","11:00","3.8","","-2.8","","62","","","","17","","13","","24.1","","100.54","","","","","","Rain"
"-77.53","44.12","TRENTON A","6158875","2012-02-27 12:00","2012","02","27","12:00","4.9","","-2.9","","57","","","","21","","26","","24.1","","100.44","","","","","","Cloudy"
"-77.53","44.12","TRENTON A","6158875","2012-02-27 13:00","2012","02","27","13:00","6.2","","-1.8","","56","","","","22","","30","","24.1","","100.36","","","","","","Mainly Clear"
"-77.53","44.12","TRENTON A","6158875","2012-02-27 14:00","2012","02","27","14:00","6.1","","-0.9","","61","","","","22","","28","","24.1","","100.29","","","","","","Mainly Clear"
"-77.53","44.12","TRENTON A","6158875","2012-02-27 15:00","2012","02","27","15:00","6.5","","-1.4","","57","","","","24","","33","","24.1","","100.25","","","","","","Mainly Clear"
"-77.53","44.12","TRENTON A","6158875","2012-02-27 16:00","2012","02","27","16:00","6.4","","-3.9","","48","","","","28","","43","","24.1","","100.37","","","","","","Mostly Cloudy"
"-77.53","44.12","TRENTON A","6158875","2012-02-27 17:00","2012","02","27","17:00","4.3","","-4.3","","54","","","","29","","33","","24.1","","100.58","","","","","","Mostly Cloudy"
"-77.53","44.12","TRENTON A","6158875","2012-02-27 18:00","2012","02","27","18:00","2.9","","-3.4","","63","","","","29","","30","","24.1","","100.78","","","","","","Mostly Cloudy"
"-77.53","44.12","TRENTON A","6158875","2012-02-27 19:00","2012","02","27","19:00","2.5","","-3.7","","64","","","","27","","35","","24.1","","100.88","","","","","","Cloudy"
"-77.53","44.12","TRENTON A","6158875","2012-02-27 20:00","2012","02","27","20:00","2.3","","-3.9","","64","","","","25","","24","","24.1","","100.96","","","","","","Cloudy"
"-77.53","44.12","TRENTON A","6158875","2012-02-27 21:00","2012","02","27","21:00","1.7","","-3.4","","69","","","","24","","17","","24.1","","101.05","","","","","","Snow Showers"
"-77.53","44.12","TRENTON A","6158875","2012-02-27 22:00","2012","02","27","22:00"
"-77.53","44.12","TRENTON A","6158875","2012-02-27 23:00","2012","02","27","23:00"
"-77.53","44.12","TRENTON A","6158875","2012-02-28 00:00","2012","02","28","00:00"
"-77.53","44.12","TRENTON A","6158875","2012-02-28 01:00","2012","02","28","01:00"
"-77.53","44.12","TRENTON A","6158875","2012-02-28 02:00","2012","02","28","02:00"
"-77.53","44.12","TRENTON A","6158875","2012-02-28 03:00","2012","02","28","03:00"
"-77.53","44.12","TRENTON A","6158875","2012-02-28 04:00","2012","02","28","04:00"
"-77.53","44.12","TRENTON A","6158875","2012-02-28 05:00","2012","02","28","05:00"
"-77.53","44.12","TRENTON A","6158875","2012-02-28 06:00","2012","02","28","06:00","-4.4","","-10.0","","65","","","","33","","15","","24.1","","102.05","","","","-10","","Mainly Clear"
"-77.53","44.12","TRENTON A","6158875","2012-02-28 07:00","2012","02","28","07:00","-5.4","","-10.4","","68","","","","32","","13","","24.1","","102.12","","","","-11","","Clear"
"-77.53","44.12","TRENTON A","6158875","2012-02-28 08:00","2012","02","28","08:00","-5.0","","-10.4","","66","","","","36","","13","","24.1","","102.17","","","","-10","","Clear"
"-77.53","44.12","TRENTON A","6158875","2012-02-28 09:00","2012","02","28","09:00","-4.3","","-10.3","","63","","","","34","","13","","24.1","","102.22","","","","-9","","Mainly Clear"
"-77.53","44.12","TRENTON A","6158875","2012-02-28 10:00","2012","02","28","10:00","-3.6","","-10.7","","58","","","","2","","4","","24.1","","102.24","","","","-5","","Mainly Clear"
"-77.53","44.12","TRENTON A","6158875","2012-02-28 11:00","2012","02","28","11:00","-2.1","","-9.1","","59","","","","29","","6","","24.1","","102.24","","","","-4","","Mostly Cloudy"
"-77.53","44.12","TRENTON A","6158875","2012-02-28 12:00","2012","02","28","12:00","-1.5","","-9.8","","53","","","","31","","6","","24.1","","102.17","","","","-4","","Mostly Cloudy"
"-77.53","44.12","TRENTON A","6158875","2012-02-28 13:00","2012","02","28","13:00","-0.9","","-8.9","","55","","","","18","","9","","24.1","","102.10","","","","-4","","Cloudy"
"-77.53","44.12","TRENTON A","6158875","2012-02-28 14:00","2012","02","28","14:00","-0.2","","-9.3","","50","","","","18","","7","","24.1","","102.05","","","","-3","","Cloudy"
"-77.53","44.12","TRENTON A","6158875","2012-02-28 15:00","2012","02","28","15:00","0.7","","-9.0","","48","","","","16","","6","","24.1","","102.00","","","","","","Mainly Clear"
"-77.53","44.12","TRENTON A","6158875","2012-02-28 16:00","2012","02","28","16:00"
"-77.53","44.12","TRENTON A","6158875","2012-02-28 17:00","2012","02","28","17:00","-1.1","","-6.7","","66","","","","21","","17","","24.1","","101.94","","","","-6","","Mostly Cloudy"
"-77.53","44.12","TRENTON A","6158875","2012-02-28 18:00","2012","02","28","18:00","-1.2","","-6.2","","69","","","","21","","11","","24.1","","101.94","","","","-5","","Cloudy"
"-77.53","44.12","TRENTON A","6158875","2012-02-28 19:00","2012","02","28","19:00","-1.2","","-6.0","","70","","","","21","","7","","24.1","","101.94","","","","-4","","Cloudy"
"-77.53","44.12","TRENTON A","6158875","2012-02-28 20:00","2012","02","28","20:00","-1.3","","-5.8","","71","","","","24","","6","","24.1","","101.90","","","","-4","","Cloudy"
"-77.53","44.12","TRENTON A","6158875","2012-02-28 21:00","2012","02","28","21:00","-1.5","","-5.5","","74","","","","16","","4","","24.1","","101.88","","","","-3","","Cloudy"
"-77.53","44.12","TRENTON A","6158875","2012-02-28 22:00","2012","02","28","22:00"
"-77.53","44.12","TRENTON A","6158875","2012-02-28 23:00","2012","02","28","23:00"
"-77.53","44.12","TRENTON A","6158875","2012-02-29 00:00","2012","02","29","00:00"
"-77.53","44.12","TRENTON A","6158875","2012-02-29 01:00","2012","02","29","01:00"
"-77.53","44.12","TRENTON A","6158875","2012-02-29 02:00","2012","02","29","02:00"
"-77.53","44.12","TRENTON A","6158875","2012-02-29 03:00","2012","02","29","03:00"
"-77.53","44.12","TRENTON A","6158875","2012-02-29 04:00","2012","02","29","04:00"
"-77.53","44.12","TRENTON A","6158875","2012-02-29 05:00","2012","02","29","05:00"
"-77.53","44.12","TRENTON A","6158875","2012-02-29 06:00","2012","02","29","06:00","-1.9","","-4.8","","81","","","","7","","9","","24.1","","101.37","","","","-5","","Snow Showers"
"-77.53","44.12","TRENTON A","6158875","2012-02-29 07:00","2012","02","29","07:00","-1.5","","-4.5","","80","","","","6","","9","","24.1","","101.30","","","","-5","","Cloudy"
"-77.53","44.12","TRENTON A","6158875","2012-02-29 08:00","2012","02","29","08:00","-1.1","","-3.6","","83","","","","6","","13","","24.1","","101.22","","","","-5","","Cloudy"
"-77.53","44.12","TRENTON A","6158875","2012-02-29 09:00","2012","02","29","09:00","-1.0","","-4.1","","79","","","","7","","20","","24.1","","101.04","","","","-7","","Cloudy"
"-77.53","44.12","TRENTON A","6158875","2012-02-29 10:00","2012","02","29","10:00","-0.9","","-5.1","","73","","","","7","","20","","24.1","","100.91","","","","-6","","Cloudy"
"-77.53","44.12","TRENTON A","6158875","2012-02-29 11:00","2012","02","29","11:00","-0.2","","-5.3","","68","","","","8","","17","","24.1","","100.84","","","","-5","","Cloudy"
"-77.53","44.12","TRENTON A","6158875","2012-02-29 12:00","2012","02","29","12:00","-0.1","","-4.8","","71","","","","8","","19","","24.1","","100.73","","","","-5","","Snow Showers"
"-77.53","44.12","TRENTON A","6158875","2012-02-29 13:00","2012","02","29","13:00","-0.9","","-2.7","","88","","","","7","","13","","1.6","","100.57","","","","-5","","Snow Showers"
"-77.53","44.12","TRENTON A","6158875","2012-02-29 14:00","2012","02","29","14:00","-1.0","","-2.3","","91","","","","7","","17","","1.6","","100.38","","","","-6","","Snow"
"-77.53","44.12","TRENTON A","6158875","2012-02-29 15:00","2012","02","29","15:00","-0.9","","-2.5","","89","","","","7","","20","","3.2","","100.22","","","","-6","","Snow"
"-77.53","44.12","TRENTON A","6158875","2012-02-29 16:00","2012","02","29","16:00","-0.3","","-3.1","","81","","","","7","","19","","8.0","","100.11","","","","-5","","Snow"
"-77.53","44.12","TRENTON A","6158875","2012-02-29 17:00","2012","02","29","17:00","-0.7","","-2.7","","86","","","","7","","15","","1.6","","100.03","","","","-5","","Snow,Ice Pellets"
"-77.53","44.12","TRENTON A","6158875","2012-02-29 18:00","2012","02","29","18:00","-1.3","","-2.7","","90","","","","6","","19","","1.2","","99.93","","","","-7","","Freezing Rain,Snow"
"-77.53","44.12","TRENTON A","6158875","2012-02-29 19:00","2012","02","29","19:00","-1.9","","-3.3","","90","","","","7","","20","","3.2","","99.86","","","","-8","","Freezing Rain,Snow"
"-77.53","44.12","TRENTON A","6158875","2012-02-29 20:00","2012","02","29","20:00","-1.9","","-3.6","","88","","","","6","","17","","8.0","","99.78","","","","-7","","Freezing Drizzle,Fog"
"-77.53","44.12","TRENTON A","6158875","2012-02-29 21:00","2012","02","29","21:00","-1.9","","-3.6","","88","","","","7","","20","","12.9","","99.67","","","","-8","","Snow"
"-77.53","44.12","TRENTON A","6158875","2012-02-29 22:00","2012","02","29","22:00"
"-77.53","44.12","TRENTON A","6158875","2012-02-29 23:00","2012","02","29","23:00"
