"Longitude (x)","Latitude (y)","Station Name","Climate ID","Date/Time (LST)","Year","Month","Day","Time (LST)","Temp (°C)","Temp Flag","Dew Point Temp (°C)","Dew Point Temp Flag","Rel Hum (%)","Rel Hum Flag","Precip. Amount (mm)","Precip. Amount Flag","Wind Dir (10s deg)","Wind Dir Flag","Wind Spd (km/h)","Wind Spd Flag","Visibility (km)","Visibility Flag","Stn Press (kPa)","Stn Press Flag","Hmdx","Hmdx Flag","Wind Chill","Wind Chill Flag","Weather"
"-100.27","70.63","GATESHEAD ISLAND","2402332","2012-02-01 00:00","2012","02","01","00:00"
"-100.27","70.63","GATESHEAD ISLAND","2402332","2012-02-01 01:00","2012","02","01","01:00"
"-100.27","70.63","GATESHEAD ISLAND","2402332","2012-02-01 02:00","2012","02","01","02:00"
"-100.27","70.63","GATESHEAD ISLAND","2402332","2012-02-01 03:00","2012","02","01","03:00"
"-100.27","70.63","GATESHEAD ISLAND","2402332","2012-02-01 04:00","2012","02","01","04:00"
"-100.27","70.63","GATESHEAD ISLAND","2402332","2012-02-01 05:00","2012","02","01","05:00"
"-100.27","70.63","GATESHEAD ISLAND","2402332","2012-02-01 06:00","2012","02","01","06:00"
"-100.27","70.63","GATESHEAD ISLAND","2402332","2012-02-01 07:00","2012","02","01","07:00"
"-100.27","70.63","GATESHEAD ISLAND","2402332","2012-02-01 08:00","2012","02","01","08:00"
"-100.27","70.63","GATESHEAD ISLAND","2402332","2012-02-01 09:00","2012","02","01","09:00"
"-100.27","70.63","GATESHEAD ISLAND","2402332","2012-02-01 10:00","2012","02","01","10:00"
"-100.27","70.63","GATESHEAD ISLAND","2402332","2012-02-01 11:00","2012","02","01","11:00"
"-100.27","70.63","GATESHEAD ISLAND","2402332","2012-02-01 12:00","2012","02","01","12:00"
"-100.27","70.63","GATESHEAD ISLAND","2402332","2012-02-01 13:00","2012","02","01","13:00"
"-100.27","70.63","GATESHEAD ISLAND","2402332","2012-02-01 14:00","2012","02","01","14:00"
"-100.27","70.63","GATESHEAD ISLAND","2402332","2012-02-01 15:00","2012","02","01","15:00"
"-100.27","70.63","GATESHEAD ISLAND","2402332","2012-02-01 16:00","2012","02","01","16:00"
"-100.27","70.63","GATESHEAD ISLAND","2402332","2012-02-01 17:00","2012","02","01","17:00"
"-100.27","70.63","GATESHEAD ISLAND","2402332","2012-02-01 18:00","2012","02","01","18:00"
"-100.27","70.63","GATESHEAD ISLAND","2402332","2012-02-01 19:00","2012","02","01","19:00"
"-100.27","70.63","GATESHEAD ISLAND","2402332","2012-02-01 20:00","2012","02","01","20:00"
"-100.27","70.63","GATESHEAD ISLAND","2402332","2012-02-01 21:00","2012","02","01","21:00"
"-100.27","70.63","GATESHEAD ISLAND","2402332","2012-02-01 22:00","2012","02","01","22:00"
"-100.27","70.63","GATESHEAD ISLAND","2402332","2012-02-01 23:00","2012","02","01","23:00"
"-100.27","70.63","GATESHEAD ISLAND","2402332","2012-02-02 00:00","2012","02","02","00:00"
"-100.27","70.63","GATESHEAD ISLAND","2402332","2012-02-02 01:00","2012","02","02","01:00"
"-100.27","70.63","GATESHEAD ISLAND","2402332","2012-02-02 02:00","2012","02","02","02:00"
"-100.27","70.63","GATESHEAD ISLAND","2402332","2012-02-02 03:00","2012","02","02","03:00"
"-100.27","70.63","GATESHEAD ISLAND","2402332","2012-02-02 04:00","2012","02","02","04:00"
"-100.27","70.63","GATESHEAD ISLAND","2402332","2012-02-02 05:00","2012","02","02","05:00"
"-100.27","70.63","GATESHEAD ISLAND","2402332","2012-02-02 06:00","2012","02","02","06:00"
"-100.27","70.63","GATESHEAD ISLAND","2402332","2012-02-02 07:00","2012","02","02","07:00"
"-100.27","70.63","GATESHEAD ISLAND","2402332","2012-02-02 08:00","2012","02","02","08:00"
"-100.27","70.63","GATESHEAD ISLAND","2402332","2012-02-02 09:00","2012","02","02","09:00"
"-100.27","70.63","GATESHEAD ISLAND","2402332","2012-02-02 10:00","2012","02","02","10:00"
"-100.27","70.63","GATESHEAD ISLAND","2402332","2012-02-02 11:00","2012","02","02","11:00"
"-100.27","70.63","GATESHEAD ISLAND","2402332","2012-02-02 12:00","2012","02","02","12:00"
"-100.27","70.63","GATESHEAD ISLAND","2402332","2012-02-02 13:00","2012","02","02","13:00"
"-100.27","70.63","GATESHEAD ISLAND","2402332","2012-02-02 14:00","2012","02","02","14:00"
"-100.27","70.63","GATESHEAD ISLAND","2402332","2012-02-02 15:00","2012","02","02","15:00"
"-100.27","70.63","GATESHEAD ISLAND","2402332","2012-02-02 16:00","2012","02","02","16:00"
"-100.27","70.63","GATESHEAD ISLAND","2402332","2012-02-02 17:00","2012","02","02","17:00"
"-100.27","70.63","GATESHEAD ISLAND","2402332","2012-02-02 18:00","2012","02","02","18:00"
"-100.27","70.63","GATESHEAD ISLAND","2402332","2012-02-02 19:00","2012","02","02","19:00"
"-100.27","70.63","GATESHEAD ISLAND","2402332","2012-02-02 20:00","2012","02","02","20:00"
"-100.27","70.63","GATESHEAD ISLAND","2402332","2012-02-02 21:00","2012","02","02","21:00"
"-100.27","70.63","GATESHEAD ISLAND","2402332","2012-02-02 22:00","2012","02","02","22:00"
"-100.27","70.63","GATESHEAD ISLAND","2402332","2012-02-02 23:00","2012","02","02","23:00"
"-100.27","70.63","GATESHEAD ISLAND","2402332","2012-02-03 00:00","2012","02","03","00:00"
"-100.27","70.63","GATESHEAD ISLAND","2402332","2012-02-03 01:00","2012","02","03","01:00"
"-100.27","70.63","GATESHEAD ISLAND","2402332","2012-02-03 02:00","2012","02","03","02:00","-16.9","","","M","","M","","","18","","43","","","","98.85","","","","-30","","NA"
"-100.27","70.63","GATESHEAD ISLAND","2402332","2012-02-03 03:00","2012","02","03","03:00","-16.6","","","M","","M","","","18","","41","","","","98.81","","","","-30","","NA"
"-100.27","70.63","GATESHEAD ISLAND","2402332","2012-02-03 04:00","2012","02","03","04:00"
"-100.27","70.63","GATESHEAD ISLAND","2402332","2012-02-03 05:00","2012","02","03","05:00","-13.9","","","M","","M","","","22","","30","","","","98.73","","","","-25","","NA"
"-100.27","70.63","GATESHEAD ISLAND","2402332","2012-02-03 06:00","2012","02","03","06:00","-14.1","","","M","","M","","","27","","33","","","","98.75","","","","-25","","NA"
"-100.27","70.63","GATESHEAD ISLAND","2402332","2012-02-03 07:00","2012","02","03","07:00"
"-100.27","70.63","GATESHEAD ISLAND","2402332","2012-02-03 08:00","2012","02","03","08:00","-19.1","","","M","","M","","","29","","41","","","","","M","","","-33","","NA"
"-100.27","70.63","GATESHEAD ISLAND","2402332","2012-02-03 09:00","2012","02","03","09:00","-19.6","","","M","","M","","","31","","48","","","","99.14","","","","-35","","NA"
"-100.27","70.63","GATESHEAD ISLAND","2402332","2012-02-03 10:00","2012","02","03","10:00","-21.2","","","M","","M","","","32","","50","","","","99.33","","","","-37","","NA"
"-100.27","70.63","GATESHEAD ISLAND","2402332","2012-02-03 11:00","2012","02","03","11:00","-21.8","","","M","","M","","","32","","44","","","","99.46","","","","-37","","NA"
"-100.27","70.63","GATESHEAD ISLAND","2402332","2012-02-03 12:00","2012","02","03","12:00","-23.3","","","M","","M","","","31","","50","","","","99.71","","","","-40","","NA"
"-100.27","70.63","GATESHEAD ISLAND","2402332","2012-02-03 13:00","2012","02","03","13:00","-24.7","","","M","","M","","","32","","50","","","","99.91","","","","-42","","NA"
"-100.27","70.63","GATESHEAD ISLAND","2402332","2012-02-03 14:00","2012","02","03","14:00","-24.7","","","M","","M","","","32","","46","","","","100.09","","","","-41","","NA"
"-100.27","70.63","GATESHEAD ISLAND","2402332","2012-02-03 15:00","2012","02","03","15:00","-26.8","","","M","","M","","","32","","44","","","","100.32","","","","-44","","NA"
"-100.27","70.63","GATESHEAD ISLAND","2402332","2012-02-03 16:00","2012","02","03","16:00","-28.0","","","M","","M","","","32","","33","","","","100.57","","","","-44","","NA"
"-100.27","70.63","GATESHEAD ISLAND","2402332","2012-02-03 17:00","2012","02","03","17:00","-28.6","","","M","","M","","","33","","33","","","","100.66","","","","-44","","NA"
"-100.27","70.63","GATESHEAD ISLAND","2402332","2012-02-03 18:00","2012","02","03","18:00","-29.2","","","M","","M","","","34","","37","","","","100.67","","","","-46","","NA"
"-100.27","70.63","GATESHEAD ISLAND","2402332","2012-02-03 19:00","2012","02","03","19:00","-29.7","","","M","","M","","","34","","24","","","","100.86","","","","-44","","NA"
"-100.27","70.63","GATESHEAD ISLAND","2402332","2012-02-03 20:00","2012","02","03","20:00","-30.2","","","M","","M","","","34","","30","","","","100.88","","","","-46","","NA"
"-100.27","70.63","GATESHEAD ISLAND","2402332","2012-02-03 21:00","2012","02","03","21:00","-30.9","","","M","","M","","","33","","19","","","","100.96","","","","-44","","NA"
"-100.27","70.63","GATESHEAD ISLAND","2402332","2012-02-03 22:00","2012","02","03","22:00","-31.0","","","M","","M","","","34","","24","","","","101.01","","","","-45","","NA"
"-100.27","70.63","GATESHEAD ISLAND","2402332","2012-02-03 23:00","2012","02","03","23:00"
"-100.27","70.63","GATESHEAD ISLAND","2402332","2012-02-04 00:00","2012","02","04","00:00","-31.0","","","M","","M","","","2","","19","","","","100.89","","","","-44","","NA"
"-100.27","70.63","GATESHEAD ISLAND","2402332","2012-02-04 01:00","2012","02","04","01:00","-30.3","","","M","","M","","","3","","17","","","","100.92","","","","-43","","NA"
"-100.27","70.63","GATESHEAD ISLAND","2402332","2012-02-04 02:00","2012","02","04","02:00","-30.0","","","M","","M","","","3","","15","","","","100.94","","","","-41","","NA"
"-100.27","70.63","GATESHEAD ISLAND","2402332","2012-02-04 03:00","2012","02","04","03:00","-29.7","","","M","","M","","","5","","13","","","","100.93","","","","-40","","NA"
"-100.27","70.63","GATESHEAD ISLAND","2402332","2012-02-04 04:00","2012","02","04","04:00","-29.5","","","M","","M","","","5","","22","","","","100.79","","","","-43","","NA"
"-100.27","70.63","GATESHEAD ISLAND","2402332","2012-02-04 05:00","2012","02","04","05:00","-30.1","","","M","","M","","","6","","17","","","","100.78","","","","-42","","NA"
"-100.27","70.63","GATESHEAD ISLAND","2402332","2012-02-04 06:00","2012","02","04","06:00","-29.7","","","M","","M","","","5","","22","","","","100.72","","","","-43","","NA"
"-100.27","70.63","GATESHEAD ISLAND","2402332","2012-02-04 07:00","2012","02","04","07:00","-28.9","","","M","","M","","","5","","28","","","","100.65","","","","-44","","NA"
"-100.27","70.63","GATESHEAD ISLAND","2402332","2012-02-04 08:00","2012","02","04","08:00","-28.8","","","M","","M","","","5","","22","","","","100.73","","","","-42","","NA"
"-100.27","70.63","GATESHEAD ISLAND","2402332","2012-02-04 09:00","2012","02","04","09:00","-29.2","","","M","","M","","","5","","30","","","","100.72","","","","-45","","NA"
"-100.27","70.63","GATESHEAD ISLAND","2402332","2012-02-04 10:00","2012","02","04","10:00","-29.0","","","M","","M","","","4","","30","","","","100.76","","","","-44","","NA"
"-100.27","70.63","GATESHEAD ISLAND","2402332","2012-02-04 11:00","2012","02","04","11:00","-29.5","","","M","","M","","","5","","28","","","","100.84","","","","-45","","NA"
"-100.27","70.63","GATESHEAD ISLAND","2402332","2012-02-04 12:00","2012","02","04","12:00","-30.6","","","M","","M","","","3","","32","","","","100.98","","","","-47","","NA"
"-100.27","70.63","GATESHEAD ISLAND","2402332","2012-02-04 13:00","2012","02","04","13:00","-30.8","","","M","","M","","","2","","28","","","","101.12","","","","-46","","NA"
"-100.27","70.63","GATESHEAD ISLAND","2402332","2012-02-04 14:00","2012","02","04","14:00","-31.0","","","M","","M","","","2","","28","","","","101.22","","","","-46","","NA"
"-100.27","70.63","GATESHEAD ISLAND","2402332","2012-02-04 15:00","2012","02","04","15:00","-31.3","","","M","","M","","","2","","33","","","","101.32","","","","-48","","NA"
"-100.27","70.63","GATESHEAD ISLAND","2402332","2012-02-04 16:00","2012","02","04","16:00","-31.6","","","M","","M","","","2","","30","","","","101.48","","","","-48","","NA"
"-100.27","70.63","GATESHEAD ISLAND","2402332","2012-02-04 17:00","2012","02","04","17:00","-32.2","","","M","","M","","","1","","30","","","","101.63","","","","-48","","NA"
"-100.27","70.63","GATESHEAD ISLAND","2402332","2012-02-04 18:00","2012","02","04","18:00","-32.9","","","M","","M","","","2","","32","","","","101.75","","","","-50","","NA"
"-100.27","70.63","GATESHEAD ISLAND","2402332","2012-02-04 19:00","2012","02","04","19:00","-32.8","","","M","","M","","","2","","30","","","","101.88","","","","-49","","NA"
"-100.27","70.63","GATESHEAD ISLAND","2402332","2012-02-04 20:00","2012","02","04","20:00","-32.8","","","M","","M","","","1","","26","","","","101.98","","","","-48","","NA"
"-100.27","70.63","GATESHEAD ISLAND","2402332","2012-02-04 21:00","2012","02","04","21:00","-33.2","","","M","","M","","","1","","26","","","","102.06","","","","-49","","NA"
"-100.27","70.63","GATESHEAD ISLAND","2402332","2012-02-04 22:00","2012","02","04","22:00","-33.4","","","M","","M","","","35","","24","","","","102.18","","","","-49","","NA"
"-100.27","70.63","GATESHEAD ISLAND","2402332","2012-02-04 23:00","2012","02","04","23:00","-33.9","","","M","","M","","","35","","28","","","","102.27","","","","-50","","NA"
"-100.27","70.63","GATESHEAD ISLAND","2402332","2012-02-05 00:00","2012","02","05","00:00","-33.9","","","M","","M","","","36","","24","","","","102.33","","","","-49","","NA"
"-100.27","70.63","GATESHEAD ISLAND","2402332","2012-02-05 01:00","2012","02","05","01:00","-34.1","","","M","","M","","","36","","30","","","","102.42","","","","-51","","NA"
"-100.27","70.63","GATESHEAD ISLAND","2402332","2012-02-05 02:00","2012","02","05","02:00","-34.4","","","M","","M","","","35","","28","","","","102.56","","","","-51","","NA"
"-100.27","70.63","GATESHEAD ISLAND","2402332","2012-02-05 03:00","2012","02","05","03:00","-34.4","","","M","","M","","","36","","28","","","","102.61","","","","-51","","NA"
"-100.27","70.63","GATESHEAD ISLAND","2402332","2012-02-05 04:00","2012","02","05","04:00","-34.0","","","M","","M","","","34","","28","","","","102.67","","","","-50","","NA"
"-100.27","70.63","GATESHEAD ISLAND","2402332","2012-02-05 05:00","2012","02","05","05:00","-34.2","","","M","","M","","","34","","30","","","","102.75","","","","-51","","NA"
"-100.27","70.63","GATESHEAD ISLAND","2402332","2012-02-05 06:00","2012","02","05","06:00","-34.0","","","M","","M","","","34","","26","","","","102.79","","","","-50","","NA"
"-100.27","70.63","GATESHEAD ISLAND","2402332","2012-02-05 07:00","2012","02","05","07:00","-33.6","","","M","","M","","","33","","19","","","","102.83","","","","-47","","NA"
"-100.27","70.63","GATESHEAD ISLAND","2402332","2012-02-05 08:00","2012","02","05","08:00","-34.2","","","M","","M","","","33","","13","","","","102.88","","","","-46","","NA"
"-100.27","70.63","GATESHEAD ISLAND","2402332","2012-02-05 09:00","2012","02","05","09:00","-34.4","","","M","","M","","","32","","15","","","","102.90","","","","-47","","NA"
"-100.27","70.63","GATESHEAD ISLAND","2402332","2012-02-05 10:00","2012","02","05","10:00","-33.4","","","M","","M","","","32","","19","","","","102.89","","","","-47","","NA"
"-100.27","70.63","GATESHEAD ISLAND","2402332","2012-02-05 11:00","2012","02","05","11:00","-33.7","","","M","","M","","","32","","19","","","","102.89","","","","-47","","NA"
"-100.27","70.63","GATESHEAD ISLAND","2402332","2012-02-05 12:00","2012","02","05","12:00","-32.6","","","M","","M","","","32","","15","","","","102.87","","","","-45","","NA"
"-100.27","70.63","GATESHEAD ISLAND","2402332","2012-02-05 13:00","2012","02","05","13:00","-30.5","","","M","","M","","","30","","15","","","","102.85","","","","-42","","NA"
"-100.27","70.63","GATESHEAD ISLAND","2402332","2012-02-05 14:00","2012","02","05","14:00","-29.1","","","M","","M","","","29","","17","","","","102.84","","","","-41","","NA"
"-100.27","70.63","GATESHEAD ISLAND","2402332","2012-02-05 15:00","2012","02","05","15:00","-28.2","","","M","","M","","","27","","19","","","","102.76","","","","-41","","NA"
"-100.27","70.63","GATESHEAD ISLAND","2402332","2012-02-05 16:00","2012","02","05","16:00","-27.3","","","M","","M","","","26","","24","","","","102.65","","","","-41","","NA"
"-100.27","70.63","GATESHEAD ISLAND","2402332","2012-02-05 17:00","2012","02","05","17:00","-26.6","","","M","","M","","","30","","28","","","","102.67","","","","-41","","NA"
"-100.27","70.63","GATESHEAD ISLAND","2402332","2012-02-05 18:00","2012","02","05","18:00","-26.0","","","M","","M","","","31","","26","","","","102.57","","","","-40","","NA"
"-100.27","70.63","GATESHEAD ISLAND","2402332","2012-02-05 19:00","2012","02","05","19:00","-26.4","","","M","","M","","","31","","24","","","","102.52","","","","-40","","NA"
"-100.27","70.63","GATESHEAD ISLAND","2402332","2012-02-05 20:00","2012","02","05","20:00","-28.2","","","M","","M","","","31","","22","","","","102.48","","","","-41","","NA"
"-100.27","70.63","GATESHEAD ISLAND","2402332","2012-02-05 21:00","2012","02","05","21:00","-28.7","","","M","","M","","","31","","22","","","","102.40","","","","-42","","NA"
"-100.27","70.63","GATESHEAD ISLAND","2402332","2012-02-05 22:00","2012","02","05","22:00","-28.9","","","M","","M","","","31","","24","","","","102.38","","","","-43","","NA"
"-100.27","70.63","GATESHEAD ISLAND","2402332","2012-02-05 23:00","2012","02","05","23:00","-29.6","","","M","","M","","","32","","24","","","","102.35","","","","-44","","NA"
"-100.27","70.63","GATESHEAD ISLAND","2402332","2012-02-06 00:00","2012","02","06","00:00","-30.4","","","M","","M","","","31","","19","","","","102.29","","","","-43","","NA"
"-100.27","70.63","GATESHEAD ISLAND","2402332","2012-02-06 01:00","2012","02","06","01:00","-30.6","","","M","","M","","","30","","13","","","","102.26","","","","-41","","NA"
"-100.27","70.63","GATESHEAD ISLAND","2402332","2012-02-06 02:00","2012","02","06","02:00","-29.2","","","M","","M","","","29","","15","","","","102.27","","","","-40","","NA"
"-100.27","70.63","GATESHEAD ISLAND","2402332","2012-02-06 03:00","2012","02","06","03:00","-27.8","","","M","","M","","","28","","17","","","","102.13","","","","-39","","NA"
"-100.27","70.63","GATESHEAD ISLAND","2402332","2012-02-06 04:00","2012","02","06","04:00","-27.0","","","M","","M","","","28","","19","","","","101.97","","","","-39","","NA"
"-100.27","70.63","GATESHEAD ISLAND","2402332","2012-02-06 05:00","2012","02","06","05:00","-26.0","","","M","","M","","","26","","19","","","","101.87","","","","-38","","NA"
"-100.27","70.63","GATESHEAD ISLAND","2402332","2012-02-06 06:00","2012","02","06","06:00","-26.0","","","M","","M","","","25","","24","","","","101.72","","","","-39","","NA"
"-100.27","70.63","GATESHEAD ISLAND","2402332","2012-02-06 07:00","2012","02","06","07:00","-24.9","","","M","","M","","","27","","20","","","","101.59","","","","-37","","NA"
"-100.27","70.63","GATESHEAD ISLAND","2402332","2012-02-06 08:00","2012","02","06","08:00","-25.1","","","M","","M","","","26","","20","","","","101.41","","","","-37","","NA"
"-100.27","70.63","GATESHEAD ISLAND","2402332","2012-02-06 09:00","2012","02","06","09:00","-25.6","","","M","","M","","","25","","26","","","","101.27","","","","-39","","NA"
"-100.27","70.63","GATESHEAD ISLAND","2402332","2012-02-06 10:00","2012","02","06","10:00","-25.5","","","M","","M","","","27","","22","","","","101.20","","","","-38","","NA"
"-100.27","70.63","GATESHEAD ISLAND","2402332","2012-02-06 11:00","2012","02","06","11:00","-25.7","","","M","","M","","","29","","26","","","","101.06","","","","-39","","NA"
"-100.27","70.63","GATESHEAD ISLAND","2402332","2012-02-06 12:00","2012","02","06","12:00","-24.2","","","M","","M","","","31","","30","","","","100.97","","","","-38","","NA"
"-100.27","70.63","GATESHEAD ISLAND","2402332","2012-02-06 13:00","2012","02","06","13:00","-23.9","","","M","","M","","","32","","30","","","","100.92","","","","-38","","NA"
"-100.27","70.63","GATESHEAD ISLAND","2402332","2012-02-06 14:00","2012","02","06","14:00","-24.4","","","M","","M","","","32","","35","","","","100.94","","","","-39","","NA"
"-100.27","70.63","GATESHEAD ISLAND","2402332","2012-02-06 15:00","2012","02","06","15:00","-24.8","","","M","","M","","","33","","39","","","","100.93","","","","-40","","NA"
"-100.27","70.63","GATESHEAD ISLAND","2402332","2012-02-06 16:00","2012","02","06","16:00","-25.4","","","M","","M","","","34","","35","","","","100.93","","","","-41","","NA"
"-100.27","70.63","GATESHEAD ISLAND","2402332","2012-02-06 17:00","2012","02","06","17:00","-26.2","","","M","","M","","","34","","35","","","","100.95","","","","-42","","NA"
"-100.27","70.63","GATESHEAD ISLAND","2402332","2012-02-06 18:00","2012","02","06","18:00","-27.2","","","M","","M","","","33","","35","","","","100.90","","","","-43","","NA"
"-100.27","70.63","GATESHEAD ISLAND","2402332","2012-02-06 19:00","2012","02","06","19:00","-28.1","","","M","","M","","","33","","39","","","","100.84","","","","-45","","NA"
"-100.27","70.63","GATESHEAD ISLAND","2402332","2012-02-06 20:00","2012","02","06","20:00","-29.0","","","M","","M","","","34","","41","","","","100.89","","","","-46","","NA"
"-100.27","70.63","GATESHEAD ISLAND","2402332","2012-02-06 21:00","2012","02","06","21:00","-29.9","","","M","","M","","","33","","54","","","","100.87","","","","-49","","NA"
"-100.27","70.63","GATESHEAD ISLAND","2402332","2012-02-06 22:00","2012","02","06","22:00","-30.7","","","M","","M","","","34","","56","","","","100.88","","","","-51","","NA"
"-100.27","70.63","GATESHEAD ISLAND","2402332","2012-02-06 23:00","2012","02","06","23:00","-31.3","","","M","","M","","","33","","57","","","","100.92","","","","-52","","NA"
"-100.27","70.63","GATESHEAD ISLAND","2402332","2012-02-07 00:00","2012","02","07","00:00","-31.7","","","M","","M","","","33","","63","","","","100.97","","","","-53","","NA"
"-100.27","70.63","GATESHEAD ISLAND","2402332","2012-02-07 01:00","2012","02","07","01:00","-31.7","","","M","","M","","","33","","57","","","","101.06","","","","-52","","NA"
"-100.27","70.63","GATESHEAD ISLAND","2402332","2012-02-07 02:00","2012","02","07","02:00","-31.7","","","M","","M","","","33","","56","","","","101.10","","","","-52","","NA"
"-100.27","70.63","GATESHEAD ISLAND","2402332","2012-02-07 03:00","2012","02","07","03:00","-31.6","","","M","","M","","","33","","57","","","","101.13","","","","-52","","NA"
"-100.27","70.63","GATESHEAD ISLAND","2402332","2012-02-07 04:00","2012","02","07","04:00","-31.5","","","M","","M","","","33","","63","","","","101.10","","","","-53","","NA"
"-100.27","70.63","GATESHEAD ISLAND","2402332","2012-02-07 05:00","2012","02","07","05:00","-31.9","","","M","","M","","","33","","61","","","","101.22","","","","-53","","NA"
"-100.27","70.63","GATESHEAD ISLAND","2402332","2012-02-07 06:00","2012","02","07","06:00","-32.1","","","M","","M","","","33","","61","","","","101.20","","","","-53","","NA"
"-100.27","70.63","GATESHEAD ISLAND","2402332","2012-02-07 07:00","2012","02","07","07:00","-32.1","","","M","","M","","","33","","59","","","","101.20","","","","-53","","NA"
"-100.27","70.63","GATESHEAD ISLAND","2402332","2012-02-07 08:00","2012","02","07","08:00","-32.2","","","M","","M","","","33","","50","","","","101.29","","","","-52","","NA"
"-100.27","70.63","GATESHEAD ISLAND","2402332","2012-02-07 09:00","2012","02","07","09:00","-32.0","","","M","","M","","","33","","56","","","","101.23","","","","-53","","NA"
"-100.27","70.63","GATESHEAD ISLAND","2402332","2012-02-07 10:00","2012","02","07","10:00","-31.5","","","M","","M","","","33","","57","","","","101.12","","","","-52","","NA"
"-100.27","70.63","GATESHEAD ISLAND","2402332","2012-02-07 11:00","2012","02","07","11:00","-31.0","","","M","","M","","","33","","61","","","","101.13","","","","-52","","NA"
"-100.27","70.63","GATESHEAD ISLAND","2402332","2012-02-07 12:00","2012","02","07","12:00","-30.9","","","M","","M","","","35","","57","","","","101.24","","","","-51","","NA"
"-100.27","70.63","GATESHEAD ISLAND","2402332","2012-02-07 13:00","2012","02","07","13:00","-30.8","","","M","","M","","","34","","59","","","","101.18","","","","-51","","NA"
"-100.27","70.63","GATESHEAD ISLAND","2402332","2012-02-07 14:00","2012","02","07","14:00","-30.5","","","M","","M","","","34","","57","","","","101.19","","","","-51","","NA"
"-100.27","70.63","GATESHEAD ISLAND","2402332","2012-02-07 15:00","2012","02","07","15:00","-30.1","","","M","","M","","","34","","59","","","","101.12","","","","-50","","NA"
"-100.27","70.63","GATESHEAD ISLAND","2402332","2012-02-07 16:00","2012","02","07","16:00","-29.5","","","M","","M","","","35","","52","","","","101.18","","","","-49","","NA"
"-100.27","70.63","GATESHEAD ISLAND","2402332","2012-02-07 17:00","2012","02","07","17:00","-29.5","","","M","","M","","","35","","57","","","","101.21","","","","-49","","NA"
"-100.27","70.63","GATESHEAD ISLAND","2402332","2012-02-07 18:00","2012","02","07","18:00","-30.3","","","M","","M","","","36","","57","","","","101.20","","","","-50","","NA"
"-100.27","70.63","GATESHEAD ISLAND","2402332","2012-02-07 19:00","2012","02","07","19:00","-30.3","","","M","","M","","","35","","61","","","","101.21","","","","-51","","NA"
"-100.27","70.63","GATESHEAD ISLAND","2402332","2012-02-07 20:00","2012","02","07","20:00","-29.9","","","M","","M","","","36","","48","","","","101.30","","","","-49","","NA"
"-100.27","70.63","GATESHEAD ISLAND","2402332","2012-02-07 21:00","2012","02","07","21:00","-29.8","","","M","","M","","","35","","52","","","","101.27","","","","-49","","NA"
"-100.27","70.63","GATESHEAD ISLAND","2402332","2012-02-07 22:00","2012","02","07","22:00","-29.7","","","M","","M","","","35","","50","","","","101.36","","","","-49","","NA"
"-100.27","70.63","GATESHEAD ISLAND","2402332","2012-02-07 23:00","2012","02","07","23:00","-29.8","","","M","","M","","","35","","48","","","","101.36","","","","-48","","NA"
"-100.27","70.63","GATESHEAD ISLAND","2402332","2012-02-08 00:00","2012","02","08","00:00","-30.0","","","M","","M","","","35","","46","","","","101.38","","","","-48","","NA"
"-100.27","70.63","GATESHEAD ISLAND","2402332","2012-02-08 01:00","2012","02","08","01:00","-30.1","","","M","","M","","","35","","44","","","","101.41","","","","-48","","NA"
"-100.27","70.63","GATESHEAD ISLAND","2402332","2012-02-08 02:00","2012","02","08","02:00"
"-100.27","70.63","GATESHEAD ISLAND","2402332","2012-02-08 03:00","2012","02","08","03:00","-29.7","","","M","","M","","","35","","46","","","","101.47","","","","-48","","NA"
"-100.27","70.63","GATESHEAD ISLAND","2402332","2012-02-08 04:00","2012","02","08","04:00","-29.5","","","M","","M","","","35","","48","","","","101.47","","","","-48","","NA"
"-100.27","70.63","GATESHEAD ISLAND","2402332","2012-02-08 05:00","2012","02","08","05:00","-29.1","","","M","","M","","","35","","54","","","","101.48","","","","-48","","NA"
"-100.27","70.63","GATESHEAD ISLAND","2402332","2012-02-08 06:00","2012","02","08","06:00","-28.6","","","M","","M","","","35","","56","","","","101.50","","","","-48","","NA"
"-100.27","70.63","GATESHEAD ISLAND","2402332","2012-02-08 07:00","2012","02","08","07:00","-28.3","","","M","","M","","","36","","52","","","","101.54","","","","-47","","NA"
"-100.27","70.63","GATESHEAD ISLAND","2402332","2012-02-08 08:00","2012","02","08","08:00","-28.1","","","M","","M","","","35","","54","","","","101.56","","","","-47","","NA"
"-100.27","70.63","GATESHEAD ISLAND","2402332","2012-02-08 09:00","2012","02","08","09:00","-27.7","","","M","","M","","","35","","50","","","","101.56","","","","-46","","NA"
"-100.27","70.63","GATESHEAD ISLAND","2402332","2012-02-08 10:00","2012","02","08","10:00","-27.4","","","M","","M","","","35","","54","","","","101.60","","","","-46","","NA"
"-100.27","70.63","GATESHEAD ISLAND","2402332","2012-02-08 11:00","2012","02","08","11:00","-27.9","","","M","","M","","","35","","57","","","","101.60","","","","-47","","NA"
"-100.27","70.63","GATESHEAD ISLAND","2402332","2012-02-08 12:00","2012","02","08","12:00","-27.5","","","M","","M","","","35","","54","","","","101.67","","","","-46","","NA"
"-100.27","70.63","GATESHEAD ISLAND","2402332","2012-02-08 13:00","2012","02","08","13:00","-27.9","","","M","","M","","","35","","57","","","","101.70","","","","-47","","NA"
"-100.27","70.63","GATESHEAD ISLAND","2402332","2012-02-08 14:00","2012","02","08","14:00","-28.1","","","M","","M","","","35","","54","","","","101.77","","","","-47","","NA"
"-100.27","70.63","GATESHEAD ISLAND","2402332","2012-02-08 15:00","2012","02","08","15:00","-28.3","","","M","","M","","","35","","59","","","","101.84","","","","-48","","NA"
"-100.27","70.63","GATESHEAD ISLAND","2402332","2012-02-08 16:00","2012","02","08","16:00","-28.4","","","M","","M","","","35","","52","","","","101.94","","","","-47","","NA"
"-100.27","70.63","GATESHEAD ISLAND","2402332","2012-02-08 17:00","2012","02","08","17:00","-28.0","","","M","","M","","","35","","54","","","","101.96","","","","-47","","NA"
"-100.27","70.63","GATESHEAD ISLAND","2402332","2012-02-08 18:00","2012","02","08","18:00","-27.8","","","M","","M","","","35","","56","","","","102.01","","","","-47","","NA"
"-100.27","70.63","GATESHEAD ISLAND","2402332","2012-02-08 19:00","2012","02","08","19:00","-28.3","","","M","","M","","","35","","46","","","","102.08","","","","-46","","NA"
"-100.27","70.63","GATESHEAD ISLAND","2402332","2012-02-08 20:00","2012","02","08","20:00","-28.6","","","M","","M","","","36","","44","","","","102.14","","","","-46","","NA"
"-100.27","70.63","GATESHEAD ISLAND","2402332","2012-02-08 21:00","2012","02","08","21:00","-28.7","","","M","","M","","","36","","37","","","","102.21","","","","-45","","NA"
"-100.27","70.63","GATESHEAD ISLAND","2402332","2012-02-08 22:00","2012","02","08","22:00","-28.9","","","M","","M","","","35","","37","","","","102.25","","","","-46","","NA"
"-100.27","70.63","GATESHEAD ISLAND","2402332","2012-02-08 23:00","2012","02","08","23:00","-29.2","","","M","","M","","","35","","35","","","","102.32","","","","-46","","NA"
"-100.27","70.63","GATESHEAD ISLAND","2402332","2012-02-09 00:00","2012","02","09","00:00","-29.3","","","M","","M","","","35","","33","","","","102.35","","","","-45","","NA"
"-100.27","70.63","GATESHEAD ISLAND","2402332","2012-02-09 01:00","2012","02","09","01:00","-28.3","","","M","","M","","","35","","35","","","","102.38","","","","-44","","NA"
"-100.27","70.63","GATESHEAD ISLAND","2402332","2012-02-09 02:00","2012","02","09","02:00","-28.1","","","M","","M","","","36","","39","","","","102.47","","","","-45","","NA"
"-100.27","70.63","GATESHEAD ISLAND","2402332","2012-02-09 03:00","2012","02","09","03:00","-28.6","","","M","","M","","","35","","35","","","","102.54","","","","-45","","NA"
"-100.27","70.63","GATESHEAD ISLAND","2402332","2012-02-09 04:00","2012","02","09","04:00","-29.4","","","M","","M","","","35","","33","","","","102.56","","","","-45","","NA"
"-100.27","70.63","GATESHEAD ISLAND","2402332","2012-02-09 05:00","2012","02","09","05:00","-29.5","","","M","","M","","","35","","30","","","","102.59","","","","-45","","NA"
"-100.27","70.63","GATESHEAD ISLAND","2402332","2012-02-09 06:00","2012","02","09","06:00","-29.2","","","M","","M","","","35","","24","","","","102.65","","","","-43","","NA"
"-100.27","70.63","GATESHEAD ISLAND","2402332","2012-02-09 07:00","2012","02","09","07:00","-29.4","","","M","","M","","","34","","24","","","","102.66","","","","-43","","NA"
"-100.27","70.63","GATESHEAD ISLAND","2402332","2012-02-09 08:00","2012","02","09","08:00","-29.1","","","M","","M","","","34","","24","","","","102.62","","","","-43","","NA"
"-100.27","70.63","GATESHEAD ISLAND","2402332","2012-02-09 09:00","2012","02","09","09:00","-28.8","","","M","","M","","","33","","22","","","","102.65","","","","-42","","NA"
"-100.27","70.63","GATESHEAD ISLAND","2402332","2012-02-09 10:00","2012","02","09","10:00","-28.2","","","M","","M","","","32","","20","","","","102.69","","","","-41","","NA"
"-100.27","70.63","GATESHEAD ISLAND","2402332","2012-02-09 11:00","2012","02","09","11:00","-28.3","","","M","","M","","","32","","22","","","","102.75","","","","-42","","NA"
"-100.27","70.63","GATESHEAD ISLAND","2402332","2012-02-09 12:00","2012","02","09","12:00","-28.1","","","M","","M","","","32","","28","","","","102.74","","","","-43","","NA"
"-100.27","70.63","GATESHEAD ISLAND","2402332","2012-02-09 13:00","2012","02","09","13:00","-28.3","","","M","","M","","","30","","9","","","","102.78","","","","-37","","NA"
"-100.27","70.63","GATESHEAD ISLAND","2402332","2012-02-09 14:00","2012","02","09","14:00","-27.3","","","M","","M","","","32","","20","","","","102.72","","","","-40","","NA"
"-100.27","70.63","GATESHEAD ISLAND","2402332","2012-02-09 15:00","2012","02","09","15:00","-26.0","","","M","","M","","","29","","15","","","","102.69","","","","-36","","NA"
"-100.27","70.63","GATESHEAD ISLAND","2402332","2012-02-09 16:00","2012","02","09","16:00","-24.9","","","M","","M","","","30","","13","","","","102.62","","","","-34","","NA"
"-100.27","70.63","GATESHEAD ISLAND","2402332","2012-02-09 17:00","2012","02","09","17:00","-24.3","","","M","","M","","","28","","19","","","","102.59","","","","-36","","NA"
"-100.27","70.63","GATESHEAD ISLAND","2402332","2012-02-09 18:00","2012","02","09","18:00","-22.4","","","M","","M","","","27","","17","","","","102.46","","","","-33","","NA"
"-100.27","70.63","GATESHEAD ISLAND","2402332","2012-02-09 19:00","2012","02","09","19:00","-21.7","","","M","","M","","","26","","19","","","","102.41","","","","-32","","NA"
"-100.27","70.63","GATESHEAD ISLAND","2402332","2012-02-09 20:00","2012","02","09","20:00","-21.7","","","M","","M","","","25","","20","","","","102.33","","","","-33","","NA"
"-100.27","70.63","GATESHEAD ISLAND","2402332","2012-02-09 21:00","2012","02","09","21:00","-20.4","","","M","","M","","","25","","24","","","","102.22","","","","-32","","NA"
"-100.27","70.63","GATESHEAD ISLAND","2402332","2012-02-09 22:00","2012","02","09","22:00","-19.3","","","M","","M","","","26","","28","","","","102.11","","","","-31","","NA"
"-100.27","70.63","GATESHEAD ISLAND","2402332","2012-02-09 23:00","2012","02","09","23:00","-18.7","","","M","","M","","","25","","30","","","","101.95","","","","-31","","NA"
"-100.27","70.63","GATESHEAD ISLAND","2402332","2012-02-10 00:00","2012","02","10","00:00","-17.6","","","M","","M","","","25","","33","","","","101.78","","","","-30","","NA"
"-100.27","70.63","GATESHEAD ISLAND","2402332","2012-02-10 01:00","2012","02","10","01:00","-16.8","","","M","","M","","","24","","37","","","","101.60","","","","-29","","NA"
"-100.27","70.63","GATESHEAD ISLAND","2402332","2012-02-10 02:00","2012","02","10","02:00","-14.2","","","M","","M","","","26","","44","","","","101.45","","","","-27","","NA"
"-100.27","70.63","GATESHEAD ISLAND","2402332","2012-02-10 03:00","2012","02","10","03:00","-14.4","","","M","","M","","","26","","44","","","","101.38","","","","-27","","NA"
"-100.27","70.63","GATESHEAD ISLAND","2402332","2012-02-10 04:00","2012","02","10","04:00","-14.5","","","M","","M","","","27","","41","","","","101.32","","","","-27","","NA"
"-100.27","70.63","GATESHEAD ISLAND","2402332","2012-02-10 05:00","2012","02","10","05:00","-13.9","","","M","","M","","","27","","52","","","","101.09","","","","-27","","NA"
"-100.27","70.63","GATESHEAD ISLAND","2402332","2012-02-10 06:00","2012","02","10","06:00","-14.9","","","M","","M","","","28","","37","","","","101.06","","","","-27","","NA"
"-100.27","70.63","GATESHEAD ISLAND","2402332","2012-02-10 07:00","2012","02","10","07:00","-15.9","","","M","","M","","","29","","30","","","","101.02","","","","-27","","NA"
"-100.27","70.63","GATESHEAD ISLAND","2402332","2012-02-10 08:00","2012","02","10","08:00","-16.8","","","M","","M","","","29","","24","","","","100.95","","","","-27","","NA"
"-100.27","70.63","GATESHEAD ISLAND","2402332","2012-02-10 09:00","2012","02","10","09:00","-16.9","","","M","","M","","","30","","28","","","","100.89","","","","-28","","NA"
"-100.27","70.63","GATESHEAD ISLAND","2402332","2012-02-10 10:00","2012","02","10","10:00","-17.4","","","M","","M","","","30","","24","","","","100.87","","","","-28","","NA"
"-100.27","70.63","GATESHEAD ISLAND","2402332","2012-02-10 11:00","2012","02","10","11:00","-17.6","","","M","","M","","","31","","22","","","","100.86","","","","-28","","NA"
"-100.27","70.63","GATESHEAD ISLAND","2402332","2012-02-10 12:00","2012","02","10","12:00","-17.6","","","M","","M","","","32","","19","","","","100.86","","","","-27","","NA"
"-100.27","70.63","GATESHEAD ISLAND","2402332","2012-02-10 13:00","2012","02","10","13:00","-18.8","","","M","","M","","","32","","19","","","","100.85","","","","-29","","NA"
"-100.27","70.63","GATESHEAD ISLAND","2402332","2012-02-10 14:00","2012","02","10","14:00","-19.8","","","M","","M","","","31","","13","","","","100.85","","","","-28","","NA"
"-100.27","70.63","GATESHEAD ISLAND","2402332","2012-02-10 15:00","2012","02","10","15:00","-20.1","","","M","","M","","","30","","19","","","","100.84","","","","-30","","NA"
"-100.27","70.63","GATESHEAD ISLAND","2402332","2012-02-10 16:00","2012","02","10","16:00","-20.8","","","M","","M","","","30","","15","","","","100.83","","","","-30","","NA"
"-100.27","70.63","GATESHEAD ISLAND","2402332","2012-02-10 17:00","2012","02","10","17:00","-21.3","","","M","","M","","","30","","13","","","","100.80","","","","-30","","NA"
"-100.27","70.63","GATESHEAD ISLAND","2402332","2012-02-10 18:00","2012","02","10","18:00","-22.3","","","M","","M","","","32","","11","","","","100.74","","","","-30","","NA"
"-100.27","70.63","GATESHEAD ISLAND","2402332","2012-02-10 19:00","2012","02","10","19:00","-22.4","","","M","","M","","","32","","7","","","","100.68","","","","-28","","NA"
"-100.27","70.63","GATESHEAD ISLAND","2402332","2012-02-10 20:00","2012","02","10","20:00","-21.9","","","M","","M","","","36","","7","","","","100.62","","","","-28","","NA"
"-100.27","70.63","GATESHEAD ISLAND","2402332","2012-02-10 21:00","2012","02","10","21:00","-22.0","","","M","","M","","","4","","7","","","","100.57","","","","-28","","NA"
"-100.27","70.63","GATESHEAD ISLAND","2402332","2012-02-10 22:00","2012","02","10","22:00","-23.6","","","M","","M","","","25","","9","","","","100.53","","","","-31","","NA"
"-100.27","70.63","GATESHEAD ISLAND","2402332","2012-02-10 23:00","2012","02","10","23:00","-23.8","","","M","","M","","","29","","7","","","","100.50","","","","-30","","NA"
"-100.27","70.63","GATESHEAD ISLAND","2402332","2012-02-11 00:00","2012","02","11","00:00","-23.6","","","M","","M","","","31","","7","","","","100.44","","","","-30","","NA"
"-100.27","70.63","GATESHEAD ISLAND","2402332","2012-02-11 01:00","2012","02","11","01:00","-23.5","","","M","","M","","","3","","7","","","","100.41","","","","-30","","NA"
"-100.27","70.63","GATESHEAD ISLAND","2402332","2012-02-11 02:00","2012","02","11","02:00","-23.7","","","M","","M","","","6","","11","","","","100.32","","","","-32","","NA"
"-100.27","70.63","GATESHEAD ISLAND","2402332","2012-02-11 03:00","2012","02","11","03:00","-23.3","","","M","","M","","","6","","9","","","","100.31","","","","-31","","NA"
"-100.27","70.63","GATESHEAD ISLAND","2402332","2012-02-11 04:00","2012","02","11","04:00","-24.1","","","M","","M","","","7","","9","","","","100.31","","","","-32","","NA"
"-100.27","70.63","GATESHEAD ISLAND","2402332","2012-02-11 05:00","2012","02","11","05:00","-24.5","","","M","","M","","","7","","15","","","","100.23","","","","-35","","NA"
"-100.27","70.63","GATESHEAD ISLAND","2402332","2012-02-11 06:00","2012","02","11","06:00","-22.5","","","M","","M","","","7","","13","","","","100.19","","","","-31","","NA"
"-100.27","70.63","GATESHEAD ISLAND","2402332","2012-02-11 07:00","2012","02","11","07:00","-22.6","","","M","","M","","","9","","15","","","","100.09","","","","-32","","NA"
"-100.27","70.63","GATESHEAD ISLAND","2402332","2012-02-11 08:00","2012","02","11","08:00","-23.6","","","M","","M","","","9","","11","","","","100.11","","","","-32","","NA"
"-100.27","70.63","GATESHEAD ISLAND","2402332","2012-02-11 09:00","2012","02","11","09:00","-22.7","","","M","","M","","","10","","9","","","","100.04","","","","-30","","NA"
"-100.27","70.63","GATESHEAD ISLAND","2402332","2012-02-11 10:00","2012","02","11","10:00","-22.2","","","M","","M","","","11","","13","","","","99.96","","","","-31","","NA"
"-100.27","70.63","GATESHEAD ISLAND","2402332","2012-02-11 11:00","2012","02","11","11:00","-21.5","","","M","","M","","","11","","13","","","","99.88","","","","-30","","NA"
"-100.27","70.63","GATESHEAD ISLAND","2402332","2012-02-11 12:00","2012","02","11","12:00","-21.3","","","M","","M","","","11","","13","","","","99.83","","","","-30","","NA"
"-100.27","70.63","GATESHEAD ISLAND","2402332","2012-02-11 13:00","2012","02","11","13:00","-20.5","","","M","","M","","","12","","11","","","","99.83","","","","-28","","NA"
"-100.27","70.63","GATESHEAD ISLAND","2402332","2012-02-11 14:00","2012","02","11","14:00","-20.1","","","M","","M","","","12","","13","","","","99.77","","","","-29","","NA"
"-100.27","70.63","GATESHEAD ISLAND","2402332","2012-02-11 15:00","2012","02","11","15:00","-19.5","","","M","","M","","","12","","17","","","","99.72","","","","-29","","NA"
"-100.27","70.63","GATESHEAD ISLAND","2402332","2012-02-11 16:00","2012","02","11","16:00","-20.4","","","M","","M","","","13","","17","","","","99.68","","","","-30","","NA"
"-100.27","70.63","GATESHEAD ISLAND","2402332","2012-02-11 17:00","2012","02","11","17:00","-20.3","","","M","","M","","","14","","20","","","","99.65","","","","-31","","NA"
"-100.27","70.63","GATESHEAD ISLAND","2402332","2012-02-11 18:00","2012","02","11","18:00","-20.1","","","M","","M","","","14","","26","","","","99.57","","","","-32","","NA"
"-100.27","70.63","GATESHEAD ISLAND","2402332","2012-02-11 19:00","2012","02","11","19:00","-20.1","","","M","","M","","","14","","24","","","","99.52","","","","-32","","NA"
"-100.27","70.63","GATESHEAD ISLAND","2402332","2012-02-11 20:00","2012","02","11","20:00","-20.0","","","M","","M","","","14","","26","","","","99.45","","","","-32","","NA"
"-100.27","70.63","GATESHEAD ISLAND","2402332","2012-02-11 21:00","2012","02","11","21:00","-20.5","","","M","","M","","","14","","26","","","","99.41","","","","-32","","NA"
"-100.27","70.63","GATESHEAD ISLAND","2402332","2012-02-11 22:00","2012","02","11","22:00","-21.2","","","M","","M","","","13","","24","","","","99.35","","","","-33","","NA"
"-100.27","70.63","GATESHEAD ISLAND","2402332","2012-02-11 23:00","2012","02","11","23:00","-21.7","","","M","","M","","","13","","26","","","","99.29","","","","-34","","NA"
"-100.27","70.63","GATESHEAD ISLAND","2402332","2012-02-12 00:00","2012","02","12","00:00","-22.1","","","M","","M","","","13","","24","","","","99.25","","","","-34","","NA"
"-100.27","70.63","GATESHEAD ISLAND","2402332","2012-02-12 01:00","2012","02","12","01:00","-21.9","","","M","","M","","","12","","22","","","","99.24","","","","-33","","NA"
"-100.27","70.63","GATESHEAD ISLAND","2402332","2012-02-12 02:00","2012","02","12","02:00","-21.1","","","M","","M","","","12","","28","","","","99.21","","","","-34","","NA"
"-100.27","70.63","GATESHEAD ISLAND","2402332","2012-02-12 03:00","2012","02","12","03:00","-20.7","","","M","","M","","","13","","30","","","","99.16","","","","-33","","NA"
"-100.27","70.63","GATESHEAD ISLAND","2402332","2012-02-12 04:00","2012","02","12","04:00","-20.2","","","M","","M","","","13","","28","","","","99.14","","","","-32","","NA"
"-100.27","70.63","GATESHEAD ISLAND","2402332","2012-02-12 05:00","2012","02","12","05:00","-19.9","","","M","","M","","","12","","28","","","","99.09","","","","-32","","NA"
"-100.27","70.63","GATESHEAD ISLAND","2402332","2012-02-12 06:00","2012","02","12","06:00","-19.7","","","M","","M","","","11","","24","","","","99.10","","","","-31","","NA"
"-100.27","70.63","GATESHEAD ISLAND","2402332","2012-02-12 07:00","2012","02","12","07:00","-19.7","","","M","","M","","","11","","26","","","","99.05","","","","-31","","NA"
"-100.27","70.63","GATESHEAD ISLAND","2402332","2012-02-12 08:00","2012","02","12","08:00","-19.8","","","M","","M","","","10","","22","","","","99.05","","","","-31","","NA"
"-100.27","70.63","GATESHEAD ISLAND","2402332","2012-02-12 09:00","2012","02","12","09:00","-19.5","","","M","","M","","","9","","24","","","","99.03","","","","-31","","NA"
"-100.27","70.63","GATESHEAD ISLAND","2402332","2012-02-12 10:00","2012","02","12","10:00","-18.8","","","M","","M","","","10","","19","","","","99.07","","","","-29","","NA"
"-100.27","70.63","GATESHEAD ISLAND","2402332","2012-02-12 11:00","2012","02","12","11:00","-18.4","","","M","","M","","","9","","22","","","","99.09","","","","-29","","NA"
"-100.27","70.63","GATESHEAD ISLAND","2402332","2012-02-12 12:00","2012","02","12","12:00","-18.1","","","M","","M","","","8","","24","","","","99.11","","","","-29","","NA"
"-100.27","70.63","GATESHEAD ISLAND","2402332","2012-02-12 13:00","2012","02","12","13:00","-18.1","","","M","","M","","","9","","30","","","","99.11","","","","-30","","NA"
"-100.27","70.63","GATESHEAD ISLAND","2402332","2012-02-12 14:00","2012","02","12","14:00","-17.9","","","M","","M","","","10","","24","","","","99.20","","","","-29","","NA"
"-100.27","70.63","GATESHEAD ISLAND","2402332","2012-02-12 15:00","2012","02","12","15:00","-17.7","","","M","","M","","","9","","22","","","","99.25","","","","-28","","NA"
"-100.27","70.63","GATESHEAD ISLAND","2402332","2012-02-12 16:00","2012","02","12","16:00","-17.7","","","M","","M","","","9","","13","","","","99.32","","","","-26","","NA"
"-100.27","70.63","GATESHEAD ISLAND","2402332","2012-02-12 17:00","2012","02","12","17:00","-17.3","","","M","","M","","","7","","15","","","","99.36","","","","-26","","NA"
"-100.27","70.63","GATESHEAD ISLAND","2402332","2012-02-12 18:00","2012","02","12","18:00","-17.2","","","M","","M","","","5","","15","","","","99.39","","","","-26","","NA"
"-100.27","70.63","GATESHEAD ISLAND","2402332","2012-02-12 19:00","2012","02","12","19:00","-17.0","","","M","","M","","","7","","20","","","","99.39","","","","-27","","NA"
"-100.27","70.63","GATESHEAD ISLAND","2402332","2012-02-12 20:00","2012","02","12","20:00","-18.3","","","M","","M","","","6","","19","","","","99.45","","","","-28","","NA"
"-100.27","70.63","GATESHEAD ISLAND","2402332","2012-02-12 21:00","2012","02","12","21:00","-19.7","","","M","","M","","","6","","17","","","","99.50","","","","-29","","NA"
"-100.27","70.63","GATESHEAD ISLAND","2402332","2012-02-12 22:00","2012","02","12","22:00","-20.7","","","M","","M","","","6","","15","","","","99.55","","","","-30","","NA"
"-100.27","70.63","GATESHEAD ISLAND","2402332","2012-02-12 23:00","2012","02","12","23:00","-20.2","","","M","","M","","","5","","13","","","","99.61","","","","-29","","NA"
"-100.27","70.63","GATESHEAD ISLAND","2402332","2012-02-13 00:00","2012","02","13","00:00","-19.9","","","M","","M","","","5","","11","","","","99.66","","","","-28","","NA"
"-100.27","70.63","GATESHEAD ISLAND","2402332","2012-02-13 01:00","2012","02","13","01:00","-21.2","","","M","","M","","","7","","17","","","","99.73","","","","-31","","NA"
"-100.27","70.63","GATESHEAD ISLAND","2402332","2012-02-13 02:00","2012","02","13","02:00","-20.6","","","M","","M","","","5","","19","","","","99.77","","","","-31","","NA"
"-100.27","70.63","GATESHEAD ISLAND","2402332","2012-02-13 03:00","2012","02","13","03:00","-21.9","","","M","","M","","","6","","19","","","","99.84","","","","-33","","NA"
"-100.27","70.63","GATESHEAD ISLAND","2402332","2012-02-13 04:00","2012","02","13","04:00","-22.0","","","M","","M","","","7","","17","","","","99.87","","","","-32","","NA"
"-100.27","70.63","GATESHEAD ISLAND","2402332","2012-02-13 05:00","2012","02","13","05:00","-23.0","","","M","","M","","","6","","19","","","","99.92","","","","-34","","NA"
"-100.27","70.63","GATESHEAD ISLAND","2402332","2012-02-13 06:00","2012","02","13","06:00","-23.2","","","M","","M","","","7","","17","","","","99.95","","","","-34","","NA"
"-100.27","70.63","GATESHEAD ISLAND","2402332","2012-02-13 07:00","2012","02","13","07:00","-23.6","","","M","","M","","","7","","19","","","","99.98","","","","-35","","NA"
"-100.27","70.63","GATESHEAD ISLAND","2402332","2012-02-13 08:00","2012","02","13","08:00","-24.3","","","M","","M","","","8","","17","","","","100.02","","","","-35","","NA"
"-100.27","70.63","GATESHEAD ISLAND","2402332","2012-02-13 09:00","2012","02","13","09:00","-24.3","","","M","","M","","","9","","15","","","","100.05","","","","-34","","NA"
"-100.27","70.63","GATESHEAD ISLAND","2402332","2012-02-13 10:00","2012","02","13","10:00","-24.0","","","M","","M","","","9","","15","","","","100.09","","","","-34","","NA"
"-100.27","70.63","GATESHEAD ISLAND","2402332","2012-02-13 11:00","2012","02","13","11:00","-22.1","","","M","","M","","","9","","13","","","","100.10","","","","-31","","NA"
"-100.27","70.63","GATESHEAD ISLAND","2402332","2012-02-13 12:00","2012","02","13","12:00","-19.8","","","M","","M","","","10","","13","","","","100.13","","","","-28","","NA"
"-100.27","70.63","GATESHEAD ISLAND","2402332","2012-02-13 13:00","2012","02","13","13:00","-19.7","","","M","","M","","","11","","13","","","","100.16","","","","-28","","NA"
"-100.27","70.63","GATESHEAD ISLAND","2402332","2012-02-13 14:00","2012","02","13","14:00","-19.7","","","M","","M","","","11","","13","","","","100.17","","","","-28","","NA"
"-100.27","70.63","GATESHEAD ISLAND","2402332","2012-02-13 15:00","2012","02","13","15:00","-19.9","","","M","","M","","","10","","11","","","","100.20","","","","-28","","NA"
"-100.27","70.63","GATESHEAD ISLAND","2402332","2012-02-13 16:00","2012","02","13","16:00","-19.3","","","M","","M","","","8","","11","","","","100.22","","","","-27","","NA"
"-100.27","70.63","GATESHEAD ISLAND","2402332","2012-02-13 17:00","2012","02","13","17:00","-19.0","","","M","","M","","","8","","13","","","","100.23","","","","-27","","NA"
"-100.27","70.63","GATESHEAD ISLAND","2402332","2012-02-13 18:00","2012","02","13","18:00","-18.6","","","M","","M","","","9","","9","","","","100.24","","","","-25","","NA"
"-100.27","70.63","GATESHEAD ISLAND","2402332","2012-02-13 19:00","2012","02","13","19:00","-18.8","","","M","","M","","","8","","15","","","","100.22","","","","-28","","NA"
"-100.27","70.63","GATESHEAD ISLAND","2402332","2012-02-13 20:00","2012","02","13","20:00","-18.7","","","M","","M","","","8","","11","","","","100.22","","","","-26","","NA"
"-100.27","70.63","GATESHEAD ISLAND","2402332","2012-02-13 21:00","2012","02","13","21:00","-18.6","","","M","","M","","","7","","15","","","","100.21","","","","-27","","NA"
"-100.27","70.63","GATESHEAD ISLAND","2402332","2012-02-13 22:00","2012","02","13","22:00","-18.8","","","M","","M","","","5","","15","","","","100.17","","","","-28","","NA"
"-100.27","70.63","GATESHEAD ISLAND","2402332","2012-02-13 23:00","2012","02","13","23:00","-19.1","","","M","","M","","","4","","15","","","","100.15","","","","-28","","NA"
"-100.27","70.63","GATESHEAD ISLAND","2402332","2012-02-14 00:00","2012","02","14","00:00","-19.0","","","M","","M","","","3","","9","","","","100.20","","","","-26","","NA"
"-100.27","70.63","GATESHEAD ISLAND","2402332","2012-02-14 01:00","2012","02","14","01:00","-18.8","","","M","","M","","","4","","11","","","","100.19","","","","-26","","NA"
"-100.27","70.63","GATESHEAD ISLAND","2402332","2012-02-14 02:00","2012","02","14","02:00","-18.4","","","M","","M","","","1","","6","","","","100.16","","","","-23","","NA"
"-100.27","70.63","GATESHEAD ISLAND","2402332","2012-02-14 03:00","2012","02","14","03:00","-18.1","","","M","","M","","","35","","7","","","","100.16","","","","-23","","NA"
"-100.27","70.63","GATESHEAD ISLAND","2402332","2012-02-14 04:00","2012","02","14","04:00","-17.6","","","M","","M","","","36","","15","","","","100.15","","","","-26","","NA"
"-100.27","70.63","GATESHEAD ISLAND","2402332","2012-02-14 05:00","2012","02","14","05:00","-17.9","","","M","","M","","","1","","15","","","","100.14","","","","-26","","NA"
"-100.27","70.63","GATESHEAD ISLAND","2402332","2012-02-14 06:00","2012","02","14","06:00","-18.3","","","M","","M","","","36","","19","","","","100.10","","","","-28","","NA"
"-100.27","70.63","GATESHEAD ISLAND","2402332","2012-02-14 07:00","2012","02","14","07:00","-18.3","","","M","","M","","","1","","17","","","","100.08","","","","-28","","NA"
"-100.27","70.63","GATESHEAD ISLAND","2402332","2012-02-14 08:00","2012","02","14","08:00","-18.5","","","M","","M","","","36","","17","","","","100.06","","","","-28","","NA"
"-100.27","70.63","GATESHEAD ISLAND","2402332","2012-02-14 09:00","2012","02","14","09:00","-18.2","","","M","","M","","","36","","19","","","","100.03","","","","-28","","NA"
"-100.27","70.63","GATESHEAD ISLAND","2402332","2012-02-14 10:00","2012","02","14","10:00","-18.1","","","M","","M","","","1","","19","","","","100.03","","","","-28","","NA"
"-100.27","70.63","GATESHEAD ISLAND","2402332","2012-02-14 11:00","2012","02","14","11:00","-18.2","","","M","","M","","","36","","19","","","","100.01","","","","-28","","NA"
"-100.27","70.63","GATESHEAD ISLAND","2402332","2012-02-14 12:00","2012","02","14","12:00","-18.0","","","M","","M","","","36","","19","","","","100.01","","","","-28","","NA"
"-100.27","70.63","GATESHEAD ISLAND","2402332","2012-02-14 13:00","2012","02","14","13:00","-18.0","","","M","","M","","","1","","19","","","","100.01","","","","-28","","NA"
"-100.27","70.63","GATESHEAD ISLAND","2402332","2012-02-14 14:00","2012","02","14","14:00","-17.7","","","M","","M","","","36","","19","","","","100.01","","","","-27","","NA"
"-100.27","70.63","GATESHEAD ISLAND","2402332","2012-02-14 15:00","2012","02","14","15:00","-17.3","","","M","","M","","","35","","22","","","","100.02","","","","-28","","NA"
"-100.27","70.63","GATESHEAD ISLAND","2402332","2012-02-14 16:00","2012","02","14","16:00","-17.1","","","M","","M","","","36","","19","","","","100.02","","","","-27","","NA"
"-100.27","70.63","GATESHEAD ISLAND","2402332","2012-02-14 17:00","2012","02","14","17:00","-16.9","","","M","","M","","","36","","19","","","","100.03","","","","-26","","NA"
"-100.27","70.63","GATESHEAD ISLAND","2402332","2012-02-14 18:00","2012","02","14","18:00","-17.3","","","M","","M","","","35","","20","","","","100.05","","","","-27","","NA"
"-100.27","70.63","GATESHEAD ISLAND","2402332","2012-02-14 19:00","2012","02","14","19:00","-17.1","","","M","","M","","","36","","19","","","","100.03","","","","-27","","NA"
"-100.27","70.63","GATESHEAD ISLAND","2402332","2012-02-14 20:00","2012","02","14","20:00","-17.2","","","M","","M","","","35","","17","","","","100.06","","","","-26","","NA"
"-100.27","70.63","GATESHEAD ISLAND","2402332","2012-02-14 21:00","2012","02","14","21:00","-17.4","","","M","","M","","","36","","20","","","","100.04","","","","-27","","NA"
"-100.27","70.63","GATESHEAD ISLAND","2402332","2012-02-14 22:00","2012","02","14","22:00","-17.6","","","M","","M","","","36","","19","","","","100.05","","","","-27","","NA"
"-100.27","70.63","GATESHEAD ISLAND","2402332","2012-02-14 23:00","2012","02","14","23:00","-17.6","","","M","","M","","","36","","19","","","","100.07","","","","-27","","NA"
"-100.27","70.63","GATESHEAD ISLAND","2402332","2012-02-15 00:00","2012","02","15","00:00","-17.7","","","M","","M","","","35","","19","","","","100.12","","","","-27","","NA"
"-100.27","70.63","GATESHEAD ISLAND","2402332","2012-02-15 01:00","2012","02","15","01:00","-17.9","","","M","","M","","","35","","22","","","","100.13","","","","-28","","NA"
"-100.27","70.63","GATESHEAD ISLAND","2402332","2012-02-15 02:00","2012","02","15","02:00","-18.0","","","M","","M","","","35","","20","","","","100.17","","","","-28","","NA"
"-100.27","70.63","GATESHEAD ISLAND","2402332","2012-02-15 03:00","2012","02","15","03:00","-18.0","","","M","","M","","","35","","19","","","","100.19","","","","-28","","NA"
"-100.27","70.63","GATESHEAD ISLAND","2402332","2012-02-15 04:00","2012","02","15","04:00","-18.1","","","M","","M","","","35","","17","","","","100.24","","","","-27","","NA"
"-100.27","70.63","GATESHEAD ISLAND","2402332","2012-02-15 05:00","2012","02","15","05:00","-18.2","","","M","","M","","","36","","15","","","","100.27","","","","-27","","NA"
"-100.27","70.63","GATESHEAD ISLAND","2402332","2012-02-15 06:00","2012","02","15","06:00","-18.2","","","M","","M","","","34","","17","","","","100.30","","","","-27","","NA"
"-100.27","70.63","GATESHEAD ISLAND","2402332","2012-02-15 07:00","2012","02","15","07:00","-18.1","","","M","","M","","","34","","19","","","","100.33","","","","-28","","NA"
"-100.27","70.63","GATESHEAD ISLAND","2402332","2012-02-15 08:00","2012","02","15","08:00","-18.1","","","M","","M","","","34","","20","","","","100.36","","","","-28","","NA"
"-100.27","70.63","GATESHEAD ISLAND","2402332","2012-02-15 09:00","2012","02","15","09:00","-17.9","","","M","","M","","","34","","19","","","","100.40","","","","-28","","NA"
"-100.27","70.63","GATESHEAD ISLAND","2402332","2012-02-15 10:00","2012","02","15","10:00","-17.6","","","M","","M","","","34","","20","","","","100.45","","","","-27","","NA"
"-100.27","70.63","GATESHEAD ISLAND","2402332","2012-02-15 11:00","2012","02","15","11:00","-17.5","","","M","","M","","","35","","22","","","","100.49","","","","-28","","NA"
"-100.27","70.63","GATESHEAD ISLAND","2402332","2012-02-15 12:00","2012","02","15","12:00","-17.8","","","M","","M","","","35","","30","","","","100.51","","","","-30","","NA"
"-100.27","70.63","GATESHEAD ISLAND","2402332","2012-02-15 13:00","2012","02","15","13:00","-20.0","","","M","","M","","","35","","22","","","","100.58","","","","-31","","NA"
"-100.27","70.63","GATESHEAD ISLAND","2402332","2012-02-15 14:00","2012","02","15","14:00","-20.3","","","M","","M","","","34","","28","","","","100.65","","","","-33","","NA"
"-100.27","70.63","GATESHEAD ISLAND","2402332","2012-02-15 15:00","2012","02","15","15:00","-22.0","","","M","","M","","","35","","26","","","","100.72","","","","-34","","NA"
"-100.27","70.63","GATESHEAD ISLAND","2402332","2012-02-15 16:00","2012","02","15","16:00","-22.3","","","M","","M","","","35","","20","","","","100.77","","","","-33","","NA"
"-100.27","70.63","GATESHEAD ISLAND","2402332","2012-02-15 17:00","2012","02","15","17:00","-20.4","","","M","","M","","","35","","24","","","","100.84","","","","-32","","NA"
"-100.27","70.63","GATESHEAD ISLAND","2402332","2012-02-15 18:00","2012","02","15","18:00","-20.5","","","M","","M","","","34","","24","","","","100.88","","","","-32","","NA"
"-100.27","70.63","GATESHEAD ISLAND","2402332","2012-02-15 19:00","2012","02","15","19:00","-21.9","","","M","","M","","","33","","24","","","","100.93","","","","-34","","NA"
"-100.27","70.63","GATESHEAD ISLAND","2402332","2012-02-15 20:00","2012","02","15","20:00","-24.8","","","M","","M","","","34","","19","","","","100.95","","","","-36","","NA"
"-100.27","70.63","GATESHEAD ISLAND","2402332","2012-02-15 21:00","2012","02","15","21:00","-26.7","","","M","","M","","","34","","17","","","","100.97","","","","-38","","NA"
"-100.27","70.63","GATESHEAD ISLAND","2402332","2012-02-15 22:00","2012","02","15","22:00","-27.3","","","M","","M","","","33","","20","","","","101.02","","","","-40","","NA"
"-100.27","70.63","GATESHEAD ISLAND","2402332","2012-02-15 23:00","2012","02","15","23:00","-27.9","","","M","","M","","","32","","13","","","","101.07","","","","-38","","NA"
"-100.27","70.63","GATESHEAD ISLAND","2402332","2012-02-16 00:00","2012","02","16","00:00","-28.6","","","M","","M","","","31","","13","","","","101.09","","","","-39","","NA"
"-100.27","70.63","GATESHEAD ISLAND","2402332","2012-02-16 01:00","2012","02","16","01:00","-29.2","","","M","","M","","","31","","13","","","","101.12","","","","-40","","NA"
"-100.27","70.63","GATESHEAD ISLAND","2402332","2012-02-16 02:00","2012","02","16","02:00","-28.7","","","M","","M","","","32","","13","","","","101.14","","","","-39","","NA"
"-100.27","70.63","GATESHEAD ISLAND","2402332","2012-02-16 03:00","2012","02","16","03:00","-25.4","","","M","","M","","","33","","15","","","","101.18","","","","-36","","NA"
"-100.27","70.63","GATESHEAD ISLAND","2402332","2012-02-16 04:00","2012","02","16","04:00","-26.6","","","M","","M","","","31","","15","","","","101.23","","","","-37","","NA"
"-100.27","70.63","GATESHEAD ISLAND","2402332","2012-02-16 05:00","2012","02","16","05:00","-28.1","","","M","","M","","","31","","13","","","","101.26","","","","-38","","NA"
"-100.27","70.63","GATESHEAD ISLAND","2402332","2012-02-16 06:00","2012","02","16","06:00","-28.7","","","M","","M","","","31","","15","","","","101.28","","","","-40","","NA"
"-100.27","70.63","GATESHEAD ISLAND","2402332","2012-02-16 07:00","2012","02","16","07:00","-29.2","","","M","","M","","","31","","19","","","","101.29","","","","-42","","NA"
"-100.27","70.63","GATESHEAD ISLAND","2402332","2012-02-16 08:00","2012","02","16","08:00","-29.3","","","M","","M","","","31","","19","","","","101.30","","","","-42","","NA"
"-100.27","70.63","GATESHEAD ISLAND","2402332","2012-02-16 09:00","2012","02","16","09:00","-29.5","","","M","","M","","","32","","17","","","","101.35","","","","-42","","NA"
"-100.27","70.63","GATESHEAD ISLAND","2402332","2012-02-16 10:00","2012","02","16","10:00","-29.2","","","M","","M","","","32","","19","","","","101.38","","","","-42","","NA"
"-100.27","70.63","GATESHEAD ISLAND","2402332","2012-02-16 11:00","2012","02","16","11:00","-29.8","","","M","","M","","","33","","17","","","","101.39","","","","-42","","NA"
"-100.27","70.63","GATESHEAD ISLAND","2402332","2012-02-16 12:00","2012","02","16","12:00","-29.7","","","M","","M","","","33","","19","","","","101.42","","","","-42","","NA"
"-100.27","70.63","GATESHEAD ISLAND","2402332","2012-02-16 13:00","2012","02","16","13:00","-28.6","","","M","","M","","","31","","17","","","","101.49","","","","-40","","NA"
"-100.27","70.63","GATESHEAD ISLAND","2402332","2012-02-16 14:00","2012","02","16","14:00","-29.3","","","M","","M","","","32","","15","","","","101.52","","","","-41","","NA"
"-100.27","70.63","GATESHEAD ISLAND","2402332","2012-02-16 15:00","2012","02","16","15:00","-30.4","","","M","","M","","","33","","15","","","","101.54","","","","-42","","NA"
"-100.27","70.63","GATESHEAD ISLAND","2402332","2012-02-16 16:00","2012","02","16","16:00","-31.4","","","M","","M","","","32","","7","","","","101.56","","","","-39","","NA"
"-100.27","70.63","GATESHEAD ISLAND","2402332","2012-02-16 17:00","2012","02","16","17:00","-32.0","","","M","","M","","","31","","9","","","","101.59","","","","-41","","NA"
"-100.27","70.63","GATESHEAD ISLAND","2402332","2012-02-16 18:00","2012","02","16","18:00","-32.5","","","M","","M","","","31","","11","","","","101.61","","","","-43","","NA"
"-100.27","70.63","GATESHEAD ISLAND","2402332","2012-02-16 19:00","2012","02","16","19:00","-32.2","","","M","","M","","","32","","9","","","","101.60","","","","-41","","NA"
"-100.27","70.63","GATESHEAD ISLAND","2402332","2012-02-16 20:00","2012","02","16","20:00","-32.5","","","M","","M","","","28","","7","","","","101.56","","","","-40","","NA"
"-100.27","70.63","GATESHEAD ISLAND","2402332","2012-02-16 21:00","2012","02","16","21:00","-33.0","","","M","","M","","","29","","9","","","","101.58","","","","-42","","NA"
"-100.27","70.63","GATESHEAD ISLAND","2402332","2012-02-16 22:00","2012","02","16","22:00","-32.9","","","M","","M","","","29","","9","","","","101.57","","","","-42","","NA"
"-100.27","70.63","GATESHEAD ISLAND","2402332","2012-02-16 23:00","2012","02","16","23:00","-32.3","","","M","","M","","","28","","6","","","","101.57","","","","-39","","NA"
"-100.27","70.63","GATESHEAD ISLAND","2402332","2012-02-17 00:00","2012","02","17","00:00","-31.8","","","M","","M","","","25","","13","","","","101.58","","","","-43","","NA"
"-100.27","70.63","GATESHEAD ISLAND","2402332","2012-02-17 01:00","2012","02","17","01:00","-31.5","","","M","","M","","","27","","7","","","","101.58","","","","-39","","NA"
"-100.27","70.63","GATESHEAD ISLAND","2402332","2012-02-17 02:00","2012","02","17","02:00","-30.5","","","M","","M","","","27","","7","","","","101.58","","","","-38","","NA"
"-100.27","70.63","GATESHEAD ISLAND","2402332","2012-02-17 03:00","2012","02","17","03:00","-30.7","","","M","","M","","","26","","7","","","","101.58","","","","-38","","NA"
"-100.27","70.63","GATESHEAD ISLAND","2402332","2012-02-17 04:00","2012","02","17","04:00","-30.7","","","M","","M","","","25","","7","","","","101.53","","","","-38","","NA"
"-100.27","70.63","GATESHEAD ISLAND","2402332","2012-02-17 05:00","2012","02","17","05:00","-29.4","","","M","","M","","","18","","6","","","","101.50","","","","-36","","NA"
"-100.27","70.63","GATESHEAD ISLAND","2402332","2012-02-17 06:00","2012","02","17","06:00","-27.9","","","M","","M","","","20","","7","","","","101.48","","","","-35","","NA"
"-100.27","70.63","GATESHEAD ISLAND","2402332","2012-02-17 07:00","2012","02","17","07:00","-27.7","","","M","","M","","","18","","9","","","","101.46","","","","-36","","NA"
"-100.27","70.63","GATESHEAD ISLAND","2402332","2012-02-17 08:00","2012","02","17","08:00","-26.7","","","M","","M","","","20","","11","","","","101.42","","","","-36","","NA"
"-100.27","70.63","GATESHEAD ISLAND","2402332","2012-02-17 09:00","2012","02","17","09:00","-26.5","","","M","","M","","","19","","9","","","","101.40","","","","-34","","NA"
"-100.27","70.63","GATESHEAD ISLAND","2402332","2012-02-17 10:00","2012","02","17","10:00","-25.6","","","M","","M","","","18","","9","","","","101.37","","","","-33","","NA"
"-100.27","70.63","GATESHEAD ISLAND","2402332","2012-02-17 11:00","2012","02","17","11:00","-25.2","","","M","","M","","","18","","9","","","","101.36","","","","-33","","NA"
"-100.27","70.63","GATESHEAD ISLAND","2402332","2012-02-17 12:00","2012","02","17","12:00","-24.8","","","M","","M","","","15","","9","","","","101.33","","","","-32","","NA"
"-100.27","70.63","GATESHEAD ISLAND","2402332","2012-02-17 13:00","2012","02","17","13:00","-24.5","","","M","","M","","","15","","9","","","","101.30","","","","-32","","NA"
"-100.27","70.63","GATESHEAD ISLAND","2402332","2012-02-17 14:00","2012","02","17","14:00","-24.5","","","M","","M","","","13","","9","","","","101.27","","","","-32","","NA"
"-100.27","70.63","GATESHEAD ISLAND","2402332","2012-02-17 15:00","2012","02","17","15:00","-25.0","","","M","","M","","","12","","11","","","","101.24","","","","-34","","NA"
"-100.27","70.63","GATESHEAD ISLAND","2402332","2012-02-17 16:00","2012","02","17","16:00","-26.9","","","M","","M","","","15","","9","","","","101.23","","","","-35","","NA"
"-100.27","70.63","GATESHEAD ISLAND","2402332","2012-02-17 17:00","2012","02","17","17:00","-26.7","","","M","","M","","","13","","13","","","","101.20","","","","-37","","NA"
"-100.27","70.63","GATESHEAD ISLAND","2402332","2012-02-17 18:00","2012","02","17","18:00","-27.0","","","M","","M","","","11","","13","","","","101.16","","","","-37","","NA"
"-100.27","70.63","GATESHEAD ISLAND","2402332","2012-02-17 19:00","2012","02","17","19:00","-27.4","","","M","","M","","","10","","13","","","","101.10","","","","-37","","NA"
"-100.27","70.63","GATESHEAD ISLAND","2402332","2012-02-17 20:00","2012","02","17","20:00","-26.5","","","M","","M","","","13","","13","","","","101.07","","","","-36","","NA"
"-100.27","70.63","GATESHEAD ISLAND","2402332","2012-02-17 21:00","2012","02","17","21:00","-25.9","","","M","","M","","","10","","11","","","","101.05","","","","-35","","NA"
"-100.27","70.63","GATESHEAD ISLAND","2402332","2012-02-17 22:00","2012","02","17","22:00","-25.4","","","M","","M","","","8","","11","","","","101.02","","","","-34","","NA"
"-100.27","70.63","GATESHEAD ISLAND","2402332","2012-02-17 23:00","2012","02","17","23:00","-25.1","","","M","","M","","","8","","13","","","","101.01","","","","-35","","NA"
"-100.27","70.63","GATESHEAD ISLAND","2402332","2012-02-18 00:00","2012","02","18","00:00","-25.1","","","M","","M","","","7","","15","","","","101.01","","","","-35","","NA"
"-100.27","70.63","GATESHEAD ISLAND","2402332","2012-02-18 01:00","2012","02","18","01:00","-24.9","","","M","","M","","","6","","13","","","","101.02","","","","-34","","NA"
"-100.27","70.63","GATESHEAD ISLAND","2402332","2012-02-18 02:00","2012","02","18","02:00","-24.9","","","M","","M","","","6","","15","","","","101.02","","","","-35","","NA"
"-100.27","70.63","GATESHEAD ISLAND","2402332","2012-02-18 03:00","2012","02","18","03:00","-24.9","","","M","","M","","","6","","17","","","","101.02","","","","-36","","NA"
"-100.27","70.63","GATESHEAD ISLAND","2402332","2012-02-18 04:00","2012","02","18","04:00","-25.3","","","M","","M","","","5","","15","","","","101.02","","","","-36","","NA"
"-100.27","70.63","GATESHEAD ISLAND","2402332","2012-02-18 05:00","2012","02","18","05:00","-25.9","","","M","","M","","","4","","15","","","","101.03","","","","-36","","NA"
"-100.27","70.63","GATESHEAD ISLAND","2402332","2012-02-18 06:00","2012","02","18","06:00","-29.6","","","M","","M","","","3","","20","","","","101.05","","","","-43","","NA"
"-100.27","70.63","GATESHEAD ISLAND","2402332","2012-02-18 07:00","2012","02","18","07:00","-31.6","","","M","","M","","","2","","20","","","","101.08","","","","-45","","NA"
"-100.27","70.63","GATESHEAD ISLAND","2402332","2012-02-18 08:00","2012","02","18","08:00","-32.6","","","M","","M","","","2","","19","","","","101.11","","","","-46","","NA"
"-100.27","70.63","GATESHEAD ISLAND","2402332","2012-02-18 09:00","2012","02","18","09:00","-32.4","","","M","","M","","","1","","20","","","","101.14","","","","-46","","NA"
"-100.27","70.63","GATESHEAD ISLAND","2402332","2012-02-18 10:00","2012","02","18","10:00","-32.5","","","M","","M","","","36","","20","","","","101.18","","","","-46","","NA"
"-100.27","70.63","GATESHEAD ISLAND","2402332","2012-02-18 11:00","2012","02","18","11:00","-33.3","","","M","","M","","","1","","20","","","","101.23","","","","-47","","NA"
"-100.27","70.63","GATESHEAD ISLAND","2402332","2012-02-18 12:00","2012","02","18","12:00","-33.8","","","M","","M","","","36","","20","","","","101.26","","","","-48","","NA"
"-100.27","70.63","GATESHEAD ISLAND","2402332","2012-02-18 13:00","2012","02","18","13:00","-32.8","","","M","","M","","","36","","22","","","","101.30","","","","-47","","NA"
"-100.27","70.63","GATESHEAD ISLAND","2402332","2012-02-18 14:00","2012","02","18","14:00","-33.2","","","M","","M","","","36","","22","","","","101.34","","","","-48","","NA"
"-100.27","70.63","GATESHEAD ISLAND","2402332","2012-02-18 15:00","2012","02","18","15:00","-33.9","","","M","","M","","","36","","24","","","","101.39","","","","-49","","NA"
"-100.27","70.63","GATESHEAD ISLAND","2402332","2012-02-18 16:00","2012","02","18","16:00","-34.3","","","M","","M","","","35","","24","","","","101.45","","","","-50","","NA"
"-100.27","70.63","GATESHEAD ISLAND","2402332","2012-02-18 17:00","2012","02","18","17:00","-34.3","","","M","","M","","","34","","19","","","","101.51","","","","-48","","NA"
"-100.27","70.63","GATESHEAD ISLAND","2402332","2012-02-18 18:00","2012","02","18","18:00","-34.5","","","M","","M","","","34","","19","","","","101.54","","","","-48","","NA"
"-100.27","70.63","GATESHEAD ISLAND","2402332","2012-02-18 19:00","2012","02","18","19:00","-34.1","","","M","","M","","","34","","20","","","","101.57","","","","-48","","NA"
"-100.27","70.63","GATESHEAD ISLAND","2402332","2012-02-18 20:00","2012","02","18","20:00","-33.9","","","M","","M","","","34","","22","","","","101.58","","","","-49","","NA"
"-100.27","70.63","GATESHEAD ISLAND","2402332","2012-02-18 21:00","2012","02","18","21:00","-34.1","","","M","","M","","","33","","22","","","","101.59","","","","-49","","NA"
"-100.27","70.63","GATESHEAD ISLAND","2402332","2012-02-18 22:00","2012","02","18","22:00","-33.9","","","M","","M","","","34","","22","","","","101.60","","","","-49","","NA"
"-100.27","70.63","GATESHEAD ISLAND","2402332","2012-02-18 23:00","2012","02","18","23:00","-34.0","","","M","","M","","","33","","22","","","","101.62","","","","-49","","NA"
"-100.27","70.63","GATESHEAD ISLAND","2402332","2012-02-19 00:00","2012","02","19","00:00","-34.3","","","M","","M","","","33","","17","","","","101.64","","","","-47","","NA"
"-100.27","70.63","GATESHEAD ISLAND","2402332","2012-02-19 01:00","2012","02","19","01:00","-34.2","","","M","","M","","","34","","19","","","","101.65","","","","-48","","NA"
"-100.27","70.63","GATESHEAD ISLAND","2402332","2012-02-19 02:00","2012","02","19","02:00","-34.4","","","M","","M","","","32","","13","","","","101.71","","","","-46","","NA"
"-100.27","70.63","GATESHEAD ISLAND","2402332","2012-02-19 03:00","2012","02","19","03:00","-33.7","","","M","","M","","","33","","19","","","","101.71","","","","-47","","NA"
"-100.27","70.63","GATESHEAD ISLAND","2402332","2012-02-19 04:00","2012","02","19","04:00","-33.7","","","M","","M","","","32","","19","","","","101.73","","","","-47","","NA"
"-100.27","70.63","GATESHEAD ISLAND","2402332","2012-02-19 05:00","2012","02","19","05:00","-33.7","","","M","","M","","","32","","19","","","","101.75","","","","-47","","NA"
"-100.27","70.63","GATESHEAD ISLAND","2402332","2012-02-19 06:00","2012","02","19","06:00","-33.4","","","M","","M","","","32","","17","","","","101.75","","","","-46","","NA"
"-100.27","70.63","GATESHEAD ISLAND","2402332","2012-02-19 07:00","2012","02","19","07:00","-32.3","","","M","","M","","","31","","11","","","","101.77","","","","-42","","NA"
"-100.27","70.63","GATESHEAD ISLAND","2402332","2012-02-19 08:00","2012","02","19","08:00","-31.8","","","M","","M","","","31","","13","","","","101.77","","","","-43","","NA"
"-100.27","70.63","GATESHEAD ISLAND","2402332","2012-02-19 09:00","2012","02","19","09:00","-32.1","","","M","","M","","","32","","13","","","","101.78","","","","-43","","NA"
"-100.27","70.63","GATESHEAD ISLAND","2402332","2012-02-19 10:00","2012","02","19","10:00","-31.5","","","M","","M","","","32","","15","","","","101.77","","","","-43","","NA"
"-100.27","70.63","GATESHEAD ISLAND","2402332","2012-02-19 11:00","2012","02","19","11:00","-30.8","","","M","","M","","","33","","15","","","","101.78","","","","-42","","NA"
"-100.27","70.63","GATESHEAD ISLAND","2402332","2012-02-19 12:00","2012","02","19","12:00","-30.0","","","M","","M","","","32","","13","","","","101.80","","","","-41","","NA"
"-100.27","70.63","GATESHEAD ISLAND","2402332","2012-02-19 13:00","2012","02","19","13:00","-28.5","","","M","","M","","","33","","19","","","","101.82","","","","-41","","NA"
"-100.27","70.63","GATESHEAD ISLAND","2402332","2012-02-19 14:00","2012","02","19","14:00","-28.5","","","M","","M","","","33","","15","","","","101.88","","","","-40","","NA"
"-100.27","70.63","GATESHEAD ISLAND","2402332","2012-02-19 15:00","2012","02","19","15:00","-30.2","","","M","","M","","","35","","17","","","","101.93","","","","-42","","NA"
"-100.27","70.63","GATESHEAD ISLAND","2402332","2012-02-19 16:00","2012","02","19","16:00","-31.4","","","M","","M","","","36","","19","","","","101.98","","","","-45","","NA"
"-100.27","70.63","GATESHEAD ISLAND","2402332","2012-02-19 17:00","2012","02","19","17:00","-31.8","","","M","","M","","","36","","17","","","","101.99","","","","-44","","NA"
"-100.27","70.63","GATESHEAD ISLAND","2402332","2012-02-19 18:00","2012","02","19","18:00","-32.4","","","M","","M","","","34","","15","","","","102.05","","","","-44","","NA"
"-100.27","70.63","GATESHEAD ISLAND","2402332","2012-02-19 19:00","2012","02","19","19:00","-33.3","","","M","","M","","","34","","13","","","","102.07","","","","-45","","NA"
"-100.27","70.63","GATESHEAD ISLAND","2402332","2012-02-19 20:00","2012","02","19","20:00","-33.6","","","M","","M","","","34","","11","","","","102.09","","","","-44","","NA"
"-100.27","70.63","GATESHEAD ISLAND","2402332","2012-02-19 21:00","2012","02","19","21:00","-33.5","","","M","","M","","","33","","11","","","","102.10","","","","-44","","NA"
"-100.27","70.63","GATESHEAD ISLAND","2402332","2012-02-19 22:00","2012","02","19","22:00","-33.8","","","M","","M","","","34","","9","","","","102.09","","","","-43","","NA"
"-100.27","70.63","GATESHEAD ISLAND","2402332","2012-02-19 23:00","2012","02","19","23:00","-34.2","","","M","","M","","","34","","11","","","","102.11","","","","-45","","NA"
"-100.27","70.63","GATESHEAD ISLAND","2402332","2012-02-20 00:00","2012","02","20","00:00","-34.4","","","M","","M","","","32","","9","","","","102.14","","","","-44","","NA"
"-100.27","70.63","GATESHEAD ISLAND","2402332","2012-02-20 01:00","2012","02","20","01:00","-34.3","","","M","","M","","","33","","7","","","","102.16","","","","-42","","NA"
"-100.27","70.63","GATESHEAD ISLAND","2402332","2012-02-20 02:00","2012","02","20","02:00","-34.5","","","M","","M","","","33","","6","","","","102.20","","","","-42","","NA"
"-100.27","70.63","GATESHEAD ISLAND","2402332","2012-02-20 03:00","2012","02","20","03:00","-34.7","","","M","","M","","","32","","9","","","","102.21","","","","-44","","NA"
"-100.27","70.63","GATESHEAD ISLAND","2402332","2012-02-20 04:00","2012","02","20","04:00","-34.7","","","M","","M","","","32","","9","","","","102.21","","","","-44","","NA"
"-100.27","70.63","GATESHEAD ISLAND","2402332","2012-02-20 05:00","2012","02","20","05:00","-34.7","","","M","","M","","","32","","6","","","","102.21","","","","-42","","NA"
"-100.27","70.63","GATESHEAD ISLAND","2402332","2012-02-20 06:00","2012","02","20","06:00","-34.5","","","M","","M","","","34","","7","","","","102.21","","","","-43","","NA"
"-100.27","70.63","GATESHEAD ISLAND","2402332","2012-02-20 07:00","2012","02","20","07:00","-34.2","","","M","","M","","","31","","6","","","","102.19","","","","-41","","NA"
"-100.27","70.63","GATESHEAD ISLAND","2402332","2012-02-20 08:00","2012","02","20","08:00","-33.7","","","M","","M","","","33","","2","","","","102.17","","","","-36","","NA"
"-100.27","70.63","GATESHEAD ISLAND","2402332","2012-02-20 09:00","2012","02","20","09:00","-30.9","","","M","","M","","","28","","4","","","","102.15","","","","-35","","NA"
"-100.27","70.63","GATESHEAD ISLAND","2402332","2012-02-20 10:00","2012","02","20","10:00","-30.5","","","M","","M","","","28","","7","","","","102.13","","","","-38","","NA"
"-100.27","70.63","GATESHEAD ISLAND","2402332","2012-02-20 11:00","2012","02","20","11:00","-31.6","","","M","","M","","","27","","4","","","","102.11","","","","-36","","NA"
"-100.27","70.63","GATESHEAD ISLAND","2402332","2012-02-20 12:00","2012","02","20","12:00","-32.8","","","M","","M","","","25","","7","","","","102.09","","","","-41","","NA"
"-100.27","70.63","GATESHEAD ISLAND","2402332","2012-02-20 13:00","2012","02","20","13:00","-30.1","","","M","","M","","","22","","6","","","","102.08","","","","-37","","NA"
"-100.27","70.63","GATESHEAD ISLAND","2402332","2012-02-20 14:00","2012","02","20","14:00","-30.7","","","M","","M","","","20","","6","","","","102.06","","","","-37","","NA"
"-100.27","70.63","GATESHEAD ISLAND","2402332","2012-02-20 15:00","2012","02","20","15:00","-32.1","","","M","","M","","","21","","9","","","","102.03","","","","-41","","NA"
"-100.27","70.63","GATESHEAD ISLAND","2402332","2012-02-20 16:00","2012","02","20","16:00","-33.2","","","M","","M","","","18","","6","","","","102.01","","","","-40","","NA"
"-100.27","70.63","GATESHEAD ISLAND","2402332","2012-02-20 17:00","2012","02","20","17:00","-33.9","","","M","","M","","","14","","6","","","","101.96","","","","-41","","NA"
"-100.27","70.63","GATESHEAD ISLAND","2402332","2012-02-20 18:00","2012","02","20","18:00","-34.0","","","M","","M","","","16","","17","","","","101.90","","","","-47","","NA"
"-100.27","70.63","GATESHEAD ISLAND","2402332","2012-02-20 19:00","2012","02","20","19:00","-33.4","","","M","","M","","","15","","9","","","","101.85","","","","-43","","NA"
"-100.27","70.63","GATESHEAD ISLAND","2402332","2012-02-20 20:00","2012","02","20","20:00","-34.0","","","M","","M","","","17","","15","","","","101.80","","","","-46","","NA"
"-100.27","70.63","GATESHEAD ISLAND","2402332","2012-02-20 21:00","2012","02","20","21:00","-34.3","","","M","","M","","","15","","19","","","","101.69","","","","-48","","NA"
"-100.27","70.63","GATESHEAD ISLAND","2402332","2012-02-20 22:00","2012","02","20","22:00","-33.5","","","M","","M","","","15","","20","","","","101.65","","","","-48","","NA"
"-100.27","70.63","GATESHEAD ISLAND","2402332","2012-02-20 23:00","2012","02","20","23:00","-33.3","","","M","","M","","","14","","19","","","","101.60","","","","-47","","NA"
"-100.27","70.63","GATESHEAD ISLAND","2402332","2012-02-21 00:00","2012","02","21","00:00","-32.4","","","M","","M","","","14","","20","","","","101.53","","","","-46","","NA"
"-100.27","70.63","GATESHEAD ISLAND","2402332","2012-02-21 01:00","2012","02","21","01:00","-32.4","","","M","","M","","","14","","22","","","","101.49","","","","-47","","NA"
"-100.27","70.63","GATESHEAD ISLAND","2402332","2012-02-21 02:00","2012","02","21","02:00","-31.9","","","M","","M","","","14","","22","","","","101.43","","","","-46","","NA"
"-100.27","70.63","GATESHEAD ISLAND","2402332","2012-02-21 03:00","2012","02","21","03:00","-30.9","","","M","","M","","","15","","22","","","","101.40","","","","-45","","NA"
"-100.27","70.63","GATESHEAD ISLAND","2402332","2012-02-21 04:00","2012","02","21","04:00","-30.1","","","M","","M","","","14","","20","","","","101.33","","","","-43","","NA"
"-100.27","70.63","GATESHEAD ISLAND","2402332","2012-02-21 05:00","2012","02","21","05:00","-30.2","","","M","","M","","","15","","26","","","","101.27","","","","-45","","NA"
"-100.27","70.63","GATESHEAD ISLAND","2402332","2012-02-21 06:00","2012","02","21","06:00","-30.1","","","M","","M","","","14","","26","","","","101.20","","","","-45","","NA"
"-100.27","70.63","GATESHEAD ISLAND","2402332","2012-02-21 07:00","2012","02","21","07:00","-30.4","","","M","","M","","","14","","24","","","","101.13","","","","-45","","NA"
"-100.27","70.63","GATESHEAD ISLAND","2402332","2012-02-21 08:00","2012","02","21","08:00","-30.4","","","M","","M","","","13","","24","","","","101.07","","","","-45","","NA"
"-100.27","70.63","GATESHEAD ISLAND","2402332","2012-02-21 09:00","2012","02","21","09:00","-29.4","","","M","","M","","","13","","26","","","","101.02","","","","-44","","NA"
"-100.27","70.63","GATESHEAD ISLAND","2402332","2012-02-21 10:00","2012","02","21","10:00","-28.9","","","M","","M","","","16","","32","","","","100.96","","","","-45","","NA"
"-100.27","70.63","GATESHEAD ISLAND","2402332","2012-02-21 11:00","2012","02","21","11:00","-27.8","","","M","","M","","","14","","26","","","","100.92","","","","-42","","NA"
"-100.27","70.63","GATESHEAD ISLAND","2402332","2012-02-21 12:00","2012","02","21","12:00","-27.2","","","M","","M","","","14","","26","","","","100.88","","","","-41","","NA"
"-100.27","70.63","GATESHEAD ISLAND","2402332","2012-02-21 13:00","2012","02","21","13:00","-27.4","","","M","","M","","","15","","30","","","","100.86","","","","-42","","NA"
"-100.27","70.63","GATESHEAD ISLAND","2402332","2012-02-21 14:00","2012","02","21","14:00","-27.2","","","M","","M","","","15","","28","","","","100.87","","","","-42","","NA"
"-100.27","70.63","GATESHEAD ISLAND","2402332","2012-02-21 15:00","2012","02","21","15:00","-27.2","","","M","","M","","","15","","24","","","","100.84","","","","-41","","NA"
"-100.27","70.63","GATESHEAD ISLAND","2402332","2012-02-21 16:00","2012","02","21","16:00","-27.1","","","M","","M","","","14","","22","","","","100.81","","","","-40","","NA"
"-100.27","70.63","GATESHEAD ISLAND","2402332","2012-02-21 17:00","2012","02","21","17:00","-27.0","","","M","","M","","","13","","24","","","","100.76","","","","-40","","NA"
"-100.27","70.63","GATESHEAD ISLAND","2402332","2012-02-21 18:00","2012","02","21","18:00","-26.8","","","M","","M","","","14","","24","","","","100.74","","","","-40","","NA"
"-100.27","70.63","GATESHEAD ISLAND","2402332","2012-02-21 19:00","2012","02","21","19:00","-26.8","","","M","","M","","","14","","24","","","","100.73","","","","-40","","NA"
"-100.27","70.63","GATESHEAD ISLAND","2402332","2012-02-21 20:00","2012","02","21","20:00","-27.0","","","M","","M","","","14","","24","","","","100.68","","","","-40","","NA"
"-100.27","70.63","GATESHEAD ISLAND","2402332","2012-02-21 21:00","2012","02","21","21:00","-27.3","","","M","","M","","","14","","22","","","","100.65","","","","-40","","NA"
"-100.27","70.63","GATESHEAD ISLAND","2402332","2012-02-21 22:00","2012","02","21","22:00","-27.5","","","M","","M","","","14","","24","","","","100.65","","","","-41","","NA"
"-100.27","70.63","GATESHEAD ISLAND","2402332","2012-02-21 23:00","2012","02","21","23:00","-27.0","","","M","","M","","","14","","20","","","","100.66","","","","-39","","NA"
"-100.27","70.63","GATESHEAD ISLAND","2402332","2012-02-22 00:00","2012","02","22","00:00","-26.8","","","M","","M","","","14","","22","","","","100.65","","","","-40","","NA"
"-100.27","70.63","GATESHEAD ISLAND","2402332","2012-02-22 01:00","2012","02","22","01:00","-26.4","","","M","","M","","","14","","22","","","","100.62","","","","-39","","NA"
"-100.27","70.63","GATESHEAD ISLAND","2402332","2012-02-22 02:00","2012","02","22","02:00","-26.4","","","M","","M","","","13","","26","","","","100.62","","","","-40","","NA"
"-100.27","70.63","GATESHEAD ISLAND","2402332","2012-02-22 03:00","2012","02","22","03:00","-26.5","","","M","","M","","","13","","22","","","","100.61","","","","-39","","NA"
"-100.27","70.63","GATESHEAD ISLAND","2402332","2012-02-22 04:00","2012","02","22","04:00","-26.2","","","M","","M","","","14","","24","","","","100.60","","","","-39","","NA"
"-100.27","70.63","GATESHEAD ISLAND","2402332","2012-02-22 05:00","2012","02","22","05:00","-26.0","","","M","","M","","","14","","22","","","","100.58","","","","-39","","NA"
"-100.27","70.63","GATESHEAD ISLAND","2402332","2012-02-22 06:00","2012","02","22","06:00","-26.0","","","M","","M","","","14","","22","","","","100.58","","","","-39","","NA"
"-100.27","70.63","GATESHEAD ISLAND","2402332","2012-02-22 07:00","2012","02","22","07:00","-26.2","","","M","","M","","","14","","19","","","","100.58","","","","-38","","NA"
"-100.27","70.63","GATESHEAD ISLAND","2402332","2012-02-22 08:00","2012","02","22","08:00","-26.0","","","M","","M","","","14","","19","","","","100.59","","","","-38","","NA"
"-100.27","70.63","GATESHEAD ISLAND","2402332","2012-02-22 09:00","2012","02","22","09:00","-26.1","","","M","","M","","","13","","17","","","","100.58","","","","-37","","NA"
"-100.27","70.63","GATESHEAD ISLAND","2402332","2012-02-22 10:00","2012","02","22","10:00","-25.5","","","M","","M","","","13","","17","","","","100.58","","","","-37","","NA"
"-100.27","70.63","GATESHEAD ISLAND","2402332","2012-02-22 11:00","2012","02","22","11:00","-24.7","","","M","","M","","","13","","17","","","","100.60","","","","-36","","NA"
"-100.27","70.63","GATESHEAD ISLAND","2402332","2012-02-22 12:00","2012","02","22","12:00","-24.6","","","M","","M","","","12","","15","","","","100.63","","","","-35","","NA"
"-100.27","70.63","GATESHEAD ISLAND","2402332","2012-02-22 13:00","2012","02","22","13:00","-24.1","","","M","","M","","","11","","17","","","","100.66","","","","-35","","NA"
"-100.27","70.63","GATESHEAD ISLAND","2402332","2012-02-22 14:00","2012","02","22","14:00","-24.5","","","M","","M","","","12","","13","","","","100.67","","","","-34","","NA"
"-100.27","70.63","GATESHEAD ISLAND","2402332","2012-02-22 15:00","2012","02","22","15:00","-25.0","","","M","","M","","","11","","13","","","","100.69","","","","-34","","NA"
"-100.27","70.63","GATESHEAD ISLAND","2402332","2012-02-22 16:00","2012","02","22","16:00","-26.3","","","M","","M","","","10","","13","","","","100.70","","","","-36","","NA"
"-100.27","70.63","GATESHEAD ISLAND","2402332","2012-02-22 17:00","2012","02","22","17:00","-26.9","","","M","","M","","","9","","13","","","","100.71","","","","-37","","NA"
"-100.27","70.63","GATESHEAD ISLAND","2402332","2012-02-22 18:00","2012","02","22","18:00","-27.8","","","M","","M","","","10","","13","","","","100.72","","","","-38","","NA"
"-100.27","70.63","GATESHEAD ISLAND","2402332","2012-02-22 19:00","2012","02","22","19:00","-28.4","","","M","","M","","","12","","15","","","","100.73","","","","-39","","NA"
"-100.27","70.63","GATESHEAD ISLAND","2402332","2012-02-22 20:00","2012","02","22","20:00","-28.7","","","M","","M","","","13","","15","","","","100.75","","","","-40","","NA"
"-100.27","70.63","GATESHEAD ISLAND","2402332","2012-02-22 21:00","2012","02","22","21:00","-29.0","","","M","","M","","","10","","7","","","","100.77","","","","-36","","NA"
"-100.27","70.63","GATESHEAD ISLAND","2402332","2012-02-22 22:00","2012","02","22","22:00","-29.2","","","M","","M","","","6","","11","","","","100.80","","","","-39","","NA"
"-100.27","70.63","GATESHEAD ISLAND","2402332","2012-02-22 23:00","2012","02","22","23:00","-29.5","","","M","","M","","","6","","9","","","","100.80","","","","-38","","NA"
"-100.27","70.63","GATESHEAD ISLAND","2402332","2012-02-23 00:00","2012","02","23","00:00","-29.9","","","M","","M","","","6","","13","","","","100.83","","","","-40","","NA"
"-100.27","70.63","GATESHEAD ISLAND","2402332","2012-02-23 01:00","2012","02","23","01:00","-29.6","","","M","","M","","","7","","11","","","","100.84","","","","-39","","NA"
"-100.27","70.63","GATESHEAD ISLAND","2402332","2012-02-23 02:00","2012","02","23","02:00","-29.4","","","M","","M","","","8","","7","","","","100.88","","","","-37","","NA"
"-100.27","70.63","GATESHEAD ISLAND","2402332","2012-02-23 03:00","2012","02","23","03:00","-32.5","","","M","","M","","","3","","2","","","","100.91","","","","-35","","NA"
"-100.27","70.63","GATESHEAD ISLAND","2402332","2012-02-23 04:00","2012","02","23","04:00","-33.7","","","M","","M","","","34","","9","","","","100.93","","","","-43","","NA"
"-100.27","70.63","GATESHEAD ISLAND","2402332","2012-02-23 05:00","2012","02","23","05:00","-33.6","","","M","","M","","","34","","13","","","","100.94","","","","-45","","NA"
"-100.27","70.63","GATESHEAD ISLAND","2402332","2012-02-23 06:00","2012","02","23","06:00","-33.7","","","M","","M","","","33","","9","","","","100.97","","","","-43","","NA"
"-100.27","70.63","GATESHEAD ISLAND","2402332","2012-02-23 07:00","2012","02","23","07:00","-33.6","","","M","","M","","","33","","13","","","","100.99","","","","-45","","NA"
"-100.27","70.63","GATESHEAD ISLAND","2402332","2012-02-23 08:00","2012","02","23","08:00","-32.5","","","M","","M","","","33","","17","","","","100.98","","","","-45","","NA"
"-100.27","70.63","GATESHEAD ISLAND","2402332","2012-02-23 09:00","2012","02","23","09:00","-29.4","","","M","","M","","","33","","19","","","","100.98","","","","-42","","NA"
"-100.27","70.63","GATESHEAD ISLAND","2402332","2012-02-23 10:00","2012","02","23","10:00","-29.6","","","M","","M","","","32","","19","","","","100.99","","","","-42","","NA"
"-100.27","70.63","GATESHEAD ISLAND","2402332","2012-02-23 11:00","2012","02","23","11:00","-31.1","","","M","","M","","","32","","22","","","","101.01","","","","-45","","NA"
"-100.27","70.63","GATESHEAD ISLAND","2402332","2012-02-23 12:00","2012","02","23","12:00","-30.9","","","M","","M","","","32","","22","","","","101.03","","","","-45","","NA"
"-100.27","70.63","GATESHEAD ISLAND","2402332","2012-02-23 13:00","2012","02","23","13:00","-29.6","","","M","","M","","","31","","20","","","","101.04","","","","-43","","NA"
"-100.27","70.63","GATESHEAD ISLAND","2402332","2012-02-23 14:00","2012","02","23","14:00","-29.9","","","M","","M","","","32","","19","","","","101.07","","","","-43","","NA"
"-100.27","70.63","GATESHEAD ISLAND","2402332","2012-02-23 15:00","2012","02","23","15:00","-30.8","","","M","","M","","","33","","22","","","","101.11","","","","-45","","NA"
"-100.27","70.63","GATESHEAD ISLAND","2402332","2012-02-23 16:00","2012","02","23","16:00","-31.9","","","M","","M","","","34","","19","","","","101.16","","","","-45","","NA"
"-100.27","70.63","GATESHEAD ISLAND","2402332","2012-02-23 17:00","2012","02","23","17:00","-32.8","","","M","","M","","","34","","17","","","","101.20","","","","-46","","NA"
"-100.27","70.63","GATESHEAD ISLAND","2402332","2012-02-23 18:00","2012","02","23","18:00","-33.1","","","M","","M","","","35","","19","","","","101.23","","","","-47","","NA"
"-100.27","70.63","GATESHEAD ISLAND","2402332","2012-02-23 19:00","2012","02","23","19:00","-33.6","","","M","","M","","","35","","19","","","","101.27","","","","-47","","NA"
"-100.27","70.63","GATESHEAD ISLAND","2402332","2012-02-23 20:00","2012","02","23","20:00","-34.1","","","M","","M","","","35","","17","","","","101.30","","","","-47","","NA"
"-100.27","70.63","GATESHEAD ISLAND","2402332","2012-02-23 21:00","2012","02","23","21:00","-34.3","","","M","","M","","","34","","17","","","","101.33","","","","-47","","NA"
"-100.27","70.63","GATESHEAD ISLAND","2402332","2012-02-23 22:00","2012","02","23","22:00","-34.4","","","M","","M","","","33","","17","","","","101.37","","","","-48","","NA"
"-100.27","70.63","GATESHEAD ISLAND","2402332","2012-02-23 23:00","2012","02","23","23:00","-34.5","","","M","","M","","","34","","17","","","","101.41","","","","-48","","NA"
"-100.27","70.63","GATESHEAD ISLAND","2402332","2012-02-24 00:00","2012","02","24","00:00","-34.6","","","M","","M","","","34","","19","","","","101.46","","","","-49","","NA"
"-100.27","70.63","GATESHEAD ISLAND","2402332","2012-02-24 01:00","2012","02","24","01:00","-34.6","","","M","","M","","","33","","19","","","","101.47","","","","-49","","NA"
"-100.27","70.63","GATESHEAD ISLAND","2402332","2012-02-24 02:00","2012","02","24","02:00","-34.8","","","M","","M","","","33","","17","","","","101.54","","","","-48","","NA"
"-100.27","70.63","GATESHEAD ISLAND","2402332","2012-02-24 03:00","2012","02","24","03:00","-35.0","","","M","","M","","","34","","17","","","","101.57","","","","-48","","NA"
"-100.27","70.63","GATESHEAD ISLAND","2402332","2012-02-24 04:00","2012","02","24","04:00","-35.3","","","M","","M","","","34","","17","","","","101.62","","","","-49","","NA"
"-100.27","70.63","GATESHEAD ISLAND","2402332","2012-02-24 05:00","2012","02","24","05:00","-35.2","","","M","","M","","","33","","19","","","","101.65","","","","-49","","NA"
"-100.27","70.63","GATESHEAD ISLAND","2402332","2012-02-24 06:00","2012","02","24","06:00","-35.3","","","M","","M","","","33","","19","","","","101.69","","","","-49","","NA"
"-100.27","70.63","GATESHEAD ISLAND","2402332","2012-02-24 07:00","2012","02","24","07:00","-35.4","","","M","","M","","","33","","19","","","","101.71","","","","-50","","NA"
"-100.27","70.63","GATESHEAD ISLAND","2402332","2012-02-24 08:00","2012","02","24","08:00","-35.3","","","M","","M","","","32","","17","","","","101.74","","","","-49","","NA"
"-100.27","70.63","GATESHEAD ISLAND","2402332","2012-02-24 09:00","2012","02","24","09:00","-34.4","","","M","","M","","","32","","17","","","","101.78","","","","-48","","NA"
"-100.27","70.63","GATESHEAD ISLAND","2402332","2012-02-24 10:00","2012","02","24","10:00","-33.4","","","M","","M","","","33","","15","","","","101.78","","","","-46","","NA"
"-100.27","70.63","GATESHEAD ISLAND","2402332","2012-02-24 11:00","2012","02","24","11:00","-34.1","","","M","","M","","","32","","15","","","","101.83","","","","-46","","NA"
"-100.27","70.63","GATESHEAD ISLAND","2402332","2012-02-24 12:00","2012","02","24","12:00","-33.6","","","M","","M","","","33","","15","","","","101.86","","","","-46","","NA"
"-100.27","70.63","GATESHEAD ISLAND","2402332","2012-02-24 13:00","2012","02","24","13:00","-32.6","","","M","","M","","","33","","13","","","","101.91","","","","-44","","NA"
"-100.27","70.63","GATESHEAD ISLAND","2402332","2012-02-24 14:00","2012","02","24","14:00","-33.0","","","M","","M","","","33","","13","","","","101.94","","","","-44","","NA"
"-100.27","70.63","GATESHEAD ISLAND","2402332","2012-02-24 15:00","2012","02","24","15:00","-33.6","","","M","","M","","","33","","13","","","","101.99","","","","-45","","NA"
"-100.27","70.63","GATESHEAD ISLAND","2402332","2012-02-24 16:00","2012","02","24","16:00","-35.6","","","M","","M","","","33","","11","","","","102.04","","","","-46","","NA"
"-100.27","70.63","GATESHEAD ISLAND","2402332","2012-02-24 17:00","2012","02","24","17:00","-35.9","","","M","","M","","","34","","15","","","","102.09","","","","-49","","NA"
"-100.27","70.63","GATESHEAD ISLAND","2402332","2012-02-24 18:00","2012","02","24","18:00","-36.1","","","M","","M","","","35","","11","","","","102.11","","","","-47","","NA"
"-100.27","70.63","GATESHEAD ISLAND","2402332","2012-02-24 19:00","2012","02","24","19:00","-36.6","","","M","","M","","","35","","13","","","","102.12","","","","-49","","NA"
"-100.27","70.63","GATESHEAD ISLAND","2402332","2012-02-24 20:00","2012","02","24","20:00","-37.1","","","M","","M","","","36","","13","","","","102.16","","","","-49","","NA"
"-100.27","70.63","GATESHEAD ISLAND","2402332","2012-02-24 21:00","2012","02","24","21:00","-37.4","","","M","","M","","","36","","15","","","","102.19","","","","-51","","NA"
"-100.27","70.63","GATESHEAD ISLAND","2402332","2012-02-24 22:00","2012","02","24","22:00","-37.8","","","M","","M","","","34","","11","","","","102.22","","","","-49","","NA"
"-100.27","70.63","GATESHEAD ISLAND","2402332","2012-02-24 23:00","2012","02","24","23:00","-37.8","","","M","","M","","","34","","13","","","","102.25","","","","-50","","NA"
"-100.27","70.63","GATESHEAD ISLAND","2402332","2012-02-25 00:00","2012","02","25","00:00","-37.5","","","M","","M","","","34","","13","","","","102.29","","","","-50","","NA"
"-100.27","70.63","GATESHEAD ISLAND","2402332","2012-02-25 01:00","2012","02","25","01:00","-37.7","","","M","","M","","","34","","15","","","","102.32","","","","-51","","NA"
"-100.27","70.63","GATESHEAD ISLAND","2402332","2012-02-25 02:00","2012","02","25","02:00","-37.6","","","M","","M","","","34","","15","","","","102.34","","","","-51","","NA"
"-100.27","70.63","GATESHEAD ISLAND","2402332","2012-02-25 03:00","2012","02","25","03:00","-37.3","","","M","","M","","","34","","15","","","","102.38","","","","-50","","NA"
"-100.27","70.63","GATESHEAD ISLAND","2402332","2012-02-25 04:00","2012","02","25","04:00","-37.2","","","M","","M","","","34","","15","","","","102.38","","","","-50","","NA"
"-100.27","70.63","GATESHEAD ISLAND","2402332","2012-02-25 05:00","2012","02","25","05:00","-37.1","","","M","","M","","","34","","17","","","","102.41","","","","-51","","NA"
"-100.27","70.63","GATESHEAD ISLAND","2402332","2012-02-25 06:00","2012","02","25","06:00","-36.6","","","M","","M","","","34","","17","","","","102.41","","","","-50","","NA"
"-100.27","70.63","GATESHEAD ISLAND","2402332","2012-02-25 07:00","2012","02","25","07:00","-36.4","","","M","","M","","","35","","22","","","","102.42","","","","-52","","NA"
"-100.27","70.63","GATESHEAD ISLAND","2402332","2012-02-25 08:00","2012","02","25","08:00","-36.3","","","M","","M","","","35","","20","","","","102.44","","","","-51","","NA"
"-100.27","70.63","GATESHEAD ISLAND","2402332","2012-02-25 09:00","2012","02","25","09:00","-35.1","","","M","","M","","","35","","19","","","","102.47","","","","-49","","NA"
"-100.27","70.63","GATESHEAD ISLAND","2402332","2012-02-25 10:00","2012","02","25","10:00","-34.3","","","M","","M","","","36","","17","","","","102.52","","","","-47","","NA"
"-100.27","70.63","GATESHEAD ISLAND","2402332","2012-02-25 11:00","2012","02","25","11:00","-34.9","","","M","","M","","","34","","15","","","","102.54","","","","-47","","NA"
"-100.27","70.63","GATESHEAD ISLAND","2402332","2012-02-25 12:00","2012","02","25","12:00","-34.5","","","M","","M","","","34","","17","","","","102.56","","","","-48","","NA"
"-100.27","70.63","GATESHEAD ISLAND","2402332","2012-02-25 13:00","2012","02","25","13:00","-32.8","","","M","","M","","","35","","20","","","","102.58","","","","-47","","NA"
"-100.27","70.63","GATESHEAD ISLAND","2402332","2012-02-25 14:00","2012","02","25","14:00","-33.5","","","M","","M","","","36","","17","","","","102.62","","","","-46","","NA"
"-100.27","70.63","GATESHEAD ISLAND","2402332","2012-02-25 15:00","2012","02","25","15:00","-33.7","","","M","","M","","","35","","19","","","","102.67","","","","-47","","NA"
"-100.27","70.63","GATESHEAD ISLAND","2402332","2012-02-25 16:00","2012","02","25","16:00","-34.8","","","M","","M","","","34","","17","","","","102.71","","","","-48","","NA"
"-100.27","70.63","GATESHEAD ISLAND","2402332","2012-02-25 17:00","2012","02","25","17:00","-35.8","","","M","","M","","","34","","15","","","","102.73","","","","-49","","NA"
"-100.27","70.63","GATESHEAD ISLAND","2402332","2012-02-25 18:00","2012","02","25","18:00","-35.9","","","M","","M","","","35","","15","","","","102.74","","","","-49","","NA"
"-100.27","70.63","GATESHEAD ISLAND","2402332","2012-02-25 19:00","2012","02","25","19:00","-36.2","","","M","","M","","","34","","13","","","","102.76","","","","-48","","NA"
"-100.27","70.63","GATESHEAD ISLAND","2402332","2012-02-25 20:00","2012","02","25","20:00","-36.2","","","M","","M","","","33","","11","","","","102.76","","","","-47","","NA"
"-100.27","70.63","GATESHEAD ISLAND","2402332","2012-02-25 21:00","2012","02","25","21:00","-36.6","","","M","","M","","","32","","15","","","","102.77","","","","-50","","NA"
"-100.27","70.63","GATESHEAD ISLAND","2402332","2012-02-25 22:00","2012","02","25","22:00","-36.8","","","M","","M","","","31","","11","","","","102.75","","","","-48","","NA"
"-100.27","70.63","GATESHEAD ISLAND","2402332","2012-02-25 23:00","2012","02","25","23:00","-37.1","","","M","","M","","","31","","13","","","","102.74","","","","-49","","NA"
"-100.27","70.63","GATESHEAD ISLAND","2402332","2012-02-26 00:00","2012","02","26","00:00","-37.0","","","M","","M","","","31","","15","","","","102.75","","","","-50","","NA"
"-100.27","70.63","GATESHEAD ISLAND","2402332","2012-02-26 01:00","2012","02","26","01:00","-36.9","","","M","","M","","","31","","13","","","","102.76","","","","-49","","NA"
"-100.27","70.63","GATESHEAD ISLAND","2402332","2012-02-26 02:00","2012","02","26","02:00","-37.0","","","M","","M","","","30","","13","","","","102.76","","","","-49","","NA"
"-100.27","70.63","GATESHEAD ISLAND","2402332","2012-02-26 03:00","2012","02","26","03:00","-37.1","","","M","","M","","","31","","15","","","","102.77","","","","-50","","NA"
"-100.27","70.63","GATESHEAD ISLAND","2402332","2012-02-26 04:00","2012","02","26","04:00","-36.8","","","M","","M","","","31","","15","","","","102.73","","","","-50","","NA"
"-100.27","70.63","GATESHEAD ISLAND","2402332","2012-02-26 05:00","2012","02","26","05:00","-36.5","","","M","","M","","","31","","15","","","","102.70","","","","-49","","NA"
"-100.27","70.63","GATESHEAD ISLAND","2402332","2012-02-26 06:00","2012","02","26","06:00","-36.3","","","M","","M","","","30","","11","","","","102.67","","","","-47","","NA"
"-100.27","70.63","GATESHEAD ISLAND","2402332","2012-02-26 07:00","2012","02","26","07:00","-37.1","","","M","","M","","","28","","9","","","","102.64","","","","-47","","NA"
"-100.27","70.63","GATESHEAD ISLAND","2402332","2012-02-26 08:00","2012","02","26","08:00","-36.6","","","M","","M","","","27","","11","","","","102.61","","","","-48","","NA"
"-100.27","70.63","GATESHEAD ISLAND","2402332","2012-02-26 09:00","2012","02","26","09:00","-35.0","","","M","","M","","","25","","11","","","","102.57","","","","-46","","NA"
"-100.27","70.63","GATESHEAD ISLAND","2402332","2012-02-26 10:00","2012","02","26","10:00","-32.5","","","M","","M","","","24","","9","","","","102.52","","","","-42","","NA"
"-100.27","70.63","GATESHEAD ISLAND","2402332","2012-02-26 11:00","2012","02","26","11:00","-34.1","","","M","","M","","","22","","13","","","","102.47","","","","-46","","NA"
"-100.27","70.63","GATESHEAD ISLAND","2402332","2012-02-26 12:00","2012","02","26","12:00","-33.2","","","M","","M","","","23","","13","","","","102.43","","","","-44","","NA"
"-100.27","70.63","GATESHEAD ISLAND","2402332","2012-02-26 13:00","2012","02","26","13:00","-30.9","","","M","","M","","","23","","13","","","","102.38","","","","-42","","NA"
"-100.27","70.63","GATESHEAD ISLAND","2402332","2012-02-26 14:00","2012","02","26","14:00","-32.5","","","M","","M","","","23","","13","","","","102.35","","","","-44","","NA"
"-100.27","70.63","GATESHEAD ISLAND","2402332","2012-02-26 15:00","2012","02","26","15:00","-32.0","","","M","","M","","","25","","19","","","","102.31","","","","-45","","NA"
"-100.27","70.63","GATESHEAD ISLAND","2402332","2012-02-26 16:00","2012","02","26","16:00","-33.4","","","M","","M","","","25","","20","","","","102.24","","","","-47","","NA"
"-100.27","70.63","GATESHEAD ISLAND","2402332","2012-02-26 17:00","2012","02","26","17:00","-34.0","","","M","","M","","","24","","19","","","","102.21","","","","-48","","NA"
"-100.27","70.63","GATESHEAD ISLAND","2402332","2012-02-26 18:00","2012","02","26","18:00","-34.4","","","M","","M","","","24","","19","","","","102.15","","","","-48","","NA"
"-100.27","70.63","GATESHEAD ISLAND","2402332","2012-02-26 19:00","2012","02","26","19:00","-34.6","","","M","","M","","","25","","19","","","","102.09","","","","-49","","NA"
"-100.27","70.63","GATESHEAD ISLAND","2402332","2012-02-26 20:00","2012","02","26","20:00","-35.4","","","M","","M","","","23","","17","","","","102.03","","","","-49","","NA"
"-100.27","70.63","GATESHEAD ISLAND","2402332","2012-02-26 21:00","2012","02","26","21:00","-35.4","","","M","","M","","","24","","19","","","","101.96","","","","-50","","NA"
"-100.27","70.63","GATESHEAD ISLAND","2402332","2012-02-26 22:00","2012","02","26","22:00","-35.5","","","M","","M","","","23","","15","","","","101.91","","","","-48","","NA"
"-100.27","70.63","GATESHEAD ISLAND","2402332","2012-02-26 23:00","2012","02","26","23:00","-35.4","","","M","","M","","","23","","17","","","","101.88","","","","-49","","NA"
"-100.27","70.63","GATESHEAD ISLAND","2402332","2012-02-27 00:00","2012","02","27","00:00","-35.6","","","M","","M","","","22","","11","","","","101.83","","","","-46","","NA"
"-100.27","70.63","GATESHEAD ISLAND","2402332","2012-02-27 01:00","2012","02","27","01:00","-35.8","","","M","","M","","","22","","13","","","","101.79","","","","-48","","NA"
"-100.27","70.63","GATESHEAD ISLAND","2402332","2012-02-27 02:00","2012","02","27","02:00","-36.0","","","M","","M","","","23","","19","","","","101.73","","","","-50","","NA"
"-100.27","70.63","GATESHEAD ISLAND","2402332","2012-02-27 03:00","2012","02","27","03:00","-36.4","","","M","","M","","","24","","13","","","","101.68","","","","-48","","NA"
"-100.27","70.63","GATESHEAD ISLAND","2402332","2012-02-27 04:00","2012","02","27","04:00","-36.4","","","M","","M","","","22","","13","","","","101.63","","","","-48","","NA"
"-100.27","70.63","GATESHEAD ISLAND","2402332","2012-02-27 05:00","2012","02","27","05:00","-36.7","","","M","","M","","","21","","11","","","","101.59","","","","-48","","NA"
"-100.27","70.63","GATESHEAD ISLAND","2402332","2012-02-27 06:00","2012","02","27","06:00","-36.8","","","M","","M","","","21","","9","","","","101.52","","","","-47","","NA"
"-100.27","70.63","GATESHEAD ISLAND","2402332","2012-02-27 07:00","2012","02","27","07:00","-37.3","","","M","","M","","","20","","11","","","","101.47","","","","-48","","NA"
"-100.27","70.63","GATESHEAD ISLAND","2402332","2012-02-27 08:00","2012","02","27","08:00","-37.4","","","M","","M","","","20","","15","","","","101.42","","","","-51","","NA"
"-100.27","70.63","GATESHEAD ISLAND","2402332","2012-02-27 09:00","2012","02","27","09:00","-35.9","","","M","","M","","","20","","15","","","","101.36","","","","-49","","NA"
"-100.27","70.63","GATESHEAD ISLAND","2402332","2012-02-27 10:00","2012","02","27","10:00","-34.5","","","M","","M","","","21","","9","","","","101.33","","","","-44","","NA"
"-100.27","70.63","GATESHEAD ISLAND","2402332","2012-02-27 11:00","2012","02","27","11:00","-35.3","","","M","","M","","","20","","11","","","","101.28","","","","-46","","NA"
"-100.27","70.63","GATESHEAD ISLAND","2402332","2012-02-27 12:00","2012","02","27","12:00","-34.7","","","M","","M","","","20","","9","","","","101.26","","","","-44","","NA"
"-100.27","70.63","GATESHEAD ISLAND","2402332","2012-02-27 13:00","2012","02","27","13:00","-33.0","","","M","","M","","","20","","9","","","","101.23","","","","-42","","NA"
"-100.27","70.63","GATESHEAD ISLAND","2402332","2012-02-27 14:00","2012","02","27","14:00","-34.1","","","M","","M","","","20","","11","","","","101.22","","","","-45","","NA"
"-100.27","70.63","GATESHEAD ISLAND","2402332","2012-02-27 15:00","2012","02","27","15:00","-34.1","","","M","","M","","","21","","13","","","","101.18","","","","-46","","NA"
"-100.27","70.63","GATESHEAD ISLAND","2402332","2012-02-27 16:00","2012","02","27","16:00","-35.5","","","M","","M","","","22","","7","","","","101.16","","","","-44","","NA"
"-100.27","70.63","GATESHEAD ISLAND","2402332","2012-02-27 17:00","2012","02","27","17:00","-36.4","","","M","","M","","","22","","9","","","","101.15","","","","-46","","NA"
"-100.27","70.63","GATESHEAD ISLAND","2402332","2012-02-27 18:00","2012","02","27","18:00","-36.5","","","M","","M","","","24","","7","","","","101.13","","","","-45","","NA"
"-100.27","70.63","GATESHEAD ISLAND","2402332","2012-02-27 19:00","2012","02","27","19:00","-37.0","","","M","","M","","","29","","7","","","","101.12","","","","-45","","NA"
"-100.27","70.63","GATESHEAD ISLAND","2402332","2012-02-27 20:00","2012","02","27","20:00","-36.8","","","M","","M","","","30","","9","","","","101.09","","","","-47","","NA"
"-100.27","70.63","GATESHEAD ISLAND","2402332","2012-02-27 21:00","2012","02","27","21:00","-36.8","","","M","","M","","","29","","7","","","","101.09","","","","-45","","NA"
"-100.27","70.63","GATESHEAD ISLAND","2402332","2012-02-27 22:00","2012","02","27","22:00","-37.1","","","M","","M","","","30","","7","","","","101.10","","","","-46","","NA"
"-100.27","70.63","GATESHEAD ISLAND","2402332","2012-02-27 23:00","2012","02","27","23:00","-38.1","","","M","","M","","","31","","11","","","","101.10","","","","-49","","NA"
"-100.27","70.63","GATESHEAD ISLAND","2402332","2012-02-28 00:00","2012","02","28","00:00","-38.6","","","M","","M","","","31","","11","","","","101.11","","","","-50","","NA"
"-100.27","70.63","GATESHEAD ISLAND","2402332","2012-02-28 01:00","2012","02","28","01:00","-38.8","","","M","","M","","","32","","11","","","","101.13","","","","-50","","NA"
"-100.27","70.63","GATESHEAD ISLAND","2402332","2012-02-28 02:00","2012","02","28","02:00","-39.0","","","M","","M","","","31","","13","","","","101.13","","","","-52","","NA"
"-100.27","70.63","GATESHEAD ISLAND","2402332","2012-02-28 03:00","2012","02","28","03:00","-39.2","","","M","","M","","","30","","13","","","","101.13","","","","-52","","NA"
"-100.27","70.63","GATESHEAD ISLAND","2402332","2012-02-28 04:00","2012","02","28","04:00","-39.1","","","M","","M","","","30","","15","","","","101.14","","","","-53","","NA"
"-100.27","70.63","GATESHEAD ISLAND","2402332","2012-02-28 05:00","2012","02","28","05:00","-38.7","","","M","","M","","","30","","9","","","","101.11","","","","-49","","NA"
"-100.27","70.63","GATESHEAD ISLAND","2402332","2012-02-28 06:00","2012","02","28","06:00","-38.4","","","M","","M","","","29","","11","","","","101.12","","","","-50","","NA"
"-100.27","70.63","GATESHEAD ISLAND","2402332","2012-02-28 07:00","2012","02","28","07:00","-36.7","","","M","","M","","","30","","19","","","","101.12","","","","-51","","NA"
"-100.27","70.63","GATESHEAD ISLAND","2402332","2012-02-28 08:00","2012","02","28","08:00","-37.1","","","M","","M","","","29","","19","","","","101.11","","","","-52","","NA"
"-100.27","70.63","GATESHEAD ISLAND","2402332","2012-02-28 09:00","2012","02","28","09:00","-36.6","","","M","","M","","","28","","19","","","","101.11","","","","-51","","NA"
"-100.27","70.63","GATESHEAD ISLAND","2402332","2012-02-28 10:00","2012","02","28","10:00","-34.8","","","M","","M","","","30","","20","","","","101.13","","","","-49","","NA"
"-100.27","70.63","GATESHEAD ISLAND","2402332","2012-02-28 11:00","2012","02","28","11:00","-35.5","","","M","","M","","","29","","24","","","","101.13","","","","-51","","NA"
"-100.27","70.63","GATESHEAD ISLAND","2402332","2012-02-28 12:00","2012","02","28","12:00","-35.3","","","M","","M","","","30","","20","","","","101.17","","","","-50","","NA"
"-100.27","70.63","GATESHEAD ISLAND","2402332","2012-02-28 13:00","2012","02","28","13:00","-33.7","","","M","","M","","","32","","26","","","","101.18","","","","-49","","NA"
"-100.27","70.63","GATESHEAD ISLAND","2402332","2012-02-28 14:00","2012","02","28","14:00","-34.2","","","M","","M","","","31","","30","","","","101.23","","","","-51","","NA"
"-100.27","70.63","GATESHEAD ISLAND","2402332","2012-02-28 15:00","2012","02","28","15:00","-35.4","","","M","","M","","","32","","28","","","","101.27","","","","-52","","NA"
"-100.27","70.63","GATESHEAD ISLAND","2402332","2012-02-28 16:00","2012","02","28","16:00","-36.2","","","M","","M","","","32","","26","","","","101.32","","","","-53","","NA"
"-100.27","70.63","GATESHEAD ISLAND","2402332","2012-02-28 17:00","2012","02","28","17:00","-37.4","","","M","","M","","","32","","24","","","","101.34","","","","-54","","NA"
"-100.27","70.63","GATESHEAD ISLAND","2402332","2012-02-28 18:00","2012","02","28","18:00","-38.0","","","M","","M","","","32","","20","","","","101.38","","","","-53","","NA"
"-100.27","70.63","GATESHEAD ISLAND","2402332","2012-02-28 19:00","2012","02","28","19:00","-38.7","","","M","","M","","","31","","19","","","","101.39","","","","-54","","NA"
"-100.27","70.63","GATESHEAD ISLAND","2402332","2012-02-28 20:00","2012","02","28","20:00","-39.1","","","M","","M","","","30","","19","","","","101.41","","","","-54","","NA"
"-100.27","70.63","GATESHEAD ISLAND","2402332","2012-02-28 21:00","2012","02","28","21:00","-39.2","","","M","","M","","","30","","19","","","","101.43","","","","-54","","NA"
"-100.27","70.63","GATESHEAD ISLAND","2402332","2012-02-28 22:00","2012","02","28","22:00","-39.0","","","M","","M","","","31","","17","","","","101.42","","","","-53","","NA"
"-100.27","70.63","GATESHEAD ISLAND","2402332","2012-02-28 23:00","2012","02","28","23:00","-39.3","","","M","","M","","","29","","17","","","","101.43","","","","-54","","NA"
"-100.27","70.63","GATESHEAD ISLAND","2402332","2012-02-29 00:00","2012","02","29","00:00","-38.7","","","M","","M","","","29","","13","","","","101.45","","","","-51","","NA"
"-100.27","70.63","GATESHEAD ISLAND","2402332","2012-02-29 01:00","2012","02","29","01:00","-37.5","","","M","","M","","","30","","13","","","","101.47","","","","-50","","NA"
"-100.27","70.63","GATESHEAD ISLAND","2402332","2012-02-29 02:00","2012","02","29","02:00","-37.2","","","M","","M","","","30","","17","","","","101.46","","","","-51","","NA"
"-100.27","70.63","GATESHEAD ISLAND","2402332","2012-02-29 03:00","2012","02","29","03:00","-36.0","","","M","","M","","","29","","15","","","","101.43","","","","-49","","NA"
"-100.27","70.63","GATESHEAD ISLAND","2402332","2012-02-29 04:00","2012","02","29","04:00","-36.1","","","M","","M","","","29","","15","","","","101.40","","","","-49","","NA"
"-100.27","70.63","GATESHEAD ISLAND","2402332","2012-02-29 05:00","2012","02","29","05:00","-37.1","","","M","","M","","","28","","7","","","","101.39","","","","-46","","NA"
"-100.27","70.63","GATESHEAD ISLAND","2402332","2012-02-29 06:00","2012","02","29","06:00","-37.3","","","M","","M","","","28","","9","","","","101.37","","","","-47","","NA"
"-100.27","70.63","GATESHEAD ISLAND","2402332","2012-02-29 07:00","2012","02","29","07:00","-37.4","","","M","","M","","","29","","7","","","","101.32","","","","-46","","NA"
"-100.27","70.63","GATESHEAD ISLAND","2402332","2012-02-29 08:00","2012","02","29","08:00","-37.2","","","M","","M","","","28","","7","","","","101.33","","","","-46","","NA"
"-100.27","70.63","GATESHEAD ISLAND","2402332","2012-02-29 09:00","2012","02","29","09:00","-35.6","","","M","","M","","","30","","7","","","","101.31","","","","-44","","NA"
"-100.27","70.63","GATESHEAD ISLAND","2402332","2012-02-29 10:00","2012","02","29","10:00","-34.3","","","M","","M","","","30","","6","","","","101.30","","","","-41","","NA"
"-100.27","70.63","GATESHEAD ISLAND","2402332","2012-02-29 11:00","2012","02","29","11:00","-36.5","","","M","","M","","","30","","7","","","","101.30","","","","-45","","NA"
"-100.27","70.63","GATESHEAD ISLAND","2402332","2012-02-29 12:00","2012","02","29","12:00","-37.1","","","M","","M","","","32","","9","","","","101.31","","","","-47","","NA"
"-100.27","70.63","GATESHEAD ISLAND","2402332","2012-02-29 13:00","2012","02","29","13:00","-34.4","","","M","","M","","","33","","11","","","","101.29","","","","-45","","NA"
"-100.27","70.63","GATESHEAD ISLAND","2402332","2012-02-29 14:00","2012","02","29","14:00","-35.4","","","M","","M","","","36","","13","","","","101.36","","","","-47","","NA"
"-100.27","70.63","GATESHEAD ISLAND","2402332","2012-02-29 15:00","2012","02","29","15:00","-35.9","","","M","","M","","","36","","13","","","","101.35","","","","-48","","NA"
"-100.27","70.63","GATESHEAD ISLAND","2402332","2012-02-29 16:00","2012","02","29","16:00","-37.5","","","M","","M","","","34","","13","","","","101.34","","","","-50","","NA"
"-100.27","70.63","GATESHEAD ISLAND","2402332","2012-02-29 17:00","2012","02","29","17:00","-37.2","","","M","","M","","","32","","13","","","","101.37","","","","-49","","NA"
"-100.27","70.63","GATESHEAD ISLAND","2402332","2012-02-29 18:00","2012","02","29","18:00","-37.1","","","M","","M","","","32","","15","","","","101.35","","","","-50","","NA"
"-100.27","70.63","GATESHEAD ISLAND","2402332","2012-02-29 19:00","2012","02","29","19:00","-36.7","","","M","","M","","","32","","15","","","","101.33","","","","-50","","NA"
"-100.27","70.63","GATESHEAD ISLAND","2402332","2012-02-29 20:00","2012","02","29","20:00","-37.3","","","M","","M","","","31","","9","","","","101.31","","","","-47","","NA"
"-100.27","70.63","GATESHEAD ISLAND","2402332","2012-02-29 21:00","2012","02","29","21:00","-37.4","","","M","","M","","","32","","17","","","","101.27","","","","-51","","NA"
"-100.27","70.63","GATESHEAD ISLAND","2402332","2012-02-29 22:00","2012","02","29","22:00","-35.4","","","M","","M","","","32","","19","","","","101.26","","","","-50","","NA"
"-100.27","70.63","GATESHEAD ISLAND","2402332","2012-02-29 23:00","2012","02","29","23:00","-35.3","","","M","","M","","","32","","19","","","","101.22","","","","-49","","NA"
