"Longitude (x)","Latitude (y)","Station Name","Climate ID","Date/Time (LST)","Year","Month","Day","Time (LST)","Temp (°C)","Temp Flag","Dew Point Temp (°C)","Dew Point Temp Flag","Rel Hum (%)","Rel Hum Flag","Precip. Amount (mm)","Precip. Amount Flag","Wind Dir (10s deg)","Wind Dir Flag","Wind Spd (km/h)","Wind Spd Flag","Visibility (km)","Visibility Flag","Stn Press (kPa)","Stn Press Flag","Hmdx","Hmdx Flag","Wind Chill","Wind Chill Flag","Weather"
"-100.27","70.63","GATESHEAD ISLAND","2402332","2019-01-01 00:00","2019","01","01","00:00","-30.5","","-33.5","","75","","0.0","","16","","25","","","","100.65","","","","-45","","NA"
"-100.27","70.63","GATESHEAD ISLAND","2402332","2019-01-01 01:00","2019","01","01","01:00","-31.7","","-34.9","","73","","0.0","","14","","22","","","","100.58","","","","-46","","NA"
"-100.27","70.63","GATESHEAD ISLAND","2402332","2019-01-01 02:00","2019","01","01","02:00","-31.9","","-35.2","","73","","0.0","","13","","24","","","","100.51","","","","-47","","NA"
"-100.27","70.63","GATESHEAD ISLAND","2402332","2019-01-01 03:00","2019","01","01","03:00","-31.9","","-35.1","","73","","0.0","","14","","23","","","","100.48","","","","-46","","NA"
"-100.27","70.63","GATESHEAD ISLAND","2402332","2019-01-01 04:00","2019","01","01","04:00","-31.7","","-34.9","","73","","0.0","","14","","28","","","","100.44","","","","-47","","NA"
"-100.27","70.63","GATESHEAD ISLAND","2402332","2019-01-01 05:00","2019","01","01","05:00","-32.3","","-35.6","","72","","0.0","","13","","23","","","","100.43","","","","-47","","NA"
"-100.27","70.63","GATESHEAD ISLAND","2402332","2019-01-01 06:00","2019","01","01","06:00","-32.2","","-35.5","","73","","0.0","","14","","24","","","","100.38","","","","-47","","NA"
"-100.27","70.63","GATESHEAD ISLAND","2402332","2019-01-01 07:00","2019","01","01","07:00","-32.0","","-35.2","","73","","0.0","","13","","24","","","","100.31","","","","-47","","NA"
"-100.27","70.63","GATESHEAD ISLAND","2402332","2019-01-01 08:00","2019","01","01","08:00","-31.7","","-34.9","","73","","0.0","","13","","18","","","","100.34","","","","-45","","NA"
"-100.27","70.63","GATESHEAD ISLAND","2402332","2019-01-01 09:00","2019","01","01","09:00","-32.1","","-35.4","","73","","0.0","","13","","17","","","","100.37","","","","-45","","NA"
"-100.27","70.63","GATESHEAD ISLAND","2402332","2019-01-01 10:00","2019","01","01","10:00","-32.1","","-35.3","","73","","0.0","","13","","24","","","","100.27","","","","-47","","NA"
"-100.27","70.63","GATESHEAD ISLAND","2402332","2019-01-01 11:00","2019","01","01","11:00","-31.9","","-35.1","","73","","0.0","","13","","22","","","","100.23","","","","-46","","NA"
"-100.27","70.63","GATESHEAD ISLAND","2402332","2019-01-01 12:00","2019","01","01","12:00","-32.0","","-35.3","","73","","0.0","","14","","16","","","","100.25","","","","-44","","NA"
"-100.27","70.63","GATESHEAD ISLAND","2402332","2019-01-01 13:00","2019","01","01","13:00","-31.7","","-34.9","","73","","0.0","","14","","22","","","","100.22","","","","-46","","NA"
"-100.27","70.63","GATESHEAD ISLAND","2402332","2019-01-01 14:00","2019","01","01","14:00","-32.0","","-35.3","","73","","0.0","","13","","19","","","","100.17","","","","-45","","NA"
"-100.27","70.63","GATESHEAD ISLAND","2402332","2019-01-01 15:00","2019","01","01","15:00","-32.8","","-36.1","","72","","0.0","","13","","24","","","","100.14","","","","-48","","NA"
"-100.27","70.63","GATESHEAD ISLAND","2402332","2019-01-01 16:00","2019","01","01","16:00","-33.1","","-36.4","","72","","0.0","","12","","20","","","","100.10","","","","-47","","NA"
"-100.27","70.63","GATESHEAD ISLAND","2402332","2019-01-01 17:00","2019","01","01","17:00","-33.0","","-36.4","","72","","0.0","","13","","22","","","","100.08","","","","-47","","NA"
"-100.27","70.63","GATESHEAD ISLAND","2402332","2019-01-01 18:00","2019","01","01","18:00","-32.3","","-35.6","","72","","0.0","","16","","26","","","","100.07","","","","-48","","NA"
"-100.27","70.63","GATESHEAD ISLAND","2402332","2019-01-01 19:00","2019","01","01","19:00","-32.7","","-36.0","","72","","0.0","","15","","23","","","","100.05","","","","-47","","NA"
"-100.27","70.63","GATESHEAD ISLAND","2402332","2019-01-01 20:00","2019","01","01","20:00","-33.0","","-36.4","","72","","0.0","","14","","18","","","","99.98","","","","-46","","NA"
"-100.27","70.63","GATESHEAD ISLAND","2402332","2019-01-01 21:00","2019","01","01","21:00","-33.2","","-36.6","","72","","0.0","","13","","20","","","","99.94","","","","-47","","NA"
"-100.27","70.63","GATESHEAD ISLAND","2402332","2019-01-01 22:00","2019","01","01","22:00","-33.2","","-36.6","","71","","0.0","","13","","24","","","","99.85","","","","-48","","NA"
"-100.27","70.63","GATESHEAD ISLAND","2402332","2019-01-01 23:00","2019","01","01","23:00","-33.1","","-36.4","","72","","0.0","","13","","17","","","","99.83","","","","-46","","NA"
"-100.27","70.63","GATESHEAD ISLAND","2402332","2019-01-02 00:00","2019","01","02","00:00","-32.9","","-36.3","","72","","0.0","","13","","27","","","","99.77","","","","-49","","NA"
"-100.27","70.63","GATESHEAD ISLAND","2402332","2019-01-02 01:00","2019","01","02","01:00","-32.4","","-35.7","","72","","0.0","","14","","17","","","","99.83","","","","-45","","NA"
"-100.27","70.63","GATESHEAD ISLAND","2402332","2019-01-02 02:00","2019","01","02","02:00","-32.2","","-35.5","","72","","0.0","","13","","15","","","","99.80","","","","-44","","NA"
"-100.27","70.63","GATESHEAD ISLAND","2402332","2019-01-02 03:00","2019","01","02","03:00","-32.2","","-35.5","","73","","0.0","","12","","19","","","","99.77","","","","-46","","NA"
"-100.27","70.63","GATESHEAD ISLAND","2402332","2019-01-02 04:00","2019","01","02","04:00","-31.0","","-34.2","","74","","0.0","","14","","21","","","","99.75","","","","-45","","NA"
"-100.27","70.63","GATESHEAD ISLAND","2402332","2019-01-02 05:00","2019","01","02","05:00","-30.8","","-34.0","","74","","0.0","","12","","16","","","","99.71","","","","-43","","NA"
"-100.27","70.63","GATESHEAD ISLAND","2402332","2019-01-02 06:00","2019","01","02","06:00","-29.8","","-32.8","","75","","0.0","","15","","26","","","","99.63","","","","-44","","NA"
"-100.27","70.63","GATESHEAD ISLAND","2402332","2019-01-02 07:00","2019","01","02","07:00","-30.2","","-33.3","","75","","0.0","","12","","19","","","","99.63","","","","-43","","NA"
"-100.27","70.63","GATESHEAD ISLAND","2402332","2019-01-02 08:00","2019","01","02","08:00","-30.7","","-33.8","","74","","0.0","","12","","19","","","","99.58","","","","-44","","NA"
"-100.27","70.63","GATESHEAD ISLAND","2402332","2019-01-02 09:00","2019","01","02","09:00","-30.9","","-34.0","","74","","0.0","","12","","21","","","","99.55","","","","-45","","NA"
"-100.27","70.63","GATESHEAD ISLAND","2402332","2019-01-02 10:00","2019","01","02","10:00","-30.2","","-33.3","","75","","0.0","","13","","25","","","","99.53","","","","-45","","NA"
"-100.27","70.63","GATESHEAD ISLAND","2402332","2019-01-02 11:00","2019","01","02","11:00","-28.9","","-31.8","","76","","0.0","","13","","24","","","","99.52","","","","-43","","NA"
"-100.27","70.63","GATESHEAD ISLAND","2402332","2019-01-02 12:00","2019","01","02","12:00","-28.7","","-31.6","","76","","0.0","","13","","23","","","","99.50","","","","-42","","NA"
"-100.27","70.63","GATESHEAD ISLAND","2402332","2019-01-02 13:00","2019","01","02","13:00","-28.8","","-31.7","","76","","0.0","","14","","24","","","","99.49","","","","-43","","NA"
"-100.27","70.63","GATESHEAD ISLAND","2402332","2019-01-02 14:00","2019","01","02","14:00","-28.8","","-31.7","","76","","0.0","","12","","24","","","","99.46","","","","-43","","NA"
"-100.27","70.63","GATESHEAD ISLAND","2402332","2019-01-02 15:00","2019","01","02","15:00","-28.1","","-30.9","","77","","0.0","","14","","28","","","","99.47","","","","-43","","NA"
"-100.27","70.63","GATESHEAD ISLAND","2402332","2019-01-02 16:00","2019","01","02","16:00","-27.6","","-30.4","","77","","0.0","","12","","26","","","","99.47","","","","-42","","NA"
"-100.27","70.63","GATESHEAD ISLAND","2402332","2019-01-02 17:00","2019","01","02","17:00","-26.4","","-29.0","","78","","0.0","","11","","28","","","","99.43","","","","-41","","NA"
"-100.27","70.63","GATESHEAD ISLAND","2402332","2019-01-02 18:00","2019","01","02","18:00","-24.9","","-27.4","","80","","0.0","","13","","25","","","","99.45","","","","-38","","NA"
"-100.27","70.63","GATESHEAD ISLAND","2402332","2019-01-02 19:00","2019","01","02","19:00","-27.0","","-29.8","","78","","0.0","","12","","27","","","","99.45","","","","-41","","NA"
"-100.27","70.63","GATESHEAD ISLAND","2402332","2019-01-02 20:00","2019","01","02","20:00","-27.7","","-30.5","","77","","0.0","","13","","30","","","","99.47","","","","-43","","NA"
"-100.27","70.63","GATESHEAD ISLAND","2402332","2019-01-02 21:00","2019","01","02","21:00","-27.4","","-30.2","","77","","0.0","","12","","30","","","","99.46","","","","-42","","NA"
"-100.27","70.63","GATESHEAD ISLAND","2402332","2019-01-02 22:00","2019","01","02","22:00","-26.8","","-29.5","","78","","0.0","","12","","26","","","","99.45","","","","-41","","NA"
"-100.27","70.63","GATESHEAD ISLAND","2402332","2019-01-02 23:00","2019","01","02","23:00","-26.2","","-28.9","","78","","0.0","","13","","28","","","","99.45","","","","-40","","NA"
"-100.27","70.63","GATESHEAD ISLAND","2402332","2019-01-03 00:00","2019","01","03","00:00","-25.1","","-27.7","","79","","0.0","","12","","23","","","","99.46","","","","-38","","NA"
"-100.27","70.63","GATESHEAD ISLAND","2402332","2019-01-03 01:00","2019","01","03","01:00","-24.0","","-26.4","","80","","0.0","","12","","23","","","","99.47","","","","-36","","NA"
"-100.27","70.63","GATESHEAD ISLAND","2402332","2019-01-03 02:00","2019","01","03","02:00","-22.9","","-25.3","","81","","0.0","","11","","24","","","","99.47","","","","-35","","NA"
"-100.27","70.63","GATESHEAD ISLAND","2402332","2019-01-03 03:00","2019","01","03","03:00","-22.5","","-24.9","","81","","0.0","","9","","26","","","","99.48","","","","-35","","NA"
"-100.27","70.63","GATESHEAD ISLAND","2402332","2019-01-03 04:00","2019","01","03","04:00","-21.9","","-24.3","","81","","0.0","","9","","29","","","","99.50","","","","-35","","NA"
"-100.27","70.63","GATESHEAD ISLAND","2402332","2019-01-03 05:00","2019","01","03","05:00","-21.7","","-24.3","","79","","0.0","","9","","30","","","","99.53","","","","-35","","NA"
"-100.27","70.63","GATESHEAD ISLAND","2402332","2019-01-03 06:00","2019","01","03","06:00","-21.6","","-24.5","","77","","0.0","","9","","30","","","","99.58","","","","-35","","NA"
"-100.27","70.63","GATESHEAD ISLAND","2402332","2019-01-03 07:00","2019","01","03","07:00","-21.9","","-24.9","","77","","0.0","","10","","30","","","","99.61","","","","-35","","NA"
"-100.27","70.63","GATESHEAD ISLAND","2402332","2019-01-03 08:00","2019","01","03","08:00","-22.2","","-25.2","","77","","0.0","","9","","29","","","","99.65","","","","-35","","NA"
"-100.27","70.63","GATESHEAD ISLAND","2402332","2019-01-03 09:00","2019","01","03","09:00","-22.5","","-25.5","","76","","0.0","","9","","29","","","","99.69","","","","-36","","NA"
"-100.27","70.63","GATESHEAD ISLAND","2402332","2019-01-03 10:00","2019","01","03","10:00","-23.2","","-26.3","","76","","0.0","","9","","25","","","","99.75","","","","-36","","NA"
"-100.27","70.63","GATESHEAD ISLAND","2402332","2019-01-03 11:00","2019","01","03","11:00","-24.8","","-27.9","","75","","0.0","","9","","20","","","","99.81","","","","-37","","NA"
"-100.27","70.63","GATESHEAD ISLAND","2402332","2019-01-03 12:00","2019","01","03","12:00","-25.7","","-28.8","","75","","0.0","","9","","18","","","","99.85","","","","-37","","NA"
"-100.27","70.63","GATESHEAD ISLAND","2402332","2019-01-03 13:00","2019","01","03","13:00","-26.8","","-29.9","","75","","0.0","","8","","18","","","","99.90","","","","-38","","NA"
"-100.27","70.63","GATESHEAD ISLAND","2402332","2019-01-03 14:00","2019","01","03","14:00","-27.9","","-31.0","","75","","0.0","","8","","17","","","","99.97","","","","-40","","NA"
"-100.27","70.63","GATESHEAD ISLAND","2402332","2019-01-03 15:00","2019","01","03","15:00","-27.9","","-30.8","","76","","0.0","","8","","16","","","","100.03","","","","-39","","NA"
"-100.27","70.63","GATESHEAD ISLAND","2402332","2019-01-03 16:00","2019","01","03","16:00","-27.9","","-30.8","","76","","0.0","","10","","14","","","","100.07","","","","-38","","NA"
"-100.27","70.63","GATESHEAD ISLAND","2402332","2019-01-03 17:00","2019","01","03","17:00","-28.6","","-31.6","","76","","0.0","","8","","12","","","","100.12","","","","-38","","NA"
"-100.27","70.63","GATESHEAD ISLAND","2402332","2019-01-03 18:00","2019","01","03","18:00","-29.8","","-32.8","","75","","0.0","","6","","19","","","","100.18","","","","-43","","NA"
"-100.27","70.63","GATESHEAD ISLAND","2402332","2019-01-03 19:00","2019","01","03","19:00","-29.1","","-32.1","","76","","0.0","","6","","14","","","","100.22","","","","-40","","NA"
"-100.27","70.63","GATESHEAD ISLAND","2402332","2019-01-03 20:00","2019","01","03","20:00","-28.9","","-31.9","","76","","0.0","","9","","10","","","","100.25","","","","-38","","NA"
"-100.27","70.63","GATESHEAD ISLAND","2402332","2019-01-03 21:00","2019","01","03","21:00","-30.5","","-33.6","","74","","0.0","","5","","8","","","","100.31","","","","-39","","NA"
"-100.27","70.63","GATESHEAD ISLAND","2402332","2019-01-03 22:00","2019","01","03","22:00","-32.5","","-35.8","","73","","0.0","","2","","13","","","","100.33","","","","-44","","NA"
"-100.27","70.63","GATESHEAD ISLAND","2402332","2019-01-03 23:00","2019","01","03","23:00","-32.1","","-35.3","","73","","0.0","","1","","14","","","","100.36","","","","-44","","NA"
"-100.27","70.63","GATESHEAD ISLAND","2402332","2019-01-04 00:00","2019","01","04","00:00","-32.3","","-35.6","","73","","0.0","","35","","11","","","","100.37","","","","-42","","NA"
"-100.27","70.63","GATESHEAD ISLAND","2402332","2019-01-04 01:00","2019","01","04","01:00","-32.7","","-36.0","","72","","0.0","","35","","14","","","","100.39","","","","-44","","NA"
"-100.27","70.63","GATESHEAD ISLAND","2402332","2019-01-04 02:00","2019","01","04","02:00","-32.6","","-35.9","","72","","0.0","","35","","15","","","","100.40","","","","-45","","NA"
"-100.27","70.63","GATESHEAD ISLAND","2402332","2019-01-04 03:00","2019","01","04","03:00","-32.6","","-35.9","","72","","0.0","","34","","12","","","","100.41","","","","-43","","NA"
"-100.27","70.63","GATESHEAD ISLAND","2402332","2019-01-04 04:00","2019","01","04","04:00","-32.5","","-35.7","","72","","0.0","","34","","15","","","","100.40","","","","-44","","NA"
"-100.27","70.63","GATESHEAD ISLAND","2402332","2019-01-04 05:00","2019","01","04","05:00","-32.4","","-35.7","","72","","0.0","","34","","16","","","","100.39","","","","-45","","NA"
"-100.27","70.63","GATESHEAD ISLAND","2402332","2019-01-04 06:00","2019","01","04","06:00","-32.7","","-36.1","","72","","0.0","","33","","16","","","","100.37","","","","-45","","NA"
"-100.27","70.63","GATESHEAD ISLAND","2402332","2019-01-04 07:00","2019","01","04","07:00","-32.6","","-35.9","","73","","0.0","","33","","16","","","","100.32","","","","-45","","NA"
"-100.27","70.63","GATESHEAD ISLAND","2402332","2019-01-04 08:00","2019","01","04","08:00","-32.3","","-35.6","","73","","0.0","","33","","20","","","","100.32","","","","-46","","NA"
"-100.27","70.63","GATESHEAD ISLAND","2402332","2019-01-04 09:00","2019","01","04","09:00","-32.4","","-35.7","","73","","0.0","","33","","22","","","","100.27","","","","-47","","NA"
"-100.27","70.63","GATESHEAD ISLAND","2402332","2019-01-04 10:00","2019","01","04","10:00","-32.4","","-35.7","","72","","0.0","","33","","21","","","","100.28","","","","-46","","NA"
"-100.27","70.63","GATESHEAD ISLAND","2402332","2019-01-04 11:00","2019","01","04","11:00","-32.2","","-35.4","","73","","0.0","","33","","17","","","","100.27","","","","-45","","NA"
"-100.27","70.63","GATESHEAD ISLAND","2402332","2019-01-04 12:00","2019","01","04","12:00","-31.9","","-35.2","","73","","0.0","","33","","23","","","","100.26","","","","-46","","NA"
"-100.27","70.63","GATESHEAD ISLAND","2402332","2019-01-04 13:00","2019","01","04","13:00","-30.5","","-33.6","","74","","0.0","","33","","30","","","","100.25","","","","-46","","NA"
"-100.27","70.63","GATESHEAD ISLAND","2402332","2019-01-04 14:00","2019","01","04","14:00","-30.9","","-34.0","","74","","0.0","","33","","26","","","","100.25","","","","-46","","NA"
"-100.27","70.63","GATESHEAD ISLAND","2402332","2019-01-04 15:00","2019","01","04","15:00","-31.3","","-34.5","","73","","0.0","","34","","31","","","","100.25","","","","-48","","NA"
"-100.27","70.63","GATESHEAD ISLAND","2402332","2019-01-04 16:00","2019","01","04","16:00","-31.6","","-34.8","","73","","0.0","","33","","30","","","","100.25","","","","-48","","NA"
"-100.27","70.63","GATESHEAD ISLAND","2402332","2019-01-04 17:00","2019","01","04","17:00","-32.5","","-35.9","","72","","0.0","","33","","22","","","","100.28","","","","-47","","NA"
"-100.27","70.63","GATESHEAD ISLAND","2402332","2019-01-04 18:00","2019","01","04","18:00","-33.1","","-36.4","","72","","0.0","","33","","18","","","","100.30","","","","-46","","NA"
"-100.27","70.63","GATESHEAD ISLAND","2402332","2019-01-04 19:00","2019","01","04","19:00","-33.3","","-36.7","","71","","0.0","","33","","23","","","","100.29","","","","-48","","NA"
"-100.27","70.63","GATESHEAD ISLAND","2402332","2019-01-04 20:00","2019","01","04","20:00","-33.5","","-36.9","","71","","0.0","","33","","19","","","","100.29","","","","-47","","NA"
"-100.27","70.63","GATESHEAD ISLAND","2402332","2019-01-04 21:00","2019","01","04","21:00","-33.7","","-37.2","","71","","0.0","","33","","15","","","","100.30","","","","-46","","NA"
"-100.27","70.63","GATESHEAD ISLAND","2402332","2019-01-04 22:00","2019","01","04","22:00","-33.7","","-37.2","","71","","0.0","","33","","18","","","","100.30","","","","-47","","NA"
"-100.27","70.63","GATESHEAD ISLAND","2402332","2019-01-04 23:00","2019","01","04","23:00","-34.0","","-37.5","","71","","0.0","","32","","23","","","","100.31","","","","-49","","NA"
"-100.27","70.63","GATESHEAD ISLAND","2402332","2019-01-05 00:00","2019","01","05","00:00","-34.0","","-37.5","","71","","0.0","","32","","18","","","","100.36","","","","-47","","NA"
"-100.27","70.63","GATESHEAD ISLAND","2402332","2019-01-05 01:00","2019","01","05","01:00","-34.0","","-37.5","","71","","0.0","","32","","17","","","","100.37","","","","-47","","NA"
"-100.27","70.63","GATESHEAD ISLAND","2402332","2019-01-05 02:00","2019","01","05","02:00","-34.1","","-37.6","","71","","0.0","","31","","21","","","","100.35","","","","-49","","NA"
"-100.27","70.63","GATESHEAD ISLAND","2402332","2019-01-05 03:00","2019","01","05","03:00","-34.1","","-37.6","","71","","0.0","","32","","18","","","","100.40","","","","-48","","NA"
"-100.27","70.63","GATESHEAD ISLAND","2402332","2019-01-05 04:00","2019","01","05","04:00","-33.7","","-37.2","","71","","0.0","","31","","17","","","","100.40","","","","-47","","NA"
"-100.27","70.63","GATESHEAD ISLAND","2402332","2019-01-05 05:00","2019","01","05","05:00","-34.1","","-37.6","","70","","0.0","","32","","11","","","","100.46","","","","-45","","NA"
"-100.27","70.63","GATESHEAD ISLAND","2402332","2019-01-05 06:00","2019","01","05","06:00","-34.1","","-37.6","","70","","0.0","","33","","11","","","","100.49","","","","-45","","NA"
"-100.27","70.63","GATESHEAD ISLAND","2402332","2019-01-05 07:00","2019","01","05","07:00","-35.2","","-38.8","","69","","0.0","","30","","11","","","","100.46","","","","-46","","NA"
"-100.27","70.63","GATESHEAD ISLAND","2402332","2019-01-05 08:00","2019","01","05","08:00","-35.0","","-38.6","","70","","0.0","","30","","10","","","","100.47","","","","-45","","NA"
"-100.27","70.63","GATESHEAD ISLAND","2402332","2019-01-05 09:00","2019","01","05","09:00","-35.4","","-39.1","","69","","0.0","","29","","10","","","","100.46","","","","-46","","NA"
"-100.27","70.63","GATESHEAD ISLAND","2402332","2019-01-05 10:00","2019","01","05","10:00","-34.4","","-38.0","","70","","0.0","","32","","11","","","","100.49","","","","-45","","NA"
"-100.27","70.63","GATESHEAD ISLAND","2402332","2019-01-05 11:00","2019","01","05","11:00","-34.2","","-37.7","","70","","0.0","","29","","7","","","","100.54","","","","-42","","NA"
"-100.27","70.63","GATESHEAD ISLAND","2402332","2019-01-05 12:00","2019","01","05","12:00","-33.9","","-37.4","","71","","0.0","","35","","5","","","","100.60","","","","-40","","NA"
"-100.27","70.63","GATESHEAD ISLAND","2402332","2019-01-05 13:00","2019","01","05","13:00","-34.5","","-38.1","","70","","0.0","","27","","8","","","","100.58","","","","-43","","NA"
"-100.27","70.63","GATESHEAD ISLAND","2402332","2019-01-05 14:00","2019","01","05","14:00","-33.9","","-37.5","","70","","0.0","","27","","11","","","","100.58","","","","-44","","NA"
"-100.27","70.63","GATESHEAD ISLAND","2402332","2019-01-05 15:00","2019","01","05","15:00","-33.9","","-37.4","","70","","0.0","","27","","7","","","","100.62","","","","-42","","NA"
"-100.27","70.63","GATESHEAD ISLAND","2402332","2019-01-05 16:00","2019","01","05","16:00","-34.0","","-37.5","","71","","0.0","","23","","4","","","","100.62","","","","-39","","NA"
"-100.27","70.63","GATESHEAD ISLAND","2402332","2019-01-05 17:00","2019","01","05","17:00","-33.1","","-36.5","","71","","0.0","","23","","3","","","","100.60","","","","-37","","NA"
"-100.27","70.63","GATESHEAD ISLAND","2402332","2019-01-05 18:00","2019","01","05","18:00","-34.4","","-38.2","","69","","0.0","","22","","8","","","","100.58","","","","-43","","NA"
"-100.27","70.63","GATESHEAD ISLAND","2402332","2019-01-05 19:00","2019","01","05","19:00","-32.7","","-35.9","","74","","0.0","","18","","4","","","","100.62","","","","-37","","NA"
"-100.27","70.63","GATESHEAD ISLAND","2402332","2019-01-05 20:00","2019","01","05","20:00","-33.2","","-36.5","","72","","0.0","","19","","7","","","","100.59","","","","-41","","NA"
"-100.27","70.63","GATESHEAD ISLAND","2402332","2019-01-05 21:00","2019","01","05","21:00","-31.5","","-34.7","","73","","0.0","","18","","4","","","","100.58","","","","-36","","NA"
"-100.27","70.63","GATESHEAD ISLAND","2402332","2019-01-05 22:00","2019","01","05","22:00","-35.5","","-39.1","","70","","0.0","","9","","8","","","","100.57","","","","-44","","NA"
"-100.27","70.63","GATESHEAD ISLAND","2402332","2019-01-05 23:00","2019","01","05","23:00","-34.4","","-37.9","","71","","0.0","","13","","10","","","","100.57","","","","-44","","NA"
"-100.27","70.63","GATESHEAD ISLAND","2402332","2019-01-06 00:00","2019","01","06","00:00","-35.0","","-38.5","","70","","0.0","","11","","10","","","","100.58","","","","-45","","NA"
"-100.27","70.63","GATESHEAD ISLAND","2402332","2019-01-06 01:00","2019","01","06","01:00","-35.0","","-38.6","","70","","0.0","","13","","9","","","","100.60","","","","-45","","NA"
"-100.27","70.63","GATESHEAD ISLAND","2402332","2019-01-06 02:00","2019","01","06","02:00","-32.9","","-36.2","","72","","0.0","","16","","8","","","","100.58","","","","-41","","NA"
"-100.27","70.63","GATESHEAD ISLAND","2402332","2019-01-06 03:00","2019","01","06","03:00","-34.0","","-37.5","","70","","0.0","","11","","5","","","","100.59","","","","-40","","NA"
"-100.27","70.63","GATESHEAD ISLAND","2402332","2019-01-06 04:00","2019","01","06","04:00","-33.4","","-36.7","","72","","0.0","","10","","6","","","","100.60","","","","-40","","NA"
"-100.27","70.63","GATESHEAD ISLAND","2402332","2019-01-06 05:00","2019","01","06","05:00","-34.9","","-38.4","","70","","0.0","","6","","10","","","","100.58","","","","-45","","NA"
"-100.27","70.63","GATESHEAD ISLAND","2402332","2019-01-06 06:00","2019","01","06","06:00","-34.5","","-38.1","","70","","0.0","","6","","8","","","","100.61","","","","-43","","NA"
"-100.27","70.63","GATESHEAD ISLAND","2402332","2019-01-06 07:00","2019","01","06","07:00","-34.2","","-37.7","","70","","0.2","","2","","5","","","","100.59","","","","-40","","NA"
"-100.27","70.63","GATESHEAD ISLAND","2402332","2019-01-06 08:00","2019","01","06","08:00","-33.1","","-36.5","","71","","0.0","","2","","9","","","","100.64","","","","-42","","NA"
"-100.27","70.63","GATESHEAD ISLAND","2402332","2019-01-06 09:00","2019","01","06","09:00","-32.3","","-35.6","","72","","0.0","","36","","5","","","","100.64","","","","-38","","NA"
"-100.27","70.63","GATESHEAD ISLAND","2402332","2019-01-06 10:00","2019","01","06","10:00","-31.9","","-35.1","","73","","0.0","","36","","9","","","","100.68","","","","-41","","NA"
"-100.27","70.63","GATESHEAD ISLAND","2402332","2019-01-06 11:00","2019","01","06","11:00","-31.7","","-34.9","","73","","0.0","","35","","5","","","","100.68","","","","-38","","NA"
"-100.27","70.63","GATESHEAD ISLAND","2402332","2019-01-06 12:00","2019","01","06","12:00","-32.0","","-35.3","","73","","0.0","","3","","8","","","","100.71","","","","-40","","NA"
"-100.27","70.63","GATESHEAD ISLAND","2402332","2019-01-06 13:00","2019","01","06","13:00","-32.1","","-35.4","","72","","0.0","","36","","5","","","","100.70","","","","-38","","NA"
"-100.27","70.63","GATESHEAD ISLAND","2402332","2019-01-06 14:00","2019","01","06","14:00","-32.2","","-35.5","","72","","0.0","","35","","7","","","","100.74","","","","-40","","NA"
"-100.27","70.63","GATESHEAD ISLAND","2402332","2019-01-06 15:00","2019","01","06","15:00","-33.4","","-36.8","","71","","0.0","","33","","8","","","","100.77","","","","-42","","NA"
"-100.27","70.63","GATESHEAD ISLAND","2402332","2019-01-06 16:00","2019","01","06","16:00","-34.4","","-37.9","","70","","0.0","","33","","7","","","","100.81","","","","-42","","NA"
"-100.27","70.63","GATESHEAD ISLAND","2402332","2019-01-06 17:00","2019","01","06","17:00","-34.4","","-37.9","","70","","0.0","","35","","9","","","","100.85","","","","-44","","NA"
"-100.27","70.63","GATESHEAD ISLAND","2402332","2019-01-06 18:00","2019","01","06","18:00","-34.9","","-38.5","","70","","0.0","","36","","5","","","","100.88","","","","-41","","NA"
"-100.27","70.63","GATESHEAD ISLAND","2402332","2019-01-06 19:00","2019","01","06","19:00","-35.4","","-39.2","","69","","0.0","","30","","5","","","","100.90","","","","-42","","NA"
"-100.27","70.63","GATESHEAD ISLAND","2402332","2019-01-06 20:00","2019","01","06","20:00","-36.0","","-39.8","","68","","0.0","","31","","6","","","","100.90","","","","-43","","NA"
"-100.27","70.63","GATESHEAD ISLAND","2402332","2019-01-06 21:00","2019","01","06","21:00","-36.6","","-40.4","","68","","0.0","","32","","8","","","","100.92","","","","-46","","NA"
"-100.27","70.63","GATESHEAD ISLAND","2402332","2019-01-06 22:00","2019","01","06","22:00","-37.4","","-41.3","","67","","0.0","","34","","8","","","","100.93","","","","-47","","NA"
"-100.27","70.63","GATESHEAD ISLAND","2402332","2019-01-06 23:00","2019","01","06","23:00","-38.4","","-42.4","","66","","0.0","","36","","5","","","","100.98","","","","-45","","NA"
"-100.27","70.63","GATESHEAD ISLAND","2402332","2019-01-07 00:00","2019","01","07","00:00","-38.6","","-42.5","","66","","0.0","","2","","7","","","","101.01","","","","-47","","NA"
"-100.27","70.63","GATESHEAD ISLAND","2402332","2019-01-07 01:00","2019","01","07","01:00","-37.6","","-41.5","","67","","0.0","","5","","5","","","","101.04","","","","-44","","NA"
"-100.27","70.63","GATESHEAD ISLAND","2402332","2019-01-07 02:00","2019","01","07","02:00","-38.2","","-42.1","","66","","0.0","","16","","3","","","","101.09","","","","-42","","NA"
"-100.27","70.63","GATESHEAD ISLAND","2402332","2019-01-07 03:00","2019","01","07","03:00","-38.7","","-42.7","","66","","0.0","","23","","3","","","","101.13","","","","-43","","NA"
"-100.27","70.63","GATESHEAD ISLAND","2402332","2019-01-07 04:00","2019","01","07","04:00","-39.2","","-43.3","","65","","0.0","","32","","6","","","","101.17","","","","-47","","NA"
"-100.27","70.63","GATESHEAD ISLAND","2402332","2019-01-07 05:00","2019","01","07","05:00","-39.0","","-43.1","","65","","0.0","","32","","4","","","","101.21","","","","-44","","NA"
"-100.27","70.63","GATESHEAD ISLAND","2402332","2019-01-07 06:00","2019","01","07","06:00","-39.4","","-43.5","","65","","0.0","","33","","6","","","","101.22","","","","-47","","NA"
"-100.27","70.63","GATESHEAD ISLAND","2402332","2019-01-07 07:00","2019","01","07","07:00","-39.2","","-43.3","","65","","0.0","","33","","6","","","","101.21","","","","-47","","NA"
"-100.27","70.63","GATESHEAD ISLAND","2402332","2019-01-07 08:00","2019","01","07","08:00","-39.3","","-43.4","","65","","0.0","","34","","7","","","","101.22","","","","-48","","NA"
"-100.27","70.63","GATESHEAD ISLAND","2402332","2019-01-07 09:00","2019","01","07","09:00","-37.8","","-41.7","","66","","0.0","","1","","6","","","","101.27","","","","-45","","NA"
"-100.27","70.63","GATESHEAD ISLAND","2402332","2019-01-07 10:00","2019","01","07","10:00","-35.8","","-39.4","","69","","0.0","","10","","4","","","","101.31","","","","-41","","NA"
"-100.27","70.63","GATESHEAD ISLAND","2402332","2019-01-07 11:00","2019","01","07","11:00","-37.5","","-41.4","","67","","0.0","","31","","5","","","","101.34","","","","-44","","NA"
"-100.27","70.63","GATESHEAD ISLAND","2402332","2019-01-07 12:00","2019","01","07","12:00","-37.7","","-41.7","","66","","0.0","","31","","4","","","","101.33","","","","-43","","NA"
"-100.27","70.63","GATESHEAD ISLAND","2402332","2019-01-07 13:00","2019","01","07","13:00","-37.9","","-41.9","","66","","0.0","","32","","4","","","","101.37","","","","-43","","NA"
"-100.27","70.63","GATESHEAD ISLAND","2402332","2019-01-07 14:00","2019","01","07","14:00","-38.0","","-42.0","","66","","0.0","","31","","5","","","","101.38","","","","-45","","NA"
"-100.27","70.63","GATESHEAD ISLAND","2402332","2019-01-07 15:00","2019","01","07","15:00","-37.5","","-41.5","","67","","0.0","","32","","7","","","","101.43","","","","-46","","NA"
"-100.27","70.63","GATESHEAD ISLAND","2402332","2019-01-07 16:00","2019","01","07","16:00","-36.8","","-40.6","","67","","0.0","","32","","9","","","","101.44","","","","-47","","NA"
"-100.27","70.63","GATESHEAD ISLAND","2402332","2019-01-07 17:00","2019","01","07","17:00","-36.8","","-40.7","","67","","0.0","","31","","6","","","","101.45","","","","-44","","NA"
"-100.27","70.63","GATESHEAD ISLAND","2402332","2019-01-07 18:00","2019","01","07","18:00","-36.3","","-40.1","","68","","0.0","","26","","4","","","","101.50","","","","-41","","NA"
"-100.27","70.63","GATESHEAD ISLAND","2402332","2019-01-07 19:00","2019","01","07","19:00","-35.8","","-39.6","","68","","0.0","","26","","6","","","","101.51","","","","-43","","NA"
"-100.27","70.63","GATESHEAD ISLAND","2402332","2019-01-07 20:00","2019","01","07","20:00","-36.2","","-39.9","","68","","0.0","","30","","7","","","","101.51","","","","-44","","NA"
"-100.27","70.63","GATESHEAD ISLAND","2402332","2019-01-07 21:00","2019","01","07","21:00","-35.5","","-39.3","","69","","0.0","","31","","3","","","","101.54","","","","-39","","NA"
"-100.27","70.63","GATESHEAD ISLAND","2402332","2019-01-07 22:00","2019","01","07","22:00","-34.8","","-38.5","","69","","0.0","","24","","4","","","","101.55","","","","-40","","NA"
"-100.27","70.63","GATESHEAD ISLAND","2402332","2019-01-07 23:00","2019","01","07","23:00","-34.6","","-38.2","","70","","0.0","","25","","5","","","","101.56","","","","-41","","NA"
"-100.27","70.63","GATESHEAD ISLAND","2402332","2019-01-08 00:00","2019","01","08","00:00","-34.2","","-37.8","","70","","0.0","","28","","6","","","","101.61","","","","-41","","NA"
"-100.27","70.63","GATESHEAD ISLAND","2402332","2019-01-08 01:00","2019","01","08","01:00","-34.2","","-37.8","","70","","0.0","","30","","4","","","","101.66","","","","-39","","NA"
"-100.27","70.63","GATESHEAD ISLAND","2402332","2019-01-08 02:00","2019","01","08","02:00","-34.1","","-37.7","","70","","0.0","","29","","6","","","","101.68","","","","-41","","NA"
"-100.27","70.63","GATESHEAD ISLAND","2402332","2019-01-08 03:00","2019","01","08","03:00","-34.1","","-37.6","","70","","0.0","","31","","7","","","","101.72","","","","-42","","NA"
"-100.27","70.63","GATESHEAD ISLAND","2402332","2019-01-08 04:00","2019","01","08","04:00","-33.7","","-37.2","","71","","0.0","","29","","5","","","","101.75","","","","-40","","NA"
"-100.27","70.63","GATESHEAD ISLAND","2402332","2019-01-08 05:00","2019","01","08","05:00","-34.4","","-37.9","","70","","0.0","","30","","6","","","","101.78","","","","-42","","NA"
"-100.27","70.63","GATESHEAD ISLAND","2402332","2019-01-08 06:00","2019","01","08","06:00","-34.7","","-38.3","","70","","0.0","","30","","9","","","","101.78","","","","-44","","NA"
"-100.27","70.63","GATESHEAD ISLAND","2402332","2019-01-08 07:00","2019","01","08","07:00","-34.3","","-37.9","","70","","0.0","","30","","9","","","","101.83","","","","-44","","NA"
"-100.27","70.63","GATESHEAD ISLAND","2402332","2019-01-08 08:00","2019","01","08","08:00","-34.9","","-38.6","","69","","0.0","","31","","9","","","","101.85","","","","-44","","NA"
"-100.27","70.63","GATESHEAD ISLAND","2402332","2019-01-08 09:00","2019","01","08","09:00","-35.2","","-38.9","","69","","0.0","","30","","10","","","","101.88","","","","-45","","NA"
"-100.27","70.63","GATESHEAD ISLAND","2402332","2019-01-08 10:00","2019","01","08","10:00","-34.9","","-38.5","","70","","0.0","","30","","11","","","","101.90","","","","-46","","NA"
"-100.27","70.63","GATESHEAD ISLAND","2402332","2019-01-08 11:00","2019","01","08","11:00","-34.6","","-38.2","","70","","0.0","","30","","13","","","","101.92","","","","-46","","NA"
"-100.27","70.63","GATESHEAD ISLAND","2402332","2019-01-08 12:00","2019","01","08","12:00","-34.8","","-38.4","","70","","0.0","","30","","15","","","","101.95","","","","-47","","NA"
"-100.27","70.63","GATESHEAD ISLAND","2402332","2019-01-08 13:00","2019","01","08","13:00","-34.7","","-38.3","","70","","0.0","","30","","14","","","","101.99","","","","-47","","NA"
"-100.27","70.63","GATESHEAD ISLAND","2402332","2019-01-08 14:00","2019","01","08","14:00","-34.2","","-37.7","","70","","0.0","","31","","14","","","","102.00","","","","-46","","NA"
"-100.27","70.63","GATESHEAD ISLAND","2402332","2019-01-08 15:00","2019","01","08","15:00","-34.4","","-38.0","","70","","0.0","","31","","15","","","","102.02","","","","-47","","NA"
"-100.27","70.63","GATESHEAD ISLAND","2402332","2019-01-08 16:00","2019","01","08","16:00","-35.0","","-38.6","","69","","0.0","","31","","15","","","","102.07","","","","-48","","NA"
"-100.27","70.63","GATESHEAD ISLAND","2402332","2019-01-08 17:00","2019","01","08","17:00","-35.0","","-38.6","","69","","0.0","","31","","16","","","","102.07","","","","-48","","NA"
"-100.27","70.63","GATESHEAD ISLAND","2402332","2019-01-08 18:00","2019","01","08","18:00","-35.2","","-38.9","","69","","0.0","","32","","15","","","","102.10","","","","-48","","NA"
"-100.27","70.63","GATESHEAD ISLAND","2402332","2019-01-08 19:00","2019","01","08","19:00","-35.5","","-39.2","","69","","0.0","","31","","11","","","","102.14","","","","-46","","NA"
"-100.27","70.63","GATESHEAD ISLAND","2402332","2019-01-08 20:00","2019","01","08","20:00","-35.4","","-39.1","","69","","0.0","","32","","11","","","","102.14","","","","-46","","NA"
"-100.27","70.63","GATESHEAD ISLAND","2402332","2019-01-08 21:00","2019","01","08","21:00","-35.4","","-39.1","","69","","0.0","","32","","14","","","","102.16","","","","-48","","NA"
"-100.27","70.63","GATESHEAD ISLAND","2402332","2019-01-08 22:00","2019","01","08","22:00","-35.4","","-39.1","","69","","0.0","","32","","13","","","","102.22","","","","-47","","NA"
"-100.27","70.63","GATESHEAD ISLAND","2402332","2019-01-08 23:00","2019","01","08","23:00","-35.5","","-39.2","","69","","0.0","","32","","13","","","","102.27","","","","-47","","NA"
"-100.27","70.63","GATESHEAD ISLAND","2402332","2019-01-09 00:00","2019","01","09","00:00","-35.8","","-39.6","","68","","0.0","","32","","14","","","","102.30","","","","-48","","NA"
"-100.27","70.63","GATESHEAD ISLAND","2402332","2019-01-09 01:00","2019","01","09","01:00","-35.9","","-39.6","","68","","0.0","","32","","13","","","","102.36","","","","-48","","NA"
"-100.27","70.63","GATESHEAD ISLAND","2402332","2019-01-09 02:00","2019","01","09","02:00","-36.2","","-39.9","","68","","0.0","","32","","11","","","","102.44","","","","-47","","NA"
"-100.27","70.63","GATESHEAD ISLAND","2402332","2019-01-09 03:00","2019","01","09","03:00","-36.5","","-40.3","","68","","0.0","","33","","12","","","","102.47","","","","-48","","NA"
"-100.27","70.63","GATESHEAD ISLAND","2402332","2019-01-09 04:00","2019","01","09","04:00","-36.8","","-40.6","","67","","0.0","","33","","12","","","","102.53","","","","-48","","NA"
"-100.27","70.63","GATESHEAD ISLAND","2402332","2019-01-09 05:00","2019","01","09","05:00","-37.3","","-41.2","","67","","0.0","","34","","11","","","","102.56","","","","-48","","NA"
"-100.27","70.63","GATESHEAD ISLAND","2402332","2019-01-09 06:00","2019","01","09","06:00","-36.8","","-40.7","","67","","0.0","","33","","9","","","","102.62","","","","-47","","NA"
"-100.27","70.63","GATESHEAD ISLAND","2402332","2019-01-09 07:00","2019","01","09","07:00","-37.4","","-41.3","","67","","0.0","","32","","10","","","","102.70","","","","-48","","NA"
"-100.27","70.63","GATESHEAD ISLAND","2402332","2019-01-09 08:00","2019","01","09","08:00","-37.2","","-41.1","","67","","0.0","","31","","7","","","","102.76","","","","-46","","NA"
"-100.27","70.63","GATESHEAD ISLAND","2402332","2019-01-09 09:00","2019","01","09","09:00","-37.2","","-41.1","","67","","0.0","","33","","8","","","","102.81","","","","-46","","NA"
"-100.27","70.63","GATESHEAD ISLAND","2402332","2019-01-09 10:00","2019","01","09","10:00","-37.0","","-40.9","","67","","0.0","","31","","7","","","","102.84","","","","-45","","NA"
"-100.27","70.63","GATESHEAD ISLAND","2402332","2019-01-09 11:00","2019","01","09","11:00","-37.3","","-41.2","","67","","0.0","","32","","7","","","","102.90","","","","-46","","NA"
"-100.27","70.63","GATESHEAD ISLAND","2402332","2019-01-09 12:00","2019","01","09","12:00","-37.1","","-41.0","","67","","0.0","","32","","8","","","","102.95","","","","-46","","NA"
"-100.27","70.63","GATESHEAD ISLAND","2402332","2019-01-09 13:00","2019","01","09","13:00","-37.3","","-41.2","","67","","0.0","","32","","7","","","","103.04","","","","-46","","NA"
"-100.27","70.63","GATESHEAD ISLAND","2402332","2019-01-09 14:00","2019","01","09","14:00","-37.4","","-41.3","","67","","0.0","","32","","8","","","","103.08","","","","-47","","NA"
"-100.27","70.63","GATESHEAD ISLAND","2402332","2019-01-09 15:00","2019","01","09","15:00","-37.7","","-41.7","","66","","0.0","","31","","6","","","","103.14","","","","-45","","NA"
"-100.27","70.63","GATESHEAD ISLAND","2402332","2019-01-09 16:00","2019","01","09","16:00","-37.5","","-41.4","","67","","0.0","","32","","7","","","","103.19","","","","-46","","NA"
"-100.27","70.63","GATESHEAD ISLAND","2402332","2019-01-09 17:00","2019","01","09","17:00","-37.4","","-41.3","","67","","0.0","","29","","5","","","","103.25","","","","-44","","NA"
"-100.27","70.63","GATESHEAD ISLAND","2402332","2019-01-09 18:00","2019","01","09","18:00","-37.4","","-41.4","","67","","0.0","","31","","6","","","","103.28","","","","-45","","NA"
"-100.27","70.63","GATESHEAD ISLAND","2402332","2019-01-09 19:00","2019","01","09","19:00","-37.8","","-41.8","","66","","0.0","","34","","10","","","","103.30","","","","-48","","NA"
"-100.27","70.63","GATESHEAD ISLAND","2402332","2019-01-09 20:00","2019","01","09","20:00","-37.6","","-41.5","","67","","0.0","","36","","8","","","","103.36","","","","-47","","NA"
"-100.27","70.63","GATESHEAD ISLAND","2402332","2019-01-09 21:00","2019","01","09","21:00","-38.1","","-42.2","","66","","0.0","","31","","3","","","","103.38","","","","-42","","NA"
"-100.27","70.63","GATESHEAD ISLAND","2402332","2019-01-09 22:00","2019","01","09","22:00","-38.0","","-42.1","","66","","0.0","","33","","6","","","","103.39","","","","-46","","NA"
"-100.27","70.63","GATESHEAD ISLAND","2402332","2019-01-09 23:00","2019","01","09","23:00","-38.3","","-42.3","","66","","0.0","","33","","8","","","","103.42","","","","-48","","NA"
"-100.27","70.63","GATESHEAD ISLAND","2402332","2019-01-10 00:00","2019","01","10","00:00","-38.4","","-42.4","","66","","0.0","","35","","4","","","","103.45","","","","-44","","NA"
"-100.27","70.63","GATESHEAD ISLAND","2402332","2019-01-10 01:00","2019","01","10","01:00","-38.3","","-42.4","","66","","0.0","","32","","4","","","","103.53","","","","-44","","NA"
"-100.27","70.63","GATESHEAD ISLAND","2402332","2019-01-10 02:00","2019","01","10","02:00","-38.1","","-42.1","","66","","0.0","","32","","3","","","","103.60","","","","-42","","NA"
"-100.27","70.63","GATESHEAD ISLAND","2402332","2019-01-10 03:00","2019","01","10","03:00","-38.4","","-42.5","","66","","0.0","","33","","7","","","","103.59","","","","-47","","NA"
"-100.27","70.63","GATESHEAD ISLAND","2402332","2019-01-10 04:00","2019","01","10","04:00","-38.5","","-42.6","","65","","0.0","","34","","6","","","","103.58","","","","-46","","NA"
"-100.27","70.63","GATESHEAD ISLAND","2402332","2019-01-10 05:00","2019","01","10","05:00","-38.5","","-42.6","","66","","0.0","","35","","6","","","","103.57","","","","-46","","NA"
"-100.27","70.63","GATESHEAD ISLAND","2402332","2019-01-10 06:00","2019","01","10","06:00","-38.6","","-42.7","","65","","0.0","","33","","5","","","","103.57","","","","-45","","NA"
"-100.27","70.63","GATESHEAD ISLAND","2402332","2019-01-10 07:00","2019","01","10","07:00","-38.3","","-42.3","","66","","0.0","","32","","6","","","","103.61","","","","-46","","NA"
"-100.27","70.63","GATESHEAD ISLAND","2402332","2019-01-10 08:00","2019","01","10","08:00","-38.3","","-42.3","","65","","0.0","","33","","3","","","","103.65","","","","-42","","NA"
"-100.27","70.63","GATESHEAD ISLAND","2402332","2019-01-10 09:00","2019","01","10","09:00","-38.6","","-42.7","","65","","0.0","","34","","5","","","","103.64","","","","-45","","NA"
"-100.27","70.63","GATESHEAD ISLAND","2402332","2019-01-10 10:00","2019","01","10","10:00","-38.7","","-42.8","","65","","0.0","","34","","4","","","","103.62","","","","-44","","NA"
"-100.27","70.63","GATESHEAD ISLAND","2402332","2019-01-10 11:00","2019","01","10","11:00","-38.8","","-43.0","","65","","0.0","","35","","7","","","","103.62","","","","-48","","NA"
"-100.27","70.63","GATESHEAD ISLAND","2402332","2019-01-10 12:00","2019","01","10","12:00","-38.8","","-42.9","","65","","0.0","","35","","4","","","","103.63","","","","-44","","NA"
"-100.27","70.63","GATESHEAD ISLAND","2402332","2019-01-10 13:00","2019","01","10","13:00","-38.9","","-43.0","","65","","0.0","","33","","7","","","","103.65","","","","-48","","NA"
"-100.27","70.63","GATESHEAD ISLAND","2402332","2019-01-10 14:00","2019","01","10","14:00","-39.1","","-43.2","","65","","0.0","","33","","4","","","","103.68","","","","-45","","NA"
"-100.27","70.63","GATESHEAD ISLAND","2402332","2019-01-10 15:00","2019","01","10","15:00","-38.9","","-43.0","","65","","0.0","","32","","5","","","","103.69","","","","-46","","NA"
"-100.27","70.63","GATESHEAD ISLAND","2402332","2019-01-10 16:00","2019","01","10","16:00","-38.7","","-42.9","","65","","0.0","","32","","4","","","","103.68","","","","-44","","NA"
"-100.27","70.63","GATESHEAD ISLAND","2402332","2019-01-10 17:00","2019","01","10","17:00","-38.8","","-43.0","","65","","0.0","","33","","6","","","","103.65","","","","-47","","NA"
"-100.27","70.63","GATESHEAD ISLAND","2402332","2019-01-10 18:00","2019","01","10","18:00","-39.0","","-43.2","","65","","0.0","","33","","6","","","","103.65","","","","-47","","NA"
"-100.27","70.63","GATESHEAD ISLAND","2402332","2019-01-10 19:00","2019","01","10","19:00","-39.2","","-43.3","","65","","0.0","","34","","6","","","","103.62","","","","-47","","NA"
"-100.27","70.63","GATESHEAD ISLAND","2402332","2019-01-10 20:00","2019","01","10","20:00","-39.1","","-43.3","","65","","0.0","","34","","4","","","","103.60","","","","-45","","NA"
"-100.27","70.63","GATESHEAD ISLAND","2402332","2019-01-10 21:00","2019","01","10","21:00","-39.1","","-43.2","","65","","0.0","","34","","5","","","","103.60","","","","-46","","NA"
"-100.27","70.63","GATESHEAD ISLAND","2402332","2019-01-10 22:00","2019","01","10","22:00","-39.0","","-43.1","","65","","0.0","","35","","6","","","","103.56","","","","-47","","NA"
"-100.27","70.63","GATESHEAD ISLAND","2402332","2019-01-10 23:00","2019","01","10","23:00","-38.4","","-42.4","","65","","0.0","","33","","2","","","","103.58","","","","-41","","NA"
"-100.27","70.63","GATESHEAD ISLAND","2402332","2019-01-11 00:00","2019","01","11","00:00","-38.4","","-42.6","","65","","0.0","","32","","4","","","","103.59","","","","-44","","NA"
"-100.27","70.63","GATESHEAD ISLAND","2402332","2019-01-11 01:00","2019","01","11","01:00","-39.0","","-43.2","","65","","0.0","","31","","4","","","","103.60","","","","-44","","NA"
"-100.27","70.63","GATESHEAD ISLAND","2402332","2019-01-11 02:00","2019","01","11","02:00","-38.6","","-42.7","","65","","0.0","","32","","4","","","","103.61","","","","-44","","NA"
"-100.27","70.63","GATESHEAD ISLAND","2402332","2019-01-11 03:00","2019","01","11","03:00","-38.5","","-42.5","","65","","0.0","","35","","4","","","","103.57","","","","-44","","NA"
"-100.27","70.63","GATESHEAD ISLAND","2402332","2019-01-11 04:00","2019","01","11","04:00","-37.3","","-41.3","","66","","0.0","","35","","3","","","","103.53","","","","-41","","NA"
"-100.27","70.63","GATESHEAD ISLAND","2402332","2019-01-11 05:00","2019","01","11","05:00","-37.8","","-41.8","","66","","0.0","","36","","2","","","","103.52","","","","-40","","NA"
"-100.27","70.63","GATESHEAD ISLAND","2402332","2019-01-11 06:00","2019","01","11","06:00","-38.1","","-42.1","","66","","0.0","","","","0","","","","103.52","","","","","","NA"
"-100.27","70.63","GATESHEAD ISLAND","2402332","2019-01-11 07:00","2019","01","11","07:00","-37.3","","-41.3","","67","","0.0","","10","","3","","","","103.48","","","","-41","","NA"
"-100.27","70.63","GATESHEAD ISLAND","2402332","2019-01-11 08:00","2019","01","11","08:00","-36.8","","-40.7","","67","","0.0","","8","","4","","","","103.46","","","","-42","","NA"
"-100.27","70.63","GATESHEAD ISLAND","2402332","2019-01-11 09:00","2019","01","11","09:00","-37.7","","-41.7","","66","","0.0","","10","","6","","","","103.45","","","","-45","","NA"
"-100.27","70.63","GATESHEAD ISLAND","2402332","2019-01-11 10:00","2019","01","11","10:00","-37.9","","-41.9","","66","","0.0","","14","","5","","","","103.44","","","","-45","","NA"
"-100.27","70.63","GATESHEAD ISLAND","2402332","2019-01-11 11:00","2019","01","11","11:00","-37.5","","-41.5","","67","","0.0","","14","","6","","","","103.41","","","","-45","","NA"
"-100.27","70.63","GATESHEAD ISLAND","2402332","2019-01-11 12:00","2019","01","11","12:00","-37.7","","-41.6","","67","","0.0","","14","","5","","","","103.36","","","","-44","","NA"
"-100.27","70.63","GATESHEAD ISLAND","2402332","2019-01-11 13:00","2019","01","11","13:00","-37.5","","-41.5","","67","","0.0","","15","","5","","","","103.33","","","","-44","","NA"
"-100.27","70.63","GATESHEAD ISLAND","2402332","2019-01-11 14:00","2019","01","11","14:00","-37.2","","-41.1","","67","","0.0","","17","","4","","","","103.31","","","","-42","","NA"
"-100.27","70.63","GATESHEAD ISLAND","2402332","2019-01-11 15:00","2019","01","11","15:00","-38.1","","-42.1","","66","","0.0","","14","","5","","","","103.31","","","","-45","","NA"
"-100.27","70.63","GATESHEAD ISLAND","2402332","2019-01-11 16:00","2019","01","11","16:00","-37.7","","-41.7","","67","","0.0","","13","","6","","","","103.28","","","","-45","","NA"
"-100.27","70.63","GATESHEAD ISLAND","2402332","2019-01-11 17:00","2019","01","11","17:00","-37.7","","-41.6","","66","","0.0","","11","","6","","","","103.22","","","","-45","","NA"
"-100.27","70.63","GATESHEAD ISLAND","2402332","2019-01-11 18:00","2019","01","11","18:00","-37.9","","-41.9","","66","","0.0","","11","","7","","","","103.13","","","","-46","","NA"
"-100.27","70.63","GATESHEAD ISLAND","2402332","2019-01-11 19:00","2019","01","11","19:00","-37.8","","-41.8","","66","","0.0","","10","","8","","","","103.07","","","","-47","","NA"
"-100.27","70.63","GATESHEAD ISLAND","2402332","2019-01-11 20:00","2019","01","11","20:00","-37.6","","-41.6","","66","","0.0","","11","","8","","","","103.01","","","","-47","","NA"
"-100.27","70.63","GATESHEAD ISLAND","2402332","2019-01-11 21:00","2019","01","11","21:00","-36.3","","-40.1","","68","","0.0","","12","","8","","","","102.96","","","","-45","","NA"
"-100.27","70.63","GATESHEAD ISLAND","2402332","2019-01-11 22:00","2019","01","11","22:00","-35.1","","-38.7","","69","","0.0","","11","","9","","","","102.89","","","","-45","","NA"
"-100.27","70.63","GATESHEAD ISLAND","2402332","2019-01-11 23:00","2019","01","11","23:00","-35.2","","-38.9","","69","","0.0","","10","","9","","","","102.82","","","","-45","","NA"
"-100.27","70.63","GATESHEAD ISLAND","2402332","2019-01-12 00:00","2019","01","12","00:00","-34.7","","-38.3","","69","","0.0","","10","","9","","","","102.77","","","","-44","","NA"
"-100.27","70.63","GATESHEAD ISLAND","2402332","2019-01-12 01:00","2019","01","12","01:00","-35.2","","-38.9","","69","","0.0","","9","","11","","","","102.68","","","","-46","","NA"
"-100.27","70.63","GATESHEAD ISLAND","2402332","2019-01-12 02:00","2019","01","12","02:00","-35.4","","-39.0","","69","","0.0","","10","","10","","","","102.62","","","","-46","","NA"
"-100.27","70.63","GATESHEAD ISLAND","2402332","2019-01-12 03:00","2019","01","12","03:00","-35.8","","-39.5","","69","","0.0","","9","","10","","","","102.57","","","","-46","","NA"
"-100.27","70.63","GATESHEAD ISLAND","2402332","2019-01-12 04:00","2019","01","12","04:00","-35.6","","-39.3","","69","","0.0","","9","","10","","","","102.49","","","","-46","","NA"
"-100.27","70.63","GATESHEAD ISLAND","2402332","2019-01-12 05:00","2019","01","12","05:00","-36.2","","-40.0","","68","","0.0","","9","","11","","","","102.40","","","","-47","","NA"
"-100.27","70.63","GATESHEAD ISLAND","2402332","2019-01-12 06:00","2019","01","12","06:00","-36.3","","-40.0","","68","","0.0","","9","","11","","","","102.31","","","","-47","","NA"
"-100.27","70.63","GATESHEAD ISLAND","2402332","2019-01-12 07:00","2019","01","12","07:00","-35.7","","-39.4","","69","","0.0","","8","","11","","","","102.27","","","","-47","","NA"
"-100.27","70.63","GATESHEAD ISLAND","2402332","2019-01-12 08:00","2019","01","12","08:00","-35.4","","-39.1","","69","","0.0","","8","","10","","","","102.21","","","","-46","","NA"
"-100.27","70.63","GATESHEAD ISLAND","2402332","2019-01-12 09:00","2019","01","12","09:00","-35.5","","-39.2","","69","","0.0","","6","","12","","","","102.11","","","","-47","","NA"
"-100.27","70.63","GATESHEAD ISLAND","2402332","2019-01-12 10:00","2019","01","12","10:00","-35.2","","-38.9","","69","","0.0","","7","","14","","","","102.03","","","","-47","","NA"
"-100.27","70.63","GATESHEAD ISLAND","2402332","2019-01-12 11:00","2019","01","12","11:00","-35.4","","-39.1","","69","","0.0","","6","","12","","","","101.96","","","","-47","","NA"
"-100.27","70.63","GATESHEAD ISLAND","2402332","2019-01-12 12:00","2019","01","12","12:00","-35.5","","-39.2","","69","","0.0","","5","","12","","","","101.90","","","","-47","","NA"
"-100.27","70.63","GATESHEAD ISLAND","2402332","2019-01-12 13:00","2019","01","12","13:00","-35.6","","-39.4","","69","","0.0","","5","","12","","","","101.84","","","","-47","","NA"
"-100.27","70.63","GATESHEAD ISLAND","2402332","2019-01-12 14:00","2019","01","12","14:00","-36.1","","-39.9","","68","","0.0","","4","","12","","","","101.83","","","","-48","","NA"
"-100.27","70.63","GATESHEAD ISLAND","2402332","2019-01-12 15:00","2019","01","12","15:00","-36.0","","-39.7","","68","","0.0","","4","","14","","","","101.81","","","","-48","","NA"
"-100.27","70.63","GATESHEAD ISLAND","2402332","2019-01-12 16:00","2019","01","12","16:00","-35.8","","-39.5","","69","","0.0","","4","","14","","","","101.79","","","","-48","","NA"
"-100.27","70.63","GATESHEAD ISLAND","2402332","2019-01-12 17:00","2019","01","12","17:00","-35.5","","-39.2","","69","","0.0","","4","","12","","","","101.78","","","","-47","","NA"
"-100.27","70.63","GATESHEAD ISLAND","2402332","2019-01-12 18:00","2019","01","12","18:00","-35.6","","-39.3","","69","","0.0","","4","","13","","","","101.78","","","","-47","","NA"
"-100.27","70.63","GATESHEAD ISLAND","2402332","2019-01-12 19:00","2019","01","12","19:00","-34.9","","-38.5","","69","","0.0","","4","","14","","","","101.80","","","","-47","","NA"
"-100.27","70.63","GATESHEAD ISLAND","2402332","2019-01-12 20:00","2019","01","12","20:00","-35.2","","-38.9","","69","","0.0","","3","","14","","","","101.81","","","","-47","","NA"
"-100.27","70.63","GATESHEAD ISLAND","2402332","2019-01-12 21:00","2019","01","12","21:00","-35.3","","-39.0","","69","","0.0","","2","","14","","","","101.84","","","","-48","","NA"
"-100.27","70.63","GATESHEAD ISLAND","2402332","2019-01-12 22:00","2019","01","12","22:00","-35.3","","-39.0","","69","","0.0","","36","","11","","","","101.87","","","","-46","","NA"
"-100.27","70.63","GATESHEAD ISLAND","2402332","2019-01-12 23:00","2019","01","12","23:00","-35.4","","-39.1","","69","","0.0","","1","","13","","","","101.91","","","","-47","","NA"
"-100.27","70.63","GATESHEAD ISLAND","2402332","2019-01-13 00:00","2019","01","13","00:00","-35.0","","-38.7","","69","","0.0","","1","","21","","","","101.95","","","","-50","","NA"
"-100.27","70.63","GATESHEAD ISLAND","2402332","2019-01-13 01:00","2019","01","13","01:00","-35.9","","-39.7","","68","","0.0","","36","","19","","","","102.01","","","","-50","","NA"
"-100.27","70.63","GATESHEAD ISLAND","2402332","2019-01-13 02:00","2019","01","13","02:00","-36.2","","-39.9","","68","","0.0","","36","","19","","","","102.08","","","","-51","","NA"
"-100.27","70.63","GATESHEAD ISLAND","2402332","2019-01-13 03:00","2019","01","13","03:00","-36.4","","-40.2","","68","","0.0","","36","","19","","","","102.14","","","","-51","","NA"
"-100.27","70.63","GATESHEAD ISLAND","2402332","2019-01-13 04:00","2019","01","13","04:00","-36.3","","-40.1","","68","","0.0","","36","","19","","","","102.20","","","","-51","","NA"
"-100.27","70.63","GATESHEAD ISLAND","2402332","2019-01-13 05:00","2019","01","13","05:00","-37.4","","-41.3","","67","","0.0","","35","","22","","","","102.25","","","","-53","","NA"
"-100.27","70.63","GATESHEAD ISLAND","2402332","2019-01-13 06:00","2019","01","13","06:00","-37.9","","-41.9","","66","","0.0","","35","","21","","","","102.30","","","","-53","","NA"
"-100.27","70.63","GATESHEAD ISLAND","2402332","2019-01-13 07:00","2019","01","13","07:00","-37.9","","-41.8","","66","","0.0","","34","","21","","","","102.35","","","","-53","","NA"
"-100.27","70.63","GATESHEAD ISLAND","2402332","2019-01-13 08:00","2019","01","13","08:00","-38.2","","-42.2","","66","","0.0","","34","","23","","","","102.39","","","","-54","","NA"
"-100.27","70.63","GATESHEAD ISLAND","2402332","2019-01-13 09:00","2019","01","13","09:00","-38.4","","-42.4","","66","","0.0","","34","","24","","","","102.46","","","","-55","","NA"
"-100.27","70.63","GATESHEAD ISLAND","2402332","2019-01-13 10:00","2019","01","13","10:00","-38.4","","-42.5","","66","","0.0","","34","","24","","","","102.48","","","","-55","","NA"
"-100.27","70.63","GATESHEAD ISLAND","2402332","2019-01-13 11:00","2019","01","13","11:00","-38.3","","-42.3","","66","","0.0","","34","","23","","","","102.49","","","","-55","","NA"
"-100.27","70.63","GATESHEAD ISLAND","2402332","2019-01-13 12:00","2019","01","13","12:00","-38.5","","-42.6","","66","","0.0","","34","","19","","","","102.54","","","","-53","","NA"
"-100.27","70.63","GATESHEAD ISLAND","2402332","2019-01-13 13:00","2019","01","13","13:00","-38.5","","-42.6","","66","","0.0","","34","","21","","","","102.58","","","","-54","","NA"
"-100.27","70.63","GATESHEAD ISLAND","2402332","2019-01-13 14:00","2019","01","13","14:00","-38.4","","-42.4","","66","","0.0","","34","","20","","","","102.61","","","","-54","","NA"
"-100.27","70.63","GATESHEAD ISLAND","2402332","2019-01-13 15:00","2019","01","13","15:00","-38.0","","-42.0","","66","","0.0","","35","","21","","","","102.64","","","","-54","","NA"
"-100.27","70.63","GATESHEAD ISLAND","2402332","2019-01-13 16:00","2019","01","13","16:00","-38.1","","-42.1","","66","","0.0","","34","","20","","","","102.69","","","","-53","","NA"
"-100.27","70.63","GATESHEAD ISLAND","2402332","2019-01-13 17:00","2019","01","13","17:00","-38.0","","-42.0","","66","","0.0","","34","","20","","","","102.70","","","","-53","","NA"
"-100.27","70.63","GATESHEAD ISLAND","2402332","2019-01-13 18:00","2019","01","13","18:00","-38.0","","-41.9","","66","","0.0","","33","","21","","","","102.72","","","","-54","","NA"
"-100.27","70.63","GATESHEAD ISLAND","2402332","2019-01-13 19:00","2019","01","13","19:00","-38.2","","-42.2","","66","","0.0","","33","","22","","","","102.69","","","","-54","","NA"
"-100.27","70.63","GATESHEAD ISLAND","2402332","2019-01-13 20:00","2019","01","13","20:00","-38.2","","-42.2","","66","","0.0","","33","","22","","","","102.70","","","","-54","","NA"
"-100.27","70.63","GATESHEAD ISLAND","2402332","2019-01-13 21:00","2019","01","13","21:00","-37.7","","-41.6","","66","","0.0","","33","","21","","","","102.71","","","","-53","","NA"
"-100.27","70.63","GATESHEAD ISLAND","2402332","2019-01-13 22:00","2019","01","13","22:00","-37.7","","-41.7","","66","","0.0","","33","","22","","","","102.71","","","","-53","","NA"
"-100.27","70.63","GATESHEAD ISLAND","2402332","2019-01-13 23:00","2019","01","13","23:00","-37.8","","-41.8","","66","","0.0","","33","","24","","","","102.69","","","","-54","","NA"
"-100.27","70.63","GATESHEAD ISLAND","2402332","2019-01-14 00:00","2019","01","14","00:00","-37.8","","-41.8","","66","","0.0","","32","","22","","","","102.67","","","","-54","","NA"
"-100.27","70.63","GATESHEAD ISLAND","2402332","2019-01-14 01:00","2019","01","14","01:00","-37.5","","-41.5","","66","","0.0","","33","","20","","","","102.65","","","","-53","","NA"
"-100.27","70.63","GATESHEAD ISLAND","2402332","2019-01-14 02:00","2019","01","14","02:00","-37.1","","-41.0","","67","","0.0","","33","","27","","","","102.66","","","","-54","","NA"
"-100.27","70.63","GATESHEAD ISLAND","2402332","2019-01-14 03:00","2019","01","14","03:00","-35.8","","-39.5","","68","","0.0","","33","","22","","","","102.65","","","","-51","","NA"
"-100.27","70.63","GATESHEAD ISLAND","2402332","2019-01-14 04:00","2019","01","14","04:00","-34.9","","-38.5","","69","","0.0","","34","","21","","","","102.62","","","","-50","","NA"
"-100.27","70.63","GATESHEAD ISLAND","2402332","2019-01-14 05:00","2019","01","14","05:00","-33.0","","-36.4","","71","","0.0","","34","","24","","","","102.58","","","","-48","","NA"
"-100.27","70.63","GATESHEAD ISLAND","2402332","2019-01-14 06:00","2019","01","14","06:00","-33.2","","-36.7","","71","","0.0","","34","","21","","","","102.56","","","","-47","","NA"
"-100.27","70.63","GATESHEAD ISLAND","2402332","2019-01-14 07:00","2019","01","14","07:00","-32.0","","-35.3","","72","","0.0","","34","","22","","","","102.54","","","","-46","","NA"
"-100.27","70.63","GATESHEAD ISLAND","2402332","2019-01-14 08:00","2019","01","14","08:00","-31.0","","-34.2","","73","","0.0","","34","","23","","","","102.53","","","","-45","","NA"
"-100.27","70.63","GATESHEAD ISLAND","2402332","2019-01-14 09:00","2019","01","14","09:00","-30.8","","-34.0","","73","","0.0","","33","","23","","","","102.52","","","","-45","","NA"
"-100.27","70.63","GATESHEAD ISLAND","2402332","2019-01-14 10:00","2019","01","14","10:00","-31.1","","-34.3","","73","","0.0","","33","","23","","","","102.47","","","","-45","","NA"
"-100.27","70.63","GATESHEAD ISLAND","2402332","2019-01-14 11:00","2019","01","14","11:00","-31.2","","-34.4","","73","","0.0","","34","","22","","","","102.48","","","","-45","","NA"
"-100.27","70.63","GATESHEAD ISLAND","2402332","2019-01-14 12:00","2019","01","14","12:00","-31.5","","-34.7","","73","","0.0","","33","","19","","","","102.48","","","","-45","","NA"
"-100.27","70.63","GATESHEAD ISLAND","2402332","2019-01-14 13:00","2019","01","14","13:00","-32.1","","-35.4","","72","","0.0","","32","","20","","","","102.43","","","","-46","","NA"
"-100.27","70.63","GATESHEAD ISLAND","2402332","2019-01-14 14:00","2019","01","14","14:00","-32.0","","-35.4","","72","","0.0","","33","","26","","","","102.41","","","","-47","","NA"
"-100.27","70.63","GATESHEAD ISLAND","2402332","2019-01-14 15:00","2019","01","14","15:00","-32.2","","-35.5","","72","","0.0","","33","","23","","","","102.40","","","","-47","","NA"
"-100.27","70.63","GATESHEAD ISLAND","2402332","2019-01-14 16:00","2019","01","14","16:00","-32.5","","-35.9","","72","","0.0","","32","","21","","","","102.37","","","","-47","","NA"
"-100.27","70.63","GATESHEAD ISLAND","2402332","2019-01-14 17:00","2019","01","14","17:00","-32.4","","-35.8","","72","","0.0","","32","","20","","","","102.31","","","","-46","","NA"
"-100.27","70.63","GATESHEAD ISLAND","2402332","2019-01-14 18:00","2019","01","14","18:00","-32.4","","-35.7","","72","","0.0","","31","","15","","","","102.28","","","","-44","","NA"
"-100.27","70.63","GATESHEAD ISLAND","2402332","2019-01-14 19:00","2019","01","14","19:00","-32.0","","-35.3","","72","","0.0","","31","","16","","","","102.18","","","","-44","","NA"
"-100.27","70.63","GATESHEAD ISLAND","2402332","2019-01-14 20:00","2019","01","14","20:00","-30.8","","-34.0","","74","","0.0","","31","","20","","","","102.13","","","","-44","","NA"
"-100.27","70.63","GATESHEAD ISLAND","2402332","2019-01-14 21:00","2019","01","14","21:00","-30.5","","-33.6","","74","","0.0","","32","","23","","","","102.04","","","","-45","","NA"
"-100.27","70.63","GATESHEAD ISLAND","2402332","2019-01-14 22:00","2019","01","14","22:00","-29.2","","-32.1","","75","","0.0","","32","","25","","","","102.03","","","","-43","","NA"
"-100.27","70.63","GATESHEAD ISLAND","2402332","2019-01-14 23:00","2019","01","14","23:00","-27.5","","-30.2","","77","","0.0","","33","","27","","","","101.97","","","","-42","","NA"
"-100.27","70.63","GATESHEAD ISLAND","2402332","2019-01-15 00:00","2019","01","15","00:00","-26.9","","-29.6","","78","","0.0","","31","","23","","","","101.92","","","","-40","","NA"
"-100.27","70.63","GATESHEAD ISLAND","2402332","2019-01-15 01:00","2019","01","15","01:00","-25.9","","-28.5","","79","","0.0","","33","","27","","","","101.88","","","","-40","","NA"
"-100.27","70.63","GATESHEAD ISLAND","2402332","2019-01-15 02:00","2019","01","15","02:00","-26.0","","-28.6","","78","","0.0","","33","","34","","","","101.86","","","","-41","","NA"
"-100.27","70.63","GATESHEAD ISLAND","2402332","2019-01-15 03:00","2019","01","15","03:00","-27.3","","-30.0","","77","","0.0","","33","","31","","","","101.80","","","","-42","","NA"
"-100.27","70.63","GATESHEAD ISLAND","2402332","2019-01-15 04:00","2019","01","15","04:00","-28.3","","-31.2","","76","","0.0","","32","","27","","","","101.77","","","","-43","","NA"
"-100.27","70.63","GATESHEAD ISLAND","2402332","2019-01-15 05:00","2019","01","15","05:00","-28.5","","-31.3","","76","","0.0","","32","","30","","","","101.70","","","","-44","","NA"
"-100.27","70.63","GATESHEAD ISLAND","2402332","2019-01-15 06:00","2019","01","15","06:00","-28.9","","-31.8","","76","","0.0","","32","","30","","","","101.62","","","","-44","","NA"
"-100.27","70.63","GATESHEAD ISLAND","2402332","2019-01-15 07:00","2019","01","15","07:00","-29.2","","-32.1","","76","","0.0","","33","","26","","","","101.61","","","","-44","","NA"
"-100.27","70.63","GATESHEAD ISLAND","2402332","2019-01-15 08:00","2019","01","15","08:00","-29.6","","-32.6","","75","","0.0","","33","","28","","","","101.55","","","","-45","","NA"
"-100.27","70.63","GATESHEAD ISLAND","2402332","2019-01-15 09:00","2019","01","15","09:00","-30.2","","-33.3","","75","","0.0","","33","","30","","","","101.53","","","","-46","","NA"
"-100.27","70.63","GATESHEAD ISLAND","2402332","2019-01-15 10:00","2019","01","15","10:00","-30.5","","-33.6","","74","","0.0","","34","","30","","","","101.54","","","","-46","","NA"
"-100.27","70.63","GATESHEAD ISLAND","2402332","2019-01-15 11:00","2019","01","15","11:00","-30.4","","-33.5","","74","","0.0","","34","","29","","","","101.54","","","","-46","","NA"
"-100.27","70.63","GATESHEAD ISLAND","2402332","2019-01-15 12:00","2019","01","15","12:00","-30.9","","-34.1","","74","","0.0","","33","","27","","","","101.48","","","","-46","","NA"
"-100.27","70.63","GATESHEAD ISLAND","2402332","2019-01-15 13:00","2019","01","15","13:00","-31.4","","-34.6","","73","","0.0","","33","","28","","","","101.49","","","","-47","","NA"
"-100.27","70.63","GATESHEAD ISLAND","2402332","2019-01-15 14:00","2019","01","15","14:00","-31.5","","-34.7","","73","","0.0","","33","","27","","","","101.46","","","","-47","","NA"
"-100.27","70.63","GATESHEAD ISLAND","2402332","2019-01-15 15:00","2019","01","15","15:00","-31.2","","-34.3","","74","","0.0","","34","","30","","","","101.48","","","","-47","","NA"
"-100.27","70.63","GATESHEAD ISLAND","2402332","2019-01-15 16:00","2019","01","15","16:00","-31.1","","-34.3","","74","","0.0","","34","","33","","","","101.48","","","","-48","","NA"
"-100.27","70.63","GATESHEAD ISLAND","2402332","2019-01-15 17:00","2019","01","15","17:00","-31.4","","-34.7","","73","","0.0","","34","","30","","","","101.50","","","","-47","","NA"
"-100.27","70.63","GATESHEAD ISLAND","2402332","2019-01-15 18:00","2019","01","15","18:00","-31.5","","-34.7","","73","","0.0","","35","","24","","","","101.47","","","","-46","","NA"
"-100.27","70.63","GATESHEAD ISLAND","2402332","2019-01-15 19:00","2019","01","15","19:00","-31.7","","-34.9","","73","","0.0","","34","","27","","","","101.47","","","","-47","","NA"
"-100.27","70.63","GATESHEAD ISLAND","2402332","2019-01-15 20:00","2019","01","15","20:00","-31.8","","-35.0","","73","","0.0","","34","","28","","","","101.47","","","","-48","","NA"
"-100.27","70.63","GATESHEAD ISLAND","2402332","2019-01-15 21:00","2019","01","15","21:00","-31.9","","-35.1","","73","","0.0","","34","","28","","","","101.45","","","","-48","","NA"
"-100.27","70.63","GATESHEAD ISLAND","2402332","2019-01-15 22:00","2019","01","15","22:00","-31.7","","-35.0","","73","","0.0","","35","","23","","","","101.46","","","","-46","","NA"
"-100.27","70.63","GATESHEAD ISLAND","2402332","2019-01-15 23:00","2019","01","15","23:00","-31.3","","-34.5","","73","","0.0","","34","","29","","","","101.41","","","","-47","","NA"
"-100.27","70.63","GATESHEAD ISLAND","2402332","2019-01-16 00:00","2019","01","16","00:00","-31.7","","-35.0","","73","","0.0","","35","","22","","","","101.42","","","","-46","","NA"
"-100.27","70.63","GATESHEAD ISLAND","2402332","2019-01-16 01:00","2019","01","16","01:00","-31.8","","-35.1","","73","","0.0","","34","","15","","","","101.44","","","","-44","","NA"
"-100.27","70.63","GATESHEAD ISLAND","2402332","2019-01-16 02:00","2019","01","16","02:00","-31.6","","-34.9","","73","","0.0","","34","","20","","","","101.43","","","","-45","","NA"
"-100.27","70.63","GATESHEAD ISLAND","2402332","2019-01-16 03:00","2019","01","16","03:00","-31.3","","-34.5","","73","","0.0","","34","","23","","","","101.42","","","","-46","","NA"
"-100.27","70.63","GATESHEAD ISLAND","2402332","2019-01-16 04:00","2019","01","16","04:00","-31.2","","-34.4","","73","","0.0","","33","","29","","","","101.33","","","","-47","","NA"
"-100.27","70.63","GATESHEAD ISLAND","2402332","2019-01-16 05:00","2019","01","16","05:00","-30.9","","-34.1","","74","","0.0","","34","","28","","","","101.31","","","","-46","","NA"
"-100.27","70.63","GATESHEAD ISLAND","2402332","2019-01-16 06:00","2019","01","16","06:00","-30.7","","-33.8","","74","","0.0","","34","","27","","","","101.27","","","","-46","","NA"
"-100.27","70.63","GATESHEAD ISLAND","2402332","2019-01-16 07:00","2019","01","16","07:00","-30.7","","-33.9","","74","","0.0","","34","","26","","","","101.25","","","","-46","","NA"
"-100.27","70.63","GATESHEAD ISLAND","2402332","2019-01-16 08:00","2019","01","16","08:00","-30.4","","-33.5","","74","","0.0","","33","","29","","","","101.19","","","","-46","","NA"
"-100.27","70.63","GATESHEAD ISLAND","2402332","2019-01-16 09:00","2019","01","16","09:00","-29.9","","-32.9","","75","","0.0","","34","","33","","","","101.14","","","","-46","","NA"
"-100.27","70.63","GATESHEAD ISLAND","2402332","2019-01-16 10:00","2019","01","16","10:00","-29.6","","-32.6","","75","","0.0","","34","","31","","","","101.16","","","","-45","","NA"
"-100.27","70.63","GATESHEAD ISLAND","2402332","2019-01-16 11:00","2019","01","16","11:00","-29.2","","-32.2","","76","","0.0","","35","","33","","","","101.18","","","","-45","","NA"
"-100.27","70.63","GATESHEAD ISLAND","2402332","2019-01-16 12:00","2019","01","16","12:00","-28.2","","-31.0","","76","","0.0","","35","","33","","","","101.22","","","","-44","","NA"
"-100.27","70.63","GATESHEAD ISLAND","2402332","2019-01-16 13:00","2019","01","16","13:00","-28.6","","-31.5","","76","","0.0","","35","","30","","","","101.26","","","","-44","","NA"
"-100.27","70.63","GATESHEAD ISLAND","2402332","2019-01-16 14:00","2019","01","16","14:00","-28.7","","-31.6","","76","","0.0","","35","","30","","","","101.31","","","","-44","","NA"
"-100.27","70.63","GATESHEAD ISLAND","2402332","2019-01-16 15:00","2019","01","16","15:00","-29.2","","-32.2","","75","","0.0","","35","","31","","","","101.38","","","","-45","","NA"
"-100.27","70.63","GATESHEAD ISLAND","2402332","2019-01-16 16:00","2019","01","16","16:00","-29.7","","-32.7","","75","","0.0","","36","","29","","","","101.43","","","","-45","","NA"
"-100.27","70.63","GATESHEAD ISLAND","2402332","2019-01-16 17:00","2019","01","16","17:00","-30.3","","-33.4","","74","","0.0","","35","","27","","","","101.49","","","","-45","","NA"
"-100.27","70.63","GATESHEAD ISLAND","2402332","2019-01-16 18:00","2019","01","16","18:00","-30.7","","-33.9","","74","","0.0","","36","","26","","","","101.54","","","","-46","","NA"
"-100.27","70.63","GATESHEAD ISLAND","2402332","2019-01-16 19:00","2019","01","16","19:00","-31.2","","-34.3","","74","","0.0","","35","","25","","","","101.58","","","","-46","","NA"
"-100.27","70.63","GATESHEAD ISLAND","2402332","2019-01-16 20:00","2019","01","16","20:00","-31.5","","-34.7","","73","","0.0","","35","","22","","","","101.63","","","","-46","","NA"
"-100.27","70.63","GATESHEAD ISLAND","2402332","2019-01-16 21:00","2019","01","16","21:00","-32.0","","-35.3","","73","","0.0","","34","","20","","","","101.68","","","","-46","","NA"
"-100.27","70.63","GATESHEAD ISLAND","2402332","2019-01-16 22:00","2019","01","16","22:00","-32.1","","-35.4","","72","","0.0","","34","","22","","","","101.69","","","","-46","","NA"
"-100.27","70.63","GATESHEAD ISLAND","2402332","2019-01-16 23:00","2019","01","16","23:00","-32.6","","-36.0","","72","","0.0","","33","","18","","","","101.75","","","","-46","","NA"
"-100.27","70.63","GATESHEAD ISLAND","2402332","2019-01-17 00:00","2019","01","17","00:00","-32.3","","-35.6","","72","","0.0","","34","","22","","","","101.78","","","","-47","","NA"
"-100.27","70.63","GATESHEAD ISLAND","2402332","2019-01-17 01:00","2019","01","17","01:00","-32.0","","-35.3","","73","","0.0","","34","","22","","","","101.80","","","","-46","","NA"
"-100.27","70.63","GATESHEAD ISLAND","2402332","2019-01-17 02:00","2019","01","17","02:00","-32.2","","-35.6","","72","","0.0","","34","","21","","","","101.83","","","","-46","","NA"
"-100.27","70.63","GATESHEAD ISLAND","2402332","2019-01-17 03:00","2019","01","17","03:00","-32.6","","-35.9","","72","","0.0","","34","","19","","","","101.86","","","","-46","","NA"
"-100.27","70.63","GATESHEAD ISLAND","2402332","2019-01-17 04:00","2019","01","17","04:00","-32.7","","-36.1","","72","","0.0","","34","","22","","","","101.86","","","","-47","","NA"
"-100.27","70.63","GATESHEAD ISLAND","2402332","2019-01-17 05:00","2019","01","17","05:00","-32.7","","-36.1","","72","","0.0","","34","","20","","","","101.87","","","","-47","","NA"
"-100.27","70.63","GATESHEAD ISLAND","2402332","2019-01-17 06:00","2019","01","17","06:00","-32.8","","-36.1","","72","","0.0","","34","","17","","","","101.87","","","","-46","","NA"
"-100.27","70.63","GATESHEAD ISLAND","2402332","2019-01-17 07:00","2019","01","17","07:00","-32.7","","-36.1","","72","","0.0","","34","","18","","","","101.88","","","","-46","","NA"
"-100.27","70.63","GATESHEAD ISLAND","2402332","2019-01-17 08:00","2019","01","17","08:00","-32.9","","-36.4","","71","","0.0","","33","","16","","","","101.92","","","","-45","","NA"
"-100.27","70.63","GATESHEAD ISLAND","2402332","2019-01-17 09:00","2019","01","17","09:00","-33.3","","-36.7","","71","","0.0","","35","","16","","","","101.93","","","","-46","","NA"
"-100.27","70.63","GATESHEAD ISLAND","2402332","2019-01-17 10:00","2019","01","17","10:00","-33.4","","-36.8","","71","","0.0","","34","","19","","","","101.93","","","","-47","","NA"
"-100.27","70.63","GATESHEAD ISLAND","2402332","2019-01-17 11:00","2019","01","17","11:00","-33.7","","-37.2","","71","","0.0","","34","","18","","","","101.98","","","","-47","","NA"
"-100.27","70.63","GATESHEAD ISLAND","2402332","2019-01-17 12:00","2019","01","17","12:00","-34.0","","-37.5","","70","","0.0","","34","","18","","","","101.97","","","","-47","","NA"
"-100.27","70.63","GATESHEAD ISLAND","2402332","2019-01-17 13:00","2019","01","17","13:00","-33.6","","-37.1","","71","","0.0","","34","","17","","","","102.02","","","","-47","","NA"
"-100.27","70.63","GATESHEAD ISLAND","2402332","2019-01-17 14:00","2019","01","17","14:00","-33.6","","-37.1","","71","","0.0","","34","","14","","","","102.06","","","","-45","","NA"
"-100.27","70.63","GATESHEAD ISLAND","2402332","2019-01-17 15:00","2019","01","17","15:00","-34.0","","-37.5","","70","","0.0","","34","","15","","","","102.09","","","","-46","","NA"
"-100.27","70.63","GATESHEAD ISLAND","2402332","2019-01-17 16:00","2019","01","17","16:00","-34.2","","-37.7","","70","","0.0","","35","","16","","","","102.11","","","","-47","","NA"
"-100.27","70.63","GATESHEAD ISLAND","2402332","2019-01-17 17:00","2019","01","17","17:00","-34.9","","-38.5","","69","","0.0","","32","","11","","","","102.13","","","","-46","","NA"
"-100.27","70.63","GATESHEAD ISLAND","2402332","2019-01-17 18:00","2019","01","17","18:00","-34.7","","-38.3","","70","","0.0","","34","","14","","","","102.14","","","","-47","","NA"
"-100.27","70.63","GATESHEAD ISLAND","2402332","2019-01-17 19:00","2019","01","17","19:00","-35.1","","-38.7","","69","","0.0","","33","","9","","","","102.17","","","","-45","","NA"
"-100.27","70.63","GATESHEAD ISLAND","2402332","2019-01-17 20:00","2019","01","17","20:00","-35.3","","-38.9","","69","","0.0","","33","","11","","","","102.19","","","","-46","","NA"
"-100.27","70.63","GATESHEAD ISLAND","2402332","2019-01-17 21:00","2019","01","17","21:00","-35.4","","-39.2","","69","","0.0","","33","","11","","","","102.21","","","","-46","","NA"
"-100.27","70.63","GATESHEAD ISLAND","2402332","2019-01-17 22:00","2019","01","17","22:00","-34.9","","-38.5","","70","","0.0","","34","","15","","","","102.22","","","","-47","","NA"
"-100.27","70.63","GATESHEAD ISLAND","2402332","2019-01-17 23:00","2019","01","17","23:00","-34.4","","-38.0","","70","","0.0","","34","","11","","","","102.25","","","","-45","","NA"
"-100.27","70.63","GATESHEAD ISLAND","2402332","2019-01-18 00:00","2019","01","18","00:00","-34.9","","-38.5","","69","","0.0","","33","","12","","","","102.29","","","","-46","","NA"
"-100.27","70.63","GATESHEAD ISLAND","2402332","2019-01-18 01:00","2019","01","18","01:00","-34.1","","-37.7","","70","","0.0","","33","","12","","","","102.31","","","","-45","","NA"
"-100.27","70.63","GATESHEAD ISLAND","2402332","2019-01-18 02:00","2019","01","18","02:00","-33.5","","-37.0","","71","","0.0","","35","","17","","","","102.36","","","","-46","","NA"
"-100.27","70.63","GATESHEAD ISLAND","2402332","2019-01-18 03:00","2019","01","18","03:00","-33.0","","-36.5","","71","","0.0","","36","","14","","","","102.41","","","","-45","","NA"
"-100.27","70.63","GATESHEAD ISLAND","2402332","2019-01-18 04:00","2019","01","18","04:00","-33.0","","-36.4","","71","","0.0","","35","","11","","","","102.44","","","","-43","","NA"
"-100.27","70.63","GATESHEAD ISLAND","2402332","2019-01-18 05:00","2019","01","18","05:00","-32.1","","-35.4","","72","","0.0","","34","","13","","","","102.46","","","","-43","","NA"
"-100.27","70.63","GATESHEAD ISLAND","2402332","2019-01-18 06:00","2019","01","18","06:00","-29.4","","-32.4","","75","","0.0","","34","","11","","","","102.47","","","","-39","","NA"
"-100.27","70.63","GATESHEAD ISLAND","2402332","2019-01-18 07:00","2019","01","18","07:00","-27.6","","-30.4","","77","","0.0","","34","","12","","","","102.49","","","","-37","","NA"
"-100.27","70.63","GATESHEAD ISLAND","2402332","2019-01-18 08:00","2019","01","18","08:00","-28.6","","-31.6","","76","","0.0","","33","","14","","","","102.49","","","","-39","","NA"
"-100.27","70.63","GATESHEAD ISLAND","2402332","2019-01-18 09:00","2019","01","18","09:00","-28.7","","-31.6","","76","","0.0","","32","","16","","","","102.46","","","","-40","","NA"
"-100.27","70.63","GATESHEAD ISLAND","2402332","2019-01-18 10:00","2019","01","18","10:00","-28.8","","-31.8","","76","","0.0","","32","","17","","","","102.46","","","","-41","","NA"
"-100.27","70.63","GATESHEAD ISLAND","2402332","2019-01-18 11:00","2019","01","18","11:00","-28.8","","-31.8","","76","","0.0","","31","","14","","","","102.40","","","","-40","","NA"
"-100.27","70.63","GATESHEAD ISLAND","2402332","2019-01-18 12:00","2019","01","18","12:00","-28.3","","-31.1","","76","","0.0","","30","","18","","","","102.38","","","","-40","","NA"
"-100.27","70.63","GATESHEAD ISLAND","2402332","2019-01-18 13:00","2019","01","18","13:00","-26.9","","-29.7","","78","","0.0","","29","","19","","","","102.28","","","","-39","","NA"
"-100.27","70.63","GATESHEAD ISLAND","2402332","2019-01-18 14:00","2019","01","18","14:00","-25.1","","-27.6","","79","","0.0","","28","","20","","","","102.20","","","","-37","","NA"
"-100.27","70.63","GATESHEAD ISLAND","2402332","2019-01-18 15:00","2019","01","18","15:00","-23.4","","-25.8","","81","","0.0","","29","","22","","","","102.11","","","","-35","","NA"
"-100.27","70.63","GATESHEAD ISLAND","2402332","2019-01-18 16:00","2019","01","18","16:00","-21.7","","-23.8","","83","","0.0","","29","","26","","","","102.03","","","","-34","","NA"
"-100.27","70.63","GATESHEAD ISLAND","2402332","2019-01-18 17:00","2019","01","18","17:00","-20.3","","-22.3","","84","","0.0","","30","","30","","","","101.94","","","","-33","","NA"
"-100.27","70.63","GATESHEAD ISLAND","2402332","2019-01-18 18:00","2019","01","18","18:00","-20.2","","-22.3","","84","","0.0","","29","","26","","","","101.85","","","","-32","","NA"
"-100.27","70.63","GATESHEAD ISLAND","2402332","2019-01-18 19:00","2019","01","18","19:00","-19.0","","-20.9","","85","","0.0","","30","","31","","","","101.71","","","","-31","","NA"
"-100.27","70.63","GATESHEAD ISLAND","2402332","2019-01-18 20:00","2019","01","18","20:00","-17.1","","-18.7","","87","","0.0","","31","","32","","","","101.61","","","","-29","","NA"
"-100.27","70.63","GATESHEAD ISLAND","2402332","2019-01-18 21:00","2019","01","18","21:00","-16.5","","-18.1","","87","","0.0","","32","","42","","","","101.54","","","","-30","","NA"
"-100.27","70.63","GATESHEAD ISLAND","2402332","2019-01-18 22:00","2019","01","18","22:00","-16.7","","-18.4","","87","","0.0","","32","","43","","","","101.47","","","","-30","","NA"
"-100.27","70.63","GATESHEAD ISLAND","2402332","2019-01-18 23:00","2019","01","18","23:00","-17.0","","-18.7","","87","","0.0","","32","","41","","","","101.42","","","","-30","","NA"
"-100.27","70.63","GATESHEAD ISLAND","2402332","2019-01-19 00:00","2019","01","19","00:00","-17.1","","-18.8","","87","","0.0","","32","","41","","","","101.37","","","","-30","","NA"
"-100.27","70.63","GATESHEAD ISLAND","2402332","2019-01-19 01:00","2019","01","19","01:00","-17.0","","-18.7","","87","","0.0","","32","","42","","","","101.32","","","","-30","","NA"
"-100.27","70.63","GATESHEAD ISLAND","2402332","2019-01-19 02:00","2019","01","19","02:00","-16.9","","-18.6","","87","","0.0","","32","","41","","","","101.27","","","","-30","","NA"
"-100.27","70.63","GATESHEAD ISLAND","2402332","2019-01-19 03:00","2019","01","19","03:00","-16.9","","-18.6","","87","","0.0","","32","","40","","","","101.23","","","","-30","","NA"
"-100.27","70.63","GATESHEAD ISLAND","2402332","2019-01-19 04:00","2019","01","19","04:00","-17.0","","-18.7","","87","","0.0","","32","","34","","","","101.20","","","","-29","","NA"
"-100.27","70.63","GATESHEAD ISLAND","2402332","2019-01-19 05:00","2019","01","19","05:00","-17.1","","-18.8","","87","","0.0","","32","","37","","","","101.12","","","","-30","","NA"
"-100.27","70.63","GATESHEAD ISLAND","2402332","2019-01-19 06:00","2019","01","19","06:00","-17.3","","-18.9","","87","","0.0","","32","","42","","","","101.05","","","","-31","","NA"
"-100.27","70.63","GATESHEAD ISLAND","2402332","2019-01-19 07:00","2019","01","19","07:00","-17.3","","-19.0","","87","","0.0","","32","","39","","","","100.99","","","","-30","","NA"
"-100.27","70.63","GATESHEAD ISLAND","2402332","2019-01-19 08:00","2019","01","19","08:00","-17.7","","-19.4","","86","","0.0","","32","","40","","","","100.98","","","","-31","","NA"
"-100.27","70.63","GATESHEAD ISLAND","2402332","2019-01-19 09:00","2019","01","19","09:00","-17.9","","-19.7","","86","","0.0","","33","","41","","","","100.96","","","","-31","","NA"
"-100.27","70.63","GATESHEAD ISLAND","2402332","2019-01-19 10:00","2019","01","19","10:00","-18.1","","-19.9","","86","","0.0","","32","","41","","","","100.93","","","","-32","","NA"
"-100.27","70.63","GATESHEAD ISLAND","2402332","2019-01-19 11:00","2019","01","19","11:00","-18.4","","-20.2","","86","","0.0","","33","","42","","","","100.93","","","","-32","","NA"
"-100.27","70.63","GATESHEAD ISLAND","2402332","2019-01-19 12:00","2019","01","19","12:00","-20.1","","-22.1","","84","","0.0","","33","","36","","","","100.92","","","","-34","","NA"
"-100.27","70.63","GATESHEAD ISLAND","2402332","2019-01-19 13:00","2019","01","19","13:00","-21.3","","-23.4","","83","","0.0","","32","","37","","","","100.94","","","","-35","","NA"
"-100.27","70.63","GATESHEAD ISLAND","2402332","2019-01-19 14:00","2019","01","19","14:00","-23.1","","-25.4","","81","","0.0","","33","","33","","","","100.96","","","","-37","","NA"
"-100.27","70.63","GATESHEAD ISLAND","2402332","2019-01-19 15:00","2019","01","19","15:00","-24.6","","-27.1","","80","","0.0","","33","","30","","","","100.97","","","","-39","","NA"
"-100.27","70.63","GATESHEAD ISLAND","2402332","2019-01-19 16:00","2019","01","19","16:00","-25.8","","-28.4","","79","","0.0","","34","","43","","","","100.98","","","","-42","","NA"
"-100.27","70.63","GATESHEAD ISLAND","2402332","2019-01-19 17:00","2019","01","19","17:00","-27.2","","-29.9","","78","","0.0","","34","","35","","","","101.03","","","","-43","","NA"
"-100.27","70.63","GATESHEAD ISLAND","2402332","2019-01-19 18:00","2019","01","19","18:00","-28.3","","-31.1","","76","","0.0","","34","","30","","","","101.01","","","","-43","","NA"
"-100.27","70.63","GATESHEAD ISLAND","2402332","2019-01-19 19:00","2019","01","19","19:00","-28.9","","-31.9","","76","","0.0","","34","","27","","","","101.00","","","","-44","","NA"
"-100.27","70.63","GATESHEAD ISLAND","2402332","2019-01-19 20:00","2019","01","19","20:00","-29.7","","-32.7","","75","","0.0","","34","","22","","","","100.99","","","","-43","","NA"
"-100.27","70.63","GATESHEAD ISLAND","2402332","2019-01-19 21:00","2019","01","19","21:00","-30.2","","-33.2","","75","","0.0","","32","","31","","","","100.90","","","","-46","","NA"
"-100.27","70.63","GATESHEAD ISLAND","2402332","2019-01-19 22:00","2019","01","19","22:00","-30.5","","-33.6","","74","","0.0","","33","","29","","","","100.91","","","","-46","","NA"
"-100.27","70.63","GATESHEAD ISLAND","2402332","2019-01-19 23:00","2019","01","19","23:00","-31.2","","-34.3","","74","","0.0","","33","","25","","","","100.87","","","","-46","","NA"
"-100.27","70.63","GATESHEAD ISLAND","2402332","2019-01-20 00:00","2019","01","20","00:00","-31.0","","-34.1","","74","","0.0","","33","","29","","","","100.82","","","","-47","","NA"
"-100.27","70.63","GATESHEAD ISLAND","2402332","2019-01-20 01:00","2019","01","20","01:00","-31.4","","-34.6","","73","","0.0","","32","","23","","","","100.83","","","","-46","","NA"
"-100.27","70.63","GATESHEAD ISLAND","2402332","2019-01-20 02:00","2019","01","20","02:00","-31.6","","-34.8","","73","","0.0","","31","","25","","","","100.78","","","","-47","","NA"
"-100.27","70.63","GATESHEAD ISLAND","2402332","2019-01-20 03:00","2019","01","20","03:00","-31.7","","-34.9","","73","","0.0","","32","","21","","","","100.75","","","","-46","","NA"
"-100.27","70.63","GATESHEAD ISLAND","2402332","2019-01-20 04:00","2019","01","20","04:00","-32.0","","-35.2","","73","","0.0","","31","","22","","","","100.70","","","","-46","","NA"
"-100.27","70.63","GATESHEAD ISLAND","2402332","2019-01-20 05:00","2019","01","20","05:00","-32.3","","-35.6","","72","","0.0","","32","","18","","","","100.65","","","","-45","","NA"
"-100.27","70.63","GATESHEAD ISLAND","2402332","2019-01-20 06:00","2019","01","20","06:00","-32.4","","-35.7","","72","","0.0","","32","","17","","","","100.59","","","","-45","","NA"
"-100.27","70.63","GATESHEAD ISLAND","2402332","2019-01-20 07:00","2019","01","20","07:00","-32.4","","-35.7","","72","","0.0","","31","","22","","","","100.51","","","","-47","","NA"
"-100.27","70.63","GATESHEAD ISLAND","2402332","2019-01-20 08:00","2019","01","20","08:00","-32.7","","-36.0","","72","","0.0","","31","","23","","","","100.45","","","","-47","","NA"
"-100.27","70.63","GATESHEAD ISLAND","2402332","2019-01-20 09:00","2019","01","20","09:00","-33.1","","-36.5","","72","","0.0","","32","","20","","","","100.43","","","","-47","","NA"
"-100.27","70.63","GATESHEAD ISLAND","2402332","2019-01-20 10:00","2019","01","20","10:00","-33.5","","-36.9","","71","","0.0","","32","","21","","","","100.43","","","","-48","","NA"
"-100.27","70.63","GATESHEAD ISLAND","2402332","2019-01-20 11:00","2019","01","20","11:00","-33.6","","-37.0","","71","","0.0","","33","","24","","","","100.40","","","","-49","","NA"
"-100.27","70.63","GATESHEAD ISLAND","2402332","2019-01-20 12:00","2019","01","20","12:00","-33.9","","-37.4","","71","","0.0","","33","","26","","","","100.38","","","","-50","","NA"
"-100.27","70.63","GATESHEAD ISLAND","2402332","2019-01-20 13:00","2019","01","20","13:00","-34.4","","-37.9","","70","","0.0","","33","","27","","","","100.36","","","","-51","","NA"
"-100.27","70.63","GATESHEAD ISLAND","2402332","2019-01-20 14:00","2019","01","20","14:00","-34.6","","-38.2","","70","","0.0","","33","","26","","","","100.35","","","","-51","","NA"
"-100.27","70.63","GATESHEAD ISLAND","2402332","2019-01-20 15:00","2019","01","20","15:00","-34.7","","-38.3","","70","","0.0","","33","","23","","","","100.37","","","","-50","","NA"
"-100.27","70.63","GATESHEAD ISLAND","2402332","2019-01-20 16:00","2019","01","20","16:00","-34.8","","-38.3","","70","","0.0","","33","","23","","","","100.36","","","","-50","","NA"
"-100.27","70.63","GATESHEAD ISLAND","2402332","2019-01-20 17:00","2019","01","20","17:00","-35.6","","-39.3","","69","","0.0","","33","","20","","","","100.36","","","","-50","","NA"
"-100.27","70.63","GATESHEAD ISLAND","2402332","2019-01-20 18:00","2019","01","20","18:00","-36.0","","-39.7","","69","","0.0","","32","","16","","","","100.35","","","","-49","","NA"
"-100.27","70.63","GATESHEAD ISLAND","2402332","2019-01-20 19:00","2019","01","20","19:00","-36.1","","-39.9","","68","","0.0","","32","","17","","","","100.33","","","","-50","","NA"
"-100.27","70.63","GATESHEAD ISLAND","2402332","2019-01-20 20:00","2019","01","20","20:00","-36.0","","-39.7","","69","","0.0","","32","","16","","","","100.33","","","","-49","","NA"
"-100.27","70.63","GATESHEAD ISLAND","2402332","2019-01-20 21:00","2019","01","20","21:00","-36.4","","-40.1","","68","","0.0","","32","","15","","","","100.31","","","","-49","","NA"
"-100.27","70.63","GATESHEAD ISLAND","2402332","2019-01-20 22:00","2019","01","20","22:00","-36.5","","-40.3","","68","","0.0","","33","","16","","","","100.30","","","","-50","","NA"
"-100.27","70.63","GATESHEAD ISLAND","2402332","2019-01-20 23:00","2019","01","20","23:00","-36.5","","-40.3","","68","","0.0","","32","","16","","","","100.29","","","","-50","","NA"
"-100.27","70.63","GATESHEAD ISLAND","2402332","2019-01-21 00:00","2019","01","21","00:00","-36.6","","-40.5","","68","","0.0","","33","","13","","","","100.28","","","","-49","","NA"
"-100.27","70.63","GATESHEAD ISLAND","2402332","2019-01-21 01:00","2019","01","21","01:00","-36.7","","-40.5","","68","","0.0","","32","","14","","","","100.29","","","","-49","","NA"
"-100.27","70.63","GATESHEAD ISLAND","2402332","2019-01-21 02:00","2019","01","21","02:00","-37.3","","-41.2","","67","","0.0","","32","","14","","","","100.32","","","","-50","","NA"
"-100.27","70.63","GATESHEAD ISLAND","2402332","2019-01-21 03:00","2019","01","21","03:00","-37.7","","-41.7","","67","","0.0","","32","","14","","","","100.34","","","","-50","","NA"
"-100.27","70.63","GATESHEAD ISLAND","2402332","2019-01-21 04:00","2019","01","21","04:00","-37.9","","-41.9","","66","","0.0","","33","","13","","","","100.37","","","","-50","","NA"
"-100.27","70.63","GATESHEAD ISLAND","2402332","2019-01-21 05:00","2019","01","21","05:00","-38.0","","-41.9","","66","","0.0","","31","","14","","","","100.35","","","","-51","","NA"
"-100.27","70.63","GATESHEAD ISLAND","2402332","2019-01-21 06:00","2019","01","21","06:00","-38.1","","-42.1","","66","","0.0","","31","","17","","","","100.37","","","","-52","","NA"
"-100.27","70.63","GATESHEAD ISLAND","2402332","2019-01-21 07:00","2019","01","21","07:00","-38.4","","-42.4","","66","","0.0","","33","","16","","","","100.38","","","","-52","","NA"
"-100.27","70.63","GATESHEAD ISLAND","2402332","2019-01-21 08:00","2019","01","21","08:00","-38.7","","-42.7","","66","","0.0","","33","","15","","","","100.41","","","","-52","","NA"
"-100.27","70.63","GATESHEAD ISLAND","2402332","2019-01-21 09:00","2019","01","21","09:00","-39.0","","-43.1","","65","","0.0","","33","","17","","","","100.45","","","","-53","","NA"
"-100.27","70.63","GATESHEAD ISLAND","2402332","2019-01-21 10:00","2019","01","21","10:00","-39.4","","-43.5","","65","","0.0","","33","","16","","","","100.49","","","","-53","","NA"
"-100.27","70.63","GATESHEAD ISLAND","2402332","2019-01-21 11:00","2019","01","21","11:00","-39.6","","-43.8","","65","","0.0","","34","","16","","","","100.54","","","","-54","","NA"
"-100.27","70.63","GATESHEAD ISLAND","2402332","2019-01-21 12:00","2019","01","21","12:00","-39.9","","-44.0","","64","","0.0","","34","","18","","","","100.59","","","","-55","","NA"
"-100.27","70.63","GATESHEAD ISLAND","2402332","2019-01-21 13:00","2019","01","21","13:00","-39.7","","-43.8","","65","","0.0","","33","","18","","","","100.62","","","","-55","","NA"
"-100.27","70.63","GATESHEAD ISLAND","2402332","2019-01-21 14:00","2019","01","21","14:00","-39.9","","-44.1","","64","","0.0","","35","","16","","","","100.71","","","","-54","","NA"
"-100.27","70.63","GATESHEAD ISLAND","2402332","2019-01-21 15:00","2019","01","21","15:00","-40.1","","-44.3","","64","","0.0","","33","","16","","","","100.75","","","","-54","","NA"
"-100.27","70.63","GATESHEAD ISLAND","2402332","2019-01-21 16:00","2019","01","21","16:00","-40.1","","-44.3","","64","","0.0","","34","","11","","","","100.81","","","","-52","","NA"
"-100.27","70.63","GATESHEAD ISLAND","2402332","2019-01-21 17:00","2019","01","21","17:00","-40.2","","-44.5","","64","","0.0","","34","","14","","","","100.82","","","","-54","","NA"
"-100.27","70.63","GATESHEAD ISLAND","2402332","2019-01-21 18:00","2019","01","21","18:00","-40.1","","-44.3","","64","","0.0","","34","","14","","","","100.84","","","","-53","","NA"
"-100.27","70.63","GATESHEAD ISLAND","2402332","2019-01-21 19:00","2019","01","21","19:00","-40.2","","-44.4","","64","","0.0","","36","","13","","","","100.86","","","","-53","","NA"
"-100.27","70.63","GATESHEAD ISLAND","2402332","2019-01-21 20:00","2019","01","21","20:00","-40.1","","-44.4","","64","","0.0","","34","","11","","","","100.89","","","","-52","","NA"
"-100.27","70.63","GATESHEAD ISLAND","2402332","2019-01-21 21:00","2019","01","21","21:00","-40.6","","-44.9","","63","","0.0","","35","","11","","","","100.92","","","","-52","","NA"
"-100.27","70.63","GATESHEAD ISLAND","2402332","2019-01-21 22:00","2019","01","21","22:00","-40.4","","-44.6","","64","","0.0","","35","","12","","","","100.94","","","","-53","","NA"
"-100.27","70.63","GATESHEAD ISLAND","2402332","2019-01-21 23:00","2019","01","21","23:00","-40.4","","-44.7","","64","","0.0","","36","","11","","","","100.94","","","","-52","","NA"
"-100.27","70.63","GATESHEAD ISLAND","2402332","2019-01-22 00:00","2019","01","22","00:00","-40.5","","-44.8","","64","","0.0","","36","","12","","","","100.97","","","","-53","","NA"
"-100.27","70.63","GATESHEAD ISLAND","2402332","2019-01-22 01:00","2019","01","22","01:00","-40.0","","-44.3","","64","","0.0","","36","","12","","","","101.02","","","","-52","","NA"
"-100.27","70.63","GATESHEAD ISLAND","2402332","2019-01-22 02:00","2019","01","22","02:00","-40.6","","-44.9","","64","","0.0","","1","","11","","","","101.02","","","","-52","","NA"
"-100.27","70.63","GATESHEAD ISLAND","2402332","2019-01-22 03:00","2019","01","22","03:00","-40.6","","-44.9","","63","","0.0","","35","","10","","","","101.05","","","","-52","","NA"
"-100.27","70.63","GATESHEAD ISLAND","2402332","2019-01-22 04:00","2019","01","22","04:00","-40.6","","-44.9","","63","","0.0","","35","","10","","","","101.03","","","","-52","","NA"
"-100.27","70.63","GATESHEAD ISLAND","2402332","2019-01-22 05:00","2019","01","22","05:00","-40.7","","-45.0","","63","","0.0","","35","","10","","","","101.03","","","","-52","","NA"
"-100.27","70.63","GATESHEAD ISLAND","2402332","2019-01-22 06:00","2019","01","22","06:00","-40.3","","-44.6","","63","","0.0","","32","","11","","","","101.02","","","","-52","","NA"
"-100.27","70.63","GATESHEAD ISLAND","2402332","2019-01-22 07:00","2019","01","22","07:00","-40.5","","-44.8","","63","","0.0","","33","","12","","","","101.00","","","","-53","","NA"
"-100.27","70.63","GATESHEAD ISLAND","2402332","2019-01-22 08:00","2019","01","22","08:00","-40.7","","-45.0","","63","","0.0","","32","","14","","","","100.99","","","","-54","","NA"
"-100.27","70.63","GATESHEAD ISLAND","2402332","2019-01-22 09:00","2019","01","22","09:00","-40.8","","-45.1","","63","","0.0","","33","","14","","","","101.01","","","","-54","","NA"
"-100.27","70.63","GATESHEAD ISLAND","2402332","2019-01-22 10:00","2019","01","22","10:00","-40.8","","-45.1","","63","","0.0","","31","","13","","","","101.01","","","","-54","","NA"
"-100.27","70.63","GATESHEAD ISLAND","2402332","2019-01-22 11:00","2019","01","22","11:00","-40.6","","-44.9","","63","","0.0","","32","","15","","","","100.98","","","","-54","","NA"
"-100.27","70.63","GATESHEAD ISLAND","2402332","2019-01-22 12:00","2019","01","22","12:00","-40.7","","-45.0","","63","","0.0","","32","","16","","","","100.99","","","","-55","","NA"
"-100.27","70.63","GATESHEAD ISLAND","2402332","2019-01-22 13:00","2019","01","22","13:00","-40.1","","-44.3","","64","","0.0","","32","","19","","","","100.99","","","","-55","","NA"
"-100.27","70.63","GATESHEAD ISLAND","2402332","2019-01-22 14:00","2019","01","22","14:00","-40.0","","-44.3","","64","","0.0","","33","","19","","","","101.03","","","","-55","","NA"
"-100.27","70.63","GATESHEAD ISLAND","2402332","2019-01-22 15:00","2019","01","22","15:00","-39.7","","-43.9","","64","","0.0","","33","","20","","","","101.03","","","","-55","","NA"
"-100.27","70.63","GATESHEAD ISLAND","2402332","2019-01-22 16:00","2019","01","22","16:00","-39.1","","-43.3","","65","","0.0","","34","","22","","","","101.06","","","","-55","","NA"
"-100.27","70.63","GATESHEAD ISLAND","2402332","2019-01-22 17:00","2019","01","22","17:00","-39.0","","-43.1","","65","","0.0","","34","","22","","","","101.09","","","","-55","","NA"
"-100.27","70.63","GATESHEAD ISLAND","2402332","2019-01-22 18:00","2019","01","22","18:00","-39.0","","-43.2","","65","","0.0","","33","","22","","","","101.08","","","","-55","","NA"
"-100.27","70.63","GATESHEAD ISLAND","2402332","2019-01-22 19:00","2019","01","22","19:00","-39.1","","-43.2","","65","","0.0","","33","","21","","","","101.10","","","","-55","","NA"
"-100.27","70.63","GATESHEAD ISLAND","2402332","2019-01-22 20:00","2019","01","22","20:00","-39.0","","-43.2","","65","","0.0","","33","","23","","","","101.10","","","","-55","","NA"
"-100.27","70.63","GATESHEAD ISLAND","2402332","2019-01-22 21:00","2019","01","22","21:00","-38.9","","-43.0","","65","","0.0","","33","","21","","","","101.11","","","","-55","","NA"
"-100.27","70.63","GATESHEAD ISLAND","2402332","2019-01-22 22:00","2019","01","22","22:00","-38.7","","-42.8","","65","","0.0","","33","","22","","","","101.13","","","","-55","","NA"
"-100.27","70.63","GATESHEAD ISLAND","2402332","2019-01-22 23:00","2019","01","22","23:00","-38.9","","-43.0","","65","","0.0","","33","","22","","","","101.15","","","","-55","","NA"
"-100.27","70.63","GATESHEAD ISLAND","2402332","2019-01-23 00:00","2019","01","23","00:00","-38.8","","-42.9","","65","","0.0","","33","","22","","","","101.17","","","","-55","","NA"
"-100.27","70.63","GATESHEAD ISLAND","2402332","2019-01-23 01:00","2019","01","23","01:00","-38.9","","-43.0","","65","","0.0","","33","","21","","","","101.18","","","","-55","","NA"
"-100.27","70.63","GATESHEAD ISLAND","2402332","2019-01-23 02:00","2019","01","23","02:00","-38.5","","-42.6","","65","","0.0","","33","","20","","","","101.20","","","","-54","","NA"
"-100.27","70.63","GATESHEAD ISLAND","2402332","2019-01-23 03:00","2019","01","23","03:00","-38.2","","-42.2","","66","","0.0","","33","","21","","","","101.21","","","","-54","","NA"
"-100.27","70.63","GATESHEAD ISLAND","2402332","2019-01-23 04:00","2019","01","23","04:00","-38.0","","-42.0","","66","","0.0","","32","","18","","","","101.22","","","","-52","","NA"
"-100.27","70.63","GATESHEAD ISLAND","2402332","2019-01-23 05:00","2019","01","23","05:00","-37.7","","-41.6","","66","","0.0","","32","","19","","","","101.23","","","","-52","","NA"
"-100.27","70.63","GATESHEAD ISLAND","2402332","2019-01-23 06:00","2019","01","23","06:00","-37.5","","-41.5","","66","","0.0","","33","","21","","","","101.20","","","","-53","","NA"
"-100.27","70.63","GATESHEAD ISLAND","2402332","2019-01-23 07:00","2019","01","23","07:00","-37.8","","-41.8","","66","","0.0","","32","","22","","","","101.17","","","","-54","","NA"
"-100.27","70.63","GATESHEAD ISLAND","2402332","2019-01-23 08:00","2019","01","23","08:00","-38.1","","-42.1","","66","","0.0","","33","","24","","","","101.17","","","","-55","","NA"
"-100.27","70.63","GATESHEAD ISLAND","2402332","2019-01-23 09:00","2019","01","23","09:00","-38.2","","-42.3","","66","","0.0","","32","","23","","","","101.16","","","","-54","","NA"
"-100.27","70.63","GATESHEAD ISLAND","2402332","2019-01-23 10:00","2019","01","23","10:00","-38.0","","-42.0","","66","","0.0","","32","","20","","","","101.16","","","","-53","","NA"
"-100.27","70.63","GATESHEAD ISLAND","2402332","2019-01-23 11:00","2019","01","23","11:00","-38.1","","-42.1","","66","","0.0","","33","","22","","","","101.16","","","","-54","","NA"
"-100.27","70.63","GATESHEAD ISLAND","2402332","2019-01-23 12:00","2019","01","23","12:00","-37.9","","-41.9","","66","","0.0","","33","","26","","","","101.15","","","","-55","","NA"
"-100.27","70.63","GATESHEAD ISLAND","2402332","2019-01-23 13:00","2019","01","23","13:00","-37.6","","-41.6","","66","","0.3","","33","","23","","","","101.18","","","","-54","","NA"
"-100.27","70.63","GATESHEAD ISLAND","2402332","2019-01-23 14:00","2019","01","23","14:00"
"-100.27","70.63","GATESHEAD ISLAND","2402332","2019-01-23 15:00","2019","01","23","15:00","-37.1","","-41.0","","67","","0.0","","34","","28","","","","101.21","","","","-54","","NA"
"-100.27","70.63","GATESHEAD ISLAND","2402332","2019-01-23 16:00","2019","01","23","16:00","-37.0","","-40.9","","67","","0.0","","34","","26","","","","101.29","","","","-54","","NA"
"-100.27","70.63","GATESHEAD ISLAND","2402332","2019-01-23 17:00","2019","01","23","17:00","-37.1","","-41.0","","67","","0.0","","34","","26","","","","101.30","","","","-54","","NA"
"-100.27","70.63","GATESHEAD ISLAND","2402332","2019-01-23 18:00","2019","01","23","18:00","-36.8","","-40.7","","67","","0.0","","33","","25","","","","101.32","","","","-53","","NA"
"-100.27","70.63","GATESHEAD ISLAND","2402332","2019-01-23 19:00","2019","01","23","19:00","-36.7","","-40.5","","67","","0.0","","33","","22","","","","101.31","","","","-52","","NA"
"-100.27","70.63","GATESHEAD ISLAND","2402332","2019-01-23 20:00","2019","01","23","20:00","-36.1","","-39.9","","68","","0.0","","33","","27","","","","101.32","","","","-53","","NA"
"-100.27","70.63","GATESHEAD ISLAND","2402332","2019-01-23 21:00","2019","01","23","21:00","-36.1","","-39.9","","68","","0.0","","34","","26","","","","101.31","","","","-53","","NA"
"-100.27","70.63","GATESHEAD ISLAND","2402332","2019-01-23 22:00","2019","01","23","22:00","-36.1","","-39.9","","68","","0.0","","34","","23","","","","101.35","","","","-52","","NA"
"-100.27","70.63","GATESHEAD ISLAND","2402332","2019-01-23 23:00","2019","01","23","23:00","-35.7","","-39.4","","69","","0.0","","33","","25","","","","101.37","","","","-52","","NA"
"-100.27","70.63","GATESHEAD ISLAND","2402332","2019-01-24 00:00","2019","01","24","00:00","-35.5","","-39.2","","69","","0.0","","34","","21","","","","101.42","","","","-50","","NA"
"-100.27","70.63","GATESHEAD ISLAND","2402332","2019-01-24 01:00","2019","01","24","01:00","-35.7","","-39.5","","68","","0.0","","34","","27","","","","101.43","","","","-52","","NA"
"-100.27","70.63","GATESHEAD ISLAND","2402332","2019-01-24 02:00","2019","01","24","02:00","-35.7","","-39.4","","69","","0.0","","34","","29","","","","101.43","","","","-53","","NA"
"-100.27","70.63","GATESHEAD ISLAND","2402332","2019-01-24 03:00","2019","01","24","03:00","-36.0","","-39.8","","68","","0.0","","34","","24","","","","101.47","","","","-52","","NA"
"-100.27","70.63","GATESHEAD ISLAND","2402332","2019-01-24 04:00","2019","01","24","04:00","-36.2","","-40.0","","68","","0.0","","34","","26","","","","101.48","","","","-53","","NA"
"-100.27","70.63","GATESHEAD ISLAND","2402332","2019-01-24 05:00","2019","01","24","05:00","-36.1","","-39.9","","68","","0.0","","34","","26","","","","101.51","","","","-53","","NA"
"-100.27","70.63","GATESHEAD ISLAND","2402332","2019-01-24 06:00","2019","01","24","06:00","-36.7","","-40.5","","68","","0.0","","35","","22","","","","101.53","","","","-52","","NA"
"-100.27","70.63","GATESHEAD ISLAND","2402332","2019-01-24 07:00","2019","01","24","07:00","-36.3","","-40.1","","68","","0.0","","34","","23","","","","101.52","","","","-52","","NA"
"-100.27","70.63","GATESHEAD ISLAND","2402332","2019-01-24 08:00","2019","01","24","08:00","-37.0","","-40.9","","67","","0.0","","33","","19","","","","101.56","","","","-52","","NA"
"-100.27","70.63","GATESHEAD ISLAND","2402332","2019-01-24 09:00","2019","01","24","09:00","-37.5","","-41.5","","67","","0.0","","33","","18","","","","101.61","","","","-52","","NA"
"-100.27","70.63","GATESHEAD ISLAND","2402332","2019-01-24 10:00","2019","01","24","10:00","-38.0","","-41.9","","66","","0.0","","33","","17","","","","101.63","","","","-52","","NA"
"-100.27","70.63","GATESHEAD ISLAND","2402332","2019-01-24 11:00","2019","01","24","11:00","-38.1","","-42.1","","66","","0.0","","34","","17","","","","101.66","","","","-52","","NA"
"-100.27","70.63","GATESHEAD ISLAND","2402332","2019-01-24 12:00","2019","01","24","12:00","-38.2","","-42.2","","66","","0.0","","34","","19","","","","101.66","","","","-53","","NA"
"-100.27","70.63","GATESHEAD ISLAND","2402332","2019-01-24 13:00","2019","01","24","13:00","-38.8","","-42.9","","65","","0.0","","35","","15","","","","101.67","","","","-52","","NA"
"-100.27","70.63","GATESHEAD ISLAND","2402332","2019-01-24 14:00","2019","01","24","14:00","-39.1","","-43.2","","65","","0.0","","36","","13","","","","101.69","","","","-52","","NA"
"-100.27","70.63","GATESHEAD ISLAND","2402332","2019-01-24 15:00","2019","01","24","15:00","-39.3","","-43.5","","65","","0.0","","34","","11","","","","101.72","","","","-51","","NA"
"-100.27","70.63","GATESHEAD ISLAND","2402332","2019-01-24 16:00","2019","01","24","16:00","-39.6","","-43.7","","65","","0.0","","35","","11","","","","101.77","","","","-51","","NA"
"-100.27","70.63","GATESHEAD ISLAND","2402332","2019-01-24 17:00","2019","01","24","17:00","-39.5","","-43.6","","65","","0.0","","35","","10","","","","101.79","","","","-51","","NA"
"-100.27","70.63","GATESHEAD ISLAND","2402332","2019-01-24 18:00","2019","01","24","18:00","-40.0","","-44.2","","64","","0.0","","32","","8","","","","101.81","","","","-50","","NA"
"-100.27","70.63","GATESHEAD ISLAND","2402332","2019-01-24 19:00","2019","01","24","19:00","-39.7","","-43.9","","64","","0.0","","2","","11","","","","101.81","","","","-51","","NA"
"-100.27","70.63","GATESHEAD ISLAND","2402332","2019-01-24 20:00","2019","01","24","20:00","-39.9","","-44.1","","64","","0.0","","2","","6","","","","101.82","","","","-48","","NA"
"-100.27","70.63","GATESHEAD ISLAND","2402332","2019-01-24 21:00","2019","01","24","21:00","-40.1","","-44.3","","64","","0.0","","33","","5","","","","101.83","","","","-47","","NA"
"-100.27","70.63","GATESHEAD ISLAND","2402332","2019-01-24 22:00","2019","01","24","22:00","-40.3","","-44.5","","64","","0.0","","31","","3","","","","101.86","","","","-45","","NA"
"-100.27","70.63","GATESHEAD ISLAND","2402332","2019-01-24 23:00","2019","01","24","23:00","-39.7","","-44.0","","64","","0.0","","0","","1","","","","101.88","","","","-41","","NA"
"-100.27","70.63","GATESHEAD ISLAND","2402332","2019-01-25 00:00","2019","01","25","00:00","-39.7","","-43.9","","64","","0.0","","32","","1","","","","101.90","","","","-41","","NA"
"-100.27","70.63","GATESHEAD ISLAND","2402332","2019-01-25 01:00","2019","01","25","01:00","-39.8","","-44.0","","64","","0.0","","11","","6","","","","101.92","","","","-48","","NA"
"-100.27","70.63","GATESHEAD ISLAND","2402332","2019-01-25 02:00","2019","01","25","02:00","-39.3","","-43.4","","65","","0.0","","16","","7","","","","101.95","","","","-48","","NA"
"-100.27","70.63","GATESHEAD ISLAND","2402332","2019-01-25 03:00","2019","01","25","03:00","-39.1","","-43.2","","65","","0.0","","17","","7","","","","101.98","","","","-48","","NA"
"-100.27","70.63","GATESHEAD ISLAND","2402332","2019-01-25 04:00","2019","01","25","04:00","-38.9","","-43.0","","65","","0.0","","19","","7","","","","102.00","","","","-48","","NA"
"-100.27","70.63","GATESHEAD ISLAND","2402332","2019-01-25 05:00","2019","01","25","05:00","-39.1","","-43.2","","65","","0.0","","19","","6","","","","102.02","","","","-47","","NA"
"-100.27","70.63","GATESHEAD ISLAND","2402332","2019-01-25 06:00","2019","01","25","06:00","-39.0","","-43.1","","65","","0.0","","18","","10","","","","101.97","","","","-50","","NA"
"-100.27","70.63","GATESHEAD ISLAND","2402332","2019-01-25 07:00","2019","01","25","07:00","-39.1","","-43.3","","65","","0.0","","20","","8","","","","102.01","","","","-49","","NA"
"-100.27","70.63","GATESHEAD ISLAND","2402332","2019-01-25 08:00","2019","01","25","08:00","-39.0","","-43.1","","65","","0.0","","17","","10","","","","102.02","","","","-50","","NA"
"-100.27","70.63","GATESHEAD ISLAND","2402332","2019-01-25 09:00","2019","01","25","09:00","-39.4","","-43.5","","65","","0.0","","17","","11","","","","102.00","","","","-51","","NA"
"-100.27","70.63","GATESHEAD ISLAND","2402332","2019-01-25 10:00","2019","01","25","10:00","-39.2","","-43.3","","65","","0.0","","18","","10","","","","102.00","","","","-50","","NA"
"-100.27","70.63","GATESHEAD ISLAND","2402332","2019-01-25 11:00","2019","01","25","11:00","-39.2","","-43.4","","65","","0.0","","18","","12","","","","101.99","","","","-51","","NA"
"-100.27","70.63","GATESHEAD ISLAND","2402332","2019-01-25 12:00","2019","01","25","12:00","-39.1","","-43.3","","65","","0.0","","19","","12","","","","101.96","","","","-51","","NA"
"-100.27","70.63","GATESHEAD ISLAND","2402332","2019-01-25 13:00","2019","01","25","13:00","-39.3","","-43.5","","65","","0.0","","19","","11","","","","101.93","","","","-51","","NA"
"-100.27","70.63","GATESHEAD ISLAND","2402332","2019-01-25 14:00","2019","01","25","14:00","-39.5","","-43.6","","65","","0.0","","15","","9","","","","101.91","","","","-50","","NA"
"-100.27","70.63","GATESHEAD ISLAND","2402332","2019-01-25 15:00","2019","01","25","15:00","-39.4","","-43.6","","65","","0.0","","16","","12","","","","101.90","","","","-52","","NA"
"-100.27","70.63","GATESHEAD ISLAND","2402332","2019-01-25 16:00","2019","01","25","16:00","-39.8","","-43.9","","64","","0.0","","17","","11","","","","101.88","","","","-51","","NA"
"-100.27","70.63","GATESHEAD ISLAND","2402332","2019-01-25 17:00","2019","01","25","17:00","-39.6","","-43.8","","65","","0.0","","17","","13","","","","101.87","","","","-52","","NA"
"-100.27","70.63","GATESHEAD ISLAND","2402332","2019-01-25 18:00","2019","01","25","18:00","-39.5","","-43.6","","65","","0.0","","17","","13","","","","101.83","","","","-52","","NA"
"-100.27","70.63","GATESHEAD ISLAND","2402332","2019-01-25 19:00","2019","01","25","19:00","-39.5","","-43.6","","65","","0.0","","17","","12","","","","101.80","","","","-52","","NA"
"-100.27","70.63","GATESHEAD ISLAND","2402332","2019-01-25 20:00","2019","01","25","20:00","-39.2","","-43.4","","65","","0.0","","17","","14","","","","101.76","","","","-52","","NA"
"-100.27","70.63","GATESHEAD ISLAND","2402332","2019-01-25 21:00","2019","01","25","21:00","-39.1","","-43.3","","65","","0.0","","16","","16","","","","101.71","","","","-53","","NA"
"-100.27","70.63","GATESHEAD ISLAND","2402332","2019-01-25 22:00","2019","01","25","22:00","-38.5","","-42.6","","66","","0.0","","17","","16","","","","101.68","","","","-52","","NA"
"-100.27","70.63","GATESHEAD ISLAND","2402332","2019-01-25 23:00","2019","01","25","23:00","-38.8","","-42.9","","65","","0.0","","15","","17","","","","101.65","","","","-53","","NA"
"-100.27","70.63","GATESHEAD ISLAND","2402332","2019-01-26 00:00","2019","01","26","00:00","-38.7","","-42.8","","65","","0.0","","15","","15","","","","101.64","","","","-52","","NA"
"-100.27","70.63","GATESHEAD ISLAND","2402332","2019-01-26 01:00","2019","01","26","01:00","-38.5","","-42.6","","66","","0.0","","16","","13","","","","101.63","","","","-51","","NA"
"-100.27","70.63","GATESHEAD ISLAND","2402332","2019-01-26 02:00","2019","01","26","02:00","-38.9","","-43.0","","65","","0.0","","14","","14","","","","101.60","","","","-52","","NA"
"-100.27","70.63","GATESHEAD ISLAND","2402332","2019-01-26 03:00","2019","01","26","03:00","-38.8","","-42.9","","65","","0.0","","15","","17","","","","101.54","","","","-53","","NA"
"-100.27","70.63","GATESHEAD ISLAND","2402332","2019-01-26 04:00","2019","01","26","04:00","-38.5","","-42.6","","66","","0.0","","14","","19","","","","101.48","","","","-53","","NA"
"-100.27","70.63","GATESHEAD ISLAND","2402332","2019-01-26 05:00","2019","01","26","05:00","-38.4","","-42.5","","66","","0.0","","14","","18","","","","101.44","","","","-53","","NA"
"-100.27","70.63","GATESHEAD ISLAND","2402332","2019-01-26 06:00","2019","01","26","06:00","-38.6","","-42.6","","65","","0.0","","14","","14","","","","101.43","","","","-52","","NA"
"-100.27","70.63","GATESHEAD ISLAND","2402332","2019-01-26 07:00","2019","01","26","07:00","-38.6","","-42.7","","65","","0.0","","14","","14","","","","101.38","","","","-52","","NA"
"-100.27","70.63","GATESHEAD ISLAND","2402332","2019-01-26 08:00","2019","01","26","08:00","-38.7","","-42.8","","65","","0.0","","13","","15","","","","101.33","","","","-52","","NA"
"-100.27","70.63","GATESHEAD ISLAND","2402332","2019-01-26 09:00","2019","01","26","09:00","-38.5","","-42.6","","66","","0.0","","13","","14","","","","101.29","","","","-51","","NA"
"-100.27","70.63","GATESHEAD ISLAND","2402332","2019-01-26 10:00","2019","01","26","10:00","-38.3","","-42.4","","66","","0.0","","13","","13","","","","101.26","","","","-51","","NA"
"-100.27","70.63","GATESHEAD ISLAND","2402332","2019-01-26 11:00","2019","01","26","11:00","-37.7","","-41.7","","66","","0.0","","13","","14","","","","101.20","","","","-50","","NA"
"-100.27","70.63","GATESHEAD ISLAND","2402332","2019-01-26 12:00","2019","01","26","12:00","-37.5","","-41.5","","67","","0.0","","13","","15","","","","101.13","","","","-51","","NA"
"-100.27","70.63","GATESHEAD ISLAND","2402332","2019-01-26 13:00","2019","01","26","13:00","-37.5","","-41.5","","67","","0.0","","12","","14","","","","101.11","","","","-50","","NA"
"-100.27","70.63","GATESHEAD ISLAND","2402332","2019-01-26 14:00","2019","01","26","14:00","-37.6","","-41.6","","66","","0.0","","12","","18","","","","101.04","","","","-52","","NA"
"-100.27","70.63","GATESHEAD ISLAND","2402332","2019-01-26 15:00","2019","01","26","15:00","-37.4","","-41.4","","67","","0.0","","13","","13","","","","101.02","","","","-50","","NA"
"-100.27","70.63","GATESHEAD ISLAND","2402332","2019-01-26 16:00","2019","01","26","16:00","-37.6","","-41.5","","67","","0.0","","13","","11","","","","101.01","","","","-49","","NA"
"-100.27","70.63","GATESHEAD ISLAND","2402332","2019-01-26 17:00","2019","01","26","17:00","-37.6","","-41.6","","66","","0.0","","13","","14","","","","100.96","","","","-50","","NA"
"-100.27","70.63","GATESHEAD ISLAND","2402332","2019-01-26 18:00","2019","01","26","18:00","-38.0","","-42.0","","66","","0.0","","12","","14","","","","100.90","","","","-51","","NA"
"-100.27","70.63","GATESHEAD ISLAND","2402332","2019-01-26 19:00","2019","01","26","19:00","-38.1","","-42.1","","66","","0.0","","13","","13","","","","100.88","","","","-50","","NA"
"-100.27","70.63","GATESHEAD ISLAND","2402332","2019-01-26 20:00","2019","01","26","20:00","-38.4","","-42.5","","66","","0.0","","12","","11","","","","100.85","","","","-50","","NA"
"-100.27","70.63","GATESHEAD ISLAND","2402332","2019-01-26 21:00","2019","01","26","21:00","-38.3","","-42.3","","66","","0.0","","11","","8","","","","100.83","","","","-48","","NA"
"-100.27","70.63","GATESHEAD ISLAND","2402332","2019-01-26 22:00","2019","01","26","22:00","-38.1","","-42.1","","66","","0.0","","11","","7","","","","100.81","","","","-47","","NA"
"-100.27","70.63","GATESHEAD ISLAND","2402332","2019-01-26 23:00","2019","01","26","23:00","-37.9","","-41.8","","66","","0.0","","10","","5","","","","100.80","","","","-45","","NA"
"-100.27","70.63","GATESHEAD ISLAND","2402332","2019-01-27 00:00","2019","01","27","00:00","-37.5","","-41.4","","67","","0.0","","9","","6","","","","100.81","","","","-45","","NA"
"-100.27","70.63","GATESHEAD ISLAND","2402332","2019-01-27 01:00","2019","01","27","01:00","-37.6","","-41.6","","66","","0.0","","6","","5","","","","100.81","","","","-44","","NA"
"-100.27","70.63","GATESHEAD ISLAND","2402332","2019-01-27 02:00","2019","01","27","02:00","-37.8","","-41.8","","66","","0.0","","4","","6","","","","100.84","","","","-45","","NA"
"-100.27","70.63","GATESHEAD ISLAND","2402332","2019-01-27 03:00","2019","01","27","03:00","-38.1","","-42.1","","66","","0.0","","4","","7","","","","100.86","","","","-47","","NA"
"-100.27","70.63","GATESHEAD ISLAND","2402332","2019-01-27 04:00","2019","01","27","04:00","-37.7","","-41.6","","67","","0.0","","35","","9","","","","100.89","","","","-48","","NA"
"-100.27","70.63","GATESHEAD ISLAND","2402332","2019-01-27 05:00","2019","01","27","05:00","-37.6","","-41.5","","66","","0.0","","35","","14","","","","100.93","","","","-50","","NA"
"-100.27","70.63","GATESHEAD ISLAND","2402332","2019-01-27 06:00","2019","01","27","06:00","-37.9","","-41.9","","66","","0.0","","35","","19","","","","100.96","","","","-53","","NA"
"-100.27","70.63","GATESHEAD ISLAND","2402332","2019-01-27 07:00","2019","01","27","07:00","-37.8","","-41.8","","66","","0.0","","36","","20","","","","101.05","","","","-53","","NA"
"-100.27","70.63","GATESHEAD ISLAND","2402332","2019-01-27 08:00","2019","01","27","08:00","-37.2","","-41.1","","67","","0.0","","36","","19","","","","101.07","","","","-52","","NA"
"-100.27","70.63","GATESHEAD ISLAND","2402332","2019-01-27 09:00","2019","01","27","09:00","-37.5","","-41.4","","67","","0.0","","35","","24","","","","101.13","","","","-54","","NA"
"-100.27","70.63","GATESHEAD ISLAND","2402332","2019-01-27 10:00","2019","01","27","10:00","-38.1","","-42.1","","66","","0.0","","36","","23","","","","101.21","","","","-54","","NA"
"-100.27","70.63","GATESHEAD ISLAND","2402332","2019-01-27 11:00","2019","01","27","11:00","-38.4","","-42.5","","66","","0.0","","36","","26","","","","101.28","","","","-56","","NA"
"-100.27","70.63","GATESHEAD ISLAND","2402332","2019-01-27 12:00","2019","01","27","12:00","-38.8","","-42.9","","65","","0.0","","35","","26","","","","101.35","","","","-56","","NA"
"-100.27","70.63","GATESHEAD ISLAND","2402332","2019-01-27 13:00","2019","01","27","13:00","-39.1","","-43.2","","65","","0.0","","35","","27","","","","101.43","","","","-57","","NA"
"-100.27","70.63","GATESHEAD ISLAND","2402332","2019-01-27 14:00","2019","01","27","14:00","-39.3","","-43.4","","65","","0.0","","35","","26","","","","101.52","","","","-57","","NA"
"-100.27","70.63","GATESHEAD ISLAND","2402332","2019-01-27 15:00","2019","01","27","15:00","-39.6","","-43.7","","65","","0.0","","34","","28","","","","101.60","","","","-58","","NA"
"-100.27","70.63","GATESHEAD ISLAND","2402332","2019-01-27 16:00","2019","01","27","16:00","-39.3","","-43.4","","65","","0.0","","34","","28","","","","101.67","","","","-57","","NA"
"-100.27","70.63","GATESHEAD ISLAND","2402332","2019-01-27 17:00","2019","01","27","17:00","-39.2","","-43.4","","65","","0.0","","34","","29","","","","101.76","","","","-57","","NA"
"-100.27","70.63","GATESHEAD ISLAND","2402332","2019-01-27 18:00","2019","01","27","18:00","-39.0","","-43.1","","65","","0.0","","34","","29","","","","101.83","","","","-57","","NA"
"-100.27","70.63","GATESHEAD ISLAND","2402332","2019-01-27 19:00","2019","01","27","19:00","-38.3","","-42.3","","66","","0.0","","34","","34","","","","101.88","","","","-57","","NA"
"-100.27","70.63","GATESHEAD ISLAND","2402332","2019-01-27 20:00","2019","01","27","20:00","-38.2","","-42.2","","66","","0.0","","34","","33","","","","101.92","","","","-57","","NA"
"-100.27","70.63","GATESHEAD ISLAND","2402332","2019-01-27 21:00","2019","01","27","21:00","-37.6","","-41.6","","66","","0.0","","33","","33","","","","101.98","","","","-56","","NA"
"-100.27","70.63","GATESHEAD ISLAND","2402332","2019-01-27 22:00","2019","01","27","22:00","-37.4","","-41.4","","67","","0.0","","34","","36","","","","102.03","","","","-57","","NA"
"-100.27","70.63","GATESHEAD ISLAND","2402332","2019-01-27 23:00","2019","01","27","23:00","-37.4","","-41.3","","67","","0.0","","34","","35","","","","102.07","","","","-56","","NA"
"-100.27","70.63","GATESHEAD ISLAND","2402332","2019-01-28 00:00","2019","01","28","00:00","-36.8","","-40.7","","67","","0.0","","34","","34","","","","102.10","","","","-55","","NA"
"-100.27","70.63","GATESHEAD ISLAND","2402332","2019-01-28 01:00","2019","01","28","01:00","-36.7","","-40.5","","67","","0.0","","34","","28","","","","102.18","","","","-54","","NA"
"-100.27","70.63","GATESHEAD ISLAND","2402332","2019-01-28 02:00","2019","01","28","02:00","-36.6","","-40.5","","67","","0.0","","33","","28","","","","102.19","","","","-54","","NA"
"-100.27","70.63","GATESHEAD ISLAND","2402332","2019-01-28 03:00","2019","01","28","03:00","-36.9","","-40.7","","67","","0.0","","33","","33","","","","102.20","","","","-55","","NA"
"-100.27","70.63","GATESHEAD ISLAND","2402332","2019-01-28 04:00","2019","01","28","04:00","-36.6","","-40.4","","67","","0.0","","33","","30","","","","102.21","","","","-54","","NA"
"-100.27","70.63","GATESHEAD ISLAND","2402332","2019-01-28 05:00","2019","01","28","05:00","-36.2","","-40.0","","68","","0.0","","33","","32","","","","102.25","","","","-54","","NA"
"-100.27","70.63","GATESHEAD ISLAND","2402332","2019-01-28 06:00","2019","01","28","06:00","-36.0","","-39.7","","68","","0.0","","33","","32","","","","102.27","","","","-54","","NA"
"-100.27","70.63","GATESHEAD ISLAND","2402332","2019-01-28 07:00","2019","01","28","07:00","-36.0","","-39.8","","68","","0.0","","34","","32","","","","102.29","","","","-54","","NA"
"-100.27","70.63","GATESHEAD ISLAND","2402332","2019-01-28 08:00","2019","01","28","08:00","-35.9","","-39.6","","68","","0.0","","34","","36","","","","102.30","","","","-55","","NA"
"-100.27","70.63","GATESHEAD ISLAND","2402332","2019-01-28 09:00","2019","01","28","09:00","-36.2","","-40.0","","68","","0.0","","34","","33","","","","102.33","","","","-54","","NA"
"-100.27","70.63","GATESHEAD ISLAND","2402332","2019-01-28 10:00","2019","01","28","10:00","-36.1","","-39.9","","68","","0.0","","34","","31","","","","102.32","","","","-54","","NA"
"-100.27","70.63","GATESHEAD ISLAND","2402332","2019-01-28 11:00","2019","01","28","11:00","-36.3","","-40.1","","68","","0.0","","34","","31","","","","102.34","","","","-54","","NA"
"-100.27","70.63","GATESHEAD ISLAND","2402332","2019-01-28 12:00","2019","01","28","12:00","-36.6","","-40.4","","68","","0.0","","34","","31","","","","102.37","","","","-54","","NA"
"-100.27","70.63","GATESHEAD ISLAND","2402332","2019-01-28 13:00","2019","01","28","13:00","-36.6","","-40.4","","68","","0.0","","34","","35","","","","102.40","","","","-55","","NA"
"-100.27","70.63","GATESHEAD ISLAND","2402332","2019-01-28 14:00","2019","01","28","14:00","-36.9","","-40.8","","67","","0.0","","34","","31","","","","102.45","","","","-55","","NA"
"-100.27","70.63","GATESHEAD ISLAND","2402332","2019-01-28 15:00","2019","01","28","15:00","-36.8","","-40.7","","67","","0.0","","33","","30","","","","102.45","","","","-54","","NA"
"-100.27","70.63","GATESHEAD ISLAND","2402332","2019-01-28 16:00","2019","01","28","16:00","-36.7","","-40.6","","67","","0.0","","33","","34","","","","102.44","","","","-55","","NA"
"-100.27","70.63","GATESHEAD ISLAND","2402332","2019-01-28 17:00","2019","01","28","17:00","-36.9","","-40.8","","67","","0.0","","34","","31","","","","102.47","","","","-55","","NA"
"-100.27","70.63","GATESHEAD ISLAND","2402332","2019-01-28 18:00","2019","01","28","18:00","-37.0","","-40.9","","67","","0.0","","33","","26","","","","102.46","","","","-54","","NA"
"-100.27","70.63","GATESHEAD ISLAND","2402332","2019-01-28 19:00","2019","01","28","19:00","-37.1","","-41.0","","67","","0.0","","33","","27","","","","102.46","","","","-54","","NA"
"-100.27","70.63","GATESHEAD ISLAND","2402332","2019-01-28 20:00","2019","01","28","20:00","-37.2","","-41.1","","67","","0.0","","34","","24","","","","102.46","","","","-53","","NA"
"-100.27","70.63","GATESHEAD ISLAND","2402332","2019-01-28 21:00","2019","01","28","21:00","-37.5","","-41.5","","67","","0.0","","34","","26","","","","102.45","","","","-54","","NA"
"-100.27","70.63","GATESHEAD ISLAND","2402332","2019-01-28 22:00","2019","01","28","22:00","-37.8","","-41.7","","66","","0.0","","34","","25","","","","102.44","","","","-54","","NA"
"-100.27","70.63","GATESHEAD ISLAND","2402332","2019-01-28 23:00","2019","01","28","23:00","-38.0","","-42.0","","66","","0.0","","34","","25","","","","102.44","","","","-55","","NA"
"-100.27","70.63","GATESHEAD ISLAND","2402332","2019-01-29 00:00","2019","01","29","00:00","-38.1","","-42.1","","66","","0.0","","33","","20","","","","102.43","","","","-53","","NA"
"-100.27","70.63","GATESHEAD ISLAND","2402332","2019-01-29 01:00","2019","01","29","01:00","-37.7","","-41.7","","66","","0.0","","34","","23","","","","102.45","","","","-54","","NA"
"-100.27","70.63","GATESHEAD ISLAND","2402332","2019-01-29 02:00","2019","01","29","02:00","-37.4","","-41.3","","67","","0.0","","34","","26","","","","102.47","","","","-54","","NA"
"-100.27","70.63","GATESHEAD ISLAND","2402332","2019-01-29 03:00","2019","01","29","03:00","-37.2","","-41.1","","67","","0.0","","33","","25","","","","102.46","","","","-54","","NA"
"-100.27","70.63","GATESHEAD ISLAND","2402332","2019-01-29 04:00","2019","01","29","04:00","-37.4","","-41.4","","67","","0.0","","34","","25","","","","102.46","","","","-54","","NA"
"-100.27","70.63","GATESHEAD ISLAND","2402332","2019-01-29 05:00","2019","01","29","05:00","-37.3","","-41.2","","67","","0.0","","33","","29","","","","102.43","","","","-55","","NA"
"-100.27","70.63","GATESHEAD ISLAND","2402332","2019-01-29 06:00","2019","01","29","06:00","-36.9","","-40.8","","67","","0.0","","34","","25","","","","102.44","","","","-53","","NA"
"-100.27","70.63","GATESHEAD ISLAND","2402332","2019-01-29 07:00","2019","01","29","07:00","-36.4","","-40.3","","68","","0.0","","34","","28","","","","102.41","","","","-53","","NA"
"-100.27","70.63","GATESHEAD ISLAND","2402332","2019-01-29 08:00","2019","01","29","08:00","-36.2","","-40.1","","68","","0.0","","34","","25","","","","102.37","","","","-52","","NA"
"-100.27","70.63","GATESHEAD ISLAND","2402332","2019-01-29 09:00","2019","01","29","09:00","-36.1","","-39.9","","68","","0.0","","34","","24","","","","102.37","","","","-52","","NA"
"-100.27","70.63","GATESHEAD ISLAND","2402332","2019-01-29 10:00","2019","01","29","10:00","-36.2","","-40.0","","68","","0.0","","33","","21","","","","102.35","","","","-51","","NA"
"-100.27","70.63","GATESHEAD ISLAND","2402332","2019-01-29 11:00","2019","01","29","11:00","-36.5","","-40.3","","68","","0.0","","33","","15","","","","102.33","","","","-49","","NA"
"-100.27","70.63","GATESHEAD ISLAND","2402332","2019-01-29 12:00","2019","01","29","12:00","-36.4","","-40.2","","68","","0.0","","33","","19","","","","102.33","","","","-51","","NA"
"-100.27","70.63","GATESHEAD ISLAND","2402332","2019-01-29 13:00","2019","01","29","13:00","-37.0","","-40.9","","67","","0.0","","33","","17","","","","102.30","","","","-51","","NA"
"-100.27","70.63","GATESHEAD ISLAND","2402332","2019-01-29 14:00","2019","01","29","14:00","-36.9","","-40.7","","67","","0.0","","34","","15","","","","102.28","","","","-50","","NA"
"-100.27","70.63","GATESHEAD ISLAND","2402332","2019-01-29 15:00","2019","01","29","15:00","-36.7","","-40.5","","68","","0.0","","34","","13","","","","102.29","","","","-49","","NA"
"-100.27","70.63","GATESHEAD ISLAND","2402332","2019-01-29 16:00","2019","01","29","16:00","-36.3","","-40.1","","68","","0.0","","35","","20","","","","102.27","","","","-51","","NA"
"-100.27","70.63","GATESHEAD ISLAND","2402332","2019-01-29 17:00","2019","01","29","17:00","-35.4","","-39.1","","69","","0.0","","34","","17","","","","102.29","","","","-49","","NA"
"-100.27","70.63","GATESHEAD ISLAND","2402332","2019-01-29 18:00","2019","01","29","18:00","-34.7","","-38.3","","70","","0.0","","34","","16","","","","102.24","","","","-48","","NA"
"-100.27","70.63","GATESHEAD ISLAND","2402332","2019-01-29 19:00","2019","01","29","19:00","-34.6","","-38.2","","70","","0.0","","35","","11","","","","102.20","","","","-45","","NA"
"-100.27","70.63","GATESHEAD ISLAND","2402332","2019-01-29 20:00","2019","01","29","20:00","-35.0","","-38.7","","69","","0.0","","35","","11","","","","102.16","","","","-46","","NA"
"-100.27","70.63","GATESHEAD ISLAND","2402332","2019-01-29 21:00","2019","01","29","21:00","-35.6","","-39.3","","69","","0.0","","34","","10","","","","102.14","","","","-46","","NA"
"-100.27","70.63","GATESHEAD ISLAND","2402332","2019-01-29 22:00","2019","01","29","22:00","-36.3","","-40.1","","68","","0.0","","36","","12","","","","102.12","","","","-48","","NA"
"-100.27","70.63","GATESHEAD ISLAND","2402332","2019-01-29 23:00","2019","01","29","23:00","-36.3","","-40.0","","68","","0.0","","3","","11","","","","102.13","","","","-47","","NA"
"-100.27","70.63","GATESHEAD ISLAND","2402332","2019-01-30 00:00","2019","01","30","00:00","-36.9","","-40.7","","67","","0.0","","2","","6","","","","102.11","","","","-44","","NA"
"-100.27","70.63","GATESHEAD ISLAND","2402332","2019-01-30 01:00","2019","01","30","01:00","-37.6","","-41.5","","67","","0.0","","31","","5","","","","102.11","","","","-44","","NA"
"-100.27","70.63","GATESHEAD ISLAND","2402332","2019-01-30 02:00","2019","01","30","02:00","-37.6","","-41.5","","66","","0.0","","35","","4","","","","102.09","","","","-43","","NA"
"-100.27","70.63","GATESHEAD ISLAND","2402332","2019-01-30 03:00","2019","01","30","03:00","-37.5","","-41.5","","67","","0.0","","36","","5","","","","102.10","","","","-44","","NA"
"-100.27","70.63","GATESHEAD ISLAND","2402332","2019-01-30 04:00","2019","01","30","04:00","-37.6","","-41.6","","67","","0.0","","36","","3","","","","102.09","","","","-42","","NA"
"-100.27","70.63","GATESHEAD ISLAND","2402332","2019-01-30 05:00","2019","01","30","05:00","-37.7","","-41.7","","67","","0.0","","10","","2","","","","102.08","","","","-40","","NA"
"-100.27","70.63","GATESHEAD ISLAND","2402332","2019-01-30 06:00","2019","01","30","06:00","-37.8","","-41.7","","67","","0.0","","11","","4","","","","102.08","","","","-43","","NA"
"-100.27","70.63","GATESHEAD ISLAND","2402332","2019-01-30 07:00","2019","01","30","07:00","-38.0","","-42.0","","66","","0.0","","12","","7","","","","102.07","","","","-47","","NA"
"-100.27","70.63","GATESHEAD ISLAND","2402332","2019-01-30 08:00","2019","01","30","08:00","-37.2","","-41.1","","67","","0.0","","16","","3","","","","102.05","","","","-41","","NA"
"-100.27","70.63","GATESHEAD ISLAND","2402332","2019-01-30 09:00","2019","01","30","09:00","-37.2","","-41.1","","67","","0.0","","15","","4","","","","102.06","","","","-42","","NA"
"-100.27","70.63","GATESHEAD ISLAND","2402332","2019-01-30 10:00","2019","01","30","10:00","-37.3","","-41.2","","67","","0.0","","23","","3","","","","102.06","","","","-41","","NA"
"-100.27","70.63","GATESHEAD ISLAND","2402332","2019-01-30 11:00","2019","01","30","11:00","-36.9","","-40.8","","68","","0.0","","15","","4","","","","102.05","","","","-42","","NA"
"-100.27","70.63","GATESHEAD ISLAND","2402332","2019-01-30 12:00","2019","01","30","12:00","-37.3","","-41.2","","67","","0.0","","14","","5","","","","102.07","","","","-44","","NA"
"-100.27","70.63","GATESHEAD ISLAND","2402332","2019-01-30 13:00","2019","01","30","13:00","-36.9","","-40.8","","67","","0.0","","14","","7","","","","102.08","","","","-45","","NA"
"-100.27","70.63","GATESHEAD ISLAND","2402332","2019-01-30 14:00","2019","01","30","14:00","-37.2","","-41.2","","67","","0.0","","14","","6","","","","102.10","","","","-45","","NA"
"-100.27","70.63","GATESHEAD ISLAND","2402332","2019-01-30 15:00","2019","01","30","15:00","-37.6","","-41.5","","67","","0.0","","12","","8","","","","102.12","","","","-47","","NA"
"-100.27","70.63","GATESHEAD ISLAND","2402332","2019-01-30 16:00","2019","01","30","16:00","-37.7","","-41.6","","67","","0.0","","13","","10","","","","102.13","","","","-48","","NA"
"-100.27","70.63","GATESHEAD ISLAND","2402332","2019-01-30 17:00","2019","01","30","17:00","-37.4","","-41.3","","67","","0.0","","14","","10","","","","102.13","","","","-48","","NA"
"-100.27","70.63","GATESHEAD ISLAND","2402332","2019-01-30 18:00","2019","01","30","18:00","-37.6","","-41.6","","67","","0.0","","13","","8","","","","102.13","","","","-47","","NA"
"-100.27","70.63","GATESHEAD ISLAND","2402332","2019-01-30 19:00","2019","01","30","19:00","-37.3","","-41.1","","67","","0.0","","16","","6","","","","102.13","","","","-45","","NA"
"-100.27","70.63","GATESHEAD ISLAND","2402332","2019-01-30 20:00","2019","01","30","20:00","-37.2","","-41.0","","67","","0.0","","15","","7","","","","102.14","","","","-46","","NA"
"-100.27","70.63","GATESHEAD ISLAND","2402332","2019-01-30 21:00","2019","01","30","21:00","-37.4","","-41.3","","67","","0.0","","15","","8","","","","102.14","","","","-47","","NA"
"-100.27","70.63","GATESHEAD ISLAND","2402332","2019-01-30 22:00","2019","01","30","22:00","-37.3","","-41.2","","67","","0.0","","13","","9","","","","102.15","","","","-47","","NA"
"-100.27","70.63","GATESHEAD ISLAND","2402332","2019-01-30 23:00","2019","01","30","23:00","-37.8","","-41.7","","66","","0.0","","12","","10","","","","102.18","","","","-48","","NA"
"-100.27","70.63","GATESHEAD ISLAND","2402332","2019-01-31 00:00","2019","01","31","00:00","-37.3","","-41.2","","67","","0.0","","13","","9","","","","102.18","","","","-47","","NA"
"-100.27","70.63","GATESHEAD ISLAND","2402332","2019-01-31 01:00","2019","01","31","01:00","-37.3","","-41.3","","67","","0.0","","11","","9","","","","102.20","","","","-47","","NA"
"-100.27","70.63","GATESHEAD ISLAND","2402332","2019-01-31 02:00","2019","01","31","02:00","-36.9","","-40.7","","67","","0.0","","10","","8","","","","102.22","","","","-46","","NA"
"-100.27","70.63","GATESHEAD ISLAND","2402332","2019-01-31 03:00","2019","01","31","03:00","-36.7","","-40.6","","67","","0.0","","10","","9","","","","102.23","","","","-47","","NA"
"-100.27","70.63","GATESHEAD ISLAND","2402332","2019-01-31 04:00","2019","01","31","04:00","-36.5","","-40.3","","68","","0.0","","11","","8","","","","102.24","","","","-46","","NA"
"-100.27","70.63","GATESHEAD ISLAND","2402332","2019-01-31 05:00","2019","01","31","05:00","-37.0","","-40.8","","67","","0.0","","9","","8","","","","102.24","","","","-46","","NA"
"-100.27","70.63","GATESHEAD ISLAND","2402332","2019-01-31 06:00","2019","01","31","06:00","-37.0","","-40.9","","67","","0.0","","11","","8","","","","102.23","","","","-46","","NA"
"-100.27","70.63","GATESHEAD ISLAND","2402332","2019-01-31 07:00","2019","01","31","07:00","-37.1","","-41.0","","67","","0.0","","10","","7","","","","102.25","","","","-46","","NA"
"-100.27","70.63","GATESHEAD ISLAND","2402332","2019-01-31 08:00","2019","01","31","08:00","-37.1","","-40.9","","67","","0.0","","11","","5","","","","102.25","","","","-44","","NA"
"-100.27","70.63","GATESHEAD ISLAND","2402332","2019-01-31 09:00","2019","01","31","09:00","-37.1","","-41.0","","67","","0.0","","9","","5","","","","102.29","","","","-44","","NA"
"-100.27","70.63","GATESHEAD ISLAND","2402332","2019-01-31 10:00","2019","01","31","10:00","-36.9","","-40.7","","67","","0.0","","9","","4","","","","102.32","","","","-42","","NA"
"-100.27","70.63","GATESHEAD ISLAND","2402332","2019-01-31 11:00","2019","01","31","11:00","-36.4","","-40.3","","68","","0.0","","6","","3","","","","102.32","","","","-40","","NA"
"-100.27","70.63","GATESHEAD ISLAND","2402332","2019-01-31 12:00","2019","01","31","12:00","-36.6","","-40.5","","68","","0.0","","2","","6","","","","102.33","","","","-44","","NA"
"-100.27","70.63","GATESHEAD ISLAND","2402332","2019-01-31 13:00","2019","01","31","13:00","-36.5","","-40.4","","68","","0.0","","2","","10","","","","102.34","","","","-47","","NA"
"-100.27","70.63","GATESHEAD ISLAND","2402332","2019-01-31 14:00","2019","01","31","14:00","-36.2","","-40.0","","68","","0.0","","4","","9","","","","102.35","","","","-46","","NA"
"-100.27","70.63","GATESHEAD ISLAND","2402332","2019-01-31 15:00","2019","01","31","15:00","-36.4","","-40.2","","68","","0.0","","2","","11","","","","102.37","","","","-47","","NA"
"-100.27","70.63","GATESHEAD ISLAND","2402332","2019-01-31 16:00","2019","01","31","16:00","-36.1","","-39.8","","68","","0.0","","1","","9","","","","102.38","","","","-46","","NA"
"-100.27","70.63","GATESHEAD ISLAND","2402332","2019-01-31 17:00","2019","01","31","17:00","-35.8","","-39.6","","68","","0.0","","2","","8","","","","102.40","","","","-45","","NA"
"-100.27","70.63","GATESHEAD ISLAND","2402332","2019-01-31 18:00","2019","01","31","18:00","-36.1","","-39.9","","68","","0.0","","35","","10","","","","102.37","","","","-46","","NA"
"-100.27","70.63","GATESHEAD ISLAND","2402332","2019-01-31 19:00","2019","01","31","19:00","-36.3","","-40.1","","68","","0.0","","33","","9","","","","102.36","","","","-46","","NA"
"-100.27","70.63","GATESHEAD ISLAND","2402332","2019-01-31 20:00","2019","01","31","20:00","-36.2","","-40.0","","68","","0.0","","33","","14","","","","102.33","","","","-49","","NA"
"-100.27","70.63","GATESHEAD ISLAND","2402332","2019-01-31 21:00","2019","01","31","21:00","-35.8","","-39.6","","68","","0.0","","32","","13","","","","102.35","","","","-48","","NA"
"-100.27","70.63","GATESHEAD ISLAND","2402332","2019-01-31 22:00","2019","01","31","22:00","-34.7","","-38.4","","69","","0.0","","33","","15","","","","102.35","","","","-47","","NA"
"-100.27","70.63","GATESHEAD ISLAND","2402332","2019-01-31 23:00","2019","01","31","23:00","-34.5","","-38.2","","70","","0.0","","34","","16","","","","102.34","","","","-47","","NA"
