"Longitude (x)","Latitude (y)","Station Name","Climate ID","Date/Time (LST)","Year","Month","Day","Time (LST)","Temp (°C)","Temp Flag","Dew Point Temp (°C)","Dew Point Temp Flag","Rel Hum (%)","Rel Hum Flag","Precip. Amount (mm)","Precip. Amount Flag","Wind Dir (10s deg)","Wind Dir Flag","Wind Spd (km/h)","Wind Spd Flag","Visibility (km)","Visibility Flag","Stn Press (kPa)","Stn Press Flag","Hmdx","Hmdx Flag","Wind Chill","Wind Chill Flag","Weather"
"-100.27","70.63","GATESHEAD ISLAND","2402332","2019-04-01 00:00","2019","04","01","00:00","-20.0","","-22.0","","84","","0.0","","9","","9","","","","100.51","","","","-27","","NA"
"-100.27","70.63","GATESHEAD ISLAND","2402332","2019-04-01 01:00","2019","04","01","01:00","-21.1","","-23.2","","83","","0.0","","9","","10","","","","100.51","","","","-29","","NA"
"-100.27","70.63","GATESHEAD ISLAND","2402332","2019-04-01 02:00","2019","04","01","02:00","-21.6","","-23.7","","83","","0.0","","9","","10","","","","100.53","","","","-29","","NA"
"-100.27","70.63","GATESHEAD ISLAND","2402332","2019-04-01 03:00","2019","04","01","03:00","-21.3","","-23.4","","83","","0.0","","8","","11","","","","100.54","","","","-29","","NA"
"-100.27","70.63","GATESHEAD ISLAND","2402332","2019-04-01 04:00","2019","04","01","04:00","-21.7","","-23.9","","83","","0.0","","7","","10","","","","100.56","","","","-29","","NA"
"-100.27","70.63","GATESHEAD ISLAND","2402332","2019-04-01 05:00","2019","04","01","05:00"
"-100.27","70.63","GATESHEAD ISLAND","2402332","2019-04-01 06:00","2019","04","01","06:00"
"-100.27","70.63","GATESHEAD ISLAND","2402332","2019-04-01 07:00","2019","04","01","07:00","-21.8","","-24.0","","83","","0.0","","6","","13","","","","100.67","","","","-31","","NA"
"-100.27","70.63","GATESHEAD ISLAND","2402332","2019-04-01 08:00","2019","04","01","08:00","-20.6","","-22.7","","83","","0.0","","6","","14","","","","100.70","","","","-29","","NA"
"-100.27","70.63","GATESHEAD ISLAND","2402332","2019-04-01 09:00","2019","04","01","09:00","-19.6","","-21.6","","84","","0.0","","4","","18","","","","100.70","","","","-29","","NA"
"-100.27","70.63","GATESHEAD ISLAND","2402332","2019-04-01 10:00","2019","04","01","10:00","-18.6","","-20.4","","85","","0.0","","4","","17","","","","100.73","","","","-28","","NA"
"-100.27","70.63","GATESHEAD ISLAND","2402332","2019-04-01 11:00","2019","04","01","11:00","-18.1","","-20.1","","85","","0.0","","1","","16","","","","100.77","","","","-27","","NA"
"-100.27","70.63","GATESHEAD ISLAND","2402332","2019-04-01 12:00","2019","04","01","12:00","-18.6","","-20.6","","84","","0.0","","3","","13","","","","100.81","","","","-27","","NA"
"-100.27","70.63","GATESHEAD ISLAND","2402332","2019-04-01 13:00","2019","04","01","13:00","-18.0","","-20.0","","85","","0.0","","4","","10","","","","100.87","","","","-25","","NA"
"-100.27","70.63","GATESHEAD ISLAND","2402332","2019-04-01 14:00","2019","04","01","14:00","-17.9","","-19.6","","86","","0.0","","36","","13","","","","100.91","","","","-26","","NA"
"-100.27","70.63","GATESHEAD ISLAND","2402332","2019-04-01 15:00","2019","04","01","15:00","-18.2","","-20.0","","86","","0.0","","36","","17","","","","100.95","","","","-27","","NA"
"-100.27","70.63","GATESHEAD ISLAND","2402332","2019-04-01 16:00","2019","04","01","16:00","-17.7","","-19.4","","87","","0.0","","35","","15","","","","100.97","","","","-26","","NA"
"-100.27","70.63","GATESHEAD ISLAND","2402332","2019-04-01 17:00","2019","04","01","17:00","-18.2","","-20.0","","86","","0.0","","36","","18","","","","101.01","","","","-28","","NA"
"-100.27","70.63","GATESHEAD ISLAND","2402332","2019-04-01 18:00","2019","04","01","18:00","-18.7","","-20.5","","86","","0.0","","35","","17","","","","101.04","","","","-28","","NA"
"-100.27","70.63","GATESHEAD ISLAND","2402332","2019-04-01 19:00","2019","04","01","19:00","-18.9","","-20.7","","85","","0.0","","34","","15","","","","101.05","","","","-28","","NA"
"-100.27","70.63","GATESHEAD ISLAND","2402332","2019-04-01 20:00","2019","04","01","20:00","-18.7","","-20.6","","85","","0.0","","34","","16","","","","101.05","","","","-28","","NA"
"-100.27","70.63","GATESHEAD ISLAND","2402332","2019-04-01 21:00","2019","04","01","21:00","-18.6","","-20.5","","86","","0.0","","36","","18","","","","101.04","","","","-28","","NA"
"-100.27","70.63","GATESHEAD ISLAND","2402332","2019-04-01 22:00","2019","04","01","22:00","-18.9","","-20.8","","85","","0.0","","36","","17","","","","101.04","","","","-28","","NA"
"-100.27","70.63","GATESHEAD ISLAND","2402332","2019-04-01 23:00","2019","04","01","23:00","-21.4","","-23.7","","82","","0.0","","5","","16","","","","101.06","","","","-31","","NA"
"-100.27","70.63","GATESHEAD ISLAND","2402332","2019-04-02 00:00","2019","04","02","00:00","-23.6","","-25.9","","81","","0.0","","5","","21","","","","101.03","","","","-35","","NA"
"-100.27","70.63","GATESHEAD ISLAND","2402332","2019-04-02 01:00","2019","04","02","01:00","-23.9","","-26.3","","81","","0.0","","4","","19","","","","101.06","","","","-35","","NA"
"-100.27","70.63","GATESHEAD ISLAND","2402332","2019-04-02 02:00","2019","04","02","02:00","-24.4","","-26.7","","81","","0.0","","3","","17","","","","101.07","","","","-35","","NA"
"-100.27","70.63","GATESHEAD ISLAND","2402332","2019-04-02 03:00","2019","04","02","03:00","-23.1","","-25.4","","81","","0.0","","36","","10","","","","101.04","","","","-31","","NA"
"-100.27","70.63","GATESHEAD ISLAND","2402332","2019-04-02 04:00","2019","04","02","04:00","-21.8","","-23.9","","83","","0.0","","1","","14","","","","101.06","","","","-31","","NA"
"-100.27","70.63","GATESHEAD ISLAND","2402332","2019-04-02 05:00","2019","04","02","05:00","-20.9","","-22.9","","84","","0.0","","1","","12","","","","101.06","","","","-29","","NA"
"-100.27","70.63","GATESHEAD ISLAND","2402332","2019-04-02 06:00","2019","04","02","06:00","-20.9","","-23.0","","84","","0.0","","1","","11","","","","101.05","","","","-29","","NA"
"-100.27","70.63","GATESHEAD ISLAND","2402332","2019-04-02 07:00","2019","04","02","07:00","-20.1","","-22.1","","84","","0.0","","36","","14","","","","101.03","","","","-29","","NA"
"-100.27","70.63","GATESHEAD ISLAND","2402332","2019-04-02 08:00","2019","04","02","08:00","-19.8","","-21.8","","84","","0.0","","36","","16","","","","101.03","","","","-29","","NA"
"-100.27","70.63","GATESHEAD ISLAND","2402332","2019-04-02 09:00","2019","04","02","09:00","-19.7","","-21.6","","85","","","M","35","","19","","","","101.02","","","","-30","","NA"
"-100.27","70.63","GATESHEAD ISLAND","2402332","2019-04-02 10:00","2019","04","02","10:00","-20.1","","-22.1","","85","","","M","34","","20","","","","101.00","","","","-31","","NA"
"-100.27","70.63","GATESHEAD ISLAND","2402332","2019-04-02 11:00","2019","04","02","11:00","-20.4","","-22.3","","84","","","M","35","","20","","","","101.01","","","","-31","","NA"
"-100.27","70.63","GATESHEAD ISLAND","2402332","2019-04-02 12:00","2019","04","02","12:00","-20.3","","-22.2","","84","","","M","34","","21","","","","101.03","","","","-31","","NA"
"-100.27","70.63","GATESHEAD ISLAND","2402332","2019-04-02 13:00","2019","04","02","13:00","-20.1","","-22.1","","84","","","M","35","","21","","","","101.04","","","","-31","","NA"
"-100.27","70.63","GATESHEAD ISLAND","2402332","2019-04-02 14:00","2019","04","02","14:00","-20.7","","-22.7","","84","","","M","33","","22","","","","101.04","","","","-32","","NA"
"-100.27","70.63","GATESHEAD ISLAND","2402332","2019-04-02 15:00","2019","04","02","15:00","-21.7","","-23.8","","83","","","M","34","","25","","","","101.06","","","","-34","","NA"
"-100.27","70.63","GATESHEAD ISLAND","2402332","2019-04-02 16:00","2019","04","02","16:00","-22.5","","-24.7","","82","","","M","33","","24","","","","101.06","","","","-35","","NA"
"-100.27","70.63","GATESHEAD ISLAND","2402332","2019-04-02 17:00","2019","04","02","17:00","-22.6","","-24.8","","82","","","M","34","","24","","","","101.05","","","","-35","","NA"
"-100.27","70.63","GATESHEAD ISLAND","2402332","2019-04-02 18:00","2019","04","02","18:00","-23.2","","-25.5","","81","","","M","34","","24","","","","101.05","","","","-36","","NA"
"-100.27","70.63","GATESHEAD ISLAND","2402332","2019-04-02 19:00","2019","04","02","19:00","-23.8","","-26.2","","81","","","M","33","","25","","","","101.04","","","","-36","","NA"
"-100.27","70.63","GATESHEAD ISLAND","2402332","2019-04-02 20:00","2019","04","02","20:00","-24.7","","-27.1","","80","","","M","33","","27","","","","101.02","","","","-38","","NA"
"-100.27","70.63","GATESHEAD ISLAND","2402332","2019-04-02 21:00","2019","04","02","21:00","-25.4","","-28.0","","79","","","M","33","","25","","","","100.98","","","","-39","","NA"
"-100.27","70.63","GATESHEAD ISLAND","2402332","2019-04-02 22:00","2019","04","02","22:00","-25.8","","-28.3","","79","","","M","33","","25","","","","100.96","","","","-39","","NA"
"-100.27","70.63","GATESHEAD ISLAND","2402332","2019-04-02 23:00","2019","04","02","23:00","-25.1","","-27.6","","79","","","M","33","","22","","","","100.96","","","","-37","","NA"
"-100.27","70.63","GATESHEAD ISLAND","2402332","2019-04-03 00:00","2019","04","03","00:00","-24.4","","-26.9","","80","","","M","34","","22","","","","100.94","","","","-37","","NA"
"-100.27","70.63","GATESHEAD ISLAND","2402332","2019-04-03 01:00","2019","04","03","01:00","-24.9","","-27.3","","80","","","M","33","","20","","","","100.94","","","","-37","","NA"
"-100.27","70.63","GATESHEAD ISLAND","2402332","2019-04-03 02:00","2019","04","03","02:00","-23.7","","-26.1","","81","","","M","32","","22","","","","100.91","","","","-36","","NA"
"-100.27","70.63","GATESHEAD ISLAND","2402332","2019-04-03 03:00","2019","04","03","03:00","-22.6","","-24.9","","82","","","M","32","","24","","","","100.90","","","","-35","","NA"
"-100.27","70.63","GATESHEAD ISLAND","2402332","2019-04-03 04:00","2019","04","03","04:00","-22.4","","-24.6","","82","","","M","32","","24","","","","100.87","","","","-34","","NA"
"-100.27","70.63","GATESHEAD ISLAND","2402332","2019-04-03 05:00","2019","04","03","05:00","-22.4","","-24.6","","82","","","M","32","","25","","","","100.86","","","","-35","","NA"
"-100.27","70.63","GATESHEAD ISLAND","2402332","2019-04-03 06:00","2019","04","03","06:00","-22.3","","-24.5","","82","","","M","32","","26","","","","100.82","","","","-35","","NA"
"-100.27","70.63","GATESHEAD ISLAND","2402332","2019-04-03 07:00","2019","04","03","07:00","-22.5","","-24.7","","82","","","M","31","","27","","","","100.79","","","","-35","","NA"
"-100.27","70.63","GATESHEAD ISLAND","2402332","2019-04-03 08:00","2019","04","03","08:00","-22.8","","-25.0","","82","","","M","31","","25","","","","100.78","","","","-35","","NA"
"-100.27","70.63","GATESHEAD ISLAND","2402332","2019-04-03 09:00","2019","04","03","09:00","-22.9","","-25.2","","82","","","M","31","","25","","","","100.76","","","","-35","","NA"
"-100.27","70.63","GATESHEAD ISLAND","2402332","2019-04-03 10:00","2019","04","03","10:00","-23.0","","-25.3","","82","","","M","30","","25","","","","100.73","","","","-35","","NA"
"-100.27","70.63","GATESHEAD ISLAND","2402332","2019-04-03 11:00","2019","04","03","11:00","-23.3","","-25.7","","81","","","M","30","","26","","","","100.71","","","","-36","","NA"
"-100.27","70.63","GATESHEAD ISLAND","2402332","2019-04-03 12:00","2019","04","03","12:00","-23.7","","-26.1","","80","","","M","30","","24","","","","100.69","","","","-36","","NA"
"-100.27","70.63","GATESHEAD ISLAND","2402332","2019-04-03 13:00","2019","04","03","13:00","-24.2","","-26.7","","80","","","M","29","","26","","","","100.68","","","","-37","","NA"
"-100.27","70.63","GATESHEAD ISLAND","2402332","2019-04-03 14:00","2019","04","03","14:00","-24.2","","-26.7","","80","","","M","29","","25","","","","100.68","","","","-37","","NA"
"-100.27","70.63","GATESHEAD ISLAND","2402332","2019-04-03 15:00","2019","04","03","15:00","-24.2","","-26.6","","80","","","M","28","","26","","","","100.62","","","","-37","","NA"
"-100.27","70.63","GATESHEAD ISLAND","2402332","2019-04-03 16:00","2019","04","03","16:00","-24.3","","-26.7","","80","","","M","28","","22","","","","100.60","","","","-36","","NA"
"-100.27","70.63","GATESHEAD ISLAND","2402332","2019-04-03 17:00","2019","04","03","17:00","-24.1","","-26.5","","80","","","M","27","","20","","","","100.58","","","","-36","","NA"
"-100.27","70.63","GATESHEAD ISLAND","2402332","2019-04-03 18:00","2019","04","03","18:00","-25.2","","-27.8","","79","","","M","26","","25","","","","100.53","","","","-38","","NA"
"-100.27","70.63","GATESHEAD ISLAND","2402332","2019-04-03 19:00","2019","04","03","19:00","-26.3","","-28.9","","78","","","M","23","","22","","","","100.49","","","","-39","","NA"
"-100.27","70.63","GATESHEAD ISLAND","2402332","2019-04-03 20:00","2019","04","03","20:00","-27.1","","-29.8","","78","","","M","22","","20","","","","100.46","","","","-39","","NA"
"-100.27","70.63","GATESHEAD ISLAND","2402332","2019-04-03 21:00","2019","04","03","21:00","-26.6","","-29.3","","78","","","M","22","","25","","","","100.39","","","","-40","","NA"
"-100.27","70.63","GATESHEAD ISLAND","2402332","2019-04-03 22:00","2019","04","03","22:00","-27.2","","-29.9","","78","","","M","22","","25","","","","100.35","","","","-41","","NA"
"-100.27","70.63","GATESHEAD ISLAND","2402332","2019-04-03 23:00","2019","04","03","23:00","-27.5","","-30.2","","77","","","M","22","","27","","","","100.30","","","","-42","","NA"
"-100.27","70.63","GATESHEAD ISLAND","2402332","2019-04-04 00:00","2019","04","04","00:00","-26.9","","-29.6","","78","","","M","21","","30","","","","100.27","","","","-42","","NA"
"-100.27","70.63","GATESHEAD ISLAND","2402332","2019-04-04 01:00","2019","04","04","01:00","-26.6","","-29.3","","78","","","M","21","","28","","","","100.26","","","","-41","","NA"
"-100.27","70.63","GATESHEAD ISLAND","2402332","2019-04-04 02:00","2019","04","04","02:00","-26.3","","-28.9","","78","","","M","21","","27","","","","100.24","","","","-40","","NA"
"-100.27","70.63","GATESHEAD ISLAND","2402332","2019-04-04 03:00","2019","04","04","03:00","-26.2","","-28.8","","79","","","M","20","","33","","","","100.26","","","","-41","","NA"
"-100.27","70.63","GATESHEAD ISLAND","2402332","2019-04-04 04:00","2019","04","04","04:00","-27.0","","-29.7","","78","","","M","19","","31","","","","100.26","","","","-42","","NA"
"-100.27","70.63","GATESHEAD ISLAND","2402332","2019-04-04 05:00","2019","04","04","05:00","-27.3","","-30.0","","77","","","M","18","","32","","","","100.27","","","","-42","","NA"
"-100.27","70.63","GATESHEAD ISLAND","2402332","2019-04-04 06:00","2019","04","04","06:00","-27.4","","-30.1","","77","","","M","18","","28","","","","100.29","","","","-42","","NA"
"-100.27","70.63","GATESHEAD ISLAND","2402332","2019-04-04 07:00","2019","04","04","07:00","-27.0","","-29.8","","77","","","M","17","","28","","","","100.32","","","","-41","","NA"
"-100.27","70.63","GATESHEAD ISLAND","2402332","2019-04-04 08:00","2019","04","04","08:00","-26.5","","-29.3","","77","","","M","16","","29","","","","100.35","","","","-41","","NA"
"-100.27","70.63","GATESHEAD ISLAND","2402332","2019-04-04 09:00","2019","04","04","09:00","-25.9","","-28.7","","78","","","M","17","","33","","","","100.39","","","","-41","","NA"
"-100.27","70.63","GATESHEAD ISLAND","2402332","2019-04-04 10:00","2019","04","04","10:00","-25.8","","-28.5","","78","","","M","16","","32","","","","100.45","","","","-41","","NA"
"-100.27","70.63","GATESHEAD ISLAND","2402332","2019-04-04 11:00","2019","04","04","11:00","-25.1","","-27.7","","79","","","M","17","","33","","","","100.51","","","","-40","","NA"
"-100.27","70.63","GATESHEAD ISLAND","2402332","2019-04-04 12:00","2019","04","04","12:00","-24.7","","-27.3","","79","","","M","16","","31","","","","100.59","","","","-39","","NA"
"-100.27","70.63","GATESHEAD ISLAND","2402332","2019-04-04 13:00","2019","04","04","13:00","-24.2","","-26.8","","79","","","M","16","","36","","","","100.65","","","","-39","","NA"
"-100.27","70.63","GATESHEAD ISLAND","2402332","2019-04-04 14:00","2019","04","04","14:00","-24.2","","-26.7","","80","","","M","15","","34","","","","100.72","","","","-39","","NA"
"-100.27","70.63","GATESHEAD ISLAND","2402332","2019-04-04 15:00","2019","04","04","15:00","-24.2","","-26.7","","80","","","M","15","","31","","","","100.77","","","","-38","","NA"
"-100.27","70.63","GATESHEAD ISLAND","2402332","2019-04-04 16:00","2019","04","04","16:00","-24.4","","-26.9","","80","","","M","15","","29","","","","100.85","","","","-38","","NA"
"-100.27","70.63","GATESHEAD ISLAND","2402332","2019-04-04 17:00","2019","04","04","17:00","-24.9","","-27.4","","80","","","M","14","","25","","","","100.92","","","","-38","","NA"
"-100.27","70.63","GATESHEAD ISLAND","2402332","2019-04-04 18:00","2019","04","04","18:00","-25.4","","-27.9","","79","","","M","13","","25","","","","100.96","","","","-39","","NA"
"-100.27","70.63","GATESHEAD ISLAND","2402332","2019-04-04 19:00","2019","04","04","19:00","-26.2","","-28.9","","78","","","M","13","","25","","","","101.00","","","","-40","","NA"
"-100.27","70.63","GATESHEAD ISLAND","2402332","2019-04-04 20:00","2019","04","04","20:00","-26.7","","-29.3","","78","","","M","13","","21","","","","101.07","","","","-39","","NA"
"-100.27","70.63","GATESHEAD ISLAND","2402332","2019-04-04 21:00","2019","04","04","21:00","-27.3","","-30.0","","77","","","M","13","","24","","","","101.12","","","","-41","","NA"
"-100.27","70.63","GATESHEAD ISLAND","2402332","2019-04-04 22:00","2019","04","04","22:00","-27.8","","-30.5","","77","","","M","13","","25","","","","101.17","","","","-42","","NA"
"-100.27","70.63","GATESHEAD ISLAND","2402332","2019-04-04 23:00","2019","04","04","23:00","-28.4","","-31.3","","76","","","M","13","","16","","","","101.26","","","","-40","","NA"
"-100.27","70.63","GATESHEAD ISLAND","2402332","2019-04-05 00:00","2019","04","05","00:00","-29.6","","-32.6","","75","","","M","12","","21","","","","101.28","","","","-43","","NA"
"-100.27","70.63","GATESHEAD ISLAND","2402332","2019-04-05 01:00","2019","04","05","01:00","-29.9","","-32.9","","75","","","M","11","","14","","","","101.34","","","","-41","","NA"
"-100.27","70.63","GATESHEAD ISLAND","2402332","2019-04-05 02:00","2019","04","05","02:00","-30.1","","-33.1","","75","","","M","10","","14","","","","101.38","","","","-41","","NA"
"-100.27","70.63","GATESHEAD ISLAND","2402332","2019-04-05 03:00","2019","04","05","03:00","-30.1","","-33.1","","75","","","M","10","","18","","","","101.45","","","","-43","","NA"
"-100.27","70.63","GATESHEAD ISLAND","2402332","2019-04-05 04:00","2019","04","05","04:00","-30.6","","-33.7","","74","","","M","11","","19","","","","101.47","","","","-44","","NA"
"-100.27","70.63","GATESHEAD ISLAND","2402332","2019-04-05 05:00","2019","04","05","05:00","-30.7","","-33.8","","74","","","M","10","","15","","","","101.50","","","","-42","","NA"
"-100.27","70.63","GATESHEAD ISLAND","2402332","2019-04-05 06:00","2019","04","05","06:00","-30.2","","-33.3","","75","","","M","11","","17","","","","101.54","","","","-42","","NA"
"-100.27","70.63","GATESHEAD ISLAND","2402332","2019-04-05 07:00","2019","04","05","07:00","-29.7","","-32.8","","74","","","M","10","","14","","","","101.57","","","","-41","","NA"
"-100.27","70.63","GATESHEAD ISLAND","2402332","2019-04-05 08:00","2019","04","05","08:00","-28.5","","-31.5","","75","","","M","10","","15","","","","101.61","","","","-40","","NA"
"-100.27","70.63","GATESHEAD ISLAND","2402332","2019-04-05 09:00","2019","04","05","09:00","-27.8","","-30.7","","76","","","M","10","","12","","","","101.64","","","","-37","","NA"
"-100.27","70.63","GATESHEAD ISLAND","2402332","2019-04-05 10:00","2019","04","05","10:00","-27.1","","-30.0","","77","","","M","10","","15","","","","101.67","","","","-38","","NA"
"-100.27","70.63","GATESHEAD ISLAND","2402332","2019-04-05 11:00","2019","04","05","11:00","-26.4","","-29.2","","77","","","M","11","","16","","","","101.70","","","","-37","","NA"
"-100.27","70.63","GATESHEAD ISLAND","2402332","2019-04-05 12:00","2019","04","05","12:00","-25.9","","-28.6","","78","","","M","11","","17","","","","101.71","","","","-37","","NA"
"-100.27","70.63","GATESHEAD ISLAND","2402332","2019-04-05 13:00","2019","04","05","13:00","-25.2","","-27.9","","78","","","M","11","","16","","","","101.73","","","","-36","","NA"
"-100.27","70.63","GATESHEAD ISLAND","2402332","2019-04-05 14:00","2019","04","05","14:00","-25.0","","-27.7","","78","","","M","12","","13","","","","101.79","","","","-34","","NA"
"-100.27","70.63","GATESHEAD ISLAND","2402332","2019-04-05 15:00","2019","04","05","15:00","-24.8","","-27.5","","79","","","M","13","","11","","","","101.81","","","","-33","","NA"
"-100.27","70.63","GATESHEAD ISLAND","2402332","2019-04-05 16:00","2019","04","05","16:00","-25.2","","-27.9","","78","","","M","13","","11","","","","101.83","","","","-34","","NA"
"-100.27","70.63","GATESHEAD ISLAND","2402332","2019-04-05 17:00","2019","04","05","17:00","-25.6","","-28.3","","78","","","M","12","","8","","","","101.84","","","","-33","","NA"
"-100.27","70.63","GATESHEAD ISLAND","2402332","2019-04-05 18:00","2019","04","05","18:00","-26.5","","-29.2","","78","","","M","12","","13","","","","101.83","","","","-36","","NA"
"-100.27","70.63","GATESHEAD ISLAND","2402332","2019-04-05 19:00","2019","04","05","19:00","-26.5","","-29.2","","78","","","M","14","","10","","","","101.86","","","","-35","","NA"
"-100.27","70.63","GATESHEAD ISLAND","2402332","2019-04-05 20:00","2019","04","05","20:00","-28.1","","-30.9","","77","","","M","12","","13","","","","101.88","","","","-38","","NA"
"-100.27","70.63","GATESHEAD ISLAND","2402332","2019-04-05 21:00","2019","04","05","21:00","-28.0","","-30.8","","77","","","M","16","","14","","","","101.88","","","","-39","","NA"
"-100.27","70.63","GATESHEAD ISLAND","2402332","2019-04-05 22:00","2019","04","05","22:00","-28.8","","-31.6","","77","","","M","17","","11","","","","101.89","","","","-38","","NA"
"-100.27","70.63","GATESHEAD ISLAND","2402332","2019-04-05 23:00","2019","04","05","23:00","-29.0","","-31.8","","77","","","M","18","","9","","","","101.92","","","","-37","","NA"
"-100.27","70.63","GATESHEAD ISLAND","2402332","2019-04-06 00:00","2019","04","06","00:00","-29.0","","-31.9","","76","","","M","18","","8","","","","101.94","","","","-37","","NA"
"-100.27","70.63","GATESHEAD ISLAND","2402332","2019-04-06 01:00","2019","04","06","01:00","-29.6","","-32.6","","75","","","M","17","","7","","","","101.96","","","","-37","","NA"
"-100.27","70.63","GATESHEAD ISLAND","2402332","2019-04-06 02:00","2019","04","06","02:00","-29.4","","-32.3","","76","","","M","17","","6","","","","101.96","","","","-36","","NA"
"-100.27","70.63","GATESHEAD ISLAND","2402332","2019-04-06 03:00","2019","04","06","03:00","-29.6","","-32.6","","76","","","M","21","","8","","","","101.98","","","","-38","","NA"
"-100.27","70.63","GATESHEAD ISLAND","2402332","2019-04-06 04:00","2019","04","06","04:00","-29.9","","-33.0","","75","","","M","19","","7","","","","101.99","","","","-37","","NA"
"-100.27","70.63","GATESHEAD ISLAND","2402332","2019-04-06 05:00","2019","04","06","05:00","-29.2","","-32.2","","75","","","M","18","","5","","","","102.00","","","","-35","","NA"
"-100.27","70.63","GATESHEAD ISLAND","2402332","2019-04-06 06:00","2019","04","06","06:00","-30.2","","-33.4","","74","","","M","14","","8","","","","102.00","","","","-38","","NA"
"-100.27","70.63","GATESHEAD ISLAND","2402332","2019-04-06 07:00","2019","04","06","07:00","-26.6","","-29.7","","75","","","M","17","","6","","","","102.00","","","","-33","","NA"
"-100.27","70.63","GATESHEAD ISLAND","2402332","2019-04-06 08:00","2019","04","06","08:00","-27.5","","-30.4","","77","","","M","13","","7","","","","102.03","","","","-34","","NA"
"-100.27","70.63","GATESHEAD ISLAND","2402332","2019-04-06 09:00","2019","04","06","09:00","-27.0","","-29.7","","78","","","M","15","","10","","","","102.06","","","","-36","","NA"
"-100.27","70.63","GATESHEAD ISLAND","2402332","2019-04-06 10:00","2019","04","06","10:00","-25.2","","-28.0","","78","","","M","17","","9","","","","102.07","","","","-33","","NA"
"-100.27","70.63","GATESHEAD ISLAND","2402332","2019-04-06 11:00","2019","04","06","11:00","-25.5","","-28.1","","78","","","M","18","","10","","","","102.08","","","","-34","","NA"
"-100.27","70.63","GATESHEAD ISLAND","2402332","2019-04-06 12:00","2019","04","06","12:00","-24.8","","-27.5","","79","","","M","20","","10","","","","102.08","","","","-33","","NA"
"-100.27","70.63","GATESHEAD ISLAND","2402332","2019-04-06 13:00","2019","04","06","13:00","-24.0","","-26.6","","79","","","M","19","","8","","","","102.12","","","","-31","","NA"
"-100.27","70.63","GATESHEAD ISLAND","2402332","2019-04-06 14:00","2019","04","06","14:00","-22.6","","-25.1","","79","","","M","16","","9","","","","102.13","","","","-30","","NA"
"-100.27","70.63","GATESHEAD ISLAND","2402332","2019-04-06 15:00","2019","04","06","15:00","-22.8","","-25.4","","80","","","M","17","","11","","","","102.14","","","","-31","","NA"
"-100.27","70.63","GATESHEAD ISLAND","2402332","2019-04-06 16:00","2019","04","06","16:00","-23.3","","-25.8","","80","","","M","16","","12","","","","102.17","","","","-32","","NA"
"-100.27","70.63","GATESHEAD ISLAND","2402332","2019-04-06 17:00","2019","04","06","17:00","-24.2","","-26.7","","80","","","M","16","","10","","","","102.17","","","","-32","","NA"
"-100.27","70.63","GATESHEAD ISLAND","2402332","2019-04-06 18:00","2019","04","06","18:00","-24.9","","-27.5","","79","","","M","17","","12","","","","102.17","","","","-34","","NA"
"-100.27","70.63","GATESHEAD ISLAND","2402332","2019-04-06 19:00","2019","04","06","19:00","-26.5","","-29.2","","78","","","M","17","","13","","","","102.16","","","","-36","","NA"
"-100.27","70.63","GATESHEAD ISLAND","2402332","2019-04-06 20:00","2019","04","06","20:00","-26.7","","-29.3","","79","","","M","18","","15","","","","102.16","","","","-37","","NA"
"-100.27","70.63","GATESHEAD ISLAND","2402332","2019-04-06 21:00","2019","04","06","21:00","-27.2","","-29.9","","77","","","M","20","","11","","","","102.16","","","","-36","","NA"
"-100.27","70.63","GATESHEAD ISLAND","2402332","2019-04-06 22:00","2019","04","06","22:00","-27.9","","-30.7","","77","","","M","18","","7","","","","102.17","","","","-35","","NA"
"-100.27","70.63","GATESHEAD ISLAND","2402332","2019-04-06 23:00","2019","04","06","23:00","-27.8","","-30.6","","77","","","M","17","","6","","","","102.17","","","","-34","","NA"
"-100.27","70.63","GATESHEAD ISLAND","2402332","2019-04-07 00:00","2019","04","07","00:00","-28.1","","-30.9","","77","","","M","20","","8","","","","102.16","","","","-36","","NA"
"-100.27","70.63","GATESHEAD ISLAND","2402332","2019-04-07 01:00","2019","04","07","01:00","-28.9","","-31.7","","76","","","M","18","","7","","","","102.19","","","","-36","","NA"
"-100.27","70.63","GATESHEAD ISLAND","2402332","2019-04-07 02:00","2019","04","07","02:00","-28.8","","-31.7","","76","","","M","14","","7","","","","102.17","","","","-36","","NA"
"-100.27","70.63","GATESHEAD ISLAND","2402332","2019-04-07 03:00","2019","04","07","03:00","-29.3","","-32.3","","75","","","M","16","","8","","","","102.18","","","","-37","","NA"
"-100.27","70.63","GATESHEAD ISLAND","2402332","2019-04-07 04:00","2019","04","07","04:00","-29.6","","-32.7","","75","","","M","15","","9","","","","102.18","","","","-38","","NA"
"-100.27","70.63","GATESHEAD ISLAND","2402332","2019-04-07 05:00","2019","04","07","05:00","-28.7","","-31.7","","75","","","M","17","","7","","","","102.16","","","","-36","","NA"
"-100.27","70.63","GATESHEAD ISLAND","2402332","2019-04-07 06:00","2019","04","07","06:00","-27.3","","-30.4","","75","","","M","18","","6","","","","102.11","","","","-33","","NA"
"-100.27","70.63","GATESHEAD ISLAND","2402332","2019-04-07 07:00","2019","04","07","07:00","-29.3","","-32.4","","75","","","M","14","","9","","","","102.10","","","","-38","","NA"
"-100.27","70.63","GATESHEAD ISLAND","2402332","2019-04-07 08:00","2019","04","07","08:00","-27.2","","-30.2","","76","","","M","18","","9","","","","102.09","","","","-35","","NA"
"-100.27","70.63","GATESHEAD ISLAND","2402332","2019-04-07 09:00","2019","04","07","09:00","-26.7","","-29.5","","77","","","M","19","","11","","","","102.06","","","","-36","","NA"
"-100.27","70.63","GATESHEAD ISLAND","2402332","2019-04-07 10:00","2019","04","07","10:00","-24.6","","-27.2","","78","","","M","17","","10","","","","102.05","","","","-33","","NA"
"-100.27","70.63","GATESHEAD ISLAND","2402332","2019-04-07 11:00","2019","04","07","11:00","-24.6","","-27.1","","80","","","M","13","","12","","","","102.03","","","","-34","","NA"
"-100.27","70.63","GATESHEAD ISLAND","2402332","2019-04-07 12:00","2019","04","07","12:00","-24.0","","-26.4","","80","","","M","13","","15","","","","102.03","","","","-34","","NA"
"-100.27","70.63","GATESHEAD ISLAND","2402332","2019-04-07 13:00","2019","04","07","13:00","-23.3","","-25.7","","80","","","M","13","","12","","","","102.02","","","","-32","","NA"
"-100.27","70.63","GATESHEAD ISLAND","2402332","2019-04-07 14:00","2019","04","07","14:00","-22.7","","-25.0","","82","","","M","14","","12","","","","102.02","","","","-31","","NA"
"-100.27","70.63","GATESHEAD ISLAND","2402332","2019-04-07 15:00","2019","04","07","15:00","-22.5","","-24.7","","82","","","M","15","","16","","","","101.98","","","","-32","","NA"
"-100.27","70.63","GATESHEAD ISLAND","2402332","2019-04-07 16:00","2019","04","07","16:00","-22.7","","-25.0","","82","","","M","14","","14","","","","101.98","","","","-32","","NA"
"-100.27","70.63","GATESHEAD ISLAND","2402332","2019-04-07 17:00","2019","04","07","17:00","-23.1","","-25.4","","81","","","M","14","","13","","","","101.97","","","","-32","","NA"
"-100.27","70.63","GATESHEAD ISLAND","2402332","2019-04-07 18:00","2019","04","07","18:00","-23.9","","-26.3","","80","","","M","14","","16","","","","101.96","","","","-34","","NA"
"-100.27","70.63","GATESHEAD ISLAND","2402332","2019-04-07 19:00","2019","04","07","19:00","-25.0","","-27.5","","79","","","M","14","","20","","","","101.91","","","","-37","","NA"
"-100.27","70.63","GATESHEAD ISLAND","2402332","2019-04-07 20:00","2019","04","07","20:00","-25.9","","-28.5","","79","","","M","14","","21","","","","101.91","","","","-38","","NA"
"-100.27","70.63","GATESHEAD ISLAND","2402332","2019-04-07 21:00","2019","04","07","21:00","-26.4","","-29.1","","78","","","M","13","","17","","","","101.92","","","","-38","","NA"
"-100.27","70.63","GATESHEAD ISLAND","2402332","2019-04-07 22:00","2019","04","07","22:00","-26.5","","-29.1","","79","","","M","14","","17","","","","101.93","","","","-38","","NA"
"-100.27","70.63","GATESHEAD ISLAND","2402332","2019-04-07 23:00","2019","04","07","23:00","-28.1","","-31.0","","76","","","M","11","","14","","","","101.90","","","","-39","","NA"
"-100.27","70.63","GATESHEAD ISLAND","2402332","2019-04-08 00:00","2019","04","08","00:00","-28.4","","-31.2","","76","","","M","10","","17","","","","101.85","","","","-40","","NA"
"-100.27","70.63","GATESHEAD ISLAND","2402332","2019-04-08 01:00","2019","04","08","01:00","-28.4","","-31.2","","77","","","M","11","","17","","","","101.85","","","","-40","","NA"
"-100.27","70.63","GATESHEAD ISLAND","2402332","2019-04-08 02:00","2019","04","08","02:00","-28.6","","-31.5","","76","","","M","10","","18","","","","101.81","","","","-41","","NA"
"-100.27","70.63","GATESHEAD ISLAND","2402332","2019-04-08 03:00","2019","04","08","03:00","-28.7","","-31.6","","76","","","M","10","","18","","","","101.78","","","","-41","","NA"
"-100.27","70.63","GATESHEAD ISLAND","2402332","2019-04-08 04:00","2019","04","08","04:00","-28.8","","-31.7","","76","","","M","11","","20","","","","101.74","","","","-42","","NA"
"-100.27","70.63","GATESHEAD ISLAND","2402332","2019-04-08 05:00","2019","04","08","05:00","-28.5","","-31.4","","76","","","M","10","","20","","","","101.69","","","","-41","","NA"
"-100.27","70.63","GATESHEAD ISLAND","2402332","2019-04-08 06:00","2019","04","08","06:00","-27.4","","-30.2","","77","","","M","11","","23","","","","101.65","","","","-41","","NA"
"-100.27","70.63","GATESHEAD ISLAND","2402332","2019-04-08 07:00","2019","04","08","07:00","-26.8","","-29.5","","78","","","M","11","","24","","","","101.62","","","","-40","","NA"
"-100.27","70.63","GATESHEAD ISLAND","2402332","2019-04-08 08:00","2019","04","08","08:00","-26.1","","-28.8","","78","","","M","11","","28","","","","101.57","","","","-40","","NA"
"-100.27","70.63","GATESHEAD ISLAND","2402332","2019-04-08 09:00","2019","04","08","09:00","-24.7","","-27.2","","80","","","M","11","","31","","","","101.52","","","","-39","","NA"
"-100.27","70.63","GATESHEAD ISLAND","2402332","2019-04-08 10:00","2019","04","08","10:00","-23.0","","-25.3","","81","","","M","11","","30","","","","101.48","","","","-36","","NA"
"-100.27","70.63","GATESHEAD ISLAND","2402332","2019-04-08 11:00","2019","04","08","11:00","-22.5","","-24.8","","82","","","M","12","","32","","","","101.49","","","","-36","","NA"
"-100.27","70.63","GATESHEAD ISLAND","2402332","2019-04-08 12:00","2019","04","08","12:00","-21.8","","-24.0","","82","","","M","12","","33","","","","101.43","","","","-35","","NA"
"-100.27","70.63","GATESHEAD ISLAND","2402332","2019-04-08 13:00","2019","04","08","13:00","-20.6","","-22.7","","83","","","M","11","","31","","","","101.38","","","","-34","","NA"
"-100.27","70.63","GATESHEAD ISLAND","2402332","2019-04-08 14:00","2019","04","08","14:00","-19.5","","-21.5","","84","","","M","11","","29","","","","101.36","","","","-32","","NA"
"-100.27","70.63","GATESHEAD ISLAND","2402332","2019-04-08 15:00","2019","04","08","15:00","-18.4","","-20.3","","85","","","M","10","","30","","","","101.31","","","","-30","","NA"
"-100.27","70.63","GATESHEAD ISLAND","2402332","2019-04-08 16:00","2019","04","08","16:00","-18.1","","-20.0","","85","","","M","9","","26","","","","101.27","","","","-29","","NA"
"-100.27","70.63","GATESHEAD ISLAND","2402332","2019-04-08 17:00","2019","04","08","17:00","-18.2","","-20.0","","85","","","M","9","","24","","","","101.25","","","","-29","","NA"
"-100.27","70.63","GATESHEAD ISLAND","2402332","2019-04-08 18:00","2019","04","08","18:00","-18.4","","-20.3","","85","","","M","8","","22","","","","101.21","","","","-29","","NA"
"-100.27","70.63","GATESHEAD ISLAND","2402332","2019-04-08 19:00","2019","04","08","19:00","-18.3","","-20.1","","86","","","M","7","","20","","","","101.21","","","","-28","","NA"
"-100.27","70.63","GATESHEAD ISLAND","2402332","2019-04-08 20:00","2019","04","08","20:00","-17.7","","-19.5","","86","","","M","7","","21","","","","101.18","","","","-28","","NA"
"-100.27","70.63","GATESHEAD ISLAND","2402332","2019-04-08 21:00","2019","04","08","21:00","-17.5","","-19.2","","86","","","M","6","","19","","","","101.17","","","","-27","","NA"
"-100.27","70.63","GATESHEAD ISLAND","2402332","2019-04-08 22:00","2019","04","08","22:00","-17.1","","-18.8","","87","","","M","6","","18","","","","101.17","","","","-26","","NA"
"-100.27","70.63","GATESHEAD ISLAND","2402332","2019-04-08 23:00","2019","04","08","23:00","-16.5","","-18.2","","87","","","M","6","","18","","","","101.17","","","","-26","","NA"
"-100.27","70.63","GATESHEAD ISLAND","2402332","2019-04-09 00:00","2019","04","09","00:00","-16.5","","-18.1","","87","","","M","4","","18","","","","101.19","","","","-26","","NA"
"-100.27","70.63","GATESHEAD ISLAND","2402332","2019-04-09 01:00","2019","04","09","01:00","-16.2","","-17.8","","87","","","M","5","","18","","","","101.21","","","","-25","","NA"
"-100.27","70.63","GATESHEAD ISLAND","2402332","2019-04-09 02:00","2019","04","09","02:00","-15.9","","-17.4","","88","","","M","5","","14","","","","101.21","","","","-24","","NA"
"-100.27","70.63","GATESHEAD ISLAND","2402332","2019-04-09 03:00","2019","04","09","03:00","-15.8","","-17.4","","88","","","M","4","","12","","","","101.22","","","","-23","","NA"
"-100.27","70.63","GATESHEAD ISLAND","2402332","2019-04-09 04:00","2019","04","09","04:00","-15.8","","-17.4","","88","","","M","3","","15","","","","101.26","","","","-24","","NA"
"-100.27","70.63","GATESHEAD ISLAND","2402332","2019-04-09 05:00","2019","04","09","05:00","-16.0","","-17.6","","88","","","M","3","","13","","","","101.29","","","","-24","","NA"
"-100.27","70.63","GATESHEAD ISLAND","2402332","2019-04-09 06:00","2019","04","09","06:00","-15.8","","-17.3","","88","","","M","4","","10","","","","101.31","","","","-22","","NA"
"-100.27","70.63","GATESHEAD ISLAND","2402332","2019-04-09 07:00","2019","04","09","07:00","-15.3","","-16.8","","88","","","M","3","","7","","","","101.32","","","","-20","","NA"
"-100.27","70.63","GATESHEAD ISLAND","2402332","2019-04-09 08:00","2019","04","09","08:00","-14.3","","-15.6","","90","","","M","4","","5","","","","101.32","","","","-18","","NA"
"-100.27","70.63","GATESHEAD ISLAND","2402332","2019-04-09 09:00","2019","04","09","09:00","-8.9","","-9.4","","96","","","M","0","","1","","","","101.34","","","","-9","","NA"
"-100.27","70.63","GATESHEAD ISLAND","2402332","2019-04-09 10:00","2019","04","09","10:00","-11.6","","-12.3","","95","","","M","33","","3","","","","101.34","","","","-13","","NA"
"-100.27","70.63","GATESHEAD ISLAND","2402332","2019-04-09 11:00","2019","04","09","11:00","-11.7","","-12.7","","92","","","M","34","","3","","","","101.35","","","","-14","","NA"
"-100.27","70.63","GATESHEAD ISLAND","2402332","2019-04-09 12:00","2019","04","09","12:00","-9.1","","-10.0","","93","","","M","0","","1","","","","101.36","","","","-10","","NA"
"-100.27","70.63","GATESHEAD ISLAND","2402332","2019-04-09 13:00","2019","04","09","13:00","-11.4","","-12.7","","90","","","M","18","","1","","","","101.39","","","","-12","","NA"
"-100.27","70.63","GATESHEAD ISLAND","2402332","2019-04-09 14:00","2019","04","09","14:00","-12.1","","-13.6","","89","","","M","18","","3","","","","101.40","","","","-14","","NA"
"-100.27","70.63","GATESHEAD ISLAND","2402332","2019-04-09 15:00","2019","04","09","15:00","-13.2","","-14.6","","89","","","M","20","","4","","","","101.39","","","","-16","","NA"
"-100.27","70.63","GATESHEAD ISLAND","2402332","2019-04-09 16:00","2019","04","09","16:00","-12.2","","-13.6","","89","","","M","17","","5","","","","101.40","","","","-15","","NA"
"-100.27","70.63","GATESHEAD ISLAND","2402332","2019-04-09 17:00","2019","04","09","17:00","-12.8","","-14.1","","90","","","M","17","","6","","","","101.41","","","","-17","","NA"
"-100.27","70.63","GATESHEAD ISLAND","2402332","2019-04-09 18:00","2019","04","09","18:00","-12.9","","-14.2","","90","","","M","17","","4","","","","101.41","","","","-16","","NA"
"-100.27","70.63","GATESHEAD ISLAND","2402332","2019-04-09 19:00","2019","04","09","19:00","-13.1","","-14.4","","90","","","M","17","","5","","","","101.40","","","","-16","","NA"
"-100.27","70.63","GATESHEAD ISLAND","2402332","2019-04-09 20:00","2019","04","09","20:00","-13.0","","-14.3","","90","","","M","20","","4","","","","101.45","","","","-16","","NA"
"-100.27","70.63","GATESHEAD ISLAND","2402332","2019-04-09 21:00","2019","04","09","21:00","-12.9","","-14.2","","90","","","M","8","","5","","","","101.41","","","","-16","","NA"
"-100.27","70.63","GATESHEAD ISLAND","2402332","2019-04-09 22:00","2019","04","09","22:00","-12.5","","-13.7","","90","","","M","8","","6","","","","101.40","","","","-16","","NA"
"-100.27","70.63","GATESHEAD ISLAND","2402332","2019-04-09 23:00","2019","04","09","23:00","-12.5","","-13.7","","90","","","M","4","","5","","","","101.39","","","","-16","","NA"
"-100.27","70.63","GATESHEAD ISLAND","2402332","2019-04-10 00:00","2019","04","10","00:00","-12.5","","-13.7","","90","","","M","4","","8","","","","101.39","","","","-17","","NA"
"-100.27","70.63","GATESHEAD ISLAND","2402332","2019-04-10 01:00","2019","04","10","01:00","-12.4","","-13.6","","91","","","M","4","","10","","","","101.39","","","","-18","","NA"
"-100.27","70.63","GATESHEAD ISLAND","2402332","2019-04-10 02:00","2019","04","10","02:00","-12.4","","-13.6","","91","","","M","2","","12","","","","101.40","","","","-19","","NA"
"-100.27","70.63","GATESHEAD ISLAND","2402332","2019-04-10 03:00","2019","04","10","03:00","-12.5","","-13.7","","90","","","M","1","","14","","","","101.41","","","","-20","","NA"
"-100.27","70.63","GATESHEAD ISLAND","2402332","2019-04-10 04:00","2019","04","10","04:00","-12.6","","-13.9","","90","","","M","1","","15","","","","101.42","","","","-20","","NA"
"-100.27","70.63","GATESHEAD ISLAND","2402332","2019-04-10 05:00","2019","04","10","05:00","-13.6","","-14.9","","90","","","M","36","","17","","","","101.44","","","","-22","","NA"
"-100.27","70.63","GATESHEAD ISLAND","2402332","2019-04-10 06:00","2019","04","10","06:00","-12.9","","-14.2","","90","","","M","36","","13","","","","101.48","","","","-20","","NA"
"-100.27","70.63","GATESHEAD ISLAND","2402332","2019-04-10 07:00","2019","04","10","07:00","-13.0","","-14.4","","90","","","M","35","","19","","","","101.50","","","","-21","","NA"
"-100.27","70.63","GATESHEAD ISLAND","2402332","2019-04-10 08:00","2019","04","10","08:00","-13.2","","-14.5","","90","","","M","35","","20","","","","101.53","","","","-22","","NA"
"-100.27","70.63","GATESHEAD ISLAND","2402332","2019-04-10 09:00","2019","04","10","09:00","-13.5","","-14.9","","90","","","M","35","","19","","","","101.56","","","","-22","","NA"
"-100.27","70.63","GATESHEAD ISLAND","2402332","2019-04-10 10:00","2019","04","10","10:00","-14.3","","-15.7","","89","","","M","35","","21","","","","101.60","","","","-24","","NA"
"-100.27","70.63","GATESHEAD ISLAND","2402332","2019-04-10 11:00","2019","04","10","11:00","-14.4","","-15.9","","89","","","M","35","","22","","","","101.64","","","","-24","","NA"
"-100.27","70.63","GATESHEAD ISLAND","2402332","2019-04-10 12:00","2019","04","10","12:00","-14.6","","-16.1","","89","","","M","35","","22","","","","101.68","","","","-24","","NA"
"-100.27","70.63","GATESHEAD ISLAND","2402332","2019-04-10 13:00","2019","04","10","13:00","-14.6","","-16.1","","88","","","M","35","","23","","","","101.74","","","","-24","","NA"
"-100.27","70.63","GATESHEAD ISLAND","2402332","2019-04-10 14:00","2019","04","10","14:00","-14.2","","-15.7","","89","","","M","35","","25","","","","101.77","","","","-24","","NA"
"-100.27","70.63","GATESHEAD ISLAND","2402332","2019-04-10 15:00","2019","04","10","15:00","-14.7","","-16.2","","88","","","M","35","","25","","","","101.81","","","","-25","","NA"
"-100.27","70.63","GATESHEAD ISLAND","2402332","2019-04-10 16:00","2019","04","10","16:00","-14.8","","-16.3","","88","","","M","35","","22","","","","101.85","","","","-24","","NA"
"-100.27","70.63","GATESHEAD ISLAND","2402332","2019-04-10 17:00","2019","04","10","17:00","-16.0","","-17.6","","87","","","M","35","","25","","","","101.90","","","","-26","","NA"
"-100.27","70.63","GATESHEAD ISLAND","2402332","2019-04-10 18:00","2019","04","10","18:00","-17.7","","-19.4","","86","","","M","35","","25","","","","101.98","","","","-29","","NA"
"-100.27","70.63","GATESHEAD ISLAND","2402332","2019-04-10 19:00","2019","04","10","19:00","-19.4","","-21.3","","85","","","M","34","","22","","","","102.04","","","","-30","","NA"
"-100.27","70.63","GATESHEAD ISLAND","2402332","2019-04-10 20:00","2019","04","10","20:00","-21.0","","-23.0","","84","","","M","34","","21","","","","102.07","","","","-32","","NA"
"-100.27","70.63","GATESHEAD ISLAND","2402332","2019-04-10 21:00","2019","04","10","21:00","-22.3","","-24.5","","83","","","M","34","","24","","","","102.12","","","","-34","","NA"
"-100.27","70.63","GATESHEAD ISLAND","2402332","2019-04-10 22:00","2019","04","10","22:00","-23.7","","-26.0","","81","","","M","34","","27","","","","102.13","","","","-37","","NA"
"-100.27","70.63","GATESHEAD ISLAND","2402332","2019-04-10 23:00","2019","04","10","23:00","-24.5","","-26.9","","80","","","M","34","","23","","","","102.18","","","","-37","","NA"
"-100.27","70.63","GATESHEAD ISLAND","2402332","2019-04-11 00:00","2019","04","11","00:00","-25.3","","-27.7","","80","","","M","35","","19","","","","102.21","","","","-37","","NA"
"-100.27","70.63","GATESHEAD ISLAND","2402332","2019-04-11 01:00","2019","04","11","01:00","-26.0","","-28.6","","79","","","M","34","","20","","","","102.28","","","","-38","","NA"
"-100.27","70.63","GATESHEAD ISLAND","2402332","2019-04-11 02:00","2019","04","11","02:00","-25.8","","-28.4","","79","","","M","35","","22","","","","102.31","","","","-38","","NA"
"-100.27","70.63","GATESHEAD ISLAND","2402332","2019-04-11 03:00","2019","04","11","03:00","-25.1","","-27.5","","80","","","M","35","","19","","","","102.31","","","","-37","","NA"
"-100.27","70.63","GATESHEAD ISLAND","2402332","2019-04-11 04:00","2019","04","11","04:00","-24.6","","-27.1","","80","","","M","35","","23","","","","102.34","","","","-37","","NA"
"-100.27","70.63","GATESHEAD ISLAND","2402332","2019-04-11 05:00","2019","04","11","05:00","-24.7","","-27.2","","80","","","M","35","","23","","","","102.38","","","","-37","","NA"
"-100.27","70.63","GATESHEAD ISLAND","2402332","2019-04-11 06:00","2019","04","11","06:00","-24.9","","-27.4","","80","","","M","35","","20","","","","102.40","","","","-37","","NA"
"-100.27","70.63","GATESHEAD ISLAND","2402332","2019-04-11 07:00","2019","04","11","07:00","-24.6","","-27.0","","80","","","M","36","","20","","","","102.41","","","","-36","","NA"
"-100.27","70.63","GATESHEAD ISLAND","2402332","2019-04-11 08:00","2019","04","11","08:00"
"-100.27","70.63","GATESHEAD ISLAND","2402332","2019-04-11 09:00","2019","04","11","09:00","-23.4","","-25.6","","81","","","M","36","","19","","","","102.40","","","","-34","","NA"
"-100.27","70.63","GATESHEAD ISLAND","2402332","2019-04-11 10:00","2019","04","11","10:00","-22.9","","-25.2","","82","","","M","34","","18","","","","102.40","","","","-34","","NA"
"-100.27","70.63","GATESHEAD ISLAND","2402332","2019-04-11 11:00","2019","04","11","11:00","-23.4","","-25.8","","81","","","M","36","","22","","","","102.36","","","","-35","","NA"
"-100.27","70.63","GATESHEAD ISLAND","2402332","2019-04-11 12:00","2019","04","11","12:00","-22.1","","-24.2","","83","","","M","36","","20","","","","102.38","","","","-33","","NA"
"-100.27","70.63","GATESHEAD ISLAND","2402332","2019-04-11 13:00","2019","04","11","13:00","-22.0","","-24.2","","82","","","M","1","","19","","","","102.40","","","","-33","","NA"
"-100.27","70.63","GATESHEAD ISLAND","2402332","2019-04-11 14:00","2019","04","11","14:00","-21.7","","-23.9","","82","","","M","36","","18","","","","102.39","","","","-32","","NA"
"-100.27","70.63","GATESHEAD ISLAND","2402332","2019-04-11 15:00","2019","04","11","15:00","-22.0","","-24.3","","82","","","M","2","","21","","","","102.35","","","","-33","","NA"
"-100.27","70.63","GATESHEAD ISLAND","2402332","2019-04-11 16:00","2019","04","11","16:00","-21.4","","-23.6","","82","","","M","2","","20","","","","102.33","","","","-32","","NA"
"-100.27","70.63","GATESHEAD ISLAND","2402332","2019-04-11 17:00","2019","04","11","17:00","-21.1","","-23.1","","83","","","M","1","","18","","","","102.32","","","","-31","","NA"
"-100.27","70.63","GATESHEAD ISLAND","2402332","2019-04-11 18:00","2019","04","11","18:00","-21.5","","-23.6","","83","","","M","2","","19","","","","102.29","","","","-32","","NA"
"-100.27","70.63","GATESHEAD ISLAND","2402332","2019-04-11 19:00","2019","04","11","19:00","-22.1","","-24.3","","82","","","M","2","","17","","","","102.28","","","","-32","","NA"
"-100.27","70.63","GATESHEAD ISLAND","2402332","2019-04-11 20:00","2019","04","11","20:00","-23.3","","-25.6","","81","","","M","1","","17","","","","102.26","","","","-34","","NA"
"-100.27","70.63","GATESHEAD ISLAND","2402332","2019-04-11 21:00","2019","04","11","21:00","-23.7","","-26.0","","81","","","M","36","","18","","","","102.20","","","","-35","","NA"
"-100.27","70.63","GATESHEAD ISLAND","2402332","2019-04-11 22:00","2019","04","11","22:00","-23.6","","-25.9","","81","","","M","36","","17","","","","102.17","","","","-34","","NA"
"-100.27","70.63","GATESHEAD ISLAND","2402332","2019-04-11 23:00","2019","04","11","23:00","-22.9","","-25.1","","82","","","M","1","","19","","","","102.13","","","","-34","","NA"
"-100.27","70.63","GATESHEAD ISLAND","2402332","2019-04-12 00:00","2019","04","12","00:00","-23.1","","-25.4","","82","","","M","2","","18","","","","102.11","","","","-34","","NA"
"-100.27","70.63","GATESHEAD ISLAND","2402332","2019-04-12 01:00","2019","04","12","01:00","-22.9","","-25.1","","82","","","M","2","","22","","","","102.10","","","","-35","","NA"
"-100.27","70.63","GATESHEAD ISLAND","2402332","2019-04-12 02:00","2019","04","12","02:00","-22.7","","-25.0","","82","","","M","1","","16","","","","102.09","","","","-33","","NA"
"-100.27","70.63","GATESHEAD ISLAND","2402332","2019-04-12 03:00","2019","04","12","03:00","-22.7","","-24.9","","82","","","M","2","","20","","","","102.02","","","","-34","","NA"
"-100.27","70.63","GATESHEAD ISLAND","2402332","2019-04-12 04:00","2019","04","12","04:00","-22.5","","-24.7","","82","","","M","2","","21","","","","102.01","","","","-34","","NA"
"-100.27","70.63","GATESHEAD ISLAND","2402332","2019-04-12 05:00","2019","04","12","05:00","-23.9","","-26.2","","81","","","M","1","","17","","","","101.99","","","","-35","","NA"
"-100.27","70.63","GATESHEAD ISLAND","2402332","2019-04-12 06:00","2019","04","12","06:00","-24.1","","-26.5","","80","","","M","36","","18","","","","101.96","","","","-35","","NA"
"-100.27","70.63","GATESHEAD ISLAND","2402332","2019-04-12 07:00","2019","04","12","07:00","-23.7","","-26.1","","80","","","M","1","","22","","","","101.91","","","","-36","","NA"
"-100.27","70.63","GATESHEAD ISLAND","2402332","2019-04-12 08:00","2019","04","12","08:00","-23.2","","-25.6","","81","","","M","2","","23","","","","101.93","","","","-35","","NA"
"-100.27","70.63","GATESHEAD ISLAND","2402332","2019-04-12 09:00","2019","04","12","09:00","-22.8","","-25.1","","81","","","M","2","","23","","","","101.88","","","","-35","","NA"
"-100.27","70.63","GATESHEAD ISLAND","2402332","2019-04-12 10:00","2019","04","12","10:00","-22.9","","-25.2","","81","","","M","1","","22","","","","101.88","","","","-35","","NA"
"-100.27","70.63","GATESHEAD ISLAND","2402332","2019-04-12 11:00","2019","04","12","11:00","-22.6","","-24.9","","82","","","M","1","","21","","","","101.86","","","","-34","","NA"
"-100.27","70.63","GATESHEAD ISLAND","2402332","2019-04-12 12:00","2019","04","12","12:00","-22.3","","-24.5","","82","","","M","1","","21","","","","101.84","","","","-34","","NA"
"-100.27","70.63","GATESHEAD ISLAND","2402332","2019-04-12 13:00","2019","04","12","13:00","-22.0","","-24.3","","82","","","M","1","","24","","","","101.82","","","","-34","","NA"
"-100.27","70.63","GATESHEAD ISLAND","2402332","2019-04-12 14:00","2019","04","12","14:00","-21.9","","-24.2","","82","","","M","1","","25","","","","101.83","","","","-34","","NA"
"-100.27","70.63","GATESHEAD ISLAND","2402332","2019-04-12 15:00","2019","04","12","15:00","-21.7","","-23.9","","82","","","M","1","","25","","","","101.82","","","","-34","","NA"
"-100.27","70.63","GATESHEAD ISLAND","2402332","2019-04-12 16:00","2019","04","12","16:00","-21.9","","-24.1","","82","","","M","1","","24","","","","101.81","","","","-34","","NA"
"-100.27","70.63","GATESHEAD ISLAND","2402332","2019-04-12 17:00","2019","04","12","17:00","-22.5","","-24.8","","82","","","M","1","","24","","","","101.80","","","","-35","","NA"
"-100.27","70.63","GATESHEAD ISLAND","2402332","2019-04-12 18:00","2019","04","12","18:00","-23.5","","-25.8","","81","","","M","1","","26","","","","101.79","","","","-36","","NA"
"-100.27","70.63","GATESHEAD ISLAND","2402332","2019-04-12 19:00","2019","04","12","19:00","-24.3","","-26.8","","80","","","M","1","","24","","","","101.78","","","","-37","","NA"
"-100.27","70.63","GATESHEAD ISLAND","2402332","2019-04-12 20:00","2019","04","12","20:00","-25.8","","-28.4","","79","","","M","1","","23","","","","101.75","","","","-39","","NA"
"-100.27","70.63","GATESHEAD ISLAND","2402332","2019-04-12 21:00","2019","04","12","21:00","-26.8","","-29.5","","78","","","M","36","","21","","","","101.74","","","","-39","","NA"
"-100.27","70.63","GATESHEAD ISLAND","2402332","2019-04-12 22:00","2019","04","12","22:00","-27.7","","-30.4","","77","","","M","36","","22","","","","101.71","","","","-41","","NA"
"-100.27","70.63","GATESHEAD ISLAND","2402332","2019-04-12 23:00","2019","04","12","23:00","-28.0","","-30.8","","77","","","M","1","","23","","","","101.68","","","","-41","","NA"
"-100.27","70.63","GATESHEAD ISLAND","2402332","2019-04-13 00:00","2019","04","13","00:00","-28.5","","-31.4","","76","","","M","1","","23","","","","101.67","","","","-42","","NA"
"-100.27","70.63","GATESHEAD ISLAND","2402332","2019-04-13 01:00","2019","04","13","01:00","-29.1","","-32.0","","76","","","M","36","","23","","","","101.67","","","","-43","","NA"
"-100.27","70.63","GATESHEAD ISLAND","2402332","2019-04-13 02:00","2019","04","13","02:00","-29.7","","-32.7","","75","","","M","36","","20","","","","101.68","","","","-43","","NA"
"-100.27","70.63","GATESHEAD ISLAND","2402332","2019-04-13 03:00","2019","04","13","03:00","-30.0","","-33.0","","75","","","M","36","","22","","","","101.66","","","","-44","","NA"
"-100.27","70.63","GATESHEAD ISLAND","2402332","2019-04-13 04:00","2019","04","13","04:00","-30.2","","-33.2","","75","","","M","1","","23","","","","101.65","","","","-44","","NA"
"-100.27","70.63","GATESHEAD ISLAND","2402332","2019-04-13 05:00","2019","04","13","05:00","-29.8","","-32.7","","76","","","M","1","","20","","","","101.67","","","","-43","","NA"
"-100.27","70.63","GATESHEAD ISLAND","2402332","2019-04-13 06:00","2019","04","13","06:00","-29.5","","-32.5","","75","","","M","36","","19","","","","101.65","","","","-42","","NA"
"-100.27","70.63","GATESHEAD ISLAND","2402332","2019-04-13 07:00","2019","04","13","07:00","-29.3","","-32.2","","76","","","M","36","","22","","","","101.64","","","","-43","","NA"
"-100.27","70.63","GATESHEAD ISLAND","2402332","2019-04-13 08:00","2019","04","13","08:00","-28.7","","-31.6","","76","","","M","35","","23","","","","101.59","","","","-42","","NA"
"-100.27","70.63","GATESHEAD ISLAND","2402332","2019-04-13 09:00","2019","04","13","09:00","-27.2","","-30.0","","77","","","M","36","","22","","","","101.59","","","","-40","","NA"
"-100.27","70.63","GATESHEAD ISLAND","2402332","2019-04-13 10:00","2019","04","13","10:00","-26.5","","-29.1","","78","","","M","35","","21","","","","101.59","","","","-39","","NA"
"-100.27","70.63","GATESHEAD ISLAND","2402332","2019-04-13 11:00","2019","04","13","11:00","-26.0","","-28.6","","79","","","M","35","","25","","","","101.57","","","","-39","","NA"
"-100.27","70.63","GATESHEAD ISLAND","2402332","2019-04-13 12:00","2019","04","13","12:00","-25.5","","-28.1","","79","","","M","35","","27","","","","101.57","","","","-39","","NA"
"-100.27","70.63","GATESHEAD ISLAND","2402332","2019-04-13 13:00","2019","04","13","13:00","-25.1","","-27.6","","80","","","M","36","","18","","","","101.61","","","","-36","","NA"
"-100.27","70.63","GATESHEAD ISLAND","2402332","2019-04-13 14:00","2019","04","13","14:00","-25.0","","-27.6","","79","","","M","36","","20","","","","101.64","","","","-37","","NA"
"-100.27","70.63","GATESHEAD ISLAND","2402332","2019-04-13 15:00","2019","04","13","15:00","-24.9","","-27.4","","80","","","M","36","","23","","","","101.66","","","","-37","","NA"
"-100.27","70.63","GATESHEAD ISLAND","2402332","2019-04-13 16:00","2019","04","13","16:00","-24.8","","-27.3","","80","","","M","35","","18","","","","101.68","","","","-36","","NA"
"-100.27","70.63","GATESHEAD ISLAND","2402332","2019-04-13 17:00","2019","04","13","17:00","-24.9","","-27.4","","79","","","M","34","","16","","","","101.70","","","","-35","","NA"
"-100.27","70.63","GATESHEAD ISLAND","2402332","2019-04-13 18:00","2019","04","13","18:00","-25.5","","-28.1","","79","","","M","33","","17","","","","101.70","","","","-37","","NA"
"-100.27","70.63","GATESHEAD ISLAND","2402332","2019-04-13 19:00","2019","04","13","19:00","-26.2","","-28.9","","78","","","M","33","","15","","","","101.71","","","","-37","","NA"
"-100.27","70.63","GATESHEAD ISLAND","2402332","2019-04-13 20:00","2019","04","13","20:00","-27.8","","-30.6","","77","","","M","33","","15","","","","101.70","","","","-39","","NA"
"-100.27","70.63","GATESHEAD ISLAND","2402332","2019-04-13 21:00","2019","04","13","21:00","-28.6","","-31.5","","76","","","M","31","","6","","","","101.72","","","","-35","","NA"
"-100.27","70.63","GATESHEAD ISLAND","2402332","2019-04-13 22:00","2019","04","13","22:00","-29.4","","-32.4","","76","","","M","30","","16","","","","101.68","","","","-41","","NA"
"-100.27","70.63","GATESHEAD ISLAND","2402332","2019-04-13 23:00","2019","04","13","23:00","-29.5","","-32.5","","75","","","M","31","","13","","","","101.70","","","","-40","","NA"
"-100.27","70.63","GATESHEAD ISLAND","2402332","2019-04-14 00:00","2019","04","14","00:00","-30.0","","-33.0","","75","","","M","32","","13","","","","101.68","","","","-41","","NA"
"-100.27","70.63","GATESHEAD ISLAND","2402332","2019-04-14 01:00","2019","04","14","01:00","-30.4","","-33.5","","75","","","M","32","","11","","","","101.69","","","","-40","","NA"
"-100.27","70.63","GATESHEAD ISLAND","2402332","2019-04-14 02:00","2019","04","14","02:00","-30.0","","-33.0","","75","","","M","32","","15","","","","101.69","","","","-41","","NA"
"-100.27","70.63","GATESHEAD ISLAND","2402332","2019-04-14 03:00","2019","04","14","03:00","-30.4","","-33.5","","74","","","M","32","","14","","","","101.71","","","","-42","","NA"
"-100.27","70.63","GATESHEAD ISLAND","2402332","2019-04-14 04:00","2019","04","14","04:00","-31.0","","-34.2","","74","","","M","32","","13","","","","101.71","","","","-42","","NA"
"-100.27","70.63","GATESHEAD ISLAND","2402332","2019-04-14 05:00","2019","04","14","05:00","-30.4","","-33.5","","74","","","M","32","","14","","","","101.73","","","","-42","","NA"
"-100.27","70.63","GATESHEAD ISLAND","2402332","2019-04-14 06:00","2019","04","14","06:00","-29.5","","-32.8","","74","","","M","32","","12","","","","101.73","","","","-40","","NA"
"-100.27","70.63","GATESHEAD ISLAND","2402332","2019-04-14 07:00","2019","04","14","07:00","-28.4","","-31.5","","75","","","M","31","","12","","","","101.70","","","","-38","","NA"
"-100.27","70.63","GATESHEAD ISLAND","2402332","2019-04-14 08:00","2019","04","14","08:00","-28.0","","-31.0","","75","","","M","32","","16","","","","101.72","","","","-39","","NA"
"-100.27","70.63","GATESHEAD ISLAND","2402332","2019-04-14 09:00","2019","04","14","09:00","-27.0","","-29.9","","77","","","M","33","","14","","","","101.74","","","","-37","","NA"
"-100.27","70.63","GATESHEAD ISLAND","2402332","2019-04-14 10:00","2019","04","14","10:00","-25.6","","-28.4","","77","","","M","31","","12","","","","101.72","","","","-35","","NA"
"-100.27","70.63","GATESHEAD ISLAND","2402332","2019-04-14 11:00","2019","04","14","11:00","-25.0","","-27.6","","79","","","M","31","","16","","","","101.71","","","","-36","","NA"
"-100.27","70.63","GATESHEAD ISLAND","2402332","2019-04-14 12:00","2019","04","14","12:00","-24.6","","-27.3","","78","","","M","32","","19","","","","101.71","","","","-36","","NA"
"-100.27","70.63","GATESHEAD ISLAND","2402332","2019-04-14 13:00","2019","04","14","13:00","-24.5","","-27.1","","79","","","M","34","","21","","","","101.74","","","","-36","","NA"
"-100.27","70.63","GATESHEAD ISLAND","2402332","2019-04-14 14:00","2019","04","14","14:00","-24.0","","-26.6","","79","","","M","33","","18","","","","101.75","","","","-35","","NA"
"-100.27","70.63","GATESHEAD ISLAND","2402332","2019-04-14 15:00","2019","04","14","15:00","-23.7","","-26.4","","79","","","M","32","","19","","","","101.76","","","","-35","","NA"
"-100.27","70.63","GATESHEAD ISLAND","2402332","2019-04-14 16:00","2019","04","14","16:00","-24.0","","-26.6","","79","","","M","33","","16","","","","101.82","","","","-34","","NA"
"-100.27","70.63","GATESHEAD ISLAND","2402332","2019-04-14 17:00","2019","04","14","17:00","-24.3","","-26.9","","79","","","M","32","","14","","","","101.79","","","","-34","","NA"
"-100.27","70.63","GATESHEAD ISLAND","2402332","2019-04-14 18:00","2019","04","14","18:00","-25.0","","-27.6","","79","","","M","33","","14","","","","101.82","","","","-35","","NA"
"-100.27","70.63","GATESHEAD ISLAND","2402332","2019-04-14 19:00","2019","04","14","19:00","-26.4","","-29.0","","78","","","M","31","","16","","","","101.75","","","","-37","","NA"
"-100.27","70.63","GATESHEAD ISLAND","2402332","2019-04-14 20:00","2019","04","14","20:00","-27.4","","-30.2","","77","","","M","32","","16","","","","101.79","","","","-39","","NA"
"-100.27","70.63","GATESHEAD ISLAND","2402332","2019-04-14 21:00","2019","04","14","21:00","-28.1","","-30.9","","77","","","M","28","","9","","","","101.81","","","","-36","","NA"
"-100.27","70.63","GATESHEAD ISLAND","2402332","2019-04-14 22:00","2019","04","14","22:00","-29.3","","-32.2","","76","","","M","30","","15","","","","101.80","","","","-41","","NA"
"-100.27","70.63","GATESHEAD ISLAND","2402332","2019-04-14 23:00","2019","04","14","23:00","-29.6","","-32.6","","76","","","M","29","","13","","","","101.80","","","","-40","","NA"
"-100.27","70.63","GATESHEAD ISLAND","2402332","2019-04-15 00:00","2019","04","15","00:00","-30.8","","-34.0","","74","","","M","31","","14","","","","101.78","","","","-42","","NA"
"-100.27","70.63","GATESHEAD ISLAND","2402332","2019-04-15 01:00","2019","04","15","01:00","-30.2","","-33.2","","75","","","M","32","","9","","","","101.78","","","","-39","","NA"
"-100.27","70.63","GATESHEAD ISLAND","2402332","2019-04-15 02:00","2019","04","15","02:00","-30.9","","-34.1","","74","","","M","30","","10","","","","101.78","","","","-40","","NA"
"-100.27","70.63","GATESHEAD ISLAND","2402332","2019-04-15 03:00","2019","04","15","03:00","-31.0","","-34.1","","74","","","M","30","","14","","","","101.77","","","","-42","","NA"
"-100.27","70.63","GATESHEAD ISLAND","2402332","2019-04-15 04:00","2019","04","15","04:00","-29.8","","-32.8","","75","","","M","30","","13","","","","101.78","","","","-40","","NA"
"-100.27","70.63","GATESHEAD ISLAND","2402332","2019-04-15 05:00","2019","04","15","05:00","-28.7","","-31.6","","76","","","M","30","","10","","","","101.75","","","","-38","","NA"
"-100.27","70.63","GATESHEAD ISLAND","2402332","2019-04-15 06:00","2019","04","15","06:00","-28.2","","-31.0","","77","","","M","29","","12","","","","101.75","","","","-38","","NA"
"-100.27","70.63","GATESHEAD ISLAND","2402332","2019-04-15 07:00","2019","04","15","07:00","-27.7","","-30.3","","78","","","M","26","","14","","","","101.71","","","","-38","","NA"
"-100.27","70.63","GATESHEAD ISLAND","2402332","2019-04-15 08:00","2019","04","15","08:00","-26.1","","-28.7","","79","","","M","28","","15","","","","101.70","","","","-37","","NA"
"-100.27","70.63","GATESHEAD ISLAND","2402332","2019-04-15 09:00","2019","04","15","09:00","-25.2","","-27.9","","79","","","M","28","","18","","","","101.67","","","","-36","","NA"
"-100.27","70.63","GATESHEAD ISLAND","2402332","2019-04-15 10:00","2019","04","15","10:00","-24.6","","-27.0","","80","","","M","27","","21","","","","101.63","","","","-37","","NA"
"-100.27","70.63","GATESHEAD ISLAND","2402332","2019-04-15 11:00","2019","04","15","11:00","-23.8","","-26.1","","81","","","M","27","","23","","","","101.60","","","","-36","","NA"
"-100.27","70.63","GATESHEAD ISLAND","2402332","2019-04-15 12:00","2019","04","15","12:00","-22.4","","-24.6","","82","","","M","27","","22","","","","101.60","","","","-34","","NA"
"-100.27","70.63","GATESHEAD ISLAND","2402332","2019-04-15 13:00","2019","04","15","13:00","-21.9","","-24.0","","83","","","M","27","","23","","","","101.57","","","","-34","","NA"
"-100.27","70.63","GATESHEAD ISLAND","2402332","2019-04-15 14:00","2019","04","15","14:00","-21.3","","-23.4","","83","","","M","27","","25","","","","101.55","","","","-33","","NA"
"-100.27","70.63","GATESHEAD ISLAND","2402332","2019-04-15 15:00","2019","04","15","15:00","-20.8","","-23.0","","83","","","M","27","","25","","","","101.53","","","","-33","","NA"
"-100.27","70.63","GATESHEAD ISLAND","2402332","2019-04-15 16:00","2019","04","15","16:00","-20.5","","-22.6","","84","","","M","26","","20","","","","101.53","","","","-31","","NA"
"-100.27","70.63","GATESHEAD ISLAND","2402332","2019-04-15 17:00","2019","04","15","17:00","-21.1","","-23.2","","83","","","M","28","","21","","","","101.54","","","","-32","","NA"
"-100.27","70.63","GATESHEAD ISLAND","2402332","2019-04-15 18:00","2019","04","15","18:00","-22.4","","-24.7","","81","","","M","29","","18","","","","101.53","","","","-33","","NA"
"-100.27","70.63","GATESHEAD ISLAND","2402332","2019-04-15 19:00","2019","04","15","19:00","-23.3","","-25.7","","81","","","M","29","","19","","","","101.55","","","","-34","","NA"
"-100.27","70.63","GATESHEAD ISLAND","2402332","2019-04-15 20:00","2019","04","15","20:00","-24.5","","-26.9","","80","","","M","30","","18","","","","101.57","","","","-36","","NA"
"-100.27","70.63","GATESHEAD ISLAND","2402332","2019-04-15 21:00","2019","04","15","21:00","-25.2","","-27.7","","80","","","M","29","","15","","","","101.57","","","","-35","","NA"
"-100.27","70.63","GATESHEAD ISLAND","2402332","2019-04-15 22:00","2019","04","15","22:00","-26.1","","-28.6","","79","","","M","28","","18","","","","101.56","","","","-38","","NA"
"-100.27","70.63","GATESHEAD ISLAND","2402332","2019-04-15 23:00","2019","04","15","23:00","-25.8","","-28.2","","80","","","M","29","","16","","","","101.59","","","","-37","","NA"
"-100.27","70.63","GATESHEAD ISLAND","2402332","2019-04-16 00:00","2019","04","16","00:00","-25.7","","-28.2","","79","","","M","28","","12","","","","101.61","","","","-35","","NA"
"-100.27","70.63","GATESHEAD ISLAND","2402332","2019-04-16 01:00","2019","04","16","01:00","-27.3","","-30.0","","78","","","M","28","","12","","","","101.64","","","","-37","","NA"
"-100.27","70.63","GATESHEAD ISLAND","2402332","2019-04-16 02:00","2019","04","16","02:00","-26.9","","-29.6","","78","","","M","29","","12","","","","101.67","","","","-36","","NA"
"-100.27","70.63","GATESHEAD ISLAND","2402332","2019-04-16 03:00","2019","04","16","03:00","-27.0","","-29.7","","78","","","M","29","","13","","","","101.66","","","","-37","","NA"
"-100.27","70.63","GATESHEAD ISLAND","2402332","2019-04-16 04:00","2019","04","16","04:00","-26.9","","-29.5","","78","","","M","30","","12","","","","101.67","","","","-36","","NA"
"-100.27","70.63","GATESHEAD ISLAND","2402332","2019-04-16 05:00","2019","04","16","05:00","-27.5","","-30.1","","79","","","M","25","","14","","","","101.68","","","","-38","","NA"
"-100.27","70.63","GATESHEAD ISLAND","2402332","2019-04-16 06:00","2019","04","16","06:00","-27.3","","-29.9","","78","","","M","25","","13","","","","101.70","","","","-37","","NA"
"-100.27","70.63","GATESHEAD ISLAND","2402332","2019-04-16 07:00","2019","04","16","07:00","-26.0","","-28.5","","80","","","M","27","","12","","","","101.68","","","","-35","","NA"
"-100.27","70.63","GATESHEAD ISLAND","2402332","2019-04-16 08:00","2019","04","16","08:00","-25.4","","-28.1","","79","","","M","30","","11","","","","101.69","","","","-34","","NA"
"-100.27","70.63","GATESHEAD ISLAND","2402332","2019-04-16 09:00","2019","04","16","09:00","-24.3","","-26.6","","82","","","M","27","","8","","","","101.73","","","","-31","","NA"
"-100.27","70.63","GATESHEAD ISLAND","2402332","2019-04-16 10:00","2019","04","16","10:00","-23.0","","-25.1","","83","","","M","27","","9","","","","101.74","","","","-30","","NA"
"-100.27","70.63","GATESHEAD ISLAND","2402332","2019-04-16 11:00","2019","04","16","11:00","-21.5","","-23.4","","84","","","M","25","","10","","","","101.74","","","","-29","","NA"
"-100.27","70.63","GATESHEAD ISLAND","2402332","2019-04-16 12:00","2019","04","16","12:00","-20.7","","-22.7","","84","","","M","26","","15","","","","101.73","","","","-30","","NA"
"-100.27","70.63","GATESHEAD ISLAND","2402332","2019-04-16 13:00","2019","04","16","13:00","-20.1","","-22.1","","84","","","M","27","","17","","","","101.74","","","","-30","","NA"
"-100.27","70.63","GATESHEAD ISLAND","2402332","2019-04-16 14:00","2019","04","16","14:00","-19.7","","-21.8","","83","","","M","28","","12","","","","101.75","","","","-28","","NA"
"-100.27","70.63","GATESHEAD ISLAND","2402332","2019-04-16 15:00","2019","04","16","15:00","-19.0","","-21.1","","84","","","M","28","","9","","","","101.76","","","","-26","","NA"
"-100.27","70.63","GATESHEAD ISLAND","2402332","2019-04-16 16:00","2019","04","16","16:00","-19.0","","-20.6","","87","","","M","26","","7","","","","101.77","","","","-24","","NA"
"-100.27","70.63","GATESHEAD ISLAND","2402332","2019-04-16 17:00","2019","04","16","17:00","-20.6","","-22.8","","83","","","M","22","","11","","","","101.76","","","","-28","","NA"
"-100.27","70.63","GATESHEAD ISLAND","2402332","2019-04-16 18:00","2019","04","16","18:00","-21.0","","-23.1","","84","","","M","25","","11","","","","101.71","","","","-29","","NA"
"-100.27","70.63","GATESHEAD ISLAND","2402332","2019-04-16 19:00","2019","04","16","19:00","-22.4","","-24.6","","82","","","M","25","","10","","","","101.71","","","","-30","","NA"
"-100.27","70.63","GATESHEAD ISLAND","2402332","2019-04-16 20:00","2019","04","16","20:00","-23.2","","-25.5","","82","","","M","27","","12","","","","101.71","","","","-32","","NA"
"-100.27","70.63","GATESHEAD ISLAND","2402332","2019-04-16 21:00","2019","04","16","21:00","-24.2","","-26.6","","81","","","M","29","","8","","","","101.69","","","","-31","","NA"
"-100.27","70.63","GATESHEAD ISLAND","2402332","2019-04-16 22:00","2019","04","16","22:00","-24.2","","-26.5","","81","","","M","30","","7","","","","101.66","","","","-31","","NA"
"-100.27","70.63","GATESHEAD ISLAND","2402332","2019-04-16 23:00","2019","04","16","23:00","-24.6","","-27.0","","81","","","M","33","","10","","","","101.67","","","","-33","","NA"
"-100.27","70.63","GATESHEAD ISLAND","2402332","2019-04-17 00:00","2019","04","17","00:00","-25.2","","-27.7","","80","","","M","26","","5","","","","101.67","","","","-30","","NA"
"-100.27","70.63","GATESHEAD ISLAND","2402332","2019-04-17 01:00","2019","04","17","01:00","-24.6","","-27.0","","80","","","M","29","","5","","","","101.65","","","","-29","","NA"
"-100.27","70.63","GATESHEAD ISLAND","2402332","2019-04-17 02:00","2019","04","17","02:00","-26.0","","-28.6","","79","","","M","31","","7","","","","101.64","","","","-33","","NA"
"-100.27","70.63","GATESHEAD ISLAND","2402332","2019-04-17 03:00","2019","04","17","03:00","-26.1","","-28.7","","78","","","M","33","","4","","","","101.62","","","","-30","","NA"
"-100.27","70.63","GATESHEAD ISLAND","2402332","2019-04-17 04:00","2019","04","17","04:00","-26.3","","-28.9","","79","","","M","36","","3","","","","101.63","","","","-29","","NA"
"-100.27","70.63","GATESHEAD ISLAND","2402332","2019-04-17 05:00","2019","04","17","05:00","-22.2","","-24.2","","84","","","M","2","","3","","","","101.60","","","","-25","","NA"
"-100.27","70.63","GATESHEAD ISLAND","2402332","2019-04-17 06:00","2019","04","17","06:00","-20.3","","-22.6","","81","","","M","2","","2","","","","101.58","","","","-22","","NA"
"-100.27","70.63","GATESHEAD ISLAND","2402332","2019-04-17 07:00","2019","04","17","07:00","-23.0","","-25.5","","80","","","M","8","","2","","","","101.56","","","","-25","","NA"
"-100.27","70.63","GATESHEAD ISLAND","2402332","2019-04-17 08:00","2019","04","17","08:00","-22.4","","-25.5","","76","","","M","18","","6","","","","101.56","","","","-28","","NA"
"-100.27","70.63","GATESHEAD ISLAND","2402332","2019-04-17 09:00","2019","04","17","09:00","-24.2","","-26.8","","79","","","M","21","","6","","","","101.54","","","","-30","","NA"
"-100.27","70.63","GATESHEAD ISLAND","2402332","2019-04-17 10:00","2019","04","17","10:00","-23.0","","-24.8","","85","","","M","24","","5","","","","101.51","","","","-28","","NA"
"-100.27","70.63","GATESHEAD ISLAND","2402332","2019-04-17 11:00","2019","04","17","11:00","-21.5","","-23.5","","84","","","M","31","","6","","","","101.51","","","","-27","","NA"
"-100.27","70.63","GATESHEAD ISLAND","2402332","2019-04-17 12:00","2019","04","17","12:00","-20.3","","-22.4","","83","","","M","31","","6","","","","101.52","","","","-25","","NA"
"-100.27","70.63","GATESHEAD ISLAND","2402332","2019-04-17 13:00","2019","04","17","13:00","-18.8","","-20.8","","84","","","M","31","","5","","","","101.52","","","","-23","","NA"
"-100.27","70.63","GATESHEAD ISLAND","2402332","2019-04-17 14:00","2019","04","17","14:00","-18.9","","-21.3","","81","","","M","31","","7","","","","101.54","","","","-24","","NA"
"-100.27","70.63","GATESHEAD ISLAND","2402332","2019-04-17 15:00","2019","04","17","15:00","-18.9","","-21.2","","82","","","M","31","","10","","","","101.55","","","","-26","","NA"
"-100.27","70.63","GATESHEAD ISLAND","2402332","2019-04-17 16:00","2019","04","17","16:00","-19.2","","-21.5","","82","","","M","34","","9","","","","101.55","","","","-26","","NA"
"-100.27","70.63","GATESHEAD ISLAND","2402332","2019-04-17 17:00","2019","04","17","17:00","-19.5","","-21.7","","83","","","M","34","","7","","","","101.56","","","","-25","","NA"
"-100.27","70.63","GATESHEAD ISLAND","2402332","2019-04-17 18:00","2019","04","17","18:00","-19.5","","-21.7","","83","","","M","32","","6","","","","101.56","","","","-24","","NA"
"-100.27","70.63","GATESHEAD ISLAND","2402332","2019-04-17 19:00","2019","04","17","19:00","-21.0","","-23.2","","83","","","M","36","","8","","","","101.54","","","","-27","","NA"
"-100.27","70.63","GATESHEAD ISLAND","2402332","2019-04-17 20:00","2019","04","17","20:00","-21.6","","-23.8","","82","","","M","2","","3","","","","101.54","","","","-24","","NA"
"-100.27","70.63","GATESHEAD ISLAND","2402332","2019-04-17 21:00","2019","04","17","21:00","-22.6","","-24.7","","83","","","M","","","0","","","","101.54","","","","","","NA"
"-100.27","70.63","GATESHEAD ISLAND","2402332","2019-04-17 22:00","2019","04","17","22:00","-23.5","","-25.8","","81","","","M","21","","2","","","","101.53","","","","-25","","NA"
"-100.27","70.63","GATESHEAD ISLAND","2402332","2019-04-17 23:00","2019","04","17","23:00","-23.6","","-25.9","","82","","","M","18","","6","","","","101.54","","","","-29","","NA"
"-100.27","70.63","GATESHEAD ISLAND","2402332","2019-04-18 00:00","2019","04","18","00:00","-22.8","","-25.0","","82","","","M","21","","5","","","","101.53","","","","-27","","NA"
"-100.27","70.63","GATESHEAD ISLAND","2402332","2019-04-18 01:00","2019","04","18","01:00","-24.5","","-26.9","","80","","","M","23","","9","","","","101.50","","","","-32","","NA"
"-100.27","70.63","GATESHEAD ISLAND","2402332","2019-04-18 02:00","2019","04","18","02:00","-27.7","","-30.5","","77","","","M","22","","6","","","","101.49","","","","-34","","NA"
"-100.27","70.63","GATESHEAD ISLAND","2402332","2019-04-18 03:00","2019","04","18","03:00","-27.8","","-30.5","","77","","","M","22","","7","","","","101.45","","","","-35","","NA"
"-100.27","70.63","GATESHEAD ISLAND","2402332","2019-04-18 04:00","2019","04","18","04:00","-28.3","","-31.2","","76","","","M","22","","5","","","","101.44","","","","-34","","NA"
"-100.27","70.63","GATESHEAD ISLAND","2402332","2019-04-18 05:00","2019","04","18","05:00","-27.7","","-30.7","","76","","","M","20","","3","","","","101.41","","","","-31","","NA"
"-100.27","70.63","GATESHEAD ISLAND","2402332","2019-04-18 06:00","2019","04","18","06:00","-26.6","","-29.5","","76","","","M","21","","2","","","","101.37","","","","-29","","NA"
"-100.27","70.63","GATESHEAD ISLAND","2402332","2019-04-18 07:00","2019","04","18","07:00","-26.7","","-29.4","","78","","","M","23","","2","","","","101.30","","","","-29","","NA"
"-100.27","70.63","GATESHEAD ISLAND","2402332","2019-04-18 08:00","2019","04","18","08:00","-24.4","","-27.1","","78","","","M","21","","6","","","","101.26","","","","-30","","NA"
"-100.27","70.63","GATESHEAD ISLAND","2402332","2019-04-18 09:00","2019","04","18","09:00","-22.8","","-25.4","","79","","","M","20","","8","","","","101.19","","","","-30","","NA"
"-100.27","70.63","GATESHEAD ISLAND","2402332","2019-04-18 10:00","2019","04","18","10:00","-22.9","","-25.3","","81","","","M","21","","12","","","","101.14","","","","-32","","NA"
"-100.27","70.63","GATESHEAD ISLAND","2402332","2019-04-18 11:00","2019","04","18","11:00","-22.0","","-24.3","","82","","","M","23","","19","","","","101.09","","","","-33","","NA"
"-100.27","70.63","GATESHEAD ISLAND","2402332","2019-04-18 12:00","2019","04","18","12:00","-21.3","","-23.5","","82","","","M","23","","19","","","","101.05","","","","-32","","NA"
"-100.27","70.63","GATESHEAD ISLAND","2402332","2019-04-18 13:00","2019","04","18","13:00","-20.4","","-22.5","","83","","","M","24","","19","","","","101.03","","","","-31","","NA"
"-100.27","70.63","GATESHEAD ISLAND","2402332","2019-04-18 14:00","2019","04","18","14:00","-19.4","","-21.4","","84","","","M","26","","19","","","","100.99","","","","-29","","NA"
"-100.27","70.63","GATESHEAD ISLAND","2402332","2019-04-18 15:00","2019","04","18","15:00","-18.9","","-20.9","","84","","","M","27","","20","","","","100.95","","","","-29","","NA"
"-100.27","70.63","GATESHEAD ISLAND","2402332","2019-04-18 16:00","2019","04","18","16:00","-19.4","","-21.6","","83","","","M","28","","15","","","","100.93","","","","-28","","NA"
"-100.27","70.63","GATESHEAD ISLAND","2402332","2019-04-18 17:00","2019","04","18","17:00","-20.3","","-22.4","","84","","","M","30","","17","","","","100.92","","","","-30","","NA"
"-100.27","70.63","GATESHEAD ISLAND","2402332","2019-04-18 18:00","2019","04","18","18:00","-21.3","","-23.4","","83","","","M","32","","18","","","","100.90","","","","-32","","NA"
"-100.27","70.63","GATESHEAD ISLAND","2402332","2019-04-18 19:00","2019","04","18","19:00","-22.7","","-24.9","","82","","","M","31","","14","","","","100.88","","","","-32","","NA"
"-100.27","70.63","GATESHEAD ISLAND","2402332","2019-04-18 20:00","2019","04","18","20:00","-24.0","","-26.4","","81","","","M","32","","15","","","","100.87","","","","-34","","NA"
"-100.27","70.63","GATESHEAD ISLAND","2402332","2019-04-18 21:00","2019","04","18","21:00","-26.0","","-28.5","","79","","","M","32","","13","","","","100.87","","","","-36","","NA"
"-100.27","70.63","GATESHEAD ISLAND","2402332","2019-04-18 22:00","2019","04","18","22:00","-26.8","","-29.4","","78","","","M","33","","15","","","","100.89","","","","-37","","NA"
"-100.27","70.63","GATESHEAD ISLAND","2402332","2019-04-18 23:00","2019","04","18","23:00","-27.8","","-30.6","","77","","","M","33","","17","","","","100.89","","","","-39","","NA"
"-100.27","70.63","GATESHEAD ISLAND","2402332","2019-04-19 00:00","2019","04","19","00:00","-28.8","","-31.7","","76","","","M","32","","11","","","","100.90","","","","-38","","NA"
"-100.27","70.63","GATESHEAD ISLAND","2402332","2019-04-19 01:00","2019","04","19","01:00","-29.2","","-32.2","","76","","","M","33","","18","","","","100.89","","","","-41","","NA"
"-100.27","70.63","GATESHEAD ISLAND","2402332","2019-04-19 02:00","2019","04","19","02:00","-29.8","","-32.8","","75","","","M","32","","13","","","","100.89","","","","-40","","NA"
"-100.27","70.63","GATESHEAD ISLAND","2402332","2019-04-19 03:00","2019","04","19","03:00","-30.4","","-33.4","","74","","","M","32","","16","","","","100.90","","","","-42","","NA"
"-100.27","70.63","GATESHEAD ISLAND","2402332","2019-04-19 04:00","2019","04","19","04:00","-31.0","","-34.1","","74","","","M","33","","16","","","","100.92","","","","-43","","NA"
"-100.27","70.63","GATESHEAD ISLAND","2402332","2019-04-19 05:00","2019","04","19","05:00","-31.0","","-34.3","","73","","","M","33","","16","","","","100.91","","","","-43","","NA"
"-100.27","70.63","GATESHEAD ISLAND","2402332","2019-04-19 06:00","2019","04","19","06:00","-30.6","","-33.8","","73","","","M","33","","17","","","","100.92","","","","-43","","NA"
"-100.27","70.63","GATESHEAD ISLAND","2402332","2019-04-19 07:00","2019","04","19","07:00","-29.9","","-33.1","","73","","","M","33","","17","","","","100.93","","","","-42","","NA"
"-100.27","70.63","GATESHEAD ISLAND","2402332","2019-04-19 08:00","2019","04","19","08:00","-29.1","","-32.1","","75","","","M","33","","17","","","","100.92","","","","-41","","NA"
"-100.27","70.63","GATESHEAD ISLAND","2402332","2019-04-19 09:00","2019","04","19","09:00","-27.8","","-30.8","","76","","","M","32","","18","","","","100.94","","","","-40","","NA"
"-100.27","70.63","GATESHEAD ISLAND","2402332","2019-04-19 10:00","2019","04","19","10:00","-26.6","","-29.5","","77","","","M","32","","19","","","","100.92","","","","-39","","NA"
"-100.27","70.63","GATESHEAD ISLAND","2402332","2019-04-19 11:00","2019","04","19","11:00","-25.2","","-28.0","","78","","","M","32","","20","","","","100.92","","","","-37","","NA"
"-100.27","70.63","GATESHEAD ISLAND","2402332","2019-04-19 12:00","2019","04","19","12:00","-25.0","","-27.7","","78","","","M","32","","21","","","","100.93","","","","-37","","NA"
"-100.27","70.63","GATESHEAD ISLAND","2402332","2019-04-19 13:00","2019","04","19","13:00","-24.5","","-27.2","","78","","","M","32","","23","","","","100.96","","","","-37","","NA"
"-100.27","70.63","GATESHEAD ISLAND","2402332","2019-04-19 14:00","2019","04","19","14:00","-24.0","","-26.6","","79","","","M","32","","21","","","","100.96","","","","-36","","NA"
"-100.27","70.63","GATESHEAD ISLAND","2402332","2019-04-19 15:00","2019","04","19","15:00","-23.6","","-26.2","","79","","","M","33","","23","","","","100.99","","","","-36","","NA"
"-100.27","70.63","GATESHEAD ISLAND","2402332","2019-04-19 16:00","2019","04","19","16:00","-23.5","","-26.0","","80","","","M","33","","24","","","","101.01","","","","-36","","NA"
"-100.27","70.63","GATESHEAD ISLAND","2402332","2019-04-19 17:00","2019","04","19","17:00","-23.3","","-25.8","","80","","","M","33","","22","","","","101.02","","","","-35","","NA"
"-100.27","70.63","GATESHEAD ISLAND","2402332","2019-04-19 18:00","2019","04","19","18:00","-23.3","","-25.7","","80","","","M","34","","22","","","","101.02","","","","-35","","NA"
"-100.27","70.63","GATESHEAD ISLAND","2402332","2019-04-19 19:00","2019","04","19","19:00","-23.4","","-25.9","","80","","","M","34","","20","","","","101.04","","","","-35","","NA"
"-100.27","70.63","GATESHEAD ISLAND","2402332","2019-04-19 20:00","2019","04","19","20:00","-23.3","","-25.7","","81","","","M","34","","19","","","","101.07","","","","-34","","NA"
"-100.27","70.63","GATESHEAD ISLAND","2402332","2019-04-19 21:00","2019","04","19","21:00","-23.4","","-25.8","","81","","","M","34","","20","","","","101.06","","","","-35","","NA"
"-100.27","70.63","GATESHEAD ISLAND","2402332","2019-04-19 22:00","2019","04","19","22:00","-23.5","","-25.9","","80","","","M","35","","17","","","","101.10","","","","-34","","NA"
"-100.27","70.63","GATESHEAD ISLAND","2402332","2019-04-19 23:00","2019","04","19","23:00","-25.0","","-27.6","","79","","","M","35","","14","","","","101.12","","","","-35","","NA"
"-100.27","70.63","GATESHEAD ISLAND","2402332","2019-04-20 00:00","2019","04","20","00:00","-26.4","","-29.1","","78","","","M","34","","14","","","","101.14","","","","-37","","NA"
"-100.27","70.63","GATESHEAD ISLAND","2402332","2019-04-20 01:00","2019","04","20","01:00","-27.2","","-29.9","","78","","","M","34","","12","","","","101.20","","","","-37","","NA"
"-100.27","70.63","GATESHEAD ISLAND","2402332","2019-04-20 02:00","2019","04","20","02:00","-28.6","","-31.4","","76","","","M","34","","12","","","","101.24","","","","-38","","NA"
"-100.27","70.63","GATESHEAD ISLAND","2402332","2019-04-20 03:00","2019","04","20","03:00","-28.4","","-31.2","","77","","","M","35","","10","","","","101.29","","","","-37","","NA"
"-100.27","70.63","GATESHEAD ISLAND","2402332","2019-04-20 04:00","2019","04","20","04:00","-29.0","","-32.0","","75","","","M","34","","8","","","","101.34","","","","-37","","NA"
"-100.27","70.63","GATESHEAD ISLAND","2402332","2019-04-20 05:00","2019","04","20","05:00","-28.9","","-31.9","","75","","","M","35","","11","","","","101.37","","","","-38","","NA"
"-100.27","70.63","GATESHEAD ISLAND","2402332","2019-04-20 06:00","2019","04","20","06:00","-29.2","","-31.9","","77","","","M","34","","6","","","","101.41","","","","-36","","NA"
"-100.27","70.63","GATESHEAD ISLAND","2402332","2019-04-20 07:00","2019","04","20","07:00","-27.8","","-30.7","","76","","","M","33","","7","","","","101.43","","","","-35","","NA"
"-100.27","70.63","GATESHEAD ISLAND","2402332","2019-04-20 08:00","2019","04","20","08:00","-27.4","","-30.1","","78","","","M","32","","6","","","","101.48","","","","-34","","NA"
"-100.27","70.63","GATESHEAD ISLAND","2402332","2019-04-20 09:00","2019","04","20","09:00","-26.2","","-29.2","","76","","","M","34","","8","","","","101.51","","","","-34","","NA"
"-100.27","70.63","GATESHEAD ISLAND","2402332","2019-04-20 10:00","2019","04","20","10:00","-24.5","","-27.0","","79","","","M","33","","6","","","","101.53","","","","-30","","NA"
"-100.27","70.63","GATESHEAD ISLAND","2402332","2019-04-20 11:00","2019","04","20","11:00","-24.0","","-26.9","","77","","","M","33","","9","","","","101.56","","","","-31","","NA"
"-100.27","70.63","GATESHEAD ISLAND","2402332","2019-04-20 12:00","2019","04","20","12:00","-23.1","","-25.6","","80","","","M","31","","6","","","","101.60","","","","-29","","NA"
"-100.27","70.63","GATESHEAD ISLAND","2402332","2019-04-20 13:00","2019","04","20","13:00","-22.7","","-25.5","","78","","","M","30","","10","","","","101.64","","","","-30","","NA"
"-100.27","70.63","GATESHEAD ISLAND","2402332","2019-04-20 14:00","2019","04","20","14:00","-21.9","","-24.8","","78","","","M","30","","9","","","","101.65","","","","-29","","NA"
"-100.27","70.63","GATESHEAD ISLAND","2402332","2019-04-20 15:00","2019","04","20","15:00","-21.2","","-23.9","","78","","","M","29","","9","","","","101.66","","","","-28","","NA"
"-100.27","70.63","GATESHEAD ISLAND","2402332","2019-04-20 16:00","2019","04","20","16:00","-20.4","","-22.9","","81","","","M","28","","6","","","","101.67","","","","-25","","NA"
"-100.27","70.63","GATESHEAD ISLAND","2402332","2019-04-20 17:00","2019","04","20","17:00","-21.1","","-23.2","","84","","","M","25","","10","","","","101.67","","","","-29","","NA"
"-100.27","70.63","GATESHEAD ISLAND","2402332","2019-04-20 18:00","2019","04","20","18:00","-22.0","","-24.2","","82","","","M","25","","14","","","","101.67","","","","-31","","NA"
"-100.27","70.63","GATESHEAD ISLAND","2402332","2019-04-20 19:00","2019","04","20","19:00","-23.1","","-25.4","","82","","","M","26","","17","","","","101.66","","","","-34","","NA"
"-100.27","70.63","GATESHEAD ISLAND","2402332","2019-04-20 20:00","2019","04","20","20:00","-24.4","","-26.8","","80","","","M","26","","18","","","","101.63","","","","-35","","NA"
"-100.27","70.63","GATESHEAD ISLAND","2402332","2019-04-20 21:00","2019","04","20","21:00","-25.3","","-27.8","","80","","","M","26","","20","","","","101.64","","","","-37","","NA"
"-100.27","70.63","GATESHEAD ISLAND","2402332","2019-04-20 22:00","2019","04","20","22:00","-26.4","","-29.0","","79","","","M","27","","19","","","","101.63","","","","-38","","NA"
"-100.27","70.63","GATESHEAD ISLAND","2402332","2019-04-20 23:00","2019","04","20","23:00","-26.1","","-28.6","","79","","","M","29","","14","","","","101.63","","","","-36","","NA"
"-100.27","70.63","GATESHEAD ISLAND","2402332","2019-04-21 00:00","2019","04","21","00:00","-26.6","","-29.1","","79","","","M","30","","15","","","","101.61","","","","-37","","NA"
"-100.27","70.63","GATESHEAD ISLAND","2402332","2019-04-21 01:00","2019","04","21","01:00","-27.3","","-29.9","","78","","","M","30","","12","","","","101.59","","","","-37","","NA"
"-100.27","70.63","GATESHEAD ISLAND","2402332","2019-04-21 02:00","2019","04","21","02:00","-27.9","","-30.6","","77","","","M","30","","12","","","","101.59","","","","-38","","NA"
"-100.27","70.63","GATESHEAD ISLAND","2402332","2019-04-21 03:00","2019","04","21","03:00","-25.7","","-28.2","","79","","","M","28","","12","","","","101.55","","","","-35","","NA"
"-100.27","70.63","GATESHEAD ISLAND","2402332","2019-04-21 04:00","2019","04","21","04:00","-24.8","","-27.3","","80","","","M","27","","17","","","","101.52","","","","-36","","NA"
"-100.27","70.63","GATESHEAD ISLAND","2402332","2019-04-21 05:00","2019","04","21","05:00","-25.0","","-27.5","","80","","","M","27","","19","","","","101.47","","","","-37","","NA"
"-100.27","70.63","GATESHEAD ISLAND","2402332","2019-04-21 06:00","2019","04","21","06:00","-24.0","","-26.4","","81","","","M","27","","21","","","","101.43","","","","-36","","NA"
"-100.27","70.63","GATESHEAD ISLAND","2402332","2019-04-21 07:00","2019","04","21","07:00","-23.3","","-25.6","","81","","","M","28","","26","","","","101.36","","","","-36","","NA"
"-100.27","70.63","GATESHEAD ISLAND","2402332","2019-04-21 08:00","2019","04","21","08:00","-21.7","","-24.0","","82","","","M","28","","28","","","","101.28","","","","-34","","NA"
"-100.27","70.63","GATESHEAD ISLAND","2402332","2019-04-21 09:00","2019","04","21","09:00","-21.0","","-23.2","","83","","","M","28","","32","","","","101.20","","","","-34","","NA"
"-100.27","70.63","GATESHEAD ISLAND","2402332","2019-04-21 10:00","2019","04","21","10:00","-20.4","","-22.6","","83","","","M","29","","33","","","","101.15","","","","-34","","NA"
"-100.27","70.63","GATESHEAD ISLAND","2402332","2019-04-21 11:00","2019","04","21","11:00","-19.6","","-21.8","","83","","","M","30","","31","","","","101.13","","","","-32","","NA"
"-100.27","70.63","GATESHEAD ISLAND","2402332","2019-04-21 12:00","2019","04","21","12:00","-18.8","","-20.9","","83","","","M","30","","33","","","","101.12","","","","-32","","NA"
"-100.27","70.63","GATESHEAD ISLAND","2402332","2019-04-21 13:00","2019","04","21","13:00","-18.1","","-20.1","","84","","","M","31","","35","","","","101.16","","","","-31","","NA"
"-100.27","70.63","GATESHEAD ISLAND","2402332","2019-04-21 14:00","2019","04","21","14:00","-18.6","","-20.7","","84","","","M","34","","34","","","","101.20","","","","-31","","NA"
"-100.27","70.63","GATESHEAD ISLAND","2402332","2019-04-21 15:00","2019","04","21","15:00","-19.1","","-21.2","","83","","","M","34","","31","","","","101.25","","","","-32","","NA"
"-100.27","70.63","GATESHEAD ISLAND","2402332","2019-04-21 16:00","2019","04","21","16:00","-19.7","","-21.9","","82","","","M","35","","30","","","","101.35","","","","-32","","NA"
"-100.27","70.63","GATESHEAD ISLAND","2402332","2019-04-21 17:00","2019","04","21","17:00","-20.7","","-23.0","","82","","","M","35","","26","","","","101.42","","","","-33","","NA"
"-100.27","70.63","GATESHEAD ISLAND","2402332","2019-04-21 18:00","2019","04","21","18:00","-21.7","","-24.0","","81","","","M","34","","22","","","","101.46","","","","-33","","NA"
"-100.27","70.63","GATESHEAD ISLAND","2402332","2019-04-21 19:00","2019","04","21","19:00","-23.3","","-25.7","","80","","","M","33","","14","","","","101.56","","","","-33","","NA"
"-100.27","70.63","GATESHEAD ISLAND","2402332","2019-04-21 20:00","2019","04","21","20:00","-25.0","","-27.6","","79","","","M","33","","17","","","","101.61","","","","-36","","NA"
"-100.27","70.63","GATESHEAD ISLAND","2402332","2019-04-21 21:00","2019","04","21","21:00","-26.4","","-29.1","","78","","","M","34","","14","","","","101.68","","","","-37","","NA"
"-100.27","70.63","GATESHEAD ISLAND","2402332","2019-04-21 22:00","2019","04","21","22:00","-27.2","","-29.9","","78","","","M","35","","18","","","","101.71","","","","-39","","NA"
"-100.27","70.63","GATESHEAD ISLAND","2402332","2019-04-21 23:00","2019","04","21","23:00","-29.0","","-31.9","","76","","","M","32","","12","","","","101.78","","","","-39","","NA"
"-100.27","70.63","GATESHEAD ISLAND","2402332","2019-04-22 00:00","2019","04","22","00:00","-29.5","","-32.5","","75","","","M","31","","11","","","","101.82","","","","-39","","NA"
"-100.27","70.63","GATESHEAD ISLAND","2402332","2019-04-22 01:00","2019","04","22","01:00","-29.9","","-32.9","","75","","","M","31","","12","","","","101.87","","","","-40","","NA"
"-100.27","70.63","GATESHEAD ISLAND","2402332","2019-04-22 02:00","2019","04","22","02:00","-30.6","","-33.6","","75","","","M","30","","13","","","","101.92","","","","-41","","NA"
"-100.27","70.63","GATESHEAD ISLAND","2402332","2019-04-22 03:00","2019","04","22","03:00","-30.8","","-33.9","","74","","","M","31","","11","","","","101.94","","","","-41","","NA"
"-100.27","70.63","GATESHEAD ISLAND","2402332","2019-04-22 04:00","2019","04","22","04:00","-30.8","","-33.9","","74","","","M","31","","13","","","","101.95","","","","-42","","NA"
"-100.27","70.63","GATESHEAD ISLAND","2402332","2019-04-22 05:00","2019","04","22","05:00","-30.1","","-33.3","","74","","","M","30","","12","","","","101.96","","","","-40","","NA"
"-100.27","70.63","GATESHEAD ISLAND","2402332","2019-04-22 06:00","2019","04","22","06:00","-28.9","","-32.0","","75","","","M","30","","9","","","","101.95","","","","-37","","NA"
"-100.27","70.63","GATESHEAD ISLAND","2402332","2019-04-22 07:00","2019","04","22","07:00","-27.1","","-30.1","","76","","","M","29","","11","","","","101.94","","","","-36","","NA"
"-100.27","70.63","GATESHEAD ISLAND","2402332","2019-04-22 08:00","2019","04","22","08:00","-25.7","","-28.6","","77","","","M","29","","13","","","","101.94","","","","-35","","NA"
"-100.27","70.63","GATESHEAD ISLAND","2402332","2019-04-22 09:00","2019","04","22","09:00","-24.4","","-27.2","","78","","","M","29","","11","","","","101.91","","","","-33","","NA"
"-100.27","70.63","GATESHEAD ISLAND","2402332","2019-04-22 10:00","2019","04","22","10:00","-23.2","","-26.0","","78","","","M","29","","14","","","","101.91","","","","-33","","NA"
"-100.27","70.63","GATESHEAD ISLAND","2402332","2019-04-22 11:00","2019","04","22","11:00","-22.4","","-25.1","","79","","","M","29","","15","","","","101.91","","","","-32","","NA"
"-100.27","70.63","GATESHEAD ISLAND","2402332","2019-04-22 12:00","2019","04","22","12:00","-21.7","","-24.3","","79","","","M","30","","12","","","","101.89","","","","-30","","NA"
"-100.27","70.63","GATESHEAD ISLAND","2402332","2019-04-22 13:00","2019","04","22","13:00","-20.8","","-23.5","","79","","","M","29","","10","","","","101.92","","","","-28","","NA"
"-100.27","70.63","GATESHEAD ISLAND","2402332","2019-04-22 14:00","2019","04","22","14:00","-20.5","","-23.1","","80","","","M","28","","11","","","","101.90","","","","-28","","NA"
"-100.27","70.63","GATESHEAD ISLAND","2402332","2019-04-22 15:00","2019","04","22","15:00","-20.3","","-22.7","","81","","","M","29","","13","","","","101.89","","","","-29","","NA"
"-100.27","70.63","GATESHEAD ISLAND","2402332","2019-04-22 16:00","2019","04","22","16:00","-20.5","","-22.9","","81","","","M","29","","14","","","","101.84","","","","-29","","NA"
"-100.27","70.63","GATESHEAD ISLAND","2402332","2019-04-22 17:00","2019","04","22","17:00","-21.0","","-23.2","","82","","","M","30","","12","","","","101.85","","","","-29","","NA"
"-100.27","70.63","GATESHEAD ISLAND","2402332","2019-04-22 18:00","2019","04","22","18:00","-21.9","","-24.2","","82","","","M","31","","12","","","","101.83","","","","-30","","NA"
"-100.27","70.63","GATESHEAD ISLAND","2402332","2019-04-22 19:00","2019","04","22","19:00","-22.9","","-25.2","","81","","","M","30","","9","","","","101.84","","","","-30","","NA"
"-100.27","70.63","GATESHEAD ISLAND","2402332","2019-04-22 20:00","2019","04","22","20:00","-23.2","","-25.5","","81","","","M","32","","8","","","","101.82","","","","-30","","NA"
"-100.27","70.63","GATESHEAD ISLAND","2402332","2019-04-22 21:00","2019","04","22","21:00","-24.6","","-27.1","","80","","","M","31","","8","","","","101.81","","","","-32","","NA"
"-100.27","70.63","GATESHEAD ISLAND","2402332","2019-04-22 22:00","2019","04","22","22:00","-25.2","","-27.6","","80","","","M","33","","11","","","","101.78","","","","-34","","NA"
"-100.27","70.63","GATESHEAD ISLAND","2402332","2019-04-22 23:00","2019","04","22","23:00","-26.0","","-28.5","","79","","","M","34","","11","","","","101.78","","","","-35","","NA"
"-100.27","70.63","GATESHEAD ISLAND","2402332","2019-04-23 00:00","2019","04","23","00:00","-23.0","","-25.2","","82","","","M","35","","11","","","","101.79","","","","-31","","NA"
"-100.27","70.63","GATESHEAD ISLAND","2402332","2019-04-23 01:00","2019","04","23","01:00","-22.6","","-24.8","","82","","","M","34","","6","","","","101.80","","","","-28","","NA"
"-100.27","70.63","GATESHEAD ISLAND","2402332","2019-04-23 02:00","2019","04","23","02:00","-22.0","","-24.1","","83","","","M","35","","4","","","","101.82","","","","-26","","NA"
"-100.27","70.63","GATESHEAD ISLAND","2402332","2019-04-23 03:00","2019","04","23","03:00","-22.2","","-24.4","","82","","","M","33","","5","","","","101.81","","","","-27","","NA"
"-100.27","70.63","GATESHEAD ISLAND","2402332","2019-04-23 04:00","2019","04","23","04:00","-22.2","","-24.4","","82","","","M","30","","4","","","","101.77","","","","-26","","NA"
"-100.27","70.63","GATESHEAD ISLAND","2402332","2019-04-23 05:00","2019","04","23","05:00","-23.0","","-25.4","","81","","","M","31","","6","","","","101.75","","","","-28","","NA"
"-100.27","70.63","GATESHEAD ISLAND","2402332","2019-04-23 06:00","2019","04","23","06:00","-24.4","","-26.9","","80","","","M","32","","5","","","","101.74","","","","-29","","NA"
"-100.27","70.63","GATESHEAD ISLAND","2402332","2019-04-23 07:00","2019","04","23","07:00","-23.2","","-25.8","","79","","","M","34","","4","","","","101.73","","","","-27","","NA"
"-100.27","70.63","GATESHEAD ISLAND","2402332","2019-04-23 08:00","2019","04","23","08:00","-23.0","","-25.3","","81","","","M","31","","4","","","","101.74","","","","-27","","NA"
"-100.27","70.63","GATESHEAD ISLAND","2402332","2019-04-23 09:00","2019","04","23","09:00","-21.8","","-24.4","","79","","","M","30","","7","","","","101.75","","","","-28","","NA"
"-100.27","70.63","GATESHEAD ISLAND","2402332","2019-04-23 10:00","2019","04","23","10:00","-21.6","","-24.2","","80","","","M","31","","10","","","","101.75","","","","-29","","NA"
"-100.27","70.63","GATESHEAD ISLAND","2402332","2019-04-23 11:00","2019","04","23","11:00","-20.5","","-23.2","","79","","","M","31","","9","","","","101.74","","","","-27","","NA"
"-100.27","70.63","GATESHEAD ISLAND","2402332","2019-04-23 12:00","2019","04","23","12:00","-20.2","","-22.8","","79","","","M","31","","10","","","","101.73","","","","-27","","NA"
"-100.27","70.63","GATESHEAD ISLAND","2402332","2019-04-23 13:00","2019","04","23","13:00","-20.2","","-22.8","","80","","","M","32","","15","","","","101.73","","","","-29","","NA"
"-100.27","70.63","GATESHEAD ISLAND","2402332","2019-04-23 14:00","2019","04","23","14:00","-19.7","","-22.2","","80","","","M","31","","18","","","","101.73","","","","-30","","NA"
"-100.27","70.63","GATESHEAD ISLAND","2402332","2019-04-23 15:00","2019","04","23","15:00","-19.2","","-21.6","","81","","","M","31","","14","","","","101.71","","","","-28","","NA"
"-100.27","70.63","GATESHEAD ISLAND","2402332","2019-04-23 16:00","2019","04","23","16:00","-19.2","","-21.5","","82","","","M","32","","16","","","","101.69","","","","-28","","NA"
"-100.27","70.63","GATESHEAD ISLAND","2402332","2019-04-23 17:00","2019","04","23","17:00","-19.9","","-22.1","","82","","","M","33","","16","","","","101.70","","","","-29","","NA"
"-100.27","70.63","GATESHEAD ISLAND","2402332","2019-04-23 18:00","2019","04","23","18:00","-20.8","","-23.0","","82","","","M","32","","14","","","","101.69","","","","-30","","NA"
"-100.27","70.63","GATESHEAD ISLAND","2402332","2019-04-23 19:00","2019","04","23","19:00","-22.1","","-24.4","","82","","","M","32","","8","","","","101.72","","","","-29","","NA"
"-100.27","70.63","GATESHEAD ISLAND","2402332","2019-04-23 20:00","2019","04","23","20:00","-23.1","","-25.4","","81","","","M","33","","12","","","","101.71","","","","-32","","NA"
"-100.27","70.63","GATESHEAD ISLAND","2402332","2019-04-23 21:00","2019","04","23","21:00","-24.7","","-27.1","","80","","","M","34","","14","","","","101.71","","","","-35","","NA"
"-100.27","70.63","GATESHEAD ISLAND","2402332","2019-04-23 22:00","2019","04","23","22:00","-25.6","","-28.1","","79","","","M","33","","11","","","","101.70","","","","-34","","NA"
"-100.27","70.63","GATESHEAD ISLAND","2402332","2019-04-23 23:00","2019","04","23","23:00","-26.2","","-28.7","","79","","","M","33","","14","","","","101.68","","","","-36","","NA"
"-100.27","70.63","GATESHEAD ISLAND","2402332","2019-04-24 00:00","2019","04","24","00:00","-26.7","","-29.4","","78","","","M","33","","11","","","","101.68","","","","-36","","NA"
"-100.27","70.63","GATESHEAD ISLAND","2402332","2019-04-24 01:00","2019","04","24","01:00","-27.5","","-30.2","","78","","","M","33","","11","","","","101.70","","","","-37","","NA"
"-100.27","70.63","GATESHEAD ISLAND","2402332","2019-04-24 02:00","2019","04","24","02:00","-28.4","","-31.2","","77","","","M","33","","9","","","","101.68","","","","-37","","NA"
"-100.27","70.63","GATESHEAD ISLAND","2402332","2019-04-24 03:00","2019","04","24","03:00","-29.1","","-32.0","","76","","","M","32","","10","","","","101.65","","","","-38","","NA"
"-100.27","70.63","GATESHEAD ISLAND","2402332","2019-04-24 04:00","2019","04","24","04:00","-29.2","","-32.2","","75","","","M","33","","11","","","","101.64","","","","-39","","NA"
"-100.27","70.63","GATESHEAD ISLAND","2402332","2019-04-24 05:00","2019","04","24","05:00","-28.9","","-32.0","","75","","","M","32","","11","","","","101.61","","","","-38","","NA"
"-100.27","70.63","GATESHEAD ISLAND","2402332","2019-04-24 06:00","2019","04","24","06:00","-27.9","","-31.0","","75","","","M","31","","8","","","","101.59","","","","-36","","NA"
"-100.27","70.63","GATESHEAD ISLAND","2402332","2019-04-24 07:00","2019","04","24","07:00","-26.3","","-29.3","","76","","","M","29","","14","","","","101.54","","","","-36","","NA"
"-100.27","70.63","GATESHEAD ISLAND","2402332","2019-04-24 08:00","2019","04","24","08:00","-24.8","","-27.7","","77","","","M","29","","10","","","","101.49","","","","-33","","NA"
"-100.27","70.63","GATESHEAD ISLAND","2402332","2019-04-24 09:00","2019","04","24","09:00","-22.6","","-25.1","","80","","","M","27","","14","","","","101.40","","","","-32","","NA"
"-100.27","70.63","GATESHEAD ISLAND","2402332","2019-04-24 10:00","2019","04","24","10:00","-21.5","","-23.9","","81","","","M","26","","18","","","","101.34","","","","-32","","NA"
"-100.27","70.63","GATESHEAD ISLAND","2402332","2019-04-24 11:00","2019","04","24","11:00","-21.5","","-23.9","","81","","","M","27","","21","","","","101.30","","","","-33","","NA"
"-100.27","70.63","GATESHEAD ISLAND","2402332","2019-04-24 12:00","2019","04","24","12:00","-20.0","","-22.4","","81","","","M","29","","20","","","","101.24","","","","-30","","NA"
"-100.27","70.63","GATESHEAD ISLAND","2402332","2019-04-24 13:00","2019","04","24","13:00","-19.4","","-21.8","","81","","","M","28","","23","","","","101.20","","","","-30","","NA"
"-100.27","70.63","GATESHEAD ISLAND","2402332","2019-04-24 14:00","2019","04","24","14:00","-18.7","","-21.0","","82","","","M","29","","25","","","","101.13","","","","-30","","NA"
"-100.27","70.63","GATESHEAD ISLAND","2402332","2019-04-24 15:00","2019","04","24","15:00","-18.4","","-20.6","","83","","","M","30","","23","","","","101.11","","","","-29","","NA"
"-100.27","70.63","GATESHEAD ISLAND","2402332","2019-04-24 16:00","2019","04","24","16:00","-18.1","","-20.2","","83","","","M","31","","22","","","","101.08","","","","-29","","NA"
"-100.27","70.63","GATESHEAD ISLAND","2402332","2019-04-24 17:00","2019","04","24","17:00","-17.6","","-19.5","","85","","","M","32","","24","","","","101.05","","","","-28","","NA"
"-100.27","70.63","GATESHEAD ISLAND","2402332","2019-04-24 18:00","2019","04","24","18:00","-18.7","","-20.7","","84","","","M","33","","21","","","","101.03","","","","-29","","NA"
"-100.27","70.63","GATESHEAD ISLAND","2402332","2019-04-24 19:00","2019","04","24","19:00","-19.0","","-21.0","","84","","","M","32","","16","","","","101.01","","","","-28","","NA"
"-100.27","70.63","GATESHEAD ISLAND","2402332","2019-04-24 20:00","2019","04","24","20:00","-19.4","","-21.4","","84","","","M","33","","17","","","","100.99","","","","-29","","NA"
"-100.27","70.63","GATESHEAD ISLAND","2402332","2019-04-24 21:00","2019","04","24","21:00","-19.9","","-21.9","","84","","","M","31","","13","","","","100.94","","","","-28","","NA"
"-100.27","70.63","GATESHEAD ISLAND","2402332","2019-04-24 22:00","2019","04","24","22:00","-21.9","","-24.2","","82","","","M","33","","20","","","","100.93","","","","-33","","NA"
"-100.27","70.63","GATESHEAD ISLAND","2402332","2019-04-24 23:00","2019","04","24","23:00","-24.3","","-26.8","","80","","","M","34","","19","","","","100.92","","","","-36","","NA"
"-100.27","70.63","GATESHEAD ISLAND","2402332","2019-04-25 00:00","2019","04","25","00:00","-26.2","","-28.8","","78","","","M","34","","15","","","","100.92","","","","-37","","NA"
"-100.27","70.63","GATESHEAD ISLAND","2402332","2019-04-25 01:00","2019","04","25","01:00","-27.6","","-30.4","","77","","","M","34","","17","","","","100.94","","","","-39","","NA"
"-100.27","70.63","GATESHEAD ISLAND","2402332","2019-04-25 02:00","2019","04","25","02:00","-28.6","","-31.5","","76","","","M","33","","15","","","","100.97","","","","-40","","NA"
"-100.27","70.63","GATESHEAD ISLAND","2402332","2019-04-25 03:00","2019","04","25","03:00","-29.6","","-32.6","","75","","","M","34","","18","","","","100.97","","","","-42","","NA"
"-100.27","70.63","GATESHEAD ISLAND","2402332","2019-04-25 04:00","2019","04","25","04:00","-29.8","","-32.9","","74","","","M","34","","22","","","","100.97","","","","-43","","NA"
"-100.27","70.63","GATESHEAD ISLAND","2402332","2019-04-25 05:00","2019","04","25","05:00","-29.4","","-32.6","","74","","","M","33","","23","","","","100.95","","","","-43","","NA"
"-100.27","70.63","GATESHEAD ISLAND","2402332","2019-04-25 06:00","2019","04","25","06:00","-29.1","","-32.4","","74","","","M","33","","22","","","","100.93","","","","-43","","NA"
"-100.27","70.63","GATESHEAD ISLAND","2402332","2019-04-25 07:00","2019","04","25","07:00","-28.5","","-31.8","","74","","","M","33","","26","","","","100.90","","","","-43","","NA"
"-100.27","70.63","GATESHEAD ISLAND","2402332","2019-04-25 08:00","2019","04","25","08:00","-27.7","","-31.0","","74","","","M","34","","26","","","","100.88","","","","-42","","NA"
"-100.27","70.63","GATESHEAD ISLAND","2402332","2019-04-25 09:00","2019","04","25","09:00","-27.3","","-30.5","","74","","","M","35","","30","","","","100.88","","","","-42","","NA"
"-100.27","70.63","GATESHEAD ISLAND","2402332","2019-04-25 10:00","2019","04","25","10:00","-26.8","","-30.0","","74","","","M","34","","28","","","","100.88","","","","-41","","NA"
"-100.27","70.63","GATESHEAD ISLAND","2402332","2019-04-25 11:00","2019","04","25","11:00","-26.1","","-29.3","","75","","","M","34","","32","","","","100.87","","","","-41","","NA"
"-100.27","70.63","GATESHEAD ISLAND","2402332","2019-04-25 12:00","2019","04","25","12:00","-25.5","","-28.6","","75","","","M","35","","29","","","","100.90","","","","-40","","NA"
"-100.27","70.63","GATESHEAD ISLAND","2402332","2019-04-25 13:00","2019","04","25","13:00","-24.8","","-27.9","","76","","","M","35","","30","","","","100.93","","","","-39","","NA"
"-100.27","70.63","GATESHEAD ISLAND","2402332","2019-04-25 14:00","2019","04","25","14:00","-24.3","","-27.3","","76","","","M","35","","30","","","","100.97","","","","-38","","NA"
"-100.27","70.63","GATESHEAD ISLAND","2402332","2019-04-25 15:00","2019","04","25","15:00","-24.0","","-26.9","","77","","","M","35","","30","","","","101.01","","","","-38","","NA"
"-100.27","70.63","GATESHEAD ISLAND","2402332","2019-04-25 16:00","2019","04","25","16:00","-24.0","","-26.7","","78","","","M","35","","29","","","","101.04","","","","-38","","NA"
"-100.27","70.63","GATESHEAD ISLAND","2402332","2019-04-25 17:00","2019","04","25","17:00","-24.0","","-26.7","","78","","","M","34","","28","","","","101.07","","","","-37","","NA"
"-100.27","70.63","GATESHEAD ISLAND","2402332","2019-04-25 18:00","2019","04","25","18:00","-24.4","","-27.0","","79","","","M","35","","24","","","","101.08","","","","-37","","NA"
"-100.27","70.63","GATESHEAD ISLAND","2402332","2019-04-25 19:00","2019","04","25","19:00","-24.7","","-27.3","","79","","","M","34","","22","","","","101.09","","","","-37","","NA"
"-100.27","70.63","GATESHEAD ISLAND","2402332","2019-04-25 20:00","2019","04","25","20:00","-26.0","","-28.7","","78","","","M","34","","18","","","","101.10","","","","-37","","NA"
"-100.27","70.63","GATESHEAD ISLAND","2402332","2019-04-25 21:00","2019","04","25","21:00","-27.5","","-30.2","","77","","","M","33","","15","","","","101.10","","","","-38","","NA"
"-100.27","70.63","GATESHEAD ISLAND","2402332","2019-04-25 22:00","2019","04","25","22:00","-28.1","","-30.9","","77","","","M","33","","13","","","","101.11","","","","-38","","NA"
"-100.27","70.63","GATESHEAD ISLAND","2402332","2019-04-25 23:00","2019","04","25","23:00","-28.9","","-31.8","","76","","","M","32","","12","","","","101.08","","","","-39","","NA"
"-100.27","70.63","GATESHEAD ISLAND","2402332","2019-04-26 00:00","2019","04","26","00:00","-29.7","","-32.6","","75","","","M","32","","16","","","","101.06","","","","-41","","NA"
"-100.27","70.63","GATESHEAD ISLAND","2402332","2019-04-26 01:00","2019","04","26","01:00","-30.0","","-33.0","","75","","","M","32","","11","","","","101.04","","","","-40","","NA"
"-100.27","70.63","GATESHEAD ISLAND","2402332","2019-04-26 02:00","2019","04","26","02:00","-30.7","","-33.7","","74","","","M","31","","12","","","","101.03","","","","-41","","NA"
"-100.27","70.63","GATESHEAD ISLAND","2402332","2019-04-26 03:00","2019","04","26","03:00","-30.2","","-33.2","","75","","","M","31","","11","","","","101.01","","","","-40","","NA"
"-100.27","70.63","GATESHEAD ISLAND","2402332","2019-04-26 04:00","2019","04","26","04:00","-30.5","","-33.6","","74","","","M","31","","8","","","","100.99","","","","-39","","NA"
"-100.27","70.63","GATESHEAD ISLAND","2402332","2019-04-26 05:00","2019","04","26","05:00","-29.2","","-32.3","","74","","","M","30","","10","","","","100.96","","","","-38","","NA"
"-100.27","70.63","GATESHEAD ISLAND","2402332","2019-04-26 06:00","2019","04","26","06:00","-27.1","","-30.0","","76","","","M","29","","6","","","","100.95","","","","-33","","NA"
"-100.27","70.63","GATESHEAD ISLAND","2402332","2019-04-26 07:00","2019","04","26","07:00","-25.9","","-28.9","","76","","","M","29","","7","","","","100.91","","","","-33","","NA"
"-100.27","70.63","GATESHEAD ISLAND","2402332","2019-04-26 08:00","2019","04","26","08:00","-24.8","","-27.8","","76","","","M","24","","5","","","","100.88","","","","-30","","NA"
"-100.27","70.63","GATESHEAD ISLAND","2402332","2019-04-26 09:00","2019","04","26","09:00","-23.5","","-25.9","","81","","","M","28","","7","","","","100.86","","","","-30","","NA"
"-100.27","70.63","GATESHEAD ISLAND","2402332","2019-04-26 10:00","2019","04","26","10:00","-23.0","","-25.6","","79","","","M","27","","8","","","","100.86","","","","-30","","NA"
"-100.27","70.63","GATESHEAD ISLAND","2402332","2019-04-26 11:00","2019","04","26","11:00","-22.5","","-25.6","","76","","","M","30","","8","","","","100.84","","","","-29","","NA"
"-100.27","70.63","GATESHEAD ISLAND","2402332","2019-04-26 12:00","2019","04","26","12:00","-21.5","","-24.0","","81","","","M","28","","5","","","","100.85","","","","-26","","NA"
"-100.27","70.63","GATESHEAD ISLAND","2402332","2019-04-26 13:00","2019","04","26","13:00","-20.0","","-22.2","","83","","","M","30","","2","","","","100.88","","","","-22","","NA"
"-100.27","70.63","GATESHEAD ISLAND","2402332","2019-04-26 14:00","2019","04","26","14:00","-19.7","","-22.4","","79","","","M","23","","3","","","","100.88","","","","-22","","NA"
"-100.27","70.63","GATESHEAD ISLAND","2402332","2019-04-26 15:00","2019","04","26","15:00","-19.7","","-21.7","","84","","","M","27","","3","","","","100.91","","","","-22","","NA"
"-100.27","70.63","GATESHEAD ISLAND","2402332","2019-04-26 16:00","2019","04","26","16:00","-18.4","","-21.2","","79","","","M","3","","1","","","","100.95","","","","-19","","NA"
"-100.27","70.63","GATESHEAD ISLAND","2402332","2019-04-26 17:00","2019","04","26","17:00","-20.8","","-23.1","","82","","","M","29","","3","","","","100.97","","","","-23","","NA"
"-100.27","70.63","GATESHEAD ISLAND","2402332","2019-04-26 18:00","2019","04","26","18:00","-21.8","","-24.5","","79","","","M","31","","4","","","","100.99","","","","-25","","NA"
"-100.27","70.63","GATESHEAD ISLAND","2402332","2019-04-26 19:00","2019","04","26","19:00","-22.3","","-25.1","","78","","","M","35","","5","","","","100.98","","","","-27","","NA"
"-100.27","70.63","GATESHEAD ISLAND","2402332","2019-04-26 20:00","2019","04","26","20:00","-23.2","","-25.5","","81","","","M","3","","11","","","","101.01","","","","-31","","NA"
"-100.27","70.63","GATESHEAD ISLAND","2402332","2019-04-26 21:00","2019","04","26","21:00","-24.0","","-26.3","","81","","","M","2","","9","","","","101.05","","","","-31","","NA"
"-100.27","70.63","GATESHEAD ISLAND","2402332","2019-04-26 22:00","2019","04","26","22:00","-24.7","","-27.1","","81","","","M","3","","7","","","","101.08","","","","-31","","NA"
"-100.27","70.63","GATESHEAD ISLAND","2402332","2019-04-26 23:00","2019","04","26","23:00","-24.5","","-26.8","","81","","","M","3","","6","","","","101.10","","","","-30","","NA"
"-100.27","70.63","GATESHEAD ISLAND","2402332","2019-04-27 00:00","2019","04","27","00:00","-25.0","","-27.3","","81","","","M","4","","6","","","","101.15","","","","-31","","NA"
"-100.27","70.63","GATESHEAD ISLAND","2402332","2019-04-27 01:00","2019","04","27","01:00","-26.3","","-28.8","","79","","","M","1","","3","","","","101.20","","","","-29","","NA"
"-100.27","70.63","GATESHEAD ISLAND","2402332","2019-04-27 02:00","2019","04","27","02:00","-26.7","","-29.4","","78","","","M","34","","2","","","","101.23","","","","-29","","NA"
"-100.27","70.63","GATESHEAD ISLAND","2402332","2019-04-27 03:00","2019","04","27","03:00","-28.0","","-30.8","","77","","","M","34","","4","","","","101.27","","","","-32","","NA"
"-100.27","70.63","GATESHEAD ISLAND","2402332","2019-04-27 04:00","2019","04","27","04:00","-25.2","","-27.8","","79","","","M","36","","3","","","","101.32","","","","-28","","NA"
"-100.27","70.63","GATESHEAD ISLAND","2402332","2019-04-27 05:00","2019","04","27","05:00","-22.8","","-25.0","","82","","","M","5","","2","","","","101.38","","","","-25","","NA"
"-100.27","70.63","GATESHEAD ISLAND","2402332","2019-04-27 06:00","2019","04","27","06:00","-25.2","","-27.6","","80","","","M","35","","4","","","","101.44","","","","-29","","NA"
"-100.27","70.63","GATESHEAD ISLAND","2402332","2019-04-27 07:00","2019","04","27","07:00","-24.2","","-26.6","","80","","","M","36","","6","","","","101.47","","","","-30","","NA"
"-100.27","70.63","GATESHEAD ISLAND","2402332","2019-04-27 08:00","2019","04","27","08:00","-22.9","","-25.3","","81","","","M","5","","5","","","","101.50","","","","-28","","NA"
"-100.27","70.63","GATESHEAD ISLAND","2402332","2019-04-27 09:00","2019","04","27","09:00","-23.9","","-26.7","","78","","","M","9","","5","","","","101.56","","","","-29","","NA"
"-100.27","70.63","GATESHEAD ISLAND","2402332","2019-04-27 10:00","2019","04","27","10:00","-22.6","","-25.1","","80","","","M","6","","7","","","","101.60","","","","-29","","NA"
"-100.27","70.63","GATESHEAD ISLAND","2402332","2019-04-27 11:00","2019","04","27","11:00","-21.6","","-24.2","","80","","","M","5","","8","","","","101.64","","","","-28","","NA"
"-100.27","70.63","GATESHEAD ISLAND","2402332","2019-04-27 12:00","2019","04","27","12:00","-20.8","","-23.3","","80","","","M","4","","10","","","","101.65","","","","-28","","NA"
"-100.27","70.63","GATESHEAD ISLAND","2402332","2019-04-27 13:00","2019","04","27","13:00","-20.0","","-22.4","","81","","","M","5","","11","","","","101.70","","","","-28","","NA"
"-100.27","70.63","GATESHEAD ISLAND","2402332","2019-04-27 14:00","2019","04","27","14:00","-19.8","","-22.1","","82","","","M","6","","12","","","","101.75","","","","-28","","NA"
"-100.27","70.63","GATESHEAD ISLAND","2402332","2019-04-27 15:00","2019","04","27","15:00","-20.0","","-22.3","","82","","","M","6","","11","","","","101.80","","","","-28","","NA"
"-100.27","70.63","GATESHEAD ISLAND","2402332","2019-04-27 16:00","2019","04","27","16:00","-19.9","","-22.2","","82","","","M","6","","10","","","","101.83","","","","-27","","NA"
"-100.27","70.63","GATESHEAD ISLAND","2402332","2019-04-27 17:00","2019","04","27","17:00","-19.9","","-22.2","","82","","","M","6","","10","","","","101.86","","","","-27","","NA"
"-100.27","70.63","GATESHEAD ISLAND","2402332","2019-04-27 18:00","2019","04","27","18:00","-19.9","","-22.1","","83","","","M","5","","11","","","","101.90","","","","-28","","NA"
"-100.27","70.63","GATESHEAD ISLAND","2402332","2019-04-27 19:00","2019","04","27","19:00","-20.7","","-23.0","","82","","","M","7","","13","","","","101.92","","","","-29","","NA"
"-100.27","70.63","GATESHEAD ISLAND","2402332","2019-04-27 20:00","2019","04","27","20:00","-21.4","","-23.6","","82","","","M","5","","11","","","","101.93","","","","-29","","NA"
"-100.27","70.63","GATESHEAD ISLAND","2402332","2019-04-27 21:00","2019","04","27","21:00","-21.7","","-23.9","","83","","","M","3","","15","","","","101.93","","","","-31","","NA"
"-100.27","70.63","GATESHEAD ISLAND","2402332","2019-04-27 22:00","2019","04","27","22:00","-21.2","","-23.4","","83","","","M","2","","11","","","","101.92","","","","-29","","NA"
"-100.27","70.63","GATESHEAD ISLAND","2402332","2019-04-27 23:00","2019","04","27","23:00","-21.0","","-23.1","","83","","","M","2","","12","","","","101.94","","","","-29","","NA"
"-100.27","70.63","GATESHEAD ISLAND","2402332","2019-04-28 00:00","2019","04","28","00:00","-21.0","","-23.1","","83","","","M","2","","12","","","","101.96","","","","-29","","NA"
"-100.27","70.63","GATESHEAD ISLAND","2402332","2019-04-28 01:00","2019","04","28","01:00","-21.2","","-23.3","","83","","","M","1","","11","","","","101.97","","","","-29","","NA"
"-100.27","70.63","GATESHEAD ISLAND","2402332","2019-04-28 02:00","2019","04","28","02:00","-21.7","","-23.9","","83","","","M","36","","14","","","","101.97","","","","-31","","NA"
"-100.27","70.63","GATESHEAD ISLAND","2402332","2019-04-28 03:00","2019","04","28","03:00","-22.4","","-24.6","","82","","","M","1","","13","","","","101.97","","","","-31","","NA"
"-100.27","70.63","GATESHEAD ISLAND","2402332","2019-04-28 04:00","2019","04","28","04:00","-23.8","","-26.2","","81","","","M","1","","16","","","","102.00","","","","-34","","NA"
"-100.27","70.63","GATESHEAD ISLAND","2402332","2019-04-28 05:00","2019","04","28","05:00","-23.2","","-25.5","","81","","","M","2","","15","","","","102.01","","","","-33","","NA"
"-100.27","70.63","GATESHEAD ISLAND","2402332","2019-04-28 06:00","2019","04","28","06:00","-22.4","","-24.6","","82","","","M","1","","10","","","","102.03","","","","-30","","NA"
"-100.27","70.63","GATESHEAD ISLAND","2402332","2019-04-28 07:00","2019","04","28","07:00","-21.1","","-23.3","","82","","","M","1","","10","","","","102.04","","","","-29","","NA"
"-100.27","70.63","GATESHEAD ISLAND","2402332","2019-04-28 08:00","2019","04","28","08:00","-20.2","","-22.7","","81","","","M","36","","11","","","","102.04","","","","-28","","NA"
"-100.27","70.63","GATESHEAD ISLAND","2402332","2019-04-28 09:00","2019","04","28","09:00","-20.3","","-23.2","","78","","","M","34","","15","","","","102.03","","","","-29","","NA"
"-100.27","70.63","GATESHEAD ISLAND","2402332","2019-04-28 10:00","2019","04","28","10:00","-20.3","","-23.4","","76","","","M","34","","16","","","","102.06","","","","-30","","NA"
"-100.27","70.63","GATESHEAD ISLAND","2402332","2019-04-28 11:00","2019","04","28","11:00","-20.6","","-23.7","","76","","","M","34","","16","","","","102.07","","","","-30","","NA"
"-100.27","70.63","GATESHEAD ISLAND","2402332","2019-04-28 12:00","2019","04","28","12:00","-20.4","","-23.4","","77","","","M","34","","19","","","","102.07","","","","-31","","NA"
"-100.27","70.63","GATESHEAD ISLAND","2402332","2019-04-28 13:00","2019","04","28","13:00","-19.9","","-22.9","","77","","","M","35","","20","","","","102.10","","","","-30","","NA"
"-100.27","70.63","GATESHEAD ISLAND","2402332","2019-04-28 14:00","2019","04","28","14:00","-20.0","","-23.0","","77","","","M","35","","21","","","","102.13","","","","-31","","NA"
"-100.27","70.63","GATESHEAD ISLAND","2402332","2019-04-28 15:00","2019","04","28","15:00","-20.1","","-22.8","","79","","","M","36","","22","","","","102.14","","","","-31","","NA"
"-100.27","70.63","GATESHEAD ISLAND","2402332","2019-04-28 16:00","2019","04","28","16:00","-20.2","","-22.9","","79","","","M","36","","21","","","","102.18","","","","-31","","NA"
"-100.27","70.63","GATESHEAD ISLAND","2402332","2019-04-28 17:00","2019","04","28","17:00","-20.7","","-23.2","","80","","","M","36","","21","","","","102.18","","","","-32","","NA"
"-100.27","70.63","GATESHEAD ISLAND","2402332","2019-04-28 18:00","2019","04","28","18:00","-21.3","","-23.8","","80","","","M","35","","20","","","","102.22","","","","-32","","NA"
"-100.27","70.63","GATESHEAD ISLAND","2402332","2019-04-28 19:00","2019","04","28","19:00","-22.4","","-25.0","","80","","","M","35","","19","","","","102.21","","","","-33","","NA"
"-100.27","70.63","GATESHEAD ISLAND","2402332","2019-04-28 20:00","2019","04","28","20:00","-23.7","","-26.2","","80","","","M","34","","20","","","","102.20","","","","-35","","NA"
"-100.27","70.63","GATESHEAD ISLAND","2402332","2019-04-28 21:00","2019","04","28","21:00","-24.9","","-27.4","","80","","","M","34","","20","","","","102.18","","","","-37","","NA"
"-100.27","70.63","GATESHEAD ISLAND","2402332","2019-04-28 22:00","2019","04","28","22:00","-25.7","","-28.3","","79","","","M","34","","19","","","","102.17","","","","-37","","NA"
"-100.27","70.63","GATESHEAD ISLAND","2402332","2019-04-28 23:00","2019","04","28","23:00","-26.2","","-28.8","","79","","","M","34","","20","","","","102.15","","","","-38","","NA"
"-100.27","70.63","GATESHEAD ISLAND","2402332","2019-04-29 00:00","2019","04","29","00:00","-27.0","","-29.6","","78","","","M","33","","19","","","","102.12","","","","-39","","NA"
"-100.27","70.63","GATESHEAD ISLAND","2402332","2019-04-29 01:00","2019","04","29","01:00","-27.1","","-29.8","","78","","","M","33","","21","","","","102.08","","","","-40","","NA"
"-100.27","70.63","GATESHEAD ISLAND","2402332","2019-04-29 02:00","2019","04","29","02:00","-27.4","","-30.1","","78","","","M","33","","22","","","","102.05","","","","-40","","NA"
"-100.27","70.63","GATESHEAD ISLAND","2402332","2019-04-29 03:00","2019","04","29","03:00","-27.0","","-29.7","","78","","","M","33","","21","","","","102.04","","","","-40","","NA"
"-100.27","70.63","GATESHEAD ISLAND","2402332","2019-04-29 04:00","2019","04","29","04:00","-26.0","","-28.7","","78","","","M","33","","22","","","","102.01","","","","-39","","NA"
"-100.27","70.63","GATESHEAD ISLAND","2402332","2019-04-29 05:00","2019","04","29","05:00","-23.7","","-26.3","","79","","","M","34","","25","","","","101.97","","","","-36","","NA"
"-100.27","70.63","GATESHEAD ISLAND","2402332","2019-04-29 06:00","2019","04","29","06:00","-21.7","","-24.1","","81","","","M","34","","26","","","","101.95","","","","-34","","NA"
"-100.27","70.63","GATESHEAD ISLAND","2402332","2019-04-29 07:00","2019","04","29","07:00","-18.7","","-20.8","","83","","","M","35","","31","","","","101.90","","","","-31","","NA"
"-100.27","70.63","GATESHEAD ISLAND","2402332","2019-04-29 08:00","2019","04","29","08:00","-18.4","","-20.7","","82","","","M","34","","39","","","","101.87","","","","-32","","NA"
"-100.27","70.63","GATESHEAD ISLAND","2402332","2019-04-29 09:00","2019","04","29","09:00","-18.2","","-20.6","","81","","","M","35","","39","","","","101.85","","","","-32","","NA"
"-100.27","70.63","GATESHEAD ISLAND","2402332","2019-04-29 10:00","2019","04","29","10:00","-17.7","","-20.2","","81","","","M","35","","36","","","","101.83","","","","-31","","NA"
"-100.27","70.63","GATESHEAD ISLAND","2402332","2019-04-29 11:00","2019","04","29","11:00","-17.2","","-19.7","","81","","","M","35","","39","","","","101.80","","","","-30","","NA"
"-100.27","70.63","GATESHEAD ISLAND","2402332","2019-04-29 12:00","2019","04","29","12:00","-17.3","","-19.8","","81","","","M","35","","39","","","","101.82","","","","-30","","NA"
"-100.27","70.63","GATESHEAD ISLAND","2402332","2019-04-29 13:00","2019","04","29","13:00","-17.1","","-19.5","","82","","","M","35","","35","","","","101.85","","","","-30","","NA"
"-100.27","70.63","GATESHEAD ISLAND","2402332","2019-04-29 14:00","2019","04","29","14:00","-16.5","","-18.7","","83","","","M","35","","38","","","","101.86","","","","-29","","NA"
"-100.27","70.63","GATESHEAD ISLAND","2402332","2019-04-29 15:00","2019","04","29","15:00","-15.9","","-17.9","","85","","","M","35","","36","","","","101.86","","","","-28","","NA"
"-100.27","70.63","GATESHEAD ISLAND","2402332","2019-04-29 16:00","2019","04","29","16:00","-15.2","","-17.1","","86","","","M","34","","35","","","","101.87","","","","-27","","NA"
"-100.27","70.63","GATESHEAD ISLAND","2402332","2019-04-29 17:00","2019","04","29","17:00","-14.6","","-16.4","","87","","","M","34","","32","","","","101.86","","","","-26","","NA"
"-100.27","70.63","GATESHEAD ISLAND","2402332","2019-04-29 18:00","2019","04","29","18:00","-14.2","","-15.8","","88","","","M","34","","30","","","","101.84","","","","-25","","NA"
"-100.27","70.63","GATESHEAD ISLAND","2402332","2019-04-29 19:00","2019","04","29","19:00","-13.8","","-15.3","","88","","","M","34","","31","","","","101.82","","","","-25","","NA"
"-100.27","70.63","GATESHEAD ISLAND","2402332","2019-04-29 20:00","2019","04","29","20:00","-14.0","","-15.5","","88","","","M","35","","27","","","","101.84","","","","-24","","NA"
"-100.27","70.63","GATESHEAD ISLAND","2402332","2019-04-29 21:00","2019","04","29","21:00","-13.9","","-15.4","","89","","","M","35","","28","","","","101.79","","","","-24","","NA"
"-100.27","70.63","GATESHEAD ISLAND","2402332","2019-04-29 22:00","2019","04","29","22:00","-13.6","","-15.0","","89","","","M","35","","29","","","","101.77","","","","-24","","NA"
"-100.27","70.63","GATESHEAD ISLAND","2402332","2019-04-29 23:00","2019","04","29","23:00","-13.4","","-14.8","","89","","","M","35","","25","","","","101.75","","","","-23","","NA"
"-100.27","70.63","GATESHEAD ISLAND","2402332","2019-04-30 00:00","2019","04","30","00:00","-13.3","","-14.6","","89","","","M","36","","17","","","","101.79","","","","-21","","NA"
"-100.27","70.63","GATESHEAD ISLAND","2402332","2019-04-30 01:00","2019","04","30","01:00","-13.2","","-14.6","","89","","","M","2","","10","","","","101.81","","","","-19","","NA"
"-100.27","70.63","GATESHEAD ISLAND","2402332","2019-04-30 02:00","2019","04","30","02:00","-13.3","","-14.6","","90","","","M","34","","6","","","","101.82","","","","-17","","NA"
"-100.27","70.63","GATESHEAD ISLAND","2402332","2019-04-30 03:00","2019","04","30","03:00","-13.2","","-14.6","","89","","","M","0","","1","","","","101.87","","","","-14","","NA"
"-100.27","70.63","GATESHEAD ISLAND","2402332","2019-04-30 04:00","2019","04","30","04:00","-14.6","","-16.0","","89","","","M","16","","14","","","","101.92","","","","-22","","NA"
"-100.27","70.63","GATESHEAD ISLAND","2402332","2019-04-30 05:00","2019","04","30","05:00","-15.5","","-17.1","","87","","","M","16","","20","","","","101.98","","","","-25","","NA"
"-100.27","70.63","GATESHEAD ISLAND","2402332","2019-04-30 06:00","2019","04","30","06:00","-16.8","","-18.7","","85","","","M","15","","22","","","","102.09","","","","-27","","NA"
"-100.27","70.63","GATESHEAD ISLAND","2402332","2019-04-30 07:00","2019","04","30","07:00","-17.6","","-19.7","","84","","","M","15","","24","","","","102.19","","","","-28","","NA"
"-100.27","70.63","GATESHEAD ISLAND","2402332","2019-04-30 08:00","2019","04","30","08:00","-17.4","","-19.4","","84","","","M","17","","28","","","","102.25","","","","-29","","NA"
"-100.27","70.63","GATESHEAD ISLAND","2402332","2019-04-30 09:00","2019","04","30","09:00","-16.9","","-18.9","","84","","","M","16","","28","","","","102.36","","","","-28","","NA"
"-100.27","70.63","GATESHEAD ISLAND","2402332","2019-04-30 10:00","2019","04","30","10:00","-16.8","","-18.9","","83","","","M","17","","32","","","","102.47","","","","-29","","NA"
"-100.27","70.63","GATESHEAD ISLAND","2402332","2019-04-30 11:00","2019","04","30","11:00","-16.6","","-18.8","","83","","","M","17","","33","","","","102.58","","","","-29","","NA"
"-100.27","70.63","GATESHEAD ISLAND","2402332","2019-04-30 12:00","2019","04","30","12:00","-16.3","","-18.5","","83","","","M","18","","29","","","","102.66","","","","-28","","NA"
"-100.27","70.63","GATESHEAD ISLAND","2402332","2019-04-30 13:00","2019","04","30","13:00","-16.3","","-18.4","","83","","","M","18","","30","","","","102.75","","","","-28","","NA"
"-100.27","70.63","GATESHEAD ISLAND","2402332","2019-04-30 14:00","2019","04","30","14:00","-16.6","","-18.8","","83","","","M","17","","31","","","","102.81","","","","-28","","NA"
"-100.27","70.63","GATESHEAD ISLAND","2402332","2019-04-30 15:00","2019","04","30","15:00","-16.9","","-19.1","","83","","","M","18","","30","","","","102.82","","","","-29","","NA"
"-100.27","70.63","GATESHEAD ISLAND","2402332","2019-04-30 16:00","2019","04","30","16:00","-16.9","","-19.2","","82","","","M","17","","29","","","","102.87","","","","-28","","NA"
"-100.27","70.63","GATESHEAD ISLAND","2402332","2019-04-30 17:00","2019","04","30","17:00","-17.0","","-19.3","","82","","","M","17","","25","","","","102.90","","","","-28","","NA"
"-100.27","70.63","GATESHEAD ISLAND","2402332","2019-04-30 18:00","2019","04","30","18:00","-17.3","","-19.5","","83","","","M","16","","25","","","","102.94","","","","-28","","NA"
"-100.27","70.63","GATESHEAD ISLAND","2402332","2019-04-30 19:00","2019","04","30","19:00","-17.5","","-19.6","","84","","","M","16","","25","","","","102.96","","","","-28","","NA"
"-100.27","70.63","GATESHEAD ISLAND","2402332","2019-04-30 20:00","2019","04","30","20:00","-17.4","","-19.5","","84","","","M","13","","18","","","","102.99","","","","-27","","NA"
"-100.27","70.63","GATESHEAD ISLAND","2402332","2019-04-30 21:00","2019","04","30","21:00","-17.3","","-19.4","","84","","","M","14","","21","","","","103.01","","","","-27","","NA"
"-100.27","70.63","GATESHEAD ISLAND","2402332","2019-04-30 22:00","2019","04","30","22:00","-18.9","","-21.0","","83","","","M","12","","16","","","","103.03","","","","-28","","NA"
"-100.27","70.63","GATESHEAD ISLAND","2402332","2019-04-30 23:00","2019","04","30","23:00","-19.5","","-21.5","","84","","","M","11","","22","","","","103.00","","","","-30","","NA"
