"Longitude (x)","Latitude (y)","Station Name","Climate ID","Date/Time (LST)","Year","Month","Day","Time (LST)","Temp (°C)","Temp Flag","Dew Point Temp (°C)","Dew Point Temp Flag","Rel Hum (%)","Rel Hum Flag","Precip. Amount (mm)","Precip. Amount Flag","Wind Dir (10s deg)","Wind Dir Flag","Wind Spd (km/h)","Wind Spd Flag","Visibility (km)","Visibility Flag","Stn Press (kPa)","Stn Press Flag","Hmdx","Hmdx Flag","Wind Chill","Wind Chill Flag","Weather"
"-121.49","49.37","HOPE AIRPORT","1113543","2018-01-01 00:00","2018","01","01","00:00","-6.1","","-11.3","","66","","0.0","","10","","30","","","","102.81","","","","-14","","NA"
"-121.49","49.37","HOPE AIRPORT","1113543","2018-01-01 01:00","2018","01","01","01:00","-6.3","","-11.6","","66","","0.0","","9","","27","","","","102.85","","","","-14","","NA"
"-121.49","49.37","HOPE AIRPORT","1113543","2018-01-01 02:00","2018","01","01","02:00","-6.4","","-11.7","","66","","0.0","","9","","23","","","","102.91","","","","-14","","NA"
"-121.49","49.37","HOPE AIRPORT","1113543","2018-01-01 03:00","2018","01","01","03:00","-6.5","","-11.8","","66","","0.0","","9","","27","","","","102.97","","","","-15","","NA"
"-121.49","49.37","HOPE AIRPORT","1113543","2018-01-01 04:00","2018","01","01","04:00","-6.9","","-11.9","","68","","0.0","","10","","29","","","","102.97","","","","-15","","NA"
"-121.49","49.37","HOPE AIRPORT","1113543","2018-01-01 05:00","2018","01","01","05:00","-7.0","","-11.9","","68","","0.0","","10","","33","","","","102.99","","","","-16","","NA"
"-121.49","49.37","HOPE AIRPORT","1113543","2018-01-01 06:00","2018","01","01","06:00","-7.1","","-11.9","","69","","0.0","","10","","27","","","","103.04","","","","-15","","NA"
"-121.49","49.37","HOPE AIRPORT","1113543","2018-01-01 07:00","2018","01","01","07:00","-7.2","","-12.1","","68","","0.0","","10","","28","","","","103.09","","","","-16","","NA"
"-121.49","49.37","HOPE AIRPORT","1113543","2018-01-01 08:00","2018","01","01","08:00","-7.2","","-11.9","","69","","0.0","","10","","29","","","","103.11","","","","-16","","NA"
"-121.49","49.37","HOPE AIRPORT","1113543","2018-01-01 09:00","2018","01","01","09:00","-7.0","","-12.0","","68","","0.0","","10","","28","","","","103.18","","","","-15","","NA"
"-121.49","49.37","HOPE AIRPORT","1113543","2018-01-01 10:00","2018","01","01","10:00","-6.6","","-11.8","","67","","0.0","","11","","29","","","","103.17","","","","-15","","NA"
"-121.49","49.37","HOPE AIRPORT","1113543","2018-01-01 11:00","2018","01","01","11:00","-5.7","","-11.7","","63","","0.0","","11","","30","","","","103.11","","","","-14","","NA"
"-121.49","49.37","HOPE AIRPORT","1113543","2018-01-01 12:00","2018","01","01","12:00","-5.0","","-11.0","","63","","0.0","","10","","29","","","","103.12","","","","-13","","NA"
"-121.49","49.37","HOPE AIRPORT","1113543","2018-01-01 13:00","2018","01","01","13:00","-4.3","","-10.1","","64","","0.0","","10","","27","","","","103.09","","","","-12","","NA"
"-121.49","49.37","HOPE AIRPORT","1113543","2018-01-01 14:00","2018","01","01","14:00","-4.0","","-10.1","","62","","0.0","","12","","29","","","","103.02","","","","-12","","NA"
"-121.49","49.37","HOPE AIRPORT","1113543","2018-01-01 15:00","2018","01","01","15:00","-3.2","","-9.2","","63","","0.0","","10","","26","","","","103.04","","","","-10","","NA"
"-121.49","49.37","HOPE AIRPORT","1113543","2018-01-01 16:00","2018","01","01","16:00","-3.3","","-9.0","","65","","0.0","","10","","29","","","","103.07","","","","-11","","NA"
"-121.49","49.37","HOPE AIRPORT","1113543","2018-01-01 17:00","2018","01","01","17:00","-3.5","","-8.9","","66","","0.0","","10","","29","","","","103.13","","","","-11","","NA"
"-121.49","49.37","HOPE AIRPORT","1113543","2018-01-01 18:00","2018","01","01","18:00","-3.4","","-8.8","","66","","0.0","","10","","26","","","","103.17","","","","-10","","NA"
"-121.49","49.37","HOPE AIRPORT","1113543","2018-01-01 19:00","2018","01","01","19:00","-4.2","","-9.1","","69","","0.0","","10","","29","","","","103.16","","","","-12","","NA"
"-121.49","49.37","HOPE AIRPORT","1113543","2018-01-01 20:00","2018","01","01","20:00","-4.5","","-9.2","","70","","0.0","","10","","29","","","","103.14","","","","-12","","NA"
"-121.49","49.37","HOPE AIRPORT","1113543","2018-01-01 21:00","2018","01","01","21:00","-4.5","","-9.4","","69","","0.0","","10","","30","","","","103.15","","","","-12","","NA"
"-121.49","49.37","HOPE AIRPORT","1113543","2018-01-01 22:00","2018","01","01","22:00","-4.7","","-9.1","","71","","0.0","","10","","31","","","","103.15","","","","-13","","NA"
"-121.49","49.37","HOPE AIRPORT","1113543","2018-01-01 23:00","2018","01","01","23:00","-4.5","","-9.4","","69","","0.0","","10","","30","","","","103.16","","","","-12","","NA"
"-121.49","49.37","HOPE AIRPORT","1113543","2018-01-02 00:00","2018","01","02","00:00","-4.9","","-9.2","","72","","0.0","","11","","31","","","","103.17","","","","-13","","NA"
"-121.49","49.37","HOPE AIRPORT","1113543","2018-01-02 01:00","2018","01","02","01:00","-4.9","","-9.4","","70","","0.0","","10","","28","","","","103.20","","","","-13","","NA"
"-121.49","49.37","HOPE AIRPORT","1113543","2018-01-02 02:00","2018","01","02","02:00","-4.9","","-9.8","","69","","0.0","","10","","32","","","","103.22","","","","-13","","NA"
"-121.49","49.37","HOPE AIRPORT","1113543","2018-01-02 03:00","2018","01","02","03:00","-4.9","","-9.5","","70","","0.0","","10","","30","","","","103.21","","","","-13","","NA"
"-121.49","49.37","HOPE AIRPORT","1113543","2018-01-02 04:00","2018","01","02","04:00","-4.9","","-9.7","","69","","0.0","","10","","32","","","","103.17","","","","-13","","NA"
"-121.49","49.37","HOPE AIRPORT","1113543","2018-01-02 05:00","2018","01","02","05:00","-4.7","","-9.2","","70","","0.0","","10","","32","","","","103.13","","","","-13","","NA"
"-121.49","49.37","HOPE AIRPORT","1113543","2018-01-02 06:00","2018","01","02","06:00","-4.7","","-9.4","","69","","0.0","","11","","34","","","","103.12","","","","-13","","NA"
"-121.49","49.37","HOPE AIRPORT","1113543","2018-01-02 07:00","2018","01","02","07:00","-4.5","","-9.7","","67","","0.0","","10","","31","","","","103.10","","","","-12","","NA"
"-121.49","49.37","HOPE AIRPORT","1113543","2018-01-02 08:00","2018","01","02","08:00","-4.8","","-9.5","","69","","0.0","","11","","36","","","","103.07","","","","-13","","NA"
"-121.49","49.37","HOPE AIRPORT","1113543","2018-01-02 09:00","2018","01","02","09:00","-4.1","","-9.3","","67","","0.0","","10","","32","","","","103.04","","","","-12","","NA"
"-121.49","49.37","HOPE AIRPORT","1113543","2018-01-02 10:00","2018","01","02","10:00","-3.8","","-9.2","","66","","0.0","","9","","28","","","","103.04","","","","-11","","NA"
"-121.49","49.37","HOPE AIRPORT","1113543","2018-01-02 11:00","2018","01","02","11:00","-3.4","","-8.9","","66","","0.0","","10","","33","","","","102.95","","","","-11","","NA"
"-121.49","49.37","HOPE AIRPORT","1113543","2018-01-02 12:00","2018","01","02","12:00","-2.8","","-8.9","","63","","0.0","","11","","35","","","","102.84","","","","-11","","NA"
"-121.49","49.37","HOPE AIRPORT","1113543","2018-01-02 13:00","2018","01","02","13:00","-2.6","","-8.3","","65","","0.0","","11","","37","","","","102.74","","","","-11","","NA"
"-121.49","49.37","HOPE AIRPORT","1113543","2018-01-02 14:00","2018","01","02","14:00","-2.1","","-8.1","","64","","0.0","","10","","29","","","","102.68","","","","-9","","NA"
"-121.49","49.37","HOPE AIRPORT","1113543","2018-01-02 15:00","2018","01","02","15:00","-2.3","","-7.6","","67","","0.0","","11","","34","","","","102.61","","","","-10","","NA"
"-121.49","49.37","HOPE AIRPORT","1113543","2018-01-02 16:00","2018","01","02","16:00","-1.9","","-7.7","","65","","0.0","","11","","30","","","","102.56","","","","-9","","NA"
"-121.49","49.37","HOPE AIRPORT","1113543","2018-01-02 17:00","2018","01","02","17:00","-2.4","","-7.6","","67","","0.0","","11","","34","","","","102.52","","","","-10","","NA"
"-121.49","49.37","HOPE AIRPORT","1113543","2018-01-02 18:00","2018","01","02","18:00","-1.9","","-7.5","","66","","0.0","","10","","29","","","","102.53","","","","-9","","NA"
"-121.49","49.37","HOPE AIRPORT","1113543","2018-01-02 19:00","2018","01","02","19:00","-2.2","","-7.3","","68","","0.0","","11","","32","","","","102.47","","","","-10","","NA"
"-121.49","49.37","HOPE AIRPORT","1113543","2018-01-02 20:00","2018","01","02","20:00","-2.3","","-7.4","","68","","0.0","","10","","31","","","","102.44","","","","-10","","NA"
"-121.49","49.37","HOPE AIRPORT","1113543","2018-01-02 21:00","2018","01","02","21:00","-2.6","","-7.6","","68","","0.0","","10","","31","","","","102.40","","","","-10","","NA"
"-121.49","49.37","HOPE AIRPORT","1113543","2018-01-02 22:00","2018","01","02","22:00","-2.5","","-7.9","","67","","0.0","","10","","27","","","","102.41","","","","-9","","NA"
"-121.49","49.37","HOPE AIRPORT","1113543","2018-01-02 23:00","2018","01","02","23:00","-2.6","","-8.0","","66","","0.0","","10","","27","","","","102.44","","","","-10","","NA"
"-121.49","49.37","HOPE AIRPORT","1113543","2018-01-03 00:00","2018","01","03","00:00","-2.6","","-7.7","","68","","0.0","","10","","29","","","","102.43","","","","-10","","NA"
"-121.49","49.37","HOPE AIRPORT","1113543","2018-01-03 01:00","2018","01","03","01:00","-2.8","","-7.9","","68","","0.0","","11","","32","","","","102.45","","","","-10","","NA"
"-121.49","49.37","HOPE AIRPORT","1113543","2018-01-03 02:00","2018","01","03","02:00","-2.8","","-8.0","","67","","0.0","","10","","32","","","","102.46","","","","-10","","NA"
"-121.49","49.37","HOPE AIRPORT","1113543","2018-01-03 03:00","2018","01","03","03:00","-2.7","","-7.9","","68","","0.0","","10","","28","","","","102.45","","","","-10","","NA"
"-121.49","49.37","HOPE AIRPORT","1113543","2018-01-03 04:00","2018","01","03","04:00","-2.9","","-7.8","","69","","0.0","","10","","31","","","","102.44","","","","-10","","NA"
"-121.49","49.37","HOPE AIRPORT","1113543","2018-01-03 05:00","2018","01","03","05:00","-3.4","","-8.1","","70","","0.0","","11","","31","","","","102.43","","","","-11","","NA"
"-121.49","49.37","HOPE AIRPORT","1113543","2018-01-03 06:00","2018","01","03","06:00","-3.1","","-7.7","","70","","0.0","","11","","33","","","","102.44","","","","-11","","NA"
"-121.49","49.37","HOPE AIRPORT","1113543","2018-01-03 07:00","2018","01","03","07:00","-2.8","","-7.7","","69","","0.0","","11","","31","","","","102.42","","","","-10","","NA"
"-121.49","49.37","HOPE AIRPORT","1113543","2018-01-03 08:00","2018","01","03","08:00","-2.6","","-7.5","","69","","0.0","","11","","31","","","","102.39","","","","-10","","NA"
"-121.49","49.37","HOPE AIRPORT","1113543","2018-01-03 09:00","2018","01","03","09:00","-2.7","","-7.7","","69","","0.0","","11","","33","","","","102.41","","","","-10","","NA"
"-121.49","49.37","HOPE AIRPORT","1113543","2018-01-03 10:00","2018","01","03","10:00","-2.5","","-7.3","","70","","0.0","","11","","33","","","","102.40","","","","-10","","NA"
"-121.49","49.37","HOPE AIRPORT","1113543","2018-01-03 11:00","2018","01","03","11:00","-1.6","","-7.1","","66","","0.0","","10","","31","","","","102.33","","","","-9","","NA"
"-121.49","49.37","HOPE AIRPORT","1113543","2018-01-03 12:00","2018","01","03","12:00","-0.9","","-6.5","","66","","0.0","","11","","33","","","","102.21","","","","-8","","NA"
"-121.49","49.37","HOPE AIRPORT","1113543","2018-01-03 13:00","2018","01","03","13:00","0.3","","-5.6","","65","","0.0","","11","","31","","","","102.09","","","","","","NA"
"-121.49","49.37","HOPE AIRPORT","1113543","2018-01-03 14:00","2018","01","03","14:00","0.6","","-5.7","","63","","0.0","","11","","31","","","","102.02","","","","","","NA"
"-121.49","49.37","HOPE AIRPORT","1113543","2018-01-03 15:00","2018","01","03","15:00","0.9","","-4.9","","65","","0.0","","10","","29","","","","102.03","","","","","","NA"
"-121.49","49.37","HOPE AIRPORT","1113543","2018-01-03 16:00","2018","01","03","16:00","0.7","","-5.4","","64","","0.0","","11","","29","","","","101.99","","","","","","NA"
"-121.49","49.37","HOPE AIRPORT","1113543","2018-01-03 17:00","2018","01","03","17:00","-0.1","","-5.3","","68","","0.0","","11","","32","","","","101.99","","","","-7","","NA"
"-121.49","49.37","HOPE AIRPORT","1113543","2018-01-03 18:00","2018","01","03","18:00","0.2","","-5.2","","67","","0.0","","11","","31","","","","101.98","","","","","","NA"
"-121.49","49.37","HOPE AIRPORT","1113543","2018-01-03 19:00","2018","01","03","19:00","-0.4","","-5.5","","69","","0.0","","11","","31","","","","101.98","","","","-7","","NA"
"-121.49","49.37","HOPE AIRPORT","1113543","2018-01-03 20:00","2018","01","03","20:00","-0.7","","-5.6","","69","","0.0","","11","","32","","","","101.94","","","","-8","","NA"
"-121.49","49.37","HOPE AIRPORT","1113543","2018-01-03 21:00","2018","01","03","21:00","-0.7","","-5.5","","70","","0.0","","11","","35","","","","101.92","","","","-8","","NA"
"-121.49","49.37","HOPE AIRPORT","1113543","2018-01-03 22:00","2018","01","03","22:00","-1.1","","-5.7","","71","","0.0","","11","","34","","","","101.89","","","","-8","","NA"
"-121.49","49.37","HOPE AIRPORT","1113543","2018-01-03 23:00","2018","01","03","23:00","-1.1","","-6.1","","69","","0.0","","11","","33","","","","101.87","","","","-8","","NA"
"-121.49","49.37","HOPE AIRPORT","1113543","2018-01-04 00:00","2018","01","04","00:00","-1.4","","-6.0","","71","","0.0","","11","","31","","","","101.85","","","","-8","","NA"
"-121.49","49.37","HOPE AIRPORT","1113543","2018-01-04 01:00","2018","01","04","01:00","-1.4","","-6.0","","70","","0.0","","10","","33","","","","101.81","","","","-9","","NA"
"-121.49","49.37","HOPE AIRPORT","1113543","2018-01-04 02:00","2018","01","04","02:00","-1.4","","-6.1","","71","","0.0","","10","","28","","","","101.80","","","","-8","","NA"
"-121.49","49.37","HOPE AIRPORT","1113543","2018-01-04 03:00","2018","01","04","03:00","-1.6","","-6.2","","71","","0.0","","11","","34","","","","101.81","","","","-9","","NA"
"-121.49","49.37","HOPE AIRPORT","1113543","2018-01-04 04:00","2018","01","04","04:00","-2.0","","-6.5","","71","","0.0","","10","","34","","","","101.78","","","","-10","","NA"
"-121.49","49.37","HOPE AIRPORT","1113543","2018-01-04 05:00","2018","01","04","05:00","-1.8","","-6.3","","71","","0.0","","10","","34","","","","101.75","","","","-9","","NA"
"-121.49","49.37","HOPE AIRPORT","1113543","2018-01-04 06:00","2018","01","04","06:00","-1.9","","-6.2","","72","","0.0","","11","","34","","","","101.71","","","","-9","","NA"
"-121.49","49.37","HOPE AIRPORT","1113543","2018-01-04 07:00","2018","01","04","07:00","-2.2","","-6.8","","71","","0.0","","10","","32","","","","101.69","","","","-10","","NA"
"-121.49","49.37","HOPE AIRPORT","1113543","2018-01-04 08:00","2018","01","04","08:00","-1.9","","-6.3","","72","","0.0","","10","","35","","","","101.68","","","","-9","","NA"
"-121.49","49.37","HOPE AIRPORT","1113543","2018-01-04 09:00","2018","01","04","09:00","-1.5","","-6.2","","70","","0.0","","10","","33","","","","101.68","","","","-9","","NA"
"-121.49","49.37","HOPE AIRPORT","1113543","2018-01-04 10:00","2018","01","04","10:00","-1.2","","-5.9","","71","","0.0","","11","","32","","","","101.68","","","","-8","","NA"
"-121.49","49.37","HOPE AIRPORT","1113543","2018-01-04 11:00","2018","01","04","11:00","-1.1","","-6.0","","69","","0.0","","11","","37","","","","101.65","","","","-9","","NA"
"-121.49","49.37","HOPE AIRPORT","1113543","2018-01-04 12:00","2018","01","04","12:00","-0.3","","-6.2","","64","","0.0","","9","","25","","","","101.59","","","","-6","","NA"
"-121.49","49.37","HOPE AIRPORT","1113543","2018-01-04 13:00","2018","01","04","13:00","0.4","","-5.8","","63","","0.0","","9","","29","","","","101.52","","","","","","NA"
"-121.49","49.37","HOPE AIRPORT","1113543","2018-01-04 14:00","2018","01","04","14:00","0.4","","-5.4","","65","","0.0","","10","","31","","","","101.48","","","","","","NA"
"-121.49","49.37","HOPE AIRPORT","1113543","2018-01-04 15:00","2018","01","04","15:00","0.1","","-5.4","","67","","0.0","","10","","29","","","","101.47","","","","","","NA"
"-121.49","49.37","HOPE AIRPORT","1113543","2018-01-04 16:00","2018","01","04","16:00","0.2","","-5.2","","67","","0.0","","10","","27","","","","101.47","","","","","","NA"
"-121.49","49.37","HOPE AIRPORT","1113543","2018-01-04 17:00","2018","01","04","17:00","0.0","","-5.3","","68","","0.0","","10","","27","","","","101.49","","","","-6","","NA"
"-121.49","49.37","HOPE AIRPORT","1113543","2018-01-04 18:00","2018","01","04","18:00","0.0","","-5.1","","68","","0.0","","9","","23","","","","101.48","","","","-6","","NA"
"-121.49","49.37","HOPE AIRPORT","1113543","2018-01-04 19:00","2018","01","04","19:00","-0.1","","-5.1","","69","","0.0","","10","","28","","","","101.46","","","","-6","","NA"
"-121.49","49.37","HOPE AIRPORT","1113543","2018-01-04 20:00","2018","01","04","20:00","-0.1","","-4.9","","70","","0.0","","10","","27","","","","101.44","","","","-6","","NA"
"-121.49","49.37","HOPE AIRPORT","1113543","2018-01-04 21:00","2018","01","04","21:00","0.1","","-5.1","","68","","0.0","","9","","26","","","","101.46","","","","","","NA"
"-121.49","49.37","HOPE AIRPORT","1113543","2018-01-04 22:00","2018","01","04","22:00","0.0","","-4.6","","71","","0.0","","9","","24","","","","101.45","","","","-6","","NA"
"-121.49","49.37","HOPE AIRPORT","1113543","2018-01-04 23:00","2018","01","04","23:00","0.0","","-4.4","","72","","0.0","","10","","27","","","","101.44","","","","-6","","NA"
"-121.49","49.37","HOPE AIRPORT","1113543","2018-01-05 00:00","2018","01","05","00:00","0.0","","-4.2","","73","","0.0","","10","","27","","","","101.43","","","","-6","","NA"
"-121.49","49.37","HOPE AIRPORT","1113543","2018-01-05 01:00","2018","01","05","01:00","-0.1","","-3.7","","77","","0.0","","10","","23","","","","101.41","","","","-6","","NA"
"-121.49","49.37","HOPE AIRPORT","1113543","2018-01-05 02:00","2018","01","05","02:00","-0.1","","-3.9","","75","","0.0","","10","","25","","","","101.39","","","","-6","","NA"
"-121.49","49.37","HOPE AIRPORT","1113543","2018-01-05 03:00","2018","01","05","03:00","0.2","","-3.7","","75","","0.0","","9","","23","","","","101.37","","","","","","NA"
"-121.49","49.37","HOPE AIRPORT","1113543","2018-01-05 04:00","2018","01","05","04:00","-0.1","","-3.0","","81","","0.0","","10","","25","","","","101.36","","","","-6","","NA"
"-121.49","49.37","HOPE AIRPORT","1113543","2018-01-05 05:00","2018","01","05","05:00","-0.1","","-2.2","","86","","0.0","","9","","25","","","","101.32","","","","-6","","NA"
"-121.49","49.37","HOPE AIRPORT","1113543","2018-01-05 06:00","2018","01","05","06:00","0.1","","-1.6","","88","","0.0","","9","","22","","","","101.29","","","","","","NA"
"-121.49","49.37","HOPE AIRPORT","1113543","2018-01-05 07:00","2018","01","05","07:00","0.4","","-1.4","","88","","0.0","","9","","23","","","","101.25","","","","","","NA"
"-121.49","49.37","HOPE AIRPORT","1113543","2018-01-05 08:00","2018","01","05","08:00","0.5","","-1.4","","87","","0.0","","9","","26","","","","101.23","","","","","","NA"
"-121.49","49.37","HOPE AIRPORT","1113543","2018-01-05 09:00","2018","01","05","09:00","0.6","","-1.4","","87","","0.0","","9","","26","","","","101.25","","","","","","NA"
"-121.49","49.37","HOPE AIRPORT","1113543","2018-01-05 10:00","2018","01","05","10:00","0.6","","-1.5","","86","","0.0","","9","","24","","","","101.26","","","","","","NA"
"-121.49","49.37","HOPE AIRPORT","1113543","2018-01-05 11:00","2018","01","05","11:00","0.9","","-1.2","","86","","0.8","","10","","26","","","","101.23","","","","","","NA"
"-121.49","49.37","HOPE AIRPORT","1113543","2018-01-05 12:00","2018","01","05","12:00","1.3","","-1.0","","85","","0.2","","10","","26","","","","101.18","","","","","","NA"
"-121.49","49.37","HOPE AIRPORT","1113543","2018-01-05 13:00","2018","01","05","13:00","1.6","","-0.9","","83","","0.2","","10","","25","","","","101.14","","","","","","NA"
"-121.49","49.37","HOPE AIRPORT","1113543","2018-01-05 14:00","2018","01","05","14:00","1.8","","-0.3","","86","","0.0","","9","","22","","","","101.12","","","","","","NA"
"-121.49","49.37","HOPE AIRPORT","1113543","2018-01-05 15:00","2018","01","05","15:00","1.5","","0.1","","90","","0.0","","8","","12","","","","101.15","","","","","","NA"
"-121.49","49.37","HOPE AIRPORT","1113543","2018-01-05 16:00","2018","01","05","16:00","1.4","","0.5","","94","","0.4","","8","","14","","","","101.18","","","","","","NA"
"-121.49","49.37","HOPE AIRPORT","1113543","2018-01-05 17:00","2018","01","05","17:00","1.5","","0.5","","94","","","M","9","","18","","","","101.14","","","","","","NA"
"-121.49","49.37","HOPE AIRPORT","1113543","2018-01-05 18:00","2018","01","05","18:00","1.1","","0.3","","94","","","M","10","","18","","","","101.13","","","","","","NA"
"-121.49","49.37","HOPE AIRPORT","1113543","2018-01-05 19:00","2018","01","05","19:00","1.4","","0.5","","94","","","M","9","","13","","","","101.15","","","","","","NA"
"-121.49","49.37","HOPE AIRPORT","1113543","2018-01-05 20:00","2018","01","05","20:00","1.2","","0.4","","94","","","M","10","","14","","","","101.17","","","","","","NA"
"-121.49","49.37","HOPE AIRPORT","1113543","2018-01-05 21:00","2018","01","05","21:00","1.1","","0.3","","94","","","M","9","","10","","","","101.21","","","","","","NA"
"-121.49","49.37","HOPE AIRPORT","1113543","2018-01-05 22:00","2018","01","05","22:00","1.3","","0.5","","94","","","M","10","","16","","","","101.23","","","","","","NA"
"-121.49","49.37","HOPE AIRPORT","1113543","2018-01-05 23:00","2018","01","05","23:00","1.4","","0.7","","95","","","M","9","","16","","","","101.28","","","","","","NA"
"-121.49","49.37","HOPE AIRPORT","1113543","2018-01-06 00:00","2018","01","06","00:00","1.5","","0.8","","96","","","M","10","","14","","","","101.30","","","","","","NA"
"-121.49","49.37","HOPE AIRPORT","1113543","2018-01-06 01:00","2018","01","06","01:00","1.3","","0.8","","96","","","M","9","","11","","","","101.33","","","","","","NA"
"-121.49","49.37","HOPE AIRPORT","1113543","2018-01-06 02:00","2018","01","06","02:00","1.1","","0.7","","97","","","M","9","","8","","","","101.37","","","","","","NA"
"-121.49","49.37","HOPE AIRPORT","1113543","2018-01-06 03:00","2018","01","06","03:00","1.3","","0.9","","97","","","M","7","","5","","","","101.45","","","","","","NA"
"-121.49","49.37","HOPE AIRPORT","1113543","2018-01-06 04:00","2018","01","06","04:00","1.2","","0.8","","98","","","M","13","","1","","","","101.46","","","","","","NA"
"-121.49","49.37","HOPE AIRPORT","1113543","2018-01-06 05:00","2018","01","06","05:00","1.0","","0.7","","98","","","M","9","","1","","","","101.45","","","","","","NA"
"-121.49","49.37","HOPE AIRPORT","1113543","2018-01-06 06:00","2018","01","06","06:00","2.4","","2.2","","99","","","M","22","","11","","","","101.52","","","","","","NA"
"-121.49","49.37","HOPE AIRPORT","1113543","2018-01-06 07:00","2018","01","06","07:00","4.3","","3.6","","95","","","M","23","","12","","","","101.62","","","","","","NA"
"-121.49","49.37","HOPE AIRPORT","1113543","2018-01-06 08:00","2018","01","06","08:00","5.2","","4.3","","94","","","M","25","","12","","","","101.66","","","","","","NA"
"-121.49","49.37","HOPE AIRPORT","1113543","2018-01-06 09:00","2018","01","06","09:00","4.8","","3.9","","94","","","M","27","","13","","","","101.72","","","","","","NA"
"-121.49","49.37","HOPE AIRPORT","1113543","2018-01-06 10:00","2018","01","06","10:00","5.1","","3.6","","90","","","M","25","","16","","","","101.81","","","","","","NA"
"-121.49","49.37","HOPE AIRPORT","1113543","2018-01-06 11:00","2018","01","06","11:00","5.7","","3.9","","88","","","M","27","","18","","","","101.88","","","","","","NA"
"-121.49","49.37","HOPE AIRPORT","1113543","2018-01-06 12:00","2018","01","06","12:00","5.6","","3.8","","88","","","M","30","","16","","","","101.88","","","","","","NA"
"-121.49","49.37","HOPE AIRPORT","1113543","2018-01-06 13:00","2018","01","06","13:00","5.7","","3.7","","87","","","M","28","","16","","","","101.86","","","","","","NA"
"-121.49","49.37","HOPE AIRPORT","1113543","2018-01-06 14:00","2018","01","06","14:00","6.2","","3.6","","84","","","M","28","","18","","","","101.85","","","","","","NA"
"-121.49","49.37","HOPE AIRPORT","1113543","2018-01-06 15:00","2018","01","06","15:00","6.0","","3.6","","85","","","M","28","","17","","","","101.88","","","","","","NA"
"-121.49","49.37","HOPE AIRPORT","1113543","2018-01-06 16:00","2018","01","06","16:00","5.8","","3.8","","87","","","M","26","","16","","","","101.92","","","","","","NA"
"-121.49","49.37","HOPE AIRPORT","1113543","2018-01-06 17:00","2018","01","06","17:00","4.1","","3.3","","94","","","M","22","","14","","","","101.90","","","","","","NA"
"-121.49","49.37","HOPE AIRPORT","1113543","2018-01-06 18:00","2018","01","06","18:00","4.1","","3.1","","93","","","M","23","","11","","","","101.88","","","","","","NA"
"-121.49","49.37","HOPE AIRPORT","1113543","2018-01-06 19:00","2018","01","06","19:00","4.1","","3.3","","95","","","M","22","","13","","","","101.87","","","","","","NA"
"-121.49","49.37","HOPE AIRPORT","1113543","2018-01-06 20:00","2018","01","06","20:00","3.9","","3.1","","94","","","M","22","","12","","","","101.87","","","","","","NA"
"-121.49","49.37","HOPE AIRPORT","1113543","2018-01-06 21:00","2018","01","06","21:00","3.6","","2.9","","95","","","M","23","","9","","","","101.86","","","","","","NA"
"-121.49","49.37","HOPE AIRPORT","1113543","2018-01-06 22:00","2018","01","06","22:00","2.4","","1.7","","95","","","M","2","","2","","","","101.85","","","","","","NA"
"-121.49","49.37","HOPE AIRPORT","1113543","2018-01-06 23:00","2018","01","06","23:00","2.0","","1.6","","97","","","M","3","","1","","","","101.83","","","","","","NA"
"-121.49","49.37","HOPE AIRPORT","1113543","2018-01-07 00:00","2018","01","07","00:00","1.6","","1.3","","98","","","M","15","","2","","","","101.80","","","","","","NA"
"-121.49","49.37","HOPE AIRPORT","1113543","2018-01-07 01:00","2018","01","07","01:00","1.4","","1.1","","98","","","M","0","","1","","","","101.79","","","","","","NA"
"-121.49","49.37","HOPE AIRPORT","1113543","2018-01-07 02:00","2018","01","07","02:00","1.6","","1.3","","98","","","M","11","","5","","","","101.74","","","","","","NA"
"-121.49","49.37","HOPE AIRPORT","1113543","2018-01-07 03:00","2018","01","07","03:00","1.9","","1.6","","99","","","M","7","","4","","","","101.73","","","","","","NA"
"-121.49","49.37","HOPE AIRPORT","1113543","2018-01-07 04:00","2018","01","07","04:00","1.6","","1.4","","99","","","M","10","","6","","","","101.69","","","","","","NA"
"-121.49","49.37","HOPE AIRPORT","1113543","2018-01-07 05:00","2018","01","07","05:00","1.3","","1.1","","99","","","M","9","","5","","","","101.66","","","","","","NA"
"-121.49","49.37","HOPE AIRPORT","1113543","2018-01-07 06:00","2018","01","07","06:00","1.3","","1.1","","99","","","M","9","","5","","","","101.61","","","","","","NA"
"-121.49","49.37","HOPE AIRPORT","1113543","2018-01-07 07:00","2018","01","07","07:00","1.1","","1.0","","99","","","M","10","","5","","","","101.53","","","","","","NA"
"-121.49","49.37","HOPE AIRPORT","1113543","2018-01-07 08:00","2018","01","07","08:00","1.3","","1.1","","99","","","M","9","","5","","","","101.42","","","","","","NA"
"-121.49","49.37","HOPE AIRPORT","1113543","2018-01-07 09:00","2018","01","07","09:00","1.3","","1.2","","99","","","M","8","","5","","","","101.46","","","","","","NA"
"-121.49","49.37","HOPE AIRPORT","1113543","2018-01-07 10:00","2018","01","07","10:00","1.8","","1.5","","98","","","M","10","","9","","","","101.39","","","","","","NA"
"-121.49","49.37","HOPE AIRPORT","1113543","2018-01-07 11:00","2018","01","07","11:00","2.5","","1.7","","95","","","M","8","","2","","","","101.33","","","","","","NA"
"-121.49","49.37","HOPE AIRPORT","1113543","2018-01-07 12:00","2018","01","07","12:00","1.9","","1.3","","96","","","M","1","","2","","","","101.30","","","","","","NA"
"-121.49","49.37","HOPE AIRPORT","1113543","2018-01-07 13:00","2018","01","07","13:00","2.3","","1.9","","97","","","M","24","","7","","","","101.26","","","","","","NA"
"-121.49","49.37","HOPE AIRPORT","1113543","2018-01-07 14:00","2018","01","07","14:00","2.7","","2.2","","97","","","M","23","","8","","","","101.22","","","","","","NA"
"-121.49","49.37","HOPE AIRPORT","1113543","2018-01-07 15:00","2018","01","07","15:00","2.7","","2.2","","96","","","M","27","","2","","","","101.17","","","","","","NA"
"-121.49","49.37","HOPE AIRPORT","1113543","2018-01-07 16:00","2018","01","07","16:00","2.1","","1.7","","97","","","M","","","0","","","","101.17","","","","","","NA"
"-121.49","49.37","HOPE AIRPORT","1113543","2018-01-07 17:00","2018","01","07","17:00","1.8","","1.5","","98","","","M","","","0","","","","101.19","","","","","","NA"
"-121.49","49.37","HOPE AIRPORT","1113543","2018-01-07 18:00","2018","01","07","18:00","1.8","","1.5","","98","","","M","11","","6","","","","101.11","","","","","","NA"
"-121.49","49.37","HOPE AIRPORT","1113543","2018-01-07 19:00","2018","01","07","19:00","1.8","","1.6","","99","","","M","11","","8","","","","101.03","","","","","","NA"
"-121.49","49.37","HOPE AIRPORT","1113543","2018-01-07 20:00","2018","01","07","20:00","1.4","","1.3","","99","","","M","9","","2","","","","101.02","","","","","","NA"
"-121.49","49.37","HOPE AIRPORT","1113543","2018-01-07 21:00","2018","01","07","21:00","1.3","","1.2","","99","","","M","8","","3","","","","100.98","","","","","","NA"
"-121.49","49.37","HOPE AIRPORT","1113543","2018-01-07 22:00","2018","01","07","22:00","1.1","","1.0","","99","","","M","4","","1","","","","101.00","","","","","","NA"
"-121.49","49.37","HOPE AIRPORT","1113543","2018-01-07 23:00","2018","01","07","23:00","1.4","","1.3","","99","","","M","8","","6","","","","101.00","","","","","","NA"
"-121.49","49.37","HOPE AIRPORT","1113543","2018-01-08 00:00","2018","01","08","00:00","1.4","","1.4","","99","","","M","10","","8","","","","100.93","","","","","","NA"
"-121.49","49.37","HOPE AIRPORT","1113543","2018-01-08 01:00","2018","01","08","01:00","1.6","","1.5","","99","","","M","9","","6","","","","100.87","","","","","","NA"
"-121.49","49.37","HOPE AIRPORT","1113543","2018-01-08 02:00","2018","01","08","02:00","1.5","","1.4","","99","","","M","8","","4","","","","100.83","","","","","","NA"
"-121.49","49.37","HOPE AIRPORT","1113543","2018-01-08 03:00","2018","01","08","03:00","1.3","","1.2","","99","","","M","6","","5","","","","100.80","","","","","","NA"
"-121.49","49.37","HOPE AIRPORT","1113543","2018-01-08 04:00","2018","01","08","04:00","1.0","","0.9","","99","","","M","4","","2","","","","100.77","","","","","","NA"
"-121.49","49.37","HOPE AIRPORT","1113543","2018-01-08 05:00","2018","01","08","05:00","1.4","","1.3","","99","","","M","7","","5","","","","100.75","","","","","","NA"
"-121.49","49.37","HOPE AIRPORT","1113543","2018-01-08 06:00","2018","01","08","06:00","1.4","","1.3","","99","","","M","9","","4","","","","100.76","","","","","","NA"
"-121.49","49.37","HOPE AIRPORT","1113543","2018-01-08 07:00","2018","01","08","07:00","1.0","","0.9","","99","","","M","6","","2","","","","100.73","","","","","","NA"
"-121.49","49.37","HOPE AIRPORT","1113543","2018-01-08 08:00","2018","01","08","08:00","1.7","","1.5","","99","","","M","9","","8","","","","100.69","","","","","","NA"
"-121.49","49.37","HOPE AIRPORT","1113543","2018-01-08 09:00","2018","01","08","09:00","1.6","","1.5","","99","","","M","8","","6","","","","100.67","","","","","","NA"
"-121.49","49.37","HOPE AIRPORT","1113543","2018-01-08 10:00","2018","01","08","10:00","2.0","","1.9","","99","","","M","10","","8","","","","100.69","","","","","","NA"
"-121.49","49.37","HOPE AIRPORT","1113543","2018-01-08 11:00","2018","01","08","11:00","2.7","","2.2","","97","","","M","10","","11","","","","100.58","","","","","","NA"
"-121.49","49.37","HOPE AIRPORT","1113543","2018-01-08 12:00","2018","01","08","12:00","3.4","","2.7","","95","","","M","9","","12","","","","100.48","","","","","","NA"
"-121.49","49.37","HOPE AIRPORT","1113543","2018-01-08 13:00","2018","01","08","13:00","3.7","","2.6","","93","","","M","7","","4","","","","100.42","","","","","","NA"
"-121.49","49.37","HOPE AIRPORT","1113543","2018-01-08 14:00","2018","01","08","14:00","3.9","","3.0","","94","","","M","10","","9","","","","100.34","","","","","","NA"
"-121.49","49.37","HOPE AIRPORT","1113543","2018-01-08 15:00","2018","01","08","15:00","4.5","","3.7","","95","","","M","9","","13","","","","100.27","","","","","","NA"
"-121.49","49.37","HOPE AIRPORT","1113543","2018-01-08 16:00","2018","01","08","16:00","3.8","","3.3","","96","","","M","8","","13","","","","100.21","","","","","","NA"
"-121.49","49.37","HOPE AIRPORT","1113543","2018-01-08 17:00","2018","01","08","17:00","3.0","","2.7","","98","","","M","7","","12","","","","100.18","","","","","","NA"
"-121.49","49.37","HOPE AIRPORT","1113543","2018-01-08 18:00","2018","01","08","18:00","2.8","","2.5","","98","","","M","7","","9","","","","100.13","","","","","","NA"
"-121.49","49.37","HOPE AIRPORT","1113543","2018-01-08 19:00","2018","01","08","19:00","2.0","","1.8","","98","","","M","11","","6","","","","100.11","","","","","","NA"
"-121.49","49.37","HOPE AIRPORT","1113543","2018-01-08 20:00","2018","01","08","20:00","2.0","","1.8","","99","","","M","8","","10","","","","100.06","","","","","","NA"
"-121.49","49.37","HOPE AIRPORT","1113543","2018-01-08 21:00","2018","01","08","21:00","1.8","","1.7","","99","","","M","8","","13","","","","99.98","","","","","","NA"
"-121.49","49.37","HOPE AIRPORT","1113543","2018-01-08 22:00","2018","01","08","22:00","1.8","","1.6","","99","","","M","9","","17","","","","99.91","","","","","","NA"
"-121.49","49.37","HOPE AIRPORT","1113543","2018-01-08 23:00","2018","01","08","23:00","2.0","","1.8","","99","","","M","11","","14","","","","99.90","","","","","","NA"
"-121.49","49.37","HOPE AIRPORT","1113543","2018-01-09 00:00","2018","01","09","00:00","1.6","","1.4","","99","","","M","8","","2","","","","99.89","","","","","","NA"
"-121.49","49.37","HOPE AIRPORT","1113543","2018-01-09 01:00","2018","01","09","01:00","1.5","","1.4","","99","","","M","10","","10","","","","99.83","","","","","","NA"
"-121.49","49.37","HOPE AIRPORT","1113543","2018-01-09 02:00","2018","01","09","02:00","1.7","","1.6","","99","","","M","9","","9","","","","99.81","","","","","","NA"
"-121.49","49.37","HOPE AIRPORT","1113543","2018-01-09 03:00","2018","01","09","03:00","1.6","","1.5","","99","","","M","8","","6","","","","99.78","","","","","","NA"
"-121.49","49.37","HOPE AIRPORT","1113543","2018-01-09 04:00","2018","01","09","04:00","1.6","","1.5","","99","","","M","10","","4","","","","99.70","","","","","","NA"
"-121.49","49.37","HOPE AIRPORT","1113543","2018-01-09 05:00","2018","01","09","05:00","1.4","","1.2","","99","","","M","7","","2","","","","99.65","","","","","","NA"
"-121.49","49.37","HOPE AIRPORT","1113543","2018-01-09 06:00","2018","01","09","06:00","1.3","","1.2","","99","","","M","7","","3","","","","99.63","","","","","","NA"
"-121.49","49.37","HOPE AIRPORT","1113543","2018-01-09 07:00","2018","01","09","07:00","1.6","","1.5","","99","","","M","10","","8","","","","99.60","","","","","","NA"
"-121.49","49.37","HOPE AIRPORT","1113543","2018-01-09 08:00","2018","01","09","08:00","1.7","","1.6","","99","","","M","31","","3","","","","99.62","","","","","","NA"
"-121.49","49.37","HOPE AIRPORT","1113543","2018-01-09 09:00","2018","01","09","09:00","1.6","","1.5","","99","","","M","7","","4","","","","99.67","","","","","","NA"
"-121.49","49.37","HOPE AIRPORT","1113543","2018-01-09 10:00","2018","01","09","10:00","1.5","","1.4","","99","","","M","24","","2","","","","99.75","","","","","","NA"
"-121.49","49.37","HOPE AIRPORT","1113543","2018-01-09 11:00","2018","01","09","11:00","2.0","","1.8","","99","","","M","5","","2","","","","99.77","","","","","","NA"
"-121.49","49.37","HOPE AIRPORT","1113543","2018-01-09 12:00","2018","01","09","12:00","3.4","","3.2","","98","","","M","1","","2","","","","99.76","","","","","","NA"
"-121.49","49.37","HOPE AIRPORT","1113543","2018-01-09 13:00","2018","01","09","13:00","5.1","","4.0","","92","","","M","23","","14","","","","99.78","","","","","","NA"
"-121.49","49.37","HOPE AIRPORT","1113543","2018-01-09 14:00","2018","01","09","14:00","5.6","","4.1","","90","","","M","27","","20","","","","99.82","","","","","","NA"
"-121.49","49.37","HOPE AIRPORT","1113543","2018-01-09 15:00","2018","01","09","15:00","5.7","","3.3","","84","","","M","27","","14","","","","99.90","","","","","","NA"
"-121.49","49.37","HOPE AIRPORT","1113543","2018-01-09 16:00","2018","01","09","16:00","6.0","","3.0","","81","","","M","27","","16","","","","99.98","","","","","","NA"
"-121.49","49.37","HOPE AIRPORT","1113543","2018-01-09 17:00","2018","01","09","17:00","4.7","","3.1","","89","","","M","23","","15","","","","100.01","","","","","","NA"
"-121.49","49.37","HOPE AIRPORT","1113543","2018-01-09 18:00","2018","01","09","18:00","4.3","","2.7","","89","","","M","22","","13","","","","100.01","","","","","","NA"
"-121.49","49.37","HOPE AIRPORT","1113543","2018-01-09 19:00","2018","01","09","19:00","4.6","","2.9","","89","","","M","23","","14","","","","100.04","","","","","","NA"
"-121.49","49.37","HOPE AIRPORT","1113543","2018-01-09 20:00","2018","01","09","20:00","4.4","","3.5","","94","","","M","24","","10","","","","100.09","","","","","","NA"
"-121.49","49.37","HOPE AIRPORT","1113543","2018-01-09 21:00","2018","01","09","21:00","4.1","","3.4","","95","","","M","22","","8","","","","100.10","","","","","","NA"
"-121.49","49.37","HOPE AIRPORT","1113543","2018-01-09 22:00","2018","01","09","22:00","4.1","","2.7","","91","","","M","27","","13","","","","100.17","","","","","","NA"
"-121.49","49.37","HOPE AIRPORT","1113543","2018-01-09 23:00","2018","01","09","23:00","3.3","","2.5","","94","","","M","24","","9","","","","100.21","","","","","","NA"
"-121.49","49.37","HOPE AIRPORT","1113543","2018-01-10 00:00","2018","01","10","00:00","4.0","","2.8","","92","","","M","20","","15","","","","100.22","","","","","","NA"
"-121.49","49.37","HOPE AIRPORT","1113543","2018-01-10 01:00","2018","01","10","01:00","4.0","","3.1","","94","","","M","21","","10","","","","100.27","","","","","","NA"
"-121.49","49.37","HOPE AIRPORT","1113543","2018-01-10 02:00","2018","01","10","02:00","4.2","","2.8","","91","","","M","26","","21","","","","100.31","","","","","","NA"
"-121.49","49.37","HOPE AIRPORT","1113543","2018-01-10 03:00","2018","01","10","03:00","4.1","","2.6","","90","","","M","26","","21","","","","100.38","","","","","","NA"
"-121.49","49.37","HOPE AIRPORT","1113543","2018-01-10 04:00","2018","01","10","04:00","3.9","","2.7","","92","","","M","23","","15","","","","100.40","","","","","","NA"
"-121.49","49.37","HOPE AIRPORT","1113543","2018-01-10 05:00","2018","01","10","05:00","4.0","","2.6","","91","","","M","27","","18","","","","100.48","","","","","","NA"
"-121.49","49.37","HOPE AIRPORT","1113543","2018-01-10 06:00","2018","01","10","06:00","3.5","","2.5","","93","","","M","22","","11","","","","100.55","","","","","","NA"
"-121.49","49.37","HOPE AIRPORT","1113543","2018-01-10 07:00","2018","01","10","07:00","4.1","","2.4","","89","","","M","27","","15","","","","100.62","","","","","","NA"
"-121.49","49.37","HOPE AIRPORT","1113543","2018-01-10 08:00","2018","01","10","08:00","3.6","","2.5","","92","","","M","25","","9","","","","100.67","","","","","","NA"
"-121.49","49.37","HOPE AIRPORT","1113543","2018-01-10 09:00","2018","01","10","09:00","4.2","","2.2","","87","","","M","22","","13","","","","100.78","","","","","","NA"
"-121.49","49.37","HOPE AIRPORT","1113543","2018-01-10 10:00","2018","01","10","10:00","4.2","","2.3","","87","","","M","22","","15","","","","100.88","","","","","","NA"
"-121.49","49.37","HOPE AIRPORT","1113543","2018-01-10 11:00","2018","01","10","11:00","5.1","","2.1","","81","","","M","22","","13","","","","100.94","","","","","","NA"
"-121.49","49.37","HOPE AIRPORT","1113543","2018-01-10 12:00","2018","01","10","12:00","5.4","","2.2","","80","","","M","26","","16","","","","100.95","","","","","","NA"
"-121.49","49.37","HOPE AIRPORT","1113543","2018-01-10 13:00","2018","01","10","13:00","5.5","","2.4","","81","","","M","27","","17","","","","100.98","","","","","","NA"
"-121.49","49.37","HOPE AIRPORT","1113543","2018-01-10 14:00","2018","01","10","14:00","5.2","","2.5","","83","","","M","27","","19","","","","101.04","","","","","","NA"
"-121.49","49.37","HOPE AIRPORT","1113543","2018-01-10 15:00","2018","01","10","15:00","4.6","","3.0","","89","","","M","22","","14","","","","101.12","","","","","","NA"
"-121.49","49.37","HOPE AIRPORT","1113543","2018-01-10 16:00","2018","01","10","16:00","4.0","","2.8","","92","","","M","30","","5","","","","101.22","","","","","","NA"
"-121.49","49.37","HOPE AIRPORT","1113543","2018-01-10 17:00","2018","01","10","17:00","2.8","","2.3","","97","","","M","0","","1","","","","101.27","","","","","","NA"
"-121.49","49.37","HOPE AIRPORT","1113543","2018-01-10 18:00","2018","01","10","18:00","2.5","","2.1","","98","","","M","12","","1","","","","101.32","","","","","","NA"
"-121.49","49.37","HOPE AIRPORT","1113543","2018-01-10 19:00","2018","01","10","19:00","1.9","","1.6","","98","","","M","11","","9","","","","101.32","","","","","","NA"
"-121.49","49.37","HOPE AIRPORT","1113543","2018-01-10 20:00","2018","01","10","20:00","2.3","","2.0","","98","","","M","11","","12","","","","101.36","","","","","","NA"
"-121.49","49.37","HOPE AIRPORT","1113543","2018-01-10 21:00","2018","01","10","21:00","1.3","","-0.1","","91","","","M","11","","16","","","","101.39","","","","","","NA"
"-121.49","49.37","HOPE AIRPORT","1113543","2018-01-10 22:00","2018","01","10","22:00","0.8","","-1.5","","84","","","M","10","","19","","","","101.46","","","","","","NA"
"-121.49","49.37","HOPE AIRPORT","1113543","2018-01-10 23:00","2018","01","10","23:00","0.9","","-3.0","","75","","","M","10","","22","","","","101.47","","","","","","NA"
"-121.49","49.37","HOPE AIRPORT","1113543","2018-01-11 00:00","2018","01","11","00:00","0.9","","-3.6","","72","","","M","11","","20","","","","101.45","","","","","","NA"
"-121.49","49.37","HOPE AIRPORT","1113543","2018-01-11 01:00","2018","01","11","01:00","0.7","","-4.7","","67","","","M","10","","22","","","","101.49","","","","","","NA"
"-121.49","49.37","HOPE AIRPORT","1113543","2018-01-11 02:00","2018","01","11","02:00","0.1","","-5.1","","68","","","M","11","","23","","","","101.46","","","","","","NA"
"-121.49","49.37","HOPE AIRPORT","1113543","2018-01-11 03:00","2018","01","11","03:00","0.0","","-5.8","","65","","","M","12","","24","","","","101.47","","","","-6","","NA"
"-121.49","49.37","HOPE AIRPORT","1113543","2018-01-11 04:00","2018","01","11","04:00","-0.3","","-5.7","","67","","","M","12","","22","","","","101.46","","","","-6","","NA"
"-121.49","49.37","HOPE AIRPORT","1113543","2018-01-11 05:00","2018","01","11","05:00","-0.6","","-5.9","","67","","","M","10","","21","","","","101.38","","","","-6","","NA"
"-121.49","49.37","HOPE AIRPORT","1113543","2018-01-11 06:00","2018","01","11","06:00","-1.0","","-6.3","","67","","","M","10","","18","","","","101.34","","","","-6","","NA"
"-121.49","49.37","HOPE AIRPORT","1113543","2018-01-11 07:00","2018","01","11","07:00","-1.8","","-4.8","","80","","","M","10","","22","","","","101.28","","","","-8","","NA"
"-121.49","49.37","HOPE AIRPORT","1113543","2018-01-11 08:00","2018","01","11","08:00","-2.7","","-4.4","","88","","","M","11","","25","","","","101.25","","","","-9","","NA"
"-121.49","49.37","HOPE AIRPORT","1113543","2018-01-11 09:00","2018","01","11","09:00","-2.7","","-5.1","","83","","","M","11","","27","","","","101.19","","","","-10","","NA"
"-121.49","49.37","HOPE AIRPORT","1113543","2018-01-11 10:00","2018","01","11","10:00","-2.3","","-6.8","","71","","","M","11","","28","","","","101.08","","","","-9","","NA"
"-121.49","49.37","HOPE AIRPORT","1113543","2018-01-11 11:00","2018","01","11","11:00","-1.9","","-6.9","","68","","","M","11","","28","","","","100.99","","","","-9","","NA"
"-121.49","49.37","HOPE AIRPORT","1113543","2018-01-11 12:00","2018","01","11","12:00","-2.3","","-7.0","","70","","","M","11","","27","","","","100.89","","","","-9","","NA"
"-121.49","49.37","HOPE AIRPORT","1113543","2018-01-11 13:00","2018","01","11","13:00","-3.0","","-5.7","","81","","","M","11","","27","","","","100.79","","","","-10","","NA"
"-121.49","49.37","HOPE AIRPORT","1113543","2018-01-11 14:00","2018","01","11","14:00","-3.2","","-5.1","","86","","","M","11","","27","","","","100.76","","","","-10","","NA"
"-121.49","49.37","HOPE AIRPORT","1113543","2018-01-11 15:00","2018","01","11","15:00","-2.7","","-5.6","","80","","","M","11","","26","","","","100.80","","","","-10","","NA"
"-121.49","49.37","HOPE AIRPORT","1113543","2018-01-11 16:00","2018","01","11","16:00","-2.7","","-5.6","","81","","","M","10","","22","","","","100.86","","","","-9","","NA"
"-121.49","49.37","HOPE AIRPORT","1113543","2018-01-11 17:00","2018","01","11","17:00","-3.3","","-4.7","","91","","","M","10","","27","","","","101.00","","","","-10","","NA"
"-121.49","49.37","HOPE AIRPORT","1113543","2018-01-11 18:00","2018","01","11","18:00","-3.3","","-4.2","","94","","","M","11","","25","","","","101.12","","","","-10","","NA"
"-121.49","49.37","HOPE AIRPORT","1113543","2018-01-11 19:00","2018","01","11","19:00","-3.7","","-4.5","","94","","","M","11","","26","","","","101.22","","","","-11","","NA"
"-121.49","49.37","HOPE AIRPORT","1113543","2018-01-11 20:00","2018","01","11","20:00","-3.3","","-4.8","","89","","","M","11","","26","","","","101.38","","","","-10","","NA"
"-121.49","49.37","HOPE AIRPORT","1113543","2018-01-11 21:00","2018","01","11","21:00","-3.2","","-5.1","","86","","","M","10","","25","","","","101.47","","","","-10","","NA"
"-121.49","49.37","HOPE AIRPORT","1113543","2018-01-11 22:00","2018","01","11","22:00","-2.9","","-5.6","","82","","","M","11","","24","","","","101.59","","","","-10","","NA"
"-121.49","49.37","HOPE AIRPORT","1113543","2018-01-11 23:00","2018","01","11","23:00","-3.1","","-6.8","","75","","","M","11","","25","","","","101.71","","","","-10","","NA"
"-121.49","49.37","HOPE AIRPORT","1113543","2018-01-12 00:00","2018","01","12","00:00","-3.0","","-6.7","","75","","","M","11","","24","","","","101.84","","","","-10","","NA"
"-121.49","49.37","HOPE AIRPORT","1113543","2018-01-12 01:00","2018","01","12","01:00","-3.4","","-6.6","","78","","","M","11","","30","","","","101.84","","","","-11","","NA"
"-121.49","49.37","HOPE AIRPORT","1113543","2018-01-12 02:00","2018","01","12","02:00","-3.2","","-7.4","","73","","","M","11","","26","","","","101.89","","","","-10","","NA"
"-121.49","49.37","HOPE AIRPORT","1113543","2018-01-12 03:00","2018","01","12","03:00","-3.6","","-7.3","","75","","","M","12","","26","","","","101.97","","","","-11","","NA"
"-121.49","49.37","HOPE AIRPORT","1113543","2018-01-12 04:00","2018","01","12","04:00","-3.5","","-7.0","","77","","","M","10","","25","","","","102.04","","","","-10","","NA"
"-121.49","49.37","HOPE AIRPORT","1113543","2018-01-12 05:00","2018","01","12","05:00","-3.8","","-6.5","","81","","","M","11","","26","","","","102.12","","","","-11","","NA"
"-121.49","49.37","HOPE AIRPORT","1113543","2018-01-12 06:00","2018","01","12","06:00","-3.9","","-5.9","","86","","","M","11","","27","","","","102.19","","","","-11","","NA"
"-121.49","49.37","HOPE AIRPORT","1113543","2018-01-12 07:00","2018","01","12","07:00","-3.9","","-5.9","","86","","","M","11","","23","","","","102.21","","","","-11","","NA"
"-121.49","49.37","HOPE AIRPORT","1113543","2018-01-12 08:00","2018","01","12","08:00","-3.8","","-6.4","","82","","","M","10","","24","","","","102.27","","","","-11","","NA"
"-121.49","49.37","HOPE AIRPORT","1113543","2018-01-12 09:00","2018","01","12","09:00","-3.6","","-5.9","","84","","","M","11","","26","","","","102.31","","","","-11","","NA"
"-121.49","49.37","HOPE AIRPORT","1113543","2018-01-12 10:00","2018","01","12","10:00","-3.5","","-6.2","","81","","","M","10","","27","","","","102.35","","","","-11","","NA"
"-121.49","49.37","HOPE AIRPORT","1113543","2018-01-12 11:00","2018","01","12","11:00","-3.3","","-5.7","","83","","","M","10","","27","","","","102.34","","","","-10","","NA"
"-121.49","49.37","HOPE AIRPORT","1113543","2018-01-12 12:00","2018","01","12","12:00","-3.1","","-5.2","","85","","","M","10","","26","","","","102.37","","","","-10","","NA"
"-121.49","49.37","HOPE AIRPORT","1113543","2018-01-12 13:00","2018","01","12","13:00","-2.8","","-4.8","","86","","","M","10","","23","","","","102.34","","","","-9","","NA"
"-121.49","49.37","HOPE AIRPORT","1113543","2018-01-12 14:00","2018","01","12","14:00","-2.4","","-4.9","","83","","","M","9","","23","","","","102.34","","","","-9","","NA"
"-121.49","49.37","HOPE AIRPORT","1113543","2018-01-12 15:00","2018","01","12","15:00","-2.5","","-4.4","","87","","","M","10","","19","","","","102.38","","","","-8","","NA"
"-121.49","49.37","HOPE AIRPORT","1113543","2018-01-12 16:00","2018","01","12","16:00","-2.1","","-3.6","","90","","","M","11","","18","","","","102.40","","","","-8","","NA"
"-121.49","49.37","HOPE AIRPORT","1113543","2018-01-12 17:00","2018","01","12","17:00","-1.9","","-3.2","","91","","","M","10","","14","","","","102.42","","","","-7","","NA"
"-121.49","49.37","HOPE AIRPORT","1113543","2018-01-12 18:00","2018","01","12","18:00","-1.7","","-2.9","","91","","","M","11","","10","","","","102.48","","","","-5","","NA"
"-121.49","49.37","HOPE AIRPORT","1113543","2018-01-12 19:00","2018","01","12","19:00","-1.7","","-2.8","","93","","","M","11","","9","","","","102.51","","","","-5","","NA"
"-121.49","49.37","HOPE AIRPORT","1113543","2018-01-12 20:00","2018","01","12","20:00","-1.7","","-2.7","","93","","","M","10","","7","","","","102.48","","","","-4","","NA"
"-121.49","49.37","HOPE AIRPORT","1113543","2018-01-12 21:00","2018","01","12","21:00","-1.8","","-2.8","","93","","","M","11","","7","","","","102.47","","","","-4","","NA"
"-121.49","49.37","HOPE AIRPORT","1113543","2018-01-12 22:00","2018","01","12","22:00","-1.9","","-2.8","","93","","","M","11","","6","","","","102.48","","","","-4","","NA"
"-121.49","49.37","HOPE AIRPORT","1113543","2018-01-12 23:00","2018","01","12","23:00","-1.8","","-2.7","","93","","","M","10","","6","","","","102.51","","","","-4","","NA"
"-121.49","49.37","HOPE AIRPORT","1113543","2018-01-13 00:00","2018","01","13","00:00","-1.6","","-2.4","","94","","","M","11","","5","","","","102.56","","","","-3","","NA"
"-121.49","49.37","HOPE AIRPORT","1113543","2018-01-13 01:00","2018","01","13","01:00","-1.3","","-2.1","","94","","","M","","","0","","","","102.62","","","","","","NA"
"-121.49","49.37","HOPE AIRPORT","1113543","2018-01-13 02:00","2018","01","13","02:00","-1.2","","-2.0","","94","","","M","","","0","","","","102.61","","","","","","NA"
"-121.49","49.37","HOPE AIRPORT","1113543","2018-01-13 03:00","2018","01","13","03:00","-1.2","","-2.2","","93","","","M","","","0","","","","102.68","","","","","","NA"
"-121.49","49.37","HOPE AIRPORT","1113543","2018-01-13 04:00","2018","01","13","04:00","-1.4","","-2.2","","94","","","M","","","0","","","","102.68","","","","","","NA"
"-121.49","49.37","HOPE AIRPORT","1113543","2018-01-13 05:00","2018","01","13","05:00","-1.3","","-2.2","","94","","","M","","","0","","","","102.67","","","","","","NA"
"-121.49","49.37","HOPE AIRPORT","1113543","2018-01-13 06:00","2018","01","13","06:00","-1.2","","-2.1","","94","","","M","","","0","","","","102.68","","","","","","NA"
"-121.49","49.37","HOPE AIRPORT","1113543","2018-01-13 07:00","2018","01","13","07:00","-1.1","","-1.9","","95","","","M","","","0","","","","102.68","","","","","","NA"
"-121.49","49.37","HOPE AIRPORT","1113543","2018-01-13 08:00","2018","01","13","08:00","-1.1","","-1.8","","95","","","M","","","0","","","","102.75","","","","","","NA"
"-121.49","49.37","HOPE AIRPORT","1113543","2018-01-13 09:00","2018","01","13","09:00","-0.8","","-1.7","","94","","","M","","","0","","","","102.71","","","","","","NA"
"-121.49","49.37","HOPE AIRPORT","1113543","2018-01-13 10:00","2018","01","13","10:00","-0.6","","-1.6","","93","","","M","","","0","","","","102.85","","","","","","NA"
"-121.49","49.37","HOPE AIRPORT","1113543","2018-01-13 11:00","2018","01","13","11:00","-0.1","","-1.4","","91","","","M","","","0","","","","102.85","","","","","","NA"
"-121.49","49.37","HOPE AIRPORT","1113543","2018-01-13 12:00","2018","01","13","12:00","0.4","","-1.2","","89","","","M","","","0","","","","102.81","","","","","","NA"
"-121.49","49.37","HOPE AIRPORT","1113543","2018-01-13 13:00","2018","01","13","13:00","0.7","","-0.6","","91","","","M","","","0","","","","102.79","","","","","","NA"
"-121.49","49.37","HOPE AIRPORT","1113543","2018-01-13 14:00","2018","01","13","14:00","0.8","","-0.4","","92","","","M","10","","19","","","","102.76","","","","","","NA"
"-121.49","49.37","HOPE AIRPORT","1113543","2018-01-13 15:00","2018","01","13","15:00","0.8","","-0.4","","92","","","M","10","","20","","","","102.74","","","","","","NA"
"-121.49","49.37","HOPE AIRPORT","1113543","2018-01-13 16:00","2018","01","13","16:00","0.9","","-0.2","","93","","","M","10","","23","","","","102.75","","","","","","NA"
"-121.49","49.37","HOPE AIRPORT","1113543","2018-01-13 17:00","2018","01","13","17:00","1.0","","0.0","","93","","","M","10","","23","","","","102.73","","","","","","NA"
"-121.49","49.37","HOPE AIRPORT","1113543","2018-01-13 18:00","2018","01","13","18:00","1.1","","-0.2","","91","","","M","9","","23","","","","102.68","","","","","","NA"
"-121.49","49.37","HOPE AIRPORT","1113543","2018-01-13 19:00","2018","01","13","19:00","1.2","","-0.1","","91","","","M","10","","21","","","","102.68","","","","","","NA"
"-121.49","49.37","HOPE AIRPORT","1113543","2018-01-13 20:00","2018","01","13","20:00","1.2","","-0.1","","91","","","M","9","","18","","","","102.67","","","","","","NA"
"-121.49","49.37","HOPE AIRPORT","1113543","2018-01-13 21:00","2018","01","13","21:00","1.3","","-0.2","","89","","","M","10","","22","","","","102.68","","","","","","NA"
"-121.49","49.37","HOPE AIRPORT","1113543","2018-01-13 22:00","2018","01","13","22:00","1.4","","-0.5","","87","","","M","9","","23","","","","102.71","","","","","","NA"
"-121.49","49.37","HOPE AIRPORT","1113543","2018-01-13 23:00","2018","01","13","23:00","1.7","","-0.1","","88","","","M","9","","22","","","","102.69","","","","","","NA"
"-121.49","49.37","HOPE AIRPORT","1113543","2018-01-14 00:00","2018","01","14","00:00","1.8","","-0.1","","88","","","M","10","","28","","","","102.65","","","","","","NA"
"-121.49","49.37","HOPE AIRPORT","1113543","2018-01-14 01:00","2018","01","14","01:00","1.5","","-0.1","","89","","","M","9","","23","","","","102.65","","","","","","NA"
"-121.49","49.37","HOPE AIRPORT","1113543","2018-01-14 02:00","2018","01","14","02:00","1.9","","0.4","","90","","","M","10","","29","","","","102.62","","","","","","NA"
"-121.49","49.37","HOPE AIRPORT","1113543","2018-01-14 03:00","2018","01","14","03:00","2.5","","0.9","","89","","","M","10","","29","","","","102.61","","","","","","NA"
"-121.49","49.37","HOPE AIRPORT","1113543","2018-01-14 04:00","2018","01","14","04:00","3.5","","0.7","","82","","","M","10","","27","","","","102.58","","","","","","NA"
"-121.49","49.37","HOPE AIRPORT","1113543","2018-01-14 05:00","2018","01","14","05:00","3.6","","1.1","","83","","","M","9","","25","","","","102.53","","","","","","NA"
"-121.49","49.37","HOPE AIRPORT","1113543","2018-01-14 06:00","2018","01","14","06:00","2.9","","0.1","","82","","","M","11","","36","","","","102.45","","","","","","NA"
"-121.49","49.37","HOPE AIRPORT","1113543","2018-01-14 07:00","2018","01","14","07:00","4.2","","0.9","","79","","","M","10","","37","","","","102.40","","","","","","NA"
"-121.49","49.37","HOPE AIRPORT","1113543","2018-01-14 08:00","2018","01","14","08:00","4.0","","0.5","","78","","","M","10","","31","","","","102.39","","","","","","NA"
"-121.49","49.37","HOPE AIRPORT","1113543","2018-01-14 09:00","2018","01","14","09:00","4.7","","1.5","","80","","","M","10","","32","","","","102.40","","","","","","NA"
"-121.49","49.37","HOPE AIRPORT","1113543","2018-01-14 10:00","2018","01","14","10:00","4.6","","0.5","","75","","","M","9","","27","","","","102.37","","","","","","NA"
"-121.49","49.37","HOPE AIRPORT","1113543","2018-01-14 11:00","2018","01","14","11:00","4.8","","1.1","","77","","","M","10","","30","","","","102.31","","","","","","NA"
"-121.49","49.37","HOPE AIRPORT","1113543","2018-01-14 12:00","2018","01","14","12:00","6.1","","1.3","","72","","","M","10","","32","","","","102.22","","","","","","NA"
"-121.49","49.37","HOPE AIRPORT","1113543","2018-01-14 13:00","2018","01","14","13:00","6.7","","1.7","","70","","","M","12","","29","","","","102.13","","","","","","NA"
"-121.49","49.37","HOPE AIRPORT","1113543","2018-01-14 14:00","2018","01","14","14:00","7.0","","1.7","","69","","","M","11","","29","","","","102.08","","","","","","NA"
"-121.49","49.37","HOPE AIRPORT","1113543","2018-01-14 15:00","2018","01","14","15:00","7.5","","1.8","","67","","","M","11","","28","","","","102.05","","","","","","NA"
"-121.49","49.37","HOPE AIRPORT","1113543","2018-01-14 16:00","2018","01","14","16:00","6.5","","1.5","","70","","","M","10","","31","","","","102.05","","","","","","NA"
"-121.49","49.37","HOPE AIRPORT","1113543","2018-01-14 17:00","2018","01","14","17:00","6.1","","1.4","","71","","","M","10","","30","","","","102.08","","","","","","NA"
"-121.49","49.37","HOPE AIRPORT","1113543","2018-01-14 18:00","2018","01","14","18:00","6.0","","1.2","","72","","","M","10","","28","","","","102.07","","","","","","NA"
"-121.49","49.37","HOPE AIRPORT","1113543","2018-01-14 19:00","2018","01","14","19:00","5.8","","1.4","","74","","","M","11","","32","","","","102.03","","","","","","NA"
"-121.49","49.37","HOPE AIRPORT","1113543","2018-01-14 20:00","2018","01","14","20:00","5.5","","1.2","","74","","","M","10","","30","","","","102.03","","","","","","NA"
"-121.49","49.37","HOPE AIRPORT","1113543","2018-01-14 21:00","2018","01","14","21:00","5.4","","1.7","","77","","","M","10","","28","","","","102.03","","","","","","NA"
"-121.49","49.37","HOPE AIRPORT","1113543","2018-01-14 22:00","2018","01","14","22:00","5.7","","1.6","","75","","","M","10","","30","","","","102.04","","","","","","NA"
"-121.49","49.37","HOPE AIRPORT","1113543","2018-01-14 23:00","2018","01","14","23:00","4.6","","1.4","","80","","","M","10","","32","","","","102.05","","","","","","NA"
"-121.49","49.37","HOPE AIRPORT","1113543","2018-01-15 00:00","2018","01","15","00:00","4.5","","1.6","","81","","","M","10","","34","","","","102.02","","","","","","NA"
"-121.49","49.37","HOPE AIRPORT","1113543","2018-01-15 01:00","2018","01","15","01:00","4.5","","1.4","","80","","","M","10","","28","","","","101.99","","","","","","NA"
"-121.49","49.37","HOPE AIRPORT","1113543","2018-01-15 02:00","2018","01","15","02:00","4.3","","1.2","","80","","","M","10","","29","","","","102.01","","","","","","NA"
"-121.49","49.37","HOPE AIRPORT","1113543","2018-01-15 03:00","2018","01","15","03:00","3.9","","1.1","","82","","","M","10","","32","","","","101.95","","","","","","NA"
"-121.49","49.37","HOPE AIRPORT","1113543","2018-01-15 04:00","2018","01","15","04:00","4.3","","1.0","","79","","","M","9","","25","","","","101.94","","","","","","NA"
"-121.49","49.37","HOPE AIRPORT","1113543","2018-01-15 05:00","2018","01","15","05:00","3.8","","0.8","","81","","","M","10","","28","","","","101.89","","","","","","NA"
"-121.49","49.37","HOPE AIRPORT","1113543","2018-01-15 06:00","2018","01","15","06:00","3.8","","0.8","","81","","","M","9","","26","","","","101.81","","","","","","NA"
"-121.49","49.37","HOPE AIRPORT","1113543","2018-01-15 07:00","2018","01","15","07:00","4.5","","0.7","","77","","","M","10","","26","","","","101.78","","","","","","NA"
"-121.49","49.37","HOPE AIRPORT","1113543","2018-01-15 08:00","2018","01","15","08:00","4.6","","0.7","","75","","","M","10","","29","","","","101.75","","","","","","NA"
"-121.49","49.37","HOPE AIRPORT","1113543","2018-01-15 09:00","2018","01","15","09:00","5.1","","0.8","","74","","","M","9","","28","","","","101.74","","","","","","NA"
"-121.49","49.37","HOPE AIRPORT","1113543","2018-01-15 10:00","2018","01","15","10:00","5.2","","0.7","","72","","","M","10","","29","","","","101.71","","","","","","NA"
"-121.49","49.37","HOPE AIRPORT","1113543","2018-01-15 11:00","2018","01","15","11:00","6.3","","0.5","","66","","","M","11","","31","","","","101.65","","","","","","NA"
"-121.49","49.37","HOPE AIRPORT","1113543","2018-01-15 12:00","2018","01","15","12:00","6.9","","1.0","","66","","","M","11","","28","","","","101.55","","","","","","NA"
"-121.49","49.37","HOPE AIRPORT","1113543","2018-01-15 13:00","2018","01","15","13:00","7.2","","1.1","","65","","","M","10","","31","","","","101.44","","","","","","NA"
"-121.49","49.37","HOPE AIRPORT","1113543","2018-01-15 14:00","2018","01","15","14:00","7.0","","1.3","","67","","","M","11","","28","","","","101.33","","","","","","NA"
"-121.49","49.37","HOPE AIRPORT","1113543","2018-01-15 15:00","2018","01","15","15:00","7.0","","1.4","","68","","","M","10","","27","","","","101.27","","","","","","NA"
"-121.49","49.37","HOPE AIRPORT","1113543","2018-01-15 16:00","2018","01","15","16:00","7.1","","1.7","","69","","","M","9","","23","","","","101.20","","","","","","NA"
"-121.49","49.37","HOPE AIRPORT","1113543","2018-01-15 17:00","2018","01","15","17:00","6.2","","2.2","","75","","","M","9","","21","","","","101.17","","","","","","NA"
"-121.49","49.37","HOPE AIRPORT","1113543","2018-01-15 18:00","2018","01","15","18:00","6.1","","1.8","","74","","","M","10","","28","","","","101.16","","","","","","NA"
"-121.49","49.37","HOPE AIRPORT","1113543","2018-01-15 19:00","2018","01","15","19:00","6.0","","2.1","","76","","","M","11","","29","","","","101.09","","","","","","NA"
"-121.49","49.37","HOPE AIRPORT","1113543","2018-01-15 20:00","2018","01","15","20:00","5.5","","1.6","","76","","","M","11","","31","","","","101.06","","","","","","NA"
"-121.49","49.37","HOPE AIRPORT","1113543","2018-01-15 21:00","2018","01","15","21:00","5.2","","1.8","","79","","","M","10","","29","","","","101.02","","","","","","NA"
"-121.49","49.37","HOPE AIRPORT","1113543","2018-01-15 22:00","2018","01","15","22:00","5.6","","1.6","","75","","","M","9","","19","","","","101.12","","","","","","NA"
"-121.49","49.37","HOPE AIRPORT","1113543","2018-01-15 23:00","2018","01","15","23:00","5.1","","1.6","","78","","","M","9","","22","","","","101.19","","","","","","NA"
"-121.49","49.37","HOPE AIRPORT","1113543","2018-01-16 00:00","2018","01","16","00:00","4.7","","1.3","","78","","","M","11","","27","","","","101.16","","","","","","NA"
"-121.49","49.37","HOPE AIRPORT","1113543","2018-01-16 01:00","2018","01","16","01:00","4.7","","1.6","","80","","","M","9","","17","","","","101.19","","","","","","NA"
"-121.49","49.37","HOPE AIRPORT","1113543","2018-01-16 02:00","2018","01","16","02:00","4.7","","1.5","","80","","","M","10","","21","","","","101.22","","","","","","NA"
"-121.49","49.37","HOPE AIRPORT","1113543","2018-01-16 03:00","2018","01","16","03:00","4.2","","1.4","","82","","","M","9","","14","","","","101.25","","","","","","NA"
"-121.49","49.37","HOPE AIRPORT","1113543","2018-01-16 04:00","2018","01","16","04:00","3.9","","1.9","","87","","","M","4","","3","","","","101.32","","","","","","NA"
"-121.49","49.37","HOPE AIRPORT","1113543","2018-01-16 05:00","2018","01","16","05:00","2.7","","1.8","","94","","","M","7","","8","","","","101.37","","","","","","NA"
"-121.49","49.37","HOPE AIRPORT","1113543","2018-01-16 06:00","2018","01","16","06:00","2.9","","2.3","","96","","","M","9","","12","","","","101.40","","","","","","NA"
"-121.49","49.37","HOPE AIRPORT","1113543","2018-01-16 07:00","2018","01","16","07:00","2.6","","2.1","","96","","","M","11","","14","","","","101.40","","","","","","NA"
"-121.49","49.37","HOPE AIRPORT","1113543","2018-01-16 08:00","2018","01","16","08:00","2.7","","2.3","","97","","","M","8","","13","","","","101.39","","","","","","NA"
"-121.49","49.37","HOPE AIRPORT","1113543","2018-01-16 09:00","2018","01","16","09:00","2.7","","2.1","","96","","","M","6","","8","","","","101.40","","","","","","NA"
"-121.49","49.37","HOPE AIRPORT","1113543","2018-01-16 10:00","2018","01","16","10:00","3.2","","2.5","","95","","","M","9","","6","","","","101.50","","","","","","NA"
"-121.49","49.37","HOPE AIRPORT","1113543","2018-01-16 11:00","2018","01","16","11:00","3.0","","2.3","","96","","","M","6","","2","","","","101.58","","","","","","NA"
"-121.49","49.37","HOPE AIRPORT","1113543","2018-01-16 12:00","2018","01","16","12:00","3.4","","2.8","","96","","","M","35","","3","","","","101.58","","","","","","NA"
"-121.49","49.37","HOPE AIRPORT","1113543","2018-01-16 13:00","2018","01","16","13:00","4.5","","3.9","","95","","","M","25","","6","","","","101.63","","","","","","NA"
"-121.49","49.37","HOPE AIRPORT","1113543","2018-01-16 14:00","2018","01","16","14:00","4.8","","4.0","","95","","","M","25","","5","","","","101.68","","","","","","NA"
"-121.49","49.37","HOPE AIRPORT","1113543","2018-01-16 15:00","2018","01","16","15:00","4.3","","3.6","","95","","","M","8","","3","","","","101.78","","","","","","NA"
"-121.49","49.37","HOPE AIRPORT","1113543","2018-01-16 16:00","2018","01","16","16:00","4.3","","3.7","","96","","","M","8","","3","","","","101.84","","","","","","NA"
"-121.49","49.37","HOPE AIRPORT","1113543","2018-01-16 17:00","2018","01","16","17:00","3.9","","3.5","","97","","","M","9","","4","","","","101.88","","","","","","NA"
"-121.49","49.37","HOPE AIRPORT","1113543","2018-01-16 18:00","2018","01","16","18:00","3.7","","3.3","","97","","","M","8","","8","","","","101.87","","","","","","NA"
"-121.49","49.37","HOPE AIRPORT","1113543","2018-01-16 19:00","2018","01","16","19:00","3.7","","3.3","","98","","","M","9","","12","","","","101.96","","","","","","NA"
"-121.49","49.37","HOPE AIRPORT","1113543","2018-01-16 20:00","2018","01","16","20:00","3.5","","3.1","","98","","","M","9","","9","","","","102.01","","","","","","NA"
"-121.49","49.37","HOPE AIRPORT","1113543","2018-01-16 21:00","2018","01","16","21:00","3.0","","2.7","","98","","","M","9","","11","","","","102.03","","","","","","NA"
"-121.49","49.37","HOPE AIRPORT","1113543","2018-01-16 22:00","2018","01","16","22:00","2.0","","1.7","","98","","","M","10","","15","","","","101.93","","","","","","NA"
"-121.49","49.37","HOPE AIRPORT","1113543","2018-01-16 23:00","2018","01","16","23:00","1.8","","1.6","","99","","","M","11","","17","","","","101.89","","","","","","NA"
"-121.49","49.37","HOPE AIRPORT","1113543","2018-01-17 00:00","2018","01","17","00:00","1.7","","1.6","","99","","","M","10","","17","","","","101.86","","","","","","NA"
"-121.49","49.37","HOPE AIRPORT","1113543","2018-01-17 01:00","2018","01","17","01:00","1.7","","1.6","","99","","","M","10","","17","","","","101.75","","","","","","NA"
"-121.49","49.37","HOPE AIRPORT","1113543","2018-01-17 02:00","2018","01","17","02:00","1.9","","1.8","","99","","","M","9","","18","","","","101.61","","","","","","NA"
"-121.49","49.37","HOPE AIRPORT","1113543","2018-01-17 03:00","2018","01","17","03:00","1.5","","1.4","","99","","","M","10","","17","","","","101.58","","","","","","NA"
"-121.49","49.37","HOPE AIRPORT","1113543","2018-01-17 04:00","2018","01","17","04:00","1.9","","1.8","","99","","","M","10","","20","","","","101.49","","","","","","NA"
"-121.49","49.37","HOPE AIRPORT","1113543","2018-01-17 05:00","2018","01","17","05:00","2.0","","1.8","","99","","","M","10","","16","","","","101.43","","","","","","NA"
"-121.49","49.37","HOPE AIRPORT","1113543","2018-01-17 06:00","2018","01","17","06:00","2.0","","1.7","","98","","","M","10","","16","","","","101.43","","","","","","NA"
"-121.49","49.37","HOPE AIRPORT","1113543","2018-01-17 07:00","2018","01","17","07:00","2.2","","1.8","","97","","","M","11","","16","","","","101.34","","","","","","NA"
"-121.49","49.37","HOPE AIRPORT","1113543","2018-01-17 08:00","2018","01","17","08:00","2.3","","1.8","","97","","","M","11","","17","","","","101.22","","","","","","NA"
"-121.49","49.37","HOPE AIRPORT","1113543","2018-01-17 09:00","2018","01","17","09:00","3.2","","2.5","","95","","","M","8","","17","","","","101.18","","","","","","NA"
"-121.49","49.37","HOPE AIRPORT","1113543","2018-01-17 10:00","2018","01","17","10:00","3.2","","2.6","","96","","","M","8","","12","","","","101.15","","","","","","NA"
"-121.49","49.37","HOPE AIRPORT","1113543","2018-01-17 11:00","2018","01","17","11:00","3.3","","2.6","","96","","","M","10","","18","","","","101.02","","","","","","NA"
"-121.49","49.37","HOPE AIRPORT","1113543","2018-01-17 12:00","2018","01","17","12:00","3.7","","2.9","","94","","","M","10","","19","","","","100.84","","","","","","NA"
"-121.49","49.37","HOPE AIRPORT","1113543","2018-01-17 13:00","2018","01","17","13:00","4.6","","3.2","","90","","","M","9","","13","","","","100.63","","","","","","NA"
"-121.49","49.37","HOPE AIRPORT","1113543","2018-01-17 14:00","2018","01","17","14:00","4.2","","3.2","","93","","","M","9","","20","","","","100.40","","","","","","NA"
"-121.49","49.37","HOPE AIRPORT","1113543","2018-01-17 15:00","2018","01","17","15:00","4.4","","3.6","","95","","","M","9","","17","","","","100.31","","","","","","NA"
"-121.49","49.37","HOPE AIRPORT","1113543","2018-01-17 16:00","2018","01","17","16:00","3.9","","3.4","","96","","","M","9","","16","","","","100.35","","","","","","NA"
"-121.49","49.37","HOPE AIRPORT","1113543","2018-01-17 17:00","2018","01","17","17:00","3.8","","3.4","","97","","","M","10","","17","","","","100.32","","","","","","NA"
"-121.49","49.37","HOPE AIRPORT","1113543","2018-01-17 18:00","2018","01","17","18:00","3.8","","3.4","","97","","","M","9","","16","","","","100.20","","","","","","NA"
"-121.49","49.37","HOPE AIRPORT","1113543","2018-01-17 19:00","2018","01","17","19:00","4.0","","3.6","","97","","","M","9","","17","","","","100.09","","","","","","NA"
"-121.49","49.37","HOPE AIRPORT","1113543","2018-01-17 20:00","2018","01","17","20:00","3.6","","3.2","","97","","","M","9","","14","","","","100.07","","","","","","NA"
"-121.49","49.37","HOPE AIRPORT","1113543","2018-01-17 21:00","2018","01","17","21:00","3.7","","3.3","","97","","","M","10","","15","","","","99.95","","","","","","NA"
"-121.49","49.37","HOPE AIRPORT","1113543","2018-01-17 22:00","2018","01","17","22:00","3.9","","3.4","","97","","","M","10","","13","","","","99.89","","","","","","NA"
"-121.49","49.37","HOPE AIRPORT","1113543","2018-01-17 23:00","2018","01","17","23:00","3.8","","3.4","","97","","","M","19","","4","","","","99.90","","","","","","NA"
"-121.49","49.37","HOPE AIRPORT","1113543","2018-01-18 00:00","2018","01","18","00:00","3.6","","3.2","","97","","","M","11","","3","","","","99.86","","","","","","NA"
"-121.49","49.37","HOPE AIRPORT","1113543","2018-01-18 01:00","2018","01","18","01:00","6.9","","5.8","","93","","","M","28","","20","","","","99.99","","","","","","NA"
"-121.49","49.37","HOPE AIRPORT","1113543","2018-01-18 02:00","2018","01","18","02:00","7.2","","5.1","","86","","","M","28","","24","","","","100.13","","","","","","NA"
"-121.49","49.37","HOPE AIRPORT","1113543","2018-01-18 03:00","2018","01","18","03:00","6.3","","4.8","","90","","","M","20","","6","","","","100.12","","","","","","NA"
"-121.49","49.37","HOPE AIRPORT","1113543","2018-01-18 04:00","2018","01","18","04:00","5.4","","4.8","","96","","","M","4","","6","","","","100.11","","","","","","NA"
"-121.49","49.37","HOPE AIRPORT","1113543","2018-01-18 05:00","2018","01","18","05:00","4.6","","4.1","","97","","","M","5","","7","","","","100.17","","","","","","NA"
"-121.49","49.37","HOPE AIRPORT","1113543","2018-01-18 06:00","2018","01","18","06:00","4.2","","3.8","","97","","","M","6","","6","","","","100.12","","","","","","NA"
"-121.49","49.37","HOPE AIRPORT","1113543","2018-01-18 07:00","2018","01","18","07:00","4.9","","4.0","","94","","","M","7","","8","","","","100.14","","","","","","NA"
"-121.49","49.37","HOPE AIRPORT","1113543","2018-01-18 08:00","2018","01","18","08:00","3.9","","3.4","","96","","","M","10","","4","","","","100.23","","","","","","NA"
"-121.49","49.37","HOPE AIRPORT","1113543","2018-01-18 09:00","2018","01","18","09:00","3.9","","3.5","","97","","","M","13","","6","","","","100.34","","","","","","NA"
"-121.49","49.37","HOPE AIRPORT","1113543","2018-01-18 10:00","2018","01","18","10:00","3.8","","3.3","","97","","","M","7","","2","","","","100.41","","","","","","NA"
"-121.49","49.37","HOPE AIRPORT","1113543","2018-01-18 11:00","2018","01","18","11:00","5.2","","4.1","","93","","","M","21","","2","","","","100.42","","","","","","NA"
"-121.49","49.37","HOPE AIRPORT","1113543","2018-01-18 12:00","2018","01","18","12:00","5.2","","4.3","","94","","","M","28","","5","","","","100.33","","","","","","NA"
"-121.49","49.37","HOPE AIRPORT","1113543","2018-01-18 13:00","2018","01","18","13:00","6.2","","4.7","","90","","","M","18","","6","","","","100.25","","","","","","NA"
"-121.49","49.37","HOPE AIRPORT","1113543","2018-01-18 14:00","2018","01","18","14:00","7.7","","2.9","","72","","","M","17","","11","","","","100.18","","","","","","NA"
"-121.49","49.37","HOPE AIRPORT","1113543","2018-01-18 15:00","2018","01","18","15:00","5.8","","4.7","","93","","","M","28","","10","","","","100.18","","","","","","NA"
"-121.49","49.37","HOPE AIRPORT","1113543","2018-01-18 16:00","2018","01","18","16:00","5.4","","4.4","","93","","","M","27","","8","","","","100.19","","","","","","NA"
"-121.49","49.37","HOPE AIRPORT","1113543","2018-01-18 17:00","2018","01","18","17:00","4.8","","4.4","","97","","","M","23","","8","","","","100.16","","","","","","NA"
"-121.49","49.37","HOPE AIRPORT","1113543","2018-01-18 18:00","2018","01","18","18:00","3.9","","3.4","","97","","","M","10","","6","","","","100.17","","","","","","NA"
"-121.49","49.37","HOPE AIRPORT","1113543","2018-01-18 19:00","2018","01","18","19:00","3.4","","2.9","","97","","","M","8","","8","","","","100.21","","","","","","NA"
"-121.49","49.37","HOPE AIRPORT","1113543","2018-01-18 20:00","2018","01","18","20:00","2.8","","2.4","","97","","","M","13","","1","","","","100.24","","","","","","NA"
"-121.49","49.37","HOPE AIRPORT","1113543","2018-01-18 21:00","2018","01","18","21:00","2.2","","1.9","","98","","","M","17","","2","","","","100.31","","","","","","NA"
"-121.49","49.37","HOPE AIRPORT","1113543","2018-01-18 22:00","2018","01","18","22:00","2.0","","1.7","","98","","","M","36","","2","","","","100.34","","","","","","NA"
"-121.49","49.37","HOPE AIRPORT","1113543","2018-01-18 23:00","2018","01","18","23:00","2.0","","1.8","","99","","","M","26","","1","","","","100.37","","","","","","NA"
"-121.49","49.37","HOPE AIRPORT","1113543","2018-01-19 00:00","2018","01","19","00:00","2.0","","1.8","","99","","","M","","","0","","","","100.40","","","","","","NA"
"-121.49","49.37","HOPE AIRPORT","1113543","2018-01-19 01:00","2018","01","19","01:00","2.0","","1.8","","99","","","M","10","","2","","","","100.40","","","","","","NA"
"-121.49","49.37","HOPE AIRPORT","1113543","2018-01-19 02:00","2018","01","19","02:00","1.7","","1.5","","99","","","M","12","","2","","","","100.42","","","","","","NA"
"-121.49","49.37","HOPE AIRPORT","1113543","2018-01-19 03:00","2018","01","19","03:00","1.7","","1.5","","99","","","M","0","","1","","","","100.45","","","","","","NA"
"-121.49","49.37","HOPE AIRPORT","1113543","2018-01-19 04:00","2018","01","19","04:00","1.6","","1.5","","99","","","M","8","","7","","","","100.44","","","","","","NA"
"-121.49","49.37","HOPE AIRPORT","1113543","2018-01-19 05:00","2018","01","19","05:00","0.9","","0.8","","99","","","M","10","","9","","","","100.47","","","","","","NA"
"-121.49","49.37","HOPE AIRPORT","1113543","2018-01-19 06:00","2018","01","19","06:00","0.8","","0.7","","99","","","M","6","","5","","","","100.50","","","","","","NA"
"-121.49","49.37","HOPE AIRPORT","1113543","2018-01-19 07:00","2018","01","19","07:00","0.7","","0.5","","99","","","M","4","","4","","","","100.53","","","","","","NA"
"-121.49","49.37","HOPE AIRPORT","1113543","2018-01-19 08:00","2018","01","19","08:00","0.2","","0.1","","99","","","M","8","","6","","","","100.56","","","","","","NA"
"-121.49","49.37","HOPE AIRPORT","1113543","2018-01-19 09:00","2018","01","19","09:00","0.2","","0.1","","99","","","M","6","","1","","","","100.63","","","","","","NA"
"-121.49","49.37","HOPE AIRPORT","1113543","2018-01-19 10:00","2018","01","19","10:00","1.1","","0.9","","99","","","M","11","","9","","","","100.65","","","","","","NA"
"-121.49","49.37","HOPE AIRPORT","1113543","2018-01-19 11:00","2018","01","19","11:00","3.0","","1.4","","89","","","M","10","","8","","","","100.67","","","","","","NA"
"-121.49","49.37","HOPE AIRPORT","1113543","2018-01-19 12:00","2018","01","19","12:00","3.8","","2.2","","90","","","M","8","","3","","","","100.63","","","","","","NA"
"-121.49","49.37","HOPE AIRPORT","1113543","2018-01-19 13:00","2018","01","19","13:00","4.4","","3.0","","91","","","M","7","","3","","","","100.60","","","","","","NA"
"-121.49","49.37","HOPE AIRPORT","1113543","2018-01-19 14:00","2018","01","19","14:00","4.1","","2.8","","91","","","M","4","","3","","","","100.56","","","","","","NA"
"-121.49","49.37","HOPE AIRPORT","1113543","2018-01-19 15:00","2018","01","19","15:00","4.2","","3.3","","94","","","M","8","","1","","","","100.55","","","","","","NA"
"-121.49","49.37","HOPE AIRPORT","1113543","2018-01-19 16:00","2018","01","19","16:00","3.7","","3.0","","95","","","M","0","","1","","","","100.55","","","","","","NA"
"-121.49","49.37","HOPE AIRPORT","1113543","2018-01-19 17:00","2018","01","19","17:00","3.3","","2.8","","97","","","M","","","0","","","","100.54","","","","","","NA"
"-121.49","49.37","HOPE AIRPORT","1113543","2018-01-19 18:00","2018","01","19","18:00","3.6","","3.2","","98","","","M","23","","7","","","","100.54","","","","","","NA"
"-121.49","49.37","HOPE AIRPORT","1113543","2018-01-19 19:00","2018","01","19","19:00","3.3","","3.0","","98","","","M","28","","2","","","","100.55","","","","","","NA"
"-121.49","49.37","HOPE AIRPORT","1113543","2018-01-19 20:00","2018","01","19","20:00","3.6","","3.3","","98","","","M","25","","12","","","","100.58","","","","","","NA"
"-121.49","49.37","HOPE AIRPORT","1113543","2018-01-19 21:00","2018","01","19","21:00","3.6","","3.3","","98","","","M","25","","12","","","","100.61","","","","","","NA"
"-121.49","49.37","HOPE AIRPORT","1113543","2018-01-19 22:00","2018","01","19","22:00","3.6","","3.2","","98","","","M","25","","12","","","","100.67","","","","","","NA"
"-121.49","49.37","HOPE AIRPORT","1113543","2018-01-19 23:00","2018","01","19","23:00","3.4","","2.8","","96","","","M","24","","14","","","","100.71","","","","","","NA"
"-121.49","49.37","HOPE AIRPORT","1113543","2018-01-20 00:00","2018","01","20","00:00","3.3","","2.6","","95","","","M","24","","14","","","","100.74","","","","","","NA"
"-121.49","49.37","HOPE AIRPORT","1113543","2018-01-20 01:00","2018","01","20","01:00","3.6","","2.7","","94","","","M","23","","15","","","","100.77","","","","","","NA"
"-121.49","49.37","HOPE AIRPORT","1113543","2018-01-20 02:00","2018","01","20","02:00","3.6","","2.3","","91","","","M","21","","15","","","","100.82","","","","","","NA"
"-121.49","49.37","HOPE AIRPORT","1113543","2018-01-20 03:00","2018","01","20","03:00","4.1","","2.8","","91","","","M","24","","10","","","","100.89","","","","","","NA"
"-121.49","49.37","HOPE AIRPORT","1113543","2018-01-20 04:00","2018","01","20","04:00","2.8","","2.0","","95","","","M","7","","4","","","","100.95","","","","","","NA"
"-121.49","49.37","HOPE AIRPORT","1113543","2018-01-20 05:00","2018","01","20","05:00","2.5","","2.0","","97","","","M","","","0","","","","100.99","","","","","","NA"
"-121.49","49.37","HOPE AIRPORT","1113543","2018-01-20 06:00","2018","01","20","06:00","2.3","","2.0","","98","","","M","11","","6","","","","101.00","","","","","","NA"
"-121.49","49.37","HOPE AIRPORT","1113543","2018-01-20 07:00","2018","01","20","07:00","1.6","","1.3","","98","","","M","","","0","","","","101.02","","","","","","NA"
"-121.49","49.37","HOPE AIRPORT","1113543","2018-01-20 08:00","2018","01","20","08:00","1.3","","1.1","","98","","","M","0","","1","","","","101.03","","","","","","NA"
"-121.49","49.37","HOPE AIRPORT","1113543","2018-01-20 09:00","2018","01","20","09:00","2.8","","2.6","","99","","","M","23","","10","","","","101.10","","","","","","NA"
"-121.49","49.37","HOPE AIRPORT","1113543","2018-01-20 10:00","2018","01","20","10:00","3.5","","3.1","","97","","","M","23","","9","","","","101.16","","","","","","NA"
"-121.49","49.37","HOPE AIRPORT","1113543","2018-01-20 11:00","2018","01","20","11:00","3.9","","3.3","","96","","","M","23","","7","","","","101.19","","","","","","NA"
"-121.49","49.37","HOPE AIRPORT","1113543","2018-01-20 12:00","2018","01","20","12:00","4.8","","3.7","","92","","","M","23","","9","","","","101.17","","","","","","NA"
"-121.49","49.37","HOPE AIRPORT","1113543","2018-01-20 13:00","2018","01","20","13:00","4.8","","3.3","","90","","","M","7","","3","","","","101.14","","","","","","NA"
"-121.49","49.37","HOPE AIRPORT","1113543","2018-01-20 14:00","2018","01","20","14:00","5.5","","3.7","","89","","","M","9","","7","","","","101.05","","","","","","NA"
"-121.49","49.37","HOPE AIRPORT","1113543","2018-01-20 15:00","2018","01","20","15:00","5.2","","3.8","","90","","","M","0","","1","","","","101.06","","","","","","NA"
"-121.49","49.37","HOPE AIRPORT","1113543","2018-01-20 16:00","2018","01","20","16:00","4.7","","3.7","","93","","","M","7","","3","","","","101.05","","","","","","NA"
"-121.49","49.37","HOPE AIRPORT","1113543","2018-01-20 17:00","2018","01","20","17:00","4.2","","3.5","","96","","","M","11","","12","","","","100.97","","","","","","NA"
"-121.49","49.37","HOPE AIRPORT","1113543","2018-01-20 18:00","2018","01","20","18:00","3.9","","3.4","","96","","","M","2","","3","","","","101.02","","","","","","NA"
"-121.49","49.37","HOPE AIRPORT","1113543","2018-01-20 19:00","2018","01","20","19:00","3.4","","3.0","","97","","","M","10","","12","","","","100.98","","","","","","NA"
"-121.49","49.37","HOPE AIRPORT","1113543","2018-01-20 20:00","2018","01","20","20:00","3.2","","2.8","","97","","","M","11","","14","","","","100.91","","","","","","NA"
"-121.49","49.37","HOPE AIRPORT","1113543","2018-01-20 21:00","2018","01","20","21:00","3.0","","2.4","","96","","","M","10","","17","","","","100.83","","","","","","NA"
"-121.49","49.37","HOPE AIRPORT","1113543","2018-01-20 22:00","2018","01","20","22:00","2.9","","2.4","","96","","","M","12","","15","","","","100.80","","","","","","NA"
"-121.49","49.37","HOPE AIRPORT","1113543","2018-01-20 23:00","2018","01","20","23:00","3.2","","2.6","","96","","","M","10","","15","","","","100.74","","","","","","NA"
"-121.49","49.37","HOPE AIRPORT","1113543","2018-01-21 00:00","2018","01","21","00:00","3.1","","2.4","","95","","","M","9","","13","","","","100.68","","","","","","NA"
"-121.49","49.37","HOPE AIRPORT","1113543","2018-01-21 01:00","2018","01","21","01:00","3.0","","2.5","","96","","","M","11","","12","","","","100.68","","","","","","NA"
"-121.49","49.37","HOPE AIRPORT","1113543","2018-01-21 02:00","2018","01","21","02:00","3.1","","2.5","","96","","","M","9","","15","","","","100.59","","","","","","NA"
"-121.49","49.37","HOPE AIRPORT","1113543","2018-01-21 03:00","2018","01","21","03:00","3.1","","2.6","","96","","","M","9","","13","","","","100.54","","","","","","NA"
"-121.49","49.37","HOPE AIRPORT","1113543","2018-01-21 04:00","2018","01","21","04:00","2.9","","2.3","","95","","","M","10","","15","","","","100.44","","","","","","NA"
"-121.49","49.37","HOPE AIRPORT","1113543","2018-01-21 05:00","2018","01","21","05:00","2.8","","2.2","","96","","","M","9","","13","","","","100.36","","","","","","NA"
"-121.49","49.37","HOPE AIRPORT","1113543","2018-01-21 06:00","2018","01","21","06:00","2.9","","2.2","","96","","","M","10","","15","","","","100.26","","","","","","NA"
"-121.49","49.37","HOPE AIRPORT","1113543","2018-01-21 07:00","2018","01","21","07:00","3.3","","2.5","","95","","","M","10","","16","","","","100.19","","","","","","NA"
"-121.49","49.37","HOPE AIRPORT","1113543","2018-01-21 08:00","2018","01","21","08:00","2.9","","2.2","","96","","","M","10","","16","","","","100.09","","","","","","NA"
"-121.49","49.37","HOPE AIRPORT","1113543","2018-01-21 09:00","2018","01","21","09:00","3.2","","2.5","","96","","","M","9","","13","","","","100.08","","","","","","NA"
"-121.49","49.37","HOPE AIRPORT","1113543","2018-01-21 10:00","2018","01","21","10:00","3.6","","3.1","","97","","","M","9","","13","","","","100.05","","","","","","NA"
"-121.49","49.37","HOPE AIRPORT","1113543","2018-01-21 11:00","2018","01","21","11:00","4.9","","3.6","","92","","","M","9","","13","","","","99.99","","","","","","NA"
"-121.49","49.37","HOPE AIRPORT","1113543","2018-01-21 12:00","2018","01","21","12:00","5.4","","3.7","","88","","","M","11","","7","","","","100.06","","","","","","NA"
"-121.49","49.37","HOPE AIRPORT","1113543","2018-01-21 13:00","2018","01","21","13:00","7.6","","3.6","","75","","","M","15","","20","","","","100.14","","","","","","NA"
"-121.49","49.37","HOPE AIRPORT","1113543","2018-01-21 14:00","2018","01","21","14:00","6.2","","4.9","","92","","","M","27","","5","","","","100.22","","","","","","NA"
"-121.49","49.37","HOPE AIRPORT","1113543","2018-01-21 15:00","2018","01","21","15:00","6.2","","5.0","","92","","","M","23","","14","","","","100.26","","","","","","NA"
"-121.49","49.37","HOPE AIRPORT","1113543","2018-01-21 16:00","2018","01","21","16:00","6.3","","4.7","","90","","","M","26","","19","","","","100.37","","","","","","NA"
"-121.49","49.37","HOPE AIRPORT","1113543","2018-01-21 17:00","2018","01","21","17:00","5.7","","4.5","","92","","","M","24","","12","","","","100.45","","","","","","NA"
"-121.49","49.37","HOPE AIRPORT","1113543","2018-01-21 18:00","2018","01","21","18:00","4.9","","3.4","","90","","","M","28","","19","","","","100.59","","","","","","NA"
"-121.49","49.37","HOPE AIRPORT","1113543","2018-01-21 19:00","2018","01","21","19:00","3.2","","2.0","","92","","","M","24","","10","","","","100.73","","","","","","NA"
"-121.49","49.37","HOPE AIRPORT","1113543","2018-01-21 20:00","2018","01","21","20:00","2.9","","2.1","","95","","","M","23","","13","","","","100.86","","","","","","NA"
"-121.49","49.37","HOPE AIRPORT","1113543","2018-01-21 21:00","2018","01","21","21:00","2.2","","1.4","","95","","","M","2","","1","","","","100.88","","","","","","NA"
"-121.49","49.37","HOPE AIRPORT","1113543","2018-01-21 22:00","2018","01","21","22:00","2.3","","1.8","","96","","","M","4","","3","","","","100.96","","","","","","NA"
"-121.49","49.37","HOPE AIRPORT","1113543","2018-01-21 23:00","2018","01","21","23:00","2.3","","1.9","","97","","","M","6","","2","","","","101.03","","","","","","NA"
"-121.49","49.37","HOPE AIRPORT","1113543","2018-01-22 00:00","2018","01","22","00:00","2.4","","2.0","","98","","","M","29","","2","","","","101.05","","","","","","NA"
"-121.49","49.37","HOPE AIRPORT","1113543","2018-01-22 01:00","2018","01","22","01:00","2.3","","2.0","","98","","","M","25","","5","","","","101.10","","","","","","NA"
"-121.49","49.37","HOPE AIRPORT","1113543","2018-01-22 02:00","2018","01","22","02:00","2.5","","2.2","","98","","","M","1","","1","","","","101.17","","","","","","NA"
"-121.49","49.37","HOPE AIRPORT","1113543","2018-01-22 03:00","2018","01","22","03:00","2.4","","2.1","","98","","","M","6","","1","","","","101.21","","","","","","NA"
"-121.49","49.37","HOPE AIRPORT","1113543","2018-01-22 04:00","2018","01","22","04:00","2.4","","2.2","","98","","","M","0","","1","","","","101.25","","","","","","NA"
"-121.49","49.37","HOPE AIRPORT","1113543","2018-01-22 05:00","2018","01","22","05:00","3.2","","3.0","","98","","","M","26","","11","","","","101.31","","","","","","NA"
"-121.49","49.37","HOPE AIRPORT","1113543","2018-01-22 06:00","2018","01","22","06:00","2.9","","2.6","","98","","","M","29","","3","","","","101.34","","","","","","NA"
"-121.49","49.37","HOPE AIRPORT","1113543","2018-01-22 07:00","2018","01","22","07:00","2.9","","2.4","","97","","","M","23","","10","","","","101.36","","","","","","NA"
"-121.49","49.37","HOPE AIRPORT","1113543","2018-01-22 08:00","2018","01","22","08:00","2.9","","2.0","","94","","","M","22","","12","","","","101.45","","","","","","NA"
"-121.49","49.37","HOPE AIRPORT","1113543","2018-01-22 09:00","2018","01","22","09:00","2.7","","2.1","","95","","","M","11","","3","","","","101.53","","","","","","NA"
"-121.49","49.37","HOPE AIRPORT","1113543","2018-01-22 10:00","2018","01","22","10:00","4.3","","3.7","","96","","","M","21","","12","","","","101.61","","","","","","NA"
"-121.49","49.37","HOPE AIRPORT","1113543","2018-01-22 11:00","2018","01","22","11:00","4.7","","3.2","","90","","","M","24","","10","","","","101.66","","","","","","NA"
"-121.49","49.37","HOPE AIRPORT","1113543","2018-01-22 12:00","2018","01","22","12:00","5.5","","3.6","","88","","","M","26","","18","","","","101.69","","","","","","NA"
"-121.49","49.37","HOPE AIRPORT","1113543","2018-01-22 13:00","2018","01","22","13:00","5.4","","3.8","","89","","","M","23","","17","","","","101.73","","","","","","NA"
"-121.49","49.37","HOPE AIRPORT","1113543","2018-01-22 14:00","2018","01","22","14:00","6.0","","3.3","","82","","","M","23","","14","","","","101.79","","","","","","NA"
"-121.49","49.37","HOPE AIRPORT","1113543","2018-01-22 15:00","2018","01","22","15:00","6.5","","2.9","","78","","","M","21","","12","","","","101.87","","","","","","NA"
"-121.49","49.37","HOPE AIRPORT","1113543","2018-01-22 16:00","2018","01","22","16:00","5.5","","3.2","","85","","","M","21","","6","","","","101.93","","","","","","NA"
"-121.49","49.37","HOPE AIRPORT","1113543","2018-01-22 17:00","2018","01","22","17:00","5.3","","3.0","","85","","","M","19","","11","","","","101.99","","","","","","NA"
"-121.49","49.37","HOPE AIRPORT","1113543","2018-01-22 18:00","2018","01","22","18:00","5.7","","2.7","","81","","","M","25","","8","","","","102.03","","","","","","NA"
"-121.49","49.37","HOPE AIRPORT","1113543","2018-01-22 19:00","2018","01","22","19:00","3.5","","2.8","","95","","","M","10","","5","","","","102.02","","","","","","NA"
"-121.49","49.37","HOPE AIRPORT","1113543","2018-01-22 20:00","2018","01","22","20:00","3.1","","2.6","","96","","","M","6","","3","","","","102.03","","","","","","NA"
"-121.49","49.37","HOPE AIRPORT","1113543","2018-01-22 21:00","2018","01","22","21:00","2.9","","2.5","","97","","","M","9","","4","","","","102.06","","","","","","NA"
"-121.49","49.37","HOPE AIRPORT","1113543","2018-01-22 22:00","2018","01","22","22:00","2.8","","2.4","","97","","","M","9","","7","","","","102.04","","","","","","NA"
"-121.49","49.37","HOPE AIRPORT","1113543","2018-01-22 23:00","2018","01","22","23:00","2.4","","2.0","","97","","","M","9","","10","","","","102.03","","","","","","NA"
"-121.49","49.37","HOPE AIRPORT","1113543","2018-01-23 00:00","2018","01","23","00:00","2.3","","2.0","","98","","","M","9","","10","","","","102.03","","","","","","NA"
"-121.49","49.37","HOPE AIRPORT","1113543","2018-01-23 01:00","2018","01","23","01:00","2.3","","2.0","","98","","","M","7","","8","","","","101.99","","","","","","NA"
"-121.49","49.37","HOPE AIRPORT","1113543","2018-01-23 02:00","2018","01","23","02:00","1.0","","0.7","","98","","","M","10","","11","","","","101.96","","","","","","NA"
"-121.49","49.37","HOPE AIRPORT","1113543","2018-01-23 03:00","2018","01","23","03:00","1.3","","1.1","","99","","","M","9","","13","","","","101.94","","","","","","NA"
"-121.49","49.37","HOPE AIRPORT","1113543","2018-01-23 04:00","2018","01","23","04:00","1.0","","0.9","","99","","","M","9","","11","","","","101.85","","","","","","NA"
"-121.49","49.37","HOPE AIRPORT","1113543","2018-01-23 05:00","2018","01","23","05:00","0.7","","0.6","","99","","","M","10","","15","","","","101.72","","","","","","NA"
"-121.49","49.37","HOPE AIRPORT","1113543","2018-01-23 06:00","2018","01","23","06:00","1.2","","1.0","","99","","","M","11","","19","","","","101.57","","","","","","NA"
"-121.49","49.37","HOPE AIRPORT","1113543","2018-01-23 07:00","2018","01","23","07:00","1.3","","1.0","","98","","","M","10","","18","","","","101.44","","","","","","NA"
"-121.49","49.37","HOPE AIRPORT","1113543","2018-01-23 08:00","2018","01","23","08:00","1.9","","1.3","","96","","","M","10","","18","","","","101.27","","","","","","NA"
"-121.49","49.37","HOPE AIRPORT","1113543","2018-01-23 09:00","2018","01","23","09:00","1.7","","1.0","","95","","","M","9","","15","","","","101.19","","","","","","NA"
"-121.49","49.37","HOPE AIRPORT","1113543","2018-01-23 10:00","2018","01","23","10:00","2.5","","1.7","","95","","","M","10","","12","","","","101.15","","","","","","NA"
"-121.49","49.37","HOPE AIRPORT","1113543","2018-01-23 11:00","2018","01","23","11:00","2.7","","1.7","","93","","","M","12","","19","","","","101.08","","","","","","NA"
"-121.49","49.37","HOPE AIRPORT","1113543","2018-01-23 12:00","2018","01","23","12:00","2.6","","1.3","","91","","","M","11","","21","","","","100.91","","","","","","NA"
"-121.49","49.37","HOPE AIRPORT","1113543","2018-01-23 13:00","2018","01","23","13:00","2.7","","1.5","","92","","","M","11","","15","","","","100.77","","","","","","NA"
"-121.49","49.37","HOPE AIRPORT","1113543","2018-01-23 14:00","2018","01","23","14:00","2.8","","1.7","","92","","","M","10","","14","","","","100.75","","","","","","NA"
"-121.49","49.37","HOPE AIRPORT","1113543","2018-01-23 15:00","2018","01","23","15:00","2.2","","1.5","","95","","","M","8","","13","","","","100.71","","","","","","NA"
"-121.49","49.37","HOPE AIRPORT","1113543","2018-01-23 16:00","2018","01","23","16:00","2.1","","1.5","","96","","","M","9","","11","","","","100.65","","","","","","NA"
"-121.49","49.37","HOPE AIRPORT","1113543","2018-01-23 17:00","2018","01","23","17:00","1.9","","1.2","","95","","","M","9","","16","","","","100.59","","","","","","NA"
"-121.49","49.37","HOPE AIRPORT","1113543","2018-01-23 18:00","2018","01","23","18:00","2.2","","1.5","","95","","","M","9","","14","","","","100.52","","","","","","NA"
"-121.49","49.37","HOPE AIRPORT","1113543","2018-01-23 19:00","2018","01","23","19:00","2.1","","1.6","","96","","","M","11","","12","","","","100.49","","","","","","NA"
"-121.49","49.37","HOPE AIRPORT","1113543","2018-01-23 20:00","2018","01","23","20:00","2.3","","1.8","","96","","","M","9","","14","","","","100.44","","","","","","NA"
"-121.49","49.37","HOPE AIRPORT","1113543","2018-01-23 21:00","2018","01","23","21:00","2.5","","1.9","","96","","","M","9","","11","","","","100.39","","","","","","NA"
"-121.49","49.37","HOPE AIRPORT","1113543","2018-01-23 22:00","2018","01","23","22:00","2.3","","1.8","","96","","","M","9","","10","","","","100.37","","","","","","NA"
"-121.49","49.37","HOPE AIRPORT","1113543","2018-01-23 23:00","2018","01","23","23:00","2.5","","2.0","","97","","","M","10","","15","","","","100.28","","","","","","NA"
"-121.49","49.37","HOPE AIRPORT","1113543","2018-01-24 00:00","2018","01","24","00:00","2.3","","1.7","","96","","","M","8","","11","","","","100.23","","","","","","NA"
"-121.49","49.37","HOPE AIRPORT","1113543","2018-01-24 01:00","2018","01","24","01:00","2.0","","1.3","","96","","","M","9","","15","","","","100.17","","","","","","NA"
"-121.49","49.37","HOPE AIRPORT","1113543","2018-01-24 02:00","2018","01","24","02:00","2.0","","1.3","","95","","","M","8","","13","","","","100.16","","","","","","NA"
"-121.49","49.37","HOPE AIRPORT","1113543","2018-01-24 03:00","2018","01","24","03:00","1.9","","1.4","","96","","","M","9","","14","","","","100.18","","","","","","NA"
"-121.49","49.37","HOPE AIRPORT","1113543","2018-01-24 04:00","2018","01","24","04:00","1.4","","0.8","","96","","","M","10","","16","","","","100.14","","","","","","NA"
"-121.49","49.37","HOPE AIRPORT","1113543","2018-01-24 05:00","2018","01","24","05:00","0.9","","0.4","","97","","","M","9","","16","","","","100.12","","","","","","NA"
"-121.49","49.37","HOPE AIRPORT","1113543","2018-01-24 06:00","2018","01","24","06:00","0.8","","0.4","","98","","","M","9","","13","","","","100.08","","","","","","NA"
"-121.49","49.37","HOPE AIRPORT","1113543","2018-01-24 07:00","2018","01","24","07:00","0.3","","0.0","","98","","","M","10","","11","","","","100.13","","","","","","NA"
"-121.49","49.37","HOPE AIRPORT","1113543","2018-01-24 08:00","2018","01","24","08:00","0.3","","0.1","","99","","","M","10","","18","","","","100.15","","","","","","NA"
"-121.49","49.37","HOPE AIRPORT","1113543","2018-01-24 09:00","2018","01","24","09:00","0.6","","0.4","","98","","","M","11","","16","","","","100.16","","","","","","NA"
"-121.49","49.37","HOPE AIRPORT","1113543","2018-01-24 10:00","2018","01","24","10:00","1.3","","0.9","","98","","","M","9","","17","","","","100.13","","","","","","NA"
"-121.49","49.37","HOPE AIRPORT","1113543","2018-01-24 11:00","2018","01","24","11:00","1.9","","1.4","","97","","","M","10","","14","","","","100.09","","","","","","NA"
"-121.49","49.37","HOPE AIRPORT","1113543","2018-01-24 12:00","2018","01","24","12:00","2.9","","2.3","","96","","","M","9","","14","","","","99.99","","","","","","NA"
"-121.49","49.37","HOPE AIRPORT","1113543","2018-01-24 13:00","2018","01","24","13:00","3.5","","2.4","","92","","","M","9","","11","","","","99.91","","","","","","NA"
"-121.49","49.37","HOPE AIRPORT","1113543","2018-01-24 14:00","2018","01","24","14:00","4.0","","3.0","","93","","","M","10","","12","","","","99.85","","","","","","NA"
"-121.49","49.37","HOPE AIRPORT","1113543","2018-01-24 15:00","2018","01","24","15:00","4.1","","3.0","","92","","","M","11","","16","","","","99.76","","","","","","NA"
"-121.49","49.37","HOPE AIRPORT","1113543","2018-01-24 16:00","2018","01","24","16:00","4.0","","3.1","","94","","","M","10","","14","","","","99.77","","","","","","NA"
"-121.49","49.37","HOPE AIRPORT","1113543","2018-01-24 17:00","2018","01","24","17:00","3.7","","3.0","","96","","","M","11","","15","","","","99.74","","","","","","NA"
"-121.49","49.37","HOPE AIRPORT","1113543","2018-01-24 18:00","2018","01","24","18:00","3.5","","2.8","","95","","","M","10","","13","","","","99.70","","","","","","NA"
"-121.49","49.37","HOPE AIRPORT","1113543","2018-01-24 19:00","2018","01","24","19:00","3.7","","3.1","","96","","","M","8","","11","","","","99.65","","","","","","NA"
"-121.49","49.37","HOPE AIRPORT","1113543","2018-01-24 20:00","2018","01","24","20:00","3.2","","2.7","","97","","","M","11","","12","","","","99.65","","","","","","NA"
"-121.49","49.37","HOPE AIRPORT","1113543","2018-01-24 21:00","2018","01","24","21:00","3.0","","2.6","","97","","","M","8","","4","","","","99.70","","","","","","NA"
"-121.49","49.37","HOPE AIRPORT","1113543","2018-01-24 22:00","2018","01","24","22:00","2.8","","2.4","","97","","","M","9","","11","","","","99.73","","","","","","NA"
"-121.49","49.37","HOPE AIRPORT","1113543","2018-01-24 23:00","2018","01","24","23:00","2.6","","2.2","","98","","","M","26","","5","","","","99.75","","","","","","NA"
"-121.49","49.37","HOPE AIRPORT","1113543","2018-01-25 00:00","2018","01","25","00:00","3.5","","3.3","","98","","","M","26","","11","","","","99.80","","","","","","NA"
"-121.49","49.37","HOPE AIRPORT","1113543","2018-01-25 01:00","2018","01","25","01:00","4.4","","3.0","","91","","","M","28","","15","","","","99.83","","","","","","NA"
"-121.49","49.37","HOPE AIRPORT","1113543","2018-01-25 02:00","2018","01","25","02:00","3.0","","1.9","","92","","","M","29","","20","","","","99.95","","","","","","NA"
"-121.49","49.37","HOPE AIRPORT","1113543","2018-01-25 03:00","2018","01","25","03:00","2.2","","1.4","","95","","","M","22","","15","","","","100.06","","","","","","NA"
"-121.49","49.37","HOPE AIRPORT","1113543","2018-01-25 04:00","2018","01","25","04:00","2.1","","1.2","","94","","","M","8","","6","","","","100.10","","","","","","NA"
"-121.49","49.37","HOPE AIRPORT","1113543","2018-01-25 05:00","2018","01","25","05:00","1.0","","0.6","","97","","","M","14","","2","","","","100.13","","","","","","NA"
"-121.49","49.37","HOPE AIRPORT","1113543","2018-01-25 06:00","2018","01","25","06:00","-0.5","","-0.8","","98","","","M","10","","8","","","","100.10","","","","-3","","NA"
"-121.49","49.37","HOPE AIRPORT","1113543","2018-01-25 07:00","2018","01","25","07:00","0.2","","-0.1","","98","","","M","8","","9","","","","100.09","","","","","","NA"
"-121.49","49.37","HOPE AIRPORT","1113543","2018-01-25 08:00","2018","01","25","08:00","-0.5","","-0.6","","99","","","M","10","","14","","","","100.08","","","","-5","","NA"
"-121.49","49.37","HOPE AIRPORT","1113543","2018-01-25 09:00","2018","01","25","09:00","-0.1","","-0.2","","99","","","M","7","","10","","","","100.08","","","","-3","","NA"
"-121.49","49.37","HOPE AIRPORT","1113543","2018-01-25 10:00","2018","01","25","10:00","0.1","","0.0","","99","","","M","10","","14","","","","100.10","","","","","","NA"
"-121.49","49.37","HOPE AIRPORT","1113543","2018-01-25 11:00","2018","01","25","11:00","1.4","","1.2","","99","","","M","11","","13","","","","100.10","","","","","","NA"
"-121.49","49.37","HOPE AIRPORT","1113543","2018-01-25 12:00","2018","01","25","12:00","2.8","","1.9","","94","","","M","9","","10","","","","100.05","","","","","","NA"
"-121.49","49.37","HOPE AIRPORT","1113543","2018-01-25 13:00","2018","01","25","13:00","3.1","","2.1","","93","","","M","5","","2","","","","100.08","","","","","","NA"
"-121.49","49.37","HOPE AIRPORT","1113543","2018-01-25 14:00","2018","01","25","14:00","3.7","","2.4","","91","","","M","12","","6","","","","100.08","","","","","","NA"
"-121.49","49.37","HOPE AIRPORT","1113543","2018-01-25 15:00","2018","01","25","15:00","3.8","","2.2","","89","","","M","26","","8","","","","100.17","","","","","","NA"
"-121.49","49.37","HOPE AIRPORT","1113543","2018-01-25 16:00","2018","01","25","16:00","3.8","","1.8","","87","","","M","28","","11","","","","100.25","","","","","","NA"
"-121.49","49.37","HOPE AIRPORT","1113543","2018-01-25 17:00","2018","01","25","17:00","3.1","","2.0","","92","","","M","30","","8","","","","100.34","","","","","","NA"
"-121.49","49.37","HOPE AIRPORT","1113543","2018-01-25 18:00","2018","01","25","18:00","2.4","","1.5","","94","","","M","27","","10","","","","100.43","","","","","","NA"
"-121.49","49.37","HOPE AIRPORT","1113543","2018-01-25 19:00","2018","01","25","19:00","2.2","","1.5","","95","","","M","23","","8","","","","100.49","","","","","","NA"
"-121.49","49.37","HOPE AIRPORT","1113543","2018-01-25 20:00","2018","01","25","20:00","1.8","","1.3","","97","","","M","2","","2","","","","100.54","","","","","","NA"
"-121.49","49.37","HOPE AIRPORT","1113543","2018-01-25 21:00","2018","01","25","21:00","1.6","","1.2","","98","","","M","9","","6","","","","100.55","","","","","","NA"
"-121.49","49.37","HOPE AIRPORT","1113543","2018-01-25 22:00","2018","01","25","22:00","0.8","","0.5","","98","","","M","9","","4","","","","100.59","","","","","","NA"
"-121.49","49.37","HOPE AIRPORT","1113543","2018-01-25 23:00","2018","01","25","23:00","0.8","","0.6","","98","","","M","9","","6","","","","100.65","","","","","","NA"
"-121.49","49.37","HOPE AIRPORT","1113543","2018-01-26 00:00","2018","01","26","00:00","1.1","","0.9","","99","","","M","10","","3","","","","100.72","","","","","","NA"
"-121.49","49.37","HOPE AIRPORT","1113543","2018-01-26 01:00","2018","01","26","01:00","1.1","","0.9","","99","","","M","8","","2","","","","100.77","","","","","","NA"
"-121.49","49.37","HOPE AIRPORT","1113543","2018-01-26 02:00","2018","01","26","02:00","1.2","","1.0","","99","","","M","25","","10","","","","100.84","","","","","","NA"
"-121.49","49.37","HOPE AIRPORT","1113543","2018-01-26 03:00","2018","01","26","03:00","1.7","","1.3","","97","","","M","22","","12","","","","100.91","","","","","","NA"
"-121.49","49.37","HOPE AIRPORT","1113543","2018-01-26 04:00","2018","01","26","04:00","1.5","","1.1","","97","","","M","34","","2","","","","100.97","","","","","","NA"
"-121.49","49.37","HOPE AIRPORT","1113543","2018-01-26 05:00","2018","01","26","05:00","1.3","","0.9","","97","","","M","10","","5","","","","101.03","","","","","","NA"
"-121.49","49.37","HOPE AIRPORT","1113543","2018-01-26 06:00","2018","01","26","06:00","1.2","","0.9","","98","","","M","12","","3","","","","101.08","","","","","","NA"
"-121.49","49.37","HOPE AIRPORT","1113543","2018-01-26 07:00","2018","01","26","07:00","1.3","","1.1","","98","","","M","22","","3","","","","101.13","","","","","","NA"
"-121.49","49.37","HOPE AIRPORT","1113543","2018-01-26 08:00","2018","01","26","08:00","1.2","","1.0","","98","","","M","22","","2","","","","101.16","","","","","","NA"
"-121.49","49.37","HOPE AIRPORT","1113543","2018-01-26 09:00","2018","01","26","09:00","1.9","","1.7","","99","","","M","26","","7","","","","101.23","","","","","","NA"
"-121.49","49.37","HOPE AIRPORT","1113543","2018-01-26 10:00","2018","01","26","10:00","2.7","","2.4","","98","","","M","","","0","","","","101.30","","","","","","NA"
"-121.49","49.37","HOPE AIRPORT","1113543","2018-01-26 11:00","2018","01","26","11:00","3.4","","2.8","","96","","","M","26","","10","","","","101.35","","","","","","NA"
"-121.49","49.37","HOPE AIRPORT","1113543","2018-01-26 12:00","2018","01","26","12:00","3.5","","2.1","","90","","","M","25","","8","","","","101.37","","","","","","NA"
"-121.49","49.37","HOPE AIRPORT","1113543","2018-01-26 13:00","2018","01","26","13:00","3.1","","2.1","","93","","","M","25","","16","","","","101.44","","","","","","NA"
"-121.49","49.37","HOPE AIRPORT","1113543","2018-01-26 14:00","2018","01","26","14:00","3.9","","2.0","","87","","","M","25","","18","","","","101.45","","","","","","NA"
"-121.49","49.37","HOPE AIRPORT","1113543","2018-01-26 15:00","2018","01","26","15:00","4.3","","1.9","","85","","","M","25","","17","","","","101.49","","","","","","NA"
"-121.49","49.37","HOPE AIRPORT","1113543","2018-01-26 16:00","2018","01","26","16:00","3.5","","1.9","","89","","","M","","","0","","","","101.55","","","","","","NA"
"-121.49","49.37","HOPE AIRPORT","1113543","2018-01-26 17:00","2018","01","26","17:00","1.9","","1.3","","95","","","M","9","","4","","","","101.62","","","","","","NA"
"-121.49","49.37","HOPE AIRPORT","1113543","2018-01-26 18:00","2018","01","26","18:00","1.1","","0.7","","97","","","M","8","","4","","","","101.59","","","","","","NA"
"-121.49","49.37","HOPE AIRPORT","1113543","2018-01-26 19:00","2018","01","26","19:00","1.6","","1.3","","98","","","M","8","","11","","","","101.60","","","","","","NA"
"-121.49","49.37","HOPE AIRPORT","1113543","2018-01-26 20:00","2018","01","26","20:00","0.6","","0.3","","98","","","M","10","","12","","","","101.62","","","","","","NA"
"-121.49","49.37","HOPE AIRPORT","1113543","2018-01-26 21:00","2018","01","26","21:00","0.6","","0.4","","98","","","M","10","","13","","","","101.59","","","","","","NA"
"-121.49","49.37","HOPE AIRPORT","1113543","2018-01-26 22:00","2018","01","26","22:00","0.7","","0.5","","98","","","M","9","","11","","","","101.55","","","","","","NA"
"-121.49","49.37","HOPE AIRPORT","1113543","2018-01-26 23:00","2018","01","26","23:00","0.9","","0.6","","98","","","M","10","","13","","","","101.49","","","","","","NA"
"-121.49","49.37","HOPE AIRPORT","1113543","2018-01-27 00:00","2018","01","27","00:00","1.8","","0.5","","91","","","M","10","","19","","","","101.44","","","","","","NA"
"-121.49","49.37","HOPE AIRPORT","1113543","2018-01-27 01:00","2018","01","27","01:00","1.4","","0.3","","92","","","M","11","","17","","","","101.31","","","","","","NA"
"-121.49","49.37","HOPE AIRPORT","1113543","2018-01-27 02:00","2018","01","27","02:00","1.6","","0.4","","92","","","M","12","","20","","","","101.18","","","","","","NA"
"-121.49","49.37","HOPE AIRPORT","1113543","2018-01-27 03:00","2018","01","27","03:00","1.8","","0.2","","89","","","M","11","","17","","","","101.06","","","","","","NA"
"-121.49","49.37","HOPE AIRPORT","1113543","2018-01-27 04:00","2018","01","27","04:00","2.4","","0.1","","85","","","M","10","","17","","","","100.90","","","","","","NA"
"-121.49","49.37","HOPE AIRPORT","1113543","2018-01-27 05:00","2018","01","27","05:00","2.4","","0.1","","84","","","M","9","","16","","","","100.73","","","","","","NA"
"-121.49","49.37","HOPE AIRPORT","1113543","2018-01-27 06:00","2018","01","27","06:00","2.0","","0.4","","89","","","M","11","","19","","","","100.52","","","","","","NA"
"-121.49","49.37","HOPE AIRPORT","1113543","2018-01-27 07:00","2018","01","27","07:00","2.3","","0.2","","86","","","M","11","","17","","","","100.48","","","","","","NA"
"-121.49","49.37","HOPE AIRPORT","1113543","2018-01-27 08:00","2018","01","27","08:00","2.4","","0.4","","87","","","M","10","","15","","","","100.56","","","","","","NA"
"-121.49","49.37","HOPE AIRPORT","1113543","2018-01-27 09:00","2018","01","27","09:00","2.4","","0.6","","88","","","M","10","","16","","","","100.61","","","","","","NA"
"-121.49","49.37","HOPE AIRPORT","1113543","2018-01-27 10:00","2018","01","27","10:00","3.5","","0.6","","81","","","M","10","","18","","","","100.63","","","","","","NA"
"-121.49","49.37","HOPE AIRPORT","1113543","2018-01-27 11:00","2018","01","27","11:00","3.5","","0.4","","80","","","M","8","","9","","","","100.74","","","","","","NA"
"-121.49","49.37","HOPE AIRPORT","1113543","2018-01-27 12:00","2018","01","27","12:00","2.6","","0.9","","89","","","M","9","","8","","","","100.87","","","","","","NA"
"-121.49","49.37","HOPE AIRPORT","1113543","2018-01-27 13:00","2018","01","27","13:00","1.6","","0.7","","94","","","M","8","","6","","","","100.96","","","","","","NA"
"-121.49","49.37","HOPE AIRPORT","1113543","2018-01-27 14:00","2018","01","27","14:00","0.8","","0.2","","96","","","M","0","","1","","","","101.07","","","","","","NA"
"-121.49","49.37","HOPE AIRPORT","1113543","2018-01-27 15:00","2018","01","27","15:00","0.4","","0.1","","98","","","M","24","","17","","","","101.33","","","","","","NA"
"-121.49","49.37","HOPE AIRPORT","1113543","2018-01-27 16:00","2018","01","27","16:00","3.1","","2.5","","95","","","M","28","","26","","","","101.48","","","","","","NA"
"-121.49","49.37","HOPE AIRPORT","1113543","2018-01-27 17:00","2018","01","27","17:00","3.9","","3.0","","94","","","M","29","","26","","","","101.67","","","","","","NA"
"-121.49","49.37","HOPE AIRPORT","1113543","2018-01-27 18:00","2018","01","27","18:00","4.7","","3.3","","91","","","M","27","","24","","","","101.83","","","","","","NA"
"-121.49","49.37","HOPE AIRPORT","1113543","2018-01-27 19:00","2018","01","27","19:00","4.7","","3.5","","92","","","M","23","","12","","","","102.01","","","","","","NA"
"-121.49","49.37","HOPE AIRPORT","1113543","2018-01-27 20:00","2018","01","27","20:00","4.5","","3.3","","92","","","M","22","","8","","","","102.14","","","","","","NA"
"-121.49","49.37","HOPE AIRPORT","1113543","2018-01-27 21:00","2018","01","27","21:00","3.4","","2.5","","94","","","M","8","","3","","","","102.31","","","","","","NA"
"-121.49","49.37","HOPE AIRPORT","1113543","2018-01-27 22:00","2018","01","27","22:00","2.5","","1.9","","96","","","M","9","","5","","","","102.39","","","","","","NA"
"-121.49","49.37","HOPE AIRPORT","1113543","2018-01-27 23:00","2018","01","27","23:00","2.8","","2.4","","97","","","M","9","","4","","","","102.45","","","","","","NA"
"-121.49","49.37","HOPE AIRPORT","1113543","2018-01-28 00:00","2018","01","28","00:00","2.4","","2.0","","97","","","M","5","","4","","","","102.52","","","","","","NA"
"-121.49","49.37","HOPE AIRPORT","1113543","2018-01-28 01:00","2018","01","28","01:00","1.9","","1.5","","97","","","M","9","","14","","","","102.47","","","","","","NA"
"-121.49","49.37","HOPE AIRPORT","1113543","2018-01-28 02:00","2018","01","28","02:00","2.0","","1.6","","97","","","M","7","","11","","","","102.43","","","","","","NA"
"-121.49","49.37","HOPE AIRPORT","1113543","2018-01-28 03:00","2018","01","28","03:00","1.9","","1.4","","97","","","M","8","","13","","","","102.41","","","","","","NA"
"-121.49","49.37","HOPE AIRPORT","1113543","2018-01-28 04:00","2018","01","28","04:00","2.2","","1.5","","95","","","M","10","","16","","","","102.41","","","","","","NA"
"-121.49","49.37","HOPE AIRPORT","1113543","2018-01-28 05:00","2018","01","28","05:00","2.1","","1.4","","95","","","M","10","","12","","","","102.34","","","","","","NA"
"-121.49","49.37","HOPE AIRPORT","1113543","2018-01-28 06:00","2018","01","28","06:00","2.4","","1.6","","94","","","M","8","","11","","","","102.37","","","","","","NA"
"-121.49","49.37","HOPE AIRPORT","1113543","2018-01-28 07:00","2018","01","28","07:00","2.4","","1.6","","95","","","M","10","","15","","","","102.34","","","","","","NA"
"-121.49","49.37","HOPE AIRPORT","1113543","2018-01-28 08:00","2018","01","28","08:00","2.3","","1.5","","94","","","M","10","","14","","","","102.35","","","","","","NA"
"-121.49","49.37","HOPE AIRPORT","1113543","2018-01-28 09:00","2018","01","28","09:00","2.1","","1.2","","94","","","M","11","","17","","","","102.35","","","","","","NA"
"-121.49","49.37","HOPE AIRPORT","1113543","2018-01-28 10:00","2018","01","28","10:00","1.9","","1.1","","95","","","M","10","","16","","","","102.34","","","","","","NA"
"-121.49","49.37","HOPE AIRPORT","1113543","2018-01-28 11:00","2018","01","28","11:00","1.9","","1.2","","95","","","M","8","","13","","","","102.27","","","","","","NA"
"-121.49","49.37","HOPE AIRPORT","1113543","2018-01-28 12:00","2018","01","28","12:00","3.0","","2.2","","94","","","M","10","","7","","","","102.21","","","","","","NA"
"-121.49","49.37","HOPE AIRPORT","1113543","2018-01-28 13:00","2018","01","28","13:00","2.9","","2.1","","95","","","M","7","","5","","","","102.15","","","","","","NA"
"-121.49","49.37","HOPE AIRPORT","1113543","2018-01-28 14:00","2018","01","28","14:00","3.0","","2.3","","96","","","M","7","","5","","","","102.11","","","","","","NA"
"-121.49","49.37","HOPE AIRPORT","1113543","2018-01-28 15:00","2018","01","28","15:00","3.0","","2.3","","95","","","M","10","","9","","","","102.13","","","","","","NA"
"-121.49","49.37","HOPE AIRPORT","1113543","2018-01-28 16:00","2018","01","28","16:00","3.0","","2.4","","96","","","M","10","","11","","","","102.09","","","","","","NA"
"-121.49","49.37","HOPE AIRPORT","1113543","2018-01-28 17:00","2018","01","28","17:00","2.8","","2.3","","96","","","M","10","","13","","","","102.00","","","","","","NA"
"-121.49","49.37","HOPE AIRPORT","1113543","2018-01-28 18:00","2018","01","28","18:00","2.7","","2.2","","97","","","M","9","","12","","","","102.02","","","","","","NA"
"-121.49","49.37","HOPE AIRPORT","1113543","2018-01-28 19:00","2018","01","28","19:00","2.7","","2.3","","97","","","M","10","","13","","","","101.97","","","","","","NA"
"-121.49","49.37","HOPE AIRPORT","1113543","2018-01-28 20:00","2018","01","28","20:00","2.8","","2.4","","97","","","M","11","","12","","","","102.00","","","","","","NA"
"-121.49","49.37","HOPE AIRPORT","1113543","2018-01-28 21:00","2018","01","28","21:00","2.7","","2.3","","97","","","M","10","","10","","","","101.98","","","","","","NA"
"-121.49","49.37","HOPE AIRPORT","1113543","2018-01-28 22:00","2018","01","28","22:00","2.7","","2.4","","97","","","M","10","","11","","","","101.93","","","","","","NA"
"-121.49","49.37","HOPE AIRPORT","1113543","2018-01-28 23:00","2018","01","28","23:00","2.6","","2.2","","97","","","M","10","","12","","","","101.90","","","","","","NA"
"-121.49","49.37","HOPE AIRPORT","1113543","2018-01-29 00:00","2018","01","29","00:00","2.9","","2.5","","98","","","M","11","","11","","","","101.94","","","","","","NA"
"-121.49","49.37","HOPE AIRPORT","1113543","2018-01-29 01:00","2018","01","29","01:00","2.6","","2.3","","98","","","M","10","","13","","","","101.79","","","","","","NA"
"-121.49","49.37","HOPE AIRPORT","1113543","2018-01-29 02:00","2018","01","29","02:00","2.6","","2.3","","98","","","M","11","","15","","","","101.64","","","","","","NA"
"-121.49","49.37","HOPE AIRPORT","1113543","2018-01-29 03:00","2018","01","29","03:00","2.8","","2.5","","98","","","M","9","","14","","","","101.57","","","","","","NA"
"-121.49","49.37","HOPE AIRPORT","1113543","2018-01-29 04:00","2018","01","29","04:00","3.1","","2.8","","98","","","M","8","","8","","","","101.54","","","","","","NA"
"-121.49","49.37","HOPE AIRPORT","1113543","2018-01-29 05:00","2018","01","29","05:00","3.2","","2.8","","97","","","M","10","","16","","","","101.43","","","","","","NA"
"-121.49","49.37","HOPE AIRPORT","1113543","2018-01-29 06:00","2018","01","29","06:00","3.1","","2.8","","98","","","M","9","","16","","","","101.32","","","","","","NA"
"-121.49","49.37","HOPE AIRPORT","1113543","2018-01-29 07:00","2018","01","29","07:00","3.5","","3.2","","98","","","M","10","","18","","","","101.18","","","","","","NA"
"-121.49","49.37","HOPE AIRPORT","1113543","2018-01-29 08:00","2018","01","29","08:00","3.4","","3.0","","97","","","M","6","","4","","","","101.19","","","","","","NA"
"-121.49","49.37","HOPE AIRPORT","1113543","2018-01-29 09:00","2018","01","29","09:00","3.4","","3.0","","97","","","M","10","","19","","","","101.07","","","","","","NA"
"-121.49","49.37","HOPE AIRPORT","1113543","2018-01-29 10:00","2018","01","29","10:00","3.6","","3.2","","97","","","M","8","","9","","","","101.07","","","","","","NA"
"-121.49","49.37","HOPE AIRPORT","1113543","2018-01-29 11:00","2018","01","29","11:00","4.0","","3.6","","97","","","M","11","","14","","","","100.98","","","","","","NA"
"-121.49","49.37","HOPE AIRPORT","1113543","2018-01-29 12:00","2018","01","29","12:00","4.0","","3.6","","97","","","M","10","","20","","","","100.77","","","","","","NA"
"-121.49","49.37","HOPE AIRPORT","1113543","2018-01-29 13:00","2018","01","29","13:00","4.3","","3.8","","97","","","M","8","","12","","","","100.58","","","","","","NA"
"-121.49","49.37","HOPE AIRPORT","1113543","2018-01-29 14:00","2018","01","29","14:00","4.3","","4.0","","97","","","M","35","","2","","","","100.55","","","","","","NA"
"-121.49","49.37","HOPE AIRPORT","1113543","2018-01-29 15:00","2018","01","29","15:00","4.5","","4.2","","98","","","M","4","","3","","","","100.43","","","","","","NA"
"-121.49","49.37","HOPE AIRPORT","1113543","2018-01-29 16:00","2018","01","29","16:00","4.3","","4.0","","98","","","M","9","","9","","","","100.30","","","","","","NA"
"-121.49","49.37","HOPE AIRPORT","1113543","2018-01-29 17:00","2018","01","29","17:00","5.0","","4.7","","98","","","M","11","","14","","","","100.11","","","","","","NA"
"-121.49","49.37","HOPE AIRPORT","1113543","2018-01-29 18:00","2018","01","29","18:00","5.7","","5.3","","97","","","M","25","","12","","","","100.11","","","","","","NA"
"-121.49","49.37","HOPE AIRPORT","1113543","2018-01-29 19:00","2018","01","29","19:00","7.9","","4.4","","79","","","M","28","","40","","","","100.24","","","","","","NA"
"-121.49","49.37","HOPE AIRPORT","1113543","2018-01-29 20:00","2018","01","29","20:00","5.7","","3.8","","88","","","M","25","","24","","","","100.41","","","","","","NA"
"-121.49","49.37","HOPE AIRPORT","1113543","2018-01-29 21:00","2018","01","29","21:00","6.0","","4.0","","87","","","M","24","","22","","","","100.53","","","","","","NA"
"-121.49","49.37","HOPE AIRPORT","1113543","2018-01-29 22:00","2018","01","29","22:00","6.0","","3.8","","86","","","M","28","","14","","","","100.71","","","","","","NA"
"-121.49","49.37","HOPE AIRPORT","1113543","2018-01-29 23:00","2018","01","29","23:00","6.0","","3.6","","84","","","M","23","","18","","","","100.80","","","","","","NA"
"-121.49","49.37","HOPE AIRPORT","1113543","2018-01-30 00:00","2018","01","30","00:00","5.7","","3.6","","86","","","M","23","","14","","","","100.87","","","","","","NA"
"-121.49","49.37","HOPE AIRPORT","1113543","2018-01-30 01:00","2018","01","30","01:00","5.0","","3.7","","91","","","M","23","","12","","","","100.91","","","","","","NA"
"-121.49","49.37","HOPE AIRPORT","1113543","2018-01-30 02:00","2018","01","30","02:00","4.9","","3.2","","89","","","M","23","","11","","","","100.96","","","","","","NA"
"-121.49","49.37","HOPE AIRPORT","1113543","2018-01-30 03:00","2018","01","30","03:00","5.8","","3.1","","83","","","M","23","","13","","","","101.00","","","","","","NA"
"-121.49","49.37","HOPE AIRPORT","1113543","2018-01-30 04:00","2018","01","30","04:00","5.3","","3.5","","88","","","M","22","","14","","","","100.98","","","","","","NA"
"-121.49","49.37","HOPE AIRPORT","1113543","2018-01-30 05:00","2018","01","30","05:00","5.4","","3.0","","84","","","M","27","","24","","","","100.94","","","","","","NA"
"-121.49","49.37","HOPE AIRPORT","1113543","2018-01-30 06:00","2018","01","30","06:00","5.4","","2.9","","84","","","M","28","","18","","","","100.91","","","","","","NA"
"-121.49","49.37","HOPE AIRPORT","1113543","2018-01-30 07:00","2018","01","30","07:00","5.0","","2.7","","86","","","M","27","","20","","","","100.96","","","","","","NA"
"-121.49","49.37","HOPE AIRPORT","1113543","2018-01-30 08:00","2018","01","30","08:00","4.3","","2.9","","90","","","M","26","","20","","","","101.05","","","","","","NA"
"-121.49","49.37","HOPE AIRPORT","1113543","2018-01-30 09:00","2018","01","30","09:00","4.6","","2.8","","88","","","M","23","","18","","","","101.11","","","","","","NA"
"-121.49","49.37","HOPE AIRPORT","1113543","2018-01-30 10:00","2018","01","30","10:00","5.9","","2.2","","77","","","M","28","","22","","","","101.18","","","","","","NA"
"-121.49","49.37","HOPE AIRPORT","1113543","2018-01-30 11:00","2018","01","30","11:00","6.0","","2.3","","77","","","M","28","","17","","","","101.24","","","","","","NA"
"-121.49","49.37","HOPE AIRPORT","1113543","2018-01-30 12:00","2018","01","30","12:00","6.3","","1.8","","73","","","M","28","","22","","","","101.24","","","","","","NA"
"-121.49","49.37","HOPE AIRPORT","1113543","2018-01-30 13:00","2018","01","30","13:00","6.9","","1.1","","66","","","M","28","","14","","","","101.21","","","","","","NA"
"-121.49","49.37","HOPE AIRPORT","1113543","2018-01-30 14:00","2018","01","30","14:00","7.6","","-1.1","","54","","","M","27","","32","","","","101.27","","","","","","NA"
"-121.49","49.37","HOPE AIRPORT","1113543","2018-01-30 15:00","2018","01","30","15:00","7.0","","0.4","","63","","","M","27","","11","","","","101.31","","","","","","NA"
"-121.49","49.37","HOPE AIRPORT","1113543","2018-01-30 16:00","2018","01","30","16:00","6.0","","1.1","","71","","","M","27","","16","","","","101.40","","","","","","NA"
"-121.49","49.37","HOPE AIRPORT","1113543","2018-01-30 17:00","2018","01","30","17:00","5.0","","1.1","","76","","","M","13","","19","","","","101.44","","","","","","NA"
"-121.49","49.37","HOPE AIRPORT","1113543","2018-01-30 18:00","2018","01","30","18:00","3.2","","2.2","","93","","","M","0","","1","","","","101.46","","","","","","NA"
"-121.49","49.37","HOPE AIRPORT","1113543","2018-01-30 19:00","2018","01","30","19:00","4.1","","1.8","","85","","","M","24","","11","","","","101.49","","","","","","NA"
"-121.49","49.37","HOPE AIRPORT","1113543","2018-01-30 20:00","2018","01","30","20:00","3.8","","2.3","","89","","","M","24","","10","","","","101.51","","","","","","NA"
"-121.49","49.37","HOPE AIRPORT","1113543","2018-01-30 21:00","2018","01","30","21:00","3.5","","2.3","","92","","","M","24","","8","","","","101.50","","","","","","NA"
"-121.49","49.37","HOPE AIRPORT","1113543","2018-01-30 22:00","2018","01","30","22:00","3.9","","2.5","","90","","","M","23","","7","","","","101.51","","","","","","NA"
"-121.49","49.37","HOPE AIRPORT","1113543","2018-01-30 23:00","2018","01","30","23:00","4.3","","2.2","","86","","","M","21","","13","","","","101.52","","","","","","NA"
"-121.49","49.37","HOPE AIRPORT","1113543","2018-01-31 00:00","2018","01","31","00:00","3.9","","2.3","","90","","","M","25","","8","","","","101.56","","","","","","NA"
"-121.49","49.37","HOPE AIRPORT","1113543","2018-01-31 01:00","2018","01","31","01:00","4.0","","1.9","","86","","","M","21","","12","","","","101.58","","","","","","NA"
"-121.49","49.37","HOPE AIRPORT","1113543","2018-01-31 02:00","2018","01","31","02:00","3.7","","1.9","","88","","","M","21","","11","","","","101.63","","","","","","NA"
"-121.49","49.37","HOPE AIRPORT","1113543","2018-01-31 03:00","2018","01","31","03:00","3.8","","2.0","","88","","","M","23","","8","","","","101.69","","","","","","NA"
"-121.49","49.37","HOPE AIRPORT","1113543","2018-01-31 04:00","2018","01","31","04:00","3.3","","2.2","","93","","","M","25","","7","","","","101.71","","","","","","NA"
"-121.49","49.37","HOPE AIRPORT","1113543","2018-01-31 05:00","2018","01","31","05:00","3.2","","2.1","","93","","","M","7","","5","","","","101.73","","","","","","NA"
"-121.49","49.37","HOPE AIRPORT","1113543","2018-01-31 06:00","2018","01","31","06:00","2.8","","2.1","","95","","","M","12","","2","","","","101.74","","","","","","NA"
"-121.49","49.37","HOPE AIRPORT","1113543","2018-01-31 07:00","2018","01","31","07:00","2.4","","1.5","","94","","","M","21","","8","","","","101.76","","","","","","NA"
"-121.49","49.37","HOPE AIRPORT","1113543","2018-01-31 08:00","2018","01","31","08:00","2.0","","1.4","","96","","","M","30","","3","","","","101.80","","","","","","NA"
"-121.49","49.37","HOPE AIRPORT","1113543","2018-01-31 09:00","2018","01","31","09:00","1.5","","1.0","","96","","","M","6","","3","","","","101.85","","","","","","NA"
"-121.49","49.37","HOPE AIRPORT","1113543","2018-01-31 10:00","2018","01","31","10:00"
"-121.49","49.37","HOPE AIRPORT","1113543","2018-01-31 11:00","2018","01","31","11:00"
"-121.49","49.37","HOPE AIRPORT","1113543","2018-01-31 12:00","2018","01","31","12:00","0.8","","0.3","","97","","","M","","","0","","","","101.90","","","","","","NA"
"-121.49","49.37","HOPE AIRPORT","1113543","2018-01-31 13:00","2018","01","31","13:00","1.4","","0.6","","94","","","M","","","0","","","","101.85","","","","","","NA"
"-121.49","49.37","HOPE AIRPORT","1113543","2018-01-31 14:00","2018","01","31","14:00","1.6","","1.0","","95","","","M","","","0","","","","101.81","","","","","","NA"
"-121.49","49.37","HOPE AIRPORT","1113543","2018-01-31 15:00","2018","01","31","15:00","1.8","","1.2","","96","","","M","8","","4","","","","101.81","","","","","","NA"
"-121.49","49.37","HOPE AIRPORT","1113543","2018-01-31 16:00","2018","01","31","16:00","2.1","","1.6","","97","","0.5","","9","","5","","","","101.80","","","","","","NA"
"-121.49","49.37","HOPE AIRPORT","1113543","2018-01-31 17:00","2018","01","31","17:00","1.9","","1.5","","97","","0.0","","8","","5","","","","101.78","","","","","","NA"
"-121.49","49.37","HOPE AIRPORT","1113543","2018-01-31 18:00","2018","01","31","18:00","2.0","","1.6","","97","","0.3","","9","","10","","","","101.76","","","","","","NA"
"-121.49","49.37","HOPE AIRPORT","1113543","2018-01-31 19:00","2018","01","31","19:00","1.9","","1.6","","98","","0.2","","6","","3","","","","101.73","","","","","","NA"
"-121.49","49.37","HOPE AIRPORT","1113543","2018-01-31 20:00","2018","01","31","20:00","2.1","","1.8","","98","","0.2","","7","","6","","","","101.69","","","","","","NA"
"-121.49","49.37","HOPE AIRPORT","1113543","2018-01-31 21:00","2018","01","31","21:00","2.0","","1.7","","98","","0.3","","10","","8","","","","101.69","","","","","","NA"
"-121.49","49.37","HOPE AIRPORT","1113543","2018-01-31 22:00","2018","01","31","22:00","2.0","","1.7","","98","","0.2","","4","","1","","","","101.69","","","","","","NA"
"-121.49","49.37","HOPE AIRPORT","1113543","2018-01-31 23:00","2018","01","31","23:00","1.8","","1.5","","98","","0.9","","","","0","","","","101.74","","","","","","NA"
