"Longitude (x)","Latitude (y)","Station Name","Climate ID","Date/Time (LST)","Year","Month","Day","Time (LST)","Temp (°C)","Temp Flag","Dew Point Temp (°C)","Dew Point Temp Flag","Rel Hum (%)","Rel Hum Flag","Precip. Amount (mm)","Precip. Amount Flag","Wind Dir (10s deg)","Wind Dir Flag","Wind Spd (km/h)","Wind Spd Flag","Visibility (km)","Visibility Flag","Stn Press (kPa)","Stn Press Flag","Hmdx","Hmdx Flag","Wind Chill","Wind Chill Flag","Weather"
"-125.27","49.95","CAMPBELL RIVER A","1021267","2018-04-01 00:00","2018","04","01","00:00"
"-125.27","49.95","CAMPBELL RIVER A","1021267","2018-04-01 01:00","2018","04","01","01:00"
"-125.27","49.95","CAMPBELL RIVER A","1021267","2018-04-01 02:00","2018","04","01","02:00"
"-125.27","49.95","CAMPBELL RIVER A","1021267","2018-04-01 03:00","2018","04","01","03:00"
"-125.27","49.95","CAMPBELL RIVER A","1021267","2018-04-01 04:00","2018","04","01","04:00"
"-125.27","49.95","CAMPBELL RIVER A","1021267","2018-04-01 05:00","2018","04","01","05:00","2.6","","-0.4","","80","","","","31","","17","","24.1","","100.08","","","","","","NA"
"-125.27","49.95","CAMPBELL RIVER A","1021267","2018-04-01 06:00","2018","04","01","06:00","2.4","","-0.3","","82","","","","28","","9","","32.2","","100.03","","","","","","NA"
"-125.27","49.95","CAMPBELL RIVER A","1021267","2018-04-01 07:00","2018","04","01","07:00","2.2","","-0.9","","80","","","","30","","18","","48.3","","100.00","","","","","","Mainly Clear"
"-125.27","49.95","CAMPBELL RIVER A","1021267","2018-04-01 08:00","2018","04","01","08:00","4.2","","-1.3","","67","","","","34","","8","","48.3","","99.97","","","","","","NA"
"-125.27","49.95","CAMPBELL RIVER A","1021267","2018-04-01 09:00","2018","04","01","09:00","6.3","","-1.9","","55","","","","33","","19","","48.3","","99.95","","","","","","NA"
"-125.27","49.95","CAMPBELL RIVER A","1021267","2018-04-01 10:00","2018","04","01","10:00","7.5","","-4.0","","44","","","","32","","29","","48.3","","99.90","","","","","","Mainly Clear"
"-125.27","49.95","CAMPBELL RIVER A","1021267","2018-04-01 11:00","2018","04","01","11:00","7.9","","-6.0","","37","","","","33","","26","","48.3","","99.85","","","","","","NA"
"-125.27","49.95","CAMPBELL RIVER A","1021267","2018-04-01 12:00","2018","04","01","12:00","8.9","","-4.7","","38","","","","30","","23","","48.3","","99.78","","","","","","NA"
"-125.27","49.95","CAMPBELL RIVER A","1021267","2018-04-01 13:00","2018","04","01","13:00","8.4","","-4.5","","40","","","","34","","22","","48.3","","99.73","","","","","","Mostly Cloudy"
"-125.27","49.95","CAMPBELL RIVER A","1021267","2018-04-01 14:00","2018","04","01","14:00","7.7","","-3.0","","47","","","","32","","21","","48.3","","99.72","","","","","","NA"
"-125.27","49.95","CAMPBELL RIVER A","1021267","2018-04-01 15:00","2018","04","01","15:00","9.2","","-5.5","","35","","","","34","","28","","48.3","","99.65","","","","","","NA"
"-125.27","49.95","CAMPBELL RIVER A","1021267","2018-04-01 16:00","2018","04","01","16:00","8.4","","-6.1","","35","","","","29","","11","","48.3","","99.60","","","","","","Mostly Cloudy"
"-125.27","49.95","CAMPBELL RIVER A","1021267","2018-04-01 17:00","2018","04","01","17:00","8.2","","-4.0","","42","","","","33","","22","","48.3","","99.58","","","","","","NA"
"-125.27","49.95","CAMPBELL RIVER A","1021267","2018-04-01 18:00","2018","04","01","18:00","6.0","","-3.9","","49","","","","31","","20","","48.3","","99.59","","","","","","NA"
"-125.27","49.95","CAMPBELL RIVER A","1021267","2018-04-01 19:00","2018","04","01","19:00","4.5","","-3.0","","58","","","","30","","17","","48.3","","99.61","","","","","","Mostly Cloudy"
"-125.27","49.95","CAMPBELL RIVER A","1021267","2018-04-01 20:00","2018","04","01","20:00","3.3","","-3.0","","63","","","","30","","14","","48.3","","99.64","","","","","","NA"
"-125.27","49.95","CAMPBELL RIVER A","1021267","2018-04-01 21:00","2018","04","01","21:00"
"-125.27","49.95","CAMPBELL RIVER A","1021267","2018-04-01 22:00","2018","04","01","22:00"
"-125.27","49.95","CAMPBELL RIVER A","1021267","2018-04-01 23:00","2018","04","01","23:00"
"-125.27","49.95","CAMPBELL RIVER A","1021267","2018-04-02 00:00","2018","04","02","00:00"
"-125.27","49.95","CAMPBELL RIVER A","1021267","2018-04-02 01:00","2018","04","02","01:00"
"-125.27","49.95","CAMPBELL RIVER A","1021267","2018-04-02 02:00","2018","04","02","02:00"
"-125.27","49.95","CAMPBELL RIVER A","1021267","2018-04-02 03:00","2018","04","02","03:00"
"-125.27","49.95","CAMPBELL RIVER A","1021267","2018-04-02 04:00","2018","04","02","04:00"
"-125.27","49.95","CAMPBELL RIVER A","1021267","2018-04-02 05:00","2018","04","02","05:00","1.6","","-3.8","","68","","","","29","","18","","24.1","","100.06","","","","","","NA"
"-125.27","49.95","CAMPBELL RIVER A","1021267","2018-04-02 06:00","2018","04","02","06:00","0.8","","-4.1","","70","","","","29","","13","","48.3","","100.12","","","","","","NA"
"-125.27","49.95","CAMPBELL RIVER A","1021267","2018-04-02 07:00","2018","04","02","07:00","2.7","","-3.7","","63","","","","30","","12","","48.3","","100.18","","","","","","Mainly Clear"
"-125.27","49.95","CAMPBELL RIVER A","1021267","2018-04-02 08:00","2018","04","02","08:00","4.2","","-3.0","","59","","","","31","","20","","48.3","","100.23","","","","","","NA"
"-125.27","49.95","CAMPBELL RIVER A","1021267","2018-04-02 09:00","2018","04","02","09:00","5.7","","-3.3","","52","","","","31","","23","","48.3","","100.27","","","","","","NA"
"-125.27","49.95","CAMPBELL RIVER A","1021267","2018-04-02 10:00","2018","04","02","10:00","7.0","","-4.4","","44","","","","30","","17","","48.3","","100.30","","","","","","Mainly Clear"
"-125.27","49.95","CAMPBELL RIVER A","1021267","2018-04-02 11:00","2018","04","02","11:00","7.3","","-4.1","","44","","","","36","","2","","48.3","","100.31","","","","","","NA"
"-125.27","49.95","CAMPBELL RIVER A","1021267","2018-04-02 12:00","2018","04","02","12:00","8.1","","-3.1","","45","","","","11","","4","","48.3","","100.29","","","","","","NA"
"-125.27","49.95","CAMPBELL RIVER A","1021267","2018-04-02 13:00","2018","04","02","13:00","8.7","","-3.8","","41","","","","6","","8","","48.3","","100.28","","","","","","Mostly Cloudy"
"-125.27","49.95","CAMPBELL RIVER A","1021267","2018-04-02 14:00","2018","04","02","14:00","8.6","","-4.5","","39","","","","9","","11","","48.3","","100.30","","","","","","NA"
"-125.27","49.95","CAMPBELL RIVER A","1021267","2018-04-02 15:00","2018","04","02","15:00","9.1","","-4.8","","37","","","","10","","14","","48.3","","100.30","","","","","","NA"
"-125.27","49.95","CAMPBELL RIVER A","1021267","2018-04-02 16:00","2018","04","02","16:00","8.5","","-4.4","","40","","","","13","","7","","48.3","","100.32","","","","","","Cloudy"
"-125.27","49.95","CAMPBELL RIVER A","1021267","2018-04-02 17:00","2018","04","02","17:00","7.5","","-3.6","","45","","","","32","","14","","32.2","","100.35","","","","","","NA"
"-125.27","49.95","CAMPBELL RIVER A","1021267","2018-04-02 18:00","2018","04","02","18:00","6.2","","-0.8","","61","","","","21","","8","","48.3","","100.38","","","","","","NA"
"-125.27","49.95","CAMPBELL RIVER A","1021267","2018-04-02 19:00","2018","04","02","19:00","4.4","","-0.3","","71","","","","27","","4","","48.3","","100.35","","","","","","Mostly Cloudy"
"-125.27","49.95","CAMPBELL RIVER A","1021267","2018-04-02 20:00","2018","04","02","20:00","3.0","","0.2","","81","","","","31","","5","","24.1","","100.39","","","","","","NA"
"-125.27","49.95","CAMPBELL RIVER A","1021267","2018-04-02 21:00","2018","04","02","21:00"
"-125.27","49.95","CAMPBELL RIVER A","1021267","2018-04-02 22:00","2018","04","02","22:00"
"-125.27","49.95","CAMPBELL RIVER A","1021267","2018-04-02 23:00","2018","04","02","23:00"
"-125.27","49.95","CAMPBELL RIVER A","1021267","2018-04-03 00:00","2018","04","03","00:00"
"-125.27","49.95","CAMPBELL RIVER A","1021267","2018-04-03 01:00","2018","04","03","01:00"
"-125.27","49.95","CAMPBELL RIVER A","1021267","2018-04-03 02:00","2018","04","03","02:00"
"-125.27","49.95","CAMPBELL RIVER A","1021267","2018-04-03 03:00","2018","04","03","03:00"
"-125.27","49.95","CAMPBELL RIVER A","1021267","2018-04-03 04:00","2018","04","03","04:00"
"-125.27","49.95","CAMPBELL RIVER A","1021267","2018-04-03 05:00","2018","04","03","05:00","0.6","","-0.2","","94","","","","28","","4","","24.1","","100.37","","","","","","NA"
"-125.27","49.95","CAMPBELL RIVER A","1021267","2018-04-03 06:00","2018","04","03","06:00","1.1","","0.3","","95","","","","32","","4","","32.2","","100.36","","","","","","NA"
"-125.27","49.95","CAMPBELL RIVER A","1021267","2018-04-03 07:00","2018","04","03","07:00","1.8","","1.2","","95","","","","25","","6","","32.2","","100.33","","","","","","Cloudy"
"-125.27","49.95","CAMPBELL RIVER A","1021267","2018-04-03 08:00","2018","04","03","08:00","3.4","","2.2","","91","","","","36","","3","","32.2","","100.33","","","","","","NA"
"-125.27","49.95","CAMPBELL RIVER A","1021267","2018-04-03 09:00","2018","04","03","09:00","4.8","","1.7","","80","","","","13","","5","","32.2","","100.30","","","","","","NA"
"-125.27","49.95","CAMPBELL RIVER A","1021267","2018-04-03 10:00","2018","04","03","10:00","6.2","","0.1","","65","","","","18","","7","","32.2","","100.29","","","","","","Cloudy"
"-125.27","49.95","CAMPBELL RIVER A","1021267","2018-04-03 11:00","2018","04","03","11:00","7.6","","-0.6","","56","","","","13","","12","","32.2","","100.30","","","","","","NA"
"-125.27","49.95","CAMPBELL RIVER A","1021267","2018-04-03 12:00","2018","04","03","12:00","7.0","","0.9","","65","","","","7","","8","","24.1","","100.31","","","","","","Rain Showers"
"-125.27","49.95","CAMPBELL RIVER A","1021267","2018-04-03 13:00","2018","04","03","13:00","7.6","","0.5","","60","","","","12","","25","","32.2","","100.26","","","","","","Cloudy"
"-125.27","49.95","CAMPBELL RIVER A","1021267","2018-04-03 14:00","2018","04","03","14:00","7.7","","1.5","","65","","","","11","","25","","32.2","","100.25","","","","","","NA"
"-125.27","49.95","CAMPBELL RIVER A","1021267","2018-04-03 15:00","2018","04","03","15:00","7.3","","3.1","","75","","","","9","","16","","48.3","","100.25","","","","","","Rain Showers"
"-125.27","49.95","CAMPBELL RIVER A","1021267","2018-04-03 16:00","2018","04","03","16:00","7.4","","2.7","","72","","","","10","","16","","48.3","","100.24","","","","","","Rain Showers"
"-125.27","49.95","CAMPBELL RIVER A","1021267","2018-04-03 17:00","2018","04","03","17:00","7.1","","3.1","","76","","","","11","","12","","48.3","","100.23","","","","","","NA"
"-125.27","49.95","CAMPBELL RIVER A","1021267","2018-04-03 18:00","2018","04","03","18:00","6.7","","2.9","","76","","","","9","","8","","48.3","","100.22","","","","","","NA"
"-125.27","49.95","CAMPBELL RIVER A","1021267","2018-04-03 19:00","2018","04","03","19:00","4.5","","2.8","","89","","","","28","","4","","48.3","","100.21","","","","","","Mostly Cloudy"
"-125.27","49.95","CAMPBELL RIVER A","1021267","2018-04-03 20:00","2018","04","03","20:00","0.8","","-0.2","","93","","","","24","","7","","24.1","","100.23","","","","","","NA"
"-125.27","49.95","CAMPBELL RIVER A","1021267","2018-04-03 21:00","2018","04","03","21:00"
"-125.27","49.95","CAMPBELL RIVER A","1021267","2018-04-03 22:00","2018","04","03","22:00"
"-125.27","49.95","CAMPBELL RIVER A","1021267","2018-04-03 23:00","2018","04","03","23:00"
"-125.27","49.95","CAMPBELL RIVER A","1021267","2018-04-04 00:00","2018","04","04","00:00"
"-125.27","49.95","CAMPBELL RIVER A","1021267","2018-04-04 01:00","2018","04","04","01:00"
"-125.27","49.95","CAMPBELL RIVER A","1021267","2018-04-04 02:00","2018","04","04","02:00"
"-125.27","49.95","CAMPBELL RIVER A","1021267","2018-04-04 03:00","2018","04","04","03:00"
"-125.27","49.95","CAMPBELL RIVER A","1021267","2018-04-04 04:00","2018","04","04","04:00"
"-125.27","49.95","CAMPBELL RIVER A","1021267","2018-04-04 05:00","2018","04","04","05:00","1.4","","1.0","","97","","","","27","","4","","48.3","","100.40","","","","","","NA"
"-125.27","49.95","CAMPBELL RIVER A","1021267","2018-04-04 06:00","2018","04","04","06:00","1.5","","1.1","","97","","","","30","","4","","48.3","","100.41","","","","","","NA"
"-125.27","49.95","CAMPBELL RIVER A","1021267","2018-04-04 07:00","2018","04","04","07:00","2.8","","2.3","","97","","","","36","","2","","24.1","","100.41","","","","","","Cloudy"
"-125.27","49.95","CAMPBELL RIVER A","1021267","2018-04-04 08:00","2018","04","04","08:00","4.2","","2.4","","88","","","","11","","9","","24.1","","100.45","","","","","","Rain"
"-125.27","49.95","CAMPBELL RIVER A","1021267","2018-04-04 09:00","2018","04","04","09:00","4.9","","3.9","","93","","","","10","","14","","24.1","","100.44","","","","","","Rain"
"-125.27","49.95","CAMPBELL RIVER A","1021267","2018-04-04 10:00","2018","04","04","10:00","6.3","","3.6","","83","","","","11","","10","","48.3","","100.47","","","","","","Cloudy"
"-125.27","49.95","CAMPBELL RIVER A","1021267","2018-04-04 11:00","2018","04","04","11:00","6.4","","2.4","","76","","","","14","","18","","19.3","","100.50","","","","","","NA"
"-125.27","49.95","CAMPBELL RIVER A","1021267","2018-04-04 12:00","2018","04","04","12:00","6.6","","2.8","","77","","","","12","","10","","32.2","","100.52","","","","","","NA"
"-125.27","49.95","CAMPBELL RIVER A","1021267","2018-04-04 13:00","2018","04","04","13:00","6.6","","3.3","","79","","","","16","","18","","24.1","","100.50","","","","","","Cloudy"
"-125.27","49.95","CAMPBELL RIVER A","1021267","2018-04-04 14:00","2018","04","04","14:00","6.0","","4.3","","89","","","","14","","18","","16.1","","100.48","","","","","","Rain"
"-125.27","49.95","CAMPBELL RIVER A","1021267","2018-04-04 15:00","2018","04","04","15:00","5.5","","3.8","","88","","","","13","","16","","16.1","","100.47","","","","","","Rain"
"-125.27","49.95","CAMPBELL RIVER A","1021267","2018-04-04 16:00","2018","04","04","16:00","5.2","","4.0","","92","","","","15","","14","","16.1","","100.45","","","","","","Rain"
"-125.27","49.95","CAMPBELL RIVER A","1021267","2018-04-04 17:00","2018","04","04","17:00","4.8","","3.8","","93","","","","14","","16","","16.1","","100.43","","","","","","Rain"
"-125.27","49.95","CAMPBELL RIVER A","1021267","2018-04-04 18:00","2018","04","04","18:00","4.2","","3.2","","93","","","","14","","17","","12.9","","100.42","","","","","","Rain"
"-125.27","49.95","CAMPBELL RIVER A","1021267","2018-04-04 19:00","2018","04","04","19:00","3.9","","3.1","","94","","","","14","","17","","12.9","","100.40","","","","","","Rain"
"-125.27","49.95","CAMPBELL RIVER A","1021267","2018-04-04 20:00","2018","04","04","20:00","4.0","","3.0","","93","","","","14","","17","","12.9","","100.39","","","","","","Rain"
"-125.27","49.95","CAMPBELL RIVER A","1021267","2018-04-04 21:00","2018","04","04","21:00"
"-125.27","49.95","CAMPBELL RIVER A","1021267","2018-04-04 22:00","2018","04","04","22:00"
"-125.27","49.95","CAMPBELL RIVER A","1021267","2018-04-04 23:00","2018","04","04","23:00"
"-125.27","49.95","CAMPBELL RIVER A","1021267","2018-04-05 00:00","2018","04","05","00:00"
"-125.27","49.95","CAMPBELL RIVER A","1021267","2018-04-05 01:00","2018","04","05","01:00"
"-125.27","49.95","CAMPBELL RIVER A","1021267","2018-04-05 02:00","2018","04","05","02:00"
"-125.27","49.95","CAMPBELL RIVER A","1021267","2018-04-05 03:00","2018","04","05","03:00"
"-125.27","49.95","CAMPBELL RIVER A","1021267","2018-04-05 04:00","2018","04","05","04:00"
"-125.27","49.95","CAMPBELL RIVER A","1021267","2018-04-05 05:00","2018","04","05","05:00","4.6","","4.3","","98","","","","12","","7","","4.8","","100.01","","","","","","Rain,Fog"
"-125.27","49.95","CAMPBELL RIVER A","1021267","2018-04-05 06:00","2018","04","05","06:00","4.9","","4.6","","98","","","","11","","10","","3.2","","99.95","","","","","","Rain,Fog"
"-125.27","49.95","CAMPBELL RIVER A","1021267","2018-04-05 07:00","2018","04","05","07:00","5.3","","5.1","","98","","","","11","","14","","2.0","","99.92","","","","","","Rain,Fog"
"-125.27","49.95","CAMPBELL RIVER A","1021267","2018-04-05 08:00","2018","04","05","08:00","5.7","","5.4","","98","","","","11","","15","","2.0","","99.91","","","","","","Rain,Fog"
"-125.27","49.95","CAMPBELL RIVER A","1021267","2018-04-05 09:00","2018","04","05","09:00","6.1","","5.9","","98","","","","11","","12","","2.0","","99.90","","","","","","Rain,Fog"
"-125.27","49.95","CAMPBELL RIVER A","1021267","2018-04-05 10:00","2018","04","05","10:00","6.6","","6.2","","97","","","","12","","18","","4.0","","99.88","","","","","","Rain,Fog"
"-125.27","49.95","CAMPBELL RIVER A","1021267","2018-04-05 11:00","2018","04","05","11:00","6.9","","6.5","","97","","","","12","","19","","4.0","","99.86","","","","","","Rain,Fog"
"-125.27","49.95","CAMPBELL RIVER A","1021267","2018-04-05 12:00","2018","04","05","12:00","7.2","","6.7","","97","","","","12","","17","","4.0","","99.83","","","","","","Rain,Fog"
"-125.27","49.95","CAMPBELL RIVER A","1021267","2018-04-05 13:00","2018","04","05","13:00","7.4","","6.8","","96","","","","12","","27","","4.0","","99.79","","","","","","Rain,Fog"
"-125.27","49.95","CAMPBELL RIVER A","1021267","2018-04-05 14:00","2018","04","05","14:00","7.5","","7.0","","97","","","","11","","18","","2.8","","99.74","","","","","","Rain,Fog"
"-125.27","49.95","CAMPBELL RIVER A","1021267","2018-04-05 15:00","2018","04","05","15:00","8.0","","7.5","","97","","","","12","","18","","3.2","","99.68","","","","","","Rain,Fog"
"-125.27","49.95","CAMPBELL RIVER A","1021267","2018-04-05 16:00","2018","04","05","16:00","8.0","","7.5","","97","","","","12","","21","","3.2","","99.62","","","","","","Rain,Fog"
"-125.27","49.95","CAMPBELL RIVER A","1021267","2018-04-05 17:00","2018","04","05","17:00","7.8","","7.3","","97","","","","12","","21","","3.2","","99.56","","","","","","Rain,Fog"
"-125.27","49.95","CAMPBELL RIVER A","1021267","2018-04-05 18:00","2018","04","05","18:00","7.8","","7.3","","97","","","","12","","21","","3.2","","99.54","","","","","","Rain,Fog"
"-125.27","49.95","CAMPBELL RIVER A","1021267","2018-04-05 19:00","2018","04","05","19:00","7.8","","7.5","","98","","","","12","","16","","2.4","","99.52","","","","","","Rain,Fog"
"-125.27","49.95","CAMPBELL RIVER A","1021267","2018-04-05 20:00","2018","04","05","20:00","7.7","","7.5","","98","","","","11","","14","","2.4","","99.53","","","","","","Rain,Fog"
"-125.27","49.95","CAMPBELL RIVER A","1021267","2018-04-05 21:00","2018","04","05","21:00"
"-125.27","49.95","CAMPBELL RIVER A","1021267","2018-04-05 22:00","2018","04","05","22:00"
"-125.27","49.95","CAMPBELL RIVER A","1021267","2018-04-05 23:00","2018","04","05","23:00"
"-125.27","49.95","CAMPBELL RIVER A","1021267","2018-04-06 00:00","2018","04","06","00:00"
"-125.27","49.95","CAMPBELL RIVER A","1021267","2018-04-06 01:00","2018","04","06","01:00"
"-125.27","49.95","CAMPBELL RIVER A","1021267","2018-04-06 02:00","2018","04","06","02:00"
"-125.27","49.95","CAMPBELL RIVER A","1021267","2018-04-06 03:00","2018","04","06","03:00"
"-125.27","49.95","CAMPBELL RIVER A","1021267","2018-04-06 04:00","2018","04","06","04:00"
"-125.27","49.95","CAMPBELL RIVER A","1021267","2018-04-06 05:00","2018","04","06","05:00","8.2","","7.7","","97","","","","13","","19","","6.4","","99.51","","","","","","Fog"
"-125.27","49.95","CAMPBELL RIVER A","1021267","2018-04-06 06:00","2018","04","06","06:00","8.1","","7.6","","97","","","","14","","9","","8.1","","99.51","","","","","","Fog"
"-125.27","49.95","CAMPBELL RIVER A","1021267","2018-04-06 07:00","2018","04","06","07:00","8.2","","7.6","","96","","","","11","","10","","8.1","","99.54","","","","","","Fog"
"-125.27","49.95","CAMPBELL RIVER A","1021267","2018-04-06 08:00","2018","04","06","08:00","8.4","","8.0","","97","","","","14","","9","","8.1","","99.56","","","","","","Fog"
"-125.27","49.95","CAMPBELL RIVER A","1021267","2018-04-06 09:00","2018","04","06","09:00","9.2","","8.4","","95","","","","12","","12","","16.1","","99.59","","","","","","NA"
"-125.27","49.95","CAMPBELL RIVER A","1021267","2018-04-06 10:00","2018","04","06","10:00","9.7","","8.6","","93","","","","10","","14","","19.3","","99.56","","","","","","Cloudy"
"-125.27","49.95","CAMPBELL RIVER A","1021267","2018-04-06 11:00","2018","04","06","11:00","11.1","","8.9","","86","","","","11","","20","","24.1","","99.52","","","","","","NA"
"-125.27","49.95","CAMPBELL RIVER A","1021267","2018-04-06 12:00","2018","04","06","12:00","11.9","","8.7","","81","","","","10","","20","","24.1","","99.54","","","","","","NA"
"-125.27","49.95","CAMPBELL RIVER A","1021267","2018-04-06 13:00","2018","04","06","13:00","11.9","","9.4","","84","","","","11","","21","","19.3","","99.49","","","","","","Cloudy"
"-125.27","49.95","CAMPBELL RIVER A","1021267","2018-04-06 14:00","2018","04","06","14:00","12.1","","9.6","","84","","","","11","","20","","24.1","","99.42","","","","","","NA"
"-125.27","49.95","CAMPBELL RIVER A","1021267","2018-04-06 15:00","2018","04","06","15:00","11.7","","9.3","","85","","","","10","","14","","24.1","","99.40","","","","","","NA"
"-125.27","49.95","CAMPBELL RIVER A","1021267","2018-04-06 16:00","2018","04","06","16:00","10.5","","8.6","","88","","","","6","","13","","24.1","","99.38","","","","","","Mostly Cloudy"
"-125.27","49.95","CAMPBELL RIVER A","1021267","2018-04-06 17:00","2018","04","06","17:00","11.1","","8.7","","85","","","","8","","13","","19.3","","99.28","","","","","","NA"
"-125.27","49.95","CAMPBELL RIVER A","1021267","2018-04-06 18:00","2018","04","06","18:00","10.1","","8.6","","90","","","","9","","12","","19.3","","99.22","","","","","","NA"
"-125.27","49.95","CAMPBELL RIVER A","1021267","2018-04-06 19:00","2018","04","06","19:00","9.6","","8.6","","93","","","","9","","6","","24.1","","99.16","","","","","","Cloudy"
"-125.27","49.95","CAMPBELL RIVER A","1021267","2018-04-06 20:00","2018","04","06","20:00","9.2","","8.4","","95","","","","7","","4","","24.1","","99.12","","","","","","NA"
"-125.27","49.95","CAMPBELL RIVER A","1021267","2018-04-06 21:00","2018","04","06","21:00"
"-125.27","49.95","CAMPBELL RIVER A","1021267","2018-04-06 22:00","2018","04","06","22:00"
"-125.27","49.95","CAMPBELL RIVER A","1021267","2018-04-06 23:00","2018","04","06","23:00"
"-125.27","49.95","CAMPBELL RIVER A","1021267","2018-04-07 00:00","2018","04","07","00:00"
"-125.27","49.95","CAMPBELL RIVER A","1021267","2018-04-07 01:00","2018","04","07","01:00"
"-125.27","49.95","CAMPBELL RIVER A","1021267","2018-04-07 02:00","2018","04","07","02:00"
"-125.27","49.95","CAMPBELL RIVER A","1021267","2018-04-07 03:00","2018","04","07","03:00"
"-125.27","49.95","CAMPBELL RIVER A","1021267","2018-04-07 04:00","2018","04","07","04:00"
"-125.27","49.95","CAMPBELL RIVER A","1021267","2018-04-07 05:00","2018","04","07","05:00","6.9","","6.6","","98","","","","9","","11","","3.2","","97.85","","","","","","Rain,Fog"
"-125.27","49.95","CAMPBELL RIVER A","1021267","2018-04-07 06:00","2018","04","07","06:00","7.7","","7.5","","99","","","","10","","13","","0.8","","97.76","","","","","","Rain,Fog"
"-125.27","49.95","CAMPBELL RIVER A","1021267","2018-04-07 07:00","2018","04","07","07:00","8.4","","8.3","","99","","","","11","","22","","2.0","","97.73","","","","","","Rain,Fog"
"-125.27","49.95","CAMPBELL RIVER A","1021267","2018-04-07 08:00","2018","04","07","08:00","9.4","","8.8","","96","","","","13","","36","","8.1","","97.78","","","","","","Rain,Fog"
"-125.27","49.95","CAMPBELL RIVER A","1021267","2018-04-07 09:00","2018","04","07","09:00","9.6","","8.9","","96","","","","12","","23","","6.4","","97.75","","","","","","Rain,Fog"
"-125.27","49.95","CAMPBELL RIVER A","1021267","2018-04-07 10:00","2018","04","07","10:00","12.1","","9.9","","86","","","","10","","15","","24.1","","97.75","","","","","","Mostly Cloudy"
"-125.27","49.95","CAMPBELL RIVER A","1021267","2018-04-07 11:00","2018","04","07","11:00","11.2","","7.3","","77","","","","10","","35","","24.1","","97.78","","","","","","NA"
"-125.27","49.95","CAMPBELL RIVER A","1021267","2018-04-07 12:00","2018","04","07","12:00","10.7","","8.1","","84","","","","12","","35","","24.1","","97.81","","","","","","Rain Showers"
"-125.27","49.95","CAMPBELL RIVER A","1021267","2018-04-07 13:00","2018","04","07","13:00","12.5","","7.2","","70","","","","12","","39","","24.1","","97.77","","","","","","Mostly Cloudy"
"-125.27","49.95","CAMPBELL RIVER A","1021267","2018-04-07 14:00","2018","04","07","14:00","10.7","","7.7","","82","","","","13","","41","","19.3","","97.85","","","","","","Rain Showers"
"-125.27","49.95","CAMPBELL RIVER A","1021267","2018-04-07 15:00","2018","04","07","15:00","10.7","","8.3","","85","","","","13","","37","","12.9","","97.86","","","","","","Rain Showers"
"-125.27","49.95","CAMPBELL RIVER A","1021267","2018-04-07 16:00","2018","04","07","16:00","9.1","","8.1","","93","","","","15","","19","","8.1","","97.91","","","","","","Rain Showers,Fog"
"-125.27","49.95","CAMPBELL RIVER A","1021267","2018-04-07 17:00","2018","04","07","17:00","9.2","","7.8","","91","","","","14","","36","","12.9","","97.96","","","","","","Rain Showers"
"-125.27","49.95","CAMPBELL RIVER A","1021267","2018-04-07 18:00","2018","04","07","18:00","8.4","","7.6","","94","","","","13","","34","","9.7","","97.97","","","","","","Rain Showers,Fog"
"-125.27","49.95","CAMPBELL RIVER A","1021267","2018-04-07 19:00","2018","04","07","19:00","8.6","","7.5","","93","","","","13","","30","","12.9","","98.02","","","","","","Rain"
"-125.27","49.95","CAMPBELL RIVER A","1021267","2018-04-07 20:00","2018","04","07","20:00","8.4","","7.4","","94","","","","11","","22","","12.9","","98.11","","","","","","Rain"
"-125.27","49.95","CAMPBELL RIVER A","1021267","2018-04-07 21:00","2018","04","07","21:00"
"-125.27","49.95","CAMPBELL RIVER A","1021267","2018-04-07 22:00","2018","04","07","22:00"
"-125.27","49.95","CAMPBELL RIVER A","1021267","2018-04-07 23:00","2018","04","07","23:00"
"-125.27","49.95","CAMPBELL RIVER A","1021267","2018-04-08 00:00","2018","04","08","00:00"
"-125.27","49.95","CAMPBELL RIVER A","1021267","2018-04-08 01:00","2018","04","08","01:00"
"-125.27","49.95","CAMPBELL RIVER A","1021267","2018-04-08 02:00","2018","04","08","02:00"
"-125.27","49.95","CAMPBELL RIVER A","1021267","2018-04-08 03:00","2018","04","08","03:00"
"-125.27","49.95","CAMPBELL RIVER A","1021267","2018-04-08 04:00","2018","04","08","04:00"
"-125.27","49.95","CAMPBELL RIVER A","1021267","2018-04-08 05:00","2018","04","08","05:00","7.1","","6.4","","95","","","","12","","18","","12.9","","99.06","","","","","","Rain"
"-125.27","49.95","CAMPBELL RIVER A","1021267","2018-04-08 06:00","2018","04","08","06:00","7.2","","6.7","","96","","","","12","","15","","4.8","","99.21","","","","","","Rain,Fog"
"-125.27","49.95","CAMPBELL RIVER A","1021267","2018-04-08 07:00","2018","04","08","07:00","7.5","","6.9","","96","","","","14","","17","","8.1","","99.33","","","","","","Rain,Fog"
"-125.27","49.95","CAMPBELL RIVER A","1021267","2018-04-08 08:00","2018","04","08","08:00","8.1","","7.3","","94","","","","16","","11","","16.1","","99.47","","","","","","NA"
"-125.27","49.95","CAMPBELL RIVER A","1021267","2018-04-08 09:00","2018","04","08","09:00","8.8","","7.3","","91","","","","14","","8","","16.1","","99.59","","","","","","NA"
"-125.27","49.95","CAMPBELL RIVER A","1021267","2018-04-08 10:00","2018","04","08","10:00","10.1","","7.8","","86","","","","13","","18","","24.1","","99.71","","","","","","Cloudy"
"-125.27","49.95","CAMPBELL RIVER A","1021267","2018-04-08 11:00","2018","04","08","11:00","10.9","","7.4","","78","","","","13","","18","","19.3","","99.86","","","","","","NA"
"-125.27","49.95","CAMPBELL RIVER A","1021267","2018-04-08 12:00","2018","04","08","12:00","11.8","","7.1","","73","","","","12","","15","","32.2","","99.96","","","","","","NA"
"-125.27","49.95","CAMPBELL RIVER A","1021267","2018-04-08 13:00","2018","04","08","13:00","12.5","","7.9","","73","","","","10","","18","","40.2","","100.06","","","","","","Mainly Clear"
"-125.27","49.95","CAMPBELL RIVER A","1021267","2018-04-08 14:00","2018","04","08","14:00","11.9","","7.7","","75","","","","8","","18","","48.3","","100.15","","","","","","NA"
"-125.27","49.95","CAMPBELL RIVER A","1021267","2018-04-08 15:00","2018","04","08","15:00","12.2","","7.3","","72","","","","12","","21","","48.3","","100.24","","","","","","NA"
"-125.27","49.95","CAMPBELL RIVER A","1021267","2018-04-08 16:00","2018","04","08","16:00","12.3","","6.8","","69","","","","10","","15","","48.3","","100.31","","","","","","Mainly Clear"
"-125.27","49.95","CAMPBELL RIVER A","1021267","2018-04-08 17:00","2018","04","08","17:00","11.3","","6.9","","74","","","","10","","12","","48.3","","100.37","","","","","","NA"
"-125.27","49.95","CAMPBELL RIVER A","1021267","2018-04-08 18:00","2018","04","08","18:00","10.0","","7.2","","83","","","","11","","13","","48.3","","100.44","","","","","","NA"
"-125.27","49.95","CAMPBELL RIVER A","1021267","2018-04-08 19:00","2018","04","08","19:00","9.1","","7.6","","90","","","","9","","6","","48.3","","100.52","","","","","","Rain Showers"
"-125.27","49.95","CAMPBELL RIVER A","1021267","2018-04-08 20:00","2018","04","08","20:00","8.8","","7.8","","94","","","","10","","9","","24.1","","100.59","","","","","","NA"
"-125.27","49.95","CAMPBELL RIVER A","1021267","2018-04-08 21:00","2018","04","08","21:00"
"-125.27","49.95","CAMPBELL RIVER A","1021267","2018-04-08 22:00","2018","04","08","22:00"
"-125.27","49.95","CAMPBELL RIVER A","1021267","2018-04-08 23:00","2018","04","08","23:00"
"-125.27","49.95","CAMPBELL RIVER A","1021267","2018-04-09 00:00","2018","04","09","00:00"
"-125.27","49.95","CAMPBELL RIVER A","1021267","2018-04-09 01:00","2018","04","09","01:00"
"-125.27","49.95","CAMPBELL RIVER A","1021267","2018-04-09 02:00","2018","04","09","02:00"
"-125.27","49.95","CAMPBELL RIVER A","1021267","2018-04-09 03:00","2018","04","09","03:00"
"-125.27","49.95","CAMPBELL RIVER A","1021267","2018-04-09 04:00","2018","04","09","04:00"
"-125.27","49.95","CAMPBELL RIVER A","1021267","2018-04-09 05:00","2018","04","09","05:00","7.8","","7.6","","99","","","","27","","4","","11.3","","100.98","","","","","","NA"
"-125.27","49.95","CAMPBELL RIVER A","1021267","2018-04-09 06:00","2018","04","09","06:00","7.6","","7.4","","99","","","","36","","3","","3.2","","100.98","","","","","","Fog"
"-125.27","49.95","CAMPBELL RIVER A","1021267","2018-04-09 07:00","2018","04","09","07:00","8.2","","8.0","","99","","","","13","","6","","3.2","","101.01","","","","","","Fog"
"-125.27","49.95","CAMPBELL RIVER A","1021267","2018-04-09 08:00","2018","04","09","08:00","8.9","","7.2","","89","","","","11","","10","","32.2","","100.99","","","","","","NA"
"-125.27","49.95","CAMPBELL RIVER A","1021267","2018-04-09 09:00","2018","04","09","09:00","10.1","","6.9","","80","","","","11","","20","","40.2","","100.97","","","","","","NA"
"-125.27","49.95","CAMPBELL RIVER A","1021267","2018-04-09 10:00","2018","04","09","10:00","10.0","","6.8","","80","","","","12","","22","","32.2","","100.99","","","","","","Cloudy"
"-125.27","49.95","CAMPBELL RIVER A","1021267","2018-04-09 11:00","2018","04","09","11:00","10.5","","6.3","","75","","","","11","","24","","32.2","","100.96","","","","","","NA"
"-125.27","49.95","CAMPBELL RIVER A","1021267","2018-04-09 12:00","2018","04","09","12:00","10.6","","5.7","","71","","","","13","","17","","48.3","","100.94","","","","","","NA"
"-125.27","49.95","CAMPBELL RIVER A","1021267","2018-04-09 13:00","2018","04","09","13:00","10.9","","6.6","","75","","","","10","","15","","48.3","","100.89","","","","","","Cloudy"
"-125.27","49.95","CAMPBELL RIVER A","1021267","2018-04-09 14:00","2018","04","09","14:00","12.1","","5.9","","66","","","","14","","27","","48.3","","100.74","","","","","","NA"
"-125.27","49.95","CAMPBELL RIVER A","1021267","2018-04-09 15:00","2018","04","09","15:00","11.7","","4.7","","62","","","","12","","23","","48.3","","100.64","","","","","","NA"
"-125.27","49.95","CAMPBELL RIVER A","1021267","2018-04-09 16:00","2018","04","09","16:00","11.4","","3.8","","60","","","","10","","20","","48.3","","100.56","","","","","","Cloudy"
"-125.27","49.95","CAMPBELL RIVER A","1021267","2018-04-09 17:00","2018","04","09","17:00","9.9","","5.0","","71","","","","9","","17","","48.3","","100.45","","","","","","NA"
"-125.27","49.95","CAMPBELL RIVER A","1021267","2018-04-09 18:00","2018","04","09","18:00","9.4","","5.4","","76","","","","8","","13","","48.3","","100.36","","","","","","NA"
"-125.27","49.95","CAMPBELL RIVER A","1021267","2018-04-09 19:00","2018","04","09","19:00","8.8","","5.7","","81","","","","7","","11","","48.3","","100.26","","","","","","Cloudy"
"-125.27","49.95","CAMPBELL RIVER A","1021267","2018-04-09 20:00","2018","04","09","20:00","8.2","","5.1","","81","","","","9","","8","","48.3","","100.18","","","","","","NA"
"-125.27","49.95","CAMPBELL RIVER A","1021267","2018-04-09 21:00","2018","04","09","21:00"
"-125.27","49.95","CAMPBELL RIVER A","1021267","2018-04-09 22:00","2018","04","09","22:00"
"-125.27","49.95","CAMPBELL RIVER A","1021267","2018-04-09 23:00","2018","04","09","23:00"
"-125.27","49.95","CAMPBELL RIVER A","1021267","2018-04-10 00:00","2018","04","10","00:00"
"-125.27","49.95","CAMPBELL RIVER A","1021267","2018-04-10 01:00","2018","04","10","01:00"
"-125.27","49.95","CAMPBELL RIVER A","1021267","2018-04-10 02:00","2018","04","10","02:00"
"-125.27","49.95","CAMPBELL RIVER A","1021267","2018-04-10 03:00","2018","04","10","03:00"
"-125.27","49.95","CAMPBELL RIVER A","1021267","2018-04-10 04:00","2018","04","10","04:00"
"-125.27","49.95","CAMPBELL RIVER A","1021267","2018-04-10 05:00","2018","04","10","05:00","6.8","","6.6","","98","","","","10","","13","","24.1","","99.00","","","","","","Rain"
"-125.27","49.95","CAMPBELL RIVER A","1021267","2018-04-10 06:00","2018","04","10","06:00","6.8","","6.2","","96","","","","11","","17","","19.3","","98.95","","","","","","Rain"
"-125.27","49.95","CAMPBELL RIVER A","1021267","2018-04-10 07:00","2018","04","10","07:00","7.2","","6.7","","96","","","","12","","22","","8.1","","98.84","","","","","","Rain,Fog"
"-125.27","49.95","CAMPBELL RIVER A","1021267","2018-04-10 08:00","2018","04","10","08:00","8.4","","7.2","","92","","","","13","","32","","6.4","","98.86","","","","","","Rain,Fog"
"-125.27","49.95","CAMPBELL RIVER A","1021267","2018-04-10 09:00","2018","04","10","09:00","9.2","","8.4","","95","","","","13","","25","","4.8","","98.97","","","","","","Rain,Fog"
"-125.27","49.95","CAMPBELL RIVER A","1021267","2018-04-10 10:00","2018","04","10","10:00","10.3","","9.3","","93","","","","23","","4","","32.2","","99.14","","","","","","Mostly Cloudy"
"-125.27","49.95","CAMPBELL RIVER A","1021267","2018-04-10 11:00","2018","04","10","11:00","12.8","","3.6","","53","","","","22","","9","","48.3","","99.25","","","","","","NA"
"-125.27","49.95","CAMPBELL RIVER A","1021267","2018-04-10 12:00","2018","04","10","12:00","13.2","","3.3","","51","","","","16","","17","","48.3","","99.35","","","","","","NA"
"-125.27","49.95","CAMPBELL RIVER A","1021267","2018-04-10 13:00","2018","04","10","13:00","13.2","","1.9","","46","","","","16","","16","","48.3","","99.44","","","","","","Mostly Cloudy"
"-125.27","49.95","CAMPBELL RIVER A","1021267","2018-04-10 14:00","2018","04","10","14:00","11.3","","1.8","","52","","","","15","","21","","48.3","","99.49","","","","","","NA"
"-125.27","49.95","CAMPBELL RIVER A","1021267","2018-04-10 15:00","2018","04","10","15:00","10.5","","2.9","","59","","","","13","","40","","32.2","","99.53","","","","","","NA"
"-125.27","49.95","CAMPBELL RIVER A","1021267","2018-04-10 16:00","2018","04","10","16:00","7.5","","5.6","","88","","","","14","","24","","19.3","","99.60","","","","","","Rain Showers"
"-125.27","49.95","CAMPBELL RIVER A","1021267","2018-04-10 17:00","2018","04","10","17:00","7.2","","5.5","","89","","","","15","","12","","24.1","","99.58","","","","","","NA"
"-125.27","49.95","CAMPBELL RIVER A","1021267","2018-04-10 18:00","2018","04","10","18:00","6.8","","5.8","","93","","","","16","","14","","24.1","","99.58","","","","","","Rain Showers"
"-125.27","49.95","CAMPBELL RIVER A","1021267","2018-04-10 19:00","2018","04","10","19:00","6.3","","5.1","","92","","","","16","","12","","19.3","","99.58","","","","","","Rain Showers"
"-125.27","49.95","CAMPBELL RIVER A","1021267","2018-04-10 20:00","2018","04","10","20:00","5.7","","4.8","","94","","","","23","","3","","19.3","","99.57","","","","","","Rain"
"-125.27","49.95","CAMPBELL RIVER A","1021267","2018-04-10 21:00","2018","04","10","21:00"
"-125.27","49.95","CAMPBELL RIVER A","1021267","2018-04-10 22:00","2018","04","10","22:00"
"-125.27","49.95","CAMPBELL RIVER A","1021267","2018-04-10 23:00","2018","04","10","23:00"
"-125.27","49.95","CAMPBELL RIVER A","1021267","2018-04-11 00:00","2018","04","11","00:00"
"-125.27","49.95","CAMPBELL RIVER A","1021267","2018-04-11 01:00","2018","04","11","01:00"
"-125.27","49.95","CAMPBELL RIVER A","1021267","2018-04-11 02:00","2018","04","11","02:00"
"-125.27","49.95","CAMPBELL RIVER A","1021267","2018-04-11 03:00","2018","04","11","03:00"
"-125.27","49.95","CAMPBELL RIVER A","1021267","2018-04-11 04:00","2018","04","11","04:00"
"-125.27","49.95","CAMPBELL RIVER A","1021267","2018-04-11 05:00","2018","04","11","05:00","5.8","","4.8","","93","","","","14","","14","","24.1","","99.21","","","","","","Rain"
"-125.27","49.95","CAMPBELL RIVER A","1021267","2018-04-11 06:00","2018","04","11","06:00","7.0","","5.8","","92","","","","13","","31","","12.9","","99.12","","","","","","Rain"
"-125.27","49.95","CAMPBELL RIVER A","1021267","2018-04-11 07:00","2018","04","11","07:00","7.4","","6.1","","92","","","","13","","36","","8.1","","99.07","","","","","","Rain,Fog"
"-125.27","49.95","CAMPBELL RIVER A","1021267","2018-04-11 08:00","2018","04","11","08:00","7.3","","5.9","","91","","","","13","","42","","6.4","","98.98","","","","","","Rain,Fog"
"-125.27","49.95","CAMPBELL RIVER A","1021267","2018-04-11 09:00","2018","04","11","09:00","7.2","","6.2","","93","","","","14","","36","","6.4","","98.96","","","","","","Rain,Fog"
"-125.27","49.95","CAMPBELL RIVER A","1021267","2018-04-11 10:00","2018","04","11","10:00","7.2","","6.2","","93","","","","13","","32","","6.4","","98.95","","","","","","Rain,Fog"
"-125.27","49.95","CAMPBELL RIVER A","1021267","2018-04-11 11:00","2018","04","11","11:00","7.3","","6.5","","95","","","","14","","31","","6.4","","98.93","","","","","","Rain,Fog"
"-125.27","49.95","CAMPBELL RIVER A","1021267","2018-04-11 12:00","2018","04","11","12:00","7.3","","6.3","","93","","","","15","","18","","9.7","","98.93","","","","","","Rain,Fog"
"-125.27","49.95","CAMPBELL RIVER A","1021267","2018-04-11 13:00","2018","04","11","13:00","7.3","","6.2","","92","","","","16","","17","","12.9","","98.94","","","","","","Rain"
"-125.27","49.95","CAMPBELL RIVER A","1021267","2018-04-11 14:00","2018","04","11","14:00","7.5","","6.4","","93","","","","15","","16","","24.1","","98.94","","","","","","Rain"
"-125.27","49.95","CAMPBELL RIVER A","1021267","2018-04-11 15:00","2018","04","11","15:00","7.5","","5.8","","89","","","","13","","13","","32.2","","98.94","","","","","","NA"
"-125.27","49.95","CAMPBELL RIVER A","1021267","2018-04-11 16:00","2018","04","11","16:00","7.4","","5.9","","90","","","","12","","10","","32.2","","98.90","","","","","","Cloudy"
"-125.27","49.95","CAMPBELL RIVER A","1021267","2018-04-11 17:00","2018","04","11","17:00","7.2","","5.6","","90","","","","15","","3","","48.3","","98.89","","","","","","NA"
"-125.27","49.95","CAMPBELL RIVER A","1021267","2018-04-11 18:00","2018","04","11","18:00","6.9","","5.2","","89","","","","6","","5","","48.3","","98.89","","","","","","NA"
"-125.27","49.95","CAMPBELL RIVER A","1021267","2018-04-11 19:00","2018","04","11","19:00","6.4","","4.9","","90","","","","10","","7","","24.1","","98.88","","","","","","Mostly Cloudy"
"-125.27","49.95","CAMPBELL RIVER A","1021267","2018-04-11 20:00","2018","04","11","20:00","5.8","","4.6","","92","","","","9","","5","","16.1","","98.96","","","","","","Rain"
"-125.27","49.95","CAMPBELL RIVER A","1021267","2018-04-11 21:00","2018","04","11","21:00"
"-125.27","49.95","CAMPBELL RIVER A","1021267","2018-04-11 22:00","2018","04","11","22:00"
"-125.27","49.95","CAMPBELL RIVER A","1021267","2018-04-11 23:00","2018","04","11","23:00"
"-125.27","49.95","CAMPBELL RIVER A","1021267","2018-04-12 00:00","2018","04","12","00:00"
"-125.27","49.95","CAMPBELL RIVER A","1021267","2018-04-12 01:00","2018","04","12","01:00"
"-125.27","49.95","CAMPBELL RIVER A","1021267","2018-04-12 02:00","2018","04","12","02:00"
"-125.27","49.95","CAMPBELL RIVER A","1021267","2018-04-12 03:00","2018","04","12","03:00"
"-125.27","49.95","CAMPBELL RIVER A","1021267","2018-04-12 04:00","2018","04","12","04:00"
"-125.27","49.95","CAMPBELL RIVER A","1021267","2018-04-12 05:00","2018","04","12","05:00","1.8","","1.5","","98","","","","27","","5","","48.3","","99.46","","","","","","NA"
"-125.27","49.95","CAMPBELL RIVER A","1021267","2018-04-12 06:00","2018","04","12","06:00","1.8","","1.6","","98","","","","36","","2","","48.3","","99.51","","","","","","NA"
"-125.27","49.95","CAMPBELL RIVER A","1021267","2018-04-12 07:00","2018","04","12","07:00","3.2","","3.0","","98","","","","36","","3","","32.2","","99.61","","","","","","Mostly Cloudy"
"-125.27","49.95","CAMPBELL RIVER A","1021267","2018-04-12 08:00","2018","04","12","08:00","4.8","","4.3","","96","","","","29","","5","","32.2","","99.67","","","","","","NA"
"-125.27","49.95","CAMPBELL RIVER A","1021267","2018-04-12 09:00","2018","04","12","09:00","6.2","","3.9","","85","","","","9","","6","","32.2","","99.72","","","","","","NA"
"-125.27","49.95","CAMPBELL RIVER A","1021267","2018-04-12 10:00","2018","04","12","10:00","7.1","","3.6","","78","","","","10","","12","","32.2","","99.80","","","","","","Mostly Cloudy"
"-125.27","49.95","CAMPBELL RIVER A","1021267","2018-04-12 11:00","2018","04","12","11:00","7.6","","2.5","","70","","","","7","","9","","48.3","","99.85","","","","","","NA"
"-125.27","49.95","CAMPBELL RIVER A","1021267","2018-04-12 12:00","2018","04","12","12:00","9.4","","3.5","","67","","","","10","","16","","48.3","","99.89","","","","","","NA"
"-125.27","49.95","CAMPBELL RIVER A","1021267","2018-04-12 13:00","2018","04","12","13:00","9.0","","3.0","","66","","","","7","","14","","48.3","","99.94","","","","","","Mainly Clear"
"-125.27","49.95","CAMPBELL RIVER A","1021267","2018-04-12 14:00","2018","04","12","14:00","9.6","","1.3","","56","","","","13","","16","","48.3","","99.99","","","","","","NA"
"-125.27","49.95","CAMPBELL RIVER A","1021267","2018-04-12 15:00","2018","04","12","15:00","10.2","","1.1","","53","","","","11","","22","","48.3","","100.03","","","","","","NA"
"-125.27","49.95","CAMPBELL RIVER A","1021267","2018-04-12 16:00","2018","04","12","16:00","10.0","","1.5","","55","","","","11","","19","","48.3","","100.07","","","","","","Mostly Cloudy"
"-125.27","49.95","CAMPBELL RIVER A","1021267","2018-04-12 17:00","2018","04","12","17:00","9.6","","3.4","","65","","","","10","","11","","48.3","","100.10","","","","","","NA"
"-125.27","49.95","CAMPBELL RIVER A","1021267","2018-04-12 18:00","2018","04","12","18:00","9.0","","4.2","","72","","","","15","","4","","48.3","","100.09","","","","","","NA"
"-125.27","49.95","CAMPBELL RIVER A","1021267","2018-04-12 19:00","2018","04","12","19:00","7.7","","3.4","","74","","","","15","","9","","48.3","","100.07","","","","","","Cloudy"
"-125.27","49.95","CAMPBELL RIVER A","1021267","2018-04-12 20:00","2018","04","12","20:00","7.7","","0.0","","58","","","","14","","23","","24.1","","100.11","","","","","","NA"
"-125.27","49.95","CAMPBELL RIVER A","1021267","2018-04-12 21:00","2018","04","12","21:00"
"-125.27","49.95","CAMPBELL RIVER A","1021267","2018-04-12 22:00","2018","04","12","22:00"
"-125.27","49.95","CAMPBELL RIVER A","1021267","2018-04-12 23:00","2018","04","12","23:00"
"-125.27","49.95","CAMPBELL RIVER A","1021267","2018-04-13 00:00","2018","04","13","00:00"
"-125.27","49.95","CAMPBELL RIVER A","1021267","2018-04-13 01:00","2018","04","13","01:00"
"-125.27","49.95","CAMPBELL RIVER A","1021267","2018-04-13 02:00","2018","04","13","02:00"
"-125.27","49.95","CAMPBELL RIVER A","1021267","2018-04-13 03:00","2018","04","13","03:00"
"-125.27","49.95","CAMPBELL RIVER A","1021267","2018-04-13 04:00","2018","04","13","04:00"
"-125.27","49.95","CAMPBELL RIVER A","1021267","2018-04-13 05:00","2018","04","13","05:00","4.8","","2.5","","85","","","","14","","21","","48.3","","100.34","","","","","","NA"
"-125.27","49.95","CAMPBELL RIVER A","1021267","2018-04-13 06:00","2018","04","13","06:00","4.9","","2.4","","84","","","","11","","20","","32.2","","100.28","","","","","","NA"
"-125.27","49.95","CAMPBELL RIVER A","1021267","2018-04-13 07:00","2018","04","13","07:00","5.2","","2.5","","82","","","","12","","20","","24.1","","100.26","","","","","","Cloudy"
"-125.27","49.95","CAMPBELL RIVER A","1021267","2018-04-13 08:00","2018","04","13","08:00","4.9","","3.7","","92","","","","14","","19","","12.9","","100.20","","","","","","Rain"
"-125.27","49.95","CAMPBELL RIVER A","1021267","2018-04-13 09:00","2018","04","13","09:00","5.0","","4.0","","93","","","","14","","20","","12.9","","100.14","","","","","","Rain"
"-125.27","49.95","CAMPBELL RIVER A","1021267","2018-04-13 10:00","2018","04","13","10:00","5.5","","4.6","","94","","","","14","","23","","11.3","","100.11","","","","","","Rain"
"-125.27","49.95","CAMPBELL RIVER A","1021267","2018-04-13 11:00","2018","04","13","11:00","6.4","","5.6","","94","","","","13","","33","","12.9","","100.04","","","","","","Rain"
"-125.27","49.95","CAMPBELL RIVER A","1021267","2018-04-13 12:00","2018","04","13","12:00","7.6","","7.0","","96","","","","13","","31","","11.3","","99.99","","","","","","Rain"
"-125.27","49.95","CAMPBELL RIVER A","1021267","2018-04-13 13:00","2018","04","13","13:00","8.7","","7.5","","92","","","","13","","29","","12.9","","99.86","","","","","","Rain"
"-125.27","49.95","CAMPBELL RIVER A","1021267","2018-04-13 14:00","2018","04","13","14:00","8.7","","7.9","","95","","","","13","","27","","11.3","","99.95","","","","","","Rain"
"-125.27","49.95","CAMPBELL RIVER A","1021267","2018-04-13 15:00","2018","04","13","15:00","9.6","","8.5","","93","","","","14","","23","","16.1","","99.98","","","","","","Rain"
"-125.27","49.95","CAMPBELL RIVER A","1021267","2018-04-13 16:00","2018","04","13","16:00","9.7","","8.4","","92","","","","20","","7","","16.1","","100.05","","","","","","Rain"
"-125.27","49.95","CAMPBELL RIVER A","1021267","2018-04-13 17:00","2018","04","13","17:00","9.9","","7.1","","83","","","","36","","3","","24.1","","100.11","","","","","","NA"
"-125.27","49.95","CAMPBELL RIVER A","1021267","2018-04-13 18:00","2018","04","13","18:00","9.3","","5.7","","78","","","","30","","13","","24.1","","100.17","","","","","","NA"
"-125.27","49.95","CAMPBELL RIVER A","1021267","2018-04-13 19:00","2018","04","13","19:00","7.6","","3.8","","77","","","","20","","9","","24.1","","100.27","","","","","","Mostly Cloudy"
"-125.27","49.95","CAMPBELL RIVER A","1021267","2018-04-13 20:00","2018","04","13","20:00","6.2","","2.9","","79","","","","28","","4","","24.1","","100.38","","","","","","NA"
"-125.27","49.95","CAMPBELL RIVER A","1021267","2018-04-13 21:00","2018","04","13","21:00"
"-125.27","49.95","CAMPBELL RIVER A","1021267","2018-04-13 22:00","2018","04","13","22:00"
"-125.27","49.95","CAMPBELL RIVER A","1021267","2018-04-13 23:00","2018","04","13","23:00"
"-125.27","49.95","CAMPBELL RIVER A","1021267","2018-04-14 00:00","2018","04","14","00:00"
"-125.27","49.95","CAMPBELL RIVER A","1021267","2018-04-14 01:00","2018","04","14","01:00"
"-125.27","49.95","CAMPBELL RIVER A","1021267","2018-04-14 02:00","2018","04","14","02:00"
"-125.27","49.95","CAMPBELL RIVER A","1021267","2018-04-14 03:00","2018","04","14","03:00"
"-125.27","49.95","CAMPBELL RIVER A","1021267","2018-04-14 04:00","2018","04","14","04:00"
"-125.27","49.95","CAMPBELL RIVER A","1021267","2018-04-14 05:00","2018","04","14","05:00","2.1","","1.8","","97","","","","22","","5","","24.1","","100.73","","","","","","NA"
"-125.27","49.95","CAMPBELL RIVER A","1021267","2018-04-14 06:00","2018","04","14","06:00","2.4","","2.0","","97","","","","33","","5","","48.3","","100.75","","","","","","NA"
"-125.27","49.95","CAMPBELL RIVER A","1021267","2018-04-14 07:00","2018","04","14","07:00","3.5","","3.1","","97","","","","24","","4","","48.3","","100.76","","","","","","Cloudy"
"-125.27","49.95","CAMPBELL RIVER A","1021267","2018-04-14 08:00","2018","04","14","08:00","4.9","","4.2","","95","","","","30","","4","","48.3","","100.74","","","","","","NA"
"-125.27","49.95","CAMPBELL RIVER A","1021267","2018-04-14 09:00","2018","04","14","09:00","6.2","","3.8","","85","","","","15","","3","","48.3","","100.72","","","","","","NA"
"-125.27","49.95","CAMPBELL RIVER A","1021267","2018-04-14 10:00","2018","04","14","10:00","7.6","","4.6","","81","","","","13","","10","","48.3","","100.70","","","","","","Cloudy"
"-125.27","49.95","CAMPBELL RIVER A","1021267","2018-04-14 11:00","2018","04","14","11:00","8.8","","4.7","","75","","","","11","","16","","32.2","","100.67","","","","","","NA"
"-125.27","49.95","CAMPBELL RIVER A","1021267","2018-04-14 12:00","2018","04","14","12:00","9.7","","4.5","","70","","","","11","","19","","32.2","","100.61","","","","","","NA"
"-125.27","49.95","CAMPBELL RIVER A","1021267","2018-04-14 13:00","2018","04","14","13:00","10.2","","3.8","","64","","","","12","","14","","32.2","","100.54","","","","","","Cloudy"
"-125.27","49.95","CAMPBELL RIVER A","1021267","2018-04-14 14:00","2018","04","14","14:00","10.1","","3.7","","64","","","","15","","23","","32.2","","100.49","","","","","","NA"
"-125.27","49.95","CAMPBELL RIVER A","1021267","2018-04-14 15:00","2018","04","14","15:00","9.3","","4.5","","72","","","","13","","32","","32.2","","100.42","","","","","","NA"
"-125.27","49.95","CAMPBELL RIVER A","1021267","2018-04-14 16:00","2018","04","14","16:00","9.6","","4.8","","72","","","","11","","18","","32.2","","100.35","","","","","","Mostly Cloudy"
"-125.27","49.95","CAMPBELL RIVER A","1021267","2018-04-14 17:00","2018","04","14","17:00","9.2","","4.8","","73","","","","11","","23","","24.1","","100.29","","","","","","NA"
"-125.27","49.95","CAMPBELL RIVER A","1021267","2018-04-14 18:00","2018","04","14","18:00","8.7","","5.6","","81","","","","13","","12","","24.1","","100.24","","","","","","Rain Showers"
"-125.27","49.95","CAMPBELL RIVER A","1021267","2018-04-14 19:00","2018","04","14","19:00","7.2","","4.9","","85","","","","31","","10","","32.2","","100.19","","","","","","Rain Showers"
"-125.27","49.95","CAMPBELL RIVER A","1021267","2018-04-14 20:00","2018","04","14","20:00","5.6","","4.7","","94","","","","32","","7","","24.1","","100.19","","","","","","NA"
"-125.27","49.95","CAMPBELL RIVER A","1021267","2018-04-14 21:00","2018","04","14","21:00"
"-125.27","49.95","CAMPBELL RIVER A","1021267","2018-04-14 22:00","2018","04","14","22:00"
"-125.27","49.95","CAMPBELL RIVER A","1021267","2018-04-14 23:00","2018","04","14","23:00"
"-125.27","49.95","CAMPBELL RIVER A","1021267","2018-04-15 00:00","2018","04","15","00:00"
"-125.27","49.95","CAMPBELL RIVER A","1021267","2018-04-15 01:00","2018","04","15","01:00"
"-125.27","49.95","CAMPBELL RIVER A","1021267","2018-04-15 02:00","2018","04","15","02:00"
"-125.27","49.95","CAMPBELL RIVER A","1021267","2018-04-15 03:00","2018","04","15","03:00"
"-125.27","49.95","CAMPBELL RIVER A","1021267","2018-04-15 04:00","2018","04","15","04:00"
"-125.27","49.95","CAMPBELL RIVER A","1021267","2018-04-15 05:00","2018","04","15","05:00","3.5","","2.5","","94","","","","36","","7","","24.1","","100.07","","","","","","NA"
"-125.27","49.95","CAMPBELL RIVER A","1021267","2018-04-15 06:00","2018","04","15","06:00","2.4","","1.8","","96","","","","28","","5","","48.3","","100.07","","","","","","NA"
"-125.27","49.95","CAMPBELL RIVER A","1021267","2018-04-15 07:00","2018","04","15","07:00","3.9","","2.3","","89","","","","31","","10","","32.2","","100.06","","","","","","Mostly Cloudy"
"-125.27","49.95","CAMPBELL RIVER A","1021267","2018-04-15 08:00","2018","04","15","08:00","5.5","","2.6","","82","","","","31","","9","","32.2","","100.03","","","","","","NA"
"-125.27","49.95","CAMPBELL RIVER A","1021267","2018-04-15 09:00","2018","04","15","09:00","6.9","","2.9","","76","","","","34","","12","","32.2","","99.99","","","","","","NA"
"-125.27","49.95","CAMPBELL RIVER A","1021267","2018-04-15 10:00","2018","04","15","10:00","7.7","","2.8","","71","","","","33","","3","","32.2","","99.93","","","","","","Mostly Cloudy"
"-125.27","49.95","CAMPBELL RIVER A","1021267","2018-04-15 11:00","2018","04","15","11:00","10.2","","3.3","","62","","","","32","","12","","32.2","","99.90","","","","","","NA"
"-125.27","49.95","CAMPBELL RIVER A","1021267","2018-04-15 12:00","2018","04","15","12:00","9.5","","1.5","","57","","","","32","","4","","48.3","","99.81","","","","","","NA"
"-125.27","49.95","CAMPBELL RIVER A","1021267","2018-04-15 13:00","2018","04","15","13:00","11.7","","2.1","","52","","","","4","","7","","48.3","","99.73","","","","","","Mostly Cloudy"
"-125.27","49.95","CAMPBELL RIVER A","1021267","2018-04-15 14:00","2018","04","15","14:00","11.7","","1.2","","48","","","","2","","10","","48.3","","99.65","","","","","","NA"
"-125.27","49.95","CAMPBELL RIVER A","1021267","2018-04-15 15:00","2018","04","15","15:00","11.5","","0.1","","45","","","","7","","10","","48.3","","99.53","","","","","","NA"
"-125.27","49.95","CAMPBELL RIVER A","1021267","2018-04-15 16:00","2018","04","15","16:00","12.2","","-0.5","","41","","","","34","","10","","48.3","","99.46","","","","","","Mostly Cloudy"
"-125.27","49.95","CAMPBELL RIVER A","1021267","2018-04-15 17:00","2018","04","15","17:00","12.2","","-0.7","","41","","","","32","","8","","48.3","","99.34","","","","","","NA"
"-125.27","49.95","CAMPBELL RIVER A","1021267","2018-04-15 18:00","2018","04","15","18:00","11.6","","-0.3","","44","","","","33","","18","","48.3","","99.25","","","","","","NA"
"-125.27","49.95","CAMPBELL RIVER A","1021267","2018-04-15 19:00","2018","04","15","19:00","9.7","","1.4","","56","","","","30","","13","","48.3","","99.17","","","","","","Mostly Cloudy"
"-125.27","49.95","CAMPBELL RIVER A","1021267","2018-04-15 20:00","2018","04","15","20:00","8.7","","2.1","","63","","","","29","","15","","24.1","","99.10","","","","","","NA"
"-125.27","49.95","CAMPBELL RIVER A","1021267","2018-04-15 21:00","2018","04","15","21:00"
"-125.27","49.95","CAMPBELL RIVER A","1021267","2018-04-15 22:00","2018","04","15","22:00"
"-125.27","49.95","CAMPBELL RIVER A","1021267","2018-04-15 23:00","2018","04","15","23:00"
"-125.27","49.95","CAMPBELL RIVER A","1021267","2018-04-16 00:00","2018","04","16","00:00"
"-125.27","49.95","CAMPBELL RIVER A","1021267","2018-04-16 01:00","2018","04","16","01:00"
"-125.27","49.95","CAMPBELL RIVER A","1021267","2018-04-16 02:00","2018","04","16","02:00"
"-125.27","49.95","CAMPBELL RIVER A","1021267","2018-04-16 03:00","2018","04","16","03:00"
"-125.27","49.95","CAMPBELL RIVER A","1021267","2018-04-16 04:00","2018","04","16","04:00"
"-125.27","49.95","CAMPBELL RIVER A","1021267","2018-04-16 05:00","2018","04","16","05:00","6.5","","3.2","","79","","","","30","","12","","16.1","","98.80","","","","","","Rain"
"-125.27","49.95","CAMPBELL RIVER A","1021267","2018-04-16 06:00","2018","04","16","06:00","5.7","","4.2","","90","","","","29","","9","","16.1","","98.82","","","","","","Rain"
"-125.27","49.95","CAMPBELL RIVER A","1021267","2018-04-16 07:00","2018","04","16","07:00","5.7","","4.3","","91","","","","27","","10","","16.1","","98.84","","","","","","Rain"
"-125.27","49.95","CAMPBELL RIVER A","1021267","2018-04-16 08:00","2018","04","16","08:00","6.2","","4.8","","91","","","","27","","8","","24.1","","98.85","","","","","","Rain"
"-125.27","49.95","CAMPBELL RIVER A","1021267","2018-04-16 09:00","2018","04","16","09:00","7.4","","4.8","","84","","","","26","","6","","48.3","","98.83","","","","","","NA"
"-125.27","49.95","CAMPBELL RIVER A","1021267","2018-04-16 10:00","2018","04","16","10:00","8.0","","5.3","","83","","","","31","","9","","48.3","","98.86","","","","","","Cloudy"
"-125.27","49.95","CAMPBELL RIVER A","1021267","2018-04-16 11:00","2018","04","16","11:00","8.6","","5.8","","82","","","","32","","5","","48.3","","98.90","","","","","","NA"
"-125.27","49.95","CAMPBELL RIVER A","1021267","2018-04-16 12:00","2018","04","16","12:00","9.6","","5.3","","74","","","","33","","7","","48.3","","98.93","","","","","","NA"
"-125.27","49.95","CAMPBELL RIVER A","1021267","2018-04-16 13:00","2018","04","16","13:00","10.7","","3.9","","62","","","","36","","3","","48.3","","98.97","","","","","","Mostly Cloudy"
"-125.27","49.95","CAMPBELL RIVER A","1021267","2018-04-16 14:00","2018","04","16","14:00","11.9","","3.2","","55","","","","32","","8","","48.3","","99.00","","","","","","NA"
"-125.27","49.95","CAMPBELL RIVER A","1021267","2018-04-16 15:00","2018","04","16","15:00","11.0","","5.4","","68","","","","10","","13","","48.3","","99.03","","","","","","NA"
"-125.27","49.95","CAMPBELL RIVER A","1021267","2018-04-16 16:00","2018","04","16","16:00","10.9","","5.3","","68","","","","11","","10","","48.3","","99.08","","","","","","Mostly Cloudy"
"-125.27","49.95","CAMPBELL RIVER A","1021267","2018-04-16 17:00","2018","04","16","17:00","11.1","","4.6","","64","","","","11","","10","","48.3","","99.15","","","","","","NA"
"-125.27","49.95","CAMPBELL RIVER A","1021267","2018-04-16 18:00","2018","04","16","18:00","10.7","","5.0","","68","","","","9","","8","","48.3","","99.19","","","","","","NA"
"-125.27","49.95","CAMPBELL RIVER A","1021267","2018-04-16 19:00","2018","04","16","19:00","8.8","","5.8","","81","","","","10","","4","","48.3","","99.27","","","","","","Mostly Cloudy"
"-125.27","49.95","CAMPBELL RIVER A","1021267","2018-04-16 20:00","2018","04","16","20:00","6.9","","5.4","","90","","","","8","","5","","24.1","","99.39","","","","","","NA"
"-125.27","49.95","CAMPBELL RIVER A","1021267","2018-04-16 21:00","2018","04","16","21:00"
"-125.27","49.95","CAMPBELL RIVER A","1021267","2018-04-16 22:00","2018","04","16","22:00"
"-125.27","49.95","CAMPBELL RIVER A","1021267","2018-04-16 23:00","2018","04","16","23:00"
"-125.27","49.95","CAMPBELL RIVER A","1021267","2018-04-17 00:00","2018","04","17","00:00"
"-125.27","49.95","CAMPBELL RIVER A","1021267","2018-04-17 01:00","2018","04","17","01:00"
"-125.27","49.95","CAMPBELL RIVER A","1021267","2018-04-17 02:00","2018","04","17","02:00"
"-125.27","49.95","CAMPBELL RIVER A","1021267","2018-04-17 03:00","2018","04","17","03:00"
"-125.27","49.95","CAMPBELL RIVER A","1021267","2018-04-17 04:00","2018","04","17","04:00"
"-125.27","49.95","CAMPBELL RIVER A","1021267","2018-04-17 05:00","2018","04","17","05:00","-0.3","","-0.7","","97","","","","36","","3","","48.3","","100.08","","","","-1","","NA"
"-125.27","49.95","CAMPBELL RIVER A","1021267","2018-04-17 06:00","2018","04","17","06:00","0.0","","-0.4","","97","","","","24","","7","","48.3","","100.15","","","","-2","","NA"
"-125.27","49.95","CAMPBELL RIVER A","1021267","2018-04-17 07:00","2018","04","17","07:00","0.6","","0.2","","97","","","","31","","4","","48.3","","100.24","","","","","","Mostly Cloudy"
"-125.27","49.95","CAMPBELL RIVER A","1021267","2018-04-17 08:00","2018","04","17","08:00","6.4","","1.6","","71","","","","36","","3","","48.3","","100.33","","","","","","NA"
"-125.27","49.95","CAMPBELL RIVER A","1021267","2018-04-17 09:00","2018","04","17","09:00","9.5","","1.5","","57","","","","11","","11","","48.3","","100.41","","","","","","NA"
"-125.27","49.95","CAMPBELL RIVER A","1021267","2018-04-17 10:00","2018","04","17","10:00","9.3","","0.8","","55","","","","7","","14","","48.3","","100.50","","","","","","Mostly Cloudy"
"-125.27","49.95","CAMPBELL RIVER A","1021267","2018-04-17 11:00","2018","04","17","11:00","8.9","","1.8","","61","","","","9","","10","","48.3","","100.56","","","","","","Rain Showers"
"-125.27","49.95","CAMPBELL RIVER A","1021267","2018-04-17 12:00","2018","04","17","12:00","10.8","","1.8","","54","","","","12","","17","","48.3","","100.59","","","","","","NA"
"-125.27","49.95","CAMPBELL RIVER A","1021267","2018-04-17 13:00","2018","04","17","13:00","11.6","","1.5","","50","","","","15","","17","","48.3","","100.63","","","","","","Cloudy"
"-125.27","49.95","CAMPBELL RIVER A","1021267","2018-04-17 14:00","2018","04","17","14:00","11.3","","0.5","","47","","","","15","","16","","48.3","","100.70","","","","","","NA"
"-125.27","49.95","CAMPBELL RIVER A","1021267","2018-04-17 15:00","2018","04","17","15:00","10.7","","0.2","","48","","","","6","","17","","48.3","","100.74","","","","","","NA"
"-125.27","49.95","CAMPBELL RIVER A","1021267","2018-04-17 16:00","2018","04","17","16:00","7.9","","3.3","","73","","","","6","","10","","32.2","","100.81","","","","","","Rain Showers"
"-125.27","49.95","CAMPBELL RIVER A","1021267","2018-04-17 17:00","2018","04","17","17:00","8.1","","4.5","","78","","","","13","","8","","32.2","","100.81","","","","","","Rain Showers"
"-125.27","49.95","CAMPBELL RIVER A","1021267","2018-04-17 18:00","2018","04","17","18:00","8.2","","5.0","","81","","","","22","","3","","48.3","","100.83","","","","","","NA"
"-125.27","49.95","CAMPBELL RIVER A","1021267","2018-04-17 19:00","2018","04","17","19:00","6.8","","5.1","","89","","","","21","","5","","48.3","","100.85","","","","","","Cloudy"
"-125.27","49.95","CAMPBELL RIVER A","1021267","2018-04-17 20:00","2018","04","17","20:00","5.8","","5.2","","96","","","","25","","5","","48.3","","100.89","","","","","","NA"
"-125.27","49.95","CAMPBELL RIVER A","1021267","2018-04-17 21:00","2018","04","17","21:00"
"-125.27","49.95","CAMPBELL RIVER A","1021267","2018-04-17 22:00","2018","04","17","22:00"
"-125.27","49.95","CAMPBELL RIVER A","1021267","2018-04-17 23:00","2018","04","17","23:00"
"-125.27","49.95","CAMPBELL RIVER A","1021267","2018-04-18 00:00","2018","04","18","00:00"
"-125.27","49.95","CAMPBELL RIVER A","1021267","2018-04-18 01:00","2018","04","18","01:00"
"-125.27","49.95","CAMPBELL RIVER A","1021267","2018-04-18 02:00","2018","04","18","02:00"
"-125.27","49.95","CAMPBELL RIVER A","1021267","2018-04-18 03:00","2018","04","18","03:00"
"-125.27","49.95","CAMPBELL RIVER A","1021267","2018-04-18 04:00","2018","04","18","04:00"
"-125.27","49.95","CAMPBELL RIVER A","1021267","2018-04-18 05:00","2018","04","18","05:00","3.2","","2.8","","97","","","","31","","5","","32.2","","101.12","","","","","","NA"
"-125.27","49.95","CAMPBELL RIVER A","1021267","2018-04-18 06:00","2018","04","18","06:00","4.2","","3.4","","95","","","","29","","4","","24.1","","101.14","","","","","","NA"
"-125.27","49.95","CAMPBELL RIVER A","1021267","2018-04-18 07:00","2018","04","18","07:00","5.5","","4.3","","92","","","","27","","4","","24.1","","101.17","","","","","","Cloudy"
"-125.27","49.95","CAMPBELL RIVER A","1021267","2018-04-18 08:00","2018","04","18","08:00","6.5","","4.5","","87","","","","4","","3","","32.2","","101.18","","","","","","NA"
"-125.27","49.95","CAMPBELL RIVER A","1021267","2018-04-18 09:00","2018","04","18","09:00","7.7","","4.4","","79","","","","13","","4","","40.2","","101.16","","","","","","NA"
"-125.27","49.95","CAMPBELL RIVER A","1021267","2018-04-18 10:00","2018","04","18","10:00","9.0","","3.9","","70","","","","10","","7","","32.2","","101.15","","","","","","Mostly Cloudy"
"-125.27","49.95","CAMPBELL RIVER A","1021267","2018-04-18 11:00","2018","04","18","11:00","10.2","","3.6","","63","","","","7","","17","","48.3","","101.15","","","","","","NA"
"-125.27","49.95","CAMPBELL RIVER A","1021267","2018-04-18 12:00","2018","04","18","12:00","11.6","","4.1","","60","","","","7","","15","","48.3","","101.13","","","","","","NA"
"-125.27","49.95","CAMPBELL RIVER A","1021267","2018-04-18 13:00","2018","04","18","13:00","11.1","","2.0","","53","","","","9","","10","","48.3","","101.12","","","","","","Mostly Cloudy"
"-125.27","49.95","CAMPBELL RIVER A","1021267","2018-04-18 14:00","2018","04","18","14:00","12.0","","1.8","","49","","","","9","","10","","48.3","","101.09","","","","","","NA"
"-125.27","49.95","CAMPBELL RIVER A","1021267","2018-04-18 15:00","2018","04","18","15:00","12.8","","2.9","","51","","","","14","","13","","48.3","","101.03","","","","","","NA"
"-125.27","49.95","CAMPBELL RIVER A","1021267","2018-04-18 16:00","2018","04","18","16:00","12.7","","1.7","","47","","","","3","","5","","48.3","","100.98","","","","","","Mostly Cloudy"
"-125.27","49.95","CAMPBELL RIVER A","1021267","2018-04-18 17:00","2018","04","18","17:00","12.3","","-1.6","","38","","","","4","","8","","48.3","","100.96","","","","","","NA"
"-125.27","49.95","CAMPBELL RIVER A","1021267","2018-04-18 18:00","2018","04","18","18:00","11.9","","-2.3","","37","","","","6","","5","","48.3","","100.94","","","","","","NA"
"-125.27","49.95","CAMPBELL RIVER A","1021267","2018-04-18 19:00","2018","04","18","19:00","7.3","","1.7","","68","","","","13","","3","","48.3","","100.92","","","","","","Clear"
"-125.27","49.95","CAMPBELL RIVER A","1021267","2018-04-18 20:00","2018","04","18","20:00","5.0","","2.5","","84","","","","30","","7","","48.3","","100.96","","","","","","NA"
"-125.27","49.95","CAMPBELL RIVER A","1021267","2018-04-18 21:00","2018","04","18","21:00"
"-125.27","49.95","CAMPBELL RIVER A","1021267","2018-04-18 22:00","2018","04","18","22:00"
"-125.27","49.95","CAMPBELL RIVER A","1021267","2018-04-18 23:00","2018","04","18","23:00"
"-125.27","49.95","CAMPBELL RIVER A","1021267","2018-04-19 00:00","2018","04","19","00:00"
"-125.27","49.95","CAMPBELL RIVER A","1021267","2018-04-19 01:00","2018","04","19","01:00"
"-125.27","49.95","CAMPBELL RIVER A","1021267","2018-04-19 02:00","2018","04","19","02:00"
"-125.27","49.95","CAMPBELL RIVER A","1021267","2018-04-19 03:00","2018","04","19","03:00"
"-125.27","49.95","CAMPBELL RIVER A","1021267","2018-04-19 04:00","2018","04","19","04:00"
"-125.27","49.95","CAMPBELL RIVER A","1021267","2018-04-19 05:00","2018","04","19","05:00","-1.6","","-2.0","","97","","","","32","","10","","48.3","","101.07","","","","-5","","NA"
"-125.27","49.95","CAMPBELL RIVER A","1021267","2018-04-19 06:00","2018","04","19","06:00","-0.1","","-0.5","","97","","","","30","","4","","48.3","","101.10","","","","-1","","NA"
"-125.27","49.95","CAMPBELL RIVER A","1021267","2018-04-19 07:00","2018","04","19","07:00","2.6","","2.1","","96","","","","32","","4","","48.3","","101.12","","","","","","Cloudy"
"-125.27","49.95","CAMPBELL RIVER A","1021267","2018-04-19 08:00","2018","04","19","08:00","6.0","","2.4","","78","","","","34","","3","","48.3","","101.15","","","","","","NA"
"-125.27","49.95","CAMPBELL RIVER A","1021267","2018-04-19 09:00","2018","04","19","09:00","8.1","","2.6","","68","","","","36","","3","","48.3","","101.16","","","","","","NA"
"-125.27","49.95","CAMPBELL RIVER A","1021267","2018-04-19 10:00","2018","04","19","10:00","9.4","","3.0","","64","","","","36","","2","","48.3","","101.16","","","","","","Cloudy"
"-125.27","49.95","CAMPBELL RIVER A","1021267","2018-04-19 11:00","2018","04","19","11:00","10.1","","3.2","","62","","","","12","","8","","48.3","","101.15","","","","","","NA"
"-125.27","49.95","CAMPBELL RIVER A","1021267","2018-04-19 12:00","2018","04","19","12:00","11.4","","3.5","","58","","","","7","","12","","48.3","","101.12","","","","","","NA"
"-125.27","49.95","CAMPBELL RIVER A","1021267","2018-04-19 13:00","2018","04","19","13:00","12.3","","3.0","","53","","","","8","","16","","48.3","","101.07","","","","","","Mostly Cloudy"
"-125.27","49.95","CAMPBELL RIVER A","1021267","2018-04-19 14:00","2018","04","19","14:00","12.4","","1.7","","48","","","","9","","18","","48.3","","101.07","","","","","","NA"
"-125.27","49.95","CAMPBELL RIVER A","1021267","2018-04-19 15:00","2018","04","19","15:00","12.1","","1.8","","49","","","","11","","14","","48.3","","101.03","","","","","","NA"
"-125.27","49.95","CAMPBELL RIVER A","1021267","2018-04-19 16:00","2018","04","19","16:00","11.7","","3.5","","57","","","","14","","5","","48.3","","101.03","","","","","","Cloudy"
"-125.27","49.95","CAMPBELL RIVER A","1021267","2018-04-19 17:00","2018","04","19","17:00","11.3","","3.6","","59","","","","36","","1","","48.3","","101.04","","","","","","NA"
"-125.27","49.95","CAMPBELL RIVER A","1021267","2018-04-19 18:00","2018","04","19","18:00","10.5","","4.3","","66","","","","8","","8","","48.3","","101.04","","","","","","NA"
"-125.27","49.95","CAMPBELL RIVER A","1021267","2018-04-19 19:00","2018","04","19","19:00","9.7","","4.1","","68","","","","36","","2","","48.3","","101.03","","","","","","Cloudy"
"-125.27","49.95","CAMPBELL RIVER A","1021267","2018-04-19 20:00","2018","04","19","20:00","8.0","","5.5","","84","","","","36","","3","","24.1","","101.05","","","","","","NA"
"-125.27","49.95","CAMPBELL RIVER A","1021267","2018-04-19 21:00","2018","04","19","21:00"
"-125.27","49.95","CAMPBELL RIVER A","1021267","2018-04-19 22:00","2018","04","19","22:00"
"-125.27","49.95","CAMPBELL RIVER A","1021267","2018-04-19 23:00","2018","04","19","23:00"
"-125.27","49.95","CAMPBELL RIVER A","1021267","2018-04-20 00:00","2018","04","20","00:00"
"-125.27","49.95","CAMPBELL RIVER A","1021267","2018-04-20 01:00","2018","04","20","01:00"
"-125.27","49.95","CAMPBELL RIVER A","1021267","2018-04-20 02:00","2018","04","20","02:00"
"-125.27","49.95","CAMPBELL RIVER A","1021267","2018-04-20 03:00","2018","04","20","03:00"
"-125.27","49.95","CAMPBELL RIVER A","1021267","2018-04-20 04:00","2018","04","20","04:00"
"-125.27","49.95","CAMPBELL RIVER A","1021267","2018-04-20 05:00","2018","04","20","05:00","5.5","","5.1","","97","","","","30","","4","","32.2","","100.95","","","","","","Rain"
"-125.27","49.95","CAMPBELL RIVER A","1021267","2018-04-20 06:00","2018","04","20","06:00","5.8","","5.4","","98","","","","30","","4","","24.1","","100.97","","","","","","NA"
"-125.27","49.95","CAMPBELL RIVER A","1021267","2018-04-20 07:00","2018","04","20","07:00","6.4","","6.0","","97","","","","36","","3","","24.1","","100.96","","","","","","Rain"
"-125.27","49.95","CAMPBELL RIVER A","1021267","2018-04-20 08:00","2018","04","20","08:00","7.4","","6.5","","94","","","","10","","7","","32.2","","100.93","","","","","","NA"
"-125.27","49.95","CAMPBELL RIVER A","1021267","2018-04-20 09:00","2018","04","20","09:00","8.6","","6.7","","87","","","","10","","13","","32.2","","100.91","","","","","","NA"
"-125.27","49.95","CAMPBELL RIVER A","1021267","2018-04-20 10:00","2018","04","20","10:00","9.0","","6.4","","84","","","","9","","17","","48.3","","100.86","","","","","","Cloudy"
"-125.27","49.95","CAMPBELL RIVER A","1021267","2018-04-20 11:00","2018","04","20","11:00","9.4","","6.4","","81","","","","13","","19","","48.3","","100.80","","","","","","NA"
"-125.27","49.95","CAMPBELL RIVER A","1021267","2018-04-20 12:00","2018","04","20","12:00","9.6","","6.7","","82","","","","12","","20","","48.3","","100.73","","","","","","NA"
"-125.27","49.95","CAMPBELL RIVER A","1021267","2018-04-20 13:00","2018","04","20","13:00","10.5","","5.1","","69","","","","12","","25","","48.3","","100.68","","","","","","Cloudy"
"-125.27","49.95","CAMPBELL RIVER A","1021267","2018-04-20 14:00","2018","04","20","14:00","11.2","","4.5","","63","","","","12","","26","","48.3","","100.63","","","","","","NA"
"-125.27","49.95","CAMPBELL RIVER A","1021267","2018-04-20 15:00","2018","04","20","15:00","11.0","","4.3","","63","","","","14","","33","","48.3","","100.60","","","","","","NA"
"-125.27","49.95","CAMPBELL RIVER A","1021267","2018-04-20 16:00","2018","04","20","16:00","10.1","","4.9","","70","","","","12","","20","","32.2","","100.57","","","","","","Cloudy"
"-125.27","49.95","CAMPBELL RIVER A","1021267","2018-04-20 17:00","2018","04","20","17:00","9.8","","4.4","","69","","","","12","","20","","32.2","","100.52","","","","","","NA"
"-125.27","49.95","CAMPBELL RIVER A","1021267","2018-04-20 18:00","2018","04","20","18:00","8.8","","4.0","","72","","","","12","","27","","32.2","","100.45","","","","","","NA"
"-125.27","49.95","CAMPBELL RIVER A","1021267","2018-04-20 19:00","2018","04","20","19:00","8.1","","5.0","","81","","","","13","","31","","32.2","","100.38","","","","","","Mostly Cloudy"
"-125.27","49.95","CAMPBELL RIVER A","1021267","2018-04-20 20:00","2018","04","20","20:00","7.4","","5.6","","88","","","","12","","21","","24.1","","100.33","","","","","","Rain Showers"
"-125.27","49.95","CAMPBELL RIVER A","1021267","2018-04-20 21:00","2018","04","20","21:00"
"-125.27","49.95","CAMPBELL RIVER A","1021267","2018-04-20 22:00","2018","04","20","22:00"
"-125.27","49.95","CAMPBELL RIVER A","1021267","2018-04-20 23:00","2018","04","20","23:00"
"-125.27","49.95","CAMPBELL RIVER A","1021267","2018-04-21 00:00","2018","04","21","00:00"
"-125.27","49.95","CAMPBELL RIVER A","1021267","2018-04-21 01:00","2018","04","21","01:00"
"-125.27","49.95","CAMPBELL RIVER A","1021267","2018-04-21 02:00","2018","04","21","02:00"
"-125.27","49.95","CAMPBELL RIVER A","1021267","2018-04-21 03:00","2018","04","21","03:00"
"-125.27","49.95","CAMPBELL RIVER A","1021267","2018-04-21 04:00","2018","04","21","04:00"
"-125.27","49.95","CAMPBELL RIVER A","1021267","2018-04-21 05:00","2018","04","21","05:00","4.7","","2.7","","87","","","","30","","18","","48.3","","100.68","","","","","","NA"
"-125.27","49.95","CAMPBELL RIVER A","1021267","2018-04-21 06:00","2018","04","21","06:00","4.2","","2.1","","86","","","","28","","9","","48.3","","100.87","","","","","","NA"
"-125.27","49.95","CAMPBELL RIVER A","1021267","2018-04-21 07:00","2018","04","21","07:00","7.0","","2.2","","71","","","","36","","9","","48.3","","101.01","","","","","","Clear"
"-125.27","49.95","CAMPBELL RIVER A","1021267","2018-04-21 08:00","2018","04","21","08:00","8.4","","2.2","","65","","","","33","","10","","48.3","","101.15","","","","","","NA"
"-125.27","49.95","CAMPBELL RIVER A","1021267","2018-04-21 09:00","2018","04","21","09:00","9.4","","2.7","","63","","","","14","","16","","48.3","","101.24","","","","","","NA"
"-125.27","49.95","CAMPBELL RIVER A","1021267","2018-04-21 10:00","2018","04","21","10:00","9.1","","2.1","","62","","","","13","","14","","48.3","","101.32","","","","","","Mostly Cloudy"
"-125.27","49.95","CAMPBELL RIVER A","1021267","2018-04-21 11:00","2018","04","21","11:00","10.0","","2.4","","59","","","","12","","14","","48.3","","101.37","","","","","","NA"
"-125.27","49.95","CAMPBELL RIVER A","1021267","2018-04-21 12:00","2018","04","21","12:00","9.6","","1.5","","57","","","","7","","13","","48.3","","101.42","","","","","","NA"
"-125.27","49.95","CAMPBELL RIVER A","1021267","2018-04-21 13:00","2018","04","21","13:00","10.2","","1.7","","55","","","","8","","13","","48.3","","101.48","","","","","","Mostly Cloudy"
"-125.27","49.95","CAMPBELL RIVER A","1021267","2018-04-21 14:00","2018","04","21","14:00","10.7","","-0.6","","45","","","","11","","14","","48.3","","101.49","","","","","","NA"
"-125.27","49.95","CAMPBELL RIVER A","1021267","2018-04-21 15:00","2018","04","21","15:00","10.8","","0.0","","47","","","","8","","14","","48.3","","101.51","","","","","","NA"
"-125.27","49.95","CAMPBELL RIVER A","1021267","2018-04-21 16:00","2018","04","21","16:00","10.3","","2.3","","58","","","","1","","5","","48.3","","101.55","","","","","","Mostly Cloudy"
"-125.27","49.95","CAMPBELL RIVER A","1021267","2018-04-21 17:00","2018","04","21","17:00","10.2","","3.3","","62","","","","35","","15","","48.3","","101.57","","","","","","NA"
"-125.27","49.95","CAMPBELL RIVER A","1021267","2018-04-21 18:00","2018","04","21","18:00","8.9","","4.3","","73","","","","35","","12","","48.3","","101.63","","","","","","NA"
"-125.27","49.95","CAMPBELL RIVER A","1021267","2018-04-21 19:00","2018","04","21","19:00","7.3","","3.8","","78","","","","31","","9","","48.3","","101.67","","","","","","Mostly Cloudy"
"-125.27","49.95","CAMPBELL RIVER A","1021267","2018-04-21 20:00","2018","04","21","20:00","5.8","","3.1","","83","","","","31","","4","","24.1","","101.71","","","","","","NA"
"-125.27","49.95","CAMPBELL RIVER A","1021267","2018-04-21 21:00","2018","04","21","21:00"
"-125.27","49.95","CAMPBELL RIVER A","1021267","2018-04-21 22:00","2018","04","21","22:00"
"-125.27","49.95","CAMPBELL RIVER A","1021267","2018-04-21 23:00","2018","04","21","23:00"
"-125.27","49.95","CAMPBELL RIVER A","1021267","2018-04-22 00:00","2018","04","22","00:00"
"-125.27","49.95","CAMPBELL RIVER A","1021267","2018-04-22 01:00","2018","04","22","01:00"
"-125.27","49.95","CAMPBELL RIVER A","1021267","2018-04-22 02:00","2018","04","22","02:00"
"-125.27","49.95","CAMPBELL RIVER A","1021267","2018-04-22 03:00","2018","04","22","03:00"
"-125.27","49.95","CAMPBELL RIVER A","1021267","2018-04-22 04:00","2018","04","22","04:00"
"-125.27","49.95","CAMPBELL RIVER A","1021267","2018-04-22 05:00","2018","04","22","05:00","0.7","","0.2","","97","","","","29","","8","","48.3","","101.75","","","","","","NA"
"-125.27","49.95","CAMPBELL RIVER A","1021267","2018-04-22 06:00","2018","04","22","06:00","1.3","","0.8","","97","","","","27","","8","","48.3","","101.75","","","","","","NA"
"-125.27","49.95","CAMPBELL RIVER A","1021267","2018-04-22 07:00","2018","04","22","07:00","4.4","","2.0","","84","","","","31","","9","","48.3","","101.78","","","","","","Clear"
"-125.27","49.95","CAMPBELL RIVER A","1021267","2018-04-22 08:00","2018","04","22","08:00","6.6","","2.0","","73","","","","33","","10","","48.3","","101.77","","","","","","NA"
"-125.27","49.95","CAMPBELL RIVER A","1021267","2018-04-22 09:00","2018","04","22","09:00","8.9","","2.0","","61","","","","32","","14","","48.3","","101.75","","","","","","NA"
"-125.27","49.95","CAMPBELL RIVER A","1021267","2018-04-22 10:00","2018","04","22","10:00","9.9","","2.9","","62","","","","33","","8","","48.3","","101.72","","","","","","Mainly Clear"
"-125.27","49.95","CAMPBELL RIVER A","1021267","2018-04-22 11:00","2018","04","22","11:00","10.8","","3.7","","61","","","","7","","7","","48.3","","101.72","","","","","","NA"
"-125.27","49.95","CAMPBELL RIVER A","1021267","2018-04-22 12:00","2018","04","22","12:00","11.5","","2.7","","54","","","","7","","13","","48.3","","101.68","","","","","","NA"
"-125.27","49.95","CAMPBELL RIVER A","1021267","2018-04-22 13:00","2018","04","22","13:00","12.5","","1.6","","47","","","","10","","14","","48.3","","101.67","","","","","","Mainly Clear"
"-125.27","49.95","CAMPBELL RIVER A","1021267","2018-04-22 14:00","2018","04","22","14:00","13.1","","-0.3","","40","","","","9","","10","","48.3","","101.64","","","","","","NA"
"-125.27","49.95","CAMPBELL RIVER A","1021267","2018-04-22 15:00","2018","04","22","15:00","13.4","","-1.7","","35","","","","8","","12","","48.3","","101.60","","","","","","NA"
"-125.27","49.95","CAMPBELL RIVER A","1021267","2018-04-22 16:00","2018","04","22","16:00","13.7","","-3.6","","30","","","","6","","11","","48.3","","101.56","","","","","","Mainly Clear"
"-125.27","49.95","CAMPBELL RIVER A","1021267","2018-04-22 17:00","2018","04","22","17:00","13.7","","-6.5","","24","","","","13","","3","","48.3","","101.52","","","","","","NA"
"-125.27","49.95","CAMPBELL RIVER A","1021267","2018-04-22 18:00","2018","04","22","18:00","13.7","","-5.3","","26","","","","36","","2","","48.3","","101.48","","","","","","NA"
"-125.27","49.95","CAMPBELL RIVER A","1021267","2018-04-22 19:00","2018","04","22","19:00","8.8","","-2.3","","45","","","","36","","1","","48.3","","101.46","","","","","","Mainly Clear"
"-125.27","49.95","CAMPBELL RIVER A","1021267","2018-04-22 20:00","2018","04","22","20:00","6.7","","1.7","","71","","","","31","","4","","48.3","","101.48","","","","","","NA"
"-125.27","49.95","CAMPBELL RIVER A","1021267","2018-04-22 21:00","2018","04","22","21:00"
"-125.27","49.95","CAMPBELL RIVER A","1021267","2018-04-22 22:00","2018","04","22","22:00"
"-125.27","49.95","CAMPBELL RIVER A","1021267","2018-04-22 23:00","2018","04","22","23:00"
"-125.27","49.95","CAMPBELL RIVER A","1021267","2018-04-23 00:00","2018","04","23","00:00"
"-125.27","49.95","CAMPBELL RIVER A","1021267","2018-04-23 01:00","2018","04","23","01:00"
"-125.27","49.95","CAMPBELL RIVER A","1021267","2018-04-23 02:00","2018","04","23","02:00"
"-125.27","49.95","CAMPBELL RIVER A","1021267","2018-04-23 03:00","2018","04","23","03:00"
"-125.27","49.95","CAMPBELL RIVER A","1021267","2018-04-23 04:00","2018","04","23","04:00"
"-125.27","49.95","CAMPBELL RIVER A","1021267","2018-04-23 05:00","2018","04","23","05:00","-1.9","","-2.4","","96","","","","27","","4","","48.3","","101.60","","","","-3","","NA"
"-125.27","49.95","CAMPBELL RIVER A","1021267","2018-04-23 06:00","2018","04","23","06:00","-0.8","","-1.3","","96","","","","29","","5","","48.3","","101.63","","","","-2","","NA"
"-125.27","49.95","CAMPBELL RIVER A","1021267","2018-04-23 07:00","2018","04","23","07:00","5.0","","3.0","","87","","","","31","","4","","48.3","","101.66","","","","","","Mostly Cloudy"
"-125.27","49.95","CAMPBELL RIVER A","1021267","2018-04-23 08:00","2018","04","23","08:00","8.9","","1.3","","59","","","","36","","2","","48.3","","101.67","","","","","","NA"
"-125.27","49.95","CAMPBELL RIVER A","1021267","2018-04-23 09:00","2018","04","23","09:00","11.3","","1.4","","50","","","","0","","1","","48.3","","101.64","","","","","","NA"
"-125.27","49.95","CAMPBELL RIVER A","1021267","2018-04-23 10:00","2018","04","23","10:00","12.7","","1.7","","47","","","","3","","4","","48.3","","101.63","","","","","","Mostly Cloudy"
"-125.27","49.95","CAMPBELL RIVER A","1021267","2018-04-23 11:00","2018","04","23","11:00","14.1","","0.4","","39","","","","9","","12","","48.3","","101.60","","","","","","NA"
"-125.27","49.95","CAMPBELL RIVER A","1021267","2018-04-23 12:00","2018","04","23","12:00","14.5","","0.9","","39","","","","7","","11","","48.3","","101.54","","","","","","NA"
"-125.27","49.95","CAMPBELL RIVER A","1021267","2018-04-23 13:00","2018","04","23","13:00","15.7","","-0.4","","33","","","","7","","14","","48.3","","101.49","","","","","","Mostly Cloudy"
"-125.27","49.95","CAMPBELL RIVER A","1021267","2018-04-23 14:00","2018","04","23","14:00","17.0","","-1.9","","27","","","","6","","13","","48.3","","101.47","","","","","","NA"
"-125.27","49.95","CAMPBELL RIVER A","1021267","2018-04-23 15:00","2018","04","23","15:00","17.5","","-1.1","","28","","","","8","","12","","48.3","","101.40","","","","","","NA"
"-125.27","49.95","CAMPBELL RIVER A","1021267","2018-04-23 16:00","2018","04","23","16:00","17.6","","-2.1","","26","","","","8","","10","","48.3","","101.34","","","","","","Mostly Cloudy"
"-125.27","49.95","CAMPBELL RIVER A","1021267","2018-04-23 17:00","2018","04","23","17:00","17.7","","-1.5","","27","","","","9","","10","","48.3","","101.29","","","","","","NA"
"-125.27","49.95","CAMPBELL RIVER A","1021267","2018-04-23 18:00","2018","04","23","18:00","16.8","","-2.7","","26","","","","6","","6","","48.3","","101.21","","","","","","NA"
"-125.27","49.95","CAMPBELL RIVER A","1021267","2018-04-23 19:00","2018","04","23","19:00","11.4","","3.6","","58","","","","27","","3","","48.3","","101.16","","","","","","Mostly Cloudy"
"-125.27","49.95","CAMPBELL RIVER A","1021267","2018-04-23 20:00","2018","04","23","20:00","9.3","","3.7","","68","","","","30","","5","","48.3","","101.18","","","","","","NA"
"-125.27","49.95","CAMPBELL RIVER A","1021267","2018-04-23 21:00","2018","04","23","21:00"
"-125.27","49.95","CAMPBELL RIVER A","1021267","2018-04-23 22:00","2018","04","23","22:00"
"-125.27","49.95","CAMPBELL RIVER A","1021267","2018-04-23 23:00","2018","04","23","23:00"
"-125.27","49.95","CAMPBELL RIVER A","1021267","2018-04-24 00:00","2018","04","24","00:00"
"-125.27","49.95","CAMPBELL RIVER A","1021267","2018-04-24 01:00","2018","04","24","01:00"
"-125.27","49.95","CAMPBELL RIVER A","1021267","2018-04-24 02:00","2018","04","24","02:00"
"-125.27","49.95","CAMPBELL RIVER A","1021267","2018-04-24 03:00","2018","04","24","03:00"
"-125.27","49.95","CAMPBELL RIVER A","1021267","2018-04-24 04:00","2018","04","24","04:00"
"-125.27","49.95","CAMPBELL RIVER A","1021267","2018-04-24 05:00","2018","04","24","05:00","-0.1","","-0.5","","97","","","","26","","6","","48.3","","101.19","","","","-2","","NA"
"-125.27","49.95","CAMPBELL RIVER A","1021267","2018-04-24 06:00","2018","04","24","06:00","0.8","","0.4","","97","","","","26","","3","","48.3","","101.20","","","","","","NA"
"-125.27","49.95","CAMPBELL RIVER A","1021267","2018-04-24 07:00","2018","04","24","07:00","7.2","","4.7","","85","","","","31","","7","","48.3","","101.23","","","","","","Mostly Cloudy"
"-125.27","49.95","CAMPBELL RIVER A","1021267","2018-04-24 08:00","2018","04","24","08:00","11.1","","2.4","","55","","","","32","","8","","48.3","","101.21","","","","","","NA"
"-125.27","49.95","CAMPBELL RIVER A","1021267","2018-04-24 09:00","2018","04","24","09:00","14.1","","2.5","","45","","","","32","","8","","48.3","","101.18","","","","","","NA"
"-125.27","49.95","CAMPBELL RIVER A","1021267","2018-04-24 10:00","2018","04","24","10:00","15.3","","4.5","","48","","","","9","","7","","48.3","","101.16","","","","","","Mostly Cloudy"
"-125.27","49.95","CAMPBELL RIVER A","1021267","2018-04-24 11:00","2018","04","24","11:00","16.9","","4.1","","42","","","","5","","8","","48.3","","101.12","","","","","","NA"
"-125.27","49.95","CAMPBELL RIVER A","1021267","2018-04-24 12:00","2018","04","24","12:00","18.1","","3.2","","37","","","","6","","8","","48.3","","101.05","","","","","","NA"
"-125.27","49.95","CAMPBELL RIVER A","1021267","2018-04-24 13:00","2018","04","24","13:00","18.8","","2.0","","32","","","","10","","10","","48.3","","101.00","","","","","","Mostly Cloudy"
"-125.27","49.95","CAMPBELL RIVER A","1021267","2018-04-24 14:00","2018","04","24","14:00","19.6","","3.3","","34","","","","6","","9","","48.3","","100.95","","","","","","NA"
"-125.27","49.95","CAMPBELL RIVER A","1021267","2018-04-24 15:00","2018","04","24","15:00","20.7","","1.4","","27","","","","8","","11","","48.3","","100.91","","","","","","NA"
"-125.27","49.95","CAMPBELL RIVER A","1021267","2018-04-24 16:00","2018","04","24","16:00","21.2","","-3.3","","19","","","","7","","12","","48.3","","100.85","","","","","","Mostly Cloudy"
"-125.27","49.95","CAMPBELL RIVER A","1021267","2018-04-24 17:00","2018","04","24","17:00","21.4","","-0.1","","24","","","","3","","9","","48.3","","100.79","","","","","","NA"
"-125.27","49.95","CAMPBELL RIVER A","1021267","2018-04-24 18:00","2018","04","24","18:00","20.3","","2.5","","30","","","","35","","12","","48.3","","100.73","","","","","","NA"
"-125.27","49.95","CAMPBELL RIVER A","1021267","2018-04-24 19:00","2018","04","24","19:00","17.2","","2.4","","37","","","","30","","13","","48.3","","100.71","","","","","","Mainly Clear"
"-125.27","49.95","CAMPBELL RIVER A","1021267","2018-04-24 20:00","2018","04","24","20:00","15.1","","0.8","","38","","","","29","","13","","48.3","","100.73","","","","","","NA"
"-125.27","49.95","CAMPBELL RIVER A","1021267","2018-04-24 21:00","2018","04","24","21:00"
"-125.27","49.95","CAMPBELL RIVER A","1021267","2018-04-24 22:00","2018","04","24","22:00"
"-125.27","49.95","CAMPBELL RIVER A","1021267","2018-04-24 23:00","2018","04","24","23:00"
"-125.27","49.95","CAMPBELL RIVER A","1021267","2018-04-25 00:00","2018","04","25","00:00"
"-125.27","49.95","CAMPBELL RIVER A","1021267","2018-04-25 01:00","2018","04","25","01:00"
"-125.27","49.95","CAMPBELL RIVER A","1021267","2018-04-25 02:00","2018","04","25","02:00"
"-125.27","49.95","CAMPBELL RIVER A","1021267","2018-04-25 03:00","2018","04","25","03:00"
"-125.27","49.95","CAMPBELL RIVER A","1021267","2018-04-25 04:00","2018","04","25","04:00"
"-125.27","49.95","CAMPBELL RIVER A","1021267","2018-04-25 05:00","2018","04","25","05:00","8.2","","3.0","","70","","","","30","","20","","48.3","","100.80","","","","","","NA"
"-125.27","49.95","CAMPBELL RIVER A","1021267","2018-04-25 06:00","2018","04","25","06:00","8.2","","3.3","","71","","","","29","","13","","48.3","","100.87","","","","","","NA"
"-125.27","49.95","CAMPBELL RIVER A","1021267","2018-04-25 07:00","2018","04","25","07:00","10.5","","3.6","","62","","","","30","","19","","48.3","","100.91","","","","","","Mainly Clear"
"-125.27","49.95","CAMPBELL RIVER A","1021267","2018-04-25 08:00","2018","04","25","08:00","13.2","","4.4","","55","","","","31","","18","","48.3","","100.91","","","","","","NA"
"-125.27","49.95","CAMPBELL RIVER A","1021267","2018-04-25 09:00","2018","04","25","09:00","15.2","","4.9","","50","","","","33","","17","","48.3","","100.92","","","","","","NA"
"-125.27","49.95","CAMPBELL RIVER A","1021267","2018-04-25 10:00","2018","04","25","10:00","16.8","","5.9","","48","","","","34","","7","","48.3","","100.93","","","","","","Mainly Clear"
"-125.27","49.95","CAMPBELL RIVER A","1021267","2018-04-25 11:00","2018","04","25","11:00","19.0","","3.5","","36","","","","33","","7","","48.3","","100.90","","","","","","NA"
"-125.27","49.95","CAMPBELL RIVER A","1021267","2018-04-25 12:00","2018","04","25","12:00","20.8","","2.9","","30","","","","36","","10","","48.3","","100.86","","","","","","NA"
"-125.27","49.95","CAMPBELL RIVER A","1021267","2018-04-25 13:00","2018","04","25","13:00","22.1","","3.7","","30","","","","10","","17","","48.3","","100.81","","","","","","Mainly Clear"
"-125.27","49.95","CAMPBELL RIVER A","1021267","2018-04-25 14:00","2018","04","25","14:00","22.9","","2.2","","25","","","","7","","10","","48.3","","100.77","","","","","","NA"
"-125.27","49.95","CAMPBELL RIVER A","1021267","2018-04-25 15:00","2018","04","25","15:00","22.9","","1.0","","23","","","","3","","8","","48.3","","100.73","","","","","","NA"
"-125.27","49.95","CAMPBELL RIVER A","1021267","2018-04-25 16:00","2018","04","25","16:00","23.4","","-1.5","","19","","","","4","","8","","48.3","","100.69","","","","","","Mainly Clear"
"-125.27","49.95","CAMPBELL RIVER A","1021267","2018-04-25 17:00","2018","04","25","17:00","23.2","","-1.8","","19","","","","13","","4","","48.3","","100.62","","","","","","NA"
"-125.27","49.95","CAMPBELL RIVER A","1021267","2018-04-25 18:00","2018","04","25","18:00","22.8","","-3.5","","17","","","","8","","8","","48.3","","100.58","","","","","","NA"
"-125.27","49.95","CAMPBELL RIVER A","1021267","2018-04-25 19:00","2018","04","25","19:00","16.5","","0.5","","33","","","","14","","3","","48.3","","100.55","","","","","","Mainly Clear"
"-125.27","49.95","CAMPBELL RIVER A","1021267","2018-04-25 20:00","2018","04","25","20:00","12.3","","5.2","","61","","","","31","","5","","48.3","","100.58","","","","","","NA"
"-125.27","49.95","CAMPBELL RIVER A","1021267","2018-04-25 21:00","2018","04","25","21:00"
"-125.27","49.95","CAMPBELL RIVER A","1021267","2018-04-25 22:00","2018","04","25","22:00"
"-125.27","49.95","CAMPBELL RIVER A","1021267","2018-04-25 23:00","2018","04","25","23:00"
"-125.27","49.95","CAMPBELL RIVER A","1021267","2018-04-26 00:00","2018","04","26","00:00"
"-125.27","49.95","CAMPBELL RIVER A","1021267","2018-04-26 01:00","2018","04","26","01:00"
"-125.27","49.95","CAMPBELL RIVER A","1021267","2018-04-26 02:00","2018","04","26","02:00"
"-125.27","49.95","CAMPBELL RIVER A","1021267","2018-04-26 03:00","2018","04","26","03:00"
"-125.27","49.95","CAMPBELL RIVER A","1021267","2018-04-26 04:00","2018","04","26","04:00"
"-125.27","49.95","CAMPBELL RIVER A","1021267","2018-04-26 05:00","2018","04","26","05:00","1.6","","0.9","","95","","","","28","","4","","48.3","","100.58","","","","","","NA"
"-125.27","49.95","CAMPBELL RIVER A","1021267","2018-04-26 06:00","2018","04","26","06:00","3.3","","2.7","","96","","","","33","","4","","48.3","","100.56","","","","","","NA"
"-125.27","49.95","CAMPBELL RIVER A","1021267","2018-04-26 07:00","2018","04","26","07:00","9.4","","6.9","","84","","","","29","","4","","48.3","","100.57","","","","","","Clear"
"-125.27","49.95","CAMPBELL RIVER A","1021267","2018-04-26 08:00","2018","04","26","08:00","14.3","","3.5","","48","","","","34","","5","","48.3","","100.55","","","","","","NA"
"-125.27","49.95","CAMPBELL RIVER A","1021267","2018-04-26 09:00","2018","04","26","09:00","17.5","","3.3","","38","","","","36","","3","","48.3","","100.52","","","","","","NA"
"-125.27","49.95","CAMPBELL RIVER A","1021267","2018-04-26 10:00","2018","04","26","10:00","20.0","","5.1","","37","","","","7","","11","","48.3","","100.48","","","","","","Clear"
"-125.27","49.95","CAMPBELL RIVER A","1021267","2018-04-26 11:00","2018","04","26","11:00","20.2","","3.0","","32","","","","2","","5","","48.3","","100.47","","","","","","NA"
"-125.27","49.95","CAMPBELL RIVER A","1021267","2018-04-26 12:00","2018","04","26","12:00","21.5","","3.4","","30","","","","13","","9","","48.3","","100.41","","","","","","NA"
"-125.27","49.95","CAMPBELL RIVER A","1021267","2018-04-26 13:00","2018","04","26","13:00","23.2","","1.8","","24","","","","8","","10","","48.3","","100.37","","","","","","Clear"
"-125.27","49.95","CAMPBELL RIVER A","1021267","2018-04-26 14:00","2018","04","26","14:00","23.1","","2.1","","25","","","","11","","12","","48.3","","100.30","","","","","","NA"
"-125.27","49.95","CAMPBELL RIVER A","1021267","2018-04-26 15:00","2018","04","26","15:00","23.8","","0.6","","21","","","","9","","8","","48.3","","100.22","","","","","","NA"
"-125.27","49.95","CAMPBELL RIVER A","1021267","2018-04-26 16:00","2018","04","26","16:00","24.5","","0.2","","20","","","","9","","9","","48.3","","100.16","","","","","","Clear"
"-125.27","49.95","CAMPBELL RIVER A","1021267","2018-04-26 17:00","2018","04","26","17:00","24.8","","-2.8","","16","","","","9","","8","","48.3","","100.10","","","","","","NA"
"-125.27","49.95","CAMPBELL RIVER A","1021267","2018-04-26 18:00","2018","04","26","18:00","22.9","","4.5","","30","","","","36","","1","","48.3","","100.04","","","","","","NA"
"-125.27","49.95","CAMPBELL RIVER A","1021267","2018-04-26 19:00","2018","04","26","19:00","18.7","","1.3","","31","","","","30","","3","","48.3","","100.01","","","","","","Clear"
"-125.27","49.95","CAMPBELL RIVER A","1021267","2018-04-26 20:00","2018","04","26","20:00","12.9","","7.2","","68","","","","29","","3","","48.3","","100.00","","","","","","NA"
"-125.27","49.95","CAMPBELL RIVER A","1021267","2018-04-26 21:00","2018","04","26","21:00"
"-125.27","49.95","CAMPBELL RIVER A","1021267","2018-04-26 22:00","2018","04","26","22:00"
"-125.27","49.95","CAMPBELL RIVER A","1021267","2018-04-26 23:00","2018","04","26","23:00"
"-125.27","49.95","CAMPBELL RIVER A","1021267","2018-04-27 00:00","2018","04","27","00:00"
"-125.27","49.95","CAMPBELL RIVER A","1021267","2018-04-27 01:00","2018","04","27","01:00"
"-125.27","49.95","CAMPBELL RIVER A","1021267","2018-04-27 02:00","2018","04","27","02:00"
"-125.27","49.95","CAMPBELL RIVER A","1021267","2018-04-27 03:00","2018","04","27","03:00"
"-125.27","49.95","CAMPBELL RIVER A","1021267","2018-04-27 04:00","2018","04","27","04:00"
"-125.27","49.95","CAMPBELL RIVER A","1021267","2018-04-27 05:00","2018","04","27","05:00","3.1","","2.5","","96","","","","30","","5","","48.3","","99.88","","","","","","NA"
"-125.27","49.95","CAMPBELL RIVER A","1021267","2018-04-27 06:00","2018","04","27","06:00","5.0","","4.4","","96","","","","29","","3","","48.3","","99.85","","","","","","NA"
"-125.27","49.95","CAMPBELL RIVER A","1021267","2018-04-27 07:00","2018","04","27","07:00","12.1","","6.7","","69","","","","30","","7","","48.3","","99.82","","","","","","Mainly Clear"
"-125.27","49.95","CAMPBELL RIVER A","1021267","2018-04-27 08:00","2018","04","27","08:00","15.8","","5.4","","50","","","","33","","4","","48.3","","99.79","","","","","","NA"
"-125.27","49.95","CAMPBELL RIVER A","1021267","2018-04-27 09:00","2018","04","27","09:00","19.7","","3.6","","34","","","","32","","10","","48.3","","99.73","","","","","","NA"
"-125.27","49.95","CAMPBELL RIVER A","1021267","2018-04-27 10:00","2018","04","27","10:00","20.6","","6.1","","39","","","","12","","13","","48.3","","99.69","","","","","","Mainly Clear"
"-125.27","49.95","CAMPBELL RIVER A","1021267","2018-04-27 11:00","2018","04","27","11:00","21.6","","4.4","","32","","","","9","","14","","48.3","","99.64","","","","","","NA"
"-125.27","49.95","CAMPBELL RIVER A","1021267","2018-04-27 12:00","2018","04","27","12:00","22.2","","4.3","","31","","","","9","","10","","48.3","","99.60","","","","","","NA"
"-125.27","49.95","CAMPBELL RIVER A","1021267","2018-04-27 13:00","2018","04","27","13:00","23.2","","4.4","","29","","","","12","","13","","48.3","","99.54","","","","","","Mostly Cloudy"
"-125.27","49.95","CAMPBELL RIVER A","1021267","2018-04-27 14:00","2018","04","27","14:00","23.4","","1.7","","24","","","","9","","12","","48.3","","99.48","","","","","","NA"
"-125.27","49.95","CAMPBELL RIVER A","1021267","2018-04-27 15:00","2018","04","27","15:00","23.5","","3.8","","27","","","","9","","13","","48.3","","99.42","","","","","","NA"
"-125.27","49.95","CAMPBELL RIVER A","1021267","2018-04-27 16:00","2018","04","27","16:00","19.7","","6.4","","41","","","","8","","14","","48.3","","99.42","","","","","","Mostly Cloudy"
"-125.27","49.95","CAMPBELL RIVER A","1021267","2018-04-27 17:00","2018","04","27","17:00","18.5","","7.6","","49","","","","10","","14","","48.3","","99.43","","","","","","NA"
"-125.27","49.95","CAMPBELL RIVER A","1021267","2018-04-27 18:00","2018","04","27","18:00","14.6","","9.3","","71","","","","9","","16","","48.3","","99.50","","","","","","NA"
"-125.27","49.95","CAMPBELL RIVER A","1021267","2018-04-27 19:00","2018","04","27","19:00","13.4","","7.7","","68","","","","11","","18","","48.3","","99.59","","","","","","Mostly Cloudy"
"-125.27","49.95","CAMPBELL RIVER A","1021267","2018-04-27 20:00","2018","04","27","20:00","12.3","","7.6","","72","","","","9","","7","","48.3","","99.73","","","","","","NA"
"-125.27","49.95","CAMPBELL RIVER A","1021267","2018-04-27 21:00","2018","04","27","21:00"
"-125.27","49.95","CAMPBELL RIVER A","1021267","2018-04-27 22:00","2018","04","27","22:00"
"-125.27","49.95","CAMPBELL RIVER A","1021267","2018-04-27 23:00","2018","04","27","23:00"
"-125.27","49.95","CAMPBELL RIVER A","1021267","2018-04-28 00:00","2018","04","28","00:00"
"-125.27","49.95","CAMPBELL RIVER A","1021267","2018-04-28 01:00","2018","04","28","01:00"
"-125.27","49.95","CAMPBELL RIVER A","1021267","2018-04-28 02:00","2018","04","28","02:00"
"-125.27","49.95","CAMPBELL RIVER A","1021267","2018-04-28 03:00","2018","04","28","03:00"
"-125.27","49.95","CAMPBELL RIVER A","1021267","2018-04-28 04:00","2018","04","28","04:00"
"-125.27","49.95","CAMPBELL RIVER A","1021267","2018-04-28 05:00","2018","04","28","05:00","9.8","","8.2","","90","","","","36","","2","","32.2","","99.90","","","","","","NA"
"-125.27","49.95","CAMPBELL RIVER A","1021267","2018-04-28 06:00","2018","04","28","06:00","11.0","","8.1","","82","","","","29","","7","","32.2","","99.92","","","","","","NA"
"-125.27","49.95","CAMPBELL RIVER A","1021267","2018-04-28 07:00","2018","04","28","07:00","10.9","","8.2","","83","","","","31","","10","","32.2","","99.92","","","","","","Cloudy"
"-125.27","49.95","CAMPBELL RIVER A","1021267","2018-04-28 08:00","2018","04","28","08:00","10.3","","8.4","","88","","","","28","","7","","9.7","","99.94","","","","","","Rain Showers,Fog"
"-125.27","49.95","CAMPBELL RIVER A","1021267","2018-04-28 09:00","2018","04","28","09:00","10.4","","8.9","","91","","","","27","","6","","19.3","","99.91","","","","","","NA"
"-125.27","49.95","CAMPBELL RIVER A","1021267","2018-04-28 10:00","2018","04","28","10:00","10.9","","8.5","","85","","","","30","","6","","24.1","","99.93","","","","","","Cloudy"
"-125.27","49.95","CAMPBELL RIVER A","1021267","2018-04-28 11:00","2018","04","28","11:00","11.4","","8.3","","81","","","","31","","7","","32.2","","99.91","","","","","","NA"
"-125.27","49.95","CAMPBELL RIVER A","1021267","2018-04-28 12:00","2018","04","28","12:00","11.9","","7.9","","77","","","","35","","5","","32.2","","99.89","","","","","","NA"
"-125.27","49.95","CAMPBELL RIVER A","1021267","2018-04-28 13:00","2018","04","28","13:00","12.2","","8.4","","77","","","","6","","5","","48.3","","99.87","","","","","","Cloudy"
"-125.27","49.95","CAMPBELL RIVER A","1021267","2018-04-28 14:00","2018","04","28","14:00","11.6","","8.1","","79","","","","5","","6","","24.1","","99.88","","","","","","NA"
"-125.27","49.95","CAMPBELL RIVER A","1021267","2018-04-28 15:00","2018","04","28","15:00","10.8","","9.7","","93","","","","13","","7","","9.7","","99.88","","","","","","Rain Showers,Fog"
"-125.27","49.95","CAMPBELL RIVER A","1021267","2018-04-28 16:00","2018","04","28","16:00","10.2","","9.2","","94","","","","15","","8","","9.7","","99.87","","","","","","Rain,Fog"
"-125.27","49.95","CAMPBELL RIVER A","1021267","2018-04-28 17:00","2018","04","28","17:00","10.0","","9.4","","96","","","","16","","6","","8.1","","99.89","","","","","","Rain,Fog,Blowing Sand"
"-125.27","49.95","CAMPBELL RIVER A","1021267","2018-04-28 18:00","2018","04","28","18:00","9.8","","9.1","","96","","","","16","","4","","6.4","","99.90","","","","","","Rain,Fog"
"-125.27","49.95","CAMPBELL RIVER A","1021267","2018-04-28 19:00","2018","04","28","19:00","9.7","","9.3","","97","","","","10","","5","","6.4","","99.91","","","","","","Rain,Fog"
"-125.27","49.95","CAMPBELL RIVER A","1021267","2018-04-28 20:00","2018","04","28","20:00","9.5","","9.0","","97","","","","3","","3","","6.4","","99.96","","","","","","Rain,Fog"
"-125.27","49.95","CAMPBELL RIVER A","1021267","2018-04-28 21:00","2018","04","28","21:00"
"-125.27","49.95","CAMPBELL RIVER A","1021267","2018-04-28 22:00","2018","04","28","22:00"
"-125.27","49.95","CAMPBELL RIVER A","1021267","2018-04-28 23:00","2018","04","28","23:00"
"-125.27","49.95","CAMPBELL RIVER A","1021267","2018-04-29 00:00","2018","04","29","00:00"
"-125.27","49.95","CAMPBELL RIVER A","1021267","2018-04-29 01:00","2018","04","29","01:00"
"-125.27","49.95","CAMPBELL RIVER A","1021267","2018-04-29 02:00","2018","04","29","02:00"
"-125.27","49.95","CAMPBELL RIVER A","1021267","2018-04-29 03:00","2018","04","29","03:00"
"-125.27","49.95","CAMPBELL RIVER A","1021267","2018-04-29 04:00","2018","04","29","04:00"
"-125.27","49.95","CAMPBELL RIVER A","1021267","2018-04-29 05:00","2018","04","29","05:00","6.7","","5.6","","93","","","","26","","6","","32.2","","100.11","","","","","","NA"
"-125.27","49.95","CAMPBELL RIVER A","1021267","2018-04-29 06:00","2018","04","29","06:00","6.8","","5.9","","94","","","","26","","5","","32.2","","100.15","","","","","","NA"
"-125.27","49.95","CAMPBELL RIVER A","1021267","2018-04-29 07:00","2018","04","29","07:00","7.2","","5.9","","92","","","","25","","3","","32.2","","100.20","","","","","","Mostly Cloudy"
"-125.27","49.95","CAMPBELL RIVER A","1021267","2018-04-29 08:00","2018","04","29","08:00","8.0","","5.6","","85","","","","29","","5","","32.2","","100.24","","","","","","NA"
"-125.27","49.95","CAMPBELL RIVER A","1021267","2018-04-29 09:00","2018","04","29","09:00","8.9","","5.5","","79","","","","1","","5","","32.2","","100.27","","","","","","NA"
"-125.27","49.95","CAMPBELL RIVER A","1021267","2018-04-29 10:00","2018","04","29","10:00","9.4","","5.0","","74","","","","1","","5","","32.2","","100.28","","","","","","Mostly Cloudy"
"-125.27","49.95","CAMPBELL RIVER A","1021267","2018-04-29 11:00","2018","04","29","11:00","9.8","","5.6","","75","","","","36","","2","","48.3","","100.30","","","","","","NA"
"-125.27","49.95","CAMPBELL RIVER A","1021267","2018-04-29 12:00","2018","04","29","12:00","11.1","","7.3","","77","","","","13","","6","","48.3","","100.31","","","","","","NA"
"-125.27","49.95","CAMPBELL RIVER A","1021267","2018-04-29 13:00","2018","04","29","13:00","11.0","","6.7","","75","","","","10","","7","","48.3","","100.33","","","","","","Cloudy"
"-125.27","49.95","CAMPBELL RIVER A","1021267","2018-04-29 14:00","2018","04","29","14:00","11.3","","6.5","","72","","","","11","","6","","48.3","","100.34","","","","","","NA"
"-125.27","49.95","CAMPBELL RIVER A","1021267","2018-04-29 15:00","2018","04","29","15:00","11.7","","6.6","","71","","","","6","","4","","48.3","","100.33","","","","","","NA"
"-125.27","49.95","CAMPBELL RIVER A","1021267","2018-04-29 16:00","2018","04","29","16:00","12.2","","6.2","","67","","","","10","","10","","48.3","","100.35","","","","","","Cloudy"
"-125.27","49.95","CAMPBELL RIVER A","1021267","2018-04-29 17:00","2018","04","29","17:00","12.1","","6.1","","66","","","","11","","7","","48.3","","100.36","","","","","","NA"
"-125.27","49.95","CAMPBELL RIVER A","1021267","2018-04-29 18:00","2018","04","29","18:00","11.4","","5.4","","66","","","","8","","5","","32.2","","100.35","","","","","","NA"
"-125.27","49.95","CAMPBELL RIVER A","1021267","2018-04-29 19:00","2018","04","29","19:00","11.0","","5.2","","67","","","","10","","5","","32.2","","100.39","","","","","","Cloudy"
"-125.27","49.95","CAMPBELL RIVER A","1021267","2018-04-29 20:00","2018","04","29","20:00","9.8","","6.6","","81","","","","21","","7","","24.1","","100.41","","","","","","NA"
"-125.27","49.95","CAMPBELL RIVER A","1021267","2018-04-29 21:00","2018","04","29","21:00"
"-125.27","49.95","CAMPBELL RIVER A","1021267","2018-04-29 22:00","2018","04","29","22:00"
"-125.27","49.95","CAMPBELL RIVER A","1021267","2018-04-29 23:00","2018","04","29","23:00"
"-125.27","49.95","CAMPBELL RIVER A","1021267","2018-04-30 00:00","2018","04","30","00:00"
"-125.27","49.95","CAMPBELL RIVER A","1021267","2018-04-30 01:00","2018","04","30","01:00"
"-125.27","49.95","CAMPBELL RIVER A","1021267","2018-04-30 02:00","2018","04","30","02:00"
"-125.27","49.95","CAMPBELL RIVER A","1021267","2018-04-30 03:00","2018","04","30","03:00"
"-125.27","49.95","CAMPBELL RIVER A","1021267","2018-04-30 04:00","2018","04","30","04:00"
"-125.27","49.95","CAMPBELL RIVER A","1021267","2018-04-30 05:00","2018","04","30","05:00","4.9","","3.8","","92","","","","30","","9","","48.3","","100.64","","","","","","NA"
"-125.27","49.95","CAMPBELL RIVER A","1021267","2018-04-30 06:00","2018","04","30","06:00","6.9","","4.2","","83","","","","29","","11","","48.3","","100.66","","","","","","NA"
"-125.27","49.95","CAMPBELL RIVER A","1021267","2018-04-30 07:00","2018","04","30","07:00","8.7","","4.9","","77","","","","31","","14","","48.3","","100.70","","","","","","Mainly Clear"
"-125.27","49.95","CAMPBELL RIVER A","1021267","2018-04-30 08:00","2018","04","30","08:00","10.3","","4.2","","66","","","","30","","15","","48.3","","100.73","","","","","","NA"
"-125.27","49.95","CAMPBELL RIVER A","1021267","2018-04-30 09:00","2018","04","30","09:00","11.7","","4.5","","61","","","","1","","9","","48.3","","100.76","","","","","","NA"
"-125.27","49.95","CAMPBELL RIVER A","1021267","2018-04-30 10:00","2018","04","30","10:00","12.8","","4.5","","57","","","","2","","9","","48.3","","100.79","","","","","","Mainly Clear"
"-125.27","49.95","CAMPBELL RIVER A","1021267","2018-04-30 11:00","2018","04","30","11:00","13.7","","5.2","","56","","","","31","","12","","48.3","","100.81","","","","","","NA"
"-125.27","49.95","CAMPBELL RIVER A","1021267","2018-04-30 12:00","2018","04","30","12:00","14.6","","5.9","","56","","","","5","","13","","48.3","","100.75","","","","","","NA"
"-125.27","49.95","CAMPBELL RIVER A","1021267","2018-04-30 13:00","2018","04","30","13:00","14.7","","5.8","","55","","","","12","","9","","48.3","","100.72","","","","","","Mainly Clear"
"-125.27","49.95","CAMPBELL RIVER A","1021267","2018-04-30 14:00","2018","04","30","14:00","15.8","","5.1","","49","","","","7","","14","","48.3","","100.73","","","","","","NA"
"-125.27","49.95","CAMPBELL RIVER A","1021267","2018-04-30 15:00","2018","04","30","15:00","15.9","","4.7","","47","","","","6","","4","","48.3","","100.67","","","","","","NA"
"-125.27","49.95","CAMPBELL RIVER A","1021267","2018-04-30 16:00","2018","04","30","16:00","15.7","","5.0","","49","","","","4","","10","","48.3","","100.67","","","","","","Mainly Clear"
"-125.27","49.95","CAMPBELL RIVER A","1021267","2018-04-30 17:00","2018","04","30","17:00","15.6","","5.2","","50","","","","8","","9","","48.3","","100.65","","","","","","NA"
"-125.27","49.95","CAMPBELL RIVER A","1021267","2018-04-30 18:00","2018","04","30","18:00","14.3","","4.8","","53","","","","36","","13","","48.3","","100.64","","","","","","NA"
"-125.27","49.95","CAMPBELL RIVER A","1021267","2018-04-30 19:00","2018","04","30","19:00","12.9","","4.3","","56","","","","35","","13","","48.3","","100.66","","","","","","Mostly Cloudy"
"-125.27","49.95","CAMPBELL RIVER A","1021267","2018-04-30 20:00","2018","04","30","20:00","9.6","","5.4","","75","","","","31","","3","","48.3","","100.66","","","","","","NA"
"-125.27","49.95","CAMPBELL RIVER A","1021267","2018-04-30 21:00","2018","04","30","21:00"
"-125.27","49.95","CAMPBELL RIVER A","1021267","2018-04-30 22:00","2018","04","30","22:00"
"-125.27","49.95","CAMPBELL RIVER A","1021267","2018-04-30 23:00","2018","04","30","23:00"
