"Longitude (x)","Latitude (y)","Station Name","Climate ID","Date/Time (LST)","Year","Month","Day","Time (LST)","Temp (°C)","Temp Flag","Dew Point Temp (°C)","Dew Point Temp Flag","Rel Hum (%)","Rel Hum Flag","Precip. Amount (mm)","Precip. Amount Flag","Wind Dir (10s deg)","Wind Dir Flag","Wind Spd (km/h)","Wind Spd Flag","Visibility (km)","Visibility Flag","Stn Press (kPa)","Stn Press Flag","Hmdx","Hmdx Flag","Wind Chill","Wind Chill Flag","Weather"
"-108.42","55.84","BUFFALO NARROWS A","4060984","2019-02-01 00:00","2019","02","01","00:00"
"-108.42","55.84","BUFFALO NARROWS A","4060984","2019-02-01 01:00","2019","02","01","01:00"
"-108.42","55.84","BUFFALO NARROWS A","4060984","2019-02-01 02:00","2019","02","01","02:00"
"-108.42","55.84","BUFFALO NARROWS A","4060984","2019-02-01 03:00","2019","02","01","03:00"
"-108.42","55.84","BUFFALO NARROWS A","4060984","2019-02-01 04:00","2019","02","01","04:00"
"-108.42","55.84","BUFFALO NARROWS A","4060984","2019-02-01 05:00","2019","02","01","05:00"
"-108.42","55.84","BUFFALO NARROWS A","4060984","2019-02-01 06:00","2019","02","01","06:00","-24.6","","-29.1","","67","","","","34","","17","","24.1","","96.50","","","","-35","","Clear"
"-108.42","55.84","BUFFALO NARROWS A","4060984","2019-02-01 07:00","2019","02","01","07:00","-25.1","","-29.2","","69","","","","32","","17","","24.1","","96.57","","","","-36","","NA"
"-108.42","55.84","BUFFALO NARROWS A","4060984","2019-02-01 08:00","2019","02","01","08:00","-24.9","","-29.1","","69","","","","33","","20","","24.1","","96.61","","","","-37","","Blowing Snow"
"-108.42","55.84","BUFFALO NARROWS A","4060984","2019-02-01 09:00","2019","02","01","09:00","-25.2","","-29.4","","68","","","","34","","15","","24.1","","96.63","","","","-35","","Mostly Cloudy"
"-108.42","55.84","BUFFALO NARROWS A","4060984","2019-02-01 10:00","2019","02","01","10:00","-25.3","","-29.5","","68","","","","34","","15","","24.1","","96.72","","","","-36","","NA"
"-108.42","55.84","BUFFALO NARROWS A","4060984","2019-02-01 11:00","2019","02","01","11:00","-25.1","","-29.7","","67","","","","35","","16","","24.1","","96.80","","","","-36","","NA"
"-108.42","55.84","BUFFALO NARROWS A","4060984","2019-02-01 12:00","2019","02","01","12:00","-24.8","","-29.6","","65","","","","1","","16","","24.1","","96.79","","","","-35","","Mostly Cloudy"
"-108.42","55.84","BUFFALO NARROWS A","4060984","2019-02-01 13:00","2019","02","01","13:00","-24.8","","-29.3","","67","","","","2","","15","","24.1","","96.78","","","","-35","","NA"
"-108.42","55.84","BUFFALO NARROWS A","4060984","2019-02-01 14:00","2019","02","01","14:00","-24.8","","-29.2","","68","","","","2","","9","","24.1","","96.78","","","","-32","","NA"
"-108.42","55.84","BUFFALO NARROWS A","4060984","2019-02-01 15:00","2019","02","01","15:00","-24.9","","-29.5","","66","","","","3","","12","","24.1","","96.79","","","","-34","","Mostly Cloudy"
"-108.42","55.84","BUFFALO NARROWS A","4060984","2019-02-01 16:00","2019","02","01","16:00","-25.2","","-29.9","","66","","","","4","","14","","24.1","","96.82","","","","-35","","NA"
"-108.42","55.84","BUFFALO NARROWS A","4060984","2019-02-01 17:00","2019","02","01","17:00","-25.1","","-29.8","","66","","","","3","","14","","24.1","","96.82","","","","-35","","NA"
"-108.42","55.84","BUFFALO NARROWS A","4060984","2019-02-01 18:00","2019","02","01","18:00","-25.1","","-29.8","","66","","","","3","","13","","24.1","","96.81","","","","-35","","Cloudy"
"-108.42","55.84","BUFFALO NARROWS A","4060984","2019-02-01 19:00","2019","02","01","19:00","-25.0","","-29.6","","66","","","","3","","12","","24.1","","96.83","","","","-34","","NA"
"-108.42","55.84","BUFFALO NARROWS A","4060984","2019-02-01 20:00","2019","02","01","20:00","-25.0","","-29.6","","66","","","","3","","13","","24.1","","96.81","","","","-34","","NA"
"-108.42","55.84","BUFFALO NARROWS A","4060984","2019-02-01 21:00","2019","02","01","21:00","-24.8","","-29.4","","67","","","","7","","9","","24.1","","96.78","","","","-32","","Mainly Clear"
"-108.42","55.84","BUFFALO NARROWS A","4060984","2019-02-01 22:00","2019","02","01","22:00","-25.1","","-29.5","","67","","","","6","","10","","24.1","","96.79","","","","-33","","NA"
"-108.42","55.84","BUFFALO NARROWS A","4060984","2019-02-01 23:00","2019","02","01","23:00"
"-108.42","55.84","BUFFALO NARROWS A","4060984","2019-02-02 00:00","2019","02","02","00:00"
"-108.42","55.84","BUFFALO NARROWS A","4060984","2019-02-02 01:00","2019","02","02","01:00"
"-108.42","55.84","BUFFALO NARROWS A","4060984","2019-02-02 02:00","2019","02","02","02:00"
"-108.42","55.84","BUFFALO NARROWS A","4060984","2019-02-02 03:00","2019","02","02","03:00"
"-108.42","55.84","BUFFALO NARROWS A","4060984","2019-02-02 04:00","2019","02","02","04:00"
"-108.42","55.84","BUFFALO NARROWS A","4060984","2019-02-02 05:00","2019","02","02","05:00"
"-108.42","55.84","BUFFALO NARROWS A","4060984","2019-02-02 06:00","2019","02","02","06:00","-25.6","","-29.3","","72","","","","8","","13","","1.6","","96.49","","","","-35","","Snow"
"-108.42","55.84","BUFFALO NARROWS A","4060984","2019-02-02 07:00","2019","02","02","07:00","-25.6","","-29.3","","72","","","","7","","12","","1.6","","96.47","","","","-35","","Snow"
"-108.42","55.84","BUFFALO NARROWS A","4060984","2019-02-02 08:00","2019","02","02","08:00","-25.7","","-29.5","","71","","","","8","","18","","1.6","","96.46","","","","-37","","Snow"
"-108.42","55.84","BUFFALO NARROWS A","4060984","2019-02-02 09:00","2019","02","02","09:00","-25.8","","-29.6","","71","","","","8","","16","","1.6","","96.43","","","","-37","","Snow"
"-108.42","55.84","BUFFALO NARROWS A","4060984","2019-02-02 10:00","2019","02","02","10:00","-25.6","","-29.9","","68","","","","9","","14","","24.1","","96.43","","","","-36","","NA"
"-108.42","55.84","BUFFALO NARROWS A","4060984","2019-02-02 11:00","2019","02","02","11:00","-25.3","","-29.6","","68","","","","8","","13","","3.2","","96.47","","","","-35","","Snow"
"-108.42","55.84","BUFFALO NARROWS A","4060984","2019-02-02 12:00","2019","02","02","12:00","-24.7","","-29.1","","67","","","","8","","16","","3.2","","96.47","","","","-35","","Snow"
"-108.42","55.84","BUFFALO NARROWS A","4060984","2019-02-02 13:00","2019","02","02","13:00","-24.1","","-28.4","","68","","","","6","","13","","2.4","","96.48","","","","-33","","Snow"
"-108.42","55.84","BUFFALO NARROWS A","4060984","2019-02-02 14:00","2019","02","02","14:00","-23.9","","-28.1","","69","","","","6","","12","","2.4","","96.45","","","","-33","","Snow"
"-108.42","55.84","BUFFALO NARROWS A","4060984","2019-02-02 15:00","2019","02","02","15:00","-23.7","","-28.0","","69","","","","5","","14","","4.0","","96.47","","","","-33","","Snow"
"-108.42","55.84","BUFFALO NARROWS A","4060984","2019-02-02 16:00","2019","02","02","16:00","-23.8","","-27.9","","70","","","","5","","14","","2.4","","96.49","","","","-33","","Snow"
"-108.42","55.84","BUFFALO NARROWS A","4060984","2019-02-02 17:00","2019","02","02","17:00","-24.2","","-27.7","","73","","","","4","","18","","1.6","","96.54","","","","-35","","Snow"
"-108.42","55.84","BUFFALO NARROWS A","4060984","2019-02-02 18:00","2019","02","02","18:00","-24.2","","-27.5","","74","","","","4","","14","","1.6","","96.61","","","","-34","","Snow"
"-108.42","55.84","BUFFALO NARROWS A","4060984","2019-02-02 19:00","2019","02","02","19:00","-24.2","","-27.7","","74","","","","5","","18","","1.6","","96.56","","","","-35","","Snow,Blowing Snow"
"-108.42","55.84","BUFFALO NARROWS A","4060984","2019-02-02 20:00","2019","02","02","20:00","-24.1","","-27.6","","74","","","","4","","13","","1.6","","96.67","","","","-33","","Snow"
"-108.42","55.84","BUFFALO NARROWS A","4060984","2019-02-02 21:00","2019","02","02","21:00","-24.7","","-28.1","","74","","","","1","","20","","1.6","","96.78","","","","-36","","Snow,Blowing Snow"
"-108.42","55.84","BUFFALO NARROWS A","4060984","2019-02-02 22:00","2019","02","02","22:00","-25.1","","-28.5","","73","","","","3","","17","","1.6","","96.82","","","","-36","","Snow,Blowing Snow"
"-108.42","55.84","BUFFALO NARROWS A","4060984","2019-02-02 23:00","2019","02","02","23:00"
"-108.42","55.84","BUFFALO NARROWS A","4060984","2019-02-03 00:00","2019","02","03","00:00"
"-108.42","55.84","BUFFALO NARROWS A","4060984","2019-02-03 01:00","2019","02","03","01:00"
"-108.42","55.84","BUFFALO NARROWS A","4060984","2019-02-03 02:00","2019","02","03","02:00"
"-108.42","55.84","BUFFALO NARROWS A","4060984","2019-02-03 03:00","2019","02","03","03:00"
"-108.42","55.84","BUFFALO NARROWS A","4060984","2019-02-03 04:00","2019","02","03","04:00"
"-108.42","55.84","BUFFALO NARROWS A","4060984","2019-02-03 05:00","2019","02","03","05:00"
"-108.42","55.84","BUFFALO NARROWS A","4060984","2019-02-03 06:00","2019","02","03","06:00","-32.4","","-35.6","","74","","","","34","","10","","24.1","","97.20","","","","-42","","Clear"
"-108.42","55.84","BUFFALO NARROWS A","4060984","2019-02-03 07:00","2019","02","03","07:00","-32.8","","-35.9","","74","","","","34","","11","","24.1","","97.23","","","","-43","","NA"
"-108.42","55.84","BUFFALO NARROWS A","4060984","2019-02-03 08:00","2019","02","03","08:00","-32.8","","-36.1","","73","","","","35","","9","","24.1","","97.30","","","","-42","","NA"
"-108.42","55.84","BUFFALO NARROWS A","4060984","2019-02-03 09:00","2019","02","03","09:00","-31.8","","-35.4","","71","","","","36","","15","","24.1","","97.32","","","","-44","","Clear"
"-108.42","55.84","BUFFALO NARROWS A","4060984","2019-02-03 10:00","2019","02","03","10:00","-31.6","","-35.3","","71","","","","36","","14","","24.1","","97.39","","","","-43","","NA"
"-108.42","55.84","BUFFALO NARROWS A","4060984","2019-02-03 11:00","2019","02","03","11:00","-31.1","","-35.0","","69","","","","1","","13","","24.1","","97.46","","","","-42","","NA"
"-108.42","55.84","BUFFALO NARROWS A","4060984","2019-02-03 12:00","2019","02","03","12:00","-30.7","","-34.9","","67","","","","1","","16","","24.1","","97.48","","","","-43","","Mainly Clear"
"-108.42","55.84","BUFFALO NARROWS A","4060984","2019-02-03 13:00","2019","02","03","13:00","-30.2","","-34.9","","64","","","","5","","10","","24.1","","97.51","","","","-39","","NA"
"-108.42","55.84","BUFFALO NARROWS A","4060984","2019-02-03 14:00","2019","02","03","14:00","-29.9","","-34.6","","65","","","","4","","10","","24.1","","97.51","","","","-39","","NA"
"-108.42","55.84","BUFFALO NARROWS A","4060984","2019-02-03 15:00","2019","02","03","15:00","-30.1","","-34.4","","67","","","","5","","3","","24.1","","97.58","","","","-33","","Mostly Cloudy"
"-108.42","55.84","BUFFALO NARROWS A","4060984","2019-02-03 16:00","2019","02","03","16:00","-30.4","","-34.2","","70","","","","34","","10","","24.1","","97.54","","","","-40","","NA"
"-108.42","55.84","BUFFALO NARROWS A","4060984","2019-02-03 17:00","2019","02","03","17:00","-29.9","","-33.8","","70","","","","31","","9","","24.1","","97.58","","","","-38","","NA"
"-108.42","55.84","BUFFALO NARROWS A","4060984","2019-02-03 18:00","2019","02","03","18:00","-31.2","","-34.4","","74","","","","36","","7","","24.1","","97.59","","","","-39","","Mostly Cloudy"
"-108.42","55.84","BUFFALO NARROWS A","4060984","2019-02-03 19:00","2019","02","03","19:00","-32.8","","-36.3","","72","","","","36","","2","","24.1","","97.63","","","","-35","","NA"
"-108.42","55.84","BUFFALO NARROWS A","4060984","2019-02-03 20:00","2019","02","03","20:00","-33.6","","-36.9","","73","","","","31","","6","","24.1","","97.62","","","","-41","","NA"
"-108.42","55.84","BUFFALO NARROWS A","4060984","2019-02-03 21:00","2019","02","03","21:00","-32.6","","-35.7","","75","","","","30","","10","","24.1","","97.68","","","","-42","","Clear"
"-108.42","55.84","BUFFALO NARROWS A","4060984","2019-02-03 22:00","2019","02","03","22:00","-35.0","","-38.5","","71","","","","31","","4","","24.1","","97.70","","","","-40","","NA"
"-108.42","55.84","BUFFALO NARROWS A","4060984","2019-02-03 23:00","2019","02","03","23:00"
"-108.42","55.84","BUFFALO NARROWS A","4060984","2019-02-04 00:00","2019","02","04","00:00"
"-108.42","55.84","BUFFALO NARROWS A","4060984","2019-02-04 01:00","2019","02","04","01:00"
"-108.42","55.84","BUFFALO NARROWS A","4060984","2019-02-04 02:00","2019","02","04","02:00"
"-108.42","55.84","BUFFALO NARROWS A","4060984","2019-02-04 03:00","2019","02","04","03:00"
"-108.42","55.84","BUFFALO NARROWS A","4060984","2019-02-04 04:00","2019","02","04","04:00"
"-108.42","55.84","BUFFALO NARROWS A","4060984","2019-02-04 05:00","2019","02","04","05:00"
"-108.42","55.84","BUFFALO NARROWS A","4060984","2019-02-04 06:00","2019","02","04","06:00","-36.1","","-39.8","","70","","","","31","","5","","24.1","","97.65","","","","-43","","Mainly Clear"
"-108.42","55.84","BUFFALO NARROWS A","4060984","2019-02-04 07:00","2019","02","04","07:00","-35.6","","-39.4","","69","","","","36","","2","","24.1","","97.64","","","","-38","","NA"
"-108.42","55.84","BUFFALO NARROWS A","4060984","2019-02-04 08:00","2019","02","04","08:00","-34.9","","-38.6","","70","","","","23","","3","","24.1","","97.69","","","","-39","","NA"
"-108.42","55.84","BUFFALO NARROWS A","4060984","2019-02-04 09:00","2019","02","04","09:00","-33.6","","-37.2","","71","","","","22","","4","","24.1","","97.70","","","","-38","","Cloudy"
"-108.42","55.84","BUFFALO NARROWS A","4060984","2019-02-04 10:00","2019","02","04","10:00","-32.5","","-36.2","","71","","","","21","","3","","24.1","","97.68","","","","-36","","NA"
"-108.42","55.84","BUFFALO NARROWS A","4060984","2019-02-04 11:00","2019","02","04","11:00","-31.8","","-35.6","","70","","","","36","","3","","24.1","","97.64","","","","-35","","NA"
"-108.42","55.84","BUFFALO NARROWS A","4060984","2019-02-04 12:00","2019","02","04","12:00","-31.1","","-34.8","","70","","","","9","","4","","24.1","","97.62","","","","-36","","Cloudy"
"-108.42","55.84","BUFFALO NARROWS A","4060984","2019-02-04 13:00","2019","02","04","13:00","-29.7","","-33.6","","69","","","","10","","4","","4.8","","97.60","","","","-34","","Snow"
"-108.42","55.84","BUFFALO NARROWS A","4060984","2019-02-04 14:00","2019","02","04","14:00","-28.2","","-32.3","","69","","","","6","","4","","16.1","","97.53","","","","-33","","Snow"
"-108.42","55.84","BUFFALO NARROWS A","4060984","2019-02-04 15:00","2019","02","04","15:00","-27.7","","-31.7","","69","","","","8","","3","","4.8","","97.45","","","","-31","","Snow"
"-108.42","55.84","BUFFALO NARROWS A","4060984","2019-02-04 16:00","2019","02","04","16:00","-28.0","","-31.8","","70","","","","5","","6","","4.8","","97.41","","","","-34","","Snow"
"-108.42","55.84","BUFFALO NARROWS A","4060984","2019-02-04 17:00","2019","02","04","17:00","-27.9","","-31.6","","72","","","","6","","6","","3.2","","97.41","","","","-34","","Snow"
"-108.42","55.84","BUFFALO NARROWS A","4060984","2019-02-04 18:00","2019","02","04","18:00","-27.9","","-31.5","","72","","","","36","","2","","1.6","","97.37","","","","-30","","Snow"
"-108.42","55.84","BUFFALO NARROWS A","4060984","2019-02-04 19:00","2019","02","04","19:00","-27.6","","-31.1","","73","","","","7","","4","","1.6","","97.34","","","","-32","","Snow"
"-108.42","55.84","BUFFALO NARROWS A","4060984","2019-02-04 20:00","2019","02","04","20:00","-27.5","","-30.9","","73","","","","36","","3","","2.4","","97.29","","","","-31","","Snow"
"-108.42","55.84","BUFFALO NARROWS A","4060984","2019-02-04 21:00","2019","02","04","21:00","-27.3","","-30.6","","74","","","","36","","3","","4.0","","97.27","","","","-30","","Snow"
"-108.42","55.84","BUFFALO NARROWS A","4060984","2019-02-04 22:00","2019","02","04","22:00","-27.5","","-30.8","","75","","","","16","","4","","2.4","","97.25","","","","-32","","Snow"
"-108.42","55.84","BUFFALO NARROWS A","4060984","2019-02-04 23:00","2019","02","04","23:00"
"-108.42","55.84","BUFFALO NARROWS A","4060984","2019-02-05 00:00","2019","02","05","00:00"
"-108.42","55.84","BUFFALO NARROWS A","4060984","2019-02-05 01:00","2019","02","05","01:00"
"-108.42","55.84","BUFFALO NARROWS A","4060984","2019-02-05 02:00","2019","02","05","02:00"
"-108.42","55.84","BUFFALO NARROWS A","4060984","2019-02-05 03:00","2019","02","05","03:00"
"-108.42","55.84","BUFFALO NARROWS A","4060984","2019-02-05 04:00","2019","02","05","04:00"
"-108.42","55.84","BUFFALO NARROWS A","4060984","2019-02-05 05:00","2019","02","05","05:00"
"-108.42","55.84","BUFFALO NARROWS A","4060984","2019-02-05 06:00","2019","02","05","06:00","-34.7","","-38.2","","71","","","","16","","3","","24.1","","97.13","","","","-38","","Clear"
"-108.42","55.84","BUFFALO NARROWS A","4060984","2019-02-05 07:00","2019","02","05","07:00","-35.6","","-39.3","","70","","","","16","","3","","24.1","","97.16","","","","-39","","NA"
"-108.42","55.84","BUFFALO NARROWS A","4060984","2019-02-05 08:00","2019","02","05","08:00","-35.7","","-39.3","","70","","","","0","","1","","24.1","","97.19","","","","-37","","NA"
"-108.42","55.84","BUFFALO NARROWS A","4060984","2019-02-05 09:00","2019","02","05","09:00","-36.2","","-39.9","","70","","","","36","","2","","24.1","","97.22","","","","-39","","Mainly Clear"
"-108.42","55.84","BUFFALO NARROWS A","4060984","2019-02-05 10:00","2019","02","05","10:00","-36.3","","-40.2","","69","","","","11","","4","","24.1","","97.27","","","","-41","","NA"
"-108.42","55.84","BUFFALO NARROWS A","4060984","2019-02-05 11:00","2019","02","05","11:00","-35.0","","-38.8","","69","","","","36","","2","","24.1","","97.29","","","","-38","","NA"
"-108.42","55.84","BUFFALO NARROWS A","4060984","2019-02-05 12:00","2019","02","05","12:00","-32.3","","-36.3","","69","","","","35","","5","","24.1","","97.33","","","","-38","","Clear"
"-108.42","55.84","BUFFALO NARROWS A","4060984","2019-02-05 13:00","2019","02","05","13:00","-30.9","","-35.7","","63","","","","3","","3","","24.1","","97.33","","","","-34","","NA"
"-108.42","55.84","BUFFALO NARROWS A","4060984","2019-02-05 14:00","2019","02","05","14:00","-28.3","","-33.2","","64","","","","4","","4","","24.1","","97.32","","","","-33","","NA"
"-108.42","55.84","BUFFALO NARROWS A","4060984","2019-02-05 15:00","2019","02","05","15:00","-27.9","","-32.0","","68","","","","5","","5","","24.1","","97.33","","","","-33","","Mainly Clear"
"-108.42","55.84","BUFFALO NARROWS A","4060984","2019-02-05 16:00","2019","02","05","16:00","-26.6","","-31.3","","65","","","","2","","4","","24.1","","97.35","","","","-31","","NA"
"-108.42","55.84","BUFFALO NARROWS A","4060984","2019-02-05 17:00","2019","02","05","17:00","-26.3","","-30.8","","67","","","","29","","10","","24.1","","97.37","","","","-35","","NA"
"-108.42","55.84","BUFFALO NARROWS A","4060984","2019-02-05 18:00","2019","02","05","18:00","-30.8","","-33.3","","79","","","","11","","3","","24.1","","97.40","","","","-34","","Clear"
"-108.42","55.84","BUFFALO NARROWS A","4060984","2019-02-05 19:00","2019","02","05","19:00","-30.0","","-32.6","","78","","","","36","","3","","24.1","","97.44","","","","-33","","NA"
"-108.42","55.84","BUFFALO NARROWS A","4060984","2019-02-05 20:00","2019","02","05","20:00","-31.6","","-35.0","","73","","","","36","","1","","24.1","","97.48","","","","-33","","NA"
"-108.42","55.84","BUFFALO NARROWS A","4060984","2019-02-05 21:00","2019","02","05","21:00","-32.5","","-35.8","","73","","","","32","","5","","24.1","","97.54","","","","-38","","Clear"
"-108.42","55.84","BUFFALO NARROWS A","4060984","2019-02-05 22:00","2019","02","05","22:00","-34.8","","-38.4","","70","","","","18","","5","","24.1","","97.57","","","","-41","","NA"
"-108.42","55.84","BUFFALO NARROWS A","4060984","2019-02-05 23:00","2019","02","05","23:00"
"-108.42","55.84","BUFFALO NARROWS A","4060984","2019-02-06 00:00","2019","02","06","00:00"
"-108.42","55.84","BUFFALO NARROWS A","4060984","2019-02-06 01:00","2019","02","06","01:00"
"-108.42","55.84","BUFFALO NARROWS A","4060984","2019-02-06 02:00","2019","02","06","02:00"
"-108.42","55.84","BUFFALO NARROWS A","4060984","2019-02-06 03:00","2019","02","06","03:00"
"-108.42","55.84","BUFFALO NARROWS A","4060984","2019-02-06 04:00","2019","02","06","04:00"
"-108.42","55.84","BUFFALO NARROWS A","4060984","2019-02-06 05:00","2019","02","06","05:00"
"-108.42","55.84","BUFFALO NARROWS A","4060984","2019-02-06 06:00","2019","02","06","06:00","-39.7","","-43.8","","66","","","","21","","5","","24.1","","97.75","","","","-47","","Mainly Clear"
"-108.42","55.84","BUFFALO NARROWS A","4060984","2019-02-06 07:00","2019","02","06","07:00","-38.0","","-41.9","","68","","","","36","","2","","24.1","","97.77","","","","-41","","NA"
"-108.42","55.84","BUFFALO NARROWS A","4060984","2019-02-06 08:00","2019","02","06","08:00","-39.1","","-43.0","","67","","","","17","","4","","24.1","","97.80","","","","-45","","NA"
"-108.42","55.84","BUFFALO NARROWS A","4060984","2019-02-06 09:00","2019","02","06","09:00","-40.3","","-44.4","","66","","","","22","","3","","24.1","","97.83","","","","-45","","Mainly Clear"
"-108.42","55.84","BUFFALO NARROWS A","4060984","2019-02-06 10:00","2019","02","06","10:00","-38.7","","-42.8","","66","","","","22","","7","","24.1","","97.89","","","","-47","","NA"
"-108.42","55.84","BUFFALO NARROWS A","4060984","2019-02-06 11:00","2019","02","06","11:00","-36.2","","-40.2","","68","","","","22","","3","","24.1","","97.92","","","","-40","","NA"
"-108.42","55.84","BUFFALO NARROWS A","4060984","2019-02-06 12:00","2019","02","06","12:00","-32.5","","-36.4","","69","","","","36","","1","","24.1","","97.96","","","","-34","","Clear"
"-108.42","55.84","BUFFALO NARROWS A","4060984","2019-02-06 13:00","2019","02","06","13:00","-28.8","","-32.7","","69","","","","12","","3","","24.1","","97.96","","","","-32","","NA"
"-108.42","55.84","BUFFALO NARROWS A","4060984","2019-02-06 14:00","2019","02","06","14:00","-27.9","","-31.7","","71","","","","36","","3","","24.1","","97.95","","","","-31","","NA"
"-108.42","55.84","BUFFALO NARROWS A","4060984","2019-02-06 15:00","2019","02","06","15:00","-26.8","","-30.1","","74","","","","31","","4","","24.1","","97.94","","","","-31","","Clear"
"-108.42","55.84","BUFFALO NARROWS A","4060984","2019-02-06 16:00","2019","02","06","16:00","-25.6","","-29.7","","69","","","","8","","3","","24.1","","97.96","","","","-29","","NA"
"-108.42","55.84","BUFFALO NARROWS A","4060984","2019-02-06 17:00","2019","02","06","17:00","-24.8","","-28.7","","71","","","","7","","4","","24.1","","97.99","","","","-29","","NA"
"-108.42","55.84","BUFFALO NARROWS A","4060984","2019-02-06 18:00","2019","02","06","18:00","-25.8","","-29.1","","74","","","","11","","4","","24.1","","97.98","","","","-30","","Clear"
"-108.42","55.84","BUFFALO NARROWS A","4060984","2019-02-06 19:00","2019","02","06","19:00","-26.7","","-29.1","","80","","","","14","","4","","24.1","","97.98","","","","-31","","NA"
"-108.42","55.84","BUFFALO NARROWS A","4060984","2019-02-06 20:00","2019","02","06","20:00","-28.5","","-31.4","","76","","","","11","","4","","24.1","","98.00","","","","-33","","NA"
"-108.42","55.84","BUFFALO NARROWS A","4060984","2019-02-06 21:00","2019","02","06","21:00","-31.8","","-35.2","","72","","","","15","","6","","24.1","","97.99","","","","-39","","Clear"
"-108.42","55.84","BUFFALO NARROWS A","4060984","2019-02-06 22:00","2019","02","06","22:00","-33.1","","-36.7","","71","","","","21","","4","","24.1","","98.00","","","","-38","","NA"
"-108.42","55.84","BUFFALO NARROWS A","4060984","2019-02-06 23:00","2019","02","06","23:00"
"-108.42","55.84","BUFFALO NARROWS A","4060984","2019-02-07 00:00","2019","02","07","00:00"
"-108.42","55.84","BUFFALO NARROWS A","4060984","2019-02-07 01:00","2019","02","07","01:00"
"-108.42","55.84","BUFFALO NARROWS A","4060984","2019-02-07 02:00","2019","02","07","02:00"
"-108.42","55.84","BUFFALO NARROWS A","4060984","2019-02-07 03:00","2019","02","07","03:00"
"-108.42","55.84","BUFFALO NARROWS A","4060984","2019-02-07 04:00","2019","02","07","04:00"
"-108.42","55.84","BUFFALO NARROWS A","4060984","2019-02-07 05:00","2019","02","07","05:00"
"-108.42","55.84","BUFFALO NARROWS A","4060984","2019-02-07 06:00","2019","02","07","06:00","-37.9","","-41.8","","68","","","","19","","7","","24.1","","97.98","","","","-46","","Clear"
"-108.42","55.84","BUFFALO NARROWS A","4060984","2019-02-07 07:00","2019","02","07","07:00","-37.7","","-41.5","","68","","","","21","","6","","24.1","","97.99","","","","-45","","NA"
"-108.42","55.84","BUFFALO NARROWS A","4060984","2019-02-07 08:00","2019","02","07","08:00","-37.7","","-41.6","","68","","","","18","","7","","24.1","","97.97","","","","-46","","NA"
"-108.42","55.84","BUFFALO NARROWS A","4060984","2019-02-07 09:00","2019","02","07","09:00","-38.1","","-42.0","","68","","","","16","","7","","24.1","","97.96","","","","-47","","Mainly Clear"
"-108.42","55.84","BUFFALO NARROWS A","4060984","2019-02-07 10:00","2019","02","07","10:00","-35.8","","-39.6","","69","","","","19","","8","","24.1","","97.97","","","","-45","","NA"
"-108.42","55.84","BUFFALO NARROWS A","4060984","2019-02-07 11:00","2019","02","07","11:00","-33.5","","-37.2","","70","","","","19","","7","","24.1","","97.97","","","","-41","","NA"
"-108.42","55.84","BUFFALO NARROWS A","4060984","2019-02-07 12:00","2019","02","07","12:00","-30.3","","-34.1","","70","","","","12","","5","","24.1","","97.94","","","","-36","","Mostly Cloudy"
"-108.42","55.84","BUFFALO NARROWS A","4060984","2019-02-07 13:00","2019","02","07","13:00","-26.8","","-30.6","","71","","","","13","","8","","24.1","","97.91","","","","-34","","NA"
"-108.42","55.84","BUFFALO NARROWS A","4060984","2019-02-07 14:00","2019","02","07","14:00","-24.1","","-28.1","","70","","","","12","","12","","24.1","","97.84","","","","-33","","NA"
"-108.42","55.84","BUFFALO NARROWS A","4060984","2019-02-07 15:00","2019","02","07","15:00","-26.8","","-31.4","","65","","","","11","","9","","24.1","","97.79","","","","-35","","Mainly Clear"
"-108.42","55.84","BUFFALO NARROWS A","4060984","2019-02-07 16:00","2019","02","07","16:00","-28.2","","-32.7","","66","","","","11","","9","","24.1","","97.75","","","","-36","","NA"
"-108.42","55.84","BUFFALO NARROWS A","4060984","2019-02-07 17:00","2019","02","07","17:00","-21.7","","-26.8","","64","","","","15","","11","","24.1","","97.72","","","","-30","","NA"
"-108.42","55.84","BUFFALO NARROWS A","4060984","2019-02-07 18:00","2019","02","07","18:00","-23.8","","-27.7","","70","","","","16","","9","","24.1","","97.71","","","","-31","","Clear"
"-108.42","55.84","BUFFALO NARROWS A","4060984","2019-02-07 19:00","2019","02","07","19:00","-26.4","","-29.0","","79","","","","13","","8","","24.1","","97.70","","","","-34","","NA"
"-108.42","55.84","BUFFALO NARROWS A","4060984","2019-02-07 20:00","2019","02","07","20:00","-27.2","","-29.9","","79","","","","13","","12","","24.1","","97.67","","","","-37","","NA"
"-108.42","55.84","BUFFALO NARROWS A","4060984","2019-02-07 21:00","2019","02","07","21:00","-27.8","","-30.7","","77","","","","14","","11","","24.1","","97.65","","","","-37","","Mainly Clear"
"-108.42","55.84","BUFFALO NARROWS A","4060984","2019-02-07 22:00","2019","02","07","22:00","-28.5","","-31.2","","78","","","","12","","8","","24.1","","97.66","","","","-36","","NA"
"-108.42","55.84","BUFFALO NARROWS A","4060984","2019-02-07 23:00","2019","02","07","23:00"
"-108.42","55.84","BUFFALO NARROWS A","4060984","2019-02-08 00:00","2019","02","08","00:00"
"-108.42","55.84","BUFFALO NARROWS A","4060984","2019-02-08 01:00","2019","02","08","01:00"
"-108.42","55.84","BUFFALO NARROWS A","4060984","2019-02-08 02:00","2019","02","08","02:00"
"-108.42","55.84","BUFFALO NARROWS A","4060984","2019-02-08 03:00","2019","02","08","03:00"
"-108.42","55.84","BUFFALO NARROWS A","4060984","2019-02-08 04:00","2019","02","08","04:00"
"-108.42","55.84","BUFFALO NARROWS A","4060984","2019-02-08 05:00","2019","02","08","05:00"
"-108.42","55.84","BUFFALO NARROWS A","4060984","2019-02-08 06:00","2019","02","08","06:00","-32.2","","-35.8","","71","","","","8","","6","","24.1","","97.85","","","","-39","","Mainly Clear"
"-108.42","55.84","BUFFALO NARROWS A","4060984","2019-02-08 07:00","2019","02","08","07:00","-31.3","","-34.8","","72","","","","7","","5","","24.1","","97.90","","","","-37","","NA"
"-108.42","55.84","BUFFALO NARROWS A","4060984","2019-02-08 08:00","2019","02","08","08:00","-32.0","","-35.6","","71","","","","7","","8","","24.1","","97.96","","","","-40","","NA"
"-108.42","55.84","BUFFALO NARROWS A","4060984","2019-02-08 09:00","2019","02","08","09:00","-31.3","","-34.8","","72","","","","4","","8","","24.1","","98.04","","","","-40","","Mostly Cloudy"
"-108.42","55.84","BUFFALO NARROWS A","4060984","2019-02-08 10:00","2019","02","08","10:00","-31.2","","-34.7","","72","","","","5","","6","","16.1","","98.12","","","","-38","","NA"
"-108.42","55.84","BUFFALO NARROWS A","4060984","2019-02-08 11:00","2019","02","08","11:00","-29.7","","-33.2","","73","","","","36","","2","","19.3","","98.20","","","","-32","","Ice Crystals"
"-108.42","55.84","BUFFALO NARROWS A","4060984","2019-02-08 12:00","2019","02","08","12:00","-29.0","","-32.5","","72","","","","32","","7","","19.3","","98.24","","","","-36","","Ice Crystals"
"-108.42","55.84","BUFFALO NARROWS A","4060984","2019-02-08 13:00","2019","02","08","13:00","-27.5","","-31.1","","72","","","","30","","8","","19.3","","98.29","","","","-35","","Ice Crystals"
"-108.42","55.84","BUFFALO NARROWS A","4060984","2019-02-08 14:00","2019","02","08","14:00","-27.4","","-31.0","","72","","","","31","","8","","19.3","","98.33","","","","-35","","Ice Crystals"
"-108.42","55.84","BUFFALO NARROWS A","4060984","2019-02-08 15:00","2019","02","08","15:00","-27.1","","-30.7","","72","","","","36","","4","","24.1","","98.37","","","","-31","","Ice Crystals"
"-108.42","55.84","BUFFALO NARROWS A","4060984","2019-02-08 16:00","2019","02","08","16:00","-26.2","","-29.9","","71","","","","36","","3","","24.1","","98.42","","","","-29","","NA"
"-108.42","55.84","BUFFALO NARROWS A","4060984","2019-02-08 17:00","2019","02","08","17:00","-25.7","","-29.5","","71","","","","36","","2","","24.1","","98.46","","","","-28","","NA"
"-108.42","55.84","BUFFALO NARROWS A","4060984","2019-02-08 18:00","2019","02","08","18:00","-25.5","","-28.9","","74","","","","31","","7","","24.1","","98.52","","","","-32","","Mainly Clear"
"-108.42","55.84","BUFFALO NARROWS A","4060984","2019-02-08 19:00","2019","02","08","19:00","-28.3","","-31.5","","75","","","","31","","9","","24.1","","98.57","","","","-37","","NA"
"-108.42","55.84","BUFFALO NARROWS A","4060984","2019-02-08 20:00","2019","02","08","20:00","-27.2","","-30.1","","77","","","","32","","8","","24.1","","98.62","","","","-35","","NA"
"-108.42","55.84","BUFFALO NARROWS A","4060984","2019-02-08 21:00","2019","02","08","21:00","-28.4","","-31.4","","76","","","","32","","8","","24.1","","98.67","","","","-36","","Clear"
"-108.42","55.84","BUFFALO NARROWS A","4060984","2019-02-08 22:00","2019","02","08","22:00","-27.6","","-30.5","","77","","","","32","","11","","24.1","","98.73","","","","-37","","NA"
"-108.42","55.84","BUFFALO NARROWS A","4060984","2019-02-08 23:00","2019","02","08","23:00"
"-108.42","55.84","BUFFALO NARROWS A","4060984","2019-02-09 00:00","2019","02","09","00:00"
"-108.42","55.84","BUFFALO NARROWS A","4060984","2019-02-09 01:00","2019","02","09","01:00"
"-108.42","55.84","BUFFALO NARROWS A","4060984","2019-02-09 02:00","2019","02","09","02:00"
"-108.42","55.84","BUFFALO NARROWS A","4060984","2019-02-09 03:00","2019","02","09","03:00"
"-108.42","55.84","BUFFALO NARROWS A","4060984","2019-02-09 04:00","2019","02","09","04:00"
"-108.42","55.84","BUFFALO NARROWS A","4060984","2019-02-09 05:00","2019","02","09","05:00"
"-108.42","55.84","BUFFALO NARROWS A","4060984","2019-02-09 06:00","2019","02","09","06:00","-32.1","","-35.6","","72","","","","32","","15","","24.1","","98.99","","","","-44","","Cloudy"
"-108.42","55.84","BUFFALO NARROWS A","4060984","2019-02-09 07:00","2019","02","09","07:00","-33.2","","-36.8","","71","","","","33","","13","","24.1","","99.00","","","","-44","","NA"
"-108.42","55.84","BUFFALO NARROWS A","4060984","2019-02-09 08:00","2019","02","09","08:00","-31.6","","-35.0","","72","","","","31","","13","","24.1","","99.00","","","","-43","","NA"
"-108.42","55.84","BUFFALO NARROWS A","4060984","2019-02-09 09:00","2019","02","09","09:00","-31.5","","-34.7","","74","","","","30","","10","","24.1","","98.97","","","","-41","","Cloudy"
"-108.42","55.84","BUFFALO NARROWS A","4060984","2019-02-09 10:00","2019","02","09","10:00","-30.4","","-33.7","","73","","","","29","","12","","24.1","","98.97","","","","-41","","NA"
"-108.42","55.84","BUFFALO NARROWS A","4060984","2019-02-09 11:00","2019","02","09","11:00","-30.0","","-33.4","","73","","","","25","","8","","24.1","","98.96","","","","-38","","NA"
"-108.42","55.84","BUFFALO NARROWS A","4060984","2019-02-09 12:00","2019","02","09","12:00","-29.0","","-32.4","","73","","","","27","","7","","24.1","","98.93","","","","-36","","Clear"
"-108.42","55.84","BUFFALO NARROWS A","4060984","2019-02-09 13:00","2019","02","09","13:00","-27.1","","-30.5","","74","","","","26","","8","","24.1","","98.89","","","","-35","","NA"
"-108.42","55.84","BUFFALO NARROWS A","4060984","2019-02-09 14:00","2019","02","09","14:00","-25.5","","-28.9","","74","","","","26","","9","","24.1","","98.76","","","","-33","","NA"
"-108.42","55.84","BUFFALO NARROWS A","4060984","2019-02-09 15:00","2019","02","09","15:00","-24.0","","-27.4","","74","","","","21","","7","","24.1","","98.64","","","","-30","","Clear"
"-108.42","55.84","BUFFALO NARROWS A","4060984","2019-02-09 16:00","2019","02","09","16:00","-22.5","","-26.0","","73","","","","22","","9","","24.1","","98.56","","","","-30","","NA"
"-108.42","55.84","BUFFALO NARROWS A","4060984","2019-02-09 17:00","2019","02","09","17:00","-22.1","","-25.9","","72","","","","21","","9","","24.1","","98.52","","","","-29","","NA"
"-108.42","55.84","BUFFALO NARROWS A","4060984","2019-02-09 18:00","2019","02","09","18:00","-23.3","","-26.8","","74","","","","18","","7","","24.1","","98.44","","","","-29","","Clear"
"-108.42","55.84","BUFFALO NARROWS A","4060984","2019-02-09 19:00","2019","02","09","19:00","-25.2","","-28.2","","77","","","","17","","9","","24.1","","98.35","","","","-33","","NA"
"-108.42","55.84","BUFFALO NARROWS A","4060984","2019-02-09 20:00","2019","02","09","20:00","-26.3","","-29.4","","76","","","","17","","14","","24.1","","98.26","","","","-36","","NA"
"-108.42","55.84","BUFFALO NARROWS A","4060984","2019-02-09 21:00","2019","02","09","21:00","-26.2","","-29.4","","76","","","","19","","12","","24.1","","98.20","","","","-36","","Clear"
"-108.42","55.84","BUFFALO NARROWS A","4060984","2019-02-09 22:00","2019","02","09","22:00","-28.0","","-31.1","","75","","","","18","","10","","24.1","","98.14","","","","-37","","NA"
"-108.42","55.84","BUFFALO NARROWS A","4060984","2019-02-09 23:00","2019","02","09","23:00"
"-108.42","55.84","BUFFALO NARROWS A","4060984","2019-02-10 00:00","2019","02","10","00:00"
"-108.42","55.84","BUFFALO NARROWS A","4060984","2019-02-10 01:00","2019","02","10","01:00"
"-108.42","55.84","BUFFALO NARROWS A","4060984","2019-02-10 02:00","2019","02","10","02:00"
"-108.42","55.84","BUFFALO NARROWS A","4060984","2019-02-10 03:00","2019","02","10","03:00"
"-108.42","55.84","BUFFALO NARROWS A","4060984","2019-02-10 04:00","2019","02","10","04:00"
"-108.42","55.84","BUFFALO NARROWS A","4060984","2019-02-10 05:00","2019","02","10","05:00"
"-108.42","55.84","BUFFALO NARROWS A","4060984","2019-02-10 06:00","2019","02","10","06:00","-32.1","","-35.5","","73","","","","18","","13","","24.1","","97.77","","","","-43","","Clear"
"-108.42","55.84","BUFFALO NARROWS A","4060984","2019-02-10 07:00","2019","02","10","07:00","-31.0","","-34.2","","74","","","","19","","10","","24.1","","97.71","","","","-40","","NA"
"-108.42","55.84","BUFFALO NARROWS A","4060984","2019-02-10 08:00","2019","02","10","08:00","-30.9","","-34.3","","73","","","","19","","13","","24.1","","97.65","","","","-42","","NA"
"-108.42","55.84","BUFFALO NARROWS A","4060984","2019-02-10 09:00","2019","02","10","09:00","-32.1","","-35.6","","72","","","","18","","10","","24.1","","97.65","","","","-42","","Clear"
"-108.42","55.84","BUFFALO NARROWS A","4060984","2019-02-10 10:00","2019","02","10","10:00","-31.9","","-35.6","","71","","","","18","","5","","24.1","","97.63","","","","-38","","NA"
"-108.42","55.84","BUFFALO NARROWS A","4060984","2019-02-10 11:00","2019","02","10","11:00","-27.1","","-30.7","","72","","","","19","","7","","24.1","","97.62","","","","-34","","NA"
"-108.42","55.84","BUFFALO NARROWS A","4060984","2019-02-10 12:00","2019","02","10","12:00","-23.1","","-27.1","","71","","","","19","","9","","24.1","","97.59","","","","-30","","Clear"
"-108.42","55.84","BUFFALO NARROWS A","4060984","2019-02-10 13:00","2019","02","10","13:00","-21.6","","-26.1","","67","","","","16","","8","","24.1","","97.52","","","","-28","","NA"
"-108.42","55.84","BUFFALO NARROWS A","4060984","2019-02-10 14:00","2019","02","10","14:00","-20.1","","-25.6","","62","","","","15","","8","","24.1","","97.44","","","","-26","","NA"
"-108.42","55.84","BUFFALO NARROWS A","4060984","2019-02-10 15:00","2019","02","10","15:00","-19.2","","-25.1","","60","","","","17","","9","","24.1","","97.36","","","","-26","","Clear"
"-108.42","55.84","BUFFALO NARROWS A","4060984","2019-02-10 16:00","2019","02","10","16:00","-20.6","","-26.2","","62","","","","11","","5","","24.1","","97.28","","","","-25","","NA"
"-108.42","55.84","BUFFALO NARROWS A","4060984","2019-02-10 17:00","2019","02","10","17:00","-21.1","","-26.4","","63","","","","10","","6","","24.1","","97.23","","","","-26","","NA"
"-108.42","55.84","BUFFALO NARROWS A","4060984","2019-02-10 18:00","2019","02","10","18:00","-20.6","","-25.2","","67","","","","15","","8","","24.1","","97.18","","","","-27","","Clear"
"-108.42","55.84","BUFFALO NARROWS A","4060984","2019-02-10 19:00","2019","02","10","19:00","-21.7","","-25.7","","71","","","","15","","9","","24.1","","97.13","","","","-29","","NA"
"-108.42","55.84","BUFFALO NARROWS A","4060984","2019-02-10 20:00","2019","02","10","20:00","-22.6","","-25.9","","75","","","","15","","9","","24.1","","97.09","","","","-30","","NA"
"-108.42","55.84","BUFFALO NARROWS A","4060984","2019-02-10 21:00","2019","02","10","21:00","-22.1","","-25.7","","73","","","","16","","12","","24.1","","97.07","","","","-31","","Mainly Clear"
"-108.42","55.84","BUFFALO NARROWS A","4060984","2019-02-10 22:00","2019","02","10","22:00","-21.9","","-25.5","","73","","","","17","","8","","24.1","","97.05","","","","-28","","NA"
"-108.42","55.84","BUFFALO NARROWS A","4060984","2019-02-10 23:00","2019","02","10","23:00"
"-108.42","55.84","BUFFALO NARROWS A","4060984","2019-02-11 00:00","2019","02","11","00:00"
"-108.42","55.84","BUFFALO NARROWS A","4060984","2019-02-11 01:00","2019","02","11","01:00"
"-108.42","55.84","BUFFALO NARROWS A","4060984","2019-02-11 02:00","2019","02","11","02:00"
"-108.42","55.84","BUFFALO NARROWS A","4060984","2019-02-11 03:00","2019","02","11","03:00"
"-108.42","55.84","BUFFALO NARROWS A","4060984","2019-02-11 04:00","2019","02","11","04:00"
"-108.42","55.84","BUFFALO NARROWS A","4060984","2019-02-11 05:00","2019","02","11","05:00"
"-108.42","55.84","BUFFALO NARROWS A","4060984","2019-02-11 06:00","2019","02","11","06:00","-25.1","","-28.1","","77","","","","12","","8","","24.1","","96.77","","","","-32","","Cloudy"
"-108.42","55.84","BUFFALO NARROWS A","4060984","2019-02-11 07:00","2019","02","11","07:00","-24.0","","-27.2","","76","","","","13","","11","","19.3","","96.75","","","","-32","","Snow"
"-108.42","55.84","BUFFALO NARROWS A","4060984","2019-02-11 08:00","2019","02","11","08:00","-23.7","","-27.0","","75","","","","13","","7","","24.1","","96.75","","","","-30","","Snow"
"-108.42","55.84","BUFFALO NARROWS A","4060984","2019-02-11 09:00","2019","02","11","09:00","-23.2","","-26.4","","76","","","","11","","11","","24.1","","96.72","","","","-31","","Snow"
"-108.42","55.84","BUFFALO NARROWS A","4060984","2019-02-11 10:00","2019","02","11","10:00","-22.4","","-25.7","","75","","","","12","","12","","9.7","","96.76","","","","-31","","Snow"
"-108.42","55.84","BUFFALO NARROWS A","4060984","2019-02-11 11:00","2019","02","11","11:00","-21.6","","-25.0","","74","","","","11","","10","","6.4","","96.77","","","","-29","","Snow"
"-108.42","55.84","BUFFALO NARROWS A","4060984","2019-02-11 12:00","2019","02","11","12:00","-20.4","","-23.9","","75","","","","10","","9","","9.7","","96.75","","","","-27","","Snow"
"-108.42","55.84","BUFFALO NARROWS A","4060984","2019-02-11 13:00","2019","02","11","13:00","-19.5","","-22.9","","75","","","","6","","9","","3.2","","96.72","","","","-26","","Snow"
"-108.42","55.84","BUFFALO NARROWS A","4060984","2019-02-11 14:00","2019","02","11","14:00","-18.9","","-22.6","","73","","","","10","","10","","4.0","","96.71","","","","-26","","Snow"
"-108.42","55.84","BUFFALO NARROWS A","4060984","2019-02-11 15:00","2019","02","11","15:00","-18.8","","-22.6","","73","","","","9","","10","","4.0","","96.70","","","","-26","","Snow"
"-108.42","55.84","BUFFALO NARROWS A","4060984","2019-02-11 16:00","2019","02","11","16:00","-18.8","","-22.3","","74","","","","10","","12","","4.0","","96.70","","","","-27","","Snow"
"-108.42","55.84","BUFFALO NARROWS A","4060984","2019-02-11 17:00","2019","02","11","17:00","-18.9","","-22.3","","75","","","","10","","12","","4.0","","96.71","","","","-27","","Snow"
"-108.42","55.84","BUFFALO NARROWS A","4060984","2019-02-11 18:00","2019","02","11","18:00","-19.1","","-22.1","","77","","","","11","","10","","4.0","","96.77","","","","-26","","Snow"
"-108.42","55.84","BUFFALO NARROWS A","4060984","2019-02-11 19:00","2019","02","11","19:00","-18.9","","-21.8","","79","","","","8","","7","","4.0","","96.80","","","","-24","","Snow"
"-108.42","55.84","BUFFALO NARROWS A","4060984","2019-02-11 20:00","2019","02","11","20:00","-18.9","","-21.6","","79","","","","10","","9","","9.7","","96.81","","","","-25","","Snow"
"-108.42","55.84","BUFFALO NARROWS A","4060984","2019-02-11 21:00","2019","02","11","21:00","-18.8","","-21.6","","79","","","","9","","9","","9.7","","96.80","","","","-25","","Snow"
"-108.42","55.84","BUFFALO NARROWS A","4060984","2019-02-11 22:00","2019","02","11","22:00","-18.7","","-21.5","","79","","","","10","","8","","16.1","","96.84","","","","-25","","Snow"
"-108.42","55.84","BUFFALO NARROWS A","4060984","2019-02-11 23:00","2019","02","11","23:00"
"-108.42","55.84","BUFFALO NARROWS A","4060984","2019-02-12 00:00","2019","02","12","00:00"
"-108.42","55.84","BUFFALO NARROWS A","4060984","2019-02-12 01:00","2019","02","12","01:00"
"-108.42","55.84","BUFFALO NARROWS A","4060984","2019-02-12 02:00","2019","02","12","02:00"
"-108.42","55.84","BUFFALO NARROWS A","4060984","2019-02-12 03:00","2019","02","12","03:00"
"-108.42","55.84","BUFFALO NARROWS A","4060984","2019-02-12 04:00","2019","02","12","04:00"
"-108.42","55.84","BUFFALO NARROWS A","4060984","2019-02-12 05:00","2019","02","12","05:00"
"-108.42","55.84","BUFFALO NARROWS A","4060984","2019-02-12 06:00","2019","02","12","06:00","-19.9","","-22.3","","81","","","","36","","2","","9.7","","96.81","","","","-22","","Snow"
"-108.42","55.84","BUFFALO NARROWS A","4060984","2019-02-12 07:00","2019","02","12","07:00","-20.7","","-23.4","","79","","","","10","","3","","12.9","","96.82","","","","-23","","Snow"
"-108.42","55.84","BUFFALO NARROWS A","4060984","2019-02-12 08:00","2019","02","12","08:00","-20.2","","-22.9","","80","","","","7","","3","","16.1","","96.82","","","","-23","","Snow"
"-108.42","55.84","BUFFALO NARROWS A","4060984","2019-02-12 09:00","2019","02","12","09:00","-20.2","","-22.7","","81","","","","36","","2","","9.7","","96.84","","","","-22","","Snow"
"-108.42","55.84","BUFFALO NARROWS A","4060984","2019-02-12 10:00","2019","02","12","10:00","-19.9","","-22.5","","80","","","","36","","2","","24.1","","96.83","","","","-22","","Snow"
"-108.42","55.84","BUFFALO NARROWS A","4060984","2019-02-12 11:00","2019","02","12","11:00","-18.9","","-21.9","","77","","","","7","","5","","24.1","","96.80","","","","-23","","Snow"
"-108.42","55.84","BUFFALO NARROWS A","4060984","2019-02-12 12:00","2019","02","12","12:00","-18.9","","-22.4","","74","","","","34","","5","","24.1","","96.77","","","","-23","","Mostly Cloudy"
"-108.42","55.84","BUFFALO NARROWS A","4060984","2019-02-12 13:00","2019","02","12","13:00","-18.1","","-21.9","","73","","","","36","","3","","24.1","","96.74","","","","-21","","NA"
"-108.42","55.84","BUFFALO NARROWS A","4060984","2019-02-12 14:00","2019","02","12","14:00","-17.3","","-21.1","","73","","","","35","","3","","24.1","","96.67","","","","-20","","Snow"
"-108.42","55.84","BUFFALO NARROWS A","4060984","2019-02-12 15:00","2019","02","12","15:00","-17.0","","-21.4","","69","","","","31","","5","","24.1","","96.61","","","","-21","","Mainly Clear"
"-108.42","55.84","BUFFALO NARROWS A","4060984","2019-02-12 16:00","2019","02","12","16:00","-17.6","","-21.8","","70","","","","35","","4","","24.1","","96.58","","","","-21","","NA"
"-108.42","55.84","BUFFALO NARROWS A","4060984","2019-02-12 17:00","2019","02","12","17:00","-17.8","","-21.6","","72","","","","33","","6","","24.1","","96.51","","","","-22","","NA"
"-108.42","55.84","BUFFALO NARROWS A","4060984","2019-02-12 18:00","2019","02","12","18:00","-19.4","","-21.5","","84","","","","36","","2","","24.1","","96.49","","","","-21","","Snow"
"-108.42","55.84","BUFFALO NARROWS A","4060984","2019-02-12 19:00","2019","02","12","19:00","-19.6","","-22.0","","81","","","","24","","4","","19.3","","96.48","","","","-23","","Snow"
"-108.42","55.84","BUFFALO NARROWS A","4060984","2019-02-12 20:00","2019","02","12","20:00","-19.7","","-22.3","","80","","","","28","","5","","19.3","","96.42","","","","-24","","Snow"
"-108.42","55.84","BUFFALO NARROWS A","4060984","2019-02-12 21:00","2019","02","12","21:00","-20.4","","-22.9","","81","","","","30","","4","","24.1","","96.38","","","","-24","","Snow"
"-108.42","55.84","BUFFALO NARROWS A","4060984","2019-02-12 22:00","2019","02","12","22:00","-20.9","","-23.4","","81","","","","32","","5","","19.3","","96.32","","","","-25","","Snow"
"-108.42","55.84","BUFFALO NARROWS A","4060984","2019-02-12 23:00","2019","02","12","23:00"
"-108.42","55.84","BUFFALO NARROWS A","4060984","2019-02-13 00:00","2019","02","13","00:00"
"-108.42","55.84","BUFFALO NARROWS A","4060984","2019-02-13 01:00","2019","02","13","01:00"
"-108.42","55.84","BUFFALO NARROWS A","4060984","2019-02-13 02:00","2019","02","13","02:00"
"-108.42","55.84","BUFFALO NARROWS A","4060984","2019-02-13 03:00","2019","02","13","03:00"
"-108.42","55.84","BUFFALO NARROWS A","4060984","2019-02-13 04:00","2019","02","13","04:00"
"-108.42","55.84","BUFFALO NARROWS A","4060984","2019-02-13 05:00","2019","02","13","05:00"
"-108.42","55.84","BUFFALO NARROWS A","4060984","2019-02-13 06:00","2019","02","13","06:00","-28.4","","-31.3","","76","","","","29","","4","","16.1","","95.97","","","","-33","","Cloudy"
"-108.42","55.84","BUFFALO NARROWS A","4060984","2019-02-13 07:00","2019","02","13","07:00","-27.0","","-29.5","","80","","","","29","","3","","0.8","","95.94","","","","-30","","Freezing Fog"
"-108.42","55.84","BUFFALO NARROWS A","4060984","2019-02-13 08:00","2019","02","13","08:00","-29.0","","-32.2","","74","","","","30","","5","","0.8","","95.91","","","","-34","","Freezing Fog"
"-108.42","55.84","BUFFALO NARROWS A","4060984","2019-02-13 09:00","2019","02","13","09:00","-29.3","","-32.7","","74","","","","36","","2","","0.8","","95.93","","","","-32","","Freezing Fog"
"-108.42","55.84","BUFFALO NARROWS A","4060984","2019-02-13 10:00","2019","02","13","10:00","-28.0","","-31.2","","74","","","","29","","4","","0.4","","95.93","","","","-32","","Freezing Fog"
"-108.42","55.84","BUFFALO NARROWS A","4060984","2019-02-13 11:00","2019","02","13","11:00","-26.8","","-30.0","","75","","","","36","","3","","4.0","","95.93","","","","-30","","Fog"
"-108.42","55.84","BUFFALO NARROWS A","4060984","2019-02-13 12:00","2019","02","13","12:00","-25.4","","-28.6","","75","","","","36","","2","","16.1","","95.90","","","","-27","","Mostly Cloudy"
"-108.42","55.84","BUFFALO NARROWS A","4060984","2019-02-13 13:00","2019","02","13","13:00","-23.0","","-26.1","","77","","","","18","","9","","16.1","","95.84","","","","-30","","Ice Crystals"
"-108.42","55.84","BUFFALO NARROWS A","4060984","2019-02-13 14:00","2019","02","13","14:00","-21.9","","-24.9","","77","","","","36","","1","","19.3","","95.81","","","","-23","","Ice Crystals"
"-108.42","55.84","BUFFALO NARROWS A","4060984","2019-02-13 15:00","2019","02","13","15:00","-20.3","","-23.1","","79","","","","36","","1","","24.1","","95.79","","","","-21","","Ice Crystals"
"-108.42","55.84","BUFFALO NARROWS A","4060984","2019-02-13 16:00","2019","02","13","16:00","-19.7","","-22.5","","79","","","","32","","7","","24.1","","95.79","","","","-25","","Ice Crystals"
"-108.42","55.84","BUFFALO NARROWS A","4060984","2019-02-13 17:00","2019","02","13","17:00","-20.7","","-23.5","","79","","","","9","","4","","24.1","","95.81","","","","-24","","NA"
"-108.42","55.84","BUFFALO NARROWS A","4060984","2019-02-13 18:00","2019","02","13","18:00","-22.4","","-25.3","","78","","","","0","","1","","24.1","","95.81","","","","-23","","Clear"
"-108.42","55.84","BUFFALO NARROWS A","4060984","2019-02-13 19:00","2019","02","13","19:00","-22.1","","-24.8","","79","","","","0","","1","","24.1","","95.84","","","","-23","","NA"
"-108.42","55.84","BUFFALO NARROWS A","4060984","2019-02-13 20:00","2019","02","13","20:00","-25.1","","-28.1","","76","","","","12","","4","","24.1","","95.87","","","","-29","","NA"
"-108.42","55.84","BUFFALO NARROWS A","4060984","2019-02-13 21:00","2019","02","13","21:00","-26.6","","-29.7","","76","","","","21","","3","","24.1","","95.91","","","","-30","","Clear"
"-108.42","55.84","BUFFALO NARROWS A","4060984","2019-02-13 22:00","2019","02","13","22:00","-27.2","","-30.4","","75","","","","36","","1","","24.1","","95.96","","","","-28","","NA"
"-108.42","55.84","BUFFALO NARROWS A","4060984","2019-02-13 23:00","2019","02","13","23:00"
"-108.42","55.84","BUFFALO NARROWS A","4060984","2019-02-14 00:00","2019","02","14","00:00"
"-108.42","55.84","BUFFALO NARROWS A","4060984","2019-02-14 01:00","2019","02","14","01:00"
"-108.42","55.84","BUFFALO NARROWS A","4060984","2019-02-14 02:00","2019","02","14","02:00"
"-108.42","55.84","BUFFALO NARROWS A","4060984","2019-02-14 03:00","2019","02","14","03:00"
"-108.42","55.84","BUFFALO NARROWS A","4060984","2019-02-14 04:00","2019","02","14","04:00"
"-108.42","55.84","BUFFALO NARROWS A","4060984","2019-02-14 05:00","2019","02","14","05:00"
"-108.42","55.84","BUFFALO NARROWS A","4060984","2019-02-14 06:00","2019","02","14","06:00","-33.1","","-36.8","","71","","","","15","","6","","24.1","","96.36","","","","-40","","Clear"
"-108.42","55.84","BUFFALO NARROWS A","4060984","2019-02-14 07:00","2019","02","14","07:00","-32.6","","-36.2","","71","","","","19","","6","","24.1","","96.43","","","","-40","","NA"
"-108.42","55.84","BUFFALO NARROWS A","4060984","2019-02-14 08:00","2019","02","14","08:00","-33.5","","-37.1","","71","","","","19","","8","","24.1","","96.49","","","","-42","","NA"
"-108.42","55.84","BUFFALO NARROWS A","4060984","2019-02-14 09:00","2019","02","14","09:00","-33.2","","-36.8","","71","","","","21","","7","","24.1","","96.51","","","","-41","","Clear"
"-108.42","55.84","BUFFALO NARROWS A","4060984","2019-02-14 10:00","2019","02","14","10:00","-30.0","","-33.4","","73","","","","21","","7","","24.1","","96.58","","","","-37","","NA"
"-108.42","55.84","BUFFALO NARROWS A","4060984","2019-02-14 11:00","2019","02","14","11:00","-24.2","","-27.3","","76","","","","21","","7","","24.1","","96.63","","","","-31","","NA"
"-108.42","55.84","BUFFALO NARROWS A","4060984","2019-02-14 12:00","2019","02","14","12:00","-21.7","","-24.6","","78","","","","21","","5","","24.1","","96.66","","","","-26","","Clear"
"-108.42","55.84","BUFFALO NARROWS A","4060984","2019-02-14 13:00","2019","02","14","13:00","-17.8","","-20.4","","80","","","","18","","12","","24.1","","96.64","","","","-25","","NA"
"-108.42","55.84","BUFFALO NARROWS A","4060984","2019-02-14 14:00","2019","02","14","14:00","-16.3","","-19.0","","80","","","","21","","3","","24.1","","96.60","","","","-19","","NA"
"-108.42","55.84","BUFFALO NARROWS A","4060984","2019-02-14 15:00","2019","02","14","15:00","-14.9","","-21.0","","61","","","","22","","8","","24.1","","96.58","","","","-20","","Clear"
"-108.42","55.84","BUFFALO NARROWS A","4060984","2019-02-14 16:00","2019","02","14","16:00","-14.8","","-20.5","","63","","","","16","","13","","24.1","","96.55","","","","-22","","NA"
"-108.42","55.84","BUFFALO NARROWS A","4060984","2019-02-14 17:00","2019","02","14","17:00","-14.8","","-20.1","","65","","","","17","","13","","24.1","","96.54","","","","-22","","NA"
"-108.42","55.84","BUFFALO NARROWS A","4060984","2019-02-14 18:00","2019","02","14","18:00","-16.9","","-20.9","","72","","","","17","","11","","24.1","","96.54","","","","-24","","Clear"
"-108.42","55.84","BUFFALO NARROWS A","4060984","2019-02-14 19:00","2019","02","14","19:00","-18.7","","-21.5","","79","","","","16","","10","","24.1","","96.58","","","","-26","","NA"
"-108.42","55.84","BUFFALO NARROWS A","4060984","2019-02-14 20:00","2019","02","14","20:00","-20.5","","-23.1","","80","","","","16","","10","","24.1","","96.55","","","","-28","","NA"
"-108.42","55.84","BUFFALO NARROWS A","4060984","2019-02-14 21:00","2019","02","14","21:00","-19.6","","-22.2","","80","","","","18","","9","","24.1","","96.53","","","","-26","","Clear"
"-108.42","55.84","BUFFALO NARROWS A","4060984","2019-02-14 22:00","2019","02","14","22:00","-20.3","","-22.9","","80","","","","19","","8","","24.1","","96.53","","","","-27","","NA"
"-108.42","55.84","BUFFALO NARROWS A","4060984","2019-02-14 23:00","2019","02","14","23:00"
"-108.42","55.84","BUFFALO NARROWS A","4060984","2019-02-15 00:00","2019","02","15","00:00"
"-108.42","55.84","BUFFALO NARROWS A","4060984","2019-02-15 01:00","2019","02","15","01:00"
"-108.42","55.84","BUFFALO NARROWS A","4060984","2019-02-15 02:00","2019","02","15","02:00"
"-108.42","55.84","BUFFALO NARROWS A","4060984","2019-02-15 03:00","2019","02","15","03:00"
"-108.42","55.84","BUFFALO NARROWS A","4060984","2019-02-15 04:00","2019","02","15","04:00"
"-108.42","55.84","BUFFALO NARROWS A","4060984","2019-02-15 05:00","2019","02","15","05:00"
"-108.42","55.84","BUFFALO NARROWS A","4060984","2019-02-15 06:00","2019","02","15","06:00"
"-108.42","55.84","BUFFALO NARROWS A","4060984","2019-02-15 07:00","2019","02","15","07:00","-25.9","","-28.9","","77","","","","20","","10","","24.1","","96.56","","","","-34","","NA"
"-108.42","55.84","BUFFALO NARROWS A","4060984","2019-02-15 08:00","2019","02","15","08:00","-26.8","","-29.7","","77","","","","19","","4","","24.1","","96.57","","","","-31","","NA"
"-108.42","55.84","BUFFALO NARROWS A","4060984","2019-02-15 09:00","2019","02","15","09:00","-26.4","","-29.4","","76","","","","20","","10","","24.1","","96.58","","","","-35","","Mostly Cloudy"
"-108.42","55.84","BUFFALO NARROWS A","4060984","2019-02-15 10:00","2019","02","15","10:00","-25.7","","-28.9","","75","","","","19","","8","","24.1","","96.61","","","","-33","","NA"
"-108.42","55.84","BUFFALO NARROWS A","4060984","2019-02-15 11:00","2019","02","15","11:00","-21.7","","-25.2","","74","","","","22","","8","","24.1","","96.65","","","","-28","","NA"
"-108.42","55.84","BUFFALO NARROWS A","4060984","2019-02-15 12:00","2019","02","15","12:00","-20.2","","-24.4","","69","","","","36","","1","","24.1","","96.65","","","","-21","","Mostly Cloudy"
"-108.42","55.84","BUFFALO NARROWS A","4060984","2019-02-15 13:00","2019","02","15","13:00","-19.5","","-24.5","","65","","","","4","","7","","24.1","","96.66","","","","-25","","NA"
"-108.42","55.84","BUFFALO NARROWS A","4060984","2019-02-15 14:00","2019","02","15","14:00","-17.7","","-22.6","","66","","","","35","","4","","24.1","","96.65","","","","-21","","NA"
"-108.42","55.84","BUFFALO NARROWS A","4060984","2019-02-15 15:00","2019","02","15","15:00","-19.5","","-23.6","","70","","","","5","","10","","24.1","","96.62","","","","-27","","Mostly Cloudy"
"-108.42","55.84","BUFFALO NARROWS A","4060984","2019-02-15 16:00","2019","02","15","16:00","-18.5","","-23.1","","67","","","","5","","10","","24.1","","96.63","","","","-25","","NA"
"-108.42","55.84","BUFFALO NARROWS A","4060984","2019-02-15 17:00","2019","02","15","17:00","-18.9","","-23.4","","69","","","","4","","9","","24.1","","96.64","","","","-25","","NA"
"-108.42","55.84","BUFFALO NARROWS A","4060984","2019-02-15 18:00","2019","02","15","18:00","-21.4","","-24.5","","77","","","","4","","16","","24.1","","96.61","","","","-31","","Mostly Cloudy"
"-108.42","55.84","BUFFALO NARROWS A","4060984","2019-02-15 19:00","2019","02","15","19:00","-20.8","","-24.1","","75","","","","4","","8","","24.1","","96.62","","","","-27","","NA"
"-108.42","55.84","BUFFALO NARROWS A","4060984","2019-02-15 20:00","2019","02","15","20:00","-21.7","","-24.4","","79","","","","4","","4","","24.1","","96.64","","","","-25","","NA"
"-108.42","55.84","BUFFALO NARROWS A","4060984","2019-02-15 21:00","2019","02","15","21:00","-24.0","","-26.5","","80","","","","4","","5","","24.1","","96.66","","","","-29","","Cloudy"
"-108.42","55.84","BUFFALO NARROWS A","4060984","2019-02-15 22:00","2019","02","15","22:00","-24.4","","-26.7","","82","","","","3","","4","","24.1","","96.67","","","","-28","","NA"
"-108.42","55.84","BUFFALO NARROWS A","4060984","2019-02-15 23:00","2019","02","15","23:00"
"-108.42","55.84","BUFFALO NARROWS A","4060984","2019-02-16 00:00","2019","02","16","00:00"
"-108.42","55.84","BUFFALO NARROWS A","4060984","2019-02-16 01:00","2019","02","16","01:00"
"-108.42","55.84","BUFFALO NARROWS A","4060984","2019-02-16 02:00","2019","02","16","02:00"
"-108.42","55.84","BUFFALO NARROWS A","4060984","2019-02-16 03:00","2019","02","16","03:00"
"-108.42","55.84","BUFFALO NARROWS A","4060984","2019-02-16 04:00","2019","02","16","04:00"
"-108.42","55.84","BUFFALO NARROWS A","4060984","2019-02-16 05:00","2019","02","16","05:00"
"-108.42","55.84","BUFFALO NARROWS A","4060984","2019-02-16 06:00","2019","02","16","06:00","-26.7","","-29.7","","76","","","","4","","7","","24.1","","96.85","","","","-33","","Mostly Cloudy"
"-108.42","55.84","BUFFALO NARROWS A","4060984","2019-02-16 07:00","2019","02","16","07:00","-26.7","","-29.8","","76","","","","36","","3","","24.1","","96.90","","","","-30","","NA"
"-108.42","55.84","BUFFALO NARROWS A","4060984","2019-02-16 08:00","2019","02","16","08:00","-27.0","","-30.1","","75","","","","3","","9","","24.1","","96.93","","","","-35","","NA"
"-108.42","55.84","BUFFALO NARROWS A","4060984","2019-02-16 09:00","2019","02","16","09:00","-25.4","","-28.4","","76","","","","3","","9","","24.1","","96.97","","","","-33","","Mostly Cloudy"
"-108.42","55.84","BUFFALO NARROWS A","4060984","2019-02-16 10:00","2019","02","16","10:00","-25.9","","-29.0","","76","","","","3","","11","","24.1","","97.03","","","","-35","","NA"
"-108.42","55.84","BUFFALO NARROWS A","4060984","2019-02-16 11:00","2019","02","16","11:00","-22.8","","-25.7","","77","","","","3","","10","","24.1","","97.06","","","","-31","","NA"
"-108.42","55.84","BUFFALO NARROWS A","4060984","2019-02-16 12:00","2019","02","16","12:00","-20.9","","-23.8","","78","","","","2","","8","","24.1","","97.11","","","","-27","","Mostly Cloudy"
"-108.42","55.84","BUFFALO NARROWS A","4060984","2019-02-16 13:00","2019","02","16","13:00","-19.8","","-22.8","","78","","","","36","","10","","24.1","","97.14","","","","-27","","NA"
"-108.42","55.84","BUFFALO NARROWS A","4060984","2019-02-16 14:00","2019","02","16","14:00","-18.2","","-21.4","","76","","","","36","","9","","24.1","","97.17","","","","-25","","NA"
"-108.42","55.84","BUFFALO NARROWS A","4060984","2019-02-16 15:00","2019","02","16","15:00","-18.1","","-21.7","","74","","","","36","","13","","24.1","","97.21","","","","-26","","Cloudy"
"-108.42","55.84","BUFFALO NARROWS A","4060984","2019-02-16 16:00","2019","02","16","16:00","-17.5","","-21.6","","71","","","","1","","14","","24.1","","97.26","","","","-26","","NA"
"-108.42","55.84","BUFFALO NARROWS A","4060984","2019-02-16 17:00","2019","02","16","17:00","-17.4","","-21.4","","71","","","","2","","15","","24.1","","97.30","","","","-26","","NA"
"-108.42","55.84","BUFFALO NARROWS A","4060984","2019-02-16 18:00","2019","02","16","18:00","-18.2","","-22.0","","73","","","","2","","14","","24.1","","97.36","","","","-27","","Mostly Cloudy"
"-108.42","55.84","BUFFALO NARROWS A","4060984","2019-02-16 19:00","2019","02","16","19:00","-19.0","","-22.8","","73","","","","2","","16","","24.1","","97.41","","","","-28","","NA"
"-108.42","55.84","BUFFALO NARROWS A","4060984","2019-02-16 20:00","2019","02","16","20:00","-22.0","","-24.9","","78","","","","2","","7","","24.1","","97.48","","","","-28","","NA"
"-108.42","55.84","BUFFALO NARROWS A","4060984","2019-02-16 21:00","2019","02","16","21:00","-21.9","","-24.6","","80","","","","3","","9","","24.1","","97.56","","","","-29","","Cloudy"
"-108.42","55.84","BUFFALO NARROWS A","4060984","2019-02-16 22:00","2019","02","16","22:00","-21.0","","-24.3","","76","","","","3","","9","","24.1","","97.60","","","","-28","","Snow"
"-108.42","55.84","BUFFALO NARROWS A","4060984","2019-02-16 23:00","2019","02","16","23:00"
"-108.42","55.84","BUFFALO NARROWS A","4060984","2019-02-17 00:00","2019","02","17","00:00"
"-108.42","55.84","BUFFALO NARROWS A","4060984","2019-02-17 01:00","2019","02","17","01:00"
"-108.42","55.84","BUFFALO NARROWS A","4060984","2019-02-17 02:00","2019","02","17","02:00"
"-108.42","55.84","BUFFALO NARROWS A","4060984","2019-02-17 03:00","2019","02","17","03:00"
"-108.42","55.84","BUFFALO NARROWS A","4060984","2019-02-17 04:00","2019","02","17","04:00"
"-108.42","55.84","BUFFALO NARROWS A","4060984","2019-02-17 05:00","2019","02","17","05:00"
"-108.42","55.84","BUFFALO NARROWS A","4060984","2019-02-17 06:00","2019","02","17","06:00","-23.9","","-27.1","","75","","","","31","","7","","24.1","","97.95","","","","-30","","Snow"
"-108.42","55.84","BUFFALO NARROWS A","4060984","2019-02-17 07:00","2019","02","17","07:00","-24.5","","-27.7","","75","","","","32","","10","","24.1","","98.01","","","","-33","","Snow"
"-108.42","55.84","BUFFALO NARROWS A","4060984","2019-02-17 08:00","2019","02","17","08:00","-24.1","","-27.3","","76","","","","31","","7","","24.1","","98.07","","","","-30","","Snow"
"-108.42","55.84","BUFFALO NARROWS A","4060984","2019-02-17 09:00","2019","02","17","09:00","-23.8","","-26.9","","76","","","","33","","8","","24.1","","98.10","","","","-31","","Snow"
"-108.42","55.84","BUFFALO NARROWS A","4060984","2019-02-17 10:00","2019","02","17","10:00","-23.7","","-27.1","","74","","","","36","","10","","24.1","","98.15","","","","-32","","Snow"
"-108.42","55.84","BUFFALO NARROWS A","4060984","2019-02-17 11:00","2019","02","17","11:00","-23.2","","-27.0","","72","","","","35","","8","","24.1","","98.17","","","","-30","","Snow"
"-108.42","55.84","BUFFALO NARROWS A","4060984","2019-02-17 12:00","2019","02","17","12:00","-22.6","","-26.5","","71","","","","32","","7","","19.3","","98.21","","","","-29","","Snow"
"-108.42","55.84","BUFFALO NARROWS A","4060984","2019-02-17 13:00","2019","02","17","13:00","-21.9","","-25.9","","71","","","","33","","7","","19.3","","98.23","","","","-28","","Snow"
"-108.42","55.84","BUFFALO NARROWS A","4060984","2019-02-17 14:00","2019","02","17","14:00","-21.4","","-25.9","","68","","","","32","","8","","24.1","","98.23","","","","-28","","NA"
"-108.42","55.84","BUFFALO NARROWS A","4060984","2019-02-17 15:00","2019","02","17","15:00","-21.2","","-25.7","","67","","","","7","","6","","24.1","","98.23","","","","-26","","Mainly Clear"
"-108.42","55.84","BUFFALO NARROWS A","4060984","2019-02-17 16:00","2019","02","17","16:00","-21.1","","-25.8","","66","","","","36","","2","","24.1","","98.20","","","","-23","","NA"
"-108.42","55.84","BUFFALO NARROWS A","4060984","2019-02-17 17:00","2019","02","17","17:00","-20.5","","-25.1","","67","","","","31","","7","","24.1","","98.21","","","","-26","","NA"
"-108.42","55.84","BUFFALO NARROWS A","4060984","2019-02-17 18:00","2019","02","17","18:00","-21.4","","-25.6","","70","","","","31","","7","","24.1","","98.23","","","","-27","","Mainly Clear"
"-108.42","55.84","BUFFALO NARROWS A","4060984","2019-02-17 19:00","2019","02","17","19:00","-22.6","","-26.0","","74","","","","31","","7","","24.1","","98.25","","","","-29","","NA"
"-108.42","55.84","BUFFALO NARROWS A","4060984","2019-02-17 20:00","2019","02","17","20:00","-22.8","","-26.2","","74","","","","31","","6","","24.1","","98.25","","","","-28","","NA"
"-108.42","55.84","BUFFALO NARROWS A","4060984","2019-02-17 21:00","2019","02","17","21:00","-25.6","","-28.4","","78","","","","31","","5","","24.1","","98.25","","","","-31","","Clear"
"-108.42","55.84","BUFFALO NARROWS A","4060984","2019-02-17 22:00","2019","02","17","22:00","-27.6","","-30.5","","76","","","","27","","4","","24.1","","98.25","","","","-32","","NA"
"-108.42","55.84","BUFFALO NARROWS A","4060984","2019-02-17 23:00","2019","02","17","23:00"
"-108.42","55.84","BUFFALO NARROWS A","4060984","2019-02-18 00:00","2019","02","18","00:00"
"-108.42","55.84","BUFFALO NARROWS A","4060984","2019-02-18 01:00","2019","02","18","01:00"
"-108.42","55.84","BUFFALO NARROWS A","4060984","2019-02-18 02:00","2019","02","18","02:00"
"-108.42","55.84","BUFFALO NARROWS A","4060984","2019-02-18 03:00","2019","02","18","03:00"
"-108.42","55.84","BUFFALO NARROWS A","4060984","2019-02-18 04:00","2019","02","18","04:00"
"-108.42","55.84","BUFFALO NARROWS A","4060984","2019-02-18 05:00","2019","02","18","05:00"
"-108.42","55.84","BUFFALO NARROWS A","4060984","2019-02-18 06:00","2019","02","18","06:00","-33.2","","-36.6","","72","","","","19","","5","","24.1","","98.02","","","","-39","","Clear"
"-108.42","55.84","BUFFALO NARROWS A","4060984","2019-02-18 07:00","2019","02","18","07:00","-33.5","","-36.9","","73","","","","20","","7","","24.1","","97.96","","","","-41","","NA"
"-108.42","55.84","BUFFALO NARROWS A","4060984","2019-02-18 08:00","2019","02","18","08:00","-33.0","","-36.3","","73","","","","20","","8","","24.1","","97.90","","","","-41","","NA"
"-108.42","55.84","BUFFALO NARROWS A","4060984","2019-02-18 09:00","2019","02","18","09:00","-30.3","","-33.3","","76","","","","19","","9","","24.1","","97.81","","","","-39","","Mainly Clear"
"-108.42","55.84","BUFFALO NARROWS A","4060984","2019-02-18 10:00","2019","02","18","10:00","-28.2","","-31.4","","75","","","","19","","9","","24.1","","97.73","","","","-36","","NA"
"-108.42","55.84","BUFFALO NARROWS A","4060984","2019-02-18 11:00","2019","02","18","11:00","-25.0","","-28.4","","74","","","","16","","9","","24.1","","97.64","","","","-33","","NA"
"-108.42","55.84","BUFFALO NARROWS A","4060984","2019-02-18 12:00","2019","02","18","12:00","-19.9","","-24.3","","69","","","","20","","10","","24.1","","97.53","","","","-27","","Mainly Clear"
"-108.42","55.84","BUFFALO NARROWS A","4060984","2019-02-18 13:00","2019","02","18","13:00","-18.2","","-23.8","","62","","","","21","","9","","24.1","","97.41","","","","-25","","NA"
"-108.42","55.84","BUFFALO NARROWS A","4060984","2019-02-18 14:00","2019","02","18","14:00","-16.0","","-22.1","","60","","","","21","","17","","24.1","","97.29","","","","-25","","NA"
"-108.42","55.84","BUFFALO NARROWS A","4060984","2019-02-18 15:00","2019","02","18","15:00","-14.6","","-21.1","","58","","","","22","","16","","24.1","","97.18","","","","-23","","Clear"
"-108.42","55.84","BUFFALO NARROWS A","4060984","2019-02-18 16:00","2019","02","18","16:00","-14.1","","-20.1","","61","","","","18","","18","","24.1","","97.00","","","","-23","","NA"
"-108.42","55.84","BUFFALO NARROWS A","4060984","2019-02-18 17:00","2019","02","18","17:00","-14.0","","-19.9","","61","","","","22","","16","","24.1","","96.89","","","","-22","","NA"
"-108.42","55.84","BUFFALO NARROWS A","4060984","2019-02-18 18:00","2019","02","18","18:00","-15.0","","-20.5","","63","","","","21","","18","","24.1","","96.71","","","","-24","","Mainly Clear"
"-108.42","55.84","BUFFALO NARROWS A","4060984","2019-02-18 19:00","2019","02","18","19:00","-15.8","","-20.9","","65","","","","21","","16","","24.1","","96.60","","","","-24","","NA"
"-108.42","55.84","BUFFALO NARROWS A","4060984","2019-02-18 20:00","2019","02","18","20:00","-16.1","","-21.0","","67","","","","20","","20","","24.1","","96.44","","","","-26","","NA"
"-108.42","55.84","BUFFALO NARROWS A","4060984","2019-02-18 21:00","2019","02","18","21:00","-16.6","","-21.4","","67","","","","20","","20","","24.1","","96.34","","","","-26","","Mostly Cloudy"
"-108.42","55.84","BUFFALO NARROWS A","4060984","2019-02-18 22:00","2019","02","18","22:00","-17.0","","-22.1","","65","","","","20","","18","","24.1","","96.22","","","","-26","","NA"
"-108.42","55.84","BUFFALO NARROWS A","4060984","2019-02-18 23:00","2019","02","18","23:00"
"-108.42","55.84","BUFFALO NARROWS A","4060984","2019-02-19 00:00","2019","02","19","00:00"
"-108.42","55.84","BUFFALO NARROWS A","4060984","2019-02-19 01:00","2019","02","19","01:00"
"-108.42","55.84","BUFFALO NARROWS A","4060984","2019-02-19 02:00","2019","02","19","02:00"
"-108.42","55.84","BUFFALO NARROWS A","4060984","2019-02-19 03:00","2019","02","19","03:00"
"-108.42","55.84","BUFFALO NARROWS A","4060984","2019-02-19 04:00","2019","02","19","04:00"
"-108.42","55.84","BUFFALO NARROWS A","4060984","2019-02-19 05:00","2019","02","19","05:00"
"-108.42","55.84","BUFFALO NARROWS A","4060984","2019-02-19 06:00","2019","02","19","06:00","-16.7","","-21.3","","68","","","","22","","19","","24.1","","95.44","","","","-26","","Cloudy"
"-108.42","55.84","BUFFALO NARROWS A","4060984","2019-02-19 07:00","2019","02","19","07:00","-17.0","","-21.3","","70","","","","21","","13","","24.1","","95.39","","","","-25","","NA"
"-108.42","55.84","BUFFALO NARROWS A","4060984","2019-02-19 08:00","2019","02","19","08:00","-16.5","","-20.6","","71","","","","21","","15","","24.1","","95.34","","","","-25","","NA"
"-108.42","55.84","BUFFALO NARROWS A","4060984","2019-02-19 09:00","2019","02","19","09:00","-16.1","","-20.1","","71","","","","22","","16","","24.1","","95.32","","","","-25","","Cloudy"
"-108.42","55.84","BUFFALO NARROWS A","4060984","2019-02-19 10:00","2019","02","19","10:00","-15.2","","-19.2","","72","","","","23","","16","","24.1","","95.33","","","","-23","","NA"
"-108.42","55.84","BUFFALO NARROWS A","4060984","2019-02-19 11:00","2019","02","19","11:00","-14.3","","-18.1","","73","","","","23","","11","","24.1","","95.31","","","","-21","","Snow"
"-108.42","55.84","BUFFALO NARROWS A","4060984","2019-02-19 12:00","2019","02","19","12:00","-13.2","","-16.8","","75","","","","23","","11","","19.3","","95.31","","","","-19","","Snow"
"-108.42","55.84","BUFFALO NARROWS A","4060984","2019-02-19 13:00","2019","02","19","13:00","-11.8","","-15.6","","74","","","","23","","9","","19.3","","95.32","","","","-17","","Snow"
"-108.42","55.84","BUFFALO NARROWS A","4060984","2019-02-19 14:00","2019","02","19","14:00","-10.2","","-14.2","","73","","","","27","","10","","19.3","","95.30","","","","-15","","Snow"
"-108.42","55.84","BUFFALO NARROWS A","4060984","2019-02-19 15:00","2019","02","19","15:00","-9.4","","-13.4","","73","","","","20","","7","","24.1","","95.25","","","","-13","","Cloudy"
"-108.42","55.84","BUFFALO NARROWS A","4060984","2019-02-19 16:00","2019","02","19","16:00","-8.7","","-12.9","","72","","","","22","","5","","24.1","","95.22","","","","-11","","Snow"
"-108.42","55.84","BUFFALO NARROWS A","4060984","2019-02-19 17:00","2019","02","19","17:00","-8.6","","-12.6","","73","","","","17","","8","","24.1","","95.24","","","","-13","","NA"
"-108.42","55.84","BUFFALO NARROWS A","4060984","2019-02-19 18:00","2019","02","19","18:00","-8.7","","-12.2","","76","","","","18","","13","","19.3","","95.26","","","","-15","","Cloudy"
"-108.42","55.84","BUFFALO NARROWS A","4060984","2019-02-19 19:00","2019","02","19","19:00","-10.0","","-12.3","","83","","","","14","","8","","4.0","","95.27","","","","-14","","Snow"
"-108.42","55.84","BUFFALO NARROWS A","4060984","2019-02-19 20:00","2019","02","19","20:00","-10.5","","-12.6","","85","","","","14","","10","","3.2","","95.29","","","","-16","","Snow"
"-108.42","55.84","BUFFALO NARROWS A","4060984","2019-02-19 21:00","2019","02","19","21:00","-10.5","","-12.3","","86","","","","15","","9","","3.2","","95.27","","","","-15","","Snow"
"-108.42","55.84","BUFFALO NARROWS A","4060984","2019-02-19 22:00","2019","02","19","22:00","-10.7","","-12.6","","86","","","","14","","10","","24.1","","95.30","","","","-16","","Snow"
"-108.42","55.84","BUFFALO NARROWS A","4060984","2019-02-19 23:00","2019","02","19","23:00"
"-108.42","55.84","BUFFALO NARROWS A","4060984","2019-02-20 00:00","2019","02","20","00:00"
"-108.42","55.84","BUFFALO NARROWS A","4060984","2019-02-20 01:00","2019","02","20","01:00"
"-108.42","55.84","BUFFALO NARROWS A","4060984","2019-02-20 02:00","2019","02","20","02:00"
"-108.42","55.84","BUFFALO NARROWS A","4060984","2019-02-20 03:00","2019","02","20","03:00"
"-108.42","55.84","BUFFALO NARROWS A","4060984","2019-02-20 04:00","2019","02","20","04:00"
"-108.42","55.84","BUFFALO NARROWS A","4060984","2019-02-20 05:00","2019","02","20","05:00"
"-108.42","55.84","BUFFALO NARROWS A","4060984","2019-02-20 06:00","2019","02","20","06:00","-15.1","","-17.2","","84","","","","7","","8","","9.7","","95.62","","","","-20","","Fog"
"-108.42","55.84","BUFFALO NARROWS A","4060984","2019-02-20 07:00","2019","02","20","07:00","-15.1","","-17.3","","83","","","","6","","8","","9.7","","95.69","","","","-20","","Snow,Fog"
"-108.42","55.84","BUFFALO NARROWS A","4060984","2019-02-20 08:00","2019","02","20","08:00","-17.0","","-19.2","","83","","","","6","","9","","8.1","","95.77","","","","-23","","Snow,Fog"
"-108.42","55.84","BUFFALO NARROWS A","4060984","2019-02-20 09:00","2019","02","20","09:00","-16.4","","-18.5","","84","","","","4","","9","","16.1","","95.89","","","","-22","","Snow,Fog"
"-108.42","55.84","BUFFALO NARROWS A","4060984","2019-02-20 10:00","2019","02","20","10:00","-15.8","","-18.1","","82","","","","4","","10","","8.1","","95.97","","","","-22","","Snow,Fog"
"-108.42","55.84","BUFFALO NARROWS A","4060984","2019-02-20 11:00","2019","02","20","11:00","-15.7","","-18.4","","80","","","","4","","12","","9.7","","96.04","","","","-23","","Snow,Fog"
"-108.42","55.84","BUFFALO NARROWS A","4060984","2019-02-20 12:00","2019","02","20","12:00","-13.8","","-17.3","","75","","","","3","","5","","9.7","","96.08","","","","-17","","Snow,Fog"
"-108.42","55.84","BUFFALO NARROWS A","4060984","2019-02-20 13:00","2019","02","20","13:00","-13.0","","-16.6","","75","","","","35","","8","","19.3","","96.17","","","","-18","","Snow"
"-108.42","55.84","BUFFALO NARROWS A","4060984","2019-02-20 14:00","2019","02","20","14:00","-13.0","","-16.5","","75","","","","36","","12","","24.1","","96.20","","","","-20","","Snow"
"-108.42","55.84","BUFFALO NARROWS A","4060984","2019-02-20 15:00","2019","02","20","15:00","-12.1","","-16.2","","72","","","","2","","16","","24.1","","96.23","","","","-20","","Cloudy"
"-108.42","55.84","BUFFALO NARROWS A","4060984","2019-02-20 16:00","2019","02","20","16:00","-11.4","","-15.9","","70","","","","2","","14","","24.1","","96.29","","","","-18","","NA"
"-108.42","55.84","BUFFALO NARROWS A","4060984","2019-02-20 17:00","2019","02","20","17:00","-11.9","","-15.8","","73","","","","3","","6","","24.1","","96.37","","","","-16","","NA"
"-108.42","55.84","BUFFALO NARROWS A","4060984","2019-02-20 18:00","2019","02","20","18:00","-12.1","","-15.7","","75","","","","35","","12","","24.1","","96.45","","","","-18","","Cloudy"
"-108.42","55.84","BUFFALO NARROWS A","4060984","2019-02-20 19:00","2019","02","20","19:00","-12.2","","-16.7","","70","","","","36","","15","","24.1","","96.53","","","","-19","","NA"
"-108.42","55.84","BUFFALO NARROWS A","4060984","2019-02-20 20:00","2019","02","20","20:00","-14.0","","-17.9","","73","","","","36","","19","","24.1","","96.61","","","","-23","","NA"
"-108.42","55.84","BUFFALO NARROWS A","4060984","2019-02-20 21:00","2019","02","20","21:00","-14.3","","-17.9","","75","","","","35","","12","","24.1","","96.69","","","","-21","","Mostly Cloudy"
"-108.42","55.84","BUFFALO NARROWS A","4060984","2019-02-20 22:00","2019","02","20","22:00","-14.2","","-17.6","","76","","","","36","","17","","24.1","","96.75","","","","-22","","NA"
"-108.42","55.84","BUFFALO NARROWS A","4060984","2019-02-20 23:00","2019","02","20","23:00"
"-108.42","55.84","BUFFALO NARROWS A","4060984","2019-02-21 00:00","2019","02","21","00:00"
"-108.42","55.84","BUFFALO NARROWS A","4060984","2019-02-21 01:00","2019","02","21","01:00"
"-108.42","55.84","BUFFALO NARROWS A","4060984","2019-02-21 02:00","2019","02","21","02:00"
"-108.42","55.84","BUFFALO NARROWS A","4060984","2019-02-21 03:00","2019","02","21","03:00"
"-108.42","55.84","BUFFALO NARROWS A","4060984","2019-02-21 04:00","2019","02","21","04:00"
"-108.42","55.84","BUFFALO NARROWS A","4060984","2019-02-21 05:00","2019","02","21","05:00"
"-108.42","55.84","BUFFALO NARROWS A","4060984","2019-02-21 06:00","2019","02","21","06:00","-23.7","","-25.9","","82","","","","31","","14","","24.1","","97.09","","","","-33","","Clear"
"-108.42","55.84","BUFFALO NARROWS A","4060984","2019-02-21 07:00","2019","02","21","07:00","-24.9","","-27.1","","82","","","","31","","13","","24.1","","97.12","","","","-34","","NA"
"-108.42","55.84","BUFFALO NARROWS A","4060984","2019-02-21 08:00","2019","02","21","08:00","-24.0","","-26.3","","81","","","","30","","6","","24.1","","97.11","","","","-30","","NA"
"-108.42","55.84","BUFFALO NARROWS A","4060984","2019-02-21 09:00","2019","02","21","09:00","-22.8","","-25.3","","80","","","","29","","7","","24.1","","97.11","","","","-29","","Mostly Cloudy"
"-108.42","55.84","BUFFALO NARROWS A","4060984","2019-02-21 10:00","2019","02","21","10:00","-21.6","","-24.3","","79","","","","24","","5","","24.1","","97.09","","","","-26","","NA"
"-108.42","55.84","BUFFALO NARROWS A","4060984","2019-02-21 11:00","2019","02","21","11:00","-20.5","","-23.5","","78","","","","23","","5","","24.1","","97.06","","","","-25","","NA"
"-108.42","55.84","BUFFALO NARROWS A","4060984","2019-02-21 12:00","2019","02","21","12:00","-18.9","","-22.0","","77","","","","22","","8","","24.1","","97.02","","","","-25","","Clear"
"-108.42","55.84","BUFFALO NARROWS A","4060984","2019-02-21 13:00","2019","02","21","13:00","-17.1","","-21.4","","70","","","","25","","6","","24.1","","96.98","","","","-22","","NA"
"-108.42","55.84","BUFFALO NARROWS A","4060984","2019-02-21 14:00","2019","02","21","14:00","-16.6","","-21.3","","67","","","","34","","7","","24.1","","96.91","","","","-22","","NA"
"-108.42","55.84","BUFFALO NARROWS A","4060984","2019-02-21 15:00","2019","02","21","15:00","-16.2","","-21.2","","66","","","","6","","8","","24.1","","96.80","","","","-22","","Clear"
"-108.42","55.84","BUFFALO NARROWS A","4060984","2019-02-21 16:00","2019","02","21","16:00","-13.0","","-19.4","","59","","","","19","","7","","24.1","","96.72","","","","-18","","NA"
"-108.42","55.84","BUFFALO NARROWS A","4060984","2019-02-21 17:00","2019","02","21","17:00","-13.0","","-19.1","","61","","","","17","","13","","24.1","","96.65","","","","-20","","NA"
"-108.42","55.84","BUFFALO NARROWS A","4060984","2019-02-21 18:00","2019","02","21","18:00","-14.0","","-19.3","","65","","","","17","","12","","24.1","","96.58","","","","-21","","Clear"
"-108.42","55.84","BUFFALO NARROWS A","4060984","2019-02-21 19:00","2019","02","21","19:00","-16.0","","-20.1","","71","","","","17","","12","","24.1","","96.51","","","","-23","","NA"
"-108.42","55.84","BUFFALO NARROWS A","4060984","2019-02-21 20:00","2019","02","21","20:00","-16.9","","-20.5","","74","","","","17","","14","","24.1","","96.45","","","","-25","","NA"
"-108.42","55.84","BUFFALO NARROWS A","4060984","2019-02-21 21:00","2019","02","21","21:00","-17.3","","-20.8","","75","","","","18","","14","","24.1","","96.37","","","","-25","","Clear"
"-108.42","55.84","BUFFALO NARROWS A","4060984","2019-02-21 22:00","2019","02","21","22:00","-17.9","","-21.0","","77","","","","19","","11","","24.1","","96.31","","","","-25","","NA"
"-108.42","55.84","BUFFALO NARROWS A","4060984","2019-02-21 23:00","2019","02","21","23:00"
"-108.42","55.84","BUFFALO NARROWS A","4060984","2019-02-22 00:00","2019","02","22","00:00"
"-108.42","55.84","BUFFALO NARROWS A","4060984","2019-02-22 01:00","2019","02","22","01:00"
"-108.42","55.84","BUFFALO NARROWS A","4060984","2019-02-22 02:00","2019","02","22","02:00"
"-108.42","55.84","BUFFALO NARROWS A","4060984","2019-02-22 03:00","2019","02","22","03:00"
"-108.42","55.84","BUFFALO NARROWS A","4060984","2019-02-22 04:00","2019","02","22","04:00"
"-108.42","55.84","BUFFALO NARROWS A","4060984","2019-02-22 05:00","2019","02","22","05:00"
"-108.42","55.84","BUFFALO NARROWS A","4060984","2019-02-22 06:00","2019","02","22","06:00","-20.2","","-23.0","","79","","","","17","","22","","24.1","","95.72","","","","-31","","Mostly Cloudy"
"-108.42","55.84","BUFFALO NARROWS A","4060984","2019-02-22 07:00","2019","02","22","07:00","-19.9","","-22.8","","78","","","","17","","21","","24.1","","95.65","","","","-31","","NA"
"-108.42","55.84","BUFFALO NARROWS A","4060984","2019-02-22 08:00","2019","02","22","08:00","-20.1","","-23.1","","77","","","","17","","21","","24.1","","95.60","","","","-31","","NA"
"-108.42","55.84","BUFFALO NARROWS A","4060984","2019-02-22 09:00","2019","02","22","09:00","-19.9","","-23.2","","76","","","","17","","20","","24.1","","95.57","","","","-30","","Mostly Cloudy"
"-108.42","55.84","BUFFALO NARROWS A","4060984","2019-02-22 10:00","2019","02","22","10:00","-18.6","","-22.4","","72","","","","17","","15","","24.1","","95.60","","","","-27","","NA"
"-108.42","55.84","BUFFALO NARROWS A","4060984","2019-02-22 11:00","2019","02","22","11:00","-15.8","","-20.8","","66","","","","18","","13","","24.1","","95.60","","","","-23","","NA"
"-108.42","55.84","BUFFALO NARROWS A","4060984","2019-02-22 12:00","2019","02","22","12:00","-14.4","","-19.9","","63","","","","18","","14","","24.1","","95.57","","","","-22","","Mostly Cloudy"
"-108.42","55.84","BUFFALO NARROWS A","4060984","2019-02-22 13:00","2019","02","22","13:00","-12.8","","-18.9","","61","","","","18","","8","","24.1","","95.60","","","","-18","","NA"
"-108.42","55.84","BUFFALO NARROWS A","4060984","2019-02-22 14:00","2019","02","22","14:00","-11.7","","-18.3","","58","","","","23","","8","","24.1","","95.63","","","","-16","","NA"
"-108.42","55.84","BUFFALO NARROWS A","4060984","2019-02-22 15:00","2019","02","22","15:00","-11.7","","-18.3","","59","","","","33","","8","","24.1","","95.65","","","","-16","","Cloudy"
"-108.42","55.84","BUFFALO NARROWS A","4060984","2019-02-22 16:00","2019","02","22","16:00","-11.1","","-17.1","","62","","","","35","","7","","16.1","","95.71","","","","-15","","Snow"
"-108.42","55.84","BUFFALO NARROWS A","4060984","2019-02-22 17:00","2019","02","22","17:00","-12.2","","-15.9","","74","","","","3","","13","","3.2","","95.81","","","","-19","","Snow"
"-108.42","55.84","BUFFALO NARROWS A","4060984","2019-02-22 18:00","2019","02","22","18:00","-13.3","","-16.1","","79","","","","3","","7","","4.0","","95.87","","","","-18","","Snow"
"-108.42","55.84","BUFFALO NARROWS A","4060984","2019-02-22 19:00","2019","02","22","19:00","-14.0","","-16.9","","79","","","","34","","16","","4.0","","95.98","","","","-22","","Snow"
"-108.42","55.84","BUFFALO NARROWS A","4060984","2019-02-22 20:00","2019","02","22","20:00","-14.4","","-17.2","","80","","","","35","","15","","19.3","","96.08","","","","-22","","Snow"
"-108.42","55.84","BUFFALO NARROWS A","4060984","2019-02-22 21:00","2019","02","22","21:00","-13.8","","-16.5","","80","","","","35","","18","","4.0","","96.16","","","","-22","","Snow"
"-108.42","55.84","BUFFALO NARROWS A","4060984","2019-02-22 22:00","2019","02","22","22:00","-14.6","","-17.8","","77","","","","35","","21","","4.0","","96.27","","","","-24","","Snow,Blowing Snow"
"-108.42","55.84","BUFFALO NARROWS A","4060984","2019-02-22 23:00","2019","02","22","23:00"
"-108.42","55.84","BUFFALO NARROWS A","4060984","2019-02-23 00:00","2019","02","23","00:00"
"-108.42","55.84","BUFFALO NARROWS A","4060984","2019-02-23 01:00","2019","02","23","01:00"
"-108.42","55.84","BUFFALO NARROWS A","4060984","2019-02-23 02:00","2019","02","23","02:00"
"-108.42","55.84","BUFFALO NARROWS A","4060984","2019-02-23 03:00","2019","02","23","03:00"
"-108.42","55.84","BUFFALO NARROWS A","4060984","2019-02-23 04:00","2019","02","23","04:00"
"-108.42","55.84","BUFFALO NARROWS A","4060984","2019-02-23 05:00","2019","02","23","05:00"
"-108.42","55.84","BUFFALO NARROWS A","4060984","2019-02-23 06:00","2019","02","23","06:00","-20.6","","-24.9","","68","","","","36","","24","","11.3","","97.05","","","","-32","","Snow"
"-108.42","55.84","BUFFALO NARROWS A","4060984","2019-02-23 07:00","2019","02","23","07:00","-20.5","","-25.2","","67","","","","35","","23","","16.1","","97.12","","","","-32","","Snow,Blowing Snow"
"-108.42","55.84","BUFFALO NARROWS A","4060984","2019-02-23 08:00","2019","02","23","08:00","-20.8","","-25.4","","67","","","","1","","25","","16.1","","97.21","","","","-33","","Snow,Blowing Snow"
"-108.42","55.84","BUFFALO NARROWS A","4060984","2019-02-23 09:00","2019","02","23","09:00","-20.8","","-25.2","","68","","","","35","","26","","24.1","","97.31","","","","-33","","Snow"
"-108.42","55.84","BUFFALO NARROWS A","4060984","2019-02-23 10:00","2019","02","23","10:00","-20.7","","-25.0","","69","","","","1","","19","","19.3","","97.40","","","","-31","","Snow"
"-108.42","55.84","BUFFALO NARROWS A","4060984","2019-02-23 11:00","2019","02","23","11:00","-20.1","","-25.1","","65","","","","34","","23","","24.1","","97.48","","","","-31","","NA"
"-108.42","55.84","BUFFALO NARROWS A","4060984","2019-02-23 12:00","2019","02","23","12:00","-18.9","","-24.7","","61","","","","34","","24","","24.1","","97.49","","","","-30","","Mostly Cloudy"
"-108.42","55.84","BUFFALO NARROWS A","4060984","2019-02-23 13:00","2019","02","23","13:00","-18.0","","-23.6","","62","","","","30","","21","","24.1","","97.49","","","","-28","","NA"
"-108.42","55.84","BUFFALO NARROWS A","4060984","2019-02-23 14:00","2019","02","23","14:00","-17.4","","-24.2","","56","","","","34","","26","","24.1","","97.51","","","","-28","","NA"
"-108.42","55.84","BUFFALO NARROWS A","4060984","2019-02-23 15:00","2019","02","23","15:00","-16.7","","-24.3","","52","","","","34","","26","","24.1","","97.54","","","","-28","","Clear"
"-108.42","55.84","BUFFALO NARROWS A","4060984","2019-02-23 16:00","2019","02","23","16:00","-17.2","","-24.9","","52","","","","35","","26","","24.1","","97.57","","","","-28","","NA"
"-108.42","55.84","BUFFALO NARROWS A","4060984","2019-02-23 17:00","2019","02","23","17:00","-17.6","","-24.7","","55","","","","35","","31","","24.1","","97.63","","","","-30","","Blowing Snow"
"-108.42","55.84","BUFFALO NARROWS A","4060984","2019-02-23 18:00","2019","02","23","18:00","-18.6","","-25.2","","57","","","","33","","27","","24.1","","97.70","","","","-30","","Blowing Snow"
"-108.42","55.84","BUFFALO NARROWS A","4060984","2019-02-23 19:00","2019","02","23","19:00","-19.9","","-25.9","","60","","","","34","","19","","24.1","","97.76","","","","-30","","NA"
"-108.42","55.84","BUFFALO NARROWS A","4060984","2019-02-23 20:00","2019","02","23","20:00","-21.2","","-27.1","","60","","","","34","","22","","24.1","","97.82","","","","-32","","NA"
"-108.42","55.84","BUFFALO NARROWS A","4060984","2019-02-23 21:00","2019","02","23","21:00","-22.1","","-27.6","","62","","","","35","","23","","24.1","","97.88","","","","-34","","Clear"
"-108.42","55.84","BUFFALO NARROWS A","4060984","2019-02-23 22:00","2019","02","23","22:00","-23.6","","-28.4","","65","","","","35","","17","","24.1","","97.93","","","","-34","","NA"
"-108.42","55.84","BUFFALO NARROWS A","4060984","2019-02-23 23:00","2019","02","23","23:00"
"-108.42","55.84","BUFFALO NARROWS A","4060984","2019-02-24 00:00","2019","02","24","00:00"
"-108.42","55.84","BUFFALO NARROWS A","4060984","2019-02-24 01:00","2019","02","24","01:00"
"-108.42","55.84","BUFFALO NARROWS A","4060984","2019-02-24 02:00","2019","02","24","02:00"
"-108.42","55.84","BUFFALO NARROWS A","4060984","2019-02-24 03:00","2019","02","24","03:00"
"-108.42","55.84","BUFFALO NARROWS A","4060984","2019-02-24 04:00","2019","02","24","04:00"
"-108.42","55.84","BUFFALO NARROWS A","4060984","2019-02-24 05:00","2019","02","24","05:00"
"-108.42","55.84","BUFFALO NARROWS A","4060984","2019-02-24 06:00","2019","02","24","06:00","-29.5","","-32.6","","75","","","","31","","18","","24.1","","98.10","","","","-42","","Clear"
"-108.42","55.84","BUFFALO NARROWS A","4060984","2019-02-24 07:00","2019","02","24","07:00","-29.8","","-32.9","","75","","","","31","","14","","24.1","","98.09","","","","-41","","NA"
"-108.42","55.84","BUFFALO NARROWS A","4060984","2019-02-24 08:00","2019","02","24","08:00","-30.2","","-33.3","","75","","","","31","","12","","24.1","","98.08","","","","-40","","NA"
"-108.42","55.84","BUFFALO NARROWS A","4060984","2019-02-24 09:00","2019","02","24","09:00","-29.2","","-32.5","","74","","","","30","","14","","24.1","","98.07","","","","-40","","Clear"
"-108.42","55.84","BUFFALO NARROWS A","4060984","2019-02-24 10:00","2019","02","24","10:00","-28.1","","-31.8","","71","","","","30","","14","","24.1","","98.07","","","","-39","","NA"
"-108.42","55.84","BUFFALO NARROWS A","4060984","2019-02-24 11:00","2019","02","24","11:00","-26.0","","-30.3","","68","","","","30","","12","","24.1","","98.07","","","","-35","","NA"
"-108.42","55.84","BUFFALO NARROWS A","4060984","2019-02-24 12:00","2019","02","24","12:00","-24.8","","-29.7","","64","","","","32","","16","","24.1","","98.05","","","","-35","","Clear"
"-108.42","55.84","BUFFALO NARROWS A","4060984","2019-02-24 13:00","2019","02","24","13:00","-22.2","","-28.0","","60","","","","31","","18","","24.1","","97.99","","","","-33","","NA"
"-108.42","55.84","BUFFALO NARROWS A","4060984","2019-02-24 14:00","2019","02","24","14:00","-20.8","","-27.6","","55","","","","30","","12","","24.1","","97.92","","","","-29","","NA"
"-108.42","55.84","BUFFALO NARROWS A","4060984","2019-02-24 15:00","2019","02","24","15:00","-20.1","","-27.6","","52","","","","32","","11","","24.1","","97.84","","","","-28","","Clear"
"-108.42","55.84","BUFFALO NARROWS A","4060984","2019-02-24 16:00","2019","02","24","16:00","-18.6","","-26.9","","49","","","","26","","5","","24.1","","97.79","","","","-23","","NA"
"-108.42","55.84","BUFFALO NARROWS A","4060984","2019-02-24 17:00","2019","02","24","17:00","-18.6","","-27.1","","48","","","","30","","7","","24.1","","97.73","","","","-24","","NA"
"-108.42","55.84","BUFFALO NARROWS A","4060984","2019-02-24 18:00","2019","02","24","18:00","-18.9","","-27.3","","49","","","","27","","4","","24.1","","97.69","","","","-22","","Clear"
"-108.42","55.84","BUFFALO NARROWS A","4060984","2019-02-24 19:00","2019","02","24","19:00","-22.1","","-27.4","","63","","","","28","","5","","24.1","","97.65","","","","-27","","NA"
"-108.42","55.84","BUFFALO NARROWS A","4060984","2019-02-24 20:00","2019","02","24","20:00","-24.9","","-28.7","","71","","","","24","","6","","24.1","","97.60","","","","-31","","NA"
"-108.42","55.84","BUFFALO NARROWS A","4060984","2019-02-24 21:00","2019","02","24","21:00","-24.7","","-28.8","","69","","","","36","","2","","24.1","","97.57","","","","-27","","Clear"
"-108.42","55.84","BUFFALO NARROWS A","4060984","2019-02-24 22:00","2019","02","24","22:00","-27.7","","-31.2","","73","","","","24","","8","","24.1","","97.54","","","","-35","","NA"
"-108.42","55.84","BUFFALO NARROWS A","4060984","2019-02-24 23:00","2019","02","24","23:00"
"-108.42","55.84","BUFFALO NARROWS A","4060984","2019-02-25 00:00","2019","02","25","00:00"
"-108.42","55.84","BUFFALO NARROWS A","4060984","2019-02-25 01:00","2019","02","25","01:00"
"-108.42","55.84","BUFFALO NARROWS A","4060984","2019-02-25 02:00","2019","02","25","02:00"
"-108.42","55.84","BUFFALO NARROWS A","4060984","2019-02-25 03:00","2019","02","25","03:00"
"-108.42","55.84","BUFFALO NARROWS A","4060984","2019-02-25 04:00","2019","02","25","04:00"
"-108.42","55.84","BUFFALO NARROWS A","4060984","2019-02-25 05:00","2019","02","25","05:00"
"-108.42","55.84","BUFFALO NARROWS A","4060984","2019-02-25 06:00","2019","02","25","06:00","-32.3","","-35.6","","73","","","","28","","7","","24.1","","97.58","","","","-40","","Clear"
"-108.42","55.84","BUFFALO NARROWS A","4060984","2019-02-25 07:00","2019","02","25","07:00","-32.6","","-36.0","","73","","","","26","","5","","24.1","","97.60","","","","-39","","NA"
"-108.42","55.84","BUFFALO NARROWS A","4060984","2019-02-25 08:00","2019","02","25","08:00","-29.6","","-32.8","","74","","","","30","","6","","24.1","","97.60","","","","-36","","NA"
"-108.42","55.84","BUFFALO NARROWS A","4060984","2019-02-25 09:00","2019","02","25","09:00","-29.3","","-32.1","","77","","","","23","","5","","24.1","","97.63","","","","-35","","Mainly Clear"
"-108.42","55.84","BUFFALO NARROWS A","4060984","2019-02-25 10:00","2019","02","25","10:00","-26.4","","-29.7","","75","","","","22","","6","","24.1","","97.63","","","","-32","","NA"
"-108.42","55.84","BUFFALO NARROWS A","4060984","2019-02-25 11:00","2019","02","25","11:00","-22.3","","-26.8","","68","","","","26","","7","","24.1","","97.61","","","","-28","","NA"
"-108.42","55.84","BUFFALO NARROWS A","4060984","2019-02-25 12:00","2019","02","25","12:00","-19.4","","-25.3","","60","","","","24","","7","","24.1","","97.59","","","","-25","","Mainly Clear"
"-108.42","55.84","BUFFALO NARROWS A","4060984","2019-02-25 13:00","2019","02","25","13:00","-15.9","","-23.7","","52","","","","23","","7","","24.1","","97.54","","","","-21","","NA"
"-108.42","55.84","BUFFALO NARROWS A","4060984","2019-02-25 14:00","2019","02","25","14:00","-13.2","","-23.1","","44","","","","22","","9","","24.1","","97.50","","","","-19","","NA"
"-108.42","55.84","BUFFALO NARROWS A","4060984","2019-02-25 15:00","2019","02","25","15:00","-11.8","","-21.9","","44","","","","26","","9","","24.1","","97.44","","","","-17","","Mostly Cloudy"
"-108.42","55.84","BUFFALO NARROWS A","4060984","2019-02-25 16:00","2019","02","25","16:00","-11.4","","-21.4","","44","","","","25","","5","","24.1","","97.37","","","","-15","","NA"
"-108.42","55.84","BUFFALO NARROWS A","4060984","2019-02-25 17:00","2019","02","25","17:00","-11.1","","-22.6","","39","","","","23","","11","","24.1","","97.32","","","","-17","","NA"
"-108.42","55.84","BUFFALO NARROWS A","4060984","2019-02-25 18:00","2019","02","25","18:00","-11.8","","-22.9","","40","","","","23","","14","","24.1","","97.23","","","","-19","","Cloudy"
"-108.42","55.84","BUFFALO NARROWS A","4060984","2019-02-25 19:00","2019","02","25","19:00","-13.2","","-23.1","","44","","","","24","","8","","24.1","","97.24","","","","-18","","NA"
"-108.42","55.84","BUFFALO NARROWS A","4060984","2019-02-25 20:00","2019","02","25","20:00","-14.4","","-23.3","","47","","","","24","","7","","24.1","","97.21","","","","-19","","NA"
"-108.42","55.84","BUFFALO NARROWS A","4060984","2019-02-25 21:00","2019","02","25","21:00","-14.7","","-22.7","","51","","","","23","","12","","24.1","","97.20","","","","-22","","Mostly Cloudy"
"-108.42","55.84","BUFFALO NARROWS A","4060984","2019-02-25 22:00","2019","02","25","22:00","-16.1","","-23.2","","55","","","","23","","12","","24.1","","97.23","","","","-23","","NA"
"-108.42","55.84","BUFFALO NARROWS A","4060984","2019-02-25 23:00","2019","02","25","23:00"
"-108.42","55.84","BUFFALO NARROWS A","4060984","2019-02-26 00:00","2019","02","26","00:00"
"-108.42","55.84","BUFFALO NARROWS A","4060984","2019-02-26 01:00","2019","02","26","01:00"
"-108.42","55.84","BUFFALO NARROWS A","4060984","2019-02-26 02:00","2019","02","26","02:00"
"-108.42","55.84","BUFFALO NARROWS A","4060984","2019-02-26 03:00","2019","02","26","03:00"
"-108.42","55.84","BUFFALO NARROWS A","4060984","2019-02-26 04:00","2019","02","26","04:00"
"-108.42","55.84","BUFFALO NARROWS A","4060984","2019-02-26 05:00","2019","02","26","05:00"
"-108.42","55.84","BUFFALO NARROWS A","4060984","2019-02-26 06:00","2019","02","26","06:00","-21.0","","-25.0","","71","","","","25","","13","","24.1","","97.14","","","","-30","","Clear"
"-108.42","55.84","BUFFALO NARROWS A","4060984","2019-02-26 07:00","2019","02","26","07:00","-21.1","","-24.9","","72","","","","24","","13","","24.1","","97.06","","","","-30","","NA"
"-108.42","55.84","BUFFALO NARROWS A","4060984","2019-02-26 08:00","2019","02","26","08:00","-21.3","","-25.1","","72","","","","24","","13","","24.1","","97.01","","","","-30","","NA"
"-108.42","55.84","BUFFALO NARROWS A","4060984","2019-02-26 09:00","2019","02","26","09:00","-21.4","","-25.3","","71","","","","22","","15","","24.1","","96.98","","","","-31","","Mainly Clear"
"-108.42","55.84","BUFFALO NARROWS A","4060984","2019-02-26 10:00","2019","02","26","10:00","-20.1","","-24.6","","68","","","","22","","14","","22.5","","96.99","","","","-29","","NA"
"-108.42","55.84","BUFFALO NARROWS A","4060984","2019-02-26 11:00","2019","02","26","11:00","-17.9","","-23.0","","65","","","","22","","12","","24.1","","96.96","","","","-25","","NA"
"-108.42","55.84","BUFFALO NARROWS A","4060984","2019-02-26 12:00","2019","02","26","12:00","-15.5","","-20.8","","64","","","","23","","14","","24.1","","96.80","","","","-23","","Cloudy"
"-108.42","55.84","BUFFALO NARROWS A","4060984","2019-02-26 13:00","2019","02","26","13:00","-12.6","","-18.3","","63","","","","25","","13","","24.1","","96.70","","","","-19","","NA"
"-108.42","55.84","BUFFALO NARROWS A","4060984","2019-02-26 14:00","2019","02","26","14:00","-11.0","","-14.5","","76","","","","26","","15","","4.0","","96.65","","","","-18","","Snow"
"-108.42","55.84","BUFFALO NARROWS A","4060984","2019-02-26 15:00","2019","02","26","15:00","-9.6","","-13.9","","71","","","","29","","27","","19.3","","96.58","","","","-19","","Snow"
"-108.42","55.84","BUFFALO NARROWS A","4060984","2019-02-26 16:00","2019","02","26","16:00","-9.6","","-13.7","","72","","","","30","","23","","24.1","","96.57","","","","-18","","Blowing Snow"
"-108.42","55.84","BUFFALO NARROWS A","4060984","2019-02-26 17:00","2019","02","26","17:00","-9.3","","-13.3","","73","","","","31","","20","","19.3","","96.56","","","","-17","","NA"
"-108.42","55.84","BUFFALO NARROWS A","4060984","2019-02-26 18:00","2019","02","26","18:00","-8.9","","-12.7","","74","","","","30","","21","","19.3","","96.55","","","","-17","","Snow"
"-108.42","55.84","BUFFALO NARROWS A","4060984","2019-02-26 19:00","2019","02","26","19:00","-8.7","","-12.0","","77","","","","31","","26","","24.1","","96.52","","","","-17","","Snow"
"-108.42","55.84","BUFFALO NARROWS A","4060984","2019-02-26 20:00","2019","02","26","20:00","-8.8","","-12.0","","78","","","","32","","26","","16.1","","96.56","","","","-17","","Snow"
"-108.42","55.84","BUFFALO NARROWS A","4060984","2019-02-26 21:00","2019","02","26","21:00","-8.6","","-11.9","","77","","","","32","","15","","16.1","","96.59","","","","-15","","Snow"
"-108.42","55.84","BUFFALO NARROWS A","4060984","2019-02-26 22:00","2019","02","26","22:00","-8.0","","-11.7","","75","","","","34","","20","","19.3","","96.57","","","","-15","","Snow,Blowing Snow"
"-108.42","55.84","BUFFALO NARROWS A","4060984","2019-02-26 23:00","2019","02","26","23:00"
"-108.42","55.84","BUFFALO NARROWS A","4060984","2019-02-27 00:00","2019","02","27","00:00"
"-108.42","55.84","BUFFALO NARROWS A","4060984","2019-02-27 01:00","2019","02","27","01:00"
"-108.42","55.84","BUFFALO NARROWS A","4060984","2019-02-27 02:00","2019","02","27","02:00"
"-108.42","55.84","BUFFALO NARROWS A","4060984","2019-02-27 03:00","2019","02","27","03:00"
"-108.42","55.84","BUFFALO NARROWS A","4060984","2019-02-27 04:00","2019","02","27","04:00"
"-108.42","55.84","BUFFALO NARROWS A","4060984","2019-02-27 05:00","2019","02","27","05:00"
"-108.42","55.84","BUFFALO NARROWS A","4060984","2019-02-27 06:00","2019","02","27","06:00","-7.7","","-11.1","","77","","","","27","","12","","24.1","","96.14","","","","-13","","Cloudy"
"-108.42","55.84","BUFFALO NARROWS A","4060984","2019-02-27 07:00","2019","02","27","07:00","-7.1","","-10.6","","76","","","","28","","17","","24.1","","96.09","","","","-14","","NA"
"-108.42","55.84","BUFFALO NARROWS A","4060984","2019-02-27 08:00","2019","02","27","08:00","-6.4","","-10.1","","75","","","","29","","19","","24.1","","96.03","","","","-13","","NA"
"-108.42","55.84","BUFFALO NARROWS A","4060984","2019-02-27 09:00","2019","02","27","09:00","-6.1","","-9.6","","76","","","","30","","26","","24.1","","96.00","","","","-14","","Snow"
"-108.42","55.84","BUFFALO NARROWS A","4060984","2019-02-27 10:00","2019","02","27","10:00","-5.9","","-9.2","","78","","","","31","","24","","19.3","","95.99","","","","-13","","Snow"
"-108.42","55.84","BUFFALO NARROWS A","4060984","2019-02-27 11:00","2019","02","27","11:00","-6.2","","-10.2","","74","","","","33","","43","","4.0","","96.00","","","","-16","","Snow,Blowing Snow"
"-108.42","55.84","BUFFALO NARROWS A","4060984","2019-02-27 12:00","2019","02","27","12:00","-7.0","","-11.7","","70","","","","34","","37","","1.6","","96.10","","","","-16","","Snow,Blowing Snow"
"-108.42","55.84","BUFFALO NARROWS A","4060984","2019-02-27 13:00","2019","02","27","13:00","-7.8","","-13.6","","63","","","","34","","34","","19.3","","96.18","","","","-17","","Snow,Blowing Snow"
"-108.42","55.84","BUFFALO NARROWS A","4060984","2019-02-27 14:00","2019","02","27","14:00","-7.9","","-13.3","","66","","","","33","","33","","24.1","","96.23","","","","-17","","Blowing Snow"
"-108.42","55.84","BUFFALO NARROWS A","4060984","2019-02-27 15:00","2019","02","27","15:00","-8.4","","-14.9","","60","","","","34","","39","","19.3","","96.21","","","","-19","","Blowing Snow"
"-108.42","55.84","BUFFALO NARROWS A","4060984","2019-02-27 16:00","2019","02","27","16:00","-8.5","","-16.0","","55","","","","34","","32","","24.1","","96.26","","","","-18","","Blowing Snow"
"-108.42","55.84","BUFFALO NARROWS A","4060984","2019-02-27 17:00","2019","02","27","17:00","-9.7","","-15.8","","61","","","","33","","32","","19.3","","96.28","","","","-19","","Blowing Snow"
"-108.42","55.84","BUFFALO NARROWS A","4060984","2019-02-27 18:00","2019","02","27","18:00","-10.6","","-16.5","","62","","","","34","","29","","24.1","","96.37","","","","-20","","Blowing Snow"
"-108.42","55.84","BUFFALO NARROWS A","4060984","2019-02-27 19:00","2019","02","27","19:00","-12.0","","-15.9","","73","","","","35","","14","","24.1","","96.42","","","","-19","","NA"
"-108.42","55.84","BUFFALO NARROWS A","4060984","2019-02-27 20:00","2019","02","27","20:00","-12.3","","-17.7","","65","","","","34","","21","","24.1","","96.44","","","","-21","","NA"
"-108.42","55.84","BUFFALO NARROWS A","4060984","2019-02-27 21:00","2019","02","27","21:00","-12.4","","-17.4","","67","","","","33","","19","","24.1","","96.45","","","","-21","","Cloudy"
"-108.42","55.84","BUFFALO NARROWS A","4060984","2019-02-27 22:00","2019","02","27","22:00","-12.9","","-16.5","","75","","","","31","","22","","24.1","","96.42","","","","-22","","NA"
"-108.42","55.84","BUFFALO NARROWS A","4060984","2019-02-27 23:00","2019","02","27","23:00"
"-108.42","55.84","BUFFALO NARROWS A","4060984","2019-02-28 00:00","2019","02","28","00:00"
"-108.42","55.84","BUFFALO NARROWS A","4060984","2019-02-28 01:00","2019","02","28","01:00"
"-108.42","55.84","BUFFALO NARROWS A","4060984","2019-02-28 02:00","2019","02","28","02:00"
"-108.42","55.84","BUFFALO NARROWS A","4060984","2019-02-28 03:00","2019","02","28","03:00"
"-108.42","55.84","BUFFALO NARROWS A","4060984","2019-02-28 04:00","2019","02","28","04:00"
"-108.42","55.84","BUFFALO NARROWS A","4060984","2019-02-28 05:00","2019","02","28","05:00"
"-108.42","55.84","BUFFALO NARROWS A","4060984","2019-02-28 06:00","2019","02","28","06:00","-15.1","","-18.5","","76","","","","1","","13","","16.1","","96.48","","","","-22","","Snow"
"-108.42","55.84","BUFFALO NARROWS A","4060984","2019-02-28 07:00","2019","02","28","07:00","-16.7","","-19.8","","77","","","","36","","14","","24.1","","96.48","","","","-25","","NA"
"-108.42","55.84","BUFFALO NARROWS A","4060984","2019-02-28 08:00","2019","02","28","08:00","-18.2","","-20.9","","79","","","","1","","9","","24.1","","96.49","","","","-25","","NA"
"-108.42","55.84","BUFFALO NARROWS A","4060984","2019-02-28 09:00","2019","02","28","09:00","-17.8","","-21.3","","75","","","","36","","17","","16.1","","96.50","","","","-27","","Snow"
"-108.42","55.84","BUFFALO NARROWS A","4060984","2019-02-28 10:00","2019","02","28","10:00","-17.7","","-21.1","","75","","","","2","","18","","4.8","","96.53","","","","-27","","Snow"
"-108.42","55.84","BUFFALO NARROWS A","4060984","2019-02-28 11:00","2019","02","28","11:00","-17.5","","-21.6","","71","","","","4","","11","","19.3","","96.53","","","","-25","","Snow"
"-108.42","55.84","BUFFALO NARROWS A","4060984","2019-02-28 12:00","2019","02","28","12:00","-16.9","","-21.4","","69","","","","4","","13","","19.3","","96.53","","","","-25","","Snow"
"-108.42","55.84","BUFFALO NARROWS A","4060984","2019-02-28 13:00","2019","02","28","13:00","-16.4","","-20.8","","69","","","","4","","16","","19.3","","96.52","","","","-25","","Snow"
"-108.42","55.84","BUFFALO NARROWS A","4060984","2019-02-28 14:00","2019","02","28","14:00","-16.1","","-20.4","","70","","","","4","","17","","9.7","","96.52","","","","-25","","Snow"
"-108.42","55.84","BUFFALO NARROWS A","4060984","2019-02-28 15:00","2019","02","28","15:00","-15.9","","-20.6","","67","","","","4","","14","","6.4","","96.53","","","","-24","","Snow"
"-108.42","55.84","BUFFALO NARROWS A","4060984","2019-02-28 16:00","2019","02","28","16:00","-16.0","","-20.0","","72","","","","4","","11","","3.2","","96.53","","","","-23","","Snow"
"-108.42","55.84","BUFFALO NARROWS A","4060984","2019-02-28 17:00","2019","02","28","17:00","-16.3","","-19.3","","78","","","","8","","7","","2.4","","96.58","","","","-21","","Snow"
"-108.42","55.84","BUFFALO NARROWS A","4060984","2019-02-28 18:00","2019","02","28","18:00","-16.5","","-19.3","","79","","","","5","","4","","4.8","","96.63","","","","-20","","Snow"
"-108.42","55.84","BUFFALO NARROWS A","4060984","2019-02-28 19:00","2019","02","28","19:00","-17.0","","-20.6","","74","","","","1","","19","","9.7","","96.69","","","","-26","","Snow"
"-108.42","55.84","BUFFALO NARROWS A","4060984","2019-02-28 20:00","2019","02","28","20:00","-17.6","","-20.9","","76","","","","1","","22","","16.1","","96.78","","","","-28","","Snow"
"-108.42","55.84","BUFFALO NARROWS A","4060984","2019-02-28 21:00","2019","02","28","21:00","-19.3","","-22.7","","75","","","","1","","23","","9.7","","96.87","","","","-30","","Snow,Blowing Snow"
"-108.42","55.84","BUFFALO NARROWS A","4060984","2019-02-28 22:00","2019","02","28","22:00","-20.6","","-24.1","","74","","","","1","","20","","19.3","","96.98","","","","-31","","Snow,Blowing Snow"
"-108.42","55.84","BUFFALO NARROWS A","4060984","2019-02-28 23:00","2019","02","28","23:00"
