"Longitude (x)","Latitude (y)","Station Name","Climate ID","Date/Time (LST)","Year","Month","Day","Time (LST)","Temp (°C)","Temp Flag","Dew Point Temp (°C)","Dew Point Temp Flag","Rel Hum (%)","Rel Hum Flag","Precip. Amount (mm)","Precip. Amount Flag","Wind Dir (10s deg)","Wind Dir Flag","Wind Spd (km/h)","Wind Spd Flag","Visibility (km)","Visibility Flag","Stn Press (kPa)","Stn Press Flag","Hmdx","Hmdx Flag","Wind Chill","Wind Chill Flag","Weather"
"-63.66","44.75","BEDFORD RANGE","8200574","2019-02-01 00:00","2019","02","01","00:00","-11.7","","-18.0","","60","","","","25","","4","","","","101.87","","","","-14","","NA"
"-63.66","44.75","BEDFORD RANGE","8200574","2019-02-01 01:00","2019","02","01","01:00","-12.0","","-18.0","","61","","","","23","","3","","","","101.91","","","","-14","","NA"
"-63.66","44.75","BEDFORD RANGE","8200574","2019-02-01 02:00","2019","02","01","02:00","-13.3","","-17.0","","74","","","","","","0","","","","101.90","","","","","","NA"
"-63.66","44.75","BEDFORD RANGE","8200574","2019-02-01 03:00","2019","02","01","03:00","-12.3","","-17.3","","66","","","","30","","9","","","","101.91","","","","-18","","NA"
"-63.66","44.75","BEDFORD RANGE","8200574","2019-02-01 04:00","2019","02","01","04:00","-14.0","","-17.4","","76","","","","20","","2","","","","101.90","","","","-15","","NA"
"-63.66","44.75","BEDFORD RANGE","8200574","2019-02-01 05:00","2019","02","01","05:00","-14.4","","-17.1","","80","","","","21","","4","","","","101.94","","","","-17","","NA"
"-63.66","44.75","BEDFORD RANGE","8200574","2019-02-01 06:00","2019","02","01","06:00","-13.4","","-17.3","","72","","","","20","","6","","","","101.91","","","","-17","","NA"
"-63.66","44.75","BEDFORD RANGE","8200574","2019-02-01 07:00","2019","02","01","07:00","-15.0","","-17.0","","85","","","","18","","4","","","","101.93","","","","-18","","NA"
"-63.66","44.75","BEDFORD RANGE","8200574","2019-02-01 08:00","2019","02","01","08:00","-15.2","","-16.8","","88","","","","","","0","","","","101.96","","","","","","NA"
"-63.66","44.75","BEDFORD RANGE","8200574","2019-02-01 09:00","2019","02","01","09:00","-10.4","","-14.6","","71","","","","18","","5","","","","101.97","","","","-13","","NA"
"-63.66","44.75","BEDFORD RANGE","8200574","2019-02-01 10:00","2019","02","01","10:00","-8.7","","-15.5","","58","","","","26","","12","","","","101.93","","","","-14","","NA"
"-63.66","44.75","BEDFORD RANGE","8200574","2019-02-01 11:00","2019","02","01","11:00","-8.4","","-15.3","","57","","","","27","","16","","","","101.95","","","","-15","","NA"
"-63.66","44.75","BEDFORD RANGE","8200574","2019-02-01 12:00","2019","02","01","12:00","-9.0","","-12.4","","76","","","","30","","15","","","","101.88","","","","-16","","NA"
"-63.66","44.75","BEDFORD RANGE","8200574","2019-02-01 13:00","2019","02","01","13:00","-8.3","","-16.5","","52","","","","29","","18","","","","101.79","","","","-15","","NA"
"-63.66","44.75","BEDFORD RANGE","8200574","2019-02-01 14:00","2019","02","01","14:00","-6.8","","-17.2","","44","","","","24","","15","","","","101.74","","","","-13","","NA"
"-63.66","44.75","BEDFORD RANGE","8200574","2019-02-01 15:00","2019","02","01","15:00","-7.3","","-17.0","","46","","","","28","","17","","","","101.68","","","","-14","","NA"
"-63.66","44.75","BEDFORD RANGE","8200574","2019-02-01 16:00","2019","02","01","16:00","-6.6","","-15.8","","48","","","","27","","12","","","","101.68","","","","-12","","NA"
"-63.66","44.75","BEDFORD RANGE","8200574","2019-02-01 17:00","2019","02","01","17:00","-7.8","","-15.3","","55","","","","28","","12","","","","101.71","","","","-13","","NA"
"-63.66","44.75","BEDFORD RANGE","8200574","2019-02-01 18:00","2019","02","01","18:00","-8.3","","-15.3","","57","","","","27","","10","","","","101.76","","","","-13","","NA"
"-63.66","44.75","BEDFORD RANGE","8200574","2019-02-01 19:00","2019","02","01","19:00","-8.9","","-15.3","","60","","","","25","","5","","","","101.80","","","","-12","","NA"
"-63.66","44.75","BEDFORD RANGE","8200574","2019-02-01 20:00","2019","02","01","20:00","-9.4","","-15.1","","63","","","","27","","4","","","","101.82","","","","-12","","NA"
"-63.66","44.75","BEDFORD RANGE","8200574","2019-02-01 21:00","2019","02","01","21:00","-9.5","","-14.8","","65","","","","22","","4","","","","101.82","","","","-12","","NA"
"-63.66","44.75","BEDFORD RANGE","8200574","2019-02-01 22:00","2019","02","01","22:00","-9.6","","-14.1","","70","","","","24","","5","","","","101.81","","","","-12","","NA"
"-63.66","44.75","BEDFORD RANGE","8200574","2019-02-01 23:00","2019","02","01","23:00","-9.9","","-14.5","","69","","","","24","","4","","","","101.78","","","","-12","","NA"
"-63.66","44.75","BEDFORD RANGE","8200574","2019-02-02 00:00","2019","02","02","00:00","-9.8","","-14.9","","66","","","","19","","7","","","","101.78","","","","-14","","NA"
"-63.66","44.75","BEDFORD RANGE","8200574","2019-02-02 01:00","2019","02","02","01:00","-9.7","","-15.1","","65","","","","27","","6","","","","101.76","","","","-13","","NA"
"-63.66","44.75","BEDFORD RANGE","8200574","2019-02-02 02:00","2019","02","02","02:00","-10.5","","-15.0","","70","","","","31","","4","","","","101.75","","","","-13","","NA"
"-63.66","44.75","BEDFORD RANGE","8200574","2019-02-02 03:00","2019","02","02","03:00","-11.1","","-15.3","","71","","","","27","","5","","","","101.79","","","","-14","","NA"
"-63.66","44.75","BEDFORD RANGE","8200574","2019-02-02 04:00","2019","02","02","04:00","-12.9","","-15.2","","83","","","","","","0","","","","101.80","","","","","","NA"
"-63.66","44.75","BEDFORD RANGE","8200574","2019-02-02 05:00","2019","02","02","05:00","-14.6","","-16.1","","88","","","","0","","1","","","","101.80","","","","-15","","NA"
"-63.66","44.75","BEDFORD RANGE","8200574","2019-02-02 06:00","2019","02","02","06:00","-14.9","","-16.4","","88","","","","0","","1","","","","101.82","","","","-16","","NA"
"-63.66","44.75","BEDFORD RANGE","8200574","2019-02-02 07:00","2019","02","02","07:00","-13.1","","-16.3","","77","","","","14","","4","","","","101.82","","","","-16","","NA"
"-63.66","44.75","BEDFORD RANGE","8200574","2019-02-02 08:00","2019","02","02","08:00","-13.9","","-16.8","","79","","","","25","","2","","","","101.85","","","","-15","","NA"
"-63.66","44.75","BEDFORD RANGE","8200574","2019-02-02 09:00","2019","02","02","09:00","-10.2","","-16.3","","61","","","","11","","2","","","","101.90","","","","-11","","NA"
"-63.66","44.75","BEDFORD RANGE","8200574","2019-02-02 10:00","2019","02","02","10:00","-9.1","","-16.4","","56","","","","28","","10","","","","101.82","","","","-14","","NA"
"-63.66","44.75","BEDFORD RANGE","8200574","2019-02-02 11:00","2019","02","02","11:00","-7.6","","-16.9","","48","","","","26","","11","","","","101.71","","","","-13","","NA"
"-63.66","44.75","BEDFORD RANGE","8200574","2019-02-02 12:00","2019","02","02","12:00","-5.9","","-16.2","","44","","","","25","","11","","","","101.61","","","","-11","","NA"
"-63.66","44.75","BEDFORD RANGE","8200574","2019-02-02 13:00","2019","02","02","13:00","-5.3","","-15.2","","46","","","","27","","11","","","","101.47","","","","-10","","NA"
"-63.66","44.75","BEDFORD RANGE","8200574","2019-02-02 14:00","2019","02","02","14:00","-4.2","","-16.1","","39","","","","26","","15","","","","101.36","","","","-10","","NA"
"-63.66","44.75","BEDFORD RANGE","8200574","2019-02-02 15:00","2019","02","02","15:00","-4.4","","-15.4","","42","","","","21","","14","","","","101.28","","","","-10","","NA"
"-63.66","44.75","BEDFORD RANGE","8200574","2019-02-02 16:00","2019","02","02","16:00","-4.7","","-14.6","","46","","","","27","","10","","","","101.20","","","","-9","","NA"
"-63.66","44.75","BEDFORD RANGE","8200574","2019-02-02 17:00","2019","02","02","17:00","-5.1","","-12.8","","55","","","","22","","11","","","","101.14","","","","-10","","NA"
"-63.66","44.75","BEDFORD RANGE","8200574","2019-02-02 18:00","2019","02","02","18:00","-5.0","","-11.0","","63","","","","21","","7","","","","100.98","","","","-8","","NA"
"-63.66","44.75","BEDFORD RANGE","8200574","2019-02-02 19:00","2019","02","02","19:00","-5.5","","-8.6","","79","","","","21","","6","","","","100.86","","","","-8","","NA"
"-63.66","44.75","BEDFORD RANGE","8200574","2019-02-02 20:00","2019","02","02","20:00","-5.5","","-7.1","","88","","","","17","","7","","","","100.70","","","","-9","","NA"
"-63.66","44.75","BEDFORD RANGE","8200574","2019-02-02 21:00","2019","02","02","21:00","-4.3","","-6.4","","85","","","","22","","7","","","","100.60","","","","-7","","NA"
"-63.66","44.75","BEDFORD RANGE","8200574","2019-02-02 22:00","2019","02","02","22:00","-3.8","","-6.2","","83","","","","25","","9","","","","100.56","","","","-8","","NA"
"-63.66","44.75","BEDFORD RANGE","8200574","2019-02-02 23:00","2019","02","02","23:00","-5.0","","-6.9","","87","","","","32","","20","","","","100.64","","","","-12","","NA"
"-63.66","44.75","BEDFORD RANGE","8200574","2019-02-03 00:00","2019","02","03","00:00","-6.6","","-9.7","","78","","","","31","","22","","","","100.75","","","","-14","","NA"
"-63.66","44.75","BEDFORD RANGE","8200574","2019-02-03 01:00","2019","02","03","01:00","-7.5","","-11.1","","76","","","","31","","22","","","","100.87","","","","-15","","NA"
"-63.66","44.75","BEDFORD RANGE","8200574","2019-02-03 02:00","2019","02","03","02:00","-8.5","","-11.2","","80","","","","32","","15","","","","100.99","","","","-15","","NA"
"-63.66","44.75","BEDFORD RANGE","8200574","2019-02-03 03:00","2019","02","03","03:00","-9.0","","-12.7","","75","","","","29","","7","","","","101.16","","","","-13","","NA"
"-63.66","44.75","BEDFORD RANGE","8200574","2019-02-03 04:00","2019","02","03","04:00","-9.6","","-13.6","","72","","","","28","","10","","","","101.25","","","","-15","","NA"
"-63.66","44.75","BEDFORD RANGE","8200574","2019-02-03 05:00","2019","02","03","05:00","-10.9","","-14.5","","75","","","","26","","5","","","","101.41","","","","-14","","NA"
"-63.66","44.75","BEDFORD RANGE","8200574","2019-02-03 06:00","2019","02","03","06:00","-11.5","","-15.0","","75","","","","31","","10","","","","101.48","","","","-17","","NA"
"-63.66","44.75","BEDFORD RANGE","8200574","2019-02-03 07:00","2019","02","03","07:00","-12.2","","-15.3","","77","","","","31","","6","","","","101.59","","","","-16","","NA"
"-63.66","44.75","BEDFORD RANGE","8200574","2019-02-03 08:00","2019","02","03","08:00","-13.6","","-15.6","","85","","","","1","","2","","","","101.63","","","","-15","","NA"
"-63.66","44.75","BEDFORD RANGE","8200574","2019-02-03 09:00","2019","02","03","09:00","-9.3","","-15.2","","62","","","","31","","12","","","","101.62","","","","-15","","NA"
"-63.66","44.75","BEDFORD RANGE","8200574","2019-02-03 10:00","2019","02","03","10:00","-7.5","","-14.5","","57","","","","31","","17","","","","101.62","","","","-14","","NA"
"-63.66","44.75","BEDFORD RANGE","8200574","2019-02-03 11:00","2019","02","03","11:00","-6.6","","-14.5","","53","","","","30","","21","","","","101.74","","","","-14","","NA"
"-63.66","44.75","BEDFORD RANGE","8200574","2019-02-03 12:00","2019","02","03","12:00","-5.4","","-15.3","","46","","","","30","","16","","","","101.71","","","","-11","","NA"
"-63.66","44.75","BEDFORD RANGE","8200574","2019-02-03 13:00","2019","02","03","13:00","-4.3","","-15.3","","42","","","","31","","18","","","","101.69","","","","-10","","NA"
"-63.66","44.75","BEDFORD RANGE","8200574","2019-02-03 14:00","2019","02","03","14:00","-3.2","","-15.3","","39","","","","30","","15","","","","101.68","","","","-8","","NA"
"-63.66","44.75","BEDFORD RANGE","8200574","2019-02-03 15:00","2019","02","03","15:00","-2.7","","-14.5","","40","","","","32","","13","","","","101.70","","","","-7","","NA"
"-63.66","44.75","BEDFORD RANGE","8200574","2019-02-03 16:00","2019","02","03","16:00","-2.6","","-14.4","","40","","","","31","","12","","","","101.78","","","","-7","","NA"
"-63.66","44.75","BEDFORD RANGE","8200574","2019-02-03 17:00","2019","02","03","17:00","-3.9","","-14.0","","45","","","","32","","8","","","","101.83","","","","-7","","NA"
"-63.66","44.75","BEDFORD RANGE","8200574","2019-02-03 18:00","2019","02","03","18:00","-5.8","","-13.0","","57","","","","29","","4","","","","101.94","","","","-8","","NA"
"-63.66","44.75","BEDFORD RANGE","8200574","2019-02-03 19:00","2019","02","03","19:00","-7.9","","-11.8","","74","","","","33","","2","","","","102.05","","","","-9","","NA"
"-63.66","44.75","BEDFORD RANGE","8200574","2019-02-03 20:00","2019","02","03","20:00","-7.0","","-11.6","","70","","","","31","","3","","","","102.13","","","","-9","","NA"
"-63.66","44.75","BEDFORD RANGE","8200574","2019-02-03 21:00","2019","02","03","21:00","-6.1","","-12.1","","62","","","","21","","3","","","","102.18","","","","-8","","NA"
"-63.66","44.75","BEDFORD RANGE","8200574","2019-02-03 22:00","2019","02","03","22:00","-5.9","","-10.5","","70","","","","","","0","","","","102.21","","","","","","NA"
"-63.66","44.75","BEDFORD RANGE","8200574","2019-02-03 23:00","2019","02","03","23:00","-5.7","","-11.3","","65","","","","23","","3","","","","102.19","","","","-7","","NA"
"-63.66","44.75","BEDFORD RANGE","8200574","2019-02-04 00:00","2019","02","04","00:00","-5.7","","-10.6","","69","","","","21","","2","","","","102.20","","","","-7","","NA"
"-63.66","44.75","BEDFORD RANGE","8200574","2019-02-04 01:00","2019","02","04","01:00","-5.3","","-11.0","","64","","","","19","","4","","","","102.24","","","","-7","","NA"
"-63.66","44.75","BEDFORD RANGE","8200574","2019-02-04 02:00","2019","02","04","02:00","-5.3","","-10.5","","67","","","","13","","7","","","","102.19","","","","-9","","NA"
"-63.66","44.75","BEDFORD RANGE","8200574","2019-02-04 03:00","2019","02","04","03:00","-4.6","","-10.2","","65","","","","16","","6","","","","102.19","","","","-7","","NA"
"-63.66","44.75","BEDFORD RANGE","8200574","2019-02-04 04:00","2019","02","04","04:00","-3.9","","-9.6","","65","","","","16","","9","","","","102.11","","","","-8","","NA"
"-63.66","44.75","BEDFORD RANGE","8200574","2019-02-04 05:00","2019","02","04","05:00","-3.6","","-8.9","","66","","","","16","","7","","","","102.08","","","","-7","","NA"
"-63.66","44.75","BEDFORD RANGE","8200574","2019-02-04 06:00","2019","02","04","06:00","-3.2","","-7.7","","71","","","","16","","8","","","","102.01","","","","-6","","NA"
"-63.66","44.75","BEDFORD RANGE","8200574","2019-02-04 07:00","2019","02","04","07:00","-2.9","","-7.1","","73","","","","16","","8","","","","101.95","","","","-6","","NA"
"-63.66","44.75","BEDFORD RANGE","8200574","2019-02-04 08:00","2019","02","04","08:00","-2.5","","-6.3","","75","","","","18","","10","","","","101.92","","","","-6","","NA"
"-63.66","44.75","BEDFORD RANGE","8200574","2019-02-04 09:00","2019","02","04","09:00","-1.5","","-5.0","","77","","","","17","","11","","","","101.91","","","","-5","","NA"
"-63.66","44.75","BEDFORD RANGE","8200574","2019-02-04 10:00","2019","02","04","10:00","-1.0","","-3.5","","83","","","","18","","13","","","","101.80","","","","-5","","NA"
"-63.66","44.75","BEDFORD RANGE","8200574","2019-02-04 11:00","2019","02","04","11:00","-0.2","","-2.9","","82","","","","17","","8","","","","101.81","","","","-3","","NA"
"-63.66","44.75","BEDFORD RANGE","8200574","2019-02-04 12:00","2019","02","04","12:00","1.0","","-1.8","","81","","0.0","","18","","10","","","","101.73","","","","","","NA"
"-63.66","44.75","BEDFORD RANGE","8200574","2019-02-04 13:00","2019","02","04","13:00","2.0","","-0.7","","82","","0.0","","18","","9","","","","101.59","","","","","","NA"
"-63.66","44.75","BEDFORD RANGE","8200574","2019-02-04 14:00","2019","02","04","14:00","2.4","","0.3","","86","","0.0","","19","","6","","","","101.51","","","","","","NA"
"-63.66","44.75","BEDFORD RANGE","8200574","2019-02-04 15:00","2019","02","04","15:00","3.2","","0.9","","85","","0.0","","18","","8","","","","101.45","","","","","","NA"
"-63.66","44.75","BEDFORD RANGE","8200574","2019-02-04 16:00","2019","02","04","16:00","4.1","","1.1","","81","","0.0","","22","","4","","","","101.48","","","","","","NA"
"-63.66","44.75","BEDFORD RANGE","8200574","2019-02-04 17:00","2019","02","04","17:00","3.6","","0.8","","82","","0.0","","30","","2","","","","101.48","","","","","","NA"
"-63.66","44.75","BEDFORD RANGE","8200574","2019-02-04 18:00","2019","02","04","18:00","2.1","","0.5","","89","","0.0","","13","","2","","","","101.51","","","","","","NA"
"-63.66","44.75","BEDFORD RANGE","8200574","2019-02-04 19:00","2019","02","04","19:00","1.0","","0.0","","93","","0.0","","15","","2","","","","101.57","","","","","","NA"
"-63.66","44.75","BEDFORD RANGE","8200574","2019-02-04 20:00","2019","02","04","20:00","0.4","","-0.4","","94","","","","","","0","","","","101.58","","","","","","NA"
"-63.66","44.75","BEDFORD RANGE","8200574","2019-02-04 21:00","2019","02","04","21:00","-0.4","","-1.0","","95","","","","29","","3","","","","101.59","","","","-1","","NA"
"-63.66","44.75","BEDFORD RANGE","8200574","2019-02-04 22:00","2019","02","04","22:00","-1.1","","-1.6","","96","","","","9","","2","","","","101.65","","","","-2","","NA"
"-63.66","44.75","BEDFORD RANGE","8200574","2019-02-04 23:00","2019","02","04","23:00","-1.5","","-2.0","","97","","","","0","","1","","","","101.66","","","","-2","","NA"
"-63.66","44.75","BEDFORD RANGE","8200574","2019-02-05 00:00","2019","02","05","00:00","-2.1","","-2.5","","97","","","","32","","3","","","","101.70","","","","-3","","NA"
"-63.66","44.75","BEDFORD RANGE","8200574","2019-02-05 01:00","2019","02","05","01:00","-2.0","","-2.4","","97","","","","0","","1","","","","101.71","","","","-2","","NA"
"-63.66","44.75","BEDFORD RANGE","8200574","2019-02-05 02:00","2019","02","05","02:00","-1.8","","-2.2","","97","","","","","","0","","","","101.71","","","","","","NA"
"-63.66","44.75","BEDFORD RANGE","8200574","2019-02-05 03:00","2019","02","05","03:00","-1.4","","-1.9","","97","","","","","","0","","","","101.70","","","","","","NA"
"-63.66","44.75","BEDFORD RANGE","8200574","2019-02-05 04:00","2019","02","05","04:00","-0.9","","-1.4","","97","","","","32","","2","","","","101.59","","","","-2","","NA"
"-63.66","44.75","BEDFORD RANGE","8200574","2019-02-05 05:00","2019","02","05","05:00","-1.0","","-1.4","","97","","","","0","","1","","","","101.52","","","","-1","","NA"
"-63.66","44.75","BEDFORD RANGE","8200574","2019-02-05 06:00","2019","02","05","06:00","-1.0","","-1.4","","97","","","","13","","3","","","","101.55","","","","-2","","NA"
"-63.66","44.75","BEDFORD RANGE","8200574","2019-02-05 07:00","2019","02","05","07:00","-0.4","","-0.8","","97","","","","0","","1","","","","101.51","","","","-1","","NA"
"-63.66","44.75","BEDFORD RANGE","8200574","2019-02-05 08:00","2019","02","05","08:00","1.4","","1.0","","97","","0.2","","16","","7","","","","101.62","","","","","","NA"
"-63.66","44.75","BEDFORD RANGE","8200574","2019-02-05 09:00","2019","02","05","09:00","1.6","","1.2","","97","","0.0","","16","","13","","","","101.58","","","","","","NA"
"-63.66","44.75","BEDFORD RANGE","8200574","2019-02-05 10:00","2019","02","05","10:00","1.8","","1.4","","98","","0.0","","17","","9","","","","101.52","","","","","","NA"
"-63.66","44.75","BEDFORD RANGE","8200574","2019-02-05 11:00","2019","02","05","11:00","2.0","","1.7","","98","","0.8","","17","","8","","","","101.41","","","","","","NA"
"-63.66","44.75","BEDFORD RANGE","8200574","2019-02-05 12:00","2019","02","05","12:00","2.5","","2.1","","98","","0.4","","17","","7","","","","101.26","","","","","","NA"
"-63.66","44.75","BEDFORD RANGE","8200574","2019-02-05 13:00","2019","02","05","13:00","2.6","","2.3","","98","","0.4","","13","","3","","","","101.12","","","","","","NA"
"-63.66","44.75","BEDFORD RANGE","8200574","2019-02-05 14:00","2019","02","05","14:00","7.5","","7.3","","98","","1.6","","18","","7","","","","101.03","","","","","","NA"
"-63.66","44.75","BEDFORD RANGE","8200574","2019-02-05 15:00","2019","02","05","15:00","7.9","","7.6","","98","","0.2","","17","","12","","","","100.96","","","","","","NA"
"-63.66","44.75","BEDFORD RANGE","8200574","2019-02-05 16:00","2019","02","05","16:00","8.4","","8.0","","98","","0.4","","18","","6","","","","100.94","","","","","","NA"
"-63.66","44.75","BEDFORD RANGE","8200574","2019-02-05 17:00","2019","02","05","17:00","7.7","","7.3","","98","","0.4","","16","","7","","","","100.91","","","","","","NA"
"-63.66","44.75","BEDFORD RANGE","8200574","2019-02-05 18:00","2019","02","05","18:00","7.2","","6.8","","97","","1.0","","18","","6","","","","100.89","","","","","","NA"
"-63.66","44.75","BEDFORD RANGE","8200574","2019-02-05 19:00","2019","02","05","19:00","6.4","","6.0","","97","","0.4","","16","","8","","","","100.88","","","","","","NA"
"-63.66","44.75","BEDFORD RANGE","8200574","2019-02-05 20:00","2019","02","05","20:00","5.4","","5.0","","97","","0.0","","15","","5","","","","100.86","","","","","","NA"
"-63.66","44.75","BEDFORD RANGE","8200574","2019-02-05 21:00","2019","02","05","21:00","5.4","","5.2","","98","","0.0","","18","","5","","","","100.84","","","","","","NA"
"-63.66","44.75","BEDFORD RANGE","8200574","2019-02-05 22:00","2019","02","05","22:00","3.6","","3.3","","98","","0.0","","14","","3","","","","100.81","","","","","","NA"
"-63.66","44.75","BEDFORD RANGE","8200574","2019-02-05 23:00","2019","02","05","23:00","2.1","","1.8","","98","","0.0","","","","0","","","","100.78","","","","","","NA"
"-63.66","44.75","BEDFORD RANGE","8200574","2019-02-06 00:00","2019","02","06","00:00","5.9","","5.1","","95","","0.0","","32","","8","","","","100.94","","","","","","NA"
"-63.66","44.75","BEDFORD RANGE","8200574","2019-02-06 01:00","2019","02","06","01:00","2.2","","1.3","","94","","0.0","","31","","5","","","","100.99","","","","","","NA"
"-63.66","44.75","BEDFORD RANGE","8200574","2019-02-06 02:00","2019","02","06","02:00","2.3","","1.6","","95","","0.0","","32","","6","","","","101.04","","","","","","NA"
"-63.66","44.75","BEDFORD RANGE","8200574","2019-02-06 03:00","2019","02","06","03:00","3.2","","1.2","","87","","0.0","","33","","11","","","","101.13","","","","","","NA"
"-63.66","44.75","BEDFORD RANGE","8200574","2019-02-06 04:00","2019","02","06","04:00","2.2","","-0.3","","83","","0.0","","35","","16","","","","101.19","","","","","","NA"
"-63.66","44.75","BEDFORD RANGE","8200574","2019-02-06 05:00","2019","02","06","05:00","0.6","","-2.1","","82","","0.0","","34","","13","","","","101.34","","","","","","NA"
"-63.66","44.75","BEDFORD RANGE","8200574","2019-02-06 06:00","2019","02","06","06:00","-0.3","","-3.4","","79","","","","34","","15","","","","101.47","","","","-5","","NA"
"-63.66","44.75","BEDFORD RANGE","8200574","2019-02-06 07:00","2019","02","06","07:00","-1.3","","-4.8","","77","","","","34","","19","","","","101.63","","","","-7","","NA"
"-63.66","44.75","BEDFORD RANGE","8200574","2019-02-06 08:00","2019","02","06","08:00","-1.9","","-5.1","","79","","","","34","","19","","","","101.75","","","","-7","","NA"
"-63.66","44.75","BEDFORD RANGE","8200574","2019-02-06 09:00","2019","02","06","09:00","-2.0","","-5.1","","79","","","","35","","15","","","","101.85","","","","-7","","NA"
"-63.66","44.75","BEDFORD RANGE","8200574","2019-02-06 10:00","2019","02","06","10:00","-1.8","","-6.0","","73","","","","34","","18","","","","101.93","","","","-7","","NA"
"-63.66","44.75","BEDFORD RANGE","8200574","2019-02-06 11:00","2019","02","06","11:00","-1.9","","-6.3","","72","","","","36","","14","","","","102.06","","","","-7","","NA"
"-63.66","44.75","BEDFORD RANGE","8200574","2019-02-06 12:00","2019","02","06","12:00","-2.0","","-6.4","","72","","","","35","","17","","","","102.05","","","","-7","","NA"
"-63.66","44.75","BEDFORD RANGE","8200574","2019-02-06 13:00","2019","02","06","13:00","-2.1","","-6.8","","70","","","","35","","14","","","","102.09","","","","-7","","NA"
"-63.66","44.75","BEDFORD RANGE","8200574","2019-02-06 14:00","2019","02","06","14:00","-2.0","","-7.7","","65","","","","34","","16","","","","102.12","","","","-7","","NA"
"-63.66","44.75","BEDFORD RANGE","8200574","2019-02-06 15:00","2019","02","06","15:00","-2.3","","-8.1","","64","","","","1","","16","","","","102.12","","","","-7","","NA"
"-63.66","44.75","BEDFORD RANGE","8200574","2019-02-06 16:00","2019","02","06","16:00","-3.0","","-8.2","","67","","","","35","","14","","","","102.22","","","","-8","","NA"
"-63.66","44.75","BEDFORD RANGE","8200574","2019-02-06 17:00","2019","02","06","17:00","-3.3","","-7.8","","71","","","","36","","11","","","","102.29","","","","-8","","NA"
"-63.66","44.75","BEDFORD RANGE","8200574","2019-02-06 18:00","2019","02","06","18:00","-3.6","","-7.7","","73","","","","34","","11","","","","102.31","","","","-8","","NA"
"-63.66","44.75","BEDFORD RANGE","8200574","2019-02-06 19:00","2019","02","06","19:00","-3.8","","-8.0","","73","","","","34","","11","","","","102.40","","","","-8","","NA"
"-63.66","44.75","BEDFORD RANGE","8200574","2019-02-06 20:00","2019","02","06","20:00","-4.2","","-8.1","","74","","","","36","","9","","","","102.45","","","","-8","","NA"
"-63.66","44.75","BEDFORD RANGE","8200574","2019-02-06 21:00","2019","02","06","21:00","-4.8","","-8.7","","74","","","","2","","10","","","","102.44","","","","-9","","NA"
"-63.66","44.75","BEDFORD RANGE","8200574","2019-02-06 22:00","2019","02","06","22:00","-5.0","","-8.8","","75","","","","4","","7","","","","102.48","","","","-8","","NA"
"-63.66","44.75","BEDFORD RANGE","8200574","2019-02-06 23:00","2019","02","06","23:00","-5.6","","-9.5","","74","","","","5","","6","","","","102.48","","","","-8","","NA"
"-63.66","44.75","BEDFORD RANGE","8200574","2019-02-07 00:00","2019","02","07","00:00","-5.6","","-9.3","","75","","","","35","","6","","","","102.50","","","","-8","","NA"
"-63.66","44.75","BEDFORD RANGE","8200574","2019-02-07 01:00","2019","02","07","01:00","-5.7","","-9.3","","76","","","","35","","4","","","","102.51","","","","-8","","NA"
"-63.66","44.75","BEDFORD RANGE","8200574","2019-02-07 02:00","2019","02","07","02:00","-5.8","","-9.2","","76","","","","0","","1","","","","102.49","","","","-6","","NA"
"-63.66","44.75","BEDFORD RANGE","8200574","2019-02-07 03:00","2019","02","07","03:00","-5.6","","-9.0","","77","","","","5","","2","","","","102.50","","","","-7","","NA"
"-63.66","44.75","BEDFORD RANGE","8200574","2019-02-07 04:00","2019","02","07","04:00","-5.5","","-8.9","","76","","","","9","","3","","","","102.49","","","","-7","","NA"
"-63.66","44.75","BEDFORD RANGE","8200574","2019-02-07 05:00","2019","02","07","05:00","-5.4","","-8.9","","76","","","","2","","2","","","","102.47","","","","-6","","NA"
"-63.66","44.75","BEDFORD RANGE","8200574","2019-02-07 06:00","2019","02","07","06:00","-5.6","","-7.9","","84","","","","0","","1","","","","102.50","","","","-6","","NA"
"-63.66","44.75","BEDFORD RANGE","8200574","2019-02-07 07:00","2019","02","07","07:00","-5.6","","-7.6","","86","","","","","","0","","","","102.52","","","","","","NA"
"-63.66","44.75","BEDFORD RANGE","8200574","2019-02-07 08:00","2019","02","07","08:00","-5.2","","-7.3","","86","","","","0","","1","","","","102.55","","","","-6","","NA"
"-63.66","44.75","BEDFORD RANGE","8200574","2019-02-07 09:00","2019","02","07","09:00","-4.8","","-7.4","","82","","","","3","","4","","","","102.56","","","","-7","","NA"
"-63.66","44.75","BEDFORD RANGE","8200574","2019-02-07 10:00","2019","02","07","10:00","-4.2","","-7.3","","79","","","","3","","3","","","","102.59","","","","-5","","NA"
"-63.66","44.75","BEDFORD RANGE","8200574","2019-02-07 11:00","2019","02","07","11:00","-3.3","","-6.9","","76","","","","12","","3","","","","102.59","","","","-5","","NA"
"-63.66","44.75","BEDFORD RANGE","8200574","2019-02-07 12:00","2019","02","07","12:00","-2.6","","-6.2","","76","","","","7","","5","","","","102.51","","","","-5","","NA"
"-63.66","44.75","BEDFORD RANGE","8200574","2019-02-07 13:00","2019","02","07","13:00","-1.9","","-5.6","","76","","","","20","","3","","","","102.43","","","","-3","","NA"
"-63.66","44.75","BEDFORD RANGE","8200574","2019-02-07 14:00","2019","02","07","14:00","-1.6","","-5.2","","76","","","","16","","3","","","","102.49","","","","-3","","NA"
"-63.66","44.75","BEDFORD RANGE","8200574","2019-02-07 15:00","2019","02","07","15:00","-1.0","","-5.2","","74","","","","12","","3","","","","102.51","","","","-2","","NA"
"-63.66","44.75","BEDFORD RANGE","8200574","2019-02-07 16:00","2019","02","07","16:00","-0.6","","-5.1","","72","","","","35","","2","","","","102.50","","","","-1","","NA"
"-63.66","44.75","BEDFORD RANGE","8200574","2019-02-07 17:00","2019","02","07","17:00","-0.5","","-5.2","","70","","","","4","","1","","","","102.57","","","","-1","","NA"
"-63.66","44.75","BEDFORD RANGE","8200574","2019-02-07 18:00","2019","02","07","18:00","-0.7","","-4.2","","77","","","","28","","2","","","","102.58","","","","-1","","NA"
"-63.66","44.75","BEDFORD RANGE","8200574","2019-02-07 19:00","2019","02","07","19:00","-0.6","","-4.8","","73","","","","1","","1","","","","102.50","","","","-1","","NA"
"-63.66","44.75","BEDFORD RANGE","8200574","2019-02-07 20:00","2019","02","07","20:00","-0.7","","-4.6","","75","","","","7","","2","","","","102.49","","","","-1","","NA"
"-63.66","44.75","BEDFORD RANGE","8200574","2019-02-07 21:00","2019","02","07","21:00","-0.6","","-4.7","","74","","","","8","","3","","","","102.59","","","","-2","","NA"
"-63.66","44.75","BEDFORD RANGE","8200574","2019-02-07 22:00","2019","02","07","22:00","-0.9","","-4.2","","78","","","","13","","6","","","","102.59","","","","-3","","NA"
"-63.66","44.75","BEDFORD RANGE","8200574","2019-02-07 23:00","2019","02","07","23:00","-1.5","","-4.4","","81","","","","12","","6","","","","102.43","","","","-4","","NA"
"-63.66","44.75","BEDFORD RANGE","8200574","2019-02-08 00:00","2019","02","08","00:00","-1.7","","-4.3","","83","","","","13","","3","","","","102.42","","","","-3","","NA"
"-63.66","44.75","BEDFORD RANGE","8200574","2019-02-08 01:00","2019","02","08","01:00","-1.5","","-3.6","","85","","","","10","","6","","","","102.40","","","","-4","","NA"
"-63.66","44.75","BEDFORD RANGE","8200574","2019-02-08 02:00","2019","02","08","02:00","-1.7","","-3.3","","89","","","","11","","8","","","","102.36","","","","-5","","NA"
"-63.66","44.75","BEDFORD RANGE","8200574","2019-02-08 03:00","2019","02","08","03:00","-1.4","","-3.7","","85","","","","13","","12","","","","102.22","","","","-5","","NA"
"-63.66","44.75","BEDFORD RANGE","8200574","2019-02-08 04:00","2019","02","08","04:00","-1.6","","-3.1","","89","","","","13","","11","","","","102.08","","","","-5","","NA"
"-63.66","44.75","BEDFORD RANGE","8200574","2019-02-08 05:00","2019","02","08","05:00","-1.5","","-2.6","","92","","","","13","","14","","","","101.93","","","","-6","","NA"
"-63.66","44.75","BEDFORD RANGE","8200574","2019-02-08 06:00","2019","02","08","06:00","-1.0","","-2.0","","93","","","","13","","12","","","","101.84","","","","-5","","NA"
"-63.66","44.75","BEDFORD RANGE","8200574","2019-02-08 07:00","2019","02","08","07:00","-0.3","","-1.3","","94","","","","14","","8","","","","101.70","","","","-3","","NA"
"-63.66","44.75","BEDFORD RANGE","8200574","2019-02-08 08:00","2019","02","08","08:00","0.2","","-0.7","","94","","","","14","","8","","","","101.51","","","","","","NA"
"-63.66","44.75","BEDFORD RANGE","8200574","2019-02-08 09:00","2019","02","08","09:00","0.7","","-0.1","","94","","0.8","","14","","15","","","","101.37","","","","","","NA"
"-63.66","44.75","BEDFORD RANGE","8200574","2019-02-08 10:00","2019","02","08","10:00","1.7","","0.9","","95","","2.4","","14","","16","","","","101.19","","","","","","NA"
"-63.66","44.75","BEDFORD RANGE","8200574","2019-02-08 11:00","2019","02","08","11:00","3.3","","2.6","","95","","3.2","","15","","15","","","","100.98","","","","","","NA"
"-63.66","44.75","BEDFORD RANGE","8200574","2019-02-08 12:00","2019","02","08","12:00","5.2","","4.7","","96","","3.0","","15","","10","","","","100.71","","","","","","NA"
"-63.66","44.75","BEDFORD RANGE","8200574","2019-02-08 13:00","2019","02","08","13:00","6.6","","5.9","","96","","3.0","","17","","14","","","","100.53","","","","","","NA"
"-63.66","44.75","BEDFORD RANGE","8200574","2019-02-08 14:00","2019","02","08","14:00","5.5","","4.8","","95","","0.4","","19","","10","","","","100.43","","","","","","NA"
"-63.66","44.75","BEDFORD RANGE","8200574","2019-02-08 15:00","2019","02","08","15:00","4.8","","4.2","","96","","0.0","","16","","9","","","","100.36","","","","","","NA"
"-63.66","44.75","BEDFORD RANGE","8200574","2019-02-08 16:00","2019","02","08","16:00","4.1","","3.6","","97","","0.0","","17","","11","","","","100.29","","","","","","NA"
"-63.66","44.75","BEDFORD RANGE","8200574","2019-02-08 17:00","2019","02","08","17:00","4.3","","3.9","","97","","0.2","","16","","9","","","","100.18","","","","","","NA"
"-63.66","44.75","BEDFORD RANGE","8200574","2019-02-08 18:00","2019","02","08","18:00","4.1","","3.5","","96","","0.2","","18","","8","","","","100.08","","","","","","NA"
"-63.66","44.75","BEDFORD RANGE","8200574","2019-02-08 19:00","2019","02","08","19:00","4.2","","3.5","","95","","0.0","","18","","7","","","","100.13","","","","","","NA"
"-63.66","44.75","BEDFORD RANGE","8200574","2019-02-08 20:00","2019","02","08","20:00","4.1","","3.4","","96","","0.0","","18","","6","","","","100.13","","","","","","NA"
"-63.66","44.75","BEDFORD RANGE","8200574","2019-02-08 21:00","2019","02","08","21:00","4.1","","3.6","","96","","0.0","","16","","8","","","","100.09","","","","","","NA"
"-63.66","44.75","BEDFORD RANGE","8200574","2019-02-08 22:00","2019","02","08","22:00","5.1","","4.1","","93","","0.0","","20","","8","","","","100.13","","","","","","NA"
"-63.66","44.75","BEDFORD RANGE","8200574","2019-02-08 23:00","2019","02","08","23:00","4.4","","3.2","","92","","0.0","","23","","4","","","","100.02","","","","","","NA"
"-63.66","44.75","BEDFORD RANGE","8200574","2019-02-09 00:00","2019","02","09","00:00","4.1","","2.4","","88","","0.0","","27","","6","","","","100.04","","","","","","NA"
"-63.66","44.75","BEDFORD RANGE","8200574","2019-02-09 01:00","2019","02","09","01:00","2.4","","-0.2","","83","","0.0","","30","","12","","","","100.13","","","","","","NA"
"-63.66","44.75","BEDFORD RANGE","8200574","2019-02-09 02:00","2019","02","09","02:00","0.5","","-3.7","","73","","","","27","","7","","","","100.23","","","","","","NA"
"-63.66","44.75","BEDFORD RANGE","8200574","2019-02-09 03:00","2019","02","09","03:00","0.0","","-5.3","","68","","","","28","","16","","","","100.31","","","","-5","","NA"
"-63.66","44.75","BEDFORD RANGE","8200574","2019-02-09 04:00","2019","02","09","04:00","-0.9","","-8.4","","57","","","","30","","19","","","","100.35","","","","-6","","NA"
"-63.66","44.75","BEDFORD RANGE","8200574","2019-02-09 05:00","2019","02","09","05:00","-1.2","","-9.8","","52","","","","27","","16","","","","100.40","","","","-6","","NA"
"-63.66","44.75","BEDFORD RANGE","8200574","2019-02-09 06:00","2019","02","09","06:00","-1.9","","-11.6","","48","","","","29","","25","","","","100.52","","","","-8","","NA"
"-63.66","44.75","BEDFORD RANGE","8200574","2019-02-09 07:00","2019","02","09","07:00","-3.1","","-9.2","","63","","","","29","","21","","","","100.61","","","","-9","","NA"
"-63.66","44.75","BEDFORD RANGE","8200574","2019-02-09 08:00","2019","02","09","08:00","-4.2","","-16.2","","38","","","","29","","23","","","","100.76","","","","-11","","NA"
"-63.66","44.75","BEDFORD RANGE","8200574","2019-02-09 09:00","2019","02","09","09:00","-4.3","","-14.8","","44","","","","29","","22","","","","100.79","","","","-11","","NA"
"-63.66","44.75","BEDFORD RANGE","8200574","2019-02-09 10:00","2019","02","09","10:00","-4.8","","-14.7","","46","","","","30","","26","","","","100.85","","","","-12","","NA"
"-63.66","44.75","BEDFORD RANGE","8200574","2019-02-09 11:00","2019","02","09","11:00","-5.2","","-17.5","","37","","","","29","","30","","","","100.92","","","","-13","","NA"
"-63.66","44.75","BEDFORD RANGE","8200574","2019-02-09 12:00","2019","02","09","12:00","-5.7","","-16.5","","42","","","","29","","25","","","","100.96","","","","-13","","NA"
"-63.66","44.75","BEDFORD RANGE","8200574","2019-02-09 13:00","2019","02","09","13:00","-6.5","","-14.6","","52","","","","30","","26","","","","100.93","","","","-14","","NA"
"-63.66","44.75","BEDFORD RANGE","8200574","2019-02-09 14:00","2019","02","09","14:00","-6.8","","-15.4","","51","","","","29","","23","","","","101.00","","","","-14","","NA"
"-63.66","44.75","BEDFORD RANGE","8200574","2019-02-09 15:00","2019","02","09","15:00","-8.1","","-16.7","","50","","","","29","","28","","","","101.03","","","","-17","","NA"
"-63.66","44.75","BEDFORD RANGE","8200574","2019-02-09 16:00","2019","02","09","16:00","-7.6","","-18.5","","41","","","","29","","25","","","","101.12","","","","-16","","NA"
"-63.66","44.75","BEDFORD RANGE","8200574","2019-02-09 17:00","2019","02","09","17:00","-8.6","","-18.4","","45","","","","30","","27","","","","101.30","","","","-17","","NA"
"-63.66","44.75","BEDFORD RANGE","8200574","2019-02-09 18:00","2019","02","09","18:00","-9.4","","-18.7","","47","","","","30","","28","","","","101.41","","","","-18","","NA"
"-63.66","44.75","BEDFORD RANGE","8200574","2019-02-09 19:00","2019","02","09","19:00","-9.3","","-18.9","","45","","","","30","","21","","","","101.55","","","","-17","","NA"
"-63.66","44.75","BEDFORD RANGE","8200574","2019-02-09 20:00","2019","02","09","20:00","-8.7","","-18.1","","47","","","","31","","22","","","","101.59","","","","-17","","NA"
"-63.66","44.75","BEDFORD RANGE","8200574","2019-02-09 21:00","2019","02","09","21:00","-7.9","","-18.2","","43","","","","30","","23","","","","101.62","","","","-16","","NA"
"-63.66","44.75","BEDFORD RANGE","8200574","2019-02-09 22:00","2019","02","09","22:00","-7.5","","-18.1","","42","","","","30","","25","","","","101.70","","","","-16","","NA"
"-63.66","44.75","BEDFORD RANGE","8200574","2019-02-09 23:00","2019","02","09","23:00","-7.3","","-18.1","","42","","","","31","","28","","","","101.77","","","","-16","","NA"
"-63.66","44.75","BEDFORD RANGE","8200574","2019-02-10 00:00","2019","02","10","00:00","-7.5","","-17.4","","45","","","","30","","28","","","","101.84","","","","-16","","NA"
"-63.66","44.75","BEDFORD RANGE","8200574","2019-02-10 01:00","2019","02","10","01:00","-7.9","","-17.5","","46","","","","30","","24","","","","101.91","","","","-16","","NA"
"-63.66","44.75","BEDFORD RANGE","8200574","2019-02-10 02:00","2019","02","10","02:00","-8.0","","-18.0","","44","","","","30","","25","","","","101.96","","","","-16","","NA"
"-63.66","44.75","BEDFORD RANGE","8200574","2019-02-10 03:00","2019","02","10","03:00","-7.9","","-18.1","","44","","","","29","","23","","","","102.03","","","","-16","","NA"
"-63.66","44.75","BEDFORD RANGE","8200574","2019-02-10 04:00","2019","02","10","04:00","-8.1","","-18.0","","45","","","","29","","21","","","","102.03","","","","-16","","NA"
"-63.66","44.75","BEDFORD RANGE","8200574","2019-02-10 05:00","2019","02","10","05:00","-8.1","","-17.7","","46","","","","29","","17","","","","102.05","","","","-15","","NA"
"-63.66","44.75","BEDFORD RANGE","8200574","2019-02-10 06:00","2019","02","10","06:00","-8.1","","-16.9","","49","","","","30","","19","","","","102.06","","","","-15","","NA"
"-63.66","44.75","BEDFORD RANGE","8200574","2019-02-10 07:00","2019","02","10","07:00","-8.1","","-16.9","","49","","","","29","","17","","","","102.07","","","","-15","","NA"
"-63.66","44.75","BEDFORD RANGE","8200574","2019-02-10 08:00","2019","02","10","08:00","-7.8","","-17.3","","47","","","","29","","27","","","","102.07","","","","-16","","NA"
"-63.66","44.75","BEDFORD RANGE","8200574","2019-02-10 09:00","2019","02","10","09:00","-7.3","","-18.2","","41","","","","30","","26","","","","102.11","","","","-15","","NA"
"-63.66","44.75","BEDFORD RANGE","8200574","2019-02-10 10:00","2019","02","10","10:00","-6.8","","-18.6","","38","","","","31","","27","","","","102.08","","","","-15","","NA"
"-63.66","44.75","BEDFORD RANGE","8200574","2019-02-10 11:00","2019","02","10","11:00","-6.2","","-17.9","","39","","","","29","","27","","","","102.10","","","","-14","","NA"
"-63.66","44.75","BEDFORD RANGE","8200574","2019-02-10 12:00","2019","02","10","12:00","-5.7","","-18.1","","37","","","","30","","24","","","","102.05","","","","-13","","NA"
"-63.66","44.75","BEDFORD RANGE","8200574","2019-02-10 13:00","2019","02","10","13:00","-5.1","","-17.6","","37","","","","30","","27","","","","101.98","","","","-13","","NA"
"-63.66","44.75","BEDFORD RANGE","8200574","2019-02-10 14:00","2019","02","10","14:00","-4.2","","-17.1","","36","","","","30","","19","","","","101.95","","","","-10","","NA"
"-63.66","44.75","BEDFORD RANGE","8200574","2019-02-10 15:00","2019","02","10","15:00","-4.3","","-17.4","","35","","","","29","","24","","","","101.92","","","","-11","","NA"
"-63.66","44.75","BEDFORD RANGE","8200574","2019-02-10 16:00","2019","02","10","16:00","-4.5","","-17.7","","35","","","","28","","23","","","","101.88","","","","-11","","NA"
"-63.66","44.75","BEDFORD RANGE","8200574","2019-02-10 17:00","2019","02","10","17:00","-5.3","","-18.2","","36","","","","29","","14","","","","101.84","","","","-11","","NA"
"-63.66","44.75","BEDFORD RANGE","8200574","2019-02-10 18:00","2019","02","10","18:00","-5.8","","-18.1","","37","","","","29","","16","","","","101.86","","","","-12","","NA"
"-63.66","44.75","BEDFORD RANGE","8200574","2019-02-10 19:00","2019","02","10","19:00","-6.3","","-17.5","","41","","","","28","","10","","","","101.87","","","","-11","","NA"
"-63.66","44.75","BEDFORD RANGE","8200574","2019-02-10 20:00","2019","02","10","20:00","-6.5","","-17.3","","42","","","","28","","10","","","","101.88","","","","-11","","NA"
"-63.66","44.75","BEDFORD RANGE","8200574","2019-02-10 21:00","2019","02","10","21:00","-6.8","","-16.6","","46","","","","29","","10","","","","101.87","","","","-11","","NA"
"-63.66","44.75","BEDFORD RANGE","8200574","2019-02-10 22:00","2019","02","10","22:00","-6.7","","-17.8","","41","","","","30","","12","","","","101.87","","","","-12","","NA"
"-63.66","44.75","BEDFORD RANGE","8200574","2019-02-10 23:00","2019","02","10","23:00","-6.8","","-18.5","","39","","","","30","","17","","","","101.86","","","","-13","","NA"
"-63.66","44.75","BEDFORD RANGE","8200574","2019-02-11 00:00","2019","02","11","00:00","-7.5","","-18.9","","40","","","","30","","20","","","","101.84","","","","-15","","NA"
"-63.66","44.75","BEDFORD RANGE","8200574","2019-02-11 01:00","2019","02","11","01:00","-8.3","","-18.4","","44","","","","30","","21","","","","101.82","","","","-16","","NA"
"-63.66","44.75","BEDFORD RANGE","8200574","2019-02-11 02:00","2019","02","11","02:00","-9.0","","-18.6","","46","","","","30","","20","","","","101.81","","","","-17","","NA"
"-63.66","44.75","BEDFORD RANGE","8200574","2019-02-11 03:00","2019","02","11","03:00","-9.3","","-18.1","","49","","","","30","","14","","","","101.76","","","","-16","","NA"
"-63.66","44.75","BEDFORD RANGE","8200574","2019-02-11 04:00","2019","02","11","04:00","-9.3","","-17.7","","50","","","","30","","17","","","","101.68","","","","-16","","NA"
"-63.66","44.75","BEDFORD RANGE","8200574","2019-02-11 05:00","2019","02","11","05:00","-9.3","","-18.1","","49","","","","30","","25","","","","101.65","","","","-18","","NA"
"-63.66","44.75","BEDFORD RANGE","8200574","2019-02-11 06:00","2019","02","11","06:00","-9.7","","-18.4","","49","","","","30","","22","","","","101.69","","","","-18","","NA"
"-63.66","44.75","BEDFORD RANGE","8200574","2019-02-11 07:00","2019","02","11","07:00","-10.2","","-17.9","","53","","","","30","","19","","","","101.67","","","","-18","","NA"
"-63.66","44.75","BEDFORD RANGE","8200574","2019-02-11 08:00","2019","02","11","08:00","-10.1","","-18.2","","51","","","","30","","26","","","","101.64","","","","-19","","NA"
"-63.66","44.75","BEDFORD RANGE","8200574","2019-02-11 09:00","2019","02","11","09:00","-9.5","","-19.0","","46","","","","30","","28","","","","101.61","","","","-19","","NA"
"-63.66","44.75","BEDFORD RANGE","8200574","2019-02-11 10:00","2019","02","11","10:00","-8.5","","-19.7","","40","","","","30","","33","","","","101.54","","","","-18","","NA"
"-63.66","44.75","BEDFORD RANGE","8200574","2019-02-11 11:00","2019","02","11","11:00","-7.2","","-19.7","","36","","","","30","","26","","","","101.52","","","","-15","","NA"
"-63.66","44.75","BEDFORD RANGE","8200574","2019-02-11 12:00","2019","02","11","12:00","-6.8","","-20.3","","33","","","","31","","25","","","","101.46","","","","-15","","NA"
"-63.66","44.75","BEDFORD RANGE","8200574","2019-02-11 13:00","2019","02","11","13:00","-5.9","","-19.7","","33","","","","29","","24","","","","101.37","","","","-13","","NA"
"-63.66","44.75","BEDFORD RANGE","8200574","2019-02-11 14:00","2019","02","11","14:00","-5.9","","-19.7","","33","","","","30","","26","","","","101.37","","","","-14","","NA"
"-63.66","44.75","BEDFORD RANGE","8200574","2019-02-11 15:00","2019","02","11","15:00","-5.8","","-19.7","","33","","","","30","","27","","","","101.33","","","","-14","","NA"
"-63.66","44.75","BEDFORD RANGE","8200574","2019-02-11 16:00","2019","02","11","16:00","-6.3","","-20.0","","33","","","","31","","27","","","","101.32","","","","-14","","NA"
"-63.66","44.75","BEDFORD RANGE","8200574","2019-02-11 17:00","2019","02","11","17:00","-7.1","","-19.8","","35","","","","30","","21","","","","101.44","","","","-14","","NA"
"-63.66","44.75","BEDFORD RANGE","8200574","2019-02-11 18:00","2019","02","11","18:00","-7.8","","-19.4","","39","","","","31","","19","","","","101.55","","","","-15","","NA"
"-63.66","44.75","BEDFORD RANGE","8200574","2019-02-11 19:00","2019","02","11","19:00","-8.1","","-18.7","","42","","","","31","","22","","","","101.65","","","","-16","","NA"
"-63.66","44.75","BEDFORD RANGE","8200574","2019-02-11 20:00","2019","02","11","20:00","-8.6","","-18.7","","44","","","","31","","14","","","","101.75","","","","-15","","NA"
"-63.66","44.75","BEDFORD RANGE","8200574","2019-02-11 21:00","2019","02","11","21:00","-8.9","","-19.4","","42","","","","31","","17","","","","101.84","","","","-16","","NA"
"-63.66","44.75","BEDFORD RANGE","8200574","2019-02-11 22:00","2019","02","11","22:00","-9.2","","-18.7","","46","","","","32","","18","","","","101.93","","","","-16","","NA"
"-63.66","44.75","BEDFORD RANGE","8200574","2019-02-11 23:00","2019","02","11","23:00","-9.9","","-18.6","","49","","","","32","","20","","","","102.01","","","","-18","","NA"
"-63.66","44.75","BEDFORD RANGE","8200574","2019-02-12 00:00","2019","02","12","00:00","-10.8","","-18.6","","52","","","","33","","21","","","","102.12","","","","-19","","NA"
"-63.66","44.75","BEDFORD RANGE","8200574","2019-02-12 01:00","2019","02","12","01:00","-11.5","","-18.8","","55","","","","32","","15","","","","102.17","","","","-19","","NA"
"-63.66","44.75","BEDFORD RANGE","8200574","2019-02-12 02:00","2019","02","12","02:00","-12.2","","-19.0","","57","","","","33","","16","","","","102.23","","","","-20","","NA"
"-63.66","44.75","BEDFORD RANGE","8200574","2019-02-12 03:00","2019","02","12","03:00","-12.4","","-19.0","","58","","","","33","","15","","","","102.33","","","","-20","","NA"
"-63.66","44.75","BEDFORD RANGE","8200574","2019-02-12 04:00","2019","02","12","04:00","-12.5","","-18.8","","60","","","","32","","14","","","","102.37","","","","-20","","NA"
"-63.66","44.75","BEDFORD RANGE","8200574","2019-02-12 05:00","2019","02","12","05:00","-12.5","","-18.3","","62","","","","33","","13","","","","102.41","","","","-19","","NA"
"-63.66","44.75","BEDFORD RANGE","8200574","2019-02-12 06:00","2019","02","12","06:00","-12.6","","-17.8","","65","","","","31","","11","","","","102.48","","","","-19","","NA"
"-63.66","44.75","BEDFORD RANGE","8200574","2019-02-12 07:00","2019","02","12","07:00","-12.2","","-17.2","","67","","","","31","","10","","","","102.64","","","","-18","","NA"
"-63.66","44.75","BEDFORD RANGE","8200574","2019-02-12 08:00","2019","02","12","08:00","-11.4","","-16.6","","66","","","","31","","8","","","","102.73","","","","-16","","NA"
"-63.66","44.75","BEDFORD RANGE","8200574","2019-02-12 09:00","2019","02","12","09:00","-8.9","","-16.0","","57","","","","33","","17","","","","102.71","","","","-16","","NA"
"-63.66","44.75","BEDFORD RANGE","8200574","2019-02-12 10:00","2019","02","12","10:00","-6.9","","-15.5","","51","","","","32","","15","","","","102.81","","","","-13","","NA"
"-63.66","44.75","BEDFORD RANGE","8200574","2019-02-12 11:00","2019","02","12","11:00","-4.9","","-15.5","","43","","","","33","","17","","","","102.85","","","","-11","","NA"
"-63.66","44.75","BEDFORD RANGE","8200574","2019-02-12 12:00","2019","02","12","12:00","-2.6","","-15.2","","37","","","","32","","9","","","","102.86","","","","-6","","NA"
"-63.66","44.75","BEDFORD RANGE","8200574","2019-02-12 13:00","2019","02","12","13:00","-1.2","","-16.1","","31","","","","31","","13","","","","102.74","","","","-5","","NA"
"-63.66","44.75","BEDFORD RANGE","8200574","2019-02-12 14:00","2019","02","12","14:00","-0.5","","-14.7","","33","","","","31","","16","","","","102.69","","","","-5","","NA"
"-63.66","44.75","BEDFORD RANGE","8200574","2019-02-12 15:00","2019","02","12","15:00","-0.4","","-14.7","","33","","","","33","","17","","","","102.71","","","","-5","","NA"
"-63.66","44.75","BEDFORD RANGE","8200574","2019-02-12 16:00","2019","02","12","16:00","-0.9","","-15.4","","32","","","","32","","13","","","","102.77","","","","-5","","NA"
"-63.66","44.75","BEDFORD RANGE","8200574","2019-02-12 17:00","2019","02","12","17:00","-1.7","","-15.5","","34","","","","33","","11","","","","102.75","","","","-6","","NA"
"-63.66","44.75","BEDFORD RANGE","8200574","2019-02-12 18:00","2019","02","12","18:00","-2.5","","-15.4","","36","","","","32","","9","","","","102.81","","","","-6","","NA"
"-63.66","44.75","BEDFORD RANGE","8200574","2019-02-12 19:00","2019","02","12","19:00","-3.1","","-14.4","","42","","","","30","","5","","","","102.87","","","","-5","","NA"
"-63.66","44.75","BEDFORD RANGE","8200574","2019-02-12 20:00","2019","02","12","20:00","-3.9","","-13.1","","49","","","","31","","5","","","","102.82","","","","-6","","NA"
"-63.66","44.75","BEDFORD RANGE","8200574","2019-02-12 21:00","2019","02","12","21:00","-4.9","","-12.5","","55","","","","31","","4","","","","102.80","","","","-7","","NA"
"-63.66","44.75","BEDFORD RANGE","8200574","2019-02-12 22:00","2019","02","12","22:00","-5.1","","-11.9","","59","","","","2","","2","","","","102.74","","","","-6","","NA"
"-63.66","44.75","BEDFORD RANGE","8200574","2019-02-12 23:00","2019","02","12","23:00","-4.6","","-12.3","","55","","","","34","","2","","","","102.72","","","","-5","","NA"
"-63.66","44.75","BEDFORD RANGE","8200574","2019-02-13 00:00","2019","02","13","00:00","-4.8","","-11.5","","59","","","","6","","1","","","","102.66","","","","-5","","NA"
"-63.66","44.75","BEDFORD RANGE","8200574","2019-02-13 01:00","2019","02","13","01:00","-5.0","","-15.8","","42","","","","9","","7","","","","102.59","","","","-8","","NA"
"-63.66","44.75","BEDFORD RANGE","8200574","2019-02-13 02:00","2019","02","13","02:00","-5.2","","-15.7","","43","","","","9","","8","","","","102.58","","","","-9","","NA"
"-63.66","44.75","BEDFORD RANGE","8200574","2019-02-13 03:00","2019","02","13","03:00","-5.4","","-15.7","","44","","","","10","","7","","","","102.54","","","","-9","","NA"
"-63.66","44.75","BEDFORD RANGE","8200574","2019-02-13 04:00","2019","02","13","04:00","-5.5","","-15.8","","44","","","","11","","6","","","","102.39","","","","-8","","NA"
"-63.66","44.75","BEDFORD RANGE","8200574","2019-02-13 05:00","2019","02","13","05:00","-7.0","","-10.0","","79","","","","9","","9","","","","102.32","","","","-11","","NA"
"-63.66","44.75","BEDFORD RANGE","8200574","2019-02-13 06:00","2019","02","13","06:00","-7.3","","-8.7","","89","","","","8","","10","","","","102.08","","","","-12","","NA"
"-63.66","44.75","BEDFORD RANGE","8200574","2019-02-13 07:00","2019","02","13","07:00","-7.0","","-8.3","","91","","","","9","","13","","","","101.93","","","","-13","","NA"
"-63.66","44.75","BEDFORD RANGE","8200574","2019-02-13 08:00","2019","02","13","08:00","-6.7","","-8.4","","88","","","","10","","16","","","","101.77","","","","-13","","NA"
"-63.66","44.75","BEDFORD RANGE","8200574","2019-02-13 09:00","2019","02","13","09:00","-6.4","","-8.2","","87","","","","10","","16","","","","101.54","","","","-13","","NA"
"-63.66","44.75","BEDFORD RANGE","8200574","2019-02-13 10:00","2019","02","13","10:00","-5.9","","-7.6","","88","","","","9","","13","","","","101.31","","","","-11","","NA"
"-63.66","44.75","BEDFORD RANGE","8200574","2019-02-13 11:00","2019","02","13","11:00","-4.1","","-6.0","","86","","","","11","","24","","","","100.96","","","","-11","","NA"
"-63.66","44.75","BEDFORD RANGE","8200574","2019-02-13 12:00","2019","02","13","12:00","-3.1","","-4.8","","88","","","","11","","25","","","","100.62","","","","-10","","NA"
"-63.66","44.75","BEDFORD RANGE","8200574","2019-02-13 13:00","2019","02","13","13:00","-2.2","","-4.1","","87","","","","11","","26","","","","100.32","","","","-9","","NA"
"-63.66","44.75","BEDFORD RANGE","8200574","2019-02-13 14:00","2019","02","13","14:00","-1.9","","-3.3","","90","","","","11","","20","","","","100.15","","","","-8","","NA"
"-63.66","44.75","BEDFORD RANGE","8200574","2019-02-13 15:00","2019","02","13","15:00","-1.5","","-3.0","","90","","","","9","","15","","","","99.99","","","","-6","","NA"
"-63.66","44.75","BEDFORD RANGE","8200574","2019-02-13 16:00","2019","02","13","16:00","-1.0","","-2.4","","90","","","","7","","9","","","","99.73","","","","-4","","NA"
"-63.66","44.75","BEDFORD RANGE","8200574","2019-02-13 17:00","2019","02","13","17:00","-0.2","","-1.3","","92","","","","10","","14","","","","99.57","","","","-4","","NA"
"-63.66","44.75","BEDFORD RANGE","8200574","2019-02-13 18:00","2019","02","13","18:00","0.5","","-0.4","","94","","0.0","","14","","10","","","","99.42","","","","","","NA"
"-63.66","44.75","BEDFORD RANGE","8200574","2019-02-13 19:00","2019","02","13","19:00","0.7","","0.0","","95","","0.0","","16","","11","","","","99.43","","","","","","NA"
"-63.66","44.75","BEDFORD RANGE","8200574","2019-02-13 20:00","2019","02","13","20:00","1.2","","0.7","","96","","0.2","","16","","10","","","","99.38","","","","","","NA"
"-63.66","44.75","BEDFORD RANGE","8200574","2019-02-13 21:00","2019","02","13","21:00","2.2","","1.6","","96","","0.2","","19","","8","","","","99.39","","","","","","NA"
"-63.66","44.75","BEDFORD RANGE","8200574","2019-02-13 22:00","2019","02","13","22:00","2.1","","0.3","","88","","0.2","","21","","13","","","","99.38","","","","","","NA"
"-63.66","44.75","BEDFORD RANGE","8200574","2019-02-13 23:00","2019","02","13","23:00","1.7","","-0.2","","87","","0.0","","25","","6","","","","99.39","","","","","","NA"
"-63.66","44.75","BEDFORD RANGE","8200574","2019-02-14 00:00","2019","02","14","00:00","0.8","","-0.8","","90","","0.0","","25","","5","","","","99.46","","","","","","NA"
"-63.66","44.75","BEDFORD RANGE","8200574","2019-02-14 01:00","2019","02","14","01:00","-0.9","","-4.0","","80","","","","30","","15","","","","99.63","","","","-6","","NA"
"-63.66","44.75","BEDFORD RANGE","8200574","2019-02-14 02:00","2019","02","14","02:00","-2.4","","-6.1","","76","","","","28","","15","","","","99.72","","","","-7","","NA"
"-63.66","44.75","BEDFORD RANGE","8200574","2019-02-14 03:00","2019","02","14","03:00","-3.8","","-7.0","","79","","","","27","","8","","","","99.79","","","","-7","","NA"
"-63.66","44.75","BEDFORD RANGE","8200574","2019-02-14 04:00","2019","02","14","04:00","-4.5","","-8.0","","76","","","","28","","11","","","","99.85","","","","-9","","NA"
"-63.66","44.75","BEDFORD RANGE","8200574","2019-02-14 05:00","2019","02","14","05:00","-4.5","","-8.4","","74","","","","29","","10","","","","99.90","","","","-9","","NA"
"-63.66","44.75","BEDFORD RANGE","8200574","2019-02-14 06:00","2019","02","14","06:00","-4.8","","-8.5","","75","","","","27","","4","","","","99.98","","","","-7","","NA"
"-63.66","44.75","BEDFORD RANGE","8200574","2019-02-14 07:00","2019","02","14","07:00","-4.8","","-8.0","","79","","","","24","","4","","","","100.04","","","","-7","","NA"
"-63.66","44.75","BEDFORD RANGE","8200574","2019-02-14 08:00","2019","02","14","08:00","-6.2","","-8.1","","87","","","","","","0","","","","100.13","","","","","","NA"
"-63.66","44.75","BEDFORD RANGE","8200574","2019-02-14 09:00","2019","02","14","09:00","-4.4","","-7.2","","81","","","","29","","3","","","","100.20","","","","-6","","NA"
"-63.66","44.75","BEDFORD RANGE","8200574","2019-02-14 10:00","2019","02","14","10:00","-2.0","","-7.1","","68","","","","29","","14","","","","100.22","","","","-7","","NA"
"-63.66","44.75","BEDFORD RANGE","8200574","2019-02-14 11:00","2019","02","14","11:00","-1.3","","-7.5","","63","","","","30","","20","","","","100.20","","","","-7","","NA"
"-63.66","44.75","BEDFORD RANGE","8200574","2019-02-14 12:00","2019","02","14","12:00","-0.8","","-7.9","","58","","","","29","","25","","","","100.23","","","","-7","","NA"
"-63.66","44.75","BEDFORD RANGE","8200574","2019-02-14 13:00","2019","02","14","13:00","-1.1","","-8.0","","59","","","","28","","19","","","","100.25","","","","-6","","NA"
"-63.66","44.75","BEDFORD RANGE","8200574","2019-02-14 14:00","2019","02","14","14:00","-1.0","","-9.3","","53","","","","28","","19","","","","100.27","","","","-6","","NA"
"-63.66","44.75","BEDFORD RANGE","8200574","2019-02-14 15:00","2019","02","14","15:00","-0.2","","-9.0","","51","","","","28","","20","","","","100.36","","","","-5","","NA"
"-63.66","44.75","BEDFORD RANGE","8200574","2019-02-14 16:00","2019","02","14","16:00","-1.4","","-9.9","","53","","","","29","","20","","","","100.54","","","","-7","","NA"
"-63.66","44.75","BEDFORD RANGE","8200574","2019-02-14 17:00","2019","02","14","17:00","-2.7","","-10.1","","56","","","","31","","23","","","","100.68","","","","-9","","NA"
"-63.66","44.75","BEDFORD RANGE","8200574","2019-02-14 18:00","2019","02","14","18:00","-3.5","","-9.9","","61","","","","31","","20","","","","100.86","","","","-10","","NA"
"-63.66","44.75","BEDFORD RANGE","8200574","2019-02-14 19:00","2019","02","14","19:00","-4.3","","-10.2","","63","","","","32","","11","","","","101.04","","","","-9","","NA"
"-63.66","44.75","BEDFORD RANGE","8200574","2019-02-14 20:00","2019","02","14","20:00","-5.2","","-10.6","","66","","","","32","","8","","","","101.19","","","","-9","","NA"
"-63.66","44.75","BEDFORD RANGE","8200574","2019-02-14 21:00","2019","02","14","21:00","-6.8","","-10.6","","74","","","","21","","2","","","","101.36","","","","-8","","NA"
"-63.66","44.75","BEDFORD RANGE","8200574","2019-02-14 22:00","2019","02","14","22:00","-6.4","","-10.2","","75","","","","32","","3","","","","101.46","","","","-8","","NA"
"-63.66","44.75","BEDFORD RANGE","8200574","2019-02-14 23:00","2019","02","14","23:00","-6.7","","-9.8","","78","","","","5","","1","","","","101.60","","","","-7","","NA"
"-63.66","44.75","BEDFORD RANGE","8200574","2019-02-15 00:00","2019","02","15","00:00","-7.1","","-9.6","","82","","","","0","","1","","","","101.73","","","","-8","","NA"
"-63.66","44.75","BEDFORD RANGE","8200574","2019-02-15 01:00","2019","02","15","01:00","-8.0","","-9.8","","87","","","","","","0","","","","101.83","","","","","","NA"
"-63.66","44.75","BEDFORD RANGE","8200574","2019-02-15 02:00","2019","02","15","02:00","-9.8","","-11.1","","90","","","","1","","2","","","","101.91","","","","-11","","NA"
"-63.66","44.75","BEDFORD RANGE","8200574","2019-02-15 03:00","2019","02","15","03:00","-10.4","","-11.6","","91","","","","27","","2","","","","101.96","","","","-12","","NA"
"-63.66","44.75","BEDFORD RANGE","8200574","2019-02-15 04:00","2019","02","15","04:00","-11.8","","-13.0","","91","","","","32","","1","","","","102.00","","","","-12","","NA"
"-63.66","44.75","BEDFORD RANGE","8200574","2019-02-15 05:00","2019","02","15","05:00","-12.6","","-13.9","","90","","","","4","","1","","","","102.12","","","","-13","","NA"
"-63.66","44.75","BEDFORD RANGE","8200574","2019-02-15 06:00","2019","02","15","06:00","-13.8","","-15.4","","88","","","","30","","1","","","","102.23","","","","-14","","NA"
"-63.66","44.75","BEDFORD RANGE","8200574","2019-02-15 07:00","2019","02","15","07:00","-14.5","","-16.2","","87","","","","","","0","","","","102.31","","","","","","NA"
"-63.66","44.75","BEDFORD RANGE","8200574","2019-02-15 08:00","2019","02","15","08:00","-12.7","","-14.4","","87","","","","35","","3","","","","102.44","","","","-15","","NA"
"-63.66","44.75","BEDFORD RANGE","8200574","2019-02-15 09:00","2019","02","15","09:00","-9.1","","-11.2","","84","","","","34","","2","","","","102.46","","","","-10","","NA"
"-63.66","44.75","BEDFORD RANGE","8200574","2019-02-15 10:00","2019","02","15","10:00","-4.8","","-11.6","","59","","","","16","","4","","","","102.51","","","","-7","","NA"
"-63.66","44.75","BEDFORD RANGE","8200574","2019-02-15 11:00","2019","02","15","11:00","-3.5","","-11.3","","55","","","","15","","10","","","","102.50","","","","-7","","NA"
"-63.66","44.75","BEDFORD RANGE","8200574","2019-02-15 12:00","2019","02","15","12:00","-2.9","","-9.8","","59","","","","15","","10","","","","102.48","","","","-7","","NA"
"-63.66","44.75","BEDFORD RANGE","8200574","2019-02-15 13:00","2019","02","15","13:00","-2.1","","-8.4","","62","","","","14","","14","","","","102.43","","","","-7","","NA"
"-63.66","44.75","BEDFORD RANGE","8200574","2019-02-15 14:00","2019","02","15","14:00","-1.9","","-7.5","","65","","","","15","","16","","","","102.29","","","","-7","","NA"
"-63.66","44.75","BEDFORD RANGE","8200574","2019-02-15 15:00","2019","02","15","15:00","-1.7","","-6.8","","68","","","","15","","19","","","","102.20","","","","-7","","NA"
"-63.66","44.75","BEDFORD RANGE","8200574","2019-02-15 16:00","2019","02","15","16:00","-1.6","","-6.0","","72","","","","14","","17","","","","102.11","","","","-7","","NA"
"-63.66","44.75","BEDFORD RANGE","8200574","2019-02-15 17:00","2019","02","15","17:00","-1.5","","-5.0","","77","","","","14","","22","","","","101.99","","","","-7","","NA"
"-63.66","44.75","BEDFORD RANGE","8200574","2019-02-15 18:00","2019","02","15","18:00","-0.7","","-3.5","","82","","","","15","","19","","","","101.94","","","","-6","","NA"
"-63.66","44.75","BEDFORD RANGE","8200574","2019-02-15 19:00","2019","02","15","19:00","0.2","","-2.4","","83","","","","15","","18","","","","101.99","","","","","","NA"
"-63.66","44.75","BEDFORD RANGE","8200574","2019-02-15 20:00","2019","02","15","20:00","0.3","","-2.1","","84","","","","15","","17","","","","101.90","","","","","","NA"
"-63.66","44.75","BEDFORD RANGE","8200574","2019-02-15 21:00","2019","02","15","21:00","0.8","","-1.4","","85","","0.0","","14","","23","","","","101.75","","","","","","NA"
"-63.66","44.75","BEDFORD RANGE","8200574","2019-02-15 22:00","2019","02","15","22:00","1.2","","-0.6","","88","","0.0","","14","","23","","","","101.64","","","","","","NA"
"-63.66","44.75","BEDFORD RANGE","8200574","2019-02-15 23:00","2019","02","15","23:00","2.0","","-0.1","","86","","0.0","","14","","23","","","","101.45","","","","","","NA"
"-63.66","44.75","BEDFORD RANGE","8200574","2019-02-16 00:00","2019","02","16","00:00","2.5","","0.7","","88","","0.0","","15","","26","","","","101.33","","","","","","NA"
"-63.66","44.75","BEDFORD RANGE","8200574","2019-02-16 01:00","2019","02","16","01:00","2.8","","1.2","","89","","0.0","","15","","28","","","","101.16","","","","","","NA"
"-63.66","44.75","BEDFORD RANGE","8200574","2019-02-16 02:00","2019","02","16","02:00","3.1","","1.7","","91","","0.0","","14","","23","","","","101.02","","","","","","NA"
"-63.66","44.75","BEDFORD RANGE","8200574","2019-02-16 03:00","2019","02","16","03:00","4.8","","3.6","","92","","0.0","","14","","23","","","","100.81","","","","","","NA"
"-63.66","44.75","BEDFORD RANGE","8200574","2019-02-16 04:00","2019","02","16","04:00","4.8","","3.9","","94","","0.2","","14","","19","","","","100.64","","","","","","NA"
"-63.66","44.75","BEDFORD RANGE","8200574","2019-02-16 05:00","2019","02","16","05:00","6.5","","5.2","","91","","0.4","","15","","22","","","","100.48","","","","","","NA"
"-63.66","44.75","BEDFORD RANGE","8200574","2019-02-16 06:00","2019","02","16","06:00","7.7","","6.1","","90","","0.6","","16","","24","","","","100.42","","","","","","NA"
"-63.66","44.75","BEDFORD RANGE","8200574","2019-02-16 07:00","2019","02","16","07:00","7.2","","6.0","","93","","1.6","","17","","17","","","","100.36","","","","","","NA"
"-63.66","44.75","BEDFORD RANGE","8200574","2019-02-16 08:00","2019","02","16","08:00","7.7","","6.7","","94","","3.2","","18","","16","","","","100.35","","","","","","NA"
"-63.66","44.75","BEDFORD RANGE","8200574","2019-02-16 09:00","2019","02","16","09:00","7.5","","6.7","","95","","2.4","","17","","11","","","","100.29","","","","","","NA"
"-63.66","44.75","BEDFORD RANGE","8200574","2019-02-16 10:00","2019","02","16","10:00","7.5","","6.7","","95","","4.2","","17","","13","","","","100.18","","","","","","NA"
"-63.66","44.75","BEDFORD RANGE","8200574","2019-02-16 11:00","2019","02","16","11:00","8.0","","7.1","","94","","2.6","","19","","11","","","","100.10","","","","","","NA"
"-63.66","44.75","BEDFORD RANGE","8200574","2019-02-16 12:00","2019","02","16","12:00","7.0","","6.2","","95","","1.6","","15","","9","","","","99.99","","","","","","NA"
"-63.66","44.75","BEDFORD RANGE","8200574","2019-02-16 13:00","2019","02","16","13:00","6.3","","5.6","","96","","1.6","","18","","5","","","","99.91","","","","","","NA"
"-63.66","44.75","BEDFORD RANGE","8200574","2019-02-16 14:00","2019","02","16","14:00","5.7","","5.1","","96","","1.2","","16","","5","","","","99.82","","","","","","NA"
"-63.66","44.75","BEDFORD RANGE","8200574","2019-02-16 15:00","2019","02","16","15:00","5.6","","5.0","","96","","0.4","","30","","7","","","","99.86","","","","","","NA"
"-63.66","44.75","BEDFORD RANGE","8200574","2019-02-16 16:00","2019","02","16","16:00","3.4","","2.1","","91","","0.0","","32","","15","","","","99.93","","","","","","NA"
"-63.66","44.75","BEDFORD RANGE","8200574","2019-02-16 17:00","2019","02","16","17:00","2.5","","0.7","","88","","0.0","","31","","11","","","","100.00","","","","","","NA"
"-63.66","44.75","BEDFORD RANGE","8200574","2019-02-16 18:00","2019","02","16","18:00","1.4","","-0.1","","90","","0.0","","30","","6","","","","100.08","","","","","","NA"
"-63.66","44.75","BEDFORD RANGE","8200574","2019-02-16 19:00","2019","02","16","19:00","-0.9","","-1.6","","95","","","","29","","2","","","","100.17","","","","-2","","NA"
"-63.66","44.75","BEDFORD RANGE","8200574","2019-02-16 20:00","2019","02","16","20:00","-0.3","","-1.8","","89","","","","30","","7","","","","100.26","","","","-3","","NA"
"-63.66","44.75","BEDFORD RANGE","8200574","2019-02-16 21:00","2019","02","16","21:00","-0.4","","-2.1","","89","","","","31","","7","","","","100.30","","","","-3","","NA"
"-63.66","44.75","BEDFORD RANGE","8200574","2019-02-16 22:00","2019","02","16","22:00","0.0","","-3.1","","79","","","","31","","10","","","","100.40","","","","-3","","NA"
"-63.66","44.75","BEDFORD RANGE","8200574","2019-02-16 23:00","2019","02","16","23:00","-0.8","","-4.0","","79","","","","31","","7","","","","100.45","","","","-3","","NA"
"-63.66","44.75","BEDFORD RANGE","8200574","2019-02-17 00:00","2019","02","17","00:00","-1.5","","-4.8","","78","","","","30","","6","","","","100.52","","","","-4","","NA"
"-63.66","44.75","BEDFORD RANGE","8200574","2019-02-17 01:00","2019","02","17","01:00","-2.3","","-4.9","","83","","","","29","","4","","","","100.60","","","","-4","","NA"
"-63.66","44.75","BEDFORD RANGE","8200574","2019-02-17 02:00","2019","02","17","02:00","-3.6","","-4.7","","92","","","","","","0","","","","100.62","","","","","","NA"
"-63.66","44.75","BEDFORD RANGE","8200574","2019-02-17 03:00","2019","02","17","03:00","-2.7","","-6.2","","77","","","","30","","10","","","","100.65","","","","-7","","NA"
"-63.66","44.75","BEDFORD RANGE","8200574","2019-02-17 04:00","2019","02","17","04:00","-3.3","","-6.7","","77","","","","29","","6","","","","100.72","","","","-6","","NA"
"-63.66","44.75","BEDFORD RANGE","8200574","2019-02-17 05:00","2019","02","17","05:00","-3.5","","-7.3","","75","","","","30","","10","","","","100.82","","","","-7","","NA"
"-63.66","44.75","BEDFORD RANGE","8200574","2019-02-17 06:00","2019","02","17","06:00","-3.8","","-8.0","","72","","","","29","","15","","","","100.92","","","","-9","","NA"
"-63.66","44.75","BEDFORD RANGE","8200574","2019-02-17 07:00","2019","02","17","07:00","-4.2","","-8.3","","73","","","","31","","14","","","","101.01","","","","-9","","NA"
"-63.66","44.75","BEDFORD RANGE","8200574","2019-02-17 08:00","2019","02","17","08:00","-4.5","","-9.5","","68","","","","30","","22","","","","101.11","","","","-11","","NA"
"-63.66","44.75","BEDFORD RANGE","8200574","2019-02-17 09:00","2019","02","17","09:00","-4.4","","-9.1","","69","","","","30","","16","","","","101.18","","","","-10","","NA"
"-63.66","44.75","BEDFORD RANGE","8200574","2019-02-17 10:00","2019","02","17","10:00","-3.9","","-9.3","","66","","","","31","","12","","","","101.21","","","","-9","","NA"
"-63.66","44.75","BEDFORD RANGE","8200574","2019-02-17 11:00","2019","02","17","11:00","-3.4","","-9.6","","62","","","","33","","15","","","","101.21","","","","-9","","NA"
"-63.66","44.75","BEDFORD RANGE","8200574","2019-02-17 12:00","2019","02","17","12:00","-2.2","","-9.6","","57","","","","31","","13","","","","101.24","","","","-7","","NA"
"-63.66","44.75","BEDFORD RANGE","8200574","2019-02-17 13:00","2019","02","17","13:00","-1.4","","-11.0","","48","","","","32","","19","","","","101.22","","","","-7","","NA"
"-63.66","44.75","BEDFORD RANGE","8200574","2019-02-17 14:00","2019","02","17","14:00","-1.1","","-11.6","","45","","","","31","","15","","","","101.18","","","","-6","","NA"
"-63.66","44.75","BEDFORD RANGE","8200574","2019-02-17 15:00","2019","02","17","15:00","-0.7","","-13.8","","36","","","","31","","11","","","","101.16","","","","-4","","NA"
"-63.66","44.75","BEDFORD RANGE","8200574","2019-02-17 16:00","2019","02","17","16:00","-1.5","","-14.2","","37","","","","33","","17","","","","101.22","","","","-7","","NA"
"-63.66","44.75","BEDFORD RANGE","8200574","2019-02-17 17:00","2019","02","17","17:00","-2.3","","-13.3","","43","","","","32","","14","","","","101.28","","","","-7","","NA"
"-63.66","44.75","BEDFORD RANGE","8200574","2019-02-17 18:00","2019","02","17","18:00","-3.6","","-13.1","","48","","","","32","","13","","","","101.37","","","","-8","","NA"
"-63.66","44.75","BEDFORD RANGE","8200574","2019-02-17 19:00","2019","02","17","19:00","-4.6","","-13.0","","52","","","","31","","9","","","","101.49","","","","-8","","NA"
"-63.66","44.75","BEDFORD RANGE","8200574","2019-02-17 20:00","2019","02","17","20:00","-5.4","","-12.4","","58","","","","31","","4","","","","101.52","","","","-7","","NA"
"-63.66","44.75","BEDFORD RANGE","8200574","2019-02-17 21:00","2019","02","17","21:00","-6.5","","-11.1","","70","","","","27","","1","","","","101.50","","","","-7","","NA"
"-63.66","44.75","BEDFORD RANGE","8200574","2019-02-17 22:00","2019","02","17","22:00","-5.9","","-12.4","","60","","","","33","","4","","","","101.50","","","","-8","","NA"
"-63.66","44.75","BEDFORD RANGE","8200574","2019-02-17 23:00","2019","02","17","23:00","-6.4","","-12.1","","64","","","","31","","5","","","","101.50","","","","-9","","NA"
"-63.66","44.75","BEDFORD RANGE","8200574","2019-02-18 00:00","2019","02","18","00:00","-7.6","","-11.6","","73","","","","31","","2","","","","101.57","","","","-9","","NA"
"-63.66","44.75","BEDFORD RANGE","8200574","2019-02-18 01:00","2019","02","18","01:00","-9.1","","-11.4","","83","","","","31","","3","","","","101.60","","","","-11","","NA"
"-63.66","44.75","BEDFORD RANGE","8200574","2019-02-18 02:00","2019","02","18","02:00","-9.6","","-11.3","","87","","","","35","","3","","","","101.59","","","","-11","","NA"
"-63.66","44.75","BEDFORD RANGE","8200574","2019-02-18 03:00","2019","02","18","03:00","-10.3","","-11.7","","89","","","","","","0","","","","101.60","","","","","","NA"
"-63.66","44.75","BEDFORD RANGE","8200574","2019-02-18 04:00","2019","02","18","04:00","-10.9","","-12.1","","91","","","","29","","2","","","","101.51","","","","-12","","NA"
"-63.66","44.75","BEDFORD RANGE","8200574","2019-02-18 05:00","2019","02","18","05:00","-11.0","","-12.3","","90","","","","31","","2","","","","101.52","","","","-12","","NA"
"-63.66","44.75","BEDFORD RANGE","8200574","2019-02-18 06:00","2019","02","18","06:00","-11.4","","-12.7","","90","","","","32","","2","","","","101.57","","","","-13","","NA"
"-63.66","44.75","BEDFORD RANGE","8200574","2019-02-18 07:00","2019","02","18","07:00","-11.3","","-12.8","","89","","","","30","","2","","","","101.57","","","","-13","","NA"
"-63.66","44.75","BEDFORD RANGE","8200574","2019-02-18 08:00","2019","02","18","08:00","-10.6","","-12.5","","86","","","","32","","2","","","","101.55","","","","-12","","NA"
"-63.66","44.75","BEDFORD RANGE","8200574","2019-02-18 09:00","2019","02","18","09:00","-8.8","","-12.8","","73","","","","32","","2","","","","101.53","","","","-10","","NA"
"-63.66","44.75","BEDFORD RANGE","8200574","2019-02-18 10:00","2019","02","18","10:00","-8.1","","-13.4","","66","","","","36","","2","","","","101.44","","","","-9","","NA"
"-63.66","44.75","BEDFORD RANGE","8200574","2019-02-18 11:00","2019","02","18","11:00","-7.4","","-14.2","","58","","","","35","","7","","","","101.35","","","","-11","","NA"
"-63.66","44.75","BEDFORD RANGE","8200574","2019-02-18 12:00","2019","02","18","12:00","-6.7","","-15.2","","51","","","","2","","3","","","","101.24","","","","-8","","NA"
"-63.66","44.75","BEDFORD RANGE","8200574","2019-02-18 13:00","2019","02","18","13:00","-5.4","","-14.0","","51","","","","34","","4","","","","101.07","","","","-7","","NA"
"-63.66","44.75","BEDFORD RANGE","8200574","2019-02-18 14:00","2019","02","18","14:00","-4.7","","-14.9","","45","","","","34","","4","","","","100.93","","","","-6","","NA"
"-63.66","44.75","BEDFORD RANGE","8200574","2019-02-18 15:00","2019","02","18","15:00","-4.2","","-14.6","","44","","","","20","","3","","","","100.86","","","","-5","","NA"
"-63.66","44.75","BEDFORD RANGE","8200574","2019-02-18 16:00","2019","02","18","16:00","-4.3","","-14.1","","46","","","","16","","4","","","","100.72","","","","-6","","NA"
"-63.66","44.75","BEDFORD RANGE","8200574","2019-02-18 17:00","2019","02","18","17:00","-4.1","","-14.2","","45","","","","2","","3","","","","100.65","","","","-5","","NA"
"-63.66","44.75","BEDFORD RANGE","8200574","2019-02-18 18:00","2019","02","18","18:00","-4.4","","-16.6","","38","","","","35","","11","","","","100.60","","","","-9","","NA"
"-63.66","44.75","BEDFORD RANGE","8200574","2019-02-18 19:00","2019","02","18","19:00","-4.9","","-17.6","","36","","","","32","","11","","","","100.63","","","","-9","","NA"
"-63.66","44.75","BEDFORD RANGE","8200574","2019-02-18 20:00","2019","02","18","20:00","-5.3","","-16.8","","40","","","","33","","13","","","","100.63","","","","-10","","NA"
"-63.66","44.75","BEDFORD RANGE","8200574","2019-02-18 21:00","2019","02","18","21:00","-5.8","","-14.1","","52","","","","32","","11","","","","100.67","","","","-11","","NA"
"-63.66","44.75","BEDFORD RANGE","8200574","2019-02-18 22:00","2019","02","18","22:00","-6.2","","-16.6","","43","","","","33","","11","","","","100.70","","","","-11","","NA"
"-63.66","44.75","BEDFORD RANGE","8200574","2019-02-18 23:00","2019","02","18","23:00","-6.8","","-16.7","","45","","","","32","","12","","","","100.76","","","","-12","","NA"
"-63.66","44.75","BEDFORD RANGE","8200574","2019-02-19 00:00","2019","02","19","00:00","-7.2","","-15.6","","51","","","","32","","12","","","","100.81","","","","-13","","NA"
"-63.66","44.75","BEDFORD RANGE","8200574","2019-02-19 01:00","2019","02","19","01:00","-7.6","","-14.6","","57","","","","31","","12","","","","100.88","","","","-13","","NA"
"-63.66","44.75","BEDFORD RANGE","8200574","2019-02-19 02:00","2019","02","19","02:00","-8.1","","-15.0","","57","","","","32","","19","","","","100.96","","","","-15","","NA"
"-63.66","44.75","BEDFORD RANGE","8200574","2019-02-19 03:00","2019","02","19","03:00","-8.8","","-14.6","","63","","","","31","","18","","","","101.06","","","","-16","","NA"
"-63.66","44.75","BEDFORD RANGE","8200574","2019-02-19 04:00","2019","02","19","04:00","-9.7","","-15.6","","62","","","","31","","19","","","","101.17","","","","-17","","NA"
"-63.66","44.75","BEDFORD RANGE","8200574","2019-02-19 05:00","2019","02","19","05:00","-10.2","","-15.8","","63","","","","32","","19","","","","101.29","","","","-18","","NA"
"-63.66","44.75","BEDFORD RANGE","8200574","2019-02-19 06:00","2019","02","19","06:00","-11.3","","-17.1","","62","","","","32","","16","","","","101.42","","","","-19","","NA"
"-63.66","44.75","BEDFORD RANGE","8200574","2019-02-19 07:00","2019","02","19","07:00","-11.4","","-16.9","","64","","","","32","","14","","","","101.53","","","","-18","","NA"
"-63.66","44.75","BEDFORD RANGE","8200574","2019-02-19 08:00","2019","02","19","08:00","-11.3","","-16.6","","65","","","","31","","16","","","","101.67","","","","-19","","NA"
"-63.66","44.75","BEDFORD RANGE","8200574","2019-02-19 09:00","2019","02","19","09:00","-10.7","","-16.1","","64","","","","31","","19","","","","101.70","","","","-19","","NA"
"-63.66","44.75","BEDFORD RANGE","8200574","2019-02-19 10:00","2019","02","19","10:00","-9.5","","-16.1","","59","","","","33","","20","","","","101.73","","","","-17","","NA"
"-63.66","44.75","BEDFORD RANGE","8200574","2019-02-19 11:00","2019","02","19","11:00","-8.8","","-16.4","","54","","","","31","","28","","","","101.77","","","","-18","","NA"
"-63.66","44.75","BEDFORD RANGE","8200574","2019-02-19 12:00","2019","02","19","12:00","-7.9","","-16.3","","51","","","","31","","20","","","","101.83","","","","-15","","NA"
"-63.66","44.75","BEDFORD RANGE","8200574","2019-02-19 13:00","2019","02","19","13:00","-7.3","","-15.9","","50","","","","32","","22","","","","101.81","","","","-15","","NA"
"-63.66","44.75","BEDFORD RANGE","8200574","2019-02-19 14:00","2019","02","19","14:00","-6.9","","-16.8","","45","","","","31","","22","","","","101.83","","","","-14","","NA"
"-63.66","44.75","BEDFORD RANGE","8200574","2019-02-19 15:00","2019","02","19","15:00","-6.6","","-17.2","","42","","","","31","","24","","","","101.84","","","","-14","","NA"
"-63.66","44.75","BEDFORD RANGE","8200574","2019-02-19 16:00","2019","02","19","16:00","-6.7","","-18.6","","38","","","","31","","24","","","","101.90","","","","-14","","NA"
"-63.66","44.75","BEDFORD RANGE","8200574","2019-02-19 17:00","2019","02","19","17:00","-6.9","","-18.7","","38","","","","31","","26","","","","101.91","","","","-15","","NA"
"-63.66","44.75","BEDFORD RANGE","8200574","2019-02-19 18:00","2019","02","19","18:00","-8.0","","-19.9","","38","","","","31","","21","","","","102.01","","","","-16","","NA"
"-63.66","44.75","BEDFORD RANGE","8200574","2019-02-19 19:00","2019","02","19","19:00","-8.7","","-20.2","","39","","","","31","","15","","","","102.14","","","","-15","","NA"
"-63.66","44.75","BEDFORD RANGE","8200574","2019-02-19 20:00","2019","02","19","20:00","-9.3","","-20.9","","38","","","","32","","21","","","","102.17","","","","-17","","NA"
"-63.66","44.75","BEDFORD RANGE","8200574","2019-02-19 21:00","2019","02","19","21:00","-9.9","","-19.6","","45","","","","31","","21","","","","102.22","","","","-18","","NA"
"-63.66","44.75","BEDFORD RANGE","8200574","2019-02-19 22:00","2019","02","19","22:00","-10.4","","-20.1","","45","","","","31","","19","","","","102.33","","","","-18","","NA"
"-63.66","44.75","BEDFORD RANGE","8200574","2019-02-19 23:00","2019","02","19","23:00","-10.4","","-20.4","","43","","","","32","","24","","","","102.40","","","","-19","","NA"
"-63.66","44.75","BEDFORD RANGE","8200574","2019-02-20 00:00","2019","02","20","00:00","-10.5","","-21.6","","40","","","","31","","29","","","","102.39","","","","-20","","NA"
"-63.66","44.75","BEDFORD RANGE","8200574","2019-02-20 01:00","2019","02","20","01:00","-10.8","","-20.5","","45","","","","31","","23","","","","102.39","","","","-19","","NA"
"-63.66","44.75","BEDFORD RANGE","8200574","2019-02-20 02:00","2019","02","20","02:00","-11.2","","-19.9","","48","","","","31","","28","","","","102.39","","","","-21","","NA"
"-63.66","44.75","BEDFORD RANGE","8200574","2019-02-20 03:00","2019","02","20","03:00","-11.7","","-20.0","","50","","","","31","","25","","","","102.46","","","","-21","","NA"
"-63.66","44.75","BEDFORD RANGE","8200574","2019-02-20 04:00","2019","02","20","04:00","-12.3","","-21.2","","48","","","","31","","21","","","","102.52","","","","-21","","NA"
"-63.66","44.75","BEDFORD RANGE","8200574","2019-02-20 05:00","2019","02","20","05:00","-12.5","","-21.4","","48","","","","31","","21","","","","102.59","","","","-21","","NA"
"-63.66","44.75","BEDFORD RANGE","8200574","2019-02-20 06:00","2019","02","20","06:00","-13.1","","-21.7","","48","","","","32","","15","","","","102.61","","","","-21","","NA"
"-63.66","44.75","BEDFORD RANGE","8200574","2019-02-20 07:00","2019","02","20","07:00","-13.5","","-22.2","","48","","","","32","","19","","","","102.65","","","","-22","","NA"
"-63.66","44.75","BEDFORD RANGE","8200574","2019-02-20 08:00","2019","02","20","08:00","-12.9","","-21.6","","48","","","","31","","20","","","","102.69","","","","-22","","NA"
"-63.66","44.75","BEDFORD RANGE","8200574","2019-02-20 09:00","2019","02","20","09:00","-11.9","","-21.2","","46","","","","31","","20","","","","102.67","","","","-20","","NA"
"-63.66","44.75","BEDFORD RANGE","8200574","2019-02-20 10:00","2019","02","20","10:00","-11.0","","-21.9","","40","","","","32","","23","","","","102.59","","","","-20","","NA"
"-63.66","44.75","BEDFORD RANGE","8200574","2019-02-20 11:00","2019","02","20","11:00","-10.4","","-22.0","","38","","","","32","","25","","","","102.61","","","","-19","","NA"
"-63.66","44.75","BEDFORD RANGE","8200574","2019-02-20 12:00","2019","02","20","12:00","-9.4","","-21.5","","37","","","","32","","23","","","","102.59","","","","-18","","NA"
"-63.66","44.75","BEDFORD RANGE","8200574","2019-02-20 13:00","2019","02","20","13:00","-8.6","","-21.6","","34","","","","32","","23","","","","102.54","","","","-17","","NA"
"-63.66","44.75","BEDFORD RANGE","8200574","2019-02-20 14:00","2019","02","20","14:00","-8.4","","-21.2","","35","","","","30","","30","","","","102.51","","","","-17","","NA"
"-63.66","44.75","BEDFORD RANGE","8200574","2019-02-20 15:00","2019","02","20","15:00","-7.7","","-21.1","","33","","","","31","","27","","","","102.50","","","","-16","","NA"
"-63.66","44.75","BEDFORD RANGE","8200574","2019-02-20 16:00","2019","02","20","16:00","-7.4","","-21.0","","33","","","","31","","23","","","","102.55","","","","-15","","NA"
"-63.66","44.75","BEDFORD RANGE","8200574","2019-02-20 17:00","2019","02","20","17:00","-7.8","","-20.3","","36","","","","31","","21","","","","102.56","","","","-15","","NA"
"-63.66","44.75","BEDFORD RANGE","8200574","2019-02-20 18:00","2019","02","20","18:00","-8.3","","-19.9","","39","","","","31","","16","","","","102.58","","","","-15","","NA"
"-63.66","44.75","BEDFORD RANGE","8200574","2019-02-20 19:00","2019","02","20","19:00","-9.0","","-19.1","","44","","","","28","","6","","","","102.66","","","","-12","","NA"
"-63.66","44.75","BEDFORD RANGE","8200574","2019-02-20 20:00","2019","02","20","20:00","-9.5","","-18.8","","47","","","","27","","3","","","","102.70","","","","-11","","NA"
"-63.66","44.75","BEDFORD RANGE","8200574","2019-02-20 21:00","2019","02","20","21:00","-11.5","","-17.2","","63","","","","18","","2","","","","102.68","","","","-13","","NA"
"-63.66","44.75","BEDFORD RANGE","8200574","2019-02-20 22:00","2019","02","20","22:00","-9.9","","-17.0","","56","","","","27","","5","","","","102.73","","","","-13","","NA"
"-63.66","44.75","BEDFORD RANGE","8200574","2019-02-20 23:00","2019","02","20","23:00","-11.9","","-16.0","","72","","","","0","","1","","","","102.62","","","","-13","","NA"
"-63.66","44.75","BEDFORD RANGE","8200574","2019-02-21 00:00","2019","02","21","00:00","-12.1","","-17.0","","67","","","","30","","4","","","","102.58","","","","-15","","NA"
"-63.66","44.75","BEDFORD RANGE","8200574","2019-02-21 01:00","2019","02","21","01:00","-12.8","","-16.6","","73","","","","34","","2","","","","102.58","","","","-14","","NA"
"-63.66","44.75","BEDFORD RANGE","8200574","2019-02-21 02:00","2019","02","21","02:00","-13.2","","-16.3","","78","","","","1","","2","","","","102.58","","","","-15","","NA"
"-63.66","44.75","BEDFORD RANGE","8200574","2019-02-21 03:00","2019","02","21","03:00","-12.7","","-15.9","","77","","","","18","","1","","","","102.42","","","","-13","","NA"
"-63.66","44.75","BEDFORD RANGE","8200574","2019-02-21 04:00","2019","02","21","04:00","-12.0","","-15.3","","76","","","","28","","2","","","","102.32","","","","-13","","NA"
"-63.66","44.75","BEDFORD RANGE","8200574","2019-02-21 05:00","2019","02","21","05:00","-11.2","","-14.7","","75","","","","","","0","","","","102.16","","","","","","NA"
"-63.66","44.75","BEDFORD RANGE","8200574","2019-02-21 06:00","2019","02","21","06:00","-10.7","","-14.7","","72","","","","31","","2","","","","102.12","","","","-12","","NA"
"-63.66","44.75","BEDFORD RANGE","8200574","2019-02-21 07:00","2019","02","21","07:00","-8.8","","-16.4","","54","","","","11","","4","","","","101.99","","","","-11","","NA"
"-63.66","44.75","BEDFORD RANGE","8200574","2019-02-21 08:00","2019","02","21","08:00","-8.4","","-17.7","","47","","","","13","","6","","","","101.93","","","","-12","","NA"
"-63.66","44.75","BEDFORD RANGE","8200574","2019-02-21 09:00","2019","02","21","09:00","-8.8","","-11.0","","84","","","","12","","4","","","","101.96","","","","-11","","NA"
"-63.66","44.75","BEDFORD RANGE","8200574","2019-02-21 10:00","2019","02","21","10:00","-8.6","","-10.1","","89","","","","11","","5","","","","101.78","","","","-11","","NA"
"-63.66","44.75","BEDFORD RANGE","8200574","2019-02-21 11:00","2019","02","21","11:00","-7.3","","-9.4","","85","","","","14","","14","","","","101.60","","","","-13","","NA"
"-63.66","44.75","BEDFORD RANGE","8200574","2019-02-21 12:00","2019","02","21","12:00","-6.4","","-9.0","","82","","","","13","","14","","","","101.37","","","","-12","","NA"
"-63.66","44.75","BEDFORD RANGE","8200574","2019-02-21 13:00","2019","02","21","13:00","-6.0","","-8.8","","81","","","","13","","19","","","","101.10","","","","-13","","NA"
"-63.66","44.75","BEDFORD RANGE","8200574","2019-02-21 14:00","2019","02","21","14:00","-5.9","","-8.7","","81","","","","13","","18","","","","100.95","","","","-12","","NA"
"-63.66","44.75","BEDFORD RANGE","8200574","2019-02-21 15:00","2019","02","21","15:00","-5.7","","-8.0","","84","","","","13","","13","","","","100.78","","","","-11","","NA"
"-63.66","44.75","BEDFORD RANGE","8200574","2019-02-21 16:00","2019","02","21","16:00","-5.2","","-7.7","","82","","","","11","","10","","","","100.74","","","","-10","","NA"
"-63.66","44.75","BEDFORD RANGE","8200574","2019-02-21 17:00","2019","02","21","17:00","-5.2","","-7.5","","84","","","","13","","10","","","","100.66","","","","-10","","NA"
"-63.66","44.75","BEDFORD RANGE","8200574","2019-02-21 18:00","2019","02","21","18:00","-5.4","","-7.4","","86","","","","9","","6","","","","100.59","","","","-8","","NA"
"-63.66","44.75","BEDFORD RANGE","8200574","2019-02-21 19:00","2019","02","21","19:00","-5.4","","-7.3","","87","","","","7","","1","","","","100.61","","","","-6","","NA"
"-63.66","44.75","BEDFORD RANGE","8200574","2019-02-21 20:00","2019","02","21","20:00","-5.5","","-7.3","","87","","","","12","","2","","","","100.58","","","","-6","","NA"
"-63.66","44.75","BEDFORD RANGE","8200574","2019-02-21 21:00","2019","02","21","21:00","-5.4","","-7.2","","88","","","","10","","3","","","","100.54","","","","-7","","NA"
"-63.66","44.75","BEDFORD RANGE","8200574","2019-02-21 22:00","2019","02","21","22:00","-5.4","","-6.9","","89","","","","36","","2","","","","100.52","","","","-6","","NA"
"-63.66","44.75","BEDFORD RANGE","8200574","2019-02-21 23:00","2019","02","21","23:00","-5.5","","-6.6","","92","","","","32","","2","","","","100.52","","","","-6","","NA"
"-63.66","44.75","BEDFORD RANGE","8200574","2019-02-22 00:00","2019","02","22","00:00","-4.7","","-5.7","","93","","","","24","","6","","","","100.54","","","","-7","","NA"
"-63.66","44.75","BEDFORD RANGE","8200574","2019-02-22 01:00","2019","02","22","01:00","-4.7","","-5.5","","94","","","","0","","1","","","","100.61","","","","-5","","NA"
"-63.66","44.75","BEDFORD RANGE","8200574","2019-02-22 02:00","2019","02","22","02:00","-2.2","","-4.9","","82","","","","33","","20","","","","100.68","","","","-8","","NA"
"-63.66","44.75","BEDFORD RANGE","8200574","2019-02-22 03:00","2019","02","22","03:00","-3.3","","-6.4","","79","","","","33","","17","","","","100.84","","","","-9","","NA"
"-63.66","44.75","BEDFORD RANGE","8200574","2019-02-22 04:00","2019","02","22","04:00","-4.1","","-8.2","","73","","","","32","","28","","","","100.94","","","","-12","","NA"
"-63.66","44.75","BEDFORD RANGE","8200574","2019-02-22 05:00","2019","02","22","05:00","-5.2","","-8.5","","78","","","","33","","18","","","","101.11","","","","-11","","NA"
"-63.66","44.75","BEDFORD RANGE","8200574","2019-02-22 06:00","2019","02","22","06:00","-6.2","","-9.4","","78","","","","32","","18","","","","101.29","","","","-13","","NA"
"-63.66","44.75","BEDFORD RANGE","8200574","2019-02-22 07:00","2019","02","22","07:00","-7.2","","-10.8","","75","","","","34","","15","","","","101.40","","","","-13","","NA"
"-63.66","44.75","BEDFORD RANGE","8200574","2019-02-22 08:00","2019","02","22","08:00","-7.4","","-11.5","","72","","","","33","","12","","","","101.60","","","","-13","","NA"
"-63.66","44.75","BEDFORD RANGE","8200574","2019-02-22 09:00","2019","02","22","09:00","-6.7","","-11.4","","70","","","","32","","16","","","","101.68","","","","-13","","NA"
"-63.66","44.75","BEDFORD RANGE","8200574","2019-02-22 10:00","2019","02","22","10:00","-6.5","","-11.2","","69","","","","33","","16","","","","101.75","","","","-13","","NA"
"-63.66","44.75","BEDFORD RANGE","8200574","2019-02-22 11:00","2019","02","22","11:00","-4.9","","-10.7","","64","","","","35","","15","","","","101.79","","","","-10","","NA"
"-63.66","44.75","BEDFORD RANGE","8200574","2019-02-22 12:00","2019","02","22","12:00","-4.4","","-11.1","","60","","","","33","","16","","","","101.86","","","","-10","","NA"
"-63.66","44.75","BEDFORD RANGE","8200574","2019-02-22 13:00","2019","02","22","13:00","-3.8","","-11.2","","56","","","","33","","15","","","","101.92","","","","-9","","NA"
"-63.66","44.75","BEDFORD RANGE","8200574","2019-02-22 14:00","2019","02","22","14:00","-3.3","","-11.7","","52","","","","33","","17","","","","101.91","","","","-9","","NA"
"-63.66","44.75","BEDFORD RANGE","8200574","2019-02-22 15:00","2019","02","22","15:00","-2.9","","-11.5","","51","","","","33","","20","","","","101.91","","","","-9","","NA"
"-63.66","44.75","BEDFORD RANGE","8200574","2019-02-22 16:00","2019","02","22","16:00","-2.6","","-10.9","","53","","","","31","","16","","","","101.96","","","","-8","","NA"
"-63.66","44.75","BEDFORD RANGE","8200574","2019-02-22 17:00","2019","02","22","17:00","-2.8","","-10.7","","55","","","","32","","15","","","","102.00","","","","-8","","NA"
"-63.66","44.75","BEDFORD RANGE","8200574","2019-02-22 18:00","2019","02","22","18:00","-3.8","","-10.4","","60","","","","30","","12","","","","102.10","","","","-8","","NA"
"-63.66","44.75","BEDFORD RANGE","8200574","2019-02-22 19:00","2019","02","22","19:00","-4.6","","-9.9","","66","","","","30","","4","","","","102.20","","","","-6","","NA"
"-63.66","44.75","BEDFORD RANGE","8200574","2019-02-22 20:00","2019","02","22","20:00","-6.8","","-10.3","","76","","","","26","","4","","","","102.26","","","","-9","","NA"
"-63.66","44.75","BEDFORD RANGE","8200574","2019-02-22 21:00","2019","02","22","21:00","-9.2","","-10.6","","90","","","","4","","2","","","","102.27","","","","-10","","NA"
"-63.66","44.75","BEDFORD RANGE","8200574","2019-02-22 22:00","2019","02","22","22:00","-10.3","","-11.2","","93","","","","1","","2","","","","102.31","","","","-11","","NA"
"-63.66","44.75","BEDFORD RANGE","8200574","2019-02-22 23:00","2019","02","22","23:00","-9.7","","-11.0","","90","","","","0","","1","","","","102.33","","","","-10","","NA"
"-63.66","44.75","BEDFORD RANGE","8200574","2019-02-23 00:00","2019","02","23","00:00","-9.9","","-11.5","","88","","","","34","","5","","","","102.34","","","","-13","","NA"
"-63.66","44.75","BEDFORD RANGE","8200574","2019-02-23 01:00","2019","02","23","01:00","-9.6","","-11.1","","89","","","","33","","4","","","","102.39","","","","-12","","NA"
"-63.66","44.75","BEDFORD RANGE","8200574","2019-02-23 02:00","2019","02","23","02:00","-7.0","","-11.8","","68","","","","31","","11","","","","102.48","","","","-12","","NA"
"-63.66","44.75","BEDFORD RANGE","8200574","2019-02-23 03:00","2019","02","23","03:00","-9.7","","-12.4","","80","","","","32","","4","","","","102.55","","","","-12","","NA"
"-63.66","44.75","BEDFORD RANGE","8200574","2019-02-23 04:00","2019","02","23","04:00","-10.4","","-12.8","","82","","","","35","","4","","","","102.53","","","","-13","","NA"
"-63.66","44.75","BEDFORD RANGE","8200574","2019-02-23 05:00","2019","02","23","05:00","-11.1","","-13.3","","83","","","","36","","6","","","","102.59","","","","-15","","NA"
"-63.66","44.75","BEDFORD RANGE","8200574","2019-02-23 06:00","2019","02","23","06:00","-13.4","","-14.8","","89","","","","1","","4","","","","102.63","","","","-16","","NA"
"-63.66","44.75","BEDFORD RANGE","8200574","2019-02-23 07:00","2019","02","23","07:00","-14.6","","-16.1","","89","","","","36","","1","","","","102.66","","","","-15","","NA"
"-63.66","44.75","BEDFORD RANGE","8200574","2019-02-23 08:00","2019","02","23","08:00","-11.9","","-13.4","","89","","","","","","0","","","","102.66","","","","","","NA"
"-63.66","44.75","BEDFORD RANGE","8200574","2019-02-23 09:00","2019","02","23","09:00","-7.1","","-13.0","","63","","","","31","","10","","","","102.69","","","","-12","","NA"
"-63.66","44.75","BEDFORD RANGE","8200574","2019-02-23 10:00","2019","02","23","10:00","-5.4","","-13.4","","54","","","","29","","13","","","","102.65","","","","-11","","NA"
"-63.66","44.75","BEDFORD RANGE","8200574","2019-02-23 11:00","2019","02","23","11:00","-4.3","","-13.8","","47","","","","29","","17","","","","102.60","","","","-10","","NA"
"-63.66","44.75","BEDFORD RANGE","8200574","2019-02-23 12:00","2019","02","23","12:00","-2.9","","-14.4","","41","","","","30","","16","","","","102.57","","","","-8","","NA"
"-63.66","44.75","BEDFORD RANGE","8200574","2019-02-23 13:00","2019","02","23","13:00","-1.6","","-15.1","","35","","","","30","","17","","","","102.45","","","","-7","","NA"
"-63.66","44.75","BEDFORD RANGE","8200574","2019-02-23 14:00","2019","02","23","14:00","-1.4","","-15.4","","34","","","","32","","20","","","","102.36","","","","-7","","NA"
"-63.66","44.75","BEDFORD RANGE","8200574","2019-02-23 15:00","2019","02","23","15:00","-1.6","","-13.4","","40","","","","33","","23","","","","102.38","","","","-8","","NA"
"-63.66","44.75","BEDFORD RANGE","8200574","2019-02-23 16:00","2019","02","23","16:00","-1.7","","-12.4","","44","","","","32","","18","","","","102.41","","","","-7","","NA"
"-63.66","44.75","BEDFORD RANGE","8200574","2019-02-23 17:00","2019","02","23","17:00","-2.2","","-12.6","","45","","","","32","","21","","","","102.41","","","","-8","","NA"
"-63.66","44.75","BEDFORD RANGE","8200574","2019-02-23 18:00","2019","02","23","18:00","-3.2","","-12.2","","50","","","","31","","11","","","","102.45","","","","-7","","NA"
"-63.66","44.75","BEDFORD RANGE","8200574","2019-02-23 19:00","2019","02","23","19:00","-3.9","","-11.8","","54","","","","30","","12","","","","102.50","","","","-9","","NA"
"-63.66","44.75","BEDFORD RANGE","8200574","2019-02-23 20:00","2019","02","23","20:00","-6.5","","-11.7","","66","","","","21","","2","","","","102.57","","","","-7","","NA"
"-63.66","44.75","BEDFORD RANGE","8200574","2019-02-23 21:00","2019","02","23","21:00","-8.4","","-11.0","","82","","","","2","","3","","","","102.60","","","","-10","","NA"
"-63.66","44.75","BEDFORD RANGE","8200574","2019-02-23 22:00","2019","02","23","22:00","-9.6","","-11.6","","85","","","","1","","2","","","","102.57","","","","-11","","NA"
"-63.66","44.75","BEDFORD RANGE","8200574","2019-02-23 23:00","2019","02","23","23:00","-11.0","","-12.6","","88","","","","","","0","","","","102.60","","","","","","NA"
"-63.66","44.75","BEDFORD RANGE","8200574","2019-02-24 00:00","2019","02","24","00:00","-12.2","","-13.5","","90","","","","30","","2","","","","102.64","","","","-13","","NA"
"-63.66","44.75","BEDFORD RANGE","8200574","2019-02-24 01:00","2019","02","24","01:00","-11.0","","-13.0","","85","","","","0","","1","","","","102.69","","","","-12","","NA"
"-63.66","44.75","BEDFORD RANGE","8200574","2019-02-24 02:00","2019","02","24","02:00","-11.6","","-13.1","","88","","","","","","0","","","","102.68","","","","","","NA"
"-63.66","44.75","BEDFORD RANGE","8200574","2019-02-24 03:00","2019","02","24","03:00","-12.0","","-13.2","","91","","","","2","","1","","","","102.62","","","","-13","","NA"
"-63.66","44.75","BEDFORD RANGE","8200574","2019-02-24 04:00","2019","02","24","04:00","-12.2","","-13.5","","91","","","","0","","1","","","","102.64","","","","-13","","NA"
"-63.66","44.75","BEDFORD RANGE","8200574","2019-02-24 05:00","2019","02","24","05:00","-12.8","","-14.1","","89","","","","0","","1","","","","102.71","","","","-13","","NA"
"-63.66","44.75","BEDFORD RANGE","8200574","2019-02-24 06:00","2019","02","24","06:00","-13.0","","-14.5","","89","","","","32","","2","","","","102.68","","","","-14","","NA"
"-63.66","44.75","BEDFORD RANGE","8200574","2019-02-24 07:00","2019","02","24","07:00","-13.4","","-15.0","","88","","","","29","","2","","","","102.67","","","","-15","","NA"
"-63.66","44.75","BEDFORD RANGE","8200574","2019-02-24 08:00","2019","02","24","08:00","-11.5","","-13.2","","88","","","","0","","1","","","","102.61","","","","-12","","NA"
"-63.66","44.75","BEDFORD RANGE","8200574","2019-02-24 09:00","2019","02","24","09:00","-8.4","","-11.0","","82","","","","33","","2","","","","102.54","","","","-9","","NA"
"-63.66","44.75","BEDFORD RANGE","8200574","2019-02-24 10:00","2019","02","24","10:00","-4.5","","-13.3","","50","","","","11","","9","","","","102.49","","","","-8","","NA"
"-63.66","44.75","BEDFORD RANGE","8200574","2019-02-24 11:00","2019","02","24","11:00","-3.8","","-12.2","","52","","","","13","","9","","","","102.43","","","","-8","","NA"
"-63.66","44.75","BEDFORD RANGE","8200574","2019-02-24 12:00","2019","02","24","12:00","-3.2","","-10.9","","55","","","","15","","11","","","","102.35","","","","-7","","NA"
"-63.66","44.75","BEDFORD RANGE","8200574","2019-02-24 13:00","2019","02","24","13:00","-3.4","","-9.7","","61","","","","16","","15","","","","102.24","","","","-9","","NA"
"-63.66","44.75","BEDFORD RANGE","8200574","2019-02-24 14:00","2019","02","24","14:00","-3.6","","-9.8","","62","","","","14","","17","","","","102.11","","","","-9","","NA"
"-63.66","44.75","BEDFORD RANGE","8200574","2019-02-24 15:00","2019","02","24","15:00","-3.7","","-10.1","","61","","","","15","","16","","","","101.98","","","","-9","","NA"
"-63.66","44.75","BEDFORD RANGE","8200574","2019-02-24 16:00","2019","02","24","16:00","-3.6","","-9.8","","62","","","","14","","15","","","","101.80","","","","-9","","NA"
"-63.66","44.75","BEDFORD RANGE","8200574","2019-02-24 17:00","2019","02","24","17:00","-3.9","","-9.1","","67","","","","13","","19","","","","101.63","","","","-10","","NA"
"-63.66","44.75","BEDFORD RANGE","8200574","2019-02-24 18:00","2019","02","24","18:00","-4.2","","-9.0","","69","","","","14","","20","","","","101.44","","","","-11","","NA"
"-63.66","44.75","BEDFORD RANGE","8200574","2019-02-24 19:00","2019","02","24","19:00","-4.2","","-9.0","","69","","","","13","","19","","","","101.28","","","","-10","","NA"
"-63.66","44.75","BEDFORD RANGE","8200574","2019-02-24 20:00","2019","02","24","20:00","-4.0","","-8.4","","72","","","","12","","19","","","","100.98","","","","-10","","NA"
"-63.66","44.75","BEDFORD RANGE","8200574","2019-02-24 21:00","2019","02","24","21:00","-4.4","","-6.8","","84","","","","12","","24","","","","100.62","","","","-11","","NA"
"-63.66","44.75","BEDFORD RANGE","8200574","2019-02-24 22:00","2019","02","24","22:00","-3.9","","-5.9","","86","","","","14","","29","","","","100.34","","","","-11","","NA"
"-63.66","44.75","BEDFORD RANGE","8200574","2019-02-24 23:00","2019","02","24","23:00","-3.5","","-5.2","","88","","","","13","","30","","","","100.07","","","","-11","","NA"
"-63.66","44.75","BEDFORD RANGE","8200574","2019-02-25 00:00","2019","02","25","00:00","-3.0","","-4.8","","88","","","","13","","27","","","","99.65","","","","-10","","NA"
"-63.66","44.75","BEDFORD RANGE","8200574","2019-02-25 01:00","2019","02","25","01:00","-2.2","","-3.6","","91","","","","14","","24","","","","99.28","","","","-9","","NA"
"-63.66","44.75","BEDFORD RANGE","8200574","2019-02-25 02:00","2019","02","25","02:00","-0.6","","-2.0","","90","","","","13","","32","","","","98.93","","","","-7","","NA"
"-63.66","44.75","BEDFORD RANGE","8200574","2019-02-25 03:00","2019","02","25","03:00","0.3","","-0.8","","92","","","","13","","33","","","","98.61","","","","","","NA"
"-63.66","44.75","BEDFORD RANGE","8200574","2019-02-25 04:00","2019","02","25","04:00","1.0","","0.0","","93","","3.2","","14","","21","","","","98.36","","","","","","NA"
"-63.66","44.75","BEDFORD RANGE","8200574","2019-02-25 05:00","2019","02","25","05:00","2.1","","1.4","","95","","1.4","","15","","14","","","","98.08","","","","","","NA"
"-63.66","44.75","BEDFORD RANGE","8200574","2019-02-25 06:00","2019","02","25","06:00","3.3","","2.5","","95","","0.2","","19","","8","","","","98.01","","","","","","NA"
"-63.66","44.75","BEDFORD RANGE","8200574","2019-02-25 07:00","2019","02","25","07:00","2.8","","2.0","","94","","0.0","","18","","8","","","","97.97","","","","","","NA"
"-63.66","44.75","BEDFORD RANGE","8200574","2019-02-25 08:00","2019","02","25","08:00","2.6","","1.0","","89","","0.0","","21","","16","","","","98.01","","","","","","NA"
"-63.66","44.75","BEDFORD RANGE","8200574","2019-02-25 09:00","2019","02","25","09:00","2.1","","-1.0","","80","","0.0","","27","","17","","","","98.13","","","","","","NA"
"-63.66","44.75","BEDFORD RANGE","8200574","2019-02-25 10:00","2019","02","25","10:00","2.0","","-1.8","","76","","0.0","","27","","18","","","","98.28","","","","","","NA"
"-63.66","44.75","BEDFORD RANGE","8200574","2019-02-25 11:00","2019","02","25","11:00","2.5","","-1.8","","74","","0.0","","25","","16","","","","98.31","","","","","","NA"
"-63.66","44.75","BEDFORD RANGE","8200574","2019-02-25 12:00","2019","02","25","12:00","3.0","","-2.2","","69","","0.0","","28","","17","","","","98.35","","","","","","NA"
"-63.66","44.75","BEDFORD RANGE","8200574","2019-02-25 13:00","2019","02","25","13:00","2.9","","-3.0","","65","","0.0","","29","","21","","","","98.32","","","","","","NA"
"-63.66","44.75","BEDFORD RANGE","8200574","2019-02-25 14:00","2019","02","25","14:00","1.4","","-2.2","","77","","0.0","","28","","14","","","","98.37","","","","","","NA"
"-63.66","44.75","BEDFORD RANGE","8200574","2019-02-25 15:00","2019","02","25","15:00","1.1","","-4.0","","69","","0.0","","28","","16","","","","98.43","","","","","","NA"
"-63.66","44.75","BEDFORD RANGE","8200574","2019-02-25 16:00","2019","02","25","16:00","1.7","","-4.0","","66","","0.0","","27","","14","","","","98.48","","","","","","NA"
"-63.66","44.75","BEDFORD RANGE","8200574","2019-02-25 17:00","2019","02","25","17:00","1.5","","-4.5","","64","","0.0","","26","","12","","","","98.50","","","","","","NA"
"-63.66","44.75","BEDFORD RANGE","8200574","2019-02-25 18:00","2019","02","25","18:00","-0.4","","-4.4","","74","","","","27","","8","","","","98.59","","","","-3","","NA"
"-63.66","44.75","BEDFORD RANGE","8200574","2019-02-25 19:00","2019","02","25","19:00","-1.1","","-3.1","","86","","","","28","","8","","","","98.68","","","","-4","","NA"
"-63.66","44.75","BEDFORD RANGE","8200574","2019-02-25 20:00","2019","02","25","20:00","-0.9","","-4.0","","79","","","","26","","8","","","","98.74","","","","-4","","NA"
"-63.66","44.75","BEDFORD RANGE","8200574","2019-02-25 21:00","2019","02","25","21:00","-1.2","","-3.9","","82","","","","27","","9","","","","98.82","","","","-4","","NA"
"-63.66","44.75","BEDFORD RANGE","8200574","2019-02-25 22:00","2019","02","25","22:00","-1.9","","-4.9","","80","","","","29","","11","","","","98.90","","","","-6","","NA"
"-63.66","44.75","BEDFORD RANGE","8200574","2019-02-25 23:00","2019","02","25","23:00","-2.3","","-6.9","","71","","","","29","","19","","","","98.95","","","","-8","","NA"
"-63.66","44.75","BEDFORD RANGE","8200574","2019-02-26 00:00","2019","02","26","00:00","-3.3","","-7.9","","70","","","","28","","16","","","","99.05","","","","-9","","NA"
"-63.66","44.75","BEDFORD RANGE","8200574","2019-02-26 01:00","2019","02","26","01:00","-4.5","","-9.6","","68","","","","29","","21","","","","99.18","","","","-11","","NA"
"-63.66","44.75","BEDFORD RANGE","8200574","2019-02-26 02:00","2019","02","26","02:00","-5.7","","-10.8","","68","","","","30","","25","","","","99.32","","","","-13","","NA"
"-63.66","44.75","BEDFORD RANGE","8200574","2019-02-26 03:00","2019","02","26","03:00","-6.6","","-11.1","","70","","","","30","","22","","","","99.45","","","","-14","","NA"
"-63.66","44.75","BEDFORD RANGE","8200574","2019-02-26 04:00","2019","02","26","04:00","-7.6","","-12.3","","69","","","","30","","21","","","","99.58","","","","-15","","NA"
"-63.66","44.75","BEDFORD RANGE","8200574","2019-02-26 05:00","2019","02","26","05:00","-8.7","","-14.3","","64","","","","29","","28","","","","99.71","","","","-18","","NA"
"-63.66","44.75","BEDFORD RANGE","8200574","2019-02-26 06:00","2019","02","26","06:00","-9.5","","-15.0","","64","","","","30","","17","","","","99.84","","","","-17","","NA"
"-63.66","44.75","BEDFORD RANGE","8200574","2019-02-26 07:00","2019","02","26","07:00","-9.9","","-15.7","","63","","","","30","","24","","","","99.94","","","","-18","","NA"
"-63.66","44.75","BEDFORD RANGE","8200574","2019-02-26 08:00","2019","02","26","08:00","-10.1","","-16.6","","59","","","","30","","23","","","","100.07","","","","-19","","NA"
"-63.66","44.75","BEDFORD RANGE","8200574","2019-02-26 09:00","2019","02","26","09:00","-10.0","","-16.6","","59","","","","29","","26","","","","100.19","","","","-19","","NA"
"-63.66","44.75","BEDFORD RANGE","8200574","2019-02-26 10:00","2019","02","26","10:00","-10.0","","-16.3","","60","","","","30","","22","","","","100.23","","","","-18","","NA"
"-63.66","44.75","BEDFORD RANGE","8200574","2019-02-26 11:00","2019","02","26","11:00","-9.8","","-17.4","","54","","","","30","","26","","","","100.24","","","","-19","","NA"
"-63.66","44.75","BEDFORD RANGE","8200574","2019-02-26 12:00","2019","02","26","12:00","-9.6","","-17.4","","53","","","","29","","18","","","","100.22","","","","-17","","NA"
"-63.66","44.75","BEDFORD RANGE","8200574","2019-02-26 13:00","2019","02","26","13:00","-9.1","","-17.0","","53","","","","30","","34","","","","100.14","","","","-19","","NA"
"-63.66","44.75","BEDFORD RANGE","8200574","2019-02-26 14:00","2019","02","26","14:00","-7.9","","-16.7","","49","","","","30","","22","","","","100.15","","","","-16","","NA"
"-63.66","44.75","BEDFORD RANGE","8200574","2019-02-26 15:00","2019","02","26","15:00","-7.8","","-16.9","","48","","","","30","","32","","","","100.14","","","","-17","","NA"
"-63.66","44.75","BEDFORD RANGE","8200574","2019-02-26 16:00","2019","02","26","16:00","-8.1","","-17.4","","47","","","","29","","24","","","","100.17","","","","-16","","NA"
"-63.66","44.75","BEDFORD RANGE","8200574","2019-02-26 17:00","2019","02","26","17:00","-8.2","","-19.3","","40","","","","29","","27","","","","100.21","","","","-17","","NA"
"-63.66","44.75","BEDFORD RANGE","8200574","2019-02-26 18:00","2019","02","26","18:00","-9.0","","-21.2","","37","","","","29","","30","","","","100.27","","","","-18","","NA"
"-63.66","44.75","BEDFORD RANGE","8200574","2019-02-26 19:00","2019","02","26","19:00","-10.0","","-21.3","","39","","","","29","","25","","","","100.35","","","","-19","","NA"
"-63.66","44.75","BEDFORD RANGE","8200574","2019-02-26 20:00","2019","02","26","20:00","-11.0","","-20.9","","44","","","","30","","22","","","","100.45","","","","-20","","NA"
"-63.66","44.75","BEDFORD RANGE","8200574","2019-02-26 21:00","2019","02","26","21:00","-12.3","","-20.1","","52","","","","30","","29","","","","100.52","","","","-22","","NA"
"-63.66","44.75","BEDFORD RANGE","8200574","2019-02-26 22:00","2019","02","26","22:00","-13.1","","-21.5","","49","","","","30","","30","","","","100.59","","","","-24","","NA"
"-63.66","44.75","BEDFORD RANGE","8200574","2019-02-26 23:00","2019","02","26","23:00","-13.9","","-20.8","","56","","","","30","","21","","","","100.66","","","","-23","","NA"
"-63.66","44.75","BEDFORD RANGE","8200574","2019-02-27 00:00","2019","02","27","00:00","-14.4","","-20.5","","60","","","","30","","28","","","","100.68","","","","-25","","NA"
"-63.66","44.75","BEDFORD RANGE","8200574","2019-02-27 01:00","2019","02","27","01:00","-14.6","","-21.3","","57","","","","31","","28","","","","100.72","","","","-25","","NA"
"-63.66","44.75","BEDFORD RANGE","8200574","2019-02-27 02:00","2019","02","27","02:00","-15.0","","-21.2","","59","","","","30","","28","","","","100.79","","","","-26","","NA"
"-63.66","44.75","BEDFORD RANGE","8200574","2019-02-27 03:00","2019","02","27","03:00","-15.3","","-20.3","","65","","","","30","","19","","","","100.83","","","","-24","","NA"
"-63.66","44.75","BEDFORD RANGE","8200574","2019-02-27 04:00","2019","02","27","04:00","-15.4","","-20.8","","64","","","","29","","19","","","","100.90","","","","-24","","NA"
"-63.66","44.75","BEDFORD RANGE","8200574","2019-02-27 05:00","2019","02","27","05:00","-15.6","","-20.9","","64","","","","30","","19","","","","100.99","","","","-25","","NA"
"-63.66","44.75","BEDFORD RANGE","8200574","2019-02-27 06:00","2019","02","27","06:00","-15.6","","-21.1","","63","","","","30","","22","","","","101.07","","","","-25","","NA"
"-63.66","44.75","BEDFORD RANGE","8200574","2019-02-27 07:00","2019","02","27","07:00","-15.8","","-21.3","","62","","","","30","","26","","","","101.11","","","","-26","","NA"
"-63.66","44.75","BEDFORD RANGE","8200574","2019-02-27 08:00","2019","02","27","08:00","-15.3","","-21.5","","59","","","","30","","20","","","","101.23","","","","-25","","NA"
"-63.66","44.75","BEDFORD RANGE","8200574","2019-02-27 09:00","2019","02","27","09:00","-14.5","","-21.3","","57","","","","30","","29","","","","101.23","","","","-25","","NA"
"-63.66","44.75","BEDFORD RANGE","8200574","2019-02-27 10:00","2019","02","27","10:00","-13.5","","-20.6","","55","","","","31","","29","","","","101.23","","","","-24","","NA"
"-63.66","44.75","BEDFORD RANGE","8200574","2019-02-27 11:00","2019","02","27","11:00","-12.2","","-19.9","","53","","","","31","","24","","","","101.22","","","","-21","","NA"
"-63.66","44.75","BEDFORD RANGE","8200574","2019-02-27 12:00","2019","02","27","12:00","-10.6","","-18.9","","50","","","","30","","22","","","","101.21","","","","-19","","NA"
"-63.66","44.75","BEDFORD RANGE","8200574","2019-02-27 13:00","2019","02","27","13:00","-9.7","","-18.4","","49","","","","29","","22","","","","101.21","","","","-18","","NA"
"-63.66","44.75","BEDFORD RANGE","8200574","2019-02-27 14:00","2019","02","27","14:00","-8.8","","-18.1","","47","","","","30","","24","","","","101.11","","","","-17","","NA"
"-63.66","44.75","BEDFORD RANGE","8200574","2019-02-27 15:00","2019","02","27","15:00","-7.9","","-17.3","","47","","","","31","","27","","","","101.14","","","","-16","","NA"
"-63.66","44.75","BEDFORD RANGE","8200574","2019-02-27 16:00","2019","02","27","16:00","-7.6","","-17.6","","45","","","","29","","20","","","","101.21","","","","-15","","NA"
"-63.66","44.75","BEDFORD RANGE","8200574","2019-02-27 17:00","2019","02","27","17:00","-7.6","","-17.5","","45","","","","30","","22","","","","101.25","","","","-15","","NA"
"-63.66","44.75","BEDFORD RANGE","8200574","2019-02-27 18:00","2019","02","27","18:00","-8.5","","-17.8","","47","","","","29","","13","","","","101.30","","","","-14","","NA"
"-63.66","44.75","BEDFORD RANGE","8200574","2019-02-27 19:00","2019","02","27","19:00","-8.9","","-17.9","","48","","","","29","","17","","","","101.39","","","","-16","","NA"
"-63.66","44.75","BEDFORD RANGE","8200574","2019-02-27 20:00","2019","02","27","20:00","-9.1","","-18.0","","49","","","","28","","11","","","","101.46","","","","-15","","NA"
"-63.66","44.75","BEDFORD RANGE","8200574","2019-02-27 21:00","2019","02","27","21:00","-9.4","","-18.3","","48","","","","28","","12","","","","101.48","","","","-15","","NA"
"-63.66","44.75","BEDFORD RANGE","8200574","2019-02-27 22:00","2019","02","27","22:00","-9.9","","-18.5","","50","","","","29","","12","","","","101.48","","","","-16","","NA"
"-63.66","44.75","BEDFORD RANGE","8200574","2019-02-27 23:00","2019","02","27","23:00","-10.3","","-19.1","","48","","","","31","","9","","","","101.49","","","","-15","","NA"
"-63.66","44.75","BEDFORD RANGE","8200574","2019-02-28 00:00","2019","02","28","00:00","-10.8","","-19.7","","48","","","","30","","7","","","","101.49","","","","-15","","NA"
"-63.66","44.75","BEDFORD RANGE","8200574","2019-02-28 01:00","2019","02","28","01:00","-11.3","","-19.9","","49","","","","30","","9","","","","101.46","","","","-16","","NA"
"-63.66","44.75","BEDFORD RANGE","8200574","2019-02-28 02:00","2019","02","28","02:00","-12.2","","-19.5","","55","","","","27","","6","","","","101.45","","","","-16","","NA"
"-63.66","44.75","BEDFORD RANGE","8200574","2019-02-28 03:00","2019","02","28","03:00","-12.7","","-19.5","","57","","","","29","","4","","","","101.42","","","","-15","","NA"
"-63.66","44.75","BEDFORD RANGE","8200574","2019-02-28 04:00","2019","02","28","04:00","-13.1","","-19.1","","61","","","","26","","2","","","","101.41","","","","-14","","NA"
"-63.66","44.75","BEDFORD RANGE","8200574","2019-02-28 05:00","2019","02","28","05:00","-13.5","","-18.6","","66","","","","28","","2","","","","101.40","","","","-15","","NA"
"-63.66","44.75","BEDFORD RANGE","8200574","2019-02-28 06:00","2019","02","28","06:00","-14.1","","-19.0","","66","","","","27","","3","","","","101.38","","","","-16","","NA"
"-63.66","44.75","BEDFORD RANGE","8200574","2019-02-28 07:00","2019","02","28","07:00","-14.6","","-18.9","","70","","","","27","","3","","","","101.41","","","","-17","","NA"
"-63.66","44.75","BEDFORD RANGE","8200574","2019-02-28 08:00","2019","02","28","08:00","-13.0","","-19.3","","59","","","","28","","4","","","","101.42","","","","-16","","NA"
"-63.66","44.75","BEDFORD RANGE","8200574","2019-02-28 09:00","2019","02","28","09:00","-11.2","","-19.0","","52","","","","29","","13","","","","101.44","","","","-18","","NA"
"-63.66","44.75","BEDFORD RANGE","8200574","2019-02-28 10:00","2019","02","28","10:00","-9.5","","-20.5","","40","","","","29","","15","","","","101.36","","","","-16","","NA"
"-63.66","44.75","BEDFORD RANGE","8200574","2019-02-28 11:00","2019","02","28","11:00","-8.5","","-22.0","","33","","","","31","","18","","","","101.30","","","","-16","","NA"
"-63.66","44.75","BEDFORD RANGE","8200574","2019-02-28 12:00","2019","02","28","12:00","-7.2","","-21.4","","31","","","","31","","15","","","","101.26","","","","-13","","NA"
"-63.66","44.75","BEDFORD RANGE","8200574","2019-02-28 13:00","2019","02","28","13:00","-5.9","","-21.3","","29","","","","30","","20","","","","101.19","","","","-13","","NA"
"-63.66","44.75","BEDFORD RANGE","8200574","2019-02-28 14:00","2019","02","28","14:00","-5.6","","-21.2","","28","","","","32","","21","","","","101.16","","","","-12","","NA"
"-63.66","44.75","BEDFORD RANGE","8200574","2019-02-28 15:00","2019","02","28","15:00","-5.3","","-21.1","","28","","","","30","","18","","","","101.17","","","","-12","","NA"
"-63.66","44.75","BEDFORD RANGE","8200574","2019-02-28 16:00","2019","02","28","16:00","-5.5","","-18.5","","35","","","","30","","18","","","","101.20","","","","-12","","NA"
"-63.66","44.75","BEDFORD RANGE","8200574","2019-02-28 17:00","2019","02","28","17:00","-6.4","","-18.9","","36","","","","29","","21","","","","101.27","","","","-13","","NA"
"-63.66","44.75","BEDFORD RANGE","8200574","2019-02-28 18:00","2019","02","28","18:00","-7.6","","-18.4","","42","","","","30","","11","","","","101.38","","","","-13","","NA"
"-63.66","44.75","BEDFORD RANGE","8200574","2019-02-28 19:00","2019","02","28","19:00","-8.2","","-18.3","","44","","","","29","","9","","","","101.49","","","","-13","","NA"
"-63.66","44.75","BEDFORD RANGE","8200574","2019-02-28 20:00","2019","02","28","20:00","-8.8","","-17.9","","48","","","","31","","9","","","","101.58","","","","-13","","NA"
"-63.66","44.75","BEDFORD RANGE","8200574","2019-02-28 21:00","2019","02","28","21:00","-9.0","","-18.3","","47","","","","31","","11","","","","101.62","","","","-14","","NA"
"-63.66","44.75","BEDFORD RANGE","8200574","2019-02-28 22:00","2019","02","28","22:00","-9.0","","-18.1","","48","","","","30","","11","","","","101.73","","","","-14","","NA"
"-63.66","44.75","BEDFORD RANGE","8200574","2019-02-28 23:00","2019","02","28","23:00","-9.2","","-18.2","","48","","","","30","","10","","","","101.78","","","","-14","","NA"
