"Longitude (x)","Latitude (y)","Station Name","Climate ID","Date/Time (LST)","Year","Month","Day","Time (LST)","Temp (°C)","Temp Flag","Dew Point Temp (°C)","Dew Point Temp Flag","Rel Hum (%)","Rel Hum Flag","Precip. Amount (mm)","Precip. Amount Flag","Wind Dir (10s deg)","Wind Dir Flag","Wind Spd (km/h)","Wind Spd Flag","Visibility (km)","Visibility Flag","Stn Press (kPa)","Stn Press Flag","Hmdx","Hmdx Flag","Wind Chill","Wind Chill Flag","Weather"
"-55.67","49.92","LA SCIE","8402520","2019-04-01 00:30","2019","04","01","00:30","4.0","","2.8","","92","","0.0","","18","","19","","","","98.95","","","","","","NA"
"-55.67","49.92","LA SCIE","8402520","2019-04-01 01:30","2019","04","01","01:30","3.4","","2.3","","92","","0.0","","18","","10","","","","98.89","","","","","","NA"
"-55.67","49.92","LA SCIE","8402520","2019-04-01 02:30","2019","04","01","02:30","3.0","","2.4","","96","","0.0","","16","","9","","","","98.75","","","","","","NA"
"-55.67","49.92","LA SCIE","8402520","2019-04-01 03:30","2019","04","01","03:30","3.1","","2.7","","97","","0.0","","15","","9","","","","98.65","","","","","","NA"
"-55.67","49.92","LA SCIE","8402520","2019-04-01 04:30","2019","04","01","04:30","2.5","","2.2","","98","","0.0","","13","","10","","","","98.49","","","","","","NA"
"-55.67","49.92","LA SCIE","8402520","2019-04-01 05:30","2019","04","01","05:30","3.7","","3.4","","98","","0.0","","16","","14","","","","98.39","","","","","","NA"
"-55.67","49.92","LA SCIE","8402520","2019-04-01 06:30","2019","04","01","06:30","4.1","","3.8","","98","","0.2","","15","","14","","","","98.28","","","","","","NA"
"-55.67","49.92","LA SCIE","8402520","2019-04-01 07:30","2019","04","01","07:30","4.9","","4.6","","98","","0.2","","17","","12","","","","98.17","","","","","","NA"
"-55.67","49.92","LA SCIE","8402520","2019-04-01 08:30","2019","04","01","08:30","5.6","","5.2","","98","","0.0","","15","","14","","","","97.97","","","","","","NA"
"-55.67","49.92","LA SCIE","8402520","2019-04-01 09:30","2019","04","01","09:30","6.1","","5.7","","98","","0.0","","17","","11","","","","97.86","","","","","","NA"
"-55.67","49.92","LA SCIE","8402520","2019-04-01 10:30","2019","04","01","10:30","6.9","","6.5","","97","","0.0","","16","","14","","","","97.69","","","","","","NA"
"-55.67","49.92","LA SCIE","8402520","2019-04-01 11:30","2019","04","01","11:30","7.6","","7.1","","97","","0.0","","16","","13","","","","97.55","","","","","","NA"
"-55.67","49.92","LA SCIE","8402520","2019-04-01 12:30","2019","04","01","12:30","8.8","","7.9","","94","","0.0","","16","","15","","","","97.41","","","","","","NA"
"-55.67","49.92","LA SCIE","8402520","2019-04-01 13:30","2019","04","01","13:30","10.1","","8.0","","87","","0.0","","17","","19","","","","97.24","","","","","","NA"
"-55.67","49.92","LA SCIE","8402520","2019-04-01 14:30","2019","04","01","14:30","8.0","","7.1","","94","","0.0","","17","","15","","","","97.10","","","","","","NA"
"-55.67","49.92","LA SCIE","8402520","2019-04-01 15:30","2019","04","01","15:30","9.0","","7.8","","93","","0.0","","18","","28","","","","96.96","","","","","","NA"
"-55.67","49.92","LA SCIE","8402520","2019-04-01 16:30","2019","04","01","16:30","8.3","","6.7","","90","","0.0","","17","","25","","","","96.85","","","","","","NA"
"-55.67","49.92","LA SCIE","8402520","2019-04-01 17:30","2019","04","01","17:30","7.6","","6.3","","91","","0.0","","18","","21","","","","96.77","","","","","","NA"
"-55.67","49.92","LA SCIE","8402520","2019-04-01 18:30","2019","04","01","18:30","6.7","","6.0","","95","","0.0","","17","","18","","","","96.73","","","","","","NA"
"-55.67","49.92","LA SCIE","8402520","2019-04-01 19:30","2019","04","01","19:30","6.4","","5.9","","97","","0.0","","20","","24","","","","96.70","","","","","","NA"
"-55.67","49.92","LA SCIE","8402520","2019-04-01 20:30","2019","04","01","20:30","4.4","","4.0","","97","","0.0","","23","","22","","","","96.84","","","","","","NA"
"-55.67","49.92","LA SCIE","8402520","2019-04-01 21:30","2019","04","01","21:30","1.6","","0.6","","93","","0.0","","25","","23","","","","96.94","","","","","","NA"
"-55.67","49.92","LA SCIE","8402520","2019-04-01 22:30","2019","04","01","22:30","-0.9","","-3.1","","85","","0.0","","24","","28","","","","97.05","","","","-7","","NA"
"-55.67","49.92","LA SCIE","8402520","2019-04-01 23:30","2019","04","01","23:30","-1.1","","-4.0","","81","","0.0","","24","","27","","","","97.10","","","","-8","","NA"
"-55.67","49.92","LA SCIE","8402520","2019-04-02 00:30","2019","04","02","00:30","-2.2","","-6.1","","75","","0.0","","24","","27","","","","97.17","","","","-9","","NA"
"-55.67","49.92","LA SCIE","8402520","2019-04-02 01:30","2019","04","02","01:30","-2.5","","-6.5","","74","","0.0","","24","","30","","","","97.21","","","","-10","","NA"
"-55.67","49.92","LA SCIE","8402520","2019-04-02 02:30","2019","04","02","02:30","-2.7","","-6.3","","76","","0.0","","25","","29","","","","97.25","","","","-10","","NA"
"-55.67","49.92","LA SCIE","8402520","2019-04-02 03:30","2019","04","02","03:30","-3.0","","-7.0","","74","","0.2","","26","","31","","","","97.38","","","","-11","","NA"
"-55.67","49.92","LA SCIE","8402520","2019-04-02 04:30","2019","04","02","04:30","-4.1","","-9.2","","68","","0.0","","27","","31","","","","97.56","","","","-12","","NA"
"-55.67","49.92","LA SCIE","8402520","2019-04-02 05:30","2019","04","02","05:30","-4.8","","-8.9","","73","","0.0","","26","","20","","","","97.72","","","","-11","","NA"
"-55.67","49.92","LA SCIE","8402520","2019-04-02 06:30","2019","04","02","06:30","-4.4","","-8.9","","71","","0.0","","27","","28","","","","97.96","","","","-12","","NA"
"-55.67","49.92","LA SCIE","8402520","2019-04-02 07:30","2019","04","02","07:30","-4.1","","-9.4","","67","","0.0","","26","","36","","","","98.14","","","","-12","","NA"
"-55.67","49.92","LA SCIE","8402520","2019-04-02 08:30","2019","04","02","08:30","-4.1","","-10.5","","61","","0.0","","27","","37","","","","98.38","","","","-13","","NA"
"-55.67","49.92","LA SCIE","8402520","2019-04-02 09:30","2019","04","02","09:30","-3.4","","-13.3","","46","","0.0","","27","","36","","","","98.59","","","","-12","","NA"
"-55.67","49.92","LA SCIE","8402520","2019-04-02 10:30","2019","04","02","10:30","-2.6","","-12.6","","46","","0.0","","28","","41","","","","98.78","","","","-11","","NA"
"-55.67","49.92","LA SCIE","8402520","2019-04-02 11:30","2019","04","02","11:30","-1.1","","-11.4","","45","","0.0","","27","","36","","","","98.88","","","","-9","","NA"
"-55.67","49.92","LA SCIE","8402520","2019-04-02 12:30","2019","04","02","12:30","-0.8","","-10.8","","47","","0.0","","27","","34","","","","99.02","","","","-8","","NA"
"-55.67","49.92","LA SCIE","8402520","2019-04-02 13:30","2019","04","02","13:30","-0.1","","-11.6","","42","","0.0","","27","","35","","","","99.18","","","","-7","","NA"
"-55.67","49.92","LA SCIE","8402520","2019-04-02 14:30","2019","04","02","14:30","-0.3","","-9.6","","49","","0.0","","27","","31","","","","99.32","","","","-7","","NA"
"-55.67","49.92","LA SCIE","8402520","2019-04-02 15:30","2019","04","02","15:30","-0.1","","-9.1","","51","","0.0","","26","","36","","","","99.46","","","","-7","","NA"
"-55.67","49.92","LA SCIE","8402520","2019-04-02 16:30","2019","04","02","16:30","-0.1","","-9.3","","50","","0.0","","27","","25","","","","99.61","","","","-6","","NA"
"-55.67","49.92","LA SCIE","8402520","2019-04-02 17:30","2019","04","02","17:30","-0.9","","-7.9","","59","","0.0","","26","","28","","","","99.76","","","","-7","","NA"
"-55.67","49.92","LA SCIE","8402520","2019-04-02 18:30","2019","04","02","18:30","-2.0","","-8.8","","60","","0.0","","27","","25","","","","99.92","","","","-8","","NA"
"-55.67","49.92","LA SCIE","8402520","2019-04-02 19:30","2019","04","02","19:30","-2.1","","-8.7","","60","","0.0","","27","","25","","","","100.08","","","","-9","","NA"
"-55.67","49.92","LA SCIE","8402520","2019-04-02 20:30","2019","04","02","20:30","-2.3","","-7.8","","66","","0.0","","26","","19","","","","100.24","","","","-8","","NA"
"-55.67","49.92","LA SCIE","8402520","2019-04-02 21:30","2019","04","02","21:30","-2.8","","-7.2","","72","","0.0","","24","","15","","","","100.33","","","","-8","","NA"
"-55.67","49.92","LA SCIE","8402520","2019-04-02 22:30","2019","04","02","22:30","-2.9","","-6.4","","77","","0.0","","24","","16","","","","100.43","","","","-8","","NA"
"-55.67","49.92","LA SCIE","8402520","2019-04-02 23:30","2019","04","02","23:30","-3.1","","-6.1","","80","","0.0","","22","","18","","","","100.55","","","","-9","","NA"
"-55.67","49.92","LA SCIE","8402520","2019-04-03 00:30","2019","04","03","00:30","-3.3","","-6.4","","79","","0.0","","22","","16","","","","100.69","","","","-9","","NA"
"-55.67","49.92","LA SCIE","8402520","2019-04-03 01:30","2019","04","03","01:30","-3.5","","-6.5","","80","","0.0","","23","","11","","","","100.74","","","","-8","","NA"
"-55.67","49.92","LA SCIE","8402520","2019-04-03 02:30","2019","04","03","02:30","-3.6","","-6.5","","81","","0.0","","22","","16","","","","100.76","","","","-9","","NA"
"-55.67","49.92","LA SCIE","8402520","2019-04-03 03:30","2019","04","03","03:30","-3.5","","-6.6","","79","","0.0","","20","","12","","","","100.87","","","","-8","","NA"
"-55.67","49.92","LA SCIE","8402520","2019-04-03 04:30","2019","04","03","04:30","-3.9","","-7.0","","79","","0.0","","21","","11","","","","100.94","","","","-8","","NA"
"-55.67","49.92","LA SCIE","8402520","2019-04-03 05:30","2019","04","03","05:30","-4.0","","-7.8","","75","","0.0","","20","","6","","","","100.96","","","","-7","","NA"
"-55.67","49.92","LA SCIE","8402520","2019-04-03 06:30","2019","04","03","06:30","-3.4","","-7.6","","73","","0.0","","18","","7","","","","100.93","","","","-6","","NA"
"-55.67","49.92","LA SCIE","8402520","2019-04-03 07:30","2019","04","03","07:30","-2.0","","-6.9","","69","","0.2","","18","","11","","","","100.88","","","","-6","","NA"
"-55.67","49.92","LA SCIE","8402520","2019-04-03 08:30","2019","04","03","08:30","-1.3","","-6.5","","67","","0.0","","17","","14","","","","100.92","","","","-6","","NA"
"-55.67","49.92","LA SCIE","8402520","2019-04-03 09:30","2019","04","03","09:30","-0.4","","-5.7","","67","","0.0","","18","","16","","","","100.91","","","","-5","","NA"
"-55.67","49.92","LA SCIE","8402520","2019-04-03 10:30","2019","04","03","10:30","0.0","","-5.3","","68","","0.0","","17","","13","","","","100.88","","","","-4","","NA"
"-55.67","49.92","LA SCIE","8402520","2019-04-03 11:30","2019","04","03","11:30","1.7","","-5.2","","60","","0.0","","18","","17","","","","100.79","","","","","","NA"
"-55.67","49.92","LA SCIE","8402520","2019-04-03 12:30","2019","04","03","12:30","1.9","","-6.1","","55","","0.0","","17","","13","","","","100.71","","","","","","NA"
"-55.67","49.92","LA SCIE","8402520","2019-04-03 13:30","2019","04","03","13:30","3.4","","-7.0","","46","","0.0","","19","","12","","","","100.65","","","","","","NA"
"-55.67","49.92","LA SCIE","8402520","2019-04-03 14:30","2019","04","03","14:30","2.3","","-7.4","","49","","0.0","","15","","12","","","","100.50","","","","","","NA"
"-55.67","49.92","LA SCIE","8402520","2019-04-03 15:30","2019","04","03","15:30","3.3","","-8.9","","40","","0.0","","18","","13","","","","100.36","","","","","","NA"
"-55.67","49.92","LA SCIE","8402520","2019-04-03 16:30","2019","04","03","16:30","2.9","","-9.5","","40","","0.0","","16","","17","","","","100.18","","","","","","NA"
"-55.67","49.92","LA SCIE","8402520","2019-04-03 17:30","2019","04","03","17:30","2.5","","-10.2","","39","","0.0","","16","","19","","","","99.97","","","","","","NA"
"-55.67","49.92","LA SCIE","8402520","2019-04-03 18:30","2019","04","03","18:30","2.3","","-9.8","","40","","0.0","","14","","23","","","","99.72","","","","","","NA"
"-55.67","49.92","LA SCIE","8402520","2019-04-03 19:30","2019","04","03","19:30","1.8","","-6.9","","53","","0.0","","14","","24","","","","99.49","","","","","","NA"
"-55.67","49.92","LA SCIE","8402520","2019-04-03 20:30","2019","04","03","20:30","0.9","","-6.5","","58","","0.0","","13","","34","","","","99.16","","","","","","NA"
"-55.67","49.92","LA SCIE","8402520","2019-04-03 21:30","2019","04","03","21:30","0.4","","-8.2","","53","","0.0","","13","","38","","","","98.74","","","","","","NA"
"-55.67","49.92","LA SCIE","8402520","2019-04-03 22:30","2019","04","03","22:30","-0.5","","-6.6","","64","","0.0","","13","","35","","","","98.40","","","","-8","","NA"
"-55.67","49.92","LA SCIE","8402520","2019-04-03 23:30","2019","04","03","23:30","-1.1","","-2.4","","91","","0.0","","13","","39","","","","97.86","","","","-9","","NA"
"-55.67","49.92","LA SCIE","8402520","2019-04-04 00:30","2019","04","04","00:30","-1.0","","-1.4","","97","","0.0","","13","","27","","","","97.52","","","","-7","","NA"
"-55.67","49.92","LA SCIE","8402520","2019-04-04 01:30","2019","04","04","01:30","-0.1","","-0.4","","98","","0.0","","13","","31","","","","97.10","","","","-7","","NA"
"-55.67","49.92","LA SCIE","8402520","2019-04-04 02:30","2019","04","04","02:30","0.1","","-0.1","","99","","0.2","","13","","34","","","","96.71","","","","","","NA"
"-55.67","49.92","LA SCIE","8402520","2019-04-04 03:30","2019","04","04","03:30","1.0","","0.9","","99","","0.8","","15","","25","","","","96.44","","","","","","NA"
"-55.67","49.92","LA SCIE","8402520","2019-04-04 04:30","2019","04","04","04:30","1.9","","1.7","","99","","0.2","","19","","37","","","","96.29","","","","","","NA"
"-55.67","49.92","LA SCIE","8402520","2019-04-04 05:30","2019","04","04","05:30","0.1","","-0.8","","94","","0.0","","21","","32","","","","96.45","","","","","","NA"
"-55.67","49.92","LA SCIE","8402520","2019-04-04 06:30","2019","04","04","06:30","-0.2","","-2.4","","85","","0.0","","21","","36","","","","96.55","","","","-7","","NA"
"-55.67","49.92","LA SCIE","8402520","2019-04-04 07:30","2019","04","04","07:30","0.4","","-2.5","","81","","0.0","","21","","32","","","","96.53","","","","","","NA"
"-55.67","49.92","LA SCIE","8402520","2019-04-04 08:30","2019","04","04","08:30","1.3","","-2.5","","76","","0.0","","20","","38","","","","96.46","","","","","","NA"
"-55.67","49.92","LA SCIE","8402520","2019-04-04 09:30","2019","04","04","09:30","2.0","","-2.6","","72","","0.0","","21","","37","","","","96.45","","","","","","NA"
"-55.67","49.92","LA SCIE","8402520","2019-04-04 10:30","2019","04","04","10:30","2.4","","-2.9","","68","","0.2","","22","","40","","","","96.43","","","","","","NA"
"-55.67","49.92","LA SCIE","8402520","2019-04-04 11:30","2019","04","04","11:30","2.6","","-4.1","","61","","0.0","","22","","30","","","","96.41","","","","","","NA"
"-55.67","49.92","LA SCIE","8402520","2019-04-04 12:30","2019","04","04","12:30","2.8","","-6.8","","49","","0.0","","22","","44","","","","96.35","","","","","","NA"
"-55.67","49.92","LA SCIE","8402520","2019-04-04 13:30","2019","04","04","13:30","2.3","","-6.0","","54","","0.0","","23","","33","","","","96.42","","","","","","NA"
"-55.67","49.92","LA SCIE","8402520","2019-04-04 14:30","2019","04","04","14:30","1.1","","-5.5","","61","","0.0","","24","","35","","","","96.43","","","","","","NA"
"-55.67","49.92","LA SCIE","8402520","2019-04-04 15:30","2019","04","04","15:30","-0.4","","-7.3","","60","","0.0","","23","","47","","","","96.46","","","","-8","","NA"
"-55.67","49.92","LA SCIE","8402520","2019-04-04 16:30","2019","04","04","16:30","-1.3","","-7.1","","65","","0.0","","23","","38","","","","96.47","","","","-9","","NA"
"-55.67","49.92","LA SCIE","8402520","2019-04-04 17:30","2019","04","04","17:30","-2.2","","-7.6","","66","","0.2","","23","","36","","","","96.53","","","","-10","","NA"
"-55.67","49.92","LA SCIE","8402520","2019-04-04 18:30","2019","04","04","18:30","-3.6","","-8.9","","67","","0.0","","23","","36","","","","96.52","","","","-12","","NA"
"-55.67","49.92","LA SCIE","8402520","2019-04-04 19:30","2019","04","04","19:30","-4.2","","-8.3","","73","","0.0","","22","","33","","","","96.51","","","","-12","","NA"
"-55.67","49.92","LA SCIE","8402520","2019-04-04 20:30","2019","04","04","20:30","-4.6","","-8.8","","72","","0.0","","23","","32","","","","96.55","","","","-13","","NA"
"-55.67","49.92","LA SCIE","8402520","2019-04-04 21:30","2019","04","04","21:30","-4.8","","-8.5","","75","","0.2","","23","","33","","","","96.54","","","","-13","","NA"
"-55.67","49.92","LA SCIE","8402520","2019-04-04 22:30","2019","04","04","22:30","-5.1","","-8.3","","78","","0.0","","24","","28","","","","96.56","","","","-13","","NA"
"-55.67","49.92","LA SCIE","8402520","2019-04-04 23:30","2019","04","04","23:30","-5.1","","-9.0","","74","","0.0","","23","","35","","","","96.54","","","","-14","","NA"
"-55.67","49.92","LA SCIE","8402520","2019-04-05 00:30","2019","04","05","00:30","-5.3","","-8.5","","78","","0.0","","23","","35","","","","96.47","","","","-14","","NA"
"-55.67","49.92","LA SCIE","8402520","2019-04-05 01:30","2019","04","05","01:30","-5.0","","-8.4","","77","","0.0","","23","","37","","","","96.43","","","","-14","","NA"
"-55.67","49.92","LA SCIE","8402520","2019-04-05 02:30","2019","04","05","02:30","-4.7","","-7.8","","79","","0.0","","24","","34","","","","96.50","","","","-13","","NA"
"-55.67","49.92","LA SCIE","8402520","2019-04-05 03:30","2019","04","05","03:30","-4.5","","-7.4","","81","","0.0","","23","","31","","","","96.58","","","","-12","","NA"
"-55.67","49.92","LA SCIE","8402520","2019-04-05 04:30","2019","04","05","04:30","-4.0","","-7.0","","79","","0.0","","26","","31","","","","96.63","","","","-12","","NA"
"-55.67","49.92","LA SCIE","8402520","2019-04-05 05:30","2019","04","05","05:30","-4.2","","-6.7","","83","","0.0","","26","","23","","","","96.77","","","","-11","","NA"
"-55.67","49.92","LA SCIE","8402520","2019-04-05 06:30","2019","04","05","06:30","-4.3","","-7.8","","76","","0.0","","27","","22","","","","96.87","","","","-11","","NA"
"-55.67","49.92","LA SCIE","8402520","2019-04-05 07:30","2019","04","05","07:30","-4.4","","-9.2","","69","","0.0","","29","","28","","","","96.97","","","","-12","","NA"
"-55.67","49.92","LA SCIE","8402520","2019-04-05 08:30","2019","04","05","08:30","-4.4","","-10.0","","64","","0.0","","29","","34","","","","97.10","","","","-13","","NA"
"-55.67","49.92","LA SCIE","8402520","2019-04-05 09:30","2019","04","05","09:30","-4.2","","-10.7","","60","","0.0","","28","","29","","","","97.20","","","","-12","","NA"
"-55.67","49.92","LA SCIE","8402520","2019-04-05 10:30","2019","04","05","10:30","-4.4","","-11.1","","59","","0.0","","28","","28","","","","97.34","","","","-12","","NA"
"-55.67","49.92","LA SCIE","8402520","2019-04-05 11:30","2019","04","05","11:30","-4.3","","-11.7","","56","","0.0","","29","","26","","","","97.44","","","","-12","","NA"
"-55.67","49.92","LA SCIE","8402520","2019-04-05 12:30","2019","04","05","12:30","-3.2","","-11.3","","54","","0.0","","29","","36","","","","97.49","","","","-11","","NA"
"-55.67","49.92","LA SCIE","8402520","2019-04-05 13:30","2019","04","05","13:30","-2.7","","-11.2","","52","","0.0","","28","","33","","","","97.60","","","","-10","","NA"
"-55.67","49.92","LA SCIE","8402520","2019-04-05 14:30","2019","04","05","14:30","-3.4","","-11.0","","55","","0.0","","28","","36","","","","97.73","","","","-12","","NA"
"-55.67","49.92","LA SCIE","8402520","2019-04-05 15:30","2019","04","05","15:30","-3.3","","-10.5","","57","","0.0","","28","","34","","","","97.85","","","","-11","","NA"
"-55.67","49.92","LA SCIE","8402520","2019-04-05 16:30","2019","04","05","16:30","-3.8","","-10.6","","59","","0.0","","29","","38","","","","97.90","","","","-12","","NA"
"-55.67","49.92","LA SCIE","8402520","2019-04-05 17:30","2019","04","05","17:30","-4.0","","-10.5","","60","","0.0","","28","","30","","","","98.06","","","","-12","","NA"
"-55.67","49.92","LA SCIE","8402520","2019-04-05 18:30","2019","04","05","18:30","-4.7","","-10.5","","64","","0.0","","29","","35","","","","98.19","","","","-13","","NA"
"-55.67","49.92","LA SCIE","8402520","2019-04-05 19:30","2019","04","05","19:30","-4.7","","-10.3","","65","","0.0","","29","","24","","","","98.35","","","","-12","","NA"
"-55.67","49.92","LA SCIE","8402520","2019-04-05 20:30","2019","04","05","20:30","-4.5","","-10.1","","65","","0.0","","28","","32","","","","98.41","","","","-13","","NA"
"-55.67","49.92","LA SCIE","8402520","2019-04-05 21:30","2019","04","05","21:30","-4.6","","-10.5","","63","","0.0","","29","","29","","","","98.51","","","","-12","","NA"
"-55.67","49.92","LA SCIE","8402520","2019-04-05 22:30","2019","04","05","22:30","-4.5","","-10.7","","62","","0.0","","29","","29","","","","98.54","","","","-12","","NA"
"-55.67","49.92","LA SCIE","8402520","2019-04-05 23:30","2019","04","05","23:30","-4.4","","-12.0","","55","","0.0","","30","","26","","","","98.63","","","","-12","","NA"
"-55.67","49.92","LA SCIE","8402520","2019-04-06 00:30","2019","04","06","00:30","-4.8","","-10.9","","62","","0.0","","29","","15","","","","98.81","","","","-10","","NA"
"-55.67","49.92","LA SCIE","8402520","2019-04-06 01:30","2019","04","06","01:30","-5.2","","-13.1","","54","","0.0","","28","","23","","","","98.89","","","","-12","","NA"
"-55.67","49.92","LA SCIE","8402520","2019-04-06 02:30","2019","04","06","02:30","-5.4","","-14.7","","48","","0.0","","30","","16","","","","98.99","","","","-11","","NA"
"-55.67","49.92","LA SCIE","8402520","2019-04-06 03:30","2019","04","06","03:30","-6.1","","-13.9","","54","","0.0","","28","","10","","","","99.06","","","","-11","","NA"
"-55.67","49.92","LA SCIE","8402520","2019-04-06 04:30","2019","04","06","04:30","-6.3","","-13.9","","55","","0.0","","28","","8","","","","99.11","","","","-10","","NA"
"-55.67","49.92","LA SCIE","8402520","2019-04-06 05:30","2019","04","06","05:30","-6.6","","-13.7","","57","","0.0","","28","","9","","","","99.17","","","","-11","","NA"
"-55.67","49.92","LA SCIE","8402520","2019-04-06 06:30","2019","04","06","06:30","-6.5","","-12.8","","61","","0.3","","21","","7","","","","99.21","","","","-10","","NA"
"-55.67","49.92","LA SCIE","8402520","2019-04-06 07:30","2019","04","06","07:30","-4.2","","-11.1","","59","","0.0","","23","","10","","","","99.23","","","","-8","","NA"
"-55.67","49.92","LA SCIE","8402520","2019-04-06 08:30","2019","04","06","08:30","-2.5","","-10.2","","55","","0.0","","24","","14","","","","99.23","","","","-7","","NA"
"-55.67","49.92","LA SCIE","8402520","2019-04-06 09:30","2019","04","06","09:30","-0.8","","-11.6","","44","","0.0","","27","","15","","","","99.22","","","","-5","","NA"
"-55.67","49.92","LA SCIE","8402520","2019-04-06 10:30","2019","04","06","10:30","-0.3","","-9.4","","50","","0.0","","24","","15","","","","99.19","","","","-5","","NA"
"-55.67","49.92","LA SCIE","8402520","2019-04-06 11:30","2019","04","06","11:30","1.6","","-7.8","","50","","0.0","","22","","17","","","","99.15","","","","","","NA"
"-55.67","49.92","LA SCIE","8402520","2019-04-06 12:30","2019","04","06","12:30","1.5","","-9.7","","43","","0.0","","23","","21","","","","99.11","","","","","","NA"
"-55.67","49.92","LA SCIE","8402520","2019-04-06 13:30","2019","04","06","13:30","1.8","","-10.5","","40","","0.0","","23","","19","","","","99.04","","","","","","NA"
"-55.67","49.92","LA SCIE","8402520","2019-04-06 14:30","2019","04","06","14:30","2.8","","-10.2","","38","","0.0","","22","","17","","","","98.98","","","","","","NA"
"-55.67","49.92","LA SCIE","8402520","2019-04-06 15:30","2019","04","06","15:30","2.2","","-8.9","","43","","0.0","","20","","15","","","","98.92","","","","","","NA"
"-55.67","49.92","LA SCIE","8402520","2019-04-06 16:30","2019","04","06","16:30","1.8","","-6.7","","53","","0.0","","21","","14","","","","98.87","","","","","","NA"
"-55.67","49.92","LA SCIE","8402520","2019-04-06 17:30","2019","04","06","17:30","1.6","","-8.6","","47","","0.0","","23","","14","","","","98.83","","","","","","NA"
"-55.67","49.92","LA SCIE","8402520","2019-04-06 18:30","2019","04","06","18:30","0.4","","-5.5","","64","","0.0","","20","","15","","","","98.79","","","","","","NA"
"-55.67","49.92","LA SCIE","8402520","2019-04-06 19:30","2019","04","06","19:30","-1.1","","-3.7","","83","","0.0","","20","","10","","","","98.74","","","","-5","","NA"
"-55.67","49.92","LA SCIE","8402520","2019-04-06 20:30","2019","04","06","20:30","-1.7","","-3.0","","91","","0.0","","20","","11","","","","98.68","","","","-6","","NA"
"-55.67","49.92","LA SCIE","8402520","2019-04-06 21:30","2019","04","06","21:30","-2.1","","-3.0","","93","","0.0","","19","","10","","","","98.63","","","","-6","","NA"
"-55.67","49.92","LA SCIE","8402520","2019-04-06 22:30","2019","04","06","22:30","-2.3","","-3.0","","95","","0.0","","17","","6","","","","98.57","","","","-5","","NA"
"-55.67","49.92","LA SCIE","8402520","2019-04-06 23:30","2019","04","06","23:30","-2.5","","-2.9","","97","","0.3","","16","","6","","","","98.48","","","","-5","","NA"
"-55.67","49.92","LA SCIE","8402520","2019-04-07 00:30","2019","04","07","00:30","-2.5","","-2.9","","97","","0.2","","17","","5","","","","98.43","","","","-4","","NA"
"-55.67","49.92","LA SCIE","8402520","2019-04-07 01:30","2019","04","07","01:30","-2.6","","-3.0","","97","","0.0","","16","","2","","","","98.36","","","","-3","","NA"
"-55.67","49.92","LA SCIE","8402520","2019-04-07 02:30","2019","04","07","02:30","-2.9","","-3.4","","96","","0.0","","34","","3","","","","98.32","","","","-4","","NA"
"-55.67","49.92","LA SCIE","8402520","2019-04-07 03:30","2019","04","07","03:30","-2.9","","-3.4","","97","","0.0","","33","","6","","","","98.30","","","","-5","","NA"
"-55.67","49.92","LA SCIE","8402520","2019-04-07 04:30","2019","04","07","04:30","-2.8","","-3.1","","98","","0.8","","33","","9","","","","98.29","","","","-6","","NA"
"-55.67","49.92","LA SCIE","8402520","2019-04-07 05:30","2019","04","07","05:30","-2.8","","-3.1","","98","","0.0","","34","","11","","","","98.31","","","","-7","","NA"
"-55.67","49.92","LA SCIE","8402520","2019-04-07 06:30","2019","04","07","06:30","-2.9","","-3.1","","99","","0.3","","34","","11","","","","98.33","","","","-7","","NA"
"-55.67","49.92","LA SCIE","8402520","2019-04-07 07:30","2019","04","07","07:30","-3.0","","-3.2","","98","","0.0","","34","","10","","","","98.39","","","","-7","","NA"
"-55.67","49.92","LA SCIE","8402520","2019-04-07 08:30","2019","04","07","08:30","-2.8","","-3.1","","98","","0.0","","32","","9","","","","98.40","","","","-6","","NA"
"-55.67","49.92","LA SCIE","8402520","2019-04-07 09:30","2019","04","07","09:30","-2.1","","-2.5","","97","","0.0","","33","","12","","","","98.42","","","","-6","","NA"
"-55.67","49.92","LA SCIE","8402520","2019-04-07 10:30","2019","04","07","10:30","-1.8","","-2.4","","96","","0.0","","32","","13","","","","98.43","","","","-6","","NA"
"-55.67","49.92","LA SCIE","8402520","2019-04-07 11:30","2019","04","07","11:30","-2.0","","-2.9","","94","","0.0","","32","","14","","","","98.40","","","","-7","","NA"
"-55.67","49.92","LA SCIE","8402520","2019-04-07 12:30","2019","04","07","12:30","-0.6","","-2.5","","87","","0.0","","31","","8","","","","98.35","","","","-3","","NA"
"-55.67","49.92","LA SCIE","8402520","2019-04-07 13:30","2019","04","07","13:30","0.0","","-3.7","","76","","0.0","","33","","7","","","","98.29","","","","-2","","NA"
"-55.67","49.92","LA SCIE","8402520","2019-04-07 14:30","2019","04","07","14:30","0.9","","-5.5","","62","","0.0","","35","","5","","","","98.20","","","","","","NA"
"-55.67","49.92","LA SCIE","8402520","2019-04-07 15:30","2019","04","07","15:30","1.4","","-6.6","","55","","0.0","","2","","5","","","","98.16","","","","","","NA"
"-55.67","49.92","LA SCIE","8402520","2019-04-07 16:30","2019","04","07","16:30","-0.3","","-4.1","","76","","0.0","","12","","8","","","","98.11","","","","-3","","NA"
"-55.67","49.92","LA SCIE","8402520","2019-04-07 17:30","2019","04","07","17:30","-1.6","","-4.7","","79","","0.0","","14","","9","","","","98.08","","","","-5","","NA"
"-55.67","49.92","LA SCIE","8402520","2019-04-07 18:30","2019","04","07","18:30","-2.6","","-4.0","","90","","0.0","","13","","11","","","","98.00","","","","-7","","NA"
"-55.67","49.92","LA SCIE","8402520","2019-04-07 19:30","2019","04","07","19:30","-3.2","","-3.8","","96","","0.3","","15","","8","","","","98.00","","","","-6","","NA"
"-55.67","49.92","LA SCIE","8402520","2019-04-07 20:30","2019","04","07","20:30","-3.4","","-3.8","","97","","1.7","","14","","10","","","","97.93","","","","-7","","NA"
"-55.67","49.92","LA SCIE","8402520","2019-04-07 21:30","2019","04","07","21:30","-3.7","","-4.1","","97","","0.9","","15","","6","","","","97.88","","","","-6","","NA"
"-55.67","49.92","LA SCIE","8402520","2019-04-07 22:30","2019","04","07","22:30","-3.7","","-4.2","","97","","0.5","","13","","5","","","","97.83","","","","-6","","NA"
"-55.67","49.92","LA SCIE","8402520","2019-04-07 23:30","2019","04","07","23:30","-4.1","","-4.7","","96","","1.1","","20","","4","","","","97.82","","","","-6","","NA"
"-55.67","49.92","LA SCIE","8402520","2019-04-08 00:30","2019","04","08","00:30","-4.9","","-5.6","","95","","1.0","","29","","9","","","","97.85","","","","-9","","NA"
"-55.67","49.92","LA SCIE","8402520","2019-04-08 01:30","2019","04","08","01:30","-4.9","","-5.4","","96","","1.7","","34","","8","","","","97.89","","","","-8","","NA"
"-55.67","49.92","LA SCIE","8402520","2019-04-08 02:30","2019","04","08","02:30","-4.2","","-4.7","","97","","1.1","","2","","17","","","","97.96","","","","-10","","NA"
"-55.67","49.92","LA SCIE","8402520","2019-04-08 03:30","2019","04","08","03:30","-4.9","","-5.3","","97","","1.3","","36","","20","","","","98.01","","","","-11","","NA"
"-55.67","49.92","LA SCIE","8402520","2019-04-08 04:30","2019","04","08","04:30","-6.0","","-6.4","","96","","0.4","","36","","22","","","","98.11","","","","-13","","NA"
"-55.67","49.92","LA SCIE","8402520","2019-04-08 05:30","2019","04","08","05:30","-6.5","","-7.0","","96","","0.3","","36","","21","","","","98.20","","","","-14","","NA"
"-55.67","49.92","LA SCIE","8402520","2019-04-08 06:30","2019","04","08","06:30","-7.0","","-7.6","","96","","0.2","","35","","24","","","","98.34","","","","-15","","NA"
"-55.67","49.92","LA SCIE","8402520","2019-04-08 07:30","2019","04","08","07:30","-7.7","","-8.4","","94","","0.0","","34","","27","","","","98.48","","","","-16","","NA"
"-55.67","49.92","LA SCIE","8402520","2019-04-08 08:30","2019","04","08","08:30","-7.8","","-8.5","","95","","0.7","","34","","23","","","","98.57","","","","-16","","NA"
"-55.67","49.92","LA SCIE","8402520","2019-04-08 09:30","2019","04","08","09:30","-7.4","","-8.2","","94","","0.5","","33","","23","","","","98.63","","","","-15","","NA"
"-55.67","49.92","LA SCIE","8402520","2019-04-08 10:30","2019","04","08","10:30","-7.1","","-8.3","","91","","0.3","","33","","21","","","","98.66","","","","-14","","NA"
"-55.67","49.92","LA SCIE","8402520","2019-04-08 11:30","2019","04","08","11:30","-6.1","","-8.5","","83","","0.0","","32","","22","","","","98.67","","","","-13","","NA"
"-55.67","49.92","LA SCIE","8402520","2019-04-08 12:30","2019","04","08","12:30","-5.1","","-8.7","","76","","0.0","","31","","26","","","","98.65","","","","-13","","NA"
"-55.67","49.92","LA SCIE","8402520","2019-04-08 13:30","2019","04","08","13:30","-4.4","","-8.7","","72","","0.0","","32","","24","","","","98.62","","","","-11","","NA"
"-55.67","49.92","LA SCIE","8402520","2019-04-08 14:30","2019","04","08","14:30","-3.5","","-8.3","","69","","0.0","","32","","24","","","","98.57","","","","-10","","NA"
"-55.67","49.92","LA SCIE","8402520","2019-04-08 15:30","2019","04","08","15:30","-3.5","","-9.3","","64","","0.0","","32","","25","","","","98.55","","","","-10","","NA"
"-55.67","49.92","LA SCIE","8402520","2019-04-08 16:30","2019","04","08","16:30","-3.9","","-9.8","","64","","0.0","","32","","28","","","","98.57","","","","-11","","NA"
"-55.67","49.92","LA SCIE","8402520","2019-04-08 17:30","2019","04","08","17:30","-4.6","","-10.2","","65","","0.0","","31","","23","","","","98.59","","","","-12","","NA"
"-55.67","49.92","LA SCIE","8402520","2019-04-08 18:30","2019","04","08","18:30","-6.3","","-10.8","","71","","0.0","","30","","22","","","","98.60","","","","-14","","NA"
"-55.67","49.92","LA SCIE","8402520","2019-04-08 19:30","2019","04","08","19:30","-7.3","","-11.1","","74","","0.0","","30","","21","","","","98.63","","","","-15","","NA"
"-55.67","49.92","LA SCIE","8402520","2019-04-08 20:30","2019","04","08","20:30","-7.8","","-11.3","","76","","0.0","","30","","22","","","","98.61","","","","-15","","NA"
"-55.67","49.92","LA SCIE","8402520","2019-04-08 21:30","2019","04","08","21:30","-8.4","","-11.4","","79","","0.0","","29","","20","","","","98.61","","","","-16","","NA"
"-55.67","49.92","LA SCIE","8402520","2019-04-08 22:30","2019","04","08","22:30","-8.5","","-11.4","","80","","0.0","","29","","19","","","","98.58","","","","-16","","NA"
"-55.67","49.92","LA SCIE","8402520","2019-04-08 23:30","2019","04","08","23:30","-8.4","","-11.6","","78","","0.0","","29","","18","","","","98.51","","","","-15","","NA"
"-55.67","49.92","LA SCIE","8402520","2019-04-09 00:30","2019","04","09","00:30","-8.1","","-11.5","","77","","0.0","","30","","19","","","","98.45","","","","-15","","NA"
"-55.67","49.92","LA SCIE","8402520","2019-04-09 01:30","2019","04","09","01:30","-8.4","","-11.5","","78","","0.0","","30","","17","","","","98.36","","","","-15","","NA"
"-55.67","49.92","LA SCIE","8402520","2019-04-09 02:30","2019","04","09","02:30","-8.8","","-11.5","","80","","0.0","","29","","19","","","","98.30","","","","-16","","NA"
"-55.67","49.92","LA SCIE","8402520","2019-04-09 03:30","2019","04","09","03:30","-9.0","","-11.7","","80","","0.0","","29","","21","","","","98.20","","","","-17","","NA"
"-55.67","49.92","LA SCIE","8402520","2019-04-09 04:30","2019","04","09","04:30","-9.2","","-12.1","","79","","0.0","","29","","21","","","","98.13","","","","-17","","NA"
"-55.67","49.92","LA SCIE","8402520","2019-04-09 05:30","2019","04","09","05:30","-9.5","","-12.5","","79","","0.0","","29","","18","","","","98.04","","","","-17","","NA"
"-55.67","49.92","LA SCIE","8402520","2019-04-09 06:30","2019","04","09","06:30","-8.8","","-12.6","","74","","0.0","","29","","18","","","","97.94","","","","-16","","NA"
"-55.67","49.92","LA SCIE","8402520","2019-04-09 07:30","2019","04","09","07:30","-7.0","","-12.2","","66","","0.0","","28","","22","","","","97.80","","","","-14","","NA"
"-55.67","49.92","LA SCIE","8402520","2019-04-09 08:30","2019","04","09","08:30","-5.0","","-12.4","","56","","0.0","","29","","27","","","","97.72","","","","-13","","NA"
"-55.67","49.92","LA SCIE","8402520","2019-04-09 09:30","2019","04","09","09:30","-3.2","","-12.1","","50","","0.0","","29","","26","","","","97.65","","","","-10","","NA"
"-55.67","49.92","LA SCIE","8402520","2019-04-09 10:30","2019","04","09","10:30","-2.1","","-11.8","","48","","0.0","","29","","29","","","","97.57","","","","-9","","NA"
"-55.67","49.92","LA SCIE","8402520","2019-04-09 11:30","2019","04","09","11:30","-1.0","","-11.5","","45","","0.0","","28","","30","","","","97.44","","","","-8","","NA"
"-55.67","49.92","LA SCIE","8402520","2019-04-09 12:30","2019","04","09","12:30","-0.3","","-10.9","","45","","0.0","","28","","27","","","","97.33","","","","-7","","NA"
"-55.67","49.92","LA SCIE","8402520","2019-04-09 13:30","2019","04","09","13:30","0.8","","-9.3","","47","","0.0","","29","","29","","","","97.26","","","","","","NA"
"-55.67","49.92","LA SCIE","8402520","2019-04-09 14:30","2019","04","09","14:30","1.0","","-8.1","","51","","0.0","","30","","27","","","","97.29","","","","","","NA"
"-55.67","49.92","LA SCIE","8402520","2019-04-09 15:30","2019","04","09","15:30","-1.4","","-7.6","","63","","0.0","","30","","26","","","","97.29","","","","-8","","NA"
"-55.67","49.92","LA SCIE","8402520","2019-04-09 16:30","2019","04","09","16:30","-2.0","","-6.5","","71","","0.0","","30","","20","","","","97.34","","","","-8","","NA"
"-55.67","49.92","LA SCIE","8402520","2019-04-09 17:30","2019","04","09","17:30","-2.5","","-6.5","","74","","0.0","","29","","23","","","","97.33","","","","-9","","NA"
"-55.67","49.92","LA SCIE","8402520","2019-04-09 18:30","2019","04","09","18:30","-2.2","","-6.2","","74","","0.0","","30","","20","","","","97.35","","","","-8","","NA"
"-55.67","49.92","LA SCIE","8402520","2019-04-09 19:30","2019","04","09","19:30","-2.2","","-6.0","","75","","0.0","","29","","20","","","","97.37","","","","-8","","NA"
"-55.67","49.92","LA SCIE","8402520","2019-04-09 20:30","2019","04","09","20:30","-2.2","","-5.8","","77","","0.0","","29","","17","","","","97.40","","","","-8","","NA"
"-55.67","49.92","LA SCIE","8402520","2019-04-09 21:30","2019","04","09","21:30","-2.0","","-5.4","","77","","0.0","","29","","18","","","","97.39","","","","-7","","NA"
"-55.67","49.92","LA SCIE","8402520","2019-04-09 22:30","2019","04","09","22:30","-1.9","","-5.1","","79","","0.0","","29","","20","","","","97.34","","","","-8","","NA"
"-55.67","49.92","LA SCIE","8402520","2019-04-09 23:30","2019","04","09","23:30","-1.8","","-4.9","","79","","0.0","","29","","19","","","","97.30","","","","-7","","NA"
"-55.67","49.92","LA SCIE","8402520","2019-04-10 00:30","2019","04","10","00:30","-1.4","","-4.3","","81","","0.0","","29","","19","","","","97.32","","","","-7","","NA"
"-55.67","49.92","LA SCIE","8402520","2019-04-10 01:30","2019","04","10","01:30","-0.2","","-3.2","","80","","0.0","","30","","23","","","","97.29","","","","-6","","NA"
"-55.67","49.92","LA SCIE","8402520","2019-04-10 02:30","2019","04","10","02:30","0.0","","-2.9","","81","","0.0","","30","","21","","","","97.29","","","","-5","","NA"
"-55.67","49.92","LA SCIE","8402520","2019-04-10 03:30","2019","04","10","03:30","0.1","","-2.6","","82","","0.0","","30","","21","","","","97.24","","","","","","NA"
"-55.67","49.92","LA SCIE","8402520","2019-04-10 04:30","2019","04","10","04:30","-0.3","","-2.4","","86","","0.0","","30","","19","","","","97.23","","","","-5","","NA"
"-55.67","49.92","LA SCIE","8402520","2019-04-10 05:30","2019","04","10","05:30","-0.1","","-2.3","","85","","0.0","","31","","18","","","","97.21","","","","-5","","NA"
"-55.67","49.92","LA SCIE","8402520","2019-04-10 06:30","2019","04","10","06:30","-0.6","","-1.8","","92","","0.0","","31","","22","","","","97.21","","","","-6","","NA"
"-55.67","49.92","LA SCIE","8402520","2019-04-10 07:30","2019","04","10","07:30","-0.4","","-1.6","","92","","0.2","","31","","20","","","","97.25","","","","-6","","NA"
"-55.67","49.92","LA SCIE","8402520","2019-04-10 08:30","2019","04","10","08:30","-0.1","","-3.0","","81","","0.0","","32","","24","","","","97.22","","","","-6","","NA"
"-55.67","49.92","LA SCIE","8402520","2019-04-10 09:30","2019","04","10","09:30","1.0","","-4.0","","69","","0.0","","32","","24","","","","97.22","","","","","","NA"
"-55.67","49.92","LA SCIE","8402520","2019-04-10 10:30","2019","04","10","10:30","1.1","","-4.0","","69","","0.0","","32","","25","","","","97.26","","","","","","NA"
"-55.67","49.92","LA SCIE","8402520","2019-04-10 11:30","2019","04","10","11:30","1.9","","-3.9","","65","","0.0","","32","","26","","","","97.21","","","","","","NA"
"-55.67","49.92","LA SCIE","8402520","2019-04-10 12:30","2019","04","10","12:30","2.3","","-3.7","","65","","0.0","","32","","27","","","","97.16","","","","","","NA"
"-55.67","49.92","LA SCIE","8402520","2019-04-10 13:30","2019","04","10","13:30","2.7","","-3.4","","64","","0.0","","32","","24","","","","97.15","","","","","","NA"
"-55.67","49.92","LA SCIE","8402520","2019-04-10 14:30","2019","04","10","14:30","2.5","","-3.2","","66","","0.0","","32","","22","","","","97.17","","","","","","NA"
"-55.67","49.92","LA SCIE","8402520","2019-04-10 15:30","2019","04","10","15:30","2.8","","-2.9","","66","","0.0","","32","","20","","","","97.17","","","","","","NA"
"-55.67","49.92","LA SCIE","8402520","2019-04-10 16:30","2019","04","10","16:30","1.7","","-3.0","","71","","0.0","","32","","19","","","","97.17","","","","","","NA"
"-55.67","49.92","LA SCIE","8402520","2019-04-10 17:30","2019","04","10","17:30","1.0","","-2.8","","76","","0.0","","32","","21","","","","97.17","","","","","","NA"
"-55.67","49.92","LA SCIE","8402520","2019-04-10 18:30","2019","04","10","18:30","0.6","","-2.5","","80","","0.0","","32","","22","","","","97.18","","","","","","NA"
"-55.67","49.92","LA SCIE","8402520","2019-04-10 19:30","2019","04","10","19:30","-0.1","","-1.9","","88","","0.0","","32","","21","","","","97.21","","","","-6","","NA"
"-55.67","49.92","LA SCIE","8402520","2019-04-10 20:30","2019","04","10","20:30","-0.5","","-1.5","","93","","0.0","","33","","17","","","","97.25","","","","-5","","NA"
"-55.67","49.92","LA SCIE","8402520","2019-04-10 21:30","2019","04","10","21:30","-0.5","","-1.5","","93","","0.0","","33","","17","","","","97.30","","","","-5","","NA"
"-55.67","49.92","LA SCIE","8402520","2019-04-10 22:30","2019","04","10","22:30","-0.4","","-0.9","","97","","0.3","","32","","17","","","","97.30","","","","-5","","NA"
"-55.67","49.92","LA SCIE","8402520","2019-04-10 23:30","2019","04","10","23:30","-1.0","","-1.2","","98","","1.1","","33","","19","","","","97.29","","","","-6","","NA"
"-55.67","49.92","LA SCIE","8402520","2019-04-11 00:30","2019","04","11","00:30","-1.5","","-1.6","","99","","0.9","","33","","17","","","","97.32","","","","-7","","NA"
"-55.67","49.92","LA SCIE","8402520","2019-04-11 01:30","2019","04","11","01:30","-1.7","","-1.9","","99","","0.6","","33","","18","","","","97.34","","","","-7","","NA"
"-55.67","49.92","LA SCIE","8402520","2019-04-11 02:30","2019","04","11","02:30","-1.9","","-2.1","","99","","0.0","","32","","17","","","","97.34","","","","-7","","NA"
"-55.67","49.92","LA SCIE","8402520","2019-04-11 03:30","2019","04","11","03:30","-1.9","","-2.0","","99","","0.0","","33","","20","","","","97.32","","","","-8","","NA"
"-55.67","49.92","LA SCIE","8402520","2019-04-11 04:30","2019","04","11","04:30","-2.0","","-2.2","","98","","0.0","","33","","23","","","","97.38","","","","-8","","NA"
"-55.67","49.92","LA SCIE","8402520","2019-04-11 05:30","2019","04","11","05:30","-2.2","","-2.5","","98","","0.0","","32","","19","","","","97.44","","","","-8","","NA"
"-55.67","49.92","LA SCIE","8402520","2019-04-11 06:30","2019","04","11","06:30","-2.4","","-2.6","","98","","1.3","","32","","20","","","","97.50","","","","-8","","NA"
"-55.67","49.92","LA SCIE","8402520","2019-04-11 07:30","2019","04","11","07:30","-2.1","","-2.4","","98","","1.1","","32","","19","","","","97.55","","","","-8","","NA"
"-55.67","49.92","LA SCIE","8402520","2019-04-11 08:30","2019","04","11","08:30","-2.2","","-2.5","","98","","1.2","","32","","19","","","","97.59","","","","-8","","NA"
"-55.67","49.92","LA SCIE","8402520","2019-04-11 09:30","2019","04","11","09:30","-2.1","","-2.3","","98","","1.7","","32","","24","","","","97.62","","","","-8","","NA"
"-55.67","49.92","LA SCIE","8402520","2019-04-11 10:30","2019","04","11","10:30","-1.9","","-2.1","","98","","1.1","","32","","22","","","","97.68","","","","-8","","NA"
"-55.67","49.92","LA SCIE","8402520","2019-04-11 11:30","2019","04","11","11:30","-1.3","","-1.7","","97","","0.6","","32","","23","","","","97.71","","","","-7","","NA"
"-55.67","49.92","LA SCIE","8402520","2019-04-11 12:30","2019","04","11","12:30","-1.3","","-1.7","","97","","0.2","","32","","23","","","","97.74","","","","-7","","NA"
"-55.67","49.92","LA SCIE","8402520","2019-04-11 13:30","2019","04","11","13:30","-0.6","","-1.5","","94","","0.0","","32","","19","","","","97.81","","","","-6","","NA"
"-55.67","49.92","LA SCIE","8402520","2019-04-11 14:30","2019","04","11","14:30","0.0","","-1.6","","89","","0.0","","32","","20","","","","97.88","","","","-5","","NA"
"-55.67","49.92","LA SCIE","8402520","2019-04-11 15:30","2019","04","11","15:30","0.0","","-1.5","","89","","0.0","","33","","19","","","","97.96","","","","-5","","NA"
"-55.67","49.92","LA SCIE","8402520","2019-04-11 16:30","2019","04","11","16:30","-0.1","","-1.4","","91","","0.0","","34","","18","","","","98.04","","","","-5","","NA"
"-55.67","49.92","LA SCIE","8402520","2019-04-11 17:30","2019","04","11","17:30","-0.7","","-1.9","","91","","0.0","","33","","20","","","","98.14","","","","-6","","NA"
"-55.67","49.92","LA SCIE","8402520","2019-04-11 18:30","2019","04","11","18:30","-1.0","","-2.2","","92","","0.2","","33","","25","","","","98.24","","","","-7","","NA"
"-55.67","49.92","LA SCIE","8402520","2019-04-11 19:30","2019","04","11","19:30","-1.4","","-2.6","","92","","0.0","","33","","25","","","","98.35","","","","-8","","NA"
"-55.67","49.92","LA SCIE","8402520","2019-04-11 20:30","2019","04","11","20:30","-1.8","","-3.0","","91","","0.0","","33","","25","","","","98.42","","","","-8","","NA"
"-55.67","49.92","LA SCIE","8402520","2019-04-11 21:30","2019","04","11","21:30","-1.6","","-3.1","","89","","0.0","","33","","22","","","","98.53","","","","-8","","NA"
"-55.67","49.92","LA SCIE","8402520","2019-04-11 22:30","2019","04","11","22:30","-1.8","","-3.1","","91","","0.0","","33","","19","","","","98.58","","","","-7","","NA"
"-55.67","49.92","LA SCIE","8402520","2019-04-11 23:30","2019","04","11","23:30","-1.9","","-2.9","","93","","0.0","","33","","18","","","","98.64","","","","-7","","NA"
"-55.67","49.92","LA SCIE","8402520","2019-04-12 00:30","2019","04","12","00:30","-2.0","","-3.2","","92","","0.0","","33","","16","","","","98.68","","","","-7","","NA"
"-55.67","49.92","LA SCIE","8402520","2019-04-12 01:30","2019","04","12","01:30","-2.2","","-4.2","","86","","0.0","","32","","18","","","","98.66","","","","-8","","NA"
"-55.67","49.92","LA SCIE","8402520","2019-04-12 02:30","2019","04","12","02:30","-2.6","","-4.4","","87","","0.0","","32","","19","","","","98.73","","","","-8","","NA"
"-55.67","49.92","LA SCIE","8402520","2019-04-12 03:30","2019","04","12","03:30","-2.8","","-4.7","","87","","0.0","","32","","19","","","","98.76","","","","-9","","NA"
"-55.67","49.92","LA SCIE","8402520","2019-04-12 04:30","2019","04","12","04:30","-2.9","","-4.8","","87","","0.0","","30","","12","","","","98.85","","","","-7","","NA"
"-55.67","49.92","LA SCIE","8402520","2019-04-12 05:30","2019","04","12","05:30","-2.9","","-4.9","","86","","0.0","","32","","19","","","","98.89","","","","-9","","NA"
"-55.67","49.92","LA SCIE","8402520","2019-04-12 06:30","2019","04","12","06:30","-3.2","","-5.4","","85","","0.0","","32","","17","","","","98.93","","","","-9","","NA"
"-55.67","49.92","LA SCIE","8402520","2019-04-12 07:30","2019","04","12","07:30","-3.4","","-7.5","","73","","0.0","","32","","29","","","","98.90","","","","-11","","NA"
"-55.67","49.92","LA SCIE","8402520","2019-04-12 08:30","2019","04","12","08:30","-3.5","","-9.3","","64","","0.0","","32","","24","","","","98.91","","","","-10","","NA"
"-55.67","49.92","LA SCIE","8402520","2019-04-12 09:30","2019","04","12","09:30","-2.8","","-9.3","","61","","0.0","","32","","25","","","","98.93","","","","-10","","NA"
"-55.67","49.92","LA SCIE","8402520","2019-04-12 10:30","2019","04","12","10:30","-2.2","","-8.6","","61","","0.0","","32","","24","","","","98.97","","","","-9","","NA"
"-55.67","49.92","LA SCIE","8402520","2019-04-12 11:30","2019","04","12","11:30","-1.0","","-9.5","","53","","0.0","","32","","18","","","","98.99","","","","-6","","NA"
"-55.67","49.92","LA SCIE","8402520","2019-04-12 12:30","2019","04","12","12:30","0.1","","-10.0","","46","","0.0","","31","","20","","","","98.93","","","","","","NA"
"-55.67","49.92","LA SCIE","8402520","2019-04-12 13:30","2019","04","12","13:30","1.3","","-9.7","","44","","0.0","","30","","18","","","","98.89","","","","","","NA"
"-55.67","49.92","LA SCIE","8402520","2019-04-12 14:30","2019","04","12","14:30","1.5","","-11.9","","36","","0.0","","32","","21","","","","98.87","","","","","","NA"
"-55.67","49.92","LA SCIE","8402520","2019-04-12 15:30","2019","04","12","15:30","0.9","","-10.8","","41","","0.0","","32","","21","","","","98.88","","","","","","NA"
"-55.67","49.92","LA SCIE","8402520","2019-04-12 16:30","2019","04","12","16:30","0.6","","-10.8","","42","","0.0","","32","","23","","","","98.94","","","","","","NA"
"-55.67","49.92","LA SCIE","8402520","2019-04-12 17:30","2019","04","12","17:30","-0.2","","-9.7","","49","","0.0","","30","","18","","","","98.98","","","","-5","","NA"
"-55.67","49.92","LA SCIE","8402520","2019-04-12 18:30","2019","04","12","18:30","-0.8","","-10.0","","50","","0.0","","30","","17","","","","98.99","","","","-6","","NA"
"-55.67","49.92","LA SCIE","8402520","2019-04-12 19:30","2019","04","12","19:30","-1.7","","-9.6","","55","","0.0","","30","","14","","","","99.01","","","","-6","","NA"
"-55.67","49.92","LA SCIE","8402520","2019-04-12 20:30","2019","04","12","20:30","-2.2","","-9.1","","59","","0.0","","30","","15","","","","99.10","","","","-7","","NA"
"-55.67","49.92","LA SCIE","8402520","2019-04-12 21:30","2019","04","12","21:30","-1.5","","-8.8","","58","","0.0","","31","","17","","","","99.12","","","","-7","","NA"
"-55.67","49.92","LA SCIE","8402520","2019-04-12 22:30","2019","04","12","22:30","-2.1","","-8.6","","61","","0.0","","32","","16","","","","99.07","","","","-7","","NA"
"-55.67","49.92","LA SCIE","8402520","2019-04-12 23:30","2019","04","12","23:30","-3.2","","-8.2","","69","","0.0","","29","","14","","","","99.16","","","","-8","","NA"
"-55.67","49.92","LA SCIE","8402520","2019-04-13 00:30","2019","04","13","00:30","-3.9","","-7.8","","74","","0.0","","29","","10","","","","99.17","","","","-8","","NA"
"-55.67","49.92","LA SCIE","8402520","2019-04-13 01:30","2019","04","13","01:30","-4.1","","-8.0","","74","","0.0","","32","","8","","","","99.13","","","","-8","","NA"
"-55.67","49.92","LA SCIE","8402520","2019-04-13 02:30","2019","04","13","02:30","-4.6","","-8.3","","75","","0.0","","29","","11","","","","99.18","","","","-9","","NA"
"-55.67","49.92","LA SCIE","8402520","2019-04-13 03:30","2019","04","13","03:30","-5.0","","-8.4","","77","","0.0","","29","","9","","","","99.16","","","","-9","","NA"
"-55.67","49.92","LA SCIE","8402520","2019-04-13 04:30","2019","04","13","04:30","-3.7","","-8.6","","69","","0.0","","28","","11","","","","99.16","","","","-8","","NA"
"-55.67","49.92","LA SCIE","8402520","2019-04-13 05:30","2019","04","13","05:30","-4.2","","-8.8","","70","","0.2","","30","","5","","","","99.20","","","","-6","","NA"
"-55.67","49.92","LA SCIE","8402520","2019-04-13 06:30","2019","04","13","06:30","-2.8","","-8.4","","65","","0.0","","27","","10","","","","99.27","","","","-7","","NA"
"-55.67","49.92","LA SCIE","8402520","2019-04-13 07:30","2019","04","13","07:30","-2.0","","-8.1","","63","","0.0","","29","","9","","","","99.23","","","","-5","","NA"
"-55.67","49.92","LA SCIE","8402520","2019-04-13 08:30","2019","04","13","08:30","-1.2","","-8.1","","59","","0.0","","26","","12","","","","99.17","","","","-5","","NA"
"-55.67","49.92","LA SCIE","8402520","2019-04-13 09:30","2019","04","13","09:30","1.0","","-8.3","","50","","0.0","","27","","10","","","","99.17","","","","","","NA"
"-55.67","49.92","LA SCIE","8402520","2019-04-13 10:30","2019","04","13","10:30","3.6","","-9.5","","38","","0.0","","29","","13","","","","99.11","","","","","","NA"
"-55.67","49.92","LA SCIE","8402520","2019-04-13 11:30","2019","04","13","11:30","4.2","","-9.4","","36","","0.0","","31","","10","","","","99.06","","","","","","NA"
"-55.67","49.92","LA SCIE","8402520","2019-04-13 12:30","2019","04","13","12:30","4.9","","-10.2","","33","","0.0","","29","","12","","","","99.02","","","","","","NA"
"-55.67","49.92","LA SCIE","8402520","2019-04-13 13:30","2019","04","13","13:30","5.2","","-9.6","","33","","0.0","","32","","7","","","","98.94","","","","","","NA"
"-55.67","49.92","LA SCIE","8402520","2019-04-13 14:30","2019","04","13","14:30","5.1","","-8.8","","36","","0.0","","25","","5","","","","98.85","","","","","","NA"
"-55.67","49.92","LA SCIE","8402520","2019-04-13 15:30","2019","04","13","15:30","5.2","","-8.9","","35","","0.0","","29","","9","","","","98.81","","","","","","NA"
"-55.67","49.92","LA SCIE","8402520","2019-04-13 16:30","2019","04","13","16:30","4.2","","-8.3","","40","","0.0","","31","","3","","","","98.73","","","","","","NA"
"-55.67","49.92","LA SCIE","8402520","2019-04-13 17:30","2019","04","13","17:30","4.0","","-7.5","","43","","0.0","","34","","3","","","","98.68","","","","","","NA"
"-55.67","49.92","LA SCIE","8402520","2019-04-13 18:30","2019","04","13","18:30","3.3","","-6.6","","48","","0.0","","11","","4","","","","98.54","","","","","","NA"
"-55.67","49.92","LA SCIE","8402520","2019-04-13 19:30","2019","04","13","19:30","2.2","","-5.7","","56","","0.0","","11","","3","","","","98.44","","","","","","NA"
"-55.67","49.92","LA SCIE","8402520","2019-04-13 20:30","2019","04","13","20:30","1.7","","-5.6","","58","","0.0","","17","","7","","","","98.42","","","","","","NA"
"-55.67","49.92","LA SCIE","8402520","2019-04-13 21:30","2019","04","13","21:30","1.2","","-5.3","","62","","0.0","","15","","8","","","","98.30","","","","","","NA"
"-55.67","49.92","LA SCIE","8402520","2019-04-13 22:30","2019","04","13","22:30","1.3","","-4.7","","64","","0.0","","20","","9","","","","98.15","","","","","","NA"
"-55.67","49.92","LA SCIE","8402520","2019-04-13 23:30","2019","04","13","23:30","1.1","","-4.4","","66","","0.7","","21","","13","","","","98.03","","","","","","NA"
"-55.67","49.92","LA SCIE","8402520","2019-04-14 00:30","2019","04","14","00:30","0.9","","-4.0","","70","","0.0","","21","","7","","","","97.94","","","","","","NA"
"-55.67","49.92","LA SCIE","8402520","2019-04-14 01:30","2019","04","14","01:30","0.7","","-3.6","","73","","0.0","","20","","7","","","","97.76","","","","","","NA"
"-55.67","49.92","LA SCIE","8402520","2019-04-14 02:30","2019","04","14","02:30","0.7","","-3.2","","76","","0.0","","22","","7","","","","97.70","","","","","","NA"
"-55.67","49.92","LA SCIE","8402520","2019-04-14 03:30","2019","04","14","03:30","0.8","","-1.9","","82","","0.0","","23","","9","","","","97.66","","","","","","NA"
"-55.67","49.92","LA SCIE","8402520","2019-04-14 04:30","2019","04","14","04:30","1.0","","-0.9","","88","","0.0","","24","","9","","","","97.56","","","","","","NA"
"-55.67","49.92","LA SCIE","8402520","2019-04-14 05:30","2019","04","14","05:30","0.6","","-0.9","","90","","0.0","","24","","6","","","","97.49","","","","","","NA"
"-55.67","49.92","LA SCIE","8402520","2019-04-14 06:30","2019","04","14","06:30","0.6","","-0.4","","93","","0.0","","22","","6","","","","97.44","","","","","","NA"
"-55.67","49.92","LA SCIE","8402520","2019-04-14 07:30","2019","04","14","07:30","1.3","","0.0","","91","","0.0","","26","","6","","","","97.47","","","","","","NA"
"-55.67","49.92","LA SCIE","8402520","2019-04-14 08:30","2019","04","14","08:30","2.4","","1.0","","90","","0.2","","27","","8","","","","97.41","","","","","","NA"
"-55.67","49.92","LA SCIE","8402520","2019-04-14 09:30","2019","04","14","09:30","4.0","","1.0","","81","","0.2","","27","","19","","","","97.39","","","","","","NA"
"-55.67","49.92","LA SCIE","8402520","2019-04-14 10:30","2019","04","14","10:30","4.3","","-0.3","","72","","0.0","","28","","18","","","","97.38","","","","","","NA"
"-55.67","49.92","LA SCIE","8402520","2019-04-14 11:30","2019","04","14","11:30","3.1","","-0.8","","76","","0.0","","29","","18","","","","97.40","","","","","","NA"
"-55.67","49.92","LA SCIE","8402520","2019-04-14 12:30","2019","04","14","12:30","3.4","","-2.4","","65","","0.0","","32","","21","","","","97.38","","","","","","NA"
"-55.67","49.92","LA SCIE","8402520","2019-04-14 13:30","2019","04","14","13:30","3.3","","-2.6","","65","","0.0","","34","","19","","","","97.46","","","","","","NA"
"-55.67","49.92","LA SCIE","8402520","2019-04-14 14:30","2019","04","14","14:30","2.5","","-2.5","","69","","0.0","","33","","17","","","","97.63","","","","","","NA"
"-55.67","49.92","LA SCIE","8402520","2019-04-14 15:30","2019","04","14","15:30","1.2","","-2.3","","78","","0.0","","33","","21","","","","97.76","","","","","","NA"
"-55.67","49.92","LA SCIE","8402520","2019-04-14 16:30","2019","04","14","16:30","0.3","","-2.3","","83","","0.0","","33","","16","","","","97.90","","","","","","NA"
"-55.67","49.92","LA SCIE","8402520","2019-04-14 17:30","2019","04","14","17:30","0.2","","-2.2","","84","","0.0","","35","","12","","","","98.02","","","","","","NA"
"-55.67","49.92","LA SCIE","8402520","2019-04-14 18:30","2019","04","14","18:30","-0.7","","-3.1","","84","","0.0","","35","","9","","","","98.16","","","","-4","","NA"
"-55.67","49.92","LA SCIE","8402520","2019-04-14 19:30","2019","04","14","19:30","-0.9","","-3.0","","86","","0.0","","36","","9","","","","98.26","","","","-4","","NA"
"-55.67","49.92","LA SCIE","8402520","2019-04-14 20:30","2019","04","14","20:30","-1.1","","-3.1","","86","","0.0","","29","","6","","","","98.34","","","","-3","","NA"
"-55.67","49.92","LA SCIE","8402520","2019-04-14 21:30","2019","04","14","21:30","-1.1","","-3.5","","84","","0.0","","23","","5","","","","98.42","","","","-3","","NA"
"-55.67","49.92","LA SCIE","8402520","2019-04-14 22:30","2019","04","14","22:30","-1.0","","-3.9","","81","","0.0","","22","","6","","","","98.47","","","","-3","","NA"
"-55.67","49.92","LA SCIE","8402520","2019-04-14 23:30","2019","04","14","23:30","-0.8","","-3.9","","79","","0.0","","17","","3","","","","98.51","","","","-2","","NA"
"-55.67","49.92","LA SCIE","8402520","2019-04-15 00:30","2019","04","15","00:30","-0.9","","-3.7","","81","","0.0","","16","","4","","","","98.54","","","","-2","","NA"
"-55.67","49.92","LA SCIE","8402520","2019-04-15 01:30","2019","04","15","01:30","-1.2","","-3.0","","87","","0.0","","19","","7","","","","98.54","","","","-4","","NA"
"-55.67","49.92","LA SCIE","8402520","2019-04-15 02:30","2019","04","15","02:30","-1.8","","-3.5","","88","","0.0","","16","","6","","","","98.59","","","","-4","","NA"
"-55.67","49.92","LA SCIE","8402520","2019-04-15 03:30","2019","04","15","03:30","-2.1","","-3.4","","91","","0.3","","18","","8","","","","98.65","","","","-5","","NA"
"-55.67","49.92","LA SCIE","8402520","2019-04-15 04:30","2019","04","15","04:30","-2.0","","-3.0","","93","","0.0","","25","","8","","","","98.71","","","","-5","","NA"
"-55.67","49.92","LA SCIE","8402520","2019-04-15 05:30","2019","04","15","05:30","-0.9","","-2.1","","92","","0.2","","27","","5","","","","98.71","","","","-3","","NA"
"-55.67","49.92","LA SCIE","8402520","2019-04-15 06:30","2019","04","15","06:30","0.5","","-1.7","","85","","0.5","","28","","6","","","","98.76","","","","","","NA"
"-55.67","49.92","LA SCIE","8402520","2019-04-15 07:30","2019","04","15","07:30","2.2","","-1.7","","75","","0.4","","31","","6","","","","98.81","","","","","","NA"
"-55.67","49.92","LA SCIE","8402520","2019-04-15 08:30","2019","04","15","08:30","4.8","","-1.6","","63","","0.0","","3","","3","","","","98.84","","","","","","NA"
"-55.67","49.92","LA SCIE","8402520","2019-04-15 09:30","2019","04","15","09:30","5.6","","-2.1","","58","","0.0","","13","","8","","","","98.80","","","","","","NA"
"-55.67","49.92","LA SCIE","8402520","2019-04-15 10:30","2019","04","15","10:30","5.9","","-2.9","","53","","0.0","","13","","9","","","","98.79","","","","","","NA"
"-55.67","49.92","LA SCIE","8402520","2019-04-15 11:30","2019","04","15","11:30","5.0","","-2.5","","58","","0.0","","13","","9","","","","98.78","","","","","","NA"
"-55.67","49.92","LA SCIE","8402520","2019-04-15 12:30","2019","04","15","12:30","4.5","","-2.5","","60","","0.0","","13","","11","","","","98.78","","","","","","NA"
"-55.67","49.92","LA SCIE","8402520","2019-04-15 13:30","2019","04","15","13:30","5.6","","-2.8","","55","","0.0","","13","","12","","","","98.76","","","","","","NA"
"-55.67","49.92","LA SCIE","8402520","2019-04-15 14:30","2019","04","15","14:30","5.0","","-2.7","","57","","0.0","","11","","11","","","","98.60","","","","","","NA"
"-55.67","49.92","LA SCIE","8402520","2019-04-15 15:30","2019","04","15","15:30","3.7","","-2.3","","64","","0.0","","10","","12","","","","98.52","","","","","","NA"
"-55.67","49.92","LA SCIE","8402520","2019-04-15 16:30","2019","04","15","16:30","1.5","","-1.7","","79","","0.0","","11","","16","","","","98.50","","","","","","NA"
"-55.67","49.92","LA SCIE","8402520","2019-04-15 17:30","2019","04","15","17:30","0.8","","-1.1","","88","","0.0","","10","","14","","","","98.55","","","","","","NA"
"-55.67","49.92","LA SCIE","8402520","2019-04-15 18:30","2019","04","15","18:30","0.1","","-0.4","","96","","0.5","","11","","19","","","","98.44","","","","","","NA"
"-55.67","49.92","LA SCIE","8402520","2019-04-15 19:30","2019","04","15","19:30","-0.3","","-0.6","","98","","1.9","","12","","22","","","","98.36","","","","-6","","NA"
"-55.67","49.92","LA SCIE","8402520","2019-04-15 20:30","2019","04","15","20:30","-0.6","","-0.8","","99","","2.7","","12","","19","","","","98.28","","","","-6","","NA"
"-55.67","49.92","LA SCIE","8402520","2019-04-15 21:30","2019","04","15","21:30","-1.0","","-1.1","","99","","2.6","","13","","18","","","","98.19","","","","-6","","NA"
"-55.67","49.92","LA SCIE","8402520","2019-04-15 22:30","2019","04","15","22:30","-0.8","","-0.9","","99","","2.3","","12","","25","","","","97.89","","","","-7","","NA"
"-55.67","49.92","LA SCIE","8402520","2019-04-15 23:30","2019","04","15","23:30","-1.2","","-1.2","","100","","1.4","","12","","30","","","","97.59","","","","-8","","NA"
"-55.67","49.92","LA SCIE","8402520","2019-04-16 00:30","2019","04","16","00:30","-1.4","","-1.5","","100","","3.3","","12","","23","","","","97.60","","","","-7","","NA"
"-55.67","49.92","LA SCIE","8402520","2019-04-16 01:30","2019","04","16","01:30","-1.8","","-1.9","","100","","2.1","","12","","34","","","","97.34","","","","-9","","NA"
"-55.67","49.92","LA SCIE","8402520","2019-04-16 02:30","2019","04","16","02:30","-2.1","","-2.2","","99","","1.0","","12","","35","","","","97.17","","","","-10","","NA"
"-55.67","49.92","LA SCIE","8402520","2019-04-16 03:30","2019","04","16","03:30","-2.3","","-2.4","","99","","0.7","","11","","30","","","","97.10","","","","-9","","NA"
"-55.67","49.92","LA SCIE","8402520","2019-04-16 04:30","2019","04","16","04:30","-2.6","","-2.7","","99","","0.6","","11","","30","","","","96.98","","","","-10","","NA"
"-55.67","49.92","LA SCIE","8402520","2019-04-16 05:30","2019","04","16","05:30","-2.8","","-3.0","","99","","0.6","","11","","32","","","","96.88","","","","-10","","NA"
"-55.67","49.92","LA SCIE","8402520","2019-04-16 06:30","2019","04","16","06:30","-2.9","","-3.1","","99","","0.8","","10","","28","","","","96.79","","","","-10","","NA"
"-55.67","49.92","LA SCIE","8402520","2019-04-16 07:30","2019","04","16","07:30","-2.6","","-2.8","","99","","0.0","","11","","26","","","","96.67","","","","-9","","NA"
"-55.67","49.92","LA SCIE","8402520","2019-04-16 08:30","2019","04","16","08:30","-2.1","","-2.2","","99","","0.8","","11","","20","","","","96.62","","","","-8","","NA"
"-55.67","49.92","LA SCIE","8402520","2019-04-16 09:30","2019","04","16","09:30","-1.8","","-1.9","","99","","0.3","","10","","9","","","","96.53","","","","-5","","NA"
"-55.67","49.92","LA SCIE","8402520","2019-04-16 10:30","2019","04","16","10:30","-1.6","","-1.7","","99","","0.0","","10","","6","","","","96.43","","","","-4","","NA"
"-55.67","49.92","LA SCIE","8402520","2019-04-16 11:30","2019","04","16","11:30","-1.7","","-1.8","","99","","0.0","","11","","5","","","","96.30","","","","-4","","NA"
"-55.67","49.92","LA SCIE","8402520","2019-04-16 12:30","2019","04","16","12:30","-1.5","","-1.5","","99","","0.4","","9","","4","","","","96.21","","","","-3","","NA"
"-55.67","49.92","LA SCIE","8402520","2019-04-16 13:30","2019","04","16","13:30","-1.5","","-1.6","","99","","4.3","","","","","M","","","96.12","","","","","","NA"
"-55.67","49.92","LA SCIE","8402520","2019-04-16 14:30","2019","04","16","14:30","-1.5","","-1.6","","99","","0.0","","","","","M","","","96.06","","","","","","NA"
"-55.67","49.92","LA SCIE","8402520","2019-04-16 15:30","2019","04","16","15:30","-1.4","","-1.5","","99","","0.4","","","","","M","","","95.99","","","","","","NA"
"-55.67","49.92","LA SCIE","8402520","2019-04-16 16:30","2019","04","16","16:30","-1.6","","-1.6","","100","","0.0","","","","","M","","","95.94","","","","","","NA"
"-55.67","49.92","LA SCIE","8402520","2019-04-16 17:30","2019","04","16","17:30","-1.7","","-1.8","","100","","0.3","","","","","M","","","95.94","","","","","","NA"
"-55.67","49.92","LA SCIE","8402520","2019-04-16 18:30","2019","04","16","18:30","-1.7","","-1.7","","99","","0.2","","","","","M","","","95.92","","","","","","NA"
"-55.67","49.92","LA SCIE","8402520","2019-04-16 19:30","2019","04","16","19:30","-1.7","","-1.8","","100","","1.2","","","","","M","","","95.94","","","","","","NA"
"-55.67","49.92","LA SCIE","8402520","2019-04-16 20:30","2019","04","16","20:30","-1.7","","-1.8","","100","","1.7","","","","","M","","","95.95","","","","","","NA"
"-55.67","49.92","LA SCIE","8402520","2019-04-16 21:30","2019","04","16","21:30","-1.8","","-1.9","","100","","1.2","","","","","M","","","95.94","","","","","","NA"
"-55.67","49.92","LA SCIE","8402520","2019-04-16 22:30","2019","04","16","22:30","-1.9","","-2.0","","99","","2.3","","","","","M","","","95.95","","","","","","NA"
"-55.67","49.92","LA SCIE","8402520","2019-04-16 23:30","2019","04","16","23:30","-1.9","","-2.0","","99","","1.4","","","","","M","","","95.97","","","","","","NA"
"-55.67","49.92","LA SCIE","8402520","2019-04-17 00:30","2019","04","17","00:30","-2.0","","-2.1","","99","","1.6","","","","","M","","","96.00","","","","","","NA"
"-55.67","49.92","LA SCIE","8402520","2019-04-17 01:30","2019","04","17","01:30","-2.0","","-2.1","","99","","1.0","","","","","M","","","96.03","","","","","","NA"
"-55.67","49.92","LA SCIE","8402520","2019-04-17 02:30","2019","04","17","02:30","-1.9","","-2.0","","99","","1.3","","","","","M","","","96.10","","","","","","NA"
"-55.67","49.92","LA SCIE","8402520","2019-04-17 03:30","2019","04","17","03:30","-1.8","","-1.9","","99","","1.4","","","","","M","","","96.19","","","","","","NA"
"-55.67","49.92","LA SCIE","8402520","2019-04-17 04:30","2019","04","17","04:30","-1.6","","-1.7","","99","","1.4","","","","","M","","","96.29","","","","","","NA"
"-55.67","49.92","LA SCIE","8402520","2019-04-17 05:30","2019","04","17","05:30","-1.6","","-1.6","","100","","0.3","","","","","M","","","96.44","","","","","","NA"
"-55.67","49.92","LA SCIE","8402520","2019-04-17 06:30","2019","04","17","06:30","-1.5","","-1.6","","100","","0.8","","","","","M","","","96.56","","","","","","NA"
"-55.67","49.92","LA SCIE","8402520","2019-04-17 07:30","2019","04","17","07:30","-1.5","","-1.6","","100","","0.3","","","","","M","","","96.70","","","","","","NA"
"-55.67","49.92","LA SCIE","8402520","2019-04-17 08:30","2019","04","17","08:30","-1.6","","-1.6","","100","","0.4","","","","","M","","","96.84","","","","","","NA"
"-55.67","49.92","LA SCIE","8402520","2019-04-17 09:30","2019","04","17","09:30","-1.7","","-1.7","","100","","0.3","","","","","M","","","96.97","","","","","","NA"
"-55.67","49.92","LA SCIE","8402520","2019-04-17 10:30","2019","04","17","10:30","-1.9","","-2.0","","100","","0.6","","","","","M","","","97.03","","","","","","NA"
"-55.67","49.92","LA SCIE","8402520","2019-04-17 11:30","2019","04","17","11:30","-2.2","","-2.3","","99","","0.0","","","","","M","","","97.23","","","","","","NA"
"-55.67","49.92","LA SCIE","8402520","2019-04-17 12:30","2019","04","17","12:30","-2.2","","-2.3","","99","","0.0","","","","","M","","","97.37","","","","","","NA"
"-55.67","49.92","LA SCIE","8402520","2019-04-17 13:30","2019","04","17","13:30","-2.2","","-2.3","","99","","0.0","","","","","M","","","97.55","","","","","","NA"
"-55.67","49.92","LA SCIE","8402520","2019-04-17 14:30","2019","04","17","14:30","-2.4","","-2.5","","99","","0.2","","","","","M","","","97.70","","","","","","NA"
"-55.67","49.92","LA SCIE","8402520","2019-04-17 15:30","2019","04","17","15:30","-2.5","","-2.7","","99","","0.0","","","","","M","","","97.86","","","","","","NA"
"-55.67","49.92","LA SCIE","8402520","2019-04-17 16:30","2019","04","17","16:30","-2.6","","-2.8","","99","","0.0","","","","","M","","","98.01","","","","","","NA"
"-55.67","49.92","LA SCIE","8402520","2019-04-17 17:30","2019","04","17","17:30","-2.7","","-2.8","","99","","0.0","","","","","M","","","98.14","","","","","","NA"
"-55.67","49.92","LA SCIE","8402520","2019-04-17 18:30","2019","04","17","18:30","-2.8","","-3.0","","99","","0.0","","","","","M","","","98.27","","","","","","NA"
"-55.67","49.92","LA SCIE","8402520","2019-04-17 19:30","2019","04","17","19:30","-2.9","","-3.1","","98","","0.0","","","","","M","","","98.41","","","","","","NA"
"-55.67","49.92","LA SCIE","8402520","2019-04-17 20:30","2019","04","17","20:30","-3.0","","-3.3","","98","","0.0","","","","","M","","","98.55","","","","","","NA"
"-55.67","49.92","LA SCIE","8402520","2019-04-17 21:30","2019","04","17","21:30","-3.3","","-3.6","","98","","0.0","","","","","M","","","98.62","","","","","","NA"
"-55.67","49.92","LA SCIE","8402520","2019-04-17 22:30","2019","04","17","22:30","-3.3","","-3.6","","98","","0.0","","","","","M","","","98.66","","","","","","NA"
"-55.67","49.92","LA SCIE","8402520","2019-04-17 23:30","2019","04","17","23:30","-3.4","","-3.7","","98","","0.0","","","","","M","","","98.74","","","","","","NA"
"-55.67","49.92","LA SCIE","8402520","2019-04-18 00:30","2019","04","18","00:30","-3.4","","-3.7","","98","","0.0","","","","","M","","","98.78","","","","","","NA"
"-55.67","49.92","LA SCIE","8402520","2019-04-18 01:30","2019","04","18","01:30","-3.4","","-3.7","","98","","0.0","","34","","5","","","","98.81","","","","-5","","NA"
"-55.67","49.92","LA SCIE","8402520","2019-04-18 02:30","2019","04","18","02:30","-3.4","","-3.7","","98","","0.0","","34","","4","","","","98.93","","","","-5","","NA"
"-55.67","49.92","LA SCIE","8402520","2019-04-18 03:30","2019","04","18","03:30","-3.5","","-3.8","","97","","0.0","","34","","4","","","","99.00","","","","-5","","NA"
"-55.67","49.92","LA SCIE","8402520","2019-04-18 04:30","2019","04","18","04:30","-3.6","","-3.9","","97","","0.0","","33","","4","","","","99.08","","","","-5","","NA"
"-55.67","49.92","LA SCIE","8402520","2019-04-18 05:30","2019","04","18","05:30","-3.7","","-4.1","","97","","0.0","","34","","4","","","","99.20","","","","-5","","NA"
"-55.67","49.92","LA SCIE","8402520","2019-04-18 06:30","2019","04","18","06:30","-3.8","","-4.4","","95","","0.0","","34","","4","","","","99.33","","","","-5","","NA"
"-55.67","49.92","LA SCIE","8402520","2019-04-18 07:30","2019","04","18","07:30","-3.7","","-4.4","","95","","0.0","","35","","3","","","","99.43","","","","-5","","NA"
"-55.67","49.92","LA SCIE","8402520","2019-04-18 08:30","2019","04","18","08:30","-3.2","","-3.9","","95","","0.0","","35","","3","","","","99.48","","","","-4","","NA"
"-55.67","49.92","LA SCIE","8402520","2019-04-18 09:30","2019","04","18","09:30","-2.7","","-3.6","","94","","0.0","","33","","2","","","","99.53","","","","-3","","NA"
"-55.67","49.92","LA SCIE","8402520","2019-04-18 10:30","2019","04","18","10:30","-1.6","","-2.9","","91","","2.4","","35","","3","","","","99.59","","","","-3","","NA"
"-55.67","49.92","LA SCIE","8402520","2019-04-18 11:30","2019","04","18","11:30","-1.6","","-3.7","","86","","2.7","","32","","16","","","","99.62","","","","-7","","NA"
"-55.67","49.92","LA SCIE","8402520","2019-04-18 12:30","2019","04","18","12:30","-1.0","","-5.2","","73","","0.0","","33","","11","","","","99.64","","","","-5","","NA"
"-55.67","49.92","LA SCIE","8402520","2019-04-18 13:30","2019","04","18","13:30","-0.5","","-6.1","","66","","0.0","","33","","8","","","","99.66","","","","-3","","NA"
"-55.67","49.92","LA SCIE","8402520","2019-04-18 14:30","2019","04","18","14:30","0.1","","-6.0","","64","","0.0","","32","","7","","","","99.68","","","","","","NA"
"-55.67","49.92","LA SCIE","8402520","2019-04-18 15:30","2019","04","18","15:30","0.5","","-4.6","","69","","0.0","","33","","6","","","","99.70","","","","","","NA"
"-55.67","49.92","LA SCIE","8402520","2019-04-18 16:30","2019","04","18","16:30","0.6","","-4.4","","69","","0.0","","31","","7","","","","99.73","","","","","","NA"
"-55.67","49.92","LA SCIE","8402520","2019-04-18 17:30","2019","04","18","17:30","0.2","","-3.8","","74","","0.0","","32","","6","","","","99.74","","","","","","NA"
"-55.67","49.92","LA SCIE","8402520","2019-04-18 18:30","2019","04","18","18:30","-0.8","","-3.5","","82","","0.0","","19","","3","","","","99.78","","","","-2","","NA"
"-55.67","49.92","LA SCIE","8402520","2019-04-18 19:30","2019","04","18","19:30","-2.3","","-3.7","","90","","0.0","","21","","5","","","","99.82","","","","-4","","NA"
"-55.67","49.92","LA SCIE","8402520","2019-04-18 20:30","2019","04","18","20:30","-3.7","","-5.0","","91","","0.0","","26","","7","","","","99.86","","","","-7","","NA"
"-55.67","49.92","LA SCIE","8402520","2019-04-18 21:30","2019","04","18","21:30","-3.5","","-6.2","","82","","0.0","","27","","9","","","","99.86","","","","-7","","NA"
"-55.67","49.92","LA SCIE","8402520","2019-04-18 22:30","2019","04","18","22:30","-4.1","","-6.6","","83","","0.0","","24","","8","","","","99.83","","","","-8","","NA"
"-55.67","49.92","LA SCIE","8402520","2019-04-18 23:30","2019","04","18","23:30","-5.0","","-6.4","","90","","0.0","","22","","13","","","","99.82","","","","-10","","NA"
"-55.67","49.92","LA SCIE","8402520","2019-04-19 00:30","2019","04","19","00:30","-4.9","","-6.2","","91","","0.0","","21","","10","","","","99.77","","","","-9","","NA"
"-55.67","49.92","LA SCIE","8402520","2019-04-19 01:30","2019","04","19","01:30","-5.0","","-6.3","","91","","0.0","","21","","11","","","","99.71","","","","-10","","NA"
"-55.67","49.92","LA SCIE","8402520","2019-04-19 02:30","2019","04","19","02:30","-5.1","","-6.5","","90","","0.0","","21","","8","","","","99.66","","","","-9","","NA"
"-55.67","49.92","LA SCIE","8402520","2019-04-19 03:30","2019","04","19","03:30","-4.7","","-6.6","","86","","0.0","","24","","8","","","","99.64","","","","-8","","NA"
"-55.67","49.92","LA SCIE","8402520","2019-04-19 04:30","2019","04","19","04:30","-5.0","","-6.3","","91","","0.0","","19","","5","","","","99.62","","","","-7","","NA"
"-55.67","49.92","LA SCIE","8402520","2019-04-19 05:30","2019","04","19","05:30","-4.4","","-5.9","","89","","0.0","","21","","11","","","","99.60","","","","-9","","NA"
"-55.67","49.92","LA SCIE","8402520","2019-04-19 06:30","2019","04","19","06:30","-3.8","","-5.6","","88","","0.2","","17","","6","","","","99.58","","","","-6","","NA"
"-55.67","49.92","LA SCIE","8402520","2019-04-19 07:30","2019","04","19","07:30","-2.5","","-4.9","","83","","0.3","","18","","11","","","","99.52","","","","-7","","NA"
"-55.67","49.92","LA SCIE","8402520","2019-04-19 08:30","2019","04","19","08:30","-1.8","","-4.3","","83","","0.0","","17","","10","","","","99.45","","","","-5","","NA"
"-55.67","49.92","LA SCIE","8402520","2019-04-19 09:30","2019","04","19","09:30","-0.8","","-4.2","","77","","0.0","","19","","16","","","","99.37","","","","-6","","NA"
"-55.67","49.92","LA SCIE","8402520","2019-04-19 10:30","2019","04","19","10:30","0.1","","-3.7","","76","","0.0","","19","","14","","","","99.27","","","","","","NA"
"-55.67","49.92","LA SCIE","8402520","2019-04-19 11:30","2019","04","19","11:30","0.4","","-3.3","","76","","0.0","","18","","17","","","","99.15","","","","","","NA"
"-55.67","49.92","LA SCIE","8402520","2019-04-19 12:30","2019","04","19","12:30","-0.2","","-0.9","","95","","0.0","","18","","24","","","","99.05","","","","-6","","NA"
"-55.67","49.92","LA SCIE","8402520","2019-04-19 13:30","2019","04","19","13:30","-0.6","","-0.9","","98","","0.2","","17","","25","","","","98.83","","","","-7","","NA"
"-55.67","49.92","LA SCIE","8402520","2019-04-19 14:30","2019","04","19","14:30","-1.1","","-1.2","","99","","0.4","","17","","27","","","","98.66","","","","-8","","NA"
"-55.67","49.92","LA SCIE","8402520","2019-04-19 15:30","2019","04","19","15:30","-1.0","","-1.1","","99","","0.2","","17","","29","","","","98.48","","","","-8","","NA"
"-55.67","49.92","LA SCIE","8402520","2019-04-19 16:30","2019","04","19","16:30","-0.9","","-0.9","","100","","0.2","","17","","29","","","","98.38","","","","-8","","NA"
"-55.67","49.92","LA SCIE","8402520","2019-04-19 17:30","2019","04","19","17:30","-0.4","","-0.4","","100","","0.3","","18","","25","","","","98.34","","","","-6","","NA"
"-55.67","49.92","LA SCIE","8402520","2019-04-19 18:30","2019","04","19","18:30","0.1","","0.0","","99","","0.0","","19","","25","","","","98.19","","","","","","NA"
"-55.67","49.92","LA SCIE","8402520","2019-04-19 19:30","2019","04","19","19:30","0.3","","0.2","","99","","0.6","","19","","21","","","","98.14","","","","","","NA"
"-55.67","49.92","LA SCIE","8402520","2019-04-19 20:30","2019","04","19","20:30","0.4","","0.3","","100","","0.3","","20","","20","","","","98.17","","","","","","NA"
"-55.67","49.92","LA SCIE","8402520","2019-04-19 21:30","2019","04","19","21:30","0.5","","0.4","","100","","0.8","","19","","10","","","","98.18","","","","","","NA"
"-55.67","49.92","LA SCIE","8402520","2019-04-19 22:30","2019","04","19","22:30","0.4","","0.4","","100","","0.0","","21","","6","","","","98.24","","","","","","NA"
"-55.67","49.92","LA SCIE","8402520","2019-04-19 23:30","2019","04","19","23:30","1.6","","1.5","","99","","0.2","","27","","12","","","","98.34","","","","","","NA"
"-55.67","49.92","LA SCIE","8402520","2019-04-20 00:30","2019","04","20","00:30","1.1","","1.1","","100","","0.0","","30","","12","","","","98.41","","","","","","NA"
"-55.67","49.92","LA SCIE","8402520","2019-04-20 01:30","2019","04","20","01:30","0.8","","0.7","","100","","0.0","","28","","13","","","","98.50","","","","","","NA"
"-55.67","49.92","LA SCIE","8402520","2019-04-20 02:30","2019","04","20","02:30","0.5","","0.4","","100","","0.0","","28","","13","","","","98.58","","","","","","NA"
"-55.67","49.92","LA SCIE","8402520","2019-04-20 03:30","2019","04","20","03:30","0.5","","0.5","","100","","0.0","","28","","17","","","","98.66","","","","","","NA"
"-55.67","49.92","LA SCIE","8402520","2019-04-20 04:30","2019","04","20","04:30","0.6","","0.5","","100","","0.0","","29","","15","","","","98.71","","","","","","NA"
"-55.67","49.92","LA SCIE","8402520","2019-04-20 05:30","2019","04","20","05:30","0.7","","0.6","","100","","0.0","","29","","14","","","","98.85","","","","","","NA"
"-55.67","49.92","LA SCIE","8402520","2019-04-20 06:30","2019","04","20","06:30","1.0","","0.9","","99","","0.0","","31","","7","","","","98.98","","","","","","NA"
"-55.67","49.92","LA SCIE","8402520","2019-04-20 07:30","2019","04","20","07:30","2.3","","1.9","","97","","0.0","","29","","9","","","","99.02","","","","","","NA"
"-55.67","49.92","LA SCIE","8402520","2019-04-20 08:30","2019","04","20","08:30","4.4","","1.6","","82","","0.0","","29","","13","","","","99.16","","","","","","NA"
"-55.67","49.92","LA SCIE","8402520","2019-04-20 09:30","2019","04","20","09:30","5.5","","1.3","","74","","0.0","","30","","10","","","","99.25","","","","","","NA"
"-55.67","49.92","LA SCIE","8402520","2019-04-20 10:30","2019","04","20","10:30","6.5","","0.2","","64","","0.0","","30","","5","","","","99.32","","","","","","NA"
"-55.67","49.92","LA SCIE","8402520","2019-04-20 11:30","2019","04","20","11:30","7.1","","0.6","","63","","0.0","","35","","4","","","","99.41","","","","","","NA"
"-55.67","49.92","LA SCIE","8402520","2019-04-20 12:30","2019","04","20","12:30","8.7","","-0.5","","53","","0.0","","29","","6","","","","99.46","","","","","","NA"
"-55.67","49.92","LA SCIE","8402520","2019-04-20 13:30","2019","04","20","13:30","8.4","","-0.2","","55","","0.0","","15","","5","","","","99.50","","","","","","NA"
"-55.67","49.92","LA SCIE","8402520","2019-04-20 14:30","2019","04","20","14:30","8.1","","0.1","","57","","0.0","","27","","3","","","","99.55","","","","","","NA"
"-55.67","49.92","LA SCIE","8402520","2019-04-20 15:30","2019","04","20","15:30","7.4","","-0.3","","58","","0.3","","4","","5","","","","99.58","","","","","","NA"
"-55.67","49.92","LA SCIE","8402520","2019-04-20 16:30","2019","04","20","16:30","7.1","","-0.5","","58","","0.0","","35","","5","","","","99.69","","","","","","NA"
"-55.67","49.92","LA SCIE","8402520","2019-04-20 17:30","2019","04","20","17:30","6.8","","0.1","","62","","0.0","","36","","3","","","","99.73","","","","","","NA"
"-55.67","49.92","LA SCIE","8402520","2019-04-20 18:30","2019","04","20","18:30","5.0","","0.0","","70","","0.0","","2","","8","","","","99.84","","","","","","NA"
"-55.67","49.92","LA SCIE","8402520","2019-04-20 19:30","2019","04","20","19:30","4.0","","0.0","","75","","0.0","","35","","8","","","","99.97","","","","","","NA"
"-55.67","49.92","LA SCIE","8402520","2019-04-20 20:30","2019","04","20","20:30","3.4","","-0.3","","77","","0.0","","34","","7","","","","100.04","","","","","","NA"
"-55.67","49.92","LA SCIE","8402520","2019-04-20 21:30","2019","04","20","21:30","3.1","","-0.3","","78","","0.0","","36","","8","","","","100.13","","","","","","NA"
"-55.67","49.92","LA SCIE","8402520","2019-04-20 22:30","2019","04","20","22:30","2.9","","-0.4","","79","","0.0","","35","","7","","","","100.17","","","","","","NA"
"-55.67","49.92","LA SCIE","8402520","2019-04-20 23:30","2019","04","20","23:30","2.2","","-0.6","","82","","0.0","","8","","2","","","","100.22","","","","","","NA"
"-55.67","49.92","LA SCIE","8402520","2019-04-21 00:30","2019","04","21","00:30","1.5","","-0.5","","86","","0.0","","19","","6","","","","100.29","","","","","","NA"
"-55.67","49.92","LA SCIE","8402520","2019-04-21 01:30","2019","04","21","01:30","0.7","","-0.6","","91","","0.0","","20","","8","","","","100.33","","","","","","NA"
"-55.67","49.92","LA SCIE","8402520","2019-04-21 02:30","2019","04","21","02:30","1.7","","0.1","","89","","0.0","","18","","8","","","","100.32","","","","","","NA"
"-55.67","49.92","LA SCIE","8402520","2019-04-21 03:30","2019","04","21","03:30","2.7","","0.3","","84","","0.0","","17","","9","","","","100.32","","","","","","NA"
"-55.67","49.92","LA SCIE","8402520","2019-04-21 04:30","2019","04","21","04:30","1.7","","0.1","","89","","0.0","","17","","9","","","","100.38","","","","","","NA"
"-55.67","49.92","LA SCIE","8402520","2019-04-21 05:30","2019","04","21","05:30","2.3","","0.7","","89","","0.0","","16","","9","","","","100.38","","","","","","NA"
"-55.67","49.92","LA SCIE","8402520","2019-04-21 06:30","2019","04","21","06:30","3.7","","1.4","","85","","0.0","","16","","13","","","","100.36","","","","","","NA"
"-55.67","49.92","LA SCIE","8402520","2019-04-21 07:30","2019","04","21","07:30","3.1","","0.7","","84","","0.0","","16","","9","","","","100.36","","","","","","NA"
"-55.67","49.92","LA SCIE","8402520","2019-04-21 08:30","2019","04","21","08:30","3.5","","0.7","","82","","0.0","","16","","14","","","","100.30","","","","","","NA"
"-55.67","49.92","LA SCIE","8402520","2019-04-21 09:30","2019","04","21","09:30","4.2","","1.2","","81","","0.0","","16","","16","","","","100.24","","","","","","NA"
"-55.67","49.92","LA SCIE","8402520","2019-04-21 10:30","2019","04","21","10:30","5.1","","1.5","","78","","0.0","","16","","20","","","","100.11","","","","","","NA"
"-55.67","49.92","LA SCIE","8402520","2019-04-21 11:30","2019","04","21","11:30","5.3","","2.0","","79","","0.0","","16","","17","","","","99.99","","","","","","NA"
"-55.67","49.92","LA SCIE","8402520","2019-04-21 12:30","2019","04","21","12:30","5.9","","2.7","","80","","0.0","","18","","23","","","","99.84","","","","","","NA"
"-55.67","49.92","LA SCIE","8402520","2019-04-21 13:30","2019","04","21","13:30","6.7","","3.5","","80","","0.0","","18","","26","","","","99.70","","","","","","NA"
"-55.67","49.92","LA SCIE","8402520","2019-04-21 14:30","2019","04","21","14:30","8.1","","4.3","","77","","0.0","","20","","24","","","","99.64","","","","","","NA"
"-55.67","49.92","LA SCIE","8402520","2019-04-21 15:30","2019","04","21","15:30","8.7","","5.0","","78","","0.0","","20","","23","","","","99.56","","","","","","NA"
"-55.67","49.92","LA SCIE","8402520","2019-04-21 16:30","2019","04","21","16:30","10.5","","5.9","","73","","0.0","","21","","21","","","","99.53","","","","","","NA"
"-55.67","49.92","LA SCIE","8402520","2019-04-21 17:30","2019","04","21","17:30","9.9","","6.6","","80","","0.0","","20","","20","","","","99.48","","","","","","NA"
"-55.67","49.92","LA SCIE","8402520","2019-04-21 18:30","2019","04","21","18:30","8.9","","6.6","","86","","0.0","","20","","20","","","","99.40","","","","","","NA"
"-55.67","49.92","LA SCIE","8402520","2019-04-21 19:30","2019","04","21","19:30","7.8","","6.7","","93","","0.0","","20","","22","","","","99.34","","","","","","NA"
"-55.67","49.92","LA SCIE","8402520","2019-04-21 20:30","2019","04","21","20:30","7.6","","6.7","","94","","0.0","","20","","19","","","","99.36","","","","","","NA"
"-55.67","49.92","LA SCIE","8402520","2019-04-21 21:30","2019","04","21","21:30","7.5","","6.7","","95","","0.0","","22","","24","","","","99.28","","","","","","NA"
"-55.67","49.92","LA SCIE","8402520","2019-04-21 22:30","2019","04","21","22:30","7.5","","6.7","","94","","0.0","","21","","22","","","","99.20","","","","","","NA"
"-55.67","49.92","LA SCIE","8402520","2019-04-21 23:30","2019","04","21","23:30","7.6","","7.0","","96","","0.0","","21","","19","","","","99.15","","","","","","NA"
"-55.67","49.92","LA SCIE","8402520","2019-04-22 00:30","2019","04","22","00:30","7.3","","6.6","","96","","0.0","","20","","16","","","","99.07","","","","","","NA"
"-55.67","49.92","LA SCIE","8402520","2019-04-22 01:30","2019","04","22","01:30","7.2","","6.6","","96","","0.0","","21","","17","","","","99.03","","","","","","NA"
"-55.67","49.92","LA SCIE","8402520","2019-04-22 02:30","2019","04","22","02:30","7.4","","6.9","","97","","0.2","","22","","16","","","","98.99","","","","","","NA"
"-55.67","49.92","LA SCIE","8402520","2019-04-22 03:30","2019","04","22","03:30","8.3","","7.8","","97","","0.0","","22","","11","","","","99.00","","","","","","NA"
"-55.67","49.92","LA SCIE","8402520","2019-04-22 04:30","2019","04","22","04:30","8.2","","7.8","","97","","0.0","","22","","7","","","","99.01","","","","","","NA"
"-55.67","49.92","LA SCIE","8402520","2019-04-22 05:30","2019","04","22","05:30","7.5","","7.1","","97","","0.0","","21","","8","","","","98.99","","","","","","NA"
"-55.67","49.92","LA SCIE","8402520","2019-04-22 06:30","2019","04","22","06:30","7.8","","7.4","","97","","0.0","","25","","10","","","","99.03","","","","","","NA"
"-55.67","49.92","LA SCIE","8402520","2019-04-22 07:30","2019","04","22","07:30","8.8","","7.3","","90","","0.0","","28","","12","","","","99.14","","","","","","NA"
"-55.67","49.92","LA SCIE","8402520","2019-04-22 08:30","2019","04","22","08:30","8.5","","6.8","","89","","0.0","","27","","13","","","","99.18","","","","","","NA"
"-55.67","49.92","LA SCIE","8402520","2019-04-22 09:30","2019","04","22","09:30","10.3","","7.0","","80","","0.0","","28","","14","","","","99.19","","","","","","NA"
"-55.67","49.92","LA SCIE","8402520","2019-04-22 10:30","2019","04","22","10:30","10.5","","6.6","","77","","0.0","","28","","15","","","","99.19","","","","","","NA"
"-55.67","49.92","LA SCIE","8402520","2019-04-22 11:30","2019","04","22","11:30","11.7","","4.9","","63","","0.0","","28","","20","","","","99.22","","","","","","NA"
"-55.67","49.92","LA SCIE","8402520","2019-04-22 12:30","2019","04","22","12:30","11.6","","3.6","","58","","0.0","","29","","17","","","","99.26","","","","","","NA"
"-55.67","49.92","LA SCIE","8402520","2019-04-22 13:30","2019","04","22","13:30","11.1","","1.9","","53","","0.0","","32","","13","","","","99.35","","","","","","NA"
"-55.67","49.92","LA SCIE","8402520","2019-04-22 14:30","2019","04","22","14:30","9.5","","1.4","","57","","0.0","","30","","9","","","","99.34","","","","","","NA"
"-55.67","49.92","LA SCIE","8402520","2019-04-22 15:30","2019","04","22","15:30","9.2","","0.9","","56","","0.0","","32","","10","","","","99.40","","","","","","NA"
"-55.67","49.92","LA SCIE","8402520","2019-04-22 16:30","2019","04","22","16:30","8.8","","1.4","","60","","0.0","","30","","11","","","","99.41","","","","","","NA"
"-55.67","49.92","LA SCIE","8402520","2019-04-22 17:30","2019","04","22","17:30","7.2","","1.3","","66","","0.0","","31","","8","","","","99.48","","","","","","NA"
"-55.67","49.92","LA SCIE","8402520","2019-04-22 18:30","2019","04","22","18:30","4.7","","1.0","","77","","0.0","","30","","9","","","","99.56","","","","","","NA"
"-55.67","49.92","LA SCIE","8402520","2019-04-22 19:30","2019","04","22","19:30","4.0","","0.9","","81","","0.0","","31","","9","","","","99.59","","","","","","NA"
"-55.67","49.92","LA SCIE","8402520","2019-04-22 20:30","2019","04","22","20:30","3.1","","0.6","","83","","0.0","","28","","8","","","","99.68","","","","","","NA"
"-55.67","49.92","LA SCIE","8402520","2019-04-22 21:30","2019","04","22","21:30","2.5","","0.5","","87","","0.0","","27","","10","","","","99.71","","","","","","NA"
"-55.67","49.92","LA SCIE","8402520","2019-04-22 22:30","2019","04","22","22:30","1.8","","0.2","","89","","0.0","","29","","10","","","","99.72","","","","","","NA"
"-55.67","49.92","LA SCIE","8402520","2019-04-22 23:30","2019","04","22","23:30","0.7","","-0.6","","91","","0.0","","36","","11","","","","99.79","","","","","","NA"
"-55.67","49.92","LA SCIE","8402520","2019-04-23 00:30","2019","04","23","00:30","0.6","","-0.7","","91","","0.0","","33","","13","","","","99.83","","","","","","NA"
"-55.67","49.92","LA SCIE","8402520","2019-04-23 01:30","2019","04","23","01:30","-0.9","","-1.8","","94","","0.0","","3","","4","","","","99.88","","","","-2","","NA"
"-55.67","49.92","LA SCIE","8402520","2019-04-23 02:30","2019","04","23","02:30","-1.9","","-3.1","","91","","0.0","","9","","5","","","","99.94","","","","-4","","NA"
"-55.67","49.92","LA SCIE","8402520","2019-04-23 03:30","2019","04","23","03:30","-2.3","","-3.8","","90","","0.0","","5","","5","","","","100.02","","","","-4","","NA"
"-55.67","49.92","LA SCIE","8402520","2019-04-23 04:30","2019","04","23","04:30","-2.8","","-3.7","","93","","0.0","","1","","4","","","","100.06","","","","-4","","NA"
"-55.67","49.92","LA SCIE","8402520","2019-04-23 05:30","2019","04","23","05:30","-2.7","","-3.7","","93","","0.0","","2","","2","","","","100.11","","","","-3","","NA"
"-55.67","49.92","LA SCIE","8402520","2019-04-23 06:30","2019","04","23","06:30","-1.9","","-3.3","","90","","0.3","","35","","4","","","","100.17","","","","-3","","NA"
"-55.67","49.92","LA SCIE","8402520","2019-04-23 07:30","2019","04","23","07:30","-0.4","","-3.2","","81","","0.2","","3","","2","","","","100.20","","","","-1","","NA"
"-55.67","49.92","LA SCIE","8402520","2019-04-23 08:30","2019","04","23","08:30","1.4","","-4.1","","67","","0.0","","12","","4","","","","100.24","","","","","","NA"
"-55.67","49.92","LA SCIE","8402520","2019-04-23 09:30","2019","04","23","09:30","3.0","","-3.4","","63","","0.0","","35","","8","","","","100.27","","","","","","NA"
"-55.67","49.92","LA SCIE","8402520","2019-04-23 10:30","2019","04","23","10:30","3.0","","-5.6","","53","","0.0","","11","","11","","","","100.30","","","","","","NA"
"-55.67","49.92","LA SCIE","8402520","2019-04-23 11:30","2019","04","23","11:30","3.2","","-6.0","","51","","0.0","","11","","6","","","","100.28","","","","","","NA"
"-55.67","49.92","LA SCIE","8402520","2019-04-23 12:30","2019","04","23","12:30","3.5","","-5.9","","50","","0.0","","13","","11","","","","100.25","","","","","","NA"
"-55.67","49.92","LA SCIE","8402520","2019-04-23 13:30","2019","04","23","13:30","2.9","","-5.5","","54","","0.0","","13","","9","","","","100.21","","","","","","NA"
"-55.67","49.92","LA SCIE","8402520","2019-04-23 14:30","2019","04","23","14:30","2.6","","-5.0","","57","","0.0","","14","","6","","","","100.17","","","","","","NA"
"-55.67","49.92","LA SCIE","8402520","2019-04-23 15:30","2019","04","23","15:30","2.2","","-4.8","","60","","0.0","","14","","10","","","","100.16","","","","","","NA"
"-55.67","49.92","LA SCIE","8402520","2019-04-23 16:30","2019","04","23","16:30","0.3","","-4.5","","70","","0.0","","13","","12","","","","100.15","","","","","","NA"
"-55.67","49.92","LA SCIE","8402520","2019-04-23 17:30","2019","04","23","17:30","-0.2","","-5.0","","70","","0.0","","13","","9","","","","100.15","","","","-3","","NA"
"-55.67","49.92","LA SCIE","8402520","2019-04-23 18:30","2019","04","23","18:30","-1.5","","-4.3","","81","","0.0","","12","","13","","","","100.15","","","","-6","","NA"
"-55.67","49.92","LA SCIE","8402520","2019-04-23 19:30","2019","04","23","19:30","-1.9","","-3.8","","86","","0.0","","13","","14","","","","100.14","","","","-7","","NA"
"-55.67","49.92","LA SCIE","8402520","2019-04-23 20:30","2019","04","23","20:30","-1.5","","-3.1","","89","","0.0","","13","","13","","","","100.10","","","","-6","","NA"
"-55.67","49.92","LA SCIE","8402520","2019-04-23 21:30","2019","04","23","21:30","-1.6","","-3.1","","89","","0.0","","13","","11","","","","100.05","","","","-5","","NA"
"-55.67","49.92","LA SCIE","8402520","2019-04-23 22:30","2019","04","23","22:30","-1.6","","-2.8","","92","","0.0","","13","","13","","","","99.96","","","","-6","","NA"
"-55.67","49.92","LA SCIE","8402520","2019-04-23 23:30","2019","04","23","23:30","-1.6","","-2.5","","93","","0.0","","13","","14","","","","99.93","","","","-6","","NA"
"-55.67","49.92","LA SCIE","8402520","2019-04-24 00:30","2019","04","24","00:30","-1.7","","-2.7","","93","","0.0","","12","","16","","","","99.85","","","","-7","","NA"
"-55.67","49.92","LA SCIE","8402520","2019-04-24 01:30","2019","04","24","01:30","-1.8","","-2.9","","93","","0.0","","13","","19","","","","99.77","","","","-7","","NA"
"-55.67","49.92","LA SCIE","8402520","2019-04-24 02:30","2019","04","24","02:30","-1.9","","-3.0","","93","","0.0","","13","","18","","","","99.72","","","","-7","","NA"
"-55.67","49.92","LA SCIE","8402520","2019-04-24 03:30","2019","04","24","03:30","-2.0","","-2.9","","94","","0.0","","13","","16","","","","99.67","","","","-7","","NA"
"-55.67","49.92","LA SCIE","8402520","2019-04-24 04:30","2019","04","24","04:30","-2.6","","-3.0","","97","","0.0","","12","","19","","","","99.58","","","","-8","","NA"
"-55.67","49.92","LA SCIE","8402520","2019-04-24 05:30","2019","04","24","05:30","-3.0","","-3.2","","98","","0.5","","11","","20","","","","99.54","","","","-9","","NA"
"-55.67","49.92","LA SCIE","8402520","2019-04-24 06:30","2019","04","24","06:30","-3.8","","-4.2","","98","","0.8","","11","","22","","","","99.51","","","","-10","","NA"
"-55.67","49.92","LA SCIE","8402520","2019-04-24 07:30","2019","04","24","07:30","-3.8","","-4.1","","98","","0.2","","11","","21","","","","99.43","","","","-10","","NA"
"-55.67","49.92","LA SCIE","8402520","2019-04-24 08:30","2019","04","24","08:30","-4.2","","-4.6","","97","","0.6","","11","","22","","","","99.37","","","","-11","","NA"
"-55.67","49.92","LA SCIE","8402520","2019-04-24 09:30","2019","04","24","09:30","-4.2","","-4.6","","97","","0.0","","11","","24","","","","99.29","","","","-11","","NA"
"-55.67","49.92","LA SCIE","8402520","2019-04-24 10:30","2019","04","24","10:30","-4.0","","-4.4","","97","","0.2","","11","","24","","","","99.23","","","","-11","","NA"
"-55.67","49.92","LA SCIE","8402520","2019-04-24 11:30","2019","04","24","11:30","-3.3","","-3.7","","97","","0.3","","9","","20","","","","99.14","","","","-9","","NA"
"-55.67","49.92","LA SCIE","8402520","2019-04-24 12:30","2019","04","24","12:30","-3.7","","-4.2","","97","","0.0","","8","","20","","","","99.10","","","","-10","","NA"
"-55.67","49.92","LA SCIE","8402520","2019-04-24 13:30","2019","04","24","13:30","-3.9","","-4.3","","97","","0.3","","8","","18","","","","99.08","","","","-10","","NA"
"-55.67","49.92","LA SCIE","8402520","2019-04-24 14:30","2019","04","24","14:30","-3.5","","-3.9","","97","","0.3","","7","","15","","","","99.06","","","","-9","","NA"
"-55.67","49.92","LA SCIE","8402520","2019-04-24 15:30","2019","04","24","15:30","-3.2","","-3.8","","95","","0.8","","6","","14","","","","99.04","","","","-8","","NA"
"-55.67","49.92","LA SCIE","8402520","2019-04-24 16:30","2019","04","24","16:30","-3.5","","-4.2","","95","","0.0","","6","","17","","","","99.07","","","","-9","","NA"
"-55.67","49.92","LA SCIE","8402520","2019-04-24 17:30","2019","04","24","17:30","-3.9","","-4.5","","96","","0.0","","6","","20","","","","99.11","","","","-10","","NA"
"-55.67","49.92","LA SCIE","8402520","2019-04-24 18:30","2019","04","24","18:30","-4.2","","-4.6","","96","","0.0","","6","","17","","","","99.18","","","","-10","","NA"
"-55.67","49.92","LA SCIE","8402520","2019-04-24 19:30","2019","04","24","19:30","-4.2","","-4.7","","96","","0.0","","5","","15","","","","99.23","","","","-10","","NA"
"-55.67","49.92","LA SCIE","8402520","2019-04-24 20:30","2019","04","24","20:30","-4.3","","-4.9","","96","","0.0","","6","","14","","","","99.30","","","","-9","","NA"
"-55.67","49.92","LA SCIE","8402520","2019-04-24 21:30","2019","04","24","21:30","-4.2","","-4.8","","96","","0.0","","6","","14","","","","99.34","","","","-9","","NA"
"-55.67","49.92","LA SCIE","8402520","2019-04-24 22:30","2019","04","24","22:30","-4.3","","-4.8","","96","","0.0","","6","","13","","","","99.34","","","","-9","","NA"
"-55.67","49.92","LA SCIE","8402520","2019-04-24 23:30","2019","04","24","23:30","-4.3","","-4.9","","95","","0.0","","6","","14","","","","99.34","","","","-9","","NA"
"-55.67","49.92","LA SCIE","8402520","2019-04-25 00:30","2019","04","25","00:30","-4.3","","-5.0","","94","","0.0","","6","","12","","","","99.38","","","","-9","","NA"
"-55.67","49.92","LA SCIE","8402520","2019-04-25 01:30","2019","04","25","01:30","-4.2","","-5.0","","94","","0.0","","7","","7","","","","99.48","","","","-7","","NA"
"-55.67","49.92","LA SCIE","8402520","2019-04-25 02:30","2019","04","25","02:30","-4.3","","-5.2","","94","","0.0","","7","","9","","","","99.46","","","","-8","","NA"
"-55.67","49.92","LA SCIE","8402520","2019-04-25 03:30","2019","04","25","03:30","-4.4","","-5.4","","93","","0.0","","6","","10","","","","99.49","","","","-9","","NA"
"-55.67","49.92","LA SCIE","8402520","2019-04-25 04:30","2019","04","25","04:30","-4.5","","-5.6","","92","","0.0","","6","","10","","","","99.48","","","","-9","","NA"
"-55.67","49.92","LA SCIE","8402520","2019-04-25 05:30","2019","04","25","05:30","-4.4","","-5.4","","92","","0.0","","6","","10","","","","99.47","","","","-9","","NA"
"-55.67","49.92","LA SCIE","8402520","2019-04-25 06:30","2019","04","25","06:30","-3.7","","-4.9","","92","","0.0","","7","","13","","","","99.52","","","","-9","","NA"
"-55.67","49.92","LA SCIE","8402520","2019-04-25 07:30","2019","04","25","07:30","-3.1","","-4.6","","89","","0.0","","7","","14","","","","99.57","","","","-8","","NA"
"-55.67","49.92","LA SCIE","8402520","2019-04-25 08:30","2019","04","25","08:30","-2.3","","-4.0","","88","","0.0","","9","","15","","","","99.57","","","","-7","","NA"
"-55.67","49.92","LA SCIE","8402520","2019-04-25 09:30","2019","04","25","09:30","-1.4","","-4.2","","81","","0.0","","8","","17","","","","99.57","","","","-7","","NA"
"-55.67","49.92","LA SCIE","8402520","2019-04-25 10:30","2019","04","25","10:30","-0.8","","-3.9","","79","","0.0","","9","","22","","","","99.53","","","","-7","","NA"
"-55.67","49.92","LA SCIE","8402520","2019-04-25 11:30","2019","04","25","11:30","-1.3","","-4.2","","81","","0.0","","9","","23","","","","99.50","","","","-7","","NA"
"-55.67","49.92","LA SCIE","8402520","2019-04-25 12:30","2019","04","25","12:30","-0.8","","-4.0","","79","","0.0","","10","","21","","","","99.46","","","","-6","","NA"
"-55.67","49.92","LA SCIE","8402520","2019-04-25 13:30","2019","04","25","13:30","-1.0","","-3.8","","82","","0.0","","10","","19","","","","99.39","","","","-6","","NA"
"-55.67","49.92","LA SCIE","8402520","2019-04-25 14:30","2019","04","25","14:30","-1.7","","-4.0","","85","","0.0","","10","","22","","","","99.38","","","","-8","","NA"
"-55.67","49.92","LA SCIE","8402520","2019-04-25 15:30","2019","04","25","15:30","-1.9","","-3.7","","87","","0.0","","10","","24","","","","99.35","","","","-8","","NA"
"-55.67","49.92","LA SCIE","8402520","2019-04-25 16:30","2019","04","25","16:30","-1.8","","-3.7","","87","","0.0","","10","","23","","","","99.28","","","","-8","","NA"
"-55.67","49.92","LA SCIE","8402520","2019-04-25 17:30","2019","04","25","17:30","-2.1","","-3.7","","88","","0.0","","9","","22","","","","99.24","","","","-8","","NA"
"-55.67","49.92","LA SCIE","8402520","2019-04-25 18:30","2019","04","25","18:30","-2.3","","-3.8","","89","","0.0","","9","","21","","","","99.23","","","","-8","","NA"
"-55.67","49.92","LA SCIE","8402520","2019-04-25 19:30","2019","04","25","19:30","-2.5","","-3.4","","94","","0.0","","9","","23","","","","99.20","","","","-9","","NA"
"-55.67","49.92","LA SCIE","8402520","2019-04-25 20:30","2019","04","25","20:30","-2.6","","-3.0","","97","","0.0","","9","","22","","","","99.19","","","","-9","","NA"
"-55.67","49.92","LA SCIE","8402520","2019-04-25 21:30","2019","04","25","21:30","-2.5","","-2.8","","98","","0.8","","9","","23","","","","99.19","","","","-9","","NA"
"-55.67","49.92","LA SCIE","8402520","2019-04-25 22:30","2019","04","25","22:30","-2.5","","-2.7","","99","","0.9","","9","","23","","","","99.14","","","","-9","","NA"
"-55.67","49.92","LA SCIE","8402520","2019-04-25 23:30","2019","04","25","23:30","-2.6","","-2.7","","99","","1.5","","9","","22","","","","99.08","","","","-9","","NA"
"-55.67","49.92","LA SCIE","8402520","2019-04-26 00:30","2019","04","26","00:30","-2.5","","-2.6","","99","","0.9","","8","","21","","","","99.00","","","","-9","","NA"
"-55.67","49.92","LA SCIE","8402520","2019-04-26 01:30","2019","04","26","01:30","-2.6","","-2.8","","99","","0.3","","8","","20","","","","98.87","","","","-9","","NA"
"-55.67","49.92","LA SCIE","8402520","2019-04-26 02:30","2019","04","26","02:30","-2.5","","-2.7","","99","","0.0","","9","","22","","","","98.80","","","","-9","","NA"
"-55.67","49.92","LA SCIE","8402520","2019-04-26 03:30","2019","04","26","03:30","-2.4","","-2.6","","99","","0.6","","7","","17","","","","98.77","","","","-8","","NA"
"-55.67","49.92","LA SCIE","8402520","2019-04-26 04:30","2019","04","26","04:30","-2.5","","-2.7","","99","","0.9","","7","","13","","","","98.76","","","","-7","","NA"
"-55.67","49.92","LA SCIE","8402520","2019-04-26 05:30","2019","04","26","05:30","-2.4","","-2.6","","99","","0.6","","7","","11","","","","98.77","","","","-6","","NA"
"-55.67","49.92","LA SCIE","8402520","2019-04-26 06:30","2019","04","26","06:30","-2.2","","-2.4","","99","","0.6","","7","","14","","","","98.78","","","","-7","","NA"
"-55.67","49.92","LA SCIE","8402520","2019-04-26 07:30","2019","04","26","07:30","-1.9","","-2.1","","99","","0.2","","5","","11","","","","98.84","","","","-6","","NA"
"-55.67","49.92","LA SCIE","8402520","2019-04-26 08:30","2019","04","26","08:30","-1.4","","-1.6","","99","","0.3","","3","","14","","","","98.84","","","","-6","","NA"
"-55.67","49.92","LA SCIE","8402520","2019-04-26 09:30","2019","04","26","09:30","-1.5","","-1.7","","99","","0.0","","2","","14","","","","98.88","","","","-6","","NA"
"-55.67","49.92","LA SCIE","8402520","2019-04-26 10:30","2019","04","26","10:30","-1.2","","-1.4","","98","","0.2","","2","","15","","","","98.93","","","","-6","","NA"
"-55.67","49.92","LA SCIE","8402520","2019-04-26 11:30","2019","04","26","11:30","-1.4","","-1.6","","98","","0.0","","2","","15","","","","98.99","","","","-6","","NA"
"-55.67","49.92","LA SCIE","8402520","2019-04-26 12:30","2019","04","26","12:30","-1.7","","-2.0","","98","","0.0","","2","","15","","","","99.04","","","","-7","","NA"
"-55.67","49.92","LA SCIE","8402520","2019-04-26 13:30","2019","04","26","13:30","-1.7","","-1.9","","98","","0.0","","1","","13","","","","99.11","","","","-6","","NA"
"-55.67","49.92","LA SCIE","8402520","2019-04-26 14:30","2019","04","26","14:30","-1.5","","-1.8","","98","","0.0","","2","","13","","","","99.11","","","","-6","","NA"
"-55.67","49.92","LA SCIE","8402520","2019-04-26 15:30","2019","04","26","15:30","-1.5","","-1.8","","98","","0.0","","1","","12","","","","99.16","","","","-6","","NA"
"-55.67","49.92","LA SCIE","8402520","2019-04-26 16:30","2019","04","26","16:30","-1.4","","-1.7","","98","","0.0","","2","","10","","","","99.20","","","","-5","","NA"
"-55.67","49.92","LA SCIE","8402520","2019-04-26 17:30","2019","04","26","17:30","-1.7","","-2.0","","98","","0.0","","35","","8","","","","99.28","","","","-5","","NA"
"-55.67","49.92","LA SCIE","8402520","2019-04-26 18:30","2019","04","26","18:30","-2.0","","-2.3","","98","","0.0","","36","","7","","","","99.30","","","","-5","","NA"
"-55.67","49.92","LA SCIE","8402520","2019-04-26 19:30","2019","04","26","19:30","-2.3","","-2.6","","98","","0.0","","34","","7","","","","99.38","","","","-5","","NA"
"-55.67","49.92","LA SCIE","8402520","2019-04-26 20:30","2019","04","26","20:30","-2.4","","-2.6","","99","","0.0","","32","","6","","","","99.46","","","","-5","","NA"
"-55.67","49.92","LA SCIE","8402520","2019-04-26 21:30","2019","04","26","21:30","-2.7","","-2.9","","99","","0.0","","36","","4","","","","99.50","","","","-4","","NA"
"-55.67","49.92","LA SCIE","8402520","2019-04-26 22:30","2019","04","26","22:30","-2.9","","-3.2","","98","","0.0","","32","","3","","","","99.53","","","","-4","","NA"
"-55.67","49.92","LA SCIE","8402520","2019-04-26 23:30","2019","04","26","23:30","-3.7","","-4.0","","98","","0.0","","33","","7","","","","99.52","","","","-7","","NA"
"-55.67","49.92","LA SCIE","8402520","2019-04-27 00:30","2019","04","27","00:30","-4.6","","-4.8","","98","","0.0","","28","","6","","","","99.56","","","","-7","","NA"
"-55.67","49.92","LA SCIE","8402520","2019-04-27 01:30","2019","04","27","01:30","-3.9","","-4.2","","98","","0.0","","24","","4","","","","99.56","","","","-6","","NA"
"-55.67","49.92","LA SCIE","8402520","2019-04-27 02:30","2019","04","27","02:30","-4.6","","-5.0","","98","","0.0","","21","","8","","","","99.60","","","","-8","","NA"
"-55.67","49.92","LA SCIE","8402520","2019-04-27 03:30","2019","04","27","03:30","-4.7","","-5.0","","98","","0.0","","22","","7","","","","99.61","","","","-8","","NA"
"-55.67","49.92","LA SCIE","8402520","2019-04-27 04:30","2019","04","27","04:30","-4.6","","-4.9","","97","","0.0","","23","","7","","","","99.66","","","","-8","","NA"
"-55.67","49.92","LA SCIE","8402520","2019-04-27 05:30","2019","04","27","05:30","-4.4","","-4.7","","98","","0.0","","22","","9","","","","99.69","","","","-8","","NA"
"-55.67","49.92","LA SCIE","8402520","2019-04-27 06:30","2019","04","27","06:30","-3.3","","-3.6","","98","","0.4","","21","","10","","","","99.76","","","","-7","","NA"
"-55.67","49.92","LA SCIE","8402520","2019-04-27 07:30","2019","04","27","07:30","-2.4","","-2.7","","97","","0.3","","19","","11","","","","99.77","","","","-6","","NA"
"-55.67","49.92","LA SCIE","8402520","2019-04-27 08:30","2019","04","27","08:30","-0.4","","-1.2","","94","","0.0","","20","","10","","","","99.80","","","","-4","","NA"
"-55.67","49.92","LA SCIE","8402520","2019-04-27 09:30","2019","04","27","09:30","0.5","","-1.7","","85","","0.0","","18","","8","","","","99.81","","","","","","NA"
"-55.67","49.92","LA SCIE","8402520","2019-04-27 10:30","2019","04","27","10:30","0.3","","-1.6","","87","","0.0","","17","","11","","","","99.78","","","","","","NA"
"-55.67","49.92","LA SCIE","8402520","2019-04-27 11:30","2019","04","27","11:30","1.2","","-1.7","","81","","0.0","","15","","11","","","","99.78","","","","","","NA"
"-55.67","49.92","LA SCIE","8402520","2019-04-27 12:30","2019","04","27","12:30","1.6","","-1.5","","80","","0.0","","17","","11","","","","99.78","","","","","","NA"
"-55.67","49.92","LA SCIE","8402520","2019-04-27 13:30","2019","04","27","13:30","2.0","","-1.3","","78","","0.0","","17","","12","","","","99.74","","","","","","NA"
"-55.67","49.92","LA SCIE","8402520","2019-04-27 14:30","2019","04","27","14:30","3.0","","-0.5","","78","","0.0","","15","","8","","","","99.70","","","","","","NA"
"-55.67","49.92","LA SCIE","8402520","2019-04-27 15:30","2019","04","27","15:30","3.0","","-0.7","","77","","0.0","","15","","9","","","","99.69","","","","","","NA"
"-55.67","49.92","LA SCIE","8402520","2019-04-27 16:30","2019","04","27","16:30","3.1","","-0.4","","78","","0.0","","13","","14","","","","99.64","","","","","","NA"
"-55.67","49.92","LA SCIE","8402520","2019-04-27 17:30","2019","04","27","17:30","2.8","","-0.2","","81","","0.0","","13","","10","","","","99.61","","","","","","NA"
"-55.67","49.92","LA SCIE","8402520","2019-04-27 18:30","2019","04","27","18:30","1.9","","-0.2","","87","","0.0","","13","","11","","","","99.61","","","","","","NA"
"-55.67","49.92","LA SCIE","8402520","2019-04-27 19:30","2019","04","27","19:30","0.9","","-0.5","","90","","0.0","","13","","11","","","","99.57","","","","","","NA"
"-55.67","49.92","LA SCIE","8402520","2019-04-27 20:30","2019","04","27","20:30","0.2","","-1.0","","91","","0.0","","13","","9","","","","99.58","","","","","","NA"
"-55.67","49.92","LA SCIE","8402520","2019-04-27 21:30","2019","04","27","21:30","1.2","","-0.8","","87","","0.0","","17","","11","","","","99.56","","","","","","NA"
"-55.67","49.92","LA SCIE","8402520","2019-04-27 22:30","2019","04","27","22:30","1.8","","-0.7","","83","","0.0","","18","","12","","","","99.52","","","","","","NA"
"-55.67","49.92","LA SCIE","8402520","2019-04-27 23:30","2019","04","27","23:30","2.3","","-1.6","","75","","0.0","","17","","16","","","","99.45","","","","","","NA"
"-55.67","49.92","LA SCIE","8402520","2019-04-28 00:30","2019","04","28","00:30","1.9","","-1.8","","76","","0.0","","16","","17","","","","99.42","","","","","","NA"
"-55.67","49.92","LA SCIE","8402520","2019-04-28 01:30","2019","04","28","01:30","2.1","","-2.1","","73","","0.0","","16","","16","","","","99.38","","","","","","NA"
"-55.67","49.92","LA SCIE","8402520","2019-04-28 02:30","2019","04","28","02:30","1.7","","-2.3","","75","","0.0","","17","","18","","","","99.37","","","","","","NA"
"-55.67","49.92","LA SCIE","8402520","2019-04-28 03:30","2019","04","28","03:30","1.1","","-1.8","","81","","0.0","","16","","14","","","","99.34","","","","","","NA"
"-55.67","49.92","LA SCIE","8402520","2019-04-28 04:30","2019","04","28","04:30","0.6","","-1.3","","87","","0.0","","15","","14","","","","99.27","","","","","","NA"
"-55.67","49.92","LA SCIE","8402520","2019-04-28 05:30","2019","04","28","05:30","0.3","","-1.1","","90","","0.0","","15","","15","","","","99.26","","","","","","NA"
"-55.67","49.92","LA SCIE","8402520","2019-04-28 06:30","2019","04","28","06:30","0.2","","-1.2","","90","","0.0","","15","","17","","","","99.23","","","","","","NA"
"-55.67","49.92","LA SCIE","8402520","2019-04-28 07:30","2019","04","28","07:30","0.2","","-1.3","","90","","0.0","","14","","19","","","","99.16","","","","","","NA"
"-55.67","49.92","LA SCIE","8402520","2019-04-28 08:30","2019","04","28","08:30","0.6","","-1.1","","88","","0.0","","15","","20","","","","99.06","","","","","","NA"
"-55.67","49.92","LA SCIE","8402520","2019-04-28 09:30","2019","04","28","09:30","1.5","","-1.0","","84","","0.0","","15","","19","","","","98.97","","","","","","NA"
"-55.67","49.92","LA SCIE","8402520","2019-04-28 10:30","2019","04","28","10:30","2.2","","-0.8","","80","","0.0","","14","","21","","","","98.90","","","","","","NA"
"-55.67","49.92","LA SCIE","8402520","2019-04-28 11:30","2019","04","28","11:30","2.3","","-0.7","","80","","0.0","","13","","21","","","","98.78","","","","","","NA"
"-55.67","49.92","LA SCIE","8402520","2019-04-28 12:30","2019","04","28","12:30","2.5","","0.3","","86","","0.0","","14","","20","","","","98.67","","","","","","NA"
"-55.67","49.92","LA SCIE","8402520","2019-04-28 13:30","2019","04","28","13:30","2.4","","0.9","","90","","0.0","","14","","20","","","","98.59","","","","","","NA"
"-55.67","49.92","LA SCIE","8402520","2019-04-28 14:30","2019","04","28","14:30","2.7","","1.8","","94","","0.0","","14","","18","","","","98.47","","","","","","NA"
"-55.67","49.92","LA SCIE","8402520","2019-04-28 15:30","2019","04","28","15:30","3.8","","2.0","","88","","0.0","","16","","12","","","","98.46","","","","","","NA"
"-55.67","49.92","LA SCIE","8402520","2019-04-28 16:30","2019","04","28","16:30","4.0","","2.2","","88","","0.0","","18","","15","","","","98.47","","","","","","NA"
"-55.67","49.92","LA SCIE","8402520","2019-04-28 17:30","2019","04","28","17:30","4.9","","2.1","","82","","0.3","","19","","11","","","","98.49","","","","","","NA"
"-55.67","49.92","LA SCIE","8402520","2019-04-28 18:30","2019","04","28","18:30","4.8","","1.9","","82","","0.0","","19","","11","","","","98.55","","","","","","NA"
"-55.67","49.92","LA SCIE","8402520","2019-04-28 19:30","2019","04","28","19:30","3.8","","1.8","","86","","0.0","","18","","13","","","","98.55","","","","","","NA"
"-55.67","49.92","LA SCIE","8402520","2019-04-28 20:30","2019","04","28","20:30","3.0","","1.5","","90","","0.0","","19","","12","","","","98.60","","","","","","NA"
"-55.67","49.92","LA SCIE","8402520","2019-04-28 21:30","2019","04","28","21:30","3.1","","1.3","","88","","0.0","","20","","11","","","","98.61","","","","","","NA"
"-55.67","49.92","LA SCIE","8402520","2019-04-28 22:30","2019","04","28","22:30","2.3","","1.1","","92","","0.0","","20","","14","","","","98.59","","","","","","NA"
"-55.67","49.92","LA SCIE","8402520","2019-04-28 23:30","2019","04","28","23:30","1.7","","0.8","","94","","0.0","","20","","13","","","","98.57","","","","","","NA"
"-55.67","49.92","LA SCIE","8402520","2019-04-29 00:30","2019","04","29","00:30","1.2","","0.4","","95","","0.0","","19","","11","","","","98.56","","","","","","NA"
"-55.67","49.92","LA SCIE","8402520","2019-04-29 01:30","2019","04","29","01:30","0.6","","0.1","","96","","0.0","","19","","10","","","","98.56","","","","","","NA"
"-55.67","49.92","LA SCIE","8402520","2019-04-29 02:30","2019","04","29","02:30","1.0","","0.5","","96","","0.0","","19","","11","","","","98.53","","","","","","NA"
"-55.67","49.92","LA SCIE","8402520","2019-04-29 03:30","2019","04","29","03:30","1.2","","0.6","","96","","0.0","","20","","10","","","","98.49","","","","","","NA"
"-55.67","49.92","LA SCIE","8402520","2019-04-29 04:30","2019","04","29","04:30","1.3","","0.5","","95","","0.0","","20","","10","","","","98.49","","","","","","NA"
"-55.67","49.92","LA SCIE","8402520","2019-04-29 05:30","2019","04","29","05:30","1.3","","0.6","","95","","0.0","","20","","8","","","","98.48","","","","","","NA"
"-55.67","49.92","LA SCIE","8402520","2019-04-29 06:30","2019","04","29","06:30","2.2","","0.8","","91","","0.0","","19","","8","","","","98.47","","","","","","NA"
"-55.67","49.92","LA SCIE","8402520","2019-04-29 07:30","2019","04","29","07:30","3.1","","0.9","","86","","0.0","","20","","11","","","","98.40","","","","","","NA"
"-55.67","49.92","LA SCIE","8402520","2019-04-29 08:30","2019","04","29","08:30","3.9","","0.7","","80","","0.0","","20","","10","","","","98.35","","","","","","NA"
"-55.67","49.92","LA SCIE","8402520","2019-04-29 09:30","2019","04","29","09:30","3.7","","0.7","","81","","0.0","","19","","10","","","","98.30","","","","","","NA"
"-55.67","49.92","LA SCIE","8402520","2019-04-29 10:30","2019","04","29","10:30","4.0","","1.1","","81","","0.0","","20","","12","","","","98.22","","","","","","NA"
"-55.67","49.92","LA SCIE","8402520","2019-04-29 11:30","2019","04","29","11:30","3.1","","1.7","","91","","0.2","","19","","12","","","","98.13","","","","","","NA"
"-55.67","49.92","LA SCIE","8402520","2019-04-29 12:30","2019","04","29","12:30","3.4","","1.7","","89","","0.3","","21","","11","","","","98.03","","","","","","NA"
"-55.67","49.92","LA SCIE","8402520","2019-04-29 13:30","2019","04","29","13:30","4.3","","2.0","","85","","0.7","","22","","10","","","","97.92","","","","","","NA"
"-55.67","49.92","LA SCIE","8402520","2019-04-29 14:30","2019","04","29","14:30","4.4","","1.3","","81","","0.0","","24","","12","","","","97.83","","","","","","NA"
"-55.67","49.92","LA SCIE","8402520","2019-04-29 15:30","2019","04","29","15:30","2.5","","0.6","","88","","0.0","","28","","13","","","","97.77","","","","","","NA"
"-55.67","49.92","LA SCIE","8402520","2019-04-29 16:30","2019","04","29","16:30","1.8","","0.2","","89","","0.0","","29","","10","","","","97.72","","","","","","NA"
"-55.67","49.92","LA SCIE","8402520","2019-04-29 17:30","2019","04","29","17:30","1.2","","0.1","","93","","0.0","","29","","12","","","","97.68","","","","","","NA"
"-55.67","49.92","LA SCIE","8402520","2019-04-29 18:30","2019","04","29","18:30","0.4","","-0.5","","94","","0.0","","28","","15","","","","97.66","","","","","","NA"
"-55.67","49.92","LA SCIE","8402520","2019-04-29 19:30","2019","04","29","19:30","-1.0","","-2.4","","90","","0.0","","26","","15","","","","97.64","","","","-6","","NA"
"-55.67","49.92","LA SCIE","8402520","2019-04-29 20:30","2019","04","29","20:30","-1.6","","-3.2","","89","","0.0","","26","","12","","","","97.62","","","","-6","","NA"
"-55.67","49.92","LA SCIE","8402520","2019-04-29 21:30","2019","04","29","21:30","-1.9","","-3.9","","86","","0.0","","25","","11","","","","97.57","","","","-6","","NA"
"-55.67","49.92","LA SCIE","8402520","2019-04-29 22:30","2019","04","29","22:30","-1.9","","-3.8","","86","","0.0","","24","","9","","","","97.51","","","","-5","","NA"
"-55.67","49.92","LA SCIE","8402520","2019-04-29 23:30","2019","04","29","23:30","-1.7","","-3.5","","87","","0.0","","25","","18","","","","97.45","","","","-7","","NA"
"-55.67","49.92","LA SCIE","8402520","2019-04-30 00:30","2019","04","30","00:30","-1.3","","-2.4","","92","","0.0","","27","","21","","","","97.44","","","","-7","","NA"
"-55.67","49.92","LA SCIE","8402520","2019-04-30 01:30","2019","04","30","01:30","-1.4","","-2.3","","94","","0.0","","28","","22","","","","97.44","","","","-7","","NA"
"-55.67","49.92","LA SCIE","8402520","2019-04-30 02:30","2019","04","30","02:30","-1.9","","-4.3","","84","","0.0","","28","","23","","","","97.48","","","","-8","","NA"
"-55.67","49.92","LA SCIE","8402520","2019-04-30 03:30","2019","04","30","03:30","-2.6","","-5.8","","78","","0.0","","28","","24","","","","97.51","","","","-9","","NA"
"-55.67","49.92","LA SCIE","8402520","2019-04-30 04:30","2019","04","30","04:30","-2.6","","-5.5","","80","","0.0","","28","","15","","","","97.56","","","","-8","","NA"
"-55.67","49.92","LA SCIE","8402520","2019-04-30 05:30","2019","04","30","05:30","-3.0","","-6.5","","77","","0.0","","28","","23","","","","97.63","","","","-9","","NA"
"-55.67","49.92","LA SCIE","8402520","2019-04-30 06:30","2019","04","30","06:30","-3.1","","-7.0","","74","","0.0","","27","","26","","","","97.66","","","","-10","","NA"
"-55.67","49.92","LA SCIE","8402520","2019-04-30 07:30","2019","04","30","07:30","-3.3","","-7.2","","74","","0.0","","28","","25","","","","97.67","","","","-10","","NA"
"-55.67","49.92","LA SCIE","8402520","2019-04-30 08:30","2019","04","30","08:30","-3.6","","-6.2","","82","","0.0","","27","","25","","","","97.70","","","","-11","","NA"
"-55.67","49.92","LA SCIE","8402520","2019-04-30 09:30","2019","04","30","09:30","-3.0","","-6.3","","78","","0.0","","27","","25","","","","97.70","","","","-10","","NA"
"-55.67","49.92","LA SCIE","8402520","2019-04-30 10:30","2019","04","30","10:30","-1.9","","-7.2","","67","","0.0","","27","","27","","","","97.67","","","","-9","","NA"
"-55.67","49.92","LA SCIE","8402520","2019-04-30 11:30","2019","04","30","11:30","-1.0","","-6.9","","64","","0.0","","26","","27","","","","97.64","","","","-7","","NA"
"-55.67","49.92","LA SCIE","8402520","2019-04-30 12:30","2019","04","30","12:30","-1.5","","-7.4","","64","","0.0","","27","","25","","","","97.64","","","","-8","","NA"
"-55.67","49.92","LA SCIE","8402520","2019-04-30 13:30","2019","04","30","13:30","-1.0","","-6.9","","64","","0.0","","28","","25","","","","97.66","","","","-7","","NA"
"-55.67","49.92","LA SCIE","8402520","2019-04-30 14:30","2019","04","30","14:30","-1.6","","-6.6","","69","","0.0","","28","","25","","","","97.67","","","","-8","","NA"
"-55.67","49.92","LA SCIE","8402520","2019-04-30 15:30","2019","04","30","15:30","-1.2","","-6.7","","66","","0.0","","28","","20","","","","97.65","","","","-7","","NA"
"-55.67","49.92","LA SCIE","8402520","2019-04-30 16:30","2019","04","30","16:30","-2.0","","-6.7","","70","","0.0","","28","","29","","","","97.65","","","","-9","","NA"
"-55.67","49.92","LA SCIE","8402520","2019-04-30 17:30","2019","04","30","17:30","-1.5","","-6.7","","68","","0.0","","28","","30","","","","97.70","","","","-8","","NA"
"-55.67","49.92","LA SCIE","8402520","2019-04-30 18:30","2019","04","30","18:30","-1.8","","-6.8","","68","","0.0","","28","","27","","","","97.69","","","","-8","","NA"
"-55.67","49.92","LA SCIE","8402520","2019-04-30 19:30","2019","04","30","19:30","-2.0","","-6.6","","71","","0.0","","27","","26","","","","97.67","","","","-9","","NA"
"-55.67","49.92","LA SCIE","8402520","2019-04-30 20:30","2019","04","30","20:30","-2.0","","-6.3","","73","","0.0","","27","","27","","","","97.67","","","","-9","","NA"
"-55.67","49.92","LA SCIE","8402520","2019-04-30 21:30","2019","04","30","21:30","-1.7","","-5.6","","75","","0.0","","27","","27","","","","97.65","","","","-8","","NA"
"-55.67","49.92","LA SCIE","8402520","2019-04-30 22:30","2019","04","30","22:30","-1.1","","-4.6","","77","","0.0","","28","","23","","","","97.62","","","","-7","","NA"
"-55.67","49.92","LA SCIE","8402520","2019-04-30 23:30","2019","04","30","23:30","-1.1","","-3.8","","82","","0.0","","28","","22","","","","97.58","","","","-7","","NA"
