"Longitude (x)","Latitude (y)","Station Name","Climate ID","Date/Time (LST)","Year","Month","Day","Time (LST)","Temp (°C)","Temp Flag","Dew Point Temp (°C)","Dew Point Temp Flag","Rel Hum (%)","Rel Hum Flag","Precip. Amount (mm)","Precip. Amount Flag","Wind Dir (10s deg)","Wind Dir Flag","Wind Spd (km/h)","Wind Spd Flag","Visibility (km)","Visibility Flag","Stn Press (kPa)","Stn Press Flag","Hmdx","Hmdx Flag","Wind Chill","Wind Chill Flag","Weather"
"-61.70","49.09","HEATH POINT","7053038","2018-03-01 00:00","2018","03","01","00:00","-7.2","","-7.9","","95","","0.0","","35","","11","","","","102.05","","","","-12","","NA"
"-61.70","49.09","HEATH POINT","7053038","2018-03-01 01:00","2018","03","01","01:00","-5.2","","-6.1","","93","","0.0","","1","","14","","","","102.03","","","","-11","","NA"
"-61.70","49.09","HEATH POINT","7053038","2018-03-01 02:00","2018","03","01","02:00","-4.9","","-5.7","","95","","0.0","","1","","17","","","","102.05","","","","-11","","NA"
"-61.70","49.09","HEATH POINT","7053038","2018-03-01 03:00","2018","03","01","03:00","-4.5","","-5.1","","96","","0.0","","1","","14","","","","102.06","","","","-10","","NA"
"-61.70","49.09","HEATH POINT","7053038","2018-03-01 04:00","2018","03","01","04:00","-3.7","","-3.8","","99","","0.0","","3","","15","","","","102.13","","","","-9","","NA"
"-61.70","49.09","HEATH POINT","7053038","2018-03-01 05:00","2018","03","01","05:00","-3.5","","-3.5","","100","","0.0","","7","","14","","","","102.13","","","","-9","","NA"
"-61.70","49.09","HEATH POINT","7053038","2018-03-01 06:00","2018","03","01","06:00","-3.6","","-4.0","","97","","0.0","","6","","17","","","","102.16","","","","-9","","NA"
"-61.70","49.09","HEATH POINT","7053038","2018-03-01 07:00","2018","03","01","07:00"
"-61.70","49.09","HEATH POINT","7053038","2018-03-01 08:00","2018","03","01","08:00","-3.7","","-3.7","","100","","0.0","","6","","15","","","","102.20","","","","-9","","NA"
"-61.70","49.09","HEATH POINT","7053038","2018-03-01 09:00","2018","03","01","09:00","-3.3","","-3.4","","100","","0.0","","6","","21","","","","102.24","","","","-10","","NA"
"-61.70","49.09","HEATH POINT","7053038","2018-03-01 10:00","2018","03","01","10:00","-3.2","","-3.8","","96","","0.0","","7","","18","","","","102.26","","","","-9","","NA"
"-61.70","49.09","HEATH POINT","7053038","2018-03-01 11:00","2018","03","01","11:00","-3.0","","-3.1","","100","","0.0","","6","","21","","","","102.25","","","","-9","","NA"
"-61.70","49.09","HEATH POINT","7053038","2018-03-01 12:00","2018","03","01","12:00","-3.0","","-3.2","","99","","0.0","","6","","23","","","","102.25","","","","-9","","NA"
"-61.70","49.09","HEATH POINT","7053038","2018-03-01 13:00","2018","03","01","13:00","-2.7","","-3.0","","98","","0.0","","6","","23","","","","102.23","","","","-9","","NA"
"-61.70","49.09","HEATH POINT","7053038","2018-03-01 14:00","2018","03","01","14:00","-2.4","","-3.3","","94","","0.0","","5","","17","","","","102.24","","","","-8","","NA"
"-61.70","49.09","HEATH POINT","7053038","2018-03-01 15:00","2018","03","01","15:00","-2.4","","-3.2","","94","","0.0","","4","","17","","","","102.27","","","","-8","","NA"
"-61.70","49.09","HEATH POINT","7053038","2018-03-01 16:00","2018","03","01","16:00","-2.6","","-3.3","","95","","0.0","","3","","15","","","","102.30","","","","-8","","NA"
"-61.70","49.09","HEATH POINT","7053038","2018-03-01 17:00","2018","03","01","17:00","-2.9","","-3.3","","97","","0.0","","3","","16","","","","102.32","","","","-8","","NA"
"-61.70","49.09","HEATH POINT","7053038","2018-03-01 18:00","2018","03","01","18:00","-3.2","","-3.4","","99","","0.0","","3","","14","","","","102.29","","","","-8","","NA"
"-61.70","49.09","HEATH POINT","7053038","2018-03-01 19:00","2018","03","01","19:00","-3.4","","-3.5","","99","","0.0","","4","","11","","","","102.28","","","","-8","","NA"
"-61.70","49.09","HEATH POINT","7053038","2018-03-01 20:00","2018","03","01","20:00","-3.8","","-3.8","","99","","0.0","","5","","8","","","","102.23","","","","-7","","NA"
"-61.70","49.09","HEATH POINT","7053038","2018-03-01 21:00","2018","03","01","21:00","-3.4","","-3.7","","98","","0.0","","5","","11","","","","102.19","","","","-8","","NA"
"-61.70","49.09","HEATH POINT","7053038","2018-03-01 22:00","2018","03","01","22:00","-3.7","","-4.3","","96","","0.0","","3","","18","","","","102.20","","","","-10","","NA"
"-61.70","49.09","HEATH POINT","7053038","2018-03-01 23:00","2018","03","01","23:00","-4.3","","-4.7","","97","","0.0","","2","","12","","","","102.23","","","","-9","","NA"
"-61.70","49.09","HEATH POINT","7053038","2018-03-02 00:00","2018","03","02","00:00","-3.7","","-4.0","","98","","0.0","","3","","13","","","","102.23","","","","-9","","NA"
"-61.70","49.09","HEATH POINT","7053038","2018-03-02 01:00","2018","03","02","01:00","-3.6","","-4.0","","97","","0.0","","2","","14","","","","102.23","","","","-9","","NA"
"-61.70","49.09","HEATH POINT","7053038","2018-03-02 02:00","2018","03","02","02:00","-3.5","","-3.9","","97","","0.0","","3","","17","","","","102.19","","","","-9","","NA"
"-61.70","49.09","HEATH POINT","7053038","2018-03-02 03:00","2018","03","02","03:00","-4.3","","-4.8","","96","","0.0","","2","","16","","","","102.15","","","","-10","","NA"
"-61.70","49.09","HEATH POINT","7053038","2018-03-02 04:00","2018","03","02","04:00","-4.5","","-5.1","","96","","0.0","","1","","19","","","","102.16","","","","-11","","NA"
"-61.70","49.09","HEATH POINT","7053038","2018-03-02 05:00","2018","03","02","05:00","-4.3","","-5.1","","94","","0.0","","1","","19","","","","102.15","","","","-10","","NA"
"-61.70","49.09","HEATH POINT","7053038","2018-03-02 06:00","2018","03","02","06:00","-4.0","","-4.5","","97","","0.0","","2","","16","","","","102.18","","","","-10","","NA"
"-61.70","49.09","HEATH POINT","7053038","2018-03-02 07:00","2018","03","02","07:00","-3.7","","-4.3","","96","","0.0","","3","","23","","","","102.15","","","","-10","","NA"
"-61.70","49.09","HEATH POINT","7053038","2018-03-02 08:00","2018","03","02","08:00","-3.4","","-4.1","","95","","0.0","","3","","18","","","","102.18","","","","-9","","NA"
"-61.70","49.09","HEATH POINT","7053038","2018-03-02 09:00","2018","03","02","09:00","-3.6","","-3.6","","100","","0.0","","4","","24","","","","102.19","","","","-10","","NA"
"-61.70","49.09","HEATH POINT","7053038","2018-03-02 10:00","2018","03","02","10:00","-3.3","","-3.4","","100","","0.0","","3","","25","","","","102.19","","","","-10","","NA"
"-61.70","49.09","HEATH POINT","7053038","2018-03-02 11:00","2018","03","02","11:00","-3.0","","-3.0","","100","","0.0","","2","","23","","","","102.20","","","","-9","","NA"
"-61.70","49.09","HEATH POINT","7053038","2018-03-02 12:00","2018","03","02","12:00","-2.8","","-2.8","","100","","0.0","","1","","28","","","","102.15","","","","-10","","NA"
"-61.70","49.09","HEATH POINT","7053038","2018-03-02 13:00","2018","03","02","13:00","-2.8","","-2.9","","99","","0.0","","1","","30","","","","102.11","","","","-10","","NA"
"-61.70","49.09","HEATH POINT","7053038","2018-03-02 14:00","2018","03","02","14:00","-2.3","","-2.4","","100","","0.0","","1","","28","","","","102.08","","","","-9","","NA"
"-61.70","49.09","HEATH POINT","7053038","2018-03-02 15:00","2018","03","02","15:00","-1.4","","-1.4","","100","","0.0","","1","","17","","","","102.08","","","","-7","","NA"
"-61.70","49.09","HEATH POINT","7053038","2018-03-02 16:00","2018","03","02","16:00","-1.0","","-1.0","","100","","0.0","","3","","10","","","","102.11","","","","-5","","NA"
"-61.70","49.09","HEATH POINT","7053038","2018-03-02 17:00","2018","03","02","17:00","-0.7","","-0.7","","100","","0.0","","4","","8","","","","102.11","","","","-4","","NA"
"-61.70","49.09","HEATH POINT","7053038","2018-03-02 18:00","2018","03","02","18:00","-0.4","","-0.4","","99","","0.0","","5","","8","","","","102.15","","","","-3","","NA"
"-61.70","49.09","HEATH POINT","7053038","2018-03-02 19:00","2018","03","02","19:00","-0.2","","-0.5","","98","","0.0","","6","","10","","","","102.18","","","","-4","","NA"
"-61.70","49.09","HEATH POINT","7053038","2018-03-02 20:00","2018","03","02","20:00","-0.9","","-1.2","","98","","0.0","","5","","10","","","","102.22","","","","-4","","NA"
"-61.70","49.09","HEATH POINT","7053038","2018-03-02 21:00","2018","03","02","21:00","-1.2","","-1.6","","97","","0.0","","5","","11","","","","102.22","","","","-5","","NA"
"-61.70","49.09","HEATH POINT","7053038","2018-03-02 22:00","2018","03","02","22:00","-1.5","","-1.9","","97","","0.0","","5","","11","","","","102.25","","","","-5","","NA"
"-61.70","49.09","HEATH POINT","7053038","2018-03-02 23:00","2018","03","02","23:00","-1.6","","-2.1","","97","","0.0","","5","","12","","","","102.27","","","","-6","","NA"
"-61.70","49.09","HEATH POINT","7053038","2018-03-03 00:00","2018","03","03","00:00","-1.0","","-1.5","","97","","0.0","","5","","13","","","","102.31","","","","-5","","NA"
"-61.70","49.09","HEATH POINT","7053038","2018-03-03 01:00","2018","03","03","01:00","-1.0","","-1.3","","98","","0.0","","5","","14","","","","102.31","","","","-5","","NA"
"-61.70","49.09","HEATH POINT","7053038","2018-03-03 02:00","2018","03","03","02:00","-1.0","","-1.4","","97","","0.0","","5","","13","","","","102.33","","","","-5","","NA"
"-61.70","49.09","HEATH POINT","7053038","2018-03-03 03:00","2018","03","03","03:00","-0.9","","-1.5","","96","","0.0","","5","","26","","","","102.32","","","","-7","","NA"
"-61.70","49.09","HEATH POINT","7053038","2018-03-03 04:00","2018","03","03","04:00","-1.0","","-1.5","","97","","0.0","","4","","24","","","","102.34","","","","-7","","NA"
"-61.70","49.09","HEATH POINT","7053038","2018-03-03 05:00","2018","03","03","05:00","-1.2","","-1.5","","98","","0.0","","4","","32","","","","102.37","","","","-8","","NA"
"-61.70","49.09","HEATH POINT","7053038","2018-03-03 06:00","2018","03","03","06:00","-1.4","","-1.4","","100","","0.0","","4","","31","","","","102.42","","","","-8","","NA"
"-61.70","49.09","HEATH POINT","7053038","2018-03-03 07:00","2018","03","03","07:00","-0.9","","-1.0","","99","","0.0","","4","","27","","","","102.43","","","","-7","","NA"
"-61.70","49.09","HEATH POINT","7053038","2018-03-03 08:00","2018","03","03","08:00","-0.6","","-1.0","","97","","0.0","","5","","31","","","","102.48","","","","-7","","NA"
"-61.70","49.09","HEATH POINT","7053038","2018-03-03 09:00","2018","03","03","09:00","-0.4","","-1.0","","96","","0.0","","5","","36","","","","102.53","","","","-8","","NA"
"-61.70","49.09","HEATH POINT","7053038","2018-03-03 10:00","2018","03","03","10:00","-0.3","","-1.1","","94","","0.0","","5","","32","","","","102.55","","","","-7","","NA"
"-61.70","49.09","HEATH POINT","7053038","2018-03-03 11:00","2018","03","03","11:00","-0.1","","-1.1","","93","","0.0","","5","","39","","","","102.58","","","","-7","","NA"
"-61.70","49.09","HEATH POINT","7053038","2018-03-03 12:00","2018","03","03","12:00","-0.3","","-1.0","","95","","0.0","","5","","40","","","","102.55","","","","-8","","NA"
"-61.70","49.09","HEATH POINT","7053038","2018-03-03 13:00","2018","03","03","13:00","-0.3","","-1.0","","95","","0.0","","5","","40","","","","102.57","","","","-8","","NA"
"-61.70","49.09","HEATH POINT","7053038","2018-03-03 14:00","2018","03","03","14:00","-0.4","","-1.5","","93","","0.0","","4","","34","","","","102.57","","","","-7","","NA"
"-61.70","49.09","HEATH POINT","7053038","2018-03-03 15:00","2018","03","03","15:00","-0.6","","-1.8","","92","","0.0","","4","","38","","","","102.53","","","","-8","","NA"
"-61.70","49.09","HEATH POINT","7053038","2018-03-03 16:00","2018","03","03","16:00","-0.8","","-2.1","","91","","0.0","","5","","38","","","","102.51","","","","-8","","NA"
"-61.70","49.09","HEATH POINT","7053038","2018-03-03 17:00","2018","03","03","17:00","-0.8","","-2.1","","91","","0.0","","5","","45","","","","102.49","","","","-9","","NA"
"-61.70","49.09","HEATH POINT","7053038","2018-03-03 18:00","2018","03","03","18:00","-1.3","","-2.4","","92","","0.0","","4","","38","","","","102.54","","","","-9","","NA"
"-61.70","49.09","HEATH POINT","7053038","2018-03-03 19:00","2018","03","03","19:00","-1.3","","-2.4","","92","","0.0","","4","","27","","","","102.53","","","","-8","","NA"
"-61.70","49.09","HEATH POINT","7053038","2018-03-03 20:00","2018","03","03","20:00","-1.2","","-2.6","","90","","0.0","","4","","31","","","","102.52","","","","-8","","NA"
"-61.70","49.09","HEATH POINT","7053038","2018-03-03 21:00","2018","03","03","21:00","-1.4","","-2.8","","90","","0.0","","5","","34","","","","102.48","","","","-9","","NA"
"-61.70","49.09","HEATH POINT","7053038","2018-03-03 22:00","2018","03","03","22:00","-1.3","","-2.9","","89","","0.0","","5","","43","","","","102.45","","","","-9","","NA"
"-61.70","49.09","HEATH POINT","7053038","2018-03-03 23:00","2018","03","03","23:00","-1.6","","-2.7","","92","","0.0","","4","","40","","","","102.43","","","","-10","","NA"
"-61.70","49.09","HEATH POINT","7053038","2018-03-04 00:00","2018","03","04","00:00","-1.6","","-2.7","","92","","0.0","","4","","45","","","","102.41","","","","-10","","NA"
"-61.70","49.09","HEATH POINT","7053038","2018-03-04 01:00","2018","03","04","01:00","-1.8","","-2.9","","92","","0.0","","4","","41","","","","102.42","","","","-10","","NA"
"-61.70","49.09","HEATH POINT","7053038","2018-03-04 02:00","2018","03","04","02:00","-1.6","","-2.7","","92","","0.0","","4","","40","","","","102.42","","","","-10","","NA"
"-61.70","49.09","HEATH POINT","7053038","2018-03-04 03:00","2018","03","04","03:00","-1.7","","-2.7","","93","","0.0","","4","","39","","","","102.42","","","","-10","","NA"
"-61.70","49.09","HEATH POINT","7053038","2018-03-04 04:00","2018","03","04","04:00","-1.6","","-2.8","","92","","0.0","","4","","39","","","","102.45","","","","-9","","NA"
"-61.70","49.09","HEATH POINT","7053038","2018-03-04 05:00","2018","03","04","05:00","-1.6","","-3.0","","91","","0.0","","4","","45","","","","102.41","","","","-10","","NA"
"-61.70","49.09","HEATH POINT","7053038","2018-03-04 06:00","2018","03","04","06:00","-1.5","","-2.7","","92","","0.0","","4","","40","","","","102.44","","","","-9","","NA"
"-61.70","49.09","HEATH POINT","7053038","2018-03-04 07:00","2018","03","04","07:00","-1.4","","-2.5","","92","","0.0","","4","","38","","","","102.46","","","","-9","","NA"
"-61.70","49.09","HEATH POINT","7053038","2018-03-04 08:00","2018","03","04","08:00","-1.3","","-2.4","","92","","0.0","","4","","33","","","","102.48","","","","-8","","NA"
"-61.70","49.09","HEATH POINT","7053038","2018-03-04 09:00","2018","03","04","09:00","-1.1","","-2.3","","91","","0.0","","4","","44","","","","102.44","","","","-9","","NA"
"-61.70","49.09","HEATH POINT","7053038","2018-03-04 10:00","2018","03","04","10:00","-0.9","","-2.2","","91","","0.0","","4","","37","","","","102.42","","","","-8","","NA"
"-61.70","49.09","HEATH POINT","7053038","2018-03-04 11:00","2018","03","04","11:00","-1.0","","-1.9","","93","","0.0","","4","","34","","","","102.42","","","","-8","","NA"
"-61.70","49.09","HEATH POINT","7053038","2018-03-04 12:00","2018","03","04","12:00","-1.0","","-2.0","","93","","0.0","","4","","37","","","","102.37","","","","-8","","NA"
"-61.70","49.09","HEATH POINT","7053038","2018-03-04 13:00","2018","03","04","13:00","-0.9","","-2.0","","93","","0.0","","4","","37","","","","102.34","","","","-8","","NA"
"-61.70","49.09","HEATH POINT","7053038","2018-03-04 14:00","2018","03","04","14:00","-0.9","","-2.0","","93","","0.0","","4","","42","","","","102.34","","","","-9","","NA"
"-61.70","49.09","HEATH POINT","7053038","2018-03-04 15:00","2018","03","04","15:00","-1.0","","-2.2","","92","","0.0","","4","","41","","","","102.34","","","","-9","","NA"
"-61.70","49.09","HEATH POINT","7053038","2018-03-04 16:00","2018","03","04","16:00","-1.0","","-2.3","","91","","0.0","","4","","37","","","","102.36","","","","-8","","NA"
"-61.70","49.09","HEATH POINT","7053038","2018-03-04 17:00","2018","03","04","17:00","-1.4","","-2.5","","92","","0.0","","4","","39","","","","102.38","","","","-9","","NA"
"-61.70","49.09","HEATH POINT","7053038","2018-03-04 18:00","2018","03","04","18:00","-1.3","","-2.6","","91","","0.0","","4","","39","","","","102.41","","","","-9","","NA"
"-61.70","49.09","HEATH POINT","7053038","2018-03-04 19:00","2018","03","04","19:00","-1.4","","-2.6","","92","","0.0","","4","","35","","","","102.40","","","","-9","","NA"
"-61.70","49.09","HEATH POINT","7053038","2018-03-04 20:00","2018","03","04","20:00","-1.6","","-2.5","","93","","0.0","","4","","37","","","","102.41","","","","-9","","NA"
"-61.70","49.09","HEATH POINT","7053038","2018-03-04 21:00","2018","03","04","21:00","-1.5","","-2.5","","93","","0.0","","5","","38","","","","102.42","","","","-9","","NA"
"-61.70","49.09","HEATH POINT","7053038","2018-03-04 22:00","2018","03","04","22:00","-1.7","","-2.6","","93","","0.0","","5","","36","","","","102.42","","","","-9","","NA"
"-61.70","49.09","HEATH POINT","7053038","2018-03-04 23:00","2018","03","04","23:00","-1.6","","-2.5","","93","","0.0","","5","","36","","","","102.43","","","","-9","","NA"
"-61.70","49.09","HEATH POINT","7053038","2018-03-05 00:00","2018","03","05","00:00","-1.7","","-2.6","","94","","0.0","","5","","34","","","","102.43","","","","-9","","NA"
"-61.70","49.09","HEATH POINT","7053038","2018-03-05 01:00","2018","03","05","01:00","-1.7","","-2.6","","94","","0.0","","4","","35","","","","102.40","","","","-9","","NA"
"-61.70","49.09","HEATH POINT","7053038","2018-03-05 02:00","2018","03","05","02:00","-1.7","","-2.6","","94","","0.0","","4","","35","","","","102.39","","","","-9","","NA"
"-61.70","49.09","HEATH POINT","7053038","2018-03-05 03:00","2018","03","05","03:00","-1.7","","-2.4","","95","","0.0","","4","","35","","","","102.37","","","","-9","","NA"
"-61.70","49.09","HEATH POINT","7053038","2018-03-05 04:00","2018","03","05","04:00","-1.7","","-2.4","","95","","0.0","","4","","39","","","","102.37","","","","-10","","NA"
"-61.70","49.09","HEATH POINT","7053038","2018-03-05 05:00","2018","03","05","05:00","-1.7","","-2.3","","95","","0.0","","5","","41","","","","102.35","","","","-10","","NA"
"-61.70","49.09","HEATH POINT","7053038","2018-03-05 06:00","2018","03","05","06:00","-1.6","","-2.5","","94","","0.0","","5","","42","","","","102.36","","","","-10","","NA"
"-61.70","49.09","HEATH POINT","7053038","2018-03-05 07:00","2018","03","05","07:00","-1.6","","-2.8","","92","","0.0","","4","","41","","","","102.35","","","","-10","","NA"
"-61.70","49.09","HEATH POINT","7053038","2018-03-05 08:00","2018","03","05","08:00","-1.4","","-3.1","","89","","0.0","","4","","52","","","","102.39","","","","-10","","NA"
"-61.70","49.09","HEATH POINT","7053038","2018-03-05 09:00","2018","03","05","09:00","-1.5","","-2.9","","90","","0.0","","4","","46","","","","102.39","","","","-10","","NA"
"-61.70","49.09","HEATH POINT","7053038","2018-03-05 10:00","2018","03","05","10:00","-1.6","","-2.9","","91","","0.0","","4","","47","","","","102.38","","","","-10","","NA"
"-61.70","49.09","HEATH POINT","7053038","2018-03-05 11:00","2018","03","05","11:00","-1.6","","-3.1","","89","","0.0","","4","","49","","","","102.37","","","","-10","","NA"
"-61.70","49.09","HEATH POINT","7053038","2018-03-05 12:00","2018","03","05","12:00","-1.6","","-3.1","","89","","0.0","","3","","49","","","","102.32","","","","-10","","NA"
"-61.70","49.09","HEATH POINT","7053038","2018-03-05 13:00","2018","03","05","13:00","-1.6","","-3.2","","89","","0.0","","4","","52","","","","102.31","","","","-10","","NA"
"-61.70","49.09","HEATH POINT","7053038","2018-03-05 14:00","2018","03","05","14:00","-1.4","","-3.3","","87","","0.0","","4","","51","","","","102.28","","","","-10","","NA"
"-61.70","49.09","HEATH POINT","7053038","2018-03-05 15:00","2018","03","05","15:00","-1.5","","-3.1","","89","","0.0","","4","","49","","","","102.25","","","","-10","","NA"
"-61.70","49.09","HEATH POINT","7053038","2018-03-05 16:00","2018","03","05","16:00","-1.4","","-2.9","","89","","0.0","","4","","50","","","","102.21","","","","-10","","NA"
"-61.70","49.09","HEATH POINT","7053038","2018-03-05 17:00","2018","03","05","17:00","-1.3","","-3.0","","88","","0.0","","4","","49","","","","102.25","","","","-10","","NA"
"-61.70","49.09","HEATH POINT","7053038","2018-03-05 18:00","2018","03","05","18:00","-1.4","","-3.3","","87","","0.0","","4","","45","","","","102.24","","","","-10","","NA"
"-61.70","49.09","HEATH POINT","7053038","2018-03-05 19:00","2018","03","05","19:00","-1.6","","-3.2","","89","","0.0","","4","","44","","","","102.24","","","","-10","","NA"
"-61.70","49.09","HEATH POINT","7053038","2018-03-05 20:00","2018","03","05","20:00","-1.6","","-3.5","","87","","0.0","","5","","47","","","","102.21","","","","-10","","NA"
"-61.70","49.09","HEATH POINT","7053038","2018-03-05 21:00","2018","03","05","21:00","-1.6","","-3.5","","87","","0.0","","5","","53","","","","102.21","","","","-11","","NA"
"-61.70","49.09","HEATH POINT","7053038","2018-03-05 22:00","2018","03","05","22:00","-1.7","","-3.6","","87","","0.0","","5","","54","","","","102.18","","","","-11","","NA"
"-61.70","49.09","HEATH POINT","7053038","2018-03-05 23:00","2018","03","05","23:00","-1.7","","-3.7","","86","","0.0","","4","","55","","","","102.11","","","","-11","","NA"
"-61.70","49.09","HEATH POINT","7053038","2018-03-06 00:00","2018","03","06","00:00","-1.8","","-4.4","","82","","0.0","","5","","62","","","","102.13","","","","-11","","NA"
"-61.70","49.09","HEATH POINT","7053038","2018-03-06 01:00","2018","03","06","01:00","-1.8","","-4.7","","81","","0.0","","5","","62","","","","102.12","","","","-11","","NA"
"-61.70","49.09","HEATH POINT","7053038","2018-03-06 02:00","2018","03","06","02:00","-1.7","","-4.3","","83","","0.0","","5","","59","","","","102.08","","","","-11","","NA"
"-61.70","49.09","HEATH POINT","7053038","2018-03-06 03:00","2018","03","06","03:00","-1.7","","-3.9","","85","","0.0","","4","","53","","","","102.06","","","","-11","","NA"
"-61.70","49.09","HEATH POINT","7053038","2018-03-06 04:00","2018","03","06","04:00","-1.8","","-3.9","","86","","0.0","","4","","51","","","","102.02","","","","-11","","NA"
"-61.70","49.09","HEATH POINT","7053038","2018-03-06 05:00","2018","03","06","05:00","-1.7","","-3.8","","86","","0.0","","4","","49","","","","102.01","","","","-10","","NA"
"-61.70","49.09","HEATH POINT","7053038","2018-03-06 06:00","2018","03","06","06:00","-1.7","","-3.8","","86","","0.0","","4","","50","","","","102.05","","","","-10","","NA"
"-61.70","49.09","HEATH POINT","7053038","2018-03-06 07:00","2018","03","06","07:00","-1.6","","-3.8","","85","","0.0","","5","","48","","","","102.05","","","","-10","","NA"
"-61.70","49.09","HEATH POINT","7053038","2018-03-06 08:00","2018","03","06","08:00","-1.6","","-4.3","","82","","0.0","","5","","55","","","","102.07","","","","-11","","NA"
"-61.70","49.09","HEATH POINT","7053038","2018-03-06 09:00","2018","03","06","09:00","-1.6","","-4.3","","82","","0.0","","4","","56","","","","102.08","","","","-11","","NA"
"-61.70","49.09","HEATH POINT","7053038","2018-03-06 10:00","2018","03","06","10:00","-1.6","","-4.0","","84","","0.0","","4","","53","","","","102.09","","","","-11","","NA"
"-61.70","49.09","HEATH POINT","7053038","2018-03-06 11:00","2018","03","06","11:00","-1.6","","-3.9","","84","","0.0","","4","","56","","","","102.07","","","","-11","","NA"
"-61.70","49.09","HEATH POINT","7053038","2018-03-06 12:00","2018","03","06","12:00","-1.7","","-3.7","","86","","0.0","","4","","53","","","","102.04","","","","-11","","NA"
"-61.70","49.09","HEATH POINT","7053038","2018-03-06 13:00","2018","03","06","13:00","-1.7","","-3.7","","86","","0.0","","4","","55","","","","102.04","","","","-11","","NA"
"-61.70","49.09","HEATH POINT","7053038","2018-03-06 14:00","2018","03","06","14:00","-1.6","","-3.9","","85","","0.0","","4","","56","","","","102.06","","","","-11","","NA"
"-61.70","49.09","HEATH POINT","7053038","2018-03-06 15:00","2018","03","06","15:00","-1.5","","-4.1","","83","","0.0","","4","","61","","","","102.08","","","","-11","","NA"
"-61.70","49.09","HEATH POINT","7053038","2018-03-06 16:00","2018","03","06","16:00","-1.4","","-4.4","","80","","0.0","","4","","61","","","","102.09","","","","-11","","NA"
"-61.70","49.09","HEATH POINT","7053038","2018-03-06 17:00","2018","03","06","17:00","-1.3","","-4.8","","77","","0.0","","5","","61","","","","102.13","","","","-11","","NA"
"-61.70","49.09","HEATH POINT","7053038","2018-03-06 18:00","2018","03","06","18:00","-1.3","","-4.7","","78","","0.0","","5","","58","","","","102.14","","","","-10","","NA"
"-61.70","49.09","HEATH POINT","7053038","2018-03-06 19:00","2018","03","06","19:00","-1.4","","-4.7","","79","","0.0","","5","","55","","","","102.18","","","","-10","","NA"
"-61.70","49.09","HEATH POINT","7053038","2018-03-06 20:00","2018","03","06","20:00","-1.4","","-4.7","","78","","0.0","","5","","54","","","","102.19","","","","-10","","NA"
"-61.70","49.09","HEATH POINT","7053038","2018-03-06 21:00","2018","03","06","21:00","-1.5","","-4.4","","81","","0.0","","5","","48","","","","102.21","","","","-10","","NA"
"-61.70","49.09","HEATH POINT","7053038","2018-03-06 22:00","2018","03","06","22:00","-1.5","","-4.4","","81","","0.0","","5","","50","","","","102.22","","","","-10","","NA"
"-61.70","49.09","HEATH POINT","7053038","2018-03-06 23:00","2018","03","06","23:00","-1.6","","-4.4","","81","","0.0","","5","","50","","","","102.25","","","","-10","","NA"
"-61.70","49.09","HEATH POINT","7053038","2018-03-07 00:00","2018","03","07","00:00","-1.7","","-4.3","","82","","0.0","","5","","49","","","","102.27","","","","-10","","NA"
"-61.70","49.09","HEATH POINT","7053038","2018-03-07 01:00","2018","03","07","01:00","-1.7","","-4.3","","82","","0.0","","5","","46","","","","102.32","","","","-10","","NA"
"-61.70","49.09","HEATH POINT","7053038","2018-03-07 02:00","2018","03","07","02:00","-1.7","","-4.3","","83","","0.0","","5","","50","","","","102.30","","","","-10","","NA"
"-61.70","49.09","HEATH POINT","7053038","2018-03-07 03:00","2018","03","07","03:00","-1.8","","-4.4","","83","","0.0","","5","","46","","","","102.31","","","","-10","","NA"
"-61.70","49.09","HEATH POINT","7053038","2018-03-07 04:00","2018","03","07","04:00","-2.5","","-3.2","","95","","0.0","","4","","44","","","","102.33","","","","-11","","NA"
"-61.70","49.09","HEATH POINT","7053038","2018-03-07 05:00","2018","03","07","05:00","-2.9","","-3.6","","95","","0.0","","4","","43","","","","102.36","","","","-12","","NA"
"-61.70","49.09","HEATH POINT","7053038","2018-03-07 06:00","2018","03","07","06:00","-3.3","","-4.3","","93","","0.0","","4","","38","","","","102.41","","","","-12","","NA"
"-61.70","49.09","HEATH POINT","7053038","2018-03-07 07:00","2018","03","07","07:00","-3.2","","-4.1","","93","","0.0","","4","","34","","","","102.46","","","","-11","","NA"
"-61.70","49.09","HEATH POINT","7053038","2018-03-07 08:00","2018","03","07","08:00","-2.8","","-4.0","","91","","0.0","","6","","39","","","","102.45","","","","-11","","NA"
"-61.70","49.09","HEATH POINT","7053038","2018-03-07 09:00","2018","03","07","09:00","-2.9","","-3.8","","94","","0.0","","5","","35","","","","102.48","","","","-11","","NA"
"-61.70","49.09","HEATH POINT","7053038","2018-03-07 10:00","2018","03","07","10:00","-2.7","","-4.0","","90","","0.0","","5","","38","","","","102.50","","","","-11","","NA"
"-61.70","49.09","HEATH POINT","7053038","2018-03-07 11:00","2018","03","07","11:00","-2.4","","-4.1","","88","","0.0","","6","","40","","","","102.54","","","","-11","","NA"
"-61.70","49.09","HEATH POINT","7053038","2018-03-07 12:00","2018","03","07","12:00","-2.5","","-4.1","","89","","0.0","","5","","38","","","","102.52","","","","-11","","NA"
"-61.70","49.09","HEATH POINT","7053038","2018-03-07 13:00","2018","03","07","13:00","-2.3","","-4.7","","84","","0.0","","7","","37","","","","102.50","","","","-10","","NA"
"-61.70","49.09","HEATH POINT","7053038","2018-03-07 14:00","2018","03","07","14:00","-2.3","","-4.4","","85","","0.0","","6","","40","","","","102.46","","","","-10","","NA"
"-61.70","49.09","HEATH POINT","7053038","2018-03-07 15:00","2018","03","07","15:00","-2.2","","-4.8","","82","","0.0","","6","","44","","","","102.44","","","","-11","","NA"
"-61.70","49.09","HEATH POINT","7053038","2018-03-07 16:00","2018","03","07","16:00","-2.3","","-5.1","","81","","0.0","","6","","43","","","","102.46","","","","-11","","NA"
"-61.70","49.09","HEATH POINT","7053038","2018-03-07 17:00","2018","03","07","17:00","-2.1","","-4.4","","84","","0.0","","7","","44","","","","102.42","","","","-11","","NA"
"-61.70","49.09","HEATH POINT","7053038","2018-03-07 18:00","2018","03","07","18:00","-2.0","","-4.3","","84","","0.0","","6","","37","","","","102.47","","","","-10","","NA"
"-61.70","49.09","HEATH POINT","7053038","2018-03-07 19:00","2018","03","07","19:00","-1.9","","-4.1","","85","","0.0","","6","","34","","","","102.50","","","","-9","","NA"
"-61.70","49.09","HEATH POINT","7053038","2018-03-07 20:00","2018","03","07","20:00","-1.9","","-3.9","","86","","0.0","","6","","33","","","","102.49","","","","-9","","NA"
"-61.70","49.09","HEATH POINT","7053038","2018-03-07 21:00","2018","03","07","21:00","-1.8","","-3.9","","86","","0.0","","6","","31","","","","102.46","","","","-9","","NA"
"-61.70","49.09","HEATH POINT","7053038","2018-03-07 22:00","2018","03","07","22:00","-1.7","","-4.0","","84","","0.0","","7","","31","","","","102.44","","","","-9","","NA"
"-61.70","49.09","HEATH POINT","7053038","2018-03-07 23:00","2018","03","07","23:00","-1.8","","-4.1","","84","","0.0","","9","","28","","","","102.43","","","","-9","","NA"
"-61.70","49.09","HEATH POINT","7053038","2018-03-08 00:00","2018","03","08","00:00","-1.8","","-5.1","","78","","0.0","","9","","34","","","","102.41","","","","-9","","NA"
"-61.70","49.09","HEATH POINT","7053038","2018-03-08 01:00","2018","03","08","01:00","-1.9","","-4.4","","83","","0.0","","9","","31","","","","102.38","","","","-9","","NA"
"-61.70","49.09","HEATH POINT","7053038","2018-03-08 02:00","2018","03","08","02:00","-1.8","","-4.9","","79","","0.0","","8","","32","","","","102.31","","","","-9","","NA"
"-61.70","49.09","HEATH POINT","7053038","2018-03-08 03:00","2018","03","08","03:00","-1.9","","-4.7","","81","","0.0","","8","","32","","","","102.22","","","","-9","","NA"
"-61.70","49.09","HEATH POINT","7053038","2018-03-08 04:00","2018","03","08","04:00","-1.9","","-4.5","","82","","0.0","","7","","36","","","","102.18","","","","-10","","NA"
"-61.70","49.09","HEATH POINT","7053038","2018-03-08 05:00","2018","03","08","05:00","-2.0","","-5.3","","79","","0.0","","8","","34","","","","102.23","","","","-10","","NA"
"-61.70","49.09","HEATH POINT","7053038","2018-03-08 06:00","2018","03","08","06:00","-2.0","","-5.1","","79","","0.0","","9","","34","","","","102.24","","","","-10","","NA"
"-61.70","49.09","HEATH POINT","7053038","2018-03-08 07:00","2018","03","08","07:00","-2.0","","-5.2","","79","","0.0","","8","","37","","","","102.23","","","","-10","","NA"
"-61.70","49.09","HEATH POINT","7053038","2018-03-08 08:00","2018","03","08","08:00","-2.0","","-5.3","","78","","0.0","","8","","37","","","","102.21","","","","-10","","NA"
"-61.70","49.09","HEATH POINT","7053038","2018-03-08 09:00","2018","03","08","09:00","-2.0","","-5.2","","79","","0.0","","9","","38","","","","102.16","","","","-10","","NA"
"-61.70","49.09","HEATH POINT","7053038","2018-03-08 10:00","2018","03","08","10:00","-2.0","","-5.1","","79","","0.0","","9","","37","","","","102.13","","","","-10","","NA"
"-61.70","49.09","HEATH POINT","7053038","2018-03-08 11:00","2018","03","08","11:00","-2.1","","-4.8","","82","","0.0","","8","","39","","","","102.05","","","","-10","","NA"
"-61.70","49.09","HEATH POINT","7053038","2018-03-08 12:00","2018","03","08","12:00","-2.2","","-5.1","","80","","0.0","","7","","42","","","","101.97","","","","-11","","NA"
"-61.70","49.09","HEATH POINT","7053038","2018-03-08 13:00","2018","03","08","13:00","-2.2","","-4.8","","82","","0.0","","7","","44","","","","101.87","","","","-11","","NA"
"-61.70","49.09","HEATH POINT","7053038","2018-03-08 14:00","2018","03","08","14:00","-2.0","","-4.6","","82","","0.0","","8","","41","","","","101.88","","","","-10","","NA"
"-61.70","49.09","HEATH POINT","7053038","2018-03-08 15:00","2018","03","08","15:00","-2.0","","-4.5","","83","","0.0","","8","","38","","","","101.86","","","","-10","","NA"
"-61.70","49.09","HEATH POINT","7053038","2018-03-08 16:00","2018","03","08","16:00","-2.0","","-4.4","","83","","0.0","","7","","40","","","","101.85","","","","-10","","NA"
"-61.70","49.09","HEATH POINT","7053038","2018-03-08 17:00","2018","03","08","17:00","-1.9","","-4.2","","84","","0.0","","7","","40","","","","101.84","","","","-10","","NA"
"-61.70","49.09","HEATH POINT","7053038","2018-03-08 18:00","2018","03","08","18:00","-1.8","","-4.0","","85","","0.0","","7","","39","","","","101.86","","","","-10","","NA"
"-61.70","49.09","HEATH POINT","7053038","2018-03-08 19:00","2018","03","08","19:00","-1.7","","-3.6","","87","","0.0","","7","","39","","","","101.83","","","","-10","","NA"
"-61.70","49.09","HEATH POINT","7053038","2018-03-08 20:00","2018","03","08","20:00","-1.8","","-3.3","","89","","0.0","","7","","40","","","","101.80","","","","-10","","NA"
"-61.70","49.09","HEATH POINT","7053038","2018-03-08 21:00","2018","03","08","21:00","-1.6","","-3.3","","88","","0.0","","7","","40","","","","101.72","","","","-10","","NA"
"-61.70","49.09","HEATH POINT","7053038","2018-03-08 22:00","2018","03","08","22:00","-1.6","","-3.4","","88","","0.0","","8","","41","","","","101.66","","","","-10","","NA"
"-61.70","49.09","HEATH POINT","7053038","2018-03-08 23:00","2018","03","08","23:00","-1.6","","-3.4","","88","","0.0","","7","","45","","","","101.56","","","","-10","","NA"
"-61.70","49.09","HEATH POINT","7053038","2018-03-09 00:00","2018","03","09","00:00","-1.6","","-3.4","","88","","0.0","","8","","42","","","","101.56","","","","-10","","NA"
"-61.70","49.09","HEATH POINT","7053038","2018-03-09 01:00","2018","03","09","01:00","-2.1","","-2.4","","98","","0.0","","9","","42","","","","101.53","","","","-10","","NA"
"-61.70","49.09","HEATH POINT","7053038","2018-03-09 02:00","2018","03","09","02:00","-2.3","","-2.3","","100","","0.0","","9","","42","","","","101.50","","","","-11","","NA"
"-61.70","49.09","HEATH POINT","7053038","2018-03-09 03:00","2018","03","09","03:00","-2.4","","-2.4","","100","","0.0","","10","","43","","","","101.50","","","","-11","","NA"
"-61.70","49.09","HEATH POINT","7053038","2018-03-09 04:00","2018","03","09","04:00","-2.5","","-2.6","","99","","0.0","","9","","49","","","","101.44","","","","-11","","NA"
"-61.70","49.09","HEATH POINT","7053038","2018-03-09 05:00","2018","03","09","05:00","-2.5","","-2.6","","100","","0.0","","9","","43","","","","101.44","","","","-11","","NA"
"-61.70","49.09","HEATH POINT","7053038","2018-03-09 06:00","2018","03","09","06:00","-2.5","","-2.5","","100","","0.0","","9","","42","","","","101.49","","","","-11","","NA"
"-61.70","49.09","HEATH POINT","7053038","2018-03-09 07:00","2018","03","09","07:00","-2.3","","-2.5","","98","","0.0","","9","","43","","","","101.45","","","","-11","","NA"
"-61.70","49.09","HEATH POINT","7053038","2018-03-09 08:00","2018","03","09","08:00","-2.0","","-2.9","","93","","0.0","","9","","42","","","","101.43","","","","-10","","NA"
"-61.70","49.09","HEATH POINT","7053038","2018-03-09 09:00","2018","03","09","09:00","-2.0","","-2.6","","96","","0.0","","9","","41","","","","101.43","","","","-10","","NA"
"-61.70","49.09","HEATH POINT","7053038","2018-03-09 10:00","2018","03","09","10:00","-2.2","","-2.4","","99","","0.0","","9","","43","","","","101.38","","","","-11","","NA"
"-61.70","49.09","HEATH POINT","7053038","2018-03-09 11:00","2018","03","09","11:00","-2.1","","-2.2","","100","","0.0","","8","","40","","","","101.34","","","","-10","","NA"
"-61.70","49.09","HEATH POINT","7053038","2018-03-09 12:00","2018","03","09","12:00","-2.1","","-2.1","","99","","0.0","","8","","39","","","","101.27","","","","-10","","NA"
"-61.70","49.09","HEATH POINT","7053038","2018-03-09 13:00","2018","03","09","13:00","-2.1","","-2.1","","100","","0.0","","7","","38","","","","101.20","","","","-10","","NA"
"-61.70","49.09","HEATH POINT","7053038","2018-03-09 14:00","2018","03","09","14:00","-1.8","","-2.3","","97","","0.0","","7","","41","","","","101.13","","","","-10","","NA"
"-61.70","49.09","HEATH POINT","7053038","2018-03-09 15:00","2018","03","09","15:00","-1.7","","-2.6","","94","","0.0","","6","","45","","","","101.03","","","","-10","","NA"
"-61.70","49.09","HEATH POINT","7053038","2018-03-09 16:00","2018","03","09","16:00","-1.6","","-2.5","","94","","0.0","","6","","43","","","","100.99","","","","-10","","NA"
"-61.70","49.09","HEATH POINT","7053038","2018-03-09 17:00","2018","03","09","17:00","-1.5","","-2.8","","91","","0.0","","5","","45","","","","100.90","","","","-10","","NA"
"-61.70","49.09","HEATH POINT","7053038","2018-03-09 18:00","2018","03","09","18:00","-1.3","","-2.8","","89","","0.0","","5","","50","","","","100.74","","","","-10","","NA"
"-61.70","49.09","HEATH POINT","7053038","2018-03-09 19:00","2018","03","09","19:00","-1.1","","-2.9","","87","","0.0","","6","","55","","","","100.62","","","","-10","","NA"
"-61.70","49.09","HEATH POINT","7053038","2018-03-09 20:00","2018","03","09","20:00","-1.1","","-3.0","","87","","0.0","","6","","52","","","","100.52","","","","-10","","NA"
"-61.70","49.09","HEATH POINT","7053038","2018-03-09 21:00","2018","03","09","21:00","-1.1","","-3.1","","87","","0.0","","6","","53","","","","100.47","","","","-10","","NA"
"-61.70","49.09","HEATH POINT","7053038","2018-03-09 22:00","2018","03","09","22:00","-2.0","","-2.1","","100","","0.0","","7","","61","","","","100.39","","","","-12","","NA"
"-61.70","49.09","HEATH POINT","7053038","2018-03-09 23:00","2018","03","09","23:00","-2.2","","-2.2","","100","","0.3","","7","","60","","","","100.29","","","","-12","","NA"
"-61.70","49.09","HEATH POINT","7053038","2018-03-10 00:00","2018","03","10","00:00","-2.2","","-2.2","","100","","0.2","","7","","56","","","","100.25","","","","-12","","NA"
"-61.70","49.09","HEATH POINT","7053038","2018-03-10 01:00","2018","03","10","01:00","-2.3","","-2.3","","100","","0.0","","7","","63","","","","100.22","","","","-12","","NA"
"-61.70","49.09","HEATH POINT","7053038","2018-03-10 02:00","2018","03","10","02:00","-2.2","","-2.2","","100","","0.0","","7","","58","","","","100.18","","","","-12","","NA"
"-61.70","49.09","HEATH POINT","7053038","2018-03-10 03:00","2018","03","10","03:00","-2.2","","-2.2","","100","","0.0","","7","","59","","","","100.15","","","","-12","","NA"
"-61.70","49.09","HEATH POINT","7053038","2018-03-10 04:00","2018","03","10","04:00","-2.2","","-2.2","","100","","0.4","","7","","60","","","","100.14","","","","-12","","NA"
"-61.70","49.09","HEATH POINT","7053038","2018-03-10 05:00","2018","03","10","05:00","-2.1","","-2.1","","100","","0.3","","8","","54","","","","100.15","","","","-11","","NA"
"-61.70","49.09","HEATH POINT","7053038","2018-03-10 06:00","2018","03","10","06:00","-2.1","","-2.1","","100","","0.3","","8","","48","","","","100.17","","","","-11","","NA"
"-61.70","49.09","HEATH POINT","7053038","2018-03-10 07:00","2018","03","10","07:00","-2.0","","-2.0","","100","","0.0","","8","","43","","","","100.21","","","","-10","","NA"
"-61.70","49.09","HEATH POINT","7053038","2018-03-10 08:00","2018","03","10","08:00","-1.8","","-1.8","","100","","0.0","","8","","41","","","","100.21","","","","-10","","NA"
"-61.70","49.09","HEATH POINT","7053038","2018-03-10 09:00","2018","03","10","09:00","-1.7","","-1.7","","100","","0.0","","8","","37","","","","100.23","","","","-9","","NA"
"-61.70","49.09","HEATH POINT","7053038","2018-03-10 10:00","2018","03","10","10:00","-1.6","","-1.6","","100","","0.0","","9","","39","","","","100.24","","","","-9","","NA"
"-61.70","49.09","HEATH POINT","7053038","2018-03-10 11:00","2018","03","10","11:00","-1.5","","-1.5","","100","","0.0","","8","","39","","","","100.23","","","","-9","","NA"
"-61.70","49.09","HEATH POINT","7053038","2018-03-10 12:00","2018","03","10","12:00","-1.5","","-1.5","","100","","0.0","","8","","34","","","","100.23","","","","-9","","NA"
"-61.70","49.09","HEATH POINT","7053038","2018-03-10 13:00","2018","03","10","13:00","-1.5","","-1.5","","100","","0.0","","8","","35","","","","100.24","","","","-9","","NA"
"-61.70","49.09","HEATH POINT","7053038","2018-03-10 14:00","2018","03","10","14:00","-1.5","","-1.5","","100","","0.0","","8","","32","","","","100.26","","","","-9","","NA"
"-61.70","49.09","HEATH POINT","7053038","2018-03-10 15:00","2018","03","10","15:00","-1.5","","-1.5","","100","","0.0","","7","","35","","","","100.28","","","","-9","","NA"
"-61.70","49.09","HEATH POINT","7053038","2018-03-10 16:00","2018","03","10","16:00","-1.5","","-1.5","","100","","0.0","","7","","32","","","","100.30","","","","-9","","NA"
"-61.70","49.09","HEATH POINT","7053038","2018-03-10 17:00","2018","03","10","17:00","-1.5","","-1.5","","100","","0.0","","8","","31","","","","100.34","","","","-9","","NA"
"-61.70","49.09","HEATH POINT","7053038","2018-03-10 18:00","2018","03","10","18:00","-1.5","","-1.5","","100","","0.0","","7","","29","","","","100.36","","","","-8","","NA"
"-61.70","49.09","HEATH POINT","7053038","2018-03-10 19:00","2018","03","10","19:00","-1.6","","-1.6","","100","","0.0","","7","","24","","","","100.40","","","","-8","","NA"
"-61.70","49.09","HEATH POINT","7053038","2018-03-10 20:00","2018","03","10","20:00","-1.6","","-1.6","","100","","0.0","","8","","24","","","","100.43","","","","-8","","NA"
"-61.70","49.09","HEATH POINT","7053038","2018-03-10 21:00","2018","03","10","21:00","-2.0","","-2.0","","100","","0.0","","7","","26","","","","100.44","","","","-9","","NA"
"-61.70","49.09","HEATH POINT","7053038","2018-03-10 22:00","2018","03","10","22:00","-2.4","","-2.4","","100","","0.0","","7","","22","","","","100.47","","","","-9","","NA"
"-61.70","49.09","HEATH POINT","7053038","2018-03-10 23:00","2018","03","10","23:00","-2.6","","-2.6","","100","","0.0","","6","","21","","","","100.49","","","","-9","","NA"
"-61.70","49.09","HEATH POINT","7053038","2018-03-11 00:00","2018","03","11","00:00","-2.1","","-2.1","","100","","0.0","","5","","19","","","","100.52","","","","-8","","NA"
"-61.70","49.09","HEATH POINT","7053038","2018-03-11 01:00","2018","03","11","01:00","-1.7","","-1.7","","100","","0.0","","7","","16","","","","100.52","","","","-7","","NA"
"-61.70","49.09","HEATH POINT","7053038","2018-03-11 02:00","2018","03","11","02:00","-1.7","","-1.7","","100","","0.0","","6","","20","","","","100.49","","","","-7","","NA"
"-61.70","49.09","HEATH POINT","7053038","2018-03-11 03:00","2018","03","11","03:00","-1.8","","-1.8","","100","","0.0","","5","","19","","","","100.53","","","","-7","","NA"
"-61.70","49.09","HEATH POINT","7053038","2018-03-11 04:00","2018","03","11","04:00","-1.8","","-1.8","","100","","0.0","","5","","22","","","","100.54","","","","-8","","NA"
"-61.70","49.09","HEATH POINT","7053038","2018-03-11 05:00","2018","03","11","05:00","-1.8","","-1.8","","100","","0.0","","5","","25","","","","100.57","","","","-8","","NA"
"-61.70","49.09","HEATH POINT","7053038","2018-03-11 06:00","2018","03","11","06:00","-1.7","","-1.7","","100","","0.0","","5","","26","","","","100.63","","","","-8","","NA"
"-61.70","49.09","HEATH POINT","7053038","2018-03-11 07:00","2018","03","11","07:00","-1.7","","-1.7","","100","","0.0","","5","","25","","","","100.68","","","","-8","","NA"
"-61.70","49.09","HEATH POINT","7053038","2018-03-11 08:00","2018","03","11","08:00"
"-61.70","49.09","HEATH POINT","7053038","2018-03-11 09:00","2018","03","11","09:00","-1.5","","-1.8","","98","","0.0","","4","","28","","","","100.78","","","","-8","","NA"
"-61.70","49.09","HEATH POINT","7053038","2018-03-11 10:00","2018","03","11","10:00","-1.4","","-1.7","","98","","0.0","","4","","32","","","","100.79","","","","-9","","NA"
"-61.70","49.09","HEATH POINT","7053038","2018-03-11 11:00","2018","03","11","11:00","-1.4","","-1.7","","98","","0.0","","4","","35","","","","100.81","","","","-9","","NA"
"-61.70","49.09","HEATH POINT","7053038","2018-03-11 12:00","2018","03","11","12:00","-1.4","","-1.8","","97","","0.0","","4","","38","","","","100.81","","","","-9","","NA"
"-61.70","49.09","HEATH POINT","7053038","2018-03-11 13:00","2018","03","11","13:00","-1.3","","-1.8","","97","","0.0","","4","","36","","","","100.81","","","","-9","","NA"
"-61.70","49.09","HEATH POINT","7053038","2018-03-11 14:00","2018","03","11","14:00","-1.3","","-1.7","","97","","0.0","","4","","36","","","","100.86","","","","-9","","NA"
"-61.70","49.09","HEATH POINT","7053038","2018-03-11 15:00","2018","03","11","15:00","-1.3","","-1.7","","97","","0.0","","4","","38","","","","100.90","","","","-9","","NA"
"-61.70","49.09","HEATH POINT","7053038","2018-03-11 16:00","2018","03","11","16:00","-1.3","","-1.7","","97","","0.0","","4","","42","","","","100.95","","","","-9","","NA"
"-61.70","49.09","HEATH POINT","7053038","2018-03-11 17:00","2018","03","11","17:00","-1.3","","-1.7","","97","","0.0","","4","","42","","","","101.00","","","","-9","","NA"
"-61.70","49.09","HEATH POINT","7053038","2018-03-11 18:00","2018","03","11","18:00","-1.3","","-1.8","","96","","0.0","","4","","45","","","","101.08","","","","-10","","NA"
"-61.70","49.09","HEATH POINT","7053038","2018-03-11 19:00","2018","03","11","19:00","-1.4","","-1.9","","96","","0.0","","4","","44","","","","101.15","","","","-10","","NA"
"-61.70","49.09","HEATH POINT","7053038","2018-03-11 20:00","2018","03","11","20:00","-1.3","","-2.0","","95","","0.0","","4","","41","","","","101.20","","","","-9","","NA"
"-61.70","49.09","HEATH POINT","7053038","2018-03-11 21:00","2018","03","11","21:00","-1.4","","-2.1","","95","","0.0","","3","","38","","","","101.24","","","","-9","","NA"
"-61.70","49.09","HEATH POINT","7053038","2018-03-11 22:00","2018","03","11","22:00","-1.4","","-2.1","","95","","0.0","","4","","43","","","","101.27","","","","-10","","NA"
"-61.70","49.09","HEATH POINT","7053038","2018-03-11 23:00","2018","03","11","23:00","-1.4","","-2.1","","95","","0.0","","4","","42","","","","101.29","","","","-9","","NA"
"-61.70","49.09","HEATH POINT","7053038","2018-03-12 00:00","2018","03","12","00:00","-1.6","","-2.0","","97","","0.0","","2","","33","","","","101.33","","","","-9","","NA"
"-61.70","49.09","HEATH POINT","7053038","2018-03-12 01:00","2018","03","12","01:00","-1.6","","-2.0","","97","","0.0","","2","","36","","","","101.37","","","","-9","","NA"
"-61.70","49.09","HEATH POINT","7053038","2018-03-12 02:00","2018","03","12","02:00","-1.7","","-2.2","","96","","0.0","","2","","36","","","","101.39","","","","-9","","NA"
"-61.70","49.09","HEATH POINT","7053038","2018-03-12 03:00","2018","03","12","03:00","-1.6","","-2.4","","94","","0.0","","1","","33","","","","101.45","","","","-9","","NA"
"-61.70","49.09","HEATH POINT","7053038","2018-03-12 04:00","2018","03","12","04:00","-1.6","","-2.9","","91","","0.0","","1","","32","","","","101.49","","","","-9","","NA"
"-61.70","49.09","HEATH POINT","7053038","2018-03-12 05:00","2018","03","12","05:00","-1.9","","-3.2","","91","","0.0","","1","","29","","","","101.54","","","","-9","","NA"
"-61.70","49.09","HEATH POINT","7053038","2018-03-12 06:00","2018","03","12","06:00","-1.7","","-3.0","","91","","0.0","","1","","28","","","","101.61","","","","-8","","NA"
"-61.70","49.09","HEATH POINT","7053038","2018-03-12 07:00","2018","03","12","07:00","-1.6","","-3.0","","90","","0.0","","1","","28","","","","101.66","","","","-8","","NA"
"-61.70","49.09","HEATH POINT","7053038","2018-03-12 08:00","2018","03","12","08:00","-1.6","","-3.0","","90","","0.0","","36","","26","","","","101.73","","","","-8","","NA"
"-61.70","49.09","HEATH POINT","7053038","2018-03-12 09:00","2018","03","12","09:00","-1.3","","-3.1","","88","","0.0","","1","","26","","","","101.77","","","","-8","","NA"
"-61.70","49.09","HEATH POINT","7053038","2018-03-12 10:00","2018","03","12","10:00","-1.0","","-3.3","","84","","0.0","","1","","29","","","","101.76","","","","-8","","NA"
"-61.70","49.09","HEATH POINT","7053038","2018-03-12 11:00","2018","03","12","11:00","-0.9","","-3.4","","83","","0.0","","1","","27","","","","101.80","","","","-7","","NA"
"-61.70","49.09","HEATH POINT","7053038","2018-03-12 12:00","2018","03","12","12:00","-1.1","","-3.0","","87","","0.0","","1","","25","","","","101.85","","","","-7","","NA"
"-61.70","49.09","HEATH POINT","7053038","2018-03-12 13:00","2018","03","12","13:00","-0.5","","-3.4","","81","","0.0","","36","","24","","","","101.88","","","","-6","","NA"
"-61.70","49.09","HEATH POINT","7053038","2018-03-12 14:00","2018","03","12","14:00","-0.3","","-3.5","","79","","0.0","","1","","25","","","","101.91","","","","-6","","NA"
"-61.70","49.09","HEATH POINT","7053038","2018-03-12 15:00","2018","03","12","15:00","0.1","","-3.6","","76","","0.0","","36","","25","","","","101.95","","","","","","NA"
"-61.70","49.09","HEATH POINT","7053038","2018-03-12 16:00","2018","03","12","16:00","0.1","","-3.6","","76","","0.0","","36","","24","","","","101.98","","","","","","NA"
"-61.70","49.09","HEATH POINT","7053038","2018-03-12 17:00","2018","03","12","17:00","-1.0","","-3.1","","86","","0.0","","34","","18","","","","102.04","","","","-6","","NA"
"-61.70","49.09","HEATH POINT","7053038","2018-03-12 18:00","2018","03","12","18:00","-2.0","","-3.9","","87","","0.0","","33","","18","","","","102.09","","","","-7","","NA"
"-61.70","49.09","HEATH POINT","7053038","2018-03-12 19:00","2018","03","12","19:00","-2.0","","-4.7","","82","","0.0","","34","","20","","","","102.14","","","","-8","","NA"
"-61.70","49.09","HEATH POINT","7053038","2018-03-12 20:00","2018","03","12","20:00","-2.1","","-4.7","","82","","0.0","","34","","22","","","","102.17","","","","-8","","NA"
"-61.70","49.09","HEATH POINT","7053038","2018-03-12 21:00","2018","03","12","21:00","-2.0","","-5.2","","78","","0.0","","33","","26","","","","102.17","","","","-9","","NA"
"-61.70","49.09","HEATH POINT","7053038","2018-03-12 22:00","2018","03","12","22:00","-1.1","","-3.9","","81","","0.0","","35","","22","","","","102.18","","","","-7","","NA"
"-61.70","49.09","HEATH POINT","7053038","2018-03-12 23:00","2018","03","12","23:00","-0.6","","-3.3","","82","","0.0","","1","","24","","","","102.20","","","","-7","","NA"
"-61.70","49.09","HEATH POINT","7053038","2018-03-13 00:00","2018","03","13","00:00","-0.9","","-2.8","","87","","0.0","","3","","24","","","","102.21","","","","-7","","NA"
"-61.70","49.09","HEATH POINT","7053038","2018-03-13 01:00","2018","03","13","01:00","-0.8","","-3.0","","85","","0.0","","3","","25","","","","102.19","","","","-7","","NA"
"-61.70","49.09","HEATH POINT","7053038","2018-03-13 02:00","2018","03","13","02:00","-1.3","","-2.7","","90","","0.0","","4","","26","","","","102.16","","","","-8","","NA"
"-61.70","49.09","HEATH POINT","7053038","2018-03-13 03:00","2018","03","13","03:00","-1.1","","-2.2","","92","","0.0","","6","","27","","","","102.19","","","","-8","","NA"
"-61.70","49.09","HEATH POINT","7053038","2018-03-13 04:00","2018","03","13","04:00","-1.1","","-2.0","","94","","0.0","","6","","28","","","","102.19","","","","-8","","NA"
"-61.70","49.09","HEATH POINT","7053038","2018-03-13 05:00","2018","03","13","05:00","-1.2","","-1.9","","95","","0.0","","6","","39","","","","102.08","","","","-9","","NA"
"-61.70","49.09","HEATH POINT","7053038","2018-03-13 06:00","2018","03","13","06:00","-1.2","","-1.7","","96","","0.0","","7","","38","","","","102.11","","","","-9","","NA"
"-61.70","49.09","HEATH POINT","7053038","2018-03-13 07:00","2018","03","13","07:00","-1.1","","-1.6","","97","","0.0","","6","","37","","","","102.08","","","","-9","","NA"
"-61.70","49.09","HEATH POINT","7053038","2018-03-13 08:00","2018","03","13","08:00","-1.0","","-1.6","","96","","0.0","","7","","36","","","","102.09","","","","-8","","NA"
"-61.70","49.09","HEATH POINT","7053038","2018-03-13 09:00","2018","03","13","09:00","-0.9","","-1.6","","95","","0.0","","7","","35","","","","102.09","","","","-8","","NA"
"-61.70","49.09","HEATH POINT","7053038","2018-03-13 10:00","2018","03","13","10:00","-0.8","","-1.7","","93","","0.0","","6","","35","","","","102.03","","","","-8","","NA"
"-61.70","49.09","HEATH POINT","7053038","2018-03-13 11:00","2018","03","13","11:00","-0.3","","-2.1","","88","","0.0","","7","","37","","","","101.99","","","","-8","","NA"
"-61.70","49.09","HEATH POINT","7053038","2018-03-13 12:00","2018","03","13","12:00","-0.3","","-2.3","","87","","0.0","","6","","39","","","","101.92","","","","-8","","NA"
"-61.70","49.09","HEATH POINT","7053038","2018-03-13 13:00","2018","03","13","13:00","-0.4","","-2.3","","87","","0.0","","6","","41","","","","101.86","","","","-8","","NA"
"-61.70","49.09","HEATH POINT","7053038","2018-03-13 14:00","2018","03","13","14:00","-0.6","","-2.2","","89","","0.0","","6","","41","","","","101.83","","","","-8","","NA"
"-61.70","49.09","HEATH POINT","7053038","2018-03-13 15:00","2018","03","13","15:00","-0.8","","-2.1","","91","","0.0","","5","","44","","","","101.72","","","","-9","","NA"
"-61.70","49.09","HEATH POINT","7053038","2018-03-13 16:00","2018","03","13","16:00","-0.9","","-2.0","","92","","0.0","","5","","46","","","","101.62","","","","-9","","NA"
"-61.70","49.09","HEATH POINT","7053038","2018-03-13 17:00","2018","03","13","17:00","-0.9","","-2.0","","92","","0.0","","5","","40","","","","101.63","","","","-9","","NA"
"-61.70","49.09","HEATH POINT","7053038","2018-03-13 18:00","2018","03","13","18:00","-0.9","","-2.1","","91","","0.0","","5","","43","","","","101.57","","","","-9","","NA"
"-61.70","49.09","HEATH POINT","7053038","2018-03-13 19:00","2018","03","13","19:00","-0.8","","-2.1","","91","","0.0","","6","","43","","","","101.51","","","","-9","","NA"
"-61.70","49.09","HEATH POINT","7053038","2018-03-13 20:00","2018","03","13","20:00","-0.7","","-2.3","","89","","0.0","","6","","45","","","","101.39","","","","-9","","NA"
"-61.70","49.09","HEATH POINT","7053038","2018-03-13 21:00","2018","03","13","21:00","-0.6","","-2.4","","88","","0.0","","7","","46","","","","101.30","","","","-9","","NA"
"-61.70","49.09","HEATH POINT","7053038","2018-03-13 22:00","2018","03","13","22:00","-0.6","","-2.6","","86","","0.0","","7","","45","","","","101.21","","","","-9","","NA"
"-61.70","49.09","HEATH POINT","7053038","2018-03-13 23:00","2018","03","13","23:00","-0.9","","-2.3","","90","","0.0","","6","","44","","","","101.11","","","","-9","","NA"
"-61.70","49.09","HEATH POINT","7053038","2018-03-14 00:00","2018","03","14","00:00","-0.8","","-2.5","","88","","0.0","","7","","44","","","","101.04","","","","-9","","NA"
"-61.70","49.09","HEATH POINT","7053038","2018-03-14 01:00","2018","03","14","01:00","-0.8","","-3.0","","85","","0.0","","7","","46","","","","100.95","","","","-9","","NA"
"-61.70","49.09","HEATH POINT","7053038","2018-03-14 02:00","2018","03","14","02:00","-0.8","","-3.0","","85","","0.0","","7","","49","","","","100.87","","","","-9","","NA"
"-61.70","49.09","HEATH POINT","7053038","2018-03-14 03:00","2018","03","14","03:00","-1.0","","-3.0","","87","","0.0","","6","","49","","","","100.75","","","","-9","","NA"
"-61.70","49.09","HEATH POINT","7053038","2018-03-14 04:00","2018","03","14","04:00","-1.4","","-2.8","","90","","0.0","","6","","58","","","","100.67","","","","-11","","NA"
"-61.70","49.09","HEATH POINT","7053038","2018-03-14 05:00","2018","03","14","05:00","-1.6","","-2.2","","95","","0.0","","6","","65","","","","100.51","","","","-11","","NA"
"-61.70","49.09","HEATH POINT","7053038","2018-03-14 06:00","2018","03","14","06:00","-2.1","","-2.1","","99","","0.0","","6","","68","","","","100.39","","","","-12","","NA"
"-61.70","49.09","HEATH POINT","7053038","2018-03-14 07:00","2018","03","14","07:00","-1.9","","-2.2","","98","","0.0","","6","","68","","","","100.29","","","","-12","","NA"
"-61.70","49.09","HEATH POINT","7053038","2018-03-14 08:00","2018","03","14","08:00","-1.8","","-2.6","","94","","0.0","","5","","74","","","","100.06","","","","-12","","NA"
"-61.70","49.09","HEATH POINT","7053038","2018-03-14 09:00","2018","03","14","09:00","-1.6","","-2.2","","96","","0.0","","6","","77","","","","99.96","","","","-12","","NA"
"-61.70","49.09","HEATH POINT","7053038","2018-03-14 10:00","2018","03","14","10:00","-1.7","","-1.8","","99","","0.0","","6","","70","","","","99.85","","","","-12","","NA"
"-61.70","49.09","HEATH POINT","7053038","2018-03-14 11:00","2018","03","14","11:00","-1.8","","-1.8","","100","","0.0","","6","","70","","","","99.68","","","","-12","","NA"
"-61.70","49.09","HEATH POINT","7053038","2018-03-14 12:00","2018","03","14","12:00","-1.6","","-1.6","","100","","0.0","","6","","69","","","","99.48","","","","-12","","NA"
"-61.70","49.09","HEATH POINT","7053038","2018-03-14 13:00","2018","03","14","13:00","-1.3","","-1.3","","100","","0.0","","6","","70","","","","99.30","","","","-11","","NA"
"-61.70","49.09","HEATH POINT","7053038","2018-03-14 14:00","2018","03","14","14:00","-1.2","","-1.2","","100","","0.0","","7","","71","","","","99.14","","","","-11","","NA"
"-61.70","49.09","HEATH POINT","7053038","2018-03-14 15:00","2018","03","14","15:00","-0.8","","-0.8","","100","","0.2","","9","","59","","","","99.09","","","","-10","","NA"
"-61.70","49.09","HEATH POINT","7053038","2018-03-14 16:00","2018","03","14","16:00","-0.6","","-0.6","","100","","0.3","","13","","44","","","","99.13","","","","-9","","NA"
"-61.70","49.09","HEATH POINT","7053038","2018-03-14 17:00","2018","03","14","17:00"
"-61.70","49.09","HEATH POINT","7053038","2018-03-14 18:00","2018","03","14","18:00","-0.4","","-0.4","","100","","0.0","","15","","40","","","","99.22","","","","-8","","NA"
"-61.70","49.09","HEATH POINT","7053038","2018-03-14 19:00","2018","03","14","19:00","0.0","","-0.3","","98","","0.0","","16","","42","","","","99.25","","","","-8","","NA"
"-61.70","49.09","HEATH POINT","7053038","2018-03-14 20:00","2018","03","14","20:00","0.2","","-0.7","","94","","0.0","","16","","45","","","","99.33","","","","","","NA"
"-61.70","49.09","HEATH POINT","7053038","2018-03-14 21:00","2018","03","14","21:00","0.0","","-1.1","","93","","0.0","","17","","48","","","","99.39","","","","-8","","NA"
"-61.70","49.09","HEATH POINT","7053038","2018-03-14 22:00","2018","03","14","22:00","0.0","","-1.8","","88","","0.0","","17","","46","","","","99.37","","","","-8","","NA"
"-61.70","49.09","HEATH POINT","7053038","2018-03-14 23:00","2018","03","14","23:00"
"-61.70","49.09","HEATH POINT","7053038","2018-03-15 00:00","2018","03","15","00:00"
"-61.70","49.09","HEATH POINT","7053038","2018-03-15 01:00","2018","03","15","01:00"
"-61.70","49.09","HEATH POINT","7053038","2018-03-15 02:00","2018","03","15","02:00"
"-61.70","49.09","HEATH POINT","7053038","2018-03-15 03:00","2018","03","15","03:00"
"-61.70","49.09","HEATH POINT","7053038","2018-03-15 04:00","2018","03","15","04:00"
"-61.70","49.09","HEATH POINT","7053038","2018-03-15 05:00","2018","03","15","05:00"
"-61.70","49.09","HEATH POINT","7053038","2018-03-15 06:00","2018","03","15","06:00"
"-61.70","49.09","HEATH POINT","7053038","2018-03-15 07:00","2018","03","15","07:00","-1.4","","-1.4","","100","","1.1","","10","","4","","","","98.79","","","","-3","","NA"
"-61.70","49.09","HEATH POINT","7053038","2018-03-15 08:00","2018","03","15","08:00","-1.4","","-1.4","","100","","0.8","","36","","3","","","","98.61","","","","-2","","NA"
"-61.70","49.09","HEATH POINT","7053038","2018-03-15 09:00","2018","03","15","09:00","-1.0","","-1.0","","100","","0.6","","33","","16","","","","98.42","","","","-6","","NA"
"-61.70","49.09","HEATH POINT","7053038","2018-03-15 10:00","2018","03","15","10:00","","M","","M","","M","","M","","M","","M","","","","M","","","","","NA"
"-61.70","49.09","HEATH POINT","7053038","2018-03-15 11:00","2018","03","15","11:00","0.0","","-0.7","","96","","0.2","","27","","23","","","","98.11","","","","-6","","NA"
"-61.70","49.09","HEATH POINT","7053038","2018-03-15 12:00","2018","03","15","12:00","-1.5","","-1.5","","100","","0.0","","23","","36","","","","98.14","","","","-9","","NA"
"-61.70","49.09","HEATH POINT","7053038","2018-03-15 13:00","2018","03","15","13:00","-1.5","","-1.5","","100","","0.0","","22","","26","","","","98.16","","","","-8","","NA"
"-61.70","49.09","HEATH POINT","7053038","2018-03-15 14:00","2018","03","15","14:00","-1.3","","-1.3","","100","","0.0","","20","","23","","","","98.13","","","","-7","","NA"
"-61.70","49.09","HEATH POINT","7053038","2018-03-15 15:00","2018","03","15","15:00","-1.0","","-1.4","","97","","0.0","","18","","28","","","","98.11","","","","-8","","NA"
"-61.70","49.09","HEATH POINT","7053038","2018-03-15 16:00","2018","03","15","16:00","-1.3","","-1.5","","99","","0.0","","17","","28","","","","98.11","","","","-8","","NA"
"-61.70","49.09","HEATH POINT","7053038","2018-03-15 17:00","2018","03","15","17:00","-1.4","","-1.5","","100","","0.0","","16","","30","","","","98.10","","","","-8","","NA"
"-61.70","49.09","HEATH POINT","7053038","2018-03-15 18:00","2018","03","15","18:00","-1.1","","-1.2","","100","","0.0","","15","","25","","","","98.07","","","","-7","","NA"
"-61.70","49.09","HEATH POINT","7053038","2018-03-15 19:00","2018","03","15","19:00","-1.3","","-1.3","","100","","0.3","","16","","28","","","","98.04","","","","-8","","NA"
"-61.70","49.09","HEATH POINT","7053038","2018-03-15 20:00","2018","03","15","20:00","-1.4","","-1.4","","100","","0.6","","17","","24","","","","98.01","","","","-8","","NA"
"-61.70","49.09","HEATH POINT","7053038","2018-03-15 21:00","2018","03","15","21:00","-1.4","","-1.4","","100","","0.0","","20","","24","","","","97.98","","","","-8","","NA"
"-61.70","49.09","HEATH POINT","7053038","2018-03-15 22:00","2018","03","15","22:00"
"-61.70","49.09","HEATH POINT","7053038","2018-03-15 23:00","2018","03","15","23:00"
"-61.70","49.09","HEATH POINT","7053038","2018-03-16 00:00","2018","03","16","00:00"
"-61.70","49.09","HEATH POINT","7053038","2018-03-16 01:00","2018","03","16","01:00"
"-61.70","49.09","HEATH POINT","7053038","2018-03-16 02:00","2018","03","16","02:00"
"-61.70","49.09","HEATH POINT","7053038","2018-03-16 03:00","2018","03","16","03:00"
"-61.70","49.09","HEATH POINT","7053038","2018-03-16 04:00","2018","03","16","04:00"
"-61.70","49.09","HEATH POINT","7053038","2018-03-16 05:00","2018","03","16","05:00","-1.7","","-1.7","","100","","0.0","","22","","34","","","","97.86","","","","-9","","NA"
"-61.70","49.09","HEATH POINT","7053038","2018-03-16 06:00","2018","03","16","06:00","-1.7","","-1.7","","100","","","M","","","","M","","","97.87","","","","","","NA"
"-61.70","49.09","HEATH POINT","7053038","2018-03-16 07:00","2018","03","16","07:00","-1.5","","-1.8","","98","","0.0","","25","","28","","","","97.90","","","","-8","","NA"
"-61.70","49.09","HEATH POINT","7053038","2018-03-16 08:00","2018","03","16","08:00","-1.2","","-1.7","","96","","0.0","","24","","27","","","","97.95","","","","-8","","NA"
"-61.70","49.09","HEATH POINT","7053038","2018-03-16 09:00","2018","03","16","09:00","-1.2","","-1.6","","97","","0.2","","21","","27","","","","97.98","","","","-8","","NA"
"-61.70","49.09","HEATH POINT","7053038","2018-03-16 10:00","2018","03","16","10:00","-1.0","","-1.6","","95","","0.0","","22","","28","","","","98.00","","","","-8","","NA"
"-61.70","49.09","HEATH POINT","7053038","2018-03-16 11:00","2018","03","16","11:00","-0.9","","-1.8","","94","","0.0","","22","","27","","","","98.02","","","","-7","","NA"
"-61.70","49.09","HEATH POINT","7053038","2018-03-16 12:00","2018","03","16","12:00","-0.5","","-2.3","","88","","0.0","","25","","28","","","","98.01","","","","-7","","NA"
"-61.70","49.09","HEATH POINT","7053038","2018-03-16 13:00","2018","03","16","13:00","-1.5","","-2.9","","91","","0.0","","26","","39","","","","98.02","","","","-9","","NA"
"-61.70","49.09","HEATH POINT","7053038","2018-03-16 14:00","2018","03","16","14:00","-1.2","","-3.0","","88","","0.0","","25","","42","","","","98.04","","","","-9","","NA"
"-61.70","49.09","HEATH POINT","7053038","2018-03-16 15:00","2018","03","16","15:00","-1.3","","-3.2","","87","","0.0","","25","","40","","","","98.07","","","","-9","","NA"
"-61.70","49.09","HEATH POINT","7053038","2018-03-16 16:00","2018","03","16","16:00","-1.4","","-3.6","","85","","0.0","","25","","35","","","","98.14","","","","-9","","NA"
"-61.70","49.09","HEATH POINT","7053038","2018-03-16 17:00","2018","03","16","17:00","-1.5","","-4.0","","83","","0.0","","26","","34","","","","98.19","","","","-9","","NA"
"-61.70","49.09","HEATH POINT","7053038","2018-03-16 18:00","2018","03","16","18:00","-1.6","","-4.0","","84","","0.0","","26","","36","","","","98.23","","","","-9","","NA"
"-61.70","49.09","HEATH POINT","7053038","2018-03-16 19:00","2018","03","16","19:00","-1.3","","-3.5","","85","","0.0","","25","","39","","","","98.27","","","","-9","","NA"
"-61.70","49.09","HEATH POINT","7053038","2018-03-16 20:00","2018","03","16","20:00","-1.3","","-3.7","","83","","0.0","","25","","41","","","","98.33","","","","-9","","NA"
"-61.70","49.09","HEATH POINT","7053038","2018-03-16 21:00","2018","03","16","21:00","-1.8","","-4.5","","82","","0.0","","26","","36","","","","98.32","","","","-9","","NA"
"-61.70","49.09","HEATH POINT","7053038","2018-03-16 22:00","2018","03","16","22:00","-1.5","","-4.0","","84","","0.0","","25","","41","","","","98.31","","","","-9","","NA"
"-61.70","49.09","HEATH POINT","7053038","2018-03-16 23:00","2018","03","16","23:00","-1.6","","-3.9","","84","","0.0","","25","","39","","","","98.31","","","","-9","","NA"
"-61.70","49.09","HEATH POINT","7053038","2018-03-17 00:00","2018","03","17","00:00","-1.6","","-3.5","","87","","0.0","","25","","39","","","","98.34","","","","-9","","NA"
"-61.70","49.09","HEATH POINT","7053038","2018-03-17 01:00","2018","03","17","01:00","-1.9","","-3.7","","87","","0.0","","25","","37","","","","98.34","","","","-10","","NA"
"-61.70","49.09","HEATH POINT","7053038","2018-03-17 02:00","2018","03","17","02:00","-2.0","","-4.0","","86","","0.0","","26","","36","","","","98.34","","","","-10","","NA"
"-61.70","49.09","HEATH POINT","7053038","2018-03-17 03:00","2018","03","17","03:00","-2.4","","-4.5","","85","","0.0","","26","","31","","","","98.35","","","","-10","","NA"
"-61.70","49.09","HEATH POINT","7053038","2018-03-17 04:00","2018","03","17","04:00","-3.0","","-5.5","","83","","0.0","","27","","24","","","","98.37","","","","-10","","NA"
"-61.70","49.09","HEATH POINT","7053038","2018-03-17 05:00","2018","03","17","05:00","-3.6","","-5.6","","86","","0.0","","28","","19","","","","98.40","","","","-10","","NA"
"-61.70","49.09","HEATH POINT","7053038","2018-03-17 06:00","2018","03","17","06:00","-3.9","","-6.0","","85","","0.0","","28","","20","","","","98.45","","","","-10","","NA"
"-61.70","49.09","HEATH POINT","7053038","2018-03-17 07:00","2018","03","17","07:00","-4.0","","-6.3","","84","","0.0","","28","","19","","","","98.49","","","","-10","","NA"
"-61.70","49.09","HEATH POINT","7053038","2018-03-17 08:00","2018","03","17","08:00","-3.6","","-6.6","","80","","0.0","","28","","16","","","","98.52","","","","-9","","NA"
"-61.70","49.09","HEATH POINT","7053038","2018-03-17 09:00","2018","03","17","09:00","-3.3","","-6.3","","80","","0.0","","28","","15","","","","98.56","","","","-8","","NA"
"-61.70","49.09","HEATH POINT","7053038","2018-03-17 10:00","2018","03","17","10:00","-2.6","","-6.0","","78","","0.0","","28","","13","","","","98.56","","","","-7","","NA"
"-61.70","49.09","HEATH POINT","7053038","2018-03-17 11:00","2018","03","17","11:00","-2.9","","-5.6","","81","","0.0","","24","","21","","","","98.56","","","","-9","","NA"
"-61.70","49.09","HEATH POINT","7053038","2018-03-17 12:00","2018","03","17","12:00","-2.8","","-5.4","","82","","0.0","","25","","26","","","","98.54","","","","-10","","NA"
"-61.70","49.09","HEATH POINT","7053038","2018-03-17 13:00","2018","03","17","13:00","-2.6","","-5.3","","82","","0.0","","25","","27","","","","98.57","","","","-10","","NA"
"-61.70","49.09","HEATH POINT","7053038","2018-03-17 14:00","2018","03","17","14:00","-2.6","","-4.5","","87","","0.0","","26","","28","","","","98.59","","","","-10","","NA"
"-61.70","49.09","HEATH POINT","7053038","2018-03-17 15:00","2018","03","17","15:00","-2.4","","-5.1","","81","","0.0","","26","","26","","","","98.63","","","","-9","","NA"
"-61.70","49.09","HEATH POINT","7053038","2018-03-17 16:00","2018","03","17","16:00","-3.0","","-4.6","","88","","0.0","","27","","22","","","","98.67","","","","-9","","NA"
"-61.70","49.09","HEATH POINT","7053038","2018-03-17 17:00","2018","03","17","17:00","-3.2","","-3.4","","98","","0.0","","28","","12","","","","98.72","","","","-8","","NA"
"-61.70","49.09","HEATH POINT","7053038","2018-03-17 18:00","2018","03","17","18:00","-3.5","","-3.5","","100","","0.6","","28","","18","","","","98.76","","","","-9","","NA"
"-61.70","49.09","HEATH POINT","7053038","2018-03-17 19:00","2018","03","17","19:00","-3.3","","-3.4","","99","","0.5","","30","","18","","","","98.74","","","","-9","","NA"
"-61.70","49.09","HEATH POINT","7053038","2018-03-17 20:00","2018","03","17","20:00","-3.1","","-3.5","","97","","0.0","","33","","33","","","","98.71","","","","-11","","NA"
"-61.70","49.09","HEATH POINT","7053038","2018-03-17 21:00","2018","03","17","21:00","-2.2","","-2.4","","98","","0.0","","34","","24","","","","98.76","","","","-9","","NA"
"-61.70","49.09","HEATH POINT","7053038","2018-03-17 22:00","2018","03","17","22:00","-2.1","","-2.7","","96","","0.0","","36","","27","","","","98.80","","","","-9","","NA"
"-61.70","49.09","HEATH POINT","7053038","2018-03-17 23:00","2018","03","17","23:00","-2.3","","-3.2","","94","","0.0","","36","","31","","","","98.87","","","","-10","","NA"
"-61.70","49.09","HEATH POINT","7053038","2018-03-18 00:00","2018","03","18","00:00","-4.0","","-5.0","","93","","0.0","","32","","35","","","","98.94","","","","-12","","NA"
"-61.70","49.09","HEATH POINT","7053038","2018-03-18 01:00","2018","03","18","01:00","-4.9","","-6.1","","91","","0.0","","33","","39","","","","98.98","","","","-14","","NA"
"-61.70","49.09","HEATH POINT","7053038","2018-03-18 02:00","2018","03","18","02:00","-5.2","","-6.5","","91","","0.0","","33","","37","","","","99.03","","","","-14","","NA"
"-61.70","49.09","HEATH POINT","7053038","2018-03-18 03:00","2018","03","18","03:00","-5.8","","-7.0","","92","","0.0","","33","","41","","","","99.04","","","","-15","","NA"
"-61.70","49.09","HEATH POINT","7053038","2018-03-18 04:00","2018","03","18","04:00","-6.0","","-7.4","","90","","0.0","","33","","39","","","","99.06","","","","-15","","NA"
"-61.70","49.09","HEATH POINT","7053038","2018-03-18 05:00","2018","03","18","05:00","-6.3","","-7.7","","90","","0.0","","33","","39","","","","99.11","","","","-16","","NA"
"-61.70","49.09","HEATH POINT","7053038","2018-03-18 06:00","2018","03","18","06:00","-6.3","","-8.3","","86","","0.0","","32","","32","","","","99.18","","","","-15","","NA"
"-61.70","49.09","HEATH POINT","7053038","2018-03-18 07:00","2018","03","18","07:00","-6.1","","-8.0","","86","","0.0","","31","","27","","","","99.23","","","","-14","","NA"
"-61.70","49.09","HEATH POINT","7053038","2018-03-18 08:00","2018","03","18","08:00","-5.6","","-7.7","","85","","0.0","","32","","31","","","","99.24","","","","-14","","NA"
"-61.70","49.09","HEATH POINT","7053038","2018-03-18 09:00","2018","03","18","09:00","-5.1","","-7.3","","84","","0.0","","31","","32","","","","99.26","","","","-13","","NA"
"-61.70","49.09","HEATH POINT","7053038","2018-03-18 10:00","2018","03","18","10:00","-4.5","","-6.9","","83","","0.0","","31","","30","","","","99.24","","","","-12","","NA"
"-61.70","49.09","HEATH POINT","7053038","2018-03-18 11:00","2018","03","18","11:00","-3.7","","-7.5","","75","","0.0","","31","","31","","","","99.20","","","","-11","","NA"
"-61.70","49.09","HEATH POINT","7053038","2018-03-18 12:00","2018","03","18","12:00","-2.8","","-7.5","","70","","0.0","","30","","35","","","","99.17","","","","-11","","NA"
"-61.70","49.09","HEATH POINT","7053038","2018-03-18 13:00","2018","03","18","13:00","-1.7","","-6.7","","68","","0.0","","33","","28","","","","99.14","","","","-8","","NA"
"-61.70","49.09","HEATH POINT","7053038","2018-03-18 14:00","2018","03","18","14:00","-1.4","","-5.9","","72","","0.0","","32","","24","","","","99.12","","","","-8","","NA"
"-61.70","49.09","HEATH POINT","7053038","2018-03-18 15:00","2018","03","18","15:00","-0.7","","-5.4","","70","","0.0","","31","","26","","","","99.10","","","","-7","","NA"
"-61.70","49.09","HEATH POINT","7053038","2018-03-18 16:00","2018","03","18","16:00","-1.5","","-6.3","","70","","0.0","","29","","32","","","","99.11","","","","-9","","NA"
"-61.70","49.09","HEATH POINT","7053038","2018-03-18 17:00","2018","03","18","17:00","-3.0","","-7.4","","72","","0.0","","29","","28","","","","99.14","","","","-10","","NA"
"-61.70","49.09","HEATH POINT","7053038","2018-03-18 18:00","2018","03","18","18:00","-4.9","","-8.6","","75","","0.0","","29","","30","","","","99.17","","","","-13","","NA"
"-61.70","49.09","HEATH POINT","7053038","2018-03-18 19:00","2018","03","18","19:00","-5.9","","-9.4","","76","","0.0","","29","","31","","","","99.17","","","","-14","","NA"
"-61.70","49.09","HEATH POINT","7053038","2018-03-18 20:00","2018","03","18","20:00","-6.3","","-9.8","","76","","0.0","","28","","29","","","","99.13","","","","-15","","NA"
"-61.70","49.09","HEATH POINT","7053038","2018-03-18 21:00","2018","03","18","21:00","-5.5","","-8.6","","79","","0.0","","29","","33","","","","99.05","","","","-14","","NA"
"-61.70","49.09","HEATH POINT","7053038","2018-03-18 22:00","2018","03","18","22:00","-4.6","","-7.7","","79","","0.0","","30","","32","","","","98.98","","","","-13","","NA"
"-61.70","49.09","HEATH POINT","7053038","2018-03-18 23:00","2018","03","18","23:00","-4.5","","-7.7","","78","","0.0","","29","","27","","","","98.97","","","","-12","","NA"
"-61.70","49.09","HEATH POINT","7053038","2018-03-19 00:00","2018","03","19","00:00","-4.0","","-7.4","","77","","0.0","","30","","22","","","","98.95","","","","-11","","NA"
"-61.70","49.09","HEATH POINT","7053038","2018-03-19 01:00","2018","03","19","01:00","-4.1","","-7.5","","77","","0.0","","30","","24","","","","98.93","","","","-11","","NA"
"-61.70","49.09","HEATH POINT","7053038","2018-03-19 02:00","2018","03","19","02:00","-4.4","","-7.3","","80","","0.0","","29","","22","","","","98.92","","","","-11","","NA"
"-61.70","49.09","HEATH POINT","7053038","2018-03-19 03:00","2018","03","19","03:00","-4.4","","-7.3","","80","","0.0","","29","","24","","","","98.92","","","","-11","","NA"
"-61.70","49.09","HEATH POINT","7053038","2018-03-19 04:00","2018","03","19","04:00","-4.6","","-7.1","","83","","0.0","","29","","26","","","","98.89","","","","-12","","NA"
"-61.70","49.09","HEATH POINT","7053038","2018-03-19 05:00","2018","03","19","05:00","-4.9","","-7.0","","86","","0.0","","29","","27","","","","98.89","","","","-12","","NA"
"-61.70","49.09","HEATH POINT","7053038","2018-03-19 06:00","2018","03","19","06:00","-5.1","","-7.0","","87","","0.0","","29","","25","","","","98.91","","","","-12","","NA"
"-61.70","49.09","HEATH POINT","7053038","2018-03-19 07:00","2018","03","19","07:00","-5.3","","-6.8","","89","","0.0","","29","","25","","","","98.89","","","","-13","","NA"
"-61.70","49.09","HEATH POINT","7053038","2018-03-19 08:00","2018","03","19","08:00","-4.9","","-6.6","","88","","0.0","","29","","26","","","","98.88","","","","-12","","NA"
"-61.70","49.09","HEATH POINT","7053038","2018-03-19 09:00","2018","03","19","09:00"
"-61.70","49.09","HEATH POINT","7053038","2018-03-19 10:00","2018","03","19","10:00"
"-61.70","49.09","HEATH POINT","7053038","2018-03-19 11:00","2018","03","19","11:00"
"-61.70","49.09","HEATH POINT","7053038","2018-03-19 12:00","2018","03","19","12:00"
"-61.70","49.09","HEATH POINT","7053038","2018-03-19 13:00","2018","03","19","13:00","-0.5","","-5.9","","67","","0.0","","31","","25","","","","98.82","","","","-7","","NA"
"-61.70","49.09","HEATH POINT","7053038","2018-03-19 14:00","2018","03","19","14:00","-0.6","","-5.3","","70","","0.0","","29","","26","","","","98.85","","","","-7","","NA"
"-61.70","49.09","HEATH POINT","7053038","2018-03-19 15:00","2018","03","19","15:00","-0.7","","-4.8","","74","","0.0","","29","","28","","","","98.85","","","","-7","","NA"
"-61.70","49.09","HEATH POINT","7053038","2018-03-19 16:00","2018","03","19","16:00","-1.3","","-4.8","","78","","0.0","","29","","29","","","","98.90","","","","-8","","NA"
"-61.70","49.09","HEATH POINT","7053038","2018-03-19 17:00","2018","03","19","17:00","-2.2","","-4.6","","84","","0.0","","28","","25","","","","98.95","","","","-9","","NA"
"-61.70","49.09","HEATH POINT","7053038","2018-03-19 18:00","2018","03","19","18:00","-3.3","","-3.7","","97","","0.0","","26","","29","","","","99.01","","","","-11","","NA"
"-61.70","49.09","HEATH POINT","7053038","2018-03-19 19:00","2018","03","19","19:00","-2.9","","-3.9","","93","","0.0","","26","","33","","","","99.03","","","","-11","","NA"
"-61.70","49.09","HEATH POINT","7053038","2018-03-19 20:00","2018","03","19","20:00","-2.3","","-4.9","","82","","0.0","","28","","27","","","","99.05","","","","-9","","NA"
"-61.70","49.09","HEATH POINT","7053038","2018-03-19 21:00","2018","03","19","21:00","-1.4","","-4.8","","77","","0.0","","30","","28","","","","99.08","","","","-8","","NA"
"-61.70","49.09","HEATH POINT","7053038","2018-03-19 22:00","2018","03","19","22:00","-1.9","","-5.6","","76","","0.0","","31","","29","","","","99.10","","","","-9","","NA"
"-61.70","49.09","HEATH POINT","7053038","2018-03-19 23:00","2018","03","19","23:00","-2.6","","-6.2","","76","","0.0","","31","","33","","","","99.13","","","","-10","","NA"
"-61.70","49.09","HEATH POINT","7053038","2018-03-20 00:00","2018","03","20","00:00","-2.9","","-7.0","","73","","0.0","","32","","36","","","","99.18","","","","-11","","NA"
"-61.70","49.09","HEATH POINT","7053038","2018-03-20 01:00","2018","03","20","01:00","-3.3","","-7.5","","73","","0.0","","32","","30","","","","99.26","","","","-11","","NA"
"-61.70","49.09","HEATH POINT","7053038","2018-03-20 02:00","2018","03","20","02:00","-4.0","","-8.4","","71","","0.0","","32","","27","","","","99.28","","","","-11","","NA"
"-61.70","49.09","HEATH POINT","7053038","2018-03-20 03:00","2018","03","20","03:00","-4.9","","-6.4","","89","","0.0","","31","","21","","","","99.39","","","","-12","","NA"
"-61.70","49.09","HEATH POINT","7053038","2018-03-20 04:00","2018","03","20","04:00","-4.9","","-6.9","","86","","0.0","","29","","18","","","","99.43","","","","-11","","NA"
"-61.70","49.09","HEATH POINT","7053038","2018-03-20 05:00","2018","03","20","05:00","-4.8","","-8.0","","78","","0.0","","30","","23","","","","99.50","","","","-12","","NA"
"-61.70","49.09","HEATH POINT","7053038","2018-03-20 06:00","2018","03","20","06:00","-5.0","","-8.1","","79","","0.0","","30","","25","","","","99.58","","","","-12","","NA"
"-61.70","49.09","HEATH POINT","7053038","2018-03-20 07:00","2018","03","20","07:00","-5.3","","-8.7","","77","","0.0","","29","","25","","","","99.64","","","","-13","","NA"
"-61.70","49.09","HEATH POINT","7053038","2018-03-20 08:00","2018","03","20","08:00","-4.1","","-8.3","","72","","0.0","","30","","27","","","","99.69","","","","-11","","NA"
"-61.70","49.09","HEATH POINT","7053038","2018-03-20 09:00","2018","03","20","09:00","-2.8","","-7.6","","70","","0.0","","31","","29","","","","99.75","","","","-10","","NA"
"-61.70","49.09","HEATH POINT","7053038","2018-03-20 10:00","2018","03","20","10:00","-1.5","","-6.8","","67","","0.0","","32","","29","","","","99.79","","","","-8","","NA"
"-61.70","49.09","HEATH POINT","7053038","2018-03-20 11:00","2018","03","20","11:00","-0.8","","-6.0","","68","","0.0","","31","","24","","","","99.83","","","","-7","","NA"
"-61.70","49.09","HEATH POINT","7053038","2018-03-20 12:00","2018","03","20","12:00","-0.2","","-5.7","","66","","0.0","","31","","29","","","","99.85","","","","-7","","NA"
"-61.70","49.09","HEATH POINT","7053038","2018-03-20 13:00","2018","03","20","13:00","-0.4","","-5.0","","72","","0.0","","32","","23","","","","99.91","","","","-6","","NA"
"-61.70","49.09","HEATH POINT","7053038","2018-03-20 14:00","2018","03","20","14:00","0.4","","-6.4","","60","","0.0","","32","","20","","","","99.97","","","","","","NA"
"-61.70","49.09","HEATH POINT","7053038","2018-03-20 15:00","2018","03","20","15:00","-0.1","","-5.5","","67","","0.0","","33","","30","","","","100.08","","","","-7","","NA"
"-61.70","49.09","HEATH POINT","7053038","2018-03-20 16:00","2018","03","20","16:00"
"-61.70","49.09","HEATH POINT","7053038","2018-03-20 17:00","2018","03","20","17:00","-1.0","","-3.4","","84","","0.0","","30","","15","","","","100.32","","","","-6","","NA"
"-61.70","49.09","HEATH POINT","7053038","2018-03-20 18:00","2018","03","20","18:00","-1.0","","-4.3","","79","","0.0","","32","","17","","","","100.41","","","","-6","","NA"
"-61.70","49.09","HEATH POINT","7053038","2018-03-20 19:00","2018","03","20","19:00","-0.8","","-4.3","","77","","0.0","","32","","27","","","","100.54","","","","-7","","NA"
"-61.70","49.09","HEATH POINT","7053038","2018-03-20 20:00","2018","03","20","20:00","-1.7","","-6.7","","69","","0.0","","32","","25","","","","100.65","","","","-8","","NA"
"-61.70","49.09","HEATH POINT","7053038","2018-03-20 21:00","2018","03","20","21:00","-3.1","","-7.4","","72","","0.0","","31","","20","","","","100.74","","","","-9","","NA"
"-61.70","49.09","HEATH POINT","7053038","2018-03-20 22:00","2018","03","20","22:00","-5.1","","-9.3","","72","","0.0","","30","","16","","","","100.82","","","","-11","","NA"
"-61.70","49.09","HEATH POINT","7053038","2018-03-20 23:00","2018","03","20","23:00","-5.8","","-10.0","","72","","0.0","","29","","13","","","","100.88","","","","-11","","NA"
"-61.70","49.09","HEATH POINT","7053038","2018-03-21 00:00","2018","03","21","00:00","-6.9","","-10.3","","76","","0.0","","29","","17","","","","100.94","","","","-13","","NA"
"-61.70","49.09","HEATH POINT","7053038","2018-03-21 01:00","2018","03","21","01:00","-8.5","","-11.1","","82","","0.0","","29","","16","","","","100.99","","","","-15","","NA"
"-61.70","49.09","HEATH POINT","7053038","2018-03-21 02:00","2018","03","21","02:00","-8.7","","-11.5","","80","","0.0","","30","","20","","","","101.02","","","","-16","","NA"
"-61.70","49.09","HEATH POINT","7053038","2018-03-21 03:00","2018","03","21","03:00","-8.0","","-10.9","","80","","0.0","","31","","21","","","","101.10","","","","-16","","NA"
"-61.70","49.09","HEATH POINT","7053038","2018-03-21 04:00","2018","03","21","04:00","-8.9","","-11.4","","82","","0.0","","30","","14","","","","101.22","","","","-15","","NA"
"-61.70","49.09","HEATH POINT","7053038","2018-03-21 05:00","2018","03","21","05:00","-9.4","","-11.4","","86","","0.0","","30","","17","","","","101.29","","","","-16","","NA"
"-61.70","49.09","HEATH POINT","7053038","2018-03-21 06:00","2018","03","21","06:00","-8.5","","-10.9","","82","","0.0","","31","","17","","","","101.34","","","","-15","","NA"
"-61.70","49.09","HEATH POINT","7053038","2018-03-21 07:00","2018","03","21","07:00","-4.4","","-8.9","","71","","0.0","","33","","17","","","","101.39","","","","-10","","NA"
"-61.70","49.09","HEATH POINT","7053038","2018-03-21 08:00","2018","03","21","08:00","-2.5","","-8.2","","65","","0.0","","1","","30","","","","101.45","","","","-10","","NA"
"-61.70","49.09","HEATH POINT","7053038","2018-03-21 09:00","2018","03","21","09:00","-2.3","","-7.9","","65","","0.0","","1","","25","","","","101.52","","","","-9","","NA"
"-61.70","49.09","HEATH POINT","7053038","2018-03-21 10:00","2018","03","21","10:00","-2.3","","-7.1","","70","","0.0","","36","","24","","","","101.53","","","","-9","","NA"
"-61.70","49.09","HEATH POINT","7053038","2018-03-21 11:00","2018","03","21","11:00","-2.3","","-7.7","","66","","0.0","","1","","15","","","","101.61","","","","-7","","NA"
"-61.70","49.09","HEATH POINT","7053038","2018-03-21 12:00","2018","03","21","12:00","-2.6","","-7.4","","70","","0.0","","3","","15","","","","101.62","","","","-8","","NA"
"-61.70","49.09","HEATH POINT","7053038","2018-03-21 13:00","2018","03","21","13:00","-2.6","","-6.8","","73","","0.0","","4","","21","","","","101.60","","","","-9","","NA"
"-61.70","49.09","HEATH POINT","7053038","2018-03-21 14:00","2018","03","21","14:00","-2.7","","-7.1","","72","","0.0","","2","","21","","","","101.63","","","","-9","","NA"
"-61.70","49.09","HEATH POINT","7053038","2018-03-21 15:00","2018","03","21","15:00","-2.8","","-8.1","","67","","0.0","","2","","19","","","","101.70","","","","-9","","NA"
"-61.70","49.09","HEATH POINT","7053038","2018-03-21 16:00","2018","03","21","16:00","-2.9","","-7.8","","69","","0.0","","36","","25","","","","101.62","","","","-10","","NA"
"-61.70","49.09","HEATH POINT","7053038","2018-03-21 17:00","2018","03","21","17:00","-3.1","","-7.2","","73","","0.0","","1","","25","","","","101.63","","","","-10","","NA"
"-61.70","49.09","HEATH POINT","7053038","2018-03-21 18:00","2018","03","21","18:00","-2.8","","-6.6","","75","","0.0","","1","","26","","","","101.64","","","","-10","","NA"
"-61.70","49.09","HEATH POINT","7053038","2018-03-21 19:00","2018","03","21","19:00","-2.5","","-5.7","","79","","0.0","","1","","20","","","","101.71","","","","-8","","NA"
"-61.70","49.09","HEATH POINT","7053038","2018-03-21 20:00","2018","03","21","20:00","-2.1","","-4.5","","84","","0.0","","2","","21","","","","101.74","","","","-8","","NA"
"-61.70","49.09","HEATH POINT","7053038","2018-03-21 21:00","2018","03","21","21:00","-1.7","","-4.0","","85","","0.0","","4","","21","","","","101.77","","","","-8","","NA"
"-61.70","49.09","HEATH POINT","7053038","2018-03-21 22:00","2018","03","21","22:00","-1.9","","-3.6","","88","","0.0","","3","","22","","","","101.75","","","","-8","","NA"
"-61.70","49.09","HEATH POINT","7053038","2018-03-21 23:00","2018","03","21","23:00","-1.8","","-3.2","","90","","0.0","","4","","23","","","","101.76","","","","-8","","NA"
"-61.70","49.09","HEATH POINT","7053038","2018-03-22 00:00","2018","03","22","00:00","-1.7","","-3.1","","90","","0.0","","4","","24","","","","101.81","","","","-8","","NA"
"-61.70","49.09","HEATH POINT","7053038","2018-03-22 01:00","2018","03","22","01:00","-1.7","","-3.2","","89","","0.0","","3","","28","","","","101.80","","","","-8","","NA"
"-61.70","49.09","HEATH POINT","7053038","2018-03-22 02:00","2018","03","22","02:00","-1.6","","-3.5","","87","","0.0","","4","","30","","","","101.82","","","","-9","","NA"
"-61.70","49.09","HEATH POINT","7053038","2018-03-22 03:00","2018","03","22","03:00","-1.5","","-3.3","","88","","0.0","","4","","32","","","","101.85","","","","-9","","NA"
"-61.70","49.09","HEATH POINT","7053038","2018-03-22 04:00","2018","03","22","04:00","-1.4","","-3.5","","86","","0.0","","6","","34","","","","101.89","","","","-9","","NA"
"-61.70","49.09","HEATH POINT","7053038","2018-03-22 05:00","2018","03","22","05:00","-1.5","","-3.2","","88","","0.0","","6","","35","","","","101.91","","","","-9","","NA"
"-61.70","49.09","HEATH POINT","7053038","2018-03-22 06:00","2018","03","22","06:00","-1.5","","-3.0","","89","","0.0","","6","","37","","","","101.93","","","","-9","","NA"
"-61.70","49.09","HEATH POINT","7053038","2018-03-22 07:00","2018","03","22","07:00","-1.4","","-3.4","","86","","0.0","","6","","38","","","","101.86","","","","-9","","NA"
"-61.70","49.09","HEATH POINT","7053038","2018-03-22 08:00","2018","03","22","08:00","-1.2","","-3.4","","85","","0.0","","7","","39","","","","101.89","","","","-9","","NA"
"-61.70","49.09","HEATH POINT","7053038","2018-03-22 09:00","2018","03","22","09:00","-1.3","","-3.8","","83","","0.0","","6","","46","","","","101.80","","","","-10","","NA"
"-61.70","49.09","HEATH POINT","7053038","2018-03-22 10:00","2018","03","22","10:00","-1.4","","-3.9","","83","","0.0","","6","","50","","","","101.68","","","","-10","","NA"
"-61.70","49.09","HEATH POINT","7053038","2018-03-22 11:00","2018","03","22","11:00","-1.5","","-3.5","","86","","0.0","","6","","48","","","","101.69","","","","-10","","NA"
"-61.70","49.09","HEATH POINT","7053038","2018-03-22 12:00","2018","03","22","12:00","-1.6","","-3.7","","86","","0.0","","6","","54","","","","101.55","","","","-11","","NA"
"-61.70","49.09","HEATH POINT","7053038","2018-03-22 13:00","2018","03","22","13:00","-1.6","","-3.2","","89","","0.0","","5","","54","","","","101.41","","","","-11","","NA"
"-61.70","49.09","HEATH POINT","7053038","2018-03-22 14:00","2018","03","22","14:00","-1.5","","-2.9","","90","","0.0","","5","","53","","","","101.42","","","","-10","","NA"
"-61.70","49.09","HEATH POINT","7053038","2018-03-22 15:00","2018","03","22","15:00","-1.7","","-2.9","","91","","0.0","","5","","54","","","","101.28","","","","-11","","NA"
"-61.70","49.09","HEATH POINT","7053038","2018-03-22 16:00","2018","03","22","16:00","-1.6","","-2.8","","92","","0.0","","5","","61","","","","101.09","","","","-11","","NA"
"-61.70","49.09","HEATH POINT","7053038","2018-03-22 17:00","2018","03","22","17:00","-1.4","","-2.6","","92","","0.0","","6","","59","","","","101.13","","","","-11","","NA"
"-61.70","49.09","HEATH POINT","7053038","2018-03-22 18:00","2018","03","22","18:00","-1.2","","-2.4","","92","","0.0","","5","","59","","","","101.01","","","","-10","","NA"
"-61.70","49.09","HEATH POINT","7053038","2018-03-22 19:00","2018","03","22","19:00","-1.2","","-2.2","","93","","0.0","","5","","59","","","","100.96","","","","-10","","NA"
"-61.70","49.09","HEATH POINT","7053038","2018-03-22 20:00","2018","03","22","20:00","-1.9","","-1.9","","100","","0.0","","5","","57","","","","100.84","","","","-11","","NA"
"-61.70","49.09","HEATH POINT","7053038","2018-03-22 21:00","2018","03","22","21:00","-1.9","","-1.9","","100","","0.0","","5","","60","","","","100.74","","","","-11","","NA"
"-61.70","49.09","HEATH POINT","7053038","2018-03-22 22:00","2018","03","22","22:00","-1.6","","-1.6","","100","","0.0","","5","","54","","","","100.64","","","","-11","","NA"
"-61.70","49.09","HEATH POINT","7053038","2018-03-22 23:00","2018","03","22","23:00","-1.4","","-1.5","","99","","0.0","","5","","49","","","","100.49","","","","-10","","NA"
"-61.70","49.09","HEATH POINT","7053038","2018-03-23 00:00","2018","03","23","00:00","-1.5","","-1.6","","99","","0.0","","5","","56","","","","100.39","","","","-11","","NA"
"-61.70","49.09","HEATH POINT","7053038","2018-03-23 01:00","2018","03","23","01:00","-1.4","","-1.8","","97","","0.0","","5","","51","","","","100.35","","","","-10","","NA"
"-61.70","49.09","HEATH POINT","7053038","2018-03-23 02:00","2018","03","23","02:00","-1.5","","-2.0","","96","","0.0","","5","","46","","","","100.24","","","","-10","","NA"
"-61.70","49.09","HEATH POINT","7053038","2018-03-23 03:00","2018","03","23","03:00","-1.5","","-2.0","","96","","0.0","","4","","52","","","","100.22","","","","-10","","NA"
"-61.70","49.09","HEATH POINT","7053038","2018-03-23 04:00","2018","03","23","04:00","-1.5","","-2.2","","95","","0.0","","4","","55","","","","100.17","","","","-11","","NA"
"-61.70","49.09","HEATH POINT","7053038","2018-03-23 05:00","2018","03","23","05:00","-1.4","","-2.2","","94","","0.0","","4","","58","","","","100.14","","","","-11","","NA"
"-61.70","49.09","HEATH POINT","7053038","2018-03-23 06:00","2018","03","23","06:00","-1.6","","-1.7","","99","","0.0","","4","","55","","","","100.16","","","","-11","","NA"
"-61.70","49.09","HEATH POINT","7053038","2018-03-23 07:00","2018","03","23","07:00","-1.4","","-1.6","","98","","0.0","","3","","54","","","","100.15","","","","-10","","NA"
"-61.70","49.09","HEATH POINT","7053038","2018-03-23 08:00","2018","03","23","08:00","-1.3","","-1.5","","99","","0.0","","3","","54","","","","100.17","","","","-10","","NA"
"-61.70","49.09","HEATH POINT","7053038","2018-03-23 09:00","2018","03","23","09:00","-1.4","","-1.5","","99","","0.0","","2","","51","","","","100.15","","","","-10","","NA"
"-61.70","49.09","HEATH POINT","7053038","2018-03-23 10:00","2018","03","23","10:00","-1.1","","-1.5","","97","","0.0","","2","","51","","","","100.22","","","","-10","","NA"
"-61.70","49.09","HEATH POINT","7053038","2018-03-23 11:00","2018","03","23","11:00","-0.7","","-1.2","","96","","0.0","","2","","43","","","","100.29","","","","-9","","NA"
"-61.70","49.09","HEATH POINT","7053038","2018-03-23 12:00","2018","03","23","12:00","-0.5","","-1.1","","96","","0.0","","1","","42","","","","100.33","","","","-8","","NA"
"-61.70","49.09","HEATH POINT","7053038","2018-03-23 13:00","2018","03","23","13:00","-0.2","","-0.9","","95","","0.0","","1","","39","","","","100.38","","","","-8","","NA"
"-61.70","49.09","HEATH POINT","7053038","2018-03-23 14:00","2018","03","23","14:00","-0.5","","-0.8","","98","","0.0","","36","","38","","","","100.47","","","","-8","","NA"
"-61.70","49.09","HEATH POINT","7053038","2018-03-23 15:00","2018","03","23","15:00","-0.6","","-0.7","","100","","0.0","","1","","42","","","","100.52","","","","-8","","NA"
"-61.70","49.09","HEATH POINT","7053038","2018-03-23 16:00","2018","03","23","16:00","-0.4","","-0.4","","100","","0.0","","1","","39","","","","100.67","","","","-8","","NA"
"-61.70","49.09","HEATH POINT","7053038","2018-03-23 17:00","2018","03","23","17:00","-0.4","","-0.4","","100","","0.0","","2","","44","","","","100.75","","","","-8","","NA"
"-61.70","49.09","HEATH POINT","7053038","2018-03-23 18:00","2018","03","23","18:00","-0.4","","-0.7","","98","","0.0","","2","","39","","","","100.84","","","","-8","","NA"
"-61.70","49.09","HEATH POINT","7053038","2018-03-23 19:00","2018","03","23","19:00","-0.4","","-1.1","","95","","0.0","","2","","41","","","","100.94","","","","-8","","NA"
"-61.70","49.09","HEATH POINT","7053038","2018-03-23 20:00","2018","03","23","20:00","-0.3","","-1.6","","91","","0.0","","2","","46","","","","101.00","","","","-8","","NA"
"-61.70","49.09","HEATH POINT","7053038","2018-03-23 21:00","2018","03","23","21:00","-0.5","","-1.8","","91","","0.0","","3","","38","","","","101.06","","","","-8","","NA"
"-61.70","49.09","HEATH POINT","7053038","2018-03-23 22:00","2018","03","23","22:00","-0.6","","-2.0","","91","","0.0","","2","","29","","","","101.16","","","","-7","","NA"
"-61.70","49.09","HEATH POINT","7053038","2018-03-23 23:00","2018","03","23","23:00","-0.7","","-2.8","","86","","0.0","","3","","31","","","","101.22","","","","-7","","NA"
"-61.70","49.09","HEATH POINT","7053038","2018-03-24 00:00","2018","03","24","00:00","-1.0","","-3.0","","86","","0.0","","2","","30","","","","101.26","","","","-8","","NA"
"-61.70","49.09","HEATH POINT","7053038","2018-03-24 01:00","2018","03","24","01:00","-1.1","","-3.5","","84","","0.0","","2","","32","","","","101.32","","","","-8","","NA"
"-61.70","49.09","HEATH POINT","7053038","2018-03-24 02:00","2018","03","24","02:00","-1.3","","-3.5","","85","","0.0","","3","","36","","","","101.36","","","","-9","","NA"
"-61.70","49.09","HEATH POINT","7053038","2018-03-24 03:00","2018","03","24","03:00","-1.6","","-4.3","","82","","0.0","","3","","41","","","","101.39","","","","-10","","NA"
"-61.70","49.09","HEATH POINT","7053038","2018-03-24 04:00","2018","03","24","04:00","-1.7","","-4.2","","83","","0.0","","3","","40","","","","101.46","","","","-10","","NA"
"-61.70","49.09","HEATH POINT","7053038","2018-03-24 05:00","2018","03","24","05:00","-1.8","","-4.7","","80","","0.0","","3","","45","","","","101.52","","","","-10","","NA"
"-61.70","49.09","HEATH POINT","7053038","2018-03-24 06:00","2018","03","24","06:00","-1.8","","-4.7","","81","","0.0","","3","","43","","","","101.59","","","","-10","","NA"
"-61.70","49.09","HEATH POINT","7053038","2018-03-24 07:00","2018","03","24","07:00","-2.0","","-5.0","","80","","0.0","","3","","47","","","","101.65","","","","-11","","NA"
"-61.70","49.09","HEATH POINT","7053038","2018-03-24 08:00","2018","03","24","08:00","-2.0","","-4.8","","81","","0.0","","4","","47","","","","101.76","","","","-11","","NA"
"-61.70","49.09","HEATH POINT","7053038","2018-03-24 09:00","2018","03","24","09:00","-2.0","","-4.3","","84","","0.0","","4","","47","","","","101.81","","","","-11","","NA"
"-61.70","49.09","HEATH POINT","7053038","2018-03-24 10:00","2018","03","24","10:00","-2.0","","-4.1","","85","","0.0","","4","","49","","","","101.87","","","","-11","","NA"
"-61.70","49.09","HEATH POINT","7053038","2018-03-24 11:00","2018","03","24","11:00","-1.9","","-4.6","","82","","0.0","","4","","52","","","","101.89","","","","-11","","NA"
"-61.70","49.09","HEATH POINT","7053038","2018-03-24 12:00","2018","03","24","12:00","-1.8","","-4.8","","80","","0.0","","4","","52","","","","101.91","","","","-11","","NA"
"-61.70","49.09","HEATH POINT","7053038","2018-03-24 13:00","2018","03","24","13:00","-1.6","","-4.8","","79","","0.0","","4","","53","","","","101.93","","","","-11","","NA"
"-61.70","49.09","HEATH POINT","7053038","2018-03-24 14:00","2018","03","24","14:00","-1.4","","-5.2","","75","","0.0","","4","","54","","","","102.03","","","","-10","","NA"
"-61.70","49.09","HEATH POINT","7053038","2018-03-24 15:00","2018","03","24","15:00","-1.4","","-4.8","","78","","0.0","","5","","49","","","","102.08","","","","-10","","NA"
"-61.70","49.09","HEATH POINT","7053038","2018-03-24 16:00","2018","03","24","16:00","-1.4","","-5.3","","75","","0.0","","5","","52","","","","102.12","","","","-10","","NA"
"-61.70","49.09","HEATH POINT","7053038","2018-03-24 17:00","2018","03","24","17:00","-1.4","","-5.5","","73","","0.0","","5","","55","","","","102.20","","","","-10","","NA"
"-61.70","49.09","HEATH POINT","7053038","2018-03-24 18:00","2018","03","24","18:00","-1.3","","-5.3","","74","","0.0","","5","","51","","","","102.29","","","","-10","","NA"
"-61.70","49.09","HEATH POINT","7053038","2018-03-24 19:00","2018","03","24","19:00","-1.4","","-5.3","","75","","0.0","","5","","48","","","","102.39","","","","-10","","NA"
"-61.70","49.09","HEATH POINT","7053038","2018-03-24 20:00","2018","03","24","20:00","-1.3","","-5.4","","74","","0.0","","5","","47","","","","102.47","","","","-10","","NA"
"-61.70","49.09","HEATH POINT","7053038","2018-03-24 21:00","2018","03","24","21:00","-1.6","","-6.5","","69","","0.0","","5","","54","","","","102.53","","","","-11","","NA"
"-61.70","49.09","HEATH POINT","7053038","2018-03-24 22:00","2018","03","24","22:00","-2.2","","-6.6","","72","","0.0","","4","","53","","","","102.57","","","","-11","","NA"
"-61.70","49.09","HEATH POINT","7053038","2018-03-24 23:00","2018","03","24","23:00","-2.6","","-6.7","","73","","0.0","","4","","49","","","","102.60","","","","-12","","NA"
"-61.70","49.09","HEATH POINT","7053038","2018-03-25 00:00","2018","03","25","00:00","-3.0","","-6.7","","76","","0.0","","4","","51","","","","102.69","","","","-12","","NA"
"-61.70","49.09","HEATH POINT","7053038","2018-03-25 01:00","2018","03","25","01:00","-3.7","","-7.5","","75","","0.0","","3","","56","","","","102.73","","","","-14","","NA"
"-61.70","49.09","HEATH POINT","7053038","2018-03-25 02:00","2018","03","25","02:00","-4.1","","-7.9","","75","","0.0","","4","","53","","","","102.80","","","","-14","","NA"
"-61.70","49.09","HEATH POINT","7053038","2018-03-25 03:00","2018","03","25","03:00","-4.6","","-8.5","","74","","0.0","","4","","51","","","","102.87","","","","-14","","NA"
"-61.70","49.09","HEATH POINT","7053038","2018-03-25 04:00","2018","03","25","04:00","-5.1","","-8.2","","78","","0.0","","3","","49","","","","102.94","","","","-15","","NA"
"-61.70","49.09","HEATH POINT","7053038","2018-03-25 05:00","2018","03","25","05:00","-5.2","","-8.2","","80","","0.0","","4","","47","","","","103.01","","","","-15","","NA"
"-61.70","49.09","HEATH POINT","7053038","2018-03-25 06:00","2018","03","25","06:00","-5.4","","-8.2","","80","","0.0","","3","","48","","","","103.08","","","","-15","","NA"
"-61.70","49.09","HEATH POINT","7053038","2018-03-25 07:00","2018","03","25","07:00","-5.5","","-9.0","","76","","0.0","","3","","51","","","","103.14","","","","-16","","NA"
"-61.70","49.09","HEATH POINT","7053038","2018-03-25 08:00","2018","03","25","08:00","-5.5","","-9.6","","73","","0.0","","2","","49","","","","103.19","","","","-16","","NA"
"-61.70","49.09","HEATH POINT","7053038","2018-03-25 09:00","2018","03","25","09:00","-5.7","","-10.2","","71","","0.0","","3","","46","","","","103.26","","","","-16","","NA"
"-61.70","49.09","HEATH POINT","7053038","2018-03-25 10:00","2018","03","25","10:00","-5.9","","-11.0","","67","","0.0","","2","","42","","","","103.28","","","","-15","","NA"
"-61.70","49.09","HEATH POINT","7053038","2018-03-25 11:00","2018","03","25","11:00","-5.6","","-11.0","","66","","0.0","","2","","38","","","","103.30","","","","-15","","NA"
"-61.70","49.09","HEATH POINT","7053038","2018-03-25 12:00","2018","03","25","12:00","-5.2","","-11.3","","62","","0.0","","2","","35","","","","103.31","","","","-14","","NA"
"-61.70","49.09","HEATH POINT","7053038","2018-03-25 13:00","2018","03","25","13:00","-4.9","","-11.7","","59","","0.0","","1","","34","","","","103.33","","","","-13","","NA"
"-61.70","49.09","HEATH POINT","7053038","2018-03-25 14:00","2018","03","25","14:00","-4.5","","-12.3","","54","","0.0","","1","","30","","","","103.36","","","","-12","","NA"
"-61.70","49.09","HEATH POINT","7053038","2018-03-25 15:00","2018","03","25","15:00","-4.0","","-13.3","","48","","0.0","","35","","28","","","","103.35","","","","-11","","NA"
"-61.70","49.09","HEATH POINT","7053038","2018-03-25 16:00","2018","03","25","16:00","-3.3","","-13.2","","46","","0.0","","35","","28","","","","103.35","","","","-11","","NA"
"-61.70","49.09","HEATH POINT","7053038","2018-03-25 17:00","2018","03","25","17:00","-4.1","","-13.7","","47","","0.0","","33","","22","","","","103.40","","","","-11","","NA"
"-61.70","49.09","HEATH POINT","7053038","2018-03-25 18:00","2018","03","25","18:00","-6.4","","-11.8","","66","","0.0","","31","","20","","","","103.41","","","","-13","","NA"
"-61.70","49.09","HEATH POINT","7053038","2018-03-25 19:00","2018","03","25","19:00","-6.6","","-11.7","","67","","0.0","","33","","18","","","","103.47","","","","-13","","NA"
"-61.70","49.09","HEATH POINT","7053038","2018-03-25 20:00","2018","03","25","20:00","-6.3","","-10.7","","71","","0.0","","32","","23","","","","103.53","","","","-14","","NA"
"-61.70","49.09","HEATH POINT","7053038","2018-03-25 21:00","2018","03","25","21:00","-6.2","","-9.5","","78","","0.0","","32","","23","","","","103.55","","","","-14","","NA"
"-61.70","49.09","HEATH POINT","7053038","2018-03-25 22:00","2018","03","25","22:00","-6.1","","-8.6","","82","","0.0","","32","","23","","","","103.58","","","","-13","","NA"
"-61.70","49.09","HEATH POINT","7053038","2018-03-25 23:00","2018","03","25","23:00","-6.1","","-8.6","","82","","0.0","","32","","24","","","","103.59","","","","-14","","NA"
"-61.70","49.09","HEATH POINT","7053038","2018-03-26 00:00","2018","03","26","00:00","-7.0","","-9.6","","82","","0.0","","33","","18","","","","103.62","","","","-14","","NA"
"-61.70","49.09","HEATH POINT","7053038","2018-03-26 01:00","2018","03","26","01:00","-7.4","","-10.4","","79","","0.0","","34","","15","","","","103.65","","","","-14","","NA"
"-61.70","49.09","HEATH POINT","7053038","2018-03-26 02:00","2018","03","26","02:00","-5.7","","-10.3","","70","","0.0","","36","","11","","","","103.65","","","","-10","","NA"
"-61.70","49.09","HEATH POINT","7053038","2018-03-26 03:00","2018","03","26","03:00"
"-61.70","49.09","HEATH POINT","7053038","2018-03-26 04:00","2018","03","26","04:00"
"-61.70","49.09","HEATH POINT","7053038","2018-03-26 05:00","2018","03","26","05:00","-2.9","","-7.9","","68","","0.0","","2","","20","","","","103.82","","","","-9","","NA"
"-61.70","49.09","HEATH POINT","7053038","2018-03-26 06:00","2018","03","26","06:00","-2.7","","-8.0","","66","","0.0","","2","","16","","","","103.92","","","","-8","","NA"
"-61.70","49.09","HEATH POINT","7053038","2018-03-26 07:00","2018","03","26","07:00","-3.1","","-9.1","","63","","0.0","","35","","10","","","","103.97","","","","-7","","NA"
"-61.70","49.09","HEATH POINT","7053038","2018-03-26 08:00","2018","03","26","08:00","-2.2","","-10.0","","55","","0.0","","1","","12","","","","104.03","","","","-6","","NA"
"-61.70","49.09","HEATH POINT","7053038","2018-03-26 09:00","2018","03","26","09:00","-1.6","","-8.6","","59","","0.0","","1","","12","","","","104.07","","","","-6","","NA"
"-61.70","49.09","HEATH POINT","7053038","2018-03-26 10:00","2018","03","26","10:00","-1.6","","-7.8","","62","","0.0","","2","","15","","","","104.06","","","","-6","","NA"
"-61.70","49.09","HEATH POINT","7053038","2018-03-26 11:00","2018","03","26","11:00","-1.8","","-6.3","","71","","0.0","","4","","13","","","","104.02","","","","-6","","NA"
"-61.70","49.09","HEATH POINT","7053038","2018-03-26 12:00","2018","03","26","12:00","-1.3","","-6.8","","66","","0.0","","8","","8","","","","104.00","","","","-4","","NA"
"-61.70","49.09","HEATH POINT","7053038","2018-03-26 13:00","2018","03","26","13:00","-1.2","","-6.0","","70","","0.0","","20","","13","","","","103.99","","","","-5","","NA"
"-61.70","49.09","HEATH POINT","7053038","2018-03-26 14:00","2018","03","26","14:00","-1.4","","-7.6","","62","","0.0","","23","","19","","","","103.95","","","","-7","","NA"
"-61.70","49.09","HEATH POINT","7053038","2018-03-26 15:00","2018","03","26","15:00","-1.4","","-6.5","","68","","0.0","","24","","20","","","","103.93","","","","-7","","NA"
"-61.70","49.09","HEATH POINT","7053038","2018-03-26 16:00","2018","03","26","16:00","-1.5","","-5.4","","75","","0.0","","24","","18","","","","103.90","","","","-7","","NA"
"-61.70","49.09","HEATH POINT","7053038","2018-03-26 17:00","2018","03","26","17:00","-1.7","","-4.8","","80","","0.0","","23","","17","","","","103.89","","","","-7","","NA"
"-61.70","49.09","HEATH POINT","7053038","2018-03-26 18:00","2018","03","26","18:00","-2.4","","-4.5","","86","","0.0","","25","","19","","","","103.88","","","","-8","","NA"
"-61.70","49.09","HEATH POINT","7053038","2018-03-26 19:00","2018","03","26","19:00","-3.3","","-5.0","","88","","0.0","","25","","13","","","","103.93","","","","-8","","NA"
"-61.70","49.09","HEATH POINT","7053038","2018-03-26 20:00","2018","03","26","20:00","-2.1","","-4.1","","86","","0.0","","23","","16","","","","103.91","","","","-7","","NA"
"-61.70","49.09","HEATH POINT","7053038","2018-03-26 21:00","2018","03","26","21:00","-2.1","","-3.8","","88","","0.0","","23","","21","","","","103.89","","","","-8","","NA"
"-61.70","49.09","HEATH POINT","7053038","2018-03-26 22:00","2018","03","26","22:00","-2.5","","-4.0","","90","","0.0","","25","","26","","","","103.93","","","","-9","","NA"
"-61.70","49.09","HEATH POINT","7053038","2018-03-26 23:00","2018","03","26","23:00","-4.7","","-5.6","","93","","0.0","","26","","15","","","","103.95","","","","-10","","NA"
"-61.70","49.09","HEATH POINT","7053038","2018-03-27 00:00","2018","03","27","00:00","-5.0","","-5.7","","95","","0.0","","26","","19","","","","103.90","","","","-11","","NA"
"-61.70","49.09","HEATH POINT","7053038","2018-03-27 01:00","2018","03","27","01:00","-4.8","","-5.3","","97","","0.0","","25","","14","","","","103.89","","","","-10","","NA"
"-61.70","49.09","HEATH POINT","7053038","2018-03-27 02:00","2018","03","27","02:00","-5.4","","-5.8","","97","","0.0","","26","","16","","","","103.84","","","","-11","","NA"
"-61.70","49.09","HEATH POINT","7053038","2018-03-27 03:00","2018","03","27","03:00","-6.7","","-7.0","","97","","0.0","","28","","20","","","","103.84","","","","-14","","NA"
"-61.70","49.09","HEATH POINT","7053038","2018-03-27 04:00","2018","03","27","04:00","-5.9","","-6.3","","97","","0.0","","27","","10","","","","103.86","","","","-10","","NA"
"-61.70","49.09","HEATH POINT","7053038","2018-03-27 05:00","2018","03","27","05:00","-5.0","","-5.3","","98","","0.0","","25","","17","","","","103.85","","","","-11","","NA"
"-61.70","49.09","HEATH POINT","7053038","2018-03-27 06:00","2018","03","27","06:00","-4.8","","-5.4","","96","","0.0","","25","","14","","","","103.88","","","","-10","","NA"
"-61.70","49.09","HEATH POINT","7053038","2018-03-27 07:00","2018","03","27","07:00","-3.2","","-3.9","","95","","0.0","","24","","10","","","","103.86","","","","-7","","NA"
"-61.70","49.09","HEATH POINT","7053038","2018-03-27 08:00","2018","03","27","08:00","-2.2","","-3.0","","94","","0.0","","22","","11","","","","103.84","","","","-6","","NA"
"-61.70","49.09","HEATH POINT","7053038","2018-03-27 09:00","2018","03","27","09:00","-1.5","","-3.1","","88","","0.0","","23","","16","","","","103.84","","","","-6","","NA"
"-61.70","49.09","HEATH POINT","7053038","2018-03-27 10:00","2018","03","27","10:00","-1.1","","-3.0","","87","","0.0","","22","","18","","","","103.82","","","","-6","","NA"
"-61.70","49.09","HEATH POINT","7053038","2018-03-27 11:00","2018","03","27","11:00","-0.9","","-2.9","","86","","0.0","","23","","15","","","","103.77","","","","-6","","NA"
"-61.70","49.09","HEATH POINT","7053038","2018-03-27 12:00","2018","03","27","12:00","-0.8","","-2.8","","86","","0.0","","22","","18","","","","103.70","","","","-6","","NA"
"-61.70","49.09","HEATH POINT","7053038","2018-03-27 13:00","2018","03","27","13:00","-0.6","","-2.7","","86","","0.0","","22","","14","","","","103.64","","","","-5","","NA"
"-61.70","49.09","HEATH POINT","7053038","2018-03-27 14:00","2018","03","27","14:00","-0.5","","-2.6","","86","","0.0","","21","","13","","","","103.60","","","","-5","","NA"
"-61.70","49.09","HEATH POINT","7053038","2018-03-27 15:00","2018","03","27","15:00","-0.7","","-2.7","","87","","0.0","","20","","11","","","","103.52","","","","-4","","NA"
"-61.70","49.09","HEATH POINT","7053038","2018-03-27 16:00","2018","03","27","16:00"
"-61.70","49.09","HEATH POINT","7053038","2018-03-27 17:00","2018","03","27","17:00"
"-61.70","49.09","HEATH POINT","7053038","2018-03-27 18:00","2018","03","27","18:00","-1.8","","-3.0","","91","","0.0","","15","","7","","","","103.31","","","","-4","","NA"
"-61.70","49.09","HEATH POINT","7053038","2018-03-27 19:00","2018","03","27","19:00","-1.7","","-3.0","","91","","0.0","","15","","6","","","","103.27","","","","-4","","NA"
"-61.70","49.09","HEATH POINT","7053038","2018-03-27 20:00","2018","03","27","20:00","-1.8","","-2.9","","92","","0.0","","10","","6","","","","103.20","","","","-4","","NA"
"-61.70","49.09","HEATH POINT","7053038","2018-03-27 21:00","2018","03","27","21:00","-1.9","","-3.2","","91","","0.0","","8","","7","","","","103.10","","","","-5","","NA"
"-61.70","49.09","HEATH POINT","7053038","2018-03-27 22:00","2018","03","27","22:00","-1.7","","-3.1","","90","","0.0","","9","","13","","","","103.01","","","","-6","","NA"
"-61.70","49.09","HEATH POINT","7053038","2018-03-27 23:00","2018","03","27","23:00","-1.7","","-3.1","","90","","0.0","","7","","9","","","","102.97","","","","-5","","NA"
"-61.70","49.09","HEATH POINT","7053038","2018-03-28 00:00","2018","03","28","00:00","-1.5","","-3.3","","88","","0.0","","10","","16","","","","102.85","","","","-6","","NA"
"-61.70","49.09","HEATH POINT","7053038","2018-03-28 01:00","2018","03","28","01:00","-1.2","","-3.6","","83","","0.0","","9","","19","","","","102.71","","","","-7","","NA"
"-61.70","49.09","HEATH POINT","7053038","2018-03-28 02:00","2018","03","28","02:00","-0.9","","-3.9","","80","","0.0","","8","","18","","","","102.61","","","","-6","","NA"
"-61.70","49.09","HEATH POINT","7053038","2018-03-28 03:00","2018","03","28","03:00","-0.9","","-3.7","","81","","0.0","","7","","17","","","","102.48","","","","-6","","NA"
"-61.70","49.09","HEATH POINT","7053038","2018-03-28 04:00","2018","03","28","04:00","-0.6","","-3.7","","80","","0.0","","9","","19","","","","102.37","","","","-6","","NA"
"-61.70","49.09","HEATH POINT","7053038","2018-03-28 05:00","2018","03","28","05:00","-0.4","","-3.5","","80","","0.0","","7","","13","","","","102.33","","","","-5","","NA"
"-61.70","49.09","HEATH POINT","7053038","2018-03-28 06:00","2018","03","28","06:00","-0.4","","-3.1","","82","","0.0","","7","","17","","","","102.26","","","","-5","","NA"
"-61.70","49.09","HEATH POINT","7053038","2018-03-28 07:00","2018","03","28","07:00","-0.4","","-3.0","","82","","0.0","","8","","20","","","","102.10","","","","-6","","NA"
"-61.70","49.09","HEATH POINT","7053038","2018-03-28 08:00","2018","03","28","08:00","0.1","","-3.6","","76","","0.0","","8","","29","","","","101.90","","","","","","NA"
"-61.70","49.09","HEATH POINT","7053038","2018-03-28 09:00","2018","03","28","09:00","0.1","","-3.4","","77","","0.0","","9","","24","","","","101.83","","","","","","NA"
"-61.70","49.09","HEATH POINT","7053038","2018-03-28 10:00","2018","03","28","10:00","-0.1","","-3.2","","79","","0.0","","8","","20","","","","101.75","","","","-5","","NA"
"-61.70","49.09","HEATH POINT","7053038","2018-03-28 11:00","2018","03","28","11:00","-0.8","","-1.9","","92","","0.0","","5","","19","","","","101.62","","","","-6","","NA"
"-61.70","49.09","HEATH POINT","7053038","2018-03-28 12:00","2018","03","28","12:00","-1.1","","-1.7","","96","","1.1","","3","","16","","","","101.47","","","","-6","","NA"
"-61.70","49.09","HEATH POINT","7053038","2018-03-28 13:00","2018","03","28","13:00","-1.3","","-1.6","","98","","0.5","","4","","15","","","","101.36","","","","-6","","NA"
"-61.70","49.09","HEATH POINT","7053038","2018-03-28 14:00","2018","03","28","14:00","-1.3","","-1.3","","100","","1.0","","3","","14","","","","101.23","","","","-6","","NA"
"-61.70","49.09","HEATH POINT","7053038","2018-03-28 15:00","2018","03","28","15:00","-1.2","","-1.2","","100","","0.2","","3","","14","","","","101.15","","","","-6","","NA"
"-61.70","49.09","HEATH POINT","7053038","2018-03-28 16:00","2018","03","28","16:00","-1.3","","-1.3","","100","","0.4","","4","","7","","","","101.07","","","","-4","","NA"
"-61.70","49.09","HEATH POINT","7053038","2018-03-28 17:00","2018","03","28","17:00","-1.1","","-1.1","","100","","0.2","","5","","5","","","","100.98","","","","-3","","NA"
"-61.70","49.09","HEATH POINT","7053038","2018-03-28 18:00","2018","03","28","18:00","-1.3","","-1.3","","100","","0.8","","4","","5","","","","100.92","","","","-3","","NA"
"-61.70","49.09","HEATH POINT","7053038","2018-03-28 19:00","2018","03","28","19:00"
"-61.70","49.09","HEATH POINT","7053038","2018-03-28 20:00","2018","03","28","20:00"
"-61.70","49.09","HEATH POINT","7053038","2018-03-28 21:00","2018","03","28","21:00"
"-61.70","49.09","HEATH POINT","7053038","2018-03-28 22:00","2018","03","28","22:00"
"-61.70","49.09","HEATH POINT","7053038","2018-03-28 23:00","2018","03","28","23:00"
"-61.70","49.09","HEATH POINT","7053038","2018-03-29 00:00","2018","03","29","00:00"
"-61.70","49.09","HEATH POINT","7053038","2018-03-29 01:00","2018","03","29","01:00"
"-61.70","49.09","HEATH POINT","7053038","2018-03-29 02:00","2018","03","29","02:00"
"-61.70","49.09","HEATH POINT","7053038","2018-03-29 03:00","2018","03","29","03:00"
"-61.70","49.09","HEATH POINT","7053038","2018-03-29 04:00","2018","03","29","04:00","-1.0","","-1.0","","100","","0.2","","36","","7","","","","100.76","","","","-4","","NA"
"-61.70","49.09","HEATH POINT","7053038","2018-03-29 05:00","2018","03","29","05:00","-1.0","","-1.0","","100","","0.0","","36","","7","","","","100.81","","","","-4","","NA"
"-61.70","49.09","HEATH POINT","7053038","2018-03-29 06:00","2018","03","29","06:00","-0.8","","-0.8","","100","","0.0","","35","","7","","","","100.87","","","","-3","","NA"
"-61.70","49.09","HEATH POINT","7053038","2018-03-29 07:00","2018","03","29","07:00"
"-61.70","49.09","HEATH POINT","7053038","2018-03-29 08:00","2018","03","29","08:00","-0.3","","-0.3","","100","","0.9","","36","","26","","","","100.97","","","","-6","","NA"
"-61.70","49.09","HEATH POINT","7053038","2018-03-29 09:00","2018","03","29","09:00","0.1","","0.1","","100","","0.0","","34","","23","","","","101.07","","","","","","NA"
"-61.70","49.09","HEATH POINT","7053038","2018-03-29 10:00","2018","03","29","10:00","0.4","","0.4","","100","","0.0","","34","","24","","","","101.06","","","","","","NA"
"-61.70","49.09","HEATH POINT","7053038","2018-03-29 11:00","2018","03","29","11:00","1.1","","0.6","","96","","0.0","","35","","21","","","","101.11","","","","","","NA"
"-61.70","49.09","HEATH POINT","7053038","2018-03-29 12:00","2018","03","29","12:00","1.3","","0.6","","95","","0.0","","35","","22","","","","101.11","","","","","","NA"
"-61.70","49.09","HEATH POINT","7053038","2018-03-29 13:00","2018","03","29","13:00","1.4","","0.5","","94","","0.0","","35","","18","","","","101.11","","","","","","NA"
"-61.70","49.09","HEATH POINT","7053038","2018-03-29 14:00","2018","03","29","14:00","1.8","","0.6","","92","","0.0","","33","","19","","","","101.20","","","","","","NA"
"-61.70","49.09","HEATH POINT","7053038","2018-03-29 15:00","2018","03","29","15:00","1.9","","0.2","","88","","0.0","","32","","18","","","","101.27","","","","","","NA"
"-61.70","49.09","HEATH POINT","7053038","2018-03-29 16:00","2018","03","29","16:00","2.3","","0.1","","85","","0.0","","35","","11","","","","101.26","","","","","","NA"
"-61.70","49.09","HEATH POINT","7053038","2018-03-29 17:00","2018","03","29","17:00","2.2","","0.2","","87","","0.0","","32","","10","","","","101.32","","","","","","NA"
"-61.70","49.09","HEATH POINT","7053038","2018-03-29 18:00","2018","03","29","18:00","-0.3","","-0.8","","97","","0.0","","25","","11","","","","101.37","","","","-4","","NA"
"-61.70","49.09","HEATH POINT","7053038","2018-03-29 19:00","2018","03","29","19:00","-0.4","","-0.7","","98","","0.0","","24","","7","","","","101.38","","","","-3","","NA"
"-61.70","49.09","HEATH POINT","7053038","2018-03-29 20:00","2018","03","29","20:00"
"-61.70","49.09","HEATH POINT","7053038","2018-03-29 21:00","2018","03","29","21:00"
"-61.70","49.09","HEATH POINT","7053038","2018-03-29 22:00","2018","03","29","22:00"
"-61.70","49.09","HEATH POINT","7053038","2018-03-29 23:00","2018","03","29","23:00"
"-61.70","49.09","HEATH POINT","7053038","2018-03-30 00:00","2018","03","30","00:00"
"-61.70","49.09","HEATH POINT","7053038","2018-03-30 01:00","2018","03","30","01:00"
"-61.70","49.09","HEATH POINT","7053038","2018-03-30 02:00","2018","03","30","02:00","-0.4","","-0.5","","99","","0.0","","33","","1","","","","101.49","","","","-1","","NA"
"-61.70","49.09","HEATH POINT","7053038","2018-03-30 03:00","2018","03","30","03:00","-0.7","","-0.8","","99","","0.0","","21","","8","","","","101.49","","","","-4","","NA"
"-61.70","49.09","HEATH POINT","7053038","2018-03-30 04:00","2018","03","30","04:00","-1.0","","-1.1","","99","","0.0","","21","","11","","","","101.47","","","","-5","","NA"
"-61.70","49.09","HEATH POINT","7053038","2018-03-30 05:00","2018","03","30","05:00","-1.0","","-1.1","","99","","0.0","","21","","9","","","","101.51","","","","-4","","NA"
"-61.70","49.09","HEATH POINT","7053038","2018-03-30 06:00","2018","03","30","06:00","-1.0","","-1.2","","99","","0.0","","19","","4","","","","101.40","","","","-2","","NA"
"-61.70","49.09","HEATH POINT","7053038","2018-03-30 07:00","2018","03","30","07:00","-1.0","","-1.3","","98","","0.0","","17","","11","","","","101.35","","","","-5","","NA"
"-61.70","49.09","HEATH POINT","7053038","2018-03-30 08:00","2018","03","30","08:00","-1.0","","-1.3","","98","","0.0","","16","","13","","","","101.28","","","","-5","","NA"
"-61.70","49.09","HEATH POINT","7053038","2018-03-30 09:00","2018","03","30","09:00","-0.9","","-1.3","","97","","0.0","","14","","14","","","","101.20","","","","-5","","NA"
"-61.70","49.09","HEATH POINT","7053038","2018-03-30 10:00","2018","03","30","10:00","-0.7","","-1.2","","97","","0.0","","14","","14","","","","101.16","","","","-5","","NA"
"-61.70","49.09","HEATH POINT","7053038","2018-03-30 11:00","2018","03","30","11:00","-0.7","","-1.1","","97","","0.3","","14","","19","","","","101.04","","","","-6","","NA"
"-61.70","49.09","HEATH POINT","7053038","2018-03-30 12:00","2018","03","30","12:00","-0.8","","-1.0","","98","","0.8","","15","","28","","","","100.93","","","","-7","","NA"
"-61.70","49.09","HEATH POINT","7053038","2018-03-30 13:00","2018","03","30","13:00","-0.8","","-0.9","","99","","0.6","","14","","30","","","","100.77","","","","-8","","NA"
"-61.70","49.09","HEATH POINT","7053038","2018-03-30 14:00","2018","03","30","14:00","-0.7","","-0.8","","100","","0.9","","13","","31","","","","100.62","","","","-7","","NA"
"-61.70","49.09","HEATH POINT","7053038","2018-03-30 15:00","2018","03","30","15:00","-0.7","","-0.8","","100","","0.6","","14","","30","","","","100.39","","","","-7","","NA"
"-61.70","49.09","HEATH POINT","7053038","2018-03-30 16:00","2018","03","30","16:00","-0.6","","-0.6","","100","","0.0","","14","","24","","","","100.36","","","","-7","","NA"
"-61.70","49.09","HEATH POINT","7053038","2018-03-30 17:00","2018","03","30","17:00","-0.6","","-0.6","","100","","0.0","","14","","17","","","","100.21","","","","-6","","NA"
"-61.70","49.09","HEATH POINT","7053038","2018-03-30 18:00","2018","03","30","18:00","-0.7","","-0.7","","100","","0.0","","14","","13","","","","100.12","","","","-5","","NA"
"-61.70","49.09","HEATH POINT","7053038","2018-03-30 19:00","2018","03","30","19:00","-0.8","","-0.8","","100","","0.4","","16","","6","","","","100.15","","","","-3","","NA"
"-61.70","49.09","HEATH POINT","7053038","2018-03-30 20:00","2018","03","30","20:00","-0.8","","-0.8","","100","","0.0","","17","","4","","","","100.12","","","","-2","","NA"
"-61.70","49.09","HEATH POINT","7053038","2018-03-30 21:00","2018","03","30","21:00","-0.8","","-0.8","","100","","0.0","","20","","2","","","","100.05","","","","-1","","NA"
"-61.70","49.09","HEATH POINT","7053038","2018-03-30 22:00","2018","03","30","22:00","-0.8","","-0.8","","100","","0.0","","","","0","","","","100.02","","","","","","NA"
"-61.70","49.09","HEATH POINT","7053038","2018-03-30 23:00","2018","03","30","23:00","-0.5","","-0.5","","100","","0.0","","","","0","","","","100.05","","","","","","NA"
"-61.70","49.09","HEATH POINT","7053038","2018-03-31 00:00","2018","03","31","00:00","-0.6","","-0.6","","100","","0.0","","","","0","","","","100.03","","","","","","NA"
"-61.70","49.09","HEATH POINT","7053038","2018-03-31 01:00","2018","03","31","01:00","-0.8","","-0.8","","100","","0.0","","","","0","","","","100.01","","","","","","NA"
"-61.70","49.09","HEATH POINT","7053038","2018-03-31 02:00","2018","03","31","02:00","-0.6","","-0.6","","100","","0.0","","26","","3","","","","100.01","","","","-2","","NA"
"-61.70","49.09","HEATH POINT","7053038","2018-03-31 03:00","2018","03","31","03:00","-0.1","","-0.1","","100","","0.0","","31","","3","","","","99.98","","","","-1","","NA"
"-61.70","49.09","HEATH POINT","7053038","2018-03-31 04:00","2018","03","31","04:00","-0.4","","-0.4","","100","","0.0","","32","","7","","","","99.99","","","","-3","","NA"
"-61.70","49.09","HEATH POINT","7053038","2018-03-31 05:00","2018","03","31","05:00","-0.5","","-0.7","","99","","0.0","","31","","4","","","","100.03","","","","-2","","NA"
"-61.70","49.09","HEATH POINT","7053038","2018-03-31 06:00","2018","03","31","06:00","-0.2","","-0.3","","99","","0.0","","31","","4","","","","100.11","","","","-1","","NA"
"-61.70","49.09","HEATH POINT","7053038","2018-03-31 07:00","2018","03","31","07:00","0.3","","0.0","","98","","1.2","","30","","20","","","","100.11","","","","","","NA"
"-61.70","49.09","HEATH POINT","7053038","2018-03-31 08:00","2018","03","31","08:00","0.3","","-0.1","","97","","0.8","","29","","20","","","","100.12","","","","","","NA"
"-61.70","49.09","HEATH POINT","7053038","2018-03-31 09:00","2018","03","31","09:00","-0.4","","-0.9","","96","","0.0","","25","","18","","","","100.17","","","","-5","","NA"
"-61.70","49.09","HEATH POINT","7053038","2018-03-31 10:00","2018","03","31","10:00","0.8","","-0.7","","90","","0.0","","29","","34","","","","100.17","","","","","","NA"
"-61.70","49.09","HEATH POINT","7053038","2018-03-31 11:00","2018","03","31","11:00","1.3","","-0.8","","86","","0.0","","29","","33","","","","100.16","","","","","","NA"
"-61.70","49.09","HEATH POINT","7053038","2018-03-31 12:00","2018","03","31","12:00","1.1","","-2.2","","79","","0.0","","29","","41","","","","100.18","","","","","","NA"
"-61.70","49.09","HEATH POINT","7053038","2018-03-31 13:00","2018","03","31","13:00","0.2","","-2.5","","82","","0.0","","29","","34","","","","100.26","","","","","","NA"
"-61.70","49.09","HEATH POINT","7053038","2018-03-31 14:00","2018","03","31","14:00","-1.2","","-5.4","","73","","0.0","","28","","47","","","","100.32","","","","-10","","NA"
"-61.70","49.09","HEATH POINT","7053038","2018-03-31 15:00","2018","03","31","15:00","-1.8","","-6.9","","68","","0.0","","28","","47","","","","100.42","","","","-10","","NA"
"-61.70","49.09","HEATH POINT","7053038","2018-03-31 16:00","2018","03","31","16:00","-2.1","","-8.5","","62","","0.0","","28","","49","","","","100.51","","","","-11","","NA"
"-61.70","49.09","HEATH POINT","7053038","2018-03-31 17:00","2018","03","31","17:00","-3.0","","-8.8","","65","","0.0","","28","","57","","","","100.67","","","","-13","","NA"
"-61.70","49.09","HEATH POINT","7053038","2018-03-31 18:00","2018","03","31","18:00","-3.4","","-10.3","","59","","0.0","","28","","50","","","","100.83","","","","-13","","NA"
"-61.70","49.09","HEATH POINT","7053038","2018-03-31 19:00","2018","03","31","19:00","-3.7","","-10.4","","59","","0.0","","28","","47","","","","100.93","","","","-13","","NA"
"-61.70","49.09","HEATH POINT","7053038","2018-03-31 20:00","2018","03","31","20:00","-4.3","","-10.1","","64","","0.0","","28","","37","","","","101.07","","","","-13","","NA"
"-61.70","49.09","HEATH POINT","7053038","2018-03-31 21:00","2018","03","31","21:00","-4.7","","-10.7","","63","","0.0","","29","","31","","","","101.14","","","","-13","","NA"
"-61.70","49.09","HEATH POINT","7053038","2018-03-31 22:00","2018","03","31","22:00","-5.5","","-10.5","","68","","0.0","","28","","22","","","","101.29","","","","-13","","NA"
"-61.70","49.09","HEATH POINT","7053038","2018-03-31 23:00","2018","03","31","23:00","-6.3","","-11.0","","69","","0.0","","28","","16","","","","101.30","","","","-12","","NA"
