"Longitude (x)","Latitude (y)","Station Name","Climate ID","Date/Time (LST)","Year","Month","Day","Time (LST)","Temp (°C)","Temp Flag","Dew Point Temp (°C)","Dew Point Temp Flag","Rel Hum (%)","Rel Hum Flag","Precip. Amount (mm)","Precip. Amount Flag","Wind Dir (10s deg)","Wind Dir Flag","Wind Spd (km/h)","Wind Spd Flag","Visibility (km)","Visibility Flag","Stn Press (kPa)","Stn Press Flag","Hmdx","Hmdx Flag","Wind Chill","Wind Chill Flag","Weather"
"-61.78","47.43","ILES DE LA MADELEINE A","7053250","2018-01-01 00:00","2018","01","01","00:00"
"-61.78","47.43","ILES DE LA MADELEINE A","7053250","2018-01-01 01:00","2018","01","01","01:00"
"-61.78","47.43","ILES DE LA MADELEINE A","7053250","2018-01-01 02:00","2018","01","01","02:00"
"-61.78","47.43","ILES DE LA MADELEINE A","7053250","2018-01-01 03:00","2018","01","01","03:00"
"-61.78","47.43","ILES DE LA MADELEINE A","7053250","2018-01-01 04:00","2018","01","01","04:00"
"-61.78","47.43","ILES DE LA MADELEINE A","7053250","2018-01-01 05:00","2018","01","01","05:00"
"-61.78","47.43","ILES DE LA MADELEINE A","7053250","2018-01-01 06:00","2018","01","01","06:00","-3.1","","-5.7","","82","","","","30","","31","","24.1","","100.46","","","","-11","","Snow Showers,Blowing Snow"
"-61.78","47.43","ILES DE LA MADELEINE A","7053250","2018-01-01 07:00","2018","01","01","07:00","-3.5","","-5.8","","84","","","","31","","32","","24.1","","100.53","","","","-11","","Snow Showers,Blowing Snow"
"-61.78","47.43","ILES DE LA MADELEINE A","7053250","2018-01-01 08:00","2018","01","01","08:00","-3.5","","-5.9","","84","","","","31","","32","","24.1","","100.57","","","","-11","","Snow Showers,Blowing Snow"
"-61.78","47.43","ILES DE LA MADELEINE A","7053250","2018-01-01 09:00","2018","01","01","09:00","-3.6","","-6.0","","84","","","","31","","33","","19.3","","100.61","","","","-12","","Snow Showers,Blowing Snow"
"-61.78","47.43","ILES DE LA MADELEINE A","7053250","2018-01-01 10:00","2018","01","01","10:00","-3.5","","-6.3","","81","","","","30","","27","","24.1","","100.68","","","","-11","","Blowing Snow"
"-61.78","47.43","ILES DE LA MADELEINE A","7053250","2018-01-01 11:00","2018","01","01","11:00","-3.6","","-6.0","","83","","","","31","","25","","24.1","","100.69","","","","-11","","Cloudy"
"-61.78","47.43","ILES DE LA MADELEINE A","7053250","2018-01-01 12:00","2018","01","01","12:00","-3.5","","-6.0","","83","","","","30","","29","","32.2","","100.65","","","","-11","","Freezing Rain"
"-61.78","47.43","ILES DE LA MADELEINE A","7053250","2018-01-01 13:00","2018","01","01","13:00","-3.3","","-6.2","","81","","","","31","","25","","24.1","","100.63","","","","-10","","NA"
"-61.78","47.43","ILES DE LA MADELEINE A","7053250","2018-01-01 14:00","2018","01","01","14:00","-3.5","","-5.8","","84","","","","29","","26","","24.1","","100.64","","","","-11","","Freezing Drizzle,Snow"
"-61.78","47.43","ILES DE LA MADELEINE A","7053250","2018-01-01 15:00","2018","01","01","15:00","-3.6","","-6.2","","82","","","","30","","26","","24.1","","100.69","","","","-11","","Freezing Drizzle,Snow"
"-61.78","47.43","ILES DE LA MADELEINE A","7053250","2018-01-01 16:00","2018","01","01","16:00","-3.8","","-6.0","","85","","","","30","","24","","16.1","","100.76","","","","-11","","Freezing Drizzle,Snow"
"-61.78","47.43","ILES DE LA MADELEINE A","7053250","2018-01-01 17:00","2018","01","01","17:00","-3.8","","-6.4","","83","","","","30","","24","","19.3","","100.81","","","","-11","","Freezing Drizzle,Snow"
"-61.78","47.43","ILES DE LA MADELEINE A","7053250","2018-01-01 18:00","2018","01","01","18:00","-3.8","","-6.3","","82","","","","30","","27","","24.1","","100.85","","","","-11","","Freezing Drizzle,Snow"
"-61.78","47.43","ILES DE LA MADELEINE A","7053250","2018-01-01 19:00","2018","01","01","19:00","-4.0","","-6.8","","81","","","","31","","21","","24.1","","100.89","","","","-10","","Freezing Drizzle,Snow"
"-61.78","47.43","ILES DE LA MADELEINE A","7053250","2018-01-01 20:00","2018","01","01","20:00","-4.2","","-6.4","","85","","","","30","","28","","16.1","","100.89","","","","-12","","Freezing Drizzle,Snow"
"-61.78","47.43","ILES DE LA MADELEINE A","7053250","2018-01-01 21:00","2018","01","01","21:00","-4.7","","-6.9","","84","","","","29","","31","","19.3","","100.90","","","","-13","","Snow"
"-61.78","47.43","ILES DE LA MADELEINE A","7053250","2018-01-01 22:00","2018","01","01","22:00","-4.7","","-7.0","","84","","","","30","","27","","19.3","","100.91","","","","-12","","Snow"
"-61.78","47.43","ILES DE LA MADELEINE A","7053250","2018-01-01 23:00","2018","01","01","23:00","-4.6","","-7.5","","81","","","","29","","28","","24.1","","100.91","","","","-12","","Snow"
"-61.78","47.43","ILES DE LA MADELEINE A","7053250","2018-01-02 00:00","2018","01","02","00:00"
"-61.78","47.43","ILES DE LA MADELEINE A","7053250","2018-01-02 01:00","2018","01","02","01:00"
"-61.78","47.43","ILES DE LA MADELEINE A","7053250","2018-01-02 02:00","2018","01","02","02:00"
"-61.78","47.43","ILES DE LA MADELEINE A","7053250","2018-01-02 03:00","2018","01","02","03:00"
"-61.78","47.43","ILES DE LA MADELEINE A","7053250","2018-01-02 04:00","2018","01","02","04:00"
"-61.78","47.43","ILES DE LA MADELEINE A","7053250","2018-01-02 05:00","2018","01","02","05:00"
"-61.78","47.43","ILES DE LA MADELEINE A","7053250","2018-01-02 06:00","2018","01","02","06:00","-5.9","","-8.9","","79","","","","25","","30","","24.1","","100.86","","","","-14","","Snow Showers"
"-61.78","47.43","ILES DE LA MADELEINE A","7053250","2018-01-02 07:00","2018","01","02","07:00","-6.0","","-8.7","","81","","","","25","","25","","19.3","","100.88","","","","-14","","Snow Showers"
"-61.78","47.43","ILES DE LA MADELEINE A","7053250","2018-01-02 08:00","2018","01","02","08:00","-6.4","","-9.3","","80","","","","25","","28","","24.1","","100.87","","","","-15","","Snow Showers"
"-61.78","47.43","ILES DE LA MADELEINE A","7053250","2018-01-02 09:00","2018","01","02","09:00","-6.3","","-9.0","","81","","","","24","","24","","24.1","","100.87","","","","-14","","Snow Showers"
"-61.78","47.43","ILES DE LA MADELEINE A","7053250","2018-01-02 10:00","2018","01","02","10:00","-6.2","","-8.9","","81","","","","24","","27","","9.7","","100.87","","","","-14","","Snow Showers"
"-61.78","47.43","ILES DE LA MADELEINE A","7053250","2018-01-02 11:00","2018","01","02","11:00","-5.9","","-8.8","","80","","","","24","","26","","16.1","","100.84","","","","-14","","Snow Showers"
"-61.78","47.43","ILES DE LA MADELEINE A","7053250","2018-01-02 12:00","2018","01","02","12:00","-6.2","","-9.4","","78","","","","25","","28","","32.2","","100.80","","","","-14","","Snow Showers"
"-61.78","47.43","ILES DE LA MADELEINE A","7053250","2018-01-02 13:00","2018","01","02","13:00","-6.8","","-9.1","","84","","","","25","","30","","4.8","","100.75","","","","-15","","Snow Showers,Blowing Snow"
"-61.78","47.43","ILES DE LA MADELEINE A","7053250","2018-01-02 14:00","2018","01","02","14:00","-7.4","","-10.2","","81","","","","25","","33","","2.8","","100.70","","","","-17","","Snow Showers,Blowing Snow"
"-61.78","47.43","ILES DE LA MADELEINE A","7053250","2018-01-02 15:00","2018","01","02","15:00","-7.9","","-9.7","","87","","","","26","","34","","2.4","","100.72","","","","-17","","Snow Showers,Blowing Snow"
"-61.78","47.43","ILES DE LA MADELEINE A","7053250","2018-01-02 16:00","2018","01","02","16:00","-8.1","","-10.0","","86","","","","26","","34","","4.0","","100.72","","","","-18","","Snow Showers,Blowing Snow"
"-61.78","47.43","ILES DE LA MADELEINE A","7053250","2018-01-02 17:00","2018","01","02","17:00","-8.2","","-10.0","","87","","","","25","","36","","3.2","","100.72","","","","-18","","Snow Showers,Blowing Snow"
"-61.78","47.43","ILES DE LA MADELEINE A","7053250","2018-01-02 18:00","2018","01","02","18:00","-7.7","","-9.6","","86","","","","25","","33","","3.2","","100.72","","","","-17","","Snow Showers,Blowing Snow"
"-61.78","47.43","ILES DE LA MADELEINE A","7053250","2018-01-02 19:00","2018","01","02","19:00","-7.1","","-8.7","","88","","","","25","","41","","3.2","","100.74","","","","-17","","Snow Showers,Blowing Snow"
"-61.78","47.43","ILES DE LA MADELEINE A","7053250","2018-01-02 20:00","2018","01","02","20:00","-6.7","","-8.1","","89","","","","26","","39","","2.8","","100.78","","","","-16","","Snow Showers,Blowing Snow"
"-61.78","47.43","ILES DE LA MADELEINE A","7053250","2018-01-02 21:00","2018","01","02","21:00","-7.1","","-9.6","","83","","","","27","","41","","8.1","","100.81","","","","-17","","Snow Showers,Blowing Snow"
"-61.78","47.43","ILES DE LA MADELEINE A","7053250","2018-01-02 22:00","2018","01","02","22:00","-7.7","","-9.7","","86","","","","26","","43","","6.4","","100.85","","","","-18","","Snow Showers,Blowing Snow"
"-61.78","47.43","ILES DE LA MADELEINE A","7053250","2018-01-02 23:00","2018","01","02","23:00","-8.2","","-10.3","","85","","","","27","","45","","4.8","","100.89","","","","-19","","Snow Showers,Blowing Snow"
"-61.78","47.43","ILES DE LA MADELEINE A","7053250","2018-01-03 00:00","2018","01","03","00:00"
"-61.78","47.43","ILES DE LA MADELEINE A","7053250","2018-01-03 01:00","2018","01","03","01:00"
"-61.78","47.43","ILES DE LA MADELEINE A","7053250","2018-01-03 02:00","2018","01","03","02:00"
"-61.78","47.43","ILES DE LA MADELEINE A","7053250","2018-01-03 03:00","2018","01","03","03:00"
"-61.78","47.43","ILES DE LA MADELEINE A","7053250","2018-01-03 04:00","2018","01","03","04:00"
"-61.78","47.43","ILES DE LA MADELEINE A","7053250","2018-01-03 05:00","2018","01","03","05:00"
"-61.78","47.43","ILES DE LA MADELEINE A","7053250","2018-01-03 06:00","2018","01","03","06:00","-10.2","","-13.5","","77","","","","26","","43","","24.1","","101.48","","","","-21","","Snow Showers,Blowing Snow"
"-61.78","47.43","ILES DE LA MADELEINE A","7053250","2018-01-03 07:00","2018","01","03","07:00","-9.9","","-12.9","","79","","","","26","","39","","24.1","","101.60","","","","-21","","Snow Showers,Blowing Snow"
"-61.78","47.43","ILES DE LA MADELEINE A","7053250","2018-01-03 08:00","2018","01","03","08:00","-9.6","","-12.4","","80","","","","26","","33","","16.1","","101.72","","","","-19","","Snow Showers,Blowing Snow"
"-61.78","47.43","ILES DE LA MADELEINE A","7053250","2018-01-03 09:00","2018","01","03","09:00","-9.3","","-12.4","","78","","","","26","","36","","24.1","","101.84","","","","-19","","Snow Showers,Blowing Snow"
"-61.78","47.43","ILES DE LA MADELEINE A","7053250","2018-01-03 10:00","2018","01","03","10:00","-8.8","","-12.2","","77","","","","26","","33","","24.1","","101.94","","","","-18","","Snow Showers,Blowing Snow"
"-61.78","47.43","ILES DE LA MADELEINE A","7053250","2018-01-03 11:00","2018","01","03","11:00","-8.9","","-11.7","","80","","","","25","","27","","11.3","","102.05","","","","-18","","Snow Showers,Blowing Snow"
"-61.78","47.43","ILES DE LA MADELEINE A","7053250","2018-01-03 12:00","2018","01","03","12:00","-8.8","","-11.9","","78","","","","25","","30","","6.4","","102.06","","","","-18","","Snow Showers,Blowing Snow"
"-61.78","47.43","ILES DE LA MADELEINE A","7053250","2018-01-03 13:00","2018","01","03","13:00","-9.0","","-12.3","","77","","","","26","","30","","4.8","","102.10","","","","-18","","Snow Showers,Blowing Snow"
"-61.78","47.43","ILES DE LA MADELEINE A","7053250","2018-01-03 14:00","2018","01","03","14:00","-9.7","","-12.5","","80","","","","25","","31","","3.2","","102.17","","","","-19","","Snow Showers,Blowing Snow"
"-61.78","47.43","ILES DE LA MADELEINE A","7053250","2018-01-03 15:00","2018","01","03","15:00","-10.3","","-13.9","","75","","","","26","","30","","8.1","","102.25","","","","-20","","Snow Showers,Blowing Snow"
"-61.78","47.43","ILES DE LA MADELEINE A","7053250","2018-01-03 16:00","2018","01","03","16:00","-10.0","","-13.2","","78","","","","25","","27","","9.7","","102.38","","","","-19","","Snow Showers,Blowing Snow"
"-61.78","47.43","ILES DE LA MADELEINE A","7053250","2018-01-03 17:00","2018","01","03","17:00","-10.0","","-13.6","","75","","","","25","","23","","24.1","","102.44","","","","-18","","Snow Showers"
"-61.78","47.43","ILES DE LA MADELEINE A","7053250","2018-01-03 18:00","2018","01","03","18:00","-10.0","","-13.7","","75","","","","25","","20","","24.1","","102.48","","","","-18","","NA"
"-61.78","47.43","ILES DE LA MADELEINE A","7053250","2018-01-03 19:00","2018","01","03","19:00","-9.8","","-14.3","","70","","","","24","","18","","24.1","","102.58","","","","-17","","NA"
"-61.78","47.43","ILES DE LA MADELEINE A","7053250","2018-01-03 20:00","2018","01","03","20:00","-9.4","","-13.7","","71","","","","25","","19","","24.1","","102.61","","","","-17","","Cloudy"
"-61.78","47.43","ILES DE LA MADELEINE A","7053250","2018-01-03 21:00","2018","01","03","21:00","-9.5","","-13.3","","74","","","","24","","11","","24.1","","102.66","","","","-15","","NA"
"-61.78","47.43","ILES DE LA MADELEINE A","7053250","2018-01-03 22:00","2018","01","03","22:00","-9.2","","-12.6","","76","","","","24","","9","","24.1","","102.71","","","","-14","","NA"
"-61.78","47.43","ILES DE LA MADELEINE A","7053250","2018-01-03 23:00","2018","01","03","23:00","-8.3","","-12.1","","75","","","","21","","8","","24.1","","102.72","","","","-12","","Mostly Cloudy"
"-61.78","47.43","ILES DE LA MADELEINE A","7053250","2018-01-04 00:00","2018","01","04","00:00"
"-61.78","47.43","ILES DE LA MADELEINE A","7053250","2018-01-04 01:00","2018","01","04","01:00"
"-61.78","47.43","ILES DE LA MADELEINE A","7053250","2018-01-04 02:00","2018","01","04","02:00"
"-61.78","47.43","ILES DE LA MADELEINE A","7053250","2018-01-04 03:00","2018","01","04","03:00"
"-61.78","47.43","ILES DE LA MADELEINE A","7053250","2018-01-04 04:00","2018","01","04","04:00"
"-61.78","47.43","ILES DE LA MADELEINE A","7053250","2018-01-04 05:00","2018","01","04","05:00"
"-61.78","47.43","ILES DE LA MADELEINE A","7053250","2018-01-04 06:00","2018","01","04","06:00","-2.8","","-6.4","","76","","","","15","","20","","24.1","","102.55","","","","-9","","NA"
"-61.78","47.43","ILES DE LA MADELEINE A","7053250","2018-01-04 07:00","2018","01","04","07:00","-2.0","","-5.3","","78","","","","15","","24","","24.1","","102.50","","","","-8","","NA"
"-61.78","47.43","ILES DE LA MADELEINE A","7053250","2018-01-04 08:00","2018","01","04","08:00","-1.5","","-4.1","","83","","","","14","","22","","32.2","","102.43","","","","-7","","Mostly Cloudy"
"-61.78","47.43","ILES DE LA MADELEINE A","7053250","2018-01-04 09:00","2018","01","04","09:00","-1.4","","-4.2","","81","","","","14","","30","","32.2","","102.41","","","","-8","","Snow"
"-61.78","47.43","ILES DE LA MADELEINE A","7053250","2018-01-04 10:00","2018","01","04","10:00","-1.4","","-3.6","","85","","","","12","","37","","32.2","","102.28","","","","-9","","Snow"
"-61.78","47.43","ILES DE LA MADELEINE A","7053250","2018-01-04 11:00","2018","01","04","11:00","-0.9","","-3.1","","85","","","","11","","35","","32.2","","102.01","","","","-8","","Snow"
"-61.78","47.43","ILES DE LA MADELEINE A","7053250","2018-01-04 12:00","2018","01","04","12:00","-0.5","","-2.5","","86","","","","11","","40","","24.1","","101.78","","","","-8","","Snow"
"-61.78","47.43","ILES DE LA MADELEINE A","7053250","2018-01-04 13:00","2018","01","04","13:00","-0.2","","-2.1","","87","","","","11","","43","","24.1","","101.52","","","","-8","","Snow"
"-61.78","47.43","ILES DE LA MADELEINE A","7053250","2018-01-04 14:00","2018","01","04","14:00","0.0","","-1.8","","88","","","","11","","39","","24.1","","101.34","","","","-7","","Snow"
"-61.78","47.43","ILES DE LA MADELEINE A","7053250","2018-01-04 15:00","2018","01","04","15:00","-0.1","","-1.6","","90","","","","11","","45","","4.0","","101.08","","","","-8","","Snow,Blowing Snow"
"-61.78","47.43","ILES DE LA MADELEINE A","7053250","2018-01-04 16:00","2018","01","04","16:00","-0.8","","-1.3","","96","","","","11","","56","","0.6","","100.85","","","","-10","","Freezing Rain,Snow,Blowing Snow"
"-61.78","47.43","ILES DE LA MADELEINE A","7053250","2018-01-04 17:00","2018","01","04","17:00","-0.9","","-1.5","","96","","","","10","","63","","0.6","","100.47","","","","-10","","Moderate Snow,Blowing Snow"
"-61.78","47.43","ILES DE LA MADELEINE A","7053250","2018-01-04 18:00","2018","01","04","18:00","-1.1","","-1.9","","94","","","","9","","79","","1.0","","100.01","","","","-11","","Snow,Ice Pellets,Blowing Snow"
"-61.78","47.43","ILES DE LA MADELEINE A","7053250","2018-01-04 19:00","2018","01","04","19:00","-1.2","","-2.0","","94","","","","9","","65","","1.0","","99.53","","","","-11","","Snow,Ice Pellets,Blowing Snow"
"-61.78","47.43","ILES DE LA MADELEINE A","7053250","2018-01-04 20:00","2018","01","04","20:00","-1.1","","-1.8","","95","","","","9","","80","","0.8","","99.09","","","","-11","","Moderate Snow,Blowing Snow"
"-61.78","47.43","ILES DE LA MADELEINE A","7053250","2018-01-04 21:00","2018","01","04","21:00","-0.7","","-1.6","","94","","","","11","","74","","1.2","","98.91","","","","-11","","Snow,Blowing Snow"
"-61.78","47.43","ILES DE LA MADELEINE A","7053250","2018-01-04 22:00","2018","01","04","22:00","-0.1","","-1.3","","92","","","","11","","72","","6.4","","98.53","","","","-10","","Freezing Rain,Snow,Blowing Snow"
"-61.78","47.43","ILES DE LA MADELEINE A","7053250","2018-01-04 23:00","2018","01","04","23:00","0.5","","-0.6","","92","","","","11","","72","","12.9","","98.18","","","","","","Rain"
"-61.78","47.43","ILES DE LA MADELEINE A","7053250","2018-01-05 00:00","2018","01","05","00:00"
"-61.78","47.43","ILES DE LA MADELEINE A","7053250","2018-01-05 01:00","2018","01","05","01:00"
"-61.78","47.43","ILES DE LA MADELEINE A","7053250","2018-01-05 02:00","2018","01","05","02:00"
"-61.78","47.43","ILES DE LA MADELEINE A","7053250","2018-01-05 03:00","2018","01","05","03:00"
"-61.78","47.43","ILES DE LA MADELEINE A","7053250","2018-01-05 04:00","2018","01","05","04:00"
"-61.78","47.43","ILES DE LA MADELEINE A","7053250","2018-01-05 05:00","2018","01","05","05:00"
"-61.78","47.43","ILES DE LA MADELEINE A","7053250","2018-01-05 06:00","2018","01","05","06:00","3.9","","0.4","","78","","","","16","","47","","12.9","","96.73","","","","","","Rain"
"-61.78","47.43","ILES DE LA MADELEINE A","7053250","2018-01-05 07:00","2018","01","05","07:00","2.7","","-0.4","","80","","","","17","","44","","12.9","","96.71","","","","","","Rain"
"-61.78","47.43","ILES DE LA MADELEINE A","7053250","2018-01-05 08:00","2018","01","05","08:00","2.2","","-0.8","","81","","","","18","","54","","12.9","","96.77","","","","","","Rain"
"-61.78","47.43","ILES DE LA MADELEINE A","7053250","2018-01-05 09:00","2018","01","05","09:00","1.1","","-0.8","","87","","","","19","","45","","4.8","","96.88","","","","","","Rain,Snow"
"-61.78","47.43","ILES DE LA MADELEINE A","7053250","2018-01-05 10:00","2018","01","05","10:00","1.3","","-2.6","","75","","","","21","","50","","19.3","","97.04","","","","","","Snow"
"-61.78","47.43","ILES DE LA MADELEINE A","7053250","2018-01-05 11:00","2018","01","05","11:00","1.2","","-2.8","","75","","","","21","","44","","12.9","","97.14","","","","","","Snow Showers"
"-61.78","47.43","ILES DE LA MADELEINE A","7053250","2018-01-05 12:00","2018","01","05","12:00","0.8","","-3.7","","72","","","","21","","47","","19.3","","97.25","","","","","","Snow Showers"
"-61.78","47.43","ILES DE LA MADELEINE A","7053250","2018-01-05 13:00","2018","01","05","13:00","0.5","","-4.6","","69","","","","22","","59","","19.3","","97.33","","","","","","Snow Showers"
"-61.78","47.43","ILES DE LA MADELEINE A","7053250","2018-01-05 14:00","2018","01","05","14:00","-0.2","","-4.8","","72","","","","22","","53","","19.3","","97.47","","","","-9","","Snow Showers"
"-61.78","47.43","ILES DE LA MADELEINE A","7053250","2018-01-05 15:00","2018","01","05","15:00","-0.9","","-6.3","","67","","","","22","","49","","24.1","","97.64","","","","-9","","Snow Showers"
"-61.78","47.43","ILES DE LA MADELEINE A","7053250","2018-01-05 16:00","2018","01","05","16:00","-1.4","","-6.9","","66","","","","22","","52","","24.1","","97.72","","","","-10","","Snow Showers"
"-61.78","47.43","ILES DE LA MADELEINE A","7053250","2018-01-05 17:00","2018","01","05","17:00","-2.1","","-7.9","","65","","","","22","","44","","24.1","","97.82","","","","-11","","Snow Showers"
"-61.78","47.43","ILES DE LA MADELEINE A","7053250","2018-01-05 18:00","2018","01","05","18:00","-2.3","","-7.9","","66","","","","23","","46","","24.1","","97.92","","","","-11","","NA"
"-61.78","47.43","ILES DE LA MADELEINE A","7053250","2018-01-05 19:00","2018","01","05","19:00","-2.5","","-7.6","","68","","","","22","","45","","24.1","","97.97","","","","-11","","NA"
"-61.78","47.43","ILES DE LA MADELEINE A","7053250","2018-01-05 20:00","2018","01","05","20:00","-3.3","","-7.0","","76","","","","24","","31","","24.1","","98.04","","","","-11","","Snow Showers"
"-61.78","47.43","ILES DE LA MADELEINE A","7053250","2018-01-05 21:00","2018","01","05","21:00","-4.2","","-7.5","","78","","","","24","","35","","24.1","","98.07","","","","-13","","Snow Showers"
"-61.78","47.43","ILES DE LA MADELEINE A","7053250","2018-01-05 22:00","2018","01","05","22:00","-5.0","","-9.3","","72","","","","24","","35","","24.1","","98.10","","","","-14","","Snow Showers"
"-61.78","47.43","ILES DE LA MADELEINE A","7053250","2018-01-05 23:00","2018","01","05","23:00","-6.3","","-9.9","","76","","","","24","","41","","24.1","","98.18","","","","-16","","Snow Showers"
"-61.78","47.43","ILES DE LA MADELEINE A","7053250","2018-01-06 00:00","2018","01","06","00:00"
"-61.78","47.43","ILES DE LA MADELEINE A","7053250","2018-01-06 01:00","2018","01","06","01:00"
"-61.78","47.43","ILES DE LA MADELEINE A","7053250","2018-01-06 02:00","2018","01","06","02:00"
"-61.78","47.43","ILES DE LA MADELEINE A","7053250","2018-01-06 03:00","2018","01","06","03:00"
"-61.78","47.43","ILES DE LA MADELEINE A","7053250","2018-01-06 04:00","2018","01","06","04:00"
"-61.78","47.43","ILES DE LA MADELEINE A","7053250","2018-01-06 05:00","2018","01","06","05:00"
"-61.78","47.43","ILES DE LA MADELEINE A","7053250","2018-01-06 06:00","2018","01","06","06:00","-13.7","","-17.4","","74","","","","24","","48","","3.2","","98.55","","","","-27","","Snow Showers,Blowing Snow"
"-61.78","47.43","ILES DE LA MADELEINE A","7053250","2018-01-06 07:00","2018","01","06","07:00","-14.1","","-18.1","","72","","","","24","","48","","4.8","","98.64","","","","-27","","Snow Showers,Blowing Snow"
"-61.78","47.43","ILES DE LA MADELEINE A","7053250","2018-01-06 08:00","2018","01","06","08:00","-14.6","","-17.3","","80","","","","24","","50","","1.6","","98.68","","","","-28","","Snow Showers,Blowing Snow"
"-61.78","47.43","ILES DE LA MADELEINE A","7053250","2018-01-06 09:00","2018","01","06","09:00","-15.1","","-17.6","","81","","","","25","","54","","1.6","","98.75","","","","-29","","Snow Showers,Blowing Snow"
"-61.78","47.43","ILES DE LA MADELEINE A","7053250","2018-01-06 10:00","2018","01","06","10:00","-15.2","","-19.1","","72","","","","25","","49","","2.0","","98.81","","","","-29","","Snow Showers,Blowing Snow"
"-61.78","47.43","ILES DE LA MADELEINE A","7053250","2018-01-06 11:00","2018","01","06","11:00"
"-61.78","47.43","ILES DE LA MADELEINE A","7053250","2018-01-06 12:00","2018","01","06","12:00","-14.9","","-18.4","","75","","","","25","","52","","1.6","","98.87","","","","-29","","Snow Showers,Blowing Snow"
"-61.78","47.43","ILES DE LA MADELEINE A","7053250","2018-01-06 13:00","2018","01","06","13:00","-14.7","","-17.3","","81","","","","24","","53","","1.2","","98.90","","","","-28","","Snow Showers,Blowing Snow"
"-61.78","47.43","ILES DE LA MADELEINE A","7053250","2018-01-06 14:00","2018","01","06","14:00","-14.4","","-17.2","","80","","","","24","","44","","1.2","","98.93","","","","-27","","Snow Showers,Blowing Snow"
"-61.78","47.43","ILES DE LA MADELEINE A","7053250","2018-01-06 15:00","2018","01","06","15:00","-14.2","","-17.2","","78","","","","25","","52","","2.4","","99.05","","","","-28","","Snow Showers,Blowing Snow"
"-61.78","47.43","ILES DE LA MADELEINE A","7053250","2018-01-06 16:00","2018","01","06","16:00","-13.9","","-16.8","","79","","","","26","","49","","1.6","","99.17","","","","-27","","Snow Showers,Blowing Snow"
"-61.78","47.43","ILES DE LA MADELEINE A","7053250","2018-01-06 17:00","2018","01","06","17:00","-13.4","","-15.9","","82","","","","25","","50","","1.2","","99.28","","","","-26","","Snow Showers,Blowing Snow"
"-61.78","47.43","ILES DE LA MADELEINE A","7053250","2018-01-06 18:00","2018","01","06","18:00","-12.9","","-16.3","","76","","","","26","","45","","2.4","","99.40","","","","-25","","Snow Showers,Blowing Snow"
"-61.78","47.43","ILES DE LA MADELEINE A","7053250","2018-01-06 19:00","2018","01","06","19:00","-12.4","","-15.4","","78","","","","26","","48","","2.4","","99.47","","","","-25","","Snow Showers,Blowing Snow"
"-61.78","47.43","ILES DE LA MADELEINE A","7053250","2018-01-06 20:00","2018","01","06","20:00","-11.9","","-14.5","","81","","","","26","","48","","2.4","","99.53","","","","-24","","Snow Showers,Blowing Snow"
"-61.78","47.43","ILES DE LA MADELEINE A","7053250","2018-01-06 21:00","2018","01","06","21:00","-11.5","","-13.5","","85","","","","25","","43","","1.6","","99.59","","","","-23","","Snow Showers,Blowing Snow"
"-61.78","47.43","ILES DE LA MADELEINE A","7053250","2018-01-06 22:00","2018","01","06","22:00","-11.1","","-13.2","","85","","","","25","","44","","3.2","","99.66","","","","-23","","Snow Showers,Blowing Snow"
"-61.78","47.43","ILES DE LA MADELEINE A","7053250","2018-01-06 23:00","2018","01","06","23:00","-10.7","","-13.5","","80","","","","26","","37","","3.2","","99.71","","","","-21","","Snow Showers,Blowing Snow"
"-61.78","47.43","ILES DE LA MADELEINE A","7053250","2018-01-07 00:00","2018","01","07","00:00"
"-61.78","47.43","ILES DE LA MADELEINE A","7053250","2018-01-07 01:00","2018","01","07","01:00"
"-61.78","47.43","ILES DE LA MADELEINE A","7053250","2018-01-07 02:00","2018","01","07","02:00"
"-61.78","47.43","ILES DE LA MADELEINE A","7053250","2018-01-07 03:00","2018","01","07","03:00"
"-61.78","47.43","ILES DE LA MADELEINE A","7053250","2018-01-07 04:00","2018","01","07","04:00"
"-61.78","47.43","ILES DE LA MADELEINE A","7053250","2018-01-07 05:00","2018","01","07","05:00"
"-61.78","47.43","ILES DE LA MADELEINE A","7053250","2018-01-07 06:00","2018","01","07","06:00","-11.7","","-15.0","","77","","","","28","","34","","6.4","","100.29","","","","-22","","Snow Showers,Blowing Snow"
"-61.78","47.43","ILES DE LA MADELEINE A","7053250","2018-01-07 07:00","2018","01","07","07:00","-12.2","","-14.6","","82","","","","26","","35","","6.4","","100.39","","","","-23","","Snow Showers,Blowing Snow"
"-61.78","47.43","ILES DE LA MADELEINE A","7053250","2018-01-07 08:00","2018","01","07","08:00","-12.4","","-14.8","","82","","","","26","","32","","4.0","","100.42","","","","-23","","Snow Showers,Blowing Snow"
"-61.78","47.43","ILES DE LA MADELEINE A","7053250","2018-01-07 09:00","2018","01","07","09:00","-12.6","","-14.6","","85","","","","26","","34","","2.8","","100.47","","","","-23","","Snow Showers,Blowing Snow"
"-61.78","47.43","ILES DE LA MADELEINE A","7053250","2018-01-07 10:00","2018","01","07","10:00","-12.3","","-14.8","","82","","","","27","","39","","2.4","","100.52","","","","-24","","Snow Showers,Blowing Snow"
"-61.78","47.43","ILES DE LA MADELEINE A","7053250","2018-01-07 11:00","2018","01","07","11:00","-12.5","","-15.7","","77","","","","30","","32","","3.2","","100.59","","","","-23","","Snow Showers,Blowing Snow"
"-61.78","47.43","ILES DE LA MADELEINE A","7053250","2018-01-07 12:00","2018","01","07","12:00","-12.7","","-15.1","","82","","","","29","","39","","1.6","","100.63","","","","-24","","Snow Showers,Blowing Snow"
"-61.78","47.43","ILES DE LA MADELEINE A","7053250","2018-01-07 13:00","2018","01","07","13:00","-12.3","","-15.7","","76","","","","29","","36","","2.8","","100.66","","","","-23","","Snow Showers,Blowing Snow"
"-61.78","47.43","ILES DE LA MADELEINE A","7053250","2018-01-07 14:00","2018","01","07","14:00","-12.2","","-15.1","","79","","","","29","","43","","1.6","","100.71","","","","-24","","Snow Showers,Blowing Snow"
"-61.78","47.43","ILES DE LA MADELEINE A","7053250","2018-01-07 15:00","2018","01","07","15:00","-11.8","","-14.4","","81","","","","29","","41","","1.6","","100.83","","","","-23","","Snow Showers,Blowing Snow"
"-61.78","47.43","ILES DE LA MADELEINE A","7053250","2018-01-07 16:00","2018","01","07","16:00","-11.3","","-14.7","","76","","","","29","","41","","1.6","","100.91","","","","-23","","Snow Showers,Blowing Snow"
"-61.78","47.43","ILES DE LA MADELEINE A","7053250","2018-01-07 17:00","2018","01","07","17:00","-11.1","","-13.0","","86","","","","28","","46","","0.8","","101.01","","","","-23","","Snow Showers,Blowing Snow"
"-61.78","47.43","ILES DE LA MADELEINE A","7053250","2018-01-07 18:00","2018","01","07","18:00","-10.7","","-14.2","","76","","","","29","","53","","2.4","","101.10","","","","-23","","Snow Showers,Blowing Snow"
"-61.78","47.43","ILES DE LA MADELEINE A","7053250","2018-01-07 19:00","2018","01","07","19:00","-10.2","","-13.4","","78","","","","29","","50","","1.6","","101.16","","","","-22","","Snow Showers,Blowing Snow"
"-61.78","47.43","ILES DE LA MADELEINE A","7053250","2018-01-07 20:00","2018","01","07","20:00","-10.1","","-13.2","","79","","","","29","","46","","4.8","","101.26","","","","-22","","Snow Showers,Blowing Snow"
"-61.78","47.43","ILES DE LA MADELEINE A","7053250","2018-01-07 21:00","2018","01","07","21:00","-9.9","","-14.2","","71","","","","28","","42","","24.1","","101.30","","","","-21","","Snow Showers,Blowing Snow"
"-61.78","47.43","ILES DE LA MADELEINE A","7053250","2018-01-07 22:00","2018","01","07","22:00","-9.5","","-13.6","","72","","","","29","","42","","24.1","","101.31","","","","-20","","Snow Showers,Blowing Snow"
"-61.78","47.43","ILES DE LA MADELEINE A","7053250","2018-01-07 23:00","2018","01","07","23:00","-9.6","","-13.1","","76","","","","28","","46","","24.1","","101.40","","","","-21","","Snow Showers,Blowing Snow"
"-61.78","47.43","ILES DE LA MADELEINE A","7053250","2018-01-08 00:00","2018","01","08","00:00"
"-61.78","47.43","ILES DE LA MADELEINE A","7053250","2018-01-08 01:00","2018","01","08","01:00"
"-61.78","47.43","ILES DE LA MADELEINE A","7053250","2018-01-08 02:00","2018","01","08","02:00"
"-61.78","47.43","ILES DE LA MADELEINE A","7053250","2018-01-08 03:00","2018","01","08","03:00"
"-61.78","47.43","ILES DE LA MADELEINE A","7053250","2018-01-08 04:00","2018","01","08","04:00"
"-61.78","47.43","ILES DE LA MADELEINE A","7053250","2018-01-08 05:00","2018","01","08","05:00"
"-61.78","47.43","ILES DE LA MADELEINE A","7053250","2018-01-08 06:00","2018","01","08","06:00","-9.8","","-12.5","","81","","","","25","","28","","11.3","","101.47","","","","-19","","Snow Showers,Blowing Snow"
"-61.78","47.43","ILES DE LA MADELEINE A","7053250","2018-01-08 07:00","2018","01","08","07:00","-9.7","","-12.4","","81","","","","27","","32","","9.7","","101.45","","","","-19","","Snow Showers,Blowing Snow"
"-61.78","47.43","ILES DE LA MADELEINE A","7053250","2018-01-08 08:00","2018","01","08","08:00","-9.6","","-12.0","","83","","","","27","","27","","4.0","","101.47","","","","-19","","Snow Showers,Blowing Snow"
"-61.78","47.43","ILES DE LA MADELEINE A","7053250","2018-01-08 09:00","2018","01","08","09:00","-9.5","","-13.9","","70","","","","27","","29","","12.9","","101.52","","","","-19","","Snow Showers,Blowing Snow"
"-61.78","47.43","ILES DE LA MADELEINE A","7053250","2018-01-08 10:00","2018","01","08","10:00","-9.4","","-12.8","","77","","","","27","","26","","6.4","","101.55","","","","-18","","Snow Showers,Blowing Snow"
"-61.78","47.43","ILES DE LA MADELEINE A","7053250","2018-01-08 11:00","2018","01","08","11:00","-8.7","","-11.8","","78","","","","28","","25","","8.1","","101.56","","","","-17","","Snow Showers,Blowing Snow"
"-61.78","47.43","ILES DE LA MADELEINE A","7053250","2018-01-08 12:00","2018","01","08","12:00","-8.2","","-12.2","","73","","","","28","","25","","6.4","","101.53","","","","-16","","Snow Showers,Blowing Snow"
"-61.78","47.43","ILES DE LA MADELEINE A","7053250","2018-01-08 13:00","2018","01","08","13:00","-8.4","","-12.6","","72","","","","28","","25","","9.7","","101.51","","","","-17","","Snow Showers,Blowing Snow"
"-61.78","47.43","ILES DE LA MADELEINE A","7053250","2018-01-08 14:00","2018","01","08","14:00","-8.4","","-12.1","","75","","","","28","","26","","11.3","","101.51","","","","-17","","Snow Showers,Blowing Snow"
"-61.78","47.43","ILES DE LA MADELEINE A","7053250","2018-01-08 15:00","2018","01","08","15:00","-8.4","","-12.2","","75","","","","27","","27","","8.1","","101.60","","","","-17","","Snow Showers,Blowing Snow"
"-61.78","47.43","ILES DE LA MADELEINE A","7053250","2018-01-08 16:00","2018","01","08","16:00","-8.6","","-12.4","","74","","","","28","","20","","9.7","","101.66","","","","-16","","Snow Showers,Blowing Snow"
"-61.78","47.43","ILES DE LA MADELEINE A","7053250","2018-01-08 17:00","2018","01","08","17:00","-8.6","","-12.2","","76","","","","27","","25","","12.9","","101.70","","","","-17","","Snow Showers,Blowing Snow"
"-61.78","47.43","ILES DE LA MADELEINE A","7053250","2018-01-08 18:00","2018","01","08","18:00","-8.7","","-12.1","","77","","","","28","","21","","24.1","","101.70","","","","-16","","Snow Showers,Blowing Snow"
"-61.78","47.43","ILES DE LA MADELEINE A","7053250","2018-01-08 19:00","2018","01","08","19:00","-8.6","","-11.7","","78","","","","27","","17","","24.1","","101.73","","","","-15","","Snow Showers"
"-61.78","47.43","ILES DE LA MADELEINE A","7053250","2018-01-08 20:00","2018","01","08","20:00","-8.6","","-12.0","","77","","","","24","","14","","24.1","","101.72","","","","-15","","Snow Showers"
"-61.78","47.43","ILES DE LA MADELEINE A","7053250","2018-01-08 21:00","2018","01","08","21:00","-8.5","","-11.9","","77","","","","19","","5","","24.1","","101.61","","","","-11","","NA"
"-61.78","47.43","ILES DE LA MADELEINE A","7053250","2018-01-08 22:00","2018","01","08","22:00","-8.0","","-11.6","","76","","","","19","","15","","24.1","","101.54","","","","-14","","NA"
"-61.78","47.43","ILES DE LA MADELEINE A","7053250","2018-01-08 23:00","2018","01","08","23:00","-7.9","","-9.6","","88","","","","19","","18","","1.6","","101.48","","","","-15","","Snow"
"-61.78","47.43","ILES DE LA MADELEINE A","7053250","2018-01-09 00:00","2018","01","09","00:00"
"-61.78","47.43","ILES DE LA MADELEINE A","7053250","2018-01-09 01:00","2018","01","09","01:00"
"-61.78","47.43","ILES DE LA MADELEINE A","7053250","2018-01-09 02:00","2018","01","09","02:00"
"-61.78","47.43","ILES DE LA MADELEINE A","7053250","2018-01-09 03:00","2018","01","09","03:00"
"-61.78","47.43","ILES DE LA MADELEINE A","7053250","2018-01-09 04:00","2018","01","09","04:00"
"-61.78","47.43","ILES DE LA MADELEINE A","7053250","2018-01-09 05:00","2018","01","09","05:00"
"-61.78","47.43","ILES DE LA MADELEINE A","7053250","2018-01-09 06:00","2018","01","09","06:00","-4.0","","-4.7","","95","","","","14","","16","","4.8","","100.42","","","","-10","","Snow"
"-61.78","47.43","ILES DE LA MADELEINE A","7053250","2018-01-09 07:00","2018","01","09","07:00","-2.6","","-3.3","","95","","","","24","","10","","14.5","","100.36","","","","-6","","Snow"
"-61.78","47.43","ILES DE LA MADELEINE A","7053250","2018-01-09 08:00","2018","01","09","08:00","-3.0","","-4.3","","91","","","","26","","26","","32.2","","100.32","","","","-10","","Mostly Cloudy"
"-61.78","47.43","ILES DE LA MADELEINE A","7053250","2018-01-09 09:00","2018","01","09","09:00","-3.6","","-5.3","","88","","","","26","","30","","24.1","","100.33","","","","-11","","NA"
"-61.78","47.43","ILES DE LA MADELEINE A","7053250","2018-01-09 10:00","2018","01","09","10:00","-4.0","","-5.8","","88","","","","26","","32","","24.1","","100.35","","","","-12","","NA"
"-61.78","47.43","ILES DE LA MADELEINE A","7053250","2018-01-09 11:00","2018","01","09","11:00","-4.2","","-6.0","","87","","","","27","","26","","24.1","","100.31","","","","-11","","Mostly Cloudy"
"-61.78","47.43","ILES DE LA MADELEINE A","7053250","2018-01-09 12:00","2018","01","09","12:00","-3.9","","-5.8","","87","","","","27","","27","","24.1","","100.24","","","","-11","","Blowing Snow"
"-61.78","47.43","ILES DE LA MADELEINE A","7053250","2018-01-09 13:00","2018","01","09","13:00","-4.2","","-5.9","","88","","","","27","","26","","32.2","","100.14","","","","-11","","Blowing Snow"
"-61.78","47.43","ILES DE LA MADELEINE A","7053250","2018-01-09 14:00","2018","01","09","14:00","-4.1","","-5.7","","88","","","","26","","24","","32.2","","100.11","","","","-11","","Blowing Snow"
"-61.78","47.43","ILES DE LA MADELEINE A","7053250","2018-01-09 15:00","2018","01","09","15:00","-4.2","","-6.2","","86","","","","28","","28","","32.2","","100.10","","","","-12","","Blowing Snow"
"-61.78","47.43","ILES DE LA MADELEINE A","7053250","2018-01-09 16:00","2018","01","09","16:00","-4.4","","-6.6","","85","","","","28","","26","","19.3","","100.13","","","","-12","","Blowing Snow"
"-61.78","47.43","ILES DE LA MADELEINE A","7053250","2018-01-09 17:00","2018","01","09","17:00","-4.6","","-6.8","","85","","","","29","","25","","24.1","","100.16","","","","-12","","Snow,Blowing Snow"
"-61.78","47.43","ILES DE LA MADELEINE A","7053250","2018-01-09 18:00","2018","01","09","18:00","-4.6","","-7.2","","82","","","","29","","32","","24.1","","100.18","","","","-13","","Snow,Blowing Snow"
"-61.78","47.43","ILES DE LA MADELEINE A","7053250","2018-01-09 19:00","2018","01","09","19:00","-5.1","","-7.7","","82","","","","29","","35","","24.1","","100.24","","","","-14","","Snow,Blowing Snow"
"-61.78","47.43","ILES DE LA MADELEINE A","7053250","2018-01-09 20:00","2018","01","09","20:00","-5.5","","-8.1","","82","","","","30","","29","","24.1","","100.28","","","","-14","","Snow,Blowing Snow"
"-61.78","47.43","ILES DE LA MADELEINE A","7053250","2018-01-09 21:00","2018","01","09","21:00","-4.9","","-8.0","","79","","","","31","","37","","12.9","","100.32","","","","-14","","Snow,Blowing Snow"
"-61.78","47.43","ILES DE LA MADELEINE A","7053250","2018-01-09 22:00","2018","01","09","22:00","-5.2","","-6.7","","89","","","","30","","40","","1.6","","100.39","","","","-14","","Snow,Blowing Snow"
"-61.78","47.43","ILES DE LA MADELEINE A","7053250","2018-01-09 23:00","2018","01","09","23:00","-5.5","","-7.2","","88","","","","30","","39","","4.0","","100.51","","","","-15","","Snow,Blowing Snow"
"-61.78","47.43","ILES DE LA MADELEINE A","7053250","2018-01-10 00:00","2018","01","10","00:00"
"-61.78","47.43","ILES DE LA MADELEINE A","7053250","2018-01-10 01:00","2018","01","10","01:00"
"-61.78","47.43","ILES DE LA MADELEINE A","7053250","2018-01-10 02:00","2018","01","10","02:00"
"-61.78","47.43","ILES DE LA MADELEINE A","7053250","2018-01-10 03:00","2018","01","10","03:00"
"-61.78","47.43","ILES DE LA MADELEINE A","7053250","2018-01-10 04:00","2018","01","10","04:00"
"-61.78","47.43","ILES DE LA MADELEINE A","7053250","2018-01-10 05:00","2018","01","10","05:00"
"-61.78","47.43","ILES DE LA MADELEINE A","7053250","2018-01-10 06:00","2018","01","10","06:00","-6.9","","-9.6","","81","","","","30","","52","","2.4","","101.03","","","","-18","","Snow,Blowing Snow"
"-61.78","47.43","ILES DE LA MADELEINE A","7053250","2018-01-10 07:00","2018","01","10","07:00","-7.0","","-8.9","","86","","","","30","","53","","1.6","","101.11","","","","-18","","Snow,Blowing Snow"
"-61.78","47.43","ILES DE LA MADELEINE A","7053250","2018-01-10 08:00","2018","01","10","08:00","-7.3","","-10.4","","79","","","","30","","59","","1.6","","101.23","","","","-19","","Snow,Blowing Snow"
"-61.78","47.43","ILES DE LA MADELEINE A","7053250","2018-01-10 09:00","2018","01","10","09:00","-7.2","","-9.3","","85","","","","31","","49","","1.2","","101.40","","","","-18","","Snow,Blowing Snow"
"-61.78","47.43","ILES DE LA MADELEINE A","7053250","2018-01-10 10:00","2018","01","10","10:00","-7.2","","-11.2","","73","","","","33","","64","","2.4","","101.51","","","","-19","","Snow,Blowing Snow"
"-61.78","47.43","ILES DE LA MADELEINE A","7053250","2018-01-10 11:00","2018","01","10","11:00","-7.0","","-10.8","","75","","","","31","","54","","3.2","","101.63","","","","-18","","Snow,Blowing Snow"
"-61.78","47.43","ILES DE LA MADELEINE A","7053250","2018-01-10 12:00","2018","01","10","12:00","-7.1","","-11.3","","72","","","","31","","50","","4.8","","101.68","","","","-18","","Snow,Blowing Snow"
"-61.78","47.43","ILES DE LA MADELEINE A","7053250","2018-01-10 13:00","2018","01","10","13:00","-7.3","","-11.0","","75","","","","32","","52","","4.8","","101.73","","","","-18","","Snow,Blowing Snow"
"-61.78","47.43","ILES DE LA MADELEINE A","7053250","2018-01-10 14:00","2018","01","10","14:00","-7.4","","-11.2","","75","","","","32","","55","","4.8","","101.89","","","","-19","","Snow Showers,Blowing Snow"
"-61.78","47.43","ILES DE LA MADELEINE A","7053250","2018-01-10 15:00","2018","01","10","15:00","-7.4","","-9.3","","86","","","","32","","50","","1.6","","102.03","","","","-18","","Snow Showers,Blowing Snow"
"-61.78","47.43","ILES DE LA MADELEINE A","7053250","2018-01-10 16:00","2018","01","10","16:00","-7.1","","-12.5","","66","","","","32","","49","","8.1","","102.21","","","","-18","","Snow Showers,Blowing Snow"
"-61.78","47.43","ILES DE LA MADELEINE A","7053250","2018-01-10 17:00","2018","01","10","17:00","-7.0","","-11.7","","69","","","","31","","39","","24.1","","102.32","","","","-17","","Blowing Snow"
"-61.78","47.43","ILES DE LA MADELEINE A","7053250","2018-01-10 18:00","2018","01","10","18:00","-6.8","","-11.5","","69","","","","31","","34","","24.1","","102.42","","","","-16","","Snow Showers,Blowing Snow"
"-61.78","47.43","ILES DE LA MADELEINE A","7053250","2018-01-10 19:00","2018","01","10","19:00","-6.6","","-11.6","","68","","","","31","","31","","24.1","","102.55","","","","-15","","Snow Showers,Blowing Snow"
"-61.78","47.43","ILES DE LA MADELEINE A","7053250","2018-01-10 20:00","2018","01","10","20:00","-6.8","","-12.0","","66","","","","32","","36","","24.1","","102.59","","","","-16","","Mostly Cloudy"
"-61.78","47.43","ILES DE LA MADELEINE A","7053250","2018-01-10 21:00","2018","01","10","21:00","-6.5","","-11.2","","69","","","","31","","22","","24.1","","102.65","","","","-14","","NA"
"-61.78","47.43","ILES DE LA MADELEINE A","7053250","2018-01-10 22:00","2018","01","10","22:00","-6.9","","-11.4","","71","","","","30","","17","","24.1","","102.61","","","","-13","","NA"
"-61.78","47.43","ILES DE LA MADELEINE A","7053250","2018-01-10 23:00","2018","01","10","23:00","-7.1","","-11.4","","72","","","","31","","13","","24.1","","102.60","","","","-13","","Mostly Cloudy"
"-61.78","47.43","ILES DE LA MADELEINE A","7053250","2018-01-11 00:00","2018","01","11","00:00"
"-61.78","47.43","ILES DE LA MADELEINE A","7053250","2018-01-11 01:00","2018","01","11","01:00"
"-61.78","47.43","ILES DE LA MADELEINE A","7053250","2018-01-11 02:00","2018","01","11","02:00"
"-61.78","47.43","ILES DE LA MADELEINE A","7053250","2018-01-11 03:00","2018","01","11","03:00"
"-61.78","47.43","ILES DE LA MADELEINE A","7053250","2018-01-11 04:00","2018","01","11","04:00"
"-61.78","47.43","ILES DE LA MADELEINE A","7053250","2018-01-11 05:00","2018","01","11","05:00"
"-61.78","47.43","ILES DE LA MADELEINE A","7053250","2018-01-11 06:00","2018","01","11","06:00","-3.6","","-7.6","","74","","","","19","","28","","24.1","","102.36","","","","-11","","NA"
"-61.78","47.43","ILES DE LA MADELEINE A","7053250","2018-01-11 07:00","2018","01","11","07:00","-2.9","","-6.7","","75","","","","18","","27","","24.1","","102.25","","","","-10","","NA"
"-61.78","47.43","ILES DE LA MADELEINE A","7053250","2018-01-11 08:00","2018","01","11","08:00","-1.8","","-4.7","","81","","","","20","","29","","32.2","","102.15","","","","-9","","Cloudy"
"-61.78","47.43","ILES DE LA MADELEINE A","7053250","2018-01-11 09:00","2018","01","11","09:00","-1.2","","-2.6","","90","","","","20","","35","","8.1","","102.04","","","","-9","","Snow,Blowing Snow"
"-61.78","47.43","ILES DE LA MADELEINE A","7053250","2018-01-11 10:00","2018","01","11","10:00","-0.8","","-1.8","","93","","","","20","","27","","3.2","","102.00","","","","-7","","Snow,Blowing Snow"
"-61.78","47.43","ILES DE LA MADELEINE A","7053250","2018-01-11 11:00","2018","01","11","11:00","-0.2","","-1.3","","92","","","","20","","32","","24.1","","101.90","","","","-7","","Freezing Drizzle"
"-61.78","47.43","ILES DE LA MADELEINE A","7053250","2018-01-11 12:00","2018","01","11","12:00","0.2","","-0.9","","92","","","","21","","32","","8.1","","101.80","","","","","","Rain,Fog"
"-61.78","47.43","ILES DE LA MADELEINE A","7053250","2018-01-11 13:00","2018","01","11","13:00","1.2","","0.0","","92","","","","23","","28","","24.1","","101.72","","","","","","NA"
"-61.78","47.43","ILES DE LA MADELEINE A","7053250","2018-01-11 14:00","2018","01","11","14:00","1.8","","0.6","","92","","","","23","","27","","24.1","","101.74","","","","","","Cloudy"
"-61.78","47.43","ILES DE LA MADELEINE A","7053250","2018-01-11 15:00","2018","01","11","15:00","2.1","","0.8","","91","","","","24","","27","","24.1","","101.77","","","","","","NA"
"-61.78","47.43","ILES DE LA MADELEINE A","7053250","2018-01-11 16:00","2018","01","11","16:00","2.4","","1.0","","90","","","","23","","23","","24.1","","101.78","","","","","","NA"
"-61.78","47.43","ILES DE LA MADELEINE A","7053250","2018-01-11 17:00","2018","01","11","17:00","2.1","","0.8","","91","","","","23","","21","","24.1","","101.76","","","","","","Cloudy"
"-61.78","47.43","ILES DE LA MADELEINE A","7053250","2018-01-11 18:00","2018","01","11","18:00","2.4","","1.1","","91","","","","22","","32","","24.1","","101.79","","","","","","NA"
"-61.78","47.43","ILES DE LA MADELEINE A","7053250","2018-01-11 19:00","2018","01","11","19:00","2.4","","1.5","","94","","","","22","","26","","24.1","","101.78","","","","","","Rain"
"-61.78","47.43","ILES DE LA MADELEINE A","7053250","2018-01-11 20:00","2018","01","11","20:00","3.0","","2.2","","94","","","","22","","27","","24.1","","101.74","","","","","","Cloudy"
"-61.78","47.43","ILES DE LA MADELEINE A","7053250","2018-01-11 21:00","2018","01","11","21:00","3.2","","2.5","","95","","","","22","","25","","24.1","","101.69","","","","","","NA"
"-61.78","47.43","ILES DE LA MADELEINE A","7053250","2018-01-11 22:00","2018","01","11","22:00","3.5","","2.8","","95","","","","21","","30","","24.1","","101.65","","","","","","NA"
"-61.78","47.43","ILES DE LA MADELEINE A","7053250","2018-01-11 23:00","2018","01","11","23:00","3.7","","3.0","","95","","","","22","","39","","24.1","","101.60","","","","","","Cloudy"
"-61.78","47.43","ILES DE LA MADELEINE A","7053250","2018-01-12 00:00","2018","01","12","00:00"
"-61.78","47.43","ILES DE LA MADELEINE A","7053250","2018-01-12 01:00","2018","01","12","01:00"
"-61.78","47.43","ILES DE LA MADELEINE A","7053250","2018-01-12 02:00","2018","01","12","02:00"
"-61.78","47.43","ILES DE LA MADELEINE A","7053250","2018-01-12 03:00","2018","01","12","03:00"
"-61.78","47.43","ILES DE LA MADELEINE A","7053250","2018-01-12 04:00","2018","01","12","04:00"
"-61.78","47.43","ILES DE LA MADELEINE A","7053250","2018-01-12 05:00","2018","01","12","05:00"
"-61.78","47.43","ILES DE LA MADELEINE A","7053250","2018-01-12 06:00","2018","01","12","06:00","5.3","","4.3","","93","","","","23","","32","","24.1","","101.51","","","","","","NA"
"-61.78","47.43","ILES DE LA MADELEINE A","7053250","2018-01-12 07:00","2018","01","12","07:00","5.2","","3.8","","91","","","","22","","37","","24.1","","101.50","","","","","","NA"
"-61.78","47.43","ILES DE LA MADELEINE A","7053250","2018-01-12 08:00","2018","01","12","08:00","5.4","","4.1","","91","","","","21","","32","","24.1","","101.45","","","","","","Mostly Cloudy"
"-61.78","47.43","ILES DE LA MADELEINE A","7053250","2018-01-12 09:00","2018","01","12","09:00","5.0","","3.7","","91","","","","21","","24","","24.1","","101.44","","","","","","NA"
"-61.78","47.43","ILES DE LA MADELEINE A","7053250","2018-01-12 10:00","2018","01","12","10:00","6.0","","4.6","","91","","","","21","","33","","24.1","","101.42","","","","","","NA"
"-61.78","47.43","ILES DE LA MADELEINE A","7053250","2018-01-12 11:00","2018","01","12","11:00","8.0","","5.6","","84","","","","22","","42","","24.1","","101.39","","","","","","Cloudy"
"-61.78","47.43","ILES DE LA MADELEINE A","7053250","2018-01-12 12:00","2018","01","12","12:00","5.7","","3.9","","88","","","","20","","27","","24.1","","101.27","","","","","","NA"
"-61.78","47.43","ILES DE LA MADELEINE A","7053250","2018-01-12 13:00","2018","01","12","13:00","7.3","","5.1","","86","","","","21","","43","","24.1","","101.18","","","","","","NA"
"-61.78","47.43","ILES DE LA MADELEINE A","7053250","2018-01-12 14:00","2018","01","12","14:00","8.2","","5.8","","85","","","","21","","33","","24.1","","101.16","","","","","","Cloudy"
"-61.78","47.43","ILES DE LA MADELEINE A","7053250","2018-01-12 15:00","2018","01","12","15:00","7.5","","5.2","","86","","","","20","","34","","24.1","","101.15","","","","","","NA"
"-61.78","47.43","ILES DE LA MADELEINE A","7053250","2018-01-12 16:00","2018","01","12","16:00","8.6","","6.2","","85","","","","20","","32","","24.1","","101.12","","","","","","NA"
"-61.78","47.43","ILES DE LA MADELEINE A","7053250","2018-01-12 17:00","2018","01","12","17:00","5.4","","4.1","","91","","","","20","","36","","24.1","","101.07","","","","","","Cloudy"
"-61.78","47.43","ILES DE LA MADELEINE A","7053250","2018-01-12 18:00","2018","01","12","18:00","6.7","","5.8","","94","","","","20","","41","","24.1","","100.98","","","","","","Rain"
"-61.78","47.43","ILES DE LA MADELEINE A","7053250","2018-01-12 19:00","2018","01","12","19:00","7.2","","6.7","","96","","","","19","","32","","24.1","","100.92","","","","","","Rain"
"-61.78","47.43","ILES DE LA MADELEINE A","7053250","2018-01-12 20:00","2018","01","12","20:00","7.5","","6.9","","96","","","","20","","46","","24.1","","100.84","","","","","","Cloudy"
"-61.78","47.43","ILES DE LA MADELEINE A","7053250","2018-01-12 21:00","2018","01","12","21:00","7.3","","7.0","","98","","","","20","","39","","3.2","","100.84","","","","","","Fog"
"-61.78","47.43","ILES DE LA MADELEINE A","7053250","2018-01-12 22:00","2018","01","12","22:00","7.2","","6.9","","98","","","","20","","33","","3.2","","100.77","","","","","","Fog"
"-61.78","47.43","ILES DE LA MADELEINE A","7053250","2018-01-12 23:00","2018","01","12","23:00","6.8","","6.5","","98","","","","19","","31","","4.8","","100.72","","","","","","Fog"
"-61.78","47.43","ILES DE LA MADELEINE A","7053250","2018-01-13 00:00","2018","01","13","00:00"
"-61.78","47.43","ILES DE LA MADELEINE A","7053250","2018-01-13 01:00","2018","01","13","01:00"
"-61.78","47.43","ILES DE LA MADELEINE A","7053250","2018-01-13 02:00","2018","01","13","02:00"
"-61.78","47.43","ILES DE LA MADELEINE A","7053250","2018-01-13 03:00","2018","01","13","03:00"
"-61.78","47.43","ILES DE LA MADELEINE A","7053250","2018-01-13 04:00","2018","01","13","04:00"
"-61.78","47.43","ILES DE LA MADELEINE A","7053250","2018-01-13 05:00","2018","01","13","05:00"
"-61.78","47.43","ILES DE LA MADELEINE A","7053250","2018-01-13 06:00","2018","01","13","06:00","7.0","","6.8","","99","","","","19","","44","","2.4","","100.24","","","","","","Rain,Fog"
"-61.78","47.43","ILES DE LA MADELEINE A","7053250","2018-01-13 07:00","2018","01","13","07:00","7.1","","6.8","","98","","","","19","","33","","1.6","","100.19","","","","","","Moderate Rain,Fog"
"-61.78","47.43","ILES DE LA MADELEINE A","7053250","2018-01-13 08:00","2018","01","13","08:00","7.5","","7.4","","99","","","","19","","48","","1.2","","100.11","","","","","","Rain,Fog"
"-61.78","47.43","ILES DE LA MADELEINE A","7053250","2018-01-13 09:00","2018","01","13","09:00","7.7","","7.5","","99","","","","19","","43","","1.2","","100.12","","","","","","Rain,Fog"
"-61.78","47.43","ILES DE LA MADELEINE A","7053250","2018-01-13 10:00","2018","01","13","10:00","8.0","","7.9","","99","","","","19","","32","","1.2","","100.16","","","","","","Rain,Fog"
"-61.78","47.43","ILES DE LA MADELEINE A","7053250","2018-01-13 11:00","2018","01","13","11:00","6.9","","6.7","","99","","","","19","","42","","1.2","","100.05","","","","","","Rain,Fog"
"-61.78","47.43","ILES DE LA MADELEINE A","7053250","2018-01-13 12:00","2018","01","13","12:00","7.4","","7.2","","99","","","","19","","37","","1.2","","99.90","","","","","","Rain,Fog"
"-61.78","47.43","ILES DE LA MADELEINE A","7053250","2018-01-13 13:00","2018","01","13","13:00","7.9","","7.7","","99","","","","19","","49","","1.2","","99.74","","","","","","Rain,Fog"
"-61.78","47.43","ILES DE LA MADELEINE A","7053250","2018-01-13 14:00","2018","01","13","14:00","7.3","","7.1","","99","","","","22","","27","","0.4","","99.84","","","","","","Fog"
"-61.78","47.43","ILES DE LA MADELEINE A","7053250","2018-01-13 15:00","2018","01","13","15:00","6.5","","6.3","","99","","","","20","","22","","0.4","","99.81","","","","","","Fog"
"-61.78","47.43","ILES DE LA MADELEINE A","7053250","2018-01-13 16:00","2018","01","13","16:00","7.3","","7.2","","99","","","","22","","30","","4.0","","99.88","","","","","","Fog"
"-61.78","47.43","ILES DE LA MADELEINE A","7053250","2018-01-13 17:00","2018","01","13","17:00","6.7","","6.6","","99","","","","22","","22","","3.2","","99.99","","","","","","Rain,Fog"
"-61.78","47.43","ILES DE LA MADELEINE A","7053250","2018-01-13 18:00","2018","01","13","18:00","-0.1","","-0.2","","99","","","","34","","24","","1.0","","100.18","","","","-6","","Freezing Rain,Fog"
"-61.78","47.43","ILES DE LA MADELEINE A","7053250","2018-01-13 19:00","2018","01","13","19:00","-0.5","","-0.6","","99","","","","1","","16","","6.4","","100.31","","","","-5","","Freezing Rain,Fog"
"-61.78","47.43","ILES DE LA MADELEINE A","7053250","2018-01-13 20:00","2018","01","13","20:00","-0.6","","-0.8","","99","","","","34","","21","","16.1","","100.48","","","","-6","","Cloudy"
"-61.78","47.43","ILES DE LA MADELEINE A","7053250","2018-01-13 21:00","2018","01","13","21:00","-1.9","","-2.2","","98","","","","35","","38","","6.4","","100.73","","","","-10","","Freezing Drizzle,Fog"
"-61.78","47.43","ILES DE LA MADELEINE A","7053250","2018-01-13 22:00","2018","01","13","22:00","-3.5","","-4.0","","96","","","","34","","39","","8.1","","101.02","","","","-12","","Freezing Drizzle,Fog"
"-61.78","47.43","ILES DE LA MADELEINE A","7053250","2018-01-13 23:00","2018","01","13","23:00","-3.9","","-4.7","","94","","","","35","","39","","24.1","","101.21","","","","-13","","Cloudy"
"-61.78","47.43","ILES DE LA MADELEINE A","7053250","2018-01-14 00:00","2018","01","14","00:00"
"-61.78","47.43","ILES DE LA MADELEINE A","7053250","2018-01-14 01:00","2018","01","14","01:00"
"-61.78","47.43","ILES DE LA MADELEINE A","7053250","2018-01-14 02:00","2018","01","14","02:00"
"-61.78","47.43","ILES DE LA MADELEINE A","7053250","2018-01-14 03:00","2018","01","14","03:00"
"-61.78","47.43","ILES DE LA MADELEINE A","7053250","2018-01-14 04:00","2018","01","14","04:00"
"-61.78","47.43","ILES DE LA MADELEINE A","7053250","2018-01-14 05:00","2018","01","14","05:00"
"-61.78","47.43","ILES DE LA MADELEINE A","7053250","2018-01-14 06:00","2018","01","14","06:00","-6.0","","-8.6","","82","","","","33","","22","","24.1","","102.16","","","","-13","","NA"
"-61.78","47.43","ILES DE LA MADELEINE A","7053250","2018-01-14 07:00","2018","01","14","07:00","-6.1","","-8.8","","81","","","","33","","22","","24.1","","102.28","","","","-13","","NA"
"-61.78","47.43","ILES DE LA MADELEINE A","7053250","2018-01-14 08:00","2018","01","14","08:00","-6.1","","-8.5","","83","","","","35","","16","","32.2","","102.41","","","","-12","","Cloudy"
"-61.78","47.43","ILES DE LA MADELEINE A","7053250","2018-01-14 09:00","2018","01","14","09:00","-6.0","","-8.5","","83","","","","34","","23","","32.2","","102.54","","","","-13","","NA"
"-61.78","47.43","ILES DE LA MADELEINE A","7053250","2018-01-14 10:00","2018","01","14","10:00","-5.9","","-8.5","","82","","","","34","","20","","32.2","","102.66","","","","-13","","Snow"
"-61.78","47.43","ILES DE LA MADELEINE A","7053250","2018-01-14 11:00","2018","01","14","11:00","-5.9","","-8.4","","83","","","","34","","22","","32.2","","102.77","","","","-13","","Cloudy"
"-61.78","47.43","ILES DE LA MADELEINE A","7053250","2018-01-14 12:00","2018","01","14","12:00","-5.9","","-8.9","","79","","","","33","","20","","24.1","","102.79","","","","-13","","Snow"
"-61.78","47.43","ILES DE LA MADELEINE A","7053250","2018-01-14 13:00","2018","01","14","13:00","-6.4","","-9.4","","79","","","","35","","25","","19.3","","102.82","","","","-14","","Snow"
"-61.78","47.43","ILES DE LA MADELEINE A","7053250","2018-01-14 14:00","2018","01","14","14:00","-6.5","","-9.9","","77","","","","34","","28","","19.3","","102.87","","","","-15","","Snow,Blowing Snow"
"-61.78","47.43","ILES DE LA MADELEINE A","7053250","2018-01-14 15:00","2018","01","14","15:00","-6.3","","-9.8","","76","","","","34","","28","","24.1","","102.92","","","","-14","","Snow Showers"
"-61.78","47.43","ILES DE LA MADELEINE A","7053250","2018-01-14 16:00","2018","01","14","16:00","-6.7","","-10.1","","77","","","","35","","26","","24.1","","103.06","","","","-15","","Snow Showers"
"-61.78","47.43","ILES DE LA MADELEINE A","7053250","2018-01-14 17:00","2018","01","14","17:00","-6.7","","-9.7","","79","","","","34","","26","","9.7","","103.21","","","","-15","","Snow Showers"
"-61.78","47.43","ILES DE LA MADELEINE A","7053250","2018-01-14 18:00","2018","01","14","18:00","-6.7","","-10.3","","76","","","","34","","28","","24.1","","103.28","","","","-15","","Snow Showers"
"-61.78","47.43","ILES DE LA MADELEINE A","7053250","2018-01-14 19:00","2018","01","14","19:00","-6.8","","-11.0","","72","","","","34","","41","","24.1","","103.39","","","","-17","","Snow Showers"
"-61.78","47.43","ILES DE LA MADELEINE A","7053250","2018-01-14 20:00","2018","01","14","20:00","-7.4","","-11.4","","74","","","","33","","33","","24.1","","103.50","","","","-17","","Snow Showers,Blowing Snow"
"-61.78","47.43","ILES DE LA MADELEINE A","7053250","2018-01-14 21:00","2018","01","14","21:00","-7.8","","-12.7","","68","","","","34","","28","","16.1","","103.63","","","","-16","","Snow Showers,Blowing Snow"
"-61.78","47.43","ILES DE LA MADELEINE A","7053250","2018-01-14 22:00","2018","01","14","22:00","-7.9","","-12.6","","69","","","","35","","34","","24.1","","103.68","","","","-17","","Snow Showers,Blowing Snow"
"-61.78","47.43","ILES DE LA MADELEINE A","7053250","2018-01-14 23:00","2018","01","14","23:00","-7.8","","-12.2","","71","","","","34","","32","","24.1","","103.76","","","","-17","","Snow Showers,Blowing Snow"
"-61.78","47.43","ILES DE LA MADELEINE A","7053250","2018-01-15 00:00","2018","01","15","00:00"
"-61.78","47.43","ILES DE LA MADELEINE A","7053250","2018-01-15 01:00","2018","01","15","01:00"
"-61.78","47.43","ILES DE LA MADELEINE A","7053250","2018-01-15 02:00","2018","01","15","02:00"
"-61.78","47.43","ILES DE LA MADELEINE A","7053250","2018-01-15 03:00","2018","01","15","03:00"
"-61.78","47.43","ILES DE LA MADELEINE A","7053250","2018-01-15 04:00","2018","01","15","04:00"
"-61.78","47.43","ILES DE LA MADELEINE A","7053250","2018-01-15 05:00","2018","01","15","05:00"
"-61.78","47.43","ILES DE LA MADELEINE A","7053250","2018-01-15 06:00","2018","01","15","06:00","-8.8","","-13.0","","72","","","","1","","22","","24.1","","104.21","","","","-17","","Snow Showers"
"-61.78","47.43","ILES DE LA MADELEINE A","7053250","2018-01-15 07:00","2018","01","15","07:00","-8.8","","-12.7","","73","","","","1","","22","","24.1","","104.29","","","","-17","","Snow Showers"
"-61.78","47.43","ILES DE LA MADELEINE A","7053250","2018-01-15 08:00","2018","01","15","08:00","-9.0","","-13.7","","69","","","","1","","20","","32.2","","104.38","","","","-17","","Snow Showers"
"-61.78","47.43","ILES DE LA MADELEINE A","7053250","2018-01-15 09:00","2018","01","15","09:00","-8.9","","-12.8","","74","","","","3","","18","","32.2","","104.46","","","","-16","","Snow Showers"
"-61.78","47.43","ILES DE LA MADELEINE A","7053250","2018-01-15 10:00","2018","01","15","10:00","-8.4","","-13.1","","69","","","","2","","27","","32.2","","104.48","","","","-17","","Snow Showers"
"-61.78","47.43","ILES DE LA MADELEINE A","7053250","2018-01-15 11:00","2018","01","15","11:00","-8.2","","-12.6","","71","","","","2","","26","","24.1","","104.45","","","","-17","","Snow Showers"
"-61.78","47.43","ILES DE LA MADELEINE A","7053250","2018-01-15 12:00","2018","01","15","12:00","-8.3","","-12.9","","70","","","","3","","26","","32.2","","104.34","","","","-17","","Snow Showers"
"-61.78","47.43","ILES DE LA MADELEINE A","7053250","2018-01-15 13:00","2018","01","15","13:00","-7.8","","-12.6","","69","","","","3","","27","","24.1","","104.33","","","","-16","","Snow Showers"
"-61.78","47.43","ILES DE LA MADELEINE A","7053250","2018-01-15 14:00","2018","01","15","14:00","-7.8","","-12.3","","71","","","","4","","25","","24.1","","104.28","","","","-16","","Snow Showers"
"-61.78","47.43","ILES DE LA MADELEINE A","7053250","2018-01-15 15:00","2018","01","15","15:00","-8.2","","-12.5","","72","","","","4","","23","","16.1","","104.29","","","","-16","","Snow"
"-61.78","47.43","ILES DE LA MADELEINE A","7053250","2018-01-15 16:00","2018","01","15","16:00","-8.3","","-12.0","","75","","","","4","","25","","12.9","","104.20","","","","-17","","Snow"
"-61.78","47.43","ILES DE LA MADELEINE A","7053250","2018-01-15 17:00","2018","01","15","17:00","-8.4","","-12.1","","75","","","","5","","27","","24.1","","104.20","","","","-17","","Snow"
"-61.78","47.43","ILES DE LA MADELEINE A","7053250","2018-01-15 18:00","2018","01","15","18:00","-8.0","","-11.5","","76","","","","5","","26","","24.1","","104.13","","","","-16","","Snow,Blowing Snow"
"-61.78","47.43","ILES DE LA MADELEINE A","7053250","2018-01-15 19:00","2018","01","15","19:00","-7.7","","-11.3","","76","","","","5","","30","","24.1","","104.08","","","","-17","","Snow,Blowing Snow"
"-61.78","47.43","ILES DE LA MADELEINE A","7053250","2018-01-15 20:00","2018","01","15","20:00","-7.4","","-11.1","","75","","","","5","","24","","24.1","","104.01","","","","-15","","Snow,Blowing Snow"
"-61.78","47.43","ILES DE LA MADELEINE A","7053250","2018-01-15 21:00","2018","01","15","21:00","-7.0","","-10.3","","78","","","","5","","27","","24.1","","103.89","","","","-15","","Snow"
"-61.78","47.43","ILES DE LA MADELEINE A","7053250","2018-01-15 22:00","2018","01","15","22:00","-6.4","","-9.7","","78","","","","6","","32","","24.1","","103.78","","","","-15","","Snow"
"-61.78","47.43","ILES DE LA MADELEINE A","7053250","2018-01-15 23:00","2018","01","15","23:00","-6.0","","-9.3","","77","","","","6","","28","","24.1","","103.62","","","","-14","","Snow"
"-61.78","47.43","ILES DE LA MADELEINE A","7053250","2018-01-16 00:00","2018","01","16","00:00"
"-61.78","47.43","ILES DE LA MADELEINE A","7053250","2018-01-16 01:00","2018","01","16","01:00"
"-61.78","47.43","ILES DE LA MADELEINE A","7053250","2018-01-16 02:00","2018","01","16","02:00"
"-61.78","47.43","ILES DE LA MADELEINE A","7053250","2018-01-16 03:00","2018","01","16","03:00"
"-61.78","47.43","ILES DE LA MADELEINE A","7053250","2018-01-16 04:00","2018","01","16","04:00"
"-61.78","47.43","ILES DE LA MADELEINE A","7053250","2018-01-16 05:00","2018","01","16","05:00"
"-61.78","47.43","ILES DE LA MADELEINE A","7053250","2018-01-16 06:00","2018","01","16","06:00","-4.7","","-8.0","","78","","","","5","","22","","24.1","","102.84","","","","-12","","Snow"
"-61.78","47.43","ILES DE LA MADELEINE A","7053250","2018-01-16 07:00","2018","01","16","07:00","-4.5","","-8.0","","77","","","","5","","22","","24.1","","102.80","","","","-11","","NA"
"-61.78","47.43","ILES DE LA MADELEINE A","7053250","2018-01-16 08:00","2018","01","16","08:00","-4.4","","-8.2","","75","","","","4","","21","","32.2","","102.78","","","","-11","","Mostly Cloudy"
"-61.78","47.43","ILES DE LA MADELEINE A","7053250","2018-01-16 09:00","2018","01","16","09:00","-3.9","","-7.8","","74","","","","4","","18","","32.2","","102.76","","","","-10","","NA"
"-61.78","47.43","ILES DE LA MADELEINE A","7053250","2018-01-16 10:00","2018","01","16","10:00","-3.5","","-8.2","","70","","","","5","","21","","32.2","","102.69","","","","-10","","NA"
"-61.78","47.43","ILES DE LA MADELEINE A","7053250","2018-01-16 11:00","2018","01","16","11:00","-3.0","","-8.0","","68","","","","3","","15","","32.2","","102.70","","","","-8","","Mostly Cloudy"
"-61.78","47.43","ILES DE LA MADELEINE A","7053250","2018-01-16 12:00","2018","01","16","12:00","-3.0","","-8.0","","69","","","","36","","18","","32.2","","102.63","","","","-9","","NA"
"-61.78","47.43","ILES DE LA MADELEINE A","7053250","2018-01-16 13:00","2018","01","16","13:00","-3.1","","-8.0","","70","","","","33","","14","","32.2","","102.61","","","","-8","","NA"
"-61.78","47.43","ILES DE LA MADELEINE A","7053250","2018-01-16 14:00","2018","01","16","14:00","-3.2","","-8.3","","68","","","","1","","12","","32.2","","102.50","","","","-8","","Mostly Cloudy"
"-61.78","47.43","ILES DE LA MADELEINE A","7053250","2018-01-16 15:00","2018","01","16","15:00","-3.0","","-8.0","","69","","","","34","","12","","32.2","","102.58","","","","-7","","NA"
"-61.78","47.43","ILES DE LA MADELEINE A","7053250","2018-01-16 16:00","2018","01","16","16:00","-3.2","","-7.4","","73","","","","31","","11","","32.2","","102.67","","","","-7","","NA"
"-61.78","47.43","ILES DE LA MADELEINE A","7053250","2018-01-16 17:00","2018","01","16","17:00","-3.5","","-7.2","","75","","","","31","","15","","24.1","","102.64","","","","-9","","Mostly Cloudy"
"-61.78","47.43","ILES DE LA MADELEINE A","7053250","2018-01-16 18:00","2018","01","16","18:00","-3.6","","-6.4","","81","","","","31","","18","","24.1","","102.71","","","","-9","","NA"
"-61.78","47.43","ILES DE LA MADELEINE A","7053250","2018-01-16 19:00","2018","01","16","19:00","-4.0","","-5.9","","87","","","","32","","18","","9.7","","102.78","","","","-10","","Snow"
"-61.78","47.43","ILES DE LA MADELEINE A","7053250","2018-01-16 20:00","2018","01","16","20:00","-4.5","","-5.7","","91","","","","31","","20","","12.9","","102.83","","","","-11","","Snow"
"-61.78","47.43","ILES DE LA MADELEINE A","7053250","2018-01-16 21:00","2018","01","16","21:00","-5.1","","-7.4","","84","","","","31","","18","","16.1","","102.83","","","","-11","","Snow"
"-61.78","47.43","ILES DE LA MADELEINE A","7053250","2018-01-16 22:00","2018","01","16","22:00","-5.3","","-7.9","","82","","","","29","","20","","24.1","","102.89","","","","-12","","Snow Showers"
"-61.78","47.43","ILES DE LA MADELEINE A","7053250","2018-01-16 23:00","2018","01","16","23:00","-5.8","","-7.9","","85","","","","29","","18","","24.1","","102.90","","","","-12","","Snow Showers"
"-61.78","47.43","ILES DE LA MADELEINE A","7053250","2018-01-17 00:00","2018","01","17","00:00"
"-61.78","47.43","ILES DE LA MADELEINE A","7053250","2018-01-17 01:00","2018","01","17","01:00"
"-61.78","47.43","ILES DE LA MADELEINE A","7053250","2018-01-17 02:00","2018","01","17","02:00"
"-61.78","47.43","ILES DE LA MADELEINE A","7053250","2018-01-17 03:00","2018","01","17","03:00"
"-61.78","47.43","ILES DE LA MADELEINE A","7053250","2018-01-17 04:00","2018","01","17","04:00"
"-61.78","47.43","ILES DE LA MADELEINE A","7053250","2018-01-17 05:00","2018","01","17","05:00"
"-61.78","47.43","ILES DE LA MADELEINE A","7053250","2018-01-17 06:00","2018","01","17","06:00","-6.2","","-9.2","","79","","","","25","","22","","24.1","","102.92","","","","-13","","Snow Showers"
"-61.78","47.43","ILES DE LA MADELEINE A","7053250","2018-01-17 07:00","2018","01","17","07:00","-6.1","","-9.0","","80","","","","25","","19","","24.1","","102.91","","","","-13","","Snow Showers"
"-61.78","47.43","ILES DE LA MADELEINE A","7053250","2018-01-17 08:00","2018","01","17","08:00","-6.0","","-9.0","","79","","","","25","","23","","32.2","","102.92","","","","-13","","Mostly Cloudy"
"-61.78","47.43","ILES DE LA MADELEINE A","7053250","2018-01-17 09:00","2018","01","17","09:00","-5.7","","-8.6","","80","","","","25","","21","","32.2","","102.93","","","","-13","","NA"
"-61.78","47.43","ILES DE LA MADELEINE A","7053250","2018-01-17 10:00","2018","01","17","10:00","-5.4","","-8.7","","78","","","","25","","24","","32.2","","102.98","","","","-13","","NA"
"-61.78","47.43","ILES DE LA MADELEINE A","7053250","2018-01-17 11:00","2018","01","17","11:00","-5.0","","-8.7","","76","","","","24","","25","","32.2","","102.97","","","","-12","","Cloudy"
"-61.78","47.43","ILES DE LA MADELEINE A","7053250","2018-01-17 12:00","2018","01","17","12:00","-4.7","","-7.6","","80","","","","23","","22","","16.1","","102.85","","","","-12","","Snow"
"-61.78","47.43","ILES DE LA MADELEINE A","7053250","2018-01-17 13:00","2018","01","17","13:00","-4.6","","-7.3","","81","","","","23","","20","","24.1","","102.77","","","","-11","","Snow"
"-61.78","47.43","ILES DE LA MADELEINE A","7053250","2018-01-17 14:00","2018","01","17","14:00","-4.5","","-6.9","","84","","","","22","","22","","24.1","","102.68","","","","-11","","Snow"
"-61.78","47.43","ILES DE LA MADELEINE A","7053250","2018-01-17 15:00","2018","01","17","15:00","-4.5","","-6.4","","86","","","","20","","14","","9.7","","102.61","","","","-10","","Snow"
"-61.78","47.43","ILES DE LA MADELEINE A","7053250","2018-01-17 16:00","2018","01","17","16:00","-4.5","","-6.0","","89","","","","20","","13","","4.8","","102.54","","","","-10","","Snow"
"-61.78","47.43","ILES DE LA MADELEINE A","7053250","2018-01-17 17:00","2018","01","17","17:00","-4.7","","-6.0","","90","","","","19","","11","","4.8","","102.46","","","","-9","","Snow"
"-61.78","47.43","ILES DE LA MADELEINE A","7053250","2018-01-17 18:00","2018","01","17","18:00","-4.6","","-5.9","","91","","","","18","","7","","9.7","","102.39","","","","-8","","Snow"
"-61.78","47.43","ILES DE LA MADELEINE A","7053250","2018-01-17 19:00","2018","01","17","19:00","-4.5","","-5.6","","92","","","","15","","8","","6.4","","102.28","","","","-8","","Snow"
"-61.78","47.43","ILES DE LA MADELEINE A","7053250","2018-01-17 20:00","2018","01","17","20:00","-4.3","","-5.4","","92","","","","14","","14","","4.8","","102.24","","","","-9","","Snow"
"-61.78","47.43","ILES DE LA MADELEINE A","7053250","2018-01-17 21:00","2018","01","17","21:00","-4.2","","-5.3","","92","","","","13","","13","","4.8","","102.07","","","","-9","","Snow"
"-61.78","47.43","ILES DE LA MADELEINE A","7053250","2018-01-17 22:00","2018","01","17","22:00","-3.8","","-4.7","","94","","","","12","","18","","2.4","","101.88","","","","-10","","Snow"
"-61.78","47.43","ILES DE LA MADELEINE A","7053250","2018-01-17 23:00","2018","01","17","23:00","-3.4","","-4.1","","95","","","","11","","16","","2.4","","101.72","","","","-9","","Snow"
"-61.78","47.43","ILES DE LA MADELEINE A","7053250","2018-01-18 00:00","2018","01","18","00:00"
"-61.78","47.43","ILES DE LA MADELEINE A","7053250","2018-01-18 01:00","2018","01","18","01:00"
"-61.78","47.43","ILES DE LA MADELEINE A","7053250","2018-01-18 02:00","2018","01","18","02:00"
"-61.78","47.43","ILES DE LA MADELEINE A","7053250","2018-01-18 03:00","2018","01","18","03:00"
"-61.78","47.43","ILES DE LA MADELEINE A","7053250","2018-01-18 04:00","2018","01","18","04:00"
"-61.78","47.43","ILES DE LA MADELEINE A","7053250","2018-01-18 05:00","2018","01","18","05:00"
"-61.78","47.43","ILES DE LA MADELEINE A","7053250","2018-01-18 06:00","2018","01","18","06:00","-3.0","","-3.4","","97","","","","35","","11","","24.1","","100.81","","","","-7","","Snow"
"-61.78","47.43","ILES DE LA MADELEINE A","7053250","2018-01-18 07:00","2018","01","18","07:00","-2.7","","-3.1","","97","","","","1","","10","","24.1","","100.75","","","","-7","","Snow"
"-61.78","47.43","ILES DE LA MADELEINE A","7053250","2018-01-18 08:00","2018","01","18","08:00","-2.5","","-2.9","","97","","","","1","","7","","8.1","","100.69","","","","-5","","Snow"
"-61.78","47.43","ILES DE LA MADELEINE A","7053250","2018-01-18 09:00","2018","01","18","09:00","-2.2","","-2.6","","97","","","","33","","6","","8.1","","100.64","","","","-5","","Snow"
"-61.78","47.43","ILES DE LA MADELEINE A","7053250","2018-01-18 10:00","2018","01","18","10:00","-1.5","","-2.1","","96","","","","31","","6","","8.1","","100.64","","","","-4","","Snow"
"-61.78","47.43","ILES DE LA MADELEINE A","7053250","2018-01-18 11:00","2018","01","18","11:00","-1.6","","-2.3","","95","","","","28","","9","","9.7","","100.68","","","","-5","","Moderate Snow"
"-61.78","47.43","ILES DE LA MADELEINE A","7053250","2018-01-18 12:00","2018","01","18","12:00","-1.6","","-2.5","","93","","","","26","","13","","16.1","","100.60","","","","-6","","Snow"
"-61.78","47.43","ILES DE LA MADELEINE A","7053250","2018-01-18 13:00","2018","01","18","13:00","-1.4","","-2.6","","92","","","","26","","17","","24.1","","100.47","","","","-7","","NA"
"-61.78","47.43","ILES DE LA MADELEINE A","7053250","2018-01-18 14:00","2018","01","18","14:00","-2.1","","-3.4","","91","","","","26","","27","","32.2","","100.45","","","","-9","","Snow"
"-61.78","47.43","ILES DE LA MADELEINE A","7053250","2018-01-18 15:00","2018","01","18","15:00","-2.6","","-3.5","","94","","","","26","","26","","11.3","","100.44","","","","-9","","NA"
"-61.78","47.43","ILES DE LA MADELEINE A","7053250","2018-01-18 16:00","2018","01","18","16:00","-2.8","","-5.2","","84","","","","27","","23","","32.2","","100.49","","","","-9","","NA"
"-61.78","47.43","ILES DE LA MADELEINE A","7053250","2018-01-18 17:00","2018","01","18","17:00","-3.3","","-5.6","","84","","","","26","","26","","32.2","","100.49","","","","-10","","Mostly Cloudy"
"-61.78","47.43","ILES DE LA MADELEINE A","7053250","2018-01-18 18:00","2018","01","18","18:00","-4.3","","-7.1","","81","","","","27","","26","","24.1","","100.51","","","","-12","","NA"
"-61.78","47.43","ILES DE LA MADELEINE A","7053250","2018-01-18 19:00","2018","01","18","19:00","-4.1","","-7.2","","80","","","","28","","25","","24.1","","100.56","","","","-11","","NA"
"-61.78","47.43","ILES DE LA MADELEINE A","7053250","2018-01-18 20:00","2018","01","18","20:00","-4.0","","-7.2","","79","","","","29","","29","","24.1","","100.54","","","","-12","","Mostly Cloudy"
"-61.78","47.43","ILES DE LA MADELEINE A","7053250","2018-01-18 21:00","2018","01","18","21:00","-4.7","","-7.8","","79","","","","29","","26","","24.1","","100.54","","","","-12","","NA"
"-61.78","47.43","ILES DE LA MADELEINE A","7053250","2018-01-18 22:00","2018","01","18","22:00","-4.5","","-8.3","","75","","","","30","","30","","24.1","","100.57","","","","-12","","NA"
"-61.78","47.43","ILES DE LA MADELEINE A","7053250","2018-01-18 23:00","2018","01","18","23:00","-4.6","","-8.1","","77","","","","31","","25","","24.1","","100.59","","","","-12","","Mainly Clear"
"-61.78","47.43","ILES DE LA MADELEINE A","7053250","2018-01-19 00:00","2018","01","19","00:00"
"-61.78","47.43","ILES DE LA MADELEINE A","7053250","2018-01-19 01:00","2018","01","19","01:00"
"-61.78","47.43","ILES DE LA MADELEINE A","7053250","2018-01-19 02:00","2018","01","19","02:00"
"-61.78","47.43","ILES DE LA MADELEINE A","7053250","2018-01-19 03:00","2018","01","19","03:00"
"-61.78","47.43","ILES DE LA MADELEINE A","7053250","2018-01-19 04:00","2018","01","19","04:00"
"-61.78","47.43","ILES DE LA MADELEINE A","7053250","2018-01-19 05:00","2018","01","19","05:00"
"-61.78","47.43","ILES DE LA MADELEINE A","7053250","2018-01-19 06:00","2018","01","19","06:00","-6.1","","-9.7","","75","","","","34","","22","","24.1","","100.66","","","","-13","","Snow Showers"
"-61.78","47.43","ILES DE LA MADELEINE A","7053250","2018-01-19 07:00","2018","01","19","07:00","-6.3","","-10.2","","74","","","","35","","26","","24.1","","100.69","","","","-14","","Snow Showers"
"-61.78","47.43","ILES DE LA MADELEINE A","7053250","2018-01-19 08:00","2018","01","19","08:00","-6.5","","-10.3","","74","","","","35","","28","","32.2","","100.72","","","","-15","","Snow Showers"
"-61.78","47.43","ILES DE LA MADELEINE A","7053250","2018-01-19 09:00","2018","01","19","09:00","-6.4","","-10.4","","73","","","","36","","23","","32.2","","100.77","","","","-14","","NA"
"-61.78","47.43","ILES DE LA MADELEINE A","7053250","2018-01-19 10:00","2018","01","19","10:00","-6.7","","-11.7","","68","","","","35","","24","","32.2","","100.80","","","","-14","","NA"
"-61.78","47.43","ILES DE LA MADELEINE A","7053250","2018-01-19 11:00","2018","01","19","11:00","-6.9","","-11.4","","70","","","","34","","19","","32.2","","100.79","","","","-14","","Mostly Cloudy"
"-61.78","47.43","ILES DE LA MADELEINE A","7053250","2018-01-19 12:00","2018","01","19","12:00","-6.8","","-11.6","","68","","","","34","","20","","32.2","","100.78","","","","-14","","NA"
"-61.78","47.43","ILES DE LA MADELEINE A","7053250","2018-01-19 13:00","2018","01","19","13:00","-6.4","","-11.0","","70","","","","33","","21","","32.2","","100.72","","","","-13","","NA"
"-61.78","47.43","ILES DE LA MADELEINE A","7053250","2018-01-19 14:00","2018","01","19","14:00","-6.6","","-11.9","","66","","","","32","","20","","32.2","","100.73","","","","-14","","Mostly Cloudy"
"-61.78","47.43","ILES DE LA MADELEINE A","7053250","2018-01-19 15:00","2018","01","19","15:00","-6.7","","-11.7","","68","","","","32","","21","","32.2","","100.77","","","","-14","","NA"
"-61.78","47.43","ILES DE LA MADELEINE A","7053250","2018-01-19 16:00","2018","01","19","16:00","-7.2","","-11.6","","71","","","","33","","15","","32.2","","100.85","","","","-13","","NA"
"-61.78","47.43","ILES DE LA MADELEINE A","7053250","2018-01-19 17:00","2018","01","19","17:00","-8.2","","-12.9","","69","","","","34","","20","","32.2","","100.86","","","","-16","","Mainly Clear"
"-61.78","47.43","ILES DE LA MADELEINE A","7053250","2018-01-19 18:00","2018","01","19","18:00","-7.8","","-12.0","","72","","","","31","","15","","24.1","","100.87","","","","-14","","NA"
"-61.78","47.43","ILES DE LA MADELEINE A","7053250","2018-01-19 19:00","2018","01","19","19:00","-7.6","","-11.5","","74","","","","31","","16","","24.1","","100.90","","","","-14","","NA"
"-61.78","47.43","ILES DE LA MADELEINE A","7053250","2018-01-19 20:00","2018","01","19","20:00","-7.6","","-11.2","","76","","","","31","","12","","24.1","","100.88","","","","-13","","Snow"
"-61.78","47.43","ILES DE LA MADELEINE A","7053250","2018-01-19 21:00","2018","01","19","21:00","-7.6","","-11.4","","75","","","","31","","17","","24.1","","100.88","","","","-14","","Snow"
"-61.78","47.43","ILES DE LA MADELEINE A","7053250","2018-01-19 22:00","2018","01","19","22:00","-7.6","","-11.4","","75","","","","29","","16","","24.1","","100.94","","","","-14","","Snow"
"-61.78","47.43","ILES DE LA MADELEINE A","7053250","2018-01-19 23:00","2018","01","19","23:00","-7.5","","-11.1","","75","","","","29","","9","","24.1","","100.93","","","","-12","","Snow"
"-61.78","47.43","ILES DE LA MADELEINE A","7053250","2018-01-20 00:00","2018","01","20","00:00"
"-61.78","47.43","ILES DE LA MADELEINE A","7053250","2018-01-20 01:00","2018","01","20","01:00"
"-61.78","47.43","ILES DE LA MADELEINE A","7053250","2018-01-20 02:00","2018","01","20","02:00"
"-61.78","47.43","ILES DE LA MADELEINE A","7053250","2018-01-20 03:00","2018","01","20","03:00"
"-61.78","47.43","ILES DE LA MADELEINE A","7053250","2018-01-20 04:00","2018","01","20","04:00"
"-61.78","47.43","ILES DE LA MADELEINE A","7053250","2018-01-20 05:00","2018","01","20","05:00"
"-61.78","47.43","ILES DE LA MADELEINE A","7053250","2018-01-20 06:00","2018","01","20","06:00","-5.8","","-8.0","","85","","","","19","","20","","24.1","","100.53","","","","-13","","NA"
"-61.78","47.43","ILES DE LA MADELEINE A","7053250","2018-01-20 07:00","2018","01","20","07:00","-5.1","","-7.4","","84","","","","19","","23","","24.1","","100.40","","","","-12","","NA"
"-61.78","47.43","ILES DE LA MADELEINE A","7053250","2018-01-20 08:00","2018","01","20","08:00","-4.4","","-7.0","","82","","","","18","","31","","32.2","","100.20","","","","-12","","Blowing Snow"
"-61.78","47.43","ILES DE LA MADELEINE A","7053250","2018-01-20 09:00","2018","01","20","09:00","-3.9","","-6.5","","82","","","","18","","32","","32.2","","100.05","","","","-12","","Snow,Blowing Snow"
"-61.78","47.43","ILES DE LA MADELEINE A","7053250","2018-01-20 10:00","2018","01","20","10:00","-3.6","","-5.2","","89","","","","19","","40","","4.8","","99.86","","","","-12","","Snow,Blowing Snow"
"-61.78","47.43","ILES DE LA MADELEINE A","7053250","2018-01-20 11:00","2018","01","20","11:00","-3.0","","-4.0","","93","","","","18","","34","","0.8","","99.67","","","","-11","","Moderate Snow,Blowing Snow"
"-61.78","47.43","ILES DE LA MADELEINE A","7053250","2018-01-20 12:00","2018","01","20","12:00","-2.4","","-3.2","","94","","","","19","","30","","0.8","","99.41","","","","-10","","Snow,Blowing Snow"
"-61.78","47.43","ILES DE LA MADELEINE A","7053250","2018-01-20 13:00","2018","01","20","13:00","-1.8","","-2.6","","94","","","","21","","41","","1.2","","99.21","","","","-10","","Snow,Blowing Snow"
"-61.78","47.43","ILES DE LA MADELEINE A","7053250","2018-01-20 14:00","2018","01","20","14:00","-1.2","","-1.9","","95","","","","20","","31","","1.6","","98.99","","","","-8","","Snow,Blowing Snow"
"-61.78","47.43","ILES DE LA MADELEINE A","7053250","2018-01-20 15:00","2018","01","20","15:00","-0.4","","-1.4","","93","","","","21","","32","","3.2","","98.92","","","","-7","","Snow,Blowing Snow"
"-61.78","47.43","ILES DE LA MADELEINE A","7053250","2018-01-20 16:00","2018","01","20","16:00","0.4","","-1.1","","89","","","","24","","27","","11.3","","98.92","","","","","","Snow,Blowing Snow"
"-61.78","47.43","ILES DE LA MADELEINE A","7053250","2018-01-20 17:00","2018","01","20","17:00","0.1","","-1.6","","88","","","","26","","43","","24.1","","98.93","","","","","","Blowing Snow"
"-61.78","47.43","ILES DE LA MADELEINE A","7053250","2018-01-20 18:00","2018","01","20","18:00","-0.3","","-2.3","","87","","","","26","","41","","24.1","","98.99","","","","-8","","Blowing Snow"
"-61.78","47.43","ILES DE LA MADELEINE A","7053250","2018-01-20 19:00","2018","01","20","19:00","-0.1","","-2.1","","86","","","","26","","41","","24.1","","99.05","","","","-8","","Blowing Snow"
"-61.78","47.43","ILES DE LA MADELEINE A","7053250","2018-01-20 20:00","2018","01","20","20:00","0.0","","-2.2","","85","","","","27","","45","","24.1","","99.08","","","","-8","","Blowing Snow"
"-61.78","47.43","ILES DE LA MADELEINE A","7053250","2018-01-20 21:00","2018","01","20","21:00","0.2","","-2.0","","85","","","","26","","44","","24.1","","99.12","","","","","","Blowing Snow"
"-61.78","47.43","ILES DE LA MADELEINE A","7053250","2018-01-20 22:00","2018","01","20","22:00","0.4","","-1.5","","87","","","","26","","47","","24.1","","99.25","","","","","","Blowing Snow"
"-61.78","47.43","ILES DE LA MADELEINE A","7053250","2018-01-20 23:00","2018","01","20","23:00","0.6","","-1.6","","86","","","","26","","43","","24.1","","99.37","","","","","","Blowing Snow"
"-61.78","47.43","ILES DE LA MADELEINE A","7053250","2018-01-21 00:00","2018","01","21","00:00","0.3","","-1.8","","86","","","","28","","40","","24.1","","99.50","","","","","","Snow Showers,Blowing Snow"
"-61.78","47.43","ILES DE LA MADELEINE A","7053250","2018-01-21 01:00","2018","01","21","01:00","-2.3","","-4.4","","86","","","","32","","37","","24.1","","99.67","","","","-10","","Snow Showers,Blowing Snow"
"-61.78","47.43","ILES DE LA MADELEINE A","7053250","2018-01-21 02:00","2018","01","21","02:00"
"-61.78","47.43","ILES DE LA MADELEINE A","7053250","2018-01-21 03:00","2018","01","21","03:00"
"-61.78","47.43","ILES DE LA MADELEINE A","7053250","2018-01-21 04:00","2018","01","21","04:00"
"-61.78","47.43","ILES DE LA MADELEINE A","7053250","2018-01-21 05:00","2018","01","21","05:00"
"-61.78","47.43","ILES DE LA MADELEINE A","7053250","2018-01-21 06:00","2018","01","21","06:00","-5.2","","-9.2","","74","","","","31","","45","","24.1","","100.51","","","","-15","","Snow Showers,Blowing Snow"
"-61.78","47.43","ILES DE LA MADELEINE A","7053250","2018-01-21 07:00","2018","01","21","07:00","-6.0","","-9.9","","74","","","","31","","41","","24.1","","100.66","","","","-16","","Snow Showers,Blowing Snow"
"-61.78","47.43","ILES DE LA MADELEINE A","7053250","2018-01-21 08:00","2018","01","21","08:00","-7.1","","-11.3","","72","","","","32","","39","","24.1","","100.76","","","","-17","","Blowing Snow"
"-61.78","47.43","ILES DE LA MADELEINE A","7053250","2018-01-21 09:00","2018","01","21","09:00","-7.0","","-11.8","","69","","","","32","","35","","24.1","","100.88","","","","-16","","NA"
"-61.78","47.43","ILES DE LA MADELEINE A","7053250","2018-01-21 10:00","2018","01","21","10:00","-6.6","","-10.9","","71","","","","30","","27","","32.2","","100.94","","","","-15","","NA"
"-61.78","47.43","ILES DE LA MADELEINE A","7053250","2018-01-21 11:00","2018","01","21","11:00","-6.2","","-11.2","","68","","","","30","","32","","32.2","","100.99","","","","-15","","Mostly Cloudy"
"-61.78","47.43","ILES DE LA MADELEINE A","7053250","2018-01-21 12:00","2018","01","21","12:00","-5.6","","-11.1","","66","","","","28","","30","","32.2","","101.00","","","","-14","","NA"
"-61.78","47.43","ILES DE LA MADELEINE A","7053250","2018-01-21 13:00","2018","01","21","13:00","-6.0","","-11.2","","67","","","","29","","27","","32.2","","100.94","","","","-14","","NA"
"-61.78","47.43","ILES DE LA MADELEINE A","7053250","2018-01-21 14:00","2018","01","21","14:00","-6.1","","-10.8","","70","","","","28","","28","","32.2","","100.99","","","","-14","","Mostly Cloudy"
"-61.78","47.43","ILES DE LA MADELEINE A","7053250","2018-01-21 15:00","2018","01","21","15:00","-6.4","","-11.0","","70","","","","28","","32","","32.2","","101.03","","","","-15","","NA"
"-61.78","47.43","ILES DE LA MADELEINE A","7053250","2018-01-21 16:00","2018","01","21","16:00","-6.6","","-11.2","","70","","","","27","","39","","32.2","","101.17","","","","-16","","NA"
"-61.78","47.43","ILES DE LA MADELEINE A","7053250","2018-01-21 17:00","2018","01","21","17:00","-7.3","","-12.4","","67","","","","27","","37","","32.2","","101.23","","","","-17","","Mostly Cloudy"
"-61.78","47.43","ILES DE LA MADELEINE A","7053250","2018-01-21 18:00","2018","01","21","18:00","-7.1","","-12.2","","68","","","","28","","35","","24.1","","101.29","","","","-16","","NA"
"-61.78","47.43","ILES DE LA MADELEINE A","7053250","2018-01-21 19:00","2018","01","21","19:00","-7.0","","-12.3","","66","","","","29","","39","","24.1","","101.32","","","","-17","","NA"
"-61.78","47.43","ILES DE LA MADELEINE A","7053250","2018-01-21 20:00","2018","01","21","20:00","-7.0","","-12.8","","63","","","","29","","40","","24.1","","101.36","","","","-17","","Mainly Clear"
"-61.78","47.43","ILES DE LA MADELEINE A","7053250","2018-01-21 21:00","2018","01","21","21:00","-7.1","","-12.8","","64","","","","29","","37","","24.1","","101.37","","","","-17","","NA"
"-61.78","47.43","ILES DE LA MADELEINE A","7053250","2018-01-21 22:00","2018","01","21","22:00","-7.5","","-13.6","","62","","","","29","","42","","24.1","","101.44","","","","-18","","NA"
"-61.78","47.43","ILES DE LA MADELEINE A","7053250","2018-01-21 23:00","2018","01","21","23:00","-7.9","","-13.3","","66","","","","29","","36","","24.1","","101.45","","","","-18","","Mostly Cloudy"
"-61.78","47.43","ILES DE LA MADELEINE A","7053250","2018-01-22 00:00","2018","01","22","00:00"
"-61.78","47.43","ILES DE LA MADELEINE A","7053250","2018-01-22 01:00","2018","01","22","01:00"
"-61.78","47.43","ILES DE LA MADELEINE A","7053250","2018-01-22 02:00","2018","01","22","02:00"
"-61.78","47.43","ILES DE LA MADELEINE A","7053250","2018-01-22 03:00","2018","01","22","03:00"
"-61.78","47.43","ILES DE LA MADELEINE A","7053250","2018-01-22 04:00","2018","01","22","04:00"
"-61.78","47.43","ILES DE LA MADELEINE A","7053250","2018-01-22 05:00","2018","01","22","05:00"
"-61.78","47.43","ILES DE LA MADELEINE A","7053250","2018-01-22 06:00","2018","01","22","06:00","-10.7","","-16.3","","64","","","","29","","41","","24.1","","101.77","","","","-22","","NA"
"-61.78","47.43","ILES DE LA MADELEINE A","7053250","2018-01-22 07:00","2018","01","22","07:00","-10.4","","-17.4","","57","","","","29","","49","","24.1","","101.79","","","","-22","","Blowing Snow"
"-61.78","47.43","ILES DE LA MADELEINE A","7053250","2018-01-22 08:00","2018","01","22","08:00","-10.4","","-16.5","","62","","","","29","","46","","32.2","","101.88","","","","-22","","Blowing Snow"
"-61.78","47.43","ILES DE LA MADELEINE A","7053250","2018-01-22 09:00","2018","01","22","09:00","-10.6","","-15.9","","66","","","","30","","39","","32.2","","101.97","","","","-21","","Blowing Snow"
"-61.78","47.43","ILES DE LA MADELEINE A","7053250","2018-01-22 10:00","2018","01","22","10:00","-10.4","","-15.9","","65","","","","29","","43","","32.2","","102.07","","","","-22","","Blowing Snow"
"-61.78","47.43","ILES DE LA MADELEINE A","7053250","2018-01-22 11:00","2018","01","22","11:00","-11.0","","-16.2","","65","","","","30","","44","","32.2","","102.20","","","","-23","","Blowing Snow"
"-61.78","47.43","ILES DE LA MADELEINE A","7053250","2018-01-22 12:00","2018","01","22","12:00","-11.4","","-16.4","","67","","","","32","","35","","32.2","","102.23","","","","-22","","Blowing Snow"
"-61.78","47.43","ILES DE LA MADELEINE A","7053250","2018-01-22 13:00","2018","01","22","13:00","-11.4","","-16.3","","67","","","","31","","37","","32.2","","102.29","","","","-22","","Blowing Snow"
"-61.78","47.43","ILES DE LA MADELEINE A","7053250","2018-01-22 14:00","2018","01","22","14:00","-11.2","","-15.3","","72","","","","30","","34","","24.1","","102.38","","","","-22","","Snow Showers"
"-61.78","47.43","ILES DE LA MADELEINE A","7053250","2018-01-22 15:00","2018","01","22","15:00","-10.8","","-14.4","","75","","","","30","","32","","24.1","","102.44","","","","-21","","Snow Showers"
"-61.78","47.43","ILES DE LA MADELEINE A","7053250","2018-01-22 16:00","2018","01","22","16:00","-10.8","","-14.5","","74","","","","30","","32","","24.1","","102.54","","","","-21","","Snow Showers"
"-61.78","47.43","ILES DE LA MADELEINE A","7053250","2018-01-22 17:00","2018","01","22","17:00","-10.7","","-14.4","","74","","","","31","","22","","24.1","","102.67","","","","-19","","Mostly Cloudy"
"-61.78","47.43","ILES DE LA MADELEINE A","7053250","2018-01-22 18:00","2018","01","22","18:00","-10.5","","-14.4","","73","","","","30","","22","","24.1","","102.71","","","","-19","","Snow Showers"
"-61.78","47.43","ILES DE LA MADELEINE A","7053250","2018-01-22 19:00","2018","01","22","19:00","-10.6","","-14.4","","74","","","","30","","21","","24.1","","102.80","","","","-19","","Snow Showers"
"-61.78","47.43","ILES DE LA MADELEINE A","7053250","2018-01-22 20:00","2018","01","22","20:00","-10.8","","-14.6","","74","","","","29","","17","","24.1","","102.85","","","","-18","","Snow Showers"
"-61.78","47.43","ILES DE LA MADELEINE A","7053250","2018-01-22 21:00","2018","01","22","21:00","-10.8","","-14.6","","74","","","","31","","17","","24.1","","102.85","","","","-18","","NA"
"-61.78","47.43","ILES DE LA MADELEINE A","7053250","2018-01-22 22:00","2018","01","22","22:00","-10.4","","-14.6","","72","","","","30","","18","","24.1","","102.87","","","","-18","","NA"
"-61.78","47.43","ILES DE LA MADELEINE A","7053250","2018-01-22 23:00","2018","01","22","23:00","-10.4","","-14.3","","73","","","","30","","14","","24.1","","102.90","","","","-17","","Mainly Clear"
"-61.78","47.43","ILES DE LA MADELEINE A","7053250","2018-01-23 00:00","2018","01","23","00:00"
"-61.78","47.43","ILES DE LA MADELEINE A","7053250","2018-01-23 01:00","2018","01","23","01:00"
"-61.78","47.43","ILES DE LA MADELEINE A","7053250","2018-01-23 02:00","2018","01","23","02:00"
"-61.78","47.43","ILES DE LA MADELEINE A","7053250","2018-01-23 03:00","2018","01","23","03:00"
"-61.78","47.43","ILES DE LA MADELEINE A","7053250","2018-01-23 04:00","2018","01","23","04:00"
"-61.78","47.43","ILES DE LA MADELEINE A","7053250","2018-01-23 05:00","2018","01","23","05:00"
"-61.78","47.43","ILES DE LA MADELEINE A","7053250","2018-01-23 06:00","2018","01","23","06:00","-9.8","","-12.3","","82","","","","22","","8","","24.1","","102.87","","","","-14","","NA"
"-61.78","47.43","ILES DE LA MADELEINE A","7053250","2018-01-23 07:00","2018","01","23","07:00","-9.4","","-12.1","","81","","","","20","","7","","24.1","","102.90","","","","-13","","NA"
"-61.78","47.43","ILES DE LA MADELEINE A","7053250","2018-01-23 08:00","2018","01","23","08:00","-8.7","","-12.0","","77","","","","19","","5","","32.2","","102.93","","","","-11","","Cloudy"
"-61.78","47.43","ILES DE LA MADELEINE A","7053250","2018-01-23 09:00","2018","01","23","09:00","-8.2","","-10.6","","83","","","","36","","2","","32.2","","102.87","","","","-9","","NA"
"-61.78","47.43","ILES DE LA MADELEINE A","7053250","2018-01-23 10:00","2018","01","23","10:00","-6.8","","-10.4","","76","","","","17","","7","","32.2","","102.86","","","","-10","","NA"
"-61.78","47.43","ILES DE LA MADELEINE A","7053250","2018-01-23 11:00","2018","01","23","11:00","-6.4","","-10.3","","74","","","","13","","12","","32.2","","102.80","","","","-12","","Cloudy"
"-61.78","47.43","ILES DE LA MADELEINE A","7053250","2018-01-23 12:00","2018","01","23","12:00","-6.1","","-10.2","","73","","","","13","","18","","32.2","","102.64","","","","-13","","NA"
"-61.78","47.43","ILES DE LA MADELEINE A","7053250","2018-01-23 13:00","2018","01","23","13:00","-6.2","","-10.1","","74","","","","11","","24","","16.1","","102.44","","","","-14","","Snow"
"-61.78","47.43","ILES DE LA MADELEINE A","7053250","2018-01-23 14:00","2018","01","23","14:00","-6.1","","-7.7","","88","","","","11","","28","","1.6","","102.30","","","","-14","","Snow,Blowing Snow"
"-61.78","47.43","ILES DE LA MADELEINE A","7053250","2018-01-23 15:00","2018","01","23","15:00","-5.4","","-7.1","","88","","","","11","","36","","2.4","","102.10","","","","-14","","Snow,Blowing Snow"
"-61.78","47.43","ILES DE LA MADELEINE A","7053250","2018-01-23 16:00","2018","01","23","16:00","-4.8","","-5.9","","92","","","","11","","28","","1.6","","101.97","","","","-12","","Snow,Blowing Snow"
"-61.78","47.43","ILES DE LA MADELEINE A","7053250","2018-01-23 17:00","2018","01","23","17:00","-3.7","","-4.5","","94","","","","12","","33","","32.2","","101.76","","","","-12","","Cloudy"
"-61.78","47.43","ILES DE LA MADELEINE A","7053250","2018-01-23 18:00","2018","01","23","18:00","-2.8","","-4.3","","90","","","","13","","36","","24.1","","101.59","","","","-11","","Freezing Rain"
"-61.78","47.43","ILES DE LA MADELEINE A","7053250","2018-01-23 19:00","2018","01","23","19:00","-2.2","","-3.4","","92","","","","14","","27","","24.1","","101.40","","","","-9","","Freezing Rain"
"-61.78","47.43","ILES DE LA MADELEINE A","7053250","2018-01-23 20:00","2018","01","23","20:00","-0.3","","-1.6","","91","","","","14","","40","","24.1","","101.15","","","","-8","","Freezing Rain"
"-61.78","47.43","ILES DE LA MADELEINE A","7053250","2018-01-23 21:00","2018","01","23","21:00","0.6","","-0.5","","92","","","","15","","35","","24.1","","100.93","","","","","","Rain"
"-61.78","47.43","ILES DE LA MADELEINE A","7053250","2018-01-23 22:00","2018","01","23","22:00","1.6","","0.4","","92","","","","15","","45","","11.3","","100.66","","","","","","Rain"
"-61.78","47.43","ILES DE LA MADELEINE A","7053250","2018-01-23 23:00","2018","01","23","23:00","3.1","","2.1","","93","","","","16","","53","","11.3","","100.41","","","","","","Rain"
"-61.78","47.43","ILES DE LA MADELEINE A","7053250","2018-01-24 00:00","2018","01","24","00:00"
"-61.78","47.43","ILES DE LA MADELEINE A","7053250","2018-01-24 01:00","2018","01","24","01:00"
"-61.78","47.43","ILES DE LA MADELEINE A","7053250","2018-01-24 02:00","2018","01","24","02:00"
"-61.78","47.43","ILES DE LA MADELEINE A","7053250","2018-01-24 03:00","2018","01","24","03:00"
"-61.78","47.43","ILES DE LA MADELEINE A","7053250","2018-01-24 04:00","2018","01","24","04:00"
"-61.78","47.43","ILES DE LA MADELEINE A","7053250","2018-01-24 05:00","2018","01","24","05:00"
"-61.78","47.43","ILES DE LA MADELEINE A","7053250","2018-01-24 06:00","2018","01","24","06:00","5.2","","5.0","","99","","","","18","","41","","3.2","","98.89","","","","","","Rain,Fog"
"-61.78","47.43","ILES DE LA MADELEINE A","7053250","2018-01-24 07:00","2018","01","24","07:00","4.9","","4.7","","99","","","","19","","40","","3.2","","98.78","","","","","","Rain,Fog"
"-61.78","47.43","ILES DE LA MADELEINE A","7053250","2018-01-24 08:00","2018","01","24","08:00","4.8","","4.6","","99","","","","20","","32","","1.6","","98.83","","","","","","Drizzle,Fog"
"-61.78","47.43","ILES DE LA MADELEINE A","7053250","2018-01-24 09:00","2018","01","24","09:00","4.5","","4.4","","99","","","","22","","35","","16.1","","98.87","","","","","","NA"
"-61.78","47.43","ILES DE LA MADELEINE A","7053250","2018-01-24 10:00","2018","01","24","10:00","3.5","","3.0","","96","","","","23","","41","","24.1","","98.97","","","","","","NA"
"-61.78","47.43","ILES DE LA MADELEINE A","7053250","2018-01-24 11:00","2018","01","24","11:00","2.5","","0.7","","88","","","","23","","38","","32.2","","99.02","","","","","","Mainly Clear"
"-61.78","47.43","ILES DE LA MADELEINE A","7053250","2018-01-24 12:00","2018","01","24","12:00","2.3","","0.0","","85","","","","25","","44","","32.2","","99.05","","","","","","NA"
"-61.78","47.43","ILES DE LA MADELEINE A","7053250","2018-01-24 13:00","2018","01","24","13:00","1.4","","-1.2","","83","","","","26","","50","","32.2","","99.11","","","","","","NA"
"-61.78","47.43","ILES DE LA MADELEINE A","7053250","2018-01-24 14:00","2018","01","24","14:00","1.1","","-2.0","","80","","","","26","","50","","32.2","","99.20","","","","","","Mainly Clear"
"-61.78","47.43","ILES DE LA MADELEINE A","7053250","2018-01-24 15:00","2018","01","24","15:00","0.4","","-2.4","","82","","","","26","","27","","32.2","","99.38","","","","","","NA"
"-61.78","47.43","ILES DE LA MADELEINE A","7053250","2018-01-24 16:00","2018","01","24","16:00","-0.2","","-2.7","","84","","","","25","","27","","32.2","","99.39","","","","-6","","NA"
"-61.78","47.43","ILES DE LA MADELEINE A","7053250","2018-01-24 17:00","2018","01","24","17:00","-0.6","","-3.2","","83","","","","27","","40","","32.2","","99.44","","","","-8","","Mostly Cloudy"
"-61.78","47.43","ILES DE LA MADELEINE A","7053250","2018-01-24 18:00","2018","01","24","18:00","-1.6","","-5.1","","77","","","","27","","33","","24.1","","99.52","","","","-9","","Snow Showers"
"-61.78","47.43","ILES DE LA MADELEINE A","7053250","2018-01-24 19:00","2018","01","24","19:00","-3.1","","-6.8","","76","","","","28","","42","","24.1","","99.65","","","","-12","","NA"
"-61.78","47.43","ILES DE LA MADELEINE A","7053250","2018-01-24 20:00","2018","01","24","20:00","-4.6","","-8.1","","76","","","","28","","43","","24.1","","99.78","","","","-14","","Mostly Cloudy"
"-61.78","47.43","ILES DE LA MADELEINE A","7053250","2018-01-24 21:00","2018","01","24","21:00","-5.3","","-9.9","","70","","","","28","","52","","24.1","","99.79","","","","-16","","Snow Showers"
"-61.78","47.43","ILES DE LA MADELEINE A","7053250","2018-01-24 22:00","2018","01","24","22:00","-6.6","","-10.2","","76","","","","29","","45","","24.1","","99.93","","","","-17","","Snow Showers"
"-61.78","47.43","ILES DE LA MADELEINE A","7053250","2018-01-24 23:00","2018","01","24","23:00","-7.5","","-11.6","","73","","","","28","","53","","24.1","","100.03","","","","-19","","Snow Showers"
"-61.78","47.43","ILES DE LA MADELEINE A","7053250","2018-01-25 00:00","2018","01","25","00:00"
"-61.78","47.43","ILES DE LA MADELEINE A","7053250","2018-01-25 01:00","2018","01","25","01:00"
"-61.78","47.43","ILES DE LA MADELEINE A","7053250","2018-01-25 02:00","2018","01","25","02:00"
"-61.78","47.43","ILES DE LA MADELEINE A","7053250","2018-01-25 03:00","2018","01","25","03:00"
"-61.78","47.43","ILES DE LA MADELEINE A","7053250","2018-01-25 04:00","2018","01","25","04:00"
"-61.78","47.43","ILES DE LA MADELEINE A","7053250","2018-01-25 05:00","2018","01","25","05:00"
"-61.78","47.43","ILES DE LA MADELEINE A","7053250","2018-01-25 06:00","2018","01","25","06:00","-9.0","","-13.2","","71","","","","27","","48","","16.1","","100.41","","","","-20","","Snow Showers"
"-61.78","47.43","ILES DE LA MADELEINE A","7053250","2018-01-25 07:00","2018","01","25","07:00","-9.1","","-13.7","","70","","","","27","","45","","16.1","","100.50","","","","-20","","Snow Showers"
"-61.78","47.43","ILES DE LA MADELEINE A","7053250","2018-01-25 08:00","2018","01","25","08:00","-9.4","","-13.7","","71","","","","27","","44","","8.1","","100.55","","","","-20","","Snow Showers,Blowing Snow"
"-61.78","47.43","ILES DE LA MADELEINE A","7053250","2018-01-25 09:00","2018","01","25","09:00","-9.5","","-13.0","","76","","","","27","","43","","8.1","","100.62","","","","-20","","Snow Showers,Blowing Snow"
"-61.78","47.43","ILES DE LA MADELEINE A","7053250","2018-01-25 10:00","2018","01","25","10:00","-9.2","","-13.9","","69","","","","28","","40","","8.1","","100.68","","","","-20","","Snow Showers,Blowing Snow"
"-61.78","47.43","ILES DE LA MADELEINE A","7053250","2018-01-25 11:00","2018","01","25","11:00","-9.0","","-13.3","","71","","","","28","","39","","8.1","","100.73","","","","-19","","Snow Showers,Blowing Snow"
"-61.78","47.43","ILES DE LA MADELEINE A","7053250","2018-01-25 12:00","2018","01","25","12:00","-9.2","","-12.9","","74","","","","27","","32","","19.3","","100.76","","","","-19","","Snow Showers,Blowing Snow"
"-61.78","47.43","ILES DE LA MADELEINE A","7053250","2018-01-25 13:00","2018","01","25","13:00","-9.3","","-12.6","","77","","","","28","","28","","8.1","","100.77","","","","-18","","Snow Showers,Blowing Snow"
"-61.78","47.43","ILES DE LA MADELEINE A","7053250","2018-01-25 14:00","2018","01","25","14:00","-9.4","","-12.8","","76","","","","28","","28","","12.9","","100.73","","","","-18","","Snow Showers,Blowing Snow"
"-61.78","47.43","ILES DE LA MADELEINE A","7053250","2018-01-25 15:00","2018","01","25","15:00","-9.6","","-14.1","","70","","","","29","","22","","16.1","","100.77","","","","-18","","Snow Showers"
"-61.78","47.43","ILES DE LA MADELEINE A","7053250","2018-01-25 16:00","2018","01","25","16:00","-9.7","","-13.9","","71","","","","28","","27","","32.2","","100.83","","","","-19","","Snow"
"-61.78","47.43","ILES DE LA MADELEINE A","7053250","2018-01-25 17:00","2018","01","25","17:00","-9.8","","-14.2","","71","","","","29","","21","","32.2","","100.94","","","","-18","","Snow"
"-61.78","47.43","ILES DE LA MADELEINE A","7053250","2018-01-25 18:00","2018","01","25","18:00","-9.9","","-14.2","","71","","","","30","","16","","24.1","","101.03","","","","-17","","Snow"
"-61.78","47.43","ILES DE LA MADELEINE A","7053250","2018-01-25 19:00","2018","01","25","19:00","-9.3","","-14.0","","69","","","","31","","23","","24.1","","101.10","","","","-18","","Snow"
"-61.78","47.43","ILES DE LA MADELEINE A","7053250","2018-01-25 20:00","2018","01","25","20:00","-9.1","","-13.4","","71","","","","30","","26","","24.1","","101.15","","","","-18","","Snow"
"-61.78","47.43","ILES DE LA MADELEINE A","7053250","2018-01-25 21:00","2018","01","25","21:00","-8.9","","-12.8","","74","","","","30","","21","","16.1","","101.19","","","","-17","","Snow,Blowing Snow"
"-61.78","47.43","ILES DE LA MADELEINE A","7053250","2018-01-25 22:00","2018","01","25","22:00","-8.6","","-11.8","","77","","","","30","","27","","8.1","","101.22","","","","-17","","Snow,Blowing Snow"
"-61.78","47.43","ILES DE LA MADELEINE A","7053250","2018-01-25 23:00","2018","01","25","23:00","-8.4","","-12.2","","74","","","","32","","34","","8.1","","101.27","","","","-18","","Snow,Blowing Snow"
"-61.78","47.43","ILES DE LA MADELEINE A","7053250","2018-01-26 00:00","2018","01","26","00:00"
"-61.78","47.43","ILES DE LA MADELEINE A","7053250","2018-01-26 01:00","2018","01","26","01:00"
"-61.78","47.43","ILES DE LA MADELEINE A","7053250","2018-01-26 02:00","2018","01","26","02:00"
"-61.78","47.43","ILES DE LA MADELEINE A","7053250","2018-01-26 03:00","2018","01","26","03:00"
"-61.78","47.43","ILES DE LA MADELEINE A","7053250","2018-01-26 04:00","2018","01","26","04:00"
"-61.78","47.43","ILES DE LA MADELEINE A","7053250","2018-01-26 05:00","2018","01","26","05:00"
"-61.78","47.43","ILES DE LA MADELEINE A","7053250","2018-01-26 06:00","2018","01","26","06:00","-9.5","","-12.2","","81","","","","31","","36","","8.1","","101.73","","","","-20","","Snow Showers,Blowing Snow"
"-61.78","47.43","ILES DE LA MADELEINE A","7053250","2018-01-26 07:00","2018","01","26","07:00","-9.3","","-12.3","","79","","","","30","","39","","24.1","","101.85","","","","-20","","Snow Showers,Blowing Snow"
"-61.78","47.43","ILES DE LA MADELEINE A","7053250","2018-01-26 08:00","2018","01","26","08:00","-9.1","","-11.9","","80","","","","31","","39","","8.1","","101.94","","","","-19","","Snow Showers,Blowing Snow"
"-61.78","47.43","ILES DE LA MADELEINE A","7053250","2018-01-26 09:00","2018","01","26","09:00","-8.8","","-11.2","","83","","","","31","","38","","2.0","","101.99","","","","-19","","Snow Showers,Blowing Snow"
"-61.78","47.43","ILES DE LA MADELEINE A","7053250","2018-01-26 10:00","2018","01","26","10:00","-8.5","","-12.6","","72","","","","33","","33","","32.2","","102.10","","","","-18","","Snow Showers,Blowing Snow"
"-61.78","47.43","ILES DE LA MADELEINE A","7053250","2018-01-26 11:00","2018","01","26","11:00","-8.4","","-12.6","","72","","","","34","","38","","32.2","","102.21","","","","-18","","Snow Showers,Blowing Snow"
"-61.78","47.43","ILES DE LA MADELEINE A","7053250","2018-01-26 12:00","2018","01","26","12:00","-8.4","","-13.8","","65","","","","33","","37","","32.2","","102.24","","","","-18","","NA"
"-61.78","47.43","ILES DE LA MADELEINE A","7053250","2018-01-26 13:00","2018","01","26","13:00","-7.5","","-12.5","","68","","","","32","","41","","32.2","","102.26","","","","-18","","NA"
"-61.78","47.43","ILES DE LA MADELEINE A","7053250","2018-01-26 14:00","2018","01","26","14:00","-7.8","","-12.3","","70","","","","32","","34","","32.2","","102.32","","","","-17","","Snow Showers"
"-61.78","47.43","ILES DE LA MADELEINE A","7053250","2018-01-26 15:00","2018","01","26","15:00","-8.4","","-13.5","","67","","","","33","","43","","32.2","","102.40","","","","-19","","NA"
"-61.78","47.43","ILES DE LA MADELEINE A","7053250","2018-01-26 16:00","2018","01","26","16:00","-8.5","","-13.3","","68","","","","33","","41","","32.2","","102.56","","","","-19","","NA"
"-61.78","47.43","ILES DE LA MADELEINE A","7053250","2018-01-26 17:00","2018","01","26","17:00","-8.7","","-13.2","","70","","","","33","","39","","32.2","","102.68","","","","-19","","Mainly Clear"
"-61.78","47.43","ILES DE LA MADELEINE A","7053250","2018-01-26 18:00","2018","01","26","18:00","-8.2","","-12.1","","74","","","","32","","35","","24.1","","102.81","","","","-18","","Snow Showers"
"-61.78","47.43","ILES DE LA MADELEINE A","7053250","2018-01-26 19:00","2018","01","26","19:00","-8.1","","-11.9","","74","","","","34","","40","","24.1","","102.87","","","","-18","","Snow Showers"
"-61.78","47.43","ILES DE LA MADELEINE A","7053250","2018-01-26 20:00","2018","01","26","20:00","-8.0","","-11.6","","76","","","","34","","38","","24.1","","102.96","","","","-18","","Snow Showers"
"-61.78","47.43","ILES DE LA MADELEINE A","7053250","2018-01-26 21:00","2018","01","26","21:00","-8.1","","-11.6","","76","","","","33","","35","","24.1","","103.01","","","","-18","","Snow Showers"
"-61.78","47.43","ILES DE LA MADELEINE A","7053250","2018-01-26 22:00","2018","01","26","22:00","-8.1","","-11.4","","77","","","","32","","34","","24.1","","103.09","","","","-18","","Snow Showers"
"-61.78","47.43","ILES DE LA MADELEINE A","7053250","2018-01-26 23:00","2018","01","26","23:00","-8.1","","-11.7","","75","","","","33","","33","","24.1","","103.08","","","","-17","","Snow Showers"
"-61.78","47.43","ILES DE LA MADELEINE A","7053250","2018-01-27 00:00","2018","01","27","00:00"
"-61.78","47.43","ILES DE LA MADELEINE A","7053250","2018-01-27 01:00","2018","01","27","01:00"
"-61.78","47.43","ILES DE LA MADELEINE A","7053250","2018-01-27 02:00","2018","01","27","02:00"
"-61.78","47.43","ILES DE LA MADELEINE A","7053250","2018-01-27 03:00","2018","01","27","03:00"
"-61.78","47.43","ILES DE LA MADELEINE A","7053250","2018-01-27 04:00","2018","01","27","04:00"
"-61.78","47.43","ILES DE LA MADELEINE A","7053250","2018-01-27 05:00","2018","01","27","05:00"
"-61.78","47.43","ILES DE LA MADELEINE A","7053250","2018-01-27 06:00","2018","01","27","06:00","-10.4","","-12.2","","86","","","","24","","12","","24.1","","103.34","","","","-16","","NA"
"-61.78","47.43","ILES DE LA MADELEINE A","7053250","2018-01-27 07:00","2018","01","27","07:00","-10.3","","-12.1","","87","","","","22","","10","","24.1","","103.33","","","","-16","","NA"
"-61.78","47.43","ILES DE LA MADELEINE A","7053250","2018-01-27 08:00","2018","01","27","08:00","-8.9","","-11.7","","81","","","","21","","14","","32.2","","103.31","","","","-15","","Mostly Cloudy"
"-61.78","47.43","ILES DE LA MADELEINE A","7053250","2018-01-27 09:00","2018","01","27","09:00","-7.9","","-10.8","","80","","","","21","","17","","32.2","","103.30","","","","-15","","NA"
"-61.78","47.43","ILES DE LA MADELEINE A","7053250","2018-01-27 10:00","2018","01","27","10:00","-7.4","","-11.6","","73","","","","23","","22","","32.2","","103.25","","","","-15","","NA"
"-61.78","47.43","ILES DE LA MADELEINE A","7053250","2018-01-27 11:00","2018","01","27","11:00","-6.5","","-12.7","","62","","","","22","","21","","32.2","","103.15","","","","-14","","Mostly Cloudy"
"-61.78","47.43","ILES DE LA MADELEINE A","7053250","2018-01-27 12:00","2018","01","27","12:00","-6.5","","-13.0","","60","","","","20","","27","","32.2","","103.02","","","","-15","","NA"
"-61.78","47.43","ILES DE LA MADELEINE A","7053250","2018-01-27 13:00","2018","01","27","13:00","-6.2","","-10.8","","70","","","","19","","20","","32.2","","102.85","","","","-13","","NA"
"-61.78","47.43","ILES DE LA MADELEINE A","7053250","2018-01-27 14:00","2018","01","27","14:00","-5.6","","-10.5","","68","","","","18","","19","","32.2","","102.69","","","","-12","","Cloudy"
"-61.78","47.43","ILES DE LA MADELEINE A","7053250","2018-01-27 15:00","2018","01","27","15:00","-5.3","","-9.6","","72","","","","19","","30","","32.2","","102.57","","","","-13","","NA"
"-61.78","47.43","ILES DE LA MADELEINE A","7053250","2018-01-27 16:00","2018","01","27","16:00","-4.5","","-8.9","","71","","","","19","","30","","32.2","","102.47","","","","-12","","NA"
"-61.78","47.43","ILES DE LA MADELEINE A","7053250","2018-01-27 17:00","2018","01","27","17:00","-3.5","","-8.2","","70","","","","19","","37","","32.2","","102.32","","","","-12","","Cloudy"
"-61.78","47.43","ILES DE LA MADELEINE A","7053250","2018-01-27 18:00","2018","01","27","18:00","-2.8","","-7.3","","71","","","","19","","37","","24.1","","102.17","","","","-11","","NA"
"-61.78","47.43","ILES DE LA MADELEINE A","7053250","2018-01-27 19:00","2018","01","27","19:00","-2.0","","-5.9","","74","","","","18","","42","","24.1","","102.02","","","","-10","","NA"
"-61.78","47.43","ILES DE LA MADELEINE A","7053250","2018-01-27 20:00","2018","01","27","20:00","-1.5","","-3.9","","83","","","","18","","33","","24.1","","101.97","","","","-9","","Cloudy"
"-61.78","47.43","ILES DE LA MADELEINE A","7053250","2018-01-27 21:00","2018","01","27","21:00","-0.8","","-2.9","","86","","","","19","","36","","24.1","","101.83","","","","-8","","NA"
"-61.78","47.43","ILES DE LA MADELEINE A","7053250","2018-01-27 22:00","2018","01","27","22:00","-0.3","","-2.2","","87","","","","20","","30","","24.1","","101.74","","","","-7","","NA"
"-61.78","47.43","ILES DE LA MADELEINE A","7053250","2018-01-27 23:00","2018","01","27","23:00","0.4","","-1.6","","86","","","","20","","37","","24.1","","101.60","","","","","","Cloudy"
"-61.78","47.43","ILES DE LA MADELEINE A","7053250","2018-01-28 00:00","2018","01","28","00:00","0.8","","-1.1","","87","","","","20","","33","","24.1","","101.52","","","","","","NA"
"-61.78","47.43","ILES DE LA MADELEINE A","7053250","2018-01-28 01:00","2018","01","28","01:00","1.0","","-0.7","","88","","","","20","","33","","24.1","","101.42","","","","","","NA"
"-61.78","47.43","ILES DE LA MADELEINE A","7053250","2018-01-28 02:00","2018","01","28","02:00"
"-61.78","47.43","ILES DE LA MADELEINE A","7053250","2018-01-28 03:00","2018","01","28","03:00"
"-61.78","47.43","ILES DE LA MADELEINE A","7053250","2018-01-28 04:00","2018","01","28","04:00"
"-61.78","47.43","ILES DE LA MADELEINE A","7053250","2018-01-28 05:00","2018","01","28","05:00"
"-61.78","47.43","ILES DE LA MADELEINE A","7053250","2018-01-28 06:00","2018","01","28","06:00","2.7","","2.2","","96","","","","23","","30","","24.1","","101.17","","","","","","Rain"
"-61.78","47.43","ILES DE LA MADELEINE A","7053250","2018-01-28 07:00","2018","01","28","07:00","2.7","","2.1","","96","","","","23","","34","","24.1","","101.17","","","","","","Rain"
"-61.78","47.43","ILES DE LA MADELEINE A","7053250","2018-01-28 08:00","2018","01","28","08:00","2.8","","2.2","","96","","","","23","","36","","24.1","","101.23","","","","","","Cloudy"
"-61.78","47.43","ILES DE LA MADELEINE A","7053250","2018-01-28 09:00","2018","01","28","09:00","3.1","","2.1","","94","","","","24","","39","","24.1","","101.29","","","","","","NA"
"-61.78","47.43","ILES DE LA MADELEINE A","7053250","2018-01-28 10:00","2018","01","28","10:00","3.2","","2.0","","91","","","","24","","40","","24.1","","101.32","","","","","","NA"
"-61.78","47.43","ILES DE LA MADELEINE A","7053250","2018-01-28 11:00","2018","01","28","11:00","3.6","","2.2","","90","","","","24","","39","","24.1","","101.31","","","","","","Mostly Cloudy"
"-61.78","47.43","ILES DE LA MADELEINE A","7053250","2018-01-28 12:00","2018","01","28","12:00","4.0","","2.2","","88","","","","24","","37","","24.1","","101.27","","","","","","NA"
"-61.78","47.43","ILES DE LA MADELEINE A","7053250","2018-01-28 13:00","2018","01","28","13:00","4.1","","2.1","","87","","","","24","","35","","32.2","","101.22","","","","","","NA"
"-61.78","47.43","ILES DE LA MADELEINE A","7053250","2018-01-28 14:00","2018","01","28","14:00","4.6","","1.6","","81","","","","25","","44","","24.1","","101.24","","","","","","Mostly Cloudy"
"-61.78","47.43","ILES DE LA MADELEINE A","7053250","2018-01-28 15:00","2018","01","28","15:00","4.0","","0.7","","79","","","","24","","39","","32.2","","101.28","","","","","","NA"
"-61.78","47.43","ILES DE LA MADELEINE A","7053250","2018-01-28 16:00","2018","01","28","16:00","3.4","","0.6","","82","","","","24","","30","","32.2","","101.38","","","","","","NA"
"-61.78","47.43","ILES DE LA MADELEINE A","7053250","2018-01-28 17:00","2018","01","28","17:00","2.9","","0.1","","82","","","","24","","28","","32.2","","101.46","","","","","","Mainly Clear"
"-61.78","47.43","ILES DE LA MADELEINE A","7053250","2018-01-28 18:00","2018","01","28","18:00","2.6","","-0.6","","80","","","","24","","27","","24.1","","101.51","","","","","","NA"
"-61.78","47.43","ILES DE LA MADELEINE A","7053250","2018-01-28 19:00","2018","01","28","19:00","2.3","","-0.4","","82","","","","24","","28","","24.1","","101.56","","","","","","NA"
"-61.78","47.43","ILES DE LA MADELEINE A","7053250","2018-01-28 20:00","2018","01","28","20:00","2.0","","-1.1","","80","","","","25","","28","","24.1","","101.66","","","","","","Mainly Clear"
"-61.78","47.43","ILES DE LA MADELEINE A","7053250","2018-01-28 21:00","2018","01","28","21:00","1.0","","-1.7","","82","","","","26","","26","","24.1","","101.74","","","","","","NA"
"-61.78","47.43","ILES DE LA MADELEINE A","7053250","2018-01-28 22:00","2018","01","28","22:00","0.7","","-2.2","","81","","","","27","","26","","24.1","","101.80","","","","","","NA"
"-61.78","47.43","ILES DE LA MADELEINE A","7053250","2018-01-28 23:00","2018","01","28","23:00","0.0","","-3.3","","79","","","","29","","31","","24.1","","101.89","","","","-7","","Mostly Cloudy"
"-61.78","47.43","ILES DE LA MADELEINE A","7053250","2018-01-29 00:00","2018","01","29","00:00"
"-61.78","47.43","ILES DE LA MADELEINE A","7053250","2018-01-29 01:00","2018","01","29","01:00"
"-61.78","47.43","ILES DE LA MADELEINE A","7053250","2018-01-29 02:00","2018","01","29","02:00"
"-61.78","47.43","ILES DE LA MADELEINE A","7053250","2018-01-29 03:00","2018","01","29","03:00"
"-61.78","47.43","ILES DE LA MADELEINE A","7053250","2018-01-29 04:00","2018","01","29","04:00"
"-61.78","47.43","ILES DE LA MADELEINE A","7053250","2018-01-29 05:00","2018","01","29","05:00"
"-61.78","47.43","ILES DE LA MADELEINE A","7053250","2018-01-29 06:00","2018","01","29","06:00","-6.6","","-11.2","","70","","","","33","","27","","24.1","","102.60","","","","-15","","NA"
"-61.78","47.43","ILES DE LA MADELEINE A","7053250","2018-01-29 07:00","2018","01","29","07:00","-7.0","","-10.9","","74","","","","35","","26","","24.1","","102.68","","","","-15","","NA"
"-61.78","47.43","ILES DE LA MADELEINE A","7053250","2018-01-29 08:00","2018","01","29","08:00","-7.9","","-12.3","","71","","","","36","","25","","32.2","","102.79","","","","-16","","Mostly Cloudy"
"-61.78","47.43","ILES DE LA MADELEINE A","7053250","2018-01-29 09:00","2018","01","29","09:00","-7.9","","-12.1","","72","","","","35","","22","","32.2","","102.85","","","","-16","","NA"
"-61.78","47.43","ILES DE LA MADELEINE A","7053250","2018-01-29 10:00","2018","01","29","10:00","-7.3","","-12.1","","69","","","","34","","21","","32.2","","102.95","","","","-15","","NA"
"-61.78","47.43","ILES DE LA MADELEINE A","7053250","2018-01-29 11:00","2018","01","29","11:00","-7.3","","-12.5","","66","","","","36","","20","","32.2","","103.03","","","","-14","","Mostly Cloudy"
"-61.78","47.43","ILES DE LA MADELEINE A","7053250","2018-01-29 12:00","2018","01","29","12:00","-6.8","","-12.3","","65","","","","35","","21","","32.2","","102.98","","","","-14","","NA"
"-61.78","47.43","ILES DE LA MADELEINE A","7053250","2018-01-29 13:00","2018","01","29","13:00","-6.8","","-12.6","","64","","","","36","","17","","32.2","","102.94","","","","-13","","Snow Showers"
"-61.78","47.43","ILES DE LA MADELEINE A","7053250","2018-01-29 14:00","2018","01","29","14:00","-7.3","","-13.1","","64","","","","1","","19","","32.2","","102.92","","","","-14","","Mostly Cloudy"
"-61.78","47.43","ILES DE LA MADELEINE A","7053250","2018-01-29 15:00","2018","01","29","15:00","-7.4","","-12.8","","65","","","","1","","20","","32.2","","102.93","","","","-15","","NA"
"-61.78","47.43","ILES DE LA MADELEINE A","7053250","2018-01-29 16:00","2018","01","29","16:00","-7.6","","-12.9","","66","","","","3","","19","","32.2","","102.95","","","","-15","","NA"
"-61.78","47.43","ILES DE LA MADELEINE A","7053250","2018-01-29 17:00","2018","01","29","17:00","-8.0","","-13.0","","68","","","","2","","21","","32.2","","102.96","","","","-16","","Mostly Cloudy"
"-61.78","47.43","ILES DE LA MADELEINE A","7053250","2018-01-29 18:00","2018","01","29","18:00","-8.2","","-12.9","","69","","","","3","","19","","24.1","","102.98","","","","-15","","NA"
"-61.78","47.43","ILES DE LA MADELEINE A","7053250","2018-01-29 19:00","2018","01","29","19:00","-7.8","","-12.7","","68","","","","2","","16","","24.1","","103.02","","","","-14","","Snow Showers"
"-61.78","47.43","ILES DE LA MADELEINE A","7053250","2018-01-29 20:00","2018","01","29","20:00","-7.7","","-12.5","","68","","","","2","","15","","24.1","","103.03","","","","-14","","Snow Showers"
"-61.78","47.43","ILES DE LA MADELEINE A","7053250","2018-01-29 21:00","2018","01","29","21:00","-7.7","","-12.2","","71","","","","3","","17","","24.1","","103.02","","","","-14","","Snow Showers"
"-61.78","47.43","ILES DE LA MADELEINE A","7053250","2018-01-29 22:00","2018","01","29","22:00","-7.9","","-12.4","","70","","","","3","","18","","24.1","","102.97","","","","-15","","Snow Showers"
"-61.78","47.43","ILES DE LA MADELEINE A","7053250","2018-01-29 23:00","2018","01","29","23:00","-7.9","","-12.5","","70","","","","3","","22","","24.1","","102.86","","","","-16","","Snow Showers"
"-61.78","47.43","ILES DE LA MADELEINE A","7053250","2018-01-30 00:00","2018","01","30","00:00"
"-61.78","47.43","ILES DE LA MADELEINE A","7053250","2018-01-30 01:00","2018","01","30","01:00"
"-61.78","47.43","ILES DE LA MADELEINE A","7053250","2018-01-30 02:00","2018","01","30","02:00"
"-61.78","47.43","ILES DE LA MADELEINE A","7053250","2018-01-30 03:00","2018","01","30","03:00"
"-61.78","47.43","ILES DE LA MADELEINE A","7053250","2018-01-30 04:00","2018","01","30","04:00"
"-61.78","47.43","ILES DE LA MADELEINE A","7053250","2018-01-30 05:00","2018","01","30","05:00"
"-61.78","47.43","ILES DE LA MADELEINE A","7053250","2018-01-30 06:00","2018","01","30","06:00","-6.0","","-9.4","","77","","","","7","","39","","24.1","","102.12","","","","-15","","Snow"
"-61.78","47.43","ILES DE LA MADELEINE A","7053250","2018-01-30 07:00","2018","01","30","07:00","-5.8","","-10.0","","73","","","","7","","36","","24.1","","102.01","","","","-15","","Snow"
"-61.78","47.43","ILES DE LA MADELEINE A","7053250","2018-01-30 08:00","2018","01","30","08:00","-5.8","","-10.1","","72","","","","6","","41","","32.2","","101.83","","","","-15","","Cloudy"
"-61.78","47.43","ILES DE LA MADELEINE A","7053250","2018-01-30 09:00","2018","01","30","09:00","-5.7","","-10.0","","72","","","","6","","39","","32.2","","101.74","","","","-15","","NA"
"-61.78","47.43","ILES DE LA MADELEINE A","7053250","2018-01-30 10:00","2018","01","30","10:00","-5.4","","-9.8","","72","","","","5","","40","","32.2","","101.58","","","","-15","","NA"
"-61.78","47.43","ILES DE LA MADELEINE A","7053250","2018-01-30 11:00","2018","01","30","11:00","-5.4","","-8.3","","80","","","","5","","46","","3.2","","101.41","","","","-15","","Snow,Blowing Snow"
"-61.78","47.43","ILES DE LA MADELEINE A","7053250","2018-01-30 12:00","2018","01","30","12:00","-5.0","","-7.0","","86","","","","5","","46","","3.6","","101.19","","","","-15","","Snow,Ice Pellets,Blowing Snow"
"-61.78","47.43","ILES DE LA MADELEINE A","7053250","2018-01-30 13:00","2018","01","30","13:00","-5.0","","-6.7","","88","","","","4","","45","","2.8","","100.95","","","","-15","","Snow,Ice Pellets,Blowing Snow"
"-61.78","47.43","ILES DE LA MADELEINE A","7053250","2018-01-30 14:00","2018","01","30","14:00","-4.9","","-7.2","","84","","","","4","","53","","4.8","","100.76","","","","-15","","Snow,Blowing Snow"
"-61.78","47.43","ILES DE LA MADELEINE A","7053250","2018-01-30 15:00","2018","01","30","15:00","-4.8","","-6.7","","86","","","","4","","53","","3.2","","100.54","","","","-15","","Freezing Rain,Snow,Blowing Snow"
"-61.78","47.43","ILES DE LA MADELEINE A","7053250","2018-01-30 16:00","2018","01","30","16:00","-4.9","","-7.2","","84","","","","4","","59","","4.0","","100.45","","","","-15","","Freezing Drizzle,Snow,Blowing Snow"
"-61.78","47.43","ILES DE LA MADELEINE A","7053250","2018-01-30 17:00","2018","01","30","17:00","-5.0","","-6.5","","89","","","","3","","50","","4.0","","100.36","","","","-15","","Freezing Drizzle,Snow,Blowing Snow"
"-61.78","47.43","ILES DE LA MADELEINE A","7053250","2018-01-30 18:00","2018","01","30","18:00","-4.7","","-6.2","","89","","","","4","","55","","6.4","","100.24","","","","-15","","Freezing Drizzle,Snow,Blowing Snow"
"-61.78","47.43","ILES DE LA MADELEINE A","7053250","2018-01-30 19:00","2018","01","30","19:00","-4.9","","-6.0","","92","","","","4","","44","","2.4","","100.11","","","","-14","","Snow,Blowing Snow"
"-61.78","47.43","ILES DE LA MADELEINE A","7053250","2018-01-30 20:00","2018","01","30","20:00","-4.5","","-5.9","","90","","","","4","","50","","4.8","","99.84","","","","-14","","Snow,Blowing Snow"
"-61.78","47.43","ILES DE LA MADELEINE A","7053250","2018-01-30 21:00","2018","01","30","21:00","-4.4","","-5.8","","90","","","","4","","51","","4.8","","99.62","","","","-14","","Snow,Ice Pellets,Blowing Snow"
"-61.78","47.43","ILES DE LA MADELEINE A","7053250","2018-01-30 22:00","2018","01","30","22:00","-4.2","","-5.2","","92","","","","4","","55","","2.4","","99.28","","","","-14","","Freezing Drizzle,Snow,Blowing Snow"
"-61.78","47.43","ILES DE LA MADELEINE A","7053250","2018-01-30 23:00","2018","01","30","23:00","-3.8","","-5.0","","92","","","","3","","43","","3.2","","99.15","","","","-13","","Freezing Drizzle,Snow,Blowing Snow"
"-61.78","47.43","ILES DE LA MADELEINE A","7053250","2018-01-31 00:00","2018","01","31","00:00"
"-61.78","47.43","ILES DE LA MADELEINE A","7053250","2018-01-31 01:00","2018","01","31","01:00"
"-61.78","47.43","ILES DE LA MADELEINE A","7053250","2018-01-31 02:00","2018","01","31","02:00"
"-61.78","47.43","ILES DE LA MADELEINE A","7053250","2018-01-31 03:00","2018","01","31","03:00"
"-61.78","47.43","ILES DE LA MADELEINE A","7053250","2018-01-31 04:00","2018","01","31","04:00"
"-61.78","47.43","ILES DE LA MADELEINE A","7053250","2018-01-31 05:00","2018","01","31","05:00"
"-61.78","47.43","ILES DE LA MADELEINE A","7053250","2018-01-31 06:00","2018","01","31","06:00","-8.6","","-10.3","","88","","","","36","","65","","0.6","","98.75","","","","-21","","Snow,Blowing Snow"
"-61.78","47.43","ILES DE LA MADELEINE A","7053250","2018-01-31 07:00","2018","01","31","07:00","-9.1","","-10.9","","87","","","","32","","55","","1.2","","98.99","","","","-21","","Snow,Blowing Snow"
"-61.78","47.43","ILES DE LA MADELEINE A","7053250","2018-01-31 08:00","2018","01","31","08:00","-9.0","","-11.5","","82","","","","32","","55","","2.4","","99.17","","","","-21","","Snow,Blowing Snow"
"-61.78","47.43","ILES DE LA MADELEINE A","7053250","2018-01-31 09:00","2018","01","31","09:00","-9.2","","-11.5","","84","","","","32","","55","","2.4","","99.38","","","","-21","","Snow,Blowing Snow"
"-61.78","47.43","ILES DE LA MADELEINE A","7053250","2018-01-31 10:00","2018","01","31","10:00","-9.4","","-12.6","","78","","","","28","","50","","19.3","","99.60","","","","-21","","Blowing Snow"
"-61.78","47.43","ILES DE LA MADELEINE A","7053250","2018-01-31 11:00","2018","01","31","11:00","-9.7","","-12.3","","82","","","","27","","50","","3.2","","99.79","","","","-21","","Snow,Blowing Snow"
"-61.78","47.43","ILES DE LA MADELEINE A","7053250","2018-01-31 12:00","2018","01","31","12:00","-9.8","","-13.0","","77","","","","27","","53","","8.1","","99.89","","","","-22","","Snow,Blowing Snow"
"-61.78","47.43","ILES DE LA MADELEINE A","7053250","2018-01-31 13:00","2018","01","31","13:00","-9.9","","-12.9","","79","","","","27","","50","","19.3","","100.01","","","","-22","","Snow Showers,Blowing Snow"
"-61.78","47.43","ILES DE LA MADELEINE A","7053250","2018-01-31 14:00","2018","01","31","14:00","-9.8","","-12.9","","78","","","","27","","47","","32.2","","100.16","","","","-21","","Snow Showers,Blowing Snow"
"-61.78","47.43","ILES DE LA MADELEINE A","7053250","2018-01-31 15:00","2018","01","31","15:00","-9.6","","-12.5","","80","","","","27","","43","","32.2","","100.28","","","","-21","","NA"
"-61.78","47.43","ILES DE LA MADELEINE A","7053250","2018-01-31 16:00","2018","01","31","16:00","-9.7","","-12.8","","79","","","","27","","47","","32.2","","100.39","","","","-21","","NA"
"-61.78","47.43","ILES DE LA MADELEINE A","7053250","2018-01-31 17:00","2018","01","31","17:00","-9.2","","-12.1","","80","","","","27","","47","","24.1","","100.49","","","","-20","","Mostly Cloudy"
"-61.78","47.43","ILES DE LA MADELEINE A","7053250","2018-01-31 18:00","2018","01","31","18:00","-8.9","","-11.5","","82","","","","27","","39","","24.1","","100.62","","","","-19","","NA"
"-61.78","47.43","ILES DE LA MADELEINE A","7053250","2018-01-31 19:00","2018","01","31","19:00","-8.5","","-11.0","","82","","","","27","","33","","24.1","","100.78","","","","-18","","Snow"
"-61.78","47.43","ILES DE LA MADELEINE A","7053250","2018-01-31 20:00","2018","01","31","20:00","-8.3","","-10.8","","82","","","","27","","34","","24.1","","100.91","","","","-18","","Snow"
"-61.78","47.43","ILES DE LA MADELEINE A","7053250","2018-01-31 21:00","2018","01","31","21:00","-8.2","","-10.7","","82","","","","27","","33","","24.1","","101.01","","","","-18","","Snow"
"-61.78","47.43","ILES DE LA MADELEINE A","7053250","2018-01-31 22:00","2018","01","31","22:00","-8.7","","-11.1","","83","","","","27","","22","","24.1","","101.09","","","","-17","","NA"
"-61.78","47.43","ILES DE LA MADELEINE A","7053250","2018-01-31 23:00","2018","01","31","23:00","-9.4","","-11.5","","85","","","","25","","19","","24.1","","101.20","","","","-17","","Clear"
