"Longitude (x)","Latitude (y)","Station Name","Climate ID","Date/Time (LST)","Year","Month","Day","Time (LST)","Temp (°C)","Temp Flag","Dew Point Temp (°C)","Dew Point Temp Flag","Rel Hum (%)","Rel Hum Flag","Precip. Amount (mm)","Precip. Amount Flag","Wind Dir (10s deg)","Wind Dir Flag","Wind Spd (km/h)","Wind Spd Flag","Visibility (km)","Visibility Flag","Stn Press (kPa)","Stn Press Flag","Hmdx","Hmdx Flag","Wind Chill","Wind Chill Flag","Weather"
"-77.97","72.69","POND INLET A","2403206","2019-01-01 00:00","2019","01","01","00:00","-27.4","","-29.9","","80","","0.0","","","","0","","16.1","","100.69","","","","","","NA"
"-77.97","72.69","POND INLET A","2403206","2019-01-01 01:00","2019","01","01","01:00","-26.3","","-28.7","","81","","0.0","","11","","4","","6.4","","100.65","","","","-30","","Haze"
"-77.97","72.69","POND INLET A","2403206","2019-01-01 02:00","2019","01","01","02:00","-25.7","","-28.2","","80","","0.0","","","","0","","16.1","","100.59","","","","","","NA"
"-77.97","72.69","POND INLET A","2403206","2019-01-01 03:00","2019","01","01","03:00","-25.7","","-28.2","","80","","0.0","","","","0","","12.9","","100.50","","","","","","NA"
"-77.97","72.69","POND INLET A","2403206","2019-01-01 04:00","2019","01","01","04:00","-25.5","","-27.9","","81","","0.0","","","M","4","","16.1","","100.41","","","","-30","","NA"
"-77.97","72.69","POND INLET A","2403206","2019-01-01 05:00","2019","01","01","05:00","-25.4","","-27.6","","82","","0.0","","21","","8","","16.1","","100.31","","","","-33","","NA"
"-77.97","72.69","POND INLET A","2403206","2019-01-01 06:00","2019","01","01","06:00","-24.5","","-26.8","","82","","0.0","","17","","4","","4.8","","100.24","","","","-28","","Snow"
"-77.97","72.69","POND INLET A","2403206","2019-01-01 07:00","2019","01","01","07:00","-25.0","","-27.2","","82","","0.0","","20","","5","","4.8","","100.17","","","","-30","","Snow"
"-77.97","72.69","POND INLET A","2403206","2019-01-01 08:00","2019","01","01","08:00","-24.2","","-26.3","","83","","0.1","","20","","9","","2.8","","100.07","","","","-32","","Snow"
"-77.97","72.69","POND INLET A","2403206","2019-01-01 09:00","2019","01","01","09:00","-25.7","","-28.1","","81","","0.1","","25","","8","","9.7","","100.00","","","","-33","","Snow"
"-77.97","72.69","POND INLET A","2403206","2019-01-01 10:00","2019","01","01","10:00","-25.6","","-28.0","","81","","0.0","","22","","5","","4.8","","99.98","","","","-31","","Snow"
"-77.97","72.69","POND INLET A","2403206","2019-01-01 11:00","2019","01","01","11:00","-25.4","","-27.8","","81","","0.0","","24","","5","","14.5","","99.96","","","","-30","","Snow"
"-77.97","72.69","POND INLET A","2403206","2019-01-01 12:00","2019","01","01","12:00","-25.1","","-27.5","","81","","0.0","","26","","4","","14.5","","99.96","","","","-29","","Snow"
"-77.97","72.69","POND INLET A","2403206","2019-01-01 13:00","2019","01","01","13:00","-24.0","","-26.1","","83","","0.0","","18","","11","","4.8","","99.94","","","","-32","","Snow"
"-77.97","72.69","POND INLET A","2403206","2019-01-01 14:00","2019","01","01","14:00","-23.0","","-25.1","","83","","0.0","","","","0","","11.3","","99.96","","","","","","Snow"
"-77.97","72.69","POND INLET A","2403206","2019-01-01 15:00","2019","01","01","15:00","-22.7","","-24.7","","84","","0.0","","","","0","","16.1","","99.95","","","","","","Snow"
"-77.97","72.69","POND INLET A","2403206","2019-01-01 16:00","2019","01","01","16:00","-22.9","","-25.0","","83","","0.0","","23","","4","","16.1","","99.93","","","","-27","","Snow"
"-77.97","72.69","POND INLET A","2403206","2019-01-01 17:00","2019","01","01","17:00","-22.4","","-24.4","","84","","0.0","","15","","11","","16.1","","99.88","","","","-31","","NA"
"-77.97","72.69","POND INLET A","2403206","2019-01-01 18:00","2019","01","01","18:00","-21.6","","-23.5","","85","","0.0","","15","","11","","16.1","","99.85","","","","-30","","NA"
"-77.97","72.69","POND INLET A","2403206","2019-01-01 19:00","2019","01","01","19:00","-21.6","","-23.5","","85","","0.0","","18","","9","","11.3","","99.84","","","","-29","","Snow"
"-77.97","72.69","POND INLET A","2403206","2019-01-01 20:00","2019","01","01","20:00","-21.4","","-23.3","","85","","0.0","","15","","11","","14.5","","99.81","","","","-29","","Snow"
"-77.97","72.69","POND INLET A","2403206","2019-01-01 21:00","2019","01","01","21:00","-21.5","","-23.4","","85","","0.0","","19","","9","","16.1","","99.75","","","","-29","","Snow"
"-77.97","72.69","POND INLET A","2403206","2019-01-01 22:00","2019","01","01","22:00","-21.4","","-23.3","","85","","0.0","","21","","8","","16.1","","99.72","","","","-28","","NA"
"-77.97","72.69","POND INLET A","2403206","2019-01-01 23:00","2019","01","01","23:00","-21.7","","-23.6","","85","","0.0","","21","","9","","14.5","","99.70","","","","-29","","Snow"
"-77.97","72.69","POND INLET A","2403206","2019-01-02 00:00","2019","01","02","00:00","-22.0","","-23.9","","85","","0.0","","20","","11","","12.9","","99.67","","","","-30","","Snow"
"-77.97","72.69","POND INLET A","2403206","2019-01-02 01:00","2019","01","02","01:00","-22.1","","-24.1","","84","","0.0","","19","","11","","12.9","","99.68","","","","-30","","Snow"
"-77.97","72.69","POND INLET A","2403206","2019-01-02 02:00","2019","01","02","02:00","-22.4","","-24.4","","84","","0.0","","21","","11","","8.1","","99.68","","","","-31","","Snow"
"-77.97","72.69","POND INLET A","2403206","2019-01-02 03:00","2019","01","02","03:00","-23.0","","-25.1","","83","","0.0","","20","","9","","11.3","","99.72","","","","-30","","Snow"
"-77.97","72.69","POND INLET A","2403206","2019-01-02 04:00","2019","01","02","04:00","-25.5","","-27.9","","81","","0.0","","19","","9","","14.5","","99.75","","","","-33","","Snow"
"-77.97","72.69","POND INLET A","2403206","2019-01-02 05:00","2019","01","02","05:00","-27.8","","-30.5","","78","","0.0","","17","","11","","16.1","","99.78","","","","-37","","NA"
"-77.97","72.69","POND INLET A","2403206","2019-01-02 06:00","2019","01","02","06:00","-27.3","","-29.6","","81","","0.0","","16","","11","","16.1","","99.79","","","","-36","","NA"
"-77.97","72.69","POND INLET A","2403206","2019-01-02 07:00","2019","01","02","07:00","-28.6","","-31.4","","77","","0.0","","17","","11","","16.1","","99.79","","","","-38","","NA"
"-77.97","72.69","POND INLET A","2403206","2019-01-02 08:00","2019","01","02","08:00","-28.6","","-31.3","","78","","0.0","","19","","9","","16.1","","99.82","","","","-37","","NA"
"-77.97","72.69","POND INLET A","2403206","2019-01-02 09:00","2019","01","02","09:00","-29.3","","-32.1","","77","","0.0","","20","","9","","16.1","","99.84","","","","-38","","NA"
"-77.97","72.69","POND INLET A","2403206","2019-01-02 10:00","2019","01","02","10:00","-30.0","","-33.0","","76","","0.0","","18","","13","","16.1","","99.86","","","","-41","","NA"
"-77.97","72.69","POND INLET A","2403206","2019-01-02 11:00","2019","01","02","11:00","-28.4","","-30.9","","80","","0.0","","16","","17","","16.1","","99.87","","","","-40","","NA"
"-77.97","72.69","POND INLET A","2403206","2019-01-02 12:00","2019","01","02","12:00","-29.6","","-32.4","","77","","0.0","","16","","13","","16.1","","99.88","","","","-40","","NA"
"-77.97","72.69","POND INLET A","2403206","2019-01-02 13:00","2019","01","02","13:00","-29.3","","-32.3","","76","","0.0","","17","","13","","16.1","","99.89","","","","-40","","NA"
"-77.97","72.69","POND INLET A","2403206","2019-01-02 14:00","2019","01","02","14:00","-29.8","","-32.6","","77","","0.0","","16","","13","","16.1","","99.92","","","","-40","","NA"
"-77.97","72.69","POND INLET A","2403206","2019-01-02 15:00","2019","01","02","15:00","-29.9","","-32.7","","77","","0.0","","17","","11","","16.1","","99.94","","","","-40","","NA"
"-77.97","72.69","POND INLET A","2403206","2019-01-02 16:00","2019","01","02","16:00","-31.2","","-34.5","","74","","0.0","","17","","15","","16.1","","99.97","","","","-43","","NA"
"-77.97","72.69","POND INLET A","2403206","2019-01-02 17:00","2019","01","02","17:00","-30.4","","-33.2","","77","","0.0","","16","","13","","16.1","","99.98","","","","-41","","NA"
"-77.97","72.69","POND INLET A","2403206","2019-01-02 18:00","2019","01","02","18:00","-31.4","","-34.4","","76","","0.0","","16","","11","","16.1","","99.98","","","","-41","","NA"
"-77.97","72.69","POND INLET A","2403206","2019-01-02 19:00","2019","01","02","19:00","-31.3","","-34.2","","76","","0.0","","18","","11","","16.1","","99.96","","","","-41","","NA"
"-77.97","72.69","POND INLET A","2403206","2019-01-02 20:00","2019","01","02","20:00","-31.1","","-34.1","","76","","0.0","","16","","11","","16.1","","99.94","","","","-41","","NA"
"-77.97","72.69","POND INLET A","2403206","2019-01-02 21:00","2019","01","02","21:00","-30.5","","-33.4","","77","","0.0","","19","","8","","16.1","","99.90","","","","-39","","NA"
"-77.97","72.69","POND INLET A","2403206","2019-01-02 22:00","2019","01","02","22:00","-31.1","","-34.3","","74","","0.0","","18","","8","","16.1","","99.92","","","","-39","","NA"
"-77.97","72.69","POND INLET A","2403206","2019-01-02 23:00","2019","01","02","23:00","-32.1","","-35.4","","73","","0.0","","16","","8","","16.1","","99.89","","","","-40","","NA"
"-77.97","72.69","POND INLET A","2403206","2019-01-03 00:00","2019","01","03","00:00","-31.9","","-35.1","","74","","0.0","","17","","9","","16.1","","99.87","","","","-41","","NA"
"-77.97","72.69","POND INLET A","2403206","2019-01-03 01:00","2019","01","03","01:00","-32.9","","-35.9","","75","","0.0","","17","","9","","16.1","","99.88","","","","-42","","NA"
"-77.97","72.69","POND INLET A","2403206","2019-01-03 02:00","2019","01","03","02:00","-32.9","","-36.1","","74","","0.0","","17","","13","","16.1","","99.83","","","","-44","","NA"
"-77.97","72.69","POND INLET A","2403206","2019-01-03 03:00","2019","01","03","03:00","-31.8","","-35.0","","74","","0.0","","22","","5","","16.1","","99.83","","","","-38","","NA"
"-77.97","72.69","POND INLET A","2403206","2019-01-03 04:00","2019","01","03","04:00","-31.6","","-34.7","","75","","0.0","","21","","8","","16.1","","99.82","","","","-40","","NA"
"-77.97","72.69","POND INLET A","2403206","2019-01-03 05:00","2019","01","03","05:00","-32.1","","-35.3","","74","","0.0","","19","","8","","16.1","","99.80","","","","-40","","NA"
"-77.97","72.69","POND INLET A","2403206","2019-01-03 06:00","2019","01","03","06:00","-32.4","","-35.6","","74","","0.0","","17","","8","","16.1","","99.78","","","","-41","","NA"
"-77.97","72.69","POND INLET A","2403206","2019-01-03 07:00","2019","01","03","07:00","-34.0","","-37.3","","73","","0.0","","15","","11","","6.4","","99.75","","","","-44","","Haze"
"-77.97","72.69","POND INLET A","2403206","2019-01-03 08:00","2019","01","03","08:00","-32.3","","-35.4","","75","","0.0","","20","","8","","16.1","","99.72","","","","-41","","NA"
"-77.97","72.69","POND INLET A","2403206","2019-01-03 09:00","2019","01","03","09:00","-32.4","","-35.3","","76","","0.0","","19","","8","","16.1","","99.70","","","","-41","","NA"
"-77.97","72.69","POND INLET A","2403206","2019-01-03 10:00","2019","01","03","10:00","-32.5","","-35.7","","74","","0.0","","21","","9","","16.1","","99.70","","","","-42","","NA"
"-77.97","72.69","POND INLET A","2403206","2019-01-03 11:00","2019","01","03","11:00","-33.4","","-36.6","","74","","0.0","","19","","5","","12.9","","99.69","","","","-39","","NA"
"-77.97","72.69","POND INLET A","2403206","2019-01-03 12:00","2019","01","03","12:00","-33.1","","-36.4","","73","","0.0","","17","","11","","12.9","","99.66","","","","-43","","NA"
"-77.97","72.69","POND INLET A","2403206","2019-01-03 13:00","2019","01","03","13:00","-33.4","","-36.7","","73","","0.0","","16","","9","","16.1","","99.62","","","","-43","","NA"
"-77.97","72.69","POND INLET A","2403206","2019-01-03 14:00","2019","01","03","14:00","-34.0","","-37.3","","73","","0.0","","20","","4","","16.1","","99.64","","","","-39","","NA"
"-77.97","72.69","POND INLET A","2403206","2019-01-03 15:00","2019","01","03","15:00","-33.6","","-36.8","","74","","0.0","","18","","5","","14.5","","99.63","","","","-40","","NA"
"-77.97","72.69","POND INLET A","2403206","2019-01-03 16:00","2019","01","03","16:00","-33.4","","-36.7","","73","","0.0","","16","","4","","16.1","","99.62","","","","-38","","NA"
"-77.97","72.69","POND INLET A","2403206","2019-01-03 17:00","2019","01","03","17:00","-31.6","","-34.7","","75","","0.0","","19","","4","","11.3","","99.63","","","","-36","","NA"
"-77.97","72.69","POND INLET A","2403206","2019-01-03 18:00","2019","01","03","18:00","-31.1","","-34.0","","76","","0.0","","","M","4","","14.5","","99.62","","","","-36","","NA"
"-77.97","72.69","POND INLET A","2403206","2019-01-03 19:00","2019","01","03","19:00","-32.6","","-35.8","","74","","0.0","","","M","4","","9.7","","99.57","","","","-37","","Haze"
"-77.97","72.69","POND INLET A","2403206","2019-01-03 20:00","2019","01","03","20:00","-31.4","","-34.5","","75","","0.0","","","","0","","9.7","","99.56","","","","","","Haze"
"-77.97","72.69","POND INLET A","2403206","2019-01-03 21:00","2019","01","03","21:00","-31.7","","-34.8","","75","","0.0","","22","","4","","16.1","","99.50","","","","-36","","NA"
"-77.97","72.69","POND INLET A","2403206","2019-01-03 22:00","2019","01","03","22:00","-31.2","","-34.3","","75","","0.0","","25","","8","","16.1","","99.46","","","","-39","","NA"
"-77.97","72.69","POND INLET A","2403206","2019-01-03 23:00","2019","01","03","23:00","-30.7","","-33.7","","76","","0.0","","","","0","","16.1","","99.40","","","","","","NA"
"-77.97","72.69","POND INLET A","2403206","2019-01-04 00:00","2019","01","04","00:00","-30.9","","-33.8","","76","","0.0","","17","","9","","14.5","","99.32","","","","-40","","NA"
"-77.97","72.69","POND INLET A","2403206","2019-01-04 01:00","2019","01","04","01:00","-29.5","","-32.3","","77","","0.0","","17","","9","","16.1","","99.25","","","","-38","","NA"
"-77.97","72.69","POND INLET A","2403206","2019-01-04 02:00","2019","01","04","02:00","-29.2","","-32.0","","77","","0.0","","23","","8","","9.7","","99.22","","","","-37","","Snow"
"-77.97","72.69","POND INLET A","2403206","2019-01-04 03:00","2019","01","04","03:00","-29.5","","-32.3","","77","","0.0","","24","","15","","8.1","","99.20","","","","-41","","Snow"
"-77.97","72.69","POND INLET A","2403206","2019-01-04 04:00","2019","01","04","04:00","-29.2","","-32.0","","77","","0.0","","23","","17","","8.1","","99.10","","","","-41","","Snow"
"-77.97","72.69","POND INLET A","2403206","2019-01-04 05:00","2019","01","04","05:00","-27.7","","-30.3","","79","","0.0","","23","","17","","6.4","","99.04","","","","-39","","Snow"
"-77.97","72.69","POND INLET A","2403206","2019-01-04 06:00","2019","01","04","06:00","-27.1","","-29.7","","79","","0.0","","20","","13","","2.4","","99.01","","","","-37","","Snow"
"-77.97","72.69","POND INLET A","2403206","2019-01-04 07:00","2019","01","04","07:00","-26.3","","-28.8","","80","","0.0","","19","","9","","3.6","","98.96","","","","-34","","Snow"
"-77.97","72.69","POND INLET A","2403206","2019-01-04 08:00","2019","01","04","08:00","-25.9","","-28.3","","81","","0.0","","30","","5","","3.6","","98.94","","","","-31","","Snow"
"-77.97","72.69","POND INLET A","2403206","2019-01-04 09:00","2019","01","04","09:00","-26.5","","-29.1","","80","","0.0","","","M","4","","3.2","","98.88","","","","-31","","Snow"
"-77.97","72.69","POND INLET A","2403206","2019-01-04 10:00","2019","01","04","10:00","-27.4","","-30.0","","79","","0.0","","19","","5","","11.3","","98.85","","","","-33","","Snow"
"-77.97","72.69","POND INLET A","2403206","2019-01-04 11:00","2019","01","04","11:00","-27.2","","-29.6","","80","","0.0","","16","","5","","11.3","","98.80","","","","-32","","Snow"
"-77.97","72.69","POND INLET A","2403206","2019-01-04 12:00","2019","01","04","12:00","-25.1","","-27.5","","81","","0.0","","19","","8","","16.1","","98.77","","","","-32","","Snow"
"-77.97","72.69","POND INLET A","2403206","2019-01-04 13:00","2019","01","04","13:00","-24.4","","-26.5","","83","","0.0","","14","","8","","16.1","","98.73","","","","-31","","NA"
"-77.97","72.69","POND INLET A","2403206","2019-01-04 14:00","2019","01","04","14:00","-28.5","","-31.2","","78","","0.0","","4","","4","","9.7","","98.72","","","","-33","","Haze"
"-77.97","72.69","POND INLET A","2403206","2019-01-04 15:00","2019","01","04","15:00","-28.6","","-31.2","","79","","0.0","","8","","5","","12.9","","98.71","","","","-34","","NA"
"-77.97","72.69","POND INLET A","2403206","2019-01-04 16:00","2019","01","04","16:00","-25.8","","-27.9","","83","","0.0","","","M","4","","16.1","","98.71","","","","-30","","NA"
"-77.97","72.69","POND INLET A","2403206","2019-01-04 17:00","2019","01","04","17:00","-26.1","","-28.5","","81","","0.0","","","","0","","16.1","","98.72","","","","","","NA"
"-77.97","72.69","POND INLET A","2403206","2019-01-04 18:00","2019","01","04","18:00","-25.2","","-27.4","","82","","0.0","","","","0","","11.3","","98.71","","","","","","NA"
"-77.97","72.69","POND INLET A","2403206","2019-01-04 19:00","2019","01","04","19:00","-26.0","","-28.5","","80","","0.0","","17","","8","","16.1","","98.72","","","","-33","","NA"
"-77.97","72.69","POND INLET A","2403206","2019-01-04 20:00","2019","01","04","20:00","-26.1","","-28.3","","82","","0.0","","19","","5","","16.1","","98.76","","","","-31","","Snow"
"-77.97","72.69","POND INLET A","2403206","2019-01-04 21:00","2019","01","04","21:00","-26.0","","-28.4","","81","","0.0","","","M","4","","16.1","","98.79","","","","-30","","NA"
"-77.97","72.69","POND INLET A","2403206","2019-01-04 22:00","2019","01","04","22:00","-25.1","","-27.3","","82","","0.0","","","","0","","16.1","","98.83","","","","","","NA"
"-77.97","72.69","POND INLET A","2403206","2019-01-04 23:00","2019","01","04","23:00","-24.3","","-26.6","","82","","0.0","","","","0","","11.3","","98.85","","","","","","NA"
"-77.97","72.69","POND INLET A","2403206","2019-01-05 00:00","2019","01","05","00:00","-23.9","","-26.0","","83","","0.0","","18","","8","","16.1","","98.91","","","","-31","","NA"
"-77.97","72.69","POND INLET A","2403206","2019-01-05 01:00","2019","01","05","01:00","-23.7","","-25.8","","83","","0.0","","18","","8","","16.1","","99.02","","","","-31","","NA"
"-77.97","72.69","POND INLET A","2403206","2019-01-05 02:00","2019","01","05","02:00","-23.5","","-25.6","","83","","0.0","","18","","5","","16.1","","99.10","","","","-28","","NA"
"-77.97","72.69","POND INLET A","2403206","2019-01-05 03:00","2019","01","05","03:00","-23.5","","-25.6","","83","","0.0","","20","","8","","16.1","","99.16","","","","-30","","NA"
"-77.97","72.69","POND INLET A","2403206","2019-01-05 04:00","2019","01","05","04:00","-23.3","","-25.4","","83","","0.0","","17","","11","","16.1","","99.23","","","","-32","","NA"
"-77.97","72.69","POND INLET A","2403206","2019-01-05 05:00","2019","01","05","05:00","-23.2","","-25.3","","83","","0.0","","18","","11","","8.1","","99.31","","","","-31","","Snow"
"-77.97","72.69","POND INLET A","2403206","2019-01-05 06:00","2019","01","05","06:00","-23.5","","-25.6","","83","","0.0","","19","","9","","11.3","","99.37","","","","-31","","Snow"
"-77.97","72.69","POND INLET A","2403206","2019-01-05 07:00","2019","01","05","07:00","-23.4","","-25.5","","83","","0.0","","20","","11","","9.7","","99.42","","","","-32","","Snow"
"-77.97","72.69","POND INLET A","2403206","2019-01-05 08:00","2019","01","05","08:00","-23.8","","-25.9","","83","","0.0","","21","","11","","8.1","","99.48","","","","-32","","Snow"
"-77.97","72.69","POND INLET A","2403206","2019-01-05 09:00","2019","01","05","09:00","-24.9","","-27.1","","82","","0.0","","23","","11","","11.3","","99.59","","","","-34","","Snow"
"-77.97","72.69","POND INLET A","2403206","2019-01-05 10:00","2019","01","05","10:00","-25.7","","-28.1","","81","","0.0","","22","","11","","11.3","","99.66","","","","-34","","NA"
"-77.97","72.69","POND INLET A","2403206","2019-01-05 11:00","2019","01","05","11:00","-27.1","","-29.7","","79","","0.0","","24","","11","","16.1","","99.74","","","","-36","","NA"
"-77.97","72.69","POND INLET A","2403206","2019-01-05 12:00","2019","01","05","12:00","-28.0","","-30.6","","79","","0.0","","","","0","","6.4","","99.80","","","","","","Fog"
"-77.97","72.69","POND INLET A","2403206","2019-01-05 13:00","2019","01","05","13:00","-28.7","","-31.7","","76","","0.0","","18","","5","","16.1","","99.88","","","","-34","","NA"
"-77.97","72.69","POND INLET A","2403206","2019-01-05 14:00","2019","01","05","14:00","-28.5","","-31.2","","78","","0.0","","16","","15","","12.9","","99.96","","","","-40","","NA"
"-77.97","72.69","POND INLET A","2403206","2019-01-05 15:00","2019","01","05","15:00","-28.6","","-31.2","","79","","0.0","","14","","21","","16.1","","100.05","","","","-42","","NA"
"-77.97","72.69","POND INLET A","2403206","2019-01-05 16:00","2019","01","05","16:00","-29.1","","-32.1","","76","","0.0","","15","","21","","16.1","","100.14","","","","-42","","NA"
"-77.97","72.69","POND INLET A","2403206","2019-01-05 17:00","2019","01","05","17:00","-30.1","","-33.2","","75","","0.0","","14","","17","","16.1","","100.19","","","","-42","","NA"
"-77.97","72.69","POND INLET A","2403206","2019-01-05 18:00","2019","01","05","18:00","-29.9","","-32.4","","79","","0.0","","15","","17","","16.1","","100.26","","","","-42","","NA"
"-77.97","72.69","POND INLET A","2403206","2019-01-05 19:00","2019","01","05","19:00","-28.5","","-31.1","","79","","0.0","","14","","13","","16.1","","100.30","","","","-39","","NA"
"-77.97","72.69","POND INLET A","2403206","2019-01-05 20:00","2019","01","05","20:00","-28.9","","-31.5","","79","","0.0","","7","","15","","16.1","","100.33","","","","-40","","NA"
"-77.97","72.69","POND INLET A","2403206","2019-01-05 21:00","2019","01","05","21:00","-28.4","","-30.9","","80","","0.0","","7","","13","","16.1","","100.34","","","","-39","","NA"
"-77.97","72.69","POND INLET A","2403206","2019-01-05 22:00","2019","01","05","22:00","-30.0","","-32.7","","78","","0.0","","","","0","","16.1","","100.35","","","","","","NA"
"-77.97","72.69","POND INLET A","2403206","2019-01-05 23:00","2019","01","05","23:00","-30.3","","-33.3","","76","","0.0","","","M","4","","16.1","","100.33","","","","-35","","NA"
"-77.97","72.69","POND INLET A","2403206","2019-01-06 00:00","2019","01","06","00:00","-31.6","","-34.8","","74","","0.0","","18","","5","","16.1","","100.29","","","","-37","","NA"
"-77.97","72.69","POND INLET A","2403206","2019-01-06 01:00","2019","01","06","01:00","-29.6","","-32.7","","75","","0.0","","20","","9","","16.1","","100.25","","","","-38","","NA"
"-77.97","72.69","POND INLET A","2403206","2019-01-06 02:00","2019","01","06","02:00","-23.5","","-25.6","","83","","0.0","","","M","","M","1.6","","100.16","","","","","","Snow"
"-77.97","72.69","POND INLET A","2403206","2019-01-06 03:00","2019","01","06","03:00","-22.7","","-24.7","","84","","0.0","","5","","35","","1.2","","100.08","","","","-37","","Snow"
"-77.97","72.69","POND INLET A","2403206","2019-01-06 04:00","2019","01","06","04:00","-23.2","","-25.3","","84","","0.0","","7","","39","","1.2","","100.09","","","","-38","","Snow"
"-77.97","72.69","POND INLET A","2403206","2019-01-06 05:00","2019","01","06","05:00","-23.0","","-25.0","","84","","0.0","","6","","41","","1.2","","100.02","","","","-38","","Snow,Blowing Snow"
"-77.97","72.69","POND INLET A","2403206","2019-01-06 06:00","2019","01","06","06:00","-23.0","","-25.0","","84","","0.0","","5","","45","","1.2","","99.95","","","","-39","","Snow,Blowing Snow"
"-77.97","72.69","POND INLET A","2403206","2019-01-06 07:00","2019","01","06","07:00","-22.4","","-24.4","","84","","0.1","","","M","","M","0.6","","99.99","","","","","","Moderate Snow"
"-77.97","72.69","POND INLET A","2403206","2019-01-06 08:00","2019","01","06","08:00","-21.3","","-23.2","","85","","0.1","","7","","46","","1.0","","99.97","","","","-37","","Snow,Blowing Snow"
"-77.97","72.69","POND INLET A","2403206","2019-01-06 09:00","2019","01","06","09:00","-18.5","","-20.2","","87","","0.0","","9","","37","","2.0","","99.95","","","","-32","","Snow"
"-77.97","72.69","POND INLET A","2403206","2019-01-06 10:00","2019","01","06","10:00","-15.6","","-17.0","","89","","0.0","","6","","28","","9.7","","99.97","","","","-26","","Snow"
"-77.97","72.69","POND INLET A","2403206","2019-01-06 11:00","2019","01","06","11:00","-18.8","","-20.3","","88","","0.0","","8","","45","","3.6","","100.00","","","","-33","","Snow,Blowing Snow"
"-77.97","72.69","POND INLET A","2403206","2019-01-06 12:00","2019","01","06","12:00","-18.1","","-19.4","","90","","0.0","","7","","50","","2.4","","99.90","","","","-33","","Snow,Blowing Snow"
"-77.97","72.69","POND INLET A","2403206","2019-01-06 13:00","2019","01","06","13:00","-17.5","","-18.9","","89","","0.0","","7","","52","","1.6","","100.02","","","","-32","","Snow,Blowing Snow"
"-77.97","72.69","POND INLET A","2403206","2019-01-06 14:00","2019","01","06","14:00","-18.4","","-20.1","","87","","0.0","","8","","35","","1.2","","100.07","","","","-31","","Snow"
"-77.97","72.69","POND INLET A","2403206","2019-01-06 15:00","2019","01","06","15:00","-19.4","","-21.1","","87","","0.0","","5","","50","","1.2","","100.08","","","","-35","","Snow,Blowing Snow"
"-77.97","72.69","POND INLET A","2403206","2019-01-06 16:00","2019","01","06","16:00","-18.5","","-20.0","","88","","0.0","","5","","50","","1.2","","100.06","","","","-33","","Snow,Blowing Snow"
"-77.97","72.69","POND INLET A","2403206","2019-01-06 17:00","2019","01","06","17:00","-17.7","","-19.1","","89","","0.0","","5","","50","","1.2","","100.12","","","","-32","","Snow,Blowing Snow"
"-77.97","72.69","POND INLET A","2403206","2019-01-06 18:00","2019","01","06","18:00","-17.1","","-18.4","","90","","0.0","","5","","52","","1.2","","100.09","","","","-32","","Snow,Blowing Snow"
"-77.97","72.69","POND INLET A","2403206","2019-01-06 19:00","2019","01","06","19:00","-16.8","","-18.2","","89","","0.0","","5","","54","","1.6","","100.12","","","","-31","","Snow,Blowing Snow"
"-77.97","72.69","POND INLET A","2403206","2019-01-06 20:00","2019","01","06","20:00","-16.9","","-18.2","","90","","0.0","","5","","54","","1.2","","100.10","","","","-32","","Snow,Blowing Snow"
"-77.97","72.69","POND INLET A","2403206","2019-01-06 21:00","2019","01","06","21:00","-16.9","","-18.3","","89","","0.0","","6","","45","","1.6","","100.17","","","","-31","","Snow,Blowing Snow"
"-77.97","72.69","POND INLET A","2403206","2019-01-06 22:00","2019","01","06","22:00","-17.4","","-19.1","","87","","0.0","","6","","52","","2.4","","100.20","","","","-32","","Snow,Blowing Snow"
"-77.97","72.69","POND INLET A","2403206","2019-01-06 23:00","2019","01","06","23:00","-17.3","","-19.7","","82","","0.0","","7","","54","","3.2","","100.21","","","","-32","","Snow,Blowing Snow"
"-77.97","72.69","POND INLET A","2403206","2019-01-07 00:00","2019","01","07","00:00","-17.1","","-20.9","","73","","0.0","","8","","48","","6.4","","100.19","","","","-31","","Snow"
"-77.97","72.69","POND INLET A","2403206","2019-01-07 01:00","2019","01","07","01:00","-16.7","","-22.3","","63","","0.0","","8","","45","","4.8","","100.23","","","","-30","","Snow"
"-77.97","72.69","POND INLET A","2403206","2019-01-07 02:00","2019","01","07","02:00","-16.5","","-24.4","","51","","0.0","","8","","41","","4.8","","100.26","","","","-30","","Snow"
"-77.97","72.69","POND INLET A","2403206","2019-01-07 03:00","2019","01","07","03:00","-16.3","","-24.8","","49","","0.0","","7","","39","","16.1","","100.34","","","","-29","","NA"
"-77.97","72.69","POND INLET A","2403206","2019-01-07 04:00","2019","01","07","04:00","-16.7","","-24.2","","53","","0.0","","7","","35","","16.1","","100.30","","","","-29","","NA"
"-77.97","72.69","POND INLET A","2403206","2019-01-07 05:00","2019","01","07","05:00","-15.2","","-25.5","","42","","0.0","","8","","46","","16.1","","100.32","","","","-28","","NA"
"-77.97","72.69","POND INLET A","2403206","2019-01-07 06:00","2019","01","07","06:00","-14.0","","-25.7","","37","","0.0","","7","","22","","16.1","","100.40","","","","-23","","NA"
"-77.97","72.69","POND INLET A","2403206","2019-01-07 07:00","2019","01","07","07:00","-13.7","","-26.0","","36","","0.0","","10","","37","","16.1","","100.39","","","","-25","","NA"
"-77.97","72.69","POND INLET A","2403206","2019-01-07 08:00","2019","01","07","08:00","-13.4","","-25.6","","36","","0.0","","9","","43","","16.1","","100.40","","","","-26","","NA"
"-77.97","72.69","POND INLET A","2403206","2019-01-07 09:00","2019","01","07","09:00","-13.7","","-26.3","","35","","0.0","","9","","39","","16.1","","100.44","","","","-26","","NA"
"-77.97","72.69","POND INLET A","2403206","2019-01-07 10:00","2019","01","07","10:00","-13.7","","-26.3","","35","","0.0","","10","","34","","16.1","","100.44","","","","-25","","NA"
"-77.97","72.69","POND INLET A","2403206","2019-01-07 11:00","2019","01","07","11:00","-19.7","","-25.5","","61","","0.0","","23","","9","","16.1","","100.47","","","","-26","","NA"
"-77.97","72.69","POND INLET A","2403206","2019-01-07 12:00","2019","01","07","12:00","-19.2","","-26.2","","55","","0.0","","","M","4","","16.1","","100.48","","","","-23","","NA"
"-77.97","72.69","POND INLET A","2403206","2019-01-07 13:00","2019","01","07","13:00","-19.4","","-26.9","","53","","0.0","","18","","8","","16.1","","100.49","","","","-26","","NA"
"-77.97","72.69","POND INLET A","2403206","2019-01-07 14:00","2019","01","07","14:00","-18.7","","-26.8","","50","","0.0","","","M","8","","16.1","","100.51","","","","-25","","NA"
"-77.97","72.69","POND INLET A","2403206","2019-01-07 15:00","2019","01","07","15:00","-18.6","","-26.4","","51","","0.0","","","M","4","","16.1","","100.50","","","","-22","","NA"
"-77.97","72.69","POND INLET A","2403206","2019-01-07 16:00","2019","01","07","16:00","-20.0","","-27.0","","55","","0.0","","","M","4","","16.1","","100.51","","","","-23","","NA"
"-77.97","72.69","POND INLET A","2403206","2019-01-07 17:00","2019","01","07","17:00","-21.3","","-28.0","","56","","0.0","","14","","9","","16.1","","100.54","","","","-28","","NA"
"-77.97","72.69","POND INLET A","2403206","2019-01-07 18:00","2019","01","07","18:00","-25.2","","-28.3","","76","","0.0","","21","","8","","16.1","","100.55","","","","-32","","NA"
"-77.97","72.69","POND INLET A","2403206","2019-01-07 19:00","2019","01","07","19:00","-25.0","","-27.8","","78","","0.0","","23","","4","","16.1","","100.54","","","","-29","","NA"
"-77.97","72.69","POND INLET A","2403206","2019-01-07 20:00","2019","01","07","20:00","-22.1","","-27.1","","64","","0.0","","8","","9","","16.1","","100.47","","","","-29","","NA"
"-77.97","72.69","POND INLET A","2403206","2019-01-07 21:00","2019","01","07","21:00","-26.1","","-30.1","","70","","0.0","","23","","9","","16.1","","100.45","","","","-34","","NA"
"-77.97","72.69","POND INLET A","2403206","2019-01-07 22:00","2019","01","07","22:00","-24.8","","-29.3","","67","","0.0","","17","","11","","16.1","","100.41","","","","-33","","NA"
"-77.97","72.69","POND INLET A","2403206","2019-01-07 23:00","2019","01","07","23:00","-25.8","","-28.5","","79","","0.0","","15","","15","","16.1","","100.35","","","","-36","","NA"
"-77.97","72.69","POND INLET A","2403206","2019-01-08 00:00","2019","01","08","00:00","-23.9","","-28.9","","64","","0.0","","5","","4","","16.1","","100.28","","","","-28","","NA"
"-77.97","72.69","POND INLET A","2403206","2019-01-08 01:00","2019","01","08","01:00","-26.9","","-29.7","","78","","0.0","","","M","4","","16.1","","100.26","","","","-31","","NA"
"-77.97","72.69","POND INLET A","2403206","2019-01-08 02:00","2019","01","08","02:00","-25.9","","-29.1","","75","","0.0","","13","","5","","16.1","","100.20","","","","-31","","NA"
"-77.97","72.69","POND INLET A","2403206","2019-01-08 03:00","2019","01","08","03:00","-24.7","","-27.4","","79","","0.0","","","","0","","16.1","","100.16","","","","","","NA"
"-77.97","72.69","POND INLET A","2403206","2019-01-08 04:00","2019","01","08","04:00","-26.4","","-28.4","","84","","0.0","","2","","5","","16.1","","100.15","","","","-32","","NA"
"-77.97","72.69","POND INLET A","2403206","2019-01-08 05:00","2019","01","08","05:00","-26.1","","-28.9","","78","","0.0","","","M","4","","16.1","","100.12","","","","-30","","NA"
"-77.97","72.69","POND INLET A","2403206","2019-01-08 06:00","2019","01","08","06:00","-25.6","","-28.3","","79","","0.0","","7","","5","","16.1","","100.08","","","","-31","","NA"
"-77.97","72.69","POND INLET A","2403206","2019-01-08 07:00","2019","01","08","07:00","-26.6","","-29.4","","78","","0.0","","13","","4","","16.1","","100.04","","","","-31","","NA"
"-77.97","72.69","POND INLET A","2403206","2019-01-08 08:00","2019","01","08","08:00","-27.8","","-31.4","","72","","0.0","","18","","11","","16.1","","100.00","","","","-37","","NA"
"-77.97","72.69","POND INLET A","2403206","2019-01-08 09:00","2019","01","08","09:00","-27.2","","-30.4","","75","","0.0","","17","","13","","16.1","","99.99","","","","-37","","NA"
"-77.97","72.69","POND INLET A","2403206","2019-01-08 10:00","2019","01","08","10:00","-26.0","","-28.9","","77","","0.0","","15","","17","","16.1","","99.97","","","","-37","","NA"
"-77.97","72.69","POND INLET A","2403206","2019-01-08 11:00","2019","01","08","11:00","-24.1","","-26.4","","82","","0.0","","18","","5","","16.1","","99.95","","","","-29","","NA"
"-77.97","72.69","POND INLET A","2403206","2019-01-08 12:00","2019","01","08","12:00","-27.8","","-30.4","","79","","0.0","","","","0","","16.1","","99.91","","","","","","NA"
"-77.97","72.69","POND INLET A","2403206","2019-01-08 13:00","2019","01","08","13:00","-28.0","","-30.1","","83","","0.0","","22","","11","","16.1","","99.88","","","","-37","","Snow"
"-77.97","72.69","POND INLET A","2403206","2019-01-08 14:00","2019","01","08","14:00","-25.7","","-28.1","","81","","0.0","","20","","15","","9.7","","99.89","","","","-36","","Snow"
"-77.97","72.69","POND INLET A","2403206","2019-01-08 15:00","2019","01","08","15:00","-24.5","","-27.0","","80","","0.0","","19","","13","","2.8","","99.88","","","","-34","","Snow"
"-77.97","72.69","POND INLET A","2403206","2019-01-08 16:00","2019","01","08","16:00","-25.4","","-28.1","","79","","0.0","","19","","15","","16.1","","99.86","","","","-36","","Snow"
"-77.97","72.69","POND INLET A","2403206","2019-01-08 17:00","2019","01","08","17:00","-24.4","","-27.2","","78","","0.0","","15","","13","","16.1","","99.83","","","","-34","","NA"
"-77.97","72.69","POND INLET A","2403206","2019-01-08 18:00","2019","01","08","18:00","-25.0","","-27.4","","81","","0.0","","","M","4","","16.1","","99.84","","","","-29","","NA"
"-77.97","72.69","POND INLET A","2403206","2019-01-08 19:00","2019","01","08","19:00","-26.0","","-28.2","","82","","0.0","","","M","4","","16.1","","99.82","","","","-30","","NA"
"-77.97","72.69","POND INLET A","2403206","2019-01-08 20:00","2019","01","08","20:00","-26.1","","-28.3","","82","","0.0","","24","","11","","16.1","","99.82","","","","-35","","NA"
"-77.97","72.69","POND INLET A","2403206","2019-01-08 21:00","2019","01","08","21:00","-27.3","","-29.5","","82","","0.0","","21","","11","","16.1","","99.84","","","","-36","","NA"
"-77.97","72.69","POND INLET A","2403206","2019-01-08 22:00","2019","01","08","22:00","-28.2","","-30.5","","81","","0.0","","20","","11","","16.1","","99.84","","","","-38","","NA"
"-77.97","72.69","POND INLET A","2403206","2019-01-08 23:00","2019","01","08","23:00","-27.0","","-29.3","","82","","0.0","","23","","8","","16.1","","99.82","","","","-34","","NA"
"-77.97","72.69","POND INLET A","2403206","2019-01-09 00:00","2019","01","09","00:00","-28.8","","-31.5","","78","","0.0","","19","","15","","16.1","","99.85","","","","-40","","NA"
"-77.97","72.69","POND INLET A","2403206","2019-01-09 01:00","2019","01","09","01:00","-27.2","","-29.6","","81","","0.0","","22","","9","","16.1","","99.92","","","","-35","","NA"
"-77.97","72.69","POND INLET A","2403206","2019-01-09 02:00","2019","01","09","02:00","-27.3","","-29.7","","81","","0.0","","24","","9","","16.1","","99.99","","","","-35","","NA"
"-77.97","72.69","POND INLET A","2403206","2019-01-09 03:00","2019","01","09","03:00","-27.6","","-30.2","","79","","0.0","","21","","11","","14.5","","100.06","","","","-37","","Snow"
"-77.97","72.69","POND INLET A","2403206","2019-01-09 04:00","2019","01","09","04:00","-28.1","","-30.3","","82","","0.0","","17","","13","","16.1","","100.11","","","","-38","","NA"
"-77.97","72.69","POND INLET A","2403206","2019-01-09 05:00","2019","01","09","05:00","-26.8","","-29.0","","82","","0.0","","17","","11","","16.1","","100.15","","","","-36","","NA"
"-77.97","72.69","POND INLET A","2403206","2019-01-09 06:00","2019","01","09","06:00","-25.6","","-28.1","","80","","0.0","","15","","17","","9.7","","100.24","","","","-37","","Fog"
"-77.97","72.69","POND INLET A","2403206","2019-01-09 07:00","2019","01","09","07:00","-26.3","","-28.9","","79","","0.0","","17","","9","","16.1","","100.33","","","","-34","","NA"
"-77.97","72.69","POND INLET A","2403206","2019-01-09 08:00","2019","01","09","08:00","-27.7","","-30.3","","79","","0.0","","18","","11","","16.1","","100.42","","","","-37","","NA"
"-77.97","72.69","POND INLET A","2403206","2019-01-09 09:00","2019","01","09","09:00","-27.6","","-30.3","","78","","0.0","","18","","8","","3.6","","100.54","","","","-35","","Snow"
"-77.97","72.69","POND INLET A","2403206","2019-01-09 10:00","2019","01","09","10:00","-27.9","","-30.5","","79","","0.0","","17","","4","","16.1","","100.65","","","","-32","","NA"
"-77.97","72.69","POND INLET A","2403206","2019-01-09 11:00","2019","01","09","11:00","-28.2","","-30.9","","78","","0.0","","15","","5","","16.1","","100.73","","","","-34","","NA"
"-77.97","72.69","POND INLET A","2403206","2019-01-09 12:00","2019","01","09","12:00","-27.5","","-30.0","","80","","0.0","","","","0","","16.1","","100.84","","","","","","NA"
"-77.97","72.69","POND INLET A","2403206","2019-01-09 13:00","2019","01","09","13:00","-27.5","","-30.0","","80","","0.0","","","","0","","16.1","","100.96","","","","","","NA"
"-77.97","72.69","POND INLET A","2403206","2019-01-09 14:00","2019","01","09","14:00","-27.9","","-30.8","","77","","0.0","","","","0","","16.1","","101.07","","","","","","NA"
"-77.97","72.69","POND INLET A","2403206","2019-01-09 15:00","2019","01","09","15:00","-28.7","","-31.8","","75","","0.0","","23","","8","","16.1","","101.22","","","","-36","","NA"
"-77.97","72.69","POND INLET A","2403206","2019-01-09 16:00","2019","01","09","16:00","-28.9","","-32.0","","75","","0.0","","21","","9","","16.1","","101.35","","","","-37","","NA"
"-77.97","72.69","POND INLET A","2403206","2019-01-09 17:00","2019","01","09","17:00","-29.6","","-33.0","","73","","0.0","","21","","9","","16.1","","101.45","","","","-38","","NA"
"-77.97","72.69","POND INLET A","2403206","2019-01-09 18:00","2019","01","09","18:00","-30.8","","-34.1","","73","","0.0","","17","","11","","16.1","","101.55","","","","-41","","NA"
"-77.97","72.69","POND INLET A","2403206","2019-01-09 19:00","2019","01","09","19:00","-29.9","","-33.7","","70","","0.0","","21","","9","","16.1","","101.66","","","","-38","","NA"
"-77.97","72.69","POND INLET A","2403206","2019-01-09 20:00","2019","01","09","20:00","-30.7","","-34.4","","71","","0.0","","21","","8","","16.1","","101.73","","","","-39","","NA"
"-77.97","72.69","POND INLET A","2403206","2019-01-09 21:00","2019","01","09","21:00","-31.6","","-35.0","","73","","0.0","","16","","5","","16.1","","101.81","","","","-37","","NA"
"-77.97","72.69","POND INLET A","2403206","2019-01-09 22:00","2019","01","09","22:00","-30.5","","-34.0","","72","","0.0","","","","0","","16.1","","101.91","","","","","","NA"
"-77.97","72.69","POND INLET A","2403206","2019-01-09 23:00","2019","01","09","23:00","-30.2","","-33.9","","71","","0.0","","22","","5","","16.1","","101.96","","","","-36","","NA"
"-77.97","72.69","POND INLET A","2403206","2019-01-10 00:00","2019","01","10","00:00","-31.8","","-35.0","","74","","0.0","","17","","9","","16.1","","102.03","","","","-41","","NA"
"-77.97","72.69","POND INLET A","2403206","2019-01-10 01:00","2019","01","10","01:00","-31.6","","-35.1","","72","","0.0","","19","","8","","16.1","","102.12","","","","-40","","NA"
"-77.97","72.69","POND INLET A","2403206","2019-01-10 02:00","2019","01","10","02:00","-31.8","","-35.3","","72","","0.0","","17","","8","","16.1","","102.20","","","","-40","","NA"
"-77.97","72.69","POND INLET A","2403206","2019-01-10 03:00","2019","01","10","03:00","-31.3","","-35.1","","70","","0.0","","16","","11","","16.1","","102.25","","","","-41","","NA"
"-77.97","72.69","POND INLET A","2403206","2019-01-10 04:00","2019","01","10","04:00","-31.4","","-35.1","","71","","0.0","","16","","11","","16.1","","102.32","","","","-41","","NA"
"-77.97","72.69","POND INLET A","2403206","2019-01-10 05:00","2019","01","10","05:00","-32.7","","-36.4","","70","","0.0","","18","","8","","16.1","","102.35","","","","-41","","NA"
"-77.97","72.69","POND INLET A","2403206","2019-01-10 06:00","2019","01","10","06:00","-32.3","","-35.9","","71","","0.0","","17","","9","","16.1","","102.39","","","","-41","","NA"
"-77.97","72.69","POND INLET A","2403206","2019-01-10 07:00","2019","01","10","07:00","-33.3","","-37.0","","70","","0.0","","16","","9","","16.1","","102.42","","","","-43","","NA"
"-77.97","72.69","POND INLET A","2403206","2019-01-10 08:00","2019","01","10","08:00","-33.4","","-36.9","","72","","0.0","","18","","8","","16.1","","102.44","","","","-42","","NA"
"-77.97","72.69","POND INLET A","2403206","2019-01-10 09:00","2019","01","10","09:00","-34.4","","-38.0","","71","","0.0","","18","","11","","16.1","","102.49","","","","-45","","NA"
"-77.97","72.69","POND INLET A","2403206","2019-01-10 10:00","2019","01","10","10:00","-33.7","","-37.0","","73","","0.0","","17","","11","","16.1","","102.51","","","","-44","","NA"
"-77.97","72.69","POND INLET A","2403206","2019-01-10 11:00","2019","01","10","11:00","-34.2","","-37.6","","72","","0.0","","14","","9","","16.1","","102.47","","","","-44","","NA"
"-77.97","72.69","POND INLET A","2403206","2019-01-10 12:00","2019","01","10","12:00","-33.2","","-36.5","","73","","0.0","","22","","5","","16.1","","102.48","","","","-39","","NA"
"-77.97","72.69","POND INLET A","2403206","2019-01-10 13:00","2019","01","10","13:00","-36.1","","-39.3","","73","","0.0","","22","","11","","16.1","","102.51","","","","-47","","NA"
"-77.97","72.69","POND INLET A","2403206","2019-01-10 14:00","2019","01","10","14:00","-35.1","","-38.2","","74","","0.0","","14","","18","","16.1","","102.49","","","","-49","","NA"
"-77.97","72.69","POND INLET A","2403206","2019-01-10 15:00","2019","01","10","15:00","-33.9","","-37.3","","72","","0.0","","16","","15","","16.1","","102.51","","","","-46","","NA"
"-77.97","72.69","POND INLET A","2403206","2019-01-10 16:00","2019","01","10","16:00","-34.6","","-37.7","","74","","0.0","","21","","13","","16.1","","102.54","","","","-46","","NA"
"-77.97","72.69","POND INLET A","2403206","2019-01-10 17:00","2019","01","10","17:00","-36.3","","-39.6","","72","","0.0","","19","","9","","16.1","","102.53","","","","-46","","NA"
"-77.97","72.69","POND INLET A","2403206","2019-01-10 18:00","2019","01","10","18:00","-36.2","","-39.7","","71","","0.0","","21","","9","","16.1","","102.52","","","","-46","","NA"
"-77.97","72.69","POND INLET A","2403206","2019-01-10 19:00","2019","01","10","19:00","-37.4","","-40.9","","71","","0.0","","19","","9","","16.1","","102.51","","","","-47","","NA"
"-77.97","72.69","POND INLET A","2403206","2019-01-10 20:00","2019","01","10","20:00","-36.4","","-39.9","","71","","0.0","","18","","11","","16.1","","102.50","","","","-47","","NA"
"-77.97","72.69","POND INLET A","2403206","2019-01-10 21:00","2019","01","10","21:00","-35.8","","-39.2","","72","","0.0","","19","","9","","16.1","","102.47","","","","-45","","NA"
"-77.97","72.69","POND INLET A","2403206","2019-01-10 22:00","2019","01","10","22:00","-35.9","","-39.3","","72","","0.0","","19","","8","","16.1","","102.46","","","","-45","","NA"
"-77.97","72.69","POND INLET A","2403206","2019-01-10 23:00","2019","01","10","23:00","-35.7","","-39.1","","72","","0.0","","17","","9","","14.5","","102.45","","","","-45","","NA"
"-77.97","72.69","POND INLET A","2403206","2019-01-11 00:00","2019","01","11","00:00","-35.4","","-38.7","","73","","0.0","","17","","11","","16.1","","102.44","","","","-46","","NA"
"-77.97","72.69","POND INLET A","2403206","2019-01-11 01:00","2019","01","11","01:00","-36.0","","-39.7","","70","","0.0","","18","","11","","16.1","","102.45","","","","-47","","NA"
"-77.97","72.69","POND INLET A","2403206","2019-01-11 02:00","2019","01","11","02:00","-35.4","","-38.9","","71","","0.0","","16","","13","","16.1","","102.45","","","","-47","","NA"
"-77.97","72.69","POND INLET A","2403206","2019-01-11 03:00","2019","01","11","03:00","-34.7","","-38.1","","72","","0.0","","22","","8","","16.1","","102.50","","","","-43","","NA"
"-77.97","72.69","POND INLET A","2403206","2019-01-11 04:00","2019","01","11","04:00","-35.7","","-39.2","","71","","0.0","","20","","9","","16.1","","102.52","","","","-45","","NA"
"-77.97","72.69","POND INLET A","2403206","2019-01-11 05:00","2019","01","11","05:00","-36.6","","-40.2","","70","","0.0","","17","","9","","16.1","","102.52","","","","-46","","NA"
"-77.97","72.69","POND INLET A","2403206","2019-01-11 06:00","2019","01","11","06:00","-36.5","","-40.1","","70","","0.0","","18","","9","","16.1","","102.52","","","","-46","","NA"
"-77.97","72.69","POND INLET A","2403206","2019-01-11 07:00","2019","01","11","07:00","-36.6","","-40.2","","70","","0.0","","18","","11","","16.1","","102.52","","","","-48","","NA"
"-77.97","72.69","POND INLET A","2403206","2019-01-11 08:00","2019","01","11","08:00","-36.3","","-39.9","","70","","0.0","","17","","13","","16.1","","102.52","","","","-48","","NA"
"-77.97","72.69","POND INLET A","2403206","2019-01-11 09:00","2019","01","11","09:00","-34.7","","-38.1","","72","","0.0","","16","","11","","16.1","","102.51","","","","-45","","NA"
"-77.97","72.69","POND INLET A","2403206","2019-01-11 10:00","2019","01","11","10:00","-36.2","","-39.7","","71","","0.0","","20","","9","","16.1","","102.54","","","","-46","","NA"
"-77.97","72.69","POND INLET A","2403206","2019-01-11 11:00","2019","01","11","11:00","-37.0","","-40.9","","68","","0.0","","18","","9","","16.1","","102.55","","","","-47","","NA"
"-77.97","72.69","POND INLET A","2403206","2019-01-11 12:00","2019","01","11","12:00","-36.5","","-40.1","","70","","0.0","","17","","11","","16.1","","102.53","","","","-47","","NA"
"-77.97","72.69","POND INLET A","2403206","2019-01-11 13:00","2019","01","11","13:00","-35.9","","-39.5","","70","","0.0","","17","","9","","16.1","","102.52","","","","-46","","NA"
"-77.97","72.69","POND INLET A","2403206","2019-01-11 14:00","2019","01","11","14:00","-35.3","","-38.8","","71","","0.0","","18","","9","","16.1","","102.51","","","","-45","","NA"
"-77.97","72.69","POND INLET A","2403206","2019-01-11 15:00","2019","01","11","15:00","-36.2","","-39.9","","70","","0.0","","20","","9","","16.1","","102.52","","","","-46","","NA"
"-77.97","72.69","POND INLET A","2403206","2019-01-11 16:00","2019","01","11","16:00","-34.6","","-38.0","","72","","0.0","","16","","13","","16.1","","102.52","","","","-46","","NA"
"-77.97","72.69","POND INLET A","2403206","2019-01-11 17:00","2019","01","11","17:00","-35.0","","-38.5","","71","","0.0","","19","","8","","14.5","","102.50","","","","-44","","Snow"
"-77.97","72.69","POND INLET A","2403206","2019-01-11 18:00","2019","01","11","18:00","-34.6","","-38.0","","72","","0.0","","19","","8","","11.3","","102.47","","","","-43","","Snow"
"-77.97","72.69","POND INLET A","2403206","2019-01-11 19:00","2019","01","11","19:00","-34.3","","-37.9","","71","","0.0","","20","","9","","4.8","","102.41","","","","-44","","Snow"
"-77.97","72.69","POND INLET A","2403206","2019-01-11 20:00","2019","01","11","20:00","-34.6","","-38.2","","71","","0.0","","19","","9","","8.1","","102.39","","","","-44","","Snow"
"-77.97","72.69","POND INLET A","2403206","2019-01-11 21:00","2019","01","11","21:00","-35.5","","-39.2","","70","","0.0","","21","","13","","11.3","","102.35","","","","-47","","NA"
"-77.97","72.69","POND INLET A","2403206","2019-01-11 22:00","2019","01","11","22:00","-36.9","","-40.7","","69","","0.0","","19","","13","","14.5","","102.34","","","","-49","","Snow"
"-77.97","72.69","POND INLET A","2403206","2019-01-11 23:00","2019","01","11","23:00","-36.3","","-39.8","","71","","0.0","","18","","13","","16.1","","102.31","","","","-48","","Snow"
"-77.97","72.69","POND INLET A","2403206","2019-01-12 00:00","2019","01","12","00:00","-36.6","","-40.4","","69","","0.0","","17","","17","","16.1","","102.27","","","","-50","","NA"
"-77.97","72.69","POND INLET A","2403206","2019-01-12 01:00","2019","01","12","01:00","-36.8","","-40.5","","69","","0.0","","17","","13","","16.1","","102.25","","","","-49","","NA"
"-77.97","72.69","POND INLET A","2403206","2019-01-12 02:00","2019","01","12","02:00","-36.4","","-40.0","","70","","0.0","","17","","11","","16.1","","102.23","","","","-47","","NA"
"-77.97","72.69","POND INLET A","2403206","2019-01-12 03:00","2019","01","12","03:00","-36.5","","-40.1","","70","","0.0","","21","","9","","16.1","","102.22","","","","-46","","NA"
"-77.97","72.69","POND INLET A","2403206","2019-01-12 04:00","2019","01","12","04:00","-36.2","","-39.9","","70","","0.0","","20","","8","","16.1","","102.19","","","","-45","","NA"
"-77.97","72.69","POND INLET A","2403206","2019-01-12 05:00","2019","01","12","05:00","-37.6","","-41.4","","69","","0.0","","20","","11","","16.1","","102.15","","","","-49","","NA"
"-77.97","72.69","POND INLET A","2403206","2019-01-12 06:00","2019","01","12","06:00","-37.1","","-40.7","","70","","0.0","","18","","15","","16.1","","102.12","","","","-50","","NA"
"-77.97","72.69","POND INLET A","2403206","2019-01-12 07:00","2019","01","12","07:00","-38.1","","-42.0","","68","","0.0","","20","","9","","16.1","","102.09","","","","-48","","NA"
"-77.97","72.69","POND INLET A","2403206","2019-01-12 08:00","2019","01","12","08:00","-36.4","","-40.0","","70","","0.0","","21","","8","","16.1","","102.05","","","","-45","","NA"
"-77.97","72.69","POND INLET A","2403206","2019-01-12 09:00","2019","01","12","09:00","-37.0","","-40.6","","70","","0.0","","18","","5","","16.1","","102.04","","","","-44","","NA"
"-77.97","72.69","POND INLET A","2403206","2019-01-12 10:00","2019","01","12","10:00","-37.9","","-41.7","","69","","0.0","","17","","9","","16.1","","102.02","","","","-48","","NA"
"-77.97","72.69","POND INLET A","2403206","2019-01-12 11:00","2019","01","12","11:00","-38.1","","-41.7","","70","","0.0","","20","","11","","16.1","","101.98","","","","-49","","NA"
"-77.97","72.69","POND INLET A","2403206","2019-01-12 12:00","2019","01","12","12:00","-38.2","","-42.1","","68","","0.0","","20","","15","","16.1","","101.94","","","","-52","","NA"
"-77.97","72.69","POND INLET A","2403206","2019-01-12 13:00","2019","01","12","13:00","-37.8","","-41.5","","69","","0.0","","19","","13","","16.1","","101.92","","","","-50","","NA"
"-77.97","72.69","POND INLET A","2403206","2019-01-12 14:00","2019","01","12","14:00","-37.3","","-41.2","","68","","0.0","","21","","9","","16.1","","101.91","","","","-47","","NA"
"-77.97","72.69","POND INLET A","2403206","2019-01-12 15:00","2019","01","12","15:00","-38.2","","-42.1","","68","","0.0","","19","","17","","16.1","","101.89","","","","-52","","NA"
"-77.97","72.69","POND INLET A","2403206","2019-01-12 16:00","2019","01","12","16:00","-37.7","","-41.4","","69","","0.0","","18","","15","","16.1","","101.89","","","","-51","","NA"
"-77.97","72.69","POND INLET A","2403206","2019-01-12 17:00","2019","01","12","17:00","-37.9","","-41.7","","68","","0.0","","17","","11","","16.1","","101.88","","","","-49","","NA"
"-77.97","72.69","POND INLET A","2403206","2019-01-12 18:00","2019","01","12","18:00","-38.0","","-41.9","","68","","0.0","","17","","9","","9.7","","101.84","","","","-48","","Haze"
"-77.97","72.69","POND INLET A","2403206","2019-01-12 19:00","2019","01","12","19:00","-37.6","","-41.4","","69","","0.0","","20","","9","","16.1","","101.82","","","","-48","","NA"
"-77.97","72.69","POND INLET A","2403206","2019-01-12 20:00","2019","01","12","20:00","-36.8","","-40.6","","69","","0.0","","17","","8","","3.2","","101.80","","","","-46","","Haze"
"-77.97","72.69","POND INLET A","2403206","2019-01-12 21:00","2019","01","12","21:00","-37.8","","-41.7","","68","","0.0","","17","","8","","16.1","","101.78","","","","-47","","NA"
"-77.97","72.69","POND INLET A","2403206","2019-01-12 22:00","2019","01","12","22:00","-37.8","","-41.7","","68","","0.0","","17","","9","","16.1","","101.75","","","","-48","","NA"
"-77.97","72.69","POND INLET A","2403206","2019-01-12 23:00","2019","01","12","23:00","-38.3","","-42.2","","68","","0.0","","17","","11","","16.1","","101.74","","","","-50","","NA"
"-77.97","72.69","POND INLET A","2403206","2019-01-13 00:00","2019","01","13","00:00","-38.2","","-42.2","","67","","0.0","","18","","8","","8.1","","101.74","","","","-48","","Haze"
"-77.97","72.69","POND INLET A","2403206","2019-01-13 01:00","2019","01","13","01:00","-38.1","","-42.0","","68","","0.0","","17","","8","","2.0","","101.72","","","","-47","","Haze"
"-77.97","72.69","POND INLET A","2403206","2019-01-13 02:00","2019","01","13","02:00","-39.0","","-43.0","","67","","0.0","","17","","9","","6.4","","101.71","","","","-49","","Haze"
"-77.97","72.69","POND INLET A","2403206","2019-01-13 03:00","2019","01","13","03:00","-37.5","","-41.3","","69","","0.0","","","","0","","2.0","","101.70","","","","","","Haze"
"-77.97","72.69","POND INLET A","2403206","2019-01-13 04:00","2019","01","13","04:00","-37.8","","-41.5","","69","","0.0","","","","0","","3.6","","101.72","","","","","","Haze"
"-77.97","72.69","POND INLET A","2403206","2019-01-13 05:00","2019","01","13","05:00","-38.6","","-42.6","","67","","0.0","","","M","4","","4.0","","101.70","","","","-44","","Haze"
"-77.97","72.69","POND INLET A","2403206","2019-01-13 06:00","2019","01","13","06:00","-38.6","","-42.6","","67","","0.0","","","","0","","3.2","","101.65","","","","","","Haze"
"-77.97","72.69","POND INLET A","2403206","2019-01-13 07:00","2019","01","13","07:00","-39.0","","-43.0","","67","","0.0","","17","","8","","8.1","","101.62","","","","-49","","Haze"
"-77.97","72.69","POND INLET A","2403206","2019-01-13 08:00","2019","01","13","08:00","-38.8","","-42.7","","68","","0.0","","19","","8","","11.3","","101.63","","","","-48","","NA"
"-77.97","72.69","POND INLET A","2403206","2019-01-13 09:00","2019","01","13","09:00","-39.3","","-43.1","","68","","0.0","","16","","9","","6.4","","101.60","","","","-50","","Haze"
"-77.97","72.69","POND INLET A","2403206","2019-01-13 10:00","2019","01","13","10:00","-39.0","","-43.0","","67","","0.0","","19","","9","","4.8","","101.60","","","","-49","","Haze"
"-77.97","72.69","POND INLET A","2403206","2019-01-13 11:00","2019","01","13","11:00","-38.5","","-42.4","","68","","0.0","","22","","5","","16.1","","101.60","","","","-45","","NA"
"-77.97","72.69","POND INLET A","2403206","2019-01-13 12:00","2019","01","13","12:00","-39.2","","-43.2","","67","","0.0","","18","","5","","6.4","","101.58","","","","-46","","Haze"
"-77.97","72.69","POND INLET A","2403206","2019-01-13 13:00","2019","01","13","13:00","-40.0","","-44.1","","66","","0.0","","18","","8","","1.2","","101.54","","","","-50","","Haze"
"-77.97","72.69","POND INLET A","2403206","2019-01-13 14:00","2019","01","13","14:00","-39.6","","-43.6","","67","","0.0","","17","","5","","0.8","","101.53","","","","-47","","Haze"
"-77.97","72.69","POND INLET A","2403206","2019-01-13 15:00","2019","01","13","15:00","-40.6","","-44.7","","66","","0.0","","8","","5","","0.8","","101.53","","","","-48","","Haze"
"-77.97","72.69","POND INLET A","2403206","2019-01-13 16:00","2019","01","13","16:00","-38.5","","-42.3","","69","","0.0","","","","0","","1.6","","101.49","","","","","","Haze"
"-77.97","72.69","POND INLET A","2403206","2019-01-13 17:00","2019","01","13","17:00","-38.6","","-42.6","","67","","0.0","","","","0","","1.2","","101.49","","","","","","Haze"
"-77.97","72.69","POND INLET A","2403206","2019-01-13 18:00","2019","01","13","18:00","-38.2","","-42.2","","67","","0.0","","","M","4","","2.4","","101.45","","","","-44","","Haze"
"-77.97","72.69","POND INLET A","2403206","2019-01-13 19:00","2019","01","13","19:00","-39.7","","-43.9","","65","","0.0","","21","","5","","16.1","","101.45","","","","-47","","NA"
"-77.97","72.69","POND INLET A","2403206","2019-01-13 20:00","2019","01","13","20:00","-39.9","","-43.9","","67","","0.0","","","","0","","0.8","","101.43","","","","","","Haze"
"-77.97","72.69","POND INLET A","2403206","2019-01-13 21:00","2019","01","13","21:00","-39.8","","-44.0","","66","","0.0","","17","","5","","1.2","","101.41","","","","-47","","Haze"
"-77.97","72.69","POND INLET A","2403206","2019-01-13 22:00","2019","01","13","22:00","-39.9","","-44.1","","65","","0.0","","","M","4","","2.4","","101.38","","","","-45","","Haze"
"-77.97","72.69","POND INLET A","2403206","2019-01-13 23:00","2019","01","13","23:00","-40.0","","-44.3","","65","","0.0","","18","","5","","1.2","","101.33","","","","-47","","Haze"
"-77.97","72.69","POND INLET A","2403206","2019-01-14 00:00","2019","01","14","00:00","-40.3","","-44.4","","66","","0.0","","","M","4","","0.8","","101.28","","","","-46","","Haze"
"-77.97","72.69","POND INLET A","2403206","2019-01-14 01:00","2019","01","14","01:00","-39.3","","-43.3","","67","","0.0","","19","","4","","16.1","","101.25","","","","-45","","NA"
"-77.97","72.69","POND INLET A","2403206","2019-01-14 02:00","2019","01","14","02:00","-39.8","","-43.9","","66","","0.0","","20","","8","","9.7","","101.20","","","","-49","","Haze"
"-77.97","72.69","POND INLET A","2403206","2019-01-14 03:00","2019","01","14","03:00","-39.1","","-43.0","","68","","0.0","","22","","5","","16.1","","101.17","","","","-46","","NA"
"-77.97","72.69","POND INLET A","2403206","2019-01-14 04:00","2019","01","14","04:00","-40.5","","-44.7","","65","","0.0","","26","","5","","1.6","","101.13","","","","-48","","Haze"
"-77.97","72.69","POND INLET A","2403206","2019-01-14 05:00","2019","01","14","05:00","-40.6","","-44.7","","66","","0.0","","","","0","","6.4","","101.08","","","","","","Haze"
"-77.97","72.69","POND INLET A","2403206","2019-01-14 06:00","2019","01","14","06:00","-40.7","","-44.8","","66","","0.0","","17","","4","","1.2","","101.05","","","","-46","","Haze"
"-77.97","72.69","POND INLET A","2403206","2019-01-14 07:00","2019","01","14","07:00","-40.4","","-44.5","","66","","0.0","","","","0","","0.6","","101.00","","","","","","Haze"
"-77.97","72.69","POND INLET A","2403206","2019-01-14 08:00","2019","01","14","08:00","-38.8","","-42.7","","68","","0.0","","","","0","","1.0","","100.95","","","","","","Haze"
"-77.97","72.69","POND INLET A","2403206","2019-01-14 09:00","2019","01","14","09:00","-39.3","","-43.3","","67","","0.0","","","","0","","1.2","","100.90","","","","","","Haze"
"-77.97","72.69","POND INLET A","2403206","2019-01-14 10:00","2019","01","14","10:00","-39.4","","-43.5","","66","","0.0","","","","0","","2.8","","100.87","","","","","","Haze"
"-77.97","72.69","POND INLET A","2403206","2019-01-14 11:00","2019","01","14","11:00","-39.5","","-43.5","","67","","0.0","","22","","5","","16.1","","100.80","","","","-46","","NA"
"-77.97","72.69","POND INLET A","2403206","2019-01-14 12:00","2019","01","14","12:00","-40.8","","-45.3","","63","","0.0","","24","","5","","2.0","","100.73","","","","-48","","Haze"
"-77.97","72.69","POND INLET A","2403206","2019-01-14 13:00","2019","01","14","13:00","-40.3","","-44.4","","66","","0.0","","22","","11","","12.9","","100.67","","","","-52","","NA"
"-77.97","72.69","POND INLET A","2403206","2019-01-14 14:00","2019","01","14","14:00","-40.6","","-45.0","","64","","0.0","","25","","8","","3.2","","100.62","","","","-50","","Haze"
"-77.97","72.69","POND INLET A","2403206","2019-01-14 15:00","2019","01","14","15:00","-40.4","","-44.5","","66","","0.0","","18","","4","","3.2","","100.59","","","","-46","","Haze"
"-77.97","72.69","POND INLET A","2403206","2019-01-14 16:00","2019","01","14","16:00","-39.1","","-42.9","","68","","0.0","","","M","4","","2.8","","100.58","","","","-45","","Haze"
"-77.97","72.69","POND INLET A","2403206","2019-01-14 17:00","2019","01","14","17:00","-40.4","","-44.5","","66","","0.0","","19","","8","","2.8","","100.55","","","","-50","","Haze"
"-77.97","72.69","POND INLET A","2403206","2019-01-14 18:00","2019","01","14","18:00","-39.8","","-43.8","","67","","0.0","","15","","9","","1.6","","100.49","","","","-50","","Haze"
"-77.97","72.69","POND INLET A","2403206","2019-01-14 19:00","2019","01","14","19:00","-38.7","","-42.4","","69","","0.0","","17","","5","","2.0","","100.45","","","","-45","","Haze"
"-77.97","72.69","POND INLET A","2403206","2019-01-14 20:00","2019","01","14","20:00","-39.7","","-43.8","","66","","0.0","","22","","8","","16.1","","100.43","","","","-49","","NA"
"-77.97","72.69","POND INLET A","2403206","2019-01-14 21:00","2019","01","14","21:00","-39.6","","-43.6","","67","","0.0","","19","","8","","3.6","","100.40","","","","-49","","Haze"
"-77.97","72.69","POND INLET A","2403206","2019-01-14 22:00","2019","01","14","22:00","-38.3","","-42.2","","68","","0.0","","17","","11","","8.1","","100.36","","","","-50","","Haze"
"-77.97","72.69","POND INLET A","2403206","2019-01-14 23:00","2019","01","14","23:00","-38.4","","-42.4","","67","","0.0","","17","","8","","16.1","","100.34","","","","-48","","NA"
"-77.97","72.69","POND INLET A","2403206","2019-01-15 00:00","2019","01","15","00:00","-36.8","","-40.6","","69","","0.0","","16","","11","","4.0","","100.29","","","","-48","","Haze"
"-77.97","72.69","POND INLET A","2403206","2019-01-15 01:00","2019","01","15","01:00","-38.0","","-41.9","","68","","0.0","","23","","5","","14.5","","100.26","","","","-45","","NA"
"-77.97","72.69","POND INLET A","2403206","2019-01-15 02:00","2019","01","15","02:00","-36.0","","-39.5","","71","","0.0","","14","","17","","8.1","","100.22","","","","-50","","Haze"
"-77.97","72.69","POND INLET A","2403206","2019-01-15 03:00","2019","01","15","03:00","-35.9","","-39.6","","70","","0.0","","20","","5","","16.1","","100.22","","","","-42","","NA"
"-77.97","72.69","POND INLET A","2403206","2019-01-15 04:00","2019","01","15","04:00","-39.7","","-43.8","","66","","0.0","","","","0","","1.6","","100.22","","","","","","Haze"
"-77.97","72.69","POND INLET A","2403206","2019-01-15 05:00","2019","01","15","05:00","-37.8","","-41.5","","69","","0.0","","15","","5","","16.1","","100.19","","","","-44","","NA"
"-77.97","72.69","POND INLET A","2403206","2019-01-15 06:00","2019","01","15","06:00","-39.8","","-43.9","","66","","0.0","","20","","5","","16.1","","100.17","","","","-47","","NA"
"-77.97","72.69","POND INLET A","2403206","2019-01-15 07:00","2019","01","15","07:00","-38.1","","-41.9","","69","","0.0","","18","","11","","16.1","","100.15","","","","-49","","NA"
"-77.97","72.69","POND INLET A","2403206","2019-01-15 08:00","2019","01","15","08:00","-37.0","","-40.8","","69","","0.0","","18","","13","","16.1","","100.14","","","","-49","","NA"
"-77.97","72.69","POND INLET A","2403206","2019-01-15 09:00","2019","01","15","09:00","-37.3","","-41.1","","68","","0.0","","19","","9","","16.1","","100.12","","","","-47","","NA"
"-77.97","72.69","POND INLET A","2403206","2019-01-15 10:00","2019","01","15","10:00","-38.9","","-42.8","","68","","0.0","","22","","5","","3.2","","100.12","","","","-46","","Haze"
"-77.97","72.69","POND INLET A","2403206","2019-01-15 11:00","2019","01","15","11:00","-37.9","","-41.6","","69","","0.0","","","M","4","","14.5","","100.12","","","","-43","","NA"
"-77.97","72.69","POND INLET A","2403206","2019-01-15 12:00","2019","01","15","12:00","-37.6","","-41.6","","67","","0.0","","","M","4","","1.6","","100.10","","","","-43","","Haze"
"-77.97","72.69","POND INLET A","2403206","2019-01-15 13:00","2019","01","15","13:00","-38.8","","-42.8","","67","","0.0","","19","","8","","2.0","","100.08","","","","-48","","Haze"
"-77.97","72.69","POND INLET A","2403206","2019-01-15 14:00","2019","01","15","14:00","-38.3","","-42.3","","67","","0.0","","17","","9","","16.1","","100.05","","","","-48","","NA"
"-77.97","72.69","POND INLET A","2403206","2019-01-15 15:00","2019","01","15","15:00","-37.3","","-41.4","","67","","0.0","","19","","9","","16.1","","100.02","","","","-47","","NA"
"-77.97","72.69","POND INLET A","2403206","2019-01-15 16:00","2019","01","15","16:00","-37.3","","-41.2","","68","","0.0","","19","","5","","16.1","","100.03","","","","-44","","NA"
"-77.97","72.69","POND INLET A","2403206","2019-01-15 17:00","2019","01","15","17:00","-37.2","","-41.3","","67","","0.0","","16","","13","","16.1","","100.01","","","","-49","","NA"
"-77.97","72.69","POND INLET A","2403206","2019-01-15 18:00","2019","01","15","18:00","-36.7","","-40.3","","70","","0.0","","18","","8","","16.1","","100.00","","","","-46","","NA"
"-77.97","72.69","POND INLET A","2403206","2019-01-15 19:00","2019","01","15","19:00","-36.2","","-39.9","","70","","0.0","","22","","5","","16.1","","100.00","","","","-43","","NA"
"-77.97","72.69","POND INLET A","2403206","2019-01-15 20:00","2019","01","15","20:00","-37.4","","-41.3","","68","","0.0","","24","","5","","16.1","","99.98","","","","-44","","NA"
"-77.97","72.69","POND INLET A","2403206","2019-01-15 21:00","2019","01","15","21:00","-38.9","","-43.2","","65","","0.0","","","","0","","2.0","","99.96","","","","","","Haze"
"-77.97","72.69","POND INLET A","2403206","2019-01-15 22:00","2019","01","15","22:00","-37.8","","-41.8","","68","","0.0","","","M","4","","9.7","","99.94","","","","-43","","Haze"
"-77.97","72.69","POND INLET A","2403206","2019-01-15 23:00","2019","01","15","23:00","-36.9","","-40.7","","69","","0.0","","20","","5","","16.1","","99.92","","","","-43","","NA"
"-77.97","72.69","POND INLET A","2403206","2019-01-16 00:00","2019","01","16","00:00","-36.2","","-39.9","","70","","0.0","","17","","8","","16.1","","99.89","","","","-45","","NA"
"-77.97","72.69","POND INLET A","2403206","2019-01-16 01:00","2019","01","16","01:00","-36.4","","-40.2","","69","","0.0","","18","","9","","16.1","","99.85","","","","-46","","NA"
"-77.97","72.69","POND INLET A","2403206","2019-01-16 02:00","2019","01","16","02:00","-37.7","","-41.7","","67","","0.0","","20","","9","","12.9","","99.84","","","","-48","","NA"
"-77.97","72.69","POND INLET A","2403206","2019-01-16 03:00","2019","01","16","03:00","-38.5","","-42.7","","65","","0.0","","26","","5","","4.8","","99.88","","","","-45","","Haze"
"-77.97","72.69","POND INLET A","2403206","2019-01-16 04:00","2019","01","16","04:00","-37.5","","-41.3","","69","","0.0","","18","","5","","2.0","","99.90","","","","-44","","Haze"
"-77.97","72.69","POND INLET A","2403206","2019-01-16 05:00","2019","01","16","05:00","-38.2","","-42.3","","67","","0.0","","17","","8","","4.0","","99.90","","","","-48","","Haze"
"-77.97","72.69","POND INLET A","2403206","2019-01-16 06:00","2019","01","16","06:00","-37.1","","-40.7","","70","","0.0","","19","","5","","11.3","","99.89","","","","-44","","NA"
"-77.97","72.69","POND INLET A","2403206","2019-01-16 07:00","2019","01","16","07:00","-37.3","","-41.2","","68","","0.0","","","","0","","4.8","","99.88","","","","","","Haze"
"-77.97","72.69","POND INLET A","2403206","2019-01-16 08:00","2019","01","16","08:00","-37.0","","-40.8","","69","","0.0","","","","0","","9.7","","99.91","","","","","","Haze"
"-77.97","72.69","POND INLET A","2403206","2019-01-16 09:00","2019","01","16","09:00","-38.3","","-42.5","","66","","0.0","","","M","4","","2.0","","99.93","","","","-44","","Haze"
"-77.97","72.69","POND INLET A","2403206","2019-01-16 10:00","2019","01","16","10:00","-38.4","","-42.3","","68","","0.0","","","","0","","3.2","","99.95","","","","","","Haze"
"-77.97","72.69","POND INLET A","2403206","2019-01-16 11:00","2019","01","16","11:00","-38.5","","-42.2","","69","","0.0","","","M","4","","1.2","","99.99","","","","-44","","Haze"
"-77.97","72.69","POND INLET A","2403206","2019-01-16 12:00","2019","01","16","12:00","-39.6","","-43.9","","65","","0.0","","8","","5","","0.6","","100.03","","","","-47","","Haze"
"-77.97","72.69","POND INLET A","2403206","2019-01-16 13:00","2019","01","16","13:00","-39.1","","-43.1","","67","","0.0","","","","0","","0.6","","100.05","","","","","","Haze"
"-77.97","72.69","POND INLET A","2403206","2019-01-16 14:00","2019","01","16","14:00","-37.5","","-41.3","","69","","0.0","","","M","4","","3.2","","100.06","","","","-43","","Haze"
"-77.97","72.69","POND INLET A","2403206","2019-01-16 15:00","2019","01","16","15:00","-37.7","","-41.6","","68","","0.0","","16","","8","","4.0","","100.09","","","","-47","","Haze"
"-77.97","72.69","POND INLET A","2403206","2019-01-16 16:00","2019","01","16","16:00","-38.1","","-42.0","","68","","0.0","","19","","8","","4.8","","100.15","","","","-47","","Haze"
"-77.97","72.69","POND INLET A","2403206","2019-01-16 17:00","2019","01","16","17:00","-37.5","","-41.4","","68","","0.0","","17","","5","","9.7","","100.20","","","","-44","","Haze"
"-77.97","72.69","POND INLET A","2403206","2019-01-16 18:00","2019","01","16","18:00","-38.2","","-42.2","","67","","0.0","","19","","8","","16.1","","100.26","","","","-48","","NA"
"-77.97","72.69","POND INLET A","2403206","2019-01-16 19:00","2019","01","16","19:00","-38.3","","-42.3","","67","","0.0","","17","","9","","16.1","","100.29","","","","-48","","NA"
"-77.97","72.69","POND INLET A","2403206","2019-01-16 20:00","2019","01","16","20:00","-37.7","","-41.4","","69","","0.0","","16","","8","","6.4","","100.34","","","","-47","","Haze"
"-77.97","72.69","POND INLET A","2403206","2019-01-16 21:00","2019","01","16","21:00","-39.2","","-43.4","","65","","0.0","","23","","5","","2.0","","100.41","","","","-46","","Haze"
"-77.97","72.69","POND INLET A","2403206","2019-01-16 22:00","2019","01","16","22:00","-37.8","","-41.8","","67","","0.0","","","M","4","","11.3","","100.44","","","","-43","","NA"
"-77.97","72.69","POND INLET A","2403206","2019-01-16 23:00","2019","01","16","23:00","-39.5","","-43.8","","65","","0.0","","24","","5","","2.0","","100.46","","","","-46","","Haze"
"-77.97","72.69","POND INLET A","2403206","2019-01-17 00:00","2019","01","17","00:00","-38.1","","-42.1","","67","","0.0","","","","0","","2.8","","100.46","","","","","","Haze"
"-77.97","72.69","POND INLET A","2403206","2019-01-17 01:00","2019","01","17","01:00","-40.3","","-44.5","","65","","0.0","","20","","9","","16.1","","100.53","","","","-51","","NA"
"-77.97","72.69","POND INLET A","2403206","2019-01-17 02:00","2019","01","17","02:00","-37.5","","-41.4","","68","","0.0","","16","","9","","16.1","","100.58","","","","-47","","NA"
"-77.97","72.69","POND INLET A","2403206","2019-01-17 03:00","2019","01","17","03:00","-37.3","","-41.2","","68","","0.0","","","M","5","","16.1","","100.63","","","","-44","","NA"
"-77.97","72.69","POND INLET A","2403206","2019-01-17 04:00","2019","01","17","04:00","-36.1","","-39.8","","70","","0.0","","18","","5","","16.1","","100.68","","","","-43","","NA"
"-77.97","72.69","POND INLET A","2403206","2019-01-17 05:00","2019","01","17","05:00","-34.8","","-38.2","","72","","0.0","","","","0","","16.1","","100.74","","","","","","NA"
"-77.97","72.69","POND INLET A","2403206","2019-01-17 06:00","2019","01","17","06:00","-37.1","","-40.9","","69","","0.0","","15","","8","","16.1","","100.80","","","","-46","","NA"
"-77.97","72.69","POND INLET A","2403206","2019-01-17 07:00","2019","01","17","07:00","-35.5","","-39.0","","71","","0.0","","17","","9","","16.1","","100.84","","","","-45","","NA"
"-77.97","72.69","POND INLET A","2403206","2019-01-17 08:00","2019","01","17","08:00","-35.4","","-39.1","","70","","0.0","","20","","8","","16.1","","100.89","","","","-44","","NA"
"-77.97","72.69","POND INLET A","2403206","2019-01-17 09:00","2019","01","17","09:00","-37.0","","-41.1","","67","","0.0","","19","","11","","16.1","","100.93","","","","-48","","NA"
"-77.97","72.69","POND INLET A","2403206","2019-01-17 10:00","2019","01","17","10:00","-35.7","","-39.2","","71","","0.0","","17","","9","","16.1","","100.96","","","","-45","","NA"
"-77.97","72.69","POND INLET A","2403206","2019-01-17 11:00","2019","01","17","11:00","-35.3","","-39.0","","70","","0.0","","","","0","","16.1","","101.01","","","","","","NA"
"-77.97","72.69","POND INLET A","2403206","2019-01-17 12:00","2019","01","17","12:00","-35.8","","-39.6","","69","","0.0","","18","","5","","16.1","","101.03","","","","-42","","NA"
"-77.97","72.69","POND INLET A","2403206","2019-01-17 13:00","2019","01","17","13:00","-36.5","","-40.1","","70","","0.0","","19","","9","","16.1","","101.04","","","","-46","","NA"
"-77.97","72.69","POND INLET A","2403206","2019-01-17 14:00","2019","01","17","14:00","-36.5","","-40.3","","69","","0.0","","17","","9","","16.1","","101.08","","","","-46","","NA"
"-77.97","72.69","POND INLET A","2403206","2019-01-17 15:00","2019","01","17","15:00","-35.3","","-38.9","","70","","0.0","","20","","5","","16.1","","101.11","","","","-42","","NA"
"-77.97","72.69","POND INLET A","2403206","2019-01-17 16:00","2019","01","17","16:00","-37.6","","-41.4","","69","","0.0","","21","","4","","16.1","","101.15","","","","-43","","NA"
"-77.97","72.69","POND INLET A","2403206","2019-01-17 17:00","2019","01","17","17:00","-35.7","","-39.2","","71","","0.0","","16","","8","","16.1","","101.18","","","","-45","","NA"
"-77.97","72.69","POND INLET A","2403206","2019-01-17 18:00","2019","01","17","18:00","-36.8","","-40.4","","70","","0.0","","24","","8","","16.1","","101.21","","","","-46","","NA"
"-77.97","72.69","POND INLET A","2403206","2019-01-17 19:00","2019","01","17","19:00","-36.5","","-40.3","","69","","0.0","","20","","9","","16.1","","101.19","","","","-46","","NA"
"-77.97","72.69","POND INLET A","2403206","2019-01-17 20:00","2019","01","17","20:00","-36.6","","-40.5","","68","","0.0","","20","","13","","16.1","","101.19","","","","-49","","NA"
"-77.97","72.69","POND INLET A","2403206","2019-01-17 21:00","2019","01","17","21:00","-36.2","","-39.9","","70","","0.0","","18","","9","","16.1","","101.19","","","","-46","","NA"
"-77.97","72.69","POND INLET A","2403206","2019-01-17 22:00","2019","01","17","22:00","-35.9","","-39.6","","69","","0.0","","18","","9","","16.1","","101.20","","","","-46","","NA"
"-77.97","72.69","POND INLET A","2403206","2019-01-17 23:00","2019","01","17","23:00","-36.4","","-40.2","","69","","0.0","","19","","11","","16.1","","101.19","","","","-47","","NA"
"-77.97","72.69","POND INLET A","2403206","2019-01-18 00:00","2019","01","18","00:00","-35.4","","-39.1","","70","","0.0","","18","","9","","16.1","","101.15","","","","-45","","NA"
"-77.97","72.69","POND INLET A","2403206","2019-01-18 01:00","2019","01","18","01:00","-35.7","","-39.4","","70","","0.0","","17","","11","","16.1","","101.11","","","","-47","","NA"
"-77.97","72.69","POND INLET A","2403206","2019-01-18 02:00","2019","01","18","02:00","-35.2","","-38.9","","70","","0.0","","20","","9","","16.1","","101.07","","","","-45","","NA"
"-77.97","72.69","POND INLET A","2403206","2019-01-18 03:00","2019","01","18","03:00","-35.2","","-38.9","","70","","0.0","","19","","9","","16.1","","101.02","","","","-45","","NA"
"-77.97","72.69","POND INLET A","2403206","2019-01-18 04:00","2019","01","18","04:00","-34.9","","-38.6","","70","","0.0","","19","","11","","16.1","","100.99","","","","-46","","NA"
"-77.97","72.69","POND INLET A","2403206","2019-01-18 05:00","2019","01","18","05:00","-35.1","","-38.6","","71","","0.0","","19","","9","","16.1","","100.95","","","","-45","","NA"
"-77.97","72.69","POND INLET A","2403206","2019-01-18 06:00","2019","01","18","06:00","-33.8","","-37.2","","72","","0.0","","22","","9","","16.1","","100.88","","","","-43","","NA"
"-77.97","72.69","POND INLET A","2403206","2019-01-18 07:00","2019","01","18","07:00","-34.3","","-37.7","","72","","0.0","","18","","8","","16.1","","100.79","","","","-43","","NA"
"-77.97","72.69","POND INLET A","2403206","2019-01-18 08:00","2019","01","18","08:00","-34.3","","-38.0","","70","","0.0","","20","","5","","16.1","","100.70","","","","-41","","NA"
"-77.97","72.69","POND INLET A","2403206","2019-01-18 09:00","2019","01","18","09:00","-33.5","","-36.7","","74","","0.0","","","","0","","16.1","","100.62","","","","","","NA"
"-77.97","72.69","POND INLET A","2403206","2019-01-18 10:00","2019","01","18","10:00","-32.4","","-35.8","","73","","0.0","","15","","5","","16.1","","100.51","","","","-38","","NA"
"-77.97","72.69","POND INLET A","2403206","2019-01-18 11:00","2019","01","18","11:00","-32.1","","-35.3","","74","","0.0","","18","","8","","16.1","","100.42","","","","-40","","NA"
"-77.97","72.69","POND INLET A","2403206","2019-01-18 12:00","2019","01","18","12:00","-31.2","","-34.4","","74","","0.0","","20","","5","","16.1","","100.35","","","","-37","","NA"
"-77.97","72.69","POND INLET A","2403206","2019-01-18 13:00","2019","01","18","13:00","-34.1","","-37.8","","70","","0.0","","23","","9","","16.1","","100.28","","","","-43","","NA"
"-77.97","72.69","POND INLET A","2403206","2019-01-18 14:00","2019","01","18","14:00","-33.8","","-37.2","","72","","0.0","","20","","9","","16.1","","100.22","","","","-43","","NA"
"-77.97","72.69","POND INLET A","2403206","2019-01-18 15:00","2019","01","18","15:00","-32.0","","-35.2","","74","","0.0","","22","","9","","16.1","","100.14","","","","-41","","NA"
"-77.97","72.69","POND INLET A","2403206","2019-01-18 16:00","2019","01","18","16:00","-31.9","","-35.1","","74","","0.0","","21","","11","","16.1","","100.08","","","","-42","","NA"
"-77.97","72.69","POND INLET A","2403206","2019-01-18 17:00","2019","01","18","17:00","-31.4","","-34.5","","75","","0.0","","20","","11","","16.1","","100.03","","","","-41","","NA"
"-77.97","72.69","POND INLET A","2403206","2019-01-18 18:00","2019","01","18","18:00","-31.8","","-35.1","","73","","0.0","","22","","9","","16.1","","99.94","","","","-41","","NA"
"-77.97","72.69","POND INLET A","2403206","2019-01-18 19:00","2019","01","18","19:00","-33.1","","-36.4","","73","","0.0","","21","","11","","16.1","","99.89","","","","-43","","NA"
"-77.97","72.69","POND INLET A","2403206","2019-01-18 20:00","2019","01","18","20:00","-32.4","","-35.5","","75","","0.0","","16","","11","","16.1","","99.81","","","","-43","","NA"
"-77.97","72.69","POND INLET A","2403206","2019-01-18 21:00","2019","01","18","21:00","-29.8","","-32.8","","76","","0.0","","","","0","","16.1","","99.70","","","","","","NA"
"-77.97","72.69","POND INLET A","2403206","2019-01-18 22:00","2019","01","18","22:00","-31.3","","-34.3","","76","","0.0","","19","","11","","16.1","","99.66","","","","-41","","NA"
"-77.97","72.69","POND INLET A","2403206","2019-01-18 23:00","2019","01","18","23:00","-31.0","","-34.1","","75","","0.0","","17","","8","","16.1","","99.59","","","","-39","","NA"
"-77.97","72.69","POND INLET A","2403206","2019-01-19 00:00","2019","01","19","00:00","-32.7","","-36.0","","73","","0.0","","23","","15","","16.1","","99.55","","","","-45","","NA"
"-77.97","72.69","POND INLET A","2403206","2019-01-19 01:00","2019","01","19","01:00","-32.9","","-36.2","","73","","0.0","","20","","13","","16.1","","99.52","","","","-44","","NA"
"-77.97","72.69","POND INLET A","2403206","2019-01-19 02:00","2019","01","19","02:00","-32.4","","-35.7","","73","","0.0","","17","","11","","16.1","","99.47","","","","-43","","NA"
"-77.97","72.69","POND INLET A","2403206","2019-01-19 03:00","2019","01","19","03:00","-32.4","","-35.5","","74","","0.0","","17","","11","","16.1","","99.42","","","","-43","","NA"
"-77.97","72.69","POND INLET A","2403206","2019-01-19 04:00","2019","01","19","04:00","-30.5","","-33.6","","75","","0.0","","20","","5","","16.1","","99.38","","","","-36","","NA"
"-77.97","72.69","POND INLET A","2403206","2019-01-19 05:00","2019","01","19","05:00","-31.3","","-34.4","","75","","0.0","","6","","5","","16.1","","99.35","","","","-37","","NA"
"-77.97","72.69","POND INLET A","2403206","2019-01-19 06:00","2019","01","19","06:00","-33.0","","-36.3","","73","","0.0","","22","","5","","16.1","","99.31","","","","-39","","NA"
"-77.97","72.69","POND INLET A","2403206","2019-01-19 07:00","2019","01","19","07:00","-33.7","","-37.1","","72","","0.0","","","","0","","16.1","","99.25","","","","","","NA"
"-77.97","72.69","POND INLET A","2403206","2019-01-19 08:00","2019","01","19","08:00","-31.2","","-34.3","","75","","0.0","","17","","9","","16.1","","99.18","","","","-40","","NA"
"-77.97","72.69","POND INLET A","2403206","2019-01-19 09:00","2019","01","19","09:00","-31.7","","-34.8","","75","","0.0","","25","","4","","16.1","","99.14","","","","-36","","NA"
"-77.97","72.69","POND INLET A","2403206","2019-01-19 10:00","2019","01","19","10:00","-32.1","","-35.3","","74","","0.0","","","","0","","16.1","","99.10","","","","","","Snow"
"-77.97","72.69","POND INLET A","2403206","2019-01-19 11:00","2019","01","19","11:00","-31.4","","-34.5","","75","","0.0","","19","","9","","6.4","","99.05","","","","-40","","Snow"
"-77.97","72.69","POND INLET A","2403206","2019-01-19 12:00","2019","01","19","12:00","-30.1","","-33.1","","76","","0.0","","18","","9","","14.5","","99.00","","","","-39","","Snow"
"-77.97","72.69","POND INLET A","2403206","2019-01-19 13:00","2019","01","19","13:00","-31.0","","-34.1","","75","","0.0","","21","","8","","9.7","","98.98","","","","-39","","Snow"
"-77.97","72.69","POND INLET A","2403206","2019-01-19 14:00","2019","01","19","14:00","-29.9","","-32.9","","76","","0.0","","17","","11","","8.1","","98.92","","","","-40","","Snow"
"-77.97","72.69","POND INLET A","2403206","2019-01-19 15:00","2019","01","19","15:00","-31.0","","-34.1","","75","","0.1","","23","","11","","3.6","","98.93","","","","-41","","Snow"
"-77.97","72.69","POND INLET A","2403206","2019-01-19 16:00","2019","01","19","16:00","-31.2","","-34.1","","76","","0.0","","20","","4","","9.7","","98.93","","","","-36","","Snow"
"-77.97","72.69","POND INLET A","2403206","2019-01-19 17:00","2019","01","19","17:00","-31.1","","-34.0","","76","","0.0","","16","","4","","4.0","","98.94","","","","-36","","Snow"
"-77.97","72.69","POND INLET A","2403206","2019-01-19 18:00","2019","01","19","18:00","-31.0","","-34.0","","75","","0.0","","","","0","","6.4","","98.94","","","","","","Snow"
"-77.97","72.69","POND INLET A","2403206","2019-01-19 19:00","2019","01","19","19:00","-30.9","","-33.8","","76","","0.0","","16","","5","","8.1","","98.93","","","","-37","","Snow"
"-77.97","72.69","POND INLET A","2403206","2019-01-19 20:00","2019","01","19","20:00","-31.6","","-34.8","","74","","0.0","","","","0","","6.4","","98.92","","","","","","Snow"
"-77.97","72.69","POND INLET A","2403206","2019-01-19 21:00","2019","01","19","21:00","-31.4","","-34.5","","75","","0.0","","","M","4","","3.2","","98.94","","","","-36","","Snow"
"-77.97","72.69","POND INLET A","2403206","2019-01-19 22:00","2019","01","19","22:00","-31.1","","-34.2","","75","","0.0","","","M","4","","4.0","","98.95","","","","-36","","Snow"
"-77.97","72.69","POND INLET A","2403206","2019-01-19 23:00","2019","01","19","23:00","-29.8","","-32.9","","75","","0.0","","","M","4","","3.2","","98.94","","","","-34","","Snow"
"-77.97","72.69","POND INLET A","2403206","2019-01-20 00:00","2019","01","20","00:00","-29.8","","-32.8","","76","","0.0","","19","","9","","4.0","","98.96","","","","-38","","Snow"
"-77.97","72.69","POND INLET A","2403206","2019-01-20 01:00","2019","01","20","01:00","-29.1","","-31.9","","77","","0.0","","21","","5","","6.4","","98.98","","","","-35","","Snow"
"-77.97","72.69","POND INLET A","2403206","2019-01-20 02:00","2019","01","20","02:00","-29.0","","-31.9","","77","","0.0","","17","","9","","3.6","","99.02","","","","-37","","Snow"
"-77.97","72.69","POND INLET A","2403206","2019-01-20 03:00","2019","01","20","03:00","-28.8","","-31.7","","77","","0.0","","","M","4","","4.8","","99.06","","","","-33","","Snow"
"-77.97","72.69","POND INLET A","2403206","2019-01-20 04:00","2019","01","20","04:00","-29.0","","-31.9","","77","","0.0","","19","","5","","4.8","","99.06","","","","-34","","Snow"
"-77.97","72.69","POND INLET A","2403206","2019-01-20 05:00","2019","01","20","05:00","-28.9","","-31.8","","77","","0.0","","17","","8","","3.2","","99.09","","","","-37","","Snow"
"-77.97","72.69","POND INLET A","2403206","2019-01-20 06:00","2019","01","20","06:00","-28.7","","-31.6","","77","","0.0","","19","","9","","4.8","","99.11","","","","-37","","Snow"
"-77.97","72.69","POND INLET A","2403206","2019-01-20 07:00","2019","01","20","07:00","-29.8","","-32.8","","76","","0.0","","16","","8","","16.1","","99.11","","","","-38","","NA"
"-77.97","72.69","POND INLET A","2403206","2019-01-20 08:00","2019","01","20","08:00","-30.5","","-33.4","","76","","0.0","","16","","5","","16.1","","99.12","","","","-36","","NA"
"-77.97","72.69","POND INLET A","2403206","2019-01-20 09:00","2019","01","20","09:00","-30.6","","-33.6","","76","","0.0","","18","","9","","16.1","","99.15","","","","-39","","NA"
"-77.97","72.69","POND INLET A","2403206","2019-01-20 10:00","2019","01","20","10:00","-29.8","","-32.7","","77","","0.0","","17","","8","","12.9","","99.18","","","","-38","","Snow"
"-77.97","72.69","POND INLET A","2403206","2019-01-20 11:00","2019","01","20","11:00","-30.4","","-33.4","","76","","0.0","","19","","8","","11.3","","99.20","","","","-38","","Snow"
"-77.97","72.69","POND INLET A","2403206","2019-01-20 12:00","2019","01","20","12:00","-30.0","","-32.8","","77","","0.0","","11","","8","","16.1","","99.20","","","","-38","","NA"
"-77.97","72.69","POND INLET A","2403206","2019-01-20 13:00","2019","01","20","13:00","-29.8","","-32.7","","77","","0.0","","5","","5","","8.1","","99.22","","","","-35","","Snow"
"-77.97","72.69","POND INLET A","2403206","2019-01-20 14:00","2019","01","20","14:00","-30.0","","-32.8","","77","","0.0","","7","","4","","16.1","","99.23","","","","-35","","NA"
"-77.97","72.69","POND INLET A","2403206","2019-01-20 15:00","2019","01","20","15:00","-31.1","","-34.2","","75","","0.0","","12","","5","","16.1","","99.24","","","","-37","","NA"
"-77.97","72.69","POND INLET A","2403206","2019-01-20 16:00","2019","01","20","16:00","-30.6","","-33.6","","76","","0.0","","","M","4","","16.1","","99.27","","","","-35","","NA"
"-77.97","72.69","POND INLET A","2403206","2019-01-20 17:00","2019","01","20","17:00","-31.2","","-34.3","","75","","0.0","","8","","5","","16.1","","99.30","","","","-37","","NA"
"-77.97","72.69","POND INLET A","2403206","2019-01-20 18:00","2019","01","20","18:00","-32.2","","-35.3","","75","","0.0","","13","","8","","16.1","","99.32","","","","-41","","NA"
"-77.97","72.69","POND INLET A","2403206","2019-01-20 19:00","2019","01","20","19:00","-31.9","","-35.0","","75","","0.0","","13","","8","","16.1","","99.34","","","","-40","","NA"
"-77.97","72.69","POND INLET A","2403206","2019-01-20 20:00","2019","01","20","20:00","-30.2","","-32.8","","79","","0.0","","","","0","","16.1","","99.37","","","","","","NA"
"-77.97","72.69","POND INLET A","2403206","2019-01-20 21:00","2019","01","20","21:00","-32.8","","-36.1","","73","","0.0","","13","","5","","16.1","","99.39","","","","-39","","NA"
"-77.97","72.69","POND INLET A","2403206","2019-01-20 22:00","2019","01","20","22:00","-32.6","","-35.8","","74","","0.0","","8","","8","","16.1","","99.41","","","","-41","","NA"
"-77.97","72.69","POND INLET A","2403206","2019-01-20 23:00","2019","01","20","23:00","-32.2","","-35.3","","75","","0.0","","7","","4","","16.1","","99.46","","","","-37","","NA"
"-77.97","72.69","POND INLET A","2403206","2019-01-21 00:00","2019","01","21","00:00","-31.8","","-34.7","","76","","0.0","","","","0","","16.1","","99.48","","","","","","NA"
"-77.97","72.69","POND INLET A","2403206","2019-01-21 01:00","2019","01","21","01:00","-32.4","","-35.6","","74","","0.0","","","","0","","16.1","","99.52","","","","","","NA"
"-77.97","72.69","POND INLET A","2403206","2019-01-21 02:00","2019","01","21","02:00","-32.4","","-35.7","","73","","0.0","","","","0","","16.1","","99.58","","","","","","NA"
"-77.97","72.69","POND INLET A","2403206","2019-01-21 03:00","2019","01","21","03:00","-32.8","","-36.1","","73","","0.0","","7","","5","","16.1","","99.60","","","","-39","","NA"
"-77.97","72.69","POND INLET A","2403206","2019-01-21 04:00","2019","01","21","04:00","-31.3","","-34.3","","75","","0.0","","15","","5","","16.1","","99.64","","","","-37","","NA"
"-77.97","72.69","POND INLET A","2403206","2019-01-21 05:00","2019","01","21","05:00","-32.4","","-35.6","","74","","0.0","","","M","4","","16.1","","99.72","","","","-37","","NA"
"-77.97","72.69","POND INLET A","2403206","2019-01-21 06:00","2019","01","21","06:00","-32.3","","-35.3","","75","","0.0","","","","0","","16.1","","99.75","","","","","","NA"
"-77.97","72.69","POND INLET A","2403206","2019-01-21 07:00","2019","01","21","07:00","-33.2","","-36.4","","74","","0.0","","","M","4","","16.1","","99.82","","","","-38","","NA"
"-77.97","72.69","POND INLET A","2403206","2019-01-21 08:00","2019","01","21","08:00","-34.4","","-37.8","","72","","0.0","","17","","8","","16.1","","99.86","","","","-43","","NA"
"-77.97","72.69","POND INLET A","2403206","2019-01-21 09:00","2019","01","21","09:00","-33.6","","-36.8","","74","","0.0","","10","","8","","16.1","","99.88","","","","-42","","NA"
"-77.97","72.69","POND INLET A","2403206","2019-01-21 10:00","2019","01","21","10:00","-34.1","","-37.3","","74","","0.0","","","M","4","","16.1","","99.94","","","","-39","","NA"
"-77.97","72.69","POND INLET A","2403206","2019-01-21 11:00","2019","01","21","11:00","-33.4","","-36.7","","73","","0.0","","","M","4","","16.1","","99.99","","","","-38","","NA"
"-77.97","72.69","POND INLET A","2403206","2019-01-21 12:00","2019","01","21","12:00","-33.9","","-37.3","","73","","0.0","","15","","13","","16.1","","100.03","","","","-45","","NA"
"-77.97","72.69","POND INLET A","2403206","2019-01-21 13:00","2019","01","21","13:00","-34.7","","-38.1","","72","","0.0","","","","0","","16.1","","100.08","","","","","","NA"
"-77.97","72.69","POND INLET A","2403206","2019-01-21 14:00","2019","01","21","14:00","-34.0","","-37.4","","72","","0.0","","7","","8","","11.3","","100.14","","","","-43","","NA"
"-77.97","72.69","POND INLET A","2403206","2019-01-21 15:00","2019","01","21","15:00","-33.6","","-37.0","","72","","0.0","","15","","5","","16.1","","100.19","","","","-40","","NA"
"-77.97","72.69","POND INLET A","2403206","2019-01-21 16:00","2019","01","21","16:00","-33.6","","-37.0","","72","","0.0","","16","","9","","16.1","","100.23","","","","-43","","NA"
"-77.97","72.69","POND INLET A","2403206","2019-01-21 17:00","2019","01","21","17:00","-33.3","","-36.5","","74","","0.0","","","M","4","","16.1","","100.28","","","","-38","","NA"
"-77.97","72.69","POND INLET A","2403206","2019-01-21 18:00","2019","01","21","18:00","-32.7","","-36.0","","73","","0.0","","10","","4","","16.1","","100.31","","","","-37","","NA"
"-77.97","72.69","POND INLET A","2403206","2019-01-21 19:00","2019","01","21","19:00","-34.5","","-37.8","","73","","0.0","","19","","5","","16.1","","100.33","","","","-41","","NA"
"-77.97","72.69","POND INLET A","2403206","2019-01-21 20:00","2019","01","21","20:00","-34.7","","-38.1","","72","","0.0","","23","","8","","16.1","","100.31","","","","-43","","NA"
"-77.97","72.69","POND INLET A","2403206","2019-01-21 21:00","2019","01","21","21:00","-33.5","","-37.0","","72","","0.0","","19","","8","","16.1","","100.30","","","","-42","","NA"
"-77.97","72.69","POND INLET A","2403206","2019-01-21 22:00","2019","01","21","22:00","-34.2","","-37.6","","72","","0.0","","","","0","","16.1","","100.32","","","","","","NA"
"-77.97","72.69","POND INLET A","2403206","2019-01-21 23:00","2019","01","21","23:00","-34.5","","-37.8","","73","","0.0","","21","","9","","16.1","","100.31","","","","-44","","NA"
"-77.97","72.69","POND INLET A","2403206","2019-01-22 00:00","2019","01","22","00:00","-34.5","","-38.1","","71","","0.0","","21","","8","","16.1","","100.30","","","","-43","","NA"
"-77.97","72.69","POND INLET A","2403206","2019-01-22 01:00","2019","01","22","01:00","-34.8","","-38.4","","71","","0.0","","22","","11","","16.1","","100.29","","","","-45","","NA"
"-77.97","72.69","POND INLET A","2403206","2019-01-22 02:00","2019","01","22","02:00","-36.2","","-39.9","","70","","0.0","","21","","9","","16.1","","100.30","","","","-46","","NA"
"-77.97","72.69","POND INLET A","2403206","2019-01-22 03:00","2019","01","22","03:00","-36.3","","-39.8","","71","","0.0","","17","","9","","16.1","","100.29","","","","-46","","NA"
"-77.97","72.69","POND INLET A","2403206","2019-01-22 04:00","2019","01","22","04:00","-34.5","","-37.6","","74","","0.0","","21","","8","","16.1","","100.27","","","","-43","","NA"
"-77.97","72.69","POND INLET A","2403206","2019-01-22 05:00","2019","01","22","05:00","-35.6","","-39.0","","72","","0.0","","20","","5","","16.1","","100.24","","","","-42","","NA"
"-77.97","72.69","POND INLET A","2403206","2019-01-22 06:00","2019","01","22","06:00","-35.0","","-38.6","","71","","0.0","","15","","11","","16.1","","100.21","","","","-46","","NA"
"-77.97","72.69","POND INLET A","2403206","2019-01-22 07:00","2019","01","22","07:00","-36.1","","-39.9","","69","","0.0","","20","","9","","16.1","","100.17","","","","-46","","NA"
"-77.97","72.69","POND INLET A","2403206","2019-01-22 08:00","2019","01","22","08:00","-36.2","","-39.8","","70","","0.0","","20","","13","","16.1","","100.14","","","","-48","","NA"
"-77.97","72.69","POND INLET A","2403206","2019-01-22 09:00","2019","01","22","09:00","-36.3","","-40.1","","69","","0.0","","19","","11","","16.1","","100.13","","","","-47","","NA"
"-77.97","72.69","POND INLET A","2403206","2019-01-22 10:00","2019","01","22","10:00","-35.7","","-39.5","","69","","0.0","","19","","11","","16.1","","100.10","","","","-47","","NA"
"-77.97","72.69","POND INLET A","2403206","2019-01-22 11:00","2019","01","22","11:00","-34.6","","-38.0","","72","","0.0","","20","","8","","16.1","","100.08","","","","-43","","NA"
"-77.97","72.69","POND INLET A","2403206","2019-01-22 12:00","2019","01","22","12:00","-34.3","","-37.7","","73","","0.0","","17","","8","","16.1","","100.07","","","","-43","","NA"
"-77.97","72.69","POND INLET A","2403206","2019-01-22 13:00","2019","01","22","13:00","-34.2","","-37.5","","73","","0.0","","","M","4","","11.3","","100.06","","","","-39","","NA"
"-77.97","72.69","POND INLET A","2403206","2019-01-22 14:00","2019","01","22","14:00","-34.5","","-38.3","","69","","0.0","","18","","5","","16.1","","100.05","","","","-41","","NA"
"-77.97","72.69","POND INLET A","2403206","2019-01-22 15:00","2019","01","22","15:00","-34.1","","-37.5","","72","","0.0","","22","","5","","9.7","","100.05","","","","-40","","Haze"
"-77.97","72.69","POND INLET A","2403206","2019-01-22 16:00","2019","01","22","16:00","-33.8","","-37.2","","72","","0.0","","18","","9","","16.1","","100.05","","","","-43","","NA"
"-77.97","72.69","POND INLET A","2403206","2019-01-22 17:00","2019","01","22","17:00","-32.6","","-35.9","","73","","0.0","","19","","8","","16.1","","100.10","","","","-41","","NA"
"-77.97","72.69","POND INLET A","2403206","2019-01-22 18:00","2019","01","22","18:00","-33.1","","-36.4","","73","","0.0","","22","","9","","16.1","","100.13","","","","-42","","NA"
"-77.97","72.69","POND INLET A","2403206","2019-01-22 19:00","2019","01","22","19:00","-33.6","","-36.9","","73","","0.0","","17","","8","","16.1","","100.14","","","","-42","","NA"
"-77.97","72.69","POND INLET A","2403206","2019-01-22 20:00","2019","01","22","20:00","-33.1","","-36.4","","73","","0.0","","21","","9","","16.1","","100.12","","","","-42","","NA"
"-77.97","72.69","POND INLET A","2403206","2019-01-22 21:00","2019","01","22","21:00","-33.2","","-36.5","","73","","0.0","","24","","5","","16.1","","100.10","","","","-39","","NA"
"-77.97","72.69","POND INLET A","2403206","2019-01-22 22:00","2019","01","22","22:00","-33.4","","-36.7","","73","","0.0","","22","","5","","16.1","","100.10","","","","-39","","NA"
"-77.97","72.69","POND INLET A","2403206","2019-01-22 23:00","2019","01","22","23:00","-33.0","","-36.3","","73","","0.0","","21","","5","","16.1","","100.11","","","","-39","","NA"
"-77.97","72.69","POND INLET A","2403206","2019-01-23 00:00","2019","01","23","00:00","-32.7","","-36.0","","73","","0.0","","18","","8","","16.1","","100.10","","","","-41","","NA"
"-77.97","72.69","POND INLET A","2403206","2019-01-23 01:00","2019","01","23","01:00","-32.6","","-35.9","","73","","0.0","","23","","8","","16.1","","100.11","","","","-41","","NA"
"-77.97","72.69","POND INLET A","2403206","2019-01-23 02:00","2019","01","23","02:00","-32.4","","-35.6","","74","","0.0","","19","","9","","16.1","","100.11","","","","-41","","NA"
"-77.97","72.69","POND INLET A","2403206","2019-01-23 03:00","2019","01","23","03:00","-32.4","","-35.6","","74","","0.0","","18","","11","","16.1","","100.10","","","","-43","","NA"
"-77.97","72.69","POND INLET A","2403206","2019-01-23 04:00","2019","01","23","04:00","-32.2","","-35.4","","74","","0.0","","19","","9","","16.1","","100.11","","","","-41","","NA"
"-77.97","72.69","POND INLET A","2403206","2019-01-23 05:00","2019","01","23","05:00","-32.1","","-35.3","","74","","0.0","","","M","4","","16.1","","100.10","","","","-37","","NA"
"-77.97","72.69","POND INLET A","2403206","2019-01-23 06:00","2019","01","23","06:00","-32.1","","-35.3","","74","","0.0","","22","","8","","16.1","","100.07","","","","-40","","NA"
"-77.97","72.69","POND INLET A","2403206","2019-01-23 07:00","2019","01","23","07:00","-32.1","","-35.3","","74","","0.0","","19","","9","","16.1","","100.04","","","","-41","","NA"
"-77.97","72.69","POND INLET A","2403206","2019-01-23 08:00","2019","01","23","08:00","-32.0","","-35.2","","74","","0.0","","18","","8","","16.1","","100.02","","","","-40","","NA"
"-77.97","72.69","POND INLET A","2403206","2019-01-23 09:00","2019","01","23","09:00","-31.7","","-34.8","","75","","0.0","","17","","9","","16.1","","100.00","","","","-41","","NA"
"-77.97","72.69","POND INLET A","2403206","2019-01-23 10:00","2019","01","23","10:00","-31.4","","-34.5","","75","","0.0","","19","","8","","6.4","","100.00","","","","-40","","Snow"
"-77.97","72.69","POND INLET A","2403206","2019-01-23 11:00","2019","01","23","11:00","-31.1","","-34.2","","75","","0.0","","19","","8","","6.4","","100.00","","","","-39","","Snow"
"-77.97","72.69","POND INLET A","2403206","2019-01-23 12:00","2019","01","23","12:00","-30.8","","-33.9","","75","","0.0","","20","","4","","16.1","","100.02","","","","-35","","Snow"
"-77.97","72.69","POND INLET A","2403206","2019-01-23 13:00","2019","01","23","13:00","-30.7","","-33.8","","75","","0.0","","","M","4","","16.1","","100.04","","","","-35","","Snow"
"-77.97","72.69","POND INLET A","2403206","2019-01-23 14:00","2019","01","23","14:00","-30.6","","-33.6","","76","","0.0","","","M","4","","11.3","","100.04","","","","-35","","Snow"
"-77.97","72.69","POND INLET A","2403206","2019-01-23 15:00","2019","01","23","15:00","-31.6","","-34.8","","74","","0.0","","18","","8","","6.4","","100.09","","","","-40","","Snow"
"-77.97","72.69","POND INLET A","2403206","2019-01-23 16:00","2019","01","23","16:00","-32.2","","-35.4","","74","","0.0","","15","","5","","16.1","","100.14","","","","-38","","NA"
"-77.97","72.69","POND INLET A","2403206","2019-01-23 17:00","2019","01","23","17:00","-33.5","","-36.7","","74","","0.0","","16","","8","","16.1","","100.18","","","","-42","","NA"
"-77.97","72.69","POND INLET A","2403206","2019-01-23 18:00","2019","01","23","18:00","-33.5","","-36.9","","72","","0.0","","14","","8","","12.9","","100.21","","","","-42","","Snow"
"-77.97","72.69","POND INLET A","2403206","2019-01-23 19:00","2019","01","23","19:00","-33.4","","-36.7","","73","","0.0","","17","","8","","16.1","","100.26","","","","-42","","NA"
"-77.97","72.69","POND INLET A","2403206","2019-01-23 20:00","2019","01","23","20:00","-33.7","","-37.1","","72","","0.0","","18","","5","","16.1","","100.30","","","","-40","","NA"
"-77.97","72.69","POND INLET A","2403206","2019-01-23 21:00","2019","01","23","21:00","-33.6","","-36.8","","74","","0.0","","20","","4","","16.1","","100.34","","","","-38","","NA"
"-77.97","72.69","POND INLET A","2403206","2019-01-23 22:00","2019","01","23","22:00","-34.1","","-37.4","","73","","0.0","","18","","5","","16.1","","100.38","","","","-40","","NA"
"-77.97","72.69","POND INLET A","2403206","2019-01-23 23:00","2019","01","23","23:00","-34.0","","-37.5","","72","","0.0","","18","","8","","16.1","","100.41","","","","-43","","NA"
"-77.97","72.69","POND INLET A","2403206","2019-01-24 00:00","2019","01","24","00:00","-32.9","","-36.2","","73","","0.0","","16","","11","","16.1","","100.47","","","","-43","","NA"
"-77.97","72.69","POND INLET A","2403206","2019-01-24 01:00","2019","01","24","01:00","-33.7","","-36.9","","74","","0.0","","17","","13","","16.1","","100.54","","","","-45","","NA"
"-77.97","72.69","POND INLET A","2403206","2019-01-24 02:00","2019","01","24","02:00","-33.0","","-36.5","","72","","0.0","","16","","9","","16.1","","100.59","","","","-42","","NA"
"-77.97","72.69","POND INLET A","2403206","2019-01-24 03:00","2019","01","24","03:00","-33.6","","-37.0","","72","","0.0","","16","","5","","16.1","","100.62","","","","-40","","NA"
"-77.97","72.69","POND INLET A","2403206","2019-01-24 04:00","2019","01","24","04:00","-33.8","","-37.2","","72","","0.0","","16","","9","","16.1","","100.65","","","","-43","","NA"
"-77.97","72.69","POND INLET A","2403206","2019-01-24 05:00","2019","01","24","05:00","-33.1","","-36.4","","73","","0.0","","17","","8","","16.1","","100.71","","","","-42","","NA"
"-77.97","72.69","POND INLET A","2403206","2019-01-24 06:00","2019","01","24","06:00","-32.8","","-36.1","","73","","0.0","","16","","8","","16.1","","100.78","","","","-41","","NA"
"-77.97","72.69","POND INLET A","2403206","2019-01-24 07:00","2019","01","24","07:00","-33.4","","-36.8","","72","","0.0","","16","","4","","16.1","","100.81","","","","-38","","NA"
"-77.97","72.69","POND INLET A","2403206","2019-01-24 08:00","2019","01","24","08:00","-34.1","","-37.5","","72","","0.0","","18","","8","","16.1","","100.83","","","","-43","","NA"
"-77.97","72.69","POND INLET A","2403206","2019-01-24 09:00","2019","01","24","09:00","-34.3","","-37.7","","72","","0.0","","16","","9","","16.1","","100.87","","","","-44","","NA"
"-77.97","72.69","POND INLET A","2403206","2019-01-24 10:00","2019","01","24","10:00","-33.9","","-37.4","","71","","0.0","","16","","9","","16.1","","100.91","","","","-43","","NA"
"-77.97","72.69","POND INLET A","2403206","2019-01-24 11:00","2019","01","24","11:00","-34.0","","-37.1","","74","","0.0","","22","","8","","16.1","","100.97","","","","-43","","NA"
"-77.97","72.69","POND INLET A","2403206","2019-01-24 12:00","2019","01","24","12:00","-33.6","","-37.0","","72","","0.0","","14","","5","","16.1","","101.00","","","","-40","","Snow"
"-77.97","72.69","POND INLET A","2403206","2019-01-24 13:00","2019","01","24","13:00","-32.5","","-36.0","","72","","0.0","","16","","8","","16.1","","101.03","","","","-41","","Snow"
"-77.97","72.69","POND INLET A","2403206","2019-01-24 14:00","2019","01","24","14:00","-34.0","","-37.4","","72","","0.0","","19","","9","","12.9","","101.06","","","","-43","","Snow"
"-77.97","72.69","POND INLET A","2403206","2019-01-24 15:00","2019","01","24","15:00","-34.6","","-38.1","","72","","0.0","","20","","8","","4.8","","101.08","","","","-43","","Snow"
"-77.97","72.69","POND INLET A","2403206","2019-01-24 16:00","2019","01","24","16:00","-35.3","","-38.8","","71","","0.0","","20","","9","","8.1","","101.10","","","","-45","","Snow"
"-77.97","72.69","POND INLET A","2403206","2019-01-24 17:00","2019","01","24","17:00","-35.6","","-39.1","","71","","0.0","","18","","8","","16.1","","101.11","","","","-45","","NA"
"-77.97","72.69","POND INLET A","2403206","2019-01-24 18:00","2019","01","24","18:00","-35.7","","-39.2","","71","","0.0","","19","","8","","16.1","","101.15","","","","-45","","NA"
"-77.97","72.69","POND INLET A","2403206","2019-01-24 19:00","2019","01","24","19:00","-34.9","","-38.4","","71","","0.0","","19","","8","","9.7","","101.18","","","","-44","","Snow"
"-77.97","72.69","POND INLET A","2403206","2019-01-24 20:00","2019","01","24","20:00","-34.5","","-37.9","","72","","0.0","","18","","9","","4.8","","101.19","","","","-44","","Snow"
"-77.97","72.69","POND INLET A","2403206","2019-01-24 21:00","2019","01","24","21:00","-35.2","","-38.8","","71","","0.0","","21","","8","","4.0","","101.20","","","","-44","","Snow"
"-77.97","72.69","POND INLET A","2403206","2019-01-24 22:00","2019","01","24","22:00","-35.7","","-39.4","","70","","0.0","","22","","8","","12.9","","101.22","","","","-45","","Snow"
"-77.97","72.69","POND INLET A","2403206","2019-01-24 23:00","2019","01","24","23:00","-36.3","","-40.0","","69","","0.0","","21","","8","","8.1","","101.25","","","","-45","","Snow"
"-77.97","72.69","POND INLET A","2403206","2019-01-25 00:00","2019","01","25","00:00","-36.7","","-40.3","","70","","0.0","","18","","9","","16.1","","101.25","","","","-47","","Snow"
"-77.97","72.69","POND INLET A","2403206","2019-01-25 01:00","2019","01","25","01:00","-36.4","","-40.0","","70","","0.0","","20","","8","","16.1","","101.27","","","","-45","","NA"
"-77.97","72.69","POND INLET A","2403206","2019-01-25 02:00","2019","01","25","02:00","-36.8","","-40.6","","69","","0.0","","19","","8","","12.9","","101.28","","","","-46","","NA"
"-77.97","72.69","POND INLET A","2403206","2019-01-25 03:00","2019","01","25","03:00","-36.8","","-40.6","","69","","0.0","","20","","5","","16.1","","101.29","","","","-43","","NA"
"-77.97","72.69","POND INLET A","2403206","2019-01-25 04:00","2019","01","25","04:00","-36.7","","-40.3","","70","","0.0","","19","","8","","16.1","","101.30","","","","-46","","NA"
"-77.97","72.69","POND INLET A","2403206","2019-01-25 05:00","2019","01","25","05:00","-35.8","","-39.3","","71","","0.0","","20","","8","","16.1","","101.33","","","","-45","","NA"
"-77.97","72.69","POND INLET A","2403206","2019-01-25 06:00","2019","01","25","06:00","-35.9","","-39.6","","70","","0.0","","18","","5","","16.1","","101.36","","","","-42","","Snow"
"-77.97","72.69","POND INLET A","2403206","2019-01-25 07:00","2019","01","25","07:00","-35.7","","-39.2","","71","","0.0","","18","","5","","12.9","","101.36","","","","-42","","Snow"
"-77.97","72.69","POND INLET A","2403206","2019-01-25 08:00","2019","01","25","08:00","-35.2","","-38.7","","71","","0.0","","20","","5","","12.9","","101.37","","","","-42","","NA"
"-77.97","72.69","POND INLET A","2403206","2019-01-25 09:00","2019","01","25","09:00","-36.7","","-40.5","","69","","0.0","","23","","5","","9.7","","101.37","","","","-43","","Snow"
"-77.97","72.69","POND INLET A","2403206","2019-01-25 10:00","2019","01","25","10:00","-37.6","","-41.5","","68","","0.0","","22","","8","","16.1","","101.37","","","","-47","","NA"
"-77.97","72.69","POND INLET A","2403206","2019-01-25 11:00","2019","01","25","11:00","-36.0","","-39.7","","70","","0.0","","19","","4","","16.1","","101.38","","","","-41","","NA"
"-77.97","72.69","POND INLET A","2403206","2019-01-25 12:00","2019","01","25","12:00","-36.6","","-40.2","","70","","0.0","","18","","4","","16.1","","101.36","","","","-42","","NA"
"-77.97","72.69","POND INLET A","2403206","2019-01-25 13:00","2019","01","25","13:00","-36.2","","-40.0","","69","","0.0","","","M","4","","16.1","","101.34","","","","-41","","NA"
"-77.97","72.69","POND INLET A","2403206","2019-01-25 14:00","2019","01","25","14:00","-36.5","","-40.0","","71","","0.0","","13","","5","","16.1","","101.33","","","","-43","","NA"
"-77.97","72.69","POND INLET A","2403206","2019-01-25 15:00","2019","01","25","15:00","-36.6","","-40.4","","69","","0.0","","8","","4","","11.3","","101.33","","","","-42","","NA"
"-77.97","72.69","POND INLET A","2403206","2019-01-25 16:00","2019","01","25","16:00","-36.6","","-40.2","","70","","0.0","","21","","4","","16.1","","101.28","","","","-42","","NA"
"-77.97","72.69","POND INLET A","2403206","2019-01-25 17:00","2019","01","25","17:00","-36.4","","-40.0","","70","","0.0","","20","","5","","16.1","","101.24","","","","-43","","NA"
"-77.97","72.69","POND INLET A","2403206","2019-01-25 18:00","2019","01","25","18:00","-36.1","","-39.8","","70","","0.0","","21","","5","","16.1","","101.26","","","","-43","","Snow"
"-77.97","72.69","POND INLET A","2403206","2019-01-25 19:00","2019","01","25","19:00","-37.0","","-40.8","","69","","0.0","","19","","8","","16.1","","101.23","","","","-46","","Snow"
"-77.97","72.69","POND INLET A","2403206","2019-01-25 20:00","2019","01","25","20:00","-37.6","","-41.6","","67","","0.0","","18","","5","","16.1","","101.19","","","","-44","","Snow"
"-77.97","72.69","POND INLET A","2403206","2019-01-25 21:00","2019","01","25","21:00","-36.9","","-40.6","","70","","0.0","","17","","4","","8.1","","101.14","","","","-42","","Snow"
"-77.97","72.69","POND INLET A","2403206","2019-01-25 22:00","2019","01","25","22:00","-36.9","","-40.5","","70","","0.0","","","","0","","14.5","","101.12","","","","","","NA"
"-77.97","72.69","POND INLET A","2403206","2019-01-25 23:00","2019","01","25","23:00","-36.6","","-40.2","","70","","0.0","","","","0","","11.3","","101.04","","","","","","NA"
"-77.97","72.69","POND INLET A","2403206","2019-01-26 00:00","2019","01","26","00:00","-37.1","","-40.8","","70","","0.0","","","","0","","3.6","","101.01","","","","","","Haze"
"-77.97","72.69","POND INLET A","2403206","2019-01-26 01:00","2019","01","26","01:00","-38.2","","-42.0","","69","","0.0","","22","","5","","16.1","","100.98","","","","-45","","NA"
"-77.97","72.69","POND INLET A","2403206","2019-01-26 02:00","2019","01","26","02:00","-38.6","","-42.5","","68","","0.0","","","M","4","","2.0","","100.94","","","","-44","","Haze"
"-77.97","72.69","POND INLET A","2403206","2019-01-26 03:00","2019","01","26","03:00","-37.9","","-41.8","","68","","0.0","","15","","5","","4.8","","100.89","","","","-45","","Haze"
"-77.97","72.69","POND INLET A","2403206","2019-01-26 04:00","2019","01","26","04:00","-38.6","","-42.6","","67","","0.0","","18","","4","","11.3","","100.86","","","","-44","","NA"
"-77.97","72.69","POND INLET A","2403206","2019-01-26 05:00","2019","01","26","05:00","-37.7","","-41.4","","69","","0.0","","16","","8","","4.0","","100.80","","","","-47","","Haze"
"-77.97","72.69","POND INLET A","2403206","2019-01-26 06:00","2019","01","26","06:00","-39.0","","-42.9","","67","","0.0","","18","","9","","16.1","","100.74","","","","-49","","NA"
"-77.97","72.69","POND INLET A","2403206","2019-01-26 07:00","2019","01","26","07:00","-38.0","","-41.7","","69","","0.0","","18","","11","","14.5","","100.70","","","","-49","","NA"
"-77.97","72.69","POND INLET A","2403206","2019-01-26 08:00","2019","01","26","08:00","-38.0","","-41.8","","69","","0.0","","19","","8","","16.1","","100.64","","","","-47","","NA"
"-77.97","72.69","POND INLET A","2403206","2019-01-26 09:00","2019","01","26","09:00","-37.9","","-41.9","","67","","0.0","","19","","9","","16.1","","100.57","","","","-48","","NA"
"-77.97","72.69","POND INLET A","2403206","2019-01-26 10:00","2019","01","26","10:00","-38.3","","-42.1","","69","","0.0","","19","","9","","16.1","","100.54","","","","-48","","NA"
"-77.97","72.69","POND INLET A","2403206","2019-01-26 11:00","2019","01","26","11:00","-37.6","","-41.4","","69","","0.0","","21","","8","","16.1","","100.49","","","","-47","","NA"
"-77.97","72.69","POND INLET A","2403206","2019-01-26 12:00","2019","01","26","12:00","-37.4","","-41.3","","68","","0.0","","21","","9","","16.1","","100.44","","","","-47","","NA"
"-77.97","72.69","POND INLET A","2403206","2019-01-26 13:00","2019","01","26","13:00","-38.3","","-42.1","","69","","0.0","","19","","5","","16.1","","100.40","","","","-45","","NA"
"-77.97","72.69","POND INLET A","2403206","2019-01-26 14:00","2019","01","26","14:00","-37.2","","-40.8","","70","","0.0","","16","","9","","14.5","","100.34","","","","-47","","NA"
"-77.97","72.69","POND INLET A","2403206","2019-01-26 15:00","2019","01","26","15:00","-39.2","","-43.3","","66","","0.0","","","","0","","1.0","","100.29","","","","","","Haze"
"-77.97","72.69","POND INLET A","2403206","2019-01-26 16:00","2019","01","26","16:00","-37.4","","-41.3","","68","","0.0","","","","0","","12.9","","100.26","","","","","","NA"
"-77.97","72.69","POND INLET A","2403206","2019-01-26 17:00","2019","01","26","17:00","-37.6","","-41.5","","68","","0.0","","18","","5","","4.8","","100.23","","","","-44","","Haze"
"-77.97","72.69","POND INLET A","2403206","2019-01-26 18:00","2019","01","26","18:00","-37.4","","-41.2","","69","","0.0","","20","","4","","16.1","","100.21","","","","-43","","NA"
"-77.97","72.69","POND INLET A","2403206","2019-01-26 19:00","2019","01","26","19:00","-37.5","","-41.3","","69","","0.0","","17","","8","","2.0","","100.14","","","","-47","","Haze"
"-77.97","72.69","POND INLET A","2403206","2019-01-26 20:00","2019","01","26","20:00","-38.7","","-42.9","","66","","0.0","","","","0","","1.6","","100.09","","","","","","Haze"
"-77.97","72.69","POND INLET A","2403206","2019-01-26 21:00","2019","01","26","21:00","-37.3","","-41.2","","68","","0.0","","17","","11","","16.1","","100.08","","","","-48","","NA"
"-77.97","72.69","POND INLET A","2403206","2019-01-26 22:00","2019","01","26","22:00","-34.9","","-38.4","","71","","0.0","","21","","8","","16.1","","100.02","","","","-44","","NA"
"-77.97","72.69","POND INLET A","2403206","2019-01-26 23:00","2019","01","26","23:00","-35.2","","-38.9","","70","","0.0","","22","","5","","16.1","","99.97","","","","-42","","NA"
"-77.97","72.69","POND INLET A","2403206","2019-01-27 00:00","2019","01","27","00:00","-36.4","","-40.2","","69","","0.0","","21","","5","","16.1","","99.92","","","","-43","","NA"
"-77.97","72.69","POND INLET A","2403206","2019-01-27 01:00","2019","01","27","01:00","-35.0","","-38.5","","71","","0.0","","24","","5","","16.1","","99.91","","","","-41","","NA"
"-77.97","72.69","POND INLET A","2403206","2019-01-27 02:00","2019","01","27","02:00","-34.9","","-38.4","","71","","0.0","","23","","5","","14.5","","99.91","","","","-41","","NA"
"-77.97","72.69","POND INLET A","2403206","2019-01-27 03:00","2019","01","27","03:00","-35.0","","-38.5","","71","","0.0","","24","","5","","16.1","","99.88","","","","-41","","Snow"
"-77.97","72.69","POND INLET A","2403206","2019-01-27 04:00","2019","01","27","04:00","-34.4","","-38.0","","71","","0.0","","","M","4","","6.4","","99.89","","","","-39","","Snow"
"-77.97","72.69","POND INLET A","2403206","2019-01-27 05:00","2019","01","27","05:00","-35.2","","-38.8","","71","","0.0","","20","","8","","16.1","","99.87","","","","-44","","Snow"
"-77.97","72.69","POND INLET A","2403206","2019-01-27 06:00","2019","01","27","06:00","-35.2","","-38.9","","70","","0.0","","24","","8","","16.1","","99.87","","","","-44","","Snow"
"-77.97","72.69","POND INLET A","2403206","2019-01-27 07:00","2019","01","27","07:00","-33.2","","-36.7","","72","","0.0","","21","","9","","8.1","","99.86","","","","-42","","Snow"
"-77.97","72.69","POND INLET A","2403206","2019-01-27 08:00","2019","01","27","08:00","-33.6","","-37.0","","72","","0.0","","19","","5","","9.7","","99.85","","","","-40","","Snow"
"-77.97","72.69","POND INLET A","2403206","2019-01-27 09:00","2019","01","27","09:00","-32.8","","-36.1","","73","","0.0","","19","","8","","6.4","","99.86","","","","-41","","Snow"
"-77.97","72.69","POND INLET A","2403206","2019-01-27 10:00","2019","01","27","10:00","-33.6","","-37.0","","72","","0.0","","24","","9","","16.1","","99.89","","","","-43","","Snow"
"-77.97","72.69","POND INLET A","2403206","2019-01-27 11:00","2019","01","27","11:00","-33.2","","-36.5","","73","","0.0","","20","","8","","12.9","","99.92","","","","-42","","Snow"
"-77.97","72.69","POND INLET A","2403206","2019-01-27 12:00","2019","01","27","12:00","-32.3","","-35.5","","74","","0.0","","20","","5","","3.6","","99.91","","","","-38","","Snow"
"-77.97","72.69","POND INLET A","2403206","2019-01-27 13:00","2019","01","27","13:00","-31.7","","-34.9","","74","","0.0","","23","","4","","6.4","","99.91","","","","-36","","Snow"
"-77.97","72.69","POND INLET A","2403206","2019-01-27 14:00","2019","01","27","14:00","-32.0","","-35.2","","74","","0.0","","25","","4","","8.1","","99.94","","","","-37","","Snow"
"-77.97","72.69","POND INLET A","2403206","2019-01-27 15:00","2019","01","27","15:00","-32.0","","-35.2","","74","","0.0","","20","","8","","12.9","","99.96","","","","-40","","Snow"
"-77.97","72.69","POND INLET A","2403206","2019-01-27 16:00","2019","01","27","16:00","-32.1","","-35.3","","74","","0.0","","18","","9","","16.1","","100.00","","","","-41","","Snow"
"-77.97","72.69","POND INLET A","2403206","2019-01-27 17:00","2019","01","27","17:00","-31.7","","-34.6","","76","","0.0","","21","","4","","16.1","","100.03","","","","-36","","NA"
"-77.97","72.69","POND INLET A","2403206","2019-01-27 18:00","2019","01","27","18:00","","M","","M","72","","0.0","","19","","8","","16.1","","","M","","","","","NA"
"-77.97","72.69","POND INLET A","2403206","2019-01-27 19:00","2019","01","27","19:00","-30.3","","-33.3","","76","","0.0","","","M","","M","16.1","","100.09","","","","","","NA"
"-77.97","72.69","POND INLET A","2403206","2019-01-27 20:00","2019","01","27","20:00","-29.5","","-32.5","","76","","0.0","","21","","8","","16.1","","100.11","","","","-37","","NA"
"-77.97","72.69","POND INLET A","2403206","2019-01-27 21:00","2019","01","27","21:00","-29.2","","-32.0","","77","","0.0","","21","","9","","","M","100.14","","","","-38","","NA"
"-77.97","72.69","POND INLET A","2403206","2019-01-27 22:00","2019","01","27","22:00","-28.9","","-31.8","","77","","0.0","","18","","4","","16.1","","100.17","","","","-33","","NA"
"-77.97","72.69","POND INLET A","2403206","2019-01-27 23:00","2019","01","27","23:00","-30.1","","-33.1","","76","","0.0","","25","","5","","16.1","","100.18","","","","-36","","NA"
"-77.97","72.69","POND INLET A","2403206","2019-01-28 00:00","2019","01","28","00:00","-31.3","","-34.2","","76","","0.0","","21","","8","","16.1","","100.20","","","","-40","","NA"
"-77.97","72.69","POND INLET A","2403206","2019-01-28 01:00","2019","01","28","01:00","-31.8","","-34.9","","75","","0.0","","19","","9","","16.1","","100.24","","","","-41","","NA"
"-77.97","72.69","POND INLET A","2403206","2019-01-28 02:00","2019","01","28","02:00","","M","","M","75","","0.0","","16","","9","","16.1","","","M","","","","","NA"
"-77.97","72.69","POND INLET A","2403206","2019-01-28 03:00","2019","01","28","03:00","-30.9","","-33.8","","76","","0.0","","17","","9","","16.1","","100.27","","","","-40","","NA"
"-77.97","72.69","POND INLET A","2403206","2019-01-28 04:00","2019","01","28","04:00","-30.2","","-33.2","","76","","0.0","","16","","11","","16.1","","100.29","","","","-40","","NA"
"-77.97","72.69","POND INLET A","2403206","2019-01-28 05:00","2019","01","28","05:00","","M","","M","74","","0.0","","17","","9","","16.1","","","M","","","","","NA"
"-77.97","72.69","POND INLET A","2403206","2019-01-28 06:00","2019","01","28","06:00","-29.5","","-32.4","","77","","0.0","","","M","","M","9.7","","100.42","","","","","","Snow"
"-77.97","72.69","POND INLET A","2403206","2019-01-28 07:00","2019","01","28","07:00","-28.1","","-30.8","","78","","0.0","","18","","11","","6.4","","100.43","","","","-37","","Snow"
"-77.97","72.69","POND INLET A","2403206","2019-01-28 08:00","2019","01","28","08:00","","M","","M","78","","0.1","","20","","9","","4.0","","","M","","","","","Snow"
"-77.97","72.69","POND INLET A","2403206","2019-01-28 09:00","2019","01","28","09:00","-29.0","","-31.9","","77","","0.0","","21","","8","","16.1","","100.52","","","","-37","","Snow"
"-77.97","72.69","POND INLET A","2403206","2019-01-28 10:00","2019","01","28","10:00","-27.9","","-30.5","","79","","0.0","","16","","5","","14.5","","100.54","","","","-33","","Snow"
"-77.97","72.69","POND INLET A","2403206","2019-01-28 11:00","2019","01","28","11:00","-26.9","","-29.5","","79","","0.0","","21","","8","","16.1","","100.60","","","","-34","","Snow"
"-77.97","72.69","POND INLET A","2403206","2019-01-28 12:00","2019","01","28","12:00","-26.6","","-29.1","","80","","0.0","","19","","8","","6.4","","100.66","","","","-34","","Snow"
"-77.97","72.69","POND INLET A","2403206","2019-01-28 13:00","2019","01","28","13:00","-27.9","","-30.6","","78","","0.0","","21","","9","","4.8","","100.72","","","","-36","","Snow"
"-77.97","72.69","POND INLET A","2403206","2019-01-28 14:00","2019","01","28","14:00","-27.7","","-30.4","","78","","0.0","","25","","4","","16.1","","100.81","","","","-32","","NA"
"-77.97","72.69","POND INLET A","2403206","2019-01-28 15:00","2019","01","28","15:00","","M","","M","79","","0.0","","","","0","","","M","","M","","","","","NA"
"-77.97","72.69","POND INLET A","2403206","2019-01-28 16:00","2019","01","28","16:00","-28.0","","-30.7","","78","","0.0","","15","","5","","16.1","","100.91","","","","-33","","NA"
"-77.97","72.69","POND INLET A","2403206","2019-01-28 17:00","2019","01","28","17:00","-28.6","","-31.4","","77","","0.0","","16","","5","","16.1","","100.95","","","","-34","","NA"
"-77.97","72.69","POND INLET A","2403206","2019-01-28 18:00","2019","01","28","18:00","-26.5","","-29.0","","80","","0.0","","","","0","","16.1","","100.98","","","","","","NA"
"-77.97","72.69","POND INLET A","2403206","2019-01-28 19:00","2019","01","28","19:00","-27.0","","-29.6","","79","","0.0","","17","","4","","16.1","","101.04","","","","-31","","NA"
"-77.97","72.69","POND INLET A","2403206","2019-01-28 20:00","2019","01","28","20:00","-27.0","","-29.5","","80","","0.0","","18","","8","","16.1","","101.11","","","","-34","","NA"
"-77.97","72.69","POND INLET A","2403206","2019-01-28 21:00","2019","01","28","21:00","-26.6","","-29.1","","80","","0.0","","19","","5","","9.7","","101.14","","","","-32","","Snow"
"-77.97","72.69","POND INLET A","2403206","2019-01-28 22:00","2019","01","28","22:00","-26.3","","-28.8","","80","","0.0","","16","","8","","9.7","","101.18","","","","-34","","Snow"
"-77.97","72.69","POND INLET A","2403206","2019-01-28 23:00","2019","01","28","23:00","-26.3","","-28.8","","80","","0.0","","","","0","","14.5","","101.22","","","","","","Snow"
"-77.97","72.69","POND INLET A","2403206","2019-01-29 00:00","2019","01","29","00:00","-26.5","","-29.0","","80","","0.0","","21","","4","","9.7","","101.26","","","","-31","","Haze"
"-77.97","72.69","POND INLET A","2403206","2019-01-29 01:00","2019","01","29","01:00","-27.5","","-30.1","","79","","0.0","","","M","4","","6.4","","101.30","","","","-32","","Haze"
"-77.97","72.69","POND INLET A","2403206","2019-01-29 02:00","2019","01","29","02:00","-28.4","","-31.1","","78","","0.0","","22","","5","","16.1","","101.34","","","","-34","","Snow"
"-77.97","72.69","POND INLET A","2403206","2019-01-29 03:00","2019","01","29","03:00","-28.1","","-30.9","","78","","0.0","","18","","8","","16.1","","101.33","","","","-36","","NA"
"-77.97","72.69","POND INLET A","2403206","2019-01-29 04:00","2019","01","29","04:00","-28.4","","-31.2","","78","","0.0","","15","","9","","16.1","","101.36","","","","-37","","NA"
"-77.97","72.69","POND INLET A","2403206","2019-01-29 05:00","2019","01","29","05:00","-27.5","","-30.2","","78","","0.0","","","","0","","16.1","","101.38","","","","","","NA"
"-77.97","72.69","POND INLET A","2403206","2019-01-29 06:00","2019","01","29","06:00","-29.6","","-32.6","","76","","0.0","","16","","5","","16.1","","101.41","","","","-35","","NA"
"-77.97","72.69","POND INLET A","2403206","2019-01-29 07:00","2019","01","29","07:00","-30.1","","-33.0","","77","","0.0","","18","","9","","16.1","","101.42","","","","-39","","NA"
"-77.97","72.69","POND INLET A","2403206","2019-01-29 08:00","2019","01","29","08:00","-28.9","","-31.5","","79","","0.0","","17","","8","","16.1","","101.43","","","","-37","","NA"
"-77.97","72.69","POND INLET A","2403206","2019-01-29 09:00","2019","01","29","09:00","-28.8","","-31.5","","78","","0.0","","20","","5","","16.1","","101.41","","","","-34","","NA"
"-77.97","72.69","POND INLET A","2403206","2019-01-29 10:00","2019","01","29","10:00","-29.4","","-32.4","","76","","0.0","","21","","5","","16.1","","101.42","","","","-35","","NA"
"-77.97","72.69","POND INLET A","2403206","2019-01-29 11:00","2019","01","29","11:00","-29.5","","-32.5","","76","","0.0","","20","","4","","16.1","","101.42","","","","-34","","NA"
"-77.97","72.69","POND INLET A","2403206","2019-01-29 12:00","2019","01","29","12:00","-29.6","","-32.3","","78","","0.0","","","","0","","16.1","","101.39","","","","","","NA"
"-77.97","72.69","POND INLET A","2403206","2019-01-29 13:00","2019","01","29","13:00","-30.4","","-33.5","","75","","0.0","","19","","5","","16.1","","101.37","","","","-36","","NA"
"-77.97","72.69","POND INLET A","2403206","2019-01-29 14:00","2019","01","29","14:00","-30.4","","-33.6","","75","","0.0","","18","","8","","16.1","","101.35","","","","-38","","NA"
"-77.97","72.69","POND INLET A","2403206","2019-01-29 15:00","2019","01","29","15:00","-29.4","","-32.2","","77","","0.0","","17","","5","","16.1","","101.32","","","","-35","","NA"
"-77.97","72.69","POND INLET A","2403206","2019-01-29 16:00","2019","01","29","16:00","-28.7","","-31.4","","78","","0.0","","25","","5","","16.1","","101.33","","","","-34","","NA"
"-77.97","72.69","POND INLET A","2403206","2019-01-29 17:00","2019","01","29","17:00","-28.2","","-30.9","","78","","0.0","","17","","8","","16.1","","101.30","","","","-36","","Snow"
"-77.97","72.69","POND INLET A","2403206","2019-01-29 18:00","2019","01","29","18:00","-29.2","","-32.0","","77","","0.0","","25","","8","","16.1","","101.28","","","","-37","","Snow"
"-77.97","72.69","POND INLET A","2403206","2019-01-29 19:00","2019","01","29","19:00","-28.5","","-31.2","","78","","0.0","","20","","9","","16.1","","101.27","","","","-37","","Snow"
"-77.97","72.69","POND INLET A","2403206","2019-01-29 20:00","2019","01","29","20:00","-28.1","","-30.7","","79","","0.0","","17","","5","","16.1","","101.23","","","","-33","","Snow"
"-77.97","72.69","POND INLET A","2403206","2019-01-29 21:00","2019","01","29","21:00","-29.2","","-32.0","","77","","0.0","","18","","11","","12.9","","101.20","","","","-39","","Snow"
"-77.97","72.69","POND INLET A","2403206","2019-01-29 22:00","2019","01","29","22:00","-27.5","","-30.1","","79","","0.0","","19","","11","","12.9","","101.17","","","","-37","","Snow"
"-77.97","72.69","POND INLET A","2403206","2019-01-29 23:00","2019","01","29","23:00","-28.3","","-30.9","","79","","0.0","","20","","13","","8.1","","101.13","","","","-39","","Snow"
"-77.97","72.69","POND INLET A","2403206","2019-01-30 00:00","2019","01","30","00:00","-27.7","","-30.3","","79","","0.0","","18","","15","","16.1","","101.09","","","","-39","","Snow"
"-77.97","72.69","POND INLET A","2403206","2019-01-30 01:00","2019","01","30","01:00","-28.5","","-31.2","","78","","0.0","","22","","8","","9.7","","101.10","","","","-36","","Snow"
"-77.97","72.69","POND INLET A","2403206","2019-01-30 02:00","2019","01","30","02:00","-27.6","","-30.2","","79","","0.0","","20","","9","","4.0","","101.07","","","","-36","","Snow"
"-77.97","72.69","POND INLET A","2403206","2019-01-30 03:00","2019","01","30","03:00","-27.2","","-29.8","","79","","0.0","","18","","11","","8.1","","101.06","","","","-36","","Snow"
"-77.97","72.69","POND INLET A","2403206","2019-01-30 04:00","2019","01","30","04:00","-26.5","","-29.0","","80","","0.1","","19","","11","","11.3","","101.07","","","","-35","","Snow"
"-77.97","72.69","POND INLET A","2403206","2019-01-30 05:00","2019","01","30","05:00","-25.7","","-28.1","","81","","0.1","","17","","13","","9.7","","101.09","","","","-35","","Snow"
"-77.97","72.69","POND INLET A","2403206","2019-01-30 06:00","2019","01","30","06:00","-24.6","","-26.7","","83","","0.0","","19","","8","","11.3","","101.10","","","","-32","","Snow"
"-77.97","72.69","POND INLET A","2403206","2019-01-30 07:00","2019","01","30","07:00","-27.1","","-29.7","","79","","0.0","","24","","5","","6.4","","101.11","","","","-32","","Snow"
"-77.97","72.69","POND INLET A","2403206","2019-01-30 08:00","2019","01","30","08:00","-26.9","","-29.4","","80","","0.0","","22","","8","","16.1","","101.14","","","","-34","","Snow"
"-77.97","72.69","POND INLET A","2403206","2019-01-30 09:00","2019","01","30","09:00","-26.4","","-28.9","","80","","0.0","","24","","8","","14.5","","101.15","","","","-34","","Snow"
"-77.97","72.69","POND INLET A","2403206","2019-01-30 10:00","2019","01","30","10:00","-26.0","","-28.4","","81","","0.0","","21","","5","","16.1","","101.16","","","","-31","","Snow"
"-77.97","72.69","POND INLET A","2403206","2019-01-30 11:00","2019","01","30","11:00","-26.4","","-28.9","","80","","0.0","","19","","4","","16.1","","101.17","","","","-31","","NA"
"-77.97","72.69","POND INLET A","2403206","2019-01-30 12:00","2019","01","30","12:00","-25.9","","-28.3","","81","","0.0","","20","","5","","16.1","","101.19","","","","-31","","NA"
"-77.97","72.69","POND INLET A","2403206","2019-01-30 13:00","2019","01","30","13:00","-25.7","","-27.9","","82","","0.0","","17","","5","","16.1","","101.21","","","","-31","","NA"
"-77.97","72.69","POND INLET A","2403206","2019-01-30 14:00","2019","01","30","14:00","-24.5","","-26.8","","82","","0.0","","16","","11","","16.1","","101.24","","","","-33","","NA"
"-77.97","72.69","POND INLET A","2403206","2019-01-30 15:00","2019","01","30","15:00","-25.3","","-27.7","","81","","0.0","","17","","11","","16.1","","101.27","","","","-34","","NA"
"-77.97","72.69","POND INLET A","2403206","2019-01-30 16:00","2019","01","30","16:00","-24.0","","-26.2","","83","","0.0","","16","","11","","16.1","","101.32","","","","-32","","NA"
"-77.97","72.69","POND INLET A","2403206","2019-01-30 17:00","2019","01","30","17:00","-23.3","","-25.6","","82","","0.0","","","M","4","","16.1","","101.40","","","","-27","","NA"
"-77.97","72.69","POND INLET A","2403206","2019-01-30 18:00","2019","01","30","18:00","-23.1","","-25.4","","82","","0.0","","19","","4","","16.1","","101.43","","","","-27","","NA"
"-77.97","72.69","POND INLET A","2403206","2019-01-30 19:00","2019","01","30","19:00","-24.3","","-26.7","","81","","0.0","","18","","8","","16.1","","101.46","","","","-31","","NA"
"-77.97","72.69","POND INLET A","2403206","2019-01-30 20:00","2019","01","30","20:00","-25.4","","-27.8","","81","","0.0","","14","","5","","16.1","","101.48","","","","-30","","NA"
"-77.97","72.69","POND INLET A","2403206","2019-01-30 21:00","2019","01","30","21:00","-25.0","","-27.5","","80","","0.0","","15","","9","","16.1","","101.49","","","","-33","","NA"
"-77.97","72.69","POND INLET A","2403206","2019-01-30 22:00","2019","01","30","22:00","-24.8","","-27.3","","80","","0.0","","15","","11","","16.1","","101.49","","","","-33","","NA"
"-77.97","72.69","POND INLET A","2403206","2019-01-30 23:00","2019","01","30","23:00","-25.7","","-28.2","","80","","0.0","","15","","8","","16.1","","101.50","","","","-33","","NA"
"-77.97","72.69","POND INLET A","2403206","2019-01-31 00:00","2019","01","31","00:00","-26.7","","-29.3","","79","","0.0","","18","","9","","16.1","","101.52","","","","-35","","NA"
"-77.97","72.69","POND INLET A","2403206","2019-01-31 01:00","2019","01","31","01:00","-26.2","","-28.7","","80","","0.0","","15","","17","","16.1","","101.55","","","","-37","","NA"
"-77.97","72.69","POND INLET A","2403206","2019-01-31 02:00","2019","01","31","02:00","-27.2","","-29.9","","79","","0.0","","15","","18","","14.5","","101.59","","","","-39","","NA"
"-77.97","72.69","POND INLET A","2403206","2019-01-31 03:00","2019","01","31","03:00","-26.8","","-29.4","","79","","0.0","","17","","13","","16.1","","101.63","","","","-37","","NA"
"-77.97","72.69","POND INLET A","2403206","2019-01-31 04:00","2019","01","31","04:00","-26.6","","-29.2","","79","","0.0","","19","","13","","14.5","","101.68","","","","-36","","Snow"
"-77.97","72.69","POND INLET A","2403206","2019-01-31 05:00","2019","01","31","05:00","-27.3","","-29.9","","79","","0.0","","17","","17","","16.1","","101.71","","","","-39","","Snow"
"-77.97","72.69","POND INLET A","2403206","2019-01-31 06:00","2019","01","31","06:00","-27.0","","-29.5","","80","","0.0","","19","","15","","16.1","","101.72","","","","-38","","NA"
"-77.97","72.69","POND INLET A","2403206","2019-01-31 07:00","2019","01","31","07:00","-26.4","","-29.0","","79","","0.0","","20","","15","","14.5","","101.74","","","","-37","","Snow"
"-77.97","72.69","POND INLET A","2403206","2019-01-31 08:00","2019","01","31","08:00","-27.4","","-29.9","","80","","0.0","","20","","11","","14.5","","101.75","","","","-37","","Snow"
"-77.97","72.69","POND INLET A","2403206","2019-01-31 09:00","2019","01","31","09:00","-27.6","","-30.3","","79","","0.0","","17","","11","","12.9","","101.75","","","","-37","","Snow"
"-77.97","72.69","POND INLET A","2403206","2019-01-31 10:00","2019","01","31","10:00","-28.1","","-30.8","","78","","0.0","","19","","9","","8.1","","101.75","","","","-36","","Snow"
"-77.97","72.69","POND INLET A","2403206","2019-01-31 11:00","2019","01","31","11:00","-28.0","","-30.7","","78","","0.0","","17","","11","","6.4","","101.74","","","","-37","","Snow"
"-77.97","72.69","POND INLET A","2403206","2019-01-31 12:00","2019","01","31","12:00","-28.3","","-31.0","","78","","0.0","","17","","11","","11.3","","101.75","","","","-38","","Snow"
"-77.97","72.69","POND INLET A","2403206","2019-01-31 13:00","2019","01","31","13:00","-28.1","","-30.9","","77","","0.0","","19","","11","","16.1","","101.76","","","","-37","","Snow"
"-77.97","72.69","POND INLET A","2403206","2019-01-31 14:00","2019","01","31","14:00","-29.0","","-31.8","","77","","0.0","","18","","13","","16.1","","101.76","","","","-39","","Snow"
"-77.97","72.69","POND INLET A","2403206","2019-01-31 15:00","2019","01","31","15:00","-28.4","","-31.0","","79","","0.0","","16","","11","","12.9","","101.76","","","","-38","","Snow"
"-77.97","72.69","POND INLET A","2403206","2019-01-31 16:00","2019","01","31","16:00","-28.8","","-31.8","","76","","0.0","","18","","8","","8.1","","101.76","","","","-37","","Snow"
"-77.97","72.69","POND INLET A","2403206","2019-01-31 17:00","2019","01","31","17:00","-29.7","","-32.6","","76","","0.0","","17","","8","","16.1","","101.75","","","","-38","","NA"
"-77.97","72.69","POND INLET A","2403206","2019-01-31 18:00","2019","01","31","18:00","-30.2","","-33.0","","77","","0.0","","16","","8","","16.1","","101.73","","","","-38","","NA"
"-77.97","72.69","POND INLET A","2403206","2019-01-31 19:00","2019","01","31","19:00","-31.1","","-34.5","","73","","0.0","","","","0","","16.1","","101.69","","","","","","NA"
"-77.97","72.69","POND INLET A","2403206","2019-01-31 20:00","2019","01","31","20:00","-30.4","","-32.8","","80","","0.0","","","","0","","16.1","","101.66","","","","","","NA"
"-77.97","72.69","POND INLET A","2403206","2019-01-31 21:00","2019","01","31","21:00","-31.7","","-34.5","","77","","0.0","","","","0","","16.1","","101.62","","","","","","Snow"
"-77.97","72.69","POND INLET A","2403206","2019-01-31 22:00","2019","01","31","22:00","-31.1","","-33.8","","78","","0.0","","","","0","","16.1","","101.58","","","","","","NA"
"-77.97","72.69","POND INLET A","2403206","2019-01-31 23:00","2019","01","31","23:00","-32.4","","-35.3","","76","","0.0","","","","0","","16.1","","101.54","","","","","","NA"
