"Longitude (x)","Latitude (y)","Station Name","Climate ID","Date/Time (LST)","Year","Month","Day","Time (LST)","Temp (°C)","Temp Flag","Dew Point Temp (°C)","Dew Point Temp Flag","Rel Hum (%)","Rel Hum Flag","Precip. Amount (mm)","Precip. Amount Flag","Wind Dir (10s deg)","Wind Dir Flag","Wind Spd (km/h)","Wind Spd Flag","Visibility (km)","Visibility Flag","Stn Press (kPa)","Stn Press Flag","Hmdx","Hmdx Flag","Wind Chill","Wind Chill Flag","Weather"
"-97.56","49.03","GRETNA (AUT)","5021220","2012-02-01 00:00","2012","02","01","00:00","-5.1","","-5.8","","95","","","","23","","9","","","","98.22","","","","-9","","NA"
"-97.56","49.03","GRETNA (AUT)","5021220","2012-02-01 01:00","2012","02","01","01:00","-7.5","","-8.5","","93","","","","23","","13","","","","98.27","","","","-13","","NA"
"-97.56","49.03","GRETNA (AUT)","5021220","2012-02-01 02:00","2012","02","01","02:00","-9.0","","-10.3","","90","","","","23","","7","","","","98.27","","","","-13","","NA"
"-97.56","49.03","GRETNA (AUT)","5021220","2012-02-01 03:00","2012","02","01","03:00","-7.9","","-8.9","","93","","","","23","","13","","","","98.30","","","","-14","","NA"
"-97.56","49.03","GRETNA (AUT)","5021220","2012-02-01 04:00","2012","02","01","04:00","-7.8","","-8.7","","93","","","","20","","6","","","","98.26","","","","-11","","NA"
"-97.56","49.03","GRETNA (AUT)","5021220","2012-02-01 05:00","2012","02","01","05:00","-8.2","","-9.2","","92","","","","20","","6","","","","98.28","","","","-11","","NA"
"-97.56","49.03","GRETNA (AUT)","5021220","2012-02-01 06:00","2012","02","01","06:00","-8.8","","-9.9","","92","","","","17","","7","","","","98.31","","","","-13","","NA"
"-97.56","49.03","GRETNA (AUT)","5021220","2012-02-01 07:00","2012","02","01","07:00","-8.7","","-9.8","","92","","","","12","","7","","","","98.29","","","","-13","","NA"
"-97.56","49.03","GRETNA (AUT)","5021220","2012-02-01 08:00","2012","02","01","08:00","-9.2","","-10.3","","92","","","","15","","11","","","","98.29","","","","-15","","NA"
"-97.56","49.03","GRETNA (AUT)","5021220","2012-02-01 09:00","2012","02","01","09:00","-8.9","","-10.0","","92","","","","14","","15","","","","98.30","","","","-15","","NA"
"-97.56","49.03","GRETNA (AUT)","5021220","2012-02-01 10:00","2012","02","01","10:00","-6.8","","-7.8","","93","","","","16","","11","","","","98.31","","","","-12","","NA"
"-97.56","49.03","GRETNA (AUT)","5021220","2012-02-01 11:00","2012","02","01","11:00","-5.9","","-6.9","","93","","","","15","","15","","","","98.29","","","","-12","","NA"
"-97.56","49.03","GRETNA (AUT)","5021220","2012-02-01 12:00","2012","02","01","12:00","-4.6","","-5.7","","92","","","","17","","11","","","","98.31","","","","-9","","NA"
"-97.56","49.03","GRETNA (AUT)","5021220","2012-02-01 13:00","2012","02","01","13:00","-3.1","","-4.7","","89","","","","17","","17","","","","98.27","","","","-9","","NA"
"-97.56","49.03","GRETNA (AUT)","5021220","2012-02-01 14:00","2012","02","01","14:00","-0.8","","-3.5","","82","","","","16","","7","","","","98.26","","","","-3","","NA"
"-97.56","49.03","GRETNA (AUT)","5021220","2012-02-01 15:00","2012","02","01","15:00","0.0","","-2.6","","83","","","","14","","7","","","","98.29","","","","-2","","NA"
"-97.56","49.03","GRETNA (AUT)","5021220","2012-02-01 16:00","2012","02","01","16:00","0.0","","-2.4","","84","","","","14","","6","","","","98.35","","","","-2","","NA"
"-97.56","49.03","GRETNA (AUT)","5021220","2012-02-01 17:00","2012","02","01","17:00","-0.6","","-2.9","","84","","","","","","0","","","","98.44","","","","","","NA"
"-97.56","49.03","GRETNA (AUT)","5021220","2012-02-01 18:00","2012","02","01","18:00","-2.4","","-4.2","","87","","","","34","","13","","","","98.52","","","","-7","","NA"
"-97.56","49.03","GRETNA (AUT)","5021220","2012-02-01 19:00","2012","02","01","19:00","-5.3","","-6.7","","90","","","","33","","13","","","","98.55","","","","-10","","NA"
"-97.56","49.03","GRETNA (AUT)","5021220","2012-02-01 20:00","2012","02","01","20:00","-7.2","","-8.3","","92","","","","30","","11","","","","98.64","","","","-12","","NA"
"-97.56","49.03","GRETNA (AUT)","5021220","2012-02-01 21:00","2012","02","01","21:00","-8.6","","-9.6","","92","","","","32","","13","","","","98.68","","","","-15","","NA"
"-97.56","49.03","GRETNA (AUT)","5021220","2012-02-01 22:00","2012","02","01","22:00","-9.0","","-10.0","","92","","","","32","","11","","","","98.77","","","","-14","","NA"
"-97.56","49.03","GRETNA (AUT)","5021220","2012-02-01 23:00","2012","02","01","23:00","-9.3","","-10.3","","92","","","","34","","9","","","","98.82","","","","-14","","NA"
"-97.56","49.03","GRETNA (AUT)","5021220","2012-02-02 00:00","2012","02","02","00:00","-8.7","","-9.6","","93","","","","33","","4","","","","98.90","","","","-11","","NA"
"-97.56","49.03","GRETNA (AUT)","5021220","2012-02-02 01:00","2012","02","02","01:00","-9.6","","-10.7","","92","","","","6","","4","","","","98.91","","","","-12","","NA"
"-97.56","49.03","GRETNA (AUT)","5021220","2012-02-02 02:00","2012","02","02","02:00","-11.9","","-13.3","","89","","","","13","","4","","","","98.97","","","","-14","","NA"
"-97.56","49.03","GRETNA (AUT)","5021220","2012-02-02 03:00","2012","02","02","03:00","-12.0","","-13.4","","89","","","","13","","6","","","","99.02","","","","-16","","NA"
"-97.56","49.03","GRETNA (AUT)","5021220","2012-02-02 04:00","2012","02","02","04:00","-11.2","","-12.5","","90","","","","14","","4","","","","99.07","","","","-14","","NA"
"-97.56","49.03","GRETNA (AUT)","5021220","2012-02-02 05:00","2012","02","02","05:00","-10.3","","-11.4","","92","","","","19","","6","","","","99.14","","","","-14","","NA"
"-97.56","49.03","GRETNA (AUT)","5021220","2012-02-02 06:00","2012","02","02","06:00","-11.4","","-12.8","","89","","","","18","","7","","","","99.17","","","","-16","","NA"
"-97.56","49.03","GRETNA (AUT)","5021220","2012-02-02 07:00","2012","02","02","07:00","-11.3","","-12.5","","91","","","","18","","9","","","","99.19","","","","-16","","NA"
"-97.56","49.03","GRETNA (AUT)","5021220","2012-02-02 08:00","2012","02","02","08:00","-11.2","","-12.5","","90","","","","16","","9","","","","99.22","","","","-16","","NA"
"-97.56","49.03","GRETNA (AUT)","5021220","2012-02-02 09:00","2012","02","02","09:00","-9.4","","-10.5","","92","","","","20","","4","","","","99.34","","","","-12","","NA"
"-97.56","49.03","GRETNA (AUT)","5021220","2012-02-02 10:00","2012","02","02","10:00","-8.3","","-9.4","","92","","","","16","","7","","","","99.37","","","","-12","","NA"
"-97.56","49.03","GRETNA (AUT)","5021220","2012-02-02 11:00","2012","02","02","11:00","-6.2","","-7.2","","93","","","","16","","9","","","","99.43","","","","-10","","NA"
"-97.56","49.03","GRETNA (AUT)","5021220","2012-02-02 12:00","2012","02","02","12:00","-5.0","","-5.9","","93","","","","15","","9","","","","99.44","","","","-9","","NA"
"-97.56","49.03","GRETNA (AUT)","5021220","2012-02-02 13:00","2012","02","02","13:00","-4.0","","-4.8","","94","","","","14","","9","","","","99.45","","","","-8","","NA"
"-97.56","49.03","GRETNA (AUT)","5021220","2012-02-02 14:00","2012","02","02","14:00","-3.2","","-4.5","","91","","","","15","","13","","","","99.48","","","","-8","","NA"
"-97.56","49.03","GRETNA (AUT)","5021220","2012-02-02 15:00","2012","02","02","15:00","-2.3","","-4.2","","87","","","","16","","13","","","","99.52","","","","-7","","NA"
"-97.56","49.03","GRETNA (AUT)","5021220","2012-02-02 16:00","2012","02","02","16:00","-1.5","","-3.4","","87","","","","16","","13","","","","99.55","","","","-6","","NA"
"-97.56","49.03","GRETNA (AUT)","5021220","2012-02-02 17:00","2012","02","02","17:00","-2.3","","-3.9","","89","","","","13","","7","","","","99.58","","","","-5","","NA"
"-97.56","49.03","GRETNA (AUT)","5021220","2012-02-02 18:00","2012","02","02","18:00","-4.2","","-5.4","","91","","","","15","","9","","","","99.64","","","","-8","","NA"
"-97.56","49.03","GRETNA (AUT)","5021220","2012-02-02 19:00","2012","02","02","19:00","-6.1","","-7.0","","93","","","","16","","9","","","","99.71","","","","-10","","NA"
"-97.56","49.03","GRETNA (AUT)","5021220","2012-02-02 20:00","2012","02","02","20:00","-7.3","","-8.3","","93","","","","17","","9","","","","99.75","","","","-12","","NA"
"-97.56","49.03","GRETNA (AUT)","5021220","2012-02-02 21:00","2012","02","02","21:00","-8.8","","-10.1","","90","","","","12","","2","","","","99.82","","","","-10","","NA"
"-97.56","49.03","GRETNA (AUT)","5021220","2012-02-02 22:00","2012","02","02","22:00","-8.2","","-9.2","","92","","","","14","","11","","","","99.83","","","","-13","","NA"
"-97.56","49.03","GRETNA (AUT)","5021220","2012-02-02 23:00","2012","02","02","23:00","-8.1","","-9.1","","92","","","","16","","11","","","","99.87","","","","-13","","NA"
"-97.56","49.03","GRETNA (AUT)","5021220","2012-02-03 00:00","2012","02","03","00:00","-8.2","","-9.4","","91","","","","17","","7","","","","99.93","","","","-12","","NA"
"-97.56","49.03","GRETNA (AUT)","5021220","2012-02-03 01:00","2012","02","03","01:00","-8.2","","-9.3","","92","","","","10","","2","","","","100.05","","","","-9","","NA"
"-97.56","49.03","GRETNA (AUT)","5021220","2012-02-03 02:00","2012","02","03","02:00","-7.6","","-8.7","","92","","","","17","","9","","","","100.01","","","","-12","","NA"
"-97.56","49.03","GRETNA (AUT)","5021220","2012-02-03 03:00","2012","02","03","03:00","-9.3","","-10.5","","91","","","","17","","7","","","","100.10","","","","-13","","NA"
"-97.56","49.03","GRETNA (AUT)","5021220","2012-02-03 04:00","2012","02","03","04:00","-10.9","","-12.0","","92","","","","11","","6","","","","100.15","","","","-15","","NA"
"-97.56","49.03","GRETNA (AUT)","5021220","2012-02-03 05:00","2012","02","03","05:00","-10.9","","-11.9","","92","","","","16","","9","","","","100.11","","","","-16","","NA"
"-97.56","49.03","GRETNA (AUT)","5021220","2012-02-03 06:00","2012","02","03","06:00","-12.5","","-13.9","","89","","","","24","","6","","","","100.16","","","","-16","","NA"
"-97.56","49.03","GRETNA (AUT)","5021220","2012-02-03 07:00","2012","02","03","07:00","-13.3","","-14.8","","88","","","","21","","2","","","","100.19","","","","-15","","NA"
"-97.56","49.03","GRETNA (AUT)","5021220","2012-02-03 08:00","2012","02","03","08:00","-13.0","","-14.4","","89","","","","18","","2","","","","100.23","","","","-14","","NA"
"-97.56","49.03","GRETNA (AUT)","5021220","2012-02-03 09:00","2012","02","03","09:00","-12.4","","-13.8","","89","","","","18","","2","","","","100.27","","","","-14","","NA"
"-97.56","49.03","GRETNA (AUT)","5021220","2012-02-03 10:00","2012","02","03","10:00","-9.9","","-11.1","","91","","","","20","","4","","","","100.31","","","","-12","","NA"
"-97.56","49.03","GRETNA (AUT)","5021220","2012-02-03 11:00","2012","02","03","11:00","-8.0","","-9.0","","92","","","","14","","4","","","","100.34","","","","-10","","NA"
"-97.56","49.03","GRETNA (AUT)","5021220","2012-02-03 12:00","2012","02","03","12:00","-5.3","","-6.1","","94","","","","16","","7","","","","100.34","","","","-9","","NA"
"-97.56","49.03","GRETNA (AUT)","5021220","2012-02-03 13:00","2012","02","03","13:00","-2.9","","-3.6","","95","","","","16","","13","","","","100.23","","","","-8","","NA"
"-97.56","49.03","GRETNA (AUT)","5021220","2012-02-03 14:00","2012","02","03","14:00","-1.0","","-2.5","","90","","","","16","","13","","","","100.18","","","","-5","","NA"
"-97.56","49.03","GRETNA (AUT)","5021220","2012-02-03 15:00","2012","02","03","15:00","0.8","","-2.3","","80","","","","7","","4","","","","100.14","","","","","","NA"
"-97.56","49.03","GRETNA (AUT)","5021220","2012-02-03 16:00","2012","02","03","16:00","1.2","","-1.7","","81","","","","11","","6","","","","100.10","","","","","","NA"
"-97.56","49.03","GRETNA (AUT)","5021220","2012-02-03 17:00","2012","02","03","17:00","-0.4","","-2.7","","84","","","","15","","9","","","","100.11","","","","-4","","NA"
"-97.56","49.03","GRETNA (AUT)","5021220","2012-02-03 18:00","2012","02","03","18:00","-1.8","","-3.3","","89","","","","17","","15","","","","100.13","","","","-7","","NA"
"-97.56","49.03","GRETNA (AUT)","5021220","2012-02-03 19:00","2012","02","03","19:00","-2.5","","-4.1","","89","","","","19","","13","","","","100.12","","","","-7","","NA"
"-97.56","49.03","GRETNA (AUT)","5021220","2012-02-03 20:00","2012","02","03","20:00","-2.6","","-4.0","","90","","","","20","","13","","","","100.12","","","","-7","","NA"
"-97.56","49.03","GRETNA (AUT)","5021220","2012-02-03 21:00","2012","02","03","21:00","-3.3","","-4.9","","89","","","","23","","11","","","","100.08","","","","-8","","NA"
"-97.56","49.03","GRETNA (AUT)","5021220","2012-02-03 22:00","2012","02","03","22:00","-3.0","","-4.5","","89","","","","23","","15","","","","100.08","","","","-8","","NA"
"-97.56","49.03","GRETNA (AUT)","5021220","2012-02-03 23:00","2012","02","03","23:00","-3.8","","-5.6","","87","","","","24","","15","","","","100.06","","","","-9","","NA"
"-97.56","49.03","GRETNA (AUT)","5021220","2012-02-04 00:00","2012","02","04","00:00","-5.5","","-6.8","","91","","","","24","","15","","","","100.04","","","","-11","","NA"
"-97.56","49.03","GRETNA (AUT)","5021220","2012-02-04 01:00","2012","02","04","01:00","-5.8","","-6.9","","92","","","","24","","13","","","","100.04","","","","-11","","NA"
"-97.56","49.03","GRETNA (AUT)","5021220","2012-02-04 02:00","2012","02","04","02:00","-7.4","","-8.7","","90","","","","25","","13","","","","100.01","","","","-13","","NA"
"-97.56","49.03","GRETNA (AUT)","5021220","2012-02-04 03:00","2012","02","04","03:00","-7.8","","-9.1","","90","","","","21","","6","","","","100.04","","","","-11","","NA"
"-97.56","49.03","GRETNA (AUT)","5021220","2012-02-04 04:00","2012","02","04","04:00","-6.6","","-7.9","","90","","","","22","","11","","","","100.01","","","","-12","","NA"
"-97.56","49.03","GRETNA (AUT)","5021220","2012-02-04 05:00","2012","02","04","05:00","-6.9","","-8.0","","92","","","","23","","15","","","","99.92","","","","-13","","NA"
"-97.56","49.03","GRETNA (AUT)","5021220","2012-02-04 06:00","2012","02","04","06:00","-6.6","","-7.9","","90","","","","24","","17","","","","99.90","","","","-13","","NA"
"-97.56","49.03","GRETNA (AUT)","5021220","2012-02-04 07:00","2012","02","04","07:00","-7.8","","-8.9","","92","","","","25","","17","","","","99.87","","","","-14","","NA"
"-97.56","49.03","GRETNA (AUT)","5021220","2012-02-04 08:00","2012","02","04","08:00","-7.1","","-8.4","","90","","","","27","","15","","","","99.89","","","","-13","","NA"
"-97.56","49.03","GRETNA (AUT)","5021220","2012-02-04 09:00","2012","02","04","09:00","-7.1","","-8.7","","88","","","","25","","15","","","","99.88","","","","-13","","NA"
"-97.56","49.03","GRETNA (AUT)","5021220","2012-02-04 10:00","2012","02","04","10:00","-3.1","","-5.2","","85","","","","28","","13","","","","99.90","","","","-8","","NA"
"-97.56","49.03","GRETNA (AUT)","5021220","2012-02-04 11:00","2012","02","04","11:00","-0.4","","-3.4","","80","","","","28","","22","","","","99.86","","","","-6","","NA"
"-97.56","49.03","GRETNA (AUT)","5021220","2012-02-04 12:00","2012","02","04","12:00","1.4","","-2.5","","75","","","","29","","20","","","","99.84","","","","","","NA"
"-97.56","49.03","GRETNA (AUT)","5021220","2012-02-04 13:00","2012","02","04","13:00","2.2","","-2.7","","70","","","","30","","19","","","","99.82","","","","","","NA"
"-97.56","49.03","GRETNA (AUT)","5021220","2012-02-04 14:00","2012","02","04","14:00","3.6","","-2.0","","67","","","","31","","15","","","","99.75","","","","","","NA"
"-97.56","49.03","GRETNA (AUT)","5021220","2012-02-04 15:00","2012","02","04","15:00","3.8","","-1.8","","67","","","","34","","15","","","","99.74","","","","","","NA"
"-97.56","49.03","GRETNA (AUT)","5021220","2012-02-04 16:00","2012","02","04","16:00","3.5","","-1.5","","70","","","","2","","9","","","","99.74","","","","","","NA"
"-97.56","49.03","GRETNA (AUT)","5021220","2012-02-04 17:00","2012","02","04","17:00","2.7","","-1.2","","75","","","","7","","4","","","","99.73","","","","","","NA"
"-97.56","49.03","GRETNA (AUT)","5021220","2012-02-04 18:00","2012","02","04","18:00","-0.6","","-2.7","","86","","","","12","","7","","","","99.73","","","","-3","","NA"
"-97.56","49.03","GRETNA (AUT)","5021220","2012-02-04 19:00","2012","02","04","19:00","-2.1","","-3.5","","90","","","","15","","9","","","","99.74","","","","-6","","NA"
"-97.56","49.03","GRETNA (AUT)","5021220","2012-02-04 20:00","2012","02","04","20:00","-2.2","","-3.6","","90","","","","18","","9","","","","99.73","","","","-6","","NA"
"-97.56","49.03","GRETNA (AUT)","5021220","2012-02-04 21:00","2012","02","04","21:00","-3.0","","-4.1","","92","","","","23","","9","","","","99.70","","","","-7","","NA"
"-97.56","49.03","GRETNA (AUT)","5021220","2012-02-04 22:00","2012","02","04","22:00","-3.5","","-4.8","","91","","","","25","","13","","","","99.66","","","","-8","","NA"
"-97.56","49.03","GRETNA (AUT)","5021220","2012-02-04 23:00","2012","02","04","23:00","-4.1","","-5.3","","91","","","","25","","13","","","","99.65","","","","-9","","NA"
"-97.56","49.03","GRETNA (AUT)","5021220","2012-02-05 00:00","2012","02","05","00:00","-3.9","","-5.3","","90","","","","23","","13","","","","99.63","","","","-9","","NA"
"-97.56","49.03","GRETNA (AUT)","5021220","2012-02-05 01:00","2012","02","05","01:00","-3.9","","-5.5","","89","","","","24","","15","","","","99.57","","","","-9","","NA"
"-97.56","49.03","GRETNA (AUT)","5021220","2012-02-05 02:00","2012","02","05","02:00","-4.6","","-6.3","","88","","","","23","","15","","","","99.53","","","","-10","","NA"
"-97.56","49.03","GRETNA (AUT)","5021220","2012-02-05 03:00","2012","02","05","03:00","-4.7","","-6.6","","87","","","","23","","13","","","","99.49","","","","-10","","NA"
"-97.56","49.03","GRETNA (AUT)","5021220","2012-02-05 04:00","2012","02","05","04:00","-4.5","","-6.7","","85","","","","22","","9","","","","99.46","","","","-8","","NA"
"-97.56","49.03","GRETNA (AUT)","5021220","2012-02-05 05:00","2012","02","05","05:00","-5.2","","-7.4","","84","","","","22","","7","","","","99.41","","","","-8","","NA"
"-97.56","49.03","GRETNA (AUT)","5021220","2012-02-05 06:00","2012","02","05","06:00","-7.7","","-9.1","","90","","","","19","","7","","","","99.37","","","","-11","","NA"
"-97.56","49.03","GRETNA (AUT)","5021220","2012-02-05 07:00","2012","02","05","07:00","-9.2","","-10.7","","89","","","","19","","9","","","","99.35","","","","-14","","NA"
"-97.56","49.03","GRETNA (AUT)","5021220","2012-02-05 08:00","2012","02","05","08:00","-4.8","","-8.7","","74","","","","23","","13","","","","99.31","","","","-10","","NA"
"-97.56","49.03","GRETNA (AUT)","5021220","2012-02-05 09:00","2012","02","05","09:00","-3.8","","-8.6","","69","","","","22","","9","","","","99.29","","","","-8","","NA"
"-97.56","49.03","GRETNA (AUT)","5021220","2012-02-05 10:00","2012","02","05","10:00","-1.1","","-7.3","","63","","","","21","","15","","","","99.23","","","","-6","","NA"
"-97.56","49.03","GRETNA (AUT)","5021220","2012-02-05 11:00","2012","02","05","11:00","1.8","","-4.7","","62","","","","21","","9","","","","99.18","","","","","","NA"
"-97.56","49.03","GRETNA (AUT)","5021220","2012-02-05 12:00","2012","02","05","12:00","5.1","","-2.7","","57","","","","22","","9","","","","99.08","","","","","","NA"
"-97.56","49.03","GRETNA (AUT)","5021220","2012-02-05 13:00","2012","02","05","13:00","7.3","","-3.8","","45","","","","23","","15","","","","98.98","","","","","","NA"
"-97.56","49.03","GRETNA (AUT)","5021220","2012-02-05 14:00","2012","02","05","14:00","7.2","","-2.7","","49","","","","24","","17","","","","98.92","","","","","","NA"
"-97.56","49.03","GRETNA (AUT)","5021220","2012-02-05 15:00","2012","02","05","15:00","6.6","","-2.5","","52","","","","24","","19","","","","98.85","","","","","","NA"
"-97.56","49.03","GRETNA (AUT)","5021220","2012-02-05 16:00","2012","02","05","16:00","4.7","","-2.7","","59","","","","22","","28","","","","98.69","","","","","","NA"
"-97.56","49.03","GRETNA (AUT)","5021220","2012-02-05 17:00","2012","02","05","17:00","3.4","","-2.3","","66","","","","23","","19","","","","98.62","","","","","","NA"
"-97.56","49.03","GRETNA (AUT)","5021220","2012-02-05 18:00","2012","02","05","18:00","1.4","","-2.9","","73","","","","25","","17","","","","98.68","","","","","","NA"
"-97.56","49.03","GRETNA (AUT)","5021220","2012-02-05 19:00","2012","02","05","19:00","0.8","","-2.6","","78","","","","26","","15","","","","98.68","","","","","","NA"
"-97.56","49.03","GRETNA (AUT)","5021220","2012-02-05 20:00","2012","02","05","20:00","1.4","","-2.7","","74","","","","23","","15","","","","98.62","","","","","","NA"
"-97.56","49.03","GRETNA (AUT)","5021220","2012-02-05 21:00","2012","02","05","21:00","0.2","","-2.9","","80","","","","26","","13","","","","98.59","","","","","","NA"
"-97.56","49.03","GRETNA (AUT)","5021220","2012-02-05 22:00","2012","02","05","22:00","0.7","","-2.7","","78","","","","27","","17","","","","98.60","","","","","","NA"
"-97.56","49.03","GRETNA (AUT)","5021220","2012-02-05 23:00","2012","02","05","23:00","-0.8","","-3.5","","82","","","","28","","17","","","","98.60","","","","-6","","NA"
"-97.56","49.03","GRETNA (AUT)","5021220","2012-02-06 00:00","2012","02","06","00:00","-1.6","","-3.9","","84","","","","29","","15","","","","98.61","","","","-6","","NA"
"-97.56","49.03","GRETNA (AUT)","5021220","2012-02-06 01:00","2012","02","06","01:00","-3.2","","-4.8","","89","","","","30","","15","","","","98.66","","","","-8","","NA"
"-97.56","49.03","GRETNA (AUT)","5021220","2012-02-06 02:00","2012","02","06","02:00","-4.0","","-5.7","","88","","","","30","","15","","","","98.74","","","","-9","","NA"
"-97.56","49.03","GRETNA (AUT)","5021220","2012-02-06 03:00","2012","02","06","03:00","-3.3","","-5.4","","85","","","","33","","19","","","","98.79","","","","-9","","NA"
"-97.56","49.03","GRETNA (AUT)","5021220","2012-02-06 04:00","2012","02","06","04:00","-3.6","","-5.8","","85","","","","34","","24","","","","98.85","","","","-10","","NA"
"-97.56","49.03","GRETNA (AUT)","5021220","2012-02-06 05:00","2012","02","06","05:00","-4.2","","-6.2","","86","","","","34","","26","","","","98.90","","","","-11","","NA"
"-97.56","49.03","GRETNA (AUT)","5021220","2012-02-06 06:00","2012","02","06","06:00","-4.4","","-6.2","","87","","","","33","","22","","","","98.98","","","","-11","","NA"
"-97.56","49.03","GRETNA (AUT)","5021220","2012-02-06 07:00","2012","02","06","07:00","-3.0","","-4.7","","88","","","","34","","24","","","","99.08","","","","-10","","NA"
"-97.56","49.03","GRETNA (AUT)","5021220","2012-02-06 08:00","2012","02","06","08:00","-1.8","","-3.6","","87","","","","35","","32","","","","99.21","","","","-9","","NA"
"-97.56","49.03","GRETNA (AUT)","5021220","2012-02-06 09:00","2012","02","06","09:00","-2.0","","-4.3","","84","","","","35","","33","","","","99.34","","","","-9","","NA"
"-97.56","49.03","GRETNA (AUT)","5021220","2012-02-06 10:00","2012","02","06","10:00","-2.1","","-4.7","","82","","","","35","","37","","","","99.46","","","","-10","","NA"
"-97.56","49.03","GRETNA (AUT)","5021220","2012-02-06 11:00","2012","02","06","11:00","-2.8","","-5.6","","81","","","","1","","43","","","","99.55","","","","-11","","NA"
"-97.56","49.03","GRETNA (AUT)","5021220","2012-02-06 12:00","2012","02","06","12:00","-4.2","","-6.8","","82","","","","36","","43","","","","99.67","","","","-13","","NA"
"-97.56","49.03","GRETNA (AUT)","5021220","2012-02-06 13:00","2012","02","06","13:00","-5.4","","-7.7","","84","","","","35","","43","","","","99.73","","","","-15","","NA"
"-97.56","49.03","GRETNA (AUT)","5021220","2012-02-06 14:00","2012","02","06","14:00","-6.2","","-8.9","","81","","","","35","","41","","","","99.85","","","","-16","","NA"
"-97.56","49.03","GRETNA (AUT)","5021220","2012-02-06 15:00","2012","02","06","15:00","-6.1","","-9.7","","76","","","","1","","39","","","","99.93","","","","-15","","NA"
"-97.56","49.03","GRETNA (AUT)","5021220","2012-02-06 16:00","2012","02","06","16:00","-6.7","","-10.5","","74","","","","36","","35","","","","100.02","","","","-16","","NA"
"-97.56","49.03","GRETNA (AUT)","5021220","2012-02-06 17:00","2012","02","06","17:00","-7.6","","-11.6","","73","","","","36","","39","","","","100.10","","","","-17","","NA"
"-97.56","49.03","GRETNA (AUT)","5021220","2012-02-06 18:00","2012","02","06","18:00","-8.8","","-12.7","","73","","","","36","","32","","","","100.22","","","","-18","","NA"
"-97.56","49.03","GRETNA (AUT)","5021220","2012-02-06 19:00","2012","02","06","19:00","-9.8","","-13.4","","75","","","","36","","30","","","","100.32","","","","-19","","NA"
"-97.56","49.03","GRETNA (AUT)","5021220","2012-02-06 20:00","2012","02","06","20:00","-11.1","","-13.9","","80","","","","35","","20","","","","100.44","","","","-19","","NA"
"-97.56","49.03","GRETNA (AUT)","5021220","2012-02-06 21:00","2012","02","06","21:00","-12.0","","-14.4","","82","","","","35","","24","","","","100.53","","","","-21","","NA"
"-97.56","49.03","GRETNA (AUT)","5021220","2012-02-06 22:00","2012","02","06","22:00","-13.2","","-15.8","","81","","","","35","","26","","","","100.60","","","","-23","","NA"
"-97.56","49.03","GRETNA (AUT)","5021220","2012-02-06 23:00","2012","02","06","23:00","-14.4","","-17.3","","79","","","","35","","28","","","","100.69","","","","-25","","NA"
"-97.56","49.03","GRETNA (AUT)","5021220","2012-02-07 00:00","2012","02","07","00:00","-15.3","","-18.2","","78","","","","35","","22","","","","100.74","","","","-25","","NA"
"-97.56","49.03","GRETNA (AUT)","5021220","2012-02-07 01:00","2012","02","07","01:00","-16.2","","-19.0","","79","","","","35","","20","","","","100.80","","","","-26","","NA"
"-97.56","49.03","GRETNA (AUT)","5021220","2012-02-07 02:00","2012","02","07","02:00","-17.0","","-19.7","","80","","","","34","","17","","","","100.83","","","","-26","","NA"
"-97.56","49.03","GRETNA (AUT)","5021220","2012-02-07 03:00","2012","02","07","03:00","-17.3","","-20.2","","78","","","","34","","19","","","","100.87","","","","-27","","NA"
"-97.56","49.03","GRETNA (AUT)","5021220","2012-02-07 04:00","2012","02","07","04:00","-17.4","","-20.4","","77","","","","34","","17","","","","100.89","","","","-26","","NA"
"-97.56","49.03","GRETNA (AUT)","5021220","2012-02-07 05:00","2012","02","07","05:00","-17.9","","-20.8","","78","","","","33","","13","","","","100.90","","","","-26","","NA"
"-97.56","49.03","GRETNA (AUT)","5021220","2012-02-07 06:00","2012","02","07","06:00","-18.4","","-21.1","","79","","","","34","","13","","","","100.93","","","","-26","","NA"
"-97.56","49.03","GRETNA (AUT)","5021220","2012-02-07 07:00","2012","02","07","07:00","-19.6","","-22.0","","81","","","","31","","7","","","","100.94","","","","-25","","NA"
"-97.56","49.03","GRETNA (AUT)","5021220","2012-02-07 08:00","2012","02","07","08:00","-19.7","","-22.1","","81","","","","31","","9","","","","100.95","","","","-26","","NA"
"-97.56","49.03","GRETNA (AUT)","5021220","2012-02-07 09:00","2012","02","07","09:00","-17.1","","-19.9","","79","","","","32","","13","","","","100.95","","","","-25","","NA"
"-97.56","49.03","GRETNA (AUT)","5021220","2012-02-07 10:00","2012","02","07","10:00","-15.1","","-18.7","","74","","","","34","","11","","","","100.95","","","","-22","","NA"
"-97.56","49.03","GRETNA (AUT)","5021220","2012-02-07 11:00","2012","02","07","11:00","-13.2","","-18.0","","67","","","","31","","9","","","","100.88","","","","-19","","NA"
"-97.56","49.03","GRETNA (AUT)","5021220","2012-02-07 12:00","2012","02","07","12:00","-11.0","","-16.9","","62","","","","28","","9","","","","100.80","","","","-16","","NA"
"-97.56","49.03","GRETNA (AUT)","5021220","2012-02-07 13:00","2012","02","07","13:00","-9.2","","-16.8","","54","","","","26","","11","","","","100.72","","","","-15","","NA"
"-97.56","49.03","GRETNA (AUT)","5021220","2012-02-07 14:00","2012","02","07","14:00","-7.3","","-16.6","","47","","","","25","","9","","","","100.63","","","","-12","","NA"
"-97.56","49.03","GRETNA (AUT)","5021220","2012-02-07 15:00","2012","02","07","15:00","-6.3","","-17.6","","40","","","","24","","13","","","","100.55","","","","-12","","NA"
"-97.56","49.03","GRETNA (AUT)","5021220","2012-02-07 16:00","2012","02","07","16:00","-5.9","","-16.3","","44","","","","24","","15","","","","100.51","","","","-12","","NA"
"-97.56","49.03","GRETNA (AUT)","5021220","2012-02-07 17:00","2012","02","07","17:00","-6.1","","-15.0","","49","","","","24","","13","","","","100.42","","","","-11","","NA"
"-97.56","49.03","GRETNA (AUT)","5021220","2012-02-07 18:00","2012","02","07","18:00","-8.6","","-13.9","","65","","","","23","","13","","","","100.37","","","","-15","","NA"
"-97.56","49.03","GRETNA (AUT)","5021220","2012-02-07 19:00","2012","02","07","19:00","-10.3","","-15.0","","68","","","","22","","15","","","","100.28","","","","-17","","NA"
"-97.56","49.03","GRETNA (AUT)","5021220","2012-02-07 20:00","2012","02","07","20:00","-10.7","","-16.2","","64","","","","23","","17","","","","100.23","","","","-18","","NA"
"-97.56","49.03","GRETNA (AUT)","5021220","2012-02-07 21:00","2012","02","07","21:00","-11.4","","-16.9","","64","","","","22","","13","","","","100.19","","","","-18","","NA"
"-97.56","49.03","GRETNA (AUT)","5021220","2012-02-07 22:00","2012","02","07","22:00","-11.7","","-16.1","","70","","","","22","","15","","","","100.11","","","","-19","","NA"
"-97.56","49.03","GRETNA (AUT)","5021220","2012-02-07 23:00","2012","02","07","23:00","-12.1","","-15.2","","78","","","","22","","11","","","","100.08","","","","-18","","NA"
"-97.56","49.03","GRETNA (AUT)","5021220","2012-02-08 00:00","2012","02","08","00:00","-12.2","","-15.1","","79","","","","23","","11","","","","100.04","","","","-18","","NA"
"-97.56","49.03","GRETNA (AUT)","5021220","2012-02-08 01:00","2012","02","08","01:00","-11.9","","-14.4","","82","","","","24","","15","","","","99.97","","","","-19","","NA"
"-97.56","49.03","GRETNA (AUT)","5021220","2012-02-08 02:00","2012","02","08","02:00","-13.0","","-15.3","","83","","","","24","","15","","","","99.92","","","","-20","","NA"
"-97.56","49.03","GRETNA (AUT)","5021220","2012-02-08 03:00","2012","02","08","03:00","-13.3","","-15.5","","83","","","","26","","15","","","","99.86","","","","-21","","NA"
"-97.56","49.03","GRETNA (AUT)","5021220","2012-02-08 04:00","2012","02","08","04:00","-12.8","","-14.7","","86","","","","24","","9","","","","99.78","","","","-18","","NA"
"-97.56","49.03","GRETNA (AUT)","5021220","2012-02-08 05:00","2012","02","08","05:00","-13.0","","-15.1","","84","","","","27","","15","","","","99.70","","","","-20","","NA"
"-97.56","49.03","GRETNA (AUT)","5021220","2012-02-08 06:00","2012","02","08","06:00","-13.7","","-15.4","","87","","","","22","","7","","","","99.66","","","","-18","","NA"
"-97.56","49.03","GRETNA (AUT)","5021220","2012-02-08 07:00","2012","02","08","07:00","-16.6","","-18.6","","84","","","","17","","6","","","","99.63","","","","-21","","NA"
"-97.56","49.03","GRETNA (AUT)","5021220","2012-02-08 08:00","2012","02","08","08:00","-14.1","","-16.0","","85","","","","28","","11","","","","99.59","","","","-21","","NA"
"-97.56","49.03","GRETNA (AUT)","5021220","2012-02-08 09:00","2012","02","08","09:00","-12.2","","-13.9","","87","","","","21","","7","","","","99.53","","","","-17","","NA"
"-97.56","49.03","GRETNA (AUT)","5021220","2012-02-08 10:00","2012","02","08","10:00","-7.5","","-10.2","","81","","","","22","","7","","","","99.49","","","","-11","","NA"
"-97.56","49.03","GRETNA (AUT)","5021220","2012-02-08 11:00","2012","02","08","11:00","-4.1","","-9.4","","67","","","","26","","20","","","","99.42","","","","-10","","NA"
"-97.56","49.03","GRETNA (AUT)","5021220","2012-02-08 12:00","2012","02","08","12:00","-2.0","","-9.5","","56","","","","26","","20","","","","99.36","","","","-8","","NA"
"-97.56","49.03","GRETNA (AUT)","5021220","2012-02-08 13:00","2012","02","08","13:00","0.0","","-8.8","","52","","","","27","","22","","","","99.27","","","","-6","","NA"
"-97.56","49.03","GRETNA (AUT)","5021220","2012-02-08 14:00","2012","02","08","14:00","0.6","","-8.3","","51","","","","26","","20","","","","99.19","","","","","","NA"
"-97.56","49.03","GRETNA (AUT)","5021220","2012-02-08 15:00","2012","02","08","15:00","1.0","","-7.9","","51","","","","27","","24","","","","99.12","","","","","","NA"
"-97.56","49.03","GRETNA (AUT)","5021220","2012-02-08 16:00","2012","02","08","16:00","0.3","","-7.2","","57","","","","25","","24","","","","99.06","","","","","","NA"
"-97.56","49.03","GRETNA (AUT)","5021220","2012-02-08 17:00","2012","02","08","17:00","-1.3","","-7.0","","65","","","","24","","24","","","","99.01","","","","-7","","NA"
"-97.56","49.03","GRETNA (AUT)","5021220","2012-02-08 18:00","2012","02","08","18:00","-3.7","","-8.1","","71","","","","24","","22","","","","98.96","","","","-10","","NA"
"-97.56","49.03","GRETNA (AUT)","5021220","2012-02-08 19:00","2012","02","08","19:00","-5.7","","-9.1","","77","","","","24","","15","","","","98.90","","","","-11","","NA"
"-97.56","49.03","GRETNA (AUT)","5021220","2012-02-08 20:00","2012","02","08","20:00","-5.7","","-9.3","","76","","","","23","","15","","","","98.82","","","","-11","","NA"
"-97.56","49.03","GRETNA (AUT)","5021220","2012-02-08 21:00","2012","02","08","21:00","-6.7","","-9.7","","79","","","","25","","15","","","","98.75","","","","-13","","NA"
"-97.56","49.03","GRETNA (AUT)","5021220","2012-02-08 22:00","2012","02","08","22:00","-6.7","","-9.6","","80","","","","24","","11","","","","98.69","","","","-12","","NA"
"-97.56","49.03","GRETNA (AUT)","5021220","2012-02-08 23:00","2012","02","08","23:00","-6.0","","-9.5","","76","","","","24","","15","","","","98.65","","","","-12","","NA"
"-97.56","49.03","GRETNA (AUT)","5021220","2012-02-09 00:00","2012","02","09","00:00","-6.8","","-9.6","","80","","","","27","","13","","","","98.62","","","","-12","","NA"
"-97.56","49.03","GRETNA (AUT)","5021220","2012-02-09 01:00","2012","02","09","01:00","-6.3","","-9.3","","79","","","","26","","19","","","","98.53","","","","-13","","NA"
"-97.56","49.03","GRETNA (AUT)","5021220","2012-02-09 02:00","2012","02","09","02:00","-6.4","","-9.4","","79","","","","25","","15","","","","98.41","","","","-12","","NA"
"-97.56","49.03","GRETNA (AUT)","5021220","2012-02-09 03:00","2012","02","09","03:00","-7.1","","-10.2","","78","","","","25","","15","","","","98.34","","","","-13","","NA"
"-97.56","49.03","GRETNA (AUT)","5021220","2012-02-09 04:00","2012","02","09","04:00","-8.5","","-11.3","","80","","","","25","","13","","","","98.25","","","","-14","","NA"
"-97.56","49.03","GRETNA (AUT)","5021220","2012-02-09 05:00","2012","02","09","05:00","-8.3","","-11.4","","78","","","","26","","7","","","","98.18","","","","-12","","NA"
"-97.56","49.03","GRETNA (AUT)","5021220","2012-02-09 06:00","2012","02","09","06:00","-8.6","","-10.9","","83","","","","1","","15","","","","98.18","","","","-15","","NA"
"-97.56","49.03","GRETNA (AUT)","5021220","2012-02-09 07:00","2012","02","09","07:00","-9.3","","-11.5","","84","","","","34","","7","","","","98.19","","","","-13","","NA"
"-97.56","49.03","GRETNA (AUT)","5021220","2012-02-09 08:00","2012","02","09","08:00","-11.0","","-12.8","","87","","","","32","","11","","","","98.23","","","","-17","","NA"
"-97.56","49.03","GRETNA (AUT)","5021220","2012-02-09 09:00","2012","02","09","09:00","-7.4","","-9.2","","87","","","","1","","26","","","","98.32","","","","-16","","NA"
"-97.56","49.03","GRETNA (AUT)","5021220","2012-02-09 10:00","2012","02","09","10:00","-8.9","","-12.1","","78","","","","1","","33","","","","98.45","","","","-18","","NA"
"-97.56","49.03","GRETNA (AUT)","5021220","2012-02-09 11:00","2012","02","09","11:00","-10.0","","-16.4","","59","","","","1","","39","","","","98.57","","","","-21","","NA"
"-97.56","49.03","GRETNA (AUT)","5021220","2012-02-09 12:00","2012","02","09","12:00","-10.0","","-16.3","","60","","","","36","","35","","","","98.67","","","","-20","","NA"
"-97.56","49.03","GRETNA (AUT)","5021220","2012-02-09 13:00","2012","02","09","13:00","-10.1","","-18.3","","51","","","","36","","41","","","","98.76","","","","-21","","NA"
"-97.56","49.03","GRETNA (AUT)","5021220","2012-02-09 14:00","2012","02","09","14:00","-10.0","","-18.5","","50","","","","36","","41","","","","98.85","","","","-21","","NA"
"-97.56","49.03","GRETNA (AUT)","5021220","2012-02-09 15:00","2012","02","09","15:00","-11.7","","-18.7","","56","","","","34","","43","","","","98.97","","","","-23","","NA"
"-97.56","49.03","GRETNA (AUT)","5021220","2012-02-09 16:00","2012","02","09","16:00","-13.4","","-20.3","","56","","","","35","","41","","","","99.09","","","","-25","","NA"
"-97.56","49.03","GRETNA (AUT)","5021220","2012-02-09 17:00","2012","02","09","17:00","-14.4","","-22.3","","51","","","","34","","37","","","","99.20","","","","-26","","NA"
"-97.56","49.03","GRETNA (AUT)","5021220","2012-02-09 18:00","2012","02","09","18:00","-15.8","","-21.9","","59","","","","36","","33","","","","99.32","","","","-28","","NA"
"-97.56","49.03","GRETNA (AUT)","5021220","2012-02-09 19:00","2012","02","09","19:00","-16.8","","-22.2","","63","","","","35","","35","","","","99.42","","","","-29","","NA"
"-97.56","49.03","GRETNA (AUT)","5021220","2012-02-09 20:00","2012","02","09","20:00","-17.6","","-22.8","","64","","","","35","","37","","","","99.52","","","","-31","","NA"
"-97.56","49.03","GRETNA (AUT)","5021220","2012-02-09 21:00","2012","02","09","21:00","-18.4","","-23.2","","66","","","","35","","35","","","","99.67","","","","-31","","NA"
"-97.56","49.03","GRETNA (AUT)","5021220","2012-02-09 22:00","2012","02","09","22:00","-20.1","","-24.5","","68","","","","1","","33","","","","99.76","","","","-33","","NA"
"-97.56","49.03","GRETNA (AUT)","5021220","2012-02-09 23:00","2012","02","09","23:00","-21.3","","-25.8","","67","","","","35","","26","","","","99.91","","","","-33","","NA"
"-97.56","49.03","GRETNA (AUT)","5021220","2012-02-10 00:00","2012","02","10","00:00","-21.9","","-26.3","","67","","","","35","","32","","","","100.01","","","","-35","","NA"
"-97.56","49.03","GRETNA (AUT)","5021220","2012-02-10 01:00","2012","02","10","01:00","-22.4","","-26.6","","69","","","","35","","28","","","","100.05","","","","-35","","NA"
"-97.56","49.03","GRETNA (AUT)","5021220","2012-02-10 02:00","2012","02","10","02:00","-23.0","","-27.0","","70","","","","35","","26","","","","100.13","","","","-36","","NA"
"-97.56","49.03","GRETNA (AUT)","5021220","2012-02-10 03:00","2012","02","10","03:00","-23.4","","-27.3","","70","","","","35","","30","","","","100.20","","","","-37","","NA"
"-97.56","49.03","GRETNA (AUT)","5021220","2012-02-10 04:00","2012","02","10","04:00","-23.7","","-27.5","","71","","","","35","","30","","","","100.27","","","","-37","","NA"
"-97.56","49.03","GRETNA (AUT)","5021220","2012-02-10 05:00","2012","02","10","05:00","-24.2","","-27.9","","71","","","","35","","26","","","","100.41","","","","-37","","NA"
"-97.56","49.03","GRETNA (AUT)","5021220","2012-02-10 06:00","2012","02","10","06:00","-24.4","","-28.2","","71","","","","34","","26","","","","100.49","","","","-37","","NA"
"-97.56","49.03","GRETNA (AUT)","5021220","2012-02-10 07:00","2012","02","10","07:00","-24.8","","-28.6","","71","","","","35","","24","","","","100.60","","","","-38","","NA"
"-97.56","49.03","GRETNA (AUT)","5021220","2012-02-10 08:00","2012","02","10","08:00","-25.0","","-28.8","","71","","","","35","","24","","","","100.69","","","","-38","","NA"
"-97.56","49.03","GRETNA (AUT)","5021220","2012-02-10 09:00","2012","02","10","09:00","-23.9","","-28.1","","68","","","","34","","26","","","","100.75","","","","-37","","NA"
"-97.56","49.03","GRETNA (AUT)","5021220","2012-02-10 10:00","2012","02","10","10:00","-21.7","","-26.5","","65","","","","35","","26","","","","100.80","","","","-34","","NA"
"-97.56","49.03","GRETNA (AUT)","5021220","2012-02-10 11:00","2012","02","10","11:00","-20.2","","-25.9","","60","","","","34","","28","","","","100.83","","","","-32","","NA"
"-97.56","49.03","GRETNA (AUT)","5021220","2012-02-10 12:00","2012","02","10","12:00","-18.7","","-25.6","","55","","","","35","","28","","","","100.81","","","","-31","","NA"
"-97.56","49.03","GRETNA (AUT)","5021220","2012-02-10 13:00","2012","02","10","13:00","-16.6","","-24.2","","52","","","","35","","26","","","","100.80","","","","-27","","NA"
"-97.56","49.03","GRETNA (AUT)","5021220","2012-02-10 14:00","2012","02","10","14:00","-15.9","","-24.5","","48","","","","35","","28","","","","100.79","","","","-27","","NA"
"-97.56","49.03","GRETNA (AUT)","5021220","2012-02-10 15:00","2012","02","10","15:00","-15.7","","-25.1","","44","","","","33","","28","","","","100.80","","","","-27","","NA"
"-97.56","49.03","GRETNA (AUT)","5021220","2012-02-10 16:00","2012","02","10","16:00","-15.5","","-24.5","","46","","","","33","","22","","","","100.80","","","","-25","","NA"
"-97.56","49.03","GRETNA (AUT)","5021220","2012-02-10 17:00","2012","02","10","17:00","-15.9","","-25.0","","45","","","","33","","20","","","","100.78","","","","-25","","NA"
"-97.56","49.03","GRETNA (AUT)","5021220","2012-02-10 18:00","2012","02","10","18:00","-17.5","","-25.2","","51","","","","34","","13","","","","100.76","","","","-25","","NA"
"-97.56","49.03","GRETNA (AUT)","5021220","2012-02-10 19:00","2012","02","10","19:00","-19.5","","-25.8","","57","","","","34","","7","","","","100.75","","","","-25","","NA"
"-97.56","49.03","GRETNA (AUT)","5021220","2012-02-10 20:00","2012","02","10","20:00","-20.1","","-25.7","","61","","","","30","","9","","","","100.75","","","","-27","","NA"
"-97.56","49.03","GRETNA (AUT)","5021220","2012-02-10 21:00","2012","02","10","21:00","-21.0","","-26.2","","63","","","","28","","13","","","","100.75","","","","-30","","NA"
"-97.56","49.03","GRETNA (AUT)","5021220","2012-02-10 22:00","2012","02","10","22:00","-21.4","","-26.2","","65","","","","30","","9","","","","100.79","","","","-28","","NA"
"-97.56","49.03","GRETNA (AUT)","5021220","2012-02-10 23:00","2012","02","10","23:00","-22.0","","-26.7","","66","","","","29","","11","","","","100.78","","","","-30","","NA"
"-97.56","49.03","GRETNA (AUT)","5021220","2012-02-11 00:00","2012","02","11","00:00","-22.9","","-26.9","","70","","","","30","","11","","","","100.78","","","","-31","","NA"
"-97.56","49.03","GRETNA (AUT)","5021220","2012-02-11 01:00","2012","02","11","01:00","-23.1","","-27.2","","69","","","","30","","11","","","","100.80","","","","-31","","NA"
"-97.56","49.03","GRETNA (AUT)","5021220","2012-02-11 02:00","2012","02","11","02:00","-23.3","","-27.4","","69","","","","29","","13","","","","100.76","","","","-32","","NA"
"-97.56","49.03","GRETNA (AUT)","5021220","2012-02-11 03:00","2012","02","11","03:00","-22.6","","-26.6","","70","","","","30","","15","","","","100.76","","","","-32","","NA"
"-97.56","49.03","GRETNA (AUT)","5021220","2012-02-11 04:00","2012","02","11","04:00","-22.1","","-26.0","","71","","","","30","","13","","","","100.75","","","","-31","","NA"
"-97.56","49.03","GRETNA (AUT)","5021220","2012-02-11 05:00","2012","02","11","05:00","-22.9","","-26.5","","72","","","","29","","13","","","","100.76","","","","-32","","NA"
"-97.56","49.03","GRETNA (AUT)","5021220","2012-02-11 06:00","2012","02","11","06:00","-22.4","","-26.1","","72","","","","29","","15","","","","100.72","","","","-32","","NA"
"-97.56","49.03","GRETNA (AUT)","5021220","2012-02-11 07:00","2012","02","11","07:00","-22.5","","-26.1","","72","","","","28","","15","","","","100.71","","","","-32","","NA"
"-97.56","49.03","GRETNA (AUT)","5021220","2012-02-11 08:00","2012","02","11","08:00","-22.1","","-25.8","","72","","","","28","","15","","","","100.70","","","","-32","","NA"
"-97.56","49.03","GRETNA (AUT)","5021220","2012-02-11 09:00","2012","02","11","09:00","-20.2","","-24.5","","68","","","","29","","19","","","","100.73","","","","-30","","NA"
"-97.56","49.03","GRETNA (AUT)","5021220","2012-02-11 10:00","2012","02","11","10:00","-18.0","","-23.6","","61","","","","29","","20","","","","100.71","","","","-28","","NA"
"-97.56","49.03","GRETNA (AUT)","5021220","2012-02-11 11:00","2012","02","11","11:00","-16.0","","-23.2","","54","","","","29","","19","","","","100.69","","","","-25","","NA"
"-97.56","49.03","GRETNA (AUT)","5021220","2012-02-11 12:00","2012","02","11","12:00","-13.6","","-22.1","","49","","","","31","","19","","","","100.64","","","","-22","","NA"
"-97.56","49.03","GRETNA (AUT)","5021220","2012-02-11 13:00","2012","02","11","13:00","-11.9","","-21.7","","44","","","","30","","19","","","","100.54","","","","-20","","NA"
"-97.56","49.03","GRETNA (AUT)","5021220","2012-02-11 14:00","2012","02","11","14:00","-9.5","","-20.3","","41","","","","29","","17","","","","100.45","","","","-17","","NA"
"-97.56","49.03","GRETNA (AUT)","5021220","2012-02-11 15:00","2012","02","11","15:00","-8.9","","-21.0","","37","","","","29","","17","","","","100.39","","","","-16","","NA"
"-97.56","49.03","GRETNA (AUT)","5021220","2012-02-11 16:00","2012","02","11","16:00","-8.3","","-20.9","","35","","","","29","","17","","","","100.35","","","","-15","","NA"
"-97.56","49.03","GRETNA (AUT)","5021220","2012-02-11 17:00","2012","02","11","17:00","-8.7","","-20.7","","37","","","","30","","17","","","","100.28","","","","-16","","NA"
"-97.56","49.03","GRETNA (AUT)","5021220","2012-02-11 18:00","2012","02","11","18:00","-11.6","","-21.0","","46","","","","28","","9","","","","100.24","","","","-17","","NA"
"-97.56","49.03","GRETNA (AUT)","5021220","2012-02-11 19:00","2012","02","11","19:00","-13.7","","-21.5","","52","","","","27","","13","","","","100.21","","","","-21","","NA"
"-97.56","49.03","GRETNA (AUT)","5021220","2012-02-11 20:00","2012","02","11","20:00","-14.4","","-21.3","","56","","","","27","","13","","","","100.15","","","","-22","","NA"
"-97.56","49.03","GRETNA (AUT)","5021220","2012-02-11 21:00","2012","02","11","21:00","-14.6","","-19.4","","67","","","","23","","13","","","","100.09","","","","-22","","NA"
"-97.56","49.03","GRETNA (AUT)","5021220","2012-02-11 22:00","2012","02","11","22:00","-15.8","","-20.3","","68","","","","23","","13","","","","100.05","","","","-23","","NA"
"-97.56","49.03","GRETNA (AUT)","5021220","2012-02-11 23:00","2012","02","11","23:00","-15.8","","-20.2","","69","","","","23","","13","","","","99.97","","","","-23","","NA"
"-97.56","49.03","GRETNA (AUT)","5021220","2012-02-12 00:00","2012","02","12","00:00","-15.0","","-20.0","","66","","","","22","","9","","","","99.91","","","","-21","","NA"
"-97.56","49.03","GRETNA (AUT)","5021220","2012-02-12 01:00","2012","02","12","01:00","-15.1","","-20.4","","64","","","","22","","7","","","","99.87","","","","-20","","NA"
"-97.56","49.03","GRETNA (AUT)","5021220","2012-02-12 02:00","2012","02","12","02:00","-15.8","","-21.1","","64","","","","23","","13","","","","99.79","","","","-23","","NA"
"-97.56","49.03","GRETNA (AUT)","5021220","2012-02-12 03:00","2012","02","12","03:00","-16.4","","-21.5","","65","","","","24","","9","","","","99.69","","","","-22","","NA"
"-97.56","49.03","GRETNA (AUT)","5021220","2012-02-12 04:00","2012","02","12","04:00","-15.6","","-21.4","","61","","","","22","","9","","","","99.63","","","","-22","","NA"
"-97.56","49.03","GRETNA (AUT)","5021220","2012-02-12 05:00","2012","02","12","05:00","-14.9","","-20.7","","61","","","","22","","11","","","","99.59","","","","-21","","NA"
"-97.56","49.03","GRETNA (AUT)","5021220","2012-02-12 06:00","2012","02","12","06:00","-17.5","","-21.5","","71","","","","19","","9","","","","99.49","","","","-24","","NA"
"-97.56","49.03","GRETNA (AUT)","5021220","2012-02-12 07:00","2012","02","12","07:00","-18.7","","-22.3","","73","","","","19","","9","","","","99.47","","","","-25","","NA"
"-97.56","49.03","GRETNA (AUT)","5021220","2012-02-12 08:00","2012","02","12","08:00","-16.6","","-22.7","","59","","","","19","","11","","","","99.44","","","","-24","","NA"
"-97.56","49.03","GRETNA (AUT)","5021220","2012-02-12 09:00","2012","02","12","09:00","-14.0","","-20.8","","56","","","","19","","13","","","","99.39","","","","-21","","NA"
"-97.56","49.03","GRETNA (AUT)","5021220","2012-02-12 10:00","2012","02","12","10:00","-11.2","","-18.4","","55","","","","18","","15","","","","99.34","","","","-18","","NA"
"-97.56","49.03","GRETNA (AUT)","5021220","2012-02-12 11:00","2012","02","12","11:00","-8.4","","-17.4","","48","","","","20","","13","","","","99.26","","","","-14","","NA"
"-97.56","49.03","GRETNA (AUT)","5021220","2012-02-12 12:00","2012","02","12","12:00","-5.0","","-18.3","","34","","","","21","","9","","","","99.14","","","","-9","","NA"
"-97.56","49.03","GRETNA (AUT)","5021220","2012-02-12 13:00","2012","02","12","13:00","-3.3","","-17.2","","33","","","","20","","15","","","","98.98","","","","-8","","NA"
"-97.56","49.03","GRETNA (AUT)","5021220","2012-02-12 14:00","2012","02","12","14:00","-2.4","","-18.4","","28","","","","22","","19","","","","98.86","","","","-8","","NA"
"-97.56","49.03","GRETNA (AUT)","5021220","2012-02-12 15:00","2012","02","12","15:00","-2.3","","-17.2","","31","","","","21","","20","","","","98.76","","","","-8","","NA"
"-97.56","49.03","GRETNA (AUT)","5021220","2012-02-12 16:00","2012","02","12","16:00","-3.3","","-13.8","","44","","","","17","","24","","","","98.70","","","","-10","","NA"
"-97.56","49.03","GRETNA (AUT)","5021220","2012-02-12 17:00","2012","02","12","17:00","-4.2","","-14.1","","46","","","","18","","22","","","","98.62","","","","-11","","NA"
"-97.56","49.03","GRETNA (AUT)","5021220","2012-02-12 18:00","2012","02","12","18:00","-6.9","","-14.3","","56","","","","17","","19","","","","98.51","","","","-14","","NA"
"-97.56","49.03","GRETNA (AUT)","5021220","2012-02-12 19:00","2012","02","12","19:00","-10.3","","-15.4","","66","","","","16","","13","","","","98.46","","","","-17","","NA"
"-97.56","49.03","GRETNA (AUT)","5021220","2012-02-12 20:00","2012","02","12","20:00","-12.4","","-16.3","","73","","","","17","","15","","","","98.39","","","","-20","","NA"
"-97.56","49.03","GRETNA (AUT)","5021220","2012-02-12 21:00","2012","02","12","21:00","-13.2","","-16.8","","74","","","","17","","15","","","","98.32","","","","-21","","NA"
"-97.56","49.03","GRETNA (AUT)","5021220","2012-02-12 22:00","2012","02","12","22:00","-13.4","","-17.3","","72","","","","18","","13","","","","98.28","","","","-20","","NA"
"-97.56","49.03","GRETNA (AUT)","5021220","2012-02-12 23:00","2012","02","12","23:00","-11.9","","-16.6","","68","","","","17","","17","","","","98.19","","","","-20","","NA"
"-97.56","49.03","GRETNA (AUT)","5021220","2012-02-13 00:00","2012","02","13","00:00","-12.7","","-16.9","","71","","","","17","","17","","","","98.13","","","","-21","","NA"
"-97.56","49.03","GRETNA (AUT)","5021220","2012-02-13 01:00","2012","02","13","01:00","-13.8","","-17.5","","74","","","","16","","17","","","","98.07","","","","-22","","NA"
"-97.56","49.03","GRETNA (AUT)","5021220","2012-02-13 02:00","2012","02","13","02:00","-14.4","","-17.8","","75","","","","17","","19","","","","98.02","","","","-23","","NA"
"-97.56","49.03","GRETNA (AUT)","5021220","2012-02-13 03:00","2012","02","13","03:00","-14.3","","-17.7","","75","","","","17","","17","","","","97.92","","","","-23","","NA"
"-97.56","49.03","GRETNA (AUT)","5021220","2012-02-13 04:00","2012","02","13","04:00","-14.6","","-18.0","","75","","","","17","","15","","","","97.86","","","","-22","","NA"
"-97.56","49.03","GRETNA (AUT)","5021220","2012-02-13 05:00","2012","02","13","05:00","-15.4","","-18.5","","77","","","","16","","9","","","","97.82","","","","-21","","NA"
"-97.56","49.03","GRETNA (AUT)","5021220","2012-02-13 06:00","2012","02","13","06:00","-15.7","","-18.7","","78","","","","16","","13","","","","97.77","","","","-23","","NA"
"-97.56","49.03","GRETNA (AUT)","5021220","2012-02-13 07:00","2012","02","13","07:00","-15.7","","-18.6","","78","","","","16","","19","","","","97.72","","","","-25","","NA"
"-97.56","49.03","GRETNA (AUT)","5021220","2012-02-13 08:00","2012","02","13","08:00","-14.9","","-17.8","","78","","","","17","","15","","","","97.69","","","","-23","","NA"
"-97.56","49.03","GRETNA (AUT)","5021220","2012-02-13 09:00","2012","02","13","09:00","-12.8","","-16.2","","76","","","","17","","17","","","","97.68","","","","-21","","NA"
"-97.56","49.03","GRETNA (AUT)","5021220","2012-02-13 10:00","2012","02","13","10:00","-9.2","","-13.5","","71","","","","17","","15","","","","97.64","","","","-16","","NA"
"-97.56","49.03","GRETNA (AUT)","5021220","2012-02-13 11:00","2012","02","13","11:00","-6.4","","-12.3","","63","","","","18","","13","","","","97.62","","","","-12","","NA"
"-97.56","49.03","GRETNA (AUT)","5021220","2012-02-13 12:00","2012","02","13","12:00","-3.2","","-10.9","","55","","","","16","","17","","","","97.56","","","","-9","","NA"
"-97.56","49.03","GRETNA (AUT)","5021220","2012-02-13 13:00","2012","02","13","13:00","-1.4","","-10.0","","52","","","","17","","19","","","","97.49","","","","-7","","NA"
"-97.56","49.03","GRETNA (AUT)","5021220","2012-02-13 14:00","2012","02","13","14:00","-0.1","","-9.6","","49","","","","18","","17","","","","97.43","","","","-5","","NA"
"-97.56","49.03","GRETNA (AUT)","5021220","2012-02-13 15:00","2012","02","13","15:00","0.2","","-9.8","","47","","","","17","","20","","","","97.36","","","","","","NA"
"-97.56","49.03","GRETNA (AUT)","5021220","2012-02-13 16:00","2012","02","13","16:00","0.5","","-8.9","","49","","","","17","","19","","","","97.35","","","","","","NA"
"-97.56","49.03","GRETNA (AUT)","5021220","2012-02-13 17:00","2012","02","13","17:00","-0.7","","-8.3","","56","","","","17","","19","","","","97.31","","","","-6","","NA"
"-97.56","49.03","GRETNA (AUT)","5021220","2012-02-13 18:00","2012","02","13","18:00","-3.5","","-8.9","","66","","","","17","","15","","","","97.34","","","","-9","","NA"
"-97.56","49.03","GRETNA (AUT)","5021220","2012-02-13 19:00","2012","02","13","19:00","-4.8","","-9.1","","72","","","","18","","13","","","","97.34","","","","-10","","NA"
"-97.56","49.03","GRETNA (AUT)","5021220","2012-02-13 20:00","2012","02","13","20:00","-7.2","","-9.7","","82","","","","18","","11","","","","97.31","","","","-12","","NA"
"-97.56","49.03","GRETNA (AUT)","5021220","2012-02-13 21:00","2012","02","13","21:00","-8.5","","-10.8","","83","","","","18","","11","","","","97.28","","","","-14","","NA"
"-97.56","49.03","GRETNA (AUT)","5021220","2012-02-13 22:00","2012","02","13","22:00","-9.7","","-11.5","","87","","","","18","","11","","","","97.27","","","","-15","","NA"
"-97.56","49.03","GRETNA (AUT)","5021220","2012-02-13 23:00","2012","02","13","23:00","-11.5","","-13.6","","84","","","","18","","9","","","","97.26","","","","-17","","NA"
"-97.56","49.03","GRETNA (AUT)","5021220","2012-02-14 00:00","2012","02","14","00:00","-11.1","","-12.8","","87","","","","18","","6","","","","97.25","","","","-15","","NA"
"-97.56","49.03","GRETNA (AUT)","5021220","2012-02-14 01:00","2012","02","14","01:00","-12.3","","-14.1","","86","","","","16","","6","","","","97.23","","","","-16","","NA"
"-97.56","49.03","GRETNA (AUT)","5021220","2012-02-14 02:00","2012","02","14","02:00","-13.0","","-14.8","","86","","","","17","","9","","","","97.21","","","","-18","","NA"
"-97.56","49.03","GRETNA (AUT)","5021220","2012-02-14 03:00","2012","02","14","03:00","-14.0","","-16.0","","85","","","","20","","4","","","","97.22","","","","-17","","NA"
"-97.56","49.03","GRETNA (AUT)","5021220","2012-02-14 04:00","2012","02","14","04:00","-13.5","","-15.1","","88","","","","23","","7","","","","97.21","","","","-18","","NA"
"-97.56","49.03","GRETNA (AUT)","5021220","2012-02-14 05:00","2012","02","14","05:00","-13.7","","-15.4","","87","","","","21","","4","","","","97.23","","","","-16","","NA"
"-97.56","49.03","GRETNA (AUT)","5021220","2012-02-14 06:00","2012","02","14","06:00","-14.5","","-16.3","","86","","","","25","","7","","","","97.23","","","","-19","","NA"
"-97.56","49.03","GRETNA (AUT)","5021220","2012-02-14 07:00","2012","02","14","07:00","-11.2","","-12.8","","88","","","","26","","9","","","","97.21","","","","-16","","NA"
"-97.56","49.03","GRETNA (AUT)","5021220","2012-02-14 08:00","2012","02","14","08:00","-11.6","","-13.5","","86","","","","26","","7","","","","97.25","","","","-16","","NA"
"-97.56","49.03","GRETNA (AUT)","5021220","2012-02-14 09:00","2012","02","14","09:00","-8.6","","-10.9","","83","","","","27","","4","","","","97.28","","","","-11","","NA"
"-97.56","49.03","GRETNA (AUT)","5021220","2012-02-14 10:00","2012","02","14","10:00","-3.1","","-7.8","","70","","","","27","","7","","","","97.31","","","","-6","","NA"
"-97.56","49.03","GRETNA (AUT)","5021220","2012-02-14 11:00","2012","02","14","11:00","-0.7","","-7.9","","58","","","","24","","6","","","","97.31","","","","-3","","NA"
"-97.56","49.03","GRETNA (AUT)","5021220","2012-02-14 12:00","2012","02","14","12:00","1.7","","-7.3","","51","","","","16","","4","","","","97.30","","","","","","NA"
"-97.56","49.03","GRETNA (AUT)","5021220","2012-02-14 13:00","2012","02","14","13:00","3.1","","-6.7","","49","","","","18","","6","","","","97.28","","","","","","NA"
"-97.56","49.03","GRETNA (AUT)","5021220","2012-02-14 14:00","2012","02","14","14:00","4.4","","-6.8","","44","","","","21","","4","","","","97.26","","","","","","NA"
"-97.56","49.03","GRETNA (AUT)","5021220","2012-02-14 15:00","2012","02","14","15:00","4.8","","-6.4","","44","","","","23","","6","","","","97.26","","","","","","NA"
"-97.56","49.03","GRETNA (AUT)","5021220","2012-02-14 16:00","2012","02","14","16:00","6.5","","-6.1","","40","","","","24","","4","","","","97.29","","","","","","NA"
"-97.56","49.03","GRETNA (AUT)","5021220","2012-02-14 17:00","2012","02","14","17:00","5.2","","-6.3","","43","","","","17","","6","","","","97.31","","","","","","NA"
"-97.56","49.03","GRETNA (AUT)","5021220","2012-02-14 18:00","2012","02","14","18:00","0.3","","-5.8","","64","","","","17","","15","","","","97.37","","","","","","NA"
"-97.56","49.03","GRETNA (AUT)","5021220","2012-02-14 19:00","2012","02","14","19:00","-2.8","","-7.2","","72","","","","17","","13","","","","97.43","","","","-7","","NA"
"-97.56","49.03","GRETNA (AUT)","5021220","2012-02-14 20:00","2012","02","14","20:00","-4.7","","-7.9","","78","","","","17","","13","","","","97.46","","","","-10","","NA"
"-97.56","49.03","GRETNA (AUT)","5021220","2012-02-14 21:00","2012","02","14","21:00","-6.0","","-8.8","","81","","","","19","","7","","","","97.49","","","","-9","","NA"
"-97.56","49.03","GRETNA (AUT)","5021220","2012-02-14 22:00","2012","02","14","22:00","-7.0","","-9.3","","84","","","","17","","7","","","","97.51","","","","-11","","NA"
"-97.56","49.03","GRETNA (AUT)","5021220","2012-02-14 23:00","2012","02","14","23:00","-4.8","","-6.8","","86","","","","22","","9","","","","97.54","","","","-9","","NA"
"-97.56","49.03","GRETNA (AUT)","5021220","2012-02-15 00:00","2012","02","15","00:00","-7.6","","-9.5","","86","","","","22","","6","","","","97.57","","","","-11","","NA"
"-97.56","49.03","GRETNA (AUT)","5021220","2012-02-15 01:00","2012","02","15","01:00","-5.9","","-8.1","","84","","","","23","","9","","","","97.64","","","","-10","","NA"
"-97.56","49.03","GRETNA (AUT)","5021220","2012-02-15 02:00","2012","02","15","02:00","-5.1","","-7.3","","85","","","","24","","9","","","","97.66","","","","-9","","NA"
"-97.56","49.03","GRETNA (AUT)","5021220","2012-02-15 03:00","2012","02","15","03:00","-5.0","","-7.4","","83","","","","27","","11","","","","97.68","","","","-10","","NA"
"-97.56","49.03","GRETNA (AUT)","5021220","2012-02-15 04:00","2012","02","15","04:00","-4.5","","-7.1","","82","","","","31","","9","","","","97.72","","","","-8","","NA"
"-97.56","49.03","GRETNA (AUT)","5021220","2012-02-15 05:00","2012","02","15","05:00","-5.4","","-7.6","","84","","","","30","","6","","","","97.76","","","","-8","","NA"
"-97.56","49.03","GRETNA (AUT)","5021220","2012-02-15 06:00","2012","02","15","06:00","-5.4","","-7.3","","86","","","","28","","11","","","","97.81","","","","-10","","NA"
"-97.56","49.03","GRETNA (AUT)","5021220","2012-02-15 07:00","2012","02","15","07:00","-4.2","","-6.6","","83","","","","29","","7","","","","97.84","","","","-7","","NA"
"-97.56","49.03","GRETNA (AUT)","5021220","2012-02-15 08:00","2012","02","15","08:00","-3.0","","-5.6","","82","","","","27","","13","","","","97.91","","","","-8","","NA"
"-97.56","49.03","GRETNA (AUT)","5021220","2012-02-15 09:00","2012","02","15","09:00","-2.4","","-5.2","","81","","","","28","","11","","","","97.96","","","","-6","","NA"
"-97.56","49.03","GRETNA (AUT)","5021220","2012-02-15 10:00","2012","02","15","10:00","-1.3","","-4.0","","82","","","","29","","17","","","","98.01","","","","-6","","NA"
"-97.56","49.03","GRETNA (AUT)","5021220","2012-02-15 11:00","2012","02","15","11:00","-0.7","","-3.2","","83","","","","30","","20","","","","98.04","","","","-6","","NA"
"-97.56","49.03","GRETNA (AUT)","5021220","2012-02-15 12:00","2012","02","15","12:00","-0.2","","-2.0","","88","","","","31","","15","","","","98.07","","","","-5","","NA"
"-97.56","49.03","GRETNA (AUT)","5021220","2012-02-15 13:00","2012","02","15","13:00","-0.4","","-2.1","","88","","","","29","","19","","","","98.08","","","","-6","","NA"
"-97.56","49.03","GRETNA (AUT)","5021220","2012-02-15 14:00","2012","02","15","14:00","-0.9","","-2.2","","91","","","","29","","17","","","","98.10","","","","-6","","NA"
"-97.56","49.03","GRETNA (AUT)","5021220","2012-02-15 15:00","2012","02","15","15:00","-0.7","","-1.5","","94","","","","31","","13","","","","98.11","","","","-5","","NA"
"-97.56","49.03","GRETNA (AUT)","5021220","2012-02-15 16:00","2012","02","15","16:00","-0.4","","-1.3","","94","","","","31","","19","","","","98.16","","","","-6","","NA"
"-97.56","49.03","GRETNA (AUT)","5021220","2012-02-15 17:00","2012","02","15","17:00","-0.4","","-1.6","","92","","","","31","","20","","","","98.20","","","","-6","","NA"
"-97.56","49.03","GRETNA (AUT)","5021220","2012-02-15 18:00","2012","02","15","18:00","-1.0","","-2.3","","91","","","","31","","11","","","","98.25","","","","-5","","NA"
"-97.56","49.03","GRETNA (AUT)","5021220","2012-02-15 19:00","2012","02","15","19:00","-1.4","","-3.0","","89","","","","32","","7","","","","98.30","","","","-4","","NA"
"-97.56","49.03","GRETNA (AUT)","5021220","2012-02-15 20:00","2012","02","15","20:00","-2.8","","-3.8","","93","","","","25","","2","","","","98.34","","","","-4","","NA"
"-97.56","49.03","GRETNA (AUT)","5021220","2012-02-15 21:00","2012","02","15","21:00","-3.0","","-3.7","","95","","","","26","","4","","","","98.37","","","","-5","","NA"
"-97.56","49.03","GRETNA (AUT)","5021220","2012-02-15 22:00","2012","02","15","22:00","-4.8","","-5.9","","92","","","","27","","6","","","","98.41","","","","-8","","NA"
"-97.56","49.03","GRETNA (AUT)","5021220","2012-02-15 23:00","2012","02","15","23:00","-8.0","","-9.7","","88","","","","29","","11","","","","98.41","","","","-13","","NA"
"-97.56","49.03","GRETNA (AUT)","5021220","2012-02-16 00:00","2012","02","16","00:00","-8.1","","-9.5","","90","","","","27","","11","","","","98.44","","","","-13","","NA"
"-97.56","49.03","GRETNA (AUT)","5021220","2012-02-16 01:00","2012","02","16","01:00","-7.3","","-8.9","","88","","","","29","","13","","","","98.47","","","","-13","","NA"
"-97.56","49.03","GRETNA (AUT)","5021220","2012-02-16 02:00","2012","02","16","02:00","-6.0","","-7.8","","87","","","","28","","15","","","","98.50","","","","-12","","NA"
"-97.56","49.03","GRETNA (AUT)","5021220","2012-02-16 03:00","2012","02","16","03:00","-5.7","","-7.4","","88","","","","28","","13","","","","98.51","","","","-11","","NA"
"-97.56","49.03","GRETNA (AUT)","5021220","2012-02-16 04:00","2012","02","16","04:00","-5.2","","-7.0","","87","","","","28","","15","","","","98.50","","","","-11","","NA"
"-97.56","49.03","GRETNA (AUT)","5021220","2012-02-16 05:00","2012","02","16","05:00","-5.4","","-7.2","","87","","","","28","","15","","","","98.55","","","","-11","","NA"
"-97.56","49.03","GRETNA (AUT)","5021220","2012-02-16 06:00","2012","02","16","06:00","-5.4","","-7.2","","87","","","","28","","15","","","","98.58","","","","-11","","NA"
"-97.56","49.03","GRETNA (AUT)","5021220","2012-02-16 07:00","2012","02","16","07:00","-5.5","","-7.3","","87","","","","27","","13","","","","98.58","","","","-11","","NA"
"-97.56","49.03","GRETNA (AUT)","5021220","2012-02-16 08:00","2012","02","16","08:00","-6.4","","-8.0","","88","","","","26","","9","","","","98.59","","","","-11","","NA"
"-97.56","49.03","GRETNA (AUT)","5021220","2012-02-16 09:00","2012","02","16","09:00","-5.5","","-7.1","","88","","","","25","","11","","","","98.60","","","","-10","","NA"
"-97.56","49.03","GRETNA (AUT)","5021220","2012-02-16 10:00","2012","02","16","10:00","-3.9","","-6.1","","85","","","","24","","13","","","","98.61","","","","-9","","NA"
"-97.56","49.03","GRETNA (AUT)","5021220","2012-02-16 11:00","2012","02","16","11:00","-2.5","","-5.2","","82","","","","24","","15","","","","98.60","","","","-7","","NA"
"-97.56","49.03","GRETNA (AUT)","5021220","2012-02-16 12:00","2012","02","16","12:00","-0.8","","-4.5","","76","","","","26","","17","","","","98.57","","","","-6","","NA"
"-97.56","49.03","GRETNA (AUT)","5021220","2012-02-16 13:00","2012","02","16","13:00","0.7","","-5.8","","62","","","","27","","13","","","","98.52","","","","","","NA"
"-97.56","49.03","GRETNA (AUT)","5021220","2012-02-16 14:00","2012","02","16","14:00","1.9","","-5.3","","59","","","","26","","13","","","","98.47","","","","","","NA"
"-97.56","49.03","GRETNA (AUT)","5021220","2012-02-16 15:00","2012","02","16","15:00","1.5","","-6.0","","57","","","","31","","9","","","","98.44","","","","","","NA"
"-97.56","49.03","GRETNA (AUT)","5021220","2012-02-16 16:00","2012","02","16","16:00","1.1","","-5.0","","64","","","","1","","13","","","","98.43","","","","","","NA"
"-97.56","49.03","GRETNA (AUT)","5021220","2012-02-16 17:00","2012","02","16","17:00","0.3","","-4.1","","72","","","","4","","11","","","","98.44","","","","","","NA"
"-97.56","49.03","GRETNA (AUT)","5021220","2012-02-16 18:00","2012","02","16","18:00","-1.2","","-3.9","","82","","","","6","","15","","","","98.48","","","","-6","","NA"
"-97.56","49.03","GRETNA (AUT)","5021220","2012-02-16 19:00","2012","02","16","19:00","-1.9","","-4.2","","84","","","","6","","11","","","","98.51","","","","-6","","NA"
"-97.56","49.03","GRETNA (AUT)","5021220","2012-02-16 20:00","2012","02","16","20:00","-2.4","","-4.8","","84","","","","3","","9","","","","98.54","","","","-6","","NA"
"-97.56","49.03","GRETNA (AUT)","5021220","2012-02-16 21:00","2012","02","16","21:00","-2.8","","-5.1","","84","","","","36","","7","","","","98.57","","","","-6","","NA"
"-97.56","49.03","GRETNA (AUT)","5021220","2012-02-16 22:00","2012","02","16","22:00","-3.1","","-5.5","","83","","","","33","","6","","","","98.58","","","","-6","","NA"
"-97.56","49.03","GRETNA (AUT)","5021220","2012-02-16 23:00","2012","02","16","23:00","-3.4","","-5.5","","85","","","","31","","9","","","","98.58","","","","-7","","NA"
"-97.56","49.03","GRETNA (AUT)","5021220","2012-02-17 00:00","2012","02","17","00:00","-7.1","","-8.9","","87","","","","33","","11","","","","98.62","","","","-12","","NA"
"-97.56","49.03","GRETNA (AUT)","5021220","2012-02-17 01:00","2012","02","17","01:00","-9.3","","-10.5","","91","","","","36","","13","","","","98.64","","","","-15","","NA"
"-97.56","49.03","GRETNA (AUT)","5021220","2012-02-17 02:00","2012","02","17","02:00","-10.8","","-12.1","","90","","","","32","","11","","","","98.64","","","","-17","","NA"
"-97.56","49.03","GRETNA (AUT)","5021220","2012-02-17 03:00","2012","02","17","03:00","-10.1","","-11.2","","92","","","","34","","13","","","","98.68","","","","-16","","NA"
"-97.56","49.03","GRETNA (AUT)","5021220","2012-02-17 04:00","2012","02","17","04:00","-10.6","","-11.9","","90","","","","33","","9","","","","98.71","","","","-16","","NA"
"-97.56","49.03","GRETNA (AUT)","5021220","2012-02-17 05:00","2012","02","17","05:00","-7.4","","-9.4","","86","","","","35","","13","","","","98.77","","","","-13","","NA"
"-97.56","49.03","GRETNA (AUT)","5021220","2012-02-17 06:00","2012","02","17","06:00","-6.7","","-8.9","","84","","","","35","","15","","","","98.80","","","","-13","","NA"
"-97.56","49.03","GRETNA (AUT)","5021220","2012-02-17 07:00","2012","02","17","07:00","-6.4","","-8.8","","83","","","","34","","20","","","","98.88","","","","-13","","NA"
"-97.56","49.03","GRETNA (AUT)","5021220","2012-02-17 08:00","2012","02","17","08:00","-6.4","","-8.4","","86","","","","34","","17","","","","98.95","","","","-13","","NA"
"-97.56","49.03","GRETNA (AUT)","5021220","2012-02-17 09:00","2012","02","17","09:00","-6.0","","-8.0","","86","","","","34","","17","","","","99.03","","","","-12","","NA"
"-97.56","49.03","GRETNA (AUT)","5021220","2012-02-17 10:00","2012","02","17","10:00","-5.5","","-7.7","","84","","","","34","","20","","","","99.07","","","","-12","","NA"
"-97.56","49.03","GRETNA (AUT)","5021220","2012-02-17 11:00","2012","02","17","11:00","-5.2","","-7.2","","86","","","","34","","20","","","","99.12","","","","-12","","NA"
"-97.56","49.03","GRETNA (AUT)","5021220","2012-02-17 12:00","2012","02","17","12:00","-4.2","","-6.5","","84","","","","36","","17","","","","99.15","","","","-10","","NA"
"-97.56","49.03","GRETNA (AUT)","5021220","2012-02-17 13:00","2012","02","17","13:00","-3.1","","-6.3","","79","","","","36","","15","","","","99.14","","","","-8","","NA"
"-97.56","49.03","GRETNA (AUT)","5021220","2012-02-17 14:00","2012","02","17","14:00","-3.3","","-7.6","","72","","","","35","","20","","","","99.16","","","","-9","","NA"
"-97.56","49.03","GRETNA (AUT)","5021220","2012-02-17 15:00","2012","02","17","15:00","-3.0","","-7.8","","69","","","","36","","15","","","","99.14","","","","-8","","NA"
"-97.56","49.03","GRETNA (AUT)","5021220","2012-02-17 16:00","2012","02","17","16:00","-3.4","","-8.5","","68","","","","1","","11","","","","99.18","","","","-8","","NA"
"-97.56","49.03","GRETNA (AUT)","5021220","2012-02-17 17:00","2012","02","17","17:00","-3.8","","-7.9","","73","","","","2","","11","","","","99.21","","","","-8","","NA"
"-97.56","49.03","GRETNA (AUT)","5021220","2012-02-17 18:00","2012","02","17","18:00","-4.5","","-8.9","","71","","","","5","","7","","","","99.22","","","","-8","","NA"
"-97.56","49.03","GRETNA (AUT)","5021220","2012-02-17 19:00","2012","02","17","19:00","-4.9","","-9.1","","72","","","","7","","6","","","","99.23","","","","-8","","NA"
"-97.56","49.03","GRETNA (AUT)","5021220","2012-02-17 20:00","2012","02","17","20:00","-5.9","","-9.3","","77","","","","11","","7","","","","99.17","","","","-9","","NA"
"-97.56","49.03","GRETNA (AUT)","5021220","2012-02-17 21:00","2012","02","17","21:00","-8.3","","-10.4","","85","","","","14","","9","","","","99.16","","","","-13","","NA"
"-97.56","49.03","GRETNA (AUT)","5021220","2012-02-17 22:00","2012","02","17","22:00","-9.3","","-11.0","","87","","","","17","","7","","","","99.16","","","","-13","","NA"
"-97.56","49.03","GRETNA (AUT)","5021220","2012-02-17 23:00","2012","02","17","23:00","-9.8","","-11.2","","89","","","","18","","11","","","","99.12","","","","-15","","NA"
"-97.56","49.03","GRETNA (AUT)","5021220","2012-02-18 00:00","2012","02","18","00:00","-7.9","","-10.1","","84","","","","19","","11","","","","99.08","","","","-13","","NA"
"-97.56","49.03","GRETNA (AUT)","5021220","2012-02-18 01:00","2012","02","18","01:00","-8.8","","-10.5","","87","","","","20","","11","","","","99.06","","","","-14","","NA"
"-97.56","49.03","GRETNA (AUT)","5021220","2012-02-18 02:00","2012","02","18","02:00","-10.0","","-12.0","","85","","","","22","","11","","","","99.04","","","","-16","","NA"
"-97.56","49.03","GRETNA (AUT)","5021220","2012-02-18 03:00","2012","02","18","03:00","-10.3","","-12.2","","86","","","","21","","7","","","","99.04","","","","-14","","NA"
"-97.56","49.03","GRETNA (AUT)","5021220","2012-02-18 04:00","2012","02","18","04:00","-11.4","","-13.1","","87","","","","21","","7","","","","99.00","","","","-16","","NA"
"-97.56","49.03","GRETNA (AUT)","5021220","2012-02-18 05:00","2012","02","18","05:00","-10.2","","-11.9","","87","","","","20","","7","","","","98.99","","","","-14","","NA"
"-97.56","49.03","GRETNA (AUT)","5021220","2012-02-18 06:00","2012","02","18","06:00","-11.5","","-13.0","","89","","","","19","","9","","","","98.96","","","","-17","","NA"
"-97.56","49.03","GRETNA (AUT)","5021220","2012-02-18 07:00","2012","02","18","07:00","-12.0","","-13.4","","89","","","","19","","9","","","","98.96","","","","-17","","NA"
"-97.56","49.03","GRETNA (AUT)","5021220","2012-02-18 08:00","2012","02","18","08:00","-12.8","","-14.2","","89","","","","18","","9","","","","98.95","","","","-18","","NA"
"-97.56","49.03","GRETNA (AUT)","5021220","2012-02-18 09:00","2012","02","18","09:00","-10.5","","-12.3","","87","","","","18","","7","","","","98.93","","","","-15","","NA"
"-97.56","49.03","GRETNA (AUT)","5021220","2012-02-18 10:00","2012","02","18","10:00","-7.3","","-9.5","","84","","","","17","","7","","","","98.90","","","","-11","","NA"
"-97.56","49.03","GRETNA (AUT)","5021220","2012-02-18 11:00","2012","02","18","11:00","-3.5","","-6.5","","80","","","","18","","7","","","","98.89","","","","-6","","NA"
"-97.56","49.03","GRETNA (AUT)","5021220","2012-02-18 12:00","2012","02","18","12:00","-0.2","","-5.3","","68","","","","19","","11","","","","98.86","","","","-4","","NA"
"-97.56","49.03","GRETNA (AUT)","5021220","2012-02-18 13:00","2012","02","18","13:00","1.9","","-4.6","","62","","","","18","","17","","","","98.77","","","","","","NA"
"-97.56","49.03","GRETNA (AUT)","5021220","2012-02-18 14:00","2012","02","18","14:00","2.6","","-5.0","","57","","","","21","","19","","","","98.72","","","","","","NA"
"-97.56","49.03","GRETNA (AUT)","5021220","2012-02-18 15:00","2012","02","18","15:00","2.5","","-4.5","","60","","","","18","","19","","","","98.67","","","","","","NA"
"-97.56","49.03","GRETNA (AUT)","5021220","2012-02-18 16:00","2012","02","18","16:00","1.9","","-4.6","","62","","","","18","","22","","","","98.66","","","","","","NA"
"-97.56","49.03","GRETNA (AUT)","5021220","2012-02-18 17:00","2012","02","18","17:00","1.8","","-4.7","","62","","","","18","","17","","","","98.62","","","","","","NA"
"-97.56","49.03","GRETNA (AUT)","5021220","2012-02-18 18:00","2012","02","18","18:00","-1.3","","-6.1","","70","","","","15","","11","","","","98.60","","","","-5","","NA"
"-97.56","49.03","GRETNA (AUT)","5021220","2012-02-18 19:00","2012","02","18","19:00","-2.5","","-6.0","","77","","","","14","","15","","","","98.59","","","","-7","","NA"
"-97.56","49.03","GRETNA (AUT)","5021220","2012-02-18 20:00","2012","02","18","20:00","-3.8","","-6.2","","83","","","","15","","17","","","","98.58","","","","-10","","NA"
"-97.56","49.03","GRETNA (AUT)","5021220","2012-02-18 21:00","2012","02","18","21:00","-4.8","","-6.9","","85","","","","16","","17","","","","98.57","","","","-11","","NA"
"-97.56","49.03","GRETNA (AUT)","5021220","2012-02-18 22:00","2012","02","18","22:00","-5.0","","-7.4","","83","","","","16","","19","","","","98.53","","","","-11","","NA"
"-97.56","49.03","GRETNA (AUT)","5021220","2012-02-18 23:00","2012","02","18","23:00","-5.9","","-7.8","","86","","","","16","","19","","","","98.51","","","","-13","","NA"
"-97.56","49.03","GRETNA (AUT)","5021220","2012-02-19 00:00","2012","02","19","00:00","-6.4","","-8.0","","88","","","","17","","19","","","","98.48","","","","-13","","NA"
"-97.56","49.03","GRETNA (AUT)","5021220","2012-02-19 01:00","2012","02","19","01:00","-7.3","","-8.9","","88","","","","15","","13","","","","98.47","","","","-13","","NA"
"-97.56","49.03","GRETNA (AUT)","5021220","2012-02-19 02:00","2012","02","19","02:00","-8.0","","-9.6","","88","","","","16","","15","","","","98.44","","","","-14","","NA"
"-97.56","49.03","GRETNA (AUT)","5021220","2012-02-19 03:00","2012","02","19","03:00","-8.9","","-10.4","","89","","","","16","","15","","","","98.40","","","","-15","","NA"
"-97.56","49.03","GRETNA (AUT)","5021220","2012-02-19 04:00","2012","02","19","04:00","-9.1","","-10.6","","89","","","","16","","15","","","","98.37","","","","-16","","NA"
"-97.56","49.03","GRETNA (AUT)","5021220","2012-02-19 05:00","2012","02","19","05:00","-9.5","","-11.0","","89","","","","16","","13","","","","98.36","","","","-16","","NA"
"-97.56","49.03","GRETNA (AUT)","5021220","2012-02-19 06:00","2012","02","19","06:00","-9.6","","-11.2","","88","","","","16","","17","","","","98.33","","","","-17","","NA"
"-97.56","49.03","GRETNA (AUT)","5021220","2012-02-19 07:00","2012","02","19","07:00","-9.8","","-11.4","","88","","","","16","","17","","","","98.31","","","","-17","","NA"
"-97.56","49.03","GRETNA (AUT)","5021220","2012-02-19 08:00","2012","02","19","08:00","-9.5","","-11.1","","88","","","","15","","15","","","","98.32","","","","-16","","NA"
"-97.56","49.03","GRETNA (AUT)","5021220","2012-02-19 09:00","2012","02","19","09:00","-7.3","","-9.3","","86","","","","17","","22","","","","98.33","","","","-15","","NA"
"-97.56","49.03","GRETNA (AUT)","5021220","2012-02-19 10:00","2012","02","19","10:00","-3.8","","-6.9","","79","","","","17","","19","","","","98.31","","","","-10","","NA"
"-97.56","49.03","GRETNA (AUT)","5021220","2012-02-19 11:00","2012","02","19","11:00","-1.1","","-5.3","","73","","","","17","","24","","","","98.25","","","","-7","","NA"
"-97.56","49.03","GRETNA (AUT)","5021220","2012-02-19 12:00","2012","02","19","12:00","1.1","","-4.9","","64","","","","18","","24","","","","98.23","","","","","","NA"
"-97.56","49.03","GRETNA (AUT)","5021220","2012-02-19 13:00","2012","02","19","13:00","2.8","","-4.3","","59","","","","17","","32","","","","98.14","","","","","","NA"
"-97.56","49.03","GRETNA (AUT)","5021220","2012-02-19 14:00","2012","02","19","14:00","2.9","","-4.5","","58","","","","17","","26","","","","98.06","","","","","","NA"
"-97.56","49.03","GRETNA (AUT)","5021220","2012-02-19 15:00","2012","02","19","15:00","2.3","","-4.5","","61","","","","17","","24","","","","98.05","","","","","","NA"
"-97.56","49.03","GRETNA (AUT)","5021220","2012-02-19 16:00","2012","02","19","16:00","1.7","","-4.0","","66","","","","16","","28","","","","98.04","","","","","","NA"
"-97.56","49.03","GRETNA (AUT)","5021220","2012-02-19 17:00","2012","02","19","17:00","1.6","","-3.9","","67","","","","16","","20","","","","98.05","","","","","","NA"
"-97.56","49.03","GRETNA (AUT)","5021220","2012-02-19 18:00","2012","02","19","18:00","0.7","","-4.1","","70","","","","15","","17","","","","98.06","","","","","","NA"
"-97.56","49.03","GRETNA (AUT)","5021220","2012-02-19 19:00","2012","02","19","19:00","-0.1","","-4.4","","73","","","","14","","15","","","","98.05","","","","-5","","NA"
"-97.56","49.03","GRETNA (AUT)","5021220","2012-02-19 20:00","2012","02","19","20:00","-1.5","","-4.9","","78","","","","16","","15","","","","97.99","","","","-6","","NA"
"-97.56","49.03","GRETNA (AUT)","5021220","2012-02-19 21:00","2012","02","19","21:00","-2.1","","-5.0","","80","","","","16","","17","","","","97.99","","","","-7","","NA"
"-97.56","49.03","GRETNA (AUT)","5021220","2012-02-19 22:00","2012","02","19","22:00","-3.2","","-5.5","","84","","","","16","","15","","","","97.95","","","","-8","","NA"
"-97.56","49.03","GRETNA (AUT)","5021220","2012-02-19 23:00","2012","02","19","23:00","-3.9","","-6.3","","83","","","","17","","9","","","","97.96","","","","-8","","NA"
"-97.56","49.03","GRETNA (AUT)","5021220","2012-02-20 00:00","2012","02","20","00:00","-4.4","","-6.4","","86","","","","15","","9","","","","97.93","","","","-8","","NA"
"-97.56","49.03","GRETNA (AUT)","5021220","2012-02-20 01:00","2012","02","20","01:00","-6.1","","-7.8","","88","","","","15","","9","","","","97.92","","","","-10","","NA"
"-97.56","49.03","GRETNA (AUT)","5021220","2012-02-20 02:00","2012","02","20","02:00","-5.7","","-7.5","","87","","","","16","","13","","","","97.92","","","","-11","","NA"
"-97.56","49.03","GRETNA (AUT)","5021220","2012-02-20 03:00","2012","02","20","03:00","-5.8","","-7.2","","90","","","","16","","13","","","","97.90","","","","-11","","NA"
"-97.56","49.03","GRETNA (AUT)","5021220","2012-02-20 04:00","2012","02","20","04:00","-3.6","","-5.5","","87","","","","17","","19","","","","97.89","","","","-10","","NA"
"-97.56","49.03","GRETNA (AUT)","5021220","2012-02-20 05:00","2012","02","20","05:00","-3.4","","-5.7","","84","","","","17","","15","","","","97.87","","","","-9","","NA"
"-97.56","49.03","GRETNA (AUT)","5021220","2012-02-20 06:00","2012","02","20","06:00","-4.9","","-6.7","","87","","","","15","","11","","","","97.84","","","","-9","","NA"
"-97.56","49.03","GRETNA (AUT)","5021220","2012-02-20 07:00","2012","02","20","07:00","-3.7","","-5.6","","87","","","","18","","11","","","","97.86","","","","-8","","NA"
"-97.56","49.03","GRETNA (AUT)","5021220","2012-02-20 08:00","2012","02","20","08:00","-4.0","","-5.8","","87","","","","18","","9","","","","97.88","","","","-8","","NA"
"-97.56","49.03","GRETNA (AUT)","5021220","2012-02-20 09:00","2012","02","20","09:00","-2.0","","-4.5","","83","","","","19","","11","","","","97.87","","","","-6","","NA"
"-97.56","49.03","GRETNA (AUT)","5021220","2012-02-20 10:00","2012","02","20","10:00","-0.7","","-3.9","","79","","","","18","","9","","","","97.85","","","","-4","","NA"
"-97.56","49.03","GRETNA (AUT)","5021220","2012-02-20 11:00","2012","02","20","11:00","0.8","","-3.2","","75","","","","17","","11","","","","97.82","","","","","","NA"
"-97.56","49.03","GRETNA (AUT)","5021220","2012-02-20 12:00","2012","02","20","12:00","2.7","","-3.1","","66","","","","18","","17","","","","97.81","","","","","","NA"
"-97.56","49.03","GRETNA (AUT)","5021220","2012-02-20 13:00","2012","02","20","13:00","3.8","","-2.8","","62","","","","20","","9","","","","97.75","","","","","","NA"
"-97.56","49.03","GRETNA (AUT)","5021220","2012-02-20 14:00","2012","02","20","14:00","4.1","","-2.1","","64","","","","18","","13","","","","97.66","","","","","","NA"
"-97.56","49.03","GRETNA (AUT)","5021220","2012-02-20 15:00","2012","02","20","15:00","4.8","","-2.4","","60","","","","17","","15","","","","97.58","","","","","","NA"
"-97.56","49.03","GRETNA (AUT)","5021220","2012-02-20 16:00","2012","02","20","16:00","4.0","","-2.3","","63","","","","15","","17","","","","97.55","","","","","","NA"
"-97.56","49.03","GRETNA (AUT)","5021220","2012-02-20 17:00","2012","02","20","17:00","1.1","","-0.7","","88","","","","16","","24","","","","97.54","","","","","","NA"
"-97.56","49.03","GRETNA (AUT)","5021220","2012-02-20 18:00","2012","02","20","18:00","0.2","","-0.6","","94","","","","16","","11","","","","97.54","","","","","","NA"
"-97.56","49.03","GRETNA (AUT)","5021220","2012-02-20 19:00","2012","02","20","19:00","0.1","","-0.5","","96","","","","15","","7","","","","97.52","","","","","","NA"
"-97.56","49.03","GRETNA (AUT)","5021220","2012-02-20 20:00","2012","02","20","20:00","-0.1","","-0.6","","96","","","","14","","9","","","","97.42","","","","-3","","NA"
"-97.56","49.03","GRETNA (AUT)","5021220","2012-02-20 21:00","2012","02","20","21:00","-0.4","","-0.9","","96","","","","13","","11","","","","97.37","","","","-4","","NA"
"-97.56","49.03","GRETNA (AUT)","5021220","2012-02-20 22:00","2012","02","20","22:00","-0.6","","-1.0","","97","","","","15","","6","","","","97.30","","","","-3","","NA"
"-97.56","49.03","GRETNA (AUT)","5021220","2012-02-20 23:00","2012","02","20","23:00","-0.8","","-1.2","","97","","","","","","0","","","","97.22","","","","","","NA"
"-97.56","49.03","GRETNA (AUT)","5021220","2012-02-21 00:00","2012","02","21","00:00","-1.0","","-1.4","","97","","","","28","","7","","","","97.10","","","","-4","","NA"
"-97.56","49.03","GRETNA (AUT)","5021220","2012-02-21 01:00","2012","02","21","01:00","-0.6","","-1.0","","97","","","","31","","15","","","","97.06","","","","-5","","NA"
"-97.56","49.03","GRETNA (AUT)","5021220","2012-02-21 02:00","2012","02","21","02:00","-0.1","","-0.5","","97","","","","32","","17","","","","97.01","","","","-5","","NA"
"-97.56","49.03","GRETNA (AUT)","5021220","2012-02-21 03:00","2012","02","21","03:00","-0.1","","-0.6","","96","","","","31","","19","","","","96.94","","","","-5","","NA"
"-97.56","49.03","GRETNA (AUT)","5021220","2012-02-21 04:00","2012","02","21","04:00","0.1","","-0.6","","95","","","","32","","19","","","","96.89","","","","","","NA"
"-97.56","49.03","GRETNA (AUT)","5021220","2012-02-21 05:00","2012","02","21","05:00","-1.4","","-2.2","","94","","","","31","","33","","","","96.89","","","","-9","","NA"
"-97.56","49.03","GRETNA (AUT)","5021220","2012-02-21 06:00","2012","02","21","06:00","-2.9","","-3.9","","93","","","","32","","39","","","","96.91","","","","-11","","NA"
"-97.56","49.03","GRETNA (AUT)","5021220","2012-02-21 07:00","2012","02","21","07:00","-3.8","","-5.0","","91","","","","32","","35","","","","96.91","","","","-12","","NA"
"-97.56","49.03","GRETNA (AUT)","5021220","2012-02-21 08:00","2012","02","21","08:00","-4.6","","-5.9","","91","","","","32","","39","","","","96.94","","","","-13","","NA"
"-97.56","49.03","GRETNA (AUT)","5021220","2012-02-21 09:00","2012","02","21","09:00","-4.4","","-5.8","","90","","","","32","","39","","","","96.94","","","","-13","","NA"
"-97.56","49.03","GRETNA (AUT)","5021220","2012-02-21 10:00","2012","02","21","10:00","-3.7","","-5.6","","87","","","","32","","44","","","","96.91","","","","-13","","NA"
"-97.56","49.03","GRETNA (AUT)","5021220","2012-02-21 11:00","2012","02","21","11:00","-3.1","","-5.0","","87","","","","32","","43","","","","96.91","","","","-12","","NA"
"-97.56","49.03","GRETNA (AUT)","5021220","2012-02-21 12:00","2012","02","21","12:00","-2.7","","-5.0","","84","","","","32","","43","","","","96.90","","","","-11","","NA"
"-97.56","49.03","GRETNA (AUT)","5021220","2012-02-21 13:00","2012","02","21","13:00","-2.6","","-4.8","","85","","","","33","","41","","","","96.87","","","","-11","","NA"
"-97.56","49.03","GRETNA (AUT)","5021220","2012-02-21 14:00","2012","02","21","14:00","-2.8","","-5.0","","85","","","","32","","44","","","","96.89","","","","-11","","NA"
"-97.56","49.03","GRETNA (AUT)","5021220","2012-02-21 15:00","2012","02","21","15:00","-2.9","","-5.1","","85","","","","32","","43","","","","96.91","","","","-12","","NA"
"-97.56","49.03","GRETNA (AUT)","5021220","2012-02-21 16:00","2012","02","21","16:00","-2.7","","-5.5","","81","","","","33","","35","","","","96.94","","","","-11","","NA"
"-97.56","49.03","GRETNA (AUT)","5021220","2012-02-21 17:00","2012","02","21","17:00","-2.7","","-5.6","","80","","","","32","","41","","","","96.96","","","","-11","","NA"
"-97.56","49.03","GRETNA (AUT)","5021220","2012-02-21 18:00","2012","02","21","18:00","-2.9","","-6.0","","79","","","","33","","32","","","","96.97","","","","-10","","NA"
"-97.56","49.03","GRETNA (AUT)","5021220","2012-02-21 19:00","2012","02","21","19:00","-3.2","","-6.1","","80","","","","32","","24","","","","97.00","","","","-10","","NA"
"-97.56","49.03","GRETNA (AUT)","5021220","2012-02-21 20:00","2012","02","21","20:00","-3.3","","-6.3","","80","","","","32","","24","","","","97.01","","","","-10","","NA"
"-97.56","49.03","GRETNA (AUT)","5021220","2012-02-21 21:00","2012","02","21","21:00","-3.5","","-6.5","","80","","","","32","","22","","","","97.04","","","","-10","","NA"
"-97.56","49.03","GRETNA (AUT)","5021220","2012-02-21 22:00","2012","02","21","22:00","-3.6","","-6.8","","78","","","","33","","22","","","","97.02","","","","-10","","NA"
"-97.56","49.03","GRETNA (AUT)","5021220","2012-02-21 23:00","2012","02","21","23:00","-4.2","","-6.9","","81","","","","32","","15","","","","96.98","","","","-10","","NA"
"-97.56","49.03","GRETNA (AUT)","5021220","2012-02-22 00:00","2012","02","22","00:00","-8.2","","-10.3","","85","","","","31","","11","","","","96.94","","","","-13","","NA"
"-97.56","49.03","GRETNA (AUT)","5021220","2012-02-22 01:00","2012","02","22","01:00","-10.6","","-12.4","","87","","","","30","","13","","","","96.92","","","","-17","","NA"
"-97.56","49.03","GRETNA (AUT)","5021220","2012-02-22 02:00","2012","02","22","02:00","-8.0","","-9.6","","88","","","","31","","13","","","","96.88","","","","-14","","NA"
"-97.56","49.03","GRETNA (AUT)","5021220","2012-02-22 03:00","2012","02","22","03:00","-5.7","","-7.8","","85","","","","30","","11","","","","96.86","","","","-10","","NA"
"-97.56","49.03","GRETNA (AUT)","5021220","2012-02-22 04:00","2012","02","22","04:00","-5.7","","-7.6","","86","","","","27","","6","","","","96.84","","","","-9","","NA"
"-97.56","49.03","GRETNA (AUT)","5021220","2012-02-22 05:00","2012","02","22","05:00","-5.5","","-7.9","","83","","","","33","","4","","","","96.81","","","","-7","","NA"
"-97.56","49.03","GRETNA (AUT)","5021220","2012-02-22 06:00","2012","02","22","06:00","-6.1","","-8.0","","86","","","","7","","2","","","","96.80","","","","-7","","NA"
"-97.56","49.03","GRETNA (AUT)","5021220","2012-02-22 07:00","2012","02","22","07:00","-5.9","","-8.2","","84","","","","28","","6","","","","96.79","","","","-9","","NA"
"-97.56","49.03","GRETNA (AUT)","5021220","2012-02-22 08:00","2012","02","22","08:00","-6.2","","-8.4","","84","","","","27","","11","","","","96.82","","","","-11","","NA"
"-97.56","49.03","GRETNA (AUT)","5021220","2012-02-22 09:00","2012","02","22","09:00","-6.3","","-7.8","","89","","","","28","","6","","","","96.82","","","","-9","","NA"
"-97.56","49.03","GRETNA (AUT)","5021220","2012-02-22 10:00","2012","02","22","10:00","-5.9","","-7.8","","86","","","","25","","6","","","","96.77","","","","-9","","NA"
"-97.56","49.03","GRETNA (AUT)","5021220","2012-02-22 11:00","2012","02","22","11:00","-4.6","","-7.1","","83","","","","30","","4","","","","96.74","","","","-6","","NA"
"-97.56","49.03","GRETNA (AUT)","5021220","2012-02-22 12:00","2012","02","22","12:00","-3.6","","-7.1","","77","","","","32","","2","","","","96.71","","","","-4","","NA"
"-97.56","49.03","GRETNA (AUT)","5021220","2012-02-22 13:00","2012","02","22","13:00","-2.3","","-7.3","","69","","","","22","","2","","","","96.66","","","","-3","","NA"
"-97.56","49.03","GRETNA (AUT)","5021220","2012-02-22 14:00","2012","02","22","14:00","-2.6","","-6.6","","74","","","","15","","6","","","","96.63","","","","-5","","NA"
"-97.56","49.03","GRETNA (AUT)","5021220","2012-02-22 15:00","2012","02","22","15:00","-2.8","","-6.6","","75","","","","16","","11","","","","96.60","","","","-7","","NA"
"-97.56","49.03","GRETNA (AUT)","5021220","2012-02-22 16:00","2012","02","22","16:00","-2.8","","-6.4","","76","","","","17","","17","","","","96.55","","","","-8","","NA"
"-97.56","49.03","GRETNA (AUT)","5021220","2012-02-22 17:00","2012","02","22","17:00","-3.4","","-6.2","","81","","","","17","","19","","","","96.55","","","","-9","","NA"
"-97.56","49.03","GRETNA (AUT)","5021220","2012-02-22 18:00","2012","02","22","18:00","-4.2","","-6.2","","86","","","","16","","15","","","","96.55","","","","-10","","NA"
"-97.56","49.03","GRETNA (AUT)","5021220","2012-02-22 19:00","2012","02","22","19:00","-4.5","","-6.3","","87","","","","17","","11","","","","96.59","","","","-9","","NA"
"-97.56","49.03","GRETNA (AUT)","5021220","2012-02-22 20:00","2012","02","22","20:00","-5.6","","-7.5","","86","","","","19","","17","","","","96.60","","","","-12","","NA"
"-97.56","49.03","GRETNA (AUT)","5021220","2012-02-22 21:00","2012","02","22","21:00","-5.0","","-6.8","","87","","","","18","","13","","","","96.63","","","","-10","","NA"
"-97.56","49.03","GRETNA (AUT)","5021220","2012-02-22 22:00","2012","02","22","22:00","-5.2","","-6.9","","88","","","","19","","17","","","","96.67","","","","-11","","NA"
"-97.56","49.03","GRETNA (AUT)","5021220","2012-02-22 23:00","2012","02","22","23:00","-5.8","","-7.2","","90","","","","16","","17","","","","96.64","","","","-12","","NA"
"-97.56","49.03","GRETNA (AUT)","5021220","2012-02-23 00:00","2012","02","23","00:00","-5.6","","-7.0","","90","","","","17","","19","","","","96.68","","","","-12","","NA"
"-97.56","49.03","GRETNA (AUT)","5021220","2012-02-23 01:00","2012","02","23","01:00","-5.8","","-7.1","","91","","","","17","","17","","","","96.72","","","","-12","","NA"
"-97.56","49.03","GRETNA (AUT)","5021220","2012-02-23 02:00","2012","02","23","02:00","-6.0","","-7.0","","93","","","","17","","15","","","","96.77","","","","-12","","NA"
"-97.56","49.03","GRETNA (AUT)","5021220","2012-02-23 03:00","2012","02","23","03:00","-6.1","","-7.1","","93","","","","18","","19","","","","96.77","","","","-13","","NA"
"-97.56","49.03","GRETNA (AUT)","5021220","2012-02-23 04:00","2012","02","23","04:00","-6.3","","-7.3","","93","","","","19","","19","","","","96.84","","","","-13","","NA"
"-97.56","49.03","GRETNA (AUT)","5021220","2012-02-23 05:00","2012","02","23","05:00","-6.1","","-7.2","","92","","","","18","","22","","","","96.84","","","","-13","","NA"
"-97.56","49.03","GRETNA (AUT)","5021220","2012-02-23 06:00","2012","02","23","06:00","-5.8","","-7.1","","91","","","","19","","24","","","","96.83","","","","-13","","NA"
"-97.56","49.03","GRETNA (AUT)","5021220","2012-02-23 07:00","2012","02","23","07:00","-5.7","","-7.2","","89","","","","19","","22","","","","96.89","","","","-13","","NA"
"-97.56","49.03","GRETNA (AUT)","5021220","2012-02-23 08:00","2012","02","23","08:00","-5.6","","-7.2","","88","","","","19","","17","","","","96.92","","","","-12","","NA"
"-97.56","49.03","GRETNA (AUT)","5021220","2012-02-23 09:00","2012","02","23","09:00","-5.2","","-6.9","","88","","","","20","","15","","","","96.99","","","","-11","","NA"
"-97.56","49.03","GRETNA (AUT)","5021220","2012-02-23 10:00","2012","02","23","10:00","-4.0","","-5.8","","87","","","","19","","9","","","","97.04","","","","-8","","NA"
"-97.56","49.03","GRETNA (AUT)","5021220","2012-02-23 11:00","2012","02","23","11:00","-3.2","","-5.1","","87","","","","17","","11","","","","97.09","","","","-7","","NA"
"-97.56","49.03","GRETNA (AUT)","5021220","2012-02-23 12:00","2012","02","23","12:00","-2.7","","-4.1","","90","","","","20","","7","","","","97.15","","","","-6","","NA"
"-97.56","49.03","GRETNA (AUT)","5021220","2012-02-23 13:00","2012","02","23","13:00","-0.8","","-3.6","","81","","","","30","","17","","","","97.17","","","","-6","","NA"
"-97.56","49.03","GRETNA (AUT)","5021220","2012-02-23 14:00","2012","02","23","14:00","-0.4","","-3.6","","79","","","","31","","26","","","","97.25","","","","-7","","NA"
"-97.56","49.03","GRETNA (AUT)","5021220","2012-02-23 15:00","2012","02","23","15:00","-2.6","","-4.5","","87","","","","35","","30","","","","97.33","","","","-10","","NA"
"-97.56","49.03","GRETNA (AUT)","5021220","2012-02-23 16:00","2012","02","23","16:00","-4.3","","-6.6","","84","","","","35","","30","","","","97.44","","","","-12","","NA"
"-97.56","49.03","GRETNA (AUT)","5021220","2012-02-23 17:00","2012","02","23","17:00","-4.9","","-7.1","","85","","","","35","","26","","","","97.53","","","","-12","","NA"
"-97.56","49.03","GRETNA (AUT)","5021220","2012-02-23 18:00","2012","02","23","18:00","-5.3","","-7.9","","82","","","","35","","20","","","","97.62","","","","-12","","NA"
"-97.56","49.03","GRETNA (AUT)","5021220","2012-02-23 19:00","2012","02","23","19:00","-5.9","","-8.1","","84","","","","33","","15","","","","97.74","","","","-12","","NA"
"-97.56","49.03","GRETNA (AUT)","5021220","2012-02-23 20:00","2012","02","23","20:00","-7.8","","-9.3","","89","","","","31","","13","","","","97.79","","","","-14","","NA"
"-97.56","49.03","GRETNA (AUT)","5021220","2012-02-23 21:00","2012","02","23","21:00","-9.8","","-12.1","","83","","","","36","","15","","","","97.86","","","","-16","","NA"
"-97.56","49.03","GRETNA (AUT)","5021220","2012-02-23 22:00","2012","02","23","22:00","-10.0","","-12.5","","82","","","","34","","13","","","","97.92","","","","-16","","NA"
"-97.56","49.03","GRETNA (AUT)","5021220","2012-02-23 23:00","2012","02","23","23:00","-10.1","","-12.2","","85","","","","30","","11","","","","97.94","","","","-16","","NA"
"-97.56","49.03","GRETNA (AUT)","5021220","2012-02-24 00:00","2012","02","24","00:00","-8.9","","-12.4","","76","","","","33","","20","","","","97.96","","","","-16","","NA"
"-97.56","49.03","GRETNA (AUT)","5021220","2012-02-24 01:00","2012","02","24","01:00","-10.3","","-13.2","","79","","","","32","","20","","","","98.00","","","","-18","","NA"
"-97.56","49.03","GRETNA (AUT)","5021220","2012-02-24 02:00","2012","02","24","02:00","-13.5","","-16.0","","81","","","","31","","19","","","","98.01","","","","-22","","NA"
"-97.56","49.03","GRETNA (AUT)","5021220","2012-02-24 03:00","2012","02","24","03:00","-11.2","","-13.8","","81","","","","32","","22","","","","98.01","","","","-20","","NA"
"-97.56","49.03","GRETNA (AUT)","5021220","2012-02-24 04:00","2012","02","24","04:00","-12.3","","-15.4","","78","","","","32","","24","","","","98.05","","","","-22","","NA"
"-97.56","49.03","GRETNA (AUT)","5021220","2012-02-24 05:00","2012","02","24","05:00","-14.4","","-17.3","","79","","","","32","","20","","","","98.14","","","","-23","","NA"
"-97.56","49.03","GRETNA (AUT)","5021220","2012-02-24 06:00","2012","02","24","06:00","-14.2","","-16.7","","81","","","","31","","24","","","","98.17","","","","-24","","NA"
"-97.56","49.03","GRETNA (AUT)","5021220","2012-02-24 07:00","2012","02","24","07:00","-13.3","","-16.0","","80","","","","32","","32","","","","98.21","","","","-24","","NA"
"-97.56","49.03","GRETNA (AUT)","5021220","2012-02-24 08:00","2012","02","24","08:00","-13.3","","-16.0","","80","","","","31","","32","","","","98.27","","","","-24","","NA"
"-97.56","49.03","GRETNA (AUT)","5021220","2012-02-24 09:00","2012","02","24","09:00","-12.7","","-15.1","","82","","","","31","","35","","","","98.32","","","","-24","","NA"
"-97.56","49.03","GRETNA (AUT)","5021220","2012-02-24 10:00","2012","02","24","10:00","-12.1","","-14.7","","81","","","","32","","35","","","","98.36","","","","-23","","NA"
"-97.56","49.03","GRETNA (AUT)","5021220","2012-02-24 11:00","2012","02","24","11:00","-11.4","","-13.9","","82","","","","32","","39","","","","98.40","","","","-23","","NA"
"-97.56","49.03","GRETNA (AUT)","5021220","2012-02-24 12:00","2012","02","24","12:00","-10.8","","-13.0","","84","","","","32","","39","","","","98.45","","","","-22","","NA"
"-97.56","49.03","GRETNA (AUT)","5021220","2012-02-24 13:00","2012","02","24","13:00","-10.0","","-11.6","","88","","","","33","","37","","","","98.51","","","","-20","","NA"
"-97.56","49.03","GRETNA (AUT)","5021220","2012-02-24 14:00","2012","02","24","14:00","-9.8","","-11.4","","88","","","","33","","37","","","","98.56","","","","-20","","NA"
"-97.56","49.03","GRETNA (AUT)","5021220","2012-02-24 15:00","2012","02","24","15:00","-9.9","","-11.4","","89","","","","33","","41","","","","98.66","","","","-21","","NA"
"-97.56","49.03","GRETNA (AUT)","5021220","2012-02-24 16:00","2012","02","24","16:00","-9.7","","-11.5","","87","","","","33","","33","","","","98.74","","","","-20","","NA"
"-97.56","49.03","GRETNA (AUT)","5021220","2012-02-24 17:00","2012","02","24","17:00","-10.4","","-13.1","","81","","","","34","","32","","","","98.84","","","","-20","","NA"
"-97.56","49.03","GRETNA (AUT)","5021220","2012-02-24 18:00","2012","02","24","18:00","-11.3","","-14.3","","78","","","","34","","26","","","","98.93","","","","-21","","NA"
"-97.56","49.03","GRETNA (AUT)","5021220","2012-02-24 19:00","2012","02","24","19:00","-11.4","","-14.9","","75","","","","34","","30","","","","98.97","","","","-21","","NA"
"-97.56","49.03","GRETNA (AUT)","5021220","2012-02-24 20:00","2012","02","24","20:00","-11.6","","-15.4","","73","","","","34","","28","","","","99.02","","","","-21","","NA"
"-97.56","49.03","GRETNA (AUT)","5021220","2012-02-24 21:00","2012","02","24","21:00","-14.3","","-17.1","","79","","","","32","","19","","","","99.09","","","","-23","","NA"
"-97.56","49.03","GRETNA (AUT)","5021220","2012-02-24 22:00","2012","02","24","22:00","-14.8","","-17.5","","80","","","","31","","19","","","","99.14","","","","-24","","NA"
"-97.56","49.03","GRETNA (AUT)","5021220","2012-02-24 23:00","2012","02","24","23:00","-14.5","","-17.1","","81","","","","32","","19","","","","99.18","","","","-23","","NA"
"-97.56","49.03","GRETNA (AUT)","5021220","2012-02-25 00:00","2012","02","25","00:00","-15.8","","-18.4","","80","","","","31","","19","","","","99.18","","","","-25","","NA"
"-97.56","49.03","GRETNA (AUT)","5021220","2012-02-25 01:00","2012","02","25","01:00","-17.8","","-20.2","","81","","","","33","","13","","","","99.21","","","","-26","","NA"
"-97.56","49.03","GRETNA (AUT)","5021220","2012-02-25 02:00","2012","02","25","02:00","-18.1","","-20.7","","80","","","","32","","13","","","","99.25","","","","-26","","NA"
"-97.56","49.03","GRETNA (AUT)","5021220","2012-02-25 03:00","2012","02","25","03:00","-17.9","","-20.1","","83","","","","30","","13","","","","99.24","","","","-26","","NA"
"-97.56","49.03","GRETNA (AUT)","5021220","2012-02-25 04:00","2012","02","25","04:00","-18.1","","-20.0","","85","","","","30","","9","","","","99.24","","","","-24","","NA"
"-97.56","49.03","GRETNA (AUT)","5021220","2012-02-25 05:00","2012","02","25","05:00","-18.8","","-20.9","","83","","","","27","","9","","","","99.24","","","","-25","","NA"
"-97.56","49.03","GRETNA (AUT)","5021220","2012-02-25 06:00","2012","02","25","06:00","-20.1","","-22.3","","83","","","","31","","4","","","","99.23","","","","-24","","NA"
"-97.56","49.03","GRETNA (AUT)","5021220","2012-02-25 07:00","2012","02","25","07:00","-19.7","","-21.7","","84","","","","25","","4","","","","99.21","","","","-23","","NA"
"-97.56","49.03","GRETNA (AUT)","5021220","2012-02-25 08:00","2012","02","25","08:00","-19.8","","-22.2","","81","","","","23","","6","","","","99.22","","","","-25","","NA"
"-97.56","49.03","GRETNA (AUT)","5021220","2012-02-25 09:00","2012","02","25","09:00","-17.7","","-19.8","","84","","","","14","","6","","","","99.26","","","","-22","","NA"
"-97.56","49.03","GRETNA (AUT)","5021220","2012-02-25 10:00","2012","02","25","10:00","-14.2","","-16.7","","81","","","","16","","9","","","","99.29","","","","-20","","NA"
"-97.56","49.03","GRETNA (AUT)","5021220","2012-02-25 11:00","2012","02","25","11:00","-12.8","","-15.8","","78","","","","15","","11","","","","99.23","","","","-19","","NA"
"-97.56","49.03","GRETNA (AUT)","5021220","2012-02-25 12:00","2012","02","25","12:00","-12.0","","-15.2","","77","","","","15","","13","","","","99.19","","","","-19","","NA"
"-97.56","49.03","GRETNA (AUT)","5021220","2012-02-25 13:00","2012","02","25","13:00","-11.2","","-14.4","","77","","","","15","","13","","","","99.11","","","","-18","","NA"
"-97.56","49.03","GRETNA (AUT)","5021220","2012-02-25 14:00","2012","02","25","14:00","-10.9","","-14.9","","72","","","","14","","15","","","","99.01","","","","-18","","NA"
"-97.56","49.03","GRETNA (AUT)","5021220","2012-02-25 15:00","2012","02","25","15:00","-10.9","","-15.9","","67","","","","14","","15","","","","98.98","","","","-18","","NA"
"-97.56","49.03","GRETNA (AUT)","5021220","2012-02-25 16:00","2012","02","25","16:00","-11.1","","-15.2","","72","","","","14","","11","","","","98.96","","","","-17","","NA"
"-97.56","49.03","GRETNA (AUT)","5021220","2012-02-25 17:00","2012","02","25","17:00","-11.1","","-15.0","","73","","","","11","","9","","","","98.90","","","","-16","","NA"
"-97.56","49.03","GRETNA (AUT)","5021220","2012-02-25 18:00","2012","02","25","18:00","-11.5","","-14.6","","78","","","","8","","9","","","","98.87","","","","-17","","NA"
"-97.56","49.03","GRETNA (AUT)","5021220","2012-02-25 19:00","2012","02","25","19:00","-11.5","","-14.3","","80","","","","6","","11","","","","98.83","","","","-17","","NA"
"-97.56","49.03","GRETNA (AUT)","5021220","2012-02-25 20:00","2012","02","25","20:00","-11.0","","-13.8","","80","","","","5","","7","","","","98.86","","","","-15","","NA"
"-97.56","49.03","GRETNA (AUT)","5021220","2012-02-25 21:00","2012","02","25","21:00","-10.1","","-13.4","","77","","","","8","","17","","","","98.83","","","","-17","","NA"
"-97.56","49.03","GRETNA (AUT)","5021220","2012-02-25 22:00","2012","02","25","22:00","-9.4","","-12.8","","76","","","","9","","22","","","","98.79","","","","-17","","NA"
"-97.56","49.03","GRETNA (AUT)","5021220","2012-02-25 23:00","2012","02","25","23:00","-9.3","","-12.8","","76","","","","8","","26","","","","98.71","","","","-18","","NA"
"-97.56","49.03","GRETNA (AUT)","5021220","2012-02-26 00:00","2012","02","26","00:00","-9.6","","-12.5","","79","","","","8","","26","","","","98.66","","","","-18","","NA"
"-97.56","49.03","GRETNA (AUT)","5021220","2012-02-26 01:00","2012","02","26","01:00","-9.4","","-12.0","","81","","","","8","","26","","","","98.55","","","","-18","","NA"
"-97.56","49.03","GRETNA (AUT)","5021220","2012-02-26 02:00","2012","02","26","02:00","-9.4","","-11.0","","88","","","","8","","26","","","","98.48","","","","-18","","NA"
"-97.56","49.03","GRETNA (AUT)","5021220","2012-02-26 03:00","2012","02","26","03:00","-9.0","","-10.4","","90","","","","8","","28","","","","98.39","","","","-18","","NA"
"-97.56","49.03","GRETNA (AUT)","5021220","2012-02-26 04:00","2012","02","26","04:00","-9.1","","-10.6","","89","","","","7","","24","","","","98.30","","","","-17","","NA"
"-97.56","49.03","GRETNA (AUT)","5021220","2012-02-26 05:00","2012","02","26","05:00","-8.9","","-10.4","","89","","","","7","","26","","","","98.26","","","","-18","","NA"
"-97.56","49.03","GRETNA (AUT)","5021220","2012-02-26 06:00","2012","02","26","06:00","-8.7","","-10.1","","90","","","","6","","26","","","","98.25","","","","-17","","NA"
"-97.56","49.03","GRETNA (AUT)","5021220","2012-02-26 07:00","2012","02","26","07:00","-9.1","","-10.7","","88","","","","5","","26","","","","98.23","","","","-18","","NA"
"-97.56","49.03","GRETNA (AUT)","5021220","2012-02-26 08:00","2012","02","26","08:00","-9.7","","-11.1","","89","","","","5","","33","","","","98.26","","","","-20","","NA"
"-97.56","49.03","GRETNA (AUT)","5021220","2012-02-26 09:00","2012","02","26","09:00","-9.7","","-11.0","","90","","","","4","","32","","","","98.27","","","","-19","","NA"
"-97.56","49.03","GRETNA (AUT)","5021220","2012-02-26 10:00","2012","02","26","10:00","-9.5","","-10.9","","90","","","","4","","33","","","","98.28","","","","-19","","NA"
"-97.56","49.03","GRETNA (AUT)","5021220","2012-02-26 11:00","2012","02","26","11:00","-9.3","","-10.7","","90","","","","3","","35","","","","98.31","","","","-19","","NA"
"-97.56","49.03","GRETNA (AUT)","5021220","2012-02-26 12:00","2012","02","26","12:00","-9.3","","-10.7","","90","","","","3","","37","","","","98.35","","","","-19","","NA"
"-97.56","49.03","GRETNA (AUT)","5021220","2012-02-26 13:00","2012","02","26","13:00","-9.3","","-10.7","","90","","","","2","","35","","","","98.36","","","","-19","","NA"
"-97.56","49.03","GRETNA (AUT)","5021220","2012-02-26 14:00","2012","02","26","14:00","-9.5","","-11.0","","89","","","","1","","37","","","","98.41","","","","-20","","NA"
"-97.56","49.03","GRETNA (AUT)","5021220","2012-02-26 15:00","2012","02","26","15:00","-9.3","","-10.8","","89","","","","36","","33","","","","98.50","","","","-19","","NA"
"-97.56","49.03","GRETNA (AUT)","5021220","2012-02-26 16:00","2012","02","26","16:00","-9.7","","-11.2","","89","","","","36","","37","","","","98.59","","","","-20","","NA"
"-97.56","49.03","GRETNA (AUT)","5021220","2012-02-26 17:00","2012","02","26","17:00","-10.0","","-11.4","","89","","","","35","","41","","","","98.68","","","","-21","","NA"
"-97.56","49.03","GRETNA (AUT)","5021220","2012-02-26 18:00","2012","02","26","18:00","-9.8","","-11.2","","89","","","","35","","44","","","","98.79","","","","-21","","NA"
"-97.56","49.03","GRETNA (AUT)","5021220","2012-02-26 19:00","2012","02","26","19:00","-9.9","","-11.3","","89","","","","35","","39","","","","98.93","","","","-21","","NA"
"-97.56","49.03","GRETNA (AUT)","5021220","2012-02-26 20:00","2012","02","26","20:00","-10.1","","-11.8","","87","","","","35","","37","","","","99.04","","","","-21","","NA"
"-97.56","49.03","GRETNA (AUT)","5021220","2012-02-26 21:00","2012","02","26","21:00","-10.5","","-12.4","","86","","","","35","","41","","","","99.12","","","","-22","","NA"
"-97.56","49.03","GRETNA (AUT)","5021220","2012-02-26 22:00","2012","02","26","22:00","-11.5","","-13.5","","85","","","","34","","37","","","","99.22","","","","-22","","NA"
"-97.56","49.03","GRETNA (AUT)","5021220","2012-02-26 23:00","2012","02","26","23:00","-13.0","","-15.1","","84","","","","34","","39","","","","99.34","","","","-25","","NA"
"-97.56","49.03","GRETNA (AUT)","5021220","2012-02-27 00:00","2012","02","27","00:00","-14.3","","-16.9","","81","","","","34","","28","","","","99.38","","","","-25","","NA"
"-97.56","49.03","GRETNA (AUT)","5021220","2012-02-27 01:00","2012","02","27","01:00","-14.8","","-17.3","","81","","","","33","","30","","","","99.48","","","","-26","","NA"
"-97.56","49.03","GRETNA (AUT)","5021220","2012-02-27 02:00","2012","02","27","02:00","-16.0","","-18.7","","80","","","","32","","24","","","","99.55","","","","-26","","NA"
"-97.56","49.03","GRETNA (AUT)","5021220","2012-02-27 03:00","2012","02","27","03:00","-17.4","","-20.1","","79","","","","31","","22","","","","99.65","","","","-28","","NA"
"-97.56","49.03","GRETNA (AUT)","5021220","2012-02-27 04:00","2012","02","27","04:00","-17.9","","-21.1","","76","","","","32","","24","","","","99.69","","","","-29","","NA"
"-97.56","49.03","GRETNA (AUT)","5021220","2012-02-27 05:00","2012","02","27","05:00","-17.9","","-21.5","","73","","","","33","","24","","","","99.75","","","","-29","","NA"
"-97.56","49.03","GRETNA (AUT)","5021220","2012-02-27 06:00","2012","02","27","06:00","-19.8","","-23.3","","74","","","","32","","20","","","","99.82","","","","-30","","NA"
"-97.56","49.03","GRETNA (AUT)","5021220","2012-02-27 07:00","2012","02","27","07:00","-22.0","","-25.0","","77","","","","30","","17","","","","99.85","","","","-32","","NA"
"-97.56","49.03","GRETNA (AUT)","5021220","2012-02-27 08:00","2012","02","27","08:00","-22.5","","-25.7","","75","","","","30","","11","","","","99.90","","","","-31","","NA"
"-97.56","49.03","GRETNA (AUT)","5021220","2012-02-27 09:00","2012","02","27","09:00","-21.9","","-25.2","","75","","","","31","","11","","","","99.92","","","","-30","","NA"
"-97.56","49.03","GRETNA (AUT)","5021220","2012-02-27 10:00","2012","02","27","10:00","-19.0","","-22.7","","73","","","","29","","11","","","","100.01","","","","-26","","NA"
"-97.56","49.03","GRETNA (AUT)","5021220","2012-02-27 11:00","2012","02","27","11:00","-17.2","","-21.7","","68","","","","33","","13","","","","99.96","","","","-25","","NA"
"-97.56","49.03","GRETNA (AUT)","5021220","2012-02-27 12:00","2012","02","27","12:00","-16.0","","-21.3","","64","","","","29","","6","","","","99.96","","","","-20","","NA"
"-97.56","49.03","GRETNA (AUT)","5021220","2012-02-27 13:00","2012","02","27","13:00","-13.9","","-19.7","","61","","","","26","","4","","","","99.92","","","","-17","","NA"
"-97.56","49.03","GRETNA (AUT)","5021220","2012-02-27 14:00","2012","02","27","14:00","-13.0","","-19.5","","58","","","","24","","6","","","","99.87","","","","-17","","NA"
"-97.56","49.03","GRETNA (AUT)","5021220","2012-02-27 15:00","2012","02","27","15:00","-13.2","","-18.9","","62","","","","15","","9","","","","99.79","","","","-19","","NA"
"-97.56","49.03","GRETNA (AUT)","5021220","2012-02-27 16:00","2012","02","27","16:00","-14.0","","-18.8","","67","","","","15","","17","","","","99.76","","","","-22","","NA"
"-97.56","49.03","GRETNA (AUT)","5021220","2012-02-27 17:00","2012","02","27","17:00","-14.0","","-17.8","","73","","","","16","","20","","","","99.72","","","","-23","","NA"
"-97.56","49.03","GRETNA (AUT)","5021220","2012-02-27 18:00","2012","02","27","18:00","-14.4","","-18.2","","73","","","","17","","20","","","","99.68","","","","-23","","NA"
"-97.56","49.03","GRETNA (AUT)","5021220","2012-02-27 19:00","2012","02","27","19:00","-15.0","","-18.4","","75","","","","15","","13","","","","99.61","","","","-22","","NA"
"-97.56","49.03","GRETNA (AUT)","5021220","2012-02-27 20:00","2012","02","27","20:00","-14.5","","-17.9","","75","","","","17","","19","","","","99.56","","","","-23","","NA"
"-97.56","49.03","GRETNA (AUT)","5021220","2012-02-27 21:00","2012","02","27","21:00","-14.6","","-17.7","","77","","","","16","","19","","","","99.52","","","","-23","","NA"
"-97.56","49.03","GRETNA (AUT)","5021220","2012-02-27 22:00","2012","02","27","22:00","-14.4","","-17.4","","78","","","","17","","17","","","","99.51","","","","-23","","NA"
"-97.56","49.03","GRETNA (AUT)","5021220","2012-02-27 23:00","2012","02","27","23:00","-14.6","","-17.4","","79","","","","18","","22","","","","99.48","","","","-24","","NA"
"-97.56","49.03","GRETNA (AUT)","5021220","2012-02-28 00:00","2012","02","28","00:00","-15.5","","-17.9","","82","","","","15","","17","","","","99.38","","","","-24","","NA"
"-97.56","49.03","GRETNA (AUT)","5021220","2012-02-28 01:00","2012","02","28","01:00","-14.7","","-17.0","","83","","","","16","","19","","","","99.36","","","","-24","","NA"
"-97.56","49.03","GRETNA (AUT)","5021220","2012-02-28 02:00","2012","02","28","02:00","-15.3","","-17.5","","83","","","","16","","17","","","","99.32","","","","-24","","NA"
"-97.56","49.03","GRETNA (AUT)","5021220","2012-02-28 03:00","2012","02","28","03:00","-17.9","","-20.0","","84","","","","15","","9","","","","99.29","","","","-24","","NA"
"-97.56","49.03","GRETNA (AUT)","5021220","2012-02-28 04:00","2012","02","28","04:00","-18.8","","-20.8","","84","","","","15","","9","","","","99.20","","","","-25","","NA"
"-97.56","49.03","GRETNA (AUT)","5021220","2012-02-28 05:00","2012","02","28","05:00","-17.6","","-19.7","","84","","","","16","","17","","","","99.15","","","","-27","","NA"
"-97.56","49.03","GRETNA (AUT)","5021220","2012-02-28 06:00","2012","02","28","06:00","-17.4","","-19.3","","85","","","","16","","15","","","","99.10","","","","-26","","NA"
"-97.56","49.03","GRETNA (AUT)","5021220","2012-02-28 07:00","2012","02","28","07:00","-16.9","","-18.7","","86","","","","16","","7","","","","99.10","","","","-22","","NA"
"-97.56","49.03","GRETNA (AUT)","5021220","2012-02-28 08:00","2012","02","28","08:00","-21.5","","-24.0","","80","","","","29","","6","","","","99.06","","","","-27","","NA"
"-97.56","49.03","GRETNA (AUT)","5021220","2012-02-28 09:00","2012","02","28","09:00","-18.9","","-21.2","","82","","","","27","","6","","","","99.02","","","","-24","","NA"
"-97.56","49.03","GRETNA (AUT)","5021220","2012-02-28 10:00","2012","02","28","10:00","-16.8","","-19.1","","82","","","","35","","4","","","","98.99","","","","-20","","NA"
"-97.56","49.03","GRETNA (AUT)","5021220","2012-02-28 11:00","2012","02","28","11:00","-14.0","","-16.7","","80","","","","34","","4","","","","98.94","","","","-17","","NA"
"-97.56","49.03","GRETNA (AUT)","5021220","2012-02-28 12:00","2012","02","28","12:00","-12.0","","-15.2","","77","","","","2","","6","","","","98.86","","","","-16","","NA"
"-97.56","49.03","GRETNA (AUT)","5021220","2012-02-28 13:00","2012","02","28","13:00","-10.8","","-14.2","","76","","","","4","","6","","","","98.82","","","","-14","","NA"
"-97.56","49.03","GRETNA (AUT)","5021220","2012-02-28 14:00","2012","02","28","14:00","-9.5","","-12.7","","77","","","","1","","9","","","","98.77","","","","-14","","NA"
"-97.56","49.03","GRETNA (AUT)","5021220","2012-02-28 15:00","2012","02","28","15:00","-8.7","","-11.7","","79","","","","2","","11","","","","98.73","","","","-14","","NA"
"-97.56","49.03","GRETNA (AUT)","5021220","2012-02-28 16:00","2012","02","28","16:00","-8.1","","-11.0","","80","","","","1","","13","","","","98.66","","","","-14","","NA"
"-97.56","49.03","GRETNA (AUT)","5021220","2012-02-28 17:00","2012","02","28","17:00","-8.3","","-11.0","","81","","","","1","","15","","","","98.57","","","","-15","","NA"
"-97.56","49.03","GRETNA (AUT)","5021220","2012-02-28 18:00","2012","02","28","18:00","-9.9","","-11.8","","86","","","","35","","7","","","","98.61","","","","-14","","NA"
"-97.56","49.03","GRETNA (AUT)","5021220","2012-02-28 19:00","2012","02","28","19:00","-13.6","","-15.0","","89","","","","35","","13","","","","98.62","","","","-21","","NA"
"-97.56","49.03","GRETNA (AUT)","5021220","2012-02-28 20:00","2012","02","28","20:00","-12.5","","-13.9","","89","","","","36","","19","","","","98.54","","","","-21","","NA"
"-97.56","49.03","GRETNA (AUT)","5021220","2012-02-28 21:00","2012","02","28","21:00","-12.2","","-13.9","","87","","","","36","","19","","","","98.45","","","","-20","","NA"
"-97.56","49.03","GRETNA (AUT)","5021220","2012-02-28 22:00","2012","02","28","22:00","-12.3","","-14.4","","84","","","","36","","15","","","","98.44","","","","-20","","NA"
"-97.56","49.03","GRETNA (AUT)","5021220","2012-02-28 23:00","2012","02","28","23:00","-13.5","","-15.4","","86","","","","35","","9","","","","98.36","","","","-19","","NA"
"-97.56","49.03","GRETNA (AUT)","5021220","2012-02-29 00:00","2012","02","29","00:00","-12.7","","-14.4","","87","","","","2","","19","","","","98.25","","","","-21","","NA"
"-97.56","49.03","GRETNA (AUT)","5021220","2012-02-29 01:00","2012","02","29","01:00","-12.6","","-14.1","","89","","","","3","","15","","","","98.18","","","","-20","","NA"
"-97.56","49.03","GRETNA (AUT)","5021220","2012-02-29 02:00","2012","02","29","02:00","-12.8","","-14.2","","89","","","","1","","15","","","","98.10","","","","-20","","NA"
"-97.56","49.03","GRETNA (AUT)","5021220","2012-02-29 03:00","2012","02","29","03:00","-11.9","","-13.4","","89","","","","36","","15","","","","98.03","","","","-19","","NA"
"-97.56","49.03","GRETNA (AUT)","5021220","2012-02-29 04:00","2012","02","29","04:00","-12.1","","-13.5","","89","","","","36","","15","","","","98.00","","","","-19","","NA"
"-97.56","49.03","GRETNA (AUT)","5021220","2012-02-29 05:00","2012","02","29","05:00","-10.6","","-11.9","","90","","","","35","","22","","","","97.97","","","","-19","","NA"
"-97.56","49.03","GRETNA (AUT)","5021220","2012-02-29 06:00","2012","02","29","06:00","-11.0","","-12.1","","92","","","","36","","20","","","","97.95","","","","-19","","NA"
"-97.56","49.03","GRETNA (AUT)","5021220","2012-02-29 07:00","2012","02","29","07:00","-9.8","","-11.0","","91","","","","35","","20","","","","97.97","","","","-18","","NA"
"-97.56","49.03","GRETNA (AUT)","5021220","2012-02-29 08:00","2012","02","29","08:00","-12.2","","-13.6","","89","","","","34","","17","","","","97.98","","","","-20","","NA"
"-97.56","49.03","GRETNA (AUT)","5021220","2012-02-29 09:00","2012","02","29","09:00","-11.8","","-13.2","","89","","","","35","","17","","","","97.96","","","","-19","","NA"
"-97.56","49.03","GRETNA (AUT)","5021220","2012-02-29 10:00","2012","02","29","10:00","-9.5","","-10.7","","91","","","","36","","19","","","","97.94","","","","-17","","NA"
"-97.56","49.03","GRETNA (AUT)","5021220","2012-02-29 11:00","2012","02","29","11:00","-8.2","","-9.5","","90","","","","1","","17","","","","97.95","","","","-15","","NA"
"-97.56","49.03","GRETNA (AUT)","5021220","2012-02-29 12:00","2012","02","29","12:00","-7.3","","-9.3","","86","","","","36","","15","","","","97.96","","","","-13","","NA"
"-97.56","49.03","GRETNA (AUT)","5021220","2012-02-29 13:00","2012","02","29","13:00","-6.4","","-8.5","","85","","","","34","","19","","","","97.88","","","","-13","","NA"
"-97.56","49.03","GRETNA (AUT)","5021220","2012-02-29 14:00","2012","02","29","14:00","-5.7","","-7.6","","86","","","","34","","20","","","","97.80","","","","-12","","NA"
"-97.56","49.03","GRETNA (AUT)","5021220","2012-02-29 15:00","2012","02","29","15:00","-5.3","","-7.4","","85","","","","34","","19","","","","97.80","","","","-12","","NA"
"-97.56","49.03","GRETNA (AUT)","5021220","2012-02-29 16:00","2012","02","29","16:00","-5.0","","-7.3","","84","","","","33","","19","","","","97.86","","","","-11","","NA"
"-97.56","49.03","GRETNA (AUT)","5021220","2012-02-29 17:00","2012","02","29","17:00","-4.6","","-7.0","","83","","","","33","","17","","","","97.90","","","","-10","","NA"
"-97.56","49.03","GRETNA (AUT)","5021220","2012-02-29 18:00","2012","02","29","18:00","-4.5","","-6.6","","85","","","","35","","13","","","","97.89","","","","-10","","NA"
"-97.56","49.03","GRETNA (AUT)","5021220","2012-02-29 19:00","2012","02","29","19:00","-4.3","","-6.4","","85","","","","35","","11","","","","97.87","","","","-9","","NA"
"-97.56","49.03","GRETNA (AUT)","5021220","2012-02-29 20:00","2012","02","29","20:00","-4.4","","-6.3","","87","","","","36","","11","","","","97.91","","","","-9","","NA"
"-97.56","49.03","GRETNA (AUT)","5021220","2012-02-29 21:00","2012","02","29","21:00","-4.4","","-6.5","","85","","","","1","","9","","","","97.88","","","","-8","","NA"
"-97.56","49.03","GRETNA (AUT)","5021220","2012-02-29 22:00","2012","02","29","22:00","-4.6","","-6.3","","88","","","","4","","6","","","","97.86","","","","-7","","NA"
"-97.56","49.03","GRETNA (AUT)","5021220","2012-02-29 23:00","2012","02","29","23:00","-4.7","","-6.3","","89","","","","33","","4","","","","97.83","","","","-6","","NA"
