"Longitude (x)","Latitude (y)","Station Name","Climate ID","Date/Time (LST)","Year","Month","Day","Time (LST)","Temp (°C)","Temp Flag","Dew Point Temp (°C)","Dew Point Temp Flag","Rel Hum (%)","Rel Hum Flag","Precip. Amount (mm)","Precip. Amount Flag","Wind Dir (10s deg)","Wind Dir Flag","Wind Spd (km/h)","Wind Spd Flag","Visibility (km)","Visibility Flag","Stn Press (kPa)","Stn Press Flag","Hmdx","Hmdx Flag","Wind Chill","Wind Chill Flag","Weather"
"-53.11","48.67","BONAVISTA","8400601","2012-02-01 00:30","2012","02","01","00:30","-9.3","","-13.2","","73","","","","30","","52","","","","100.95","","","","-21","","NA"
"-53.11","48.67","BONAVISTA","8400601","2012-02-01 01:30","2012","02","01","01:30","-9.5","","-13.0","","76","","","","29","","50","","","","101.00","","","","-21","","NA"
"-53.11","48.67","BONAVISTA","8400601","2012-02-01 02:30","2012","02","01","02:30","-9.4","","-12.8","","76","","","","29","","48","","","","101.04","","","","-21","","NA"
"-53.11","48.67","BONAVISTA","8400601","2012-02-01 03:30","2012","02","01","03:30","-9.4","","-12.8","","76","","","","29","","46","","","","101.09","","","","-21","","NA"
"-53.11","48.67","BONAVISTA","8400601","2012-02-01 04:30","2012","02","01","04:30","-9.4","","-13.0","","75","","","","30","","48","","","","101.13","","","","-21","","NA"
"-53.11","48.67","BONAVISTA","8400601","2012-02-01 05:30","2012","02","01","05:30","-9.3","","-12.8","","76","","","","29","","48","","","","101.18","","","","-21","","NA"
"-53.11","48.67","BONAVISTA","8400601","2012-02-01 06:30","2012","02","01","06:30","-9.1","","-12.4","","77","","","","30","","46","","","","101.24","","","","-20","","NA"
"-53.11","48.67","BONAVISTA","8400601","2012-02-01 07:30","2012","02","01","07:30","-9.7","","-13.2","","76","","","","29","","46","","","","101.30","","","","-21","","NA"
"-53.11","48.67","BONAVISTA","8400601","2012-02-01 08:30","2012","02","01","08:30","-9.7","","-13.3","","75","","","","28","","44","","","","101.35","","","","-21","","NA"
"-53.11","48.67","BONAVISTA","8400601","2012-02-01 09:30","2012","02","01","09:30","-9.8","","-13.5","","74","","","","28","","43","","","","101.41","","","","-21","","NA"
"-53.11","48.67","BONAVISTA","8400601","2012-02-01 10:30","2012","02","01","10:30","-9.7","","-13.9","","71","","","","29","","43","","","","101.45","","","","-21","","NA"
"-53.11","48.67","BONAVISTA","8400601","2012-02-01 11:30","2012","02","01","11:30","-9.6","","-13.9","","71","","","","29","","41","","","","101.44","","","","-20","","NA"
"-53.11","48.67","BONAVISTA","8400601","2012-02-01 12:30","2012","02","01","12:30","-9.3","","-13.6","","71","","","","28","","35","","","","101.38","","","","-19","","NA"
"-53.11","48.67","BONAVISTA","8400601","2012-02-01 13:30","2012","02","01","13:30","-8.5","","-13.8","","66","","","","28","","32","","","","101.37","","","","-18","","NA"
"-53.11","48.67","BONAVISTA","8400601","2012-02-01 14:30","2012","02","01","14:30","-8.1","","-13.6","","65","","","","28","","35","","","","101.36","","","","-18","","NA"
"-53.11","48.67","BONAVISTA","8400601","2012-02-01 15:30","2012","02","01","15:30","-6.9","","-13.5","","59","","","","26","","32","","","","101.36","","","","-16","","NA"
"-53.11","48.67","BONAVISTA","8400601","2012-02-01 16:30","2012","02","01","16:30","-6.6","","-12.1","","65","","","","26","","30","","","","101.37","","","","-15","","NA"
"-53.11","48.67","BONAVISTA","8400601","2012-02-01 17:30","2012","02","01","17:30","-6.8","","-12.1","","66","","","","25","","28","","","","101.40","","","","-15","","NA"
"-53.11","48.67","BONAVISTA","8400601","2012-02-01 18:30","2012","02","01","18:30","-6.7","","-12.2","","65","","","","27","","30","","","","101.42","","","","-15","","NA"
"-53.11","48.67","BONAVISTA","8400601","2012-02-01 19:30","2012","02","01","19:30","-6.5","","-11.0","","70","","","","27","","32","","","","101.44","","","","-15","","NA"
"-53.11","48.67","BONAVISTA","8400601","2012-02-01 20:30","2012","02","01","20:30","-6.9","","-12.4","","65","","","","28","","28","","","","101.39","","","","-15","","NA"
"-53.11","48.67","BONAVISTA","8400601","2012-02-01 21:30","2012","02","01","21:30","-7.0","","-11.8","","69","","","","28","","24","","","","101.33","","","","-15","","NA"
"-53.11","48.67","BONAVISTA","8400601","2012-02-01 22:30","2012","02","01","22:30","-7.5","","-12.6","","67","","","","29","","17","","","","101.29","","","","-14","","NA"
"-53.11","48.67","BONAVISTA","8400601","2012-02-01 23:30","2012","02","01","23:30","-10.2","","-13.2","","79","","","","18","","9","","","","101.25","","","","-15","","NA"
"-53.11","48.67","BONAVISTA","8400601","2012-02-02 00:30","2012","02","02","00:30","-10.5","","-13.1","","81","","","","17","","7","","","","101.17","","","","-15","","NA"
"-53.11","48.67","BONAVISTA","8400601","2012-02-02 01:30","2012","02","02","01:30","-10.2","","-12.7","","82","","","","17","","6","","","","101.11","","","","-14","","NA"
"-53.11","48.67","BONAVISTA","8400601","2012-02-02 02:30","2012","02","02","02:30","-10.1","","-12.8","","81","","","","16","","2","","","","101.06","","","","-11","","NA"
"-53.11","48.67","BONAVISTA","8400601","2012-02-02 03:30","2012","02","02","03:30","-8.3","","-11.5","","78","","","","6","","4","","","","100.93","","","","-10","","NA"
"-53.11","48.67","BONAVISTA","8400601","2012-02-02 04:30","2012","02","02","04:30","-7.1","","-10.8","","75","","","","7","","11","","","","100.81","","","","-12","","NA"
"-53.11","48.67","BONAVISTA","8400601","2012-02-02 05:30","2012","02","02","05:30","-6.6","","-10.1","","76","","","","7","","13","","","","100.77","","","","-12","","NA"
"-53.11","48.67","BONAVISTA","8400601","2012-02-02 06:30","2012","02","02","06:30","-6.2","","-9.8","","76","","","","5","","19","","","","100.68","","","","-13","","NA"
"-53.11","48.67","BONAVISTA","8400601","2012-02-02 07:30","2012","02","02","07:30","-6.3","","-9.4","","79","","","","3","","22","","","","100.65","","","","-14","","NA"
"-53.11","48.67","BONAVISTA","8400601","2012-02-02 08:30","2012","02","02","08:30","-6.1","","-9.3","","78","","","","3","","24","","","","100.63","","","","-14","","NA"
"-53.11","48.67","BONAVISTA","8400601","2012-02-02 09:30","2012","02","02","09:30","-6.0","","-10.2","","72","","","","3","","24","","","","100.61","","","","-13","","NA"
"-53.11","48.67","BONAVISTA","8400601","2012-02-02 10:30","2012","02","02","10:30","-5.5","","-10.8","","66","","","","2","","24","","","","100.64","","","","-13","","NA"
"-53.11","48.67","BONAVISTA","8400601","2012-02-02 11:30","2012","02","02","11:30","-5.4","","-9.9","","71","","","","1","","28","","","","100.60","","","","-13","","NA"
"-53.11","48.67","BONAVISTA","8400601","2012-02-02 12:30","2012","02","02","12:30","-5.4","","-9.8","","71","","","","36","","30","","","","100.59","","","","-14","","NA"
"-53.11","48.67","BONAVISTA","8400601","2012-02-02 13:30","2012","02","02","13:30","-5.6","","-10.1","","71","","","","35","","32","","","","100.61","","","","-14","","NA"
"-53.11","48.67","BONAVISTA","8400601","2012-02-02 14:30","2012","02","02","14:30","-6.1","","-9.5","","77","","","","33","","39","","","","100.68","","","","-15","","NA"
"-53.11","48.67","BONAVISTA","8400601","2012-02-02 15:30","2012","02","02","15:30","-6.8","","-10.7","","74","","","","33","","33","","","","100.75","","","","-16","","NA"
"-53.11","48.67","BONAVISTA","8400601","2012-02-02 16:30","2012","02","02","16:30","-7.0","","-10.5","","76","","","","33","","32","","","","100.83","","","","-16","","NA"
"-53.11","48.67","BONAVISTA","8400601","2012-02-02 17:30","2012","02","02","17:30","-7.2","","-10.6","","77","","","","32","","28","","","","100.95","","","","-16","","NA"
"-53.11","48.67","BONAVISTA","8400601","2012-02-02 18:30","2012","02","02","18:30","-7.7","","-11.1","","77","","","","32","","30","","","","101.02","","","","-17","","NA"
"-53.11","48.67","BONAVISTA","8400601","2012-02-02 19:30","2012","02","02","19:30","-8.4","","-11.6","","78","","","","31","","26","","","","101.09","","","","-17","","NA"
"-53.11","48.67","BONAVISTA","8400601","2012-02-02 20:30","2012","02","02","20:30","-8.4","","-12.0","","75","","","","31","","20","","","","101.19","","","","-16","","NA"
"-53.11","48.67","BONAVISTA","8400601","2012-02-02 21:30","2012","02","02","21:30","-8.6","","-12.1","","76","","","","31","","20","","","","101.25","","","","-16","","NA"
"-53.11","48.67","BONAVISTA","8400601","2012-02-02 22:30","2012","02","02","22:30","-8.8","","-12.3","","76","","","","32","","22","","","","101.28","","","","-17","","NA"
"-53.11","48.67","BONAVISTA","8400601","2012-02-02 23:30","2012","02","02","23:30","-8.9","","-12.2","","77","","","","32","","19","","","","101.27","","","","-16","","NA"
"-53.11","48.67","BONAVISTA","8400601","2012-02-03 00:30","2012","02","03","00:30","-8.5","","-11.8","","77","","","","32","","19","","","","101.27","","","","-16","","NA"
"-53.11","48.67","BONAVISTA","8400601","2012-02-03 01:30","2012","02","03","01:30","-8.5","","-11.8","","77","","","","34","","17","","","","101.22","","","","-15","","NA"
"-53.11","48.67","BONAVISTA","8400601","2012-02-03 02:30","2012","02","03","02:30","-8.4","","-11.7","","77","","","","35","","7","","","","101.31","","","","-12","","NA"
"-53.11","48.67","BONAVISTA","8400601","2012-02-03 03:30","2012","02","03","03:30","-8.3","","-11.6","","77","","","","28","","11","","","","101.35","","","","-14","","NA"
"-53.11","48.67","BONAVISTA","8400601","2012-02-03 04:30","2012","02","03","04:30","-8.3","","-11.6","","77","","","","30","","7","","","","101.35","","","","-12","","NA"
"-53.11","48.67","BONAVISTA","8400601","2012-02-03 05:30","2012","02","03","05:30","-8.5","","-12.0","","76","","","","33","","9","","","","101.35","","","","-13","","NA"
"-53.11","48.67","BONAVISTA","8400601","2012-02-03 06:30","2012","02","03","06:30","-8.3","","-11.9","","75","","","","28","","7","","","","101.42","","","","-12","","NA"
"-53.11","48.67","BONAVISTA","8400601","2012-02-03 07:30","2012","02","03","07:30","-9.2","","-12.1","","79","","","","17","","9","","","","101.46","","","","-14","","NA"
"-53.11","48.67","BONAVISTA","8400601","2012-02-03 08:30","2012","02","03","08:30","-8.9","","-11.7","","80","","","","19","","6","","","","101.44","","","","-12","","NA"
"-53.11","48.67","BONAVISTA","8400601","2012-02-03 09:30","2012","02","03","09:30","-7.9","","-11.9","","73","","","","34","","6","","","","101.47","","","","-11","","NA"
"-53.11","48.67","BONAVISTA","8400601","2012-02-03 10:30","2012","02","03","10:30","-7.6","","-12.3","","69","","","","1","","7","","","","101.40","","","","-11","","NA"
"-53.11","48.67","BONAVISTA","8400601","2012-02-03 11:30","2012","02","03","11:30","-6.8","","-12.0","","66","","","","2","","6","","","","101.36","","","","-10","","NA"
"-53.11","48.67","BONAVISTA","8400601","2012-02-03 12:30","2012","02","03","12:30","-6.5","","-12.1","","64","","","","9","","6","","","","101.29","","","","-9","","NA"
"-53.11","48.67","BONAVISTA","8400601","2012-02-03 13:30","2012","02","03","13:30","-6.3","","-11.8","","65","","","","5","","6","","","","101.16","","","","-9","","NA"
"-53.11","48.67","BONAVISTA","8400601","2012-02-03 14:30","2012","02","03","14:30","-6.4","","-11.6","","67","","","","6","","7","","","","101.09","","","","-10","","NA"
"-53.11","48.67","BONAVISTA","8400601","2012-02-03 15:30","2012","02","03","15:30","-6.1","","-10.6","","70","","","","5","","13","","","","101.05","","","","-11","","NA"
"-53.11","48.67","BONAVISTA","8400601","2012-02-03 16:30","2012","02","03","16:30","-6.1","","-10.7","","70","","","","5","","20","","","","101.03","","","","-13","","NA"
"-53.11","48.67","BONAVISTA","8400601","2012-02-03 17:30","2012","02","03","17:30","-5.7","","-9.9","","72","","","","5","","28","","","","101.00","","","","-14","","NA"
"-53.11","48.67","BONAVISTA","8400601","2012-02-03 18:30","2012","02","03","18:30","-5.6","","-10.2","","70","","","","5","","30","","","","100.91","","","","-14","","NA"
"-53.11","48.67","BONAVISTA","8400601","2012-02-03 19:30","2012","02","03","19:30","-5.6","","-10.2","","70","","","","4","","32","","","","100.75","","","","-14","","NA"
"-53.11","48.67","BONAVISTA","8400601","2012-02-03 20:30","2012","02","03","20:30","-5.3","","-9.6","","72","","","","5","","37","","","","100.72","","","","-14","","NA"
"-53.11","48.67","BONAVISTA","8400601","2012-02-03 21:30","2012","02","03","21:30","-5.4","","-9.9","","71","","","","4","","41","","","","100.64","","","","-15","","NA"
"-53.11","48.67","BONAVISTA","8400601","2012-02-03 22:30","2012","02","03","22:30","-5.5","","-9.4","","74","","","","4","","46","","","","100.46","","","","-15","","NA"
"-53.11","48.67","BONAVISTA","8400601","2012-02-03 23:30","2012","02","03","23:30","-5.8","","-8.1","","84","","","","2","","50","","","","100.22","","","","-16","","NA"
"-53.11","48.67","BONAVISTA","8400601","2012-02-04 00:30","2012","02","04","00:30","-5.6","","-8.0","","83","","","","3","","52","","","","100.10","","","","-16","","NA"
"-53.11","48.67","BONAVISTA","8400601","2012-02-04 01:30","2012","02","04","01:30","-5.2","","-6.8","","88","","","","2","","50","","","","100.09","","","","-15","","NA"
"-53.11","48.67","BONAVISTA","8400601","2012-02-04 02:30","2012","02","04","02:30","-4.9","","-6.1","","91","","","","2","","48","","","","99.89","","","","-15","","NA"
"-53.11","48.67","BONAVISTA","8400601","2012-02-04 03:30","2012","02","04","03:30","-4.4","","-6.2","","87","","","","3","","52","","","","99.75","","","","-14","","NA"
"-53.11","48.67","BONAVISTA","8400601","2012-02-04 04:30","2012","02","04","04:30","-4.6","","-5.8","","91","","","","1","","67","","","","99.58","","","","-16","","NA"
"-53.11","48.67","BONAVISTA","8400601","2012-02-04 05:30","2012","02","04","05:30","-4.9","","-5.6","","95","","","","1","","70","","","","99.47","","","","-16","","NA"
"-53.11","48.67","BONAVISTA","8400601","2012-02-04 06:30","2012","02","04","06:30","-4.7","","-5.3","","96","","","","36","","69","","","","99.43","","","","-16","","NA"
"-53.11","48.67","BONAVISTA","8400601","2012-02-04 07:30","2012","02","04","07:30","-4.6","","-5.2","","96","","","","35","","72","","","","99.39","","","","-16","","NA"
"-53.11","48.67","BONAVISTA","8400601","2012-02-04 08:30","2012","02","04","08:30","-4.0","","-4.5","","96","","","","35","","74","","","","99.26","","","","-15","","NA"
"-53.11","48.67","BONAVISTA","8400601","2012-02-04 09:30","2012","02","04","09:30","-5.0","","-5.6","","96","","","","33","","78","","","","99.17","","","","-17","","NA"
"-53.11","48.67","BONAVISTA","8400601","2012-02-04 10:30","2012","02","04","10:30","-4.3","","-4.9","","96","","","","33","","80","","","","99.09","","","","-16","","NA"
"-53.11","48.67","BONAVISTA","8400601","2012-02-04 11:30","2012","02","04","11:30","-4.2","","-4.8","","96","","","","33","","82","","","","98.94","","","","-16","","NA"
"-53.11","48.67","BONAVISTA","8400601","2012-02-04 12:30","2012","02","04","12:30","-3.6","","-4.2","","96","","","","33","","76","","","","98.81","","","","-15","","NA"
"-53.11","48.67","BONAVISTA","8400601","2012-02-04 13:30","2012","02","04","13:30","-2.8","","-3.4","","96","","","","33","","74","","","","98.75","","","","-13","","NA"
"-53.11","48.67","BONAVISTA","8400601","2012-02-04 14:30","2012","02","04","14:30","-2.5","","-2.9","","97","","","","34","","76","","","","98.69","","","","-13","","NA"
"-53.11","48.67","BONAVISTA","8400601","2012-02-04 15:30","2012","02","04","15:30","-2.7","","-3.1","","97","","","","33","","80","","","","98.66","","","","-14","","NA"
"-53.11","48.67","BONAVISTA","8400601","2012-02-04 16:30","2012","02","04","16:30","-3.0","","-3.5","","96","","","","33","","80","","","","98.64","","","","-14","","NA"
"-53.11","48.67","BONAVISTA","8400601","2012-02-04 17:30","2012","02","04","17:30","-3.1","","-3.6","","96","","","","33","","82","","","","98.62","","","","-14","","NA"
"-53.11","48.67","BONAVISTA","8400601","2012-02-04 18:30","2012","02","04","18:30","-3.3","","-3.9","","96","","","","32","","70","","","","98.63","","","","-14","","NA"
"-53.11","48.67","BONAVISTA","8400601","2012-02-04 19:30","2012","02","04","19:30","-3.5","","-4.0","","96","","","","32","","70","","","","98.62","","","","-14","","NA"
"-53.11","48.67","BONAVISTA","8400601","2012-02-04 20:30","2012","02","04","20:30","-3.4","","-3.9","","96","","","","32","","74","","","","98.60","","","","-14","","NA"
"-53.11","48.67","BONAVISTA","8400601","2012-02-04 21:30","2012","02","04","21:30","-3.2","","-3.7","","96","","","","32","","76","","","","98.60","","","","-14","","NA"
"-53.11","48.67","BONAVISTA","8400601","2012-02-04 22:30","2012","02","04","22:30","-3.2","","-3.7","","96","","","","31","","74","","","","98.59","","","","-14","","NA"
"-53.11","48.67","BONAVISTA","8400601","2012-02-04 23:30","2012","02","04","23:30","-3.1","","-3.8","","95","","","","31","","72","","","","98.58","","","","-14","","NA"
"-53.11","48.67","BONAVISTA","8400601","2012-02-05 00:30","2012","02","05","00:30","-3.1","","-3.9","","94","","","","31","","74","","","","98.60","","","","-14","","NA"
"-53.11","48.67","BONAVISTA","8400601","2012-02-05 01:30","2012","02","05","01:30","-3.3","","-3.9","","96","","","","31","","78","","","","98.63","","","","-14","","NA"
"-53.11","48.67","BONAVISTA","8400601","2012-02-05 02:30","2012","02","05","02:30","-3.7","","-4.3","","96","","","","31","","78","","","","98.70","","","","-15","","NA"
"-53.11","48.67","BONAVISTA","8400601","2012-02-05 03:30","2012","02","05","03:30","-4.1","","-4.8","","95","","","","31","","76","","","","98.75","","","","-15","","NA"
"-53.11","48.67","BONAVISTA","8400601","2012-02-05 04:30","2012","02","05","04:30","-4.6","","-5.2","","96","","","","30","","69","","","","98.80","","","","-16","","NA"
"-53.11","48.67","BONAVISTA","8400601","2012-02-05 05:30","2012","02","05","05:30","-4.8","","-5.8","","93","","","","30","","76","","","","98.90","","","","-16","","NA"
"-53.11","48.67","BONAVISTA","8400601","2012-02-05 06:30","2012","02","05","06:30","-4.9","","-6.4","","89","","","","30","","76","","","","98.98","","","","-17","","NA"
"-53.11","48.67","BONAVISTA","8400601","2012-02-05 07:30","2012","02","05","07:30","-4.8","","-6.8","","86","","","","30","","72","","","","99.09","","","","-16","","NA"
"-53.11","48.67","BONAVISTA","8400601","2012-02-05 08:30","2012","02","05","08:30","-4.7","","-6.9","","85","","","","30","","67","","","","99.17","","","","-16","","NA"
"-53.11","48.67","BONAVISTA","8400601","2012-02-05 09:30","2012","02","05","09:30","-4.9","","-6.8","","87","","","","29","","59","","","","99.22","","","","-15","","NA"
"-53.11","48.67","BONAVISTA","8400601","2012-02-05 10:30","2012","02","05","10:30","-5.0","","-7.8","","81","","","","30","","63","","","","99.29","","","","-16","","NA"
"-53.11","48.67","BONAVISTA","8400601","2012-02-05 11:30","2012","02","05","11:30","-5.4","","-8.3","","80","","","","29","","57","","","","99.32","","","","-16","","NA"
"-53.11","48.67","BONAVISTA","8400601","2012-02-05 12:30","2012","02","05","12:30","-4.9","","-8.3","","77","","","","29","","57","","","","99.34","","","","-15","","NA"
"-53.11","48.67","BONAVISTA","8400601","2012-02-05 13:30","2012","02","05","13:30","-4.7","","-8.5","","75","","","","29","","54","","","","99.36","","","","-15","","NA"
"-53.11","48.67","BONAVISTA","8400601","2012-02-05 14:30","2012","02","05","14:30","-4.8","","-10.4","","65","","","","28","","52","","","","99.39","","","","-15","","NA"
"-53.11","48.67","BONAVISTA","8400601","2012-02-05 15:30","2012","02","05","15:30","-4.5","","-10.5","","63","","","","28","","52","","","","99.44","","","","-14","","NA"
"-53.11","48.67","BONAVISTA","8400601","2012-02-05 16:30","2012","02","05","16:30","-4.6","","-9.7","","67","","","","28","","46","","","","99.47","","","","-14","","NA"
"-53.11","48.67","BONAVISTA","8400601","2012-02-05 17:30","2012","02","05","17:30","-4.5","","-9.5","","68","","","","29","","48","","","","99.50","","","","-14","","NA"
"-53.11","48.67","BONAVISTA","8400601","2012-02-05 18:30","2012","02","05","18:30","-5.1","","-10.6","","65","","","","27","","56","","","","99.56","","","","-16","","NA"
"-53.11","48.67","BONAVISTA","8400601","2012-02-05 19:30","2012","02","05","19:30","-5.5","","-10.7","","67","","","","28","","59","","","","99.65","","","","-16","","NA"
"-53.11","48.67","BONAVISTA","8400601","2012-02-05 20:30","2012","02","05","20:30","-6.2","","-11.2","","68","","","","27","","56","","","","99.69","","","","-17","","NA"
"-53.11","48.67","BONAVISTA","8400601","2012-02-05 21:30","2012","02","05","21:30","-7.0","","-11.8","","69","","","","27","","54","","","","99.73","","","","-18","","NA"
"-53.11","48.67","BONAVISTA","8400601","2012-02-05 22:30","2012","02","05","22:30","-8.0","","-12.5","","70","","","","27","","48","","","","99.79","","","","-19","","NA"
"-53.11","48.67","BONAVISTA","8400601","2012-02-05 23:30","2012","02","05","23:30","-8.4","","-12.5","","72","","","","27","","48","","","","99.80","","","","-19","","NA"
"-53.11","48.67","BONAVISTA","8400601","2012-02-06 00:30","2012","02","06","00:30","-8.2","","-12.1","","73","","","","27","","50","","","","99.80","","","","-19","","NA"
"-53.11","48.67","BONAVISTA","8400601","2012-02-06 01:30","2012","02","06","01:30","-8.4","","-11.9","","76","","","","26","","44","","","","99.81","","","","-19","","NA"
"-53.11","48.67","BONAVISTA","8400601","2012-02-06 02:30","2012","02","06","02:30","-8.4","","-11.6","","78","","","","26","","43","","","","99.81","","","","-19","","NA"
"-53.11","48.67","BONAVISTA","8400601","2012-02-06 03:30","2012","02","06","03:30","-8.3","","-11.3","","79","","","","26","","43","","","","99.85","","","","-19","","NA"
"-53.11","48.67","BONAVISTA","8400601","2012-02-06 04:30","2012","02","06","04:30","-8.8","","-11.3","","82","","","","24","","35","","","","99.87","","","","-19","","NA"
"-53.11","48.67","BONAVISTA","8400601","2012-02-06 05:30","2012","02","06","05:30","-8.9","","-11.4","","82","","","","24","","39","","","","99.89","","","","-19","","NA"
"-53.11","48.67","BONAVISTA","8400601","2012-02-06 06:30","2012","02","06","06:30","-8.9","","-11.2","","83","","","","24","","37","","","","99.91","","","","-19","","NA"
"-53.11","48.67","BONAVISTA","8400601","2012-02-06 07:30","2012","02","06","07:30","-9.3","","-11.6","","83","","","","24","","37","","","","99.97","","","","-19","","NA"
"-53.11","48.67","BONAVISTA","8400601","2012-02-06 08:30","2012","02","06","08:30","-9.1","","-11.9","","80","","","","24","","41","","","","100.02","","","","-20","","NA"
"-53.11","48.67","BONAVISTA","8400601","2012-02-06 09:30","2012","02","06","09:30","-8.1","","-11.4","","77","","","","24","","35","","","","100.08","","","","-18","","NA"
"-53.11","48.67","BONAVISTA","8400601","2012-02-06 10:30","2012","02","06","10:30","-7.0","","-10.9","","74","","","","24","","35","","","","100.09","","","","-16","","NA"
"-53.11","48.67","BONAVISTA","8400601","2012-02-06 11:30","2012","02","06","11:30","-6.0","","-10.9","","68","","","","24","","37","","","","100.08","","","","-15","","NA"
"-53.11","48.67","BONAVISTA","8400601","2012-02-06 12:30","2012","02","06","12:30","-5.8","","-10.4","","70","","","","24","","32","","","","100.06","","","","-14","","NA"
"-53.11","48.67","BONAVISTA","8400601","2012-02-06 13:30","2012","02","06","13:30","-5.3","","-10.6","","66","","","","24","","33","","","","100.02","","","","-14","","NA"
"-53.11","48.67","BONAVISTA","8400601","2012-02-06 14:30","2012","02","06","14:30","-4.5","","-10.9","","61","","","","24","","33","","","","99.96","","","","-13","","NA"
"-53.11","48.67","BONAVISTA","8400601","2012-02-06 15:30","2012","02","06","15:30","-3.5","","-9.5","","63","","","","24","","41","","","","99.95","","","","-12","","NA"
"-53.11","48.67","BONAVISTA","8400601","2012-02-06 16:30","2012","02","06","16:30","-3.5","","-8.1","","70","","","","23","","33","","","","99.95","","","","-11","","NA"
"-53.11","48.67","BONAVISTA","8400601","2012-02-06 17:30","2012","02","06","17:30","-3.8","","-7.8","","74","","","","21","","26","","","","99.95","","","","-11","","NA"
"-53.11","48.67","BONAVISTA","8400601","2012-02-06 18:30","2012","02","06","18:30","-4.1","","-8.3","","73","","","","21","","26","","","","99.93","","","","-11","","NA"
"-53.11","48.67","BONAVISTA","8400601","2012-02-06 19:30","2012","02","06","19:30","-4.3","","-7.0","","81","","","","18","","22","","","","99.86","","","","-11","","NA"
"-53.11","48.67","BONAVISTA","8400601","2012-02-06 20:30","2012","02","06","20:30","-4.3","","-5.2","","93","","","","17","","35","","","","99.75","","","","-13","","NA"
"-53.11","48.67","BONAVISTA","8400601","2012-02-06 21:30","2012","02","06","21:30","-3.6","","-4.7","","92","","","","19","","32","","","","99.69","","","","-11","","NA"
"-53.11","48.67","BONAVISTA","8400601","2012-02-06 22:30","2012","02","06","22:30","-2.6","","-3.9","","91","","","","22","","32","","","","99.66","","","","-10","","NA"
"-53.11","48.67","BONAVISTA","8400601","2012-02-06 23:30","2012","02","06","23:30","-2.6","","-5.0","","84","","","","24","","30","","","","99.65","","","","-10","","NA"
"-53.11","48.67","BONAVISTA","8400601","2012-02-07 00:30","2012","02","07","00:30","-2.6","","-5.3","","82","","","","25","","37","","","","99.64","","","","-11","","NA"
"-53.11","48.67","BONAVISTA","8400601","2012-02-07 01:30","2012","02","07","01:30","-2.5","","-5.0","","83","","","","25","","33","","","","99.67","","","","-10","","NA"
"-53.11","48.67","BONAVISTA","8400601","2012-02-07 02:30","2012","02","07","02:30","-2.6","","-5.7","","79","","","","26","","35","","","","99.66","","","","-10","","NA"
"-53.11","48.67","BONAVISTA","8400601","2012-02-07 03:30","2012","02","07","03:30","-2.9","","-5.1","","85","","","","23","","30","","","","99.67","","","","-10","","NA"
"-53.11","48.67","BONAVISTA","8400601","2012-02-07 04:30","2012","02","07","04:30","-3.0","","-5.7","","82","","","","22","","26","","","","99.68","","","","-10","","NA"
"-53.11","48.67","BONAVISTA","8400601","2012-02-07 05:30","2012","02","07","05:30","-2.7","","-5.4","","82","","","","23","","33","","","","99.69","","","","-10","","NA"
"-53.11","48.67","BONAVISTA","8400601","2012-02-07 06:30","2012","02","07","06:30","-2.6","","-5.1","","83","","","","22","","30","","","","99.68","","","","-10","","NA"
"-53.11","48.67","BONAVISTA","8400601","2012-02-07 07:30","2012","02","07","07:30","-2.3","","-4.6","","84","","","","23","","37","","","","99.68","","","","-10","","NA"
"-53.11","48.67","BONAVISTA","8400601","2012-02-07 08:30","2012","02","07","08:30","-1.7","","-4.1","","84","","","","22","","33","","","","99.70","","","","-9","","NA"
"-53.11","48.67","BONAVISTA","8400601","2012-02-07 09:30","2012","02","07","09:30","-1.6","","-3.4","","87","","","","22","","33","","","","99.69","","","","-9","","NA"
"-53.11","48.67","BONAVISTA","8400601","2012-02-07 10:30","2012","02","07","10:30","-0.2","","-2.9","","82","","","","23","","44","","","","99.70","","","","-8","","NA"
"-53.11","48.67","BONAVISTA","8400601","2012-02-07 11:30","2012","02","07","11:30","0.2","","-2.6","","81","","","","24","","35","","","","99.76","","","","","","NA"
"-53.11","48.67","BONAVISTA","8400601","2012-02-07 12:30","2012","02","07","12:30","-0.1","","-3.6","","77","","","","28","","33","","","","99.79","","","","-7","","NA"
"-53.11","48.67","BONAVISTA","8400601","2012-02-07 13:30","2012","02","07","13:30","-1.7","","-3.8","","86","","","","31","","28","","","","99.84","","","","-8","","NA"
"-53.11","48.67","BONAVISTA","8400601","2012-02-07 14:30","2012","02","07","14:30","-1.0","","-3.8","","81","","","","31","","22","","","","99.86","","","","-7","","NA"
"-53.11","48.67","BONAVISTA","8400601","2012-02-07 15:30","2012","02","07","15:30","-0.8","","-4.7","","75","","","","31","","19","","","","99.93","","","","-6","","NA"
"-53.11","48.67","BONAVISTA","8400601","2012-02-07 16:30","2012","02","07","16:30","-1.0","","-5.1","","74","","","","30","","26","","","","100.05","","","","-7","","NA"
"-53.11","48.67","BONAVISTA","8400601","2012-02-07 17:30","2012","02","07","17:30","-1.3","","-5.5","","73","","","","30","","22","","","","100.12","","","","-7","","NA"
"-53.11","48.67","BONAVISTA","8400601","2012-02-07 18:30","2012","02","07","18:30","-1.6","","-6.0","","72","","","","31","","15","","","","100.24","","","","-6","","NA"
"-53.11","48.67","BONAVISTA","8400601","2012-02-07 19:30","2012","02","07","19:30","-1.9","","-6.3","","72","","","","30","","11","","","","100.29","","","","-6","","NA"
"-53.11","48.67","BONAVISTA","8400601","2012-02-07 20:30","2012","02","07","20:30","-2.1","","-6.1","","74","","","","32","","4","","","","100.36","","","","-4","","NA"
"-53.11","48.67","BONAVISTA","8400601","2012-02-07 21:30","2012","02","07","21:30","-1.9","","-6.8","","69","","","","26","","19","","","","100.40","","","","-7","","NA"
"-53.11","48.67","BONAVISTA","8400601","2012-02-07 22:30","2012","02","07","22:30","-2.8","","-7.2","","72","","","","30","","26","","","","100.44","","","","-10","","NA"
"-53.11","48.67","BONAVISTA","8400601","2012-02-07 23:30","2012","02","07","23:30","-3.8","","-9.1","","67","","","","29","","26","","","","100.48","","","","-11","","NA"
"-53.11","48.67","BONAVISTA","8400601","2012-02-08 00:30","2012","02","08","00:30","-4.1","","-9.7","","65","","","","28","","17","","","","100.46","","","","-10","","NA"
"-53.11","48.67","BONAVISTA","8400601","2012-02-08 01:30","2012","02","08","01:30","-4.4","","-9.2","","69","","","","29","","20","","","","100.49","","","","-11","","NA"
"-53.11","48.67","BONAVISTA","8400601","2012-02-08 02:30","2012","02","08","02:30","-5.1","","-9.5","","71","","","","27","","19","","","","100.49","","","","-12","","NA"
"-53.11","48.67","BONAVISTA","8400601","2012-02-08 03:30","2012","02","08","03:30","-5.0","","-9.9","","68","","","","28","","19","","","","100.50","","","","-11","","NA"
"-53.11","48.67","BONAVISTA","8400601","2012-02-08 04:30","2012","02","08","04:30","-4.8","","-9.2","","71","","","","26","","15","","","","100.51","","","","-10","","NA"
"-53.11","48.67","BONAVISTA","8400601","2012-02-08 05:30","2012","02","08","05:30","-4.9","","-8.1","","78","","","","23","","17","","","","100.56","","","","-11","","NA"
"-53.11","48.67","BONAVISTA","8400601","2012-02-08 06:30","2012","02","08","06:30","-5.0","","-7.4","","83","","","","25","","22","","","","100.58","","","","-12","","NA"
"-53.11","48.67","BONAVISTA","8400601","2012-02-08 07:30","2012","02","08","07:30","-5.2","","-7.7","","83","","","","28","","30","","","","100.65","","","","-13","","NA"
"-53.11","48.67","BONAVISTA","8400601","2012-02-08 08:30","2012","02","08","08:30","-5.0","","-8.3","","78","","","","28","","24","","","","100.72","","","","-12","","NA"
"-53.11","48.67","BONAVISTA","8400601","2012-02-08 09:30","2012","02","08","09:30","-5.1","","-9.0","","74","","","","29","","30","","","","100.77","","","","-13","","NA"
"-53.11","48.67","BONAVISTA","8400601","2012-02-08 10:30","2012","02","08","10:30","-5.0","","-8.8","","75","","","","28","","30","","","","100.82","","","","-13","","NA"
"-53.11","48.67","BONAVISTA","8400601","2012-02-08 11:30","2012","02","08","11:30","-5.1","","-8.6","","76","","","","28","","33","","","","100.86","","","","-13","","NA"
"-53.11","48.67","BONAVISTA","8400601","2012-02-08 12:30","2012","02","08","12:30","-4.7","","-9.4","","70","","","","29","","32","","","","100.86","","","","-13","","NA"
"-53.11","48.67","BONAVISTA","8400601","2012-02-08 13:30","2012","02","08","13:30","-4.2","","-10.3","","62","","","","27","","28","","","","100.86","","","","-12","","NA"
"-53.11","48.67","BONAVISTA","8400601","2012-02-08 14:30","2012","02","08","14:30","-4.2","","-11.6","","56","","","","26","","30","","","","100.93","","","","-12","","NA"
"-53.11","48.67","BONAVISTA","8400601","2012-02-08 15:30","2012","02","08","15:30","-4.1","","-11.3","","57","","","","25","","26","","","","100.99","","","","-11","","NA"
"-53.11","48.67","BONAVISTA","8400601","2012-02-08 16:30","2012","02","08","16:30","-4.1","","-11.1","","58","","","","26","","35","","","","101.05","","","","-12","","NA"
"-53.11","48.67","BONAVISTA","8400601","2012-02-08 17:30","2012","02","08","17:30","-4.1","","-10.7","","60","","","","25","","32","","","","101.13","","","","-12","","NA"
"-53.11","48.67","BONAVISTA","8400601","2012-02-08 18:30","2012","02","08","18:30","-4.8","","-10.7","","63","","","","23","","35","","","","101.18","","","","-13","","NA"
"-53.11","48.67","BONAVISTA","8400601","2012-02-08 19:30","2012","02","08","19:30","-5.5","","-10.2","","69","","","","24","","35","","","","101.28","","","","-14","","NA"
"-53.11","48.67","BONAVISTA","8400601","2012-02-08 20:30","2012","02","08","20:30","-6.4","","-11.0","","70","","","","23","","33","","","","101.37","","","","-15","","NA"
"-53.11","48.67","BONAVISTA","8400601","2012-02-08 21:30","2012","02","08","21:30","-7.1","","-11.6","","70","","","","24","","35","","","","101.46","","","","-16","","NA"
"-53.11","48.67","BONAVISTA","8400601","2012-02-08 22:30","2012","02","08","22:30","-7.0","","-11.2","","72","","","","24","","35","","","","101.55","","","","-16","","NA"
"-53.11","48.67","BONAVISTA","8400601","2012-02-08 23:30","2012","02","08","23:30","-7.2","","-10.7","","76","","","","25","","33","","","","101.58","","","","-16","","NA"
"-53.11","48.67","BONAVISTA","8400601","2012-02-09 00:30","2012","02","09","00:30","-6.8","","-10.1","","77","","","","23","","33","","","","101.61","","","","-16","","NA"
"-53.11","48.67","BONAVISTA","8400601","2012-02-09 01:30","2012","02","09","01:30","-5.8","","-9.0","","78","","","","23","","26","","","","101.66","","","","-14","","NA"
"-53.11","48.67","BONAVISTA","8400601","2012-02-09 02:30","2012","02","09","02:30","-4.9","","-8.3","","77","","","","22","","26","","","","101.72","","","","-12","","NA"
"-53.11","48.67","BONAVISTA","8400601","2012-02-09 03:30","2012","02","09","03:30","-4.4","","-8.1","","75","","","","22","","33","","","","101.75","","","","-13","","NA"
"-53.11","48.67","BONAVISTA","8400601","2012-02-09 04:30","2012","02","09","04:30","-4.0","","-7.8","","75","","","","21","","24","","","","101.77","","","","-11","","NA"
"-53.11","48.67","BONAVISTA","8400601","2012-02-09 05:30","2012","02","09","05:30","-3.5","","-7.3","","75","","","","21","","30","","","","101.81","","","","-11","","NA"
"-53.11","48.67","BONAVISTA","8400601","2012-02-09 06:30","2012","02","09","06:30","-3.2","","-7.3","","73","","","","21","","32","","","","101.83","","","","-11","","NA"
"-53.11","48.67","BONAVISTA","8400601","2012-02-09 07:30","2012","02","09","07:30","-2.9","","-7.1","","73","","","","21","","32","","","","101.89","","","","-10","","NA"
"-53.11","48.67","BONAVISTA","8400601","2012-02-09 08:30","2012","02","09","08:30","-2.6","","-7.0","","72","","","","21","","32","","","","101.95","","","","-10","","NA"
"-53.11","48.67","BONAVISTA","8400601","2012-02-09 09:30","2012","02","09","09:30","-2.3","","-7.0","","70","","","","21","","26","","","","101.98","","","","-9","","NA"
"-53.11","48.67","BONAVISTA","8400601","2012-02-09 10:30","2012","02","09","10:30","-1.5","","-6.1","","71","","","","21","","32","","","","101.98","","","","-9","","NA"
"-53.11","48.67","BONAVISTA","8400601","2012-02-09 11:30","2012","02","09","11:30","-0.9","","-5.5","","71","","","","21","","39","","","","101.89","","","","-9","","NA"
"-53.11","48.67","BONAVISTA","8400601","2012-02-09 12:30","2012","02","09","12:30","-0.7","","-5.9","","68","","","","20","","43","","","","101.83","","","","-9","","NA"
"-53.11","48.67","BONAVISTA","8400601","2012-02-09 13:30","2012","02","09","13:30","-0.6","","-5.3","","70","","","","20","","43","","","","101.68","","","","-8","","NA"
"-53.11","48.67","BONAVISTA","8400601","2012-02-09 14:30","2012","02","09","14:30","0.2","","-6.6","","60","","","","20","","37","","","","101.75","","","","","","NA"
"-53.11","48.67","BONAVISTA","8400601","2012-02-09 15:30","2012","02","09","15:30","0.0","","-5.0","","69","","","","19","","33","","","","101.76","","","","-7","","NA"
"-53.11","48.67","BONAVISTA","8400601","2012-02-09 16:30","2012","02","09","16:30","-0.6","","-4.3","","76","","","","18","","22","","","","101.75","","","","-6","","NA"
"-53.11","48.67","BONAVISTA","8400601","2012-02-09 17:30","2012","02","09","17:30","-0.8","","-4.1","","78","","","","14","","11","","","","101.64","","","","-5","","NA"
"-53.11","48.67","BONAVISTA","8400601","2012-02-09 18:30","2012","02","09","18:30","-0.6","","-2.2","","89","","","","16","","28","","","","101.58","","","","-7","","NA"
"-53.11","48.67","BONAVISTA","8400601","2012-02-09 19:30","2012","02","09","19:30","-0.3","","-1.7","","90","","","","17","","28","","","","101.49","","","","-7","","NA"
"-53.11","48.67","BONAVISTA","8400601","2012-02-09 20:30","2012","02","09","20:30","-0.3","","-2.4","","86","","","","17","","30","","","","101.50","","","","-7","","NA"
"-53.11","48.67","BONAVISTA","8400601","2012-02-09 21:30","2012","02","09","21:30","-0.6","","-2.6","","86","","","","15","","41","","","","101.36","","","","-8","","NA"
"-53.11","48.67","BONAVISTA","8400601","2012-02-09 22:30","2012","02","09","22:30","-1.5","","-2.0","","96","","","","13","","28","","","","101.18","","","","-8","","NA"
"-53.11","48.67","BONAVISTA","8400601","2012-02-09 23:30","2012","02","09","23:30","-1.7","","-2.1","","97","","","","10","","33","","","","100.91","","","","-9","","NA"
"-53.11","48.67","BONAVISTA","8400601","2012-02-10 00:30","2012","02","10","00:30","-1.7","","-2.0","","98","","","","8","","44","","","","100.67","","","","-10","","NA"
"-53.11","48.67","BONAVISTA","8400601","2012-02-10 01:30","2012","02","10","01:30","-1.6","","-1.9","","98","","","","7","","48","","","","100.38","","","","-10","","NA"
"-53.11","48.67","BONAVISTA","8400601","2012-02-10 02:30","2012","02","10","02:30","-1.3","","-1.6","","98","","","","6","","67","","","","99.97","","","","-11","","NA"
"-53.11","48.67","BONAVISTA","8400601","2012-02-10 03:30","2012","02","10","03:30","-0.4","","-0.7","","98","","","","5","","74","","","","99.61","","","","-10","","NA"
"-53.11","48.67","BONAVISTA","8400601","2012-02-10 04:30","2012","02","10","04:30","-0.3","","-0.6","","98","","","","5","","67","","","","99.39","","","","-10","","NA"
"-53.11","48.67","BONAVISTA","8400601","2012-02-10 05:30","2012","02","10","05:30","-0.3","","-0.5","","99","","","","5","","59","","","","99.12","","","","-9","","NA"
"-53.11","48.67","BONAVISTA","8400601","2012-02-10 06:30","2012","02","10","06:30","-0.2","","-0.4","","99","","","","4","","37","","","","98.94","","","","-7","","NA"
"-53.11","48.67","BONAVISTA","8400601","2012-02-10 07:30","2012","02","10","07:30","-0.2","","-0.4","","99","","","","2","","44","","","","98.87","","","","-8","","NA"
"-53.11","48.67","BONAVISTA","8400601","2012-02-10 08:30","2012","02","10","08:30","-0.2","","-0.4","","99","","","","1","","35","","","","98.89","","","","-7","","NA"
"-53.11","48.67","BONAVISTA","8400601","2012-02-10 09:30","2012","02","10","09:30","-0.5","","-0.7","","99","","","","35","","35","","","","99.01","","","","-8","","NA"
"-53.11","48.67","BONAVISTA","8400601","2012-02-10 10:30","2012","02","10","10:30","-0.6","","-0.8","","99","","","","34","","56","","","","99.18","","","","-9","","NA"
"-53.11","48.67","BONAVISTA","8400601","2012-02-10 11:30","2012","02","10","11:30","-0.7","","-0.9","","99","","","","33","","61","","","","99.35","","","","-10","","NA"
"-53.11","48.67","BONAVISTA","8400601","2012-02-10 12:30","2012","02","10","12:30","-0.8","","-1.0","","99","","","","33","","69","","","","99.54","","","","-10","","NA"
"-53.11","48.67","BONAVISTA","8400601","2012-02-10 13:30","2012","02","10","13:30","-0.6","","-0.8","","99","","","","32","","72","","","","99.74","","","","-10","","NA"
"-53.11","48.67","BONAVISTA","8400601","2012-02-10 14:30","2012","02","10","14:30","-0.7","","-0.9","","99","","","","32","","63","","","","100.00","","","","-10","","NA"
"-53.11","48.67","BONAVISTA","8400601","2012-02-10 15:30","2012","02","10","15:30","-1.0","","-1.3","","98","","","","31","","59","","","","100.32","","","","-10","","NA"
"-53.11","48.67","BONAVISTA","8400601","2012-02-10 16:30","2012","02","10","16:30","-1.4","","-1.7","","98","","","","31","","57","","","","100.58","","","","-11","","NA"
"-53.11","48.67","BONAVISTA","8400601","2012-02-10 17:30","2012","02","10","17:30","-2.0","","-2.5","","96","","","","32","","56","","","","100.77","","","","-11","","NA"
"-53.11","48.67","BONAVISTA","8400601","2012-02-10 18:30","2012","02","10","18:30","-2.5","","-3.4","","94","","","","31","","57","","","","101.01","","","","-12","","NA"
"-53.11","48.67","BONAVISTA","8400601","2012-02-10 19:30","2012","02","10","19:30","-2.5","","-3.7","","91","","","","30","","44","","","","101.18","","","","-11","","NA"
"-53.11","48.67","BONAVISTA","8400601","2012-02-10 20:30","2012","02","10","20:30","-2.4","","-4.0","","89","","","","31","","39","","","","101.27","","","","-11","","NA"
"-53.11","48.67","BONAVISTA","8400601","2012-02-10 21:30","2012","02","10","21:30","-2.6","","-4.1","","89","","","","30","","33","","","","101.36","","","","-10","","NA"
"-53.11","48.67","BONAVISTA","8400601","2012-02-10 22:30","2012","02","10","22:30","-2.6","","-4.0","","90","","","","27","","24","","","","101.46","","","","-9","","NA"
"-53.11","48.67","BONAVISTA","8400601","2012-02-10 23:30","2012","02","10","23:30","-3.4","","-4.6","","91","","","","24","","22","","","","101.50","","","","-10","","NA"
"-53.11","48.67","BONAVISTA","8400601","2012-02-11 00:30","2012","02","11","00:30","-3.2","","-4.9","","88","","","","27","","32","","","","101.57","","","","-11","","NA"
"-53.11","48.67","BONAVISTA","8400601","2012-02-11 01:30","2012","02","11","01:30","-3.4","","-5.1","","88","","","","26","","24","","","","101.63","","","","-10","","NA"
"-53.11","48.67","BONAVISTA","8400601","2012-02-11 02:30","2012","02","11","02:30","-3.8","","-5.4","","89","","","","24","","20","","","","101.76","","","","-10","","NA"
"-53.11","48.67","BONAVISTA","8400601","2012-02-11 03:30","2012","02","11","03:30","-4.7","","-6.5","","87","","","","23","","20","","","","101.76","","","","-11","","NA"
"-53.11","48.67","BONAVISTA","8400601","2012-02-11 04:30","2012","02","11","04:30","-6.7","","-8.5","","87","","","","18","","11","","","","101.80","","","","-12","","NA"
"-53.11","48.67","BONAVISTA","8400601","2012-02-11 05:30","2012","02","11","05:30","-7.8","","-9.3","","89","","","","17","","13","","","","101.83","","","","-14","","NA"
"-53.11","48.67","BONAVISTA","8400601","2012-02-11 06:30","2012","02","11","06:30","-7.1","","-8.3","","91","","","","19","","15","","","","101.84","","","","-13","","NA"
"-53.11","48.67","BONAVISTA","8400601","2012-02-11 07:30","2012","02","11","07:30","-6.3","","-7.3","","93","","","","18","","17","","","","101.88","","","","-13","","NA"
"-53.11","48.67","BONAVISTA","8400601","2012-02-11 08:30","2012","02","11","08:30","-3.3","","-4.8","","89","","","","21","","22","","","","101.89","","","","-10","","NA"
"-53.11","48.67","BONAVISTA","8400601","2012-02-11 09:30","2012","02","11","09:30","-2.6","","-4.5","","87","","","","20","","13","","","","101.91","","","","-7","","NA"
"-53.11","48.67","BONAVISTA","8400601","2012-02-11 10:30","2012","02","11","10:30","-1.7","","-3.7","","86","","","","20","","20","","","","101.90","","","","-7","","NA"
"-53.11","48.67","BONAVISTA","8400601","2012-02-11 11:30","2012","02","11","11:30","-0.9","","-3.1","","85","","","","20","","33","","","","101.90","","","","-8","","NA"
"-53.11","48.67","BONAVISTA","8400601","2012-02-11 12:30","2012","02","11","12:30","-0.8","","-3.0","","85","","","","21","","32","","","","101.84","","","","-8","","NA"
"-53.11","48.67","BONAVISTA","8400601","2012-02-11 13:30","2012","02","11","13:30","-0.6","","-2.8","","85","","","","20","","30","","","","101.78","","","","-7","","NA"
"-53.11","48.67","BONAVISTA","8400601","2012-02-11 14:30","2012","02","11","14:30","-0.1","","-2.5","","84","","","","20","","33","","","","101.77","","","","-7","","NA"
"-53.11","48.67","BONAVISTA","8400601","2012-02-11 15:30","2012","02","11","15:30","0.6","","-1.9","","83","","","","19","","24","","","","101.79","","","","","","NA"
"-53.11","48.67","BONAVISTA","8400601","2012-02-11 16:30","2012","02","11","16:30","0.8","","-1.4","","85","","","","19","","13","","","","101.84","","","","","","NA"
"-53.11","48.67","BONAVISTA","8400601","2012-02-11 17:30","2012","02","11","17:30","-0.4","","-1.9","","90","","","","16","","20","","","","101.82","","","","-6","","NA"
"-53.11","48.67","BONAVISTA","8400601","2012-02-11 18:30","2012","02","11","18:30","-0.3","","-1.3","","93","","","","14","","26","","","","101.67","","","","-6","","NA"
"-53.11","48.67","BONAVISTA","8400601","2012-02-11 19:30","2012","02","11","19:30","0.1","","-0.7","","94","","","","16","","30","","","","101.67","","","","","","NA"
"-53.11","48.67","BONAVISTA","8400601","2012-02-11 20:30","2012","02","11","20:30","0.3","","-0.4","","95","","","","15","","32","","","","101.59","","","","","","NA"
"-53.11","48.67","BONAVISTA","8400601","2012-02-11 21:30","2012","02","11","21:30","0.5","","-0.1","","96","","","","16","","39","","","","101.46","","","","","","NA"
"-53.11","48.67","BONAVISTA","8400601","2012-02-11 22:30","2012","02","11","22:30","1.0","","0.3","","95","","","","17","","43","","","","101.38","","","","","","NA"
"-53.11","48.67","BONAVISTA","8400601","2012-02-11 23:30","2012","02","11","23:30","1.1","","0.5","","96","","","","17","","48","","","","101.23","","","","","","NA"
"-53.11","48.67","BONAVISTA","8400601","2012-02-12 00:30","2012","02","12","00:30","1.1","","0.2","","94","","","","16","","57","","","","101.15","","","","","","NA"
"-53.11","48.67","BONAVISTA","8400601","2012-02-12 01:30","2012","02","12","01:30","0.9","","-0.1","","93","","","","16","","61","","","","100.91","","","","","","NA"
"-53.11","48.67","BONAVISTA","8400601","2012-02-12 02:30","2012","02","12","02:30","0.7","","0.0","","95","","","","16","","59","","","","100.89","","","","","","NA"
"-53.11","48.67","BONAVISTA","8400601","2012-02-12 03:30","2012","02","12","03:30","1.1","","0.1","","93","","","","15","","46","","","","100.77","","","","","","NA"
"-53.11","48.67","BONAVISTA","8400601","2012-02-12 04:30","2012","02","12","04:30","1.4","","-0.1","","90","","","","15","","44","","","","100.49","","","","","","NA"
"-53.11","48.67","BONAVISTA","8400601","2012-02-12 05:30","2012","02","12","05:30","2.1","","0.3","","88","","","","14","","63","","","","100.05","","","","","","NA"
"-53.11","48.67","BONAVISTA","8400601","2012-02-12 06:30","2012","02","12","06:30","2.3","","0.7","","89","","","","15","","65","","","","99.85","","","","","","NA"
"-53.11","48.67","BONAVISTA","8400601","2012-02-12 07:30","2012","02","12","07:30","2.9","","1.3","","89","","","","15","","65","","","","99.67","","","","","","NA"
"-53.11","48.67","BONAVISTA","8400601","2012-02-12 08:30","2012","02","12","08:30","3.9","","2.1","","88","","","","15","","76","","","","99.51","","","","","","NA"
"-53.11","48.67","BONAVISTA","8400601","2012-02-12 09:30","2012","02","12","09:30","3.4","","2.3","","92","","","","16","","85","","","","99.32","","","","","","NA"
"-53.11","48.67","BONAVISTA","8400601","2012-02-12 10:30","2012","02","12","10:30","3.7","","2.6","","93","","","","16","","83","","","","99.24","","","","","","NA"
"-53.11","48.67","BONAVISTA","8400601","2012-02-12 11:30","2012","02","12","11:30","4.1","","3.2","","94","","","","17","","72","","","","99.20","","","","","","NA"
"-53.11","48.67","BONAVISTA","8400601","2012-02-12 12:30","2012","02","12","12:30","4.2","","3.3","","94","","","","16","","72","","","","99.07","","","","","","NA"
"-53.11","48.67","BONAVISTA","8400601","2012-02-12 13:30","2012","02","12","13:30","4.3","","3.6","","95","","","","17","","63","","","","99.01","","","","","","NA"
"-53.11","48.67","BONAVISTA","8400601","2012-02-12 14:30","2012","02","12","14:30","3.9","","3.3","","96","","","","17","","54","","","","98.91","","","","","","NA"
"-53.11","48.67","BONAVISTA","8400601","2012-02-12 15:30","2012","02","12","15:30","4.4","","3.6","","95","","","","17","","65","","","","98.79","","","","","","NA"
"-53.11","48.67","BONAVISTA","8400601","2012-02-12 16:30","2012","02","12","16:30","4.4","","3.7","","95","","","","17","","65","","","","98.76","","","","","","NA"
"-53.11","48.67","BONAVISTA","8400601","2012-02-12 17:30","2012","02","12","17:30","4.3","","3.7","","96","","","","16","","63","","","","98.73","","","","","","NA"
"-53.11","48.67","BONAVISTA","8400601","2012-02-12 18:30","2012","02","12","18:30","4.7","","4.2","","97","","","","17","","65","","","","98.65","","","","","","NA"
"-53.11","48.67","BONAVISTA","8400601","2012-02-12 19:30","2012","02","12","19:30","5.4","","4.9","","97","","","","17","","69","","","","98.51","","","","","","NA"
"-53.11","48.67","BONAVISTA","8400601","2012-02-12 20:30","2012","02","12","20:30","5.5","","4.9","","96","","","","16","","69","","","","98.40","","","","","","NA"
"-53.11","48.67","BONAVISTA","8400601","2012-02-12 21:30","2012","02","12","21:30","5.5","","5.0","","97","","","","16","","70","","","","98.25","","","","","","NA"
"-53.11","48.67","BONAVISTA","8400601","2012-02-12 22:30","2012","02","12","22:30","5.2","","4.7","","97","","","","17","","67","","","","98.21","","","","","","NA"
"-53.11","48.67","BONAVISTA","8400601","2012-02-12 23:30","2012","02","12","23:30","5.4","","4.9","","97","","","","17","","63","","","","98.18","","","","","","NA"
"-53.11","48.67","BONAVISTA","8400601","2012-02-13 00:30","2012","02","13","00:30","5.7","","5.2","","97","","","","17","","52","","","","98.19","","","","","","NA"
"-53.11","48.67","BONAVISTA","8400601","2012-02-13 01:30","2012","02","13","01:30","5.4","","4.9","","97","","","","17","","46","","","","98.05","","","","","","NA"
"-53.11","48.67","BONAVISTA","8400601","2012-02-13 02:30","2012","02","13","02:30","5.0","","4.6","","97","","","","17","","39","","","","98.09","","","","","","NA"
"-53.11","48.67","BONAVISTA","8400601","2012-02-13 03:30","2012","02","13","03:30","5.6","","5.1","","97","","","","18","","32","","","","98.11","","","","","","NA"
"-53.11","48.67","BONAVISTA","8400601","2012-02-13 04:30","2012","02","13","04:30","4.3","","3.3","","93","","","","21","","33","","","","98.27","","","","","","NA"
"-53.11","48.67","BONAVISTA","8400601","2012-02-13 05:30","2012","02","13","05:30","2.3","","1.6","","95","","","","22","","30","","","","98.27","","","","","","NA"
"-53.11","48.67","BONAVISTA","8400601","2012-02-13 06:30","2012","02","13","06:30","1.4","","0.6","","94","","","","22","","35","","","","98.58","","","","","","NA"
"-53.11","48.67","BONAVISTA","8400601","2012-02-13 07:30","2012","02","13","07:30","0.8","","-0.3","","92","","","","22","","37","","","","98.78","","","","","","NA"
"-53.11","48.67","BONAVISTA","8400601","2012-02-13 08:30","2012","02","13","08:30","0.6","","-0.9","","90","","","","23","","39","","","","98.87","","","","","","NA"
"-53.11","48.67","BONAVISTA","8400601","2012-02-13 09:30","2012","02","13","09:30","-1.3","","-3.8","","83","","","","24","","56","","","","99.11","","","","-10","","NA"
"-53.11","48.67","BONAVISTA","8400601","2012-02-13 10:30","2012","02","13","10:30","-2.2","","-6.9","","70","","","","25","","59","","","","99.27","","","","-12","","NA"
"-53.11","48.67","BONAVISTA","8400601","2012-02-13 11:30","2012","02","13","11:30","-2.1","","-6.1","","74","","","","24","","35","","","","99.36","","","","-10","","NA"
"-53.11","48.67","BONAVISTA","8400601","2012-02-13 12:30","2012","02","13","12:30","-2.3","","-5.2","","80","","","","25","","32","","","","99.41","","","","-10","","NA"
"-53.11","48.67","BONAVISTA","8400601","2012-02-13 13:30","2012","02","13","13:30","-2.2","","-5.7","","77","","","","23","","43","","","","99.46","","","","-11","","NA"
"-53.11","48.67","BONAVISTA","8400601","2012-02-13 14:30","2012","02","13","14:30","-2.5","","-8.6","","63","","","","23","","50","","","","99.56","","","","-12","","NA"
"-53.11","48.67","BONAVISTA","8400601","2012-02-13 15:30","2012","02","13","15:30","-2.9","","-9.8","","59","","","","23","","54","","","","99.60","","","","-12","","NA"
"-53.11","48.67","BONAVISTA","8400601","2012-02-13 16:30","2012","02","13","16:30","-3.4","","-10.2","","59","","","","22","","54","","","","99.67","","","","-13","","NA"
"-53.11","48.67","BONAVISTA","8400601","2012-02-13 17:30","2012","02","13","17:30","-4.4","","-9.9","","65","","","","22","","50","","","","99.84","","","","-14","","NA"
"-53.11","48.67","BONAVISTA","8400601","2012-02-13 18:30","2012","02","13","18:30","-5.7","","-10.8","","67","","","","23","","61","","","","100.02","","","","-17","","NA"
"-53.11","48.67","BONAVISTA","8400601","2012-02-13 19:30","2012","02","13","19:30","-7.0","","-11.9","","68","","","","23","","56","","","","100.19","","","","-18","","NA"
"-53.11","48.67","BONAVISTA","8400601","2012-02-13 20:30","2012","02","13","20:30","-7.7","","-11.2","","76","","","","24","","54","","","","100.34","","","","-19","","NA"
"-53.11","48.67","BONAVISTA","8400601","2012-02-13 21:30","2012","02","13","21:30","-7.9","","-11.9","","73","","","","25","","44","","","","100.53","","","","-18","","NA"
"-53.11","48.67","BONAVISTA","8400601","2012-02-13 22:30","2012","02","13","22:30","-8.6","","-13.3","","69","","","","24","","37","","","","100.62","","","","-19","","NA"
"-53.11","48.67","BONAVISTA","8400601","2012-02-13 23:30","2012","02","13","23:30","-9.9","","-14.1","","71","","","","19","","24","","","","100.65","","","","-18","","NA"
"-53.11","48.67","BONAVISTA","8400601","2012-02-14 00:30","2012","02","14","00:30","-10.0","","-14.1","","72","","","","19","","22","","","","100.65","","","","-18","","NA"
"-53.11","48.67","BONAVISTA","8400601","2012-02-14 01:30","2012","02","14","01:30","-9.6","","-12.8","","77","","","","17","","17","","","","100.60","","","","-17","","NA"
"-53.11","48.67","BONAVISTA","8400601","2012-02-14 02:30","2012","02","14","02:30","-6.0","","-10.0","","73","","","","18","","32","","","","100.56","","","","-15","","NA"
"-53.11","48.67","BONAVISTA","8400601","2012-02-14 03:30","2012","02","14","03:30","-4.8","","-8.1","","78","","","","18","","39","","","","100.52","","","","-14","","NA"
"-53.11","48.67","BONAVISTA","8400601","2012-02-14 04:30","2012","02","14","04:30","-4.4","","-5.6","","91","","","","20","","41","","","","100.64","","","","-13","","NA"
"-53.11","48.67","BONAVISTA","8400601","2012-02-14 05:30","2012","02","14","05:30","-4.7","","-8.0","","78","","","","23","","39","","","","100.80","","","","-14","","NA"
"-53.11","48.67","BONAVISTA","8400601","2012-02-14 06:30","2012","02","14","06:30","-6.0","","-8.6","","82","","","","27","","33","","","","100.95","","","","-15","","NA"
"-53.11","48.67","BONAVISTA","8400601","2012-02-14 07:30","2012","02","14","07:30","-6.3","","-10.3","","73","","","","26","","33","","","","101.04","","","","-15","","NA"
"-53.11","48.67","BONAVISTA","8400601","2012-02-14 08:30","2012","02","14","08:30","-6.4","","-10.7","","71","","","","25","","30","","","","101.15","","","","-15","","NA"
"-53.11","48.67","BONAVISTA","8400601","2012-02-14 09:30","2012","02","14","09:30","-6.2","","-11.2","","68","","","","23","","32","","","","101.23","","","","-15","","NA"
"-53.11","48.67","BONAVISTA","8400601","2012-02-14 10:30","2012","02","14","10:30","-5.2","","-11.2","","63","","","","23","","41","","","","101.31","","","","-14","","NA"
"-53.11","48.67","BONAVISTA","8400601","2012-02-14 11:30","2012","02","14","11:30","-4.9","","-10.3","","66","","","","23","","46","","","","101.37","","","","-14","","NA"
"-53.11","48.67","BONAVISTA","8400601","2012-02-14 12:30","2012","02","14","12:30","-4.5","","-10.6","","62","","","","25","","44","","","","101.36","","","","-14","","NA"
"-53.11","48.67","BONAVISTA","8400601","2012-02-14 13:30","2012","02","14","13:30","-4.2","","-10.9","","60","","","","24","","41","","","","101.39","","","","-13","","NA"
"-53.11","48.67","BONAVISTA","8400601","2012-02-14 14:30","2012","02","14","14:30","-3.8","","-9.2","","66","","","","24","","39","","","","101.48","","","","-12","","NA"
"-53.11","48.67","BONAVISTA","8400601","2012-02-14 15:30","2012","02","14","15:30","-4.0","","-9.2","","67","","","","26","","37","","","","101.59","","","","-12","","NA"
"-53.11","48.67","BONAVISTA","8400601","2012-02-14 16:30","2012","02","14","16:30","-4.0","","-10.0","","63","","","","24","","39","","","","101.68","","","","-13","","NA"
"-53.11","48.67","BONAVISTA","8400601","2012-02-14 17:30","2012","02","14","17:30","-4.5","","-10.7","","62","","","","24","","43","","","","101.79","","","","-14","","NA"
"-53.11","48.67","BONAVISTA","8400601","2012-02-14 18:30","2012","02","14","18:30","-4.9","","-10.7","","64","","","","24","","41","","","","101.95","","","","-14","","NA"
"-53.11","48.67","BONAVISTA","8400601","2012-02-14 19:30","2012","02","14","19:30","-5.5","","-10.8","","66","","","","24","","39","","","","102.07","","","","-15","","NA"
"-53.11","48.67","BONAVISTA","8400601","2012-02-14 20:30","2012","02","14","20:30","-5.9","","-10.9","","68","","","","24","","35","","","","102.23","","","","-15","","NA"
"-53.11","48.67","BONAVISTA","8400601","2012-02-14 21:30","2012","02","14","21:30","-6.3","","-11.0","","69","","","","26","","43","","","","102.33","","","","-16","","NA"
"-53.11","48.67","BONAVISTA","8400601","2012-02-14 22:30","2012","02","14","22:30","-6.9","","-11.7","","69","","","","25","","39","","","","102.42","","","","-17","","NA"
"-53.11","48.67","BONAVISTA","8400601","2012-02-14 23:30","2012","02","14","23:30","-7.1","","-12.6","","65","","","","26","","37","","","","102.53","","","","-17","","NA"
"-53.11","48.67","BONAVISTA","8400601","2012-02-15 00:30","2012","02","15","00:30","-7.2","","-12.3","","67","","","","25","","35","","","","102.62","","","","-16","","NA"
"-53.11","48.67","BONAVISTA","8400601","2012-02-15 01:30","2012","02","15","01:30","-7.9","","-11.0","","78","","","","23","","28","","","","102.67","","","","-17","","NA"
"-53.11","48.67","BONAVISTA","8400601","2012-02-15 02:30","2012","02","15","02:30","-8.1","","-11.1","","79","","","","23","","26","","","","102.71","","","","-16","","NA"
"-53.11","48.67","BONAVISTA","8400601","2012-02-15 03:30","2012","02","15","03:30","-7.5","","-10.6","","78","","","","22","","24","","","","102.75","","","","-15","","NA"
"-53.11","48.67","BONAVISTA","8400601","2012-02-15 04:30","2012","02","15","04:30","-8.0","","-11.0","","79","","","","20","","20","","","","102.79","","","","-15","","NA"
"-53.11","48.67","BONAVISTA","8400601","2012-02-15 05:30","2012","02","15","05:30","-7.7","","-10.6","","80","","","","20","","19","","","","102.81","","","","-15","","NA"
"-53.11","48.67","BONAVISTA","8400601","2012-02-15 06:30","2012","02","15","06:30","-6.3","","-8.9","","82","","","","22","","22","","","","102.81","","","","-14","","NA"
"-53.11","48.67","BONAVISTA","8400601","2012-02-15 07:30","2012","02","15","07:30","-5.8","","-9.0","","78","","","","21","","24","","","","102.83","","","","-13","","NA"
"-53.11","48.67","BONAVISTA","8400601","2012-02-15 08:30","2012","02","15","08:30","-5.2","","-8.6","","77","","","","16","","15","","","","102.88","","","","-11","","NA"
"-53.11","48.67","BONAVISTA","8400601","2012-02-15 09:30","2012","02","15","09:30","-4.0","","-6.6","","82","","","","18","","26","","","","102.85","","","","-11","","NA"
"-53.11","48.67","BONAVISTA","8400601","2012-02-15 10:30","2012","02","15","10:30","-1.8","","-6.0","","73","","","","19","","28","","","","102.80","","","","-9","","NA"
"-53.11","48.67","BONAVISTA","8400601","2012-02-15 11:30","2012","02","15","11:30","0.1","","-6.7","","60","","","","19","","26","","","","102.81","","","","","","NA"
"-53.11","48.67","BONAVISTA","8400601","2012-02-15 12:30","2012","02","15","12:30","-0.6","","-6.8","","63","","","","20","","22","","","","102.76","","","","-6","","NA"
"-53.11","48.67","BONAVISTA","8400601","2012-02-15 13:30","2012","02","15","13:30","-0.6","","-6.9","","62","","","","21","","22","","","","102.74","","","","-6","","NA"
"-53.11","48.67","BONAVISTA","8400601","2012-02-15 14:30","2012","02","15","14:30","0.5","","-7.3","","56","","","","19","","19","","","","102.71","","","","","","NA"
"-53.11","48.67","BONAVISTA","8400601","2012-02-15 15:30","2012","02","15","15:30","0.1","","-6.7","","60","","","","19","","15","","","","102.71","","","","","","NA"
"-53.11","48.67","BONAVISTA","8400601","2012-02-15 16:30","2012","02","15","16:30","-0.1","","-6.0","","64","","","","15","","13","","","","102.63","","","","-4","","NA"
"-53.11","48.67","BONAVISTA","8400601","2012-02-15 17:30","2012","02","15","17:30","-0.9","","-5.3","","72","","","","15","","19","","","","102.59","","","","-6","","NA"
"-53.11","48.67","BONAVISTA","8400601","2012-02-15 18:30","2012","02","15","18:30","-0.8","","-3.3","","83","","","","16","","15","","","","102.60","","","","-5","","NA"
"-53.11","48.67","BONAVISTA","8400601","2012-02-15 19:30","2012","02","15","19:30","-0.8","","-2.8","","86","","","","16","","15","","","","102.60","","","","-5","","NA"
"-53.11","48.67","BONAVISTA","8400601","2012-02-15 20:30","2012","02","15","20:30","-0.7","","-2.6","","87","","","","16","","28","","","","102.54","","","","-7","","NA"
"-53.11","48.67","BONAVISTA","8400601","2012-02-15 21:30","2012","02","15","21:30","-0.8","","-2.2","","90","","","","18","","15","","","","102.51","","","","-5","","NA"
"-53.11","48.67","BONAVISTA","8400601","2012-02-15 22:30","2012","02","15","22:30","-1.2","","-2.2","","93","","","","16","","15","","","","102.47","","","","-6","","NA"
"-53.11","48.67","BONAVISTA","8400601","2012-02-15 23:30","2012","02","15","23:30","-1.5","","-2.1","","96","","","","15","","13","","","","102.41","","","","-6","","NA"
"-53.11","48.67","BONAVISTA","8400601","2012-02-16 00:30","2012","02","16","00:30","-1.3","","-1.8","","96","","","","15","","19","","","","102.33","","","","-7","","NA"
"-53.11","48.67","BONAVISTA","8400601","2012-02-16 01:30","2012","02","16","01:30","-1.4","","-1.8","","97","","","","13","","28","","","","102.25","","","","-8","","NA"
"-53.11","48.67","BONAVISTA","8400601","2012-02-16 02:30","2012","02","16","02:30","-1.1","","-1.5","","97","","","","13","","22","","","","102.17","","","","-7","","NA"
"-53.11","48.67","BONAVISTA","8400601","2012-02-16 03:30","2012","02","16","03:30","-0.9","","-1.4","","96","","","","14","","28","","","","102.12","","","","-7","","NA"
"-53.11","48.67","BONAVISTA","8400601","2012-02-16 04:30","2012","02","16","04:30","-0.9","","-1.5","","96","","","","11","","30","","","","102.06","","","","-8","","NA"
"-53.11","48.67","BONAVISTA","8400601","2012-02-16 05:30","2012","02","16","05:30","-1.1","","-1.6","","96","","","","11","","30","","","","102.03","","","","-8","","NA"
"-53.11","48.67","BONAVISTA","8400601","2012-02-16 06:30","2012","02","16","06:30","-0.8","","-1.2","","97","","","","11","","33","","","","101.97","","","","-8","","NA"
"-53.11","48.67","BONAVISTA","8400601","2012-02-16 07:30","2012","02","16","07:30","-0.8","","-1.1","","98","","","","11","","30","","","","101.94","","","","-8","","NA"
"-53.11","48.67","BONAVISTA","8400601","2012-02-16 08:30","2012","02","16","08:30","-0.7","","-1.0","","98","","","","11","","32","","","","101.90","","","","-8","","NA"
"-53.11","48.67","BONAVISTA","8400601","2012-02-16 09:30","2012","02","16","09:30","-0.7","","-1.0","","98","","","","11","","32","","","","101.87","","","","-8","","NA"
"-53.11","48.67","BONAVISTA","8400601","2012-02-16 10:30","2012","02","16","10:30","-0.5","","-0.8","","98","","","","11","","28","","","","101.85","","","","-7","","NA"
"-53.11","48.67","BONAVISTA","8400601","2012-02-16 11:30","2012","02","16","11:30","-0.5","","-0.8","","98","","","","11","","26","","","","101.80","","","","-7","","NA"
"-53.11","48.67","BONAVISTA","8400601","2012-02-16 12:30","2012","02","16","12:30","-0.5","","-0.8","","98","","","","10","","26","","","","101.71","","","","-7","","NA"
"-53.11","48.67","BONAVISTA","8400601","2012-02-16 13:30","2012","02","16","13:30","-0.7","","-1.0","","98","","","","9","","22","","","","101.63","","","","-6","","NA"
"-53.11","48.67","BONAVISTA","8400601","2012-02-16 14:30","2012","02","16","14:30","-0.6","","-0.9","","98","","","","10","","19","","","","101.56","","","","-6","","NA"
"-53.11","48.67","BONAVISTA","8400601","2012-02-16 15:30","2012","02","16","15:30","-0.6","","-0.9","","98","","","","10","","20","","","","101.52","","","","-6","","NA"
"-53.11","48.67","BONAVISTA","8400601","2012-02-16 16:30","2012","02","16","16:30","-0.6","","-0.9","","98","","","","10","","11","","","","101.48","","","","-4","","NA"
"-53.11","48.67","BONAVISTA","8400601","2012-02-16 17:30","2012","02","16","17:30","-0.5","","-0.8","","98","","","","9","","11","","","","101.41","","","","-4","","NA"
"-53.11","48.67","BONAVISTA","8400601","2012-02-16 18:30","2012","02","16","18:30","-0.5","","-0.8","","98","","","","9","","13","","","","101.34","","","","-5","","NA"
"-53.11","48.67","BONAVISTA","8400601","2012-02-16 19:30","2012","02","16","19:30","-0.4","","-0.7","","98","","","","9","","9","","","","101.29","","","","-4","","NA"
"-53.11","48.67","BONAVISTA","8400601","2012-02-16 20:30","2012","02","16","20:30","-0.3","","-0.6","","98","","","","9","","7","","","","101.19","","","","-3","","NA"
"-53.11","48.67","BONAVISTA","8400601","2012-02-16 21:30","2012","02","16","21:30","-0.3","","-0.6","","98","","","","9","","6","","","","101.08","","","","-2","","NA"
"-53.11","48.67","BONAVISTA","8400601","2012-02-16 22:30","2012","02","16","22:30","-0.3","","-0.6","","98","","","","9","","4","","","","100.94","","","","-2","","NA"
"-53.11","48.67","BONAVISTA","8400601","2012-02-16 23:30","2012","02","16","23:30","-0.2","","-0.5","","98","","","","9","","6","","","","100.74","","","","-2","","NA"
"-53.11","48.67","BONAVISTA","8400601","2012-02-17 00:30","2012","02","17","00:30","0.1","","-0.2","","98","","","","11","","6","","","","100.58","","","","","","NA"
"-53.11","48.67","BONAVISTA","8400601","2012-02-17 01:30","2012","02","17","01:30","0.2","","-0.1","","98","","","","11","","6","","","","100.47","","","","","","NA"
"-53.11","48.67","BONAVISTA","8400601","2012-02-17 02:30","2012","02","17","02:30","0.7","","0.4","","98","","","","12","","28","","","","100.37","","","","","","NA"
"-53.11","48.67","BONAVISTA","8400601","2012-02-17 03:30","2012","02","17","03:30","1.0","","0.7","","98","","","","13","","28","","","","100.24","","","","","","NA"
"-53.11","48.67","BONAVISTA","8400601","2012-02-17 04:30","2012","02","17","04:30","1.6","","1.2","","97","","","","14","","32","","","","100.15","","","","","","NA"
"-53.11","48.67","BONAVISTA","8400601","2012-02-17 05:30","2012","02","17","05:30","1.7","","1.3","","97","","","","16","","32","","","","100.08","","","","","","NA"
"-53.11","48.67","BONAVISTA","8400601","2012-02-17 06:30","2012","02","17","06:30","1.2","","0.9","","98","","","","22","","17","","","","100.07","","","","","","NA"
"-53.11","48.67","BONAVISTA","8400601","2012-02-17 07:30","2012","02","17","07:30","-0.4","","-0.7","","98","","","","24","","19","","","","100.11","","","","-6","","NA"
"-53.11","48.67","BONAVISTA","8400601","2012-02-17 08:30","2012","02","17","08:30","-0.3","","-0.6","","98","","","","25","","20","","","","100.18","","","","-6","","NA"
"-53.11","48.67","BONAVISTA","8400601","2012-02-17 09:30","2012","02","17","09:30","-0.3","","-0.6","","98","","","","24","","19","","","","100.22","","","","-5","","NA"
"-53.11","48.67","BONAVISTA","8400601","2012-02-17 10:30","2012","02","17","10:30","-0.5","","-0.9","","97","","","","26","","28","","","","100.27","","","","-7","","NA"
"-53.11","48.67","BONAVISTA","8400601","2012-02-17 11:30","2012","02","17","11:30","-0.2","","-1.0","","94","","","","26","","30","","","","100.36","","","","-7","","NA"
"-53.11","48.67","BONAVISTA","8400601","2012-02-17 12:30","2012","02","17","12:30","-0.1","","-1.3","","92","","","","26","","30","","","","100.38","","","","-7","","NA"
"-53.11","48.67","BONAVISTA","8400601","2012-02-17 13:30","2012","02","17","13:30","-0.1","","-1.4","","91","","","","28","","30","","","","100.38","","","","-7","","NA"
"-53.11","48.67","BONAVISTA","8400601","2012-02-17 14:30","2012","02","17","14:30","-0.1","","-1.3","","92","","","","29","","30","","","","100.39","","","","-7","","NA"
"-53.11","48.67","BONAVISTA","8400601","2012-02-17 15:30","2012","02","17","15:30","-0.3","","-1.3","","93","","","","31","","20","","","","100.45","","","","-6","","NA"
"-53.11","48.67","BONAVISTA","8400601","2012-02-17 16:30","2012","02","17","16:30","-0.6","","-1.5","","94","","","","33","","22","","","","100.46","","","","-6","","NA"
"-53.11","48.67","BONAVISTA","8400601","2012-02-17 17:30","2012","02","17","17:30","-1.2","","-2.2","","93","","","","34","","32","","","","100.51","","","","-8","","NA"
"-53.11","48.67","BONAVISTA","8400601","2012-02-17 18:30","2012","02","17","18:30","-1.6","","-2.3","","95","","","","34","","32","","","","100.54","","","","-9","","NA"
"-53.11","48.67","BONAVISTA","8400601","2012-02-17 19:30","2012","02","17","19:30","-1.9","","-2.8","","94","","","","34","","37","","","","100.51","","","","-10","","NA"
"-53.11","48.67","BONAVISTA","8400601","2012-02-17 20:30","2012","02","17","20:30","-2.1","","-2.8","","95","","","","33","","41","","","","100.46","","","","-10","","NA"
"-53.11","48.67","BONAVISTA","8400601","2012-02-17 21:30","2012","02","17","21:30","-2.2","","-2.9","","95","","","","33","","44","","","","100.44","","","","-11","","NA"
"-53.11","48.67","BONAVISTA","8400601","2012-02-17 22:30","2012","02","17","22:30","-2.3","","-3.2","","94","","","","33","","44","","","","100.39","","","","-11","","NA"
"-53.11","48.67","BONAVISTA","8400601","2012-02-17 23:30","2012","02","17","23:30","-2.4","","-3.2","","94","","","","33","","43","","","","100.36","","","","-11","","NA"
"-53.11","48.67","BONAVISTA","8400601","2012-02-18 00:30","2012","02","18","00:30","-2.5","","-3.3","","94","","","","32","","41","","","","100.33","","","","-11","","NA"
"-53.11","48.67","BONAVISTA","8400601","2012-02-18 01:30","2012","02","18","01:30","-2.5","","-3.4","","94","","","","32","","39","","","","100.34","","","","-11","","NA"
"-53.11","48.67","BONAVISTA","8400601","2012-02-18 02:30","2012","02","18","02:30","-2.4","","-3.4","","93","","","","32","","39","","","","100.35","","","","-11","","NA"
"-53.11","48.67","BONAVISTA","8400601","2012-02-18 03:30","2012","02","18","03:30","-2.3","","-3.4","","92","","","","31","","37","","","","100.37","","","","-10","","NA"
"-53.11","48.67","BONAVISTA","8400601","2012-02-18 04:30","2012","02","18","04:30","-2.2","","-3.4","","91","","","","32","","37","","","","100.39","","","","-10","","NA"
"-53.11","48.67","BONAVISTA","8400601","2012-02-18 05:30","2012","02","18","05:30","-1.9","","-3.2","","91","","","","31","","33","","","","100.41","","","","-9","","NA"
"-53.11","48.67","BONAVISTA","8400601","2012-02-18 06:30","2012","02","18","06:30","-1.8","","-3.2","","90","","","","29","","28","","","","100.45","","","","-9","","NA"
"-53.11","48.67","BONAVISTA","8400601","2012-02-18 07:30","2012","02","18","07:30","-2.2","","-3.8","","89","","","","31","","24","","","","100.46","","","","-9","","NA"
"-53.11","48.67","BONAVISTA","8400601","2012-02-18 08:30","2012","02","18","08:30","-2.0","","-3.8","","87","","","","28","","20","","","","100.53","","","","-8","","NA"
"-53.11","48.67","BONAVISTA","8400601","2012-02-18 09:30","2012","02","18","09:30","-1.6","","-4.2","","82","","","","27","","20","","","","100.53","","","","-7","","NA"
"-53.11","48.67","BONAVISTA","8400601","2012-02-18 10:30","2012","02","18","10:30","-1.2","","-4.1","","81","","","","27","","20","","","","100.59","","","","-7","","NA"
"-53.11","48.67","BONAVISTA","8400601","2012-02-18 11:30","2012","02","18","11:30","-0.8","","-4.3","","77","","","","26","","17","","","","100.58","","","","-6","","NA"
"-53.11","48.67","BONAVISTA","8400601","2012-02-18 12:30","2012","02","18","12:30","-0.4","","-4.5","","74","","","","28","","7","","","","100.45","","","","-3","","NA"
"-53.11","48.67","BONAVISTA","8400601","2012-02-18 13:30","2012","02","18","13:30","-1.0","","-4.4","","78","","","","2","","9","","","","100.33","","","","-4","","NA"
"-53.11","48.67","BONAVISTA","8400601","2012-02-18 14:30","2012","02","18","14:30","-0.8","","-4.3","","77","","","","9","","13","","","","100.33","","","","-5","","NA"
"-53.11","48.67","BONAVISTA","8400601","2012-02-18 15:30","2012","02","18","15:30","-0.7","","-3.6","","81","","","","12","","17","","","","100.27","","","","-6","","NA"
"-53.11","48.67","BONAVISTA","8400601","2012-02-18 16:30","2012","02","18","16:30","-1.1","","-3.2","","86","","","","14","","19","","","","100.21","","","","-6","","NA"
"-53.11","48.67","BONAVISTA","8400601","2012-02-18 17:30","2012","02","18","17:30","-1.5","","-3.4","","87","","","","13","","22","","","","100.13","","","","-7","","NA"
"-53.11","48.67","BONAVISTA","8400601","2012-02-18 18:30","2012","02","18","18:30","-1.7","","-3.2","","89","","","","13","","26","","","","100.03","","","","-8","","NA"
"-53.11","48.67","BONAVISTA","8400601","2012-02-18 19:30","2012","02","18","19:30","-1.7","","-3.0","","91","","","","13","","32","","","","99.95","","","","-9","","NA"
"-53.11","48.67","BONAVISTA","8400601","2012-02-18 20:30","2012","02","18","20:30","-1.7","","-2.7","","93","","","","12","","33","","","","99.80","","","","-9","","NA"
"-53.11","48.67","BONAVISTA","8400601","2012-02-18 21:30","2012","02","18","21:30","-1.4","","-2.5","","92","","","","10","","35","","","","99.63","","","","-9","","NA"
"-53.11","48.67","BONAVISTA","8400601","2012-02-18 22:30","2012","02","18","22:30","-1.6","","-2.2","","96","","","","10","","48","","","","99.37","","","","-10","","NA"
"-53.11","48.67","BONAVISTA","8400601","2012-02-18 23:30","2012","02","18","23:30","-1.4","","-1.7","","98","","","","10","","48","","","","99.17","","","","-10","","NA"
"-53.11","48.67","BONAVISTA","8400601","2012-02-19 00:30","2012","02","19","00:30","-1.0","","-1.3","","98","","","","10","","48","","","","98.94","","","","-9","","NA"
"-53.11","48.67","BONAVISTA","8400601","2012-02-19 01:30","2012","02","19","01:30","-0.5","","-0.8","","98","","","","11","","39","","","","98.83","","","","-8","","NA"
"-53.11","48.67","BONAVISTA","8400601","2012-02-19 02:30","2012","02","19","02:30","0.2","","-0.1","","98","","","","14","","39","","","","98.65","","","","","","NA"
"-53.11","48.67","BONAVISTA","8400601","2012-02-19 03:30","2012","02","19","03:30","0.2","","-0.2","","97","","","","19","","30","","","","98.61","","","","","","NA"
"-53.11","48.67","BONAVISTA","8400601","2012-02-19 04:30","2012","02","19","04:30","0.2","","-0.6","","94","","","","18","","33","","","","98.53","","","","","","NA"
"-53.11","48.67","BONAVISTA","8400601","2012-02-19 05:30","2012","02","19","05:30","0.0","","-0.9","","94","","","","17","","32","","","","98.41","","","","-7","","NA"
"-53.11","48.67","BONAVISTA","8400601","2012-02-19 06:30","2012","02","19","06:30","0.1","","-0.8","","94","","","","18","","35","","","","98.30","","","","","","NA"
"-53.11","48.67","BONAVISTA","8400601","2012-02-19 07:30","2012","02","19","07:30","0.5","","-0.9","","90","","","","19","","48","","","","98.25","","","","","","NA"
"-53.11","48.67","BONAVISTA","8400601","2012-02-19 08:30","2012","02","19","08:30","0.4","","-1.1","","90","","","","19","","46","","","","98.21","","","","","","NA"
"-53.11","48.67","BONAVISTA","8400601","2012-02-19 09:30","2012","02","19","09:30","0.5","","-1.4","","87","","","","19","","43","","","","98.22","","","","","","NA"
"-53.11","48.67","BONAVISTA","8400601","2012-02-19 10:30","2012","02","19","10:30","0.7","","-1.7","","84","","","","20","","37","","","","98.20","","","","","","NA"
"-53.11","48.67","BONAVISTA","8400601","2012-02-19 11:30","2012","02","19","11:30","0.8","","-2.0","","82","","","","22","","46","","","","98.17","","","","","","NA"
"-53.11","48.67","BONAVISTA","8400601","2012-02-19 12:30","2012","02","19","12:30","0.9","","-2.9","","76","","","","22","","50","","","","98.13","","","","","","NA"
"-53.11","48.67","BONAVISTA","8400601","2012-02-19 13:30","2012","02","19","13:30","0.6","","-2.7","","79","","","","23","","41","","","","98.12","","","","","","NA"
"-53.11","48.67","BONAVISTA","8400601","2012-02-19 14:30","2012","02","19","14:30","0.6","","-3.3","","75","","","","24","","33","","","","98.07","","","","","","NA"
"-53.11","48.67","BONAVISTA","8400601","2012-02-19 15:30","2012","02","19","15:30","-0.4","","-3.1","","82","","","","24","","48","","","","98.08","","","","-9","","NA"
"-53.11","48.67","BONAVISTA","8400601","2012-02-19 16:30","2012","02","19","16:30","-0.2","","-3.4","","79","","","","23","","54","","","","98.08","","","","-9","","NA"
"-53.11","48.67","BONAVISTA","8400601","2012-02-19 17:30","2012","02","19","17:30","-0.2","","-3.5","","78","","","","23","","54","","","","98.09","","","","-9","","NA"
"-53.11","48.67","BONAVISTA","8400601","2012-02-19 18:30","2012","02","19","18:30","-0.8","","-3.6","","81","","","","23","","50","","","","98.13","","","","-9","","NA"
"-53.11","48.67","BONAVISTA","8400601","2012-02-19 19:30","2012","02","19","19:30","-0.9","","-3.4","","83","","","","23","","56","","","","98.14","","","","-10","","NA"
"-53.11","48.67","BONAVISTA","8400601","2012-02-19 20:30","2012","02","19","20:30","-0.7","","-3.4","","82","","","","23","","56","","","","98.17","","","","-9","","NA"
"-53.11","48.67","BONAVISTA","8400601","2012-02-19 21:30","2012","02","19","21:30","-0.7","","-3.4","","82","","","","24","","52","","","","98.22","","","","-9","","NA"
"-53.11","48.67","BONAVISTA","8400601","2012-02-19 22:30","2012","02","19","22:30","-0.9","","-3.6","","82","","","","25","","57","","","","98.22","","","","-10","","NA"
"-53.11","48.67","BONAVISTA","8400601","2012-02-19 23:30","2012","02","19","23:30","-1.1","","-3.6","","83","","","","26","","59","","","","98.28","","","","-10","","NA"
"-53.11","48.67","BONAVISTA","8400601","2012-02-20 00:30","2012","02","20","00:30","-1.6","","-4.3","","82","","","","26","","69","","","","98.32","","","","-12","","NA"
"-53.11","48.67","BONAVISTA","8400601","2012-02-20 01:30","2012","02","20","01:30","-1.9","","-4.5","","82","","","","26","","67","","","","98.42","","","","-12","","NA"
"-53.11","48.67","BONAVISTA","8400601","2012-02-20 02:30","2012","02","20","02:30","-2.4","","-4.9","","83","","","","27","","67","","","","98.50","","","","-13","","NA"
"-53.11","48.67","BONAVISTA","8400601","2012-02-20 03:30","2012","02","20","03:30","-2.8","","-5.4","","82","","","","27","","69","","","","98.58","","","","-13","","NA"
"-53.11","48.67","BONAVISTA","8400601","2012-02-20 04:30","2012","02","20","04:30","-3.0","","-5.5","","83","","","","27","","69","","","","98.71","","","","-13","","NA"
"-53.11","48.67","BONAVISTA","8400601","2012-02-20 05:30","2012","02","20","05:30","-3.1","","-6.0","","80","","","","27","","61","","","","98.84","","","","-13","","NA"
"-53.11","48.67","BONAVISTA","8400601","2012-02-20 06:30","2012","02","20","06:30","-3.4","","-6.1","","82","","","","28","","57","","","","98.91","","","","-13","","NA"
"-53.11","48.67","BONAVISTA","8400601","2012-02-20 07:30","2012","02","20","07:30","-3.5","","-6.2","","82","","","","27","","59","","","","99.05","","","","-14","","NA"
"-53.11","48.67","BONAVISTA","8400601","2012-02-20 08:30","2012","02","20","08:30","-3.5","","-6.4","","80","","","","27","","57","","","","99.18","","","","-13","","NA"
"-53.11","48.67","BONAVISTA","8400601","2012-02-20 09:30","2012","02","20","09:30","-3.6","","-6.9","","78","","","","27","","54","","","","99.29","","","","-13","","NA"
"-53.11","48.67","BONAVISTA","8400601","2012-02-20 10:30","2012","02","20","10:30","-3.4","","-7.1","","76","","","","28","","48","","","","99.36","","","","-13","","NA"
"-53.11","48.67","BONAVISTA","8400601","2012-02-20 11:30","2012","02","20","11:30","-2.7","","-6.5","","75","","","","27","","46","","","","99.39","","","","-12","","NA"
"-53.11","48.67","BONAVISTA","8400601","2012-02-20 12:30","2012","02","20","12:30","-2.1","","-6.3","","73","","","","27","","50","","","","99.36","","","","-11","","NA"
"-53.11","48.67","BONAVISTA","8400601","2012-02-20 13:30","2012","02","20","13:30","-1.9","","-6.5","","71","","","","28","","44","","","","99.35","","","","-10","","NA"
"-53.11","48.67","BONAVISTA","8400601","2012-02-20 14:30","2012","02","20","14:30","-1.8","","-6.4","","71","","","","28","","44","","","","99.44","","","","-10","","NA"
"-53.11","48.67","BONAVISTA","8400601","2012-02-20 15:30","2012","02","20","15:30","-1.8","","-6.0","","73","","","","28","","41","","","","99.54","","","","-10","","NA"
"-53.11","48.67","BONAVISTA","8400601","2012-02-20 16:30","2012","02","20","16:30","-1.7","","-5.7","","74","","","","29","","41","","","","99.56","","","","-10","","NA"
"-53.11","48.67","BONAVISTA","8400601","2012-02-20 17:30","2012","02","20","17:30","-1.7","","-5.9","","73","","","","29","","39","","","","99.63","","","","-10","","NA"
"-53.11","48.67","BONAVISTA","8400601","2012-02-20 18:30","2012","02","20","18:30","-2.3","","-5.6","","78","","","","31","","39","","","","99.71","","","","-10","","NA"
"-53.11","48.67","BONAVISTA","8400601","2012-02-20 19:30","2012","02","20","19:30","-2.9","","-6.6","","76","","","","32","","48","","","","99.80","","","","-12","","NA"
"-53.11","48.67","BONAVISTA","8400601","2012-02-20 20:30","2012","02","20","20:30","-3.6","","-6.6","","80","","","","33","","41","","","","99.86","","","","-12","","NA"
"-53.11","48.67","BONAVISTA","8400601","2012-02-20 21:30","2012","02","20","21:30","-4.0","","-8.1","","73","","","","32","","41","","","","99.91","","","","-13","","NA"
"-53.11","48.67","BONAVISTA","8400601","2012-02-20 22:30","2012","02","20","22:30","-3.9","","-7.4","","77","","","","31","","41","","","","99.91","","","","-13","","NA"
"-53.11","48.67","BONAVISTA","8400601","2012-02-20 23:30","2012","02","20","23:30","-3.9","","-7.0","","79","","","","31","","39","","","","99.92","","","","-13","","NA"
"-53.11","48.67","BONAVISTA","8400601","2012-02-21 00:30","2012","02","21","00:30","-4.4","","-7.3","","80","","","","31","","39","","","","99.92","","","","-13","","NA"
"-53.11","48.67","BONAVISTA","8400601","2012-02-21 01:30","2012","02","21","01:30","-4.5","","-7.2","","81","","","","31","","41","","","","99.93","","","","-14","","NA"
"-53.11","48.67","BONAVISTA","8400601","2012-02-21 02:30","2012","02","21","02:30","-4.6","","-7.6","","80","","","","32","","39","","","","99.98","","","","-13","","NA"
"-53.11","48.67","BONAVISTA","8400601","2012-02-21 03:30","2012","02","21","03:30","-4.9","","-7.7","","81","","","","33","","44","","","","99.97","","","","-14","","NA"
"-53.11","48.67","BONAVISTA","8400601","2012-02-21 04:30","2012","02","21","04:30","-5.4","","-8.9","","76","","","","32","","43","","","","100.02","","","","-15","","NA"
"-53.11","48.67","BONAVISTA","8400601","2012-02-21 05:30","2012","02","21","05:30","-5.6","","-9.0","","77","","","","33","","43","","","","100.05","","","","-15","","NA"
"-53.11","48.67","BONAVISTA","8400601","2012-02-21 06:30","2012","02","21","06:30","-5.8","","-9.3","","76","","","","34","","44","","","","100.09","","","","-16","","NA"
"-53.11","48.67","BONAVISTA","8400601","2012-02-21 07:30","2012","02","21","07:30","-6.1","","-9.7","","76","","","","32","","52","","","","100.18","","","","-17","","NA"
"-53.11","48.67","BONAVISTA","8400601","2012-02-21 08:30","2012","02","21","08:30","-6.0","","-9.8","","74","","","","32","","41","","","","100.23","","","","-16","","NA"
"-53.11","48.67","BONAVISTA","8400601","2012-02-21 09:30","2012","02","21","09:30","-6.4","","-10.0","","76","","","","32","","43","","","","100.30","","","","-16","","NA"
"-53.11","48.67","BONAVISTA","8400601","2012-02-21 10:30","2012","02","21","10:30","-6.7","","-10.6","","74","","","","32","","44","","","","100.31","","","","-17","","NA"
"-53.11","48.67","BONAVISTA","8400601","2012-02-21 11:30","2012","02","21","11:30","-6.7","","-11.0","","71","","","","33","","48","","","","100.29","","","","-17","","NA"
"-53.11","48.67","BONAVISTA","8400601","2012-02-21 12:30","2012","02","21","12:30","-6.2","","-10.4","","72","","","","33","","41","","","","100.31","","","","-16","","NA"
"-53.11","48.67","BONAVISTA","8400601","2012-02-21 13:30","2012","02","21","13:30","-6.4","","-11.1","","69","","","","34","","44","","","","100.27","","","","-16","","NA"
"-53.11","48.67","BONAVISTA","8400601","2012-02-21 14:30","2012","02","21","14:30","-6.4","","-10.7","","71","","","","34","","44","","","","100.29","","","","-16","","NA"
"-53.11","48.67","BONAVISTA","8400601","2012-02-21 15:30","2012","02","21","15:30","-6.5","","-11.3","","69","","","","34","","48","","","","100.35","","","","-17","","NA"
"-53.11","48.67","BONAVISTA","8400601","2012-02-21 16:30","2012","02","21","16:30","-6.7","","-11.2","","70","","","","33","","44","","","","100.41","","","","-17","","NA"
"-53.11","48.67","BONAVISTA","8400601","2012-02-21 17:30","2012","02","21","17:30","-6.7","","-11.2","","70","","","","33","","44","","","","100.43","","","","-17","","NA"
"-53.11","48.67","BONAVISTA","8400601","2012-02-21 18:30","2012","02","21","18:30","-7.0","","-11.5","","70","","","","33","","44","","","","100.52","","","","-17","","NA"
"-53.11","48.67","BONAVISTA","8400601","2012-02-21 19:30","2012","02","21","19:30","-6.8","","-11.1","","71","","","","33","","50","","","","100.55","","","","-17","","NA"
"-53.11","48.67","BONAVISTA","8400601","2012-02-21 20:30","2012","02","21","20:30","-6.6","","-11.2","","70","","","","33","","52","","","","100.59","","","","-17","","NA"
"-53.11","48.67","BONAVISTA","8400601","2012-02-21 21:30","2012","02","21","21:30","-6.8","","-11.0","","72","","","","33","","44","","","","100.61","","","","-17","","NA"
"-53.11","48.67","BONAVISTA","8400601","2012-02-21 22:30","2012","02","21","22:30","-6.5","","-9.9","","77","","","","33","","48","","","","100.60","","","","-17","","NA"
"-53.11","48.67","BONAVISTA","8400601","2012-02-21 23:30","2012","02","21","23:30","-6.5","","-9.7","","78","","","","34","","44","","","","100.63","","","","-16","","NA"
"-53.11","48.67","BONAVISTA","8400601","2012-02-22 00:30","2012","02","22","00:30","-6.6","","-9.9","","77","","","","33","","41","","","","100.70","","","","-16","","NA"
"-53.11","48.67","BONAVISTA","8400601","2012-02-22 01:30","2012","02","22","01:30","-6.8","","-10.0","","78","","","","32","","39","","","","100.74","","","","-16","","NA"
"-53.11","48.67","BONAVISTA","8400601","2012-02-22 02:30","2012","02","22","02:30","-7.0","","-10.3","","77","","","","33","","35","","","","100.80","","","","-16","","NA"
"-53.11","48.67","BONAVISTA","8400601","2012-02-22 03:30","2012","02","22","03:30","-7.1","","-10.4","","77","","","","32","","24","","","","100.77","","","","-15","","NA"
"-53.11","48.67","BONAVISTA","8400601","2012-02-22 04:30","2012","02","22","04:30","-7.2","","-10.2","","79","","","","30","","26","","","","100.85","","","","-15","","NA"
"-53.11","48.67","BONAVISTA","8400601","2012-02-22 05:30","2012","02","22","05:30","-7.8","","-10.9","","78","","","","30","","22","","","","100.86","","","","-15","","NA"
"-53.11","48.67","BONAVISTA","8400601","2012-02-22 06:30","2012","02","22","06:30","-7.9","","-10.6","","81","","","","26","","24","","","","100.92","","","","-16","","NA"
"-53.11","48.67","BONAVISTA","8400601","2012-02-22 07:30","2012","02","22","07:30","-8.8","","-10.6","","87","","","","23","","33","","","","101.03","","","","-18","","NA"
"-53.11","48.67","BONAVISTA","8400601","2012-02-22 08:30","2012","02","22","08:30","-8.8","","-11.1","","83","","","","24","","30","","","","101.07","","","","-18","","NA"
"-53.11","48.67","BONAVISTA","8400601","2012-02-22 09:30","2012","02","22","09:30","-7.2","","-10.4","","78","","","","26","","28","","","","101.03","","","","-16","","NA"
"-53.11","48.67","BONAVISTA","8400601","2012-02-22 10:30","2012","02","22","10:30","-5.7","","-9.7","","73","","","","25","","32","","","","101.04","","","","-14","","NA"
"-53.11","48.67","BONAVISTA","8400601","2012-02-22 11:30","2012","02","22","11:30","-5.0","","-8.7","","75","","","","23","","28","","","","101.01","","","","-13","","NA"
"-53.11","48.67","BONAVISTA","8400601","2012-02-22 12:30","2012","02","22","12:30","-3.9","","-8.5","","70","","","","23","","26","","","","100.92","","","","-11","","NA"
"-53.11","48.67","BONAVISTA","8400601","2012-02-22 13:30","2012","02","22","13:30","-2.9","","-8.7","","64","","","","23","","39","","","","100.88","","","","-11","","NA"
"-53.11","48.67","BONAVISTA","8400601","2012-02-22 14:30","2012","02","22","14:30","-2.2","","-7.7","","66","","","","23","","32","","","","100.84","","","","-10","","NA"
"-53.11","48.67","BONAVISTA","8400601","2012-02-22 15:30","2012","02","22","15:30","-1.9","","-6.3","","72","","","","23","","33","","","","100.86","","","","-9","","NA"
"-53.11","48.67","BONAVISTA","8400601","2012-02-22 16:30","2012","02","22","16:30","-2.0","","-6.2","","73","","","","22","","30","","","","100.83","","","","-9","","NA"
"-53.11","48.67","BONAVISTA","8400601","2012-02-22 17:30","2012","02","22","17:30","-1.6","","-5.7","","74","","","","22","","22","","","","100.86","","","","-8","","NA"
"-53.11","48.67","BONAVISTA","8400601","2012-02-22 18:30","2012","02","22","18:30","-2.0","","-5.9","","75","","","","18","","15","","","","100.77","","","","-7","","NA"
"-53.11","48.67","BONAVISTA","8400601","2012-02-22 19:30","2012","02","22","19:30","-2.0","","-5.5","","77","","","","20","","17","","","","100.79","","","","-7","","NA"
"-53.11","48.67","BONAVISTA","8400601","2012-02-22 20:30","2012","02","22","20:30","-1.8","","-4.6","","81","","","","17","","15","","","","100.72","","","","-7","","NA"
"-53.11","48.67","BONAVISTA","8400601","2012-02-22 21:30","2012","02","22","21:30","-2.3","","-3.4","","92","","","","17","","28","","","","100.65","","","","-9","","NA"
"-53.11","48.67","BONAVISTA","8400601","2012-02-22 22:30","2012","02","22","22:30","-2.1","","-2.7","","96","","","","14","","20","","","","100.54","","","","-8","","NA"
"-53.11","48.67","BONAVISTA","8400601","2012-02-22 23:30","2012","02","22","23:30","-1.4","","-1.8","","97","","","","14","","33","","","","100.33","","","","-9","","NA"
"-53.11","48.67","BONAVISTA","8400601","2012-02-23 00:30","2012","02","23","00:30","-0.9","","-1.3","","97","","","","15","","44","","","","100.07","","","","-9","","NA"
"-53.11","48.67","BONAVISTA","8400601","2012-02-23 01:30","2012","02","23","01:30","0.0","","-0.4","","97","","","","16","","44","","","","99.88","","","","-8","","NA"
"-53.11","48.67","BONAVISTA","8400601","2012-02-23 02:30","2012","02","23","02:30","0.7","","0.3","","97","","","","17","","37","","","","99.77","","","","","","NA"
"-53.11","48.67","BONAVISTA","8400601","2012-02-23 03:30","2012","02","23","03:30","1.3","","0.9","","97","","","","17","","32","","","","99.66","","","","","","NA"
"-53.11","48.67","BONAVISTA","8400601","2012-02-23 04:30","2012","02","23","04:30","1.4","","1.0","","97","","","","18","","20","","","","99.63","","","","","","NA"
"-53.11","48.67","BONAVISTA","8400601","2012-02-23 05:30","2012","02","23","05:30","1.9","","1.5","","97","","","","20","","22","","","","99.64","","","","","","NA"
"-53.11","48.67","BONAVISTA","8400601","2012-02-23 06:30","2012","02","23","06:30","1.8","","1.2","","96","","","","23","","22","","","","99.62","","","","","","NA"
"-53.11","48.67","BONAVISTA","8400601","2012-02-23 07:30","2012","02","23","07:30","1.6","","0.7","","94","","","","25","","37","","","","99.71","","","","","","NA"
"-53.11","48.67","BONAVISTA","8400601","2012-02-23 08:30","2012","02","23","08:30","1.3","","0.4","","94","","","","25","","39","","","","99.79","","","","","","NA"
"-53.11","48.67","BONAVISTA","8400601","2012-02-23 09:30","2012","02","23","09:30","1.3","","0.0","","91","","","","24","","32","","","","99.86","","","","","","NA"
"-53.11","48.67","BONAVISTA","8400601","2012-02-23 10:30","2012","02","23","10:30","1.4","","-0.5","","87","","","","24","","33","","","","99.92","","","","","","NA"
"-53.11","48.67","BONAVISTA","8400601","2012-02-23 11:30","2012","02","23","11:30","1.5","","-0.2","","88","","","","24","","33","","","","100.03","","","","","","NA"
"-53.11","48.67","BONAVISTA","8400601","2012-02-23 12:30","2012","02","23","12:30","1.8","","-0.3","","86","","","","24","","35","","","","100.03","","","","","","NA"
"-53.11","48.67","BONAVISTA","8400601","2012-02-23 13:30","2012","02","23","13:30","2.1","","-0.4","","83","","","","25","","28","","","","100.09","","","","","","NA"
"-53.11","48.67","BONAVISTA","8400601","2012-02-23 14:30","2012","02","23","14:30","1.4","","-0.8","","85","","","","28","","26","","","","100.23","","","","","","NA"
"-53.11","48.67","BONAVISTA","8400601","2012-02-23 15:30","2012","02","23","15:30","0.9","","-0.9","","88","","","","32","","22","","","","100.31","","","","","","NA"
"-53.11","48.67","BONAVISTA","8400601","2012-02-23 16:30","2012","02","23","16:30","0.7","","-1.3","","86","","","","36","","9","","","","100.37","","","","","","NA"
"-53.11","48.67","BONAVISTA","8400601","2012-02-23 17:30","2012","02","23","17:30","0.6","","-1.4","","86","","","","3","","6","","","","100.48","","","","","","NA"
"-53.11","48.67","BONAVISTA","8400601","2012-02-23 18:30","2012","02","23","18:30","0.7","","-1.3","","86","","","","12","","11","","","","100.59","","","","","","NA"
"-53.11","48.67","BONAVISTA","8400601","2012-02-23 19:30","2012","02","23","19:30","0.3","","-1.5","","88","","","","9","","9","","","","100.63","","","","","","NA"
"-53.11","48.67","BONAVISTA","8400601","2012-02-23 20:30","2012","02","23","20:30","0.4","","-1.4","","88","","","","11","","19","","","","100.61","","","","","","NA"
"-53.11","48.67","BONAVISTA","8400601","2012-02-23 21:30","2012","02","23","21:30","-0.2","","-1.3","","92","","","","10","","15","","","","100.51","","","","-5","","NA"
"-53.11","48.67","BONAVISTA","8400601","2012-02-23 22:30","2012","02","23","22:30","0.2","","-0.6","","94","","","","10","","15","","","","100.31","","","","","","NA"
"-53.11","48.67","BONAVISTA","8400601","2012-02-23 23:30","2012","02","23","23:30","-0.6","","-1.6","","93","","","","10","","30","","","","100.12","","","","-7","","NA"
"-53.11","48.67","BONAVISTA","8400601","2012-02-24 00:30","2012","02","24","00:30","-0.9","","-1.7","","94","","","","9","","35","","","","99.96","","","","-8","","NA"
"-53.11","48.67","BONAVISTA","8400601","2012-02-24 01:30","2012","02","24","01:30","-0.3","","-1.1","","94","","","","12","","41","","","","99.94","","","","-8","","NA"
"-53.11","48.67","BONAVISTA","8400601","2012-02-24 02:30","2012","02","24","02:30","-0.3","","-1.0","","95","","","","11","","39","","","","99.76","","","","-8","","NA"
"-53.11","48.67","BONAVISTA","8400601","2012-02-24 03:30","2012","02","24","03:30","-0.6","","-0.9","","98","","","","10","","37","","","","99.61","","","","-8","","NA"
"-53.11","48.67","BONAVISTA","8400601","2012-02-24 04:30","2012","02","24","04:30","-0.5","","-0.8","","98","","","","11","","44","","","","99.29","","","","-8","","NA"
"-53.11","48.67","BONAVISTA","8400601","2012-02-24 05:30","2012","02","24","05:30","-0.4","","-0.6","","99","","","","9","","59","","","","98.97","","","","-9","","NA"
"-53.11","48.67","BONAVISTA","8400601","2012-02-24 06:30","2012","02","24","06:30","-0.5","","-0.7","","99","","","","9","","44","","","","98.81","","","","-8","","NA"
"-53.11","48.67","BONAVISTA","8400601","2012-02-24 07:30","2012","02","24","07:30","-0.1","","-0.3","","99","","","","12","","20","","","","98.71","","","","-5","","NA"
"-53.11","48.67","BONAVISTA","8400601","2012-02-24 08:30","2012","02","24","08:30","0.0","","-0.2","","99","","","","13","","46","","","","98.56","","","","-8","","NA"
"-53.11","48.67","BONAVISTA","8400601","2012-02-24 09:30","2012","02","24","09:30","1.2","","1.0","","99","","","","17","","28","","","","98.52","","","","","","NA"
"-53.11","48.67","BONAVISTA","8400601","2012-02-24 10:30","2012","02","24","10:30","1.8","","1.5","","98","","","","21","","24","","","","98.48","","","","","","NA"
"-53.11","48.67","BONAVISTA","8400601","2012-02-24 11:30","2012","02","24","11:30","2.3","","1.3","","93","","","","21","","37","","","","98.43","","","","","","NA"
"-53.11","48.67","BONAVISTA","8400601","2012-02-24 12:30","2012","02","24","12:30","2.0","","0.8","","92","","","","20","","37","","","","98.37","","","","","","NA"
"-53.11","48.67","BONAVISTA","8400601","2012-02-24 13:30","2012","02","24","13:30","2.0","","0.6","","90","","","","20","","33","","","","98.33","","","","","","NA"
"-53.11","48.67","BONAVISTA","8400601","2012-02-24 14:30","2012","02","24","14:30","1.8","","0.4","","90","","","","21","","26","","","","98.33","","","","","","NA"
"-53.11","48.67","BONAVISTA","8400601","2012-02-24 15:30","2012","02","24","15:30","1.8","","0.5","","91","","","","21","","26","","","","98.37","","","","","","NA"
"-53.11","48.67","BONAVISTA","8400601","2012-02-24 16:30","2012","02","24","16:30","1.7","","0.3","","90","","","","22","","28","","","","98.37","","","","","","NA"
"-53.11","48.67","BONAVISTA","8400601","2012-02-24 17:30","2012","02","24","17:30","1.3","","0.0","","91","","","","23","","30","","","","98.44","","","","","","NA"
"-53.11","48.67","BONAVISTA","8400601","2012-02-24 18:30","2012","02","24","18:30","1.2","","-0.1","","91","","","","24","","33","","","","98.53","","","","","","NA"
"-53.11","48.67","BONAVISTA","8400601","2012-02-24 19:30","2012","02","24","19:30","0.4","","-0.9","","91","","","","27","","44","","","","98.66","","","","","","NA"
"-53.11","48.67","BONAVISTA","8400601","2012-02-24 20:30","2012","02","24","20:30","0.4","","-1.0","","90","","","","28","","46","","","","98.75","","","","","","NA"
"-53.11","48.67","BONAVISTA","8400601","2012-02-24 21:30","2012","02","24","21:30","0.2","","-1.1","","91","","","","27","","37","","","","98.90","","","","","","NA"
"-53.11","48.67","BONAVISTA","8400601","2012-02-24 22:30","2012","02","24","22:30","0.2","","-1.0","","92","","","","28","","41","","","","99.06","","","","","","NA"
"-53.11","48.67","BONAVISTA","8400601","2012-02-24 23:30","2012","02","24","23:30","-0.2","","-1.0","","94","","","","29","","43","","","","99.24","","","","-8","","NA"
"-53.11","48.67","BONAVISTA","8400601","2012-02-25 00:30","2012","02","25","00:30","-0.3","","-0.8","","96","","","","29","","46","","","","99.40","","","","-8","","NA"
"-53.11","48.67","BONAVISTA","8400601","2012-02-25 01:30","2012","02","25","01:30","-0.4","","-0.8","","97","","","","30","","39","","","","99.59","","","","-8","","NA"
"-53.11","48.67","BONAVISTA","8400601","2012-02-25 02:30","2012","02","25","02:30","-0.4","","-0.9","","96","","","","31","","32","","","","99.74","","","","-7","","NA"
"-53.11","48.67","BONAVISTA","8400601","2012-02-25 03:30","2012","02","25","03:30","-0.4","","-1.2","","94","","","","33","","46","","","","99.88","","","","-8","","NA"
"-53.11","48.67","BONAVISTA","8400601","2012-02-25 04:30","2012","02","25","04:30","-0.6","","-1.5","","94","","","","33","","41","","","","100.04","","","","-8","","NA"
"-53.11","48.67","BONAVISTA","8400601","2012-02-25 05:30","2012","02","25","05:30","-0.7","","-1.7","","93","","","","33","","35","","","","100.18","","","","-8","","NA"
"-53.11","48.67","BONAVISTA","8400601","2012-02-25 06:30","2012","02","25","06:30","-0.9","","-1.8","","94","","","","34","","30","","","","100.10","","","","-8","","NA"
"-53.11","48.67","BONAVISTA","8400601","2012-02-25 07:30","2012","02","25","07:30","-0.9","","-2.0","","92","","","","1","","33","","","","100.12","","","","-8","","NA"
"-53.11","48.67","BONAVISTA","8400601","2012-02-25 08:30","2012","02","25","08:30","-1.1","","-2.3","","92","","","","5","","32","","","","99.99","","","","-8","","NA"
"-53.11","48.67","BONAVISTA","8400601","2012-02-25 09:30","2012","02","25","09:30","-0.8","","-2.1","","91","","","","8","","13","","","","100.15","","","","-5","","NA"
"-53.11","48.67","BONAVISTA","8400601","2012-02-25 10:30","2012","02","25","10:30","-0.9","","-2.1","","92","","","","8","","20","","","","100.03","","","","-6","","NA"
"-53.11","48.67","BONAVISTA","8400601","2012-02-25 11:30","2012","02","25","11:30","-0.9","","-2.0","","92","","","","11","","22","","","","99.89","","","","-7","","NA"
"-53.11","48.67","BONAVISTA","8400601","2012-02-25 12:30","2012","02","25","12:30","-1.1","","-2.0","","94","","","","13","","28","","","","99.63","","","","-8","","NA"
"-53.11","48.67","BONAVISTA","8400601","2012-02-25 13:30","2012","02","25","13:30","-1.3","","-2.0","","95","","","","13","","43","","","","99.22","","","","-9","","NA"
"-53.11","48.67","BONAVISTA","8400601","2012-02-25 14:30","2012","02","25","14:30","-1.4","","-1.9","","96","","","","13","","32","","","","98.99","","","","-9","","NA"
"-53.11","48.67","BONAVISTA","8400601","2012-02-25 15:30","2012","02","25","15:30","-1.2","","-1.6","","97","","","","11","","39","","","","98.82","","","","-9","","NA"
"-53.11","48.67","BONAVISTA","8400601","2012-02-25 16:30","2012","02","25","16:30","-0.6","","-1.0","","97","","","","13","","48","","","","98.30","","","","-9","","NA"
"-53.11","48.67","BONAVISTA","8400601","2012-02-25 17:30","2012","02","25","17:30","-0.4","","-0.9","","96","","","","14","","30","","","","98.13","","","","-7","","NA"
"-53.11","48.67","BONAVISTA","8400601","2012-02-25 18:30","2012","02","25","18:30","-0.3","","-0.8","","96","","","","15","","15","","","","98.05","","","","-5","","NA"
"-53.11","48.67","BONAVISTA","8400601","2012-02-25 19:30","2012","02","25","19:30","0.0","","-0.5","","96","","","","17","","9","","","","97.87","","","","-3","","NA"
"-53.11","48.67","BONAVISTA","8400601","2012-02-25 20:30","2012","02","25","20:30","0.5","","0.1","","97","","","","17","","9","","","","97.75","","","","","","NA"
"-53.11","48.67","BONAVISTA","8400601","2012-02-25 21:30","2012","02","25","21:30","2.0","","0.0","","87","","","","22","","48","","","","97.66","","","","","","NA"
"-53.11","48.67","BONAVISTA","8400601","2012-02-25 22:30","2012","02","25","22:30","2.1","","-0.3","","84","","","","22","","54","","","","97.65","","","","","","NA"
"-53.11","48.67","BONAVISTA","8400601","2012-02-25 23:30","2012","02","25","23:30","2.0","","-0.5","","83","","","","22","","50","","","","97.68","","","","","","NA"
"-53.11","48.67","BONAVISTA","8400601","2012-02-26 00:30","2012","02","26","00:30","1.9","","-0.6","","83","","","","22","","50","","","","97.73","","","","","","NA"
"-53.11","48.67","BONAVISTA","8400601","2012-02-26 01:30","2012","02","26","01:30","2.0","","-0.5","","83","","","","22","","52","","","","97.75","","","","","","NA"
"-53.11","48.67","BONAVISTA","8400601","2012-02-26 02:30","2012","02","26","02:30","1.9","","-0.7","","83","","","","22","","54","","","","97.74","","","","","","NA"
"-53.11","48.67","BONAVISTA","8400601","2012-02-26 03:30","2012","02","26","03:30","1.7","","-0.8","","83","","","","22","","46","","","","97.73","","","","","","NA"
"-53.11","48.67","BONAVISTA","8400601","2012-02-26 04:30","2012","02","26","04:30","1.7","","-0.9","","83","","","","21","","44","","","","97.74","","","","","","NA"
"-53.11","48.67","BONAVISTA","8400601","2012-02-26 05:30","2012","02","26","05:30","1.6","","-0.9","","83","","","","21","","43","","","","97.73","","","","","","NA"
"-53.11","48.67","BONAVISTA","8400601","2012-02-26 06:30","2012","02","26","06:30","1.3","","-1.1","","84","","","","21","","35","","","","97.76","","","","","","NA"
"-53.11","48.67","BONAVISTA","8400601","2012-02-26 07:30","2012","02","26","07:30","1.4","","-1.3","","82","","","","21","","41","","","","97.79","","","","","","NA"
"-53.11","48.67","BONAVISTA","8400601","2012-02-26 08:30","2012","02","26","08:30","1.7","","-1.8","","78","","","","20","","43","","","","97.77","","","","","","NA"
"-53.11","48.67","BONAVISTA","8400601","2012-02-26 09:30","2012","02","26","09:30","0.4","","-1.6","","86","","","","23","","46","","","","97.80","","","","","","NA"
"-53.11","48.67","BONAVISTA","8400601","2012-02-26 10:30","2012","02","26","10:30","0.9","","-3.5","","72","","","","23","","52","","","","97.81","","","","","","NA"
"-53.11","48.67","BONAVISTA","8400601","2012-02-26 11:30","2012","02","26","11:30","1.0","","-3.3","","73","","","","22","","54","","","","97.84","","","","","","NA"
"-53.11","48.67","BONAVISTA","8400601","2012-02-26 12:30","2012","02","26","12:30","0.9","","-3.4","","73","","","","23","","46","","","","97.81","","","","","","NA"
"-53.11","48.67","BONAVISTA","8400601","2012-02-26 13:30","2012","02","26","13:30","0.5","","-2.6","","80","","","","23","","44","","","","97.79","","","","","","NA"
"-53.11","48.67","BONAVISTA","8400601","2012-02-26 14:30","2012","02","26","14:30","1.0","","-2.6","","77","","","","22","","37","","","","97.75","","","","","","NA"
"-53.11","48.67","BONAVISTA","8400601","2012-02-26 15:30","2012","02","26","15:30","0.8","","-1.6","","84","","","","23","","33","","","","97.79","","","","","","NA"
"-53.11","48.67","BONAVISTA","8400601","2012-02-26 16:30","2012","02","26","16:30","-0.4","","-1.6","","92","","","","28","","46","","","","97.97","","","","-8","","NA"
"-53.11","48.67","BONAVISTA","8400601","2012-02-26 17:30","2012","02","26","17:30","-0.2","","-2.1","","87","","","","29","","43","","","","98.21","","","","-8","","NA"
"-53.11","48.67","BONAVISTA","8400601","2012-02-26 18:30","2012","02","26","18:30","-0.9","","-2.0","","92","","","","31","","52","","","","98.49","","","","-10","","NA"
"-53.11","48.67","BONAVISTA","8400601","2012-02-26 19:30","2012","02","26","19:30","-0.9","","-2.1","","92","","","","32","","56","","","","98.77","","","","-10","","NA"
"-53.11","48.67","BONAVISTA","8400601","2012-02-26 20:30","2012","02","26","20:30","-1.3","","-2.4","","92","","","","31","","57","","","","99.05","","","","-10","","NA"
"-53.11","48.67","BONAVISTA","8400601","2012-02-26 21:30","2012","02","26","21:30","-1.7","","-2.5","","94","","","","31","","54","","","","99.29","","","","-11","","NA"
"-53.11","48.67","BONAVISTA","8400601","2012-02-26 22:30","2012","02","26","22:30","-1.2","","-3.3","","86","","","","31","","59","","","","99.49","","","","-10","","NA"
"-53.11","48.67","BONAVISTA","8400601","2012-02-26 23:30","2012","02","26","23:30","-1.5","","-3.7","","85","","","","31","","59","","","","99.69","","","","-11","","NA"
"-53.11","48.67","BONAVISTA","8400601","2012-02-27 00:30","2012","02","27","00:30","-1.8","","-4.3","","83","","","","31","","54","","","","99.86","","","","-11","","NA"
"-53.11","48.67","BONAVISTA","8400601","2012-02-27 01:30","2012","02","27","01:30","-1.8","","-4.9","","79","","","","32","","57","","","","100.02","","","","-11","","NA"
"-53.11","48.67","BONAVISTA","8400601","2012-02-27 02:30","2012","02","27","02:30","-2.4","","-5.9","","77","","","","32","","54","","","","100.17","","","","-12","","NA"
"-53.11","48.67","BONAVISTA","8400601","2012-02-27 03:30","2012","02","27","03:30","-3.0","","-6.7","","76","","","","32","","56","","","","100.29","","","","-13","","NA"
"-53.11","48.67","BONAVISTA","8400601","2012-02-27 04:30","2012","02","27","04:30","-3.1","","-6.3","","79","","","","31","","50","","","","100.44","","","","-12","","NA"
"-53.11","48.67","BONAVISTA","8400601","2012-02-27 05:30","2012","02","27","05:30","-3.2","","-6.2","","80","","","","31","","46","","","","100.59","","","","-12","","NA"
"-53.11","48.67","BONAVISTA","8400601","2012-02-27 06:30","2012","02","27","06:30","-3.9","","-7.2","","78","","","","31","","52","","","","100.71","","","","-14","","NA"
"-53.11","48.67","BONAVISTA","8400601","2012-02-27 07:30","2012","02","27","07:30","-3.8","","-7.2","","77","","","","31","","41","","","","100.84","","","","-13","","NA"
"-53.11","48.67","BONAVISTA","8400601","2012-02-27 08:30","2012","02","27","08:30","-3.9","","-7.6","","75","","","","32","","46","","","","100.92","","","","-13","","NA"
"-53.11","48.67","BONAVISTA","8400601","2012-02-27 09:30","2012","02","27","09:30","-3.8","","-7.9","","73","","","","30","","43","","","","100.98","","","","-13","","NA"
"-53.11","48.67","BONAVISTA","8400601","2012-02-27 10:30","2012","02","27","10:30","-3.7","","-7.7","","74","","","","32","","39","","","","101.03","","","","-12","","NA"
"-53.11","48.67","BONAVISTA","8400601","2012-02-27 11:30","2012","02","27","11:30","-3.1","","-7.8","","70","","","","31","","32","","","","101.06","","","","-11","","NA"
"-53.11","48.67","BONAVISTA","8400601","2012-02-27 12:30","2012","02","27","12:30","-2.7","","-7.7","","68","","","","30","","24","","","","101.06","","","","-9","","NA"
"-53.11","48.67","BONAVISTA","8400601","2012-02-27 13:30","2012","02","27","13:30","-2.2","","-7.9","","65","","","","29","","24","","","","101.07","","","","-9","","NA"
"-53.11","48.67","BONAVISTA","8400601","2012-02-27 14:30","2012","02","27","14:30","-1.5","","-8.3","","60","","","","29","","17","","","","101.09","","","","-7","","NA"
"-53.11","48.67","BONAVISTA","8400601","2012-02-27 15:30","2012","02","27","15:30","-1.0","","-8.9","","55","","","","27","","17","","","","101.11","","","","-6","","NA"
"-53.11","48.67","BONAVISTA","8400601","2012-02-27 16:30","2012","02","27","16:30","-1.0","","-9.3","","53","","","","27","","15","","","","101.10","","","","-6","","NA"
"-53.11","48.67","BONAVISTA","8400601","2012-02-27 17:30","2012","02","27","17:30","-1.3","","-8.1","","60","","","","27","","32","","","","101.14","","","","-8","","NA"
"-53.11","48.67","BONAVISTA","8400601","2012-02-27 18:30","2012","02","27","18:30","-1.3","","-7.5","","63","","","","25","","22","","","","101.12","","","","-7","","NA"
"-53.11","48.67","BONAVISTA","8400601","2012-02-27 19:30","2012","02","27","19:30","-4.9","","-5.7","","94","","","","34","","48","","","","101.27","","","","-15","","NA"
"-53.11","48.67","BONAVISTA","8400601","2012-02-27 20:30","2012","02","27","20:30","-5.7","","-7.6","","86","","","","33","","46","","","","101.38","","","","-16","","NA"
"-53.11","48.67","BONAVISTA","8400601","2012-02-27 21:30","2012","02","27","21:30","-6.5","","-10.8","","71","","","","32","","54","","","","101.46","","","","-17","","NA"
"-53.11","48.67","BONAVISTA","8400601","2012-02-27 22:30","2012","02","27","22:30","-7.4","","-11.8","","71","","","","32","","57","","","","101.52","","","","-19","","NA"
"-53.11","48.67","BONAVISTA","8400601","2012-02-27 23:30","2012","02","27","23:30","-8.1","","-12.1","","73","","","","32","","50","","","","101.60","","","","-19","","NA"
"-53.11","48.67","BONAVISTA","8400601","2012-02-28 00:30","2012","02","28","00:30","-8.7","","-12.8","","72","","","","32","","46","","","","101.65","","","","-20","","NA"
"-53.11","48.67","BONAVISTA","8400601","2012-02-28 01:30","2012","02","28","01:30","-9.0","","-13.0","","73","","","","30","","44","","","","101.68","","","","-20","","NA"
"-53.11","48.67","BONAVISTA","8400601","2012-02-28 02:30","2012","02","28","02:30","-9.2","","-12.9","","74","","","","31","","35","","","","101.70","","","","-19","","NA"
"-53.11","48.67","BONAVISTA","8400601","2012-02-28 03:30","2012","02","28","03:30","-9.2","","-12.8","","75","","","","30","","32","","","","101.70","","","","-19","","NA"
"-53.11","48.67","BONAVISTA","8400601","2012-02-28 04:30","2012","02","28","04:30","-9.3","","-12.8","","76","","","","31","","33","","","","101.74","","","","-19","","NA"
"-53.11","48.67","BONAVISTA","8400601","2012-02-28 05:30","2012","02","28","05:30","-9.5","","-13.1","","75","","","","29","","33","","","","101.76","","","","-19","","NA"
"-53.11","48.67","BONAVISTA","8400601","2012-02-28 06:30","2012","02","28","06:30","-9.8","","-13.7","","73","","","","30","","32","","","","101.80","","","","-20","","NA"
"-53.11","48.67","BONAVISTA","8400601","2012-02-28 07:30","2012","02","28","07:30","-9.6","","-13.3","","74","","","","31","","30","","","","101.80","","","","-19","","NA"
"-53.11","48.67","BONAVISTA","8400601","2012-02-28 08:30","2012","02","28","08:30","-9.7","","-13.7","","73","","","","32","","30","","","","101.82","","","","-19","","NA"
"-53.11","48.67","BONAVISTA","8400601","2012-02-28 09:30","2012","02","28","09:30","-9.5","","-13.6","","72","","","","30","","24","","","","101.85","","","","-18","","NA"
"-53.11","48.67","BONAVISTA","8400601","2012-02-28 10:30","2012","02","28","10:30","-9.4","","-13.7","","71","","","","31","","20","","","","101.81","","","","-17","","NA"
"-53.11","48.67","BONAVISTA","8400601","2012-02-28 11:30","2012","02","28","11:30","-9.0","","-13.7","","69","","","","32","","17","","","","101.74","","","","-16","","NA"
"-53.11","48.67","BONAVISTA","8400601","2012-02-28 12:30","2012","02","28","12:30","-8.8","","-13.9","","67","","","","30","","15","","","","101.71","","","","-15","","NA"
"-53.11","48.67","BONAVISTA","8400601","2012-02-28 13:30","2012","02","28","13:30","-8.7","","-13.8","","67","","","","31","","13","","","","101.67","","","","-15","","NA"
"-53.11","48.67","BONAVISTA","8400601","2012-02-28 14:30","2012","02","28","14:30","-8.1","","-14.4","","60","","","","35","","7","","","","101.70","","","","-12","","NA"
"-53.11","48.67","BONAVISTA","8400601","2012-02-28 15:30","2012","02","28","15:30","-8.4","","-15.2","","58","","","","35","","7","","","","101.67","","","","-12","","NA"
"-53.11","48.67","BONAVISTA","8400601","2012-02-28 16:30","2012","02","28","16:30","-8.3","","-14.2","","62","","","","2","","11","","","","101.65","","","","-14","","NA"
"-53.11","48.67","BONAVISTA","8400601","2012-02-28 17:30","2012","02","28","17:30","-8.8","","-13.9","","67","","","","5","","11","","","","101.61","","","","-14","","NA"
"-53.11","48.67","BONAVISTA","8400601","2012-02-28 18:30","2012","02","28","18:30","-9.3","","-13.8","","70","","","","4","","11","","","","101.58","","","","-15","","NA"
"-53.11","48.67","BONAVISTA","8400601","2012-02-28 19:30","2012","02","28","19:30","-8.9","","-13.2","","71","","","","4","","15","","","","101.57","","","","-15","","NA"
"-53.11","48.67","BONAVISTA","8400601","2012-02-28 20:30","2012","02","28","20:30","-8.4","","-12.4","","73","","","","4","","15","","","","101.59","","","","-15","","NA"
"-53.11","48.67","BONAVISTA","8400601","2012-02-28 21:30","2012","02","28","21:30","-8.3","","-11.9","","75","","","","4","","15","","","","101.56","","","","-15","","NA"
"-53.11","48.67","BONAVISTA","8400601","2012-02-28 22:30","2012","02","28","22:30","-8.5","","-12.3","","74","","","","3","","13","","","","101.53","","","","-14","","NA"
"-53.11","48.67","BONAVISTA","8400601","2012-02-28 23:30","2012","02","28","23:30","-8.5","","-12.1","","75","","","","2","","19","","","","101.48","","","","-16","","NA"
"-53.11","48.67","BONAVISTA","8400601","2012-02-29 00:30","2012","02","29","00:30","-8.6","","-12.6","","73","","","","36","","19","","","","101.43","","","","-16","","NA"
"-53.11","48.67","BONAVISTA","8400601","2012-02-29 01:30","2012","02","29","01:30","-8.6","","-12.8","","72","","","","35","","22","","","","101.40","","","","-16","","NA"
"-53.11","48.67","BONAVISTA","8400601","2012-02-29 02:30","2012","02","29","02:30","-8.9","","-14.3","","65","","","","35","","24","","","","101.37","","","","-17","","NA"
"-53.11","48.67","BONAVISTA","8400601","2012-02-29 03:30","2012","02","29","03:30","-8.7","","-13.1","","70","","","","36","","24","","","","101.33","","","","-17","","NA"
"-53.11","48.67","BONAVISTA","8400601","2012-02-29 04:30","2012","02","29","04:30","-8.9","","-13.6","","69","","","","36","","26","","","","101.32","","","","-18","","NA"
"-53.11","48.67","BONAVISTA","8400601","2012-02-29 05:30","2012","02","29","05:30","-9.1","","-14.3","","66","","","","35","","24","","","","101.31","","","","-17","","NA"
"-53.11","48.67","BONAVISTA","8400601","2012-02-29 06:30","2012","02","29","06:30","-8.7","","-12.4","","75","","","","35","","28","","","","101.31","","","","-18","","NA"
"-53.11","48.67","BONAVISTA","8400601","2012-02-29 07:30","2012","02","29","07:30","-9.1","","-13.2","","72","","","","34","","30","","","","101.38","","","","-18","","NA"
"-53.11","48.67","BONAVISTA","8400601","2012-02-29 08:30","2012","02","29","08:30","-9.0","","-13.6","","69","","","","33","","30","","","","101.38","","","","-18","","NA"
"-53.11","48.67","BONAVISTA","8400601","2012-02-29 09:30","2012","02","29","09:30","-9.0","","-12.9","","73","","","","32","","32","","","","101.39","","","","-18","","NA"
"-53.11","48.67","BONAVISTA","8400601","2012-02-29 10:30","2012","02","29","10:30","-9.1","","-12.4","","77","","","","33","","32","","","","101.37","","","","-19","","NA"
"-53.11","48.67","BONAVISTA","8400601","2012-02-29 11:30","2012","02","29","11:30","-9.4","","-14.6","","66","","","","33","","32","","","","101.33","","","","-19","","NA"
"-53.11","48.67","BONAVISTA","8400601","2012-02-29 12:30","2012","02","29","12:30","-8.9","","-14.7","","63","","","","33","","26","","","","101.25","","","","-18","","NA"
"-53.11","48.67","BONAVISTA","8400601","2012-02-29 13:30","2012","02","29","13:30","-8.9","","-14.9","","62","","","","33","","28","","","","101.21","","","","-18","","NA"
"-53.11","48.67","BONAVISTA","8400601","2012-02-29 14:30","2012","02","29","14:30","-8.6","","-14.4","","63","","","","32","","22","","","","101.19","","","","-16","","NA"
"-53.11","48.67","BONAVISTA","8400601","2012-02-29 15:30","2012","02","29","15:30","-8.7","","-15.2","","59","","","","32","","26","","","","101.19","","","","-17","","NA"
"-53.11","48.67","BONAVISTA","8400601","2012-02-29 16:30","2012","02","29","16:30","-8.5","","-15.1","","59","","","","32","","32","","","","101.20","","","","-18","","NA"
"-53.11","48.67","BONAVISTA","8400601","2012-02-29 17:30","2012","02","29","17:30","-8.8","","-14.1","","65","","","","33","","33","","","","101.20","","","","-18","","NA"
"-53.11","48.67","BONAVISTA","8400601","2012-02-29 18:30","2012","02","29","18:30","-9.0","","-13.7","","69","","","","32","","37","","","","101.24","","","","-19","","NA"
"-53.11","48.67","BONAVISTA","8400601","2012-02-29 19:30","2012","02","29","19:30","-9.1","","-13.6","","70","","","","32","","33","","","","101.26","","","","-19","","NA"
"-53.11","48.67","BONAVISTA","8400601","2012-02-29 20:30","2012","02","29","20:30","-9.7","","-14.1","","70","","","","32","","35","","","","101.28","","","","-20","","NA"
"-53.11","48.67","BONAVISTA","8400601","2012-02-29 21:30","2012","02","29","21:30","-9.9","","-13.6","","74","","","","32","","33","","","","101.30","","","","-20","","NA"
"-53.11","48.67","BONAVISTA","8400601","2012-02-29 22:30","2012","02","29","22:30","-10.4","","-14.5","","72","","","","32","","35","","","","101.31","","","","-21","","NA"
"-53.11","48.67","BONAVISTA","8400601","2012-02-29 23:30","2012","02","29","23:30","-10.3","","-14.2","","73","","","","31","","33","","","","101.30","","","","-20","","NA"
