"Longitude (x)","Latitude (y)","Station Name","Climate ID","Date/Time (LST)","Year","Month","Day","Time (LST)","Temp (°C)","Temp Flag","Dew Point Temp (°C)","Dew Point Temp Flag","Rel Hum (%)","Rel Hum Flag","Precip. Amount (mm)","Precip. Amount Flag","Wind Dir (10s deg)","Wind Dir Flag","Wind Spd (km/h)","Wind Spd Flag","Visibility (km)","Visibility Flag","Stn Press (kPa)","Stn Press Flag","Hmdx","Hmdx Flag","Wind Chill","Wind Chill Flag","Weather"
"-79.22","43.25","PORT WELLER (AUT)","6136699","2018-01-01 00:00","2018","01","01","00:00","-10.9","","-14.2","","76","","0.0","","33","","32","","","","102.12","","","","-21","","NA"
"-79.22","43.25","PORT WELLER (AUT)","6136699","2018-01-01 01:00","2018","01","01","01:00","-11.2","","-15.0","","73","","0.0","","31","","25","","","","102.12","","","","-20","","NA"
"-79.22","43.25","PORT WELLER (AUT)","6136699","2018-01-01 02:00","2018","01","01","02:00","-11.1","","-14.6","","75","","0.0","","31","","20","","","","102.13","","","","-19","","NA"
"-79.22","43.25","PORT WELLER (AUT)","6136699","2018-01-01 03:00","2018","01","01","03:00","-11.3","","-14.2","","79","","0.0","","30","","11","","","","102.12","","","","-17","","NA"
"-79.22","43.25","PORT WELLER (AUT)","6136699","2018-01-01 04:00","2018","01","01","04:00","-11.4","","-15.1","","74","","0.0","","26","","11","","","","102.08","","","","-17","","NA"
"-79.22","43.25","PORT WELLER (AUT)","6136699","2018-01-01 05:00","2018","01","01","05:00","-12.1","","-15.5","","76","","0.0","","20","","13","","","","102.05","","","","-19","","NA"
"-79.22","43.25","PORT WELLER (AUT)","6136699","2018-01-01 06:00","2018","01","01","06:00","-13.9","","-17.6","","74","","0.0","","20","","11","","","","102.03","","","","-20","","NA"
"-79.22","43.25","PORT WELLER (AUT)","6136699","2018-01-01 07:00","2018","01","01","07:00","-13.7","","-16.9","","77","","0.0","","20","","12","","","","102.00","","","","-20","","NA"
"-79.22","43.25","PORT WELLER (AUT)","6136699","2018-01-01 08:00","2018","01","01","08:00","-14.1","","-17.0","","79","","0.0","","21","","13","","","","101.97","","","","-21","","NA"
"-79.22","43.25","PORT WELLER (AUT)","6136699","2018-01-01 09:00","2018","01","01","09:00","-12.0","","-15.6","","75","","0.0","","23","","13","","","","101.95","","","","-19","","NA"
"-79.22","43.25","PORT WELLER (AUT)","6136699","2018-01-01 10:00","2018","01","01","10:00","-9.3","","-13.0","","75","","0.0","","25","","17","","","","101.91","","","","-16","","NA"
"-79.22","43.25","PORT WELLER (AUT)","6136699","2018-01-01 11:00","2018","01","01","11:00","-8.0","","-12.1","","72","","0.0","","25","","24","","","","101.88","","","","-16","","NA"
"-79.22","43.25","PORT WELLER (AUT)","6136699","2018-01-01 12:00","2018","01","01","12:00","-7.3","","-11.8","","70","","0.0","","26","","34","","","","101.80","","","","-16","","NA"
"-79.22","43.25","PORT WELLER (AUT)","6136699","2018-01-01 13:00","2018","01","01","13:00","-7.1","","-12.6","","65","","0.0","","25","","22","","","","101.72","","","","-15","","NA"
"-79.22","43.25","PORT WELLER (AUT)","6136699","2018-01-01 14:00","2018","01","01","14:00","-7.1","","-11.5","","71","","0.0","","26","","34","","","","101.68","","","","-16","","NA"
"-79.22","43.25","PORT WELLER (AUT)","6136699","2018-01-01 15:00","2018","01","01","15:00","-7.4","","-11.7","","71","","0.0","","26","","38","","","","101.69","","","","-17","","NA"
"-79.22","43.25","PORT WELLER (AUT)","6136699","2018-01-01 16:00","2018","01","01","16:00","-7.7","","-11.6","","73","","0.0","","25","","29","","","","101.71","","","","-16","","NA"
"-79.22","43.25","PORT WELLER (AUT)","6136699","2018-01-01 17:00","2018","01","01","17:00","-7.8","","-9.2","","90","","0.3","","26","","31","","","","101.77","","","","-17","","NA"
"-79.22","43.25","PORT WELLER (AUT)","6136699","2018-01-01 18:00","2018","01","01","18:00","-7.0","","-11.4","","71","","0.0","","30","","59","","","","101.85","","","","-18","","NA"
"-79.22","43.25","PORT WELLER (AUT)","6136699","2018-01-01 19:00","2018","01","01","19:00","-7.3","","-11.6","","71","","0.0","","30","","47","","","","101.93","","","","-18","","NA"
"-79.22","43.25","PORT WELLER (AUT)","6136699","2018-01-01 20:00","2018","01","01","20:00","-7.5","","-11.3","","74","","0.0","","31","","53","","","","101.97","","","","-19","","NA"
"-79.22","43.25","PORT WELLER (AUT)","6136699","2018-01-01 21:00","2018","01","01","21:00","-8.3","","-12.1","","74","","0.0","","31","","45","","","","102.05","","","","-19","","NA"
"-79.22","43.25","PORT WELLER (AUT)","6136699","2018-01-01 22:00","2018","01","01","22:00","-8.2","","-11.7","","76","","0.0","","31","","40","","","","102.07","","","","-18","","NA"
"-79.22","43.25","PORT WELLER (AUT)","6136699","2018-01-01 23:00","2018","01","01","23:00","-7.8","","-10.2","","83","","0.0","","29","","38","","","","102.04","","","","-18","","NA"
"-79.22","43.25","PORT WELLER (AUT)","6136699","2018-01-02 00:00","2018","01","02","00:00","-8.6","","-10.6","","85","","0.2","","24","","15","","","","102.01","","","","-15","","NA"
"-79.22","43.25","PORT WELLER (AUT)","6136699","2018-01-02 01:00","2018","01","02","01:00","-8.8","","-11.3","","82","","0.0","","25","","17","","","","101.97","","","","-16","","NA"
"-79.22","43.25","PORT WELLER (AUT)","6136699","2018-01-02 02:00","2018","01","02","02:00","-8.3","","-10.9","","82","","0.0","","25","","18","","","","101.93","","","","-15","","NA"
"-79.22","43.25","PORT WELLER (AUT)","6136699","2018-01-02 03:00","2018","01","02","03:00","-7.2","","-10.0","","81","","0.0","","26","","29","","","","101.90","","","","-16","","NA"
"-79.22","43.25","PORT WELLER (AUT)","6136699","2018-01-02 04:00","2018","01","02","04:00","-6.8","","-9.0","","85","","0.0","","26","","41","","","","101.90","","","","-17","","NA"
"-79.22","43.25","PORT WELLER (AUT)","6136699","2018-01-02 05:00","2018","01","02","05:00","-7.3","","-9.7","","83","","0.0","","26","","34","","","","101.89","","","","-16","","NA"
"-79.22","43.25","PORT WELLER (AUT)","6136699","2018-01-02 06:00","2018","01","02","06:00","-7.5","","-10.1","","81","","0.0","","26","","42","","","","101.87","","","","-18","","NA"
"-79.22","43.25","PORT WELLER (AUT)","6136699","2018-01-02 07:00","2018","01","02","07:00","-8.7","","-11.2","","82","","0.0","","25","","20","","","","101.85","","","","-16","","NA"
"-79.22","43.25","PORT WELLER (AUT)","6136699","2018-01-02 08:00","2018","01","02","08:00","-9.6","","-12.1","","82","","0.0","","25","","22","","","","101.86","","","","-18","","NA"
"-79.22","43.25","PORT WELLER (AUT)","6136699","2018-01-02 09:00","2018","01","02","09:00","-9.0","","-11.6","","81","","0.0","","25","","24","","","","101.80","","","","-17","","NA"
"-79.22","43.25","PORT WELLER (AUT)","6136699","2018-01-02 10:00","2018","01","02","10:00","-7.5","","-10.6","","78","","0.0","","25","","23","","","","101.74","","","","-15","","NA"
"-79.22","43.25","PORT WELLER (AUT)","6136699","2018-01-02 11:00","2018","01","02","11:00","-6.3","","-10.0","","75","","0.0","","24","","21","","","","101.64","","","","-13","","NA"
"-79.22","43.25","PORT WELLER (AUT)","6136699","2018-01-02 12:00","2018","01","02","12:00","-5.6","","-10.1","","71","","0.0","","25","","23","","","","101.54","","","","-13","","NA"
"-79.22","43.25","PORT WELLER (AUT)","6136699","2018-01-02 13:00","2018","01","02","13:00","-4.8","","-9.8","","68","","0.0","","25","","23","","","","101.44","","","","-12","","NA"
"-79.22","43.25","PORT WELLER (AUT)","6136699","2018-01-02 14:00","2018","01","02","14:00","-4.3","","-9.9","","65","","0.0","","24","","22","","","","101.35","","","","-11","","NA"
"-79.22","43.25","PORT WELLER (AUT)","6136699","2018-01-02 15:00","2018","01","02","15:00","-4.0","","-9.1","","67","","0.0","","25","","21","","","","101.36","","","","-10","","NA"
"-79.22","43.25","PORT WELLER (AUT)","6136699","2018-01-02 16:00","2018","01","02","16:00","-5.2","","-10.0","","69","","0.0","","23","","23","","","","101.34","","","","-12","","NA"
"-79.22","43.25","PORT WELLER (AUT)","6136699","2018-01-02 17:00","2018","01","02","17:00","-6.4","","-9.6","","78","","0.0","","23","","21","","","","101.34","","","","-13","","NA"
"-79.22","43.25","PORT WELLER (AUT)","6136699","2018-01-02 18:00","2018","01","02","18:00","-6.6","","-9.6","","79","","0.0","","24","","17","","","","101.37","","","","-13","","NA"
"-79.22","43.25","PORT WELLER (AUT)","6136699","2018-01-02 19:00","2018","01","02","19:00","-6.4","","-9.8","","77","","0.0","","24","","20","","","","101.38","","","","-13","","NA"
"-79.22","43.25","PORT WELLER (AUT)","6136699","2018-01-02 20:00","2018","01","02","20:00","-6.6","","-10.0","","77","","0.0","","24","","19","","","","101.30","","","","-13","","NA"
"-79.22","43.25","PORT WELLER (AUT)","6136699","2018-01-02 21:00","2018","01","02","21:00","-6.6","","-9.8","","78","","0.0","","24","","18","","","","101.25","","","","-13","","NA"
"-79.22","43.25","PORT WELLER (AUT)","6136699","2018-01-02 22:00","2018","01","02","22:00","-6.6","","-10.2","","75","","0.0","","23","","19","","","","101.20","","","","-13","","NA"
"-79.22","43.25","PORT WELLER (AUT)","6136699","2018-01-02 23:00","2018","01","02","23:00","-6.2","","-9.9","","75","","0.0","","23","","19","","","","101.16","","","","-13","","NA"
"-79.22","43.25","PORT WELLER (AUT)","6136699","2018-01-03 00:00","2018","01","03","00:00","-5.9","","-9.9","","74","","0.0","","23","","21","","","","101.12","","","","-13","","NA"
"-79.22","43.25","PORT WELLER (AUT)","6136699","2018-01-03 01:00","2018","01","03","01:00","-6.1","","-9.9","","74","","0.0","","24","","21","","","","101.10","","","","-13","","NA"
"-79.22","43.25","PORT WELLER (AUT)","6136699","2018-01-03 02:00","2018","01","03","02:00","-6.6","","-10.2","","75","","0.0","","23","","18","","","","101.11","","","","-13","","NA"
"-79.22","43.25","PORT WELLER (AUT)","6136699","2018-01-03 03:00","2018","01","03","03:00","-6.9","","-11.6","","69","","0.0","","23","","21","","","","101.10","","","","-14","","NA"
"-79.22","43.25","PORT WELLER (AUT)","6136699","2018-01-03 04:00","2018","01","03","04:00","-6.3","","-10.1","","75","","0.0","","23","","18","","","","101.02","","","","-13","","NA"
"-79.22","43.25","PORT WELLER (AUT)","6136699","2018-01-03 05:00","2018","01","03","05:00","-6.5","","-9.8","","77","","0.0","","23","","21","","","","101.03","","","","-14","","NA"
"-79.22","43.25","PORT WELLER (AUT)","6136699","2018-01-03 06:00","2018","01","03","06:00","-6.8","","-9.8","","79","","0.0","","22","","20","","","","101.02","","","","-14","","NA"
"-79.22","43.25","PORT WELLER (AUT)","6136699","2018-01-03 07:00","2018","01","03","07:00","-6.7","","-9.5","","80","","0.0","","21","","13","","","","101.01","","","","-12","","NA"
"-79.22","43.25","PORT WELLER (AUT)","6136699","2018-01-03 08:00","2018","01","03","08:00","-6.8","","-10.0","","78","","0.0","","21","","16","","","","100.99","","","","-13","","NA"
"-79.22","43.25","PORT WELLER (AUT)","6136699","2018-01-03 09:00","2018","01","03","09:00","-6.7","","-10.1","","76","","0.0","","21","","17","","","","100.97","","","","-13","","NA"
"-79.22","43.25","PORT WELLER (AUT)","6136699","2018-01-03 10:00","2018","01","03","10:00","-6.3","","-9.8","","76","","0.0","","20","","17","","","","100.92","","","","-13","","NA"
"-79.22","43.25","PORT WELLER (AUT)","6136699","2018-01-03 11:00","2018","01","03","11:00","-5.5","","-10.1","","70","","0.0","","21","","18","","","","100.86","","","","-12","","NA"
"-79.22","43.25","PORT WELLER (AUT)","6136699","2018-01-03 12:00","2018","01","03","12:00","-5.3","","-11.1","","63","","0.0","","20","","19","","","","100.75","","","","-12","","NA"
"-79.22","43.25","PORT WELLER (AUT)","6136699","2018-01-03 13:00","2018","01","03","13:00","-4.6","","-11.1","","60","","0.0","","24","","16","","","","100.64","","","","-10","","NA"
"-79.22","43.25","PORT WELLER (AUT)","6136699","2018-01-03 14:00","2018","01","03","14:00","-4.4","","-10.7","","62","","0.0","","23","","18","","","","100.56","","","","-10","","NA"
"-79.22","43.25","PORT WELLER (AUT)","6136699","2018-01-03 15:00","2018","01","03","15:00","-4.6","","-10.7","","63","","0.0","","22","","19","","","","100.53","","","","-11","","NA"
"-79.22","43.25","PORT WELLER (AUT)","6136699","2018-01-03 16:00","2018","01","03","16:00","-4.9","","-9.7","","69","","0.0","","21","","19","","","","100.50","","","","-11","","NA"
"-79.22","43.25","PORT WELLER (AUT)","6136699","2018-01-03 17:00","2018","01","03","17:00","-4.9","","-9.9","","68","","0.0","","22","","19","","","","100.51","","","","-11","","NA"
"-79.22","43.25","PORT WELLER (AUT)","6136699","2018-01-03 18:00","2018","01","03","18:00","-5.0","","-8.9","","74","","0.0","","22","","16","","","","100.60","","","","-11","","NA"
"-79.22","43.25","PORT WELLER (AUT)","6136699","2018-01-03 19:00","2018","01","03","19:00","-5.0","","-8.0","","80","","0.0","","22","","17","","","","100.62","","","","-11","","NA"
"-79.22","43.25","PORT WELLER (AUT)","6136699","2018-01-03 20:00","2018","01","03","20:00","-5.0","","-6.3","","91","","0.5","","25","","13","","","","100.60","","","","-10","","NA"
"-79.22","43.25","PORT WELLER (AUT)","6136699","2018-01-03 21:00","2018","01","03","21:00","-5.3","","-7.8","","82","","0.2","","25","","16","","","","100.55","","","","-11","","NA"
"-79.22","43.25","PORT WELLER (AUT)","6136699","2018-01-03 22:00","2018","01","03","22:00","-5.7","","-8.3","","82","","0.0","","27","","33","","","","100.55","","","","-14","","NA"
"-79.22","43.25","PORT WELLER (AUT)","6136699","2018-01-03 23:00","2018","01","03","23:00","-6.7","","-9.5","","80","","0.0","","25","","12","","","","100.55","","","","-12","","NA"
"-79.22","43.25","PORT WELLER (AUT)","6136699","2018-01-04 00:00","2018","01","04","00:00","-7.1","","-10.3","","78","","0.0","","24","","10","","","","100.56","","","","-12","","NA"
"-79.22","43.25","PORT WELLER (AUT)","6136699","2018-01-04 01:00","2018","01","04","01:00","-6.6","","-9.4","","80","","0.0","","26","","24","","","","100.48","","","","-14","","NA"
"-79.22","43.25","PORT WELLER (AUT)","6136699","2018-01-04 02:00","2018","01","04","02:00","-6.8","","-9.9","","79","","0.0","","25","","10","","","","100.48","","","","-11","","NA"
"-79.22","43.25","PORT WELLER (AUT)","6136699","2018-01-04 03:00","2018","01","04","03:00","-6.0","","-8.6","","82","","0.0","","27","","27","","","","100.49","","","","-14","","NA"
"-79.22","43.25","PORT WELLER (AUT)","6136699","2018-01-04 04:00","2018","01","04","04:00","-5.4","","-9.3","","74","","0.0","","29","","27","","","","100.43","","","","-13","","NA"
"-79.22","43.25","PORT WELLER (AUT)","6136699","2018-01-04 05:00","2018","01","04","05:00","-5.5","","-8.2","","81","","0.0","","27","","24","","","","100.38","","","","-13","","NA"
"-79.22","43.25","PORT WELLER (AUT)","6136699","2018-01-04 06:00","2018","01","04","06:00","-5.3","","-8.7","","77","","0.0","","30","","34","","","","100.38","","","","-14","","NA"
"-79.22","43.25","PORT WELLER (AUT)","6136699","2018-01-04 07:00","2018","01","04","07:00","-5.7","","-9.4","","75","","0.0","","31","","33","","","","100.40","","","","-14","","NA"
"-79.22","43.25","PORT WELLER (AUT)","6136699","2018-01-04 08:00","2018","01","04","08:00","-6.4","","-10.7","","71","","0.0","","31","","38","","","","100.40","","","","-16","","NA"
"-79.22","43.25","PORT WELLER (AUT)","6136699","2018-01-04 09:00","2018","01","04","09:00","-7.0","","-10.3","","77","","0.0","","31","","38","","","","100.34","","","","-17","","NA"
"-79.22","43.25","PORT WELLER (AUT)","6136699","2018-01-04 10:00","2018","01","04","10:00","-7.1","","-9.8","","81","","0.0","","32","","33","","","","100.33","","","","-16","","NA"
"-79.22","43.25","PORT WELLER (AUT)","6136699","2018-01-04 11:00","2018","01","04","11:00","-7.1","","-11.1","","73","","0.0","","32","","34","","","","100.35","","","","-16","","NA"
"-79.22","43.25","PORT WELLER (AUT)","6136699","2018-01-04 12:00","2018","01","04","12:00","-7.5","","-12.0","","70","","0.0","","32","","26","","","","100.34","","","","-16","","NA"
"-79.22","43.25","PORT WELLER (AUT)","6136699","2018-01-04 13:00","2018","01","04","13:00","-8.0","","-12.1","","73","","0.0","","33","","35","","","","100.28","","","","-18","","NA"
"-79.22","43.25","PORT WELLER (AUT)","6136699","2018-01-04 14:00","2018","01","04","14:00","-8.4","","-12.6","","72","","0.0","","32","","39","","","","100.22","","","","-19","","NA"
"-79.22","43.25","PORT WELLER (AUT)","6136699","2018-01-04 15:00","2018","01","04","15:00","-8.4","","-12.3","","74","","0.0","","33","","42","","","","100.24","","","","-19","","NA"
"-79.22","43.25","PORT WELLER (AUT)","6136699","2018-01-04 16:00","2018","01","04","16:00","-8.8","","-13.0","","72","","0.0","","30","","35","","","","100.25","","","","-19","","NA"
"-79.22","43.25","PORT WELLER (AUT)","6136699","2018-01-04 17:00","2018","01","04","17:00","-9.5","","-13.7","","72","","0.0","","30","","39","","","","100.26","","","","-20","","NA"
"-79.22","43.25","PORT WELLER (AUT)","6136699","2018-01-04 18:00","2018","01","04","18:00","-9.8","","-13.3","","76","","0.0","","31","","40","","","","100.33","","","","-20","","NA"
"-79.22","43.25","PORT WELLER (AUT)","6136699","2018-01-04 19:00","2018","01","04","19:00","-10.4","","-13.3","","79","","0.0","","31","","38","","","","100.38","","","","-21","","NA"
"-79.22","43.25","PORT WELLER (AUT)","6136699","2018-01-04 20:00","2018","01","04","20:00","-10.8","","-13.4","","81","","0.0","","31","","38","","","","100.39","","","","-22","","NA"
"-79.22","43.25","PORT WELLER (AUT)","6136699","2018-01-04 21:00","2018","01","04","21:00","-11.5","","-13.8","","83","","0.0","","32","","46","","","","100.44","","","","-23","","NA"
"-79.22","43.25","PORT WELLER (AUT)","6136699","2018-01-04 22:00","2018","01","04","22:00","-12.1","","-13.9","","87","","0.0","","32","","49","","","","100.47","","","","-25","","NA"
"-79.22","43.25","PORT WELLER (AUT)","6136699","2018-01-04 23:00","2018","01","04","23:00","-12.7","","-14.7","","85","","0.0","","32","","52","","","","100.49","","","","-26","","NA"
"-79.22","43.25","PORT WELLER (AUT)","6136699","2018-01-05 00:00","2018","01","05","00:00","-13.1","","-15.3","","84","","0.0","","32","","43","","","","100.48","","","","-25","","NA"
"-79.22","43.25","PORT WELLER (AUT)","6136699","2018-01-05 01:00","2018","01","05","01:00","-13.1","","-14.8","","87","","0.0","","31","","43","","","","100.48","","","","-25","","NA"
"-79.22","43.25","PORT WELLER (AUT)","6136699","2018-01-05 02:00","2018","01","05","02:00","-12.7","","-14.3","","87","","0.0","","32","","54","","","","100.51","","","","-26","","NA"
"-79.22","43.25","PORT WELLER (AUT)","6136699","2018-01-05 03:00","2018","01","05","03:00","-13.5","","-15.3","","87","","0.0","","32","","50","","","","100.59","","","","-27","","NA"
"-79.22","43.25","PORT WELLER (AUT)","6136699","2018-01-05 04:00","2018","01","05","04:00","-13.3","","-14.9","","88","","0.0","","32","","50","","","","100.63","","","","-26","","NA"
"-79.22","43.25","PORT WELLER (AUT)","6136699","2018-01-05 05:00","2018","01","05","05:00","-13.6","","-15.5","","86","","0.0","","32","","51","","","","100.66","","","","-27","","NA"
"-79.22","43.25","PORT WELLER (AUT)","6136699","2018-01-05 06:00","2018","01","05","06:00","-13.7","","-15.6","","86","","0.0","","32","","45","","","","100.69","","","","-26","","NA"
"-79.22","43.25","PORT WELLER (AUT)","6136699","2018-01-05 07:00","2018","01","05","07:00","-14.5","","-16.6","","84","","0.0","","31","","38","","","","100.77","","","","-27","","NA"
"-79.22","43.25","PORT WELLER (AUT)","6136699","2018-01-05 08:00","2018","01","05","08:00","-14.2","","-16.0","","86","","0.0","","31","","36","","","","100.84","","","","-26","","NA"
"-79.22","43.25","PORT WELLER (AUT)","6136699","2018-01-05 09:00","2018","01","05","09:00","-14.7","","-16.8","","84","","0.0","","30","","28","","","","100.90","","","","-25","","NA"
"-79.22","43.25","PORT WELLER (AUT)","6136699","2018-01-05 10:00","2018","01","05","10:00","-14.5","","-16.8","","83","","0.0","","30","","33","","","","100.97","","","","-26","","NA"
"-79.22","43.25","PORT WELLER (AUT)","6136699","2018-01-05 11:00","2018","01","05","11:00","-13.8","","-16.4","","81","","0.0","","32","","35","","","","100.99","","","","-25","","NA"
"-79.22","43.25","PORT WELLER (AUT)","6136699","2018-01-05 12:00","2018","01","05","12:00","-13.6","","-15.9","","82","","0.0","","30","","29","","","","100.97","","","","-24","","NA"
"-79.22","43.25","PORT WELLER (AUT)","6136699","2018-01-05 13:00","2018","01","05","13:00","-13.4","","-16.6","","77","","0.0","","29","","29","","","","100.95","","","","-24","","NA"
"-79.22","43.25","PORT WELLER (AUT)","6136699","2018-01-05 14:00","2018","01","05","14:00","-12.3","","-15.6","","77","","0.0","","30","","36","","","","100.95","","","","-23","","NA"
"-79.22","43.25","PORT WELLER (AUT)","6136699","2018-01-05 15:00","2018","01","05","15:00","-12.1","","-16.6","","69","","0.0","","30","","40","","","","101.00","","","","-24","","NA"
"-79.22","43.25","PORT WELLER (AUT)","6136699","2018-01-05 16:00","2018","01","05","16:00","-12.5","","-16.8","","71","","0.0","","29","","40","","","","101.07","","","","-24","","NA"
"-79.22","43.25","PORT WELLER (AUT)","6136699","2018-01-05 17:00","2018","01","05","17:00","-12.4","","-16.2","","74","","0.0","","29","","43","","","","101.12","","","","-24","","NA"
"-79.22","43.25","PORT WELLER (AUT)","6136699","2018-01-05 18:00","2018","01","05","18:00","-12.5","","-15.8","","76","","0.0","","29","","44","","","","101.17","","","","-25","","NA"
"-79.22","43.25","PORT WELLER (AUT)","6136699","2018-01-05 19:00","2018","01","05","19:00","-12.1","","-16.0","","73","","0.0","","30","","52","","","","101.22","","","","-25","","NA"
"-79.22","43.25","PORT WELLER (AUT)","6136699","2018-01-05 20:00","2018","01","05","20:00","-11.4","","-14.3","","79","","0.0","","30","","53","","","","101.24","","","","-24","","NA"
"-79.22","43.25","PORT WELLER (AUT)","6136699","2018-01-05 21:00","2018","01","05","21:00","-12.0","","-14.5","","82","","0.0","","28","","46","","","","101.26","","","","-24","","NA"
"-79.22","43.25","PORT WELLER (AUT)","6136699","2018-01-05 22:00","2018","01","05","22:00","-12.1","","-14.9","","80","","0.0","","29","","54","","","","101.27","","","","-25","","NA"
"-79.22","43.25","PORT WELLER (AUT)","6136699","2018-01-05 23:00","2018","01","05","23:00","-11.8","","-15.8","","72","","0.0","","28","","52","","","","101.23","","","","-24","","NA"
"-79.22","43.25","PORT WELLER (AUT)","6136699","2018-01-06 00:00","2018","01","06","00:00","-12.6","","-14.7","","84","","0.0","","32","","45","","","","101.33","","","","-25","","NA"
"-79.22","43.25","PORT WELLER (AUT)","6136699","2018-01-06 01:00","2018","01","06","01:00","-13.3","","-15.6","","82","","0.0","","31","","38","","","","101.36","","","","-25","","NA"
"-79.22","43.25","PORT WELLER (AUT)","6136699","2018-01-06 02:00","2018","01","06","02:00","-13.7","","-16.0","","83","","0.0","","33","","36","","","","101.47","","","","-25","","NA"
"-79.22","43.25","PORT WELLER (AUT)","6136699","2018-01-06 03:00","2018","01","06","03:00","-14.2","","-17.4","","77","","0.0","","31","","33","","","","101.60","","","","-25","","NA"
"-79.22","43.25","PORT WELLER (AUT)","6136699","2018-01-06 04:00","2018","01","06","04:00","-14.2","","-16.9","","79","","0.0","","31","","30","","","","101.62","","","","-25","","NA"
"-79.22","43.25","PORT WELLER (AUT)","6136699","2018-01-06 05:00","2018","01","06","05:00","-14.2","","-16.4","","83","","0.0","","30","","31","","","","101.67","","","","-25","","NA"
"-79.22","43.25","PORT WELLER (AUT)","6136699","2018-01-06 06:00","2018","01","06","06:00","-14.6","","-16.5","","86","","0.0","","31","","32","","","","101.74","","","","-26","","NA"
"-79.22","43.25","PORT WELLER (AUT)","6136699","2018-01-06 07:00","2018","01","06","07:00","-14.8","","-16.6","","86","","0.2","","32","","32","","","","101.84","","","","-26","","NA"
"-79.22","43.25","PORT WELLER (AUT)","6136699","2018-01-06 08:00","2018","01","06","08:00","-15.6","","-17.6","","84","","0.0","","32","","29","","","","101.93","","","","-27","","NA"
"-79.22","43.25","PORT WELLER (AUT)","6136699","2018-01-06 09:00","2018","01","06","09:00","-15.5","","-17.5","","84","","0.0","","32","","28","","","","102.03","","","","-26","","NA"
"-79.22","43.25","PORT WELLER (AUT)","6136699","2018-01-06 10:00","2018","01","06","10:00","-14.6","","-16.8","","84","","0.0","","31","","28","","","","102.10","","","","-25","","NA"
"-79.22","43.25","PORT WELLER (AUT)","6136699","2018-01-06 11:00","2018","01","06","11:00","-14.2","","-16.4","","83","","0.0","","32","","33","","","","102.17","","","","-25","","NA"
"-79.22","43.25","PORT WELLER (AUT)","6136699","2018-01-06 12:00","2018","01","06","12:00","-14.0","","-16.2","","84","","0.0","","32","","31","","","","102.19","","","","-25","","NA"
"-79.22","43.25","PORT WELLER (AUT)","6136699","2018-01-06 13:00","2018","01","06","13:00","-13.7","","-16.9","","77","","0.0","","31","","32","","","","102.19","","","","-25","","NA"
"-79.22","43.25","PORT WELLER (AUT)","6136699","2018-01-06 14:00","2018","01","06","14:00","-12.7","","-17.1","","70","","0.0","","30","","24","","","","102.18","","","","-22","","NA"
"-79.22","43.25","PORT WELLER (AUT)","6136699","2018-01-06 15:00","2018","01","06","15:00","-12.3","","-17.8","","64","","0.0","","28","","23","","","","102.25","","","","-21","","NA"
"-79.22","43.25","PORT WELLER (AUT)","6136699","2018-01-06 16:00","2018","01","06","16:00","-12.6","","-18.0","","64","","0.0","","29","","26","","","","102.32","","","","-22","","NA"
"-79.22","43.25","PORT WELLER (AUT)","6136699","2018-01-06 17:00","2018","01","06","17:00","-12.8","","-17.6","","67","","0.0","","29","","28","","","","102.37","","","","-23","","NA"
"-79.22","43.25","PORT WELLER (AUT)","6136699","2018-01-06 18:00","2018","01","06","18:00","-12.4","","-17.1","","68","","0.0","","29","","27","","","","102.41","","","","-22","","NA"
"-79.22","43.25","PORT WELLER (AUT)","6136699","2018-01-06 19:00","2018","01","06","19:00","-12.4","","-16.2","","73","","0.0","","30","","31","","","","102.46","","","","-23","","NA"
"-79.22","43.25","PORT WELLER (AUT)","6136699","2018-01-06 20:00","2018","01","06","20:00","-12.4","","-15.9","","75","","0.0","","30","","29","","","","102.50","","","","-23","","NA"
"-79.22","43.25","PORT WELLER (AUT)","6136699","2018-01-06 21:00","2018","01","06","21:00","-12.5","","-16.2","","74","","0.0","","29","","26","","","","102.52","","","","-22","","NA"
"-79.22","43.25","PORT WELLER (AUT)","6136699","2018-01-06 22:00","2018","01","06","22:00","-12.2","","-16.1","","73","","0.0","","30","","21","","","","102.51","","","","-21","","NA"
"-79.22","43.25","PORT WELLER (AUT)","6136699","2018-01-06 23:00","2018","01","06","23:00","-12.0","","-15.7","","74","","0.0","","29","","21","","","","102.52","","","","-21","","NA"
"-79.22","43.25","PORT WELLER (AUT)","6136699","2018-01-07 00:00","2018","01","07","00:00","-14.8","","-17.9","","77","","0.0","","21","","16","","","","102.51","","","","-23","","NA"
"-79.22","43.25","PORT WELLER (AUT)","6136699","2018-01-07 01:00","2018","01","07","01:00","-15.3","","-18.3","","78","","0.0","","20","","13","","","","102.49","","","","-23","","NA"
"-79.22","43.25","PORT WELLER (AUT)","6136699","2018-01-07 02:00","2018","01","07","02:00","-16.5","","-19.5","","78","","0.0","","21","","13","","","","102.46","","","","-24","","NA"
"-79.22","43.25","PORT WELLER (AUT)","6136699","2018-01-07 03:00","2018","01","07","03:00","-16.8","","-19.8","","78","","0.0","","20","","8","","","","102.43","","","","-22","","NA"
"-79.22","43.25","PORT WELLER (AUT)","6136699","2018-01-07 04:00","2018","01","07","04:00","-16.5","","-20.5","","71","","0.0","","21","","10","","","","102.40","","","","-23","","NA"
"-79.22","43.25","PORT WELLER (AUT)","6136699","2018-01-07 05:00","2018","01","07","05:00","-16.5","","-20.8","","69","","0.0","","21","","10","","","","102.38","","","","-23","","NA"
"-79.22","43.25","PORT WELLER (AUT)","6136699","2018-01-07 06:00","2018","01","07","06:00","-15.2","","-19.5","","70","","0.0","","18","","13","","","","102.38","","","","-23","","NA"
"-79.22","43.25","PORT WELLER (AUT)","6136699","2018-01-07 07:00","2018","01","07","07:00","-15.1","","-18.1","","78","","0.0","","19","","15","","","","102.32","","","","-23","","NA"
"-79.22","43.25","PORT WELLER (AUT)","6136699","2018-01-07 08:00","2018","01","07","08:00","-13.8","","-16.8","","78","","0.0","","18","","10","","","","102.29","","","","-20","","NA"
"-79.22","43.25","PORT WELLER (AUT)","6136699","2018-01-07 09:00","2018","01","07","09:00","-12.8","","-16.7","","73","","0.0","","20","","8","","","","102.20","","","","-18","","NA"
"-79.22","43.25","PORT WELLER (AUT)","6136699","2018-01-07 10:00","2018","01","07","10:00","-9.7","","-14.9","","66","","0.0","","21","","10","","","","102.14","","","","-15","","NA"
"-79.22","43.25","PORT WELLER (AUT)","6136699","2018-01-07 11:00","2018","01","07","11:00","-8.2","","-14.3","","61","","0.0","","21","","20","","","","101.96","","","","-16","","NA"
"-79.22","43.25","PORT WELLER (AUT)","6136699","2018-01-07 12:00","2018","01","07","12:00","-8.1","","-14.1","","62","","0.0","","22","","26","","","","101.82","","","","-16","","NA"
"-79.22","43.25","PORT WELLER (AUT)","6136699","2018-01-07 13:00","2018","01","07","13:00","-6.9","","-12.6","","64","","0.0","","22","","17","","","","101.66","","","","-13","","NA"
"-79.22","43.25","PORT WELLER (AUT)","6136699","2018-01-07 14:00","2018","01","07","14:00","-7.4","","-13.3","","62","","0.0","","21","","19","","","","101.44","","","","-14","","NA"
"-79.22","43.25","PORT WELLER (AUT)","6136699","2018-01-07 15:00","2018","01","07","15:00","-6.5","","-13.7","","57","","0.0","","20","","19","","","","101.28","","","","-13","","NA"
"-79.22","43.25","PORT WELLER (AUT)","6136699","2018-01-07 16:00","2018","01","07","16:00","-5.4","","-12.9","","56","","0.0","","20","","15","","","","101.20","","","","-11","","NA"
"-79.22","43.25","PORT WELLER (AUT)","6136699","2018-01-07 17:00","2018","01","07","17:00","-4.2","","-12.3","","53","","0.0","","21","","17","","","","101.07","","","","-10","","NA"
"-79.22","43.25","PORT WELLER (AUT)","6136699","2018-01-07 18:00","2018","01","07","18:00","-3.2","","-10.4","","57","","0.0","","21","","20","","","","100.98","","","","-9","","NA"
"-79.22","43.25","PORT WELLER (AUT)","6136699","2018-01-07 19:00","2018","01","07","19:00","-2.4","","-8.8","","61","","0.0","","22","","21","","","","100.91","","","","-8","","NA"
"-79.22","43.25","PORT WELLER (AUT)","6136699","2018-01-07 20:00","2018","01","07","20:00","-1.6","","-7.4","","64","","0.0","","22","","23","","","","100.81","","","","-8","","NA"
"-79.22","43.25","PORT WELLER (AUT)","6136699","2018-01-07 21:00","2018","01","07","21:00","-0.6","","-7.5","","59","","0.0","","22","","22","","","","100.74","","","","-6","","NA"
"-79.22","43.25","PORT WELLER (AUT)","6136699","2018-01-07 22:00","2018","01","07","22:00","0.1","","-7.7","","56","","0.0","","23","","22","","","","100.70","","","","","","NA"
"-79.22","43.25","PORT WELLER (AUT)","6136699","2018-01-07 23:00","2018","01","07","23:00","0.6","","-7.2","","56","","0.0","","23","","23","","","","100.66","","","","","","NA"
"-79.22","43.25","PORT WELLER (AUT)","6136699","2018-01-08 00:00","2018","01","08","00:00","0.4","","-6.6","","59","","0.0","","23","","19","","","","100.63","","","","","","NA"
"-79.22","43.25","PORT WELLER (AUT)","6136699","2018-01-08 01:00","2018","01","08","01:00","0.3","","-5.1","","67","","0.0","","23","","18","","","","100.61","","","","","","NA"
"-79.22","43.25","PORT WELLER (AUT)","6136699","2018-01-08 02:00","2018","01","08","02:00","-0.2","","-3.2","","80","","0.0","","23","","20","","","","100.61","","","","-5","","NA"
"-79.22","43.25","PORT WELLER (AUT)","6136699","2018-01-08 03:00","2018","01","08","03:00","-0.8","","-2.5","","88","","0.7","","22","","18","","","","100.56","","","","-6","","NA"
"-79.22","43.25","PORT WELLER (AUT)","6136699","2018-01-08 04:00","2018","01","08","04:00","-0.6","","-2.6","","86","","0.3","","21","","20","","","","100.44","","","","-6","","NA"
"-79.22","43.25","PORT WELLER (AUT)","6136699","2018-01-08 05:00","2018","01","08","05:00","-0.4","","-2.7","","85","","0.2","","20","","18","","","","100.34","","","","-5","","NA"
"-79.22","43.25","PORT WELLER (AUT)","6136699","2018-01-08 06:00","2018","01","08","06:00","-0.1","","-2.3","","85","","0.0","","20","","18","","","","100.28","","","","-5","","NA"
"-79.22","43.25","PORT WELLER (AUT)","6136699","2018-01-08 07:00","2018","01","08","07:00","-0.3","","-1.6","","91","","0.5","","19","","20","","","","100.16","","","","-6","","NA"
"-79.22","43.25","PORT WELLER (AUT)","6136699","2018-01-08 08:00","2018","01","08","08:00","0.0","","-0.6","","96","","1.1","","20","","21","","","","100.07","","","","-5","","NA"
"-79.22","43.25","PORT WELLER (AUT)","6136699","2018-01-08 09:00","2018","01","08","09:00","0.8","","0.0","","95","","1.0","","22","","21","","","","100.05","","","","","","NA"
"-79.22","43.25","PORT WELLER (AUT)","6136699","2018-01-08 10:00","2018","01","08","10:00","1.3","","-0.1","","90","","0.2","","22","","24","","","","100.06","","","","","","NA"
"-79.22","43.25","PORT WELLER (AUT)","6136699","2018-01-08 11:00","2018","01","08","11:00","1.6","","0.1","","90","","0.0","","22","","22","","","","100.07","","","","","","NA"
"-79.22","43.25","PORT WELLER (AUT)","6136699","2018-01-08 12:00","2018","01","08","12:00","1.5","","0.1","","90","","0.0","","23","","20","","","","100.00","","","","","","NA"
"-79.22","43.25","PORT WELLER (AUT)","6136699","2018-01-08 13:00","2018","01","08","13:00","1.9","","-0.3","","85","","0.0","","23","","19","","","","100.01","","","","","","NA"
"-79.22","43.25","PORT WELLER (AUT)","6136699","2018-01-08 14:00","2018","01","08","14:00","1.5","","0.0","","90","","0.0","","24","","13","","","","100.06","","","","","","NA"
"-79.22","43.25","PORT WELLER (AUT)","6136699","2018-01-08 15:00","2018","01","08","15:00","1.7","","-0.1","","88","","0.0","","23","","12","","","","100.08","","","","","","NA"
"-79.22","43.25","PORT WELLER (AUT)","6136699","2018-01-08 16:00","2018","01","08","16:00","1.6","","-0.1","","89","","0.0","","23","","11","","","","100.10","","","","","","NA"
"-79.22","43.25","PORT WELLER (AUT)","6136699","2018-01-08 17:00","2018","01","08","17:00","1.7","","0.0","","88","","0.0","","23","","13","","","","100.15","","","","","","NA"
"-79.22","43.25","PORT WELLER (AUT)","6136699","2018-01-08 18:00","2018","01","08","18:00","1.7","","-0.2","","88","","0.0","","23","","13","","","","100.20","","","","","","NA"
"-79.22","43.25","PORT WELLER (AUT)","6136699","2018-01-08 19:00","2018","01","08","19:00","1.8","","-0.5","","85","","0.0","","23","","14","","","","100.25","","","","","","NA"
"-79.22","43.25","PORT WELLER (AUT)","6136699","2018-01-08 20:00","2018","01","08","20:00","1.7","","-0.6","","85","","0.0","","23","","14","","","","100.30","","","","","","NA"
"-79.22","43.25","PORT WELLER (AUT)","6136699","2018-01-08 21:00","2018","01","08","21:00","1.6","","-0.6","","86","","0.0","","24","","11","","","","100.33","","","","","","NA"
"-79.22","43.25","PORT WELLER (AUT)","6136699","2018-01-08 22:00","2018","01","08","22:00","1.5","","-0.7","","85","","0.0","","24","","14","","","","100.35","","","","","","NA"
"-79.22","43.25","PORT WELLER (AUT)","6136699","2018-01-08 23:00","2018","01","08","23:00","1.7","","-1.0","","82","","0.0","","24","","15","","","","100.43","","","","","","NA"
"-79.22","43.25","PORT WELLER (AUT)","6136699","2018-01-09 00:00","2018","01","09","00:00","1.5","","-1.0","","83","","0.0","","25","","14","","","","100.49","","","","","","NA"
"-79.22","43.25","PORT WELLER (AUT)","6136699","2018-01-09 01:00","2018","01","09","01:00","1.9","","-2.8","","71","","0.0","","28","","40","","","","100.58","","","","","","NA"
"-79.22","43.25","PORT WELLER (AUT)","6136699","2018-01-09 02:00","2018","01","09","02:00","1.5","","-2.3","","76","","0.0","","25","","13","","","","100.66","","","","","","NA"
"-79.22","43.25","PORT WELLER (AUT)","6136699","2018-01-09 03:00","2018","01","09","03:00","1.4","","-2.7","","74","","0.0","","25","","11","","","","100.73","","","","","","NA"
"-79.22","43.25","PORT WELLER (AUT)","6136699","2018-01-09 04:00","2018","01","09","04:00","1.8","","-2.6","","73","","0.0","","26","","33","","","","100.79","","","","","","NA"
"-79.22","43.25","PORT WELLER (AUT)","6136699","2018-01-09 05:00","2018","01","09","05:00","0.8","","-2.2","","80","","0.0","","24","","11","","","","100.87","","","","","","NA"
"-79.22","43.25","PORT WELLER (AUT)","6136699","2018-01-09 06:00","2018","01","09","06:00","0.5","","-2.1","","83","","0.0","","25","","13","","","","100.95","","","","","","NA"
"-79.22","43.25","PORT WELLER (AUT)","6136699","2018-01-09 07:00","2018","01","09","07:00","0.4","","-2.4","","81","","0.0","","26","","23","","","","101.05","","","","","","NA"
"-79.22","43.25","PORT WELLER (AUT)","6136699","2018-01-09 08:00","2018","01","09","08:00","-0.1","","-2.5","","84","","0.0","","25","","13","","","","101.16","","","","-4","","NA"
"-79.22","43.25","PORT WELLER (AUT)","6136699","2018-01-09 09:00","2018","01","09","09:00","-0.1","","-2.7","","82","","0.0","","25","","20","","","","101.26","","","","-5","","NA"
"-79.22","43.25","PORT WELLER (AUT)","6136699","2018-01-09 10:00","2018","01","09","10:00","0.1","","-3.6","","76","","0.0","","25","","15","","","","101.38","","","","","","NA"
"-79.22","43.25","PORT WELLER (AUT)","6136699","2018-01-09 11:00","2018","01","09","11:00","0.3","","-3.6","","75","","0.0","","25","","18","","","","101.45","","","","","","NA"
"-79.22","43.25","PORT WELLER (AUT)","6136699","2018-01-09 12:00","2018","01","09","12:00","0.2","","-4.3","","72","","0.0","","26","","17","","","","101.46","","","","","","NA"
"-79.22","43.25","PORT WELLER (AUT)","6136699","2018-01-09 13:00","2018","01","09","13:00","0.5","","-4.2","","71","","0.0","","28","","29","","","","101.47","","","","","","NA"
"-79.22","43.25","PORT WELLER (AUT)","6136699","2018-01-09 14:00","2018","01","09","14:00","0.4","","-4.4","","70","","0.0","","27","","31","","","","101.53","","","","","","NA"
"-79.22","43.25","PORT WELLER (AUT)","6136699","2018-01-09 15:00","2018","01","09","15:00","0.3","","-4.7","","69","","0.0","","25","","16","","","","101.59","","","","","","NA"
"-79.22","43.25","PORT WELLER (AUT)","6136699","2018-01-09 16:00","2018","01","09","16:00","0.0","","-4.7","","70","","0.0","","26","","24","","","","101.67","","","","-6","","NA"
"-79.22","43.25","PORT WELLER (AUT)","6136699","2018-01-09 17:00","2018","01","09","17:00","-0.1","","-4.8","","71","","0.0","","25","","11","","","","101.73","","","","-4","","NA"
"-79.22","43.25","PORT WELLER (AUT)","6136699","2018-01-09 18:00","2018","01","09","18:00","-0.2","","-4.5","","73","","0.0","","25","","9","","","","101.79","","","","-3","","NA"
"-79.22","43.25","PORT WELLER (AUT)","6136699","2018-01-09 19:00","2018","01","09","19:00","-0.3","","-4.7","","72","","0.0","","23","","7","","","","101.84","","","","-3","","NA"
"-79.22","43.25","PORT WELLER (AUT)","6136699","2018-01-09 20:00","2018","01","09","20:00","-0.5","","-5.3","","70","","0.0","","22","","9","","","","101.89","","","","-4","","NA"
"-79.22","43.25","PORT WELLER (AUT)","6136699","2018-01-09 21:00","2018","01","09","21:00","-0.8","","-5.1","","72","","0.0","","20","","6","","","","101.88","","","","-3","","NA"
"-79.22","43.25","PORT WELLER (AUT)","6136699","2018-01-09 22:00","2018","01","09","22:00","-1.0","","-5.7","","70","","0.0","","20","","5","","","","101.88","","","","-3","","NA"
"-79.22","43.25","PORT WELLER (AUT)","6136699","2018-01-09 23:00","2018","01","09","23:00","-2.0","","-5.6","","77","","0.0","","18","","7","","","","101.90","","","","-5","","NA"
"-79.22","43.25","PORT WELLER (AUT)","6136699","2018-01-10 00:00","2018","01","10","00:00","-2.2","","-6.4","","73","","0.0","","18","","8","","","","101.91","","","","-5","","NA"
"-79.22","43.25","PORT WELLER (AUT)","6136699","2018-01-10 01:00","2018","01","10","01:00","-2.9","","-6.2","","78","","0.0","","16","","10","","","","101.90","","","","-7","","NA"
"-79.22","43.25","PORT WELLER (AUT)","6136699","2018-01-10 02:00","2018","01","10","02:00","-3.4","","-6.1","","81","","0.0","","18","","11","","","","101.92","","","","-8","","NA"
"-79.22","43.25","PORT WELLER (AUT)","6136699","2018-01-10 03:00","2018","01","10","03:00","-3.6","","-6.0","","83","","0.0","","16","","9","","","","101.89","","","","-7","","NA"
"-79.22","43.25","PORT WELLER (AUT)","6136699","2018-01-10 04:00","2018","01","10","04:00","-4.3","","-6.4","","86","","0.0","","14","","9","","","","101.80","","","","-8","","NA"
"-79.22","43.25","PORT WELLER (AUT)","6136699","2018-01-10 05:00","2018","01","10","05:00","-4.4","","-6.5","","85","","0.0","","14","","11","","","","101.75","","","","-9","","NA"
"-79.22","43.25","PORT WELLER (AUT)","6136699","2018-01-10 06:00","2018","01","10","06:00","-4.2","","-6.2","","86","","0.0","","13","","14","","","","101.67","","","","-9","","NA"
"-79.22","43.25","PORT WELLER (AUT)","6136699","2018-01-10 07:00","2018","01","10","07:00","-4.3","","-6.7","","84","","0.0","","13","","11","","","","101.59","","","","-9","","NA"
"-79.22","43.25","PORT WELLER (AUT)","6136699","2018-01-10 08:00","2018","01","10","08:00","-4.2","","-6.6","","83","","0.0","","14","","14","","","","101.56","","","","-9","","NA"
"-79.22","43.25","PORT WELLER (AUT)","6136699","2018-01-10 09:00","2018","01","10","09:00","-3.0","","-6.3","","78","","0.0","","13","","13","","","","101.46","","","","-8","","NA"
"-79.22","43.25","PORT WELLER (AUT)","6136699","2018-01-10 10:00","2018","01","10","10:00","-1.3","","-5.6","","73","","0.0","","18","","5","","","","101.53","","","","-3","","NA"
"-79.22","43.25","PORT WELLER (AUT)","6136699","2018-01-10 11:00","2018","01","10","11:00","1.1","","-4.8","","65","","0.0","","17","","5","","","","101.47","","","","","","NA"
"-79.22","43.25","PORT WELLER (AUT)","6136699","2018-01-10 12:00","2018","01","10","12:00","2.7","","-4.8","","57","","0.0","","14","","11","","","","101.19","","","","","","NA"
"-79.22","43.25","PORT WELLER (AUT)","6136699","2018-01-10 13:00","2018","01","10","13:00","2.5","","-4.0","","62","","0.0","","6","","3","","","","101.12","","","","","","NA"
"-79.22","43.25","PORT WELLER (AUT)","6136699","2018-01-10 14:00","2018","01","10","14:00","0.9","","-1.6","","83","","0.0","","7","","12","","","","100.94","","","","","","NA"
"-79.22","43.25","PORT WELLER (AUT)","6136699","2018-01-10 15:00","2018","01","10","15:00","1.1","","-1.0","","86","","0.0","","8","","10","","","","100.91","","","","","","NA"
"-79.22","43.25","PORT WELLER (AUT)","6136699","2018-01-10 16:00","2018","01","10","16:00","1.3","","0.6","","95","","0.7","","10","","8","","","","100.83","","","","","","NA"
"-79.22","43.25","PORT WELLER (AUT)","6136699","2018-01-10 17:00","2018","01","10","17:00","1.2","","0.6","","96","","0.0","","8","","5","","","","100.79","","","","","","NA"
"-79.22","43.25","PORT WELLER (AUT)","6136699","2018-01-10 18:00","2018","01","10","18:00","1.3","","0.6","","95","","0.0","","35","","1","","","","100.74","","","","","","NA"
"-79.22","43.25","PORT WELLER (AUT)","6136699","2018-01-10 19:00","2018","01","10","19:00","1.9","","1.4","","97","","0.0","","6","","5","","","","100.74","","","","","","NA"
"-79.22","43.25","PORT WELLER (AUT)","6136699","2018-01-10 20:00","2018","01","10","20:00","3.5","","3.0","","97","","0.0","","28","","4","","","","100.73","","","","","","NA"
"-79.22","43.25","PORT WELLER (AUT)","6136699","2018-01-10 21:00","2018","01","10","21:00","5.6","","3.7","","88","","0.0","","21","","9","","","","100.72","","","","","","NA"
"-79.22","43.25","PORT WELLER (AUT)","6136699","2018-01-10 22:00","2018","01","10","22:00","7.8","","3.3","","73","","0.0","","19","","23","","","","100.67","","","","","","NA"
"-79.22","43.25","PORT WELLER (AUT)","6136699","2018-01-10 23:00","2018","01","10","23:00","8.6","","3.4","","70","","0.0","","19","","26","","","","100.66","","","","","","NA"
"-79.22","43.25","PORT WELLER (AUT)","6136699","2018-01-11 00:00","2018","01","11","00:00","7.3","","2.4","","71","","0.0","","18","","25","","","","100.62","","","","","","NA"
"-79.22","43.25","PORT WELLER (AUT)","6136699","2018-01-11 01:00","2018","01","11","01:00","8.5","","2.4","","66","","0.0","","19","","28","","","","100.61","","","","","","NA"
"-79.22","43.25","PORT WELLER (AUT)","6136699","2018-01-11 02:00","2018","01","11","02:00","9.1","","2.9","","65","","0.0","","19","","25","","","","100.61","","","","","","NA"
"-79.22","43.25","PORT WELLER (AUT)","6136699","2018-01-11 03:00","2018","01","11","03:00","9.6","","3.4","","65","","0.0","","19","","31","","","","100.65","","","","","","NA"
"-79.22","43.25","PORT WELLER (AUT)","6136699","2018-01-11 04:00","2018","01","11","04:00","9.8","","4.0","","67","","0.0","","19","","19","","","","100.65","","","","","","NA"
"-79.22","43.25","PORT WELLER (AUT)","6136699","2018-01-11 05:00","2018","01","11","05:00","9.9","","4.1","","67","","0.0","","19","","23","","","","100.64","","","","","","NA"
"-79.22","43.25","PORT WELLER (AUT)","6136699","2018-01-11 06:00","2018","01","11","06:00","10.6","","4.9","","68","","0.0","","19","","28","","","","100.62","","","","","","NA"
"-79.22","43.25","PORT WELLER (AUT)","6136699","2018-01-11 07:00","2018","01","11","07:00","10.9","","6.5","","74","","0.0","","19","","29","","","","100.62","","","","","","NA"
"-79.22","43.25","PORT WELLER (AUT)","6136699","2018-01-11 08:00","2018","01","11","08:00","11.1","","6.3","","73","","0.0","","20","","30","","","","100.67","","","","","","NA"
"-79.22","43.25","PORT WELLER (AUT)","6136699","2018-01-11 09:00","2018","01","11","09:00","11.0","","6.3","","73","","0.0","","19","","26","","","","100.68","","","","","","NA"
"-79.22","43.25","PORT WELLER (AUT)","6136699","2018-01-11 10:00","2018","01","11","10:00","12.0","","6.5","","69","","0.0","","19","","28","","","","100.69","","","","","","NA"
"-79.22","43.25","PORT WELLER (AUT)","6136699","2018-01-11 11:00","2018","01","11","11:00","12.3","","6.6","","68","","0.0","","19","","31","","","","100.67","","","","","","NA"
"-79.22","43.25","PORT WELLER (AUT)","6136699","2018-01-11 12:00","2018","01","11","12:00","13.4","","7.1","","66","","0.0","","19","","32","","","","100.60","","","","","","NA"
"-79.22","43.25","PORT WELLER (AUT)","6136699","2018-01-11 13:00","2018","01","11","13:00","14.4","","7.4","","63","","0.0","","19","","25","","","","100.47","","","","","","NA"
"-79.22","43.25","PORT WELLER (AUT)","6136699","2018-01-11 14:00","2018","01","11","14:00","16.0","","8.3","","60","","0.0","","19","","25","","","","100.37","","","","","","NA"
"-79.22","43.25","PORT WELLER (AUT)","6136699","2018-01-11 15:00","2018","01","11","15:00","15.0","","8.1","","63","","0.0","","20","","25","","","","100.33","","","","","","NA"
"-79.22","43.25","PORT WELLER (AUT)","6136699","2018-01-11 16:00","2018","01","11","16:00","13.4","","9.1","","76","","0.0","","20","","23","","","","100.36","","","","","","NA"
"-79.22","43.25","PORT WELLER (AUT)","6136699","2018-01-11 17:00","2018","01","11","17:00","11.6","","10.4","","92","","1.7","","19","","26","","","","100.36","","","","","","NA"
"-79.22","43.25","PORT WELLER (AUT)","6136699","2018-01-11 18:00","2018","01","11","18:00","8.9","","7.8","","93","","1.3","","17","","20","","","","100.27","","","","","","NA"
"-79.22","43.25","PORT WELLER (AUT)","6136699","2018-01-11 19:00","2018","01","11","19:00","8.8","","8.2","","96","","2.5","","18","","21","","","","100.20","","","","","","NA"
"-79.22","43.25","PORT WELLER (AUT)","6136699","2018-01-11 20:00","2018","01","11","20:00","10.3","","9.5","","95","","0.2","","19","","16","","","","100.15","","","","","","NA"
"-79.22","43.25","PORT WELLER (AUT)","6136699","2018-01-11 21:00","2018","01","11","21:00","11.1","","9.8","","92","","0.0","","19","","18","","","","100.07","","","","","","NA"
"-79.22","43.25","PORT WELLER (AUT)","6136699","2018-01-11 22:00","2018","01","11","22:00","11.1","","9.4","","89","","0.2","","20","","15","","","","100.03","","","","","","NA"
"-79.22","43.25","PORT WELLER (AUT)","6136699","2018-01-11 23:00","2018","01","11","23:00","10.6","","8.0","","84","","0.0","","18","","27","","","","99.98","","","","","","NA"
"-79.22","43.25","PORT WELLER (AUT)","6136699","2018-01-12 00:00","2018","01","12","00:00","11.8","","10.2","","90","","0.0","","18","","25","","","","99.89","","","","","","NA"
"-79.22","43.25","PORT WELLER (AUT)","6136699","2018-01-12 01:00","2018","01","12","01:00","11.7","","10.6","","93","","0.2","","19","","21","","","","99.79","","","","","","NA"
"-79.22","43.25","PORT WELLER (AUT)","6136699","2018-01-12 02:00","2018","01","12","02:00","10.9","","9.9","","94","","0.0","","18","","26","","","","99.67","","","","","","NA"
"-79.22","43.25","PORT WELLER (AUT)","6136699","2018-01-12 03:00","2018","01","12","03:00","11.7","","9.5","","86","","0.0","","18","","28","","","","99.61","","","","","","NA"
"-79.22","43.25","PORT WELLER (AUT)","6136699","2018-01-12 04:00","2018","01","12","04:00","13.3","","11.2","","87","","0.0","","19","","30","","","","99.56","","","","","","NA"
"-79.22","43.25","PORT WELLER (AUT)","6136699","2018-01-12 05:00","2018","01","12","05:00","11.8","","10.4","","91","","0.0","","18","","22","","","","99.49","","","","","","NA"
"-79.22","43.25","PORT WELLER (AUT)","6136699","2018-01-12 06:00","2018","01","12","06:00","11.3","","10.2","","93","","0.0","","18","","24","","","","99.40","","","","","","NA"
"-79.22","43.25","PORT WELLER (AUT)","6136699","2018-01-12 07:00","2018","01","12","07:00","11.7","","10.7","","93","","0.0","","19","","24","","","","99.33","","","","","","NA"
"-79.22","43.25","PORT WELLER (AUT)","6136699","2018-01-12 08:00","2018","01","12","08:00","13.0","","11.1","","89","","0.0","","19","","19","","","","99.28","","","","","","NA"
"-79.22","43.25","PORT WELLER (AUT)","6136699","2018-01-12 09:00","2018","01","12","09:00","6.9","","6.3","","96","","0.0","","26","","17","","","","99.33","","","","","","NA"
"-79.22","43.25","PORT WELLER (AUT)","6136699","2018-01-12 10:00","2018","01","12","10:00","5.6","","4.9","","95","","0.8","","30","","25","","","","99.41","","","","","","NA"
"-79.22","43.25","PORT WELLER (AUT)","6136699","2018-01-12 11:00","2018","01","12","11:00","3.4","","2.6","","95","","2.2","","34","","38","","","","99.58","","","","","","NA"
"-79.22","43.25","PORT WELLER (AUT)","6136699","2018-01-12 12:00","2018","01","12","12:00","2.6","","1.8","","95","","2.6","","32","","38","","","","99.70","","","","","","NA"
"-79.22","43.25","PORT WELLER (AUT)","6136699","2018-01-12 13:00","2018","01","12","13:00","1.3","","-0.3","","89","","1.2","","32","","44","","","","99.75","","","","","","NA"
"-79.22","43.25","PORT WELLER (AUT)","6136699","2018-01-12 14:00","2018","01","12","14:00","0.1","","-1.0","","92","","0.6","","32","","43","","","","99.95","","","","","","NA"
"-79.22","43.25","PORT WELLER (AUT)","6136699","2018-01-12 15:00","2018","01","12","15:00","-1.3","","-2.8","","90","","0.8","","33","","41","","","","100.03","","","","-9","","NA"
"-79.22","43.25","PORT WELLER (AUT)","6136699","2018-01-12 16:00","2018","01","12","16:00","-3.4","","-4.8","","90","","0.4","","32","","42","","","","100.22","","","","-12","","NA"
"-79.22","43.25","PORT WELLER (AUT)","6136699","2018-01-12 17:00","2018","01","12","17:00","-4.2","","-5.4","","91","","0.8","","32","","36","","","","100.43","","","","-13","","NA"
"-79.22","43.25","PORT WELLER (AUT)","6136699","2018-01-12 18:00","2018","01","12","18:00","-4.9","","-5.9","","93","","1.1","","33","","40","","","","100.50","","","","-14","","NA"
"-79.22","43.25","PORT WELLER (AUT)","6136699","2018-01-12 19:00","2018","01","12","19:00","-5.5","","-6.7","","92","","0.5","","34","","33","","","","100.62","","","","-14","","NA"
"-79.22","43.25","PORT WELLER (AUT)","6136699","2018-01-12 20:00","2018","01","12","20:00","-5.7","","-7.1","","90","","0.5","","35","","31","","","","100.75","","","","-14","","NA"
"-79.22","43.25","PORT WELLER (AUT)","6136699","2018-01-12 21:00","2018","01","12","21:00","-6.3","","-7.7","","90","","0.2","","36","","36","","","","100.66","","","","-15","","NA"
"-79.22","43.25","PORT WELLER (AUT)","6136699","2018-01-12 22:00","2018","01","12","22:00","-6.6","","-8.3","","88","","0.2","","36","","39","","","","100.67","","","","-16","","NA"
"-79.22","43.25","PORT WELLER (AUT)","6136699","2018-01-12 23:00","2018","01","12","23:00","-6.8","","-8.1","","90","","0.3","","36","","38","","","","100.79","","","","-16","","NA"
"-79.22","43.25","PORT WELLER (AUT)","6136699","2018-01-13 00:00","2018","01","13","00:00","-7.4","","-8.8","","90","","0.5","","35","","40","","","","100.71","","","","-17","","NA"
"-79.22","43.25","PORT WELLER (AUT)","6136699","2018-01-13 01:00","2018","01","13","01:00","-7.6","","-9.8","","84","","0.0","","36","","40","","","","100.67","","","","-18","","NA"
"-79.22","43.25","PORT WELLER (AUT)","6136699","2018-01-13 02:00","2018","01","13","02:00","-7.7","","-10.0","","84","","0.0","","36","","42","","","","100.76","","","","-18","","NA"
"-79.22","43.25","PORT WELLER (AUT)","6136699","2018-01-13 03:00","2018","01","13","03:00","-8.1","","-10.5","","83","","0.0","","35","","44","","","","100.80","","","","-19","","NA"
"-79.22","43.25","PORT WELLER (AUT)","6136699","2018-01-13 04:00","2018","01","13","04:00","-8.3","","-10.7","","82","","0.0","","35","","42","","","","100.86","","","","-19","","NA"
"-79.22","43.25","PORT WELLER (AUT)","6136699","2018-01-13 05:00","2018","01","13","05:00","-8.5","","-11.4","","80","","0.0","","35","","40","","","","100.99","","","","-19","","NA"
"-79.22","43.25","PORT WELLER (AUT)","6136699","2018-01-13 06:00","2018","01","13","06:00","-8.8","","-11.2","","83","","0.0","","34","","44","","","","101.07","","","","-20","","NA"
"-79.22","43.25","PORT WELLER (AUT)","6136699","2018-01-13 07:00","2018","01","13","07:00","-8.9","","-11.2","","83","","0.0","","34","","37","","","","101.22","","","","-19","","NA"
"-79.22","43.25","PORT WELLER (AUT)","6136699","2018-01-13 08:00","2018","01","13","08:00","-9.2","","-12.0","","80","","0.0","","34","","40","","","","101.33","","","","-20","","NA"
"-79.22","43.25","PORT WELLER (AUT)","6136699","2018-01-13 09:00","2018","01","13","09:00","-9.1","","-11.8","","80","","0.0","","33","","41","","","","101.49","","","","-20","","NA"
"-79.22","43.25","PORT WELLER (AUT)","6136699","2018-01-13 10:00","2018","01","13","10:00","-8.0","","-11.4","","76","","0.0","","33","","42","","","","101.61","","","","-18","","NA"
"-79.22","43.25","PORT WELLER (AUT)","6136699","2018-01-13 11:00","2018","01","13","11:00","-7.7","","-10.8","","78","","0.0","","33","","42","","","","101.67","","","","-18","","NA"
"-79.22","43.25","PORT WELLER (AUT)","6136699","2018-01-13 12:00","2018","01","13","12:00","-7.7","","-12.2","","70","","0.0","","32","","44","","","","101.74","","","","-18","","NA"
"-79.22","43.25","PORT WELLER (AUT)","6136699","2018-01-13 13:00","2018","01","13","13:00","-7.6","","-12.2","","69","","0.0","","32","","36","","","","101.77","","","","-17","","NA"
"-79.22","43.25","PORT WELLER (AUT)","6136699","2018-01-13 14:00","2018","01","13","14:00","-7.5","","-11.7","","72","","0.0","","32","","34","","","","101.82","","","","-17","","NA"
"-79.22","43.25","PORT WELLER (AUT)","6136699","2018-01-13 15:00","2018","01","13","15:00","-8.2","","-12.2","","73","","0.0","","31","","32","","","","101.90","","","","-17","","NA"
"-79.22","43.25","PORT WELLER (AUT)","6136699","2018-01-13 16:00","2018","01","13","16:00","-8.8","","-13.9","","67","","0.0","","33","","23","","","","102.03","","","","-17","","NA"
"-79.22","43.25","PORT WELLER (AUT)","6136699","2018-01-13 17:00","2018","01","13","17:00","-9.1","","-14.1","","67","","0.0","","31","","28","","","","102.14","","","","-18","","NA"
"-79.22","43.25","PORT WELLER (AUT)","6136699","2018-01-13 18:00","2018","01","13","18:00","-9.1","","-14.0","","68","","0.0","","29","","29","","","","102.21","","","","-18","","NA"
"-79.22","43.25","PORT WELLER (AUT)","6136699","2018-01-13 19:00","2018","01","13","19:00","-9.3","","-13.9","","69","","0.0","","31","","31","","","","102.33","","","","-19","","NA"
"-79.22","43.25","PORT WELLER (AUT)","6136699","2018-01-13 20:00","2018","01","13","20:00","-9.9","","-14.4","","70","","0.0","","31","","27","","","","102.44","","","","-19","","NA"
"-79.22","43.25","PORT WELLER (AUT)","6136699","2018-01-13 21:00","2018","01","13","21:00","-10.1","","-14.5","","70","","0.0","","32","","26","","","","102.50","","","","-19","","NA"
"-79.22","43.25","PORT WELLER (AUT)","6136699","2018-01-13 22:00","2018","01","13","22:00","-10.2","","-14.7","","69","","0.0","","33","","21","","","","102.57","","","","-18","","NA"
"-79.22","43.25","PORT WELLER (AUT)","6136699","2018-01-13 23:00","2018","01","13","23:00","-10.6","","-15.1","","69","","0.0","","33","","22","","","","102.60","","","","-19","","NA"
"-79.22","43.25","PORT WELLER (AUT)","6136699","2018-01-14 00:00","2018","01","14","00:00","-10.4","","-15.6","","65","","0.0","","34","","18","","","","102.63","","","","-18","","NA"
"-79.22","43.25","PORT WELLER (AUT)","6136699","2018-01-14 01:00","2018","01","14","01:00","-10.1","","-15.5","","65","","0.0","","33","","21","","","","102.62","","","","-18","","NA"
"-79.22","43.25","PORT WELLER (AUT)","6136699","2018-01-14 02:00","2018","01","14","02:00","-9.9","","-14.6","","69","","0.0","","31","","15","","","","102.68","","","","-17","","NA"
"-79.22","43.25","PORT WELLER (AUT)","6136699","2018-01-14 03:00","2018","01","14","03:00","-10.1","","-14.5","","70","","0.0","","32","","9","","","","102.73","","","","-15","","NA"
"-79.22","43.25","PORT WELLER (AUT)","6136699","2018-01-14 04:00","2018","01","14","04:00","-10.7","","-14.2","","75","","0.0","","24","","13","","","","102.77","","","","-17","","NA"
"-79.22","43.25","PORT WELLER (AUT)","6136699","2018-01-14 05:00","2018","01","14","05:00","-11.1","","-14.4","","76","","0.0","","22","","13","","","","102.80","","","","-18","","NA"
"-79.22","43.25","PORT WELLER (AUT)","6136699","2018-01-14 06:00","2018","01","14","06:00","-11.0","","-14.4","","76","","0.0","","21","","13","","","","102.87","","","","-17","","NA"
"-79.22","43.25","PORT WELLER (AUT)","6136699","2018-01-14 07:00","2018","01","14","07:00","-11.2","","-14.9","","74","","0.0","","20","","12","","","","102.90","","","","-17","","NA"
"-79.22","43.25","PORT WELLER (AUT)","6136699","2018-01-14 08:00","2018","01","14","08:00","-11.5","","-16.0","","69","","0.0","","19","","13","","","","102.94","","","","-18","","NA"
"-79.22","43.25","PORT WELLER (AUT)","6136699","2018-01-14 09:00","2018","01","14","09:00","-9.7","","-14.0","","71","","0.0","","18","","13","","","","103.01","","","","-16","","NA"
"-79.22","43.25","PORT WELLER (AUT)","6136699","2018-01-14 10:00","2018","01","14","10:00","-8.2","","-14.1","","63","","0.0","","19","","12","","","","103.04","","","","-14","","NA"
"-79.22","43.25","PORT WELLER (AUT)","6136699","2018-01-14 11:00","2018","01","14","11:00","-7.0","","-13.3","","61","","0.0","","20","","13","","","","103.05","","","","-13","","NA"
"-79.22","43.25","PORT WELLER (AUT)","6136699","2018-01-14 12:00","2018","01","14","12:00","-6.0","","-12.9","","58","","0.0","","22","","10","","","","102.98","","","","-10","","NA"
"-79.22","43.25","PORT WELLER (AUT)","6136699","2018-01-14 13:00","2018","01","14","13:00","-5.6","","-13.0","","56","","0.0","","19","","11","","","","102.93","","","","-10","","NA"
"-79.22","43.25","PORT WELLER (AUT)","6136699","2018-01-14 14:00","2018","01","14","14:00","-5.1","","-13.7","","51","","0.0","","20","","9","","","","102.87","","","","-9","","NA"
"-79.22","43.25","PORT WELLER (AUT)","6136699","2018-01-14 15:00","2018","01","14","15:00","-5.4","","-14.3","","49","","0.0","","19","","8","","","","102.86","","","","-9","","NA"
"-79.22","43.25","PORT WELLER (AUT)","6136699","2018-01-14 16:00","2018","01","14","16:00","-5.6","","-15.0","","47","","0.0","","21","","7","","","","102.87","","","","-9","","NA"
"-79.22","43.25","PORT WELLER (AUT)","6136699","2018-01-14 17:00","2018","01","14","17:00","-6.7","","-13.0","","61","","0.0","","17","","12","","","","102.85","","","","-12","","NA"
"-79.22","43.25","PORT WELLER (AUT)","6136699","2018-01-14 18:00","2018","01","14","18:00","-7.2","","-13.3","","61","","0.0","","17","","15","","","","102.88","","","","-13","","NA"
"-79.22","43.25","PORT WELLER (AUT)","6136699","2018-01-14 19:00","2018","01","14","19:00","-7.9","","-14.0","","62","","0.0","","17","","15","","","","102.88","","","","-14","","NA"
"-79.22","43.25","PORT WELLER (AUT)","6136699","2018-01-14 20:00","2018","01","14","20:00","-8.4","","-14.2","","63","","0.0","","16","","11","","","","102.86","","","","-14","","NA"
"-79.22","43.25","PORT WELLER (AUT)","6136699","2018-01-14 21:00","2018","01","14","21:00","-8.3","","-13.5","","66","","0.0","","14","","10","","","","102.85","","","","-13","","NA"
"-79.22","43.25","PORT WELLER (AUT)","6136699","2018-01-14 22:00","2018","01","14","22:00","-8.9","","-13.2","","71","","0.0","","14","","18","","","","102.85","","","","-16","","NA"
"-79.22","43.25","PORT WELLER (AUT)","6136699","2018-01-14 23:00","2018","01","14","23:00","-9.1","","-13.5","","71","","0.0","","14","","13","","","","102.90","","","","-15","","NA"
"-79.22","43.25","PORT WELLER (AUT)","6136699","2018-01-15 00:00","2018","01","15","00:00","-9.3","","-14.0","","68","","0.0","","13","","14","","","","102.84","","","","-16","","NA"
"-79.22","43.25","PORT WELLER (AUT)","6136699","2018-01-15 01:00","2018","01","15","01:00","-10.0","","-14.2","","71","","0.0","","12","","17","","","","102.80","","","","-17","","NA"
"-79.22","43.25","PORT WELLER (AUT)","6136699","2018-01-15 02:00","2018","01","15","02:00","-10.7","","-14.7","","72","","0.0","","12","","17","","","","102.76","","","","-18","","NA"
"-79.22","43.25","PORT WELLER (AUT)","6136699","2018-01-15 03:00","2018","01","15","03:00","-10.7","","-14.8","","72","","0.0","","11","","18","","","","102.71","","","","-18","","NA"
"-79.22","43.25","PORT WELLER (AUT)","6136699","2018-01-15 04:00","2018","01","15","04:00","-10.8","","-14.8","","72","","0.0","","11","","22","","","","102.65","","","","-19","","NA"
"-79.22","43.25","PORT WELLER (AUT)","6136699","2018-01-15 05:00","2018","01","15","05:00","-10.6","","-14.6","","72","","0.0","","10","","27","","","","102.60","","","","-20","","NA"
"-79.22","43.25","PORT WELLER (AUT)","6136699","2018-01-15 06:00","2018","01","15","06:00","-10.8","","-15.2","","70","","0.0","","10","","28","","","","102.58","","","","-20","","NA"
"-79.22","43.25","PORT WELLER (AUT)","6136699","2018-01-15 07:00","2018","01","15","07:00","-10.1","","-14.2","","72","","0.0","","10","","26","","","","102.55","","","","-19","","NA"
"-79.22","43.25","PORT WELLER (AUT)","6136699","2018-01-15 08:00","2018","01","15","08:00","-9.9","","-14.5","","69","","0.0","","10","","25","","","","102.47","","","","-19","","NA"
"-79.22","43.25","PORT WELLER (AUT)","6136699","2018-01-15 09:00","2018","01","15","09:00","-10.2","","-15.2","","67","","0.0","","11","","24","","","","102.43","","","","-19","","NA"
"-79.22","43.25","PORT WELLER (AUT)","6136699","2018-01-15 10:00","2018","01","15","10:00","-10.2","","-15.4","","66","","0.0","","10","","22","","","","102.44","","","","-18","","NA"
"-79.22","43.25","PORT WELLER (AUT)","6136699","2018-01-15 11:00","2018","01","15","11:00","-9.8","","-15.1","","65","","0.0","","11","","17","","","","102.37","","","","-17","","NA"
"-79.22","43.25","PORT WELLER (AUT)","6136699","2018-01-15 12:00","2018","01","15","12:00","-9.1","","-15.0","","62","","0.0","","11","","13","","","","102.28","","","","-15","","NA"
"-79.22","43.25","PORT WELLER (AUT)","6136699","2018-01-15 13:00","2018","01","15","13:00","-8.5","","-13.7","","66","","0.0","","10","","14","","","","102.12","","","","-15","","NA"
"-79.22","43.25","PORT WELLER (AUT)","6136699","2018-01-15 14:00","2018","01","15","14:00","-7.6","","-13.4","","63","","0.0","","9","","11","","","","102.07","","","","-13","","NA"
"-79.22","43.25","PORT WELLER (AUT)","6136699","2018-01-15 15:00","2018","01","15","15:00","-7.3","","-11.8","","70","","0.0","","8","","14","","","","101.99","","","","-13","","NA"
"-79.22","43.25","PORT WELLER (AUT)","6136699","2018-01-15 16:00","2018","01","15","16:00","-6.6","","-11.8","","66","","0.0","","8","","20","","","","101.95","","","","-14","","NA"
"-79.22","43.25","PORT WELLER (AUT)","6136699","2018-01-15 17:00","2018","01","15","17:00","-6.5","","-11.4","","68","","0.0","","9","","17","","","","101.99","","","","-13","","NA"
"-79.22","43.25","PORT WELLER (AUT)","6136699","2018-01-15 18:00","2018","01","15","18:00","-6.3","","-10.7","","71","","0.0","","9","","18","","","","101.93","","","","-13","","NA"
"-79.22","43.25","PORT WELLER (AUT)","6136699","2018-01-15 19:00","2018","01","15","19:00","-6.6","","-8.8","","84","","0.0","","10","","17","","","","101.90","","","","-13","","NA"
"-79.22","43.25","PORT WELLER (AUT)","6136699","2018-01-15 20:00","2018","01","15","20:00","-6.3","","-7.8","","89","","0.2","","10","","17","","","","101.88","","","","-13","","NA"
"-79.22","43.25","PORT WELLER (AUT)","6136699","2018-01-15 21:00","2018","01","15","21:00","-6.3","","-7.8","","89","","0.2","","11","","16","","","","101.85","","","","-12","","NA"
"-79.22","43.25","PORT WELLER (AUT)","6136699","2018-01-15 22:00","2018","01","15","22:00","-6.0","","-7.6","","89","","0.3","","12","","12","","","","101.80","","","","-11","","NA"
"-79.22","43.25","PORT WELLER (AUT)","6136699","2018-01-15 23:00","2018","01","15","23:00","-5.4","","-6.9","","89","","0.0","","14","","9","","","","101.76","","","","-9","","NA"
"-79.22","43.25","PORT WELLER (AUT)","6136699","2018-01-16 00:00","2018","01","16","00:00","-4.5","","-6.7","","84","","0.0","","16","","14","","","","101.69","","","","-10","","NA"
"-79.22","43.25","PORT WELLER (AUT)","6136699","2018-01-16 01:00","2018","01","16","01:00","-4.5","","-7.1","","82","","0.0","","17","","12","","","","101.65","","","","-9","","NA"
"-79.22","43.25","PORT WELLER (AUT)","6136699","2018-01-16 02:00","2018","01","16","02:00","-4.1","","-6.2","","85","","0.0","","18","","15","","","","101.66","","","","-9","","NA"
"-79.22","43.25","PORT WELLER (AUT)","6136699","2018-01-16 03:00","2018","01","16","03:00","-3.8","","-5.9","","85","","0.0","","17","","14","","","","101.68","","","","-9","","NA"
"-79.22","43.25","PORT WELLER (AUT)","6136699","2018-01-16 04:00","2018","01","16","04:00","-3.7","","-5.4","","88","","0.2","","17","","14","","","","101.70","","","","-9","","NA"
"-79.22","43.25","PORT WELLER (AUT)","6136699","2018-01-16 05:00","2018","01","16","05:00","-3.3","","-5.0","","88","","0.0","","19","","11","","","","101.71","","","","-8","","NA"
"-79.22","43.25","PORT WELLER (AUT)","6136699","2018-01-16 06:00","2018","01","16","06:00","-3.2","","-5.1","","87","","0.0","","21","","9","","","","101.76","","","","-7","","NA"
"-79.22","43.25","PORT WELLER (AUT)","6136699","2018-01-16 07:00","2018","01","16","07:00","-3.0","","-4.8","","87","","0.0","","26","","12","","","","101.79","","","","-7","","NA"
"-79.22","43.25","PORT WELLER (AUT)","6136699","2018-01-16 08:00","2018","01","16","08:00","-3.3","","-5.2","","86","","0.0","","22","","11","","","","101.85","","","","-8","","NA"
"-79.22","43.25","PORT WELLER (AUT)","6136699","2018-01-16 09:00","2018","01","16","09:00","-2.7","","-5.6","","80","","0.0","","25","","15","","","","101.90","","","","-8","","NA"
"-79.22","43.25","PORT WELLER (AUT)","6136699","2018-01-16 10:00","2018","01","16","10:00","-2.8","","-6.0","","78","","0.0","","24","","10","","","","102.00","","","","-7","","NA"
"-79.22","43.25","PORT WELLER (AUT)","6136699","2018-01-16 11:00","2018","01","16","11:00","-2.6","","-7.0","","72","","0.0","","24","","10","","","","101.99","","","","-6","","NA"
"-79.22","43.25","PORT WELLER (AUT)","6136699","2018-01-16 12:00","2018","01","16","12:00","-2.3","","-6.8","","71","","0.0","","26","","11","","","","101.94","","","","-6","","NA"
"-79.22","43.25","PORT WELLER (AUT)","6136699","2018-01-16 13:00","2018","01","16","13:00","-2.2","","-7.0","","70","","0.0","","26","","10","","","","101.86","","","","-6","","NA"
"-79.22","43.25","PORT WELLER (AUT)","6136699","2018-01-16 14:00","2018","01","16","14:00","-2.1","","-7.9","","65","","0.0","","24","","6","","","","101.86","","","","-4","","NA"
"-79.22","43.25","PORT WELLER (AUT)","6136699","2018-01-16 15:00","2018","01","16","15:00","-2.4","","-7.8","","66","","0.0","","23","","6","","","","101.87","","","","-5","","NA"
"-79.22","43.25","PORT WELLER (AUT)","6136699","2018-01-16 16:00","2018","01","16","16:00","-3.3","","-7.3","","74","","0.0","","22","","8","","","","101.86","","","","-7","","NA"
"-79.22","43.25","PORT WELLER (AUT)","6136699","2018-01-16 17:00","2018","01","16","17:00","-3.9","","-7.3","","77","","0.0","","20","","9","","","","101.89","","","","-8","","NA"
"-79.22","43.25","PORT WELLER (AUT)","6136699","2018-01-16 18:00","2018","01","16","18:00","-4.6","","-7.9","","78","","0.0","","20","","13","","","","101.93","","","","-10","","NA"
"-79.22","43.25","PORT WELLER (AUT)","6136699","2018-01-16 19:00","2018","01","16","19:00","-5.6","","-8.5","","80","","0.0","","23","","12","","","","101.99","","","","-11","","NA"
"-79.22","43.25","PORT WELLER (AUT)","6136699","2018-01-16 20:00","2018","01","16","20:00","-5.9","","-8.7","","81","","0.0","","23","","12","","","","102.01","","","","-11","","NA"
"-79.22","43.25","PORT WELLER (AUT)","6136699","2018-01-16 21:00","2018","01","16","21:00","-7.3","","-10.8","","76","","0.0","","23","","14","","","","102.04","","","","-13","","NA"
"-79.22","43.25","PORT WELLER (AUT)","6136699","2018-01-16 22:00","2018","01","16","22:00","-8.0","","-11.6","","75","","0.0","","24","","16","","","","102.08","","","","-15","","NA"
"-79.22","43.25","PORT WELLER (AUT)","6136699","2018-01-16 23:00","2018","01","16","23:00","-8.5","","-12.3","","74","","0.0","","22","","19","","","","102.05","","","","-16","","NA"
"-79.22","43.25","PORT WELLER (AUT)","6136699","2018-01-17 00:00","2018","01","17","00:00","-8.9","","-12.0","","78","","0.0","","20","","11","","","","102.03","","","","-14","","NA"
"-79.22","43.25","PORT WELLER (AUT)","6136699","2018-01-17 01:00","2018","01","17","01:00","-8.4","","-10.9","","83","","0.0","","22","","9","","","","101.98","","","","-13","","NA"
"-79.22","43.25","PORT WELLER (AUT)","6136699","2018-01-17 02:00","2018","01","17","02:00","-8.2","","-11.3","","78","","0.0","","22","","13","","","","101.99","","","","-14","","NA"
"-79.22","43.25","PORT WELLER (AUT)","6136699","2018-01-17 03:00","2018","01","17","03:00","-8.1","","-11.3","","78","","0.0","","22","","14","","","","102.00","","","","-14","","NA"
"-79.22","43.25","PORT WELLER (AUT)","6136699","2018-01-17 04:00","2018","01","17","04:00","-8.2","","-11.2","","79","","0.0","","21","","16","","","","101.96","","","","-15","","NA"
"-79.22","43.25","PORT WELLER (AUT)","6136699","2018-01-17 05:00","2018","01","17","05:00","-7.9","","-10.7","","80","","0.0","","24","","14","","","","101.98","","","","-14","","NA"
"-79.22","43.25","PORT WELLER (AUT)","6136699","2018-01-17 06:00","2018","01","17","06:00","-8.0","","-10.7","","81","","0.0","","24","","12","","","","102.01","","","","-13","","NA"
"-79.22","43.25","PORT WELLER (AUT)","6136699","2018-01-17 07:00","2018","01","17","07:00","-8.4","","-11.2","","80","","0.0","","23","","14","","","","102.01","","","","-15","","NA"
"-79.22","43.25","PORT WELLER (AUT)","6136699","2018-01-17 08:00","2018","01","17","08:00","-7.7","","-10.2","","83","","0.0","","25","","14","","","","102.00","","","","-14","","NA"
"-79.22","43.25","PORT WELLER (AUT)","6136699","2018-01-17 09:00","2018","01","17","09:00","-7.2","","-10.2","","79","","0.0","","24","","11","","","","102.00","","","","-12","","NA"
"-79.22","43.25","PORT WELLER (AUT)","6136699","2018-01-17 10:00","2018","01","17","10:00","-6.1","","-9.6","","76","","0.0","","25","","15","","","","102.03","","","","-12","","NA"
"-79.22","43.25","PORT WELLER (AUT)","6136699","2018-01-17 11:00","2018","01","17","11:00","-5.7","","-9.5","","74","","0.0","","25","","18","","","","102.03","","","","-12","","NA"
"-79.22","43.25","PORT WELLER (AUT)","6136699","2018-01-17 12:00","2018","01","17","12:00","-4.8","","-10.6","","64","","0.0","","25","","16","","","","101.89","","","","-11","","NA"
"-79.22","43.25","PORT WELLER (AUT)","6136699","2018-01-17 13:00","2018","01","17","13:00","-4.2","","-10.6","","61","","0.0","","24","","14","","","","101.80","","","","-9","","NA"
"-79.22","43.25","PORT WELLER (AUT)","6136699","2018-01-17 14:00","2018","01","17","14:00","-3.8","","-10.2","","61","","0.0","","25","","14","","","","101.73","","","","-9","","NA"
"-79.22","43.25","PORT WELLER (AUT)","6136699","2018-01-17 15:00","2018","01","17","15:00","-4.3","","-10.9","","60","","0.0","","23","","14","","","","101.68","","","","-9","","NA"
"-79.22","43.25","PORT WELLER (AUT)","6136699","2018-01-17 16:00","2018","01","17","16:00","-5.0","","-10.8","","64","","0.0","","21","","19","","","","101.61","","","","-11","","NA"
"-79.22","43.25","PORT WELLER (AUT)","6136699","2018-01-17 17:00","2018","01","17","17:00","-6.1","","-9.8","","75","","0.0","","23","","18","","","","101.56","","","","-13","","NA"
"-79.22","43.25","PORT WELLER (AUT)","6136699","2018-01-17 18:00","2018","01","17","18:00","-6.4","","-9.5","","78","","0.0","","21","","20","","","","101.49","","","","-13","","NA"
"-79.22","43.25","PORT WELLER (AUT)","6136699","2018-01-17 19:00","2018","01","17","19:00","-5.9","","-8.6","","81","","0.0","","22","","23","","","","101.39","","","","-13","","NA"
"-79.22","43.25","PORT WELLER (AUT)","6136699","2018-01-17 20:00","2018","01","17","20:00","-5.5","","-8.4","","80","","0.0","","23","","24","","","","101.30","","","","-13","","NA"
"-79.22","43.25","PORT WELLER (AUT)","6136699","2018-01-17 21:00","2018","01","17","21:00","-5.1","","-8.1","","79","","0.0","","22","","25","","","","101.21","","","","-12","","NA"
"-79.22","43.25","PORT WELLER (AUT)","6136699","2018-01-17 22:00","2018","01","17","22:00","-5.2","","-8.2","","79","","0.0","","22","","28","","","","101.09","","","","-13","","NA"
"-79.22","43.25","PORT WELLER (AUT)","6136699","2018-01-17 23:00","2018","01","17","23:00","-5.1","","-8.2","","79","","0.0","","23","","26","","","","101.01","","","","-13","","NA"
"-79.22","43.25","PORT WELLER (AUT)","6136699","2018-01-18 00:00","2018","01","18","00:00","-5.3","","-8.5","","78","","0.0","","23","","24","","","","100.96","","","","-13","","NA"
"-79.22","43.25","PORT WELLER (AUT)","6136699","2018-01-18 01:00","2018","01","18","01:00","-5.6","","-9.0","","77","","0.0","","23","","22","","","","100.92","","","","-13","","NA"
"-79.22","43.25","PORT WELLER (AUT)","6136699","2018-01-18 02:00","2018","01","18","02:00","-5.8","","-9.5","","76","","0.0","","23","","23","","","","100.89","","","","-13","","NA"
"-79.22","43.25","PORT WELLER (AUT)","6136699","2018-01-18 03:00","2018","01","18","03:00","-5.6","","-8.5","","80","","0.0","","23","","19","","","","100.91","","","","-12","","NA"
"-79.22","43.25","PORT WELLER (AUT)","6136699","2018-01-18 04:00","2018","01","18","04:00","-5.9","","-9.4","","76","","0.0","","23","","20","","","","100.87","","","","-13","","NA"
"-79.22","43.25","PORT WELLER (AUT)","6136699","2018-01-18 05:00","2018","01","18","05:00","-5.8","","-8.9","","78","","0.0","","23","","22","","","","100.82","","","","-13","","NA"
"-79.22","43.25","PORT WELLER (AUT)","6136699","2018-01-18 06:00","2018","01","18","06:00","-5.6","","-8.7","","78","","0.0","","24","","19","","","","100.84","","","","-12","","NA"
"-79.22","43.25","PORT WELLER (AUT)","6136699","2018-01-18 07:00","2018","01","18","07:00","-5.7","","-9.3","","76","","0.0","","23","","20","","","","100.82","","","","-12","","NA"
"-79.22","43.25","PORT WELLER (AUT)","6136699","2018-01-18 08:00","2018","01","18","08:00","-5.5","","-8.8","","78","","0.0","","24","","17","","","","100.85","","","","-12","","NA"
"-79.22","43.25","PORT WELLER (AUT)","6136699","2018-01-18 09:00","2018","01","18","09:00","-5.4","","-8.4","","79","","0.0","","23","","17","","","","100.87","","","","-11","","NA"
"-79.22","43.25","PORT WELLER (AUT)","6136699","2018-01-18 10:00","2018","01","18","10:00","-5.5","","-8.7","","79","","0.0","","22","","19","","","","100.90","","","","-12","","NA"
"-79.22","43.25","PORT WELLER (AUT)","6136699","2018-01-18 11:00","2018","01","18","11:00","-5.1","","-8.8","","75","","0.0","","23","","20","","","","100.93","","","","-12","","NA"
"-79.22","43.25","PORT WELLER (AUT)","6136699","2018-01-18 12:00","2018","01","18","12:00","-4.5","","-8.2","","75","","0.0","","22","","21","","","","100.85","","","","-11","","NA"
"-79.22","43.25","PORT WELLER (AUT)","6136699","2018-01-18 13:00","2018","01","18","13:00","-4.4","","-7.9","","76","","0.0","","22","","20","","","","100.78","","","","-11","","NA"
"-79.22","43.25","PORT WELLER (AUT)","6136699","2018-01-18 14:00","2018","01","18","14:00","-4.2","","-7.8","","76","","0.0","","23","","15","","","","100.75","","","","-10","","NA"
"-79.22","43.25","PORT WELLER (AUT)","6136699","2018-01-18 15:00","2018","01","18","15:00","-4.1","","-7.6","","76","","0.0","","23","","15","","","","100.75","","","","-9","","NA"
"-79.22","43.25","PORT WELLER (AUT)","6136699","2018-01-18 16:00","2018","01","18","16:00","-4.2","","-7.5","","77","","0.0","","24","","14","","","","100.71","","","","-9","","NA"
"-79.22","43.25","PORT WELLER (AUT)","6136699","2018-01-18 17:00","2018","01","18","17:00","-4.1","","-7.3","","78","","0.0","","24","","17","","","","100.67","","","","-10","","NA"
"-79.22","43.25","PORT WELLER (AUT)","6136699","2018-01-18 18:00","2018","01","18","18:00","-3.6","","-7.2","","76","","0.0","","25","","16","","","","100.70","","","","-9","","NA"
"-79.22","43.25","PORT WELLER (AUT)","6136699","2018-01-18 19:00","2018","01","18","19:00","-3.3","","-7.8","","71","","0.0","","23","","14","","","","100.65","","","","-8","","NA"
"-79.22","43.25","PORT WELLER (AUT)","6136699","2018-01-18 20:00","2018","01","18","20:00","-2.6","","-7.4","","69","","0.0","","23","","18","","","","100.55","","","","-8","","NA"
"-79.22","43.25","PORT WELLER (AUT)","6136699","2018-01-18 21:00","2018","01","18","21:00","-1.7","","-7.1","","66","","0.0","","23","","21","","","","100.47","","","","-8","","NA"
"-79.22","43.25","PORT WELLER (AUT)","6136699","2018-01-18 22:00","2018","01","18","22:00","-1.4","","-6.5","","68","","0.0","","23","","21","","","","100.44","","","","-7","","NA"
"-79.22","43.25","PORT WELLER (AUT)","6136699","2018-01-18 23:00","2018","01","18","23:00","-1.7","","-6.5","","70","","0.0","","24","","19","","","","100.45","","","","-7","","NA"
"-79.22","43.25","PORT WELLER (AUT)","6136699","2018-01-19 00:00","2018","01","19","00:00","-1.7","","-6.7","","69","","0.0","","24","","16","","","","100.44","","","","-7","","NA"
"-79.22","43.25","PORT WELLER (AUT)","6136699","2018-01-19 01:00","2018","01","19","01:00","-1.5","","-6.5","","69","","0.0","","23","","18","","","","100.36","","","","-7","","NA"
"-79.22","43.25","PORT WELLER (AUT)","6136699","2018-01-19 02:00","2018","01","19","02:00","-1.8","","-6.5","","70","","0.0","","24","","17","","","","100.40","","","","-7","","NA"
"-79.22","43.25","PORT WELLER (AUT)","6136699","2018-01-19 03:00","2018","01","19","03:00","-1.7","","-6.2","","71","","0.0","","23","","16","","","","100.44","","","","-7","","NA"
"-79.22","43.25","PORT WELLER (AUT)","6136699","2018-01-19 04:00","2018","01","19","04:00","-1.5","","-5.7","","73","","0.0","","24","","16","","","","100.43","","","","-6","","NA"
"-79.22","43.25","PORT WELLER (AUT)","6136699","2018-01-19 05:00","2018","01","19","05:00","-1.4","","-5.7","","73","","0.0","","24","","16","","","","100.46","","","","-6","","NA"
"-79.22","43.25","PORT WELLER (AUT)","6136699","2018-01-19 06:00","2018","01","19","06:00","-1.8","","-5.8","","74","","0.0","","23","","17","","","","100.46","","","","-7","","NA"
"-79.22","43.25","PORT WELLER (AUT)","6136699","2018-01-19 07:00","2018","01","19","07:00","-1.9","","-5.8","","74","","0.0","","24","","16","","","","100.47","","","","-7","","NA"
"-79.22","43.25","PORT WELLER (AUT)","6136699","2018-01-19 08:00","2018","01","19","08:00","-2.0","","-6.0","","74","","0.0","","23","","16","","","","100.47","","","","-7","","NA"
"-79.22","43.25","PORT WELLER (AUT)","6136699","2018-01-19 09:00","2018","01","19","09:00","-1.2","","-6.1","","69","","0.0","","23","","18","","","","100.46","","","","-6","","NA"
"-79.22","43.25","PORT WELLER (AUT)","6136699","2018-01-19 10:00","2018","01","19","10:00","-0.6","","-6.0","","67","","0.0","","23","","20","","","","100.44","","","","-6","","NA"
"-79.22","43.25","PORT WELLER (AUT)","6136699","2018-01-19 11:00","2018","01","19","11:00","0.1","","-5.9","","64","","0.0","","22","","24","","","","100.42","","","","","","NA"
"-79.22","43.25","PORT WELLER (AUT)","6136699","2018-01-19 12:00","2018","01","19","12:00","0.6","","-5.6","","63","","0.0","","23","","22","","","","100.36","","","","","","NA"
"-79.22","43.25","PORT WELLER (AUT)","6136699","2018-01-19 13:00","2018","01","19","13:00","0.8","","-5.3","","64","","0.0","","22","","21","","","","100.27","","","","","","NA"
"-79.22","43.25","PORT WELLER (AUT)","6136699","2018-01-19 14:00","2018","01","19","14:00","1.0","","-5.3","","63","","0.0","","23","","21","","","","100.16","","","","","","NA"
"-79.22","43.25","PORT WELLER (AUT)","6136699","2018-01-19 15:00","2018","01","19","15:00","1.5","","-5.5","","60","","0.0","","22","","22","","","","100.09","","","","","","NA"
"-79.22","43.25","PORT WELLER (AUT)","6136699","2018-01-19 16:00","2018","01","19","16:00","1.4","","-4.7","","64","","0.0","","23","","18","","","","100.06","","","","","","NA"
"-79.22","43.25","PORT WELLER (AUT)","6136699","2018-01-19 17:00","2018","01","19","17:00","1.1","","-5.2","","63","","0.0","","23","","18","","","","100.07","","","","","","NA"
"-79.22","43.25","PORT WELLER (AUT)","6136699","2018-01-19 18:00","2018","01","19","18:00","1.1","","-5.0","","64","","0.0","","22","","19","","","","100.03","","","","","","NA"
"-79.22","43.25","PORT WELLER (AUT)","6136699","2018-01-19 19:00","2018","01","19","19:00","1.5","","-4.6","","64","","0.0","","23","","15","","","","99.98","","","","","","NA"
"-79.22","43.25","PORT WELLER (AUT)","6136699","2018-01-19 20:00","2018","01","19","20:00","2.3","","-4.7","","60","","0.0","","23","","15","","","","99.95","","","","","","NA"
"-79.22","43.25","PORT WELLER (AUT)","6136699","2018-01-19 21:00","2018","01","19","21:00","2.7","","-5.0","","57","","0.0","","22","","21","","","","99.79","","","","","","NA"
"-79.22","43.25","PORT WELLER (AUT)","6136699","2018-01-19 22:00","2018","01","19","22:00","3.3","","-5.2","","54","","0.0","","22","","29","","","","99.70","","","","","","NA"
"-79.22","43.25","PORT WELLER (AUT)","6136699","2018-01-19 23:00","2018","01","19","23:00","3.3","","-4.7","","56","","0.0","","23","","22","","","","99.65","","","","","","NA"
"-79.22","43.25","PORT WELLER (AUT)","6136699","2018-01-20 00:00","2018","01","20","00:00","3.4","","-4.7","","56","","0.0","","23","","26","","","","99.55","","","","","","NA"
"-79.22","43.25","PORT WELLER (AUT)","6136699","2018-01-20 01:00","2018","01","20","01:00","3.2","","-4.5","","57","","0.0","","23","","26","","","","99.58","","","","","","NA"
"-79.22","43.25","PORT WELLER (AUT)","6136699","2018-01-20 02:00","2018","01","20","02:00","3.2","","-4.0","","59","","0.0","","23","","25","","","","99.60","","","","","","NA"
"-79.22","43.25","PORT WELLER (AUT)","6136699","2018-01-20 03:00","2018","01","20","03:00","3.1","","-3.7","","61","","0.0","","23","","27","","","","99.63","","","","","","NA"
"-79.22","43.25","PORT WELLER (AUT)","6136699","2018-01-20 04:00","2018","01","20","04:00","2.6","","-3.4","","65","","0.0","","22","","29","","","","99.68","","","","","","NA"
"-79.22","43.25","PORT WELLER (AUT)","6136699","2018-01-20 05:00","2018","01","20","05:00","2.3","","-3.0","","68","","0.0","","23","","24","","","","99.76","","","","","","NA"
"-79.22","43.25","PORT WELLER (AUT)","6136699","2018-01-20 06:00","2018","01","20","06:00","2.1","","-2.8","","70","","0.0","","22","","24","","","","99.83","","","","","","NA"
"-79.22","43.25","PORT WELLER (AUT)","6136699","2018-01-20 07:00","2018","01","20","07:00","2.2","","-2.5","","72","","0.0","","23","","23","","","","99.88","","","","","","NA"
"-79.22","43.25","PORT WELLER (AUT)","6136699","2018-01-20 08:00","2018","01","20","08:00","2.3","","-2.2","","72","","0.0","","23","","18","","","","99.99","","","","","","NA"
"-79.22","43.25","PORT WELLER (AUT)","6136699","2018-01-20 09:00","2018","01","20","09:00","2.4","","-2.1","","72","","0.0","","23","","15","","","","100.12","","","","","","NA"
"-79.22","43.25","PORT WELLER (AUT)","6136699","2018-01-20 10:00","2018","01","20","10:00","3.0","","-1.8","","71","","0.0","","23","","14","","","","100.17","","","","","","NA"
"-79.22","43.25","PORT WELLER (AUT)","6136699","2018-01-20 11:00","2018","01","20","11:00","4.0","","-1.6","","67","","0.0","","23","","13","","","","100.25","","","","","","NA"
"-79.22","43.25","PORT WELLER (AUT)","6136699","2018-01-20 12:00","2018","01","20","12:00","4.1","","-1.5","","67","","0.0","","24","","12","","","","100.27","","","","","","NA"
"-79.22","43.25","PORT WELLER (AUT)","6136699","2018-01-20 13:00","2018","01","20","13:00","5.0","","-1.3","","64","","0.0","","22","","14","","","","100.23","","","","","","NA"
"-79.22","43.25","PORT WELLER (AUT)","6136699","2018-01-20 14:00","2018","01","20","14:00","5.0","","-0.9","","66","","0.0","","23","","9","","","","100.27","","","","","","NA"
"-79.22","43.25","PORT WELLER (AUT)","6136699","2018-01-20 15:00","2018","01","20","15:00","4.7","","-1.1","","66","","0.0","","23","","12","","","","100.30","","","","","","NA"
"-79.22","43.25","PORT WELLER (AUT)","6136699","2018-01-20 16:00","2018","01","20","16:00","4.1","","-0.9","","70","","0.0","","24","","10","","","","100.40","","","","","","NA"
"-79.22","43.25","PORT WELLER (AUT)","6136699","2018-01-20 17:00","2018","01","20","17:00","2.8","","-1.1","","76","","0.0","","21","","10","","","","100.54","","","","","","NA"
"-79.22","43.25","PORT WELLER (AUT)","6136699","2018-01-20 18:00","2018","01","20","18:00","1.9","","-1.2","","80","","0.0","","21","","9","","","","100.58","","","","","","NA"
"-79.22","43.25","PORT WELLER (AUT)","6136699","2018-01-20 19:00","2018","01","20","19:00","1.7","","-1.5","","80","","0.0","","23","","11","","","","100.63","","","","","","NA"
"-79.22","43.25","PORT WELLER (AUT)","6136699","2018-01-20 20:00","2018","01","20","20:00","1.2","","-1.5","","83","","0.0","","24","","8","","","","100.71","","","","","","NA"
"-79.22","43.25","PORT WELLER (AUT)","6136699","2018-01-20 21:00","2018","01","20","21:00","0.8","","-1.4","","86","","0.0","","24","","8","","","","100.75","","","","","","NA"
"-79.22","43.25","PORT WELLER (AUT)","6136699","2018-01-20 22:00","2018","01","20","22:00","0.8","","-1.1","","87","","0.0","","23","","8","","","","100.75","","","","","","NA"
"-79.22","43.25","PORT WELLER (AUT)","6136699","2018-01-20 23:00","2018","01","20","23:00","0.6","","-1.4","","87","","0.0","","22","","7","","","","100.76","","","","","","NA"
"-79.22","43.25","PORT WELLER (AUT)","6136699","2018-01-21 00:00","2018","01","21","00:00","0.4","","-1.3","","89","","0.0","","23","","5","","","","100.83","","","","","","NA"
"-79.22","43.25","PORT WELLER (AUT)","6136699","2018-01-21 01:00","2018","01","21","01:00","-0.1","","-1.3","","92","","0.0","","22","","8","","","","100.84","","","","-3","","NA"
"-79.22","43.25","PORT WELLER (AUT)","6136699","2018-01-21 02:00","2018","01","21","02:00","0.3","","-1.7","","87","","0.0","","20","","11","","","","100.85","","","","","","NA"
"-79.22","43.25","PORT WELLER (AUT)","6136699","2018-01-21 03:00","2018","01","21","03:00","0.2","","-1.5","","88","","0.0","","20","","10","","","","100.91","","","","","","NA"
"-79.22","43.25","PORT WELLER (AUT)","6136699","2018-01-21 04:00","2018","01","21","04:00","0.2","","-1.5","","88","","0.0","","20","","8","","","","100.91","","","","","","NA"
"-79.22","43.25","PORT WELLER (AUT)","6136699","2018-01-21 05:00","2018","01","21","05:00","-0.4","","-1.5","","93","","0.0","","19","","5","","","","100.93","","","","-2","","NA"
"-79.22","43.25","PORT WELLER (AUT)","6136699","2018-01-21 06:00","2018","01","21","06:00","-0.2","","-1.5","","91","","0.0","","20","","8","","","","100.96","","","","-3","","NA"
"-79.22","43.25","PORT WELLER (AUT)","6136699","2018-01-21 07:00","2018","01","21","07:00","-0.5","","-1.4","","93","","0.0","","22","","6","","","","100.99","","","","-3","","NA"
"-79.22","43.25","PORT WELLER (AUT)","6136699","2018-01-21 08:00","2018","01","21","08:00","-0.4","","-1.6","","92","","0.0","","20","","7","","","","101.02","","","","-3","","NA"
"-79.22","43.25","PORT WELLER (AUT)","6136699","2018-01-21 09:00","2018","01","21","09:00","0.9","","-1.2","","86","","0.0","","20","","6","","","","101.06","","","","","","NA"
"-79.22","43.25","PORT WELLER (AUT)","6136699","2018-01-21 10:00","2018","01","21","10:00","2.5","","-0.3","","82","","0.0","","21","","5","","","","101.04","","","","","","NA"
"-79.22","43.25","PORT WELLER (AUT)","6136699","2018-01-21 11:00","2018","01","21","11:00","2.8","","0.1","","83","","0.0","","23","","3","","","","101.04","","","","","","NA"
"-79.22","43.25","PORT WELLER (AUT)","6136699","2018-01-21 12:00","2018","01","21","12:00","2.6","","0.6","","87","","0.0","","26","","4","","","","100.99","","","","","","NA"
"-79.22","43.25","PORT WELLER (AUT)","6136699","2018-01-21 13:00","2018","01","21","13:00","2.9","","1.3","","89","","0.0","","15","","1","","","","100.90","","","","","","NA"
"-79.22","43.25","PORT WELLER (AUT)","6136699","2018-01-21 14:00","2018","01","21","14:00","2.6","","0.8","","88","","0.0","","","","0","","","","100.87","","","","","","NA"
"-79.22","43.25","PORT WELLER (AUT)","6136699","2018-01-21 15:00","2018","01","21","15:00","1.5","","0.5","","93","","0.0","","5","","7","","","","100.84","","","","","","NA"
"-79.22","43.25","PORT WELLER (AUT)","6136699","2018-01-21 16:00","2018","01","21","16:00","1.3","","0.7","","96","","0.0","","5","","10","","","","100.86","","","","","","NA"
"-79.22","43.25","PORT WELLER (AUT)","6136699","2018-01-21 17:00","2018","01","21","17:00","1.3","","0.9","","97","","0.0","","8","","13","","","","100.91","","","","","","NA"
"-79.22","43.25","PORT WELLER (AUT)","6136699","2018-01-21 18:00","2018","01","21","18:00","1.0","","0.6","","97","","0.0","","9","","9","","","","100.91","","","","","","NA"
"-79.22","43.25","PORT WELLER (AUT)","6136699","2018-01-21 19:00","2018","01","21","19:00","1.2","","0.8","","97","","0.0","","12","","6","","","","100.91","","","","","","NA"
"-79.22","43.25","PORT WELLER (AUT)","6136699","2018-01-21 20:00","2018","01","21","20:00","1.0","","0.6","","97","","0.0","","8","","8","","","","100.89","","","","","","NA"
"-79.22","43.25","PORT WELLER (AUT)","6136699","2018-01-21 21:00","2018","01","21","21:00","1.8","","1.5","","98","","0.0","","14","","8","","","","100.88","","","","","","NA"
"-79.22","43.25","PORT WELLER (AUT)","6136699","2018-01-21 22:00","2018","01","21","22:00","1.1","","0.7","","98","","0.0","","8","","5","","","","100.88","","","","","","NA"
"-79.22","43.25","PORT WELLER (AUT)","6136699","2018-01-21 23:00","2018","01","21","23:00","2.0","","1.8","","98","","0.3","","10","","6","","","","100.88","","","","","","NA"
"-79.22","43.25","PORT WELLER (AUT)","6136699","2018-01-22 00:00","2018","01","22","00:00","1.2","","0.9","","98","","0.2","","6","","7","","","","100.88","","","","","","NA"
"-79.22","43.25","PORT WELLER (AUT)","6136699","2018-01-22 01:00","2018","01","22","01:00","1.3","","1.1","","98","","0.0","","10","","8","","","","100.82","","","","","","NA"
"-79.22","43.25","PORT WELLER (AUT)","6136699","2018-01-22 02:00","2018","01","22","02:00","1.0","","0.7","","98","","0.2","","6","","7","","","","100.85","","","","","","NA"
"-79.22","43.25","PORT WELLER (AUT)","6136699","2018-01-22 03:00","2018","01","22","03:00","1.4","","1.2","","98","","0.0","","7","","13","","","","100.84","","","","","","NA"
"-79.22","43.25","PORT WELLER (AUT)","6136699","2018-01-22 04:00","2018","01","22","04:00","1.2","","1.0","","98","","0.0","","8","","15","","","","100.81","","","","","","NA"
"-79.22","43.25","PORT WELLER (AUT)","6136699","2018-01-22 05:00","2018","01","22","05:00","1.1","","0.9","","98","","0.0","","9","","13","","","","100.81","","","","","","NA"
"-79.22","43.25","PORT WELLER (AUT)","6136699","2018-01-22 06:00","2018","01","22","06:00","1.0","","0.8","","99","","0.2","","8","","11","","","","100.80","","","","","","NA"
"-79.22","43.25","PORT WELLER (AUT)","6136699","2018-01-22 07:00","2018","01","22","07:00","2.1","","1.9","","99","","0.0","","12","","9","","","","100.80","","","","","","NA"
"-79.22","43.25","PORT WELLER (AUT)","6136699","2018-01-22 08:00","2018","01","22","08:00","1.3","","1.1","","99","","0.5","","8","","21","","","","100.72","","","","","","NA"
"-79.22","43.25","PORT WELLER (AUT)","6136699","2018-01-22 09:00","2018","01","22","09:00","1.5","","1.3","","99","","0.0","","7","","20","","","","100.72","","","","","","NA"
"-79.22","43.25","PORT WELLER (AUT)","6136699","2018-01-22 10:00","2018","01","22","10:00","1.6","","1.5","","99","","1.5","","7","","25","","","","100.69","","","","","","NA"
"-79.22","43.25","PORT WELLER (AUT)","6136699","2018-01-22 11:00","2018","01","22","11:00","1.5","","1.3","","99","","0.6","","8","","38","","","","100.58","","","","","","NA"
"-79.22","43.25","PORT WELLER (AUT)","6136699","2018-01-22 12:00","2018","01","22","12:00","1.2","","1.0","","99","","0.8","","8","","30","","","","100.45","","","","","","NA"
"-79.22","43.25","PORT WELLER (AUT)","6136699","2018-01-22 13:00","2018","01","22","13:00","1.3","","1.1","","98","","0.2","","8","","23","","","","100.30","","","","","","NA"
"-79.22","43.25","PORT WELLER (AUT)","6136699","2018-01-22 14:00","2018","01","22","14:00","1.4","","1.1","","98","","0.0","","7","","26","","","","100.19","","","","","","NA"
"-79.22","43.25","PORT WELLER (AUT)","6136699","2018-01-22 15:00","2018","01","22","15:00","1.5","","1.2","","98","","0.0","","7","","20","","","","100.18","","","","","","NA"
"-79.22","43.25","PORT WELLER (AUT)","6136699","2018-01-22 16:00","2018","01","22","16:00","1.4","","1.1","","98","","0.0","","7","","27","","","","100.09","","","","","","NA"
"-79.22","43.25","PORT WELLER (AUT)","6136699","2018-01-22 17:00","2018","01","22","17:00","1.4","","1.1","","98","","0.0","","7","","26","","","","100.05","","","","","","NA"
"-79.22","43.25","PORT WELLER (AUT)","6136699","2018-01-22 18:00","2018","01","22","18:00","1.3","","1.0","","98","","0.0","","7","","28","","","","99.99","","","","","","NA"
"-79.22","43.25","PORT WELLER (AUT)","6136699","2018-01-22 19:00","2018","01","22","19:00","1.2","","1.0","","99","","0.0","","7","","26","","","","99.90","","","","","","NA"
"-79.22","43.25","PORT WELLER (AUT)","6136699","2018-01-22 20:00","2018","01","22","20:00","1.3","","1.1","","99","","0.0","","6","","21","","","","99.85","","","","","","NA"
"-79.22","43.25","PORT WELLER (AUT)","6136699","2018-01-22 21:00","2018","01","22","21:00","1.2","","1.0","","99","","0.0","","7","","14","","","","99.81","","","","","","NA"
"-79.22","43.25","PORT WELLER (AUT)","6136699","2018-01-22 22:00","2018","01","22","22:00","1.2","","1.0","","99","","0.7","","8","","22","","","","99.65","","","","","","NA"
"-79.22","43.25","PORT WELLER (AUT)","6136699","2018-01-22 23:00","2018","01","22","23:00","1.5","","1.3","","99","","3.7","","7","","10","","","","99.56","","","","","","NA"
"-79.22","43.25","PORT WELLER (AUT)","6136699","2018-01-23 00:00","2018","01","23","00:00","1.4","","1.3","","99","","0.9","","8","","21","","","","99.38","","","","","","NA"
"-79.22","43.25","PORT WELLER (AUT)","6136699","2018-01-23 01:00","2018","01","23","01:00","1.5","","1.3","","99","","0.2","","8","","18","","","","99.20","","","","","","NA"
"-79.22","43.25","PORT WELLER (AUT)","6136699","2018-01-23 02:00","2018","01","23","02:00","1.6","","1.5","","99","","0.0","","6","","16","","","","99.04","","","","","","NA"
"-79.22","43.25","PORT WELLER (AUT)","6136699","2018-01-23 03:00","2018","01","23","03:00","1.9","","1.7","","99","","0.0","","7","","10","","","","98.98","","","","","","NA"
"-79.22","43.25","PORT WELLER (AUT)","6136699","2018-01-23 04:00","2018","01","23","04:00","1.6","","1.4","","99","","2.3","","21","","7","","","","99.10","","","","","","NA"
"-79.22","43.25","PORT WELLER (AUT)","6136699","2018-01-23 05:00","2018","01","23","05:00","2.4","","2.2","","99","","0.5","","22","","5","","","","99.08","","","","","","NA"
"-79.22","43.25","PORT WELLER (AUT)","6136699","2018-01-23 06:00","2018","01","23","06:00","4.6","","4.3","","98","","0.0","","18","","17","","","","99.04","","","","","","NA"
"-79.22","43.25","PORT WELLER (AUT)","6136699","2018-01-23 07:00","2018","01","23","07:00","4.5","","4.3","","98","","0.0","","18","","25","","","","99.00","","","","","","NA"
"-79.22","43.25","PORT WELLER (AUT)","6136699","2018-01-23 08:00","2018","01","23","08:00","6.9","","5.3","","90","","0.0","","19","","22","","","","98.96","","","","","","NA"
"-79.22","43.25","PORT WELLER (AUT)","6136699","2018-01-23 09:00","2018","01","23","09:00","7.8","","5.5","","86","","0.0","","19","","25","","","","98.92","","","","","","NA"
"-79.22","43.25","PORT WELLER (AUT)","6136699","2018-01-23 10:00","2018","01","23","10:00","8.3","","5.3","","81","","0.0","","19","","23","","","","98.88","","","","","","NA"
"-79.22","43.25","PORT WELLER (AUT)","6136699","2018-01-23 11:00","2018","01","23","11:00","5.0","","2.3","","83","","0.0","","25","","13","","","","98.98","","","","","","NA"
"-79.22","43.25","PORT WELLER (AUT)","6136699","2018-01-23 12:00","2018","01","23","12:00","5.1","","1.4","","77","","0.0","","25","","16","","","","98.99","","","","","","NA"
"-79.22","43.25","PORT WELLER (AUT)","6136699","2018-01-23 13:00","2018","01","23","13:00","4.2","","1.4","","82","","0.0","","25","","19","","","","99.04","","","","","","NA"
"-79.22","43.25","PORT WELLER (AUT)","6136699","2018-01-23 14:00","2018","01","23","14:00","4.4","","0.9","","78","","0.0","","25","","18","","","","99.05","","","","","","NA"
"-79.22","43.25","PORT WELLER (AUT)","6136699","2018-01-23 15:00","2018","01","23","15:00","4.1","","0.8","","79","","0.0","","24","","17","","","","99.08","","","","","","NA"
"-79.22","43.25","PORT WELLER (AUT)","6136699","2018-01-23 16:00","2018","01","23","16:00","3.9","","0.9","","81","","0.0","","24","","15","","","","99.12","","","","","","NA"
"-79.22","43.25","PORT WELLER (AUT)","6136699","2018-01-23 17:00","2018","01","23","17:00","3.5","","0.9","","83","","0.0","","23","","20","","","","99.16","","","","","","NA"
"-79.22","43.25","PORT WELLER (AUT)","6136699","2018-01-23 18:00","2018","01","23","18:00","3.0","","0.8","","86","","0.0","","23","","16","","","","99.26","","","","","","NA"
"-79.22","43.25","PORT WELLER (AUT)","6136699","2018-01-23 19:00","2018","01","23","19:00","2.6","","1.1","","90","","0.0","","24","","15","","","","99.35","","","","","","NA"
"-79.22","43.25","PORT WELLER (AUT)","6136699","2018-01-23 20:00","2018","01","23","20:00","1.6","","-1.0","","83","","0.6","","28","","47","","","","99.56","","","","","","NA"
"-79.22","43.25","PORT WELLER (AUT)","6136699","2018-01-23 21:00","2018","01","23","21:00","0.1","","-3.2","","78","","0.0","","28","","54","","","","99.76","","","","","","NA"
"-79.22","43.25","PORT WELLER (AUT)","6136699","2018-01-23 22:00","2018","01","23","22:00","-0.8","","-4.0","","79","","0.0","","28","","51","","","","99.92","","","","-9","","NA"
"-79.22","43.25","PORT WELLER (AUT)","6136699","2018-01-23 23:00","2018","01","23","23:00","-1.0","","-5.0","","74","","0.0","","28","","52","","","","100.02","","","","-10","","NA"
"-79.22","43.25","PORT WELLER (AUT)","6136699","2018-01-24 00:00","2018","01","24","00:00","-1.3","","-5.0","","76","","0.0","","29","","50","","","","100.13","","","","-10","","NA"
"-79.22","43.25","PORT WELLER (AUT)","6136699","2018-01-24 01:00","2018","01","24","01:00","-1.4","","-4.7","","78","","0.0","","29","","46","","","","100.22","","","","-10","","NA"
"-79.22","43.25","PORT WELLER (AUT)","6136699","2018-01-24 02:00","2018","01","24","02:00","-2.4","","-5.6","","78","","0.0","","31","","49","","","","100.39","","","","-11","","NA"
"-79.22","43.25","PORT WELLER (AUT)","6136699","2018-01-24 03:00","2018","01","24","03:00","-2.9","","-6.5","","76","","0.0","","31","","41","","","","100.55","","","","-11","","NA"
"-79.22","43.25","PORT WELLER (AUT)","6136699","2018-01-24 04:00","2018","01","24","04:00","-3.6","","-7.0","","77","","0.0","","31","","40","","","","100.67","","","","-12","","NA"
"-79.22","43.25","PORT WELLER (AUT)","6136699","2018-01-24 05:00","2018","01","24","05:00","-4.1","","-7.5","","77","","0.0","","30","","30","","","","100.78","","","","-12","","NA"
"-79.22","43.25","PORT WELLER (AUT)","6136699","2018-01-24 06:00","2018","01","24","06:00","-4.6","","-7.9","","78","","0.0","","30","","37","","","","100.92","","","","-13","","NA"
"-79.22","43.25","PORT WELLER (AUT)","6136699","2018-01-24 07:00","2018","01","24","07:00","-5.0","","-8.1","","79","","0.0","","32","","36","","","","101.05","","","","-14","","NA"
"-79.22","43.25","PORT WELLER (AUT)","6136699","2018-01-24 08:00","2018","01","24","08:00","-5.4","","-9.2","","74","","0.0","","31","","32","","","","101.15","","","","-14","","NA"
"-79.22","43.25","PORT WELLER (AUT)","6136699","2018-01-24 09:00","2018","01","24","09:00","-5.2","","-9.1","","74","","0.0","","32","","26","","","","101.24","","","","-13","","NA"
"-79.22","43.25","PORT WELLER (AUT)","6136699","2018-01-24 10:00","2018","01","24","10:00","-5.5","","-9.4","","74","","0.0","","32","","22","","","","101.32","","","","-13","","NA"
"-79.22","43.25","PORT WELLER (AUT)","6136699","2018-01-24 11:00","2018","01","24","11:00","-4.5","","-9.7","","67","","0.0","","32","","19","","","","101.33","","","","-11","","NA"
"-79.22","43.25","PORT WELLER (AUT)","6136699","2018-01-24 12:00","2018","01","24","12:00","-5.0","","-9.0","","74","","0.0","","32","","27","","","","101.32","","","","-13","","NA"
"-79.22","43.25","PORT WELLER (AUT)","6136699","2018-01-24 13:00","2018","01","24","13:00","-4.8","","-9.6","","69","","0.0","","32","","20","","","","101.23","","","","-11","","NA"
"-79.22","43.25","PORT WELLER (AUT)","6136699","2018-01-24 14:00","2018","01","24","14:00","-4.7","","-9.7","","68","","0.0","","33","","15","","","","101.25","","","","-10","","NA"
"-79.22","43.25","PORT WELLER (AUT)","6136699","2018-01-24 15:00","2018","01","24","15:00","-6.0","","-11.1","","67","","0.0","","1","","10","","","","101.31","","","","-10","","NA"
"-79.22","43.25","PORT WELLER (AUT)","6136699","2018-01-24 16:00","2018","01","24","16:00","-5.7","","-11.7","","63","","0.0","","4","","3","","","","101.35","","","","-7","","NA"
"-79.22","43.25","PORT WELLER (AUT)","6136699","2018-01-24 17:00","2018","01","24","17:00","-5.4","","-10.2","","69","","0.0","","14","","6","","","","101.40","","","","-8","","NA"
"-79.22","43.25","PORT WELLER (AUT)","6136699","2018-01-24 18:00","2018","01","24","18:00","-5.6","","-10.4","","69","","0.0","","18","","8","","","","101.47","","","","-9","","NA"
"-79.22","43.25","PORT WELLER (AUT)","6136699","2018-01-24 19:00","2018","01","24","19:00","-5.2","","-9.8","","70","","0.0","","16","","7","","","","101.52","","","","-8","","NA"
"-79.22","43.25","PORT WELLER (AUT)","6136699","2018-01-24 20:00","2018","01","24","20:00","-4.3","","-8.9","","70","","0.0","","33","","21","","","","101.58","","","","-11","","NA"
"-79.22","43.25","PORT WELLER (AUT)","6136699","2018-01-24 21:00","2018","01","24","21:00","-4.9","","-9.7","","69","","0.0","","33","","22","","","","101.64","","","","-12","","NA"
"-79.22","43.25","PORT WELLER (AUT)","6136699","2018-01-24 22:00","2018","01","24","22:00","-5.1","","-9.8","","69","","0.0","","35","","14","","","","101.66","","","","-10","","NA"
"-79.22","43.25","PORT WELLER (AUT)","6136699","2018-01-24 23:00","2018","01","24","23:00","-5.3","","-10.7","","66","","0.0","","35","","17","","","","101.71","","","","-11","","NA"
"-79.22","43.25","PORT WELLER (AUT)","6136699","2018-01-25 00:00","2018","01","25","00:00","-5.8","","-10.8","","67","","0.0","","35","","17","","","","101.73","","","","-12","","NA"
"-79.22","43.25","PORT WELLER (AUT)","6136699","2018-01-25 01:00","2018","01","25","01:00","-6.0","","-11.2","","67","","0.0","","35","","17","","","","101.79","","","","-12","","NA"
"-79.22","43.25","PORT WELLER (AUT)","6136699","2018-01-25 02:00","2018","01","25","02:00","-6.6","","-11.1","","70","","0.0","","35","","19","","","","101.87","","","","-13","","NA"
"-79.22","43.25","PORT WELLER (AUT)","6136699","2018-01-25 03:00","2018","01","25","03:00","-6.8","","-11.2","","71","","0.0","","35","","15","","","","101.94","","","","-13","","NA"
"-79.22","43.25","PORT WELLER (AUT)","6136699","2018-01-25 04:00","2018","01","25","04:00","-7.0","","-11.9","","68","","0.0","","36","","15","","","","101.99","","","","-13","","NA"
"-79.22","43.25","PORT WELLER (AUT)","6136699","2018-01-25 05:00","2018","01","25","05:00","-6.8","","-11.4","","70","","0.0","","36","","14","","","","102.06","","","","-13","","NA"
"-79.22","43.25","PORT WELLER (AUT)","6136699","2018-01-25 06:00","2018","01","25","06:00","-7.0","","-11.7","","70","","0.0","","1","","11","","","","102.14","","","","-12","","NA"
"-79.22","43.25","PORT WELLER (AUT)","6136699","2018-01-25 07:00","2018","01","25","07:00","-7.0","","-12.6","","64","","0.0","","2","","7","","","","102.20","","","","-11","","NA"
"-79.22","43.25","PORT WELLER (AUT)","6136699","2018-01-25 08:00","2018","01","25","08:00","-6.5","","-12.5","","63","","0.0","","","","0","","","","102.25","","","","","","NA"
"-79.22","43.25","PORT WELLER (AUT)","6136699","2018-01-25 09:00","2018","01","25","09:00","-6.4","","-11.6","","66","","0.0","","19","","9","","","","102.32","","","","-11","","NA"
"-79.22","43.25","PORT WELLER (AUT)","6136699","2018-01-25 10:00","2018","01","25","10:00","-5.0","","-11.0","","63","","0.0","","19","","9","","","","102.36","","","","-9","","NA"
"-79.22","43.25","PORT WELLER (AUT)","6136699","2018-01-25 11:00","2018","01","25","11:00","-4.1","","-11.3","","57","","0.0","","25","","4","","","","102.37","","","","-6","","NA"
"-79.22","43.25","PORT WELLER (AUT)","6136699","2018-01-25 12:00","2018","01","25","12:00","-3.4","","-11.4","","54","","0.0","","27","","10","","","","102.33","","","","-7","","NA"
"-79.22","43.25","PORT WELLER (AUT)","6136699","2018-01-25 13:00","2018","01","25","13:00","-2.6","","-11.2","","51","","0.0","","26","","10","","","","102.28","","","","-6","","NA"
"-79.22","43.25","PORT WELLER (AUT)","6136699","2018-01-25 14:00","2018","01","25","14:00","-2.3","","-11.0","","52","","0.0","","24","","6","","","","102.26","","","","-5","","NA"
"-79.22","43.25","PORT WELLER (AUT)","6136699","2018-01-25 15:00","2018","01","25","15:00","-2.7","","-10.1","","57","","0.0","","19","","11","","","","102.21","","","","-7","","NA"
"-79.22","43.25","PORT WELLER (AUT)","6136699","2018-01-25 16:00","2018","01","25","16:00","-2.6","","-8.5","","64","","0.0","","22","","9","","","","102.29","","","","-6","","NA"
"-79.22","43.25","PORT WELLER (AUT)","6136699","2018-01-25 17:00","2018","01","25","17:00","-3.0","","-7.9","","69","","0.0","","20","","11","","","","102.28","","","","-7","","NA"
"-79.22","43.25","PORT WELLER (AUT)","6136699","2018-01-25 18:00","2018","01","25","18:00","-2.7","","-7.8","","68","","0.0","","20","","8","","","","102.32","","","","-6","","NA"
"-79.22","43.25","PORT WELLER (AUT)","6136699","2018-01-25 19:00","2018","01","25","19:00","-2.4","","-7.4","","69","","0.0","","22","","7","","","","102.37","","","","-5","","NA"
"-79.22","43.25","PORT WELLER (AUT)","6136699","2018-01-25 20:00","2018","01","25","20:00","-2.3","","-7.6","","67","","0.0","","19","","4","","","","102.39","","","","-4","","NA"
"-79.22","43.25","PORT WELLER (AUT)","6136699","2018-01-25 21:00","2018","01","25","21:00","-2.2","","-7.6","","66","","0.0","","19","","4","","","","102.41","","","","-4","","NA"
"-79.22","43.25","PORT WELLER (AUT)","6136699","2018-01-25 22:00","2018","01","25","22:00","-1.9","","-6.8","","69","","0.0","","18","","4","","","","102.41","","","","-3","","NA"
"-79.22","43.25","PORT WELLER (AUT)","6136699","2018-01-25 23:00","2018","01","25","23:00","-1.4","","-6.1","","70","","0.0","","18","","10","","","","102.42","","","","-5","","NA"
"-79.22","43.25","PORT WELLER (AUT)","6136699","2018-01-26 00:00","2018","01","26","00:00","-1.2","","-6.1","","69","","0.0","","19","","15","","","","102.44","","","","-6","","NA"
"-79.22","43.25","PORT WELLER (AUT)","6136699","2018-01-26 01:00","2018","01","26","01:00","-1.0","","-6.0","","69","","0.0","","19","","17","","","","102.40","","","","-6","","NA"
"-79.22","43.25","PORT WELLER (AUT)","6136699","2018-01-26 02:00","2018","01","26","02:00","-0.9","","-5.8","","69","","0.0","","16","","15","","","","102.39","","","","-6","","NA"
"-79.22","43.25","PORT WELLER (AUT)","6136699","2018-01-26 03:00","2018","01","26","03:00","-1.1","","-6.3","","68","","0.0","","16","","17","","","","102.39","","","","-6","","NA"
"-79.22","43.25","PORT WELLER (AUT)","6136699","2018-01-26 04:00","2018","01","26","04:00","-1.6","","-6.9","","67","","0.0","","15","","17","","","","102.34","","","","-7","","NA"
"-79.22","43.25","PORT WELLER (AUT)","6136699","2018-01-26 05:00","2018","01","26","05:00","-1.9","","-6.8","","69","","0.0","","14","","13","","","","102.31","","","","-6","","NA"
"-79.22","43.25","PORT WELLER (AUT)","6136699","2018-01-26 06:00","2018","01","26","06:00","-2.3","","-6.9","","71","","0.0","","13","","12","","","","102.31","","","","-7","","NA"
"-79.22","43.25","PORT WELLER (AUT)","6136699","2018-01-26 07:00","2018","01","26","07:00","-2.6","","-6.9","","72","","0.0","","12","","12","","","","102.31","","","","-7","","NA"
"-79.22","43.25","PORT WELLER (AUT)","6136699","2018-01-26 08:00","2018","01","26","08:00","-2.8","","-6.6","","75","","0.0","","12","","12","","","","102.28","","","","-7","","NA"
"-79.22","43.25","PORT WELLER (AUT)","6136699","2018-01-26 09:00","2018","01","26","09:00","-1.8","","-6.8","","69","","0.0","","13","","11","","","","102.25","","","","-6","","NA"
"-79.22","43.25","PORT WELLER (AUT)","6136699","2018-01-26 10:00","2018","01","26","10:00","-0.3","","-6.3","","64","","0.0","","13","","11","","","","102.18","","","","-4","","NA"
"-79.22","43.25","PORT WELLER (AUT)","6136699","2018-01-26 11:00","2018","01","26","11:00","2.2","","-5.0","","59","","0.0","","17","","10","","","","102.14","","","","","","NA"
"-79.22","43.25","PORT WELLER (AUT)","6136699","2018-01-26 12:00","2018","01","26","12:00","4.4","","-4.5","","52","","0.0","","19","","11","","","","102.02","","","","","","NA"
"-79.22","43.25","PORT WELLER (AUT)","6136699","2018-01-26 13:00","2018","01","26","13:00","3.5","","-2.5","","65","","0.0","","35","","5","","","","101.93","","","","","","NA"
"-79.22","43.25","PORT WELLER (AUT)","6136699","2018-01-26 14:00","2018","01","26","14:00","4.6","","-2.5","","60","","0.0","","34","","2","","","","101.82","","","","","","NA"
"-79.22","43.25","PORT WELLER (AUT)","6136699","2018-01-26 15:00","2018","01","26","15:00","7.5","","-2.3","","50","","0.0","","21","","9","","","","101.76","","","","","","NA"
"-79.22","43.25","PORT WELLER (AUT)","6136699","2018-01-26 16:00","2018","01","26","16:00","7.4","","-2.4","","50","","0.0","","20","","8","","","","101.71","","","","","","NA"
"-79.22","43.25","PORT WELLER (AUT)","6136699","2018-01-26 17:00","2018","01","26","17:00","7.0","","-2.6","","51","","0.0","","19","","10","","","","101.68","","","","","","NA"
"-79.22","43.25","PORT WELLER (AUT)","6136699","2018-01-26 18:00","2018","01","26","18:00","4.1","","-2.1","","64","","0.0","","18","","3","","","","101.63","","","","","","NA"
"-79.22","43.25","PORT WELLER (AUT)","6136699","2018-01-26 19:00","2018","01","26","19:00","4.6","","-2.3","","61","","0.0","","18","","8","","","","101.57","","","","","","NA"
"-79.22","43.25","PORT WELLER (AUT)","6136699","2018-01-26 20:00","2018","01","26","20:00","4.7","","-2.4","","60","","0.0","","17","","6","","","","101.57","","","","","","NA"
"-79.22","43.25","PORT WELLER (AUT)","6136699","2018-01-26 21:00","2018","01","26","21:00","5.6","","-2.4","","56","","0.0","","19","","14","","","","101.51","","","","","","NA"
"-79.22","43.25","PORT WELLER (AUT)","6136699","2018-01-26 22:00","2018","01","26","22:00","6.2","","-2.6","","53","","0.0","","19","","13","","","","101.43","","","","","","NA"
"-79.22","43.25","PORT WELLER (AUT)","6136699","2018-01-26 23:00","2018","01","26","23:00","7.2","","-3.0","","48","","0.0","","19","","28","","","","101.31","","","","","","NA"
"-79.22","43.25","PORT WELLER (AUT)","6136699","2018-01-27 00:00","2018","01","27","00:00","7.1","","-3.0","","48","","0.0","","19","","23","","","","101.27","","","","","","NA"
"-79.22","43.25","PORT WELLER (AUT)","6136699","2018-01-27 01:00","2018","01","27","01:00","8.5","","-3.7","","42","","0.0","","19","","22","","","","101.18","","","","","","NA"
"-79.22","43.25","PORT WELLER (AUT)","6136699","2018-01-27 02:00","2018","01","27","02:00","8.1","","-3.7","","43","","0.0","","20","","20","","","","101.17","","","","","","NA"
"-79.22","43.25","PORT WELLER (AUT)","6136699","2018-01-27 03:00","2018","01","27","03:00","7.7","","-3.6","","45","","0.0","","20","","21","","","","101.10","","","","","","NA"
"-79.22","43.25","PORT WELLER (AUT)","6136699","2018-01-27 04:00","2018","01","27","04:00","7.9","","-4.0","","43","","0.0","","20","","25","","","","101.04","","","","","","NA"
"-79.22","43.25","PORT WELLER (AUT)","6136699","2018-01-27 05:00","2018","01","27","05:00","8.3","","-4.4","","40","","0.0","","20","","27","","","","101.00","","","","","","NA"
"-79.22","43.25","PORT WELLER (AUT)","6136699","2018-01-27 06:00","2018","01","27","06:00","8.7","","-4.8","","38","","0.0","","20","","24","","","","100.98","","","","","","NA"
"-79.22","43.25","PORT WELLER (AUT)","6136699","2018-01-27 07:00","2018","01","27","07:00","8.4","","-4.4","","40","","0.0","","21","","24","","","","100.96","","","","","","NA"
"-79.22","43.25","PORT WELLER (AUT)","6136699","2018-01-27 08:00","2018","01","27","08:00","8.0","","-3.9","","43","","0.0","","20","","22","","","","100.98","","","","","","NA"
"-79.22","43.25","PORT WELLER (AUT)","6136699","2018-01-27 09:00","2018","01","27","09:00","8.0","","-2.0","","49","","0.0","","21","","23","","","","100.95","","","","","","NA"
"-79.22","43.25","PORT WELLER (AUT)","6136699","2018-01-27 10:00","2018","01","27","10:00","8.4","","-1.3","","50","","0.0","","21","","22","","","","100.95","","","","","","NA"
"-79.22","43.25","PORT WELLER (AUT)","6136699","2018-01-27 11:00","2018","01","27","11:00","8.6","","-0.4","","53","","0.0","","21","","23","","","","100.90","","","","","","NA"
"-79.22","43.25","PORT WELLER (AUT)","6136699","2018-01-27 12:00","2018","01","27","12:00","8.5","","0.2","","56","","0.0","","22","","26","","","","100.88","","","","","","NA"
"-79.22","43.25","PORT WELLER (AUT)","6136699","2018-01-27 13:00","2018","01","27","13:00","8.5","","0.8","","58","","0.0","","21","","29","","","","100.78","","","","","","NA"
"-79.22","43.25","PORT WELLER (AUT)","6136699","2018-01-27 14:00","2018","01","27","14:00","7.1","","1.7","","68","","0.0","","22","","23","","","","100.76","","","","","","NA"
"-79.22","43.25","PORT WELLER (AUT)","6136699","2018-01-27 15:00","2018","01","27","15:00","6.5","","3.3","","80","","0.0","","20","","22","","","","100.72","","","","","","NA"
"-79.22","43.25","PORT WELLER (AUT)","6136699","2018-01-27 16:00","2018","01","27","16:00","6.0","","4.2","","88","","0.0","","22","","21","","","","100.76","","","","","","NA"
"-79.22","43.25","PORT WELLER (AUT)","6136699","2018-01-27 17:00","2018","01","27","17:00","5.9","","4.6","","91","","0.3","","22","","21","","","","100.75","","","","","","NA"
"-79.22","43.25","PORT WELLER (AUT)","6136699","2018-01-27 18:00","2018","01","27","18:00","5.8","","4.3","","90","","0.0","","22","","21","","","","100.76","","","","","","NA"
"-79.22","43.25","PORT WELLER (AUT)","6136699","2018-01-27 19:00","2018","01","27","19:00","5.6","","4.2","","91","","0.0","","23","","16","","","","100.88","","","","","","NA"
"-79.22","43.25","PORT WELLER (AUT)","6136699","2018-01-27 20:00","2018","01","27","20:00","5.1","","3.8","","91","","0.0","","24","","10","","","","100.97","","","","","","NA"
"-79.22","43.25","PORT WELLER (AUT)","6136699","2018-01-27 21:00","2018","01","27","21:00","4.0","","3.1","","94","","0.0","","23","","8","","","","101.04","","","","","","NA"
"-79.22","43.25","PORT WELLER (AUT)","6136699","2018-01-27 22:00","2018","01","27","22:00","3.5","","2.5","","93","","0.0","","24","","9","","","","101.09","","","","","","NA"
"-79.22","43.25","PORT WELLER (AUT)","6136699","2018-01-27 23:00","2018","01","27","23:00","3.0","","2.3","","95","","0.0","","23","","8","","","","101.16","","","","","","NA"
"-79.22","43.25","PORT WELLER (AUT)","6136699","2018-01-28 00:00","2018","01","28","00:00","2.9","","1.9","","93","","0.0","","23","","10","","","","101.18","","","","","","NA"
"-79.22","43.25","PORT WELLER (AUT)","6136699","2018-01-28 01:00","2018","01","28","01:00","2.3","","1.1","","92","","0.0","","23","","8","","","","101.22","","","","","","NA"
"-79.22","43.25","PORT WELLER (AUT)","6136699","2018-01-28 02:00","2018","01","28","02:00","1.7","","0.5","","92","","0.0","","22","","10","","","","101.28","","","","","","NA"
"-79.22","43.25","PORT WELLER (AUT)","6136699","2018-01-28 03:00","2018","01","28","03:00","1.4","","-0.5","","87","","0.0","","21","","10","","","","101.32","","","","","","NA"
"-79.22","43.25","PORT WELLER (AUT)","6136699","2018-01-28 04:00","2018","01","28","04:00","1.2","","-1.4","","82","","0.0","","21","","10","","","","101.33","","","","","","NA"
"-79.22","43.25","PORT WELLER (AUT)","6136699","2018-01-28 05:00","2018","01","28","05:00","1.0","","-2.2","","79","","0.0","","20","","14","","","","101.39","","","","","","NA"
"-79.22","43.25","PORT WELLER (AUT)","6136699","2018-01-28 06:00","2018","01","28","06:00","0.5","","-2.4","","81","","0.0","","20","","13","","","","101.41","","","","","","NA"
"-79.22","43.25","PORT WELLER (AUT)","6136699","2018-01-28 07:00","2018","01","28","07:00","0.6","","-2.5","","80","","0.0","","21","","10","","","","101.48","","","","","","NA"
"-79.22","43.25","PORT WELLER (AUT)","6136699","2018-01-28 08:00","2018","01","28","08:00","0.6","","-2.6","","79","","0.0","","19","","13","","","","101.52","","","","","","NA"
"-79.22","43.25","PORT WELLER (AUT)","6136699","2018-01-28 09:00","2018","01","28","09:00","1.9","","-2.2","","74","","0.0","","19","","11","","","","101.59","","","","","","NA"
"-79.22","43.25","PORT WELLER (AUT)","6136699","2018-01-28 10:00","2018","01","28","10:00","4.0","","-1.4","","68","","0.0","","20","","8","","","","101.60","","","","","","NA"
"-79.22","43.25","PORT WELLER (AUT)","6136699","2018-01-28 11:00","2018","01","28","11:00","4.9","","-0.3","","69","","0.0","","23","","5","","","","101.66","","","","","","NA"
"-79.22","43.25","PORT WELLER (AUT)","6136699","2018-01-28 12:00","2018","01","28","12:00","4.9","","0.4","","73","","0.0","","25","","5","","","","101.63","","","","","","NA"
"-79.22","43.25","PORT WELLER (AUT)","6136699","2018-01-28 13:00","2018","01","28","13:00","5.7","","0.8","","71","","0.0","","29","","8","","","","101.59","","","","","","NA"
"-79.22","43.25","PORT WELLER (AUT)","6136699","2018-01-28 14:00","2018","01","28","14:00","4.8","","0.6","","74","","0.0","","29","","11","","","","101.55","","","","","","NA"
"-79.22","43.25","PORT WELLER (AUT)","6136699","2018-01-28 15:00","2018","01","28","15:00","5.5","","-0.2","","67","","0.0","","28","","6","","","","101.56","","","","","","NA"
"-79.22","43.25","PORT WELLER (AUT)","6136699","2018-01-28 16:00","2018","01","28","16:00","4.1","","0.3","","76","","0.0","","32","","18","","","","101.59","","","","","","NA"
"-79.22","43.25","PORT WELLER (AUT)","6136699","2018-01-28 17:00","2018","01","28","17:00","2.9","","-0.6","","78","","0.0","","34","","20","","","","101.64","","","","","","NA"
"-79.22","43.25","PORT WELLER (AUT)","6136699","2018-01-28 18:00","2018","01","28","18:00","2.5","","-1.0","","78","","0.0","","3","","16","","","","101.69","","","","","","NA"
"-79.22","43.25","PORT WELLER (AUT)","6136699","2018-01-28 19:00","2018","01","28","19:00","1.7","","-2.7","","73","","0.0","","2","","23","","","","101.78","","","","","","NA"
"-79.22","43.25","PORT WELLER (AUT)","6136699","2018-01-28 20:00","2018","01","28","20:00","1.4","","-3.3","","71","","0.0","","1","","24","","","","101.84","","","","","","NA"
"-79.22","43.25","PORT WELLER (AUT)","6136699","2018-01-28 21:00","2018","01","28","21:00","1.2","","-3.6","","70","","0.0","","2","","21","","","","101.85","","","","","","NA"
"-79.22","43.25","PORT WELLER (AUT)","6136699","2018-01-28 22:00","2018","01","28","22:00","0.9","","-4.1","","69","","0.0","","2","","18","","","","101.84","","","","","","NA"
"-79.22","43.25","PORT WELLER (AUT)","6136699","2018-01-28 23:00","2018","01","28","23:00","0.6","","-4.6","","68","","0.0","","3","","16","","","","101.82","","","","","","NA"
"-79.22","43.25","PORT WELLER (AUT)","6136699","2018-01-29 00:00","2018","01","29","00:00","0.5","","-5.3","","65","","0.0","","4","","16","","","","101.80","","","","","","NA"
"-79.22","43.25","PORT WELLER (AUT)","6136699","2018-01-29 01:00","2018","01","29","01:00","0.2","","-5.7","","65","","0.0","","3","","15","","","","101.77","","","","","","NA"
"-79.22","43.25","PORT WELLER (AUT)","6136699","2018-01-29 02:00","2018","01","29","02:00","0.2","","-4.7","","69","","0.0","","5","","17","","","","101.77","","","","","","NA"
"-79.22","43.25","PORT WELLER (AUT)","6136699","2018-01-29 03:00","2018","01","29","03:00","0.0","","-5.5","","67","","0.0","","4","","17","","","","101.76","","","","-5","","NA"
"-79.22","43.25","PORT WELLER (AUT)","6136699","2018-01-29 04:00","2018","01","29","04:00","-0.1","","-5.5","","67","","0.0","","3","","16","","","","101.72","","","","-5","","NA"
"-79.22","43.25","PORT WELLER (AUT)","6136699","2018-01-29 05:00","2018","01","29","05:00","0.2","","-5.4","","66","","0.0","","7","","8","","","","101.69","","","","","","NA"
"-79.22","43.25","PORT WELLER (AUT)","6136699","2018-01-29 06:00","2018","01","29","06:00","0.0","","-3.9","","75","","0.0","","9","","13","","","","101.63","","","","-4","","NA"
"-79.22","43.25","PORT WELLER (AUT)","6136699","2018-01-29 07:00","2018","01","29","07:00","-0.3","","-3.7","","78","","0.0","","8","","28","","","","101.64","","","","-7","","NA"
"-79.22","43.25","PORT WELLER (AUT)","6136699","2018-01-29 08:00","2018","01","29","08:00","-0.9","","-4.5","","76","","0.0","","9","","21","","","","101.64","","","","-7","","NA"
"-79.22","43.25","PORT WELLER (AUT)","6136699","2018-01-29 09:00","2018","01","29","09:00","-0.9","","-4.4","","77","","0.0","","8","","25","","","","101.62","","","","-7","","NA"
"-79.22","43.25","PORT WELLER (AUT)","6136699","2018-01-29 10:00","2018","01","29","10:00","-0.8","","-4.8","","75","","0.0","","9","","21","","","","101.62","","","","-6","","NA"
"-79.22","43.25","PORT WELLER (AUT)","6136699","2018-01-29 11:00","2018","01","29","11:00","-0.5","","-4.0","","77","","0.0","","7","","20","","","","101.58","","","","-6","","NA"
"-79.22","43.25","PORT WELLER (AUT)","6136699","2018-01-29 12:00","2018","01","29","12:00","-0.3","","-3.6","","79","","0.0","","7","","28","","","","101.47","","","","-7","","NA"
"-79.22","43.25","PORT WELLER (AUT)","6136699","2018-01-29 13:00","2018","01","29","13:00","-0.7","","-2.9","","85","","0.0","","6","","39","","","","101.36","","","","-8","","NA"
"-79.22","43.25","PORT WELLER (AUT)","6136699","2018-01-29 14:00","2018","01","29","14:00","-1.2","","-3.0","","88","","0.0","","7","","38","","","","101.30","","","","-9","","NA"
"-79.22","43.25","PORT WELLER (AUT)","6136699","2018-01-29 15:00","2018","01","29","15:00","-1.3","","-3.0","","89","","0.0","","6","","39","","","","101.25","","","","-9","","NA"
"-79.22","43.25","PORT WELLER (AUT)","6136699","2018-01-29 16:00","2018","01","29","16:00","-1.7","","-3.5","","88","","0.0","","6","","40","","","","101.21","","","","-10","","NA"
"-79.22","43.25","PORT WELLER (AUT)","6136699","2018-01-29 17:00","2018","01","29","17:00","-1.6","","-3.4","","88","","0.0","","6","","37","","","","101.17","","","","-9","","NA"
"-79.22","43.25","PORT WELLER (AUT)","6136699","2018-01-29 18:00","2018","01","29","18:00","-1.7","","-3.5","","87","","0.0","","6","","39","","","","101.16","","","","-10","","NA"
"-79.22","43.25","PORT WELLER (AUT)","6136699","2018-01-29 19:00","2018","01","29","19:00","-1.6","","-3.4","","88","","0.0","","7","","39","","","","101.16","","","","-9","","NA"
"-79.22","43.25","PORT WELLER (AUT)","6136699","2018-01-29 20:00","2018","01","29","20:00","-1.6","","-3.5","","87","","0.0","","5","","39","","","","101.17","","","","-9","","NA"
"-79.22","43.25","PORT WELLER (AUT)","6136699","2018-01-29 21:00","2018","01","29","21:00","-2.3","","-3.5","","91","","0.5","","4","","39","","","","101.13","","","","-10","","NA"
"-79.22","43.25","PORT WELLER (AUT)","6136699","2018-01-29 22:00","2018","01","29","22:00","-2.7","","-4.4","","88","","0.2","","3","","38","","","","101.11","","","","-11","","NA"
"-79.22","43.25","PORT WELLER (AUT)","6136699","2018-01-29 23:00","2018","01","29","23:00","-3.0","","-4.5","","90","","0.2","","3","","35","","","","101.09","","","","-11","","NA"
"-79.22","43.25","PORT WELLER (AUT)","6136699","2018-01-30 00:00","2018","01","30","00:00","-3.4","","-4.5","","93","","0.5","","1","","34","","","","101.11","","","","-11","","NA"
"-79.22","43.25","PORT WELLER (AUT)","6136699","2018-01-30 01:00","2018","01","30","01:00","-3.9","","-5.4","","90","","0.2","","35","","39","","","","101.11","","","","-13","","NA"
"-79.22","43.25","PORT WELLER (AUT)","6136699","2018-01-30 02:00","2018","01","30","02:00","-4.3","","-5.8","","89","","0.3","","35","","40","","","","101.11","","","","-13","","NA"
"-79.22","43.25","PORT WELLER (AUT)","6136699","2018-01-30 03:00","2018","01","30","03:00","-4.5","","-6.3","","87","","0.2","","34","","40","","","","101.15","","","","-13","","NA"
"-79.22","43.25","PORT WELLER (AUT)","6136699","2018-01-30 04:00","2018","01","30","04:00","-4.6","","-6.6","","86","","0.0","","34","","35","","","","101.19","","","","-13","","NA"
"-79.22","43.25","PORT WELLER (AUT)","6136699","2018-01-30 05:00","2018","01","30","05:00","-5.2","","-7.2","","86","","0.2","","33","","37","","","","101.26","","","","-14","","NA"
"-79.22","43.25","PORT WELLER (AUT)","6136699","2018-01-30 06:00","2018","01","30","06:00","-6.0","","-7.7","","88","","0.3","","31","","38","","","","101.35","","","","-15","","NA"
"-79.22","43.25","PORT WELLER (AUT)","6136699","2018-01-30 07:00","2018","01","30","07:00","-6.6","","-9.2","","82","","0.0","","32","","38","","","","101.42","","","","-16","","NA"
"-79.22","43.25","PORT WELLER (AUT)","6136699","2018-01-30 08:00","2018","01","30","08:00","-6.9","","-9.4","","82","","0.0","","33","","31","","","","101.51","","","","-16","","NA"
"-79.22","43.25","PORT WELLER (AUT)","6136699","2018-01-30 09:00","2018","01","30","09:00","-7.3","","-10.0","","81","","0.0","","31","","34","","","","101.61","","","","-16","","NA"
"-79.22","43.25","PORT WELLER (AUT)","6136699","2018-01-30 10:00","2018","01","30","10:00","-7.6","","-10.6","","79","","0.0","","32","","31","","","","101.67","","","","-17","","NA"
"-79.22","43.25","PORT WELLER (AUT)","6136699","2018-01-30 11:00","2018","01","30","11:00","-7.5","","-10.4","","79","","0.0","","31","","27","","","","101.70","","","","-16","","NA"
"-79.22","43.25","PORT WELLER (AUT)","6136699","2018-01-30 12:00","2018","01","30","12:00","-7.3","","-11.1","","75","","0.0","","31","","25","","","","101.65","","","","-15","","NA"
"-79.22","43.25","PORT WELLER (AUT)","6136699","2018-01-30 13:00","2018","01","30","13:00","-7.4","","-12.1","","69","","0.0","","31","","27","","","","101.59","","","","-16","","NA"
"-79.22","43.25","PORT WELLER (AUT)","6136699","2018-01-30 14:00","2018","01","30","14:00","-6.9","","-12.2","","66","","0.0","","29","","22","","","","101.58","","","","-14","","NA"
"-79.22","43.25","PORT WELLER (AUT)","6136699","2018-01-30 15:00","2018","01","30","15:00","-5.7","","-12.1","","61","","0.0","","28","","33","","","","101.60","","","","-14","","NA"
"-79.22","43.25","PORT WELLER (AUT)","6136699","2018-01-30 16:00","2018","01","30","16:00","-5.9","","-12.0","","62","","0.0","","28","","31","","","","101.66","","","","-14","","NA"
"-79.22","43.25","PORT WELLER (AUT)","6136699","2018-01-30 17:00","2018","01","30","17:00","-6.6","","-11.6","","68","","0.0","","29","","30","","","","101.69","","","","-15","","NA"
"-79.22","43.25","PORT WELLER (AUT)","6136699","2018-01-30 18:00","2018","01","30","18:00","-6.8","","-11.5","","69","","0.0","","30","","29","","","","101.77","","","","-15","","NA"
"-79.22","43.25","PORT WELLER (AUT)","6136699","2018-01-30 19:00","2018","01","30","19:00","-7.2","","-12.2","","68","","0.0","","29","","32","","","","101.83","","","","-16","","NA"
"-79.22","43.25","PORT WELLER (AUT)","6136699","2018-01-30 20:00","2018","01","30","20:00","-7.7","","-12.2","","70","","0.0","","29","","31","","","","101.87","","","","-17","","NA"
"-79.22","43.25","PORT WELLER (AUT)","6136699","2018-01-30 21:00","2018","01","30","21:00","-8.0","","-12.5","","70","","0.0","","30","","28","","","","101.81","","","","-17","","NA"
"-79.22","43.25","PORT WELLER (AUT)","6136699","2018-01-30 22:00","2018","01","30","22:00","-8.1","","-12.7","","70","","0.0","","31","","25","","","","101.76","","","","-16","","NA"
"-79.22","43.25","PORT WELLER (AUT)","6136699","2018-01-30 23:00","2018","01","30","23:00","-7.8","","-11.3","","76","","0.0","","31","","23","","","","101.72","","","","-16","","NA"
"-79.22","43.25","PORT WELLER (AUT)","6136699","2018-01-31 00:00","2018","01","31","00:00","-7.7","","-11.2","","76","","0.0","","30","","22","","","","101.68","","","","-15","","NA"
"-79.22","43.25","PORT WELLER (AUT)","6136699","2018-01-31 01:00","2018","01","31","01:00","-10.1","","-12.9","","80","","0.0","","23","","10","","","","101.66","","","","-15","","NA"
"-79.22","43.25","PORT WELLER (AUT)","6136699","2018-01-31 02:00","2018","01","31","02:00","-10.8","","-14.2","","76","","0.0","","20","","9","","","","101.63","","","","-16","","NA"
"-79.22","43.25","PORT WELLER (AUT)","6136699","2018-01-31 03:00","2018","01","31","03:00","-9.9","","-13.1","","77","","0.0","","17","","10","","","","101.59","","","","-15","","NA"
"-79.22","43.25","PORT WELLER (AUT)","6136699","2018-01-31 04:00","2018","01","31","04:00","-9.7","","-12.5","","80","","0.0","","17","","15","","","","101.49","","","","-16","","NA"
"-79.22","43.25","PORT WELLER (AUT)","6136699","2018-01-31 05:00","2018","01","31","05:00","-9.7","","-12.7","","79","","0.0","","16","","13","","","","101.48","","","","-16","","NA"
"-79.22","43.25","PORT WELLER (AUT)","6136699","2018-01-31 06:00","2018","01","31","06:00","-8.9","","-11.7","","80","","0.0","","16","","19","","","","101.28","","","","-16","","NA"
"-79.22","43.25","PORT WELLER (AUT)","6136699","2018-01-31 07:00","2018","01","31","07:00","-7.3","","-11.1","","75","","0.0","","17","","20","","","","101.13","","","","-14","","NA"
"-79.22","43.25","PORT WELLER (AUT)","6136699","2018-01-31 08:00","2018","01","31","08:00","-7.4","","-10.9","","76","","0.0","","15","","18","","","","101.05","","","","-14","","NA"
"-79.22","43.25","PORT WELLER (AUT)","6136699","2018-01-31 09:00","2018","01","31","09:00","-5.9","","-9.8","","74","","0.0","","17","","18","","","","100.95","","","","-12","","NA"
"-79.22","43.25","PORT WELLER (AUT)","6136699","2018-01-31 10:00","2018","01","31","10:00","-5.5","","-10.3","","69","","0.0","","15","","19","","","","100.71","","","","-12","","NA"
"-79.22","43.25","PORT WELLER (AUT)","6136699","2018-01-31 11:00","2018","01","31","11:00","-4.5","","-9.4","","68","","0.0","","17","","27","","","","100.55","","","","-12","","NA"
"-79.22","43.25","PORT WELLER (AUT)","6136699","2018-01-31 12:00","2018","01","31","12:00","-3.5","","-9.0","","65","","0.0","","16","","21","","","","100.29","","","","-10","","NA"
"-79.22","43.25","PORT WELLER (AUT)","6136699","2018-01-31 13:00","2018","01","31","13:00","-2.5","","-7.4","","69","","0.0","","17","","22","","","","100.03","","","","-9","","NA"
"-79.22","43.25","PORT WELLER (AUT)","6136699","2018-01-31 14:00","2018","01","31","14:00","-0.7","","-6.1","","67","","0.0","","18","","20","","","","99.83","","","","-6","","NA"
"-79.22","43.25","PORT WELLER (AUT)","6136699","2018-01-31 15:00","2018","01","31","15:00","1.3","","-7.8","","51","","0.0","","20","","17","","","","99.70","","","","","","NA"
"-79.22","43.25","PORT WELLER (AUT)","6136699","2018-01-31 16:00","2018","01","31","16:00","2.6","","-6.8","","50","","0.0","","20","","16","","","","99.66","","","","","","NA"
"-79.22","43.25","PORT WELLER (AUT)","6136699","2018-01-31 17:00","2018","01","31","17:00","2.8","","-6.1","","52","","0.0","","22","","20","","","","99.63","","","","","","NA"
"-79.22","43.25","PORT WELLER (AUT)","6136699","2018-01-31 18:00","2018","01","31","18:00","2.7","","-5.3","","56","","0.0","","22","","21","","","","99.62","","","","","","NA"
"-79.22","43.25","PORT WELLER (AUT)","6136699","2018-01-31 19:00","2018","01","31","19:00","2.9","","-4.4","","59","","0.0","","22","","19","","","","99.69","","","","","","NA"
"-79.22","43.25","PORT WELLER (AUT)","6136699","2018-01-31 20:00","2018","01","31","20:00","2.7","","-3.3","","64","","0.0","","23","","11","","","","99.73","","","","","","NA"
"-79.22","43.25","PORT WELLER (AUT)","6136699","2018-01-31 21:00","2018","01","31","21:00","2.8","","-3.8","","62","","0.0","","21","","17","","","","99.76","","","","","","NA"
"-79.22","43.25","PORT WELLER (AUT)","6136699","2018-01-31 22:00","2018","01","31","22:00","2.6","","-3.6","","64","","0.0","","21","","17","","","","99.76","","","","","","NA"
"-79.22","43.25","PORT WELLER (AUT)","6136699","2018-01-31 23:00","2018","01","31","23:00","2.4","","-3.1","","67","","0.0","","22","","17","","","","99.72","","","","","","NA"
