"Longitude (x)","Latitude (y)","Station Name","Climate ID","Date/Time (LST)","Year","Month","Day","Time (LST)","Temp (°C)","Temp Flag","Dew Point Temp (°C)","Dew Point Temp Flag","Rel Hum (%)","Rel Hum Flag","Precip. Amount (mm)","Precip. Amount Flag","Wind Dir (10s deg)","Wind Dir Flag","Wind Spd (km/h)","Wind Spd Flag","Visibility (km)","Visibility Flag","Stn Press (kPa)","Stn Press Flag","Hmdx","Hmdx Flag","Wind Chill","Wind Chill Flag","Weather"
"-81.11","44.74","WIARTON A","6119499","2018-04-01 00:00","2018","04","01","00:00","-2.9","","-7.9","","68","","","","30","","23","","19.3","","98.67","","","","-9","","Snow"
"-81.11","44.74","WIARTON A","6119499","2018-04-01 01:00","2018","04","01","01:00","-3.2","","-9.9","","60","","","","30","","24","","16.1","","98.78","","","","-10","","Snow"
"-81.11","44.74","WIARTON A","6119499","2018-04-01 02:00","2018","04","01","02:00","-3.8","","-11.4","","56","","","","30","","28","","24.1","","98.84","","","","-11","","NA"
"-81.11","44.74","WIARTON A","6119499","2018-04-01 03:00","2018","04","01","03:00","-3.8","","-11.2","","56","","","","31","","20","","24.1","","98.89","","","","-10","","NA"
"-81.11","44.74","WIARTON A","6119499","2018-04-01 04:00","2018","04","01","04:00","-3.9","","-9.6","","65","","","","30","","19","","24.1","","98.94","","","","-10","","Snow"
"-81.11","44.74","WIARTON A","6119499","2018-04-01 05:00","2018","04","01","05:00","-4.2","","-8.9","","70","","","","31","","21","","16.1","","98.98","","","","-11","","Snow"
"-81.11","44.74","WIARTON A","6119499","2018-04-01 06:00","2018","04","01","06:00","-4.0","","-8.3","","72","","","","30","","11","","16.1","","99.06","","","","-8","","Snow"
"-81.11","44.74","WIARTON A","6119499","2018-04-01 07:00","2018","04","01","07:00","-4.0","","-7.4","","78","","","","29","","10","","16.1","","99.13","","","","-8","","Snow"
"-81.11","44.74","WIARTON A","6119499","2018-04-01 08:00","2018","04","01","08:00","-3.4","","-8.5","","68","","","","28","","18","","16.1","","99.19","","","","-9","","Snow"
"-81.11","44.74","WIARTON A","6119499","2018-04-01 09:00","2018","04","01","09:00","-3.1","","-9.1","","64","","","","26","","22","","16.1","","99.23","","","","-9","","Snow"
"-81.11","44.74","WIARTON A","6119499","2018-04-01 10:00","2018","04","01","10:00","-2.6","","-11.3","","52","","","","28","","24","","16.1","","99.28","","","","-9","","Mostly Cloudy"
"-81.11","44.74","WIARTON A","6119499","2018-04-01 11:00","2018","04","01","11:00","-1.8","","-10.3","","53","","","","27","","17","","16.1","","99.32","","","","-7","","NA"
"-81.11","44.74","WIARTON A","6119499","2018-04-01 12:00","2018","04","01","12:00","-1.9","","-12.2","","46","","","","25","","26","","16.1","","99.32","","","","-8","","NA"
"-81.11","44.74","WIARTON A","6119499","2018-04-01 13:00","2018","04","01","13:00","-2.0","","-10.8","","51","","","","26","","23","","16.1","","99.32","","","","-8","","Mostly Cloudy"
"-81.11","44.74","WIARTON A","6119499","2018-04-01 14:00","2018","04","01","14:00","-1.3","","-10.7","","49","","","","27","","20","","16.1","","99.32","","","","-7","","NA"
"-81.11","44.74","WIARTON A","6119499","2018-04-01 15:00","2018","04","01","15:00","-2.1","","-11.3","","49","","","","26","","18","","16.1","","99.31","","","","-8","","NA"
"-81.11","44.74","WIARTON A","6119499","2018-04-01 16:00","2018","04","01","16:00","-1.4","","-11.5","","46","","","","25","","22","","16.1","","99.26","","","","-7","","Mainly Clear"
"-81.11","44.74","WIARTON A","6119499","2018-04-01 17:00","2018","04","01","17:00","-1.2","","-11.8","","45","","","","23","","26","","16.1","","99.22","","","","-8","","NA"
"-81.11","44.74","WIARTON A","6119499","2018-04-01 18:00","2018","04","01","18:00","-1.3","","-9.8","","53","","","","22","","22","","24.1","","99.17","","","","-7","","NA"
"-81.11","44.74","WIARTON A","6119499","2018-04-01 19:00","2018","04","01","19:00","-2.5","","-8.7","","63","","","","20","","12","","24.1","","99.10","","","","-7","","Mainly Clear"
"-81.11","44.74","WIARTON A","6119499","2018-04-01 20:00","2018","04","01","20:00","-3.2","","-8.5","","67","","","","18","","12","","24.1","","99.07","","","","-8","","NA"
"-81.11","44.74","WIARTON A","6119499","2018-04-01 21:00","2018","04","01","21:00","-3.3","","-8.6","","67","","","","17","","13","","24.1","","99.06","","","","-8","","NA"
"-81.11","44.74","WIARTON A","6119499","2018-04-01 22:00","2018","04","01","22:00","-2.5","","-7.8","","68","","","","18","","13","","24.1","","99.06","","","","-7","","Mostly Cloudy"
"-81.11","44.74","WIARTON A","6119499","2018-04-01 23:00","2018","04","01","23:00","-3.2","","-4.2","","93","","","","33","","9","","6.4","","99.11","","","","-7","","Snow"
"-81.11","44.74","WIARTON A","6119499","2018-04-02 00:00","2018","04","02","00:00","-4.0","","-7.0","","80","","","","35","","4","","12.9","","99.11","","","","-6","","NA"
"-81.11","44.74","WIARTON A","6119499","2018-04-02 01:00","2018","04","02","01:00","-4.9","","-8.0","","79","","","","33","","3","","24.1","","99.11","","","","-6","","Mainly Clear"
"-81.11","44.74","WIARTON A","6119499","2018-04-02 02:00","2018","04","02","02:00","-5.2","","-8.9","","75","","","","36","","3","","24.1","","99.09","","","","-7","","NA"
"-81.11","44.74","WIARTON A","6119499","2018-04-02 03:00","2018","04","02","03:00","-4.9","","-9.0","","73","","","","8","","4","","24.1","","99.07","","","","-7","","NA"
"-81.11","44.74","WIARTON A","6119499","2018-04-02 04:00","2018","04","02","04:00","-5.5","","-6.8","","91","","","","12","","4","","24.1","","99.11","","","","-7","","Mostly Cloudy"
"-81.11","44.74","WIARTON A","6119499","2018-04-02 05:00","2018","04","02","05:00","-6.0","","-6.0","","100","","","","19","","7","","24.1","","99.14","","","","-9","","NA"
"-81.11","44.74","WIARTON A","6119499","2018-04-02 06:00","2018","04","02","06:00","-6.3","","-7.8","","89","","","","16","","10","","24.1","","99.13","","","","-11","","NA"
"-81.11","44.74","WIARTON A","6119499","2018-04-02 07:00","2018","04","02","07:00","-4.8","","-7.0","","85","","","","17","","8","","24.1","","99.17","","","","-8","","Mostly Cloudy"
"-81.11","44.74","WIARTON A","6119499","2018-04-02 08:00","2018","04","02","08:00","-3.5","","-6.5","","80","","","","19","","16","","24.1","","99.23","","","","-9","","NA"
"-81.11","44.74","WIARTON A","6119499","2018-04-02 09:00","2018","04","02","09:00","-2.0","","-7.2","","68","","","","20","","21","","24.1","","99.21","","","","-8","","NA"
"-81.11","44.74","WIARTON A","6119499","2018-04-02 10:00","2018","04","02","10:00","-1.5","","-8.5","","59","","","","22","","20","","24.1","","99.25","","","","-7","","Mostly Cloudy"
"-81.11","44.74","WIARTON A","6119499","2018-04-02 11:00","2018","04","02","11:00","-0.3","","-7.9","","57","","","","23","","21","","24.1","","99.20","","","","-6","","NA"
"-81.11","44.74","WIARTON A","6119499","2018-04-02 12:00","2018","04","02","12:00","0.4","","-8.4","","52","","","","23","","25","","24.1","","99.19","","","","","","NA"
"-81.11","44.74","WIARTON A","6119499","2018-04-02 13:00","2018","04","02","13:00","0.7","","-7.0","","57","","","","24","","23","","24.1","","99.20","","","","","","Mostly Cloudy"
"-81.11","44.74","WIARTON A","6119499","2018-04-02 14:00","2018","04","02","14:00","0.9","","-7.3","","54","","","","25","","17","","24.1","","99.11","","","","","","NA"
"-81.11","44.74","WIARTON A","6119499","2018-04-02 15:00","2018","04","02","15:00","1.5","","-8.3","","48","","","","23","","24","","24.1","","99.14","","","","","","NA"
"-81.11","44.74","WIARTON A","6119499","2018-04-02 16:00","2018","04","02","16:00","0.5","","-7.7","","54","","","","22","","21","","24.1","","99.13","","","","","","Cloudy"
"-81.11","44.74","WIARTON A","6119499","2018-04-02 17:00","2018","04","02","17:00","0.5","","-7.1","","57","","","","24","","15","","24.1","","99.14","","","","","","NA"
"-81.11","44.74","WIARTON A","6119499","2018-04-02 18:00","2018","04","02","18:00","0.0","","-6.7","","61","","","","24","","9","","24.1","","99.14","","","","-3","","NA"
"-81.11","44.74","WIARTON A","6119499","2018-04-02 19:00","2018","04","02","19:00","-0.4","","-7.2","","60","","","","20","","5","","24.1","","99.09","","","","-2","","Cloudy"
"-81.11","44.74","WIARTON A","6119499","2018-04-02 20:00","2018","04","02","20:00","-0.8","","-6.3","","66","","","","12","","7","","24.1","","99.03","","","","-3","","NA"
"-81.11","44.74","WIARTON A","6119499","2018-04-02 21:00","2018","04","02","21:00","-0.8","","-6.2","","66","","","","12","","6","","24.1","","99.07","","","","-3","","NA"
"-81.11","44.74","WIARTON A","6119499","2018-04-02 22:00","2018","04","02","22:00","-0.2","","-6.3","","63","","","","11","","7","","24.1","","99.05","","","","-3","","Cloudy"
"-81.11","44.74","WIARTON A","6119499","2018-04-02 23:00","2018","04","02","23:00","0.0","","-7.2","","59","","","","12","","5","","24.1","","99.05","","","","-2","","NA"
"-81.11","44.74","WIARTON A","6119499","2018-04-03 00:00","2018","04","03","00:00","-1.0","","-6.5","","66","","","","11","","5","","24.1","","99.05","","","","-3","","NA"
"-81.11","44.74","WIARTON A","6119499","2018-04-03 01:00","2018","04","03","01:00","-0.7","","-5.9","","68","","","","8","","5","","24.1","","99.03","","","","-2","","Cloudy"
"-81.11","44.74","WIARTON A","6119499","2018-04-03 02:00","2018","04","03","02:00","-0.5","","-4.9","","72","","","","9","","5","","24.1","","98.99","","","","-2","","NA"
"-81.11","44.74","WIARTON A","6119499","2018-04-03 03:00","2018","04","03","03:00","0.0","","-6.0","","64","","","","3","","7","","24.1","","98.99","","","","-2","","NA"
"-81.11","44.74","WIARTON A","6119499","2018-04-03 04:00","2018","04","03","04:00","-1.1","","-1.1","","100","","","","6","","8","","19.3","","98.95","","","","-4","","Snow"
"-81.11","44.74","WIARTON A","6119499","2018-04-03 05:00","2018","04","03","05:00","-1.1","","-2.9","","87","","","","7","","15","","24.1","","98.84","","","","-6","","NA"
"-81.11","44.74","WIARTON A","6119499","2018-04-03 06:00","2018","04","03","06:00","-0.6","","-3.9","","78","","","","7","","22","","24.1","","98.87","","","","-6","","NA"
"-81.11","44.74","WIARTON A","6119499","2018-04-03 07:00","2018","04","03","07:00","-0.4","","-4.8","","73","","","","8","","21","","24.1","","98.92","","","","-6","","Cloudy"
"-81.11","44.74","WIARTON A","6119499","2018-04-03 08:00","2018","04","03","08:00","0.4","","-6.1","","62","","","","8","","12","","24.1","","98.90","","","","","","NA"
"-81.11","44.74","WIARTON A","6119499","2018-04-03 09:00","2018","04","03","09:00","1.0","","-7.0","","55","","","","7","","19","","24.1","","98.85","","","","","","NA"
"-81.11","44.74","WIARTON A","6119499","2018-04-03 10:00","2018","04","03","10:00","2.4","","-6.6","","52","","","","8","","22","","24.1","","98.77","","","","","","Mostly Cloudy"
"-81.11","44.74","WIARTON A","6119499","2018-04-03 11:00","2018","04","03","11:00","2.6","","-5.6","","55","","","","7","","32","","24.1","","98.68","","","","","","NA"
"-81.11","44.74","WIARTON A","6119499","2018-04-03 12:00","2018","04","03","12:00","3.6","","-5.0","","54","","","","7","","25","","24.1","","98.59","","","","","","NA"
"-81.11","44.74","WIARTON A","6119499","2018-04-03 13:00","2018","04","03","13:00","2.7","","-5.8","","54","","","","7","","25","","24.1","","98.52","","","","","","Cloudy"
"-81.11","44.74","WIARTON A","6119499","2018-04-03 14:00","2018","04","03","14:00","2.1","","-5.1","","59","","","","6","","17","","24.1","","98.45","","","","","","NA"
"-81.11","44.74","WIARTON A","6119499","2018-04-03 15:00","2018","04","03","15:00","2.3","","-5.0","","58","","","","6","","22","","24.1","","98.28","","","","","","NA"
"-81.11","44.74","WIARTON A","6119499","2018-04-03 16:00","2018","04","03","16:00","2.5","","-5.6","","55","","","","6","","23","","24.1","","98.17","","","","","","Cloudy"
"-81.11","44.74","WIARTON A","6119499","2018-04-03 17:00","2018","04","03","17:00","2.3","","-4.5","","61","","","","6","","19","","24.1","","98.05","","","","","","Snow Pellets"
"-81.11","44.74","WIARTON A","6119499","2018-04-03 18:00","2018","04","03","18:00","0.0","","0.0","","100","","","","6","","18","","0.8","","98.09","","","","-5","","Moderate Snow"
"-81.11","44.74","WIARTON A","6119499","2018-04-03 19:00","2018","04","03","19:00","-0.2","","-0.2","","100","","","","6","","25","","1.2","","97.87","","","","-6","","Snow"
"-81.11","44.74","WIARTON A","6119499","2018-04-03 20:00","2018","04","03","20:00","-0.1","","-0.1","","100","","","","7","","34","","1.6","","97.79","","","","-7","","Snow"
"-81.11","44.74","WIARTON A","6119499","2018-04-03 21:00","2018","04","03","21:00","-0.2","","-0.2","","100","","","","14","","46","","1.6","","97.66","","","","-8","","Snow"
"-81.11","44.74","WIARTON A","6119499","2018-04-03 22:00","2018","04","03","22:00","-0.1","","-0.1","","100","","","","6","","35","","1.6","","97.51","","","","-7","","Snow,Blowing Snow"
"-81.11","44.74","WIARTON A","6119499","2018-04-03 23:00","2018","04","03","23:00","-0.4","","-0.4","","100","","","","7","","40","","3.2","","97.29","","","","-8","","Snow,Blowing Snow"
"-81.11","44.74","WIARTON A","6119499","2018-04-04 00:00","2018","04","04","00:00","-0.2","","-0.2","","100","","","","7","","34","","4.8","","97.11","","","","-7","","Snow,Fog"
"-81.11","44.74","WIARTON A","6119499","2018-04-04 01:00","2018","04","04","01:00","-0.1","","-0.1","","100","","","","7","","32","","4.8","","96.93","","","","-7","","Freezing Rain,Fog"
"-81.11","44.74","WIARTON A","6119499","2018-04-04 02:00","2018","04","04","02:00","0.0","","0.0","","100","","","","6","","27","","3.2","","96.84","","","","-6","","Freezing Rain,Fog"
"-81.11","44.74","WIARTON A","6119499","2018-04-04 03:00","2018","04","04","03:00","0.0","","0.0","","100","","","","5","","27","","1.6","","96.67","","","","-6","","Freezing Rain,Fog"
"-81.11","44.74","WIARTON A","6119499","2018-04-04 04:00","2018","04","04","04:00","0.0","","0.0","","100","","","","6","","30","","1.6","","96.50","","","","-6","","Rain,Snow,Fog"
"-81.11","44.74","WIARTON A","6119499","2018-04-04 05:00","2018","04","04","05:00","-0.1","","-0.1","","100","","","","9","","11","","1.6","","96.39","","","","-4","","Freezing Drizzle,Fog"
"-81.11","44.74","WIARTON A","6119499","2018-04-04 06:00","2018","04","04","06:00","-0.1","","-0.1","","100","","","","5","","9","","1.6","","96.39","","","","-3","","Freezing Drizzle,Fog"
"-81.11","44.74","WIARTON A","6119499","2018-04-04 07:00","2018","04","04","07:00","-0.2","","-0.2","","100","","","","3","","13","","1.2","","96.33","","","","-4","","Snow,Fog"
"-81.11","44.74","WIARTON A","6119499","2018-04-04 08:00","2018","04","04","08:00","-1.7","","-1.7","","100","","","","33","","14","","1.0","","96.33","","","","-6","","Snow,Fog"
"-81.11","44.74","WIARTON A","6119499","2018-04-04 09:00","2018","04","04","09:00","-4.0","","-4.0","","100","","","","32","","15","","1.2","","96.50","","","","-9","","Snow,Fog"
"-81.11","44.74","WIARTON A","6119499","2018-04-04 10:00","2018","04","04","10:00","-4.5","","-4.5","","100","","","","30","","17","","1.0","","96.76","","","","-10","","Snow,Fog"
"-81.11","44.74","WIARTON A","6119499","2018-04-04 11:00","2018","04","04","11:00","-5.2","","-5.3","","99","","","","30","","24","","0.8","","96.96","","","","-12","","Moderate Snow,Fog"
"-81.11","44.74","WIARTON A","6119499","2018-04-04 12:00","2018","04","04","12:00","-5.3","","-6.1","","94","","","","30","","20","","1.2","","97.15","","","","-12","","Snow Grains,Fog"
"-81.11","44.74","WIARTON A","6119499","2018-04-04 13:00","2018","04","04","13:00","-4.8","","-5.2","","98","","","","30","","28","","0.8","","97.35","","","","-12","","Moderate Snow Showers,Blowing Snow"
"-81.11","44.74","WIARTON A","6119499","2018-04-04 14:00","2018","04","04","14:00","-5.3","","-5.4","","99","","","","29","","36","","0.2","","97.63","","","","-14","","Heavy Snow Showers,Blowing Snow"
"-81.11","44.74","WIARTON A","6119499","2018-04-04 15:00","2018","04","04","15:00","-4.8","","-5.4","","95","","","","30","","36","","0.8","","97.86","","","","-13","","Snow Showers,Blowing Snow"
"-81.11","44.74","WIARTON A","6119499","2018-04-04 16:00","2018","04","04","16:00","-5.0","","-5.2","","99","","","","31","","31","","0.8","","98.07","","","","-13","","Snow Showers,Blowing Snow"
"-81.11","44.74","WIARTON A","6119499","2018-04-04 17:00","2018","04","04","17:00","-5.2","","-5.8","","95","","","","31","","22","","2.4","","98.29","","","","-12","","Blowing Snow"
"-81.11","44.74","WIARTON A","6119499","2018-04-04 18:00","2018","04","04","18:00","-5.2","","-5.2","","100","","","","30","","24","","2.4","","98.47","","","","-12","","Blowing Snow"
"-81.11","44.74","WIARTON A","6119499","2018-04-04 19:00","2018","04","04","19:00","-4.8","","-5.8","","92","","","","30","","24","","4.8","","98.59","","","","-12","","Blowing Snow"
"-81.11","44.74","WIARTON A","6119499","2018-04-04 20:00","2018","04","04","20:00","-4.8","","-8.7","","74","","","","30","","19","","12.9","","98.72","","","","-11","","NA"
"-81.11","44.74","WIARTON A","6119499","2018-04-04 21:00","2018","04","04","21:00","-5.1","","-10.5","","66","","","","30","","19","","19.3","","98.83","","","","-12","","NA"
"-81.11","44.74","WIARTON A","6119499","2018-04-04 22:00","2018","04","04","22:00","-5.0","","-9.6","","70","","","","29","","18","","19.3","","98.89","","","","-11","","Mostly Cloudy"
"-81.11","44.74","WIARTON A","6119499","2018-04-04 23:00","2018","04","04","23:00","-4.9","","-9.3","","72","","","","29","","14","","24.1","","98.94","","","","-10","","NA"
"-81.11","44.74","WIARTON A","6119499","2018-04-05 00:00","2018","04","05","00:00","-5.0","","-9.7","","70","","","","30","","18","","19.3","","98.98","","","","-11","","NA"
"-81.11","44.74","WIARTON A","6119499","2018-04-05 01:00","2018","04","05","01:00","-5.4","","-9.3","","74","","","","32","","11","","19.3","","99.04","","","","-10","","Cloudy"
"-81.11","44.74","WIARTON A","6119499","2018-04-05 02:00","2018","04","05","02:00","-6.8","","-10.7","","74","","","","33","","11","","19.3","","99.07","","","","-12","","NA"
"-81.11","44.74","WIARTON A","6119499","2018-04-05 03:00","2018","04","05","03:00","-7.8","","-11.0","","78","","","","29","","5","","24.1","","99.10","","","","-10","","NA"
"-81.11","44.74","WIARTON A","6119499","2018-04-05 04:00","2018","04","05","04:00","-9.3","","-11.4","","84","","","","36","","1","","24.1","","99.12","","","","-10","","Mainly Clear"
"-81.11","44.74","WIARTON A","6119499","2018-04-05 05:00","2018","04","05","05:00","-9.5","","-12.9","","77","","","","36","","1","","24.1","","99.14","","","","-10","","NA"
"-81.11","44.74","WIARTON A","6119499","2018-04-05 06:00","2018","04","05","06:00","-11.1","","-12.0","","93","","","","20","","5","","24.1","","99.18","","","","-14","","NA"
"-81.11","44.74","WIARTON A","6119499","2018-04-05 07:00","2018","04","05","07:00","-10.7","","-12.8","","85","","","","22","","7","","24.1","","99.21","","","","-15","","Mostly Cloudy"
"-81.11","44.74","WIARTON A","6119499","2018-04-05 08:00","2018","04","05","08:00","-7.9","","-12.1","","72","","","","21","","10","","24.1","","99.25","","","","-13","","NA"
"-81.11","44.74","WIARTON A","6119499","2018-04-05 09:00","2018","04","05","09:00","-5.2","","-14.1","","50","","","","20","","9","","24.1","","99.26","","","","-9","","NA"
"-81.11","44.74","WIARTON A","6119499","2018-04-05 10:00","2018","04","05","10:00","-3.3","","-11.8","","52","","","","24","","12","","24.1","","99.26","","","","-8","","Mainly Clear"
"-81.11","44.74","WIARTON A","6119499","2018-04-05 11:00","2018","04","05","11:00","-2.7","","-11.2","","52","","","","24","","17","","24.1","","99.26","","","","-8","","NA"
"-81.11","44.74","WIARTON A","6119499","2018-04-05 12:00","2018","04","05","12:00","-4.5","","-4.5","","100","","","","25","","21","","0.4","","99.26","","","","-11","","Heavy Snow Pellets"
"-81.11","44.74","WIARTON A","6119499","2018-04-05 13:00","2018","04","05","13:00","-1.9","","-8.8","","59","","","","27","","18","","24.1","","99.23","","","","-7","","Mostly Cloudy"
"-81.11","44.74","WIARTON A","6119499","2018-04-05 14:00","2018","04","05","14:00","-1.7","","-10.7","","51","","","","26","","17","","24.1","","99.19","","","","-7","","NA"
"-81.11","44.74","WIARTON A","6119499","2018-04-05 15:00","2018","04","05","15:00","-1.2","","-9.2","","55","","","","24","","18","","24.1","","99.13","","","","-6","","NA"
"-81.11","44.74","WIARTON A","6119499","2018-04-05 16:00","2018","04","05","16:00","-1.0","","-8.7","","56","","","","23","","21","","24.1","","99.05","","","","-7","","Mainly Clear"
"-81.11","44.74","WIARTON A","6119499","2018-04-05 17:00","2018","04","05","17:00","-1.1","","-8.3","","58","","","","22","","21","","24.1","","98.98","","","","-7","","NA"
"-81.11","44.74","WIARTON A","6119499","2018-04-05 18:00","2018","04","05","18:00","-1.1","","-8.3","","58","","","","23","","17","","24.1","","98.94","","","","-6","","NA"
"-81.11","44.74","WIARTON A","6119499","2018-04-05 19:00","2018","04","05","19:00","-1.5","","-8.0","","61","","","","21","","22","","24.1","","98.87","","","","-7","","Mostly Cloudy"
"-81.11","44.74","WIARTON A","6119499","2018-04-05 20:00","2018","04","05","20:00","-1.8","","-8.1","","62","","","","20","","19","","24.1","","98.86","","","","-7","","NA"
"-81.11","44.74","WIARTON A","6119499","2018-04-05 21:00","2018","04","05","21:00","-2.4","","-8.0","","66","","","","19","","19","","24.1","","98.80","","","","-8","","NA"
"-81.11","44.74","WIARTON A","6119499","2018-04-05 22:00","2018","04","05","22:00","-2.9","","-8.6","","65","","","","18","","19","","24.1","","98.75","","","","-9","","Mainly Clear"
"-81.11","44.74","WIARTON A","6119499","2018-04-05 23:00","2018","04","05","23:00","-3.4","","-8.9","","66","","","","19","","20","","24.1","","98.67","","","","-10","","NA"
"-81.11","44.74","WIARTON A","6119499","2018-04-06 00:00","2018","04","06","00:00","-3.6","","-8.8","","67","","","","19","","21","","24.1","","98.62","","","","-10","","NA"
"-81.11","44.74","WIARTON A","6119499","2018-04-06 01:00","2018","04","06","01:00","-3.8","","-8.4","","71","","","","19","","19","","24.1","","98.56","","","","-10","","Mainly Clear"
"-81.11","44.74","WIARTON A","6119499","2018-04-06 02:00","2018","04","06","02:00","-3.9","","-7.6","","76","","","","19","","16","","24.1","","98.48","","","","-9","","NA"
"-81.11","44.74","WIARTON A","6119499","2018-04-06 03:00","2018","04","06","03:00","-4.0","","-7.0","","80","","","","18","","7","","24.1","","98.40","","","","-7","","NA"
"-81.11","44.74","WIARTON A","6119499","2018-04-06 04:00","2018","04","06","04:00","-4.3","","-7.2","","80","","","","18","","11","","24.1","","98.32","","","","-9","","Mainly Clear"
"-81.11","44.74","WIARTON A","6119499","2018-04-06 05:00","2018","04","06","05:00","-5.4","","-7.2","","88","","","","15","","15","","24.1","","98.20","","","","-11","","NA"
"-81.11","44.74","WIARTON A","6119499","2018-04-06 06:00","2018","04","06","06:00","-4.8","","-6.7","","86","","","","16","","12","","24.1","","98.11","","","","-10","","NA"
"-81.11","44.74","WIARTON A","6119499","2018-04-06 07:00","2018","04","06","07:00","-3.5","","-6.2","","81","","","","17","","12","","24.1","","98.06","","","","-8","","Mostly Cloudy"
"-81.11","44.74","WIARTON A","6119499","2018-04-06 08:00","2018","04","06","08:00","-1.9","","-5.4","","77","","","","17","","13","","24.1","","97.97","","","","-6","","NA"
"-81.11","44.74","WIARTON A","6119499","2018-04-06 09:00","2018","04","06","09:00","0.0","","-4.0","","74","","","","20","","18","","24.1","","97.84","","","","-5","","NA"
"-81.11","44.74","WIARTON A","6119499","2018-04-06 10:00","2018","04","06","10:00","0.8","","-3.8","","71","","","","19","","15","","24.1","","97.76","","","","","","Cloudy"
"-81.11","44.74","WIARTON A","6119499","2018-04-06 11:00","2018","04","06","11:00","0.2","","-1.4","","89","","","","17","","17","","2.4","","97.67","","","","","","Snow"
"-81.11","44.74","WIARTON A","6119499","2018-04-06 12:00","2018","04","06","12:00","-0.5","","-0.5","","100","","","","21","","12","","1.2","","97.58","","","","-4","","Snow"
"-81.11","44.74","WIARTON A","6119499","2018-04-06 13:00","2018","04","06","13:00","0.1","","0.1","","100","","","","22","","13","","1.0","","97.50","","","","","","Snow"
"-81.11","44.74","WIARTON A","6119499","2018-04-06 14:00","2018","04","06","14:00","0.0","","0.0","","100","","","","29","","28","","4.8","","97.53","","","","-6","","Snow"
"-81.11","44.74","WIARTON A","6119499","2018-04-06 15:00","2018","04","06","15:00","-0.2","","-0.6","","97","","","","30","","20","","4.8","","97.63","","","","-5","","Snow"
"-81.11","44.74","WIARTON A","6119499","2018-04-06 16:00","2018","04","06","16:00","-0.3","","-4.2","","75","","","","31","","22","","16.1","","97.70","","","","-6","","Mostly Cloudy"
"-81.11","44.74","WIARTON A","6119499","2018-04-06 17:00","2018","04","06","17:00","-0.3","","-5.9","","66","","","","29","","25","","24.1","","97.80","","","","-6","","NA"
"-81.11","44.74","WIARTON A","6119499","2018-04-06 18:00","2018","04","06","18:00","-1.5","","-6.8","","68","","","","30","","21","","24.1","","97.90","","","","-7","","NA"
"-81.11","44.74","WIARTON A","6119499","2018-04-06 19:00","2018","04","06","19:00","-2.2","","-7.5","","67","","","","30","","26","","24.1","","97.98","","","","-9","","Blowing Snow"
"-81.11","44.74","WIARTON A","6119499","2018-04-06 20:00","2018","04","06","20:00","-2.9","","-8.7","","65","","","","29","","28","","24.1","","98.11","","","","-10","","Blowing Snow"
"-81.11","44.74","WIARTON A","6119499","2018-04-06 21:00","2018","04","06","21:00","-3.4","","-10.1","","60","","","","30","","34","","24.1","","98.21","","","","-11","","Blowing Snow"
"-81.11","44.74","WIARTON A","6119499","2018-04-06 22:00","2018","04","06","22:00","-4.3","","-11.0","","60","","","","30","","28","","24.1","","98.32","","","","-12","","Blowing Snow"
"-81.11","44.74","WIARTON A","6119499","2018-04-06 23:00","2018","04","06","23:00","-4.6","","-11.7","","58","","","","30","","32","","24.1","","98.38","","","","-13","","Blowing Snow"
"-81.11","44.74","WIARTON A","6119499","2018-04-07 00:00","2018","04","07","00:00","-5.0","","-12.2","","57","","","","30","","30","","24.1","","98.46","","","","-13","","Blowing Snow"
"-81.11","44.74","WIARTON A","6119499","2018-04-07 01:00","2018","04","07","01:00","-4.9","","-12.2","","57","","","","31","","22","","24.1","","98.53","","","","-12","","Blowing Snow"
"-81.11","44.74","WIARTON A","6119499","2018-04-07 02:00","2018","04","07","02:00","-4.7","","-10.7","","63","","","","31","","18","","19.3","","98.55","","","","-11","","NA"
"-81.11","44.74","WIARTON A","6119499","2018-04-07 03:00","2018","04","07","03:00","-4.7","","-10.1","","66","","","","30","","18","","16.1","","98.56","","","","-11","","Snow"
"-81.11","44.74","WIARTON A","6119499","2018-04-07 04:00","2018","04","07","04:00","-4.4","","-10.1","","65","","","","29","","17","","24.1","","98.59","","","","-10","","Snow"
"-81.11","44.74","WIARTON A","6119499","2018-04-07 05:00","2018","04","07","05:00","-5.8","","-5.8","","100","","","","32","","8","","1.2","","98.66","","","","-10","","Snow"
"-81.11","44.74","WIARTON A","6119499","2018-04-07 06:00","2018","04","07","06:00","-5.8","","-9.0","","79","","","","34","","8","","16.1","","98.70","","","","-10","","Snow"
"-81.11","44.74","WIARTON A","6119499","2018-04-07 07:00","2018","04","07","07:00","-5.6","","-10.1","","71","","","","33","","11","","16.1","","98.75","","","","-10","","Snow"
"-81.11","44.74","WIARTON A","6119499","2018-04-07 08:00","2018","04","07","08:00","-4.8","","-10.7","","64","","","","33","","12","","16.1","","98.80","","","","-10","","Snow"
"-81.11","44.74","WIARTON A","6119499","2018-04-07 09:00","2018","04","07","09:00","-3.8","","-11.2","","56","","","","30","","14","","16.1","","98.82","","","","-9","","NA"
"-81.11","44.74","WIARTON A","6119499","2018-04-07 10:00","2018","04","07","10:00","-3.4","","-11.2","","55","","","","31","","13","","16.1","","98.81","","","","-8","","Cloudy"
"-81.11","44.74","WIARTON A","6119499","2018-04-07 11:00","2018","04","07","11:00","-3.1","","-10.7","","56","","","","26","","13","","16.1","","98.82","","","","-8","","NA"
"-81.11","44.74","WIARTON A","6119499","2018-04-07 12:00","2018","04","07","12:00","-3.2","","-8.3","","68","","","","24","","14","","16.1","","98.79","","","","-8","","Snow"
"-81.11","44.74","WIARTON A","6119499","2018-04-07 13:00","2018","04","07","13:00","-2.9","","-7.4","","71","","","","27","","17","","3.2","","98.76","","","","-8","","Snow,Fog"
"-81.11","44.74","WIARTON A","6119499","2018-04-07 14:00","2018","04","07","14:00","-2.5","","-9.7","","58","","","","27","","18","","16.1","","98.73","","","","-8","","Snow"
"-81.11","44.74","WIARTON A","6119499","2018-04-07 15:00","2018","04","07","15:00","-2.4","","-10.3","","55","","","","26","","21","","16.1","","98.72","","","","-8","","NA"
"-81.11","44.74","WIARTON A","6119499","2018-04-07 16:00","2018","04","07","16:00","-2.6","","-9.6","","59","","","","26","","19","","16.1","","98.74","","","","-8","","Cloudy"
"-81.11","44.74","WIARTON A","6119499","2018-04-07 17:00","2018","04","07","17:00","-3.8","","-6.0","","85","","","","26","","18","","2.4","","98.77","","","","-10","","Snow"
"-81.11","44.74","WIARTON A","6119499","2018-04-07 18:00","2018","04","07","18:00","-3.2","","-8.3","","68","","","","26","","10","","16.1","","98.76","","","","-7","","Snow"
"-81.11","44.74","WIARTON A","6119499","2018-04-07 19:00","2018","04","07","19:00","-4.0","","-6.1","","85","","","","24","","14","","19.3","","98.76","","","","-9","","Snow"
"-81.11","44.74","WIARTON A","6119499","2018-04-07 20:00","2018","04","07","20:00","-4.2","","-4.2","","100","","","","26","","8","","9.7","","98.81","","","","-8","","Snow Showers"
"-81.11","44.74","WIARTON A","6119499","2018-04-07 21:00","2018","04","07","21:00","-3.8","","-6.3","","83","","","","29","","7","","12.9","","98.82","","","","-7","","NA"
"-81.11","44.74","WIARTON A","6119499","2018-04-07 22:00","2018","04","07","22:00","-3.9","","-7.0","","80","","","","27","","7","","24.1","","98.79","","","","-7","","Cloudy"
"-81.11","44.74","WIARTON A","6119499","2018-04-07 23:00","2018","04","07","23:00","-4.8","","-6.9","","85","","","","33","","15","","19.3","","98.79","","","","-10","","Snow"
"-81.11","44.74","WIARTON A","6119499","2018-04-08 00:00","2018","04","08","00:00","-6.2","","-7.9","","88","","","","33","","5","","24.1","","98.79","","","","-9","","NA"
"-81.11","44.74","WIARTON A","6119499","2018-04-08 01:00","2018","04","08","01:00","-6.3","","-11.1","","69","","","","32","","8","","24.1","","98.78","","","","-10","","Mainly Clear"
"-81.11","44.74","WIARTON A","6119499","2018-04-08 02:00","2018","04","08","02:00","-6.5","","-11.4","","69","","","","31","","5","","24.1","","98.77","","","","-9","","NA"
"-81.11","44.74","WIARTON A","6119499","2018-04-08 03:00","2018","04","08","03:00","-6.8","","-11.0","","72","","","","34","","8","","24.1","","98.79","","","","-11","","NA"
"-81.11","44.74","WIARTON A","6119499","2018-04-08 04:00","2018","04","08","04:00","-6.6","","-10.7","","73","","","","33","","9","","16.1","","98.81","","","","-11","","Snow"
"-81.11","44.74","WIARTON A","6119499","2018-04-08 05:00","2018","04","08","05:00","-6.5","","-10.6","","73","","","","34","","10","","24.1","","98.84","","","","-11","","NA"
"-81.11","44.74","WIARTON A","6119499","2018-04-08 06:00","2018","04","08","06:00","-7.2","","-10.8","","76","","","","33","","10","","24.1","","98.88","","","","-12","","NA"
"-81.11","44.74","WIARTON A","6119499","2018-04-08 07:00","2018","04","08","07:00","-7.5","","-11.0","","76","","","","33","","9","","24.1","","98.93","","","","-12","","Mainly Clear"
"-81.11","44.74","WIARTON A","6119499","2018-04-08 08:00","2018","04","08","08:00","-6.2","","-10.8","","70","","","","32","","9","","24.1","","98.96","","","","-10","","NA"
"-81.11","44.74","WIARTON A","6119499","2018-04-08 09:00","2018","04","08","09:00"
"-81.11","44.74","WIARTON A","6119499","2018-04-08 10:00","2018","04","08","10:00","-3.6","","-11.4","","55","","","","33","","12","","24.1","","99.06","","","","-8","","Mostly Cloudy"
"-81.11","44.74","WIARTON A","6119499","2018-04-08 11:00","2018","04","08","11:00","-3.4","","-12.3","","50","","","","33","","13","","24.1","","99.07","","","","-8","","NA"
"-81.11","44.74","WIARTON A","6119499","2018-04-08 12:00","2018","04","08","12:00","-2.8","","-11.2","","53","","","","26","","9","","24.1","","99.07","","","","-6","","NA"
"-81.11","44.74","WIARTON A","6119499","2018-04-08 13:00","2018","04","08","13:00","-2.5","","-10.1","","56","","","","29","","14","","24.1","","99.09","","","","-7","","Mostly Cloudy"
"-81.11","44.74","WIARTON A","6119499","2018-04-08 14:00","2018","04","08","14:00","-1.9","","-12.1","","46","","","","30","","17","","24.1","","99.10","","","","-7","","NA"
"-81.11","44.74","WIARTON A","6119499","2018-04-08 15:00","2018","04","08","15:00","-2.2","","-12.4","","46","","","","27","","16","","24.1","","99.13","","","","-7","","NA"
"-81.11","44.74","WIARTON A","6119499","2018-04-08 16:00","2018","04","08","16:00","-2.6","","-12.5","","47","","","","28","","19","","24.1","","99.15","","","","-8","","Clear"
"-81.11","44.74","WIARTON A","6119499","2018-04-08 17:00","2018","04","08","17:00","-2.7","","-12.0","","49","","","","30","","14","","24.1","","99.15","","","","-8","","NA"
"-81.11","44.74","WIARTON A","6119499","2018-04-08 18:00","2018","04","08","18:00","-3.0","","-11.2","","53","","","","30","","15","","24.1","","99.18","","","","-8","","NA"
"-81.11","44.74","WIARTON A","6119499","2018-04-08 19:00","2018","04","08","19:00","-3.8","","-10.4","","60","","","","27","","15","","24.1","","99.23","","","","-9","","Clear"
"-81.11","44.74","WIARTON A","6119499","2018-04-08 20:00","2018","04","08","20:00","-4.4","","-9.4","","68","","","","25","","8","","24.1","","99.23","","","","-8","","NA"
"-81.11","44.74","WIARTON A","6119499","2018-04-08 21:00","2018","04","08","21:00","-5.5","","-9.6","","73","","","","21","","7","","24.1","","99.27","","","","-9","","NA"
"-81.11","44.74","WIARTON A","6119499","2018-04-08 22:00","2018","04","08","22:00","-5.8","","-8.7","","80","","","","22","","6","","24.1","","99.25","","","","-9","","Clear"
"-81.11","44.74","WIARTON A","6119499","2018-04-08 23:00","2018","04","08","23:00","-6.8","","-8.5","","88","","","","19","","9","","24.1","","99.28","","","","-11","","NA"
"-81.11","44.74","WIARTON A","6119499","2018-04-09 00:00","2018","04","09","00:00","-6.0","","-8.8","","81","","","","21","","11","","24.1","","99.32","","","","-11","","NA"
"-81.11","44.74","WIARTON A","6119499","2018-04-09 01:00","2018","04","09","01:00","-5.2","","-7.7","","83","","","","20","","7","","24.1","","99.34","","","","-8","","Mostly Cloudy"
"-81.11","44.74","WIARTON A","6119499","2018-04-09 02:00","2018","04","09","02:00","-6.4","","-8.1","","88","","","","17","","7","","24.1","","99.34","","","","-10","","NA"
"-81.11","44.74","WIARTON A","6119499","2018-04-09 03:00","2018","04","09","03:00","-6.4","","-8.2","","88","","","","16","","9","","24.1","","99.32","","","","-11","","NA"
"-81.11","44.74","WIARTON A","6119499","2018-04-09 04:00","2018","04","09","04:00","-6.9","","-8.7","","87","","","","16","","9","","24.1","","99.34","","","","-11","","Mainly Clear"
"-81.11","44.74","WIARTON A","6119499","2018-04-09 05:00","2018","04","09","05:00","-7.0","","-8.7","","87","","","","17","","8","","24.1","","99.35","","","","-11","","NA"
"-81.11","44.74","WIARTON A","6119499","2018-04-09 06:00","2018","04","09","06:00","-6.4","","-8.6","","84","","","","18","","10","","24.1","","99.40","","","","-11","","NA"
"-81.11","44.74","WIARTON A","6119499","2018-04-09 07:00","2018","04","09","07:00","-4.9","","-7.9","","80","","","","18","","10","","24.1","","99.45","","","","-9","","Cloudy"
"-81.11","44.74","WIARTON A","6119499","2018-04-09 08:00","2018","04","09","08:00","-3.8","","-7.0","","79","","","","18","","7","","24.1","","99.48","","","","-7","","NA"
"-81.11","44.74","WIARTON A","6119499","2018-04-09 09:00","2018","04","09","09:00","-0.8","","-5.6","","70","","","","21","","12","","24.1","","99.50","","","","-5","","NA"
"-81.11","44.74","WIARTON A","6119499","2018-04-09 10:00","2018","04","09","10:00","-0.7","","-5.0","","73","","","","24","","10","","24.1","","99.51","","","","-4","","Cloudy"
"-81.11","44.74","WIARTON A","6119499","2018-04-09 11:00","2018","04","09","11:00","-0.7","","-3.6","","81","","","","26","","10","","16.1","","99.53","","","","-4","","Snow Pellets"
"-81.11","44.74","WIARTON A","6119499","2018-04-09 12:00","2018","04","09","12:00","-0.5","","-4.3","","75","","","","24","","14","","16.1","","99.52","","","","-5","","Snow Pellets"
"-81.11","44.74","WIARTON A","6119499","2018-04-09 13:00","2018","04","09","13:00","0.4","","-4.4","","70","","","","24","","8","","19.3","","99.49","","","","","","Snow Pellets"
"-81.11","44.74","WIARTON A","6119499","2018-04-09 14:00","2018","04","09","14:00","1.5","","-6.2","","56","","","","29","","13","","24.1","","99.45","","","","","","NA"
"-81.11","44.74","WIARTON A","6119499","2018-04-09 15:00","2018","04","09","15:00","1.9","","-6.2","","55","","","","28","","15","","24.1","","99.42","","","","","","NA"
"-81.11","44.74","WIARTON A","6119499","2018-04-09 16:00","2018","04","09","16:00","1.8","","-6.7","","54","","","","28","","16","","24.1","","99.43","","","","","","Cloudy"
"-81.11","44.74","WIARTON A","6119499","2018-04-09 17:00","2018","04","09","17:00","0.5","","-6.1","","61","","","","26","","14","","24.1","","99.45","","","","","","NA"
"-81.11","44.74","WIARTON A","6119499","2018-04-09 18:00","2018","04","09","18:00","0.0","","-6.4","","62","","","","25","","10","","24.1","","99.47","","","","-3","","NA"
"-81.11","44.74","WIARTON A","6119499","2018-04-09 19:00","2018","04","09","19:00","-0.8","","-6.1","","67","","","","25","","5","","24.1","","99.46","","","","-2","","Cloudy"
"-81.11","44.74","WIARTON A","6119499","2018-04-09 20:00","2018","04","09","20:00","-1.7","","-6.8","","69","","","","23","","4","","24.1","","99.49","","","","-3","","NA"
"-81.11","44.74","WIARTON A","6119499","2018-04-09 21:00","2018","04","09","21:00","-2.6","","-6.9","","73","","","","21","","4","","24.1","","99.52","","","","-4","","NA"
"-81.11","44.74","WIARTON A","6119499","2018-04-09 22:00","2018","04","09","22:00","-4.7","","-6.9","","84","","","","20","","8","","24.1","","99.50","","","","-8","","Mainly Clear"
"-81.11","44.74","WIARTON A","6119499","2018-04-09 23:00","2018","04","09","23:00","-4.1","","-6.4","","84","","","","22","","7","","24.1","","99.50","","","","-7","","NA"
"-81.11","44.74","WIARTON A","6119499","2018-04-10 00:00","2018","04","10","00:00","-4.0","","-6.0","","86","","","","20","","8","","24.1","","99.50","","","","-7","","NA"
"-81.11","44.74","WIARTON A","6119499","2018-04-10 01:00","2018","04","10","01:00","-4.2","","-5.1","","93","","","","20","","10","","24.1","","99.50","","","","-8","","Cloudy"
"-81.11","44.74","WIARTON A","6119499","2018-04-10 02:00","2018","04","10","02:00","-3.5","","-4.1","","95","","","","21","","11","","24.1","","99.48","","","","-8","","NA"
"-81.11","44.74","WIARTON A","6119499","2018-04-10 03:00","2018","04","10","03:00","-3.8","","-3.8","","100","","","","20","","8","","24.1","","99.47","","","","-7","","NA"
"-81.11","44.74","WIARTON A","6119499","2018-04-10 04:00","2018","04","10","04:00","-4.4","","-4.4","","100","","","","20","","8","","24.1","","99.46","","","","-8","","Cloudy"
"-81.11","44.74","WIARTON A","6119499","2018-04-10 05:00","2018","04","10","05:00","-4.3","","-4.3","","100","","","","20","","9","","24.1","","99.46","","","","-8","","NA"
"-81.11","44.74","WIARTON A","6119499","2018-04-10 06:00","2018","04","10","06:00","-3.4","","-3.4","","100","","","","20","","10","","24.1","","99.48","","","","-7","","NA"
"-81.11","44.74","WIARTON A","6119499","2018-04-10 07:00","2018","04","10","07:00","-2.3","","-3.0","","95","","","","21","","10","","24.1","","99.51","","","","-6","","Mainly Clear"
"-81.11","44.74","WIARTON A","6119499","2018-04-10 08:00","2018","04","10","08:00","-0.6","","-2.3","","88","","","","21","","13","","24.1","","99.54","","","","-5","","NA"
"-81.11","44.74","WIARTON A","6119499","2018-04-10 09:00","2018","04","10","09:00","0.4","","-1.8","","85","","","","22","","17","","24.1","","99.54","","","","","","NA"
"-81.11","44.74","WIARTON A","6119499","2018-04-10 10:00","2018","04","10","10:00","2.0","","-4.1","","64","","","","26","","16","","24.1","","99.55","","","","","","Mostly Cloudy"
"-81.11","44.74","WIARTON A","6119499","2018-04-10 11:00","2018","04","10","11:00","2.3","","-4.8","","60","","","","26","","18","","24.1","","99.53","","","","","","NA"
"-81.11","44.74","WIARTON A","6119499","2018-04-10 12:00","2018","04","10","12:00","3.2","","-6.6","","49","","","","26","","15","","24.1","","99.49","","","","","","NA"
"-81.11","44.74","WIARTON A","6119499","2018-04-10 13:00","2018","04","10","13:00","2.8","","-4.6","","58","","","","25","","17","","24.1","","99.46","","","","","","Mainly Clear"
"-81.11","44.74","WIARTON A","6119499","2018-04-10 14:00","2018","04","10","14:00","3.1","","-3.3","","63","","","","26","","13","","24.1","","99.41","","","","","","NA"
"-81.11","44.74","WIARTON A","6119499","2018-04-10 15:00","2018","04","10","15:00","3.0","","-5.0","","56","","","","25","","20","","24.1","","99.38","","","","","","NA"
"-81.11","44.74","WIARTON A","6119499","2018-04-10 16:00","2018","04","10","16:00","3.3","","-6.8","","48","","","","23","","15","","24.1","","99.33","","","","","","Clear"
"-81.11","44.74","WIARTON A","6119499","2018-04-10 17:00","2018","04","10","17:00","3.4","","-7.3","","45","","","","21","","14","","24.1","","99.28","","","","","","NA"
"-81.11","44.74","WIARTON A","6119499","2018-04-10 18:00","2018","04","10","18:00","3.4","","-7.0","","47","","","","24","","8","","24.1","","99.24","","","","","","NA"
"-81.11","44.74","WIARTON A","6119499","2018-04-10 19:00","2018","04","10","19:00","2.1","","-6.2","","54","","","","24","","5","","24.1","","99.20","","","","","","Mainly Clear"
"-81.11","44.74","WIARTON A","6119499","2018-04-10 20:00","2018","04","10","20:00","0.4","","-5.1","","67","","","","19","","9","","24.1","","99.19","","","","","","NA"
"-81.11","44.74","WIARTON A","6119499","2018-04-10 21:00","2018","04","10","21:00","-0.1","","-6.2","","63","","","","16","","13","","24.1","","99.17","","","","-4","","NA"
"-81.11","44.74","WIARTON A","6119499","2018-04-10 22:00","2018","04","10","22:00","0.4","","-6.2","","61","","","","17","","14","","24.1","","99.12","","","","","","Mainly Clear"
"-81.11","44.74","WIARTON A","6119499","2018-04-10 23:00","2018","04","10","23:00","0.8","","-5.3","","64","","","","18","","22","","24.1","","99.08","","","","","","NA"
"-81.11","44.74","WIARTON A","6119499","2018-04-11 00:00","2018","04","11","00:00","0.6","","-3.4","","75","","","","18","","20","","24.1","","99.06","","","","","","NA"
"-81.11","44.74","WIARTON A","6119499","2018-04-11 01:00","2018","04","11","01:00","0.9","","-2.7","","77","","","","19","","22","","24.1","","99.04","","","","","","Mostly Cloudy"
"-81.11","44.74","WIARTON A","6119499","2018-04-11 02:00","2018","04","11","02:00","1.2","","-3.1","","73","","","","20","","18","","24.1","","98.98","","","","","","NA"
"-81.11","44.74","WIARTON A","6119499","2018-04-11 03:00","2018","04","11","03:00","0.6","","-4.2","","70","","","","22","","21","","24.1","","98.89","","","","","","NA"
"-81.11","44.74","WIARTON A","6119499","2018-04-11 04:00","2018","04","11","04:00","0.0","","-3.8","","75","","","","22","","16","","24.1","","98.88","","","","-5","","Mainly Clear"
"-81.11","44.74","WIARTON A","6119499","2018-04-11 05:00","2018","04","11","05:00","0.4","","-3.2","","77","","","","21","","21","","24.1","","98.83","","","","","","NA"
"-81.11","44.74","WIARTON A","6119499","2018-04-11 06:00","2018","04","11","06:00","0.0","","-4.3","","73","","","","19","","16","","24.1","","98.83","","","","-5","","NA"
"-81.11","44.74","WIARTON A","6119499","2018-04-11 07:00","2018","04","11","07:00","0.5","","-3.9","","73","","","","19","","16","","24.1","","98.82","","","","","","Cloudy"
"-81.11","44.74","WIARTON A","6119499","2018-04-11 08:00","2018","04","11","08:00","1.2","","-1.4","","83","","","","22","","31","","3.2","","98.80","","","","","","Snow"
"-81.11","44.74","WIARTON A","6119499","2018-04-11 09:00","2018","04","11","09:00","1.6","","-2.9","","72","","","","22","","26","","12.9","","98.74","","","","","","NA"
"-81.11","44.74","WIARTON A","6119499","2018-04-11 10:00","2018","04","11","10:00","2.5","","-2.3","","70","","","","22","","28","","16.1","","98.72","","","","","","Cloudy"
"-81.11","44.74","WIARTON A","6119499","2018-04-11 11:00","2018","04","11","11:00","3.4","","-2.0","","68","","","","24","","23","","19.3","","98.71","","","","","","NA"
"-81.11","44.74","WIARTON A","6119499","2018-04-11 12:00","2018","04","11","12:00","3.1","","-0.5","","77","","","","23","","25","","19.3","","98.68","","","","","","NA"
"-81.11","44.74","WIARTON A","6119499","2018-04-11 13:00","2018","04","11","13:00","3.3","","0.1","","80","","","","23","","23","","16.1","","98.65","","","","","","Rain"
"-81.11","44.74","WIARTON A","6119499","2018-04-11 14:00","2018","04","11","14:00","0.9","","0.9","","100","","","","23","","22","","1.2","","98.67","","","","","","Snow Showers,Fog"
"-81.11","44.74","WIARTON A","6119499","2018-04-11 15:00","2018","04","11","15:00","1.4","","1.4","","100","","","","25","","13","","4.8","","98.69","","","","","","Snow Showers,Fog"
"-81.11","44.74","WIARTON A","6119499","2018-04-11 16:00","2018","04","11","16:00","1.9","","1.9","","100","","","","24","","21","","6.4","","98.71","","","","","","Rain,Fog"
"-81.11","44.74","WIARTON A","6119499","2018-04-11 17:00","2018","04","11","17:00","2.2","","2.2","","100","","","","26","","15","","6.4","","98.75","","","","","","Fog"
"-81.11","44.74","WIARTON A","6119499","2018-04-11 18:00","2018","04","11","18:00","2.4","","1.0","","90","","","","28","","11","","12.9","","98.79","","","","","","NA"
"-81.11","44.74","WIARTON A","6119499","2018-04-11 19:00","2018","04","11","19:00","1.1","","1.1","","100","","","","26","","8","","12.9","","98.81","","","","","","Clear"
"-81.11","44.74","WIARTON A","6119499","2018-04-11 20:00","2018","04","11","20:00","0.2","","0.2","","100","","","","23","","9","","24.1","","98.87","","","","","","NA"
"-81.11","44.74","WIARTON A","6119499","2018-04-11 21:00","2018","04","11","21:00","-1.6","","-1.6","","100","","","","16","","7","","9.7","","98.89","","","","-4","","Fog"
"-81.11","44.74","WIARTON A","6119499","2018-04-11 22:00","2018","04","11","22:00","-1.8","","-1.8","","100","","","","18","","8","","9.7","","98.87","","","","-5","","Fog"
"-81.11","44.74","WIARTON A","6119499","2018-04-11 23:00","2018","04","11","23:00","-1.9","","-1.9","","100","","","","18","","12","","9.7","","98.87","","","","-6","","Fog"
"-81.11","44.74","WIARTON A","6119499","2018-04-12 00:00","2018","04","12","00:00","-3.4","","-3.4","","100","","","","14","","10","","9.7","","98.85","","","","-7","","Fog"
"-81.11","44.74","WIARTON A","6119499","2018-04-12 01:00","2018","04","12","01:00","-3.3","","-3.3","","100","","","","12","","11","","12.9","","98.79","","","","-8","","Clear"
"-81.11","44.74","WIARTON A","6119499","2018-04-12 02:00","2018","04","12","02:00","-3.7","","-3.7","","100","","","","12","","13","","12.9","","98.72","","","","-9","","NA"
"-81.11","44.74","WIARTON A","6119499","2018-04-12 03:00","2018","04","12","03:00","-2.9","","-2.9","","100","","","","14","","13","","12.9","","98.71","","","","-8","","NA"
"-81.11","44.74","WIARTON A","6119499","2018-04-12 04:00","2018","04","12","04:00","-2.7","","-2.7","","100","","","","13","","14","","12.9","","98.67","","","","-8","","Mainly Clear"
"-81.11","44.74","WIARTON A","6119499","2018-04-12 05:00","2018","04","12","05:00","-2.1","","-2.4","","98","","","","13","","12","","12.9","","98.60","","","","-6","","NA"
"-81.11","44.74","WIARTON A","6119499","2018-04-12 06:00","2018","04","12","06:00","-1.1","","-3.8","","82","","","","12","","13","","16.1","","98.48","","","","-5","","NA"
"-81.11","44.74","WIARTON A","6119499","2018-04-12 07:00","2018","04","12","07:00","0.1","","-3.9","","75","","","","12","","11","","16.1","","98.36","","","","","","Cloudy"
"-81.11","44.74","WIARTON A","6119499","2018-04-12 08:00","2018","04","12","08:00","0.4","","-2.3","","82","","","","12","","13","","11.3","","98.24","","","","","","Freezing Rain"
"-81.11","44.74","WIARTON A","6119499","2018-04-12 09:00","2018","04","12","09:00","0.7","","0.7","","100","","","","9","","11","","9.7","","98.11","","","","","","Rain"
"-81.11","44.74","WIARTON A","6119499","2018-04-12 10:00","2018","04","12","10:00","1.4","","1.4","","100","","","","11","","8","","4.8","","97.95","","","","","","Rain"
"-81.11","44.74","WIARTON A","6119499","2018-04-12 11:00","2018","04","12","11:00","1.8","","1.8","","100","","","","11","","9","","1.6","","97.72","","","","","","Rain,Fog"
"-81.11","44.74","WIARTON A","6119499","2018-04-12 12:00","2018","04","12","12:00","3.5","","3.5","","100","","","","11","","4","","3.2","","97.58","","","","","","Rain,Fog"
"-81.11","44.74","WIARTON A","6119499","2018-04-12 13:00","2018","04","12","13:00","6.1","","6.1","","100","","","","13","","11","","3.2","","97.38","","","","","","Rain,Fog"
"-81.11","44.74","WIARTON A","6119499","2018-04-12 14:00","2018","04","12","14:00","9.0","","9.0","","100","","","","19","","18","","6.4","","97.28","","","","","","Fog"
"-81.11","44.74","WIARTON A","6119499","2018-04-12 15:00","2018","04","12","15:00","7.5","","7.5","","100","","","","30","","9","","11.3","","97.30","","","","","","NA"
"-81.11","44.74","WIARTON A","6119499","2018-04-12 16:00","2018","04","12","16:00","6.5","","6.5","","100","","","","27","","18","","11.3","","97.42","","","","","","Cloudy"
"-81.11","44.74","WIARTON A","6119499","2018-04-12 17:00","2018","04","12","17:00","5.2","","5.2","","100","","","","28","","20","","11.3","","97.55","","","","","","NA"
"-81.11","44.74","WIARTON A","6119499","2018-04-12 18:00","2018","04","12","18:00","1.9","","1.9","","100","","","","33","","13","","6.4","","97.81","","","","","","Fog"
"-81.11","44.74","WIARTON A","6119499","2018-04-12 19:00","2018","04","12","19:00","1.2","","1.2","","100","","","","33","","10","","6.4","","97.97","","","","","","Fog"
"-81.11","44.74","WIARTON A","6119499","2018-04-12 20:00","2018","04","12","20:00","0.8","","0.8","","100","","","","34","","8","","12.9","","98.14","","","","","","NA"
"-81.11","44.74","WIARTON A","6119499","2018-04-12 21:00","2018","04","12","21:00","0.9","","0.9","","100","","","","35","","4","","12.9","","98.22","","","","","","NA"
"-81.11","44.74","WIARTON A","6119499","2018-04-12 22:00","2018","04","12","22:00","0.8","","0.8","","100","","","","34","","7","","12.9","","98.28","","","","","","Cloudy"
"-81.11","44.74","WIARTON A","6119499","2018-04-12 23:00","2018","04","12","23:00","0.9","","0.9","","100","","","","30","","4","","12.9","","98.43","","","","","","NA"
"-81.11","44.74","WIARTON A","6119499","2018-04-13 00:00","2018","04","13","00:00","0.7","","0.7","","100","","","","29","","3","","19.3","","98.46","","","","","","NA"
"-81.11","44.74","WIARTON A","6119499","2018-04-13 01:00","2018","04","13","01:00","0.6","","0.6","","100","","","","35","","4","","16.1","","98.49","","","","","","Cloudy"
"-81.11","44.74","WIARTON A","6119499","2018-04-13 02:00","2018","04","13","02:00","0.3","","0.3","","100","","","","30","","4","","12.9","","98.53","","","","","","NA"
"-81.11","44.74","WIARTON A","6119499","2018-04-13 03:00","2018","04","13","03:00","0.5","","0.5","","100","","","","3","","13","","12.9","","98.48","","","","","","NA"
"-81.11","44.74","WIARTON A","6119499","2018-04-13 04:00","2018","04","13","04:00","0.4","","0.4","","100","","","","6","","13","","12.9","","98.55","","","","","","Mostly Cloudy"
"-81.11","44.74","WIARTON A","6119499","2018-04-13 05:00","2018","04","13","05:00","0.5","","0.5","","100","","","","9","","11","","6.4","","98.68","","","","","","Fog"
"-81.11","44.74","WIARTON A","6119499","2018-04-13 06:00","2018","04","13","06:00","0.2","","0.2","","100","","","","6","","8","","12.9","","98.69","","","","","","NA"
"-81.11","44.74","WIARTON A","6119499","2018-04-13 07:00","2018","04","13","07:00","0.8","","0.8","","100","","","","6","","4","","16.1","","98.75","","","","","","Mostly Cloudy"
"-81.11","44.74","WIARTON A","6119499","2018-04-13 08:00","2018","04","13","08:00","1.8","","1.8","","100","","","","10","","13","","16.1","","98.77","","","","","","NA"
"-81.11","44.74","WIARTON A","6119499","2018-04-13 09:00","2018","04","13","09:00","1.8","","1.8","","100","","","","7","","22","","19.3","","98.73","","","","","","NA"
"-81.11","44.74","WIARTON A","6119499","2018-04-13 10:00","2018","04","13","10:00","2.7","","2.7","","100","","","","7","","12","","19.3","","98.77","","","","","","Cloudy"
"-81.11","44.74","WIARTON A","6119499","2018-04-13 11:00","2018","04","13","11:00","2.9","","2.1","","95","","","","8","","23","","19.3","","98.73","","","","","","NA"
"-81.11","44.74","WIARTON A","6119499","2018-04-13 12:00","2018","04","13","12:00","2.8","","2.8","","100","","","","8","","16","","19.3","","98.73","","","","","","NA"
"-81.11","44.74","WIARTON A","6119499","2018-04-13 13:00","2018","04","13","13:00","2.2","","2.2","","100","","","","6","","18","","19.3","","98.68","","","","","","Rain"
"-81.11","44.74","WIARTON A","6119499","2018-04-13 14:00","2018","04","13","14:00","1.8","","1.8","","100","","","","6","","18","","19.3","","98.64","","","","","","Rain"
"-81.11","44.74","WIARTON A","6119499","2018-04-13 15:00","2018","04","13","15:00","0.8","","0.8","","100","","","","7","","8","","1.6","","98.74","","","","","","Rain,Fog"
"-81.11","44.74","WIARTON A","6119499","2018-04-13 16:00","2018","04","13","16:00","0.6","","0.6","","100","","","","6","","15","","1.6","","98.65","","","","","","Rain"
"-81.11","44.74","WIARTON A","6119499","2018-04-13 17:00","2018","04","13","17:00","0.9","","0.9","","100","","","","8","","18","","11.3","","98.65","","","","","","Rain"
"-81.11","44.74","WIARTON A","6119499","2018-04-13 18:00","2018","04","13","18:00","1.3","","1.3","","100","","","","4","","9","","12.9","","98.84","","","","","","Rain"
"-81.11","44.74","WIARTON A","6119499","2018-04-13 19:00","2018","04","13","19:00","0.6","","0.6","","100","","","","2","","12","","8.1","","99.01","","","","","","Snow"
"-81.11","44.74","WIARTON A","6119499","2018-04-13 20:00","2018","04","13","20:00","0.5","","0.5","","100","","","","3","","19","","6.4","","98.89","","","","","","Moderate Rain"
"-81.11","44.74","WIARTON A","6119499","2018-04-13 21:00","2018","04","13","21:00","1.1","","1.1","","100","","","","7","","11","","8.1","","98.97","","","","","","Rain"
"-81.11","44.74","WIARTON A","6119499","2018-04-13 22:00","2018","04","13","22:00","1.5","","1.5","","100","","","","3","","11","","6.4","","99.02","","","","","","Rain"
"-81.11","44.74","WIARTON A","6119499","2018-04-13 23:00","2018","04","13","23:00","0.6","","0.6","","100","","","","4","","18","","6.4","","99.05","","","","","","Rain,Snow"
"-81.11","44.74","WIARTON A","6119499","2018-04-14 00:00","2018","04","14","00:00","0.1","","0.1","","100","","","","3","","9","","0.8","","99.21","","","","","","Moderate Snow"
"-81.11","44.74","WIARTON A","6119499","2018-04-14 01:00","2018","04","14","01:00","0.5","","0.5","","100","","","","5","","18","","1.6","","99.14","","","","","","Snow"
"-81.11","44.74","WIARTON A","6119499","2018-04-14 02:00","2018","04","14","02:00","0.4","","0.4","","100","","","","4","","26","","8.1","","99.22","","","","","","Rain,Snow"
"-81.11","44.74","WIARTON A","6119499","2018-04-14 03:00","2018","04","14","03:00","0.7","","0.7","","100","","","","4","","23","","16.1","","99.21","","","","","","Snow"
"-81.11","44.74","WIARTON A","6119499","2018-04-14 04:00","2018","04","14","04:00","0.4","","0.4","","100","","","","4","","28","","24.1","","99.29","","","","","","Cloudy"
"-81.11","44.74","WIARTON A","6119499","2018-04-14 05:00","2018","04","14","05:00","-1.3","","-1.3","","100","","","","4","","37","","1.2","","99.34","","","","-9","","Snow"
"-81.11","44.74","WIARTON A","6119499","2018-04-14 06:00","2018","04","14","06:00","-2.2","","-2.2","","100","","","","5","","43","","1.6","","99.41","","","","-11","","Snow"
"-81.11","44.74","WIARTON A","6119499","2018-04-14 07:00","2018","04","14","07:00","-2.6","","-2.6","","100","","","","4","","38","","1.6","","99.66","","","","-11","","Snow"
"-81.11","44.74","WIARTON A","6119499","2018-04-14 08:00","2018","04","14","08:00","-2.9","","-2.9","","100","","","","5","","37","","1.2","","99.68","","","","-11","","Snow,Blowing Snow"
"-81.11","44.74","WIARTON A","6119499","2018-04-14 09:00","2018","04","14","09:00","-3.6","","-3.6","","100","","","","4","","36","","0.8","","99.62","","","","-12","","Moderate Snow,Blowing Snow"
"-81.11","44.74","WIARTON A","6119499","2018-04-14 10:00","2018","04","14","10:00","-3.8","","-3.8","","100","","","","5","","34","","0.8","","99.62","","","","-12","","Moderate Snow,Blowing Snow"
"-81.11","44.74","WIARTON A","6119499","2018-04-14 11:00","2018","04","14","11:00","-4.3","","-4.3","","100","","","","5","","35","","0.8","","99.66","","","","-13","","Moderate Snow,Blowing Snow"
"-81.11","44.74","WIARTON A","6119499","2018-04-14 12:00","2018","04","14","12:00","-4.7","","-4.7","","100","","","","5","","41","","0.8","","99.60","","","","-14","","Moderate Snow,Blowing Snow"
"-81.11","44.74","WIARTON A","6119499","2018-04-14 13:00","2018","04","14","13:00","-5.1","","-5.1","","100","","","","5","","32","","0.8","","99.79","","","","-13","","Moderate Snow,Blowing Snow"
"-81.11","44.74","WIARTON A","6119499","2018-04-14 14:00","2018","04","14","14:00","-5.2","","-5.2","","100","","","","4","","35","","0.8","","99.75","","","","-14","","Moderate Snow,Blowing Snow"
"-81.11","44.74","WIARTON A","6119499","2018-04-14 15:00","2018","04","14","15:00","-5.1","","-5.2","","99","","","","6","","41","","0.8","","99.66","","","","-14","","Moderate Snow,Blowing Snow"
"-81.11","44.74","WIARTON A","6119499","2018-04-14 16:00","2018","04","14","16:00","-4.9","","-4.9","","100","","","","6","","34","","1.2","","99.68","","","","-13","","Snow,Blowing Snow"
"-81.11","44.74","WIARTON A","6119499","2018-04-14 17:00","2018","04","14","17:00","-4.8","","-6.7","","87","","","","7","","37","","4.8","","99.85","","","","-14","","Snow,Blowing Snow"
"-81.11","44.74","WIARTON A","6119499","2018-04-14 18:00","2018","04","14","18:00","-5.0","","-5.6","","96","","","","6","","35","","2.4","","99.87","","","","-14","","Snow,Blowing Snow"
"-81.11","44.74","WIARTON A","6119499","2018-04-14 19:00","2018","04","14","19:00","-5.1","","-5.5","","97","","","","6","","44","","2.4","","99.77","","","","-15","","Snow,Blowing Snow"
"-81.11","44.74","WIARTON A","6119499","2018-04-14 20:00","2018","04","14","20:00","-5.1","","-7.4","","84","","","","7","","24","","3.2","","99.90","","","","-12","","Snow,Blowing Snow"
"-81.11","44.74","WIARTON A","6119499","2018-04-14 21:00","2018","04","14","21:00","-4.4","","-8.9","","71","","","","8","","36","","16.1","","99.90","","","","-13","","Snow,Blowing Snow"
"-81.11","44.74","WIARTON A","6119499","2018-04-14 22:00","2018","04","14","22:00","-4.2","","-8.9","","70","","","","7","","32","","19.3","","99.91","","","","-12","","Snow,Blowing Snow"
"-81.11","44.74","WIARTON A","6119499","2018-04-14 23:00","2018","04","14","23:00","-4.1","","-10.5","","61","","","","7","","26","","24.1","","100.02","","","","-11","","Blowing Snow"
"-81.11","44.74","WIARTON A","6119499","2018-04-15 00:00","2018","04","15","00:00","-4.0","","-10.9","","59","","","","6","","39","","24.1","","99.92","","","","-13","","Blowing Snow"
"-81.11","44.74","WIARTON A","6119499","2018-04-15 01:00","2018","04","15","01:00","-3.7","","-12.1","","53","","","","7","","38","","24.1","","99.84","","","","-12","","Blowing Snow"
"-81.11","44.74","WIARTON A","6119499","2018-04-15 02:00","2018","04","15","02:00","-3.7","","-11.9","","53","","","","7","","42","","24.1","","99.78","","","","-13","","Blowing Snow"
"-81.11","44.74","WIARTON A","6119499","2018-04-15 03:00","2018","04","15","03:00","-3.5","","-11.7","","54","","","","7","","32","","24.1","","99.65","","","","-11","","Blowing Snow"
"-81.11","44.74","WIARTON A","6119499","2018-04-15 04:00","2018","04","15","04:00","-3.5","","-11.2","","56","","","","7","","46","","24.1","","99.54","","","","-13","","Blowing Snow"
"-81.11","44.74","WIARTON A","6119499","2018-04-15 05:00","2018","04","15","05:00","-3.7","","-9.9","","62","","","","8","","43","","24.1","","99.46","","","","-13","","Blowing Snow"
"-81.11","44.74","WIARTON A","6119499","2018-04-15 06:00","2018","04","15","06:00","-3.9","","-9.5","","65","","","","8","","41","","24.1","","99.47","","","","-13","","Blowing Snow"
"-81.11","44.74","WIARTON A","6119499","2018-04-15 07:00","2018","04","15","07:00","-3.9","","-9.1","","68","","","","8","","46","","24.1","","99.48","","","","-13","","Blowing Snow"
"-81.11","44.74","WIARTON A","6119499","2018-04-15 08:00","2018","04","15","08:00","-4.1","","-7.8","","76","","","","8","","46","","12.9","","99.43","","","","-13","","Ice Pellets,Blowing Snow"
"-81.11","44.74","WIARTON A","6119499","2018-04-15 09:00","2018","04","15","09:00","-4.3","","-6.8","","83","","","","7","","43","","4.8","","99.37","","","","-13","","Ice Pellets,Blowing Snow"
"-81.11","44.74","WIARTON A","6119499","2018-04-15 10:00","2018","04","15","10:00","-4.4","","-5.7","","90","","","","7","","39","","2.4","","99.29","","","","-13","","Ice Pellets,Blowing Snow"
"-81.11","44.74","WIARTON A","6119499","2018-04-15 11:00","2018","04","15","11:00","-3.6","","-5.0","","90","","","","7","","43","","1.6","","99.17","","","","-12","","Ice Pellets,Blowing Snow"
"-81.11","44.74","WIARTON A","6119499","2018-04-15 12:00","2018","04","15","12:00","-3.3","","-5.0","","88","","","","7","","45","","3.2","","99.03","","","","-12","","Blowing Snow"
"-81.11","44.74","WIARTON A","6119499","2018-04-15 13:00","2018","04","15","13:00","-2.7","","-4.5","","88","","","","7","","50","","3.2","","98.83","","","","-12","","Ice Pellets,Blowing Snow"
"-81.11","44.74","WIARTON A","6119499","2018-04-15 14:00","2018","04","15","14:00","-2.7","","-2.7","","100","","","","8","","45","","0.8","","98.76","","","","-11","","Moderate Ice Pellets,Blowing Snow"
"-81.11","44.74","WIARTON A","6119499","2018-04-15 15:00","2018","04","15","15:00","-2.1","","-2.1","","100","","","","7","","39","","2.4","","98.63","","","","-10","","Snow Grains,Fog,Blowing Snow"
"-81.11","44.74","WIARTON A","6119499","2018-04-15 16:00","2018","04","15","16:00","-1.8","","-1.8","","100","","","","7","","37","","1.0","","98.58","","","","-10","","Ice Pellets,Fog,Blowing Snow"
"-81.11","44.74","WIARTON A","6119499","2018-04-15 17:00","2018","04","15","17:00","-1.2","","-1.2","","100","","","","9","","49","","1.2","","98.47","","","","-10","","Ice Pellets,Fog,Blowing Snow"
"-81.11","44.74","WIARTON A","6119499","2018-04-15 18:00","2018","04","15","18:00","-1.2","","-1.2","","100","","","","8","","39","","1.2","","98.39","","","","-9","","Ice Pellets,Fog,Blowing Snow"
"-81.11","44.74","WIARTON A","6119499","2018-04-15 19:00","2018","04","15","19:00","-1.1","","-1.1","","100","","","","8","","43","","1.6","","98.29","","","","-9","","Ice Pellets,Fog,Blowing Snow"
"-81.11","44.74","WIARTON A","6119499","2018-04-15 20:00","2018","04","15","20:00","-0.7","","-0.7","","100","","","","9","","43","","3.2","","98.21","","","","-9","","Ice Pellets,Fog,Blowing Snow"
"-81.11","44.74","WIARTON A","6119499","2018-04-15 21:00","2018","04","15","21:00","-0.7","","-0.7","","100","","","","10","","32","","3.2","","98.26","","","","-8","","Ice Pellets,Fog,Blowing Snow"
"-81.11","44.74","WIARTON A","6119499","2018-04-15 22:00","2018","04","15","22:00","-0.3","","-0.3","","100","","","","9","","23","","3.2","","98.20","","","","-6","","Ice Pellets,Fog,Blowing Snow"
"-81.11","44.74","WIARTON A","6119499","2018-04-15 23:00","2018","04","15","23:00","-0.5","","-0.5","","100","","","","9","","26","","4.8","","98.07","","","","-7","","Freezing Rain,Fog"
"-81.11","44.74","WIARTON A","6119499","2018-04-16 00:00","2018","04","16","00:00","0.0","","0.0","","100","","","","9","","25","","6.4","","97.95","","","","-6","","Freezing Rain,Fog"
"-81.11","44.74","WIARTON A","6119499","2018-04-16 01:00","2018","04","16","01:00","-0.1","","-0.1","","100","","","","10","","31","","6.4","","97.88","","","","-7","","Freezing Rain,Fog"
"-81.11","44.74","WIARTON A","6119499","2018-04-16 02:00","2018","04","16","02:00","0.1","","0.1","","100","","","","9","","26","","6.4","","97.81","","","","","","Freezing Rain,Fog"
"-81.11","44.74","WIARTON A","6119499","2018-04-16 03:00","2018","04","16","03:00","0.2","","0.2","","100","","","","9","","23","","4.8","","97.69","","","","","","Freezing Rain,Fog"
"-81.11","44.74","WIARTON A","6119499","2018-04-16 04:00","2018","04","16","04:00","0.4","","0.4","","100","","","","9","","20","","4.8","","97.63","","","","","","Freezing Rain,Fog"
"-81.11","44.74","WIARTON A","6119499","2018-04-16 05:00","2018","04","16","05:00","0.4","","0.4","","100","","","","7","","17","","4.8","","97.56","","","","","","Rain,Fog"
"-81.11","44.74","WIARTON A","6119499","2018-04-16 06:00","2018","04","16","06:00","0.5","","0.5","","100","","","","9","","19","","6.4","","97.55","","","","","","Rain,Freezing Rain,Ice Pellets,Fog"
"-81.11","44.74","WIARTON A","6119499","2018-04-16 07:00","2018","04","16","07:00","0.4","","0.4","","100","","","","8","","10","","3.2","","97.48","","","","","","Snow,Fog"
"-81.11","44.74","WIARTON A","6119499","2018-04-16 08:00","2018","04","16","08:00","0.5","","0.5","","100","","","","11","","11","","3.2","","97.47","","","","","","Snow,Fog"
"-81.11","44.74","WIARTON A","6119499","2018-04-16 09:00","2018","04","16","09:00","0.3","","0.3","","100","","","","6","","7","","2.4","","97.40","","","","","","Snow,Fog"
"-81.11","44.74","WIARTON A","6119499","2018-04-16 10:00","2018","04","16","10:00","0.7","","0.7","","100","","","","8","","5","","1.6","","97.38","","","","","","Snow,Fog"
"-81.11","44.74","WIARTON A","6119499","2018-04-16 11:00","2018","04","16","11:00","0.6","","0.6","","100","","","","7","","4","","1.6","","97.38","","","","","","Snow,Fog"
"-81.11","44.74","WIARTON A","6119499","2018-04-16 12:00","2018","04","16","12:00","1.8","","1.8","","100","","","","13","","4","","6.4","","97.33","","","","","","Fog"
"-81.11","44.74","WIARTON A","6119499","2018-04-16 13:00","2018","04","16","13:00","2.3","","2.3","","100","","","","20","","10","","9.7","","97.24","","","","","","Fog"
"-81.11","44.74","WIARTON A","6119499","2018-04-16 14:00","2018","04","16","14:00","2.2","","2.2","","100","","","","23","","11","","12.9","","97.27","","","","","","NA"
"-81.11","44.74","WIARTON A","6119499","2018-04-16 15:00","2018","04","16","15:00","1.4","","1.4","","100","","","","25","","16","","6.4","","97.26","","","","","","Snow"
"-81.11","44.74","WIARTON A","6119499","2018-04-16 16:00","2018","04","16","16:00","1.1","","1.1","","100","","","","23","","14","","11.3","","97.28","","","","","","Cloudy"
"-81.11","44.74","WIARTON A","6119499","2018-04-16 17:00","2018","04","16","17:00","0.9","","0.9","","100","","","","23","","18","","12.9","","97.32","","","","","","NA"
"-81.11","44.74","WIARTON A","6119499","2018-04-16 18:00","2018","04","16","18:00","0.7","","0.7","","100","","","","26","","9","","12.9","","97.36","","","","","","NA"
"-81.11","44.74","WIARTON A","6119499","2018-04-16 19:00","2018","04","16","19:00","0.0","","0.0","","100","","","","28","","22","","6.4","","97.40","","","","-6","","Drizzle,Fog"
"-81.11","44.74","WIARTON A","6119499","2018-04-16 20:00","2018","04","16","20:00","-0.3","","-0.3","","100","","","","28","","20","","6.4","","97.45","","","","-6","","Fog"
"-81.11","44.74","WIARTON A","6119499","2018-04-16 21:00","2018","04","16","21:00","-0.6","","-0.6","","100","","","","28","","18","","12.9","","97.48","","","","-6","","Snow"
"-81.11","44.74","WIARTON A","6119499","2018-04-16 22:00","2018","04","16","22:00","-0.8","","-1.2","","97","","","","28","","23","","19.3","","97.47","","","","-7","","Cloudy"
"-81.11","44.74","WIARTON A","6119499","2018-04-16 23:00","2018","04","16","23:00","-0.9","","-1.4","","96","","","","28","","19","","24.1","","97.48","","","","-6","","NA"
"-81.11","44.74","WIARTON A","6119499","2018-04-17 00:00","2018","04","17","00:00","-1.2","","-2.5","","91","","","","27","","21","","24.1","","97.49","","","","-7","","NA"
"-81.11","44.74","WIARTON A","6119499","2018-04-17 01:00","2018","04","17","01:00","-1.6","","-4.0","","84","","","","27","","18","","24.1","","97.49","","","","-7","","Cloudy"
"-81.11","44.74","WIARTON A","6119499","2018-04-17 02:00","2018","04","17","02:00","-1.9","","-3.8","","87","","","","27","","28","","24.1","","97.49","","","","-9","","NA"
"-81.11","44.74","WIARTON A","6119499","2018-04-17 03:00","2018","04","17","03:00","-2.1","","-3.8","","88","","","","26","","18","","24.1","","97.49","","","","-8","","NA"
"-81.11","44.74","WIARTON A","6119499","2018-04-17 04:00","2018","04","17","04:00","-2.6","","-2.8","","99","","","","26","","21","","4.8","","97.50","","","","-9","","Snow"
"-81.11","44.74","WIARTON A","6119499","2018-04-17 05:00","2018","04","17","05:00","-2.7","","-3.2","","97","","","","26","","19","","3.2","","97.49","","","","-8","","Snow"
"-81.11","44.74","WIARTON A","6119499","2018-04-17 06:00","2018","04","17","06:00","-2.7","","-4.0","","91","","","","26","","21","","6.4","","97.49","","","","-9","","Snow Pellets"
"-81.11","44.74","WIARTON A","6119499","2018-04-17 07:00","2018","04","17","07:00","-2.7","","-2.7","","100","","","","25","","17","","3.2","","97.48","","","","-8","","Snow Pellets"
"-81.11","44.74","WIARTON A","6119499","2018-04-17 08:00","2018","04","17","08:00","-2.3","","-2.9","","96","","","","25","","21","","4.8","","97.48","","","","-8","","Snow"
"-81.11","44.74","WIARTON A","6119499","2018-04-17 09:00","2018","04","17","09:00","-2.2","","-2.2","","100","","","","25","","19","","1.6","","97.46","","","","-8","","Snow"
"-81.11","44.74","WIARTON A","6119499","2018-04-17 10:00","2018","04","17","10:00","-1.9","","-1.9","","100","","","","25","","18","","2.0","","97.45","","","","-7","","Snow"
"-81.11","44.74","WIARTON A","6119499","2018-04-17 11:00","2018","04","17","11:00","-1.6","","-1.6","","100","","","","26","","18","","1.0","","97.47","","","","-7","","Snow"
"-81.11","44.74","WIARTON A","6119499","2018-04-17 12:00","2018","04","17","12:00","-0.6","","-2.5","","87","","","","26","","27","","3.2","","97.48","","","","-7","","Snow,Fog"
"-81.11","44.74","WIARTON A","6119499","2018-04-17 13:00","2018","04","17","13:00","-0.1","","-1.8","","88","","","","26","","24","","6.4","","97.50","","","","-6","","Snow,Fog"
"-81.11","44.74","WIARTON A","6119499","2018-04-17 14:00","2018","04","17","14:00","-0.1","","-0.1","","100","","","","24","","27","","2.4","","97.54","","","","-6","","Snow,Fog"
"-81.11","44.74","WIARTON A","6119499","2018-04-17 15:00","2018","04","17","15:00","0.2","","0.2","","100","","","","27","","16","","2.0","","97.57","","","","","","Snow,Fog"
"-81.11","44.74","WIARTON A","6119499","2018-04-17 16:00","2018","04","17","16:00","0.4","","0.4","","100","","","","29","","19","","2.4","","97.61","","","","","","Snow,Fog"
"-81.11","44.74","WIARTON A","6119499","2018-04-17 17:00","2018","04","17","17:00","0.6","","0.6","","100","","","","30","","18","","16.1","","97.69","","","","","","NA"
"-81.11","44.74","WIARTON A","6119499","2018-04-17 18:00","2018","04","17","18:00","0.5","","0.5","","100","","","","30","","25","","12.9","","97.78","","","","","","Snow"
"-81.11","44.74","WIARTON A","6119499","2018-04-17 19:00","2018","04","17","19:00","0.1","","0.1","","100","","","","29","","21","","6.4","","97.87","","","","","","Snow,Fog"
"-81.11","44.74","WIARTON A","6119499","2018-04-17 20:00","2018","04","17","20:00","0.0","","0.0","","100","","","","30","","19","","4.8","","97.94","","","","-5","","Snow,Fog"
"-81.11","44.74","WIARTON A","6119499","2018-04-17 21:00","2018","04","17","21:00","0.1","","0.1","","100","","","","29","","20","","4.8","","98.00","","","","","","Snow,Fog"
"-81.11","44.74","WIARTON A","6119499","2018-04-17 22:00","2018","04","17","22:00","0.2","","0.2","","100","","","","29","","19","","6.4","","98.05","","","","","","Snow,Fog"
"-81.11","44.74","WIARTON A","6119499","2018-04-17 23:00","2018","04","17","23:00","0.4","","0.4","","100","","","","29","","14","","9.7","","98.06","","","","","","Snow,Fog"
"-81.11","44.74","WIARTON A","6119499","2018-04-18 00:00","2018","04","18","00:00","0.4","","0.4","","100","","","","29","","13","","12.9","","98.07","","","","","","Snow"
"-81.11","44.74","WIARTON A","6119499","2018-04-18 01:00","2018","04","18","01:00","0.4","","0.4","","100","","","","29","","14","","24.1","","98.09","","","","","","Cloudy"
"-81.11","44.74","WIARTON A","6119499","2018-04-18 02:00","2018","04","18","02:00","0.3","","0.3","","100","","","","27","","14","","24.1","","98.11","","","","","","NA"
"-81.11","44.74","WIARTON A","6119499","2018-04-18 03:00","2018","04","18","03:00","0.4","","0.4","","100","","","","29","","16","","24.1","","98.14","","","","","","NA"
"-81.11","44.74","WIARTON A","6119499","2018-04-18 04:00","2018","04","18","04:00","0.4","","0.4","","100","","","","29","","18","","24.1","","98.17","","","","","","Cloudy"
"-81.11","44.74","WIARTON A","6119499","2018-04-18 05:00","2018","04","18","05:00","0.4","","0.4","","100","","","","30","","13","","24.1","","98.20","","","","","","NA"
"-81.11","44.74","WIARTON A","6119499","2018-04-18 06:00","2018","04","18","06:00","-0.2","","-0.2","","100","","","","31","","15","","24.1","","98.21","","","","-5","","NA"
"-81.11","44.74","WIARTON A","6119499","2018-04-18 07:00","2018","04","18","07:00","0.4","","0.0","","98","","","","29","","10","","24.1","","98.22","","","","","","Mainly Clear"
"-81.11","44.74","WIARTON A","6119499","2018-04-18 08:00","2018","04","18","08:00","1.4","","-1.9","","78","","","","29","","16","","24.1","","98.22","","","","","","NA"
"-81.11","44.74","WIARTON A","6119499","2018-04-18 09:00","2018","04","18","09:00","1.3","","-2.0","","79","","","","29","","14","","24.1","","98.24","","","","","","NA"
"-81.11","44.74","WIARTON A","6119499","2018-04-18 10:00","2018","04","18","10:00","1.3","","-3.4","","71","","","","27","","21","","24.1","","98.28","","","","","","Mostly Cloudy"
"-81.11","44.74","WIARTON A","6119499","2018-04-18 11:00","2018","04","18","11:00","1.4","","-2.3","","76","","","","27","","16","","16.1","","98.32","","","","","","Snow"
"-81.11","44.74","WIARTON A","6119499","2018-04-18 12:00","2018","04","18","12:00","1.6","","-1.9","","77","","","","28","","17","","24.1","","98.32","","","","","","NA"
"-81.11","44.74","WIARTON A","6119499","2018-04-18 13:00","2018","04","18","13:00","1.8","","-2.4","","74","","","","28","","17","","24.1","","98.34","","","","","","Cloudy"
"-81.11","44.74","WIARTON A","6119499","2018-04-18 14:00","2018","04","18","14:00","2.1","","-2.4","","73","","","","31","","14","","24.1","","98.32","","","","","","NA"
"-81.11","44.74","WIARTON A","6119499","2018-04-18 15:00","2018","04","18","15:00","1.2","","0.6","","95","","","","36","","1","","11.3","","98.34","","","","","","Snow"
"-81.11","44.74","WIARTON A","6119499","2018-04-18 16:00","2018","04","18","16:00","1.1","","-0.3","","91","","","","20","","7","","24.1","","98.34","","","","","","Mostly Cloudy"
"-81.11","44.74","WIARTON A","6119499","2018-04-18 17:00","2018","04","18","17:00","1.8","","-3.7","","67","","","","35","","9","","24.1","","98.35","","","","","","NA"
"-81.11","44.74","WIARTON A","6119499","2018-04-18 18:00","2018","04","18","18:00","1.9","","-4.1","","64","","","","33","","9","","24.1","","98.37","","","","","","NA"
"-81.11","44.74","WIARTON A","6119499","2018-04-18 19:00","2018","04","18","19:00","1.6","","-4.2","","66","","","","35","","7","","24.1","","98.36","","","","","","Mostly Cloudy"
"-81.11","44.74","WIARTON A","6119499","2018-04-18 20:00","2018","04","18","20:00","1.5","","-4.1","","66","","","","36","","8","","24.1","","98.39","","","","","","NA"
"-81.11","44.74","WIARTON A","6119499","2018-04-18 21:00","2018","04","18","21:00","1.2","","-3.6","","71","","","","35","","11","","24.1","","98.50","","","","","","NA"
"-81.11","44.74","WIARTON A","6119499","2018-04-18 22:00","2018","04","18","22:00","0.6","","-4.1","","71","","","","36","","9","","24.1","","98.50","","","","","","Cloudy"
"-81.11","44.74","WIARTON A","6119499","2018-04-18 23:00","2018","04","18","23:00","0.7","","-4.3","","69","","","","35","","8","","24.1","","98.45","","","","","","NA"
"-81.11","44.74","WIARTON A","6119499","2018-04-19 00:00","2018","04","19","00:00","0.3","","-3.6","","75","","","","34","","6","","24.1","","98.41","","","","","","NA"
"-81.11","44.74","WIARTON A","6119499","2018-04-19 01:00","2018","04","19","01:00","0.1","","-2.0","","86","","","","36","","13","","9.7","","98.36","","","","","","Snow"
"-81.11","44.74","WIARTON A","6119499","2018-04-19 02:00","2018","04","19","02:00","0.4","","-3.7","","74","","","","36","","14","","24.1","","98.39","","","","","","NA"
"-81.11","44.74","WIARTON A","6119499","2018-04-19 03:00","2018","04","19","03:00","-0.2","","-3.0","","81","","","","1","","14","","19.3","","98.47","","","","-4","","Snow"
"-81.11","44.74","WIARTON A","6119499","2018-04-19 04:00","2018","04","19","04:00","-0.1","","-3.5","","78","","","","36","","11","","24.1","","98.51","","","","-4","","Cloudy"
"-81.11","44.74","WIARTON A","6119499","2018-04-19 05:00","2018","04","19","05:00","-0.2","","-5.3","","69","","","","36","","14","","24.1","","98.56","","","","-4","","NA"
"-81.11","44.74","WIARTON A","6119499","2018-04-19 06:00","2018","04","19","06:00","-0.4","","-5.7","","68","","","","1","","15","","24.1","","98.63","","","","-5","","NA"
"-81.11","44.74","WIARTON A","6119499","2018-04-19 07:00","2018","04","19","07:00","-0.4","","-5.7","","68","","","","35","","18","","24.1","","98.74","","","","-5","","Mostly Cloudy"
"-81.11","44.74","WIARTON A","6119499","2018-04-19 08:00","2018","04","19","08:00","-0.9","","-6.5","","66","","","","1","","23","","24.1","","98.81","","","","-7","","NA"
"-81.11","44.74","WIARTON A","6119499","2018-04-19 09:00","2018","04","19","09:00","-1.1","","-6.4","","68","","","","36","","19","","24.1","","98.89","","","","-6","","NA"
"-81.11","44.74","WIARTON A","6119499","2018-04-19 10:00","2018","04","19","10:00","0.1","","-6.1","","63","","","","34","","13","","24.1","","98.98","","","","","","Mainly Clear"
"-81.11","44.74","WIARTON A","6119499","2018-04-19 11:00","2018","04","19","11:00","0.9","","-5.8","","61","","","","34","","15","","24.1","","99.08","","","","","","NA"
"-81.11","44.74","WIARTON A","6119499","2018-04-19 12:00","2018","04","19","12:00","1.4","","-6.7","","55","","","","35","","15","","24.1","","99.14","","","","","","NA"
"-81.11","44.74","WIARTON A","6119499","2018-04-19 13:00","2018","04","19","13:00","1.8","","-7.4","","51","","","","35","","17","","24.1","","99.19","","","","","","Mainly Clear"
"-81.11","44.74","WIARTON A","6119499","2018-04-19 14:00","2018","04","19","14:00","2.8","","-7.6","","46","","","","35","","13","","24.1","","99.24","","","","","","NA"
"-81.11","44.74","WIARTON A","6119499","2018-04-19 15:00","2018","04","19","15:00","3.3","","-7.5","","45","","","","34","","15","","24.1","","99.27","","","","","","NA"
"-81.11","44.74","WIARTON A","6119499","2018-04-19 16:00","2018","04","19","16:00","3.1","","-6.5","","49","","","","28","","26","","24.1","","99.31","","","","","","Clear"
"-81.11","44.74","WIARTON A","6119499","2018-04-19 17:00","2018","04","19","17:00","2.7","","-3.2","","65","","","","28","","24","","24.1","","99.35","","","","","","NA"
"-81.11","44.74","WIARTON A","6119499","2018-04-19 18:00","2018","04","19","18:00","2.8","","-3.4","","64","","","","30","","17","","24.1","","99.41","","","","","","NA"
"-81.11","44.74","WIARTON A","6119499","2018-04-19 19:00","2018","04","19","19:00","1.8","","-3.1","","70","","","","31","","14","","24.1","","99.47","","","","","","Clear"
"-81.11","44.74","WIARTON A","6119499","2018-04-19 20:00","2018","04","19","20:00","0.5","","-2.6","","80","","","","30","","8","","24.1","","99.57","","","","","","NA"
"-81.11","44.74","WIARTON A","6119499","2018-04-19 21:00","2018","04","19","21:00","-0.4","","-2.2","","88","","","","34","","3","","24.1","","99.66","","","","-1","","NA"
"-81.11","44.74","WIARTON A","6119499","2018-04-19 22:00","2018","04","19","22:00","0.0","","-1.7","","88","","","","34","","8","","24.1","","99.73","","","","-3","","Clear"
"-81.11","44.74","WIARTON A","6119499","2018-04-19 23:00","2018","04","19","23:00","-0.8","","-2.8","","86","","","","2","","6","","24.1","","99.75","","","","-3","","NA"
"-81.11","44.74","WIARTON A","6119499","2018-04-20 00:00","2018","04","20","00:00","-1.2","","-3.0","","88","","","","35","","4","","24.1","","99.81","","","","-3","","NA"
"-81.11","44.74","WIARTON A","6119499","2018-04-20 01:00","2018","04","20","01:00","-3.5","","-3.5","","100","","","","13","","3","","24.1","","99.83","","","","-5","","Clear"
"-81.11","44.74","WIARTON A","6119499","2018-04-20 02:00","2018","04","20","02:00","-3.3","","-3.3","","100","","","","36","","3","","24.1","","99.85","","","","-5","","NA"
"-81.11","44.74","WIARTON A","6119499","2018-04-20 03:00","2018","04","20","03:00","-1.4","","-5.3","","74","","","","36","","4","","24.1","","99.91","","","","-3","","NA"
"-81.11","44.74","WIARTON A","6119499","2018-04-20 04:00","2018","04","20","04:00","-0.4","","-6.2","","65","","","","36","","11","","24.1","","99.97","","","","-4","","Clear"
"-81.11","44.74","WIARTON A","6119499","2018-04-20 05:00","2018","04","20","05:00","-1.4","","-5.7","","72","","","","31","","4","","24.1","","100.04","","","","-3","","NA"
"-81.11","44.74","WIARTON A","6119499","2018-04-20 06:00","2018","04","20","06:00","-1.1","","-6.1","","69","","","","36","","5","","24.1","","100.13","","","","-3","","NA"
"-81.11","44.74","WIARTON A","6119499","2018-04-20 07:00","2018","04","20","07:00","-0.1","","-6.8","","61","","","","36","","10","","24.1","","100.19","","","","-3","","Clear"
"-81.11","44.74","WIARTON A","6119499","2018-04-20 08:00","2018","04","20","08:00","0.4","","-5.5","","65","","","","2","","13","","24.1","","100.29","","","","","","NA"
"-81.11","44.74","WIARTON A","6119499","2018-04-20 09:00","2018","04","20","09:00","1.1","","-5.8","","60","","","","2","","11","","24.1","","100.35","","","","","","NA"
"-81.11","44.74","WIARTON A","6119499","2018-04-20 10:00","2018","04","20","10:00","1.3","","-6.0","","58","","","","2","","10","","24.1","","100.39","","","","","","Clear"
"-81.11","44.74","WIARTON A","6119499","2018-04-20 11:00","2018","04","20","11:00","2.5","","-6.4","","52","","","","32","","9","","24.1","","100.39","","","","","","NA"
"-81.11","44.74","WIARTON A","6119499","2018-04-20 12:00","2018","04","20","12:00","3.7","","-6.2","","49","","","","33","","10","","24.1","","100.38","","","","","","NA"
"-81.11","44.74","WIARTON A","6119499","2018-04-20 13:00","2018","04","20","13:00","3.7","","-4.6","","55","","","","28","","16","","24.1","","100.40","","","","","","Clear"
"-81.11","44.74","WIARTON A","6119499","2018-04-20 14:00","2018","04","20","14:00","4.2","","-5.8","","48","","","","30","","12","","24.1","","100.44","","","","","","NA"
"-81.11","44.74","WIARTON A","6119499","2018-04-20 15:00","2018","04","20","15:00","4.4","","-5.9","","47","","","","29","","14","","24.1","","100.43","","","","","","NA"
"-81.11","44.74","WIARTON A","6119499","2018-04-20 16:00","2018","04","20","16:00","4.4","","-4.4","","53","","","","26","","10","","24.1","","100.40","","","","","","Clear"
"-81.11","44.74","WIARTON A","6119499","2018-04-20 17:00","2018","04","20","17:00","4.2","","-4.8","","52","","","","26","","12","","24.1","","100.40","","","","","","NA"
"-81.11","44.74","WIARTON A","6119499","2018-04-20 18:00","2018","04","20","18:00","2.8","","-6.6","","50","","","","26","","12","","24.1","","100.42","","","","","","NA"
"-81.11","44.74","WIARTON A","6119499","2018-04-20 19:00","2018","04","20","19:00","1.7","","-5.5","","59","","","","25","","6","","24.1","","100.40","","","","","","Clear"
"-81.11","44.74","WIARTON A","6119499","2018-04-20 20:00","2018","04","20","20:00","1.0","","-6.1","","59","","","","24","","7","","24.1","","100.40","","","","","","NA"
"-81.11","44.74","WIARTON A","6119499","2018-04-20 21:00","2018","04","20","21:00","-1.1","","-5.1","","74","","","","17","","8","","24.1","","100.36","","","","-4","","NA"
"-81.11","44.74","WIARTON A","6119499","2018-04-20 22:00","2018","04","20","22:00","-1.8","","-5.3","","77","","","","17","","7","","24.1","","100.39","","","","-4","","Clear"
"-81.11","44.74","WIARTON A","6119499","2018-04-20 23:00","2018","04","20","23:00","-0.9","","-7.0","","64","","","","24","","7","","24.1","","100.46","","","","-3","","NA"
"-81.11","44.74","WIARTON A","6119499","2018-04-21 00:00","2018","04","21","00:00","-0.9","","-6.3","","67","","","","23","","9","","24.1","","100.46","","","","-4","","NA"
"-81.11","44.74","WIARTON A","6119499","2018-04-21 01:00","2018","04","21","01:00","-1.9","","-3.5","","88","","","","22","","10","","24.1","","100.45","","","","-6","","Clear"
"-81.11","44.74","WIARTON A","6119499","2018-04-21 02:00","2018","04","21","02:00","-1.4","","-1.4","","100","","","","24","","8","","24.1","","100.44","","","","-4","","NA"
"-81.11","44.74","WIARTON A","6119499","2018-04-21 03:00","2018","04","21","03:00","-2.1","","-2.1","","100","","","","20","","9","","24.1","","100.43","","","","-6","","NA"
"-81.11","44.74","WIARTON A","6119499","2018-04-21 04:00","2018","04","21","04:00","-3.8","","-3.8","","100","","","","17","","9","","24.1","","100.37","","","","-8","","Clear"
"-81.11","44.74","WIARTON A","6119499","2018-04-21 05:00","2018","04","21","05:00","-2.6","","-2.6","","100","","","","19","","7","","24.1","","100.37","","","","-5","","NA"
"-81.11","44.74","WIARTON A","6119499","2018-04-21 06:00","2018","04","21","06:00","-2.1","","-2.6","","96","","","","22","","13","","24.1","","100.44","","","","-7","","NA"
"-81.11","44.74","WIARTON A","6119499","2018-04-21 07:00","2018","04","21","07:00","-0.3","","-1.9","","89","","","","22","","14","","24.1","","100.50","","","","-5","","Mostly Cloudy"
"-81.11","44.74","WIARTON A","6119499","2018-04-21 08:00","2018","04","21","08:00","2.2","","-2.7","","70","","","","22","","9","","24.1","","100.53","","","","","","NA"
"-81.11","44.74","WIARTON A","6119499","2018-04-21 09:00","2018","04","21","09:00","5.5","","-4.3","","49","","","","26","","8","","24.1","","100.51","","","","","","NA"
"-81.11","44.74","WIARTON A","6119499","2018-04-21 10:00","2018","04","21","10:00","6.2","","-3.9","","49","","","","26","","11","","24.1","","100.49","","","","","","Mostly Cloudy"
"-81.11","44.74","WIARTON A","6119499","2018-04-21 11:00","2018","04","21","11:00","7.0","","-4.2","","45","","","","26","","11","","24.1","","100.47","","","","","","NA"
"-81.11","44.74","WIARTON A","6119499","2018-04-21 12:00","2018","04","21","12:00","7.5","","-6.0","","38","","","","26","","14","","24.1","","100.43","","","","","","NA"
"-81.11","44.74","WIARTON A","6119499","2018-04-21 13:00","2018","04","21","13:00","7.9","","-6.4","","36","","","","25","","13","","24.1","","100.43","","","","","","Mainly Clear"
"-81.11","44.74","WIARTON A","6119499","2018-04-21 14:00","2018","04","21","14:00","7.7","","-4.1","","43","","","","26","","11","","24.1","","100.41","","","","","","NA"
"-81.11","44.74","WIARTON A","6119499","2018-04-21 15:00","2018","04","21","15:00","8.0","","-3.6","","43","","","","28","","10","","24.1","","100.36","","","","","","NA"
"-81.11","44.74","WIARTON A","6119499","2018-04-21 16:00","2018","04","21","16:00","8.5","","-8.0","","30","","","","27","","10","","24.1","","100.32","","","","","","Mainly Clear"
"-81.11","44.74","WIARTON A","6119499","2018-04-21 17:00","2018","04","21","17:00","8.6","","-11.6","","23","","","","25","","12","","24.1","","100.31","","","","","","NA"
"-81.11","44.74","WIARTON A","6119499","2018-04-21 18:00","2018","04","21","18:00","8.1","","-10.8","","25","","","","26","","9","","24.1","","100.26","","","","","","NA"
"-81.11","44.74","WIARTON A","6119499","2018-04-21 19:00","2018","04","21","19:00","7.1","","-10.3","","28","","","","25","","8","","24.1","","100.23","","","","","","Clear"
"-81.11","44.74","WIARTON A","6119499","2018-04-21 20:00","2018","04","21","20:00","4.8","","-9.1","","36","","","","20","","8","","24.1","","100.22","","","","","","NA"
"-81.11","44.74","WIARTON A","6119499","2018-04-21 21:00","2018","04","21","21:00","3.3","","-8.6","","41","","","","18","","9","","24.1","","100.26","","","","","","NA"
"-81.11","44.74","WIARTON A","6119499","2018-04-21 22:00","2018","04","21","22:00","2.3","","-3.0","","68","","","","15","","3","","24.1","","100.29","","","","","","Clear"
"-81.11","44.74","WIARTON A","6119499","2018-04-21 23:00","2018","04","21","23:00","-0.2","","-3.6","","78","","","","36","","2","","24.1","","100.30","","","","-1","","NA"
"-81.11","44.74","WIARTON A","6119499","2018-04-22 00:00","2018","04","22","00:00","-0.4","","-3.1","","82","","","","20","","5","","24.1","","100.30","","","","-2","","NA"
"-81.11","44.74","WIARTON A","6119499","2018-04-22 01:00","2018","04","22","01:00","-1.9","","-3.2","","90","","","","36","","3","","24.1","","100.31","","","","-3","","Clear"
"-81.11","44.74","WIARTON A","6119499","2018-04-22 02:00","2018","04","22","02:00","-1.6","","-5.5","","75","","","","19","","5","","24.1","","100.27","","","","-3","","NA"
"-81.11","44.74","WIARTON A","6119499","2018-04-22 03:00","2018","04","22","03:00","-2.0","","-4.8","","81","","","","14","","8","","24.1","","100.26","","","","-5","","NA"
"-81.11","44.74","WIARTON A","6119499","2018-04-22 04:00","2018","04","22","04:00","-3.1","","-5.7","","82","","","","13","","9","","24.1","","100.27","","","","-7","","Clear"
"-81.11","44.74","WIARTON A","6119499","2018-04-22 05:00","2018","04","22","05:00","-2.8","","-5.0","","85","","","","15","","9","","24.1","","100.28","","","","-6","","NA"
"-81.11","44.74","WIARTON A","6119499","2018-04-22 06:00","2018","04","22","06:00","-2.3","","-5.6","","78","","","","18","","11","","24.1","","100.34","","","","-6","","NA"
"-81.11","44.74","WIARTON A","6119499","2018-04-22 07:00","2018","04","22","07:00","1.0","","-3.1","","74","","","","16","","8","","24.1","","100.39","","","","","","Clear"
"-81.11","44.74","WIARTON A","6119499","2018-04-22 08:00","2018","04","22","08:00","5.2","","-5.5","","46","","","","21","","5","","24.1","","100.41","","","","","","NA"
"-81.11","44.74","WIARTON A","6119499","2018-04-22 09:00","2018","04","22","09:00","7.9","","-4.7","","40","","","","21","","4","","24.1","","100.44","","","","","","NA"
"-81.11","44.74","WIARTON A","6119499","2018-04-22 10:00","2018","04","22","10:00","10.3","","-5.9","","31","","","","24","","13","","24.1","","100.45","","","","","","Clear"
"-81.11","44.74","WIARTON A","6119499","2018-04-22 11:00","2018","04","22","11:00","11.2","","-6.5","","28","","","","25","","9","","24.1","","100.45","","","","","","NA"
"-81.11","44.74","WIARTON A","6119499","2018-04-22 12:00","2018","04","22","12:00","11.9","","-8.2","","24","","","","25","","10","","24.1","","100.40","","","","","","NA"
"-81.11","44.74","WIARTON A","6119499","2018-04-22 13:00","2018","04","22","13:00","12.6","","-7.1","","25","","","","25","","12","","24.1","","100.37","","","","","","Clear"
"-81.11","44.74","WIARTON A","6119499","2018-04-22 14:00","2018","04","22","14:00","12.8","","-8.0","","23","","","","27","","11","","24.1","","100.34","","","","","","NA"
"-81.11","44.74","WIARTON A","6119499","2018-04-22 15:00","2018","04","22","15:00","13.1","","-8.4","","22","","","","26","","12","","24.1","","100.29","","","","","","NA"
"-81.11","44.74","WIARTON A","6119499","2018-04-22 16:00","2018","04","22","16:00","12.8","","-8.7","","22","","","","28","","6","","24.1","","100.26","","","","","","Clear"
"-81.11","44.74","WIARTON A","6119499","2018-04-22 17:00","2018","04","22","17:00","12.2","","-6.2","","27","","","","29","","4","","24.1","","100.24","","","","","","NA"
"-81.11","44.74","WIARTON A","6119499","2018-04-22 18:00","2018","04","22","18:00","7.8","","-1.9","","50","","","","29","","6","","24.1","","100.21","","","","","","NA"
"-81.11","44.74","WIARTON A","6119499","2018-04-22 19:00","2018","04","22","19:00","4.2","","-1.8","","65","","","","31","","5","","24.1","","100.20","","","","","","Mostly Cloudy"
"-81.11","44.74","WIARTON A","6119499","2018-04-22 20:00","2018","04","22","20:00","4.1","","0.0","","75","","","","16","","3","","24.1","","100.22","","","","","","NA"
"-81.11","44.74","WIARTON A","6119499","2018-04-22 21:00","2018","04","22","21:00","2.2","","0.2","","86","","","","5","","5","","24.1","","100.22","","","","","","NA"
"-81.11","44.74","WIARTON A","6119499","2018-04-22 22:00","2018","04","22","22:00","4.1","","-1.7","","66","","","","36","","2","","24.1","","100.23","","","","","","Mainly Clear"
"-81.11","44.74","WIARTON A","6119499","2018-04-22 23:00","2018","04","22","23:00","1.5","","-1.6","","79","","","","6","","4","","24.1","","100.19","","","","","","NA"
"-81.11","44.74","WIARTON A","6119499","2018-04-23 00:00","2018","04","23","00:00","1.5","","-1.8","","79","","","","7","","6","","24.1","","100.16","","","","","","NA"
"-81.11","44.74","WIARTON A","6119499","2018-04-23 01:00","2018","04","23","01:00","-0.1","","-0.1","","100","","","","6","","5","","24.1","","100.13","","","","-2","","Clear"
"-81.11","44.74","WIARTON A","6119499","2018-04-23 02:00","2018","04","23","02:00","-1.0","","-1.0","","100","","","","7","","4","","24.1","","100.12","","","","-2","","NA"
"-81.11","44.74","WIARTON A","6119499","2018-04-23 03:00","2018","04","23","03:00","-0.4","","-0.4","","100","","","","8","","5","","24.1","","100.14","","","","-2","","NA"
"-81.11","44.74","WIARTON A","6119499","2018-04-23 04:00","2018","04","23","04:00","-1.8","","-1.8","","100","","","","9","","7","","24.1","","100.17","","","","-4","","Clear"
"-81.11","44.74","WIARTON A","6119499","2018-04-23 05:00","2018","04","23","05:00","-1.5","","-1.5","","100","","","","6","","5","","24.1","","100.17","","","","-3","","NA"
"-81.11","44.74","WIARTON A","6119499","2018-04-23 06:00","2018","04","23","06:00","-0.4","","-0.4","","100","","","","36","","3","","24.1","","100.21","","","","-1","","NA"
"-81.11","44.74","WIARTON A","6119499","2018-04-23 07:00","2018","04","23","07:00","0.8","","-1.8","","83","","","","36","","3","","24.1","","100.22","","","","","","Clear"
"-81.11","44.74","WIARTON A","6119499","2018-04-23 08:00","2018","04","23","08:00","4.8","","-0.7","","67","","","","36","","1","","24.1","","100.19","","","","","","NA"
"-81.11","44.74","WIARTON A","6119499","2018-04-23 09:00","2018","04","23","09:00","11.6","","-1.8","","39","","","","13","","13","","24.1","","100.13","","","","","","NA"
"-81.11","44.74","WIARTON A","6119499","2018-04-23 10:00","2018","04","23","10:00","10.1","","-0.2","","49","","","","28","","8","","24.1","","100.10","","","","","","Clear"
"-81.11","44.74","WIARTON A","6119499","2018-04-23 11:00","2018","04","23","11:00","12.8","","-0.6","","39","","","","32","","5","","24.1","","100.01","","","","","","NA"
"-81.11","44.74","WIARTON A","6119499","2018-04-23 12:00","2018","04","23","12:00","15.7","","-0.8","","32","","","","32","","6","","24.1","","99.94","","","","","","NA"
"-81.11","44.74","WIARTON A","6119499","2018-04-23 13:00","2018","04","23","13:00","17.0","","-0.3","","31","","","","3","","6","","24.1","","99.84","","","","","","Clear"
"-81.11","44.74","WIARTON A","6119499","2018-04-23 14:00","2018","04","23","14:00","17.0","","0.5","","33","","","","36","","8","","24.1","","99.77","","","","","","NA"
"-81.11","44.74","WIARTON A","6119499","2018-04-23 15:00","2018","04","23","15:00","17.6","","-0.8","","29","","","","","","0","","24.1","","99.70","","","","","","NA"
"-81.11","44.74","WIARTON A","6119499","2018-04-23 16:00","2018","04","23","16:00","18.2","","0.0","","29","","","","","","0","","24.1","","99.64","","","","","","Clear"
"-81.11","44.74","WIARTON A","6119499","2018-04-23 17:00","2018","04","23","17:00","15.2","","1.1","","38","","","","23","","18","","24.1","","99.61","","","","","","NA"
"-81.11","44.74","WIARTON A","6119499","2018-04-23 18:00","2018","04","23","18:00","11.7","","0.1","","45","","","","30","","4","","24.1","","99.56","","","","","","NA"
"-81.11","44.74","WIARTON A","6119499","2018-04-23 19:00","2018","04","23","19:00","7.8","","0.1","","58","","","","36","","2","","24.1","","99.55","","","","","","Cloudy"
"-81.11","44.74","WIARTON A","6119499","2018-04-23 20:00","2018","04","23","20:00","6.8","","0.1","","62","","","","36","","2","","24.1","","99.55","","","","","","NA"
"-81.11","44.74","WIARTON A","6119499","2018-04-23 21:00","2018","04","23","21:00","7.7","","0.1","","58","","","","13","","4","","24.1","","99.54","","","","","","NA"
"-81.11","44.74","WIARTON A","6119499","2018-04-23 22:00","2018","04","23","22:00","8.0","","-0.7","","54","","","","13","","5","","24.1","","99.51","","","","","","Cloudy"
"-81.11","44.74","WIARTON A","6119499","2018-04-23 23:00","2018","04","23","23:00","9.6","","0.9","","55","","","","15","","11","","24.1","","99.48","","","","","","NA"
"-81.11","44.74","WIARTON A","6119499","2018-04-24 00:00","2018","04","24","00:00","8.9","","0.4","","55","","","","15","","12","","24.1","","99.46","","","","","","NA"
"-81.11","44.74","WIARTON A","6119499","2018-04-24 01:00","2018","04","24","01:00","8.5","","0.2","","56","","","","15","","16","","24.1","","99.43","","","","","","Cloudy"
"-81.11","44.74","WIARTON A","6119499","2018-04-24 02:00","2018","04","24","02:00","7.2","","-0.4","","58","","","","15","","7","","24.1","","99.41","","","","","","NA"
"-81.11","44.74","WIARTON A","6119499","2018-04-24 03:00","2018","04","24","03:00","6.7","","-0.1","","62","","","","22","","5","","24.1","","99.46","","","","","","NA"
"-81.11","44.74","WIARTON A","6119499","2018-04-24 04:00","2018","04","24","04:00","7.1","","1.7","","69","","","","16","","7","","24.1","","99.42","","","","","","Cloudy"
"-81.11","44.74","WIARTON A","6119499","2018-04-24 05:00","2018","04","24","05:00","6.7","","-0.6","","60","","","","16","","8","","24.1","","99.41","","","","","","NA"
"-81.11","44.74","WIARTON A","6119499","2018-04-24 06:00","2018","04","24","06:00","8.0","","0.2","","58","","","","17","","11","","24.1","","99.41","","","","","","NA"
"-81.11","44.74","WIARTON A","6119499","2018-04-24 07:00","2018","04","24","07:00","8.7","","1.7","","61","","","","17","","11","","24.1","","99.42","","","","","","Cloudy"
"-81.11","44.74","WIARTON A","6119499","2018-04-24 08:00","2018","04","24","08:00","10.4","","3.7","","63","","","","20","","7","","24.1","","99.45","","","","","","NA"
"-81.11","44.74","WIARTON A","6119499","2018-04-24 09:00","2018","04","24","09:00","13.6","","5.2","","56","","","","22","","13","","24.1","","99.42","","","","","","NA"
"-81.11","44.74","WIARTON A","6119499","2018-04-24 10:00","2018","04","24","10:00","16.7","","7.9","","56","","","","25","","4","","24.1","","99.41","","","","","","Mostly Cloudy"
"-81.11","44.74","WIARTON A","6119499","2018-04-24 11:00","2018","04","24","11:00","16.9","","6.8","","51","","","","28","","14","","24.1","","99.36","","","","","","NA"
"-81.11","44.74","WIARTON A","6119499","2018-04-24 12:00","2018","04","24","12:00","16.7","","7.8","","55","","","","26","","10","","24.1","","99.30","","","","","","NA"
"-81.11","44.74","WIARTON A","6119499","2018-04-24 13:00","2018","04","24","13:00","17.2","","7.1","","51","","","","28","","10","","24.1","","99.25","","","","","","Mostly Cloudy"
"-81.11","44.74","WIARTON A","6119499","2018-04-24 14:00","2018","04","24","14:00","17.7","","7.3","","50","","","","27","","10","","24.1","","99.20","","","","","","NA"
"-81.11","44.74","WIARTON A","6119499","2018-04-24 15:00","2018","04","24","15:00","15.9","","6.5","","53","","","","2","","8","","24.1","","99.13","","","","","","NA"
"-81.11","44.74","WIARTON A","6119499","2018-04-24 16:00","2018","04","24","16:00","9.9","","4.0","","66","","","","32","","5","","24.1","","99.10","","","","","","Cloudy"
"-81.11","44.74","WIARTON A","6119499","2018-04-24 17:00","2018","04","24","17:00","10.0","","5.3","","73","","","","36","","3","","24.1","","99.11","","","","","","Rain"
"-81.11","44.74","WIARTON A","6119499","2018-04-24 18:00","2018","04","24","18:00","9.2","","6.1","","81","","","","2","","8","","12.9","","99.09","","","","","","Rain"
"-81.11","44.74","WIARTON A","6119499","2018-04-24 19:00","2018","04","24","19:00","9.5","","6.5","","81","","","","2","","5","","16.1","","99.07","","","","","","Rain"
"-81.11","44.74","WIARTON A","6119499","2018-04-24 20:00","2018","04","24","20:00","8.2","","5.9","","85","","","","34","","3","","24.1","","99.06","","","","","","NA"
"-81.11","44.74","WIARTON A","6119499","2018-04-24 21:00","2018","04","24","21:00","7.5","","5.6","","88","","","","1","","5","","24.1","","99.04","","","","","","Rain"
"-81.11","44.74","WIARTON A","6119499","2018-04-24 22:00","2018","04","24","22:00","8.4","","6.5","","88","","","","36","","1","","24.1","","99.01","","","","","","Cloudy"
"-81.11","44.74","WIARTON A","6119499","2018-04-24 23:00","2018","04","24","23:00","8.6","","5.1","","79","","","","24","","4","","24.1","","98.96","","","","","","NA"
"-81.11","44.74","WIARTON A","6119499","2018-04-25 00:00","2018","04","25","00:00","8.2","","7.3","","94","","","","17","","5","","19.3","","98.90","","","","","","Rain"
"-81.11","44.74","WIARTON A","6119499","2018-04-25 01:00","2018","04","25","01:00","6.5","","5.8","","96","","","","1","","3","","19.3","","98.85","","","","","","Cloudy"
"-81.11","44.74","WIARTON A","6119499","2018-04-25 02:00","2018","04","25","02:00","6.3","","5.5","","95","","","","1","","3","","3.2","","98.77","","","","","","Rain,Fog"
"-81.11","44.74","WIARTON A","6119499","2018-04-25 03:00","2018","04","25","03:00","5.7","","5.2","","97","","","","36","","2","","3.2","","98.71","","","","","","Rain,Fog"
"-81.11","44.74","WIARTON A","6119499","2018-04-25 04:00","2018","04","25","04:00","5.7","","5.2","","97","","","","36","","3","","1.6","","98.66","","","","","","Rain,Fog"
"-81.11","44.74","WIARTON A","6119499","2018-04-25 05:00","2018","04","25","05:00","5.9","","5.5","","97","","","","36","","3","","1.2","","98.61","","","","","","Rain,Fog"
"-81.11","44.74","WIARTON A","6119499","2018-04-25 06:00","2018","04","25","06:00","5.3","","4.9","","97","","","","32","","4","","0.8","","98.59","","","","","","Rain,Fog"
"-81.11","44.74","WIARTON A","6119499","2018-04-25 07:00","2018","04","25","07:00","6.0","","5.6","","98","","","","2","","9","","0.8","","98.60","","","","","","Rain,Fog"
"-81.11","44.74","WIARTON A","6119499","2018-04-25 08:00","2018","04","25","08:00","5.7","","5.2","","97","","","","2","","10","","9.7","","98.60","","","","","","Rain"
"-81.11","44.74","WIARTON A","6119499","2018-04-25 09:00","2018","04","25","09:00","3.5","","2.9","","96","","","","35","","13","","12.9","","98.60","","","","","","Rain"
"-81.11","44.74","WIARTON A","6119499","2018-04-25 10:00","2018","04","25","10:00","2.8","","2.2","","95","","","","1","","15","","12.9","","98.62","","","","","","Rain"
"-81.11","44.74","WIARTON A","6119499","2018-04-25 11:00","2018","04","25","11:00","3.0","","2.1","","94","","","","1","","12","","16.1","","98.60","","","","","","Rain"
"-81.11","44.74","WIARTON A","6119499","2018-04-25 12:00","2018","04","25","12:00","3.0","","2.0","","93","","","","1","","15","","16.1","","98.57","","","","","","Rain"
"-81.11","44.74","WIARTON A","6119499","2018-04-25 13:00","2018","04","25","13:00","3.0","","2.0","","93","","","","1","","16","","16.1","","98.54","","","","","","Rain"
"-81.11","44.74","WIARTON A","6119499","2018-04-25 14:00","2018","04","25","14:00","3.0","","1.9","","93","","","","36","","11","","16.1","","98.57","","","","","","Rain"
"-81.11","44.74","WIARTON A","6119499","2018-04-25 15:00","2018","04","25","15:00","2.6","","1.5","","93","","","","36","","9","","16.1","","98.56","","","","","","Rain"
"-81.11","44.74","WIARTON A","6119499","2018-04-25 16:00","2018","04","25","16:00","2.5","","1.4","","93","","","","35","","11","","4.8","","98.58","","","","","","Rain,Fog"
"-81.11","44.74","WIARTON A","6119499","2018-04-25 17:00","2018","04","25","17:00","2.4","","1.5","","93","","","","35","","9","","4.8","","98.61","","","","","","Rain,Ice Pellets,Fog"
"-81.11","44.74","WIARTON A","6119499","2018-04-25 18:00","2018","04","25","18:00","2.3","","1.3","","93","","","","35","","9","","8.1","","98.62","","","","","","Rain,Fog"
"-81.11","44.74","WIARTON A","6119499","2018-04-25 19:00","2018","04","25","19:00","2.4","","1.3","","93","","","","34","","6","","16.1","","98.61","","","","","","Rain"
"-81.11","44.74","WIARTON A","6119499","2018-04-25 20:00","2018","04","25","20:00","2.1","","1.4","","94","","","","36","","6","","16.1","","98.61","","","","","","Rain"
"-81.11","44.74","WIARTON A","6119499","2018-04-25 21:00","2018","04","25","21:00","2.4","","1.4","","93","","","","32","","9","","12.9","","98.63","","","","","","Rain"
"-81.11","44.74","WIARTON A","6119499","2018-04-25 22:00","2018","04","25","22:00","2.4","","1.0","","91","","","","1","","3","","24.1","","98.61","","","","","","Cloudy"
"-81.11","44.74","WIARTON A","6119499","2018-04-25 23:00","2018","04","25","23:00","2.4","","1.3","","92","","","","28","","9","","24.1","","98.57","","","","","","NA"
"-81.11","44.74","WIARTON A","6119499","2018-04-26 00:00","2018","04","26","00:00","2.4","","1.2","","92","","","","33","","6","","24.1","","98.53","","","","","","NA"
"-81.11","44.74","WIARTON A","6119499","2018-04-26 01:00","2018","04","26","01:00","2.3","","1.2","","92","","","","30","","5","","24.1","","98.50","","","","","","Cloudy"
"-81.11","44.74","WIARTON A","6119499","2018-04-26 02:00","2018","04","26","02:00","2.1","","1.1","","93","","","","28","","6","","24.1","","98.45","","","","","","NA"
"-81.11","44.74","WIARTON A","6119499","2018-04-26 03:00","2018","04","26","03:00","1.2","","0.5","","95","","","","36","","3","","24.1","","98.42","","","","","","NA"
"-81.11","44.74","WIARTON A","6119499","2018-04-26 04:00","2018","04","26","04:00","0.3","","-0.2","","97","","","","23","","4","","24.1","","98.43","","","","","","Clear"
"-81.11","44.74","WIARTON A","6119499","2018-04-26 05:00","2018","04","26","05:00","0.2","","-0.2","","97","","","","25","","5","","24.1","","98.44","","","","","","NA"
"-81.11","44.74","WIARTON A","6119499","2018-04-26 06:00","2018","04","26","06:00","0.5","","0.1","","97","","","","30","","3","","24.1","","98.49","","","","","","NA"
"-81.11","44.74","WIARTON A","6119499","2018-04-26 07:00","2018","04","26","07:00","2.3","","1.0","","91","","","","36","","3","","24.1","","98.53","","","","","","Clear"
"-81.11","44.74","WIARTON A","6119499","2018-04-26 08:00","2018","04","26","08:00","4.0","","1.4","","83","","","","29","","4","","24.1","","98.55","","","","","","NA"
"-81.11","44.74","WIARTON A","6119499","2018-04-26 09:00","2018","04","26","09:00","6.3","","1.3","","70","","","","29","","5","","24.1","","98.55","","","","","","NA"
"-81.11","44.74","WIARTON A","6119499","2018-04-26 10:00","2018","04","26","10:00","7.9","","2.6","","69","","","","26","","12","","24.1","","98.55","","","","","","Clear"
"-81.11","44.74","WIARTON A","6119499","2018-04-26 11:00","2018","04","26","11:00","8.5","","1.6","","61","","","","26","","12","","24.1","","98.54","","","","","","NA"
"-81.11","44.74","WIARTON A","6119499","2018-04-26 12:00","2018","04","26","12:00","8.7","","1.3","","60","","","","26","","12","","24.1","","98.54","","","","","","NA"
"-81.11","44.74","WIARTON A","6119499","2018-04-26 13:00","2018","04","26","13:00","8.0","","-0.2","","56","","","","27","","18","","24.1","","98.54","","","","","","Mainly Clear"
"-81.11","44.74","WIARTON A","6119499","2018-04-26 14:00","2018","04","26","14:00","7.4","","1.8","","68","","","","26","","18","","24.1","","98.55","","","","","","NA"
"-81.11","44.74","WIARTON A","6119499","2018-04-26 15:00","2018","04","26","15:00","7.9","","1.7","","65","","","","28","","15","","24.1","","98.54","","","","","","NA"
"-81.11","44.74","WIARTON A","6119499","2018-04-26 16:00","2018","04","26","16:00","8.0","","1.5","","63","","","","27","","12","","24.1","","98.50","","","","","","Mainly Clear"
"-81.11","44.74","WIARTON A","6119499","2018-04-26 17:00","2018","04","26","17:00","8.2","","-0.3","","55","","","","27","","13","","24.1","","98.50","","","","","","NA"
"-81.11","44.74","WIARTON A","6119499","2018-04-26 18:00","2018","04","26","18:00","8.4","","0.5","","57","","","","27","","8","","24.1","","98.44","","","","","","NA"
"-81.11","44.74","WIARTON A","6119499","2018-04-26 19:00","2018","04","26","19:00","6.7","","-0.4","","60","","","","21","","9","","24.1","","98.41","","","","","","Mainly Clear"
"-81.11","44.74","WIARTON A","6119499","2018-04-26 20:00","2018","04","26","20:00","4.9","","-0.5","","68","","","","21","","4","","24.1","","98.42","","","","","","NA"
"-81.11","44.74","WIARTON A","6119499","2018-04-26 21:00","2018","04","26","21:00","3.8","","0.2","","77","","","","23","","3","","24.1","","98.41","","","","","","NA"
"-81.11","44.74","WIARTON A","6119499","2018-04-26 22:00","2018","04","26","22:00","2.5","","0.9","","89","","","","16","","9","","24.1","","98.38","","","","","","Mostly Cloudy"
"-81.11","44.74","WIARTON A","6119499","2018-04-26 23:00","2018","04","26","23:00","2.7","","1.4","","91","","","","14","","12","","24.1","","98.32","","","","","","NA"
"-81.11","44.74","WIARTON A","6119499","2018-04-27 00:00","2018","04","27","00:00","2.8","","1.5","","91","","","","13","","11","","24.1","","98.28","","","","","","NA"
"-81.11","44.74","WIARTON A","6119499","2018-04-27 01:00","2018","04","27","01:00","3.2","","0.8","","85","","","","15","","6","","24.1","","98.25","","","","","","Mostly Cloudy"
"-81.11","44.74","WIARTON A","6119499","2018-04-27 02:00","2018","04","27","02:00","3.4","","1.6","","88","","","","13","","8","","24.1","","98.20","","","","","","NA"
"-81.11","44.74","WIARTON A","6119499","2018-04-27 03:00","2018","04","27","03:00","3.7","","1.0","","82","","","","15","","13","","24.1","","98.15","","","","","","NA"
"-81.11","44.74","WIARTON A","6119499","2018-04-27 04:00","2018","04","27","04:00","3.5","","1.4","","86","","","","14","","16","","24.1","","98.08","","","","","","Mostly Cloudy"
"-81.11","44.74","WIARTON A","6119499","2018-04-27 05:00","2018","04","27","05:00","3.5","","1.3","","86","","","","15","","9","","24.1","","98.06","","","","","","NA"
"-81.11","44.74","WIARTON A","6119499","2018-04-27 06:00","2018","04","27","06:00","3.1","","1.8","","91","","","","13","","14","","24.1","","98.07","","","","","","NA"
"-81.11","44.74","WIARTON A","6119499","2018-04-27 07:00","2018","04","27","07:00","5.8","","3.0","","82","","","","14","","14","","16.1","","98.07","","","","","","Cloudy"
"-81.11","44.74","WIARTON A","6119499","2018-04-27 08:00","2018","04","27","08:00","9.2","","3.7","","68","","","","17","","16","","16.1","","98.04","","","","","","NA"
"-81.11","44.74","WIARTON A","6119499","2018-04-27 09:00","2018","04","27","09:00","11.5","","4.3","","61","","","","18","","13","","19.3","","98.00","","","","","","NA"
"-81.11","44.74","WIARTON A","6119499","2018-04-27 10:00","2018","04","27","10:00","13.4","","3.4","","50","","","","20","","14","","24.1","","97.99","","","","","","Cloudy"
"-81.11","44.74","WIARTON A","6119499","2018-04-27 11:00","2018","04","27","11:00","14.4","","3.6","","48","","","","26","","11","","19.3","","97.92","","","","","","NA"
"-81.11","44.74","WIARTON A","6119499","2018-04-27 12:00","2018","04","27","12:00","13.5","","3.3","","50","","","","26","","18","","24.1","","97.91","","","","","","NA"
"-81.11","44.74","WIARTON A","6119499","2018-04-27 13:00","2018","04","27","13:00","11.0","","2.3","","55","","","","25","","21","","24.1","","97.93","","","","","","Mostly Cloudy"
"-81.11","44.74","WIARTON A","6119499","2018-04-27 14:00","2018","04","27","14:00","10.6","","2.2","","56","","","","29","","7","","24.1","","97.91","","","","","","NA"
"-81.11","44.74","WIARTON A","6119499","2018-04-27 15:00","2018","04","27","15:00","10.7","","0.9","","50","","","","27","","9","","24.1","","97.89","","","","","","NA"
"-81.11","44.74","WIARTON A","6119499","2018-04-27 16:00","2018","04","27","16:00","9.3","","2.5","","62","","","","26","","17","","24.1","","97.90","","","","","","Cloudy"
"-81.11","44.74","WIARTON A","6119499","2018-04-27 17:00","2018","04","27","17:00","7.4","","3.6","","76","","","","36","","4","","16.1","","97.93","","","","","","NA"
"-81.11","44.74","WIARTON A","6119499","2018-04-27 18:00","2018","04","27","18:00","7.4","","3.5","","76","","","","36","","3","","16.1","","97.96","","","","","","Rain"
"-81.11","44.74","WIARTON A","6119499","2018-04-27 19:00","2018","04","27","19:00","5.4","","3.8","","90","","","","36","","2","","12.9","","98.00","","","","","","Rain"
"-81.11","44.74","WIARTON A","6119499","2018-04-27 20:00","2018","04","27","20:00","4.2","","3.0","","92","","","","28","","7","","16.1","","98.04","","","","","","Rain"
"-81.11","44.74","WIARTON A","6119499","2018-04-27 21:00","2018","04","27","21:00","4.1","","3.5","","96","","","","31","","9","","2.4","","98.08","","","","","","Fog"
"-81.11","44.74","WIARTON A","6119499","2018-04-27 22:00","2018","04","27","22:00","4.3","","3.7","","96","","","","33","","4","","3.2","","98.05","","","","","","Fog"
"-81.11","44.74","WIARTON A","6119499","2018-04-27 23:00","2018","04","27","23:00","3.0","","2.0","","93","","","","34","","9","","9.7","","98.06","","","","","","Fog"
"-81.11","44.74","WIARTON A","6119499","2018-04-28 00:00","2018","04","28","00:00","2.3","","1.7","","96","","","","34","","11","","1.6","","98.06","","","","","","Fog"
"-81.11","44.74","WIARTON A","6119499","2018-04-28 01:00","2018","04","28","01:00","1.8","","1.3","","96","","","","35","","10","","3.2","","98.04","","","","","","Fog"
"-81.11","44.74","WIARTON A","6119499","2018-04-28 02:00","2018","04","28","02:00","1.4","","0.8","","95","","","","36","","7","","6.4","","98.08","","","","","","Fog"
"-81.11","44.74","WIARTON A","6119499","2018-04-28 03:00","2018","04","28","03:00","1.1","","0.4","","95","","","","1","","12","","6.4","","98.12","","","","","","Fog"
"-81.11","44.74","WIARTON A","6119499","2018-04-28 04:00","2018","04","28","04:00","0.8","","0.0","","94","","","","1","","15","","6.4","","98.16","","","","","","Fog"
"-81.11","44.74","WIARTON A","6119499","2018-04-28 05:00","2018","04","28","05:00","0.6","","-0.2","","95","","","","1","","13","","6.4","","98.19","","","","","","Drizzle,Fog"
"-81.11","44.74","WIARTON A","6119499","2018-04-28 06:00","2018","04","28","06:00","-0.1","","-1.0","","94","","","","1","","12","","4.8","","98.27","","","","-4","","Fog"
"-81.11","44.74","WIARTON A","6119499","2018-04-28 07:00","2018","04","28","07:00","-0.4","","-2.1","","88","","","","36","","13","","9.7","","98.36","","","","-5","","Fog"
"-81.11","44.74","WIARTON A","6119499","2018-04-28 08:00","2018","04","28","08:00","-0.6","","-2.7","","86","","","","1","","21","","16.1","","98.44","","","","-6","","NA"
"-81.11","44.74","WIARTON A","6119499","2018-04-28 09:00","2018","04","28","09:00","-0.9","","-2.9","","86","","","","1","","13","","16.1","","98.53","","","","-5","","NA"
"-81.11","44.74","WIARTON A","6119499","2018-04-28 10:00","2018","04","28","10:00","-0.8","","-3.2","","84","","","","1","","16","","19.3","","98.60","","","","-6","","Cloudy"
"-81.11","44.74","WIARTON A","6119499","2018-04-28 11:00","2018","04","28","11:00","0.2","","-3.0","","80","","","","35","","17","","24.1","","98.65","","","","","","NA"
"-81.11","44.74","WIARTON A","6119499","2018-04-28 12:00","2018","04","28","12:00","-0.2","","-3.1","","81","","","","35","","8","","24.1","","98.73","","","","-3","","NA"
"-81.11","44.74","WIARTON A","6119499","2018-04-28 13:00","2018","04","28","13:00","0.0","","-3.7","","76","","","","34","","11","","24.1","","98.79","","","","-4","","Cloudy"
"-81.11","44.74","WIARTON A","6119499","2018-04-28 14:00","2018","04","28","14:00","0.0","","-4.0","","75","","","","36","","15","","24.1","","98.86","","","","-4","","NA"
"-81.11","44.74","WIARTON A","6119499","2018-04-28 15:00","2018","04","28","15:00","0.0","","-3.6","","77","","","","35","","12","","24.1","","98.91","","","","-4","","NA"
"-81.11","44.74","WIARTON A","6119499","2018-04-28 16:00","2018","04","28","16:00","0.2","","-3.7","","76","","","","34","","12","","24.1","","98.98","","","","","","Cloudy"
"-81.11","44.74","WIARTON A","6119499","2018-04-28 17:00","2018","04","28","17:00","0.1","","-3.6","","76","","","","36","","11","","24.1","","99.06","","","","","","NA"
"-81.11","44.74","WIARTON A","6119499","2018-04-28 18:00","2018","04","28","18:00","-0.3","","-3.0","","82","","","","1","","13","","6.4","","99.12","","","","-4","","Snow"
"-81.11","44.74","WIARTON A","6119499","2018-04-28 19:00","2018","04","28","19:00","-0.4","","-2.1","","88","","","","36","","11","","6.4","","99.19","","","","-4","","Snow"
"-81.11","44.74","WIARTON A","6119499","2018-04-28 20:00","2018","04","28","20:00","-0.1","","-2.3","","85","","","","36","","10","","6.4","","99.25","","","","-3","","Snow"
"-81.11","44.74","WIARTON A","6119499","2018-04-28 21:00","2018","04","28","21:00","-0.2","","-2.2","","86","","","","1","","18","","9.7","","99.33","","","","-5","","Snow"
"-81.11","44.74","WIARTON A","6119499","2018-04-28 22:00","2018","04","28","22:00","0.1","","-2.4","","83","","","","1","","25","","6.4","","99.38","","","","","","Snow"
"-81.11","44.74","WIARTON A","6119499","2018-04-28 23:00","2018","04","28","23:00","-0.2","","-1.9","","89","","","","1","","16","","4.8","","99.41","","","","-5","","Snow"
"-81.11","44.74","WIARTON A","6119499","2018-04-29 00:00","2018","04","29","00:00","0.0","","-2.0","","87","","","","2","","14","","9.7","","99.45","","","","-4","","Snow"
"-81.11","44.74","WIARTON A","6119499","2018-04-29 01:00","2018","04","29","01:00","0.4","","-3.1","","78","","","","3","","13","","16.1","","99.44","","","","","","Snow"
"-81.11","44.74","WIARTON A","6119499","2018-04-29 02:00","2018","04","29","02:00","0.6","","-3.7","","73","","","","36","","8","","24.1","","99.43","","","","","","NA"
"-81.11","44.74","WIARTON A","6119499","2018-04-29 03:00","2018","04","29","03:00","1.1","","-5.0","","64","","","","36","","9","","24.1","","99.47","","","","","","NA"
"-81.11","44.74","WIARTON A","6119499","2018-04-29 04:00","2018","04","29","04:00","0.7","","-6.0","","61","","","","36","","9","","24.1","","99.48","","","","","","Cloudy"
"-81.11","44.74","WIARTON A","6119499","2018-04-29 05:00","2018","04","29","05:00","-0.3","","-6.6","","63","","","","36","","9","","24.1","","99.55","","","","-3","","NA"
"-81.11","44.74","WIARTON A","6119499","2018-04-29 06:00","2018","04","29","06:00","-0.4","","-7.0","","61","","","","36","","10","","24.1","","99.62","","","","-4","","NA"
"-81.11","44.74","WIARTON A","6119499","2018-04-29 07:00","2018","04","29","07:00","0.5","","-7.1","","57","","","","1","","11","","24.1","","99.71","","","","","","Clear"
"-81.11","44.74","WIARTON A","6119499","2018-04-29 08:00","2018","04","29","08:00","0.9","","-7.3","","54","","","","35","","13","","24.1","","99.74","","","","","","NA"
"-81.11","44.74","WIARTON A","6119499","2018-04-29 09:00","2018","04","29","09:00","2.2","","-6.0","","55","","","","34","","8","","24.1","","99.77","","","","","","NA"
"-81.11","44.74","WIARTON A","6119499","2018-04-29 10:00","2018","04","29","10:00","3.5","","-6.8","","47","","","","36","","13","","24.1","","99.77","","","","","","Clear"
"-81.11","44.74","WIARTON A","6119499","2018-04-29 11:00","2018","04","29","11:00","4.7","","-9.6","","35","","","","35","","12","","24.1","","99.78","","","","","","NA"
"-81.11","44.74","WIARTON A","6119499","2018-04-29 12:00","2018","04","29","12:00","6.2","","-9.2","","32","","","","34","","10","","24.1","","99.74","","","","","","NA"
"-81.11","44.74","WIARTON A","6119499","2018-04-29 13:00","2018","04","29","13:00","5.4","","-5.1","","47","","","","28","","22","","24.1","","99.72","","","","","","Clear"
"-81.11","44.74","WIARTON A","6119499","2018-04-29 14:00","2018","04","29","14:00","5.4","","-5.6","","45","","","","28","","21","","24.1","","99.69","","","","","","NA"
"-81.11","44.74","WIARTON A","6119499","2018-04-29 15:00","2018","04","29","15:00","6.3","","-7.2","","38","","","","28","","14","","22.5","","99.61","","","","","","NA"
"-81.11","44.74","WIARTON A","6119499","2018-04-29 16:00","2018","04","29","16:00","6.6","","-7.0","","37","","","","28","","16","","24.1","","99.58","","","","","","Clear"
"-81.11","44.74","WIARTON A","6119499","2018-04-29 17:00","2018","04","29","17:00","6.4","","-8.1","","35","","","","28","","15","","24.1","","99.58","","","","","","NA"
"-81.11","44.74","WIARTON A","6119499","2018-04-29 18:00","2018","04","29","18:00","5.5","","-6.4","","42","","","","27","","16","","24.1","","99.56","","","","","","NA"
"-81.11","44.74","WIARTON A","6119499","2018-04-29 19:00","2018","04","29","19:00","3.6","","-5.0","","53","","","","27","","10","","24.1","","99.56","","","","","","Mainly Clear"
"-81.11","44.74","WIARTON A","6119499","2018-04-29 20:00","2018","04","29","20:00","1.6","","-3.4","","70","","","","23","","13","","24.1","","99.57","","","","","","NA"
"-81.11","44.74","WIARTON A","6119499","2018-04-29 21:00","2018","04","29","21:00","0.5","","-2.9","","78","","","","22","","14","","24.1","","99.58","","","","","","NA"
"-81.11","44.74","WIARTON A","6119499","2018-04-29 22:00","2018","04","29","22:00","0.6","","-2.6","","79","","","","23","","13","","24.1","","99.57","","","","","","Clear"
"-81.11","44.74","WIARTON A","6119499","2018-04-29 23:00","2018","04","29","23:00","-0.6","","-3.0","","84","","","","21","","13","","24.1","","99.59","","","","-5","","NA"
"-81.11","44.74","WIARTON A","6119499","2018-04-30 00:00","2018","04","30","00:00","-0.8","","-3.1","","85","","","","20","","11","","24.1","","99.60","","","","-5","","NA"
"-81.11","44.74","WIARTON A","6119499","2018-04-30 01:00","2018","04","30","01:00","0.1","","-3.9","","75","","","","22","","11","","24.1","","99.57","","","","","","Clear"
"-81.11","44.74","WIARTON A","6119499","2018-04-30 02:00","2018","04","30","02:00","-1.5","","-4.5","","80","","","","21","","10","","24.1","","99.53","","","","-5","","NA"
"-81.11","44.74","WIARTON A","6119499","2018-04-30 03:00","2018","04","30","03:00","-1.2","","-4.8","","77","","","","21","","11","","24.1","","99.54","","","","-5","","NA"
"-81.11","44.74","WIARTON A","6119499","2018-04-30 04:00","2018","04","30","04:00","0.2","","-4.9","","69","","","","23","","12","","24.1","","99.56","","","","","","Clear"
"-81.11","44.74","WIARTON A","6119499","2018-04-30 05:00","2018","04","30","05:00","-1.2","","-3.8","","83","","","","20","","5","","24.1","","99.57","","","","-3","","NA"
"-81.11","44.74","WIARTON A","6119499","2018-04-30 06:00","2018","04","30","06:00","0.0","","-2.9","","80","","","","20","","6","","24.1","","99.63","","","","-2","","NA"
"-81.11","44.74","WIARTON A","6119499","2018-04-30 07:00","2018","04","30","07:00","2.9","","-2.7","","67","","","","21","","8","","24.1","","99.65","","","","","","Clear"
"-81.11","44.74","WIARTON A","6119499","2018-04-30 08:00","2018","04","30","08:00","5.5","","-1.4","","61","","","","25","","7","","24.1","","99.65","","","","","","NA"
"-81.11","44.74","WIARTON A","6119499","2018-04-30 09:00","2018","04","30","09:00","8.2","","-4.1","","42","","","","27","","11","","24.1","","99.63","","","","","","NA"
"-81.11","44.74","WIARTON A","6119499","2018-04-30 10:00","2018","04","30","10:00","10.2","","-5.3","","33","","","","29","","12","","24.1","","99.61","","","","","","Clear"
"-81.11","44.74","WIARTON A","6119499","2018-04-30 11:00","2018","04","30","11:00","10.9","","-4.6","","33","","","","28","","12","","24.1","","99.58","","","","","","NA"
"-81.11","44.74","WIARTON A","6119499","2018-04-30 12:00","2018","04","30","12:00","12.2","","-4.2","","31","","","","28","","16","","24.1","","99.53","","","","","","NA"
"-81.11","44.74","WIARTON A","6119499","2018-04-30 13:00","2018","04","30","13:00","13.1","","-7.0","","24","","","","28","","15","","24.1","","99.48","","","","","","Clear"
"-81.11","44.74","WIARTON A","6119499","2018-04-30 14:00","2018","04","30","14:00","13.6","","-4.9","","27","","","","28","","14","","24.1","","99.43","","","","","","NA"
"-81.11","44.74","WIARTON A","6119499","2018-04-30 15:00","2018","04","30","15:00","15.4","","-5.2","","24","","","","24","","12","","24.1","","99.31","","","","","","NA"
"-81.11","44.74","WIARTON A","6119499","2018-04-30 16:00","2018","04","30","16:00","14.7","","-4.3","","26","","","","26","","13","","24.1","","99.26","","","","","","Clear"
"-81.11","44.74","WIARTON A","6119499","2018-04-30 17:00","2018","04","30","17:00","15.5","","-6.5","","21","","","","23","","16","","24.1","","99.23","","","","","","NA"
"-81.11","44.74","WIARTON A","6119499","2018-04-30 18:00","2018","04","30","18:00","15.1","","-6.0","","23","","","","21","","17","","24.1","","99.15","","","","","","NA"
"-81.11","44.74","WIARTON A","6119499","2018-04-30 19:00","2018","04","30","19:00","13.5","","-6.6","","24","","","","24","","7","","24.1","","99.10","","","","","","Clear"
"-81.11","44.74","WIARTON A","6119499","2018-04-30 20:00","2018","04","30","20:00","10.8","","-4.9","","33","","","","17","","6","","24.1","","99.05","","","","","","NA"
"-81.11","44.74","WIARTON A","6119499","2018-04-30 21:00","2018","04","30","21:00","6.9","","2.1","","71","","","","15","","12","","24.1","","99.03","","","","","","NA"
"-81.11","44.74","WIARTON A","6119499","2018-04-30 22:00","2018","04","30","22:00","7.6","","-0.2","","58","","","","17","","7","","24.1","","98.98","","","","","","Mainly Clear"
"-81.11","44.74","WIARTON A","6119499","2018-04-30 23:00","2018","04","30","23:00","9.5","","-1.9","","45","","","","18","","13","","24.1","","98.94","","","","","","NA"
