"Longitude (x)","Latitude (y)","Station Name","Climate ID","Date/Time (LST)","Year","Month","Day","Time (LST)","Temp (°C)","Temp Flag","Dew Point Temp (°C)","Dew Point Temp Flag","Rel Hum (%)","Rel Hum Flag","Precip. Amount (mm)","Precip. Amount Flag","Wind Dir (10s deg)","Wind Dir Flag","Wind Spd (km/h)","Wind Spd Flag","Visibility (km)","Visibility Flag","Stn Press (kPa)","Stn Press Flag","Hmdx","Hmdx Flag","Wind Chill","Wind Chill Flag","Weather"
"-114.44","62.46","YELLOWKNIFE A","2204101","2019-02-01 00:00","2019","02","01","00:00","-33.5","","-37.0","","71","","","","34","","12","","24.1","","99.68","","","","-44","","NA"
"-114.44","62.46","YELLOWKNIFE A","2204101","2019-02-01 01:00","2019","02","01","01:00","-33.4","","-36.9","","72","","","","36","","13","","24.1","","99.77","","","","-45","","NA"
"-114.44","62.46","YELLOWKNIFE A","2204101","2019-02-01 02:00","2019","02","01","02:00","-34.3","","-37.7","","72","","","","1","","14","","24.1","","99.84","","","","-46","","Clear"
"-114.44","62.46","YELLOWKNIFE A","2204101","2019-02-01 03:00","2019","02","01","03:00","-33.2","","-36.6","","72","","","","2","","14","","24.1","","99.89","","","","-45","","NA"
"-114.44","62.46","YELLOWKNIFE A","2204101","2019-02-01 04:00","2019","02","01","04:00","-33.6","","-37.0","","72","","","","2","","7","","24.1","","99.99","","","","-41","","NA"
"-114.44","62.46","YELLOWKNIFE A","2204101","2019-02-01 05:00","2019","02","01","05:00","-34.9","","-38.2","","73","","","","35","","10","","24.1","","100.09","","","","-45","","Clear"
"-114.44","62.46","YELLOWKNIFE A","2204101","2019-02-01 06:00","2019","02","01","06:00","-36.8","","-40.2","","71","","","","1","","11","","24.1","","100.13","","","","-48","","NA"
"-114.44","62.46","YELLOWKNIFE A","2204101","2019-02-01 07:00","2019","02","01","07:00","-36.1","","-39.6","","71","","","","36","","7","","24.1","","100.16","","","","-44","","NA"
"-114.44","62.46","YELLOWKNIFE A","2204101","2019-02-01 08:00","2019","02","01","08:00","-37.1","","-40.7","","70","","","","34","","7","","24.1","","100.20","","","","-46","","Clear"
"-114.44","62.46","YELLOWKNIFE A","2204101","2019-02-01 09:00","2019","02","01","09:00","-37.1","","-40.6","","71","","","","1","","7","","24.1","","100.24","","","","-46","","NA"
"-114.44","62.46","YELLOWKNIFE A","2204101","2019-02-01 10:00","2019","02","01","10:00","-36.6","","-40.1","","71","","","","36","","2","","24.1","","100.30","","","","-39","","NA"
"-114.44","62.46","YELLOWKNIFE A","2204101","2019-02-01 11:00","2019","02","01","11:00","-35.2","","-38.8","","71","","","","4","","5","","24.1","","100.35","","","","-42","","Clear"
"-114.44","62.46","YELLOWKNIFE A","2204101","2019-02-01 12:00","2019","02","01","12:00","-33.6","","-37.2","","71","","","","3","","5","","24.1","","100.38","","","","-40","","NA"
"-114.44","62.46","YELLOWKNIFE A","2204101","2019-02-01 13:00","2019","02","01","13:00","-31.6","","-35.4","","70","","","","31","","5","","24.1","","100.41","","","","-37","","NA"
"-114.44","62.46","YELLOWKNIFE A","2204101","2019-02-01 14:00","2019","02","01","14:00","-30.9","","-34.6","","71","","","","1","","7","","24.1","","100.39","","","","-38","","Clear"
"-114.44","62.46","YELLOWKNIFE A","2204101","2019-02-01 15:00","2019","02","01","15:00","-30.7","","-34.5","","70","","","","35","","4","","24.1","","100.39","","","","-35","","NA"
"-114.44","62.46","YELLOWKNIFE A","2204101","2019-02-01 16:00","2019","02","01","16:00","-31.2","","-34.7","","72","","","","34","","6","","24.1","","100.44","","","","-38","","NA"
"-114.44","62.46","YELLOWKNIFE A","2204101","2019-02-01 17:00","2019","02","01","17:00","-33.4","","-36.8","","73","","","","1","","11","","24.1","","100.43","","","","-44","","Clear"
"-114.44","62.46","YELLOWKNIFE A","2204101","2019-02-01 18:00","2019","02","01","18:00","-34.6","","-37.9","","73","","","","36","","8","","24.1","","100.46","","","","-43","","NA"
"-114.44","62.46","YELLOWKNIFE A","2204101","2019-02-01 19:00","2019","02","01","19:00","-36.1","","-39.4","","72","","","","1","","9","","24.1","","100.49","","","","-46","","NA"
"-114.44","62.46","YELLOWKNIFE A","2204101","2019-02-01 20:00","2019","02","01","20:00","-36.8","","-40.3","","71","","","","3","","9","","24.1","","100.48","","","","-47","","Clear"
"-114.44","62.46","YELLOWKNIFE A","2204101","2019-02-01 21:00","2019","02","01","21:00","-36.7","","-40.3","","70","","","","4","","11","","24.1","","100.53","","","","-48","","NA"
"-114.44","62.46","YELLOWKNIFE A","2204101","2019-02-01 22:00","2019","02","01","22:00","-37.6","","-41.3","","69","","","","3","","14","","24.1","","100.54","","","","-50","","NA"
"-114.44","62.46","YELLOWKNIFE A","2204101","2019-02-01 23:00","2019","02","01","23:00","-38.1","","-41.9","","68","","","","3","","13","","24.1","","100.53","","","","-50","","Clear"
"-114.44","62.46","YELLOWKNIFE A","2204101","2019-02-02 00:00","2019","02","02","00:00","-38.5","","-42.3","","68","","","","1","","4","","24.1","","100.55","","","","-44","","NA"
"-114.44","62.46","YELLOWKNIFE A","2204101","2019-02-02 01:00","2019","02","02","01:00","-39.5","","-43.4","","68","","","","2","","9","","24.1","","100.54","","","","-50","","NA"
"-114.44","62.46","YELLOWKNIFE A","2204101","2019-02-02 02:00","2019","02","02","02:00","-39.6","","-43.5","","67","","","","3","","8","","24.1","","100.56","","","","-49","","Clear"
"-114.44","62.46","YELLOWKNIFE A","2204101","2019-02-02 03:00","2019","02","02","03:00","-39.6","","-43.5","","67","","","","3","","6","","24.1","","100.59","","","","-48","","NA"
"-114.44","62.46","YELLOWKNIFE A","2204101","2019-02-02 04:00","2019","02","02","04:00","-40.2","","-44.1","","67","","","","3","","7","","24.1","","100.61","","","","-49","","NA"
"-114.44","62.46","YELLOWKNIFE A","2204101","2019-02-02 05:00","2019","02","02","05:00","-40.5","","-44.3","","67","","","","3","","8","","24.1","","100.62","","","","-50","","Clear"
"-114.44","62.46","YELLOWKNIFE A","2204101","2019-02-02 06:00","2019","02","02","06:00","-41.4","","-45.4","","66","","","","36","","8","","24.1","","100.62","","","","-51","","NA"
"-114.44","62.46","YELLOWKNIFE A","2204101","2019-02-02 07:00","2019","02","02","07:00","-42.0","","-46.0","","66","","","","1","","9","","24.1","","100.62","","","","-53","","NA"
"-114.44","62.46","YELLOWKNIFE A","2204101","2019-02-02 08:00","2019","02","02","08:00","-41.5","","-45.6","","66","","","","35","","8","","24.1","","100.62","","","","-51","","Clear"
"-114.44","62.46","YELLOWKNIFE A","2204101","2019-02-02 09:00","2019","02","02","09:00","-42.6","","-46.7","","66","","","","34","","5","","24.1","","100.63","","","","-50","","NA"
"-114.44","62.46","YELLOWKNIFE A","2204101","2019-02-02 10:00","2019","02","02","10:00","-41.4","","-45.4","","66","","","","36","","5","","24.1","","100.67","","","","-49","","NA"
"-114.44","62.46","YELLOWKNIFE A","2204101","2019-02-02 11:00","2019","02","02","11:00","-39.3","","-43.4","","66","","","","36","","2","","24.1","","100.69","","","","-42","","Mainly Clear"
"-114.44","62.46","YELLOWKNIFE A","2204101","2019-02-02 12:00","2019","02","02","12:00","-37.7","","-42.0","","65","","","","36","","1","","24.1","","100.69","","","","-39","","NA"
"-114.44","62.46","YELLOWKNIFE A","2204101","2019-02-02 13:00","2019","02","02","13:00","-35.6","","-39.7","","67","","","","34","","4","","24.1","","100.66","","","","-41","","NA"
"-114.44","62.46","YELLOWKNIFE A","2204101","2019-02-02 14:00","2019","02","02","14:00","-33.9","","-38.1","","66","","","","36","","8","","24.1","","100.65","","","","-43","","Mainly Clear"
"-114.44","62.46","YELLOWKNIFE A","2204101","2019-02-02 15:00","2019","02","02","15:00","-32.6","","-37.0","","66","","","","32","","7","","24.1","","100.67","","","","-40","","NA"
"-114.44","62.46","YELLOWKNIFE A","2204101","2019-02-02 16:00","2019","02","02","16:00","-33.7","","-37.8","","68","","","","27","","6","","24.1","","100.70","","","","-41","","NA"
"-114.44","62.46","YELLOWKNIFE A","2204101","2019-02-02 17:00","2019","02","02","17:00","-35.2","","-39.0","","70","","","","29","","10","","24.1","","100.72","","","","-45","","Mainly Clear"
"-114.44","62.46","YELLOWKNIFE A","2204101","2019-02-02 18:00","2019","02","02","18:00","-35.6","","-39.2","","70","","","","29","","9","","24.1","","100.73","","","","-45","","NA"
"-114.44","62.46","YELLOWKNIFE A","2204101","2019-02-02 19:00","2019","02","02","19:00","-36.3","","-39.9","","71","","","","31","","11","","24.1","","100.71","","","","-47","","NA"
"-114.44","62.46","YELLOWKNIFE A","2204101","2019-02-02 20:00","2019","02","02","20:00","-36.5","","-40.3","","69","","","","33","","14","","24.1","","100.72","","","","-49","","Clear"
"-114.44","62.46","YELLOWKNIFE A","2204101","2019-02-02 21:00","2019","02","02","21:00","-36.9","","-40.6","","69","","","","33","","9","","24.1","","100.72","","","","-47","","NA"
"-114.44","62.46","YELLOWKNIFE A","2204101","2019-02-02 22:00","2019","02","02","22:00","-37.0","","-40.7","","69","","","","33","","14","","24.1","","100.71","","","","-50","","NA"
"-114.44","62.46","YELLOWKNIFE A","2204101","2019-02-02 23:00","2019","02","02","23:00","-38.3","","-41.9","","70","","","","32","","8","","24.1","","100.70","","","","-48","","Clear"
"-114.44","62.46","YELLOWKNIFE A","2204101","2019-02-03 00:00","2019","02","03","00:00","-38.3","","-42.0","","69","","","","33","","6","","24.1","","100.70","","","","-46","","NA"
"-114.44","62.46","YELLOWKNIFE A","2204101","2019-02-03 01:00","2019","02","03","01:00","-39.7","","-43.5","","68","","","","33","","8","","24.1","","100.70","","","","-49","","Ice Crystals"
"-114.44","62.46","YELLOWKNIFE A","2204101","2019-02-03 02:00","2019","02","03","02:00","-40.2","","-44.1","","67","","","","28","","9","","24.1","","100.71","","","","-51","","Ice Crystals"
"-114.44","62.46","YELLOWKNIFE A","2204101","2019-02-03 03:00","2019","02","03","03:00","-41.0","","-45.1","","66","","","","32","","7","","24.1","","100.72","","","","-50","","Ice Crystals"
"-114.44","62.46","YELLOWKNIFE A","2204101","2019-02-03 04:00","2019","02","03","04:00","-40.6","","-44.5","","67","","","","32","","9","","24.1","","100.71","","","","-51","","Ice Crystals"
"-114.44","62.46","YELLOWKNIFE A","2204101","2019-02-03 05:00","2019","02","03","05:00","-41.2","","-45.1","","67","","","","1","","8","","24.1","","100.69","","","","-51","","Ice Crystals"
"-114.44","62.46","YELLOWKNIFE A","2204101","2019-02-03 06:00","2019","02","03","06:00","-41.9","","-45.9","","66","","","","1","","7","","24.1","","100.65","","","","-51","","NA"
"-114.44","62.46","YELLOWKNIFE A","2204101","2019-02-03 07:00","2019","02","03","07:00","-41.5","","-45.5","","66","","","","3","","5","","24.1","","100.64","","","","-49","","NA"
"-114.44","62.46","YELLOWKNIFE A","2204101","2019-02-03 08:00","2019","02","03","08:00","-41.0","","-45.1","","66","","","","4","","6","","24.1","","100.68","","","","-49","","Clear"
"-114.44","62.46","YELLOWKNIFE A","2204101","2019-02-03 09:00","2019","02","03","09:00","-41.0","","-44.9","","67","","","","5","","6","","24.1","","100.66","","","","-49","","NA"
"-114.44","62.46","YELLOWKNIFE A","2204101","2019-02-03 10:00","2019","02","03","10:00","-39.9","","-43.8","","67","","","","9","","5","","24.1","","100.70","","","","-47","","NA"
"-114.44","62.46","YELLOWKNIFE A","2204101","2019-02-03 11:00","2019","02","03","11:00","-39.2","","-43.1","","67","","","","8","","5","","1.6","","100.71","","","","-46","","Fog"
"-114.44","62.46","YELLOWKNIFE A","2204101","2019-02-03 12:00","2019","02","03","12:00","-37.8","","-41.6","","68","","","","8","","4","","1.6","","100.71","","","","-43","","Fog"
"-114.44","62.46","YELLOWKNIFE A","2204101","2019-02-03 13:00","2019","02","03","13:00","-36.4","","-40.3","","68","","","","11","","5","","24.1","","100.71","","","","-43","","NA"
"-114.44","62.46","YELLOWKNIFE A","2204101","2019-02-03 14:00","2019","02","03","14:00","-34.8","","-38.9","","68","","","","11","","5","","24.1","","100.71","","","","-41","","Mainly Clear"
"-114.44","62.46","YELLOWKNIFE A","2204101","2019-02-03 15:00","2019","02","03","15:00","-33.9","","-38.3","","65","","","","36","","3","","24.1","","100.72","","","","-38","","NA"
"-114.44","62.46","YELLOWKNIFE A","2204101","2019-02-03 16:00","2019","02","03","16:00","-33.8","","-37.8","","68","","","","10","","5","","24.1","","100.70","","","","-40","","NA"
"-114.44","62.46","YELLOWKNIFE A","2204101","2019-02-03 17:00","2019","02","03","17:00","-34.6","","-38.3","","70","","","","8","","7","","24.1","","100.70","","","","-43","","Mainly Clear"
"-114.44","62.46","YELLOWKNIFE A","2204101","2019-02-03 18:00","2019","02","03","18:00","-36.2","","-39.6","","72","","","","10","","7","","24.1","","100.69","","","","-44","","NA"
"-114.44","62.46","YELLOWKNIFE A","2204101","2019-02-03 19:00","2019","02","03","19:00","-38.6","","-42.4","","69","","","","14","","9","","24.1","","100.70","","","","-49","","NA"
"-114.44","62.46","YELLOWKNIFE A","2204101","2019-02-03 20:00","2019","02","03","20:00","-38.3","","-42.0","","69","","","","12","","8","","16.1","","100.68","","","","-48","","Ice Crystals"
"-114.44","62.46","YELLOWKNIFE A","2204101","2019-02-03 21:00","2019","02","03","21:00","-37.4","","-41.1","","70","","","","9","","10","","12.9","","100.68","","","","-48","","Ice Crystals"
"-114.44","62.46","YELLOWKNIFE A","2204101","2019-02-03 22:00","2019","02","03","22:00","-37.8","","-41.6","","69","","","","11","","9","","12.9","","100.73","","","","-48","","Ice Crystals"
"-114.44","62.46","YELLOWKNIFE A","2204101","2019-02-03 23:00","2019","02","03","23:00","-37.8","","-41.6","","68","","","","10","","10","","12.9","","100.71","","","","-48","","Ice Crystals"
"-114.44","62.46","YELLOWKNIFE A","2204101","2019-02-04 00:00","2019","02","04","00:00","-37.6","","-41.5","","69","","","","8","","10","","24.1","","100.67","","","","-48","","Ice Crystals"
"-114.44","62.46","YELLOWKNIFE A","2204101","2019-02-04 01:00","2019","02","04","01:00","-38.0","","-41.8","","68","","","","7","","11","","24.1","","100.66","","","","-49","","Ice Crystals"
"-114.44","62.46","YELLOWKNIFE A","2204101","2019-02-04 02:00","2019","02","04","02:00","-38.4","","-42.3","","68","","","","7","","10","","24.1","","100.63","","","","-49","","Ice Crystals"
"-114.44","62.46","YELLOWKNIFE A","2204101","2019-02-04 03:00","2019","02","04","03:00","-38.6","","-42.5","","68","","","","6","","11","","24.1","","100.61","","","","-50","","Ice Crystals"
"-114.44","62.46","YELLOWKNIFE A","2204101","2019-02-04 04:00","2019","02","04","04:00","-38.9","","-42.7","","68","","","","6","","12","","24.1","","100.59","","","","-51","","Ice Crystals"
"-114.44","62.46","YELLOWKNIFE A","2204101","2019-02-04 05:00","2019","02","04","05:00","-38.8","","-42.7","","68","","","","7","","12","","6.4","","100.54","","","","-51","","Ice Crystals"
"-114.44","62.46","YELLOWKNIFE A","2204101","2019-02-04 06:00","2019","02","04","06:00","-38.5","","-42.3","","68","","","","7","","13","","2.4","","100.52","","","","-51","","Ice Crystals,Fog"
"-114.44","62.46","YELLOWKNIFE A","2204101","2019-02-04 07:00","2019","02","04","07:00","-38.5","","-42.4","","68","","","","8","","12","","1.6","","100.51","","","","-50","","Fog"
"-114.44","62.46","YELLOWKNIFE A","2204101","2019-02-04 08:00","2019","02","04","08:00","-38.4","","-42.3","","68","","","","7","","15","","1.6","","100.48","","","","-52","","Fog"
"-114.44","62.46","YELLOWKNIFE A","2204101","2019-02-04 09:00","2019","02","04","09:00","-38.0","","-41.8","","68","","","","8","","16","","1.6","","100.45","","","","-52","","Fog"
"-114.44","62.46","YELLOWKNIFE A","2204101","2019-02-04 10:00","2019","02","04","10:00","-37.5","","-41.3","","69","","","","7","","13","","9.7","","100.45","","","","-50","","Fog"
"-114.44","62.46","YELLOWKNIFE A","2204101","2019-02-04 11:00","2019","02","04","11:00","-36.0","","-39.7","","70","","","","8","","10","","24.1","","100.41","","","","-46","","Clear"
"-114.44","62.46","YELLOWKNIFE A","2204101","2019-02-04 12:00","2019","02","04","12:00","-34.5","","-38.2","","70","","","","6","","12","","24.1","","100.40","","","","-46","","NA"
"-114.44","62.46","YELLOWKNIFE A","2204101","2019-02-04 13:00","2019","02","04","13:00","-32.6","","-36.2","","71","","","","8","","12","","24.1","","100.35","","","","-43","","NA"
"-114.44","62.46","YELLOWKNIFE A","2204101","2019-02-04 14:00","2019","02","04","14:00","-31.5","","-35.0","","72","","","","7","","12","","24.1","","100.32","","","","-42","","Clear"
"-114.44","62.46","YELLOWKNIFE A","2204101","2019-02-04 15:00","2019","02","04","15:00","-30.7","","-34.4","","71","","","","6","","12","","24.1","","100.31","","","","-41","","NA"
"-114.44","62.46","YELLOWKNIFE A","2204101","2019-02-04 16:00","2019","02","04","16:00","-30.7","","-34.4","","71","","","","7","","15","","24.1","","100.28","","","","-42","","NA"
"-114.44","62.46","YELLOWKNIFE A","2204101","2019-02-04 17:00","2019","02","04","17:00","-31.4","","-35.0","","71","","","","7","","16","","24.1","","100.27","","","","-44","","Clear"
"-114.44","62.46","YELLOWKNIFE A","2204101","2019-02-04 18:00","2019","02","04","18:00","-32.3","","-35.8","","71","","","","6","","14","","24.1","","100.26","","","","-44","","NA"
"-114.44","62.46","YELLOWKNIFE A","2204101","2019-02-04 19:00","2019","02","04","19:00","-32.6","","-36.2","","71","","","","7","","16","","24.1","","100.23","","","","-45","","NA"
"-114.44","62.46","YELLOWKNIFE A","2204101","2019-02-04 20:00","2019","02","04","20:00","-33.2","","-36.7","","71","","","","8","","15","","24.1","","100.23","","","","-45","","Clear"
"-114.44","62.46","YELLOWKNIFE A","2204101","2019-02-04 21:00","2019","02","04","21:00","-33.6","","-37.0","","72","","","","7","","14","","24.1","","100.26","","","","-45","","NA"
"-114.44","62.46","YELLOWKNIFE A","2204101","2019-02-04 22:00","2019","02","04","22:00","-34.0","","-37.5","","72","","","","8","","16","","24.1","","100.28","","","","-47","","NA"
"-114.44","62.46","YELLOWKNIFE A","2204101","2019-02-04 23:00","2019","02","04","23:00","-34.4","","-37.9","","71","","","","7","","15","","24.1","","100.28","","","","-47","","Clear"
"-114.44","62.46","YELLOWKNIFE A","2204101","2019-02-05 00:00","2019","02","05","00:00","-34.8","","-38.3","","71","","","","8","","17","","24.1","","100.29","","","","-48","","NA"
"-114.44","62.46","YELLOWKNIFE A","2204101","2019-02-05 01:00","2019","02","05","01:00","-35.1","","-38.7","","71","","","","7","","17","","24.1","","100.31","","","","-48","","NA"
"-114.44","62.46","YELLOWKNIFE A","2204101","2019-02-05 02:00","2019","02","05","02:00","-35.5","","-39.1","","71","","","","6","","13","","24.1","","100.33","","","","-47","","Clear"
"-114.44","62.46","YELLOWKNIFE A","2204101","2019-02-05 03:00","2019","02","05","03:00","-36.0","","-39.5","","71","","","","7","","10","","24.1","","100.35","","","","-46","","NA"
"-114.44","62.46","YELLOWKNIFE A","2204101","2019-02-05 04:00","2019","02","05","04:00","-35.9","","-39.5","","71","","","","6","","10","","24.1","","100.33","","","","-46","","NA"
"-114.44","62.46","YELLOWKNIFE A","2204101","2019-02-05 05:00","2019","02","05","05:00","-36.5","","-40.2","","70","","","","6","","9","","24.1","","100.36","","","","-46","","Clear"
"-114.44","62.46","YELLOWKNIFE A","2204101","2019-02-05 06:00","2019","02","05","06:00","-36.3","","-39.9","","70","","","","6","","8","","24.1","","100.40","","","","-45","","NA"
"-114.44","62.46","YELLOWKNIFE A","2204101","2019-02-05 07:00","2019","02","05","07:00","-36.1","","-39.7","","70","","","","7","","9","","24.1","","100.42","","","","-46","","NA"
"-114.44","62.46","YELLOWKNIFE A","2204101","2019-02-05 08:00","2019","02","05","08:00","-36.1","","-39.8","","70","","","","6","","14","","24.1","","100.45","","","","-48","","Clear"
"-114.44","62.46","YELLOWKNIFE A","2204101","2019-02-05 09:00","2019","02","05","09:00","-36.6","","-40.3","","70","","","","5","","9","","24.1","","100.52","","","","-46","","NA"
"-114.44","62.46","YELLOWKNIFE A","2204101","2019-02-05 10:00","2019","02","05","10:00","-35.6","","-39.3","","70","","","","6","","10","","24.1","","100.57","","","","-46","","NA"
"-114.44","62.46","YELLOWKNIFE A","2204101","2019-02-05 11:00","2019","02","05","11:00","-34.3","","-37.9","","71","","","","7","","12","","24.1","","100.58","","","","-45","","Clear"
"-114.44","62.46","YELLOWKNIFE A","2204101","2019-02-05 12:00","2019","02","05","12:00","-33.0","","-36.6","","71","","","","6","","9","","24.1","","100.60","","","","-42","","NA"
"-114.44","62.46","YELLOWKNIFE A","2204101","2019-02-05 13:00","2019","02","05","13:00","-31.2","","-34.8","","71","","","","5","","5","","24.1","","100.63","","","","-37","","NA"
"-114.44","62.46","YELLOWKNIFE A","2204101","2019-02-05 14:00","2019","02","05","14:00","-30.3","","-34.1","","70","","","","4","","8","","24.1","","100.63","","","","-38","","Clear"
"-114.44","62.46","YELLOWKNIFE A","2204101","2019-02-05 15:00","2019","02","05","15:00","-29.8","","-33.6","","70","","","","3","","8","","24.1","","100.66","","","","-38","","NA"
"-114.44","62.46","YELLOWKNIFE A","2204101","2019-02-05 16:00","2019","02","05","16:00","-30.3","","-34.1","","70","","","","3","","9","","24.1","","100.70","","","","-39","","NA"
"-114.44","62.46","YELLOWKNIFE A","2204101","2019-02-05 17:00","2019","02","05","17:00","-30.8","","-34.3","","72","","","","6","","10","","24.1","","100.71","","","","-40","","Clear"
"-114.44","62.46","YELLOWKNIFE A","2204101","2019-02-05 18:00","2019","02","05","18:00","-31.6","","-34.8","","74","","","","6","","11","","24.1","","100.73","","","","-42","","NA"
"-114.44","62.46","YELLOWKNIFE A","2204101","2019-02-05 19:00","2019","02","05","19:00","-31.8","","-35.0","","74","","","","6","","10","","24.1","","100.74","","","","-41","","NA"
"-114.44","62.46","YELLOWKNIFE A","2204101","2019-02-05 20:00","2019","02","05","20:00","-31.8","","-35.0","","74","","","","8","","14","","24.1","","100.76","","","","-43","","Clear"
"-114.44","62.46","YELLOWKNIFE A","2204101","2019-02-05 21:00","2019","02","05","21:00","-32.2","","-35.4","","74","","","","8","","10","","24.1","","100.78","","","","-42","","NA"
"-114.44","62.46","YELLOWKNIFE A","2204101","2019-02-05 22:00","2019","02","05","22:00","-33.0","","-36.2","","73","","","","7","","12","","24.1","","100.79","","","","-44","","NA"
"-114.44","62.46","YELLOWKNIFE A","2204101","2019-02-05 23:00","2019","02","05","23:00","-33.4","","-36.7","","73","","","","7","","11","","24.1","","100.81","","","","-44","","Clear"
"-114.44","62.46","YELLOWKNIFE A","2204101","2019-02-06 00:00","2019","02","06","00:00","-35.5","","-38.9","","72","","","","7","","8","","24.1","","100.85","","","","-44","","NA"
"-114.44","62.46","YELLOWKNIFE A","2204101","2019-02-06 01:00","2019","02","06","01:00","-34.6","","-37.9","","73","","","","7","","9","","24.1","","100.89","","","","-44","","NA"
"-114.44","62.46","YELLOWKNIFE A","2204101","2019-02-06 02:00","2019","02","06","02:00","-35.1","","-38.5","","72","","","","6","","10","","24.1","","100.92","","","","-45","","Clear"
"-114.44","62.46","YELLOWKNIFE A","2204101","2019-02-06 03:00","2019","02","06","03:00","-36.4","","-40.0","","71","","","","6","","8","","24.1","","100.91","","","","-45","","NA"
"-114.44","62.46","YELLOWKNIFE A","2204101","2019-02-06 04:00","2019","02","06","04:00","-35.8","","-39.3","","71","","","","6","","11","","24.1","","100.89","","","","-47","","NA"
"-114.44","62.46","YELLOWKNIFE A","2204101","2019-02-06 05:00","2019","02","06","05:00","-36.0","","-39.5","","71","","","","7","","11","","24.1","","100.90","","","","-47","","Clear"
"-114.44","62.46","YELLOWKNIFE A","2204101","2019-02-06 06:00","2019","02","06","06:00","-36.3","","-39.9","","70","","","","7","","12","","24.1","","100.91","","","","-48","","NA"
"-114.44","62.46","YELLOWKNIFE A","2204101","2019-02-06 07:00","2019","02","06","07:00","-36.1","","-39.7","","71","","","","7","","8","","24.1","","100.94","","","","-45","","NA"
"-114.44","62.46","YELLOWKNIFE A","2204101","2019-02-06 08:00","2019","02","06","08:00","-36.6","","-40.2","","70","","","","6","","10","","24.1","","100.95","","","","-47","","Clear"
"-114.44","62.46","YELLOWKNIFE A","2204101","2019-02-06 09:00","2019","02","06","09:00","-36.8","","-40.4","","70","","","","6","","9","","24.1","","100.96","","","","-47","","NA"
"-114.44","62.46","YELLOWKNIFE A","2204101","2019-02-06 10:00","2019","02","06","10:00","-35.7","","-39.3","","70","","","","7","","11","","24.1","","100.98","","","","-47","","NA"
"-114.44","62.46","YELLOWKNIFE A","2204101","2019-02-06 11:00","2019","02","06","11:00","-35.0","","-38.5","","71","","","","9","","9","","24.1","","100.99","","","","-45","","Mainly Clear"
"-114.44","62.46","YELLOWKNIFE A","2204101","2019-02-06 12:00","2019","02","06","12:00","-33.0","","-36.5","","71","","","","10","","9","","24.1","","100.99","","","","-42","","NA"
"-114.44","62.46","YELLOWKNIFE A","2204101","2019-02-06 13:00","2019","02","06","13:00","-31.6","","-35.0","","72","","","","9","","6","","24.1","","101.01","","","","-38","","NA"
"-114.44","62.46","YELLOWKNIFE A","2204101","2019-02-06 14:00","2019","02","06","14:00","-30.0","","-33.4","","73","","","","8","","4","","24.1","","101.00","","","","-35","","Clear"
"-114.44","62.46","YELLOWKNIFE A","2204101","2019-02-06 15:00","2019","02","06","15:00","-29.2","","-32.6","","73","","","","5","","4","","24.1","","101.02","","","","-34","","NA"
"-114.44","62.46","YELLOWKNIFE A","2204101","2019-02-06 16:00","2019","02","06","16:00","-28.5","","-31.8","","74","","","","8","","9","","24.1","","100.99","","","","-37","","NA"
"-114.44","62.46","YELLOWKNIFE A","2204101","2019-02-06 17:00","2019","02","06","17:00","-29.9","","-33.2","","73","","","","9","","15","","24.1","","101.00","","","","-41","","Clear"
"-114.44","62.46","YELLOWKNIFE A","2204101","2019-02-06 18:00","2019","02","06","18:00","-30.1","","-33.3","","75","","","","9","","14","","24.1","","101.00","","","","-41","","NA"
"-114.44","62.46","YELLOWKNIFE A","2204101","2019-02-06 19:00","2019","02","06","19:00","-31.2","","-34.5","","73","","","","9","","15","","24.1","","100.98","","","","-43","","NA"
"-114.44","62.46","YELLOWKNIFE A","2204101","2019-02-06 20:00","2019","02","06","20:00","-31.6","","-35.0","","73","","","","9","","16","","24.1","","100.99","","","","-44","","Clear"
"-114.44","62.46","YELLOWKNIFE A","2204101","2019-02-06 21:00","2019","02","06","21:00","-32.5","","-35.8","","73","","","","9","","12","","24.1","","101.01","","","","-43","","NA"
"-114.44","62.46","YELLOWKNIFE A","2204101","2019-02-06 22:00","2019","02","06","22:00","-32.0","","-35.4","","73","","","","8","","12","","24.1","","101.03","","","","-43","","NA"
"-114.44","62.46","YELLOWKNIFE A","2204101","2019-02-06 23:00","2019","02","06","23:00","-32.9","","-36.3","","72","","","","7","","12","","24.1","","101.06","","","","-44","","Clear"
"-114.44","62.46","YELLOWKNIFE A","2204101","2019-02-07 00:00","2019","02","07","00:00","-32.8","","-36.2","","72","","","","7","","14","","24.1","","101.05","","","","-44","","NA"
"-114.44","62.46","YELLOWKNIFE A","2204101","2019-02-07 01:00","2019","02","07","01:00","-33.0","","-36.4","","72","","","","6","","10","","24.1","","101.06","","","","-43","","NA"
"-114.44","62.46","YELLOWKNIFE A","2204101","2019-02-07 02:00","2019","02","07","02:00","-33.7","","-37.1","","72","","","","7","","13","","24.1","","101.05","","","","-45","","Clear"
"-114.44","62.46","YELLOWKNIFE A","2204101","2019-02-07 03:00","2019","02","07","03:00","-34.4","","-38.0","","71","","","","6","","11","","24.1","","101.05","","","","-45","","NA"
"-114.44","62.46","YELLOWKNIFE A","2204101","2019-02-07 04:00","2019","02","07","04:00","-34.2","","-37.7","","71","","","","6","","14","","24.1","","101.06","","","","-46","","NA"
"-114.44","62.46","YELLOWKNIFE A","2204101","2019-02-07 05:00","2019","02","07","05:00","-34.5","","-38.0","","71","","","","6","","10","","24.1","","101.06","","","","-45","","Clear"
"-114.44","62.46","YELLOWKNIFE A","2204101","2019-02-07 06:00","2019","02","07","06:00","-34.3","","-37.9","","71","","","","6","","13","","24.1","","101.08","","","","-46","","NA"
"-114.44","62.46","YELLOWKNIFE A","2204101","2019-02-07 07:00","2019","02","07","07:00","-34.1","","-37.6","","71","","","","8","","11","","24.1","","101.09","","","","-45","","NA"
"-114.44","62.46","YELLOWKNIFE A","2204101","2019-02-07 08:00","2019","02","07","08:00","-34.4","","-37.9","","71","","","","5","","14","","24.1","","101.11","","","","-46","","Clear"
"-114.44","62.46","YELLOWKNIFE A","2204101","2019-02-07 09:00","2019","02","07","09:00","-33.9","","-37.4","","72","","","","6","","11","","24.1","","101.12","","","","-44","","NA"
"-114.44","62.46","YELLOWKNIFE A","2204101","2019-02-07 10:00","2019","02","07","10:00","-33.4","","-36.9","","72","","","","5","","9","","24.1","","101.16","","","","-43","","NA"
"-114.44","62.46","YELLOWKNIFE A","2204101","2019-02-07 11:00","2019","02","07","11:00","-32.2","","-35.6","","72","","","","5","","9","","24.1","","101.20","","","","-41","","Clear"
"-114.44","62.46","YELLOWKNIFE A","2204101","2019-02-07 12:00","2019","02","07","12:00","-30.9","","-34.3","","73","","","","4","","9","","24.1","","101.21","","","","-40","","NA"
"-114.44","62.46","YELLOWKNIFE A","2204101","2019-02-07 13:00","2019","02","07","13:00","-29.4","","-32.7","","74","","","","2","","9","","24.1","","101.23","","","","-38","","NA"
"-114.44","62.46","YELLOWKNIFE A","2204101","2019-02-07 14:00","2019","02","07","14:00","-27.9","","-31.2","","74","","","","3","","9","","24.1","","101.24","","","","-36","","Mainly Clear"
"-114.44","62.46","YELLOWKNIFE A","2204101","2019-02-07 15:00","2019","02","07","15:00","-27.7","","-30.9","","75","","","","1","","10","","24.1","","101.26","","","","-36","","NA"
"-114.44","62.46","YELLOWKNIFE A","2204101","2019-02-07 16:00","2019","02","07","16:00","-27.5","","-30.7","","75","","","","1","","11","","24.1","","101.29","","","","-37","","NA"
"-114.44","62.46","YELLOWKNIFE A","2204101","2019-02-07 17:00","2019","02","07","17:00","-29.0","","-32.1","","75","","","","36","","13","","24.1","","101.31","","","","-39","","Mainly Clear"
"-114.44","62.46","YELLOWKNIFE A","2204101","2019-02-07 18:00","2019","02","07","18:00","-30.6","","-34.0","","73","","","","1","","10","","24.1","","101.34","","","","-40","","NA"
"-114.44","62.46","YELLOWKNIFE A","2204101","2019-02-07 19:00","2019","02","07","19:00","-29.7","","-32.9","","74","","","","3","","12","","24.1","","101.37","","","","-40","","Snow"
"-114.44","62.46","YELLOWKNIFE A","2204101","2019-02-07 20:00","2019","02","07","20:00","-30.4","","-33.6","","74","","","","1","","8","","16.1","","101.42","","","","-38","","Snow"
"-114.44","62.46","YELLOWKNIFE A","2204101","2019-02-07 21:00","2019","02","07","21:00","-31.2","","-34.5","","73","","","","1","","5","","24.1","","101.47","","","","-37","","Snow"
"-114.44","62.46","YELLOWKNIFE A","2204101","2019-02-07 22:00","2019","02","07","22:00","-31.9","","-35.3","","73","","","","1","","8","","24.1","","101.53","","","","-40","","NA"
"-114.44","62.46","YELLOWKNIFE A","2204101","2019-02-07 23:00","2019","02","07","23:00","-33.5","","-37.0","","72","","","","36","","10","","24.1","","101.56","","","","-43","","Clear"
"-114.44","62.46","YELLOWKNIFE A","2204101","2019-02-08 00:00","2019","02","08","00:00","-33.1","","-36.5","","72","","","","35","","8","","24.1","","101.57","","","","-42","","NA"
"-114.44","62.46","YELLOWKNIFE A","2204101","2019-02-08 01:00","2019","02","08","01:00","-32.9","","-36.3","","72","","","","33","","7","","24.1","","101.62","","","","-41","","NA"
"-114.44","62.46","YELLOWKNIFE A","2204101","2019-02-08 02:00","2019","02","08","02:00","-34.9","","-38.5","","71","","","","31","","10","","24.1","","101.68","","","","-45","","Clear"
"-114.44","62.46","YELLOWKNIFE A","2204101","2019-02-08 03:00","2019","02","08","03:00","-35.5","","-39.1","","71","","","","33","","8","","24.1","","101.71","","","","-44","","NA"
"-114.44","62.46","YELLOWKNIFE A","2204101","2019-02-08 04:00","2019","02","08","04:00","-36.0","","-39.6","","70","","","","32","","9","","24.1","","101.74","","","","-46","","NA"
"-114.44","62.46","YELLOWKNIFE A","2204101","2019-02-08 05:00","2019","02","08","05:00","-37.0","","-40.7","","69","","","","31","","12","","24.1","","101.75","","","","-49","","Clear"
"-114.44","62.46","YELLOWKNIFE A","2204101","2019-02-08 06:00","2019","02","08","06:00","-37.1","","-40.8","","69","","","","32","","12","","24.1","","101.76","","","","-49","","NA"
"-114.44","62.46","YELLOWKNIFE A","2204101","2019-02-08 07:00","2019","02","08","07:00","-37.6","","-41.3","","69","","","","31","","9","","24.1","","101.78","","","","-48","","Ice Crystals"
"-114.44","62.46","YELLOWKNIFE A","2204101","2019-02-08 08:00","2019","02","08","08:00","-37.2","","-40.9","","69","","","","32","","11","","24.1","","101.79","","","","-48","","Clear"
"-114.44","62.46","YELLOWKNIFE A","2204101","2019-02-08 09:00","2019","02","08","09:00","-38.1","","-41.9","","69","","","","31","","11","","24.1","","101.84","","","","-49","","NA"
"-114.44","62.46","YELLOWKNIFE A","2204101","2019-02-08 10:00","2019","02","08","10:00","-36.5","","-40.2","","69","","","","31","","9","","24.1","","101.84","","","","-46","","NA"
"-114.44","62.46","YELLOWKNIFE A","2204101","2019-02-08 11:00","2019","02","08","11:00","-34.1","","-37.7","","71","","","","30","","9","","24.1","","101.85","","","","-43","","Clear"
"-114.44","62.46","YELLOWKNIFE A","2204101","2019-02-08 12:00","2019","02","08","12:00","-31.8","","-35.2","","72","","","","30","","13","","24.1","","101.86","","","","-43","","NA"
"-114.44","62.46","YELLOWKNIFE A","2204101","2019-02-08 13:00","2019","02","08","13:00","-30.1","","-33.5","","73","","","","30","","10","","24.1","","101.85","","","","-39","","NA"
"-114.44","62.46","YELLOWKNIFE A","2204101","2019-02-08 14:00","2019","02","08","14:00","-28.2","","-31.5","","74","","","","28","","12","","24.1","","101.85","","","","-38","","Clear"
"-114.44","62.46","YELLOWKNIFE A","2204101","2019-02-08 15:00","2019","02","08","15:00","-27.6","","-30.9","","75","","","","29","","11","","24.1","","101.85","","","","-37","","NA"
"-114.44","62.46","YELLOWKNIFE A","2204101","2019-02-08 16:00","2019","02","08","16:00","-27.2","","-30.3","","75","","","","29","","10","","24.1","","101.88","","","","-36","","NA"
"-114.44","62.46","YELLOWKNIFE A","2204101","2019-02-08 17:00","2019","02","08","17:00","-28.3","","-31.5","","75","","","","25","","7","","24.1","","101.86","","","","-35","","Clear"
"-114.44","62.46","YELLOWKNIFE A","2204101","2019-02-08 18:00","2019","02","08","18:00","-30.1","","-33.4","","74","","","","26","","11","","24.1","","101.85","","","","-40","","NA"
"-114.44","62.46","YELLOWKNIFE A","2204101","2019-02-08 19:00","2019","02","08","19:00","-30.4","","-33.6","","74","","","","29","","10","","24.1","","101.80","","","","-40","","NA"
"-114.44","62.46","YELLOWKNIFE A","2204101","2019-02-08 20:00","2019","02","08","20:00","-31.5","","-34.8","","73","","","","23","","6","","24.1","","101.73","","","","-38","","Clear"
"-114.44","62.46","YELLOWKNIFE A","2204101","2019-02-08 21:00","2019","02","08","21:00","-31.6","","-34.8","","74","","","","25","","7","","24.1","","101.74","","","","-39","","NA"
"-114.44","62.46","YELLOWKNIFE A","2204101","2019-02-08 22:00","2019","02","08","22:00","-31.8","","-35.1","","73","","","","23","","8","","24.1","","101.68","","","","-40","","NA"
"-114.44","62.46","YELLOWKNIFE A","2204101","2019-02-08 23:00","2019","02","08","23:00","-32.3","","-35.7","","73","","","","19","","10","","24.1","","101.62","","","","-42","","Clear"
"-114.44","62.46","YELLOWKNIFE A","2204101","2019-02-09 00:00","2019","02","09","00:00","-34.2","","-37.8","","71","","","","18","","9","","24.1","","101.54","","","","-44","","NA"
"-114.44","62.46","YELLOWKNIFE A","2204101","2019-02-09 01:00","2019","02","09","01:00","-32.8","","-36.3","","72","","","","18","","13","","24.1","","101.48","","","","-44","","NA"
"-114.44","62.46","YELLOWKNIFE A","2204101","2019-02-09 02:00","2019","02","09","02:00","-33.5","","-36.9","","72","","","","17","","13","","24.1","","101.43","","","","-45","","Clear"
"-114.44","62.46","YELLOWKNIFE A","2204101","2019-02-09 03:00","2019","02","09","03:00","-33.8","","-37.3","","71","","","","16","","16","","24.1","","101.30","","","","-46","","NA"
"-114.44","62.46","YELLOWKNIFE A","2204101","2019-02-09 04:00","2019","02","09","04:00","-32.4","","-35.9","","72","","","","16","","18","","24.1","","101.19","","","","-45","","NA"
"-114.44","62.46","YELLOWKNIFE A","2204101","2019-02-09 05:00","2019","02","09","05:00","-31.8","","-35.2","","73","","","","17","","18","","24.1","","101.06","","","","-45","","Clear"
"-114.44","62.46","YELLOWKNIFE A","2204101","2019-02-09 06:00","2019","02","09","06:00","-31.8","","-35.2","","73","","","","16","","17","","24.1","","100.97","","","","-44","","NA"
"-114.44","62.46","YELLOWKNIFE A","2204101","2019-02-09 07:00","2019","02","09","07:00","-30.8","","-34.1","","73","","","","16","","20","","24.1","","100.86","","","","-44","","Ice Crystals"
"-114.44","62.46","YELLOWKNIFE A","2204101","2019-02-09 08:00","2019","02","09","08:00","-29.4","","-32.6","","74","","","","16","","25","","24.1","","100.66","","","","-44","","Mostly Cloudy"
"-114.44","62.46","YELLOWKNIFE A","2204101","2019-02-09 09:00","2019","02","09","09:00","-27.5","","-30.6","","75","","","","17","","27","","24.1","","100.43","","","","-42","","NA"
"-114.44","62.46","YELLOWKNIFE A","2204101","2019-02-09 10:00","2019","02","09","10:00","-26.5","","-29.5","","76","","","","17","","23","","24.1","","100.33","","","","-39","","NA"
"-114.44","62.46","YELLOWKNIFE A","2204101","2019-02-09 11:00","2019","02","09","11:00","-24.9","","-27.8","","77","","","","17","","24","","24.1","","100.19","","","","-38","","Blowing Snow"
"-114.44","62.46","YELLOWKNIFE A","2204101","2019-02-09 12:00","2019","02","09","12:00","-24.2","","-27.0","","78","","","","17","","21","","24.1","","100.08","","","","-36","","Snow,Blowing Snow"
"-114.44","62.46","YELLOWKNIFE A","2204101","2019-02-09 13:00","2019","02","09","13:00","-22.9","","-25.7","","78","","","","17","","25","","24.1","","99.95","","","","-35","","Snow,Blowing Snow"
"-114.44","62.46","YELLOWKNIFE A","2204101","2019-02-09 14:00","2019","02","09","14:00","-21.6","","-24.2","","79","","","","17","","31","","24.1","","99.78","","","","-35","","Snow,Blowing Snow"
"-114.44","62.46","YELLOWKNIFE A","2204101","2019-02-09 15:00","2019","02","09","15:00","-20.6","","-23.3","","79","","","","18","","22","","24.1","","99.71","","","","-32","","Snow,Blowing Snow"
"-114.44","62.46","YELLOWKNIFE A","2204101","2019-02-09 16:00","2019","02","09","16:00","-19.9","","-22.7","","79","","","","18","","23","","24.1","","99.60","","","","-31","","Snow,Blowing Snow"
"-114.44","62.46","YELLOWKNIFE A","2204101","2019-02-09 17:00","2019","02","09","17:00","-19.0","","-22.4","","75","","","","18","","17","","24.1","","99.58","","","","-28","","Snow,Blowing Snow"
"-114.44","62.46","YELLOWKNIFE A","2204101","2019-02-09 18:00","2019","02","09","18:00","-18.6","","-21.6","","77","","","","19","","13","","2.4","","99.52","","","","-27","","Snow,Blowing Snow"
"-114.44","62.46","YELLOWKNIFE A","2204101","2019-02-09 19:00","2019","02","09","19:00","-18.5","","-21.1","","80","","","","19","","10","","2.4","","99.50","","","","-25","","Snow"
"-114.44","62.46","YELLOWKNIFE A","2204101","2019-02-09 20:00","2019","02","09","20:00","-18.3","","-20.8","","81","","","","18","","9","","3.2","","99.52","","","","-25","","Snow"
"-114.44","62.46","YELLOWKNIFE A","2204101","2019-02-09 21:00","2019","02","09","21:00","-18.3","","-20.7","","82","","","","36","","1","","4.8","","99.58","","","","-19","","Snow"
"-114.44","62.46","YELLOWKNIFE A","2204101","2019-02-09 22:00","2019","02","09","22:00","-18.7","","-20.9","","83","","","","1","","5","","6.4","","99.64","","","","-23","","Snow"
"-114.44","62.46","YELLOWKNIFE A","2204101","2019-02-09 23:00","2019","02","09","23:00","-18.6","","-21.0","","81","","","","36","","11","","6.4","","99.71","","","","-26","","Snow"
"-114.44","62.46","YELLOWKNIFE A","2204101","2019-02-10 00:00","2019","02","10","00:00","-18.7","","-21.4","","80","","","","36","","10","","24.1","","99.78","","","","-26","","Snow"
"-114.44","62.46","YELLOWKNIFE A","2204101","2019-02-10 01:00","2019","02","10","01:00","-18.4","","-21.4","","78","","","","34","","10","","24.1","","99.82","","","","-25","","Snow"
"-114.44","62.46","YELLOWKNIFE A","2204101","2019-02-10 02:00","2019","02","10","02:00","-18.0","","-21.3","","76","","","","32","","11","","24.1","","99.86","","","","-25","","Snow"
"-114.44","62.46","YELLOWKNIFE A","2204101","2019-02-10 03:00","2019","02","10","03:00","-17.8","","-20.9","","77","","","","32","","10","","24.1","","99.89","","","","-25","","Snow"
"-114.44","62.46","YELLOWKNIFE A","2204101","2019-02-10 04:00","2019","02","10","04:00","-17.6","","-20.2","","80","","","","28","","6","","24.1","","99.89","","","","-22","","Snow"
"-114.44","62.46","YELLOWKNIFE A","2204101","2019-02-10 05:00","2019","02","10","05:00","-17.3","","-18.9","","87","","","","28","","7","","6.4","","99.86","","","","-23","","Snow"
"-114.44","62.46","YELLOWKNIFE A","2204101","2019-02-10 06:00","2019","02","10","06:00","-16.9","","-18.9","","85","","","","27","","10","","24.1","","99.84","","","","-24","","Snow"
"-114.44","62.46","YELLOWKNIFE A","2204101","2019-02-10 07:00","2019","02","10","07:00","-18.1","","-20.1","","84","","","","26","","8","","24.1","","99.80","","","","-24","","Snow"
"-114.44","62.46","YELLOWKNIFE A","2204101","2019-02-10 08:00","2019","02","10","08:00","-17.6","","-19.7","","84","","","","27","","8","","24.1","","99.76","","","","-23","","Snow"
"-114.44","62.46","YELLOWKNIFE A","2204101","2019-02-10 09:00","2019","02","10","09:00","-16.7","","-18.6","","85","","","","25","","8","","24.1","","99.71","","","","-22","","Snow"
"-114.44","62.46","YELLOWKNIFE A","2204101","2019-02-10 10:00","2019","02","10","10:00","-15.5","","-17.4","","85","","","","28","","12","","24.1","","99.68","","","","-23","","Snow"
"-114.44","62.46","YELLOWKNIFE A","2204101","2019-02-10 11:00","2019","02","10","11:00","-14.3","","-16.1","","86","","","","29","","12","","24.1","","99.65","","","","-21","","Snow"
"-114.44","62.46","YELLOWKNIFE A","2204101","2019-02-10 12:00","2019","02","10","12:00","-13.0","","-15.0","","85","","","","32","","11","","24.1","","99.63","","","","-19","","Snow"
"-114.44","62.46","YELLOWKNIFE A","2204101","2019-02-10 13:00","2019","02","10","13:00","-12.6","","-15.1","","82","","","","31","","16","","24.1","","99.58","","","","-20","","Snow"
"-114.44","62.46","YELLOWKNIFE A","2204101","2019-02-10 14:00","2019","02","10","14:00","-12.5","","-15.2","","81","","","","31","","14","","24.1","","99.51","","","","-20","","Snow"
"-114.44","62.46","YELLOWKNIFE A","2204101","2019-02-10 15:00","2019","02","10","15:00","-13.2","","-15.5","","83","","","","30","","16","","24.1","","99.49","","","","-21","","Snow"
"-114.44","62.46","YELLOWKNIFE A","2204101","2019-02-10 16:00","2019","02","10","16:00","-13.6","","-16.2","","81","","","","31","","12","","24.1","","99.47","","","","-20","","Snow"
"-114.44","62.46","YELLOWKNIFE A","2204101","2019-02-10 17:00","2019","02","10","17:00","-14.1","","-16.8","","81","","","","31","","13","","24.1","","99.45","","","","-21","","Mostly Cloudy"
"-114.44","62.46","YELLOWKNIFE A","2204101","2019-02-10 18:00","2019","02","10","18:00","-14.3","","-17.0","","81","","","","33","","15","","24.1","","99.42","","","","-22","","Snow"
"-114.44","62.46","YELLOWKNIFE A","2204101","2019-02-10 19:00","2019","02","10","19:00","-14.3","","-17.0","","81","","","","32","","5","","24.1","","99.41","","","","-18","","Snow"
"-114.44","62.46","YELLOWKNIFE A","2204101","2019-02-10 20:00","2019","02","10","20:00","-14.5","","-16.9","","83","","","","25","","4","","24.1","","99.39","","","","-17","","Snow"
"-114.44","62.46","YELLOWKNIFE A","2204101","2019-02-10 21:00","2019","02","10","21:00","-14.4","","-16.7","","83","","","","34","","5","","24.1","","99.35","","","","-18","","Snow"
"-114.44","62.46","YELLOWKNIFE A","2204101","2019-02-10 22:00","2019","02","10","22:00","-14.0","","-16.7","","80","","","","35","","3","","24.1","","99.31","","","","-16","","Snow"
"-114.44","62.46","YELLOWKNIFE A","2204101","2019-02-10 23:00","2019","02","10","23:00","-14.3","","-16.7","","82","","","","28","","3","","24.1","","99.33","","","","-16","","Snow"
"-114.44","62.46","YELLOWKNIFE A","2204101","2019-02-11 00:00","2019","02","11","00:00","-13.8","","-16.6","","80","","","","36","","1","","24.1","","99.33","","","","-14","","Snow"
"-114.44","62.46","YELLOWKNIFE A","2204101","2019-02-11 01:00","2019","02","11","01:00","-14.8","","-16.8","","85","","","","26","","4","","24.1","","99.35","","","","-18","","Snow"
"-114.44","62.46","YELLOWKNIFE A","2204101","2019-02-11 02:00","2019","02","11","02:00","-14.7","","-16.8","","84","","","","28","","3","","24.1","","99.38","","","","-17","","Snow"
"-114.44","62.46","YELLOWKNIFE A","2204101","2019-02-11 03:00","2019","02","11","03:00","-16.0","","-17.9","","85","","","","4","","8","","9.7","","99.41","","","","-22","","Snow"
"-114.44","62.46","YELLOWKNIFE A","2204101","2019-02-11 04:00","2019","02","11","04:00","-16.0","","-18.0","","85","","","","5","","8","","16.1","","99.43","","","","-22","","Snow"
"-114.44","62.46","YELLOWKNIFE A","2204101","2019-02-11 05:00","2019","02","11","05:00","-16.7","","-18.8","","84","","","","6","","8","","16.1","","99.44","","","","-22","","Snow"
"-114.44","62.46","YELLOWKNIFE A","2204101","2019-02-11 06:00","2019","02","11","06:00","-17.2","","-19.2","","84","","","","5","","11","","16.1","","99.48","","","","-24","","Snow"
"-114.44","62.46","YELLOWKNIFE A","2204101","2019-02-11 07:00","2019","02","11","07:00","-18.0","","-20.1","","84","","","","7","","7","","24.1","","99.53","","","","-23","","Snow"
"-114.44","62.46","YELLOWKNIFE A","2204101","2019-02-11 08:00","2019","02","11","08:00","-18.7","","-20.7","","84","","","","5","","9","","24.1","","99.58","","","","-25","","Snow"
"-114.44","62.46","YELLOWKNIFE A","2204101","2019-02-11 09:00","2019","02","11","09:00","-18.5","","-20.7","","83","","","","8","","8","","24.1","","99.66","","","","-24","","Snow"
"-114.44","62.46","YELLOWKNIFE A","2204101","2019-02-11 10:00","2019","02","11","10:00","-18.3","","-20.4","","84","","","","5","","14","","24.1","","99.75","","","","-27","","Snow"
"-114.44","62.46","YELLOWKNIFE A","2204101","2019-02-11 11:00","2019","02","11","11:00","-17.2","","-19.3","","84","","","","4","","5","","24.1","","99.79","","","","-21","","Snow"
"-114.44","62.46","YELLOWKNIFE A","2204101","2019-02-11 12:00","2019","02","11","12:00","-16.9","","-19.0","","84","","","","3","","11","","24.1","","99.86","","","","-24","","Snow"
"-114.44","62.46","YELLOWKNIFE A","2204101","2019-02-11 13:00","2019","02","11","13:00","-16.0","","-18.1","","84","","","","6","","9","","24.1","","99.92","","","","-22","","Snow"
"-114.44","62.46","YELLOWKNIFE A","2204101","2019-02-11 14:00","2019","02","11","14:00","-15.3","","-17.8","","81","","","","5","","7","","24.1","","99.95","","","","-20","","Snow"
"-114.44","62.46","YELLOWKNIFE A","2204101","2019-02-11 15:00","2019","02","11","15:00","-15.2","","-18.0","","79","","","","13","","5","","8.1","","100.01","","","","-19","","Snow"
"-114.44","62.46","YELLOWKNIFE A","2204101","2019-02-11 16:00","2019","02","11","16:00","-16.5","","-18.7","","83","","","","36","","8","","24.1","","100.03","","","","-22","","Snow,Ice Crystals"
"-114.44","62.46","YELLOWKNIFE A","2204101","2019-02-11 17:00","2019","02","11","17:00","-16.0","","-18.4","","81","","","","3","","7","","24.1","","100.10","","","","-21","","Snow"
"-114.44","62.46","YELLOWKNIFE A","2204101","2019-02-11 18:00","2019","02","11","18:00","-16.1","","-18.6","","82","","","","32","","5","","24.1","","100.13","","","","-20","","Snow"
"-114.44","62.46","YELLOWKNIFE A","2204101","2019-02-11 19:00","2019","02","11","19:00","-16.2","","-18.4","","83","","","","36","","2","","24.1","","100.18","","","","-18","","Snow"
"-114.44","62.46","YELLOWKNIFE A","2204101","2019-02-11 20:00","2019","02","11","20:00","-16.6","","-18.7","","84","","","","29","","6","","24.1","","100.19","","","","-21","","Snow"
"-114.44","62.46","YELLOWKNIFE A","2204101","2019-02-11 21:00","2019","02","11","21:00","-18.4","","-20.6","","83","","","","28","","4","","24.1","","100.20","","","","-22","","Snow,Ice Crystals"
"-114.44","62.46","YELLOWKNIFE A","2204101","2019-02-11 22:00","2019","02","11","22:00","-17.2","","-19.0","","86","","","","27","","4","","24.1","","100.20","","","","-20","","Snow"
"-114.44","62.46","YELLOWKNIFE A","2204101","2019-02-11 23:00","2019","02","11","23:00","-17.4","","-19.2","","87","","","","28","","9","","24.1","","100.23","","","","-24","","Snow"
"-114.44","62.46","YELLOWKNIFE A","2204101","2019-02-12 00:00","2019","02","12","00:00","-17.7","","-19.5","","86","","","","27","","6","","24.1","","100.24","","","","-22","","Snow"
"-114.44","62.46","YELLOWKNIFE A","2204101","2019-02-12 01:00","2019","02","12","01:00","-18.2","","-20.1","","85","","","","29","","10","","24.1","","100.20","","","","-25","","Snow"
"-114.44","62.46","YELLOWKNIFE A","2204101","2019-02-12 02:00","2019","02","12","02:00","-18.5","","-20.5","","84","","","","19","","3","","2.4","","100.17","","","","-21","","Snow,Fog"
"-114.44","62.46","YELLOWKNIFE A","2204101","2019-02-12 03:00","2019","02","12","03:00","-18.2","","-20.3","","84","","","","24","","5","","3.2","","100.16","","","","-22","","Snow,Fog"
"-114.44","62.46","YELLOWKNIFE A","2204101","2019-02-12 04:00","2019","02","12","04:00","-17.9","","-20.0","","84","","","","18","","6","","2.4","","100.13","","","","-23","","Snow,Fog"
"-114.44","62.46","YELLOWKNIFE A","2204101","2019-02-12 05:00","2019","02","12","05:00","-17.9","","-20.0","","83","","","","21","","7","","2.4","","100.11","","","","-23","","Snow,Fog"
"-114.44","62.46","YELLOWKNIFE A","2204101","2019-02-12 06:00","2019","02","12","06:00","-17.7","","-19.8","","84","","","","20","","9","","2.4","","100.05","","","","-24","","Snow,Fog"
"-114.44","62.46","YELLOWKNIFE A","2204101","2019-02-12 07:00","2019","02","12","07:00","-17.5","","-19.6","","84","","","","21","","5","","2.4","","100.00","","","","-21","","Snow,Fog"
"-114.44","62.46","YELLOWKNIFE A","2204101","2019-02-12 08:00","2019","02","12","08:00","-17.0","","-19.1","","84","","","","18","","10","","3.6","","99.92","","","","-24","","Snow,Fog"
"-114.44","62.46","YELLOWKNIFE A","2204101","2019-02-12 09:00","2019","02","12","09:00","-17.0","","-19.1","","84","","","","19","","16","","4.8","","99.88","","","","-26","","Snow,Fog"
"-114.44","62.46","YELLOWKNIFE A","2204101","2019-02-12 10:00","2019","02","12","10:00","-17.1","","-19.2","","84","","","","18","","16","","4.8","","99.81","","","","-26","","Snow,Fog"
"-114.44","62.46","YELLOWKNIFE A","2204101","2019-02-12 11:00","2019","02","12","11:00","-17.5","","-19.7","","84","","","","18","","21","","2.8","","99.76","","","","-28","","Snow,Fog,Blowing Snow"
"-114.44","62.46","YELLOWKNIFE A","2204101","2019-02-12 12:00","2019","02","12","12:00","-17.9","","-20.1","","83","","","","17","","22","","4.0","","99.68","","","","-28","","Snow,Fog,Blowing Snow"
"-114.44","62.46","YELLOWKNIFE A","2204101","2019-02-12 13:00","2019","02","12","13:00","-19.3","","-21.6","","82","","","","15","","30","","3.2","","99.61","","","","-32","","Snow,Fog,Blowing Snow"
"-114.44","62.46","YELLOWKNIFE A","2204101","2019-02-12 14:00","2019","02","12","14:00","-21.4","","-24.0","","80","","","","16","","22","","4.8","","99.53","","","","-33","","Snow,Fog,Blowing Snow"
"-114.44","62.46","YELLOWKNIFE A","2204101","2019-02-12 15:00","2019","02","12","15:00","-22.8","","-25.4","","80","","","","15","","21","","4.8","","99.44","","","","-34","","Snow,Fog,Blowing Snow"
"-114.44","62.46","YELLOWKNIFE A","2204101","2019-02-12 16:00","2019","02","12","16:00","-23.2","","-25.9","","79","","","","14","","20","","9.7","","99.37","","","","-35","","Fog,Blowing Snow"
"-114.44","62.46","YELLOWKNIFE A","2204101","2019-02-12 17:00","2019","02","12","17:00","-23.6","","-26.3","","79","","","","16","","25","","12.9","","99.31","","","","-36","","Blowing Snow"
"-114.44","62.46","YELLOWKNIFE A","2204101","2019-02-12 18:00","2019","02","12","18:00","-23.7","","-26.4","","79","","","","16","","16","","24.1","","99.27","","","","-34","","NA"
"-114.44","62.46","YELLOWKNIFE A","2204101","2019-02-12 19:00","2019","02","12","19:00","-22.6","","-25.2","","80","","","","15","","23","","24.1","","99.19","","","","-35","","NA"
"-114.44","62.46","YELLOWKNIFE A","2204101","2019-02-12 20:00","2019","02","12","20:00","-21.7","","-24.2","","80","","","","15","","22","","9.7","","99.10","","","","-33","","Snow"
"-114.44","62.46","YELLOWKNIFE A","2204101","2019-02-12 21:00","2019","02","12","21:00","-21.6","","-24.2","","80","","","","16","","27","","8.1","","98.99","","","","-34","","Snow,Blowing Snow"
"-114.44","62.46","YELLOWKNIFE A","2204101","2019-02-12 22:00","2019","02","12","22:00","-22.3","","-24.9","","80","","","","16","","23","","9.7","","98.89","","","","-34","","Snow,Blowing Snow"
"-114.44","62.46","YELLOWKNIFE A","2204101","2019-02-12 23:00","2019","02","12","23:00","-23.0","","-25.6","","79","","","","15","","22","","9.7","","98.82","","","","-35","","Snow,Blowing Snow"
"-114.44","62.46","YELLOWKNIFE A","2204101","2019-02-13 00:00","2019","02","13","00:00","-22.9","","-25.6","","79","","","","16","","22","","4.8","","98.74","","","","-35","","Snow,Fog"
"-114.44","62.46","YELLOWKNIFE A","2204101","2019-02-13 01:00","2019","02","13","01:00","-23.0","","-25.7","","79","","","","15","","22","","4.8","","98.67","","","","-35","","Snow,Fog"
"-114.44","62.46","YELLOWKNIFE A","2204101","2019-02-13 02:00","2019","02","13","02:00","-23.2","","-25.9","","79","","","","15","","19","","6.4","","98.62","","","","-34","","Snow,Fog"
"-114.44","62.46","YELLOWKNIFE A","2204101","2019-02-13 03:00","2019","02","13","03:00","-23.6","","-26.4","","79","","","","14","","18","","24.1","","98.57","","","","-34","","Snow"
"-114.44","62.46","YELLOWKNIFE A","2204101","2019-02-13 04:00","2019","02","13","04:00","-23.7","","-26.4","","79","","","","15","","25","","24.1","","98.51","","","","-36","","NA"
"-114.44","62.46","YELLOWKNIFE A","2204101","2019-02-13 05:00","2019","02","13","05:00","-23.7","","-26.4","","79","","","","14","","24","","24.1","","98.46","","","","-36","","Clear"
"-114.44","62.46","YELLOWKNIFE A","2204101","2019-02-13 06:00","2019","02","13","06:00","-23.8","","-26.6","","79","","","","15","","21","","24.1","","98.44","","","","-36","","NA"
"-114.44","62.46","YELLOWKNIFE A","2204101","2019-02-13 07:00","2019","02","13","07:00","-24.1","","-26.9","","79","","","","15","","21","","9.7","","98.41","","","","-36","","Ice Crystals"
"-114.44","62.46","YELLOWKNIFE A","2204101","2019-02-13 08:00","2019","02","13","08:00","-24.3","","-27.0","","78","","","","15","","20","","4.8","","98.40","","","","-36","","Ice Crystals,Fog"
"-114.44","62.46","YELLOWKNIFE A","2204101","2019-02-13 09:00","2019","02","13","09:00","-24.2","","-27.0","","78","","","","15","","23","","8.1","","98.36","","","","-37","","Ice Crystals,Fog"
"-114.44","62.46","YELLOWKNIFE A","2204101","2019-02-13 10:00","2019","02","13","10:00","-24.3","","-27.0","","78","","","","15","","21","","16.1","","98.34","","","","-36","","NA"
"-114.44","62.46","YELLOWKNIFE A","2204101","2019-02-13 11:00","2019","02","13","11:00","-23.4","","-26.1","","79","","","","15","","20","","24.1","","98.33","","","","-35","","Mainly Clear"
"-114.44","62.46","YELLOWKNIFE A","2204101","2019-02-13 12:00","2019","02","13","12:00","-23.0","","-25.7","","79","","","","15","","18","","24.1","","98.35","","","","-34","","NA"
"-114.44","62.46","YELLOWKNIFE A","2204101","2019-02-13 13:00","2019","02","13","13:00","-22.9","","-25.6","","79","","","","15","","22","","24.1","","98.32","","","","-35","","NA"
"-114.44","62.46","YELLOWKNIFE A","2204101","2019-02-13 14:00","2019","02","13","14:00","-22.4","","-25.0","","80","","","","15","","16","","24.1","","98.29","","","","-32","","Mainly Clear"
"-114.44","62.46","YELLOWKNIFE A","2204101","2019-02-13 15:00","2019","02","13","15:00","-21.9","","-24.4","","80","","","","16","","16","","24.1","","98.30","","","","-32","","NA"
"-114.44","62.46","YELLOWKNIFE A","2204101","2019-02-13 16:00","2019","02","13","16:00","-21.1","","-23.7","","80","","","","16","","17","","24.1","","98.31","","","","-31","","NA"
"-114.44","62.46","YELLOWKNIFE A","2204101","2019-02-13 17:00","2019","02","13","17:00","-21.1","","-23.6","","81","","","","14","","14","","24.1","","98.34","","","","-30","","Mainly Clear"
"-114.44","62.46","YELLOWKNIFE A","2204101","2019-02-13 18:00","2019","02","13","18:00","-22.5","","-25.2","","79","","","","15","","10","","24.1","","98.38","","","","-30","","NA"
"-114.44","62.46","YELLOWKNIFE A","2204101","2019-02-13 19:00","2019","02","13","19:00","-23.8","","-26.6","","78","","","","11","","9","","24.1","","98.41","","","","-31","","NA"
"-114.44","62.46","YELLOWKNIFE A","2204101","2019-02-13 20:00","2019","02","13","20:00","-22.9","","-25.5","","79","","","","12","","11","","24.1","","98.44","","","","-31","","Mainly Clear"
"-114.44","62.46","YELLOWKNIFE A","2204101","2019-02-13 21:00","2019","02","13","21:00","-23.4","","-26.1","","79","","","","12","","11","","24.1","","98.47","","","","-32","","NA"
"-114.44","62.46","YELLOWKNIFE A","2204101","2019-02-13 22:00","2019","02","13","22:00","-24.1","","-26.9","","78","","","","12","","10","","24.1","","98.51","","","","-32","","NA"
"-114.44","62.46","YELLOWKNIFE A","2204101","2019-02-13 23:00","2019","02","13","23:00","-24.2","","-27.0","","78","","","","11","","8","","24.1","","98.53","","","","-31","","Mainly Clear"
"-114.44","62.46","YELLOWKNIFE A","2204101","2019-02-14 00:00","2019","02","14","00:00","-24.7","","-27.5","","78","","","","7","","5","","24.1","","98.60","","","","-30","","NA"
"-114.44","62.46","YELLOWKNIFE A","2204101","2019-02-14 01:00","2019","02","14","01:00","-24.8","","-27.6","","78","","","","8","","5","","24.1","","98.66","","","","-30","","NA"
"-114.44","62.46","YELLOWKNIFE A","2204101","2019-02-14 02:00","2019","02","14","02:00","-24.3","","-27.0","","79","","","","7","","8","","24.1","","98.69","","","","-31","","Mostly Cloudy"
"-114.44","62.46","YELLOWKNIFE A","2204101","2019-02-14 03:00","2019","02","14","03:00","-24.5","","-27.3","","78","","","","5","","9","","24.1","","98.75","","","","-32","","NA"
"-114.44","62.46","YELLOWKNIFE A","2204101","2019-02-14 04:00","2019","02","14","04:00","-25.1","","-28.0","","77","","","","34","","7","","24.1","","98.82","","","","-32","","NA"
"-114.44","62.46","YELLOWKNIFE A","2204101","2019-02-14 05:00","2019","02","14","05:00","-25.7","","-28.6","","77","","","","3","","8","","24.1","","98.87","","","","-33","","Mostly Cloudy"
"-114.44","62.46","YELLOWKNIFE A","2204101","2019-02-14 06:00","2019","02","14","06:00","-26.2","","-29.1","","77","","","","3","","7","","24.1","","98.95","","","","-33","","NA"
"-114.44","62.46","YELLOWKNIFE A","2204101","2019-02-14 07:00","2019","02","14","07:00","-27.9","","-30.9","","76","","","","36","","8","","24.1","","98.99","","","","-36","","NA"
"-114.44","62.46","YELLOWKNIFE A","2204101","2019-02-14 08:00","2019","02","14","08:00","-28.3","","-31.3","","76","","","","36","","7","","24.1","","99.08","","","","-35","","Mainly Clear"
"-114.44","62.46","YELLOWKNIFE A","2204101","2019-02-14 09:00","2019","02","14","09:00","-28.4","","-31.5","","75","","","","32","","8","","24.1","","99.14","","","","-36","","NA"
"-114.44","62.46","YELLOWKNIFE A","2204101","2019-02-14 10:00","2019","02","14","10:00","-27.1","","-30.1","","76","","","","33","","10","","24.1","","99.20","","","","-36","","NA"
"-114.44","62.46","YELLOWKNIFE A","2204101","2019-02-14 11:00","2019","02","14","11:00","-23.1","","-25.7","","79","","","","32","","13","","24.1","","99.27","","","","-32","","Mostly Cloudy"
"-114.44","62.46","YELLOWKNIFE A","2204101","2019-02-14 12:00","2019","02","14","12:00","-21.7","","-24.2","","80","","","","36","","10","","24.1","","99.28","","","","-29","","NA"
"-114.44","62.46","YELLOWKNIFE A","2204101","2019-02-14 13:00","2019","02","14","13:00","-20.0","","-22.4","","81","","","","32","","16","","24.1","","99.33","","","","-29","","NA"
"-114.44","62.46","YELLOWKNIFE A","2204101","2019-02-14 14:00","2019","02","14","14:00","-20.9","","-23.4","","80","","","","32","","16","","24.1","","99.40","","","","-31","","Mainly Clear"
"-114.44","62.46","YELLOWKNIFE A","2204101","2019-02-14 15:00","2019","02","14","15:00","-19.3","","-21.6","","82","","","","34","","18","","24.1","","99.45","","","","-29","","NA"
"-114.44","62.46","YELLOWKNIFE A","2204101","2019-02-14 16:00","2019","02","14","16:00","-19.5","","-21.8","","82","","","","32","","12","","24.1","","99.51","","","","-27","","NA"
"-114.44","62.46","YELLOWKNIFE A","2204101","2019-02-14 17:00","2019","02","14","17:00","-19.9","","-22.3","","81","","","","33","","14","","24.1","","99.55","","","","-29","","Mainly Clear"
"-114.44","62.46","YELLOWKNIFE A","2204101","2019-02-14 18:00","2019","02","14","18:00","-20.9","","-23.5","","81","","","","32","","16","","24.1","","99.60","","","","-31","","NA"
"-114.44","62.46","YELLOWKNIFE A","2204101","2019-02-14 19:00","2019","02","14","19:00","-20.8","","-23.2","","81","","","","34","","19","","24.1","","99.61","","","","-31","","NA"
"-114.44","62.46","YELLOWKNIFE A","2204101","2019-02-14 20:00","2019","02","14","20:00","-20.2","","-22.6","","81","","","","34","","18","","24.1","","99.66","","","","-30","","Clear"
"-114.44","62.46","YELLOWKNIFE A","2204101","2019-02-14 21:00","2019","02","14","21:00","-20.4","","-22.8","","81","","","","34","","18","","24.1","","99.73","","","","-30","","NA"
"-114.44","62.46","YELLOWKNIFE A","2204101","2019-02-14 22:00","2019","02","14","22:00","-20.9","","-23.4","","81","","","","34","","15","","24.1","","99.80","","","","-30","","NA"
"-114.44","62.46","YELLOWKNIFE A","2204101","2019-02-14 23:00","2019","02","14","23:00","-21.3","","-23.9","","80","","","","35","","19","","24.1","","99.80","","","","-32","","Clear"
"-114.44","62.46","YELLOWKNIFE A","2204101","2019-02-15 00:00","2019","02","15","00:00","-22.0","","-24.6","","80","","","","35","","14","","24.1","","99.85","","","","-31","","NA"
"-114.44","62.46","YELLOWKNIFE A","2204101","2019-02-15 01:00","2019","02","15","01:00","-23.1","","-25.8","","79","","","","35","","12","","24.1","","99.89","","","","-32","","NA"
"-114.44","62.46","YELLOWKNIFE A","2204101","2019-02-15 02:00","2019","02","15","02:00","-23.9","","-26.6","","79","","","","36","","14","","24.1","","99.91","","","","-34","","Clear"
"-114.44","62.46","YELLOWKNIFE A","2204101","2019-02-15 03:00","2019","02","15","03:00","-24.4","","-27.2","","78","","","","36","","14","","24.1","","99.92","","","","-34","","NA"
"-114.44","62.46","YELLOWKNIFE A","2204101","2019-02-15 04:00","2019","02","15","04:00","-24.6","","-27.4","","78","","","","1","","12","","24.1","","99.98","","","","-34","","NA"
"-114.44","62.46","YELLOWKNIFE A","2204101","2019-02-15 05:00","2019","02","15","05:00","-24.2","","-27.0","","78","","","","34","","8","","24.1","","100.05","","","","-31","","Mainly Clear"
"-114.44","62.46","YELLOWKNIFE A","2204101","2019-02-15 06:00","2019","02","15","06:00","-24.1","","-26.9","","79","","","","35","","12","","24.1","","100.06","","","","-33","","NA"
"-114.44","62.46","YELLOWKNIFE A","2204101","2019-02-15 07:00","2019","02","15","07:00","-24.6","","-27.4","","78","","","","1","","10","","24.1","","100.09","","","","-33","","NA"
"-114.44","62.46","YELLOWKNIFE A","2204101","2019-02-15 08:00","2019","02","15","08:00","-23.5","","-26.2","","79","","","","1","","10","","24.1","","100.13","","","","-31","","Mainly Clear"
"-114.44","62.46","YELLOWKNIFE A","2204101","2019-02-15 09:00","2019","02","15","09:00","-24.0","","-26.7","","78","","","","1","","11","","24.1","","100.16","","","","-32","","NA"
"-114.44","62.46","YELLOWKNIFE A","2204101","2019-02-15 10:00","2019","02","15","10:00","-23.1","","-25.8","","79","","","","1","","8","","24.1","","100.22","","","","-30","","NA"
"-114.44","62.46","YELLOWKNIFE A","2204101","2019-02-15 11:00","2019","02","15","11:00","-20.1","","-22.5","","81","","","","3","","17","","24.1","","100.23","","","","-30","","Mainly Clear"
"-114.44","62.46","YELLOWKNIFE A","2204101","2019-02-15 12:00","2019","02","15","12:00","-19.1","","-21.5","","82","","","","3","","16","","24.1","","100.27","","","","-28","","NA"
"-114.44","62.46","YELLOWKNIFE A","2204101","2019-02-15 13:00","2019","02","15","13:00","-19.0","","-21.4","","82","","","","3","","14","","24.1","","100.30","","","","-28","","NA"
"-114.44","62.46","YELLOWKNIFE A","2204101","2019-02-15 14:00","2019","02","15","14:00","-18.9","","-21.2","","82","","","","2","","14","","24.1","","100.31","","","","-27","","Clear"
"-114.44","62.46","YELLOWKNIFE A","2204101","2019-02-15 15:00","2019","02","15","15:00","-18.9","","-21.3","","82","","","","3","","14","","24.1","","100.33","","","","-27","","NA"
"-114.44","62.46","YELLOWKNIFE A","2204101","2019-02-15 16:00","2019","02","15","16:00","-19.5","","-22.0","","81","","","","2","","15","","24.1","","100.38","","","","-28","","NA"
"-114.44","62.46","YELLOWKNIFE A","2204101","2019-02-15 17:00","2019","02","15","17:00","-20.7","","-23.4","","80","","","","4","","10","","24.1","","100.42","","","","-28","","Mainly Clear"
"-114.44","62.46","YELLOWKNIFE A","2204101","2019-02-15 18:00","2019","02","15","18:00","-22.5","","-25.2","","79","","","","3","","13","","24.1","","100.45","","","","-31","","NA"
"-114.44","62.46","YELLOWKNIFE A","2204101","2019-02-15 19:00","2019","02","15","19:00","-23.7","","-26.4","","79","","","","3","","10","","24.1","","100.47","","","","-32","","NA"
"-114.44","62.46","YELLOWKNIFE A","2204101","2019-02-15 20:00","2019","02","15","20:00","-24.7","","-27.5","","78","","","","2","","9","","24.1","","100.49","","","","-32","","Mainly Clear"
"-114.44","62.46","YELLOWKNIFE A","2204101","2019-02-15 21:00","2019","02","15","21:00","-24.9","","-27.6","","78","","","","2","","10","","24.1","","100.51","","","","-33","","NA"
"-114.44","62.46","YELLOWKNIFE A","2204101","2019-02-15 22:00","2019","02","15","22:00","-25.5","","-28.3","","78","","","","2","","8","","24.1","","100.58","","","","-33","","NA"
"-114.44","62.46","YELLOWKNIFE A","2204101","2019-02-15 23:00","2019","02","15","23:00","-26.5","","-29.5","","77","","","","3","","12","","24.1","","100.62","","","","-36","","Clear"
"-114.44","62.46","YELLOWKNIFE A","2204101","2019-02-16 00:00","2019","02","16","00:00","-27.0","","-30.0","","76","","","","3","","10","","24.1","","100.66","","","","-36","","NA"
"-114.44","62.46","YELLOWKNIFE A","2204101","2019-02-16 01:00","2019","02","16","01:00","-27.6","","-30.6","","76","","","","3","","12","","24.1","","100.70","","","","-37","","NA"
"-114.44","62.46","YELLOWKNIFE A","2204101","2019-02-16 02:00","2019","02","16","02:00","-27.6","","-30.6","","76","","","","4","","14","","24.1","","100.71","","","","-38","","Mainly Clear"
"-114.44","62.46","YELLOWKNIFE A","2204101","2019-02-16 03:00","2019","02","16","03:00","-27.7","","-30.8","","76","","","","4","","13","","24.1","","100.75","","","","-38","","NA"
"-114.44","62.46","YELLOWKNIFE A","2204101","2019-02-16 04:00","2019","02","16","04:00","-28.3","","-31.4","","75","","","","3","","12","","24.1","","100.79","","","","-38","","NA"
"-114.44","62.46","YELLOWKNIFE A","2204101","2019-02-16 05:00","2019","02","16","05:00","-28.9","","-32.1","","75","","","","2","","9","","24.1","","100.84","","","","-37","","Clear"
"-114.44","62.46","YELLOWKNIFE A","2204101","2019-02-16 06:00","2019","02","16","06:00","-28.8","","-31.9","","75","","","","3","","11","","24.1","","100.88","","","","-38","","NA"
"-114.44","62.46","YELLOWKNIFE A","2204101","2019-02-16 07:00","2019","02","16","07:00","-28.5","","-31.6","","75","","","","4","","12","","24.1","","100.90","","","","-38","","NA"
"-114.44","62.46","YELLOWKNIFE A","2204101","2019-02-16 08:00","2019","02","16","08:00","-28.0","","-31.1","","76","","","","4","","14","","24.1","","100.96","","","","-39","","Mostly Cloudy"
"-114.44","62.46","YELLOWKNIFE A","2204101","2019-02-16 09:00","2019","02","16","09:00","-28.0","","-31.1","","75","","","","3","","13","","24.1","","101.02","","","","-38","","NA"
"-114.44","62.46","YELLOWKNIFE A","2204101","2019-02-16 10:00","2019","02","16","10:00","-27.1","","-30.1","","76","","","","3","","14","","24.1","","101.07","","","","-37","","NA"
"-114.44","62.46","YELLOWKNIFE A","2204101","2019-02-16 11:00","2019","02","16","11:00","-26.3","","-29.3","","76","","","","4","","12","","24.1","","101.11","","","","-36","","Mostly Cloudy"
"-114.44","62.46","YELLOWKNIFE A","2204101","2019-02-16 12:00","2019","02","16","12:00","-25.2","","-28.1","","77","","","","4","","13","","24.1","","101.13","","","","-35","","NA"
"-114.44","62.46","YELLOWKNIFE A","2204101","2019-02-16 13:00","2019","02","16","13:00","-23.4","","-26.4","","77","","","","3","","13","","24.1","","101.16","","","","-33","","NA"
"-114.44","62.46","YELLOWKNIFE A","2204101","2019-02-16 14:00","2019","02","16","14:00","-22.7","","-25.8","","76","","","","4","","13","","24.1","","101.18","","","","-32","","Mostly Cloudy"
"-114.44","62.46","YELLOWKNIFE A","2204101","2019-02-16 15:00","2019","02","16","15:00","-23.2","","-26.5","","74","","","","2","","17","","24.1","","101.22","","","","-34","","NA"
"-114.44","62.46","YELLOWKNIFE A","2204101","2019-02-16 16:00","2019","02","16","16:00","-24.5","","-28.1","","73","","","","6","","14","","24.1","","101.26","","","","-34","","NA"
"-114.44","62.46","YELLOWKNIFE A","2204101","2019-02-16 17:00","2019","02","16","17:00","-24.9","","-28.4","","73","","","","5","","11","","24.1","","101.31","","","","-34","","Mostly Cloudy"
"-114.44","62.46","YELLOWKNIFE A","2204101","2019-02-16 18:00","2019","02","16","18:00","-25.9","","-29.4","","74","","","","3","","10","","24.1","","101.35","","","","-34","","NA"
"-114.44","62.46","YELLOWKNIFE A","2204101","2019-02-16 19:00","2019","02","16","19:00","-27.0","","-30.4","","74","","","","5","","13","","24.1","","101.37","","","","-37","","NA"
"-114.44","62.46","YELLOWKNIFE A","2204101","2019-02-16 20:00","2019","02","16","20:00","-27.4","","-30.8","","74","","","","6","","11","","24.1","","101.40","","","","-37","","Mainly Clear"
"-114.44","62.46","YELLOWKNIFE A","2204101","2019-02-16 21:00","2019","02","16","21:00","-28.1","","-31.4","","74","","","","6","","9","","24.1","","101.42","","","","-36","","NA"
"-114.44","62.46","YELLOWKNIFE A","2204101","2019-02-16 22:00","2019","02","16","22:00","-28.1","","-31.4","","74","","","","6","","10","","24.1","","101.45","","","","-37","","NA"
"-114.44","62.46","YELLOWKNIFE A","2204101","2019-02-16 23:00","2019","02","16","23:00","-28.4","","-31.8","","73","","","","6","","9","","24.1","","101.49","","","","-37","","Mostly Cloudy"
"-114.44","62.46","YELLOWKNIFE A","2204101","2019-02-17 00:00","2019","02","17","00:00","-28.7","","-32.2","","73","","","","6","","8","","24.1","","101.50","","","","-36","","NA"
"-114.44","62.46","YELLOWKNIFE A","2204101","2019-02-17 01:00","2019","02","17","01:00","-29.4","","-32.8","","73","","","","6","","10","","24.1","","101.52","","","","-38","","NA"
"-114.44","62.46","YELLOWKNIFE A","2204101","2019-02-17 02:00","2019","02","17","02:00","-30.5","","-33.7","","74","","","","4","","5","","24.1","","101.55","","","","-36","","Mainly Clear"
"-114.44","62.46","YELLOWKNIFE A","2204101","2019-02-17 03:00","2019","02","17","03:00","-31.4","","-34.6","","74","","","","5","","8","","24.1","","101.55","","","","-40","","NA"
"-114.44","62.46","YELLOWKNIFE A","2204101","2019-02-17 04:00","2019","02","17","04:00","-31.8","","-35.1","","73","","","","4","","9","","24.1","","101.59","","","","-41","","NA"
"-114.44","62.46","YELLOWKNIFE A","2204101","2019-02-17 05:00","2019","02","17","05:00","-30.8","","-34.3","","72","","","","6","","10","","24.1","","101.57","","","","-40","","Mostly Cloudy"
"-114.44","62.46","YELLOWKNIFE A","2204101","2019-02-17 06:00","2019","02","17","06:00","-31.2","","-34.9","","71","","","","6","","10","","24.1","","101.59","","","","-41","","NA"
"-114.44","62.46","YELLOWKNIFE A","2204101","2019-02-17 07:00","2019","02","17","07:00","-31.4","","-35.1","","71","","","","9","","11","","24.1","","101.56","","","","-41","","NA"
"-114.44","62.46","YELLOWKNIFE A","2204101","2019-02-17 08:00","2019","02","17","08:00","-31.6","","-35.2","","72","","","","10","","13","","24.1","","101.53","","","","-43","","Mainly Clear"
"-114.44","62.46","YELLOWKNIFE A","2204101","2019-02-17 09:00","2019","02","17","09:00","-31.6","","-35.1","","72","","","","10","","9","","24.1","","101.57","","","","-40","","NA"
"-114.44","62.46","YELLOWKNIFE A","2204101","2019-02-17 10:00","2019","02","17","10:00","-31.1","","-34.8","","71","","","","10","","9","","24.1","","101.58","","","","-40","","NA"
"-114.44","62.46","YELLOWKNIFE A","2204101","2019-02-17 11:00","2019","02","17","11:00","-29.3","","-33.3","","69","","","","12","","13","","24.1","","101.55","","","","-40","","Mainly Clear"
"-114.44","62.46","YELLOWKNIFE A","2204101","2019-02-17 12:00","2019","02","17","12:00","-28.3","","-32.6","","67","","","","15","","11","","24.1","","101.51","","","","-38","","NA"
"-114.44","62.46","YELLOWKNIFE A","2204101","2019-02-17 13:00","2019","02","17","13:00","-27.6","","-32.1","","66","","","","16","","12","","24.1","","101.46","","","","-37","","NA"
"-114.44","62.46","YELLOWKNIFE A","2204101","2019-02-17 14:00","2019","02","17","14:00","-27.2","","-31.6","","67","","","","17","","12","","24.1","","101.38","","","","-37","","Clear"
"-114.44","62.46","YELLOWKNIFE A","2204101","2019-02-17 15:00","2019","02","17","15:00","-26.7","","-31.2","","67","","","","16","","13","","24.1","","101.34","","","","-37","","NA"
"-114.44","62.46","YELLOWKNIFE A","2204101","2019-02-17 16:00","2019","02","17","16:00","-27.2","","-31.4","","68","","","","16","","12","","24.1","","101.29","","","","-37","","NA"
"-114.44","62.46","YELLOWKNIFE A","2204101","2019-02-17 17:00","2019","02","17","17:00","-27.6","","-31.5","","70","","","","16","","11","","24.1","","101.25","","","","-37","","Mostly Cloudy"
"-114.44","62.46","YELLOWKNIFE A","2204101","2019-02-17 18:00","2019","02","17","18:00","-28.6","","-31.9","","74","","","","14","","13","","24.1","","101.09","","","","-39","","NA"
"-114.44","62.46","YELLOWKNIFE A","2204101","2019-02-17 19:00","2019","02","17","19:00","-28.2","","-31.7","","73","","","","14","","17","","24.1","","100.95","","","","-40","","NA"
"-114.44","62.46","YELLOWKNIFE A","2204101","2019-02-17 20:00","2019","02","17","20:00","-27.9","","-31.4","","73","","","","14","","13","","24.1","","100.91","","","","-38","","Mostly Cloudy"
"-114.44","62.46","YELLOWKNIFE A","2204101","2019-02-17 21:00","2019","02","17","21:00","-28.1","","-31.6","","73","","","","12","","11","","24.1","","100.83","","","","-37","","NA"
"-114.44","62.46","YELLOWKNIFE A","2204101","2019-02-17 22:00","2019","02","17","22:00","-28.1","","-31.3","","75","","","","13","","14","","24.1","","100.68","","","","-39","","NA"
"-114.44","62.46","YELLOWKNIFE A","2204101","2019-02-17 23:00","2019","02","17","23:00","-27.4","","-30.4","","76","","","","14","","16","","24.1","","100.55","","","","-39","","Mainly Clear"
"-114.44","62.46","YELLOWKNIFE A","2204101","2019-02-18 00:00","2019","02","18","00:00","-26.2","","-29.3","","76","","","","14","","19","","24.1","","100.46","","","","-38","","NA"
"-114.44","62.46","YELLOWKNIFE A","2204101","2019-02-18 01:00","2019","02","18","01:00","-26.2","","-29.1","","77","","","","15","","21","","24.1","","100.29","","","","-39","","NA"
"-114.44","62.46","YELLOWKNIFE A","2204101","2019-02-18 02:00","2019","02","18","02:00","-25.9","","-28.9","","76","","","","14","","17","","24.1","","100.17","","","","-37","","Mainly Clear"
"-114.44","62.46","YELLOWKNIFE A","2204101","2019-02-18 03:00","2019","02","18","03:00","-26.3","","-29.1","","77","","","","14","","16","","24.1","","100.05","","","","-37","","NA"
"-114.44","62.46","YELLOWKNIFE A","2204101","2019-02-18 04:00","2019","02","18","04:00","-26.4","","-29.2","","78","","","","14","","17","","24.1","","99.91","","","","-38","","NA"
"-114.44","62.46","YELLOWKNIFE A","2204101","2019-02-18 05:00","2019","02","18","05:00","-26.8","","-29.6","","78","","","","14","","16","","24.1","","99.77","","","","-38","","Clear"
"-114.44","62.46","YELLOWKNIFE A","2204101","2019-02-18 06:00","2019","02","18","06:00","-27.3","","-30.2","","77","","","","15","","18","","24.1","","99.59","","","","-39","","NA"
"-114.44","62.46","YELLOWKNIFE A","2204101","2019-02-18 07:00","2019","02","18","07:00","-27.3","","-30.2","","77","","","","14","","14","","24.1","","99.46","","","","-38","","NA"
"-114.44","62.46","YELLOWKNIFE A","2204101","2019-02-18 08:00","2019","02","18","08:00","-27.1","","-30.1","","76","","","","14","","19","","24.1","","99.32","","","","-39","","Mainly Clear"
"-114.44","62.46","YELLOWKNIFE A","2204101","2019-02-18 09:00","2019","02","18","09:00","-27.5","","-30.6","","75","","","","10","","11","","24.1","","99.26","","","","-37","","NA"
"-114.44","62.46","YELLOWKNIFE A","2204101","2019-02-18 10:00","2019","02","18","10:00","-26.7","","-29.6","","77","","","","9","","13","","24.1","","99.15","","","","-37","","NA"
"-114.44","62.46","YELLOWKNIFE A","2204101","2019-02-18 11:00","2019","02","18","11:00","-25.5","","-28.4","","77","","","","11","","15","","24.1","","99.03","","","","-36","","Mostly Cloudy"
"-114.44","62.46","YELLOWKNIFE A","2204101","2019-02-18 12:00","2019","02","18","12:00","-24.2","","-27.1","","77","","","","12","","13","","24.1","","98.95","","","","-34","","NA"
"-114.44","62.46","YELLOWKNIFE A","2204101","2019-02-18 13:00","2019","02","18","13:00","-23.2","","-26.3","","76","","","","9","","15","","24.1","","98.87","","","","-33","","NA"
"-114.44","62.46","YELLOWKNIFE A","2204101","2019-02-18 14:00","2019","02","18","14:00","-22.9","","-26.4","","74","","","","9","","16","","24.1","","98.78","","","","-33","","Mostly Cloudy"
"-114.44","62.46","YELLOWKNIFE A","2204101","2019-02-18 15:00","2019","02","18","15:00","-22.7","","-26.3","","73","","","","9","","13","","24.1","","98.71","","","","-32","","NA"
"-114.44","62.46","YELLOWKNIFE A","2204101","2019-02-18 16:00","2019","02","18","16:00","-22.3","","-25.8","","73","","","","7","","13","","24.1","","98.66","","","","-31","","NA"
"-114.44","62.46","YELLOWKNIFE A","2204101","2019-02-18 17:00","2019","02","18","17:00","-22.3","","-25.8","","74","","","","7","","9","","24.1","","98.64","","","","-29","","Mostly Cloudy"
"-114.44","62.46","YELLOWKNIFE A","2204101","2019-02-18 18:00","2019","02","18","18:00","-23.0","","-26.2","","76","","","","5","","8","","24.1","","98.62","","","","-30","","NA"
"-114.44","62.46","YELLOWKNIFE A","2204101","2019-02-18 19:00","2019","02","18","19:00","-22.9","","-26.0","","76","","","","3","","9","","24.1","","98.65","","","","-30","","NA"
"-114.44","62.46","YELLOWKNIFE A","2204101","2019-02-18 20:00","2019","02","18","20:00","-23.0","","-26.3","","75","","","","5","","14","","24.1","","98.59","","","","-32","","Mostly Cloudy"
"-114.44","62.46","YELLOWKNIFE A","2204101","2019-02-18 21:00","2019","02","18","21:00","-23.6","","-26.8","","75","","","","6","","9","","24.1","","98.54","","","","-31","","NA"
"-114.44","62.46","YELLOWKNIFE A","2204101","2019-02-18 22:00","2019","02","18","22:00","-24.4","","-27.5","","76","","","","1","","9","","24.1","","98.58","","","","-32","","NA"
"-114.44","62.46","YELLOWKNIFE A","2204101","2019-02-18 23:00","2019","02","18","23:00","-24.9","","-27.9","","77","","","","3","","10","","24.1","","98.49","","","","-33","","Mostly Cloudy"
"-114.44","62.46","YELLOWKNIFE A","2204101","2019-02-19 00:00","2019","02","19","00:00","-25.9","","-28.8","","77","","","","1","","10","","24.1","","98.51","","","","-34","","NA"
"-114.44","62.46","YELLOWKNIFE A","2204101","2019-02-19 01:00","2019","02","19","01:00","-26.2","","-29.2","","76","","","","4","","9","","24.1","","98.50","","","","-34","","NA"
"-114.44","62.46","YELLOWKNIFE A","2204101","2019-02-19 02:00","2019","02","19","02:00","-25.9","","-29.0","","76","","","","5","","10","","24.1","","98.46","","","","-34","","Mostly Cloudy"
"-114.44","62.46","YELLOWKNIFE A","2204101","2019-02-19 03:00","2019","02","19","03:00","-26.2","","-29.3","","75","","","","4","","10","","24.1","","98.42","","","","-35","","NA"
"-114.44","62.46","YELLOWKNIFE A","2204101","2019-02-19 04:00","2019","02","19","04:00","-27.2","","-30.2","","76","","","","4","","9","","24.1","","98.41","","","","-35","","NA"
"-114.44","62.46","YELLOWKNIFE A","2204101","2019-02-19 05:00","2019","02","19","05:00","-27.3","","-30.5","","75","","","","4","","7","","24.1","","98.41","","","","-34","","Mainly Clear"
"-114.44","62.46","YELLOWKNIFE A","2204101","2019-02-19 06:00","2019","02","19","06:00","-27.3","","-30.3","","76","","","","4","","9","","24.1","","98.42","","","","-35","","NA"
"-114.44","62.46","YELLOWKNIFE A","2204101","2019-02-19 07:00","2019","02","19","07:00","-26.7","","-29.9","","76","","","","5","","10","","24.1","","98.42","","","","-35","","NA"
"-114.44","62.46","YELLOWKNIFE A","2204101","2019-02-19 08:00","2019","02","19","08:00","-26.8","","-30.0","","75","","","","5","","11","","24.1","","98.42","","","","-36","","Mostly Cloudy"
"-114.44","62.46","YELLOWKNIFE A","2204101","2019-02-19 09:00","2019","02","19","09:00","-27.0","","-30.2","","75","","","","4","","9","","24.1","","98.44","","","","-35","","NA"
"-114.44","62.46","YELLOWKNIFE A","2204101","2019-02-19 10:00","2019","02","19","10:00","-26.7","","-30.0","","74","","","","3","","11","","24.1","","98.45","","","","-36","","NA"
"-114.44","62.46","YELLOWKNIFE A","2204101","2019-02-19 11:00","2019","02","19","11:00","-25.4","","-29.1","","72","","","","2","","7","","24.1","","98.47","","","","-32","","Mainly Clear"
"-114.44","62.46","YELLOWKNIFE A","2204101","2019-02-19 12:00","2019","02","19","12:00","-23.5","","-27.7","","69","","","","2","","8","","24.1","","98.49","","","","-30","","NA"
"-114.44","62.46","YELLOWKNIFE A","2204101","2019-02-19 13:00","2019","02","19","13:00","-21.5","","-26.0","","68","","","","4","","9","","24.1","","98.51","","","","-29","","NA"
"-114.44","62.46","YELLOWKNIFE A","2204101","2019-02-19 14:00","2019","02","19","14:00","-20.3","","-24.7","","68","","","","3","","10","","24.1","","98.55","","","","-28","","Mostly Cloudy"
"-114.44","62.46","YELLOWKNIFE A","2204101","2019-02-19 15:00","2019","02","19","15:00","-20.0","","-24.4","","69","","","","1","","11","","24.1","","98.61","","","","-28","","NA"
"-114.44","62.46","YELLOWKNIFE A","2204101","2019-02-19 16:00","2019","02","19","16:00","-20.7","","-24.7","","71","","","","1","","8","","24.1","","98.67","","","","-27","","NA"
"-114.44","62.46","YELLOWKNIFE A","2204101","2019-02-19 17:00","2019","02","19","17:00","-21.9","","-25.7","","72","","","","1","","8","","24.1","","98.73","","","","-28","","Mainly Clear"
"-114.44","62.46","YELLOWKNIFE A","2204101","2019-02-19 18:00","2019","02","19","18:00","-23.7","","-27.0","","75","","","","36","","10","","24.1","","98.78","","","","-32","","NA"
"-114.44","62.46","YELLOWKNIFE A","2204101","2019-02-19 19:00","2019","02","19","19:00","-25.0","","-27.9","","77","","","","36","","7","","24.1","","98.84","","","","-31","","NA"
"-114.44","62.46","YELLOWKNIFE A","2204101","2019-02-19 20:00","2019","02","19","20:00","-26.0","","-28.9","","77","","","","36","","11","","24.1","","98.87","","","","-35","","Mainly Clear"
"-114.44","62.46","YELLOWKNIFE A","2204101","2019-02-19 21:00","2019","02","19","21:00","-25.8","","-28.6","","78","","","","36","","7","","24.1","","98.92","","","","-32","","NA"
"-114.44","62.46","YELLOWKNIFE A","2204101","2019-02-19 22:00","2019","02","19","22:00","-27.8","","-30.6","","77","","","","34","","9","","24.1","","99.00","","","","-36","","NA"
"-114.44","62.46","YELLOWKNIFE A","2204101","2019-02-19 23:00","2019","02","19","23:00","-27.4","","-30.2","","77","","","","1","","9","","24.1","","99.08","","","","-36","","Mainly Clear"
"-114.44","62.46","YELLOWKNIFE A","2204101","2019-02-20 00:00","2019","02","20","00:00","-27.3","","-30.1","","77","","","","6","","6","","24.1","","99.11","","","","-33","","NA"
"-114.44","62.46","YELLOWKNIFE A","2204101","2019-02-20 01:00","2019","02","20","01:00","-28.6","","-31.5","","76","","","","4","","9","","24.1","","99.17","","","","-37","","NA"
"-114.44","62.46","YELLOWKNIFE A","2204101","2019-02-20 02:00","2019","02","20","02:00","-27.5","","-30.7","","75","","","","3","","7","","24.1","","99.24","","","","-34","","Mostly Cloudy"
"-114.44","62.46","YELLOWKNIFE A","2204101","2019-02-20 03:00","2019","02","20","03:00","-27.0","","-30.4","","73","","","","2","","6","","24.1","","99.31","","","","-33","","NA"
"-114.44","62.46","YELLOWKNIFE A","2204101","2019-02-20 04:00","2019","02","20","04:00","-27.2","","-30.5","","74","","","","5","","8","","24.1","","99.33","","","","-35","","NA"
"-114.44","62.46","YELLOWKNIFE A","2204101","2019-02-20 05:00","2019","02","20","05:00","-26.5","","-29.9","","73","","","","2","","5","","24.1","","99.38","","","","-32","","Mostly Cloudy"
"-114.44","62.46","YELLOWKNIFE A","2204101","2019-02-20 06:00","2019","02","20","06:00","-26.2","","-29.7","","73","","","","5","","4","","24.1","","99.43","","","","-30","","NA"
"-114.44","62.46","YELLOWKNIFE A","2204101","2019-02-20 07:00","2019","02","20","07:00","-26.1","","-29.5","","73","","","","4","","4","","24.1","","99.48","","","","-30","","NA"
"-114.44","62.46","YELLOWKNIFE A","2204101","2019-02-20 08:00","2019","02","20","08:00","-25.6","","-29.0","","74","","","","36","","1","","24.1","","99.51","","","","-27","","Mostly Cloudy"
"-114.44","62.46","YELLOWKNIFE A","2204101","2019-02-20 09:00","2019","02","20","09:00","-25.0","","-28.4","","74","","","","36","","2","","24.1","","99.57","","","","-27","","NA"
"-114.44","62.46","YELLOWKNIFE A","2204101","2019-02-20 10:00","2019","02","20","10:00","-24.3","","-27.7","","74","","","","10","","7","","24.1","","99.58","","","","-31","","Snow"
"-114.44","62.46","YELLOWKNIFE A","2204101","2019-02-20 11:00","2019","02","20","11:00","-23.4","","-26.8","","74","","","","13","","4","","24.1","","99.58","","","","-27","","Snow"
"-114.44","62.46","YELLOWKNIFE A","2204101","2019-02-20 12:00","2019","02","20","12:00","-22.4","","-26.2","","72","","","","15","","7","","24.1","","99.63","","","","-28","","Snow"
"-114.44","62.46","YELLOWKNIFE A","2204101","2019-02-20 13:00","2019","02","20","13:00","-21.8","","-25.8","","71","","","","14","","8","","24.1","","99.63","","","","-28","","Snow"
"-114.44","62.46","YELLOWKNIFE A","2204101","2019-02-20 14:00","2019","02","20","14:00","-21.3","","-24.7","","74","","","","17","","11","","3.2","","99.65","","","","-29","","Snow"
"-114.44","62.46","YELLOWKNIFE A","2204101","2019-02-20 15:00","2019","02","20","15:00","-21.0","","-24.2","","76","","","","16","","12","","4.0","","99.69","","","","-29","","Snow"
"-114.44","62.46","YELLOWKNIFE A","2204101","2019-02-20 16:00","2019","02","20","16:00","-20.9","","-23.8","","77","","","","15","","9","","3.2","","99.69","","","","-28","","Snow"
"-114.44","62.46","YELLOWKNIFE A","2204101","2019-02-20 17:00","2019","02","20","17:00","-20.4","","-23.4","","77","","","","14","","4","","8.1","","99.71","","","","-24","","Snow"
"-114.44","62.46","YELLOWKNIFE A","2204101","2019-02-20 18:00","2019","02","20","18:00","-21.0","","-23.6","","80","","","","16","","4","","24.1","","99.74","","","","-25","","Snow"
"-114.44","62.46","YELLOWKNIFE A","2204101","2019-02-20 19:00","2019","02","20","19:00","-23.3","","-25.8","","80","","","","36","","1","","24.1","","99.76","","","","-24","","NA"
"-114.44","62.46","YELLOWKNIFE A","2204101","2019-02-20 20:00","2019","02","20","20:00","-25.9","","-28.8","","77","","","","0","","1","","24.1","","99.73","","","","-27","","Mainly Clear"
"-114.44","62.46","YELLOWKNIFE A","2204101","2019-02-20 21:00","2019","02","20","21:00","-23.4","","-26.1","","79","","","","36","","2","","24.1","","99.70","","","","-25","","Snow"
"-114.44","62.46","YELLOWKNIFE A","2204101","2019-02-20 22:00","2019","02","20","22:00","-21.7","","-24.3","","80","","","","36","","3","","24.1","","99.68","","","","-24","","Snow"
"-114.44","62.46","YELLOWKNIFE A","2204101","2019-02-20 23:00","2019","02","20","23:00","-20.7","","-23.2","","81","","","","26","","3","","24.1","","99.71","","","","-23","","Snow"
"-114.44","62.46","YELLOWKNIFE A","2204101","2019-02-21 00:00","2019","02","21","00:00","-20.2","","-22.7","","81","","","","22","","4","","24.1","","99.69","","","","-24","","Snow"
"-114.44","62.46","YELLOWKNIFE A","2204101","2019-02-21 01:00","2019","02","21","01:00","-20.2","","-22.6","","81","","","","22","","4","","24.1","","99.68","","","","-24","","Snow"
"-114.44","62.46","YELLOWKNIFE A","2204101","2019-02-21 02:00","2019","02","21","02:00","-20.1","","-22.6","","81","","","","20","","3","","24.1","","99.66","","","","-23","","Snow"
"-114.44","62.46","YELLOWKNIFE A","2204101","2019-02-21 03:00","2019","02","21","03:00","-20.1","","-22.5","","81","","","","19","","5","","24.1","","99.62","","","","-24","","Snow"
"-114.44","62.46","YELLOWKNIFE A","2204101","2019-02-21 04:00","2019","02","21","04:00","-20.1","","-22.5","","82","","","","17","","14","","24.1","","99.51","","","","-29","","Snow"
"-114.44","62.46","YELLOWKNIFE A","2204101","2019-02-21 05:00","2019","02","21","05:00","-19.7","","-22.0","","82","","","","17","","5","","24.1","","99.47","","","","-24","","Snow"
"-114.44","62.46","YELLOWKNIFE A","2204101","2019-02-21 06:00","2019","02","21","06:00","-19.4","","-21.8","","82","","","","15","","7","","24.1","","99.44","","","","-25","","Snow"
"-114.44","62.46","YELLOWKNIFE A","2204101","2019-02-21 07:00","2019","02","21","07:00","-19.2","","-21.5","","82","","","","16","","13","","9.7","","99.38","","","","-27","","Snow"
"-114.44","62.46","YELLOWKNIFE A","2204101","2019-02-21 08:00","2019","02","21","08:00","-19.1","","-21.4","","82","","","","17","","14","","24.1","","99.29","","","","-28","","Snow"
"-114.44","62.46","YELLOWKNIFE A","2204101","2019-02-21 09:00","2019","02","21","09:00","-18.9","","-21.2","","82","","","","15","","15","","24.1","","99.23","","","","-28","","Snow"
"-114.44","62.46","YELLOWKNIFE A","2204101","2019-02-21 10:00","2019","02","21","10:00","-18.5","","-20.7","","83","","","","18","","9","","24.1","","99.17","","","","-25","","Snow"
"-114.44","62.46","YELLOWKNIFE A","2204101","2019-02-21 11:00","2019","02","21","11:00","-18.0","","-20.3","","83","","","","17","","6","","24.1","","99.14","","","","-23","","Snow"
"-114.44","62.46","YELLOWKNIFE A","2204101","2019-02-21 12:00","2019","02","21","12:00","-17.4","","-19.7","","82","","","","15","","5","","9.7","","99.07","","","","-21","","Snow"
"-114.44","62.46","YELLOWKNIFE A","2204101","2019-02-21 13:00","2019","02","21","13:00","-16.9","","-19.6","","80","","","","15","","4","","9.7","","99.02","","","","-20","","Snow"
"-114.44","62.46","YELLOWKNIFE A","2204101","2019-02-21 14:00","2019","02","21","14:00","-16.2","","-18.9","","80","","","","15","","4","","9.7","","98.95","","","","-19","","Snow"
"-114.44","62.46","YELLOWKNIFE A","2204101","2019-02-21 15:00","2019","02","21","15:00","-16.1","","-18.7","","81","","","","36","","3","","24.1","","98.89","","","","-18","","Snow"
"-114.44","62.46","YELLOWKNIFE A","2204101","2019-02-21 16:00","2019","02","21","16:00","-16.2","","-18.9","","80","","","","7","","8","","24.1","","98.85","","","","-22","","Snow"
"-114.44","62.46","YELLOWKNIFE A","2204101","2019-02-21 17:00","2019","02","21","17:00","-16.9","","-19.4","","81","","","","3","","8","","24.1","","98.81","","","","-23","","Snow"
"-114.44","62.46","YELLOWKNIFE A","2204101","2019-02-21 18:00","2019","02","21","18:00","-17.5","","-19.8","","83","","","","4","","7","","24.1","","98.79","","","","-23","","Snow"
"-114.44","62.46","YELLOWKNIFE A","2204101","2019-02-21 19:00","2019","02","21","19:00","-17.8","","-20.0","","83","","","","36","","8","","24.1","","98.77","","","","-24","","Snow"
"-114.44","62.46","YELLOWKNIFE A","2204101","2019-02-21 20:00","2019","02","21","20:00","-18.9","","-21.2","","83","","","","2","","6","","24.1","","98.76","","","","-24","","Snow"
"-114.44","62.46","YELLOWKNIFE A","2204101","2019-02-21 21:00","2019","02","21","21:00","-20.2","","-22.6","","82","","","","36","","6","","24.1","","98.74","","","","-25","","NA"
"-114.44","62.46","YELLOWKNIFE A","2204101","2019-02-21 22:00","2019","02","21","22:00","-22.1","","-24.6","","81","","","","35","","13","","24.1","","98.73","","","","-31","","NA"
"-114.44","62.46","YELLOWKNIFE A","2204101","2019-02-21 23:00","2019","02","21","23:00","-22.5","","-24.9","","81","","","","34","","9","","24.1","","98.74","","","","-30","","Snow"
"-114.44","62.46","YELLOWKNIFE A","2204101","2019-02-22 00:00","2019","02","22","00:00","-22.7","","-25.3","","80","","","","35","","12","","24.1","","98.76","","","","-31","","Snow"
"-114.44","62.46","YELLOWKNIFE A","2204101","2019-02-22 01:00","2019","02","22","01:00","-24.6","","-27.4","","78","","","","36","","10","","24.1","","98.77","","","","-33","","Snow"
"-114.44","62.46","YELLOWKNIFE A","2204101","2019-02-22 02:00","2019","02","22","02:00","-24.2","","-26.9","","78","","","","36","","9","","24.1","","98.78","","","","-32","","Snow"
"-114.44","62.46","YELLOWKNIFE A","2204101","2019-02-22 03:00","2019","02","22","03:00","-24.4","","-27.4","","77","","","","32","","10","","24.1","","98.81","","","","-32","","Snow"
"-114.44","62.46","YELLOWKNIFE A","2204101","2019-02-22 04:00","2019","02","22","04:00","-24.6","","-27.4","","78","","","","32","","11","","24.1","","98.83","","","","-33","","Snow"
"-114.44","62.46","YELLOWKNIFE A","2204101","2019-02-22 05:00","2019","02","22","05:00","-23.7","","-26.5","","79","","","","31","","9","","24.1","","98.88","","","","-31","","Snow"
"-114.44","62.46","YELLOWKNIFE A","2204101","2019-02-22 06:00","2019","02","22","06:00","-23.4","","-26.2","","78","","","","32","","9","","24.1","","98.91","","","","-31","","Snow"
"-114.44","62.46","YELLOWKNIFE A","2204101","2019-02-22 07:00","2019","02","22","07:00","-23.6","","-26.4","","78","","","","31","","13","","24.1","","98.98","","","","-33","","Snow"
"-114.44","62.46","YELLOWKNIFE A","2204101","2019-02-22 08:00","2019","02","22","08:00","-23.9","","-26.7","","78","","","","32","","12","","24.1","","99.04","","","","-33","","Snow"
"-114.44","62.46","YELLOWKNIFE A","2204101","2019-02-22 09:00","2019","02","22","09:00","-24.8","","-27.6","","78","","","","31","","12","","24.1","","99.10","","","","-34","","NA"
"-114.44","62.46","YELLOWKNIFE A","2204101","2019-02-22 10:00","2019","02","22","10:00","-22.2","","-25.0","","79","","","","32","","15","","24.1","","99.17","","","","-32","","NA"
"-114.44","62.46","YELLOWKNIFE A","2204101","2019-02-22 11:00","2019","02","22","11:00","-20.5","","-23.6","","77","","","","32","","14","","24.1","","99.25","","","","-29","","Mainly Clear"
"-114.44","62.46","YELLOWKNIFE A","2204101","2019-02-22 12:00","2019","02","22","12:00","-19.3","","-23.7","","69","","","","32","","19","","24.1","","99.32","","","","-29","","NA"
"-114.44","62.46","YELLOWKNIFE A","2204101","2019-02-22 13:00","2019","02","22","13:00","-18.7","","-23.5","","66","","","","32","","18","","24.1","","99.38","","","","-28","","NA"
"-114.44","62.46","YELLOWKNIFE A","2204101","2019-02-22 14:00","2019","02","22","14:00","-18.5","","-22.8","","69","","","","32","","18","","24.1","","99.43","","","","-28","","Mostly Cloudy"
"-114.44","62.46","YELLOWKNIFE A","2204101","2019-02-22 15:00","2019","02","22","15:00","-18.4","","-22.8","","69","","","","32","","24","","24.1","","99.48","","","","-29","","NA"
"-114.44","62.46","YELLOWKNIFE A","2204101","2019-02-22 16:00","2019","02","22","16:00","-18.4","","-22.7","","69","","","","32","","21","","24.1","","99.57","","","","-29","","NA"
"-114.44","62.46","YELLOWKNIFE A","2204101","2019-02-22 17:00","2019","02","22","17:00","-19.0","","-22.9","","71","","","","30","","17","","24.1","","99.62","","","","-28","","Mainly Clear"
"-114.44","62.46","YELLOWKNIFE A","2204101","2019-02-22 18:00","2019","02","22","18:00","-20.2","","-23.2","","77","","","","30","","14","","24.1","","99.67","","","","-29","","NA"
"-114.44","62.46","YELLOWKNIFE A","2204101","2019-02-22 19:00","2019","02","22","19:00","-21.2","","-23.9","","79","","","","31","","13","","24.1","","99.79","","","","-30","","NA"
"-114.44","62.46","YELLOWKNIFE A","2204101","2019-02-22 20:00","2019","02","22","20:00","-21.1","","-24.2","","77","","","","32","","22","","24.1","","99.89","","","","-32","","Mainly Clear"
"-114.44","62.46","YELLOWKNIFE A","2204101","2019-02-22 21:00","2019","02","22","21:00","-22.4","","-25.4","","78","","","","31","","18","","24.1","","99.99","","","","-33","","NA"
"-114.44","62.46","YELLOWKNIFE A","2204101","2019-02-22 22:00","2019","02","22","22:00","-22.7","","-25.4","","79","","","","31","","18","","24.1","","100.08","","","","-33","","NA"
"-114.44","62.46","YELLOWKNIFE A","2204101","2019-02-22 23:00","2019","02","22","23:00","-24.1","","-26.5","","81","","","","30","","14","","24.1","","100.18","","","","-34","","Mainly Clear"
"-114.44","62.46","YELLOWKNIFE A","2204101","2019-02-23 00:00","2019","02","23","00:00","-24.3","","-27.0","","79","","","","31","","17","","24.1","","100.28","","","","-35","","NA"
"-114.44","62.46","YELLOWKNIFE A","2204101","2019-02-23 01:00","2019","02","23","01:00","-25.5","","-28.2","","78","","","","32","","17","","24.1","","100.38","","","","-37","","NA"
"-114.44","62.46","YELLOWKNIFE A","2204101","2019-02-23 02:00","2019","02","23","02:00","-26.4","","-29.3","","77","","","","31","","18","","24.1","","100.50","","","","-38","","Clear"
"-114.44","62.46","YELLOWKNIFE A","2204101","2019-02-23 03:00","2019","02","23","03:00","-27.1","","-30.1","","76","","","","32","","17","","24.1","","100.60","","","","-39","","NA"
"-114.44","62.46","YELLOWKNIFE A","2204101","2019-02-23 04:00","2019","02","23","04:00","-27.8","","-31.2","","73","","","","33","","15","","24.1","","100.70","","","","-39","","NA"
"-114.44","62.46","YELLOWKNIFE A","2204101","2019-02-23 05:00","2019","02","23","05:00","-28.3","","-32.2","","70","","","","33","","19","","24.1","","100.80","","","","-41","","Clear"
"-114.44","62.46","YELLOWKNIFE A","2204101","2019-02-23 06:00","2019","02","23","06:00","-30.0","","-33.5","","72","","","","31","","17","","24.1","","100.87","","","","-42","","NA"
"-114.44","62.46","YELLOWKNIFE A","2204101","2019-02-23 07:00","2019","02","23","07:00","-30.3","","-33.5","","74","","","","31","","19","","24.1","","100.92","","","","-43","","NA"
"-114.44","62.46","YELLOWKNIFE A","2204101","2019-02-23 08:00","2019","02","23","08:00","-30.9","","-34.2","","73","","","","33","","16","","24.1","","101.00","","","","-43","","Clear"
"-114.44","62.46","YELLOWKNIFE A","2204101","2019-02-23 09:00","2019","02","23","09:00","-30.9","","-34.4","","72","","","","32","","17","","24.1","","101.08","","","","-43","","NA"
"-114.44","62.46","YELLOWKNIFE A","2204101","2019-02-23 10:00","2019","02","23","10:00","-29.3","","-33.3","","69","","","","32","","18","","24.1","","101.14","","","","-42","","NA"
"-114.44","62.46","YELLOWKNIFE A","2204101","2019-02-23 11:00","2019","02","23","11:00","-28.1","","-32.5","","66","","","","33","","12","","24.1","","101.20","","","","-38","","Clear"
"-114.44","62.46","YELLOWKNIFE A","2204101","2019-02-23 12:00","2019","02","23","12:00","-26.7","","-31.7","","63","","","","35","","15","","24.1","","101.24","","","","-37","","NA"
"-114.44","62.46","YELLOWKNIFE A","2204101","2019-02-23 13:00","2019","02","23","13:00","-25.2","","-30.8","","61","","","","31","","12","","24.1","","101.26","","","","-34","","NA"
"-114.44","62.46","YELLOWKNIFE A","2204101","2019-02-23 14:00","2019","02","23","14:00","-23.6","","-29.7","","58","","","","32","","16","","24.1","","101.25","","","","-34","","Clear"
"-114.44","62.46","YELLOWKNIFE A","2204101","2019-02-23 15:00","2019","02","23","15:00","-23.4","","-29.4","","58","","","","32","","16","","24.1","","101.24","","","","-34","","NA"
"-114.44","62.46","YELLOWKNIFE A","2204101","2019-02-23 16:00","2019","02","23","16:00","-23.2","","-29.4","","58","","","","32","","17","","24.1","","101.26","","","","-34","","NA"
"-114.44","62.46","YELLOWKNIFE A","2204101","2019-02-23 17:00","2019","02","23","17:00","-24.0","","-29.6","","61","","","","29","","9","","24.1","","101.26","","","","-31","","Clear"
"-114.44","62.46","YELLOWKNIFE A","2204101","2019-02-23 18:00","2019","02","23","18:00","-26.2","","-30.0","","71","","","","25","","9","","24.1","","101.25","","","","-34","","NA"
"-114.44","62.46","YELLOWKNIFE A","2204101","2019-02-23 19:00","2019","02","23","19:00","-27.8","","-31.0","","75","","","","28","","9","","24.1","","101.24","","","","-36","","NA"
"-114.44","62.46","YELLOWKNIFE A","2204101","2019-02-23 20:00","2019","02","23","20:00","-30.1","","-33.1","","76","","","","27","","10","","24.1","","101.22","","","","-39","","Clear"
"-114.44","62.46","YELLOWKNIFE A","2204101","2019-02-23 21:00","2019","02","23","21:00","-32.2","","-35.6","","72","","","","28","","6","","24.1","","101.16","","","","-39","","NA"
"-114.44","62.46","YELLOWKNIFE A","2204101","2019-02-23 22:00","2019","02","23","22:00","-30.9","","-34.2","","74","","","","28","","8","","24.1","","101.13","","","","-39","","NA"
"-114.44","62.46","YELLOWKNIFE A","2204101","2019-02-23 23:00","2019","02","23","23:00","-31.8","","-35.4","","72","","","","26","","7","","24.1","","101.12","","","","-39","","Clear"
"-114.44","62.46","YELLOWKNIFE A","2204101","2019-02-24 00:00","2019","02","24","00:00","-32.5","","-36.4","","69","","","","25","","3","","24.1","","101.09","","","","-36","","NA"
"-114.44","62.46","YELLOWKNIFE A","2204101","2019-02-24 01:00","2019","02","24","01:00","-33.2","","-36.8","","71","","","","21","","5","","24.1","","101.07","","","","-39","","NA"
"-114.44","62.46","YELLOWKNIFE A","2204101","2019-02-24 02:00","2019","02","24","02:00","-31.6","","-34.2","","78","","","","15","","7","","24.1","","101.03","","","","-39","","Fog"
"-114.44","62.46","YELLOWKNIFE A","2204101","2019-02-24 03:00","2019","02","24","03:00","-35.9","","-39.5","","70","","","","11","","4","","24.1","","100.99","","","","-41","","Fog"
"-114.44","62.46","YELLOWKNIFE A","2204101","2019-02-24 04:00","2019","02","24","04:00","-34.1","","-37.2","","74","","","","8","","7","","24.1","","100.95","","","","-42","","Fog"
"-114.44","62.46","YELLOWKNIFE A","2204101","2019-02-24 05:00","2019","02","24","05:00","-33.2","","-36.2","","75","","","","9","","4","","24.1","","100.92","","","","-38","","Fog"
"-114.44","62.46","YELLOWKNIFE A","2204101","2019-02-24 06:00","2019","02","24","06:00","-36.0","","-39.6","","71","","","","9","","3","","24.1","","100.89","","","","-40","","Fog"
"-114.44","62.46","YELLOWKNIFE A","2204101","2019-02-24 07:00","2019","02","24","07:00","-35.9","","-39.4","","71","","","","11","","3","","24.1","","100.80","","","","-40","","Fog"
"-114.44","62.46","YELLOWKNIFE A","2204101","2019-02-24 08:00","2019","02","24","08:00","-35.2","","-38.7","","72","","","","7","","9","","24.1","","100.81","","","","-45","","Clear"
"-114.44","62.46","YELLOWKNIFE A","2204101","2019-02-24 09:00","2019","02","24","09:00","-35.4","","-38.9","","71","","","","6","","5","","24.1","","100.82","","","","-42","","NA"
"-114.44","62.46","YELLOWKNIFE A","2204101","2019-02-24 10:00","2019","02","24","10:00","-32.3","","-35.8","","72","","","","7","","3","","24.1","","100.82","","","","-36","","NA"
"-114.44","62.46","YELLOWKNIFE A","2204101","2019-02-24 11:00","2019","02","24","11:00","-29.7","","-33.0","","74","","","","10","","5","","24.1","","100.79","","","","-35","","Clear"
"-114.44","62.46","YELLOWKNIFE A","2204101","2019-02-24 12:00","2019","02","24","12:00","-26.8","","-30.0","","75","","","","15","","3","","24.1","","100.78","","","","-30","","NA"
"-114.44","62.46","YELLOWKNIFE A","2204101","2019-02-24 13:00","2019","02","24","13:00","-24.2","","-28.5","","68","","","","15","","8","","24.1","","100.77","","","","-31","","NA"
"-114.44","62.46","YELLOWKNIFE A","2204101","2019-02-24 14:00","2019","02","24","14:00","-23.6","","-28.4","","65","","","","15","","8","","24.1","","100.74","","","","-30","","Clear"
"-114.44","62.46","YELLOWKNIFE A","2204101","2019-02-24 15:00","2019","02","24","15:00","-23.1","","-28.1","","64","","","","14","","8","","24.1","","100.73","","","","-30","","NA"
"-114.44","62.46","YELLOWKNIFE A","2204101","2019-02-24 16:00","2019","02","24","16:00","-23.3","","-28.2","","65","","","","15","","8","","24.1","","100.68","","","","-30","","NA"
"-114.44","62.46","YELLOWKNIFE A","2204101","2019-02-24 17:00","2019","02","24","17:00","-23.0","","-28.0","","64","","","","18","","5","","24.1","","100.67","","","","-28","","Mainly Clear"
"-114.44","62.46","YELLOWKNIFE A","2204101","2019-02-24 18:00","2019","02","24","18:00","-24.8","","-29.2","","68","","","","19","","7","","24.1","","100.63","","","","-31","","NA"
"-114.44","62.46","YELLOWKNIFE A","2204101","2019-02-24 19:00","2019","02","24","19:00","-27.4","","-30.6","","75","","","","19","","3","","24.1","","100.56","","","","-31","","NA"
"-114.44","62.46","YELLOWKNIFE A","2204101","2019-02-24 20:00","2019","02","24","20:00","-28.0","","-31.4","","73","","","","15","","8","","24.1","","100.51","","","","-36","","Mostly Cloudy"
"-114.44","62.46","YELLOWKNIFE A","2204101","2019-02-24 21:00","2019","02","24","21:00","-27.9","","-30.6","","78","","","","16","","10","","24.1","","100.45","","","","-37","","Ice Crystals"
"-114.44","62.46","YELLOWKNIFE A","2204101","2019-02-24 22:00","2019","02","24","22:00","-27.8","","-30.4","","78","","","","18","","7","","24.1","","100.42","","","","-35","","Ice Crystals"
"-114.44","62.46","YELLOWKNIFE A","2204101","2019-02-24 23:00","2019","02","24","23:00","-28.4","","-31.1","","78","","","","17","","10","","24.1","","100.39","","","","-37","","Ice Crystals"
"-114.44","62.46","YELLOWKNIFE A","2204101","2019-02-25 00:00","2019","02","25","00:00","-28.9","","-31.7","","77","","","","16","","12","","24.1","","100.30","","","","-39","","NA"
"-114.44","62.46","YELLOWKNIFE A","2204101","2019-02-25 01:00","2019","02","25","01:00","-29.7","","-32.5","","77","","","","16","","12","","24.1","","100.22","","","","-40","","NA"
"-114.44","62.46","YELLOWKNIFE A","2204101","2019-02-25 02:00","2019","02","25","02:00","-29.5","","-32.4","","76","","","","17","","8","","24.1","","100.19","","","","-37","","Mainly Clear"
"-114.44","62.46","YELLOWKNIFE A","2204101","2019-02-25 03:00","2019","02","25","03:00","-28.8","","-31.7","","76","","","","17","","12","","24.1","","100.12","","","","-39","","NA"
"-114.44","62.46","YELLOWKNIFE A","2204101","2019-02-25 04:00","2019","02","25","04:00","-29.4","","-32.5","","76","","","","16","","15","","24.1","","100.02","","","","-41","","NA"
"-114.44","62.46","YELLOWKNIFE A","2204101","2019-02-25 05:00","2019","02","25","05:00","-29.7","","-32.7","","76","","","","17","","13","","24.1","","99.95","","","","-40","","Mainly Clear"
"-114.44","62.46","YELLOWKNIFE A","2204101","2019-02-25 06:00","2019","02","25","06:00","-30.0","","-32.9","","76","","","","17","","10","","24.1","","99.88","","","","-39","","NA"
"-114.44","62.46","YELLOWKNIFE A","2204101","2019-02-25 07:00","2019","02","25","07:00","-27.8","","-30.7","","76","","","","16","","8","","24.1","","99.82","","","","-35","","NA"
"-114.44","62.46","YELLOWKNIFE A","2204101","2019-02-25 08:00","2019","02","25","08:00","-26.9","","-29.9","","76","","","","36","","2","","24.1","","99.79","","","","-29","","Mostly Cloudy"
"-114.44","62.46","YELLOWKNIFE A","2204101","2019-02-25 09:00","2019","02","25","09:00","-25.6","","-28.6","","77","","","","0","","1","","24.1","","99.76","","","","-27","","NA"
"-114.44","62.46","YELLOWKNIFE A","2204101","2019-02-25 10:00","2019","02","25","10:00","-25.0","","-28.0","","77","","","","2","","4","","9.7","","99.77","","","","-29","","Snow"
"-114.44","62.46","YELLOWKNIFE A","2204101","2019-02-25 11:00","2019","02","25","11:00","-22.5","","-25.5","","77","","","","31","","8","","12.9","","99.78","","","","-29","","Snow"
"-114.44","62.46","YELLOWKNIFE A","2204101","2019-02-25 12:00","2019","02","25","12:00","-20.5","","-23.8","","76","","","","31","","12","","16.1","","99.75","","","","-29","","Snow"
"-114.44","62.46","YELLOWKNIFE A","2204101","2019-02-25 13:00","2019","02","25","13:00","-18.8","","-22.7","","71","","","","33","","12","","16.1","","99.81","","","","-27","","Snow"
"-114.44","62.46","YELLOWKNIFE A","2204101","2019-02-25 14:00","2019","02","25","14:00","-17.7","","-21.9","","70","","","","32","","12","","24.1","","99.81","","","","-25","","Snow"
"-114.44","62.46","YELLOWKNIFE A","2204101","2019-02-25 15:00","2019","02","25","15:00","-17.2","","-21.8","","68","","","","32","","15","","24.1","","99.82","","","","-26","","Snow"
"-114.44","62.46","YELLOWKNIFE A","2204101","2019-02-25 16:00","2019","02","25","16:00","-17.4","","-21.8","","69","","","","33","","13","","24.1","","99.85","","","","-25","","NA"
"-114.44","62.46","YELLOWKNIFE A","2204101","2019-02-25 17:00","2019","02","25","17:00","-18.0","","-22.1","","71","","","","31","","15","","24.1","","99.87","","","","-27","","Mostly Cloudy"
"-114.44","62.46","YELLOWKNIFE A","2204101","2019-02-25 18:00","2019","02","25","18:00","-19.4","","-22.9","","74","","","","31","","5","","24.1","","99.89","","","","-24","","NA"
"-114.44","62.46","YELLOWKNIFE A","2204101","2019-02-25 19:00","2019","02","25","19:00","-20.3","","-22.9","","80","","","","27","","7","","24.1","","99.89","","","","-26","","NA"
"-114.44","62.46","YELLOWKNIFE A","2204101","2019-02-25 20:00","2019","02","25","20:00","-21.0","","-23.3","","82","","","","29","","10","","24.1","","99.89","","","","-28","","Mainly Clear"
"-114.44","62.46","YELLOWKNIFE A","2204101","2019-02-25 21:00","2019","02","25","21:00","-21.1","","-23.4","","82","","","","28","","12","","24.1","","99.80","","","","-29","","NA"
"-114.44","62.46","YELLOWKNIFE A","2204101","2019-02-25 22:00","2019","02","25","22:00","-19.2","","-21.6","","82","","","","28","","10","","24.1","","99.80","","","","-26","","NA"
"-114.44","62.46","YELLOWKNIFE A","2204101","2019-02-25 23:00","2019","02","25","23:00","-18.0","","-20.4","","82","","","","27","","13","","24.1","","99.75","","","","-26","","Mostly Cloudy"
"-114.44","62.46","YELLOWKNIFE A","2204101","2019-02-26 00:00","2019","02","26","00:00","-17.5","","-19.7","","83","","","","27","","12","","24.1","","99.64","","","","-25","","NA"
"-114.44","62.46","YELLOWKNIFE A","2204101","2019-02-26 01:00","2019","02","26","01:00","-16.6","","-18.9","","82","","","","25","","10","","24.1","","99.62","","","","-23","","Snow"
"-114.44","62.46","YELLOWKNIFE A","2204101","2019-02-26 02:00","2019","02","26","02:00","-15.9","","-17.8","","86","","","","24","","11","","24.1","","99.51","","","","-23","","Snow"
"-114.44","62.46","YELLOWKNIFE A","2204101","2019-02-26 03:00","2019","02","26","03:00","-14.8","","-16.7","","85","","","","26","","12","","24.1","","99.48","","","","-22","","Snow"
"-114.44","62.46","YELLOWKNIFE A","2204101","2019-02-26 04:00","2019","02","26","04:00","-13.9","","-15.7","","86","","","","28","","16","","24.1","","99.44","","","","-22","","Snow"
"-114.44","62.46","YELLOWKNIFE A","2204101","2019-02-26 05:00","2019","02","26","05:00","-13.2","","-15.2","","85","","","","30","","16","","24.1","","99.45","","","","-21","","Snow"
"-114.44","62.46","YELLOWKNIFE A","2204101","2019-02-26 06:00","2019","02","26","06:00","-12.2","","-14.4","","84","","","","31","","20","","24.1","","99.47","","","","-21","","Snow"
"-114.44","62.46","YELLOWKNIFE A","2204101","2019-02-26 07:00","2019","02","26","07:00","-12.2","","-14.3","","84","","","","31","","14","","24.1","","99.46","","","","-19","","Snow"
"-114.44","62.46","YELLOWKNIFE A","2204101","2019-02-26 08:00","2019","02","26","08:00","-11.9","","-14.1","","84","","","","31","","17","","24.1","","99.46","","","","-20","","Mostly Cloudy"
"-114.44","62.46","YELLOWKNIFE A","2204101","2019-02-26 09:00","2019","02","26","09:00","-11.5","","-13.7","","84","","","","30","","13","","24.1","","99.48","","","","-18","","NA"
"-114.44","62.46","YELLOWKNIFE A","2204101","2019-02-26 10:00","2019","02","26","10:00","-11.0","","-13.3","","83","","","","29","","16","","24.1","","99.46","","","","-18","","NA"
"-114.44","62.46","YELLOWKNIFE A","2204101","2019-02-26 11:00","2019","02","26","11:00","-10.3","","-13.0","","81","","","","30","","18","","24.1","","99.43","","","","-18","","Mostly Cloudy"
"-114.44","62.46","YELLOWKNIFE A","2204101","2019-02-26 12:00","2019","02","26","12:00","-9.3","","-12.8","","76","","","","30","","22","","24.1","","99.45","","","","-17","","NA"
"-114.44","62.46","YELLOWKNIFE A","2204101","2019-02-26 13:00","2019","02","26","13:00","-9.0","","-12.8","","75","","","","30","","14","","24.1","","99.42","","","","-15","","NA"
"-114.44","62.46","YELLOWKNIFE A","2204101","2019-02-26 14:00","2019","02","26","14:00","-8.1","","-12.2","","72","","","","29","","17","","24.1","","99.38","","","","-15","","Mostly Cloudy"
"-114.44","62.46","YELLOWKNIFE A","2204101","2019-02-26 15:00","2019","02","26","15:00","-8.0","","-11.9","","73","","","","30","","17","","24.1","","99.38","","","","-15","","NA"
"-114.44","62.46","YELLOWKNIFE A","2204101","2019-02-26 16:00","2019","02","26","16:00","-7.4","","-11.2","","74","","","","26","","11","","24.1","","99.30","","","","-12","","NA"
"-114.44","62.46","YELLOWKNIFE A","2204101","2019-02-26 17:00","2019","02","26","17:00","-7.9","","-11.3","","76","","","","25","","14","","24.1","","99.25","","","","-14","","Mostly Cloudy"
"-114.44","62.46","YELLOWKNIFE A","2204101","2019-02-26 18:00","2019","02","26","18:00","-8.7","","-11.8","","78","","","","27","","14","","24.1","","99.19","","","","-15","","NA"
"-114.44","62.46","YELLOWKNIFE A","2204101","2019-02-26 19:00","2019","02","26","19:00","-8.4","","-11.3","","80","","","","29","","19","","24.1","","99.15","","","","-16","","NA"
"-114.44","62.46","YELLOWKNIFE A","2204101","2019-02-26 20:00","2019","02","26","20:00","-8.6","","-11.4","","81","","","","29","","21","","24.1","","99.12","","","","-16","","Mainly Clear"
"-114.44","62.46","YELLOWKNIFE A","2204101","2019-02-26 21:00","2019","02","26","21:00","-8.9","","-11.4","","82","","","","30","","20","","24.1","","99.14","","","","-16","","NA"
"-114.44","62.46","YELLOWKNIFE A","2204101","2019-02-26 22:00","2019","02","26","22:00","-7.8","","-11.0","","78","","","","32","","26","","16.1","","99.15","","","","-16","","Snow"
"-114.44","62.46","YELLOWKNIFE A","2204101","2019-02-26 23:00","2019","02","26","23:00","-8.2","","-11.1","","80","","","","34","","29","","4.8","","99.20","","","","-17","","Snow"
"-114.44","62.46","YELLOWKNIFE A","2204101","2019-02-27 00:00","2019","02","27","00:00","-9.4","","-12.5","","79","","","","35","","21","","24.1","","99.30","","","","-17","","Snow,Blowing Snow"
"-114.44","62.46","YELLOWKNIFE A","2204101","2019-02-27 01:00","2019","02","27","01:00","-9.8","","-12.6","","80","","","","32","","23","","24.1","","99.34","","","","-18","","Snow,Blowing Snow"
"-114.44","62.46","YELLOWKNIFE A","2204101","2019-02-27 02:00","2019","02","27","02:00","-10.1","","-13.8","","75","","","","34","","35","","9.7","","99.39","","","","-20","","Snow,Blowing Snow"
"-114.44","62.46","YELLOWKNIFE A","2204101","2019-02-27 03:00","2019","02","27","03:00","-10.2","","-14.0","","74","","","","34","","26","","24.1","","99.44","","","","-19","","Snow,Blowing Snow"
"-114.44","62.46","YELLOWKNIFE A","2204101","2019-02-27 04:00","2019","02","27","04:00","-10.4","","-14.2","","74","","","","33","","20","","24.1","","99.48","","","","-18","","Snow,Blowing Snow"
"-114.44","62.46","YELLOWKNIFE A","2204101","2019-02-27 05:00","2019","02","27","05:00","-10.6","","-14.7","","72","","","","32","","26","","24.1","","99.51","","","","-20","","Snow,Blowing Snow"
"-114.44","62.46","YELLOWKNIFE A","2204101","2019-02-27 06:00","2019","02","27","06:00","-10.8","","-15.4","","69","","","","33","","27","","24.1","","99.54","","","","-20","","Snow,Blowing Snow"
"-114.44","62.46","YELLOWKNIFE A","2204101","2019-02-27 07:00","2019","02","27","07:00","-11.2","","-15.3","","71","","","","33","","28","","24.1","","99.58","","","","-21","","Snow"
"-114.44","62.46","YELLOWKNIFE A","2204101","2019-02-27 08:00","2019","02","27","08:00","-11.4","","-15.5","","72","","","","32","","23","","24.1","","99.58","","","","-20","","Snow"
"-114.44","62.46","YELLOWKNIFE A","2204101","2019-02-27 09:00","2019","02","27","09:00","-11.3","","-16.1","","68","","","","34","","30","","24.1","","99.59","","","","-21","","Snow"
"-114.44","62.46","YELLOWKNIFE A","2204101","2019-02-27 10:00","2019","02","27","10:00","-11.7","","-16.2","","69","","","","32","","29","","24.1","","99.62","","","","-22","","Snow"
"-114.44","62.46","YELLOWKNIFE A","2204101","2019-02-27 11:00","2019","02","27","11:00","-11.9","","-16.4","","70","","","","34","","27","","24.1","","99.65","","","","-22","","Snow"
"-114.44","62.46","YELLOWKNIFE A","2204101","2019-02-27 12:00","2019","02","27","12:00","-12.6","","-18.4","","62","","","","35","","28","","24.1","","99.70","","","","-23","","NA"
"-114.44","62.46","YELLOWKNIFE A","2204101","2019-02-27 13:00","2019","02","27","13:00","-12.5","","-18.6","","61","","","","34","","21","","24.1","","99.72","","","","-21","","NA"
"-114.44","62.46","YELLOWKNIFE A","2204101","2019-02-27 14:00","2019","02","27","14:00","-12.3","","-18.3","","61","","","","33","","30","","24.1","","99.70","","","","-23","","Mainly Clear"
"-114.44","62.46","YELLOWKNIFE A","2204101","2019-02-27 15:00","2019","02","27","15:00","-12.3","","-18.3","","61","","","","34","","23","","24.1","","99.73","","","","-21","","NA"
"-114.44","62.46","YELLOWKNIFE A","2204101","2019-02-27 16:00","2019","02","27","16:00","-12.6","","-17.8","","66","","","","33","","26","","24.1","","99.74","","","","-22","","NA"
"-114.44","62.46","YELLOWKNIFE A","2204101","2019-02-27 17:00","2019","02","27","17:00","-13.5","","-18.0","","69","","","","34","","22","","24.1","","99.80","","","","-23","","Snow,Blowing Snow"
"-114.44","62.46","YELLOWKNIFE A","2204101","2019-02-27 18:00","2019","02","27","18:00","-14.6","","-18.8","","71","","","","35","","26","","24.1","","99.87","","","","-25","","Snow,Blowing Snow"
"-114.44","62.46","YELLOWKNIFE A","2204101","2019-02-27 19:00","2019","02","27","19:00","-16.3","","-20.3","","71","","","","35","","22","","24.1","","99.89","","","","-26","","Snow"
"-114.44","62.46","YELLOWKNIFE A","2204101","2019-02-27 20:00","2019","02","27","20:00","-17.8","","-21.8","","72","","","","35","","18","","24.1","","99.97","","","","-27","","Mostly Cloudy"
"-114.44","62.46","YELLOWKNIFE A","2204101","2019-02-27 21:00","2019","02","27","21:00","-18.5","","-22.3","","72","","","","34","","18","","24.1","","99.98","","","","-28","","NA"
"-114.44","62.46","YELLOWKNIFE A","2204101","2019-02-27 22:00","2019","02","27","22:00","-20.2","","-23.5","","75","","","","34","","16","","24.1","","100.03","","","","-30","","NA"
"-114.44","62.46","YELLOWKNIFE A","2204101","2019-02-27 23:00","2019","02","27","23:00","-21.5","","-24.6","","77","","","","35","","14","","24.1","","100.08","","","","-31","","Clear"
"-114.44","62.46","YELLOWKNIFE A","2204101","2019-02-28 00:00","2019","02","28","00:00","-22.4","","-25.4","","77","","","","35","","18","","24.1","","100.07","","","","-33","","NA"
"-114.44","62.46","YELLOWKNIFE A","2204101","2019-02-28 01:00","2019","02","28","01:00","-23.4","","-26.8","","75","","","","35","","13","","24.1","","100.12","","","","-33","","NA"
"-114.44","62.46","YELLOWKNIFE A","2204101","2019-02-28 02:00","2019","02","28","02:00","-24.5","","-27.5","","76","","","","35","","11","","24.1","","100.15","","","","-33","","Clear"
"-114.44","62.46","YELLOWKNIFE A","2204101","2019-02-28 03:00","2019","02","28","03:00","-25.2","","-28.3","","76","","","","34","","18","","24.1","","100.22","","","","-36","","NA"
"-114.44","62.46","YELLOWKNIFE A","2204101","2019-02-28 04:00","2019","02","28","04:00","-26.0","","-29.1","","75","","","","34","","13","","24.1","","100.22","","","","-36","","NA"
"-114.44","62.46","YELLOWKNIFE A","2204101","2019-02-28 05:00","2019","02","28","05:00","-26.8","","-30.0","","75","","","","34","","15","","24.1","","100.23","","","","-37","","Clear"
"-114.44","62.46","YELLOWKNIFE A","2204101","2019-02-28 06:00","2019","02","28","06:00","-26.1","","-29.5","","73","","","","35","","15","","24.1","","100.27","","","","-37","","NA"
"-114.44","62.46","YELLOWKNIFE A","2204101","2019-02-28 07:00","2019","02","28","07:00","-25.1","","-28.5","","74","","","","1","","19","","4.8","","100.31","","","","-37","","Snow"
"-114.44","62.46","YELLOWKNIFE A","2204101","2019-02-28 08:00","2019","02","28","08:00","-25.5","","-29.2","","72","","","","1","","17","","24.1","","100.37","","","","-37","","Mainly Clear"
"-114.44","62.46","YELLOWKNIFE A","2204101","2019-02-28 09:00","2019","02","28","09:00","-25.7","","-29.9","","69","","","","1","","20","","24.1","","100.45","","","","-38","","NA"
"-114.44","62.46","YELLOWKNIFE A","2204101","2019-02-28 10:00","2019","02","28","10:00","-26.0","","-30.8","","65","","","","2","","34","","24.1","","100.55","","","","-41","","NA"
"-114.44","62.46","YELLOWKNIFE A","2204101","2019-02-28 11:00","2019","02","28","11:00","-26.0","","-31.4","","61","","","","3","","25","","24.1","","100.70","","","","-39","","Clear"
"-114.44","62.46","YELLOWKNIFE A","2204101","2019-02-28 12:00","2019","02","28","12:00","-25.5","","-31.2","","60","","","","2","","22","","24.1","","100.81","","","","-38","","NA"
"-114.44","62.46","YELLOWKNIFE A","2204101","2019-02-28 13:00","2019","02","28","13:00","-24.9","","-31.1","","57","","","","3","","23","","24.1","","100.92","","","","-37","","NA"
"-114.44","62.46","YELLOWKNIFE A","2204101","2019-02-28 14:00","2019","02","28","14:00","-24.7","","-31.2","","56","","","","5","","23","","24.1","","101.02","","","","-37","","Clear"
"-114.44","62.46","YELLOWKNIFE A","2204101","2019-02-28 15:00","2019","02","28","15:00","-24.3","","-31.0","","55","","","","3","","21","","24.1","","101.11","","","","-36","","NA"
"-114.44","62.46","YELLOWKNIFE A","2204101","2019-02-28 16:00","2019","02","28","16:00","-24.3","","-30.8","","56","","","","2","","19","","24.1","","101.23","","","","-36","","NA"
"-114.44","62.46","YELLOWKNIFE A","2204101","2019-02-28 17:00","2019","02","28","17:00","-25.0","","-31.2","","57","","","","1","","23","","24.1","","101.32","","","","-38","","Clear"
"-114.44","62.46","YELLOWKNIFE A","2204101","2019-02-28 18:00","2019","02","28","18:00","-26.2","","-31.7","","61","","","","1","","19","","24.1","","101.42","","","","-38","","NA"
"-114.44","62.46","YELLOWKNIFE A","2204101","2019-02-28 19:00","2019","02","28","19:00","-28.0","","-32.8","","65","","","","36","","15","","24.1","","101.49","","","","-39","","NA"
"-114.44","62.46","YELLOWKNIFE A","2204101","2019-02-28 20:00","2019","02","28","20:00","-28.3","","-33.3","","63","","","","1","","23","","24.1","","101.55","","","","-42","","Clear"
"-114.44","62.46","YELLOWKNIFE A","2204101","2019-02-28 21:00","2019","02","28","21:00","-29.1","","-34.0","","64","","","","3","","15","","24.1","","101.64","","","","-40","","NA"
"-114.44","62.46","YELLOWKNIFE A","2204101","2019-02-28 22:00","2019","02","28","22:00","-30.1","","-34.9","","64","","","","4","","21","","24.1","","101.67","","","","-44","","NA"
"-114.44","62.46","YELLOWKNIFE A","2204101","2019-02-28 23:00","2019","02","28","23:00","-31.0","","-35.4","","66","","","","3","","12","","24.1","","101.74","","","","-41","","Clear"
