"Longitude (x)","Latitude (y)","Station Name","Climate ID","Date/Time (LST)","Year","Month","Day","Time (LST)","Temp (°C)","Temp Flag","Dew Point Temp (°C)","Dew Point Temp Flag","Rel Hum (%)","Rel Hum Flag","Precip. Amount (mm)","Precip. Amount Flag","Wind Dir (10s deg)","Wind Dir Flag","Wind Spd (km/h)","Wind Spd Flag","Visibility (km)","Visibility Flag","Stn Press (kPa)","Stn Press Flag","Hmdx","Hmdx Flag","Wind Chill","Wind Chill Flag","Weather"
"-121.58","50.22","LYTTON RCS","1114746","2018-01-01 00:00","2018","01","01","00:00","-16.4","","-19.0","","80","","0.0","","3","","10","","","","100.89","","","","-23","","NA"
"-121.58","50.22","LYTTON RCS","1114746","2018-01-01 01:00","2018","01","01","01:00","-16.5","","-19.3","","79","","0.0","","2","","7","","","","100.91","","","","-22","","NA"
"-121.58","50.22","LYTTON RCS","1114746","2018-01-01 02:00","2018","01","01","02:00","-16.7","","-19.0","","82","","0.0","","36","","3","","","","100.97","","","","-19","","NA"
"-121.58","50.22","LYTTON RCS","1114746","2018-01-01 03:00","2018","01","01","03:00","-16.8","","-19.4","","81","","0.0","","1","","4","","","","100.97","","","","-20","","NA"
"-121.58","50.22","LYTTON RCS","1114746","2018-01-01 04:00","2018","01","01","04:00","-17.1","","-19.3","","83","","0.0","","3","","3","","","","101.02","","","","-19","","NA"
"-121.58","50.22","LYTTON RCS","1114746","2018-01-01 05:00","2018","01","01","05:00","-16.8","","-19.1","","82","","0.0","","35","","4","","","","101.05","","","","-20","","NA"
"-121.58","50.22","LYTTON RCS","1114746","2018-01-01 06:00","2018","01","01","06:00","-16.9","","-19.0","","84","","0.0","","0","","1","","","","101.05","","","","-18","","NA"
"-121.58","50.22","LYTTON RCS","1114746","2018-01-01 07:00","2018","01","01","07:00","-16.9","","-19.0","","84","","0.0","","1","","7","","","","101.13","","","","-22","","NA"
"-121.58","50.22","LYTTON RCS","1114746","2018-01-01 08:00","2018","01","01","08:00","-16.9","","-18.9","","84","","0.0","","0","","1","","","","101.13","","","","-18","","NA"
"-121.58","50.22","LYTTON RCS","1114746","2018-01-01 09:00","2018","01","01","09:00","-16.4","","-18.5","","84","","0.0","","13","","2","","","","101.14","","","","-18","","NA"
"-121.58","50.22","LYTTON RCS","1114746","2018-01-01 10:00","2018","01","01","10:00","-14.9","","-18.0","","77","","0.0","","0","","1","","","","101.17","","","","-16","","NA"
"-121.58","50.22","LYTTON RCS","1114746","2018-01-01 11:00","2018","01","01","11:00","-13.1","","-18.0","","66","","0.0","","1","","4","","","","101.18","","","","-16","","NA"
"-121.58","50.22","LYTTON RCS","1114746","2018-01-01 12:00","2018","01","01","12:00","-11.6","","-15.5","","72","","0.0","","18","","3","","","","101.10","","","","-13","","NA"
"-121.58","50.22","LYTTON RCS","1114746","2018-01-01 13:00","2018","01","01","13:00","-10.1","","-14.8","","69","","0.0","","2","","10","","","","101.07","","","","-15","","NA"
"-121.58","50.22","LYTTON RCS","1114746","2018-01-01 14:00","2018","01","01","14:00","-8.8","","-14.1","","66","","0.0","","1","","5","","","","101.01","","","","-12","","NA"
"-121.58","50.22","LYTTON RCS","1114746","2018-01-01 15:00","2018","01","01","15:00","-10.3","","-13.7","","76","","0.0","","1","","9","","","","101.08","","","","-15","","NA"
"-121.58","50.22","LYTTON RCS","1114746","2018-01-01 16:00","2018","01","01","16:00","-11.2","","-14.1","","79","","0.0","","3","","13","","","","101.11","","","","-18","","NA"
"-121.58","50.22","LYTTON RCS","1114746","2018-01-01 17:00","2018","01","01","17:00","-11.9","","-13.9","","85","","0.0","","","","0","","","","101.18","","","","","","NA"
"-121.58","50.22","LYTTON RCS","1114746","2018-01-01 18:00","2018","01","01","18:00","-12.4","","-13.9","","89","","0.0","","19","","2","","","","101.20","","","","-14","","NA"
"-121.58","50.22","LYTTON RCS","1114746","2018-01-01 19:00","2018","01","01","19:00","-12.8","","-14.2","","89","","0.0","","5","","3","","","","101.20","","","","-15","","NA"
"-121.58","50.22","LYTTON RCS","1114746","2018-01-01 20:00","2018","01","01","20:00","-12.5","","-14.5","","85","","0.0","","4","","5","","","","101.22","","","","-16","","NA"
"-121.58","50.22","LYTTON RCS","1114746","2018-01-01 21:00","2018","01","01","21:00","-13.5","","-14.9","","89","","0.0","","2","","8","","","","101.26","","","","-19","","NA"
"-121.58","50.22","LYTTON RCS","1114746","2018-01-01 22:00","2018","01","01","22:00","-13.4","","-14.7","","89","","0.0","","33","","2","","","","101.25","","","","-15","","NA"
"-121.58","50.22","LYTTON RCS","1114746","2018-01-01 23:00","2018","01","01","23:00","-13.9","","-15.0","","91","","0.0","","8","","2","","","","101.27","","","","-15","","NA"
"-121.58","50.22","LYTTON RCS","1114746","2018-01-02 00:00","2018","01","02","00:00","-13.0","","-14.1","","91","","0.0","","1","","3","","","","101.29","","","","-15","","NA"
"-121.58","50.22","LYTTON RCS","1114746","2018-01-02 01:00","2018","01","02","01:00","-12.7","","-14.4","","87","","0.0","","2","","5","","","","101.29","","","","-16","","NA"
"-121.58","50.22","LYTTON RCS","1114746","2018-01-02 02:00","2018","01","02","02:00","-13.0","","-14.6","","88","","0.0","","36","","2","","","","101.33","","","","-14","","NA"
"-121.58","50.22","LYTTON RCS","1114746","2018-01-02 03:00","2018","01","02","03:00","-12.8","","-14.6","","86","","0.0","","36","","4","","","","101.35","","","","-15","","NA"
"-121.58","50.22","LYTTON RCS","1114746","2018-01-02 04:00","2018","01","02","04:00","-13.2","","-15.4","","84","","0.0","","2","","12","","","","101.32","","","","-20","","NA"
"-121.58","50.22","LYTTON RCS","1114746","2018-01-02 05:00","2018","01","02","05:00","-11.5","","-14.0","","82","","0.0","","1","","8","","","","101.29","","","","-16","","NA"
"-121.58","50.22","LYTTON RCS","1114746","2018-01-02 06:00","2018","01","02","06:00","-11.4","","-14.1","","80","","0.0","","36","","8","","","","101.25","","","","-16","","NA"
"-121.58","50.22","LYTTON RCS","1114746","2018-01-02 07:00","2018","01","02","07:00","-13.0","","-15.3","","83","","0.0","","1","","14","","","","101.25","","","","-20","","NA"
"-121.58","50.22","LYTTON RCS","1114746","2018-01-02 08:00","2018","01","02","08:00","-12.8","","-15.1","","83","","0.0","","1","","15","","","","101.27","","","","-20","","NA"
"-121.58","50.22","LYTTON RCS","1114746","2018-01-02 09:00","2018","01","02","09:00","-11.0","","-14.3","","77","","0.0","","4","","6","","","","101.22","","","","-15","","NA"
"-121.58","50.22","LYTTON RCS","1114746","2018-01-02 10:00","2018","01","02","10:00","-10.7","","-14.5","","74","","0.0","","36","","11","","","","101.19","","","","-16","","NA"
"-121.58","50.22","LYTTON RCS","1114746","2018-01-02 11:00","2018","01","02","11:00","-9.8","","-14.3","","70","","0.0","","36","","8","","","","101.12","","","","-14","","NA"
"-121.58","50.22","LYTTON RCS","1114746","2018-01-02 12:00","2018","01","02","12:00","-9.2","","-13.8","","69","","0.0","","35","","6","","","","101.03","","","","-13","","NA"
"-121.58","50.22","LYTTON RCS","1114746","2018-01-02 13:00","2018","01","02","13:00","-8.5","","-13.2","","69","","0.0","","1","","9","","","","100.91","","","","-13","","NA"
"-121.58","50.22","LYTTON RCS","1114746","2018-01-02 14:00","2018","01","02","14:00","-7.9","","-12.8","","68","","0.0","","1","","8","","","","100.83","","","","-12","","NA"
"-121.58","50.22","LYTTON RCS","1114746","2018-01-02 15:00","2018","01","02","15:00","-8.0","","-12.6","","70","","0.0","","36","","11","","","","100.77","","","","-13","","NA"
"-121.58","50.22","LYTTON RCS","1114746","2018-01-02 16:00","2018","01","02","16:00","-7.7","","-12.3","","70","","0.0","","36","","9","","","","100.71","","","","-12","","NA"
"-121.58","50.22","LYTTON RCS","1114746","2018-01-02 17:00","2018","01","02","17:00","-7.8","","-12.1","","71","","0.0","","1","","8","","","","100.66","","","","-12","","NA"
"-121.58","50.22","LYTTON RCS","1114746","2018-01-02 18:00","2018","01","02","18:00","-7.8","","-11.7","","74","","0.0","","5","","2","","","","100.61","","","","-9","","NA"
"-121.58","50.22","LYTTON RCS","1114746","2018-01-02 19:00","2018","01","02","19:00","-7.7","","-11.7","","73","","0.0","","20","","2","","","","100.57","","","","-9","","NA"
"-121.58","50.22","LYTTON RCS","1114746","2018-01-02 20:00","2018","01","02","20:00","-8.0","","-11.3","","77","","0.0","","1","","2","","","","100.57","","","","-9","","NA"
"-121.58","50.22","LYTTON RCS","1114746","2018-01-02 21:00","2018","01","02","21:00","-7.7","","-11.1","","76","","0.0","","1","","7","","","","100.52","","","","-11","","NA"
"-121.58","50.22","LYTTON RCS","1114746","2018-01-02 22:00","2018","01","02","22:00","-7.9","","-10.6","","81","","0.0","","1","","8","","","","100.52","","","","-12","","NA"
"-121.58","50.22","LYTTON RCS","1114746","2018-01-02 23:00","2018","01","02","23:00","-7.5","","-10.7","","78","","0.0","","1","","10","","","","100.52","","","","-12","","NA"
"-121.58","50.22","LYTTON RCS","1114746","2018-01-03 00:00","2018","01","03","00:00","-7.3","","-10.5","","77","","0.0","","1","","8","","","","100.52","","","","-11","","NA"
"-121.58","50.22","LYTTON RCS","1114746","2018-01-03 01:00","2018","01","03","01:00","-7.5","","-10.1","","82","","0.0","","2","","10","","","","100.52","","","","-12","","NA"
"-121.58","50.22","LYTTON RCS","1114746","2018-01-03 02:00","2018","01","03","02:00","-7.7","","-10.2","","82","","0.0","","1","","7","","","","100.52","","","","-11","","NA"
"-121.58","50.22","LYTTON RCS","1114746","2018-01-03 03:00","2018","01","03","03:00","-9.0","","-10.7","","87","","0.0","","1","","4","","","","100.54","","","","-11","","NA"
"-121.58","50.22","LYTTON RCS","1114746","2018-01-03 04:00","2018","01","03","04:00","-9.9","","-11.4","","89","","0.0","","3","","11","","","","100.54","","","","-15","","NA"
"-121.58","50.22","LYTTON RCS","1114746","2018-01-03 05:00","2018","01","03","05:00","-11.1","","-12.7","","88","","0.0","","2","","13","","","","100.57","","","","-18","","NA"
"-121.58","50.22","LYTTON RCS","1114746","2018-01-03 06:00","2018","01","03","06:00","-11.1","","-12.7","","88","","0.0","","4","","7","","","","100.57","","","","-15","","NA"
"-121.58","50.22","LYTTON RCS","1114746","2018-01-03 07:00","2018","01","03","07:00","-12.3","","-13.7","","90","","0.0","","1","","9","","","","100.58","","","","-18","","NA"
"-121.58","50.22","LYTTON RCS","1114746","2018-01-03 08:00","2018","01","03","08:00","-12.3","","-13.8","","88","","0.0","","2","","10","","","","100.56","","","","-18","","NA"
"-121.58","50.22","LYTTON RCS","1114746","2018-01-03 09:00","2018","01","03","09:00","-12.0","","-13.3","","90","","0.0","","9","","3","","","","100.58","","","","-14","","NA"
"-121.58","50.22","LYTTON RCS","1114746","2018-01-03 10:00","2018","01","03","10:00","-12.1","","-13.8","","87","","0.0","","36","","3","","","","100.56","","","","-14","","NA"
"-121.58","50.22","LYTTON RCS","1114746","2018-01-03 11:00","2018","01","03","11:00","-9.1","","-13.6","","70","","0.0","","0","","1","","","","100.48","","","","-10","","NA"
"-121.58","50.22","LYTTON RCS","1114746","2018-01-03 12:00","2018","01","03","12:00","-6.4","","-11.9","","65","","0.0","","3","","4","","","","100.38","","","","-8","","NA"
"-121.58","50.22","LYTTON RCS","1114746","2018-01-03 13:00","2018","01","03","13:00","-5.7","","-11.7","","63","","0.0","","2","","5","","","","100.31","","","","-8","","NA"
"-121.58","50.22","LYTTON RCS","1114746","2018-01-03 14:00","2018","01","03","14:00","-5.2","","-10.6","","66","","0.0","","1","","10","","","","100.20","","","","-10","","NA"
"-121.58","50.22","LYTTON RCS","1114746","2018-01-03 15:00","2018","01","03","15:00","-6.3","","-10.1","","74","","0.0","","36","","9","","","","100.18","","","","-11","","NA"
"-121.58","50.22","LYTTON RCS","1114746","2018-01-03 16:00","2018","01","03","16:00","-7.2","","-10.1","","80","","0.0","","1","","13","","","","100.16","","","","-13","","NA"
"-121.58","50.22","LYTTON RCS","1114746","2018-01-03 17:00","2018","01","03","17:00","-8.6","","-10.9","","83","","0.0","","2","","13","","","","100.18","","","","-15","","NA"
"-121.58","50.22","LYTTON RCS","1114746","2018-01-03 18:00","2018","01","03","18:00","-9.5","","-11.4","","86","","0.0","","2","","14","","","","100.14","","","","-16","","NA"
"-121.58","50.22","LYTTON RCS","1114746","2018-01-03 19:00","2018","01","03","19:00","-10.1","","-11.9","","86","","0.0","","3","","8","","","","100.14","","","","-15","","NA"
"-121.58","50.22","LYTTON RCS","1114746","2018-01-03 20:00","2018","01","03","20:00","-10.2","","-11.8","","88","","0.0","","4","","5","","","","100.13","","","","-13","","NA"
"-121.58","50.22","LYTTON RCS","1114746","2018-01-03 21:00","2018","01","03","21:00","-11.0","","-12.5","","89","","0.0","","8","","3","","","","100.12","","","","-13","","NA"
"-121.58","50.22","LYTTON RCS","1114746","2018-01-03 22:00","2018","01","03","22:00","-11.5","","-12.9","","90","","0.0","","3","","3","","","","100.06","","","","-13","","NA"
"-121.58","50.22","LYTTON RCS","1114746","2018-01-03 23:00","2018","01","03","23:00","-11.5","","-12.8","","90","","0.0","","1","","3","","","","100.06","","","","-13","","NA"
"-121.58","50.22","LYTTON RCS","1114746","2018-01-04 00:00","2018","01","04","00:00","-11.5","","-12.4","","93","","0.0","","13","","3","","","","100.02","","","","-13","","NA"
"-121.58","50.22","LYTTON RCS","1114746","2018-01-04 01:00","2018","01","04","01:00","-11.8","","-12.9","","92","","0.0","","13","","1","","","","100.00","","","","-12","","NA"
"-121.58","50.22","LYTTON RCS","1114746","2018-01-04 02:00","2018","01","04","02:00","-11.5","","-12.5","","93","","0.0","","4","","2","","","","99.97","","","","-13","","NA"
"-121.58","50.22","LYTTON RCS","1114746","2018-01-04 03:00","2018","01","04","03:00","-11.3","","-12.0","","95","","0.0","","8","","2","","","","99.97","","","","-13","","NA"
"-121.58","50.22","LYTTON RCS","1114746","2018-01-04 04:00","2018","01","04","04:00","-11.6","","-12.6","","92","","0.0","","35","","3","","","","99.97","","","","-13","","NA"
"-121.58","50.22","LYTTON RCS","1114746","2018-01-04 05:00","2018","01","04","05:00","-12.4","","-13.4","","92","","0.0","","3","","2","","","","99.92","","","","-14","","NA"
"-121.58","50.22","LYTTON RCS","1114746","2018-01-04 06:00","2018","01","04","06:00","-12.4","","-13.1","","95","","0.0","","15","","2","","","","99.89","","","","-14","","NA"
"-121.58","50.22","LYTTON RCS","1114746","2018-01-04 07:00","2018","01","04","07:00","-13.2","","-14.0","","93","","0.0","","1","","3","","","","99.88","","","","-15","","NA"
"-121.58","50.22","LYTTON RCS","1114746","2018-01-04 08:00","2018","01","04","08:00","-12.9","","-13.8","","93","","0.0","","16","","1","","","","99.85","","","","-14","","NA"
"-121.58","50.22","LYTTON RCS","1114746","2018-01-04 09:00","2018","01","04","09:00","-11.6","","-12.5","","93","","0.0","","6","","1","","","","99.88","","","","-12","","NA"
"-121.58","50.22","LYTTON RCS","1114746","2018-01-04 10:00","2018","01","04","10:00","-10.0","","-11.0","","93","","0.0","","14","","5","","","","99.84","","","","-13","","NA"
"-121.58","50.22","LYTTON RCS","1114746","2018-01-04 11:00","2018","01","04","11:00","-8.5","","-10.1","","89","","0.0","","15","","5","","","","99.78","","","","-11","","NA"
"-121.58","50.22","LYTTON RCS","1114746","2018-01-04 12:00","2018","01","04","12:00","-7.4","","-10.4","","79","","0.0","","15","","3","","","","99.69","","","","-9","","NA"
"-121.58","50.22","LYTTON RCS","1114746","2018-01-04 13:00","2018","01","04","13:00","-6.4","","-10.1","","75","","0.0","","","","0","","","","99.62","","","","","","NA"
"-121.58","50.22","LYTTON RCS","1114746","2018-01-04 14:00","2018","01","04","14:00","-6.0","","-10.3","","72","","0.0","","30","","2","","","","99.58","","","","-7","","NA"
"-121.58","50.22","LYTTON RCS","1114746","2018-01-04 15:00","2018","01","04","15:00","-5.5","","-9.5","","73","","0.0","","5","","3","","","","99.55","","","","-7","","NA"
"-121.58","50.22","LYTTON RCS","1114746","2018-01-04 16:00","2018","01","04","16:00","-5.8","","-9.4","","76","","0.0","","17","","5","","","","99.56","","","","-8","","NA"
"-121.58","50.22","LYTTON RCS","1114746","2018-01-04 17:00","2018","01","04","17:00","-5.9","","-8.9","","79","","0.0","","11","","2","","","","99.51","","","","-7","","NA"
"-121.58","50.22","LYTTON RCS","1114746","2018-01-04 18:00","2018","01","04","18:00","-6.0","","-8.4","","83","","0.0","","16","","6","","","","99.49","","","","-9","","NA"
"-121.58","50.22","LYTTON RCS","1114746","2018-01-04 19:00","2018","01","04","19:00","-6.4","","-8.7","","84","","0.0","","16","","3","","","","99.48","","","","-8","","NA"
"-121.58","50.22","LYTTON RCS","1114746","2018-01-04 20:00","2018","01","04","20:00","-6.3","","-8.2","","86","","0.0","","18","","2","","","","99.46","","","","-7","","NA"
"-121.58","50.22","LYTTON RCS","1114746","2018-01-04 21:00","2018","01","04","21:00","-6.1","","-8.0","","86","","0.0","","0","","1","","","","99.45","","","","-7","","NA"
"-121.58","50.22","LYTTON RCS","1114746","2018-01-04 22:00","2018","01","04","22:00","-5.7","","-7.7","","86","","0.0","","16","","3","","","","99.46","","","","-7","","NA"
"-121.58","50.22","LYTTON RCS","1114746","2018-01-04 23:00","2018","01","04","23:00","-5.5","","-8.0","","83","","0.0","","14","","2","","","","99.47","","","","-6","","NA"
"-121.58","50.22","LYTTON RCS","1114746","2018-01-05 00:00","2018","01","05","00:00","-6.0","","-7.9","","86","","0.0","","14","","2","","","","99.43","","","","-7","","NA"
"-121.58","50.22","LYTTON RCS","1114746","2018-01-05 01:00","2018","01","05","01:00","-6.3","","-8.1","","88","","0.0","","0","","1","","","","99.43","","","","-7","","NA"
"-121.58","50.22","LYTTON RCS","1114746","2018-01-05 02:00","2018","01","05","02:00","-6.2","","-7.6","","90","","0.0","","1","","3","","","","99.42","","","","-8","","NA"
"-121.58","50.22","LYTTON RCS","1114746","2018-01-05 03:00","2018","01","05","03:00","-5.8","","-7.0","","91","","0.0","","0","","1","","","","99.41","","","","-6","","NA"
"-121.58","50.22","LYTTON RCS","1114746","2018-01-05 04:00","2018","01","05","04:00","-5.3","","-6.5","","91","","0.0","","14","","1","","","","99.35","","","","-6","","NA"
"-121.58","50.22","LYTTON RCS","1114746","2018-01-05 05:00","2018","01","05","05:00","-4.7","","-6.4","","88","","0.0","","17","","3","","","","99.28","","","","-6","","NA"
"-121.58","50.22","LYTTON RCS","1114746","2018-01-05 06:00","2018","01","05","06:00","-4.3","","-6.3","","86","","0.0","","15","","4","","","","99.26","","","","-6","","NA"
"-121.58","50.22","LYTTON RCS","1114746","2018-01-05 07:00","2018","01","05","07:00","-4.2","","-6.0","","87","","0.0","","15","","5","","","","99.23","","","","-6","","NA"
"-121.58","50.22","LYTTON RCS","1114746","2018-01-05 08:00","2018","01","05","08:00","-4.1","","-5.4","","90","","0.0","","15","","6","","","","99.21","","","","-7","","NA"
"-121.58","50.22","LYTTON RCS","1114746","2018-01-05 09:00","2018","01","05","09:00","-3.9","","-5.0","","92","","0.0","","16","","9","","","","99.21","","","","-8","","NA"
"-121.58","50.22","LYTTON RCS","1114746","2018-01-05 10:00","2018","01","05","10:00","-3.4","","-4.8","","90","","0.0","","16","","8","","","","99.23","","","","-7","","NA"
"-121.58","50.22","LYTTON RCS","1114746","2018-01-05 11:00","2018","01","05","11:00","-3.0","","-4.2","","91","","0.0","","17","","12","","","","99.16","","","","-7","","NA"
"-121.58","50.22","LYTTON RCS","1114746","2018-01-05 12:00","2018","01","05","12:00","-2.5","","-3.4","","94","","0.0","","16","","11","","","","99.10","","","","-7","","NA"
"-121.58","50.22","LYTTON RCS","1114746","2018-01-05 13:00","2018","01","05","13:00","-1.8","","-3.1","","91","","0.0","","17","","10","","","","99.02","","","","-5","","NA"
"-121.58","50.22","LYTTON RCS","1114746","2018-01-05 14:00","2018","01","05","14:00","-1.7","","-2.6","","93","","0.0","","17","","11","","","","98.96","","","","-6","","NA"
"-121.58","50.22","LYTTON RCS","1114746","2018-01-05 15:00","2018","01","05","15:00","-1.4","","-1.9","","97","","0.0","","17","","14","","","","98.95","","","","-6","","NA"
"-121.58","50.22","LYTTON RCS","1114746","2018-01-05 16:00","2018","01","05","16:00","-1.3","","-1.7","","97","","0.0","","17","","11","","","","98.95","","","","-5","","NA"
"-121.58","50.22","LYTTON RCS","1114746","2018-01-05 17:00","2018","01","05","17:00","-1.2","","-1.4","","99","","0.0","","18","","8","","","","98.92","","","","-4","","NA"
"-121.58","50.22","LYTTON RCS","1114746","2018-01-05 18:00","2018","01","05","18:00","-0.9","","-1.1","","98","","0.0","","16","","8","","","","98.90","","","","-4","","NA"
"-121.58","50.22","LYTTON RCS","1114746","2018-01-05 19:00","2018","01","05","19:00","-0.8","","-0.9","","99","","0.0","","17","","6","","","","98.92","","","","-3","","NA"
"-121.58","50.22","LYTTON RCS","1114746","2018-01-05 20:00","2018","01","05","20:00","-0.7","","-0.9","","99","","0.0","","16","","5","","","","98.89","","","","-2","","NA"
"-121.58","50.22","LYTTON RCS","1114746","2018-01-05 21:00","2018","01","05","21:00","-0.6","","-0.8","","99","","0.0","","18","","2","","","","98.92","","","","-1","","NA"
"-121.58","50.22","LYTTON RCS","1114746","2018-01-05 22:00","2018","01","05","22:00","-0.4","","-0.6","","99","","0.0","","12","","2","","","","98.92","","","","-1","","NA"
"-121.58","50.22","LYTTON RCS","1114746","2018-01-05 23:00","2018","01","05","23:00","-0.5","","-0.6","","99","","0.0","","8","","1","","","","98.95","","","","-1","","NA"
"-121.58","50.22","LYTTON RCS","1114746","2018-01-06 00:00","2018","01","06","00:00","-0.6","","-0.9","","98","","0.0","","35","","1","","","","98.96","","","","-1","","NA"
"-121.58","50.22","LYTTON RCS","1114746","2018-01-06 01:00","2018","01","06","01:00","-0.6","","-0.8","","99","","0.0","","5","","2","","","","98.98","","","","-1","","NA"
"-121.58","50.22","LYTTON RCS","1114746","2018-01-06 02:00","2018","01","06","02:00","-0.5","","-0.6","","99","","0.0","","2","","5","","","","99.07","","","","-2","","NA"
"-121.58","50.22","LYTTON RCS","1114746","2018-01-06 03:00","2018","01","06","03:00","-0.6","","-0.7","","99","","0.0","","17","","1","","","","99.08","","","","-1","","NA"
"-121.58","50.22","LYTTON RCS","1114746","2018-01-06 04:00","2018","01","06","04:00","-0.6","","-0.7","","99","","0.0","","2","","1","","","","99.05","","","","-1","","NA"
"-121.58","50.22","LYTTON RCS","1114746","2018-01-06 05:00","2018","01","06","05:00","-0.7","","-1.1","","98","","0.0","","33","","2","","","","99.05","","","","-1","","NA"
"-121.58","50.22","LYTTON RCS","1114746","2018-01-06 06:00","2018","01","06","06:00","-0.6","","-1.0","","98","","0.0","","34","","4","","","","99.16","","","","-2","","NA"
"-121.58","50.22","LYTTON RCS","1114746","2018-01-06 07:00","2018","01","06","07:00","-0.7","","-1.3","","96","","0.0","","8","","1","","","","99.22","","","","-1","","NA"
"-121.58","50.22","LYTTON RCS","1114746","2018-01-06 08:00","2018","01","06","08:00","-0.7","","-1.0","","97","","0.0","","19","","1","","","","99.22","","","","-1","","NA"
"-121.58","50.22","LYTTON RCS","1114746","2018-01-06 09:00","2018","01","06","09:00","-0.5","","-0.9","","97","","0.0","","0","","1","","","","99.31","","","","-1","","NA"
"-121.58","50.22","LYTTON RCS","1114746","2018-01-06 10:00","2018","01","06","10:00","-0.1","","-1.0","","94","","0.0","","0","","1","","","","99.34","","","","0","","NA"
"-121.58","50.22","LYTTON RCS","1114746","2018-01-06 11:00","2018","01","06","11:00","0.1","","-1.0","","92","","0.0","","6","","1","","","","99.33","","","","","","NA"
"-121.58","50.22","LYTTON RCS","1114746","2018-01-06 12:00","2018","01","06","12:00","0.8","","-0.9","","88","","0.0","","1","","6","","","","99.32","","","","","","NA"
"-121.58","50.22","LYTTON RCS","1114746","2018-01-06 13:00","2018","01","06","13:00","1.2","","-0.6","","88","","0.0","","36","","5","","","","99.28","","","","","","NA"
"-121.58","50.22","LYTTON RCS","1114746","2018-01-06 14:00","2018","01","06","14:00","1.3","","-0.4","","88","","0.0","","1","","7","","","","99.26","","","","","","NA"
"-121.58","50.22","LYTTON RCS","1114746","2018-01-06 15:00","2018","01","06","15:00","1.4","","-0.2","","89","","0.0","","1","","11","","","","99.28","","","","","","NA"
"-121.58","50.22","LYTTON RCS","1114746","2018-01-06 16:00","2018","01","06","16:00","1.3","","0.0","","91","","0.0","","2","","7","","","","99.31","","","","","","NA"
"-121.58","50.22","LYTTON RCS","1114746","2018-01-06 17:00","2018","01","06","17:00","1.3","","0.2","","92","","0.0","","1","","11","","","","99.32","","","","","","NA"
"-121.58","50.22","LYTTON RCS","1114746","2018-01-06 18:00","2018","01","06","18:00","1.1","","0.0","","93","","0.0","","1","","11","","","","99.30","","","","","","NA"
"-121.58","50.22","LYTTON RCS","1114746","2018-01-06 19:00","2018","01","06","19:00","4.6","","1.1","","78","","0.0","","19","","18","","","","99.26","","","","","","NA"
"-121.58","50.22","LYTTON RCS","1114746","2018-01-06 20:00","2018","01","06","20:00","4.9","","1.5","","79","","0.0","","22","","11","","","","99.26","","","","","","NA"
"-121.58","50.22","LYTTON RCS","1114746","2018-01-06 21:00","2018","01","06","21:00","2.9","","0.7","","85","","0.0","","23","","8","","","","99.29","","","","","","NA"
"-121.58","50.22","LYTTON RCS","1114746","2018-01-06 22:00","2018","01","06","22:00","1.1","","0.2","","94","","0.0","","1","","8","","","","99.32","","","","","","NA"
"-121.58","50.22","LYTTON RCS","1114746","2018-01-06 23:00","2018","01","06","23:00","0.6","","0.0","","96","","0.0","","1","","6","","","","99.30","","","","","","NA"
"-121.58","50.22","LYTTON RCS","1114746","2018-01-07 00:00","2018","01","07","00:00","0.5","","-0.1","","96","","0.0","","36","","7","","","","99.27","","","","","","NA"
"-121.58","50.22","LYTTON RCS","1114746","2018-01-07 01:00","2018","01","07","01:00","0.2","","-0.2","","97","","0.0","","1","","9","","","","99.30","","","","","","NA"
"-121.58","50.22","LYTTON RCS","1114746","2018-01-07 02:00","2018","01","07","02:00","0.4","","0.0","","97","","0.0","","2","","6","","","","99.29","","","","","","NA"
"-121.58","50.22","LYTTON RCS","1114746","2018-01-07 03:00","2018","01","07","03:00","0.3","","-0.1","","97","","0.0","","36","","6","","","","99.27","","","","","","NA"
"-121.58","50.22","LYTTON RCS","1114746","2018-01-07 04:00","2018","01","07","04:00","0.2","","-0.1","","97","","0.0","","1","","7","","","","99.21","","","","","","NA"
"-121.58","50.22","LYTTON RCS","1114746","2018-01-07 05:00","2018","01","07","05:00","0.5","","0.2","","98","","0.0","","1","","8","","","","99.18","","","","","","NA"
"-121.58","50.22","LYTTON RCS","1114746","2018-01-07 06:00","2018","01","07","06:00","3.8","","2.1","","89","","0.0","","18","","18","","","","99.10","","","","","","NA"
"-121.58","50.22","LYTTON RCS","1114746","2018-01-07 07:00","2018","01","07","07:00","3.3","","1.5","","88","","0.0","","15","","15","","","","99.00","","","","","","NA"
"-121.58","50.22","LYTTON RCS","1114746","2018-01-07 08:00","2018","01","07","08:00","3.2","","1.4","","88","","0.0","","17","","11","","","","98.95","","","","","","NA"
"-121.58","50.22","LYTTON RCS","1114746","2018-01-07 09:00","2018","01","07","09:00","1.6","","0.0","","90","","0.0","","33","","5","","","","98.95","","","","","","NA"
"-121.58","50.22","LYTTON RCS","1114746","2018-01-07 10:00","2018","01","07","10:00","2.4","","0.9","","90","","0.0","","2","","8","","","","98.83","","","","","","NA"
"-121.58","50.22","LYTTON RCS","1114746","2018-01-07 11:00","2018","01","07","11:00","2.7","","0.1","","83","","0.0","","2","","5","","","","98.79","","","","","","NA"
"-121.58","50.22","LYTTON RCS","1114746","2018-01-07 12:00","2018","01","07","12:00","5.1","","1.4","","77","","0.0","","18","","25","","","","98.61","","","","","","NA"
"-121.58","50.22","LYTTON RCS","1114746","2018-01-07 13:00","2018","01","07","13:00","5.9","","1.3","","72","","0.0","","19","","32","","","","98.50","","","","","","NA"
"-121.58","50.22","LYTTON RCS","1114746","2018-01-07 14:00","2018","01","07","14:00","5.7","","1.3","","73","","0.0","","18","","34","","","","98.40","","","","","","NA"
"-121.58","50.22","LYTTON RCS","1114746","2018-01-07 15:00","2018","01","07","15:00","6.1","","1.5","","73","","0.0","","20","","31","","","","98.34","","","","","","NA"
"-121.58","50.22","LYTTON RCS","1114746","2018-01-07 16:00","2018","01","07","16:00","6.3","","1.2","","69","","0.0","","19","","30","","","","98.38","","","","","","NA"
"-121.58","50.22","LYTTON RCS","1114746","2018-01-07 17:00","2018","01","07","17:00","6.5","","1.1","","68","","0.0","","20","","33","","","","98.36","","","","","","NA"
"-121.58","50.22","LYTTON RCS","1114746","2018-01-07 18:00","2018","01","07","18:00","6.0","","1.3","","72","","0.0","","19","","31","","","","98.34","","","","","","NA"
"-121.58","50.22","LYTTON RCS","1114746","2018-01-07 19:00","2018","01","07","19:00","5.8","","1.7","","75","","0.0","","17","","37","","","","98.37","","","","","","NA"
"-121.58","50.22","LYTTON RCS","1114746","2018-01-07 20:00","2018","01","07","20:00","5.3","","1.6","","77","","0.0","","17","","33","","","","98.32","","","","","","NA"
"-121.58","50.22","LYTTON RCS","1114746","2018-01-07 21:00","2018","01","07","21:00","4.9","","1.8","","80","","0.0","","17","","36","","","","98.31","","","","","","NA"
"-121.58","50.22","LYTTON RCS","1114746","2018-01-07 22:00","2018","01","07","22:00","5.2","","2.1","","80","","0.0","","17","","35","","","","98.33","","","","","","NA"
"-121.58","50.22","LYTTON RCS","1114746","2018-01-07 23:00","2018","01","07","23:00","5.0","","2.0","","81","","0.0","","18","","22","","","","98.37","","","","","","NA"
"-121.58","50.22","LYTTON RCS","1114746","2018-01-08 00:00","2018","01","08","00:00","5.0","","2.2","","82","","0.0","","16","","19","","","","98.35","","","","","","NA"
"-121.58","50.22","LYTTON RCS","1114746","2018-01-08 01:00","2018","01","08","01:00","5.0","","2.5","","84","","0.0","","17","","24","","","","98.30","","","","","","NA"
"-121.58","50.22","LYTTON RCS","1114746","2018-01-08 02:00","2018","01","08","02:00","4.8","","2.1","","82","","0.0","","15","","21","","","","98.24","","","","","","NA"
"-121.58","50.22","LYTTON RCS","1114746","2018-01-08 03:00","2018","01","08","03:00","5.1","","2.2","","82","","0.0","","16","","24","","","","98.18","","","","","","NA"
"-121.58","50.22","LYTTON RCS","1114746","2018-01-08 04:00","2018","01","08","04:00","1.1","","-1.4","","84","","0.0","","31","","6","","","","98.21","","","","","","NA"
"-121.58","50.22","LYTTON RCS","1114746","2018-01-08 05:00","2018","01","08","05:00","0.3","","-1.0","","91","","0.0","","35","","7","","","","98.26","","","","","","NA"
"-121.58","50.22","LYTTON RCS","1114746","2018-01-08 06:00","2018","01","08","06:00","0.2","","-1.1","","91","","0.0","","35","","6","","","","98.24","","","","","","NA"
"-121.58","50.22","LYTTON RCS","1114746","2018-01-08 07:00","2018","01","08","07:00","0.1","","-1.1","","92","","0.0","","35","","4","","","","98.25","","","","","","NA"
"-121.58","50.22","LYTTON RCS","1114746","2018-01-08 08:00","2018","01","08","08:00","-0.3","","-1.4","","92","","0.0","","1","","8","","","","98.26","","","","-3","","NA"
"-121.58","50.22","LYTTON RCS","1114746","2018-01-08 09:00","2018","01","08","09:00","0.0","","-1.2","","92","","0.0","","3","","6","","","","98.25","","","","-2","","NA"
"-121.58","50.22","LYTTON RCS","1114746","2018-01-08 10:00","2018","01","08","10:00","0.3","","-1.4","","88","","0.0","","35","","2","","","","98.24","","","","","","NA"
"-121.58","50.22","LYTTON RCS","1114746","2018-01-08 11:00","2018","01","08","11:00","0.9","","-1.0","","87","","0.0","","36","","7","","","","98.21","","","","","","NA"
"-121.58","50.22","LYTTON RCS","1114746","2018-01-08 12:00","2018","01","08","12:00","2.1","","-0.6","","82","","0.0","","36","","4","","","","98.13","","","","","","NA"
"-121.58","50.22","LYTTON RCS","1114746","2018-01-08 13:00","2018","01","08","13:00","2.7","","-0.1","","82","","0.0","","36","","4","","","","98.06","","","","","","NA"
"-121.58","50.22","LYTTON RCS","1114746","2018-01-08 14:00","2018","01","08","14:00","3.1","","0.0","","80","","0.0","","36","","2","","","","98.01","","","","","","NA"
"-121.58","50.22","LYTTON RCS","1114746","2018-01-08 15:00","2018","01","08","15:00","2.9","","0.2","","83","","0.0","","4","","2","","","","97.98","","","","","","NA"
"-121.58","50.22","LYTTON RCS","1114746","2018-01-08 16:00","2018","01","08","16:00","2.6","","0.3","","85","","0.0","","1","","5","","","","97.95","","","","","","NA"
"-121.58","50.22","LYTTON RCS","1114746","2018-01-08 17:00","2018","01","08","17:00","2.3","","0.4","","87","","0.0","","2","","3","","","","97.92","","","","","","NA"
"-121.58","50.22","LYTTON RCS","1114746","2018-01-08 18:00","2018","01","08","18:00","2.2","","0.4","","87","","0.0","","","","0","","","","97.89","","","","","","NA"
"-121.58","50.22","LYTTON RCS","1114746","2018-01-08 19:00","2018","01","08","19:00","2.1","","0.5","","89","","0.0","","14","","3","","","","97.80","","","","","","NA"
"-121.58","50.22","LYTTON RCS","1114746","2018-01-08 20:00","2018","01","08","20:00","2.1","","0.7","","90","","0.0","","14","","3","","","","97.75","","","","","","NA"
"-121.58","50.22","LYTTON RCS","1114746","2018-01-08 21:00","2018","01","08","21:00","1.8","","0.5","","91","","0.0","","1","","1","","","","97.70","","","","","","NA"
"-121.58","50.22","LYTTON RCS","1114746","2018-01-08 22:00","2018","01","08","22:00","1.6","","0.4","","92","","0.0","","14","","5","","","","97.65","","","","","","NA"
"-121.58","50.22","LYTTON RCS","1114746","2018-01-08 23:00","2018","01","08","23:00","1.7","","0.6","","92","","0.0","","","","0","","","","97.60","","","","","","NA"
"-121.58","50.22","LYTTON RCS","1114746","2018-01-09 00:00","2018","01","09","00:00","1.5","","0.6","","94","","0.0","","14","","5","","","","97.55","","","","","","NA"
"-121.58","50.22","LYTTON RCS","1114746","2018-01-09 01:00","2018","01","09","01:00","1.0","","0.8","","98","","0.3","","","","0","","","","97.49","","","","","","NA"
"-121.58","50.22","LYTTON RCS","1114746","2018-01-09 02:00","2018","01","09","02:00","0.8","","0.7","","100","","0.3","","0","","1","","","","97.47","","","","","","NA"
"-121.58","50.22","LYTTON RCS","1114746","2018-01-09 03:00","2018","01","09","03:00","1.0","","1.0","","100","","0.2","","0","","1","","","","97.41","","","","","","NA"
"-121.58","50.22","LYTTON RCS","1114746","2018-01-09 04:00","2018","01","09","04:00","0.8","","0.8","","100","","0.0","","7","","2","","","","97.34","","","","","","NA"
"-121.58","50.22","LYTTON RCS","1114746","2018-01-09 05:00","2018","01","09","05:00","0.6","","0.6","","100","","0.0","","1","","1","","","","97.28","","","","","","NA"
"-121.58","50.22","LYTTON RCS","1114746","2018-01-09 06:00","2018","01","09","06:00","0.9","","0.9","","100","","0.2","","","","0","","","","97.27","","","","","","NA"
"-121.58","50.22","LYTTON RCS","1114746","2018-01-09 07:00","2018","01","09","07:00","0.8","","0.8","","100","","0.3","","15","","6","","","","97.23","","","","","","NA"
"-121.58","50.22","LYTTON RCS","1114746","2018-01-09 08:00","2018","01","09","08:00","0.7","","0.7","","100","","0.3","","6","","2","","","","97.26","","","","","","NA"
"-121.58","50.22","LYTTON RCS","1114746","2018-01-09 09:00","2018","01","09","09:00","1.2","","1.2","","100","","0.0","","6","","2","","","","97.28","","","","","","NA"
"-121.58","50.22","LYTTON RCS","1114746","2018-01-09 10:00","2018","01","09","10:00","1.2","","1.2","","100","","0.0","","1","","7","","","","97.34","","","","","","NA"
"-121.58","50.22","LYTTON RCS","1114746","2018-01-09 11:00","2018","01","09","11:00","1.6","","1.5","","99","","0.0","","2","","7","","","","97.35","","","","","","NA"
"-121.58","50.22","LYTTON RCS","1114746","2018-01-09 12:00","2018","01","09","12:00","1.9","","1.7","","98","","0.0","","2","","2","","","","97.38","","","","","","NA"
"-121.58","50.22","LYTTON RCS","1114746","2018-01-09 13:00","2018","01","09","13:00","2.4","","2.0","","97","","0.0","","36","","4","","","","97.42","","","","","","NA"
"-121.58","50.22","LYTTON RCS","1114746","2018-01-09 14:00","2018","01","09","14:00","2.9","","2.1","","95","","0.0","","3","","3","","","","97.44","","","","","","NA"
"-121.58","50.22","LYTTON RCS","1114746","2018-01-09 15:00","2018","01","09","15:00","2.5","","2.3","","98","","0.0","","14","","3","","","","97.51","","","","","","NA"
"-121.58","50.22","LYTTON RCS","1114746","2018-01-09 16:00","2018","01","09","16:00","2.1","","2.0","","100","","0.8","","35","","4","","","","97.59","","","","","","NA"
"-121.58","50.22","LYTTON RCS","1114746","2018-01-09 17:00","2018","01","09","17:00","2.0","","2.0","","100","","0.5","","13","","1","","","","97.62","","","","","","NA"
"-121.58","50.22","LYTTON RCS","1114746","2018-01-09 18:00","2018","01","09","18:00","1.7","","1.7","","100","","1.3","","","","0","","","","97.65","","","","","","NA"
"-121.58","50.22","LYTTON RCS","1114746","2018-01-09 19:00","2018","01","09","19:00","1.7","","1.7","","100","","0.8","","3","","3","","","","97.67","","","","","","NA"
"-121.58","50.22","LYTTON RCS","1114746","2018-01-09 20:00","2018","01","09","20:00","1.3","","1.3","","100","","1.3","","1","","7","","","","97.70","","","","","","NA"
"-121.58","50.22","LYTTON RCS","1114746","2018-01-09 21:00","2018","01","09","21:00","1.0","","1.0","","100","","0.5","","36","","4","","","","97.74","","","","","","NA"
"-121.58","50.22","LYTTON RCS","1114746","2018-01-09 22:00","2018","01","09","22:00","0.5","","0.5","","100","","0.6","","2","","2","","","","97.78","","","","","","NA"
"-121.58","50.22","LYTTON RCS","1114746","2018-01-09 23:00","2018","01","09","23:00","0.0","","0.0","","100","","1.5","","1","","5","","","","97.85","","","","-2","","NA"
"-121.58","50.22","LYTTON RCS","1114746","2018-01-10 00:00","2018","01","10","00:00","0.0","","0.0","","100","","1.1","","36","","2","","","","97.91","","","","-1","","NA"
"-121.58","50.22","LYTTON RCS","1114746","2018-01-10 01:00","2018","01","10","01:00","0.0","","0.0","","100","","0.5","","0","","1","","","","97.94","","","","0","","NA"
"-121.58","50.22","LYTTON RCS","1114746","2018-01-10 02:00","2018","01","10","02:00","0.0","","0.0","","100","","0.2","","13","","4","","","","97.99","","","","-1","","NA"
"-121.58","50.22","LYTTON RCS","1114746","2018-01-10 03:00","2018","01","10","03:00","0.2","","0.2","","100","","0.2","","","","0","","","","98.05","","","","","","NA"
"-121.58","50.22","LYTTON RCS","1114746","2018-01-10 04:00","2018","01","10","04:00","0.3","","0.3","","100","","0.2","","2","","5","","","","98.07","","","","","","NA"
"-121.58","50.22","LYTTON RCS","1114746","2018-01-10 05:00","2018","01","10","05:00","0.2","","0.2","","100","","0.2","","1","","6","","","","98.11","","","","","","NA"
"-121.58","50.22","LYTTON RCS","1114746","2018-01-10 06:00","2018","01","10","06:00","0.1","","0.1","","100","","0.2","","35","","4","","","","98.17","","","","","","NA"
"-121.58","50.22","LYTTON RCS","1114746","2018-01-10 07:00","2018","01","10","07:00","0.0","","0.0","","100","","0.0","","1","","5","","","","98.23","","","","-2","","NA"
"-121.58","50.22","LYTTON RCS","1114746","2018-01-10 08:00","2018","01","10","08:00","-0.7","","-1.0","","97","","0.0","","1","","9","","","","98.32","","","","-4","","NA"
"-121.58","50.22","LYTTON RCS","1114746","2018-01-10 09:00","2018","01","10","09:00","-1.2","","-1.8","","96","","0.0","","2","","8","","","","98.48","","","","-4","","NA"
"-121.58","50.22","LYTTON RCS","1114746","2018-01-10 10:00","2018","01","10","10:00","-1.4","","-2.8","","90","","0.2","","1","","10","","","","98.60","","","","-5","","NA"
"-121.58","50.22","LYTTON RCS","1114746","2018-01-10 11:00","2018","01","10","11:00","-2.0","","-4.5","","83","","0.0","","1","","16","","","","98.72","","","","-7","","NA"
"-121.58","50.22","LYTTON RCS","1114746","2018-01-10 12:00","2018","01","10","12:00","-2.5","","-6.0","","77","","0.0","","2","","18","","","","98.79","","","","-8","","NA"
"-121.58","50.22","LYTTON RCS","1114746","2018-01-10 13:00","2018","01","10","13:00","-2.5","","-6.6","","74","","0.0","","1","","16","","","","98.86","","","","-8","","NA"
"-121.58","50.22","LYTTON RCS","1114746","2018-01-10 14:00","2018","01","10","14:00","-2.5","","-6.2","","75","","0.0","","36","","10","","","","98.93","","","","-6","","NA"
"-121.58","50.22","LYTTON RCS","1114746","2018-01-10 15:00","2018","01","10","15:00","-3.0","","-6.9","","74","","0.0","","1","","12","","","","99.02","","","","-7","","NA"
"-121.58","50.22","LYTTON RCS","1114746","2018-01-10 16:00","2018","01","10","16:00","-3.4","","-7.9","","71","","0.0","","34","","14","","","","99.17","","","","-8","","NA"
"-121.58","50.22","LYTTON RCS","1114746","2018-01-10 17:00","2018","01","10","17:00","-3.6","","-8.7","","68","","0.0","","35","","19","","","","99.29","","","","-10","","NA"
"-121.58","50.22","LYTTON RCS","1114746","2018-01-10 18:00","2018","01","10","18:00","-4.0","","-8.9","","69","","0.0","","33","","15","","","","99.41","","","","-9","","NA"
"-121.58","50.22","LYTTON RCS","1114746","2018-01-10 19:00","2018","01","10","19:00","-4.7","","-9.1","","72","","0.0","","35","","20","","","","99.47","","","","-11","","NA"
"-121.58","50.22","LYTTON RCS","1114746","2018-01-10 20:00","2018","01","10","20:00","-4.7","","-9.7","","68","","0.0","","34","","21","","","","99.49","","","","-11","","NA"
"-121.58","50.22","LYTTON RCS","1114746","2018-01-10 21:00","2018","01","10","21:00","-5.5","","-9.8","","72","","0.0","","34","","14","","","","99.50","","","","-11","","NA"
"-121.58","50.22","LYTTON RCS","1114746","2018-01-10 22:00","2018","01","10","22:00","-5.6","","-10.4","","69","","0.0","","34","","16","","","","99.56","","","","-12","","NA"
"-121.58","50.22","LYTTON RCS","1114746","2018-01-10 23:00","2018","01","10","23:00","-5.7","","-10.6","","68","","0.0","","33","","12","","","","99.58","","","","-11","","NA"
"-121.58","50.22","LYTTON RCS","1114746","2018-01-11 00:00","2018","01","11","00:00","-5.8","","-10.6","","69","","0.0","","33","","8","","","","99.60","","","","-10","","NA"
"-121.58","50.22","LYTTON RCS","1114746","2018-01-11 01:00","2018","01","11","01:00","-6.2","","-11.2","","68","","0.0","","33","","7","","","","99.62","","","","-10","","NA"
"-121.58","50.22","LYTTON RCS","1114746","2018-01-11 02:00","2018","01","11","02:00","-6.7","","-11.7","","68","","0.0","","33","","7","","","","99.60","","","","-10","","NA"
"-121.58","50.22","LYTTON RCS","1114746","2018-01-11 03:00","2018","01","11","03:00","-7.2","","-11.8","","70","","0.0","","33","","8","","","","99.68","","","","-11","","NA"
"-121.58","50.22","LYTTON RCS","1114746","2018-01-11 04:00","2018","01","11","04:00","-7.7","","-13.2","","65","","0.0","","36","","6","","","","99.62","","","","-11","","NA"
"-121.58","50.22","LYTTON RCS","1114746","2018-01-11 05:00","2018","01","11","05:00","-8.0","","-13.8","","63","","0.0","","35","","14","","","","99.55","","","","-14","","NA"
"-121.58","50.22","LYTTON RCS","1114746","2018-01-11 06:00","2018","01","11","06:00","-8.3","","-13.5","","66","","0.0","","31","","9","","","","99.47","","","","-13","","NA"
"-121.58","50.22","LYTTON RCS","1114746","2018-01-11 07:00","2018","01","11","07:00","-8.7","","-13.2","","70","","0.0","","33","","7","","","","99.44","","","","-13","","NA"
"-121.58","50.22","LYTTON RCS","1114746","2018-01-11 08:00","2018","01","11","08:00","-9.3","","-13.3","","73","","0.0","","32","","9","","","","99.44","","","","-14","","NA"
"-121.58","50.22","LYTTON RCS","1114746","2018-01-11 09:00","2018","01","11","09:00","-9.3","","-13.6","","71","","0.0","","34","","8","","","","99.37","","","","-14","","NA"
"-121.58","50.22","LYTTON RCS","1114746","2018-01-11 10:00","2018","01","11","10:00","-9.7","","-13.9","","72","","0.0","","35","","12","","","","99.28","","","","-16","","NA"
"-121.58","50.22","LYTTON RCS","1114746","2018-01-11 11:00","2018","01","11","11:00","-9.6","","-14.2","","69","","0.0","","31","","10","","","","99.18","","","","-15","","NA"
"-121.58","50.22","LYTTON RCS","1114746","2018-01-11 12:00","2018","01","11","12:00","-9.6","","-14.4","","68","","0.0","","34","","10","","","","99.11","","","","-15","","NA"
"-121.58","50.22","LYTTON RCS","1114746","2018-01-11 13:00","2018","01","11","13:00","-9.2","","-13.8","","69","","0.0","","32","","13","","","","99.04","","","","-15","","NA"
"-121.58","50.22","LYTTON RCS","1114746","2018-01-11 14:00","2018","01","11","14:00","-9.3","","-14.2","","68","","0.0","","34","","12","","","","98.95","","","","-15","","NA"
"-121.58","50.22","LYTTON RCS","1114746","2018-01-11 15:00","2018","01","11","15:00","-9.4","","-14.4","","67","","0.0","","33","","13","","","","98.99","","","","-15","","NA"
"-121.58","50.22","LYTTON RCS","1114746","2018-01-11 16:00","2018","01","11","16:00","-9.4","","-14.3","","68","","0.0","","33","","8","","","","99.03","","","","-14","","NA"
"-121.58","50.22","LYTTON RCS","1114746","2018-01-11 17:00","2018","01","11","17:00","-9.9","","-15.0","","66","","0.0","","35","","15","","","","99.15","","","","-17","","NA"
"-121.58","50.22","LYTTON RCS","1114746","2018-01-11 18:00","2018","01","11","18:00","-10.2","","-15.2","","67","","0.0","","36","","11","","","","99.26","","","","-16","","NA"
"-121.58","50.22","LYTTON RCS","1114746","2018-01-11 19:00","2018","01","11","19:00","-10.2","","-15.3","","66","","0.0","","36","","20","","","","99.36","","","","-18","","NA"
"-121.58","50.22","LYTTON RCS","1114746","2018-01-11 20:00","2018","01","11","20:00","-10.1","","-15.5","","65","","0.0","","36","","17","","","","99.48","","","","-17","","NA"
"-121.58","50.22","LYTTON RCS","1114746","2018-01-11 21:00","2018","01","11","21:00","-10.1","","-15.4","","65","","0.0","","1","","10","","","","99.54","","","","-15","","NA"
"-121.58","50.22","LYTTON RCS","1114746","2018-01-11 22:00","2018","01","11","22:00","-10.0","","-15.5","","64","","0.0","","36","","13","","","","99.66","","","","-16","","NA"
"-121.58","50.22","LYTTON RCS","1114746","2018-01-11 23:00","2018","01","11","23:00","-9.9","","-15.5","","63","","0.0","","1","","16","","","","99.78","","","","-17","","NA"
"-121.58","50.22","LYTTON RCS","1114746","2018-01-12 00:00","2018","01","12","00:00","-10.1","","-14.9","","68","","0.0","","1","","13","","","","99.84","","","","-16","","NA"
"-121.58","50.22","LYTTON RCS","1114746","2018-01-12 01:00","2018","01","12","01:00","-10.8","","-14.8","","73","","0.0","","1","","2","","","","99.84","","","","-12","","NA"
"-121.58","50.22","LYTTON RCS","1114746","2018-01-12 02:00","2018","01","12","02:00","-10.1","","-14.7","","69","","0.0","","1","","11","","","","99.94","","","","-16","","NA"
"-121.58","50.22","LYTTON RCS","1114746","2018-01-12 03:00","2018","01","12","03:00","-10.1","","-14.6","","69","","0.0","","2","","10","","","","100.02","","","","-15","","NA"
"-121.58","50.22","LYTTON RCS","1114746","2018-01-12 04:00","2018","01","12","04:00","-10.1","","-14.4","","71","","0.0","","1","","15","","","","100.08","","","","-17","","NA"
"-121.58","50.22","LYTTON RCS","1114746","2018-01-12 05:00","2018","01","12","05:00","-9.9","","-14.4","","69","","0.0","","1","","14","","","","100.20","","","","-16","","NA"
"-121.58","50.22","LYTTON RCS","1114746","2018-01-12 06:00","2018","01","12","06:00","-9.9","","-13.8","","73","","0.0","","2","","10","","","","100.19","","","","-15","","NA"
"-121.58","50.22","LYTTON RCS","1114746","2018-01-12 07:00","2018","01","12","07:00","-9.7","","-13.8","","72","","0.0","","1","","5","","","","100.22","","","","-13","","NA"
"-121.58","50.22","LYTTON RCS","1114746","2018-01-12 08:00","2018","01","12","08:00","-9.8","","-14.2","","70","","0.0","","36","","9","","","","100.27","","","","-15","","NA"
"-121.58","50.22","LYTTON RCS","1114746","2018-01-12 09:00","2018","01","12","09:00","-9.3","","-13.5","","71","","0.0","","2","","7","","","","100.28","","","","-13","","NA"
"-121.58","50.22","LYTTON RCS","1114746","2018-01-12 10:00","2018","01","12","10:00","-8.9","","-13.4","","70","","0.0","","1","","5","","","","100.29","","","","-12","","NA"
"-121.58","50.22","LYTTON RCS","1114746","2018-01-12 11:00","2018","01","12","11:00","-8.0","","-13.2","","66","","0.0","","1","","9","","","","100.30","","","","-13","","NA"
"-121.58","50.22","LYTTON RCS","1114746","2018-01-12 12:00","2018","01","12","12:00","-7.3","","-12.5","","66","","0.0","","2","","8","","","","100.30","","","","-11","","NA"
"-121.58","50.22","LYTTON RCS","1114746","2018-01-12 13:00","2018","01","12","13:00","-6.6","","-11.7","","67","","0.0","","1","","7","","","","100.25","","","","-10","","NA"
"-121.58","50.22","LYTTON RCS","1114746","2018-01-12 14:00","2018","01","12","14:00","-6.6","","-11.5","","68","","0.0","","1","","2","","","","100.20","","","","-8","","NA"
"-121.58","50.22","LYTTON RCS","1114746","2018-01-12 15:00","2018","01","12","15:00","-6.4","","-10.3","","74","","0.0","","36","","2","","","","100.22","","","","-7","","NA"
"-121.58","50.22","LYTTON RCS","1114746","2018-01-12 16:00","2018","01","12","16:00","-6.7","","-9.8","","79","","0.0","","1","","2","","","","100.25","","","","-8","","NA"
"-121.58","50.22","LYTTON RCS","1114746","2018-01-12 17:00","2018","01","12","17:00","-7.3","","-9.3","","86","","0.0","","1","","7","","","","100.27","","","","-11","","NA"
"-121.58","50.22","LYTTON RCS","1114746","2018-01-12 18:00","2018","01","12","18:00","-7.2","","-9.2","","86","","0.0","","2","","5","","","","100.28","","","","-10","","NA"
"-121.58","50.22","LYTTON RCS","1114746","2018-01-12 19:00","2018","01","12","19:00","-7.2","","-9.0","","87","","0.0","","2","","5","","","","100.29","","","","-10","","NA"
"-121.58","50.22","LYTTON RCS","1114746","2018-01-12 20:00","2018","01","12","20:00","-7.3","","-9.0","","87","","0.0","","2","","3","","","","100.25","","","","-9","","NA"
"-121.58","50.22","LYTTON RCS","1114746","2018-01-12 21:00","2018","01","12","21:00","-7.2","","-9.0","","87","","0.0","","1","","2","","","","100.23","","","","-8","","NA"
"-121.58","50.22","LYTTON RCS","1114746","2018-01-12 22:00","2018","01","12","22:00","-7.1","","-8.9","","87","","0.0","","36","","6","","","","100.28","","","","-10","","NA"
"-121.58","50.22","LYTTON RCS","1114746","2018-01-12 23:00","2018","01","12","23:00","-7.1","","-9.1","","86","","0.0","","36","","6","","","","100.35","","","","-10","","NA"
"-121.58","50.22","LYTTON RCS","1114746","2018-01-13 00:00","2018","01","13","00:00","-7.1","","-9.4","","83","","0.0","","1","","3","","","","100.40","","","","-9","","NA"
"-121.58","50.22","LYTTON RCS","1114746","2018-01-13 01:00","2018","01","13","01:00","-6.9","","-9.0","","85","","0.0","","6","","1","","","","100.41","","","","-7","","NA"
"-121.58","50.22","LYTTON RCS","1114746","2018-01-13 02:00","2018","01","13","02:00","-6.8","","-9.0","","84","","0.0","","0","","1","","","","100.45","","","","-7","","NA"
"-121.58","50.22","LYTTON RCS","1114746","2018-01-13 03:00","2018","01","13","03:00","-6.6","","-8.9","","84","","0.0","","3","","3","","","","100.49","","","","-8","","NA"
"-121.58","50.22","LYTTON RCS","1114746","2018-01-13 04:00","2018","01","13","04:00","-6.3","","-8.5","","85","","0.0","","1","","2","","","","100.44","","","","-7","","NA"
"-121.58","50.22","LYTTON RCS","1114746","2018-01-13 05:00","2018","01","13","05:00","-6.3","","-8.5","","84","","0.0","","1","","3","","","","100.51","","","","-8","","NA"
"-121.58","50.22","LYTTON RCS","1114746","2018-01-13 06:00","2018","01","13","06:00","-6.2","","-8.6","","83","","0.0","","2","","6","","","","100.57","","","","-9","","NA"
"-121.58","50.22","LYTTON RCS","1114746","2018-01-13 07:00","2018","01","13","07:00","-6.1","","-8.3","","85","","0.0","","36","","4","","","","100.57","","","","-8","","NA"
"-121.58","50.22","LYTTON RCS","1114746","2018-01-13 08:00","2018","01","13","08:00","-5.8","","-8.1","","84","","0.0","","1","","3","","","","100.63","","","","-7","","NA"
"-121.58","50.22","LYTTON RCS","1114746","2018-01-13 09:00","2018","01","13","09:00","-5.4","","-7.6","","84","","0.0","","2","","4","","","","100.67","","","","-7","","NA"
"-121.58","50.22","LYTTON RCS","1114746","2018-01-13 10:00","2018","01","13","10:00","-4.9","","-8.2","","78","","0.0","","36","","5","","","","100.77","","","","-7","","NA"
"-121.58","50.22","LYTTON RCS","1114746","2018-01-13 11:00","2018","01","13","11:00","-4.5","","-8.2","","75","","0.0","","1","","3","","","","100.78","","","","-6","","NA"
"-121.58","50.22","LYTTON RCS","1114746","2018-01-13 12:00","2018","01","13","12:00","-3.9","","-7.6","","76","","0.0","","35","","2","","","","100.72","","","","-5","","NA"
"-121.58","50.22","LYTTON RCS","1114746","2018-01-13 13:00","2018","01","13","13:00","-3.5","","-7.4","","74","","0.0","","1","","5","","","","100.72","","","","-6","","NA"
"-121.58","50.22","LYTTON RCS","1114746","2018-01-13 14:00","2018","01","13","14:00","-3.1","","-7.3","","73","","0.0","","2","","3","","","","100.71","","","","-4","","NA"
"-121.58","50.22","LYTTON RCS","1114746","2018-01-13 15:00","2018","01","13","15:00","-2.7","","-6.8","","73","","0.0","","1","","3","","","","100.69","","","","-4","","NA"
"-121.58","50.22","LYTTON RCS","1114746","2018-01-13 16:00","2018","01","13","16:00","-2.7","","-6.2","","76","","0.0","","1","","5","","","","100.69","","","","-5","","NA"
"-121.58","50.22","LYTTON RCS","1114746","2018-01-13 17:00","2018","01","13","17:00","-2.6","","-5.4","","81","","0.0","","","","0","","","","100.73","","","","","","NA"
"-121.58","50.22","LYTTON RCS","1114746","2018-01-13 18:00","2018","01","13","18:00","-2.6","","-5.6","","80","","0.0","","16","","5","","","","100.70","","","","-5","","NA"
"-121.58","50.22","LYTTON RCS","1114746","2018-01-13 19:00","2018","01","13","19:00","-2.5","","-5.2","","82","","0.0","","14","","1","","","","100.68","","","","-3","","NA"
"-121.58","50.22","LYTTON RCS","1114746","2018-01-13 20:00","2018","01","13","20:00","-2.4","","-4.9","","83","","0.0","","14","","2","","","","100.69","","","","-3","","NA"
"-121.58","50.22","LYTTON RCS","1114746","2018-01-13 21:00","2018","01","13","21:00","-2.2","","-4.8","","83","","0.0","","14","","2","","","","100.72","","","","-3","","NA"
"-121.58","50.22","LYTTON RCS","1114746","2018-01-13 22:00","2018","01","13","22:00","-2.0","","-4.5","","83","","0.0","","1","","2","","","","100.72","","","","-3","","NA"
"-121.58","50.22","LYTTON RCS","1114746","2018-01-13 23:00","2018","01","13","23:00","-1.7","","-4.4","","82","","0.0","","1","","3","","","","100.72","","","","-3","","NA"
"-121.58","50.22","LYTTON RCS","1114746","2018-01-14 00:00","2018","01","14","00:00","-1.5","","-4.1","","83","","0.0","","36","","4","","","","100.72","","","","-3","","NA"
"-121.58","50.22","LYTTON RCS","1114746","2018-01-14 01:00","2018","01","14","01:00","-1.8","","-4.1","","84","","0.0","","2","","5","","","","100.70","","","","-4","","NA"
"-121.58","50.22","LYTTON RCS","1114746","2018-01-14 02:00","2018","01","14","02:00","-1.4","","-3.9","","83","","0.0","","1","","6","","","","100.72","","","","-4","","NA"
"-121.58","50.22","LYTTON RCS","1114746","2018-01-14 03:00","2018","01","14","03:00","-1.8","","-3.7","","87","","0.0","","1","","10","","","","100.70","","","","-5","","NA"
"-121.58","50.22","LYTTON RCS","1114746","2018-01-14 04:00","2018","01","14","04:00","-1.4","","-3.3","","87","","0.0","","3","","3","","","","100.68","","","","-2","","NA"
"-121.58","50.22","LYTTON RCS","1114746","2018-01-14 05:00","2018","01","14","05:00","-1.2","","-3.0","","88","","0.0","","2","","8","","","","100.61","","","","-4","","NA"
"-121.58","50.22","LYTTON RCS","1114746","2018-01-14 06:00","2018","01","14","06:00","-1.4","","-3.0","","88","","0.0","","2","","9","","","","100.59","","","","-5","","NA"
"-121.58","50.22","LYTTON RCS","1114746","2018-01-14 07:00","2018","01","14","07:00","-1.3","","-2.8","","90","","0.0","","2","","9","","","","100.56","","","","-5","","NA"
"-121.58","50.22","LYTTON RCS","1114746","2018-01-14 08:00","2018","01","14","08:00","-0.9","","-2.5","","89","","0.0","","1","","8","","","","100.52","","","","-4","","NA"
"-121.58","50.22","LYTTON RCS","1114746","2018-01-14 09:00","2018","01","14","09:00","-0.3","","-2.5","","85","","0.0","","1","","8","","","","100.51","","","","-3","","NA"
"-121.58","50.22","LYTTON RCS","1114746","2018-01-14 10:00","2018","01","14","10:00","0.2","","-2.2","","84","","0.0","","2","","9","","","","100.50","","","","","","NA"
"-121.58","50.22","LYTTON RCS","1114746","2018-01-14 11:00","2018","01","14","11:00","2.3","","-2.6","","70","","0.0","","35","","6","","","","100.41","","","","","","NA"
"-121.58","50.22","LYTTON RCS","1114746","2018-01-14 12:00","2018","01","14","12:00","2.5","","-2.2","","71","","0.0","","1","","10","","","","100.31","","","","","","NA"
"-121.58","50.22","LYTTON RCS","1114746","2018-01-14 13:00","2018","01","14","13:00","2.9","","-2.2","","69","","0.0","","3","","6","","","","100.23","","","","","","NA"
"-121.58","50.22","LYTTON RCS","1114746","2018-01-14 14:00","2018","01","14","14:00","2.5","","-1.6","","74","","0.0","","2","","8","","","","100.17","","","","","","NA"
"-121.58","50.22","LYTTON RCS","1114746","2018-01-14 15:00","2018","01","14","15:00","1.5","","-1.4","","81","","0.0","","1","","11","","","","100.12","","","","","","NA"
"-121.58","50.22","LYTTON RCS","1114746","2018-01-14 16:00","2018","01","14","16:00","1.5","","-0.9","","84","","0.0","","34","","5","","","","100.15","","","","","","NA"
"-121.58","50.22","LYTTON RCS","1114746","2018-01-14 17:00","2018","01","14","17:00","1.1","","-0.7","","88","","0.0","","34","","6","","","","100.14","","","","","","NA"
"-121.58","50.22","LYTTON RCS","1114746","2018-01-14 18:00","2018","01","14","18:00","-0.3","","-1.2","","94","","0.0","","14","","7","","","","100.12","","","","-3","","NA"
"-121.58","50.22","LYTTON RCS","1114746","2018-01-14 19:00","2018","01","14","19:00","-1.2","","-1.5","","98","","0.0","","16","","12","","","","100.10","","","","-5","","NA"
"-121.58","50.22","LYTTON RCS","1114746","2018-01-14 20:00","2018","01","14","20:00","-1.3","","-1.5","","99","","0.0","","15","","9","","","","100.09","","","","-5","","NA"
"-121.58","50.22","LYTTON RCS","1114746","2018-01-14 21:00","2018","01","14","21:00","-1.7","","-1.8","","100","","0.0","","15","","7","","","","100.07","","","","-4","","NA"
"-121.58","50.22","LYTTON RCS","1114746","2018-01-14 22:00","2018","01","14","22:00","-2.2","","-2.2","","100","","0.0","","16","","8","","","","100.06","","","","-5","","NA"
"-121.58","50.22","LYTTON RCS","1114746","2018-01-14 23:00","2018","01","14","23:00","-2.2","","-2.2","","100","","0.0","","15","","9","","","","100.10","","","","-6","","NA"
"-121.58","50.22","LYTTON RCS","1114746","2018-01-15 00:00","2018","01","15","00:00","-1.9","","-1.9","","100","","0.0","","14","","6","","","","100.04","","","","-4","","NA"
"-121.58","50.22","LYTTON RCS","1114746","2018-01-15 01:00","2018","01","15","01:00","-2.9","","-2.9","","100","","0.0","","15","","10","","","","100.02","","","","-7","","NA"
"-121.58","50.22","LYTTON RCS","1114746","2018-01-15 02:00","2018","01","15","02:00","-3.0","","-3.0","","100","","0.0","","15","","12","","","","100.04","","","","-7","","NA"
"-121.58","50.22","LYTTON RCS","1114746","2018-01-15 03:00","2018","01","15","03:00","-3.1","","-3.1","","100","","0.0","","14","","8","","","","99.99","","","","-6","","NA"
"-121.58","50.22","LYTTON RCS","1114746","2018-01-15 04:00","2018","01","15","04:00","-3.3","","-3.3","","100","","0.0","","15","","7","","","","99.98","","","","-6","","NA"
"-121.58","50.22","LYTTON RCS","1114746","2018-01-15 05:00","2018","01","15","05:00","-3.0","","-3.0","","100","","0.0","","15","","8","","","","99.93","","","","-6","","NA"
"-121.58","50.22","LYTTON RCS","1114746","2018-01-15 06:00","2018","01","15","06:00","-3.1","","-3.1","","100","","0.0","","15","","8","","","","99.89","","","","-6","","NA"
"-121.58","50.22","LYTTON RCS","1114746","2018-01-15 07:00","2018","01","15","07:00","-3.2","","-3.2","","100","","0.0","","15","","7","","","","99.83","","","","-6","","NA"
"-121.58","50.22","LYTTON RCS","1114746","2018-01-15 08:00","2018","01","15","08:00","-2.9","","-2.9","","100","","0.0","","14","","7","","","","99.81","","","","-6","","NA"
"-121.58","50.22","LYTTON RCS","1114746","2018-01-15 09:00","2018","01","15","09:00","-2.8","","-2.9","","99","","0.0","","15","","8","","","","99.81","","","","-6","","NA"
"-121.58","50.22","LYTTON RCS","1114746","2018-01-15 10:00","2018","01","15","10:00","-1.9","","-2.1","","99","","0.0","","14","","6","","","","99.77","","","","-4","","NA"
"-121.58","50.22","LYTTON RCS","1114746","2018-01-15 11:00","2018","01","15","11:00","-0.4","","-1.0","","95","","0.0","","15","","10","","","","99.71","","","","-4","","NA"
"-121.58","50.22","LYTTON RCS","1114746","2018-01-15 12:00","2018","01","15","12:00","1.8","","-0.4","","86","","0.0","","15","","9","","","","99.62","","","","","","NA"
"-121.58","50.22","LYTTON RCS","1114746","2018-01-15 13:00","2018","01","15","13:00","2.2","","-0.2","","84","","0.0","","15","","9","","","","99.53","","","","","","NA"
"-121.58","50.22","LYTTON RCS","1114746","2018-01-15 14:00","2018","01","15","14:00","2.1","","0.2","","87","","0.0","","16","","8","","","","99.46","","","","","","NA"
"-121.58","50.22","LYTTON RCS","1114746","2018-01-15 15:00","2018","01","15","15:00","2.0","","0.3","","89","","0.0","","15","","7","","","","99.36","","","","","","NA"
"-121.58","50.22","LYTTON RCS","1114746","2018-01-15 16:00","2018","01","15","16:00","1.7","","0.3","","91","","0.0","","17","","3","","","","99.30","","","","","","NA"
"-121.58","50.22","LYTTON RCS","1114746","2018-01-15 17:00","2018","01","15","17:00","1.4","","0.5","","94","","0.0","","15","","9","","","","99.26","","","","","","NA"
"-121.58","50.22","LYTTON RCS","1114746","2018-01-15 18:00","2018","01","15","18:00","0.4","","0.0","","97","","0.0","","14","","5","","","","99.18","","","","","","NA"
"-121.58","50.22","LYTTON RCS","1114746","2018-01-15 19:00","2018","01","15","19:00","0.2","","0.1","","100","","0.0","","14","","9","","","","99.16","","","","","","NA"
"-121.58","50.22","LYTTON RCS","1114746","2018-01-15 20:00","2018","01","15","20:00","-0.2","","-0.2","","100","","0.0","","15","","7","","","","99.11","","","","-3","","NA"
"-121.58","50.22","LYTTON RCS","1114746","2018-01-15 21:00","2018","01","15","21:00","-0.2","","-0.2","","100","","0.0","","15","","10","","","","99.08","","","","-4","","NA"
"-121.58","50.22","LYTTON RCS","1114746","2018-01-15 22:00","2018","01","15","22:00","-0.2","","-0.2","","100","","0.0","","16","","6","","","","99.08","","","","-2","","NA"
"-121.58","50.22","LYTTON RCS","1114746","2018-01-15 23:00","2018","01","15","23:00","0.1","","0.0","","100","","0.0","","16","","10","","","","99.13","","","","","","NA"
"-121.58","50.22","LYTTON RCS","1114746","2018-01-16 00:00","2018","01","16","00:00","0.3","","0.1","","99","","0.0","","16","","8","","","","99.08","","","","","","NA"
"-121.58","50.22","LYTTON RCS","1114746","2018-01-16 01:00","2018","01","16","01:00","-0.1","","-0.2","","99","","0.0","","16","","10","","","","99.06","","","","-3","","NA"
"-121.58","50.22","LYTTON RCS","1114746","2018-01-16 02:00","2018","01","16","02:00","-0.1","","-0.2","","99","","0.0","","16","","8","","","","99.10","","","","-3","","NA"
"-121.58","50.22","LYTTON RCS","1114746","2018-01-16 03:00","2018","01","16","03:00","-0.1","","-0.2","","99","","0.0","","15","","10","","","","99.11","","","","-3","","NA"
"-121.58","50.22","LYTTON RCS","1114746","2018-01-16 04:00","2018","01","16","04:00","0.2","","0.1","","99","","0.2","","16","","6","","","","99.10","","","","","","NA"
"-121.58","50.22","LYTTON RCS","1114746","2018-01-16 05:00","2018","01","16","05:00","0.3","","0.3","","100","","0.5","","15","","6","","","","99.12","","","","","","NA"
"-121.58","50.22","LYTTON RCS","1114746","2018-01-16 06:00","2018","01","16","06:00","0.2","","0.2","","100","","0.0","","14","","7","","","","99.09","","","","","","NA"
"-121.58","50.22","LYTTON RCS","1114746","2018-01-16 07:00","2018","01","16","07:00","0.6","","0.6","","100","","0.0","","14","","3","","","","99.06","","","","","","NA"
"-121.58","50.22","LYTTON RCS","1114746","2018-01-16 08:00","2018","01","16","08:00","0.7","","0.7","","100","","0.0","","14","","4","","","","99.05","","","","","","NA"
"-121.58","50.22","LYTTON RCS","1114746","2018-01-16 09:00","2018","01","16","09:00","1.0","","1.0","","100","","0.0","","15","","2","","","","99.09","","","","","","NA"
"-121.58","50.22","LYTTON RCS","1114746","2018-01-16 10:00","2018","01","16","10:00","1.7","","1.6","","100","","0.0","","12","","2","","","","99.12","","","","","","NA"
"-121.58","50.22","LYTTON RCS","1114746","2018-01-16 11:00","2018","01","16","11:00","1.5","","1.2","","98","","0.0","","16","","4","","","","99.12","","","","","","NA"
"-121.58","50.22","LYTTON RCS","1114746","2018-01-16 12:00","2018","01","16","12:00","2.0","","1.9","","99","","0.6","","36","","4","","","","99.09","","","","","","NA"
"-121.58","50.22","LYTTON RCS","1114746","2018-01-16 13:00","2018","01","16","13:00","2.5","","2.2","","98","","0.2","","15","","2","","","","99.08","","","","","","NA"
"-121.58","50.22","LYTTON RCS","1114746","2018-01-16 14:00","2018","01","16","14:00","2.7","","2.2","","97","","0.7","","1","","6","","","","99.19","","","","","","NA"
"-121.58","50.22","LYTTON RCS","1114746","2018-01-16 15:00","2018","01","16","15:00","3.2","","2.9","","98","","0.4","","2","","8","","","","99.23","","","","","","NA"
"-121.58","50.22","LYTTON RCS","1114746","2018-01-16 16:00","2018","01","16","16:00","5.3","","3.8","","90","","0.0","","18","","29","","","","99.28","","","","","","NA"
"-121.58","50.22","LYTTON RCS","1114746","2018-01-16 17:00","2018","01","16","17:00","5.5","","3.3","","86","","0.0","","18","","37","","","","99.39","","","","","","NA"
"-121.58","50.22","LYTTON RCS","1114746","2018-01-16 18:00","2018","01","16","18:00","5.0","","3.1","","88","","0.0","","17","","31","","","","99.42","","","","","","NA"
"-121.58","50.22","LYTTON RCS","1114746","2018-01-16 19:00","2018","01","16","19:00","5.3","","3.4","","88","","0.0","","17","","31","","","","99.49","","","","","","NA"
"-121.58","50.22","LYTTON RCS","1114746","2018-01-16 20:00","2018","01","16","20:00","5.4","","3.7","","89","","0.0","","16","","31","","","","99.52","","","","","","NA"
"-121.58","50.22","LYTTON RCS","1114746","2018-01-16 21:00","2018","01","16","21:00","4.6","","3.4","","92","","0.0","","13","","12","","","","99.56","","","","","","NA"
"-121.58","50.22","LYTTON RCS","1114746","2018-01-16 22:00","2018","01","16","22:00","4.2","","2.9","","91","","0.0","","17","","8","","","","99.56","","","","","","NA"
"-121.58","50.22","LYTTON RCS","1114746","2018-01-16 23:00","2018","01","16","23:00","2.1","","1.6","","96","","0.0","","36","","6","","","","99.47","","","","","","NA"
"-121.58","50.22","LYTTON RCS","1114746","2018-01-17 00:00","2018","01","17","00:00","1.2","","1.0","","99","","0.0","","36","","6","","","","99.46","","","","","","NA"
"-121.58","50.22","LYTTON RCS","1114746","2018-01-17 01:00","2018","01","17","01:00","1.0","","0.8","","99","","0.0","","35","","5","","","","99.43","","","","","","NA"
"-121.58","50.22","LYTTON RCS","1114746","2018-01-17 02:00","2018","01","17","02:00","1.0","","0.9","","100","","0.0","","36","","6","","","","99.41","","","","","","NA"
"-121.58","50.22","LYTTON RCS","1114746","2018-01-17 03:00","2018","01","17","03:00","0.9","","0.9","","100","","0.0","","3","","3","","","","99.34","","","","","","NA"
"-121.58","50.22","LYTTON RCS","1114746","2018-01-17 04:00","2018","01","17","04:00","0.8","","0.8","","100","","0.0","","0","","1","","","","99.27","","","","","","NA"
"-121.58","50.22","LYTTON RCS","1114746","2018-01-17 05:00","2018","01","17","05:00","0.7","","0.7","","100","","0.0","","34","","3","","","","99.18","","","","","","NA"
"-121.58","50.22","LYTTON RCS","1114746","2018-01-17 06:00","2018","01","17","06:00","1.2","","1.2","","100","","0.0","","","","0","","","","99.08","","","","","","NA"
"-121.58","50.22","LYTTON RCS","1114746","2018-01-17 07:00","2018","01","17","07:00","1.1","","1.0","","100","","0.0","","1","","3","","","","99.00","","","","","","NA"
"-121.58","50.22","LYTTON RCS","1114746","2018-01-17 08:00","2018","01","17","08:00","1.4","","1.4","","100","","0.0","","16","","3","","","","98.89","","","","","","NA"
"-121.58","50.22","LYTTON RCS","1114746","2018-01-17 09:00","2018","01","17","09:00","1.4","","1.4","","100","","0.2","","1","","5","","","","98.83","","","","","","NA"
"-121.58","50.22","LYTTON RCS","1114746","2018-01-17 10:00","2018","01","17","10:00","3.7","","2.5","","92","","0.0","","23","","7","","","","98.73","","","","","","NA"
"-121.58","50.22","LYTTON RCS","1114746","2018-01-17 11:00","2018","01","17","11:00","3.7","","2.6","","92","","0.0","","22","","7","","","","98.58","","","","","","NA"
"-121.58","50.22","LYTTON RCS","1114746","2018-01-17 12:00","2018","01","17","12:00","4.4","","2.5","","87","","0.0","","18","","24","","","","98.38","","","","","","NA"
"-121.58","50.22","LYTTON RCS","1114746","2018-01-17 13:00","2018","01","17","13:00","5.1","","2.7","","84","","0.0","","15","","21","","","","98.20","","","","","","NA"
"-121.58","50.22","LYTTON RCS","1114746","2018-01-17 14:00","2018","01","17","14:00","5.3","","2.7","","83","","0.0","","14","","12","","","","98.03","","","","","","NA"
"-121.58","50.22","LYTTON RCS","1114746","2018-01-17 15:00","2018","01","17","15:00","4.7","","2.9","","88","","0.3","","12","","14","","","","97.97","","","","","","NA"
"-121.58","50.22","LYTTON RCS","1114746","2018-01-17 16:00","2018","01","17","16:00","4.1","","3.4","","95","","3.2","","15","","9","","","","98.00","","","","","","NA"
"-121.58","50.22","LYTTON RCS","1114746","2018-01-17 17:00","2018","01","17","17:00","4.1","","3.6","","96","","2.1","","15","","8","","","","97.91","","","","","","NA"
"-121.58","50.22","LYTTON RCS","1114746","2018-01-17 18:00","2018","01","17","18:00","3.8","","3.4","","97","","2.7","","16","","8","","","","97.82","","","","","","NA"
"-121.58","50.22","LYTTON RCS","1114746","2018-01-17 19:00","2018","01","17","19:00","4.5","","3.9","","96","","1.4","","15","","11","","","","97.67","","","","","","NA"
"-121.58","50.22","LYTTON RCS","1114746","2018-01-17 20:00","2018","01","17","20:00","4.7","","4.1","","96","","2.4","","12","","7","","","","97.58","","","","","","NA"
"-121.58","50.22","LYTTON RCS","1114746","2018-01-17 21:00","2018","01","17","21:00","4.0","","3.7","","98","","0.2","","20","","3","","","","97.43","","","","","","NA"
"-121.58","50.22","LYTTON RCS","1114746","2018-01-17 22:00","2018","01","17","22:00","3.6","","3.4","","99","","0.8","","36","","8","","","","97.32","","","","","","NA"
"-121.58","50.22","LYTTON RCS","1114746","2018-01-17 23:00","2018","01","17","23:00","3.1","","3.1","","100","","3.4","","36","","5","","","","97.31","","","","","","NA"
"-121.58","50.22","LYTTON RCS","1114746","2018-01-18 00:00","2018","01","18","00:00","3.2","","3.2","","100","","3.8","","","","0","","","","97.36","","","","","","NA"
"-121.58","50.22","LYTTON RCS","1114746","2018-01-18 01:00","2018","01","18","01:00","3.2","","3.2","","100","","4.5","","1","","8","","","","97.49","","","","","","NA"
"-121.58","50.22","LYTTON RCS","1114746","2018-01-18 02:00","2018","01","18","02:00","4.0","","4.0","","100","","1.0","","19","","3","","","","97.54","","","","","","NA"
"-121.58","50.22","LYTTON RCS","1114746","2018-01-18 03:00","2018","01","18","03:00","5.2","","3.8","","90","","0.2","","20","","30","","","","97.53","","","","","","NA"
"-121.58","50.22","LYTTON RCS","1114746","2018-01-18 04:00","2018","01","18","04:00","5.2","","3.5","","89","","0.0","","19","","30","","","","97.53","","","","","","NA"
"-121.58","50.22","LYTTON RCS","1114746","2018-01-18 05:00","2018","01","18","05:00","4.8","","3.5","","91","","0.0","","19","","26","","","","97.57","","","","","","NA"
"-121.58","50.22","LYTTON RCS","1114746","2018-01-18 06:00","2018","01","18","06:00","4.2","","3.3","","94","","0.6","","18","","23","","","","97.62","","","","","","NA"
"-121.58","50.22","LYTTON RCS","1114746","2018-01-18 07:00","2018","01","18","07:00","4.5","","3.2","","92","","0.3","","19","","21","","","","97.61","","","","","","NA"
"-121.58","50.22","LYTTON RCS","1114746","2018-01-18 08:00","2018","01","18","08:00","4.6","","3.1","","90","","0.4","","19","","28","","","","97.60","","","","","","NA"
"-121.58","50.22","LYTTON RCS","1114746","2018-01-18 09:00","2018","01","18","09:00","4.5","","3.4","","92","","0.4","","19","","26","","","","97.70","","","","","","NA"
"-121.58","50.22","LYTTON RCS","1114746","2018-01-18 10:00","2018","01","18","10:00","4.7","","3.2","","90","","0.5","","20","","29","","","","97.73","","","","","","NA"
"-121.58","50.22","LYTTON RCS","1114746","2018-01-18 11:00","2018","01","18","11:00","5.1","","2.8","","85","","0.0","","20","","28","","","","97.74","","","","","","NA"
"-121.58","50.22","LYTTON RCS","1114746","2018-01-18 12:00","2018","01","18","12:00","4.8","","3.0","","88","","0.4","","21","","23","","","","97.72","","","","","","NA"
"-121.58","50.22","LYTTON RCS","1114746","2018-01-18 13:00","2018","01","18","13:00","5.8","","2.8","","82","","0.0","","20","","26","","","","97.65","","","","","","NA"
"-121.58","50.22","LYTTON RCS","1114746","2018-01-18 14:00","2018","01","18","14:00","5.3","","3.0","","85","","0.0","","21","","27","","","","97.64","","","","","","NA"
"-121.58","50.22","LYTTON RCS","1114746","2018-01-18 15:00","2018","01","18","15:00","5.1","","2.6","","84","","0.0","","18","","28","","","","97.63","","","","","","NA"
"-121.58","50.22","LYTTON RCS","1114746","2018-01-18 16:00","2018","01","18","16:00","5.0","","2.7","","85","","0.0","","18","","31","","","","97.66","","","","","","NA"
"-121.58","50.22","LYTTON RCS","1114746","2018-01-18 17:00","2018","01","18","17:00","4.7","","2.6","","86","","0.0","","18","","35","","","","97.68","","","","","","NA"
"-121.58","50.22","LYTTON RCS","1114746","2018-01-18 18:00","2018","01","18","18:00","4.2","","2.7","","90","","0.0","","19","","31","","","","97.67","","","","","","NA"
"-121.58","50.22","LYTTON RCS","1114746","2018-01-18 19:00","2018","01","18","19:00","4.1","","2.5","","89","","0.0","","21","","22","","","","97.73","","","","","","NA"
"-121.58","50.22","LYTTON RCS","1114746","2018-01-18 20:00","2018","01","18","20:00","4.3","","2.1","","86","","0.0","","16","","34","","","","97.75","","","","","","NA"
"-121.58","50.22","LYTTON RCS","1114746","2018-01-18 21:00","2018","01","18","21:00","4.2","","2.3","","87","","0.0","","17","","31","","","","97.80","","","","","","NA"
"-121.58","50.22","LYTTON RCS","1114746","2018-01-18 22:00","2018","01","18","22:00","3.9","","2.2","","89","","0.0","","16","","25","","","","97.83","","","","","","NA"
"-121.58","50.22","LYTTON RCS","1114746","2018-01-18 23:00","2018","01","18","23:00","4.2","","2.2","","87","","0.0","","18","","26","","","","97.83","","","","","","NA"
"-121.58","50.22","LYTTON RCS","1114746","2018-01-19 00:00","2018","01","19","00:00","4.3","","2.1","","86","","0.0","","18","","33","","","","97.82","","","","","","NA"
"-121.58","50.22","LYTTON RCS","1114746","2018-01-19 01:00","2018","01","19","01:00","4.6","","2.0","","83","","0.0","","19","","28","","","","97.81","","","","","","NA"
"-121.58","50.22","LYTTON RCS","1114746","2018-01-19 02:00","2018","01","19","02:00","4.4","","1.8","","83","","0.0","","18","","31","","","","97.85","","","","","","NA"
"-121.58","50.22","LYTTON RCS","1114746","2018-01-19 03:00","2018","01","19","03:00","4.3","","1.7","","83","","0.0","","18","","32","","","","97.89","","","","","","NA"
"-121.58","50.22","LYTTON RCS","1114746","2018-01-19 04:00","2018","01","19","04:00","4.1","","1.7","","84","","0.0","","17","","40","","","","97.90","","","","","","NA"
"-121.58","50.22","LYTTON RCS","1114746","2018-01-19 05:00","2018","01","19","05:00","4.2","","1.6","","83","","0.0","","17","","33","","","","97.93","","","","","","NA"
"-121.58","50.22","LYTTON RCS","1114746","2018-01-19 06:00","2018","01","19","06:00","4.2","","1.3","","81","","0.0","","17","","33","","","","97.96","","","","","","NA"
"-121.58","50.22","LYTTON RCS","1114746","2018-01-19 07:00","2018","01","19","07:00","4.5","","1.1","","79","","0.0","","17","","31","","","","98.01","","","","","","NA"
"-121.58","50.22","LYTTON RCS","1114746","2018-01-19 08:00","2018","01","19","08:00","4.5","","1.4","","80","","0.0","","17","","31","","","","98.06","","","","","","NA"
"-121.58","50.22","LYTTON RCS","1114746","2018-01-19 09:00","2018","01","19","09:00","4.2","","1.4","","82","","0.0","","16","","33","","","","98.10","","","","","","NA"
"-121.58","50.22","LYTTON RCS","1114746","2018-01-19 10:00","2018","01","19","10:00","4.7","","1.5","","80","","0.0","","16","","29","","","","98.16","","","","","","NA"
"-121.58","50.22","LYTTON RCS","1114746","2018-01-19 11:00","2018","01","19","11:00","6.1","","2.0","","75","","0.0","","18","","28","","","","98.13","","","","","","NA"
"-121.58","50.22","LYTTON RCS","1114746","2018-01-19 12:00","2018","01","19","12:00","6.8","","1.6","","70","","0.0","","19","","30","","","","98.09","","","","","","NA"
"-121.58","50.22","LYTTON RCS","1114746","2018-01-19 13:00","2018","01","19","13:00","6.2","","1.4","","72","","0.0","","20","","32","","","","98.05","","","","","","NA"
"-121.58","50.22","LYTTON RCS","1114746","2018-01-19 14:00","2018","01","19","14:00","5.6","","1.8","","76","","0.0","","20","","33","","","","98.04","","","","","","NA"
"-121.58","50.22","LYTTON RCS","1114746","2018-01-19 15:00","2018","01","19","15:00","5.6","","1.9","","77","","0.0","","20","","25","","","","98.02","","","","","","NA"
"-121.58","50.22","LYTTON RCS","1114746","2018-01-19 16:00","2018","01","19","16:00","5.4","","2.0","","79","","0.0","","19","","23","","","","98.02","","","","","","NA"
"-121.58","50.22","LYTTON RCS","1114746","2018-01-19 17:00","2018","01","19","17:00","5.1","","2.2","","82","","0.0","","19","","28","","","","98.01","","","","","","NA"
"-121.58","50.22","LYTTON RCS","1114746","2018-01-19 18:00","2018","01","19","18:00","4.8","","2.3","","84","","0.0","","20","","28","","","","97.97","","","","","","NA"
"-121.58","50.22","LYTTON RCS","1114746","2018-01-19 19:00","2018","01","19","19:00","5.2","","2.1","","80","","0.0","","20","","28","","","","97.94","","","","","","NA"
"-121.58","50.22","LYTTON RCS","1114746","2018-01-19 20:00","2018","01","19","20:00","5.2","","1.9","","79","","0.0","","20","","30","","","","97.95","","","","","","NA"
"-121.58","50.22","LYTTON RCS","1114746","2018-01-19 21:00","2018","01","19","21:00","5.5","","1.7","","77","","0.0","","19","","31","","","","97.95","","","","","","NA"
"-121.58","50.22","LYTTON RCS","1114746","2018-01-19 22:00","2018","01","19","22:00","5.4","","1.5","","76","","0.0","","19","","31","","","","97.99","","","","","","NA"
"-121.58","50.22","LYTTON RCS","1114746","2018-01-19 23:00","2018","01","19","23:00","5.1","","1.5","","77","","0.0","","19","","29","","","","98.04","","","","","","NA"
"-121.58","50.22","LYTTON RCS","1114746","2018-01-20 00:00","2018","01","20","00:00","5.1","","1.5","","78","","0.0","","20","","26","","","","98.08","","","","","","NA"
"-121.58","50.22","LYTTON RCS","1114746","2018-01-20 01:00","2018","01","20","01:00","4.6","","1.6","","81","","0.0","","19","","28","","","","98.09","","","","","","NA"
"-121.58","50.22","LYTTON RCS","1114746","2018-01-20 02:00","2018","01","20","02:00","4.4","","1.5","","82","","0.0","","19","","30","","","","98.12","","","","","","NA"
"-121.58","50.22","LYTTON RCS","1114746","2018-01-20 03:00","2018","01","20","03:00","4.3","","1.6","","83","","0.0","","19","","36","","","","98.16","","","","","","NA"
"-121.58","50.22","LYTTON RCS","1114746","2018-01-20 04:00","2018","01","20","04:00","4.3","","1.4","","81","","0.0","","18","","31","","","","98.25","","","","","","NA"
"-121.58","50.22","LYTTON RCS","1114746","2018-01-20 05:00","2018","01","20","05:00","4.2","","1.1","","80","","0.0","","19","","36","","","","98.25","","","","","","NA"
"-121.58","50.22","LYTTON RCS","1114746","2018-01-20 06:00","2018","01","20","06:00","4.5","","0.7","","76","","0.0","","19","","26","","","","98.29","","","","","","NA"
"-121.58","50.22","LYTTON RCS","1114746","2018-01-20 07:00","2018","01","20","07:00","4.7","","0.2","","73","","0.0","","20","","28","","","","98.33","","","","","","NA"
"-121.58","50.22","LYTTON RCS","1114746","2018-01-20 08:00","2018","01","20","08:00","4.7","","-0.1","","71","","0.0","","18","","29","","","","98.38","","","","","","NA"
"-121.58","50.22","LYTTON RCS","1114746","2018-01-20 09:00","2018","01","20","09:00","4.5","","0.2","","74","","0.0","","19","","32","","","","98.46","","","","","","NA"
"-121.58","50.22","LYTTON RCS","1114746","2018-01-20 10:00","2018","01","20","10:00","4.8","","0.6","","74","","0.0","","18","","30","","","","98.52","","","","","","NA"
"-121.58","50.22","LYTTON RCS","1114746","2018-01-20 11:00","2018","01","20","11:00","5.1","","1.0","","75","","0.0","","18","","38","","","","98.49","","","","","","NA"
"-121.58","50.22","LYTTON RCS","1114746","2018-01-20 12:00","2018","01","20","12:00","6.3","","1.4","","71","","0.0","","19","","34","","","","98.48","","","","","","NA"
"-121.58","50.22","LYTTON RCS","1114746","2018-01-20 13:00","2018","01","20","13:00","6.2","","1.0","","69","","0.0","","20","","34","","","","98.46","","","","","","NA"
"-121.58","50.22","LYTTON RCS","1114746","2018-01-20 14:00","2018","01","20","14:00","6.1","","1.2","","71","","0.0","","19","","30","","","","98.42","","","","","","NA"
"-121.58","50.22","LYTTON RCS","1114746","2018-01-20 15:00","2018","01","20","15:00","6.1","","1.0","","70","","0.0","","19","","32","","","","98.42","","","","","","NA"
"-121.58","50.22","LYTTON RCS","1114746","2018-01-20 16:00","2018","01","20","16:00","6.2","","0.5","","67","","0.0","","21","","32","","","","98.45","","","","","","NA"
"-121.58","50.22","LYTTON RCS","1114746","2018-01-20 17:00","2018","01","20","17:00","5.3","","0.9","","73","","0.0","","20","","27","","","","98.48","","","","","","NA"
"-121.58","50.22","LYTTON RCS","1114746","2018-01-20 18:00","2018","01","20","18:00","5.3","","0.7","","72","","0.0","","20","","23","","","","98.46","","","","","","NA"
"-121.58","50.22","LYTTON RCS","1114746","2018-01-20 19:00","2018","01","20","19:00","5.0","","1.2","","77","","0.0","","21","","19","","","","98.41","","","","","","NA"
"-121.58","50.22","LYTTON RCS","1114746","2018-01-20 20:00","2018","01","20","20:00","4.6","","1.5","","80","","0.0","","19","","24","","","","98.31","","","","","","NA"
"-121.58","50.22","LYTTON RCS","1114746","2018-01-20 21:00","2018","01","20","21:00","4.8","","1.5","","79","","0.0","","19","","27","","","","98.26","","","","","","NA"
"-121.58","50.22","LYTTON RCS","1114746","2018-01-20 22:00","2018","01","20","22:00","4.7","","1.8","","81","","0.0","","18","","31","","","","98.21","","","","","","NA"
"-121.58","50.22","LYTTON RCS","1114746","2018-01-20 23:00","2018","01","20","23:00","4.8","","1.9","","82","","0.0","","18","","30","","","","98.17","","","","","","NA"
"-121.58","50.22","LYTTON RCS","1114746","2018-01-21 00:00","2018","01","21","00:00","4.6","","2.1","","84","","0.0","","19","","33","","","","98.12","","","","","","NA"
"-121.58","50.22","LYTTON RCS","1114746","2018-01-21 01:00","2018","01","21","01:00","4.4","","2.4","","87","","0.0","","19","","33","","","","98.05","","","","","","NA"
"-121.58","50.22","LYTTON RCS","1114746","2018-01-21 02:00","2018","01","21","02:00","4.3","","2.7","","89","","0.0","","19","","31","","","","98.02","","","","","","NA"
"-121.58","50.22","LYTTON RCS","1114746","2018-01-21 03:00","2018","01","21","03:00","4.1","","2.8","","91","","0.2","","19","","27","","","","97.97","","","","","","NA"
"-121.58","50.22","LYTTON RCS","1114746","2018-01-21 04:00","2018","01","21","04:00","4.4","","2.9","","90","","0.3","","19","","28","","","","97.87","","","","","","NA"
"-121.58","50.22","LYTTON RCS","1114746","2018-01-21 05:00","2018","01","21","05:00","4.7","","3.1","","90","","0.2","","18","","30","","","","97.79","","","","","","NA"
"-121.58","50.22","LYTTON RCS","1114746","2018-01-21 06:00","2018","01","21","06:00","5.2","","2.9","","86","","0.0","","18","","32","","","","97.69","","","","","","NA"
"-121.58","50.22","LYTTON RCS","1114746","2018-01-21 07:00","2018","01","21","07:00","5.2","","3.1","","86","","0.0","","18","","36","","","","97.65","","","","","","NA"
"-121.58","50.22","LYTTON RCS","1114746","2018-01-21 08:00","2018","01","21","08:00","4.7","","3.5","","92","","0.5","","17","","27","","","","97.63","","","","","","NA"
"-121.58","50.22","LYTTON RCS","1114746","2018-01-21 09:00","2018","01","21","09:00","4.4","","3.6","","95","","1.2","","16","","26","","","","97.63","","","","","","NA"
"-121.58","50.22","LYTTON RCS","1114746","2018-01-21 10:00","2018","01","21","10:00","4.2","","3.4","","95","","1.6","","15","","21","","","","97.63","","","","","","NA"
"-121.58","50.22","LYTTON RCS","1114746","2018-01-21 11:00","2018","01","21","11:00","4.6","","3.7","","94","","0.8","","15","","17","","","","97.61","","","","","","NA"
"-121.58","50.22","LYTTON RCS","1114746","2018-01-21 12:00","2018","01","21","12:00","4.8","","3.9","","94","","0.9","","14","","13","","","","97.57","","","","","","NA"
"-121.58","50.22","LYTTON RCS","1114746","2018-01-21 13:00","2018","01","21","13:00","4.8","","4.0","","95","","1.4","","18","","18","","","","97.58","","","","","","NA"
"-121.58","50.22","LYTTON RCS","1114746","2018-01-21 14:00","2018","01","21","14:00","4.7","","3.7","","94","","0.8","","19","","23","","","","97.67","","","","","","NA"
"-121.58","50.22","LYTTON RCS","1114746","2018-01-21 15:00","2018","01","21","15:00","5.1","","3.7","","91","","2.0","","18","","20","","","","97.73","","","","","","NA"
"-121.58","50.22","LYTTON RCS","1114746","2018-01-21 16:00","2018","01","21","16:00","5.0","","3.1","","87","","0.2","","19","","29","","","","97.80","","","","","","NA"
"-121.58","50.22","LYTTON RCS","1114746","2018-01-21 17:00","2018","01","21","17:00","4.8","","3.0","","88","","0.0","","19","","29","","","","97.96","","","","","","NA"
"-121.58","50.22","LYTTON RCS","1114746","2018-01-21 18:00","2018","01","21","18:00","4.6","","2.3","","85","","0.0","","19","","28","","","","98.02","","","","","","NA"
"-121.58","50.22","LYTTON RCS","1114746","2018-01-21 19:00","2018","01","21","19:00","4.1","","2.5","","89","","0.0","","19","","25","","","","98.11","","","","","","NA"
"-121.58","50.22","LYTTON RCS","1114746","2018-01-21 20:00","2018","01","21","20:00","3.5","","2.3","","92","","0.6","","19","","28","","","","98.12","","","","","","NA"
"-121.58","50.22","LYTTON RCS","1114746","2018-01-21 21:00","2018","01","21","21:00","3.7","","2.0","","89","","0.0","","19","","28","","","","98.16","","","","","","NA"
"-121.58","50.22","LYTTON RCS","1114746","2018-01-21 22:00","2018","01","21","22:00","3.8","","1.7","","86","","0.0","","20","","25","","","","98.27","","","","","","NA"
"-121.58","50.22","LYTTON RCS","1114746","2018-01-21 23:00","2018","01","21","23:00","3.7","","1.8","","88","","0.0","","19","","30","","","","98.37","","","","","","NA"
"-121.58","50.22","LYTTON RCS","1114746","2018-01-22 00:00","2018","01","22","00:00","3.4","","1.9","","90","","0.0","","18","","27","","","","98.43","","","","","","NA"
"-121.58","50.22","LYTTON RCS","1114746","2018-01-22 01:00","2018","01","22","01:00","3.4","","1.9","","90","","0.2","","19","","27","","","","98.52","","","","","","NA"
"-121.58","50.22","LYTTON RCS","1114746","2018-01-22 02:00","2018","01","22","02:00","2.8","","2.0","","95","","0.7","","19","","23","","","","98.63","","","","","","NA"
"-121.58","50.22","LYTTON RCS","1114746","2018-01-22 03:00","2018","01","22","03:00","3.1","","2.0","","92","","0.3","","19","","21","","","","98.67","","","","","","NA"
"-121.58","50.22","LYTTON RCS","1114746","2018-01-22 04:00","2018","01","22","04:00","3.2","","1.6","","90","","0.0","","19","","25","","","","98.71","","","","","","NA"
"-121.58","50.22","LYTTON RCS","1114746","2018-01-22 05:00","2018","01","22","05:00","3.2","","1.6","","89","","0.0","","19","","30","","","","98.72","","","","","","NA"
"-121.58","50.22","LYTTON RCS","1114746","2018-01-22 06:00","2018","01","22","06:00","3.6","","1.5","","86","","0.0","","17","","26","","","","98.79","","","","","","NA"
"-121.58","50.22","LYTTON RCS","1114746","2018-01-22 07:00","2018","01","22","07:00","3.6","","1.5","","86","","0.0","","18","","27","","","","98.84","","","","","","NA"
"-121.58","50.22","LYTTON RCS","1114746","2018-01-22 08:00","2018","01","22","08:00","3.1","","1.4","","88","","0.0","","17","","12","","","","98.90","","","","","","NA"
"-121.58","50.22","LYTTON RCS","1114746","2018-01-22 09:00","2018","01","22","09:00","3.2","","1.4","","88","","0.0","","18","","26","","","","98.95","","","","","","NA"
"-121.58","50.22","LYTTON RCS","1114746","2018-01-22 10:00","2018","01","22","10:00","3.0","","1.6","","90","","0.2","","20","","29","","","","99.02","","","","","","NA"
"-121.58","50.22","LYTTON RCS","1114746","2018-01-22 11:00","2018","01","22","11:00","3.9","","1.8","","86","","0.2","","18","","31","","","","99.04","","","","","","NA"
"-121.58","50.22","LYTTON RCS","1114746","2018-01-22 12:00","2018","01","22","12:00","5.6","","2.4","","80","","0.0","","19","","31","","","","99.05","","","","","","NA"
"-121.58","50.22","LYTTON RCS","1114746","2018-01-22 13:00","2018","01","22","13:00","5.5","","2.2","","79","","0.0","","20","","27","","","","99.12","","","","","","NA"
"-121.58","50.22","LYTTON RCS","1114746","2018-01-22 14:00","2018","01","22","14:00","4.9","","2.3","","84","","0.0","","19","","26","","","","99.17","","","","","","NA"
"-121.58","50.22","LYTTON RCS","1114746","2018-01-22 15:00","2018","01","22","15:00","4.9","","2.2","","83","","0.0","","19","","26","","","","99.25","","","","","","NA"
"-121.58","50.22","LYTTON RCS","1114746","2018-01-22 16:00","2018","01","22","16:00","4.7","","2.1","","83","","0.0","","19","","29","","","","99.31","","","","","","NA"
"-121.58","50.22","LYTTON RCS","1114746","2018-01-22 17:00","2018","01","22","17:00","4.6","","1.5","","80","","0.0","","18","","27","","","","99.40","","","","","","NA"
"-121.58","50.22","LYTTON RCS","1114746","2018-01-22 18:00","2018","01","22","18:00","4.2","","1.3","","81","","0.0","","19","","25","","","","99.45","","","","","","NA"
"-121.58","50.22","LYTTON RCS","1114746","2018-01-22 19:00","2018","01","22","19:00","3.8","","1.2","","83","","0.0","","20","","17","","","","99.50","","","","","","NA"
"-121.58","50.22","LYTTON RCS","1114746","2018-01-22 20:00","2018","01","22","20:00","3.7","","1.1","","83","","0.0","","20","","22","","","","99.51","","","","","","NA"
"-121.58","50.22","LYTTON RCS","1114746","2018-01-22 21:00","2018","01","22","21:00","3.7","","1.0","","82","","0.0","","19","","25","","","","99.54","","","","","","NA"
"-121.58","50.22","LYTTON RCS","1114746","2018-01-22 22:00","2018","01","22","22:00","3.6","","1.1","","84","","0.0","","19","","24","","","","99.56","","","","","","NA"
"-121.58","50.22","LYTTON RCS","1114746","2018-01-22 23:00","2018","01","22","23:00","3.5","","1.1","","84","","0.0","","17","","19","","","","99.57","","","","","","NA"
"-121.58","50.22","LYTTON RCS","1114746","2018-01-23 00:00","2018","01","23","00:00","3.4","","1.0","","84","","0.0","","17","","23","","","","99.57","","","","","","NA"
"-121.58","50.22","LYTTON RCS","1114746","2018-01-23 01:00","2018","01","23","01:00","3.3","","0.8","","84","","0.0","","19","","11","","","","99.53","","","","","","NA"
"-121.58","50.22","LYTTON RCS","1114746","2018-01-23 02:00","2018","01","23","02:00","2.3","","0.8","","90","","0.0","","4","","3","","","","99.55","","","","","","NA"
"-121.58","50.22","LYTTON RCS","1114746","2018-01-23 03:00","2018","01","23","03:00","0.7","","0.0","","95","","0.0","","35","","5","","","","99.55","","","","","","NA"
"-121.58","50.22","LYTTON RCS","1114746","2018-01-23 04:00","2018","01","23","04:00","0.5","","-0.2","","95","","0.0","","2","","7","","","","99.47","","","","","","NA"
"-121.58","50.22","LYTTON RCS","1114746","2018-01-23 05:00","2018","01","23","05:00","0.3","","-0.3","","96","","0.0","","35","","7","","","","99.38","","","","","","NA"
"-121.58","50.22","LYTTON RCS","1114746","2018-01-23 06:00","2018","01","23","06:00","0.3","","-0.2","","96","","0.0","","35","","6","","","","99.27","","","","","","NA"
"-121.58","50.22","LYTTON RCS","1114746","2018-01-23 07:00","2018","01","23","07:00","0.2","","-0.2","","97","","0.0","","2","","4","","","","99.18","","","","","","NA"
"-121.58","50.22","LYTTON RCS","1114746","2018-01-23 08:00","2018","01","23","08:00","0.4","","-0.2","","96","","0.0","","36","","1","","","","99.07","","","","","","NA"
"-121.58","50.22","LYTTON RCS","1114746","2018-01-23 09:00","2018","01","23","09:00","0.7","","-0.4","","92","","0.0","","36","","2","","","","99.01","","","","","","NA"
"-121.58","50.22","LYTTON RCS","1114746","2018-01-23 10:00","2018","01","23","10:00","0.8","","-0.9","","88","","0.0","","","","0","","","","98.93","","","","","","NA"
"-121.58","50.22","LYTTON RCS","1114746","2018-01-23 11:00","2018","01","23","11:00","0.2","","-0.2","","97","","0.4","","34","","1","","","","98.85","","","","","","NA"
"-121.58","50.22","LYTTON RCS","1114746","2018-01-23 12:00","2018","01","23","12:00","0.5","","0.0","","97","","0.2","","0","","1","","","","98.73","","","","","","NA"
"-121.58","50.22","LYTTON RCS","1114746","2018-01-23 13:00","2018","01","23","13:00","1.3","","0.7","","96","","0.2","","15","","3","","","","98.53","","","","","","NA"
"-121.58","50.22","LYTTON RCS","1114746","2018-01-23 14:00","2018","01","23","14:00","0.5","","0.3","","98","","0.6","","12","","3","","","","98.48","","","","","","NA"
"-121.58","50.22","LYTTON RCS","1114746","2018-01-23 15:00","2018","01","23","15:00","0.6","","0.5","","99","","0.6","","36","","3","","","","98.40","","","","","","NA"
"-121.58","50.22","LYTTON RCS","1114746","2018-01-23 16:00","2018","01","23","16:00","1.0","","0.9","","100","","0.0","","4","","4","","","","98.39","","","","","","NA"
"-121.58","50.22","LYTTON RCS","1114746","2018-01-23 17:00","2018","01","23","17:00","1.0","","1.0","","100","","0.5","","13","","3","","","","98.35","","","","","","NA"
"-121.58","50.22","LYTTON RCS","1114746","2018-01-23 18:00","2018","01","23","18:00","1.0","","1.0","","100","","0.0","","17","","5","","","","98.29","","","","","","NA"
"-121.58","50.22","LYTTON RCS","1114746","2018-01-23 19:00","2018","01","23","19:00","1.1","","1.1","","100","","0.0","","20","","4","","","","98.22","","","","","","NA"
"-121.58","50.22","LYTTON RCS","1114746","2018-01-23 20:00","2018","01","23","20:00","0.8","","0.8","","100","","0.0","","21","","2","","","","98.17","","","","","","NA"
"-121.58","50.22","LYTTON RCS","1114746","2018-01-23 21:00","2018","01","23","21:00","0.7","","0.7","","100","","0.0","","20","","3","","","","98.09","","","","","","NA"
"-121.58","50.22","LYTTON RCS","1114746","2018-01-23 22:00","2018","01","23","22:00","0.8","","0.8","","100","","0.2","","2","","2","","","","98.09","","","","","","NA"
"-121.58","50.22","LYTTON RCS","1114746","2018-01-23 23:00","2018","01","23","23:00","0.5","","0.5","","100","","1.0","","1","","4","","","","98.05","","","","","","NA"
"-121.58","50.22","LYTTON RCS","1114746","2018-01-24 00:00","2018","01","24","00:00","0.3","","0.3","","100","","0.5","","36","","4","","","","98.02","","","","","","NA"
"-121.58","50.22","LYTTON RCS","1114746","2018-01-24 01:00","2018","01","24","01:00","0.0","","0.0","","100","","1.3","","","","0","","","","97.98","","","","","","NA"
"-121.58","50.22","LYTTON RCS","1114746","2018-01-24 02:00","2018","01","24","02:00","0.0","","0.0","","100","","1.0","","","","0","","","","97.95","","","","","","NA"
"-121.58","50.22","LYTTON RCS","1114746","2018-01-24 03:00","2018","01","24","03:00","0.0","","0.0","","100","","0.2","","","","0","","","","97.91","","","","","","NA"
"-121.58","50.22","LYTTON RCS","1114746","2018-01-24 04:00","2018","01","24","04:00","0.0","","0.0","","100","","0.5","","","","0","","","","97.87","","","","","","NA"
"-121.58","50.22","LYTTON RCS","1114746","2018-01-24 05:00","2018","01","24","05:00","0.0","","0.0","","100","","0.7","","","","0","","","","97.86","","","","","","NA"
"-121.58","50.22","LYTTON RCS","1114746","2018-01-24 06:00","2018","01","24","06:00","0.2","","0.2","","100","","0.4","","","","0","","","","97.85","","","","","","NA"
"-121.58","50.22","LYTTON RCS","1114746","2018-01-24 07:00","2018","01","24","07:00","0.0","","0.0","","100","","0.3","","","","0","","","","97.81","","","","","","NA"
"-121.58","50.22","LYTTON RCS","1114746","2018-01-24 08:00","2018","01","24","08:00","0.1","","0.1","","100","","0.3","","","","0","","","","97.85","","","","","","NA"
"-121.58","50.22","LYTTON RCS","1114746","2018-01-24 09:00","2018","01","24","09:00","0.3","","0.3","","100","","0.2","","","","0","","","","97.83","","","","","","NA"
"-121.58","50.22","LYTTON RCS","1114746","2018-01-24 10:00","2018","01","24","10:00","0.4","","0.4","","100","","0.8","","16","","3","","","","97.86","","","","","","NA"
"-121.58","50.22","LYTTON RCS","1114746","2018-01-24 11:00","2018","01","24","11:00","0.8","","0.8","","100","","0.0","","0","","1","","","","97.84","","","","","","NA"
"-121.58","50.22","LYTTON RCS","1114746","2018-01-24 12:00","2018","01","24","12:00","1.3","","0.9","","97","","0.0","","14","","2","","","","97.75","","","","","","NA"
"-121.58","50.22","LYTTON RCS","1114746","2018-01-24 13:00","2018","01","24","13:00","1.6","","1.4","","98","","0.2","","15","","3","","","","97.65","","","","","","NA"
"-121.58","50.22","LYTTON RCS","1114746","2018-01-24 14:00","2018","01","24","14:00","2.2","","1.8","","97","","0.0","","0","","1","","","","97.58","","","","","","NA"
"-121.58","50.22","LYTTON RCS","1114746","2018-01-24 15:00","2018","01","24","15:00","2.4","","2.2","","98","","0.0","","1","","4","","","","97.53","","","","","","NA"
"-121.58","50.22","LYTTON RCS","1114746","2018-01-24 16:00","2018","01","24","16:00","2.3","","2.2","","99","","0.0","","0","","1","","","","97.52","","","","","","NA"
"-121.58","50.22","LYTTON RCS","1114746","2018-01-24 17:00","2018","01","24","17:00","2.1","","2.1","","100","","0.0","","11","","1","","","","97.52","","","","","","NA"
"-121.58","50.22","LYTTON RCS","1114746","2018-01-24 18:00","2018","01","24","18:00","2.0","","2.0","","100","","0.0","","14","","2","","","","97.49","","","","","","NA"
"-121.58","50.22","LYTTON RCS","1114746","2018-01-24 19:00","2018","01","24","19:00","1.7","","1.7","","100","","0.0","","16","","4","","","","97.46","","","","","","NA"
"-121.58","50.22","LYTTON RCS","1114746","2018-01-24 20:00","2018","01","24","20:00","1.8","","1.8","","100","","0.0","","30","","1","","","","97.42","","","","","","NA"
"-121.58","50.22","LYTTON RCS","1114746","2018-01-24 21:00","2018","01","24","21:00","1.7","","1.7","","100","","0.2","","15","","6","","","","97.38","","","","","","NA"
"-121.58","50.22","LYTTON RCS","1114746","2018-01-24 22:00","2018","01","24","22:00","1.7","","1.7","","100","","0.9","","14","","3","","","","97.36","","","","","","NA"
"-121.58","50.22","LYTTON RCS","1114746","2018-01-24 23:00","2018","01","24","23:00","1.5","","1.5","","100","","0.6","","14","","3","","","","97.31","","","","","","NA"
"-121.58","50.22","LYTTON RCS","1114746","2018-01-25 00:00","2018","01","25","00:00","1.5","","1.5","","100","","0.2","","3","","2","","","","97.25","","","","","","NA"
"-121.58","50.22","LYTTON RCS","1114746","2018-01-25 01:00","2018","01","25","01:00","2.0","","1.9","","100","","0.2","","35","","9","","","","97.27","","","","","","NA"
"-121.58","50.22","LYTTON RCS","1114746","2018-01-25 02:00","2018","01","25","02:00","3.4","","1.8","","89","","0.0","","15","","24","","","","97.30","","","","","","NA"
"-121.58","50.22","LYTTON RCS","1114746","2018-01-25 03:00","2018","01","25","03:00","3.7","","1.7","","87","","0.0","","18","","27","","","","97.34","","","","","","NA"
"-121.58","50.22","LYTTON RCS","1114746","2018-01-25 04:00","2018","01","25","04:00","3.4","","1.6","","88","","0.0","","19","","29","","","","97.43","","","","","","NA"
"-121.58","50.22","LYTTON RCS","1114746","2018-01-25 05:00","2018","01","25","05:00","3.1","","1.3","","88","","0.0","","20","","30","","","","97.51","","","","","","NA"
"-121.58","50.22","LYTTON RCS","1114746","2018-01-25 06:00","2018","01","25","06:00","3.0","","0.4","","83","","0.0","","19","","28","","","","97.54","","","","","","NA"
"-121.58","50.22","LYTTON RCS","1114746","2018-01-25 07:00","2018","01","25","07:00","3.3","","-0.1","","78","","0.0","","20","","29","","","","97.57","","","","","","NA"
"-121.58","50.22","LYTTON RCS","1114746","2018-01-25 08:00","2018","01","25","08:00","3.1","","-0.4","","77","","0.0","","19","","27","","","","97.60","","","","","","NA"
"-121.58","50.22","LYTTON RCS","1114746","2018-01-25 09:00","2018","01","25","09:00","2.9","","-0.6","","78","","0.0","","17","","23","","","","97.66","","","","","","NA"
"-121.58","50.22","LYTTON RCS","1114746","2018-01-25 10:00","2018","01","25","10:00","3.6","","-0.6","","74","","0.0","","17","","17","","","","97.69","","","","","","NA"
"-121.58","50.22","LYTTON RCS","1114746","2018-01-25 11:00","2018","01","25","11:00","4.6","","0.0","","72","","0.0","","17","","28","","","","97.70","","","","","","NA"
"-121.58","50.22","LYTTON RCS","1114746","2018-01-25 12:00","2018","01","25","12:00","5.9","","0.0","","66","","0.0","","18","","18","","","","97.68","","","","","","NA"
"-121.58","50.22","LYTTON RCS","1114746","2018-01-25 13:00","2018","01","25","13:00","5.6","","0.1","","68","","0.0","","18","","19","","","","97.68","","","","","","NA"
"-121.58","50.22","LYTTON RCS","1114746","2018-01-25 14:00","2018","01","25","14:00","5.5","","-1.0","","63","","0.0","","18","","19","","","","97.68","","","","","","NA"
"-121.58","50.22","LYTTON RCS","1114746","2018-01-25 15:00","2018","01","25","15:00","4.8","","-0.4","","69","","0.0","","17","","18","","","","97.75","","","","","","NA"
"-121.58","50.22","LYTTON RCS","1114746","2018-01-25 16:00","2018","01","25","16:00","4.5","","0.0","","72","","0.0","","17","","24","","","","97.82","","","","","","NA"
"-121.58","50.22","LYTTON RCS","1114746","2018-01-25 17:00","2018","01","25","17:00","3.8","","0.3","","78","","0.0","","19","","17","","","","97.90","","","","","","NA"
"-121.58","50.22","LYTTON RCS","1114746","2018-01-25 18:00","2018","01","25","18:00","3.0","","0.3","","83","","0.0","","18","","20","","","","97.95","","","","","","NA"
"-121.58","50.22","LYTTON RCS","1114746","2018-01-25 19:00","2018","01","25","19:00","2.7","","0.4","","85","","0.0","","17","","16","","","","98.00","","","","","","NA"
"-121.58","50.22","LYTTON RCS","1114746","2018-01-25 20:00","2018","01","25","20:00","2.5","","0.7","","88","","0.0","","16","","14","","","","98.04","","","","","","NA"
"-121.58","50.22","LYTTON RCS","1114746","2018-01-25 21:00","2018","01","25","21:00","2.6","","0.5","","86","","0.0","","16","","15","","","","98.09","","","","","","NA"
"-121.58","50.22","LYTTON RCS","1114746","2018-01-25 22:00","2018","01","25","22:00","1.7","","-0.1","","87","","0.0","","25","","3","","","","98.14","","","","","","NA"
"-121.58","50.22","LYTTON RCS","1114746","2018-01-25 23:00","2018","01","25","23:00","1.5","","-0.1","","89","","0.0","","2","","7","","","","98.20","","","","","","NA"
"-121.58","50.22","LYTTON RCS","1114746","2018-01-26 00:00","2018","01","26","00:00","0.6","","-0.6","","92","","0.0","","30","","2","","","","98.24","","","","","","NA"
"-121.58","50.22","LYTTON RCS","1114746","2018-01-26 01:00","2018","01","26","01:00","0.7","","-0.5","","92","","0.0","","6","","4","","","","98.28","","","","","","NA"
"-121.58","50.22","LYTTON RCS","1114746","2018-01-26 02:00","2018","01","26","02:00","2.1","","0.7","","90","","0.0","","17","","21","","","","98.35","","","","","","NA"
"-121.58","50.22","LYTTON RCS","1114746","2018-01-26 03:00","2018","01","26","03:00","2.1","","0.6","","90","","0.0","","20","","12","","","","98.38","","","","","","NA"
"-121.58","50.22","LYTTON RCS","1114746","2018-01-26 04:00","2018","01","26","04:00","2.0","","0.5","","90","","0.0","","10","","4","","","","98.40","","","","","","NA"
"-121.58","50.22","LYTTON RCS","1114746","2018-01-26 05:00","2018","01","26","05:00","2.3","","0.3","","87","","0.0","","20","","23","","","","98.45","","","","","","NA"
"-121.58","50.22","LYTTON RCS","1114746","2018-01-26 06:00","2018","01","26","06:00","2.3","","0.2","","86","","0.0","","20","","27","","","","98.49","","","","","","NA"
"-121.58","50.22","LYTTON RCS","1114746","2018-01-26 07:00","2018","01","26","07:00","2.3","","0.2","","86","","0.0","","20","","23","","","","98.55","","","","","","NA"
"-121.58","50.22","LYTTON RCS","1114746","2018-01-26 08:00","2018","01","26","08:00","2.6","","-0.5","","80","","0.0","","20","","19","","","","98.63","","","","","","NA"
"-121.58","50.22","LYTTON RCS","1114746","2018-01-26 09:00","2018","01","26","09:00","3.0","","-0.6","","77","","0.0","","20","","16","","","","98.74","","","","","","NA"
"-121.58","50.22","LYTTON RCS","1114746","2018-01-26 10:00","2018","01","26","10:00","3.0","","0.0","","80","","0.0","","21","","11","","","","98.84","","","","","","NA"
"-121.58","50.22","LYTTON RCS","1114746","2018-01-26 11:00","2018","01","26","11:00","1.6","","0.7","","94","","0.6","","15","","15","","","","98.94","","","","","","NA"
"-121.58","50.22","LYTTON RCS","1114746","2018-01-26 12:00","2018","01","26","12:00","-0.3","","-0.5","","98","","1.3","","36","","6","","","","98.95","","","","-2","","NA"
"-121.58","50.22","LYTTON RCS","1114746","2018-01-26 13:00","2018","01","26","13:00","-0.1","","-0.3","","98","","0.6","","36","","6","","","","98.95","","","","-2","","NA"
"-121.58","50.22","LYTTON RCS","1114746","2018-01-26 14:00","2018","01","26","14:00","0.4","","0.3","","100","","0.8","","5","","3","","","","99.01","","","","","","NA"
"-121.58","50.22","LYTTON RCS","1114746","2018-01-26 15:00","2018","01","26","15:00","1.2","","1.0","","99","","0.4","","0","","1","","","","99.04","","","","","","NA"
"-121.58","50.22","LYTTON RCS","1114746","2018-01-26 16:00","2018","01","26","16:00","2.0","","1.9","","99","","0.0","","18","","12","","","","99.08","","","","","","NA"
"-121.58","50.22","LYTTON RCS","1114746","2018-01-26 17:00","2018","01","26","17:00","2.4","","0.8","","89","","0.3","","18","","26","","","","99.08","","","","","","NA"
"-121.58","50.22","LYTTON RCS","1114746","2018-01-26 18:00","2018","01","26","18:00","2.2","","0.3","","87","","0.0","","17","","18","","","","99.13","","","","","","NA"
"-121.58","50.22","LYTTON RCS","1114746","2018-01-26 19:00","2018","01","26","19:00","1.4","","-0.4","","88","","0.0","","15","","4","","","","99.18","","","","","","NA"
"-121.58","50.22","LYTTON RCS","1114746","2018-01-26 20:00","2018","01","26","20:00","0.2","","-0.3","","96","","0.0","","36","","7","","","","99.23","","","","","","NA"
"-121.58","50.22","LYTTON RCS","1114746","2018-01-26 21:00","2018","01","26","21:00","-0.7","","-0.7","","99","","0.0","","36","","1","","","","99.26","","","","-1","","NA"
"-121.58","50.22","LYTTON RCS","1114746","2018-01-26 22:00","2018","01","26","22:00","-0.9","","-0.9","","100","","0.0","","3","","4","","","","99.27","","","","-2","","NA"
"-121.58","50.22","LYTTON RCS","1114746","2018-01-26 23:00","2018","01","26","23:00","-1.0","","-1.0","","100","","0.0","","36","","3","","","","99.26","","","","-2","","NA"
"-121.58","50.22","LYTTON RCS","1114746","2018-01-27 00:00","2018","01","27","00:00","-1.1","","-1.1","","100","","0.0","","6","","1","","","","99.24","","","","-1","","NA"
"-121.58","50.22","LYTTON RCS","1114746","2018-01-27 01:00","2018","01","27","01:00","-1.0","","-1.0","","100","","0.0","","36","","1","","","","99.17","","","","-1","","NA"
"-121.58","50.22","LYTTON RCS","1114746","2018-01-27 02:00","2018","01","27","02:00","-1.1","","-1.1","","100","","0.0","","0","","1","","","","99.12","","","","-1","","NA"
"-121.58","50.22","LYTTON RCS","1114746","2018-01-27 03:00","2018","01","27","03:00","-1.1","","-1.1","","100","","0.0","","1","","5","","","","99.00","","","","-3","","NA"
"-121.58","50.22","LYTTON RCS","1114746","2018-01-27 04:00","2018","01","27","04:00","-1.0","","-2.2","","92","","0.0","","1","","6","","","","98.87","","","","-3","","NA"
"-121.58","50.22","LYTTON RCS","1114746","2018-01-27 05:00","2018","01","27","05:00","-0.8","","-2.6","","87","","0.0","","1","","7","","","","98.72","","","","-3","","NA"
"-121.58","50.22","LYTTON RCS","1114746","2018-01-27 06:00","2018","01","27","06:00","-0.8","","-1.6","","94","","0.0","","34","","5","","","","98.59","","","","-2","","NA"
"-121.58","50.22","LYTTON RCS","1114746","2018-01-27 07:00","2018","01","27","07:00","-1.1","","-1.2","","99","","1.1","","36","","9","","","","98.57","","","","-4","","NA"
"-121.58","50.22","LYTTON RCS","1114746","2018-01-27 08:00","2018","01","27","08:00","-1.3","","-1.5","","99","","0.8","","35","","11","","","","98.49","","","","-5","","NA"
"-121.58","50.22","LYTTON RCS","1114746","2018-01-27 09:00","2018","01","27","09:00","-1.2","","-1.7","","97","","0.3","","33","","3","","","","98.50","","","","-2","","NA"
"-121.58","50.22","LYTTON RCS","1114746","2018-01-27 10:00","2018","01","27","10:00","-0.9","","-1.7","","95","","0.0","","35","","8","","","","98.54","","","","-4","","NA"
"-121.58","50.22","LYTTON RCS","1114746","2018-01-27 11:00","2018","01","27","11:00","-0.4","","-1.4","","93","","0.2","","36","","4","","","","98.61","","","","-2","","NA"
"-121.58","50.22","LYTTON RCS","1114746","2018-01-27 12:00","2018","01","27","12:00","0.1","","-1.2","","91","","0.2","","33","","3","","","","98.65","","","","","","NA"
"-121.58","50.22","LYTTON RCS","1114746","2018-01-27 13:00","2018","01","27","13:00","0.0","","-1.0","","92","","0.0","","1","","8","","","","98.70","","","","-3","","NA"
"-121.58","50.22","LYTTON RCS","1114746","2018-01-27 14:00","2018","01","27","14:00","0.4","","-1.1","","89","","0.0","","2","","7","","","","98.84","","","","","","NA"
"-121.58","50.22","LYTTON RCS","1114746","2018-01-27 15:00","2018","01","27","15:00","0.2","","-1.0","","92","","0.0","","5","","6","","","","99.02","","","","","","NA"
"-121.58","50.22","LYTTON RCS","1114746","2018-01-27 16:00","2018","01","27","16:00","0.0","","-0.9","","94","","0.2","","35","","5","","","","99.19","","","","-2","","NA"
"-121.58","50.22","LYTTON RCS","1114746","2018-01-27 17:00","2018","01","27","17:00","-0.3","","-1.2","","94","","0.0","","2","","3","","","","99.37","","","","-1","","NA"
"-121.58","50.22","LYTTON RCS","1114746","2018-01-27 18:00","2018","01","27","18:00","-0.5","","-0.8","","98","","0.0","","15","","5","","","","99.57","","","","-2","","NA"
"-121.58","50.22","LYTTON RCS","1114746","2018-01-27 19:00","2018","01","27","19:00","-0.7","","-0.8","","99","","0.0","","1","","4","","","","99.75","","","","-2","","NA"
"-121.58","50.22","LYTTON RCS","1114746","2018-01-27 20:00","2018","01","27","20:00","-0.9","","-1.1","","99","","0.0","","1","","5","","","","99.91","","","","-3","","NA"
"-121.58","50.22","LYTTON RCS","1114746","2018-01-27 21:00","2018","01","27","21:00","-1.0","","-1.3","","98","","0.0","","36","","4","","","","100.09","","","","-2","","NA"
"-121.58","50.22","LYTTON RCS","1114746","2018-01-27 22:00","2018","01","27","22:00","-1.2","","-1.5","","98","","0.0","","1","","4","","","","100.17","","","","-3","","NA"
"-121.58","50.22","LYTTON RCS","1114746","2018-01-27 23:00","2018","01","27","23:00","-1.5","","-1.9","","97","","0.0","","36","","2","","","","100.29","","","","-2","","NA"
"-121.58","50.22","LYTTON RCS","1114746","2018-01-28 00:00","2018","01","28","00:00","-1.6","","-2.0","","97","","0.0","","1","","3","","","","100.30","","","","-3","","NA"
"-121.58","50.22","LYTTON RCS","1114746","2018-01-28 01:00","2018","01","28","01:00","-1.7","","-2.0","","98","","0.0","","34","","3","","","","100.29","","","","-3","","NA"
"-121.58","50.22","LYTTON RCS","1114746","2018-01-28 02:00","2018","01","28","02:00","-1.9","","-2.2","","98","","0.0","","2","","8","","","","100.28","","","","-5","","NA"
"-121.58","50.22","LYTTON RCS","1114746","2018-01-28 03:00","2018","01","28","03:00","-1.9","","-2.2","","98","","0.0","","35","","3","","","","100.30","","","","-3","","NA"
"-121.58","50.22","LYTTON RCS","1114746","2018-01-28 04:00","2018","01","28","04:00","-1.8","","-2.1","","97","","0.0","","1","","1","","","","100.25","","","","-2","","NA"
"-121.58","50.22","LYTTON RCS","1114746","2018-01-28 05:00","2018","01","28","05:00","-1.7","","-1.9","","98","","0.0","","","","0","","","","100.19","","","","","","NA"
"-121.58","50.22","LYTTON RCS","1114746","2018-01-28 06:00","2018","01","28","06:00","-1.8","","-1.9","","99","","0.6","","","","0","","","","100.20","","","","","","NA"
"-121.58","50.22","LYTTON RCS","1114746","2018-01-28 07:00","2018","01","28","07:00","-1.6","","-1.7","","100","","0.2","","0","","1","","","","100.20","","","","-2","","NA"
"-121.58","50.22","LYTTON RCS","1114746","2018-01-28 08:00","2018","01","28","08:00","-1.7","","-1.7","","100","","0.5","","","","0","","","","100.19","","","","","","NA"
"-121.58","50.22","LYTTON RCS","1114746","2018-01-28 09:00","2018","01","28","09:00","-1.5","","-1.5","","100","","0.5","","","","0","","","","100.14","","","","","","NA"
"-121.58","50.22","LYTTON RCS","1114746","2018-01-28 10:00","2018","01","28","10:00","-1.2","","-1.4","","99","","0.3","","0","","1","","","","100.01","","","","-2","","NA"
"-121.58","50.22","LYTTON RCS","1114746","2018-01-28 11:00","2018","01","28","11:00","-0.9","","-1.4","","97","","0.5","","0","","1","","","","99.93","","","","-1","","NA"
"-121.58","50.22","LYTTON RCS","1114746","2018-01-28 12:00","2018","01","28","12:00","-0.4","","-1.3","","93","","0.3","","33","","2","","","","99.78","","","","-1","","NA"
"-121.58","50.22","LYTTON RCS","1114746","2018-01-28 13:00","2018","01","28","13:00","0.4","","-1.4","","88","","0.0","","34","","3","","","","99.70","","","","","","NA"
"-121.58","50.22","LYTTON RCS","1114746","2018-01-28 14:00","2018","01","28","14:00","0.5","","-0.9","","90","","0.0","","36","","4","","","","99.62","","","","","","NA"
"-121.58","50.22","LYTTON RCS","1114746","2018-01-28 15:00","2018","01","28","15:00","0.2","","-0.6","","94","","0.2","","2","","10","","","","99.68","","","","","","NA"
"-121.58","50.22","LYTTON RCS","1114746","2018-01-28 16:00","2018","01","28","16:00","0.2","","-0.6","","94","","0.0","","3","","1","","","","99.57","","","","","","NA"
"-121.58","50.22","LYTTON RCS","1114746","2018-01-28 17:00","2018","01","28","17:00","0.6","","-0.3","","93","","0.0","","36","","5","","","","99.54","","","","","","NA"
"-121.58","50.22","LYTTON RCS","1114746","2018-01-28 18:00","2018","01","28","18:00","0.5","","-0.4","","94","","0.0","","35","","2","","","","99.55","","","","","","NA"
"-121.58","50.22","LYTTON RCS","1114746","2018-01-28 19:00","2018","01","28","19:00","0.2","","-0.5","","95","","0.0","","1","","6","","","","99.57","","","","","","NA"
"-121.58","50.22","LYTTON RCS","1114746","2018-01-28 20:00","2018","01","28","20:00","0.0","","-0.4","","97","","0.0","","16","","3","","","","99.59","","","","-1","","NA"
"-121.58","50.22","LYTTON RCS","1114746","2018-01-28 21:00","2018","01","28","21:00","0.0","","-0.3","","98","","0.0","","16","","2","","","","99.53","","","","-1","","NA"
"-121.58","50.22","LYTTON RCS","1114746","2018-01-28 22:00","2018","01","28","22:00","0.6","","-0.3","","94","","0.0","","35","","4","","","","99.47","","","","","","NA"
"-121.58","50.22","LYTTON RCS","1114746","2018-01-28 23:00","2018","01","28","23:00","0.5","","-0.5","","93","","0.0","","36","","3","","","","99.40","","","","","","NA"
"-121.58","50.22","LYTTON RCS","1114746","2018-01-29 00:00","2018","01","29","00:00","0.1","","-0.7","","95","","0.0","","1","","6","","","","99.29","","","","","","NA"
"-121.58","50.22","LYTTON RCS","1114746","2018-01-29 01:00","2018","01","29","01:00","0.6","","-0.5","","92","","0.0","","35","","4","","","","99.19","","","","","","NA"
"-121.58","50.22","LYTTON RCS","1114746","2018-01-29 02:00","2018","01","29","02:00","5.1","","3.3","","89","","0.0","","18","","28","","","","99.04","","","","","","NA"
"-121.58","50.22","LYTTON RCS","1114746","2018-01-29 03:00","2018","01","29","03:00","1.0","","-0.3","","91","","0.0","","35","","11","","","","99.03","","","","","","NA"
"-121.58","50.22","LYTTON RCS","1114746","2018-01-29 04:00","2018","01","29","04:00","0.9","","-0.4","","91","","0.0","","34","","4","","","","99.02","","","","","","NA"
"-121.58","50.22","LYTTON RCS","1114746","2018-01-29 05:00","2018","01","29","05:00","0.9","","-0.2","","92","","0.0","","1","","5","","","","98.94","","","","","","NA"
"-121.58","50.22","LYTTON RCS","1114746","2018-01-29 06:00","2018","01","29","06:00","1.5","","-0.1","","89","","0.0","","28","","4","","","","98.85","","","","","","NA"
"-121.58","50.22","LYTTON RCS","1114746","2018-01-29 07:00","2018","01","29","07:00","1.1","","0.1","","93","","0.0","","32","","8","","","","98.77","","","","","","NA"
"-121.58","50.22","LYTTON RCS","1114746","2018-01-29 08:00","2018","01","29","08:00","1.4","","0.8","","96","","0.3","","35","","7","","","","98.69","","","","","","NA"
"-121.58","50.22","LYTTON RCS","1114746","2018-01-29 09:00","2018","01","29","09:00","2.6","","2.3","","98","","0.7","","1","","8","","","","98.60","","","","","","NA"
"-121.58","50.22","LYTTON RCS","1114746","2018-01-29 10:00","2018","01","29","10:00","4.6","","3.9","","96","","0.7","","15","","22","","","","98.55","","","","","","NA"
"-121.58","50.22","LYTTON RCS","1114746","2018-01-29 11:00","2018","01","29","11:00","4.4","","3.6","","95","","0.8","","19","","9","","","","98.43","","","","","","NA"
"-121.58","50.22","LYTTON RCS","1114746","2018-01-29 12:00","2018","01","29","12:00","4.9","","4.2","","95","","1.3","","17","","35","","","","98.27","","","","","","NA"
"-121.58","50.22","LYTTON RCS","1114746","2018-01-29 13:00","2018","01","29","13:00","5.2","","4.6","","96","","0.6","","17","","36","","","","98.10","","","","","","NA"
"-121.58","50.22","LYTTON RCS","1114746","2018-01-29 14:00","2018","01","29","14:00","5.2","","4.5","","95","","0.2","","17","","37","","","","98.02","","","","","","NA"
"-121.58","50.22","LYTTON RCS","1114746","2018-01-29 15:00","2018","01","29","15:00","5.2","","4.8","","97","","1.8","","17","","29","","","","97.84","","","","","","NA"
"-121.58","50.22","LYTTON RCS","1114746","2018-01-29 16:00","2018","01","29","16:00","5.5","","4.7","","94","","1.1","","18","","32","","","","97.71","","","","","","NA"
"-121.58","50.22","LYTTON RCS","1114746","2018-01-29 17:00","2018","01","29","17:00","5.4","","4.7","","95","","0.7","","18","","26","","","","97.58","","","","","","NA"
"-121.58","50.22","LYTTON RCS","1114746","2018-01-29 18:00","2018","01","29","18:00","5.6","","4.7","","94","","0.4","","19","","24","","","","97.39","","","","","","NA"
"-121.58","50.22","LYTTON RCS","1114746","2018-01-29 19:00","2018","01","29","19:00","6.2","","4.9","","91","","0.8","","21","","29","","","","97.47","","","","","","NA"
"-121.58","50.22","LYTTON RCS","1114746","2018-01-29 20:00","2018","01","29","20:00","7.6","","4.2","","79","","0.3","","19","","31","","","","97.53","","","","","","NA"
"-121.58","50.22","LYTTON RCS","1114746","2018-01-29 21:00","2018","01","29","21:00","6.8","","3.5","","79","","0.0","","20","","32","","","","97.73","","","","","","NA"
"-121.58","50.22","LYTTON RCS","1114746","2018-01-29 22:00","2018","01","29","22:00","6.3","","2.2","","75","","0.0","","19","","24","","","","97.90","","","","","","NA"
"-121.58","50.22","LYTTON RCS","1114746","2018-01-29 23:00","2018","01","29","23:00","5.3","","2.0","","80","","0.0","","17","","24","","","","98.10","","","","","","NA"
"-121.58","50.22","LYTTON RCS","1114746","2018-01-30 00:00","2018","01","30","00:00","5.6","","1.5","","75","","0.0","","20","","31","","","","98.15","","","","","","NA"
"-121.58","50.22","LYTTON RCS","1114746","2018-01-30 01:00","2018","01","30","01:00","5.0","","1.5","","79","","0.0","","20","","30","","","","98.25","","","","","","NA"
"-121.58","50.22","LYTTON RCS","1114746","2018-01-30 02:00","2018","01","30","02:00","4.8","","1.1","","77","","0.0","","19","","28","","","","98.28","","","","","","NA"
"-121.58","50.22","LYTTON RCS","1114746","2018-01-30 03:00","2018","01","30","03:00","5.3","","0.4","","71","","0.0","","21","","23","","","","98.26","","","","","","NA"
"-121.58","50.22","LYTTON RCS","1114746","2018-01-30 04:00","2018","01","30","04:00","4.6","","0.5","","75","","0.0","","19","","21","","","","98.23","","","","","","NA"
"-121.58","50.22","LYTTON RCS","1114746","2018-01-30 05:00","2018","01","30","05:00","5.1","","0.2","","70","","0.0","","19","","22","","","","98.21","","","","","","NA"
"-121.58","50.22","LYTTON RCS","1114746","2018-01-30 06:00","2018","01","30","06:00","4.8","","0.5","","74","","0.0","","20","","28","","","","98.23","","","","","","NA"
"-121.58","50.22","LYTTON RCS","1114746","2018-01-30 07:00","2018","01","30","07:00","4.3","","1.0","","79","","0.0","","17","","37","","","","98.26","","","","","","NA"
"-121.58","50.22","LYTTON RCS","1114746","2018-01-30 08:00","2018","01","30","08:00","3.7","","1.5","","85","","0.0","","18","","39","","","","98.35","","","","","","NA"
"-121.58","50.22","LYTTON RCS","1114746","2018-01-30 09:00","2018","01","30","09:00","3.9","","1.4","","84","","0.0","","18","","36","","","","98.40","","","","","","NA"
"-121.58","50.22","LYTTON RCS","1114746","2018-01-30 10:00","2018","01","30","10:00","4.5","","1.3","","80","","0.0","","19","","34","","","","98.48","","","","","","NA"
"-121.58","50.22","LYTTON RCS","1114746","2018-01-30 11:00","2018","01","30","11:00","5.0","","1.6","","79","","0.0","","20","","29","","","","98.52","","","","","","NA"
"-121.58","50.22","LYTTON RCS","1114746","2018-01-30 12:00","2018","01","30","12:00","5.0","","1.5","","78","","0.0","","19","","31","","","","98.52","","","","","","NA"
"-121.58","50.22","LYTTON RCS","1114746","2018-01-30 13:00","2018","01","30","13:00","4.7","","1.6","","80","","0.0","","20","","31","","","","98.52","","","","","","NA"
"-121.58","50.22","LYTTON RCS","1114746","2018-01-30 14:00","2018","01","30","14:00","5.2","","1.5","","77","","0.0","","20","","30","","","","98.54","","","","","","NA"
"-121.58","50.22","LYTTON RCS","1114746","2018-01-30 15:00","2018","01","30","15:00","5.2","","0.9","","74","","0.0","","19","","28","","","","98.57","","","","","","NA"
"-121.58","50.22","LYTTON RCS","1114746","2018-01-30 16:00","2018","01","30","16:00","4.8","","0.9","","76","","0.0","","20","","30","","","","98.66","","","","","","NA"
"-121.58","50.22","LYTTON RCS","1114746","2018-01-30 17:00","2018","01","30","17:00","4.6","","0.4","","74","","0.0","","19","","30","","","","98.73","","","","","","NA"
"-121.58","50.22","LYTTON RCS","1114746","2018-01-30 18:00","2018","01","30","18:00","4.5","","0.1","","73","","0.0","","19","","28","","","","98.77","","","","","","NA"
"-121.58","50.22","LYTTON RCS","1114746","2018-01-30 19:00","2018","01","30","19:00","3.8","","0.5","","79","","0.0","","18","","33","","","","98.83","","","","","","NA"
"-121.58","50.22","LYTTON RCS","1114746","2018-01-30 20:00","2018","01","30","20:00","3.7","","0.5","","79","","0.0","","19","","25","","","","98.87","","","","","","NA"
"-121.58","50.22","LYTTON RCS","1114746","2018-01-30 21:00","2018","01","30","21:00","3.3","","0.6","","82","","0.0","","19","","20","","","","98.91","","","","","","NA"
"-121.58","50.22","LYTTON RCS","1114746","2018-01-30 22:00","2018","01","30","22:00","3.4","","0.3","","81","","0.0","","20","","24","","","","98.92","","","","","","NA"
"-121.58","50.22","LYTTON RCS","1114746","2018-01-30 23:00","2018","01","30","23:00","3.2","","0.3","","81","","0.0","","20","","24","","","","98.94","","","","","","NA"
"-121.58","50.22","LYTTON RCS","1114746","2018-01-31 00:00","2018","01","31","00:00","3.8","","-0.3","","75","","0.0","","20","","20","","","","98.99","","","","","","NA"
"-121.58","50.22","LYTTON RCS","1114746","2018-01-31 01:00","2018","01","31","01:00","3.1","","-0.3","","78","","0.0","","16","","23","","","","99.03","","","","","","NA"
"-121.58","50.22","LYTTON RCS","1114746","2018-01-31 02:00","2018","01","31","02:00","2.8","","0.0","","82","","0.0","","18","","27","","","","99.10","","","","","","NA"
"-121.58","50.22","LYTTON RCS","1114746","2018-01-31 03:00","2018","01","31","03:00","2.9","","-0.2","","80","","0.0","","19","","23","","","","99.15","","","","","","NA"
"-121.58","50.22","LYTTON RCS","1114746","2018-01-31 04:00","2018","01","31","04:00","2.2","","-0.3","","83","","0.0","","18","","17","","","","99.20","","","","","","NA"
"-121.58","50.22","LYTTON RCS","1114746","2018-01-31 05:00","2018","01","31","05:00","1.6","","-1.0","","83","","0.0","","35","","4","","","","99.27","","","","","","NA"
"-121.58","50.22","LYTTON RCS","1114746","2018-01-31 06:00","2018","01","31","06:00","-0.3","","-1.6","","91","","0.0","","2","","9","","","","99.31","","","","-3","","NA"
"-121.58","50.22","LYTTON RCS","1114746","2018-01-31 07:00","2018","01","31","07:00","-1.5","","-2.4","","94","","0.0","","36","","3","","","","99.34","","","","-3","","NA"
"-121.58","50.22","LYTTON RCS","1114746","2018-01-31 08:00","2018","01","31","08:00","-2.0","","-2.3","","98","","0.0","","4","","3","","","","99.37","","","","-3","","NA"
"-121.58","50.22","LYTTON RCS","1114746","2018-01-31 09:00","2018","01","31","09:00","-2.2","","-2.5","","97","","0.0","","36","","5","","","","99.41","","","","-4","","NA"
"-121.58","50.22","LYTTON RCS","1114746","2018-01-31 10:00","2018","01","31","10:00","-1.5","","-2.4","","93","","0.0","","2","","7","","","","99.42","","","","-4","","NA"
"-121.58","50.22","LYTTON RCS","1114746","2018-01-31 11:00","2018","01","31","11:00","0.7","","-1.1","","88","","0.0","","3","","5","","","","99.43","","","","","","NA"
"-121.58","50.22","LYTTON RCS","1114746","2018-01-31 12:00","2018","01","31","12:00","3.9","","0.1","","76","","0.0","","19","","10","","","","99.38","","","","","","NA"
"-121.58","50.22","LYTTON RCS","1114746","2018-01-31 13:00","2018","01","31","13:00","5.1","","-0.2","","69","","0.0","","18","","19","","","","99.32","","","","","","NA"
"-121.58","50.22","LYTTON RCS","1114746","2018-01-31 14:00","2018","01","31","14:00","4.9","","-0.5","","68","","0.0","","19","","21","","","","99.28","","","","","","NA"
"-121.58","50.22","LYTTON RCS","1114746","2018-01-31 15:00","2018","01","31","15:00","5.9","","-0.4","","64","","0.0","","18","","19","","","","99.28","","","","","","NA"
"-121.58","50.22","LYTTON RCS","1114746","2018-01-31 16:00","2018","01","31","16:00","4.7","","-0.3","","70","","0.0","","18","","25","","","","99.29","","","","","","NA"
"-121.58","50.22","LYTTON RCS","1114746","2018-01-31 17:00","2018","01","31","17:00","4.4","","-0.1","","72","","0.0","","19","","18","","","","99.28","","","","","","NA"
"-121.58","50.22","LYTTON RCS","1114746","2018-01-31 18:00","2018","01","31","18:00","4.1","","0.0","","74","","0.0","","19","","23","","","","99.27","","","","","","NA"
"-121.58","50.22","LYTTON RCS","1114746","2018-01-31 19:00","2018","01","31","19:00","3.6","","0.2","","78","","0.0","","18","","22","","","","99.27","","","","","","NA"
"-121.58","50.22","LYTTON RCS","1114746","2018-01-31 20:00","2018","01","31","20:00","3.3","","0.4","","81","","0.0","","19","","20","","","","99.28","","","","","","NA"
"-121.58","50.22","LYTTON RCS","1114746","2018-01-31 21:00","2018","01","31","21:00","2.9","","0.7","","85","","0.0","","19","","15","","","","99.27","","","","","","NA"
"-121.58","50.22","LYTTON RCS","1114746","2018-01-31 22:00","2018","01","31","22:00","3.2","","0.4","","82","","0.0","","17","","18","","","","99.26","","","","","","NA"
"-121.58","50.22","LYTTON RCS","1114746","2018-01-31 23:00","2018","01","31","23:00","2.9","","0.4","","84","","0.0","","19","","15","","","","99.28","","","","","","NA"
