"Longitude (x)","Latitude (y)","Station Name","Climate ID","Date/Time (LST)","Year","Month","Day","Time (LST)","Temp (°C)","Temp Flag","Dew Point Temp (°C)","Dew Point Temp Flag","Rel Hum (%)","Rel Hum Flag","Precip. Amount (mm)","Precip. Amount Flag","Wind Dir (10s deg)","Wind Dir Flag","Wind Spd (km/h)","Wind Spd Flag","Visibility (km)","Visibility Flag","Stn Press (kPa)","Stn Press Flag","Hmdx","Hmdx Flag","Wind Chill","Wind Chill Flag","Weather"
"-85.81","79.99","EUREKA A","2401208","2019-01-01 00:00","2019","01","01","00:00","-19.9","","-22.5","","80","","","M","14","","45","","","M","101.05","","","","-35","","NA"
"-85.81","79.99","EUREKA A","2401208","2019-01-01 01:00","2019","01","01","01:00","-19.8","","-22.3","","80","","","M","14","","43","","","M","101.07","","","","-34","","NA"
"-85.81","79.99","EUREKA A","2401208","2019-01-01 02:00","2019","01","01","02:00","-20.0","","-22.6","","80","","","M","14","","34","","","M","101.04","","","","-33","","NA"
"-85.81","79.99","EUREKA A","2401208","2019-01-01 03:00","2019","01","01","03:00","-19.1","","-21.7","","81","","","M","15","","45","","","M","101.02","","","","-34","","NA"
"-85.81","79.99","EUREKA A","2401208","2019-01-01 04:00","2019","01","01","04:00","-19.5","","-22.1","","81","","","M","14","","43","","","M","100.96","","","","-34","","NA"
"-85.81","79.99","EUREKA A","2401208","2019-01-01 05:00","2019","01","01","05:00","-19.5","","-22.1","","80","","","M","14","","32","","","M","100.95","","","","-32","","NA"
"-85.81","79.99","EUREKA A","2401208","2019-01-01 06:00","2019","01","01","06:00","-19.5","","-22.1","","80","","","M","14","","42","","","M","100.91","","","","-34","","NA"
"-85.81","79.99","EUREKA A","2401208","2019-01-01 07:00","2019","01","01","07:00","-18.7","","-21.4","","80","","","M","14","","39","","","M","100.91","","","","-32","","NA"
"-85.81","79.99","EUREKA A","2401208","2019-01-01 08:00","2019","01","01","08:00","-18.9","","-21.6","","80","","","M","15","","41","","","M","100.84","","","","-33","","NA"
"-85.81","79.99","EUREKA A","2401208","2019-01-01 09:00","2019","01","01","09:00","-18.9","","-21.7","","79","","","M","14","","25","","","M","100.85","","","","-30","","NA"
"-85.81","79.99","EUREKA A","2401208","2019-01-01 10:00","2019","01","01","10:00","-19.7","","-22.5","","78","","","M","14","","30","","","M","100.81","","","","-32","","NA"
"-85.81","79.99","EUREKA A","2401208","2019-01-01 11:00","2019","01","01","11:00","-20.2","","-23.1","","78","","","M","15","","33","","","M","100.70","","","","-33","","NA"
"-85.81","79.99","EUREKA A","2401208","2019-01-01 12:00","2019","01","01","12:00","-20.1","","-23.3","","76","","","M","17","","13","","","M","100.68","","","","-29","","NA"
"-85.81","79.99","EUREKA A","2401208","2019-01-01 13:00","2019","01","01","13:00","-19.9","","-23.0","","76","","","M","14","","32","","","M","100.58","","","","-33","","NA"
"-85.81","79.99","EUREKA A","2401208","2019-01-01 14:00","2019","01","01","14:00","-20.6","","-23.9","","76","","","M","16","","26","","","M","100.53","","","","-33","","NA"
"-85.81","79.99","EUREKA A","2401208","2019-01-01 15:00","2019","01","01","15:00","-20.9","","-24.3","","75","","","M","14","","31","","","M","100.50","","","","-34","","NA"
"-85.81","79.99","EUREKA A","2401208","2019-01-01 16:00","2019","01","01","16:00","-21.6","","-25.1","","74","","","M","15","","25","","","M","100.41","","","","-34","","NA"
"-85.81","79.99","EUREKA A","2401208","2019-01-01 17:00","2019","01","01","17:00","-22.1","","-25.8","","72","","","M","14","","23","","","M","100.38","","","","-34","","NA"
"-85.81","79.99","EUREKA A","2401208","2019-01-01 18:00","2019","01","01","18:00","-22.1","","-25.7","","73","","","M","14","","28","","","M","100.29","","","","-35","","NA"
"-85.81","79.99","EUREKA A","2401208","2019-01-01 19:00","2019","01","01","19:00","-22.4","","-26.4","","70","","","M","17","","10","","","M","100.19","","","","-30","","NA"
"-85.81","79.99","EUREKA A","2401208","2019-01-01 20:00","2019","01","01","20:00","-22.4","","-26.2","","72","","","M","20","","6","","","M","100.11","","","","-28","","NA"
"-85.81","79.99","EUREKA A","2401208","2019-01-01 21:00","2019","01","01","21:00","-21.7","","-25.8","","70","","","M","16","","9","","","M","100.03","","","","-29","","NA"
"-85.81","79.99","EUREKA A","2401208","2019-01-01 22:00","2019","01","01","22:00","-22.2","","-26.4","","69","","","M","13","","10","","","M","99.94","","","","-30","","NA"
"-85.81","79.99","EUREKA A","2401208","2019-01-01 23:00","2019","01","01","23:00","-22.0","","-26.3","","69","","","M","14","","14","","","M","99.88","","","","-31","","NA"
"-85.81","79.99","EUREKA A","2401208","2019-01-02 00:00","2019","01","02","00:00","-22.8","","-26.7","","71","","","M","18","","16","","","M","99.85","","","","-33","","NA"
"-85.81","79.99","EUREKA A","2401208","2019-01-02 01:00","2019","01","02","01:00","-23.2","","-27.4","","69","","","M","14","","19","","","M","99.81","","","","-34","","NA"
"-85.81","79.99","EUREKA A","2401208","2019-01-02 02:00","2019","01","02","02:00","-23.3","","-27.5","","69","","","M","14","","18","","","M","99.79","","","","-34","","NA"
"-85.81","79.99","EUREKA A","2401208","2019-01-02 03:00","2019","01","02","03:00","-23.3","","-27.4","","70","","","M","14","","26","","","M","99.79","","","","-36","","NA"
"-85.81","79.99","EUREKA A","2401208","2019-01-02 04:00","2019","01","02","04:00","-24.0","","-27.8","","72","","","M","13","","17","","","M","99.79","","","","-35","","NA"
"-85.81","79.99","EUREKA A","2401208","2019-01-02 05:00","2019","01","02","05:00","-24.1","","-27.6","","73","","","M","13","","23","","","M","99.76","","","","-36","","NA"
"-85.81","79.99","EUREKA A","2401208","2019-01-02 06:00","2019","01","02","06:00","-23.8","","-27.0","","75","","","M","14","","21","","","M","99.76","","","","-36","","NA"
"-85.81","79.99","EUREKA A","2401208","2019-01-02 07:00","2019","01","02","07:00","-25.2","","-28.3","","76","","","M","15","","23","","","M","99.79","","","","-38","","NA"
"-85.81","79.99","EUREKA A","2401208","2019-01-02 08:00","2019","01","02","08:00","-24.9","","-27.8","","78","","","M","14","","22","","","M","99.83","","","","-37","","NA"
"-85.81","79.99","EUREKA A","2401208","2019-01-02 09:00","2019","01","02","09:00","-24.9","","-27.7","","78","","","M","15","","15","","","M","99.88","","","","-35","","NA"
"-85.81","79.99","EUREKA A","2401208","2019-01-02 10:00","2019","01","02","10:00","-26.1","","-28.8","","78","","","M","19","","10","","","M","99.92","","","","-34","","NA"
"-85.81","79.99","EUREKA A","2401208","2019-01-02 11:00","2019","01","02","11:00","-25.8","","-28.6","","78","","","M","13","","1","","","M","99.96","","","","-27","","NA"
"-85.81","79.99","EUREKA A","2401208","2019-01-02 12:00","2019","01","02","12:00","-28.7","","-31.6","","77","","","M","6","","8","","","M","99.99","","","","-36","","NA"
"-85.81","79.99","EUREKA A","2401208","2019-01-02 13:00","2019","01","02","13:00","-28.6","","-31.5","","77","","","M","35","","3","","","M","100.06","","","","-32","","NA"
"-85.81","79.99","EUREKA A","2401208","2019-01-02 14:00","2019","01","02","14:00","-27.6","","-30.5","","77","","","M","36","","5","","","M","100.12","","","","-33","","NA"
"-85.81","79.99","EUREKA A","2401208","2019-01-02 15:00","2019","01","02","15:00","-28.6","","-31.6","","76","","","M","17","","7","","","M","100.19","","","","-36","","NA"
"-85.81","79.99","EUREKA A","2401208","2019-01-02 16:00","2019","01","02","16:00","-29.3","","-32.3","","76","","","M","13","","5","","","M","100.25","","","","-35","","NA"
"-85.81","79.99","EUREKA A","2401208","2019-01-02 17:00","2019","01","02","17:00","-30.7","","-33.8","","75","","","M","36","","2","","","M","100.32","","","","-33","","NA"
"-85.81","79.99","EUREKA A","2401208","2019-01-02 18:00","2019","01","02","18:00","-30.1","","-33.3","","74","","","M","1","","3","","","M","100.36","","","","-33","","NA"
"-85.81","79.99","EUREKA A","2401208","2019-01-02 19:00","2019","01","02","19:00","-29.7","","-32.9","","74","","","M","11","","5","","","M","100.37","","","","-35","","NA"
"-85.81","79.99","EUREKA A","2401208","2019-01-02 20:00","2019","01","02","20:00","-29.5","","-32.7","","74","","","M","8","","4","","","M","100.39","","","","-34","","NA"
"-85.81","79.99","EUREKA A","2401208","2019-01-02 21:00","2019","01","02","21:00","-30.5","","-33.8","","74","","","M","5","","4","","","M","100.41","","","","-35","","NA"
"-85.81","79.99","EUREKA A","2401208","2019-01-02 22:00","2019","01","02","22:00","-29.8","","-33.0","","74","","","M","6","","2","","","M","100.45","","","","-32","","NA"
"-85.81","79.99","EUREKA A","2401208","2019-01-02 23:00","2019","01","02","23:00","-31.0","","-34.3","","73","","","M","15","","4","","","M","100.49","","","","-36","","NA"
"-85.81","79.99","EUREKA A","2401208","2019-01-03 00:00","2019","01","03","00:00","-28.8","","-32.1","","74","","","M","12","","7","","","M","100.51","","","","-36","","NA"
"-85.81","79.99","EUREKA A","2401208","2019-01-03 01:00","2019","01","03","01:00","-32.2","","-35.7","","72","","","M","8","","6","","","M","100.52","","","","-39","","NA"
"-85.81","79.99","EUREKA A","2401208","2019-01-03 02:00","2019","01","03","02:00","-30.4","","-33.9","","73","","","M","6","","4","","","M","100.54","","","","-35","","NA"
"-85.81","79.99","EUREKA A","2401208","2019-01-03 03:00","2019","01","03","03:00","-31.8","","-35.2","","72","","","M","7","","4","","","M","100.56","","","","-36","","NA"
"-85.81","79.99","EUREKA A","2401208","2019-01-03 04:00","2019","01","03","04:00","-31.5","","-34.9","","72","","","M","5","","5","","","M","100.53","","","","-37","","NA"
"-85.81","79.99","EUREKA A","2401208","2019-01-03 05:00","2019","01","03","05:00","-31.4","","-34.8","","72","","","M","15","","3","","","M","100.54","","","","-35","","NA"
"-85.81","79.99","EUREKA A","2401208","2019-01-03 06:00","2019","01","03","06:00","-30.8","","-34.2","","72","","","M","13","","4","","","M","100.54","","","","-35","","NA"
"-85.81","79.99","EUREKA A","2401208","2019-01-03 07:00","2019","01","03","07:00","-31.3","","-34.8","","72","","","M","17","","7","","","M","100.54","","","","-39","","NA"
"-85.81","79.99","EUREKA A","2401208","2019-01-03 08:00","2019","01","03","08:00","-30.9","","-34.4","","72","","","M","1","","3","","","M","100.52","","","","-34","","NA"
"-85.81","79.99","EUREKA A","2401208","2019-01-03 09:00","2019","01","03","09:00","-31.5","","-35.0","","72","","","M","30","","2","","","M","100.52","","","","-34","","NA"
"-85.81","79.99","EUREKA A","2401208","2019-01-03 10:00","2019","01","03","10:00","-31.6","","-35.0","","72","","","M","6","","3","","","M","100.52","","","","-35","","NA"
"-85.81","79.99","EUREKA A","2401208","2019-01-03 11:00","2019","01","03","11:00","-32.0","","-35.5","","72","","","M","19","","7","","","M","100.52","","","","-40","","NA"
"-85.81","79.99","EUREKA A","2401208","2019-01-03 12:00","2019","01","03","12:00","-31.5","","-35.0","","72","","","M","2","","2","","","M","100.52","","","","-34","","NA"
"-85.81","79.99","EUREKA A","2401208","2019-01-03 13:00","2019","01","03","13:00","-32.2","","-35.8","","71","","","M","18","","2","","","M","100.53","","","","-35","","NA"
"-85.81","79.99","EUREKA A","2401208","2019-01-03 14:00","2019","01","03","14:00","-33.7","","-37.3","","71","","","M","10","","4","","","M","100.55","","","","-39","","NA"
"-85.81","79.99","EUREKA A","2401208","2019-01-03 15:00","2019","01","03","15:00","-32.6","","-36.2","","71","","","M","16","","7","","","M","100.58","","","","-40","","NA"
"-85.81","79.99","EUREKA A","2401208","2019-01-03 16:00","2019","01","03","16:00","-33.8","","-37.4","","71","","","M","9","","3","","","M","100.60","","","","-37","","NA"
"-85.81","79.99","EUREKA A","2401208","2019-01-03 17:00","2019","01","03","17:00","-33.0","","-36.6","","71","","","M","16","","2","","","M","100.67","","","","-35","","NA"
"-85.81","79.99","EUREKA A","2401208","2019-01-03 18:00","2019","01","03","18:00","-32.7","","-36.2","","71","","","M","8","","4","","","M","100.72","","","","-37","","NA"
"-85.81","79.99","EUREKA A","2401208","2019-01-03 19:00","2019","01","03","19:00","-32.6","","-36.2","","71","","","M","17","","2","","","M","100.75","","","","-35","","NA"
"-85.81","79.99","EUREKA A","2401208","2019-01-03 20:00","2019","01","03","20:00","-33.3","","-36.9","","71","","","M","7","","3","","","M","100.77","","","","-37","","NA"
"-85.81","79.99","EUREKA A","2401208","2019-01-03 21:00","2019","01","03","21:00","-33.8","","-37.4","","71","","","M","4","","3","","","M","100.80","","","","-37","","NA"
"-85.81","79.99","EUREKA A","2401208","2019-01-03 22:00","2019","01","03","22:00","-33.5","","-37.1","","71","","","M","9","","5","","","M","100.86","","","","-40","","NA"
"-85.81","79.99","EUREKA A","2401208","2019-01-03 23:00","2019","01","03","23:00","-32.7","","-36.3","","71","","","M","13","","3","","","M","100.87","","","","-36","","NA"
"-85.81","79.99","EUREKA A","2401208","2019-01-04 00:00","2019","01","04","00:00","-32.4","","-36.0","","71","","","M","8","","5","","","M","100.92","","","","-38","","NA"
"-85.81","79.99","EUREKA A","2401208","2019-01-04 01:00","2019","01","04","01:00","-31.3","","-34.8","","72","","","M","6","","3","","","M","100.95","","","","-35","","NA"
"-85.81","79.99","EUREKA A","2401208","2019-01-04 02:00","2019","01","04","02:00","-32.0","","-35.6","","71","","","M","32","","2","","","M","100.96","","","","-34","","NA"
"-85.81","79.99","EUREKA A","2401208","2019-01-04 03:00","2019","01","04","03:00","-32.9","","-36.5","","71","","","M","16","","7","","","M","101.01","","","","-41","","NA"
"-85.81","79.99","EUREKA A","2401208","2019-01-04 04:00","2019","01","04","04:00","-34.0","","-37.6","","70","","","M","6","","5","","","M","101.02","","","","-40","","NA"
"-85.81","79.99","EUREKA A","2401208","2019-01-04 05:00","2019","01","04","05:00","-33.0","","-36.6","","71","","","M","24","","3","","","M","101.01","","","","-37","","NA"
"-85.81","79.99","EUREKA A","2401208","2019-01-04 06:00","2019","01","04","06:00","-32.4","","-36.0","","71","","","M","28","","3","","","M","101.01","","","","-36","","NA"
"-85.81","79.99","EUREKA A","2401208","2019-01-04 07:00","2019","01","04","07:00","-34.7","","-38.4","","70","","","M","1","","2","","","M","100.97","","","","-37","","NA"
"-85.81","79.99","EUREKA A","2401208","2019-01-04 08:00","2019","01","04","08:00","-32.8","","-36.4","","71","","","M","29","","8","","","M","100.92","","","","-41","","NA"
"-85.81","79.99","EUREKA A","2401208","2019-01-04 09:00","2019","01","04","09:00","-33.4","","-37.0","","71","","","M","28","","9","","","M","100.88","","","","-43","","NA"
"-85.81","79.99","EUREKA A","2401208","2019-01-04 10:00","2019","01","04","10:00","-32.9","","-36.5","","71","","","M","28","","10","","","M","100.84","","","","-43","","NA"
"-85.81","79.99","EUREKA A","2401208","2019-01-04 11:00","2019","01","04","11:00","-32.8","","-36.4","","71","","","M","29","","16","","","M","100.76","","","","-45","","NA"
"-85.81","79.99","EUREKA A","2401208","2019-01-04 12:00","2019","01","04","12:00","-32.8","","-36.4","","71","","","M","27","","10","","","M","100.66","","","","-42","","NA"
"-85.81","79.99","EUREKA A","2401208","2019-01-04 13:00","2019","01","04","13:00","-32.7","","-36.3","","71","","","M","26","","5","","","M","100.60","","","","-39","","NA"
"-85.81","79.99","EUREKA A","2401208","2019-01-04 14:00","2019","01","04","14:00","-33.6","","-37.2","","71","","","M","0","","1","","","M","100.51","","","","-35","","NA"
"-85.81","79.99","EUREKA A","2401208","2019-01-04 15:00","2019","01","04","15:00","-33.6","","-37.2","","71","","","M","1","","6","","","M","100.41","","","","-41","","NA"
"-85.81","79.99","EUREKA A","2401208","2019-01-04 16:00","2019","01","04","16:00","-29.8","","-33.3","","72","","","M","28","","4","","","M","100.28","","","","-34","","NA"
"-85.81","79.99","EUREKA A","2401208","2019-01-04 17:00","2019","01","04","17:00","-31.0","","-34.5","","72","","","M","27","","17","","","M","100.24","","","","-43","","NA"
"-85.81","79.99","EUREKA A","2401208","2019-01-04 18:00","2019","01","04","18:00","-29.7","","-33.1","","73","","","M","31","","7","","","M","100.17","","","","-37","","NA"
"-85.81","79.99","EUREKA A","2401208","2019-01-04 19:00","2019","01","04","19:00","-28.4","","-31.8","","74","","","M","28","","18","","","M","100.07","","","","-40","","NA"
"-85.81","79.99","EUREKA A","2401208","2019-01-04 20:00","2019","01","04","20:00","-27.9","","-31.1","","74","","","M","26","","15","","","M","99.98","","","","-39","","NA"
"-85.81","79.99","EUREKA A","2401208","2019-01-04 21:00","2019","01","04","21:00","-27.2","","-30.4","","75","","","M","27","","39","","","M","99.83","","","","-44","","NA"
"-85.81","79.99","EUREKA A","2401208","2019-01-04 22:00","2019","01","04","22:00","-27.8","","-31.1","","74","","","M","28","","34","","","M","99.75","","","","-44","","NA"
"-85.81","79.99","EUREKA A","2401208","2019-01-04 23:00","2019","01","04","23:00","-26.8","","-30.1","","75","","","M","30","","21","","","M","99.70","","","","-39","","NA"
"-85.81","79.99","EUREKA A","2401208","2019-01-05 00:00","2019","01","05","00:00","-26.7","","-29.9","","75","","","M","29","","20","","","M","99.65","","","","-39","","NA"
"-85.81","79.99","EUREKA A","2401208","2019-01-05 01:00","2019","01","05","01:00","-26.9","","-30.1","","75","","","M","28","","28","","","M","99.60","","","","-41","","NA"
"-85.81","79.99","EUREKA A","2401208","2019-01-05 02:00","2019","01","05","02:00","-27.2","","-30.4","","75","","","M","31","","15","","","M","99.67","","","","-38","","NA"
"-85.81","79.99","EUREKA A","2401208","2019-01-05 03:00","2019","01","05","03:00","-27.3","","-30.5","","75","","","M","35","","14","","","M","99.68","","","","-38","","NA"
"-85.81","79.99","EUREKA A","2401208","2019-01-05 04:00","2019","01","05","04:00","-26.5","","-29.7","","75","","","M","33","","8","","","M","99.71","","","","-34","","NA"
"-85.81","79.99","EUREKA A","2401208","2019-01-05 05:00","2019","01","05","05:00","-29.4","","-32.7","","74","","","M","14","","24","","","M","99.80","","","","-43","","NA"
"-85.81","79.99","EUREKA A","2401208","2019-01-05 06:00","2019","01","05","06:00","-28.8","","-32.1","","74","","","M","15","","16","","","M","99.90","","","","-40","","NA"
"-85.81","79.99","EUREKA A","2401208","2019-01-05 07:00","2019","01","05","07:00","-28.5","","-31.9","","74","","","M","14","","14","","","M","100.01","","","","-39","","NA"
"-85.81","79.99","EUREKA A","2401208","2019-01-05 08:00","2019","01","05","08:00","-28.8","","-32.1","","74","","","M","15","","11","","","M","100.14","","","","-38","","NA"
"-85.81","79.99","EUREKA A","2401208","2019-01-05 09:00","2019","01","05","09:00","-28.3","","-31.6","","74","","","M","34","","5","","","M","100.25","","","","-34","","NA"
"-85.81","79.99","EUREKA A","2401208","2019-01-05 10:00","2019","01","05","10:00","-27.5","","-30.8","","74","","","M","6","","4","","","M","100.33","","","","-32","","NA"
"-85.81","79.99","EUREKA A","2401208","2019-01-05 11:00","2019","01","05","11:00","-26.5","","-29.7","","75","","","M","36","","4","","","M","100.38","","","","-31","","NA"
"-85.81","79.99","EUREKA A","2401208","2019-01-05 12:00","2019","01","05","12:00","-26.6","","-29.8","","75","","","M","7","","1","","","M","100.46","","","","-28","","NA"
"-85.81","79.99","EUREKA A","2401208","2019-01-05 13:00","2019","01","05","13:00","-26.9","","-30.1","","75","","","M","14","","5","","","M","100.56","","","","-32","","NA"
"-85.81","79.99","EUREKA A","2401208","2019-01-05 14:00","2019","01","05","14:00","-26.6","","-29.7","","75","","","M","7","","3","","","M","100.64","","","","-30","","NA"
"-85.81","79.99","EUREKA A","2401208","2019-01-05 15:00","2019","01","05","15:00","-26.4","","-29.6","","75","","","M","7","","3","","","M","100.75","","","","-29","","NA"
"-85.81","79.99","EUREKA A","2401208","2019-01-05 16:00","2019","01","05","16:00","-26.2","","-29.4","","75","","","M","9","","4","","","M","100.83","","","","-30","","NA"
"-85.81","79.99","EUREKA A","2401208","2019-01-05 17:00","2019","01","05","17:00","-26.0","","-29.1","","76","","","M","15","","5","","","M","100.94","","","","-31","","NA"
"-85.81","79.99","EUREKA A","2401208","2019-01-05 18:00","2019","01","05","18:00","-26.3","","-29.4","","76","","","M","3","","5","","","M","101.02","","","","-31","","NA"
"-85.81","79.99","EUREKA A","2401208","2019-01-05 19:00","2019","01","05","19:00","-25.7","","-28.8","","76","","","M","1","","3","","","M","101.08","","","","-29","","NA"
"-85.81","79.99","EUREKA A","2401208","2019-01-05 20:00","2019","01","05","20:00","-26.0","","-29.1","","76","","","M","8","","5","","","M","101.16","","","","-31","","NA"
"-85.81","79.99","EUREKA A","2401208","2019-01-05 21:00","2019","01","05","21:00","-25.5","","-28.6","","76","","","M","15","","5","","","M","101.20","","","","-31","","NA"
"-85.81","79.99","EUREKA A","2401208","2019-01-05 22:00","2019","01","05","22:00","-25.8","","-28.8","","76","","","M","7","","5","","","M","101.26","","","","-31","","NA"
"-85.81","79.99","EUREKA A","2401208","2019-01-05 23:00","2019","01","05","23:00","-25.1","","-28.1","","76","","","M","8","","3","","","M","101.31","","","","-28","","NA"
"-85.81","79.99","EUREKA A","2401208","2019-01-06 00:00","2019","01","06","00:00","-24.5","","-27.5","","77","","","M","18","","11","","","M","101.36","","","","-33","","NA"
"-85.81","79.99","EUREKA A","2401208","2019-01-06 01:00","2019","01","06","01:00","-25.3","","-28.3","","76","","","M","16","","14","","","M","101.45","","","","-35","","NA"
"-85.81","79.99","EUREKA A","2401208","2019-01-06 02:00","2019","01","06","02:00","-25.1","","-28.2","","76","","","M","15","","7","","","M","101.52","","","","-32","","NA"
"-85.81","79.99","EUREKA A","2401208","2019-01-06 03:00","2019","01","06","03:00","-25.0","","-28.0","","76","","","M","15","","10","","","M","101.60","","","","-33","","NA"
"-85.81","79.99","EUREKA A","2401208","2019-01-06 04:00","2019","01","06","04:00","-22.5","","-25.4","","78","","","M","14","","13","","","M","101.65","","","","-31","","NA"
"-85.81","79.99","EUREKA A","2401208","2019-01-06 05:00","2019","01","06","05:00","-22.6","","-25.5","","78","","","M","15","","14","","","M","101.69","","","","-32","","NA"
"-85.81","79.99","EUREKA A","2401208","2019-01-06 06:00","2019","01","06","06:00","-23.1","","-26.0","","78","","","M","18","","5","","","M","101.75","","","","-28","","NA"
"-85.81","79.99","EUREKA A","2401208","2019-01-06 07:00","2019","01","06","07:00","-23.0","","-25.9","","78","","","M","18","","2","","","M","101.80","","","","-25","","NA"
"-85.81","79.99","EUREKA A","2401208","2019-01-06 08:00","2019","01","06","08:00","-25.2","","-28.1","","77","","","M","7","","3","","","M","101.85","","","","-28","","NA"
"-85.81","79.99","EUREKA A","2401208","2019-01-06 09:00","2019","01","06","09:00","-26.5","","-29.5","","76","","","M","25","","4","","","M","101.87","","","","-31","","NA"
"-85.81","79.99","EUREKA A","2401208","2019-01-06 10:00","2019","01","06","10:00","-29.6","","-32.9","","74","","","M","3","","4","","","M","101.90","","","","-34","","NA"
"-85.81","79.99","EUREKA A","2401208","2019-01-06 11:00","2019","01","06","11:00","-27.3","","-30.5","","75","","","M","26","","14","","","M","101.90","","","","-38","","NA"
"-85.81","79.99","EUREKA A","2401208","2019-01-06 12:00","2019","01","06","12:00","-26.9","","-30.0","","76","","","M","31","","8","","","M","101.93","","","","-34","","NA"
"-85.81","79.99","EUREKA A","2401208","2019-01-06 13:00","2019","01","06","13:00","-27.4","","-30.6","","75","","","M","31","","11","","","M","101.95","","","","-37","","NA"
"-85.81","79.99","EUREKA A","2401208","2019-01-06 14:00","2019","01","06","14:00","-29.9","","-33.2","","74","","","M","36","","5","","","M","101.94","","","","-36","","NA"
"-85.81","79.99","EUREKA A","2401208","2019-01-06 15:00","2019","01","06","15:00","-30.6","","-34.0","","73","","","M","21","","3","","","M","101.98","","","","-34","","NA"
"-85.81","79.99","EUREKA A","2401208","2019-01-06 16:00","2019","01","06","16:00","-31.4","","-34.9","","73","","","M","8","","3","","","M","102.00","","","","-35","","NA"
"-85.81","79.99","EUREKA A","2401208","2019-01-06 17:00","2019","01","06","17:00","-31.6","","-35.0","","73","","","M","35","","5","","","M","102.00","","","","-37","","NA"
"-85.81","79.99","EUREKA A","2401208","2019-01-06 18:00","2019","01","06","18:00","-31.5","","-35.0","","72","","","M","33","","4","","","M","102.01","","","","-36","","NA"
"-85.81","79.99","EUREKA A","2401208","2019-01-06 19:00","2019","01","06","19:00","-31.5","","-35.0","","72","","","M","12","","3","","","M","102.02","","","","-35","","NA"
"-85.81","79.99","EUREKA A","2401208","2019-01-06 20:00","2019","01","06","20:00","-30.2","","-33.6","","73","","","M","32","","2","","","M","102.01","","","","-32","","NA"
"-85.81","79.99","EUREKA A","2401208","2019-01-06 21:00","2019","01","06","21:00","-30.1","","-33.4","","73","","","M","9","","1","","","M","102.03","","","","-31","","NA"
"-85.81","79.99","EUREKA A","2401208","2019-01-06 22:00","2019","01","06","22:00","-32.6","","-36.2","","72","","","M","14","","9","","","M","102.04","","","","-42","","NA"
"-85.81","79.99","EUREKA A","2401208","2019-01-06 23:00","2019","01","06","23:00","-32.1","","-35.5","","72","","","M","14","","7","","","M","102.04","","","","-40","","NA"
"-85.81","79.99","EUREKA A","2401208","2019-01-07 00:00","2019","01","07","00:00","-33.0","","-36.5","","71","","","M","8","","4","","","M","102.05","","","","-38","","NA"
"-85.81","79.99","EUREKA A","2401208","2019-01-07 01:00","2019","01","07","01:00","-33.1","","-36.7","","71","","","M","10","","5","","","M","102.07","","","","-39","","NA"
"-85.81","79.99","EUREKA A","2401208","2019-01-07 02:00","2019","01","07","02:00","-32.9","","-36.6","","71","","","M","7","","4","","","M","102.10","","","","-38","","NA"
"-85.81","79.99","EUREKA A","2401208","2019-01-07 03:00","2019","01","07","03:00","-33.9","","-37.5","","71","","","M","4","","2","","","M","102.13","","","","-36","","NA"
"-85.81","79.99","EUREKA A","2401208","2019-01-07 04:00","2019","01","07","04:00","-33.1","","-36.7","","71","","","M","29","","1","","","M","102.15","","","","-34","","NA"
"-85.81","79.99","EUREKA A","2401208","2019-01-07 05:00","2019","01","07","05:00","-31.7","","-35.2","","72","","","M","8","","3","","","M","102.14","","","","-35","","NA"
"-85.81","79.99","EUREKA A","2401208","2019-01-07 06:00","2019","01","07","06:00","-32.7","","-36.2","","72","","","M","5","","5","","","M","102.17","","","","-39","","NA"
"-85.81","79.99","EUREKA A","2401208","2019-01-07 07:00","2019","01","07","07:00","-32.7","","-36.2","","72","","","M","17","","4","","","M","102.20","","","","-37","","NA"
"-85.81","79.99","EUREKA A","2401208","2019-01-07 08:00","2019","01","07","08:00","-30.8","","-34.3","","72","","","M","13","","5","","","M","102.20","","","","-37","","NA"
"-85.81","79.99","EUREKA A","2401208","2019-01-07 09:00","2019","01","07","09:00","-34.4","","-38.1","","70","","","M","7","","4","","","M","102.23","","","","-39","","NA"
"-85.81","79.99","EUREKA A","2401208","2019-01-07 10:00","2019","01","07","10:00","-33.9","","-37.5","","71","","","M","33","","3","","","M","102.23","","","","-38","","NA"
"-85.81","79.99","EUREKA A","2401208","2019-01-07 11:00","2019","01","07","11:00","-32.9","","-36.5","","71","","","M","13","","2","","","M","102.25","","","","-35","","NA"
"-85.81","79.99","EUREKA A","2401208","2019-01-07 12:00","2019","01","07","12:00","-32.8","","-36.4","","71","","","M","10","","1","","","M","102.28","","","","-34","","NA"
"-85.81","79.99","EUREKA A","2401208","2019-01-07 13:00","2019","01","07","13:00","-33.4","","-37.0","","71","","","M","12","","3","","","M","102.29","","","","-37","","NA"
"-85.81","79.99","EUREKA A","2401208","2019-01-07 14:00","2019","01","07","14:00","-33.0","","-36.5","","71","","","M","8","","1","","","M","102.31","","","","-34","","NA"
"-85.81","79.99","EUREKA A","2401208","2019-01-07 15:00","2019","01","07","15:00","-32.8","","-36.5","","71","","","M","35","","1","","","M","102.31","","","","-34","","NA"
"-85.81","79.99","EUREKA A","2401208","2019-01-07 16:00","2019","01","07","16:00","-32.0","","-35.6","","71","","","M","10","","6","","","M","102.30","","","","-39","","NA"
"-85.81","79.99","EUREKA A","2401208","2019-01-07 17:00","2019","01","07","17:00","-35.1","","-38.8","","70","","","M","5","","5","","","M","102.31","","","","-41","","NA"
"-85.81","79.99","EUREKA A","2401208","2019-01-07 18:00","2019","01","07","18:00","-33.8","","-37.5","","70","","","M","27","","1","","","M","102.28","","","","-35","","NA"
"-85.81","79.99","EUREKA A","2401208","2019-01-07 19:00","2019","01","07","19:00","-33.6","","-37.3","","71","","","M","16","","3","","","M","102.25","","","","-37","","NA"
"-85.81","79.99","EUREKA A","2401208","2019-01-07 20:00","2019","01","07","20:00","-34.4","","-38.0","","70","","","M","7","","3","","","M","102.21","","","","-38","","NA"
"-85.81","79.99","EUREKA A","2401208","2019-01-07 21:00","2019","01","07","21:00","-34.8","","-38.5","","70","","","M","10","","1","","","M","102.16","","","","-36","","NA"
"-85.81","79.99","EUREKA A","2401208","2019-01-07 22:00","2019","01","07","22:00","-33.3","","-37.0","","70","","","M","20","","5","","","M","102.10","","","","-39","","NA"
"-85.81","79.99","EUREKA A","2401208","2019-01-07 23:00","2019","01","07","23:00","-35.3","","-39.0","","69","","","M","28","","7","","","M","102.04","","","","-43","","NA"
"-85.81","79.99","EUREKA A","2401208","2019-01-08 00:00","2019","01","08","00:00","-35.2","","-38.9","","70","","","M","28","","3","","","M","101.98","","","","-39","","NA"
"-85.81","79.99","EUREKA A","2401208","2019-01-08 01:00","2019","01","08","01:00","-36.0","","-39.8","","69","","","M","0","","1","","","M","101.96","","","","-37","","NA"
"-85.81","79.99","EUREKA A","2401208","2019-01-08 02:00","2019","01","08","02:00","-36.2","","-40.0","","69","","","M","30","","3","","","M","101.91","","","","-40","","NA"
"-85.81","79.99","EUREKA A","2401208","2019-01-08 03:00","2019","01","08","03:00","-37.1","","-40.9","","68","","","M","34","","5","","","M","101.84","","","","-44","","NA"
"-85.81","79.99","EUREKA A","2401208","2019-01-08 04:00","2019","01","08","04:00","-33.5","","-37.3","","70","","","M","30","","8","","","M","101.78","","","","-42","","NA"
"-85.81","79.99","EUREKA A","2401208","2019-01-08 05:00","2019","01","08","05:00","-34.2","","-37.9","","70","","","M","1","","7","","","M","101.73","","","","-42","","NA"
"-85.81","79.99","EUREKA A","2401208","2019-01-08 06:00","2019","01","08","06:00","-33.9","","-37.6","","70","","","M","36","","3","","","M","101.66","","","","-38","","NA"
"-85.81","79.99","EUREKA A","2401208","2019-01-08 07:00","2019","01","08","07:00","-32.4","","-36.0","","71","","","M","25","","17","","","M","101.57","","","","-45","","NA"
"-85.81","79.99","EUREKA A","2401208","2019-01-08 08:00","2019","01","08","08:00","-30.9","","-34.4","","72","","","M","30","","13","","","M","101.48","","","","-42","","NA"
"-85.81","79.99","EUREKA A","2401208","2019-01-08 09:00","2019","01","08","09:00","-30.3","","-33.8","","72","","","M","32","","19","","","M","101.44","","","","-43","","NA"
"-85.81","79.99","EUREKA A","2401208","2019-01-08 10:00","2019","01","08","10:00","-30.5","","-33.9","","73","","","M","28","","29","","","M","101.37","","","","-46","","NA"
"-85.81","79.99","EUREKA A","2401208","2019-01-08 11:00","2019","01","08","11:00","-32.0","","-35.5","","72","","","M","27","","35","","","M","101.31","","","","-49","","NA"
"-85.81","79.99","EUREKA A","2401208","2019-01-08 12:00","2019","01","08","12:00","-31.8","","-35.3","","72","","","M","27","","34","","","M","101.28","","","","-49","","NA"
"-85.81","79.99","EUREKA A","2401208","2019-01-08 13:00","2019","01","08","13:00","-32.0","","-35.5","","71","","","M","27","","26","","","M","101.21","","","","-47","","NA"
"-85.81","79.99","EUREKA A","2401208","2019-01-08 14:00","2019","01","08","14:00","-31.2","","-34.7","","72","","","M","28","","24","","","M","101.20","","","","-46","","NA"
"-85.81","79.99","EUREKA A","2401208","2019-01-08 15:00","2019","01","08","15:00","-32.3","","-35.8","","71","","","M","27","","34","","","M","101.18","","","","-49","","NA"
"-85.81","79.99","EUREKA A","2401208","2019-01-08 16:00","2019","01","08","16:00","-32.9","","-36.5","","71","","","M","27","","31","","","M","101.15","","","","-50","","NA"
"-85.81","79.99","EUREKA A","2401208","2019-01-08 17:00","2019","01","08","17:00","-31.4","","-35.0","","71","","","M","27","","34","","","M","101.11","","","","-48","","NA"
"-85.81","79.99","EUREKA A","2401208","2019-01-08 18:00","2019","01","08","18:00","-32.1","","-35.6","","71","","","M","28","","29","","","M","101.07","","","","-48","","NA"
"-85.81","79.99","EUREKA A","2401208","2019-01-08 19:00","2019","01","08","19:00","-33.6","","-37.2","","70","","","M","29","","13","","","M","101.03","","","","-45","","NA"
"-85.81","79.99","EUREKA A","2401208","2019-01-08 20:00","2019","01","08","20:00","-33.9","","-37.6","","70","","","M","10","","2","","","M","101.02","","","","-36","","NA"
"-85.81","79.99","EUREKA A","2401208","2019-01-08 21:00","2019","01","08","21:00","-35.0","","-38.8","","70","","","M","20","","4","","","M","100.95","","","","-40","","NA"
"-85.81","79.99","EUREKA A","2401208","2019-01-08 22:00","2019","01","08","22:00","-34.4","","-38.1","","70","","","M","18","","5","","","M","100.96","","","","-41","","NA"
"-85.81","79.99","EUREKA A","2401208","2019-01-08 23:00","2019","01","08","23:00","-32.9","","-36.5","","71","","","M","21","","7","","","M","100.90","","","","-41","","NA"
"-85.81","79.99","EUREKA A","2401208","2019-01-09 00:00","2019","01","09","00:00","-32.9","","-36.6","","71","","","M","19","","8","","","M","100.93","","","","-41","","NA"
"-85.81","79.99","EUREKA A","2401208","2019-01-09 01:00","2019","01","09","01:00","-32.4","","-36.0","","71","","","M","34","","5","","","M","100.93","","","","-38","","NA"
"-85.81","79.99","EUREKA A","2401208","2019-01-09 02:00","2019","01","09","02:00","-32.4","","-36.0","","71","","","M","9","","2","","","M","100.97","","","","-35","","NA"
"-85.81","79.99","EUREKA A","2401208","2019-01-09 03:00","2019","01","09","03:00","-32.2","","-35.8","","71","","","M","24","","4","","","M","101.02","","","","-37","","NA"
"-85.81","79.99","EUREKA A","2401208","2019-01-09 04:00","2019","01","09","04:00","-35.7","","-39.5","","69","","","M","21","","5","","","M","101.07","","","","-42","","NA"
"-85.81","79.99","EUREKA A","2401208","2019-01-09 05:00","2019","01","09","05:00","-34.6","","-38.3","","70","","","M","28","","3","","","M","101.13","","","","-38","","NA"
"-85.81","79.99","EUREKA A","2401208","2019-01-09 06:00","2019","01","09","06:00","-36.8","","-40.6","","69","","","M","13","","9","","","M","101.23","","","","-47","","NA"
"-85.81","79.99","EUREKA A","2401208","2019-01-09 07:00","2019","01","09","07:00","-36.6","","-40.5","","69","","","M","18","","6","","","M","101.31","","","","-44","","NA"
"-85.81","79.99","EUREKA A","2401208","2019-01-09 08:00","2019","01","09","08:00","-38.2","","-42.1","","68","","","M","8","","8","","","M","101.41","","","","-48","","NA"
"-85.81","79.99","EUREKA A","2401208","2019-01-09 09:00","2019","01","09","09:00","-36.0","","-39.8","","69","","","M","12","","6","","","M","101.49","","","","-43","","NA"
"-85.81","79.99","EUREKA A","2401208","2019-01-09 10:00","2019","01","09","10:00","-38.2","","-42.1","","68","","","M","12","","10","","","M","101.58","","","","-49","","NA"
"-85.81","79.99","EUREKA A","2401208","2019-01-09 11:00","2019","01","09","11:00","-38.6","","-42.6","","67","","","M","8","","8","","","M","101.70","","","","-48","","NA"
"-85.81","79.99","EUREKA A","2401208","2019-01-09 12:00","2019","01","09","12:00","-39.1","","-43.0","","67","","","M","7","","5","","","M","101.83","","","","-46","","NA"
"-85.81","79.99","EUREKA A","2401208","2019-01-09 13:00","2019","01","09","13:00","-37.9","","-41.8","","68","","","M","4","","4","","","M","101.95","","","","-43","","NA"
"-85.81","79.99","EUREKA A","2401208","2019-01-09 14:00","2019","01","09","14:00","-36.6","","-40.5","","68","","","M","10","","4","","","M","102.07","","","","-42","","NA"
"-85.81","79.99","EUREKA A","2401208","2019-01-09 15:00","2019","01","09","15:00","-38.8","","-42.7","","68","","","M","8","","4","","","M","102.18","","","","-44","","NA"
"-85.81","79.99","EUREKA A","2401208","2019-01-09 16:00","2019","01","09","16:00","-37.5","","-41.5","","68","","","M","9","","2","","","M","102.30","","","","-40","","NA"
"-85.81","79.99","EUREKA A","2401208","2019-01-09 17:00","2019","01","09","17:00","-39.1","","-43.1","","67","","","M","9","","3","","","M","102.45","","","","-43","","NA"
"-85.81","79.99","EUREKA A","2401208","2019-01-09 18:00","2019","01","09","18:00","-38.2","","-42.2","","67","","","M","31","","2","","","M","102.54","","","","-41","","NA"
"-85.81","79.99","EUREKA A","2401208","2019-01-09 19:00","2019","01","09","19:00","-38.3","","-42.3","","67","","","M","21","","2","","","M","102.62","","","","-41","","NA"
"-85.81","79.99","EUREKA A","2401208","2019-01-09 20:00","2019","01","09","20:00","-38.7","","-42.6","","67","","","M","15","","5","","","M","102.73","","","","-45","","NA"
"-85.81","79.99","EUREKA A","2401208","2019-01-09 21:00","2019","01","09","21:00","-39.8","","-43.8","","67","","","M","6","","6","","","M","102.82","","","","-48","","NA"
"-85.81","79.99","EUREKA A","2401208","2019-01-09 22:00","2019","01","09","22:00","-39.5","","-43.6","","67","","","M","15","","2","","","M","102.90","","","","-42","","NA"
"-85.81","79.99","EUREKA A","2401208","2019-01-09 23:00","2019","01","09","23:00","-38.0","","-42.0","","67","","","M","","","0","","","M","102.99","","","","","","NA"
"-85.81","79.99","EUREKA A","2401208","2019-01-10 00:00","2019","01","10","00:00","-39.5","","-43.5","","67","","","M","4","","3","","","M","103.06","","","","-44","","NA"
"-85.81","79.99","EUREKA A","2401208","2019-01-10 01:00","2019","01","10","01:00","-38.1","","-42.1","","67","","","M","23","","4","","","M","103.14","","","","-43","","NA"
"-85.81","79.99","EUREKA A","2401208","2019-01-10 02:00","2019","01","10","02:00","-39.2","","-43.3","","67","","","M","12","","4","","","M","103.22","","","","-45","","NA"
"-85.81","79.99","EUREKA A","2401208","2019-01-10 03:00","2019","01","10","03:00","-40.0","","-44.1","","66","","","M","11","","3","","","M","103.26","","","","-44","","NA"
"-85.81","79.99","EUREKA A","2401208","2019-01-10 04:00","2019","01","10","04:00","-40.5","","-44.6","","66","","","M","8","","2","","","M","103.34","","","","-43","","NA"
"-85.81","79.99","EUREKA A","2401208","2019-01-10 05:00","2019","01","10","05:00","-40.1","","-44.1","","66","","","M","5","","3","","","M","103.37","","","","-44","","NA"
"-85.81","79.99","EUREKA A","2401208","2019-01-10 06:00","2019","01","10","06:00","-39.9","","-43.9","","66","","","M","36","","3","","","M","103.39","","","","-44","","NA"
"-85.81","79.99","EUREKA A","2401208","2019-01-10 07:00","2019","01","10","07:00","-39.4","","-43.5","","66","","","M","30","","2","","","M","103.40","","","","-42","","NA"
"-85.81","79.99","EUREKA A","2401208","2019-01-10 08:00","2019","01","10","08:00","-39.7","","-43.7","","67","","","M","2","","2","","","M","103.43","","","","-42","","NA"
"-85.81","79.99","EUREKA A","2401208","2019-01-10 09:00","2019","01","10","09:00","-38.6","","-42.6","","67","","","M","12","","1","","","M","103.43","","","","-40","","NA"
"-85.81","79.99","EUREKA A","2401208","2019-01-10 10:00","2019","01","10","10:00","-40.0","","-44.1","","66","","","M","14","","3","","","M","103.46","","","","-44","","NA"
"-85.81","79.99","EUREKA A","2401208","2019-01-10 11:00","2019","01","10","11:00","-39.4","","-43.5","","66","","","M","9","","3","","","M","103.46","","","","-44","","NA"
"-85.81","79.99","EUREKA A","2401208","2019-01-10 12:00","2019","01","10","12:00","-39.4","","-43.4","","66","","","M","14","","6","","","M","103.47","","","","-47","","NA"
"-85.81","79.99","EUREKA A","2401208","2019-01-10 13:00","2019","01","10","13:00","-40.0","","-44.0","","66","","","M","12","","4","","","M","103.48","","","","-46","","NA"
"-85.81","79.99","EUREKA A","2401208","2019-01-10 14:00","2019","01","10","14:00","-39.3","","-43.4","","66","","","M","6","","3","","","M","103.48","","","","-43","","NA"
"-85.81","79.99","EUREKA A","2401208","2019-01-10 15:00","2019","01","10","15:00","-38.2","","-42.3","","67","","","M","26","","1","","","M","103.47","","","","-40","","NA"
"-85.81","79.99","EUREKA A","2401208","2019-01-10 16:00","2019","01","10","16:00","-38.7","","-42.7","","67","","","M","25","","1","","","M","103.46","","","","-40","","NA"
"-85.81","79.99","EUREKA A","2401208","2019-01-10 17:00","2019","01","10","17:00","-39.1","","-43.1","","67","","","M","24","","4","","","M","103.45","","","","-45","","NA"
"-85.81","79.99","EUREKA A","2401208","2019-01-10 18:00","2019","01","10","18:00","-39.9","","-44.0","","66","","","M","24","","2","","","M","103.43","","","","-43","","NA"
"-85.81","79.99","EUREKA A","2401208","2019-01-10 19:00","2019","01","10","19:00","-39.4","","-43.5","","66","","","M","32","","2","","","M","103.40","","","","-42","","NA"
"-85.81","79.99","EUREKA A","2401208","2019-01-10 20:00","2019","01","10","20:00","-39.6","","-43.6","","66","","","M","30","","3","","","M","103.36","","","","-44","","NA"
"-85.81","79.99","EUREKA A","2401208","2019-01-10 21:00","2019","01","10","21:00","-39.9","","-44.0","","66","","","M","32","","4","","","M","103.33","","","","-45","","NA"
"-85.81","79.99","EUREKA A","2401208","2019-01-10 22:00","2019","01","10","22:00","-40.0","","-44.1","","66","","","M","28","","3","","","M","103.30","","","","-44","","NA"
"-85.81","79.99","EUREKA A","2401208","2019-01-10 23:00","2019","01","10","23:00","-40.0","","-44.0","","66","","","M","2","","2","","","M","103.27","","","","-43","","NA"
"-85.81","79.99","EUREKA A","2401208","2019-01-11 00:00","2019","01","11","00:00","-40.8","","-44.9","","66","","","M","34","","2","","","M","103.27","","","","-44","","NA"
"-85.81","79.99","EUREKA A","2401208","2019-01-11 01:00","2019","01","11","01:00","-40.6","","-44.8","","66","","","M","13","","9","","","M","103.25","","","","-51","","NA"
"-85.81","79.99","EUREKA A","2401208","2019-01-11 02:00","2019","01","11","02:00","-40.1","","-44.2","","66","","","M","13","","9","","","M","103.24","","","","-51","","NA"
"-85.81","79.99","EUREKA A","2401208","2019-01-11 03:00","2019","01","11","03:00","-40.4","","-44.5","","66","","","M","5","","4","","","M","103.25","","","","-46","","NA"
"-85.81","79.99","EUREKA A","2401208","2019-01-11 04:00","2019","01","11","04:00","-40.6","","-44.8","","66","","","M","3","","1","","","M","103.24","","","","-42","","NA"
"-85.81","79.99","EUREKA A","2401208","2019-01-11 05:00","2019","01","11","05:00","-39.9","","-44.0","","66","","","M","12","","5","","","M","103.20","","","","-47","","NA"
"-85.81","79.99","EUREKA A","2401208","2019-01-11 06:00","2019","01","11","06:00","-39.7","","-43.8","","66","","","M","13","","5","","","M","103.18","","","","-47","","NA"
"-85.81","79.99","EUREKA A","2401208","2019-01-11 07:00","2019","01","11","07:00","-38.6","","-42.6","","67","","","M","36","","2","","","M","103.19","","","","-41","","NA"
"-85.81","79.99","EUREKA A","2401208","2019-01-11 08:00","2019","01","11","08:00","-38.3","","-42.3","","67","","","M","11","","4","","","M","103.20","","","","-44","","NA"
"-85.81","79.99","EUREKA A","2401208","2019-01-11 09:00","2019","01","11","09:00","-37.9","","-41.9","","67","","","M","33","","4","","","M","103.21","","","","-43","","NA"
"-85.81","79.99","EUREKA A","2401208","2019-01-11 10:00","2019","01","11","10:00","-36.9","","-40.9","","68","","","M","8","","1","","","M","103.23","","","","-38","","NA"
"-85.81","79.99","EUREKA A","2401208","2019-01-11 11:00","2019","01","11","11:00","-37.8","","-41.8","","67","","","M","10","","3","","","M","103.23","","","","-42","","NA"
"-85.81","79.99","EUREKA A","2401208","2019-01-11 12:00","2019","01","11","12:00","-38.0","","-42.0","","67","","","M","14","","9","","","M","103.26","","","","-48","","NA"
"-85.81","79.99","EUREKA A","2401208","2019-01-11 13:00","2019","01","11","13:00","-38.5","","-42.5","","67","","","M","8","","4","","","M","103.28","","","","-44","","NA"
"-85.81","79.99","EUREKA A","2401208","2019-01-11 14:00","2019","01","11","14:00","-39.4","","-43.4","","67","","","M","6","","5","","","M","103.31","","","","-46","","NA"
"-85.81","79.99","EUREKA A","2401208","2019-01-11 15:00","2019","01","11","15:00","-38.4","","-42.4","","67","","","M","8","","4","","","M","103.33","","","","-44","","NA"
"-85.81","79.99","EUREKA A","2401208","2019-01-11 16:00","2019","01","11","16:00","-38.9","","-42.9","","67","","","M","22","","1","","","M","103.35","","","","-40","","NA"
"-85.81","79.99","EUREKA A","2401208","2019-01-11 17:00","2019","01","11","17:00","-39.6","","-43.6","","66","","","M","10","","3","","","M","103.38","","","","-44","","NA"
"-85.81","79.99","EUREKA A","2401208","2019-01-11 18:00","2019","01","11","18:00","-40.0","","-44.0","","66","","","M","10","","4","","","M","103.36","","","","-46","","NA"
"-85.81","79.99","EUREKA A","2401208","2019-01-11 19:00","2019","01","11","19:00","-38.6","","-42.6","","67","","","M","18","","2","","","M","103.35","","","","-41","","NA"
"-85.81","79.99","EUREKA A","2401208","2019-01-11 20:00","2019","01","11","20:00","-40.9","","-45.0","","66","","","M","13","","10","","","M","103.35","","","","-52","","NA"
"-85.81","79.99","EUREKA A","2401208","2019-01-11 21:00","2019","01","11","21:00","-41.5","","-45.7","","65","","","M","11","","9","","","M","103.33","","","","-52","","NA"
"-85.81","79.99","EUREKA A","2401208","2019-01-11 22:00","2019","01","11","22:00","-41.8","","-45.9","","65","","","M","8","","5","","","M","103.33","","","","-49","","NA"
"-85.81","79.99","EUREKA A","2401208","2019-01-11 23:00","2019","01","11","23:00","-42.1","","-46.3","","65","","","M","7","","6","","","M","103.30","","","","-50","","NA"
"-85.81","79.99","EUREKA A","2401208","2019-01-12 00:00","2019","01","12","00:00","-40.6","","-44.8","","65","","","M","31","","2","","","M","103.28","","","","-43","","NA"
"-85.81","79.99","EUREKA A","2401208","2019-01-12 01:00","2019","01","12","01:00","-42.0","","-46.2","","65","","","M","17","","5","","","M","103.26","","","","-49","","NA"
"-85.81","79.99","EUREKA A","2401208","2019-01-12 02:00","2019","01","12","02:00","-40.4","","-44.6","","65","","","M","12","","5","","","M","103.24","","","","-47","","NA"
"-85.81","79.99","EUREKA A","2401208","2019-01-12 03:00","2019","01","12","03:00","-43.2","","-47.4","","64","","","M","7","","4","","","M","103.20","","","","-49","","NA"
"-85.81","79.99","EUREKA A","2401208","2019-01-12 04:00","2019","01","12","04:00","-43.2","","-47.4","","64","","","M","13","","1","","","M","103.17","","","","-45","","NA"
"-85.81","79.99","EUREKA A","2401208","2019-01-12 05:00","2019","01","12","05:00","-40.3","","-44.4","","66","","","M","33","","1","","","M","103.12","","","","-42","","NA"
"-85.81","79.99","EUREKA A","2401208","2019-01-12 06:00","2019","01","12","06:00","-42.0","","-46.2","","65","","","M","13","","3","","","M","103.05","","","","-46","","NA"
"-85.81","79.99","EUREKA A","2401208","2019-01-12 07:00","2019","01","12","07:00","-41.9","","-46.1","","65","","","M","8","","1","","","M","103.00","","","","-43","","NA"
"-85.81","79.99","EUREKA A","2401208","2019-01-12 08:00","2019","01","12","08:00","-42.6","","-46.8","","64","","","M","9","","3","","","M","102.98","","","","-47","","NA"
"-85.81","79.99","EUREKA A","2401208","2019-01-12 09:00","2019","01","12","09:00","-43.0","","-47.2","","64","","","M","36","","4","","","M","102.94","","","","-49","","NA"
"-85.81","79.99","EUREKA A","2401208","2019-01-12 10:00","2019","01","12","10:00","-41.8","","-46.0","","65","","","M","36","","3","","","M","102.89","","","","-46","","NA"
"-85.81","79.99","EUREKA A","2401208","2019-01-12 11:00","2019","01","12","11:00","-42.1","","-46.3","","65","","","M","7","","4","","","M","102.85","","","","-48","","NA"
"-85.81","79.99","EUREKA A","2401208","2019-01-12 12:00","2019","01","12","12:00","-42.3","","-46.5","","64","","","M","30","","4","","","M","102.82","","","","-48","","NA"
"-85.81","79.99","EUREKA A","2401208","2019-01-12 13:00","2019","01","12","13:00","-42.3","","-46.6","","64","","","M","6","","5","","","M","102.81","","","","-50","","NA"
"-85.81","79.99","EUREKA A","2401208","2019-01-12 14:00","2019","01","12","14:00","-42.5","","-46.8","","64","","","M","9","","4","","","M","102.79","","","","-48","","NA"
"-85.81","79.99","EUREKA A","2401208","2019-01-12 15:00","2019","01","12","15:00","-41.5","","-45.8","","65","","","M","10","","4","","","M","102.79","","","","-47","","NA"
"-85.81","79.99","EUREKA A","2401208","2019-01-12 16:00","2019","01","12","16:00","-41.2","","-45.5","","65","","","M","21","","1","","","M","102.77","","","","-43","","NA"
"-85.81","79.99","EUREKA A","2401208","2019-01-12 17:00","2019","01","12","17:00","-41.8","","-46.0","","65","","","M","15","","10","","","M","102.78","","","","-53","","NA"
"-85.81","79.99","EUREKA A","2401208","2019-01-12 18:00","2019","01","12","18:00","-41.9","","-46.1","","65","","","M","13","","11","","","M","102.77","","","","-54","","NA"
"-85.81","79.99","EUREKA A","2401208","2019-01-12 19:00","2019","01","12","19:00","-42.4","","-46.6","","64","","","M","8","","5","","","M","102.76","","","","-50","","NA"
"-85.81","79.99","EUREKA A","2401208","2019-01-12 20:00","2019","01","12","20:00","-41.6","","-45.9","","65","","","M","7","","6","","","M","102.77","","","","-50","","NA"
"-85.81","79.99","EUREKA A","2401208","2019-01-12 21:00","2019","01","12","21:00","-41.4","","-45.7","","65","","","M","12","","3","","","M","102.78","","","","-46","","NA"
"-85.81","79.99","EUREKA A","2401208","2019-01-12 22:00","2019","01","12","22:00","-40.3","","-44.4","","65","","","M","8","","5","","","M","102.78","","","","-47","","NA"
"-85.81","79.99","EUREKA A","2401208","2019-01-12 23:00","2019","01","12","23:00","-41.1","","-45.3","","65","","","M","6","","4","","","M","102.75","","","","-47","","NA"
"-85.81","79.99","EUREKA A","2401208","2019-01-13 00:00","2019","01","13","00:00","-40.7","","-44.9","","65","","","M","13","","5","","","M","102.76","","","","-48","","NA"
"-85.81","79.99","EUREKA A","2401208","2019-01-13 01:00","2019","01","13","01:00","-40.8","","-45.0","","65","","","M","11","","4","","","M","102.78","","","","-46","","NA"
"-85.81","79.99","EUREKA A","2401208","2019-01-13 02:00","2019","01","13","02:00","-42.1","","-46.4","","65","","","M","5","","7","","","M","102.79","","","","-51","","NA"
"-85.81","79.99","EUREKA A","2401208","2019-01-13 03:00","2019","01","13","03:00","-40.9","","-45.1","","65","","","M","13","","4","","","M","102.82","","","","-47","","NA"
"-85.81","79.99","EUREKA A","2401208","2019-01-13 04:00","2019","01","13","04:00","-40.5","","-44.7","","65","","","M","13","","10","","","M","102.83","","","","-52","","NA"
"-85.81","79.99","EUREKA A","2401208","2019-01-13 05:00","2019","01","13","05:00","-41.4","","-45.5","","65","","","M","4","","2","","","M","102.83","","","","-44","","NA"
"-85.81","79.99","EUREKA A","2401208","2019-01-13 06:00","2019","01","13","06:00","-40.6","","-44.9","","65","","","M","5","","1","","","M","102.85","","","","-42","","NA"
"-85.81","79.99","EUREKA A","2401208","2019-01-13 07:00","2019","01","13","07:00","-39.4","","-43.6","","66","","","M","14","","6","","","M","102.83","","","","-47","","NA"
"-85.81","79.99","EUREKA A","2401208","2019-01-13 08:00","2019","01","13","08:00","-41.8","","-46.0","","65","","","M","7","","4","","","M","102.80","","","","-48","","NA"
"-85.81","79.99","EUREKA A","2401208","2019-01-13 09:00","2019","01","13","09:00","-40.7","","-44.9","","65","","","M","","","0","","","M","102.83","","","","","","NA"
"-85.81","79.99","EUREKA A","2401208","2019-01-13 10:00","2019","01","13","10:00","-41.1","","-45.3","","65","","","M","12","","4","","","M","102.84","","","","-47","","NA"
"-85.81","79.99","EUREKA A","2401208","2019-01-13 11:00","2019","01","13","11:00","-41.8","","-46.0","","65","","","M","6","","4","","","M","102.83","","","","-48","","NA"
"-85.81","79.99","EUREKA A","2401208","2019-01-13 12:00","2019","01","13","12:00","-40.4","","-44.6","","65","","","M","33","","3","","","M","102.82","","","","-45","","NA"
"-85.81","79.99","EUREKA A","2401208","2019-01-13 13:00","2019","01","13","13:00","-40.6","","-44.8","","65","","","M","14","","5","","","M","102.81","","","","-48","","NA"
"-85.81","79.99","EUREKA A","2401208","2019-01-13 14:00","2019","01","13","14:00","-41.0","","-45.1","","65","","","M","33","","1","","","M","102.82","","","","-42","","NA"
"-85.81","79.99","EUREKA A","2401208","2019-01-13 15:00","2019","01","13","15:00","-41.2","","-45.4","","65","","","M","10","","4","","","M","102.85","","","","-47","","NA"
"-85.81","79.99","EUREKA A","2401208","2019-01-13 16:00","2019","01","13","16:00","-41.2","","-45.4","","65","","","M","7","","3","","","M","102.84","","","","-45","","NA"
"-85.81","79.99","EUREKA A","2401208","2019-01-13 17:00","2019","01","13","17:00","-39.9","","-44.0","","66","","","M","29","","5","","","M","102.86","","","","-47","","NA"
"-85.81","79.99","EUREKA A","2401208","2019-01-13 18:00","2019","01","13","18:00","-41.2","","-45.4","","65","","","M","28","","3","","","M","102.85","","","","-45","","NA"
"-85.81","79.99","EUREKA A","2401208","2019-01-13 19:00","2019","01","13","19:00","-40.4","","-44.5","","65","","","M","32","","2","","","M","102.83","","","","-43","","NA"
"-85.81","79.99","EUREKA A","2401208","2019-01-13 20:00","2019","01","13","20:00","-41.1","","-45.3","","65","","","M","7","","5","","","M","102.82","","","","-48","","NA"
"-85.81","79.99","EUREKA A","2401208","2019-01-13 21:00","2019","01","13","21:00","-41.4","","-45.6","","65","","","M","13","","9","","","M","102.79","","","","-52","","NA"
"-85.81","79.99","EUREKA A","2401208","2019-01-13 22:00","2019","01","13","22:00","-41.1","","-45.3","","65","","","M","6","","4","","","M","102.76","","","","-47","","NA"
"-85.81","79.99","EUREKA A","2401208","2019-01-13 23:00","2019","01","13","23:00","-40.2","","-44.3","","65","","","M","9","","4","","","M","102.73","","","","-46","","NA"
"-85.81","79.99","EUREKA A","2401208","2019-01-14 00:00","2019","01","14","00:00","-40.2","","-44.4","","65","","","M","5","","6","","","M","102.69","","","","-48","","NA"
"-85.81","79.99","EUREKA A","2401208","2019-01-14 01:00","2019","01","14","01:00","-40.2","","-44.4","","66","","","M","6","","4","","","M","102.66","","","","-46","","NA"
"-85.81","79.99","EUREKA A","2401208","2019-01-14 02:00","2019","01","14","02:00","-39.3","","-43.5","","66","","","M","6","","2","","","M","102.59","","","","-42","","NA"
"-85.81","79.99","EUREKA A","2401208","2019-01-14 03:00","2019","01","14","03:00","-39.4","","-43.5","","66","","","M","9","","7","","","M","102.54","","","","-48","","NA"
"-85.81","79.99","EUREKA A","2401208","2019-01-14 04:00","2019","01","14","04:00","-39.9","","-44.1","","66","","","M","15","","5","","","M","102.50","","","","-47","","NA"
"-85.81","79.99","EUREKA A","2401208","2019-01-14 05:00","2019","01","14","05:00","-39.4","","-43.5","","66","","","M","15","","13","","","M","102.42","","","","-52","","NA"
"-85.81","79.99","EUREKA A","2401208","2019-01-14 06:00","2019","01","14","06:00","-37.6","","-41.7","","67","","","M","13","","14","","","M","102.37","","","","-50","","NA"
"-85.81","79.99","EUREKA A","2401208","2019-01-14 07:00","2019","01","14","07:00","-37.0","","-41.0","","67","","","M","14","","5","","","M","102.33","","","","-44","","NA"
"-85.81","79.99","EUREKA A","2401208","2019-01-14 08:00","2019","01","14","08:00","-35.6","","-39.6","","68","","","M","13","","15","","","M","102.29","","","","-48","","NA"
"-85.81","79.99","EUREKA A","2401208","2019-01-14 09:00","2019","01","14","09:00","-36.8","","-40.8","","68","","","M","16","","14","","","M","102.26","","","","-49","","NA"
"-85.81","79.99","EUREKA A","2401208","2019-01-14 10:00","2019","01","14","10:00","-36.7","","-40.6","","68","","","M","27","","6","","","M","102.28","","","","-44","","NA"
"-85.81","79.99","EUREKA A","2401208","2019-01-14 11:00","2019","01","14","11:00","-36.7","","-40.7","","68","","","M","23","","4","","","M","102.25","","","","-42","","NA"
"-85.81","79.99","EUREKA A","2401208","2019-01-14 12:00","2019","01","14","12:00","-36.7","","-40.7","","68","","","M","33","","9","","","M","102.19","","","","-47","","NA"
"-85.81","79.99","EUREKA A","2401208","2019-01-14 13:00","2019","01","14","13:00","-38.1","","-42.2","","67","","","M","1","","3","","","M","102.16","","","","-42","","NA"
"-85.81","79.99","EUREKA A","2401208","2019-01-14 14:00","2019","01","14","14:00","-38.2","","-42.2","","67","","","M","13","","9","","","M","102.14","","","","-48","","NA"
"-85.81","79.99","EUREKA A","2401208","2019-01-14 15:00","2019","01","14","15:00","-38.8","","-42.9","","66","","","M","11","","7","","","M","102.10","","","","-48","","NA"
"-85.81","79.99","EUREKA A","2401208","2019-01-14 16:00","2019","01","14","16:00","-34.6","","-38.6","","68","","","M","29","","6","","","M","102.07","","","","-42","","NA"
"-85.81","79.99","EUREKA A","2401208","2019-01-14 17:00","2019","01","14","17:00","-33.3","","-37.1","","69","","","M","35","","9","","","M","102.08","","","","-43","","NA"
"-85.81","79.99","EUREKA A","2401208","2019-01-14 18:00","2019","01","14","18:00","-30.7","","-34.4","","71","","","M","27","","9","","","M","102.04","","","","-39","","NA"
"-85.81","79.99","EUREKA A","2401208","2019-01-14 19:00","2019","01","14","19:00","-28.1","","-31.5","","73","","","M","36","","43","","","M","102.01","","","","-45","","NA"
"-85.81","79.99","EUREKA A","2401208","2019-01-14 20:00","2019","01","14","20:00","-28.7","","-32.1","","73","","","M","35","","43","","","M","102.03","","","","-46","","NA"
"-85.81","79.99","EUREKA A","2401208","2019-01-14 21:00","2019","01","14","21:00","-27.7","","-31.1","","73","","","M","36","","45","","","M","102.11","","","","-45","","NA"
"-85.81","79.99","EUREKA A","2401208","2019-01-14 22:00","2019","01","14","22:00","-28.3","","-31.7","","73","","","M","1","","45","","","M","102.10","","","","-46","","NA"
"-85.81","79.99","EUREKA A","2401208","2019-01-14 23:00","2019","01","14","23:00","-28.1","","-31.5","","73","","","M","36","","48","","","M","102.11","","","","-46","","NA"
"-85.81","79.99","EUREKA A","2401208","2019-01-15 00:00","2019","01","15","00:00","-28.1","","-31.4","","74","","","M","36","","49","","","M","102.11","","","","-46","","NA"
"-85.81","79.99","EUREKA A","2401208","2019-01-15 01:00","2019","01","15","01:00","-27.3","","-30.6","","74","","","M","36","","37","","","M","102.13","","","","-43","","NA"
"-85.81","79.99","EUREKA A","2401208","2019-01-15 02:00","2019","01","15","02:00","-27.6","","-30.9","","75","","","M","36","","35","","","M","102.12","","","","-43","","NA"
"-85.81","79.99","EUREKA A","2401208","2019-01-15 03:00","2019","01","15","03:00","-26.5","","-29.8","","74","","","M","1","","44","","","M","102.20","","","","-43","","NA"
"-85.81","79.99","EUREKA A","2401208","2019-01-15 04:00","2019","01","15","04:00","-29.7","","-33.1","","73","","","M","29","","37","","","M","102.21","","","","-47","","NA"
"-85.81","79.99","EUREKA A","2401208","2019-01-15 05:00","2019","01","15","05:00","-28.8","","-32.3","","73","","","M","29","","25","","","M","102.16","","","","-43","","NA"
"-85.81","79.99","EUREKA A","2401208","2019-01-15 06:00","2019","01","15","06:00","-29.6","","-33.1","","73","","","M","28","","32","","","M","102.15","","","","-46","","NA"
"-85.81","79.99","EUREKA A","2401208","2019-01-15 07:00","2019","01","15","07:00","-30.2","","-33.7","","72","","","M","31","","20","","","M","102.16","","","","-43","","NA"
"-85.81","79.99","EUREKA A","2401208","2019-01-15 08:00","2019","01","15","08:00","-29.3","","-32.8","","73","","","M","26","","23","","","M","102.16","","","","-43","","NA"
"-85.81","79.99","EUREKA A","2401208","2019-01-15 09:00","2019","01","15","09:00","-30.5","","-34.0","","72","","","M","27","","36","","","M","102.17","","","","-47","","NA"
"-85.81","79.99","EUREKA A","2401208","2019-01-15 10:00","2019","01","15","10:00","-29.4","","-32.8","","73","","","M","28","","27","","","M","102.09","","","","-44","","NA"
"-85.81","79.99","EUREKA A","2401208","2019-01-15 11:00","2019","01","15","11:00","-29.4","","-32.8","","73","","","M","28","","23","","","M","102.01","","","","-43","","NA"
"-85.81","79.99","EUREKA A","2401208","2019-01-15 12:00","2019","01","15","12:00","-29.4","","-32.9","","73","","","M","29","","22","","","M","102.04","","","","-43","","NA"
"-85.81","79.99","EUREKA A","2401208","2019-01-15 13:00","2019","01","15","13:00","-27.5","","-30.8","","74","","","M","30","","23","","","M","102.06","","","","-41","","NA"
"-85.81","79.99","EUREKA A","2401208","2019-01-15 14:00","2019","01","15","14:00","-27.6","","-31.0","","74","","","M","30","","28","","","M","102.01","","","","-42","","NA"
"-85.81","79.99","EUREKA A","2401208","2019-01-15 15:00","2019","01","15","15:00","-29.4","","-32.7","","73","","","M","28","","29","","","M","102.03","","","","-45","","NA"
"-85.81","79.99","EUREKA A","2401208","2019-01-15 16:00","2019","01","15","16:00","-28.0","","-31.4","","74","","","M","30","","32","","","M","102.01","","","","-43","","NA"
"-85.81","79.99","EUREKA A","2401208","2019-01-15 17:00","2019","01","15","17:00","-27.5","","-30.8","","74","","","M","33","","39","","","M","102.02","","","","-44","","NA"
"-85.81","79.99","EUREKA A","2401208","2019-01-15 18:00","2019","01","15","18:00","-26.3","","-29.5","","75","","","M","35","","40","","","M","102.11","","","","-43","","NA"
"-85.81","79.99","EUREKA A","2401208","2019-01-15 19:00","2019","01","15","19:00","-27.1","","-30.3","","75","","","M","36","","34","","","M","102.13","","","","-43","","NA"
"-85.81","79.99","EUREKA A","2401208","2019-01-15 20:00","2019","01","15","20:00","-27.4","","-30.6","","74","","","M","35","","35","","","M","102.12","","","","-43","","NA"
"-85.81","79.99","EUREKA A","2401208","2019-01-15 21:00","2019","01","15","21:00","-28.3","","-31.6","","74","","","M","33","","34","","","M","102.12","","","","-44","","NA"
"-85.81","79.99","EUREKA A","2401208","2019-01-15 22:00","2019","01","15","22:00","-28.9","","-32.3","","74","","","M","33","","19","","","M","102.10","","","","-41","","NA"
"-85.81","79.99","EUREKA A","2401208","2019-01-15 23:00","2019","01","15","23:00","-28.0","","-31.3","","74","","","M","30","","33","","","M","102.15","","","","-44","","NA"
"-85.81","79.99","EUREKA A","2401208","2019-01-16 00:00","2019","01","16","00:00","-28.4","","-31.7","","74","","","M","31","","27","","","M","102.15","","","","-43","","NA"
"-85.81","79.99","EUREKA A","2401208","2019-01-16 01:00","2019","01","16","01:00","-26.5","","-29.8","","75","","","M","1","","38","","","M","102.13","","","","-43","","NA"
"-85.81","79.99","EUREKA A","2401208","2019-01-16 02:00","2019","01","16","02:00","-27.0","","-30.4","","74","","","M","36","","43","","","M","102.15","","","","-44","","NA"
"-85.81","79.99","EUREKA A","2401208","2019-01-16 03:00","2019","01","16","03:00","-26.5","","-29.9","","74","","","M","36","","47","","","M","102.17","","","","-44","","NA"
"-85.81","79.99","EUREKA A","2401208","2019-01-16 04:00","2019","01","16","04:00","-27.1","","-30.6","","73","","","M","34","","28","","","M","102.19","","","","-41","","NA"
"-85.81","79.99","EUREKA A","2401208","2019-01-16 05:00","2019","01","16","05:00","-24.6","","-28.5","","71","","","M","36","","32","","","M","102.14","","","","-39","","NA"
"-85.81","79.99","EUREKA A","2401208","2019-01-16 06:00","2019","01","16","06:00","-27.7","","-31.7","","69","","","M","28","","28","","","M","102.15","","","","-42","","NA"
"-85.81","79.99","EUREKA A","2401208","2019-01-16 07:00","2019","01","16","07:00","-27.2","","-31.1","","70","","","M","29","","16","","","M","102.16","","","","-38","","NA"
"-85.81","79.99","EUREKA A","2401208","2019-01-16 08:00","2019","01","16","08:00","-27.4","","-31.3","","70","","","M","27","","12","","","M","102.08","","","","-37","","NA"
"-85.81","79.99","EUREKA A","2401208","2019-01-16 09:00","2019","01","16","09:00","-27.1","","-31.2","","69","","","M","28","","18","","","M","102.06","","","","-39","","NA"
"-85.81","79.99","EUREKA A","2401208","2019-01-16 10:00","2019","01","16","10:00","-28.7","","-32.6","","70","","","M","30","","20","","","M","102.06","","","","-41","","NA"
"-85.81","79.99","EUREKA A","2401208","2019-01-16 11:00","2019","01","16","11:00","-26.2","","-30.3","","69","","","M","1","","24","","","M","102.03","","","","-39","","NA"
"-85.81","79.99","EUREKA A","2401208","2019-01-16 12:00","2019","01","16","12:00","-27.4","","-31.9","","67","","","M","32","","14","","","M","101.98","","","","-38","","NA"
"-85.81","79.99","EUREKA A","2401208","2019-01-16 13:00","2019","01","16","13:00","-27.0","","-32.5","","61","","","M","1","","8","","","M","101.95","","","","-34","","NA"
"-85.81","79.99","EUREKA A","2401208","2019-01-16 14:00","2019","01","16","14:00","-27.2","","-32.1","","64","","","M","31","","15","","","M","101.96","","","","-38","","NA"
"-85.81","79.99","EUREKA A","2401208","2019-01-16 15:00","2019","01","16","15:00","-26.1","","-31.2","","63","","","M","1","","8","","","M","101.95","","","","-33","","NA"
"-85.81","79.99","EUREKA A","2401208","2019-01-16 16:00","2019","01","16","16:00","-27.1","","-32.1","","64","","","M","31","","8","","","M","101.97","","","","-35","","NA"
"-85.81","79.99","EUREKA A","2401208","2019-01-16 17:00","2019","01","16","17:00","-26.0","","-31.2","","63","","","M","24","","6","","","M","101.93","","","","-32","","NA"
"-85.81","79.99","EUREKA A","2401208","2019-01-16 18:00","2019","01","16","18:00","-26.1","","-31.2","","63","","","M","35","","28","","","M","101.94","","","","-40","","NA"
"-85.81","79.99","EUREKA A","2401208","2019-01-16 19:00","2019","01","16","19:00","-25.3","","-31.0","","60","","","M","31","","24","","","M","101.91","","","","-38","","NA"
"-85.81","79.99","EUREKA A","2401208","2019-01-16 20:00","2019","01","16","20:00","-25.5","","-30.5","","63","","","M","27","","36","","","M","101.92","","","","-41","","NA"
"-85.81","79.99","EUREKA A","2401208","2019-01-16 21:00","2019","01","16","21:00","-26.6","","-31.3","","65","","","M","34","","10","","","M","101.91","","","","-35","","NA"
"-85.81","79.99","EUREKA A","2401208","2019-01-16 22:00","2019","01","16","22:00","-25.6","","-30.9","","62","","","M","30","","5","","","M","101.91","","","","-31","","NA"
"-85.81","79.99","EUREKA A","2401208","2019-01-16 23:00","2019","01","16","23:00","-25.0","","-30.9","","59","","","M","32","","12","","","M","101.90","","","","-34","","NA"
"-85.81","79.99","EUREKA A","2401208","2019-01-17 00:00","2019","01","17","00:00","-27.0","","-32.8","","59","","","M","31","","12","","","M","101.88","","","","-37","","NA"
"-85.81","79.99","EUREKA A","2401208","2019-01-17 01:00","2019","01","17","01:00","-24.4","","-29.8","","62","","","M","29","","18","","","M","101.88","","","","-35","","NA"
"-85.81","79.99","EUREKA A","2401208","2019-01-17 02:00","2019","01","17","02:00","-24.4","","-29.6","","63","","","M","34","","25","","","M","101.89","","","","-37","","NA"
"-85.81","79.99","EUREKA A","2401208","2019-01-17 03:00","2019","01","17","03:00","-25.3","","-29.7","","67","","","M","32","","26","","","M","101.91","","","","-39","","NA"
"-85.81","79.99","EUREKA A","2401208","2019-01-17 04:00","2019","01","17","04:00","-25.7","","-29.8","","69","","","M","35","","8","","","M","101.89","","","","-33","","NA"
"-85.81","79.99","EUREKA A","2401208","2019-01-17 05:00","2019","01","17","05:00","-24.6","","-28.9","","68","","","M","33","","18","","","M","101.91","","","","-36","","NA"
"-85.81","79.99","EUREKA A","2401208","2019-01-17 06:00","2019","01","17","06:00","-26.0","","-29.6","","72","","","M","28","","19","","","M","101.91","","","","-38","","NA"
"-85.81","79.99","EUREKA A","2401208","2019-01-17 07:00","2019","01","17","07:00","-23.5","","-27.6","","70","","","M","33","","21","","","M","101.94","","","","-35","","NA"
"-85.81","79.99","EUREKA A","2401208","2019-01-17 08:00","2019","01","17","08:00","-26.2","","-29.7","","73","","","M","26","","18","","","M","101.94","","","","-38","","NA"
"-85.81","79.99","EUREKA A","2401208","2019-01-17 09:00","2019","01","17","09:00","-27.9","","-31.3","","73","","","M","18","","13","","","M","101.94","","","","-38","","NA"
"-85.81","79.99","EUREKA A","2401208","2019-01-17 10:00","2019","01","17","10:00","-28.9","","-32.4","","72","","","M","15","","14","","","M","102.00","","","","-40","","NA"
"-85.81","79.99","EUREKA A","2401208","2019-01-17 11:00","2019","01","17","11:00","-26.1","","-29.4","","74","","","M","32","","7","","","M","101.99","","","","-33","","NA"
"-85.81","79.99","EUREKA A","2401208","2019-01-17 12:00","2019","01","17","12:00","-24.7","","-27.8","","76","","","M","30","","18","","","M","102.01","","","","-36","","NA"
"-85.81","79.99","EUREKA A","2401208","2019-01-17 13:00","2019","01","17","13:00","-25.2","","-28.4","","75","","","M","25","","13","","","M","102.02","","","","-35","","NA"
"-85.81","79.99","EUREKA A","2401208","2019-01-17 14:00","2019","01","17","14:00","-25.3","","-28.5","","75","","","M","13","","17","","","M","102.00","","","","-36","","NA"
"-85.81","79.99","EUREKA A","2401208","2019-01-17 15:00","2019","01","17","15:00","-24.3","","-27.6","","75","","","M","14","","12","","","M","102.03","","","","-33","","NA"
"-85.81","79.99","EUREKA A","2401208","2019-01-17 16:00","2019","01","17","16:00","-24.3","","-28.0","","72","","","M","11","","14","","","M","102.03","","","","-34","","NA"
"-85.81","79.99","EUREKA A","2401208","2019-01-17 17:00","2019","01","17","17:00","-23.8","","-27.3","","73","","","M","31","","14","","","M","102.02","","","","-33","","NA"
"-85.81","79.99","EUREKA A","2401208","2019-01-17 18:00","2019","01","17","18:00","-24.0","","-27.5","","73","","","M","27","","18","","","M","101.99","","","","-35","","NA"
"-85.81","79.99","EUREKA A","2401208","2019-01-17 19:00","2019","01","17","19:00","-23.8","","-27.1","","74","","","M","29","","21","","","M","101.97","","","","-36","","NA"
"-85.81","79.99","EUREKA A","2401208","2019-01-17 20:00","2019","01","17","20:00","-24.0","","-27.1","","76","","","M","27","","23","","","M","101.92","","","","-36","","NA"
"-85.81","79.99","EUREKA A","2401208","2019-01-17 21:00","2019","01","17","21:00","-23.9","","-27.2","","74","","","M","28","","8","","","M","101.88","","","","-31","","NA"
"-85.81","79.99","EUREKA A","2401208","2019-01-17 22:00","2019","01","17","22:00","-24.6","","-27.8","","76","","","M","22","","13","","","M","101.80","","","","-34","","NA"
"-85.81","79.99","EUREKA A","2401208","2019-01-17 23:00","2019","01","17","23:00","-26.3","","-29.6","","75","","","M","13","","14","","","M","101.76","","","","-36","","NA"
"-85.81","79.99","EUREKA A","2401208","2019-01-18 00:00","2019","01","18","00:00","-26.2","","-29.4","","75","","","M","9","","4","","","M","101.68","","","","-30","","NA"
"-85.81","79.99","EUREKA A","2401208","2019-01-18 01:00","2019","01","18","01:00","-26.7","","-29.8","","76","","","M","8","","5","","","M","101.59","","","","-32","","NA"
"-85.81","79.99","EUREKA A","2401208","2019-01-18 02:00","2019","01","18","02:00","-27.4","","-30.4","","76","","","M","10","","5","","","M","101.50","","","","-33","","NA"
"-85.81","79.99","EUREKA A","2401208","2019-01-18 03:00","2019","01","18","03:00","-27.1","","-30.0","","77","","","M","14","","15","","","M","101.42","","","","-38","","NA"
"-85.81","79.99","EUREKA A","2401208","2019-01-18 04:00","2019","01","18","04:00","-27.1","","-30.1","","76","","","M","13","","20","","","M","101.34","","","","-39","","NA"
"-85.81","79.99","EUREKA A","2401208","2019-01-18 05:00","2019","01","18","05:00","-27.7","","-30.8","","75","","","M","13","","21","","","M","101.27","","","","-40","","NA"
"-85.81","79.99","EUREKA A","2401208","2019-01-18 06:00","2019","01","18","06:00","-28.3","","-31.5","","75","","","M","12","","17","","","M","101.20","","","","-40","","NA"
"-85.81","79.99","EUREKA A","2401208","2019-01-18 07:00","2019","01","18","07:00","-28.4","","-31.6","","75","","","M","13","","19","","","M","101.17","","","","-41","","NA"
"-85.81","79.99","EUREKA A","2401208","2019-01-18 08:00","2019","01","18","08:00","-28.9","","-32.1","","75","","","M","12","","17","","","M","101.13","","","","-41","","NA"
"-85.81","79.99","EUREKA A","2401208","2019-01-18 09:00","2019","01","18","09:00","-28.9","","-32.1","","74","","","M","11","","10","","","M","101.08","","","","-38","","NA"
"-85.81","79.99","EUREKA A","2401208","2019-01-18 10:00","2019","01","18","10:00","-30.6","","-33.8","","74","","","M","12","","7","","","M","101.06","","","","-38","","NA"
"-85.81","79.99","EUREKA A","2401208","2019-01-18 11:00","2019","01","18","11:00","-30.7","","-33.9","","74","","","M","3","","3","","","M","101.03","","","","-34","","NA"
"-85.81","79.99","EUREKA A","2401208","2019-01-18 12:00","2019","01","18","12:00","-31.5","","-34.8","","73","","","M","6","","5","","","M","101.04","","","","-37","","NA"
"-85.81","79.99","EUREKA A","2401208","2019-01-18 13:00","2019","01","18","13:00","-31.5","","-35.0","","72","","","M","10","","1","","","M","101.01","","","","-33","","NA"
"-85.81","79.99","EUREKA A","2401208","2019-01-18 14:00","2019","01","18","14:00","-29.5","","-33.0","","73","","","M","35","","9","","","M","100.99","","","","-38","","NA"
"-85.81","79.99","EUREKA A","2401208","2019-01-18 15:00","2019","01","18","15:00","-31.6","","-35.0","","72","","","M","14","","14","","","M","101.02","","","","-43","","NA"
"-85.81","79.99","EUREKA A","2401208","2019-01-18 16:00","2019","01","18","16:00","-31.7","","-35.1","","72","","","M","14","","14","","","M","101.07","","","","-43","","NA"
"-85.81","79.99","EUREKA A","2401208","2019-01-18 17:00","2019","01","18","17:00","-31.8","","-35.3","","72","","","M","33","","2","","","M","101.06","","","","-34","","NA"
"-85.81","79.99","EUREKA A","2401208","2019-01-18 18:00","2019","01","18","18:00","-29.6","","-33.0","","73","","","M","29","","12","","","M","101.03","","","","-40","","NA"
"-85.81","79.99","EUREKA A","2401208","2019-01-18 19:00","2019","01","18","19:00","-29.5","","-33.0","","72","","","M","35","","22","","","M","101.01","","","","-43","","NA"
"-85.81","79.99","EUREKA A","2401208","2019-01-18 20:00","2019","01","18","20:00","-30.9","","-34.5","","71","","","M","29","","10","","","M","100.99","","","","-40","","NA"
"-85.81","79.99","EUREKA A","2401208","2019-01-18 21:00","2019","01","18","21:00","-31.8","","-35.4","","71","","","M","30","","7","","","M","100.98","","","","-39","","NA"
"-85.81","79.99","EUREKA A","2401208","2019-01-18 22:00","2019","01","18","22:00","-33.7","","-37.3","","71","","","M","4","","7","","","M","101.02","","","","-42","","NA"
"-85.81","79.99","EUREKA A","2401208","2019-01-18 23:00","2019","01","18","23:00","-32.4","","-36.0","","71","","","M","34","","14","","","M","101.06","","","","-44","","NA"
"-85.81","79.99","EUREKA A","2401208","2019-01-19 00:00","2019","01","19","00:00","-32.0","","-35.6","","71","","","M","32","","9","","","M","101.08","","","","-41","","NA"
"-85.81","79.99","EUREKA A","2401208","2019-01-19 01:00","2019","01","19","01:00","-30.9","","-34.5","","71","","","M","36","","32","","","M","101.10","","","","-47","","NA"
"-85.81","79.99","EUREKA A","2401208","2019-01-19 02:00","2019","01","19","02:00","-30.6","","-34.3","","70","","","M","36","","30","","","M","101.13","","","","-46","","NA"
"-85.81","79.99","EUREKA A","2401208","2019-01-19 03:00","2019","01","19","03:00","-31.0","","-34.8","","70","","","M","36","","29","","","M","101.14","","","","-47","","NA"
"-85.81","79.99","EUREKA A","2401208","2019-01-19 04:00","2019","01","19","04:00","-30.1","","-34.2","","68","","","M","36","","31","","","M","101.17","","","","-46","","NA"
"-85.81","79.99","EUREKA A","2401208","2019-01-19 05:00","2019","01","19","05:00","-29.7","","-34.4","","65","","","M","1","","34","","","M","101.17","","","","-46","","NA"
"-85.81","79.99","EUREKA A","2401208","2019-01-19 06:00","2019","01","19","06:00","-30.1","","-34.9","","64","","","M","34","","2","","","M","101.19","","","","-32","","NA"
"-85.81","79.99","EUREKA A","2401208","2019-01-19 07:00","2019","01","19","07:00","-32.5","","-37.1","","65","","","M","31","","13","","","M","101.19","","","","-44","","NA"
"-85.81","79.99","EUREKA A","2401208","2019-01-19 08:00","2019","01","19","08:00","-32.9","","-37.3","","65","","","M","36","","27","","","M","101.16","","","","-49","","NA"
"-85.81","79.99","EUREKA A","2401208","2019-01-19 09:00","2019","01","19","09:00","-32.8","","-37.8","","62","","","M","36","","19","","","M","101.16","","","","-46","","NA"
"-85.81","79.99","EUREKA A","2401208","2019-01-19 10:00","2019","01","19","10:00","-34.0","","-38.9","","62","","","M","35","","19","","","M","101.10","","","","-48","","NA"
"-85.81","79.99","EUREKA A","2401208","2019-01-19 11:00","2019","01","19","11:00","-34.8","","-39.4","","64","","","M","29","","21","","","M","101.02","","","","-49","","NA"
"-85.81","79.99","EUREKA A","2401208","2019-01-19 12:00","2019","01","19","12:00","-32.6","","-37.4","","63","","","M","27","","21","","","M","101.02","","","","-47","","NA"
"-85.81","79.99","EUREKA A","2401208","2019-01-19 13:00","2019","01","19","13:00","-33.9","","-38.3","","65","","","M","28","","25","","","M","100.98","","","","-49","","NA"
"-85.81","79.99","EUREKA A","2401208","2019-01-19 14:00","2019","01","19","14:00","-31.9","","-37.3","","60","","","M","36","","20","","","M","100.96","","","","-45","","NA"
"-85.81","79.99","EUREKA A","2401208","2019-01-19 15:00","2019","01","19","15:00","-33.5","","-38.7","","61","","","M","28","","22","","","M","100.90","","","","-48","","NA"
"-85.81","79.99","EUREKA A","2401208","2019-01-19 16:00","2019","01","19","16:00","-30.9","","-36.4","","59","","","M","35","","21","","","M","100.85","","","","-45","","NA"
"-85.81","79.99","EUREKA A","2401208","2019-01-19 17:00","2019","01","19","17:00","-31.3","","-36.3","","62","","","M","30","","22","","","M","100.84","","","","-45","","NA"
"-85.81","79.99","EUREKA A","2401208","2019-01-19 18:00","2019","01","19","18:00","-31.6","","-36.5","","63","","","M","29","","8","","","M","100.75","","","","-40","","NA"
"-85.81","79.99","EUREKA A","2401208","2019-01-19 19:00","2019","01","19","19:00","-31.6","","-36.7","","62","","","M","32","","25","","","M","100.75","","","","-47","","NA"
"-85.81","79.99","EUREKA A","2401208","2019-01-19 20:00","2019","01","19","20:00","-32.1","","-37.1","","62","","","M","32","","22","","","M","100.72","","","","-46","","NA"
"-85.81","79.99","EUREKA A","2401208","2019-01-19 21:00","2019","01","19","21:00","-33.1","","-37.3","","66","","","M","28","","27","","","M","100.69","","","","-49","","NA"
"-85.81","79.99","EUREKA A","2401208","2019-01-19 22:00","2019","01","19","22:00","-31.1","","-35.7","","65","","","M","34","","36","","","M","100.62","","","","-48","","NA"
"-85.81","79.99","EUREKA A","2401208","2019-01-19 23:00","2019","01","19","23:00","-29.2","","-34.1","","63","","","M","35","","23","","","M","100.59","","","","-43","","NA"
"-85.81","79.99","EUREKA A","2401208","2019-01-20 00:00","2019","01","20","00:00","-32.0","","-37.1","","62","","","M","27","","28","","","M","100.59","","","","-48","","NA"
"-85.81","79.99","EUREKA A","2401208","2019-01-20 01:00","2019","01","20","01:00","-32.2","","-37.3","","62","","","M","26","","9","","","M","100.54","","","","-41","","NA"
"-85.81","79.99","EUREKA A","2401208","2019-01-20 02:00","2019","01","20","02:00","-31.6","","-36.4","","64","","","M","31","","18","","","M","100.52","","","","-44","","NA"
"-85.81","79.99","EUREKA A","2401208","2019-01-20 03:00","2019","01","20","03:00","-30.2","","-35.5","","61","","","M","29","","22","","","M","100.56","","","","-44","","NA"
"-85.81","79.99","EUREKA A","2401208","2019-01-20 04:00","2019","01","20","04:00","-31.6","","-36.6","","62","","","M","27","","28","","","M","100.53","","","","-47","","NA"
"-85.81","79.99","EUREKA A","2401208","2019-01-20 05:00","2019","01","20","05:00","-33.5","","-38.2","","63","","","M","32","","14","","","M","100.52","","","","-45","","NA"
"-85.81","79.99","EUREKA A","2401208","2019-01-20 06:00","2019","01","20","06:00","-31.1","","-36.2","","62","","","M","34","","8","","","M","100.52","","","","-39","","NA"
"-85.81","79.99","EUREKA A","2401208","2019-01-20 07:00","2019","01","20","07:00","-32.2","","-37.0","","64","","","M","34","","12","","","M","100.51","","","","-43","","NA"
"-85.81","79.99","EUREKA A","2401208","2019-01-20 08:00","2019","01","20","08:00","-34.0","","-38.8","","63","","","M","36","","8","","","M","100.56","","","","-43","","NA"
"-85.81","79.99","EUREKA A","2401208","2019-01-20 09:00","2019","01","20","09:00","-35.9","","-40.3","","65","","","M","35","","14","","","M","100.59","","","","-48","","NA"
"-85.81","79.99","EUREKA A","2401208","2019-01-20 10:00","2019","01","20","10:00","-36.1","","-40.4","","66","","","M","6","","9","","","M","100.61","","","","-46","","NA"
"-85.81","79.99","EUREKA A","2401208","2019-01-20 11:00","2019","01","20","11:00","-37.2","","-41.2","","67","","","M","10","","5","","","M","100.69","","","","-44","","NA"
"-85.81","79.99","EUREKA A","2401208","2019-01-20 12:00","2019","01","20","12:00","-37.3","","-41.1","","68","","","M","8","","7","","","M","100.71","","","","-46","","NA"
"-85.81","79.99","EUREKA A","2401208","2019-01-20 13:00","2019","01","20","13:00","-37.2","","-41.2","","67","","","M","7","","5","","","M","100.76","","","","-44","","NA"
"-85.81","79.99","EUREKA A","2401208","2019-01-20 14:00","2019","01","20","14:00","-38.1","","-42.0","","68","","","M","7","","5","","","M","100.82","","","","-45","","NA"
"-85.81","79.99","EUREKA A","2401208","2019-01-20 15:00","2019","01","20","15:00","-37.8","","-41.5","","69","","","M","8","","3","","","M","100.87","","","","-42","","NA"
"-85.81","79.99","EUREKA A","2401208","2019-01-20 16:00","2019","01","20","16:00","-38.5","","-42.3","","69","","","M","6","","4","","","M","100.95","","","","-44","","NA"
"-85.81","79.99","EUREKA A","2401208","2019-01-20 17:00","2019","01","20","17:00","-38.5","","-42.3","","69","","","M","7","","3","","","M","101.02","","","","-43","","NA"
"-85.81","79.99","EUREKA A","2401208","2019-01-20 18:00","2019","01","20","18:00","-38.5","","-42.2","","69","","","M","12","","4","","","M","101.06","","","","-44","","NA"
"-85.81","79.99","EUREKA A","2401208","2019-01-20 19:00","2019","01","20","19:00","-39.2","","-42.9","","69","","","M","17","","9","","","M","101.09","","","","-49","","NA"
"-85.81","79.99","EUREKA A","2401208","2019-01-20 20:00","2019","01","20","20:00","-39.1","","-42.9","","68","","","M","11","","4","","","M","101.12","","","","-45","","NA"
"-85.81","79.99","EUREKA A","2401208","2019-01-20 21:00","2019","01","20","21:00","-39.4","","-43.1","","69","","","M","0","","1","","","M","101.15","","","","-41","","NA"
"-85.81","79.99","EUREKA A","2401208","2019-01-20 22:00","2019","01","20","22:00","-39.6","","-43.5","","68","","","M","27","","1","","","M","101.19","","","","-41","","NA"
"-85.81","79.99","EUREKA A","2401208","2019-01-20 23:00","2019","01","20","23:00","-39.6","","-43.4","","68","","","M","12","","3","","","M","101.24","","","","-44","","NA"
"-85.81","79.99","EUREKA A","2401208","2019-01-21 00:00","2019","01","21","00:00","-41.0","","-44.9","","67","","","M","6","","4","","","M","101.25","","","","-47","","NA"
"-85.81","79.99","EUREKA A","2401208","2019-01-21 01:00","2019","01","21","01:00","-40.5","","-44.4","","67","","","M","20","","5","","","M","101.27","","","","-48","","NA"
"-85.81","79.99","EUREKA A","2401208","2019-01-21 02:00","2019","01","21","02:00","-40.7","","-44.7","","67","","","M","14","","8","","","M","101.30","","","","-51","","NA"
"-85.81","79.99","EUREKA A","2401208","2019-01-21 03:00","2019","01","21","03:00","-41.2","","-45.2","","66","","","M","11","","3","","","M","101.32","","","","-45","","NA"
"-85.81","79.99","EUREKA A","2401208","2019-01-21 04:00","2019","01","21","04:00","-42.0","","-46.0","","66","","","M","9","","4","","","M","101.37","","","","-48","","NA"
"-85.81","79.99","EUREKA A","2401208","2019-01-21 05:00","2019","01","21","05:00","-42.1","","-46.2","","66","","","M","7","","3","","","M","101.38","","","","-46","","NA"
"-85.81","79.99","EUREKA A","2401208","2019-01-21 06:00","2019","01","21","06:00","-40.9","","-44.9","","66","","","M","20","","2","","","M","101.40","","","","-44","","NA"
"-85.81","79.99","EUREKA A","2401208","2019-01-21 07:00","2019","01","21","07:00","-40.5","","-44.6","","66","","","M","13","","4","","","M","101.40","","","","-46","","NA"
"-85.81","79.99","EUREKA A","2401208","2019-01-21 08:00","2019","01","21","08:00","-40.5","","-44.5","","67","","","M","35","","1","","","M","101.45","","","","-42","","NA"
"-85.81","79.99","EUREKA A","2401208","2019-01-21 09:00","2019","01","21","09:00","-40.1","","-44.1","","67","","","M","15","","5","","","M","101.47","","","","-47","","NA"
"-85.81","79.99","EUREKA A","2401208","2019-01-21 10:00","2019","01","21","10:00","-42.0","","-46.0","","66","","","M","6","","4","","","M","101.51","","","","-48","","NA"
"-85.81","79.99","EUREKA A","2401208","2019-01-21 11:00","2019","01","21","11:00","-41.4","","-45.4","","66","","","M","2","","4","","","M","101.53","","","","-47","","NA"
"-85.81","79.99","EUREKA A","2401208","2019-01-21 12:00","2019","01","21","12:00","-39.6","","-43.6","","67","","","M","17","","1","","","M","101.57","","","","-41","","NA"
"-85.81","79.99","EUREKA A","2401208","2019-01-21 13:00","2019","01","21","13:00","-40.7","","-44.8","","66","","","M","13","","9","","","M","101.61","","","","-51","","NA"
"-85.81","79.99","EUREKA A","2401208","2019-01-21 14:00","2019","01","21","14:00","-40.6","","-44.6","","66","","","M","10","","6","","","M","101.65","","","","-49","","NA"
"-85.81","79.99","EUREKA A","2401208","2019-01-21 15:00","2019","01","21","15:00","-41.4","","-45.5","","66","","","M","11","","8","","","M","101.71","","","","-51","","NA"
"-85.81","79.99","EUREKA A","2401208","2019-01-21 16:00","2019","01","21","16:00","-41.6","","-45.7","","66","","","M","8","","8","","","M","101.76","","","","-52","","NA"
"-85.81","79.99","EUREKA A","2401208","2019-01-21 17:00","2019","01","21","17:00","-41.8","","-45.9","","65","","","M","7","","4","","","M","101.82","","","","-48","","NA"
"-85.81","79.99","EUREKA A","2401208","2019-01-21 18:00","2019","01","21","18:00","-39.9","","-44.0","","66","","","M","13","","4","","","M","101.86","","","","-45","","NA"
"-85.81","79.99","EUREKA A","2401208","2019-01-21 19:00","2019","01","21","19:00","-39.4","","-43.4","","66","","","M","8","","3","","","M","101.89","","","","-44","","NA"
"-85.81","79.99","EUREKA A","2401208","2019-01-21 20:00","2019","01","21","20:00","-41.5","","-45.6","","66","","","M","8","","4","","","M","101.90","","","","-47","","NA"
"-85.81","79.99","EUREKA A","2401208","2019-01-21 21:00","2019","01","21","21:00","-39.9","","-43.9","","66","","","M","0","","1","","","M","101.91","","","","-41","","NA"
"-85.81","79.99","EUREKA A","2401208","2019-01-21 22:00","2019","01","21","22:00","-40.4","","-44.5","","66","","","M","12","","7","","","M","101.95","","","","-49","","NA"
"-85.81","79.99","EUREKA A","2401208","2019-01-21 23:00","2019","01","21","23:00","-41.7","","-45.9","","65","","","M","32","","2","","","M","101.97","","","","-45","","NA"
"-85.81","79.99","EUREKA A","2401208","2019-01-22 00:00","2019","01","22","00:00","-38.2","","-42.2","","67","","","M","28","","1","","","M","101.98","","","","-40","","NA"
"-85.81","79.99","EUREKA A","2401208","2019-01-22 01:00","2019","01","22","01:00","-40.0","","-44.0","","66","","","M","14","","8","","","M","102.00","","","","-50","","NA"
"-85.81","79.99","EUREKA A","2401208","2019-01-22 02:00","2019","01","22","02:00","-40.7","","-44.8","","66","","","M","9","","4","","","M","101.98","","","","-46","","NA"
"-85.81","79.99","EUREKA A","2401208","2019-01-22 03:00","2019","01","22","03:00","-39.1","","-43.2","","66","","","M","29","","2","","","M","101.98","","","","-42","","NA"
"-85.81","79.99","EUREKA A","2401208","2019-01-22 04:00","2019","01","22","04:00","-40.6","","-44.7","","66","","","M","31","","2","","","M","101.98","","","","-43","","NA"
"-85.81","79.99","EUREKA A","2401208","2019-01-22 05:00","2019","01","22","05:00","-40.1","","-44.2","","66","","","M","28","","10","","","M","101.94","","","","-51","","NA"
"-85.81","79.99","EUREKA A","2401208","2019-01-22 06:00","2019","01","22","06:00","-41.2","","-45.4","","66","","","M","27","","5","","","M","101.91","","","","-48","","NA"
"-85.81","79.99","EUREKA A","2401208","2019-01-22 07:00","2019","01","22","07:00","-41.9","","-46.1","","65","","","M","35","","6","","","M","101.86","","","","-50","","NA"
"-85.81","79.99","EUREKA A","2401208","2019-01-22 08:00","2019","01","22","08:00","-40.5","","-44.6","","66","","","M","28","","14","","","M","101.81","","","","-54","","NA"
"-85.81","79.99","EUREKA A","2401208","2019-01-22 09:00","2019","01","22","09:00","-40.9","","-45.0","","66","","","M","29","","10","","","M","101.76","","","","-52","","NA"
"-85.81","79.99","EUREKA A","2401208","2019-01-22 10:00","2019","01","22","10:00","-41.2","","-45.4","","65","","","M","32","","4","","","M","101.69","","","","-47","","NA"
"-85.81","79.99","EUREKA A","2401208","2019-01-22 11:00","2019","01","22","11:00","-36.6","","-40.7","","67","","","M","28","","19","","","M","101.60","","","","-51","","NA"
"-85.81","79.99","EUREKA A","2401208","2019-01-22 12:00","2019","01","22","12:00","-38.1","","-42.1","","67","","","M","30","","7","","","M","101.51","","","","-47","","NA"
"-85.81","79.99","EUREKA A","2401208","2019-01-22 13:00","2019","01","22","13:00","-38.8","","-42.9","","67","","","M","24","","3","","","M","101.43","","","","-43","","NA"
"-85.81","79.99","EUREKA A","2401208","2019-01-22 14:00","2019","01","22","14:00","-38.9","","-43.0","","67","","","M","30","","11","","","M","101.35","","","","-50","","NA"
"-85.81","79.99","EUREKA A","2401208","2019-01-22 15:00","2019","01","22","15:00","-41.4","","-45.6","","65","","","M","13","","8","","","M","101.33","","","","-51","","NA"
"-85.81","79.99","EUREKA A","2401208","2019-01-22 16:00","2019","01","22","16:00","-40.4","","-44.5","","66","","","M","2","","6","","","M","101.27","","","","-48","","NA"
"-85.81","79.99","EUREKA A","2401208","2019-01-22 17:00","2019","01","22","17:00","-40.9","","-45.0","","65","","","M","13","","17","","","M","101.26","","","","-56","","NA"
"-85.81","79.99","EUREKA A","2401208","2019-01-22 18:00","2019","01","22","18:00","-41.1","","-45.2","","65","","","M","9","","4","","","M","101.25","","","","-47","","NA"
"-85.81","79.99","EUREKA A","2401208","2019-01-22 19:00","2019","01","22","19:00","-38.8","","-42.9","","66","","","M","13","","8","","","M","101.23","","","","-48","","NA"
"-85.81","79.99","EUREKA A","2401208","2019-01-22 20:00","2019","01","22","20:00","-37.8","","-41.8","","67","","","M","16","","5","","","M","101.22","","","","-44","","NA"
"-85.81","79.99","EUREKA A","2401208","2019-01-22 21:00","2019","01","22","21:00","-37.0","","-41.0","","67","","","M","13","","5","","","M","101.24","","","","-44","","NA"
"-85.81","79.99","EUREKA A","2401208","2019-01-22 22:00","2019","01","22","22:00","-37.0","","-41.0","","68","","","M","13","","14","","","M","101.27","","","","-50","","NA"
"-85.81","79.99","EUREKA A","2401208","2019-01-22 23:00","2019","01","22","23:00","-39.1","","-43.1","","67","","","M","13","","18","","","M","101.35","","","","-54","","NA"
"-85.81","79.99","EUREKA A","2401208","2019-01-23 00:00","2019","01","23","00:00","-37.5","","-41.5","","67","","","M","8","","8","","","M","101.40","","","","-47","","NA"
"-85.81","79.99","EUREKA A","2401208","2019-01-23 01:00","2019","01","23","01:00","-36.2","","-40.2","","68","","","M","12","","10","","","M","101.46","","","","-47","","NA"
"-85.81","79.99","EUREKA A","2401208","2019-01-23 02:00","2019","01","23","02:00","-37.3","","-41.3","","68","","","M","7","","8","","","M","101.47","","","","-47","","NA"
"-85.81","79.99","EUREKA A","2401208","2019-01-23 03:00","2019","01","23","03:00","-36.3","","-40.3","","68","","","M","13","","17","","","M","101.50","","","","-50","","NA"
"-85.81","79.99","EUREKA A","2401208","2019-01-23 04:00","2019","01","23","04:00","-36.9","","-40.8","","68","","","M","12","","14","","","M","101.52","","","","-49","","NA"
"-85.81","79.99","EUREKA A","2401208","2019-01-23 05:00","2019","01","23","05:00","-37.6","","-41.6","","67","","","M","5","","4","","","M","101.52","","","","-43","","NA"
"-85.81","79.99","EUREKA A","2401208","2019-01-23 06:00","2019","01","23","06:00","-36.8","","-40.8","","68","","","M","2","","1","","","M","101.54","","","","-38","","NA"
"-85.81","79.99","EUREKA A","2401208","2019-01-23 07:00","2019","01","23","07:00","-36.1","","-40.1","","68","","","M","11","","5","","","M","101.53","","","","-43","","NA"
"-85.81","79.99","EUREKA A","2401208","2019-01-23 08:00","2019","01","23","08:00","-36.6","","-40.6","","68","","","M","10","","3","","","M","101.52","","","","-41","","NA"
"-85.81","79.99","EUREKA A","2401208","2019-01-23 09:00","2019","01","23","09:00","-37.0","","-40.9","","68","","","M","12","","4","","","M","101.51","","","","-42","","NA"
"-85.81","79.99","EUREKA A","2401208","2019-01-23 10:00","2019","01","23","10:00","-38.1","","-42.1","","67","","","M","15","","4","","","M","101.51","","","","-43","","NA"
"-85.81","79.99","EUREKA A","2401208","2019-01-23 11:00","2019","01","23","11:00","-40.0","","-44.0","","66","","","M","6","","5","","","M","101.51","","","","-47","","NA"
"-85.81","79.99","EUREKA A","2401208","2019-01-23 12:00","2019","01","23","12:00","-38.4","","-42.5","","67","","","M","4","","3","","","M","101.49","","","","-42","","NA"
"-85.81","79.99","EUREKA A","2401208","2019-01-23 13:00","2019","01","23","13:00","-38.3","","-42.3","","67","","","M","25","","4","","","M","101.49","","","","-44","","NA"
"-85.81","79.99","EUREKA A","2401208","2019-01-23 14:00","2019","01","23","14:00","-38.4","","-42.4","","67","","","M","4","","2","","","M","101.48","","","","-41","","NA"
"-85.81","79.99","EUREKA A","2401208","2019-01-23 15:00","2019","01","23","15:00","-39.2","","-43.2","","67","","","M","13","","4","","","M","101.47","","","","-45","","NA"
"-85.81","79.99","EUREKA A","2401208","2019-01-23 16:00","2019","01","23","16:00","-38.6","","-42.7","","67","","","M","13","","3","","","M","101.48","","","","-43","","NA"
"-85.81","79.99","EUREKA A","2401208","2019-01-23 17:00","2019","01","23","17:00","-39.0","","-43.1","","67","","","M","8","","4","","","M","101.46","","","","-44","","NA"
"-85.81","79.99","EUREKA A","2401208","2019-01-23 18:00","2019","01","23","18:00","-38.4","","-42.4","","67","","","M","7","","3","","","M","101.47","","","","-42","","NA"
"-85.81","79.99","EUREKA A","2401208","2019-01-23 19:00","2019","01","23","19:00","-38.5","","-42.6","","67","","","M","29","","6","","","M","101.44","","","","-46","","NA"
"-85.81","79.99","EUREKA A","2401208","2019-01-23 20:00","2019","01","23","20:00","-38.6","","-42.7","","67","","","M","29","","8","","","M","101.42","","","","-48","","NA"
"-85.81","79.99","EUREKA A","2401208","2019-01-23 21:00","2019","01","23","21:00","-39.2","","-43.2","","67","","","M","24","","3","","","M","101.44","","","","-43","","NA"
"-85.81","79.99","EUREKA A","2401208","2019-01-23 22:00","2019","01","23","22:00","-39.1","","-43.1","","66","","","M","34","","3","","","M","101.40","","","","-43","","NA"
"-85.81","79.99","EUREKA A","2401208","2019-01-23 23:00","2019","01","23","23:00","-39.2","","-43.3","","66","","","M","12","","3","","","M","101.41","","","","-43","","NA"
"-85.81","79.99","EUREKA A","2401208","2019-01-24 00:00","2019","01","24","00:00","-40.0","","-44.1","","66","","","M","7","","4","","","M","101.43","","","","-46","","NA"
"-85.81","79.99","EUREKA A","2401208","2019-01-24 01:00","2019","01","24","01:00","-39.5","","-43.6","","66","","","M","13","","8","","","M","101.47","","","","-49","","NA"
"-85.81","79.99","EUREKA A","2401208","2019-01-24 02:00","2019","01","24","02:00","-39.5","","-43.6","","66","","","M","8","","3","","","M","101.48","","","","-44","","NA"
"-85.81","79.99","EUREKA A","2401208","2019-01-24 03:00","2019","01","24","03:00","-38.7","","-42.8","","66","","","M","12","","5","","","M","101.49","","","","-45","","NA"
"-85.81","79.99","EUREKA A","2401208","2019-01-24 04:00","2019","01","24","04:00","-39.4","","-43.5","","66","","","M","7","","7","","","M","101.50","","","","-48","","NA"
"-85.81","79.99","EUREKA A","2401208","2019-01-24 05:00","2019","01","24","05:00","-40.0","","-44.1","","66","","","M","3","","3","","","M","101.50","","","","-44","","NA"
"-85.81","79.99","EUREKA A","2401208","2019-01-24 06:00","2019","01","24","06:00","-38.2","","-42.2","","67","","","M","9","","4","","","M","101.52","","","","-44","","NA"
"-85.81","79.99","EUREKA A","2401208","2019-01-24 07:00","2019","01","24","07:00","-38.5","","-42.5","","67","","","M","8","","5","","","M","101.56","","","","-45","","NA"
"-85.81","79.99","EUREKA A","2401208","2019-01-24 08:00","2019","01","24","08:00","-38.4","","-42.5","","67","","","M","8","","4","","","M","101.59","","","","-44","","NA"
"-85.81","79.99","EUREKA A","2401208","2019-01-24 09:00","2019","01","24","09:00","-38.9","","-43.0","","67","","","M","5","","5","","","M","101.59","","","","-46","","NA"
"-85.81","79.99","EUREKA A","2401208","2019-01-24 10:00","2019","01","24","10:00","-38.0","","-42.0","","67","","","M","7","","4","","","M","101.63","","","","-43","","NA"
"-85.81","79.99","EUREKA A","2401208","2019-01-24 11:00","2019","01","24","11:00","-36.2","","-40.2","","68","","","M","12","","9","","","M","101.64","","","","-46","","NA"
"-85.81","79.99","EUREKA A","2401208","2019-01-24 12:00","2019","01","24","12:00","-37.6","","-41.6","","67","","","M","9","","9","","","M","101.67","","","","-48","","NA"
"-85.81","79.99","EUREKA A","2401208","2019-01-24 13:00","2019","01","24","13:00","-36.9","","-40.9","","68","","","M","9","","8","","","M","101.69","","","","-46","","NA"
"-85.81","79.99","EUREKA A","2401208","2019-01-24 14:00","2019","01","24","14:00","-36.3","","-40.3","","68","","","M","12","","11","","","M","101.71","","","","-47","","NA"
"-85.81","79.99","EUREKA A","2401208","2019-01-24 15:00","2019","01","24","15:00","-38.0","","-41.9","","67","","","M","7","","5","","","M","101.73","","","","-45","","NA"
"-85.81","79.99","EUREKA A","2401208","2019-01-24 16:00","2019","01","24","16:00","-37.0","","-40.9","","68","","","M","10","","5","","","M","101.77","","","","-44","","NA"
"-85.81","79.99","EUREKA A","2401208","2019-01-24 17:00","2019","01","24","17:00","-37.3","","-41.2","","67","","","M","13","","4","","","M","101.80","","","","-43","","NA"
"-85.81","79.99","EUREKA A","2401208","2019-01-24 18:00","2019","01","24","18:00","-38.3","","-42.4","","67","","","M","9","","4","","","M","101.81","","","","-44","","NA"
"-85.81","79.99","EUREKA A","2401208","2019-01-24 19:00","2019","01","24","19:00","-38.0","","-42.0","","67","","","M","9","","7","","","M","101.83","","","","-47","","NA"
"-85.81","79.99","EUREKA A","2401208","2019-01-24 20:00","2019","01","24","20:00","-37.4","","-41.3","","67","","","M","12","","4","","","M","101.85","","","","-43","","NA"
"-85.81","79.99","EUREKA A","2401208","2019-01-24 21:00","2019","01","24","21:00","-38.0","","-42.0","","67","","","M","10","","7","","","M","101.85","","","","-47","","NA"
"-85.81","79.99","EUREKA A","2401208","2019-01-24 22:00","2019","01","24","22:00","-40.1","","-44.2","","66","","","M","7","","5","","","M","101.86","","","","-47","","NA"
"-85.81","79.99","EUREKA A","2401208","2019-01-24 23:00","2019","01","24","23:00","-39.2","","-43.3","","66","","","M","7","","4","","","M","101.87","","","","-45","","NA"
"-85.81","79.99","EUREKA A","2401208","2019-01-25 00:00","2019","01","25","00:00","-38.9","","-43.0","","66","","","M","6","","1","","","M","101.90","","","","-40","","NA"
"-85.81","79.99","EUREKA A","2401208","2019-01-25 01:00","2019","01","25","01:00","-37.9","","-41.9","","67","","","M","11","","3","","","M","101.93","","","","-42","","NA"
"-85.81","79.99","EUREKA A","2401208","2019-01-25 02:00","2019","01","25","02:00","-39.5","","-43.6","","66","","","M","9","","7","","","M","101.95","","","","-48","","NA"
"-85.81","79.99","EUREKA A","2401208","2019-01-25 03:00","2019","01","25","03:00","-39.0","","-43.1","","66","","","M","2","","3","","","M","101.95","","","","-43","","NA"
"-85.81","79.99","EUREKA A","2401208","2019-01-25 04:00","2019","01","25","04:00","-38.6","","-42.7","","67","","","M","4","","3","","","M","101.96","","","","-43","","NA"
"-85.81","79.99","EUREKA A","2401208","2019-01-25 05:00","2019","01","25","05:00","-37.0","","-41.0","","67","","","M","10","","6","","","M","101.95","","","","-45","","NA"
"-85.81","79.99","EUREKA A","2401208","2019-01-25 06:00","2019","01","25","06:00","-38.0","","-42.0","","67","","","M","10","","7","","","M","101.96","","","","-47","","NA"
"-85.81","79.99","EUREKA A","2401208","2019-01-25 07:00","2019","01","25","07:00","-38.5","","-42.5","","67","","","M","7","","5","","","M","101.96","","","","-45","","NA"
"-85.81","79.99","EUREKA A","2401208","2019-01-25 08:00","2019","01","25","08:00","-37.1","","-41.1","","67","","","M","9","","3","","","M","101.94","","","","-41","","NA"
"-85.81","79.99","EUREKA A","2401208","2019-01-25 09:00","2019","01","25","09:00","-36.9","","-40.9","","68","","","M","13","","3","","","M","101.93","","","","-41","","NA"
"-85.81","79.99","EUREKA A","2401208","2019-01-25 10:00","2019","01","25","10:00","-36.4","","-40.3","","68","","","M","26","","5","","","M","101.93","","","","-43","","NA"
"-85.81","79.99","EUREKA A","2401208","2019-01-25 11:00","2019","01","25","11:00","-36.1","","-40.0","","68","","","M","13","","10","","","M","101.94","","","","-46","","NA"
"-85.81","79.99","EUREKA A","2401208","2019-01-25 12:00","2019","01","25","12:00","-35.8","","-39.7","","68","","","M","18","","5","","","M","101.93","","","","-42","","NA"
"-85.81","79.99","EUREKA A","2401208","2019-01-25 13:00","2019","01","25","13:00","-36.5","","-40.4","","68","","","M","9","","4","","","M","101.92","","","","-42","","NA"
"-85.81","79.99","EUREKA A","2401208","2019-01-25 14:00","2019","01","25","14:00","-35.8","","-39.7","","68","","","M","18","","2","","","M","101.92","","","","-38","","NA"
"-85.81","79.99","EUREKA A","2401208","2019-01-25 15:00","2019","01","25","15:00","-36.4","","-40.3","","68","","","M","7","","2","","","M","101.93","","","","-39","","NA"
"-85.81","79.99","EUREKA A","2401208","2019-01-25 16:00","2019","01","25","16:00","-36.8","","-40.8","","68","","","M","14","","1","","","M","101.90","","","","-38","","NA"
"-85.81","79.99","EUREKA A","2401208","2019-01-25 17:00","2019","01","25","17:00","-34.8","","-38.6","","69","","","M","12","","7","","","M","101.92","","","","-43","","NA"
"-85.81","79.99","EUREKA A","2401208","2019-01-25 18:00","2019","01","25","18:00","-36.4","","-40.3","","68","","","M","6","","5","","","M","101.91","","","","-43","","NA"
"-85.81","79.99","EUREKA A","2401208","2019-01-25 19:00","2019","01","25","19:00","-33.7","","-37.6","","69","","","M","18","","5","","","M","101.91","","","","-40","","NA"
"-85.81","79.99","EUREKA A","2401208","2019-01-25 20:00","2019","01","25","20:00","-34.0","","-37.8","","69","","","M","21","","4","","","M","101.89","","","","-39","","NA"
"-85.81","79.99","EUREKA A","2401208","2019-01-25 21:00","2019","01","25","21:00","-37.5","","-41.4","","68","","","M","9","","5","","","M","101.87","","","","-44","","NA"
"-85.81","79.99","EUREKA A","2401208","2019-01-25 22:00","2019","01","25","22:00","-37.1","","-41.0","","68","","","M","6","","8","","","M","101.85","","","","-46","","NA"
"-85.81","79.99","EUREKA A","2401208","2019-01-25 23:00","2019","01","25","23:00","-35.8","","-39.7","","68","","","M","6","","6","","","M","101.85","","","","-43","","NA"
"-85.81","79.99","EUREKA A","2401208","2019-01-26 00:00","2019","01","26","00:00","-34.4","","-38.2","","69","","","M","7","","5","","","M","101.84","","","","-41","","NA"
"-85.81","79.99","EUREKA A","2401208","2019-01-26 01:00","2019","01","26","01:00","-36.2","","-40.1","","68","","","M","10","","4","","","M","101.83","","","","-41","","NA"
"-85.81","79.99","EUREKA A","2401208","2019-01-26 02:00","2019","01","26","02:00","-34.7","","-38.6","","69","","","M","9","","4","","","M","101.82","","","","-40","","NA"
"-85.81","79.99","EUREKA A","2401208","2019-01-26 03:00","2019","01","26","03:00","-36.4","","-40.4","","68","","","M","7","","5","","","M","101.82","","","","-43","","NA"
"-85.81","79.99","EUREKA A","2401208","2019-01-26 04:00","2019","01","26","04:00","-34.6","","-38.5","","69","","","M","32","","3","","","M","101.83","","","","-38","","NA"
"-85.81","79.99","EUREKA A","2401208","2019-01-26 05:00","2019","01","26","05:00","-35.1","","-39.0","","69","","","M","16","","2","","","M","101.79","","","","-38","","NA"
"-85.81","79.99","EUREKA A","2401208","2019-01-26 06:00","2019","01","26","06:00","-34.4","","-38.2","","69","","","M","26","","2","","","M","101.77","","","","-37","","NA"
"-85.81","79.99","EUREKA A","2401208","2019-01-26 07:00","2019","01","26","07:00","-35.9","","-39.8","","68","","","M","30","","3","","","M","101.75","","","","-40","","NA"
"-85.81","79.99","EUREKA A","2401208","2019-01-26 08:00","2019","01","26","08:00","-38.4","","-42.4","","67","","","M","36","","4","","","M","101.75","","","","-44","","NA"
"-85.81","79.99","EUREKA A","2401208","2019-01-26 09:00","2019","01","26","09:00","-38.1","","-42.0","","67","","","M","6","","3","","","M","101.73","","","","-42","","NA"
"-85.81","79.99","EUREKA A","2401208","2019-01-26 10:00","2019","01","26","10:00","-38.6","","-42.6","","67","","","M","33","","3","","","M","101.71","","","","-43","","NA"
"-85.81","79.99","EUREKA A","2401208","2019-01-26 11:00","2019","01","26","11:00","-38.2","","-42.2","","67","","","M","29","","5","","","M","101.70","","","","-45","","NA"
"-85.81","79.99","EUREKA A","2401208","2019-01-26 12:00","2019","01","26","12:00","-39.0","","-43.1","","66","","","M","22","","2","","","M","101.68","","","","-42","","NA"
"-85.81","79.99","EUREKA A","2401208","2019-01-26 13:00","2019","01","26","13:00","-39.3","","-43.4","","66","","","M","33","","3","","","M","101.65","","","","-43","","NA"
"-85.81","79.99","EUREKA A","2401208","2019-01-26 14:00","2019","01","26","14:00","-38.4","","-42.4","","67","","","M","32","","2","","","M","101.62","","","","-41","","NA"
"-85.81","79.99","EUREKA A","2401208","2019-01-26 15:00","2019","01","26","15:00","-39.0","","-43.0","","67","","","M","21","","1","","","M","101.62","","","","-40","","NA"
"-85.81","79.99","EUREKA A","2401208","2019-01-26 16:00","2019","01","26","16:00","-38.9","","-43.0","","66","","","M","8","","2","","","M","101.61","","","","-42","","NA"
"-85.81","79.99","EUREKA A","2401208","2019-01-26 17:00","2019","01","26","17:00","-40.7","","-44.8","","66","","","M","7","","5","","","M","101.60","","","","-48","","NA"
"-85.81","79.99","EUREKA A","2401208","2019-01-26 18:00","2019","01","26","18:00","-39.3","","-43.4","","66","","","M","0","","1","","","M","101.59","","","","-41","","NA"
"-85.81","79.99","EUREKA A","2401208","2019-01-26 19:00","2019","01","26","19:00","-39.2","","-43.3","","66","","","M","8","","4","","","M","101.56","","","","-45","","NA"
"-85.81","79.99","EUREKA A","2401208","2019-01-26 20:00","2019","01","26","20:00","-39.3","","-43.4","","66","","","M","14","","3","","","M","101.54","","","","-43","","NA"
"-85.81","79.99","EUREKA A","2401208","2019-01-26 21:00","2019","01","26","21:00","-39.9","","-44.0","","66","","","M","13","","2","","","M","101.53","","","","-43","","NA"
"-85.81","79.99","EUREKA A","2401208","2019-01-26 22:00","2019","01","26","22:00","-39.2","","-43.3","","66","","","M","7","","4","","","M","101.52","","","","-45","","NA"
"-85.81","79.99","EUREKA A","2401208","2019-01-26 23:00","2019","01","26","23:00","-39.7","","-43.8","","66","","","M","18","","4","","","M","101.51","","","","-45","","NA"
"-85.81","79.99","EUREKA A","2401208","2019-01-27 00:00","2019","01","27","00:00","-40.3","","-44.5","","66","","","M","22","","2","","","M","101.54","","","","-43","","NA"
"-85.81","79.99","EUREKA A","2401208","2019-01-27 01:00","2019","01","27","01:00","-38.9","","-42.9","","66","","","M","29","","5","","","M","101.54","","","","-46","","NA"
"-85.81","79.99","EUREKA A","2401208","2019-01-27 02:00","2019","01","27","02:00","-39.0","","-43.0","","66","","","M","30","","2","","","M","101.55","","","","-42","","NA"
"-85.81","79.99","EUREKA A","2401208","2019-01-27 03:00","2019","01","27","03:00","-38.9","","-42.9","","67","","","M","30","","1","","","M","101.57","","","","-40","","NA"
"-85.81","79.99","EUREKA A","2401208","2019-01-27 04:00","2019","01","27","04:00","-40.3","","-44.4","","66","","","M","5","","7","","","M","101.58","","","","-49","","NA"
"-85.81","79.99","EUREKA A","2401208","2019-01-27 05:00","2019","01","27","05:00","-39.7","","-43.8","","66","","","M","6","","4","","","M","101.61","","","","-45","","NA"
"-85.81","79.99","EUREKA A","2401208","2019-01-27 06:00","2019","01","27","06:00","-39.5","","-43.6","","66","","","M","1","","8","","","M","101.63","","","","-49","","NA"
"-85.81","79.99","EUREKA A","2401208","2019-01-27 07:00","2019","01","27","07:00","-37.1","","-41.1","","67","","","M","28","","5","","","M","101.63","","","","-44","","NA"
"-85.81","79.99","EUREKA A","2401208","2019-01-27 08:00","2019","01","27","08:00","-37.7","","-41.7","","67","","","M","31","","10","","","M","101.67","","","","-48","","NA"
"-85.81","79.99","EUREKA A","2401208","2019-01-27 09:00","2019","01","27","09:00","-38.4","","-42.4","","67","","","M","36","","10","","","M","101.69","","","","-49","","NA"
"-85.81","79.99","EUREKA A","2401208","2019-01-27 10:00","2019","01","27","10:00","-39.3","","-43.4","","66","","","M","6","","7","","","M","101.74","","","","-48","","NA"
"-85.81","79.99","EUREKA A","2401208","2019-01-27 11:00","2019","01","27","11:00","-39.5","","-43.5","","66","","","M","35","","4","","","M","101.78","","","","-45","","NA"
"-85.81","79.99","EUREKA A","2401208","2019-01-27 12:00","2019","01","27","12:00","-41.0","","-45.2","","65","","","M","14","","5","","","M","101.83","","","","-48","","NA"
"-85.81","79.99","EUREKA A","2401208","2019-01-27 13:00","2019","01","27","13:00","-41.9","","-46.1","","65","","","M","7","","6","","","M","101.83","","","","-50","","NA"
"-85.81","79.99","EUREKA A","2401208","2019-01-27 14:00","2019","01","27","14:00","-41.4","","-45.6","","65","","","M","1","","5","","","M","101.89","","","","-49","","NA"
"-85.81","79.99","EUREKA A","2401208","2019-01-27 15:00","2019","01","27","15:00","-40.6","","-44.7","","65","","","M","23","","2","","","M","101.92","","","","-43","","NA"
"-85.81","79.99","EUREKA A","2401208","2019-01-27 16:00","2019","01","27","16:00","-41.7","","-45.9","","65","","","M","15","","8","","","M","101.96","","","","-52","","NA"
"-85.81","79.99","EUREKA A","2401208","2019-01-27 17:00","2019","01","27","17:00","-42.1","","-46.2","","65","","","M","11","","5","","","M","102.03","","","","-49","","NA"
"-85.81","79.99","EUREKA A","2401208","2019-01-27 18:00","2019","01","27","18:00","-42.0","","-46.2","","65","","","M","36","","3","","","M","102.09","","","","-46","","NA"
"-85.81","79.99","EUREKA A","2401208","2019-01-27 19:00","2019","01","27","19:00","-40.1","","-44.3","","65","","","M","19","","3","","","M","102.12","","","","-44","","NA"
"-85.81","79.99","EUREKA A","2401208","2019-01-27 20:00","2019","01","27","20:00","-42.0","","-46.2","","65","","","M","9","","6","","","M","102.18","","","","-50","","NA"
"-85.81","79.99","EUREKA A","2401208","2019-01-27 21:00","2019","01","27","21:00","-42.3","","-46.5","","65","","","M","10","","5","","","M","102.20","","","","-50","","NA"
"-85.81","79.99","EUREKA A","2401208","2019-01-27 22:00","2019","01","27","22:00","-41.5","","-45.8","","65","","","M","13","","6","","","M","102.21","","","","-50","","NA"
"-85.81","79.99","EUREKA A","2401208","2019-01-27 23:00","2019","01","27","23:00","-41.9","","-46.1","","65","","","M","15","","10","","","M","102.24","","","","-53","","NA"
"-85.81","79.99","EUREKA A","2401208","2019-01-28 00:00","2019","01","28","00:00","-42.9","","-47.1","","64","","","M","7","","4","","","M","102.25","","","","-49","","NA"
"-85.81","79.99","EUREKA A","2401208","2019-01-28 01:00","2019","01","28","01:00","-40.3","","-44.5","","65","","","M","34","","4","","","M","102.24","","","","-46","","NA"
"-85.81","79.99","EUREKA A","2401208","2019-01-28 02:00","2019","01","28","02:00","-41.7","","-45.9","","65","","","M","14","","11","","","M","102.27","","","","-54","","NA"
"-85.81","79.99","EUREKA A","2401208","2019-01-28 03:00","2019","01","28","03:00","-42.4","","-46.6","","65","","","M","5","","4","","","M","102.32","","","","-48","","NA"
"-85.81","79.99","EUREKA A","2401208","2019-01-28 04:00","2019","01","28","04:00","-40.6","","-44.8","","65","","","M","12","","6","","","M","102.35","","","","-49","","NA"
"-85.81","79.99","EUREKA A","2401208","2019-01-28 05:00","2019","01","28","05:00","-41.9","","-46.1","","65","","","M","12","","5","","","M","102.35","","","","-49","","NA"
"-85.81","79.99","EUREKA A","2401208","2019-01-28 06:00","2019","01","28","06:00","-41.9","","-46.1","","65","","","M","10","","4","","","M","102.35","","","","-48","","NA"
"-85.81","79.99","EUREKA A","2401208","2019-01-28 07:00","2019","01","28","07:00","-42.6","","-46.9","","64","","","M","8","","5","","","M","102.39","","","","-50","","NA"
"-85.81","79.99","EUREKA A","2401208","2019-01-28 08:00","2019","01","28","08:00","-41.8","","-46.1","","64","","","M","28","","1","","","M","102.40","","","","-43","","NA"
"-85.81","79.99","EUREKA A","2401208","2019-01-28 09:00","2019","01","28","09:00","-40.3","","-44.5","","65","","","M","12","","5","","","M","102.45","","","","-47","","NA"
"-85.81","79.99","EUREKA A","2401208","2019-01-28 10:00","2019","01","28","10:00","-40.6","","-44.8","","65","","","M","23","","3","","","M","102.47","","","","-45","","NA"
"-85.81","79.99","EUREKA A","2401208","2019-01-28 11:00","2019","01","28","11:00","-42.8","","-47.1","","64","","","M","6","","7","","","M","102.50","","","","-52","","NA"
"-85.81","79.99","EUREKA A","2401208","2019-01-28 12:00","2019","01","28","12:00","-40.5","","-44.7","","65","","","M","14","","3","","","M","102.50","","","","-45","","NA"
"-85.81","79.99","EUREKA A","2401208","2019-01-28 13:00","2019","01","28","13:00","-41.6","","-45.8","","65","","","M","9","","5","","","M","102.53","","","","-49","","NA"
"-85.81","79.99","EUREKA A","2401208","2019-01-28 14:00","2019","01","28","14:00","-42.1","","-46.3","","65","","","M","4","","3","","","M","102.56","","","","-46","","NA"
"-85.81","79.99","EUREKA A","2401208","2019-01-28 15:00","2019","01","28","15:00","-41.7","","-45.9","","65","","","M","1","","3","","","M","102.60","","","","-46","","NA"
"-85.81","79.99","EUREKA A","2401208","2019-01-28 16:00","2019","01","28","16:00","-40.9","","-45.1","","65","","","M","11","","4","","","M","102.63","","","","-47","","NA"
"-85.81","79.99","EUREKA A","2401208","2019-01-28 17:00","2019","01","28","17:00","-41.1","","-45.3","","65","","","M","10","","4","","","M","102.70","","","","-47","","NA"
"-85.81","79.99","EUREKA A","2401208","2019-01-28 18:00","2019","01","28","18:00","-41.6","","-45.8","","65","","","M","10","","6","","","M","102.74","","","","-50","","NA"
"-85.81","79.99","EUREKA A","2401208","2019-01-28 19:00","2019","01","28","19:00","-39.7","","-43.9","","66","","","M","5","","1","","","M","102.79","","","","-41","","NA"
"-85.81","79.99","EUREKA A","2401208","2019-01-28 20:00","2019","01","28","20:00","-41.4","","-45.6","","65","","","M","10","","1","","","M","102.83","","","","-43","","NA"
"-85.81","79.99","EUREKA A","2401208","2019-01-28 21:00","2019","01","28","21:00","-41.7","","-45.9","","65","","","M","6","","5","","","M","102.86","","","","-49","","NA"
"-85.81","79.99","EUREKA A","2401208","2019-01-28 22:00","2019","01","28","22:00","-41.6","","-45.8","","65","","","M","6","","5","","","M","102.90","","","","-49","","NA"
"-85.81","79.99","EUREKA A","2401208","2019-01-28 23:00","2019","01","28","23:00","-41.3","","-45.5","","65","","","M","7","","5","","","M","102.92","","","","-48","","NA"
"-85.81","79.99","EUREKA A","2401208","2019-01-29 00:00","2019","01","29","00:00","-40.7","","-44.9","","65","","","M","2","","3","","","M","102.95","","","","-45","","NA"
"-85.81","79.99","EUREKA A","2401208","2019-01-29 01:00","2019","01","29","01:00","-40.8","","-45.0","","65","","","M","6","","3","","","M","102.97","","","","-45","","NA"
"-85.81","79.99","EUREKA A","2401208","2019-01-29 02:00","2019","01","29","02:00","-40.0","","-44.1","","65","","","M","9","","3","","","M","102.99","","","","-44","","NA"
"-85.81","79.99","EUREKA A","2401208","2019-01-29 03:00","2019","01","29","03:00","-41.3","","-45.5","","65","","","M","4","","4","","","M","103.04","","","","-47","","NA"
"-85.81","79.99","EUREKA A","2401208","2019-01-29 04:00","2019","01","29","04:00","-40.6","","-44.8","","65","","","M","5","","4","","","M","103.06","","","","-46","","NA"
"-85.81","79.99","EUREKA A","2401208","2019-01-29 05:00","2019","01","29","05:00","-41.2","","-45.4","","65","","","M","12","","4","","","M","103.08","","","","-47","","NA"
"-85.81","79.99","EUREKA A","2401208","2019-01-29 06:00","2019","01","29","06:00","-41.3","","-45.5","","65","","","M","32","","3","","","M","103.07","","","","-46","","NA"
"-85.81","79.99","EUREKA A","2401208","2019-01-29 07:00","2019","01","29","07:00","-40.3","","-44.5","","65","","","M","5","","6","","","M","103.08","","","","-48","","NA"
"-85.81","79.99","EUREKA A","2401208","2019-01-29 08:00","2019","01","29","08:00","-40.0","","-44.2","","66","","","M","6","","3","","","M","103.07","","","","-44","","NA"
"-85.81","79.99","EUREKA A","2401208","2019-01-29 09:00","2019","01","29","09:00","-39.4","","-43.5","","66","","","M","0","","1","","","M","103.06","","","","-41","","NA"
"-85.81","79.99","EUREKA A","2401208","2019-01-29 10:00","2019","01","29","10:00","-41.2","","-45.4","","65","","","M","12","","4","","","M","103.06","","","","-47","","NA"
"-85.81","79.99","EUREKA A","2401208","2019-01-29 11:00","2019","01","29","11:00","-41.2","","-45.4","","65","","","M","4","","3","","","M","103.05","","","","-45","","NA"
"-85.81","79.99","EUREKA A","2401208","2019-01-29 12:00","2019","01","29","12:00","-39.8","","-43.9","","66","","","M","0","","1","","","M","103.02","","","","-41","","NA"
"-85.81","79.99","EUREKA A","2401208","2019-01-29 13:00","2019","01","29","13:00","-40.6","","-44.8","","65","","","M","14","","5","","","M","102.99","","","","-48","","NA"
"-85.81","79.99","EUREKA A","2401208","2019-01-29 14:00","2019","01","29","14:00","-40.6","","-44.8","","65","","","M","13","","2","","","M","102.98","","","","-43","","NA"
"-85.81","79.99","EUREKA A","2401208","2019-01-29 15:00","2019","01","29","15:00","-42.0","","-46.3","","65","","","M","7","","5","","","M","102.95","","","","-49","","NA"
"-85.81","79.99","EUREKA A","2401208","2019-01-29 16:00","2019","01","29","16:00","-41.3","","-45.6","","65","","","M","6","","4","","","M","102.91","","","","-47","","NA"
"-85.81","79.99","EUREKA A","2401208","2019-01-29 17:00","2019","01","29","17:00","-40.3","","-44.5","","65","","","M","33","","2","","","M","102.91","","","","-43","","NA"
"-85.81","79.99","EUREKA A","2401208","2019-01-29 18:00","2019","01","29","18:00","-40.6","","-44.8","","65","","","M","34","","2","","","M","102.86","","","","-43","","NA"
"-85.81","79.99","EUREKA A","2401208","2019-01-29 19:00","2019","01","29","19:00","-41.1","","-45.3","","65","","","M","30","","2","","","M","102.80","","","","-44","","NA"
"-85.81","79.99","EUREKA A","2401208","2019-01-29 20:00","2019","01","29","20:00","-41.2","","-45.4","","65","","","M","6","","2","","","M","102.77","","","","-44","","NA"
"-85.81","79.99","EUREKA A","2401208","2019-01-29 21:00","2019","01","29","21:00","-41.0","","-45.3","","65","","","M","26","","3","","","M","102.73","","","","-45","","NA"
"-85.81","79.99","EUREKA A","2401208","2019-01-29 22:00","2019","01","29","22:00","-40.9","","-45.1","","65","","","M","17","","2","","","M","102.67","","","","-44","","NA"
"-85.81","79.99","EUREKA A","2401208","2019-01-29 23:00","2019","01","29","23:00","-40.7","","-44.9","","65","","","M","14","","3","","","M","102.61","","","","-45","","NA"
"-85.81","79.99","EUREKA A","2401208","2019-01-30 00:00","2019","01","30","00:00","-40.5","","-44.7","","65","","","M","31","","1","","","M","102.58","","","","-42","","NA"
"-85.81","79.99","EUREKA A","2401208","2019-01-30 01:00","2019","01","30","01:00","-40.9","","-45.1","","65","","","M","33","","2","","","M","102.53","","","","-44","","NA"
"-85.81","79.99","EUREKA A","2401208","2019-01-30 02:00","2019","01","30","02:00","-40.3","","-44.5","","65","","","M","17","","3","","","M","102.51","","","","-45","","NA"
"-85.81","79.99","EUREKA A","2401208","2019-01-30 03:00","2019","01","30","03:00","-41.6","","-45.8","","65","","","M","6","","5","","","M","102.48","","","","-49","","NA"
"-85.81","79.99","EUREKA A","2401208","2019-01-30 04:00","2019","01","30","04:00","-39.1","","-43.3","","66","","","M","3","","4","","","M","102.46","","","","-45","","NA"
"-85.81","79.99","EUREKA A","2401208","2019-01-30 05:00","2019","01","30","05:00","-39.8","","-44.0","","66","","","M","26","","6","","","M","102.43","","","","-48","","NA"
"-85.81","79.99","EUREKA A","2401208","2019-01-30 06:00","2019","01","30","06:00","-41.8","","-46.0","","65","","","M","22","","4","","","M","102.42","","","","-48","","NA"
"-85.81","79.99","EUREKA A","2401208","2019-01-30 07:00","2019","01","30","07:00","-40.9","","-45.0","","65","","","M","9","","1","","","M","102.40","","","","-42","","NA"
"-85.81","79.99","EUREKA A","2401208","2019-01-30 08:00","2019","01","30","08:00","-41.8","","-46.0","","65","","","M","6","","6","","","M","102.37","","","","-50","","NA"
"-85.81","79.99","EUREKA A","2401208","2019-01-30 09:00","2019","01","30","09:00","-40.1","","-44.3","","65","","","M","6","","6","","","M","102.35","","","","-48","","NA"
"-85.81","79.99","EUREKA A","2401208","2019-01-30 10:00","2019","01","30","10:00","-40.3","","-44.5","","65","","","M","8","","4","","","M","102.33","","","","-46","","NA"
"-85.81","79.99","EUREKA A","2401208","2019-01-30 11:00","2019","01","30","11:00","-40.4","","-44.5","","65","","","M","7","","4","","","M","102.34","","","","-46","","NA"
"-85.81","79.99","EUREKA A","2401208","2019-01-30 12:00","2019","01","30","12:00","-38.5","","-42.7","","66","","","M","2","","3","","","M","102.33","","","","-43","","NA"
"-85.81","79.99","EUREKA A","2401208","2019-01-30 13:00","2019","01","30","13:00","-39.9","","-44.0","","66","","","M","2","","3","","","M","102.34","","","","-44","","NA"
"-85.81","79.99","EUREKA A","2401208","2019-01-30 14:00","2019","01","30","14:00","-39.1","","-43.3","","66","","","M","32","","1","","","M","102.36","","","","-40","","NA"
"-85.81","79.99","EUREKA A","2401208","2019-01-30 15:00","2019","01","30","15:00","-39.6","","-43.7","","66","","","M","35","","2","","","M","102.38","","","","-42","","NA"
"-85.81","79.99","EUREKA A","2401208","2019-01-30 16:00","2019","01","30","16:00","-39.8","","-43.9","","66","","","M","22","","4","","","M","102.42","","","","-45","","NA"
"-85.81","79.99","EUREKA A","2401208","2019-01-30 17:00","2019","01","30","17:00","-40.7","","-44.9","","65","","","M","36","","3","","","M","102.46","","","","-45","","NA"
"-85.81","79.99","EUREKA A","2401208","2019-01-30 18:00","2019","01","30","18:00","-40.4","","-44.6","","65","","","M","7","","3","","","M","102.47","","","","-45","","NA"
"-85.81","79.99","EUREKA A","2401208","2019-01-30 19:00","2019","01","30","19:00","-39.5","","-43.6","","66","","","M","35","","1","","","M","102.50","","","","-41","","NA"
"-85.81","79.99","EUREKA A","2401208","2019-01-30 20:00","2019","01","30","20:00","-38.4","","-42.5","","66","","","M","35","","3","","","M","102.50","","","","-42","","NA"
"-85.81","79.99","EUREKA A","2401208","2019-01-30 21:00","2019","01","30","21:00","-40.1","","-44.3","","65","","","M","28","","3","","","M","102.55","","","","-44","","NA"
"-85.81","79.99","EUREKA A","2401208","2019-01-30 22:00","2019","01","30","22:00","-39.7","","-43.8","","66","","","M","12","","3","","","M","102.58","","","","-44","","NA"
"-85.81","79.99","EUREKA A","2401208","2019-01-30 23:00","2019","01","30","23:00","-40.6","","-44.8","","65","","","M","6","","5","","","M","102.60","","","","-48","","NA"
"-85.81","79.99","EUREKA A","2401208","2019-01-31 00:00","2019","01","31","00:00","-40.2","","-44.4","","66","","","M","14","","14","","","M","102.65","","","","-54","","NA"
"-85.81","79.99","EUREKA A","2401208","2019-01-31 01:00","2019","01","31","01:00","-41.4","","-45.6","","65","","","M","6","","5","","","M","102.69","","","","-49","","NA"
"-85.81","79.99","EUREKA A","2401208","2019-01-31 02:00","2019","01","31","02:00","-40.1","","-44.3","","65","","","M","11","","4","","","M","102.73","","","","-46","","NA"
"-85.81","79.99","EUREKA A","2401208","2019-01-31 03:00","2019","01","31","03:00","-40.0","","-44.2","","65","","","M","6","","3","","","M","102.79","","","","-44","","NA"
"-85.81","79.99","EUREKA A","2401208","2019-01-31 04:00","2019","01","31","04:00","-39.7","","-43.8","","66","","","M","7","","6","","","M","102.85","","","","-48","","NA"
"-85.81","79.99","EUREKA A","2401208","2019-01-31 05:00","2019","01","31","05:00","-40.8","","-45.0","","65","","","M","12","","10","","","M","102.86","","","","-52","","NA"
"-85.81","79.99","EUREKA A","2401208","2019-01-31 06:00","2019","01","31","06:00","-40.9","","-45.1","","65","","","M","9","","6","","","M","102.89","","","","-49","","NA"
"-85.81","79.99","EUREKA A","2401208","2019-01-31 07:00","2019","01","31","07:00","-38.4","","-42.5","","66","","","M","17","","3","","","M","102.90","","","","-42","","NA"
"-85.81","79.99","EUREKA A","2401208","2019-01-31 08:00","2019","01","31","08:00","-39.2","","-43.3","","66","","","M","10","","5","","","M","102.91","","","","-46","","NA"
"-85.81","79.99","EUREKA A","2401208","2019-01-31 09:00","2019","01","31","09:00","-37.6","","-41.7","","67","","","M","15","","2","","","M","102.93","","","","-40","","NA"
"-85.81","79.99","EUREKA A","2401208","2019-01-31 10:00","2019","01","31","10:00","-38.1","","-42.1","","66","","","M","19","","4","","","M","102.96","","","","-43","","NA"
"-85.81","79.99","EUREKA A","2401208","2019-01-31 11:00","2019","01","31","11:00","-38.1","","-42.1","","67","","","M","28","","3","","","M","102.97","","","","-42","","NA"
"-85.81","79.99","EUREKA A","2401208","2019-01-31 12:00","2019","01","31","12:00","-39.7","","-43.9","","66","","","M","24","","4","","","M","102.99","","","","-45","","NA"
"-85.81","79.99","EUREKA A","2401208","2019-01-31 13:00","2019","01","31","13:00","-39.5","","-43.6","","66","","","M","20","","1","","","M","103.01","","","","-41","","NA"
"-85.81","79.99","EUREKA A","2401208","2019-01-31 14:00","2019","01","31","14:00","-39.5","","-43.7","","66","","","M","0","","1","","","M","103.05","","","","-41","","NA"
"-85.81","79.99","EUREKA A","2401208","2019-01-31 15:00","2019","01","31","15:00","-38.9","","-43.0","","66","","","M","19","","1","","","M","103.07","","","","-40","","NA"
"-85.81","79.99","EUREKA A","2401208","2019-01-31 16:00","2019","01","31","16:00","-39.5","","-43.7","","66","","","M","18","","2","","","M","103.07","","","","-42","","NA"
"-85.81","79.99","EUREKA A","2401208","2019-01-31 17:00","2019","01","31","17:00","-39.3","","-43.4","","66","","","M","0","","1","","","M","103.12","","","","-41","","NA"
"-85.81","79.99","EUREKA A","2401208","2019-01-31 18:00","2019","01","31","18:00","-39.6","","-43.8","","66","","","M","1","","3","","","M","103.08","","","","-44","","NA"
"-85.81","79.99","EUREKA A","2401208","2019-01-31 19:00","2019","01","31","19:00","-40.0","","-44.2","","66","","","M","18","","6","","","M","103.07","","","","-48","","NA"
"-85.81","79.99","EUREKA A","2401208","2019-01-31 20:00","2019","01","31","20:00","-40.1","","-44.2","","66","","","M","5","","4","","","M","103.06","","","","-46","","NA"
"-85.81","79.99","EUREKA A","2401208","2019-01-31 21:00","2019","01","31","21:00","-38.9","","-43.0","","66","","","M","","","0","","","M","103.01","","","","","","NA"
"-85.81","79.99","EUREKA A","2401208","2019-01-31 22:00","2019","01","31","22:00","-38.9","","-43.0","","66","","","M","18","","3","","","M","102.98","","","","-43","","NA"
"-85.81","79.99","EUREKA A","2401208","2019-01-31 23:00","2019","01","31","23:00","-38.1","","-42.2","","67","","","M","12","","4","","","M","102.96","","","","-43","","NA"
