"Longitude (x)","Latitude (y)","Station Name","Climate ID","Date/Time (LST)","Year","Month","Day","Time (LST)","Temp (°C)","Temp Flag","Dew Point Temp (°C)","Dew Point Temp Flag","Rel Hum (%)","Rel Hum Flag","Precip. Amount (mm)","Precip. Amount Flag","Wind Dir (10s deg)","Wind Dir Flag","Wind Spd (km/h)","Wind Spd Flag","Visibility (km)","Visibility Flag","Stn Press (kPa)","Stn Press Flag","Hmdx","Hmdx Flag","Wind Chill","Wind Chill Flag","Weather"
"-124.90","49.72","COMOX A","1021830","2019-02-01 00:00","2019","02","01","00:00","6.3","","6.3","","100","","","","15","","21","","12.9","","99.93","","","","","","Rain"
"-124.90","49.72","COMOX A","1021830","2019-02-01 01:00","2019","02","01","01:00","6.4","","6.4","","100","","","","16","","26","","9.7","","99.87","","","","","","Rain,Fog"
"-124.90","49.72","COMOX A","1021830","2019-02-01 02:00","2019","02","01","02:00","6.4","","6.4","","100","","","","17","","21","","8.1","","99.82","","","","","","Rain,Fog"
"-124.90","49.72","COMOX A","1021830","2019-02-01 03:00","2019","02","01","03:00","6.7","","6.7","","100","","","","15","","35","","9.7","","99.79","","","","","","Rain,Fog"
"-124.90","49.72","COMOX A","1021830","2019-02-01 04:00","2019","02","01","04:00","6.7","","6.7","","100","","","","15","","35","","12.9","","99.75","","","","","","Rain"
"-124.90","49.72","COMOX A","1021830","2019-02-01 05:00","2019","02","01","05:00","6.8","","6.8","","100","","","","15","","26","","12.9","","99.68","","","","","","Rain"
"-124.90","49.72","COMOX A","1021830","2019-02-01 06:00","2019","02","01","06:00","6.9","","6.9","","100","","","","15","","31","","19.3","","99.65","","","","","","Rain"
"-124.90","49.72","COMOX A","1021830","2019-02-01 07:00","2019","02","01","07:00","7.0","","7.0","","100","","","","15","","31","","19.3","","99.60","","","","","","Rain"
"-124.90","49.72","COMOX A","1021830","2019-02-01 08:00","2019","02","01","08:00","7.0","","7.0","","100","","","","15","","26","","19.3","","99.59","","","","","","Cloudy"
"-124.90","49.72","COMOX A","1021830","2019-02-01 09:00","2019","02","01","09:00","7.2","","7.2","","100","","","","15","","28","","24.1","","99.57","","","","","","Cloudy"
"-124.90","49.72","COMOX A","1021830","2019-02-01 10:00","2019","02","01","10:00","7.5","","7.5","","100","","","","16","","22","","19.3","","99.61","","","","","","Rain"
"-124.90","49.72","COMOX A","1021830","2019-02-01 11:00","2019","02","01","11:00","7.8","","7.8","","100","","","","15","","31","","19.3","","99.59","","","","","","Rain"
"-124.90","49.72","COMOX A","1021830","2019-02-01 12:00","2019","02","01","12:00","7.7","","7.7","","100","","","","15","","28","","19.3","","99.60","","","","","","Rain"
"-124.90","49.72","COMOX A","1021830","2019-02-01 13:00","2019","02","01","13:00","7.8","","7.8","","100","","","","15","","28","","16.1","","99.59","","","","","","Rain"
"-124.90","49.72","COMOX A","1021830","2019-02-01 14:00","2019","02","01","14:00","7.6","","7.6","","100","","","","17","","17","","16.1","","99.61","","","","","","Rain"
"-124.90","49.72","COMOX A","1021830","2019-02-01 15:00","2019","02","01","15:00","7.7","","7.7","","100","","","","16","","21","","16.1","","99.60","","","","","","Rain"
"-124.90","49.72","COMOX A","1021830","2019-02-01 16:00","2019","02","01","16:00","7.9","","7.9","","100","","","","16","","15","","24.1","","99.61","","","","","","Mostly Cloudy"
"-124.90","49.72","COMOX A","1021830","2019-02-01 17:00","2019","02","01","17:00","7.6","","7.6","","100","","","","18","","4","","32.2","","99.61","","","","","","Mostly Cloudy"
"-124.90","49.72","COMOX A","1021830","2019-02-01 18:00","2019","02","01","18:00","6.4","","6.4","","100","","","","31","","4","","32.2","","99.66","","","","","","Mostly Cloudy"
"-124.90","49.72","COMOX A","1021830","2019-02-01 19:00","2019","02","01","19:00","5.5","","5.5","","100","","","","","","0","","32.2","","99.73","","","","","","Mostly Cloudy"
"-124.90","49.72","COMOX A","1021830","2019-02-01 20:00","2019","02","01","20:00","4.5","","4.5","","100","","","","","","0","","32.2","","99.77","","","","","","Mainly Clear"
"-124.90","49.72","COMOX A","1021830","2019-02-01 21:00","2019","02","01","21:00","4.0","","4.0","","100","","","","22","","4","","32.2","","99.83","","","","","","Mainly Clear"
"-124.90","49.72","COMOX A","1021830","2019-02-01 22:00","2019","02","01","22:00","4.8","","4.8","","100","","","","28","","9","","32.2","","99.80","","","","","","Mainly Clear"
"-124.90","49.72","COMOX A","1021830","2019-02-01 23:00","2019","02","01","23:00","3.5","","3.5","","100","","","","","","0","","32.2","","99.85","","","","","","Mainly Clear"
"-124.90","49.72","COMOX A","1021830","2019-02-02 00:00","2019","02","02","00:00","4.6","","4.6","","100","","","","31","","9","","32.2","","99.98","","","","","","Mostly Cloudy"
"-124.90","49.72","COMOX A","1021830","2019-02-02 01:00","2019","02","02","01:00","5.4","","5.4","","100","","","","32","","17","","32.2","","100.09","","","","","","Mostly Cloudy"
"-124.90","49.72","COMOX A","1021830","2019-02-02 02:00","2019","02","02","02:00","4.9","","4.9","","100","","","","32","","13","","32.2","","100.10","","","","","","Cloudy"
"-124.90","49.72","COMOX A","1021830","2019-02-02 03:00","2019","02","02","03:00","4.3","","4.3","","100","","","","32","","15","","32.2","","100.13","","","","","","Mostly Cloudy"
"-124.90","49.72","COMOX A","1021830","2019-02-02 04:00","2019","02","02","04:00","4.1","","4.1","","100","","","","31","","11","","32.2","","100.15","","","","","","Mostly Cloudy"
"-124.90","49.72","COMOX A","1021830","2019-02-02 05:00","2019","02","02","05:00","4.0","","4.0","","100","","","","31","","15","","32.2","","100.17","","","","","","Cloudy"
"-124.90","49.72","COMOX A","1021830","2019-02-02 06:00","2019","02","02","06:00","3.9","","3.9","","100","","","","31","","13","","32.2","","100.18","","","","","","Cloudy"
"-124.90","49.72","COMOX A","1021830","2019-02-02 07:00","2019","02","02","07:00","3.7","","3.7","","100","","","","30","","11","","32.2","","100.19","","","","","","Mostly Cloudy"
"-124.90","49.72","COMOX A","1021830","2019-02-02 08:00","2019","02","02","08:00","3.5","","3.5","","100","","","","30","","8","","32.2","","100.21","","","","","","Mostly Cloudy"
"-124.90","49.72","COMOX A","1021830","2019-02-02 09:00","2019","02","02","09:00","3.9","","3.9","","100","","","","32","","8","","32.2","","100.23","","","","","","Mostly Cloudy"
"-124.90","49.72","COMOX A","1021830","2019-02-02 10:00","2019","02","02","10:00","4.9","","4.9","","100","","","","33","","13","","32.2","","100.21","","","","","","Mostly Cloudy"
"-124.90","49.72","COMOX A","1021830","2019-02-02 11:00","2019","02","02","11:00","5.1","","4.8","","98","","","","33","","18","","32.2","","100.20","","","","","","Mostly Cloudy"
"-124.90","49.72","COMOX A","1021830","2019-02-02 12:00","2019","02","02","12:00","5.6","","5.1","","97","","","","34","","21","","32.2","","100.16","","","","","","Mostly Cloudy"
"-124.90","49.72","COMOX A","1021830","2019-02-02 13:00","2019","02","02","13:00","6.2","","5.1","","93","","","","35","","15","","32.2","","100.12","","","","","","Mostly Cloudy"
"-124.90","49.72","COMOX A","1021830","2019-02-02 14:00","2019","02","02","14:00","5.8","","5.0","","95","","","","36","","18","","32.2","","100.05","","","","","","Mostly Cloudy"
"-124.90","49.72","COMOX A","1021830","2019-02-02 15:00","2019","02","02","15:00","5.5","","4.6","","94","","","","35","","18","","32.2","","100.00","","","","","","Cloudy"
"-124.90","49.72","COMOX A","1021830","2019-02-02 16:00","2019","02","02","16:00","5.1","","4.3","","95","","","","34","","18","","32.2","","99.95","","","","","","Cloudy"
"-124.90","49.72","COMOX A","1021830","2019-02-02 17:00","2019","02","02","17:00","4.8","","4.0","","95","","","","33","","18","","32.2","","99.90","","","","","","Mostly Cloudy"
"-124.90","49.72","COMOX A","1021830","2019-02-02 18:00","2019","02","02","18:00","4.1","","3.1","","93","","","","32","","11","","32.2","","99.84","","","","","","Mostly Cloudy"
"-124.90","49.72","COMOX A","1021830","2019-02-02 19:00","2019","02","02","19:00","3.3","","2.4","","94","","","","31","","15","","32.2","","99.79","","","","","","Mostly Cloudy"
"-124.90","49.72","COMOX A","1021830","2019-02-02 20:00","2019","02","02","20:00","2.8","","1.9","","94","","","","31","","15","","32.2","","99.73","","","","","","Cloudy"
"-124.90","49.72","COMOX A","1021830","2019-02-02 21:00","2019","02","02","21:00","2.4","","1.6","","94","","","","32","","15","","32.2","","99.70","","","","","","Mostly Cloudy"
"-124.90","49.72","COMOX A","1021830","2019-02-02 22:00","2019","02","02","22:00","1.7","","1.2","","96","","","","32","","17","","32.2","","99.66","","","","","","Mainly Clear"
"-124.90","49.72","COMOX A","1021830","2019-02-02 23:00","2019","02","02","23:00","1.5","","1.1","","97","","","","32","","17","","32.2","","99.60","","","","","","Mostly Cloudy"
"-124.90","49.72","COMOX A","1021830","2019-02-03 00:00","2019","02","03","00:00","1.0","","1.0","","100","","","","32","","15","","32.2","","99.55","","","","","","Mostly Cloudy"
"-124.90","49.72","COMOX A","1021830","2019-02-03 01:00","2019","02","03","01:00","0.9","","0.9","","100","","","","32","","13","","32.2","","99.49","","","","","","Cloudy"
"-124.90","49.72","COMOX A","1021830","2019-02-03 02:00","2019","02","03","02:00","0.6","","0.6","","100","","","","31","","13","","32.2","","99.42","","","","","","Cloudy"
"-124.90","49.72","COMOX A","1021830","2019-02-03 03:00","2019","02","03","03:00","0.4","","0.4","","100","","","","32","","13","","32.2","","99.38","","","","","","Cloudy"
"-124.90","49.72","COMOX A","1021830","2019-02-03 04:00","2019","02","03","04:00","0.3","","0.3","","100","","","","32","","13","","32.2","","99.30","","","","","","Cloudy"
"-124.90","49.72","COMOX A","1021830","2019-02-03 05:00","2019","02","03","05:00","0.1","","0.1","","100","","","","34","","22","","32.2","","99.22","","","","","","Snow Showers"
"-124.90","49.72","COMOX A","1021830","2019-02-03 06:00","2019","02","03","06:00","-0.8","","-0.8","","100","","","","34","","30","","32.2","","99.15","","","","-8","","Snow Showers"
"-124.90","49.72","COMOX A","1021830","2019-02-03 07:00","2019","02","03","07:00","-1.8","","-1.8","","100","","","","34","","22","","19.3","","99.11","","","","-8","","Snow Showers"
"-124.90","49.72","COMOX A","1021830","2019-02-03 08:00","2019","02","03","08:00","-2.7","","-2.7","","100","","","","32","","21","","2.4","","99.10","","","","-9","","Snow Showers"
"-124.90","49.72","COMOX A","1021830","2019-02-03 09:00","2019","02","03","09:00","-3.6","","-3.6","","100","","","","33","","18","","2.4","","99.12","","","","-9","","Snow Showers"
"-124.90","49.72","COMOX A","1021830","2019-02-03 10:00","2019","02","03","10:00","-3.6","","-3.6","","100","","","","33","","21","","9.7","","99.17","","","","-10","","Snow Showers"
"-124.90","49.72","COMOX A","1021830","2019-02-03 11:00","2019","02","03","11:00","-3.6","","-3.6","","100","","","","31","","18","","19.3","","99.22","","","","-9","","Snow Showers"
"-124.90","49.72","COMOX A","1021830","2019-02-03 12:00","2019","02","03","12:00","-3.8","","-3.8","","100","","","","32","","18","","24.1","","99.27","","","","-10","","Snow Showers"
"-124.90","49.72","COMOX A","1021830","2019-02-03 13:00","2019","02","03","13:00","-3.6","","-3.6","","100","","","","34","","24","","24.1","","99.30","","","","-10","","Mostly Cloudy"
"-124.90","49.72","COMOX A","1021830","2019-02-03 14:00","2019","02","03","14:00","-4.1","","-4.1","","100","","","","32","","13","","9.7","","99.35","","","","-9","","Snow Showers"
"-124.90","49.72","COMOX A","1021830","2019-02-03 15:00","2019","02","03","15:00","-3.9","","-3.9","","100","","","","31","","11","","16.1","","99.43","","","","-8","","Snow Showers"
"-124.90","49.72","COMOX A","1021830","2019-02-03 16:00","2019","02","03","16:00","-4.2","","-4.2","","100","","","","32","","13","","24.1","","99.49","","","","-9","","Snow Showers"
"-124.90","49.72","COMOX A","1021830","2019-02-03 17:00","2019","02","03","17:00","-4.7","","-4.7","","100","","","","31","","17","","24.1","","99.55","","","","-11","","Cloudy"
"-124.90","49.72","COMOX A","1021830","2019-02-03 18:00","2019","02","03","18:00","-5.3","","-5.3","","100","","","","31","","17","","9.7","","99.60","","","","-11","","Snow Showers"
"-124.90","49.72","COMOX A","1021830","2019-02-03 19:00","2019","02","03","19:00","-5.9","","-6.4","","96","","","","31","","21","","6.4","","99.66","","","","-13","","Snow Showers"
"-124.90","49.72","COMOX A","1021830","2019-02-03 20:00","2019","02","03","20:00","-5.8","","-6.8","","93","","","","32","","24","","6.4","","99.71","","","","-13","","Snow Showers"
"-124.90","49.72","COMOX A","1021830","2019-02-03 21:00","2019","02","03","21:00","-5.9","","-7.1","","91","","","","31","","24","","11.3","","99.78","","","","-13","","Snow Showers"
"-124.90","49.72","COMOX A","1021830","2019-02-03 22:00","2019","02","03","22:00","-5.7","","-8.6","","80","","","","31","","28","","19.3","","99.83","","","","-14","","Mostly Cloudy"
"-124.90","49.72","COMOX A","1021830","2019-02-03 23:00","2019","02","03","23:00","-5.3","","-9.6","","72","","","","32","","28","","24.1","","99.88","","","","-13","","Mostly Cloudy"
"-124.90","49.72","COMOX A","1021830","2019-02-04 00:00","2019","02","04","00:00","-5.5","","-11.1","","65","","","","32","","28","","24.1","","99.97","","","","-13","","Mainly Clear"
"-124.90","49.72","COMOX A","1021830","2019-02-04 01:00","2019","02","04","01:00","-5.8","","-12.1","","61","","","","32","","24","","32.2","","100.05","","","","-13","","Mostly Cloudy"
"-124.90","49.72","COMOX A","1021830","2019-02-04 02:00","2019","02","04","02:00","-5.9","","-13.0","","57","","","","32","","34","","32.2","","100.06","","","","-15","","Mostly Cloudy"
"-124.90","49.72","COMOX A","1021830","2019-02-04 03:00","2019","02","04","03:00","-6.2","","-13.6","","56","","","","33","","31","","32.2","","100.15","","","","-15","","Mostly Cloudy"
"-124.90","49.72","COMOX A","1021830","2019-02-04 04:00","2019","02","04","04:00","-6.5","","-13.9","","56","","","","31","","24","","32.2","","100.21","","","","-14","","Clear"
"-124.90","49.72","COMOX A","1021830","2019-02-04 05:00","2019","02","04","05:00","-6.6","","-14.2","","55","","","","31","","24","","32.2","","100.21","","","","-14","","Clear"
"-124.90","49.72","COMOX A","1021830","2019-02-04 06:00","2019","02","04","06:00","-6.4","","-14.8","","51","","","","32","","21","","32.2","","100.29","","","","-13","","Clear"
"-124.90","49.72","COMOX A","1021830","2019-02-04 07:00","2019","02","04","07:00","-6.0","","-15.0","","49","","","","32","","18","","32.2","","100.35","","","","-12","","Mostly Cloudy"
"-124.90","49.72","COMOX A","1021830","2019-02-04 08:00","2019","02","04","08:00","-5.7","","-15.0","","48","","","","32","","21","","32.2","","100.37","","","","-13","","Mainly Clear"
"-124.90","49.72","COMOX A","1021830","2019-02-04 09:00","2019","02","04","09:00","-4.8","","-14.0","","49","","","","32","","18","","32.2","","100.46","","","","-11","","Mainly Clear"
"-124.90","49.72","COMOX A","1021830","2019-02-04 10:00","2019","02","04","10:00","-3.5","","-12.8","","49","","","","34","","22","","32.2","","100.52","","","","-10","","Clear"
"-124.90","49.72","COMOX A","1021830","2019-02-04 11:00","2019","02","04","11:00","-2.6","","-11.2","","52","","","","33","","30","","32.2","","100.55","","","","-10","","Clear"
"-124.90","49.72","COMOX A","1021830","2019-02-04 12:00","2019","02","04","12:00","-1.5","","-9.9","","53","","","","34","","22","","32.2","","100.58","","","","-7","","Mainly Clear"
"-124.90","49.72","COMOX A","1021830","2019-02-04 13:00","2019","02","04","13:00","-0.5","","-9.4","","51","","","","35","","18","","32.2","","100.55","","","","-6","","Clear"
"-124.90","49.72","COMOX A","1021830","2019-02-04 14:00","2019","02","04","14:00","0.3","","-8.1","","53","","","","34","","18","","32.2","","100.51","","","","","","Clear"
"-124.90","49.72","COMOX A","1021830","2019-02-04 15:00","2019","02","04","15:00","0.5","","-8.8","","50","","","","34","","24","","32.2","","100.52","","","","","","Clear"
"-124.90","49.72","COMOX A","1021830","2019-02-04 16:00","2019","02","04","16:00","0.9","","-7.4","","54","","","","34","","21","","32.2","","100.53","","","","","","Clear"
"-124.90","49.72","COMOX A","1021830","2019-02-04 17:00","2019","02","04","17:00","0.2","","-7.7","","55","","","","31","","9","","32.2","","100.54","","","","","","Clear"
"-124.90","49.72","COMOX A","1021830","2019-02-04 18:00","2019","02","04","18:00","-0.4","","-7.6","","58","","","","31","","11","","32.2","","100.55","","","","-4","","Clear"
"-124.90","49.72","COMOX A","1021830","2019-02-04 19:00","2019","02","04","19:00","-1.1","","-8.2","","58","","","","27","","9","","32.2","","100.58","","","","-4","","Clear"
"-124.90","49.72","COMOX A","1021830","2019-02-04 20:00","2019","02","04","20:00","-1.7","","-8.5","","60","","","","28","","9","","32.2","","100.58","","","","-5","","Clear"
"-124.90","49.72","COMOX A","1021830","2019-02-04 21:00","2019","02","04","21:00","-2.2","","-8.2","","63","","","","28","","9","","32.2","","100.59","","","","-6","","Clear"
"-124.90","49.72","COMOX A","1021830","2019-02-04 22:00","2019","02","04","22:00","-2.5","","-8.4","","64","","","","28","","9","","32.2","","100.61","","","","-6","","Clear"
"-124.90","49.72","COMOX A","1021830","2019-02-04 23:00","2019","02","04","23:00","-2.6","","-8.5","","64","","","","29","","11","","32.2","","100.63","","","","-7","","Mainly Clear"
"-124.90","49.72","COMOX A","1021830","2019-02-05 00:00","2019","02","05","00:00","-2.4","","-8.0","","65","","","","29","","13","","32.2","","100.63","","","","-7","","Mainly Clear"
"-124.90","49.72","COMOX A","1021830","2019-02-05 01:00","2019","02","05","01:00","-2.8","","-7.5","","70","","","","27","","11","","32.2","","100.64","","","","-7","","Mainly Clear"
"-124.90","49.72","COMOX A","1021830","2019-02-05 02:00","2019","02","05","02:00","-3.0","","-6.9","","74","","","","29","","8","","32.2","","100.68","","","","-6","","Mostly Cloudy"
"-124.90","49.72","COMOX A","1021830","2019-02-05 03:00","2019","02","05","03:00","-3.5","","-6.8","","78","","","","28","","9","","32.2","","100.70","","","","-7","","Mostly Cloudy"
"-124.90","49.72","COMOX A","1021830","2019-02-05 04:00","2019","02","05","04:00","-3.7","","-6.6","","80","","","","27","","8","","32.2","","100.70","","","","-7","","Mainly Clear"
"-124.90","49.72","COMOX A","1021830","2019-02-05 05:00","2019","02","05","05:00","-3.6","","-6.8","","78","","","","27","","9","","32.2","","100.76","","","","-7","","Clear"
"-124.90","49.72","COMOX A","1021830","2019-02-05 06:00","2019","02","05","06:00","-4.4","","-6.9","","83","","","","27","","9","","32.2","","100.83","","","","-8","","Clear"
"-124.90","49.72","COMOX A","1021830","2019-02-05 07:00","2019","02","05","07:00","-4.8","","-7.1","","84","","","","29","","8","","32.2","","100.88","","","","-8","","Clear"
"-124.90","49.72","COMOX A","1021830","2019-02-05 08:00","2019","02","05","08:00","-4.7","","-7.3","","82","","","","27","","9","","32.2","","100.94","","","","-9","","Mainly Clear"
"-124.90","49.72","COMOX A","1021830","2019-02-05 09:00","2019","02","05","09:00","-3.5","","-3.5","","100","","","","28","","9","","32.2","","100.97","","","","-7","","Mainly Clear"
"-124.90","49.72","COMOX A","1021830","2019-02-05 10:00","2019","02","05","10:00","-1.2","","-1.2","","100","","","","29","","5","","32.2","","101.06","","","","-3","","Mainly Clear"
"-124.90","49.72","COMOX A","1021830","2019-02-05 11:00","2019","02","05","11:00","0.1","","0.1","","100","","","","33","","13","","32.2","","101.09","","","","","","Mainly Clear"
"-124.90","49.72","COMOX A","1021830","2019-02-05 12:00","2019","02","05","12:00","0.9","","0.9","","100","","","","33","","17","","32.2","","101.10","","","","","","Mainly Clear"
"-124.90","49.72","COMOX A","1021830","2019-02-05 13:00","2019","02","05","13:00","1.4","","1.4","","100","","","","36","","11","","32.2","","101.10","","","","","","Clear"
"-124.90","49.72","COMOX A","1021830","2019-02-05 14:00","2019","02","05","14:00","1.5","","1.5","","100","","","","34","","11","","32.2","","101.11","","","","","","Clear"
"-124.90","49.72","COMOX A","1021830","2019-02-05 15:00","2019","02","05","15:00","1.8","","1.6","","99","","","","36","","11","","32.2","","101.14","","","","","","Clear"
"-124.90","49.72","COMOX A","1021830","2019-02-05 16:00","2019","02","05","16:00","1.7","","-2.3","","75","","","","36","","8","","32.2","","101.19","","","","","","Clear"
"-124.90","49.72","COMOX A","1021830","2019-02-05 17:00","2019","02","05","17:00","0.6","","-4.6","","68","","","","34","","5","","32.2","","101.26","","","","","","Clear"
"-124.90","49.72","COMOX A","1021830","2019-02-05 18:00","2019","02","05","18:00","-1.3","","-3.9","","82","","","","27","","5","","32.2","","101.34","","","","-3","","Clear"
"-124.90","49.72","COMOX A","1021830","2019-02-05 19:00","2019","02","05","19:00","-1.3","","-4.1","","81","","","","27","","5","","32.2","","101.42","","","","-3","","Clear"
"-124.90","49.72","COMOX A","1021830","2019-02-05 20:00","2019","02","05","20:00","-3.0","","-4.0","","93","","","","","","0","","32.2","","101.45","","","","","","Clear"
"-124.90","49.72","COMOX A","1021830","2019-02-05 21:00","2019","02","05","21:00","-3.3","","-4.6","","91","","","","","","0","","32.2","","101.52","","","","","","Clear"
"-124.90","49.72","COMOX A","1021830","2019-02-05 22:00","2019","02","05","22:00","-3.9","","-4.6","","95","","","","24","","5","","32.2","","101.58","","","","-6","","Clear"
"-124.90","49.72","COMOX A","1021830","2019-02-05 23:00","2019","02","05","23:00","-3.4","","-4.3","","93","","","","22","","4","","32.2","","101.66","","","","-5","","Clear"
"-124.90","49.72","COMOX A","1021830","2019-02-06 00:00","2019","02","06","00:00","-3.0","","-4.3","","91","","","","28","","9","","32.2","","101.74","","","","-7","","Clear"
"-124.90","49.72","COMOX A","1021830","2019-02-06 01:00","2019","02","06","01:00","-2.2","","-4.7","","83","","","","27","","9","","32.2","","101.80","","","","-6","","Clear"
"-124.90","49.72","COMOX A","1021830","2019-02-06 02:00","2019","02","06","02:00","-3.2","","-5.8","","82","","","","27","","8","","32.2","","101.83","","","","-6","","Clear"
"-124.90","49.72","COMOX A","1021830","2019-02-06 03:00","2019","02","06","03:00","-4.5","","-6.3","","87","","","","","","0","","32.2","","101.84","","","","","","Clear"
"-124.90","49.72","COMOX A","1021830","2019-02-06 04:00","2019","02","06","04:00","-4.1","","-6.1","","86","","","","29","","9","","32.2","","101.87","","","","-8","","Clear"
"-124.90","49.72","COMOX A","1021830","2019-02-06 05:00","2019","02","06","05:00","-4.5","","-6.5","","86","","","","27","","5","","32.2","","101.93","","","","-7","","Clear"
"-124.90","49.72","COMOX A","1021830","2019-02-06 06:00","2019","02","06","06:00","-4.9","","-7.0","","85","","","","28","","5","","32.2","","101.96","","","","-7","","Clear"
"-124.90","49.72","COMOX A","1021830","2019-02-06 07:00","2019","02","06","07:00","-5.2","","-7.1","","86","","","","27","","5","","32.2","","102.01","","","","-7","","Mainly Clear"
"-124.90","49.72","COMOX A","1021830","2019-02-06 08:00","2019","02","06","08:00","-4.2","","-6.9","","81","","","","27","","5","","32.2","","102.06","","","","-6","","Mainly Clear"
"-124.90","49.72","COMOX A","1021830","2019-02-06 09:00","2019","02","06","09:00","-3.1","","-6.1","","80","","","","28","","11","","32.2","","102.15","","","","-7","","Mainly Clear"
"-124.90","49.72","COMOX A","1021830","2019-02-06 10:00","2019","02","06","10:00","0.2","","-4.8","","69","","","","27","","5","","32.2","","102.22","","","","","","Mainly Clear"
"-124.90","49.72","COMOX A","1021830","2019-02-06 11:00","2019","02","06","11:00","1.7","","-1.9","","77","","","","","","0","","32.2","","102.25","","","","","","Mainly Clear"
"-124.90","49.72","COMOX A","1021830","2019-02-06 12:00","2019","02","06","12:00","2.7","","-0.8","","78","","","","12","","5","","32.2","","102.28","","","","","","Mostly Cloudy"
"-124.90","49.72","COMOX A","1021830","2019-02-06 13:00","2019","02","06","13:00","2.9","","-1.3","","74","","","","13","","11","","32.2","","102.25","","","","","","Mostly Cloudy"
"-124.90","49.72","COMOX A","1021830","2019-02-06 14:00","2019","02","06","14:00","3.4","","-1.4","","71","","","","14","","8","","32.2","","102.28","","","","","","Mostly Cloudy"
"-124.90","49.72","COMOX A","1021830","2019-02-06 15:00","2019","02","06","15:00","3.4","","-1.8","","69","","","","12","","9","","32.2","","102.27","","","","","","Cloudy"
"-124.90","49.72","COMOX A","1021830","2019-02-06 16:00","2019","02","06","16:00","2.9","","-2.6","","67","","","","14","","8","","32.2","","102.31","","","","","","Cloudy"
"-124.90","49.72","COMOX A","1021830","2019-02-06 17:00","2019","02","06","17:00","1.7","","-2.9","","71","","","","14","","5","","32.2","","102.33","","","","","","Cloudy"
"-124.90","49.72","COMOX A","1021830","2019-02-06 18:00","2019","02","06","18:00","1.0","","-2.7","","76","","","","","","0","","32.2","","102.36","","","","","","Cloudy"
"-124.90","49.72","COMOX A","1021830","2019-02-06 19:00","2019","02","06","19:00","-0.4","","-2.5","","86","","","","","","0","","32.2","","102.38","","","","","","Cloudy"
"-124.90","49.72","COMOX A","1021830","2019-02-06 20:00","2019","02","06","20:00","-0.7","","-2.4","","88","","","","22","","4","","32.2","","102.40","","","","-2","","Cloudy"
"-124.90","49.72","COMOX A","1021830","2019-02-06 21:00","2019","02","06","21:00","-1.6","","-2.6","","93","","","","","","0","","32.2","","102.44","","","","","","Cloudy"
"-124.90","49.72","COMOX A","1021830","2019-02-06 22:00","2019","02","06","22:00","-1.8","","-2.6","","94","","","","","","0","","32.2","","102.48","","","","","","Cloudy"
"-124.90","49.72","COMOX A","1021830","2019-02-06 23:00","2019","02","06","23:00","-1.5","","-2.4","","94","","","","","","0","","32.2","","102.49","","","","","","Cloudy"
"-124.90","49.72","COMOX A","1021830","2019-02-07 00:00","2019","02","07","00:00","-2.0","","-2.4","","97","","","","29","","5","","32.2","","102.54","","","","-4","","Cloudy"
"-124.90","49.72","COMOX A","1021830","2019-02-07 01:00","2019","02","07","01:00","-0.9","","-1.9","","93","","","","","","0","","32.2","","102.56","","","","","","Cloudy"
"-124.90","49.72","COMOX A","1021830","2019-02-07 02:00","2019","02","07","02:00","-0.5","","-1.5","","93","","","","","","0","","32.2","","102.57","","","","","","Cloudy"
"-124.90","49.72","COMOX A","1021830","2019-02-07 03:00","2019","02","07","03:00","-0.4","","-1.8","","90","","","","","","0","","32.2","","102.59","","","","","","Cloudy"
"-124.90","49.72","COMOX A","1021830","2019-02-07 04:00","2019","02","07","04:00","-0.4","","-1.6","","92","","","","","","0","","32.2","","102.56","","","","","","Cloudy"
"-124.90","49.72","COMOX A","1021830","2019-02-07 05:00","2019","02","07","05:00","-0.5","","-1.9","","90","","","","","","0","","32.2","","102.54","","","","","","Cloudy"
"-124.90","49.72","COMOX A","1021830","2019-02-07 06:00","2019","02","07","06:00","-0.5","","-2.9","","84","","","","","","0","","32.2","","102.54","","","","","","Cloudy"
"-124.90","49.72","COMOX A","1021830","2019-02-07 07:00","2019","02","07","07:00","-1.0","","-2.9","","87","","","","","","0","","32.2","","102.55","","","","","","Cloudy"
"-124.90","49.72","COMOX A","1021830","2019-02-07 08:00","2019","02","07","08:00","-1.4","","-2.0","","96","","","","23","","4","","32.2","","102.58","","","","-3","","Cloudy"
"-124.90","49.72","COMOX A","1021830","2019-02-07 09:00","2019","02","07","09:00","-0.3","","-2.2","","87","","","","21","","8","","32.2","","102.59","","","","-3","","Mostly Cloudy"
"-124.90","49.72","COMOX A","1021830","2019-02-07 10:00","2019","02","07","10:00","1.7","","-2.8","","72","","","","21","","5","","32.2","","102.60","","","","","","Cloudy"
"-124.90","49.72","COMOX A","1021830","2019-02-07 11:00","2019","02","07","11:00","2.4","","-2.4","","71","","","","19","","8","","32.2","","102.59","","","","","","Cloudy"
"-124.90","49.72","COMOX A","1021830","2019-02-07 12:00","2019","02","07","12:00","2.9","","-2.2","","69","","","","17","","8","","32.2","","102.56","","","","","","Cloudy"
"-124.90","49.72","COMOX A","1021830","2019-02-07 13:00","2019","02","07","13:00","3.5","","-1.4","","70","","","","18","","4","","32.2","","102.52","","","","","","Cloudy"
"-124.90","49.72","COMOX A","1021830","2019-02-07 14:00","2019","02","07","14:00","2.9","","-2.1","","70","","","","9","","5","","32.2","","102.46","","","","","","Mostly Cloudy"
"-124.90","49.72","COMOX A","1021830","2019-02-07 15:00","2019","02","07","15:00","3.1","","-1.8","","70","","","","11","","5","","32.2","","102.40","","","","","","Cloudy"
"-124.90","49.72","COMOX A","1021830","2019-02-07 16:00","2019","02","07","16:00","2.9","","-1.6","","72","","","","11","","5","","32.2","","102.37","","","","","","Cloudy"
"-124.90","49.72","COMOX A","1021830","2019-02-07 17:00","2019","02","07","17:00","2.5","","-1.7","","74","","","","","","0","","32.2","","102.31","","","","","","Mostly Cloudy"
"-124.90","49.72","COMOX A","1021830","2019-02-07 18:00","2019","02","07","18:00","1.6","","-1.3","","81","","","","29","","4","","32.2","","102.30","","","","","","Mostly Cloudy"
"-124.90","49.72","COMOX A","1021830","2019-02-07 19:00","2019","02","07","19:00","0.9","","-1.4","","85","","","","","","0","","32.2","","102.25","","","","","","Mostly Cloudy"
"-124.90","49.72","COMOX A","1021830","2019-02-07 20:00","2019","02","07","20:00","0.6","","-1.2","","88","","","","26","","4","","32.2","","102.22","","","","","","Cloudy"
"-124.90","49.72","COMOX A","1021830","2019-02-07 21:00","2019","02","07","21:00","0.6","","-1.1","","88","","","","","","0","","32.2","","102.18","","","","","","Cloudy"
"-124.90","49.72","COMOX A","1021830","2019-02-07 22:00","2019","02","07","22:00","0.7","","-0.9","","89","","","","25","","4","","32.2","","102.16","","","","","","Mostly Cloudy"
"-124.90","49.72","COMOX A","1021830","2019-02-07 23:00","2019","02","07","23:00","0.2","","-1.0","","92","","","","22","","4","","32.2","","102.12","","","","","","Cloudy"
"-124.90","49.72","COMOX A","1021830","2019-02-08 00:00","2019","02","08","00:00","0.8","","-1.2","","86","","","","28","","5","","24.1","","102.06","","","","","","Cloudy"
"-124.90","49.72","COMOX A","1021830","2019-02-08 01:00","2019","02","08","01:00","0.6","","-1.2","","88","","","","22","","5","","24.1","","102.01","","","","","","Cloudy"
"-124.90","49.72","COMOX A","1021830","2019-02-08 02:00","2019","02","08","02:00","0.8","","-1.3","","86","","","","","","0","","24.1","","101.93","","","","","","Cloudy"
"-124.90","49.72","COMOX A","1021830","2019-02-08 03:00","2019","02","08","03:00","0.5","","-0.6","","92","","","","","","0","","16.1","","101.90","","","","","","Snow Showers"
"-124.90","49.72","COMOX A","1021830","2019-02-08 04:00","2019","02","08","04:00","0.2","","-0.1","","98","","","","","","0","","19.3","","101.83","","","","","","Snow Showers"
"-124.90","49.72","COMOX A","1021830","2019-02-08 05:00","2019","02","08","05:00","-0.2","","-0.2","","100","","","","","","0","","4.8","","101.78","","","","","","Snow Showers"
"-124.90","49.72","COMOX A","1021830","2019-02-08 06:00","2019","02","08","06:00","-0.2","","-0.2","","100","","","","31","","4","","3.2","","101.72","","","","-1","","Snow Showers"
"-124.90","49.72","COMOX A","1021830","2019-02-08 07:00","2019","02","08","07:00","-0.2","","-0.2","","100","","","","33","","4","","4.8","","101.69","","","","-1","","Snow Showers"
"-124.90","49.72","COMOX A","1021830","2019-02-08 08:00","2019","02","08","08:00","-0.1","","-0.1","","100","","","","","","0","","6.4","","101.64","","","","","","Snow Showers"
"-124.90","49.72","COMOX A","1021830","2019-02-08 09:00","2019","02","08","09:00","-0.1","","-0.1","","100","","","","","","0","","3.2","","101.61","","","","","","Snow Showers"
"-124.90","49.72","COMOX A","1021830","2019-02-08 10:00","2019","02","08","10:00","0.0","","0.0","","100","","","","31","","8","","4.0","","101.56","","","","-3","","Snow Showers"
"-124.90","49.72","COMOX A","1021830","2019-02-08 11:00","2019","02","08","11:00","0.4","","0.4","","100","","","","12","","24","","2.4","","101.54","","","","","","Snow"
"-124.90","49.72","COMOX A","1021830","2019-02-08 12:00","2019","02","08","12:00","0.5","","0.5","","100","","","","15","","18","","4.0","","101.51","","","","","","Snow"
"-124.90","49.72","COMOX A","1021830","2019-02-08 13:00","2019","02","08","13:00","0.5","","0.5","","100","","","","21","","9","","8.1","","101.42","","","","","","Snow"
"-124.90","49.72","COMOX A","1021830","2019-02-08 14:00","2019","02","08","14:00","0.9","","0.9","","100","","","","19","","9","","12.9","","101.34","","","","","","Cloudy"
"-124.90","49.72","COMOX A","1021830","2019-02-08 15:00","2019","02","08","15:00","1.1","","1.0","","99","","","","19","","4","","24.1","","101.24","","","","","","Cloudy"
"-124.90","49.72","COMOX A","1021830","2019-02-08 16:00","2019","02","08","16:00","1.2","","0.1","","92","","","","","","0","","24.1","","101.14","","","","","","Cloudy"
"-124.90","49.72","COMOX A","1021830","2019-02-08 17:00","2019","02","08","17:00","-0.5","","-0.5","","100","","","","15","","17","","19.3","","101.05","","","","-5","","Snow Showers"
"-124.90","49.72","COMOX A","1021830","2019-02-08 18:00","2019","02","08","18:00","-1.1","","-1.1","","100","","","","12","","30","","3.2","","101.02","","","","-8","","Snow Showers"
"-124.90","49.72","COMOX A","1021830","2019-02-08 19:00","2019","02","08","19:00","-1.3","","-5.2","","75","","","","19","","8","","12.9","","100.97","","","","-4","","Cloudy"
"-124.90","49.72","COMOX A","1021830","2019-02-08 20:00","2019","02","08","20:00","-2.0","","-2.8","","94","","","","28","","13","","12.9","","100.97","","","","-6","","Cloudy"
"-124.90","49.72","COMOX A","1021830","2019-02-08 21:00","2019","02","08","21:00","-1.0","","","M","45","","","","4","","17","","24.1","","100.96","","","","-6","","Cloudy"
"-124.90","49.72","COMOX A","1021830","2019-02-08 22:00","2019","02","08","22:00","-1.5","","-12.1","","44","","","","5","","22","","32.2","","100.97","","","","-7","","Cloudy"
"-124.90","49.72","COMOX A","1021830","2019-02-08 23:00","2019","02","08","23:00","-3.9","","-11.7","","55","","","","30","","28","","32.2","","100.98","","","","-11","","Mostly Cloudy"
"-124.90","49.72","COMOX A","1021830","2019-02-09 00:00","2019","02","09","00:00","-4.9","","-12.2","","57","","","","31","","13","","32.2","","101.02","","","","-10","","Cloudy"
"-124.90","49.72","COMOX A","1021830","2019-02-09 01:00","2019","02","09","01:00","-5.5","","-13.1","","55","","","","30","","21","","32.2","","100.99","","","","-12","","Mostly Cloudy"
"-124.90","49.72","COMOX A","1021830","2019-02-09 02:00","2019","02","09","02:00","-5.5","","-13.8","","52","","","","30","","18","","32.2","","100.99","","","","-12","","Cloudy"
"-124.90","49.72","COMOX A","1021830","2019-02-09 03:00","2019","02","09","03:00","-5.2","","-14.3","","49","","","","31","","24","","32.2","","100.97","","","","-12","","Cloudy"
"-124.90","49.72","COMOX A","1021830","2019-02-09 04:00","2019","02","09","04:00","-5.2","","-14.8","","47","","","","31","","22","","32.2","","100.92","","","","-12","","Mostly Cloudy"
"-124.90","49.72","COMOX A","1021830","2019-02-09 05:00","2019","02","09","05:00","-5.3","","-14.9","","47","","","","31","","24","","32.2","","100.89","","","","-13","","Mainly Clear"
"-124.90","49.72","COMOX A","1021830","2019-02-09 06:00","2019","02","09","06:00","-5.2","","-14.9","","46","","","","31","","22","","32.2","","100.91","","","","-12","","Mainly Clear"
"-124.90","49.72","COMOX A","1021830","2019-02-09 07:00","2019","02","09","07:00","-4.8","","-15.1","","44","","","","31","","26","","32.2","","100.91","","","","-12","","Mostly Cloudy"
"-124.90","49.72","COMOX A","1021830","2019-02-09 08:00","2019","02","09","08:00","-4.7","","-15.2","","44","","","","31","","24","","32.2","","100.95","","","","-12","","Mainly Clear"
"-124.90","49.72","COMOX A","1021830","2019-02-09 09:00","2019","02","09","09:00","-3.7","","-14.8","","42","","","","31","","24","","32.2","","101.02","","","","-11","","Mainly Clear"
"-124.90","49.72","COMOX A","1021830","2019-02-09 10:00","2019","02","09","10:00","-3.2","","-14.5","","41","","","","31","","30","","32.2","","101.06","","","","-11","","Mainly Clear"
"-124.90","49.72","COMOX A","1021830","2019-02-09 11:00","2019","02","09","11:00","-1.6","","-13.3","","40","","","","32","","30","","32.2","","101.06","","","","-9","","Mainly Clear"
"-124.90","49.72","COMOX A","1021830","2019-02-09 12:00","2019","02","09","12:00","-0.3","","-12.4","","40","","","","31","","24","","32.2","","101.06","","","","-6","","Mainly Clear"
"-124.90","49.72","COMOX A","1021830","2019-02-09 13:00","2019","02","09","13:00","1.0","","-11.4","","39","","","","31","","22","","32.2","","101.02","","","","","","Clear"
"-124.90","49.72","COMOX A","1021830","2019-02-09 14:00","2019","02","09","14:00","1.8","","-12.7","","33","","","","32","","30","","32.2","","101.02","","","","","","Clear"
"-124.90","49.72","COMOX A","1021830","2019-02-09 15:00","2019","02","09","15:00","2.5","","-12.5","","32","","","","32","","22","","32.2","","100.99","","","","","","Clear"
"-124.90","49.72","COMOX A","1021830","2019-02-09 16:00","2019","02","09","16:00","2.3","","-12.7","","32","","","","32","","21","","32.2","","100.97","","","","","","Clear"
"-124.90","49.72","COMOX A","1021830","2019-02-09 17:00","2019","02","09","17:00","1.8","","-13.1","","32","","","","32","","18","","32.2","","100.95","","","","","","Clear"
"-124.90","49.72","COMOX A","1021830","2019-02-09 18:00","2019","02","09","18:00","1.0","","-12.8","","35","","","","32","","22","","32.2","","100.97","","","","","","Clear"
"-124.90","49.72","COMOX A","1021830","2019-02-09 19:00","2019","02","09","19:00","0.7","","-13.1","","35","","","","32","","26","","32.2","","100.99","","","","","","Clear"
"-124.90","49.72","COMOX A","1021830","2019-02-09 20:00","2019","02","09","20:00","0.7","","-13.6","","33","","","","32","","24","","32.2","","101.00","","","","","","Clear"
"-124.90","49.72","COMOX A","1021830","2019-02-09 21:00","2019","02","09","21:00","0.5","","-14.1","","33","","","","32","","22","","32.2","","100.98","","","","","","Clear"
"-124.90","49.72","COMOX A","1021830","2019-02-09 22:00","2019","02","09","22:00","0.3","","-14.7","","31","","","","32","","17","","32.2","","100.95","","","","","","Clear"
"-124.90","49.72","COMOX A","1021830","2019-02-09 23:00","2019","02","09","23:00","0.1","","-11.3","","42","","","","33","","22","","32.2","","100.96","","","","","","Clear"
"-124.90","49.72","COMOX A","1021830","2019-02-10 00:00","2019","02","10","00:00","-0.5","","-13.4","","37","","","","33","","22","","32.2","","100.98","","","","-6","","Clear"
"-124.90","49.72","COMOX A","1021830","2019-02-10 01:00","2019","02","10","01:00","-0.8","","-11.9","","43","","","","33","","22","","32.2","","100.97","","","","-7","","Clear"
"-124.90","49.72","COMOX A","1021830","2019-02-10 02:00","2019","02","10","02:00","-1.6","","-12.9","","42","","","","28","","8","","32.2","","100.92","","","","-5","","Clear"
"-124.90","49.72","COMOX A","1021830","2019-02-10 03:00","2019","02","10","03:00","-3.3","","-12.8","","48","","","","29","","9","","32.2","","100.88","","","","-7","","Clear"
"-124.90","49.72","COMOX A","1021830","2019-02-10 04:00","2019","02","10","04:00","-3.2","","-12.1","","50","","","","28","","11","","32.2","","100.79","","","","-7","","Mainly Clear"
"-124.90","49.72","COMOX A","1021830","2019-02-10 05:00","2019","02","10","05:00","-3.4","","-11.9","","52","","","","28","","9","","32.2","","100.70","","","","-7","","Clear"
"-124.90","49.72","COMOX A","1021830","2019-02-10 06:00","2019","02","10","06:00","-6.3","","-10.9","","70","","","","","","0","","32.2","","100.66","","","","","","Clear"
"-124.90","49.72","COMOX A","1021830","2019-02-10 07:00","2019","02","10","07:00","-4.3","","-10.4","","62","","","","28","","8","","32.2","","100.61","","","","-8","","Mostly Cloudy"
"-124.90","49.72","COMOX A","1021830","2019-02-10 08:00","2019","02","10","08:00","-4.5","","-9.6","","68","","","","28","","5","","32.2","","100.51","","","","-7","","Mostly Cloudy"
"-124.90","49.72","COMOX A","1021830","2019-02-10 09:00","2019","02","10","09:00","-4.0","","-8.1","","73","","","","23","","4","","32.2","","100.45","","","","-6","","Mostly Cloudy"
"-124.90","49.72","COMOX A","1021830","2019-02-10 10:00","2019","02","10","10:00","-1.5","","-7.7","","63","","","","","","0","","32.2","","100.37","","","","","","Mostly Cloudy"
"-124.90","49.72","COMOX A","1021830","2019-02-10 11:00","2019","02","10","11:00","0.0","","-3.4","","78","","","","12","","26","","32.2","","100.34","","","","-6","","Cloudy"
"-124.90","49.72","COMOX A","1021830","2019-02-10 12:00","2019","02","10","12:00","-1.6","","-2.1","","96","","","","12","","37","","0.4","","100.30","","","","-9","","Heavy Snow Showers"
"-124.90","49.72","COMOX A","1021830","2019-02-10 13:00","2019","02","10","13:00","-2.6","","-2.6","","100","","","","14","","31","","0.8","","100.25","","","","-10","","Moderate Snow Showers"
"-124.90","49.72","COMOX A","1021830","2019-02-10 14:00","2019","02","10","14:00","-2.5","","-2.7","","99","","","","13","","31","","0.8","","100.22","","","","-10","","Moderate Snow"
"-124.90","49.72","COMOX A","1021830","2019-02-10 15:00","2019","02","10","15:00","-2.3","","-2.3","","100","","","","13","","24","","1.2","","100.19","","","","-9","","Snow"
"-124.90","49.72","COMOX A","1021830","2019-02-10 16:00","2019","02","10","16:00","-2.1","","-2.1","","100","","","","12","","13","","1.2","","100.16","","","","-7","","Snow"
"-124.90","49.72","COMOX A","1021830","2019-02-10 17:00","2019","02","10","17:00","-2.0","","-2.0","","100","","","","10","","13","","0.8","","100.16","","","","-6","","Moderate Snow"
"-124.90","49.72","COMOX A","1021830","2019-02-10 18:00","2019","02","10","18:00","-2.2","","-2.2","","100","","","","31","","4","","2.0","","100.16","","","","-4","","Snow"
"-124.90","49.72","COMOX A","1021830","2019-02-10 19:00","2019","02","10","19:00","-2.5","","-2.5","","100","","","","29","","9","","2.8","","100.15","","","","-6","","Snow"
"-124.90","49.72","COMOX A","1021830","2019-02-10 20:00","2019","02","10","20:00","-3.0","","-3.0","","100","","","","30","","15","","9.7","","100.15","","","","-8","","Snow"
"-124.90","49.72","COMOX A","1021830","2019-02-10 21:00","2019","02","10","21:00","-4.0","","-6.2","","85","","","","31","","15","","32.2","","100.11","","","","-9","","Mainly Clear"
"-124.90","49.72","COMOX A","1021830","2019-02-10 22:00","2019","02","10","22:00","-4.2","","-7.8","","76","","","","30","","17","","32.2","","100.14","","","","-10","","Mainly Clear"
"-124.90","49.72","COMOX A","1021830","2019-02-10 23:00","2019","02","10","23:00","-4.0","","-8.5","","71","","","","32","","15","","32.2","","100.15","","","","-9","","Mainly Clear"
"-124.90","49.72","COMOX A","1021830","2019-02-11 00:00","2019","02","11","00:00","-5.3","","-8.5","","78","","","","29","","13","","32.2","","100.20","","","","-10","","Mainly Clear"
"-124.90","49.72","COMOX A","1021830","2019-02-11 01:00","2019","02","11","01:00","-5.4","","-9.2","","75","","","","28","","15","","32.2","","100.25","","","","-11","","Clear"
"-124.90","49.72","COMOX A","1021830","2019-02-11 02:00","2019","02","11","02:00","-5.8","","-9.9","","73","","","","29","","13","","32.2","","100.31","","","","-11","","Clear"
"-124.90","49.72","COMOX A","1021830","2019-02-11 03:00","2019","02","11","03:00","-6.8","","-9.5","","81","","","","25","","8","","32.2","","100.42","","","","-11","","Clear"
"-124.90","49.72","COMOX A","1021830","2019-02-11 04:00","2019","02","11","04:00","-9.3","","-10.0","","95","","","","24","","4","","32.2","","100.45","","","","-12","","Clear"
"-124.90","49.72","COMOX A","1021830","2019-02-11 05:00","2019","02","11","05:00","-9.4","","-10.1","","95","","","","","","0","","32.2","","100.48","","","","","","Mainly Clear"
"-124.90","49.72","COMOX A","1021830","2019-02-11 06:00","2019","02","11","06:00","-6.4","","-8.1","","88","","","","27","","5","","32.2","","100.49","","","","-9","","Mostly Cloudy"
"-124.90","49.72","COMOX A","1021830","2019-02-11 07:00","2019","02","11","07:00","-6.1","","-8.1","","86","","","","28","","9","","32.2","","100.52","","","","-10","","Cloudy"
"-124.90","49.72","COMOX A","1021830","2019-02-11 08:00","2019","02","11","08:00","-5.5","","-7.3","","87","","","","26","","4","","24.1","","100.58","","","","-7","","Cloudy"
"-124.90","49.72","COMOX A","1021830","2019-02-11 09:00","2019","02","11","09:00","-5.1","","-5.7","","96","","","","27","","5","","2.0","","100.63","","","","-7","","Snow Showers"
"-124.90","49.72","COMOX A","1021830","2019-02-11 10:00","2019","02","11","10:00","-3.8","","-5.1","","91","","","","22","","9","","9.7","","100.68","","","","-8","","Snow Showers"
"-124.90","49.72","COMOX A","1021830","2019-02-11 11:00","2019","02","11","11:00","-1.4","","-5.1","","76","","","","16","","26","","24.1","","100.69","","","","-8","","Snow Showers"
"-124.90","49.72","COMOX A","1021830","2019-02-11 12:00","2019","02","11","12:00","-1.1","","-4.7","","76","","","","15","","21","","24.1","","100.71","","","","-7","","Cloudy"
"-124.90","49.72","COMOX A","1021830","2019-02-11 13:00","2019","02","11","13:00","-0.8","","-4.0","","79","","","","17","","11","","24.1","","100.67","","","","-5","","Cloudy"
"-124.90","49.72","COMOX A","1021830","2019-02-11 14:00","2019","02","11","14:00","-1.7","","-3.2","","89","","","","22","","9","","4.0","","100.62","","","","-5","","Snow Showers"
"-124.90","49.72","COMOX A","1021830","2019-02-11 15:00","2019","02","11","15:00","-1.7","","-3.4","","88","","","","27","","5","","24.1","","100.51","","","","-4","","Snow Showers"
"-124.90","49.72","COMOX A","1021830","2019-02-11 16:00","2019","02","11","16:00","-1.8","","-3.5","","88","","","","28","","8","","24.1","","100.45","","","","-5","","Cloudy"
"-124.90","49.72","COMOX A","1021830","2019-02-11 17:00","2019","02","11","17:00","-1.8","","-3.7","","87","","","","27","","4","","4.8","","100.39","","","","-3","","Snow Showers"
"-124.90","49.72","COMOX A","1021830","2019-02-11 18:00","2019","02","11","18:00","-2.7","","-2.7","","100","","","","28","","8","","1.6","","100.34","","","","-6","","Snow"
"-124.90","49.72","COMOX A","1021830","2019-02-11 19:00","2019","02","11","19:00","-2.9","","-2.9","","100","","","","28","","5","","4.0","","100.33","","","","-5","","Snow"
"-124.90","49.72","COMOX A","1021830","2019-02-11 20:00","2019","02","11","20:00","-2.8","","-2.8","","100","","","","30","","8","","0.4","","100.31","","","","-6","","Heavy Snow"
"-124.90","49.72","COMOX A","1021830","2019-02-11 21:00","2019","02","11","21:00","-3.4","","-3.4","","100","","","","30","","5","","0.8","","100.31","","","","-5","","Moderate Snow"
"-124.90","49.72","COMOX A","1021830","2019-02-11 22:00","2019","02","11","22:00","-3.5","","-3.5","","100","","","","30","","8","","4.8","","100.33","","","","-7","","Snow"
"-124.90","49.72","COMOX A","1021830","2019-02-11 23:00","2019","02","11","23:00","-3.6","","-3.6","","100","","","","30","","8","","1.2","","100.35","","","","-7","","Snow"
"-124.90","49.72","COMOX A","1021830","2019-02-12 00:00","2019","02","12","00:00","-3.7","","-3.7","","100","","","","30","","9","","4.8","","100.35","","","","-7","","Snow"
"-124.90","49.72","COMOX A","1021830","2019-02-12 01:00","2019","02","12","01:00","-3.5","","-3.5","","100","","","","29","","11","","11.3","","100.40","","","","-8","","Snow"
"-124.90","49.72","COMOX A","1021830","2019-02-12 02:00","2019","02","12","02:00","-3.4","","-3.4","","100","","","","30","","8","","6.4","","100.40","","","","-7","","Snow"
"-124.90","49.72","COMOX A","1021830","2019-02-12 03:00","2019","02","12","03:00","-3.4","","-3.4","","100","","","","29","","11","","8.1","","100.39","","","","-8","","Snow"
"-124.90","49.72","COMOX A","1021830","2019-02-12 04:00","2019","02","12","04:00","-3.2","","-3.2","","100","","","","29","","11","","4.8","","100.38","","","","-7","","Snow"
"-124.90","49.72","COMOX A","1021830","2019-02-12 05:00","2019","02","12","05:00","-3.2","","-3.2","","100","","","","29","","11","","8.1","","100.37","","","","-7","","Snow"
"-124.90","49.72","COMOX A","1021830","2019-02-12 06:00","2019","02","12","06:00","-3.0","","-3.0","","100","","","","29","","9","","1.6","","100.37","","","","-7","","Snow"
"-124.90","49.72","COMOX A","1021830","2019-02-12 07:00","2019","02","12","07:00","-3.0","","-3.0","","100","","","","30","","11","","6.4","","100.34","","","","-7","","Snow"
"-124.90","49.72","COMOX A","1021830","2019-02-12 08:00","2019","02","12","08:00","-2.9","","-2.9","","100","","","","31","","9","","4.0","","100.34","","","","-6","","Snow"
"-124.90","49.72","COMOX A","1021830","2019-02-12 09:00","2019","02","12","09:00","-2.7","","-2.7","","100","","","","31","","11","","4.0","","100.34","","","","-7","","Snow"
"-124.90","49.72","COMOX A","1021830","2019-02-12 10:00","2019","02","12","10:00","-2.2","","-2.6","","97","","","","32","","13","","11.3","","100.33","","","","-7","","Snow"
"-124.90","49.72","COMOX A","1021830","2019-02-12 11:00","2019","02","12","11:00","-1.9","","-2.2","","98","","","","32","","13","","19.3","","100.31","","","","-6","","Cloudy"
"-124.90","49.72","COMOX A","1021830","2019-02-12 12:00","2019","02","12","12:00","-2.2","","-2.2","","100","","","","31","","9","","0.4","","100.30","","","","-6","","Heavy Snow"
"-124.90","49.72","COMOX A","1021830","2019-02-12 13:00","2019","02","12","13:00","-1.9","","-1.9","","100","","","","31","","9","","1.2","","100.28","","","","-5","","Snow"
"-124.90","49.72","COMOX A","1021830","2019-02-12 14:00","2019","02","12","14:00","-1.0","","-1.4","","97","","","","33","","17","","4.0","","100.22","","","","-6","","Snow"
"-124.90","49.72","COMOX A","1021830","2019-02-12 15:00","2019","02","12","15:00","-0.5","","-1.5","","93","","","","32","","15","","24.1","","100.21","","","","-5","","Cloudy"
"-124.90","49.72","COMOX A","1021830","2019-02-12 16:00","2019","02","12","16:00","-0.6","","-1.8","","92","","","","31","","8","","32.2","","100.21","","","","-3","","Cloudy"
"-124.90","49.72","COMOX A","1021830","2019-02-12 17:00","2019","02","12","17:00","-0.8","","-1.7","","94","","","","30","","8","","32.2","","100.25","","","","-4","","Cloudy"
"-124.90","49.72","COMOX A","1021830","2019-02-12 18:00","2019","02","12","18:00","-0.8","","-1.8","","93","","","","27","","5","","32.2","","100.24","","","","-2","","Cloudy"
"-124.90","49.72","COMOX A","1021830","2019-02-12 19:00","2019","02","12","19:00","-1.2","","-1.8","","96","","","","29","","5","","24.1","","100.27","","","","-3","","Snow,Snow Showers"
"-124.90","49.72","COMOX A","1021830","2019-02-12 20:00","2019","02","12","20:00","-1.6","","-1.8","","99","","","","30","","8","","6.4","","100.25","","","","-5","","Snow"
"-124.90","49.72","COMOX A","1021830","2019-02-12 21:00","2019","02","12","21:00","-2.0","","-2.0","","100","","","","29","","9","","4.0","","100.25","","","","-5","","Snow"
"-124.90","49.72","COMOX A","1021830","2019-02-12 22:00","2019","02","12","22:00","-2.0","","-2.0","","100","","","","31","","8","","9.7","","100.27","","","","-5","","Snow"
"-124.90","49.72","COMOX A","1021830","2019-02-12 23:00","2019","02","12","23:00","-1.9","","-1.9","","100","","","","30","","9","","11.3","","100.28","","","","-5","","Snow"
"-124.90","49.72","COMOX A","1021830","2019-02-13 00:00","2019","02","13","00:00","-2.0","","-2.0","","100","","","","31","","11","","19.3","","100.26","","","","-6","","Snow"
"-124.90","49.72","COMOX A","1021830","2019-02-13 01:00","2019","02","13","01:00","-1.8","","-2.1","","98","","","","31","","13","","24.1","","100.26","","","","-6","","Snow"
"-124.90","49.72","COMOX A","1021830","2019-02-13 02:00","2019","02","13","02:00","-1.8","","-2.6","","94","","","","32","","15","","19.3","","100.25","","","","-7","","Snow"
"-124.90","49.72","COMOX A","1021830","2019-02-13 03:00","2019","02","13","03:00","-1.6","","-3.0","","90","","","","32","","17","","24.1","","100.26","","","","-7","","Cloudy"
"-124.90","49.72","COMOX A","1021830","2019-02-13 04:00","2019","02","13","04:00","-1.5","","-3.4","","87","","","","32","","18","","24.1","","100.21","","","","-7","","Cloudy"
"-124.90","49.72","COMOX A","1021830","2019-02-13 05:00","2019","02","13","05:00","-1.8","","-3.9","","86","","","","32","","15","","24.1","","100.23","","","","-7","","Mostly Cloudy"
"-124.90","49.72","COMOX A","1021830","2019-02-13 06:00","2019","02","13","06:00","-2.2","","-3.9","","88","","","","31","","13","","24.1","","100.23","","","","-7","","Mostly Cloudy"
"-124.90","49.72","COMOX A","1021830","2019-02-13 07:00","2019","02","13","07:00","-2.6","","-4.4","","87","","","","31","","9","","32.2","","100.22","","","","-6","","Mostly Cloudy"
"-124.90","49.72","COMOX A","1021830","2019-02-13 08:00","2019","02","13","08:00","-3.6","","-4.9","","91","","","","31","","11","","32.2","","100.24","","","","-8","","Mainly Clear"
"-124.90","49.72","COMOX A","1021830","2019-02-13 09:00","2019","02","13","09:00","-2.5","","-4.1","","89","","","","29","","8","","32.2","","100.29","","","","-6","","Mainly Clear"
"-124.90","49.72","COMOX A","1021830","2019-02-13 10:00","2019","02","13","10:00","-1.6","","-4.1","","83","","","","30","","11","","32.2","","100.29","","","","-5","","Mainly Clear"
"-124.90","49.72","COMOX A","1021830","2019-02-13 11:00","2019","02","13","11:00","-0.3","","-3.9","","77","","","","30","","5","","32.2","","100.30","","","","-2","","Mainly Clear"
"-124.90","49.72","COMOX A","1021830","2019-02-13 12:00","2019","02","13","12:00","0.4","","-4.1","","72","","","","3","","5","","32.2","","100.28","","","","","","Clear"
"-124.90","49.72","COMOX A","1021830","2019-02-13 13:00","2019","02","13","13:00","0.9","","-3.8","","71","","","","35","","5","","32.2","","100.23","","","","","","Clear"
"-124.90","49.72","COMOX A","1021830","2019-02-13 14:00","2019","02","13","14:00","1.6","","-2.8","","73","","","","5","","5","","32.2","","100.18","","","","","","Clear"
"-124.90","49.72","COMOX A","1021830","2019-02-13 15:00","2019","02","13","15:00","1.4","","-3.4","","70","","","","3","","5","","32.2","","100.14","","","","","","Clear"
"-124.90","49.72","COMOX A","1021830","2019-02-13 16:00","2019","02","13","16:00","1.3","","-3.4","","71","","","","5","","4","","32.2","","100.13","","","","","","Clear"
"-124.90","49.72","COMOX A","1021830","2019-02-13 17:00","2019","02","13","17:00","1.8","","-3.1","","70","","","","","","0","","32.2","","100.10","","","","","","Clear"
"-124.90","49.72","COMOX A","1021830","2019-02-13 18:00","2019","02","13","18:00","-2.0","","-2.0","","100","","","","","","0","","32.2","","100.08","","","","","","Clear"
"-124.90","49.72","COMOX A","1021830","2019-02-13 19:00","2019","02","13","19:00","-2.6","","-2.6","","100","","","","","","0","","32.2","","100.06","","","","","","Mainly Clear"
"-124.90","49.72","COMOX A","1021830","2019-02-13 20:00","2019","02","13","20:00","-3.6","","-3.6","","100","","","","","","0","","32.2","","100.02","","","","","","Mainly Clear"
"-124.90","49.72","COMOX A","1021830","2019-02-13 21:00","2019","02","13","21:00","-5.2","","-5.2","","100","","","","28","","8","","32.2","","99.95","","","","-9","","Clear"
"-124.90","49.72","COMOX A","1021830","2019-02-13 22:00","2019","02","13","22:00","-4.4","","-4.4","","100","","","","","","0","","32.2","","99.92","","","","","","Clear"
"-124.90","49.72","COMOX A","1021830","2019-02-13 23:00","2019","02","13","23:00","-4.9","","-4.9","","100","","","","","","0","","32.2","","99.86","","","","","","Clear"
"-124.90","49.72","COMOX A","1021830","2019-02-14 00:00","2019","02","14","00:00","-5.4","","-5.4","","100","","","","","","0","","32.2","","99.79","","","","","","Clear"
"-124.90","49.72","COMOX A","1021830","2019-02-14 01:00","2019","02","14","01:00","-5.1","","-5.2","","99","","","","","","0","","32.2","","99.74","","","","","","Clear"
"-124.90","49.72","COMOX A","1021830","2019-02-14 02:00","2019","02","14","02:00","-5.6","","-5.6","","100","","","","","","0","","32.2","","99.63","","","","","","Mainly Clear"
"-124.90","49.72","COMOX A","1021830","2019-02-14 03:00","2019","02","14","03:00","-5.7","","-5.7","","100","","","","27","","4","","32.2","","99.54","","","","-8","","Mostly Cloudy"
"-124.90","49.72","COMOX A","1021830","2019-02-14 04:00","2019","02","14","04:00","-5.7","","-5.7","","100","","","","","","0","","32.2","","99.47","","","","","","Mostly Cloudy"
"-124.90","49.72","COMOX A","1021830","2019-02-14 05:00","2019","02","14","05:00","-5.3","","-5.4","","99","","","","28","","5","","32.2","","99.43","","","","-8","","Mostly Cloudy"
"-124.90","49.72","COMOX A","1021830","2019-02-14 06:00","2019","02","14","06:00","-4.5","","-4.6","","99","","","","","","0","","32.2","","99.35","","","","","","Cloudy"
"-124.90","49.72","COMOX A","1021830","2019-02-14 07:00","2019","02","14","07:00","-4.1","","-4.1","","100","","","","29","","5","","32.2","","99.23","","","","-6","","Mostly Cloudy"
"-124.90","49.72","COMOX A","1021830","2019-02-14 08:00","2019","02","14","08:00","-2.3","","-2.6","","98","","","","28","","5","","32.2","","99.12","","","","-4","","Cloudy"
"-124.90","49.72","COMOX A","1021830","2019-02-14 09:00","2019","02","14","09:00","-1.4","","-1.6","","99","","","","30","","5","","32.2","","99.05","","","","-3","","Cloudy"
"-124.90","49.72","COMOX A","1021830","2019-02-14 10:00","2019","02","14","10:00","-0.3","","-1.3","","93","","","","29","","5","","32.2","","98.97","","","","-2","","Cloudy"
"-124.90","49.72","COMOX A","1021830","2019-02-14 11:00","2019","02","14","11:00","0.9","","-0.5","","90","","","","29","","4","","32.2","","98.90","","","","","","Cloudy"
"-124.90","49.72","COMOX A","1021830","2019-02-14 12:00","2019","02","14","12:00","1.2","","-0.5","","88","","","","31","","4","","24.1","","98.85","","","","","","Cloudy"
"-124.90","49.72","COMOX A","1021830","2019-02-14 13:00","2019","02","14","13:00","1.5","","-0.1","","89","","","","34","","8","","9.7","","98.76","","","","","","Snow"
"-124.90","49.72","COMOX A","1021830","2019-02-14 14:00","2019","02","14","14:00","1.2","","0.5","","95","","","","34","","5","","4.8","","98.66","","","","","","Snow"
"-124.90","49.72","COMOX A","1021830","2019-02-14 15:00","2019","02","14","15:00","1.1","","0.4","","95","","","","34","","5","","4.0","","98.58","","","","","","Snow"
"-124.90","49.72","COMOX A","1021830","2019-02-14 16:00","2019","02","14","16:00","0.7","","0.7","","100","","","","33","","5","","4.8","","98.53","","","","","","Snow"
"-124.90","49.72","COMOX A","1021830","2019-02-14 17:00","2019","02","14","17:00","0.5","","0.5","","100","","","","31","","4","","2.4","","98.53","","","","","","Snow"
"-124.90","49.72","COMOX A","1021830","2019-02-14 18:00","2019","02","14","18:00","0.3","","0.3","","100","","","","30","","4","","2.4","","98.55","","","","","","Snow"
"-124.90","49.72","COMOX A","1021830","2019-02-14 19:00","2019","02","14","19:00","0.2","","0.2","","100","","","","","","0","","1.6","","98.62","","","","","","Snow"
"-124.90","49.72","COMOX A","1021830","2019-02-14 20:00","2019","02","14","20:00","0.1","","0.1","","100","","","","28","","4","","2.0","","98.69","","","","","","Snow"
"-124.90","49.72","COMOX A","1021830","2019-02-14 21:00","2019","02","14","21:00","-0.1","","-0.1","","100","","","","","","0","","1.6","","98.79","","","","","","Snow"
"-124.90","49.72","COMOX A","1021830","2019-02-14 22:00","2019","02","14","22:00","-0.1","","-0.1","","100","","","","","","0","","2.0","","98.92","","","","","","Snow"
"-124.90","49.72","COMOX A","1021830","2019-02-14 23:00","2019","02","14","23:00","-0.3","","-0.3","","100","","","","","","0","","2.4","","98.99","","","","","","Snow"
"-124.90","49.72","COMOX A","1021830","2019-02-15 00:00","2019","02","15","00:00","-0.2","","-0.2","","100","","","","30","","4","","1.6","","99.08","","","","-1","","Snow"
"-124.90","49.72","COMOX A","1021830","2019-02-15 01:00","2019","02","15","01:00","-0.2","","-0.2","","100","","","","30","","4","","2.8","","99.18","","","","-1","","Snow"
"-124.90","49.72","COMOX A","1021830","2019-02-15 02:00","2019","02","15","02:00","-0.1","","-0.1","","100","","","","30","","4","","2.8","","99.27","","","","-1","","Snow"
"-124.90","49.72","COMOX A","1021830","2019-02-15 03:00","2019","02","15","03:00","0.0","","0.0","","100","","","","31","","5","","2.8","","99.35","","","","-2","","Snow"
"-124.90","49.72","COMOX A","1021830","2019-02-15 04:00","2019","02","15","04:00","0.1","","0.1","","100","","","","31","","4","","3.2","","99.41","","","","","","Snow"
"-124.90","49.72","COMOX A","1021830","2019-02-15 05:00","2019","02","15","05:00","0.1","","0.1","","100","","","","30","","4","","4.0","","99.48","","","","","","Snow"
"-124.90","49.72","COMOX A","1021830","2019-02-15 06:00","2019","02","15","06:00","0.1","","0.1","","100","","","","29","","4","","4.8","","99.54","","","","","","Rain,Snow"
"-124.90","49.72","COMOX A","1021830","2019-02-15 07:00","2019","02","15","07:00","0.3","","0.3","","100","","","","29","","9","","6.4","","99.60","","","","","","Rain,Snow"
"-124.90","49.72","COMOX A","1021830","2019-02-15 08:00","2019","02","15","08:00","0.4","","0.4","","100","","","","31","","5","","9.7","","99.69","","","","","","Rain,Fog"
"-124.90","49.72","COMOX A","1021830","2019-02-15 09:00","2019","02","15","09:00","0.6","","0.6","","100","","","","30","","5","","14.5","","99.79","","","","","","Rain,Snow Grains"
"-124.90","49.72","COMOX A","1021830","2019-02-15 10:00","2019","02","15","10:00","1.0","","1.0","","100","","","","30","","8","","12.9","","99.88","","","","","","Rain,Snow Grains"
"-124.90","49.72","COMOX A","1021830","2019-02-15 11:00","2019","02","15","11:00","1.4","","1.4","","100","","","","30","","5","","16.1","","99.92","","","","","","Rain"
"-124.90","49.72","COMOX A","1021830","2019-02-15 12:00","2019","02","15","12:00","2.2","","2.2","","100","","","","32","","8","","16.1","","99.99","","","","","","Rain"
"-124.90","49.72","COMOX A","1021830","2019-02-15 13:00","2019","02","15","13:00","2.5","","2.5","","100","","","","33","","4","","32.2","","100.01","","","","","","Cloudy"
"-124.90","49.72","COMOX A","1021830","2019-02-15 14:00","2019","02","15","14:00","2.7","","2.7","","100","","","","33","","5","","32.2","","100.02","","","","","","Cloudy"
"-124.90","49.72","COMOX A","1021830","2019-02-15 15:00","2019","02","15","15:00","3.0","","3.0","","100","","","","34","","4","","32.2","","100.07","","","","","","Cloudy"
"-124.90","49.72","COMOX A","1021830","2019-02-15 16:00","2019","02","15","16:00","3.5","","3.2","","98","","","","","","0","","32.2","","100.11","","","","","","Cloudy"
"-124.90","49.72","COMOX A","1021830","2019-02-15 17:00","2019","02","15","17:00","3.1","","3.1","","100","","","","","","0","","32.2","","100.14","","","","","","Cloudy"
"-124.90","49.72","COMOX A","1021830","2019-02-15 18:00","2019","02","15","18:00","2.7","","2.7","","100","","","","27","","4","","32.2","","100.17","","","","","","Cloudy"
"-124.90","49.72","COMOX A","1021830","2019-02-15 19:00","2019","02","15","19:00","2.4","","2.4","","100","","","","26","","4","","32.2","","100.20","","","","","","Cloudy"
"-124.90","49.72","COMOX A","1021830","2019-02-15 20:00","2019","02","15","20:00","2.1","","2.1","","100","","","","","","0","","19.3","","100.23","","","","","","Drizzle"
"-124.90","49.72","COMOX A","1021830","2019-02-15 21:00","2019","02","15","21:00","2.1","","2.1","","100","","","","27","","4","","12.9","","100.25","","","","","","Cloudy"
"-124.90","49.72","COMOX A","1021830","2019-02-15 22:00","2019","02","15","22:00","2.1","","2.1","","100","","","","","","0","","9.7","","100.28","","","","","","Fog"
"-124.90","49.72","COMOX A","1021830","2019-02-15 23:00","2019","02","15","23:00","2.6","","2.6","","100","","","","22","","8","","19.3","","100.32","","","","","","Cloudy"
"-124.90","49.72","COMOX A","1021830","2019-02-16 00:00","2019","02","16","00:00","2.7","","2.7","","100","","","","23","","4","","24.1","","100.35","","","","","","Cloudy"
"-124.90","49.72","COMOX A","1021830","2019-02-16 01:00","2019","02","16","01:00","2.5","","2.5","","100","","","","22","","5","","24.1","","100.37","","","","","","Cloudy"
"-124.90","49.72","COMOX A","1021830","2019-02-16 02:00","2019","02","16","02:00","2.6","","2.6","","100","","","","22","","4","","24.1","","100.40","","","","","","Cloudy"
"-124.90","49.72","COMOX A","1021830","2019-02-16 03:00","2019","02","16","03:00","2.7","","2.7","","100","","","","21","","5","","24.1","","100.44","","","","","","Cloudy"
"-124.90","49.72","COMOX A","1021830","2019-02-16 04:00","2019","02","16","04:00","2.8","","2.8","","100","","","","27","","4","","12.9","","100.45","","","","","","Cloudy"
"-124.90","49.72","COMOX A","1021830","2019-02-16 05:00","2019","02","16","05:00","2.4","","2.4","","100","","","","","","0","","19.3","","100.48","","","","","","Cloudy"
"-124.90","49.72","COMOX A","1021830","2019-02-16 06:00","2019","02","16","06:00","2.0","","2.0","","100","","","","29","","4","","12.9","","100.51","","","","","","Cloudy"
"-124.90","49.72","COMOX A","1021830","2019-02-16 07:00","2019","02","16","07:00","2.3","","2.3","","100","","","","31","","5","","19.3","","100.54","","","","","","Cloudy"
"-124.90","49.72","COMOX A","1021830","2019-02-16 08:00","2019","02","16","08:00","2.3","","2.3","","100","","","","33","","11","","16.1","","100.59","","","","","","Cloudy"
"-124.90","49.72","COMOX A","1021830","2019-02-16 09:00","2019","02","16","09:00","2.0","","2.0","","100","","","","32","","15","","2.0","","100.64","","","","","","Rain,Fog"
"-124.90","49.72","COMOX A","1021830","2019-02-16 10:00","2019","02","16","10:00","1.8","","1.8","","100","","","","32","","22","","12.9","","100.69","","","","","","Cloudy"
"-124.90","49.72","COMOX A","1021830","2019-02-16 11:00","2019","02","16","11:00","1.7","","1.7","","100","","","","32","","21","","4.8","","100.74","","","","","","Rain,Fog"
"-124.90","49.72","COMOX A","1021830","2019-02-16 12:00","2019","02","16","12:00","1.7","","1.6","","99","","","","33","","15","","12.9","","100.80","","","","","","Rain"
"-124.90","49.72","COMOX A","1021830","2019-02-16 13:00","2019","02","16","13:00","2.0","","1.4","","96","","","","32","","17","","12.9","","100.79","","","","","","Cloudy"
"-124.90","49.72","COMOX A","1021830","2019-02-16 14:00","2019","02","16","14:00","2.2","","1.3","","94","","","","31","","15","","16.1","","100.81","","","","","","Cloudy"
"-124.90","49.72","COMOX A","1021830","2019-02-16 15:00","2019","02","16","15:00","2.1","","1.1","","93","","","","32","","21","","12.9","","100.85","","","","","","Rain"
"-124.90","49.72","COMOX A","1021830","2019-02-16 16:00","2019","02","16","16:00","2.1","","1.0","","92","","","","32","","15","","12.9","","100.88","","","","","","Rain"
"-124.90","49.72","COMOX A","1021830","2019-02-16 17:00","2019","02","16","17:00","2.2","","0.3","","87","","","","32","","13","","16.1","","100.92","","","","","","Cloudy"
"-124.90","49.72","COMOX A","1021830","2019-02-16 18:00","2019","02","16","18:00","2.1","","-0.1","","85","","","","32","","15","","32.2","","100.96","","","","","","Cloudy"
"-124.90","49.72","COMOX A","1021830","2019-02-16 19:00","2019","02","16","19:00","2.0","","-0.6","","83","","","","32","","15","","32.2","","101.01","","","","","","Cloudy"
"-124.90","49.72","COMOX A","1021830","2019-02-16 20:00","2019","02","16","20:00","2.0","","-0.8","","82","","","","31","","15","","32.2","","101.05","","","","","","Mostly Cloudy"
"-124.90","49.72","COMOX A","1021830","2019-02-16 21:00","2019","02","16","21:00","2.1","","-1.1","","79","","","","32","","15","","32.2","","101.08","","","","","","Mostly Cloudy"
"-124.90","49.72","COMOX A","1021830","2019-02-16 22:00","2019","02","16","22:00","2.1","","-1.3","","78","","","","33","","17","","32.2","","101.15","","","","","","Mostly Cloudy"
"-124.90","49.72","COMOX A","1021830","2019-02-16 23:00","2019","02","16","23:00","2.1","","-1.4","","78","","","","32","","11","","32.2","","101.21","","","","","","Cloudy"
"-124.90","49.72","COMOX A","1021830","2019-02-17 00:00","2019","02","17","00:00","2.0","","-1.5","","78","","","","31","","15","","32.2","","101.27","","","","","","Cloudy"
"-124.90","49.72","COMOX A","1021830","2019-02-17 01:00","2019","02","17","01:00","2.1","","-1.5","","77","","","","32","","17","","32.2","","101.35","","","","","","Cloudy"
"-124.90","49.72","COMOX A","1021830","2019-02-17 02:00","2019","02","17","02:00","1.9","","-1.4","","79","","","","32","","13","","32.2","","101.43","","","","","","Mostly Cloudy"
"-124.90","49.72","COMOX A","1021830","2019-02-17 03:00","2019","02","17","03:00","1.4","","-1.7","","80","","","","31","","13","","32.2","","101.49","","","","","","Mainly Clear"
"-124.90","49.72","COMOX A","1021830","2019-02-17 04:00","2019","02","17","04:00","1.3","","-1.8","","80","","","","32","","13","","32.2","","101.56","","","","","","Mainly Clear"
"-124.90","49.72","COMOX A","1021830","2019-02-17 05:00","2019","02","17","05:00","1.4","","-1.9","","79","","","","32","","13","","32.2","","101.62","","","","","","Clear"
"-124.90","49.72","COMOX A","1021830","2019-02-17 06:00","2019","02","17","06:00","0.9","","-2.0","","81","","","","31","","9","","32.2","","101.70","","","","","","Clear"
"-124.90","49.72","COMOX A","1021830","2019-02-17 07:00","2019","02","17","07:00","0.9","","-2.1","","80","","","","31","","11","","32.2","","101.76","","","","","","Clear"
"-124.90","49.72","COMOX A","1021830","2019-02-17 08:00","2019","02","17","08:00","1.3","","-2.1","","78","","","","30","","8","","32.2","","101.85","","","","","","Mainly Clear"
"-124.90","49.72","COMOX A","1021830","2019-02-17 09:00","2019","02","17","09:00","1.8","","-1.6","","78","","","","29","","11","","32.2","","101.95","","","","","","Clear"
"-124.90","49.72","COMOX A","1021830","2019-02-17 10:00","2019","02","17","10:00","3.5","","-1.6","","69","","","","34","","17","","32.2","","102.01","","","","","","Clear"
"-124.90","49.72","COMOX A","1021830","2019-02-17 11:00","2019","02","17","11:00","3.9","","-1.2","","69","","","","34","","22","","32.2","","102.06","","","","","","Clear"
"-124.90","49.72","COMOX A","1021830","2019-02-17 12:00","2019","02","17","12:00","4.1","","-0.9","","70","","","","35","","24","","32.2","","102.10","","","","","","Clear"
"-124.90","49.72","COMOX A","1021830","2019-02-17 13:00","2019","02","17","13:00","4.7","","-0.3","","70","","","","36","","18","","32.2","","102.10","","","","","","Clear"
"-124.90","49.72","COMOX A","1021830","2019-02-17 14:00","2019","02","17","14:00","5.0","","-0.3","","69","","","","36","","15","","32.2","","102.10","","","","","","Clear"
"-124.90","49.72","COMOX A","1021830","2019-02-17 15:00","2019","02","17","15:00","5.2","","0.1","","70","","","","36","","13","","32.2","","102.10","","","","","","Clear"
"-124.90","49.72","COMOX A","1021830","2019-02-17 16:00","2019","02","17","16:00","5.3","","0.2","","70","","","","36","","9","","32.2","","102.12","","","","","","Clear"
"-124.90","49.72","COMOX A","1021830","2019-02-17 17:00","2019","02","17","17:00","4.8","","1.0","","76","","","","35","","8","","32.2","","102.15","","","","","","Clear"
"-124.90","49.72","COMOX A","1021830","2019-02-17 18:00","2019","02","17","18:00","3.0","","0.7","","85","","","","","","0","","32.2","","102.20","","","","","","Clear"
"-124.90","49.72","COMOX A","1021830","2019-02-17 19:00","2019","02","17","19:00","1.9","","0.2","","88","","","","29","","4","","32.2","","102.26","","","","","","Clear"
"-124.90","49.72","COMOX A","1021830","2019-02-17 20:00","2019","02","17","20:00","1.9","","-0.1","","87","","","","29","","8","","32.2","","102.30","","","","","","Clear"
"-124.90","49.72","COMOX A","1021830","2019-02-17 21:00","2019","02","17","21:00","1.8","","-0.2","","87","","","","29","","11","","32.2","","102.35","","","","","","Clear"
"-124.90","49.72","COMOX A","1021830","2019-02-17 22:00","2019","02","17","22:00","1.1","","0.0","","92","","","","29","","9","","32.2","","102.43","","","","","","Clear"
"-124.90","49.72","COMOX A","1021830","2019-02-17 23:00","2019","02","17","23:00","0.8","","0.0","","94","","","","29","","9","","32.2","","102.48","","","","","","Clear"
"-124.90","49.72","COMOX A","1021830","2019-02-18 00:00","2019","02","18","00:00","0.6","","0.0","","96","","","","28","","5","","32.2","","102.52","","","","","","Clear"
"-124.90","49.72","COMOX A","1021830","2019-02-18 01:00","2019","02","18","01:00","0.2","","-0.2","","97","","","","28","","9","","32.2","","102.53","","","","","","Clear"
"-124.90","49.72","COMOX A","1021830","2019-02-18 02:00","2019","02","18","02:00","-0.1","","-0.3","","99","","","","28","","9","","32.2","","102.55","","","","-3","","Clear"
"-124.90","49.72","COMOX A","1021830","2019-02-18 03:00","2019","02","18","03:00","0.2","","-0.3","","96","","","","29","","9","","32.2","","102.56","","","","","","Clear"
"-124.90","49.72","COMOX A","1021830","2019-02-18 04:00","2019","02","18","04:00","-0.1","","-0.2","","99","","","","28","","11","","32.2","","102.57","","","","-4","","Mainly Clear"
"-124.90","49.72","COMOX A","1021830","2019-02-18 05:00","2019","02","18","05:00","-0.3","","-0.5","","99","","","","31","","8","","32.2","","102.58","","","","-3","","Mainly Clear"
"-124.90","49.72","COMOX A","1021830","2019-02-18 06:00","2019","02","18","06:00","-0.8","","-0.8","","100","","","","29","","8","","32.2","","102.59","","","","-4","","Mostly Cloudy"
"-124.90","49.72","COMOX A","1021830","2019-02-18 07:00","2019","02","18","07:00","-1.8","","-1.8","","100","","","","30","","5","","32.2","","102.60","","","","-4","","Mainly Clear"
"-124.90","49.72","COMOX A","1021830","2019-02-18 08:00","2019","02","18","08:00","-1.6","","-1.8","","99","","","","29","","8","","32.2","","102.63","","","","-5","","Mainly Clear"
"-124.90","49.72","COMOX A","1021830","2019-02-18 09:00","2019","02","18","09:00","0.9","","-0.9","","88","","","","33","","8","","32.2","","102.65","","","","","","Mainly Clear"
"-124.90","49.72","COMOX A","1021830","2019-02-18 10:00","2019","02","18","10:00","2.0","","-0.3","","85","","","","34","","13","","32.2","","102.68","","","","","","Mostly Cloudy"
"-124.90","49.72","COMOX A","1021830","2019-02-18 11:00","2019","02","18","11:00","2.5","","-0.1","","83","","","","34","","9","","32.2","","102.69","","","","","","Mostly Cloudy"
"-124.90","49.72","COMOX A","1021830","2019-02-18 12:00","2019","02","18","12:00","3.2","","-1.1","","73","","","","1","","8","","32.2","","102.67","","","","","","Mostly Cloudy"
"-124.90","49.72","COMOX A","1021830","2019-02-18 13:00","2019","02","18","13:00","3.1","","-0.9","","75","","","","2","","9","","32.2","","102.64","","","","","","Mostly Cloudy"
"-124.90","49.72","COMOX A","1021830","2019-02-18 14:00","2019","02","18","14:00","3.5","","-0.3","","76","","","","2","","9","","32.2","","102.60","","","","","","Mostly Cloudy"
"-124.90","49.72","COMOX A","1021830","2019-02-18 15:00","2019","02","18","15:00","3.6","","-0.3","","76","","","","7","","8","","32.2","","102.55","","","","","","Mainly Clear"
"-124.90","49.72","COMOX A","1021830","2019-02-18 16:00","2019","02","18","16:00","3.5","","-0.1","","77","","","","9","","4","","32.2","","102.51","","","","","","Mainly Clear"
"-124.90","49.72","COMOX A","1021830","2019-02-18 17:00","2019","02","18","17:00","3.1","","-0.4","","78","","","","18","","4","","32.2","","102.52","","","","","","Mainly Clear"
"-124.90","49.72","COMOX A","1021830","2019-02-18 18:00","2019","02","18","18:00","0.9","","-1.0","","87","","","","20","","4","","32.2","","102.49","","","","","","Mainly Clear"
"-124.90","49.72","COMOX A","1021830","2019-02-18 19:00","2019","02","18","19:00","0.5","","-1.1","","89","","","","","","0","","32.2","","102.49","","","","","","Mostly Cloudy"
"-124.90","49.72","COMOX A","1021830","2019-02-18 20:00","2019","02","18","20:00","1.3","","-0.4","","88","","","","28","","5","","32.2","","102.50","","","","","","Mostly Cloudy"
"-124.90","49.72","COMOX A","1021830","2019-02-18 21:00","2019","02","18","21:00","1.5","","0.3","","92","","","","","","0","","32.2","","102.41","","","","","","Cloudy"
"-124.90","49.72","COMOX A","1021830","2019-02-18 22:00","2019","02","18","22:00","1.0","","-0.1","","92","","","","31","","4","","32.2","","102.38","","","","","","Mostly Cloudy"
"-124.90","49.72","COMOX A","1021830","2019-02-18 23:00","2019","02","18","23:00","2.2","","-0.7","","81","","","","28","","8","","32.2","","102.39","","","","","","Cloudy"
"-124.90","49.72","COMOX A","1021830","2019-02-19 00:00","2019","02","19","00:00","1.4","","-0.2","","89","","","","29","","4","","32.2","","102.36","","","","","","Cloudy"
"-124.90","49.72","COMOX A","1021830","2019-02-19 01:00","2019","02","19","01:00","1.3","","0.2","","92","","","","","","0","","32.2","","102.31","","","","","","Cloudy"
"-124.90","49.72","COMOX A","1021830","2019-02-19 02:00","2019","02","19","02:00","0.8","","0.2","","96","","","","","","0","","32.2","","102.31","","","","","","Cloudy"
"-124.90","49.72","COMOX A","1021830","2019-02-19 03:00","2019","02","19","03:00","1.5","","0.1","","90","","","","28","","4","","32.2","","102.26","","","","","","Cloudy"
"-124.90","49.72","COMOX A","1021830","2019-02-19 04:00","2019","02","19","04:00","1.0","","0.2","","94","","","","24","","4","","32.2","","102.13","","","","","","Cloudy"
"-124.90","49.72","COMOX A","1021830","2019-02-19 05:00","2019","02","19","05:00","0.4","","-0.1","","96","","","","20","","4","","32.2","","102.04","","","","","","Cloudy"
"-124.90","49.72","COMOX A","1021830","2019-02-19 06:00","2019","02","19","06:00","1.2","","-0.2","","90","","","","27","","4","","32.2","","102.03","","","","","","Cloudy"
"-124.90","49.72","COMOX A","1021830","2019-02-19 07:00","2019","02","19","07:00","0.0","","-0.1","","99","","","","","","0","","32.2","","101.92","","","","","","Cloudy"
"-124.90","49.72","COMOX A","1021830","2019-02-19 08:00","2019","02","19","08:00","0.6","","0.2","","97","","","","","","0","","32.2","","101.86","","","","","","Cloudy"
"-124.90","49.72","COMOX A","1021830","2019-02-19 09:00","2019","02","19","09:00","1.3","","0.7","","96","","","","20","","4","","32.2","","101.78","","","","","","Cloudy"
"-124.90","49.72","COMOX A","1021830","2019-02-19 10:00","2019","02","19","10:00","2.9","","1.2","","89","","","","20","","4","","32.2","","101.69","","","","","","Cloudy"
"-124.90","49.72","COMOX A","1021830","2019-02-19 11:00","2019","02","19","11:00","3.5","","1.1","","84","","","","","","0","","24.1","","101.61","","","","","","Rain"
"-124.90","49.72","COMOX A","1021830","2019-02-19 12:00","2019","02","19","12:00","3.5","","1.4","","86","","","","13","","4","","19.3","","101.54","","","","","","Rain"
"-124.90","49.72","COMOX A","1021830","2019-02-19 13:00","2019","02","19","13:00","3.0","","2.1","","94","","","","7","","5","","16.1","","101.44","","","","","","Rain"
"-124.90","49.72","COMOX A","1021830","2019-02-19 14:00","2019","02","19","14:00","2.2","","2.2","","100","","","","9","","9","","8.1","","101.35","","","","","","Rain,Fog"
"-124.90","49.72","COMOX A","1021830","2019-02-19 15:00","2019","02","19","15:00","2.1","","2.1","","100","","","","8","","9","","19.3","","101.26","","","","","","Cloudy"
"-124.90","49.72","COMOX A","1021830","2019-02-19 16:00","2019","02","19","16:00","2.2","","2.2","","100","","","","","","0","","32.2","","101.18","","","","","","Cloudy"
"-124.90","49.72","COMOX A","1021830","2019-02-19 17:00","2019","02","19","17:00","2.3","","2.3","","100","","","","","","0","","24.1","","101.09","","","","","","Cloudy"
"-124.90","49.72","COMOX A","1021830","2019-02-19 18:00","2019","02","19","18:00","2.0","","2.0","","100","","","","30","","4","","24.1","","101.03","","","","","","Rain"
"-124.90","49.72","COMOX A","1021830","2019-02-19 19:00","2019","02","19","19:00","1.8","","1.8","","100","","","","30","","11","","12.9","","101.03","","","","","","Rain,Snow"
"-124.90","49.72","COMOX A","1021830","2019-02-19 20:00","2019","02","19","20:00","1.2","","1.2","","100","","","","33","","8","","24.1","","101.03","","","","","","Cloudy"
"-124.90","49.72","COMOX A","1021830","2019-02-19 21:00","2019","02","19","21:00","0.5","","0.5","","100","","","","32","","9","","32.2","","100.98","","","","","","Mainly Clear"
"-124.90","49.72","COMOX A","1021830","2019-02-19 22:00","2019","02","19","22:00","0.4","","0.4","","100","","","","28","","4","","32.2","","100.97","","","","","","Mostly Cloudy"
"-124.90","49.72","COMOX A","1021830","2019-02-19 23:00","2019","02","19","23:00","0.2","","0.2","","100","","","","25","","9","","1.2","","100.92","","","","","","Fog"
"-124.90","49.72","COMOX A","1021830","2019-02-20 00:00","2019","02","20","00:00","0.4","","0.3","","99","","","","27","","8","","9.7","","100.89","","","","","","Fog"
"-124.90","49.72","COMOX A","1021830","2019-02-20 01:00","2019","02","20","01:00","0.9","","0.8","","99","","","","28","","13","","24.1","","100.88","","","","","","Cloudy"
"-124.90","49.72","COMOX A","1021830","2019-02-20 02:00","2019","02","20","02:00","0.5","","0.5","","100","","","","28","","5","","32.2","","100.87","","","","","","Mainly Clear"
"-124.90","49.72","COMOX A","1021830","2019-02-20 03:00","2019","02","20","03:00","0.6","","0.6","","100","","","","28","","11","","32.2","","100.84","","","","","","Mainly Clear"
"-124.90","49.72","COMOX A","1021830","2019-02-20 04:00","2019","02","20","04:00","0.3","","0.3","","100","","","","28","","9","","32.2","","100.81","","","","","","Mainly Clear"
"-124.90","49.72","COMOX A","1021830","2019-02-20 05:00","2019","02","20","05:00","0.4","","0.4","","100","","","","28","","9","","32.2","","100.80","","","","","","Mainly Clear"
"-124.90","49.72","COMOX A","1021830","2019-02-20 06:00","2019","02","20","06:00","0.8","","0.8","","100","","","","28","","9","","32.2","","100.82","","","","","","Mostly Cloudy"
"-124.90","49.72","COMOX A","1021830","2019-02-20 07:00","2019","02","20","07:00","0.9","","0.9","","100","","","","28","","5","","32.2","","100.86","","","","","","Mostly Cloudy"
"-124.90","49.72","COMOX A","1021830","2019-02-20 08:00","2019","02","20","08:00","1.1","","1.0","","99","","","","29","","9","","32.2","","100.89","","","","","","Mostly Cloudy"
"-124.90","49.72","COMOX A","1021830","2019-02-20 09:00","2019","02","20","09:00","1.3","","0.8","","96","","","","28","","8","","32.2","","100.93","","","","","","Mostly Cloudy"
"-124.90","49.72","COMOX A","1021830","2019-02-20 10:00","2019","02","20","10:00","2.1","","1.7","","97","","","","28","","8","","32.2","","100.96","","","","","","Mostly Cloudy"
"-124.90","49.72","COMOX A","1021830","2019-02-20 11:00","2019","02","20","11:00","3.3","","2.0","","91","","","","33","","17","","32.2","","100.99","","","","","","Mostly Cloudy"
"-124.90","49.72","COMOX A","1021830","2019-02-20 12:00","2019","02","20","12:00","4.5","","2.0","","84","","","","34","","15","","32.2","","101.01","","","","","","Mostly Cloudy"
"-124.90","49.72","COMOX A","1021830","2019-02-20 13:00","2019","02","20","13:00","4.1","","2.2","","87","","","","36","","15","","32.2","","101.03","","","","","","Mostly Cloudy"
"-124.90","49.72","COMOX A","1021830","2019-02-20 14:00","2019","02","20","14:00","5.2","","2.3","","82","","","","34","","15","","32.2","","101.01","","","","","","Mainly Clear"
"-124.90","49.72","COMOX A","1021830","2019-02-20 15:00","2019","02","20","15:00","5.4","","2.8","","83","","","","36","","15","","32.2","","101.04","","","","","","Mainly Clear"
"-124.90","49.72","COMOX A","1021830","2019-02-20 16:00","2019","02","20","16:00","4.8","","2.8","","87","","","","35","","9","","32.2","","101.07","","","","","","Mainly Clear"
"-124.90","49.72","COMOX A","1021830","2019-02-20 17:00","2019","02","20","17:00","5.8","","1.9","","76","","","","34","","13","","32.2","","101.09","","","","","","Clear"
"-124.90","49.72","COMOX A","1021830","2019-02-20 18:00","2019","02","20","18:00","5.3","","1.3","","75","","","","32","","9","","32.2","","101.13","","","","","","Clear"
"-124.90","49.72","COMOX A","1021830","2019-02-20 19:00","2019","02","20","19:00","5.0","","-0.1","","70","","","","33","","17","","32.2","","101.21","","","","","","Clear"
"-124.90","49.72","COMOX A","1021830","2019-02-20 20:00","2019","02","20","20:00","5.0","","-1.0","","65","","","","32","","22","","32.2","","101.28","","","","","","Clear"
"-124.90","49.72","COMOX A","1021830","2019-02-20 21:00","2019","02","20","21:00","4.9","","-1.4","","64","","","","33","","24","","32.2","","101.33","","","","","","Clear"
"-124.90","49.72","COMOX A","1021830","2019-02-20 22:00","2019","02","20","22:00","4.3","","-1.1","","68","","","","33","","24","","32.2","","101.42","","","","","","Clear"
"-124.90","49.72","COMOX A","1021830","2019-02-20 23:00","2019","02","20","23:00","4.3","","-1.3","","67","","","","32","","18","","32.2","","101.51","","","","","","Clear"
"-124.90","49.72","COMOX A","1021830","2019-02-21 00:00","2019","02","21","00:00","4.2","","-1.7","","65","","","","32","","15","","32.2","","101.57","","","","","","Clear"
"-124.90","49.72","COMOX A","1021830","2019-02-21 01:00","2019","02","21","01:00","3.9","","-2.5","","63","","","","32","","13","","32.2","","101.63","","","","","","Clear"
"-124.90","49.72","COMOX A","1021830","2019-02-21 02:00","2019","02","21","02:00","3.7","","-3.0","","62","","","","31","","9","","32.2","","101.70","","","","","","Clear"
"-124.90","49.72","COMOX A","1021830","2019-02-21 03:00","2019","02","21","03:00","2.7","","-3.3","","65","","","","31","","8","","32.2","","101.75","","","","","","Clear"
"-124.90","49.72","COMOX A","1021830","2019-02-21 04:00","2019","02","21","04:00","1.1","","-3.7","","70","","","","31","","9","","32.2","","101.76","","","","","","Clear"
"-124.90","49.72","COMOX A","1021830","2019-02-21 05:00","2019","02","21","05:00","-2.4","","-3.0","","96","","","","21","","5","","32.2","","101.78","","","","-4","","Clear"
"-124.90","49.72","COMOX A","1021830","2019-02-21 06:00","2019","02","21","06:00","-2.0","","-3.6","","89","","","","28","","5","","32.2","","101.80","","","","-4","","Clear"
"-124.90","49.72","COMOX A","1021830","2019-02-21 07:00","2019","02","21","07:00","-2.7","","-3.8","","92","","","","","","0","","32.2","","101.84","","","","","","Clear"
"-124.90","49.72","COMOX A","1021830","2019-02-21 08:00","2019","02","21","08:00","-1.5","","-3.3","","88","","","","27","","8","","32.2","","101.87","","","","-5","","Mainly Clear"
"-124.90","49.72","COMOX A","1021830","2019-02-21 09:00","2019","02","21","09:00","0.8","","-2.7","","77","","","","32","","4","","32.2","","101.89","","","","","","Mostly Cloudy"
"-124.90","49.72","COMOX A","1021830","2019-02-21 10:00","2019","02","21","10:00","3.1","","-1.3","","73","","","","34","","9","","32.2","","101.91","","","","","","Mostly Cloudy"
"-124.90","49.72","COMOX A","1021830","2019-02-21 11:00","2019","02","21","11:00","3.3","","-0.1","","78","","","","33","","5","","32.2","","101.87","","","","","","Mostly Cloudy"
"-124.90","49.72","COMOX A","1021830","2019-02-21 12:00","2019","02","21","12:00","4.2","","-0.3","","72","","","","1","","5","","32.2","","101.82","","","","","","Mostly Cloudy"
"-124.90","49.72","COMOX A","1021830","2019-02-21 13:00","2019","02","21","13:00","4.5","","0.4","","75","","","","4","","8","","32.2","","101.77","","","","","","Mostly Cloudy"
"-124.90","49.72","COMOX A","1021830","2019-02-21 14:00","2019","02","21","14:00","4.8","","-0.2","","70","","","","5","","8","","32.2","","101.72","","","","","","Mostly Cloudy"
"-124.90","49.72","COMOX A","1021830","2019-02-21 15:00","2019","02","21","15:00","4.7","","-0.8","","67","","","","9","","5","","32.2","","101.68","","","","","","Mostly Cloudy"
"-124.90","49.72","COMOX A","1021830","2019-02-21 16:00","2019","02","21","16:00","4.1","","-0.3","","73","","","","10","","8","","32.2","","101.62","","","","","","Mostly Cloudy"
"-124.90","49.72","COMOX A","1021830","2019-02-21 17:00","2019","02","21","17:00","4.0","","-0.8","","71","","","","","","0","","32.2","","101.61","","","","","","Mostly Cloudy"
"-124.90","49.72","COMOX A","1021830","2019-02-21 18:00","2019","02","21","18:00","3.5","","-0.3","","76","","","","","","0","","32.2","","101.60","","","","","","Mostly Cloudy"
"-124.90","49.72","COMOX A","1021830","2019-02-21 19:00","2019","02","21","19:00","1.9","","-0.2","","86","","","","","","0","","32.2","","101.57","","","","","","Cloudy"
"-124.90","49.72","COMOX A","1021830","2019-02-21 20:00","2019","02","21","20:00","1.5","","-0.5","","87","","","","","","0","","32.2","","101.50","","","","","","Cloudy"
"-124.90","49.72","COMOX A","1021830","2019-02-21 21:00","2019","02","21","21:00","1.4","","-0.7","","86","","","","29","","5","","32.2","","101.42","","","","","","Cloudy"
"-124.90","49.72","COMOX A","1021830","2019-02-21 22:00","2019","02","21","22:00","1.4","","-0.3","","88","","","","","","0","","32.2","","101.38","","","","","","Cloudy"
"-124.90","49.72","COMOX A","1021830","2019-02-21 23:00","2019","02","21","23:00","1.4","","0.0","","90","","","","32","","4","","32.2","","101.33","","","","","","Cloudy"
"-124.90","49.72","COMOX A","1021830","2019-02-22 00:00","2019","02","22","00:00","1.5","","0.2","","91","","","","19","","8","","32.2","","101.29","","","","","","Cloudy"
"-124.90","49.72","COMOX A","1021830","2019-02-22 01:00","2019","02","22","01:00","2.7","","1.3","","90","","","","17","","5","","32.2","","101.23","","","","","","Cloudy"
"-124.90","49.72","COMOX A","1021830","2019-02-22 02:00","2019","02","22","02:00","2.2","","1.1","","92","","","","19","","9","","32.2","","101.13","","","","","","Cloudy"
"-124.90","49.72","COMOX A","1021830","2019-02-22 03:00","2019","02","22","03:00","4.6","","1.6","","81","","","","14","","35","","32.2","","101.04","","","","","","Mostly Cloudy"
"-124.90","49.72","COMOX A","1021830","2019-02-22 04:00","2019","02","22","04:00","4.3","","1.1","","80","","","","15","","34","","32.2","","100.90","","","","","","Mostly Cloudy"
"-124.90","49.72","COMOX A","1021830","2019-02-22 05:00","2019","02","22","05:00","4.4","","1.8","","83","","","","14","","39","","32.2","","100.77","","","","","","Cloudy"
"-124.90","49.72","COMOX A","1021830","2019-02-22 06:00","2019","02","22","06:00","3.6","","2.2","","91","","","","13","","46","","32.2","","100.64","","","","","","Cloudy"
"-124.90","49.72","COMOX A","1021830","2019-02-22 07:00","2019","02","22","07:00","3.7","","3.0","","95","","","","14","","35","","19.3","","100.67","","","","","","Rain"
"-124.90","49.72","COMOX A","1021830","2019-02-22 08:00","2019","02","22","08:00","2.9","","2.9","","100","","","","18","","17","","16.1","","100.60","","","","","","Rain"
"-124.90","49.72","COMOX A","1021830","2019-02-22 09:00","2019","02","22","09:00","2.1","","2.1","","100","","","","26","","5","","19.3","","100.66","","","","","","Rain"
"-124.90","49.72","COMOX A","1021830","2019-02-22 10:00","2019","02","22","10:00","2.7","","2.7","","100","","","","32","","21","","19.3","","100.70","","","","","","Mostly Cloudy"
"-124.90","49.72","COMOX A","1021830","2019-02-22 11:00","2019","02","22","11:00","2.8","","2.8","","100","","","","34","","26","","19.3","","100.74","","","","","","Mostly Cloudy"
"-124.90","49.72","COMOX A","1021830","2019-02-22 12:00","2019","02","22","12:00","4.5","","3.8","","95","","","","36","","22","","24.1","","100.79","","","","","","Mostly Cloudy"
"-124.90","49.72","COMOX A","1021830","2019-02-22 13:00","2019","02","22","13:00","5.3","","3.6","","89","","","","36","","9","","32.2","","100.82","","","","","","Mainly Clear"
"-124.90","49.72","COMOX A","1021830","2019-02-22 14:00","2019","02","22","14:00","5.6","","2.3","","79","","","","33","","8","","32.2","","100.82","","","","","","Mainly Clear"
"-124.90","49.72","COMOX A","1021830","2019-02-22 15:00","2019","02","22","15:00","4.8","","2.6","","86","","","","2","","8","","32.2","","100.82","","","","","","Mainly Clear"
"-124.90","49.72","COMOX A","1021830","2019-02-22 16:00","2019","02","22","16:00","6.1","","2.8","","79","","","","9","","5","","32.2","","100.87","","","","","","Mainly Clear"
"-124.90","49.72","COMOX A","1021830","2019-02-22 17:00","2019","02","22","17:00","5.1","","3.0","","86","","","","19","","5","","32.2","","100.88","","","","","","Mainly Clear"
"-124.90","49.72","COMOX A","1021830","2019-02-22 18:00","2019","02","22","18:00","3.8","","2.5","","91","","","","21","","8","","32.2","","100.91","","","","","","Mainly Clear"
"-124.90","49.72","COMOX A","1021830","2019-02-22 19:00","2019","02","22","19:00","2.9","","2.2","","95","","","","","","0","","32.2","","100.93","","","","","","Mainly Clear"
"-124.90","49.72","COMOX A","1021830","2019-02-22 20:00","2019","02","22","20:00","1.5","","1.5","","100","","","","","","0","","32.2","","100.97","","","","","","Mainly Clear"
"-124.90","49.72","COMOX A","1021830","2019-02-22 21:00","2019","02","22","21:00","0.6","","0.6","","100","","","","","","0","","32.2","","101.01","","","","","","Mainly Clear"
"-124.90","49.72","COMOX A","1021830","2019-02-22 22:00","2019","02","22","22:00","-1.1","","-1.1","","100","","","","19","","4","","32.2","","101.08","","","","-2","","Mainly Clear"
"-124.90","49.72","COMOX A","1021830","2019-02-22 23:00","2019","02","22","23:00","-0.9","","-0.9","","100","","","","","","0","","32.2","","101.10","","","","","","Mainly Clear"
"-124.90","49.72","COMOX A","1021830","2019-02-23 00:00","2019","02","23","00:00","-0.9","","-0.9","","100","","","","","","0","","32.2","","101.13","","","","","","Mostly Cloudy"
"-124.90","49.72","COMOX A","1021830","2019-02-23 01:00","2019","02","23","01:00","-1.4","","-1.4","","100","","","","18","","5","","32.2","","101.14","","","","-3","","Mostly Cloudy"
"-124.90","49.72","COMOX A","1021830","2019-02-23 02:00","2019","02","23","02:00","-1.3","","-1.3","","100","","","","21","","5","","32.2","","101.18","","","","-3","","Cloudy"
"-124.90","49.72","COMOX A","1021830","2019-02-23 03:00","2019","02","23","03:00","1.4","","1.4","","100","","","","21","","8","","32.2","","101.21","","","","","","Mostly Cloudy"
"-124.90","49.72","COMOX A","1021830","2019-02-23 04:00","2019","02","23","04:00","3.2","","2.9","","98","","","","16","","15","","32.2","","101.20","","","","","","Cloudy"
"-124.90","49.72","COMOX A","1021830","2019-02-23 05:00","2019","02","23","05:00","3.9","","3.3","","96","","","","15","","22","","32.2","","101.23","","","","","","Cloudy"
"-124.90","49.72","COMOX A","1021830","2019-02-23 06:00","2019","02","23","06:00","3.5","","3.0","","97","","","","19","","11","","24.1","","101.28","","","","","","Rain Showers"
"-124.90","49.72","COMOX A","1021830","2019-02-23 07:00","2019","02","23","07:00","3.9","","3.6","","98","","","","15","","24","","24.1","","101.29","","","","","","Rain Showers"
"-124.90","49.72","COMOX A","1021830","2019-02-23 08:00","2019","02","23","08:00","4.1","","3.8","","98","","","","17","","21","","32.2","","101.34","","","","","","Rain Showers"
"-124.90","49.72","COMOX A","1021830","2019-02-23 09:00","2019","02","23","09:00","3.8","","3.8","","100","","","","17","","24","","24.1","","101.40","","","","","","Rain Showers"
"-124.90","49.72","COMOX A","1021830","2019-02-23 10:00","2019","02","23","10:00","3.1","","3.1","","100","","","","20","","11","","24.1","","101.43","","","","","","Rain Showers"
"-124.90","49.72","COMOX A","1021830","2019-02-23 11:00","2019","02","23","11:00","5.1","","5.0","","99","","","","14","","26","","24.1","","101.44","","","","","","Rain Showers"
"-124.90","49.72","COMOX A","1021830","2019-02-23 12:00","2019","02","23","12:00","6.0","","4.4","","89","","","","14","","28","","32.2","","101.47","","","","","","Mostly Cloudy"
"-124.90","49.72","COMOX A","1021830","2019-02-23 13:00","2019","02","23","13:00","6.4","","4.3","","86","","","","15","","28","","32.2","","101.46","","","","","","Mostly Cloudy"
"-124.90","49.72","COMOX A","1021830","2019-02-23 14:00","2019","02","23","14:00","5.4","","4.4","","93","","","","13","","30","","32.2","","101.46","","","","","","Mostly Cloudy"
"-124.90","49.72","COMOX A","1021830","2019-02-23 15:00","2019","02","23","15:00","5.9","","4.2","","89","","","","15","","22","","32.2","","101.46","","","","","","Cloudy"
"-124.90","49.72","COMOX A","1021830","2019-02-23 16:00","2019","02","23","16:00","4.0","","3.7","","98","","","","16","","17","","32.2","","101.49","","","","","","Rain Showers"
"-124.90","49.72","COMOX A","1021830","2019-02-23 17:00","2019","02","23","17:00","4.5","","4.1","","97","","","","15","","22","","32.2","","101.50","","","","","","Rain Showers"
"-124.90","49.72","COMOX A","1021830","2019-02-23 18:00","2019","02","23","18:00","4.1","","3.9","","99","","","","15","","24","","24.1","","101.49","","","","","","Rain Showers"
"-124.90","49.72","COMOX A","1021830","2019-02-23 19:00","2019","02","23","19:00","3.7","","3.0","","95","","","","14","","21","","24.1","","101.51","","","","","","Rain Showers"
"-124.90","49.72","COMOX A","1021830","2019-02-23 20:00","2019","02","23","20:00","3.7","","2.9","","94","","","","13","","26","","12.9","","101.51","","","","","","Rain Showers"
"-124.90","49.72","COMOX A","1021830","2019-02-23 21:00","2019","02","23","21:00","4.3","","3.0","","91","","","","16","","17","","32.2","","101.53","","","","","","Mostly Cloudy"
"-124.90","49.72","COMOX A","1021830","2019-02-23 22:00","2019","02","23","22:00","3.2","","3.0","","99","","","","18","","17","","24.1","","101.56","","","","","","Rain Showers"
"-124.90","49.72","COMOX A","1021830","2019-02-23 23:00","2019","02","23","23:00","1.9","","1.9","","100","","","","21","","11","","32.2","","101.58","","","","","","Rain Showers"
"-124.90","49.72","COMOX A","1021830","2019-02-24 00:00","2019","02","24","00:00","1.6","","1.6","","100","","","","27","","5","","32.2","","101.56","","","","","","Cloudy"
"-124.90","49.72","COMOX A","1021830","2019-02-24 01:00","2019","02","24","01:00","1.4","","1.4","","100","","","","28","","8","","32.2","","101.54","","","","","","Cloudy"
"-124.90","49.72","COMOX A","1021830","2019-02-24 02:00","2019","02","24","02:00","2.2","","2.2","","100","","","","30","","8","","32.2","","101.51","","","","","","Cloudy"
"-124.90","49.72","COMOX A","1021830","2019-02-24 03:00","2019","02","24","03:00","2.3","","2.3","","100","","","","30","","8","","32.2","","101.47","","","","","","Cloudy"
"-124.90","49.72","COMOX A","1021830","2019-02-24 04:00","2019","02","24","04:00","2.2","","2.1","","99","","","","32","","9","","32.2","","101.43","","","","","","Cloudy"
"-124.90","49.72","COMOX A","1021830","2019-02-24 05:00","2019","02","24","05:00","2.3","","0.8","","90","","","","32","","15","","32.2","","101.40","","","","","","Cloudy"
"-124.90","49.72","COMOX A","1021830","2019-02-24 06:00","2019","02","24","06:00","2.1","","-0.9","","80","","","","32","","13","","32.2","","101.42","","","","","","Mainly Clear"
"-124.90","49.72","COMOX A","1021830","2019-02-24 07:00","2019","02","24","07:00","1.6","","-1.1","","82","","","","31","","8","","32.2","","101.42","","","","","","Mainly Clear"
"-124.90","49.72","COMOX A","1021830","2019-02-24 08:00","2019","02","24","08:00","1.9","","-1.6","","78","","","","33","","13","","32.2","","101.42","","","","","","Mainly Clear"
"-124.90","49.72","COMOX A","1021830","2019-02-24 09:00","2019","02","24","09:00","3.1","","-1.9","","70","","","","32","","17","","32.2","","101.44","","","","","","Clear"
"-124.90","49.72","COMOX A","1021830","2019-02-24 10:00","2019","02","24","10:00","4.1","","-2.2","","63","","","","34","","26","","32.2","","101.44","","","","","","Clear"
"-124.90","49.72","COMOX A","1021830","2019-02-24 11:00","2019","02","24","11:00","4.8","","-2.0","","61","","","","34","","24","","32.2","","101.43","","","","","","Clear"
"-124.90","49.72","COMOX A","1021830","2019-02-24 12:00","2019","02","24","12:00","5.5","","-1.4","","61","","","","34","","21","","32.2","","101.40","","","","","","Clear"
"-124.90","49.72","COMOX A","1021830","2019-02-24 13:00","2019","02","24","13:00","6.1","","-2.7","","53","","","","34","","21","","32.2","","101.36","","","","","","Clear"
"-124.90","49.72","COMOX A","1021830","2019-02-24 14:00","2019","02","24","14:00","6.6","","-2.4","","53","","","","35","","22","","32.2","","101.30","","","","","","Clear"
"-124.90","49.72","COMOX A","1021830","2019-02-24 15:00","2019","02","24","15:00","7.0","","-2.3","","52","","","","35","","18","","32.2","","101.27","","","","","","Clear"
"-124.90","49.72","COMOX A","1021830","2019-02-24 16:00","2019","02","24","16:00","7.0","","-1.7","","54","","","","36","","17","","32.2","","101.26","","","","","","Clear"
"-124.90","49.72","COMOX A","1021830","2019-02-24 17:00","2019","02","24","17:00","6.2","","-1.6","","57","","","","35","","15","","32.2","","101.23","","","","","","Clear"
"-124.90","49.72","COMOX A","1021830","2019-02-24 18:00","2019","02","24","18:00","5.0","","-2.0","","61","","","","32","","11","","32.2","","101.22","","","","","","Clear"
"-124.90","49.72","COMOX A","1021830","2019-02-24 19:00","2019","02","24","19:00","3.6","","-1.8","","68","","","","28","","9","","32.2","","101.26","","","","","","Clear"
"-124.90","49.72","COMOX A","1021830","2019-02-24 20:00","2019","02","24","20:00","2.5","","-2.0","","72","","","","28","","11","","32.2","","101.26","","","","","","Clear"
"-124.90","49.72","COMOX A","1021830","2019-02-24 21:00","2019","02","24","21:00","1.7","","-1.9","","77","","","","29","","8","","32.2","","101.28","","","","","","Mainly Clear"
"-124.90","49.72","COMOX A","1021830","2019-02-24 22:00","2019","02","24","22:00","1.8","","-2.4","","74","","","","28","","9","","32.2","","101.32","","","","","","Mainly Clear"
"-124.90","49.72","COMOX A","1021830","2019-02-24 23:00","2019","02","24","23:00","1.9","","-3.1","","69","","","","31","","8","","32.2","","101.33","","","","","","Mostly Cloudy"
"-124.90","49.72","COMOX A","1021830","2019-02-25 00:00","2019","02","25","00:00","2.1","","-4.3","","63","","","","32","","11","","32.2","","101.32","","","","","","Mostly Cloudy"
"-124.90","49.72","COMOX A","1021830","2019-02-25 01:00","2019","02","25","01:00","2.2","","-5.1","","58","","","","32","","11","","32.2","","101.33","","","","","","Mainly Clear"
"-124.90","49.72","COMOX A","1021830","2019-02-25 02:00","2019","02","25","02:00","2.1","","-5.6","","57","","","","32","","17","","32.2","","101.32","","","","","","Mainly Clear"
"-124.90","49.72","COMOX A","1021830","2019-02-25 03:00","2019","02","25","03:00","1.6","","-5.9","","57","","","","33","","15","","32.2","","101.29","","","","","","Mainly Clear"
"-124.90","49.72","COMOX A","1021830","2019-02-25 04:00","2019","02","25","04:00","0.8","","-6.3","","59","","","","32","","11","","32.2","","101.24","","","","","","Mainly Clear"
"-124.90","49.72","COMOX A","1021830","2019-02-25 05:00","2019","02","25","05:00","0.4","","-6.6","","59","","","","31","","9","","32.2","","101.19","","","","","","Mainly Clear"
"-124.90","49.72","COMOX A","1021830","2019-02-25 06:00","2019","02","25","06:00","0.3","","-7.0","","58","","","","31","","9","","32.2","","101.16","","","","","","Mainly Clear"
"-124.90","49.72","COMOX A","1021830","2019-02-25 07:00","2019","02","25","07:00","0.1","","-7.1","","58","","","","31","","13","","32.2","","101.12","","","","","","Clear"
"-124.90","49.72","COMOX A","1021830","2019-02-25 08:00","2019","02","25","08:00","0.5","","-7.4","","55","","","","32","","13","","32.2","","101.09","","","","","","Clear"
"-124.90","49.72","COMOX A","1021830","2019-02-25 09:00","2019","02","25","09:00","1.8","","-7.2","","51","","","","33","","15","","32.2","","101.08","","","","","","Clear"
"-124.90","49.72","COMOX A","1021830","2019-02-25 10:00","2019","02","25","10:00","2.5","","-6.6","","51","","","","34","","22","","32.2","","101.05","","","","","","Clear"
"-124.90","49.72","COMOX A","1021830","2019-02-25 11:00","2019","02","25","11:00","3.3","","-6.1","","50","","","","34","","17","","32.2","","101.01","","","","","","Clear"
"-124.90","49.72","COMOX A","1021830","2019-02-25 12:00","2019","02","25","12:00","3.9","","-6.3","","47","","","","34","","21","","32.2","","100.97","","","","","","Mainly Clear"
"-124.90","49.72","COMOX A","1021830","2019-02-25 13:00","2019","02","25","13:00","4.9","","-6.1","","45","","","","36","","17","","32.2","","100.90","","","","","","Mainly Clear"
"-124.90","49.72","COMOX A","1021830","2019-02-25 14:00","2019","02","25","14:00","5.0","","-6.9","","42","","","","34","","15","","32.2","","100.84","","","","","","Clear"
"-124.90","49.72","COMOX A","1021830","2019-02-25 15:00","2019","02","25","15:00","5.5","","-6.9","","40","","","","34","","15","","32.2","","100.80","","","","","","Clear"
"-124.90","49.72","COMOX A","1021830","2019-02-25 16:00","2019","02","25","16:00","5.1","","-8.5","","37","","","","34","","13","","32.2","","100.78","","","","","","Clear"
"-124.90","49.72","COMOX A","1021830","2019-02-25 17:00","2019","02","25","17:00","4.7","","-9.6","","35","","","","34","","17","","32.2","","100.76","","","","","","Clear"
"-124.90","49.72","COMOX A","1021830","2019-02-25 18:00","2019","02","25","18:00","3.5","","-11.2","","33","","","","32","","13","","32.2","","100.76","","","","","","Clear"
"-124.90","49.72","COMOX A","1021830","2019-02-25 19:00","2019","02","25","19:00","1.8","","-10.9","","38","","","","29","","9","","32.2","","100.81","","","","","","Clear"
"-124.90","49.72","COMOX A","1021830","2019-02-25 20:00","2019","02","25","20:00","0.6","","-11.1","","41","","","","30","","13","","32.2","","100.88","","","","","","Clear"
"-124.90","49.72","COMOX A","1021830","2019-02-25 21:00","2019","02","25","21:00","1.1","","-11.9","","37","","","","32","","15","","32.2","","100.97","","","","","","Clear"
"-124.90","49.72","COMOX A","1021830","2019-02-25 22:00","2019","02","25","22:00","0.4","","-11.9","","39","","","","32","","8","","32.2","","101.09","","","","","","Clear"
"-124.90","49.72","COMOX A","1021830","2019-02-25 23:00","2019","02","25","23:00","-0.1","","-12.4","","39","","","","31","","8","","32.2","","101.19","","","","-3","","Clear"
"-124.90","49.72","COMOX A","1021830","2019-02-26 00:00","2019","02","26","00:00","0.1","","-12.6","","38","","","","32","","11","","32.2","","101.27","","","","","","Clear"
"-124.90","49.72","COMOX A","1021830","2019-02-26 01:00","2019","02","26","01:00","-0.4","","-12.4","","40","","","","30","","9","","32.2","","101.37","","","","-4","","Clear"
"-124.90","49.72","COMOX A","1021830","2019-02-26 02:00","2019","02","26","02:00","-0.9","","-12.3","","42","","","","30","","11","","32.2","","101.47","","","","-5","","Clear"
"-124.90","49.72","COMOX A","1021830","2019-02-26 03:00","2019","02","26","03:00","-1.0","","-12.3","","42","","","","30","","11","","32.2","","101.54","","","","-5","","Clear"
"-124.90","49.72","COMOX A","1021830","2019-02-26 04:00","2019","02","26","04:00","-1.0","","-12.6","","41","","","","30","","11","","32.2","","101.60","","","","-5","","Clear"
"-124.90","49.72","COMOX A","1021830","2019-02-26 05:00","2019","02","26","05:00","-1.4","","-12.5","","43","","","","30","","9","","32.2","","101.66","","","","-5","","Clear"
"-124.90","49.72","COMOX A","1021830","2019-02-26 06:00","2019","02","26","06:00","-1.6","","-12.5","","43","","","","31","","9","","32.2","","101.74","","","","-5","","Clear"
"-124.90","49.72","COMOX A","1021830","2019-02-26 07:00","2019","02","26","07:00","-1.9","","-12.4","","44","","","","31","","8","","32.2","","101.83","","","","-5","","Clear"
"-124.90","49.72","COMOX A","1021830","2019-02-26 08:00","2019","02","26","08:00","-1.2","","-12.3","","43","","","","30","","11","","32.2","","101.91","","","","-5","","Clear"
"-124.90","49.72","COMOX A","1021830","2019-02-26 09:00","2019","02","26","09:00","0.7","","-12.3","","37","","","","32","","8","","32.2","","102.01","","","","","","Clear"
"-124.90","49.72","COMOX A","1021830","2019-02-26 10:00","2019","02","26","10:00","1.7","","-10.0","","41","","","","34","","11","","32.2","","102.07","","","","","","Clear"
"-124.90","49.72","COMOX A","1021830","2019-02-26 11:00","2019","02","26","11:00","2.1","","-8.4","","46","","","","35","","15","","32.2","","102.11","","","","","","Clear"
"-124.90","49.72","COMOX A","1021830","2019-02-26 12:00","2019","02","26","12:00","2.9","","-8.4","","43","","","","35","","8","","32.2","","102.12","","","","","","Clear"
"-124.90","49.72","COMOX A","1021830","2019-02-26 13:00","2019","02","26","13:00","3.2","","-8.9","","41","","","","4","","8","","32.2","","102.06","","","","","","Clear"
"-124.90","49.72","COMOX A","1021830","2019-02-26 14:00","2019","02","26","14:00","4.0","","-9.3","","37","","","","34","","5","","32.2","","102.00","","","","","","Clear"
"-124.90","49.72","COMOX A","1021830","2019-02-26 15:00","2019","02","26","15:00","3.9","","-10.9","","33","","","","4","","4","","32.2","","101.91","","","","","","Clear"
"-124.90","49.72","COMOX A","1021830","2019-02-26 16:00","2019","02","26","16:00","4.4","","-10.5","","33","","","","","","0","","32.2","","101.82","","","","","","Clear"
"-124.90","49.72","COMOX A","1021830","2019-02-26 17:00","2019","02","26","17:00","3.6","","-11.7","","32","","","","1","","5","","32.2","","101.75","","","","","","Clear"
"-124.90","49.72","COMOX A","1021830","2019-02-26 18:00","2019","02","26","18:00","2.7","","-11.1","","35","","","","","","0","","32.2","","101.73","","","","","","Clear"
"-124.90","49.72","COMOX A","1021830","2019-02-26 19:00","2019","02","26","19:00","-0.7","","-10.1","","49","","","","","","0","","32.2","","101.72","","","","","","Clear"
"-124.90","49.72","COMOX A","1021830","2019-02-26 20:00","2019","02","26","20:00","-2.2","","-9.3","","58","","","","","","0","","32.2","","101.69","","","","","","Clear"
"-124.90","49.72","COMOX A","1021830","2019-02-26 21:00","2019","02","26","21:00","-2.6","","-9.1","","61","","","","","","0","","32.2","","101.63","","","","","","Clear"
"-124.90","49.72","COMOX A","1021830","2019-02-26 22:00","2019","02","26","22:00","-1.4","","-11.4","","46","","","","32","","8","","32.2","","101.56","","","","-4","","Clear"
"-124.90","49.72","COMOX A","1021830","2019-02-26 23:00","2019","02","26","23:00","-2.4","","-10.7","","53","","","","29","","5","","32.2","","101.48","","","","-4","","Clear"
"-124.90","49.72","COMOX A","1021830","2019-02-27 00:00","2019","02","27","00:00","-4.2","","-8.5","","72","","","","29","","5","","32.2","","101.41","","","","-6","","Clear"
"-124.90","49.72","COMOX A","1021830","2019-02-27 01:00","2019","02","27","01:00","-3.2","","-11.4","","53","","","","23","","4","","32.2","","101.34","","","","-5","","Clear"
"-124.90","49.72","COMOX A","1021830","2019-02-27 02:00","2019","02","27","02:00","-4.1","","-10.4","","61","","","","","","0","","32.2","","101.27","","","","","","Clear"
"-124.90","49.72","COMOX A","1021830","2019-02-27 03:00","2019","02","27","03:00","-4.0","","-9.4","","66","","","","","","0","","32.2","","101.17","","","","","","Clear"
"-124.90","49.72","COMOX A","1021830","2019-02-27 04:00","2019","02","27","04:00","-4.9","","-8.3","","77","","","","","","0","","32.2","","101.07","","","","","","Clear"
"-124.90","49.72","COMOX A","1021830","2019-02-27 05:00","2019","02","27","05:00","-3.8","","-7.9","","73","","","","","","0","","32.2","","100.99","","","","","","Mostly Cloudy"
"-124.90","49.72","COMOX A","1021830","2019-02-27 06:00","2019","02","27","06:00","-2.8","","-6.9","","73","","","","24","","4","","32.2","","100.98","","","","-4","","Mostly Cloudy"
"-124.90","49.72","COMOX A","1021830","2019-02-27 07:00","2019","02","27","07:00","-2.5","","-7.6","","68","","","","","","0","","32.2","","100.96","","","","","","Mostly Cloudy"
"-124.90","49.72","COMOX A","1021830","2019-02-27 08:00","2019","02","27","08:00","-2.3","","-5.9","","76","","","","","","0","","32.2","","100.97","","","","","","Cloudy"
"-124.90","49.72","COMOX A","1021830","2019-02-27 09:00","2019","02","27","09:00","-0.7","","-6.1","","67","","","","30","","4","","32.2","","100.99","","","","-2","","Cloudy"
"-124.90","49.72","COMOX A","1021830","2019-02-27 10:00","2019","02","27","10:00","1.1","","-6.1","","59","","","","29","","5","","32.2","","100.97","","","","","","Cloudy"
"-124.90","49.72","COMOX A","1021830","2019-02-27 11:00","2019","02","27","11:00","2.4","","-6.4","","52","","","","1","","4","","32.2","","100.94","","","","","","Cloudy"
"-124.90","49.72","COMOX A","1021830","2019-02-27 12:00","2019","02","27","12:00","2.7","","-5.1","","56","","","","8","","4","","32.2","","100.95","","","","","","Cloudy"
"-124.90","49.72","COMOX A","1021830","2019-02-27 13:00","2019","02","27","13:00","3.5","","-5.4","","52","","","","14","","11","","32.2","","100.98","","","","","","Cloudy"
"-124.90","49.72","COMOX A","1021830","2019-02-27 14:00","2019","02","27","14:00","3.6","","-6.0","","49","","","","14","","5","","32.2","","100.97","","","","","","Cloudy"
"-124.90","49.72","COMOX A","1021830","2019-02-27 15:00","2019","02","27","15:00","3.5","","-6.1","","49","","","","15","","8","","32.2","","101.00","","","","","","Cloudy"
"-124.90","49.72","COMOX A","1021830","2019-02-27 16:00","2019","02","27","16:00","3.5","","-4.6","","55","","","","13","","8","","32.2","","101.04","","","","","","Cloudy"
"-124.90","49.72","COMOX A","1021830","2019-02-27 17:00","2019","02","27","17:00","3.4","","-3.4","","61","","","","17","","8","","32.2","","101.07","","","","","","Cloudy"
"-124.90","49.72","COMOX A","1021830","2019-02-27 18:00","2019","02","27","18:00","3.2","","-1.2","","73","","","","18","","15","","32.2","","101.16","","","","","","Cloudy"
"-124.90","49.72","COMOX A","1021830","2019-02-27 19:00","2019","02","27","19:00","1.3","","1.3","","100","","","","17","","11","","9.7","","101.26","","","","","","Snow"
"-124.90","49.72","COMOX A","1021830","2019-02-27 20:00","2019","02","27","20:00","1.7","","1.7","","100","","","","","","0","","24.1","","101.28","","","","","","Snow"
"-124.90","49.72","COMOX A","1021830","2019-02-27 21:00","2019","02","27","21:00","0.8","","0.8","","100","","","","28","","8","","24.1","","101.32","","","","","","Cloudy"
"-124.90","49.72","COMOX A","1021830","2019-02-27 22:00","2019","02","27","22:00","1.1","","1.1","","100","","","","27","","4","","24.1","","101.38","","","","","","Cloudy"
"-124.90","49.72","COMOX A","1021830","2019-02-27 23:00","2019","02","27","23:00","0.8","","0.8","","100","","","","35","","8","","24.1","","101.43","","","","","","Cloudy"
"-124.90","49.72","COMOX A","1021830","2019-02-28 00:00","2019","02","28","00:00","0.6","","0.6","","100","","","","30","","4","","32.2","","101.48","","","","","","Mostly Cloudy"
"-124.90","49.72","COMOX A","1021830","2019-02-28 01:00","2019","02","28","01:00","0.6","","0.6","","100","","","","","","0","","32.2","","101.52","","","","","","Cloudy"
"-124.90","49.72","COMOX A","1021830","2019-02-28 02:00","2019","02","28","02:00","1.3","","1.3","","100","","","","9","","13","","8.1","","101.55","","","","","","Rain Showers"
"-124.90","49.72","COMOX A","1021830","2019-02-28 03:00","2019","02","28","03:00","1.2","","1.2","","100","","","","6","","5","","24.1","","101.57","","","","","","Rain Showers"
"-124.90","49.72","COMOX A","1021830","2019-02-28 04:00","2019","02","28","04:00","1.3","","1.3","","100","","","","2","","5","","24.1","","101.55","","","","","","Cloudy"
"-124.90","49.72","COMOX A","1021830","2019-02-28 05:00","2019","02","28","05:00","1.4","","1.4","","100","","","","","","0","","24.1","","101.56","","","","","","Cloudy"
"-124.90","49.72","COMOX A","1021830","2019-02-28 06:00","2019","02","28","06:00","0.9","","0.9","","100","","","","29","","5","","24.1","","101.59","","","","","","Cloudy"
"-124.90","49.72","COMOX A","1021830","2019-02-28 07:00","2019","02","28","07:00","0.8","","0.8","","100","","","","29","","8","","24.1","","101.60","","","","","","Cloudy"
"-124.90","49.72","COMOX A","1021830","2019-02-28 08:00","2019","02","28","08:00","1.1","","1.1","","100","","","","29","","11","","19.3","","101.65","","","","","","Cloudy"
"-124.90","49.72","COMOX A","1021830","2019-02-28 09:00","2019","02","28","09:00","1.4","","1.4","","100","","","","32","","5","","19.3","","101.69","","","","","","Mostly Cloudy"
"-124.90","49.72","COMOX A","1021830","2019-02-28 10:00","2019","02","28","10:00","1.6","","1.6","","100","","","","34","","13","","4.8","","101.72","","","","","","Rain,Snow,Fog"
"-124.90","49.72","COMOX A","1021830","2019-02-28 11:00","2019","02","28","11:00","0.9","","0.9","","100","","","","30","","4","","11.3","","101.74","","","","","","Rain"
"-124.90","49.72","COMOX A","1021830","2019-02-28 12:00","2019","02","28","12:00","2.5","","2.5","","100","","","","31","","5","","32.2","","101.76","","","","","","Cloudy"
"-124.90","49.72","COMOX A","1021830","2019-02-28 13:00","2019","02","28","13:00","3.2","","2.4","","94","","","","2","","5","","32.2","","101.74","","","","","","Cloudy"
"-124.90","49.72","COMOX A","1021830","2019-02-28 14:00","2019","02","28","14:00","4.0","","2.9","","93","","","","2","","11","","32.2","","101.75","","","","","","Cloudy"
"-124.90","49.72","COMOX A","1021830","2019-02-28 15:00","2019","02","28","15:00","4.4","","2.3","","86","","","","","","0","","32.2","","101.73","","","","","","Cloudy"
"-124.90","49.72","COMOX A","1021830","2019-02-28 16:00","2019","02","28","16:00","4.8","","2.6","","86","","","","6","","5","","32.2","","101.74","","","","","","Mostly Cloudy"
"-124.90","49.72","COMOX A","1021830","2019-02-28 17:00","2019","02","28","17:00","4.1","","1.8","","85","","","","5","","4","","32.2","","101.73","","","","","","Mostly Cloudy"
"-124.90","49.72","COMOX A","1021830","2019-02-28 18:00","2019","02","28","18:00","3.2","","1.7","","90","","","","","","0","","32.2","","101.74","","","","","","Mainly Clear"
"-124.90","49.72","COMOX A","1021830","2019-02-28 19:00","2019","02","28","19:00","0.6","","0.6","","100","","","","27","","4","","32.2","","101.75","","","","","","Mainly Clear"
"-124.90","49.72","COMOX A","1021830","2019-02-28 20:00","2019","02","28","20:00","-0.3","","-0.3","","100","","","","27","","5","","32.2","","101.77","","","","-2","","Clear"
"-124.90","49.72","COMOX A","1021830","2019-02-28 21:00","2019","02","28","21:00","-1.2","","-1.2","","100","","","","","","0","","32.2","","101.78","","","","","","Clear"
"-124.90","49.72","COMOX A","1021830","2019-02-28 22:00","2019","02","28","22:00","-0.2","","-0.2","","100","","","","28","","4","","32.2","","101.83","","","","-1","","Clear"
"-124.90","49.72","COMOX A","1021830","2019-02-28 23:00","2019","02","28","23:00","-1.1","","-1.1","","100","","","","","","0","","32.2","","101.84","","","","","","Clear"
