"Longitude (x)","Latitude (y)","Station Name","Climate ID","Date/Time (LST)","Year","Month","Day","Time (LST)","Temp (°C)","Temp Flag","Dew Point Temp (°C)","Dew Point Temp Flag","Rel Hum (%)","Rel Hum Flag","Precip. Amount (mm)","Precip. Amount Flag","Wind Dir (10s deg)","Wind Dir Flag","Wind Spd (km/h)","Wind Spd Flag","Visibility (km)","Visibility Flag","Stn Press (kPa)","Stn Press Flag","Hmdx","Hmdx Flag","Wind Chill","Wind Chill Flag","Weather"
"-81.82","69.36","IGLOOLIK A","2402546","2019-01-01 00:00","2019","01","01","00:00","-18.5","","-20.5","","84","","","M","15","","8","","","M","100.52","","","","-24","","NA"
"-81.82","69.36","IGLOOLIK A","2402546","2019-01-01 01:00","2019","01","01","01:00","-21.2","","-23.6","","82","","","M","20","","14","","","M","100.50","","","","-30","","NA"
"-81.82","69.36","IGLOOLIK A","2402546","2019-01-01 02:00","2019","01","01","02:00","-20.7","","-22.8","","83","","","M","21","","12","","","M","100.49","","","","-29","","NA"
"-81.82","69.36","IGLOOLIK A","2402546","2019-01-01 03:00","2019","01","01","03:00","-20.7","","-22.9","","83","","","M","21","","11","","","M","100.49","","","","-28","","NA"
"-81.82","69.36","IGLOOLIK A","2402546","2019-01-01 04:00","2019","01","01","04:00","-21.3","","-23.5","","82","","","M","27","","9","","","M","100.44","","","","-28","","NA"
"-81.82","69.36","IGLOOLIK A","2402546","2019-01-01 05:00","2019","01","01","05:00","-21.0","","-23.2","","82","","","M","28","","9","","","M","100.39","","","","-28","","NA"
"-81.82","69.36","IGLOOLIK A","2402546","2019-01-01 06:00","2019","01","01","06:00","-20.9","","-23.1","","83","","","M","32","","8","","","M","100.37","","","","-27","","NA"
"-81.82","69.36","IGLOOLIK A","2402546","2019-01-01 07:00","2019","01","01","07:00","-20.3","","-22.5","","83","","","M","34","","4","","","M","100.35","","","","-24","","NA"
"-81.82","69.36","IGLOOLIK A","2402546","2019-01-01 08:00","2019","01","01","08:00","-20.1","","-22.3","","83","","","M","28","","8","","","M","100.30","","","","-26","","NA"
"-81.82","69.36","IGLOOLIK A","2402546","2019-01-01 09:00","2019","01","01","09:00","-20.3","","-22.5","","83","","","M","25","","8","","","M","100.26","","","","-27","","NA"
"-81.82","69.36","IGLOOLIK A","2402546","2019-01-01 10:00","2019","01","01","10:00","-20.9","","-23.2","","82","","","M","28","","9","","","M","100.22","","","","-28","","NA"
"-81.82","69.36","IGLOOLIK A","2402546","2019-01-01 11:00","2019","01","01","11:00","-20.7","","-22.9","","83","","","M","29","","9","","","M","100.20","","","","-28","","NA"
"-81.82","69.36","IGLOOLIK A","2402546","2019-01-01 12:00","2019","01","01","12:00","-20.9","","-23.1","","82","","","M","29","","7","","","M","100.15","","","","-27","","NA"
"-81.82","69.36","IGLOOLIK A","2402546","2019-01-01 13:00","2019","01","01","13:00","-20.9","","-23.1","","83","","","M","27","","7","","","M","100.11","","","","-27","","NA"
"-81.82","69.36","IGLOOLIK A","2402546","2019-01-01 14:00","2019","01","01","14:00","-20.9","","-23.2","","82","","","M","28","","7","","","M","100.08","","","","-27","","NA"
"-81.82","69.36","IGLOOLIK A","2402546","2019-01-01 15:00","2019","01","01","15:00","-21.8","","-24.1","","82","","","M","31","","7","","","M","100.07","","","","-28","","NA"
"-81.82","69.36","IGLOOLIK A","2402546","2019-01-01 16:00","2019","01","01","16:00","-21.8","","-24.1","","82","","","M","31","","6","","","M","100.06","","","","-27","","NA"
"-81.82","69.36","IGLOOLIK A","2402546","2019-01-01 17:00","2019","01","01","17:00","-21.9","","-24.2","","82","","","M","31","","4","","","M","100.03","","","","-26","","NA"
"-81.82","69.36","IGLOOLIK A","2402546","2019-01-01 18:00","2019","01","01","18:00","-22.4","","-24.8","","81","","","M","30","","5","","","M","100.00","","","","-27","","NA"
"-81.82","69.36","IGLOOLIK A","2402546","2019-01-01 19:00","2019","01","01","19:00","-23.2","","-25.5","","82","","","M","26","","4","","","M","99.99","","","","-27","","NA"
"-81.82","69.36","IGLOOLIK A","2402546","2019-01-01 20:00","2019","01","01","20:00","-25.6","","-28.2","","79","","","M","24","","12","","","M","99.96","","","","-35","","NA"
"-81.82","69.36","IGLOOLIK A","2402546","2019-01-01 21:00","2019","01","01","21:00","-27.1","","-29.8","","78","","","M","24","","25","","","M","99.91","","","","-41","","NA"
"-81.82","69.36","IGLOOLIK A","2402546","2019-01-01 22:00","2019","01","01","22:00","-27.8","","-30.6","","77","","","M","22","","23","","","M","99.88","","","","-41","","NA"
"-81.82","69.36","IGLOOLIK A","2402546","2019-01-01 23:00","2019","01","01","23:00","-28.8","","-31.7","","77","","","M","22","","19","","","M","99.87","","","","-41","","NA"
"-81.82","69.36","IGLOOLIK A","2402546","2019-01-02 00:00","2019","01","02","00:00","-29.1","","-32.1","","76","","","M","23","","21","","","M","99.86","","","","-42","","NA"
"-81.82","69.36","IGLOOLIK A","2402546","2019-01-02 01:00","2019","01","02","01:00","-28.3","","-31.1","","77","","","M","23","","21","","","M","99.87","","","","-41","","NA"
"-81.82","69.36","IGLOOLIK A","2402546","2019-01-02 02:00","2019","01","02","02:00","-28.3","","-31.1","","77","","","M","24","","22","","","M","99.86","","","","-42","","NA"
"-81.82","69.36","IGLOOLIK A","2402546","2019-01-02 03:00","2019","01","02","03:00","-28.8","","-31.7","","77","","","M","24","","21","","","M","99.87","","","","-42","","NA"
"-81.82","69.36","IGLOOLIK A","2402546","2019-01-02 04:00","2019","01","02","04:00","-29.9","","-32.9","","76","","","M","24","","20","","","M","99.89","","","","-43","","NA"
"-81.82","69.36","IGLOOLIK A","2402546","2019-01-02 05:00","2019","01","02","05:00","-30.3","","-33.3","","76","","","M","24","","19","","","M","99.93","","","","-43","","NA"
"-81.82","69.36","IGLOOLIK A","2402546","2019-01-02 06:00","2019","01","02","06:00","-31.7","","-34.8","","75","","","M","26","","19","","","M","99.91","","","","-45","","NA"
"-81.82","69.36","IGLOOLIK A","2402546","2019-01-02 07:00","2019","01","02","07:00","-31.2","","-34.3","","75","","","M","24","","20","","","M","99.92","","","","-45","","NA"
"-81.82","69.36","IGLOOLIK A","2402546","2019-01-02 08:00","2019","01","02","08:00","-31.6","","-34.7","","75","","","M","25","","17","","","M","99.92","","","","-44","","NA"
"-81.82","69.36","IGLOOLIK A","2402546","2019-01-02 09:00","2019","01","02","09:00","-31.5","","-34.6","","75","","","M","24","","19","","","M","99.97","","","","-45","","NA"
"-81.82","69.36","IGLOOLIK A","2402546","2019-01-02 10:00","2019","01","02","10:00","-32.0","","-35.2","","74","","","M","24","","20","","","M","99.97","","","","-46","","NA"
"-81.82","69.36","IGLOOLIK A","2402546","2019-01-02 11:00","2019","01","02","11:00","-32.5","","-35.6","","74","","","M","26","","14","","","M","99.99","","","","-44","","NA"
"-81.82","69.36","IGLOOLIK A","2402546","2019-01-02 12:00","2019","01","02","12:00","-33.0","","-36.2","","74","","","M","25","","17","","","M","99.99","","","","-46","","NA"
"-81.82","69.36","IGLOOLIK A","2402546","2019-01-02 13:00","2019","01","02","13:00","-32.5","","-35.6","","74","","","M","25","","16","","","M","99.97","","","","-45","","NA"
"-81.82","69.36","IGLOOLIK A","2402546","2019-01-02 14:00","2019","01","02","14:00","-31.7","","-34.8","","75","","","M","27","","14","","","M","99.96","","","","-43","","NA"
"-81.82","69.36","IGLOOLIK A","2402546","2019-01-02 15:00","2019","01","02","15:00","-32.1","","-35.3","","74","","","M","18","","12","","","M","99.99","","","","-43","","NA"
"-81.82","69.36","IGLOOLIK A","2402546","2019-01-02 16:00","2019","01","02","16:00","-31.2","","-34.3","","75","","","M","21","","11","","","M","99.99","","","","-41","","NA"
"-81.82","69.36","IGLOOLIK A","2402546","2019-01-02 17:00","2019","01","02","17:00","-31.2","","-34.3","","75","","","M","17","","15","","","M","100.00","","","","-43","","NA"
"-81.82","69.36","IGLOOLIK A","2402546","2019-01-02 18:00","2019","01","02","18:00","-30.2","","-33.2","","76","","","M","18","","13","","","M","100.01","","","","-41","","NA"
"-81.82","69.36","IGLOOLIK A","2402546","2019-01-02 19:00","2019","01","02","19:00","-29.3","","-32.2","","76","","","M","17","","12","","","M","99.99","","","","-39","","NA"
"-81.82","69.36","IGLOOLIK A","2402546","2019-01-02 20:00","2019","01","02","20:00","-30.0","","-33.1","","76","","","M","21","","10","","","M","99.99","","","","-39","","NA"
"-81.82","69.36","IGLOOLIK A","2402546","2019-01-02 21:00","2019","01","02","21:00","-29.9","","-32.9","","76","","","M","24","","12","","","M","99.95","","","","-40","","NA"
"-81.82","69.36","IGLOOLIK A","2402546","2019-01-02 22:00","2019","01","02","22:00","-31.0","","-34.1","","75","","","M","24","","12","","","M","99.90","","","","-41","","NA"
"-81.82","69.36","IGLOOLIK A","2402546","2019-01-02 23:00","2019","01","02","23:00","-32.6","","-35.8","","74","","","M","28","","9","","","M","99.86","","","","-42","","NA"
"-81.82","69.36","IGLOOLIK A","2402546","2019-01-03 00:00","2019","01","03","00:00","-32.6","","-35.8","","74","","","M","28","","8","","","M","99.84","","","","-41","","NA"
"-81.82","69.36","IGLOOLIK A","2402546","2019-01-03 01:00","2019","01","03","01:00","-34.2","","-37.5","","73","","","M","29","","12","","","M","99.83","","","","-45","","NA"
"-81.82","69.36","IGLOOLIK A","2402546","2019-01-03 02:00","2019","01","03","02:00","-33.8","","-37.1","","73","","","M","30","","7","","","M","99.81","","","","-42","","NA"
"-81.82","69.36","IGLOOLIK A","2402546","2019-01-03 03:00","2019","01","03","03:00","-33.6","","-36.9","","73","","","M","30","","10","","","M","99.79","","","","-43","","NA"
"-81.82","69.36","IGLOOLIK A","2402546","2019-01-03 04:00","2019","01","03","04:00","-35.2","","-38.6","","72","","","M","29","","12","","","M","99.76","","","","-46","","NA"
"-81.82","69.36","IGLOOLIK A","2402546","2019-01-03 05:00","2019","01","03","05:00","-36.1","","-39.6","","71","","","M","28","","11","","","M","99.71","","","","-47","","NA"
"-81.82","69.36","IGLOOLIK A","2402546","2019-01-03 06:00","2019","01","03","06:00","-36.8","","-40.3","","71","","","M","30","","13","","","M","99.68","","","","-49","","NA"
"-81.82","69.36","IGLOOLIK A","2402546","2019-01-03 07:00","2019","01","03","07:00","-34.3","","-37.6","","73","","","M","2","","6","","","M","99.67","","","","-41","","NA"
"-81.82","69.36","IGLOOLIK A","2402546","2019-01-03 08:00","2019","01","03","08:00","-34.1","","-37.4","","73","","","M","35","","7","","","M","99.65","","","","-42","","NA"
"-81.82","69.36","IGLOOLIK A","2402546","2019-01-03 09:00","2019","01","03","09:00","-34.9","","-38.3","","72","","","M","33","","10","","","M","99.57","","","","-45","","NA"
"-81.82","69.36","IGLOOLIK A","2402546","2019-01-03 10:00","2019","01","03","10:00","-36.1","","-39.6","","71","","","M","32","","13","","","M","99.54","","","","-48","","NA"
"-81.82","69.36","IGLOOLIK A","2402546","2019-01-03 11:00","2019","01","03","11:00","-35.9","","-39.3","","71","","","M","31","","14","","","M","99.49","","","","-48","","NA"
"-81.82","69.36","IGLOOLIK A","2402546","2019-01-03 12:00","2019","01","03","12:00","-35.2","","-38.6","","72","","","M","32","","16","","","M","99.44","","","","-48","","NA"
"-81.82","69.36","IGLOOLIK A","2402546","2019-01-03 13:00","2019","01","03","13:00","-33.4","","-36.6","","73","","","M","33","","14","","","M","99.39","","","","-45","","NA"
"-81.82","69.36","IGLOOLIK A","2402546","2019-01-03 14:00","2019","01","03","14:00","-33.3","","-36.6","","73","","","M","35","","17","","","M","99.36","","","","-46","","NA"
"-81.82","69.36","IGLOOLIK A","2402546","2019-01-03 15:00","2019","01","03","15:00","-32.6","","-35.9","","74","","","M","33","","16","","","M","99.33","","","","-45","","NA"
"-81.82","69.36","IGLOOLIK A","2402546","2019-01-03 16:00","2019","01","03","16:00","-30.4","","-33.4","","76","","","M","35","","29","","","M","99.28","","","","-46","","NA"
"-81.82","69.36","IGLOOLIK A","2402546","2019-01-03 17:00","2019","01","03","17:00","-29.1","","-32.1","","76","","","M","35","","26","","","M","99.23","","","","-44","","NA"
"-81.82","69.36","IGLOOLIK A","2402546","2019-01-03 18:00","2019","01","03","18:00","-29.3","","-32.3","","76","","","M","36","","27","","","M","99.21","","","","-44","","NA"
"-81.82","69.36","IGLOOLIK A","2402546","2019-01-03 19:00","2019","01","03","19:00","-28.6","","-31.6","","76","","","M","36","","28","","","M","99.14","","","","-43","","NA"
"-81.82","69.36","IGLOOLIK A","2402546","2019-01-03 20:00","2019","01","03","20:00","-28.8","","-31.7","","76","","","M","36","","29","","","M","99.12","","","","-44","","NA"
"-81.82","69.36","IGLOOLIK A","2402546","2019-01-03 21:00","2019","01","03","21:00","-27.1","","-29.9","","77","","","M","36","","29","","","M","99.06","","","","-42","","NA"
"-81.82","69.36","IGLOOLIK A","2402546","2019-01-03 22:00","2019","01","03","22:00","-26.8","","-29.6","","78","","","M","1","","28","","","M","99.02","","","","-41","","NA"
"-81.82","69.36","IGLOOLIK A","2402546","2019-01-03 23:00","2019","01","03","23:00","-25.4","","-28.2","","78","","","M","2","","28","","","M","98.99","","","","-39","","NA"
"-81.82","69.36","IGLOOLIK A","2402546","2019-01-04 00:00","2019","01","04","00:00","-25.3","","-28.0","","79","","","M","4","","30","","","M","98.95","","","","-39","","NA"
"-81.82","69.36","IGLOOLIK A","2402546","2019-01-04 01:00","2019","01","04","01:00","-25.1","","-27.8","","79","","","M","4","","27","","","M","98.94","","","","-39","","NA"
"-81.82","69.36","IGLOOLIK A","2402546","2019-01-04 02:00","2019","01","04","02:00","-25.2","","-27.9","","79","","","M","4","","28","","","M","98.93","","","","-39","","NA"
"-81.82","69.36","IGLOOLIK A","2402546","2019-01-04 03:00","2019","01","04","03:00","-25.3","","-28.0","","79","","","M","3","","24","","","M","98.90","","","","-38","","NA"
"-81.82","69.36","IGLOOLIK A","2402546","2019-01-04 04:00","2019","01","04","04:00","-25.3","","-28.0","","79","","","M","3","","19","","","M","98.89","","","","-37","","NA"
"-81.82","69.36","IGLOOLIK A","2402546","2019-01-04 05:00","2019","01","04","05:00","-24.2","","-26.7","","80","","","M","13","","10","","","M","98.86","","","","-32","","NA"
"-81.82","69.36","IGLOOLIK A","2402546","2019-01-04 06:00","2019","01","04","06:00","-24.1","","-26.7","","80","","","M","14","","18","","","M","98.86","","","","-35","","NA"
"-81.82","69.36","IGLOOLIK A","2402546","2019-01-04 07:00","2019","01","04","07:00","-25.5","","-28.2","","79","","","M","15","","21","","","M","98.85","","","","-38","","NA"
"-81.82","69.36","IGLOOLIK A","2402546","2019-01-04 08:00","2019","01","04","08:00","-27.3","","-30.2","","77","","","M","13","","14","","","M","98.85","","","","-38","","NA"
"-81.82","69.36","IGLOOLIK A","2402546","2019-01-04 09:00","2019","01","04","09:00","-27.7","","-30.5","","77","","","M","13","","17","","","M","98.81","","","","-39","","NA"
"-81.82","69.36","IGLOOLIK A","2402546","2019-01-04 10:00","2019","01","04","10:00","-28.2","","-31.1","","77","","","M","10","","13","","","M","98.79","","","","-38","","NA"
"-81.82","69.36","IGLOOLIK A","2402546","2019-01-04 11:00","2019","01","04","11:00","-29.0","","-32.0","","76","","","M","9","","18","","","M","98.76","","","","-41","","NA"
"-81.82","69.36","IGLOOLIK A","2402546","2019-01-04 12:00","2019","01","04","12:00","-30.1","","-33.1","","75","","","M","8","","16","","","M","98.75","","","","-42","","NA"
"-81.82","69.36","IGLOOLIK A","2402546","2019-01-04 13:00","2019","01","04","13:00","-29.8","","-32.9","","76","","","M","7","","18","","","M","98.74","","","","-42","","NA"
"-81.82","69.36","IGLOOLIK A","2402546","2019-01-04 14:00","2019","01","04","14:00","-30.9","","-34.0","","75","","","M","7","","23","","","M","98.73","","","","-45","","NA"
"-81.82","69.36","IGLOOLIK A","2402546","2019-01-04 15:00","2019","01","04","15:00","-31.2","","-34.3","","75","","","M","6","","21","","","M","98.73","","","","-45","","NA"
"-81.82","69.36","IGLOOLIK A","2402546","2019-01-04 16:00","2019","01","04","16:00","-31.9","","-35.0","","74","","","M","6","","22","","","M","98.76","","","","-46","","NA"
"-81.82","69.36","IGLOOLIK A","2402546","2019-01-04 17:00","2019","01","04","17:00","-31.1","","-34.1","","75","","","M","7","","24","","","M","98.77","","","","-46","","NA"
"-81.82","69.36","IGLOOLIK A","2402546","2019-01-04 18:00","2019","01","04","18:00","-31.7","","-34.8","","75","","","M","6","","22","","","M","98.79","","","","-46","","NA"
"-81.82","69.36","IGLOOLIK A","2402546","2019-01-04 19:00","2019","01","04","19:00","-32.1","","-35.3","","74","","","M","6","","25","","","M","98.83","","","","-47","","NA"
"-81.82","69.36","IGLOOLIK A","2402546","2019-01-04 20:00","2019","01","04","20:00","-31.6","","-34.7","","75","","","M","7","","25","","","M","98.84","","","","-47","","NA"
"-81.82","69.36","IGLOOLIK A","2402546","2019-01-04 21:00","2019","01","04","21:00","-31.8","","-35.0","","74","","","M","7","","23","","","M","98.88","","","","-46","","NA"
"-81.82","69.36","IGLOOLIK A","2402546","2019-01-04 22:00","2019","01","04","22:00","-30.9","","-34.0","","75","","","M","7","","26","","","M","98.90","","","","-46","","NA"
"-81.82","69.36","IGLOOLIK A","2402546","2019-01-04 23:00","2019","01","04","23:00","-32.7","","-35.9","","74","","","M","6","","24","","","M","98.95","","","","-48","","NA"
"-81.82","69.36","IGLOOLIK A","2402546","2019-01-05 00:00","2019","01","05","00:00","-32.6","","-35.9","","74","","","M","5","","24","","","M","98.99","","","","-48","","NA"
"-81.82","69.36","IGLOOLIK A","2402546","2019-01-05 01:00","2019","01","05","01:00","-33.8","","-37.0","","73","","","M","6","","26","","","M","99.04","","","","-50","","NA"
"-81.82","69.36","IGLOOLIK A","2402546","2019-01-05 02:00","2019","01","05","02:00","-32.1","","-35.4","","74","","","M","6","","24","","","M","99.07","","","","-47","","NA"
"-81.82","69.36","IGLOOLIK A","2402546","2019-01-05 03:00","2019","01","05","03:00","-32.2","","-35.4","","74","","","M","5","","22","","","M","99.11","","","","-46","","NA"
"-81.82","69.36","IGLOOLIK A","2402546","2019-01-05 04:00","2019","01","05","04:00","-31.0","","-34.1","","75","","","M","5","","26","","","M","99.14","","","","-46","","NA"
"-81.82","69.36","IGLOOLIK A","2402546","2019-01-05 05:00","2019","01","05","05:00","-31.0","","-34.1","","75","","","M","6","","33","","","M","99.19","","","","-48","","NA"
"-81.82","69.36","IGLOOLIK A","2402546","2019-01-05 06:00","2019","01","05","06:00","-30.9","","-34.0","","75","","","M","6","","29","","","M","99.23","","","","-47","","NA"
"-81.82","69.36","IGLOOLIK A","2402546","2019-01-05 07:00","2019","01","05","07:00","-31.8","","-35.0","","74","","","M","6","","28","","","M","99.27","","","","-48","","NA"
"-81.82","69.36","IGLOOLIK A","2402546","2019-01-05 08:00","2019","01","05","08:00","-31.6","","-34.8","","74","","","M","6","","24","","","M","99.32","","","","-46","","NA"
"-81.82","69.36","IGLOOLIK A","2402546","2019-01-05 09:00","2019","01","05","09:00","-32.1","","-35.3","","74","","","M","5","","27","","","M","99.34","","","","-48","","NA"
"-81.82","69.36","IGLOOLIK A","2402546","2019-01-05 10:00","2019","01","05","10:00","-32.5","","-35.7","","74","","","M","6","","26","","","M","99.38","","","","-48","","NA"
"-81.82","69.36","IGLOOLIK A","2402546","2019-01-05 11:00","2019","01","05","11:00","-31.4","","-34.5","","75","","","M","6","","25","","","M","99.41","","","","-46","","NA"
"-81.82","69.36","IGLOOLIK A","2402546","2019-01-05 12:00","2019","01","05","12:00","-31.7","","-34.9","","74","","","M","5","","27","","","M","99.44","","","","-47","","NA"
"-81.82","69.36","IGLOOLIK A","2402546","2019-01-05 13:00","2019","01","05","13:00","-31.0","","-34.2","","75","","","M","5","","25","","","M","99.48","","","","-46","","NA"
"-81.82","69.36","IGLOOLIK A","2402546","2019-01-05 14:00","2019","01","05","14:00","-31.1","","-34.3","","74","","","M","4","","23","","","M","99.51","","","","-45","","NA"
"-81.82","69.36","IGLOOLIK A","2402546","2019-01-05 15:00","2019","01","05","15:00","-30.3","","-33.4","","75","","","M","5","","26","","","M","99.55","","","","-45","","NA"
"-81.82","69.36","IGLOOLIK A","2402546","2019-01-05 16:00","2019","01","05","16:00","-31.9","","-35.2","","74","","","M","3","","22","","","M","99.61","","","","-46","","NA"
"-81.82","69.36","IGLOOLIK A","2402546","2019-01-05 17:00","2019","01","05","17:00","-30.7","","-33.9","","75","","","M","5","","27","","","M","99.64","","","","-46","","NA"
"-81.82","69.36","IGLOOLIK A","2402546","2019-01-05 18:00","2019","01","05","18:00","-31.3","","-34.5","","74","","","M","4","","23","","","M","99.69","","","","-46","","NA"
"-81.82","69.36","IGLOOLIK A","2402546","2019-01-05 19:00","2019","01","05","19:00","-31.5","","-34.7","","74","","","M","3","","23","","","M","99.71","","","","-46","","NA"
"-81.82","69.36","IGLOOLIK A","2402546","2019-01-05 20:00","2019","01","05","20:00","-31.0","","-34.1","","75","","","M","4","","26","","","M","99.72","","","","-46","","NA"
"-81.82","69.36","IGLOOLIK A","2402546","2019-01-05 21:00","2019","01","05","21:00","-31.1","","-34.2","","75","","","M","3","","27","","","M","99.73","","","","-46","","NA"
"-81.82","69.36","IGLOOLIK A","2402546","2019-01-05 22:00","2019","01","05","22:00","-30.9","","-34.0","","75","","","M","3","","20","","","M","99.72","","","","-44","","NA"
"-81.82","69.36","IGLOOLIK A","2402546","2019-01-05 23:00","2019","01","05","23:00","-29.6","","-32.6","","76","","","M","2","","16","","","M","99.70","","","","-41","","NA"
"-81.82","69.36","IGLOOLIK A","2402546","2019-01-06 00:00","2019","01","06","00:00","-30.0","","-33.1","","75","","","M","3","","25","","","M","99.68","","","","-44","","NA"
"-81.82","69.36","IGLOOLIK A","2402546","2019-01-06 01:00","2019","01","06","01:00","-30.6","","-33.7","","75","","","M","2","","26","","","M","99.67","","","","-45","","NA"
"-81.82","69.36","IGLOOLIK A","2402546","2019-01-06 02:00","2019","01","06","02:00","-31.3","","-34.4","","74","","","M","2","","23","","","M","99.66","","","","-46","","NA"
"-81.82","69.36","IGLOOLIK A","2402546","2019-01-06 03:00","2019","01","06","03:00","-31.9","","-35.1","","74","","","M","1","","24","","","M","99.67","","","","-47","","NA"
"-81.82","69.36","IGLOOLIK A","2402546","2019-01-06 04:00","2019","01","06","04:00","-31.7","","-34.9","","74","","","M","34","","21","","","M","99.64","","","","-46","","NA"
"-81.82","69.36","IGLOOLIK A","2402546","2019-01-06 05:00","2019","01","06","05:00","-30.8","","-34.0","","75","","","M","35","","27","","","M","99.60","","","","-46","","NA"
"-81.82","69.36","IGLOOLIK A","2402546","2019-01-06 06:00","2019","01","06","06:00","-29.9","","-33.0","","75","","","M","36","","37","","","M","99.55","","","","-47","","NA"
"-81.82","69.36","IGLOOLIK A","2402546","2019-01-06 07:00","2019","01","06","07:00","-29.8","","-32.9","","75","","","M","36","","33","","","M","99.54","","","","-46","","NA"
"-81.82","69.36","IGLOOLIK A","2402546","2019-01-06 08:00","2019","01","06","08:00","-29.3","","-32.3","","76","","","M","35","","38","","","M","99.50","","","","-46","","NA"
"-81.82","69.36","IGLOOLIK A","2402546","2019-01-06 09:00","2019","01","06","09:00","-28.4","","-31.4","","76","","","M","35","","39","","","M","99.46","","","","-45","","NA"
"-81.82","69.36","IGLOOLIK A","2402546","2019-01-06 10:00","2019","01","06","10:00","-28.1","","-31.1","","77","","","M","36","","40","","","M","99.39","","","","-45","","NA"
"-81.82","69.36","IGLOOLIK A","2402546","2019-01-06 11:00","2019","01","06","11:00","-28.3","","-31.2","","76","","","M","35","","37","","","M","99.37","","","","-45","","NA"
"-81.82","69.36","IGLOOLIK A","2402546","2019-01-06 12:00","2019","01","06","12:00","-27.7","","-30.6","","77","","","M","34","","35","","","M","99.35","","","","-44","","NA"
"-81.82","69.36","IGLOOLIK A","2402546","2019-01-06 13:00","2019","01","06","13:00","-27.2","","-30.0","","77","","","M","33","","36","","","M","99.33","","","","-43","","NA"
"-81.82","69.36","IGLOOLIK A","2402546","2019-01-06 14:00","2019","01","06","14:00","-27.2","","-30.0","","77","","","M","33","","34","","","M","99.38","","","","-43","","NA"
"-81.82","69.36","IGLOOLIK A","2402546","2019-01-06 15:00","2019","01","06","15:00","-27.0","","-29.9","","77","","","M","34","","32","","","M","99.39","","","","-42","","NA"
"-81.82","69.36","IGLOOLIK A","2402546","2019-01-06 16:00","2019","01","06","16:00","-27.1","","-29.9","","77","","","M","33","","32","","","M","99.39","","","","-42","","NA"
"-81.82","69.36","IGLOOLIK A","2402546","2019-01-06 17:00","2019","01","06","17:00","-27.6","","-30.5","","77","","","M","32","","34","","","M","99.42","","","","-43","","NA"
"-81.82","69.36","IGLOOLIK A","2402546","2019-01-06 18:00","2019","01","06","18:00","-26.8","","-29.5","","78","","","M","32","","32","","","M","99.46","","","","-42","","NA"
"-81.82","69.36","IGLOOLIK A","2402546","2019-01-06 19:00","2019","01","06","19:00","-26.6","","-29.4","","78","","","M","32","","34","","","M","99.51","","","","-42","","NA"
"-81.82","69.36","IGLOOLIK A","2402546","2019-01-06 20:00","2019","01","06","20:00","-26.3","","-29.1","","78","","","M","32","","30","","","M","99.58","","","","-41","","NA"
"-81.82","69.36","IGLOOLIK A","2402546","2019-01-06 21:00","2019","01","06","21:00","-26.5","","-29.3","","78","","","M","32","","32","","","M","99.63","","","","-41","","NA"
"-81.82","69.36","IGLOOLIK A","2402546","2019-01-06 22:00","2019","01","06","22:00","-26.4","","-29.1","","78","","","M","33","","30","","","M","99.70","","","","-41","","NA"
"-81.82","69.36","IGLOOLIK A","2402546","2019-01-06 23:00","2019","01","06","23:00","-26.3","","-29.1","","78","","","M","32","","26","","","M","99.77","","","","-40","","NA"
"-81.82","69.36","IGLOOLIK A","2402546","2019-01-07 00:00","2019","01","07","00:00","-27.0","","-29.8","","78","","","M","33","","27","","","M","99.84","","","","-41","","NA"
"-81.82","69.36","IGLOOLIK A","2402546","2019-01-07 01:00","2019","01","07","01:00","-27.4","","-30.2","","77","","","M","33","","25","","","M","99.92","","","","-41","","NA"
"-81.82","69.36","IGLOOLIK A","2402546","2019-01-07 02:00","2019","01","07","02:00","-28.1","","-31.0","","77","","","M","35","","20","","","M","100.02","","","","-41","","NA"
"-81.82","69.36","IGLOOLIK A","2402546","2019-01-07 03:00","2019","01","07","03:00","-26.9","","-29.7","","78","","","M","34","","26","","","M","100.08","","","","-41","","NA"
"-81.82","69.36","IGLOOLIK A","2402546","2019-01-07 04:00","2019","01","07","04:00","-26.7","","-29.4","","78","","","M","34","","27","","","M","100.13","","","","-41","","NA"
"-81.82","69.36","IGLOOLIK A","2402546","2019-01-07 05:00","2019","01","07","05:00","-26.7","","-29.5","","78","","","M","35","","33","","","M","100.20","","","","-42","","NA"
"-81.82","69.36","IGLOOLIK A","2402546","2019-01-07 06:00","2019","01","07","06:00","-27.1","","-29.9","","77","","","M","34","","29","","","M","100.25","","","","-42","","NA"
"-81.82","69.36","IGLOOLIK A","2402546","2019-01-07 07:00","2019","01","07","07:00","-27.0","","-29.8","","78","","","M","34","","29","","","M","100.29","","","","-41","","NA"
"-81.82","69.36","IGLOOLIK A","2402546","2019-01-07 08:00","2019","01","07","08:00","-26.7","","-29.5","","78","","","M","34","","26","","","M","100.34","","","","-40","","NA"
"-81.82","69.36","IGLOOLIK A","2402546","2019-01-07 09:00","2019","01","07","09:00","-27.3","","-30.1","","77","","","M","35","","29","","","M","100.39","","","","-42","","NA"
"-81.82","69.36","IGLOOLIK A","2402546","2019-01-07 10:00","2019","01","07","10:00","-27.3","","-30.1","","77","","","M","35","","31","","","M","100.41","","","","-42","","NA"
"-81.82","69.36","IGLOOLIK A","2402546","2019-01-07 11:00","2019","01","07","11:00","-27.0","","-29.8","","78","","","M","34","","28","","","M","100.44","","","","-41","","NA"
"-81.82","69.36","IGLOOLIK A","2402546","2019-01-07 12:00","2019","01","07","12:00","-27.4","","-30.2","","77","","","M","35","","30","","","M","100.42","","","","-42","","NA"
"-81.82","69.36","IGLOOLIK A","2402546","2019-01-07 13:00","2019","01","07","13:00","-28.0","","-30.8","","77","","","M","34","","27","","","M","100.43","","","","-42","","NA"
"-81.82","69.36","IGLOOLIK A","2402546","2019-01-07 14:00","2019","01","07","14:00","-27.8","","-30.7","","77","","","M","35","","24","","","M","100.46","","","","-41","","NA"
"-81.82","69.36","IGLOOLIK A","2402546","2019-01-07 15:00","2019","01","07","15:00","-26.8","","-29.6","","78","","","M","36","","34","","","M","100.48","","","","-42","","NA"
"-81.82","69.36","IGLOOLIK A","2402546","2019-01-07 16:00","2019","01","07","16:00","-27.7","","-30.6","","77","","","M","35","","25","","","M","100.52","","","","-42","","NA"
"-81.82","69.36","IGLOOLIK A","2402546","2019-01-07 17:00","2019","01","07","17:00","-27.9","","-30.8","","77","","","M","35","","28","","","M","100.51","","","","-42","","NA"
"-81.82","69.36","IGLOOLIK A","2402546","2019-01-07 18:00","2019","01","07","18:00","-28.2","","-31.1","","77","","","M","36","","29","","","M","100.55","","","","-43","","NA"
"-81.82","69.36","IGLOOLIK A","2402546","2019-01-07 19:00","2019","01","07","19:00","-28.8","","-31.8","","76","","","M","36","","31","","","M","100.57","","","","-44","","NA"
"-81.82","69.36","IGLOOLIK A","2402546","2019-01-07 20:00","2019","01","07","20:00","-29.3","","-32.2","","76","","","M","36","","28","","","M","100.60","","","","-44","","NA"
"-81.82","69.36","IGLOOLIK A","2402546","2019-01-07 21:00","2019","01","07","21:00","-29.0","","-31.9","","76","","","M","35","","27","","","M","100.57","","","","-44","","NA"
"-81.82","69.36","IGLOOLIK A","2402546","2019-01-07 22:00","2019","01","07","22:00","-29.6","","-32.6","","76","","","M","35","","26","","","M","100.59","","","","-44","","NA"
"-81.82","69.36","IGLOOLIK A","2402546","2019-01-07 23:00","2019","01","07","23:00","-29.9","","-32.9","","76","","","M","36","","21","","","M","100.55","","","","-43","","NA"
"-81.82","69.36","IGLOOLIK A","2402546","2019-01-08 00:00","2019","01","08","00:00","-30.9","","-34.0","","75","","","M","36","","24","","","M","100.54","","","","-45","","NA"
"-81.82","69.36","IGLOOLIK A","2402546","2019-01-08 01:00","2019","01","08","01:00","-31.0","","-34.1","","75","","","M","35","","21","","","M","100.54","","","","-45","","NA"
"-81.82","69.36","IGLOOLIK A","2402546","2019-01-08 02:00","2019","01","08","02:00","-31.6","","-34.7","","74","","","M","36","","23","","","M","100.55","","","","-46","","NA"
"-81.82","69.36","IGLOOLIK A","2402546","2019-01-08 03:00","2019","01","08","03:00","-31.9","","-35.1","","74","","","M","29","","12","","","M","100.58","","","","-42","","NA"
"-81.82","69.36","IGLOOLIK A","2402546","2019-01-08 04:00","2019","01","08","04:00","-31.4","","-34.6","","74","","","M","31","","9","","","M","100.55","","","","-40","","NA"
"-81.82","69.36","IGLOOLIK A","2402546","2019-01-08 05:00","2019","01","08","05:00","-31.8","","-35.0","","74","","","M","30","","11","","","M","100.53","","","","-42","","NA"
"-81.82","69.36","IGLOOLIK A","2402546","2019-01-08 06:00","2019","01","08","06:00","-32.9","","-36.2","","73","","","M","28","","13","","","M","100.53","","","","-44","","NA"
"-81.82","69.36","IGLOOLIK A","2402546","2019-01-08 07:00","2019","01","08","07:00","-32.7","","-36.0","","74","","","M","30","","13","","","M","100.52","","","","-44","","NA"
"-81.82","69.36","IGLOOLIK A","2402546","2019-01-08 08:00","2019","01","08","08:00","-32.5","","-35.8","","74","","","M","29","","14","","","M","100.49","","","","-44","","NA"
"-81.82","69.36","IGLOOLIK A","2402546","2019-01-08 09:00","2019","01","08","09:00","-33.8","","-37.2","","73","","","M","30","","18","","","M","100.49","","","","-47","","NA"
"-81.82","69.36","IGLOOLIK A","2402546","2019-01-08 10:00","2019","01","08","10:00","-32.9","","-36.2","","73","","","M","32","","21","","","M","100.48","","","","-47","","NA"
"-81.82","69.36","IGLOOLIK A","2402546","2019-01-08 11:00","2019","01","08","11:00","-32.5","","-35.7","","74","","","M","29","","27","","","M","100.43","","","","-48","","NA"
"-81.82","69.36","IGLOOLIK A","2402546","2019-01-08 12:00","2019","01","08","12:00","-32.8","","-36.0","","73","","","M","30","","21","","","M","100.40","","","","-47","","NA"
"-81.82","69.36","IGLOOLIK A","2402546","2019-01-08 13:00","2019","01","08","13:00","-31.5","","-34.7","","74","","","M","31","","22","","","M","100.40","","","","-46","","NA"
"-81.82","69.36","IGLOOLIK A","2402546","2019-01-08 14:00","2019","01","08","14:00","-31.7","","-34.9","","74","","","M","30","","21","","","M","100.39","","","","-46","","NA"
"-81.82","69.36","IGLOOLIK A","2402546","2019-01-08 15:00","2019","01","08","15:00","-31.1","","-34.3","","75","","","M","32","","19","","","M","100.39","","","","-44","","NA"
"-81.82","69.36","IGLOOLIK A","2402546","2019-01-08 16:00","2019","01","08","16:00","-31.8","","-35.0","","74","","","M","30","","20","","","M","100.40","","","","-45","","NA"
"-81.82","69.36","IGLOOLIK A","2402546","2019-01-08 17:00","2019","01","08","17:00","-30.3","","-33.4","","75","","","M","31","","28","","","M","100.40","","","","-46","","NA"
"-81.82","69.36","IGLOOLIK A","2402546","2019-01-08 18:00","2019","01","08","18:00","-30.2","","-33.2","","75","","","M","32","","27","","","M","100.38","","","","-45","","NA"
"-81.82","69.36","IGLOOLIK A","2402546","2019-01-08 19:00","2019","01","08","19:00","-30.6","","-33.7","","75","","","M","31","","23","","","M","100.42","","","","-45","","NA"
"-81.82","69.36","IGLOOLIK A","2402546","2019-01-08 20:00","2019","01","08","20:00","-30.5","","-33.5","","75","","","M","31","","21","","","M","100.43","","","","-44","","NA"
"-81.82","69.36","IGLOOLIK A","2402546","2019-01-08 21:00","2019","01","08","21:00","-31.1","","-34.3","","74","","","M","29","","15","","","M","100.45","","","","-43","","NA"
"-81.82","69.36","IGLOOLIK A","2402546","2019-01-08 22:00","2019","01","08","22:00","-31.4","","-34.5","","74","","","M","30","","23","","","M","100.48","","","","-46","","NA"
"-81.82","69.36","IGLOOLIK A","2402546","2019-01-08 23:00","2019","01","08","23:00","-30.1","","-33.1","","75","","","M","31","","26","","","M","100.52","","","","-45","","NA"
"-81.82","69.36","IGLOOLIK A","2402546","2019-01-09 00:00","2019","01","09","00:00","-30.9","","-34.1","","75","","","M","33","","24","","","M","100.56","","","","-45","","NA"
"-81.82","69.36","IGLOOLIK A","2402546","2019-01-09 01:00","2019","01","09","01:00","-29.7","","-32.8","","75","","","M","31","","17","","","M","100.63","","","","-42","","NA"
"-81.82","69.36","IGLOOLIK A","2402546","2019-01-09 02:00","2019","01","09","02:00","-28.2","","-31.1","","77","","","M","32","","12","","","M","100.73","","","","-38","","NA"
"-81.82","69.36","IGLOOLIK A","2402546","2019-01-09 03:00","2019","01","09","03:00","-28.5","","-31.6","","76","","","M","30","","12","","","M","100.83","","","","-38","","NA"
"-81.82","69.36","IGLOOLIK A","2402546","2019-01-09 04:00","2019","01","09","04:00","-28.5","","-31.4","","76","","","M","32","","23","","","M","100.92","","","","-42","","NA"
"-81.82","69.36","IGLOOLIK A","2402546","2019-01-09 05:00","2019","01","09","05:00","-28.1","","-31.0","","77","","","M","31","","21","","","M","101.01","","","","-41","","NA"
"-81.82","69.36","IGLOOLIK A","2402546","2019-01-09 06:00","2019","01","09","06:00","-27.8","","-30.7","","77","","","M","32","","14","","","M","101.09","","","","-38","","NA"
"-81.82","69.36","IGLOOLIK A","2402546","2019-01-09 07:00","2019","01","09","07:00","-28.5","","-31.5","","76","","","M","31","","22","","","M","101.16","","","","-42","","NA"
"-81.82","69.36","IGLOOLIK A","2402546","2019-01-09 08:00","2019","01","09","08:00","-28.8","","-31.8","","76","","","M","31","","23","","","M","101.24","","","","-42","","NA"
"-81.82","69.36","IGLOOLIK A","2402546","2019-01-09 09:00","2019","01","09","09:00","-29.5","","-32.5","","76","","","M","30","","26","","","M","101.30","","","","-44","","NA"
"-81.82","69.36","IGLOOLIK A","2402546","2019-01-09 10:00","2019","01","09","10:00","-29.1","","-32.1","","76","","","M","30","","27","","","M","101.38","","","","-44","","NA"
"-81.82","69.36","IGLOOLIK A","2402546","2019-01-09 11:00","2019","01","09","11:00","-29.0","","-32.0","","76","","","M","32","","34","","","M","101.45","","","","-45","","NA"
"-81.82","69.36","IGLOOLIK A","2402546","2019-01-09 12:00","2019","01","09","12:00","-29.0","","-32.0","","76","","","M","32","","25","","","M","101.54","","","","-43","","NA"
"-81.82","69.36","IGLOOLIK A","2402546","2019-01-09 13:00","2019","01","09","13:00","-29.3","","-32.4","","76","","","M","31","","30","","","M","101.60","","","","-45","","NA"
"-81.82","69.36","IGLOOLIK A","2402546","2019-01-09 14:00","2019","01","09","14:00","-29.9","","-33.0","","75","","","M","32","","25","","","M","101.71","","","","-44","","NA"
"-81.82","69.36","IGLOOLIK A","2402546","2019-01-09 15:00","2019","01","09","15:00","-30.0","","-33.0","","76","","","M","32","","30","","","M","101.80","","","","-46","","NA"
"-81.82","69.36","IGLOOLIK A","2402546","2019-01-09 16:00","2019","01","09","16:00","-31.1","","-34.2","","75","","","M","32","","17","","","M","101.92","","","","-44","","NA"
"-81.82","69.36","IGLOOLIK A","2402546","2019-01-09 17:00","2019","01","09","17:00","-31.5","","-34.7","","74","","","M","33","","16","","","M","101.98","","","","-44","","NA"
"-81.82","69.36","IGLOOLIK A","2402546","2019-01-09 18:00","2019","01","09","18:00","-31.5","","-34.7","","74","","","M","31","","17","","","M","102.06","","","","-44","","NA"
"-81.82","69.36","IGLOOLIK A","2402546","2019-01-09 19:00","2019","01","09","19:00","-31.9","","-35.1","","74","","","M","33","","23","","","M","102.09","","","","-46","","NA"
"-81.82","69.36","IGLOOLIK A","2402546","2019-01-09 20:00","2019","01","09","20:00","-31.9","","-35.1","","74","","","M","32","","15","","","M","102.18","","","","-44","","NA"
"-81.82","69.36","IGLOOLIK A","2402546","2019-01-09 21:00","2019","01","09","21:00","-32.8","","-36.1","","73","","","M","33","","18","","","M","102.21","","","","-46","","NA"
"-81.82","69.36","IGLOOLIK A","2402546","2019-01-09 22:00","2019","01","09","22:00","-31.9","","-35.1","","74","","","M","31","","13","","","M","102.30","","","","-43","","NA"
"-81.82","69.36","IGLOOLIK A","2402546","2019-01-09 23:00","2019","01","09","23:00","-34.1","","-37.4","","72","","","M","28","","12","","","M","102.32","","","","-45","","NA"
"-81.82","69.36","IGLOOLIK A","2402546","2019-01-10 00:00","2019","01","10","00:00","-31.1","","-34.2","","75","","","M","35","","26","","","M","102.36","","","","-46","","NA"
"-81.82","69.36","IGLOOLIK A","2402546","2019-01-10 01:00","2019","01","10","01:00","-31.7","","-34.9","","74","","","M","35","","24","","","M","102.40","","","","-46","","NA"
"-81.82","69.36","IGLOOLIK A","2402546","2019-01-10 02:00","2019","01","10","02:00","-32.0","","-35.2","","74","","","M","35","","27","","","M","102.43","","","","-48","","NA"
"-81.82","69.36","IGLOOLIK A","2402546","2019-01-10 03:00","2019","01","10","03:00","-32.1","","-35.3","","74","","","M","35","","17","","","M","102.51","","","","-45","","NA"
"-81.82","69.36","IGLOOLIK A","2402546","2019-01-10 04:00","2019","01","10","04:00","-32.5","","-35.7","","74","","","M","32","","21","","","M","102.55","","","","-47","","NA"
"-81.82","69.36","IGLOOLIK A","2402546","2019-01-10 05:00","2019","01","10","05:00","-32.6","","-35.9","","74","","","M","35","","26","","","M","102.58","","","","-48","","NA"
"-81.82","69.36","IGLOOLIK A","2402546","2019-01-10 06:00","2019","01","10","06:00","-32.8","","-36.0","","73","","","M","35","","26","","","M","102.63","","","","-48","","NA"
"-81.82","69.36","IGLOOLIK A","2402546","2019-01-10 07:00","2019","01","10","07:00","-32.9","","-36.2","","73","","","M","33","","16","","","M","102.65","","","","-45","","NA"
"-81.82","69.36","IGLOOLIK A","2402546","2019-01-10 08:00","2019","01","10","08:00","-33.1","","-36.4","","73","","","M","34","","19","","","M","102.66","","","","-47","","NA"
"-81.82","69.36","IGLOOLIK A","2402546","2019-01-10 09:00","2019","01","10","09:00","-33.9","","-37.3","","72","","","M","35","","21","","","M","102.67","","","","-48","","NA"
"-81.82","69.36","IGLOOLIK A","2402546","2019-01-10 10:00","2019","01","10","10:00","-33.8","","-37.1","","73","","","M","35","","18","","","M","102.68","","","","-47","","NA"
"-81.82","69.36","IGLOOLIK A","2402546","2019-01-10 11:00","2019","01","10","11:00","-33.4","","-36.7","","73","","","M","35","","25","","","M","102.68","","","","-49","","NA"
"-81.82","69.36","IGLOOLIK A","2402546","2019-01-10 12:00","2019","01","10","12:00","-33.7","","-37.1","","73","","","M","30","","14","","","M","102.70","","","","-46","","NA"
"-81.82","69.36","IGLOOLIK A","2402546","2019-01-10 13:00","2019","01","10","13:00","-33.8","","-37.1","","72","","","M","31","","13","","","M","102.68","","","","-45","","NA"
"-81.82","69.36","IGLOOLIK A","2402546","2019-01-10 14:00","2019","01","10","14:00","-33.5","","-36.8","","73","","","M","36","","18","","","M","102.74","","","","-47","","NA"
"-81.82","69.36","IGLOOLIK A","2402546","2019-01-10 15:00","2019","01","10","15:00","-34.7","","-38.1","","72","","","M","33","","18","","","M","102.73","","","","-48","","NA"
"-81.82","69.36","IGLOOLIK A","2402546","2019-01-10 16:00","2019","01","10","16:00","-34.0","","-37.4","","73","","","M","34","","22","","","M","102.75","","","","-49","","NA"
"-81.82","69.36","IGLOOLIK A","2402546","2019-01-10 17:00","2019","01","10","17:00","-34.6","","-38.0","","72","","","M","34","","21","","","M","102.74","","","","-49","","NA"
"-81.82","69.36","IGLOOLIK A","2402546","2019-01-10 18:00","2019","01","10","18:00","-34.2","","-37.6","","72","","","M","35","","23","","","M","102.73","","","","-49","","NA"
"-81.82","69.36","IGLOOLIK A","2402546","2019-01-10 19:00","2019","01","10","19:00","-34.4","","-37.8","","72","","","M","36","","26","","","M","102.74","","","","-50","","NA"
"-81.82","69.36","IGLOOLIK A","2402546","2019-01-10 20:00","2019","01","10","20:00","-34.2","","-37.6","","72","","","M","36","","24","","","M","102.73","","","","-50","","NA"
"-81.82","69.36","IGLOOLIK A","2402546","2019-01-10 21:00","2019","01","10","21:00","-34.2","","-37.6","","72","","","M","36","","28","","","M","102.73","","","","-51","","NA"
"-81.82","69.36","IGLOOLIK A","2402546","2019-01-10 22:00","2019","01","10","22:00","-34.8","","-38.2","","72","","","M","34","","16","","","M","102.72","","","","-48","","NA"
"-81.82","69.36","IGLOOLIK A","2402546","2019-01-10 23:00","2019","01","10","23:00","-34.6","","-38.0","","72","","","M","35","","27","","","M","102.70","","","","-51","","NA"
"-81.82","69.36","IGLOOLIK A","2402546","2019-01-11 00:00","2019","01","11","00:00","-34.9","","-38.3","","72","","","M","35","","16","","","M","102.73","","","","-48","","NA"
"-81.82","69.36","IGLOOLIK A","2402546","2019-01-11 01:00","2019","01","11","01:00","-34.3","","-37.7","","72","","","M","34","","16","","","M","102.75","","","","-47","","NA"
"-81.82","69.36","IGLOOLIK A","2402546","2019-01-11 02:00","2019","01","11","02:00","-33.8","","-37.1","","73","","","M","35","","13","","","M","102.78","","","","-45","","NA"
"-81.82","69.36","IGLOOLIK A","2402546","2019-01-11 03:00","2019","01","11","03:00","-34.0","","-37.3","","73","","","M","35","","25","","","M","102.81","","","","-50","","NA"
"-81.82","69.36","IGLOOLIK A","2402546","2019-01-11 04:00","2019","01","11","04:00","-34.9","","-38.3","","72","","","M","35","","24","","","M","102.82","","","","-50","","NA"
"-81.82","69.36","IGLOOLIK A","2402546","2019-01-11 05:00","2019","01","11","05:00","-34.0","","-37.3","","72","","","M","34","","18","","","M","102.82","","","","-47","","NA"
"-81.82","69.36","IGLOOLIK A","2402546","2019-01-11 06:00","2019","01","11","06:00","-33.8","","-37.1","","73","","","M","33","","12","","","M","102.85","","","","-45","","NA"
"-81.82","69.36","IGLOOLIK A","2402546","2019-01-11 07:00","2019","01","11","07:00","-34.7","","-38.2","","72","","","M","35","","15","","","M","102.85","","","","-47","","NA"
"-81.82","69.36","IGLOOLIK A","2402546","2019-01-11 08:00","2019","01","11","08:00","-34.2","","-37.6","","72","","","M","34","","16","","","M","102.85","","","","-47","","NA"
"-81.82","69.36","IGLOOLIK A","2402546","2019-01-11 09:00","2019","01","11","09:00","-34.7","","-38.1","","72","","","M","33","","11","","","M","102.86","","","","-45","","NA"
"-81.82","69.36","IGLOOLIK A","2402546","2019-01-11 10:00","2019","01","11","10:00","-35.1","","-38.5","","71","","","M","35","","17","","","M","102.86","","","","-48","","NA"
"-81.82","69.36","IGLOOLIK A","2402546","2019-01-11 11:00","2019","01","11","11:00","-34.7","","-38.1","","72","","","M","36","","19","","","M","102.84","","","","-49","","NA"
"-81.82","69.36","IGLOOLIK A","2402546","2019-01-11 12:00","2019","01","11","12:00","-34.2","","-37.6","","72","","","M","32","","13","","","M","102.87","","","","-46","","NA"
"-81.82","69.36","IGLOOLIK A","2402546","2019-01-11 13:00","2019","01","11","13:00","-35.4","","-38.8","","71","","","M","31","","10","","","M","102.84","","","","-46","","NA"
"-81.82","69.36","IGLOOLIK A","2402546","2019-01-11 14:00","2019","01","11","14:00","-35.9","","-39.4","","71","","","M","31","","13","","","M","102.83","","","","-48","","NA"
"-81.82","69.36","IGLOOLIK A","2402546","2019-01-11 15:00","2019","01","11","15:00","-35.6","","-39.1","","71","","","M","32","","16","","","M","102.85","","","","-49","","NA"
"-81.82","69.36","IGLOOLIK A","2402546","2019-01-11 16:00","2019","01","11","16:00","-35.9","","-39.5","","71","","","M","33","","16","","","M","102.84","","","","-49","","NA"
"-81.82","69.36","IGLOOLIK A","2402546","2019-01-11 17:00","2019","01","11","17:00","-34.5","","-37.9","","72","","","M","34","","16","","","M","102.83","","","","-47","","NA"
"-81.82","69.36","IGLOOLIK A","2402546","2019-01-11 18:00","2019","01","11","18:00","-35.3","","-38.8","","71","","","M","34","","14","","","M","102.80","","","","-48","","NA"
"-81.82","69.36","IGLOOLIK A","2402546","2019-01-11 19:00","2019","01","11","19:00","-34.5","","-37.9","","72","","","M","35","","14","","","M","102.76","","","","-47","","NA"
"-81.82","69.36","IGLOOLIK A","2402546","2019-01-11 20:00","2019","01","11","20:00","-35.0","","-38.5","","72","","","M","35","","13","","","M","102.72","","","","-47","","NA"
"-81.82","69.36","IGLOOLIK A","2402546","2019-01-11 21:00","2019","01","11","21:00","-35.0","","-38.5","","72","","","M","34","","13","","","M","102.70","","","","-47","","NA"
"-81.82","69.36","IGLOOLIK A","2402546","2019-01-11 22:00","2019","01","11","22:00","-35.7","","-39.2","","71","","","M","34","","13","","","M","102.66","","","","-48","","NA"
"-81.82","69.36","IGLOOLIK A","2402546","2019-01-11 23:00","2019","01","11","23:00","-35.0","","-38.4","","72","","","M","34","","13","","","M","102.63","","","","-47","","NA"
"-81.82","69.36","IGLOOLIK A","2402546","2019-01-12 00:00","2019","01","12","00:00","-34.1","","-37.5","","72","","","M","32","","11","","","M","102.59","","","","-45","","NA"
"-81.82","69.36","IGLOOLIK A","2402546","2019-01-12 01:00","2019","01","12","01:00","-35.2","","-38.6","","71","","","M","33","","12","","","M","102.55","","","","-46","","NA"
"-81.82","69.36","IGLOOLIK A","2402546","2019-01-12 02:00","2019","01","12","02:00","-34.6","","-38.0","","72","","","M","33","","11","","","M","102.52","","","","-45","","NA"
"-81.82","69.36","IGLOOLIK A","2402546","2019-01-12 03:00","2019","01","12","03:00","-36.1","","-39.6","","71","","","M","33","","9","","","M","102.50","","","","-46","","NA"
"-81.82","69.36","IGLOOLIK A","2402546","2019-01-12 04:00","2019","01","12","04:00","-34.9","","-38.3","","72","","","M","34","","9","","","M","102.46","","","","-44","","NA"
"-81.82","69.36","IGLOOLIK A","2402546","2019-01-12 05:00","2019","01","12","05:00","-36.8","","-40.3","","70","","","M","30","","10","","","M","102.41","","","","-47","","NA"
"-81.82","69.36","IGLOOLIK A","2402546","2019-01-12 06:00","2019","01","12","06:00","-36.5","","-40.1","","71","","","M","31","","12","","","M","102.37","","","","-48","","NA"
"-81.82","69.36","IGLOOLIK A","2402546","2019-01-12 07:00","2019","01","12","07:00","-36.0","","-39.5","","71","","","M","32","","9","","","M","102.32","","","","-46","","NA"
"-81.82","69.36","IGLOOLIK A","2402546","2019-01-12 08:00","2019","01","12","08:00","-33.4","","-36.7","","73","","","M","31","","7","","","M","102.29","","","","-41","","NA"
"-81.82","69.36","IGLOOLIK A","2402546","2019-01-12 09:00","2019","01","12","09:00","-32.9","","-36.2","","73","","","M","36","","3","","","M","102.25","","","","-37","","NA"
"-81.82","69.36","IGLOOLIK A","2402546","2019-01-12 10:00","2019","01","12","10:00","-33.0","","-36.3","","73","","","M","8","","4","","","M","102.21","","","","-38","","NA"
"-81.82","69.36","IGLOOLIK A","2402546","2019-01-12 11:00","2019","01","12","11:00","-33.6","","-37.0","","72","","","M","28","","2","","","M","102.17","","","","-36","","NA"
"-81.82","69.36","IGLOOLIK A","2402546","2019-01-12 12:00","2019","01","12","12:00","-34.4","","-37.8","","72","","","M","19","","4","","","M","102.13","","","","-39","","NA"
"-81.82","69.36","IGLOOLIK A","2402546","2019-01-12 13:00","2019","01","12","13:00","-33.0","","-36.3","","73","","","M","2","","1","","","M","102.08","","","","-34","","NA"
"-81.82","69.36","IGLOOLIK A","2402546","2019-01-12 14:00","2019","01","12","14:00","-33.5","","-36.8","","73","","","M","10","","8","","","M","102.02","","","","-42","","NA"
"-81.82","69.36","IGLOOLIK A","2402546","2019-01-12 15:00","2019","01","12","15:00","-33.5","","-36.8","","73","","","M","11","","8","","","M","101.99","","","","-42","","NA"
"-81.82","69.36","IGLOOLIK A","2402546","2019-01-12 16:00","2019","01","12","16:00","-33.2","","-36.5","","73","","","M","10","","8","","","M","101.96","","","","-42","","NA"
"-81.82","69.36","IGLOOLIK A","2402546","2019-01-12 17:00","2019","01","12","17:00","-33.5","","-36.9","","72","","","M","10","","10","","","M","101.90","","","","-43","","NA"
"-81.82","69.36","IGLOOLIK A","2402546","2019-01-12 18:00","2019","01","12","18:00","-32.1","","-35.4","","73","","","M","5","","8","","","M","101.85","","","","-40","","NA"
"-81.82","69.36","IGLOOLIK A","2402546","2019-01-12 19:00","2019","01","12","19:00","-34.9","","-38.4","","72","","","M","7","","6","","","M","101.78","","","","-42","","NA"
"-81.82","69.36","IGLOOLIK A","2402546","2019-01-12 20:00","2019","01","12","20:00","-30.2","","-33.0","","77","","","M","11","","8","","","M","101.72","","","","-38","","NA"
"-81.82","69.36","IGLOOLIK A","2402546","2019-01-12 21:00","2019","01","12","21:00","-29.3","","-32.3","","76","","","M","14","","9","","","M","101.68","","","","-38","","NA"
"-81.82","69.36","IGLOOLIK A","2402546","2019-01-12 22:00","2019","01","12","22:00","-30.6","","-33.8","","75","","","M","14","","13","","","M","101.60","","","","-41","","NA"
"-81.82","69.36","IGLOOLIK A","2402546","2019-01-12 23:00","2019","01","12","23:00","-29.6","","-32.6","","75","","","M","18","","12","","","M","101.57","","","","-40","","NA"
"-81.82","69.36","IGLOOLIK A","2402546","2019-01-13 00:00","2019","01","13","00:00","-29.7","","-32.8","","75","","","M","16","","13","","","M","101.50","","","","-40","","NA"
"-81.82","69.36","IGLOOLIK A","2402546","2019-01-13 01:00","2019","01","13","01:00","-29.0","","-32.0","","76","","","M","17","","10","","","M","101.46","","","","-38","","NA"
"-81.82","69.36","IGLOOLIK A","2402546","2019-01-13 02:00","2019","01","13","02:00","-28.5","","-31.4","","76","","","M","12","","8","","","M","101.40","","","","-36","","NA"
"-81.82","69.36","IGLOOLIK A","2402546","2019-01-13 03:00","2019","01","13","03:00","-29.9","","-32.9","","75","","","M","12","","11","","","M","101.38","","","","-40","","NA"
"-81.82","69.36","IGLOOLIK A","2402546","2019-01-13 04:00","2019","01","13","04:00","-28.9","","-31.9","","76","","","M","12","","15","","","M","101.34","","","","-40","","NA"
"-81.82","69.36","IGLOOLIK A","2402546","2019-01-13 05:00","2019","01","13","05:00","-30.7","","-33.9","","75","","","M","9","","17","","","M","101.31","","","","-43","","NA"
"-81.82","69.36","IGLOOLIK A","2402546","2019-01-13 06:00","2019","01","13","06:00","-31.3","","-34.5","","74","","","M","9","","21","","","M","101.25","","","","-45","","NA"
"-81.82","69.36","IGLOOLIK A","2402546","2019-01-13 07:00","2019","01","13","07:00","-31.9","","-35.2","","74","","","M","9","","26","","","M","101.21","","","","-47","","NA"
"-81.82","69.36","IGLOOLIK A","2402546","2019-01-13 08:00","2019","01","13","08:00","-32.2","","-35.5","","74","","","M","9","","29","","","M","101.19","","","","-48","","NA"
"-81.82","69.36","IGLOOLIK A","2402546","2019-01-13 09:00","2019","01","13","09:00","-32.7","","-36.0","","73","","","M","9","","27","","","M","101.18","","","","-48","","NA"
"-81.82","69.36","IGLOOLIK A","2402546","2019-01-13 10:00","2019","01","13","10:00","-34.1","","-37.5","","72","","","M","8","","27","","","M","101.19","","","","-50","","NA"
"-81.82","69.36","IGLOOLIK A","2402546","2019-01-13 11:00","2019","01","13","11:00","-34.1","","-37.4","","72","","","M","8","","28","","","M","101.19","","","","-50","","NA"
"-81.82","69.36","IGLOOLIK A","2402546","2019-01-13 12:00","2019","01","13","12:00","-33.8","","-37.1","","73","","","M","8","","29","","","M","101.16","","","","-50","","NA"
"-81.82","69.36","IGLOOLIK A","2402546","2019-01-13 13:00","2019","01","13","13:00","-33.6","","-37.0","","73","","","M","8","","26","","","M","101.14","","","","-49","","NA"
"-81.82","69.36","IGLOOLIK A","2402546","2019-01-13 14:00","2019","01","13","14:00","-33.5","","-36.9","","73","","","M","8","","27","","","M","101.13","","","","-49","","NA"
"-81.82","69.36","IGLOOLIK A","2402546","2019-01-13 15:00","2019","01","13","15:00","-35.2","","-38.7","","72","","","M","6","","19","","","M","101.12","","","","-49","","NA"
"-81.82","69.36","IGLOOLIK A","2402546","2019-01-13 16:00","2019","01","13","16:00","-35.9","","-39.4","","71","","","M","6","","22","","","M","101.12","","","","-51","","NA"
"-81.82","69.36","IGLOOLIK A","2402546","2019-01-13 17:00","2019","01","13","17:00","-36.3","","-39.8","","71","","","M","4","","18","","","M","101.14","","","","-50","","NA"
"-81.82","69.36","IGLOOLIK A","2402546","2019-01-13 18:00","2019","01","13","18:00","-36.6","","-40.2","","71","","","M","4","","22","","","M","101.11","","","","-52","","NA"
"-81.82","69.36","IGLOOLIK A","2402546","2019-01-13 19:00","2019","01","13","19:00","-36.1","","-39.6","","71","","","M","4","","25","","","M","101.10","","","","-52","","NA"
"-81.82","69.36","IGLOOLIK A","2402546","2019-01-13 20:00","2019","01","13","20:00","-35.7","","-39.2","","71","","","M","3","","25","","","M","101.09","","","","-52","","NA"
"-81.82","69.36","IGLOOLIK A","2402546","2019-01-13 21:00","2019","01","13","21:00","-35.5","","-39.0","","71","","","M","4","","25","","","M","101.04","","","","-52","","NA"
"-81.82","69.36","IGLOOLIK A","2402546","2019-01-13 22:00","2019","01","13","22:00","-35.4","","-38.8","","71","","","M","4","","21","","","M","101.01","","","","-50","","NA"
"-81.82","69.36","IGLOOLIK A","2402546","2019-01-13 23:00","2019","01","13","23:00","-35.7","","-39.2","","71","","","M","3","","29","","","M","100.96","","","","-53","","NA"
"-81.82","69.36","IGLOOLIK A","2402546","2019-01-14 00:00","2019","01","14","00:00","-36.5","","-40.0","","71","","","M","2","","26","","","M","100.94","","","","-53","","NA"
"-81.82","69.36","IGLOOLIK A","2402546","2019-01-14 01:00","2019","01","14","01:00","-36.9","","-40.5","","70","","","M","1","","23","","","M","100.90","","","","-53","","NA"
"-81.82","69.36","IGLOOLIK A","2402546","2019-01-14 02:00","2019","01","14","02:00","-36.8","","-40.3","","71","","","M","1","","21","","","M","100.88","","","","-52","","NA"
"-81.82","69.36","IGLOOLIK A","2402546","2019-01-14 03:00","2019","01","14","03:00","-37.1","","-40.7","","70","","","M","1","","22","","","M","100.83","","","","-53","","NA"
"-81.82","69.36","IGLOOLIK A","2402546","2019-01-14 04:00","2019","01","14","04:00","-37.5","","-41.1","","70","","","M","1","","21","","","M","100.79","","","","-53","","NA"
"-81.82","69.36","IGLOOLIK A","2402546","2019-01-14 05:00","2019","01","14","05:00","-36.6","","-40.2","","71","","","M","1","","23","","","M","100.75","","","","-52","","NA"
"-81.82","69.36","IGLOOLIK A","2402546","2019-01-14 06:00","2019","01","14","06:00","-36.6","","-40.1","","71","","","M","36","","20","","","M","100.72","","","","-51","","NA"
"-81.82","69.36","IGLOOLIK A","2402546","2019-01-14 07:00","2019","01","14","07:00","-36.9","","-40.5","","70","","","M","36","","23","","","M","100.66","","","","-53","","NA"
"-81.82","69.36","IGLOOLIK A","2402546","2019-01-14 08:00","2019","01","14","08:00","-36.2","","-39.8","","71","","","M","1","","22","","","M","100.63","","","","-52","","NA"
"-81.82","69.36","IGLOOLIK A","2402546","2019-01-14 09:00","2019","01","14","09:00","-36.0","","-39.5","","71","","","M","1","","26","","","M","100.60","","","","-52","","NA"
"-81.82","69.36","IGLOOLIK A","2402546","2019-01-14 10:00","2019","01","14","10:00","-36.3","","-39.8","","71","","","M","36","","21","","","M","100.60","","","","-51","","NA"
"-81.82","69.36","IGLOOLIK A","2402546","2019-01-14 11:00","2019","01","14","11:00","-36.5","","-40.1","","70","","","M","1","","16","","","M","100.56","","","","-50","","NA"
"-81.82","69.36","IGLOOLIK A","2402546","2019-01-14 12:00","2019","01","14","12:00","-36.5","","-40.1","","71","","","M","1","","21","","","M","100.50","","","","-52","","NA"
"-81.82","69.36","IGLOOLIK A","2402546","2019-01-14 13:00","2019","01","14","13:00","-36.3","","-39.8","","71","","","M","36","","22","","","M","100.46","","","","-52","","NA"
"-81.82","69.36","IGLOOLIK A","2402546","2019-01-14 14:00","2019","01","14","14:00","-36.4","","-39.9","","71","","","M","1","","28","","","M","100.41","","","","-53","","NA"
"-81.82","69.36","IGLOOLIK A","2402546","2019-01-14 15:00","2019","01","14","15:00","-36.0","","-39.5","","71","","","M","1","","26","","","M","100.41","","","","-52","","NA"
"-81.82","69.36","IGLOOLIK A","2402546","2019-01-14 16:00","2019","01","14","16:00","-36.0","","-39.6","","71","","","M","1","","27","","","M","100.42","","","","-53","","NA"
"-81.82","69.36","IGLOOLIK A","2402546","2019-01-14 17:00","2019","01","14","17:00","-35.9","","-39.4","","71","","","M","1","","25","","","M","100.40","","","","-52","","NA"
"-81.82","69.36","IGLOOLIK A","2402546","2019-01-14 18:00","2019","01","14","18:00","-36.5","","-40.0","","71","","","M","1","","27","","","M","100.37","","","","-53","","NA"
"-81.82","69.36","IGLOOLIK A","2402546","2019-01-14 19:00","2019","01","14","19:00","-36.1","","-39.6","","71","","","M","36","","21","","","M","100.36","","","","-51","","NA"
"-81.82","69.36","IGLOOLIK A","2402546","2019-01-14 20:00","2019","01","14","20:00","-36.2","","-39.8","","71","","","M","1","","21","","","M","100.32","","","","-51","","NA"
"-81.82","69.36","IGLOOLIK A","2402546","2019-01-14 21:00","2019","01","14","21:00","-35.9","","-39.5","","71","","","M","1","","27","","","M","100.29","","","","-53","","NA"
"-81.82","69.36","IGLOOLIK A","2402546","2019-01-14 22:00","2019","01","14","22:00","-36.2","","-39.8","","71","","","M","36","","27","","","M","100.25","","","","-53","","NA"
"-81.82","69.36","IGLOOLIK A","2402546","2019-01-14 23:00","2019","01","14","23:00","-36.9","","-40.5","","70","","","M","36","","26","","","M","100.24","","","","-54","","NA"
"-81.82","69.36","IGLOOLIK A","2402546","2019-01-15 00:00","2019","01","15","00:00","-36.8","","-40.4","","70","","","M","36","","18","","","M","100.23","","","","-51","","NA"
"-81.82","69.36","IGLOOLIK A","2402546","2019-01-15 01:00","2019","01","15","01:00","-36.3","","-39.8","","71","","","M","36","","18","","","M","100.20","","","","-50","","NA"
"-81.82","69.36","IGLOOLIK A","2402546","2019-01-15 02:00","2019","01","15","02:00","-36.8","","-40.3","","70","","","M","36","","19","","","M","100.18","","","","-51","","NA"
"-81.82","69.36","IGLOOLIK A","2402546","2019-01-15 03:00","2019","01","15","03:00","-36.7","","-40.2","","70","","","M","1","","21","","","M","100.18","","","","-52","","NA"
"-81.82","69.36","IGLOOLIK A","2402546","2019-01-15 04:00","2019","01","15","04:00","-36.2","","-39.7","","71","","","M","1","","25","","","M","100.15","","","","-52","","NA"
"-81.82","69.36","IGLOOLIK A","2402546","2019-01-15 05:00","2019","01","15","05:00","-36.7","","-40.2","","70","","","M","36","","20","","","M","100.14","","","","-52","","NA"
"-81.82","69.36","IGLOOLIK A","2402546","2019-01-15 06:00","2019","01","15","06:00","-36.6","","-40.1","","71","","","M","36","","20","","","M","100.13","","","","-51","","NA"
"-81.82","69.36","IGLOOLIK A","2402546","2019-01-15 07:00","2019","01","15","07:00","-36.6","","-40.2","","70","","","M","36","","23","","","M","100.11","","","","-52","","NA"
"-81.82","69.36","IGLOOLIK A","2402546","2019-01-15 08:00","2019","01","15","08:00","-37.6","","-41.2","","70","","","M","35","","16","","","M","100.10","","","","-51","","NA"
"-81.82","69.36","IGLOOLIK A","2402546","2019-01-15 09:00","2019","01","15","09:00","-36.6","","-40.2","","70","","","M","34","","13","","","M","100.07","","","","-49","","NA"
"-81.82","69.36","IGLOOLIK A","2402546","2019-01-15 10:00","2019","01","15","10:00","-36.8","","-40.4","","70","","","M","35","","11","","","M","100.08","","","","-48","","NA"
"-81.82","69.36","IGLOOLIK A","2402546","2019-01-15 11:00","2019","01","15","11:00","-36.8","","-40.4","","70","","","M","35","","11","","","M","100.05","","","","-48","","NA"
"-81.82","69.36","IGLOOLIK A","2402546","2019-01-15 12:00","2019","01","15","12:00","-38.0","","-41.6","","70","","","M","35","","13","","","M","100.02","","","","-50","","NA"
"-81.82","69.36","IGLOOLIK A","2402546","2019-01-15 13:00","2019","01","15","13:00","-37.8","","-41.5","","70","","","M","35","","15","","","M","100.00","","","","-51","","NA"
"-81.82","69.36","IGLOOLIK A","2402546","2019-01-15 14:00","2019","01","15","14:00","-36.6","","-40.2","","70","","","M","36","","13","","","M","100.00","","","","-49","","NA"
"-81.82","69.36","IGLOOLIK A","2402546","2019-01-15 15:00","2019","01","15","15:00","-37.3","","-40.9","","70","","","M","35","","20","","","M","99.98","","","","-52","","NA"
"-81.82","69.36","IGLOOLIK A","2402546","2019-01-15 16:00","2019","01","15","16:00","-38.1","","-41.8","","69","","","M","36","","22","","","M","99.97","","","","-54","","NA"
"-81.82","69.36","IGLOOLIK A","2402546","2019-01-15 17:00","2019","01","15","17:00","-37.4","","-41.0","","70","","","M","1","","23","","","M","99.95","","","","-53","","NA"
"-81.82","69.36","IGLOOLIK A","2402546","2019-01-15 18:00","2019","01","15","18:00","-37.0","","-40.6","","70","","","M","1","","22","","","M","99.95","","","","-53","","NA"
"-81.82","69.36","IGLOOLIK A","2402546","2019-01-15 19:00","2019","01","15","19:00","-37.5","","-41.1","","70","","","M","36","","19","","","M","99.95","","","","-52","","NA"
"-81.82","69.36","IGLOOLIK A","2402546","2019-01-15 20:00","2019","01","15","20:00","-37.4","","-41.0","","70","","","M","36","","16","","","M","99.92","","","","-51","","NA"
"-81.82","69.36","IGLOOLIK A","2402546","2019-01-15 21:00","2019","01","15","21:00","-37.6","","-41.2","","70","","","M","1","","20","","","M","99.88","","","","-53","","NA"
"-81.82","69.36","IGLOOLIK A","2402546","2019-01-15 22:00","2019","01","15","22:00","-37.1","","-40.7","","70","","","M","36","","19","","","M","99.85","","","","-52","","NA"
"-81.82","69.36","IGLOOLIK A","2402546","2019-01-15 23:00","2019","01","15","23:00","-37.0","","-40.5","","70","","","M","1","","23","","","M","99.82","","","","-53","","NA"
"-81.82","69.36","IGLOOLIK A","2402546","2019-01-16 00:00","2019","01","16","00:00","-36.5","","-40.1","","70","","","M","1","","19","","","M","99.82","","","","-51","","NA"
"-81.82","69.36","IGLOOLIK A","2402546","2019-01-16 01:00","2019","01","16","01:00","-36.0","","-39.5","","71","","","M","1","","21","","","M","99.77","","","","-51","","NA"
"-81.82","69.36","IGLOOLIK A","2402546","2019-01-16 02:00","2019","01","16","02:00","-36.0","","-39.5","","71","","","M","1","","26","","","M","99.73","","","","-52","","NA"
"-81.82","69.36","IGLOOLIK A","2402546","2019-01-16 03:00","2019","01","16","03:00","-36.2","","-39.8","","71","","","M","1","","20","","","M","99.76","","","","-51","","NA"
"-81.82","69.36","IGLOOLIK A","2402546","2019-01-16 04:00","2019","01","16","04:00","-36.5","","-40.1","","70","","","M","1","","23","","","M","99.76","","","","-52","","NA"
"-81.82","69.36","IGLOOLIK A","2402546","2019-01-16 05:00","2019","01","16","05:00","-36.5","","-40.0","","70","","","M","34","","12","","","M","99.74","","","","-48","","NA"
"-81.82","69.36","IGLOOLIK A","2402546","2019-01-16 06:00","2019","01","16","06:00","-35.5","","-39.0","","71","","","M","36","","13","","","M","99.74","","","","-47","","NA"
"-81.82","69.36","IGLOOLIK A","2402546","2019-01-16 07:00","2019","01","16","07:00","-36.5","","-40.1","","70","","","M","1","","18","","","M","99.70","","","","-51","","NA"
"-81.82","69.36","IGLOOLIK A","2402546","2019-01-16 08:00","2019","01","16","08:00","-36.8","","-40.4","","70","","","M","1","","23","","","M","99.69","","","","-53","","NA"
"-81.82","69.36","IGLOOLIK A","2402546","2019-01-16 09:00","2019","01","16","09:00","-36.7","","-40.3","","70","","","M","1","","25","","","M","99.69","","","","-53","","NA"
"-81.82","69.36","IGLOOLIK A","2402546","2019-01-16 10:00","2019","01","16","10:00","-36.8","","-40.4","","70","","","M","1","","22","","","M","99.69","","","","-52","","NA"
"-81.82","69.36","IGLOOLIK A","2402546","2019-01-16 11:00","2019","01","16","11:00","-37.7","","-41.3","","70","","","M","36","","15","","","M","99.73","","","","-51","","NA"
"-81.82","69.36","IGLOOLIK A","2402546","2019-01-16 12:00","2019","01","16","12:00","-37.1","","-40.7","","70","","","M","1","","14","","","M","99.74","","","","-50","","NA"
"-81.82","69.36","IGLOOLIK A","2402546","2019-01-16 13:00","2019","01","16","13:00","-37.4","","-41.0","","70","","","M","2","","17","","","M","99.76","","","","-51","","NA"
"-81.82","69.36","IGLOOLIK A","2402546","2019-01-16 14:00","2019","01","16","14:00","-37.5","","-41.1","","70","","","M","1","","18","","","M","99.78","","","","-52","","NA"
"-81.82","69.36","IGLOOLIK A","2402546","2019-01-16 15:00","2019","01","16","15:00","-37.4","","-41.0","","70","","","M","2","","20","","","M","99.84","","","","-52","","NA"
"-81.82","69.36","IGLOOLIK A","2402546","2019-01-16 16:00","2019","01","16","16:00","-37.4","","-41.0","","70","","","M","1","","14","","","M","99.91","","","","-50","","NA"
"-81.82","69.36","IGLOOLIK A","2402546","2019-01-16 17:00","2019","01","16","17:00","-37.4","","-41.0","","70","","","M","2","","16","","","M","99.98","","","","-51","","NA"
"-81.82","69.36","IGLOOLIK A","2402546","2019-01-16 18:00","2019","01","16","18:00","-37.2","","-40.8","","70","","","M","1","","15","","","M","100.03","","","","-50","","NA"
"-81.82","69.36","IGLOOLIK A","2402546","2019-01-16 19:00","2019","01","16","19:00","-37.5","","-41.1","","70","","","M","1","","17","","","M","100.07","","","","-51","","NA"
"-81.82","69.36","IGLOOLIK A","2402546","2019-01-16 20:00","2019","01","16","20:00","-36.9","","-40.5","","70","","","M","2","","17","","","M","100.12","","","","-51","","NA"
"-81.82","69.36","IGLOOLIK A","2402546","2019-01-16 21:00","2019","01","16","21:00","-37.1","","-40.8","","70","","","M","3","","18","","","M","100.18","","","","-51","","NA"
"-81.82","69.36","IGLOOLIK A","2402546","2019-01-16 22:00","2019","01","16","22:00","-36.6","","-40.1","","70","","","M","3","","21","","","M","100.22","","","","-52","","NA"
"-81.82","69.36","IGLOOLIK A","2402546","2019-01-16 23:00","2019","01","16","23:00","-36.6","","-40.2","","70","","","M","3","","19","","","M","100.26","","","","-51","","NA"
"-81.82","69.36","IGLOOLIK A","2402546","2019-01-17 00:00","2019","01","17","00:00","-37.3","","-40.9","","70","","","M","3","","17","","","M","100.33","","","","-51","","NA"
"-81.82","69.36","IGLOOLIK A","2402546","2019-01-17 01:00","2019","01","17","01:00","-37.2","","-40.8","","70","","","M","2","","18","","","M","100.38","","","","-51","","NA"
"-81.82","69.36","IGLOOLIK A","2402546","2019-01-17 02:00","2019","01","17","02:00","-36.7","","-40.3","","70","","","M","3","","18","","","M","100.42","","","","-51","","NA"
"-81.82","69.36","IGLOOLIK A","2402546","2019-01-17 03:00","2019","01","17","03:00","-36.8","","-40.4","","70","","","M","3","","17","","","M","100.48","","","","-51","","NA"
"-81.82","69.36","IGLOOLIK A","2402546","2019-01-17 04:00","2019","01","17","04:00","-37.4","","-41.0","","70","","","M","2","","17","","","M","100.54","","","","-51","","NA"
"-81.82","69.36","IGLOOLIK A","2402546","2019-01-17 05:00","2019","01","17","05:00","-36.9","","-40.5","","70","","","M","1","","17","","","M","100.60","","","","-51","","NA"
"-81.82","69.36","IGLOOLIK A","2402546","2019-01-17 06:00","2019","01","17","06:00","-36.7","","-40.3","","70","","","M","3","","23","","","M","100.63","","","","-52","","NA"
"-81.82","69.36","IGLOOLIK A","2402546","2019-01-17 07:00","2019","01","17","07:00","-36.3","","-39.9","","70","","","M","4","","23","","","M","100.68","","","","-52","","NA"
"-81.82","69.36","IGLOOLIK A","2402546","2019-01-17 08:00","2019","01","17","08:00","-37.2","","-40.8","","70","","","M","2","","17","","","M","100.73","","","","-51","","NA"
"-81.82","69.36","IGLOOLIK A","2402546","2019-01-17 09:00","2019","01","17","09:00","-36.6","","-40.2","","70","","","M","4","","19","","","M","100.76","","","","-51","","NA"
"-81.82","69.36","IGLOOLIK A","2402546","2019-01-17 10:00","2019","01","17","10:00","-36.6","","-40.2","","70","","","M","3","","21","","","M","100.81","","","","-52","","NA"
"-81.82","69.36","IGLOOLIK A","2402546","2019-01-17 11:00","2019","01","17","11:00","-36.8","","-40.4","","70","","","M","3","","21","","","M","100.86","","","","-52","","NA"
"-81.82","69.36","IGLOOLIK A","2402546","2019-01-17 12:00","2019","01","17","12:00","-36.6","","-40.2","","70","","","M","3","","21","","","M","100.90","","","","-52","","NA"
"-81.82","69.36","IGLOOLIK A","2402546","2019-01-17 13:00","2019","01","17","13:00","-36.6","","-40.2","","70","","","M","4","","18","","","M","100.93","","","","-51","","NA"
"-81.82","69.36","IGLOOLIK A","2402546","2019-01-17 14:00","2019","01","17","14:00","-36.8","","-40.4","","70","","","M","2","","18","","","M","100.95","","","","-51","","NA"
"-81.82","69.36","IGLOOLIK A","2402546","2019-01-17 15:00","2019","01","17","15:00","-36.8","","-40.4","","70","","","M","2","","16","","","M","100.99","","","","-50","","NA"
"-81.82","69.36","IGLOOLIK A","2402546","2019-01-17 16:00","2019","01","17","16:00","-36.0","","-39.5","","71","","","M","2","","16","","","M","101.03","","","","-49","","NA"
"-81.82","69.36","IGLOOLIK A","2402546","2019-01-17 17:00","2019","01","17","17:00","-36.7","","-40.4","","70","","","M","1","","18","","","M","101.07","","","","-51","","NA"
"-81.82","69.36","IGLOOLIK A","2402546","2019-01-17 18:00","2019","01","17","18:00","-36.4","","-40.0","","70","","","M","1","","18","","","M","101.09","","","","-50","","NA"
"-81.82","69.36","IGLOOLIK A","2402546","2019-01-17 19:00","2019","01","17","19:00","-35.1","","-38.6","","71","","","M","1","","16","","","M","101.10","","","","-48","","NA"
"-81.82","69.36","IGLOOLIK A","2402546","2019-01-17 20:00","2019","01","17","20:00","-36.0","","-39.6","","71","","","M","1","","18","","","M","101.11","","","","-50","","NA"
"-81.82","69.36","IGLOOLIK A","2402546","2019-01-17 21:00","2019","01","17","21:00","-35.6","","-39.1","","71","","","M","35","","13","","","M","101.11","","","","-47","","NA"
"-81.82","69.36","IGLOOLIK A","2402546","2019-01-17 22:00","2019","01","17","22:00","-35.7","","-39.2","","71","","","M","35","","15","","","M","101.12","","","","-48","","NA"
"-81.82","69.36","IGLOOLIK A","2402546","2019-01-17 23:00","2019","01","17","23:00","-34.5","","-38.0","","72","","","M","34","","14","","","M","101.12","","","","-47","","NA"
"-81.82","69.36","IGLOOLIK A","2402546","2019-01-18 00:00","2019","01","18","00:00","-35.2","","-38.8","","71","","","M","35","","17","","","M","101.10","","","","-49","","NA"
"-81.82","69.36","IGLOOLIK A","2402546","2019-01-18 01:00","2019","01","18","01:00","-35.1","","-38.6","","71","","","M","36","","19","","","M","101.10","","","","-49","","NA"
"-81.82","69.36","IGLOOLIK A","2402546","2019-01-18 02:00","2019","01","18","02:00","-35.3","","-38.9","","71","","","M","35","","18","","","M","101.09","","","","-49","","NA"
"-81.82","69.36","IGLOOLIK A","2402546","2019-01-18 03:00","2019","01","18","03:00","-35.2","","-38.6","","71","","","M","35","","21","","","M","101.08","","","","-50","","NA"
"-81.82","69.36","IGLOOLIK A","2402546","2019-01-18 04:00","2019","01","18","04:00","-34.6","","-38.0","","72","","","M","36","","17","","","M","101.11","","","","-48","","NA"
"-81.82","69.36","IGLOOLIK A","2402546","2019-01-18 05:00","2019","01","18","05:00","-34.7","","-38.2","","71","","","M","36","","23","","","M","101.09","","","","-50","","NA"
"-81.82","69.36","IGLOOLIK A","2402546","2019-01-18 06:00","2019","01","18","06:00","-33.5","","-36.9","","72","","","M","1","","25","","","M","101.09","","","","-49","","NA"
"-81.82","69.36","IGLOOLIK A","2402546","2019-01-18 07:00","2019","01","18","07:00","-34.9","","-38.3","","71","","","M","35","","17","","","M","101.07","","","","-48","","NA"
"-81.82","69.36","IGLOOLIK A","2402546","2019-01-18 08:00","2019","01","18","08:00","-33.2","","-36.6","","73","","","M","36","","29","","","M","101.06","","","","-50","","NA"
"-81.82","69.36","IGLOOLIK A","2402546","2019-01-18 09:00","2019","01","18","09:00","-32.6","","-35.9","","73","","","M","35","","29","","","M","101.04","","","","-49","","NA"
"-81.82","69.36","IGLOOLIK A","2402546","2019-01-18 10:00","2019","01","18","10:00","-32.4","","-35.8","","73","","","M","35","","26","","","M","101.01","","","","-48","","NA"
"-81.82","69.36","IGLOOLIK A","2402546","2019-01-18 11:00","2019","01","18","11:00","-32.6","","-35.9","","73","","","M","35","","20","","","M","100.99","","","","-46","","NA"
"-81.82","69.36","IGLOOLIK A","2402546","2019-01-18 12:00","2019","01","18","12:00","-32.4","","-35.6","","73","","","M","34","","20","","","M","100.94","","","","-46","","NA"
"-81.82","69.36","IGLOOLIK A","2402546","2019-01-18 13:00","2019","01","18","13:00","-33.2","","-36.5","","73","","","M","31","","14","","","M","100.90","","","","-45","","NA"
"-81.82","69.36","IGLOOLIK A","2402546","2019-01-18 14:00","2019","01","18","14:00","-32.6","","-35.9","","73","","","M","30","","17","","","M","100.83","","","","-45","","NA"
"-81.82","69.36","IGLOOLIK A","2402546","2019-01-18 15:00","2019","01","18","15:00","-32.0","","-35.3","","73","","","M","31","","22","","","M","100.75","","","","-46","","NA"
"-81.82","69.36","IGLOOLIK A","2402546","2019-01-18 16:00","2019","01","18","16:00","-29.3","","-32.3","","76","","","M","31","","28","","","M","100.70","","","","-44","","NA"
"-81.82","69.36","IGLOOLIK A","2402546","2019-01-18 17:00","2019","01","18","17:00","-27.6","","-30.6","","77","","","M","32","","27","","","M","100.63","","","","-42","","NA"
"-81.82","69.36","IGLOOLIK A","2402546","2019-01-18 18:00","2019","01","18","18:00","-26.5","","-29.4","","77","","","M","32","","29","","","M","100.59","","","","-41","","NA"
"-81.82","69.36","IGLOOLIK A","2402546","2019-01-18 19:00","2019","01","18","19:00","-26.0","","-28.9","","78","","","M","30","","35","","","M","100.47","","","","-41","","NA"
"-81.82","69.36","IGLOOLIK A","2402546","2019-01-18 20:00","2019","01","18","20:00","-25.9","","-28.7","","78","","","M","31","","36","","","M","100.35","","","","-41","","NA"
"-81.82","69.36","IGLOOLIK A","2402546","2019-01-18 21:00","2019","01","18","21:00","-27.1","","-30.0","","77","","","M","32","","38","","","M","100.23","","","","-43","","NA"
"-81.82","69.36","IGLOOLIK A","2402546","2019-01-18 22:00","2019","01","18","22:00","-27.3","","-30.2","","77","","","M","32","","39","","","M","100.17","","","","-44","","NA"
"-81.82","69.36","IGLOOLIK A","2402546","2019-01-18 23:00","2019","01","18","23:00","-28.2","","-31.1","","76","","","M","32","","41","","","M","100.11","","","","-45","","NA"
"-81.82","69.36","IGLOOLIK A","2402546","2019-01-19 00:00","2019","01","19","00:00","-27.3","","-30.2","","77","","","M","31","","43","","","M","100.05","","","","-44","","NA"
"-81.82","69.36","IGLOOLIK A","2402546","2019-01-19 01:00","2019","01","19","01:00","-29.1","","-32.2","","75","","","M","30","","34","","","M","99.99","","","","-45","","NA"
"-81.82","69.36","IGLOOLIK A","2402546","2019-01-19 02:00","2019","01","19","02:00","-29.0","","-32.0","","76","","","M","31","","30","","","M","99.89","","","","-44","","NA"
"-81.82","69.36","IGLOOLIK A","2402546","2019-01-19 03:00","2019","01","19","03:00","-29.3","","-32.3","","76","","","M","32","","32","","","M","99.80","","","","-45","","NA"
"-81.82","69.36","IGLOOLIK A","2402546","2019-01-19 04:00","2019","01","19","04:00","-29.4","","-32.4","","76","","","M","30","","25","","","M","99.75","","","","-44","","NA"
"-81.82","69.36","IGLOOLIK A","2402546","2019-01-19 05:00","2019","01","19","05:00","-28.9","","-31.9","","76","","","M","30","","26","","","M","99.69","","","","-43","","NA"
"-81.82","69.36","IGLOOLIK A","2402546","2019-01-19 06:00","2019","01","19","06:00","-28.6","","-31.6","","76","","","M","28","","27","","","M","99.61","","","","-43","","NA"
"-81.82","69.36","IGLOOLIK A","2402546","2019-01-19 07:00","2019","01","19","07:00","-28.1","","-31.0","","76","","","M","29","","26","","","M","99.53","","","","-42","","NA"
"-81.82","69.36","IGLOOLIK A","2402546","2019-01-19 08:00","2019","01","19","08:00","-27.9","","-30.9","","77","","","M","29","","22","","","M","99.45","","","","-41","","NA"
"-81.82","69.36","IGLOOLIK A","2402546","2019-01-19 09:00","2019","01","19","09:00","-27.5","","-30.4","","77","","","M","30","","21","","","M","99.39","","","","-40","","NA"
"-81.82","69.36","IGLOOLIK A","2402546","2019-01-19 10:00","2019","01","19","10:00","-28.5","","-31.5","","76","","","M","29","","18","","","M","99.32","","","","-41","","NA"
"-81.82","69.36","IGLOOLIK A","2402546","2019-01-19 11:00","2019","01","19","11:00","-28.4","","-31.3","","77","","","M","29","","20","","","M","99.27","","","","-41","","NA"
"-81.82","69.36","IGLOOLIK A","2402546","2019-01-19 12:00","2019","01","19","12:00","-27.5","","-30.4","","77","","","M","28","","17","","","M","99.19","","","","-39","","NA"
"-81.82","69.36","IGLOOLIK A","2402546","2019-01-19 13:00","2019","01","19","13:00","-26.7","","-29.5","","78","","","M","28","","19","","","M","99.12","","","","-39","","NA"
"-81.82","69.36","IGLOOLIK A","2402546","2019-01-19 14:00","2019","01","19","14:00","-25.9","","-28.6","","78","","","M","28","","13","","","M","99.08","","","","-36","","NA"
"-81.82","69.36","IGLOOLIK A","2402546","2019-01-19 15:00","2019","01","19","15:00","-25.5","","-28.2","","78","","","M","27","","14","","","M","99.03","","","","-35","","NA"
"-81.82","69.36","IGLOOLIK A","2402546","2019-01-19 16:00","2019","01","19","16:00","-26.8","","-29.6","","77","","","M","27","","13","","","M","98.99","","","","-37","","NA"
"-81.82","69.36","IGLOOLIK A","2402546","2019-01-19 17:00","2019","01","19","17:00","-26.1","","-28.8","","78","","","M","27","","16","","","M","98.95","","","","-37","","NA"
"-81.82","69.36","IGLOOLIK A","2402546","2019-01-19 18:00","2019","01","19","18:00","-26.4","","-29.2","","78","","","M","29","","16","","","M","98.94","","","","-37","","NA"
"-81.82","69.36","IGLOOLIK A","2402546","2019-01-19 19:00","2019","01","19","19:00","-26.0","","-28.8","","78","","","M","33","","20","","","M","98.91","","","","-38","","NA"
"-81.82","69.36","IGLOOLIK A","2402546","2019-01-19 20:00","2019","01","19","20:00","-26.6","","-29.3","","78","","","M","33","","17","","","M","98.86","","","","-38","","NA"
"-81.82","69.36","IGLOOLIK A","2402546","2019-01-19 21:00","2019","01","19","21:00","-27.8","","-30.7","","77","","","M","35","","15","","","M","98.85","","","","-39","","NA"
"-81.82","69.36","IGLOOLIK A","2402546","2019-01-19 22:00","2019","01","19","22:00","-30.1","","-33.2","","75","","","M","33","","18","","","M","98.85","","","","-43","","NA"
"-81.82","69.36","IGLOOLIK A","2402546","2019-01-19 23:00","2019","01","19","23:00","-30.9","","-34.1","","75","","","M","1","","18","","","M","98.85","","","","-44","","NA"
"-81.82","69.36","IGLOOLIK A","2402546","2019-01-20 00:00","2019","01","20","00:00","-31.9","","-35.1","","74","","","M","1","","19","","","M","98.83","","","","-45","","NA"
"-81.82","69.36","IGLOOLIK A","2402546","2019-01-20 01:00","2019","01","20","01:00","-30.9","","-34.0","","75","","","M","34","","18","","","M","98.84","","","","-44","","NA"
"-81.82","69.36","IGLOOLIK A","2402546","2019-01-20 02:00","2019","01","20","02:00","-30.9","","-34.0","","75","","","M","32","","21","","","M","98.86","","","","-45","","NA"
"-81.82","69.36","IGLOOLIK A","2402546","2019-01-20 03:00","2019","01","20","03:00","-31.9","","-35.1","","74","","","M","33","","19","","","M","98.88","","","","-45","","NA"
"-81.82","69.36","IGLOOLIK A","2402546","2019-01-20 04:00","2019","01","20","04:00","-33.3","","-36.6","","73","","","M","32","","19","","","M","98.91","","","","-47","","NA"
"-81.82","69.36","IGLOOLIK A","2402546","2019-01-20 05:00","2019","01","20","05:00","-34.5","","-37.9","","72","","","M","32","","20","","","M","98.94","","","","-49","","NA"
"-81.82","69.36","IGLOOLIK A","2402546","2019-01-20 06:00","2019","01","20","06:00","-34.9","","-38.2","","72","","","M","32","","14","","","M","98.93","","","","-47","","NA"
"-81.82","69.36","IGLOOLIK A","2402546","2019-01-20 07:00","2019","01","20","07:00","-35.9","","-39.4","","71","","","M","33","","16","","","M","98.96","","","","-49","","NA"
"-81.82","69.36","IGLOOLIK A","2402546","2019-01-20 08:00","2019","01","20","08:00","-36.8","","-40.4","","71","","","M","31","","19","","","M","98.96","","","","-51","","NA"
"-81.82","69.36","IGLOOLIK A","2402546","2019-01-20 09:00","2019","01","20","09:00","-36.9","","-40.4","","71","","","M","31","","18","","","M","98.95","","","","-51","","NA"
"-81.82","69.36","IGLOOLIK A","2402546","2019-01-20 10:00","2019","01","20","10:00","-37.0","","-40.5","","71","","","M","29","","14","","","M","98.95","","","","-50","","NA"
"-81.82","69.36","IGLOOLIK A","2402546","2019-01-20 11:00","2019","01","20","11:00","-37.2","","-40.8","","71","","","M","31","","16","","","M","98.96","","","","-51","","NA"
"-81.82","69.36","IGLOOLIK A","2402546","2019-01-20 12:00","2019","01","20","12:00","-37.1","","-40.7","","70","","","M","29","","14","","","M","98.98","","","","-50","","NA"
"-81.82","69.36","IGLOOLIK A","2402546","2019-01-20 13:00","2019","01","20","13:00","-37.1","","-40.7","","71","","","M","29","","15","","","M","98.99","","","","-50","","NA"
"-81.82","69.36","IGLOOLIK A","2402546","2019-01-20 14:00","2019","01","20","14:00","-37.6","","-41.2","","70","","","M","28","","16","","","M","99.02","","","","-51","","NA"
"-81.82","69.36","IGLOOLIK A","2402546","2019-01-20 15:00","2019","01","20","15:00","-37.7","","-41.3","","70","","","M","30","","18","","","M","99.06","","","","-52","","NA"
"-81.82","69.36","IGLOOLIK A","2402546","2019-01-20 16:00","2019","01","20","16:00","-37.3","","-40.9","","71","","","M","30","","18","","","M","99.10","","","","-52","","NA"
"-81.82","69.36","IGLOOLIK A","2402546","2019-01-20 17:00","2019","01","20","17:00","-37.9","","-41.5","","70","","","M","28","","22","","","M","99.11","","","","-54","","NA"
"-81.82","69.36","IGLOOLIK A","2402546","2019-01-20 18:00","2019","01","20","18:00","-37.7","","-41.2","","70","","","M","27","","20","","","M","99.16","","","","-53","","NA"
"-81.82","69.36","IGLOOLIK A","2402546","2019-01-20 19:00","2019","01","20","19:00","-36.6","","-40.1","","71","","","M","28","","18","","","M","99.18","","","","-51","","NA"
"-81.82","69.36","IGLOOLIK A","2402546","2019-01-20 20:00","2019","01","20","20:00","-36.1","","-39.6","","71","","","M","26","","12","","","M","99.20","","","","-48","","NA"
"-81.82","69.36","IGLOOLIK A","2402546","2019-01-20 21:00","2019","01","20","21:00","-34.9","","-38.3","","72","","","M","28","","18","","","M","99.21","","","","-49","","NA"
"-81.82","69.36","IGLOOLIK A","2402546","2019-01-20 22:00","2019","01","20","22:00","-35.1","","-38.5","","72","","","M","28","","14","","","M","99.25","","","","-47","","NA"
"-81.82","69.36","IGLOOLIK A","2402546","2019-01-20 23:00","2019","01","20","23:00","-35.7","","-39.2","","71","","","M","26","","10","","","M","99.31","","","","-46","","NA"
"-81.82","69.36","IGLOOLIK A","2402546","2019-01-21 00:00","2019","01","21","00:00","-35.8","","-39.3","","71","","","M","25","","11","","","M","99.37","","","","-47","","NA"
"-81.82","69.36","IGLOOLIK A","2402546","2019-01-21 01:00","2019","01","21","01:00","-36.1","","-39.6","","71","","","M","25","","11","","","M","99.37","","","","-47","","NA"
"-81.82","69.36","IGLOOLIK A","2402546","2019-01-21 02:00","2019","01","21","02:00","-35.1","","-38.6","","72","","","M","29","","6","","","M","99.39","","","","-42","","NA"
"-81.82","69.36","IGLOOLIK A","2402546","2019-01-21 03:00","2019","01","21","03:00","-35.0","","-38.4","","72","","","M","1","","4","","","M","99.41","","","","-40","","NA"
"-81.82","69.36","IGLOOLIK A","2402546","2019-01-21 04:00","2019","01","21","04:00","-35.9","","-39.4","","71","","","M","3","","11","","","M","99.44","","","","-47","","NA"
"-81.82","69.36","IGLOOLIK A","2402546","2019-01-21 05:00","2019","01","21","05:00","-36.8","","-40.4","","70","","","M","4","","22","","","M","99.45","","","","-52","","NA"
"-81.82","69.36","IGLOOLIK A","2402546","2019-01-21 06:00","2019","01","21","06:00","-36.0","","-39.4","","71","","","M","2","","17","","","M","99.45","","","","-50","","NA"
"-81.82","69.36","IGLOOLIK A","2402546","2019-01-21 07:00","2019","01","21","07:00","-35.3","","-38.8","","71","","","M","3","","21","","","M","99.44","","","","-50","","NA"
"-81.82","69.36","IGLOOLIK A","2402546","2019-01-21 08:00","2019","01","21","08:00","-35.3","","-38.8","","71","","","M","2","","15","","","M","99.46","","","","-48","","NA"
"-81.82","69.36","IGLOOLIK A","2402546","2019-01-21 09:00","2019","01","21","09:00","-34.9","","-38.4","","72","","","M","33","","10","","","M","99.47","","","","-45","","NA"
"-81.82","69.36","IGLOOLIK A","2402546","2019-01-21 10:00","2019","01","21","10:00","-35.4","","-38.9","","71","","","M","32","","8","","","M","99.48","","","","-44","","NA"
"-81.82","69.36","IGLOOLIK A","2402546","2019-01-21 11:00","2019","01","21","11:00","-36.8","","-40.3","","70","","","M","32","","10","","","M","99.53","","","","-47","","NA"
"-81.82","69.36","IGLOOLIK A","2402546","2019-01-21 12:00","2019","01","21","12:00","-37.6","","-41.2","","70","","","M","32","","8","","","M","99.57","","","","-47","","NA"
"-81.82","69.36","IGLOOLIK A","2402546","2019-01-21 13:00","2019","01","21","13:00","-38.2","","-41.9","","70","","","M","31","","10","","","M","99.61","","","","-49","","NA"
"-81.82","69.36","IGLOOLIK A","2402546","2019-01-21 14:00","2019","01","21","14:00","-37.5","","-41.1","","70","","","M","34","","10","","","M","99.66","","","","-48","","NA"
"-81.82","69.36","IGLOOLIK A","2402546","2019-01-21 15:00","2019","01","21","15:00","-37.8","","-41.4","","70","","","M","33","","11","","","M","99.69","","","","-49","","NA"
"-81.82","69.36","IGLOOLIK A","2402546","2019-01-21 16:00","2019","01","21","16:00","-37.8","","-41.4","","70","","","M","33","","12","","","M","99.72","","","","-50","","NA"
"-81.82","69.36","IGLOOLIK A","2402546","2019-01-21 17:00","2019","01","21","17:00","-38.3","","-42.0","","70","","","M","34","","13","","","M","99.76","","","","-51","","NA"
"-81.82","69.36","IGLOOLIK A","2402546","2019-01-21 18:00","2019","01","21","18:00","-38.4","","-42.1","","70","","","M","32","","10","","","M","99.79","","","","-49","","NA"
"-81.82","69.36","IGLOOLIK A","2402546","2019-01-21 19:00","2019","01","21","19:00","-38.2","","-41.9","","70","","","M","34","","13","","","M","99.78","","","","-51","","NA"
"-81.82","69.36","IGLOOLIK A","2402546","2019-01-21 20:00","2019","01","21","20:00","-37.9","","-41.5","","70","","","M","35","","13","","","M","99.78","","","","-50","","NA"
"-81.82","69.36","IGLOOLIK A","2402546","2019-01-21 21:00","2019","01","21","21:00","-38.3","","-42.0","","69","","","M","34","","13","","","M","99.79","","","","-51","","NA"
"-81.82","69.36","IGLOOLIK A","2402546","2019-01-21 22:00","2019","01","21","22:00","-38.0","","-41.7","","70","","","M","33","","14","","","M","99.75","","","","-51","","NA"
"-81.82","69.36","IGLOOLIK A","2402546","2019-01-21 23:00","2019","01","21","23:00","-37.1","","-40.7","","70","","","M","36","","18","","","M","99.74","","","","-51","","NA"
"-81.82","69.36","IGLOOLIK A","2402546","2019-01-22 00:00","2019","01","22","00:00","-35.2","","-38.7","","71","","","M","36","","21","","","M","99.72","","","","-50","","NA"
"-81.82","69.36","IGLOOLIK A","2402546","2019-01-22 01:00","2019","01","22","01:00","-34.6","","-38.0","","72","","","M","36","","23","","","M","99.71","","","","-50","","NA"
"-81.82","69.36","IGLOOLIK A","2402546","2019-01-22 02:00","2019","01","22","02:00","-34.6","","-38.1","","72","","","M","35","","23","","","M","99.68","","","","-50","","NA"
"-81.82","69.36","IGLOOLIK A","2402546","2019-01-22 03:00","2019","01","22","03:00","-34.5","","-37.9","","72","","","M","35","","21","","","M","99.67","","","","-49","","NA"
"-81.82","69.36","IGLOOLIK A","2402546","2019-01-22 04:00","2019","01","22","04:00","-34.3","","-37.8","","72","","","M","35","","20","","","M","99.64","","","","-49","","NA"
"-81.82","69.36","IGLOOLIK A","2402546","2019-01-22 05:00","2019","01","22","05:00","-34.9","","-38.4","","72","","","M","36","","19","","","M","99.63","","","","-49","","NA"
"-81.82","69.36","IGLOOLIK A","2402546","2019-01-22 06:00","2019","01","22","06:00","-34.4","","-37.8","","72","","","M","35","","19","","","M","99.61","","","","-48","","NA"
"-81.82","69.36","IGLOOLIK A","2402546","2019-01-22 07:00","2019","01","22","07:00","-34.0","","-37.3","","72","","","M","35","","16","","","M","99.58","","","","-47","","NA"
"-81.82","69.36","IGLOOLIK A","2402546","2019-01-22 08:00","2019","01","22","08:00","-34.0","","-37.4","","72","","","M","36","","15","","","M","99.55","","","","-46","","NA"
"-81.82","69.36","IGLOOLIK A","2402546","2019-01-22 09:00","2019","01","22","09:00","-33.3","","-36.7","","73","","","M","34","","13","","","M","99.53","","","","-45","","NA"
"-81.82","69.36","IGLOOLIK A","2402546","2019-01-22 10:00","2019","01","22","10:00","-33.6","","-36.9","","72","","","M","35","","14","","","M","99.52","","","","-45","","NA"
"-81.82","69.36","IGLOOLIK A","2402546","2019-01-22 11:00","2019","01","22","11:00","-33.3","","-36.6","","73","","","M","36","","16","","","M","99.50","","","","-46","","NA"
"-81.82","69.36","IGLOOLIK A","2402546","2019-01-22 12:00","2019","01","22","12:00","-33.7","","-37.0","","72","","","M","34","","11","","","M","99.46","","","","-44","","NA"
"-81.82","69.36","IGLOOLIK A","2402546","2019-01-22 13:00","2019","01","22","13:00","-32.4","","-35.7","","73","","","M","2","","14","","","M","99.43","","","","-44","","NA"
"-81.82","69.36","IGLOOLIK A","2402546","2019-01-22 14:00","2019","01","22","14:00","-32.0","","-35.3","","74","","","M","1","","17","","","M","99.42","","","","-45","","NA"
"-81.82","69.36","IGLOOLIK A","2402546","2019-01-22 15:00","2019","01","22","15:00","-31.4","","-34.6","","74","","","M","1","","19","","","M","99.42","","","","-45","","NA"
"-81.82","69.36","IGLOOLIK A","2402546","2019-01-22 16:00","2019","01","22","16:00","-31.2","","-34.4","","74","","","M","2","","22","","","M","99.43","","","","-45","","NA"
"-81.82","69.36","IGLOOLIK A","2402546","2019-01-22 17:00","2019","01","22","17:00","-31.4","","-34.7","","74","","","M","1","","22","","","M","99.44","","","","-45","","NA"
"-81.82","69.36","IGLOOLIK A","2402546","2019-01-22 18:00","2019","01","22","18:00","-31.2","","-34.5","","74","","","M","2","","23","","","M","99.44","","","","-45","","NA"
"-81.82","69.36","IGLOOLIK A","2402546","2019-01-22 19:00","2019","01","22","19:00","-30.2","","-33.3","","75","","","M","2","","22","","","M","99.40","","","","-44","","NA"
"-81.82","69.36","IGLOOLIK A","2402546","2019-01-22 20:00","2019","01","22","20:00","-29.7","","-32.8","","75","","","M","2","","20","","","M","99.38","","","","-43","","NA"
"-81.82","69.36","IGLOOLIK A","2402546","2019-01-22 21:00","2019","01","22","21:00","-27.8","","-30.8","","77","","","M","7","","18","","","M","99.36","","","","-40","","NA"
"-81.82","69.36","IGLOOLIK A","2402546","2019-01-22 22:00","2019","01","22","22:00","-33.5","","-37.1","","71","","","M","20","","20","","","M","99.38","","","","-48","","NA"
"-81.82","69.36","IGLOOLIK A","2402546","2019-01-22 23:00","2019","01","22","23:00","-36.6","","-40.2","","71","","","M","22","","17","","","M","99.45","","","","-50","","NA"
"-81.82","69.36","IGLOOLIK A","2402546","2019-01-23 00:00","2019","01","23","00:00","-38.2","","-41.8","","70","","","M","22","","23","","","M","99.49","","","","-54","","NA"
"-81.82","69.36","IGLOOLIK A","2402546","2019-01-23 01:00","2019","01","23","01:00","-39.0","","-42.6","","69","","","M","23","","17","","","M","99.55","","","","-53","","NA"
"-81.82","69.36","IGLOOLIK A","2402546","2019-01-23 02:00","2019","01","23","02:00","-39.2","","-42.9","","69","","","M","16","","10","","","M","99.60","","","","-50","","NA"
"-81.82","69.36","IGLOOLIK A","2402546","2019-01-23 03:00","2019","01","23","03:00","-39.8","","-43.5","","69","","","M","20","","14","","","M","99.61","","","","-53","","NA"
"-81.82","69.36","IGLOOLIK A","2402546","2019-01-23 04:00","2019","01","23","04:00","-40.1","","-43.8","","69","","","M","22","","20","","","M","99.64","","","","-56","","NA"
"-81.82","69.36","IGLOOLIK A","2402546","2019-01-23 05:00","2019","01","23","05:00","-40.4","","-44.2","","68","","","M","22","","16","","","M","99.66","","","","-55","","NA"
"-81.82","69.36","IGLOOLIK A","2402546","2019-01-23 06:00","2019","01","23","06:00","-40.2","","-44.0","","68","","","M","23","","18","","","M","99.70","","","","-55","","NA"
"-81.82","69.36","IGLOOLIK A","2402546","2019-01-23 07:00","2019","01","23","07:00","-39.6","","-43.3","","69","","","M","24","","21","","","M","99.72","","","","-56","","NA"
"-81.82","69.36","IGLOOLIK A","2402546","2019-01-23 08:00","2019","01","23","08:00","-39.8","","-43.6","","69","","","M","24","","14","","","M","99.74","","","","-53","","NA"
"-81.82","69.36","IGLOOLIK A","2402546","2019-01-23 09:00","2019","01","23","09:00","-38.4","","-42.1","","69","","","M","25","","12","","","M","99.72","","","","-50","","NA"
"-81.82","69.36","IGLOOLIK A","2402546","2019-01-23 10:00","2019","01","23","10:00","-38.9","","-42.6","","69","","","M","24","","10","","","M","99.76","","","","-50","","NA"
"-81.82","69.36","IGLOOLIK A","2402546","2019-01-23 11:00","2019","01","23","11:00","-36.3","","-39.8","","71","","","M","22","","10","","","M","99.81","","","","-47","","NA"
"-81.82","69.36","IGLOOLIK A","2402546","2019-01-23 12:00","2019","01","23","12:00","-40.0","","-43.8","","68","","","M","26","","10","","","M","99.84","","","","-51","","NA"
"-81.82","69.36","IGLOOLIK A","2402546","2019-01-23 13:00","2019","01","23","13:00","-37.7","","-41.4","","70","","","M","7","","8","","","M","99.89","","","","-47","","NA"
"-81.82","69.36","IGLOOLIK A","2402546","2019-01-23 14:00","2019","01","23","14:00","-37.4","","-41.0","","70","","","M","6","","5","","","M","99.93","","","","-44","","NA"
"-81.82","69.36","IGLOOLIK A","2402546","2019-01-23 15:00","2019","01","23","15:00","-35.8","","-39.3","","71","","","M","3","","11","","","M","99.97","","","","-47","","NA"
"-81.82","69.36","IGLOOLIK A","2402546","2019-01-23 16:00","2019","01","23","16:00","-38.8","","-42.5","","69","","","M","30","","11","","","M","100.01","","","","-50","","NA"
"-81.82","69.36","IGLOOLIK A","2402546","2019-01-23 17:00","2019","01","23","17:00","-39.3","","-43.0","","69","","","M","29","","12","","","M","100.05","","","","-51","","NA"
"-81.82","69.36","IGLOOLIK A","2402546","2019-01-23 18:00","2019","01","23","18:00","-38.4","","-42.0","","70","","","M","32","","10","","","M","100.10","","","","-49","","NA"
"-81.82","69.36","IGLOOLIK A","2402546","2019-01-23 19:00","2019","01","23","19:00","-37.4","","-41.0","","70","","","M","30","","6","","","M","100.13","","","","-45","","NA"
"-81.82","69.36","IGLOOLIK A","2402546","2019-01-23 20:00","2019","01","23","20:00","-35.4","","-38.9","","71","","","M","34","","4","","","M","100.18","","","","-40","","NA"
"-81.82","69.36","IGLOOLIK A","2402546","2019-01-23 21:00","2019","01","23","21:00","-36.2","","-39.7","","71","","","M","4","","9","","","M","100.22","","","","-46","","NA"
"-81.82","69.36","IGLOOLIK A","2402546","2019-01-23 22:00","2019","01","23","22:00","-37.0","","-40.5","","70","","","M","6","","8","","","M","100.25","","","","-46","","NA"
"-81.82","69.36","IGLOOLIK A","2402546","2019-01-23 23:00","2019","01","23","23:00","-37.4","","-40.9","","70","","","M","7","","9","","","M","100.28","","","","-47","","NA"
"-81.82","69.36","IGLOOLIK A","2402546","2019-01-24 00:00","2019","01","24","00:00","-35.9","","-39.4","","71","","","M","10","","8","","","M","100.33","","","","-45","","NA"
"-81.82","69.36","IGLOOLIK A","2402546","2019-01-24 01:00","2019","01","24","01:00","-35.6","","-39.1","","71","","","M","16","","10","","","M","100.37","","","","-46","","NA"
"-81.82","69.36","IGLOOLIK A","2402546","2019-01-24 02:00","2019","01","24","02:00","-36.0","","-39.5","","71","","","M","19","","7","","","M","100.45","","","","-44","","NA"
"-81.82","69.36","IGLOOLIK A","2402546","2019-01-24 03:00","2019","01","24","03:00","-35.5","","-38.9","","71","","","M","24","","9","","","M","100.49","","","","-45","","NA"
"-81.82","69.36","IGLOOLIK A","2402546","2019-01-24 04:00","2019","01","24","04:00","-35.0","","-38.4","","72","","","M","24","","4","","","M","100.53","","","","-40","","NA"
"-81.82","69.36","IGLOOLIK A","2402546","2019-01-24 05:00","2019","01","24","05:00","-35.9","","-39.4","","71","","","M","34","","2","","","M","100.58","","","","-38","","NA"
"-81.82","69.36","IGLOOLIK A","2402546","2019-01-24 06:00","2019","01","24","06:00","-35.3","","-38.8","","71","","","M","3","","3","","","M","100.64","","","","-39","","NA"
"-81.82","69.36","IGLOOLIK A","2402546","2019-01-24 07:00","2019","01","24","07:00","-35.4","","-38.8","","71","","","M","2","","5","","","M","100.68","","","","-42","","NA"
"-81.82","69.36","IGLOOLIK A","2402546","2019-01-24 08:00","2019","01","24","08:00","-36.6","","-40.2","","70","","","M","4","","8","","","M","100.73","","","","-46","","NA"
"-81.82","69.36","IGLOOLIK A","2402546","2019-01-24 09:00","2019","01","24","09:00","-37.3","","-40.9","","70","","","M","1","","9","","","M","100.77","","","","-47","","NA"
"-81.82","69.36","IGLOOLIK A","2402546","2019-01-24 10:00","2019","01","24","10:00","-38.0","","-41.6","","69","","","M","1","","10","","","M","100.81","","","","-49","","NA"
"-81.82","69.36","IGLOOLIK A","2402546","2019-01-24 11:00","2019","01","24","11:00","-38.9","","-42.6","","69","","","M","36","","11","","","M","100.85","","","","-50","","NA"
"-81.82","69.36","IGLOOLIK A","2402546","2019-01-24 12:00","2019","01","24","12:00","-39.7","","-43.4","","68","","","M","4","","11","","","M","100.90","","","","-51","","NA"
"-81.82","69.36","IGLOOLIK A","2402546","2019-01-24 13:00","2019","01","24","13:00","-39.0","","-42.8","","69","","","M","4","","14","","","M","100.93","","","","-52","","NA"
"-81.82","69.36","IGLOOLIK A","2402546","2019-01-24 14:00","2019","01","24","14:00","-39.7","","-43.4","","69","","","M","4","","20","","","M","100.95","","","","-55","","NA"
"-81.82","69.36","IGLOOLIK A","2402546","2019-01-24 15:00","2019","01","24","15:00","-38.4","","-42.0","","69","","","M","6","","18","","","M","100.97","","","","-53","","NA"
"-81.82","69.36","IGLOOLIK A","2402546","2019-01-24 16:00","2019","01","24","16:00","-39.5","","-43.3","","68","","","M","4","","18","","","M","101.00","","","","-54","","NA"
"-81.82","69.36","IGLOOLIK A","2402546","2019-01-24 17:00","2019","01","24","17:00","-39.4","","-43.1","","69","","","M","3","","19","","","M","101.03","","","","-55","","NA"
"-81.82","69.36","IGLOOLIK A","2402546","2019-01-24 18:00","2019","01","24","18:00","-38.9","","-42.6","","69","","","M","2","","19","","","M","101.05","","","","-54","","NA"
"-81.82","69.36","IGLOOLIK A","2402546","2019-01-24 19:00","2019","01","24","19:00","-38.1","","-41.8","","69","","","M","3","","19","","","M","101.07","","","","-53","","NA"
"-81.82","69.36","IGLOOLIK A","2402546","2019-01-24 20:00","2019","01","24","20:00","-37.4","","-41.0","","70","","","M","1","","18","","","M","101.07","","","","-52","","NA"
"-81.82","69.36","IGLOOLIK A","2402546","2019-01-24 21:00","2019","01","24","21:00","-37.1","","-40.7","","70","","","M","2","","23","","","M","101.03","","","","-53","","NA"
"-81.82","69.36","IGLOOLIK A","2402546","2019-01-24 22:00","2019","01","24","22:00","-36.9","","-40.5","","70","","","M","1","","23","","","M","101.04","","","","-53","","NA"
"-81.82","69.36","IGLOOLIK A","2402546","2019-01-24 23:00","2019","01","24","23:00","-37.9","","-41.5","","69","","","M","1","","21","","","M","101.04","","","","-53","","NA"
"-81.82","69.36","IGLOOLIK A","2402546","2019-01-25 00:00","2019","01","25","00:00","-38.6","","-42.3","","69","","","M","1","","22","","","M","101.03","","","","-55","","NA"
"-81.82","69.36","IGLOOLIK A","2402546","2019-01-25 01:00","2019","01","25","01:00","-38.5","","-42.1","","69","","","M","1","","24","","","M","101.01","","","","-55","","NA"
"-81.82","69.36","IGLOOLIK A","2402546","2019-01-25 02:00","2019","01","25","02:00","-37.2","","-40.8","","70","","","M","2","","22","","","M","101.03","","","","-53","","NA"
"-81.82","69.36","IGLOOLIK A","2402546","2019-01-25 03:00","2019","01","25","03:00","-36.5","","-40.1","","70","","","M","2","","23","","","M","101.01","","","","-52","","NA"
"-81.82","69.36","IGLOOLIK A","2402546","2019-01-25 04:00","2019","01","25","04:00","-35.8","","-39.3","","71","","","M","2","","24","","","M","101.00","","","","-52","","NA"
"-81.82","69.36","IGLOOLIK A","2402546","2019-01-25 05:00","2019","01","25","05:00","-36.3","","-39.9","","70","","","M","3","","24","","","M","101.02","","","","-52","","NA"
"-81.82","69.36","IGLOOLIK A","2402546","2019-01-25 06:00","2019","01","25","06:00","-36.5","","-40.1","","70","","","M","3","","22","","","M","101.04","","","","-52","","NA"
"-81.82","69.36","IGLOOLIK A","2402546","2019-01-25 07:00","2019","01","25","07:00","-36.6","","-40.2","","70","","","M","2","","26","","","M","101.03","","","","-53","","NA"
"-81.82","69.36","IGLOOLIK A","2402546","2019-01-25 08:00","2019","01","25","08:00","-36.6","","-40.2","","70","","","M","2","","26","","","M","101.02","","","","-53","","NA"
"-81.82","69.36","IGLOOLIK A","2402546","2019-01-25 09:00","2019","01","25","09:00","-36.6","","-40.2","","70","","","M","2","","26","","","M","101.02","","","","-53","","NA"
"-81.82","69.36","IGLOOLIK A","2402546","2019-01-25 10:00","2019","01","25","10:00","-37.3","","-40.9","","70","","","M","3","","25","","","M","101.01","","","","-54","","NA"
"-81.82","69.36","IGLOOLIK A","2402546","2019-01-25 11:00","2019","01","25","11:00","-37.6","","-41.2","","70","","","M","2","","24","","","M","101.02","","","","-54","","NA"
"-81.82","69.36","IGLOOLIK A","2402546","2019-01-25 12:00","2019","01","25","12:00","-37.1","","-40.7","","70","","","M","2","","25","","","M","101.02","","","","-54","","NA"
"-81.82","69.36","IGLOOLIK A","2402546","2019-01-25 13:00","2019","01","25","13:00","-36.2","","-39.8","","70","","","M","3","","28","","","M","101.00","","","","-53","","NA"
"-81.82","69.36","IGLOOLIK A","2402546","2019-01-25 14:00","2019","01","25","14:00","-35.8","","-39.4","","71","","","M","3","","28","","","M","100.98","","","","-53","","NA"
"-81.82","69.36","IGLOOLIK A","2402546","2019-01-25 15:00","2019","01","25","15:00","-35.9","","-39.5","","71","","","M","3","","29","","","M","100.97","","","","-53","","NA"
"-81.82","69.36","IGLOOLIK A","2402546","2019-01-25 16:00","2019","01","25","16:00","-34.8","","-38.3","","71","","","M","3","","30","","","M","100.95","","","","-52","","NA"
"-81.82","69.36","IGLOOLIK A","2402546","2019-01-25 17:00","2019","01","25","17:00","-35.0","","-38.5","","71","","","M","3","","30","","","M","100.92","","","","-52","","NA"
"-81.82","69.36","IGLOOLIK A","2402546","2019-01-25 18:00","2019","01","25","18:00","-35.4","","-38.9","","71","","","M","2","","26","","","M","100.89","","","","-52","","NA"
"-81.82","69.36","IGLOOLIK A","2402546","2019-01-25 19:00","2019","01","25","19:00","-35.8","","-39.3","","71","","","M","1","","26","","","M","100.88","","","","-52","","NA"
"-81.82","69.36","IGLOOLIK A","2402546","2019-01-25 20:00","2019","01","25","20:00","-35.8","","-39.3","","71","","","M","1","","27","","","M","100.86","","","","-52","","NA"
"-81.82","69.36","IGLOOLIK A","2402546","2019-01-25 21:00","2019","01","25","21:00","-36.5","","-40.0","","70","","","M","36","","24","","","M","100.83","","","","-53","","NA"
"-81.82","69.36","IGLOOLIK A","2402546","2019-01-25 22:00","2019","01","25","22:00","-36.0","","-39.5","","71","","","M","36","","24","","","M","100.78","","","","-52","","NA"
"-81.82","69.36","IGLOOLIK A","2402546","2019-01-25 23:00","2019","01","25","23:00","-34.5","","-38.0","","72","","","M","36","","29","","","M","100.71","","","","-51","","NA"
"-81.82","69.36","IGLOOLIK A","2402546","2019-01-26 00:00","2019","01","26","00:00","-34.4","","-37.8","","72","","","M","1","","34","","","M","100.65","","","","-52","","NA"
"-81.82","69.36","IGLOOLIK A","2402546","2019-01-26 01:00","2019","01","26","01:00","-34.6","","-38.1","","71","","","M","36","","29","","","M","100.61","","","","-51","","NA"
"-81.82","69.36","IGLOOLIK A","2402546","2019-01-26 02:00","2019","01","26","02:00","-34.0","","-37.4","","72","","","M","36","","27","","","M","100.60","","","","-50","","NA"
"-81.82","69.36","IGLOOLIK A","2402546","2019-01-26 03:00","2019","01","26","03:00","-33.5","","-36.9","","72","","","M","36","","29","","","M","100.54","","","","-50","","NA"
"-81.82","69.36","IGLOOLIK A","2402546","2019-01-26 04:00","2019","01","26","04:00","-33.3","","-36.7","","72","","","M","1","","31","","","M","100.50","","","","-50","","NA"
"-81.82","69.36","IGLOOLIK A","2402546","2019-01-26 05:00","2019","01","26","05:00","-33.3","","-36.7","","72","","","M","1","","33","","","M","100.47","","","","-51","","NA"
"-81.82","69.36","IGLOOLIK A","2402546","2019-01-26 06:00","2019","01","26","06:00","-33.6","","-37.0","","72","","","M","1","","34","","","M","100.45","","","","-51","","NA"
"-81.82","69.36","IGLOOLIK A","2402546","2019-01-26 07:00","2019","01","26","07:00","-33.5","","-36.9","","72","","","M","36","","30","","","M","100.43","","","","-50","","NA"
"-81.82","69.36","IGLOOLIK A","2402546","2019-01-26 08:00","2019","01","26","08:00","-33.2","","-36.6","","73","","","M","36","","30","","","M","100.37","","","","-50","","NA"
"-81.82","69.36","IGLOOLIK A","2402546","2019-01-26 09:00","2019","01","26","09:00","-33.5","","-36.9","","72","","","M","1","","26","","","M","100.35","","","","-49","","NA"
"-81.82","69.36","IGLOOLIK A","2402546","2019-01-26 10:00","2019","01","26","10:00","-33.2","","-36.6","","73","","","M","1","","33","","","M","100.29","","","","-50","","NA"
"-81.82","69.36","IGLOOLIK A","2402546","2019-01-26 11:00","2019","01","26","11:00","-33.3","","-36.7","","72","","","M","1","","28","","","M","100.27","","","","-49","","NA"
"-81.82","69.36","IGLOOLIK A","2402546","2019-01-26 12:00","2019","01","26","12:00","-33.1","","-36.5","","72","","","M","36","","32","","","M","100.18","","","","-50","","NA"
"-81.82","69.36","IGLOOLIK A","2402546","2019-01-26 13:00","2019","01","26","13:00","-32.6","","-36.0","","73","","","M","36","","32","","","M","100.17","","","","-49","","NA"
"-81.82","69.36","IGLOOLIK A","2402546","2019-01-26 14:00","2019","01","26","14:00","-33.1","","-36.4","","73","","","M","36","","37","","","M","100.11","","","","-51","","NA"
"-81.82","69.36","IGLOOLIK A","2402546","2019-01-26 15:00","2019","01","26","15:00","-33.2","","-36.6","","73","","","M","36","","33","","","M","100.11","","","","-50","","NA"
"-81.82","69.36","IGLOOLIK A","2402546","2019-01-26 16:00","2019","01","26","16:00","-33.3","","-36.6","","73","","","M","36","","30","","","M","100.07","","","","-50","","NA"
"-81.82","69.36","IGLOOLIK A","2402546","2019-01-26 17:00","2019","01","26","17:00","-34.0","","-37.4","","72","","","M","36","","33","","","M","100.05","","","","-51","","NA"
"-81.82","69.36","IGLOOLIK A","2402546","2019-01-26 18:00","2019","01","26","18:00","-33.9","","-37.3","","72","","","M","36","","33","","","M","100.02","","","","-51","","NA"
"-81.82","69.36","IGLOOLIK A","2402546","2019-01-26 19:00","2019","01","26","19:00","-34.1","","-37.5","","72","","","M","35","","30","","","M","99.98","","","","-51","","NA"
"-81.82","69.36","IGLOOLIK A","2402546","2019-01-26 20:00","2019","01","26","20:00","-33.4","","-36.8","","73","","","M","36","","36","","","M","99.93","","","","-51","","NA"
"-81.82","69.36","IGLOOLIK A","2402546","2019-01-26 21:00","2019","01","26","21:00","-33.3","","-36.6","","73","","","M","36","","39","","","M","99.89","","","","-52","","NA"
"-81.82","69.36","IGLOOLIK A","2402546","2019-01-26 22:00","2019","01","26","22:00","-33.2","","-36.5","","73","","","M","36","","37","","","M","99.84","","","","-51","","NA"
"-81.82","69.36","IGLOOLIK A","2402546","2019-01-26 23:00","2019","01","26","23:00","-32.9","","-36.2","","73","","","M","36","","36","","","M","99.80","","","","-51","","NA"
"-81.82","69.36","IGLOOLIK A","2402546","2019-01-27 00:00","2019","01","27","00:00","-32.8","","-36.1","","73","","","M","36","","38","","","M","99.76","","","","-51","","NA"
"-81.82","69.36","IGLOOLIK A","2402546","2019-01-27 01:00","2019","01","27","01:00","-32.9","","-36.2","","73","","","M","36","","35","","","M","99.77","","","","-50","","NA"
"-81.82","69.36","IGLOOLIK A","2402546","2019-01-27 02:00","2019","01","27","02:00","-32.6","","-35.9","","73","","","M","36","","34","","","M","99.75","","","","-50","","NA"
"-81.82","69.36","IGLOOLIK A","2402546","2019-01-27 03:00","2019","01","27","03:00","-33.5","","-36.8","","72","","","M","36","","35","","","M","99.75","","","","-51","","NA"
"-81.82","69.36","IGLOOLIK A","2402546","2019-01-27 04:00","2019","01","27","04:00","-33.5","","-36.8","","73","","","M","35","","39","","","M","99.73","","","","-52","","NA"
"-81.82","69.36","IGLOOLIK A","2402546","2019-01-27 05:00","2019","01","27","05:00","-33.3","","-36.6","","73","","","M","35","","36","","","M","99.73","","","","-51","","NA"
"-81.82","69.36","IGLOOLIK A","2402546","2019-01-27 06:00","2019","01","27","06:00","-33.2","","-36.6","","73","","","M","35","","31","","","M","99.73","","","","-50","","NA"
"-81.82","69.36","IGLOOLIK A","2402546","2019-01-27 07:00","2019","01","27","07:00","-33.1","","-36.5","","73","","","M","34","","26","","","M","99.74","","","","-49","","NA"
"-81.82","69.36","IGLOOLIK A","2402546","2019-01-27 08:00","2019","01","27","08:00","-32.9","","-36.2","","73","","","M","35","","27","","","M","99.75","","","","-49","","NA"
"-81.82","69.36","IGLOOLIK A","2402546","2019-01-27 09:00","2019","01","27","09:00","-33.1","","-36.5","","73","","","M","35","","34","","","M","99.74","","","","-51","","NA"
"-81.82","69.36","IGLOOLIK A","2402546","2019-01-27 10:00","2019","01","27","10:00","-33.1","","-36.4","","73","","","M","35","","34","","","M","99.75","","","","-51","","NA"
"-81.82","69.36","IGLOOLIK A","2402546","2019-01-27 11:00","2019","01","27","11:00","-33.8","","-37.2","","72","","","M","34","","31","","","M","99.76","","","","-51","","NA"
"-81.82","69.36","IGLOOLIK A","2402546","2019-01-27 12:00","2019","01","27","12:00","-33.6","","-37.0","","72","","","M","35","","33","","","M","99.77","","","","-51","","NA"
"-81.82","69.36","IGLOOLIK A","2402546","2019-01-27 13:00","2019","01","27","13:00","-33.2","","-36.5","","73","","","M","35","","32","","","M","99.80","","","","-50","","NA"
"-81.82","69.36","IGLOOLIK A","2402546","2019-01-27 14:00","2019","01","27","14:00","-33.1","","-36.5","","73","","","M","35","","33","","","M","99.81","","","","-50","","NA"
"-81.82","69.36","IGLOOLIK A","2402546","2019-01-27 15:00","2019","01","27","15:00","-32.7","","-36.0","","73","","","M","35","","29","","","M","99.83","","","","-49","","NA"
"-81.82","69.36","IGLOOLIK A","2402546","2019-01-27 16:00","2019","01","27","16:00","-33.1","","-36.4","","73","","","M","35","","30","","","M","99.85","","","","-50","","NA"
"-81.82","69.36","IGLOOLIK A","2402546","2019-01-27 17:00","2019","01","27","17:00","-32.6","","-35.9","","73","","","M","35","","35","","","M","99.84","","","","-50","","NA"
"-81.82","69.36","IGLOOLIK A","2402546","2019-01-27 18:00","2019","01","27","18:00","-32.6","","-35.9","","73","","","M","36","","33","","","M","99.86","","","","-50","","NA"
"-81.82","69.36","IGLOOLIK A","2402546","2019-01-27 19:00","2019","01","27","19:00","-32.2","","-35.5","","73","","","M","36","","36","","","M","99.94","","","","-50","","NA"
"-81.82","69.36","IGLOOLIK A","2402546","2019-01-27 20:00","2019","01","27","20:00","-32.8","","-36.2","","73","","","M","36","","33","","","M","99.98","","","","-50","","NA"
"-81.82","69.36","IGLOOLIK A","2402546","2019-01-27 21:00","2019","01","27","21:00","-32.6","","-35.9","","73","","","M","36","","36","","","M","99.98","","","","-50","","NA"
"-81.82","69.36","IGLOOLIK A","2402546","2019-01-27 22:00","2019","01","27","22:00","-32.1","","-35.4","","74","","","M","36","","31","","","M","99.97","","","","-49","","NA"
"-81.82","69.36","IGLOOLIK A","2402546","2019-01-27 23:00","2019","01","27","23:00","-31.4","","-34.6","","74","","","M","35","","31","","","M","99.97","","","","-48","","NA"
"-81.82","69.36","IGLOOLIK A","2402546","2019-01-28 00:00","2019","01","28","00:00","-31.5","","-34.7","","74","","","M","36","","33","","","M","100.03","","","","-48","","NA"
"-81.82","69.36","IGLOOLIK A","2402546","2019-01-28 01:00","2019","01","28","01:00","-31.3","","-34.5","","74","","","M","1","","35","","","M","100.02","","","","-48","","NA"
"-81.82","69.36","IGLOOLIK A","2402546","2019-01-28 02:00","2019","01","28","02:00","-31.3","","-34.5","","74","","","M","36","","34","","","M","100.03","","","","-48","","NA"
"-81.82","69.36","IGLOOLIK A","2402546","2019-01-28 03:00","2019","01","28","03:00","-31.7","","-34.9","","74","","","M","36","","26","","","M","100.10","","","","-47","","NA"
"-81.82","69.36","IGLOOLIK A","2402546","2019-01-28 04:00","2019","01","28","04:00","-31.5","","-34.7","","74","","","M","35","","25","","","M","100.11","","","","-46","","NA"
"-81.82","69.36","IGLOOLIK A","2402546","2019-01-28 05:00","2019","01","28","05:00","-31.0","","-34.2","","74","","","M","35","","28","","","M","100.15","","","","-46","","NA"
"-81.82","69.36","IGLOOLIK A","2402546","2019-01-28 06:00","2019","01","28","06:00","-30.7","","-33.9","","74","","","M","35","","29","","","M","100.18","","","","-46","","NA"
"-81.82","69.36","IGLOOLIK A","2402546","2019-01-28 07:00","2019","01","28","07:00","-30.4","","-33.6","","75","","","M","36","","33","","","M","100.19","","","","-47","","NA"
"-81.82","69.36","IGLOOLIK A","2402546","2019-01-28 08:00","2019","01","28","08:00","-30.6","","-33.8","","75","","","M","35","","26","","","M","100.22","","","","-45","","NA"
"-81.82","69.36","IGLOOLIK A","2402546","2019-01-28 09:00","2019","01","28","09:00","-30.3","","-33.4","","75","","","M","35","","26","","","M","100.28","","","","-45","","NA"
"-81.82","69.36","IGLOOLIK A","2402546","2019-01-28 10:00","2019","01","28","10:00","-30.0","","-33.1","","75","","","M","35","","27","","","M","100.33","","","","-45","","NA"
"-81.82","69.36","IGLOOLIK A","2402546","2019-01-28 11:00","2019","01","28","11:00","-30.1","","-33.2","","75","","","M","35","","28","","","M","","M","","","-45","","NA"
"-81.82","69.36","IGLOOLIK A","2402546","2019-01-28 12:00","2019","01","28","12:00","-30.6","","-33.8","","74","","","M","35","","23","","","M","100.42","","","","-45","","NA"
"-81.82","69.36","IGLOOLIK A","2402546","2019-01-28 13:00","2019","01","28","13:00","-30.5","","-33.6","","75","","","M","35","","20","","","M","100.47","","","","-44","","NA"
"-81.82","69.36","IGLOOLIK A","2402546","2019-01-28 14:00","2019","01","28","14:00","-30.6","","-33.8","","75","","","M","35","","23","","","M","100.51","","","","-45","","NA"
"-81.82","69.36","IGLOOLIK A","2402546","2019-01-28 15:00","2019","01","28","15:00","-30.8","","-33.9","","74","","","M","35","","18","","","M","100.56","","","","-43","","NA"
"-81.82","69.36","IGLOOLIK A","2402546","2019-01-28 16:00","2019","01","28","16:00","-31.3","","-34.4","","74","","","M","35","","21","","","M","100.62","","","","-45","","NA"
"-81.82","69.36","IGLOOLIK A","2402546","2019-01-28 17:00","2019","01","28","17:00","-30.3","","-33.4","","75","","","M","35","","23","","","M","100.67","","","","-44","","NA"
"-81.82","69.36","IGLOOLIK A","2402546","2019-01-28 18:00","2019","01","28","18:00","-29.9","","-32.9","","75","","","M","36","","27","","","M","100.74","","","","-45","","NA"
"-81.82","69.36","IGLOOLIK A","2402546","2019-01-28 19:00","2019","01","28","19:00","-29.1","","-32.1","","76","","","M","36","","29","","","M","100.77","","","","-44","","NA"
"-81.82","69.36","IGLOOLIK A","2402546","2019-01-28 20:00","2019","01","28","20:00","-28.6","","-31.6","","76","","","M","36","","27","","","M","100.83","","","","-43","","NA"
"-81.82","69.36","IGLOOLIK A","2402546","2019-01-28 21:00","2019","01","28","21:00","-28.2","","-31.1","","76","","","M","1","","30","","","M","100.86","","","","-43","","NA"
"-81.82","69.36","IGLOOLIK A","2402546","2019-01-28 22:00","2019","01","28","22:00","-28.0","","-31.0","","77","","","M","1","","36","","","M","100.87","","","","-44","","NA"
"-81.82","69.36","IGLOOLIK A","2402546","2019-01-28 23:00","2019","01","28","23:00","-27.3","","-30.2","","77","","","M","1","","29","","","M","100.91","","","","-42","","NA"
"-81.82","69.36","IGLOOLIK A","2402546","2019-01-29 00:00","2019","01","29","00:00","-27.0","","-29.9","","77","","","M","1","","28","","","M","100.95","","","","-41","","NA"
"-81.82","69.36","IGLOOLIK A","2402546","2019-01-29 01:00","2019","01","29","01:00","-26.7","","-29.5","","77","","","M","36","","27","","","M","101.00","","","","-41","","NA"
"-81.82","69.36","IGLOOLIK A","2402546","2019-01-29 02:00","2019","01","29","02:00","-26.4","","-29.2","","78","","","M","2","","25","","","M","101.03","","","","-40","","NA"
"-81.82","69.36","IGLOOLIK A","2402546","2019-01-29 03:00","2019","01","29","03:00","-26.4","","-29.2","","78","","","M","2","","25","","","M","101.05","","","","-40","","NA"
"-81.82","69.36","IGLOOLIK A","2402546","2019-01-29 04:00","2019","01","29","04:00","-26.2","","-29.0","","78","","","M","3","","28","","","M","101.08","","","","-40","","NA"
"-81.82","69.36","IGLOOLIK A","2402546","2019-01-29 05:00","2019","01","29","05:00","-25.9","","-28.6","","78","","","M","2","","25","","","M","101.13","","","","-39","","NA"
"-81.82","69.36","IGLOOLIK A","2402546","2019-01-29 06:00","2019","01","29","06:00","-25.8","","-28.6","","78","","","M","1","","22","","","M","101.17","","","","-38","","NA"
"-81.82","69.36","IGLOOLIK A","2402546","2019-01-29 07:00","2019","01","29","07:00","-25.5","","-28.2","","79","","","M","36","","22","","","M","101.19","","","","-38","","NA"
"-81.82","69.36","IGLOOLIK A","2402546","2019-01-29 08:00","2019","01","29","08:00","-26.0","","-28.8","","78","","","M","2","","25","","","M","101.20","","","","-39","","NA"
"-81.82","69.36","IGLOOLIK A","2402546","2019-01-29 09:00","2019","01","29","09:00","-26.1","","-28.9","","78","","","M","1","","22","","","M","101.23","","","","-39","","NA"
"-81.82","69.36","IGLOOLIK A","2402546","2019-01-29 10:00","2019","01","29","10:00","-26.2","","-28.9","","78","","","M","2","","25","","","M","101.24","","","","-40","","NA"
"-81.82","69.36","IGLOOLIK A","2402546","2019-01-29 11:00","2019","01","29","11:00","-26.0","","-28.8","","78","","","M","1","","23","","","M","101.26","","","","-39","","NA"
"-81.82","69.36","IGLOOLIK A","2402546","2019-01-29 12:00","2019","01","29","12:00","-26.0","","-28.8","","78","","","M","1","","22","","","M","101.27","","","","-39","","NA"
"-81.82","69.36","IGLOOLIK A","2402546","2019-01-29 13:00","2019","01","29","13:00","-25.9","","-28.6","","78","","","M","36","","21","","","M","101.26","","","","-38","","NA"
"-81.82","69.36","IGLOOLIK A","2402546","2019-01-29 14:00","2019","01","29","14:00","-25.8","","-28.6","","78","","","M","36","","21","","","M","101.26","","","","-38","","NA"
"-81.82","69.36","IGLOOLIK A","2402546","2019-01-29 15:00","2019","01","29","15:00","-26.2","","-29.0","","78","","","M","35","","19","","","M","101.29","","","","-38","","NA"
"-81.82","69.36","IGLOOLIK A","2402546","2019-01-29 16:00","2019","01","29","16:00","-26.5","","-29.3","","78","","","M","35","","20","","","M","101.30","","","","-39","","NA"
"-81.82","69.36","IGLOOLIK A","2402546","2019-01-29 17:00","2019","01","29","17:00","-26.7","","-29.5","","78","","","M","35","","21","","","M","101.30","","","","-39","","NA"
"-81.82","69.36","IGLOOLIK A","2402546","2019-01-29 18:00","2019","01","29","18:00","-27.1","","-29.9","","77","","","M","35","","19","","","M","101.32","","","","-39","","NA"
"-81.82","69.36","IGLOOLIK A","2402546","2019-01-29 19:00","2019","01","29","19:00","-27.2","","-30.1","","77","","","M","34","","20","","","M","101.34","","","","-40","","NA"
"-81.82","69.36","IGLOOLIK A","2402546","2019-01-29 20:00","2019","01","29","20:00","-28.3","","-31.1","","77","","","M","34","","19","","","M","101.33","","","","-41","","NA"
"-81.82","69.36","IGLOOLIK A","2402546","2019-01-29 21:00","2019","01","29","21:00","-27.8","","-30.7","","77","","","M","35","","20","","","M","101.33","","","","-40","","NA"
"-81.82","69.36","IGLOOLIK A","2402546","2019-01-29 22:00","2019","01","29","22:00","-28.5","","-31.5","","76","","","M","36","","25","","","M","101.31","","","","-43","","NA"
"-81.82","69.36","IGLOOLIK A","2402546","2019-01-29 23:00","2019","01","29","23:00","-28.8","","-31.7","","76","","","M","35","","28","","","M","101.30","","","","-44","","NA"
"-81.82","69.36","IGLOOLIK A","2402546","2019-01-30 00:00","2019","01","30","00:00","-28.9","","-31.9","","76","","","M","34","","22","","","M","101.29","","","","-42","","NA"
"-81.82","69.36","IGLOOLIK A","2402546","2019-01-30 01:00","2019","01","30","01:00","-29.9","","-32.9","","75","","","M","34","","19","","","M","101.30","","","","-43","","NA"
"-81.82","69.36","IGLOOLIK A","2402546","2019-01-30 02:00","2019","01","30","02:00","-30.4","","-33.4","","75","","","M","33","","17","","","M","101.30","","","","-43","","NA"
"-81.82","69.36","IGLOOLIK A","2402546","2019-01-30 03:00","2019","01","30","03:00","-30.1","","-33.2","","75","","","M","32","","11","","","M","101.32","","","","-40","","NA"
"-81.82","69.36","IGLOOLIK A","2402546","2019-01-30 04:00","2019","01","30","04:00","-30.4","","-33.4","","75","","","M","31","","13","","","M","101.36","","","","-41","","NA"
"-81.82","69.36","IGLOOLIK A","2402546","2019-01-30 05:00","2019","01","30","05:00","-29.4","","-32.4","","76","","","M","35","","16","","","M","101.40","","","","-41","","NA"
"-81.82","69.36","IGLOOLIK A","2402546","2019-01-30 06:00","2019","01","30","06:00","-29.3","","-32.3","","76","","","M","36","","17","","","M","101.40","","","","-41","","NA"
"-81.82","69.36","IGLOOLIK A","2402546","2019-01-30 07:00","2019","01","30","07:00","-29.5","","-32.5","","76","","","M","36","","16","","","M","101.40","","","","-41","","NA"
"-81.82","69.36","IGLOOLIK A","2402546","2019-01-30 08:00","2019","01","30","08:00","-29.6","","-32.6","","76","","","M","36","","9","","","M","101.44","","","","-38","","NA"
"-81.82","69.36","IGLOOLIK A","2402546","2019-01-30 09:00","2019","01","30","09:00","-29.4","","-32.4","","76","","","M","29","","8","","","M","101.47","","","","-37","","NA"
"-81.82","69.36","IGLOOLIK A","2402546","2019-01-30 10:00","2019","01","30","10:00","-29.4","","-32.4","","76","","","M","31","","10","","","M","101.47","","","","-38","","NA"
"-81.82","69.36","IGLOOLIK A","2402546","2019-01-30 11:00","2019","01","30","11:00","-29.6","","-32.6","","76","","","M","29","","8","","","M","101.47","","","","-38","","NA"
"-81.82","69.36","IGLOOLIK A","2402546","2019-01-30 12:00","2019","01","30","12:00","-29.4","","-32.4","","76","","","M","34","","6","","","M","101.48","","","","-36","","NA"
"-81.82","69.36","IGLOOLIK A","2402546","2019-01-30 13:00","2019","01","30","13:00","-30.1","","-33.2","","75","","","M","1","","10","","","M","101.50","","","","-39","","NA"
"-81.82","69.36","IGLOOLIK A","2402546","2019-01-30 14:00","2019","01","30","14:00","-30.5","","-33.6","","75","","","M","1","","12","","","M","101.52","","","","-41","","NA"
"-81.82","69.36","IGLOOLIK A","2402546","2019-01-30 15:00","2019","01","30","15:00","-30.7","","-33.8","","75","","","M","10","","4","","","M","101.58","","","","-35","","NA"
"-81.82","69.36","IGLOOLIK A","2402546","2019-01-30 16:00","2019","01","30","16:00","-31.1","","-34.2","","75","","","M","14","","3","","","M","101.63","","","","-35","","NA"
"-81.82","69.36","IGLOOLIK A","2402546","2019-01-30 17:00","2019","01","30","17:00","-31.6","","-34.8","","75","","","M","0","","1","","","M","101.68","","","","-33","","NA"
"-81.82","69.36","IGLOOLIK A","2402546","2019-01-30 18:00","2019","01","30","18:00","-31.7","","-34.9","","74","","","M","35","","4","","","M","101.73","","","","-36","","NA"
"-81.82","69.36","IGLOOLIK A","2402546","2019-01-30 19:00","2019","01","30","19:00","-31.6","","-34.8","","74","","","M","2","","10","","","M","101.75","","","","-41","","NA"
"-81.82","69.36","IGLOOLIK A","2402546","2019-01-30 20:00","2019","01","30","20:00","-31.8","","-35.0","","74","","","M","3","","13","","","M","101.73","","","","-43","","NA"
"-81.82","69.36","IGLOOLIK A","2402546","2019-01-30 21:00","2019","01","30","21:00","-32.2","","-35.4","","74","","","M","2","","12","","","M","101.76","","","","-43","","NA"
"-81.82","69.36","IGLOOLIK A","2402546","2019-01-30 22:00","2019","01","30","22:00","-32.4","","-35.6","","74","","","M","3","","11","","","M","101.76","","","","-43","","NA"
"-81.82","69.36","IGLOOLIK A","2402546","2019-01-30 23:00","2019","01","30","23:00","-32.7","","-35.9","","73","","","M","2","","9","","","M","101.77","","","","-42","","NA"
"-81.82","69.36","IGLOOLIK A","2402546","2019-01-31 00:00","2019","01","31","00:00","-33.0","","-36.3","","73","","","M","4","","10","","","M","101.77","","","","-43","","NA"
"-81.82","69.36","IGLOOLIK A","2402546","2019-01-31 01:00","2019","01","31","01:00","-33.1","","-36.4","","73","","","M","5","","9","","","M","101.80","","","","-42","","NA"
"-81.82","69.36","IGLOOLIK A","2402546","2019-01-31 02:00","2019","01","31","02:00","-33.5","","-36.8","","73","","","M","4","","8","","","M","101.80","","","","-42","","NA"
"-81.82","69.36","IGLOOLIK A","2402546","2019-01-31 03:00","2019","01","31","03:00","-33.3","","-36.6","","73","","","M","4","","10","","","M","101.78","","","","-43","","NA"
"-81.82","69.36","IGLOOLIK A","2402546","2019-01-31 04:00","2019","01","31","04:00","-33.8","","-37.1","","73","","","M","4","","11","","","M","101.79","","","","-44","","NA"
"-81.82","69.36","IGLOOLIK A","2402546","2019-01-31 05:00","2019","01","31","05:00","-33.3","","-36.6","","73","","","M","4","","10","","","M","101.80","","","","-43","","NA"
"-81.82","69.36","IGLOOLIK A","2402546","2019-01-31 06:00","2019","01","31","06:00","-33.5","","-36.8","","73","","","M","1","","9","","","M","101.80","","","","-43","","NA"
"-81.82","69.36","IGLOOLIK A","2402546","2019-01-31 07:00","2019","01","31","07:00","-33.3","","-36.6","","73","","","M","4","","12","","","M","101.81","","","","-44","","NA"
"-81.82","69.36","IGLOOLIK A","2402546","2019-01-31 08:00","2019","01","31","08:00","-34.1","","-37.5","","72","","","M","36","","11","","","M","101.78","","","","-45","","NA"
"-81.82","69.36","IGLOOLIK A","2402546","2019-01-31 09:00","2019","01","31","09:00","-34.3","","-37.7","","72","","","M","36","","11","","","M","101.76","","","","-45","","NA"
"-81.82","69.36","IGLOOLIK A","2402546","2019-01-31 10:00","2019","01","31","10:00","-34.2","","-37.6","","72","","","M","36","","15","","","M","101.74","","","","-47","","NA"
"-81.82","69.36","IGLOOLIK A","2402546","2019-01-31 11:00","2019","01","31","11:00","-33.9","","-37.2","","73","","","M","3","","20","","","M","101.68","","","","-48","","NA"
"-81.82","69.36","IGLOOLIK A","2402546","2019-01-31 12:00","2019","01","31","12:00","-33.1","","-36.5","","73","","","M","3","","24","","","M","101.66","","","","-48","","NA"
"-81.82","69.36","IGLOOLIK A","2402546","2019-01-31 13:00","2019","01","31","13:00","-32.5","","-35.8","","73","","","M","4","","12","","","M","101.65","","","","-43","","NA"
"-81.82","69.36","IGLOOLIK A","2402546","2019-01-31 14:00","2019","01","31","14:00","-31.9","","-35.2","","74","","","M","1","","14","","","M","101.64","","","","-43","","NA"
"-81.82","69.36","IGLOOLIK A","2402546","2019-01-31 15:00","2019","01","31","15:00","-31.9","","-35.2","","74","","","M","2","","16","","","M","101.61","","","","-44","","NA"
"-81.82","69.36","IGLOOLIK A","2402546","2019-01-31 16:00","2019","01","31","16:00","-33.0","","-36.3","","73","","","M","3","","18","","","M","101.60","","","","-46","","NA"
"-81.82","69.36","IGLOOLIK A","2402546","2019-01-31 17:00","2019","01","31","17:00","-33.5","","-36.9","","73","","","M","2","","16","","","M","101.60","","","","-46","","NA"
"-81.82","69.36","IGLOOLIK A","2402546","2019-01-31 18:00","2019","01","31","18:00","-33.4","","-36.7","","73","","","M","2","","22","","","M","101.54","","","","-48","","NA"
"-81.82","69.36","IGLOOLIK A","2402546","2019-01-31 19:00","2019","01","31","19:00","-33.6","","-36.9","","73","","","M","2","","21","","","M","101.51","","","","-48","","NA"
"-81.82","69.36","IGLOOLIK A","2402546","2019-01-31 20:00","2019","01","31","20:00","-34.1","","-37.5","","72","","","M","1","","18","","","M","101.47","","","","-48","","NA"
"-81.82","69.36","IGLOOLIK A","2402546","2019-01-31 21:00","2019","01","31","21:00","-34.0","","-37.3","","73","","","M","1","","20","","","M","101.43","","","","-48","","NA"
"-81.82","69.36","IGLOOLIK A","2402546","2019-01-31 22:00","2019","01","31","22:00","-34.0","","-37.3","","72","","","M","1","","21","","","M","101.36","","","","-48","","NA"
"-81.82","69.36","IGLOOLIK A","2402546","2019-01-31 23:00","2019","01","31","23:00","-34.4","","-37.8","","72","","","M","1","","23","","","M","101.30","","","","-50","","NA"
