"Longitude (x)","Latitude (y)","Station Name","Climate ID","Date/Time (LST)","Year","Month","Day","Time (LST)","Temp (°C)","Temp Flag","Dew Point Temp (°C)","Dew Point Temp Flag","Rel Hum (%)","Rel Hum Flag","Precip. Amount (mm)","Precip. Amount Flag","Wind Dir (10s deg)","Wind Dir Flag","Wind Spd (km/h)","Wind Spd Flag","Visibility (km)","Visibility Flag","Stn Press (kPa)","Stn Press Flag","Hmdx","Hmdx Flag","Wind Chill","Wind Chill Flag","Weather"
"-82.47","49.41","KAPUSKASING A","6073976","2019-01-01 00:00","2019","01","01","00:00","-24.7","","-27.7","","77","","","","35","","15","","24.1","","99.19","","","","-35","","NA"
"-82.47","49.41","KAPUSKASING A","6073976","2019-01-01 01:00","2019","01","01","01:00","-25.8","","-28.5","","78","","","","34","","15","","24.1","","99.19","","","","-36","","Mostly Cloudy"
"-82.47","49.41","KAPUSKASING A","6073976","2019-01-01 02:00","2019","01","01","02:00","-26.5","","-29.4","","77","","","","34","","19","","24.1","","99.22","","","","-38","","NA"
"-82.47","49.41","KAPUSKASING A","6073976","2019-01-01 03:00","2019","01","01","03:00","-27.6","","-30.6","","76","","","","32","","11","","9.7","","99.30","","","","-37","","Snow"
"-82.47","49.41","KAPUSKASING A","6073976","2019-01-01 04:00","2019","01","01","04:00","-28.4","","-31.5","","75","","","","31","","11","","9.7","","99.38","","","","-38","","Snow"
"-82.47","49.41","KAPUSKASING A","6073976","2019-01-01 05:00","2019","01","01","05:00","-29.0","","-32.0","","76","","","","30","","9","","9.7","","99.41","","","","-37","","Snow"
"-82.47","49.41","KAPUSKASING A","6073976","2019-01-01 06:00","2019","01","01","06:00","-29.7","","-32.6","","76","","","","29","","10","","24.1","","99.48","","","","-39","","NA"
"-82.47","49.41","KAPUSKASING A","6073976","2019-01-01 07:00","2019","01","01","07:00","-29.9","","-32.9","","76","","","","30","","11","","24.1","","99.60","","","","-40","","Clear"
"-82.47","49.41","KAPUSKASING A","6073976","2019-01-01 08:00","2019","01","01","08:00","-30.7","","-33.8","","75","","","","27","","11","","24.1","","99.73","","","","-41","","NA"
"-82.47","49.41","KAPUSKASING A","6073976","2019-01-01 09:00","2019","01","01","09:00","-31.1","","-34.2","","75","","","","25","","10","","24.1","","99.78","","","","-40","","NA"
"-82.47","49.41","KAPUSKASING A","6073976","2019-01-01 10:00","2019","01","01","10:00","-28.6","","-31.8","","75","","","","27","","13","","24.1","","99.83","","","","-39","","Mainly Clear"
"-82.47","49.41","KAPUSKASING A","6073976","2019-01-01 11:00","2019","01","01","11:00","-26.3","","-29.8","","73","","","","29","","12","","24.1","","99.84","","","","-36","","NA"
"-82.47","49.41","KAPUSKASING A","6073976","2019-01-01 12:00","2019","01","01","12:00","-24.4","","-28.5","","69","","","","28","","11","","24.1","","99.75","","","","-33","","NA"
"-82.47","49.41","KAPUSKASING A","6073976","2019-01-01 13:00","2019","01","01","13:00","-22.8","","-27.7","","65","","","","25","","15","","24.1","","99.72","","","","-33","","Mainly Clear"
"-82.47","49.41","KAPUSKASING A","6073976","2019-01-01 14:00","2019","01","01","14:00","-21.5","","-26.6","","64","","","","23","","12","","24.1","","99.70","","","","-30","","NA"
"-82.47","49.41","KAPUSKASING A","6073976","2019-01-01 15:00","2019","01","01","15:00","-21.0","","-26.0","","65","","","","24","","13","","24.1","","99.72","","","","-30","","NA"
"-82.47","49.41","KAPUSKASING A","6073976","2019-01-01 16:00","2019","01","01","16:00","-21.0","","-25.5","","67","","","","23","","10","","24.1","","99.69","","","","-28","","Mainly Clear"
"-82.47","49.41","KAPUSKASING A","6073976","2019-01-01 17:00","2019","01","01","17:00","-22.6","","-26.0","","74","","","","21","","11","","24.1","","99.65","","","","-31","","NA"
"-82.47","49.41","KAPUSKASING A","6073976","2019-01-01 18:00","2019","01","01","18:00","-23.3","","-26.3","","76","","","","21","","10","","24.1","","99.63","","","","-31","","NA"
"-82.47","49.41","KAPUSKASING A","6073976","2019-01-01 19:00","2019","01","01","19:00","-23.2","","-26.1","","78","","","","23","","11","","24.1","","99.65","","","","-31","","Clear"
"-82.47","49.41","KAPUSKASING A","6073976","2019-01-01 20:00","2019","01","01","20:00","-24.0","","-26.7","","79","","","","22","","10","","24.1","","99.62","","","","-32","","NA"
"-82.47","49.41","KAPUSKASING A","6073976","2019-01-01 21:00","2019","01","01","21:00","-24.3","","-27.0","","79","","","","24","","10","","24.1","","99.59","","","","-32","","NA"
"-82.47","49.41","KAPUSKASING A","6073976","2019-01-01 22:00","2019","01","01","22:00","-23.9","","-26.7","","78","","","","23","","12","","24.1","","99.52","","","","-33","","Clear"
"-82.47","49.41","KAPUSKASING A","6073976","2019-01-01 23:00","2019","01","01","23:00","-24.7","","-27.2","","80","","","","23","","9","","24.1","","99.48","","","","-32","","NA"
"-82.47","49.41","KAPUSKASING A","6073976","2019-01-02 00:00","2019","01","02","00:00","-24.5","","-27.1","","80","","","","22","","10","","24.1","","99.48","","","","-33","","NA"
"-82.47","49.41","KAPUSKASING A","6073976","2019-01-02 01:00","2019","01","02","01:00","-25.2","","-27.7","","80","","","","23","","11","","24.1","","99.50","","","","-34","","Clear"
"-82.47","49.41","KAPUSKASING A","6073976","2019-01-02 02:00","2019","01","02","02:00","-25.8","","-27.9","","83","","","","20","","7","","24.1","","99.50","","","","-32","","NA"
"-82.47","49.41","KAPUSKASING A","6073976","2019-01-02 03:00","2019","01","02","03:00","-26.3","","-28.7","","81","","","","20","","9","","24.1","","99.52","","","","-34","","NA"
"-82.47","49.41","KAPUSKASING A","6073976","2019-01-02 04:00","2019","01","02","04:00","-25.7","","-28.1","","81","","","","18","","7","","24.1","","99.44","","","","-32","","Clear"
"-82.47","49.41","KAPUSKASING A","6073976","2019-01-02 05:00","2019","01","02","05:00","-25.7","","-28.1","","81","","","","18","","7","","24.1","","99.37","","","","-32","","NA"
"-82.47","49.41","KAPUSKASING A","6073976","2019-01-02 06:00","2019","01","02","06:00","-25.2","","-27.7","","81","","","","18","","8","","24.1","","99.35","","","","-32","","NA"
"-82.47","49.41","KAPUSKASING A","6073976","2019-01-02 07:00","2019","01","02","07:00","-22.2","","-24.7","","80","","","","18","","9","","24.1","","99.38","","","","-29","","Snow"
"-82.47","49.41","KAPUSKASING A","6073976","2019-01-02 08:00","2019","01","02","08:00","-20.1","","-22.4","","82","","","","19","","11","","19.3","","99.37","","","","-28","","Snow"
"-82.47","49.41","KAPUSKASING A","6073976","2019-01-02 09:00","2019","01","02","09:00","-20.2","","-22.6","","81","","","","15","","10","","19.3","","99.32","","","","-27","","Snow"
"-82.47","49.41","KAPUSKASING A","6073976","2019-01-02 10:00","2019","01","02","10:00","-19.8","","-22.2","","81","","","","17","","6","","19.3","","99.22","","","","-25","","Snow"
"-82.47","49.41","KAPUSKASING A","6073976","2019-01-02 11:00","2019","01","02","11:00","-14.4","","-16.6","","84","","","","20","","11","","19.3","","99.12","","","","-21","","Snow"
"-82.47","49.41","KAPUSKASING A","6073976","2019-01-02 12:00","2019","01","02","12:00","-12.2","","-14.3","","85","","","","19","","17","","12.9","","99.03","","","","-20","","Snow"
"-82.47","49.41","KAPUSKASING A","6073976","2019-01-02 13:00","2019","01","02","13:00","-10.2","","-12.6","","82","","","","19","","23","","11.3","","98.92","","","","-19","","Snow"
"-82.47","49.41","KAPUSKASING A","6073976","2019-01-02 14:00","2019","01","02","14:00","-8.8","","-12.3","","76","","","","18","","20","","19.3","","98.72","","","","-16","","Snow"
"-82.47","49.41","KAPUSKASING A","6073976","2019-01-02 15:00","2019","01","02","15:00","-9.2","","-12.6","","77","","","","16","","18","","19.3","","98.59","","","","-16","","Snow,Blowing Snow"
"-82.47","49.41","KAPUSKASING A","6073976","2019-01-02 16:00","2019","01","02","16:00","-9.4","","-12.5","","78","","","","18","","19","","19.3","","98.53","","","","-17","","Snow,Blowing Snow"
"-82.47","49.41","KAPUSKASING A","6073976","2019-01-02 17:00","2019","01","02","17:00","-10.6","","-13.3","","81","","","","17","","24","","19.3","","98.42","","","","-19","","Snow,Blowing Snow"
"-82.47","49.41","KAPUSKASING A","6073976","2019-01-02 18:00","2019","01","02","18:00","-10.5","","-13.2","","81","","","","17","","22","","6.4","","98.35","","","","-19","","Snow,Blowing Snow"
"-82.47","49.41","KAPUSKASING A","6073976","2019-01-02 19:00","2019","01","02","19:00","-10.6","","-12.9","","83","","","","17","","23","","14.5","","98.26","","","","-19","","Snow,Blowing Snow"
"-82.47","49.41","KAPUSKASING A","6073976","2019-01-02 20:00","2019","01","02","20:00","-10.8","","-12.9","","84","","","","17","","22","","4.8","","98.22","","","","-19","","Snow,Blowing Snow"
"-82.47","49.41","KAPUSKASING A","6073976","2019-01-02 21:00","2019","01","02","21:00","-11.1","","-13.2","","85","","","","17","","23","","8.1","","98.12","","","","-20","","Snow,Blowing Snow"
"-82.47","49.41","KAPUSKASING A","6073976","2019-01-02 22:00","2019","01","02","22:00","-11.4","","-13.4","","85","","","","16","","17","","11.3","","98.00","","","","-19","","Snow,Blowing Snow"
"-82.47","49.41","KAPUSKASING A","6073976","2019-01-02 23:00","2019","01","02","23:00","-12.4","","-14.2","","87","","","","17","","16","","8.1","","97.93","","","","-20","","Snow,Blowing Snow"
"-82.47","49.41","KAPUSKASING A","6073976","2019-01-03 00:00","2019","01","03","00:00","-11.9","","-13.8","","86","","","","18","","17","","11.3","","97.85","","","","-20","","Snow,Blowing Snow"
"-82.47","49.41","KAPUSKASING A","6073976","2019-01-03 01:00","2019","01","03","01:00","-12.0","","-13.8","","87","","","","18","","14","","11.3","","97.75","","","","-19","","Snow,Blowing Snow"
"-82.47","49.41","KAPUSKASING A","6073976","2019-01-03 02:00","2019","01","03","02:00","-11.1","","-13.0","","86","","","","18","","12","","14.5","","97.74","","","","-17","","Snow"
"-82.47","49.41","KAPUSKASING A","6073976","2019-01-03 03:00","2019","01","03","03:00","-10.8","","-12.6","","87","","","","19","","7","","16.1","","97.71","","","","-15","","Snow"
"-82.47","49.41","KAPUSKASING A","6073976","2019-01-03 04:00","2019","01","03","04:00","-9.9","","-11.7","","87","","","","19","","14","","11.3","","97.62","","","","-16","","Snow"
"-82.47","49.41","KAPUSKASING A","6073976","2019-01-03 05:00","2019","01","03","05:00","-8.8","","-10.5","","87","","","","20","","18","","8.1","","97.54","","","","-16","","Snow"
"-82.47","49.41","KAPUSKASING A","6073976","2019-01-03 06:00","2019","01","03","06:00","-8.0","","-9.5","","89","","","","21","","15","","11.3","","97.54","","","","-14","","Snow"
"-82.47","49.41","KAPUSKASING A","6073976","2019-01-03 07:00","2019","01","03","07:00","-6.8","","-8.6","","87","","","","23","","16","","11.3","","97.55","","","","-13","","Snow"
"-82.47","49.41","KAPUSKASING A","6073976","2019-01-03 08:00","2019","01","03","08:00","-6.9","","-8.5","","88","","","","24","","12","","12.9","","97.61","","","","-12","","Snow"
"-82.47","49.41","KAPUSKASING A","6073976","2019-01-03 09:00","2019","01","03","09:00","-7.1","","-8.7","","88","","","","29","","7","","2.4","","97.65","","","","-11","","Snow,Snow Pellets"
"-82.47","49.41","KAPUSKASING A","6073976","2019-01-03 10:00","2019","01","03","10:00","-7.5","","-9.7","","85","","","","29","","12","","4.8","","97.62","","","","-13","","Snow"
"-82.47","49.41","KAPUSKASING A","6073976","2019-01-03 11:00","2019","01","03","11:00","-7.4","","-9.6","","85","","","","25","","12","","8.1","","97.61","","","","-13","","Snow"
"-82.47","49.41","KAPUSKASING A","6073976","2019-01-03 12:00","2019","01","03","12:00","-6.7","","-9.9","","78","","","","25","","17","","12.9","","97.51","","","","-13","","Snow"
"-82.47","49.41","KAPUSKASING A","6073976","2019-01-03 13:00","2019","01","03","13:00","-6.1","","-10.3","","72","","","","25","","14","","24.1","","97.47","","","","-12","","Mostly Cloudy"
"-82.47","49.41","KAPUSKASING A","6073976","2019-01-03 14:00","2019","01","03","14:00","-5.7","","-9.5","","74","","","","24","","22","","4.8","","97.47","","","","-13","","Snow"
"-82.47","49.41","KAPUSKASING A","6073976","2019-01-03 15:00","2019","01","03","15:00","-5.5","","-8.4","","80","","","","21","","10","","8.1","","97.38","","","","-10","","Snow"
"-82.47","49.41","KAPUSKASING A","6073976","2019-01-03 16:00","2019","01","03","16:00","-5.4","","-7.9","","83","","","","18","","13","","19.3","","97.28","","","","-11","","Snow"
"-82.47","49.41","KAPUSKASING A","6073976","2019-01-03 17:00","2019","01","03","17:00","-5.3","","-7.3","","86","","","","19","","18","","19.3","","97.22","","","","-12","","Snow"
"-82.47","49.41","KAPUSKASING A","6073976","2019-01-03 18:00","2019","01","03","18:00","-5.1","","-6.2","","92","","","","18","","17","","4.8","","97.18","","","","-11","","Freezing Drizzle,Snow"
"-82.47","49.41","KAPUSKASING A","6073976","2019-01-03 19:00","2019","01","03","19:00","-4.6","","-5.6","","92","","","","17","","19","","6.4","","97.09","","","","-11","","Freezing Drizzle,Snow"
"-82.47","49.41","KAPUSKASING A","6073976","2019-01-03 20:00","2019","01","03","20:00","-3.9","","-5.0","","92","","","","19","","20","","2.4","","97.04","","","","-10","","Snow"
"-82.47","49.41","KAPUSKASING A","6073976","2019-01-03 21:00","2019","01","03","21:00","-3.5","","-4.6","","92","","","","21","","17","","3.2","","96.98","","","","-9","","Snow"
"-82.47","49.41","KAPUSKASING A","6073976","2019-01-03 22:00","2019","01","03","22:00","-3.0","","-4.1","","92","","","","22","","18","","4.8","","96.93","","","","-9","","Snow"
"-82.47","49.41","KAPUSKASING A","6073976","2019-01-03 23:00","2019","01","03","23:00","-2.7","","-3.6","","93","","","","22","","15","","4.8","","96.91","","","","-8","","Snow"
"-82.47","49.41","KAPUSKASING A","6073976","2019-01-04 00:00","2019","01","04","00:00","-2.2","","-3.0","","94","","","","22","","15","","4.8","","96.86","","","","-7","","Snow"
"-82.47","49.41","KAPUSKASING A","6073976","2019-01-04 01:00","2019","01","04","01:00","-1.6","","-2.2","","96","","","","24","","13","","4.8","","96.85","","","","-6","","Snow"
"-82.47","49.41","KAPUSKASING A","6073976","2019-01-04 02:00","2019","01","04","02:00","-1.0","","-1.4","","97","","","","23","","12","","4.0","","96.85","","","","-5","","Snow"
"-82.47","49.41","KAPUSKASING A","6073976","2019-01-04 03:00","2019","01","04","03:00","-0.5","","-0.9","","97","","","","22","","11","","4.8","","96.85","","","","-4","","Snow"
"-82.47","49.41","KAPUSKASING A","6073976","2019-01-04 04:00","2019","01","04","04:00","0.6","","0.2","","97","","","","25","","19","","6.4","","96.83","","","","","","Snow"
"-82.47","49.41","KAPUSKASING A","6073976","2019-01-04 05:00","2019","01","04","05:00","0.8","","0.2","","96","","","","26","","18","","6.4","","96.83","","","","","","Snow"
"-82.47","49.41","KAPUSKASING A","6073976","2019-01-04 06:00","2019","01","04","06:00","0.5","","0.1","","97","","","","26","","15","","6.4","","96.89","","","","","","Drizzle,Snow"
"-82.47","49.41","KAPUSKASING A","6073976","2019-01-04 07:00","2019","01","04","07:00","0.7","","0.2","","96","","","","25","","21","","4.8","","96.94","","","","","","Snow"
"-82.47","49.41","KAPUSKASING A","6073976","2019-01-04 08:00","2019","01","04","08:00","0.8","","0.1","","95","","","","27","","18","","16.1","","97.02","","","","","","NA"
"-82.47","49.41","KAPUSKASING A","6073976","2019-01-04 09:00","2019","01","04","09:00","0.4","","-0.4","","94","","","","26","","17","","24.1","","97.10","","","","","","NA"
"-82.47","49.41","KAPUSKASING A","6073976","2019-01-04 10:00","2019","01","04","10:00","1.0","","-0.3","","91","","","","26","","18","","24.1","","97.13","","","","","","Mostly Cloudy"
"-82.47","49.41","KAPUSKASING A","6073976","2019-01-04 11:00","2019","01","04","11:00","1.6","","0.0","","89","","","","27","","12","","24.1","","97.17","","","","","","NA"
"-82.47","49.41","KAPUSKASING A","6073976","2019-01-04 12:00","2019","01","04","12:00","1.5","","-0.5","","87","","","","26","","14","","24.1","","97.20","","","","","","NA"
"-82.47","49.41","KAPUSKASING A","6073976","2019-01-04 13:00","2019","01","04","13:00","1.5","","-1.3","","81","","","","26","","18","","24.1","","97.20","","","","","","Mostly Cloudy"
"-82.47","49.41","KAPUSKASING A","6073976","2019-01-04 14:00","2019","01","04","14:00","1.6","","-1.3","","81","","","","26","","20","","24.1","","97.21","","","","","","NA"
"-82.47","49.41","KAPUSKASING A","6073976","2019-01-04 15:00","2019","01","04","15:00","1.4","","-0.9","","85","","","","23","","15","","24.1","","97.22","","","","","","NA"
"-82.47","49.41","KAPUSKASING A","6073976","2019-01-04 16:00","2019","01","04","16:00","1.0","","-1.1","","86","","","","24","","14","","24.1","","97.23","","","","","","Mostly Cloudy"
"-82.47","49.41","KAPUSKASING A","6073976","2019-01-04 17:00","2019","01","04","17:00","-0.3","","-1.4","","92","","","","23","","14","","24.1","","97.27","","","","-5","","NA"
"-82.47","49.41","KAPUSKASING A","6073976","2019-01-04 18:00","2019","01","04","18:00","-0.1","","-1.2","","93","","","","23","","15","","24.1","","97.29","","","","-5","","NA"
"-82.47","49.41","KAPUSKASING A","6073976","2019-01-04 19:00","2019","01","04","19:00","0.1","","-1.1","","92","","","","25","","15","","24.1","","97.33","","","","","","Cloudy"
"-82.47","49.41","KAPUSKASING A","6073976","2019-01-04 20:00","2019","01","04","20:00","-0.8","","-1.6","","94","","","","24","","9","","24.1","","97.35","","","","-4","","NA"
"-82.47","49.41","KAPUSKASING A","6073976","2019-01-04 21:00","2019","01","04","21:00","-0.1","","-1.5","","91","","","","27","","16","","24.1","","97.39","","","","-5","","NA"
"-82.47","49.41","KAPUSKASING A","6073976","2019-01-04 22:00","2019","01","04","22:00","-0.5","","-1.7","","92","","","","27","","15","","24.1","","97.45","","","","-5","","Cloudy"
"-82.47","49.41","KAPUSKASING A","6073976","2019-01-04 23:00","2019","01","04","23:00","-1.5","","-2.5","","93","","","","26","","12","","24.1","","97.46","","","","-6","","NA"
"-82.47","49.41","KAPUSKASING A","6073976","2019-01-05 00:00","2019","01","05","00:00","-2.9","","-3.2","","98","","","","25","","8","","24.1","","97.54","","","","-6","","NA"
"-82.47","49.41","KAPUSKASING A","6073976","2019-01-05 01:00","2019","01","05","01:00","-3.4","","-3.7","","97","","","","21","","11","","24.1","","97.55","","","","-8","","Cloudy"
"-82.47","49.41","KAPUSKASING A","6073976","2019-01-05 02:00","2019","01","05","02:00","-3.5","","-4.1","","96","","","","26","","10","","24.1","","97.60","","","","-7","","NA"
"-82.47","49.41","KAPUSKASING A","6073976","2019-01-05 03:00","2019","01","05","03:00","-3.5","","-4.2","","95","","","","25","","9","","24.1","","97.62","","","","-7","","NA"
"-82.47","49.41","KAPUSKASING A","6073976","2019-01-05 04:00","2019","01","05","04:00","-3.5","","-4.2","","95","","","","27","","8","","24.1","","97.68","","","","-7","","Cloudy"
"-82.47","49.41","KAPUSKASING A","6073976","2019-01-05 05:00","2019","01","05","05:00","-3.5","","-4.2","","95","","","","30","","5","","24.1","","97.68","","","","-6","","NA"
"-82.47","49.41","KAPUSKASING A","6073976","2019-01-05 06:00","2019","01","05","06:00","-3.6","","-4.2","","96","","","","35","","3","","24.1","","97.68","","","","-5","","NA"
"-82.47","49.41","KAPUSKASING A","6073976","2019-01-05 07:00","2019","01","05","07:00","-3.8","","-4.7","","94","","","","2","","4","","24.1","","97.69","","","","-5","","Mostly Cloudy"
"-82.47","49.41","KAPUSKASING A","6073976","2019-01-05 08:00","2019","01","05","08:00","-4.8","","-5.3","","97","","","","36","","2","","24.1","","97.72","","","","-6","","NA"
"-82.47","49.41","KAPUSKASING A","6073976","2019-01-05 09:00","2019","01","05","09:00","-5.4","","-5.9","","96","","","","36","","2","","24.1","","97.75","","","","-6","","NA"
"-82.47","49.41","KAPUSKASING A","6073976","2019-01-05 10:00","2019","01","05","10:00","-4.4","","-5.0","","96","","","","36","","2","","24.1","","97.81","","","","-5","","Cloudy"
"-82.47","49.41","KAPUSKASING A","6073976","2019-01-05 11:00","2019","01","05","11:00","-3.4","","-4.3","","93","","","","5","","7","","19.3","","97.82","","","","-6","","NA"
"-82.47","49.41","KAPUSKASING A","6073976","2019-01-05 12:00","2019","01","05","12:00","-3.6","","-4.4","","94","","","","20","","4","","19.3","","97.83","","","","-5","","NA"
"-82.47","49.41","KAPUSKASING A","6073976","2019-01-05 13:00","2019","01","05","13:00","-3.0","","-4.2","","91","","","","36","","1","","24.1","","97.82","","","","-3","","Cloudy"
"-82.47","49.41","KAPUSKASING A","6073976","2019-01-05 14:00","2019","01","05","14:00","-2.7","","-4.2","","89","","","","34","","4","","24.1","","97.84","","","","-4","","NA"
"-82.47","49.41","KAPUSKASING A","6073976","2019-01-05 15:00","2019","01","05","15:00","-2.6","","-4.5","","87","","","","1","","8","","24.1","","97.90","","","","-6","","NA"
"-82.47","49.41","KAPUSKASING A","6073976","2019-01-05 16:00","2019","01","05","16:00","-3.1","","-4.6","","89","","","","1","","10","","2.4","","97.94","","","","-7","","Snow"
"-82.47","49.41","KAPUSKASING A","6073976","2019-01-05 17:00","2019","01","05","17:00","-3.9","","-5.7","","88","","","","2","","11","","3.2","","98.06","","","","-8","","Snow"
"-82.47","49.41","KAPUSKASING A","6073976","2019-01-05 18:00","2019","01","05","18:00","-4.7","","-6.0","","91","","","","1","","10","","4.8","","98.16","","","","-9","","Snow"
"-82.47","49.41","KAPUSKASING A","6073976","2019-01-05 19:00","2019","01","05","19:00","-5.2","","-6.5","","91","","","","35","","12","","4.8","","98.30","","","","-10","","Snow"
"-82.47","49.41","KAPUSKASING A","6073976","2019-01-05 20:00","2019","01","05","20:00","-6.0","","-7.8","","87","","","","35","","19","","4.8","","98.41","","","","-13","","Snow"
"-82.47","49.41","KAPUSKASING A","6073976","2019-01-05 21:00","2019","01","05","21:00","-7.1","","-9.6","","83","","","","35","","15","","11.3","","98.52","","","","-13","","Snow"
"-82.47","49.41","KAPUSKASING A","6073976","2019-01-05 22:00","2019","01","05","22:00","-7.8","","-9.5","","88","","","","36","","12","","4.8","","98.60","","","","-13","","Snow"
"-82.47","49.41","KAPUSKASING A","6073976","2019-01-05 23:00","2019","01","05","23:00","-8.6","","-10.8","","85","","","","35","","16","","14.5","","98.70","","","","-15","","Snow,Blowing Snow"
"-82.47","49.41","KAPUSKASING A","6073976","2019-01-06 00:00","2019","01","06","00:00","-10.0","","-12.6","","82","","","","35","","18","","8.1","","98.84","","","","-17","","Snow,Blowing Snow"
"-82.47","49.41","KAPUSKASING A","6073976","2019-01-06 01:00","2019","01","06","01:00","-11.2","","-14.1","","80","","","","34","","23","","16.1","","98.98","","","","-20","","Snow,Blowing Snow"
"-82.47","49.41","KAPUSKASING A","6073976","2019-01-06 02:00","2019","01","06","02:00","-12.8","","-15.8","","78","","","","35","","25","","12.9","","99.13","","","","-22","","Snow,Blowing Snow"
"-82.47","49.41","KAPUSKASING A","6073976","2019-01-06 03:00","2019","01","06","03:00","-13.4","","-16.4","","79","","","","34","","22","","14.5","","99.30","","","","-23","","Snow,Blowing Snow"
"-82.47","49.41","KAPUSKASING A","6073976","2019-01-06 04:00","2019","01","06","04:00","-14.0","","-16.3","","83","","","","33","","18","","4.8","","99.42","","","","-22","","Snow,Blowing Snow"
"-82.47","49.41","KAPUSKASING A","6073976","2019-01-06 05:00","2019","01","06","05:00","-15.9","","-18.9","","78","","","","33","","25","","16.1","","99.54","","","","-26","","Snow,Blowing Snow"
"-82.47","49.41","KAPUSKASING A","6073976","2019-01-06 06:00","2019","01","06","06:00","-17.3","","-19.9","","81","","","","32","","16","","19.3","","99.69","","","","-26","","Snow,Blowing Snow"
"-82.47","49.41","KAPUSKASING A","6073976","2019-01-06 07:00","2019","01","06","07:00","-17.4","","-19.7","","83","","","","32","","14","","9.7","","99.83","","","","-26","","Snow"
"-82.47","49.41","KAPUSKASING A","6073976","2019-01-06 08:00","2019","01","06","08:00","-18.0","","-20.6","","80","","","","31","","10","","24.1","","99.94","","","","-25","","NA"
"-82.47","49.41","KAPUSKASING A","6073976","2019-01-06 09:00","2019","01","06","09:00","-19.5","","-21.9","","81","","","","33","","10","","24.1","","100.09","","","","-27","","NA"
"-82.47","49.41","KAPUSKASING A","6073976","2019-01-06 10:00","2019","01","06","10:00","-18.2","","-21.0","","79","","","","33","","12","","24.1","","100.17","","","","-26","","Mostly Cloudy"
"-82.47","49.41","KAPUSKASING A","6073976","2019-01-06 11:00","2019","01","06","11:00","-17.1","","-20.4","","76","","","","34","","13","","24.1","","100.22","","","","-25","","NA"
"-82.47","49.41","KAPUSKASING A","6073976","2019-01-06 12:00","2019","01","06","12:00","-16.6","","-20.1","","74","","","","35","","9","","24.1","","100.23","","","","-23","","NA"
"-82.47","49.41","KAPUSKASING A","6073976","2019-01-06 13:00","2019","01","06","13:00","-15.4","","-19.5","","71","","","","31","","7","","24.1","","100.23","","","","-20","","Mainly Clear"
"-82.47","49.41","KAPUSKASING A","6073976","2019-01-06 14:00","2019","01","06","14:00","-15.1","","-19.4","","70","","","","33","","4","","24.1","","100.26","","","","-18","","NA"
"-82.47","49.41","KAPUSKASING A","6073976","2019-01-06 15:00","2019","01","06","15:00","-14.6","","-19.2","","68","","","","36","","3","","24.1","","100.32","","","","-17","","NA"
"-82.47","49.41","KAPUSKASING A","6073976","2019-01-06 16:00","2019","01","06","16:00","-14.5","","-18.9","","69","","","","34","","4","","24.1","","100.39","","","","-17","","Mainly Clear"
"-82.47","49.41","KAPUSKASING A","6073976","2019-01-06 17:00","2019","01","06","17:00","-16.7","","-19.6","","79","","","","13","","5","","22.5","","100.43","","","","-21","","NA"
"-82.47","49.41","KAPUSKASING A","6073976","2019-01-06 18:00","2019","01","06","18:00","-18.3","","-20.4","","84","","","","12","","7","","24.1","","100.43","","","","-24","","NA"
"-82.47","49.41","KAPUSKASING A","6073976","2019-01-06 19:00","2019","01","06","19:00","-21.3","","-23.3","","85","","","","16","","5","","24.1","","100.44","","","","-26","","Mainly Clear"
"-82.47","49.41","KAPUSKASING A","6073976","2019-01-06 20:00","2019","01","06","20:00","-20.8","","-22.7","","85","","","","14","","8","","24.1","","100.46","","","","-27","","NA"
"-82.47","49.41","KAPUSKASING A","6073976","2019-01-06 21:00","2019","01","06","21:00","-21.5","","-23.5","","84","","","","16","","8","","24.1","","100.43","","","","-28","","NA"
"-82.47","49.41","KAPUSKASING A","6073976","2019-01-06 22:00","2019","01","06","22:00","-21.5","","-23.7","","83","","","","12","","10","","24.1","","100.42","","","","-29","","Clear"
"-82.47","49.41","KAPUSKASING A","6073976","2019-01-06 23:00","2019","01","06","23:00","-20.7","","-22.7","","84","","","","14","","13","","24.1","","100.38","","","","-29","","NA"
"-82.47","49.41","KAPUSKASING A","6073976","2019-01-07 00:00","2019","01","07","00:00","-21.0","","-23.2","","83","","","","15","","10","","24.1","","100.35","","","","-28","","NA"
"-82.47","49.41","KAPUSKASING A","6073976","2019-01-07 01:00","2019","01","07","01:00","-19.6","","-21.9","","82","","","","13","","12","","24.1","","100.31","","","","-28","","Cloudy"
"-82.47","49.41","KAPUSKASING A","6073976","2019-01-07 02:00","2019","01","07","02:00","-17.9","","-20.2","","83","","","","14","","15","","24.1","","100.23","","","","-26","","NA"
"-82.47","49.41","KAPUSKASING A","6073976","2019-01-07 03:00","2019","01","07","03:00","-16.9","","-19.2","","82","","","","14","","21","","24.1","","100.17","","","","-27","","NA"
"-82.47","49.41","KAPUSKASING A","6073976","2019-01-07 04:00","2019","01","07","04:00","-16.6","","-19.0","","82","","","","15","","21","","24.1","","100.06","","","","-26","","Cloudy"
"-82.47","49.41","KAPUSKASING A","6073976","2019-01-07 05:00","2019","01","07","05:00","-16.2","","-18.6","","81","","","","15","","24","","24.1","","99.95","","","","-27","","NA"
"-82.47","49.41","KAPUSKASING A","6073976","2019-01-07 06:00","2019","01","07","06:00","-15.4","","-18.3","","79","","","","15","","22","","24.1","","99.82","","","","-25","","NA"
"-82.47","49.41","KAPUSKASING A","6073976","2019-01-07 07:00","2019","01","07","07:00","-15.0","","-18.4","","75","","","","15","","28","","24.1","","99.70","","","","-26","","Cloudy"
"-82.47","49.41","KAPUSKASING A","6073976","2019-01-07 08:00","2019","01","07","08:00","-14.3","","-18.7","","70","","","","15","","27","","24.1","","99.60","","","","-25","","NA"
"-82.47","49.41","KAPUSKASING A","6073976","2019-01-07 09:00","2019","01","07","09:00","-13.8","","-18.7","","67","","","","15","","31","","24.1","","99.49","","","","-25","","NA"
"-82.47","49.41","KAPUSKASING A","6073976","2019-01-07 10:00","2019","01","07","10:00","-13.2","","-18.3","","66","","","","14","","32","","24.1","","99.40","","","","-24","","Cloudy"
"-82.47","49.41","KAPUSKASING A","6073976","2019-01-07 11:00","2019","01","07","11:00","-12.4","","-17.6","","66","","","","15","","35","","24.1","","99.18","","","","-23","","Blowing Snow"
"-82.47","49.41","KAPUSKASING A","6073976","2019-01-07 12:00","2019","01","07","12:00","-11.7","","-16.2","","70","","","","14","","42","","3.2","","98.90","","","","-23","","Snow,Blowing Snow"
"-82.47","49.41","KAPUSKASING A","6073976","2019-01-07 13:00","2019","01","07","13:00","-11.2","","-14.3","","78","","","","15","","40","","1.6","","98.63","","","","-22","","Snow,Blowing Snow"
"-82.47","49.41","KAPUSKASING A","6073976","2019-01-07 14:00","2019","01","07","14:00","-10.8","","-13.0","","84","","","","15","","37","","0.8","","98.45","","","","-21","","Moderate Snow,Blowing Snow"
"-82.47","49.41","KAPUSKASING A","6073976","2019-01-07 15:00","2019","01","07","15:00","-10.2","","-12.4","","84","","","","14","","34","","0.8","","98.20","","","","-20","","Moderate Snow,Blowing Snow"
"-82.47","49.41","KAPUSKASING A","6073976","2019-01-07 16:00","2019","01","07","16:00","-9.9","","-11.9","","85","","","","14","","35","","0.4","","98.01","","","","-20","","Heavy Snow,Blowing Snow"
"-82.47","49.41","KAPUSKASING A","6073976","2019-01-07 17:00","2019","01","07","17:00","-10.2","","-12.1","","86","","","","14","","34","","0.8","","97.83","","","","-20","","Moderate Snow,Blowing Snow"
"-82.47","49.41","KAPUSKASING A","6073976","2019-01-07 18:00","2019","01","07","18:00","-10.1","","-12.0","","86","","","","14","","30","","1.2","","97.71","","","","-20","","Moderate Snow,Blowing Snow"
"-82.47","49.41","KAPUSKASING A","6073976","2019-01-07 19:00","2019","01","07","19:00","-10.1","","-12.0","","86","","","","14","","26","","1.2","","97.59","","","","-19","","Moderate Snow,Blowing Snow"
"-82.47","49.41","KAPUSKASING A","6073976","2019-01-07 20:00","2019","01","07","20:00","-10.1","","-11.9","","87","","","","13","","24","","1.2","","97.49","","","","-19","","Snow,Blowing Snow"
"-82.47","49.41","KAPUSKASING A","6073976","2019-01-07 21:00","2019","01","07","21:00","-10.2","","-11.9","","87","","","","13","","22","","1.2","","97.39","","","","-18","","Snow,Blowing Snow"
"-82.47","49.41","KAPUSKASING A","6073976","2019-01-07 22:00","2019","01","07","22:00","-10.0","","-11.7","","88","","","","14","","23","","1.2","","97.27","","","","-18","","Snow,Blowing Snow"
"-82.47","49.41","KAPUSKASING A","6073976","2019-01-07 23:00","2019","01","07","23:00","-9.9","","-11.5","","88","","","","15","","18","","1.2","","97.17","","","","-17","","Snow,Blowing Snow"
"-82.47","49.41","KAPUSKASING A","6073976","2019-01-08 00:00","2019","01","08","00:00","-9.7","","-11.3","","88","","","","15","","17","","1.2","","97.07","","","","-17","","Snow,Blowing Snow"
"-82.47","49.41","KAPUSKASING A","6073976","2019-01-08 01:00","2019","01","08","01:00","-9.5","","-11.3","","87","","","","15","","17","","1.2","","97.00","","","","-17","","Snow,Blowing Snow"
"-82.47","49.41","KAPUSKASING A","6073976","2019-01-08 02:00","2019","01","08","02:00","-9.3","","-11.0","","88","","","","16","","17","","1.6","","96.98","","","","-16","","Snow,Blowing Snow"
"-82.47","49.41","KAPUSKASING A","6073976","2019-01-08 03:00","2019","01","08","03:00","-8.9","","-10.6","","87","","","","18","","14","","4.8","","96.98","","","","-15","","Snow"
"-82.47","49.41","KAPUSKASING A","6073976","2019-01-08 04:00","2019","01","08","04:00","-8.4","","-10.1","","88","","","","19","","10","","9.7","","96.97","","","","-13","","Snow"
"-82.47","49.41","KAPUSKASING A","6073976","2019-01-08 05:00","2019","01","08","05:00","-7.5","","-8.9","","90","","","","21","","15","","9.7","","96.95","","","","-14","","Snow"
"-82.47","49.41","KAPUSKASING A","6073976","2019-01-08 06:00","2019","01","08","06:00","-6.4","","-7.5","","92","","","","22","","10","","9.7","","96.98","","","","-11","","Snow"
"-82.47","49.41","KAPUSKASING A","6073976","2019-01-08 07:00","2019","01","08","07:00","-5.0","","-6.0","","92","","","","23","","14","","9.7","","97.03","","","","-10","","Snow"
"-82.47","49.41","KAPUSKASING A","6073976","2019-01-08 08:00","2019","01","08","08:00","-4.0","","-5.2","","91","","","","22","","12","","11.3","","97.06","","","","-9","","Snow"
"-82.47","49.41","KAPUSKASING A","6073976","2019-01-08 09:00","2019","01","08","09:00","-3.3","","-4.5","","92","","","","21","","14","","11.3","","97.09","","","","-8","","Snow"
"-82.47","49.41","KAPUSKASING A","6073976","2019-01-08 10:00","2019","01","08","10:00","-2.5","","-3.8","","91","","","","23","","10","","16.1","","97.12","","","","-6","","Cloudy"
"-82.47","49.41","KAPUSKASING A","6073976","2019-01-08 11:00","2019","01","08","11:00","-1.4","","-3.1","","88","","","","21","","15","","16.1","","97.14","","","","-6","","NA"
"-82.47","49.41","KAPUSKASING A","6073976","2019-01-08 12:00","2019","01","08","12:00","-0.8","","-2.4","","89","","","","22","","14","","24.1","","97.10","","","","-5","","NA"
"-82.47","49.41","KAPUSKASING A","6073976","2019-01-08 13:00","2019","01","08","13:00","0.5","","-3.6","","74","","","","24","","26","","24.1","","97.07","","","","","","Cloudy"
"-82.47","49.41","KAPUSKASING A","6073976","2019-01-08 14:00","2019","01","08","14:00","-0.3","","-2.2","","87","","","","22","","11","","24.1","","97.09","","","","-4","","NA"
"-82.47","49.41","KAPUSKASING A","6073976","2019-01-08 15:00","2019","01","08","15:00","0.0","","-2.2","","85","","","","25","","12","","24.1","","97.12","","","","-4","","NA"
"-82.47","49.41","KAPUSKASING A","6073976","2019-01-08 16:00","2019","01","08","16:00","-0.6","","-2.2","","89","","","","19","","10","","24.1","","97.15","","","","-4","","Cloudy"
"-82.47","49.41","KAPUSKASING A","6073976","2019-01-08 17:00","2019","01","08","17:00","-0.4","","-2.0","","89","","","","25","","8","","24.1","","97.19","","","","-3","","NA"
"-82.47","49.41","KAPUSKASING A","6073976","2019-01-08 18:00","2019","01","08","18:00","-1.0","","-2.2","","92","","","","21","","8","","16.1","","97.23","","","","-4","","Snow Showers"
"-82.47","49.41","KAPUSKASING A","6073976","2019-01-08 19:00","2019","01","08","19:00","-1.3","","-2.0","","95","","","","21","","6","","11.3","","97.27","","","","-4","","Snow Showers"
"-82.47","49.41","KAPUSKASING A","6073976","2019-01-08 20:00","2019","01","08","20:00","-1.2","","-1.9","","95","","","","24","","10","","4.8","","97.33","","","","-5","","Snow"
"-82.47","49.41","KAPUSKASING A","6073976","2019-01-08 21:00","2019","01","08","21:00","-2.2","","-3.1","","93","","","","27","","17","","2.0","","97.37","","","","-8","","Snow"
"-82.47","49.41","KAPUSKASING A","6073976","2019-01-08 22:00","2019","01","08","22:00","-2.5","","-3.3","","94","","","","25","","12","","3.2","","97.42","","","","-7","","Snow"
"-82.47","49.41","KAPUSKASING A","6073976","2019-01-08 23:00","2019","01","08","23:00","-2.9","","-3.9","","93","","","","25","","12","","9.7","","97.46","","","","-7","","Snow"
"-82.47","49.41","KAPUSKASING A","6073976","2019-01-09 00:00","2019","01","09","00:00","-3.9","","-5.7","","87","","","","30","","21","","9.7","","97.51","","","","-10","","Snow"
"-82.47","49.41","KAPUSKASING A","6073976","2019-01-09 01:00","2019","01","09","01:00","-4.5","","-5.8","","91","","","","29","","15","","4.8","","97.55","","","","-10","","Snow"
"-82.47","49.41","KAPUSKASING A","6073976","2019-01-09 02:00","2019","01","09","02:00","-5.0","","-6.3","","91","","","","29","","11","","3.2","","97.63","","","","-10","","Snow"
"-82.47","49.41","KAPUSKASING A","6073976","2019-01-09 03:00","2019","01","09","03:00","-5.4","","-6.8","","90","","","","30","","16","","4.8","","97.74","","","","-11","","Snow"
"-82.47","49.41","KAPUSKASING A","6073976","2019-01-09 04:00","2019","01","09","04:00","-5.7","","-7.3","","89","","","","31","","27","","4.8","","97.79","","","","-14","","Snow,Blowing Snow"
"-82.47","49.41","KAPUSKASING A","6073976","2019-01-09 05:00","2019","01","09","05:00","-6.8","","-8.4","","88","","","","31","","23","","9.7","","97.88","","","","-14","","Snow,Blowing Snow"
"-82.47","49.41","KAPUSKASING A","6073976","2019-01-09 06:00","2019","01","09","06:00","-8.2","","-10.3","","85","","","","33","","27","","6.4","","97.99","","","","-17","","Snow,Blowing Snow"
"-82.47","49.41","KAPUSKASING A","6073976","2019-01-09 07:00","2019","01","09","07:00","-8.8","","-10.7","","86","","","","32","","21","","3.2","","98.11","","","","-17","","Snow,Blowing Snow"
"-82.47","49.41","KAPUSKASING A","6073976","2019-01-09 08:00","2019","01","09","08:00","-9.6","","-11.8","","84","","","","32","","27","","4.8","","98.21","","","","-19","","Snow,Blowing Snow"
"-82.47","49.41","KAPUSKASING A","6073976","2019-01-09 09:00","2019","01","09","09:00","-10.2","","-12.3","","85","","","","32","","22","","4.8","","98.33","","","","-18","","Snow,Blowing Snow"
"-82.47","49.41","KAPUSKASING A","6073976","2019-01-09 10:00","2019","01","09","10:00","-9.8","","-12.2","","83","","","","33","","24","","4.0","","98.45","","","","-18","","Snow,Blowing Snow"
"-82.47","49.41","KAPUSKASING A","6073976","2019-01-09 11:00","2019","01","09","11:00","-9.3","","-11.8","","83","","","","34","","30","","2.4","","98.51","","","","-19","","Snow,Blowing Snow"
"-82.47","49.41","KAPUSKASING A","6073976","2019-01-09 12:00","2019","01","09","12:00","-9.1","","-11.7","","81","","","","34","","22","","2.4","","98.57","","","","-17","","Snow,Blowing Snow"
"-82.47","49.41","KAPUSKASING A","6073976","2019-01-09 13:00","2019","01","09","13:00","-9.4","","-12.7","","77","","","","34","","25","","4.8","","98.64","","","","-18","","Snow,Blowing Snow"
"-82.47","49.41","KAPUSKASING A","6073976","2019-01-09 14:00","2019","01","09","14:00","-10.2","","-13.6","","76","","","","34","","32","","4.8","","98.75","","","","-20","","Snow,Blowing Snow"
"-82.47","49.41","KAPUSKASING A","6073976","2019-01-09 15:00","2019","01","09","15:00","-11.2","","-14.5","","77","","","","33","","29","","4.8","","98.88","","","","-21","","Snow,Blowing Snow"
"-82.47","49.41","KAPUSKASING A","6073976","2019-01-09 16:00","2019","01","09","16:00","-12.2","","-15.2","","78","","","","33","","28","","4.0","","99.03","","","","-22","","Snow,Blowing Snow"
"-82.47","49.41","KAPUSKASING A","6073976","2019-01-09 17:00","2019","01","09","17:00","-13.2","","-15.9","","80","","","","32","","32","","4.8","","99.14","","","","-24","","Snow,Blowing Snow"
"-82.47","49.41","KAPUSKASING A","6073976","2019-01-09 18:00","2019","01","09","18:00","-14.1","","-16.6","","81","","","","33","","21","","4.8","","99.25","","","","-23","","Snow,Blowing Snow"
"-82.47","49.41","KAPUSKASING A","6073976","2019-01-09 19:00","2019","01","09","19:00","-15.0","","-17.8","","79","","","","33","","32","","4.8","","99.31","","","","-26","","Snow,Blowing Snow"
"-82.47","49.41","KAPUSKASING A","6073976","2019-01-09 20:00","2019","01","09","20:00","-16.0","","-18.8","","79","","","","32","","28","","4.8","","99.42","","","","-27","","Snow,Blowing Snow"
"-82.47","49.41","KAPUSKASING A","6073976","2019-01-09 21:00","2019","01","09","21:00","-16.9","","-20.0","","77","","","","33","","25","","4.8","","99.49","","","","-28","","Snow,Blowing Snow"
"-82.47","49.41","KAPUSKASING A","6073976","2019-01-09 22:00","2019","01","09","22:00","-17.8","","-20.9","","77","","","","33","","26","","9.7","","99.53","","","","-29","","Snow,Blowing Snow"
"-82.47","49.41","KAPUSKASING A","6073976","2019-01-09 23:00","2019","01","09","23:00","-18.4","","-21.6","","76","","","","32","","31","","9.7","","99.56","","","","-31","","Snow,Blowing Snow"
"-82.47","49.41","KAPUSKASING A","6073976","2019-01-10 00:00","2019","01","10","00:00","-18.8","","-22.1","","76","","","","32","","26","","9.7","","99.59","","","","-30","","Snow,Blowing Snow"
"-82.47","49.41","KAPUSKASING A","6073976","2019-01-10 01:00","2019","01","10","01:00","-19.3","","-22.6","","76","","","","32","","29","","8.1","","99.63","","","","-31","","Snow,Blowing Snow"
"-82.47","49.41","KAPUSKASING A","6073976","2019-01-10 02:00","2019","01","10","02:00","-19.9","","-22.8","","78","","","","32","","24","","9.7","","99.69","","","","-31","","Snow,Blowing Snow"
"-82.47","49.41","KAPUSKASING A","6073976","2019-01-10 03:00","2019","01","10","03:00","-20.0","","-22.9","","78","","","","32","","19","","9.7","","99.73","","","","-30","","Snow,Blowing Snow"
"-82.47","49.41","KAPUSKASING A","6073976","2019-01-10 04:00","2019","01","10","04:00","-20.0","","-23.2","","76","","","","32","","30","","9.7","","99.81","","","","-33","","Snow,Blowing Snow"
"-82.47","49.41","KAPUSKASING A","6073976","2019-01-10 05:00","2019","01","10","05:00","-21.4","","-24.9","","74","","","","32","","34","","9.7","","99.88","","","","-35","","Snow,Blowing Snow"
"-82.47","49.41","KAPUSKASING A","6073976","2019-01-10 06:00","2019","01","10","06:00","-22.2","","-25.6","","75","","","","32","","29","","24.1","","99.89","","","","-35","","NA"
"-82.47","49.41","KAPUSKASING A","6073976","2019-01-10 07:00","2019","01","10","07:00","-23.1","","-26.2","","77","","","","32","","22","","24.1","","99.91","","","","-35","","Mainly Clear"
"-82.47","49.41","KAPUSKASING A","6073976","2019-01-10 08:00","2019","01","10","08:00","-24.2","","-27.3","","76","","","","32","","24","","24.1","","99.97","","","","-37","","NA"
"-82.47","49.41","KAPUSKASING A","6073976","2019-01-10 09:00","2019","01","10","09:00","-24.7","","-27.9","","75","","","","32","","21","","24.1","","100.01","","","","-37","","Blowing Snow"
"-82.47","49.41","KAPUSKASING A","6073976","2019-01-10 10:00","2019","01","10","10:00","-24.1","","-27.8","","72","","","","32","","20","","24.1","","100.01","","","","-36","","Blowing Snow"
"-82.47","49.41","KAPUSKASING A","6073976","2019-01-10 11:00","2019","01","10","11:00","-23.2","","-27.6","","68","","","","32","","25","","24.1","","100.01","","","","-36","","Blowing Snow"
"-82.47","49.41","KAPUSKASING A","6073976","2019-01-10 12:00","2019","01","10","12:00","-21.8","","-26.8","","65","","","","31","","21","","24.1","","99.94","","","","-33","","Blowing Snow"
"-82.47","49.41","KAPUSKASING A","6073976","2019-01-10 13:00","2019","01","10","13:00","-20.1","","-25.4","","64","","","","33","","26","","24.1","","99.89","","","","-32","","Blowing Snow"
"-82.47","49.41","KAPUSKASING A","6073976","2019-01-10 14:00","2019","01","10","14:00","-18.8","","-24.3","","63","","","","30","","19","","24.1","","99.90","","","","-29","","Blowing Snow"
"-82.47","49.41","KAPUSKASING A","6073976","2019-01-10 15:00","2019","01","10","15:00","-18.5","","-24.1","","62","","","","31","","22","","24.1","","99.90","","","","-29","","NA"
"-82.47","49.41","KAPUSKASING A","6073976","2019-01-10 16:00","2019","01","10","16:00","-19.0","","-24.7","","61","","","","33","","21","","24.1","","99.95","","","","-29","","Blowing Snow"
"-82.47","49.41","KAPUSKASING A","6073976","2019-01-10 17:00","2019","01","10","17:00","-20.4","","-25.2","","66","","","","32","","23","","24.1","","99.99","","","","-32","","NA"
"-82.47","49.41","KAPUSKASING A","6073976","2019-01-10 18:00","2019","01","10","18:00","-21.5","","-25.7","","69","","","","32","","13","","24.1","","100.04","","","","-30","","NA"
"-82.47","49.41","KAPUSKASING A","6073976","2019-01-10 19:00","2019","01","10","19:00","-22.0","","-26.0","","70","","","","31","","17","","24.1","","100.04","","","","-32","","Clear"
"-82.47","49.41","KAPUSKASING A","6073976","2019-01-10 20:00","2019","01","10","20:00","-22.5","","-26.4","","71","","","","32","","17","","24.1","","100.04","","","","-33","","NA"
"-82.47","49.41","KAPUSKASING A","6073976","2019-01-10 21:00","2019","01","10","21:00","-22.9","","-26.6","","72","","","","31","","15","","24.1","","100.05","","","","-33","","NA"
"-82.47","49.41","KAPUSKASING A","6073976","2019-01-10 22:00","2019","01","10","22:00","-24.1","","-27.6","","73","","","","31","","9","","24.1","","100.02","","","","-32","","Clear"
"-82.47","49.41","KAPUSKASING A","6073976","2019-01-10 23:00","2019","01","10","23:00","-24.2","","-27.6","","74","","","","30","","11","","24.1","","100.02","","","","-33","","NA"
"-82.47","49.41","KAPUSKASING A","6073976","2019-01-11 00:00","2019","01","11","00:00","-25.5","","-28.6","","76","","","","28","","11","","24.1","","100.02","","","","-34","","NA"
"-82.47","49.41","KAPUSKASING A","6073976","2019-01-11 01:00","2019","01","11","01:00","-26.1","","-29.2","","76","","","","28","","11","","24.1","","100.03","","","","-35","","Clear"
"-82.47","49.41","KAPUSKASING A","6073976","2019-01-11 02:00","2019","01","11","02:00","-26.0","","-28.9","","77","","","","29","","10","","24.1","","100.08","","","","-34","","NA"
"-82.47","49.41","KAPUSKASING A","6073976","2019-01-11 03:00","2019","01","11","03:00","-25.6","","-28.6","","77","","","","27","","10","","24.1","","100.10","","","","-34","","NA"
"-82.47","49.41","KAPUSKASING A","6073976","2019-01-11 04:00","2019","01","11","04:00","-26.5","","-29.3","","78","","","","26","","9","","24.1","","100.10","","","","-34","","Clear"
"-82.47","49.41","KAPUSKASING A","6073976","2019-01-11 05:00","2019","01","11","05:00","-26.6","","-29.4","","78","","","","27","","10","","24.1","","100.11","","","","-35","","NA"
"-82.47","49.41","KAPUSKASING A","6073976","2019-01-11 06:00","2019","01","11","06:00","-26.1","","-29.0","","78","","","","28","","10","","24.1","","100.12","","","","-34","","NA"
"-82.47","49.41","KAPUSKASING A","6073976","2019-01-11 07:00","2019","01","11","07:00","-26.6","","-29.5","","77","","","","26","","9","","24.1","","100.12","","","","-35","","Mostly Cloudy"
"-82.47","49.41","KAPUSKASING A","6073976","2019-01-11 08:00","2019","01","11","08:00","-25.6","","-28.5","","77","","","","27","","12","","24.1","","100.13","","","","-35","","NA"
"-82.47","49.41","KAPUSKASING A","6073976","2019-01-11 09:00","2019","01","11","09:00","-25.8","","-28.8","","77","","","","26","","8","","24.1","","100.18","","","","-33","","NA"
"-82.47","49.41","KAPUSKASING A","6073976","2019-01-11 10:00","2019","01","11","10:00","-23.8","","-27.1","","74","","","","27","","12","","24.1","","100.20","","","","-33","","Mainly Clear"
"-82.47","49.41","KAPUSKASING A","6073976","2019-01-11 11:00","2019","01","11","11:00","-21.5","","-25.5","","71","","","","30","","13","","24.1","","100.18","","","","-30","","NA"
"-82.47","49.41","KAPUSKASING A","6073976","2019-01-11 12:00","2019","01","11","12:00","-19.2","","-24.5","","63","","","","28","","14","","24.1","","100.12","","","","-28","","NA"
"-82.47","49.41","KAPUSKASING A","6073976","2019-01-11 13:00","2019","01","11","13:00","-17.5","","-23.8","","58","","","","29","","13","","24.1","","100.11","","","","-25","","Mostly Cloudy"
"-82.47","49.41","KAPUSKASING A","6073976","2019-01-11 14:00","2019","01","11","14:00","-17.4","","-23.4","","60","","","","28","","12","","24.1","","100.13","","","","-25","","NA"
"-82.47","49.41","KAPUSKASING A","6073976","2019-01-11 15:00","2019","01","11","15:00","-16.4","","-22.8","","58","","","","27","","15","","24.1","","100.14","","","","-25","","NA"
"-82.47","49.41","KAPUSKASING A","6073976","2019-01-11 16:00","2019","01","11","16:00","-16.8","","-22.3","","63","","","","26","","13","","24.1","","100.16","","","","-25","","Mainly Clear"
"-82.47","49.41","KAPUSKASING A","6073976","2019-01-11 17:00","2019","01","11","17:00","-18.7","","-23.0","","69","","","","27","","13","","24.1","","100.15","","","","-27","","NA"
"-82.47","49.41","KAPUSKASING A","6073976","2019-01-11 18:00","2019","01","11","18:00","-19.7","","-23.3","","74","","","","27","","15","","24.1","","100.19","","","","-29","","NA"
"-82.47","49.41","KAPUSKASING A","6073976","2019-01-11 19:00","2019","01","11","19:00","-19.9","","-23.4","","74","","","","28","","13","","24.1","","100.24","","","","-28","","Clear"
"-82.47","49.41","KAPUSKASING A","6073976","2019-01-11 20:00","2019","01","11","20:00","-20.9","","-24.1","","76","","","","28","","9","","24.1","","100.30","","","","-28","","NA"
"-82.47","49.41","KAPUSKASING A","6073976","2019-01-11 21:00","2019","01","11","21:00","-21.1","","-23.9","","78","","","","28","","9","","24.1","","100.34","","","","-28","","NA"
"-82.47","49.41","KAPUSKASING A","6073976","2019-01-11 22:00","2019","01","11","22:00","-21.9","","-24.5","","80","","","","30","","8","","24.1","","100.37","","","","-28","","Clear"
"-82.47","49.41","KAPUSKASING A","6073976","2019-01-11 23:00","2019","01","11","23:00","-22.4","","-24.9","","80","","","","29","","9","","24.1","","100.39","","","","-30","","NA"
"-82.47","49.41","KAPUSKASING A","6073976","2019-01-12 00:00","2019","01","12","00:00","-23.6","","-26.2","","79","","","","28","","10","","24.1","","100.47","","","","-32","","NA"
"-82.47","49.41","KAPUSKASING A","6073976","2019-01-12 01:00","2019","01","12","01:00","-24.0","","-26.8","","78","","","","30","","8","","24.1","","100.50","","","","-31","","Clear"
"-82.47","49.41","KAPUSKASING A","6073976","2019-01-12 02:00","2019","01","12","02:00","-24.6","","-27.3","","79","","","","29","","8","","24.1","","100.58","","","","-32","","NA"
"-82.47","49.41","KAPUSKASING A","6073976","2019-01-12 03:00","2019","01","12","03:00","-25.8","","-28.4","","79","","","","31","","7","","24.1","","100.60","","","","-32","","NA"
"-82.47","49.41","KAPUSKASING A","6073976","2019-01-12 04:00","2019","01","12","04:00","-28.6","","-31.3","","78","","","","28","","9","","24.1","","100.64","","","","-37","","Clear"
"-82.47","49.41","KAPUSKASING A","6073976","2019-01-12 05:00","2019","01","12","05:00","-27.5","","-30.1","","79","","","","28","","5","","24.1","","100.68","","","","-33","","NA"
"-82.47","49.41","KAPUSKASING A","6073976","2019-01-12 06:00","2019","01","12","06:00","-28.1","","-30.8","","78","","","","29","","8","","24.1","","100.73","","","","-36","","NA"
"-82.47","49.41","KAPUSKASING A","6073976","2019-01-12 07:00","2019","01","12","07:00","-29.6","","-32.5","","76","","","","29","","7","","24.1","","100.82","","","","-37","","Mainly Clear"
"-82.47","49.41","KAPUSKASING A","6073976","2019-01-12 08:00","2019","01","12","08:00","-29.6","","-32.8","","75","","","","28","","7","","19.3","","100.88","","","","-37","","NA"
"-82.47","49.41","KAPUSKASING A","6073976","2019-01-12 09:00","2019","01","12","09:00","-27.9","","-30.8","","77","","","","30","","7","","19.3","","100.95","","","","-35","","NA"
"-82.47","49.41","KAPUSKASING A","6073976","2019-01-12 10:00","2019","01","12","10:00","-25.9","","-28.8","","77","","","","31","","9","","19.3","","101.04","","","","-34","","Cloudy"
"-82.47","49.41","KAPUSKASING A","6073976","2019-01-12 11:00","2019","01","12","11:00","-24.9","","-27.3","","81","","","","31","","8","","19.3","","101.07","","","","-32","","NA"
"-82.47","49.41","KAPUSKASING A","6073976","2019-01-12 12:00","2019","01","12","12:00","-23.5","","-26.0","","80","","","","33","","8","","19.3","","101.07","","","","-30","","NA"
"-82.47","49.41","KAPUSKASING A","6073976","2019-01-12 13:00","2019","01","12","13:00","-22.1","","-24.9","","78","","","","36","","2","","24.1","","101.02","","","","-24","","Mainly Clear"
"-82.47","49.41","KAPUSKASING A","6073976","2019-01-12 14:00","2019","01","12","14:00","-20.7","","-23.9","","76","","","","36","","3","","24.1","","100.99","","","","-23","","NA"
"-82.47","49.41","KAPUSKASING A","6073976","2019-01-12 15:00","2019","01","12","15:00","-20.1","","-23.6","","74","","","","36","","3","","24.1","","100.98","","","","-23","","NA"
"-82.47","49.41","KAPUSKASING A","6073976","2019-01-12 16:00","2019","01","12","16:00","-19.9","","-23.4","","74","","","","9","","5","","24.1","","100.94","","","","-24","","Clear"
"-82.47","49.41","KAPUSKASING A","6073976","2019-01-12 17:00","2019","01","12","17:00","-20.6","","-24.1","","74","","","","12","","4","","24.1","","100.94","","","","-24","","NA"
"-82.47","49.41","KAPUSKASING A","6073976","2019-01-12 18:00","2019","01","12","18:00","-22.6","","-24.9","","82","","","","14","","4","","24.1","","100.97","","","","-26","","NA"
"-82.47","49.41","KAPUSKASING A","6073976","2019-01-12 19:00","2019","01","12","19:00","-24.9","","-27.3","","81","","","","13","","6","","24.1","","100.97","","","","-31","","Clear"
"-82.47","49.41","KAPUSKASING A","6073976","2019-01-12 20:00","2019","01","12","20:00","-25.6","","-28.0","","81","","","","36","","2","","16.1","","100.97","","","","-28","","NA"
"-82.47","49.41","KAPUSKASING A","6073976","2019-01-12 21:00","2019","01","12","21:00","-26.2","","-28.9","","79","","","","36","","2","","24.1","","100.96","","","","-28","","NA"
"-82.47","49.41","KAPUSKASING A","6073976","2019-01-12 22:00","2019","01","12","22:00","-28.6","","-31.6","","76","","","","15","","5","","24.1","","100.92","","","","-34","","Clear"
"-82.47","49.41","KAPUSKASING A","6073976","2019-01-12 23:00","2019","01","12","23:00","-27.6","","-30.3","","78","","","","36","","2","","24.1","","100.90","","","","-30","","NA"
"-82.47","49.41","KAPUSKASING A","6073976","2019-01-13 00:00","2019","01","13","00:00","-28.3","","-31.2","","77","","","","15","","7","","24.1","","100.86","","","","-35","","NA"
"-82.47","49.41","KAPUSKASING A","6073976","2019-01-13 01:00","2019","01","13","01:00","-30.1","","-33.2","","74","","","","17","","6","","24.1","","100.79","","","","-37","","Clear"
"-82.47","49.41","KAPUSKASING A","6073976","2019-01-13 02:00","2019","01","13","02:00","-27.9","","-30.7","","77","","","","18","","4","","24.1","","100.76","","","","-32","","NA"
"-82.47","49.41","KAPUSKASING A","6073976","2019-01-13 03:00","2019","01","13","03:00","-29.0","","-31.9","","77","","","","18","","8","","24.1","","100.74","","","","-37","","NA"
"-82.47","49.41","KAPUSKASING A","6073976","2019-01-13 04:00","2019","01","13","04:00","-27.1","","-29.8","","78","","","","16","","5","","24.1","","100.70","","","","-32","","Clear"
"-82.47","49.41","KAPUSKASING A","6073976","2019-01-13 05:00","2019","01","13","05:00","-26.9","","-29.6","","78","","","","18","","7","","24.1","","100.66","","","","-34","","NA"
"-82.47","49.41","KAPUSKASING A","6073976","2019-01-13 06:00","2019","01","13","06:00","-26.0","","-28.7","","79","","","","17","","7","","24.1","","100.63","","","","-33","","NA"
"-82.47","49.41","KAPUSKASING A","6073976","2019-01-13 07:00","2019","01","13","07:00","-25.7","","-28.3","","79","","","","18","","6","","24.1","","100.57","","","","-32","","Mainly Clear"
"-82.47","49.41","KAPUSKASING A","6073976","2019-01-13 08:00","2019","01","13","08:00","-24.8","","-27.6","","78","","","","19","","7","","24.1","","100.53","","","","-31","","NA"
"-82.47","49.41","KAPUSKASING A","6073976","2019-01-13 09:00","2019","01","13","09:00","-23.7","","-26.4","","79","","","","19","","11","","24.1","","100.47","","","","-32","","NA"
"-82.47","49.41","KAPUSKASING A","6073976","2019-01-13 10:00","2019","01","13","10:00","-21.0","","-23.6","","79","","","","18","","13","","24.1","","100.40","","","","-30","","Mainly Clear"
"-82.47","49.41","KAPUSKASING A","6073976","2019-01-13 11:00","2019","01","13","11:00","-17.7","","-20.6","","78","","","","19","","10","","24.1","","100.33","","","","-24","","NA"
"-82.47","49.41","KAPUSKASING A","6073976","2019-01-13 12:00","2019","01","13","12:00","-14.7","","-18.4","","74","","","","19","","13","","24.1","","100.20","","","","-22","","NA"
"-82.47","49.41","KAPUSKASING A","6073976","2019-01-13 13:00","2019","01","13","13:00","-12.2","","-16.4","","71","","","","19","","11","","24.1","","100.07","","","","-18","","Mostly Cloudy"
"-82.47","49.41","KAPUSKASING A","6073976","2019-01-13 14:00","2019","01","13","14:00","-9.7","","-14.0","","71","","","","20","","14","","24.1","","99.97","","","","-16","","NA"
"-82.47","49.41","KAPUSKASING A","6073976","2019-01-13 15:00","2019","01","13","15:00","-7.0","","-11.3","","72","","","","21","","24","","24.1","","99.87","","","","-15","","NA"
"-82.47","49.41","KAPUSKASING A","6073976","2019-01-13 16:00","2019","01","13","16:00","-6.7","","-10.6","","74","","","","22","","22","","24.1","","99.79","","","","-14","","Mostly Cloudy"
"-82.47","49.41","KAPUSKASING A","6073976","2019-01-13 17:00","2019","01","13","17:00","-6.8","","-10.1","","78","","","","22","","21","","24.1","","99.71","","","","-14","","NA"
"-82.47","49.41","KAPUSKASING A","6073976","2019-01-13 18:00","2019","01","13","18:00","-7.1","","-9.9","","81","","","","21","","25","","24.1","","99.59","","","","-15","","NA"
"-82.47","49.41","KAPUSKASING A","6073976","2019-01-13 19:00","2019","01","13","19:00","-7.0","","-9.6","","82","","","","22","","22","","24.1","","99.57","","","","-14","","Cloudy"
"-82.47","49.41","KAPUSKASING A","6073976","2019-01-13 20:00","2019","01","13","20:00","-6.8","","-9.2","","83","","","","21","","18","","24.1","","99.50","","","","-13","","NA"
"-82.47","49.41","KAPUSKASING A","6073976","2019-01-13 21:00","2019","01","13","21:00","-6.6","","-8.8","","85","","","","22","","25","","24.1","","99.42","","","","-14","","NA"
"-82.47","49.41","KAPUSKASING A","6073976","2019-01-13 22:00","2019","01","13","22:00","-6.2","","-8.3","","85","","","","23","","16","","24.1","","99.38","","","","-12","","Cloudy"
"-82.47","49.41","KAPUSKASING A","6073976","2019-01-13 23:00","2019","01","13","23:00","-5.7","","-7.7","","86","","","","22","","16","","24.1","","99.33","","","","-12","","NA"
"-82.47","49.41","KAPUSKASING A","6073976","2019-01-14 00:00","2019","01","14","00:00","-5.4","","-7.4","","86","","","","22","","22","","24.1","","99.27","","","","-12","","NA"
"-82.47","49.41","KAPUSKASING A","6073976","2019-01-14 01:00","2019","01","14","01:00","-5.3","","-6.6","","90","","","","22","","25","","4.8","","99.17","","","","-13","","Freezing Drizzle"
"-82.47","49.41","KAPUSKASING A","6073976","2019-01-14 02:00","2019","01","14","02:00","-5.3","","-6.5","","92","","","","22","","27","","4.8","","99.14","","","","-13","","Freezing Drizzle"
"-82.47","49.41","KAPUSKASING A","6073976","2019-01-14 03:00","2019","01","14","03:00","-5.4","","-6.5","","92","","","","22","","26","","4.8","","99.13","","","","-13","","Freezing Drizzle"
"-82.47","49.41","KAPUSKASING A","6073976","2019-01-14 04:00","2019","01","14","04:00","-5.5","","-6.5","","93","","","","23","","17","","4.8","","99.11","","","","-12","","Freezing Drizzle"
"-82.47","49.41","KAPUSKASING A","6073976","2019-01-14 05:00","2019","01","14","05:00","-5.6","","-6.5","","93","","","","22","","18","","4.8","","99.05","","","","-12","","Freezing Drizzle"
"-82.47","49.41","KAPUSKASING A","6073976","2019-01-14 06:00","2019","01","14","06:00","-5.5","","-6.3","","94","","","","22","","18","","3.2","","99.04","","","","-12","","Freezing Drizzle,Fog"
"-82.47","49.41","KAPUSKASING A","6073976","2019-01-14 07:00","2019","01","14","07:00","-5.3","","-6.1","","94","","","","22","","17","","3.2","","99.02","","","","-11","","Freezing Drizzle,Fog"
"-82.47","49.41","KAPUSKASING A","6073976","2019-01-14 08:00","2019","01","14","08:00","-5.0","","-5.6","","96","","","","23","","10","","3.2","","99.04","","","","-9","","Freezing Drizzle,Snow,Fog"
"-82.47","49.41","KAPUSKASING A","6073976","2019-01-14 09:00","2019","01","14","09:00","-4.9","","-5.5","","96","","","","22","","14","","3.2","","99.06","","","","-10","","Freezing Drizzle,Snow,Fog"
"-82.47","49.41","KAPUSKASING A","6073976","2019-01-14 10:00","2019","01","14","10:00","-4.6","","-5.3","","95","","","","24","","11","","9.7","","99.06","","","","-9","","Snow"
"-82.47","49.41","KAPUSKASING A","6073976","2019-01-14 11:00","2019","01","14","11:00","-4.2","","-4.8","","96","","","","36","","1","","3.2","","99.07","","","","-5","","Snow"
"-82.47","49.41","KAPUSKASING A","6073976","2019-01-14 12:00","2019","01","14","12:00","-4.7","","-5.7","","93","","","","36","","17","","3.2","","99.06","","","","-11","","Freezing Drizzle,Snow,Fog"
"-82.47","49.41","KAPUSKASING A","6073976","2019-01-14 13:00","2019","01","14","13:00","-5.5","","-6.5","","93","","","","1","","17","","3.2","","99.09","","","","-12","","Freezing Drizzle,Snow,Fog"
"-82.47","49.41","KAPUSKASING A","6073976","2019-01-14 14:00","2019","01","14","14:00","-6.8","","-8.2","","90","","","","1","","10","","3.2","","99.11","","","","-11","","Snow"
"-82.47","49.41","KAPUSKASING A","6073976","2019-01-14 15:00","2019","01","14","15:00","-7.0","","-8.6","","88","","","","36","","8","","3.2","","99.15","","","","-11","","Snow"
"-82.47","49.41","KAPUSKASING A","6073976","2019-01-14 16:00","2019","01","14","16:00","-7.1","","-8.9","","87","","","","34","","9","","9.7","","99.19","","","","-11","","Snow"
"-82.47","49.41","KAPUSKASING A","6073976","2019-01-14 17:00","2019","01","14","17:00","-7.7","","-9.7","","86","","","","32","","14","","4.8","","99.26","","","","-14","","Snow"
"-82.47","49.41","KAPUSKASING A","6073976","2019-01-14 18:00","2019","01","14","18:00","-8.7","","-11.2","","82","","","","33","","15","","9.7","","99.33","","","","-15","","Snow"
"-82.47","49.41","KAPUSKASING A","6073976","2019-01-14 19:00","2019","01","14","19:00","-9.7","","-11.8","","85","","","","32","","9","","9.7","","99.36","","","","-15","","Snow"
"-82.47","49.41","KAPUSKASING A","6073976","2019-01-14 20:00","2019","01","14","20:00","-10.1","","-12.3","","84","","","","35","","18","","8.1","","99.40","","","","-18","","Snow"
"-82.47","49.41","KAPUSKASING A","6073976","2019-01-14 21:00","2019","01","14","21:00","-12.3","","-15.2","","80","","","","36","","14","","9.7","","99.45","","","","-19","","Snow"
"-82.47","49.41","KAPUSKASING A","6073976","2019-01-14 22:00","2019","01","14","22:00","-14.5","","-18.4","","73","","","","36","","13","","24.1","","99.49","","","","-22","","Cloudy"
"-82.47","49.41","KAPUSKASING A","6073976","2019-01-14 23:00","2019","01","14","23:00","-16.1","","-19.5","","75","","","","3","","5","","24.1","","99.49","","","","-20","","NA"
"-82.47","49.41","KAPUSKASING A","6073976","2019-01-15 00:00","2019","01","15","00:00","-18.5","","-20.5","","84","","","","36","","2","","24.1","","99.46","","","","-20","","NA"
"-82.47","49.41","KAPUSKASING A","6073976","2019-01-15 01:00","2019","01","15","01:00","-20.9","","-22.8","","85","","","","30","","5","","24.1","","99.44","","","","-25","","Mainly Clear"
"-82.47","49.41","KAPUSKASING A","6073976","2019-01-15 02:00","2019","01","15","02:00","-22.1","","-24.3","","82","","","","36","","1","","24.1","","99.43","","","","-23","","NA"
"-82.47","49.41","KAPUSKASING A","6073976","2019-01-15 03:00","2019","01","15","03:00","-23.0","","-25.2","","83","","","","36","","2","","24.1","","99.41","","","","-25","","NA"
"-82.47","49.41","KAPUSKASING A","6073976","2019-01-15 04:00","2019","01","15","04:00","-23.9","","-26.2","","82","","","","14","","3","","24.1","","99.37","","","","-27","","Mostly Cloudy"
"-82.47","49.41","KAPUSKASING A","6073976","2019-01-15 05:00","2019","01","15","05:00","-25.2","","-27.6","","81","","","","14","","4","","24.1","","99.33","","","","-29","","NA"
"-82.47","49.41","KAPUSKASING A","6073976","2019-01-15 06:00","2019","01","15","06:00","-25.4","","-27.9","","80","","","","15","","4","","24.1","","99.25","","","","-29","","NA"
"-82.47","49.41","KAPUSKASING A","6073976","2019-01-15 07:00","2019","01","15","07:00","-24.9","","-27.5","","79","","","","12","","8","","24.1","","99.16","","","","-32","","Mostly Cloudy"
"-82.47","49.41","KAPUSKASING A","6073976","2019-01-15 08:00","2019","01","15","08:00","-22.6","","-25.1","","81","","","","14","","8","","24.1","","99.05","","","","-29","","NA"
"-82.47","49.41","KAPUSKASING A","6073976","2019-01-15 09:00","2019","01","15","09:00","-20.7","","-23.4","","80","","","","12","","10","","24.1","","98.97","","","","-28","","NA"
"-82.47","49.41","KAPUSKASING A","6073976","2019-01-15 10:00","2019","01","15","10:00","-18.6","","-21.2","","80","","","","15","","10","","24.1","","98.87","","","","-26","","Cloudy"
"-82.47","49.41","KAPUSKASING A","6073976","2019-01-15 11:00","2019","01","15","11:00","-15.7","","-18.3","","81","","","","18","","9","","24.1","","98.77","","","","-22","","NA"
"-82.47","49.41","KAPUSKASING A","6073976","2019-01-15 12:00","2019","01","15","12:00","-13.3","","-16.0","","81","","","","16","","16","","24.1","","98.54","","","","-21","","NA"
"-82.47","49.41","KAPUSKASING A","6073976","2019-01-15 13:00","2019","01","15","13:00","-11.0","","-13.9","","80","","","","16","","18","","24.1","","98.29","","","","-19","","Mostly Cloudy"
"-82.47","49.41","KAPUSKASING A","6073976","2019-01-15 14:00","2019","01","15","14:00","-9.5","","-12.1","","82","","","","16","","16","","24.1","","98.08","","","","-16","","NA"
"-82.47","49.41","KAPUSKASING A","6073976","2019-01-15 15:00","2019","01","15","15:00","-8.7","","-10.6","","86","","","","17","","21","","24.1","","97.90","","","","-16","","Snow"
"-82.47","49.41","KAPUSKASING A","6073976","2019-01-15 16:00","2019","01","15","16:00","-8.1","","-9.7","","88","","","","15","","21","","24.1","","97.72","","","","-16","","Snow"
"-82.47","49.41","KAPUSKASING A","6073976","2019-01-15 17:00","2019","01","15","17:00","-7.7","","-9.2","","89","","","","16","","24","","16.1","","97.56","","","","-16","","Snow"
"-82.47","49.41","KAPUSKASING A","6073976","2019-01-15 18:00","2019","01","15","18:00","-7.0","","-8.5","","89","","","","18","","16","","16.1","","97.50","","","","-13","","Snow"
"-82.47","49.41","KAPUSKASING A","6073976","2019-01-15 19:00","2019","01","15","19:00","-6.4","","-7.6","","92","","","","17","","20","","2.0","","97.34","","","","-13","","Snow"
"-82.47","49.41","KAPUSKASING A","6073976","2019-01-15 20:00","2019","01","15","20:00","-5.5","","-6.6","","92","","","","18","","23","","2.0","","97.15","","","","-13","","Snow,Blowing Snow"
"-82.47","49.41","KAPUSKASING A","6073976","2019-01-15 21:00","2019","01","15","21:00","-5.0","","-6.1","","92","","","","20","","19","","2.4","","97.05","","","","-11","","Snow,Blowing Snow"
"-82.47","49.41","KAPUSKASING A","6073976","2019-01-15 22:00","2019","01","15","22:00","-4.7","","-6.1","","90","","","","31","","20","","2.4","","97.10","","","","-11","","Snow,Blowing Snow"
"-82.47","49.41","KAPUSKASING A","6073976","2019-01-15 23:00","2019","01","15","23:00","-8.3","","-10.9","","82","","","","32","","42","","1.0","","97.29","","","","-19","","Snow,Blowing Snow"
"-82.47","49.41","KAPUSKASING A","6073976","2019-01-16 00:00","2019","01","16","00:00","-13.9","","-16.6","","80","","","","33","","44","","0.4","","97.64","","","","-26","","Heavy Snow,Blowing Snow"
"-82.47","49.41","KAPUSKASING A","6073976","2019-01-16 01:00","2019","01","16","01:00","-17.6","","-20.8","","77","","","","32","","48","","1.2","","97.93","","","","-32","","Snow,Blowing Snow"
"-82.47","49.41","KAPUSKASING A","6073976","2019-01-16 02:00","2019","01","16","02:00","-19.3","","-22.6","","75","","","","32","","28","","3.2","","98.18","","","","-31","","Snow,Blowing Snow"
"-82.47","49.41","KAPUSKASING A","6073976","2019-01-16 03:00","2019","01","16","03:00","-21.4","","-25.2","","72","","","","33","","37","","3.2","","98.42","","","","-36","","Snow,Blowing Snow"
"-82.47","49.41","KAPUSKASING A","6073976","2019-01-16 04:00","2019","01","16","04:00","-23.7","","-27.4","","72","","","","31","","28","","3.2","","98.63","","","","-37","","Snow,Blowing Snow"
"-82.47","49.41","KAPUSKASING A","6073976","2019-01-16 05:00","2019","01","16","05:00","-24.8","","-28.5","","72","","","","31","","22","","6.4","","98.82","","","","-37","","Snow,Blowing Snow"
"-82.47","49.41","KAPUSKASING A","6073976","2019-01-16 06:00","2019","01","16","06:00","-26.0","","-29.9","","71","","","","30","","31","","6.4","","99.01","","","","-41","","Snow,Blowing Snow"
"-82.47","49.41","KAPUSKASING A","6073976","2019-01-16 07:00","2019","01","16","07:00","-28.2","","-31.9","","71","","","","32","","22","","9.7","","99.20","","","","-41","","Snow"
"-82.47","49.41","KAPUSKASING A","6073976","2019-01-16 08:00","2019","01","16","08:00","-29.4","","-33.2","","70","","","","32","","25","","11.3","","99.31","","","","-44","","Blowing Snow"
"-82.47","49.41","KAPUSKASING A","6073976","2019-01-16 09:00","2019","01","16","09:00","-29.5","","-33.3","","70","","","","31","","19","","24.1","","99.43","","","","-42","","Blowing Snow"
"-82.47","49.41","KAPUSKASING A","6073976","2019-01-16 10:00","2019","01","16","10:00","-28.9","","-33.0","","69","","","","30","","18","","24.1","","99.52","","","","-41","","Blowing Snow"
"-82.47","49.41","KAPUSKASING A","6073976","2019-01-16 11:00","2019","01","16","11:00","-27.9","","-32.4","","66","","","","29","","19","","24.1","","99.60","","","","-40","","Blowing Snow"
"-82.47","49.41","KAPUSKASING A","6073976","2019-01-16 12:00","2019","01","16","12:00","-26.6","","-31.4","","65","","","","30","","17","","24.1","","99.59","","","","-38","","Blowing Snow"
"-82.47","49.41","KAPUSKASING A","6073976","2019-01-16 13:00","2019","01","16","13:00","-25.0","","-29.8","","65","","","","26","","13","","24.1","","99.56","","","","-34","","Mainly Clear"
"-82.47","49.41","KAPUSKASING A","6073976","2019-01-16 14:00","2019","01","16","14:00","-23.6","","-28.6","","64","","","","27","","13","","24.1","","99.56","","","","-33","","NA"
"-82.47","49.41","KAPUSKASING A","6073976","2019-01-16 15:00","2019","01","16","15:00","-22.8","","-27.4","","66","","","","24","","14","","24.1","","99.60","","","","-32","","NA"
"-82.47","49.41","KAPUSKASING A","6073976","2019-01-16 16:00","2019","01","16","16:00","-22.3","","-26.7","","68","","","","26","","15","","24.1","","99.63","","","","-32","","Mainly Clear"
"-82.47","49.41","KAPUSKASING A","6073976","2019-01-16 17:00","2019","01","16","17:00","-23.7","","-27.4","","72","","","","25","","10","","24.1","","99.65","","","","-32","","NA"
"-82.47","49.41","KAPUSKASING A","6073976","2019-01-16 18:00","2019","01","16","18:00","-25.3","","-28.2","","77","","","","22","","10","","24.1","","99.69","","","","-34","","NA"
"-82.47","49.41","KAPUSKASING A","6073976","2019-01-16 19:00","2019","01","16","19:00","-26.1","","-28.9","","78","","","","24","","9","","24.1","","99.69","","","","-34","","Clear"
"-82.47","49.41","KAPUSKASING A","6073976","2019-01-16 20:00","2019","01","16","20:00","-25.9","","-28.8","","78","","","","22","","8","","24.1","","99.68","","","","-33","","NA"
"-82.47","49.41","KAPUSKASING A","6073976","2019-01-16 21:00","2019","01","16","21:00","-26.9","","-29.6","","78","","","","23","","8","","24.1","","99.63","","","","-34","","NA"
"-82.47","49.41","KAPUSKASING A","6073976","2019-01-16 22:00","2019","01","16","22:00","-28.5","","-31.1","","78","","","","23","","8","","24.1","","99.63","","","","-36","","Clear"
"-82.47","49.41","KAPUSKASING A","6073976","2019-01-16 23:00","2019","01","16","23:00","-29.9","","-32.5","","78","","","","22","","7","","24.1","","99.63","","","","-37","","NA"
"-82.47","49.41","KAPUSKASING A","6073976","2019-01-17 00:00","2019","01","17","00:00","-28.7","","-31.4","","78","","","","24","","7","","24.1","","99.64","","","","-36","","NA"
"-82.47","49.41","KAPUSKASING A","6073976","2019-01-17 01:00","2019","01","17","01:00","-29.7","","-32.7","","76","","","","23","","10","","24.1","","99.62","","","","-39","","Clear"
"-82.47","49.41","KAPUSKASING A","6073976","2019-01-17 02:00","2019","01","17","02:00","-31.2","","-34.3","","75","","","","26","","7","","24.1","","99.58","","","","-39","","NA"
"-82.47","49.41","KAPUSKASING A","6073976","2019-01-17 03:00","2019","01","17","03:00","-31.3","","-34.3","","76","","","","19","","5","","24.1","","99.58","","","","-37","","NA"
"-82.47","49.41","KAPUSKASING A","6073976","2019-01-17 04:00","2019","01","17","04:00","-29.6","","-32.7","","76","","","","23","","8","","24.1","","99.55","","","","-38","","Cloudy"
"-82.47","49.41","KAPUSKASING A","6073976","2019-01-17 05:00","2019","01","17","05:00","-27.6","","-30.8","","75","","","","23","","14","","24.1","","99.54","","","","-38","","NA"
"-82.47","49.41","KAPUSKASING A","6073976","2019-01-17 06:00","2019","01","17","06:00","-27.3","","-30.5","","75","","","","21","","9","","24.1","","99.46","","","","-35","","NA"
"-82.47","49.41","KAPUSKASING A","6073976","2019-01-17 07:00","2019","01","17","07:00","-27.0","","-30.1","","75","","","","24","","6","","24.1","","99.41","","","","-33","","Cloudy"
"-82.47","49.41","KAPUSKASING A","6073976","2019-01-17 08:00","2019","01","17","08:00","-25.6","","-28.6","","76","","","","22","","10","","24.1","","99.39","","","","-34","","NA"
"-82.47","49.41","KAPUSKASING A","6073976","2019-01-17 09:00","2019","01","17","09:00","-24.2","","-27.3","","76","","","","22","","12","","4.8","","99.33","","","","-33","","Snow"
"-82.47","49.41","KAPUSKASING A","6073976","2019-01-17 10:00","2019","01","17","10:00","-22.5","","-25.5","","77","","","","24","","10","","24.1","","99.31","","","","-30","","Cloudy"
"-82.47","49.41","KAPUSKASING A","6073976","2019-01-17 11:00","2019","01","17","11:00","-21.0","","-24.3","","75","","","","24","","14","","8.1","","99.28","","","","-30","","Snow"
"-82.47","49.41","KAPUSKASING A","6073976","2019-01-17 12:00","2019","01","17","12:00","-19.7","","-23.5","","72","","","","26","","13","","6.4","","99.17","","","","-28","","Snow"
"-82.47","49.41","KAPUSKASING A","6073976","2019-01-17 13:00","2019","01","17","13:00","-18.8","","-22.8","","71","","","","26","","10","","3.2","","99.09","","","","-26","","Snow"
"-82.47","49.41","KAPUSKASING A","6073976","2019-01-17 14:00","2019","01","17","14:00","-18.6","","-22.5","","72","","","","24","","8","","3.2","","99.00","","","","-25","","Snow"
"-82.47","49.41","KAPUSKASING A","6073976","2019-01-17 15:00","2019","01","17","15:00","-18.3","","-21.4","","76","","","","19","","8","","2.8","","98.93","","","","-24","","Snow"
"-82.47","49.41","KAPUSKASING A","6073976","2019-01-17 16:00","2019","01","17","16:00","-18.1","","-21.2","","77","","","","22","","8","","2.8","","98.90","","","","-24","","Snow"
"-82.47","49.41","KAPUSKASING A","6073976","2019-01-17 17:00","2019","01","17","17:00","-18.0","","-20.7","","79","","","","20","","7","","2.8","","98.85","","","","-23","","Snow"
"-82.47","49.41","KAPUSKASING A","6073976","2019-01-17 18:00","2019","01","17","18:00","-18.2","","-20.6","","82","","","","18","","6","","4.8","","98.79","","","","-23","","Snow"
"-82.47","49.41","KAPUSKASING A","6073976","2019-01-17 19:00","2019","01","17","19:00","-18.6","","-20.9","","83","","","","20","","7","","6.4","","98.75","","","","-24","","Snow"
"-82.47","49.41","KAPUSKASING A","6073976","2019-01-17 20:00","2019","01","17","20:00","-19.5","","-21.5","","85","","","","22","","5","","24.1","","98.73","","","","-24","","NA"
"-82.47","49.41","KAPUSKASING A","6073976","2019-01-17 21:00","2019","01","17","21:00","-20.6","","-22.8","","83","","","","24","","8","","24.1","","98.71","","","","-27","","NA"
"-82.47","49.41","KAPUSKASING A","6073976","2019-01-17 22:00","2019","01","17","22:00","-20.6","","-22.8","","83","","","","25","","8","","24.1","","98.68","","","","-27","","Clear"
"-82.47","49.41","KAPUSKASING A","6073976","2019-01-17 23:00","2019","01","17","23:00","-20.6","","-22.8","","83","","","","27","","12","","24.1","","98.67","","","","-29","","NA"
"-82.47","49.41","KAPUSKASING A","6073976","2019-01-18 00:00","2019","01","18","00:00","-20.4","","-22.9","","81","","","","26","","13","","24.1","","98.64","","","","-29","","NA"
"-82.47","49.41","KAPUSKASING A","6073976","2019-01-18 01:00","2019","01","18","01:00","-21.2","","-23.8","","80","","","","28","","10","","24.1","","98.59","","","","-29","","Clear"
"-82.47","49.41","KAPUSKASING A","6073976","2019-01-18 02:00","2019","01","18","02:00","-22.8","","-25.4","","80","","","","25","","10","","24.1","","98.58","","","","-31","","NA"
"-82.47","49.41","KAPUSKASING A","6073976","2019-01-18 03:00","2019","01","18","03:00","-23.7","","-26.2","","80","","","","24","","12","","24.1","","98.63","","","","-33","","NA"
"-82.47","49.41","KAPUSKASING A","6073976","2019-01-18 04:00","2019","01","18","04:00","-22.6","","-25.3","","79","","","","28","","14","","9.7","","98.65","","","","-32","","Snow"
"-82.47","49.41","KAPUSKASING A","6073976","2019-01-18 05:00","2019","01","18","05:00","-23.5","","-26.2","","78","","","","32","","23","","4.8","","98.69","","","","-36","","Snow"
"-82.47","49.41","KAPUSKASING A","6073976","2019-01-18 06:00","2019","01","18","06:00","-25.2","","-28.2","","77","","","","32","","22","","4.8","","98.78","","","","-38","","Snow"
"-82.47","49.41","KAPUSKASING A","6073976","2019-01-18 07:00","2019","01","18","07:00","-26.4","","-29.6","","75","","","","32","","28","","4.8","","98.93","","","","-41","","Snow,Blowing Snow"
"-82.47","49.41","KAPUSKASING A","6073976","2019-01-18 08:00","2019","01","18","08:00","-27.6","","-31.0","","74","","","","32","","25","","9.7","","99.07","","","","-41","","Snow,Blowing Snow"
"-82.47","49.41","KAPUSKASING A","6073976","2019-01-18 09:00","2019","01","18","09:00","-28.8","","-32.5","","71","","","","32","","23","","19.3","","99.23","","","","-42","","Snow,Blowing Snow"
"-82.47","49.41","KAPUSKASING A","6073976","2019-01-18 10:00","2019","01","18","10:00","-29.1","","-33.2","","68","","","","32","","25","","14.5","","99.36","","","","-43","","Snow,Blowing Snow"
"-82.47","49.41","KAPUSKASING A","6073976","2019-01-18 11:00","2019","01","18","11:00","-29.4","","-33.8","","67","","","","30","","20","","4.8","","99.47","","","","-42","","Snow,Blowing Snow"
"-82.47","49.41","KAPUSKASING A","6073976","2019-01-18 12:00","2019","01","18","12:00","-29.1","","-33.4","","67","","","","32","","22","","2.4","","99.54","","","","-43","","Snow,Blowing Snow"
"-82.47","49.41","KAPUSKASING A","6073976","2019-01-18 13:00","2019","01","18","13:00","-28.7","","-33.7","","63","","","","30","","23","","8.1","","99.59","","","","-42","","Snow,Blowing Snow"
"-82.47","49.41","KAPUSKASING A","6073976","2019-01-18 14:00","2019","01","18","14:00","-28.6","","-33.5","","64","","","","30","","20","","1.6","","99.65","","","","-41","","Snow,Blowing Snow"
"-82.47","49.41","KAPUSKASING A","6073976","2019-01-18 15:00","2019","01","18","15:00","-28.8","","-34.5","","59","","","","30","","21","","16.1","","99.78","","","","-42","","Snow,Blowing Snow"
"-82.47","49.41","KAPUSKASING A","6073976","2019-01-18 16:00","2019","01","18","16:00","-28.7","","-33.6","","63","","","","30","","17","","3.2","","99.90","","","","-41","","Snow,Blowing Snow"
"-82.47","49.41","KAPUSKASING A","6073976","2019-01-18 17:00","2019","01","18","17:00","-29.4","","-33.8","","66","","","","30","","15","","3.2","","99.98","","","","-41","","Snow,Blowing Snow"
"-82.47","49.41","KAPUSKASING A","6073976","2019-01-18 18:00","2019","01","18","18:00","-30.1","","-33.9","","71","","","","29","","7","","19.3","","100.08","","","","-37","","Snow"
"-82.47","49.41","KAPUSKASING A","6073976","2019-01-18 19:00","2019","01","18","19:00","-31.1","","-34.6","","72","","","","26","","7","","24.1","","100.16","","","","-39","","Clear"
"-82.47","49.41","KAPUSKASING A","6073976","2019-01-18 20:00","2019","01","18","20:00","-32.5","","-35.7","","74","","","","30","","7","","24.1","","100.19","","","","-40","","NA"
"-82.47","49.41","KAPUSKASING A","6073976","2019-01-18 21:00","2019","01","18","21:00","-35.6","","-38.7","","74","","","","23","","5","","24.1","","100.21","","","","-42","","NA"
"-82.47","49.41","KAPUSKASING A","6073976","2019-01-18 22:00","2019","01","18","22:00","-37.1","","-40.4","","72","","","","24","","8","","24.1","","100.22","","","","-46","","Clear"
"-82.47","49.41","KAPUSKASING A","6073976","2019-01-18 23:00","2019","01","18","23:00","-34.8","","-38.2","","72","","","","26","","10","","24.1","","100.28","","","","-45","","NA"
"-82.47","49.41","KAPUSKASING A","6073976","2019-01-19 00:00","2019","01","19","00:00","-35.7","","-39.0","","73","","","","24","","7","","24.1","","100.35","","","","-44","","NA"
"-82.47","49.41","KAPUSKASING A","6073976","2019-01-19 01:00","2019","01","19","01:00","-34.5","","-37.9","","72","","","","25","","7","","24.1","","100.36","","","","-43","","Clear"
"-82.47","49.41","KAPUSKASING A","6073976","2019-01-19 02:00","2019","01","19","02:00","-35.4","","-38.7","","72","","","","26","","6","","24.1","","100.36","","","","-43","","NA"
"-82.47","49.41","KAPUSKASING A","6073976","2019-01-19 03:00","2019","01","19","03:00","-36.2","","-39.6","","72","","","","22","","4","","24.1","","100.36","","","","-41","","NA"
"-82.47","49.41","KAPUSKASING A","6073976","2019-01-19 04:00","2019","01","19","04:00","-35.9","","-39.2","","72","","","","36","","3","","24.1","","100.33","","","","-40","","Clear"
"-82.47","49.41","KAPUSKASING A","6073976","2019-01-19 05:00","2019","01","19","05:00","-38.3","","-41.7","","71","","","","18","","5","","24.1","","100.31","","","","-45","","NA"
"-82.47","49.41","KAPUSKASING A","6073976","2019-01-19 06:00","2019","01","19","06:00","-37.7","","-41.2","","70","","","","24","","3","","24.1","","100.28","","","","-42","","NA"
"-82.47","49.41","KAPUSKASING A","6073976","2019-01-19 07:00","2019","01","19","07:00","-38.3","","-41.9","","70","","","","16","","5","","24.1","","100.30","","","","-45","","Clear"
"-82.47","49.41","KAPUSKASING A","6073976","2019-01-19 08:00","2019","01","19","08:00","-37.6","","-41.2","","70","","","","19","","3","","12.9","","100.29","","","","-42","","NA"
"-82.47","49.41","KAPUSKASING A","6073976","2019-01-19 09:00","2019","01","19","09:00","-38.3","","-42.0","","69","","","","18","","4","","11.3","","100.31","","","","-44","","NA"
"-82.47","49.41","KAPUSKASING A","6073976","2019-01-19 10:00","2019","01","19","10:00","-35.8","","-39.5","","70","","","","17","","3","","9.7","","100.35","","","","-40","","Ice Crystals"
"-82.47","49.41","KAPUSKASING A","6073976","2019-01-19 11:00","2019","01","19","11:00","-32.7","","-36.3","","71","","","","13","","6","","19.3","","100.33","","","","-40","","Ice Crystals"
"-82.47","49.41","KAPUSKASING A","6073976","2019-01-19 12:00","2019","01","19","12:00","-29.6","","-33.3","","71","","","","11","","8","","24.1","","100.20","","","","-38","","NA"
"-82.47","49.41","KAPUSKASING A","6073976","2019-01-19 13:00","2019","01","19","13:00","-25.6","","-30.6","","63","","","","23","","13","","24.1","","100.10","","","","-35","","Mainly Clear"
"-82.47","49.41","KAPUSKASING A","6073976","2019-01-19 14:00","2019","01","19","14:00","-24.5","","-30.0","","61","","","","16","","3","","24.1","","99.97","","","","-27","","NA"
"-82.47","49.41","KAPUSKASING A","6073976","2019-01-19 15:00","2019","01","19","15:00","-24.9","","-29.7","","65","","","","11","","9","","24.1","","99.94","","","","-33","","NA"
"-82.47","49.41","KAPUSKASING A","6073976","2019-01-19 16:00","2019","01","19","16:00","-24.8","","-29.6","","65","","","","12","","6","","24.1","","99.97","","","","-31","","Clear"
"-82.47","49.41","KAPUSKASING A","6073976","2019-01-19 17:00","2019","01","19","17:00","-24.8","","-29.1","","68","","","","12","","5","","24.1","","99.93","","","","-30","","NA"
"-82.47","49.41","KAPUSKASING A","6073976","2019-01-19 18:00","2019","01","19","18:00","-27.4","","-30.5","","76","","","","5","","3","","16.1","","99.90","","","","-31","","NA"
"-82.47","49.41","KAPUSKASING A","6073976","2019-01-19 19:00","2019","01","19","19:00","-30.6","","-33.4","","76","","","","4","","3","","16.1","","99.93","","","","-34","","Mainly Clear"
"-82.47","49.41","KAPUSKASING A","6073976","2019-01-19 20:00","2019","01","19","20:00","-32.7","","-35.8","","75","","","","12","","5","","16.1","","99.92","","","","-39","","Ice Crystals"
"-82.47","49.41","KAPUSKASING A","6073976","2019-01-19 21:00","2019","01","19","21:00","-34.8","","-38.2","","72","","","","36","","2","","8.1","","99.92","","","","-37","","Ice Crystals"
"-82.47","49.41","KAPUSKASING A","6073976","2019-01-19 22:00","2019","01","19","22:00","-35.9","","-39.4","","71","","","","33","","3","","8.1","","99.92","","","","-40","","Ice Crystals"
"-82.47","49.41","KAPUSKASING A","6073976","2019-01-19 23:00","2019","01","19","23:00","-36.9","","-40.3","","71","","","","33","","7","","16.1","","99.94","","","","-45","","Ice Crystals"
"-82.47","49.41","KAPUSKASING A","6073976","2019-01-20 00:00","2019","01","20","00:00","-37.8","","-41.4","","70","","","","35","","9","","24.1","","99.99","","","","-48","","Ice Crystals"
"-82.47","49.41","KAPUSKASING A","6073976","2019-01-20 01:00","2019","01","20","01:00","-37.5","","-41.1","","70","","","","35","","5","","4.8","","99.97","","","","-44","","Ice Crystals"
"-82.47","49.41","KAPUSKASING A","6073976","2019-01-20 02:00","2019","01","20","02:00","-38.0","","-41.6","","70","","","","33","","7","","3.2","","99.98","","","","-47","","Ice Crystals"
"-82.47","49.41","KAPUSKASING A","6073976","2019-01-20 03:00","2019","01","20","03:00","-38.0","","-41.7","","69","","","","35","","12","","24.1","","100.03","","","","-50","","NA"
"-82.47","49.41","KAPUSKASING A","6073976","2019-01-20 04:00","2019","01","20","04:00","-35.7","","-39.4","","70","","","","35","","14","","24.1","","100.07","","","","-48","","Clear"
"-82.47","49.41","KAPUSKASING A","6073976","2019-01-20 05:00","2019","01","20","05:00","-37.1","","-40.8","","69","","","","33","","12","","24.1","","100.13","","","","-49","","NA"
"-82.47","49.41","KAPUSKASING A","6073976","2019-01-20 06:00","2019","01","20","06:00","-36.6","","-40.3","","70","","","","33","","5","","24.1","","100.17","","","","-43","","NA"
"-82.47","49.41","KAPUSKASING A","6073976","2019-01-20 07:00","2019","01","20","07:00","-37.8","","-41.6","","69","","","","35","","10","","24.1","","100.20","","","","-48","","Ice Crystals"
"-82.47","49.41","KAPUSKASING A","6073976","2019-01-20 08:00","2019","01","20","08:00","-38.5","","-42.3","","68","","","","33","","13","","24.1","","100.26","","","","-51","","NA"
"-82.47","49.41","KAPUSKASING A","6073976","2019-01-20 09:00","2019","01","20","09:00","-37.2","","-40.9","","69","","","","33","","10","","24.1","","100.32","","","","-48","","NA"
"-82.47","49.41","KAPUSKASING A","6073976","2019-01-20 10:00","2019","01","20","10:00","-34.8","","-38.5","","70","","","","33","","10","","24.1","","100.39","","","","-45","","Clear"
"-82.47","49.41","KAPUSKASING A","6073976","2019-01-20 11:00","2019","01","20","11:00","-31.9","","-35.5","","71","","","","34","","10","","24.1","","100.42","","","","-41","","NA"
"-82.47","49.41","KAPUSKASING A","6073976","2019-01-20 12:00","2019","01","20","12:00","-29.7","","-33.3","","72","","","","32","","15","","24.1","","100.37","","","","-41","","NA"
"-82.47","49.41","KAPUSKASING A","6073976","2019-01-20 13:00","2019","01","20","13:00","-27.9","","-31.6","","72","","","","30","","14","","24.1","","100.33","","","","-38","","Clear"
"-82.47","49.41","KAPUSKASING A","6073976","2019-01-20 14:00","2019","01","20","14:00","-27.1","","-31.5","","67","","","","33","","16","","24.1","","100.28","","","","-38","","NA"
"-82.47","49.41","KAPUSKASING A","6073976","2019-01-20 15:00","2019","01","20","15:00","-26.3","","-31.3","","64","","","","32","","12","","24.1","","100.25","","","","-36","","NA"
"-82.47","49.41","KAPUSKASING A","6073976","2019-01-20 16:00","2019","01","20","16:00","-26.0","","-30.9","","65","","","","31","","15","","24.1","","100.25","","","","-36","","Clear"
"-82.47","49.41","KAPUSKASING A","6073976","2019-01-20 17:00","2019","01","20","17:00","-26.9","","-31.4","","67","","","","30","","8","","24.1","","100.25","","","","-34","","NA"
"-82.47","49.41","KAPUSKASING A","6073976","2019-01-20 18:00","2019","01","20","18:00","-28.2","","-31.9","","72","","","","28","","9","","24.1","","100.25","","","","-36","","NA"
"-82.47","49.41","KAPUSKASING A","6073976","2019-01-20 19:00","2019","01","20","19:00","-28.9","","-32.5","","72","","","","29","","10","","24.1","","100.25","","","","-38","","Clear"
"-82.47","49.41","KAPUSKASING A","6073976","2019-01-20 20:00","2019","01","20","20:00","-29.5","","-32.9","","73","","","","26","","5","","24.1","","100.22","","","","-35","","NA"
"-82.47","49.41","KAPUSKASING A","6073976","2019-01-20 21:00","2019","01","20","21:00","-30.3","","-33.6","","74","","","","27","","10","","24.1","","100.18","","","","-40","","NA"
"-82.47","49.41","KAPUSKASING A","6073976","2019-01-20 22:00","2019","01","20","22:00","-31.3","","-34.7","","73","","","","25","","5","","24.1","","100.15","","","","-37","","Mainly Clear"
"-82.47","49.41","KAPUSKASING A","6073976","2019-01-20 23:00","2019","01","20","23:00","-30.9","","-34.3","","72","","","","26","","7","","24.1","","100.12","","","","-38","","NA"
"-82.47","49.41","KAPUSKASING A","6073976","2019-01-21 00:00","2019","01","21","00:00","-30.9","","-34.3","","73","","","","27","","5","","24.1","","100.09","","","","-37","","NA"
"-82.47","49.41","KAPUSKASING A","6073976","2019-01-21 01:00","2019","01","21","01:00","-31.4","","-34.6","","74","","","","27","","8","","24.1","","100.07","","","","-40","","Clear"
"-82.47","49.41","KAPUSKASING A","6073976","2019-01-21 02:00","2019","01","21","02:00","-31.0","","-34.3","","74","","","","29","","9","","24.1","","100.06","","","","-40","","NA"
"-82.47","49.41","KAPUSKASING A","6073976","2019-01-21 03:00","2019","01","21","03:00","-28.8","","-32.2","","73","","","","30","","12","","24.1","","100.08","","","","-39","","NA"
"-82.47","49.41","KAPUSKASING A","6073976","2019-01-21 04:00","2019","01","21","04:00","-28.7","","-32.1","","73","","","","30","","12","","24.1","","100.10","","","","-39","","Clear"
"-82.47","49.41","KAPUSKASING A","6073976","2019-01-21 05:00","2019","01","21","05:00","-28.8","","-32.2","","73","","","","29","","14","","24.1","","100.16","","","","-40","","NA"
"-82.47","49.41","KAPUSKASING A","6073976","2019-01-21 06:00","2019","01","21","06:00","-29.3","","-32.7","","73","","","","28","","9","","24.1","","100.22","","","","-38","","NA"
"-82.47","49.41","KAPUSKASING A","6073976","2019-01-21 07:00","2019","01","21","07:00","-30.3","","-33.6","","73","","","","27","","11","","24.1","","100.25","","","","-40","","Clear"
"-82.47","49.41","KAPUSKASING A","6073976","2019-01-21 08:00","2019","01","21","08:00","-30.6","","-34.0","","73","","","","27","","9","","24.1","","100.26","","","","-39","","NA"
"-82.47","49.41","KAPUSKASING A","6073976","2019-01-21 09:00","2019","01","21","09:00","-29.8","","-33.1","","73","","","","28","","14","","24.1","","100.29","","","","-41","","NA"
"-82.47","49.41","KAPUSKASING A","6073976","2019-01-21 10:00","2019","01","21","10:00","-27.4","","-31.2","","71","","","","28","","9","","24.1","","100.34","","","","-36","","Clear"
"-82.47","49.41","KAPUSKASING A","6073976","2019-01-21 11:00","2019","01","21","11:00","-24.6","","-29.0","","67","","","","28","","10","","24.1","","100.39","","","","-33","","NA"
"-82.47","49.41","KAPUSKASING A","6073976","2019-01-21 12:00","2019","01","21","12:00","-21.4","","-26.9","","62","","","","28","","9","","24.1","","100.33","","","","-28","","NA"
"-82.47","49.41","KAPUSKASING A","6073976","2019-01-21 13:00","2019","01","21","13:00","-18.9","","-25.1","","59","","","","26","","9","","24.1","","100.29","","","","-25","","Clear"
"-82.47","49.41","KAPUSKASING A","6073976","2019-01-21 14:00","2019","01","21","14:00","-17.4","","-23.9","","58","","","","20","","6","","24.1","","100.24","","","","-22","","NA"
"-82.47","49.41","KAPUSKASING A","6073976","2019-01-21 15:00","2019","01","21","15:00","-16.8","","-22.5","","62","","","","21","","6","","24.1","","100.24","","","","-21","","NA"
"-82.47","49.41","KAPUSKASING A","6073976","2019-01-21 16:00","2019","01","21","16:00","-16.4","","-21.9","","63","","","","23","","13","","24.1","","100.25","","","","-24","","Clear"
"-82.47","49.41","KAPUSKASING A","6073976","2019-01-21 17:00","2019","01","21","17:00","-18.2","","-22.6","","69","","","","20","","14","","24.1","","100.23","","","","-27","","NA"
"-82.47","49.41","KAPUSKASING A","6073976","2019-01-21 18:00","2019","01","21","18:00","-19.1","","-22.5","","75","","","","20","","7","","24.1","","100.23","","","","-25","","NA"
"-82.47","49.41","KAPUSKASING A","6073976","2019-01-21 19:00","2019","01","21","19:00","-21.5","","-24.3","","79","","","","20","","14","","24.1","","100.19","","","","-31","","Clear"
"-82.47","49.41","KAPUSKASING A","6073976","2019-01-21 20:00","2019","01","21","20:00","-20.8","","-23.8","","77","","","","21","","13","","24.1","","100.17","","","","-29","","NA"
"-82.47","49.41","KAPUSKASING A","6073976","2019-01-21 21:00","2019","01","21","21:00","-21.0","","-24.2","","76","","","","18","","12","","24.1","","100.09","","","","-29","","NA"
"-82.47","49.41","KAPUSKASING A","6073976","2019-01-21 22:00","2019","01","21","22:00","-20.6","","-24.4","","72","","","","18","","10","","24.1","","100.04","","","","-28","","Mainly Clear"
"-82.47","49.41","KAPUSKASING A","6073976","2019-01-21 23:00","2019","01","21","23:00","-20.0","","-23.4","","75","","","","20","","15","","24.1","","99.97","","","","-29","","NA"
"-82.47","49.41","KAPUSKASING A","6073976","2019-01-22 00:00","2019","01","22","00:00","-19.8","","-22.8","","78","","","","20","","11","","24.1","","99.96","","","","-27","","NA"
"-82.47","49.41","KAPUSKASING A","6073976","2019-01-22 01:00","2019","01","22","01:00","-19.7","","-22.2","","81","","","","18","","8","","24.1","","99.95","","","","-26","","Mostly Cloudy"
"-82.47","49.41","KAPUSKASING A","6073976","2019-01-22 02:00","2019","01","22","02:00","-19.6","","-21.7","","83","","","","17","","9","","24.1","","99.90","","","","-26","","NA"
"-82.47","49.41","KAPUSKASING A","6073976","2019-01-22 03:00","2019","01","22","03:00","-18.5","","-20.5","","84","","","","17","","9","","24.1","","99.89","","","","-25","","NA"
"-82.47","49.41","KAPUSKASING A","6073976","2019-01-22 04:00","2019","01","22","04:00","-15.3","","-17.4","","84","","","","19","","14","","24.1","","99.84","","","","-23","","Mostly Cloudy"
"-82.47","49.41","KAPUSKASING A","6073976","2019-01-22 05:00","2019","01","22","05:00","-13.5","","-15.7","","84","","","","20","","16","","24.1","","99.78","","","","-21","","NA"
"-82.47","49.41","KAPUSKASING A","6073976","2019-01-22 06:00","2019","01","22","06:00","-12.7","","-14.9","","84","","","","20","","19","","19.3","","99.72","","","","-21","","Snow"
"-82.47","49.41","KAPUSKASING A","6073976","2019-01-22 07:00","2019","01","22","07:00","-13.4","","-15.5","","85","","","","19","","15","","24.1","","99.67","","","","-21","","Mostly Cloudy"
"-82.47","49.41","KAPUSKASING A","6073976","2019-01-22 08:00","2019","01","22","08:00","-12.6","","-14.7","","84","","","","21","","12","","24.1","","99.69","","","","-19","","NA"
"-82.47","49.41","KAPUSKASING A","6073976","2019-01-22 09:00","2019","01","22","09:00","-12.1","","-14.3","","83","","","","19","","13","","24.1","","99.64","","","","-19","","NA"
"-82.47","49.41","KAPUSKASING A","6073976","2019-01-22 10:00","2019","01","22","10:00","-11.4","","-14.5","","78","","","","19","","18","","24.1","","99.63","","","","-19","","Cloudy"
"-82.47","49.41","KAPUSKASING A","6073976","2019-01-22 11:00","2019","01","22","11:00","-11.5","","-16.0","","70","","","","19","","16","","24.1","","99.58","","","","-19","","NA"
"-82.47","49.41","KAPUSKASING A","6073976","2019-01-22 12:00","2019","01","22","12:00","-11.6","","-16.7","","67","","","","19","","21","","24.1","","99.44","","","","-20","","NA"
"-82.47","49.41","KAPUSKASING A","6073976","2019-01-22 13:00","2019","01","22","13:00","-11.8","","-16.2","","70","","","","19","","16","","24.1","","99.36","","","","-19","","Cloudy"
"-82.47","49.41","KAPUSKASING A","6073976","2019-01-22 14:00","2019","01","22","14:00","-11.3","","-13.5","","83","","","","18","","18","","3.2","","99.25","","","","-19","","Snow"
"-82.47","49.41","KAPUSKASING A","6073976","2019-01-22 15:00","2019","01","22","15:00","-11.3","","-13.3","","85","","","","17","","19","","2.0","","99.14","","","","-19","","Snow"
"-82.47","49.41","KAPUSKASING A","6073976","2019-01-22 16:00","2019","01","22","16:00","-11.0","","-12.7","","87","","","","15","","13","","2.8","","99.03","","","","-17","","Snow"
"-82.47","49.41","KAPUSKASING A","6073976","2019-01-22 17:00","2019","01","22","17:00","-10.7","","-12.5","","87","","","","17","","15","","2.8","","98.94","","","","-18","","Snow"
"-82.47","49.41","KAPUSKASING A","6073976","2019-01-22 18:00","2019","01","22","18:00","-10.2","","-11.8","","88","","","","18","","18","","2.0","","98.87","","","","-18","","Snow"
"-82.47","49.41","KAPUSKASING A","6073976","2019-01-22 19:00","2019","01","22","19:00","-9.6","","-11.4","","87","","","","18","","15","","4.8","","98.81","","","","-16","","Snow"
"-82.47","49.41","KAPUSKASING A","6073976","2019-01-22 20:00","2019","01","22","20:00","-9.5","","-11.2","","87","","","","17","","15","","3.2","","98.75","","","","-16","","Snow"
"-82.47","49.41","KAPUSKASING A","6073976","2019-01-22 21:00","2019","01","22","21:00","-9.8","","-11.4","","88","","","","16","","14","","4.0","","98.69","","","","-16","","Snow"
"-82.47","49.41","KAPUSKASING A","6073976","2019-01-22 22:00","2019","01","22","22:00","-10.8","","-12.2","","89","","","","18","","8","","9.7","","98.66","","","","-15","","Snow"
"-82.47","49.41","KAPUSKASING A","6073976","2019-01-22 23:00","2019","01","22","23:00","-9.9","","-11.5","","88","","","","18","","7","","9.7","","98.55","","","","-14","","Snow"
"-82.47","49.41","KAPUSKASING A","6073976","2019-01-23 00:00","2019","01","23","00:00","-10.6","","-12.1","","89","","","","15","","7","","24.1","","98.53","","","","-15","","Snow"
"-82.47","49.41","KAPUSKASING A","6073976","2019-01-23 01:00","2019","01","23","01:00","-10.1","","-11.5","","89","","","","18","","8","","24.1","","98.52","","","","-15","","Snow"
"-82.47","49.41","KAPUSKASING A","6073976","2019-01-23 02:00","2019","01","23","02:00","-10.0","","-11.5","","89","","","","20","","7","","24.1","","98.48","","","","-14","","Snow"
"-82.47","49.41","KAPUSKASING A","6073976","2019-01-23 03:00","2019","01","23","03:00","-10.4","","-11.9","","89","","","","21","","8","","24.1","","98.49","","","","-15","","Snow"
"-82.47","49.41","KAPUSKASING A","6073976","2019-01-23 04:00","2019","01","23","04:00","-10.5","","-11.9","","89","","","","23","","3","","24.1","","98.45","","","","-12","","Snow"
"-82.47","49.41","KAPUSKASING A","6073976","2019-01-23 05:00","2019","01","23","05:00","-10.4","","-11.8","","90","","","","36","","3","","24.1","","98.43","","","","-12","","Snow"
"-82.47","49.41","KAPUSKASING A","6073976","2019-01-23 06:00","2019","01","23","06:00","-11.0","","-12.2","","91","","","","16","","3","","24.1","","98.42","","","","-13","","Snow"
"-82.47","49.41","KAPUSKASING A","6073976","2019-01-23 07:00","2019","01","23","07:00","-10.7","","-12.1","","90","","","","18","","5","","24.1","","98.42","","","","-14","","Snow"
"-82.47","49.41","KAPUSKASING A","6073976","2019-01-23 08:00","2019","01","23","08:00","-10.5","","-11.9","","90","","","","36","","3","","24.1","","98.37","","","","-12","","Snow"
"-82.47","49.41","KAPUSKASING A","6073976","2019-01-23 09:00","2019","01","23","09:00","-10.5","","-11.9","","90","","","","36","","3","","24.1","","98.43","","","","-12","","Snow"
"-82.47","49.41","KAPUSKASING A","6073976","2019-01-23 10:00","2019","01","23","10:00","-10.0","","-11.4","","89","","","","1","","3","","3.2","","98.37","","","","-12","","Snow"
"-82.47","49.41","KAPUSKASING A","6073976","2019-01-23 11:00","2019","01","23","11:00","-9.5","","-11.1","","88","","","","36","","2","","3.6","","98.40","","","","-11","","Snow"
"-82.47","49.41","KAPUSKASING A","6073976","2019-01-23 12:00","2019","01","23","12:00","-8.8","","-10.7","","87","","","","36","","1","","4.8","","98.27","","","","-9","","Snow"
"-82.47","49.41","KAPUSKASING A","6073976","2019-01-23 13:00","2019","01","23","13:00","-8.2","","-10.2","","86","","","","36","","1","","9.7","","98.12","","","","-9","","Snow"
"-82.47","49.41","KAPUSKASING A","6073976","2019-01-23 14:00","2019","01","23","14:00","-6.9","","-9.1","","85","","","","3","","8","","3.2","","98.05","","","","-11","","Snow"
"-82.47","49.41","KAPUSKASING A","6073976","2019-01-23 15:00","2019","01","23","15:00","-7.0","","-8.8","","87","","","","3","","10","","2.0","","98.00","","","","-12","","Snow"
"-82.47","49.41","KAPUSKASING A","6073976","2019-01-23 16:00","2019","01","23","16:00","-7.0","","-8.7","","88","","","","2","","8","","3.2","","97.94","","","","-11","","Snow"
"-82.47","49.41","KAPUSKASING A","6073976","2019-01-23 17:00","2019","01","23","17:00","-7.6","","-9.1","","89","","","","2","","16","","3.2","","97.88","","","","-14","","Snow"
"-82.47","49.41","KAPUSKASING A","6073976","2019-01-23 18:00","2019","01","23","18:00","-8.2","","-9.7","","89","","","","2","","15","","8.1","","97.87","","","","-15","","Snow"
"-82.47","49.41","KAPUSKASING A","6073976","2019-01-23 19:00","2019","01","23","19:00","-8.7","","-10.2","","88","","","","1","","17","","9.7","","97.87","","","","-16","","Snow"
"-82.47","49.41","KAPUSKASING A","6073976","2019-01-23 20:00","2019","01","23","20:00","-9.2","","-10.9","","88","","","","36","","16","","16.1","","97.89","","","","-16","","Snow"
"-82.47","49.41","KAPUSKASING A","6073976","2019-01-23 21:00","2019","01","23","21:00","-9.8","","-11.4","","88","","","","1","","16","","16.1","","97.86","","","","-17","","Snow"
"-82.47","49.41","KAPUSKASING A","6073976","2019-01-23 22:00","2019","01","23","22:00","-10.2","","-11.9","","88","","","","1","","13","","16.1","","97.84","","","","-16","","Snow"
"-82.47","49.41","KAPUSKASING A","6073976","2019-01-23 23:00","2019","01","23","23:00","-10.7","","-12.5","","87","","","","36","","13","","6.4","","97.80","","","","-17","","Snow"
"-82.47","49.41","KAPUSKASING A","6073976","2019-01-24 00:00","2019","01","24","00:00","-11.4","","-13.2","","86","","","","35","","13","","12.9","","97.79","","","","-18","","Snow"
"-82.47","49.41","KAPUSKASING A","6073976","2019-01-24 01:00","2019","01","24","01:00","-12.4","","-14.1","","87","","","","34","","14","","12.9","","97.78","","","","-19","","Snow"
"-82.47","49.41","KAPUSKASING A","6073976","2019-01-24 02:00","2019","01","24","02:00","-12.7","","-14.4","","87","","","","34","","14","","19.3","","97.82","","","","-20","","Snow"
"-82.47","49.41","KAPUSKASING A","6073976","2019-01-24 03:00","2019","01","24","03:00","-12.8","","-14.6","","87","","","","35","","10","","12.9","","97.86","","","","-19","","Snow"
"-82.47","49.41","KAPUSKASING A","6073976","2019-01-24 04:00","2019","01","24","04:00","-12.9","","-14.8","","86","","","","35","","10","","4.8","","97.82","","","","-19","","Snow"
"-82.47","49.41","KAPUSKASING A","6073976","2019-01-24 05:00","2019","01","24","05:00","-12.9","","-14.9","","86","","","","35","","10","","4.8","","97.87","","","","-19","","Snow"
"-82.47","49.41","KAPUSKASING A","6073976","2019-01-24 06:00","2019","01","24","06:00","-13.1","","-15.0","","86","","","","34","","13","","4.8","","97.89","","","","-20","","Snow"
"-82.47","49.41","KAPUSKASING A","6073976","2019-01-24 07:00","2019","01","24","07:00","-13.3","","-15.3","","85","","","","36","","13","","4.8","","97.89","","","","-20","","Snow"
"-82.47","49.41","KAPUSKASING A","6073976","2019-01-24 08:00","2019","01","24","08:00","-13.5","","-15.5","","85","","","","36","","9","","4.8","","97.95","","","","-19","","Snow"
"-82.47","49.41","KAPUSKASING A","6073976","2019-01-24 09:00","2019","01","24","09:00","-13.7","","-15.7","","85","","","","35","","14","","6.4","","98.00","","","","-21","","Snow"
"-82.47","49.41","KAPUSKASING A","6073976","2019-01-24 10:00","2019","01","24","10:00","-13.5","","-15.9","","82","","","","36","","11","","4.8","","98.02","","","","-20","","Snow"
"-82.47","49.41","KAPUSKASING A","6073976","2019-01-24 11:00","2019","01","24","11:00","-13.7","","-16.5","","79","","","","34","","17","","4.8","","98.07","","","","-22","","Snow"
"-82.47","49.41","KAPUSKASING A","6073976","2019-01-24 12:00","2019","01","24","12:00","-13.6","","-16.9","","77","","","","35","","17","","4.8","","98.07","","","","-22","","Snow"
"-82.47","49.41","KAPUSKASING A","6073976","2019-01-24 13:00","2019","01","24","13:00","-13.8","","-17.2","","75","","","","33","","17","","6.4","","98.05","","","","-22","","Snow"
"-82.47","49.41","KAPUSKASING A","6073976","2019-01-24 14:00","2019","01","24","14:00","-14.0","","-17.4","","76","","","","36","","18","","4.0","","98.01","","","","-22","","Snow"
"-82.47","49.41","KAPUSKASING A","6073976","2019-01-24 15:00","2019","01","24","15:00","-14.8","","-18.8","","72","","","","34","","23","","4.0","","98.05","","","","-25","","Snow"
"-82.47","49.41","KAPUSKASING A","6073976","2019-01-24 16:00","2019","01","24","16:00","-15.6","","-19.3","","74","","","","36","","15","","4.0","","98.09","","","","-24","","Snow"
"-82.47","49.41","KAPUSKASING A","6073976","2019-01-24 17:00","2019","01","24","17:00","-16.9","","-19.9","","77","","","","34","","16","","2.8","","98.15","","","","-26","","Snow"
"-82.47","49.41","KAPUSKASING A","6073976","2019-01-24 18:00","2019","01","24","18:00","-18.2","","-21.5","","76","","","","35","","17","","3.2","","98.21","","","","-27","","Snow,Blowing Snow"
"-82.47","49.41","KAPUSKASING A","6073976","2019-01-24 19:00","2019","01","24","19:00","-19.9","","-23.1","","76","","","","34","","22","","4.8","","98.27","","","","-31","","Snow,Blowing Snow"
"-82.47","49.41","KAPUSKASING A","6073976","2019-01-24 20:00","2019","01","24","20:00","-21.1","","-24.4","","75","","","","33","","21","","9.7","","98.31","","","","-32","","Snow,Blowing Snow"
"-82.47","49.41","KAPUSKASING A","6073976","2019-01-24 21:00","2019","01","24","21:00","-22.1","","-25.7","","73","","","","34","","23","","3.2","","98.35","","","","-34","","Snow,Blowing Snow"
"-82.47","49.41","KAPUSKASING A","6073976","2019-01-24 22:00","2019","01","24","22:00","-23.0","","-26.6","","73","","","","35","","21","","9.7","","98.37","","","","-35","","Snow,Blowing Snow"
"-82.47","49.41","KAPUSKASING A","6073976","2019-01-24 23:00","2019","01","24","23:00","-23.7","","-27.7","","70","","","","35","","19","","9.7","","98.38","","","","-35","","Snow,Blowing Snow"
"-82.47","49.41","KAPUSKASING A","6073976","2019-01-25 00:00","2019","01","25","00:00","-24.4","","-28.1","","72","","","","35","","17","","9.7","","98.40","","","","-35","","Snow,Blowing Snow"
"-82.47","49.41","KAPUSKASING A","6073976","2019-01-25 01:00","2019","01","25","01:00","-25.3","","-29.2","","70","","","","34","","20","","4.8","","98.43","","","","-37","","Snow,Blowing Snow"
"-82.47","49.41","KAPUSKASING A","6073976","2019-01-25 02:00","2019","01","25","02:00","-26.4","","-30.5","","69","","","","35","","20","","9.7","","98.42","","","","-39","","Snow,Blowing Snow"
"-82.47","49.41","KAPUSKASING A","6073976","2019-01-25 03:00","2019","01","25","03:00","-27.6","","-31.4","","71","","","","33","","20","","9.7","","98.46","","","","-40","","Snow,Blowing Snow"
"-82.47","49.41","KAPUSKASING A","6073976","2019-01-25 04:00","2019","01","25","04:00","-28.8","","-32.2","","73","","","","33","","12","","11.3","","98.47","","","","-39","","Snow"
"-82.47","49.41","KAPUSKASING A","6073976","2019-01-25 05:00","2019","01","25","05:00","-29.7","","-33.2","","73","","","","31","","8","","9.7","","98.51","","","","-38","","Snow"
"-82.47","49.41","KAPUSKASING A","6073976","2019-01-25 06:00","2019","01","25","06:00","-30.4","","-33.8","","73","","","","32","","19","","9.7","","98.54","","","","-43","","Snow"
"-82.47","49.41","KAPUSKASING A","6073976","2019-01-25 07:00","2019","01","25","07:00","-31.7","","-35.0","","73","","","","32","","16","","16.1","","98.61","","","","-44","","Snow"
"-82.47","49.41","KAPUSKASING A","6073976","2019-01-25 08:00","2019","01","25","08:00","-33.0","","-36.3","","73","","","","32","","14","","24.1","","98.68","","","","-45","","Snow"
"-82.47","49.41","KAPUSKASING A","6073976","2019-01-25 09:00","2019","01","25","09:00","-33.5","","-36.9","","73","","","","31","","10","","24.1","","98.72","","","","-43","","NA"
"-82.47","49.41","KAPUSKASING A","6073976","2019-01-25 10:00","2019","01","25","10:00","-32.6","","-36.3","","71","","","","29","","14","","24.1","","98.75","","","","-44","","Mostly Cloudy"
"-82.47","49.41","KAPUSKASING A","6073976","2019-01-25 11:00","2019","01","25","11:00","-31.3","","-35.5","","67","","","","32","","15","","24.1","","98.78","","","","-43","","NA"
"-82.47","49.41","KAPUSKASING A","6073976","2019-01-25 12:00","2019","01","25","12:00","-30.1","","-34.7","","65","","","","32","","15","","24.1","","98.79","","","","-42","","NA"
"-82.47","49.41","KAPUSKASING A","6073976","2019-01-25 13:00","2019","01","25","13:00","-28.9","","-34.1","","62","","","","32","","14","","24.1","","98.77","","","","-40","","Cloudy"
"-82.47","49.41","KAPUSKASING A","6073976","2019-01-25 14:00","2019","01","25","14:00","-27.6","","-33.1","","61","","","","32","","18","","6.4","","98.78","","","","-39","","Snow"
"-82.47","49.41","KAPUSKASING A","6073976","2019-01-25 15:00","2019","01","25","15:00","-27.1","","-32.4","","62","","","","31","","15","","6.4","","98.81","","","","-38","","Snow"
"-82.47","49.41","KAPUSKASING A","6073976","2019-01-25 16:00","2019","01","25","16:00","-27.4","","-32.7","","62","","","","29","","14","","8.1","","98.83","","","","-38","","Snow"
"-82.47","49.41","KAPUSKASING A","6073976","2019-01-25 17:00","2019","01","25","17:00","-28.0","","-32.7","","65","","","","29","","11","","6.4","","98.90","","","","-37","","Ice Crystals"
"-82.47","49.41","KAPUSKASING A","6073976","2019-01-25 18:00","2019","01","25","18:00","-29.2","","-33.3","","68","","","","28","","8","","24.1","","98.96","","","","-37","","Ice Crystals"
"-82.47","49.41","KAPUSKASING A","6073976","2019-01-25 19:00","2019","01","25","19:00","-30.1","","-33.8","","71","","","","29","","8","","16.1","","99.01","","","","-38","","Ice Crystals"
"-82.47","49.41","KAPUSKASING A","6073976","2019-01-25 20:00","2019","01","25","20:00","-32.6","","-35.9","","73","","","","27","","7","","24.1","","99.04","","","","-40","","NA"
"-82.47","49.41","KAPUSKASING A","6073976","2019-01-25 21:00","2019","01","25","21:00","-31.7","","-35.0","","74","","","","25","","9","","16.1","","99.05","","","","-41","","Ice Crystals"
"-82.47","49.41","KAPUSKASING A","6073976","2019-01-25 22:00","2019","01","25","22:00","-32.8","","-36.0","","74","","","","24","","9","","24.1","","99.04","","","","-42","","Clear"
"-82.47","49.41","KAPUSKASING A","6073976","2019-01-25 23:00","2019","01","25","23:00","-33.3","","-36.5","","73","","","","26","","9","","24.1","","99.01","","","","-43","","NA"
"-82.47","49.41","KAPUSKASING A","6073976","2019-01-26 00:00","2019","01","26","00:00","-33.6","","-37.0","","73","","","","24","","12","","24.1","","99.02","","","","-45","","NA"
"-82.47","49.41","KAPUSKASING A","6073976","2019-01-26 01:00","2019","01","26","01:00","-35.1","","-38.2","","74","","","","22","","7","","24.1","","99.00","","","","-43","","Clear"
"-82.47","49.41","KAPUSKASING A","6073976","2019-01-26 02:00","2019","01","26","02:00","-35.5","","-38.7","","73","","","","22","","5","","24.1","","99.02","","","","-42","","NA"
"-82.47","49.41","KAPUSKASING A","6073976","2019-01-26 03:00","2019","01","26","03:00","-36.1","","-39.3","","73","","","","22","","5","","24.1","","99.04","","","","-43","","NA"
"-82.47","49.41","KAPUSKASING A","6073976","2019-01-26 04:00","2019","01","26","04:00","-35.9","","-39.1","","73","","","","22","","8","","24.1","","99.02","","","","-45","","Clear"
"-82.47","49.41","KAPUSKASING A","6073976","2019-01-26 05:00","2019","01","26","05:00"
"-82.47","49.41","KAPUSKASING A","6073976","2019-01-26 06:00","2019","01","26","06:00","-36.2","","-39.7","","71","","","","20","","10","","24.1","","98.99","","","","-47","","NA"
"-82.47","49.41","KAPUSKASING A","6073976","2019-01-26 07:00","2019","01","26","07:00","-36.1","","-39.7","","71","","","","19","","11","","24.1","","98.96","","","","-47","","Clear"
"-82.47","49.41","KAPUSKASING A","6073976","2019-01-26 08:00","2019","01","26","08:00","-36.2","","-39.7","","71","","","","19","","8","","24.1","","98.93","","","","-45","","NA"
"-82.47","49.41","KAPUSKASING A","6073976","2019-01-26 09:00","2019","01","26","09:00","-34.9","","-38.5","","70","","","","19","","10","","24.1","","98.93","","","","-45","","NA"
"-82.47","49.41","KAPUSKASING A","6073976","2019-01-26 10:00","2019","01","26","10:00","-31.9","","-35.6","","70","","","","19","","14","","24.1","","98.88","","","","-43","","Mostly Cloudy"
"-82.47","49.41","KAPUSKASING A","6073976","2019-01-26 11:00","2019","01","26","11:00","-28.9","","-32.8","","70","","","","20","","17","","24.1","","98.85","","","","-41","","NA"
"-82.47","49.41","KAPUSKASING A","6073976","2019-01-26 12:00","2019","01","26","12:00","-25.9","","-30.0","","69","","","","19","","19","","4.8","","98.79","","","","-38","","Snow"
"-82.47","49.41","KAPUSKASING A","6073976","2019-01-26 13:00","2019","01","26","13:00","-23.4","","-28.1","","66","","","","21","","17","","4.8","","98.71","","","","-34","","Snow"
"-82.47","49.41","KAPUSKASING A","6073976","2019-01-26 14:00","2019","01","26","14:00","-22.6","","-27.2","","67","","","","17","","15","","6.4","","98.60","","","","-32","","Snow"
"-82.47","49.41","KAPUSKASING A","6073976","2019-01-26 15:00","2019","01","26","15:00","-21.8","","-25.7","","71","","","","14","","18","","2.4","","98.49","","","","-32","","Snow"
"-82.47","49.41","KAPUSKASING A","6073976","2019-01-26 16:00","2019","01","26","16:00","-21.5","","-25.4","","72","","","","16","","20","","4.0","","98.44","","","","-32","","Snow"
"-82.47","49.41","KAPUSKASING A","6073976","2019-01-26 17:00","2019","01","26","17:00","-21.5","","-24.9","","74","","","","16","","13","","4.0","","98.40","","","","-30","","Snow"
"-82.47","49.41","KAPUSKASING A","6073976","2019-01-26 18:00","2019","01","26","18:00","-21.5","","-24.4","","78","","","","11","","9","","3.6","","98.37","","","","-29","","Snow"
"-82.47","49.41","KAPUSKASING A","6073976","2019-01-26 19:00","2019","01","26","19:00","-21.3","","-24.1","","79","","","","12","","10","","3.6","","98.34","","","","-29","","Snow"
"-82.47","49.41","KAPUSKASING A","6073976","2019-01-26 20:00","2019","01","26","20:00","-21.1","","-23.8","","79","","","","8","","7","","2.8","","98.32","","","","-27","","Snow"
"-82.47","49.41","KAPUSKASING A","6073976","2019-01-26 21:00","2019","01","26","21:00","-21.7","","-24.5","","79","","","","35","","13","","3.2","","98.30","","","","-30","","Snow"
"-82.47","49.41","KAPUSKASING A","6073976","2019-01-26 22:00","2019","01","26","22:00","-22.4","","-25.6","","75","","","","34","","19","","2.4","","98.30","","","","-33","","Snow,Blowing Snow"
"-82.47","49.41","KAPUSKASING A","6073976","2019-01-26 23:00","2019","01","26","23:00","-25.8","","-29.5","","72","","","","33","","30","","4.8","","98.33","","","","-40","","Snow,Blowing Snow"
"-82.47","49.41","KAPUSKASING A","6073976","2019-01-27 00:00","2019","01","27","00:00","-27.3","","-31.2","","70","","","","34","","26","","4.8","","98.37","","","","-41","","Snow,Blowing Snow"
"-82.47","49.41","KAPUSKASING A","6073976","2019-01-27 01:00","2019","01","27","01:00","-28.1","","-32.1","","70","","","","34","","26","","3.2","","98.39","","","","-42","","Snow,Blowing Snow"
"-82.47","49.41","KAPUSKASING A","6073976","2019-01-27 02:00","2019","01","27","02:00","-29.0","","-32.9","","70","","","","34","","18","","4.8","","98.38","","","","-41","","Snow,Blowing Snow"
"-82.47","49.41","KAPUSKASING A","6073976","2019-01-27 03:00","2019","01","27","03:00","-30.0","","-33.8","","70","","","","33","","20","","9.7","","98.37","","","","-43","","Snow,Blowing Snow"
"-82.47","49.41","KAPUSKASING A","6073976","2019-01-27 04:00","2019","01","27","04:00","-30.1","","-34.0","","69","","","","34","","21","","4.8","","98.35","","","","-44","","Snow,Blowing Snow"
"-82.47","49.41","KAPUSKASING A","6073976","2019-01-27 05:00","2019","01","27","05:00","-31.1","","-35.0","","69","","","","32","","21","","4.8","","98.37","","","","-45","","Snow,Blowing Snow"
"-82.47","49.41","KAPUSKASING A","6073976","2019-01-27 06:00","2019","01","27","06:00","-32.7","","-36.5","","69","","","","32","","23","","4.8","","98.39","","","","-47","","Snow,Blowing Snow"
"-82.47","49.41","KAPUSKASING A","6073976","2019-01-27 07:00","2019","01","27","07:00","-34.1","","-38.1","","69","","","","31","","19","","4.8","","98.45","","","","-48","","Ice Crystals,Blowing Snow"
"-82.47","49.41","KAPUSKASING A","6073976","2019-01-27 08:00","2019","01","27","08:00","-35.2","","-39.0","","69","","","","31","","19","","12.9","","98.47","","","","-49","","Ice Crystals,Blowing Snow"
"-82.47","49.41","KAPUSKASING A","6073976","2019-01-27 09:00","2019","01","27","09:00","-35.6","","-39.5","","68","","","","30","","18","","19.3","","98.50","","","","-49","","Ice Crystals,Blowing Snow"
"-82.47","49.41","KAPUSKASING A","6073976","2019-01-27 10:00","2019","01","27","10:00","-34.2","","-38.5","","66","","","","31","","22","","19.3","","98.49","","","","-49","","Ice Crystals,Blowing Snow"
"-82.47","49.41","KAPUSKASING A","6073976","2019-01-27 11:00","2019","01","27","11:00","-32.4","","-37.1","","64","","","","31","","23","","24.1","","98.53","","","","-47","","Blowing Snow"
"-82.47","49.41","KAPUSKASING A","6073976","2019-01-27 12:00","2019","01","27","12:00","-31.1","","-36.1","","62","","","","30","","23","","8.1","","98.51","","","","-45","","Snow,Blowing Snow"
"-82.47","49.41","KAPUSKASING A","6073976","2019-01-27 13:00","2019","01","27","13:00","-29.9","","-35.3","","60","","","","30","","23","","3.2","","98.49","","","","-44","","Snow,Blowing Snow"
"-82.47","49.41","KAPUSKASING A","6073976","2019-01-27 14:00","2019","01","27","14:00","-29.8","","-35.1","","61","","","","31","","25","","4.0","","98.51","","","","-44","","Snow,Blowing Snow"
"-82.47","49.41","KAPUSKASING A","6073976","2019-01-27 15:00","2019","01","27","15:00","-29.4","","-34.9","","60","","","","29","","26","","6.4","","98.58","","","","-44","","Snow,Blowing Snow"
"-82.47","49.41","KAPUSKASING A","6073976","2019-01-27 16:00","2019","01","27","16:00","-30.2","","-35.1","","63","","","","29","","22","","4.0","","98.66","","","","-44","","Snow,Blowing Snow"
"-82.47","49.41","KAPUSKASING A","6073976","2019-01-27 17:00","2019","01","27","17:00","-31.0","","-35.7","","64","","","","28","","18","","12.9","","98.77","","","","-44","","Snow,Blowing Snow"
"-82.47","49.41","KAPUSKASING A","6073976","2019-01-27 18:00","2019","01","27","18:00","-31.6","","-35.9","","66","","","","29","","18","","16.1","","98.85","","","","-44","","Snow,Blowing Snow"
"-82.47","49.41","KAPUSKASING A","6073976","2019-01-27 19:00","2019","01","27","19:00","-31.8","","-36.0","","67","","","","29","","16","","16.1","","98.95","","","","-44","","Snow,Blowing Snow"
"-82.47","49.41","KAPUSKASING A","6073976","2019-01-27 20:00","2019","01","27","20:00","-32.3","","-36.7","","66","","","","29","","17","","16.1","","99.00","","","","-45","","Snow,Blowing Snow"
"-82.47","49.41","KAPUSKASING A","6073976","2019-01-27 21:00","2019","01","27","21:00","-33.0","","-37.1","","68","","","","29","","16","","24.1","","99.07","","","","-45","","Blowing Snow"
"-82.47","49.41","KAPUSKASING A","6073976","2019-01-27 22:00","2019","01","27","22:00","-33.6","","-37.7","","68","","","","29","","14","","16.1","","99.10","","","","-45","","Ice Crystals,Blowing Snow"
"-82.47","49.41","KAPUSKASING A","6073976","2019-01-27 23:00","2019","01","27","23:00","-34.0","","-37.9","","68","","","","29","","15","","24.1","","99.14","","","","-46","","Blowing Snow"
"-82.47","49.41","KAPUSKASING A","6073976","2019-01-28 00:00","2019","01","28","00:00","-34.6","","-38.5","","68","","","","27","","14","","24.1","","99.16","","","","-47","","Ice Crystals"
"-82.47","49.41","KAPUSKASING A","6073976","2019-01-28 01:00","2019","01","28","01:00","-34.7","","-38.7","","68","","","","28","","13","","24.1","","99.20","","","","-46","","Clear"
"-82.47","49.41","KAPUSKASING A","6073976","2019-01-28 02:00","2019","01","28","02:00","-35.0","","-39.1","","67","","","","28","","15","","24.1","","99.26","","","","-48","","NA"
"-82.47","49.41","KAPUSKASING A","6073976","2019-01-28 03:00","2019","01","28","03:00","-35.1","","-39.3","","67","","","","28","","13","","24.1","","99.32","","","","-47","","NA"
"-82.47","49.41","KAPUSKASING A","6073976","2019-01-28 04:00","2019","01","28","04:00","-35.5","","-39.6","","67","","","","28","","10","","24.1","","99.37","","","","-46","","Clear"
"-82.47","49.41","KAPUSKASING A","6073976","2019-01-28 05:00","2019","01","28","05:00","-35.6","","-39.6","","68","","","","29","","13","","24.1","","99.39","","","","-47","","NA"
"-82.47","49.41","KAPUSKASING A","6073976","2019-01-28 06:00","2019","01","28","06:00","-36.1","","-40.0","","68","","","","28","","8","","24.1","","99.47","","","","-45","","NA"
"-82.47","49.41","KAPUSKASING A","6073976","2019-01-28 07:00","2019","01","28","07:00","-36.6","","-40.5","","69","","","","28","","8","","24.1","","99.55","","","","-46","","Mainly Clear"
"-82.47","49.41","KAPUSKASING A","6073976","2019-01-28 08:00","2019","01","28","08:00","-37.6","","-41.3","","69","","","","31","","8","","24.1","","99.56","","","","-47","","NA"
"-82.47","49.41","KAPUSKASING A","6073976","2019-01-28 09:00","2019","01","28","09:00","-36.4","","-40.3","","68","","","","32","","9","","24.1","","99.58","","","","-46","","NA"
"-82.47","49.41","KAPUSKASING A","6073976","2019-01-28 10:00","2019","01","28","10:00","-33.6","","-38.3","","64","","","","27","","8","","24.1","","99.59","","","","-42","","Clear"
"-82.47","49.41","KAPUSKASING A","6073976","2019-01-28 11:00","2019","01","28","11:00","-31.1","","-37.1","","57","","","","32","","9","","24.1","","99.59","","","","-40","","NA"
"-82.47","49.41","KAPUSKASING A","6073976","2019-01-28 12:00","2019","01","28","12:00","-29.0","","-35.6","","54","","","","33","","6","","24.1","","99.56","","","","-35","","NA"
"-82.47","49.41","KAPUSKASING A","6073976","2019-01-28 13:00","2019","01","28","13:00","-26.4","","-33.0","","55","","","","5","","7","","24.1","","99.45","","","","-33","","Mainly Clear"
"-82.47","49.41","KAPUSKASING A","6073976","2019-01-28 14:00","2019","01","28","14:00","-26.3","","-32.3","","58","","","","17","","8","","24.1","","99.42","","","","-34","","NA"
"-82.47","49.41","KAPUSKASING A","6073976","2019-01-28 15:00","2019","01","28","15:00","-25.4","","-31.2","","59","","","","16","","5","","24.1","","99.41","","","","-30","","NA"
"-82.47","49.41","KAPUSKASING A","6073976","2019-01-28 16:00","2019","01","28","16:00","-25.3","","-31.2","","59","","","","36","","2","","24.1","","99.30","","","","-27","","Mostly Cloudy"
"-82.47","49.41","KAPUSKASING A","6073976","2019-01-28 17:00","2019","01","28","17:00","-25.4","","-30.7","","62","","","","14","","5","","24.1","","99.30","","","","-30","","NA"
"-82.47","49.41","KAPUSKASING A","6073976","2019-01-28 18:00","2019","01","28","18:00","-25.8","","-30.1","","68","","","","3","","7","","24.1","","99.27","","","","-32","","NA"
"-82.47","49.41","KAPUSKASING A","6073976","2019-01-28 19:00","2019","01","28","19:00","-26.1","","-30.0","","70","","","","6","","9","","24.1","","99.23","","","","-34","","Cloudy"
"-82.47","49.41","KAPUSKASING A","6073976","2019-01-28 20:00","2019","01","28","20:00","-26.2","","-30.1","","71","","","","9","","8","","24.1","","99.20","","","","-34","","NA"
"-82.47","49.41","KAPUSKASING A","6073976","2019-01-28 21:00","2019","01","28","21:00","-26.4","","-30.1","","72","","","","7","","8","","24.1","","99.17","","","","-34","","NA"
"-82.47","49.41","KAPUSKASING A","6073976","2019-01-28 22:00","2019","01","28","22:00","-26.2","","-29.9","","72","","","","2","","6","","24.1","","99.12","","","","-32","","Cloudy"
"-82.47","49.41","KAPUSKASING A","6073976","2019-01-28 23:00","2019","01","28","23:00","-26.1","","-29.7","","73","","","","5","","13","","24.1","","98.98","","","","-36","","NA"
"-82.47","49.41","KAPUSKASING A","6073976","2019-01-29 00:00","2019","01","29","00:00","-25.6","","-29.2","","73","","","","5","","13","","24.1","","98.86","","","","-35","","NA"
"-82.47","49.41","KAPUSKASING A","6073976","2019-01-29 01:00","2019","01","29","01:00","-25.4","","-29.0","","73","","","","4","","14","","24.1","","98.72","","","","-35","","Cloudy"
"-82.47","49.41","KAPUSKASING A","6073976","2019-01-29 02:00","2019","01","29","02:00","-25.4","","-28.8","","74","","","","5","","15","","4.8","","98.57","","","","-36","","Snow"
"-82.47","49.41","KAPUSKASING A","6073976","2019-01-29 03:00","2019","01","29","03:00","-25.1","","-28.6","","73","","","","5","","13","","4.8","","98.47","","","","-35","","Snow"
"-82.47","49.41","KAPUSKASING A","6073976","2019-01-29 04:00","2019","01","29","04:00","-24.8","","-28.4","","73","","","","5","","17","","3.2","","98.32","","","","-36","","Snow"
"-82.47","49.41","KAPUSKASING A","6073976","2019-01-29 05:00","2019","01","29","05:00","-24.8","","-28.4","","72","","","","5","","15","","4.8","","98.23","","","","-35","","Snow"
"-82.47","49.41","KAPUSKASING A","6073976","2019-01-29 06:00","2019","01","29","06:00","-24.9","","-28.5","","73","","","","4","","15","","3.2","","98.09","","","","-35","","Snow,Blowing Snow"
"-82.47","49.41","KAPUSKASING A","6073976","2019-01-29 07:00","2019","01","29","07:00","-25.0","","-28.6","","72","","","","3","","16","","4.8","","98.00","","","","-36","","Snow,Blowing Snow"
"-82.47","49.41","KAPUSKASING A","6073976","2019-01-29 08:00","2019","01","29","08:00","-25.0","","-28.6","","73","","","","5","","13","","1.6","","97.93","","","","-34","","Snow,Blowing Snow"
"-82.47","49.41","KAPUSKASING A","6073976","2019-01-29 09:00","2019","01","29","09:00","-25.1","","-28.6","","73","","","","36","","11","","2.0","","97.87","","","","-34","","Snow,Blowing Snow"
"-82.47","49.41","KAPUSKASING A","6073976","2019-01-29 10:00","2019","01","29","10:00","-24.8","","-28.6","","72","","","","4","","11","","1.6","","97.79","","","","-33","","Snow,Blowing Snow"
"-82.47","49.41","KAPUSKASING A","6073976","2019-01-29 11:00","2019","01","29","11:00","-24.4","","-28.7","","68","","","","4","","16","","2.0","","97.74","","","","-35","","Snow,Blowing Snow"
"-82.47","49.41","KAPUSKASING A","6073976","2019-01-29 12:00","2019","01","29","12:00","-23.8","","-28.5","","66","","","","5","","9","","2.0","","97.67","","","","-31","","Snow,Blowing Snow"
"-82.47","49.41","KAPUSKASING A","6073976","2019-01-29 13:00","2019","01","29","13:00","-24.0","","-28.3","","69","","","","33","","13","","2.0","","97.59","","","","-33","","Snow,Blowing Snow"
"-82.47","49.41","KAPUSKASING A","6073976","2019-01-29 14:00","2019","01","29","14:00","-23.2","","-28.4","","64","","","","31","","10","","3.2","","97.57","","","","-31","","Snow,Blowing Snow"
"-82.47","49.41","KAPUSKASING A","6073976","2019-01-29 15:00","2019","01","29","15:00","-22.9","","-28.4","","62","","","","32","","8","","6.4","","97.58","","","","-30","","Snow"
"-82.47","49.41","KAPUSKASING A","6073976","2019-01-29 16:00","2019","01","29","16:00","-23.0","","-28.3","","62","","","","30","","7","","9.7","","97.62","","","","-29","","Ice Crystals"
"-82.47","49.41","KAPUSKASING A","6073976","2019-01-29 17:00","2019","01","29","17:00","-24.5","","-29.2","","65","","","","31","","9","","12.9","","97.65","","","","-32","","Ice Crystals"
"-82.47","49.41","KAPUSKASING A","6073976","2019-01-29 18:00","2019","01","29","18:00","-25.5","","-29.1","","73","","","","33","","5","","24.1","","97.68","","","","-31","","NA"
"-82.47","49.41","KAPUSKASING A","6073976","2019-01-29 19:00","2019","01","29","19:00","-28.4","","-31.2","","77","","","","34","","7","","24.1","","97.70","","","","-35","","Clear"
"-82.47","49.41","KAPUSKASING A","6073976","2019-01-29 20:00","2019","01","29","20:00","-30.5","","-33.5","","76","","","","32","","6","","19.3","","97.71","","","","-37","","Ice Crystals"
"-82.47","49.41","KAPUSKASING A","6073976","2019-01-29 21:00","2019","01","29","21:00","-29.9","","-32.9","","76","","","","36","","2","","14.5","","97.70","","","","-32","","Ice Crystals"
"-82.47","49.41","KAPUSKASING A","6073976","2019-01-29 22:00","2019","01","29","22:00","-32.3","","-35.5","","74","","","","36","","2","","16.1","","97.70","","","","-35","","Ice Crystals"
"-82.47","49.41","KAPUSKASING A","6073976","2019-01-29 23:00","2019","01","29","23:00","-33.4","","-36.5","","74","","","","36","","1","","14.5","","97.63","","","","-35","","Ice Crystals"
"-82.47","49.41","KAPUSKASING A","6073976","2019-01-30 00:00","2019","01","30","00:00","-34.4","","-37.7","","73","","","","36","","3","","12.9","","97.60","","","","-38","","Ice Crystals"
"-82.47","49.41","KAPUSKASING A","6073976","2019-01-30 01:00","2019","01","30","01:00","-36.0","","-39.4","","72","","","","17","","5","","12.9","","97.64","","","","-42","","Ice Crystals"
"-82.47","49.41","KAPUSKASING A","6073976","2019-01-30 02:00","2019","01","30","02:00","-35.7","","-39.1","","72","","","","36","","1","","14.5","","97.63","","","","-37","","Ice Crystals"
"-82.47","49.41","KAPUSKASING A","6073976","2019-01-30 03:00","2019","01","30","03:00","-36.7","","-40.2","","71","","","","35","","3","","14.5","","97.59","","","","-41","","Ice Crystals"
"-82.47","49.41","KAPUSKASING A","6073976","2019-01-30 04:00","2019","01","30","04:00","-38.2","","-41.8","","70","","","","32","","5","","11.3","","97.53","","","","-45","","Ice Crystals"
"-82.47","49.41","KAPUSKASING A","6073976","2019-01-30 05:00","2019","01","30","05:00","-37.9","","-41.4","","70","","","","36","","2","","16.1","","97.55","","","","-41","","Ice Crystals"
"-82.47","49.41","KAPUSKASING A","6073976","2019-01-30 06:00","2019","01","30","06:00","-38.2","","-42.0","","69","","","","36","","2","","19.3","","97.55","","","","-41","","Ice Crystals"
"-82.47","49.41","KAPUSKASING A","6073976","2019-01-30 07:00","2019","01","30","07:00","-35.7","","-39.2","","70","","","","30","","8","","12.9","","97.55","","","","-45","","Snow"
"-82.47","49.41","KAPUSKASING A","6073976","2019-01-30 08:00","2019","01","30","08:00","-34.1","","-37.5","","72","","","","31","","12","","24.1","","97.54","","","","-45","","NA"
"-82.47","49.41","KAPUSKASING A","6073976","2019-01-30 09:00","2019","01","30","09:00","-33.2","","-36.7","","72","","","","31","","11","","9.7","","97.60","","","","-44","","Snow"
"-82.47","49.41","KAPUSKASING A","6073976","2019-01-30 10:00","2019","01","30","10:00","-30.7","","-34.1","","73","","","","31","","13","","16.1","","97.57","","","","-41","","Mostly Cloudy"
"-82.47","49.41","KAPUSKASING A","6073976","2019-01-30 11:00","2019","01","30","11:00","-26.9","","-30.3","","74","","","","31","","19","","16.1","","97.60","","","","-39","","NA"
"-82.47","49.41","KAPUSKASING A","6073976","2019-01-30 12:00","2019","01","30","12:00","-25.0","","-28.9","","71","","","","33","","21","","16.1","","97.63","","","","-37","","NA"
"-82.47","49.41","KAPUSKASING A","6073976","2019-01-30 13:00","2019","01","30","13:00","-23.8","","-28.8","","64","","","","31","","23","","9.7","","97.64","","","","-36","","Snow"
"-82.47","49.41","KAPUSKASING A","6073976","2019-01-30 14:00","2019","01","30","14:00","-23.5","","-28.8","","63","","","","32","","28","","6.4","","97.69","","","","-37","","Snow"
"-82.47","49.41","KAPUSKASING A","6073976","2019-01-30 15:00","2019","01","30","15:00","-23.4","","-28.7","","62","","","","31","","23","","9.7","","97.77","","","","-36","","Snow"
"-82.47","49.41","KAPUSKASING A","6073976","2019-01-30 16:00","2019","01","30","16:00","-23.8","","-28.9","","64","","","","31","","23","","3.2","","97.87","","","","-36","","Snow"
"-82.47","49.41","KAPUSKASING A","6073976","2019-01-30 17:00","2019","01","30","17:00","-25.1","","-29.9","","65","","","","30","","19","","4.8","","98.00","","","","-37","","Snow"
"-82.47","49.41","KAPUSKASING A","6073976","2019-01-30 18:00","2019","01","30","18:00","-26.4","","-30.4","","70","","","","30","","16","","9.7","","98.11","","","","-37","","Snow"
"-82.47","49.41","KAPUSKASING A","6073976","2019-01-30 19:00","2019","01","30","19:00","-27.1","","-31.4","","68","","","","30","","15","","9.7","","98.20","","","","-38","","Snow"
"-82.47","49.41","KAPUSKASING A","6073976","2019-01-30 20:00","2019","01","30","20:00","-27.9","","-32.2","","67","","","","30","","15","","9.7","","98.27","","","","-39","","Snow"
"-82.47","49.41","KAPUSKASING A","6073976","2019-01-30 21:00","2019","01","30","21:00","-28.9","","-33.4","","66","","","","30","","14","","12.9","","98.28","","","","-40","","Snow"
"-82.47","49.41","KAPUSKASING A","6073976","2019-01-30 22:00","2019","01","30","22:00","-29.9","","-34.0","","68","","","","30","","14","","24.1","","98.33","","","","-41","","Ice Crystals"
"-82.47","49.41","KAPUSKASING A","6073976","2019-01-30 23:00","2019","01","30","23:00","-30.7","","-34.5","","70","","","","28","","12","","24.1","","98.31","","","","-41","","Ice Crystals"
"-82.47","49.41","KAPUSKASING A","6073976","2019-01-31 00:00","2019","01","31","00:00","-31.6","","-35.2","","71","","","","28","","12","","24.1","","98.32","","","","-42","","Ice Crystals"
"-82.47","49.41","KAPUSKASING A","6073976","2019-01-31 01:00","2019","01","31","01:00","-32.7","","-36.2","","72","","","","26","","13","","24.1","","98.33","","","","-44","","Ice Crystals"
"-82.47","49.41","KAPUSKASING A","6073976","2019-01-31 02:00","2019","01","31","02:00","-33.1","","-36.5","","72","","","","26","","13","","24.1","","98.38","","","","-44","","Ice Crystals"
"-82.47","49.41","KAPUSKASING A","6073976","2019-01-31 03:00","2019","01","31","03:00","-33.6","","-37.1","","72","","","","26","","12","","24.1","","98.45","","","","-45","","Ice Crystals"
"-82.47","49.41","KAPUSKASING A","6073976","2019-01-31 04:00","2019","01","31","04:00","-34.6","","-38.1","","72","","","","25","","13","","24.1","","98.47","","","","-46","","Ice Crystals"
"-82.47","49.41","KAPUSKASING A","6073976","2019-01-31 05:00","2019","01","31","05:00","-34.6","","-38.0","","72","","","","25","","12","","24.1","","98.53","","","","-46","","Ice Crystals"
"-82.47","49.41","KAPUSKASING A","6073976","2019-01-31 06:00","2019","01","31","06:00","-35.0","","-38.5","","71","","","","25","","13","","24.1","","98.58","","","","-47","","Ice Crystals"
"-82.47","49.41","KAPUSKASING A","6073976","2019-01-31 07:00","2019","01","31","07:00","-33.7","","-37.3","","70","","","","26","","17","","24.1","","98.57","","","","-47","","Clear"
"-82.47","49.41","KAPUSKASING A","6073976","2019-01-31 08:00","2019","01","31","08:00","-33.7","","-37.5","","70","","","","26","","16","","24.1","","98.62","","","","-46","","NA"
"-82.47","49.41","KAPUSKASING A","6073976","2019-01-31 09:00","2019","01","31","09:00","-32.7","","-36.7","","68","","","","26","","18","","24.1","","98.66","","","","-46","","NA"
"-82.47","49.41","KAPUSKASING A","6073976","2019-01-31 10:00","2019","01","31","10:00","-31.3","","-35.9","","65","","","","27","","18","","24.1","","98.64","","","","-44","","Mainly Clear"
"-82.47","49.41","KAPUSKASING A","6073976","2019-01-31 11:00","2019","01","31","11:00","-29.6","","-34.8","","61","","","","27","","24","","24.1","","98.65","","","","-44","","NA"
"-82.47","49.41","KAPUSKASING A","6073976","2019-01-31 12:00","2019","01","31","12:00","-27.7","","-33.2","","61","","","","25","","19","","9.7","","98.64","","","","-40","","Ice Crystals"
"-82.47","49.41","KAPUSKASING A","6073976","2019-01-31 13:00","2019","01","31","13:00","-25.8","","-31.5","","60","","","","26","","23","","24.1","","98.59","","","","-39","","Mainly Clear"
"-82.47","49.41","KAPUSKASING A","6073976","2019-01-31 14:00","2019","01","31","14:00","-24.0","","-29.6","","60","","","","25","","28","","24.1","","98.56","","","","-37","","NA"
"-82.47","49.41","KAPUSKASING A","6073976","2019-01-31 15:00","2019","01","31","15:00","-22.2","","-28.0","","60","","","","27","","23","","24.1","","98.60","","","","-34","","NA"
"-82.47","49.41","KAPUSKASING A","6073976","2019-01-31 16:00","2019","01","31","16:00","-22.2","","-27.4","","63","","","","27","","25","","9.7","","98.68","","","","-34","","Blowing Snow"
"-82.47","49.41","KAPUSKASING A","6073976","2019-01-31 17:00","2019","01","31","17:00","-22.3","","-27.0","","66","","","","27","","26","","4.8","","98.75","","","","-35","","Snow,Blowing Snow"
"-82.47","49.41","KAPUSKASING A","6073976","2019-01-31 18:00","2019","01","31","18:00","-22.2","","-26.6","","68","","","","26","","23","","9.7","","98.78","","","","-34","","Snow,Blowing Snow"
"-82.47","49.41","KAPUSKASING A","6073976","2019-01-31 19:00","2019","01","31","19:00","-22.1","","-26.9","","66","","","","27","","21","","9.7","","98.86","","","","-33","","Blowing Snow"
"-82.47","49.41","KAPUSKASING A","6073976","2019-01-31 20:00","2019","01","31","20:00","-22.8","","-27.3","","67","","","","27","","27","","24.1","","98.90","","","","-36","","Blowing Snow"
"-82.47","49.41","KAPUSKASING A","6073976","2019-01-31 21:00","2019","01","31","21:00","-22.9","","-27.7","","66","","","","28","","24","","24.1","","98.94","","","","-35","","Snow,Blowing Snow"
"-82.47","49.41","KAPUSKASING A","6073976","2019-01-31 22:00","2019","01","31","22:00","-23.6","","-28.4","","65","","","","28","","23","","24.1","","99.00","","","","-36","","Snow,Blowing Snow"
"-82.47","49.41","KAPUSKASING A","6073976","2019-01-31 23:00","2019","01","31","23:00","-24.4","","-29.1","","66","","","","28","","22","","24.1","","99.07","","","","-37","","Blowing Snow"
