"Longitude (x)","Latitude (y)","Station Name","Climate ID","Date/Time (LST)","Year","Month","Day","Time (LST)","Temp (°C)","Temp Flag","Dew Point Temp (°C)","Dew Point Temp Flag","Rel Hum (%)","Rel Hum Flag","Precip. Amount (mm)","Precip. Amount Flag","Wind Dir (10s deg)","Wind Dir Flag","Wind Spd (km/h)","Wind Spd Flag","Visibility (km)","Visibility Flag","Stn Press (kPa)","Stn Press Flag","Hmdx","Hmdx Flag","Wind Chill","Wind Chill Flag","Weather"
"-82.47","49.41","KAPUSKASING A","6073978","2019-03-01 00:00","2019","03","01","00:00","-9.2","","-12.1","","80","","","M","20","","12","","","M","98.75","","","","-15","","NA"
"-82.47","49.41","KAPUSKASING A","6073978","2019-03-01 01:00","2019","03","01","01:00","-9.1","","-11.9","","80","","","M","23","","16","","","M","98.78","","","","-16","","NA"
"-82.47","49.41","KAPUSKASING A","6073978","2019-03-01 02:00","2019","03","01","02:00","-9.0","","-11.6","","82","","","M","22","","16","","","M","98.76","","","","-16","","NA"
"-82.47","49.41","KAPUSKASING A","6073978","2019-03-01 03:00","2019","03","01","03:00","-9.4","","-11.4","","86","","","M","22","","16","","","M","98.76","","","","-16","","NA"
"-82.47","49.41","KAPUSKASING A","6073978","2019-03-01 04:00","2019","03","01","04:00","-9.9","","-11.7","","86","","","M","23","","12","","","M","98.78","","","","-16","","NA"
"-82.47","49.41","KAPUSKASING A","6073978","2019-03-01 05:00","2019","03","01","05:00","-11.2","","-13.1","","86","","","M","22","","12","","","M","98.79","","","","-17","","NA"
"-82.47","49.41","KAPUSKASING A","6073978","2019-03-01 06:00","2019","03","01","06:00","-11.9","","-13.4","","88","","","M","23","","10","","","M","98.83","","","","-18","","NA"
"-82.47","49.41","KAPUSKASING A","6073978","2019-03-01 07:00","2019","03","01","07:00","-12.1","","-13.7","","88","","","M","24","","10","","","M","98.87","","","","-18","","NA"
"-82.47","49.41","KAPUSKASING A","6073978","2019-03-01 08:00","2019","03","01","08:00","-11.2","","-13.0","","86","","","M","26","","14","","","M","98.94","","","","-18","","NA"
"-82.47","49.41","KAPUSKASING A","6073978","2019-03-01 09:00","2019","03","01","09:00","-10.7","","-13.3","","81","","","M","28","","18","","","M","99.03","","","","-18","","NA"
"-82.47","49.41","KAPUSKASING A","6073978","2019-03-01 10:00","2019","03","01","10:00","-9.9","","-14.1","","72","","","M","31","","15","","","M","99.06","","","","-17","","NA"
"-82.47","49.41","KAPUSKASING A","6073978","2019-03-01 11:00","2019","03","01","11:00","-8.1","","-14.5","","61","","","M","30","","16","","","M","99.09","","","","-15","","NA"
"-82.47","49.41","KAPUSKASING A","6073978","2019-03-01 12:00","2019","03","01","12:00","-8.6","","-15.6","","57","","","M","30","","21","","","M","99.17","","","","-16","","NA"
"-82.47","49.41","KAPUSKASING A","6073978","2019-03-01 13:00","2019","03","01","13:00","-8.2","","-15.5","","56","","","M","29","","16","","","M","99.23","","","","-15","","NA"
"-82.47","49.41","KAPUSKASING A","6073978","2019-03-01 14:00","2019","03","01","14:00","-7.6","","-15.6","","53","","","M","30","","20","","","M","99.27","","","","-15","","NA"
"-82.47","49.41","KAPUSKASING A","6073978","2019-03-01 15:00","2019","03","01","15:00","-7.1","","-16.3","","48","","","M","25","","23","","","M","99.29","","","","-15","","NA"
"-82.47","49.41","KAPUSKASING A","6073978","2019-03-01 16:00","2019","03","01","16:00","-7.3","","-16.6","","48","","","M","30","","17","","","M","99.34","","","","-14","","NA"
"-82.47","49.41","KAPUSKASING A","6073978","2019-03-01 17:00","2019","03","01","17:00","-7.6","","-17.2","","47","","","M","30","","17","","","M","99.39","","","","-14","","NA"
"-82.47","49.41","KAPUSKASING A","6073978","2019-03-01 18:00","2019","03","01","18:00","-9.2","","-16.2","","57","","","M","33","","9","","","M","99.47","","","","-14","","NA"
"-82.47","49.41","KAPUSKASING A","6073978","2019-03-01 19:00","2019","03","01","19:00","-10.2","","-16.4","","61","","","M","33","","5","","","M","99.53","","","","-13","","NA"
"-82.47","49.41","KAPUSKASING A","6073978","2019-03-01 20:00","2019","03","01","20:00","-13.1","","-16.6","","76","","","M","33","","7","","","M","99.59","","","","-18","","NA"
"-82.47","49.41","KAPUSKASING A","6073978","2019-03-01 21:00","2019","03","01","21:00","-12.9","","-17.0","","72","","","M","2","","6","","","M","99.66","","","","-17","","NA"
"-82.47","49.41","KAPUSKASING A","6073978","2019-03-01 22:00","2019","03","01","22:00","-14.2","","-17.5","","76","","","M","4","","3","","","M","99.66","","","","-16","","NA"
"-82.47","49.41","KAPUSKASING A","6073978","2019-03-01 23:00","2019","03","01","23:00","-16.4","","-18.8","","82","","","M","3","","3","","","M","99.67","","","","-19","","NA"
"-82.47","49.41","KAPUSKASING A","6073978","2019-03-02 00:00","2019","03","02","00:00","-17.5","","-19.9","","82","","","M","4","","6","","","M","99.67","","","","-22","","NA"
"-82.47","49.41","KAPUSKASING A","6073978","2019-03-02 01:00","2019","03","02","01:00","-18.6","","-20.9","","82","","","M","31","","5","","","M","99.67","","","","-23","","NA"
"-82.47","49.41","KAPUSKASING A","6073978","2019-03-02 02:00","2019","03","02","02:00","-18.2","","-20.5","","82","","","M","22","","2","","","M","99.70","","","","-20","","NA"
"-82.47","49.41","KAPUSKASING A","6073978","2019-03-02 03:00","2019","03","02","03:00","-19.2","","-21.6","","82","","","M","1","","1","","","M","99.69","","","","-20","","NA"
"-82.47","49.41","KAPUSKASING A","6073978","2019-03-02 04:00","2019","03","02","04:00","-19.8","","-22.1","","82","","","M","4","","2","","","M","99.66","","","","-22","","NA"
"-82.47","49.41","KAPUSKASING A","6073978","2019-03-02 05:00","2019","03","02","05:00","-18.9","","-21.4","","81","","","M","4","","3","","","M","99.66","","","","-21","","NA"
"-82.47","49.41","KAPUSKASING A","6073978","2019-03-02 06:00","2019","03","02","06:00","-18.7","","-21.1","","81","","","M","1","","4","","","M","99.65","","","","-22","","NA"
"-82.47","49.41","KAPUSKASING A","6073978","2019-03-02 07:00","2019","03","02","07:00","-18.2","","-20.6","","82","","","M","31","","5","","","M","99.62","","","","-22","","NA"
"-82.47","49.41","KAPUSKASING A","6073978","2019-03-02 08:00","2019","03","02","08:00","-17.6","","-19.9","","82","","","M","32","","3","","","M","99.64","","","","-20","","NA"
"-82.47","49.41","KAPUSKASING A","6073978","2019-03-02 09:00","2019","03","02","09:00","-16.0","","-19.0","","78","","","M","31","","3","","","M","99.67","","","","-18","","NA"
"-82.47","49.41","KAPUSKASING A","6073978","2019-03-02 10:00","2019","03","02","10:00","-14.8","","-17.9","","77","","","M","16","","3","","","M","99.67","","","","-17","","NA"
"-82.47","49.41","KAPUSKASING A","6073978","2019-03-02 11:00","2019","03","02","11:00","-11.9","","-16.7","","67","","","M","8","","4","","","M","99.64","","","","-14","","NA"
"-82.47","49.41","KAPUSKASING A","6073978","2019-03-02 12:00","2019","03","02","12:00","-10.2","","-16.2","","62","","","M","16","","7","","","M","99.58","","","","-14","","NA"
"-82.47","49.41","KAPUSKASING A","6073978","2019-03-02 13:00","2019","03","02","13:00","-8.9","","-16.6","","54","","","M","14","","9","","","M","99.46","","","","-14","","NA"
"-82.47","49.41","KAPUSKASING A","6073978","2019-03-02 14:00","2019","03","02","14:00","-8.6","","-17.4","","49","","","M","18","","6","","","M","99.38","","","","-12","","NA"
"-82.47","49.41","KAPUSKASING A","6073978","2019-03-02 15:00","2019","03","02","15:00","-8.0","","-17.9","","45","","","M","23","","3","","","M","99.34","","","","-10","","NA"
"-82.47","49.41","KAPUSKASING A","6073978","2019-03-02 16:00","2019","03","02","16:00","-8.5","","-17.3","","49","","","M","15","","8","","","M","99.33","","","","-13","","NA"
"-82.47","49.41","KAPUSKASING A","6073978","2019-03-02 17:00","2019","03","02","17:00","-9.5","","-17.2","","54","","","M","15","","10","","","M","99.25","","","","-15","","NA"
"-82.47","49.41","KAPUSKASING A","6073978","2019-03-02 18:00","2019","03","02","18:00","-11.6","","-17.6","","62","","","M","15","","9","","","M","99.17","","","","-17","","NA"
"-82.47","49.41","KAPUSKASING A","6073978","2019-03-02 19:00","2019","03","02","19:00","-11.7","","-17.2","","64","","","M","12","","8","","","M","99.13","","","","-16","","NA"
"-82.47","49.41","KAPUSKASING A","6073978","2019-03-02 20:00","2019","03","02","20:00","-14.4","","-19.0","","68","","","M","12","","10","","","M","99.04","","","","-21","","NA"
"-82.47","49.41","KAPUSKASING A","6073978","2019-03-02 21:00","2019","03","02","21:00","-14.0","","-18.0","","72","","","M","15","","13","","","M","98.97","","","","-21","","NA"
"-82.47","49.41","KAPUSKASING A","6073978","2019-03-02 22:00","2019","03","02","22:00","-11.2","","-13.5","","83","","","M","20","","15","","","M","98.95","","","","-18","","NA"
"-82.47","49.41","KAPUSKASING A","6073978","2019-03-02 23:00","2019","03","02","23:00","-11.3","","-13.9","","82","","","M","30","","21","","","M","98.97","","","","-20","","NA"
"-82.47","49.41","KAPUSKASING A","6073978","2019-03-03 00:00","2019","03","03","00:00","-12.5","","-15.6","","78","","","M","30","","14","","","M","99.00","","","","-20","","NA"
"-82.47","49.41","KAPUSKASING A","6073978","2019-03-03 01:00","2019","03","03","01:00","-14.1","","-17.7","","75","","","M","27","","10","","","M","99.03","","","","-20","","NA"
"-82.47","49.41","KAPUSKASING A","6073978","2019-03-03 02:00","2019","03","03","02:00","-15.5","","-19.0","","75","","","M","27","","14","","","M","99.02","","","","-23","","NA"
"-82.47","49.41","KAPUSKASING A","6073978","2019-03-03 03:00","2019","03","03","03:00","-17.2","","-20.3","","77","","","M","25","","12","","","M","99.02","","","","-25","","NA"
"-82.47","49.41","KAPUSKASING A","6073978","2019-03-03 04:00","2019","03","03","04:00","-18.1","","-21.6","","75","","","M","25","","17","","","M","98.98","","","","-27","","NA"
"-82.47","49.41","KAPUSKASING A","6073978","2019-03-03 05:00","2019","03","03","05:00","-19.0","","-22.3","","76","","","M","26","","15","","","M","98.99","","","","-28","","NA"
"-82.47","49.41","KAPUSKASING A","6073978","2019-03-03 06:00","2019","03","03","06:00","-20.0","","-23.1","","76","","","M","26","","15","","","M","99.01","","","","-29","","NA"
"-82.47","49.41","KAPUSKASING A","6073978","2019-03-03 07:00","2019","03","03","07:00","-21.6","","-24.2","","79","","","M","26","","9","","","M","99.01","","","","-29","","NA"
"-82.47","49.41","KAPUSKASING A","6073978","2019-03-03 08:00","2019","03","03","08:00","-21.6","","-24.4","","79","","","M","25","","11","","","M","99.02","","","","-30","","NA"
"-82.47","49.41","KAPUSKASING A","6073978","2019-03-03 09:00","2019","03","03","09:00","-18.4","","-22.1","","73","","","M","25","","11","","","M","99.02","","","","-26","","NA"
"-82.47","49.41","KAPUSKASING A","6073978","2019-03-03 10:00","2019","03","03","10:00","-17.0","","-21.5","","68","","","M","28","","18","","","M","98.98","","","","-26","","NA"
"-82.47","49.41","KAPUSKASING A","6073978","2019-03-03 11:00","2019","03","03","11:00","-16.1","","-21.0","","67","","","M","30","","14","","","M","98.97","","","","-24","","NA"
"-82.47","49.41","KAPUSKASING A","6073978","2019-03-03 12:00","2019","03","03","12:00","-15.4","","-20.4","","67","","","M","29","","13","","","M","98.94","","","","-23","","NA"
"-82.47","49.41","KAPUSKASING A","6073978","2019-03-03 13:00","2019","03","03","13:00","-15.3","","-20.9","","63","","","M","27","","14","","","M","98.86","","","","-23","","NA"
"-82.47","49.41","KAPUSKASING A","6073978","2019-03-03 14:00","2019","03","03","14:00","-14.9","","-19.9","","67","","","M","32","","16","","","M","98.81","","","","-23","","NA"
"-82.47","49.41","KAPUSKASING A","6073978","2019-03-03 15:00","2019","03","03","15:00","-14.5","","-19.2","","68","","","M","32","","16","","","M","98.78","","","","-23","","NA"
"-82.47","49.41","KAPUSKASING A","6073978","2019-03-03 16:00","2019","03","03","16:00","-14.5","","-19.6","","66","","","M","31","","15","","","M","98.78","","","","-22","","NA"
"-82.47","49.41","KAPUSKASING A","6073978","2019-03-03 17:00","2019","03","03","17:00","-14.2","","-21.0","","57","","","M","35","","7","","","M","98.75","","","","-19","","NA"
"-82.47","49.41","KAPUSKASING A","6073978","2019-03-03 18:00","2019","03","03","18:00","-15.8","","-20.3","","68","","","M","34","","8","","","M","98.74","","","","-21","","NA"
"-82.47","49.41","KAPUSKASING A","6073978","2019-03-03 19:00","2019","03","03","19:00","-17.7","","-21.1","","75","","","M","34","","4","","","M","98.76","","","","-21","","NA"
"-82.47","49.41","KAPUSKASING A","6073978","2019-03-03 20:00","2019","03","03","20:00","-19.9","","-22.0","","83","","","M","9","","3","","","M","98.76","","","","-22","","NA"
"-82.47","49.41","KAPUSKASING A","6073978","2019-03-03 21:00","2019","03","03","21:00","-21.7","","-23.8","","84","","","M","0","","1","","","M","98.75","","","","-23","","NA"
"-82.47","49.41","KAPUSKASING A","6073978","2019-03-03 22:00","2019","03","03","22:00","-23.1","","-25.4","","81","","","M","14","","3","","","M","98.74","","","","-26","","NA"
"-82.47","49.41","KAPUSKASING A","6073978","2019-03-03 23:00","2019","03","03","23:00","-23.6","","-26.1","","80","","","M","19","","3","","","M","98.72","","","","-26","","NA"
"-82.47","49.41","KAPUSKASING A","6073978","2019-03-04 00:00","2019","03","04","00:00","-23.9","","-26.4","","80","","","M","13","","4","","","M","98.67","","","","-28","","NA"
"-82.47","49.41","KAPUSKASING A","6073978","2019-03-04 01:00","2019","03","04","01:00","-26.2","","-28.8","","79","","","M","21","","3","","","M","98.65","","","","-29","","NA"
"-82.47","49.41","KAPUSKASING A","6073978","2019-03-04 02:00","2019","03","04","02:00","-25.9","","-28.8","","77","","","M","20","","2","","","M","98.64","","","","-28","","NA"
"-82.47","49.41","KAPUSKASING A","6073978","2019-03-04 03:00","2019","03","04","03:00","-27.0","","-29.8","","77","","","M","27","","10","","","M","98.58","","","","-36","","NA"
"-82.47","49.41","KAPUSKASING A","6073978","2019-03-04 04:00","2019","03","04","04:00","-28.9","","-31.9","","77","","","M","18","","5","","","M","98.54","","","","-34","","NA"
"-82.47","49.41","KAPUSKASING A","6073978","2019-03-04 05:00","2019","03","04","05:00","-29.2","","-31.9","","78","","","M","22","","4","","","M","98.53","","","","-34","","NA"
"-82.47","49.41","KAPUSKASING A","6073978","2019-03-04 06:00","2019","03","04","06:00","-29.4","","-32.2","","77","","","M","26","","5","","","M","98.51","","","","-35","","NA"
"-82.47","49.41","KAPUSKASING A","6073978","2019-03-04 07:00","2019","03","04","07:00","-27.2","","-30.0","","78","","","M","25","","13","","","M","98.48","","","","-37","","NA"
"-82.47","49.41","KAPUSKASING A","6073978","2019-03-04 08:00","2019","03","04","08:00","-28.0","","-31.0","","77","","","M","20","","6","","","M","98.50","","","","-34","","NA"
"-82.47","49.41","KAPUSKASING A","6073978","2019-03-04 09:00","2019","03","04","09:00","-25.5","","-28.6","","76","","","M","20","","5","","","M","98.49","","","","-31","","NA"
"-82.47","49.41","KAPUSKASING A","6073978","2019-03-04 10:00","2019","03","04","10:00","-21.9","","-25.1","","76","","","M","13","","3","","","M","98.44","","","","-25","","NA"
"-82.47","49.41","KAPUSKASING A","6073978","2019-03-04 11:00","2019","03","04","11:00","-16.6","","-23.0","","58","","","M","23","","9","","","M","98.37","","","","-23","","NA"
"-82.47","49.41","KAPUSKASING A","6073978","2019-03-04 12:00","2019","03","04","12:00","-15.7","","-23.6","","51","","","M","20","","22","","","M","98.31","","","","-25","","NA"
"-82.47","49.41","KAPUSKASING A","6073978","2019-03-04 13:00","2019","03","04","13:00","-15.6","","-22.3","","57","","","M","24","","18","","","M","98.25","","","","-24","","NA"
"-82.47","49.41","KAPUSKASING A","6073978","2019-03-04 14:00","2019","03","04","14:00","-15.5","","-22.1","","57","","","M","26","","19","","","M","98.18","","","","-25","","NA"
"-82.47","49.41","KAPUSKASING A","6073978","2019-03-04 15:00","2019","03","04","15:00","-15.4","","-20.7","","65","","","M","25","","17","","","M","98.16","","","","-24","","NA"
"-82.47","49.41","KAPUSKASING A","6073978","2019-03-04 16:00","2019","03","04","16:00","-15.1","","-22.9","","52","","","M","25","","23","","","M","98.14","","","","-25","","NA"
"-82.47","49.41","KAPUSKASING A","6073978","2019-03-04 17:00","2019","03","04","17:00","-15.0","","-21.9","","56","","","M","25","","19","","","M","98.13","","","","-24","","NA"
"-82.47","49.41","KAPUSKASING A","6073978","2019-03-04 18:00","2019","03","04","18:00","-15.4","","-21.5","","60","","","M","25","","9","","","M","98.14","","","","-21","","NA"
"-82.47","49.41","KAPUSKASING A","6073978","2019-03-04 19:00","2019","03","04","19:00","-16.2","","-20.6","","70","","","M","21","","5","","","M","98.16","","","","-20","","NA"
"-82.47","49.41","KAPUSKASING A","6073978","2019-03-04 20:00","2019","03","04","20:00","-17.0","","-19.7","","80","","","M","15","","3","","","M","98.16","","","","-19","","NA"
"-82.47","49.41","KAPUSKASING A","6073978","2019-03-04 21:00","2019","03","04","21:00","-17.6","","-20.0","","82","","","M","19","","4","","","M","98.14","","","","-21","","NA"
"-82.47","49.41","KAPUSKASING A","6073978","2019-03-04 22:00","2019","03","04","22:00","-17.9","","-20.0","","84","","","M","23","","4","","","M","98.13","","","","-21","","NA"
"-82.47","49.41","KAPUSKASING A","6073978","2019-03-04 23:00","2019","03","04","23:00","-18.1","","-20.4","","82","","","M","24","","9","","","M","98.11","","","","-24","","NA"
"-82.47","49.41","KAPUSKASING A","6073978","2019-03-05 00:00","2019","03","05","00:00","-18.3","","-20.6","","83","","","M","23","","7","","","M","98.06","","","","-24","","NA"
"-82.47","49.41","KAPUSKASING A","6073978","2019-03-05 01:00","2019","03","05","01:00","-18.8","","-21.2","","82","","","M","22","","11","","","M","98.02","","","","-26","","NA"
"-82.47","49.41","KAPUSKASING A","6073978","2019-03-05 02:00","2019","03","05","02:00","-19.4","","-21.8","","81","","","M","20","","10","","","M","98.00","","","","-26","","NA"
"-82.47","49.41","KAPUSKASING A","6073978","2019-03-05 03:00","2019","03","05","03:00","-19.5","","-21.9","","81","","","M","19","","7","","","M","97.97","","","","-25","","NA"
"-82.47","49.41","KAPUSKASING A","6073978","2019-03-05 04:00","2019","03","05","04:00","-19.5","","-22.0","","81","","","M","20","","9","","","M","97.94","","","","-26","","NA"
"-82.47","49.41","KAPUSKASING A","6073978","2019-03-05 05:00","2019","03","05","05:00","-20.8","","-23.3","","81","","","M","17","","5","","","M","97.92","","","","-25","","NA"
"-82.47","49.41","KAPUSKASING A","6073978","2019-03-05 06:00","2019","03","05","06:00","-21.0","","-23.4","","82","","","M","21","","7","","","M","97.94","","","","-27","","NA"
"-82.47","49.41","KAPUSKASING A","6073978","2019-03-05 07:00","2019","03","05","07:00","-20.9","","-23.4","","81","","","M","18","","4","","","M","97.92","","","","-24","","NA"
"-82.47","49.41","KAPUSKASING A","6073978","2019-03-05 08:00","2019","03","05","08:00","-21.5","","-23.9","","81","","","M","15","","4","","","M","97.95","","","","-25","","NA"
"-82.47","49.41","KAPUSKASING A","6073978","2019-03-05 09:00","2019","03","05","09:00","-19.7","","-22.3","","80","","","M","20","","4","","","M","97.96","","","","-23","","NA"
"-82.47","49.41","KAPUSKASING A","6073978","2019-03-05 10:00","2019","03","05","10:00","-18.0","","-21.1","","77","","","M","11","","6","","","M","97.97","","","","-23","","NA"
"-82.47","49.41","KAPUSKASING A","6073978","2019-03-05 11:00","2019","03","05","11:00","-15.7","","-19.9","","71","","","M","11","","7","","","M","97.96","","","","-21","","NA"
"-82.47","49.41","KAPUSKASING A","6073978","2019-03-05 12:00","2019","03","05","12:00","-13.8","","-19.8","","61","","","M","11","","5","","","M","97.98","","","","-17","","NA"
"-82.47","49.41","KAPUSKASING A","6073978","2019-03-05 13:00","2019","03","05","13:00","-13.9","","-19.4","","63","","","M","18","","5","","","M","98.01","","","","-17","","NA"
"-82.47","49.41","KAPUSKASING A","6073978","2019-03-05 14:00","2019","03","05","14:00","-13.1","","-17.7","","69","","","M","32","","13","","","M","98.05","","","","-20","","NA"
"-82.47","49.41","KAPUSKASING A","6073978","2019-03-05 15:00","2019","03","05","15:00","-13.1","","-18.3","","65","","","M","35","","16","","","M","98.12","","","","-21","","NA"
"-82.47","49.41","KAPUSKASING A","6073978","2019-03-05 16:00","2019","03","05","16:00","-13.3","","-18.2","","67","","","M","32","","18","","","M","98.19","","","","-22","","NA"
"-82.47","49.41","KAPUSKASING A","6073978","2019-03-05 17:00","2019","03","05","17:00","-13.9","","-18.6","","68","","","M","33","","14","","","M","98.29","","","","-21","","NA"
"-82.47","49.41","KAPUSKASING A","6073978","2019-03-05 18:00","2019","03","05","18:00","-13.8","","-19.7","","62","","","M","36","","12","","","M","98.38","","","","-21","","NA"
"-82.47","49.41","KAPUSKASING A","6073978","2019-03-05 19:00","2019","03","05","19:00","-16.0","","-21.7","","62","","","M","32","","9","","","M","98.48","","","","-22","","NA"
"-82.47","49.41","KAPUSKASING A","6073978","2019-03-05 20:00","2019","03","05","20:00","-17.0","","-20.7","","73","","","M","33","","9","","","M","98.58","","","","-23","","NA"
"-82.47","49.41","KAPUSKASING A","6073978","2019-03-05 21:00","2019","03","05","21:00","-17.8","","-20.4","","80","","","M","32","","8","","","M","98.63","","","","-24","","NA"
"-82.47","49.41","KAPUSKASING A","6073978","2019-03-05 22:00","2019","03","05","22:00","-18.8","","-21.8","","78","","","M","33","","11","","","M","98.69","","","","-26","","NA"
"-82.47","49.41","KAPUSKASING A","6073978","2019-03-05 23:00","2019","03","05","23:00","-20.8","","-23.4","","80","","","M","32","","12","","","M","98.71","","","","-29","","NA"
"-82.47","49.41","KAPUSKASING A","6073978","2019-03-06 00:00","2019","03","06","00:00","-21.1","","-23.2","","83","","","M","31","","7","","","M","98.74","","","","-27","","NA"
"-82.47","49.41","KAPUSKASING A","6073978","2019-03-06 01:00","2019","03","06","01:00","-22.6","","-24.9","","82","","","M","29","","8","","","M","98.78","","","","-29","","NA"
"-82.47","49.41","KAPUSKASING A","6073978","2019-03-06 02:00","2019","03","06","02:00","-24.0","","-26.4","","81","","","M","28","","8","","","M","98.82","","","","-31","","NA"
"-82.47","49.41","KAPUSKASING A","6073978","2019-03-06 03:00","2019","03","06","03:00","-25.0","","-27.5","","80","","","M","30","","8","","","M","98.84","","","","-32","","NA"
"-82.47","49.41","KAPUSKASING A","6073978","2019-03-06 04:00","2019","03","06","04:00","-26.2","","-28.8","","79","","","M","28","","8","","","M","98.87","","","","-34","","NA"
"-82.47","49.41","KAPUSKASING A","6073978","2019-03-06 05:00","2019","03","06","05:00","-25.6","","-28.2","","79","","","M","29","","12","","","M","98.91","","","","-35","","NA"
"-82.47","49.41","KAPUSKASING A","6073978","2019-03-06 06:00","2019","03","06","06:00","-26.0","","-28.6","","79","","","M","27","","10","","","M","98.95","","","","-34","","NA"
"-82.47","49.41","KAPUSKASING A","6073978","2019-03-06 07:00","2019","03","06","07:00","-27.3","","-29.8","","79","","","M","29","","8","","","M","98.96","","","","-35","","NA"
"-82.47","49.41","KAPUSKASING A","6073978","2019-03-06 08:00","2019","03","06","08:00","-26.1","","-28.7","","79","","","M","26","","9","","","M","99.01","","","","-34","","NA"
"-82.47","49.41","KAPUSKASING A","6073978","2019-03-06 09:00","2019","03","06","09:00","-22.0","","-25.1","","77","","","M","29","","8","","","M","99.03","","","","-29","","NA"
"-82.47","49.41","KAPUSKASING A","6073978","2019-03-06 10:00","2019","03","06","10:00","-18.2","","-22.3","","71","","","M","27","","12","","","M","99.03","","","","-26","","NA"
"-82.47","49.41","KAPUSKASING A","6073978","2019-03-06 11:00","2019","03","06","11:00","-16.0","","-22.2","","60","","","M","33","","12","","","M","99.00","","","","-23","","NA"
"-82.47","49.41","KAPUSKASING A","6073978","2019-03-06 12:00","2019","03","06","12:00","-15.5","","-23.0","","53","","","M","28","","17","","","M","98.98","","","","-24","","NA"
"-82.47","49.41","KAPUSKASING A","6073978","2019-03-06 13:00","2019","03","06","13:00","-14.8","","-22.2","","54","","","M","29","","11","","","M","98.96","","","","-21","","NA"
"-82.47","49.41","KAPUSKASING A","6073978","2019-03-06 14:00","2019","03","06","14:00","-13.7","","-23.1","","46","","","M","29","","9","","","M","98.90","","","","-19","","NA"
"-82.47","49.41","KAPUSKASING A","6073978","2019-03-06 15:00","2019","03","06","15:00","-13.1","","-22.1","","48","","","M","26","","13","","","M","98.87","","","","-20","","NA"
"-82.47","49.41","KAPUSKASING A","6073978","2019-03-06 16:00","2019","03","06","16:00","-13.0","","-22.6","","45","","","M","26","","12","","","M","98.85","","","","-20","","NA"
"-82.47","49.41","KAPUSKASING A","6073978","2019-03-06 17:00","2019","03","06","17:00","-12.1","","-22.6","","42","","","M","26","","23","","","M","98.84","","","","-21","","NA"
"-82.47","49.41","KAPUSKASING A","6073978","2019-03-06 18:00","2019","03","06","18:00","-13.0","","-23.1","","43","","","M","26","","9","","","M","98.84","","","","-18","","NA"
"-82.47","49.41","KAPUSKASING A","6073978","2019-03-06 19:00","2019","03","06","19:00","-13.7","","-22.9","","46","","","M","20","","3","","","M","98.86","","","","-16","","NA"
"-82.47","49.41","KAPUSKASING A","6073978","2019-03-06 20:00","2019","03","06","20:00","-17.2","","-23.4","","59","","","M","13","","2","","","M","98.88","","","","-19","","NA"
"-82.47","49.41","KAPUSKASING A","6073978","2019-03-06 21:00","2019","03","06","21:00","-19.2","","-23.7","","68","","","M","22","","9","","","M","98.88","","","","-26","","NA"
"-82.47","49.41","KAPUSKASING A","6073978","2019-03-06 22:00","2019","03","06","22:00","-17.9","","-23.7","","61","","","M","24","","9","","","M","98.87","","","","-24","","NA"
"-82.47","49.41","KAPUSKASING A","6073978","2019-03-06 23:00","2019","03","06","23:00","-18.7","","-23.3","","68","","","M","24","","10","","","M","98.87","","","","-26","","NA"
"-82.47","49.41","KAPUSKASING A","6073978","2019-03-07 00:00","2019","03","07","00:00","-18.3","","-21.5","","76","","","M","25","","12","","","M","98.86","","","","-26","","NA"
"-82.47","49.41","KAPUSKASING A","6073978","2019-03-07 01:00","2019","03","07","01:00","-17.7","","-20.1","","82","","","M","25","","11","","","M","98.85","","","","-25","","NA"
"-82.47","49.41","KAPUSKASING A","6073978","2019-03-07 02:00","2019","03","07","02:00","-17.5","","-20.3","","79","","","M","32","","24","","","M","98.93","","","","-28","","NA"
"-82.47","49.41","KAPUSKASING A","6073978","2019-03-07 03:00","2019","03","07","03:00","-19.2","","-22.1","","78","","","M","32","","17","","","M","99.02","","","","-29","","NA"
"-82.47","49.41","KAPUSKASING A","6073978","2019-03-07 04:00","2019","03","07","04:00","-20.4","","-23.1","","79","","","M","31","","13","","","M","99.11","","","","-29","","NA"
"-82.47","49.41","KAPUSKASING A","6073978","2019-03-07 05:00","2019","03","07","05:00","-21.1","","-23.5","","81","","","M","30","","13","","","M","99.17","","","","-30","","NA"
"-82.47","49.41","KAPUSKASING A","6073978","2019-03-07 06:00","2019","03","07","06:00","-22.3","","-24.8","","80","","","M","27","","10","","","M","99.23","","","","-30","","NA"
"-82.47","49.41","KAPUSKASING A","6073978","2019-03-07 07:00","2019","03","07","07:00","-23.4","","-25.9","","80","","","M","25","","10","","","M","99.25","","","","-31","","NA"
"-82.47","49.41","KAPUSKASING A","6073978","2019-03-07 08:00","2019","03","07","08:00","-21.6","","-24.4","","78","","","M","25","","16","","","M","99.26","","","","-31","","NA"
"-82.47","49.41","KAPUSKASING A","6073978","2019-03-07 09:00","2019","03","07","09:00","-18.6","","-23.2","","67","","","M","27","","21","","","M","99.24","","","","-29","","NA"
"-82.47","49.41","KAPUSKASING A","6073978","2019-03-07 10:00","2019","03","07","10:00","-16.4","","-22.5","","60","","","M","24","","22","","","M","99.22","","","","-26","","NA"
"-82.47","49.41","KAPUSKASING A","6073978","2019-03-07 11:00","2019","03","07","11:00","-13.7","","-21.4","","53","","","M","27","","23","","","M","99.16","","","","-23","","NA"
"-82.47","49.41","KAPUSKASING A","6073978","2019-03-07 12:00","2019","03","07","12:00","-11.4","","-20.0","","50","","","M","24","","17","","","M","99.07","","","","-19","","NA"
"-82.47","49.41","KAPUSKASING A","6073978","2019-03-07 13:00","2019","03","07","13:00","-9.2","","-18.4","","48","","","M","23","","25","","","M","98.96","","","","-18","","NA"
"-82.47","49.41","KAPUSKASING A","6073978","2019-03-07 14:00","2019","03","07","14:00","-8.0","","-17.4","","47","","","M","24","","24","","","M","98.86","","","","-16","","NA"
"-82.47","49.41","KAPUSKASING A","6073978","2019-03-07 15:00","2019","03","07","15:00","-6.6","","-17.1","","43","","","M","26","","34","","","M","98.80","","","","-16","","NA"
"-82.47","49.41","KAPUSKASING A","6073978","2019-03-07 16:00","2019","03","07","16:00","-6.5","","-16.6","","45","","","M","24","","34","","","M","98.75","","","","-15","","NA"
"-82.47","49.41","KAPUSKASING A","6073978","2019-03-07 17:00","2019","03","07","17:00","-6.4","","-16.8","","44","","","M","25","","29","","","M","98.73","","","","-15","","NA"
"-82.47","49.41","KAPUSKASING A","6073978","2019-03-07 18:00","2019","03","07","18:00","-7.0","","-16.7","","46","","","M","26","","26","","","M","98.73","","","","-15","","NA"
"-82.47","49.41","KAPUSKASING A","6073978","2019-03-07 19:00","2019","03","07","19:00","-8.5","","-16.3","","54","","","M","25","","23","","","M","98.74","","","","-17","","NA"
"-82.47","49.41","KAPUSKASING A","6073978","2019-03-07 20:00","2019","03","07","20:00","-9.1","","-15.9","","58","","","M","25","","31","","","M","98.74","","","","-18","","NA"
"-82.47","49.41","KAPUSKASING A","6073978","2019-03-07 21:00","2019","03","07","21:00","-10.0","","-15.9","","62","","","M","25","","30","","","M","98.77","","","","-20","","NA"
"-82.47","49.41","KAPUSKASING A","6073978","2019-03-07 22:00","2019","03","07","22:00","-10.8","","-16.0","","66","","","M","25","","29","","","M","98.78","","","","-20","","NA"
"-82.47","49.41","KAPUSKASING A","6073978","2019-03-07 23:00","2019","03","07","23:00","-11.1","","-15.7","","69","","","M","25","","25","","","M","98.82","","","","-20","","NA"
"-82.47","49.41","KAPUSKASING A","6073978","2019-03-08 00:00","2019","03","08","00:00","-11.7","","-15.4","","74","","","M","24","","23","","","M","98.83","","","","-21","","NA"
"-82.47","49.41","KAPUSKASING A","6073978","2019-03-08 01:00","2019","03","08","01:00","-12.2","","-15.5","","76","","","M","24","","18","","","M","98.81","","","","-20","","NA"
"-82.47","49.41","KAPUSKASING A","6073978","2019-03-08 02:00","2019","03","08","02:00","-12.2","","-15.2","","78","","","M","24","","22","","","M","98.77","","","","-21","","NA"
"-82.47","49.41","KAPUSKASING A","6073978","2019-03-08 03:00","2019","03","08","03:00","-12.8","","-15.7","","79","","","M","24","","19","","","M","98.72","","","","-21","","NA"
"-82.47","49.41","KAPUSKASING A","6073978","2019-03-08 04:00","2019","03","08","04:00","-13.4","","-15.8","","82","","","M","23","","19","","","M","98.67","","","","-22","","NA"
"-82.47","49.41","KAPUSKASING A","6073978","2019-03-08 05:00","2019","03","08","05:00","-13.8","","-16.0","","84","","","M","24","","19","","","M","98.64","","","","-22","","NA"
"-82.47","49.41","KAPUSKASING A","6073978","2019-03-08 06:00","2019","03","08","06:00","-13.3","","-15.6","","83","","","M","24","","17","","","M","98.65","","","","-21","","NA"
"-82.47","49.41","KAPUSKASING A","6073978","2019-03-08 07:00","2019","03","08","07:00","-12.8","","-15.0","","84","","","M","24","","19","","","M","98.64","","","","-21","","NA"
"-82.47","49.41","KAPUSKASING A","6073978","2019-03-08 08:00","2019","03","08","08:00","-12.4","","-14.9","","82","","","M","24","","16","","","M","98.63","","","","-20","","NA"
"-82.47","49.41","KAPUSKASING A","6073978","2019-03-08 09:00","2019","03","08","09:00","-9.8","","-14.7","","68","","","M","25","","27","","","M","98.64","","","","-19","","NA"
"-82.47","49.41","KAPUSKASING A","6073978","2019-03-08 10:00","2019","03","08","10:00","-8.1","","-15.1","","58","","","M","25","","19","","","M","98.59","","","","-15","","NA"
"-82.47","49.41","KAPUSKASING A","6073978","2019-03-08 11:00","2019","03","08","11:00","-6.6","","-15.4","","50","","","M","27","","22","","","M","98.58","","","","-14","","NA"
"-82.47","49.41","KAPUSKASING A","6073978","2019-03-08 12:00","2019","03","08","12:00","-4.2","","-15.4","","42","","","M","26","","26","","","M","98.57","","","","-11","","NA"
"-82.47","49.41","KAPUSKASING A","6073978","2019-03-08 13:00","2019","03","08","13:00","-2.6","","-16.1","","35","","","M","29","","23","","","M","98.57","","","","-9","","NA"
"-82.47","49.41","KAPUSKASING A","6073978","2019-03-08 14:00","2019","03","08","14:00","-2.1","","-16.5","","33","","","M","31","","21","","","M","98.58","","","","-8","","NA"
"-82.47","49.41","KAPUSKASING A","6073978","2019-03-08 15:00","2019","03","08","15:00","-1.9","","-17.6","","29","","","M","30","","16","","","M","98.59","","","","-7","","NA"
"-82.47","49.41","KAPUSKASING A","6073978","2019-03-08 16:00","2019","03","08","16:00","-1.8","","-16.9","","31","","","M","32","","23","","","M","98.65","","","","-8","","NA"
"-82.47","49.41","KAPUSKASING A","6073978","2019-03-08 17:00","2019","03","08","17:00","-2.3","","-16.8","","32","","","M","31","","26","","","M","98.72","","","","-9","","NA"
"-82.47","49.41","KAPUSKASING A","6073978","2019-03-08 18:00","2019","03","08","18:00","-3.8","","-16.5","","37","","","M","34","","18","","","M","98.80","","","","-10","","NA"
"-82.47","49.41","KAPUSKASING A","6073978","2019-03-08 19:00","2019","03","08","19:00","-4.9","","-16.9","","39","","","M","35","","12","","","M","98.90","","","","-10","","NA"
"-82.47","49.41","KAPUSKASING A","6073978","2019-03-08 20:00","2019","03","08","20:00","-6.6","","-16.5","","46","","","M","1","","13","","","M","99.00","","","","-12","","NA"
"-82.47","49.41","KAPUSKASING A","6073978","2019-03-08 21:00","2019","03","08","21:00","-8.8","","-15.6","","58","","","M","4","","18","","","M","99.10","","","","-16","","NA"
"-82.47","49.41","KAPUSKASING A","6073978","2019-03-08 22:00","2019","03","08","22:00","-10.7","","-15.7","","67","","","M","4","","9","","","M","99.19","","","","-16","","NA"
"-82.47","49.41","KAPUSKASING A","6073978","2019-03-08 23:00","2019","03","08","23:00","-12.0","","-16.0","","72","","","M","6","","11","","","M","99.27","","","","-18","","NA"
"-82.47","49.41","KAPUSKASING A","6073978","2019-03-09 00:00","2019","03","09","00:00","-13.0","","-16.6","","75","","","M","8","","10","","","M","99.32","","","","-19","","NA"
"-82.47","49.41","KAPUSKASING A","6073978","2019-03-09 01:00","2019","03","09","01:00","-15.3","","-17.8","","82","","","M","15","","4","","","M","99.43","","","","-18","","NA"
"-82.47","49.41","KAPUSKASING A","6073978","2019-03-09 02:00","2019","03","09","02:00","-17.8","","-19.9","","84","","","M","7","","8","","","M","99.48","","","","-24","","NA"
"-82.47","49.41","KAPUSKASING A","6073978","2019-03-09 03:00","2019","03","09","03:00","-17.4","","-18.9","","89","","","M","10","","7","","","M","99.50","","","","-23","","NA"
"-82.47","49.41","KAPUSKASING A","6073978","2019-03-09 04:00","2019","03","09","04:00","-18.7","","-20.6","","85","","","M","12","","7","","","M","99.55","","","","-24","","NA"
"-82.47","49.41","KAPUSKASING A","6073978","2019-03-09 05:00","2019","03","09","05:00","-17.3","","-19.3","","84","","","M","12","","9","","","M","99.64","","","","-24","","NA"
"-82.47","49.41","KAPUSKASING A","6073978","2019-03-09 06:00","2019","03","09","06:00","-19.1","","-21.4","","82","","","M","13","","11","","","M","99.64","","","","-27","","NA"
"-82.47","49.41","KAPUSKASING A","6073978","2019-03-09 07:00","2019","03","09","07:00","-16.6","","-18.8","","84","","","M","11","","10","","","M","99.69","","","","-23","","NA"
"-82.47","49.41","KAPUSKASING A","6073978","2019-03-09 08:00","2019","03","09","08:00","-17.0","","-19.2","","83","","","M","13","","13","","","M","99.69","","","","-25","","NA"
"-82.47","49.41","KAPUSKASING A","6073978","2019-03-09 09:00","2019","03","09","09:00","-13.5","","-15.6","","84","","","M","12","","11","","","M","99.68","","","","-20","","NA"
"-82.47","49.41","KAPUSKASING A","6073978","2019-03-09 10:00","2019","03","09","10:00","-9.4","","-14.3","","68","","","M","16","","10","","","M","99.72","","","","-15","","NA"
"-82.47","49.41","KAPUSKASING A","6073978","2019-03-09 11:00","2019","03","09","11:00","-6.0","","-14.1","","53","","","M","15","","21","","","M","99.66","","","","-13","","NA"
"-82.47","49.41","KAPUSKASING A","6073978","2019-03-09 12:00","2019","03","09","12:00","-3.3","","-13.4","","46","","","M","16","","26","","","M","99.56","","","","-10","","NA"
"-82.47","49.41","KAPUSKASING A","6073978","2019-03-09 13:00","2019","03","09","13:00","-1.5","","-13.2","","41","","","M","16","","21","","","M","99.48","","","","-7","","NA"
"-82.47","49.41","KAPUSKASING A","6073978","2019-03-09 14:00","2019","03","09","14:00","-0.2","","-12.4","","39","","","M","17","","26","","","M","99.37","","","","-6","","NA"
"-82.47","49.41","KAPUSKASING A","6073978","2019-03-09 15:00","2019","03","09","15:00","0.3","","-12.4","","38","","","M","16","","27","","","M","99.26","","","","","","NA"
"-82.47","49.41","KAPUSKASING A","6073978","2019-03-09 16:00","2019","03","09","16:00","0.6","","-12.0","","39","","","M","16","","27","","","M","99.25","","","","","","NA"
"-82.47","49.41","KAPUSKASING A","6073978","2019-03-09 17:00","2019","03","09","17:00","0.2","","-12.0","","40","","","M","15","","22","","","M","99.15","","","","","","NA"
"-82.47","49.41","KAPUSKASING A","6073978","2019-03-09 18:00","2019","03","09","18:00","-2.0","","-12.0","","47","","","M","13","","21","","","M","99.10","","","","-8","","NA"
"-82.47","49.41","KAPUSKASING A","6073978","2019-03-09 19:00","2019","03","09","19:00","-4.7","","-12.2","","56","","","M","12","","18","","","M","99.05","","","","-11","","NA"
"-82.47","49.41","KAPUSKASING A","6073978","2019-03-09 20:00","2019","03","09","20:00","-3.2","","-11.7","","52","","","M","13","","31","","","M","98.96","","","","-11","","NA"
"-82.47","49.41","KAPUSKASING A","6073978","2019-03-09 21:00","2019","03","09","21:00","-4.1","","-12.1","","54","","","M","13","","24","","","M","98.86","","","","-11","","NA"
"-82.47","49.41","KAPUSKASING A","6073978","2019-03-09 22:00","2019","03","09","22:00","-4.6","","-12.2","","56","","","M","14","","24","","","M","98.78","","","","-12","","NA"
"-82.47","49.41","KAPUSKASING A","6073978","2019-03-09 23:00","2019","03","09","23:00","-5.1","","-12.6","","56","","","M","14","","20","","","M","98.68","","","","-12","","NA"
"-82.47","49.41","KAPUSKASING A","6073978","2019-03-10 00:00","2019","03","10","00:00","-5.1","","-12.8","","55","","","M","13","","21","","","M","98.52","","","","-12","","NA"
"-82.47","49.41","KAPUSKASING A","6073978","2019-03-10 01:00","2019","03","10","01:00","-5.4","","-13.0","","55","","","M","12","","22","","","M","98.35","","","","-12","","NA"
"-82.47","49.41","KAPUSKASING A","6073978","2019-03-10 02:00","2019","03","10","02:00","-5.8","","-13.1","","57","","","M","12","","19","","","M","98.26","","","","-12","","NA"
"-82.47","49.41","KAPUSKASING A","6073978","2019-03-10 03:00","2019","03","10","03:00","-5.7","","-12.7","","58","","","M","11","","18","","","M","98.12","","","","-12","","NA"
"-82.47","49.41","KAPUSKASING A","6073978","2019-03-10 04:00","2019","03","10","04:00","-5.2","","-13.2","","54","","","M","10","","18","","","M","98.00","","","","-11","","NA"
"-82.47","49.41","KAPUSKASING A","6073978","2019-03-10 05:00","2019","03","10","05:00","-5.8","","-13.8","","54","","","M","9","","18","","","M","97.84","","","","-12","","NA"
"-82.47","49.41","KAPUSKASING A","6073978","2019-03-10 06:00","2019","03","10","06:00","-6.0","","-14.1","","53","","","M","9","","17","","","M","97.72","","","","-12","","NA"
"-82.47","49.41","KAPUSKASING A","6073978","2019-03-10 07:00","2019","03","10","07:00","-6.2","","-14.1","","54","","","M","9","","17","","","M","97.60","","","","-12","","NA"
"-82.47","49.41","KAPUSKASING A","6073978","2019-03-10 08:00","2019","03","10","08:00","-5.8","","-13.3","","56","","","M","11","","27","","","M","97.50","","","","-14","","NA"
"-82.47","49.41","KAPUSKASING A","6073978","2019-03-10 09:00","2019","03","10","09:00","-7.2","","-8.8","","89","","","M","10","","15","","","M","97.38","","","","-13","","NA"
"-82.47","49.41","KAPUSKASING A","6073978","2019-03-10 10:00","2019","03","10","10:00","-6.8","","-8.3","","88","","","M","8","","13","","","M","97.24","","","","-12","","NA"
"-82.47","49.41","KAPUSKASING A","6073978","2019-03-10 11:00","2019","03","10","11:00","-5.8","","-8.0","","84","","","M","9","","16","","","M","97.15","","","","-12","","NA"
"-82.47","49.41","KAPUSKASING A","6073978","2019-03-10 12:00","2019","03","10","12:00","-5.1","","-7.6","","83","","","M","7","","10","","","M","97.07","","","","-9","","NA"
"-82.47","49.41","KAPUSKASING A","6073978","2019-03-10 13:00","2019","03","10","13:00","-4.4","","-7.2","","81","","","M","7","","10","","","M","97.03","","","","-9","","NA"
"-82.47","49.41","KAPUSKASING A","6073978","2019-03-10 14:00","2019","03","10","14:00","-3.7","","-7.3","","76","","","M","5","","11","","","M","96.98","","","","-8","","NA"
"-82.47","49.41","KAPUSKASING A","6073978","2019-03-10 15:00","2019","03","10","15:00","-3.8","","-6.9","","79","","","M","1","","11","","","M","96.97","","","","-8","","NA"
"-82.47","49.41","KAPUSKASING A","6073978","2019-03-10 16:00","2019","03","10","16:00","-4.0","","-6.5","","83","","","M","2","","9","","","M","96.99","","","","-8","","NA"
"-82.47","49.41","KAPUSKASING A","6073978","2019-03-10 17:00","2019","03","10","17:00","-4.3","","-6.0","","88","","","M","34","","8","","","M","97.05","","","","-8","","NA"
"-82.47","49.41","KAPUSKASING A","6073978","2019-03-10 18:00","2019","03","10","18:00","-4.8","","-6.3","","89","","","M","32","","16","","","M","97.15","","","","-11","","NA"
"-82.47","49.41","KAPUSKASING A","6073978","2019-03-10 19:00","2019","03","10","19:00","-5.2","","-6.9","","88","","","M","32","","18","","","M","97.25","","","","-11","","NA"
"-82.47","49.41","KAPUSKASING A","6073978","2019-03-10 20:00","2019","03","10","20:00","-5.4","","-7.0","","88","","","M","31","","20","","","M","97.32","","","","-12","","NA"
"-82.47","49.41","KAPUSKASING A","6073978","2019-03-10 21:00","2019","03","10","21:00","-6.0","","-7.9","","86","","","M","33","","23","","","M","97.38","","","","-13","","NA"
"-82.47","49.41","KAPUSKASING A","6073978","2019-03-10 22:00","2019","03","10","22:00","-6.5","","-8.4","","87","","","M","32","","21","","","M","97.44","","","","-14","","NA"
"-82.47","49.41","KAPUSKASING A","6073978","2019-03-10 23:00","2019","03","10","23:00","-7.0","","-8.3","","90","","","M","31","","14","","","M","97.52","","","","-13","","NA"
"-82.47","49.41","KAPUSKASING A","6073978","2019-03-11 00:00","2019","03","11","00:00","-7.4","","-8.8","","90","","","M","31","","12","","","M","97.61","","","","-13","","NA"
"-82.47","49.41","KAPUSKASING A","6073978","2019-03-11 01:00","2019","03","11","01:00","-8.0","","-9.9","","86","","","M","32","","25","","","M","97.73","","","","-16","","NA"
"-82.47","49.41","KAPUSKASING A","6073978","2019-03-11 02:00","2019","03","11","02:00","-8.0","","-9.9","","87","","","M","31","","26","","","M","97.85","","","","-16","","NA"
"-82.47","49.41","KAPUSKASING A","6073978","2019-03-11 03:00","2019","03","11","03:00","-8.3","","-10.3","","85","","","M","32","","23","","","M","97.96","","","","-16","","NA"
"-82.47","49.41","KAPUSKASING A","6073978","2019-03-11 04:00","2019","03","11","04:00","-8.4","","-11.1","","81","","","M","31","","23","","","M","98.08","","","","-16","","NA"
"-82.47","49.41","KAPUSKASING A","6073978","2019-03-11 05:00","2019","03","11","05:00","-8.6","","-10.9","","83","","","M","32","","21","","","M","98.22","","","","-16","","NA"
"-82.47","49.41","KAPUSKASING A","6073978","2019-03-11 06:00","2019","03","11","06:00","-8.7","","-10.7","","85","","","M","31","","15","","","M","98.33","","","","-15","","NA"
"-82.47","49.41","KAPUSKASING A","6073978","2019-03-11 07:00","2019","03","11","07:00","-9.1","","-11.2","","85","","","M","31","","21","","","M","98.43","","","","-17","","NA"
"-82.47","49.41","KAPUSKASING A","6073978","2019-03-11 08:00","2019","03","11","08:00","-10.4","","-13.4","","79","","","M","30","","24","","","M","98.54","","","","-19","","NA"
"-82.47","49.41","KAPUSKASING A","6073978","2019-03-11 09:00","2019","03","11","09:00","-10.6","","-13.8","","77","","","M","31","","22","","","M","98.63","","","","-19","","NA"
"-82.47","49.41","KAPUSKASING A","6073978","2019-03-11 10:00","2019","03","11","10:00","-10.4","","-14.2","","74","","","M","31","","25","","","M","98.71","","","","-19","","NA"
"-82.47","49.41","KAPUSKASING A","6073978","2019-03-11 11:00","2019","03","11","11:00","-10.0","","-14.6","","69","","","M","30","","23","","","M","98.78","","","","-18","","NA"
"-82.47","49.41","KAPUSKASING A","6073978","2019-03-11 12:00","2019","03","11","12:00","-9.1","","-14.2","","66","","","M","30","","21","","","M","98.84","","","","-17","","NA"
"-82.47","49.41","KAPUSKASING A","6073978","2019-03-11 13:00","2019","03","11","13:00","-8.2","","-13.8","","64","","","M","29","","21","","","M","98.90","","","","-16","","NA"
"-82.47","49.41","KAPUSKASING A","6073978","2019-03-11 14:00","2019","03","11","14:00","-7.9","","-13.5","","64","","","M","30","","18","","","M","98.92","","","","-15","","NA"
"-82.47","49.41","KAPUSKASING A","6073978","2019-03-11 15:00","2019","03","11","15:00","-7.6","","-13.3","","64","","","M","30","","23","","","M","98.94","","","","-15","","NA"
"-82.47","49.41","KAPUSKASING A","6073978","2019-03-11 16:00","2019","03","11","16:00","-8.1","","-13.3","","66","","","M","30","","22","","","M","99.01","","","","-16","","NA"
"-82.47","49.41","KAPUSKASING A","6073978","2019-03-11 17:00","2019","03","11","17:00","-8.2","","-13.2","","67","","","M","31","","21","","","M","99.09","","","","-16","","NA"
"-82.47","49.41","KAPUSKASING A","6073978","2019-03-11 18:00","2019","03","11","18:00","-8.3","","-13.8","","65","","","M","29","","15","","","M","99.14","","","","-15","","NA"
"-82.47","49.41","KAPUSKASING A","6073978","2019-03-11 19:00","2019","03","11","19:00","-10.0","","-14.3","","71","","","M","30","","5","","","M","99.18","","","","-13","","NA"
"-82.47","49.41","KAPUSKASING A","6073978","2019-03-11 20:00","2019","03","11","20:00","-14.3","","-16.9","","81","","","M","26","","6","","","M","99.25","","","","-18","","NA"
"-82.47","49.41","KAPUSKASING A","6073978","2019-03-11 21:00","2019","03","11","21:00","-14.3","","-16.1","","87","","","M","28","","5","","","M","99.28","","","","-18","","NA"
"-82.47","49.41","KAPUSKASING A","6073978","2019-03-11 22:00","2019","03","11","22:00","-16.0","","-17.8","","86","","","M","29","","8","","","M","99.30","","","","-22","","NA"
"-82.47","49.41","KAPUSKASING A","6073978","2019-03-11 23:00","2019","03","11","23:00","-19.2","","-21.3","","84","","","M","26","","8","","","M","99.30","","","","-25","","NA"
"-82.47","49.41","KAPUSKASING A","6073978","2019-03-12 00:00","2019","03","12","00:00","-20.1","","-22.3","","83","","","M","24","","5","","","M","99.31","","","","-24","","NA"
"-82.47","49.41","KAPUSKASING A","6073978","2019-03-12 01:00","2019","03","12","01:00","-22.5","","-25.1","","80","","","M","19","","5","","","M","99.30","","","","-27","","NA"
"-82.47","49.41","KAPUSKASING A","6073978","2019-03-12 02:00","2019","03","12","02:00","-23.9","","-26.4","","81","","","M","19","","7","","","M","99.29","","","","-30","","NA"
"-82.47","49.41","KAPUSKASING A","6073978","2019-03-12 03:00","2019","03","12","03:00","-20.9","","-22.7","","86","","","M","16","","5","","","M","99.26","","","","-25","","NA"
"-82.47","49.41","KAPUSKASING A","6073978","2019-03-12 04:00","2019","03","12","04:00","-22.8","","-24.9","","84","","","M","20","","6","","","M","99.23","","","","-28","","NA"
"-82.47","49.41","KAPUSKASING A","6073978","2019-03-12 05:00","2019","03","12","05:00","-21.3","","-23.2","","85","","","M","19","","9","","","M","99.24","","","","-28","","NA"
"-82.47","49.41","KAPUSKASING A","6073978","2019-03-12 06:00","2019","03","12","06:00","-19.6","","-21.4","","86","","","M","20","","11","","","M","99.21","","","","-27","","NA"
"-82.47","49.41","KAPUSKASING A","6073978","2019-03-12 07:00","2019","03","12","07:00","-18.7","","-20.7","","85","","","M","21","","12","","","M","99.20","","","","-26","","NA"
"-82.47","49.41","KAPUSKASING A","6073978","2019-03-12 08:00","2019","03","12","08:00","-14.9","","-16.8","","85","","","M","21","","14","","","M","99.11","","","","-22","","NA"
"-82.47","49.41","KAPUSKASING A","6073978","2019-03-12 09:00","2019","03","12","09:00","-11.3","","-13.2","","86","","","M","22","","21","","","M","99.09","","","","-20","","NA"
"-82.47","49.41","KAPUSKASING A","6073978","2019-03-12 10:00","2019","03","12","10:00","-7.9","","-10.4","","82","","","M","21","","21","","","M","99.06","","","","-15","","NA"
"-82.47","49.41","KAPUSKASING A","6073978","2019-03-12 11:00","2019","03","12","11:00","-3.9","","-9.0","","68","","","M","21","","21","","","M","98.94","","","","-10","","NA"
"-82.47","49.41","KAPUSKASING A","6073978","2019-03-12 12:00","2019","03","12","12:00","-1.0","","-8.1","","59","","","M","22","","32","","","M","98.84","","","","-8","","NA"
"-82.47","49.41","KAPUSKASING A","6073978","2019-03-12 13:00","2019","03","12","13:00","0.3","","-7.0","","58","","","M","23","","28","","","M","98.77","","","","","","NA"
"-82.47","49.41","KAPUSKASING A","6073978","2019-03-12 14:00","2019","03","12","14:00","2.7","","-6.5","","51","","","M","23","","27","","","M","98.67","","","","","","NA"
"-82.47","49.41","KAPUSKASING A","6073978","2019-03-12 15:00","2019","03","12","15:00","3.8","","-5.9","","49","","","M","21","","26","","","M","98.60","","","","","","NA"
"-82.47","49.41","KAPUSKASING A","6073978","2019-03-12 16:00","2019","03","12","16:00","5.3","","-6.6","","42","","","M","23","","27","","","M","98.52","","","","","","NA"
"-82.47","49.41","KAPUSKASING A","6073978","2019-03-12 17:00","2019","03","12","17:00","5.2","","-7.2","","40","","","M","23","","29","","","M","98.48","","","","","","NA"
"-82.47","49.41","KAPUSKASING A","6073978","2019-03-12 18:00","2019","03","12","18:00","3.2","","-7.0","","47","","","M","20","","24","","","M","98.41","","","","","","NA"
"-82.47","49.41","KAPUSKASING A","6073978","2019-03-12 19:00","2019","03","12","19:00","2.3","","-6.9","","51","","","M","22","","28","","","M","98.44","","","","","","NA"
"-82.47","49.41","KAPUSKASING A","6073978","2019-03-12 20:00","2019","03","12","20:00","2.0","","-6.9","","52","","","M","21","","30","","","M","98.42","","","","","","NA"
"-82.47","49.41","KAPUSKASING A","6073978","2019-03-12 21:00","2019","03","12","21:00","2.3","","-6.3","","53","","","M","22","","31","","","M","98.39","","","","","","NA"
"-82.47","49.41","KAPUSKASING A","6073978","2019-03-12 22:00","2019","03","12","22:00","2.5","","-6.0","","54","","","M","22","","30","","","M","98.37","","","","","","NA"
"-82.47","49.41","KAPUSKASING A","6073978","2019-03-12 23:00","2019","03","12","23:00","2.7","","-5.4","","55","","","M","22","","29","","","M","98.36","","","","","","NA"
"-82.47","49.41","KAPUSKASING A","6073978","2019-03-13 00:00","2019","03","13","00:00","1.7","","-5.1","","60","","","M","22","","32","","","M","98.31","","","","","","NA"
"-82.47","49.41","KAPUSKASING A","6073978","2019-03-13 01:00","2019","03","13","01:00","1.4","","-4.5","","65","","","M","21","","24","","","M","98.29","","","","","","NA"
"-82.47","49.41","KAPUSKASING A","6073978","2019-03-13 02:00","2019","03","13","02:00","2.1","","-3.8","","65","","","M","21","","26","","","M","98.27","","","","","","NA"
"-82.47","49.41","KAPUSKASING A","6073978","2019-03-13 03:00","2019","03","13","03:00","2.3","","-3.3","","66","","","M","22","","28","","","M","98.29","","","","","","NA"
"-82.47","49.41","KAPUSKASING A","6073978","2019-03-13 04:00","2019","03","13","04:00","2.4","","-2.7","","69","","","M","22","","24","","","M","98.26","","","","","","NA"
"-82.47","49.41","KAPUSKASING A","6073978","2019-03-13 05:00","2019","03","13","05:00","1.7","","-1.1","","82","","","M","23","","16","","","M","98.23","","","","","","NA"
"-82.47","49.41","KAPUSKASING A","6073978","2019-03-13 06:00","2019","03","13","06:00","1.4","","-0.4","","87","","","M","23","","12","","","M","98.26","","","","","","NA"
"-82.47","49.41","KAPUSKASING A","6073978","2019-03-13 07:00","2019","03","13","07:00"
"-82.47","49.41","KAPUSKASING A","6073978","2019-03-13 08:00","2019","03","13","08:00","1.5","","0.4","","93","","","M","21","","14","","","M","98.31","","","","","","NA"
"-82.47","49.41","KAPUSKASING A","6073978","2019-03-13 09:00","2019","03","13","09:00","1.3","","0.6","","95","","","M","20","","17","","","M","98.32","","","","","","NA"
"-82.47","49.41","KAPUSKASING A","6073978","2019-03-13 10:00","2019","03","13","10:00","1.8","","0.8","","93","","","M","21","","16","","","M","98.33","","","","","","NA"
"-82.47","49.41","KAPUSKASING A","6073978","2019-03-13 11:00","2019","03","13","11:00","2.5","","0.9","","89","","","M","22","","23","","","M","98.30","","","","","","NA"
"-82.47","49.41","KAPUSKASING A","6073978","2019-03-13 12:00","2019","03","13","12:00","3.2","","1.0","","86","","","M","22","","27","","","M","98.33","","","","","","NA"
"-82.47","49.41","KAPUSKASING A","6073978","2019-03-13 13:00","2019","03","13","13:00","3.8","","1.0","","82","","","M","23","","25","","","M","98.33","","","","","","NA"
"-82.47","49.41","KAPUSKASING A","6073978","2019-03-13 14:00","2019","03","13","14:00","3.9","","0.9","","81","","","M","23","","14","","","M","98.36","","","","","","NA"
"-82.47","49.41","KAPUSKASING A","6073978","2019-03-13 15:00","2019","03","13","15:00","4.1","","0.9","","80","","","M","23","","13","","","M","98.41","","","","","","NA"
"-82.47","49.41","KAPUSKASING A","6073978","2019-03-13 16:00","2019","03","13","16:00","4.2","","0.9","","79","","","M","20","","21","","","M","98.42","","","","","","NA"
"-82.47","49.41","KAPUSKASING A","6073978","2019-03-13 17:00","2019","03","13","17:00","4.0","","1.2","","82","","","M","20","","18","","","M","98.47","","","","","","NA"
"-82.47","49.41","KAPUSKASING A","6073978","2019-03-13 18:00","2019","03","13","18:00","3.7","","1.1","","83","","","M","21","","16","","","M","98.54","","","","","","NA"
"-82.47","49.41","KAPUSKASING A","6073978","2019-03-13 19:00","2019","03","13","19:00","2.6","","0.8","","88","","","M","17","","10","","","M","98.58","","","","","","NA"
"-82.47","49.41","KAPUSKASING A","6073978","2019-03-13 20:00","2019","03","13","20:00","3.1","","1.0","","86","","","M","19","","11","","","M","98.58","","","","","","NA"
"-82.47","49.41","KAPUSKASING A","6073978","2019-03-13 21:00","2019","03","13","21:00","2.9","","1.1","","88","","","M","18","","13","","","M","98.63","","","","","","NA"
"-82.47","49.41","KAPUSKASING A","6073978","2019-03-13 22:00","2019","03","13","22:00","2.3","","1.1","","92","","","M","16","","14","","","M","98.58","","","","","","NA"
"-82.47","49.41","KAPUSKASING A","6073978","2019-03-13 23:00","2019","03","13","23:00","1.8","","0.7","","93","","","M","15","","12","","","M","98.54","","","","","","NA"
"-82.47","49.41","KAPUSKASING A","6073978","2019-03-14 00:00","2019","03","14","00:00","1.7","","0.6","","92","","","M","15","","12","","","M","98.49","","","","","","NA"
"-82.47","49.41","KAPUSKASING A","6073978","2019-03-14 01:00","2019","03","14","01:00","1.8","","0.7","","93","","","M","15","","14","","","M","98.47","","","","","","NA"
"-82.47","49.41","KAPUSKASING A","6073978","2019-03-14 02:00","2019","03","14","02:00","1.9","","1.0","","94","","","M","16","","16","","","M","98.50","","","","","","NA"
"-82.47","49.41","KAPUSKASING A","6073978","2019-03-14 03:00","2019","03","14","03:00","1.4","","0.7","","95","","","M","15","","17","","","M","98.46","","","","","","NA"
"-82.47","49.41","KAPUSKASING A","6073978","2019-03-14 04:00","2019","03","14","04:00","1.1","","0.7","","97","","","M","15","","17","","","M","98.30","","","","","","NA"
"-82.47","49.41","KAPUSKASING A","6073978","2019-03-14 05:00","2019","03","14","05:00","1.2","","0.8","","97","","","M","12","","19","","","M","98.21","","","","","","NA"
"-82.47","49.41","KAPUSKASING A","6073978","2019-03-14 06:00","2019","03","14","06:00","1.0","","0.6","","97","","","M","14","","22","","","M","98.06","","","","","","NA"
"-82.47","49.41","KAPUSKASING A","6073978","2019-03-14 07:00","2019","03","14","07:00","1.2","","0.8","","97","","","M","14","","24","","","M","97.97","","","","","","NA"
"-82.47","49.41","KAPUSKASING A","6073978","2019-03-14 08:00","2019","03","14","08:00","1.2","","0.7","","96","","","M","13","","22","","","M","97.82","","","","","","NA"
"-82.47","49.41","KAPUSKASING A","6073978","2019-03-14 09:00","2019","03","14","09:00","1.6","","1.0","","96","","","M","13","","21","","","M","97.68","","","","","","NA"
"-82.47","49.41","KAPUSKASING A","6073978","2019-03-14 10:00","2019","03","14","10:00","1.9","","1.4","","96","","","M","13","","27","","","M","97.48","","","","","","NA"
"-82.47","49.41","KAPUSKASING A","6073978","2019-03-14 11:00","2019","03","14","11:00","2.4","","1.6","","95","","","M","14","","25","","","M","97.40","","","","","","NA"
"-82.47","49.41","KAPUSKASING A","6073978","2019-03-14 12:00","2019","03","14","12:00","2.8","","1.9","","94","","","M","15","","23","","","M","97.20","","","","","","NA"
"-82.47","49.41","KAPUSKASING A","6073978","2019-03-14 13:00","2019","03","14","13:00","3.1","","2.4","","95","","","M","15","","24","","","M","97.12","","","","","","NA"
"-82.47","49.41","KAPUSKASING A","6073978","2019-03-14 14:00","2019","03","14","14:00","3.9","","3.1","","95","","","M","16","","22","","","M","96.97","","","","","","NA"
"-82.47","49.41","KAPUSKASING A","6073978","2019-03-14 15:00","2019","03","14","15:00","4.6","","3.9","","95","","","M","16","","21","","","M","96.86","","","","","","NA"
"-82.47","49.41","KAPUSKASING A","6073978","2019-03-14 16:00","2019","03","14","16:00","5.0","","4.2","","95","","","M","17","","20","","","M","96.80","","","","","","NA"
"-82.47","49.41","KAPUSKASING A","6073978","2019-03-14 17:00","2019","03","14","17:00","5.0","","4.6","","97","","","M","16","","23","","","M","96.73","","","","","","NA"
"-82.47","49.41","KAPUSKASING A","6073978","2019-03-14 18:00","2019","03","14","18:00","4.6","","4.1","","96","","","M","16","","22","","","M","96.67","","","","","","NA"
"-82.47","49.41","KAPUSKASING A","6073978","2019-03-14 19:00","2019","03","14","19:00","4.5","","4.2","","98","","","M","16","","26","","","M","96.60","","","","","","NA"
"-82.47","49.41","KAPUSKASING A","6073978","2019-03-14 20:00","2019","03","14","20:00","4.5","","4.2","","98","","","M","16","","28","","","M","96.55","","","","","","NA"
"-82.47","49.41","KAPUSKASING A","6073978","2019-03-14 21:00","2019","03","14","21:00","3.6","","3.5","","99","","","M","16","","21","","","M","96.47","","","","","","NA"
"-82.47","49.41","KAPUSKASING A","6073978","2019-03-14 22:00","2019","03","14","22:00","3.2","","3.1","","100","","","M","14","","16","","","M","96.32","","","","","","NA"
"-82.47","49.41","KAPUSKASING A","6073978","2019-03-14 23:00","2019","03","14","23:00","3.1","","3.1","","100","","","M","17","","11","","","M","96.28","","","","","","NA"
"-82.47","49.41","KAPUSKASING A","6073978","2019-03-15 00:00","2019","03","15","00:00","3.5","","3.5","","100","","","M","16","","16","","","M","96.15","","","","","","NA"
"-82.47","49.41","KAPUSKASING A","6073978","2019-03-15 01:00","2019","03","15","01:00","3.5","","3.5","","100","","","M","16","","16","","","M","96.06","","","","","","NA"
"-82.47","49.41","KAPUSKASING A","6073978","2019-03-15 02:00","2019","03","15","02:00","3.4","","3.4","","100","","","M","17","","11","","","M","96.00","","","","","","NA"
"-82.47","49.41","KAPUSKASING A","6073978","2019-03-15 03:00","2019","03","15","03:00","3.7","","3.7","","100","","","M","20","","7","","","M","95.92","","","","","","NA"
"-82.47","49.41","KAPUSKASING A","6073978","2019-03-15 04:00","2019","03","15","04:00","3.8","","3.8","","100","","","M","24","","7","","","M","95.89","","","","","","NA"
"-82.47","49.41","KAPUSKASING A","6073978","2019-03-15 05:00","2019","03","15","05:00","2.3","","2.3","","100","","","M","31","","28","","","M","95.96","","","","","","NA"
"-82.47","49.41","KAPUSKASING A","6073978","2019-03-15 06:00","2019","03","15","06:00","0.0","","0.0","","100","","","M","32","","35","","","M","96.15","","","","-7","","NA"
"-82.47","49.41","KAPUSKASING A","6073978","2019-03-15 07:00","2019","03","15","07:00","-3.4","","-4.9","","90","","","M","31","","37","","","M","96.39","","","","-12","","NA"
"-82.47","49.41","KAPUSKASING A","6073978","2019-03-15 08:00","2019","03","15","08:00","-6.2","","-8.5","","84","","","M","31","","39","","","M","96.58","","","","-16","","NA"
"-82.47","49.41","KAPUSKASING A","6073978","2019-03-15 09:00","2019","03","15","09:00","-6.8","","-8.9","","85","","","M","32","","27","","","M","96.76","","","","-15","","NA"
"-82.47","49.41","KAPUSKASING A","6073978","2019-03-15 10:00","2019","03","15","10:00","-7.6","","-10.7","","79","","","M","33","","30","","","M","96.93","","","","-16","","NA"
"-82.47","49.41","KAPUSKASING A","6073978","2019-03-15 11:00","2019","03","15","11:00","-8.0","","-11.4","","77","","","M","31","","34","","","M","97.08","","","","-17","","NA"
"-82.47","49.41","KAPUSKASING A","6073978","2019-03-15 12:00","2019","03","15","12:00","-8.1","","-11.5","","77","","","M","31","","22","","","M","97.20","","","","-16","","NA"
"-82.47","49.41","KAPUSKASING A","6073978","2019-03-15 13:00","2019","03","15","13:00","-7.8","","-11.3","","76","","","M","31","","22","","","M","97.31","","","","-15","","NA"
"-82.47","49.41","KAPUSKASING A","6073978","2019-03-15 14:00","2019","03","15","14:00","-8.0","","-11.5","","76","","","M","31","","28","","","M","97.37","","","","-17","","NA"
"-82.47","49.41","KAPUSKASING A","6073978","2019-03-15 15:00","2019","03","15","15:00","-7.9","","-10.6","","81","","","M","31","","23","","","M","97.50","","","","-16","","NA"
"-82.47","49.41","KAPUSKASING A","6073978","2019-03-15 16:00","2019","03","15","16:00","-7.9","","-10.1","","84","","","M","31","","18","","","M","97.61","","","","-15","","NA"
"-82.47","49.41","KAPUSKASING A","6073978","2019-03-15 17:00","2019","03","15","17:00","-8.1","","-10.2","","85","","","M","31","","24","","","M","97.71","","","","-16","","NA"
"-82.47","49.41","KAPUSKASING A","6073978","2019-03-15 18:00","2019","03","15","18:00","-8.4","","-10.4","","86","","","M","31","","23","","","M","97.86","","","","-16","","NA"
"-82.47","49.41","KAPUSKASING A","6073978","2019-03-15 19:00","2019","03","15","19:00","-9.2","","-11.4","","84","","","M","33","","32","","","M","97.97","","","","-19","","NA"
"-82.47","49.41","KAPUSKASING A","6073978","2019-03-15 20:00","2019","03","15","20:00","-9.4","","-11.4","","86","","","M","31","","22","","","M","98.06","","","","-17","","NA"
"-82.47","49.41","KAPUSKASING A","6073978","2019-03-15 21:00","2019","03","15","21:00","-9.6","","-12.0","","83","","","M","33","","28","","","M","98.14","","","","-19","","NA"
"-82.47","49.41","KAPUSKASING A","6073978","2019-03-15 22:00","2019","03","15","22:00","-9.8","","-12.2","","83","","","M","32","","24","","","M","98.21","","","","-18","","NA"
"-82.47","49.41","KAPUSKASING A","6073978","2019-03-15 23:00","2019","03","15","23:00","-10.4","","-13.1","","80","","","M","33","","33","","","M","98.29","","","","-20","","NA"
"-82.47","49.41","KAPUSKASING A","6073978","2019-03-16 00:00","2019","03","16","00:00","-10.7","","-13.0","","83","","","M","32","","30","","","M","98.34","","","","-20","","NA"
"-82.47","49.41","KAPUSKASING A","6073978","2019-03-16 01:00","2019","03","16","01:00","-11.6","","-13.8","","84","","","M","32","","20","","","M","98.42","","","","-20","","NA"
"-82.47","49.41","KAPUSKASING A","6073978","2019-03-16 02:00","2019","03","16","02:00","-12.6","","-15.2","","81","","","M","33","","22","","","M","98.52","","","","-22","","NA"
"-82.47","49.41","KAPUSKASING A","6073978","2019-03-16 03:00","2019","03","16","03:00","-12.7","","-15.4","","80","","","M","31","","21","","","M","98.55","","","","-21","","NA"
"-82.47","49.41","KAPUSKASING A","6073978","2019-03-16 04:00","2019","03","16","04:00","-13.1","","-15.7","","81","","","M","31","","16","","","M","98.60","","","","-21","","NA"
"-82.47","49.41","KAPUSKASING A","6073978","2019-03-16 05:00","2019","03","16","05:00","-13.1","","-15.8","","80","","","M","31","","16","","","M","98.69","","","","-21","","NA"
"-82.47","49.41","KAPUSKASING A","6073978","2019-03-16 06:00","2019","03","16","06:00","-13.6","","-16.1","","82","","","M","30","","15","","","M","98.79","","","","-21","","NA"
"-82.47","49.41","KAPUSKASING A","6073978","2019-03-16 07:00","2019","03","16","07:00","-13.2","","-15.7","","82","","","M","30","","13","","","M","98.85","","","","-20","","NA"
"-82.47","49.41","KAPUSKASING A","6073978","2019-03-16 08:00","2019","03","16","08:00","-12.7","","-15.3","","81","","","M","30","","17","","","M","98.90","","","","-21","","NA"
"-82.47","49.41","KAPUSKASING A","6073978","2019-03-16 09:00","2019","03","16","09:00","-12.2","","-15.3","","78","","","M","31","","24","","","M","98.95","","","","-21","","NA"
"-82.47","49.41","KAPUSKASING A","6073978","2019-03-16 10:00","2019","03","16","10:00","-11.2","","-15.4","","71","","","M","30","","27","","","M","98.99","","","","-21","","NA"
"-82.47","49.41","KAPUSKASING A","6073978","2019-03-16 11:00","2019","03","16","11:00","-10.4","","-15.7","","66","","","M","31","","24","","","M","99.01","","","","-19","","NA"
"-82.47","49.41","KAPUSKASING A","6073978","2019-03-16 12:00","2019","03","16","12:00","-10.1","","-14.4","","71","","","M","28","","19","","","M","99.03","","","","-18","","NA"
"-82.47","49.41","KAPUSKASING A","6073978","2019-03-16 13:00","2019","03","16","13:00","-9.4","","-15.2","","63","","","M","29","","23","","","M","99.03","","","","-18","","NA"
"-82.47","49.41","KAPUSKASING A","6073978","2019-03-16 14:00","2019","03","16","14:00","-9.1","","-14.8","","64","","","M","28","","23","","","M","99.02","","","","-17","","NA"
"-82.47","49.41","KAPUSKASING A","6073978","2019-03-16 15:00","2019","03","16","15:00","-9.1","","-13.6","","70","","","M","27","","27","","","M","99.01","","","","-18","","NA"
"-82.47","49.41","KAPUSKASING A","6073978","2019-03-16 16:00","2019","03","16","16:00","-8.6","","-13.8","","66","","","M","30","","26","","","M","99.02","","","","-17","","NA"
"-82.47","49.41","KAPUSKASING A","6073978","2019-03-16 17:00","2019","03","16","17:00","-8.7","","-13.2","","70","","","M","30","","18","","","M","99.06","","","","-16","","NA"
"-82.47","49.41","KAPUSKASING A","6073978","2019-03-16 18:00","2019","03","16","18:00","-8.8","","-13.1","","71","","","M","29","","16","","","M","99.09","","","","-16","","NA"
"-82.47","49.41","KAPUSKASING A","6073978","2019-03-16 19:00","2019","03","16","19:00","-9.2","","-12.2","","79","","","M","30","","13","","","M","99.13","","","","-15","","NA"
"-82.47","49.41","KAPUSKASING A","6073978","2019-03-16 20:00","2019","03","16","20:00","-9.2","","-12.6","","77","","","M","28","","13","","","M","99.14","","","","-15","","NA"
"-82.47","49.41","KAPUSKASING A","6073978","2019-03-16 21:00","2019","03","16","21:00","-9.2","","-12.2","","79","","","M","29","","16","","","M","99.14","","","","-16","","NA"
"-82.47","49.41","KAPUSKASING A","6073978","2019-03-16 22:00","2019","03","16","22:00","-9.4","","-12.0","","82","","","M","28","","11","","","M","99.14","","","","-15","","NA"
"-82.47","49.41","KAPUSKASING A","6073978","2019-03-16 23:00","2019","03","16","23:00","-9.6","","-12.0","","83","","","M","32","","17","","","M","99.15","","","","-17","","NA"
"-82.47","49.41","KAPUSKASING A","6073978","2019-03-17 00:00","2019","03","17","00:00","-10.2","","-13.1","","80","","","M","33","","14","","","M","99.16","","","","-17","","NA"
"-82.47","49.41","KAPUSKASING A","6073978","2019-03-17 01:00","2019","03","17","01:00","-10.6","","-13.6","","79","","","M","32","","22","","","M","99.16","","","","-19","","NA"
"-82.47","49.41","KAPUSKASING A","6073978","2019-03-17 02:00","2019","03","17","02:00","-12.7","","-15.7","","78","","","M","30","","10","","","M","99.19","","","","-18","","NA"
"-82.47","49.41","KAPUSKASING A","6073978","2019-03-17 03:00","2019","03","17","03:00","-14.0","","-16.7","","80","","","M","28","","10","","","M","99.18","","","","-20","","NA"
"-82.47","49.41","KAPUSKASING A","6073978","2019-03-17 04:00","2019","03","17","04:00","-15.0","","-17.3","","83","","","M","27","","9","","","M","99.17","","","","-21","","NA"
"-82.47","49.41","KAPUSKASING A","6073978","2019-03-17 05:00","2019","03","17","05:00","-15.6","","-17.6","","85","","","M","29","","8","","","M","99.22","","","","-21","","NA"
"-82.47","49.41","KAPUSKASING A","6073978","2019-03-17 06:00","2019","03","17","06:00","-19.1","","-20.9","","86","","","M","26","","6","","","M","99.25","","","","-24","","NA"
"-82.47","49.41","KAPUSKASING A","6073978","2019-03-17 07:00","2019","03","17","07:00","-17.1","","-18.8","","86","","","M","28","","11","","","M","99.29","","","","-24","","NA"
"-82.47","49.41","KAPUSKASING A","6073978","2019-03-17 08:00","2019","03","17","08:00","-15.8","","-18.4","","81","","","M","30","","13","","","M","99.35","","","","-23","","NA"
"-82.47","49.41","KAPUSKASING A","6073978","2019-03-17 09:00","2019","03","17","09:00","-13.5","","-19.0","","64","","","M","30","","18","","","M","99.38","","","","-22","","NA"
"-82.47","49.41","KAPUSKASING A","6073978","2019-03-17 10:00","2019","03","17","10:00","-12.2","","-18.8","","59","","","M","32","","26","","","M","99.40","","","","-22","","NA"
"-82.47","49.41","KAPUSKASING A","6073978","2019-03-17 11:00","2019","03","17","11:00","-10.5","","-18.9","","51","","","M","30","","19","","","M","99.42","","","","-18","","NA"
"-82.47","49.41","KAPUSKASING A","6073978","2019-03-17 12:00","2019","03","17","12:00","-9.0","","-18.8","","45","","","M","31","","21","","","M","99.44","","","","-17","","NA"
"-82.47","49.41","KAPUSKASING A","6073978","2019-03-17 13:00","2019","03","17","13:00","-8.0","","-18.9","","42","","","M","29","","20","","","M","99.43","","","","-15","","NA"
"-82.47","49.41","KAPUSKASING A","6073978","2019-03-17 14:00","2019","03","17","14:00","-7.0","","-17.4","","44","","","M","32","","19","","","M","99.40","","","","-14","","NA"
"-82.47","49.41","KAPUSKASING A","6073978","2019-03-17 15:00","2019","03","17","15:00","-6.6","","-17.7","","41","","","M","29","","17","","","M","99.41","","","","-13","","NA"
"-82.47","49.41","KAPUSKASING A","6073978","2019-03-17 16:00","2019","03","17","16:00","-6.4","","-17.0","","43","","","M","31","","26","","","M","99.41","","","","-14","","NA"
"-82.47","49.41","KAPUSKASING A","6073978","2019-03-17 17:00","2019","03","17","17:00","-6.8","","-17.4","","43","","","M","31","","23","","","M","99.44","","","","-14","","NA"
"-82.47","49.41","KAPUSKASING A","6073978","2019-03-17 18:00","2019","03","17","18:00","-7.6","","-17.6","","45","","","M","32","","19","","","M","99.49","","","","-15","","NA"
"-82.47","49.41","KAPUSKASING A","6073978","2019-03-17 19:00","2019","03","17","19:00","-10.0","","-19.1","","48","","","M","34","","10","","","M","99.53","","","","-15","","NA"
"-82.47","49.41","KAPUSKASING A","6073978","2019-03-17 20:00","2019","03","17","20:00","-11.7","","-19.4","","53","","","M","33","","8","","","M","99.56","","","","-16","","NA"
"-82.47","49.41","KAPUSKASING A","6073978","2019-03-17 21:00","2019","03","17","21:00","-13.4","","-20.5","","56","","","M","32","","8","","","M","99.58","","","","-18","","NA"
"-82.47","49.41","KAPUSKASING A","6073978","2019-03-17 22:00","2019","03","17","22:00","-15.6","","-21.3","","62","","","M","33","","7","","","M","99.59","","","","-21","","NA"
"-82.47","49.41","KAPUSKASING A","6073978","2019-03-17 23:00","2019","03","17","23:00","-17.7","","-22.8","","65","","","M","31","","8","","","M","99.61","","","","-24","","NA"
"-82.47","49.41","KAPUSKASING A","6073978","2019-03-18 00:00","2019","03","18","00:00","-17.2","","-22.7","","63","","","M","33","","9","","","M","99.64","","","","-23","","NA"
"-82.47","49.41","KAPUSKASING A","6073978","2019-03-18 01:00","2019","03","18","01:00","-19.9","","-24.2","","69","","","M","30","","5","","","M","99.64","","","","-24","","NA"
"-82.47","49.41","KAPUSKASING A","6073978","2019-03-18 02:00","2019","03","18","02:00","-21.8","","-25.3","","73","","","M","30","","7","","","M","99.68","","","","-28","","NA"
"-82.47","49.41","KAPUSKASING A","6073978","2019-03-18 03:00","2019","03","18","03:00","-22.9","","-26.4","","73","","","M","26","","5","","","M","99.66","","","","-28","","NA"
"-82.47","49.41","KAPUSKASING A","6073978","2019-03-18 04:00","2019","03","18","04:00","-23.8","","-26.8","","77","","","M","24","","7","","","M","99.67","","","","-30","","NA"
"-82.47","49.41","KAPUSKASING A","6073978","2019-03-18 05:00","2019","03","18","05:00","-23.4","","-26.4","","77","","","M","26","","3","","","M","99.70","","","","-26","","NA"
"-82.47","49.41","KAPUSKASING A","6073978","2019-03-18 06:00","2019","03","18","06:00","-25.4","","-28.7","","74","","","M","23","","1","","","M","99.74","","","","-26","","NA"
"-82.47","49.41","KAPUSKASING A","6073978","2019-03-18 07:00","2019","03","18","07:00","-24.9","","-27.9","","76","","","M","25","","2","","","M","99.74","","","","-27","","NA"
"-82.47","49.41","KAPUSKASING A","6073978","2019-03-18 08:00","2019","03","18","08:00","-24.2","","-27.6","","74","","","M","20","","1","","","M","99.77","","","","-25","","NA"
"-82.47","49.41","KAPUSKASING A","6073978","2019-03-18 09:00","2019","03","18","09:00","-18.1","","-22.7","","68","","","M","34","","4","","","M","99.78","","","","-21","","NA"
"-82.47","49.41","KAPUSKASING A","6073978","2019-03-18 10:00","2019","03","18","10:00","-12.3","","-20.4","","52","","","M","33","","10","","","M","99.76","","","","-18","","NA"
"-82.47","49.41","KAPUSKASING A","6073978","2019-03-18 11:00","2019","03","18","11:00","-9.7","","-20.5","","42","","","M","33","","9","","","M","99.76","","","","-15","","NA"
"-82.47","49.41","KAPUSKASING A","6073978","2019-03-18 12:00","2019","03","18","12:00","-7.9","","-20.9","","35","","","M","29","","6","","","M","99.75","","","","-11","","NA"
"-82.47","49.41","KAPUSKASING A","6073978","2019-03-18 13:00","2019","03","18","13:00","-6.5","","-21.1","","31","","","M","33","","10","","","M","99.72","","","","-11","","NA"
"-82.47","49.41","KAPUSKASING A","6073978","2019-03-18 14:00","2019","03","18","14:00","-5.2","","-19.7","","31","","","M","34","","11","","","M","99.65","","","","-10","","NA"
"-82.47","49.41","KAPUSKASING A","6073978","2019-03-18 15:00","2019","03","18","15:00","-5.1","","-18.3","","35","","","M","14","","11","","","M","99.63","","","","-10","","NA"
"-82.47","49.41","KAPUSKASING A","6073978","2019-03-18 16:00","2019","03","18","16:00","-5.0","","-17.2","","38","","","M","12","","10","","","M","99.60","","","","-9","","NA"
"-82.47","49.41","KAPUSKASING A","6073978","2019-03-18 17:00","2019","03","18","17:00","-4.9","","-17.8","","36","","","M","12","","8","","","M","99.60","","","","-8","","NA"
"-82.47","49.41","KAPUSKASING A","6073978","2019-03-18 18:00","2019","03","18","18:00","-5.7","","-18.7","","36","","","M","12","","8","","","M","99.61","","","","-9","","NA"
"-82.47","49.41","KAPUSKASING A","6073978","2019-03-18 19:00","2019","03","18","19:00","-7.7","","-18.6","","42","","","M","11","","6","","","M","99.63","","","","-11","","NA"
"-82.47","49.41","KAPUSKASING A","6073978","2019-03-18 20:00","2019","03","18","20:00","-8.4","","-18.2","","46","","","M","9","","7","","","M","99.65","","","","-12","","NA"
"-82.47","49.41","KAPUSKASING A","6073978","2019-03-18 21:00","2019","03","18","21:00","-11.6","","-19.7","","52","","","M","12","","7","","","M","99.67","","","","-16","","NA"
"-82.47","49.41","KAPUSKASING A","6073978","2019-03-18 22:00","2019","03","18","22:00","-13.2","","-19.4","","60","","","M","11","","3","","","M","99.68","","","","-15","","NA"
"-82.47","49.41","KAPUSKASING A","6073978","2019-03-18 23:00","2019","03","18","23:00","-14.9","","-20.7","","62","","","M","15","","6","","","M","99.66","","","","-19","","NA"
"-82.47","49.41","KAPUSKASING A","6073978","2019-03-19 00:00","2019","03","19","00:00","-15.9","","-20.8","","66","","","M","15","","7","","","M","99.64","","","","-21","","NA"
"-82.47","49.41","KAPUSKASING A","6073978","2019-03-19 01:00","2019","03","19","01:00","-14.9","","-20.3","","64","","","M","14","","6","","","M","99.64","","","","-19","","NA"
"-82.47","49.41","KAPUSKASING A","6073978","2019-03-19 02:00","2019","03","19","02:00","-16.7","","-20.3","","74","","","M","15","","6","","","M","99.63","","","","-21","","NA"
"-82.47","49.41","KAPUSKASING A","6073978","2019-03-19 03:00","2019","03","19","03:00","-13.3","","-19.9","","58","","","M","17","","7","","","M","99.61","","","","-18","","NA"
"-82.47","49.41","KAPUSKASING A","6073978","2019-03-19 04:00","2019","03","19","04:00","-11.6","","-18.2","","59","","","M","18","","7","","","M","99.58","","","","-16","","NA"
"-82.47","49.41","KAPUSKASING A","6073978","2019-03-19 05:00","2019","03","19","05:00","-12.0","","-17.2","","65","","","M","17","","8","","","M","99.56","","","","-17","","NA"
"-82.47","49.41","KAPUSKASING A","6073978","2019-03-19 06:00","2019","03","19","06:00","-10.6","","-14.7","","72","","","M","17","","7","","","M","99.57","","","","-15","","NA"
"-82.47","49.41","KAPUSKASING A","6073978","2019-03-19 07:00","2019","03","19","07:00","-9.4","","-13.0","","75","","","M","20","","8","","","M","99.60","","","","-14","","NA"
"-82.47","49.41","KAPUSKASING A","6073978","2019-03-19 08:00","2019","03","19","08:00","-7.8","","-10.5","","81","","","M","22","","13","","","M","99.58","","","","-14","","NA"
"-82.47","49.41","KAPUSKASING A","6073978","2019-03-19 09:00","2019","03","19","09:00","-4.7","","-8.0","","78","","","M","25","","16","","","M","99.58","","","","-10","","NA"
"-82.47","49.41","KAPUSKASING A","6073978","2019-03-19 10:00","2019","03","19","10:00","-2.5","","-6.9","","72","","","M","24","","14","","","M","99.54","","","","-7","","NA"
"-82.47","49.41","KAPUSKASING A","6073978","2019-03-19 11:00","2019","03","19","11:00","0.0","","-5.8","","65","","","M","24","","10","","","M","99.48","","","","-3","","NA"
"-82.47","49.41","KAPUSKASING A","6073978","2019-03-19 12:00","2019","03","19","12:00","2.5","","-5.6","","55","","","M","22","","17","","","M","99.38","","","","","","NA"
"-82.47","49.41","KAPUSKASING A","6073978","2019-03-19 13:00","2019","03","19","13:00","3.2","","-6.5","","49","","","M","22","","18","","","M","99.31","","","","","","NA"
"-82.47","49.41","KAPUSKASING A","6073978","2019-03-19 14:00","2019","03","19","14:00","3.4","","-6.5","","48","","","M","24","","18","","","M","99.23","","","","","","NA"
"-82.47","49.41","KAPUSKASING A","6073978","2019-03-19 15:00","2019","03","19","15:00","4.0","","-5.9","","49","","","M","21","","23","","","M","99.15","","","","","","NA"
"-82.47","49.41","KAPUSKASING A","6073978","2019-03-19 16:00","2019","03","19","16:00","3.8","","-5.1","","52","","","M","22","","27","","","M","99.09","","","","","","NA"
"-82.47","49.41","KAPUSKASING A","6073978","2019-03-19 17:00","2019","03","19","17:00","3.3","","-4.6","","56","","","M","21","","31","","","M","99.02","","","","","","NA"
"-82.47","49.41","KAPUSKASING A","6073978","2019-03-19 18:00","2019","03","19","18:00","2.6","","-4.0","","62","","","M","20","","17","","","M","98.93","","","","","","NA"
"-82.47","49.41","KAPUSKASING A","6073978","2019-03-19 19:00","2019","03","19","19:00","2.0","","-4.2","","64","","","M","19","","15","","","M","98.90","","","","","","NA"
"-82.47","49.41","KAPUSKASING A","6073978","2019-03-19 20:00","2019","03","19","20:00","2.4","","-5.0","","58","","","M","22","","19","","","M","98.83","","","","","","NA"
"-82.47","49.41","KAPUSKASING A","6073978","2019-03-19 21:00","2019","03","19","21:00","2.1","","-5.0","","59","","","M","","M","","M","","M","98.75","","","","","","NA"
"-82.47","49.41","KAPUSKASING A","6073978","2019-03-19 22:00","2019","03","19","22:00","1.6","","-4.8","","63","","","M","21","","16","","","M","98.67","","","","","","NA"
"-82.47","49.41","KAPUSKASING A","6073978","2019-03-19 23:00","2019","03","19","23:00","1.9","","-4.8","","62","","","M","21","","16","","","M","98.61","","","","","","NA"
"-82.47","49.41","KAPUSKASING A","6073978","2019-03-20 00:00","2019","03","20","00:00","2.0","","-4.9","","60","","","M","22","","18","","","M","98.59","","","","","","NA"
"-82.47","49.41","KAPUSKASING A","6073978","2019-03-20 01:00","2019","03","20","01:00","1.1","","-5.4","","62","","","M","21","","20","","","M","98.52","","","","","","NA"
"-82.47","49.41","KAPUSKASING A","6073978","2019-03-20 02:00","2019","03","20","02:00","1.0","","-5.4","","62","","","M","19","","18","","","M","98.47","","","","","","NA"
"-82.47","49.41","KAPUSKASING A","6073978","2019-03-20 03:00","2019","03","20","03:00","0.9","","-5.0","","65","","","M","20","","18","","","M","98.41","","","","","","NA"
"-82.47","49.41","KAPUSKASING A","6073978","2019-03-20 04:00","2019","03","20","04:00","1.2","","-4.6","","65","","","M","21","","21","","","M","98.38","","","","","","NA"
"-82.47","49.41","KAPUSKASING A","6073978","2019-03-20 05:00","2019","03","20","05:00","1.3","","-3.6","","70","","","M","22","","16","","","M","98.38","","","","","","NA"
"-82.47","49.41","KAPUSKASING A","6073978","2019-03-20 06:00","2019","03","20","06:00","0.5","","-1.6","","86","","","M","23","","13","","","M","98.40","","","","","","NA"
"-82.47","49.41","KAPUSKASING A","6073978","2019-03-20 07:00","2019","03","20","07:00","-0.3","","-0.9","","95","","","M","17","","4","","","M","98.46","","","","-2","","NA"
"-82.47","49.41","KAPUSKASING A","6073978","2019-03-20 08:00","2019","03","20","08:00","-0.6","","-0.9","","98","","","M","13","","6","","","M","98.50","","","","-3","","NA"
"-82.47","49.41","KAPUSKASING A","6073978","2019-03-20 09:00","2019","03","20","09:00","0.5","","-0.4","","94","","","M","19","","12","","","M","98.49","","","","","","NA"
"-82.47","49.41","KAPUSKASING A","6073978","2019-03-20 10:00","2019","03","20","10:00","1.1","","-0.4","","90","","","M","21","","11","","","M","98.51","","","","","","NA"
"-82.47","49.41","KAPUSKASING A","6073978","2019-03-20 11:00","2019","03","20","11:00","1.9","","-0.1","","87","","","M","23","","10","","","M","98.54","","","","","","NA"
"-82.47","49.41","KAPUSKASING A","6073978","2019-03-20 12:00","2019","03","20","12:00","1.8","","0.1","","88","","","M","21","","13","","","M","98.55","","","","","","NA"
"-82.47","49.41","KAPUSKASING A","6073978","2019-03-20 13:00","2019","03","20","13:00","2.5","","0.1","","84","","","M","18","","2","","","M","98.60","","","","","","NA"
"-82.47","49.41","KAPUSKASING A","6073978","2019-03-20 14:00","2019","03","20","14:00","2.0","","0.5","","90","","","M","16","","4","","","M","98.60","","","","","","NA"
"-82.47","49.41","KAPUSKASING A","6073978","2019-03-20 15:00","2019","03","20","15:00","2.1","","0.7","","90","","","M","5","","4","","","M","98.61","","","","","","NA"
"-82.47","49.41","KAPUSKASING A","6073978","2019-03-20 16:00","2019","03","20","16:00","1.8","","1.0","","95","","","M","1","","6","","","M","98.63","","","","","","NA"
"-82.47","49.41","KAPUSKASING A","6073978","2019-03-20 17:00","2019","03","20","17:00","1.9","","1.2","","95","","","M","3","","4","","","M","98.65","","","","","","NA"
"-82.47","49.41","KAPUSKASING A","6073978","2019-03-20 18:00","2019","03","20","18:00","1.8","","1.2","","96","","","M","36","","4","","","M","98.69","","","","","","NA"
"-82.47","49.41","KAPUSKASING A","6073978","2019-03-20 19:00","2019","03","20","19:00","1.5","","1.0","","96","","","M","2","","3","","","M","98.71","","","","","","NA"
"-82.47","49.41","KAPUSKASING A","6073978","2019-03-20 20:00","2019","03","20","20:00","0.9","","0.6","","98","","","M","34","","6","","","M","98.74","","","","","","NA"
"-82.47","49.41","KAPUSKASING A","6073978","2019-03-20 21:00","2019","03","20","21:00","0.8","","0.4","","97","","","M","35","","5","","","M","98.75","","","","","","NA"
"-82.47","49.41","KAPUSKASING A","6073978","2019-03-20 22:00","2019","03","20","22:00","0.4","","0.2","","99","","","M","24","","2","","","M","98.74","","","","","","NA"
"-82.47","49.41","KAPUSKASING A","6073978","2019-03-20 23:00","2019","03","20","23:00","0.2","","0.1","","99","","","M","23","","4","","","M","98.72","","","","","","NA"
"-82.47","49.41","KAPUSKASING A","6073978","2019-03-21 00:00","2019","03","21","00:00","-0.1","","-0.2","","99","","","M","23","","4","","","M","98.68","","","","-1","","NA"
"-82.47","49.41","KAPUSKASING A","6073978","2019-03-21 01:00","2019","03","21","01:00","-0.1","","-0.1","","100","","","M","31","","7","","","M","98.66","","","","-3","","NA"
"-82.47","49.41","KAPUSKASING A","6073978","2019-03-21 02:00","2019","03","21","02:00","0.0","","0.0","","99","","","M","30","","5","","","M","98.62","","","","-2","","NA"
"-82.47","49.41","KAPUSKASING A","6073978","2019-03-21 03:00","2019","03","21","03:00","-0.3","","-0.4","","99","","","M","23","","3","","","M","98.53","","","","-1","","NA"
"-82.47","49.41","KAPUSKASING A","6073978","2019-03-21 04:00","2019","03","21","04:00","-0.4","","-0.5","","100","","","M","24","","7","","","M","98.48","","","","-3","","NA"
"-82.47","49.41","KAPUSKASING A","6073978","2019-03-21 05:00","2019","03","21","05:00","-0.6","","-0.6","","100","","","M","21","","8","","","M","98.41","","","","-3","","NA"
"-82.47","49.41","KAPUSKASING A","6073978","2019-03-21 06:00","2019","03","21","06:00","-0.3","","-0.4","","100","","","M","23","","9","","","M","98.35","","","","-3","","NA"
"-82.47","49.41","KAPUSKASING A","6073978","2019-03-21 07:00","2019","03","21","07:00","-0.1","","-0.2","","99","","","M","24","","10","","","M","98.31","","","","-3","","NA"
"-82.47","49.41","KAPUSKASING A","6073978","2019-03-21 08:00","2019","03","21","08:00","0.3","","-0.2","","97","","","M","23","","12","","","M","98.24","","","","","","NA"
"-82.47","49.41","KAPUSKASING A","6073978","2019-03-21 09:00","2019","03","21","09:00","0.8","","0.0","","94","","","M","22","","17","","","M","98.13","","","","","","NA"
"-82.47","49.41","KAPUSKASING A","6073978","2019-03-21 10:00","2019","03","21","10:00","1.4","","0.1","","91","","","M","22","","22","","","M","97.99","","","","","","NA"
"-82.47","49.41","KAPUSKASING A","6073978","2019-03-21 11:00","2019","03","21","11:00","2.3","","-0.5","","81","","","M","21","","27","","","M","97.85","","","","","","NA"
"-82.47","49.41","KAPUSKASING A","6073978","2019-03-21 12:00","2019","03","21","12:00","2.7","","-2.3","","70","","","M","23","","29","","","M","97.75","","","","","","NA"
"-82.47","49.41","KAPUSKASING A","6073978","2019-03-21 13:00","2019","03","21","13:00","4.1","","-2.7","","61","","","M","23","","28","","","M","97.61","","","","","","NA"
"-82.47","49.41","KAPUSKASING A","6073978","2019-03-21 14:00","2019","03","21","14:00","4.0","","-3.0","","60","","","M","23","","30","","","M","97.56","","","","","","NA"
"-82.47","49.41","KAPUSKASING A","6073978","2019-03-21 15:00","2019","03","21","15:00","1.2","","-0.4","","89","","","M","24","","27","","","M","97.57","","","","","","NA"
"-82.47","49.41","KAPUSKASING A","6073978","2019-03-21 16:00","2019","03","21","16:00","1.7","","0.5","","92","","","M","23","","19","","","M","97.52","","","","","","NA"
"-82.47","49.41","KAPUSKASING A","6073978","2019-03-21 17:00","2019","03","21","17:00","1.6","","0.6","","93","","","M","23","","19","","","M","97.49","","","","","","NA"
"-82.47","49.41","KAPUSKASING A","6073978","2019-03-21 18:00","2019","03","21","18:00","0.6","","-0.1","","95","","","M","29","","12","","","M","97.56","","","","","","NA"
"-82.47","49.41","KAPUSKASING A","6073978","2019-03-21 19:00","2019","03","21","19:00","0.2","","-0.7","","94","","","M","33","","35","","","M","97.64","","","","","","NA"
"-82.47","49.41","KAPUSKASING A","6073978","2019-03-21 20:00","2019","03","21","20:00","-0.6","","-1.9","","91","","","M","34","","27","","","M","97.78","","","","-7","","NA"
"-82.47","49.41","KAPUSKASING A","6073978","2019-03-21 21:00","2019","03","21","21:00","-1.1","","-2.6","","90","","","M","34","","28","","","M","97.88","","","","-8","","NA"
"-82.47","49.41","KAPUSKASING A","6073978","2019-03-21 22:00","2019","03","21","22:00","-1.6","","-3.2","","89","","","M","34","","24","","","M","97.94","","","","-8","","NA"
"-82.47","49.41","KAPUSKASING A","6073978","2019-03-21 23:00","2019","03","21","23:00","-2.2","","-3.1","","94","","","M","34","","21","","","M","98.03","","","","-8","","NA"
"-82.47","49.41","KAPUSKASING A","6073978","2019-03-22 00:00","2019","03","22","00:00","-4.3","","-6.3","","86","","","M","36","","22","","","M","98.18","","","","-11","","NA"
"-82.47","49.41","KAPUSKASING A","6073978","2019-03-22 01:00","2019","03","22","01:00","-5.6","","-7.8","","85","","","M","36","","28","","","M","98.32","","","","-14","","NA"
"-82.47","49.41","KAPUSKASING A","6073978","2019-03-22 02:00","2019","03","22","02:00","-7.2","","-9.5","","83","","","M","35","","23","","","M","98.45","","","","-15","","NA"
"-82.47","49.41","KAPUSKASING A","6073978","2019-03-22 03:00","2019","03","22","03:00","-7.6","","-9.8","","84","","","M","34","","23","","","M","98.51","","","","-15","","NA"
"-82.47","49.41","KAPUSKASING A","6073978","2019-03-22 04:00","2019","03","22","04:00","-8.6","","-11.0","","83","","","M","36","","30","","","M","98.63","","","","-18","","NA"
"-82.47","49.41","KAPUSKASING A","6073978","2019-03-22 05:00","2019","03","22","05:00","-9.1","","-11.5","","83","","","M","36","","24","","","M","98.77","","","","-17","","NA"
"-82.47","49.41","KAPUSKASING A","6073978","2019-03-22 06:00","2019","03","22","06:00","-9.6","","-12.0","","83","","","M","34","","32","","","M","98.86","","","","-19","","NA"
"-82.47","49.41","KAPUSKASING A","6073978","2019-03-22 07:00","2019","03","22","07:00","-10.4","","-12.7","","83","","","M","35","","25","","","M","99.03","","","","-19","","NA"
"-82.47","49.41","KAPUSKASING A","6073978","2019-03-22 08:00","2019","03","22","08:00","-11.3","","-14.0","","81","","","M","36","","26","","","M","99.14","","","","-21","","NA"
"-82.47","49.41","KAPUSKASING A","6073978","2019-03-22 09:00","2019","03","22","09:00","-11.6","","-14.7","","78","","","M","36","","25","","","M","99.25","","","","-21","","NA"
"-82.47","49.41","KAPUSKASING A","6073978","2019-03-22 10:00","2019","03","22","10:00","-11.2","","-14.8","","75","","","M","35","","31","","","M","99.32","","","","-21","","NA"
"-82.47","49.41","KAPUSKASING A","6073978","2019-03-22 11:00","2019","03","22","11:00","-10.8","","-15.2","","70","","","M","36","","30","","","M","99.40","","","","-21","","NA"
"-82.47","49.41","KAPUSKASING A","6073978","2019-03-22 12:00","2019","03","22","12:00","-10.6","","-15.0","","70","","","M","35","","27","","","M","99.45","","","","-20","","NA"
"-82.47","49.41","KAPUSKASING A","6073978","2019-03-22 13:00","2019","03","22","13:00","-9.1","","-14.3","","66","","","M","34","","22","","","M","99.43","","","","-17","","NA"
"-82.47","49.41","KAPUSKASING A","6073978","2019-03-22 14:00","2019","03","22","14:00","-8.0","","-14.1","","62","","","M","1","","23","","","M","99.46","","","","-16","","NA"
"-82.47","49.41","KAPUSKASING A","6073978","2019-03-22 15:00","2019","03","22","15:00","-7.3","","-13.8","","60","","","M","1","","21","","","M","99.44","","","","-15","","NA"
"-82.47","49.41","KAPUSKASING A","6073978","2019-03-22 16:00","2019","03","22","16:00","-6.6","","-13.6","","58","","","M","33","","25","","","M","99.43","","","","-14","","NA"
"-82.47","49.41","KAPUSKASING A","6073978","2019-03-22 17:00","2019","03","22","17:00","-6.9","","-14.8","","54","","","M","35","","21","","","M","99.44","","","","-14","","NA"
"-82.47","49.41","KAPUSKASING A","6073978","2019-03-22 18:00","2019","03","22","18:00","-7.8","","-15.1","","56","","","M","34","","21","","","M","99.47","","","","-15","","NA"
"-82.47","49.41","KAPUSKASING A","6073978","2019-03-22 19:00","2019","03","22","19:00","-9.6","","-15.7","","62","","","M","34","","11","","","M","99.48","","","","-15","","NA"
"-82.47","49.41","KAPUSKASING A","6073978","2019-03-22 20:00","2019","03","22","20:00","-10.4","","-16.4","","62","","","M","35","","12","","","M","99.50","","","","-16","","NA"
"-82.47","49.41","KAPUSKASING A","6073978","2019-03-22 21:00","2019","03","22","21:00","-11.0","","-16.8","","62","","","M","36","","12","","","M","99.50","","","","-17","","NA"
"-82.47","49.41","KAPUSKASING A","6073978","2019-03-22 22:00","2019","03","22","22:00","-12.2","","-16.8","","69","","","M","34","","5","","","M","99.49","","","","-15","","NA"
"-82.47","49.41","KAPUSKASING A","6073978","2019-03-22 23:00","2019","03","22","23:00","-16.1","","-18.6","","81","","","M","28","","5","","","M","99.45","","","","-20","","NA"
"-82.47","49.41","KAPUSKASING A","6073978","2019-03-23 00:00","2019","03","23","00:00","-17.5","","-19.8","","83","","","M","23","","4","","","M","99.42","","","","-21","","NA"
"-82.47","49.41","KAPUSKASING A","6073978","2019-03-23 01:00","2019","03","23","01:00","-18.1","","-20.5","","82","","","M","25","","4","","","M","99.38","","","","-21","","NA"
"-82.47","49.41","KAPUSKASING A","6073978","2019-03-23 02:00","2019","03","23","02:00","-18.4","","-20.7","","82","","","M","24","","10","","","M","99.32","","","","-25","","NA"
"-82.47","49.41","KAPUSKASING A","6073978","2019-03-23 03:00","2019","03","23","03:00","-19.5","","-22.3","","79","","","M","20","","6","","","M","99.30","","","","-24","","NA"
"-82.47","49.41","KAPUSKASING A","6073978","2019-03-23 04:00","2019","03","23","04:00","-19.7","","-22.4","","79","","","M","20","","5","","","M","99.20","","","","-24","","NA"
"-82.47","49.41","KAPUSKASING A","6073978","2019-03-23 05:00","2019","03","23","05:00","-19.2","","-21.4","","83","","","M","19","","5","","","M","99.15","","","","-23","","NA"
"-82.47","49.41","KAPUSKASING A","6073978","2019-03-23 06:00","2019","03","23","06:00","-17.8","","-19.9","","84","","","M","19","","4","","","M","99.12","","","","-21","","NA"
"-82.47","49.41","KAPUSKASING A","6073978","2019-03-23 07:00","2019","03","23","07:00","-16.5","","-18.8","","83","","","M","19","","9","","","M","99.03","","","","-23","","NA"
"-82.47","49.41","KAPUSKASING A","6073978","2019-03-23 08:00","2019","03","23","08:00","-13.1","","-16.3","","78","","","M","21","","12","","","M","98.96","","","","-20","","NA"
"-82.47","49.41","KAPUSKASING A","6073978","2019-03-23 09:00","2019","03","23","09:00","-7.0","","-12.9","","63","","","M","23","","16","","","M","98.85","","","","-13","","NA"
"-82.47","49.41","KAPUSKASING A","6073978","2019-03-23 10:00","2019","03","23","10:00","-2.6","","-10.2","","56","","","M","23","","22","","","M","98.71","","","","-9","","NA"
"-82.47","49.41","KAPUSKASING A","6073978","2019-03-23 11:00","2019","03","23","11:00","0.8","","-8.3","","51","","","M","23","","22","","","M","98.59","","","","","","NA"
"-82.47","49.41","KAPUSKASING A","6073978","2019-03-23 12:00","2019","03","23","12:00","3.1","","-7.1","","47","","","M","23","","26","","","M","98.45","","","","","","NA"
"-82.47","49.41","KAPUSKASING A","6073978","2019-03-23 13:00","2019","03","23","13:00","5.7","","-7.5","","38","","","M","23","","34","","","M","98.36","","","","","","NA"
"-82.47","49.41","KAPUSKASING A","6073978","2019-03-23 14:00","2019","03","23","14:00","8.0","","-8.3","","31","","","M","24","","30","","","M","98.26","","","","","","NA"
"-82.47","49.41","KAPUSKASING A","6073978","2019-03-23 15:00","2019","03","23","15:00","9.2","","-8.4","","28","","","M","25","","25","","","M","98.16","","","","","","NA"
"-82.47","49.41","KAPUSKASING A","6073978","2019-03-23 16:00","2019","03","23","16:00","9.9","","-7.6","","28","","","M","24","","28","","","M","98.12","","","","","","NA"
"-82.47","49.41","KAPUSKASING A","6073978","2019-03-23 17:00","2019","03","23","17:00","9.7","","-8.1","","28","","","M","26","","32","","","M","98.09","","","","","","NA"
"-82.47","49.41","KAPUSKASING A","6073978","2019-03-23 18:00","2019","03","23","18:00","9.2","","-8.6","","28","","","M","26","","28","","","M","98.08","","","","","","NA"
"-82.47","49.41","KAPUSKASING A","6073978","2019-03-23 19:00","2019","03","23","19:00","7.1","","-8.6","","32","","","M","25","","18","","","M","98.12","","","","","","NA"
"-82.47","49.41","KAPUSKASING A","6073978","2019-03-23 20:00","2019","03","23","20:00","5.5","","-8.0","","37","","","M","25","","22","","","M","98.17","","","","","","NA"
"-82.47","49.41","KAPUSKASING A","6073978","2019-03-23 21:00","2019","03","23","21:00","4.5","","-7.5","","41","","","M","26","","21","","","M","98.18","","","","","","NA"
"-82.47","49.41","KAPUSKASING A","6073978","2019-03-23 22:00","2019","03","23","22:00","3.2","","-6.9","","48","","","M","31","","13","","","M","98.26","","","","","","NA"
"-82.47","49.41","KAPUSKASING A","6073978","2019-03-23 23:00","2019","03","23","23:00","2.4","","-6.5","","52","","","M","28","","19","","","M","98.33","","","","","","NA"
"-82.47","49.41","KAPUSKASING A","6073978","2019-03-24 00:00","2019","03","24","00:00","-0.2","","-3.9","","76","","","M","35","","30","","","M","98.57","","","","-7","","NA"
"-82.47","49.41","KAPUSKASING A","6073978","2019-03-24 01:00","2019","03","24","01:00","-3.8","","-7.2","","77","","","M","34","","34","","","M","98.87","","","","-12","","NA"
"-82.47","49.41","KAPUSKASING A","6073978","2019-03-24 02:00","2019","03","24","02:00","-6.9","","-10.6","","75","","","M","34","","27","","","M","99.15","","","","-15","","NA"
"-82.47","49.41","KAPUSKASING A","6073978","2019-03-24 03:00","2019","03","24","03:00","-9.3","","-14.3","","67","","","M","36","","27","","","M","99.29","","","","-18","","NA"
"-82.47","49.41","KAPUSKASING A","6073978","2019-03-24 04:00","2019","03","24","04:00","-10.2","","-15.5","","65","","","M","36","","27","","","M","99.41","","","","-19","","NA"
"-82.47","49.41","KAPUSKASING A","6073978","2019-03-24 05:00","2019","03","24","05:00","-11.2","","-16.7","","65","","","M","35","","23","","","M","99.50","","","","-20","","NA"
"-82.47","49.41","KAPUSKASING A","6073978","2019-03-24 06:00","2019","03","24","06:00","-12.9","","-19.4","","59","","","M","33","","30","","","M","99.64","","","","-23","","NA"
"-82.47","49.41","KAPUSKASING A","6073978","2019-03-24 07:00","2019","03","24","07:00","-15.2","","-22.4","","55","","","M","35","","14","","","M","99.77","","","","-23","","NA"
"-82.47","49.41","KAPUSKASING A","6073978","2019-03-24 08:00","2019","03","24","08:00","-14.8","","-21.2","","59","","","M","33","","22","","","M","99.82","","","","-24","","NA"
"-82.47","49.41","KAPUSKASING A","6073978","2019-03-24 09:00","2019","03","24","09:00","-13.8","","-20.6","","57","","","M","32","","19","","","M","99.81","","","","-22","","NA"
"-82.47","49.41","KAPUSKASING A","6073978","2019-03-24 10:00","2019","03","24","10:00","-13.1","","-23.0","","44","","","M","34","","14","","","M","99.80","","","","-20","","NA"
"-82.47","49.41","KAPUSKASING A","6073978","2019-03-24 11:00","2019","03","24","11:00","-11.3","","-22.4","","40","","","M","29","","14","","","M","99.77","","","","-18","","NA"
"-82.47","49.41","KAPUSKASING A","6073978","2019-03-24 12:00","2019","03","24","12:00","-9.4","","-22.5","","34","","","M","31","","21","","","M","99.67","","","","-17","","NA"
"-82.47","49.41","KAPUSKASING A","6073978","2019-03-24 13:00","2019","03","24","13:00","-8.1","","-21.6","","33","","","M","32","","25","","","M","99.62","","","","-16","","NA"
"-82.47","49.41","KAPUSKASING A","6073978","2019-03-24 14:00","2019","03","24","14:00","-7.0","","-21.9","","30","","","M","28","","19","","","M","99.56","","","","-14","","NA"
"-82.47","49.41","KAPUSKASING A","6073978","2019-03-24 15:00","2019","03","24","15:00","-6.2","","-20.1","","33","","","M","31","","24","","","M","99.50","","","","-14","","NA"
"-82.47","49.41","KAPUSKASING A","6073978","2019-03-24 16:00","2019","03","24","16:00","-5.8","","-20.6","","31","","","M","31","","17","","","M","99.44","","","","-12","","NA"
"-82.47","49.41","KAPUSKASING A","6073978","2019-03-24 17:00","2019","03","24","17:00","-5.9","","-20.8","","30","","","M","31","","29","","","M","99.39","","","","-14","","NA"
"-82.47","49.41","KAPUSKASING A","6073978","2019-03-24 18:00","2019","03","24","18:00","-5.8","","-22.1","","27","","","M","30","","26","","","M","99.35","","","","-14","","NA"
"-82.47","49.41","KAPUSKASING A","6073978","2019-03-24 19:00","2019","03","24","19:00","-7.0","","-21.4","","31","","","M","29","","14","","","M","99.38","","","","-13","","NA"
"-82.47","49.41","KAPUSKASING A","6073978","2019-03-24 20:00","2019","03","24","20:00","-8.2","","-21.8","","33","","","M","29","","8","","","M","99.42","","","","-12","","NA"
"-82.47","49.41","KAPUSKASING A","6073978","2019-03-24 21:00","2019","03","24","21:00","-9.4","","-22.0","","36","","","M","27","","11","","","M","99.45","","","","-15","","NA"
"-82.47","49.41","KAPUSKASING A","6073978","2019-03-24 22:00","2019","03","24","22:00","-10.7","","-22.2","","39","","","M","26","","13","","","M","99.42","","","","-17","","NA"
"-82.47","49.41","KAPUSKASING A","6073978","2019-03-24 23:00","2019","03","24","23:00","-10.2","","-22.2","","37","","","M","27","","16","","","M","99.40","","","","-17","","NA"
"-82.47","49.41","KAPUSKASING A","6073978","2019-03-25 00:00","2019","03","25","00:00","-10.9","","-22.2","","39","","","M","28","","14","","","M","99.45","","","","-18","","NA"
"-82.47","49.41","KAPUSKASING A","6073978","2019-03-25 01:00","2019","03","25","01:00","-12.1","","-22.2","","43","","","M","30","","12","","","M","99.48","","","","-18","","NA"
"-82.47","49.41","KAPUSKASING A","6073978","2019-03-25 02:00","2019","03","25","02:00","-13.0","","-21.2","","51","","","M","33","","18","","","M","99.54","","","","-21","","NA"
"-82.47","49.41","KAPUSKASING A","6073978","2019-03-25 03:00","2019","03","25","03:00","-14.0","","-21.5","","54","","","M","30","","10","","","M","99.54","","","","-20","","NA"
"-82.47","49.41","KAPUSKASING A","6073978","2019-03-25 04:00","2019","03","25","04:00","-14.2","","-21.4","","55","","","M","29","","13","","","M","99.50","","","","-21","","NA"
"-82.47","49.41","KAPUSKASING A","6073978","2019-03-25 05:00","2019","03","25","05:00","-16.1","","-21.9","","61","","","M","24","","10","","","M","99.46","","","","-23","","NA"
"-82.47","49.41","KAPUSKASING A","6073978","2019-03-25 06:00","2019","03","25","06:00","-16.6","","-22.0","","64","","","M","25","","9","","","M","99.41","","","","-23","","NA"
"-82.47","49.41","KAPUSKASING A","6073978","2019-03-25 07:00","2019","03","25","07:00","-15.1","","-21.3","","60","","","M","25","","15","","","M","99.36","","","","-23","","NA"
"-82.47","49.41","KAPUSKASING A","6073978","2019-03-25 08:00","2019","03","25","08:00","-11.9","","-21.1","","47","","","M","28","","22","","","M","99.36","","","","-21","","NA"
"-82.47","49.41","KAPUSKASING A","6073978","2019-03-25 09:00","2019","03","25","09:00","-9.2","","-20.6","","40","","","M","29","","26","","","M","99.31","","","","-18","","NA"
"-82.47","49.41","KAPUSKASING A","6073978","2019-03-25 10:00","2019","03","25","10:00","-7.3","","-20.5","","35","","","M","28","","26","","","M","99.23","","","","-15","","NA"
"-82.47","49.41","KAPUSKASING A","6073978","2019-03-25 11:00","2019","03","25","11:00","-5.2","","-19.8","","31","","","M","28","","28","","","M","99.15","","","","-13","","NA"
"-82.47","49.41","KAPUSKASING A","6073978","2019-03-25 12:00","2019","03","25","12:00","-4.0","","-19.8","","29","","","M","31","","32","","","M","99.10","","","","-12","","NA"
"-82.47","49.41","KAPUSKASING A","6073978","2019-03-25 13:00","2019","03","25","13:00","-2.7","","-19.1","","27","","","M","29","","35","","","M","99.07","","","","-11","","NA"
"-82.47","49.41","KAPUSKASING A","6073978","2019-03-25 14:00","2019","03","25","14:00","-2.3","","-19.5","","26","","","M","31","","45","","","M","99.08","","","","-11","","NA"
"-82.47","49.41","KAPUSKASING A","6073978","2019-03-25 15:00","2019","03","25","15:00","-2.4","","-19.8","","25","","","M","31","","46","","","M","99.10","","","","-11","","NA"
"-82.47","49.41","KAPUSKASING A","6073978","2019-03-25 16:00","2019","03","25","16:00","-2.1","","-18.9","","27","","","M","31","","37","","","M","99.17","","","","-10","","NA"
"-82.47","49.41","KAPUSKASING A","6073978","2019-03-25 17:00","2019","03","25","17:00","-2.7","","-18.9","","28","","","M","32","","33","","","M","99.25","","","","-10","","NA"
"-82.47","49.41","KAPUSKASING A","6073978","2019-03-25 18:00","2019","03","25","18:00","-3.4","","-19.1","","29","","","M","32","","30","","","M","99.35","","","","-11","","NA"
"-82.47","49.41","KAPUSKASING A","6073978","2019-03-25 19:00","2019","03","25","19:00","-4.9","","-19.3","","32","","","M","33","","22","","","M","99.45","","","","-12","","NA"
"-82.47","49.41","KAPUSKASING A","6073978","2019-03-25 20:00","2019","03","25","20:00","-6.6","","-18.7","","38","","","M","32","","15","","","M","99.53","","","","-13","","NA"
"-82.47","49.41","KAPUSKASING A","6073978","2019-03-25 21:00","2019","03","25","21:00","-7.7","","-19.6","","38","","","M","32","","8","","","M","99.60","","","","-12","","NA"
"-82.47","49.41","KAPUSKASING A","6073978","2019-03-25 22:00","2019","03","25","22:00","-8.5","","-20.1","","39","","","M","29","","5","","","M","99.66","","","","-11","","NA"
"-82.47","49.41","KAPUSKASING A","6073978","2019-03-25 23:00","2019","03","25","23:00","-10.6","","-19.7","","48","","","M","31","","8","","","M","99.68","","","","-15","","NA"
"-82.47","49.41","KAPUSKASING A","6073978","2019-03-26 00:00","2019","03","26","00:00","-15.0","","-20.6","","63","","","M","24","","10","","","M","99.72","","","","-21","","NA"
"-82.47","49.41","KAPUSKASING A","6073978","2019-03-26 01:00","2019","03","26","01:00","-13.2","","-21.4","","51","","","M","24","","12","","","M","99.73","","","","-20","","NA"
"-82.47","49.41","KAPUSKASING A","6073978","2019-03-26 02:00","2019","03","26","02:00","-14.8","","-21.6","","57","","","M","25","","8","","","M","99.77","","","","-20","","NA"
"-82.47","49.41","KAPUSKASING A","6073978","2019-03-26 03:00","2019","03","26","03:00","-13.7","","-21.4","","53","","","M","26","","12","","","M","99.79","","","","-20","","NA"
"-82.47","49.41","KAPUSKASING A","6073978","2019-03-26 04:00","2019","03","26","04:00","-14.0","","-21.3","","55","","","M","26","","10","","","M","99.80","","","","-20","","NA"
"-82.47","49.41","KAPUSKASING A","6073978","2019-03-26 05:00","2019","03","26","05:00","-13.0","","-21.4","","50","","","M","27","","14","","","M","99.84","","","","-20","","NA"
"-82.47","49.41","KAPUSKASING A","6073978","2019-03-26 06:00","2019","03","26","06:00","-14.6","","-22.0","","54","","","M","26","","11","","","M","99.87","","","","-21","","NA"
"-82.47","49.41","KAPUSKASING A","6073978","2019-03-26 07:00","2019","03","26","07:00","-14.5","","-22.1","","53","","","M","24","","10","","","M","99.89","","","","-21","","NA"
"-82.47","49.41","KAPUSKASING A","6073978","2019-03-26 08:00","2019","03","26","08:00","-10.8","","-20.3","","46","","","M","24","","10","","","M","99.92","","","","-16","","NA"
"-82.47","49.41","KAPUSKASING A","6073978","2019-03-26 09:00","2019","03","26","09:00","-6.0","","-19.2","","35","","","M","24","","9","","","M","99.95","","","","-10","","NA"
"-82.47","49.41","KAPUSKASING A","6073978","2019-03-26 10:00","2019","03","26","10:00","-3.2","","-18.4","","30","","","M","25","","22","","","M","99.93","","","","-10","","NA"
"-82.47","49.41","KAPUSKASING A","6073978","2019-03-26 11:00","2019","03","26","11:00","-1.3","","-18.1","","27","","","M","28","","16","","","M","99.91","","","","-6","","NA"
"-82.47","49.41","KAPUSKASING A","6073978","2019-03-26 12:00","2019","03","26","12:00","0.5","","-19.2","","22","","","M","27","","13","","","M","99.84","","","","","","NA"
"-82.47","49.41","KAPUSKASING A","6073978","2019-03-26 13:00","2019","03","26","13:00","2.2","","-17.1","","23","","","M","29","","15","","","M","99.76","","","","","","NA"
"-82.47","49.41","KAPUSKASING A","6073978","2019-03-26 14:00","2019","03","26","14:00","3.3","","-18.2","","19","","","M","27","","22","","","M","99.68","","","","","","NA"
"-82.47","49.41","KAPUSKASING A","6073978","2019-03-26 15:00","2019","03","26","15:00","3.9","","-17.8","","19","","","M","25","","24","","","M","99.61","","","","","","NA"
"-82.47","49.41","KAPUSKASING A","6073978","2019-03-26 16:00","2019","03","26","16:00","4.8","","-16.4","","20","","","M","27","","22","","","M","99.55","","","","","","NA"
"-82.47","49.41","KAPUSKASING A","6073978","2019-03-26 17:00","2019","03","26","17:00","4.0","","-15.6","","22","","","M","24","","22","","","M","99.49","","","","","","NA"
"-82.47","49.41","KAPUSKASING A","6073978","2019-03-26 18:00","2019","03","26","18:00","3.6","","-15.6","","23","","","M","25","","16","","","M","99.46","","","","","","NA"
"-82.47","49.41","KAPUSKASING A","6073978","2019-03-26 19:00","2019","03","26","19:00","0.9","","-13.4","","34","","","M","21","","12","","","M","99.38","","","","","","NA"
"-82.47","49.41","KAPUSKASING A","6073978","2019-03-26 20:00","2019","03","26","20:00","0.8","","-11.6","","39","","","M","22","","13","","","M","99.38","","","","","","NA"
"-82.47","49.41","KAPUSKASING A","6073978","2019-03-26 21:00","2019","03","26","21:00","0.3","","-11.7","","40","","","M","22","","27","","","M","99.37","","","","","","NA"
"-82.47","49.41","KAPUSKASING A","6073978","2019-03-26 22:00","2019","03","26","22:00","-0.5","","-12.4","","41","","","M","22","","21","","","M","99.34","","","","-6","","NA"
"-82.47","49.41","KAPUSKASING A","6073978","2019-03-26 23:00","2019","03","26","23:00","-0.8","","-13.8","","37","","","M","22","","21","","","M","99.29","","","","-6","","NA"
"-82.47","49.41","KAPUSKASING A","6073978","2019-03-27 00:00","2019","03","27","00:00","-1.6","","-15.2","","35","","","M","22","","24","","","M","99.25","","","","-8","","NA"
"-82.47","49.41","KAPUSKASING A","6073978","2019-03-27 01:00","2019","03","27","01:00","-1.5","","-15.7","","33","","","M","22","","23","","","M","99.21","","","","-8","","NA"
"-82.47","49.41","KAPUSKASING A","6073978","2019-03-27 02:00","2019","03","27","02:00","-1.8","","-13.5","","41","","","M","22","","26","","","M","99.16","","","","-8","","NA"
"-82.47","49.41","KAPUSKASING A","6073978","2019-03-27 03:00","2019","03","27","03:00","-2.3","","-12.4","","46","","","M","22","","24","","","M","99.11","","","","-9","","NA"
"-82.47","49.41","KAPUSKASING A","6073978","2019-03-27 04:00","2019","03","27","04:00","-2.3","","-11.2","","51","","","M","22","","23","","","M","99.07","","","","-9","","NA"
"-82.47","49.41","KAPUSKASING A","6073978","2019-03-27 05:00","2019","03","27","05:00","-2.9","","-10.3","","57","","","M","22","","21","","","M","99.06","","","","-9","","NA"
"-82.47","49.41","KAPUSKASING A","6073978","2019-03-27 06:00","2019","03","27","06:00","-2.9","","-9.7","","59","","","M","21","","22","","","M","99.02","","","","-9","","NA"
"-82.47","49.41","KAPUSKASING A","6073978","2019-03-27 07:00","2019","03","27","07:00","-2.8","","-9.2","","61","","","M","21","","20","","","M","99.02","","","","-9","","NA"
"-82.47","49.41","KAPUSKASING A","6073978","2019-03-27 08:00","2019","03","27","08:00","-1.4","","-8.2","","60","","","M","21","","26","","","M","99.01","","","","-8","","NA"
"-82.47","49.41","KAPUSKASING A","6073978","2019-03-27 09:00","2019","03","27","09:00","-0.5","","-7.2","","61","","","M","21","","20","","","M","98.95","","","","-6","","NA"
"-82.47","49.41","KAPUSKASING A","6073978","2019-03-27 10:00","2019","03","27","10:00","1.2","","-6.2","","58","","","M","20","","24","","","M","98.87","","","","","","NA"
"-82.47","49.41","KAPUSKASING A","6073978","2019-03-27 11:00","2019","03","27","11:00","1.9","","-5.7","","57","","","M","20","","28","","","M","98.80","","","","","","NA"
"-82.47","49.41","KAPUSKASING A","6073978","2019-03-27 12:00","2019","03","27","12:00","3.5","","-5.1","","53","","","M","20","","28","","","M","98.73","","","","","","NA"
"-82.47","49.41","KAPUSKASING A","6073978","2019-03-27 13:00","2019","03","27","13:00","5.0","","-4.2","","51","","","M","20","","28","","","M","98.62","","","","","","NA"
"-82.47","49.41","KAPUSKASING A","6073978","2019-03-27 14:00","2019","03","27","14:00","6.0","","-3.6","","50","","","M","20","","29","","","M","98.51","","","","","","NA"
"-82.47","49.41","KAPUSKASING A","6073978","2019-03-27 15:00","2019","03","27","15:00","6.2","","-4.1","","48","","","M","20","","25","","","M","98.39","","","","","","NA"
"-82.47","49.41","KAPUSKASING A","6073978","2019-03-27 16:00","2019","03","27","16:00","7.2","","-5.0","","42","","","M","21","","40","","","M","98.28","","","","","","NA"
"-82.47","49.41","KAPUSKASING A","6073978","2019-03-27 17:00","2019","03","27","17:00","6.2","","-5.7","","42","","","M","19","","34","","","M","98.17","","","","","","NA"
"-82.47","49.41","KAPUSKASING A","6073978","2019-03-27 18:00","2019","03","27","18:00","4.9","","-6.5","","44","","","M","19","","28","","","M","98.07","","","","","","NA"
"-82.47","49.41","KAPUSKASING A","6073978","2019-03-27 19:00","2019","03","27","19:00","2.7","","-1.0","","77","","","M","23","","37","","","M","98.06","","","","","","NA"
"-82.47","49.41","KAPUSKASING A","6073978","2019-03-27 20:00","2019","03","27","20:00","0.7","","-0.3","","93","","","M","19","","23","","","M","98.04","","","","","","NA"
"-82.47","49.41","KAPUSKASING A","6073978","2019-03-27 21:00","2019","03","27","21:00","1.0","","-0.3","","91","","","M","19","","30","","","M","97.87","","","","","","NA"
"-82.47","49.41","KAPUSKASING A","6073978","2019-03-27 22:00","2019","03","27","22:00","1.3","","-0.2","","89","","","M","19","","35","","","M","97.69","","","","","","NA"
"-82.47","49.41","KAPUSKASING A","6073978","2019-03-27 23:00","2019","03","27","23:00","1.6","","-0.2","","87","","","M","19","","33","","","M","97.54","","","","","","NA"
"-82.47","49.41","KAPUSKASING A","6073978","2019-03-28 00:00","2019","03","28","00:00","2.1","","-0.2","","84","","","M","21","","32","","","M","97.42","","","","","","NA"
"-82.47","49.41","KAPUSKASING A","6073978","2019-03-28 01:00","2019","03","28","01:00","3.0","","0.1","","81","","","M","22","","30","","","M","97.35","","","","","","NA"
"-82.47","49.41","KAPUSKASING A","6073978","2019-03-28 02:00","2019","03","28","02:00","2.8","","0.2","","83","","","M","22","","26","","","M","97.30","","","","","","NA"
"-82.47","49.41","KAPUSKASING A","6073978","2019-03-28 03:00","2019","03","28","03:00","3.2","","0.9","","85","","","M","23","","26","","","M","97.30","","","","","","NA"
"-82.47","49.41","KAPUSKASING A","6073978","2019-03-28 04:00","2019","03","28","04:00","3.9","","1.3","","83","","","M","24","","29","","","M","97.34","","","","","","NA"
"-82.47","49.41","KAPUSKASING A","6073978","2019-03-28 05:00","2019","03","28","05:00","4.0","","1.2","","82","","","M","26","","27","","","M","97.43","","","","","","NA"
"-82.47","49.41","KAPUSKASING A","6073978","2019-03-28 06:00","2019","03","28","06:00","2.8","","0.0","","82","","","M","30","","27","","","M","97.63","","","","","","NA"
"-82.47","49.41","KAPUSKASING A","6073978","2019-03-28 07:00","2019","03","28","07:00","2.1","","-0.5","","83","","","M","28","","24","","","M","97.82","","","","","","NA"
"-82.47","49.41","KAPUSKASING A","6073978","2019-03-28 08:00","2019","03","28","08:00","0.9","","-0.3","","92","","","M","31","","23","","","M","97.91","","","","","","NA"
"-82.47","49.41","KAPUSKASING A","6073978","2019-03-28 09:00","2019","03","28","09:00","0.6","","-2.9","","77","","","M","32","","28","","","M","98.03","","","","","","NA"
"-82.47","49.41","KAPUSKASING A","6073978","2019-03-28 10:00","2019","03","28","10:00","-0.3","","-4.9","","71","","","M","33","","26","","","M","98.16","","","","-6","","NA"
"-82.47","49.41","KAPUSKASING A","6073978","2019-03-28 11:00","2019","03","28","11:00","-0.6","","-5.1","","71","","","M","32","","16","","","M","98.23","","","","-5","","NA"
"-82.47","49.41","KAPUSKASING A","6073978","2019-03-28 12:00","2019","03","28","12:00","0.1","","-5.7","","65","","","M","33","","8","","","M","98.24","","","","","","NA"
"-82.47","49.41","KAPUSKASING A","6073978","2019-03-28 13:00","2019","03","28","13:00","-1.0","","-4.8","","75","","","M","35","","26","","","M","98.32","","","","-7","","NA"
"-82.47","49.41","KAPUSKASING A","6073978","2019-03-28 14:00","2019","03","28","14:00","-2.3","","-4.9","","82","","","M","35","","23","","","M","98.44","","","","-9","","NA"
"-82.47","49.41","KAPUSKASING A","6073978","2019-03-28 15:00","2019","03","28","15:00","-2.7","","-6.5","","75","","","M","34","","20","","","M","98.53","","","","-9","","NA"
"-82.47","49.41","KAPUSKASING A","6073978","2019-03-28 16:00","2019","03","28","16:00","-2.7","","-10.0","","57","","","M","33","","25","","","M","98.68","","","","-9","","NA"
"-82.47","49.41","KAPUSKASING A","6073978","2019-03-28 17:00","2019","03","28","17:00","-3.1","","-11.6","","52","","","M","32","","26","","","M","98.77","","","","-10","","NA"
"-82.47","49.41","KAPUSKASING A","6073978","2019-03-28 18:00","2019","03","28","18:00","-3.5","","-12.2","","51","","","M","33","","21","","","M","98.90","","","","-10","","NA"
"-82.47","49.41","KAPUSKASING A","6073978","2019-03-28 19:00","2019","03","28","19:00","-4.5","","-12.6","","53","","","M","33","","17","","","M","98.98","","","","-10","","NA"
"-82.47","49.41","KAPUSKASING A","6073978","2019-03-28 20:00","2019","03","28","20:00","-5.5","","-13.1","","56","","","M","35","","6","","","M","99.07","","","","-8","","NA"
"-82.47","49.41","KAPUSKASING A","6073978","2019-03-28 21:00","2019","03","28","21:00","-7.3","","-12.8","","65","","","M","3","","6","","","M","99.13","","","","-10","","NA"
"-82.47","49.41","KAPUSKASING A","6073978","2019-03-28 22:00","2019","03","28","22:00","-7.3","","-13.9","","60","","","M","1","","8","","","M","99.19","","","","-11","","NA"
"-82.47","49.41","KAPUSKASING A","6073978","2019-03-28 23:00","2019","03","28","23:00","-8.2","","-14.2","","62","","","M","2","","6","","","M","99.29","","","","-11","","NA"
"-82.47","49.41","KAPUSKASING A","6073978","2019-03-29 00:00","2019","03","29","00:00","-9.2","","-15.0","","63","","","M","5","","8","","","M","99.23","","","","-14","","NA"
"-82.47","49.41","KAPUSKASING A","6073978","2019-03-29 01:00","2019","03","29","01:00","-10.9","","-15.6","","68","","","M","18","","8","","","M","99.27","","","","-16","","NA"
"-82.47","49.41","KAPUSKASING A","6073978","2019-03-29 02:00","2019","03","29","02:00","-10.6","","-14.6","","73","","","M","15","","5","","","M","99.26","","","","-14","","NA"
"-82.47","49.41","KAPUSKASING A","6073978","2019-03-29 03:00","2019","03","29","03:00","-11.0","","-14.9","","73","","","M","19","","7","","","M","99.26","","","","-15","","NA"
"-82.47","49.41","KAPUSKASING A","6073978","2019-03-29 04:00","2019","03","29","04:00","-11.9","","-15.0","","78","","","M","18","","3","","","M","99.25","","","","-14","","NA"
"-82.47","49.41","KAPUSKASING A","6073978","2019-03-29 05:00","2019","03","29","05:00","-12.5","","-15.2","","80","","","M","21","","7","","","M","99.26","","","","-17","","NA"
"-82.47","49.41","KAPUSKASING A","6073978","2019-03-29 06:00","2019","03","29","06:00","-12.7","","-15.1","","82","","","M","20","","5","","","M","99.26","","","","-16","","NA"
"-82.47","49.41","KAPUSKASING A","6073978","2019-03-29 07:00","2019","03","29","07:00","-12.1","","-15.1","","78","","","M","20","","3","","","M","99.26","","","","-14","","NA"
"-82.47","49.41","KAPUSKASING A","6073978","2019-03-29 08:00","2019","03","29","08:00","-8.3","","-13.9","","64","","","M","20","","15","","","M","99.27","","","","-15","","NA"
"-82.47","49.41","KAPUSKASING A","6073978","2019-03-29 09:00","2019","03","29","09:00","-5.5","","-12.2","","60","","","M","21","","13","","","M","99.24","","","","-11","","NA"
"-82.47","49.41","KAPUSKASING A","6073978","2019-03-29 10:00","2019","03","29","10:00","-3.3","","-13.4","","46","","","M","24","","20","","","M","99.20","","","","-9","","NA"
"-82.47","49.41","KAPUSKASING A","6073978","2019-03-29 11:00","2019","03","29","11:00","-2.3","","-15.1","","37","","","M","30","","21","","","M","99.18","","","","-8","","NA"
"-82.47","49.41","KAPUSKASING A","6073978","2019-03-29 12:00","2019","03","29","12:00","-1.2","","-15.3","","34","","","M","27","","19","","","M","99.12","","","","-7","","NA"
"-82.47","49.41","KAPUSKASING A","6073978","2019-03-29 13:00","2019","03","29","13:00","-0.3","","-15.4","","31","","","M","27","","12","","","M","99.08","","","","-4","","NA"
"-82.47","49.41","KAPUSKASING A","6073978","2019-03-29 14:00","2019","03","29","14:00","0.4","","-14.8","","31","","","M","25","","10","","","M","99.02","","","","","","NA"
"-82.47","49.41","KAPUSKASING A","6073978","2019-03-29 15:00","2019","03","29","15:00","1.0","","-16.3","","27","","","M","26","","18","","","M","98.96","","","","","","NA"
"-82.47","49.41","KAPUSKASING A","6073978","2019-03-29 16:00","2019","03","29","16:00","1.4","","-14.8","","29","","","M","23","","23","","","M","98.91","","","","","","NA"
"-82.47","49.41","KAPUSKASING A","6073978","2019-03-29 17:00","2019","03","29","17:00","1.2","","-14.0","","31","","","M","22","","18","","","M","98.87","","","","","","NA"
"-82.47","49.41","KAPUSKASING A","6073978","2019-03-29 18:00","2019","03","29","18:00","1.0","","-14.9","","30","","","M","21","","17","","","M","98.82","","","","","","NA"
"-82.47","49.41","KAPUSKASING A","6073978","2019-03-29 19:00","2019","03","29","19:00","-0.5","","-15.2","","32","","","M","19","","13","","","M","98.76","","","","-5","","NA"
"-82.47","49.41","KAPUSKASING A","6073978","2019-03-29 20:00","2019","03","29","20:00","-2.9","","-14.2","","42","","","M","17","","14","","","M","98.80","","","","-8","","NA"
"-82.47","49.41","KAPUSKASING A","6073978","2019-03-29 21:00","2019","03","29","21:00","-2.4","","-13.9","","41","","","M","20","","15","","","M","98.79","","","","-7","","NA"
"-82.47","49.41","KAPUSKASING A","6073978","2019-03-29 22:00","2019","03","29","22:00","-2.8","","-13.3","","44","","","M","20","","13","","","M","98.70","","","","-7","","NA"
"-82.47","49.41","KAPUSKASING A","6073978","2019-03-29 23:00","2019","03","29","23:00","-3.3","","-11.9","","52","","","M","22","","11","","","M","98.66","","","","-8","","NA"
"-82.47","49.41","KAPUSKASING A","6073978","2019-03-30 00:00","2019","03","30","00:00","-4.0","","-12.0","","54","","","M","19","","10","","","M","98.64","","","","-8","","NA"
"-82.47","49.41","KAPUSKASING A","6073978","2019-03-30 01:00","2019","03","30","01:00","-5.2","","-12.1","","59","","","M","19","","7","","","M","98.62","","","","-8","","NA"
"-82.47","49.41","KAPUSKASING A","6073978","2019-03-30 02:00","2019","03","30","02:00","-5.4","","-11.7","","62","","","M","22","","13","","","M","98.62","","","","-11","","NA"
"-82.47","49.41","KAPUSKASING A","6073978","2019-03-30 03:00","2019","03","30","03:00","-5.1","","-11.2","","63","","","M","23","","13","","","M","98.59","","","","-10","","NA"
"-82.47","49.41","KAPUSKASING A","6073978","2019-03-30 04:00","2019","03","30","04:00","-5.6","","-11.2","","65","","","M","22","","9","","","M","98.59","","","","-10","","NA"
"-82.47","49.41","KAPUSKASING A","6073978","2019-03-30 05:00","2019","03","30","05:00","-5.7","","-10.3","","70","","","M","24","","6","","","M","98.59","","","","-9","","NA"
"-82.47","49.41","KAPUSKASING A","6073978","2019-03-30 06:00","2019","03","30","06:00","-6.8","","-8.8","","86","","","M","22","","3","","","M","98.58","","","","-8","","NA"
"-82.47","49.41","KAPUSKASING A","6073978","2019-03-30 07:00","2019","03","30","07:00","-7.4","","-9.3","","86","","","M","12","","4","","","M","98.56","","","","-9","","NA"
"-82.47","49.41","KAPUSKASING A","6073978","2019-03-30 08:00","2019","03","30","08:00","-6.1","","-8.4","","83","","","M","17","","2","","","M","98.63","","","","-7","","NA"
"-82.47","49.41","KAPUSKASING A","6073978","2019-03-30 09:00","2019","03","30","09:00","-5.2","","-7.3","","86","","","M","7","","3","","","M","98.65","","","","-7","","NA"
"-82.47","49.41","KAPUSKASING A","6073978","2019-03-30 10:00","2019","03","30","10:00","-4.4","","-8.1","","75","","","M","36","","16","","","M","98.68","","","","-10","","NA"
"-82.47","49.41","KAPUSKASING A","6073978","2019-03-30 11:00","2019","03","30","11:00","-5.3","","-9.3","","74","","","M","35","","23","","","M","98.74","","","","-12","","NA"
"-82.47","49.41","KAPUSKASING A","6073978","2019-03-30 12:00","2019","03","30","12:00","-5.9","","-11.7","","64","","","M","36","","28","","","M","98.74","","","","-14","","NA"
"-82.47","49.41","KAPUSKASING A","6073978","2019-03-30 13:00","2019","03","30","13:00","-6.9","","-11.9","","68","","","M","34","","26","","","M","98.79","","","","-15","","NA"
"-82.47","49.41","KAPUSKASING A","6073978","2019-03-30 14:00","2019","03","30","14:00","-7.3","","-12.0","","69","","","M","36","","16","","","M","98.86","","","","-14","","NA"
"-82.47","49.41","KAPUSKASING A","6073978","2019-03-30 15:00","2019","03","30","15:00","-7.5","","-10.5","","79","","","M","36","","16","","","M","98.87","","","","-14","","NA"
"-82.47","49.41","KAPUSKASING A","6073978","2019-03-30 16:00","2019","03","30","16:00","-8.1","","-11.3","","78","","","M","34","","31","","","M","98.86","","","","-17","","NA"
"-82.47","49.41","KAPUSKASING A","6073978","2019-03-30 17:00","2019","03","30","17:00","-8.4","","-11.2","","81","","","M","36","","18","","","M","98.94","","","","-15","","NA"
"-82.47","49.41","KAPUSKASING A","6073978","2019-03-30 18:00","2019","03","30","18:00","-8.8","","-11.6","","81","","","M","35","","17","","","M","99.01","","","","-16","","NA"
"-82.47","49.41","KAPUSKASING A","6073978","2019-03-30 19:00","2019","03","30","19:00","-9.1","","-12.3","","78","","","M","1","","17","","","M","99.08","","","","-16","","NA"
"-82.47","49.41","KAPUSKASING A","6073978","2019-03-30 20:00","2019","03","30","20:00","-9.8","","-12.9","","78","","","M","35","","15","","","M","99.14","","","","-16","","NA"
"-82.47","49.41","KAPUSKASING A","6073978","2019-03-30 21:00","2019","03","30","21:00","-10.4","","-15.2","","68","","","M","35","","15","","","M","99.18","","","","-17","","NA"
"-82.47","49.41","KAPUSKASING A","6073978","2019-03-30 22:00","2019","03","30","22:00","-10.7","","-15.8","","67","","","M","34","","14","","","M","99.17","","","","-17","","NA"
"-82.47","49.41","KAPUSKASING A","6073978","2019-03-30 23:00","2019","03","30","23:00","-11.8","","-16.8","","67","","","M","34","","12","","","M","99.18","","","","-18","","NA"
"-82.47","49.41","KAPUSKASING A","6073978","2019-03-31 00:00","2019","03","31","00:00","-13.0","","-17.9","","67","","","M","34","","11","","","M","99.15","","","","-19","","NA"
"-82.47","49.41","KAPUSKASING A","6073978","2019-03-31 01:00","2019","03","31","01:00","-13.7","","-18.2","","69","","","M","34","","6","","","M","99.15","","","","-18","","NA"
"-82.47","49.41","KAPUSKASING A","6073978","2019-03-31 02:00","2019","03","31","02:00","-15.9","","-18.8","","79","","","M","33","","6","","","M","99.13","","","","-20","","NA"
"-82.47","49.41","KAPUSKASING A","6073978","2019-03-31 03:00","2019","03","31","03:00","-16.9","","-19.5","","81","","","M","33","","9","","","M","99.12","","","","-23","","NA"
"-82.47","49.41","KAPUSKASING A","6073978","2019-03-31 04:00","2019","03","31","04:00","-17.2","","-19.9","","80","","","M","31","","9","","","M","99.15","","","","-23","","NA"
"-82.47","49.41","KAPUSKASING A","6073978","2019-03-31 05:00","2019","03","31","05:00","-19.1","","-21.5","","82","","","M","31","","10","","","M","99.14","","","","-26","","NA"
"-82.47","49.41","KAPUSKASING A","6073978","2019-03-31 06:00","2019","03","31","06:00","-18.2","","-20.8","","81","","","M","31","","9","","","M","99.16","","","","-25","","NA"
"-82.47","49.41","KAPUSKASING A","6073978","2019-03-31 07:00","2019","03","31","07:00","-17.8","","-20.6","","79","","","M","31","","10","","","M","99.23","","","","-25","","NA"
"-82.47","49.41","KAPUSKASING A","6073978","2019-03-31 08:00","2019","03","31","08:00","-14.7","","-19.0","","70","","","M","31","","9","","","M","99.28","","","","-20","","NA"
"-82.47","49.41","KAPUSKASING A","6073978","2019-03-31 09:00","2019","03","31","09:00","-12.0","","-18.1","","61","","","M","31","","9","","","M","99.28","","","","-17","","NA"
"-82.47","49.41","KAPUSKASING A","6073978","2019-03-31 10:00","2019","03","31","10:00","-9.8","","-17.2","","55","","","M","32","","16","","","M","99.26","","","","-17","","NA"
"-82.47","49.41","KAPUSKASING A","6073978","2019-03-31 11:00","2019","03","31","11:00","-8.1","","-17.2","","48","","","M","31","","23","","","M","99.21","","","","-16","","NA"
"-82.47","49.41","KAPUSKASING A","6073978","2019-03-31 12:00","2019","03","31","12:00","-6.6","","-17.6","","42","","","M","31","","21","","","M","99.16","","","","-14","","NA"
"-82.47","49.41","KAPUSKASING A","6073978","2019-03-31 13:00","2019","03","31","13:00","-5.3","","-18.2","","36","","","M","34","","19","","","M","99.12","","","","-12","","NA"
"-82.47","49.41","KAPUSKASING A","6073978","2019-03-31 14:00","2019","03","31","14:00","-4.1","","-17.7","","34","","","M","34","","23","","","M","99.07","","","","-11","","NA"
"-82.47","49.41","KAPUSKASING A","6073978","2019-03-31 15:00","2019","03","31","15:00","-3.7","","-18.5","","31","","","M","31","","21","","","M","99.06","","","","-10","","NA"
"-82.47","49.41","KAPUSKASING A","6073978","2019-03-31 16:00","2019","03","31","16:00","-3.3","","-17.8","","32","","","M","33","","19","","","M","99.05","","","","-9","","NA"
"-82.47","49.41","KAPUSKASING A","6073978","2019-03-31 17:00","2019","03","31","17:00","-3.2","","-18.8","","29","","","M","31","","16","","","M","99.05","","","","-9","","NA"
"-82.47","49.41","KAPUSKASING A","6073978","2019-03-31 18:00","2019","03","31","18:00","-3.5","","-18.3","","31","","","M","31","","18","","","M","99.05","","","","-9","","NA"
"-82.47","49.41","KAPUSKASING A","6073978","2019-03-31 19:00","2019","03","31","19:00","-4.3","","-19.2","","31","","","M","35","","8","","","M","99.06","","","","-8","","NA"
"-82.47","49.41","KAPUSKASING A","6073978","2019-03-31 20:00","2019","03","31","20:00","-6.7","","-18.9","","38","","","M","30","","4","","","M","99.08","","","","-9","","NA"
"-82.47","49.41","KAPUSKASING A","6073978","2019-03-31 21:00","2019","03","31","21:00","-9.2","","-19.1","","45","","","M","26","","7","","","M","99.08","","","","-13","","NA"
"-82.47","49.41","KAPUSKASING A","6073978","2019-03-31 22:00","2019","03","31","22:00","-11.9","","-18.3","","59","","","M","22","","6","","","M","99.05","","","","-16","","NA"
"-82.47","49.41","KAPUSKASING A","6073978","2019-03-31 23:00","2019","03","31","23:00","-10.1","","-18.4","","51","","","M","23","","10","","","M","99.03","","","","-15","","NA"
