"Longitude (x)","Latitude (y)","Station Name","Climate ID","Date/Time (LST)","Year","Month","Day","Time (LST)","Temp (°C)","Temp Flag","Dew Point Temp (°C)","Dew Point Temp Flag","Rel Hum (%)","Rel Hum Flag","Precip. Amount (mm)","Precip. Amount Flag","Wind Dir (10s deg)","Wind Dir Flag","Wind Spd (km/h)","Wind Spd Flag","Visibility (km)","Visibility Flag","Stn Press (kPa)","Stn Press Flag","Hmdx","Hmdx Flag","Wind Chill","Wind Chill Flag","Weather"
"-79.57","43.96","PA KING CITY","6156162","2018-04-01 00:00","2018","04","01","00:00","-1.1","","-5.1","","74","","","","30","","11","","","","96.65","","","","-5","","NA"
"-79.57","43.96","PA KING CITY","6156162","2018-04-01 01:00","2018","04","01","01:00","-2.1","","-6.6","","72","","","","29","","11","","","","96.77","","","","-6","","NA"
"-79.57","43.96","PA KING CITY","6156162","2018-04-01 02:00","2018","04","01","02:00","-3.2","","-9.1","","64","","","","30","","12","","","","96.88","","","","-8","","NA"
"-79.57","43.96","PA KING CITY","6156162","2018-04-01 03:00","2018","04","01","03:00","-3.7","","-9.6","","64","","","","30","","11","","","","96.96","","","","-8","","NA"
"-79.57","43.96","PA KING CITY","6156162","2018-04-01 04:00","2018","04","01","04:00","-4.1","","-10.5","","61","","","","30","","12","","","","97.09","","","","-9","","NA"
"-79.57","43.96","PA KING CITY","6156162","2018-04-01 05:00","2018","04","01","05:00","-4.9","","-11.7","","59","","","","29","","8","","","","97.19","","","","-8","","NA"
"-79.57","43.96","PA KING CITY","6156162","2018-04-01 06:00","2018","04","01","06:00","-5.0","","-10.7","","64","","","","29","","5","","","","97.29","","","","-7","","NA"
"-79.57","43.96","PA KING CITY","6156162","2018-04-01 07:00","2018","04","01","07:00","-4.3","","-10.3","","63","","","","27","","5","","","","97.39","","","","-6","","NA"
"-79.57","43.96","PA KING CITY","6156162","2018-04-01 08:00","2018","04","01","08:00","-3.6","","-8.2","","70","","","","28","","6","","","","97.44","","","","-6","","NA"
"-79.57","43.96","PA KING CITY","6156162","2018-04-01 09:00","2018","04","01","09:00","-3.0","","-9.5","","61","","","","28","","6","","","","97.49","","","","-5","","NA"
"-79.57","43.96","PA KING CITY","6156162","2018-04-01 10:00","2018","04","01","10:00","-1.1","","-10.2","","50","","","","28","","6","","","","97.55","","","","-3","","NA"
"-79.57","43.96","PA KING CITY","6156162","2018-04-01 11:00","2018","04","01","11:00","-0.2","","-11.6","","42","","","","29","","8","","","","97.59","","","","-3","","NA"
"-79.57","43.96","PA KING CITY","6156162","2018-04-01 12:00","2018","04","01","12:00","0.0","","-12.4","","39","","","","29","","8","","","","97.56","","","","-3","","NA"
"-79.57","43.96","PA KING CITY","6156162","2018-04-01 13:00","2018","04","01","13:00","-0.2","","-12.0","","41","","","","28","","6","","","","97.56","","","","-2","","NA"
"-79.57","43.96","PA KING CITY","6156162","2018-04-01 14:00","2018","04","01","14:00","0.2","","-11.3","","42","","","","30","","6","","","","97.56","","","","","","NA"
"-79.57","43.96","PA KING CITY","6156162","2018-04-01 15:00","2018","04","01","15:00","0.0","","-11.6","","41","","","","29","","6","","","","97.54","","","","-2","","NA"
"-79.57","43.96","PA KING CITY","6156162","2018-04-01 16:00","2018","04","01","16:00","0.0","","-12.7","","38","","","","26","","7","","","","97.54","","","","-2","","NA"
"-79.57","43.96","PA KING CITY","6156162","2018-04-01 17:00","2018","04","01","17:00","-0.4","","-11.7","","42","","","","27","","6","","","","97.53","","","","-2","","NA"
"-79.57","43.96","PA KING CITY","6156162","2018-04-01 18:00","2018","04","01","18:00","-1.3","","-11.7","","45","","","","26","","5","","","","97.55","","","","-3","","NA"
"-79.57","43.96","PA KING CITY","6156162","2018-04-01 19:00","2018","04","01","19:00","-2.0","","-11.6","","48","","","","25","","3","","","","97.49","","","","-3","","NA"
"-79.57","43.96","PA KING CITY","6156162","2018-04-01 20:00","2018","04","01","20:00","-3.2","","-11.9","","51","","","","0","","1","","","","97.49","","","","-4","","NA"
"-79.57","43.96","PA KING CITY","6156162","2018-04-01 21:00","2018","04","01","21:00","-3.5","","-11.9","","52","","","","19","","2","","","","97.49","","","","-4","","NA"
"-79.57","43.96","PA KING CITY","6156162","2018-04-01 22:00","2018","04","01","22:00","-4.1","","-11.1","","58","","","","18","","2","","","","97.46","","","","-5","","NA"
"-79.57","43.96","PA KING CITY","6156162","2018-04-01 23:00","2018","04","01","23:00","-3.6","","-10.0","","61","","","","16","","2","","","","97.46","","","","-4","","NA"
"-79.57","43.96","PA KING CITY","6156162","2018-04-02 00:00","2018","04","02","00:00","-3.9","","-9.3","","66","","","","17","","2","","","","97.39","","","","-5","","NA"
"-79.57","43.96","PA KING CITY","6156162","2018-04-02 01:00","2018","04","02","01:00","-4.1","","-9.4","","67","","","","17","","3","","","","97.33","","","","-5","","NA"
"-79.57","43.96","PA KING CITY","6156162","2018-04-02 02:00","2018","04","02","02:00","-4.5","","-9.1","","70","","","","16","","4","","","","97.34","","","","-6","","NA"
"-79.57","43.96","PA KING CITY","6156162","2018-04-02 03:00","2018","04","02","03:00","-4.3","","-8.9","","70","","","","17","","4","","","","97.32","","","","-6","","NA"
"-79.57","43.96","PA KING CITY","6156162","2018-04-02 04:00","2018","04","02","04:00","-4.5","","-8.0","","77","","","","16","","3","","","","97.35","","","","-6","","NA"
"-79.57","43.96","PA KING CITY","6156162","2018-04-02 05:00","2018","04","02","05:00","-4.4","","-7.2","","81","","","","32","","3","","","","97.40","","","","-6","","NA"
"-79.57","43.96","PA KING CITY","6156162","2018-04-02 06:00","2018","04","02","06:00","-4.3","","-7.0","","82","","","","32","","3","","","","97.43","","","","-6","","NA"
"-79.57","43.96","PA KING CITY","6156162","2018-04-02 07:00","2018","04","02","07:00","-3.7","","-6.5","","81","","","","34","","3","","","","97.44","","","","-5","","NA"
"-79.57","43.96","PA KING CITY","6156162","2018-04-02 08:00","2018","04","02","08:00","-2.5","","-6.5","","74","","","","4","","5","","","","97.51","","","","-4","","NA"
"-79.57","43.96","PA KING CITY","6156162","2018-04-02 09:00","2018","04","02","09:00","-1.0","","-7.6","","61","","","","3","","4","","","","97.54","","","","-2","","NA"
"-79.57","43.96","PA KING CITY","6156162","2018-04-02 10:00","2018","04","02","10:00","0.0","","-8.5","","53","","","","21","","6","","","","97.55","","","","-2","","NA"
"-79.57","43.96","PA KING CITY","6156162","2018-04-02 11:00","2018","04","02","11:00","1.3","","-9.2","","45","","","","25","","7","","","","97.56","","","","","","NA"
"-79.57","43.96","PA KING CITY","6156162","2018-04-02 12:00","2018","04","02","12:00","3.3","","-10.0","","37","","","","22","","5","","","","97.48","","","","","","NA"
"-79.57","43.96","PA KING CITY","6156162","2018-04-02 13:00","2018","04","02","13:00","3.8","","-11.3","","32","","","","24","","8","","","","97.51","","","","","","NA"
"-79.57","43.96","PA KING CITY","6156162","2018-04-02 14:00","2018","04","02","14:00","4.9","","-10.9","","31","","","","27","","6","","","","97.44","","","","","","NA"
"-79.57","43.96","PA KING CITY","6156162","2018-04-02 15:00","2018","04","02","15:00","4.6","","-10.8","","32","","","","27","","8","","","","97.39","","","","","","NA"
"-79.57","43.96","PA KING CITY","6156162","2018-04-02 16:00","2018","04","02","16:00","5.5","","-10.4","","31","","","","26","","6","","","","97.41","","","","","","NA"
"-79.57","43.96","PA KING CITY","6156162","2018-04-02 17:00","2018","04","02","17:00","4.6","","-10.5","","32","","","","23","","6","","","","97.42","","","","","","NA"
"-79.57","43.96","PA KING CITY","6156162","2018-04-02 18:00","2018","04","02","18:00","3.2","","-9.6","","38","","","","28","","4","","","","97.41","","","","","","NA"
"-79.57","43.96","PA KING CITY","6156162","2018-04-02 19:00","2018","04","02","19:00","2.1","","-9.2","","43","","","","25","","3","","","","97.43","","","","","","NA"
"-79.57","43.96","PA KING CITY","6156162","2018-04-02 20:00","2018","04","02","20:00","1.3","","-9.2","","46","","","","29","","2","","","","97.45","","","","","","NA"
"-79.57","43.96","PA KING CITY","6156162","2018-04-02 21:00","2018","04","02","21:00","0.8","","-9.0","","48","","","","25","","2","","","","97.41","","","","","","NA"
"-79.57","43.96","PA KING CITY","6156162","2018-04-02 22:00","2018","04","02","22:00","0.3","","-8.8","","50","","","","32","","2","","","","97.43","","","","","","NA"
"-79.57","43.96","PA KING CITY","6156162","2018-04-02 23:00","2018","04","02","23:00","-0.3","","-7.3","","59","","","","34","","3","","","","97.43","","","","-1","","NA"
"-79.57","43.96","PA KING CITY","6156162","2018-04-03 00:00","2018","04","03","00:00","-0.5","","-7.6","","59","","","","5","","3","","","","97.42","","","","-1","","NA"
"-79.57","43.96","PA KING CITY","6156162","2018-04-03 01:00","2018","04","03","01:00","-0.6","","-7.2","","61","","","","6","","3","","","","97.43","","","","-2","","NA"
"-79.57","43.96","PA KING CITY","6156162","2018-04-03 02:00","2018","04","03","02:00","-0.7","","-7.3","","61","","","","7","","3","","","","97.33","","","","-2","","NA"
"-79.57","43.96","PA KING CITY","6156162","2018-04-03 03:00","2018","04","03","03:00","-0.4","","-7.4","","59","","","","9","","4","","","","97.34","","","","-2","","NA"
"-79.57","43.96","PA KING CITY","6156162","2018-04-03 04:00","2018","04","03","04:00","-0.5","","-7.3","","60","","","","8","","7","","","","97.24","","","","-3","","NA"
"-79.57","43.96","PA KING CITY","6156162","2018-04-03 05:00","2018","04","03","05:00","-0.4","","-6.9","","62","","","","10","","5","","","","97.21","","","","-2","","NA"
"-79.57","43.96","PA KING CITY","6156162","2018-04-03 06:00","2018","04","03","06:00","0.0","","-6.5","","61","","","","9","","7","","","","97.16","","","","-2","","NA"
"-79.57","43.96","PA KING CITY","6156162","2018-04-03 07:00","2018","04","03","07:00","0.2","","-7.0","","58","","","","8","","6","","","","97.20","","","","","","NA"
"-79.57","43.96","PA KING CITY","6156162","2018-04-03 08:00","2018","04","03","08:00","0.8","","-6.7","","57","","","","8","","6","","","","97.18","","","","","","NA"
"-79.57","43.96","PA KING CITY","6156162","2018-04-03 09:00","2018","04","03","09:00","1.2","","-6.9","","55","","","","8","","8","","","","97.15","","","","","","NA"
"-79.57","43.96","PA KING CITY","6156162","2018-04-03 10:00","2018","04","03","10:00","1.8","","-7.1","","52","","","","8","","8","","","","97.12","","","","","","NA"
"-79.57","43.96","PA KING CITY","6156162","2018-04-03 11:00","2018","04","03","11:00","2.3","","-7.6","","48","","","","9","","9","","","","97.00","","","","","","NA"
"-79.57","43.96","PA KING CITY","6156162","2018-04-03 12:00","2018","04","03","12:00","3.1","","-8.1","","44","","","","10","","10","","","","96.87","","","","","","NA"
"-79.57","43.96","PA KING CITY","6156162","2018-04-03 13:00","2018","04","03","13:00","3.3","","-5.4","","53","","","","9","","8","","","","96.84","","","","","","NA"
"-79.57","43.96","PA KING CITY","6156162","2018-04-03 14:00","2018","04","03","14:00","3.0","","-4.9","","56","","","","8","","7","","","","96.76","","","","","","NA"
"-79.57","43.96","PA KING CITY","6156162","2018-04-03 15:00","2018","04","03","15:00","2.7","","-3.7","","63","","","","8","","8","","","","96.65","","","","","","NA"
"-79.57","43.96","PA KING CITY","6156162","2018-04-03 16:00","2018","04","03","16:00","1.6","","-2.1","","77","","","","7","","8","","","","96.57","","","","","","NA"
"-79.57","43.96","PA KING CITY","6156162","2018-04-03 17:00","2018","04","03","17:00","0.8","","-1.5","","84","","","","7","","9","","","","96.35","","","","","","NA"
"-79.57","43.96","PA KING CITY","6156162","2018-04-03 18:00","2018","04","03","18:00","0.6","","-1.4","","87","","","","7","","9","","","","96.21","","","","","","NA"
"-79.57","43.96","PA KING CITY","6156162","2018-04-03 19:00","2018","04","03","19:00","0.7","","-1.1","","88","","","","5","","8","","","","96.16","","","","","","NA"
"-79.57","43.96","PA KING CITY","6156162","2018-04-03 20:00","2018","04","03","20:00","0.5","","-1.2","","88","","","","5","","9","","","","96.00","","","","","","NA"
"-79.57","43.96","PA KING CITY","6156162","2018-04-03 21:00","2018","04","03","21:00","0.6","","-1.1","","88","","","","6","","6","","","","95.91","","","","","","NA"
"-79.57","43.96","PA KING CITY","6156162","2018-04-03 22:00","2018","04","03","22:00","0.0","","-1.7","","89","","","","35","","6","","","","95.82","","","","-2","","NA"
"-79.57","43.96","PA KING CITY","6156162","2018-04-03 23:00","2018","04","03","23:00","0.2","","-1.4","","89","","","","36","","3","","","","95.62","","","","","","NA"
"-79.57","43.96","PA KING CITY","6156162","2018-04-04 00:00","2018","04","04","00:00","0.6","","-1.0","","89","","","","6","","7","","","","95.40","","","","","","NA"
"-79.57","43.96","PA KING CITY","6156162","2018-04-04 01:00","2018","04","04","01:00","0.8","","-0.8","","89","","","","9","","8","","","","95.21","","","","","","NA"
"-79.57","43.96","PA KING CITY","6156162","2018-04-04 02:00","2018","04","04","02:00","1.2","","-0.5","","89","","","","9","","7","","","","95.01","","","","","","NA"
"-79.57","43.96","PA KING CITY","6156162","2018-04-04 03:00","2018","04","04","03:00","0.6","","-1.1","","89","","","","31","","4","","","","94.93","","","","","","NA"
"-79.57","43.96","PA KING CITY","6156162","2018-04-04 04:00","2018","04","04","04:00","0.2","","-1.4","","89","","","","35","","3","","","","94.75","","","","","","NA"
"-79.57","43.96","PA KING CITY","6156162","2018-04-04 05:00","2018","04","04","05:00","1.2","","-0.4","","89","","","","29","","3","","","","94.71","","","","","","NA"
"-79.57","43.96","PA KING CITY","6156162","2018-04-04 06:00","2018","04","04","06:00","1.2","","-0.3","","90","","","","19","","5","","","","94.75","","","","","","NA"
"-79.57","43.96","PA KING CITY","6156162","2018-04-04 07:00","2018","04","04","07:00","1.9","","0.3","","89","","","","23","","13","","","","94.81","","","","","","NA"
"-79.57","43.96","PA KING CITY","6156162","2018-04-04 08:00","2018","04","04","08:00","1.0","","-1.0","","86","","","","25","","8","","","","94.87","","","","","","NA"
"-79.57","43.96","PA KING CITY","6156162","2018-04-04 09:00","2018","04","04","09:00","1.4","","-2.1","","77","","","","24","","9","","","","94.88","","","","","","NA"
"-79.57","43.96","PA KING CITY","6156162","2018-04-04 10:00","2018","04","04","10:00","2.1","","-3.3","","67","","","","25","","11","","","","94.95","","","","","","NA"
"-79.57","43.96","PA KING CITY","6156162","2018-04-04 11:00","2018","04","04","11:00","2.4","","-4.8","","59","","","","25","","13","","","","95.05","","","","","","NA"
"-79.57","43.96","PA KING CITY","6156162","2018-04-04 12:00","2018","04","04","12:00","1.5","","-6.7","","54","","","","25","","15","","","","95.23","","","","","","NA"
"-79.57","43.96","PA KING CITY","6156162","2018-04-04 13:00","2018","04","04","13:00","-1.0","","-8.2","","58","","","","26","","15","","","","95.38","","","","-6","","NA"
"-79.57","43.96","PA KING CITY","6156162","2018-04-04 14:00","2018","04","04","14:00","-4.0","","-7.6","","76","","","","28","","16","","","","95.58","","","","-10","","NA"
"-79.57","43.96","PA KING CITY","6156162","2018-04-04 15:00","2018","04","04","15:00","-4.2","","-9.0","","69","","","","28","","14","","","","95.79","","","","-9","","NA"
"-79.57","43.96","PA KING CITY","6156162","2018-04-04 16:00","2018","04","04","16:00","-3.8","","-10.0","","62","","","","28","","16","","","","96.03","","","","-9","","NA"
"-79.57","43.96","PA KING CITY","6156162","2018-04-04 17:00","2018","04","04","17:00","-4.0","","-9.5","","66","","","","30","","13","","","","96.25","","","","-9","","NA"
"-79.57","43.96","PA KING CITY","6156162","2018-04-04 18:00","2018","04","04","18:00","-4.6","","-10.0","","66","","","","30","","12","","","","96.47","","","","-9","","NA"
"-79.57","43.96","PA KING CITY","6156162","2018-04-04 19:00","2018","04","04","19:00","-5.3","","-11.4","","62","","","","30","","11","","","","96.64","","","","-10","","NA"
"-79.57","43.96","PA KING CITY","6156162","2018-04-04 20:00","2018","04","04","20:00","-5.5","","-11.0","","65","","","","30","","10","","","","96.84","","","","-10","","NA"
"-79.57","43.96","PA KING CITY","6156162","2018-04-04 21:00","2018","04","04","21:00","-5.4","","-9.8","","71","","","","29","","7","","","","96.98","","","","-9","","NA"
"-79.57","43.96","PA KING CITY","6156162","2018-04-04 22:00","2018","04","04","22:00","-5.0","","-9.4","","71","","","","29","","8","","","","97.07","","","","-9","","NA"
"-79.57","43.96","PA KING CITY","6156162","2018-04-04 23:00","2018","04","04","23:00","-5.7","","-10.8","","67","","","","28","","7","","","","97.16","","","","-9","","NA"
"-79.57","43.96","PA KING CITY","6156162","2018-04-05 00:00","2018","04","05","00:00","-5.8","","-10.7","","68","","","","29","","5","","","","97.20","","","","-8","","NA"
"-79.57","43.96","PA KING CITY","6156162","2018-04-05 01:00","2018","04","05","01:00","-5.5","","-10.4","","68","","","","28","","6","","","","97.24","","","","-8","","NA"
"-79.57","43.96","PA KING CITY","6156162","2018-04-05 02:00","2018","04","05","02:00","-5.5","","-9.9","","71","","","","28","","7","","","","97.24","","","","-9","","NA"
"-79.57","43.96","PA KING CITY","6156162","2018-04-05 03:00","2018","04","05","03:00","-6.5","","-10.2","","75","","","","28","","4","","","","97.26","","","","-8","","NA"
"-79.57","43.96","PA KING CITY","6156162","2018-04-05 04:00","2018","04","05","04:00","-6.8","","-10.2","","77","","","","26","","4","","","","97.28","","","","-9","","NA"
"-79.57","43.96","PA KING CITY","6156162","2018-04-05 05:00","2018","04","05","05:00","-8.2","","-10.9","","81","","","","1","","4","","","","97.35","","","","-10","","NA"
"-79.57","43.96","PA KING CITY","6156162","2018-04-05 06:00","2018","04","05","06:00","-9.6","","-12.4","","80","","","","32","","1","","","","97.40","","","","-10","","NA"
"-79.57","43.96","PA KING CITY","6156162","2018-04-05 07:00","2018","04","05","07:00","-8.0","","-13.3","","66","","","","31","","3","","","","97.44","","","","-10","","NA"
"-79.57","43.96","PA KING CITY","6156162","2018-04-05 08:00","2018","04","05","08:00","-6.2","","-12.9","","59","","","","30","","4","","","","97.50","","","","-8","","NA"
"-79.57","43.96","PA KING CITY","6156162","2018-04-05 09:00","2018","04","05","09:00","-4.4","","-11.5","","57","","","","30","","5","","","","97.52","","","","-7","","NA"
"-79.57","43.96","PA KING CITY","6156162","2018-04-05 10:00","2018","04","05","10:00","-3.4","","-14.4","","42","","","","31","","6","","","","97.56","","","","-6","","NA"
"-79.57","43.96","PA KING CITY","6156162","2018-04-05 11:00","2018","04","05","11:00","-2.5","","-15.4","","37","","","","30","","8","","","","97.55","","","","-6","","NA"
"-79.57","43.96","PA KING CITY","6156162","2018-04-05 12:00","2018","04","05","12:00","-2.1","","-12.9","","43","","","","26","","8","","","","97.54","","","","-5","","NA"
"-79.57","43.96","PA KING CITY","6156162","2018-04-05 13:00","2018","04","05","13:00","-1.3","","-11.4","","46","","","","27","","7","","","","97.52","","","","-4","","NA"
"-79.57","43.96","PA KING CITY","6156162","2018-04-05 14:00","2018","04","05","14:00","-1.7","","-9.8","","54","","","","29","","9","","","","97.50","","","","-5","","NA"
"-79.57","43.96","PA KING CITY","6156162","2018-04-05 15:00","2018","04","05","15:00","-0.6","","-11.6","","43","","","","27","","8","","","","97.45","","","","-3","","NA"
"-79.57","43.96","PA KING CITY","6156162","2018-04-05 16:00","2018","04","05","16:00","-1.1","","-13.4","","39","","","","28","","8","","","","97.41","","","","-4","","NA"
"-79.57","43.96","PA KING CITY","6156162","2018-04-05 17:00","2018","04","05","17:00","-1.0","","-14.9","","34","","","","29","","9","","","","97.36","","","","-4","","NA"
"-79.57","43.96","PA KING CITY","6156162","2018-04-05 18:00","2018","04","05","18:00","-1.6","","-14.0","","38","","","","27","","6","","","","97.35","","","","-4","","NA"
"-79.57","43.96","PA KING CITY","6156162","2018-04-05 19:00","2018","04","05","19:00","-2.4","","-12.4","","46","","","","25","","3","","","","97.33","","","","-4","","NA"
"-79.57","43.96","PA KING CITY","6156162","2018-04-05 20:00","2018","04","05","20:00","-3.2","","-11.8","","51","","","","17","","2","","","","97.32","","","","-4","","NA"
"-79.57","43.96","PA KING CITY","6156162","2018-04-05 21:00","2018","04","05","21:00","-3.7","","-10.4","","60","","","","14","","2","","","","97.31","","","","-5","","NA"
"-79.57","43.96","PA KING CITY","6156162","2018-04-05 22:00","2018","04","05","22:00","-3.0","","-10.1","","58","","","","18","","3","","","","97.24","","","","-4","","NA"
"-79.57","43.96","PA KING CITY","6156162","2018-04-05 23:00","2018","04","05","23:00","-3.0","","-10.7","","55","","","","18","","5","","","","97.18","","","","-5","","NA"
"-79.57","43.96","PA KING CITY","6156162","2018-04-06 00:00","2018","04","06","00:00","-3.4","","-10.7","","57","","","","17","","4","","","","97.11","","","","-5","","NA"
"-79.57","43.96","PA KING CITY","6156162","2018-04-06 01:00","2018","04","06","01:00","-3.8","","-9.9","","63","","","","17","","4","","","","97.04","","","","-5","","NA"
"-79.57","43.96","PA KING CITY","6156162","2018-04-06 02:00","2018","04","06","02:00","-4.0","","-8.6","","70","","","","16","","3","","","","96.99","","","","-5","","NA"
"-79.57","43.96","PA KING CITY","6156162","2018-04-06 03:00","2018","04","06","03:00","-3.6","","-7.3","","76","","","","16","","4","","","","96.89","","","","-5","","NA"
"-79.57","43.96","PA KING CITY","6156162","2018-04-06 04:00","2018","04","06","04:00","-3.5","","-6.7","","79","","","","18","","5","","","","96.80","","","","-6","","NA"
"-79.57","43.96","PA KING CITY","6156162","2018-04-06 05:00","2018","04","06","05:00","-3.8","","-6.6","","81","","","","17","","3","","","","96.66","","","","-5","","NA"
"-79.57","43.96","PA KING CITY","6156162","2018-04-06 06:00","2018","04","06","06:00","-3.6","","-6.3","","81","","","","18","","6","","","","96.58","","","","-6","","NA"
"-79.57","43.96","PA KING CITY","6156162","2018-04-06 07:00","2018","04","06","07:00","-3.1","","-5.9","","81","","","","17","","4","","","","96.55","","","","-5","","NA"
"-79.57","43.96","PA KING CITY","6156162","2018-04-06 08:00","2018","04","06","08:00","-1.9","","-5.0","","80","","","","15","","3","","","","96.47","","","","-3","","NA"
"-79.57","43.96","PA KING CITY","6156162","2018-04-06 09:00","2018","04","06","09:00","-1.3","","-3.7","","84","","","","16","","4","","","","96.35","","","","-3","","NA"
"-79.57","43.96","PA KING CITY","6156162","2018-04-06 10:00","2018","04","06","10:00","-0.8","","-3.3","","83","","","","17","","4","","","","96.23","","","","-2","","NA"
"-79.57","43.96","PA KING CITY","6156162","2018-04-06 11:00","2018","04","06","11:00","-0.7","","-3.2","","83","","","","14","","4","","","","96.13","","","","-2","","NA"
"-79.57","43.96","PA KING CITY","6156162","2018-04-06 12:00","2018","04","06","12:00","0.0","","-2.6","","82","","","","13","","4","","","","96.02","","","","-1","","NA"
"-79.57","43.96","PA KING CITY","6156162","2018-04-06 13:00","2018","04","06","13:00","-0.4","","-2.9","","83","","","","15","","5","","","","95.96","","","","-2","","NA"
"-79.57","43.96","PA KING CITY","6156162","2018-04-06 14:00","2018","04","06","14:00","-0.5","","-2.5","","86","","","","18","","5","","","","95.92","","","","-2","","NA"
"-79.57","43.96","PA KING CITY","6156162","2018-04-06 15:00","2018","04","06","15:00","0.8","","-1.7","","83","","","","19","","5","","","","95.90","","","","","","NA"
"-79.57","43.96","PA KING CITY","6156162","2018-04-06 16:00","2018","04","06","16:00","1.1","","-3.0","","74","","","","26","","9","","","","95.94","","","","","","NA"
"-79.57","43.96","PA KING CITY","6156162","2018-04-06 17:00","2018","04","06","17:00","1.0","","-5.7","","61","","","","27","","10","","","","96.02","","","","","","NA"
"-79.57","43.96","PA KING CITY","6156162","2018-04-06 18:00","2018","04","06","18:00","-0.7","","-4.6","","75","","","","29","","8","","","","96.09","","","","-4","","NA"
"-79.57","43.96","PA KING CITY","6156162","2018-04-06 19:00","2018","04","06","19:00","-1.5","","-7.6","","63","","","","28","","8","","","","96.17","","","","-5","","NA"
"-79.57","43.96","PA KING CITY","6156162","2018-04-06 20:00","2018","04","06","20:00","-2.4","","-8.3","","64","","","","30","","10","","","","96.31","","","","-6","","NA"
"-79.57","43.96","PA KING CITY","6156162","2018-04-06 21:00","2018","04","06","21:00","-3.0","","-8.5","","66","","","","29","","9","","","","96.39","","","","-7","","NA"
"-79.57","43.96","PA KING CITY","6156162","2018-04-06 22:00","2018","04","06","22:00","-3.4","","-9.2","","64","","","","29","","9","","","","96.47","","","","-7","","NA"
"-79.57","43.96","PA KING CITY","6156162","2018-04-06 23:00","2018","04","06","23:00","-4.5","","-9.5","","68","","","","28","","9","","","","96.52","","","","-8","","NA"
"-79.57","43.96","PA KING CITY","6156162","2018-04-07 00:00","2018","04","07","00:00","-5.1","","-8.9","","75","","","","28","","8","","","","96.59","","","","-9","","NA"
"-79.57","43.96","PA KING CITY","6156162","2018-04-07 01:00","2018","04","07","01:00","-5.3","","-11.0","","64","","","","29","","7","","","","96.67","","","","-9","","NA"
"-79.57","43.96","PA KING CITY","6156162","2018-04-07 02:00","2018","04","07","02:00","-5.4","","-12.2","","59","","","","29","","12","","","","96.74","","","","-10","","NA"
"-79.57","43.96","PA KING CITY","6156162","2018-04-07 03:00","2018","04","07","03:00","-6.0","","-12.4","","60","","","","29","","9","","","","96.75","","","","-10","","NA"
"-79.57","43.96","PA KING CITY","6156162","2018-04-07 04:00","2018","04","07","04:00","-6.5","","-12.4","","63","","","","30","","7","","","","96.80","","","","-10","","NA"
"-79.57","43.96","PA KING CITY","6156162","2018-04-07 05:00","2018","04","07","05:00","-6.7","","-11.5","","68","","","","28","","5","","","","96.87","","","","-9","","NA"
"-79.57","43.96","PA KING CITY","6156162","2018-04-07 06:00","2018","04","07","06:00","-6.7","","-10.9","","72","","","","27","","5","","","","96.90","","","","-9","","NA"
"-79.57","43.96","PA KING CITY","6156162","2018-04-07 07:00","2018","04","07","07:00","-5.9","","-9.5","","76","","","","29","","5","","","","96.97","","","","-8","","NA"
"-79.57","43.96","PA KING CITY","6156162","2018-04-07 08:00","2018","04","07","08:00","-4.3","","-9.1","","69","","","","29","","8","","","","97.02","","","","-8","","NA"
"-79.57","43.96","PA KING CITY","6156162","2018-04-07 09:00","2018","04","07","09:00","-4.0","","-10.1","","62","","","","28","","7","","","","97.05","","","","-7","","NA"
"-79.57","43.96","PA KING CITY","6156162","2018-04-07 10:00","2018","04","07","10:00","-3.3","","-10.0","","60","","","","28","","6","","","","97.07","","","","-6","","NA"
"-79.57","43.96","PA KING CITY","6156162","2018-04-07 11:00","2018","04","07","11:00","-2.0","","-10.1","","54","","","","31","","6","","","","97.06","","","","-4","","NA"
"-79.57","43.96","PA KING CITY","6156162","2018-04-07 12:00","2018","04","07","12:00","-2.6","","-9.5","","59","","","","30","","5","","","","97.05","","","","-5","","NA"
"-79.57","43.96","PA KING CITY","6156162","2018-04-07 13:00","2018","04","07","13:00","-1.9","","-10.2","","53","","","","28","","7","","","","97.03","","","","-5","","NA"
"-79.57","43.96","PA KING CITY","6156162","2018-04-07 14:00","2018","04","07","14:00","-2.0","","-10.1","","54","","","","26","","4","","","","96.99","","","","-3","","NA"
"-79.57","43.96","PA KING CITY","6156162","2018-04-07 15:00","2018","04","07","15:00","-1.9","","-9.5","","56","","","","30","","5","","","","96.99","","","","-4","","NA"
"-79.57","43.96","PA KING CITY","6156162","2018-04-07 16:00","2018","04","07","16:00","-2.1","","-11.0","","50","","","","27","","7","","","","97.02","","","","-5","","NA"
"-79.57","43.96","PA KING CITY","6156162","2018-04-07 17:00","2018","04","07","17:00","-2.6","","-10.1","","56","","","","25","","6","","","","97.07","","","","-5","","NA"
"-79.57","43.96","PA KING CITY","6156162","2018-04-07 18:00","2018","04","07","18:00","-3.4","","-11.4","","54","","","","27","","6","","","","97.09","","","","-6","","NA"
"-79.57","43.96","PA KING CITY","6156162","2018-04-07 19:00","2018","04","07","19:00","-3.8","","-12.1","","53","","","","27","","6","","","","97.10","","","","-6","","NA"
"-79.57","43.96","PA KING CITY","6156162","2018-04-07 20:00","2018","04","07","20:00","-4.0","","-11.2","","57","","","","27","","4","","","","97.12","","","","-6","","NA"
"-79.57","43.96","PA KING CITY","6156162","2018-04-07 21:00","2018","04","07","21:00","-4.3","","-10.4","","62","","","","27","","3","","","","97.14","","","","-6","","NA"
"-79.57","43.96","PA KING CITY","6156162","2018-04-07 22:00","2018","04","07","22:00","-4.3","","-10.0","","64","","","","25","","3","","","","97.11","","","","-6","","NA"
"-79.57","43.96","PA KING CITY","6156162","2018-04-07 23:00","2018","04","07","23:00","-4.6","","-9.7","","67","","","","19","","3","","","","97.05","","","","-6","","NA"
"-79.57","43.96","PA KING CITY","6156162","2018-04-08 00:00","2018","04","08","00:00","-4.6","","-9.4","","69","","","","26","","3","","","","97.04","","","","-6","","NA"
"-79.57","43.96","PA KING CITY","6156162","2018-04-08 01:00","2018","04","08","01:00","-4.7","","-9.2","","71","","","","25","","3","","","","97.01","","","","-6","","NA"
"-79.57","43.96","PA KING CITY","6156162","2018-04-08 02:00","2018","04","08","02:00","-4.9","","-9.0","","73","","","","23","","3","","","","96.97","","","","-6","","NA"
"-79.57","43.96","PA KING CITY","6156162","2018-04-08 03:00","2018","04","08","03:00","-4.7","","-9.0","","72","","","","28","","5","","","","96.98","","","","-7","","NA"
"-79.57","43.96","PA KING CITY","6156162","2018-04-08 04:00","2018","04","08","04:00","-5.2","","-9.2","","73","","","","31","","5","","","","97.00","","","","-7","","NA"
"-79.57","43.96","PA KING CITY","6156162","2018-04-08 05:00","2018","04","08","05:00","-5.9","","-11.4","","65","","","","31","","6","","","","97.02","","","","-9","","NA"
"-79.57","43.96","PA KING CITY","6156162","2018-04-08 06:00","2018","04","08","06:00","-6.6","","-11.6","","68","","","","29","","4","","","","97.06","","","","-9","","NA"
"-79.57","43.96","PA KING CITY","6156162","2018-04-08 07:00","2018","04","08","07:00","-5.7","","-11.3","","65","","","","30","","5","","","","97.10","","","","-8","","NA"
"-79.57","43.96","PA KING CITY","6156162","2018-04-08 08:00","2018","04","08","08:00","-4.5","","-11.0","","61","","","","29","","6","","","","97.13","","","","-7","","NA"
"-79.57","43.96","PA KING CITY","6156162","2018-04-08 09:00","2018","04","08","09:00","-4.0","","-12.2","","53","","","","30","","9","","","","97.13","","","","-8","","NA"
"-79.57","43.96","PA KING CITY","6156162","2018-04-08 10:00","2018","04","08","10:00","-2.4","","-13.4","","43","","","","29","","9","","","","97.17","","","","-6","","NA"
"-79.57","43.96","PA KING CITY","6156162","2018-04-08 11:00","2018","04","08","11:00","-3.7","","-9.9","","62","","","","32","","9","","","","97.20","","","","-7","","NA"
"-79.57","43.96","PA KING CITY","6156162","2018-04-08 12:00","2018","04","08","12:00","-2.5","","-10.5","","54","","","","32","","9","","","","97.18","","","","-6","","NA"
"-79.57","43.96","PA KING CITY","6156162","2018-04-08 13:00","2018","04","08","13:00","-2.0","","-11.7","","48","","","","32","","9","","","","97.19","","","","-5","","NA"
"-79.57","43.96","PA KING CITY","6156162","2018-04-08 14:00","2018","04","08","14:00","-2.3","","-12.5","","46","","","","32","","10","","","","97.22","","","","-6","","NA"
"-79.57","43.96","PA KING CITY","6156162","2018-04-08 15:00","2018","04","08","15:00","-2.1","","-12.6","","44","","","","32","","11","","","","97.24","","","","-6","","NA"
"-79.57","43.96","PA KING CITY","6156162","2018-04-08 16:00","2018","04","08","16:00","-1.5","","-13.1","","41","","","","32","","9","","","","97.29","","","","-5","","NA"
"-79.57","43.96","PA KING CITY","6156162","2018-04-08 17:00","2018","04","08","17:00","-1.5","","-11.7","","46","","","","31","","7","","","","97.32","","","","-4","","NA"
"-79.57","43.96","PA KING CITY","6156162","2018-04-08 18:00","2018","04","08","18:00","-2.7","","-10.5","","55","","","","31","","6","","","","97.36","","","","-5","","NA"
"-79.57","43.96","PA KING CITY","6156162","2018-04-08 19:00","2018","04","08","19:00","-4.2","","-10.6","","61","","","","32","","4","","","","97.39","","","","-6","","NA"
"-79.57","43.96","PA KING CITY","6156162","2018-04-08 20:00","2018","04","08","20:00","-5.0","","-10.6","","65","","","","31","","3","","","","97.47","","","","-6","","NA"
"-79.57","43.96","PA KING CITY","6156162","2018-04-08 21:00","2018","04","08","21:00","-5.7","","-10.6","","68","","","","30","","2","","","","97.51","","","","-7","","NA"
"-79.57","43.96","PA KING CITY","6156162","2018-04-08 22:00","2018","04","08","22:00","-6.1","","-10.6","","71","","","","30","","2","","","","97.54","","","","-7","","NA"
"-79.57","43.96","PA KING CITY","6156162","2018-04-08 23:00","2018","04","08","23:00","-6.5","","-10.8","","72","","","","32","","3","","","","97.52","","","","-8","","NA"
"-79.57","43.96","PA KING CITY","6156162","2018-04-09 00:00","2018","04","09","00:00","-6.6","","-11.1","","70","","","","25","","3","","","","97.57","","","","-8","","NA"
"-79.57","43.96","PA KING CITY","6156162","2018-04-09 01:00","2018","04","09","01:00","-6.5","","-11.3","","69","","","","29","","4","","","","97.61","","","","-8","","NA"
"-79.57","43.96","PA KING CITY","6156162","2018-04-09 02:00","2018","04","09","02:00","-6.6","","-11.0","","71","","","","31","","2","","","","97.59","","","","-8","","NA"
"-79.57","43.96","PA KING CITY","6156162","2018-04-09 03:00","2018","04","09","03:00","-6.8","","-10.7","","74","","","","33","","2","","","","97.61","","","","-8","","NA"
"-79.57","43.96","PA KING CITY","6156162","2018-04-09 04:00","2018","04","09","04:00","-6.6","","-10.4","","74","","","","32","","2","","","","97.63","","","","-8","","NA"
"-79.57","43.96","PA KING CITY","6156162","2018-04-09 05:00","2018","04","09","05:00","-6.3","","-10.3","","73","","","","26","","1","","","","97.66","","","","-7","","NA"
"-79.57","43.96","PA KING CITY","6156162","2018-04-09 06:00","2018","04","09","06:00","-6.4","","-10.1","","75","","","","18","","2","","","","97.71","","","","-7","","NA"
"-79.57","43.96","PA KING CITY","6156162","2018-04-09 07:00","2018","04","09","07:00","-5.2","","-9.5","","71","","","","16","","3","","","","97.75","","","","-7","","NA"
"-79.57","43.96","PA KING CITY","6156162","2018-04-09 08:00","2018","04","09","08:00","-2.5","","-9.1","","61","","","","13","","2","","","","97.80","","","","-3","","NA"
"-79.57","43.96","PA KING CITY","6156162","2018-04-09 09:00","2018","04","09","09:00","-1.5","","-10.3","","51","","","","13","","4","","","","97.82","","","","-3","","NA"
"-79.57","43.96","PA KING CITY","6156162","2018-04-09 10:00","2018","04","09","10:00","-0.3","","-12.0","","41","","","","18","","4","","","","97.82","","","","-2","","NA"
"-79.57","43.96","PA KING CITY","6156162","2018-04-09 11:00","2018","04","09","11:00","0.9","","-12.2","","37","","","","20","","5","","","","97.80","","","","","","NA"
"-79.57","43.96","PA KING CITY","6156162","2018-04-09 12:00","2018","04","09","12:00","1.8","","-12.5","","34","","","","13","","5","","","","97.78","","","","","","NA"
"-79.57","43.96","PA KING CITY","6156162","2018-04-09 13:00","2018","04","09","13:00","2.9","","-12.2","","32","","","","22","","5","","","","97.74","","","","","","NA"
"-79.57","43.96","PA KING CITY","6156162","2018-04-09 14:00","2018","04","09","14:00","2.7","","-12.3","","32","","","","18","","5","","","","97.69","","","","","","NA"
"-79.57","43.96","PA KING CITY","6156162","2018-04-09 15:00","2018","04","09","15:00","2.8","","-10.4","","37","","","","12","","5","","","","97.66","","","","","","NA"
"-79.57","43.96","PA KING CITY","6156162","2018-04-09 16:00","2018","04","09","16:00","2.1","","-9.8","","41","","","","11","","4","","","","97.63","","","","","","NA"
"-79.57","43.96","PA KING CITY","6156162","2018-04-09 17:00","2018","04","09","17:00","2.2","","-10.3","","39","","","","14","","3","","","","97.66","","","","","","NA"
"-79.57","43.96","PA KING CITY","6156162","2018-04-09 18:00","2018","04","09","18:00","1.1","","-10.2","","43","","","","13","","2","","","","97.69","","","","","","NA"
"-79.57","43.96","PA KING CITY","6156162","2018-04-09 19:00","2018","04","09","19:00","-0.7","","-4.9","","73","","","","34","","4","","","","97.73","","","","-2","","NA"
"-79.57","43.96","PA KING CITY","6156162","2018-04-09 20:00","2018","04","09","20:00","-1.6","","-4.6","","80","","","","36","","4","","","","97.76","","","","-3","","NA"
"-79.57","43.96","PA KING CITY","6156162","2018-04-09 21:00","2018","04","09","21:00","-2.4","","-4.7","","84","","","","32","","2","","","","97.78","","","","-3","","NA"
"-79.57","43.96","PA KING CITY","6156162","2018-04-09 22:00","2018","04","09","22:00","-2.2","","-4.2","","86","","","","32","","4","","","","97.78","","","","-4","","NA"
"-79.57","43.96","PA KING CITY","6156162","2018-04-09 23:00","2018","04","09","23:00","-2.5","","-5.0","","83","","","","33","","5","","","","97.79","","","","-4","","NA"
"-79.57","43.96","PA KING CITY","6156162","2018-04-10 00:00","2018","04","10","00:00","-2.7","","-4.8","","85","","","","32","","2","","","","97.78","","","","-3","","NA"
"-79.57","43.96","PA KING CITY","6156162","2018-04-10 01:00","2018","04","10","01:00","-2.9","","-4.8","","86","","","","34","","2","","","","97.78","","","","-4","","NA"
"-79.57","43.96","PA KING CITY","6156162","2018-04-10 02:00","2018","04","10","02:00","-2.6","","-4.6","","86","","","","33","","2","","","","97.76","","","","-3","","NA"
"-79.57","43.96","PA KING CITY","6156162","2018-04-10 03:00","2018","04","10","03:00","-3.5","","-5.4","","87","","","","31","","2","","","","97.77","","","","-4","","NA"
"-79.57","43.96","PA KING CITY","6156162","2018-04-10 04:00","2018","04","10","04:00","-4.1","","-5.8","","88","","","","24","","2","","","","97.77","","","","-5","","NA"
"-79.57","43.96","PA KING CITY","6156162","2018-04-10 05:00","2018","04","10","05:00","-4.1","","-5.9","","88","","","","18","","1","","","","97.77","","","","-5","","NA"
"-79.57","43.96","PA KING CITY","6156162","2018-04-10 06:00","2018","04","10","06:00","-3.9","","-5.9","","86","","","","19","","2","","","","97.81","","","","-5","","NA"
"-79.57","43.96","PA KING CITY","6156162","2018-04-10 07:00","2018","04","10","07:00","-2.4","","-6.9","","71","","","","24","","2","","","","97.86","","","","-3","","NA"
"-79.57","43.96","PA KING CITY","6156162","2018-04-10 08:00","2018","04","10","08:00","-0.3","","-8.1","","56","","","","27","","6","","","","97.90","","","","-2","","NA"
"-79.57","43.96","PA KING CITY","6156162","2018-04-10 09:00","2018","04","10","09:00","1.1","","-6.9","","55","","","","29","","4","","","","97.91","","","","","","NA"
"-79.57","43.96","PA KING CITY","6156162","2018-04-10 10:00","2018","04","10","10:00","2.7","","-8.9","","42","","","","26","","6","","","","97.90","","","","","","NA"
"-79.57","43.96","PA KING CITY","6156162","2018-04-10 11:00","2018","04","10","11:00","2.6","","-8.8","","43","","","","24","","5","","","","97.88","","","","","","NA"
"-79.57","43.96","PA KING CITY","6156162","2018-04-10 12:00","2018","04","10","12:00","1.5","","-7.1","","53","","","","26","","5","","","","97.84","","","","","","NA"
"-79.57","43.96","PA KING CITY","6156162","2018-04-10 13:00","2018","04","10","13:00","2.1","","-7.1","","51","","","","28","","7","","","","97.79","","","","","","NA"
"-79.57","43.96","PA KING CITY","6156162","2018-04-10 14:00","2018","04","10","14:00","4.2","","-9.7","","36","","","","26","","5","","","","97.74","","","","","","NA"
"-79.57","43.96","PA KING CITY","6156162","2018-04-10 15:00","2018","04","10","15:00","3.4","","-6.6","","48","","","","29","","6","","","","97.72","","","","","","NA"
"-79.57","43.96","PA KING CITY","6156162","2018-04-10 16:00","2018","04","10","16:00","3.6","","-6.0","","49","","","","29","","4","","","","97.69","","","","","","NA"
"-79.57","43.96","PA KING CITY","6156162","2018-04-10 17:00","2018","04","10","17:00","3.4","","-7.0","","46","","","","24","","8","","","","97.67","","","","","","NA"
"-79.57","43.96","PA KING CITY","6156162","2018-04-10 18:00","2018","04","10","18:00","2.6","","-7.0","","49","","","","24","","3","","","","97.65","","","","","","NA"
"-79.57","43.96","PA KING CITY","6156162","2018-04-10 19:00","2018","04","10","19:00","0.6","","-7.1","","56","","","","20","","2","","","","97.63","","","","","","NA"
"-79.57","43.96","PA KING CITY","6156162","2018-04-10 20:00","2018","04","10","20:00","-0.7","","-6.4","","65","","","","15","","2","","","","97.64","","","","-1","","NA"
"-79.57","43.96","PA KING CITY","6156162","2018-04-10 21:00","2018","04","10","21:00","-1.1","","-6.5","","67","","","","15","","2","","","","97.65","","","","-2","","NA"
"-79.57","43.96","PA KING CITY","6156162","2018-04-10 22:00","2018","04","10","22:00","-0.9","","-6.0","","68","","","","19","","3","","","","97.63","","","","-2","","NA"
"-79.57","43.96","PA KING CITY","6156162","2018-04-10 23:00","2018","04","10","23:00","-1.9","","-5.1","","78","","","","17","","3","","","","97.59","","","","-3","","NA"
"-79.57","43.96","PA KING CITY","6156162","2018-04-11 00:00","2018","04","11","00:00","-1.9","","-4.4","","83","","","","17","","5","","","","97.58","","","","-4","","NA"
"-79.57","43.96","PA KING CITY","6156162","2018-04-11 01:00","2018","04","11","01:00","-2.0","","-4.3","","85","","","","17","","4","","","","97.56","","","","-3","","NA"
"-79.57","43.96","PA KING CITY","6156162","2018-04-11 02:00","2018","04","11","02:00","-2.0","","-4.6","","83","","","","17","","4","","","","97.49","","","","-3","","NA"
"-79.57","43.96","PA KING CITY","6156162","2018-04-11 03:00","2018","04","11","03:00","-1.5","","-4.8","","78","","","","17","","4","","","","97.42","","","","-3","","NA"
"-79.57","43.96","PA KING CITY","6156162","2018-04-11 04:00","2018","04","11","04:00","-1.4","","-5.0","","76","","","","17","","5","","","","97.39","","","","-3","","NA"
"-79.57","43.96","PA KING CITY","6156162","2018-04-11 05:00","2018","04","11","05:00","-1.0","","-4.6","","77","","","","17","","5","","","","97.37","","","","-3","","NA"
"-79.57","43.96","PA KING CITY","6156162","2018-04-11 06:00","2018","04","11","06:00","-0.8","","-4.3","","77","","","","17","","4","","","","97.34","","","","-2","","NA"
"-79.57","43.96","PA KING CITY","6156162","2018-04-11 07:00","2018","04","11","07:00","0.0","","-4.2","","74","","","","17","","4","","","","97.34","","","","-1","","NA"
"-79.57","43.96","PA KING CITY","6156162","2018-04-11 08:00","2018","04","11","08:00","0.7","","-3.6","","73","","","","19","","5","","","","97.33","","","","","","NA"
"-79.57","43.96","PA KING CITY","6156162","2018-04-11 09:00","2018","04","11","09:00","3.0","","-4.1","","60","","","","21","","5","","","","97.26","","","","","","NA"
"-79.57","43.96","PA KING CITY","6156162","2018-04-11 10:00","2018","04","11","10:00","3.2","","-4.3","","58","","","","22","","5","","","","97.25","","","","","","NA"
"-79.57","43.96","PA KING CITY","6156162","2018-04-11 11:00","2018","04","11","11:00","2.1","","-3.1","","68","","","","19","","5","","","","97.21","","","","","","NA"
"-79.57","43.96","PA KING CITY","6156162","2018-04-11 12:00","2018","04","11","12:00","3.0","","-2.9","","65","","","","24","","7","","","","97.17","","","","","","NA"
"-79.57","43.96","PA KING CITY","6156162","2018-04-11 13:00","2018","04","11","13:00","3.6","","-2.6","","64","","","","24","","5","","","","97.12","","","","","","NA"
"-79.57","43.96","PA KING CITY","6156162","2018-04-11 14:00","2018","04","11","14:00","3.6","","-0.8","","73","","","","25","","7","","","","97.08","","","","","","NA"
"-79.57","43.96","PA KING CITY","6156162","2018-04-11 15:00","2018","04","11","15:00","3.0","","0.4","","83","","","","21","","5","","","","97.07","","","","","","NA"
"-79.57","43.96","PA KING CITY","6156162","2018-04-11 16:00","2018","04","11","16:00","2.1","","-0.2","","85","","","","21","","4","","","","97.08","","","","","","NA"
"-79.57","43.96","PA KING CITY","6156162","2018-04-11 17:00","2018","04","11","17:00","2.0","","-0.1","","86","","","","23","","4","","","","97.10","","","","","","NA"
"-79.57","43.96","PA KING CITY","6156162","2018-04-11 18:00","2018","04","11","18:00","2.3","","-0.5","","82","","","","24","","4","","","","97.14","","","","","","NA"
"-79.57","43.96","PA KING CITY","6156162","2018-04-11 19:00","2018","04","11","19:00","1.8","","-1.1","","81","","","","25","","3","","","","97.15","","","","","","NA"
"-79.57","43.96","PA KING CITY","6156162","2018-04-11 20:00","2018","04","11","20:00","0.8","","-1.4","","85","","","","24","","2","","","","97.20","","","","","","NA"
"-79.57","43.96","PA KING CITY","6156162","2018-04-11 21:00","2018","04","11","21:00","0.1","","-1.8","","87","","","","18","","2","","","","97.26","","","","","","NA"
"-79.57","43.96","PA KING CITY","6156162","2018-04-11 22:00","2018","04","11","22:00","-0.1","","-1.8","","88","","","","21","","2","","","","97.27","","","","-1","","NA"
"-79.57","43.96","PA KING CITY","6156162","2018-04-11 23:00","2018","04","11","23:00","-0.6","","-2.3","","88","","","","18","","2","","","","97.25","","","","-1","","NA"
"-79.57","43.96","PA KING CITY","6156162","2018-04-12 00:00","2018","04","12","00:00","-1.2","","-2.8","","89","","","","19","","2","","","","97.23","","","","-2","","NA"
"-79.57","43.96","PA KING CITY","6156162","2018-04-12 01:00","2018","04","12","01:00","-1.5","","-3.7","","85","","","","20","","1","","","","97.20","","","","-2","","NA"
"-79.57","43.96","PA KING CITY","6156162","2018-04-12 02:00","2018","04","12","02:00","-1.5","","-4.7","","79","","","","19","","2","","","","97.13","","","","-2","","NA"
"-79.57","43.96","PA KING CITY","6156162","2018-04-12 03:00","2018","04","12","03:00","-1.7","","-3.9","","85","","","","16","","1","","","","97.11","","","","-2","","NA"
"-79.57","43.96","PA KING CITY","6156162","2018-04-12 04:00","2018","04","12","04:00","-1.4","","-3.9","","83","","","","6","","1","","","","97.10","","","","-2","","NA"
"-79.57","43.96","PA KING CITY","6156162","2018-04-12 05:00","2018","04","12","05:00","-1.0","","-3.3","","84","","","","9","","2","","","","97.02","","","","-2","","NA"
"-79.57","43.96","PA KING CITY","6156162","2018-04-12 06:00","2018","04","12","06:00","-0.1","","-4.3","","73","","","","10","","5","","","","96.96","","","","-2","","NA"
"-79.57","43.96","PA KING CITY","6156162","2018-04-12 07:00","2018","04","12","07:00","-0.2","","-3.4","","79","","","","15","","4","","","","96.92","","","","-1","","NA"
"-79.57","43.96","PA KING CITY","6156162","2018-04-12 08:00","2018","04","12","08:00","0.0","","-1.8","","88","","","","15","","5","","","","96.84","","","","-2","","NA"
"-79.57","43.96","PA KING CITY","6156162","2018-04-12 09:00","2018","04","12","09:00","0.3","","-1.3","","89","","","","14","","6","","","","96.70","","","","","","NA"
"-79.57","43.96","PA KING CITY","6156162","2018-04-12 10:00","2018","04","12","10:00","0.8","","-0.8","","89","","","","12","","8","","","","96.57","","","","","","NA"
"-79.57","43.96","PA KING CITY","6156162","2018-04-12 11:00","2018","04","12","11:00","1.0","","-0.6","","89","","","","10","","9","","","","96.36","","","","","","NA"
"-79.57","43.96","PA KING CITY","6156162","2018-04-12 12:00","2018","04","12","12:00","1.9","","0.3","","89","","","","11","","7","","","","96.19","","","","","","NA"
"-79.57","43.96","PA KING CITY","6156162","2018-04-12 13:00","2018","04","12","13:00","2.9","","1.3","","89","","","","12","","7","","","","95.96","","","","","","NA"
"-79.57","43.96","PA KING CITY","6156162","2018-04-12 14:00","2018","04","12","14:00","3.6","","2.1","","90","","","","15","","5","","","","95.88","","","","","","NA"
"-79.57","43.96","PA KING CITY","6156162","2018-04-12 15:00","2018","04","12","15:00","5.4","","3.8","","90","","","","17","","5","","","","95.85","","","","","","NA"
"-79.57","43.96","PA KING CITY","6156162","2018-04-12 16:00","2018","04","12","16:00","7.7","","5.5","","86","","","","16","","5","","","","95.85","","","","","","NA"
"-79.57","43.96","PA KING CITY","6156162","2018-04-12 17:00","2018","04","12","17:00","10.5","","6.4","","75","","","","18","","4","","","","95.82","","","","","","NA"
"-79.57","43.96","PA KING CITY","6156162","2018-04-12 18:00","2018","04","12","18:00","9.9","","6.4","","79","","","","20","","2","","","","95.95","","","","","","NA"
"-79.57","43.96","PA KING CITY","6156162","2018-04-12 19:00","2018","04","12","19:00","9.4","","5.7","","78","","","","31","","7","","","","96.08","","","","","","NA"
"-79.57","43.96","PA KING CITY","6156162","2018-04-12 20:00","2018","04","12","20:00","7.5","","3.5","","76","","","","31","","7","","","","96.17","","","","","","NA"
"-79.57","43.96","PA KING CITY","6156162","2018-04-12 21:00","2018","04","12","21:00","4.2","","1.1","","80","","","","32","","10","","","","96.33","","","","","","NA"
"-79.57","43.96","PA KING CITY","6156162","2018-04-12 22:00","2018","04","12","22:00","2.2","","-0.5","","82","","","","32","","11","","","","96.39","","","","","","NA"
"-79.57","43.96","PA KING CITY","6156162","2018-04-12 23:00","2018","04","12","23:00","2.0","","-0.9","","81","","","","29","","7","","","","96.59","","","","","","NA"
"-79.57","43.96","PA KING CITY","6156162","2018-04-13 00:00","2018","04","13","00:00","1.6","","-1.3","","81","","","","32","","8","","","","96.61","","","","","","NA"
"-79.57","43.96","PA KING CITY","6156162","2018-04-13 01:00","2018","04","13","01:00","0.9","","-1.4","","85","","","","35","","7","","","","96.65","","","","","","NA"
"-79.57","43.96","PA KING CITY","6156162","2018-04-13 02:00","2018","04","13","02:00","0.2","","-1.6","","88","","","","33","","7","","","","96.68","","","","","","NA"
"-79.57","43.96","PA KING CITY","6156162","2018-04-13 03:00","2018","04","13","03:00","-0.1","","-1.8","","89","","","","34","","6","","","","96.75","","","","-2","","NA"
"-79.57","43.96","PA KING CITY","6156162","2018-04-13 04:00","2018","04","13","04:00","0.0","","-1.6","","89","","","","33","","4","","","","96.94","","","","-1","","NA"
"-79.57","43.96","PA KING CITY","6156162","2018-04-13 05:00","2018","04","13","05:00","-0.1","","-1.7","","89","","","","36","","4","","","","96.95","","","","-1","","NA"
"-79.57","43.96","PA KING CITY","6156162","2018-04-13 06:00","2018","04","13","06:00","-0.1","","-1.6","","89","","","","1","","5","","","","97.00","","","","-2","","NA"
"-79.57","43.96","PA KING CITY","6156162","2018-04-13 07:00","2018","04","13","07:00","0.0","","-1.5","","89","","","","36","","4","","","","97.04","","","","-1","","NA"
"-79.57","43.96","PA KING CITY","6156162","2018-04-13 08:00","2018","04","13","08:00","0.2","","-1.3","","89","","","","7","","4","","","","97.08","","","","","","NA"
"-79.57","43.96","PA KING CITY","6156162","2018-04-13 09:00","2018","04","13","09:00","1.0","","-0.8","","88","","","","36","","4","","","","97.05","","","","","","NA"
"-79.57","43.96","PA KING CITY","6156162","2018-04-13 10:00","2018","04","13","10:00","2.2","","-1.0","","80","","","","8","","6","","","","97.07","","","","","","NA"
"-79.57","43.96","PA KING CITY","6156162","2018-04-13 11:00","2018","04","13","11:00","3.6","","-0.8","","73","","","","8","","5","","","","97.09","","","","","","NA"
"-79.57","43.96","PA KING CITY","6156162","2018-04-13 12:00","2018","04","13","12:00","3.3","","-0.2","","78","","","","9","","6","","","","97.02","","","","","","NA"
"-79.57","43.96","PA KING CITY","6156162","2018-04-13 13:00","2018","04","13","13:00","3.5","","-0.1","","77","","","","6","","4","","","","97.00","","","","","","NA"
"-79.57","43.96","PA KING CITY","6156162","2018-04-13 14:00","2018","04","13","14:00","3.0","","0.7","","85","","","","7","","3","","","","96.91","","","","","","NA"
"-79.57","43.96","PA KING CITY","6156162","2018-04-13 15:00","2018","04","13","15:00","3.2","","1.1","","86","","","","9","","2","","","","96.93","","","","","","NA"
"-79.57","43.96","PA KING CITY","6156162","2018-04-13 16:00","2018","04","13","16:00","3.0","","1.2","","88","","","","2","","5","","","","97.03","","","","","","NA"
"-79.57","43.96","PA KING CITY","6156162","2018-04-13 17:00","2018","04","13","17:00","2.7","","1.0","","89","","","","9","","7","","","","96.89","","","","","","NA"
"-79.57","43.96","PA KING CITY","6156162","2018-04-13 18:00","2018","04","13","18:00","2.7","","1.0","","89","","","","2","","6","","","","97.07","","","","","","NA"
"-79.57","43.96","PA KING CITY","6156162","2018-04-13 19:00","2018","04","13","19:00","2.6","","0.9","","89","","","","3","","4","","","","97.02","","","","","","NA"
"-79.57","43.96","PA KING CITY","6156162","2018-04-13 20:00","2018","04","13","20:00","2.5","","0.8","","89","","","","36","","5","","","","97.24","","","","","","NA"
"-79.57","43.96","PA KING CITY","6156162","2018-04-13 21:00","2018","04","13","21:00","2.1","","0.5","","89","","","","36","","4","","","","97.33","","","","","","NA"
"-79.57","43.96","PA KING CITY","6156162","2018-04-13 22:00","2018","04","13","22:00","2.2","","0.6","","89","","","","2","","6","","","","97.18","","","","","","NA"
"-79.57","43.96","PA KING CITY","6156162","2018-04-13 23:00","2018","04","13","23:00","2.1","","0.5","","89","","","","1","","7","","","","97.22","","","","","","NA"
"-79.57","43.96","PA KING CITY","6156162","2018-04-14 00:00","2018","04","14","00:00","2.0","","0.4","","89","","","","34","","4","","","","97.29","","","","","","NA"
"-79.57","43.96","PA KING CITY","6156162","2018-04-14 01:00","2018","04","14","01:00","1.4","","-0.2","","89","","","","36","","7","","","","97.34","","","","","","NA"
"-79.57","43.96","PA KING CITY","6156162","2018-04-14 02:00","2018","04","14","02:00","1.4","","-0.1","","90","","","","1","","8","","","","97.32","","","","","","NA"
"-79.57","43.96","PA KING CITY","6156162","2018-04-14 03:00","2018","04","14","03:00","1.1","","-0.5","","89","","","","1","","9","","","","97.44","","","","","","NA"
"-79.57","43.96","PA KING CITY","6156162","2018-04-14 04:00","2018","04","14","04:00","0.6","","-1.0","","89","","","","4","","11","","","","97.41","","","","","","NA"
"-79.57","43.96","PA KING CITY","6156162","2018-04-14 05:00","2018","04","14","05:00","0.3","","-1.5","","88","","","","3","","10","","","","97.49","","","","","","NA"
"-79.57","43.96","PA KING CITY","6156162","2018-04-14 06:00","2018","04","14","06:00","0.2","","-1.9","","86","","","","3","","13","","","","97.61","","","","","","NA"
"-79.57","43.96","PA KING CITY","6156162","2018-04-14 07:00","2018","04","14","07:00","-0.1","","-2.8","","82","","","","4","","15","","","","97.61","","","","-5","","NA"
"-79.57","43.96","PA KING CITY","6156162","2018-04-14 08:00","2018","04","14","08:00","-0.6","","-3.3","","82","","","","36","","10","","","","97.85","","","","-4","","NA"
"-79.57","43.96","PA KING CITY","6156162","2018-04-14 09:00","2018","04","14","09:00","-1.2","","-3.5","","84","","","","","M","","M","","","97.78","","","","","","NA"
"-79.57","43.96","PA KING CITY","6156162","2018-04-14 10:00","2018","04","14","10:00","-2.0","","-4.1","","85","","","","","M","","M","","","97.71","","","","","","NA"
"-79.57","43.96","PA KING CITY","6156162","2018-04-14 11:00","2018","04","14","11:00","-2.1","","-4.2","","85","","","","","M","","M","","","97.77","","","","","","NA"
"-79.57","43.96","PA KING CITY","6156162","2018-04-14 12:00","2018","04","14","12:00","-3.1","","-5.2","","85","","","","","M","","M","","","97.79","","","","","","NA"
"-79.57","43.96","PA KING CITY","6156162","2018-04-14 13:00","2018","04","14","13:00","-3.5","","-5.6","","86","","","","","M","","M","","","97.78","","","","","","NA"
"-79.57","43.96","PA KING CITY","6156162","2018-04-14 14:00","2018","04","14","14:00","-4.2","","-6.3","","86","","","","","M","","M","","","97.84","","","","","","NA"
"-79.57","43.96","PA KING CITY","6156162","2018-04-14 15:00","2018","04","14","15:00","-5.0","","-7.2","","85","","","","","M","","M","","","97.80","","","","","","NA"
"-79.57","43.96","PA KING CITY","6156162","2018-04-14 16:00","2018","04","14","16:00","-5.3","","-7.5","","85","","","","","M","","M","","","97.83","","","","","","NA"
"-79.57","43.96","PA KING CITY","6156162","2018-04-14 17:00","2018","04","14","17:00","-5.7","","-8.3","","82","","","","","M","","M","","","97.93","","","","","","NA"
"-79.57","43.96","PA KING CITY","6156162","2018-04-14 18:00","2018","04","14","18:00","-5.9","","-8.1","","84","","","","","M","","M","","","98.00","","","","","","NA"
"-79.57","43.96","PA KING CITY","6156162","2018-04-14 19:00","2018","04","14","19:00","-6.0","","-8.3","","84","","","","","M","","M","","","98.01","","","","","","NA"
"-79.57","43.96","PA KING CITY","6156162","2018-04-14 20:00","2018","04","14","20:00","-6.2","","-8.8","","82","","","","","M","","M","","","98.04","","","","","","NA"
"-79.57","43.96","PA KING CITY","6156162","2018-04-14 21:00","2018","04","14","21:00","-6.0","","-8.9","","80","","","","","M","","M","","","98.09","","","","","","NA"
"-79.57","43.96","PA KING CITY","6156162","2018-04-14 22:00","2018","04","14","22:00","-6.1","","-9.1","","79","","","","","M","","M","","","98.11","","","","","","NA"
"-79.57","43.96","PA KING CITY","6156162","2018-04-14 23:00","2018","04","14","23:00","-6.1","","-9.5","","77","","","","","M","","M","","","98.05","","","","","","NA"
"-79.57","43.96","PA KING CITY","6156162","2018-04-15 00:00","2018","04","15","00:00","-5.8","","-9.2","","77","","","","36","","1","","","","98.06","","","","-6","","NA"
"-79.57","43.96","PA KING CITY","6156162","2018-04-15 01:00","2018","04","15","01:00","-5.5","","-8.8","","77","","","","4","","16","","","","98.02","","","","-11","","NA"
"-79.57","43.96","PA KING CITY","6156162","2018-04-15 02:00","2018","04","15","02:00","-5.2","","-8.6","","77","","","","36","","1","","","","97.99","","","","-6","","NA"
"-79.57","43.96","PA KING CITY","6156162","2018-04-15 03:00","2018","04","15","03:00","-5.0","","-8.4","","77","","","","","M","","M","","","97.92","","","","","","NA"
"-79.57","43.96","PA KING CITY","6156162","2018-04-15 04:00","2018","04","15","04:00","-4.8","","-8.1","","78","","","","36","","1","","","","97.92","","","","-5","","NA"
"-79.57","43.96","PA KING CITY","6156162","2018-04-15 05:00","2018","04","15","05:00","-4.7","","-7.9","","78","","","","8","","16","","","","97.79","","","","-10","","NA"
"-79.57","43.96","PA KING CITY","6156162","2018-04-15 06:00","2018","04","15","06:00","-4.7","","-7.7","","79","","","","8","","12","","","","97.80","","","","-9","","NA"
"-79.57","43.96","PA KING CITY","6156162","2018-04-15 07:00","2018","04","15","07:00","-4.8","","-7.4","","82","","","","7","","13","","","","97.79","","","","-10","","NA"
"-79.57","43.96","PA KING CITY","6156162","2018-04-15 08:00","2018","04","15","08:00","-4.7","","-7.1","","83","","","","7","","13","","","","97.76","","","","-10","","NA"
"-79.57","43.96","PA KING CITY","6156162","2018-04-15 09:00","2018","04","15","09:00","-4.3","","-6.7","","84","","","","7","","13","","","","97.72","","","","-9","","NA"
"-79.57","43.96","PA KING CITY","6156162","2018-04-15 10:00","2018","04","15","10:00","-3.4","","-6.0","","82","","","","7","","14","","","","97.57","","","","-8","","NA"
"-79.57","43.96","PA KING CITY","6156162","2018-04-15 11:00","2018","04","15","11:00","-3.4","","-5.7","","84","","","","6","","11","","","","97.58","","","","-8","","NA"
"-79.57","43.96","PA KING CITY","6156162","2018-04-15 12:00","2018","04","15","12:00","-3.2","","-5.3","","85","","","","7","","12","","","","97.43","","","","-8","","NA"
"-79.57","43.96","PA KING CITY","6156162","2018-04-15 13:00","2018","04","15","13:00","-2.1","","-4.2","","85","","","","7","","15","","","","97.33","","","","-7","","NA"
"-79.57","43.96","PA KING CITY","6156162","2018-04-15 14:00","2018","04","15","14:00","-1.7","","-4.1","","84","","","","8","","23","","","","97.27","","","","-8","","NA"
"-79.57","43.96","PA KING CITY","6156162","2018-04-15 15:00","2018","04","15","15:00","-1.7","","-4.0","","84","","","","","M","","M","","","97.14","","","","","","NA"
"-79.57","43.96","PA KING CITY","6156162","2018-04-15 16:00","2018","04","15","16:00","-2.0","","-4.1","","86","","","","","M","","M","","","97.13","","","","","","NA"
"-79.57","43.96","PA KING CITY","6156162","2018-04-15 17:00","2018","04","15","17:00","-2.0","","-4.1","","86","","","","","M","","M","","","97.01","","","","","","NA"
"-79.57","43.96","PA KING CITY","6156162","2018-04-15 18:00","2018","04","15","18:00","-1.5","","-3.3","","87","","","","","M","","M","","","96.92","","","","","","NA"
"-79.57","43.96","PA KING CITY","6156162","2018-04-15 19:00","2018","04","15","19:00","-1.7","","-3.6","","87","","","","","M","","M","","","96.83","","","","","","NA"
"-79.57","43.96","PA KING CITY","6156162","2018-04-15 20:00","2018","04","15","20:00","-1.4","","-3.2","","87","","","","","M","","M","","","96.78","","","","","","NA"
"-79.57","43.96","PA KING CITY","6156162","2018-04-15 21:00","2018","04","15","21:00","-1.0","","-2.9","","87","","","","","M","","M","","","96.68","","","","","","NA"
"-79.57","43.96","PA KING CITY","6156162","2018-04-15 22:00","2018","04","15","22:00","-0.4","","-2.2","","88","","","","","M","","M","","","96.65","","","","","","NA"
"-79.57","43.96","PA KING CITY","6156162","2018-04-15 23:00","2018","04","15","23:00","-0.2","","-2.1","","87","","","","","M","","M","","","96.52","","","","","","NA"
"-79.57","43.96","PA KING CITY","6156162","2018-04-16 00:00","2018","04","16","00:00","0.0","","-1.8","","87","","","","","M","","M","","","96.46","","","","","","NA"
"-79.57","43.96","PA KING CITY","6156162","2018-04-16 01:00","2018","04","16","01:00","0.0","","-1.7","","88","","","","","M","","M","","","96.33","","","","","","NA"
"-79.57","43.96","PA KING CITY","6156162","2018-04-16 02:00","2018","04","16","02:00","0.0","","-1.7","","88","","","","","M","","M","","","96.22","","","","","","NA"
"-79.57","43.96","PA KING CITY","6156162","2018-04-16 03:00","2018","04","16","03:00","-0.1","","-1.8","","88","","","","","M","","M","","","96.05","","","","","","NA"
"-79.57","43.96","PA KING CITY","6156162","2018-04-16 04:00","2018","04","16","04:00","0.0","","-1.7","","88","","","","","M","","M","","","95.97","","","","","","NA"
"-79.57","43.96","PA KING CITY","6156162","2018-04-16 05:00","2018","04","16","05:00","0.1","","-1.6","","89","","","","","M","","M","","","95.92","","","","","","NA"
"-79.57","43.96","PA KING CITY","6156162","2018-04-16 06:00","2018","04","16","06:00","0.1","","-1.6","","89","","","","","M","","M","","","95.78","","","","","","NA"
"-79.57","43.96","PA KING CITY","6156162","2018-04-16 07:00","2018","04","16","07:00","0.2","","-1.4","","89","","","","","M","","M","","","95.77","","","","","","NA"
"-79.57","43.96","PA KING CITY","6156162","2018-04-16 08:00","2018","04","16","08:00","0.5","","-1.1","","89","","","","","M","","M","","","95.76","","","","","","NA"
"-79.57","43.96","PA KING CITY","6156162","2018-04-16 09:00","2018","04","16","09:00","0.6","","-1.0","","89","","","","","M","","M","","","95.72","","","","","","NA"
"-79.57","43.96","PA KING CITY","6156162","2018-04-16 10:00","2018","04","16","10:00","0.8","","-0.9","","88","","","","","M","","M","","","95.70","","","","","","NA"
"-79.57","43.96","PA KING CITY","6156162","2018-04-16 11:00","2018","04","16","11:00","1.3","","-0.5","","88","","","","","M","","M","","","95.65","","","","","","NA"
"-79.57","43.96","PA KING CITY","6156162","2018-04-16 12:00","2018","04","16","12:00","1.6","","-0.3","","87","","","","34","","32","","","","95.62","","","","","","NA"
"-79.57","43.96","PA KING CITY","6156162","2018-04-16 13:00","2018","04","16","13:00","1.7","","-0.5","","85","","","","30","","91","","","","95.63","","","","","","NA"
"-79.57","43.96","PA KING CITY","6156162","2018-04-16 14:00","2018","04","16","14:00","2.1","","-0.4","","84","","","","28","","114","","","","95.61","","","","","","NA"
"-79.57","43.96","PA KING CITY","6156162","2018-04-16 15:00","2018","04","16","15:00","1.7","","-0.6","","84","","","","","M","","M","","","95.61","","","","","","NA"
"-79.57","43.96","PA KING CITY","6156162","2018-04-16 16:00","2018","04","16","16:00","1.4","","-0.5","","87","","","","","M","","M","","","95.62","","","","","","NA"
"-79.57","43.96","PA KING CITY","6156162","2018-04-16 17:00","2018","04","16","17:00","1.2","","-0.8","","87","","","","","M","","M","","","95.70","","","","","","NA"
"-79.57","43.96","PA KING CITY","6156162","2018-04-16 18:00","2018","04","16","18:00","0.9","","-1.1","","87","","","","28","","4","","","","95.73","","","","","","NA"
"-79.57","43.96","PA KING CITY","6156162","2018-04-16 19:00","2018","04","16","19:00","0.6","","-1.4","","86","","","","26","","6","","","","95.74","","","","","","NA"
"-79.57","43.96","PA KING CITY","6156162","2018-04-16 20:00","2018","04","16","20:00","0.5","","-1.6","","86","","","","26","","4","","","","95.75","","","","","","NA"
"-79.57","43.96","PA KING CITY","6156162","2018-04-16 21:00","2018","04","16","21:00","0.3","","-2.2","","83","","","","26","","5","","","","95.78","","","","","","NA"
"-79.57","43.96","PA KING CITY","6156162","2018-04-16 22:00","2018","04","16","22:00","0.0","","-2.8","","82","","","","28","","6","","","","95.78","","","","-2","","NA"
"-79.57","43.96","PA KING CITY","6156162","2018-04-16 23:00","2018","04","16","23:00","-0.3","","-2.9","","83","","","","27","","4","","","","95.82","","","","-2","","NA"
"-79.57","43.96","PA KING CITY","6156162","2018-04-17 00:00","2018","04","17","00:00","-0.5","","-3.3","","82","","","","28","","3","","","","95.83","","","","-1","","NA"
"-79.57","43.96","PA KING CITY","6156162","2018-04-17 01:00","2018","04","17","01:00","-0.6","","-3.8","","79","","","","29","","6","","","","95.84","","","","-3","","NA"
"-79.57","43.96","PA KING CITY","6156162","2018-04-17 02:00","2018","04","17","02:00","-1.0","","-4.1","","79","","","","26","","4","","","","95.84","","","","-2","","NA"
"-79.57","43.96","PA KING CITY","6156162","2018-04-17 03:00","2018","04","17","03:00","-1.4","","-4.7","","78","","","","29","","5","","","","95.85","","","","-3","","NA"
"-79.57","43.96","PA KING CITY","6156162","2018-04-17 04:00","2018","04","17","04:00","-2.2","","-6.2","","74","","","","26","","7","","","","95.87","","","","-5","","NA"
"-79.57","43.96","PA KING CITY","6156162","2018-04-17 05:00","2018","04","17","05:00","-2.5","","-6.8","","72","","","","26","","5","","","","95.89","","","","-4","","NA"
"-79.57","43.96","PA KING CITY","6156162","2018-04-17 06:00","2018","04","17","06:00","-2.7","","-7.0","","72","","","","27","","7","","","","95.90","","","","-6","","NA"
"-79.57","43.96","PA KING CITY","6156162","2018-04-17 07:00","2018","04","17","07:00","-2.6","","-7.1","","71","","","","25","","6","","","","95.93","","","","-5","","NA"
"-79.57","43.96","PA KING CITY","6156162","2018-04-17 08:00","2018","04","17","08:00","-2.3","","-7.5","","67","","","","26","","7","","","","95.93","","","","-5","","NA"
"-79.57","43.96","PA KING CITY","6156162","2018-04-17 09:00","2018","04","17","09:00","-1.1","","-7.7","","61","","","","28","","7","","","","95.90","","","","-4","","NA"
"-79.57","43.96","PA KING CITY","6156162","2018-04-17 10:00","2018","04","17","10:00","-0.4","","-7.7","","58","","","","25","","7","","","","95.90","","","","-3","","NA"
"-79.57","43.96","PA KING CITY","6156162","2018-04-17 11:00","2018","04","17","11:00","-1.0","","-7.3","","62","","","","27","","5","","","","95.92","","","","-3","","NA"
"-79.57","43.96","PA KING CITY","6156162","2018-04-17 12:00","2018","04","17","12:00"
"-79.57","43.96","PA KING CITY","6156162","2018-04-17 13:00","2018","04","17","13:00","-1.1","","-5.3","","73","","","","1","","3","","","","95.94","","","","-2","","NA"
"-79.57","43.96","PA KING CITY","6156162","2018-04-17 14:00","2018","04","17","14:00","0.2","","-5.1","","68","","","","36","","3","","","","95.96","","","","","","NA"
"-79.57","43.96","PA KING CITY","6156162","2018-04-17 15:00","2018","04","17","15:00","-0.1","","-5.7","","66","","","","26","","5","","","","95.98","","","","-2","","NA"
"-79.57","43.96","PA KING CITY","6156162","2018-04-17 16:00","2018","04","17","16:00","0.2","","-6.1","","63","","","","29","","4","","","","96.00","","","","","","NA"
"-79.57","43.96","PA KING CITY","6156162","2018-04-17 17:00","2018","04","17","17:00","0.0","","-5.9","","64","","","","27","","3","","","","96.03","","","","-1","","NA"
"-79.57","43.96","PA KING CITY","6156162","2018-04-17 18:00","2018","04","17","18:00","-0.4","","-5.0","","71","","","","25","","4","","","","96.05","","","","-2","","NA"
"-79.57","43.96","PA KING CITY","6156162","2018-04-17 19:00","2018","04","17","19:00","-0.6","","-4.1","","77","","","","27","","3","","","","96.10","","","","-2","","NA"
"-79.57","43.96","PA KING CITY","6156162","2018-04-17 20:00","2018","04","17","20:00","-0.2","","-3.4","","79","","","","32","","3","","","","96.16","","","","-1","","NA"
"-79.57","43.96","PA KING CITY","6156162","2018-04-17 21:00","2018","04","17","21:00","-0.2","","-3.0","","82","","","","34","","2","","","","96.20","","","","-1","","NA"
"-79.57","43.96","PA KING CITY","6156162","2018-04-17 22:00","2018","04","17","22:00","-0.5","","-2.9","","84","","","","29","","3","","","","96.25","","","","-1","","NA"
"-79.57","43.96","PA KING CITY","6156162","2018-04-17 23:00","2018","04","17","23:00","-0.7","","-3.0","","85","","","","30","","3","","","","96.27","","","","-2","","NA"
"-79.57","43.96","PA KING CITY","6156162","2018-04-18 00:00","2018","04","18","00:00","-0.6","","-3.5","","81","","","","28","","4","","","","96.31","","","","-2","","NA"
"-79.57","43.96","PA KING CITY","6156162","2018-04-18 01:00","2018","04","18","01:00","-0.4","","-3.6","","79","","","","35","","3","","","","96.32","","","","-1","","NA"
"-79.57","43.96","PA KING CITY","6156162","2018-04-18 02:00","2018","04","18","02:00","-0.4","","-3.7","","78","","","","32","","3","","","","96.33","","","","-1","","NA"
"-79.57","43.96","PA KING CITY","6156162","2018-04-18 03:00","2018","04","18","03:00","-0.5","","-3.8","","79","","","","1","","3","","","","96.38","","","","-1","","NA"
"-79.57","43.96","PA KING CITY","6156162","2018-04-18 04:00","2018","04","18","04:00","-0.3","","-3.7","","78","","","","36","","3","","","","96.39","","","","-1","","NA"
"-79.57","43.96","PA KING CITY","6156162","2018-04-18 05:00","2018","04","18","05:00","-0.2","","-3.6","","78","","","","2","","3","","","","96.43","","","","-1","","NA"
"-79.57","43.96","PA KING CITY","6156162","2018-04-18 06:00","2018","04","18","06:00","0.0","","-3.3","","78","","","","2","","3","","","","96.47","","","","-1","","NA"
"-79.57","43.96","PA KING CITY","6156162","2018-04-18 07:00","2018","04","18","07:00","0.5","","-3.1","","77","","","","34","","2","","","","96.48","","","","","","NA"
"-79.57","43.96","PA KING CITY","6156162","2018-04-18 08:00","2018","04","18","08:00","1.0","","-3.0","","74","","","","29","","2","","","","96.47","","","","","","NA"
"-79.57","43.96","PA KING CITY","6156162","2018-04-18 09:00","2018","04","18","09:00","1.7","","-2.7","","73","","","","33","","2","","","","96.49","","","","","","NA"
"-79.57","43.96","PA KING CITY","6156162","2018-04-18 10:00","2018","04","18","10:00","2.3","","-3.2","","67","","","","28","","6","","","","96.51","","","","","","NA"
"-79.57","43.96","PA KING CITY","6156162","2018-04-18 11:00","2018","04","18","11:00","2.6","","-4.1","","61","","","","27","","7","","","","96.57","","","","","","NA"
"-79.57","43.96","PA KING CITY","6156162","2018-04-18 12:00","2018","04","18","12:00","2.7","","-4.1","","61","","","","28","","8","","","","96.58","","","","","","NA"
"-79.57","43.96","PA KING CITY","6156162","2018-04-18 13:00","2018","04","18","13:00","3.1","","-3.7","","61","","","","28","","5","","","","96.57","","","","","","NA"
"-79.57","43.96","PA KING CITY","6156162","2018-04-18 14:00","2018","04","18","14:00","3.8","","-3.9","","57","","","","27","","8","","","","96.55","","","","","","NA"
"-79.57","43.96","PA KING CITY","6156162","2018-04-18 15:00","2018","04","18","15:00","2.2","","-3.7","","65","","","","35","","7","","","","96.58","","","","","","NA"
"-79.57","43.96","PA KING CITY","6156162","2018-04-18 16:00","2018","04","18","16:00","1.8","","-3.5","","68","","","","35","","5","","","","96.57","","","","","","NA"
"-79.57","43.96","PA KING CITY","6156162","2018-04-18 17:00","2018","04","18","17:00","1.3","","-3.2","","72","","","","30","","4","","","","96.59","","","","","","NA"
"-79.57","43.96","PA KING CITY","6156162","2018-04-18 18:00","2018","04","18","18:00","0.4","","-3.6","","74","","","","30","","5","","","","96.59","","","","","","NA"
"-79.57","43.96","PA KING CITY","6156162","2018-04-18 19:00","2018","04","18","19:00","0.0","","-4.3","","73","","","","32","","6","","","","96.54","","","","-2","","NA"
"-79.57","43.96","PA KING CITY","6156162","2018-04-18 20:00","2018","04","18","20:00","-0.5","","-5.0","","72","","","","31","","5","","","","96.57","","","","-2","","NA"
"-79.57","43.96","PA KING CITY","6156162","2018-04-18 21:00","2018","04","18","21:00","-1.1","","-5.2","","74","","","","29","","3","","","","96.68","","","","-2","","NA"
"-79.57","43.96","PA KING CITY","6156162","2018-04-18 22:00","2018","04","18","22:00","-0.7","","-5.0","","72","","","","25","","3","","","","96.66","","","","-2","","NA"
"-79.57","43.96","PA KING CITY","6156162","2018-04-18 23:00","2018","04","18","23:00","-0.5","","-5.2","","71","","","","29","","4","","","","96.58","","","","-2","","NA"
"-79.57","43.96","PA KING CITY","6156162","2018-04-19 00:00","2018","04","19","00:00","-0.5","","-4.3","","75","","","","33","","6","","","","96.41","","","","-3","","NA"
"-79.57","43.96","PA KING CITY","6156162","2018-04-19 01:00","2018","04","19","01:00","-0.7","","-4.5","","76","","","","35","","8","","","","96.40","","","","-4","","NA"
"-79.57","43.96","PA KING CITY","6156162","2018-04-19 02:00","2018","04","19","02:00","-0.9","","-5.4","","72","","","","34","","5","","","","96.50","","","","-3","","NA"
"-79.57","43.96","PA KING CITY","6156162","2018-04-19 03:00","2018","04","19","03:00","-1.0","","-6.0","","69","","","","31","","4","","","","96.60","","","","-2","","NA"
"-79.57","43.96","PA KING CITY","6156162","2018-04-19 04:00","2018","04","19","04:00","-1.2","","-7.1","","64","","","","34","","5","","","","96.56","","","","-3","","NA"
"-79.57","43.96","PA KING CITY","6156162","2018-04-19 05:00","2018","04","19","05:00","-1.3","","-6.9","","66","","","","34","","6","","","","96.58","","","","-4","","NA"
"-79.57","43.96","PA KING CITY","6156162","2018-04-19 06:00","2018","04","19","06:00","-1.3","","-6.4","","68","","","","33","","6","","","","96.65","","","","-4","","NA"
"-79.57","43.96","PA KING CITY","6156162","2018-04-19 07:00","2018","04","19","07:00","-1.7","","-6.7","","68","","","","33","","8","","","","96.74","","","","-5","","NA"
"-79.57","43.96","PA KING CITY","6156162","2018-04-19 08:00","2018","04","19","08:00","-1.1","","-6.5","","67","","","","32","","11","","","","96.82","","","","-5","","NA"
"-79.57","43.96","PA KING CITY","6156162","2018-04-19 09:00","2018","04","19","09:00","-0.6","","-6.1","","67","","","","32","","11","","","","96.91","","","","-4","","NA"
"-79.57","43.96","PA KING CITY","6156162","2018-04-19 10:00","2018","04","19","10:00","-0.7","","-5.4","","70","","","","32","","9","","","","97.00","","","","-4","","NA"
"-79.57","43.96","PA KING CITY","6156162","2018-04-19 11:00","2018","04","19","11:00","0.0","","-6.2","","63","","","","31","","11","","","","97.06","","","","-4","","NA"
"-79.57","43.96","PA KING CITY","6156162","2018-04-19 12:00","2018","04","19","12:00","1.2","","-6.5","","56","","","","31","","13","","","","97.13","","","","","","NA"
"-79.57","43.96","PA KING CITY","6156162","2018-04-19 13:00","2018","04","19","13:00","1.1","","-6.9","","55","","","","29","","11","","","","97.18","","","","","","NA"
"-79.57","43.96","PA KING CITY","6156162","2018-04-19 14:00","2018","04","19","14:00","1.2","","-6.8","","55","","","","31","","10","","","","97.24","","","","","","NA"
"-79.57","43.96","PA KING CITY","6156162","2018-04-19 15:00","2018","04","19","15:00","1.0","","-6.3","","58","","","","32","","13","","","","97.32","","","","","","NA"
"-79.57","43.96","PA KING CITY","6156162","2018-04-19 16:00","2018","04","19","16:00","1.1","","-7.4","","53","","","","31","","11","","","","97.36","","","","","","NA"
"-79.57","43.96","PA KING CITY","6156162","2018-04-19 17:00","2018","04","19","17:00","1.1","","-8.1","","50","","","","32","","12","","","","97.44","","","","","","NA"
"-79.57","43.96","PA KING CITY","6156162","2018-04-19 18:00","2018","04","19","18:00","0.3","","-7.7","","55","","","","32","","10","","","","97.52","","","","","","NA"
"-79.57","43.96","PA KING CITY","6156162","2018-04-19 19:00","2018","04","19","19:00","0.0","","-7.1","","59","","","","32","","6","","","","97.61","","","","-2","","NA"
"-79.57","43.96","PA KING CITY","6156162","2018-04-19 20:00","2018","04","19","20:00","-0.1","","-7.1","","59","","","","32","","6","","","","97.69","","","","-2","","NA"
"-79.57","43.96","PA KING CITY","6156162","2018-04-19 21:00","2018","04","19","21:00","-0.3","","-6.7","","62","","","","33","","5","","","","97.77","","","","-2","","NA"
"-79.57","43.96","PA KING CITY","6156162","2018-04-19 22:00","2018","04","19","22:00","-0.7","","-5.8","","68","","","","34","","4","","","","97.81","","","","-2","","NA"
"-79.57","43.96","PA KING CITY","6156162","2018-04-19 23:00","2018","04","19","23:00","-1.1","","-6.5","","67","","","","35","","6","","","","97.85","","","","-3","","NA"
"-79.57","43.96","PA KING CITY","6156162","2018-04-20 00:00","2018","04","20","00:00","-2.0","","-7.5","","66","","","","33","","6","","","","97.90","","","","-4","","NA"
"-79.57","43.96","PA KING CITY","6156162","2018-04-20 01:00","2018","04","20","01:00","-2.5","","-8.0","","66","","","","32","","5","","","","97.91","","","","-4","","NA"
"-79.57","43.96","PA KING CITY","6156162","2018-04-20 02:00","2018","04","20","02:00","-2.7","","-8.1","","66","","","","31","","6","","","","97.95","","","","-5","","NA"
"-79.57","43.96","PA KING CITY","6156162","2018-04-20 03:00","2018","04","20","03:00","-3.0","","-7.9","","69","","","","30","","6","","","","97.98","","","","-5","","NA"
"-79.57","43.96","PA KING CITY","6156162","2018-04-20 04:00","2018","04","20","04:00","-3.2","","-7.6","","72","","","","30","","5","","","","98.04","","","","-5","","NA"
"-79.57","43.96","PA KING CITY","6156162","2018-04-20 05:00","2018","04","20","05:00","-3.5","","-7.4","","74","","","","30","","5","","","","98.10","","","","-6","","NA"
"-79.57","43.96","PA KING CITY","6156162","2018-04-20 06:00","2018","04","20","06:00","-3.1","","-7.6","","71","","","","31","","8","","","","98.18","","","","-6","","NA"
"-79.57","43.96","PA KING CITY","6156162","2018-04-20 07:00","2018","04","20","07:00","-2.1","","-8.2","","63","","","","33","","9","","","","98.27","","","","-6","","NA"
"-79.57","43.96","PA KING CITY","6156162","2018-04-20 08:00","2018","04","20","08:00","-0.5","","-8.0","","57","","","","33","","7","","","","98.35","","","","-3","","NA"
"-79.57","43.96","PA KING CITY","6156162","2018-04-20 09:00","2018","04","20","09:00","0.6","","-8.1","","52","","","","31","","9","","","","98.44","","","","","","NA"
"-79.57","43.96","PA KING CITY","6156162","2018-04-20 10:00","2018","04","20","10:00","1.2","","-7.6","","52","","","","31","","9","","","","98.51","","","","","","NA"
"-79.57","43.96","PA KING CITY","6156162","2018-04-20 11:00","2018","04","20","11:00","2.3","","-7.4","","49","","","","33","","8","","","","98.53","","","","","","NA"
"-79.57","43.96","PA KING CITY","6156162","2018-04-20 12:00","2018","04","20","12:00","3.0","","-7.2","","47","","","","30","","8","","","","98.53","","","","","","NA"
"-79.57","43.96","PA KING CITY","6156162","2018-04-20 13:00","2018","04","20","13:00","3.9","","-7.0","","45","","","","32","","7","","","","98.53","","","","","","NA"
"-79.57","43.96","PA KING CITY","6156162","2018-04-20 14:00","2018","04","20","14:00","4.3","","-6.7","","44","","","","30","","7","","","","98.57","","","","","","NA"
"-79.57","43.96","PA KING CITY","6156162","2018-04-20 15:00","2018","04","20","15:00","4.7","","-7.6","","40","","","","30","","8","","","","98.57","","","","","","NA"
"-79.57","43.96","PA KING CITY","6156162","2018-04-20 16:00","2018","04","20","16:00","4.2","","-6.0","","47","","","","33","","8","","","","98.61","","","","","","NA"
"-79.57","43.96","PA KING CITY","6156162","2018-04-20 17:00","2018","04","20","17:00","3.5","","-6.3","","49","","","","33","","9","","","","98.59","","","","","","NA"
"-79.57","43.96","PA KING CITY","6156162","2018-04-20 18:00","2018","04","20","18:00","2.8","","-6.1","","52","","","","32","","7","","","","98.60","","","","","","NA"
"-79.57","43.96","PA KING CITY","6156162","2018-04-20 19:00","2018","04","20","19:00","1.5","","-6.9","","54","","","","33","","5","","","","98.61","","","","","","NA"
"-79.57","43.96","PA KING CITY","6156162","2018-04-20 20:00","2018","04","20","20:00","0.2","","-7.2","","57","","","","34","","2","","","","98.65","","","","","","NA"
"-79.57","43.96","PA KING CITY","6156162","2018-04-20 21:00","2018","04","20","21:00","0.4","","-7.9","","54","","","","30","","3","","","","98.63","","","","","","NA"
"-79.57","43.96","PA KING CITY","6156162","2018-04-20 22:00","2018","04","20","22:00","-0.6","","-8.0","","57","","","","26","","1","","","","98.59","","","","-1","","NA"
"-79.57","43.96","PA KING CITY","6156162","2018-04-20 23:00","2018","04","20","23:00","-0.1","","-7.7","","57","","","","27","","4","","","","98.63","","","","-1","","NA"
"-79.57","43.96","PA KING CITY","6156162","2018-04-21 00:00","2018","04","21","00:00","-0.2","","-7.5","","58","","","","29","","3","","","","98.68","","","","-1","","NA"
"-79.57","43.96","PA KING CITY","6156162","2018-04-21 01:00","2018","04","21","01:00","-0.5","","-7.7","","58","","","","32","","3","","","","98.69","","","","-1","","NA"
"-79.57","43.96","PA KING CITY","6156162","2018-04-21 02:00","2018","04","21","02:00","-0.5","","-7.8","","58","","","","30","","3","","","","98.68","","","","-1","","NA"
"-79.57","43.96","PA KING CITY","6156162","2018-04-21 03:00","2018","04","21","03:00","0.1","","-9.0","","50","","","","26","","3","","","","98.70","","","","","","NA"
"-79.57","43.96","PA KING CITY","6156162","2018-04-21 04:00","2018","04","21","04:00","0.0","","-9.9","","47","","","","26","","2","","","","98.66","","","","-1","","NA"
"-79.57","43.96","PA KING CITY","6156162","2018-04-21 05:00","2018","04","21","05:00","0.0","","-10.5","","45","","","","27","","1","","","","98.63","","","","0","","NA"
"-79.57","43.96","PA KING CITY","6156162","2018-04-21 06:00","2018","04","21","06:00","0.9","","-10.3","","43","","","","26","","2","","","","98.68","","","","","","NA"
"-79.57","43.96","PA KING CITY","6156162","2018-04-21 07:00","2018","04","21","07:00","3.6","","-10.6","","34","","","","27","","4","","","","98.80","","","","","","NA"
"-79.57","43.96","PA KING CITY","6156162","2018-04-21 08:00","2018","04","21","08:00","5.8","","-10.7","","29","","","","29","","4","","","","98.84","","","","","","NA"
"-79.57","43.96","PA KING CITY","6156162","2018-04-21 09:00","2018","04","21","09:00","7.6","","-10.3","","27","","","","31","","5","","","","98.85","","","","","","NA"
"-79.57","43.96","PA KING CITY","6156162","2018-04-21 10:00","2018","04","21","10:00","7.9","","-10.3","","26","","","","35","","7","","","","98.81","","","","","","NA"
"-79.57","43.96","PA KING CITY","6156162","2018-04-21 11:00","2018","04","21","11:00","8.7","","-9.3","","27","","","","31","","6","","","","98.78","","","","","","NA"
"-79.57","43.96","PA KING CITY","6156162","2018-04-21 12:00","2018","04","21","12:00","9.9","","-8.7","","26","","","","34","","6","","","","98.74","","","","","","NA"
"-79.57","43.96","PA KING CITY","6156162","2018-04-21 13:00","2018","04","21","13:00","11.0","","-8.4","","25","","","","33","","5","","","","98.71","","","","","","NA"
"-79.57","43.96","PA KING CITY","6156162","2018-04-21 14:00","2018","04","21","14:00","11.8","","-7.9","","24","","","","29","","6","","","","98.68","","","","","","NA"
"-79.57","43.96","PA KING CITY","6156162","2018-04-21 15:00","2018","04","21","15:00","11.8","","-8.1","","24","","","","30","","6","","","","98.63","","","","","","NA"
"-79.57","43.96","PA KING CITY","6156162","2018-04-21 16:00","2018","04","21","16:00","12.2","","-8.3","","23","","","","31","","5","","","","98.58","","","","","","NA"
"-79.57","43.96","PA KING CITY","6156162","2018-04-21 17:00","2018","04","21","17:00","10.9","","-7.2","","27","","","","34","","6","","","","98.58","","","","","","NA"
"-79.57","43.96","PA KING CITY","6156162","2018-04-21 18:00","2018","04","21","18:00","9.8","","-7.1","","30","","","","33","","5","","","","98.57","","","","","","NA"
"-79.57","43.96","PA KING CITY","6156162","2018-04-21 19:00","2018","04","21","19:00","7.8","","-6.9","","35","","","","31","","2","","","","98.57","","","","","","NA"
"-79.57","43.96","PA KING CITY","6156162","2018-04-21 20:00","2018","04","21","20:00","5.6","","-6.6","","41","","","","33","","1","","","","98.58","","","","","","NA"
"-79.57","43.96","PA KING CITY","6156162","2018-04-21 21:00","2018","04","21","21:00","5.4","","-7.6","","38","","","","33","","2","","","","98.61","","","","","","NA"
"-79.57","43.96","PA KING CITY","6156162","2018-04-21 22:00","2018","04","21","22:00","3.9","","-7.5","","43","","","","29","","1","","","","98.62","","","","","","NA"
"-79.57","43.96","PA KING CITY","6156162","2018-04-21 23:00","2018","04","21","23:00","4.4","","-7.9","","40","","","","35","","2","","","","98.61","","","","","","NA"
"-79.57","43.96","PA KING CITY","6156162","2018-04-22 00:00","2018","04","22","00:00","4.4","","-8.1","","40","","","","31","","2","","","","98.63","","","","","","NA"
"-79.57","43.96","PA KING CITY","6156162","2018-04-22 01:00","2018","04","22","01:00","4.3","","-8.1","","40","","","","33","","3","","","","98.61","","","","","","NA"
"-79.57","43.96","PA KING CITY","6156162","2018-04-22 02:00","2018","04","22","02:00","3.3","","-8.2","","43","","","","34","","2","","","","98.58","","","","","","NA"
"-79.57","43.96","PA KING CITY","6156162","2018-04-22 03:00","2018","04","22","03:00","2.5","","-8.1","","46","","","","32","","2","","","","98.57","","","","","","NA"
"-79.57","43.96","PA KING CITY","6156162","2018-04-22 04:00","2018","04","22","04:00","2.1","","-8.0","","47","","","","33","","3","","","","98.58","","","","","","NA"
"-79.57","43.96","PA KING CITY","6156162","2018-04-22 05:00","2018","04","22","05:00","2.9","","-8.1","","44","","","","35","","5","","","","98.59","","","","","","NA"
"-79.57","43.96","PA KING CITY","6156162","2018-04-22 06:00","2018","04","22","06:00","3.5","","-8.5","","41","","","","36","","4","","","","98.63","","","","","","NA"
"-79.57","43.96","PA KING CITY","6156162","2018-04-22 07:00","2018","04","22","07:00","6.5","","-8.4","","34","","","","31","","2","","","","98.70","","","","","","NA"
"-79.57","43.96","PA KING CITY","6156162","2018-04-22 08:00","2018","04","22","08:00","8.9","","-8.4","","28","","","","29","","3","","","","98.78","","","","","","NA"
"-79.57","43.96","PA KING CITY","6156162","2018-04-22 09:00","2018","04","22","09:00","9.8","","-7.9","","28","","","","34","","5","","","","98.80","","","","","","NA"
"-79.57","43.96","PA KING CITY","6156162","2018-04-22 10:00","2018","04","22","10:00","11.4","","-6.6","","28","","","","36","","4","","","","98.82","","","","","","NA"
"-79.57","43.96","PA KING CITY","6156162","2018-04-22 11:00","2018","04","22","11:00","12.7","","-7.7","","23","","","","24","","4","","","","98.81","","","","","","NA"
"-79.57","43.96","PA KING CITY","6156162","2018-04-22 12:00","2018","04","22","12:00","13.5","","-9.0","","20","","","","31","","5","","","","98.76","","","","","","NA"
"-79.57","43.96","PA KING CITY","6156162","2018-04-22 13:00","2018","04","22","13:00","14.5","","-7.2","","22","","","","33","","5","","","","98.71","","","","","","NA"
"-79.57","43.96","PA KING CITY","6156162","2018-04-22 14:00","2018","04","22","14:00","14.5","","-6.6","","23","","","","36","","7","","","","98.66","","","","","","NA"
"-79.57","43.96","PA KING CITY","6156162","2018-04-22 15:00","2018","04","22","15:00","15.3","","-6.2","","22","","","","30","","5","","","","98.61","","","","","","NA"
"-79.57","43.96","PA KING CITY","6156162","2018-04-22 16:00","2018","04","22","16:00","14.3","","-7.4","","22","","","","1","","7","","","","98.58","","","","","","NA"
"-79.57","43.96","PA KING CITY","6156162","2018-04-22 17:00","2018","04","22","17:00","14.2","","-7.7","","21","","","","1","","5","","","","98.57","","","","","","NA"
"-79.57","43.96","PA KING CITY","6156162","2018-04-22 18:00","2018","04","22","18:00","13.2","","-7.2","","23","","","","33","","5","","","","98.56","","","","","","NA"
"-79.57","43.96","PA KING CITY","6156162","2018-04-22 19:00","2018","04","22","19:00","10.6","","-6.5","","29","","","","34","","3","","","","98.57","","","","","","NA"
"-79.57","43.96","PA KING CITY","6156162","2018-04-22 20:00","2018","04","22","20:00","8.3","","-7.0","","33","","","","34","","2","","","","98.60","","","","","","NA"
"-79.57","43.96","PA KING CITY","6156162","2018-04-22 21:00","2018","04","22","21:00","7.7","","-8.5","","31","","","","32","","1","","","","98.60","","","","","","NA"
"-79.57","43.96","PA KING CITY","6156162","2018-04-22 22:00","2018","04","22","22:00","6.4","","-8.6","","33","","","","19","","3","","","","98.59","","","","","","NA"
"-79.57","43.96","PA KING CITY","6156162","2018-04-22 23:00","2018","04","22","23:00","5.9","","-8.6","","35","","","","0","","1","","","","98.58","","","","","","NA"
"-79.57","43.96","PA KING CITY","6156162","2018-04-23 00:00","2018","04","23","00:00","5.7","","-8.7","","35","","","","32","","1","","","","98.59","","","","","","NA"
"-79.57","43.96","PA KING CITY","6156162","2018-04-23 01:00","2018","04","23","01:00","6.6","","-7.6","","36","","","","8","","2","","","","98.55","","","","","","NA"
"-79.57","43.96","PA KING CITY","6156162","2018-04-23 02:00","2018","04","23","02:00","7.1","","-8.7","","32","","","","10","","5","","","","98.51","","","","","","NA"
"-79.57","43.96","PA KING CITY","6156162","2018-04-23 03:00","2018","04","23","03:00","6.6","","-9.0","","32","","","","12","","3","","","","98.54","","","","","","NA"
"-79.57","43.96","PA KING CITY","6156162","2018-04-23 04:00","2018","04","23","04:00","5.8","","-9.2","","33","","","","11","","4","","","","98.54","","","","","","NA"
"-79.57","43.96","PA KING CITY","6156162","2018-04-23 05:00","2018","04","23","05:00","5.2","","-9.2","","34","","","","10","","3","","","","98.56","","","","","","NA"
"-79.57","43.96","PA KING CITY","6156162","2018-04-23 06:00","2018","04","23","06:00","6.2","","-9.3","","32","","","","11","","3","","","","98.59","","","","","","NA"
"-79.57","43.96","PA KING CITY","6156162","2018-04-23 07:00","2018","04","23","07:00","8.7","","-7.9","","30","","","","9","","4","","","","98.64","","","","","","NA"
"-79.57","43.96","PA KING CITY","6156162","2018-04-23 08:00","2018","04","23","08:00","11.1","","-7.3","","27","","","","14","","5","","","","98.67","","","","","","NA"
"-79.57","43.96","PA KING CITY","6156162","2018-04-23 09:00","2018","04","23","09:00","13.0","","-7.3","","24","","","","13","","6","","","","98.63","","","","","","NA"
"-79.57","43.96","PA KING CITY","6156162","2018-04-23 10:00","2018","04","23","10:00","14.7","","-7.0","","22","","","","14","","6","","","","98.60","","","","","","NA"
"-79.57","43.96","PA KING CITY","6156162","2018-04-23 11:00","2018","04","23","11:00","15.4","","-8.2","","19","","","","14","","7","","","","98.57","","","","","","NA"
"-79.57","43.96","PA KING CITY","6156162","2018-04-23 12:00","2018","04","23","12:00","16.0","","-7.0","","20","","","","11","","8","","","","98.46","","","","","","NA"
"-79.57","43.96","PA KING CITY","6156162","2018-04-23 13:00","2018","04","23","13:00","16.8","","-5.9","","21","","","","12","","6","","","","98.40","","","","","","NA"
"-79.57","43.96","PA KING CITY","6156162","2018-04-23 14:00","2018","04","23","14:00","17.0","","-5.9","","20","","","","11","","7","","","","98.36","","","","","","NA"
"-79.57","43.96","PA KING CITY","6156162","2018-04-23 15:00","2018","04","23","15:00","17.0","","-6.4","","20","","","","12","","7","","","","98.25","","","","","","NA"
"-79.57","43.96","PA KING CITY","6156162","2018-04-23 16:00","2018","04","23","16:00","17.3","","-5.8","","20","","","","15","","6","","","","98.20","","","","","","NA"
"-79.57","43.96","PA KING CITY","6156162","2018-04-23 17:00","2018","04","23","17:00","16.7","","-6.1","","20","","","","10","","5","","","","98.15","","","","","","NA"
"-79.57","43.96","PA KING CITY","6156162","2018-04-23 18:00","2018","04","23","18:00","15.3","","-6.8","","21","","","","10","","8","","","","98.09","","","","","","NA"
"-79.57","43.96","PA KING CITY","6156162","2018-04-23 19:00","2018","04","23","19:00","12.7","","-6.3","","26","","","","17","","2","","","","98.09","","","","","","NA"
"-79.57","43.96","PA KING CITY","6156162","2018-04-23 20:00","2018","04","23","20:00","11.1","","-7.4","","27","","","","16","","3","","","","98.09","","","","","","NA"
"-79.57","43.96","PA KING CITY","6156162","2018-04-23 21:00","2018","04","23","21:00","11.7","","-7.2","","26","","","","11","","4","","","","98.08","","","","","","NA"
"-79.57","43.96","PA KING CITY","6156162","2018-04-23 22:00","2018","04","23","22:00","12.3","","-7.6","","24","","","","10","","6","","","","98.03","","","","","","NA"
"-79.57","43.96","PA KING CITY","6156162","2018-04-23 23:00","2018","04","23","23:00","12.2","","-7.8","","24","","","","11","","5","","","","97.96","","","","","","NA"
"-79.57","43.96","PA KING CITY","6156162","2018-04-24 00:00","2018","04","24","00:00","10.8","","-7.4","","27","","","","17","","3","","","","97.97","","","","","","NA"
"-79.57","43.96","PA KING CITY","6156162","2018-04-24 01:00","2018","04","24","01:00","9.8","","-7.1","","30","","","","17","","2","","","","97.93","","","","","","NA"
"-79.57","43.96","PA KING CITY","6156162","2018-04-24 02:00","2018","04","24","02:00","10.1","","-6.5","","30","","","","16","","3","","","","97.89","","","","","","NA"
"-79.57","43.96","PA KING CITY","6156162","2018-04-24 03:00","2018","04","24","03:00","9.9","","-4.5","","36","","","","16","","3","","","","97.88","","","","","","NA"
"-79.57","43.96","PA KING CITY","6156162","2018-04-24 04:00","2018","04","24","04:00","9.9","","-2.4","","42","","","","18","","4","","","","97.86","","","","","","NA"
"-79.57","43.96","PA KING CITY","6156162","2018-04-24 05:00","2018","04","24","05:00","9.6","","-1.2","","47","","","","17","","5","","","","97.86","","","","","","NA"
"-79.57","43.96","PA KING CITY","6156162","2018-04-24 06:00","2018","04","24","06:00","8.4","","-1.0","","52","","","","16","","6","","","","97.89","","","","","","NA"
"-79.57","43.96","PA KING CITY","6156162","2018-04-24 07:00","2018","04","24","07:00","9.2","","-1.0","","49","","","","18","","4","","","","97.93","","","","","","NA"
"-79.57","43.96","PA KING CITY","6156162","2018-04-24 08:00","2018","04","24","08:00","10.1","","-0.4","","48","","","","18","","5","","","","97.96","","","","","","NA"
"-79.57","43.96","PA KING CITY","6156162","2018-04-24 09:00","2018","04","24","09:00","11.9","","1.3","","48","","","","18","","4","","","","97.97","","","","","","NA"
"-79.57","43.96","PA KING CITY","6156162","2018-04-24 10:00","2018","04","24","10:00","13.1","","3.6","","53","","","","18","","6","","","","97.96","","","","","","NA"
"-79.57","43.96","PA KING CITY","6156162","2018-04-24 11:00","2018","04","24","11:00","15.2","","5.5","","52","","","","18","","6","","","","97.88","","","","","","NA"
"-79.57","43.96","PA KING CITY","6156162","2018-04-24 12:00","2018","04","24","12:00","15.8","","5.6","","50","","","","19","","5","","","","97.82","","","","","","NA"
"-79.57","43.96","PA KING CITY","6156162","2018-04-24 13:00","2018","04","24","13:00","15.2","","5.2","","51","","","","18","","6","","","","97.78","","","","","","NA"
"-79.57","43.96","PA KING CITY","6156162","2018-04-24 14:00","2018","04","24","14:00","14.7","","5.1","","52","","","","16","","7","","","","97.74","","","","","","NA"
"-79.57","43.96","PA KING CITY","6156162","2018-04-24 15:00","2018","04","24","15:00","14.7","","3.3","","46","","","","18","","6","","","","97.69","","","","","","NA"
"-79.57","43.96","PA KING CITY","6156162","2018-04-24 16:00","2018","04","24","16:00","14.7","","3.7","","47","","","","18","","5","","","","97.62","","","","","","NA"
"-79.57","43.96","PA KING CITY","6156162","2018-04-24 17:00","2018","04","24","17:00","13.1","","4.2","","55","","","","16","","7","","","","97.61","","","","","","NA"
"-79.57","43.96","PA KING CITY","6156162","2018-04-24 18:00","2018","04","24","18:00","10.5","","5.9","","73","","","","15","","5","","","","97.57","","","","","","NA"
"-79.57","43.96","PA KING CITY","6156162","2018-04-24 19:00","2018","04","24","19:00","9.0","","6.6","","85","","","","16","","3","","","","97.57","","","","","","NA"
"-79.57","43.96","PA KING CITY","6156162","2018-04-24 20:00","2018","04","24","20:00","8.6","","6.7","","88","","","","14","","2","","","","97.57","","","","","","NA"
"-79.57","43.96","PA KING CITY","6156162","2018-04-24 21:00","2018","04","24","21:00","8.7","","6.9","","89","","","","16","","3","","","","97.55","","","","","","NA"
"-79.57","43.96","PA KING CITY","6156162","2018-04-24 22:00","2018","04","24","22:00","8.9","","7.2","","89","","","","13","","6","","","","97.49","","","","","","NA"
"-79.57","43.96","PA KING CITY","6156162","2018-04-24 23:00","2018","04","24","23:00","9.0","","7.3","","89","","","","15","","5","","","","97.43","","","","","","NA"
"-79.57","43.96","PA KING CITY","6156162","2018-04-25 00:00","2018","04","25","00:00","8.9","","7.2","","89","","","","15","","5","","","","97.36","","","","","","NA"
"-79.57","43.96","PA KING CITY","6156162","2018-04-25 01:00","2018","04","25","01:00","8.7","","7.0","","89","","","","14","","5","","","","97.28","","","","","","NA"
"-79.57","43.96","PA KING CITY","6156162","2018-04-25 02:00","2018","04","25","02:00","8.3","","6.6","","89","","","","13","","6","","","","97.18","","","","","","NA"
"-79.57","43.96","PA KING CITY","6156162","2018-04-25 03:00","2018","04","25","03:00","8.1","","6.4","","89","","","","12","","6","","","","97.11","","","","","","NA"
"-79.57","43.96","PA KING CITY","6156162","2018-04-25 04:00","2018","04","25","04:00","7.8","","6.1","","89","","","","13","","5","","","","97.05","","","","","","NA"
"-79.57","43.96","PA KING CITY","6156162","2018-04-25 05:00","2018","04","25","05:00","7.6","","5.9","","89","","","","13","","5","","","","97.02","","","","","","NA"
"-79.57","43.96","PA KING CITY","6156162","2018-04-25 06:00","2018","04","25","06:00","7.8","","6.2","","89","","","","12","","6","","","","96.99","","","","","","NA"
"-79.57","43.96","PA KING CITY","6156162","2018-04-25 07:00","2018","04","25","07:00","7.9","","6.3","","89","","","","11","","8","","","","96.96","","","","","","NA"
"-79.57","43.96","PA KING CITY","6156162","2018-04-25 08:00","2018","04","25","08:00","8.0","","6.3","","89","","","","11","","6","","","","96.91","","","","","","NA"
"-79.57","43.96","PA KING CITY","6156162","2018-04-25 09:00","2018","04","25","09:00","8.1","","6.4","","89","","","","11","","3","","","","96.86","","","","","","NA"
"-79.57","43.96","PA KING CITY","6156162","2018-04-25 10:00","2018","04","25","10:00","8.1","","6.4","","89","","","","15","","3","","","","96.83","","","","","","NA"
"-79.57","43.96","PA KING CITY","6156162","2018-04-25 11:00","2018","04","25","11:00","8.4","","6.6","","89","","","","14","","7","","","","96.78","","","","","","NA"
"-79.57","43.96","PA KING CITY","6156162","2018-04-25 12:00","2018","04","25","12:00","9.1","","7.0","","86","","","","15","","6","","","","96.71","","","","","","NA"
"-79.57","43.96","PA KING CITY","6156162","2018-04-25 13:00","2018","04","25","13:00","10.0","","7.6","","85","","","","1","","3","","","","96.65","","","","","","NA"
"-79.57","43.96","PA KING CITY","6156162","2018-04-25 14:00","2018","04","25","14:00","10.4","","8.0","","85","","","","1","","3","","","","96.60","","","","","","NA"
"-79.57","43.96","PA KING CITY","6156162","2018-04-25 15:00","2018","04","25","15:00","10.0","","7.6","","85","","","","36","","4","","","","96.55","","","","","","NA"
"-79.57","43.96","PA KING CITY","6156162","2018-04-25 16:00","2018","04","25","16:00","7.2","","5.3","","88","","","","32","","6","","","","96.57","","","","","","NA"
"-79.57","43.96","PA KING CITY","6156162","2018-04-25 17:00","2018","04","25","17:00","5.5","","3.6","","88","","","","32","","7","","","","96.57","","","","","","NA"
"-79.57","43.96","PA KING CITY","6156162","2018-04-25 18:00","2018","04","25","18:00","4.3","","2.5","","88","","","","32","","9","","","","96.58","","","","","","NA"
"-79.57","43.96","PA KING CITY","6156162","2018-04-25 19:00","2018","04","25","19:00","3.2","","1.2","","87","","","","31","","10","","","","96.59","","","","","","NA"
"-79.57","43.96","PA KING CITY","6156162","2018-04-25 20:00","2018","04","25","20:00","2.6","","0.8","","88","","","","30","","9","","","","96.60","","","","","","NA"
"-79.57","43.96","PA KING CITY","6156162","2018-04-25 21:00","2018","04","25","21:00","2.3","","0.5","","88","","","","32","","10","","","","96.61","","","","","","NA"
"-79.57","43.96","PA KING CITY","6156162","2018-04-25 22:00","2018","04","25","22:00","2.0","","0.3","","89","","","","32","","9","","","","96.57","","","","","","NA"
"-79.57","43.96","PA KING CITY","6156162","2018-04-25 23:00","2018","04","25","23:00","1.8","","0.2","","89","","","","31","","11","","","","96.53","","","","","","NA"
"-79.57","43.96","PA KING CITY","6156162","2018-04-26 00:00","2018","04","26","00:00","1.6","","-0.1","","89","","","","33","","10","","","","96.53","","","","","","NA"
"-79.57","43.96","PA KING CITY","6156162","2018-04-26 01:00","2018","04","26","01:00","1.5","","-0.1","","89","","","","32","","8","","","","96.52","","","","","","NA"
"-79.57","43.96","PA KING CITY","6156162","2018-04-26 02:00","2018","04","26","02:00","1.5","","-0.1","","89","","","","32","","9","","","","96.48","","","","","","NA"
"-79.57","43.96","PA KING CITY","6156162","2018-04-26 03:00","2018","04","26","03:00","1.3","","-0.3","","89","","","","31","","9","","","","96.50","","","","","","NA"
"-79.57","43.96","PA KING CITY","6156162","2018-04-26 04:00","2018","04","26","04:00","1.4","","-0.3","","88","","","","30","","10","","","","96.55","","","","","","NA"
"-79.57","43.96","PA KING CITY","6156162","2018-04-26 05:00","2018","04","26","05:00","1.3","","-0.6","","87","","","","32","","8","","","","96.54","","","","","","NA"
"-79.57","43.96","PA KING CITY","6156162","2018-04-26 06:00","2018","04","26","06:00","1.3","","-0.9","","85","","","","31","","11","","","","96.60","","","","","","NA"
"-79.57","43.96","PA KING CITY","6156162","2018-04-26 07:00","2018","04","26","07:00","2.5","","-0.9","","78","","","","31","","11","","","","96.66","","","","","","NA"
"-79.57","43.96","PA KING CITY","6156162","2018-04-26 08:00","2018","04","26","08:00","3.9","","-0.9","","71","","","","32","","11","","","","96.70","","","","","","NA"
"-79.57","43.96","PA KING CITY","6156162","2018-04-26 09:00","2018","04","26","09:00","6.0","","0.2","","66","","","","31","","10","","","","96.73","","","","","","NA"
"-79.57","43.96","PA KING CITY","6156162","2018-04-26 10:00","2018","04","26","10:00","7.6","","0.2","","59","","","","31","","9","","","","96.77","","","","","","NA"
"-79.57","43.96","PA KING CITY","6156162","2018-04-26 11:00","2018","04","26","11:00","7.9","","-1.0","","53","","","","32","","10","","","","96.81","","","","","","NA"
"-79.57","43.96","PA KING CITY","6156162","2018-04-26 12:00","2018","04","26","12:00","9.4","","-1.0","","48","","","","32","","8","","","","96.80","","","","","","NA"
"-79.57","43.96","PA KING CITY","6156162","2018-04-26 13:00","2018","04","26","13:00","11.2","","-2.4","","39","","","","29","","8","","","","96.82","","","","","","NA"
"-79.57","43.96","PA KING CITY","6156162","2018-04-26 14:00","2018","04","26","14:00","12.6","","-1.1","","39","","","","31","","7","","","","96.82","","","","","","NA"
"-79.57","43.96","PA KING CITY","6156162","2018-04-26 15:00","2018","04","26","15:00","13.3","","-0.3","","39","","","","32","","7","","","","96.80","","","","","","NA"
"-79.57","43.96","PA KING CITY","6156162","2018-04-26 16:00","2018","04","26","16:00","13.4","","0.2","","40","","","","35","","4","","","","96.77","","","","","","NA"
"-79.57","43.96","PA KING CITY","6156162","2018-04-26 17:00","2018","04","26","17:00","13.2","","0.8","","43","","","","35","","5","","","","96.79","","","","","","NA"
"-79.57","43.96","PA KING CITY","6156162","2018-04-26 18:00","2018","04","26","18:00","11.7","","0.5","","46","","","","33","","5","","","","96.77","","","","","","NA"
"-79.57","43.96","PA KING CITY","6156162","2018-04-26 19:00","2018","04","26","19:00","9.6","","0.3","","52","","","","32","","3","","","","96.79","","","","","","NA"
"-79.57","43.96","PA KING CITY","6156162","2018-04-26 20:00","2018","04","26","20:00","7.2","","-0.6","","58","","","","33","","3","","","","96.81","","","","","","NA"
"-79.57","43.96","PA KING CITY","6156162","2018-04-26 21:00","2018","04","26","21:00","6.0","","-1.0","","61","","","","31","","2","","","","96.85","","","","","","NA"
"-79.57","43.96","PA KING CITY","6156162","2018-04-26 22:00","2018","04","26","22:00","5.0","","-2.4","","59","","","","31","","2","","","","96.80","","","","","","NA"
"-79.57","43.96","PA KING CITY","6156162","2018-04-26 23:00","2018","04","26","23:00","4.3","","-2.4","","62","","","","28","","1","","","","96.76","","","","","","NA"
"-79.57","43.96","PA KING CITY","6156162","2018-04-27 00:00","2018","04","27","00:00","4.8","","-1.7","","63","","","","20","","1","","","","96.72","","","","","","NA"
"-79.57","43.96","PA KING CITY","6156162","2018-04-27 01:00","2018","04","27","01:00","4.4","","-2.0","","63","","","","19","","2","","","","96.71","","","","","","NA"
"-79.57","43.96","PA KING CITY","6156162","2018-04-27 02:00","2018","04","27","02:00","4.1","","-1.9","","65","","","","21","","2","","","","96.63","","","","","","NA"
"-79.57","43.96","PA KING CITY","6156162","2018-04-27 03:00","2018","04","27","03:00","4.2","","-1.3","","67","","","","20","","2","","","","96.59","","","","","","NA"
"-79.57","43.96","PA KING CITY","6156162","2018-04-27 04:00","2018","04","27","04:00","3.2","","-1.2","","73","","","","22","","2","","","","96.55","","","","","","NA"
"-79.57","43.96","PA KING CITY","6156162","2018-04-27 05:00","2018","04","27","05:00","4.1","","0.7","","79","","","","16","","2","","","","96.54","","","","","","NA"
"-79.57","43.96","PA KING CITY","6156162","2018-04-27 06:00","2018","04","27","06:00","3.5","","-0.6","","74","","","","18","","2","","","","96.59","","","","","","NA"
"-79.57","43.96","PA KING CITY","6156162","2018-04-27 07:00","2018","04","27","07:00","4.6","","-1.3","","65","","","","16","","3","","","","96.59","","","","","","NA"
"-79.57","43.96","PA KING CITY","6156162","2018-04-27 08:00","2018","04","27","08:00","7.0","","0.3","","63","","","","17","","4","","","","96.60","","","","","","NA"
"-79.57","43.96","PA KING CITY","6156162","2018-04-27 09:00","2018","04","27","09:00","9.5","","1.8","","59","","","","16","","4","","","","96.56","","","","","","NA"
"-79.57","43.96","PA KING CITY","6156162","2018-04-27 10:00","2018","04","27","10:00","11.3","","2.2","","54","","","","15","","5","","","","96.53","","","","","","NA"
"-79.57","43.96","PA KING CITY","6156162","2018-04-27 11:00","2018","04","27","11:00","12.4","","0.9","","45","","","","13","","6","","","","96.47","","","","","","NA"
"-79.57","43.96","PA KING CITY","6156162","2018-04-27 12:00","2018","04","27","12:00","13.6","","-1.0","","36","","","","13","","6","","","","96.44","","","","","","NA"
"-79.57","43.96","PA KING CITY","6156162","2018-04-27 13:00","2018","04","27","13:00","14.1","","-1.6","","34","","","","16","","7","","","","96.40","","","","","","NA"
"-79.57","43.96","PA KING CITY","6156162","2018-04-27 14:00","2018","04","27","14:00","14.3","","-0.7","","36","","","","14","","6","","","","96.34","","","","","","NA"
"-79.57","43.96","PA KING CITY","6156162","2018-04-27 15:00","2018","04","27","15:00","13.8","","-2.2","","33","","","","12","","5","","","","96.28","","","","","","NA"
"-79.57","43.96","PA KING CITY","6156162","2018-04-27 16:00","2018","04","27","16:00","14.7","","-2.2","","31","","","","11","","5","","","","96.25","","","","","","NA"
"-79.57","43.96","PA KING CITY","6156162","2018-04-27 17:00","2018","04","27","17:00","13.8","","-1.3","","35","","","","13","","5","","","","96.25","","","","","","NA"
"-79.57","43.96","PA KING CITY","6156162","2018-04-27 18:00","2018","04","27","18:00","12.2","","-0.8","","41","","","","9","","3","","","","96.23","","","","","","NA"
"-79.57","43.96","PA KING CITY","6156162","2018-04-27 19:00","2018","04","27","19:00","10.1","","2.0","","57","","","","29","","8","","","","96.32","","","","","","NA"
"-79.57","43.96","PA KING CITY","6156162","2018-04-27 20:00","2018","04","27","20:00","8.6","","2.1","","63","","","","31","","6","","","","96.31","","","","","","NA"
"-79.57","43.96","PA KING CITY","6156162","2018-04-27 21:00","2018","04","27","21:00","7.4","","2.7","","72","","","","31","","5","","","","96.35","","","","","","NA"
"-79.57","43.96","PA KING CITY","6156162","2018-04-27 22:00","2018","04","27","22:00","6.0","","3.6","","85","","","","32","","4","","","","96.32","","","","","","NA"
"-79.57","43.96","PA KING CITY","6156162","2018-04-27 23:00","2018","04","27","23:00","5.9","","4.0","","87","","","","31","","4","","","","96.28","","","","","","NA"
"-79.57","43.96","PA KING CITY","6156162","2018-04-28 00:00","2018","04","28","00:00","5.5","","3.7","","88","","","","23","","3","","","","96.32","","","","","","NA"
"-79.57","43.96","PA KING CITY","6156162","2018-04-28 01:00","2018","04","28","01:00","5.1","","3.4","","89","","","","31","","4","","","","96.29","","","","","","NA"
"-79.57","43.96","PA KING CITY","6156162","2018-04-28 02:00","2018","04","28","02:00","4.9","","3.2","","89","","","","33","","4","","","","96.23","","","","","","NA"
"-79.57","43.96","PA KING CITY","6156162","2018-04-28 03:00","2018","04","28","03:00","4.7","","3.0","","89","","","","31","","3","","","","96.29","","","","","","NA"
"-79.57","43.96","PA KING CITY","6156162","2018-04-28 04:00","2018","04","28","04:00","4.6","","3.0","","89","","","","30","","4","","","","96.28","","","","","","NA"
"-79.57","43.96","PA KING CITY","6156162","2018-04-28 05:00","2018","04","28","05:00","4.6","","3.0","","89","","","","32","","6","","","","96.30","","","","","","NA"
"-79.57","43.96","PA KING CITY","6156162","2018-04-28 06:00","2018","04","28","06:00","4.2","","2.6","","89","","","","35","","5","","","","96.38","","","","","","NA"
"-79.57","43.96","PA KING CITY","6156162","2018-04-28 07:00","2018","04","28","07:00","3.4","","1.8","","89","","","","34","","6","","","","96.43","","","","","","NA"
"-79.57","43.96","PA KING CITY","6156162","2018-04-28 08:00","2018","04","28","08:00","2.8","","1.2","","89","","","","33","","7","","","","96.47","","","","","","NA"
"-79.57","43.96","PA KING CITY","6156162","2018-04-28 09:00","2018","04","28","09:00","2.6","","0.9","","89","","","","32","","8","","","","96.52","","","","","","NA"
"-79.57","43.96","PA KING CITY","6156162","2018-04-28 10:00","2018","04","28","10:00","2.9","","0.9","","87","","","","32","","6","","","","96.60","","","","","","NA"
"-79.57","43.96","PA KING CITY","6156162","2018-04-28 11:00","2018","04","28","11:00","3.0","","0.5","","83","","","","32","","7","","","","96.65","","","","","","NA"
"-79.57","43.96","PA KING CITY","6156162","2018-04-28 12:00","2018","04","28","12:00","2.5","","-0.3","","82","","","","32","","9","","","","96.69","","","","","","NA"
"-79.57","43.96","PA KING CITY","6156162","2018-04-28 13:00","2018","04","28","13:00","2.1","","-0.5","","83","","","","32","","10","","","","96.75","","","","","","NA"
"-79.57","43.96","PA KING CITY","6156162","2018-04-28 14:00","2018","04","28","14:00","2.3","","-1.4","","76","","","","32","","10","","","","96.84","","","","","","NA"
"-79.57","43.96","PA KING CITY","6156162","2018-04-28 15:00","2018","04","28","15:00","1.1","","-2.9","","75","","","","31","","10","","","","96.92","","","","","","NA"
"-79.57","43.96","PA KING CITY","6156162","2018-04-28 16:00","2018","04","28","16:00","0.8","","-3.3","","74","","","","31","","10","","","","96.99","","","","","","NA"
"-79.57","43.96","PA KING CITY","6156162","2018-04-28 17:00","2018","04","28","17:00","0.0","","-3.7","","76","","","","31","","9","","","","97.08","","","","-3","","NA"
"-79.57","43.96","PA KING CITY","6156162","2018-04-28 18:00","2018","04","28","18:00","-0.3","","-3.9","","77","","","","33","","10","","","","97.14","","","","-4","","NA"
"-79.57","43.96","PA KING CITY","6156162","2018-04-28 19:00","2018","04","28","19:00","-0.7","","-4.2","","77","","","","31","","9","","","","97.20","","","","-4","","NA"
"-79.57","43.96","PA KING CITY","6156162","2018-04-28 20:00","2018","04","28","20:00","-0.8","","-4.4","","77","","","","31","","8","","","","97.26","","","","-4","","NA"
"-79.57","43.96","PA KING CITY","6156162","2018-04-28 21:00","2018","04","28","21:00","-0.7","","-4.5","","75","","","","32","","8","","","","97.31","","","","-4","","NA"
"-79.57","43.96","PA KING CITY","6156162","2018-04-28 22:00","2018","04","28","22:00","-0.8","","-4.5","","76","","","","32","","8","","","","97.35","","","","-4","","NA"
"-79.57","43.96","PA KING CITY","6156162","2018-04-28 23:00","2018","04","28","23:00","-0.9","","-4.3","","78","","","","32","","7","","","","97.37","","","","-3","","NA"
"-79.57","43.96","PA KING CITY","6156162","2018-04-29 00:00","2018","04","29","00:00","-0.9","","-4.1","","79","","","","32","","7","","","","97.41","","","","-3","","NA"
"-79.57","43.96","PA KING CITY","6156162","2018-04-29 01:00","2018","04","29","01:00","-1.0","","-3.7","","82","","","","32","","8","","","","97.42","","","","-4","","NA"
"-79.57","43.96","PA KING CITY","6156162","2018-04-29 02:00","2018","04","29","02:00","-1.2","","-3.4","","85","","","","32","","8","","","","97.44","","","","-4","","NA"
"-79.57","43.96","PA KING CITY","6156162","2018-04-29 03:00","2018","04","29","03:00","-1.1","","-3.5","","84","","","","31","","8","","","","97.49","","","","-4","","NA"
"-79.57","43.96","PA KING CITY","6156162","2018-04-29 04:00","2018","04","29","04:00","-1.5","","-3.6","","86","","","","32","","7","","","","97.50","","","","-4","","NA"
"-79.57","43.96","PA KING CITY","6156162","2018-04-29 05:00","2018","04","29","05:00","-1.5","","-4.1","","83","","","","33","","7","","","","97.56","","","","-4","","NA"
"-79.57","43.96","PA KING CITY","6156162","2018-04-29 06:00","2018","04","29","06:00","-1.0","","-4.6","","76","","","","33","","5","","","","97.60","","","","-3","","NA"
"-79.57","43.96","PA KING CITY","6156162","2018-04-29 07:00","2018","04","29","07:00","-0.2","","-4.8","","71","","","","32","","8","","","","97.64","","","","-3","","NA"
"-79.57","43.96","PA KING CITY","6156162","2018-04-29 08:00","2018","04","29","08:00","1.0","","-5.0","","64","","","","31","","11","","","","97.69","","","","","","NA"
"-79.57","43.96","PA KING CITY","6156162","2018-04-29 09:00","2018","04","29","09:00","2.3","","-6.0","","54","","","","32","","11","","","","97.74","","","","","","NA"
"-79.57","43.96","PA KING CITY","6156162","2018-04-29 10:00","2018","04","29","10:00","3.5","","-6.2","","49","","","","31","","12","","","","97.78","","","","","","NA"
"-79.57","43.96","PA KING CITY","6156162","2018-04-29 11:00","2018","04","29","11:00","4.1","","-7.0","","44","","","","32","","11","","","","97.79","","","","","","NA"
"-79.57","43.96","PA KING CITY","6156162","2018-04-29 12:00","2018","04","29","12:00","5.4","","-7.9","","38","","","","31","","11","","","","97.74","","","","","","NA"
"-79.57","43.96","PA KING CITY","6156162","2018-04-29 13:00","2018","04","29","13:00","6.5","","-8.9","","32","","","","31","","13","","","","97.70","","","","","","NA"
"-79.57","43.96","PA KING CITY","6156162","2018-04-29 14:00","2018","04","29","14:00","7.2","","-10.5","","27","","","","33","","12","","","","97.71","","","","","","NA"
"-79.57","43.96","PA KING CITY","6156162","2018-04-29 15:00","2018","04","29","15:00","6.6","","-10.3","","29","","","","32","","13","","","","97.67","","","","","","NA"
"-79.57","43.96","PA KING CITY","6156162","2018-04-29 16:00","2018","04","29","16:00","6.4","","-11.3","","27","","","","31","","11","","","","97.67","","","","","","NA"
"-79.57","43.96","PA KING CITY","6156162","2018-04-29 17:00","2018","04","29","17:00","6.2","","-12.0","","26","","","","31","","11","","","","97.70","","","","","","NA"
"-79.57","43.96","PA KING CITY","6156162","2018-04-29 18:00","2018","04","29","18:00","5.5","","-10.9","","29","","","","31","","10","","","","97.67","","","","","","NA"
"-79.57","43.96","PA KING CITY","6156162","2018-04-29 19:00","2018","04","29","19:00","4.2","","-10.8","","33","","","","31","","8","","","","97.70","","","","","","NA"
"-79.57","43.96","PA KING CITY","6156162","2018-04-29 20:00","2018","04","29","20:00","3.4","","-11.0","","34","","","","31","","7","","","","97.71","","","","","","NA"
"-79.57","43.96","PA KING CITY","6156162","2018-04-29 21:00","2018","04","29","21:00","2.8","","-9.8","","39","","","","32","","4","","","","97.77","","","","","","NA"
"-79.57","43.96","PA KING CITY","6156162","2018-04-29 22:00","2018","04","29","22:00","2.5","","-9.0","","42","","","","29","","6","","","","97.75","","","","","","NA"
"-79.57","43.96","PA KING CITY","6156162","2018-04-29 23:00","2018","04","29","23:00","1.7","","-8.5","","47","","","","29","","5","","","","97.77","","","","","","NA"
"-79.57","43.96","PA KING CITY","6156162","2018-04-30 00:00","2018","04","30","00:00","1.3","","-8.9","","47","","","","29","","5","","","","97.77","","","","","","NA"
"-79.57","43.96","PA KING CITY","6156162","2018-04-30 01:00","2018","04","30","01:00","1.3","","-9.9","","43","","","","29","","6","","","","97.74","","","","","","NA"
"-79.57","43.96","PA KING CITY","6156162","2018-04-30 02:00","2018","04","30","02:00","1.8","","-10.9","","38","","","","28","","5","","","","97.75","","","","","","NA"
"-79.57","43.96","PA KING CITY","6156162","2018-04-30 03:00","2018","04","30","03:00","1.1","","-10.9","","41","","","","29","","4","","","","97.76","","","","","","NA"
"-79.57","43.96","PA KING CITY","6156162","2018-04-30 04:00","2018","04","30","04:00","0.8","","-9.8","","45","","","","30","","4","","","","97.75","","","","","","NA"
"-79.57","43.96","PA KING CITY","6156162","2018-04-30 05:00","2018","04","30","05:00","1.4","","-9.4","","45","","","","28","","6","","","","97.76","","","","","","NA"
"-79.57","43.96","PA KING CITY","6156162","2018-04-30 06:00","2018","04","30","06:00","2.0","","-9.1","","44","","","","29","","6","","","","97.79","","","","","","NA"
"-79.57","43.96","PA KING CITY","6156162","2018-04-30 07:00","2018","04","30","07:00","4.1","","-8.2","","40","","","","30","","6","","","","97.86","","","","","","NA"
"-79.57","43.96","PA KING CITY","6156162","2018-04-30 08:00","2018","04","30","08:00","7.3","","-9.8","","29","","","","31","","8","","","","97.90","","","","","","NA"
"-79.57","43.96","PA KING CITY","6156162","2018-04-30 09:00","2018","04","30","09:00","9.0","","-9.9","","25","","","","31","","9","","","","97.92","","","","","","NA"
"-79.57","43.96","PA KING CITY","6156162","2018-04-30 10:00","2018","04","30","10:00","11.0","","-9.0","","24","","","","31","","8","","","","97.91","","","","","","NA"
"-79.57","43.96","PA KING CITY","6156162","2018-04-30 11:00","2018","04","30","11:00","13.2","","-10.3","","19","","","","32","","10","","","","97.87","","","","","","NA"
"-79.57","43.96","PA KING CITY","6156162","2018-04-30 12:00","2018","04","30","12:00","14.2","","-10.7","","17","","","","32","","8","","","","97.81","","","","","","NA"
"-79.57","43.96","PA KING CITY","6156162","2018-04-30 13:00","2018","04","30","13:00","15.3","","-10.5","","16","","","","31","","10","","","","97.78","","","","","","NA"
"-79.57","43.96","PA KING CITY","6156162","2018-04-30 14:00","2018","04","30","14:00","16.6","","-7.3","","19","","","","30","","7","","","","97.73","","","","","","NA"
"-79.57","43.96","PA KING CITY","6156162","2018-04-30 15:00","2018","04","30","15:00","17.0","","-7.7","","18","","","","32","","8","","","","97.68","","","","","","NA"
"-79.57","43.96","PA KING CITY","6156162","2018-04-30 16:00","2018","04","30","16:00","17.4","","-5.9","","20","","","","33","","7","","","","97.61","","","","","","NA"
"-79.57","43.96","PA KING CITY","6156162","2018-04-30 17:00","2018","04","30","17:00","17.3","","-5.8","","20","","","","32","","7","","","","97.59","","","","","","NA"
"-79.57","43.96","PA KING CITY","6156162","2018-04-30 18:00","2018","04","30","18:00","16.2","","-4.6","","24","","","","36","","4","","","","97.57","","","","","","NA"
"-79.57","43.96","PA KING CITY","6156162","2018-04-30 19:00","2018","04","30","19:00","14.4","","-4.0","","28","","","","30","","3","","","","97.56","","","","","","NA"
"-79.57","43.96","PA KING CITY","6156162","2018-04-30 20:00","2018","04","30","20:00","11.2","","-4.1","","34","","","","29","","1","","","","97.53","","","","","","NA"
"-79.57","43.96","PA KING CITY","6156162","2018-04-30 21:00","2018","04","30","21:00","10.2","","-5.0","","34","","","","35","","1","","","","97.53","","","","","","NA"
"-79.57","43.96","PA KING CITY","6156162","2018-04-30 22:00","2018","04","30","22:00","9.0","","-7.3","","31","","","","23","","1","","","","97.50","","","","","","NA"
"-79.57","43.96","PA KING CITY","6156162","2018-04-30 23:00","2018","04","30","23:00","8.6","","-8.0","","30","","","","22","","1","","","","97.46","","","","","","NA"
