"Longitude (x)","Latitude (y)","Station Name","Climate ID","Date/Time (LST)","Year","Month","Day","Time (LST)","Temp (°C)","Temp Flag","Dew Point Temp (°C)","Dew Point Temp Flag","Rel Hum (%)","Rel Hum Flag","Precip. Amount (mm)","Precip. Amount Flag","Wind Dir (10s deg)","Wind Dir Flag","Wind Spd (km/h)","Wind Spd Flag","Visibility (km)","Visibility Flag","Stn Press (kPa)","Stn Press Flag","Hmdx","Hmdx Flag","Wind Chill","Wind Chill Flag","Weather"
"-65.71","66.14","PANGNIRTUNG","2403049","2019-02-01 00:00","2019","02","01","00:00","-13.5","","-22.3","","48","","0.0","","8","","14","","","","100.44","","","","-21","","NA"
"-65.71","66.14","PANGNIRTUNG","2403049","2019-02-01 01:00","2019","02","01","01:00","-12.8","","-22.6","","44","","0.0","","7","","16","","","","100.26","","","","-20","","NA"
"-65.71","66.14","PANGNIRTUNG","2403049","2019-02-01 02:00","2019","02","01","02:00","-11.9","","-21.5","","45","","0.1","","8","","19","","","","100.19","","","","-20","","NA"
"-65.71","66.14","PANGNIRTUNG","2403049","2019-02-01 03:00","2019","02","01","03:00","-12.1","","-20.7","","49","","0.1","","7","","28","","","","100.15","","","","-22","","NA"
"-65.71","66.14","PANGNIRTUNG","2403049","2019-02-01 04:00","2019","02","01","04:00","-11.5","","-20.8","","46","","0.1","","7","","30","","","","100.13","","","","-21","","NA"
"-65.71","66.14","PANGNIRTUNG","2403049","2019-02-01 05:00","2019","02","01","05:00","-12.4","","-19.7","","54","","0.1","","8","","35","","","","100.00","","","","-23","","NA"
"-65.71","66.14","PANGNIRTUNG","2403049","2019-02-01 06:00","2019","02","01","06:00","-12.2","","-20.0","","52","","0.1","","8","","40","","","","99.88","","","","-24","","NA"
"-65.71","66.14","PANGNIRTUNG","2403049","2019-02-01 07:00","2019","02","01","07:00","-10.9","","-21.0","","43","","0.1","","7","","31","","","","99.81","","","","-21","","NA"
"-65.71","66.14","PANGNIRTUNG","2403049","2019-02-01 08:00","2019","02","01","08:00","-11.1","","-21.3","","42","","0.1","","8","","27","","","","99.77","","","","-21","","NA"
"-65.71","66.14","PANGNIRTUNG","2403049","2019-02-01 09:00","2019","02","01","09:00","-10.4","","-20.7","","43","","0.1","","9","","26","","","","99.72","","","","-19","","NA"
"-65.71","66.14","PANGNIRTUNG","2403049","2019-02-01 10:00","2019","02","01","10:00","-10.3","","-20.8","","42","","0.1","","10","","22","","","","99.66","","","","-19","","NA"
"-65.71","66.14","PANGNIRTUNG","2403049","2019-02-01 11:00","2019","02","01","11:00","-9.4","","-21.4","","37","","0.1","","10","","29","","","","99.49","","","","-19","","NA"
"-65.71","66.14","PANGNIRTUNG","2403049","2019-02-01 12:00","2019","02","01","12:00","-10.0","","-20.0","","44","","0.1","","14","","25","","","","99.44","","","","-19","","NA"
"-65.71","66.14","PANGNIRTUNG","2403049","2019-02-01 13:00","2019","02","01","13:00","-9.3","","-20.7","","39","","0.2","","9","","28","","","","99.35","","","","-18","","NA"
"-65.71","66.14","PANGNIRTUNG","2403049","2019-02-01 14:00","2019","02","01","14:00","-8.1","","-22.0","","32","","0.1","","14","","21","","","","99.29","","","","-16","","NA"
"-65.71","66.14","PANGNIRTUNG","2403049","2019-02-01 15:00","2019","02","01","15:00","-8.1","","-20.3","","37","","0.1","","12","","21","","","","99.22","","","","-16","","NA"
"-65.71","66.14","PANGNIRTUNG","2403049","2019-02-01 16:00","2019","02","01","16:00","-9.0","","-19.6","","42","","0.0","","24","","8","","","","99.21","","","","-13","","NA"
"-65.71","66.14","PANGNIRTUNG","2403049","2019-02-01 17:00","2019","02","01","17:00","-9.6","","-19.8","","43","","0.0","","24","","5","","","","99.19","","","","-12","","NA"
"-65.71","66.14","PANGNIRTUNG","2403049","2019-02-01 18:00","2019","02","01","18:00","-7.9","","-20.5","","36","","0.0","","12","","16","","","","99.21","","","","-14","","NA"
"-65.71","66.14","PANGNIRTUNG","2403049","2019-02-01 19:00","2019","02","01","19:00","-11.3","","-20.0","","49","","0.0","","25","","17","","","","99.22","","","","-19","","NA"
"-65.71","66.14","PANGNIRTUNG","2403049","2019-02-01 20:00","2019","02","01","20:00","-8.0","","-19.6","","39","","0.0","","9","","27","","","","99.23","","","","-16","","NA"
"-65.71","66.14","PANGNIRTUNG","2403049","2019-02-01 21:00","2019","02","01","21:00","-7.5","","-19.1","","39","","0.0","","8","","37","","","","99.14","","","","-17","","NA"
"-65.71","66.14","PANGNIRTUNG","2403049","2019-02-01 22:00","2019","02","01","22:00","-8.5","","-18.9","","43","","0.2","","9","","41","","","","99.16","","","","-19","","NA"
"-65.71","66.14","PANGNIRTUNG","2403049","2019-02-01 23:00","2019","02","01","23:00","-8.5","","-19.5","","41","","0.0","","8","","41","","","","99.12","","","","-19","","NA"
"-65.71","66.14","PANGNIRTUNG","2403049","2019-02-02 00:00","2019","02","02","00:00","-9.1","","-18.9","","45","","0.1","","8","","42","","","","99.17","","","","-20","","NA"
"-65.71","66.14","PANGNIRTUNG","2403049","2019-02-02 01:00","2019","02","02","01:00","-9.5","","-20.3","","41","","0.0","","6","","32","","","","99.28","","","","-19","","NA"
"-65.71","66.14","PANGNIRTUNG","2403049","2019-02-02 02:00","2019","02","02","02:00","-10.0","","-19.9","","44","","0.0","","7","","27","","","","99.32","","","","-19","","NA"
"-65.71","66.14","PANGNIRTUNG","2403049","2019-02-02 03:00","2019","02","02","03:00","-9.2","","-19.5","","43","","0.0","","6","","25","","","","99.33","","","","-18","","NA"
"-65.71","66.14","PANGNIRTUNG","2403049","2019-02-02 04:00","2019","02","02","04:00","-10.4","","-19.1","","49","","0.1","","7","","27","","","","99.41","","","","-20","","NA"
"-65.71","66.14","PANGNIRTUNG","2403049","2019-02-02 05:00","2019","02","02","05:00","-10.4","","-18.7","","51","","0.0","","7","","25","","","","99.44","","","","-19","","NA"
"-65.71","66.14","PANGNIRTUNG","2403049","2019-02-02 06:00","2019","02","02","06:00","-10.7","","-18.5","","53","","0.0","","7","","23","","","","99.46","","","","-19","","NA"
"-65.71","66.14","PANGNIRTUNG","2403049","2019-02-02 07:00","2019","02","02","07:00","-11.4","","-18.7","","55","","0.0","","6","","20","","","","99.47","","","","-20","","NA"
"-65.71","66.14","PANGNIRTUNG","2403049","2019-02-02 08:00","2019","02","02","08:00","-12.4","","-19.5","","55","","0.1","","7","","22","","","","99.46","","","","-21","","NA"
"-65.71","66.14","PANGNIRTUNG","2403049","2019-02-02 09:00","2019","02","02","09:00","-12.3","","-19.5","","55","","0.0","","7","","18","","","","99.44","","","","-20","","NA"
"-65.71","66.14","PANGNIRTUNG","2403049","2019-02-02 10:00","2019","02","02","10:00","-11.3","","-19.3","","52","","0.0","","6","","15","","","","99.40","","","","-18","","NA"
"-65.71","66.14","PANGNIRTUNG","2403049","2019-02-02 11:00","2019","02","02","11:00","-12.5","","-21.1","","49","","0.0","","7","","17","","","","99.39","","","","-20","","NA"
"-65.71","66.14","PANGNIRTUNG","2403049","2019-02-02 12:00","2019","02","02","12:00","-11.9","","-20.7","","48","","0.0","","8","","15","","","","99.37","","","","-19","","NA"
"-65.71","66.14","PANGNIRTUNG","2403049","2019-02-02 13:00","2019","02","02","13:00","-12.3","","-21.6","","46","","0.0","","6","","16","","","","99.33","","","","-20","","NA"
"-65.71","66.14","PANGNIRTUNG","2403049","2019-02-02 14:00","2019","02","02","14:00","-11.5","","-21.5","","43","","0.0","","8","","10","","","","99.29","","","","-17","","NA"
"-65.71","66.14","PANGNIRTUNG","2403049","2019-02-02 15:00","2019","02","02","15:00","-11.1","","-22.6","","38","","0.0","","10","","10","","","","99.26","","","","-17","","NA"
"-65.71","66.14","PANGNIRTUNG","2403049","2019-02-02 16:00","2019","02","02","16:00","-11.4","","-21.6","","43","","0.0","","9","","7","","","","99.22","","","","-16","","NA"
"-65.71","66.14","PANGNIRTUNG","2403049","2019-02-02 17:00","2019","02","02","17:00","-12.6","","-22.0","","45","","0.0","","10","","4","","","","99.15","","","","-15","","NA"
"-65.71","66.14","PANGNIRTUNG","2403049","2019-02-02 18:00","2019","02","02","18:00","-12.4","","-21.5","","47","","0.0","","10","","15","","","","99.13","","","","-20","","NA"
"-65.71","66.14","PANGNIRTUNG","2403049","2019-02-02 19:00","2019","02","02","19:00","-13.5","","-22.3","","48","","0.0","","4","","2","","","","99.15","","","","-15","","NA"
"-65.71","66.14","PANGNIRTUNG","2403049","2019-02-02 20:00","2019","02","02","20:00","-13.4","","-20.9","","53","","0.0","","26","","10","","","","99.16","","","","-19","","NA"
"-65.71","66.14","PANGNIRTUNG","2403049","2019-02-02 21:00","2019","02","02","21:00","-13.1","","-20.0","","56","","0.0","","27","","5","","","","99.16","","","","-16","","NA"
"-65.71","66.14","PANGNIRTUNG","2403049","2019-02-02 22:00","2019","02","02","22:00","-12.3","","-19.8","","54","","0.0","","10","","12","","","","99.17","","","","-19","","NA"
"-65.71","66.14","PANGNIRTUNG","2403049","2019-02-02 23:00","2019","02","02","23:00","-12.6","","-19.5","","56","","0.0","","11","","9","","","","99.15","","","","-18","","NA"
"-65.71","66.14","PANGNIRTUNG","2403049","2019-02-03 00:00","2019","02","03","00:00","-12.6","","-19.3","","57","","0.0","","10","","4","","","","99.13","","","","-15","","NA"
"-65.71","66.14","PANGNIRTUNG","2403049","2019-02-03 01:00","2019","02","03","01:00","-12.9","","-18.8","","61","","0.0","","21","","7","","","","99.08","","","","-17","","NA"
"-65.71","66.14","PANGNIRTUNG","2403049","2019-02-03 02:00","2019","02","03","02:00","-13.7","","-19.3","","63","","0.0","","8","","6","","","","99.21","","","","-18","","NA"
"-65.71","66.14","PANGNIRTUNG","2403049","2019-02-03 03:00","2019","02","03","03:00","-14.0","","-19.0","","66","","0.0","","3","","10","","","","99.25","","","","-20","","NA"
"-65.71","66.14","PANGNIRTUNG","2403049","2019-02-03 04:00","2019","02","03","04:00","-13.3","","-19.3","","61","","0.0","","8","","4","","","","99.36","","","","-16","","NA"
"-65.71","66.14","PANGNIRTUNG","2403049","2019-02-03 05:00","2019","02","03","05:00","-13.8","","-17.9","","71","","0.2","","2","","7","","","","99.49","","","","-18","","NA"
"-65.71","66.14","PANGNIRTUNG","2403049","2019-02-03 06:00","2019","02","03","06:00","-14.1","","-17.7","","75","","0.1","","8","","14","","","","99.59","","","","-22","","NA"
"-65.71","66.14","PANGNIRTUNG","2403049","2019-02-03 07:00","2019","02","03","07:00","-14.7","","-20.0","","64","","0.1","","9","","13","","","","99.65","","","","-22","","NA"
"-65.71","66.14","PANGNIRTUNG","2403049","2019-02-03 08:00","2019","02","03","08:00","-14.0","","-20.5","","57","","0.0","","8","","15","","","","99.70","","","","-22","","NA"
"-65.71","66.14","PANGNIRTUNG","2403049","2019-02-03 09:00","2019","02","03","09:00","-13.7","","-20.7","","55","","0.0","","6","","14","","","","99.78","","","","-21","","NA"
"-65.71","66.14","PANGNIRTUNG","2403049","2019-02-03 10:00","2019","02","03","10:00","-12.9","","-20.0","","55","","0.0","","6","","17","","","","99.77","","","","-21","","NA"
"-65.71","66.14","PANGNIRTUNG","2403049","2019-02-03 11:00","2019","02","03","11:00","-12.9","","-20.6","","52","","0.1","","7","","26","","","","99.77","","","","-23","","NA"
"-65.71","66.14","PANGNIRTUNG","2403049","2019-02-03 12:00","2019","02","03","12:00","-11.7","","-20.1","","50","","0.0","","7","","13","","","","99.78","","","","-18","","NA"
"-65.71","66.14","PANGNIRTUNG","2403049","2019-02-03 13:00","2019","02","03","13:00","-11.7","","-20.3","","49","","0.0","","8","","15","","","","99.83","","","","-19","","NA"
"-65.71","66.14","PANGNIRTUNG","2403049","2019-02-03 14:00","2019","02","03","14:00","-10.6","","-19.9","","46","","0.1","","7","","24","","","","99.86","","","","-19","","NA"
"-65.71","66.14","PANGNIRTUNG","2403049","2019-02-03 15:00","2019","02","03","15:00","-10.7","","-19.8","","47","","0.0","","8","","21","","","","99.91","","","","-19","","NA"
"-65.71","66.14","PANGNIRTUNG","2403049","2019-02-03 16:00","2019","02","03","16:00","-9.8","","-18.1","","51","","0.1","","8","","36","","","","99.87","","","","-20","","NA"
"-65.71","66.14","PANGNIRTUNG","2403049","2019-02-03 17:00","2019","02","03","17:00","-8.4","","-18.7","","43","","0.0","","7","","24","","","","99.91","","","","-17","","NA"
"-65.71","66.14","PANGNIRTUNG","2403049","2019-02-03 18:00","2019","02","03","18:00","-10.4","","-19.6","","47","","0.0","","9","","19","","","","99.99","","","","-18","","NA"
"-65.71","66.14","PANGNIRTUNG","2403049","2019-02-03 19:00","2019","02","03","19:00","-9.9","","-19.0","","47","","0.0","","3","","7","","","","100.04","","","","-14","","NA"
"-65.71","66.14","PANGNIRTUNG","2403049","2019-02-03 20:00","2019","02","03","20:00","-8.8","","-18.9","","44","","0.0","","4","","17","","","","100.06","","","","-16","","NA"
"-65.71","66.14","PANGNIRTUNG","2403049","2019-02-03 21:00","2019","02","03","21:00","-8.9","","-19.5","","42","","0.1","","8","","11","","","","100.07","","","","-14","","NA"
"-65.71","66.14","PANGNIRTUNG","2403049","2019-02-03 22:00","2019","02","03","22:00","-10.6","","-19.5","","48","","0.0","","7","","16","","","","100.12","","","","-18","","NA"
"-65.71","66.14","PANGNIRTUNG","2403049","2019-02-03 23:00","2019","02","03","23:00","-9.2","","-20.2","","40","","0.0","","9","","11","","","","100.10","","","","-15","","NA"
"-65.71","66.14","PANGNIRTUNG","2403049","2019-02-04 00:00","2019","02","04","00:00","-11.1","","-19.6","","49","","0.0","","9","","6","","","","100.08","","","","-15","","NA"
"-65.71","66.14","PANGNIRTUNG","2403049","2019-02-04 01:00","2019","02","04","01:00","-11.1","","-19.6","","50","","0.0","","9","","17","","","","100.07","","","","-19","","NA"
"-65.71","66.14","PANGNIRTUNG","2403049","2019-02-04 02:00","2019","02","04","02:00","-9.7","","-19.0","","46","","0.0","","10","","13","","","","100.14","","","","-16","","NA"
"-65.71","66.14","PANGNIRTUNG","2403049","2019-02-04 03:00","2019","02","04","03:00","-10.8","","-19.5","","49","","0.0","","10","","21","","","","100.15","","","","-19","","NA"
"-65.71","66.14","PANGNIRTUNG","2403049","2019-02-04 04:00","2019","02","04","04:00","-9.9","","-19.7","","45","","0.0","","11","","13","","","","100.18","","","","-16","","NA"
"-65.71","66.14","PANGNIRTUNG","2403049","2019-02-04 05:00","2019","02","04","05:00","-10.7","","-19.1","","50","","0.0","","5","","14","","","","100.18","","","","-17","","NA"
"-65.71","66.14","PANGNIRTUNG","2403049","2019-02-04 06:00","2019","02","04","06:00","-8.7","","-18.7","","44","","0.0","","9","","12","","","","100.21","","","","-14","","NA"
"-65.71","66.14","PANGNIRTUNG","2403049","2019-02-04 07:00","2019","02","04","07:00","-8.9","","-18.6","","45","","0.0","","8","","7","","","","100.22","","","","-13","","NA"
"-65.71","66.14","PANGNIRTUNG","2403049","2019-02-04 08:00","2019","02","04","08:00","-8.8","","-18.2","","46","","0.0","","9","","18","","","","100.23","","","","-16","","NA"
"-65.71","66.14","PANGNIRTUNG","2403049","2019-02-04 09:00","2019","02","04","09:00","-6.7","","-18.6","","38","","0.1","","10","","14","","","","100.26","","","","-12","","NA"
"-65.71","66.14","PANGNIRTUNG","2403049","2019-02-04 10:00","2019","02","04","10:00","-12.2","","-17.0","","67","","0.0","","24","","11","","","","100.29","","","","-18","","NA"
"-65.71","66.14","PANGNIRTUNG","2403049","2019-02-04 11:00","2019","02","04","11:00","-8.0","","-18.4","","43","","0.0","","10","","20","","","","100.33","","","","-15","","NA"
"-65.71","66.14","PANGNIRTUNG","2403049","2019-02-04 12:00","2019","02","04","12:00","-8.3","","-18.7","","43","","0.0","","13","","10","","","","100.35","","","","-13","","NA"
"-65.71","66.14","PANGNIRTUNG","2403049","2019-02-04 13:00","2019","02","04","13:00","-8.8","","-17.9","","48","","0.0","","6","","9","","","","100.36","","","","-13","","NA"
"-65.71","66.14","PANGNIRTUNG","2403049","2019-02-04 14:00","2019","02","04","14:00","-9.9","","-17.9","","52","","0.0","","14","","5","","","","100.41","","","","-13","","NA"
"-65.71","66.14","PANGNIRTUNG","2403049","2019-02-04 15:00","2019","02","04","15:00","-10.5","","-17.2","","58","","0.0","","25","","9","","","","100.45","","","","-15","","NA"
"-65.71","66.14","PANGNIRTUNG","2403049","2019-02-04 16:00","2019","02","04","16:00","-9.1","","-17.5","","50","","0.0","","25","","5","","","","100.50","","","","-12","","NA"
"-65.71","66.14","PANGNIRTUNG","2403049","2019-02-04 17:00","2019","02","04","17:00","-8.8","","-17.6","","49","","0.0","","8","","4","","","","100.50","","","","-11","","NA"
"-65.71","66.14","PANGNIRTUNG","2403049","2019-02-04 18:00","2019","02","04","18:00","-7.2","","-18.3","","41","","0.0","","7","","11","","","","100.50","","","","-12","","NA"
"-65.71","66.14","PANGNIRTUNG","2403049","2019-02-04 19:00","2019","02","04","19:00","-7.6","","-18.8","","40","","0.0","","5","","13","","","","100.54","","","","-13","","NA"
"-65.71","66.14","PANGNIRTUNG","2403049","2019-02-04 20:00","2019","02","04","20:00","-8.8","","-18.8","","44","","0.0","","7","","6","","","","100.54","","","","-12","","NA"
"-65.71","66.14","PANGNIRTUNG","2403049","2019-02-04 21:00","2019","02","04","21:00","-10.0","","-18.6","","49","","0.0","","9","","11","","","","100.56","","","","-16","","NA"
"-65.71","66.14","PANGNIRTUNG","2403049","2019-02-04 22:00","2019","02","04","22:00","-9.8","","-18.1","","51","","0.0","","9","","16","","","","100.58","","","","-17","","NA"
"-65.71","66.14","PANGNIRTUNG","2403049","2019-02-04 23:00","2019","02","04","23:00","-7.2","","-18.2","","41","","0.0","","9","","9","","","","100.59","","","","-12","","NA"
"-65.71","66.14","PANGNIRTUNG","2403049","2019-02-05 00:00","2019","02","05","00:00","-8.0","","-18.0","","44","","0.0","","10","","18","","","","100.59","","","","-15","","NA"
"-65.71","66.14","PANGNIRTUNG","2403049","2019-02-05 01:00","2019","02","05","01:00","-7.5","","-17.9","","43","","0.0","","8","","18","","","","100.62","","","","-14","","NA"
"-65.71","66.14","PANGNIRTUNG","2403049","2019-02-05 02:00","2019","02","05","02:00","-7.5","","-18.0","","43","","0.0","","9","","16","","","","100.65","","","","-14","","NA"
"-65.71","66.14","PANGNIRTUNG","2403049","2019-02-05 03:00","2019","02","05","03:00","-8.3","","-16.9","","50","","0.0","","8","","7","","","","100.71","","","","-12","","NA"
"-65.71","66.14","PANGNIRTUNG","2403049","2019-02-05 04:00","2019","02","05","04:00","-8.7","","-17.9","","47","","0.0","","7","","12","","","","100.74","","","","-14","","NA"
"-65.71","66.14","PANGNIRTUNG","2403049","2019-02-05 05:00","2019","02","05","05:00","-9.5","","-18.7","","47","","0.0","","7","","15","","","","100.76","","","","-16","","NA"
"-65.71","66.14","PANGNIRTUNG","2403049","2019-02-05 06:00","2019","02","05","06:00","-9.7","","-18.5","","49","","0.0","","8","","9","","","","100.80","","","","-15","","NA"
"-65.71","66.14","PANGNIRTUNG","2403049","2019-02-05 07:00","2019","02","05","07:00","-10.3","","-19.7","","46","","0.0","","7","","11","","","","100.82","","","","-16","","NA"
"-65.71","66.14","PANGNIRTUNG","2403049","2019-02-05 08:00","2019","02","05","08:00","-10.6","","-19.6","","47","","0.0","","8","","8","","","","100.84","","","","-15","","NA"
"-65.71","66.14","PANGNIRTUNG","2403049","2019-02-05 09:00","2019","02","05","09:00","-11.6","","-20.2","","49","","0.0","","6","","6","","","","100.89","","","","-15","","NA"
"-65.71","66.14","PANGNIRTUNG","2403049","2019-02-05 10:00","2019","02","05","10:00","-12.1","","-20.8","","48","","0.0","","10","","15","","","","100.90","","","","-19","","NA"
"-65.71","66.14","PANGNIRTUNG","2403049","2019-02-05 11:00","2019","02","05","11:00","-12.9","","-21.3","","49","","0.0","","9","","7","","","","100.94","","","","-17","","NA"
"-65.71","66.14","PANGNIRTUNG","2403049","2019-02-05 12:00","2019","02","05","12:00","-12.4","","-21.5","","47","","0.0","","7","","5","","","","100.95","","","","-16","","NA"
"-65.71","66.14","PANGNIRTUNG","2403049","2019-02-05 13:00","2019","02","05","13:00","-12.9","","-21.6","","48","","0.0","","26","","4","","","","100.94","","","","-16","","NA"
"-65.71","66.14","PANGNIRTUNG","2403049","2019-02-05 14:00","2019","02","05","14:00","-13.1","","-22.3","","46","","0.0","","8","","5","","","","100.95","","","","-16","","NA"
"-65.71","66.14","PANGNIRTUNG","2403049","2019-02-05 15:00","2019","02","05","15:00","-14.0","","-22.1","","50","","0.0","","9","","4","","","","100.96","","","","-17","","NA"
"-65.71","66.14","PANGNIRTUNG","2403049","2019-02-05 16:00","2019","02","05","16:00","-15.1","","-23.3","","49","","0.0","","7","","7","","","","100.97","","","","-20","","NA"
"-65.71","66.14","PANGNIRTUNG","2403049","2019-02-05 17:00","2019","02","05","17:00","-15.0","","-23.2","","50","","0.0","","3","","4","","","","100.96","","","","-18","","NA"
"-65.71","66.14","PANGNIRTUNG","2403049","2019-02-05 18:00","2019","02","05","18:00","-15.4","","-23.2","","51","","0.0","","25","","2","","","","100.96","","","","-17","","NA"
"-65.71","66.14","PANGNIRTUNG","2403049","2019-02-05 19:00","2019","02","05","19:00","-14.9","","-22.3","","53","","0.0","","24","","6","","","","100.95","","","","-19","","NA"
"-65.71","66.14","PANGNIRTUNG","2403049","2019-02-05 20:00","2019","02","05","20:00","-16.7","","-24.2","","52","","0.0","","8","","3","","","","100.94","","","","-19","","NA"
"-65.71","66.14","PANGNIRTUNG","2403049","2019-02-05 21:00","2019","02","05","21:00","-16.0","","-24.1","","50","","0.0","","27","","5","","","","100.92","","","","-20","","NA"
"-65.71","66.14","PANGNIRTUNG","2403049","2019-02-05 22:00","2019","02","05","22:00","-17.1","","-23.6","","57","","0.0","","","","0","","","","100.90","","","","","","NA"
"-65.71","66.14","PANGNIRTUNG","2403049","2019-02-05 23:00","2019","02","05","23:00","-17.8","","-23.0","","64","","0.0","","26","","4","","","","100.87","","","","-21","","NA"
"-65.71","66.14","PANGNIRTUNG","2403049","2019-02-06 00:00","2019","02","06","00:00","-20.2","","-23.2","","76","","0.0","","25","","8","","","","100.90","","","","-26","","NA"
"-65.71","66.14","PANGNIRTUNG","2403049","2019-02-06 01:00","2019","02","06","01:00","-20.1","","-22.9","","78","","0.0","","25","","8","","","","100.92","","","","-26","","NA"
"-65.71","66.14","PANGNIRTUNG","2403049","2019-02-06 02:00","2019","02","06","02:00","-20.8","","-24.4","","73","","0.0","","20","","2","","","","100.96","","","","-23","","NA"
"-65.71","66.14","PANGNIRTUNG","2403049","2019-02-06 03:00","2019","02","06","03:00","-21.0","","-24.0","","77","","0.0","","24","","10","","","","100.97","","","","-28","","NA"
"-65.71","66.14","PANGNIRTUNG","2403049","2019-02-06 04:00","2019","02","06","04:00","-21.2","","-24.1","","77","","0.0","","24","","12","","","","100.98","","","","-29","","NA"
"-65.71","66.14","PANGNIRTUNG","2403049","2019-02-06 05:00","2019","02","06","05:00","-20.7","","-23.6","","77","","0.0","","24","","10","","","","101.02","","","","-28","","NA"
"-65.71","66.14","PANGNIRTUNG","2403049","2019-02-06 06:00","2019","02","06","06:00","-20.7","","-23.6","","77","","0.0","","23","","7","","","","101.02","","","","-26","","NA"
"-65.71","66.14","PANGNIRTUNG","2403049","2019-02-06 07:00","2019","02","06","07:00","-21.3","","-24.1","","78","","0.0","","24","","10","","","","101.03","","","","-29","","NA"
"-65.71","66.14","PANGNIRTUNG","2403049","2019-02-06 08:00","2019","02","06","08:00","-21.4","","-24.5","","76","","0.0","","20","","5","","","","101.07","","","","-26","","NA"
"-65.71","66.14","PANGNIRTUNG","2403049","2019-02-06 09:00","2019","02","06","09:00","-21.9","","-25.2","","74","","0.0","","20","","3","","","","101.07","","","","-25","","NA"
"-65.71","66.14","PANGNIRTUNG","2403049","2019-02-06 10:00","2019","02","06","10:00","-21.1","","-24.3","","76","","0.0","","18","","2","","","","101.06","","","","-23","","NA"
"-65.71","66.14","PANGNIRTUNG","2403049","2019-02-06 11:00","2019","02","06","11:00","-20.8","","-24.0","","76","","0.0","","22","","3","","","","101.07","","","","-23","","NA"
"-65.71","66.14","PANGNIRTUNG","2403049","2019-02-06 12:00","2019","02","06","12:00","-20.2","","-23.6","","74","","0.0","","0","","1","","","","101.07","","","","-21","","NA"
"-65.71","66.14","PANGNIRTUNG","2403049","2019-02-06 13:00","2019","02","06","13:00","-20.1","","-23.4","","75","","0.0","","","","0","","","","101.07","","","","","","NA"
"-65.71","66.14","PANGNIRTUNG","2403049","2019-02-06 14:00","2019","02","06","14:00","-19.8","","-23.1","","75","","0.0","","","","0","","","","101.09","","","","","","NA"
"-65.71","66.14","PANGNIRTUNG","2403049","2019-02-06 15:00","2019","02","06","15:00","-20.0","","-23.2","","76","","0.0","","","","0","","","","101.11","","","","","","NA"
"-65.71","66.14","PANGNIRTUNG","2403049","2019-02-06 16:00","2019","02","06","16:00","-20.1","","-23.2","","76","","0.0","","14","","1","","","","101.13","","","","-21","","NA"
"-65.71","66.14","PANGNIRTUNG","2403049","2019-02-06 17:00","2019","02","06","17:00","-19.9","","-23.5","","73","","0.0","","20","","7","","","","101.15","","","","-26","","NA"
"-65.71","66.14","PANGNIRTUNG","2403049","2019-02-06 18:00","2019","02","06","18:00","-19.9","","-23.5","","73","","0.0","","19","","6","","","","101.15","","","","-25","","NA"
"-65.71","66.14","PANGNIRTUNG","2403049","2019-02-06 19:00","2019","02","06","19:00","-20.3","","-24.0","","72","","0.0","","16","","7","","","","101.16","","","","-26","","NA"
"-65.71","66.14","PANGNIRTUNG","2403049","2019-02-06 20:00","2019","02","06","20:00","-20.4","","-24.3","","71","","0.0","","","","0","","","","101.15","","","","","","NA"
"-65.71","66.14","PANGNIRTUNG","2403049","2019-02-06 21:00","2019","02","06","21:00","-20.5","","-24.3","","72","","0.0","","11","","7","","","","101.14","","","","-26","","NA"
"-65.71","66.14","PANGNIRTUNG","2403049","2019-02-06 22:00","2019","02","06","22:00","-20.3","","-24.3","","70","","0.0","","11","","3","","","","101.13","","","","-23","","NA"
"-65.71","66.14","PANGNIRTUNG","2403049","2019-02-06 23:00","2019","02","06","23:00","-20.4","","-24.1","","72","","0.0","","13","","5","","","","101.11","","","","-25","","NA"
"-65.71","66.14","PANGNIRTUNG","2403049","2019-02-07 00:00","2019","02","07","00:00","-20.8","","-24.5","","72","","0.0","","16","","2","","","","101.13","","","","-23","","NA"
"-65.71","66.14","PANGNIRTUNG","2403049","2019-02-07 01:00","2019","02","07","01:00","-20.7","","-25.1","","68","","0.0","","15","","2","","","","101.13","","","","-22","","NA"
"-65.71","66.14","PANGNIRTUNG","2403049","2019-02-07 02:00","2019","02","07","02:00","-20.7","","-24.5","","72","","0.0","","26","","4","","","","101.15","","","","-24","","NA"
"-65.71","66.14","PANGNIRTUNG","2403049","2019-02-07 03:00","2019","02","07","03:00","-21.1","","-24.7","","72","","0.0","","23","","4","","","","101.15","","","","-25","","NA"
"-65.71","66.14","PANGNIRTUNG","2403049","2019-02-07 04:00","2019","02","07","04:00","-21.2","","-24.3","","76","","0.0","","24","","9","","","","101.16","","","","-28","","NA"
"-65.71","66.14","PANGNIRTUNG","2403049","2019-02-07 05:00","2019","02","07","05:00","-21.5","","-24.6","","76","","0.0","","24","","11","","","","101.19","","","","-29","","NA"
"-65.71","66.14","PANGNIRTUNG","2403049","2019-02-07 06:00","2019","02","07","06:00","-21.5","","-24.8","","75","","0.0","","23","","8","","","","101.21","","","","-28","","NA"
"-65.71","66.14","PANGNIRTUNG","2403049","2019-02-07 07:00","2019","02","07","07:00","-22.4","","-25.7","","74","","0.0","","15","","3","","","","101.24","","","","-25","","NA"
"-65.71","66.14","PANGNIRTUNG","2403049","2019-02-07 08:00","2019","02","07","08:00","-22.4","","-26.8","","68","","0.0","","13","","5","","","","101.23","","","","-27","","NA"
"-65.71","66.14","PANGNIRTUNG","2403049","2019-02-07 09:00","2019","02","07","09:00","-22.2","","-27.2","","64","","0.0","","12","","6","","","","101.25","","","","-28","","NA"
"-65.71","66.14","PANGNIRTUNG","2403049","2019-02-07 10:00","2019","02","07","10:00","-22.1","","-27.3","","62","","0.0","","12","","2","","","","101.24","","","","-24","","NA"
"-65.71","66.14","PANGNIRTUNG","2403049","2019-02-07 11:00","2019","02","07","11:00","-21.7","","-26.5","","65","","0.0","","21","","1","","","","101.23","","","","-23","","NA"
"-65.71","66.14","PANGNIRTUNG","2403049","2019-02-07 12:00","2019","02","07","12:00","-21.9","","-27.4","","61","","0.0","","18","","3","","","","101.21","","","","-25","","NA"
"-65.71","66.14","PANGNIRTUNG","2403049","2019-02-07 13:00","2019","02","07","13:00","-21.2","","-27.5","","57","","0.0","","14","","22","","","","101.22","","","","-32","","NA"
"-65.71","66.14","PANGNIRTUNG","2403049","2019-02-07 14:00","2019","02","07","14:00","-20.9","","-27.6","","55","","0.2","","18","","26","","","","101.27","","","","-33","","NA"
"-65.71","66.14","PANGNIRTUNG","2403049","2019-02-07 15:00","2019","02","07","15:00","-20.4","","-27.3","","54","","0.0","","23","","9","","","","101.31","","","","-27","","NA"
"-65.71","66.14","PANGNIRTUNG","2403049","2019-02-07 16:00","2019","02","07","16:00","-20.8","","-26.3","","61","","0.0","","18","","3","","","","101.32","","","","-23","","NA"
"-65.71","66.14","PANGNIRTUNG","2403049","2019-02-07 17:00","2019","02","07","17:00","-21.4","","-26.6","","63","","0.0","","15","","2","","","","101.30","","","","-23","","NA"
"-65.71","66.14","PANGNIRTUNG","2403049","2019-02-07 18:00","2019","02","07","18:00","-21.4","","-27.2","","59","","0.0","","14","","6","","","","101.29","","","","-27","","NA"
"-65.71","66.14","PANGNIRTUNG","2403049","2019-02-07 19:00","2019","02","07","19:00","-21.2","","-28.0","","54","","0.0","","16","","12","","","","101.27","","","","-29","","NA"
"-65.71","66.14","PANGNIRTUNG","2403049","2019-02-07 20:00","2019","02","07","20:00","-21.4","","-25.8","","68","","0.0","","23","","9","","","","101.31","","","","-28","","NA"
"-65.71","66.14","PANGNIRTUNG","2403049","2019-02-07 21:00","2019","02","07","21:00","-21.7","","-26.5","","65","","0.0","","29","","1","","","","101.33","","","","-23","","NA"
"-65.71","66.14","PANGNIRTUNG","2403049","2019-02-07 22:00","2019","02","07","22:00","-21.6","","-25.2","","73","","0.0","","25","","9","","","","101.35","","","","-29","","NA"
"-65.71","66.14","PANGNIRTUNG","2403049","2019-02-07 23:00","2019","02","07","23:00","-21.8","","-25.7","","71","","0.1","","21","","2","","","","101.36","","","","-24","","NA"
"-65.71","66.14","PANGNIRTUNG","2403049","2019-02-08 00:00","2019","02","08","00:00","-22.0","","-26.0","","70","","0.0","","15","","1","","","","101.36","","","","-23","","NA"
"-65.71","66.14","PANGNIRTUNG","2403049","2019-02-08 01:00","2019","02","08","01:00","-22.2","","-26.0","","71","","0.0","","25","","3","","","","101.38","","","","-25","","NA"
"-65.71","66.14","PANGNIRTUNG","2403049","2019-02-08 02:00","2019","02","08","02:00","-22.7","","-26.4","","72","","0.0","","0","","1","","","","101.41","","","","-24","","NA"
"-65.71","66.14","PANGNIRTUNG","2403049","2019-02-08 03:00","2019","02","08","03:00","-22.3","","-27.7","","61","","0.0","","28","","3","","","","101.40","","","","-25","","NA"
"-65.71","66.14","PANGNIRTUNG","2403049","2019-02-08 04:00","2019","02","08","04:00","-22.0","","-27.9","","58","","0.0","","11","","10","","","","101.41","","","","-30","","NA"
"-65.71","66.14","PANGNIRTUNG","2403049","2019-02-08 05:00","2019","02","08","05:00","-22.1","","-26.7","","66","","0.0","","","","0","","","","101.44","","","","","","NA"
"-65.71","66.14","PANGNIRTUNG","2403049","2019-02-08 06:00","2019","02","08","06:00","-22.2","","-26.3","","69","","0.0","","23","","5","","","","101.44","","","","-27","","NA"
"-65.71","66.14","PANGNIRTUNG","2403049","2019-02-08 07:00","2019","02","08","07:00","-22.6","","-26.1","","73","","0.0","","25","","2","","","","101.46","","","","-24","","NA"
"-65.71","66.14","PANGNIRTUNG","2403049","2019-02-08 08:00","2019","02","08","08:00","-22.4","","-26.9","","66","","0.0","","0","","1","","","","101.46","","","","-23","","NA"
"-65.71","66.14","PANGNIRTUNG","2403049","2019-02-08 09:00","2019","02","08","09:00","-23.4","","-28.2","","65","","0.0","","25","","3","","","","101.45","","","","-26","","NA"
"-65.71","66.14","PANGNIRTUNG","2403049","2019-02-08 10:00","2019","02","08","10:00","-22.7","","-27.9","","63","","0.0","","12","","3","","","","101.44","","","","-25","","NA"
"-65.71","66.14","PANGNIRTUNG","2403049","2019-02-08 11:00","2019","02","08","11:00","-23.0","","-28.6","","61","","0.0","","11","","2","","","","101.45","","","","-25","","NA"
"-65.71","66.14","PANGNIRTUNG","2403049","2019-02-08 12:00","2019","02","08","12:00","-23.2","","-28.7","","61","","0.0","","9","","4","","","","101.42","","","","-27","","NA"
"-65.71","66.14","PANGNIRTUNG","2403049","2019-02-08 13:00","2019","02","08","13:00","-23.3","","-27.4","","69","","0.0","","23","","4","","","","101.41","","","","-27","","NA"
"-65.71","66.14","PANGNIRTUNG","2403049","2019-02-08 14:00","2019","02","08","14:00","-24.0","","-29.4","","61","","0.0","","4","","4","","","","101.36","","","","-28","","NA"
"-65.71","66.14","PANGNIRTUNG","2403049","2019-02-08 15:00","2019","02","08","15:00","-24.5","","-29.4","","64","","0.0","","0","","1","","","","101.34","","","","-25","","NA"
"-65.71","66.14","PANGNIRTUNG","2403049","2019-02-08 16:00","2019","02","08","16:00","-23.7","","-28.5","","64","","0.0","","4","","2","","","","101.33","","","","-26","","NA"
"-65.71","66.14","PANGNIRTUNG","2403049","2019-02-08 17:00","2019","02","08","17:00","-23.5","","-27.7","","68","","0.0","","29","","2","","","","101.30","","","","-25","","NA"
"-65.71","66.14","PANGNIRTUNG","2403049","2019-02-08 18:00","2019","02","08","18:00","-23.1","","-27.0","","71","","0.0","","6","","1","","","","101.32","","","","-24","","NA"
"-65.71","66.14","PANGNIRTUNG","2403049","2019-02-08 19:00","2019","02","08","19:00","-22.5","","-27.1","","66","","0.0","","36","","4","","","","101.31","","","","-26","","NA"
"-65.71","66.14","PANGNIRTUNG","2403049","2019-02-08 20:00","2019","02","08","20:00","-22.5","","-26.3","","71","","0.0","","7","","11","","","","101.19","","","","-31","","NA"
"-65.71","66.14","PANGNIRTUNG","2403049","2019-02-08 21:00","2019","02","08","21:00","-22.7","","-27.3","","66","","0.0","","9","","7","","","","101.13","","","","-29","","NA"
"-65.71","66.14","PANGNIRTUNG","2403049","2019-02-08 22:00","2019","02","08","22:00","-22.5","","-27.2","","66","","0.0","","17","","4","","","","101.16","","","","-26","","NA"
"-65.71","66.14","PANGNIRTUNG","2403049","2019-02-08 23:00","2019","02","08","23:00","-23.1","","-27.2","","69","","0.0","","7","","2","","","","101.14","","","","-25","","NA"
"-65.71","66.14","PANGNIRTUNG","2403049","2019-02-09 00:00","2019","02","09","00:00","-22.1","","-26.9","","65","","0.0","","9","","8","","","","101.09","","","","-29","","NA"
"-65.71","66.14","PANGNIRTUNG","2403049","2019-02-09 01:00","2019","02","09","01:00","-23.4","","-27.9","","67","","0.0","","9","","3","","","","101.07","","","","-26","","NA"
"-65.71","66.14","PANGNIRTUNG","2403049","2019-02-09 02:00","2019","02","09","02:00","-23.9","","-28.1","","69","","0.0","","5","","2","","","","101.05","","","","-26","","NA"
"-65.71","66.14","PANGNIRTUNG","2403049","2019-02-09 03:00","2019","02","09","03:00","-24.0","","-28.0","","70","","0.0","","7","","3","","","","101.03","","","","-27","","NA"
"-65.71","66.14","PANGNIRTUNG","2403049","2019-02-09 04:00","2019","02","09","04:00","-23.4","","-27.6","","69","","0.0","","24","","1","","","","101.03","","","","-24","","NA"
"-65.71","66.14","PANGNIRTUNG","2403049","2019-02-09 05:00","2019","02","09","05:00","-24.1","","-28.1","","69","","0.0","","0","","1","","","","101.05","","","","-25","","NA"
"-65.71","66.14","PANGNIRTUNG","2403049","2019-02-09 06:00","2019","02","09","06:00","-24.6","","-29.3","","65","","0.0","","1","","3","","","","101.07","","","","-28","","NA"
"-65.71","66.14","PANGNIRTUNG","2403049","2019-02-09 07:00","2019","02","09","07:00","-24.2","","-28.4","","68","","0.0","","0","","1","","","","101.06","","","","-25","","NA"
"-65.71","66.14","PANGNIRTUNG","2403049","2019-02-09 08:00","2019","02","09","08:00","-24.0","","-27.9","","70","","0.0","","24","","7","","","","101.05","","","","-30","","NA"
"-65.71","66.14","PANGNIRTUNG","2403049","2019-02-09 09:00","2019","02","09","09:00","-24.1","","-27.9","","71","","0.0","","26","","2","","","","101.01","","","","-26","","NA"
"-65.71","66.14","PANGNIRTUNG","2403049","2019-02-09 10:00","2019","02","09","10:00","-23.7","","-27.8","","68","","0.0","","25","","7","","","","101.05","","","","-30","","NA"
"-65.71","66.14","PANGNIRTUNG","2403049","2019-02-09 11:00","2019","02","09","11:00","-22.9","","-27.8","","65","","0.0","","9","","3","","","","101.03","","","","-26","","NA"
"-65.71","66.14","PANGNIRTUNG","2403049","2019-02-09 12:00","2019","02","09","12:00","-24.2","","-29.2","","63","","0.0","","8","","2","","","","101.00","","","","-26","","NA"
"-65.71","66.14","PANGNIRTUNG","2403049","2019-02-09 13:00","2019","02","09","13:00","-23.4","","-28.0","","66","","0.0","","9","","3","","","","100.96","","","","-26","","NA"
"-65.71","66.14","PANGNIRTUNG","2403049","2019-02-09 14:00","2019","02","09","14:00","-22.9","","-27.3","","68","","0.0","","","","0","","","","100.91","","","","","","NA"
"-65.71","66.14","PANGNIRTUNG","2403049","2019-02-09 15:00","2019","02","09","15:00","-23.5","","-28.0","","66","","0.0","","25","","8","","","","100.94","","","","-30","","NA"
"-65.71","66.14","PANGNIRTUNG","2403049","2019-02-09 16:00","2019","02","09","16:00","-22.3","","-27.2","","64","","0.0","","20","","1","","","","100.93","","","","-23","","NA"
"-65.71","66.14","PANGNIRTUNG","2403049","2019-02-09 17:00","2019","02","09","17:00","-21.5","","-26.8","","62","","0.0","","25","","6","","","","100.94","","","","-27","","NA"
"-65.71","66.14","PANGNIRTUNG","2403049","2019-02-09 18:00","2019","02","09","18:00","-22.9","","-26.5","","72","","0.0","","24","","7","","","","100.97","","","","-29","","NA"
"-65.71","66.14","PANGNIRTUNG","2403049","2019-02-09 19:00","2019","02","09","19:00","-22.4","","-26.1","","71","","0.0","","13","","3","","","","100.92","","","","-25","","NA"
"-65.71","66.14","PANGNIRTUNG","2403049","2019-02-09 20:00","2019","02","09","20:00","-21.4","","-25.6","","69","","0.0","","8","","5","","","","100.88","","","","-26","","NA"
"-65.71","66.14","PANGNIRTUNG","2403049","2019-02-09 21:00","2019","02","09","21:00","-16.6","","-25.2","","47","","0.0","","11","","7","","","","100.85","","","","-22","","NA"
"-65.71","66.14","PANGNIRTUNG","2403049","2019-02-09 22:00","2019","02","09","22:00","-17.8","","-25.9","","49","","0.0","","5","","1","","","","100.80","","","","-19","","NA"
"-65.71","66.14","PANGNIRTUNG","2403049","2019-02-09 23:00","2019","02","09","23:00","-14.8","","-23.7","","47","","0.0","","8","","4","","","","100.79","","","","-18","","NA"
"-65.71","66.14","PANGNIRTUNG","2403049","2019-02-10 00:00","2019","02","10","00:00","-15.3","","-23.5","","49","","0.0","","25","","2","","","","100.74","","","","-17","","NA"
"-65.71","66.14","PANGNIRTUNG","2403049","2019-02-10 01:00","2019","02","10","01:00","-15.2","","-24.0","","47","","0.0","","16","","3","","","","100.71","","","","-17","","NA"
"-65.71","66.14","PANGNIRTUNG","2403049","2019-02-10 02:00","2019","02","10","02:00","-17.0","","-25.5","","47","","0.0","","10","","3","","","","100.73","","","","-19","","NA"
"-65.71","66.14","PANGNIRTUNG","2403049","2019-02-10 03:00","2019","02","10","03:00","-16.9","","-23.9","","55","","0.0","","28","","2","","","","100.75","","","","-18","","NA"
"-65.71","66.14","PANGNIRTUNG","2403049","2019-02-10 04:00","2019","02","10","04:00","-15.3","","-23.8","","48","","0.0","","4","","3","","","","100.74","","","","-17","","NA"
"-65.71","66.14","PANGNIRTUNG","2403049","2019-02-10 05:00","2019","02","10","05:00","-12.8","","-23.8","","39","","0.0","","7","","8","","","","100.75","","","","-18","","NA"
"-65.71","66.14","PANGNIRTUNG","2403049","2019-02-10 06:00","2019","02","10","06:00","-13.2","","-23.5","","42","","0.0","","4","","3","","","","100.70","","","","-15","","NA"
"-65.71","66.14","PANGNIRTUNG","2403049","2019-02-10 07:00","2019","02","10","07:00","-10.5","","-25.1","","29","","0.0","","11","","9","","","","100.68","","","","-15","","NA"
"-65.71","66.14","PANGNIRTUNG","2403049","2019-02-10 08:00","2019","02","10","08:00","-12.4","","-24.0","","38","","0.0","","10","","14","","","","100.65","","","","-19","","NA"
"-65.71","66.14","PANGNIRTUNG","2403049","2019-02-10 09:00","2019","02","10","09:00","-12.3","","-25.2","","33","","0.0","","19","","2","","","","100.67","","","","-14","","NA"
"-65.71","66.14","PANGNIRTUNG","2403049","2019-02-10 10:00","2019","02","10","10:00","-12.1","","-22.8","","41","","0.0","","23","","8","","","","100.66","","","","-17","","NA"
"-65.71","66.14","PANGNIRTUNG","2403049","2019-02-10 11:00","2019","02","10","11:00","-12.1","","-23.0","","40","","0.0","","33","","2","","","","100.62","","","","-13","","NA"
"-65.71","66.14","PANGNIRTUNG","2403049","2019-02-10 12:00","2019","02","10","12:00","-11.9","","-23.0","","39","","0.0","","3","","4","","","","100.62","","","","-14","","NA"
"-65.71","66.14","PANGNIRTUNG","2403049","2019-02-10 13:00","2019","02","10","13:00","-11.1","","-24.3","","33","","0.0","","11","","10","","","","100.59","","","","-17","","NA"
"-65.71","66.14","PANGNIRTUNG","2403049","2019-02-10 14:00","2019","02","10","14:00","-12.3","","-23.6","","38","","0.0","","10","","16","","","","100.59","","","","-20","","NA"
"-65.71","66.14","PANGNIRTUNG","2403049","2019-02-10 15:00","2019","02","10","15:00","-13.0","","-24.1","","39","","0.0","","3","","4","","","","100.62","","","","-16","","NA"
"-65.71","66.14","PANGNIRTUNG","2403049","2019-02-10 16:00","2019","02","10","16:00","-14.4","","-24.6","","41","","0.0","","8","","4","","","","100.61","","","","-17","","NA"
"-65.71","66.14","PANGNIRTUNG","2403049","2019-02-10 17:00","2019","02","10","17:00","-14.3","","-24.7","","41","","0.0","","33","","3","","","","100.61","","","","-16","","NA"
"-65.71","66.14","PANGNIRTUNG","2403049","2019-02-10 18:00","2019","02","10","18:00","-14.6","","-24.5","","43","","0.0","","25","","6","","","","100.59","","","","-19","","NA"
"-65.71","66.14","PANGNIRTUNG","2403049","2019-02-10 19:00","2019","02","10","19:00","-14.5","","-25.0","","41","","0.0","","26","","3","","","","100.58","","","","-17","","NA"
"-65.71","66.14","PANGNIRTUNG","2403049","2019-02-10 20:00","2019","02","10","20:00","-19.5","","-26.0","","56","","0.0","","24","","7","","","","100.62","","","","-25","","NA"
"-65.71","66.14","PANGNIRTUNG","2403049","2019-02-10 21:00","2019","02","10","21:00","-18.4","","-24.4","","59","","0.0","","25","","7","","","","100.62","","","","-24","","NA"
"-65.71","66.14","PANGNIRTUNG","2403049","2019-02-10 22:00","2019","02","10","22:00","-21.1","","-26.1","","64","","0.0","","25","","8","","","","100.63","","","","-28","","NA"
"-65.71","66.14","PANGNIRTUNG","2403049","2019-02-10 23:00","2019","02","10","23:00","-22.4","","-26.3","","70","","0.0","","21","","5","","","","100.63","","","","-27","","NA"
"-65.71","66.14","PANGNIRTUNG","2403049","2019-02-11 00:00","2019","02","11","00:00","-24.2","","-27.6","","73","","0.0","","25","","12","","","","100.64","","","","-33","","NA"
"-65.71","66.14","PANGNIRTUNG","2403049","2019-02-11 01:00","2019","02","11","01:00","-23.7","","-27.2","","73","","0.0","","24","","16","","","","100.64","","","","-34","","NA"
"-65.71","66.14","PANGNIRTUNG","2403049","2019-02-11 02:00","2019","02","11","02:00","-24.7","","-28.1","","73","","0.0","","25","","16","","","","100.64","","","","-35","","NA"
"-65.71","66.14","PANGNIRTUNG","2403049","2019-02-11 03:00","2019","02","11","03:00","-24.6","","-28.0","","73","","0.0","","25","","13","","","","100.65","","","","-34","","NA"
"-65.71","66.14","PANGNIRTUNG","2403049","2019-02-11 04:00","2019","02","11","04:00","-24.7","","-28.2","","73","","0.0","","24","","9","","","","100.67","","","","-32","","NA"
"-65.71","66.14","PANGNIRTUNG","2403049","2019-02-11 05:00","2019","02","11","05:00","-24.8","","-28.6","","71","","0.0","","24","","10","","","","100.70","","","","-33","","NA"
"-65.71","66.14","PANGNIRTUNG","2403049","2019-02-11 06:00","2019","02","11","06:00","-25.4","","-29.0","","72","","0.0","","24","","11","","","","100.73","","","","-34","","NA"
"-65.71","66.14","PANGNIRTUNG","2403049","2019-02-11 07:00","2019","02","11","07:00","-25.8","","-29.3","","72","","0.0","","25","","9","","","","100.76","","","","-34","","NA"
"-65.71","66.14","PANGNIRTUNG","2403049","2019-02-11 08:00","2019","02","11","08:00","-26.1","","-29.7","","72","","0.0","","24","","11","","","","100.76","","","","-35","","NA"
"-65.71","66.14","PANGNIRTUNG","2403049","2019-02-11 09:00","2019","02","11","09:00","-26.2","","-29.9","","71","","0.0","","24","","10","","","","100.76","","","","-35","","NA"
"-65.71","66.14","PANGNIRTUNG","2403049","2019-02-11 10:00","2019","02","11","10:00","-26.1","","-30.0","","70","","0.0","","24","","11","","","","100.76","","","","-35","","NA"
"-65.71","66.14","PANGNIRTUNG","2403049","2019-02-11 11:00","2019","02","11","11:00","-25.8","","-29.6","","71","","0.0","","23","","6","","","","100.76","","","","-32","","NA"
"-65.71","66.14","PANGNIRTUNG","2403049","2019-02-11 12:00","2019","02","11","12:00","-25.9","","-29.7","","70","","0.0","","24","","11","","","","100.76","","","","-35","","NA"
"-65.71","66.14","PANGNIRTUNG","2403049","2019-02-11 13:00","2019","02","11","13:00","-25.7","","-29.5","","70","","0.0","","24","","8","","","","100.75","","","","-33","","NA"
"-65.71","66.14","PANGNIRTUNG","2403049","2019-02-11 14:00","2019","02","11","14:00","-25.7","","-29.6","","70","","0.0","","23","","7","","","","100.79","","","","-32","","NA"
"-65.71","66.14","PANGNIRTUNG","2403049","2019-02-11 15:00","2019","02","11","15:00","-25.8","","-29.6","","70","","0.0","","24","","8","","","","100.83","","","","-33","","NA"
"-65.71","66.14","PANGNIRTUNG","2403049","2019-02-11 16:00","2019","02","11","16:00","-25.9","","-29.8","","70","","0.0","","24","","6","","","","100.87","","","","-32","","NA"
"-65.71","66.14","PANGNIRTUNG","2403049","2019-02-11 17:00","2019","02","11","17:00","-26.2","","-30.0","","70","","0.0","","24","","8","","","","100.90","","","","-34","","NA"
"-65.71","66.14","PANGNIRTUNG","2403049","2019-02-11 18:00","2019","02","11","18:00","-26.6","","-30.3","","71","","0.0","","24","","9","","","","100.92","","","","-35","","NA"
"-65.71","66.14","PANGNIRTUNG","2403049","2019-02-11 19:00","2019","02","11","19:00","-26.7","","-30.4","","71","","0.0","","23","","10","","","","100.94","","","","-35","","NA"
"-65.71","66.14","PANGNIRTUNG","2403049","2019-02-11 20:00","2019","02","11","20:00","-26.9","","-30.7","","70","","0.0","","24","","6","","","","100.96","","","","-33","","NA"
"-65.71","66.14","PANGNIRTUNG","2403049","2019-02-11 21:00","2019","02","11","21:00","-27.6","","-31.3","","71","","0.0","","24","","7","","","","101.00","","","","-34","","NA"
"-65.71","66.14","PANGNIRTUNG","2403049","2019-02-11 22:00","2019","02","11","22:00","-27.4","","-31.3","","69","","0.0","","28","","1","","","","101.00","","","","-28","","NA"
"-65.71","66.14","PANGNIRTUNG","2403049","2019-02-11 23:00","2019","02","11","23:00","-27.5","","-31.5","","68","","0.0","","25","","5","","","","100.98","","","","-33","","NA"
"-65.71","66.14","PANGNIRTUNG","2403049","2019-02-12 00:00","2019","02","12","00:00","-27.6","","-31.5","","69","","0.0","","23","","6","","","","100.96","","","","-34","","NA"
"-65.71","66.14","PANGNIRTUNG","2403049","2019-02-12 01:00","2019","02","12","01:00","-27.7","","-31.4","","70","","0.0","","24","","3","","","","100.97","","","","-31","","NA"
"-65.71","66.14","PANGNIRTUNG","2403049","2019-02-12 02:00","2019","02","12","02:00","-27.6","","-31.1","","72","","0.0","","23","","5","","","","100.98","","","","-33","","NA"
"-65.71","66.14","PANGNIRTUNG","2403049","2019-02-12 03:00","2019","02","12","03:00","-27.4","","-30.9","","72","","0.0","","20","","2","","","","100.97","","","","-30","","NA"
"-65.71","66.14","PANGNIRTUNG","2403049","2019-02-12 04:00","2019","02","12","04:00","-27.5","","-31.3","","69","","0.0","","10","","2","","","","100.98","","","","-30","","NA"
"-65.71","66.14","PANGNIRTUNG","2403049","2019-02-12 05:00","2019","02","12","05:00","-27.2","","-31.0","","70","","0.0","","24","","2","","","","101.00","","","","-29","","NA"
"-65.71","66.14","PANGNIRTUNG","2403049","2019-02-12 06:00","2019","02","12","06:00","-27.3","","-30.9","","71","","0.0","","22","","5","","","","101.01","","","","-33","","NA"
"-65.71","66.14","PANGNIRTUNG","2403049","2019-02-12 07:00","2019","02","12","07:00","-27.5","","-31.1","","71","","0.0","","22","","5","","","","101.02","","","","-33","","NA"
"-65.71","66.14","PANGNIRTUNG","2403049","2019-02-12 08:00","2019","02","12","08:00","-27.8","","-31.4","","71","","0.0","","23","","7","","","","101.04","","","","-35","","NA"
"-65.71","66.14","PANGNIRTUNG","2403049","2019-02-12 09:00","2019","02","12","09:00","-28.1","","-31.8","","71","","0.0","","24","","9","","","","101.06","","","","-36","","NA"
"-65.71","66.14","PANGNIRTUNG","2403049","2019-02-12 10:00","2019","02","12","10:00","-28.8","","-32.8","","69","","0.0","","10","","3","","","","101.05","","","","-32","","NA"
"-65.71","66.14","PANGNIRTUNG","2403049","2019-02-12 11:00","2019","02","12","11:00","-28.4","","-32.2","","69","","0.0","","24","","10","","","","101.04","","","","-37","","NA"
"-65.71","66.14","PANGNIRTUNG","2403049","2019-02-12 12:00","2019","02","12","12:00","-27.9","","-32.0","","68","","0.0","","24","","5","","","","101.04","","","","-33","","NA"
"-65.71","66.14","PANGNIRTUNG","2403049","2019-02-12 13:00","2019","02","12","13:00","-28.1","","-32.0","","70","","0.0","","23","","7","","","","101.06","","","","-35","","NA"
"-65.71","66.14","PANGNIRTUNG","2403049","2019-02-12 14:00","2019","02","12","14:00","-28.0","","-31.9","","70","","0.0","","23","","3","","","","101.07","","","","-31","","NA"
"-65.71","66.14","PANGNIRTUNG","2403049","2019-02-12 15:00","2019","02","12","15:00","-28.3","","-32.0","","70","","0.0","","26","","1","","","","101.09","","","","-29","","NA"
"-65.71","66.14","PANGNIRTUNG","2403049","2019-02-12 16:00","2019","02","12","16:00","-28.7","","-32.1","","72","","0.0","","24","","13","","","","101.09","","","","-39","","NA"
"-65.71","66.14","PANGNIRTUNG","2403049","2019-02-12 17:00","2019","02","12","17:00","-28.6","","-32.1","","72","","0.0","","","","0","","","","101.11","","","","","","NA"
"-65.71","66.14","PANGNIRTUNG","2403049","2019-02-12 18:00","2019","02","12","18:00","-28.7","","-32.4","","71","","0.0","","0","","1","","","","101.11","","","","-30","","NA"
"-65.71","66.14","PANGNIRTUNG","2403049","2019-02-12 19:00","2019","02","12","19:00","-29.1","","-32.5","","72","","0.0","","24","","6","","","","101.11","","","","-35","","NA"
"-65.71","66.14","PANGNIRTUNG","2403049","2019-02-12 20:00","2019","02","12","20:00","-28.9","","-32.5","","71","","0.0","","24","","4","","","","101.13","","","","-33","","NA"
"-65.71","66.14","PANGNIRTUNG","2403049","2019-02-12 21:00","2019","02","12","21:00","-29.6","","-33.0","","72","","0.0","","0","","1","","","","101.11","","","","-31","","NA"
"-65.71","66.14","PANGNIRTUNG","2403049","2019-02-12 22:00","2019","02","12","22:00","-29.8","","-33.4","","71","","0.0","","13","","2","","","","101.08","","","","-32","","NA"
"-65.71","66.14","PANGNIRTUNG","2403049","2019-02-12 23:00","2019","02","12","23:00","-30.2","","-33.7","","72","","0.0","","5","","2","","","","101.06","","","","-32","","NA"
"-65.71","66.14","PANGNIRTUNG","2403049","2019-02-13 00:00","2019","02","13","00:00","-30.1","","-33.6","","71","","0.0","","22","","3","","","","101.07","","","","-33","","NA"
"-65.71","66.14","PANGNIRTUNG","2403049","2019-02-13 01:00","2019","02","13","01:00","-30.1","","-33.7","","71","","0.0","","11","","3","","","","101.06","","","","-33","","NA"
"-65.71","66.14","PANGNIRTUNG","2403049","2019-02-13 02:00","2019","02","13","02:00","-30.3","","-33.8","","71","","0.0","","26","","4","","","","101.05","","","","-35","","NA"
"-65.71","66.14","PANGNIRTUNG","2403049","2019-02-13 03:00","2019","02","13","03:00","-30.1","","-33.7","","71","","0.0","","21","","3","","","","101.05","","","","-33","","NA"
"-65.71","66.14","PANGNIRTUNG","2403049","2019-02-13 04:00","2019","02","13","04:00","-30.3","","-33.7","","72","","0.0","","24","","6","","","","101.06","","","","-37","","NA"
"-65.71","66.14","PANGNIRTUNG","2403049","2019-02-13 05:00","2019","02","13","05:00","-30.6","","-34.1","","71","","0.0","","25","","1","","","","101.04","","","","-32","","NA"
"-65.71","66.14","PANGNIRTUNG","2403049","2019-02-13 06:00","2019","02","13","06:00","-30.7","","-34.1","","72","","0.0","","26","","2","","","","101.03","","","","-33","","NA"
"-65.71","66.14","PANGNIRTUNG","2403049","2019-02-13 07:00","2019","02","13","07:00","-31.0","","-34.3","","72","","0.0","","25","","5","","","","101.00","","","","-37","","NA"
"-65.71","66.14","PANGNIRTUNG","2403049","2019-02-13 08:00","2019","02","13","08:00","-30.9","","-34.7","","70","","0.0","","0","","1","","","","101.00","","","","-32","","NA"
"-65.71","66.14","PANGNIRTUNG","2403049","2019-02-13 09:00","2019","02","13","09:00","-31.1","","-34.7","","70","","0.0","","0","","1","","","","101.00","","","","-32","","NA"
"-65.71","66.14","PANGNIRTUNG","2403049","2019-02-13 10:00","2019","02","13","10:00","-30.8","","-34.3","","71","","0.0","","24","","2","","","","101.00","","","","-33","","NA"
"-65.71","66.14","PANGNIRTUNG","2403049","2019-02-13 11:00","2019","02","13","11:00","-30.6","","-34.5","","68","","0.0","","","","0","","","","100.97","","","","","","NA"
"-65.71","66.14","PANGNIRTUNG","2403049","2019-02-13 12:00","2019","02","13","12:00","-30.6","","-34.6","","68","","0.0","","11","","3","","","","100.93","","","","-34","","NA"
"-65.71","66.14","PANGNIRTUNG","2403049","2019-02-13 13:00","2019","02","13","13:00","-30.2","","-34.4","","67","","0.0","","26","","2","","","","100.91","","","","-32","","NA"
"-65.71","66.14","PANGNIRTUNG","2403049","2019-02-13 14:00","2019","02","13","14:00","-29.9","","-34.1","","67","","0.0","","","","0","","","","100.91","","","","","","NA"
"-65.71","66.14","PANGNIRTUNG","2403049","2019-02-13 15:00","2019","02","13","15:00","-29.7","","-33.9","","66","","0.0","","","","0","","","","100.91","","","","","","NA"
"-65.71","66.14","PANGNIRTUNG","2403049","2019-02-13 16:00","2019","02","13","16:00","-29.9","","-34.0","","67","","0.0","","0","","1","","","","100.91","","","","-31","","NA"
"-65.71","66.14","PANGNIRTUNG","2403049","2019-02-13 17:00","2019","02","13","17:00","-30.1","","-34.3","","67","","0.0","","12","","2","","","","100.91","","","","-32","","NA"
"-65.71","66.14","PANGNIRTUNG","2403049","2019-02-13 18:00","2019","02","13","18:00","-30.1","","-34.4","","66","","0.0","","","","0","","","","100.93","","","","","","NA"
"-65.71","66.14","PANGNIRTUNG","2403049","2019-02-13 19:00","2019","02","13","19:00","-30.1","","-34.1","","68","","0.0","","23","","5","","","","100.92","","","","-36","","NA"
"-65.71","66.14","PANGNIRTUNG","2403049","2019-02-13 20:00","2019","02","13","20:00","-30.6","","-34.8","","66","","0.0","","","","0","","","","100.93","","","","","","NA"
"-65.71","66.14","PANGNIRTUNG","2403049","2019-02-13 21:00","2019","02","13","21:00","-30.6","","-34.4","","69","","0.0","","24","","7","","","","100.93","","","","-38","","NA"
"-65.71","66.14","PANGNIRTUNG","2403049","2019-02-13 22:00","2019","02","13","22:00","-30.4","","-34.2","","70","","0.0","","24","","4","","","","100.94","","","","-35","","NA"
"-65.71","66.14","PANGNIRTUNG","2403049","2019-02-13 23:00","2019","02","13","23:00","-31.0","","-35.0","","68","","0.0","","","","0","","","","100.96","","","","","","NA"
"-65.71","66.14","PANGNIRTUNG","2403049","2019-02-14 00:00","2019","02","14","00:00","-31.1","","-34.9","","69","","0.0","","10","","1","","","","100.97","","","","-32","","NA"
"-65.71","66.14","PANGNIRTUNG","2403049","2019-02-14 01:00","2019","02","14","01:00","-31.0","","-35.0","","68","","0.0","","23","","1","","","","100.98","","","","-32","","NA"
"-65.71","66.14","PANGNIRTUNG","2403049","2019-02-14 02:00","2019","02","14","02:00","-31.1","","-35.1","","67","","0.0","","25","","6","","","","100.99","","","","-38","","NA"
"-65.71","66.14","PANGNIRTUNG","2403049","2019-02-14 03:00","2019","02","14","03:00","-31.2","","-35.3","","68","","0.0","","9","","3","","","","100.99","","","","-35","","NA"
"-65.71","66.14","PANGNIRTUNG","2403049","2019-02-14 04:00","2019","02","14","04:00","-31.1","","-34.9","","69","","0.0","","","","0","","","","101.02","","","","","","NA"
"-65.71","66.14","PANGNIRTUNG","2403049","2019-02-14 05:00","2019","02","14","05:00","-31.3","","-35.4","","67","","0.0","","0","","1","","","","101.03","","","","-32","","NA"
"-65.71","66.14","PANGNIRTUNG","2403049","2019-02-14 06:00","2019","02","14","06:00","-31.1","","-35.0","","68","","0.0","","25","","4","","","","101.03","","","","-36","","NA"
"-65.71","66.14","PANGNIRTUNG","2403049","2019-02-14 07:00","2019","02","14","07:00","-31.1","","-35.4","","66","","0.0","","0","","1","","","","101.06","","","","-32","","NA"
"-65.71","66.14","PANGNIRTUNG","2403049","2019-02-14 08:00","2019","02","14","08:00","-31.6","","-35.6","","68","","0.0","","","","0","","","","101.07","","","","","","NA"
"-65.71","66.14","PANGNIRTUNG","2403049","2019-02-14 09:00","2019","02","14","09:00","-31.2","","-35.2","","68","","0.0","","","","0","","","","101.09","","","","","","NA"
"-65.71","66.14","PANGNIRTUNG","2403049","2019-02-14 10:00","2019","02","14","10:00","-30.5","","-34.7","","67","","0.0","","","","0","","","","101.08","","","","","","NA"
"-65.71","66.14","PANGNIRTUNG","2403049","2019-02-14 11:00","2019","02","14","11:00","-30.6","","-35.0","","65","","0.0","","28","","2","","","","101.06","","","","-33","","NA"
"-65.71","66.14","PANGNIRTUNG","2403049","2019-02-14 12:00","2019","02","14","12:00","-30.3","","-34.7","","65","","0.0","","","","0","","","","101.08","","","","","","NA"
"-65.71","66.14","PANGNIRTUNG","2403049","2019-02-14 13:00","2019","02","14","13:00","-29.8","","-34.4","","64","","0.0","","","","0","","","","101.07","","","","","","NA"
"-65.71","66.14","PANGNIRTUNG","2403049","2019-02-14 14:00","2019","02","14","14:00","-29.9","","-34.5","","64","","0.0","","0","","1","","","","101.06","","","","-31","","NA"
"-65.71","66.14","PANGNIRTUNG","2403049","2019-02-14 15:00","2019","02","14","15:00","-29.7","","-34.3","","64","","0.0","","","","0","","","","101.06","","","","","","NA"
"-65.71","66.14","PANGNIRTUNG","2403049","2019-02-14 16:00","2019","02","14","16:00","-29.8","","-34.3","","65","","0.0","","0","","1","","","","101.09","","","","-31","","NA"
"-65.71","66.14","PANGNIRTUNG","2403049","2019-02-14 17:00","2019","02","14","17:00","-29.6","","-34.0","","65","","0.0","","","","0","","","","101.11","","","","","","NA"
"-65.71","66.14","PANGNIRTUNG","2403049","2019-02-14 18:00","2019","02","14","18:00","-29.5","","-33.7","","67","","0.0","","12","","1","","","","101.09","","","","-31","","NA"
"-65.71","66.14","PANGNIRTUNG","2403049","2019-02-14 19:00","2019","02","14","19:00","-29.7","","-33.6","","69","","0.0","","","","0","","","","101.07","","","","","","NA"
"-65.71","66.14","PANGNIRTUNG","2403049","2019-02-14 20:00","2019","02","14","20:00","-30.0","","-33.9","","69","","0.0","","0","","1","","","","101.08","","","","-31","","NA"
"-65.71","66.14","PANGNIRTUNG","2403049","2019-02-14 21:00","2019","02","14","21:00","-30.1","","-33.9","","70","","0.0","","0","","1","","","","101.08","","","","-31","","NA"
"-65.71","66.14","PANGNIRTUNG","2403049","2019-02-14 22:00","2019","02","14","22:00","-30.5","","-34.5","","68","","0.0","","14","","3","","","","101.08","","","","-34","","NA"
"-65.71","66.14","PANGNIRTUNG","2403049","2019-02-14 23:00","2019","02","14","23:00","-29.0","","-33.0","","68","","0.0","","0","","1","","","","101.08","","","","-30","","NA"
"-65.71","66.14","PANGNIRTUNG","2403049","2019-02-15 00:00","2019","02","15","00:00","-30.0","","-33.8","","69","","0.0","","10","","2","","","","101.08","","","","-32","","NA"
"-65.71","66.14","PANGNIRTUNG","2403049","2019-02-15 01:00","2019","02","15","01:00","-31.0","","-34.7","","70","","0.0","","13","","3","","","","101.09","","","","-34","","NA"
"-65.71","66.14","PANGNIRTUNG","2403049","2019-02-15 02:00","2019","02","15","02:00","-29.0","","-32.5","","72","","0.0","","13","","4","","","","101.09","","","","-33","","NA"
"-65.71","66.14","PANGNIRTUNG","2403049","2019-02-15 03:00","2019","02","15","03:00","-28.9","","-32.6","","70","","0.0","","13","","5","","","","101.10","","","","-34","","NA"
"-65.71","66.14","PANGNIRTUNG","2403049","2019-02-15 04:00","2019","02","15","04:00","-27.7","","-31.6","","69","","0.0","","11","","5","","","","101.12","","","","-33","","NA"
"-65.71","66.14","PANGNIRTUNG","2403049","2019-02-15 05:00","2019","02","15","05:00","-27.7","","-31.7","","69","","0.0","","7","","5","","","","101.15","","","","-33","","NA"
"-65.71","66.14","PANGNIRTUNG","2403049","2019-02-15 06:00","2019","02","15","06:00","-28.2","","-32.2","","69","","0.0","","13","","4","","","","101.21","","","","-33","","NA"
"-65.71","66.14","PANGNIRTUNG","2403049","2019-02-15 07:00","2019","02","15","07:00","-27.5","","-31.2","","71","","0.0","","24","","11","","","","101.24","","","","-37","","NA"
"-65.71","66.14","PANGNIRTUNG","2403049","2019-02-15 08:00","2019","02","15","08:00","-28.3","","-32.0","","70","","0.0","","24","","8","","","","101.25","","","","-36","","NA"
"-65.71","66.14","PANGNIRTUNG","2403049","2019-02-15 09:00","2019","02","15","09:00","-28.1","","-31.6","","72","","0.0","","21","","1","","","","101.25","","","","-29","","NA"
"-65.71","66.14","PANGNIRTUNG","2403049","2019-02-15 10:00","2019","02","15","10:00","-28.0","","-31.5","","72","","0.0","","20","","2","","","","101.24","","","","-30","","NA"
"-65.71","66.14","PANGNIRTUNG","2403049","2019-02-15 11:00","2019","02","15","11:00","-27.4","","-31.1","","71","","0.0","","20","","2","","","","101.25","","","","-30","","NA"
"-65.71","66.14","PANGNIRTUNG","2403049","2019-02-15 12:00","2019","02","15","12:00","-27.6","","-31.3","","70","","0.0","","18","","2","","","","101.26","","","","-30","","NA"
"-65.71","66.14","PANGNIRTUNG","2403049","2019-02-15 13:00","2019","02","15","13:00","-27.2","","-31.1","","70","","0.0","","15","","3","","","","101.26","","","","-30","","NA"
"-65.71","66.14","PANGNIRTUNG","2403049","2019-02-15 14:00","2019","02","15","14:00","-27.0","","-31.0","","68","","0.0","","20","","2","","","","101.28","","","","-29","","NA"
"-65.71","66.14","PANGNIRTUNG","2403049","2019-02-15 15:00","2019","02","15","15:00","-26.6","","-30.7","","69","","0.0","","11","","5","","","","101.30","","","","-32","","NA"
"-65.71","66.14","PANGNIRTUNG","2403049","2019-02-15 16:00","2019","02","15","16:00","-26.5","","-30.6","","68","","0.0","","10","","3","","","","101.32","","","","-30","","NA"
"-65.71","66.14","PANGNIRTUNG","2403049","2019-02-15 17:00","2019","02","15","17:00","-26.2","","-30.2","","69","","0.0","","","","0","","","","101.34","","","","","","NA"
"-65.71","66.14","PANGNIRTUNG","2403049","2019-02-15 18:00","2019","02","15","18:00","-26.6","","-30.5","","69","","0.0","","14","","1","","","","101.33","","","","-28","","NA"
"-65.71","66.14","PANGNIRTUNG","2403049","2019-02-15 19:00","2019","02","15","19:00","-26.0","","-29.8","","70","","0.0","","24","","5","","","","101.33","","","","-31","","NA"
"-65.71","66.14","PANGNIRTUNG","2403049","2019-02-15 20:00","2019","02","15","20:00","-25.9","","-30.0","","68","","0.0","","","","0","","","","101.35","","","","","","NA"
"-65.71","66.14","PANGNIRTUNG","2403049","2019-02-15 21:00","2019","02","15","21:00","-26.0","","-30.2","","68","","0.0","","24","","7","","","","101.35","","","","-33","","NA"
"-65.71","66.14","PANGNIRTUNG","2403049","2019-02-15 22:00","2019","02","15","22:00","-26.0","","-30.1","","68","","0.0","","23","","6","","","","101.34","","","","-32","","NA"
"-65.71","66.14","PANGNIRTUNG","2403049","2019-02-15 23:00","2019","02","15","23:00","-26.0","","-30.0","","69","","0.0","","24","","7","","","","101.35","","","","-33","","NA"
"-65.71","66.14","PANGNIRTUNG","2403049","2019-02-16 00:00","2019","02","16","00:00","-26.6","","-30.8","","68","","0.0","","18","","1","","","","101.34","","","","-28","","NA"
"-65.71","66.14","PANGNIRTUNG","2403049","2019-02-16 01:00","2019","02","16","01:00","-26.4","","-31.1","","65","","0.0","","14","","4","","","","101.38","","","","-31","","NA"
"-65.71","66.14","PANGNIRTUNG","2403049","2019-02-16 02:00","2019","02","16","02:00","-26.3","","-30.9","","65","","0.0","","15","","2","","","","101.40","","","","-28","","NA"
"-65.71","66.14","PANGNIRTUNG","2403049","2019-02-16 03:00","2019","02","16","03:00","-26.6","","-31.1","","66","","0.0","","23","","1","","","","101.41","","","","-28","","NA"
"-65.71","66.14","PANGNIRTUNG","2403049","2019-02-16 04:00","2019","02","16","04:00","-27.2","","-31.6","","66","","0.0","","27","","1","","","","101.45","","","","-28","","NA"
"-65.71","66.14","PANGNIRTUNG","2403049","2019-02-16 05:00","2019","02","16","05:00","-27.5","","-31.9","","66","","0.0","","26","","4","","","","101.43","","","","-32","","NA"
"-65.71","66.14","PANGNIRTUNG","2403049","2019-02-16 06:00","2019","02","16","06:00","-28.0","","-32.5","","66","","0.0","","27","","2","","","","101.46","","","","-30","","NA"
"-65.71","66.14","PANGNIRTUNG","2403049","2019-02-16 07:00","2019","02","16","07:00","-27.7","","-32.1","","66","","0.0","","21","","1","","","","101.47","","","","-29","","NA"
"-65.71","66.14","PANGNIRTUNG","2403049","2019-02-16 08:00","2019","02","16","08:00","-28.9","","-33.2","","67","","0.0","","25","","2","","","","101.51","","","","-31","","NA"
"-65.71","66.14","PANGNIRTUNG","2403049","2019-02-16 09:00","2019","02","16","09:00","-27.2","","-31.4","","68","","0.0","","24","","3","","","","101.54","","","","-30","","NA"
"-65.71","66.14","PANGNIRTUNG","2403049","2019-02-16 10:00","2019","02","16","10:00","-28.2","","-33.0","","63","","0.0","","20","","1","","","","101.53","","","","-29","","NA"
"-65.71","66.14","PANGNIRTUNG","2403049","2019-02-16 11:00","2019","02","16","11:00","-27.8","","-32.3","","65","","0.0","","13","","1","","","","101.53","","","","-29","","NA"
"-65.71","66.14","PANGNIRTUNG","2403049","2019-02-16 12:00","2019","02","16","12:00","-27.4","","-32.0","","65","","0.0","","11","","1","","","","101.52","","","","-28","","NA"
"-65.71","66.14","PANGNIRTUNG","2403049","2019-02-16 13:00","2019","02","16","13:00","-27.6","","-31.9","","67","","0.0","","","","0","","","","101.49","","","","","","NA"
"-65.71","66.14","PANGNIRTUNG","2403049","2019-02-16 14:00","2019","02","16","14:00","-27.6","","-32.4","","64","","0.0","","25","","1","","","","101.46","","","","-29","","NA"
"-65.71","66.14","PANGNIRTUNG","2403049","2019-02-16 15:00","2019","02","16","15:00","-27.5","","-31.6","","68","","0.0","","32","","1","","","","101.44","","","","-29","","NA"
"-65.71","66.14","PANGNIRTUNG","2403049","2019-02-16 16:00","2019","02","16","16:00","-27.4","","-31.7","","67","","0.0","","","","0","","","","101.44","","","","","","NA"
"-65.71","66.14","PANGNIRTUNG","2403049","2019-02-16 17:00","2019","02","16","17:00","-27.5","","-31.8","","67","","0.0","","19","","2","","","","101.46","","","","-30","","NA"
"-65.71","66.14","PANGNIRTUNG","2403049","2019-02-16 18:00","2019","02","16","18:00","-27.4","","-31.5","","68","","0.0","","7","","2","","","","101.45","","","","-30","","NA"
"-65.71","66.14","PANGNIRTUNG","2403049","2019-02-16 19:00","2019","02","16","19:00","-27.1","","-31.3","","67","","0.0","","9","","2","","","","101.47","","","","-29","","NA"
"-65.71","66.14","PANGNIRTUNG","2403049","2019-02-16 20:00","2019","02","16","20:00","-27.4","","-32.0","","65","","0.0","","8","","5","","","","101.47","","","","-33","","NA"
"-65.71","66.14","PANGNIRTUNG","2403049","2019-02-16 21:00","2019","02","16","21:00","-27.6","","-31.9","","67","","0.0","","8","","7","","","","101.43","","","","-34","","NA"
"-65.71","66.14","PANGNIRTUNG","2403049","2019-02-16 22:00","2019","02","16","22:00","-26.7","","-30.9","","68","","0.0","","9","","6","","","","101.36","","","","-33","","NA"
"-65.71","66.14","PANGNIRTUNG","2403049","2019-02-16 23:00","2019","02","16","23:00","-27.2","","-31.0","","70","","0.0","","8","","5","","","","101.30","","","","-32","","NA"
"-65.71","66.14","PANGNIRTUNG","2403049","2019-02-17 00:00","2019","02","17","00:00","-26.0","","-31.3","","61","","0.0","","9","","6","","","","101.26","","","","-32","","NA"
"-65.71","66.14","PANGNIRTUNG","2403049","2019-02-17 01:00","2019","02","17","01:00","-23.2","","-29.7","","55","","0.0","","10","","8","","","","101.24","","","","-30","","NA"
"-65.71","66.14","PANGNIRTUNG","2403049","2019-02-17 02:00","2019","02","17","02:00","-23.3","","-30.1","","54","","0.0","","8","","9","","","","101.21","","","","-31","","NA"
"-65.71","66.14","PANGNIRTUNG","2403049","2019-02-17 03:00","2019","02","17","03:00","-24.1","","-30.4","","56","","0.0","","5","","6","","","","101.17","","","","-30","","NA"
"-65.71","66.14","PANGNIRTUNG","2403049","2019-02-17 04:00","2019","02","17","04:00","-24.5","","-30.4","","58","","0.0","","3","","2","","","","101.16","","","","-26","","NA"
"-65.71","66.14","PANGNIRTUNG","2403049","2019-02-17 05:00","2019","02","17","05:00","-23.8","","-30.4","","55","","0.0","","7","","5","","","","101.15","","","","-29","","NA"
"-65.71","66.14","PANGNIRTUNG","2403049","2019-02-17 06:00","2019","02","17","06:00","-23.9","","-30.9","","53","","0.0","","8","","4","","","","101.13","","","","-28","","NA"
"-65.71","66.14","PANGNIRTUNG","2403049","2019-02-17 07:00","2019","02","17","07:00","-24.5","","-31.2","","54","","0.0","","30","","3","","","","101.08","","","","-27","","NA"
"-65.71","66.14","PANGNIRTUNG","2403049","2019-02-17 08:00","2019","02","17","08:00","-24.1","","-31.2","","52","","0.0","","7","","6","","","","101.06","","","","-30","","NA"
"-65.71","66.14","PANGNIRTUNG","2403049","2019-02-17 09:00","2019","02","17","09:00","-22.9","","-31.2","","47","","0.0","","8","","4","","","","100.99","","","","-27","","NA"
"-65.71","66.14","PANGNIRTUNG","2403049","2019-02-17 10:00","2019","02","17","10:00","-21.3","","-30.4","","44","","0.0","","12","","4","","","","100.94","","","","-25","","NA"
"-65.71","66.14","PANGNIRTUNG","2403049","2019-02-17 11:00","2019","02","17","11:00","-20.5","","-29.9","","43","","0.0","","9","","9","","","","100.88","","","","-27","","NA"
"-65.71","66.14","PANGNIRTUNG","2403049","2019-02-17 12:00","2019","02","17","12:00","-20.3","","-28.2","","50","","0.0","","7","","16","","","","100.81","","","","-30","","NA"
"-65.71","66.14","PANGNIRTUNG","2403049","2019-02-17 13:00","2019","02","17","13:00","-19.5","","-27.9","","48","","0.0","","7","","18","","","","100.74","","","","-29","","NA"
"-65.71","66.14","PANGNIRTUNG","2403049","2019-02-17 14:00","2019","02","17","14:00","-19.6","","-27.2","","51","","0.0","","7","","15","","","","100.70","","","","-29","","NA"
"-65.71","66.14","PANGNIRTUNG","2403049","2019-02-17 15:00","2019","02","17","15:00","-19.6","","-27.0","","52","","0.0","","8","","16","","","","100.65","","","","-29","","NA"
"-65.71","66.14","PANGNIRTUNG","2403049","2019-02-17 16:00","2019","02","17","16:00","-19.4","","-26.5","","53","","0.0","","8","","19","","","","100.61","","","","-29","","NA"
"-65.71","66.14","PANGNIRTUNG","2403049","2019-02-17 17:00","2019","02","17","17:00","-19.1","","-25.9","","55","","0.0","","6","","15","","","","100.61","","","","-28","","NA"
"-65.71","66.14","PANGNIRTUNG","2403049","2019-02-17 18:00","2019","02","17","18:00","-19.5","","-25.1","","61","","0.0","","7","","21","","","","100.52","","","","-30","","NA"
"-65.71","66.14","PANGNIRTUNG","2403049","2019-02-17 19:00","2019","02","17","19:00","-19.1","","-24.2","","64","","0.1","","7","","13","","","","100.51","","","","-27","","NA"
"-65.71","66.14","PANGNIRTUNG","2403049","2019-02-17 20:00","2019","02","17","20:00","-18.7","","-23.9","","64","","0.0","","7","","16","","","","100.46","","","","-28","","NA"
"-65.71","66.14","PANGNIRTUNG","2403049","2019-02-17 21:00","2019","02","17","21:00","-18.6","","-23.4","","66","","0.1","","7","","13","","","","100.41","","","","-27","","NA"
"-65.71","66.14","PANGNIRTUNG","2403049","2019-02-17 22:00","2019","02","17","22:00","-18.2","","-23.9","","61","","0.1","","7","","16","","","","100.33","","","","-27","","NA"
"-65.71","66.14","PANGNIRTUNG","2403049","2019-02-17 23:00","2019","02","17","23:00","-17.9","","-23.6","","61","","0.0","","12","","9","","","","100.24","","","","-24","","NA"
"-65.71","66.14","PANGNIRTUNG","2403049","2019-02-18 00:00","2019","02","18","00:00","-17.3","","-24.1","","55","","0.0","","15","","9","","","","100.17","","","","-24","","NA"
"-65.71","66.14","PANGNIRTUNG","2403049","2019-02-18 01:00","2019","02","18","01:00","-18.2","","-24.3","","58","","0.0","","7","","17","","","","100.12","","","","-27","","NA"
"-65.71","66.14","PANGNIRTUNG","2403049","2019-02-18 02:00","2019","02","18","02:00","-17.6","","-24.4","","56","","0.0","","10","","6","","","","100.08","","","","-22","","NA"
"-65.71","66.14","PANGNIRTUNG","2403049","2019-02-18 03:00","2019","02","18","03:00","-18.0","","-24.9","","55","","0.0","","12","","11","","","","100.05","","","","-25","","NA"
"-65.71","66.14","PANGNIRTUNG","2403049","2019-02-18 04:00","2019","02","18","04:00","-19.9","","-25.3","","62","","0.0","","22","","6","","","","100.04","","","","-25","","NA"
"-65.71","66.14","PANGNIRTUNG","2403049","2019-02-18 05:00","2019","02","18","05:00","-19.5","","-25.3","","60","","0.0","","8","","8","","","","100.03","","","","-26","","NA"
"-65.71","66.14","PANGNIRTUNG","2403049","2019-02-18 06:00","2019","02","18","06:00","-17.8","","-25.2","","52","","0.0","","3","","12","","","","100.00","","","","-25","","NA"
"-65.71","66.14","PANGNIRTUNG","2403049","2019-02-18 07:00","2019","02","18","07:00","-17.6","","-26.0","","48","","0.0","","7","","10","","","","99.97","","","","-24","","NA"
"-65.71","66.14","PANGNIRTUNG","2403049","2019-02-18 08:00","2019","02","18","08:00","-18.2","","-26.6","","48","","0.0","","11","","12","","","","99.96","","","","-26","","NA"
"-65.71","66.14","PANGNIRTUNG","2403049","2019-02-18 09:00","2019","02","18","09:00","-18.6","","-26.7","","49","","0.0","","10","","15","","","","99.94","","","","-27","","NA"
"-65.71","66.14","PANGNIRTUNG","2403049","2019-02-18 10:00","2019","02","18","10:00","-24.8","","-28.5","","71","","0.0","","25","","14","","","","99.94","","","","-35","","NA"
"-65.71","66.14","PANGNIRTUNG","2403049","2019-02-18 11:00","2019","02","18","11:00","-25.2","","-29.4","","68","","0.0","","26","","7","","","","99.94","","","","-32","","NA"
"-65.71","66.14","PANGNIRTUNG","2403049","2019-02-18 12:00","2019","02","18","12:00","-23.3","","-27.4","","70","","0.0","","25","","1","","","","99.90","","","","-24","","NA"
"-65.71","66.14","PANGNIRTUNG","2403049","2019-02-18 13:00","2019","02","18","13:00","-25.8","","-29.3","","73","","0.0","","25","","15","","","","99.92","","","","-36","","NA"
"-65.71","66.14","PANGNIRTUNG","2403049","2019-02-18 14:00","2019","02","18","14:00","-25.2","","-28.4","","75","","0.0","","25","","10","","","","99.92","","","","-33","","NA"
"-65.71","66.14","PANGNIRTUNG","2403049","2019-02-18 15:00","2019","02","18","15:00","-24.2","","-28.4","","68","","0.0","","6","","1","","","","99.88","","","","-25","","NA"
"-65.71","66.14","PANGNIRTUNG","2403049","2019-02-18 16:00","2019","02","18","16:00","-25.5","","-28.8","","74","","0.0","","25","","7","","","","99.84","","","","-32","","NA"
"-65.71","66.14","PANGNIRTUNG","2403049","2019-02-18 17:00","2019","02","18","17:00","-25.4","","-28.6","","75","","0.0","","24","","15","","","","99.83","","","","-36","","NA"
"-65.71","66.14","PANGNIRTUNG","2403049","2019-02-18 18:00","2019","02","18","18:00","-24.9","","-28.4","","72","","0.0","","19","","4","","","","99.83","","","","-29","","NA"
"-65.71","66.14","PANGNIRTUNG","2403049","2019-02-18 19:00","2019","02","18","19:00","-25.7","","-29.2","","72","","0.0","","7","","3","","","","99.78","","","","-29","","NA"
"-65.71","66.14","PANGNIRTUNG","2403049","2019-02-18 20:00","2019","02","18","20:00","-26.3","","-29.9","","72","","0.0","","25","","12","","","","99.78","","","","-36","","NA"
"-65.71","66.14","PANGNIRTUNG","2403049","2019-02-18 21:00","2019","02","18","21:00","-25.0","","-28.9","","70","","0.0","","11","","2","","","","99.75","","","","-27","","NA"
"-65.71","66.14","PANGNIRTUNG","2403049","2019-02-18 22:00","2019","02","18","22:00","-26.7","","-29.7","","76","","0.0","","25","","9","","","","99.73","","","","-35","","NA"
"-65.71","66.14","PANGNIRTUNG","2403049","2019-02-18 23:00","2019","02","18","23:00","-27.0","","-30.6","","71","","0.0","","26","","4","","","","99.69","","","","-31","","NA"
"-65.71","66.14","PANGNIRTUNG","2403049","2019-02-19 00:00","2019","02","19","00:00","-26.2","","-29.3","","75","","0.0","","19","","3","","","","99.64","","","","-29","","NA"
"-65.71","66.14","PANGNIRTUNG","2403049","2019-02-19 01:00","2019","02","19","01:00","-26.5","","-29.6","","75","","0.0","","25","","8","","","","99.63","","","","-34","","NA"
"-65.71","66.14","PANGNIRTUNG","2403049","2019-02-19 02:00","2019","02","19","02:00","-27.7","","-30.7","","76","","0.0","","24","","12","","","","99.64","","","","-37","","NA"
"-65.71","66.14","PANGNIRTUNG","2403049","2019-02-19 03:00","2019","02","19","03:00","-26.7","","-29.8","","74","","0.0","","","","0","","","","99.61","","","","","","NA"
"-65.71","66.14","PANGNIRTUNG","2403049","2019-02-19 04:00","2019","02","19","04:00","-27.0","","-30.0","","76","","0.0","","36","","1","","","","99.61","","","","-28","","NA"
"-65.71","66.14","PANGNIRTUNG","2403049","2019-02-19 05:00","2019","02","19","05:00","-28.4","","-31.5","","75","","0.0","","25","","7","","","","99.59","","","","-35","","NA"
"-65.71","66.14","PANGNIRTUNG","2403049","2019-02-19 06:00","2019","02","19","06:00","-28.4","","-31.4","","75","","0.0","","9","","4","","","","99.55","","","","-33","","NA"
"-65.71","66.14","PANGNIRTUNG","2403049","2019-02-19 07:00","2019","02","19","07:00","-26.8","","-30.0","","74","","0.0","","8","","3","","","","99.51","","","","-30","","NA"
"-65.71","66.14","PANGNIRTUNG","2403049","2019-02-19 08:00","2019","02","19","08:00","-28.7","","-32.0","","74","","0.0","","25","","11","","","","99.50","","","","-38","","NA"
"-65.71","66.14","PANGNIRTUNG","2403049","2019-02-19 09:00","2019","02","19","09:00","-28.9","","-32.1","","74","","0.0","","21","","6","","","","99.49","","","","-35","","NA"
"-65.71","66.14","PANGNIRTUNG","2403049","2019-02-19 10:00","2019","02","19","10:00","-29.9","","-33.4","","71","","0.0","","25","","4","","","","99.46","","","","-34","","NA"
"-65.71","66.14","PANGNIRTUNG","2403049","2019-02-19 11:00","2019","02","19","11:00","-28.3","","-31.5","","74","","0.0","","8","","3","","","","99.42","","","","-32","","NA"
"-65.71","66.14","PANGNIRTUNG","2403049","2019-02-19 12:00","2019","02","19","12:00","-29.1","","-32.4","","74","","0.0","","24","","11","","","","99.40","","","","-39","","NA"
"-65.71","66.14","PANGNIRTUNG","2403049","2019-02-19 13:00","2019","02","19","13:00","-29.1","","-32.4","","73","","0.0","","24","","10","","","","99.39","","","","-38","","NA"
"-65.71","66.14","PANGNIRTUNG","2403049","2019-02-19 14:00","2019","02","19","14:00","-29.1","","-32.4","","73","","0.0","","24","","9","","","","99.41","","","","-38","","NA"
"-65.71","66.14","PANGNIRTUNG","2403049","2019-02-19 15:00","2019","02","19","15:00","-28.9","","-32.2","","73","","0.0","","24","","8","","","","99.41","","","","-37","","NA"
"-65.71","66.14","PANGNIRTUNG","2403049","2019-02-19 16:00","2019","02","19","16:00","-29.6","","-33.0","","72","","0.0","","24","","11","","","","99.44","","","","-39","","NA"
"-65.71","66.14","PANGNIRTUNG","2403049","2019-02-19 17:00","2019","02","19","17:00","-29.7","","-33.1","","72","","0.0","","0","","1","","","","99.44","","","","-31","","NA"
"-65.71","66.14","PANGNIRTUNG","2403049","2019-02-19 18:00","2019","02","19","18:00","-29.7","","-33.1","","73","","0.0","","25","","5","","","","99.43","","","","-35","","NA"
"-65.71","66.14","PANGNIRTUNG","2403049","2019-02-19 19:00","2019","02","19","19:00","-29.9","","-33.3","","72","","0.0","","21","","4","","","","99.47","","","","-34","","NA"
"-65.71","66.14","PANGNIRTUNG","2403049","2019-02-19 20:00","2019","02","19","20:00","-29.5","","-32.8","","73","","0.0","","","","0","","","","99.50","","","","","","NA"
"-65.71","66.14","PANGNIRTUNG","2403049","2019-02-19 21:00","2019","02","19","21:00","-30.0","","-33.4","","72","","0.0","","9","","5","","","","99.51","","","","-36","","NA"
"-65.71","66.14","PANGNIRTUNG","2403049","2019-02-19 22:00","2019","02","19","22:00","-30.1","","-33.5","","72","","0.0","","0","","1","","","","99.56","","","","-31","","NA"
"-65.71","66.14","PANGNIRTUNG","2403049","2019-02-19 23:00","2019","02","19","23:00","-30.4","","-33.8","","72","","0.0","","","","0","","","","99.57","","","","","","NA"
"-65.71","66.14","PANGNIRTUNG","2403049","2019-02-20 00:00","2019","02","20","00:00","-30.3","","-33.9","","71","","0.0","","6","","3","","","","99.63","","","","-34","","NA"
"-65.71","66.14","PANGNIRTUNG","2403049","2019-02-20 01:00","2019","02","20","01:00","-30.3","","-33.8","","71","","0.0","","25","","4","","","","99.69","","","","-35","","NA"
"-65.71","66.14","PANGNIRTUNG","2403049","2019-02-20 02:00","2019","02","20","02:00","-30.0","","-33.5","","72","","0.0","","12","","1","","","","99.72","","","","-31","","NA"
"-65.71","66.14","PANGNIRTUNG","2403049","2019-02-20 03:00","2019","02","20","03:00","-30.2","","-33.7","","71","","0.0","","25","","1","","","","99.81","","","","-31","","NA"
"-65.71","66.14","PANGNIRTUNG","2403049","2019-02-20 04:00","2019","02","20","04:00","-30.6","","-34.1","","71","","0.0","","25","","4","","","","99.87","","","","-35","","NA"
"-65.71","66.14","PANGNIRTUNG","2403049","2019-02-20 05:00","2019","02","20","05:00","-30.3","","-33.9","","71","","0.0","","","","0","","","","99.91","","","","","","NA"
"-65.71","66.14","PANGNIRTUNG","2403049","2019-02-20 06:00","2019","02","20","06:00","-30.4","","-33.9","","71","","0.0","","","","0","","","","99.94","","","","","","NA"
"-65.71","66.14","PANGNIRTUNG","2403049","2019-02-20 07:00","2019","02","20","07:00","-30.3","","-33.8","","71","","0.0","","","","0","","","","100.00","","","","","","NA"
"-65.71","66.14","PANGNIRTUNG","2403049","2019-02-20 08:00","2019","02","20","08:00","-30.5","","-34.1","","71","","0.0","","24","","4","","","","100.04","","","","-35","","NA"
"-65.71","66.14","PANGNIRTUNG","2403049","2019-02-20 09:00","2019","02","20","09:00","-30.4","","-34.0","","71","","0.0","","","","0","","","","100.05","","","","","","NA"
"-65.71","66.14","PANGNIRTUNG","2403049","2019-02-20 10:00","2019","02","20","10:00","-30.5","","-34.0","","71","","0.0","","","","0","","","","100.06","","","","","","NA"
"-65.71","66.14","PANGNIRTUNG","2403049","2019-02-20 11:00","2019","02","20","11:00","-29.9","","-33.4","","71","","0.0","","","","0","","","","100.06","","","","","","NA"
"-65.71","66.14","PANGNIRTUNG","2403049","2019-02-20 12:00","2019","02","20","12:00","-30.2","","-33.8","","71","","0.0","","","","0","","","","100.03","","","","","","NA"
"-65.71","66.14","PANGNIRTUNG","2403049","2019-02-20 13:00","2019","02","20","13:00","-30.4","","-34.0","","70","","0.0","","25","","7","","","","100.04","","","","-38","","NA"
"-65.71","66.14","PANGNIRTUNG","2403049","2019-02-20 14:00","2019","02","20","14:00","-29.8","","-33.3","","72","","0.0","","24","","5","","","","100.05","","","","-35","","NA"
"-65.71","66.14","PANGNIRTUNG","2403049","2019-02-20 15:00","2019","02","20","15:00","-30.0","","-33.5","","71","","0.0","","22","","3","","","","100.05","","","","-33","","NA"
"-65.71","66.14","PANGNIRTUNG","2403049","2019-02-20 16:00","2019","02","20","16:00","-30.1","","-33.7","","71","","0.0","","","","0","","","","100.07","","","","","","NA"
"-65.71","66.14","PANGNIRTUNG","2403049","2019-02-20 17:00","2019","02","20","17:00","-30.2","","-33.8","","71","","0.0","","","","0","","","","100.07","","","","","","NA"
"-65.71","66.14","PANGNIRTUNG","2403049","2019-02-20 18:00","2019","02","20","18:00","-30.2","","-33.9","","70","","0.0","","11","","4","","","","100.02","","","","-35","","NA"
"-65.71","66.14","PANGNIRTUNG","2403049","2019-02-20 19:00","2019","02","20","19:00","-30.7","","-34.3","","71","","0.0","","","","0","","","","100.03","","","","","","NA"
"-65.71","66.14","PANGNIRTUNG","2403049","2019-02-20 20:00","2019","02","20","20:00","-30.5","","-34.1","","71","","0.0","","26","","3","","","","99.97","","","","-34","","NA"
"-65.71","66.14","PANGNIRTUNG","2403049","2019-02-20 21:00","2019","02","20","21:00","-30.5","","-34.1","","71","","0.0","","17","","1","","","","99.95","","","","-32","","NA"
"-65.71","66.14","PANGNIRTUNG","2403049","2019-02-20 22:00","2019","02","20","22:00","-30.9","","-34.4","","71","","0.0","","24","","5","","","","99.93","","","","-37","","NA"
"-65.71","66.14","PANGNIRTUNG","2403049","2019-02-20 23:00","2019","02","20","23:00","-31.1","","-34.6","","71","","0.0","","13","","3","","","","99.91","","","","-35","","NA"
"-65.71","66.14","PANGNIRTUNG","2403049","2019-02-21 00:00","2019","02","21","00:00","-31.6","","-35.2","","71","","0.0","","11","","1","","","","99.87","","","","-33","","NA"
"-65.71","66.14","PANGNIRTUNG","2403049","2019-02-21 01:00","2019","02","21","01:00","-32.1","","-35.6","","71","","0.0","","25","","2","","","","99.81","","","","-34","","NA"
"-65.71","66.14","PANGNIRTUNG","2403049","2019-02-21 02:00","2019","02","21","02:00","-31.9","","-35.6","","70","","0.0","","","","0","","","","99.76","","","","","","NA"
"-65.71","66.14","PANGNIRTUNG","2403049","2019-02-21 03:00","2019","02","21","03:00","-31.9","","-35.3","","71","","0.0","","25","","6","","","","99.70","","","","-39","","NA"
"-65.71","66.14","PANGNIRTUNG","2403049","2019-02-21 04:00","2019","02","21","04:00","-32.3","","-35.8","","71","","0.0","","","","0","","","","99.63","","","","","","NA"
"-65.71","66.14","PANGNIRTUNG","2403049","2019-02-21 05:00","2019","02","21","05:00","-32.3","","-35.8","","71","","0.0","","25","","4","","","","99.58","","","","-37","","NA"
"-65.71","66.14","PANGNIRTUNG","2403049","2019-02-21 06:00","2019","02","21","06:00","-33.2","","-36.8","","70","","0.0","","16","","2","","","","99.49","","","","-36","","NA"
"-65.71","66.14","PANGNIRTUNG","2403049","2019-02-21 07:00","2019","02","21","07:00","-32.7","","-36.3","","70","","0.0","","8","","2","","","","99.45","","","","-35","","NA"
"-65.71","66.14","PANGNIRTUNG","2403049","2019-02-21 08:00","2019","02","21","08:00","-32.7","","-36.3","","70","","0.0","","24","","2","","","","99.34","","","","-35","","NA"
"-65.71","66.14","PANGNIRTUNG","2403049","2019-02-21 09:00","2019","02","21","09:00","-32.6","","-36.3","","70","","0.0","","13","","2","","","","99.23","","","","-35","","NA"
"-65.71","66.14","PANGNIRTUNG","2403049","2019-02-21 10:00","2019","02","21","10:00","-33.2","","-36.7","","70","","0.0","","25","","10","","","","99.13","","","","-43","","NA"
"-65.71","66.14","PANGNIRTUNG","2403049","2019-02-21 11:00","2019","02","21","11:00","-32.9","","-36.5","","70","","0.0","","0","","1","","","","99.05","","","","-34","","NA"
"-65.71","66.14","PANGNIRTUNG","2403049","2019-02-21 12:00","2019","02","21","12:00","-32.4","","-36.1","","70","","0.0","","0","","1","","","","98.98","","","","-34","","NA"
"-65.71","66.14","PANGNIRTUNG","2403049","2019-02-21 13:00","2019","02","21","13:00","-32.4","","-36.1","","70","","0.0","","12","","2","","","","98.92","","","","-35","","NA"
"-65.71","66.14","PANGNIRTUNG","2403049","2019-02-21 14:00","2019","02","21","14:00","-32.3","","-36.0","","70","","0.0","","","","0","","","","98.87","","","","","","NA"
"-65.71","66.14","PANGNIRTUNG","2403049","2019-02-21 15:00","2019","02","21","15:00","-32.2","","-35.9","","70","","0.0","","24","","5","","","","98.87","","","","-38","","NA"
"-65.71","66.14","PANGNIRTUNG","2403049","2019-02-21 16:00","2019","02","21","16:00","-32.5","","-36.2","","70","","0.0","","0","","1","","","","98.89","","","","-34","","NA"
"-65.71","66.14","PANGNIRTUNG","2403049","2019-02-21 17:00","2019","02","21","17:00","-33.0","","-36.7","","69","","0.0","","","","0","","","","98.86","","","","","","NA"
"-65.71","66.14","PANGNIRTUNG","2403049","2019-02-21 18:00","2019","02","21","18:00","-32.8","","-36.5","","70","","0.0","","25","","6","","","","98.85","","","","-40","","NA"
"-65.71","66.14","PANGNIRTUNG","2403049","2019-02-21 19:00","2019","02","21","19:00","-33.2","","-36.9","","69","","0.0","","25","","3","","","","98.84","","","","-37","","NA"
"-65.71","66.14","PANGNIRTUNG","2403049","2019-02-21 20:00","2019","02","21","20:00","-33.0","","-36.7","","69","","0.0","","27","","2","","","","98.84","","","","-35","","NA"
"-65.71","66.14","PANGNIRTUNG","2403049","2019-02-21 21:00","2019","02","21","21:00","-33.9","","-37.6","","69","","0.0","","35","","2","","","","98.84","","","","-36","","NA"
"-65.71","66.14","PANGNIRTUNG","2403049","2019-02-21 22:00","2019","02","21","22:00","-33.7","","-37.5","","69","","0.0","","11","","3","","","","98.79","","","","-37","","NA"
"-65.71","66.14","PANGNIRTUNG","2403049","2019-02-21 23:00","2019","02","21","23:00","-33.8","","-37.6","","69","","0.0","","10","","2","","","","98.80","","","","-36","","NA"
"-65.71","66.14","PANGNIRTUNG","2403049","2019-02-22 00:00","2019","02","22","00:00","-33.6","","-37.2","","70","","0.0","","25","","6","","","","98.87","","","","-41","","NA"
"-65.71","66.14","PANGNIRTUNG","2403049","2019-02-22 01:00","2019","02","22","01:00","-33.9","","-37.7","","69","","0.0","","16","","1","","","","98.89","","","","-35","","NA"
"-65.71","66.14","PANGNIRTUNG","2403049","2019-02-22 02:00","2019","02","22","02:00","-33.8","","-37.5","","69","","0.0","","0","","1","","","","98.92","","","","-35","","NA"
"-65.71","66.14","PANGNIRTUNG","2403049","2019-02-22 03:00","2019","02","22","03:00","-34.2","","-38.0","","69","","0.0","","6","","3","","","","98.97","","","","-38","","NA"
"-65.71","66.14","PANGNIRTUNG","2403049","2019-02-22 04:00","2019","02","22","04:00","-34.0","","-37.8","","68","","0.0","","","","0","","","","99.02","","","","","","NA"
"-65.71","66.14","PANGNIRTUNG","2403049","2019-02-22 05:00","2019","02","22","05:00","-33.6","","-37.4","","69","","0.0","","25","","2","","","","99.08","","","","-36","","NA"
"-65.71","66.14","PANGNIRTUNG","2403049","2019-02-22 06:00","2019","02","22","06:00","-33.8","","-37.7","","68","","0.0","","","","0","","","","99.17","","","","","","NA"
"-65.71","66.14","PANGNIRTUNG","2403049","2019-02-22 07:00","2019","02","22","07:00","-34.3","","-38.1","","68","","0.0","","","","0","","","","99.25","","","","","","NA"
"-65.71","66.14","PANGNIRTUNG","2403049","2019-02-22 08:00","2019","02","22","08:00","-33.4","","-37.2","","68","","0.0","","0","","1","","","","99.32","","","","-35","","NA"
"-65.71","66.14","PANGNIRTUNG","2403049","2019-02-22 09:00","2019","02","22","09:00","-33.4","","-37.2","","69","","0.0","","","","0","","","","99.36","","","","","","NA"
"-65.71","66.14","PANGNIRTUNG","2403049","2019-02-22 10:00","2019","02","22","10:00","-33.3","","-37.2","","68","","0.0","","10","","3","","","","99.41","","","","-37","","NA"
"-65.71","66.14","PANGNIRTUNG","2403049","2019-02-22 11:00","2019","02","22","11:00","-32.4","","-36.2","","69","","0.0","","0","","1","","","","99.48","","","","-34","","NA"
"-65.71","66.14","PANGNIRTUNG","2403049","2019-02-22 12:00","2019","02","22","12:00","-32.2","","-35.9","","69","","0.0","","","","0","","","","99.56","","","","","","NA"
"-65.71","66.14","PANGNIRTUNG","2403049","2019-02-22 13:00","2019","02","22","13:00","-32.2","","-36.0","","69","","0.0","","23","","3","","","","99.62","","","","-36","","NA"
"-65.71","66.14","PANGNIRTUNG","2403049","2019-02-22 14:00","2019","02","22","14:00","-32.0","","-35.9","","69","","0.0","","26","","2","","","","99.71","","","","-34","","NA"
"-65.71","66.14","PANGNIRTUNG","2403049","2019-02-22 15:00","2019","02","22","15:00","-31.6","","-35.4","","69","","0.0","","","","0","","","","99.80","","","","","","NA"
"-65.71","66.14","PANGNIRTUNG","2403049","2019-02-22 16:00","2019","02","22","16:00","-32.1","","-35.9","","69","","0.0","","","","0","","","","99.89","","","","","","NA"
"-65.71","66.14","PANGNIRTUNG","2403049","2019-02-22 17:00","2019","02","22","17:00","-32.2","","-36.0","","69","","0.0","","0","","1","","","","99.97","","","","-33","","NA"
"-65.71","66.14","PANGNIRTUNG","2403049","2019-02-22 18:00","2019","02","22","18:00","-32.4","","-36.1","","69","","0.0","","","","0","","","","100.03","","","","","","NA"
"-65.71","66.14","PANGNIRTUNG","2403049","2019-02-22 19:00","2019","02","22","19:00","-32.4","","-36.3","","69","","0.0","","24","","1","","","","100.07","","","","-34","","NA"
"-65.71","66.14","PANGNIRTUNG","2403049","2019-02-22 20:00","2019","02","22","20:00","-32.7","","-36.6","","68","","0.0","","25","","3","","","","100.11","","","","-36","","NA"
"-65.71","66.14","PANGNIRTUNG","2403049","2019-02-22 21:00","2019","02","22","21:00","-32.5","","-36.4","","69","","0.0","","30","","2","","","","100.15","","","","-35","","NA"
"-65.71","66.14","PANGNIRTUNG","2403049","2019-02-22 22:00","2019","02","22","22:00","-32.4","","-36.2","","69","","0.0","","0","","1","","","","100.15","","","","-34","","NA"
"-65.71","66.14","PANGNIRTUNG","2403049","2019-02-22 23:00","2019","02","22","23:00","-32.4","","-36.2","","69","","0.0","","25","","2","","","","100.15","","","","-35","","NA"
"-65.71","66.14","PANGNIRTUNG","2403049","2019-02-23 00:00","2019","02","23","00:00","-32.6","","-36.4","","69","","0.0","","0","","1","","","","100.18","","","","-34","","NA"
"-65.71","66.14","PANGNIRTUNG","2403049","2019-02-23 01:00","2019","02","23","01:00","-32.9","","-36.7","","69","","0.0","","","","0","","","","100.20","","","","","","NA"
"-65.71","66.14","PANGNIRTUNG","2403049","2019-02-23 02:00","2019","02","23","02:00","-32.9","","-36.8","","68","","0.0","","","","0","","","","100.24","","","","","","NA"
"-65.71","66.14","PANGNIRTUNG","2403049","2019-02-23 03:00","2019","02","23","03:00","-32.7","","-36.6","","68","","0.0","","","","0","","","","100.25","","","","","","NA"
"-65.71","66.14","PANGNIRTUNG","2403049","2019-02-23 04:00","2019","02","23","04:00","-32.8","","-36.6","","68","","0.0","","26","","2","","","","100.25","","","","-35","","NA"
"-65.71","66.14","PANGNIRTUNG","2403049","2019-02-23 05:00","2019","02","23","05:00","-32.9","","-36.8","","68","","0.0","","","","0","","","","100.27","","","","","","NA"
"-65.71","66.14","PANGNIRTUNG","2403049","2019-02-23 06:00","2019","02","23","06:00","-32.9","","-36.7","","69","","0.0","","","","0","","","","100.28","","","","","","NA"
"-65.71","66.14","PANGNIRTUNG","2403049","2019-02-23 07:00","2019","02","23","07:00","-32.9","","-36.8","","69","","0.0","","26","","2","","","","100.32","","","","-35","","NA"
"-65.71","66.14","PANGNIRTUNG","2403049","2019-02-23 08:00","2019","02","23","08:00","-33.0","","-36.9","","68","","0.0","","25","","5","","","","100.33","","","","-39","","NA"
"-65.71","66.14","PANGNIRTUNG","2403049","2019-02-23 09:00","2019","02","23","09:00","-32.9","","-36.8","","68","","0.0","","0","","1","","","","100.31","","","","-34","","NA"
"-65.71","66.14","PANGNIRTUNG","2403049","2019-02-23 10:00","2019","02","23","10:00","-32.4","","-36.4","","68","","0.0","","12","","1","","","","100.34","","","","-34","","NA"
"-65.71","66.14","PANGNIRTUNG","2403049","2019-02-23 11:00","2019","02","23","11:00","-32.3","","-36.3","","68","","0.0","","9","","3","","","","100.33","","","","-36","","NA"
"-65.71","66.14","PANGNIRTUNG","2403049","2019-02-23 12:00","2019","02","23","12:00","-33.1","","-37.2","","67","","0.0","","7","","5","","","","100.32","","","","-39","","NA"
"-65.71","66.14","PANGNIRTUNG","2403049","2019-02-23 13:00","2019","02","23","13:00","-31.4","","-35.6","","66","","0.0","","9","","3","","","","100.35","","","","-35","","NA"
"-65.71","66.14","PANGNIRTUNG","2403049","2019-02-23 14:00","2019","02","23","14:00","-31.0","","-35.4","","65","","0.0","","9","","3","","","","100.40","","","","-34","","NA"
"-65.71","66.14","PANGNIRTUNG","2403049","2019-02-23 15:00","2019","02","23","15:00","-30.9","","-35.4","","65","","0.0","","8","","6","","","","100.44","","","","-38","","NA"
"-65.71","66.14","PANGNIRTUNG","2403049","2019-02-23 16:00","2019","02","23","16:00","-30.9","","-35.6","","63","","0.0","","0","","1","","","","100.50","","","","-32","","NA"
"-65.71","66.14","PANGNIRTUNG","2403049","2019-02-23 17:00","2019","02","23","17:00","-31.3","","-35.4","","67","","0.0","","29","","2","","","","100.55","","","","-34","","NA"
"-65.71","66.14","PANGNIRTUNG","2403049","2019-02-23 18:00","2019","02","23","18:00","-31.1","","-35.4","","66","","0.0","","0","","1","","","","100.60","","","","-32","","NA"
"-65.71","66.14","PANGNIRTUNG","2403049","2019-02-23 19:00","2019","02","23","19:00","-31.0","","-35.5","","65","","0.0","","19","","3","","","","100.65","","","","-34","","NA"
"-65.71","66.14","PANGNIRTUNG","2403049","2019-02-23 20:00","2019","02","23","20:00","-31.1","","-35.2","","67","","0.0","","25","","4","","","","100.72","","","","-36","","NA"
"-65.71","66.14","PANGNIRTUNG","2403049","2019-02-23 21:00","2019","02","23","21:00","-31.5","","-35.6","","67","","0.0","","5","","1","","","","100.75","","","","-33","","NA"
"-65.71","66.14","PANGNIRTUNG","2403049","2019-02-23 22:00","2019","02","23","22:00","-31.5","","-35.9","","65","","0.0","","","","0","","","","100.78","","","","","","NA"
"-65.71","66.14","PANGNIRTUNG","2403049","2019-02-23 23:00","2019","02","23","23:00","-31.5","","-35.9","","65","","0.0","","","","0","","","","100.80","","","","","","NA"
"-65.71","66.14","PANGNIRTUNG","2403049","2019-02-24 00:00","2019","02","24","00:00","-31.4","","-35.7","","66","","0.0","","24","","2","","","","100.84","","","","-34","","NA"
"-65.71","66.14","PANGNIRTUNG","2403049","2019-02-24 01:00","2019","02","24","01:00","-31.3","","-35.8","","65","","0.0","","11","","1","","","","100.89","","","","-32","","NA"
"-65.71","66.14","PANGNIRTUNG","2403049","2019-02-24 02:00","2019","02","24","02:00","-31.9","","-36.1","","66","","0.0","","0","","1","","","","100.94","","","","-33","","NA"
"-65.71","66.14","PANGNIRTUNG","2403049","2019-02-24 03:00","2019","02","24","03:00","-31.7","","-36.2","","65","","0.0","","0","","1","","","","100.97","","","","-33","","NA"
"-65.71","66.14","PANGNIRTUNG","2403049","2019-02-24 04:00","2019","02","24","04:00","-31.6","","-36.0","","65","","0.0","","27","","2","","","","101.04","","","","-34","","NA"
"-65.71","66.14","PANGNIRTUNG","2403049","2019-02-24 05:00","2019","02","24","05:00","-31.6","","-36.0","","65","","0.0","","","","0","","","","101.06","","","","","","NA"
"-65.71","66.14","PANGNIRTUNG","2403049","2019-02-24 06:00","2019","02","24","06:00","-31.6","","-36.1","","64","","0.0","","9","","2","","","","101.07","","","","-34","","NA"
"-65.71","66.14","PANGNIRTUNG","2403049","2019-02-24 07:00","2019","02","24","07:00","-31.6","","-36.0","","65","","0.0","","0","","1","","","","101.11","","","","-33","","NA"
"-65.71","66.14","PANGNIRTUNG","2403049","2019-02-24 08:00","2019","02","24","08:00","-31.7","","-36.0","","66","","0.0","","0","","1","","","","101.10","","","","-33","","NA"
"-65.71","66.14","PANGNIRTUNG","2403049","2019-02-24 09:00","2019","02","24","09:00","-31.7","","-36.0","","66","","0.0","","0","","1","","","","101.13","","","","-33","","NA"
"-65.71","66.14","PANGNIRTUNG","2403049","2019-02-24 10:00","2019","02","24","10:00","-31.8","","-36.1","","65","","0.0","","5","","3","","","","101.08","","","","-35","","NA"
"-65.71","66.14","PANGNIRTUNG","2403049","2019-02-24 11:00","2019","02","24","11:00","-32.0","","-36.4","","65","","0.0","","8","","6","","","","101.02","","","","-39","","NA"
"-65.71","66.14","PANGNIRTUNG","2403049","2019-02-24 12:00","2019","02","24","12:00","-30.7","","-35.2","","65","","0.0","","24","","4","","","","100.99","","","","-35","","NA"
"-65.71","66.14","PANGNIRTUNG","2403049","2019-02-24 13:00","2019","02","24","13:00","-30.8","","-35.3","","65","","0.0","","25","","4","","","","100.97","","","","-35","","NA"
"-65.71","66.14","PANGNIRTUNG","2403049","2019-02-24 14:00","2019","02","24","14:00","-31.1","","-35.7","","64","","0.0","","25","","4","","","","100.95","","","","-36","","NA"
"-65.71","66.14","PANGNIRTUNG","2403049","2019-02-24 15:00","2019","02","24","15:00","-30.4","","-34.9","","65","","0.0","","13","","2","","","","100.97","","","","-33","","NA"
"-65.71","66.14","PANGNIRTUNG","2403049","2019-02-24 16:00","2019","02","24","16:00","-30.4","","-34.9","","65","","0.0","","24","","6","","","","100.94","","","","-37","","NA"
"-65.71","66.14","PANGNIRTUNG","2403049","2019-02-24 17:00","2019","02","24","17:00","-31.1","","-35.3","","66","","0.0","","8","","3","","","","100.89","","","","-35","","NA"
"-65.71","66.14","PANGNIRTUNG","2403049","2019-02-24 18:00","2019","02","24","18:00","-31.1","","-35.5","","65","","0.0","","25","","3","","","","100.85","","","","-35","","NA"
"-65.71","66.14","PANGNIRTUNG","2403049","2019-02-24 19:00","2019","02","24","19:00","-31.1","","-35.2","","67","","0.0","","25","","4","","","","100.81","","","","-36","","NA"
"-65.71","66.14","PANGNIRTUNG","2403049","2019-02-24 20:00","2019","02","24","20:00","-31.1","","-35.3","","66","","0.0","","0","","1","","","","100.77","","","","-32","","NA"
"-65.71","66.14","PANGNIRTUNG","2403049","2019-02-24 21:00","2019","02","24","21:00","-31.8","","-36.1","","66","","0.0","","8","","4","","","","100.70","","","","-36","","NA"
"-65.71","66.14","PANGNIRTUNG","2403049","2019-02-24 22:00","2019","02","24","22:00","-30.8","","-34.5","","70","","0.0","","24","","2","","","","100.66","","","","-33","","NA"
"-65.71","66.14","PANGNIRTUNG","2403049","2019-02-24 23:00","2019","02","24","23:00","-31.3","","-35.7","","65","","0.0","","25","","4","","","","100.64","","","","-36","","NA"
"-65.71","66.14","PANGNIRTUNG","2403049","2019-02-25 00:00","2019","02","25","00:00","-31.5","","-35.4","","68","","0.0","","18","","3","","","","100.68","","","","-35","","NA"
"-65.71","66.14","PANGNIRTUNG","2403049","2019-02-25 01:00","2019","02","25","01:00","-31.1","","-35.4","","66","","0.0","","22","","2","","","","100.69","","","","-33","","NA"
"-65.71","66.14","PANGNIRTUNG","2403049","2019-02-25 02:00","2019","02","25","02:00","-31.7","","-35.7","","68","","0.0","","9","","11","","","","100.62","","","","-42","","NA"
"-65.71","66.14","PANGNIRTUNG","2403049","2019-02-25 03:00","2019","02","25","03:00","-29.5","","-34.0","","65","","0.0","","10","","13","","","","100.56","","","","-40","","NA"
"-65.71","66.14","PANGNIRTUNG","2403049","2019-02-25 04:00","2019","02","25","04:00","-31.1","","-35.2","","67","","0.0","","24","","13","","","","100.60","","","","-42","","NA"
"-65.71","66.14","PANGNIRTUNG","2403049","2019-02-25 05:00","2019","02","25","05:00","-31.4","","-35.7","","66","","0.0","","26","","7","","","","100.66","","","","-39","","NA"
"-65.71","66.14","PANGNIRTUNG","2403049","2019-02-25 06:00","2019","02","25","06:00","-30.8","","-35.0","","67","","0.0","","7","","8","","","","100.69","","","","-39","","NA"
"-65.71","66.14","PANGNIRTUNG","2403049","2019-02-25 07:00","2019","02","25","07:00","-31.1","","-35.4","","66","","0.0","","8","","11","","","","100.67","","","","-41","","NA"
"-65.71","66.14","PANGNIRTUNG","2403049","2019-02-25 08:00","2019","02","25","08:00","-31.1","","-35.3","","66","","0.0","","25","","8","","","","100.72","","","","-39","","NA"
"-65.71","66.14","PANGNIRTUNG","2403049","2019-02-25 09:00","2019","02","25","09:00","-30.8","","-35.2","","65","","0.0","","13","","1","","","","100.79","","","","-32","","NA"
"-65.71","66.14","PANGNIRTUNG","2403049","2019-02-25 10:00","2019","02","25","10:00","-30.0","","-34.4","","66","","0.0","","8","","7","","","","100.83","","","","-37","","NA"
"-65.71","66.14","PANGNIRTUNG","2403049","2019-02-25 11:00","2019","02","25","11:00","-29.4","","-34.0","","65","","0.0","","9","","6","","","","100.81","","","","-36","","NA"
"-65.71","66.14","PANGNIRTUNG","2403049","2019-02-25 12:00","2019","02","25","12:00","-29.3","","-33.8","","65","","0.0","","7","","3","","","","100.77","","","","-33","","NA"
"-65.71","66.14","PANGNIRTUNG","2403049","2019-02-25 13:00","2019","02","25","13:00","-29.1","","-33.4","","66","","0.0","","24","","14","","","","100.87","","","","-40","","NA"
"-65.71","66.14","PANGNIRTUNG","2403049","2019-02-25 14:00","2019","02","25","14:00","-29.0","","-33.4","","65","","0.0","","","","0","","","","100.93","","","","","","NA"
"-65.71","66.14","PANGNIRTUNG","2403049","2019-02-25 15:00","2019","02","25","15:00","-28.5","","-33.0","","65","","0.0","","9","","4","","","","100.94","","","","-33","","NA"
"-65.71","66.14","PANGNIRTUNG","2403049","2019-02-25 16:00","2019","02","25","16:00","-28.0","","-32.7","","64","","0.0","","10","","11","","","","100.95","","","","-37","","NA"
"-65.71","66.14","PANGNIRTUNG","2403049","2019-02-25 17:00","2019","02","25","17:00","-28.0","","-32.2","","67","","0.0","","7","","2","","","","100.97","","","","-30","","NA"
"-65.71","66.14","PANGNIRTUNG","2403049","2019-02-25 18:00","2019","02","25","18:00","-27.9","","-32.3","","66","","0.0","","3","","2","","","","100.97","","","","-30","","NA"
"-65.71","66.14","PANGNIRTUNG","2403049","2019-02-25 19:00","2019","02","25","19:00","-28.9","","-33.2","","66","","0.0","","26","","3","","","","100.97","","","","-32","","NA"
"-65.71","66.14","PANGNIRTUNG","2403049","2019-02-25 20:00","2019","02","25","20:00","-28.3","","-32.3","","69","","0.0","","26","","1","","","","100.95","","","","-29","","NA"
"-65.71","66.14","PANGNIRTUNG","2403049","2019-02-25 21:00","2019","02","25","21:00","-28.6","","-32.7","","68","","0.0","","24","","10","","","","100.97","","","","-37","","NA"
"-65.71","66.14","PANGNIRTUNG","2403049","2019-02-25 22:00","2019","02","25","22:00","-27.8","","-32.0","","67","","0.0","","25","","2","","","","100.96","","","","-30","","NA"
"-65.71","66.14","PANGNIRTUNG","2403049","2019-02-25 23:00","2019","02","25","23:00","-28.3","","-33.1","","63","","0.0","","6","","3","","","","100.97","","","","-32","","NA"
"-65.71","66.14","PANGNIRTUNG","2403049","2019-02-26 00:00","2019","02","26","00:00","-27.5","","-31.7","","68","","0.0","","9","","6","","","","100.94","","","","-34","","NA"
"-65.71","66.14","PANGNIRTUNG","2403049","2019-02-26 01:00","2019","02","26","01:00","-27.1","","-31.6","","66","","0.0","","6","","2","","","","100.94","","","","-29","","NA"
"-65.71","66.14","PANGNIRTUNG","2403049","2019-02-26 02:00","2019","02","26","02:00","-26.9","","-32.2","","60","","0.0","","4","","1","","","","100.97","","","","-28","","NA"
"-65.71","66.14","PANGNIRTUNG","2403049","2019-02-26 03:00","2019","02","26","03:00","-25.8","","-30.4","","65","","0.0","","9","","5","","","","100.98","","","","-31","","NA"
"-65.71","66.14","PANGNIRTUNG","2403049","2019-02-26 04:00","2019","02","26","04:00","-27.4","","-31.6","","67","","0.0","","8","","4","","","","100.98","","","","-32","","NA"
"-65.71","66.14","PANGNIRTUNG","2403049","2019-02-26 05:00","2019","02","26","05:00","-24.6","","-29.8","","62","","0.0","","10","","5","","","","100.94","","","","-29","","NA"
"-65.71","66.14","PANGNIRTUNG","2403049","2019-02-26 06:00","2019","02","26","06:00","-25.6","","-31.5","","58","","0.0","","24","","5","","","","101.01","","","","-31","","NA"
"-65.71","66.14","PANGNIRTUNG","2403049","2019-02-26 07:00","2019","02","26","07:00","-24.2","","-29.7","","61","","0.0","","25","","3","","","","101.05","","","","-27","","NA"
"-65.71","66.14","PANGNIRTUNG","2403049","2019-02-26 08:00","2019","02","26","08:00","-25.2","","-30.5","","62","","0.0","","10","","2","","","","101.07","","","","-27","","NA"
"-65.71","66.14","PANGNIRTUNG","2403049","2019-02-26 09:00","2019","02","26","09:00","-25.7","","-30.4","","64","","0.0","","8","","4","","","","101.04","","","","-30","","NA"
"-65.71","66.14","PANGNIRTUNG","2403049","2019-02-26 10:00","2019","02","26","10:00","-26.0","","-31.4","","60","","0.0","","0","","1","","","","101.02","","","","-27","","NA"
"-65.71","66.14","PANGNIRTUNG","2403049","2019-02-26 11:00","2019","02","26","11:00","-23.2","","-29.0","","59","","0.0","","23","","3","","","","101.04","","","","-26","","NA"
"-65.71","66.14","PANGNIRTUNG","2403049","2019-02-26 12:00","2019","02","26","12:00","-24.3","","-30.0","","59","","0.0","","9","","5","","","","101.00","","","","-29","","NA"
"-65.71","66.14","PANGNIRTUNG","2403049","2019-02-26 13:00","2019","02","26","13:00","-24.0","","-29.3","","61","","0.0","","8","","2","","","","101.00","","","","-26","","NA"
"-65.71","66.14","PANGNIRTUNG","2403049","2019-02-26 14:00","2019","02","26","14:00","-23.2","","-29.4","","57","","0.0","","10","","8","","","","101.00","","","","-30","","NA"
"-65.71","66.14","PANGNIRTUNG","2403049","2019-02-26 15:00","2019","02","26","15:00","-22.4","","-28.3","","58","","0.0","","24","","1","","","","101.00","","","","-23","","NA"
"-65.71","66.14","PANGNIRTUNG","2403049","2019-02-26 16:00","2019","02","26","16:00","-22.3","","-28.5","","57","","0.0","","25","","11","","","","101.07","","","","-30","","NA"
"-65.71","66.14","PANGNIRTUNG","2403049","2019-02-26 17:00","2019","02","26","17:00","-23.7","","-29.2","","60","","0.0","","7","","5","","","","101.07","","","","-28","","NA"
"-65.71","66.14","PANGNIRTUNG","2403049","2019-02-26 18:00","2019","02","26","18:00","-22.8","","-29.2","","56","","0.0","","26","","1","","","","101.13","","","","-24","","NA"
"-65.71","66.14","PANGNIRTUNG","2403049","2019-02-26 19:00","2019","02","26","19:00","-22.5","","-29.0","","56","","0.0","","","","0","","","","101.11","","","","","","NA"
"-65.71","66.14","PANGNIRTUNG","2403049","2019-02-26 20:00","2019","02","26","20:00","-24.1","","-30.0","","58","","0.0","","13","","1","","","","101.13","","","","-25","","NA"
"-65.71","66.14","PANGNIRTUNG","2403049","2019-02-26 21:00","2019","02","26","21:00","-23.1","","-29.2","","57","","0.0","","3","","4","","","","101.14","","","","-27","","NA"
"-65.71","66.14","PANGNIRTUNG","2403049","2019-02-26 22:00","2019","02","26","22:00","-21.5","","-28.6","","53","","0.0","","24","","2","","","","101.07","","","","-23","","NA"
"-65.71","66.14","PANGNIRTUNG","2403049","2019-02-26 23:00","2019","02","26","23:00","-22.1","","-28.3","","57","","0.0","","8","","4","","","","101.04","","","","-26","","NA"
"-65.71","66.14","PANGNIRTUNG","2403049","2019-02-27 00:00","2019","02","27","00:00","-23.0","","-29.5","","55","","0.0","","24","","5","","","","101.04","","","","-28","","NA"
"-65.71","66.14","PANGNIRTUNG","2403049","2019-02-27 01:00","2019","02","27","01:00","-22.4","","-29.1","","55","","0.0","","32","","2","","","","101.04","","","","-24","","NA"
"-65.71","66.14","PANGNIRTUNG","2403049","2019-02-27 02:00","2019","02","27","02:00","-21.8","","-29.0","","52","","0.0","","0","","1","","","","101.01","","","","-23","","NA"
"-65.71","66.14","PANGNIRTUNG","2403049","2019-02-27 03:00","2019","02","27","03:00","-22.5","","-29.0","","56","","0.0","","25","","2","","","","100.98","","","","-24","","NA"
"-65.71","66.14","PANGNIRTUNG","2403049","2019-02-27 04:00","2019","02","27","04:00","-22.4","","-29.8","","51","","0.0","","3","","3","","","","100.97","","","","-25","","NA"
"-65.71","66.14","PANGNIRTUNG","2403049","2019-02-27 05:00","2019","02","27","05:00","-24.8","","-30.0","","62","","0.0","","24","","5","","","","101.01","","","","-30","","NA"
"-65.71","66.14","PANGNIRTUNG","2403049","2019-02-27 06:00","2019","02","27","06:00","-21.7","","-28.6","","54","","0.0","","9","","3","","","","100.99","","","","-24","","NA"
"-65.71","66.14","PANGNIRTUNG","2403049","2019-02-27 07:00","2019","02","27","07:00","-21.1","","-28.4","","52","","0.0","","8","","2","","","","100.99","","","","-23","","NA"
"-65.71","66.14","PANGNIRTUNG","2403049","2019-02-27 08:00","2019","02","27","08:00","-18.1","","-27.8","","42","","0.0","","9","","3","","","","100.98","","","","-21","","NA"
"-65.71","66.14","PANGNIRTUNG","2403049","2019-02-27 09:00","2019","02","27","09:00","-24.2","","-30.7","","55","","0.0","","24","","5","","","","101.00","","","","-29","","NA"
"-65.71","66.14","PANGNIRTUNG","2403049","2019-02-27 10:00","2019","02","27","10:00","-21.1","","-29.7","","46","","0.0","","1","","2","","","","100.97","","","","-23","","NA"
"-65.71","66.14","PANGNIRTUNG","2403049","2019-02-27 11:00","2019","02","27","11:00","-20.4","","-29.1","","46","","0.0","","21","","2","","","","100.92","","","","-22","","NA"
"-65.71","66.14","PANGNIRTUNG","2403049","2019-02-27 12:00","2019","02","27","12:00","-23.2","","-29.4","","57","","0.0","","24","","3","","","","100.94","","","","-26","","NA"
"-65.71","66.14","PANGNIRTUNG","2403049","2019-02-27 13:00","2019","02","27","13:00","-21.3","","-28.1","","54","","0.0","","10","","3","","","","100.92","","","","-24","","NA"
"-65.71","66.14","PANGNIRTUNG","2403049","2019-02-27 14:00","2019","02","27","14:00","-16.9","","-27.7","","39","","0.0","","11","","10","","","","100.90","","","","-24","","NA"
"-65.71","66.14","PANGNIRTUNG","2403049","2019-02-27 15:00","2019","02","27","15:00","-15.3","","-26.4","","38","","0.0","","9","","14","","","","100.90","","","","-23","","NA"
"-65.71","66.14","PANGNIRTUNG","2403049","2019-02-27 16:00","2019","02","27","16:00","-14.3","","-25.9","","37","","0.0","","6","","6","","","","100.92","","","","-18","","NA"
"-65.71","66.14","PANGNIRTUNG","2403049","2019-02-27 17:00","2019","02","27","17:00","-13.8","","-24.9","","39","","0.0","","13","","14","","","","100.93","","","","-21","","NA"
"-65.71","66.14","PANGNIRTUNG","2403049","2019-02-27 18:00","2019","02","27","18:00","-13.7","","-25.5","","36","","0.0","","11","","16","","","","100.95","","","","-22","","NA"
"-65.71","66.14","PANGNIRTUNG","2403049","2019-02-27 19:00","2019","02","27","19:00","-12.9","","-24.2","","38","","0.0","","10","","21","","","","100.93","","","","-22","","NA"
"-65.71","66.14","PANGNIRTUNG","2403049","2019-02-27 20:00","2019","02","27","20:00","-17.4","","-25.4","","50","","0.0","","26","","5","","","","100.88","","","","-21","","NA"
"-65.71","66.14","PANGNIRTUNG","2403049","2019-02-27 21:00","2019","02","27","21:00","-24.4","","-29.5","","63","","0.0","","24","","8","","","","100.84","","","","-31","","NA"
"-65.71","66.14","PANGNIRTUNG","2403049","2019-02-27 22:00","2019","02","27","22:00","-24.4","","-28.4","","70","","0.0","","25","","14","","","","100.86","","","","-34","","NA"
"-65.71","66.14","PANGNIRTUNG","2403049","2019-02-27 23:00","2019","02","27","23:00","-21.2","","-26.7","","61","","0.0","","17","","4","","","","100.82","","","","-25","","NA"
"-65.71","66.14","PANGNIRTUNG","2403049","2019-02-28 00:00","2019","02","28","00:00","-18.5","","-23.6","","64","","0.0","","23","","5","","","","100.76","","","","-23","","NA"
"-65.71","66.14","PANGNIRTUNG","2403049","2019-02-28 01:00","2019","02","28","01:00","-23.4","","-27.9","","66","","0.0","","25","","11","","","","100.77","","","","-32","","NA"
"-65.71","66.14","PANGNIRTUNG","2403049","2019-02-28 02:00","2019","02","28","02:00","-25.0","","-30.3","","61","","0.0","","24","","7","","","","100.73","","","","-31","","NA"
"-65.71","66.14","PANGNIRTUNG","2403049","2019-02-28 03:00","2019","02","28","03:00","-25.0","","-28.8","","70","","0.0","","25","","18","","","","100.73","","","","-36","","NA"
"-65.71","66.14","PANGNIRTUNG","2403049","2019-02-28 04:00","2019","02","28","04:00","-25.5","","-29.6","","69","","0.0","","25","","9","","","","100.77","","","","-33","","NA"
"-65.71","66.14","PANGNIRTUNG","2403049","2019-02-28 05:00","2019","02","28","05:00","-25.2","","-29.4","","68","","0.0","","25","","7","","","","100.77","","","","-32","","NA"
"-65.71","66.14","PANGNIRTUNG","2403049","2019-02-28 06:00","2019","02","28","06:00","-23.7","","-28.3","","66","","0.0","","25","","8","","","","100.79","","","","-31","","NA"
"-65.71","66.14","PANGNIRTUNG","2403049","2019-02-28 07:00","2019","02","28","07:00","-25.0","","-29.8","","64","","0.0","","22","","5","","","","100.72","","","","-30","","NA"
"-65.71","66.14","PANGNIRTUNG","2403049","2019-02-28 08:00","2019","02","28","08:00","-24.7","","-28.7","","69","","0.0","","25","","17","","","","100.70","","","","-36","","NA"
"-65.71","66.14","PANGNIRTUNG","2403049","2019-02-28 09:00","2019","02","28","09:00","-23.2","","-27.4","","69","","0.0","","25","","18","","","","100.71","","","","-34","","NA"
"-65.71","66.14","PANGNIRTUNG","2403049","2019-02-28 10:00","2019","02","28","10:00","-22.8","","-26.6","","71","","0.0","","25","","17","","","","100.69","","","","-33","","NA"
"-65.71","66.14","PANGNIRTUNG","2403049","2019-02-28 11:00","2019","02","28","11:00","-22.1","","-25.9","","71","","0.0","","25","","8","","","","100.65","","","","-29","","NA"
"-65.71","66.14","PANGNIRTUNG","2403049","2019-02-28 12:00","2019","02","28","12:00","-21.9","","-25.8","","71","","0.0","","25","","19","","","","100.65","","","","-33","","NA"
"-65.71","66.14","PANGNIRTUNG","2403049","2019-02-28 13:00","2019","02","28","13:00","-21.5","","-25.3","","71","","0.0","","24","","13","","","","100.72","","","","-30","","NA"
"-65.71","66.14","PANGNIRTUNG","2403049","2019-02-28 14:00","2019","02","28","14:00","-21.9","","-25.5","","73","","0.0","","25","","14","","","","100.75","","","","-31","","NA"
"-65.71","66.14","PANGNIRTUNG","2403049","2019-02-28 15:00","2019","02","28","15:00","-22.0","","-25.7","","72","","0.0","","26","","6","","","","100.71","","","","-27","","NA"
"-65.71","66.14","PANGNIRTUNG","2403049","2019-02-28 16:00","2019","02","28","16:00","-22.0","","-25.3","","75","","0.0","","25","","9","","","","100.67","","","","-29","","NA"
"-65.71","66.14","PANGNIRTUNG","2403049","2019-02-28 17:00","2019","02","28","17:00","-22.4","","-25.7","","75","","0.0","","24","","13","","","","100.64","","","","-31","","NA"
"-65.71","66.14","PANGNIRTUNG","2403049","2019-02-28 18:00","2019","02","28","18:00","-22.3","","-26.1","","72","","0.0","","25","","15","","","","100.66","","","","-32","","NA"
"-65.71","66.14","PANGNIRTUNG","2403049","2019-02-28 19:00","2019","02","28","19:00","-22.1","","-25.6","","73","","0.0","","24","","11","","","","100.62","","","","-30","","NA"
"-65.71","66.14","PANGNIRTUNG","2403049","2019-02-28 20:00","2019","02","28","20:00","-21.9","","-25.5","","72","","0.0","","22","","10","","","","100.61","","","","-29","","NA"
"-65.71","66.14","PANGNIRTUNG","2403049","2019-02-28 21:00","2019","02","28","21:00","-23.1","","-26.6","","73","","0.0","","21","","5","","","","100.59","","","","-28","","NA"
"-65.71","66.14","PANGNIRTUNG","2403049","2019-02-28 22:00","2019","02","28","22:00","-21.9","","-25.9","","70","","0.0","","22","","7","","","","100.52","","","","-28","","NA"
"-65.71","66.14","PANGNIRTUNG","2403049","2019-02-28 23:00","2019","02","28","23:00","-23.5","","-27.4","","71","","0.0","","24","","4","","","","100.44","","","","-27","","NA"
