"Longitude (x)","Latitude (y)","Station Name","Climate ID","Date/Time (LST)","Year","Month","Day","Time (LST)","Temp (°C)","Temp Flag","Dew Point Temp (°C)","Dew Point Temp Flag","Rel Hum (%)","Rel Hum Flag","Precip. Amount (mm)","Precip. Amount Flag","Wind Dir (10s deg)","Wind Dir Flag","Wind Spd (km/h)","Wind Spd Flag","Visibility (km)","Visibility Flag","Stn Press (kPa)","Stn Press Flag","Hmdx","Hmdx Flag","Wind Chill","Wind Chill Flag","Weather"
"-92.11","62.81","RANKIN INLET A","2303405","2018-01-01 00:00","2018","01","01","00:00","-28.1","","-31.2","","75","","","","28","","15","","24.1","","100.72","","","","-39","","Ice Crystals"
"-92.11","62.81","RANKIN INLET A","2303405","2018-01-01 01:00","2018","01","01","01:00","-28.4","","-31.6","","75","","","","32","","23","","24.1","","100.68","","","","-42","","Ice Crystals"
"-92.11","62.81","RANKIN INLET A","2303405","2018-01-01 02:00","2018","01","01","02:00","-29.3","","-32.5","","74","","","","33","","30","","24.1","","100.68","","","","-45","","Ice Crystals"
"-92.11","62.81","RANKIN INLET A","2303405","2018-01-01 03:00","2018","01","01","03:00","-30.2","","-33.5","","74","","","","32","","27","","24.1","","100.67","","","","-45","","Ice Crystals"
"-92.11","62.81","RANKIN INLET A","2303405","2018-01-01 04:00","2018","01","01","04:00","-30.9","","-34.2","","73","","","","33","","30","","24.1","","100.66","","","","-47","","Ice Crystals"
"-92.11","62.81","RANKIN INLET A","2303405","2018-01-01 05:00","2018","01","01","05:00","-31.6","","-34.9","","73","","","","35","","29","","24.1","","100.58","","","","-47","","Ice Crystals"
"-92.11","62.81","RANKIN INLET A","2303405","2018-01-01 06:00","2018","01","01","06:00","-32.2","","-35.6","","72","","","","34","","29","","16.1","","100.54","","","","-48","","Ice Crystals"
"-92.11","62.81","RANKIN INLET A","2303405","2018-01-01 07:00","2018","01","01","07:00","-32.7","","-36.2","","72","","","","34","","22","","12.9","","100.54","","","","-47","","Ice Crystals"
"-92.11","62.81","RANKIN INLET A","2303405","2018-01-01 08:00","2018","01","01","08:00","-33.0","","-36.5","","72","","","","34","","28","","12.9","","100.52","","","","-49","","Ice Crystals"
"-92.11","62.81","RANKIN INLET A","2303405","2018-01-01 09:00","2018","01","01","09:00","-33.8","","-37.3","","71","","","","34","","34","","9.7","","100.51","","","","-51","","Ice Crystals,Blowing Snow"
"-92.11","62.81","RANKIN INLET A","2303405","2018-01-01 10:00","2018","01","01","10:00","-34.2","","-37.8","","71","","","","36","","30","","16.1","","100.53","","","","-51","","Ice Crystals"
"-92.11","62.81","RANKIN INLET A","2303405","2018-01-01 11:00","2018","01","01","11:00","-34.7","","-38.3","","71","","","","36","","33","","12.9","","100.54","","","","-52","","Ice Crystals,Blowing Snow"
"-92.11","62.81","RANKIN INLET A","2303405","2018-01-01 12:00","2018","01","01","12:00","-34.8","","-38.4","","70","","","","36","","32","","12.9","","100.56","","","","-52","","Ice Crystals,Blowing Snow"
"-92.11","62.81","RANKIN INLET A","2303405","2018-01-01 13:00","2018","01","01","13:00","-34.4","","-38.0","","71","","","","36","","28","","9.7","","100.58","","","","-51","","Ice Crystals,Blowing Snow"
"-92.11","62.81","RANKIN INLET A","2303405","2018-01-01 14:00","2018","01","01","14:00","-34.3","","-37.9","","71","","","","35","","28","","16.1","","100.65","","","","-51","","Ice Crystals,Blowing Snow"
"-92.11","62.81","RANKIN INLET A","2303405","2018-01-01 15:00","2018","01","01","15:00","-34.2","","-37.8","","71","","","","35","","23","","16.1","","100.74","","","","-49","","Ice Crystals,Blowing Snow"
"-92.11","62.81","RANKIN INLET A","2303405","2018-01-01 16:00","2018","01","01","16:00","-34.0","","-37.6","","71","","","","35","","30","","16.1","","100.83","","","","-51","","Ice Crystals,Blowing Snow"
"-92.11","62.81","RANKIN INLET A","2303405","2018-01-01 17:00","2018","01","01","17:00","-33.5","","-37.0","","71","","","","36","","30","","9.7","","100.92","","","","-50","","Ice Crystals,Blowing Snow"
"-92.11","62.81","RANKIN INLET A","2303405","2018-01-01 18:00","2018","01","01","18:00","-34.0","","-37.6","","71","","","","36","","24","","12.9","","101.01","","","","-49","","Ice Crystals,Blowing Snow"
"-92.11","62.81","RANKIN INLET A","2303405","2018-01-01 19:00","2018","01","01","19:00","-33.4","","-37.0","","71","","","","1","","21","","12.9","","101.04","","","","-48","","Ice Crystals,Blowing Snow"
"-92.11","62.81","RANKIN INLET A","2303405","2018-01-01 20:00","2018","01","01","20:00","-33.6","","-37.1","","71","","","","36","","23","","16.1","","101.07","","","","-49","","Ice Crystals,Blowing Snow"
"-92.11","62.81","RANKIN INLET A","2303405","2018-01-01 21:00","2018","01","01","21:00","-33.3","","-36.8","","71","","","","2","","22","","12.9","","101.12","","","","-48","","Ice Crystals,Blowing Snow"
"-92.11","62.81","RANKIN INLET A","2303405","2018-01-01 22:00","2018","01","01","22:00","-33.2","","-36.7","","72","","","","1","","21","","12.9","","101.15","","","","-47","","Ice Crystals,Blowing Snow"
"-92.11","62.81","RANKIN INLET A","2303405","2018-01-01 23:00","2018","01","01","23:00","-33.3","","-36.9","","71","","","","35","","16","","16.1","","101.23","","","","-46","","Ice Crystals"
"-92.11","62.81","RANKIN INLET A","2303405","2018-01-02 00:00","2018","01","02","00:00","-33.7","","-37.2","","71","","","","35","","18","","16.1","","101.30","","","","-47","","Ice Crystals"
"-92.11","62.81","RANKIN INLET A","2303405","2018-01-02 01:00","2018","01","02","01:00","-33.6","","-37.1","","71","","","","34","","20","","16.1","","101.34","","","","-48","","Ice Crystals"
"-92.11","62.81","RANKIN INLET A","2303405","2018-01-02 02:00","2018","01","02","02:00","-33.8","","-37.3","","71","","","","1","","28","","16.1","","101.38","","","","-50","","Ice Crystals"
"-92.11","62.81","RANKIN INLET A","2303405","2018-01-02 03:00","2018","01","02","03:00","-34.0","","-37.5","","71","","","","36","","24","","16.1","","101.41","","","","-49","","Ice Crystals"
"-92.11","62.81","RANKIN INLET A","2303405","2018-01-02 04:00","2018","01","02","04:00","-33.7","","-37.3","","71","","","","35","","19","","16.1","","101.45","","","","-47","","Ice Crystals"
"-92.11","62.81","RANKIN INLET A","2303405","2018-01-02 05:00","2018","01","02","05:00","-33.3","","-36.8","","71","","","","35","","25","","16.1","","101.49","","","","-49","","Ice Crystals"
"-92.11","62.81","RANKIN INLET A","2303405","2018-01-02 06:00","2018","01","02","06:00","-32.8","","-36.3","","72","","","","35","","18","","16.1","","101.56","","","","-46","","Ice Crystals"
"-92.11","62.81","RANKIN INLET A","2303405","2018-01-02 07:00","2018","01","02","07:00","-32.7","","-36.2","","72","","","","35","","29","","16.1","","101.55","","","","-49","","Ice Crystals"
"-92.11","62.81","RANKIN INLET A","2303405","2018-01-02 08:00","2018","01","02","08:00","-32.4","","-35.9","","72","","","","36","","23","","16.1","","101.56","","","","-47","","Ice Crystals"
"-92.11","62.81","RANKIN INLET A","2303405","2018-01-02 09:00","2018","01","02","09:00","-31.8","","-35.3","","72","","","","33","","19","","19.3","","101.58","","","","-45","","Ice Crystals"
"-92.11","62.81","RANKIN INLET A","2303405","2018-01-02 10:00","2018","01","02","10:00","-31.5","","-34.9","","73","","","","32","","17","","19.3","","101.60","","","","-44","","Ice Crystals"
"-92.11","62.81","RANKIN INLET A","2303405","2018-01-02 11:00","2018","01","02","11:00","-31.1","","-34.5","","73","","","","33","","23","","24.1","","101.56","","","","-45","","Ice Crystals"
"-92.11","62.81","RANKIN INLET A","2303405","2018-01-02 12:00","2018","01","02","12:00","-30.8","","-34.2","","73","","","","32","","30","","16.1","","101.57","","","","-47","","Ice Crystals"
"-92.11","62.81","RANKIN INLET A","2303405","2018-01-02 13:00","2018","01","02","13:00","-30.0","","-33.3","","74","","","","34","","31","","4.8","","101.58","","","","-46","","Ice Crystals,Blowing Snow"
"-92.11","62.81","RANKIN INLET A","2303405","2018-01-02 14:00","2018","01","02","14:00","-30.3","","-33.6","","73","","","","34","","32","","4.8","","101.61","","","","-46","","Ice Crystals,Blowing Snow"
"-92.11","62.81","RANKIN INLET A","2303405","2018-01-02 15:00","2018","01","02","15:00","-31.1","","-34.5","","73","","","","33","","33","","6.4","","101.63","","","","-48","","Ice Crystals,Blowing Snow"
"-92.11","62.81","RANKIN INLET A","2303405","2018-01-02 16:00","2018","01","02","16:00","-31.8","","-35.2","","72","","","","33","","27","","9.7","","101.68","","","","-47","","Ice Crystals,Blowing Snow"
"-92.11","62.81","RANKIN INLET A","2303405","2018-01-02 17:00","2018","01","02","17:00","-32.3","","-35.8","","72","","","","32","","25","","16.1","","101.71","","","","-47","","Ice Crystals,Blowing Snow"
"-92.11","62.81","RANKIN INLET A","2303405","2018-01-02 18:00","2018","01","02","18:00","-32.8","","-36.3","","72","","","","34","","27","","19.3","","101.73","","","","-49","","Ice Crystals,Blowing Snow"
"-92.11","62.81","RANKIN INLET A","2303405","2018-01-02 19:00","2018","01","02","19:00","-33.1","","-36.7","","72","","","","35","","33","","19.3","","101.71","","","","-50","","Ice Crystals,Blowing Snow"
"-92.11","62.81","RANKIN INLET A","2303405","2018-01-02 20:00","2018","01","02","20:00","-33.3","","-36.9","","71","","","","36","","39","","16.1","","101.73","","","","-52","","Ice Crystals,Blowing Snow"
"-92.11","62.81","RANKIN INLET A","2303405","2018-01-02 21:00","2018","01","02","21:00","-33.3","","-36.9","","71","","","","36","","28","","16.1","","101.78","","","","-49","","Ice Crystals,Blowing Snow"
"-92.11","62.81","RANKIN INLET A","2303405","2018-01-02 22:00","2018","01","02","22:00","-33.6","","-37.1","","71","","","","1","","26","","24.1","","101.85","","","","-49","","Ice Crystals,Blowing Snow"
"-92.11","62.81","RANKIN INLET A","2303405","2018-01-02 23:00","2018","01","02","23:00","-33.9","","-37.5","","71","","","","36","","31","","24.1","","101.91","","","","-51","","Ice Crystals,Blowing Snow"
"-92.11","62.81","RANKIN INLET A","2303405","2018-01-03 00:00","2018","01","03","00:00","-34.8","","-38.4","","70","","","","33","","22","","24.1","","101.99","","","","-50","","Ice Crystals,Blowing Snow"
"-92.11","62.81","RANKIN INLET A","2303405","2018-01-03 01:00","2018","01","03","01:00","-34.8","","-38.4","","70","","","","34","","31","","24.1","","101.99","","","","-52","","Ice Crystals,Blowing Snow"
"-92.11","62.81","RANKIN INLET A","2303405","2018-01-03 02:00","2018","01","03","02:00","-34.8","","-38.5","","70","","","","1","","22","","24.1","","102.06","","","","-50","","Ice Crystals,Blowing Snow"
"-92.11","62.81","RANKIN INLET A","2303405","2018-01-03 03:00","2018","01","03","03:00","-34.8","","-38.5","","70","","","","35","","24","","24.1","","102.09","","","","-50","","Ice Crystals,Blowing Snow"
"-92.11","62.81","RANKIN INLET A","2303405","2018-01-03 04:00","2018","01","03","04:00","-34.9","","-38.6","","70","","","","34","","11","","24.1","","102.18","","","","-46","","Ice Crystals"
"-92.11","62.81","RANKIN INLET A","2303405","2018-01-03 05:00","2018","01","03","05:00","-35.2","","-38.9","","70","","","","33","","18","","24.1","","102.18","","","","-49","","Ice Crystals"
"-92.11","62.81","RANKIN INLET A","2303405","2018-01-03 06:00","2018","01","03","06:00","-35.5","","-39.2","","70","","","","35","","22","","24.1","","102.24","","","","-51","","Ice Crystals"
"-92.11","62.81","RANKIN INLET A","2303405","2018-01-03 07:00","2018","01","03","07:00","-35.5","","-39.2","","70","","","","35","","27","","24.1","","102.25","","","","-52","","Ice Crystals"
"-92.11","62.81","RANKIN INLET A","2303405","2018-01-03 08:00","2018","01","03","08:00","-35.7","","-39.4","","70","","","","36","","18","","24.1","","102.27","","","","-50","","Ice Crystals"
"-92.11","62.81","RANKIN INLET A","2303405","2018-01-03 09:00","2018","01","03","09:00","-35.7","","-39.4","","70","","","","35","","19","","24.1","","102.33","","","","-50","","Ice Crystals"
"-92.11","62.81","RANKIN INLET A","2303405","2018-01-03 10:00","2018","01","03","10:00","-35.6","","-39.3","","70","","","","34","","13","","24.1","","102.37","","","","-47","","Ice Crystals"
"-92.11","62.81","RANKIN INLET A","2303405","2018-01-03 11:00","2018","01","03","11:00","-34.9","","-38.6","","70","","","","36","","17","","24.1","","102.32","","","","-48","","Ice Crystals"
"-92.11","62.81","RANKIN INLET A","2303405","2018-01-03 12:00","2018","01","03","12:00","-34.4","","-38.0","","70","","","","32","","10","","24.1","","102.34","","","","-44","","Ice Crystals"
"-92.11","62.81","RANKIN INLET A","2303405","2018-01-03 13:00","2018","01","03","13:00","-33.5","","-37.1","","71","","","","35","","23","","24.1","","102.32","","","","-48","","Ice Crystals"
"-92.11","62.81","RANKIN INLET A","2303405","2018-01-03 14:00","2018","01","03","14:00","-32.8","","-36.3","","72","","","","34","","21","","24.1","","102.34","","","","-47","","Ice Crystals"
"-92.11","62.81","RANKIN INLET A","2303405","2018-01-03 15:00","2018","01","03","15:00","-32.5","","-36.0","","72","","","","33","","22","","24.1","","102.35","","","","-47","","Ice Crystals"
"-92.11","62.81","RANKIN INLET A","2303405","2018-01-03 16:00","2018","01","03","16:00","-32.5","","-35.9","","72","","","","34","","21","","24.1","","102.39","","","","-47","","Ice Crystals"
"-92.11","62.81","RANKIN INLET A","2303405","2018-01-03 17:00","2018","01","03","17:00","-32.3","","-35.8","","72","","","","33","","13","","24.1","","102.41","","","","-43","","Ice Crystals"
"-92.11","62.81","RANKIN INLET A","2303405","2018-01-03 18:00","2018","01","03","18:00","-32.1","","-35.6","","72","","","","34","","17","","24.1","","102.43","","","","-45","","Ice Crystals"
"-92.11","62.81","RANKIN INLET A","2303405","2018-01-03 19:00","2018","01","03","19:00","-32.7","","-36.2","","72","","","","32","","14","","24.1","","102.42","","","","-44","","Ice Crystals"
"-92.11","62.81","RANKIN INLET A","2303405","2018-01-03 20:00","2018","01","03","20:00","-32.7","","-36.2","","72","","","","33","","18","","24.1","","102.39","","","","-46","","Ice Crystals"
"-92.11","62.81","RANKIN INLET A","2303405","2018-01-03 21:00","2018","01","03","21:00","-32.9","","-36.5","","72","","","","33","","19","","24.1","","102.40","","","","-46","","Ice Crystals"
"-92.11","62.81","RANKIN INLET A","2303405","2018-01-03 22:00","2018","01","03","22:00","-32.8","","-36.3","","72","","","","33","","23","","24.1","","102.42","","","","-48","","Ice Crystals"
"-92.11","62.81","RANKIN INLET A","2303405","2018-01-03 23:00","2018","01","03","23:00","-32.5","","-35.9","","72","","","","34","","28","","24.1","","102.41","","","","-48","","Ice Crystals"
"-92.11","62.81","RANKIN INLET A","2303405","2018-01-04 00:00","2018","01","04","00:00","-32.9","","-36.5","","72","","","","35","","22","","24.1","","102.41","","","","-47","","Ice Crystals"
"-92.11","62.81","RANKIN INLET A","2303405","2018-01-04 01:00","2018","01","04","01:00","-33.3","","-36.9","","71","","","","35","","27","","24.1","","102.48","","","","-49","","Ice Crystals"
"-92.11","62.81","RANKIN INLET A","2303405","2018-01-04 02:00","2018","01","04","02:00","-33.5","","-37.0","","71","","","","35","","31","","24.1","","102.52","","","","-50","","Ice Crystals"
"-92.11","62.81","RANKIN INLET A","2303405","2018-01-04 03:00","2018","01","04","03:00","-33.7","","-37.3","","71","","","","35","","29","","24.1","","102.59","","","","-50","","Ice Crystals"
"-92.11","62.81","RANKIN INLET A","2303405","2018-01-04 04:00","2018","01","04","04:00","-34.2","","-37.8","","71","","","","34","","26","","24.1","","102.66","","","","-50","","Ice Crystals"
"-92.11","62.81","RANKIN INLET A","2303405","2018-01-04 05:00","2018","01","04","05:00","-34.6","","-38.3","","70","","","","32","","20","","24.1","","102.71","","","","-49","","Ice Crystals"
"-92.11","62.81","RANKIN INLET A","2303405","2018-01-04 06:00","2018","01","04","06:00","-35.0","","-38.6","","70","","","","35","","23","","24.1","","102.74","","","","-50","","Ice Crystals"
"-92.11","62.81","RANKIN INLET A","2303405","2018-01-04 07:00","2018","01","04","07:00","-35.2","","-38.9","","70","","","","35","","17","","24.1","","102.75","","","","-49","","Ice Crystals"
"-92.11","62.81","RANKIN INLET A","2303405","2018-01-04 08:00","2018","01","04","08:00","-35.4","","-39.0","","70","","","","36","","31","","24.1","","102.76","","","","-53","","Ice Crystals"
"-92.11","62.81","RANKIN INLET A","2303405","2018-01-04 09:00","2018","01","04","09:00","-35.5","","-39.2","","70","","","","35","","14","","24.1","","102.85","","","","-48","","Ice Crystals"
"-92.11","62.81","RANKIN INLET A","2303405","2018-01-04 10:00","2018","01","04","10:00","-35.1","","-38.8","","70","","","","1","","16","","24.1","","102.93","","","","-48","","Ice Crystals"
"-92.11","62.81","RANKIN INLET A","2303405","2018-01-04 11:00","2018","01","04","11:00","-34.4","","-38.0","","70","","","","36","","20","","24.1","","102.98","","","","-49","","Ice Crystals"
"-92.11","62.81","RANKIN INLET A","2303405","2018-01-04 12:00","2018","01","04","12:00","-33.5","","-37.1","","71","","","","35","","14","","24.1","","103.00","","","","-45","","Ice Crystals"
"-92.11","62.81","RANKIN INLET A","2303405","2018-01-04 13:00","2018","01","04","13:00","-33.5","","-37.1","","71","","","","36","","17","","24.1","","103.05","","","","-46","","Ice Crystals"
"-92.11","62.81","RANKIN INLET A","2303405","2018-01-04 14:00","2018","01","04","14:00","-34.0","","-37.6","","71","","","","35","","14","","24.1","","103.11","","","","-46","","Ice Crystals"
"-92.11","62.81","RANKIN INLET A","2303405","2018-01-04 15:00","2018","01","04","15:00","-34.8","","-38.4","","70","","","","1","","10","","24.1","","103.17","","","","-45","","Ice Crystals"
"-92.11","62.81","RANKIN INLET A","2303405","2018-01-04 16:00","2018","01","04","16:00","-34.4","","-38.0","","70","","","","36","","17","","24.1","","103.24","","","","-48","","Ice Crystals"
"-92.11","62.81","RANKIN INLET A","2303405","2018-01-04 17:00","2018","01","04","17:00","-35.2","","-38.9","","70","","","","36","","16","","24.1","","103.28","","","","-48","","Ice Crystals"
"-92.11","62.81","RANKIN INLET A","2303405","2018-01-04 18:00","2018","01","04","18:00","-34.9","","-38.5","","70","","","","35","","16","","24.1","","103.29","","","","-48","","Ice Crystals"
"-92.11","62.81","RANKIN INLET A","2303405","2018-01-04 19:00","2018","01","04","19:00","-34.6","","-38.3","","70","","","","36","","13","","24.1","","103.31","","","","-46","","Ice Crystals"
"-92.11","62.81","RANKIN INLET A","2303405","2018-01-04 20:00","2018","01","04","20:00","-34.1","","-37.7","","71","","","","33","","8","","24.1","","103.32","","","","-43","","Ice Crystals"
"-92.11","62.81","RANKIN INLET A","2303405","2018-01-04 21:00","2018","01","04","21:00","-35.1","","-38.8","","70","","","","35","","9","","24.1","","103.30","","","","-45","","Ice Crystals"
"-92.11","62.81","RANKIN INLET A","2303405","2018-01-04 22:00","2018","01","04","22:00","-35.4","","-39.0","","70","","","","36","","11","","24.1","","103.30","","","","-46","","Ice Crystals"
"-92.11","62.81","RANKIN INLET A","2303405","2018-01-04 23:00","2018","01","04","23:00","-34.9","","-38.5","","70","","","","35","","11","","24.1","","103.30","","","","-46","","Ice Crystals"
"-92.11","62.81","RANKIN INLET A","2303405","2018-01-05 00:00","2018","01","05","00:00","-35.6","","-39.3","","70","","","","32","","8","","24.1","","103.32","","","","-45","","Ice Crystals"
"-92.11","62.81","RANKIN INLET A","2303405","2018-01-05 01:00","2018","01","05","01:00","-35.3","","-39.0","","70","","","","34","","13","","24.1","","103.36","","","","-47","","Ice Crystals"
"-92.11","62.81","RANKIN INLET A","2303405","2018-01-05 02:00","2018","01","05","02:00","-35.1","","-38.8","","70","","","","36","","10","","24.1","","103.36","","","","-45","","Ice Crystals"
"-92.11","62.81","RANKIN INLET A","2303405","2018-01-05 03:00","2018","01","05","03:00","-35.2","","-38.9","","70","","","","34","","10","","24.1","","103.28","","","","-45","","Ice Crystals"
"-92.11","62.81","RANKIN INLET A","2303405","2018-01-05 04:00","2018","01","05","04:00","-35.3","","-39.0","","70","","","","34","","12","","24.1","","103.29","","","","-47","","Ice Crystals"
"-92.11","62.81","RANKIN INLET A","2303405","2018-01-05 05:00","2018","01","05","05:00","-34.7","","-38.4","","70","","","","31","","10","","24.1","","103.27","","","","-45","","Ice Crystals"
"-92.11","62.81","RANKIN INLET A","2303405","2018-01-05 06:00","2018","01","05","06:00","-35.2","","-38.9","","70","","","","26","","7","","24.1","","103.23","","","","-43","","Ice Crystals"
"-92.11","62.81","RANKIN INLET A","2303405","2018-01-05 07:00","2018","01","05","07:00","-35.4","","-39.1","","70","","","","28","","15","","24.1","","103.20","","","","-48","","Ice Crystals"
"-92.11","62.81","RANKIN INLET A","2303405","2018-01-05 08:00","2018","01","05","08:00","-35.7","","-39.4","","70","","","","32","","4","","24.1","","103.13","","","","-41","","Ice Crystals"
"-92.11","62.81","RANKIN INLET A","2303405","2018-01-05 09:00","2018","01","05","09:00","-35.5","","-39.2","","70","","","","32","","5","","24.1","","103.11","","","","-42","","Ice Crystals"
"-92.11","62.81","RANKIN INLET A","2303405","2018-01-05 10:00","2018","01","05","10:00","-35.6","","-39.3","","70","","","","27","","10","","19.3","","103.07","","","","-46","","Ice Crystals"
"-92.11","62.81","RANKIN INLET A","2303405","2018-01-05 11:00","2018","01","05","11:00","-35.1","","-38.9","","70","","","","25","","7","","24.1","","103.01","","","","-43","","Ice Crystals"
"-92.11","62.81","RANKIN INLET A","2303405","2018-01-05 12:00","2018","01","05","12:00","-34.4","","-38.0","","70","","","","28","","5","","24.1","","102.95","","","","-41","","Ice Crystals"
"-92.11","62.81","RANKIN INLET A","2303405","2018-01-05 13:00","2018","01","05","13:00","-34.1","","-37.8","","70","","","","36","","1","","24.1","","102.90","","","","-35","","Ice Crystals"
"-92.11","62.81","RANKIN INLET A","2303405","2018-01-05 14:00","2018","01","05","14:00","-34.0","","-37.6","","71","","","","36","","2","","24.1","","102.83","","","","-36","","Ice Crystals"
"-92.11","62.81","RANKIN INLET A","2303405","2018-01-05 15:00","2018","01","05","15:00","-32.9","","-36.5","","71","","","","22","","6","","24.1","","102.79","","","","-40","","Ice Crystals"
"-92.11","62.81","RANKIN INLET A","2303405","2018-01-05 16:00","2018","01","05","16:00","-33.7","","-37.3","","71","","","","0","","1","","24.1","","102.72","","","","-35","","Ice Crystals"
"-92.11","62.81","RANKIN INLET A","2303405","2018-01-05 17:00","2018","01","05","17:00","-33.4","","-36.9","","71","","","","14","","3","","24.1","","102.63","","","","-37","","Ice Crystals"
"-92.11","62.81","RANKIN INLET A","2303405","2018-01-05 18:00","2018","01","05","18:00","-32.9","","-36.5","","71","","","","14","","10","","24.1","","102.57","","","","-43","","Ice Crystals"
"-92.11","62.81","RANKIN INLET A","2303405","2018-01-05 19:00","2018","01","05","19:00","-32.1","","-35.6","","72","","","","14","","9","","19.3","","102.45","","","","-41","","Ice Crystals"
"-92.11","62.81","RANKIN INLET A","2303405","2018-01-05 20:00","2018","01","05","20:00","-31.0","","-34.4","","73","","","","16","","9","","24.1","","102.30","","","","-40","","Ice Crystals"
"-92.11","62.81","RANKIN INLET A","2303405","2018-01-05 21:00","2018","01","05","21:00","-30.9","","-34.3","","73","","","","15","","7","","9.7","","102.18","","","","-38","","Ice Crystals"
"-92.11","62.81","RANKIN INLET A","2303405","2018-01-05 22:00","2018","01","05","22:00","-29.5","","-32.7","","74","","","","10","","8","","4.8","","102.08","","","","-37","","Ice Crystals"
"-92.11","62.81","RANKIN INLET A","2303405","2018-01-05 23:00","2018","01","05","23:00","-27.7","","-30.8","","75","","","","11","","14","","4.8","","101.95","","","","-38","","Ice Crystals"
"-92.11","62.81","RANKIN INLET A","2303405","2018-01-06 00:00","2018","01","06","00:00","-26.2","","-29.2","","76","","","","11","","18","","3.2","","101.79","","","","-38","","Ice Crystals"
"-92.11","62.81","RANKIN INLET A","2303405","2018-01-06 01:00","2018","01","06","01:00","-25.1","","-28.0","","77","","","","12","","21","","9.7","","101.68","","","","-37","","Ice Crystals"
"-92.11","62.81","RANKIN INLET A","2303405","2018-01-06 02:00","2018","01","06","02:00","-24.5","","-27.4","","78","","","","13","","21","","24.1","","101.58","","","","-36","","Ice Crystals"
"-92.11","62.81","RANKIN INLET A","2303405","2018-01-06 03:00","2018","01","06","03:00","-24.8","","-27.7","","77","","","","10","","10","","24.1","","101.49","","","","-33","","Ice Crystals"
"-92.11","62.81","RANKIN INLET A","2303405","2018-01-06 04:00","2018","01","06","04:00","-23.9","","-26.7","","78","","","","12","","17","","24.1","","101.38","","","","-35","","Ice Crystals"
"-92.11","62.81","RANKIN INLET A","2303405","2018-01-06 05:00","2018","01","06","05:00","-22.6","","-25.2","","79","","","","11","","17","","24.1","","101.27","","","","-33","","Ice Crystals"
"-92.11","62.81","RANKIN INLET A","2303405","2018-01-06 06:00","2018","01","06","06:00","-22.8","","-25.4","","79","","","","11","","19","","16.1","","101.15","","","","-34","","Snow"
"-92.11","62.81","RANKIN INLET A","2303405","2018-01-06 07:00","2018","01","06","07:00","-22.2","","-24.8","","80","","","","11","","16","","24.1","","101.07","","","","-32","","Snow"
"-92.11","62.81","RANKIN INLET A","2303405","2018-01-06 08:00","2018","01","06","08:00","-21.2","","-23.8","","80","","","","13","","17","","24.1","","101.00","","","","-31","","Snow"
"-92.11","62.81","RANKIN INLET A","2303405","2018-01-06 09:00","2018","01","06","09:00","-21.1","","-23.6","","81","","","","14","","16","","24.1","","100.94","","","","-31","","Snow"
"-92.11","62.81","RANKIN INLET A","2303405","2018-01-06 10:00","2018","01","06","10:00","-21.1","","-23.6","","81","","","","12","","14","","19.3","","100.88","","","","-30","","Snow"
"-92.11","62.81","RANKIN INLET A","2303405","2018-01-06 11:00","2018","01","06","11:00","-21.5","","-24.0","","80","","","","10","","12","","16.1","","100.80","","","","-30","","Snow"
"-92.11","62.81","RANKIN INLET A","2303405","2018-01-06 12:00","2018","01","06","12:00","-21.0","","-23.5","","81","","","","10","","14","","16.1","","100.72","","","","-30","","Snow"
"-92.11","62.81","RANKIN INLET A","2303405","2018-01-06 13:00","2018","01","06","13:00","-21.6","","-24.1","","80","","","","9","","18","","16.1","","100.66","","","","-32","","Snow"
"-92.11","62.81","RANKIN INLET A","2303405","2018-01-06 14:00","2018","01","06","14:00","-21.7","","-24.2","","80","","","","8","","14","","16.1","","100.65","","","","-31","","Snow"
"-92.11","62.81","RANKIN INLET A","2303405","2018-01-06 15:00","2018","01","06","15:00","-21.6","","-24.1","","81","","","","9","","17","","24.1","","100.62","","","","-32","","Snow"
"-92.11","62.81","RANKIN INLET A","2303405","2018-01-06 16:00","2018","01","06","16:00","-21.9","","-24.4","","80","","","","9","","21","","24.1","","100.57","","","","-33","","Snow"
"-92.11","62.81","RANKIN INLET A","2303405","2018-01-06 17:00","2018","01","06","17:00","-22.2","","-24.8","","80","","","","9","","24","","24.1","","100.55","","","","-34","","Snow"
"-92.11","62.81","RANKIN INLET A","2303405","2018-01-06 18:00","2018","01","06","18:00","-22.8","","-25.4","","80","","","","9","","18","","24.1","","100.51","","","","-33","","Snow"
"-92.11","62.81","RANKIN INLET A","2303405","2018-01-06 19:00","2018","01","06","19:00","-23.8","","-26.4","","79","","","","8","","14","","24.1","","100.49","","","","-33","","Snow"
"-92.11","62.81","RANKIN INLET A","2303405","2018-01-06 20:00","2018","01","06","20:00","-24.2","","-26.9","","79","","","","8","","18","","24.1","","100.43","","","","-35","","Ice Crystals"
"-92.11","62.81","RANKIN INLET A","2303405","2018-01-06 21:00","2018","01","06","21:00","-24.2","","-26.9","","79","","","","9","","20","","24.1","","100.37","","","","-36","","Ice Crystals"
"-92.11","62.81","RANKIN INLET A","2303405","2018-01-06 22:00","2018","01","06","22:00","-24.0","","-26.7","","79","","","","9","","17","","24.1","","100.33","","","","-35","","Ice Crystals"
"-92.11","62.81","RANKIN INLET A","2303405","2018-01-06 23:00","2018","01","06","23:00","-23.8","","-26.5","","79","","","","9","","17","","24.1","","100.33","","","","-34","","Ice Crystals"
"-92.11","62.81","RANKIN INLET A","2303405","2018-01-07 00:00","2018","01","07","00:00","-23.6","","-26.3","","79","","","","10","","17","","24.1","","100.26","","","","-34","","Ice Crystals"
"-92.11","62.81","RANKIN INLET A","2303405","2018-01-07 01:00","2018","01","07","01:00","-23.0","","-25.6","","80","","","","9","","16","","4.8","","100.25","","","","-33","","Ice Crystals"
"-92.11","62.81","RANKIN INLET A","2303405","2018-01-07 02:00","2018","01","07","02:00","-22.2","","-24.8","","80","","","","8","","14","","4.8","","100.26","","","","-31","","Ice Crystals"
"-92.11","62.81","RANKIN INLET A","2303405","2018-01-07 03:00","2018","01","07","03:00","-21.8","","-24.3","","80","","","","10","","14","","4.8","","100.20","","","","-31","","Ice Crystals"
"-92.11","62.81","RANKIN INLET A","2303405","2018-01-07 04:00","2018","01","07","04:00","-22.2","","-24.8","","80","","","","10","","15","","9.7","","100.20","","","","-32","","Ice Crystals"
"-92.11","62.81","RANKIN INLET A","2303405","2018-01-07 05:00","2018","01","07","05:00","-21.8","","-24.3","","81","","","","10","","14","","9.7","","100.18","","","","-31","","Ice Crystals"
"-92.11","62.81","RANKIN INLET A","2303405","2018-01-07 06:00","2018","01","07","06:00","-21.7","","-24.2","","81","","","","11","","20","","16.1","","100.13","","","","-33","","Ice Crystals"
"-92.11","62.81","RANKIN INLET A","2303405","2018-01-07 07:00","2018","01","07","07:00","-22.8","","-25.4","","80","","","","11","","18","","16.1","","100.14","","","","-33","","Ice Crystals"
"-92.11","62.81","RANKIN INLET A","2303405","2018-01-07 08:00","2018","01","07","08:00","-22.1","","-24.6","","80","","","","11","","16","","24.1","","100.09","","","","-32","","Ice Crystals"
"-92.11","62.81","RANKIN INLET A","2303405","2018-01-07 09:00","2018","01","07","09:00","-21.6","","-24.0","","81","","","","12","","15","","24.1","","100.09","","","","-31","","Ice Crystals"
"-92.11","62.81","RANKIN INLET A","2303405","2018-01-07 10:00","2018","01","07","10:00","-21.2","","-23.6","","81","","","","12","","15","","24.1","","100.07","","","","-31","","Ice Crystals"
"-92.11","62.81","RANKIN INLET A","2303405","2018-01-07 11:00","2018","01","07","11:00","-21.5","","-24.0","","81","","","","13","","13","","24.1","","100.06","","","","-30","","Ice Crystals"
"-92.11","62.81","RANKIN INLET A","2303405","2018-01-07 12:00","2018","01","07","12:00","-20.4","","-22.8","","82","","","","14","","13","","24.1","","100.06","","","","-29","","Ice Crystals"
"-92.11","62.81","RANKIN INLET A","2303405","2018-01-07 13:00","2018","01","07","13:00","-20.5","","-22.9","","81","","","","13","","10","","24.1","","100.02","","","","-28","","Ice Crystals"
"-92.11","62.81","RANKIN INLET A","2303405","2018-01-07 14:00","2018","01","07","14:00","-19.9","","-22.2","","82","","","","14","","10","","24.1","","100.02","","","","-27","","Ice Crystals"
"-92.11","62.81","RANKIN INLET A","2303405","2018-01-07 15:00","2018","01","07","15:00","-21.0","","-23.4","","81","","","","9","","10","","24.1","","99.99","","","","-28","","Ice Crystals"
"-92.11","62.81","RANKIN INLET A","2303405","2018-01-07 16:00","2018","01","07","16:00","-20.1","","-22.5","","82","","","","11","","17","","24.1","","99.99","","","","-30","","Ice Crystals"
"-92.11","62.81","RANKIN INLET A","2303405","2018-01-07 17:00","2018","01","07","17:00","-20.2","","-22.5","","82","","","","10","","18","","19.3","","99.98","","","","-30","","Ice Crystals"
"-92.11","62.81","RANKIN INLET A","2303405","2018-01-07 18:00","2018","01","07","18:00","-19.6","","-21.9","","82","","","","10","","18","","24.1","","99.96","","","","-29","","Ice Crystals"
"-92.11","62.81","RANKIN INLET A","2303405","2018-01-07 19:00","2018","01","07","19:00","-19.3","","-21.5","","83","","","","11","","17","","24.1","","99.96","","","","-29","","Ice Crystals"
"-92.11","62.81","RANKIN INLET A","2303405","2018-01-07 20:00","2018","01","07","20:00","-19.1","","-21.2","","83","","","","14","","14","","24.1","","99.93","","","","-28","","Ice Crystals"
"-92.11","62.81","RANKIN INLET A","2303405","2018-01-07 21:00","2018","01","07","21:00","-19.0","","-21.3","","83","","","","15","","19","","24.1","","99.91","","","","-29","","Ice Crystals"
"-92.11","62.81","RANKIN INLET A","2303405","2018-01-07 22:00","2018","01","07","22:00","-19.1","","-21.4","","83","","","","14","","17","","24.1","","99.91","","","","-29","","Ice Crystals"
"-92.11","62.81","RANKIN INLET A","2303405","2018-01-07 23:00","2018","01","07","23:00","-19.9","","-22.2","","82","","","","16","","13","","24.1","","99.91","","","","-28","","Ice Crystals"
"-92.11","62.81","RANKIN INLET A","2303405","2018-01-08 00:00","2018","01","08","00:00","-20.1","","-22.4","","82","","","","16","","12","","24.1","","99.90","","","","-28","","Ice Crystals"
"-92.11","62.81","RANKIN INLET A","2303405","2018-01-08 01:00","2018","01","08","01:00","-19.9","","-22.2","","82","","","","15","","11","","24.1","","99.85","","","","-28","","Ice Crystals"
"-92.11","62.81","RANKIN INLET A","2303405","2018-01-08 02:00","2018","01","08","02:00","-19.3","","-21.5","","83","","","","16","","12","","8.1","","99.87","","","","-27","","Snow"
"-92.11","62.81","RANKIN INLET A","2303405","2018-01-08 03:00","2018","01","08","03:00","-19.2","","-21.4","","83","","","","16","","11","","9.7","","99.84","","","","-27","","Snow"
"-92.11","62.81","RANKIN INLET A","2303405","2018-01-08 04:00","2018","01","08","04:00","-19.0","","-21.2","","83","","","","16","","13","","8.1","","99.81","","","","-27","","Snow"
"-92.11","62.81","RANKIN INLET A","2303405","2018-01-08 05:00","2018","01","08","05:00","-19.0","","-21.2","","83","","","","18","","10","","9.7","","99.78","","","","-26","","Snow"
"-92.11","62.81","RANKIN INLET A","2303405","2018-01-08 06:00","2018","01","08","06:00","-19.0","","-21.3","","83","","","","18","","8","","9.7","","99.76","","","","-25","","Snow"
"-92.11","62.81","RANKIN INLET A","2303405","2018-01-08 07:00","2018","01","08","07:00","-19.1","","-21.4","","83","","","","17","","10","","16.1","","99.69","","","","-26","","Snow"
"-92.11","62.81","RANKIN INLET A","2303405","2018-01-08 08:00","2018","01","08","08:00","-19.1","","-21.3","","83","","","","19","","8","","3.2","","99.65","","","","-25","","Snow"
"-92.11","62.81","RANKIN INLET A","2303405","2018-01-08 09:00","2018","01","08","09:00","-19.1","","-21.4","","83","","","","22","","6","","1.6","","99.62","","","","-24","","Snow"
"-92.11","62.81","RANKIN INLET A","2303405","2018-01-08 10:00","2018","01","08","10:00","-19.3","","-21.6","","83","","","","26","","4","","1.2","","99.63","","","","-23","","Snow"
"-92.11","62.81","RANKIN INLET A","2303405","2018-01-08 11:00","2018","01","08","11:00","-19.9","","-22.2","","82","","","","31","","10","","1.2","","99.60","","","","-27","","Snow"
"-92.11","62.81","RANKIN INLET A","2303405","2018-01-08 12:00","2018","01","08","12:00","-20.0","","-22.4","","82","","","","34","","8","","1.6","","99.53","","","","-26","","Snow"
"-92.11","62.81","RANKIN INLET A","2303405","2018-01-08 13:00","2018","01","08","13:00","-20.7","","-23.1","","81","","","","30","","14","","1.6","","99.49","","","","-30","","Snow"
"-92.11","62.81","RANKIN INLET A","2303405","2018-01-08 14:00","2018","01","08","14:00","-20.5","","-22.8","","82","","","","33","","17","","3.2","","99.46","","","","-30","","Snow"
"-92.11","62.81","RANKIN INLET A","2303405","2018-01-08 15:00","2018","01","08","15:00","-22.2","","-24.8","","80","","","","31","","19","","9.7","","99.47","","","","-33","","Snow"
"-92.11","62.81","RANKIN INLET A","2303405","2018-01-08 16:00","2018","01","08","16:00","-24.5","","-27.2","","79","","","","31","","26","","16.1","","99.49","","","","-38","","Snow"
"-92.11","62.81","RANKIN INLET A","2303405","2018-01-08 17:00","2018","01","08","17:00","-23.8","","-26.4","","79","","","","31","","26","","9.7","","99.51","","","","-37","","Snow"
"-92.11","62.81","RANKIN INLET A","2303405","2018-01-08 18:00","2018","01","08","18:00","-23.4","","-26.0","","79","","","","31","","26","","9.7","","99.50","","","","-36","","Snow,Blowing Snow"
"-92.11","62.81","RANKIN INLET A","2303405","2018-01-08 19:00","2018","01","08","19:00","-24.6","","-27.4","","78","","","","29","","29","","12.9","","99.49","","","","-38","","Snow,Blowing Snow"
"-92.11","62.81","RANKIN INLET A","2303405","2018-01-08 20:00","2018","01","08","20:00","-25.6","","-28.4","","78","","","","30","","27","","16.1","","99.47","","","","-39","","Ice Crystals,Blowing Snow"
"-92.11","62.81","RANKIN INLET A","2303405","2018-01-08 21:00","2018","01","08","21:00","-27.0","","-29.9","","77","","","","30","","27","","24.1","","99.45","","","","-41","","Ice Crystals,Blowing Snow"
"-92.11","62.81","RANKIN INLET A","2303405","2018-01-08 22:00","2018","01","08","22:00","-27.3","","-30.3","","76","","","","30","","23","","24.1","","99.43","","","","-41","","Ice Crystals,Blowing Snow"
"-92.11","62.81","RANKIN INLET A","2303405","2018-01-08 23:00","2018","01","08","23:00","-26.5","","-29.4","","77","","","","30","","31","","16.1","","99.42","","","","-41","","Ice Crystals,Blowing Snow"
"-92.11","62.81","RANKIN INLET A","2303405","2018-01-09 00:00","2018","01","09","00:00","-27.0","","-30.0","","77","","","","30","","25","","16.1","","99.41","","","","-41","","Ice Crystals,Blowing Snow"
"-92.11","62.81","RANKIN INLET A","2303405","2018-01-09 01:00","2018","01","09","01:00","-27.2","","-30.2","","76","","","","28","","22","","16.1","","99.41","","","","-40","","Ice Crystals,Blowing Snow"
"-92.11","62.81","RANKIN INLET A","2303405","2018-01-09 02:00","2018","01","09","02:00","-27.0","","-30.0","","77","","","","30","","31","","16.1","","99.47","","","","-42","","Ice Crystals,Blowing Snow"
"-92.11","62.81","RANKIN INLET A","2303405","2018-01-09 03:00","2018","01","09","03:00","-26.3","","-29.2","","77","","","","31","","36","","4.8","","99.47","","","","-42","","Ice Crystals,Blowing Snow"
"-92.11","62.81","RANKIN INLET A","2303405","2018-01-09 04:00","2018","01","09","04:00","-26.0","","-28.9","","77","","","","32","","44","","0.8","","99.49","","","","-43","","Ice Crystals,Blowing Snow"
"-92.11","62.81","RANKIN INLET A","2303405","2018-01-09 05:00","2018","01","09","05:00","-26.2","","-29.1","","77","","","","32","","52","","0.4","","99.53","","","","-44","","Ice Crystals,Blowing Snow"
"-92.11","62.81","RANKIN INLET A","2303405","2018-01-09 06:00","2018","01","09","06:00","-27.1","","-30.1","","76","","","","33","","55","","0.4","","99.51","","","","-46","","Ice Crystals,Blowing Snow"
"-92.11","62.81","RANKIN INLET A","2303405","2018-01-09 07:00","2018","01","09","07:00","-27.4","","-30.4","","76","","","","32","","53","","0.4","","99.66","","","","-46","","Ice Crystals,Blowing Snow"
"-92.11","62.81","RANKIN INLET A","2303405","2018-01-09 08:00","2018","01","09","08:00","-27.7","","-30.8","","76","","","","32","","56","","0.2","","99.73","","","","-47","","Ice Crystals,Blowing Snow"
"-92.11","62.81","RANKIN INLET A","2303405","2018-01-09 09:00","2018","01","09","09:00","-28.4","","-31.5","","75","","","","33","","56","","0.2","","99.78","","","","-48","","Ice Crystals,Blowing Snow"
"-92.11","62.81","RANKIN INLET A","2303405","2018-01-09 10:00","2018","01","09","10:00","-29.7","","-32.9","","74","","","","32","","55","","0.2","","99.86","","","","-49","","Ice Crystals,Blowing Snow"
"-92.11","62.81","RANKIN INLET A","2303405","2018-01-09 11:00","2018","01","09","11:00","-30.6","","-33.9","","74","","","","33","","52","","0.2","","99.94","","","","-50","","Ice Crystals,Blowing Snow"
"-92.11","62.81","RANKIN INLET A","2303405","2018-01-09 12:00","2018","01","09","12:00","-31.1","","-34.4","","73","","","","32","","47","","0.2","","99.99","","","","-50","","Ice Crystals,Blowing Snow"
"-92.11","62.81","RANKIN INLET A","2303405","2018-01-09 13:00","2018","01","09","13:00","-31.8","","-35.2","","73","","","","33","","50","","0.2","","100.03","","","","-51","","Ice Crystals,Blowing Snow"
"-92.11","62.81","RANKIN INLET A","2303405","2018-01-09 14:00","2018","01","09","14:00","-32.9","","-36.4","","72","","","","32","","51","","0.2","","100.09","","","","-53","","Ice Crystals,Blowing Snow"
"-92.11","62.81","RANKIN INLET A","2303405","2018-01-09 15:00","2018","01","09","15:00","-33.1","","-36.6","","72","","","","32","","37","","0.2","","100.20","","","","-51","","Ice Crystals,Blowing Snow"
"-92.11","62.81","RANKIN INLET A","2303405","2018-01-09 16:00","2018","01","09","16:00","-33.1","","-36.5","","72","","","","32","","36","","0.2","","100.24","","","","-51","","Ice Crystals,Blowing Snow"
"-92.11","62.81","RANKIN INLET A","2303405","2018-01-09 17:00","2018","01","09","17:00","-33.5","","-36.9","","72","","","","32","","40","","0.4","","100.23","","","","-52","","Ice Crystals,Blowing Snow"
"-92.11","62.81","RANKIN INLET A","2303405","2018-01-09 18:00","2018","01","09","18:00","-34.0","","-37.5","","71","","","","32","","52","","0.4","","100.17","","","","-55","","Ice Crystals,Blowing Snow"
"-92.11","62.81","RANKIN INLET A","2303405","2018-01-09 19:00","2018","01","09","19:00","-34.2","","-37.7","","71","","","","32","","40","","0.4","","100.22","","","","-53","","Ice Crystals,Blowing Snow"
"-92.11","62.81","RANKIN INLET A","2303405","2018-01-09 20:00","2018","01","09","20:00","-34.2","","","M","","M","","","32","","37","","0.8","","100.24","","","","-53","","Ice Crystals,Blowing Snow"
"-92.11","62.81","RANKIN INLET A","2303405","2018-01-09 21:00","2018","01","09","21:00","-34.9","","-38.4","","71","","","","31","","41","","0.8","","100.20","","","","-54","","Ice Crystals,Blowing Snow"
"-92.11","62.81","RANKIN INLET A","2303405","2018-01-09 22:00","2018","01","09","22:00","-35.1","","-38.7","","70","","","","31","","36","","0.8","","100.26","","","","-54","","Ice Crystals,Blowing Snow"
"-92.11","62.81","RANKIN INLET A","2303405","2018-01-09 23:00","2018","01","09","23:00","-35.4","","-39.0","","70","","","","31","","37","","1.2","","100.27","","","","-54","","Ice Crystals,Blowing Snow"
"-92.11","62.81","RANKIN INLET A","2303405","2018-01-10 00:00","2018","01","10","00:00","-35.7","","-39.4","","70","","","","31","","36","","1.2","","100.26","","","","-54","","Ice Crystals,Blowing Snow"
"-92.11","62.81","RANKIN INLET A","2303405","2018-01-10 01:00","2018","01","10","01:00","-35.9","","-39.6","","70","","","","31","","32","","1.6","","100.25","","","","-54","","Ice Crystals,Blowing Snow"
"-92.11","62.81","RANKIN INLET A","2303405","2018-01-10 02:00","2018","01","10","02:00","-36.1","","-39.8","","70","","","","31","","35","","1.6","","100.26","","","","-55","","Ice Crystals,Blowing Snow"
"-92.11","62.81","RANKIN INLET A","2303405","2018-01-10 03:00","2018","01","10","03:00","-36.1","","-39.8","","70","","","","30","","35","","1.6","","100.26","","","","-55","","Ice Crystals,Blowing Snow"
"-92.11","62.81","RANKIN INLET A","2303405","2018-01-10 04:00","2018","01","10","04:00","-36.1","","-39.8","","70","","","","30","","35","","1.6","","100.23","","","","-55","","Ice Crystals,Blowing Snow"
"-92.11","62.81","RANKIN INLET A","2303405","2018-01-10 05:00","2018","01","10","05:00","-36.2","","-40.0","","70","","","","31","","34","","1.6","","100.20","","","","-55","","Ice Crystals,Blowing Snow"
"-92.11","62.81","RANKIN INLET A","2303405","2018-01-10 06:00","2018","01","10","06:00","-36.3","","-40.0","","70","","","","32","","40","","3.2","","100.15","","","","-56","","Ice Crystals,Blowing Snow"
"-92.11","62.81","RANKIN INLET A","2303405","2018-01-10 07:00","2018","01","10","07:00","-36.5","","-40.2","","69","","","","30","","29","","3.2","","100.19","","","","-54","","Ice Crystals,Blowing Snow"
"-92.11","62.81","RANKIN INLET A","2303405","2018-01-10 08:00","2018","01","10","08:00","-36.6","","-40.4","","69","","","","30","","33","","3.2","","100.15","","","","-55","","Ice Crystals,Blowing Snow"
"-92.11","62.81","RANKIN INLET A","2303405","2018-01-10 09:00","2018","01","10","09:00","-36.6","","-40.4","","69","","","","30","","30","","3.2","","100.14","","","","-54","","Ice Crystals,Blowing Snow"
"-92.11","62.81","RANKIN INLET A","2303405","2018-01-10 10:00","2018","01","10","10:00","-36.4","","-40.1","","69","","","","30","","29","","3.2","","100.16","","","","-54","","Ice Crystals,Blowing Snow"
"-92.11","62.81","RANKIN INLET A","2303405","2018-01-10 11:00","2018","01","10","11:00","-36.2","","-40.0","","69","","","","30","","32","","3.2","","100.14","","","","-54","","Ice Crystals,Blowing Snow"
"-92.11","62.81","RANKIN INLET A","2303405","2018-01-10 12:00","2018","01","10","12:00","-35.8","","-39.5","","70","","","","30","","26","","3.2","","100.11","","","","-52","","Ice Crystals,Blowing Snow"
"-92.11","62.81","RANKIN INLET A","2303405","2018-01-10 13:00","2018","01","10","13:00","-35.2","","-38.9","","70","","","","30","","31","","1.6","","100.05","","","","-53","","Ice Crystals,Blowing Snow"
"-92.11","62.81","RANKIN INLET A","2303405","2018-01-10 14:00","2018","01","10","14:00","-34.8","","-38.4","","70","","","","30","","29","","1.6","","100.05","","","","-52","","Ice Crystals,Blowing Snow"
"-92.11","62.81","RANKIN INLET A","2303405","2018-01-10 15:00","2018","01","10","15:00","-34.4","","-38.0","","71","","","","31","","35","","1.2","","100.02","","","","-52","","Ice Crystals,Blowing Snow"
"-92.11","62.81","RANKIN INLET A","2303405","2018-01-10 16:00","2018","01","10","16:00","-34.1","","-37.7","","71","","","","31","","35","","0.8","","100.03","","","","-52","","Ice Crystals,Blowing Snow"
"-92.11","62.81","RANKIN INLET A","2303405","2018-01-10 17:00","2018","01","10","17:00","-34.3","","-37.9","","71","","","","31","","35","","0.8","","100.05","","","","-52","","Ice Crystals,Blowing Snow"
"-92.11","62.81","RANKIN INLET A","2303405","2018-01-10 18:00","2018","01","10","18:00","-34.5","","-38.1","","71","","","","32","","26","","1.2","","100.07","","","","-51","","Ice Crystals,Blowing Snow"
"-92.11","62.81","RANKIN INLET A","2303405","2018-01-10 19:00","2018","01","10","19:00","-34.6","","-38.2","","71","","","","30","","30","","1.0","","100.06","","","","-52","","Ice Crystals,Blowing Snow"
"-92.11","62.81","RANKIN INLET A","2303405","2018-01-10 20:00","2018","01","10","20:00","-34.3","","-37.9","","71","","","","31","","33","","1.0","","100.03","","","","-52","","Ice Crystals,Blowing Snow"
"-92.11","62.81","RANKIN INLET A","2303405","2018-01-10 21:00","2018","01","10","21:00","-34.4","","-38.0","","71","","","","30","","30","","1.2","","100.00","","","","-51","","Ice Crystals,Blowing Snow"
"-92.11","62.81","RANKIN INLET A","2303405","2018-01-10 22:00","2018","01","10","22:00","-34.1","","-37.6","","71","","","","31","","27","","1.2","","99.99","","","","-50","","Ice Crystals,Blowing Snow"
"-92.11","62.81","RANKIN INLET A","2303405","2018-01-10 23:00","2018","01","10","23:00","-34.0","","-37.6","","71","","","","30","","31","","1.2","","100.00","","","","-51","","Ice Crystals,Blowing Snow"
"-92.11","62.81","RANKIN INLET A","2303405","2018-01-11 00:00","2018","01","11","00:00","-33.7","","-37.3","","71","","","","30","","32","","1.6","","99.97","","","","-51","","Ice Crystals,Blowing Snow"
"-92.11","62.81","RANKIN INLET A","2303405","2018-01-11 01:00","2018","01","11","01:00","-33.1","","-36.6","","72","","","","31","","36","","1.2","","99.96","","","","-51","","Snow,Blowing Snow"
"-92.11","62.81","RANKIN INLET A","2303405","2018-01-11 02:00","2018","01","11","02:00","-32.9","","-36.4","","72","","","","31","","32","","1.2","","99.96","","","","-50","","Snow,Ice Crystals,Blowing Snow"
"-92.11","62.81","RANKIN INLET A","2303405","2018-01-11 03:00","2018","01","11","03:00","-32.3","","-35.8","","72","","","","30","","29","","1.2","","99.96","","","","-48","","Snow,Blowing Snow"
"-92.11","62.81","RANKIN INLET A","2303405","2018-01-11 04:00","2018","01","11","04:00","-32.1","","-35.6","","72","","","","30","","29","","1.2","","99.95","","","","-48","","Snow,Blowing Snow"
"-92.11","62.81","RANKIN INLET A","2303405","2018-01-11 05:00","2018","01","11","05:00","-31.9","","-35.3","","72","","","","30","","32","","1.6","","99.92","","","","-49","","Snow,Blowing Snow"
"-92.11","62.81","RANKIN INLET A","2303405","2018-01-11 06:00","2018","01","11","06:00","-31.4","","-34.8","","73","","","","30","","37","","1.6","","99.87","","","","-49","","Snow,Blowing Snow"
"-92.11","62.81","RANKIN INLET A","2303405","2018-01-11 07:00","2018","01","11","07:00","-31.2","","-34.6","","73","","","","30","","36","","1.6","","99.85","","","","-48","","Snow,Blowing Snow"
"-92.11","62.81","RANKIN INLET A","2303405","2018-01-11 08:00","2018","01","11","08:00","-31.5","","-34.9","","73","","","","29","","26","","6.4","","99.86","","","","-47","","Ice Crystals,Blowing Snow"
"-92.11","62.81","RANKIN INLET A","2303405","2018-01-11 09:00","2018","01","11","09:00","-31.6","","-35.0","","73","","","","30","","26","","6.4","","99.85","","","","-47","","Ice Crystals,Blowing Snow"
"-92.11","62.81","RANKIN INLET A","2303405","2018-01-11 10:00","2018","01","11","10:00","-31.8","","-35.2","","72","","","","30","","32","","6.4","","99.86","","","","-48","","Ice Crystals,Blowing Snow"
"-92.11","62.81","RANKIN INLET A","2303405","2018-01-11 11:00","2018","01","11","11:00","-31.8","","-35.2","","72","","","","30","","32","","4.8","","99.85","","","","-48","","Ice Crystals,Blowing Snow"
"-92.11","62.81","RANKIN INLET A","2303405","2018-01-11 12:00","2018","01","11","12:00","-31.8","","-35.2","","72","","","","30","","36","","3.2","","99.80","","","","-49","","Ice Crystals,Blowing Snow"
"-92.11","62.81","RANKIN INLET A","2303405","2018-01-11 13:00","2018","01","11","13:00","-31.4","","-34.9","","72","","","","30","","28","","4.8","","99.85","","","","-47","","Ice Crystals,Blowing Snow"
"-92.11","62.81","RANKIN INLET A","2303405","2018-01-11 14:00","2018","01","11","14:00","-31.7","","-35.2","","72","","","","31","","34","","4.8","","99.78","","","","-49","","Ice Crystals,Blowing Snow"
"-92.11","62.81","RANKIN INLET A","2303405","2018-01-11 15:00","2018","01","11","15:00","-31.7","","-35.1","","73","","","","31","","35","","4.8","","99.78","","","","-49","","Ice Crystals,Blowing Snow"
"-92.11","62.81","RANKIN INLET A","2303405","2018-01-11 16:00","2018","01","11","16:00","-31.3","","-34.7","","73","","","","31","","39","","4.8","","99.79","","","","-49","","Ice Crystals,Blowing Snow"
"-92.11","62.81","RANKIN INLET A","2303405","2018-01-11 17:00","2018","01","11","17:00","-31.0","","-34.4","","73","","","","30","","27","","4.8","","99.84","","","","-46","","Ice Crystals,Blowing Snow"
"-92.11","62.81","RANKIN INLET A","2303405","2018-01-11 18:00","2018","01","11","18:00","-29.9","","-33.2","","74","","","","31","","24","","4.8","","99.87","","","","-44","","Ice Crystals,Blowing Snow"
"-92.11","62.81","RANKIN INLET A","2303405","2018-01-11 19:00","2018","01","11","19:00","-29.9","","-33.2","","74","","","","31","","35","","4.8","","99.84","","","","-46","","Ice Crystals,Blowing Snow"
"-92.11","62.81","RANKIN INLET A","2303405","2018-01-11 20:00","2018","01","11","20:00","-31.1","","-34.4","","73","","","","31","","30","","4.8","","99.82","","","","-47","","Ice Crystals,Blowing Snow"
"-92.11","62.81","RANKIN INLET A","2303405","2018-01-11 21:00","2018","01","11","21:00","-31.7","","-35.1","","73","","","","31","","29","","4.8","","99.83","","","","-48","","Ice Crystals,Blowing Snow"
"-92.11","62.81","RANKIN INLET A","2303405","2018-01-11 22:00","2018","01","11","22:00","-31.9","","-35.4","","72","","","","33","","35","","4.8","","99.81","","","","-49","","Ice Crystals,Blowing Snow"
"-92.11","62.81","RANKIN INLET A","2303405","2018-01-11 23:00","2018","01","11","23:00","-31.7","","-35.1","","73","","","","33","","32","","4.8","","99.81","","","","-48","","Ice Crystals,Blowing Snow"
"-92.11","62.81","RANKIN INLET A","2303405","2018-01-12 00:00","2018","01","12","00:00","-29.4","","-32.6","","74","","","","32","","36","","4.8","","99.81","","","","-46","","Ice Crystals,Blowing Snow"
"-92.11","62.81","RANKIN INLET A","2303405","2018-01-12 01:00","2018","01","12","01:00","-28.1","","-31.3","","75","","","","31","","30","","3.2","","99.81","","","","-43","","Snow,Blowing Snow"
"-92.11","62.81","RANKIN INLET A","2303405","2018-01-12 02:00","2018","01","12","02:00","-27.3","","-30.4","","76","","","","32","","38","","3.2","","99.79","","","","-44","","Snow,Blowing Snow"
"-92.11","62.81","RANKIN INLET A","2303405","2018-01-12 03:00","2018","01","12","03:00","-27.1","","-30.1","","76","","","","32","","39","","3.2","","99.79","","","","-43","","Snow,Blowing Snow"
"-92.11","62.81","RANKIN INLET A","2303405","2018-01-12 04:00","2018","01","12","04:00","-26.6","","-29.6","","76","","","","33","","42","","3.2","","99.80","","","","-43","","Snow,Blowing Snow"
"-92.11","62.81","RANKIN INLET A","2303405","2018-01-12 05:00","2018","01","12","05:00","-26.3","","-29.3","","77","","","","33","","44","","1.6","","99.76","","","","-43","","Snow,Blowing Snow"
"-92.11","62.81","RANKIN INLET A","2303405","2018-01-12 06:00","2018","01","12","06:00","-25.6","","-28.5","","77","","","","33","","49","","1.2","","99.73","","","","-43","","Snow,Blowing Snow"
"-92.11","62.81","RANKIN INLET A","2303405","2018-01-12 07:00","2018","01","12","07:00","-25.4","","-28.3","","77","","","","34","","57","","0.6","","99.75","","","","-44","","Snow,Blowing Snow"
"-92.11","62.81","RANKIN INLET A","2303405","2018-01-12 08:00","2018","01","12","08:00","-25.0","","-27.8","","78","","","","35","","56","","0.4","","99.74","","","","-43","","Snow,Blowing Snow"
"-92.11","62.81","RANKIN INLET A","2303405","2018-01-12 09:00","2018","01","12","09:00","-24.2","","-27.0","","78","","","","34","","47","","1.2","","99.85","","","","-41","","Snow,Blowing Snow"
"-92.11","62.81","RANKIN INLET A","2303405","2018-01-12 10:00","2018","01","12","10:00","-23.8","","-26.5","","79","","","","34","","46","","0.8","","99.84","","","","-40","","Snow,Blowing Snow"
"-92.11","62.81","RANKIN INLET A","2303405","2018-01-12 11:00","2018","01","12","11:00","-22.5","","-25.1","","80","","","","34","","52","","0.4","","99.90","","","","-39","","Snow,Blowing Snow"
"-92.11","62.81","RANKIN INLET A","2303405","2018-01-12 12:00","2018","01","12","12:00","-22.0","","-24.6","","80","","","","34","","49","","0.6","","99.95","","","","-38","","Snow,Blowing Snow"
"-92.11","62.81","RANKIN INLET A","2303405","2018-01-12 13:00","2018","01","12","13:00","-21.5","","-24.1","","80","","","","34","","50","","0.2","","99.93","","","","-37","","Snow,Blowing Snow"
"-92.11","62.81","RANKIN INLET A","2303405","2018-01-12 14:00","2018","01","12","14:00","-21.2","","-23.7","","81","","","","34","","58","","0.2","","99.98","","","","-38","","Snow,Blowing Snow"
"-92.11","62.81","RANKIN INLET A","2303405","2018-01-12 15:00","2018","01","12","15:00","-21.0","","-23.5","","81","","","","33","","55","","0.2","","100.07","","","","-37","","Snow,Blowing Snow"
"-92.11","62.81","RANKIN INLET A","2303405","2018-01-12 16:00","2018","01","12","16:00","-21.3","","-23.9","","81","","","","33","","56","","0.4","","100.17","","","","-38","","Snow,Blowing Snow"
"-92.11","62.81","RANKIN INLET A","2303405","2018-01-12 17:00","2018","01","12","17:00","-21.5","","-24.0","","81","","","","33","","55","","0.4","","100.25","","","","-38","","Snow,Blowing Snow"
"-92.11","62.81","RANKIN INLET A","2303405","2018-01-12 18:00","2018","01","12","18:00","-21.4","","-23.9","","81","","","","33","","50","","0.4","","100.32","","","","-37","","Snow,Blowing Snow"
"-92.11","62.81","RANKIN INLET A","2303405","2018-01-12 19:00","2018","01","12","19:00","-22.4","","-25.0","","80","","","","33","","49","","0.4","","100.38","","","","-39","","Snow,Blowing Snow"
"-92.11","62.81","RANKIN INLET A","2303405","2018-01-12 20:00","2018","01","12","20:00","-23.9","","-26.6","","78","","","","32","","44","","0.6","","100.46","","","","-40","","Snow,Blowing Snow"
"-92.11","62.81","RANKIN INLET A","2303405","2018-01-12 21:00","2018","01","12","21:00","-24.9","","-27.7","","78","","","","33","","46","","0.6","","100.52","","","","-42","","Snow,Blowing Snow"
"-92.11","62.81","RANKIN INLET A","2303405","2018-01-12 22:00","2018","01","12","22:00","-25.6","","-28.5","","77","","","","33","","43","","0.6","","100.57","","","","-42","","Snow,Blowing Snow"
"-92.11","62.81","RANKIN INLET A","2303405","2018-01-12 23:00","2018","01","12","23:00","-26.1","","-29.0","","77","","","","32","","41","","0.8","","100.64","","","","-42","","Snow,Blowing Snow"
"-92.11","62.81","RANKIN INLET A","2303405","2018-01-13 00:00","2018","01","13","00:00","-26.4","","-29.4","","77","","","","31","","39","","1.2","","100.66","","","","-43","","Snow,Blowing Snow"
"-92.11","62.81","RANKIN INLET A","2303405","2018-01-13 01:00","2018","01","13","01:00","-26.4","","-29.3","","77","","","","31","","42","","1.2","","100.70","","","","-43","","Snow,Blowing Snow"
"-92.11","62.81","RANKIN INLET A","2303405","2018-01-13 02:00","2018","01","13","02:00","-26.6","","-29.5","","77","","","","27","","17","","3.2","","100.77","","","","-38","","Ice Crystals,Blowing Snow"
"-92.11","62.81","RANKIN INLET A","2303405","2018-01-13 03:00","2018","01","13","03:00","-26.0","","-28.9","","77","","","","28","","23","","4.8","","100.79","","","","-39","","Snow,Blowing Snow"
"-92.11","62.81","RANKIN INLET A","2303405","2018-01-13 04:00","2018","01","13","04:00","-26.1","","-29.0","","77","","","","29","","30","","4.8","","100.76","","","","-41","","Snow,Blowing Snow"
"-92.11","62.81","RANKIN INLET A","2303405","2018-01-13 05:00","2018","01","13","05:00","-25.9","","-28.8","","77","","","","28","","27","","6.4","","100.77","","","","-40","","Ice Crystals,Blowing Snow"
"-92.11","62.81","RANKIN INLET A","2303405","2018-01-13 06:00","2018","01","13","06:00","-26.2","","-29.1","","77","","","","29","","32","","8.1","","100.76","","","","-41","","Ice Crystals,Blowing Snow"
"-92.11","62.81","RANKIN INLET A","2303405","2018-01-13 07:00","2018","01","13","07:00","-26.4","","-29.3","","77","","","","28","","30","","12.9","","100.71","","","","-41","","Ice Crystals,Blowing Snow"
"-92.11","62.81","RANKIN INLET A","2303405","2018-01-13 08:00","2018","01","13","08:00","-26.9","","-29.9","","76","","","","29","","32","","9.7","","100.72","","","","-42","","Ice Crystals,Blowing Snow"
"-92.11","62.81","RANKIN INLET A","2303405","2018-01-13 09:00","2018","01","13","09:00","-27.3","","-30.3","","76","","","","29","","34","","16.1","","100.69","","","","-43","","Ice Crystals,Blowing Snow"
"-92.11","62.81","RANKIN INLET A","2303405","2018-01-13 10:00","2018","01","13","10:00","-27.0","","-30.0","","76","","","","29","","23","","12.9","","100.75","","","","-40","","Ice Crystals,Blowing Snow"
"-92.11","62.81","RANKIN INLET A","2303405","2018-01-13 11:00","2018","01","13","11:00","-27.0","","-29.9","","76","","","","29","","26","","16.1","","100.75","","","","-41","","Ice Crystals,Blowing Snow"
"-92.11","62.81","RANKIN INLET A","2303405","2018-01-13 12:00","2018","01","13","12:00","-26.9","","-29.9","","76","","","","28","","17","","16.1","","100.79","","","","-38","","Ice Crystals"
"-92.11","62.81","RANKIN INLET A","2303405","2018-01-13 13:00","2018","01","13","13:00","-26.9","","-29.9","","76","","","","28","","18","","24.1","","100.79","","","","-39","","Ice Crystals"
"-92.11","62.81","RANKIN INLET A","2303405","2018-01-13 14:00","2018","01","13","14:00","-27.5","","-30.6","","76","","","","29","","23","","24.1","","100.83","","","","-41","","Ice Crystals"
"-92.11","62.81","RANKIN INLET A","2303405","2018-01-13 15:00","2018","01","13","15:00","-28.1","","-31.1","","75","","","","29","","26","","24.1","","100.86","","","","-42","","Ice Crystals,Blowing Snow"
"-92.11","62.81","RANKIN INLET A","2303405","2018-01-13 16:00","2018","01","13","16:00","-28.3","","-31.4","","75","","","","29","","25","","24.1","","100.84","","","","-42","","Ice Crystals,Blowing Snow"
"-92.11","62.81","RANKIN INLET A","2303405","2018-01-13 17:00","2018","01","13","17:00","-27.9","","-31.0","","76","","","","30","","22","","24.1","","100.89","","","","-41","","Ice Crystals,Blowing Snow"
"-92.11","62.81","RANKIN INLET A","2303405","2018-01-13 18:00","2018","01","13","18:00","-28.0","","-31.1","","75","","","","28","","20","","24.1","","100.92","","","","-41","","Ice Crystals,Blowing Snow"
"-92.11","62.81","RANKIN INLET A","2303405","2018-01-13 19:00","2018","01","13","19:00","-28.6","","-31.7","","75","","","","28","","25","","24.1","","100.89","","","","-43","","Ice Crystals,Blowing Snow"
"-92.11","62.81","RANKIN INLET A","2303405","2018-01-13 20:00","2018","01","13","20:00","-29.0","","-32.1","","75","","","","30","","24","","24.1","","100.92","","","","-43","","Ice Crystals,Blowing Snow"
"-92.11","62.81","RANKIN INLET A","2303405","2018-01-13 21:00","2018","01","13","21:00","-29.1","","-32.2","","75","","","","30","","10","","24.1","","100.95","","","","-38","","Ice Crystals"
"-92.11","62.81","RANKIN INLET A","2303405","2018-01-13 22:00","2018","01","13","22:00","-29.6","","-32.9","","74","","","","32","","13","","24.1","","101.00","","","","-40","","Ice Crystals"
"-92.11","62.81","RANKIN INLET A","2303405","2018-01-13 23:00","2018","01","13","23:00","-29.7","","-32.9","","74","","","","31","","17","","24.1","","101.02","","","","-42","","Ice Crystals"
"-92.11","62.81","RANKIN INLET A","2303405","2018-01-14 00:00","2018","01","14","00:00","-30.0","","-33.2","","74","","","","33","","20","","24.1","","101.09","","","","-43","","Ice Crystals"
"-92.11","62.81","RANKIN INLET A","2303405","2018-01-14 01:00","2018","01","14","01:00","-30.3","","-33.5","","74","","","","32","","15","","24.1","","101.17","","","","-42","","Ice Crystals"
"-92.11","62.81","RANKIN INLET A","2303405","2018-01-14 02:00","2018","01","14","02:00","-30.5","","-33.7","","74","","","","32","","17","","24.1","","101.20","","","","-43","","Ice Crystals"
"-92.11","62.81","RANKIN INLET A","2303405","2018-01-14 03:00","2018","01","14","03:00","-31.4","","-34.7","","73","","","","31","","20","","24.1","","101.28","","","","-45","","Ice Crystals"
"-92.11","62.81","RANKIN INLET A","2303405","2018-01-14 04:00","2018","01","14","04:00","-31.6","","-35.0","","73","","","","35","","23","","24.1","","101.35","","","","-46","","Ice Crystals"
"-92.11","62.81","RANKIN INLET A","2303405","2018-01-14 05:00","2018","01","14","05:00","-31.8","","-35.2","","73","","","","34","","20","","24.1","","101.45","","","","-45","","Ice Crystals"
"-92.11","62.81","RANKIN INLET A","2303405","2018-01-14 06:00","2018","01","14","06:00","-32.5","","-35.9","","72","","","","34","","23","","24.1","","101.53","","","","-47","","Ice Crystals"
"-92.11","62.81","RANKIN INLET A","2303405","2018-01-14 07:00","2018","01","14","07:00","-32.8","","-36.2","","72","","","","34","","21","","24.1","","101.63","","","","-47","","Ice Crystals"
"-92.11","62.81","RANKIN INLET A","2303405","2018-01-14 08:00","2018","01","14","08:00","-32.9","","-36.3","","72","","","","33","","16","","24.1","","101.73","","","","-45","","Ice Crystals"
"-92.11","62.81","RANKIN INLET A","2303405","2018-01-14 09:00","2018","01","14","09:00","-32.9","","-36.3","","72","","","","34","","20","","24.1","","101.81","","","","-47","","Ice Crystals"
"-92.11","62.81","RANKIN INLET A","2303405","2018-01-14 10:00","2018","01","14","10:00","-32.9","","-36.4","","72","","","","34","","26","","16.1","","101.90","","","","-48","","Ice Crystals"
"-92.11","62.81","RANKIN INLET A","2303405","2018-01-14 11:00","2018","01","14","11:00","-32.9","","-36.4","","72","","","","33","","18","","16.1","","102.00","","","","-46","","Ice Crystals"
"-92.11","62.81","RANKIN INLET A","2303405","2018-01-14 12:00","2018","01","14","12:00","-32.7","","-36.2","","72","","","","34","","28","","16.1","","102.07","","","","-49","","Ice Crystals,Blowing Snow"
"-92.11","62.81","RANKIN INLET A","2303405","2018-01-14 13:00","2018","01","14","13:00","-32.6","","-36.1","","72","","","","34","","33","","12.9","","102.15","","","","-50","","Ice Crystals,Blowing Snow"
"-92.11","62.81","RANKIN INLET A","2303405","2018-01-14 14:00","2018","01","14","14:00","-32.6","","-36.1","","72","","","","32","","30","","16.1","","102.22","","","","-49","","Ice Crystals,Blowing Snow"
"-92.11","62.81","RANKIN INLET A","2303405","2018-01-14 15:00","2018","01","14","15:00","-32.5","","-35.9","","72","","","","34","","28","","16.1","","102.25","","","","-48","","Ice Crystals,Blowing Snow"
"-92.11","62.81","RANKIN INLET A","2303405","2018-01-14 16:00","2018","01","14","16:00","-32.5","","-35.9","","72","","","","33","","33","","6.4","","102.34","","","","-50","","Ice Crystals,Blowing Snow"
"-92.11","62.81","RANKIN INLET A","2303405","2018-01-14 17:00","2018","01","14","17:00","-32.5","","-35.9","","72","","","","32","","27","","9.7","","102.44","","","","-48","","Ice Crystals,Blowing Snow"
"-92.11","62.81","RANKIN INLET A","2303405","2018-01-14 18:00","2018","01","14","18:00","-32.5","","-35.9","","72","","","","32","","31","","4.8","","102.46","","","","-49","","Ice Crystals,Blowing Snow"
"-92.11","62.81","RANKIN INLET A","2303405","2018-01-14 19:00","2018","01","14","19:00","-32.3","","-35.7","","72","","","","32","","35","","4.8","","102.52","","","","-50","","Ice Crystals,Blowing Snow"
"-92.11","62.81","RANKIN INLET A","2303405","2018-01-14 20:00","2018","01","14","20:00","-32.1","","-35.6","","72","","","","30","","26","","8.1","","102.52","","","","-47","","Ice Crystals,Blowing Snow"
"-92.11","62.81","RANKIN INLET A","2303405","2018-01-14 21:00","2018","01","14","21:00","-31.9","","-35.2","","73","","","","32","","37","","8.1","","102.53","","","","-50","","Ice Crystals,Blowing Snow"
"-92.11","62.81","RANKIN INLET A","2303405","2018-01-14 22:00","2018","01","14","22:00","-31.5","","-34.9","","73","","","","31","","34","","4.8","","102.48","","","","-48","","Ice Crystals,Blowing Snow"
"-92.11","62.81","RANKIN INLET A","2303405","2018-01-14 23:00","2018","01","14","23:00","-31.3","","-34.7","","73","","","","31","","33","","4.8","","102.44","","","","-48","","Ice Crystals,Blowing Snow"
"-92.11","62.81","RANKIN INLET A","2303405","2018-01-15 00:00","2018","01","15","00:00","-29.7","","-32.9","","74","","","","31","","30","","2.4","","102.44","","","","-45","","Ice Crystals,Blowing Snow"
"-92.11","62.81","RANKIN INLET A","2303405","2018-01-15 01:00","2018","01","15","01:00","-29.6","","-32.9","","74","","","","31","","40","","2.4","","102.45","","","","-47","","Ice Crystals,Blowing Snow"
"-92.11","62.81","RANKIN INLET A","2303405","2018-01-15 02:00","2018","01","15","02:00","-29.5","","-32.8","","74","","","","32","","41","","2.4","","102.51","","","","-47","","Ice Crystals,Blowing Snow"
"-92.11","62.81","RANKIN INLET A","2303405","2018-01-15 03:00","2018","01","15","03:00","-29.1","","-32.3","","74","","","","34","","34","","1.6","","102.47","","","","-45","","Fog,Blowing Snow"
"-92.11","62.81","RANKIN INLET A","2303405","2018-01-15 04:00","2018","01","15","04:00","-28.5","","-31.6","","75","","","","32","","35","","1.6","","102.46","","","","-45","","Blowing Snow"
"-92.11","62.81","RANKIN INLET A","2303405","2018-01-15 05:00","2018","01","15","05:00","-28.0","","-31.1","","75","","","","32","","37","","3.2","","102.49","","","","-44","","Ice Crystals,Blowing Snow"
"-92.11","62.81","RANKIN INLET A","2303405","2018-01-15 06:00","2018","01","15","06:00","-27.9","","-31.0","","75","","","","32","","37","","4.0","","102.49","","","","-44","","Ice Crystals,Blowing Snow"
"-92.11","62.81","RANKIN INLET A","2303405","2018-01-15 07:00","2018","01","15","07:00","-27.5","","-30.5","","76","","","","33","","42","","4.0","","102.42","","","","-44","","Ice Crystals,Blowing Snow"
"-92.11","62.81","RANKIN INLET A","2303405","2018-01-15 08:00","2018","01","15","08:00","-26.7","","-29.7","","76","","","","33","","42","","4.0","","102.37","","","","-43","","Ice Crystals,Blowing Snow"
"-92.11","62.81","RANKIN INLET A","2303405","2018-01-15 09:00","2018","01","15","09:00","-26.3","","-29.2","","77","","","","32","","37","","6.4","","102.39","","","","-42","","Ice Crystals,Blowing Snow"
"-92.11","62.81","RANKIN INLET A","2303405","2018-01-15 10:00","2018","01","15","10:00","-25.7","","-28.6","","77","","","","33","","24","","16.1","","102.46","","","","-39","","Ice Crystals,Blowing Snow"
"-92.11","62.81","RANKIN INLET A","2303405","2018-01-15 11:00","2018","01","15","11:00","-25.2","","-28.1","","77","","","","32","","30","","24.1","","102.36","","","","-39","","Ice Crystals,Blowing Snow"
"-92.11","62.81","RANKIN INLET A","2303405","2018-01-15 12:00","2018","01","15","12:00","-24.6","","-27.5","","78","","","","30","","22","","24.1","","102.28","","","","-37","","Ice Crystals,Blowing Snow"
"-92.11","62.81","RANKIN INLET A","2303405","2018-01-15 13:00","2018","01","15","13:00","-23.8","","-26.5","","79","","","","31","","25","","24.1","","102.21","","","","-36","","Ice Crystals,Blowing Snow"
"-92.11","62.81","RANKIN INLET A","2303405","2018-01-15 14:00","2018","01","15","14:00","-23.1","","-25.7","","79","","","","29","","5","","24.1","","102.13","","","","-28","","NA"
"-92.11","62.81","RANKIN INLET A","2303405","2018-01-15 15:00","2018","01","15","15:00","-22.5","","-25.2","","80","","","","23","","8","","24.1","","102.02","","","","-29","","Cloudy"
"-92.11","62.81","RANKIN INLET A","2303405","2018-01-15 16:00","2018","01","15","16:00","-22.0","","-24.6","","80","","","","21","","16","","24.1","","101.97","","","","-32","","NA"
"-92.11","62.81","RANKIN INLET A","2303405","2018-01-15 17:00","2018","01","15","17:00","-21.5","","-24.0","","80","","","","20","","12","","6.4","","101.84","","","","-30","","Snow"
"-92.11","62.81","RANKIN INLET A","2303405","2018-01-15 18:00","2018","01","15","18:00","-20.9","","-23.4","","81","","","","18","","21","","4.8","","101.63","","","","-32","","Snow"
"-92.11","62.81","RANKIN INLET A","2303405","2018-01-15 19:00","2018","01","15","19:00","-20.0","","-22.3","","82","","","","17","","21","","4.8","","101.44","","","","-31","","Snow"
"-92.11","62.81","RANKIN INLET A","2303405","2018-01-15 20:00","2018","01","15","20:00","-18.3","","-20.5","","83","","","","19","","19","","4.8","","101.26","","","","-28","","Snow"
"-92.11","62.81","RANKIN INLET A","2303405","2018-01-15 21:00","2018","01","15","21:00","-16.8","","-18.8","","85","","","","19","","14","","4.8","","101.17","","","","-25","","Snow"
"-92.11","62.81","RANKIN INLET A","2303405","2018-01-15 22:00","2018","01","15","22:00","-15.8","","-17.7","","85","","","","16","","23","","6.4","","100.96","","","","-26","","Snow"
"-92.11","62.81","RANKIN INLET A","2303405","2018-01-15 23:00","2018","01","15","23:00","-17.4","","-19.6","","84","","","","21","","28","","8.1","","100.83","","","","-29","","Snow"
"-92.11","62.81","RANKIN INLET A","2303405","2018-01-16 00:00","2018","01","16","00:00","-18.1","","-20.2","","83","","","","21","","19","","16.1","","100.73","","","","-28","","Mostly Cloudy"
"-92.11","62.81","RANKIN INLET A","2303405","2018-01-16 01:00","2018","01","16","01:00","-18.0","","-20.1","","84","","","","18","","14","","16.1","","100.68","","","","-26","","NA"
"-92.11","62.81","RANKIN INLET A","2303405","2018-01-16 02:00","2018","01","16","02:00","-17.6","","-19.7","","84","","","","18","","14","","24.1","","100.58","","","","-26","","NA"
"-92.11","62.81","RANKIN INLET A","2303405","2018-01-16 03:00","2018","01","16","03:00","-17.3","","-19.4","","84","","","","16","","13","","24.1","","100.49","","","","-25","","Mainly Clear"
"-92.11","62.81","RANKIN INLET A","2303405","2018-01-16 04:00","2018","01","16","04:00","-17.2","","-19.2","","84","","","","17","","12","","24.1","","100.42","","","","-25","","NA"
"-92.11","62.81","RANKIN INLET A","2303405","2018-01-16 05:00","2018","01","16","05:00","-17.1","","-19.2","","84","","","","14","","8","","24.1","","100.38","","","","-23","","NA"
"-92.11","62.81","RANKIN INLET A","2303405","2018-01-16 06:00","2018","01","16","06:00","-17.0","","-19.0","","85","","","","10","","5","","24.1","","100.29","","","","-21","","Mostly Cloudy"
"-92.11","62.81","RANKIN INLET A","2303405","2018-01-16 07:00","2018","01","16","07:00","-16.8","","-18.8","","85","","","","9","","10","","24.1","","100.23","","","","-23","","NA"
"-92.11","62.81","RANKIN INLET A","2303405","2018-01-16 08:00","2018","01","16","08:00","-16.1","","-18.0","","85","","","","5","","6","","16.1","","100.15","","","","-21","","Snow"
"-92.11","62.81","RANKIN INLET A","2303405","2018-01-16 09:00","2018","01","16","09:00","-16.1","","-18.1","","85","","","","36","","2","","16.1","","100.07","","","","-18","","Snow"
"-92.11","62.81","RANKIN INLET A","2303405","2018-01-16 10:00","2018","01","16","10:00","-15.9","","-17.9","","85","","","","2","","7","","16.1","","100.07","","","","-21","","Snow"
"-92.11","62.81","RANKIN INLET A","2303405","2018-01-16 11:00","2018","01","16","11:00","-14.1","","-15.8","","87","","","","8","","17","","3.2","","100.09","","","","-22","","Snow"
"-92.11","62.81","RANKIN INLET A","2303405","2018-01-16 12:00","2018","01","16","12:00","-14.6","","-16.3","","87","","","","8","","16","","4.0","","100.08","","","","-23","","Snow"
"-92.11","62.81","RANKIN INLET A","2303405","2018-01-16 13:00","2018","01","16","13:00","-15.2","","-17.0","","86","","","","8","","20","","9.7","","100.06","","","","-24","","Snow"
"-92.11","62.81","RANKIN INLET A","2303405","2018-01-16 14:00","2018","01","16","14:00","-16.0","","-17.9","","86","","","","8","","20","","16.1","","100.10","","","","-25","","Snow"
"-92.11","62.81","RANKIN INLET A","2303405","2018-01-16 15:00","2018","01","16","15:00","-16.0","","-17.9","","86","","","","7","","17","","16.1","","100.20","","","","-25","","Snow"
"-92.11","62.81","RANKIN INLET A","2303405","2018-01-16 16:00","2018","01","16","16:00","-16.2","","-18.1","","85","","","","7","","20","","9.7","","100.27","","","","-26","","Snow"
"-92.11","62.81","RANKIN INLET A","2303405","2018-01-16 17:00","2018","01","16","17:00","-16.4","","-18.3","","85","","","","7","","17","","9.7","","100.34","","","","-25","","Snow"
"-92.11","62.81","RANKIN INLET A","2303405","2018-01-16 18:00","2018","01","16","18:00","-16.9","","-18.9","","85","","","","7","","21","","24.1","","100.45","","","","-27","","Snow"
"-92.11","62.81","RANKIN INLET A","2303405","2018-01-16 19:00","2018","01","16","19:00","-19.2","","-21.4","","83","","","","6","","17","","24.1","","100.51","","","","-29","","NA"
"-92.11","62.81","RANKIN INLET A","2303405","2018-01-16 20:00","2018","01","16","20:00","-20.0","","-22.2","","83","","","","5","","20","","24.1","","100.56","","","","-30","","NA"
"-92.11","62.81","RANKIN INLET A","2303405","2018-01-16 21:00","2018","01","16","21:00","-20.2","","-22.4","","83","","","","6","","16","","24.1","","100.62","","","","-30","","Mostly Cloudy"
"-92.11","62.81","RANKIN INLET A","2303405","2018-01-16 22:00","2018","01","16","22:00","-19.5","","-21.7","","83","","","","6","","15","","16.1","","100.65","","","","-28","","NA"
"-92.11","62.81","RANKIN INLET A","2303405","2018-01-16 23:00","2018","01","16","23:00","-20.8","","-23.3","","81","","","","5","","13","","16.1","","100.70","","","","-29","","NA"
"-92.11","62.81","RANKIN INLET A","2303405","2018-01-17 00:00","2018","01","17","00:00","-23.3","","-25.9","","80","","","","3","","14","","24.1","","100.80","","","","-33","","Mainly Clear"
"-92.11","62.81","RANKIN INLET A","2303405","2018-01-17 01:00","2018","01","17","01:00","-23.6","","-26.2","","80","","","","5","","17","","24.1","","100.84","","","","-34","","NA"
"-92.11","62.81","RANKIN INLET A","2303405","2018-01-17 02:00","2018","01","17","02:00","-25.1","","-27.9","","78","","","","3","","11","","24.1","","100.92","","","","-34","","NA"
"-92.11","62.81","RANKIN INLET A","2303405","2018-01-17 03:00","2018","01","17","03:00","-25.0","","-27.8","","78","","","","3","","13","","24.1","","100.98","","","","-34","","Mainly Clear"
"-92.11","62.81","RANKIN INLET A","2303405","2018-01-17 04:00","2018","01","17","04:00","-24.8","","-27.5","","79","","","","1","","11","","24.1","","101.06","","","","-33","","NA"
"-92.11","62.81","RANKIN INLET A","2303405","2018-01-17 05:00","2018","01","17","05:00","-26.0","","-28.8","","78","","","","36","","8","","24.1","","101.10","","","","-33","","NA"
"-92.11","62.81","RANKIN INLET A","2303405","2018-01-17 06:00","2018","01","17","06:00","-25.7","","-28.6","","78","","","","1","","7","","24.1","","101.10","","","","-32","","Mainly Clear"
"-92.11","62.81","RANKIN INLET A","2303405","2018-01-17 07:00","2018","01","17","07:00","-24.4","","-27.1","","79","","","","36","","8","","24.1","","101.10","","","","-31","","NA"
"-92.11","62.81","RANKIN INLET A","2303405","2018-01-17 08:00","2018","01","17","08:00","-24.6","","-27.3","","78","","","","34","","9","","24.1","","101.09","","","","-32","","NA"
"-92.11","62.81","RANKIN INLET A","2303405","2018-01-17 09:00","2018","01","17","09:00","-24.9","","-27.6","","78","","","","35","","10","","24.1","","101.06","","","","-33","","Mostly Cloudy"
"-92.11","62.81","RANKIN INLET A","2303405","2018-01-17 10:00","2018","01","17","10:00","-25.5","","-28.3","","78","","","","32","","14","","24.1","","101.04","","","","-35","","NA"
"-92.11","62.81","RANKIN INLET A","2303405","2018-01-17 11:00","2018","01","17","11:00","-24.4","","-27.1","","78","","","","34","","14","","16.1","","101.06","","","","-34","","Snow"
"-92.11","62.81","RANKIN INLET A","2303405","2018-01-17 12:00","2018","01","17","12:00","-23.7","","-26.4","","79","","","","34","","21","","16.1","","101.07","","","","-35","","Snow"
"-92.11","62.81","RANKIN INLET A","2303405","2018-01-17 13:00","2018","01","17","13:00","-22.8","","-25.4","","80","","","","35","","9","","3.2","","100.98","","","","-30","","Snow"
"-92.11","62.81","RANKIN INLET A","2303405","2018-01-17 14:00","2018","01","17","14:00","-22.3","","-24.9","","80","","","","36","","14","","3.2","","101.00","","","","-32","","Snow"
"-92.11","62.81","RANKIN INLET A","2303405","2018-01-17 15:00","2018","01","17","15:00","-22.0","","-24.6","","80","","","","32","","10","","3.2","","100.96","","","","-30","","Snow"
"-92.11","62.81","RANKIN INLET A","2303405","2018-01-17 16:00","2018","01","17","16:00","-21.8","","-24.3","","81","","","","32","","15","","3.2","","100.95","","","","-31","","Snow"
"-92.11","62.81","RANKIN INLET A","2303405","2018-01-17 17:00","2018","01","17","17:00","-21.9","","-24.4","","80","","","","31","","14","","4.0","","100.93","","","","-31","","Snow"
"-92.11","62.81","RANKIN INLET A","2303405","2018-01-17 18:00","2018","01","17","18:00","-22.0","","-24.6","","80","","","","29","","16","","4.0","","100.89","","","","-32","","Snow"
"-92.11","62.81","RANKIN INLET A","2303405","2018-01-17 19:00","2018","01","17","19:00","-21.5","","-24.0","","81","","","","31","","16","","3.2","","100.85","","","","-31","","Snow"
"-92.11","62.81","RANKIN INLET A","2303405","2018-01-17 20:00","2018","01","17","20:00","-21.7","","-24.2","","81","","","","30","","13","","4.0","","100.84","","","","-30","","Snow"
"-92.11","62.81","RANKIN INLET A","2303405","2018-01-17 21:00","2018","01","17","21:00","-22.8","","-25.4","","79","","","","30","","15","","16.1","","100.77","","","","-33","","Snow"
"-92.11","62.81","RANKIN INLET A","2303405","2018-01-17 22:00","2018","01","17","22:00","-24.0","","-26.8","","79","","","","29","","15","","16.1","","100.73","","","","-34","","Snow"
"-92.11","62.81","RANKIN INLET A","2303405","2018-01-17 23:00","2018","01","17","23:00","-26.7","","-29.6","","77","","","","34","","17","","24.1","","100.68","","","","-38","","Snow"
"-92.11","62.81","RANKIN INLET A","2303405","2018-01-18 00:00","2018","01","18","00:00","-26.6","","-29.4","","77","","","","34","","16","","24.1","","100.67","","","","-38","","Clear"
"-92.11","62.81","RANKIN INLET A","2303405","2018-01-18 01:00","2018","01","18","01:00","-28.7","","-31.8","","75","","","","35","","13","","24.1","","100.66","","","","-39","","NA"
"-92.11","62.81","RANKIN INLET A","2303405","2018-01-18 02:00","2018","01","18","02:00","-27.9","","-30.9","","76","","","","2","","9","","24.1","","100.66","","","","-36","","NA"
"-92.11","62.81","RANKIN INLET A","2303405","2018-01-18 03:00","2018","01","18","03:00","-28.1","","-31.2","","76","","","","33","","10","","24.1","","100.63","","","","-37","","Clear"
"-92.11","62.81","RANKIN INLET A","2303405","2018-01-18 04:00","2018","01","18","04:00","-30.4","","-33.6","","74","","","","35","","13","","24.1","","100.64","","","","-41","","NA"
"-92.11","62.81","RANKIN INLET A","2303405","2018-01-18 05:00","2018","01","18","05:00","-30.4","","-33.6","","74","","","","36","","13","","24.1","","100.62","","","","-41","","NA"
"-92.11","62.81","RANKIN INLET A","2303405","2018-01-18 06:00","2018","01","18","06:00","-30.1","","-33.3","","74","","","","36","","11","","24.1","","100.63","","","","-40","","Mainly Clear"
"-92.11","62.81","RANKIN INLET A","2303405","2018-01-18 07:00","2018","01","18","07:00","-28.3","","-31.3","","76","","","","36","","12","","12.9","","100.60","","","","-38","","Snow"
"-92.11","62.81","RANKIN INLET A","2303405","2018-01-18 08:00","2018","01","18","08:00","-27.5","","-30.5","","76","","","","3","","9","","9.7","","100.60","","","","-36","","Snow,Fog"
"-92.11","62.81","RANKIN INLET A","2303405","2018-01-18 09:00","2018","01","18","09:00","-27.1","","-30.1","","76","","","","4","","7","","19.3","","100.57","","","","-34","","Ice Crystals"
"-92.11","62.81","RANKIN INLET A","2303405","2018-01-18 10:00","2018","01","18","10:00","-25.6","","-28.4","","78","","","","6","","8","","12.9","","100.59","","","","-33","","Ice Crystals"
"-92.11","62.81","RANKIN INLET A","2303405","2018-01-18 11:00","2018","01","18","11:00","-23.9","","-26.6","","79","","","","4","","8","","12.9","","100.60","","","","-31","","Ice Crystals"
"-92.11","62.81","RANKIN INLET A","2303405","2018-01-18 12:00","2018","01","18","12:00","-22.4","","-24.9","","80","","","","3","","10","","9.7","","100.61","","","","-30","","Ice Crystals"
"-92.11","62.81","RANKIN INLET A","2303405","2018-01-18 13:00","2018","01","18","13:00","-21.6","","-24.1","","80","","","","7","","13","","12.9","","100.57","","","","-30","","Ice Crystals"
"-92.11","62.81","RANKIN INLET A","2303405","2018-01-18 14:00","2018","01","18","14:00","-21.7","","-24.2","","80","","","","8","","17","","12.9","","100.61","","","","-32","","Ice Crystals"
"-92.11","62.81","RANKIN INLET A","2303405","2018-01-18 15:00","2018","01","18","15:00","-21.7","","-24.2","","80","","","","8","","16","","9.7","","100.64","","","","-31","","Ice Crystals"
"-92.11","62.81","RANKIN INLET A","2303405","2018-01-18 16:00","2018","01","18","16:00","-21.7","","-24.2","","80","","","","8","","19","","12.9","","100.66","","","","-32","","Ice Crystals"
"-92.11","62.81","RANKIN INLET A","2303405","2018-01-18 17:00","2018","01","18","17:00","-21.9","","-24.4","","80","","","","9","","15","","12.9","","100.66","","","","-31","","Ice Crystals"
"-92.11","62.81","RANKIN INLET A","2303405","2018-01-18 18:00","2018","01","18","18:00","-21.9","","-24.4","","80","","","","9","","17","","12.9","","100.68","","","","-32","","Ice Crystals"
"-92.11","62.81","RANKIN INLET A","2303405","2018-01-18 19:00","2018","01","18","19:00","-22.1","","-24.7","","80","","","","8","","18","","12.9","","100.67","","","","-33","","Ice Crystals"
"-92.11","62.81","RANKIN INLET A","2303405","2018-01-18 20:00","2018","01","18","20:00","-22.4","","-24.9","","80","","","","7","","17","","12.9","","100.69","","","","-33","","Ice Crystals"
"-92.11","62.81","RANKIN INLET A","2303405","2018-01-18 21:00","2018","01","18","21:00","-22.7","","-25.3","","80","","","","8","","15","","16.1","","100.65","","","","-32","","Ice Crystals"
"-92.11","62.81","RANKIN INLET A","2303405","2018-01-18 22:00","2018","01","18","22:00","-22.8","","-25.4","","80","","","","8","","16","","16.1","","100.67","","","","-33","","Ice Crystals"
"-92.11","62.81","RANKIN INLET A","2303405","2018-01-18 23:00","2018","01","18","23:00","-22.8","","-25.4","","80","","","","8","","16","","12.9","","100.66","","","","-33","","Snow"
"-92.11","62.81","RANKIN INLET A","2303405","2018-01-19 00:00","2018","01","19","00:00","-22.9","","-25.5","","80","","","","7","","14","","12.9","","100.67","","","","-32","","Snow"
"-92.11","62.81","RANKIN INLET A","2303405","2018-01-19 01:00","2018","01","19","01:00","-22.9","","-25.5","","80","","","","8","","20","","12.9","","100.70","","","","-34","","Snow"
"-92.11","62.81","RANKIN INLET A","2303405","2018-01-19 02:00","2018","01","19","02:00","-23.3","","-25.9","","79","","","","8","","20","","12.9","","100.68","","","","-35","","Snow"
"-92.11","62.81","RANKIN INLET A","2303405","2018-01-19 03:00","2018","01","19","03:00","-23.6","","-26.2","","79","","","","7","","16","","12.9","","100.71","","","","-34","","Snow"
"-92.11","62.81","RANKIN INLET A","2303405","2018-01-19 04:00","2018","01","19","04:00","-23.4","","-26.1","","79","","","","9","","15","","12.9","","100.74","","","","-33","","Snow"
"-92.11","62.81","RANKIN INLET A","2303405","2018-01-19 05:00","2018","01","19","05:00","-23.4","","-26.0","","79","","","","7","","17","","12.9","","100.71","","","","-34","","Snow"
"-92.11","62.81","RANKIN INLET A","2303405","2018-01-19 06:00","2018","01","19","06:00","-23.3","","-25.9","","79","","","","7","","18","","16.1","","100.71","","","","-34","","Snow"
"-92.11","62.81","RANKIN INLET A","2303405","2018-01-19 07:00","2018","01","19","07:00","-23.3","","-26.0","","79","","","","8","","19","","16.1","","100.71","","","","-34","","Snow"
"-92.11","62.81","RANKIN INLET A","2303405","2018-01-19 08:00","2018","01","19","08:00","-23.3","","-25.9","","79","","","","7","","16","","12.9","","100.76","","","","-33","","Snow"
"-92.11","62.81","RANKIN INLET A","2303405","2018-01-19 09:00","2018","01","19","09:00","-23.1","","-25.7","","80","","","","7","","18","","8.1","","100.77","","","","-34","","Snow"
"-92.11","62.81","RANKIN INLET A","2303405","2018-01-19 10:00","2018","01","19","10:00","-22.9","","-25.5","","80","","","","7","","13","","9.7","","100.80","","","","-32","","Snow"
"-92.11","62.81","RANKIN INLET A","2303405","2018-01-19 11:00","2018","01","19","11:00","-22.8","","-25.4","","80","","","","5","","15","","12.9","","100.80","","","","-33","","Snow"
"-92.11","62.81","RANKIN INLET A","2303405","2018-01-19 12:00","2018","01","19","12:00","-23.5","","-26.2","","79","","","","4","","26","","16.1","","100.81","","","","-36","","Snow"
"-92.11","62.81","RANKIN INLET A","2303405","2018-01-19 13:00","2018","01","19","13:00","-23.9","","-26.6","","79","","","","3","","20","","16.1","","100.83","","","","-35","","Ice Crystals"
"-92.11","62.81","RANKIN INLET A","2303405","2018-01-19 14:00","2018","01","19","14:00","-26.2","","-29.1","","77","","","","1","","23","","19.3","","100.87","","","","-39","","Ice Crystals"
"-92.11","62.81","RANKIN INLET A","2303405","2018-01-19 15:00","2018","01","19","15:00","-29.4","","-32.5","","75","","","","3","","16","","19.3","","100.91","","","","-41","","Ice Crystals"
"-92.11","62.81","RANKIN INLET A","2303405","2018-01-19 16:00","2018","01","19","16:00","-31.0","","-34.2","","74","","","","1","","15","","19.3","","100.94","","","","-43","","Ice Crystals"
"-92.11","62.81","RANKIN INLET A","2303405","2018-01-19 17:00","2018","01","19","17:00","-31.4","","-34.7","","73","","","","3","","18","","24.1","","101.00","","","","-44","","Ice Crystals"
"-92.11","62.81","RANKIN INLET A","2303405","2018-01-19 18:00","2018","01","19","18:00","-32.5","","-35.9","","73","","","","2","","20","","24.1","","101.00","","","","-46","","Ice Crystals"
"-92.11","62.81","RANKIN INLET A","2303405","2018-01-19 19:00","2018","01","19","19:00","-33.2","","-36.6","","72","","","","35","","19","","24.1","","101.04","","","","-47","","Ice Crystals"
"-92.11","62.81","RANKIN INLET A","2303405","2018-01-19 20:00","2018","01","19","20:00","-33.6","","-37.1","","72","","","","35","","15","","24.1","","101.05","","","","-46","","Ice Crystals"
"-92.11","62.81","RANKIN INLET A","2303405","2018-01-19 21:00","2018","01","19","21:00","-31.3","","-34.6","","74","","","","3","","19","","24.1","","101.05","","","","-44","","Ice Crystals"
"-92.11","62.81","RANKIN INLET A","2303405","2018-01-19 22:00","2018","01","19","22:00","-31.8","","-35.1","","73","","","","1","","17","","12.9","","101.09","","","","-44","","Ice Crystals"
"-92.11","62.81","RANKIN INLET A","2303405","2018-01-19 23:00","2018","01","19","23:00","-31.2","","-34.5","","73","","","","3","","17","","12.9","","101.10","","","","-44","","Ice Crystals"
"-92.11","62.81","RANKIN INLET A","2303405","2018-01-20 00:00","2018","01","20","00:00","-30.2","","-33.5","","74","","","","3","","16","","16.1","","101.16","","","","-42","","Ice Crystals"
"-92.11","62.81","RANKIN INLET A","2303405","2018-01-20 01:00","2018","01","20","01:00","-31.9","","-35.3","","73","","","","2","","16","","16.1","","101.21","","","","-44","","Ice Crystals"
"-92.11","62.81","RANKIN INLET A","2303405","2018-01-20 02:00","2018","01","20","02:00","-30.4","","-33.6","","74","","","","2","","14","","16.1","","101.28","","","","-42","","Ice Crystals"
"-92.11","62.81","RANKIN INLET A","2303405","2018-01-20 03:00","2018","01","20","03:00","-30.6","","-33.8","","74","","","","1","","12","","12.9","","101.32","","","","-41","","Ice Crystals"
"-92.11","62.81","RANKIN INLET A","2303405","2018-01-20 04:00","2018","01","20","04:00","-29.4","","-32.6","","75","","","","5","","21","","16.1","","101.33","","","","-43","","Ice Crystals"
"-92.11","62.81","RANKIN INLET A","2303405","2018-01-20 05:00","2018","01","20","05:00","-29.8","","-33.0","","74","","","","36","","11","","24.1","","101.40","","","","-39","","Ice Crystals"
"-92.11","62.81","RANKIN INLET A","2303405","2018-01-20 06:00","2018","01","20","06:00","-29.2","","-32.4","","75","","","","2","","15","","16.1","","101.46","","","","-40","","Ice Crystals"
"-92.11","62.81","RANKIN INLET A","2303405","2018-01-20 07:00","2018","01","20","07:00","-31.1","","-34.4","","73","","","","4","","13","","9.7","","101.51","","","","-42","","Ice Crystals"
"-92.11","62.81","RANKIN INLET A","2303405","2018-01-20 08:00","2018","01","20","08:00","-31.0","","-34.3","","73","","","","3","","19","","17.7","","101.56","","","","-44","","Ice Crystals"
"-92.11","62.81","RANKIN INLET A","2303405","2018-01-20 09:00","2018","01","20","09:00","-32.5","","-35.9","","72","","","","34","","13","","19.3","","101.60","","","","-44","","Ice Crystals"
"-92.11","62.81","RANKIN INLET A","2303405","2018-01-20 10:00","2018","01","20","10:00","-34.1","","-37.6","","71","","","","36","","21","","24.1","","101.66","","","","-49","","Ice Crystals"
"-92.11","62.81","RANKIN INLET A","2303405","2018-01-20 11:00","2018","01","20","11:00","-34.0","","-37.6","","71","","","","36","","17","","19.3","","101.70","","","","-47","","Ice Crystals"
"-92.11","62.81","RANKIN INLET A","2303405","2018-01-20 12:00","2018","01","20","12:00","-33.7","","-37.2","","71","","","","35","","18","","19.3","","101.72","","","","-47","","Ice Crystals"
"-92.11","62.81","RANKIN INLET A","2303405","2018-01-20 13:00","2018","01","20","13:00","-33.4","","-37.0","","71","","","","35","","22","","24.1","","101.76","","","","-48","","Ice Crystals"
"-92.11","62.81","RANKIN INLET A","2303405","2018-01-20 14:00","2018","01","20","14:00","-33.4","","-36.9","","71","","","","35","","18","","24.1","","101.80","","","","-47","","Ice Crystals"
"-92.11","62.81","RANKIN INLET A","2303405","2018-01-20 15:00","2018","01","20","15:00","-33.2","","-36.7","","72","","","","36","","18","","24.1","","101.87","","","","-46","","Ice Crystals"
"-92.11","62.81","RANKIN INLET A","2303405","2018-01-20 16:00","2018","01","20","16:00","-33.6","","-37.1","","71","","","","34","","24","","24.1","","101.93","","","","-49","","Ice Crystals"
"-92.11","62.81","RANKIN INLET A","2303405","2018-01-20 17:00","2018","01","20","17:00","-33.8","","-37.3","","71","","","","34","","20","","24.1","","101.97","","","","-48","","Ice Crystals"
"-92.11","62.81","RANKIN INLET A","2303405","2018-01-20 18:00","2018","01","20","18:00","-33.8","","-37.3","","71","","","","35","","21","","24.1","","102.01","","","","-48","","Ice Crystals"
"-92.11","62.81","RANKIN INLET A","2303405","2018-01-20 19:00","2018","01","20","19:00","-34.1","","-37.7","","71","","","","35","","21","","24.1","","102.04","","","","-49","","Ice Crystals"
"-92.11","62.81","RANKIN INLET A","2303405","2018-01-20 20:00","2018","01","20","20:00","-34.1","","-37.6","","71","","","","35","","20","","24.1","","102.04","","","","-48","","Ice Crystals"
"-92.11","62.81","RANKIN INLET A","2303405","2018-01-20 21:00","2018","01","20","21:00","-34.7","","-38.3","","71","","","","35","","24","","24.1","","102.06","","","","-50","","Ice Crystals"
"-92.11","62.81","RANKIN INLET A","2303405","2018-01-20 22:00","2018","01","20","22:00","-34.9","","-38.6","","70","","","","35","","24","","24.1","","102.10","","","","-50","","Ice Crystals"
"-92.11","62.81","RANKIN INLET A","2303405","2018-01-20 23:00","2018","01","20","23:00","-35.0","","-38.6","","70","","","","36","","20","","24.1","","102.13","","","","-49","","Ice Crystals"
"-92.11","62.81","RANKIN INLET A","2303405","2018-01-21 00:00","2018","01","21","00:00","-35.7","","-39.4","","70","","","","35","","19","","24.1","","102.17","","","","-50","","Ice Crystals"
"-92.11","62.81","RANKIN INLET A","2303405","2018-01-21 01:00","2018","01","21","01:00","-35.4","","-39.1","","70","","","","34","","24","","24.1","","102.21","","","","-51","","Ice Crystals"
"-92.11","62.81","RANKIN INLET A","2303405","2018-01-21 02:00","2018","01","21","02:00","-35.3","","-39.0","","70","","","","36","","20","","24.1","","102.22","","","","-50","","Ice Crystals"
"-92.11","62.81","RANKIN INLET A","2303405","2018-01-21 03:00","2018","01","21","03:00","-35.5","","-39.1","","70","","","","35","","23","","24.1","","102.27","","","","-51","","Ice Crystals"
"-92.11","62.81","RANKIN INLET A","2303405","2018-01-21 04:00","2018","01","21","04:00","-35.5","","-39.1","","70","","","","35","","25","","24.1","","102.31","","","","-52","","Ice Crystals"
"-92.11","62.81","RANKIN INLET A","2303405","2018-01-21 05:00","2018","01","21","05:00","-35.2","","-38.8","","70","","","","35","","27","","24.1","","102.32","","","","-52","","Ice Crystals"
"-92.11","62.81","RANKIN INLET A","2303405","2018-01-21 06:00","2018","01","21","06:00","-34.8","","-38.5","","70","","","","35","","24","","24.1","","102.32","","","","-50","","Ice Crystals"
"-92.11","62.81","RANKIN INLET A","2303405","2018-01-21 07:00","2018","01","21","07:00","-34.6","","-38.2","","70","","","","35","","30","","24.1","","102.34","","","","-52","","Ice Crystals"
"-92.11","62.81","RANKIN INLET A","2303405","2018-01-21 08:00","2018","01","21","08:00","-34.9","","-38.5","","70","","","","33","","21","","24.1","","102.39","","","","-50","","Ice Crystals"
"-92.11","62.81","RANKIN INLET A","2303405","2018-01-21 09:00","2018","01","21","09:00","-34.9","","-38.5","","70","","","","33","","24","","24.1","","102.40","","","","-50","","Ice Crystals"
"-92.11","62.81","RANKIN INLET A","2303405","2018-01-21 10:00","2018","01","21","10:00","-34.6","","-38.3","","70","","","","34","","25","","24.1","","102.40","","","","-50","","Ice Crystals"
"-92.11","62.81","RANKIN INLET A","2303405","2018-01-21 11:00","2018","01","21","11:00","-34.0","","-37.6","","71","","","","34","","20","","24.1","","102.43","","","","-48","","Ice Crystals"
"-92.11","62.81","RANKIN INLET A","2303405","2018-01-21 12:00","2018","01","21","12:00","-33.3","","-36.9","","71","","","","35","","25","","24.1","","102.42","","","","-49","","Ice Crystals"
"-92.11","62.81","RANKIN INLET A","2303405","2018-01-21 13:00","2018","01","21","13:00","-33.2","","-36.8","","71","","","","33","","25","","24.1","","102.45","","","","-49","","Ice Crystals"
"-92.11","62.81","RANKIN INLET A","2303405","2018-01-21 14:00","2018","01","21","14:00","-33.0","","-36.6","","71","","","","33","","23","","24.1","","102.48","","","","-48","","Ice Crystals"
"-92.11","62.81","RANKIN INLET A","2303405","2018-01-21 15:00","2018","01","21","15:00","-33.8","","-37.4","","71","","","","31","","17","","24.1","","102.52","","","","-47","","Ice Crystals"
"-92.11","62.81","RANKIN INLET A","2303405","2018-01-21 16:00","2018","01","21","16:00","-34.0","","-37.6","","71","","","","33","","22","","24.1","","102.56","","","","-49","","Ice Crystals"
"-92.11","62.81","RANKIN INLET A","2303405","2018-01-21 17:00","2018","01","21","17:00","-34.2","","-37.8","","71","","","","33","","25","","24.1","","102.55","","","","-50","","Ice Crystals"
"-92.11","62.81","RANKIN INLET A","2303405","2018-01-21 18:00","2018","01","21","18:00","-34.4","","-38.0","","71","","","","31","","19","","24.1","","102.58","","","","-48","","Ice Crystals"
"-92.11","62.81","RANKIN INLET A","2303405","2018-01-21 19:00","2018","01","21","19:00","-34.2","","-37.8","","71","","","","32","","21","","24.1","","102.59","","","","-49","","Ice Crystals"
"-92.11","62.81","RANKIN INLET A","2303405","2018-01-21 20:00","2018","01","21","20:00","-35.0","","-38.6","","70","","","","32","","17","","24.1","","102.60","","","","-48","","Ice Crystals"
"-92.11","62.81","RANKIN INLET A","2303405","2018-01-21 21:00","2018","01","21","21:00","-34.8","","-38.5","","70","","","","33","","21","","24.1","","102.58","","","","-49","","Ice Crystals"
"-92.11","62.81","RANKIN INLET A","2303405","2018-01-21 22:00","2018","01","21","22:00","-34.9","","-38.5","","70","","","","32","","24","","24.1","","102.61","","","","-50","","Ice Crystals"
"-92.11","62.81","RANKIN INLET A","2303405","2018-01-21 23:00","2018","01","21","23:00","-34.8","","-38.5","","70","","","","32","","22","","24.1","","102.61","","","","-50","","Ice Crystals"
"-92.11","62.81","RANKIN INLET A","2303405","2018-01-22 00:00","2018","01","22","00:00","-34.6","","-38.2","","70","","","","33","","25","","24.1","","102.61","","","","-50","","Ice Crystals"
"-92.11","62.81","RANKIN INLET A","2303405","2018-01-22 01:00","2018","01","22","01:00","-34.6","","-38.3","","70","","","","32","","19","","24.1","","102.66","","","","-49","","Ice Crystals"
"-92.11","62.81","RANKIN INLET A","2303405","2018-01-22 02:00","2018","01","22","02:00","-35.2","","-38.9","","70","","","","32","","22","","24.1","","102.69","","","","-50","","Ice Crystals"
"-92.11","62.81","RANKIN INLET A","2303405","2018-01-22 03:00","2018","01","22","03:00","-35.3","","-39.0","","70","","","","32","","23","","24.1","","102.72","","","","-51","","Ice Crystals"
"-92.11","62.81","RANKIN INLET A","2303405","2018-01-22 04:00","2018","01","22","04:00","-35.2","","-38.9","","70","","","","33","","23","","24.1","","102.71","","","","-51","","Ice Crystals"
"-92.11","62.81","RANKIN INLET A","2303405","2018-01-22 05:00","2018","01","22","05:00","-35.3","","-39.0","","70","","","","32","","15","","24.1","","102.72","","","","-48","","Ice Crystals"
"-92.11","62.81","RANKIN INLET A","2303405","2018-01-22 06:00","2018","01","22","06:00","-35.4","","-39.1","","70","","","","34","","21","","24.1","","102.73","","","","-50","","Ice Crystals"
"-92.11","62.81","RANKIN INLET A","2303405","2018-01-22 07:00","2018","01","22","07:00","-35.4","","-39.0","","70","","","","33","","22","","24.1","","102.74","","","","-51","","Ice Crystals"
"-92.11","62.81","RANKIN INLET A","2303405","2018-01-22 08:00","2018","01","22","08:00","-35.4","","-39.1","","70","","","","32","","18","","24.1","","102.76","","","","-49","","Ice Crystals"
"-92.11","62.81","RANKIN INLET A","2303405","2018-01-22 09:00","2018","01","22","09:00","-35.7","","-39.4","","70","","","","31","","22","","24.1","","102.74","","","","-51","","Ice Crystals"
"-92.11","62.81","RANKIN INLET A","2303405","2018-01-22 10:00","2018","01","22","10:00","-35.5","","-39.3","","70","","","","32","","18","","19.3","","102.76","","","","-49","","Ice Crystals"
"-92.11","62.81","RANKIN INLET A","2303405","2018-01-22 11:00","2018","01","22","11:00","-35.0","","-38.7","","70","","","","32","","19","","19.3","","102.74","","","","-49","","Ice Crystals,Blowing Snow"
"-92.11","62.81","RANKIN INLET A","2303405","2018-01-22 12:00","2018","01","22","12:00","-34.1","","-37.8","","70","","","","31","","17","","19.3","","102.73","","","","-47","","Ice Crystals,Blowing Snow"
"-92.11","62.81","RANKIN INLET A","2303405","2018-01-22 13:00","2018","01","22","13:00","-33.5","","-37.1","","71","","","","30","","14","","24.1","","102.75","","","","-45","","Ice Crystals,Blowing Snow"
"-92.11","62.81","RANKIN INLET A","2303405","2018-01-22 14:00","2018","01","22","14:00","-33.5","","-37.1","","71","","","","29","","17","","24.1","","102.74","","","","-46","","Ice Crystals,Blowing Snow"
"-92.11","62.81","RANKIN INLET A","2303405","2018-01-22 15:00","2018","01","22","15:00","-34.0","","-37.6","","71","","","","30","","16","","24.1","","102.77","","","","-47","","Ice Crystals,Blowing Snow"
"-92.11","62.81","RANKIN INLET A","2303405","2018-01-22 16:00","2018","01","22","16:00","-34.3","","-37.9","","71","","","","32","","21","","24.1","","102.77","","","","-49","","Ice Crystals,Blowing Snow"
"-92.11","62.81","RANKIN INLET A","2303405","2018-01-22 17:00","2018","01","22","17:00","-34.6","","-38.2","","70","","","","32","","19","","24.1","","102.80","","","","-49","","Ice Crystals,Blowing Snow"
"-92.11","62.81","RANKIN INLET A","2303405","2018-01-22 18:00","2018","01","22","18:00","-34.5","","-38.1","","70","","","","31","","19","","24.1","","102.80","","","","-48","","Ice Crystals,Blowing Snow"
"-92.11","62.81","RANKIN INLET A","2303405","2018-01-22 19:00","2018","01","22","19:00","-34.4","","-38.0","","70","","","","32","","19","","24.1","","102.77","","","","-48","","Ice Crystals,Blowing Snow"
"-92.11","62.81","RANKIN INLET A","2303405","2018-01-22 20:00","2018","01","22","20:00","-34.5","","-38.1","","70","","","","32","","19","","24.1","","102.75","","","","-48","","Ice Crystals,Blowing Snow"
"-92.11","62.81","RANKIN INLET A","2303405","2018-01-22 21:00","2018","01","22","21:00","-34.2","","-37.8","","71","","","","31","","24","","24.1","","102.73","","","","-50","","Ice Crystals,Blowing Snow"
"-92.11","62.81","RANKIN INLET A","2303405","2018-01-22 22:00","2018","01","22","22:00","-34.3","","-37.9","","71","","","","32","","19","","16.1","","102.73","","","","-48","","Ice Crystals,Blowing Snow"
"-92.11","62.81","RANKIN INLET A","2303405","2018-01-22 23:00","2018","01","22","23:00","-34.6","","-38.2","","70","","","","31","","21","","24.1","","102.71","","","","-49","","Ice Crystals,Blowing Snow"
"-92.11","62.81","RANKIN INLET A","2303405","2018-01-23 00:00","2018","01","23","00:00","-34.1","","-37.8","","71","","","","32","","19","","24.1","","102.72","","","","-48","","Ice Crystals,Blowing Snow"
"-92.11","62.81","RANKIN INLET A","2303405","2018-01-23 01:00","2018","01","23","01:00","-34.1","","-37.7","","71","","","","31","","21","","24.1","","102.73","","","","-49","","Ice Crystals,Blowing Snow"
"-92.11","62.81","RANKIN INLET A","2303405","2018-01-23 02:00","2018","01","23","02:00","-34.2","","-37.8","","71","","","","34","","20","","24.1","","102.71","","","","-48","","Ice Crystals,Blowing Snow"
"-92.11","62.81","RANKIN INLET A","2303405","2018-01-23 03:00","2018","01","23","03:00","-32.7","","-36.2","","72","","","","32","","23","","12.9","","102.75","","","","-47","","Ice Crystals,Blowing Snow"
"-92.11","62.81","RANKIN INLET A","2303405","2018-01-23 04:00","2018","01","23","04:00","-32.4","","-35.9","","72","","","","32","","17","","12.9","","102.78","","","","-45","","Snow"
"-92.11","62.81","RANKIN INLET A","2303405","2018-01-23 05:00","2018","01","23","05:00","-32.7","","-36.2","","72","","","","31","","20","","16.1","","102.74","","","","-47","","Snow"
"-92.11","62.81","RANKIN INLET A","2303405","2018-01-23 06:00","2018","01","23","06:00","-31.5","","-35.0","","72","","","","31","","22","","24.1","","102.73","","","","-46","","Ice Crystals"
"-92.11","62.81","RANKIN INLET A","2303405","2018-01-23 07:00","2018","01","23","07:00","-32.4","","-35.9","","72","","","","31","","17","","6.4","","102.75","","","","-45","","Ice Crystals"
"-92.11","62.81","RANKIN INLET A","2303405","2018-01-23 08:00","2018","01","23","08:00","-31.9","","-35.3","","72","","","","29","","16","","24.1","","102.73","","","","-44","","Ice Crystals"
"-92.11","62.81","RANKIN INLET A","2303405","2018-01-23 09:00","2018","01","23","09:00","-32.8","","-36.3","","72","","","","29","","12","","4.0","","102.70","","","","-44","","Ice Crystals"
"-92.11","62.81","RANKIN INLET A","2303405","2018-01-23 10:00","2018","01","23","10:00","-32.2","","-35.6","","72","","","","27","","11","","24.1","","102.69","","","","-42","","Ice Crystals"
"-92.11","62.81","RANKIN INLET A","2303405","2018-01-23 11:00","2018","01","23","11:00","-32.2","","-35.7","","72","","","","26","","11","","24.1","","102.67","","","","-42","","Ice Crystals"
"-92.11","62.81","RANKIN INLET A","2303405","2018-01-23 12:00","2018","01","23","12:00","-32.1","","-35.6","","72","","","","27","","12","","24.1","","102.65","","","","-43","","Ice Crystals"
"-92.11","62.81","RANKIN INLET A","2303405","2018-01-23 13:00","2018","01","23","13:00","-31.8","","-35.4","","72","","","","27","","9","","24.1","","102.62","","","","-41","","Ice Crystals"
"-92.11","62.81","RANKIN INLET A","2303405","2018-01-23 14:00","2018","01","23","14:00","-31.8","","-35.3","","72","","","","25","","10","","24.1","","102.60","","","","-41","","Ice Crystals"
"-92.11","62.81","RANKIN INLET A","2303405","2018-01-23 15:00","2018","01","23","15:00","-31.8","","-35.2","","72","","","","27","","10","","24.1","","102.58","","","","-41","","Ice Crystals"
"-92.11","62.81","RANKIN INLET A","2303405","2018-01-23 16:00","2018","01","23","16:00","-32.4","","-35.9","","72","","","","26","","11","","24.1","","102.56","","","","-43","","Ice Crystals"
"-92.11","62.81","RANKIN INLET A","2303405","2018-01-23 17:00","2018","01","23","17:00","-32.7","","-36.2","","72","","","","27","","11","","24.1","","102.55","","","","-43","","Ice Crystals"
"-92.11","62.81","RANKIN INLET A","2303405","2018-01-23 18:00","2018","01","23","18:00","-33.4","","-36.9","","71","","","","27","","5","","24.1","","102.53","","","","-39","","Ice Crystals"
"-92.11","62.81","RANKIN INLET A","2303405","2018-01-23 19:00","2018","01","23","19:00","-34.1","","-37.7","","71","","","","29","","13","","24.1","","102.48","","","","-46","","Ice Crystals"
"-92.11","62.81","RANKIN INLET A","2303405","2018-01-23 20:00","2018","01","23","20:00","-34.0","","-37.6","","71","","","","31","","12","","24.1","","102.45","","","","-45","","Ice Crystals"
"-92.11","62.81","RANKIN INLET A","2303405","2018-01-23 21:00","2018","01","23","21:00","-34.7","","-38.3","","70","","","","30","","14","","24.1","","102.45","","","","-47","","Ice Crystals"
"-92.11","62.81","RANKIN INLET A","2303405","2018-01-23 22:00","2018","01","23","22:00","-35.4","","-39.0","","70","","","","31","","10","","24.1","","102.42","","","","-46","","Ice Crystals"
"-92.11","62.81","RANKIN INLET A","2303405","2018-01-23 23:00","2018","01","23","23:00","-35.5","","-39.2","","70","","","","32","","9","","24.1","","102.39","","","","-45","","Ice Crystals"
"-92.11","62.81","RANKIN INLET A","2303405","2018-01-24 00:00","2018","01","24","00:00","-35.3","","-38.9","","70","","","","28","","12","","24.1","","102.39","","","","-47","","Ice Crystals"
"-92.11","62.81","RANKIN INLET A","2303405","2018-01-24 01:00","2018","01","24","01:00","-34.3","","-37.9","","71","","","","33","","8","","12.9","","102.38","","","","-43","","Ice Crystals"
"-92.11","62.81","RANKIN INLET A","2303405","2018-01-24 02:00","2018","01","24","02:00","-34.5","","-38.1","","70","","","","30","","10","","0.8","","102.38","","","","-45","","Ice Crystals,Freezing Fog"
"-92.11","62.81","RANKIN INLET A","2303405","2018-01-24 03:00","2018","01","24","03:00","-35.2","","-38.9","","70","","","","31","","10","","1.2","","102.38","","","","-45","","Ice Crystals,Fog"
"-92.11","62.81","RANKIN INLET A","2303405","2018-01-24 04:00","2018","01","24","04:00","-34.9","","-38.6","","70","","","","34","","9","","12.9","","102.39","","","","-44","","Ice Crystals"
"-92.11","62.81","RANKIN INLET A","2303405","2018-01-24 05:00","2018","01","24","05:00","-32.7","","-36.2","","72","","","","33","","8","","16.1","","102.36","","","","-41","","Ice Crystals"
"-92.11","62.81","RANKIN INLET A","2303405","2018-01-24 06:00","2018","01","24","06:00","-31.4","","-34.8","","73","","","","33","","8","","16.1","","102.34","","","","-40","","Ice Crystals"
"-92.11","62.81","RANKIN INLET A","2303405","2018-01-24 07:00","2018","01","24","07:00","-30.5","","-33.8","","73","","","","29","","8","","24.1","","102.31","","","","-39","","Snow"
"-92.11","62.81","RANKIN INLET A","2303405","2018-01-24 08:00","2018","01","24","08:00","-29.5","","-32.8","","74","","","","31","","5","","24.1","","102.31","","","","-35","","Snow"
"-92.11","62.81","RANKIN INLET A","2303405","2018-01-24 09:00","2018","01","24","09:00","-28.7","","-31.9","","74","","","","36","","6","","24.1","","102.27","","","","-35","","Snow"
"-92.11","62.81","RANKIN INLET A","2303405","2018-01-24 10:00","2018","01","24","10:00","-28.1","","-31.3","","75","","","","36","","3","","24.1","","102.23","","","","-31","","Snow"
"-92.11","62.81","RANKIN INLET A","2303405","2018-01-24 11:00","2018","01","24","11:00","-27.0","","-30.1","","76","","","","24","","9","","24.1","","102.22","","","","-35","","Snow"
"-92.11","62.81","RANKIN INLET A","2303405","2018-01-24 12:00","2018","01","24","12:00","-26.1","","-29.2","","76","","","","3","","7","","24.1","","102.20","","","","-33","","Snow"
"-92.11","62.81","RANKIN INLET A","2303405","2018-01-24 13:00","2018","01","24","13:00","-25.5","","-28.4","","77","","","","22","","9","","24.1","","102.18","","","","-33","","Snow"
"-92.11","62.81","RANKIN INLET A","2303405","2018-01-24 14:00","2018","01","24","14:00","-25.5","","-28.5","","77","","","","17","","7","","24.1","","102.16","","","","-32","","Ice Crystals"
"-92.11","62.81","RANKIN INLET A","2303405","2018-01-24 15:00","2018","01","24","15:00","-25.2","","-28.1","","77","","","","15","","5","","24.1","","102.14","","","","-30","","Ice Crystals"
"-92.11","62.81","RANKIN INLET A","2303405","2018-01-24 16:00","2018","01","24","16:00","-25.7","","-28.6","","77","","","","20","","8","","24.1","","102.15","","","","-33","","Ice Crystals"
"-92.11","62.81","RANKIN INLET A","2303405","2018-01-24 17:00","2018","01","24","17:00","-26.7","","-29.7","","76","","","","22","","10","","24.1","","102.12","","","","-35","","Ice Crystals"
"-92.11","62.81","RANKIN INLET A","2303405","2018-01-24 18:00","2018","01","24","18:00","-26.3","","-29.2","","77","","","","23","","7","","16.1","","102.09","","","","-33","","Ice Crystals"
"-92.11","62.81","RANKIN INLET A","2303405","2018-01-24 19:00","2018","01","24","19:00","-26.0","","-29.0","","77","","","","18","","4","","9.7","","102.03","","","","-30","","Fog"
"-92.11","62.81","RANKIN INLET A","2303405","2018-01-24 20:00","2018","01","24","20:00","-26.0","","-29.0","","77","","","","17","","8","","8.1","","102.00","","","","-33","","Snow,Fog"
"-92.11","62.81","RANKIN INLET A","2303405","2018-01-24 21:00","2018","01","24","21:00","-25.5","","-28.4","","77","","","","15","","9","","1.2","","101.93","","","","-33","","Snow,Fog"
"-92.11","62.81","RANKIN INLET A","2303405","2018-01-24 22:00","2018","01","24","22:00","-24.9","","-27.7","","78","","","","14","","10","","0.6","","101.90","","","","-33","","Snow,Freezing Fog"
"-92.11","62.81","RANKIN INLET A","2303405","2018-01-24 23:00","2018","01","24","23:00","-23.5","","-26.2","","79","","","","15","","10","","3.2","","101.87","","","","-31","","Snow,Fog"
"-92.11","62.81","RANKIN INLET A","2303405","2018-01-25 00:00","2018","01","25","00:00","-23.4","","-26.1","","79","","","","15","","11","","16.1","","101.84","","","","-32","","Snow"
"-92.11","62.81","RANKIN INLET A","2303405","2018-01-25 01:00","2018","01","25","01:00","-23.1","","-25.8","","79","","","","13","","9","","12.9","","101.80","","","","-30","","Snow"
"-92.11","62.81","RANKIN INLET A","2303405","2018-01-25 02:00","2018","01","25","02:00","-22.8","","-25.5","","79","","","","12","","9","","24.1","","101.77","","","","-30","","Snow"
"-92.11","62.81","RANKIN INLET A","2303405","2018-01-25 03:00","2018","01","25","03:00","-21.8","","-24.4","","80","","","","12","","14","","16.1","","101.72","","","","-31","","Snow"
"-92.11","62.81","RANKIN INLET A","2303405","2018-01-25 04:00","2018","01","25","04:00","-21.3","","-23.8","","81","","","","14","","12","","16.1","","101.69","","","","-30","","Snow"
"-92.11","62.81","RANKIN INLET A","2303405","2018-01-25 05:00","2018","01","25","05:00","-21.0","","-23.5","","81","","","","14","","12","","16.1","","101.65","","","","-29","","Snow"
"-92.11","62.81","RANKIN INLET A","2303405","2018-01-25 06:00","2018","01","25","06:00","-20.3","","-22.6","","82","","","","14","","10","","24.1","","101.59","","","","-28","","Ice Crystals"
"-92.11","62.81","RANKIN INLET A","2303405","2018-01-25 07:00","2018","01","25","07:00","-20.3","","-22.7","","81","","","","15","","14","","24.1","","101.54","","","","-29","","Ice Crystals"
"-92.11","62.81","RANKIN INLET A","2303405","2018-01-25 08:00","2018","01","25","08:00","-19.8","","-22.2","","82","","","","15","","17","","24.1","","101.50","","","","-29","","Ice Crystals"
"-92.11","62.81","RANKIN INLET A","2303405","2018-01-25 09:00","2018","01","25","09:00","-20.7","","-23.1","","81","","","","15","","14","","24.1","","101.47","","","","-30","","Ice Crystals"
"-92.11","62.81","RANKIN INLET A","2303405","2018-01-25 10:00","2018","01","25","10:00","-19.7","","-22.0","","82","","","","16","","16","","24.1","","101.46","","","","-29","","Ice Crystals"
"-92.11","62.81","RANKIN INLET A","2303405","2018-01-25 11:00","2018","01","25","11:00","-19.3","","-21.6","","82","","","","16","","19","","9.7","","101.43","","","","-29","","Snow"
"-92.11","62.81","RANKIN INLET A","2303405","2018-01-25 12:00","2018","01","25","12:00","-18.9","","-21.1","","83","","","","17","","19","","8.1","","101.40","","","","-29","","Snow"
"-92.11","62.81","RANKIN INLET A","2303405","2018-01-25 13:00","2018","01","25","13:00","-19.6","","-21.9","","82","","","","20","","13","","6.4","","101.36","","","","-28","","Snow"
"-92.11","62.81","RANKIN INLET A","2303405","2018-01-25 14:00","2018","01","25","14:00","-20.0","","-22.4","","82","","","","21","","13","","6.4","","101.35","","","","-28","","Snow"
"-92.11","62.81","RANKIN INLET A","2303405","2018-01-25 15:00","2018","01","25","15:00","-20.0","","-22.4","","82","","","","20","","10","","6.4","","101.32","","","","-27","","Snow"
"-92.11","62.81","RANKIN INLET A","2303405","2018-01-25 16:00","2018","01","25","16:00","-20.1","","-22.4","","82","","","","19","","8","","4.0","","101.33","","","","-26","","Snow"
"-92.11","62.81","RANKIN INLET A","2303405","2018-01-25 17:00","2018","01","25","17:00","-20.1","","-22.4","","82","","","","19","","8","","2.8","","101.33","","","","-26","","Snow"
"-92.11","62.81","RANKIN INLET A","2303405","2018-01-25 18:00","2018","01","25","18:00","-20.4","","-22.8","","82","","","","15","","4","","4.0","","101.34","","","","-24","","Ice Crystals"
"-92.11","62.81","RANKIN INLET A","2303405","2018-01-25 19:00","2018","01","25","19:00","-20.1","","-22.4","","82","","","","36","","3","","4.0","","101.33","","","","-23","","Ice Crystals"
"-92.11","62.81","RANKIN INLET A","2303405","2018-01-25 20:00","2018","01","25","20:00","-20.6","","-23.0","","82","","","","16","","5","","6.4","","101.30","","","","-25","","Ice Crystals"
"-92.11","62.81","RANKIN INLET A","2303405","2018-01-25 21:00","2018","01","25","21:00","-20.4","","-22.8","","82","","","","19","","4","","24.1","","101.27","","","","-24","","Ice Crystals"
"-92.11","62.81","RANKIN INLET A","2303405","2018-01-25 22:00","2018","01","25","22:00","-22.5","","-25.1","","80","","","","36","","2","","16.1","","101.29","","","","-24","","Ice Crystals"
"-92.11","62.81","RANKIN INLET A","2303405","2018-01-25 23:00","2018","01","25","23:00","-21.5","","-24.0","","81","","","","4","","5","","16.1","","101.26","","","","-26","","Ice Crystals"
"-92.11","62.81","RANKIN INLET A","2303405","2018-01-26 00:00","2018","01","26","00:00","-21.8","","-24.3","","81","","","","34","","6","","24.1","","101.26","","","","-27","","Ice Crystals"
"-92.11","62.81","RANKIN INLET A","2303405","2018-01-26 01:00","2018","01","26","01:00","-23.4","","-26.1","","80","","","","34","","6","","24.1","","101.29","","","","-29","","Ice Crystals"
"-92.11","62.81","RANKIN INLET A","2303405","2018-01-26 02:00","2018","01","26","02:00","-28.0","","-31.1","","76","","","","35","","9","","24.1","","101.31","","","","-36","","Ice Crystals"
"-92.11","62.81","RANKIN INLET A","2303405","2018-01-26 03:00","2018","01","26","03:00","-26.9","","-29.9","","77","","","","34","","13","","24.1","","101.32","","","","-37","","Ice Crystals"
"-92.11","62.81","RANKIN INLET A","2303405","2018-01-26 04:00","2018","01","26","04:00","-28.8","","-31.9","","75","","","","34","","20","","16.1","","101.32","","","","-42","","Ice Crystals"
"-92.11","62.81","RANKIN INLET A","2303405","2018-01-26 05:00","2018","01","26","05:00","-28.8","","-31.9","","75","","","","35","","12","","24.1","","101.34","","","","-39","","Ice Crystals"
"-92.11","62.81","RANKIN INLET A","2303405","2018-01-26 06:00","2018","01","26","06:00","-28.3","","-31.4","","76","","","","34","","16","","24.1","","101.35","","","","-40","","Ice Crystals"
"-92.11","62.81","RANKIN INLET A","2303405","2018-01-26 07:00","2018","01","26","07:00","-24.7","","-27.4","","79","","","","35","","21","","24.1","","101.38","","","","-37","","Ice Crystals"
"-92.11","62.81","RANKIN INLET A","2303405","2018-01-26 08:00","2018","01","26","08:00","-23.5","","-26.1","","79","","","","35","","21","","24.1","","101.38","","","","-35","","Snow"
"-92.11","62.81","RANKIN INLET A","2303405","2018-01-26 09:00","2018","01","26","09:00","-23.0","","-25.6","","80","","","","36","","21","","24.1","","101.41","","","","-35","","Snow"
"-92.11","62.81","RANKIN INLET A","2303405","2018-01-26 10:00","2018","01","26","10:00","-21.1","","-23.6","","81","","","","34","","20","","24.1","","101.45","","","","-32","","Snow"
"-92.11","62.81","RANKIN INLET A","2303405","2018-01-26 11:00","2018","01","26","11:00","-20.3","","-22.7","","82","","","","35","","27","","6.4","","101.49","","","","-32","","Snow,Blowing Snow"
"-92.11","62.81","RANKIN INLET A","2303405","2018-01-26 12:00","2018","01","26","12:00","-20.1","","-22.4","","82","","","","35","","26","","9.7","","101.51","","","","-32","","Snow,Blowing Snow"
"-92.11","62.81","RANKIN INLET A","2303405","2018-01-26 13:00","2018","01","26","13:00","-21.6","","-24.1","","80","","","","34","","36","","4.8","","101.54","","","","-36","","Snow,Blowing Snow"
"-92.11","62.81","RANKIN INLET A","2303405","2018-01-26 14:00","2018","01","26","14:00","-24.4","","-27.1","","78","","","","35","","30","","4.8","","101.59","","","","-38","","Snow,Blowing Snow"
"-92.11","62.81","RANKIN INLET A","2303405","2018-01-26 15:00","2018","01","26","15:00","-26.5","","-29.4","","77","","","","35","","32","","24.1","","101.65","","","","-41","","Snow,Blowing Snow"
"-92.11","62.81","RANKIN INLET A","2303405","2018-01-26 16:00","2018","01","26","16:00","-27.8","","-30.8","","76","","","","35","","33","","24.1","","101.69","","","","-43","","Blowing Snow"
"-92.11","62.81","RANKIN INLET A","2303405","2018-01-26 17:00","2018","01","26","17:00","-28.6","","-31.7","","75","","","","35","","31","","24.1","","101.74","","","","-44","","Blowing Snow"
"-92.11","62.81","RANKIN INLET A","2303405","2018-01-26 18:00","2018","01","26","18:00","-28.9","","-32.0","","75","","","","35","","37","","8.1","","101.72","","","","-46","","Blowing Snow"
"-92.11","62.81","RANKIN INLET A","2303405","2018-01-26 19:00","2018","01","26","19:00","-29.4","","-32.6","","75","","","","35","","39","","4.8","","101.72","","","","-47","","Blowing Snow"
"-92.11","62.81","RANKIN INLET A","2303405","2018-01-26 20:00","2018","01","26","20:00","-30.0","","-33.2","","74","","","","36","","35","","8.1","","101.73","","","","-47","","Blowing Snow"
"-92.11","62.81","RANKIN INLET A","2303405","2018-01-26 21:00","2018","01","26","21:00","-30.5","","-33.8","","74","","","","36","","27","","16.1","","101.74","","","","-46","","Blowing Snow"
"-92.11","62.81","RANKIN INLET A","2303405","2018-01-26 22:00","2018","01","26","22:00","-30.5","","-33.8","","74","","","","36","","28","","16.1","","101.78","","","","-46","","Blowing Snow"
"-92.11","62.81","RANKIN INLET A","2303405","2018-01-26 23:00","2018","01","26","23:00","-30.4","","-33.6","","74","","","","35","","30","","8.1","","101.75","","","","-46","","Blowing Snow"
"-92.11","62.81","RANKIN INLET A","2303405","2018-01-27 00:00","2018","01","27","00:00","-27.5","","-30.5","","76","","","","34","","31","","8.1","","101.77","","","","-43","","Blowing Snow"
"-92.11","62.81","RANKIN INLET A","2303405","2018-01-27 01:00","2018","01","27","01:00","-26.5","","-29.5","","77","","","","35","","37","","8.1","","101.74","","","","-42","","Blowing Snow"
"-92.11","62.81","RANKIN INLET A","2303405","2018-01-27 02:00","2018","01","27","02:00","-25.4","","-28.3","","78","","","","35","","33","","16.1","","101.78","","","","-40","","Blowing Snow"
"-92.11","62.81","RANKIN INLET A","2303405","2018-01-27 03:00","2018","01","27","03:00","-24.4","","-27.1","","78","","","","34","","26","","16.1","","101.79","","","","-37","","Blowing Snow"
"-92.11","62.81","RANKIN INLET A","2303405","2018-01-27 04:00","2018","01","27","04:00","-23.6","","-26.3","","79","","","","34","","17","","16.1","","101.80","","","","-34","","Blowing Snow"
"-92.11","62.81","RANKIN INLET A","2303405","2018-01-27 05:00","2018","01","27","05:00","-22.1","","-24.6","","80","","","","34","","21","","16.1","","101.74","","","","-33","","Snow"
"-92.11","62.81","RANKIN INLET A","2303405","2018-01-27 06:00","2018","01","27","06:00","-21.0","","-23.4","","81","","","","32","","27","","8.1","","101.75","","","","-33","","Snow,Blowing Snow"
"-92.11","62.81","RANKIN INLET A","2303405","2018-01-27 07:00","2018","01","27","07:00","-20.8","","-23.3","","81","","","","34","","32","","8.1","","101.69","","","","-34","","Blowing Snow"
"-92.11","62.81","RANKIN INLET A","2303405","2018-01-27 08:00","2018","01","27","08:00","-23.1","","-25.7","","79","","","","33","","37","","4.8","","101.68","","","","-38","","Blowing Snow"
"-92.11","62.81","RANKIN INLET A","2303405","2018-01-27 09:00","2018","01","27","09:00","-23.4","","-26.1","","79","","","","35","","40","","4.8","","101.68","","","","-39","","Blowing Snow"
"-92.11","62.81","RANKIN INLET A","2303405","2018-01-27 10:00","2018","01","27","10:00","-23.6","","-26.3","","79","","","","34","","42","","4.8","","101.68","","","","-39","","Ice Crystals,Blowing Snow"
"-92.11","62.81","RANKIN INLET A","2303405","2018-01-27 11:00","2018","01","27","11:00","-23.4","","-26.1","","79","","","","32","","36","","9.7","","101.70","","","","-38","","Ice Crystals,Blowing Snow"
"-92.11","62.81","RANKIN INLET A","2303405","2018-01-27 12:00","2018","01","27","12:00","-22.8","","-25.4","","80","","","","32","","35","","16.1","","101.66","","","","-37","","Ice Crystals,Blowing Snow"
"-92.11","62.81","RANKIN INLET A","2303405","2018-01-27 13:00","2018","01","27","13:00","-22.0","","-24.6","","80","","","","32","","37","","16.1","","101.64","","","","-36","","Ice Crystals,Blowing Snow"
"-92.11","62.81","RANKIN INLET A","2303405","2018-01-27 14:00","2018","01","27","14:00","-22.4","","-25.0","","80","","","","32","","28","","16.1","","101.65","","","","-35","","Ice Crystals,Blowing Snow"
"-92.11","62.81","RANKIN INLET A","2303405","2018-01-27 15:00","2018","01","27","15:00","-22.3","","-24.9","","80","","","","31","","29","","16.1","","101.62","","","","-35","","Ice Crystals,Blowing Snow"
"-92.11","62.81","RANKIN INLET A","2303405","2018-01-27 16:00","2018","01","27","16:00","-21.4","","-23.8","","81","","","","32","","36","","16.1","","101.64","","","","-35","","Ice Crystals,Blowing Snow"
"-92.11","62.81","RANKIN INLET A","2303405","2018-01-27 17:00","2018","01","27","17:00","-21.2","","-23.6","","81","","","","32","","31","","9.7","","101.64","","","","-34","","Snow,Blowing Snow"
"-92.11","62.81","RANKIN INLET A","2303405","2018-01-27 18:00","2018","01","27","18:00","-20.7","","-23.1","","81","","","","32","","36","","9.7","","101.62","","","","-34","","Snow,Blowing Snow"
"-92.11","62.81","RANKIN INLET A","2303405","2018-01-27 19:00","2018","01","27","19:00","-21.5","","-24.0","","81","","","","32","","35","","9.7","","101.57","","","","-35","","Snow,Blowing Snow"
"-92.11","62.81","RANKIN INLET A","2303405","2018-01-27 20:00","2018","01","27","20:00","-20.5","","-22.9","","82","","","","32","","39","","4.0","","101.56","","","","-35","","Ice Crystals,Blowing Snow"
"-92.11","62.81","RANKIN INLET A","2303405","2018-01-27 21:00","2018","01","27","21:00","-20.0","","-22.3","","82","","","","32","","41","","4.0","","101.56","","","","-34","","Ice Crystals,Blowing Snow"
"-92.11","62.81","RANKIN INLET A","2303405","2018-01-27 22:00","2018","01","27","22:00","-21.0","","-23.4","","81","","","","32","","40","","4.8","","101.56","","","","-35","","Ice Crystals,Blowing Snow"
"-92.11","62.81","RANKIN INLET A","2303405","2018-01-27 23:00","2018","01","27","23:00","-22.5","","-25.1","","80","","","","32","","37","","4.8","","101.59","","","","-37","","Ice Crystals,Blowing Snow"
"-92.11","62.81","RANKIN INLET A","2303405","2018-01-28 00:00","2018","01","28","00:00","-23.1","","-25.7","","80","","","","32","","36","","9.7","","101.56","","","","-38","","Ice Crystals,Blowing Snow"
"-92.11","62.81","RANKIN INLET A","2303405","2018-01-28 01:00","2018","01","28","01:00","-22.9","","-25.6","","80","","","","32","","29","","4.8","","101.62","","","","-36","","Ice Crystals,Blowing Snow"
"-92.11","62.81","RANKIN INLET A","2303405","2018-01-28 02:00","2018","01","28","02:00","-23.1","","-25.7","","80","","","","32","","43","","4.8","","101.58","","","","-39","","Ice Crystals,Blowing Snow"
"-92.11","62.81","RANKIN INLET A","2303405","2018-01-28 03:00","2018","01","28","03:00","-23.5","","-26.2","","79","","","","32","","38","","3.2","","101.63","","","","-39","","Ice Crystals,Blowing Snow"
"-92.11","62.81","RANKIN INLET A","2303405","2018-01-28 04:00","2018","01","28","04:00","-23.8","","-26.5","","79","","","","32","","39","","4.8","","101.67","","","","-39","","Ice Crystals,Blowing Snow"
"-92.11","62.81","RANKIN INLET A","2303405","2018-01-28 05:00","2018","01","28","05:00","-24.0","","-26.7","","79","","","","32","","39","","4.8","","101.72","","","","-39","","Ice Crystals,Blowing Snow"
"-92.11","62.81","RANKIN INLET A","2303405","2018-01-28 06:00","2018","01","28","06:00","-23.7","","-26.3","","79","","","","33","","38","","4.8","","101.77","","","","-39","","Ice Crystals,Blowing Snow"
"-92.11","62.81","RANKIN INLET A","2303405","2018-01-28 07:00","2018","01","28","07:00","-24.0","","-26.7","","79","","","","33","","48","","3.2","","101.78","","","","-41","","Ice Crystals,Blowing Snow"
"-92.11","62.81","RANKIN INLET A","2303405","2018-01-28 08:00","2018","01","28","08:00","-24.6","","-27.3","","78","","","","34","","44","","3.2","","101.84","","","","-41","","Ice Crystals,Blowing Snow"
"-92.11","62.81","RANKIN INLET A","2303405","2018-01-28 09:00","2018","01","28","09:00","-24.7","","-27.4","","78","","","","33","","41","","1.6","","101.86","","","","-41","","Ice Crystals,Blowing Snow"
"-92.11","62.81","RANKIN INLET A","2303405","2018-01-28 10:00","2018","01","28","10:00","-24.4","","-27.1","","78","","","","32","","31","","9.7","","101.97","","","","-38","","Ice Crystals,Blowing Snow"
"-92.11","62.81","RANKIN INLET A","2303405","2018-01-28 11:00","2018","01","28","11:00","-24.4","","-27.1","","78","","","","31","","33","","4.8","","101.99","","","","-39","","Ice Crystals,Blowing Snow"
"-92.11","62.81","RANKIN INLET A","2303405","2018-01-28 12:00","2018","01","28","12:00","-23.8","","-26.6","","79","","","","34","","37","","1.2","","102.00","","","","-39","","Ice Crystals,Blowing Snow"
"-92.11","62.81","RANKIN INLET A","2303405","2018-01-28 13:00","2018","01","28","13:00","-23.6","","-26.3","","79","","","","34","","46","","1.2","","102.01","","","","-40","","Ice Crystals,Blowing Snow"
"-92.11","62.81","RANKIN INLET A","2303405","2018-01-28 14:00","2018","01","28","14:00","-23.9","","-26.6","","78","","","","33","","35","","3.2","","102.08","","","","-39","","Ice Crystals,Blowing Snow"
"-92.11","62.81","RANKIN INLET A","2303405","2018-01-28 15:00","2018","01","28","15:00","-24.6","","-27.4","","78","","","","33","","26","","16.1","","102.15","","","","-38","","Ice Crystals,Blowing Snow"
"-92.11","62.81","RANKIN INLET A","2303405","2018-01-28 16:00","2018","01","28","16:00","-24.1","","-26.8","","79","","","","32","","22","","16.1","","102.20","","","","-36","","Ice Crystals,Blowing Snow"
"-92.11","62.81","RANKIN INLET A","2303405","2018-01-28 17:00","2018","01","28","17:00","-23.8","","-26.5","","79","","","","29","","19","","24.1","","102.20","","","","-35","","Ice Crystals"
"-92.11","62.81","RANKIN INLET A","2303405","2018-01-28 18:00","2018","01","28","18:00","-23.5","","-26.2","","79","","","","32","","28","","24.1","","102.19","","","","-37","","Ice Crystals"
"-92.11","62.81","RANKIN INLET A","2303405","2018-01-28 19:00","2018","01","28","19:00","-23.6","","-26.3","","79","","","","30","","26","","24.1","","102.16","","","","-36","","Ice Crystals"
"-92.11","62.81","RANKIN INLET A","2303405","2018-01-28 20:00","2018","01","28","20:00","-25.6","","-28.5","","77","","","","32","","27","","16.1","","102.13","","","","-39","","Ice Crystals,Blowing Snow"
"-92.11","62.81","RANKIN INLET A","2303405","2018-01-28 21:00","2018","01","28","21:00","-27.1","","-30.1","","76","","","","32","","41","","3.2","","102.13","","","","-44","","Ice Crystals,Blowing Snow"
"-92.11","62.81","RANKIN INLET A","2303405","2018-01-28 22:00","2018","01","28","22:00","-27.2","","-30.1","","77","","","","31","","31","","3.2","","102.14","","","","-42","","Ice Crystals,Blowing Snow"
"-92.11","62.81","RANKIN INLET A","2303405","2018-01-28 23:00","2018","01","28","23:00","-26.9","","-29.9","","76","","","","32","","27","","9.7","","102.15","","","","-41","","Ice Crystals,Blowing Snow"
"-92.11","62.81","RANKIN INLET A","2303405","2018-01-29 00:00","2018","01","29","00:00","-27.7","","-30.7","","76","","","","31","","24","","16.1","","102.14","","","","-41","","Ice Crystals,Blowing Snow"
"-92.11","62.81","RANKIN INLET A","2303405","2018-01-29 01:00","2018","01","29","01:00","-28.3","","-31.4","","76","","","","31","","28","","16.1","","102.15","","","","-43","","Ice Crystals,Blowing Snow"
"-92.11","62.81","RANKIN INLET A","2303405","2018-01-29 02:00","2018","01","29","02:00","-29.1","","-32.3","","75","","","","28","","21","","24.1","","102.15","","","","-42","","Ice Crystals,Blowing Snow"
"-92.11","62.81","RANKIN INLET A","2303405","2018-01-29 03:00","2018","01","29","03:00","-28.8","","-31.9","","75","","","","29","","28","","24.1","","102.10","","","","-44","","Ice Crystals,Blowing Snow"
"-92.11","62.81","RANKIN INLET A","2303405","2018-01-29 04:00","2018","01","29","04:00","-28.4","","-31.5","","75","","","","32","","30","","16.1","","102.07","","","","-44","","Ice Crystals,Blowing Snow"
"-92.11","62.81","RANKIN INLET A","2303405","2018-01-29 05:00","2018","01","29","05:00","-28.0","","-31.1","","76","","","","31","","32","","16.1","","102.03","","","","-43","","Ice Crystals,Blowing Snow"
"-92.11","62.81","RANKIN INLET A","2303405","2018-01-29 06:00","2018","01","29","06:00","-27.3","","-30.3","","76","","","","31","","28","","16.1","","102.04","","","","-42","","Ice Crystals,Blowing Snow"
"-92.11","62.81","RANKIN INLET A","2303405","2018-01-29 07:00","2018","01","29","07:00","-27.5","","-30.5","","76","","","","31","","29","","16.1","","102.03","","","","-42","","Ice Crystals,Blowing Snow"
"-92.11","62.81","RANKIN INLET A","2303405","2018-01-29 08:00","2018","01","29","08:00","-26.9","","-29.9","","77","","","","31","","26","","16.1","","102.04","","","","-41","","Ice Crystals,Blowing Snow"
"-92.11","62.81","RANKIN INLET A","2303405","2018-01-29 09:00","2018","01","29","09:00","-26.9","","-29.9","","76","","","","31","","21","","16.1","","102.03","","","","-39","","Ice Crystals,Blowing Snow"
"-92.11","62.81","RANKIN INLET A","2303405","2018-01-29 10:00","2018","01","29","10:00","-27.4","","-30.4","","76","","","","31","","24","","24.1","","102.02","","","","-41","","Ice Crystals,Blowing Snow"
"-92.11","62.81","RANKIN INLET A","2303405","2018-01-29 11:00","2018","01","29","11:00","-27.4","","-30.5","","76","","","","29","","18","","24.1","","102.02","","","","-39","","Ice Crystals,Blowing Snow"
"-92.11","62.81","RANKIN INLET A","2303405","2018-01-29 12:00","2018","01","29","12:00","-27.2","","-30.2","","76","","","","30","","30","","24.1","","101.98","","","","-42","","Ice Crystals,Blowing Snow"
"-92.11","62.81","RANKIN INLET A","2303405","2018-01-29 13:00","2018","01","29","13:00","-27.5","","-30.6","","76","","","","30","","26","","24.1","","101.96","","","","-41","","Ice Crystals,Blowing Snow"
"-92.11","62.81","RANKIN INLET A","2303405","2018-01-29 14:00","2018","01","29","14:00","-27.7","","-30.8","","75","","","","32","","26","","24.1","","101.96","","","","-42","","Ice Crystals,Blowing Snow"
"-92.11","62.81","RANKIN INLET A","2303405","2018-01-29 15:00","2018","01","29","15:00","-28.3","","-31.5","","75","","","","31","","26","","24.1","","101.96","","","","-43","","Ice Crystals,Blowing Snow"
"-92.11","62.81","RANKIN INLET A","2303405","2018-01-29 16:00","2018","01","29","16:00","-28.6","","-31.7","","75","","","","31","","31","","24.1","","101.95","","","","-44","","Ice Crystals,Blowing Snow"
"-92.11","62.81","RANKIN INLET A","2303405","2018-01-29 17:00","2018","01","29","17:00","-28.8","","-32.0","","75","","","","31","","35","","9.7","","101.98","","","","-45","","Ice Crystals,Blowing Snow"
"-92.11","62.81","RANKIN INLET A","2303405","2018-01-29 18:00","2018","01","29","18:00","-29.9","","-33.1","","74","","","","32","","31","","12.9","","102.01","","","","-46","","Ice Crystals,Blowing Snow"
"-92.11","62.81","RANKIN INLET A","2303405","2018-01-29 19:00","2018","01","29","19:00","-30.5","","-33.8","","74","","","","32","","32","","16.1","","101.96","","","","-47","","Ice Crystals,Blowing Snow"
"-92.11","62.81","RANKIN INLET A","2303405","2018-01-29 20:00","2018","01","29","20:00","-31.0","","-34.3","","73","","","","32","","33","","16.1","","101.96","","","","-48","","Ice Crystals,Blowing Snow"
"-92.11","62.81","RANKIN INLET A","2303405","2018-01-29 21:00","2018","01","29","21:00","-31.4","","-34.7","","73","","","","33","","31","","16.1","","101.93","","","","-48","","Ice Crystals,Blowing Snow"
"-92.11","62.81","RANKIN INLET A","2303405","2018-01-29 22:00","2018","01","29","22:00","-31.8","","-35.2","","73","","","","31","","25","","16.1","","101.92","","","","-47","","Ice Crystals,Blowing Snow"
"-92.11","62.81","RANKIN INLET A","2303405","2018-01-29 23:00","2018","01","29","23:00","-31.9","","-35.3","","73","","","","32","","32","","16.1","","101.92","","","","-49","","Ice Crystals,Blowing Snow"
"-92.11","62.81","RANKIN INLET A","2303405","2018-01-30 00:00","2018","01","30","00:00","-32.1","","-35.5","","73","","","","34","","9","","16.1","","101.93","","","","-41","","Ice Crystals,Blowing Snow"
"-92.11","62.81","RANKIN INLET A","2303405","2018-01-30 01:00","2018","01","30","01:00","-32.3","","-35.7","","72","","","","31","","21","","24.1","","101.93","","","","-46","","Ice Crystals,Blowing Snow"
"-92.11","62.81","RANKIN INLET A","2303405","2018-01-30 02:00","2018","01","30","02:00","-32.6","","-36.0","","72","","","","33","","30","","24.1","","101.88","","","","-49","","Ice Crystals,Blowing Snow"
"-92.11","62.81","RANKIN INLET A","2303405","2018-01-30 03:00","2018","01","30","03:00","-33.4","","-36.9","","72","","","","32","","18","","24.1","","101.91","","","","-47","","Ice Crystals"
"-92.11","62.81","RANKIN INLET A","2303405","2018-01-30 04:00","2018","01","30","04:00","-33.0","","-36.5","","72","","","","33","","23","","24.1","","101.88","","","","-48","","Ice Crystals"
"-92.11","62.81","RANKIN INLET A","2303405","2018-01-30 05:00","2018","01","30","05:00","-32.9","","-36.3","","72","","","","32","","20","","24.1","","101.88","","","","-47","","Ice Crystals"
"-92.11","62.81","RANKIN INLET A","2303405","2018-01-30 06:00","2018","01","30","06:00","-33.5","","-37.0","","71","","","","28","","14","","24.1","","101.86","","","","-45","","Ice Crystals"
"-92.11","62.81","RANKIN INLET A","2303405","2018-01-30 07:00","2018","01","30","07:00","-33.6","","-37.1","","71","","","","27","","14","","24.1","","101.87","","","","-45","","Ice Crystals"
"-92.11","62.81","RANKIN INLET A","2303405","2018-01-30 08:00","2018","01","30","08:00","-33.5","","-37.0","","71","","","","29","","16","","24.1","","101.84","","","","-46","","Ice Crystals"
"-92.11","62.81","RANKIN INLET A","2303405","2018-01-30 09:00","2018","01","30","09:00","-32.6","","-36.1","","72","","","","30","","14","","24.1","","101.79","","","","-44","","Ice Crystals"
"-92.11","62.81","RANKIN INLET A","2303405","2018-01-30 10:00","2018","01","30","10:00","-32.2","","-35.7","","72","","","","31","","15","","24.1","","101.75","","","","-44","","Ice Crystals"
"-92.11","62.81","RANKIN INLET A","2303405","2018-01-30 11:00","2018","01","30","11:00","-31.6","","-35.0","","73","","","","27","","14","","24.1","","101.77","","","","-43","","Ice Crystals"
"-92.11","62.81","RANKIN INLET A","2303405","2018-01-30 12:00","2018","01","30","12:00","-30.1","","-33.4","","74","","","","28","","12","","16.1","","101.77","","","","-40","","Ice Crystals"
"-92.11","62.81","RANKIN INLET A","2303405","2018-01-30 13:00","2018","01","30","13:00","-29.3","","-32.5","","74","","","","29","","11","","24.1","","101.76","","","","-39","","Snow"
"-92.11","62.81","RANKIN INLET A","2303405","2018-01-30 14:00","2018","01","30","14:00","-29.0","","-32.2","","74","","","","30","","11","","24.1","","101.74","","","","-38","","Snow"
"-92.11","62.81","RANKIN INLET A","2303405","2018-01-30 15:00","2018","01","30","15:00","-28.9","","-32.2","","74","","","","27","","9","","24.1","","101.72","","","","-37","","Ice Crystals"
"-92.11","62.81","RANKIN INLET A","2303405","2018-01-30 16:00","2018","01","30","16:00","-29.1","","-32.3","","74","","","","2","","6","","24.1","","101.66","","","","-35","","Ice Crystals"
"-92.11","62.81","RANKIN INLET A","2303405","2018-01-30 17:00","2018","01","30","17:00","-29.5","","-32.7","","74","","","","22","","6","","24.1","","101.69","","","","-36","","Ice Crystals"
"-92.11","62.81","RANKIN INLET A","2303405","2018-01-30 18:00","2018","01","30","18:00","-30.4","","-33.7","","73","","","","27","","9","","24.1","","101.68","","","","-39","","Ice Crystals"
"-92.11","62.81","RANKIN INLET A","2303405","2018-01-30 19:00","2018","01","30","19:00","-30.6","","-33.9","","73","","","","27","","8","","24.1","","101.70","","","","-39","","Ice Crystals"
"-92.11","62.81","RANKIN INLET A","2303405","2018-01-30 20:00","2018","01","30","20:00","-30.1","","-33.4","","74","","","","31","","10","","16.1","","101.66","","","","-39","","Snow"
"-92.11","62.81","RANKIN INLET A","2303405","2018-01-30 21:00","2018","01","30","21:00","-30.5","","-33.8","","73","","","","34","","10","","16.1","","101.66","","","","-40","","Snow"
"-92.11","62.81","RANKIN INLET A","2303405","2018-01-30 22:00","2018","01","30","22:00","-30.2","","-33.5","","74","","","","33","","11","","24.1","","101.67","","","","-40","","Snow"
"-92.11","62.81","RANKIN INLET A","2303405","2018-01-30 23:00","2018","01","30","23:00","-32.1","","-35.5","","72","","","","34","","16","","24.1","","101.71","","","","-44","","Snow"
"-92.11","62.81","RANKIN INLET A","2303405","2018-01-31 00:00","2018","01","31","00:00","-33.1","","-36.6","","72","","","","33","","17","","24.1","","101.69","","","","-46","","Ice Crystals"
"-92.11","62.81","RANKIN INLET A","2303405","2018-01-31 01:00","2018","01","31","01:00","-33.5","","-37.0","","71","","","","35","","21","","16.1","","101.65","","","","-48","","Ice Crystals"
"-92.11","62.81","RANKIN INLET A","2303405","2018-01-31 02:00","2018","01","31","02:00","-34.4","","-38.0","","71","","","","35","","23","","24.1","","101.70","","","","-50","","Ice Crystals"
"-92.11","62.81","RANKIN INLET A","2303405","2018-01-31 03:00","2018","01","31","03:00","-34.8","","-38.4","","71","","","","35","","21","","16.1","","101.72","","","","-49","","Ice Crystals"
"-92.11","62.81","RANKIN INLET A","2303405","2018-01-31 04:00","2018","01","31","04:00","-35.3","","-39.0","","70","","","","34","","19","","24.1","","101.77","","","","-49","","Ice Crystals"
"-92.11","62.81","RANKIN INLET A","2303405","2018-01-31 05:00","2018","01","31","05:00","-35.6","","-39.3","","70","","","","34","","21","","24.1","","101.78","","","","-50","","Ice Crystals"
"-92.11","62.81","RANKIN INLET A","2303405","2018-01-31 06:00","2018","01","31","06:00","-36.0","","-39.7","","70","","","","35","","10","","24.1","","101.81","","","","-46","","Ice Crystals"
"-92.11","62.81","RANKIN INLET A","2303405","2018-01-31 07:00","2018","01","31","07:00","-36.2","","-39.9","","70","","","","34","","22","","24.1","","101.80","","","","-52","","Ice Crystals"
"-92.11","62.81","RANKIN INLET A","2303405","2018-01-31 08:00","2018","01","31","08:00","-36.4","","-40.1","","69","","","","34","","19","","24.1","","101.80","","","","-51","","Ice Crystals"
"-92.11","62.81","RANKIN INLET A","2303405","2018-01-31 09:00","2018","01","31","09:00","-36.3","","-40.0","","69","","","","34","","27","","24.1","","101.78","","","","-53","","Ice Crystals"
"-92.11","62.81","RANKIN INLET A","2303405","2018-01-31 10:00","2018","01","31","10:00","-36.1","","-39.8","","69","","","","36","","21","","24.1","","101.83","","","","-51","","Ice Crystals"
"-92.11","62.81","RANKIN INLET A","2303405","2018-01-31 11:00","2018","01","31","11:00","-36.0","","-39.7","","69","","","","34","","36","","24.1","","101.78","","","","-55","","Ice Crystals,Blowing Snow"
"-92.11","62.81","RANKIN INLET A","2303405","2018-01-31 12:00","2018","01","31","12:00","-35.8","","-39.6","","69","","","","35","","30","","24.1","","101.78","","","","-53","","Ice Crystals,Blowing Snow"
"-92.11","62.81","RANKIN INLET A","2303405","2018-01-31 13:00","2018","01","31","13:00","-35.7","","-39.4","","69","","","","35","","28","","16.1","","101.77","","","","-53","","Ice Crystals,Blowing Snow"
"-92.11","62.81","RANKIN INLET A","2303405","2018-01-31 14:00","2018","01","31","14:00","-35.6","","-39.3","","69","","","","34","","29","","24.1","","101.74","","","","-53","","Ice Crystals,Blowing Snow"
"-92.11","62.81","RANKIN INLET A","2303405","2018-01-31 15:00","2018","01","31","15:00","-35.8","","-39.6","","69","","","","35","","33","","24.1","","101.69","","","","-54","","Ice Crystals,Blowing Snow"
"-92.11","62.81","RANKIN INLET A","2303405","2018-01-31 16:00","2018","01","31","16:00","-36.5","","-40.2","","69","","","","36","","8","","24.1","","101.78","","","","-46","","Ice Crystals,Blowing Snow"
"-92.11","62.81","RANKIN INLET A","2303405","2018-01-31 17:00","2018","01","31","17:00","-36.8","","-40.5","","69","","","","35","","27","","24.1","","101.77","","","","-54","","Ice Crystals,Blowing Snow"
"-92.11","62.81","RANKIN INLET A","2303405","2018-01-31 18:00","2018","01","31","18:00","-37.2","","-41.0","","69","","","","34","","17","","24.1","","101.78","","","","-51","","Ice Crystals,Blowing Snow"
"-92.11","62.81","RANKIN INLET A","2303405","2018-01-31 19:00","2018","01","31","19:00","-37.4","","-41.2","","69","","","","35","","16","","24.1","","101.75","","","","-51","","Ice Crystals,Blowing Snow"
"-92.11","62.81","RANKIN INLET A","2303405","2018-01-31 20:00","2018","01","31","20:00","-37.9","","-41.7","","68","","","","35","","19","","24.1","","101.70","","","","-53","","Ice Crystals"
"-92.11","62.81","RANKIN INLET A","2303405","2018-01-31 21:00","2018","01","31","21:00","-38.0","","-41.9","","68","","","","35","","28","","24.1","","101.63","","","","-56","","Ice Crystals"
"-92.11","62.81","RANKIN INLET A","2303405","2018-01-31 22:00","2018","01","31","22:00","-38.4","","-42.2","","68","","","","1","","15","","24.1","","101.61","","","","-52","","Ice Crystals"
"-92.11","62.81","RANKIN INLET A","2303405","2018-01-31 23:00","2018","01","31","23:00","-38.6","","-42.5","","68","","","","36","","24","","24.1","","101.55","","","","-55","","Ice Crystals"
