"Longitude (x)","Latitude (y)","Station Name","Climate ID","Date/Time (LST)","Year","Month","Day","Time (LST)","Temp (°C)","Temp Flag","Dew Point Temp (°C)","Dew Point Temp Flag","Rel Hum (%)","Rel Hum Flag","Precip. Amount (mm)","Precip. Amount Flag","Wind Dir (10s deg)","Wind Dir Flag","Wind Spd (km/h)","Wind Spd Flag","Visibility (km)","Visibility Flag","Stn Press (kPa)","Stn Press Flag","Hmdx","Hmdx Flag","Wind Chill","Wind Chill Flag","Weather"
"-92.11","62.81","RANKIN INLET A","2303405","2018-04-01 00:00","2018","04","01","00:00","-24.9","","-27.9","","77","","","","4","","13","","24.1","","101.09","","","","-34","","Ice Crystals"
"-92.11","62.81","RANKIN INLET A","2303405","2018-04-01 01:00","2018","04","01","01:00","-26.2","","-29.4","","75","","","","1","","16","","24.1","","101.12","","","","-37","","Ice Crystals"
"-92.11","62.81","RANKIN INLET A","2303405","2018-04-01 02:00","2018","04","01","02:00","-28.0","","-31.1","","76","","","","36","","17","","24.1","","101.12","","","","-40","","Ice Crystals"
"-92.11","62.81","RANKIN INLET A","2303405","2018-04-01 03:00","2018","04","01","03:00","-26.2","","-29.2","","77","","","","2","","19","","24.1","","101.15","","","","-38","","Ice Crystals"
"-92.11","62.81","RANKIN INLET A","2303405","2018-04-01 04:00","2018","04","01","04:00","-26.2","","-29.3","","76","","","","1","","13","","16.1","","101.17","","","","-36","","Ice Crystals"
"-92.11","62.81","RANKIN INLET A","2303405","2018-04-01 05:00","2018","04","01","05:00","-27.6","","-30.7","","76","","","","1","","14","","24.1","","101.17","","","","-38","","Ice Crystals"
"-92.11","62.81","RANKIN INLET A","2303405","2018-04-01 06:00","2018","04","01","06:00","-29.3","","-32.5","","74","","","","35","","23","","24.1","","101.21","","","","-43","","Ice Crystals"
"-92.11","62.81","RANKIN INLET A","2303405","2018-04-01 07:00","2018","04","01","07:00","-28.3","","-31.4","","76","","","","34","","21","","16.1","","101.23","","","","-41","","Ice Crystals"
"-92.11","62.81","RANKIN INLET A","2303405","2018-04-01 08:00","2018","04","01","08:00","-27.4","","-30.4","","76","","","","36","","23","","16.1","","101.21","","","","-41","","Ice Crystals"
"-92.11","62.81","RANKIN INLET A","2303405","2018-04-01 09:00","2018","04","01","09:00","-26.1","","-28.9","","77","","","","36","","22","","12.9","","101.25","","","","-39","","Ice Crystals"
"-92.11","62.81","RANKIN INLET A","2303405","2018-04-01 10:00","2018","04","01","10:00","-25.5","","-28.8","","75","","","","36","","22","","12.9","","101.26","","","","-38","","Ice Crystals"
"-92.11","62.81","RANKIN INLET A","2303405","2018-04-01 11:00","2018","04","01","11:00","-24.8","","-27.8","","77","","","","36","","19","","16.1","","101.25","","","","-36","","Ice Crystals"
"-92.11","62.81","RANKIN INLET A","2303405","2018-04-01 12:00","2018","04","01","12:00","-25.4","","-28.9","","73","","","","33","","20","","12.9","","101.25","","","","-37","","Ice Crystals"
"-92.11","62.81","RANKIN INLET A","2303405","2018-04-01 13:00","2018","04","01","13:00","-25.4","","-29.1","","72","","","","35","","16","","16.1","","101.25","","","","-36","","Ice Crystals"
"-92.11","62.81","RANKIN INLET A","2303405","2018-04-01 14:00","2018","04","01","14:00","-24.5","","-28.0","","73","","","","35","","21","","16.1","","101.24","","","","-36","","Ice Crystals"
"-92.11","62.81","RANKIN INLET A","2303405","2018-04-01 15:00","2018","04","01","15:00","-24.1","","-27.7","","73","","","","34","","21","","24.1","","101.23","","","","-36","","Ice Crystals"
"-92.11","62.81","RANKIN INLET A","2303405","2018-04-01 16:00","2018","04","01","16:00","-24.9","","-28.6","","72","","","","33","","22","","19.3","","101.25","","","","-37","","Ice Crystals"
"-92.11","62.81","RANKIN INLET A","2303405","2018-04-01 17:00","2018","04","01","17:00","-25.7","","-29.3","","73","","","","32","","21","","16.1","","101.26","","","","-38","","Ice Crystals"
"-92.11","62.81","RANKIN INLET A","2303405","2018-04-01 18:00","2018","04","01","18:00","-26.8","","-30.2","","74","","","","31","","16","","24.1","","101.24","","","","-38","","Ice Crystals"
"-92.11","62.81","RANKIN INLET A","2303405","2018-04-01 19:00","2018","04","01","19:00","-26.9","","-30.2","","74","","","","29","","14","","24.1","","101.22","","","","-37","","Ice Crystals"
"-92.11","62.81","RANKIN INLET A","2303405","2018-04-01 20:00","2018","04","01","20:00","-27.7","","-30.9","","75","","","","28","","15","","24.1","","101.19","","","","-39","","Ice Crystals"
"-92.11","62.81","RANKIN INLET A","2303405","2018-04-01 21:00","2018","04","01","21:00","-27.9","","-31.0","","75","","","","27","","16","","24.1","","101.15","","","","-39","","Ice Crystals"
"-92.11","62.81","RANKIN INLET A","2303405","2018-04-01 22:00","2018","04","01","22:00","-28.5","","-31.6","","76","","","","27","","16","","24.1","","101.09","","","","-40","","Ice Crystals"
"-92.11","62.81","RANKIN INLET A","2303405","2018-04-01 23:00","2018","04","01","23:00","-28.5","","-31.5","","76","","","","27","","13","","24.1","","101.06","","","","-39","","Ice Crystals"
"-92.11","62.81","RANKIN INLET A","2303405","2018-04-02 00:00","2018","04","02","00:00","-28.2","","-31.1","","76","","","","28","","14","","24.1","","101.01","","","","-39","","Ice Crystals"
"-92.11","62.81","RANKIN INLET A","2303405","2018-04-02 01:00","2018","04","02","01:00","-27.9","","-30.9","","76","","","","30","","12","","24.1","","101.02","","","","-38","","Ice Crystals"
"-92.11","62.81","RANKIN INLET A","2303405","2018-04-02 02:00","2018","04","02","02:00","-27.6","","-30.7","","76","","","","30","","14","","16.1","","101.02","","","","-38","","Ice Crystals"
"-92.11","62.81","RANKIN INLET A","2303405","2018-04-02 03:00","2018","04","02","03:00","-27.4","","-30.5","","75","","","","31","","12","","24.1","","101.03","","","","-37","","Ice Crystals"
"-92.11","62.81","RANKIN INLET A","2303405","2018-04-02 04:00","2018","04","02","04:00","-27.6","","-30.6","","76","","","","30","","10","","24.1","","101.03","","","","-36","","Ice Crystals"
"-92.11","62.81","RANKIN INLET A","2303405","2018-04-02 05:00","2018","04","02","05:00","-28.2","","-31.1","","77","","","","25","","8","","24.1","","101.04","","","","-36","","Ice Crystals"
"-92.11","62.81","RANKIN INLET A","2303405","2018-04-02 06:00","2018","04","02","06:00","-28.6","","-31.6","","76","","","","28","","11","","24.1","","101.02","","","","-38","","Ice Crystals"
"-92.11","62.81","RANKIN INLET A","2303405","2018-04-02 07:00","2018","04","02","07:00","-28.9","","-32.0","","75","","","","29","","12","","24.1","","101.04","","","","-39","","Ice Crystals"
"-92.11","62.81","RANKIN INLET A","2303405","2018-04-02 08:00","2018","04","02","08:00","-28.3","","-31.5","","75","","","","31","","12","","24.1","","101.07","","","","-38","","Ice Crystals"
"-92.11","62.81","RANKIN INLET A","2303405","2018-04-02 09:00","2018","04","02","09:00","-27.3","","-30.7","","74","","","","33","","12","","24.1","","101.07","","","","-37","","Ice Crystals"
"-92.11","62.81","RANKIN INLET A","2303405","2018-04-02 10:00","2018","04","02","10:00","-25.7","","-29.3","","73","","","","35","","12","","24.1","","101.10","","","","-35","","Ice Crystals"
"-92.11","62.81","RANKIN INLET A","2303405","2018-04-02 11:00","2018","04","02","11:00","-25.5","","-29.1","","72","","","","35","","17","","24.1","","101.10","","","","-37","","Ice Crystals"
"-92.11","62.81","RANKIN INLET A","2303405","2018-04-02 12:00","2018","04","02","12:00","-24.5","","-28.2","","72","","","","33","","21","","24.1","","101.11","","","","-36","","Ice Crystals"
"-92.11","62.81","RANKIN INLET A","2303405","2018-04-02 13:00","2018","04","02","13:00","-23.7","","-27.5","","72","","","","33","","19","","24.1","","101.13","","","","-35","","Ice Crystals"
"-92.11","62.81","RANKIN INLET A","2303405","2018-04-02 14:00","2018","04","02","14:00","-23.2","","-27.0","","71","","","","33","","23","","24.1","","101.12","","","","-35","","Ice Crystals"
"-92.11","62.81","RANKIN INLET A","2303405","2018-04-02 15:00","2018","04","02","15:00","-22.7","","-26.4","","72","","","","34","","25","","19.3","","101.12","","","","-35","","Ice Crystals,Blowing Snow"
"-92.11","62.81","RANKIN INLET A","2303405","2018-04-02 16:00","2018","04","02","16:00","-23.0","","-26.5","","73","","","","35","","31","","19.3","","101.07","","","","-37","","Ice Crystals,Blowing Snow"
"-92.11","62.81","RANKIN INLET A","2303405","2018-04-02 17:00","2018","04","02","17:00","-23.2","","-26.6","","74","","","","33","","31","","16.1","","101.02","","","","-37","","Ice Crystals,Blowing Snow"
"-92.11","62.81","RANKIN INLET A","2303405","2018-04-02 18:00","2018","04","02","18:00","-24.1","","-27.3","","75","","","","32","","27","","19.3","","100.98","","","","-37","","Ice Crystals,Blowing Snow"
"-92.11","62.81","RANKIN INLET A","2303405","2018-04-02 19:00","2018","04","02","19:00","-24.9","","-28.0","","76","","","","33","","30","","19.3","","100.90","","","","-39","","Ice Crystals,Blowing Snow"
"-92.11","62.81","RANKIN INLET A","2303405","2018-04-02 20:00","2018","04","02","20:00","-24.9","","-27.9","","76","","","","32","","34","","24.1","","100.80","","","","-40","","Ice Crystals,Blowing Snow"
"-92.11","62.81","RANKIN INLET A","2303405","2018-04-02 21:00","2018","04","02","21:00","-24.6","","-27.6","","76","","","","32","","32","","16.1","","100.65","","","","-39","","Ice Crystals,Blowing Snow"
"-92.11","62.81","RANKIN INLET A","2303405","2018-04-02 22:00","2018","04","02","22:00","-23.9","","-26.7","","78","","","","31","","35","","9.7","","100.47","","","","-39","","Ice Crystals,Blowing Snow"
"-92.11","62.81","RANKIN INLET A","2303405","2018-04-02 23:00","2018","04","02","23:00","-23.3","","-26.1","","78","","","","31","","39","","4.8","","100.28","","","","-38","","Blowing Snow"
"-92.11","62.81","RANKIN INLET A","2303405","2018-04-03 00:00","2018","04","03","00:00","-22.5","","-25.2","","79","","","","32","","43","","2.4","","100.12","","","","-38","","Snow,Blowing Snow"
"-92.11","62.81","RANKIN INLET A","2303405","2018-04-03 01:00","2018","04","03","01:00","-22.2","","-24.8","","80","","","","31","","45","","0.4","","99.96","","","","-38","","Snow,Blowing Snow"
"-92.11","62.81","RANKIN INLET A","2303405","2018-04-03 02:00","2018","04","03","02:00","-21.6","","-24.1","","80","","","","31","","47","","0.4","","99.83","","","","-37","","Snow,Blowing Snow"
"-92.11","62.81","RANKIN INLET A","2303405","2018-04-03 03:00","2018","04","03","03:00","-20.9","","-23.4","","81","","","","32","","48","","0.4","","99.72","","","","-36","","Snow,Blowing Snow"
"-92.11","62.81","RANKIN INLET A","2303405","2018-04-03 04:00","2018","04","03","04:00","-19.7","","-22.0","","82","","","","32","","48","","0.4","","99.58","","","","-35","","Snow,Blowing Snow"
"-92.11","62.81","RANKIN INLET A","2303405","2018-04-03 05:00","2018","04","03","05:00","-18.4","","-20.6","","83","","","","32","","38","","0.8","","99.51","","","","-32","","Snow,Blowing Snow"
"-92.11","62.81","RANKIN INLET A","2303405","2018-04-03 06:00","2018","04","03","06:00","-16.5","","-18.5","","85","","","","33","","32","","1.0","","99.45","","","","-28","","Snow,Blowing Snow"
"-92.11","62.81","RANKIN INLET A","2303405","2018-04-03 07:00","2018","04","03","07:00","-14.9","","-16.8","","85","","","","35","","35","","4.8","","99.44","","","","-27","","Snow,Blowing Snow"
"-92.11","62.81","RANKIN INLET A","2303405","2018-04-03 08:00","2018","04","03","08:00","-12.7","","-14.3","","88","","","","1","","15","","9.7","","99.44","","","","-20","","Snow,Blowing Snow"
"-92.11","62.81","RANKIN INLET A","2303405","2018-04-03 09:00","2018","04","03","09:00","-11.0","","-13.3","","84","","","","6","","25","","4.8","","99.51","","","","-20","","Snow,Blowing Snow"
"-92.11","62.81","RANKIN INLET A","2303405","2018-04-03 10:00","2018","04","03","10:00","-11.9","","-14.1","","83","","","","6","","26","","4.8","","99.59","","","","-21","","Snow,Blowing Snow"
"-92.11","62.81","RANKIN INLET A","2303405","2018-04-03 11:00","2018","04","03","11:00","-13.9","","-16.1","","83","","","","8","","40","","0.4","","99.71","","","","-26","","Snow,Blowing Snow"
"-92.11","62.81","RANKIN INLET A","2303405","2018-04-03 12:00","2018","04","03","12:00","-15.6","","-18.2","","81","","","","9","","43","","0.8","","99.88","","","","-29","","Snow,Blowing Snow"
"-92.11","62.81","RANKIN INLET A","2303405","2018-04-03 13:00","2018","04","03","13:00","-16.3","","-19.1","","79","","","","9","","41","","0.8","","100.09","","","","-29","","Snow,Blowing Snow"
"-92.11","62.81","RANKIN INLET A","2303405","2018-04-03 14:00","2018","04","03","14:00","-17.0","","-19.8","","79","","","","9","","45","","0.4","","100.26","","","","-31","","Snow,Blowing Snow"
"-92.11","62.81","RANKIN INLET A","2303405","2018-04-03 15:00","2018","04","03","15:00","-17.4","","-20.1","","80","","","","9","","46","","0.6","","100.38","","","","-31","","Snow,Blowing Snow"
"-92.11","62.81","RANKIN INLET A","2303405","2018-04-03 16:00","2018","04","03","16:00","-18.0","","-20.5","","81","","","","9","","38","","0.2","","100.49","","","","-31","","Snow,Blowing Snow"
"-92.11","62.81","RANKIN INLET A","2303405","2018-04-03 17:00","2018","04","03","17:00","-18.3","","-21.0","","80","","","","10","","41","","0.4","","100.60","","","","-32","","Snow,Blowing Snow"
"-92.11","62.81","RANKIN INLET A","2303405","2018-04-03 18:00","2018","04","03","18:00","-18.7","","-21.4","","80","","","","10","","41","","0.4","","100.71","","","","-33","","Snow,Blowing Snow"
"-92.11","62.81","RANKIN INLET A","2303405","2018-04-03 19:00","2018","04","03","19:00","-18.7","","-21.4","","79","","","","10","","43","","0.6","","100.80","","","","-33","","Snow,Blowing Snow"
"-92.11","62.81","RANKIN INLET A","2303405","2018-04-03 20:00","2018","04","03","20:00","-18.6","","-21.5","","79","","","","11","","54","","0.6","","100.88","","","","-34","","Snow,Blowing Snow"
"-92.11","62.81","RANKIN INLET A","2303405","2018-04-03 21:00","2018","04","03","21:00","-18.7","","-21.4","","80","","","","11","","54","","0.6","","100.95","","","","-34","","Snow,Blowing Snow"
"-92.11","62.81","RANKIN INLET A","2303405","2018-04-03 22:00","2018","04","03","22:00","-18.8","","-21.4","","80","","","","11","","48","","0.6","","101.03","","","","-34","","Snow,Blowing Snow"
"-92.11","62.81","RANKIN INLET A","2303405","2018-04-03 23:00","2018","04","03","23:00","-18.8","","-21.2","","81","","","","11","","45","","0.6","","101.12","","","","-33","","Snow,Blowing Snow"
"-92.11","62.81","RANKIN INLET A","2303405","2018-04-04 00:00","2018","04","04","00:00","-18.7","","-21.1","","81","","","","11","","42","","1.2","","101.22","","","","-33","","Snow,Blowing Snow"
"-92.11","62.81","RANKIN INLET A","2303405","2018-04-04 01:00","2018","04","04","01:00","-18.6","","-21.0","","82","","","","11","","39","","0.8","","101.31","","","","-32","","Snow,Blowing Snow"
"-92.11","62.81","RANKIN INLET A","2303405","2018-04-04 02:00","2018","04","04","02:00","-18.8","","-21.2","","82","","","","11","","36","","0.8","","101.41","","","","-32","","Snow,Blowing Snow"
"-92.11","62.81","RANKIN INLET A","2303405","2018-04-04 03:00","2018","04","04","03:00","-19.9","","-22.2","","82","","","","9","","29","","1.2","","101.49","","","","-32","","Snow,Blowing Snow"
"-92.11","62.81","RANKIN INLET A","2303405","2018-04-04 04:00","2018","04","04","04:00","-20.5","","-22.9","","81","","","","10","","37","","1.2","","101.58","","","","-34","","Snow,Blowing Snow"
"-92.11","62.81","RANKIN INLET A","2303405","2018-04-04 05:00","2018","04","04","05:00","-20.8","","-23.3","","81","","","","9","","34","","1.6","","101.65","","","","-34","","Blowing Snow"
"-92.11","62.81","RANKIN INLET A","2303405","2018-04-04 06:00","2018","04","04","06:00","-21.7","","-24.3","","80","","","","9","","27","","1.6","","101.74","","","","-34","","Ice Crystals,Blowing Snow"
"-92.11","62.81","RANKIN INLET A","2303405","2018-04-04 07:00","2018","04","04","07:00","-21.4","","-24.1","","79","","","","9","","27","","1.6","","101.82","","","","-34","","Ice Crystals,Blowing Snow"
"-92.11","62.81","RANKIN INLET A","2303405","2018-04-04 08:00","2018","04","04","08:00","-20.5","","-23.3","","78","","","","8","","32","","1.6","","101.87","","","","-34","","Ice Crystals,Blowing Snow"
"-92.11","62.81","RANKIN INLET A","2303405","2018-04-04 09:00","2018","04","04","09:00","-19.5","","-22.4","","78","","","","9","","28","","4.8","","101.88","","","","-32","","Ice Crystals,Blowing Snow"
"-92.11","62.81","RANKIN INLET A","2303405","2018-04-04 10:00","2018","04","04","10:00","-18.6","","-21.8","","76","","","","8","","28","","8.1","","101.95","","","","-30","","Ice Crystals,Blowing Snow"
"-92.11","62.81","RANKIN INLET A","2303405","2018-04-04 11:00","2018","04","04","11:00","-17.8","","-21.4","","74","","","","8","","28","","12.9","","102.02","","","","-29","","Ice Crystals,Blowing Snow"
"-92.11","62.81","RANKIN INLET A","2303405","2018-04-04 12:00","2018","04","04","12:00","-17.3","","-20.8","","75","","","","8","","23","","24.1","","102.05","","","","-28","","Ice Crystals,Blowing Snow"
"-92.11","62.81","RANKIN INLET A","2303405","2018-04-04 13:00","2018","04","04","13:00","-17.0","","-20.6","","74","","","","9","","23","","24.1","","102.08","","","","-27","","Ice Crystals,Blowing Snow"
"-92.11","62.81","RANKIN INLET A","2303405","2018-04-04 14:00","2018","04","04","14:00","-16.5","","-20.3","","73","","","","7","","15","","24.1","","102.11","","","","-25","","Ice Crystals,Blowing Snow"
"-92.11","62.81","RANKIN INLET A","2303405","2018-04-04 15:00","2018","04","04","15:00","-16.3","","-20.3","","72","","","","7","","14","","24.1","","102.13","","","","-24","","Ice Crystals"
"-92.11","62.81","RANKIN INLET A","2303405","2018-04-04 16:00","2018","04","04","16:00","-16.3","","-20.6","","70","","","","4","","11","","24.1","","102.13","","","","-23","","Ice Crystals"
"-92.11","62.81","RANKIN INLET A","2303405","2018-04-04 17:00","2018","04","04","17:00","-15.8","","-19.7","","72","","","","1","","13","","24.1","","102.11","","","","-23","","Ice Crystals"
"-92.11","62.81","RANKIN INLET A","2303405","2018-04-04 18:00","2018","04","04","18:00","-16.6","","-19.9","","76","","","","36","","23","","24.1","","102.10","","","","-27","","Ice Crystals"
"-92.11","62.81","RANKIN INLET A","2303405","2018-04-04 19:00","2018","04","04","19:00","-17.4","","-20.4","","78","","","","34","","20","","24.1","","102.06","","","","-27","","Ice Crystals"
"-92.11","62.81","RANKIN INLET A","2303405","2018-04-04 20:00","2018","04","04","20:00","-18.8","","-21.5","","80","","","","33","","21","","24.1","","102.00","","","","-29","","Ice Crystals"
"-92.11","62.81","RANKIN INLET A","2303405","2018-04-04 21:00","2018","04","04","21:00","-18.8","","-21.6","","79","","","","34","","28","","24.1","","101.94","","","","-31","","Ice Crystals"
"-92.11","62.81","RANKIN INLET A","2303405","2018-04-04 22:00","2018","04","04","22:00","-17.9","","-20.4","","81","","","","33","","27","","16.1","","101.83","","","","-29","","Snow,Blowing Snow"
"-92.11","62.81","RANKIN INLET A","2303405","2018-04-04 23:00","2018","04","04","23:00","-16.6","","-18.8","","84","","","","35","","36","","9.7","","101.74","","","","-29","","Snow,Blowing Snow"
"-92.11","62.81","RANKIN INLET A","2303405","2018-04-05 00:00","2018","04","05","00:00","-16.2","","-18.3","","84","","","","35","","35","","16.1","","101.65","","","","-28","","Snow,Blowing Snow"
"-92.11","62.81","RANKIN INLET A","2303405","2018-04-05 01:00","2018","04","05","01:00","-16.0","","-18.0","","85","","","","34","","26","","16.1","","101.62","","","","-27","","Snow,Blowing Snow"
"-92.11","62.81","RANKIN INLET A","2303405","2018-04-05 02:00","2018","04","05","02:00","-14.3","","-16.2","","86","","","","36","","27","","9.7","","101.53","","","","-25","","Snow,Blowing Snow"
"-92.11","62.81","RANKIN INLET A","2303405","2018-04-05 03:00","2018","04","05","03:00","-13.1","","-14.9","","87","","","","1","","34","","9.7","","101.49","","","","-24","","Snow,Blowing Snow"
"-92.11","62.81","RANKIN INLET A","2303405","2018-04-05 04:00","2018","04","05","04:00","-13.1","","-14.9","","87","","","","36","","27","","4.8","","101.47","","","","-23","","Snow,Blowing Snow"
"-92.11","62.81","RANKIN INLET A","2303405","2018-04-05 05:00","2018","04","05","05:00","-13.6","","-15.4","","86","","","","36","","37","","4.8","","101.40","","","","-25","","Snow,Blowing Snow"
"-92.11","62.81","RANKIN INLET A","2303405","2018-04-05 06:00","2018","04","05","06:00","-13.3","","-15.1","","86","","","","36","","40","","4.8","","101.31","","","","-25","","Snow,Blowing Snow"
"-92.11","62.81","RANKIN INLET A","2303405","2018-04-05 07:00","2018","04","05","07:00","-12.8","","-14.7","","86","","","","36","","35","","6.4","","101.28","","","","-24","","Snow,Blowing Snow"
"-92.11","62.81","RANKIN INLET A","2303405","2018-04-05 08:00","2018","04","05","08:00","-12.8","","-14.9","","84","","","","36","","29","","9.7","","101.26","","","","-23","","Snow,Blowing Snow"
"-92.11","62.81","RANKIN INLET A","2303405","2018-04-05 09:00","2018","04","05","09:00","-12.6","","-14.9","","83","","","","36","","28","","9.7","","101.20","","","","-23","","Snow,Blowing Snow"
"-92.11","62.81","RANKIN INLET A","2303405","2018-04-05 10:00","2018","04","05","10:00","-12.4","","-15.0","","81","","","","35","","28","","16.1","","101.18","","","","-22","","Snow,Blowing Snow"
"-92.11","62.81","RANKIN INLET A","2303405","2018-04-05 11:00","2018","04","05","11:00","-11.8","","-14.8","","79","","","","36","","34","","12.9","","101.14","","","","-22","","Snow,Blowing Snow"
"-92.11","62.81","RANKIN INLET A","2303405","2018-04-05 12:00","2018","04","05","12:00","-11.5","","-14.6","","78","","","","1","","41","","9.7","","101.10","","","","-23","","Snow,Blowing Snow"
"-92.11","62.81","RANKIN INLET A","2303405","2018-04-05 13:00","2018","04","05","13:00","-11.4","","-14.5","","78","","","","36","","33","","12.9","","101.10","","","","-22","","Snow,Blowing Snow"
"-92.11","62.81","RANKIN INLET A","2303405","2018-04-05 14:00","2018","04","05","14:00","-11.7","","-14.5","","80","","","","35","","36","","12.9","","101.14","","","","-23","","Snow,Blowing Snow"
"-92.11","62.81","RANKIN INLET A","2303405","2018-04-05 15:00","2018","04","05","15:00","-12.0","","-14.5","","82","","","","36","","46","","4.8","","101.06","","","","-24","","Snow,Blowing Snow"
"-92.11","62.81","RANKIN INLET A","2303405","2018-04-05 16:00","2018","04","05","16:00","-12.5","","-15.0","","82","","","","36","","49","","4.8","","101.05","","","","-25","","Snow,Blowing Snow"
"-92.11","62.81","RANKIN INLET A","2303405","2018-04-05 17:00","2018","04","05","17:00","-13.6","","-16.1","","82","","","","1","","46","","8.1","","101.07","","","","-26","","Snow,Blowing Snow"
"-92.11","62.81","RANKIN INLET A","2303405","2018-04-05 18:00","2018","04","05","18:00","-14.8","","-17.1","","82","","","","36","","48","","9.7","","101.04","","","","-28","","Snow,Blowing Snow"
"-92.11","62.81","RANKIN INLET A","2303405","2018-04-05 19:00","2018","04","05","19:00","-15.5","","-17.8","","83","","","","36","","41","","9.7","","101.08","","","","-28","","Blowing Snow"
"-92.11","62.81","RANKIN INLET A","2303405","2018-04-05 20:00","2018","04","05","20:00","-16.0","","-18.5","","82","","","","36","","42","","9.7","","101.07","","","","-29","","Blowing Snow"
"-92.11","62.81","RANKIN INLET A","2303405","2018-04-05 21:00","2018","04","05","21:00","-17.6","","-19.8","","83","","","","36","","46","","6.4","","101.10","","","","-32","","Blowing Snow"
"-92.11","62.81","RANKIN INLET A","2303405","2018-04-05 22:00","2018","04","05","22:00","-19.2","","-21.6","","82","","","","36","","49","","4.8","","101.08","","","","-34","","Blowing Snow"
"-92.11","62.81","RANKIN INLET A","2303405","2018-04-05 23:00","2018","04","05","23:00","-20.6","","-23.1","","81","","","","36","","50","","4.8","","101.08","","","","-36","","Blowing Snow"
"-92.11","62.81","RANKIN INLET A","2303405","2018-04-06 00:00","2018","04","06","00:00","-21.7","","-24.2","","80","","","","35","","49","","3.2","","101.11","","","","-38","","Blowing Snow"
"-92.11","62.81","RANKIN INLET A","2303405","2018-04-06 01:00","2018","04","06","01:00","-22.5","","-25.1","","79","","","","35","","47","","3.2","","101.11","","","","-38","","Blowing Snow"
"-92.11","62.81","RANKIN INLET A","2303405","2018-04-06 02:00","2018","04","06","02:00","-23.7","","-26.4","","79","","","","35","","50","","3.2","","101.07","","","","-40","","Blowing Snow"
"-92.11","62.81","RANKIN INLET A","2303405","2018-04-06 03:00","2018","04","06","03:00","-25.1","","-27.9","","78","","","","35","","47","","1.6","","101.09","","","","-42","","Blowing Snow"
"-92.11","62.81","RANKIN INLET A","2303405","2018-04-06 04:00","2018","04","06","04:00","-25.6","","-28.5","","77","","","","35","","44","","2.4","","101.11","","","","-42","","Blowing Snow"
"-92.11","62.81","RANKIN INLET A","2303405","2018-04-06 05:00","2018","04","06","05:00","-26.6","","-29.6","","77","","","","35","","46","","2.4","","101.09","","","","-44","","Blowing Snow"
"-92.11","62.81","RANKIN INLET A","2303405","2018-04-06 06:00","2018","04","06","06:00","-27.0","","-30.0","","76","","","","35","","43","","0.8","","101.10","","","","-44","","Blowing Snow"
"-92.11","62.81","RANKIN INLET A","2303405","2018-04-06 07:00","2018","04","06","07:00","-27.0","","-30.1","","76","","","","34","","42","","0.8","","101.09","","","","-44","","Blowing Snow"
"-92.11","62.81","RANKIN INLET A","2303405","2018-04-06 08:00","2018","04","06","08:00","-26.6","","-29.6","","76","","","","34","","44","","0.8","","101.06","","","","-44","","Blowing Snow"
"-92.11","62.81","RANKIN INLET A","2303405","2018-04-06 09:00","2018","04","06","09:00","-25.7","","-28.8","","76","","","","35","","45","","0.8","","101.03","","","","-42","","Blowing Snow"
"-92.11","62.81","RANKIN INLET A","2303405","2018-04-06 10:00","2018","04","06","10:00","-24.6","","-27.7","","76","","","","35","","41","","0.8","","101.09","","","","-40","","Blowing Snow"
"-92.11","62.81","RANKIN INLET A","2303405","2018-04-06 11:00","2018","04","06","11:00","-23.8","","-27.0","","76","","","","35","","38","","1.0","","101.07","","","","-39","","Blowing Snow"
"-92.11","62.81","RANKIN INLET A","2303405","2018-04-06 12:00","2018","04","06","12:00","-22.6","","-25.7","","76","","","","34","","41","","1.0","","101.06","","","","-38","","Blowing Snow"
"-92.11","62.81","RANKIN INLET A","2303405","2018-04-06 13:00","2018","04","06","13:00","-21.6","","-24.5","","78","","","","34","","45","","0.8","","101.06","","","","-37","","Blowing Snow"
"-92.11","62.81","RANKIN INLET A","2303405","2018-04-06 14:00","2018","04","06","14:00","-20.7","","-23.4","","79","","","","34","","46","","0.8","","101.06","","","","-36","","Blowing Snow"
"-92.11","62.81","RANKIN INLET A","2303405","2018-04-06 15:00","2018","04","06","15:00","-20.5","","-23.2","","79","","","","34","","49","","0.8","","101.08","","","","-36","","Blowing Snow"
"-92.11","62.81","RANKIN INLET A","2303405","2018-04-06 16:00","2018","04","06","16:00","-19.7","","-22.3","","80","","","","34","","48","","1.2","","101.05","","","","-35","","Blowing Snow"
"-92.11","62.81","RANKIN INLET A","2303405","2018-04-06 17:00","2018","04","06","17:00","-20.1","","-22.7","","80","","","","34","","50","","1.2","","101.06","","","","-36","","Blowing Snow"
"-92.11","62.81","RANKIN INLET A","2303405","2018-04-06 18:00","2018","04","06","18:00","-20.6","","-23.1","","80","","","","35","","48","","1.6","","101.06","","","","-36","","Blowing Snow"
"-92.11","62.81","RANKIN INLET A","2303405","2018-04-06 19:00","2018","04","06","19:00","-21.4","","-23.9","","80","","","","35","","49","","1.2","","101.03","","","","-37","","Blowing Snow"
"-92.11","62.81","RANKIN INLET A","2303405","2018-04-06 20:00","2018","04","06","20:00","-22.1","","-24.8","","80","","","","35","","48","","1.6","","101.05","","","","-38","","Blowing Snow"
"-92.11","62.81","RANKIN INLET A","2303405","2018-04-06 21:00","2018","04","06","21:00","-23.1","","-25.7","","79","","","","35","","46","","1.6","","101.03","","","","-39","","Blowing Snow"
"-92.11","62.81","RANKIN INLET A","2303405","2018-04-06 22:00","2018","04","06","22:00","-23.9","","-26.6","","79","","","","35","","49","","1.6","","101.01","","","","-41","","Blowing Snow"
"-92.11","62.81","RANKIN INLET A","2303405","2018-04-06 23:00","2018","04","06","23:00","-24.4","","-27.2","","78","","","","35","","45","","1.6","","101.00","","","","-41","","Blowing Snow"
"-92.11","62.81","RANKIN INLET A","2303405","2018-04-07 00:00","2018","04","07","00:00","-25.1","","-28.0","","78","","","","35","","42","","1.6","","101.03","","","","-41","","Blowing Snow"
"-92.11","62.81","RANKIN INLET A","2303405","2018-04-07 01:00","2018","04","07","01:00","-25.3","","-28.3","","77","","","","35","","42","","3.2","","101.01","","","","-42","","Blowing Snow"
"-92.11","62.81","RANKIN INLET A","2303405","2018-04-07 02:00","2018","04","07","02:00","-26.7","","-29.8","","76","","","","34","","39","","4.8","","101.00","","","","-43","","Blowing Snow"
"-92.11","62.81","RANKIN INLET A","2303405","2018-04-07 03:00","2018","04","07","03:00","-27.5","","-30.7","","75","","","","35","","42","","16.1","","100.99","","","","-44","","Blowing Snow"
"-92.11","62.81","RANKIN INLET A","2303405","2018-04-07 04:00","2018","04","07","04:00","-28.1","","-31.3","","75","","","","34","","41","","24.1","","100.98","","","","-45","","Blowing Snow"
"-92.11","62.81","RANKIN INLET A","2303405","2018-04-07 05:00","2018","04","07","05:00","-28.4","","-31.6","","74","","","","34","","38","","24.1","","100.98","","","","-45","","Blowing Snow"
"-92.11","62.81","RANKIN INLET A","2303405","2018-04-07 06:00","2018","04","07","06:00","-28.1","","-31.4","","74","","","","34","","40","","16.1","","100.98","","","","-45","","Blowing Snow"
"-92.11","62.81","RANKIN INLET A","2303405","2018-04-07 07:00","2018","04","07","07:00","-27.7","","-31.0","","74","","","","34","","41","","16.1","","100.98","","","","-45","","Blowing Snow"
"-92.11","62.81","RANKIN INLET A","2303405","2018-04-07 08:00","2018","04","07","08:00","-27.0","","-30.4","","74","","","","35","","42","","12.9","","101.00","","","","-44","","Blowing Snow"
"-92.11","62.81","RANKIN INLET A","2303405","2018-04-07 09:00","2018","04","07","09:00","-25.8","","-29.2","","73","","","","34","","32","","16.1","","101.01","","","","-41","","Blowing Snow"
"-92.11","62.81","RANKIN INLET A","2303405","2018-04-07 10:00","2018","04","07","10:00","-24.6","","-28.2","","73","","","","35","","33","","16.1","","101.01","","","","-39","","Blowing Snow"
"-92.11","62.81","RANKIN INLET A","2303405","2018-04-07 11:00","2018","04","07","11:00","-23.9","","-27.5","","73","","","","34","","34","","16.1","","101.02","","","","-38","","Blowing Snow"
"-92.11","62.81","RANKIN INLET A","2303405","2018-04-07 12:00","2018","04","07","12:00","-22.9","","-26.3","","74","","","","34","","32","","16.1","","100.99","","","","-37","","Blowing Snow"
"-92.11","62.81","RANKIN INLET A","2303405","2018-04-07 13:00","2018","04","07","13:00","-22.2","","-25.7","","74","","","","34","","27","","24.1","","101.02","","","","-35","","Blowing Snow"
"-92.11","62.81","RANKIN INLET A","2303405","2018-04-07 14:00","2018","04","07","14:00","-21.9","","-25.3","","74","","","","35","","30","","24.1","","101.03","","","","-35","","Blowing Snow"
"-92.11","62.81","RANKIN INLET A","2303405","2018-04-07 15:00","2018","04","07","15:00","-21.3","","-24.9","","74","","","","34","","30","","24.1","","101.05","","","","-34","","Blowing Snow"
"-92.11","62.81","RANKIN INLET A","2303405","2018-04-07 16:00","2018","04","07","16:00","-21.2","","-24.7","","74","","","","34","","34","","24.1","","101.05","","","","-35","","Blowing Snow"
"-92.11","62.81","RANKIN INLET A","2303405","2018-04-07 17:00","2018","04","07","17:00","-21.2","","-24.6","","75","","","","33","","24","","24.1","","101.08","","","","-33","","Blowing Snow"
"-92.11","62.81","RANKIN INLET A","2303405","2018-04-07 18:00","2018","04","07","18:00","-21.9","","-25.1","","76","","","","34","","24","","24.1","","101.05","","","","-34","","Blowing Snow"
"-92.11","62.81","RANKIN INLET A","2303405","2018-04-07 19:00","2018","04","07","19:00","-22.8","","-25.7","","77","","","","32","","20","","24.1","","101.01","","","","-34","","NA"
"-92.11","62.81","RANKIN INLET A","2303405","2018-04-07 20:00","2018","04","07","20:00","-23.2","","-26.0","","78","","","","32","","26","","24.1","","100.98","","","","-36","","NA"
"-92.11","62.81","RANKIN INLET A","2303405","2018-04-07 21:00","2018","04","07","21:00","-23.0","","-25.7","","79","","","","33","","30","","24.1","","100.96","","","","-36","","Blowing Snow"
"-92.11","62.81","RANKIN INLET A","2303405","2018-04-07 22:00","2018","04","07","22:00","-23.9","","-26.6","","79","","","","32","","23","","16.1","","100.94","","","","-36","","Ice Crystals,Blowing Snow"
"-92.11","62.81","RANKIN INLET A","2303405","2018-04-07 23:00","2018","04","07","23:00","-23.7","","-26.4","","79","","","","33","","27","","16.1","","100.92","","","","-37","","Ice Crystals,Blowing Snow"
"-92.11","62.81","RANKIN INLET A","2303405","2018-04-08 00:00","2018","04","08","00:00","-24.3","","-27.0","","78","","","","33","","25","","16.1","","100.93","","","","-37","","Ice Crystals,Blowing Snow"
"-92.11","62.81","RANKIN INLET A","2303405","2018-04-08 01:00","2018","04","08","01:00","-24.4","","-27.1","","78","","","","34","","28","","16.1","","100.90","","","","-38","","Ice Crystals,Blowing Snow"
"-92.11","62.81","RANKIN INLET A","2303405","2018-04-08 02:00","2018","04","08","02:00","-24.5","","-27.2","","79","","","","33","","28","","16.1","","100.92","","","","-38","","Ice Crystals,Blowing Snow"
"-92.11","62.81","RANKIN INLET A","2303405","2018-04-08 03:00","2018","04","08","03:00","-24.6","","-27.4","","78","","","","34","","26","","16.1","","100.92","","","","-38","","Ice Crystals,Blowing Snow"
"-92.11","62.81","RANKIN INLET A","2303405","2018-04-08 04:00","2018","04","08","04:00","-24.6","","-27.4","","78","","","","34","","27","","16.1","","100.91","","","","-38","","Ice Crystals,Blowing Snow"
"-92.11","62.81","RANKIN INLET A","2303405","2018-04-08 05:00","2018","04","08","05:00","-24.6","","-27.4","","78","","","","35","","28","","16.1","","100.92","","","","-38","","Ice Crystals,Blowing Snow"
"-92.11","62.81","RANKIN INLET A","2303405","2018-04-08 06:00","2018","04","08","06:00","-24.7","","-27.5","","78","","","","34","","30","","16.1","","100.95","","","","-39","","Ice Crystals,Blowing Snow"
"-92.11","62.81","RANKIN INLET A","2303405","2018-04-08 07:00","2018","04","08","07:00","-24.4","","-27.2","","78","","","","33","","24","","16.1","","100.99","","","","-37","","Ice Crystals,Blowing Snow"
"-92.11","62.81","RANKIN INLET A","2303405","2018-04-08 08:00","2018","04","08","08:00","-23.8","","-26.8","","77","","","","34","","27","","16.1","","101.01","","","","-37","","Ice Crystals,Blowing Snow"
"-92.11","62.81","RANKIN INLET A","2303405","2018-04-08 09:00","2018","04","08","09:00","-23.0","","-26.1","","76","","","","34","","27","","24.1","","101.01","","","","-36","","Ice Crystals,Blowing Snow"
"-92.11","62.81","RANKIN INLET A","2303405","2018-04-08 10:00","2018","04","08","10:00","-21.9","","-25.2","","75","","","","33","","30","","24.1","","101.01","","","","-35","","Ice Crystals,Blowing Snow"
"-92.11","62.81","RANKIN INLET A","2303405","2018-04-08 11:00","2018","04","08","11:00","-21.2","","-24.6","","75","","","","34","","25","","24.1","","101.03","","","","-33","","Ice Crystals,Blowing Snow"
"-92.11","62.81","RANKIN INLET A","2303405","2018-04-08 12:00","2018","04","08","12:00","-20.6","","-24.1","","74","","","","33","","26","","24.1","","101.06","","","","-33","","Ice Crystals,Blowing Snow"
"-92.11","62.81","RANKIN INLET A","2303405","2018-04-08 13:00","2018","04","08","13:00","-20.0","","-23.5","","74","","","","34","","23","","24.1","","101.10","","","","-31","","Ice Crystals,Blowing Snow"
"-92.11","62.81","RANKIN INLET A","2303405","2018-04-08 14:00","2018","04","08","14:00","-19.3","","-23.0","","73","","","","33","","23","","8.1","","101.13","","","","-30","","Ice Crystals"
"-92.11","62.81","RANKIN INLET A","2303405","2018-04-08 15:00","2018","04","08","15:00","-18.9","","-22.8","","72","","","","32","","22","","24.1","","101.17","","","","-30","","Ice Crystals"
"-92.11","62.81","RANKIN INLET A","2303405","2018-04-08 16:00","2018","04","08","16:00","-19.0","","-23.0","","71","","","","32","","22","","24.1","","101.19","","","","-30","","Ice Crystals"
"-92.11","62.81","RANKIN INLET A","2303405","2018-04-08 17:00","2018","04","08","17:00","-19.2","","-22.7","","74","","","","31","","20","","24.1","","101.21","","","","-29","","Ice Crystals"
"-92.11","62.81","RANKIN INLET A","2303405","2018-04-08 18:00","2018","04","08","18:00","-20.2","","-23.4","","76","","","","31","","21","","24.1","","101.23","","","","-31","","Ice Crystals"
"-92.11","62.81","RANKIN INLET A","2303405","2018-04-08 19:00","2018","04","08","19:00","-22.5","","-25.6","","76","","","","32","","24","","24.1","","101.24","","","","-35","","NA"
"-92.11","62.81","RANKIN INLET A","2303405","2018-04-08 20:00","2018","04","08","20:00","-23.6","","-26.5","","77","","","","31","","22","","24.1","","101.26","","","","-36","","NA"
"-92.11","62.81","RANKIN INLET A","2303405","2018-04-08 21:00","2018","04","08","21:00","-24.3","","-27.2","","78","","","","31","","22","","24.1","","101.26","","","","-36","","Mainly Clear"
"-92.11","62.81","RANKIN INLET A","2303405","2018-04-08 22:00","2018","04","08","22:00","-25.2","","-28.0","","78","","","","31","","23","","24.1","","101.25","","","","-38","","NA"
"-92.11","62.81","RANKIN INLET A","2303405","2018-04-08 23:00","2018","04","08","23:00","-25.8","","-28.7","","77","","","","32","","22","","24.1","","101.27","","","","-38","","NA"
"-92.11","62.81","RANKIN INLET A","2303405","2018-04-09 00:00","2018","04","09","00:00","-26.7","","-29.6","","77","","","","33","","22","","24.1","","101.27","","","","-39","","Clear"
"-92.11","62.81","RANKIN INLET A","2303405","2018-04-09 01:00","2018","04","09","01:00","-27.3","","-30.3","","76","","","","33","","17","","24.1","","101.26","","","","-39","","NA"
"-92.11","62.81","RANKIN INLET A","2303405","2018-04-09 02:00","2018","04","09","02:00","-27.5","","-30.5","","76","","","","31","","12","","24.1","","101.28","","","","-37","","NA"
"-92.11","62.81","RANKIN INLET A","2303405","2018-04-09 03:00","2018","04","09","03:00","-27.8","","-30.9","","75","","","","29","","11","","24.1","","101.30","","","","-37","","Clear"
"-92.11","62.81","RANKIN INLET A","2303405","2018-04-09 04:00","2018","04","09","04:00","-28.1","","-31.1","","76","","","","30","","13","","24.1","","101.31","","","","-38","","NA"
"-92.11","62.81","RANKIN INLET A","2303405","2018-04-09 05:00","2018","04","09","05:00","-28.1","","-31.0","","76","","","","30","","12","","24.1","","101.30","","","","-38","","NA"
"-92.11","62.81","RANKIN INLET A","2303405","2018-04-09 06:00","2018","04","09","06:00","-28.2","","-31.3","","75","","","","31","","12","","24.1","","101.29","","","","-38","","Clear"
"-92.11","62.81","RANKIN INLET A","2303405","2018-04-09 07:00","2018","04","09","07:00","-27.4","","-30.6","","75","","","","26","","12","","24.1","","101.28","","","","-37","","NA"
"-92.11","62.81","RANKIN INLET A","2303405","2018-04-09 08:00","2018","04","09","08:00","-26.9","","-30.3","","74","","","","27","","11","","24.1","","101.25","","","","-36","","NA"
"-92.11","62.81","RANKIN INLET A","2303405","2018-04-09 09:00","2018","04","09","09:00","-25.7","","-29.1","","74","","","","28","","8","","24.1","","101.23","","","","-33","","Clear"
"-92.11","62.81","RANKIN INLET A","2303405","2018-04-09 10:00","2018","04","09","10:00","-24.2","","-27.7","","74","","","","26","","10","","24.1","","101.23","","","","-32","","NA"
"-92.11","62.81","RANKIN INLET A","2303405","2018-04-09 11:00","2018","04","09","11:00","-23.0","","-26.6","","73","","","","26","","10","","24.1","","101.21","","","","-31","","NA"
"-92.11","62.81","RANKIN INLET A","2303405","2018-04-09 12:00","2018","04","09","12:00","-21.5","","-25.0","","74","","","","25","","9","","24.1","","101.20","","","","-29","","Mainly Clear"
"-92.11","62.81","RANKIN INLET A","2303405","2018-04-09 13:00","2018","04","09","13:00","-20.0","","-23.5","","74","","","","28","","10","","24.1","","101.18","","","","-27","","NA"
"-92.11","62.81","RANKIN INLET A","2303405","2018-04-09 14:00","2018","04","09","14:00","-19.0","","-22.6","","74","","","","24","","13","","24.1","","101.17","","","","-27","","NA"
"-92.11","62.81","RANKIN INLET A","2303405","2018-04-09 15:00","2018","04","09","15:00","-18.5","","-22.0","","74","","","","25","","16","","24.1","","101.14","","","","-28","","Mainly Clear"
"-92.11","62.81","RANKIN INLET A","2303405","2018-04-09 16:00","2018","04","09","16:00","-18.4","","-21.7","","75","","","","27","","16","","24.1","","101.13","","","","-27","","NA"
"-92.11","62.81","RANKIN INLET A","2303405","2018-04-09 17:00","2018","04","09","17:00","-18.5","","-21.9","","75","","","","27","","16","","24.1","","101.09","","","","-28","","NA"
"-92.11","62.81","RANKIN INLET A","2303405","2018-04-09 18:00","2018","04","09","18:00","-19.4","","-22.4","","77","","","","25","","12","","24.1","","101.08","","","","-27","","Mainly Clear"
"-92.11","62.81","RANKIN INLET A","2303405","2018-04-09 19:00","2018","04","09","19:00","-20.6","","-23.3","","79","","","","25","","12","","24.1","","101.05","","","","-29","","NA"
"-92.11","62.81","RANKIN INLET A","2303405","2018-04-09 20:00","2018","04","09","20:00","-21.2","","-23.6","","81","","","","29","","12","","24.1","","101.03","","","","-29","","NA"
"-92.11","62.81","RANKIN INLET A","2303405","2018-04-09 21:00","2018","04","09","21:00","-22.8","","-25.1","","82","","","","32","","13","","24.1","","100.99","","","","-32","","Mainly Clear"
"-92.11","62.81","RANKIN INLET A","2303405","2018-04-09 22:00","2018","04","09","22:00","-24.8","","-27.1","","81","","","","34","","9","","24.1","","100.95","","","","-32","","NA"
"-92.11","62.81","RANKIN INLET A","2303405","2018-04-09 23:00","2018","04","09","23:00","-25.5","","-27.9","","81","","","","36","","11","","24.1","","100.91","","","","-34","","NA"
"-92.11","62.81","RANKIN INLET A","2303405","2018-04-10 00:00","2018","04","10","00:00","-26.4","","-28.9","","80","","","","34","","14","","24.1","","100.87","","","","-37","","Mainly Clear"
"-92.11","62.81","RANKIN INLET A","2303405","2018-04-10 01:00","2018","04","10","01:00","-27.6","","-30.3","","78","","","","34","","14","","24.1","","100.84","","","","-38","","NA"
"-92.11","62.81","RANKIN INLET A","2303405","2018-04-10 02:00","2018","04","10","02:00","-27.6","","-30.4","","78","","","","34","","15","","24.1","","100.80","","","","-38","","NA"
"-92.11","62.81","RANKIN INLET A","2303405","2018-04-10 03:00","2018","04","10","03:00","-28.1","","-31.1","","76","","","","35","","11","","24.1","","100.77","","","","-37","","Mainly Clear"
"-92.11","62.81","RANKIN INLET A","2303405","2018-04-10 04:00","2018","04","10","04:00","-28.9","","-31.9","","76","","","","34","","14","","24.1","","100.73","","","","-40","","NA"
"-92.11","62.81","RANKIN INLET A","2303405","2018-04-10 05:00","2018","04","10","05:00","-29.6","","-32.6","","75","","","","33","","21","","24.1","","100.70","","","","-43","","NA"
"-92.11","62.81","RANKIN INLET A","2303405","2018-04-10 06:00","2018","04","10","06:00","-29.8","","-32.9","","75","","","","34","","16","","24.1","","100.69","","","","-42","","Clear"
"-92.11","62.81","RANKIN INLET A","2303405","2018-04-10 07:00","2018","04","10","07:00","-29.4","","-32.6","","74","","","","35","","21","","16.1","","100.66","","","","-43","","Ice Crystals"
"-92.11","62.81","RANKIN INLET A","2303405","2018-04-10 08:00","2018","04","10","08:00","-29.1","","-32.4","","74","","","","35","","22","","16.1","","100.62","","","","-43","","Ice Crystals"
"-92.11","62.81","RANKIN INLET A","2303405","2018-04-10 09:00","2018","04","10","09:00","-28.7","","-32.1","","73","","","","34","","26","","16.1","","100.58","","","","-43","","Ice Crystals,Blowing Snow"
"-92.11","62.81","RANKIN INLET A","2303405","2018-04-10 10:00","2018","04","10","10:00","-27.6","","-31.0","","73","","","","35","","23","","16.1","","100.57","","","","-41","","Ice Crystals,Blowing Snow"
"-92.11","62.81","RANKIN INLET A","2303405","2018-04-10 11:00","2018","04","10","11:00","-26.3","","-30.0","","72","","","","35","","26","","16.1","","100.54","","","","-40","","Ice Crystals,Blowing Snow"
"-92.11","62.81","RANKIN INLET A","2303405","2018-04-10 12:00","2018","04","10","12:00","-25.8","","-29.6","","71","","","","35","","26","","16.1","","100.53","","","","-39","","Ice Crystals,Blowing Snow"
"-92.11","62.81","RANKIN INLET A","2303405","2018-04-10 13:00","2018","04","10","13:00","-25.0","","-28.9","","71","","","","34","","28","","16.1","","100.50","","","","-39","","Ice Crystals"
"-92.11","62.81","RANKIN INLET A","2303405","2018-04-10 14:00","2018","04","10","14:00","-24.8","","-28.7","","71","","","","34","","31","","24.1","","100.48","","","","-39","","Ice Crystals"
"-92.11","62.81","RANKIN INLET A","2303405","2018-04-10 15:00","2018","04","10","15:00","-24.5","","-28.3","","72","","","","34","","25","","16.1","","100.47","","","","-37","","Ice Crystals,Blowing Snow"
"-92.11","62.81","RANKIN INLET A","2303405","2018-04-10 16:00","2018","04","10","16:00","-24.3","","-28.0","","72","","","","34","","27","","24.1","","100.46","","","","-38","","Ice Crystals,Blowing Snow"
"-92.11","62.81","RANKIN INLET A","2303405","2018-04-10 17:00","2018","04","10","17:00","-24.6","","-28.3","","72","","","","33","","29","","24.1","","100.45","","","","-38","","Ice Crystals,Blowing Snow"
"-92.11","62.81","RANKIN INLET A","2303405","2018-04-10 18:00","2018","04","10","18:00","-25.6","","-29.2","","72","","","","32","","29","","24.1","","100.46","","","","-40","","Ice Crystals,Blowing Snow"
"-92.11","62.81","RANKIN INLET A","2303405","2018-04-10 19:00","2018","04","10","19:00","-26.7","","-30.2","","73","","","","33","","24","","24.1","","100.44","","","","-40","","Ice Crystals"
"-92.11","62.81","RANKIN INLET A","2303405","2018-04-10 20:00","2018","04","10","20:00","-28.2","","-31.6","","74","","","","32","","15","","24.1","","100.38","","","","-39","","Ice Crystals"
"-92.11","62.81","RANKIN INLET A","2303405","2018-04-10 21:00","2018","04","10","21:00","-28.9","","-32.1","","74","","","","31","","19","","24.1","","100.36","","","","-41","","Ice Crystals"
"-92.11","62.81","RANKIN INLET A","2303405","2018-04-10 22:00","2018","04","10","22:00","-29.1","","-32.3","","74","","","","31","","18","","24.1","","100.31","","","","-41","","Ice Crystals"
"-92.11","62.81","RANKIN INLET A","2303405","2018-04-10 23:00","2018","04","10","23:00","-30.2","","-33.4","","75","","","","32","","14","","24.1","","100.25","","","","-41","","Ice Crystals"
"-92.11","62.81","RANKIN INLET A","2303405","2018-04-11 00:00","2018","04","11","00:00","-30.7","","-33.8","","75","","","","33","","12","","24.1","","100.20","","","","-41","","Ice Crystals"
"-92.11","62.81","RANKIN INLET A","2303405","2018-04-11 01:00","2018","04","11","01:00","-31.2","","-34.3","","75","","","","33","","16","","24.1","","100.15","","","","-43","","Ice Crystals"
"-92.11","62.81","RANKIN INLET A","2303405","2018-04-11 02:00","2018","04","11","02:00","-31.1","","-34.1","","75","","","","33","","13","","24.1","","100.15","","","","-42","","Ice Crystals"
"-92.11","62.81","RANKIN INLET A","2303405","2018-04-11 03:00","2018","04","11","03:00","-31.4","","-34.5","","75","","","","35","","17","","24.1","","100.11","","","","-44","","Ice Crystals"
"-92.11","62.81","RANKIN INLET A","2303405","2018-04-11 04:00","2018","04","11","04:00","-32.1","","-35.2","","75","","","","35","","15","","24.1","","100.13","","","","-44","","Ice Crystals"
"-92.11","62.81","RANKIN INLET A","2303405","2018-04-11 05:00","2018","04","11","05:00","-32.7","","-35.9","","74","","","","35","","15","","24.1","","100.13","","","","-45","","Ice Crystals"
"-92.11","62.81","RANKIN INLET A","2303405","2018-04-11 06:00","2018","04","11","06:00","-32.4","","-35.6","","74","","","","34","","15","","24.1","","100.14","","","","-44","","Ice Crystals"
"-92.11","62.81","RANKIN INLET A","2303405","2018-04-11 07:00","2018","04","11","07:00","-31.8","","-35.1","","73","","","","36","","20","","24.1","","100.12","","","","-45","","Ice Crystals"
"-92.11","62.81","RANKIN INLET A","2303405","2018-04-11 08:00","2018","04","11","08:00","-30.5","","-34.0","","73","","","","34","","24","","12.9","","100.10","","","","-45","","Ice Crystals"
"-92.11","62.81","RANKIN INLET A","2303405","2018-04-11 09:00","2018","04","11","09:00","-28.8","","-32.2","","73","","","","35","","22","","12.9","","100.11","","","","-42","","Ice Crystals"
"-92.11","62.81","RANKIN INLET A","2303405","2018-04-11 10:00","2018","04","11","10:00","-28.3","","-31.9","","72","","","","34","","26","","24.1","","100.15","","","","-43","","Ice Crystals"
"-92.11","62.81","RANKIN INLET A","2303405","2018-04-11 11:00","2018","04","11","11:00","-27.6","","-31.2","","72","","","","35","","28","","12.9","","100.17","","","","-42","","Ice Crystals,Blowing Snow"
"-92.11","62.81","RANKIN INLET A","2303405","2018-04-11 12:00","2018","04","11","12:00","-26.4","","-30.1","","72","","","","35","","32","","12.9","","100.20","","","","-41","","Ice Crystals,Blowing Snow"
"-92.11","62.81","RANKIN INLET A","2303405","2018-04-11 13:00","2018","04","11","13:00","-25.4","","-29.1","","72","","","","35","","33","","12.9","","100.22","","","","-40","","Ice Crystals,Blowing Snow"
"-92.11","62.81","RANKIN INLET A","2303405","2018-04-11 14:00","2018","04","11","14:00","-24.7","","-28.4","","72","","","","35","","37","","4.8","","100.26","","","","-40","","Ice Crystals,Blowing Snow"
"-92.11","62.81","RANKIN INLET A","2303405","2018-04-11 15:00","2018","04","11","15:00","-24.5","","-28.0","","73","","","","35","","36","","4.8","","100.30","","","","-40","","Ice Crystals,Blowing Snow"
"-92.11","62.81","RANKIN INLET A","2303405","2018-04-11 16:00","2018","04","11","16:00","-23.7","","-27.2","","73","","","","35","","34","","12.9","","100.36","","","","-38","","Ice Crystals,Blowing Snow"
"-92.11","62.81","RANKIN INLET A","2303405","2018-04-11 17:00","2018","04","11","17:00","-23.8","","-27.2","","74","","","","35","","40","","16.1","","100.35","","","","-39","","Ice Crystals,Blowing Snow"
"-92.11","62.81","RANKIN INLET A","2303405","2018-04-11 18:00","2018","04","11","18:00","-24.5","","-27.8","","74","","","","35","","37","","24.1","","100.38","","","","-40","","Ice Crystals,Blowing Snow"
"-92.11","62.81","RANKIN INLET A","2303405","2018-04-11 19:00","2018","04","11","19:00","-25.4","","-28.7","","75","","","","34","","34","","24.1","","100.38","","","","-40","","Ice Crystals,Blowing Snow"
"-92.11","62.81","RANKIN INLET A","2303405","2018-04-11 20:00","2018","04","11","20:00","-26.2","","-29.4","","75","","","","34","","28","","24.1","","100.40","","","","-40","","Ice Crystals"
"-92.11","62.81","RANKIN INLET A","2303405","2018-04-11 21:00","2018","04","11","21:00","-26.1","","-29.3","","75","","","","35","","32","","24.1","","100.40","","","","-41","","Ice Crystals"
"-92.11","62.81","RANKIN INLET A","2303405","2018-04-11 22:00","2018","04","11","22:00","-26.4","","-29.6","","75","","","","36","","30","","24.1","","100.37","","","","-41","","Ice Crystals"
"-92.11","62.81","RANKIN INLET A","2303405","2018-04-11 23:00","2018","04","11","23:00","-27.1","","-30.3","","75","","","","36","","33","","24.1","","100.36","","","","-42","","Ice Crystals"
"-92.11","62.81","RANKIN INLET A","2303405","2018-04-12 00:00","2018","04","12","00:00","-28.0","","-31.2","","75","","","","35","","28","","24.1","","100.38","","","","-43","","Ice Crystals"
"-92.11","62.81","RANKIN INLET A","2303405","2018-04-12 01:00","2018","04","12","01:00","-28.4","","-31.6","","75","","","","35","","32","","16.1","","100.37","","","","-44","","Ice Crystals"
"-92.11","62.81","RANKIN INLET A","2303405","2018-04-12 02:00","2018","04","12","02:00","-28.5","","-31.7","","74","","","","35","","36","","24.1","","100.36","","","","-45","","Snow,Blowing Snow"
"-92.11","62.81","RANKIN INLET A","2303405","2018-04-12 03:00","2018","04","12","03:00","-28.7","","-32.0","","74","","","","35","","36","","16.1","","100.36","","","","-45","","Snow,Blowing Snow"
"-92.11","62.81","RANKIN INLET A","2303405","2018-04-12 04:00","2018","04","12","04:00","-29.1","","-32.3","","74","","","","35","","38","","16.1","","100.36","","","","-46","","Snow,Blowing Snow"
"-92.11","62.81","RANKIN INLET A","2303405","2018-04-12 05:00","2018","04","12","05:00","-28.9","","-32.2","","74","","","","35","","45","","9.7","","100.34","","","","-47","","Snow,Blowing Snow"
"-92.11","62.81","RANKIN INLET A","2303405","2018-04-12 06:00","2018","04","12","06:00","-28.8","","-32.2","","73","","","","34","","36","","6.4","","100.37","","","","-45","","Ice Crystals,Blowing Snow"
"-92.11","62.81","RANKIN INLET A","2303405","2018-04-12 07:00","2018","04","12","07:00","-28.1","","-31.6","","73","","","","35","","34","","9.7","","100.40","","","","-44","","Ice Crystals,Blowing Snow"
"-92.11","62.81","RANKIN INLET A","2303405","2018-04-12 08:00","2018","04","12","08:00","-26.6","","-29.9","","74","","","","36","","45","","1.6","","100.39","","","","-44","","Ice Crystals,Blowing Snow"
"-92.11","62.81","RANKIN INLET A","2303405","2018-04-12 09:00","2018","04","12","09:00","-25.1","","-28.5","","74","","","","36","","41","","2.4","","100.44","","","","-41","","Snow,Blowing Snow"
"-92.11","62.81","RANKIN INLET A","2303405","2018-04-12 10:00","2018","04","12","10:00","-23.7","","-27.2","","73","","","","36","","35","","8.1","","100.50","","","","-38","","Ice Crystals,Blowing Snow"
"-92.11","62.81","RANKIN INLET A","2303405","2018-04-12 11:00","2018","04","12","11:00","-22.0","","-25.3","","75","","","","1","","43","","3.2","","100.52","","","","-37","","Snow,Blowing Snow"
"-92.11","62.81","RANKIN INLET A","2303405","2018-04-12 12:00","2018","04","12","12:00","-20.4","","-23.7","","75","","","","36","","40","","4.8","","100.55","","","","-35","","Snow,Blowing Snow"
"-92.11","62.81","RANKIN INLET A","2303405","2018-04-12 13:00","2018","04","12","13:00","-18.5","","-21.6","","77","","","","35","","33","","8.1","","100.64","","","","-31","","Snow,Blowing Snow"
"-92.11","62.81","RANKIN INLET A","2303405","2018-04-12 14:00","2018","04","12","14:00","-16.5","","-19.9","","76","","","","36","","35","","12.9","","100.68","","","","-29","","Snow,Blowing Snow"
"-92.11","62.81","RANKIN INLET A","2303405","2018-04-12 15:00","2018","04","12","15:00","-16.2","","-19.5","","76","","","","1","","37","","24.1","","100.75","","","","-29","","Blowing Snow"
"-92.11","62.81","RANKIN INLET A","2303405","2018-04-12 16:00","2018","04","12","16:00","-15.9","","-19.2","","76","","","","1","","34","","24.1","","100.84","","","","-28","","Blowing Snow"
"-92.11","62.81","RANKIN INLET A","2303405","2018-04-12 17:00","2018","04","12","17:00","-16.3","","-19.4","","77","","","","2","","34","","24.1","","100.91","","","","-28","","Blowing Snow"
"-92.11","62.81","RANKIN INLET A","2303405","2018-04-12 18:00","2018","04","12","18:00","-16.6","","-19.6","","78","","","","2","","43","","24.1","","100.94","","","","-30","","Blowing Snow"
"-92.11","62.81","RANKIN INLET A","2303405","2018-04-12 19:00","2018","04","12","19:00","-17.4","","-20.4","","78","","","","36","","33","","24.1","","101.11","","","","-30","","Blowing Snow"
"-92.11","62.81","RANKIN INLET A","2303405","2018-04-12 20:00","2018","04","12","20:00","-18.2","","-21.0","","79","","","","36","","35","","24.1","","101.18","","","","-31","","Blowing Snow"
"-92.11","62.81","RANKIN INLET A","2303405","2018-04-12 21:00","2018","04","12","21:00","-18.0","","-20.7","","80","","","","36","","26","","24.1","","101.27","","","","-29","","Mainly Clear"
"-92.11","62.81","RANKIN INLET A","2303405","2018-04-12 22:00","2018","04","12","22:00","-18.2","","-21.0","","79","","","","1","","33","","24.1","","101.36","","","","-31","","NA"
"-92.11","62.81","RANKIN INLET A","2303405","2018-04-12 23:00","2018","04","12","23:00","-18.8","","-21.4","","80","","","","35","","26","","24.1","","101.44","","","","-30","","NA"
"-92.11","62.81","RANKIN INLET A","2303405","2018-04-13 00:00","2018","04","13","00:00","-19.1","","-21.6","","81","","","","36","","30","","24.1","","101.52","","","","-31","","Mainly Clear"
"-92.11","62.81","RANKIN INLET A","2303405","2018-04-13 01:00","2018","04","13","01:00","-20.9","","-23.6","","79","","","","36","","36","","24.1","","101.60","","","","-35","","NA"
"-92.11","62.81","RANKIN INLET A","2303405","2018-04-13 02:00","2018","04","13","02:00","-22.2","","-24.8","","79","","","","35","","28","","24.1","","101.71","","","","-35","","NA"
"-92.11","62.81","RANKIN INLET A","2303405","2018-04-13 03:00","2018","04","13","03:00","-22.6","","-25.3","","79","","","","35","","18","","24.1","","101.81","","","","-33","","Clear"
"-92.11","62.81","RANKIN INLET A","2303405","2018-04-13 04:00","2018","04","13","04:00","-22.9","","-25.4","","80","","","","36","","18","","24.1","","101.92","","","","-34","","NA"
"-92.11","62.81","RANKIN INLET A","2303405","2018-04-13 05:00","2018","04","13","05:00","-22.6","","-25.1","","81","","","","36","","23","","24.1","","101.99","","","","-35","","NA"
"-92.11","62.81","RANKIN INLET A","2303405","2018-04-13 06:00","2018","04","13","06:00","-22.9","","-25.7","","78","","","","36","","21","","24.1","","102.08","","","","-34","","Clear"
"-92.11","62.81","RANKIN INLET A","2303405","2018-04-13 07:00","2018","04","13","07:00","-22.2","","-25.2","","77","","","","36","","15","","24.1","","102.18","","","","-32","","NA"
"-92.11","62.81","RANKIN INLET A","2303405","2018-04-13 08:00","2018","04","13","08:00","-22.0","","-25.2","","75","","","","36","","21","","24.1","","102.26","","","","-33","","NA"
"-92.11","62.81","RANKIN INLET A","2303405","2018-04-13 09:00","2018","04","13","09:00","-20.2","","-23.4","","76","","","","35","","27","","24.1","","102.29","","","","-32","","Clear"
"-92.11","62.81","RANKIN INLET A","2303405","2018-04-13 10:00","2018","04","13","10:00","-18.8","","-22.1","","76","","","","34","","21","","24.1","","102.37","","","","-29","","NA"
"-92.11","62.81","RANKIN INLET A","2303405","2018-04-13 11:00","2018","04","13","11:00","-17.9","","-21.2","","76","","","","33","","18","","24.1","","102.44","","","","-27","","NA"
"-92.11","62.81","RANKIN INLET A","2303405","2018-04-13 12:00","2018","04","13","12:00","-17.0","","-20.4","","75","","","","33","","18","","24.1","","102.49","","","","-26","","Clear"
"-92.11","62.81","RANKIN INLET A","2303405","2018-04-13 13:00","2018","04","13","13:00","-16.4","","-20.1","","74","","","","34","","17","","24.1","","102.51","","","","-25","","NA"
"-92.11","62.81","RANKIN INLET A","2303405","2018-04-13 14:00","2018","04","13","14:00","-15.8","","-19.5","","74","","","","33","","11","","24.1","","102.53","","","","-23","","NA"
"-92.11","62.81","RANKIN INLET A","2303405","2018-04-13 15:00","2018","04","13","15:00","-15.2","","-19.1","","72","","","","31","","13","","24.1","","102.55","","","","-23","","Clear"
"-92.11","62.81","RANKIN INLET A","2303405","2018-04-13 16:00","2018","04","13","16:00","-14.9","","-18.5","","75","","","","30","","13","","24.1","","102.59","","","","-22","","NA"
"-92.11","62.81","RANKIN INLET A","2303405","2018-04-13 17:00","2018","04","13","17:00","-14.7","","-18.3","","75","","","","30","","20","","24.1","","102.63","","","","-24","","NA"
"-92.11","62.81","RANKIN INLET A","2303405","2018-04-13 18:00","2018","04","13","18:00","-15.9","","-19.1","","77","","","","29","","13","","24.1","","102.66","","","","-23","","Clear"
"-92.11","62.81","RANKIN INLET A","2303405","2018-04-13 19:00","2018","04","13","19:00","-17.0","","-20.1","","78","","","","28","","15","","24.1","","102.67","","","","-25","","NA"
"-92.11","62.81","RANKIN INLET A","2303405","2018-04-13 20:00","2018","04","13","20:00","-18.2","","-20.7","","81","","","","27","","16","","24.1","","102.65","","","","-27","","NA"
"-92.11","62.81","RANKIN INLET A","2303405","2018-04-13 21:00","2018","04","13","21:00","-19.2","","-21.7","","81","","","","26","","17","","24.1","","102.63","","","","-29","","Clear"
"-92.11","62.81","RANKIN INLET A","2303405","2018-04-13 22:00","2018","04","13","22:00","-19.8","","-22.7","","78","","","","26","","16","","24.1","","102.62","","","","-29","","NA"
"-92.11","62.81","RANKIN INLET A","2303405","2018-04-13 23:00","2018","04","13","23:00","-20.4","","-23.3","","78","","","","26","","13","","24.1","","102.64","","","","-29","","NA"
"-92.11","62.81","RANKIN INLET A","2303405","2018-04-14 00:00","2018","04","14","00:00","-20.2","","-23.0","","79","","","","25","","13","","24.1","","102.63","","","","-29","","Clear"
"-92.11","62.81","RANKIN INLET A","2303405","2018-04-14 01:00","2018","04","14","01:00","-20.2","","-23.2","","77","","","","24","","8","","24.1","","102.59","","","","-26","","NA"
"-92.11","62.81","RANKIN INLET A","2303405","2018-04-14 02:00","2018","04","14","02:00","-20.3","","-23.6","","76","","","","23","","6","","24.1","","102.59","","","","-25","","NA"
"-92.11","62.81","RANKIN INLET A","2303405","2018-04-14 03:00","2018","04","14","03:00","-20.4","","-23.7","","76","","","","21","","12","","24.1","","102.58","","","","-29","","Clear"
"-92.11","62.81","RANKIN INLET A","2303405","2018-04-14 04:00","2018","04","14","04:00","-21.2","","-24.2","","77","","","","23","","11","","24.1","","102.53","","","","-29","","NA"
"-92.11","62.81","RANKIN INLET A","2303405","2018-04-14 05:00","2018","04","14","05:00","-21.2","","-24.4","","76","","","","22","","17","","24.1","","102.49","","","","-31","","NA"
"-92.11","62.81","RANKIN INLET A","2303405","2018-04-14 06:00","2018","04","14","06:00","-21.4","","-24.7","","76","","","","22","","13","","24.1","","102.47","","","","-30","","Clear"
"-92.11","62.81","RANKIN INLET A","2303405","2018-04-14 07:00","2018","04","14","07:00","-20.5","","-24.2","","73","","","","21","","14","","24.1","","102.47","","","","-29","","NA"
"-92.11","62.81","RANKIN INLET A","2303405","2018-04-14 08:00","2018","04","14","08:00","-19.2","","-23.1","","72","","","","21","","18","","24.1","","102.42","","","","-29","","NA"
"-92.11","62.81","RANKIN INLET A","2303405","2018-04-14 09:00","2018","04","14","09:00","-17.8","","-21.9","","71","","","","20","","18","","24.1","","102.38","","","","-27","","Mainly Clear"
"-92.11","62.81","RANKIN INLET A","2303405","2018-04-14 10:00","2018","04","14","10:00","-16.5","","-20.7","","71","","","","20","","12","","24.1","","102.34","","","","-24","","NA"
"-92.11","62.81","RANKIN INLET A","2303405","2018-04-14 11:00","2018","04","14","11:00","-14.2","","-18.7","","69","","","","22","","14","","24.1","","102.33","","","","-22","","NA"
"-92.11","62.81","RANKIN INLET A","2303405","2018-04-14 12:00","2018","04","14","12:00","-12.9","","-17.4","","69","","","","21","","22","","24.1","","102.37","","","","-22","","Mainly Clear"
"-92.11","62.81","RANKIN INLET A","2303405","2018-04-14 13:00","2018","04","14","13:00","-12.3","","-16.6","","71","","","","21","","25","","24.1","","102.35","","","","-22","","NA"
"-92.11","62.81","RANKIN INLET A","2303405","2018-04-14 14:00","2018","04","14","14:00","-11.4","","-15.5","","72","","","","21","","20","","24.1","","102.33","","","","-20","","NA"
"-92.11","62.81","RANKIN INLET A","2303405","2018-04-14 15:00","2018","04","14","15:00","-10.9","","-14.7","","74","","","","21","","22","","24.1","","102.32","","","","-19","","Mainly Clear"
"-92.11","62.81","RANKIN INLET A","2303405","2018-04-14 16:00","2018","04","14","16:00","-10.6","","-14.3","","75","","","","20","","20","","24.1","","102.32","","","","-19","","NA"
"-92.11","62.81","RANKIN INLET A","2303405","2018-04-14 17:00","2018","04","14","17:00","-10.6","","-14.0","","76","","","","21","","17","","24.1","","102.33","","","","-18","","NA"
"-92.11","62.81","RANKIN INLET A","2303405","2018-04-14 18:00","2018","04","14","18:00","-11.2","","-14.2","","79","","","","21","","20","","24.1","","102.30","","","","-19","","Mainly Clear"
"-92.11","62.81","RANKIN INLET A","2303405","2018-04-14 19:00","2018","04","14","19:00","-11.4","","-14.2","","80","","","","21","","20","","24.1","","102.30","","","","-20","","NA"
"-92.11","62.81","RANKIN INLET A","2303405","2018-04-14 20:00","2018","04","14","20:00","-12.4","","-14.7","","83","","","","21","","18","","24.1","","102.28","","","","-20","","NA"
"-92.11","62.81","RANKIN INLET A","2303405","2018-04-14 21:00","2018","04","14","21:00","-12.0","","-14.4","","83","","","","22","","19","","24.1","","102.29","","","","-20","","Clear"
"-92.11","62.81","RANKIN INLET A","2303405","2018-04-14 22:00","2018","04","14","22:00","-12.3","","-14.8","","82","","","","21","","13","","24.1","","102.31","","","","-19","","NA"
"-92.11","62.81","RANKIN INLET A","2303405","2018-04-14 23:00","2018","04","14","23:00","-11.8","","-14.3","","82","","","","18","","8","","24.1","","102.32","","","","-17","","NA"
"-92.11","62.81","RANKIN INLET A","2303405","2018-04-15 00:00","2018","04","15","00:00","-12.3","","-14.7","","83","","","","21","","16","","24.1","","102.34","","","","-20","","Clear"
"-92.11","62.81","RANKIN INLET A","2303405","2018-04-15 01:00","2018","04","15","01:00","-13.2","","-15.6","","82","","","","20","","8","","24.1","","102.34","","","","-18","","NA"
"-92.11","62.81","RANKIN INLET A","2303405","2018-04-15 02:00","2018","04","15","02:00","-13.1","","-15.7","","81","","","","21","","14","","24.1","","102.34","","","","-20","","NA"
"-92.11","62.81","RANKIN INLET A","2303405","2018-04-15 03:00","2018","04","15","03:00","-13.0","","-15.7","","80","","","","19","","20","","24.1","","102.31","","","","-22","","Clear"
"-92.11","62.81","RANKIN INLET A","2303405","2018-04-15 04:00","2018","04","15","04:00","-13.1","","-16.0","","79","","","","19","","16","","24.1","","102.32","","","","-21","","NA"
"-92.11","62.81","RANKIN INLET A","2303405","2018-04-15 05:00","2018","04","15","05:00","-12.4","","-15.8","","76","","","","18","","17","","24.1","","102.34","","","","-20","","NA"
"-92.11","62.81","RANKIN INLET A","2303405","2018-04-15 06:00","2018","04","15","06:00","-11.5","","-15.0","","75","","","","19","","22","","24.1","","102.32","","","","-20","","Clear"
"-92.11","62.81","RANKIN INLET A","2303405","2018-04-15 07:00","2018","04","15","07:00","-11.8","","-13.9","","84","","","","18","","16","","24.1","","102.32","","","","-19","","NA"
"-92.11","62.81","RANKIN INLET A","2303405","2018-04-15 08:00","2018","04","15","08:00","-9.9","","-11.8","","86","","","","19","","22","","24.1","","102.30","","","","-18","","NA"
"-92.11","62.81","RANKIN INLET A","2303405","2018-04-15 09:00","2018","04","15","09:00","-8.9","","-11.4","","82","","","","18","","21","","24.1","","102.28","","","","-17","","Mainly Clear"
"-92.11","62.81","RANKIN INLET A","2303405","2018-04-15 10:00","2018","04","15","10:00","-6.8","","-9.6","","81","","","","19","","24","","24.1","","102.29","","","","-14","","NA"
"-92.11","62.81","RANKIN INLET A","2303405","2018-04-15 11:00","2018","04","15","11:00","-5.6","","-8.5","","80","","","","18","","22","","24.1","","102.27","","","","-13","","NA"
"-92.11","62.81","RANKIN INLET A","2303405","2018-04-15 12:00","2018","04","15","12:00","-4.7","","-7.8","","79","","","","19","","35","","24.1","","102.26","","","","-13","","Mainly Clear"
"-92.11","62.81","RANKIN INLET A","2303405","2018-04-15 13:00","2018","04","15","13:00","-4.3","","-7.1","","81","","","","17","","23","","24.1","","102.25","","","","-11","","NA"
"-92.11","62.81","RANKIN INLET A","2303405","2018-04-15 14:00","2018","04","15","14:00","-4.1","","-7.0","","81","","","","17","","22","","24.1","","102.22","","","","-11","","NA"
"-92.11","62.81","RANKIN INLET A","2303405","2018-04-15 15:00","2018","04","15","15:00","-4.3","","-7.0","","82","","","","17","","23","","24.1","","102.20","","","","-11","","Mainly Clear"
"-92.11","62.81","RANKIN INLET A","2303405","2018-04-15 16:00","2018","04","15","16:00","-4.7","","-7.2","","82","","","","18","","18","","24.1","","102.20","","","","-11","","NA"
"-92.11","62.81","RANKIN INLET A","2303405","2018-04-15 17:00","2018","04","15","17:00","-5.3","","-7.9","","82","","","","18","","25","","24.1","","102.15","","","","-13","","NA"
"-92.11","62.81","RANKIN INLET A","2303405","2018-04-15 18:00","2018","04","15","18:00","-5.8","","-8.4","","82","","","","18","","29","","24.1","","102.14","","","","-14","","Mainly Clear"
"-92.11","62.81","RANKIN INLET A","2303405","2018-04-15 19:00","2018","04","15","19:00","-6.8","","-9.1","","84","","","","18","","26","","24.1","","102.09","","","","-15","","NA"
"-92.11","62.81","RANKIN INLET A","2303405","2018-04-15 20:00","2018","04","15","20:00","-6.5","","-8.6","","86","","","","18","","25","","24.1","","102.09","","","","-14","","NA"
"-92.11","62.81","RANKIN INLET A","2303405","2018-04-15 21:00","2018","04","15","21:00","-5.5","","-7.6","","85","","","","18","","29","","24.1","","102.08","","","","-14","","Mostly Cloudy"
"-92.11","62.81","RANKIN INLET A","2303405","2018-04-15 22:00","2018","04","15","22:00","-5.3","","-7.2","","87","","","","18","","26","","24.1","","102.06","","","","-13","","NA"
"-92.11","62.81","RANKIN INLET A","2303405","2018-04-15 23:00","2018","04","15","23:00","-4.4","","-5.4","","93","","","","19","","29","","16.1","","102.03","","","","-12","","Snow"
"-92.11","62.81","RANKIN INLET A","2303405","2018-04-16 00:00","2018","04","16","00:00","-4.0","","-5.5","","90","","","","18","","27","","19.3","","101.97","","","","-11","","Snow"
"-92.11","62.81","RANKIN INLET A","2303405","2018-04-16 01:00","2018","04","16","01:00","-3.7","","-5.5","","87","","","","19","","25","","16.1","","101.96","","","","-11","","Snow"
"-92.11","62.81","RANKIN INLET A","2303405","2018-04-16 02:00","2018","04","16","02:00","-4.0","","-5.5","","89","","","","19","","18","","16.1","","101.93","","","","-10","","Snow"
"-92.11","62.81","RANKIN INLET A","2303405","2018-04-16 03:00","2018","04","16","03:00","-3.8","","-5.3","","89","","","","19","","21","","24.1","","101.90","","","","-10","","Snow"
"-92.11","62.81","RANKIN INLET A","2303405","2018-04-16 04:00","2018","04","16","04:00","-4.0","","-5.3","","90","","","","19","","14","","16.1","","101.89","","","","-9","","Snow"
"-92.11","62.81","RANKIN INLET A","2303405","2018-04-16 05:00","2018","04","16","05:00","-4.1","","-5.3","","91","","","","21","","14","","12.9","","101.87","","","","-9","","Snow"
"-92.11","62.81","RANKIN INLET A","2303405","2018-04-16 06:00","2018","04","16","06:00","-4.4","","-5.2","","95","","","","20","","13","","3.2","","101.86","","","","-9","","Snow,Fog"
"-92.11","62.81","RANKIN INLET A","2303405","2018-04-16 07:00","2018","04","16","07:00","-4.7","","-5.5","","94","","","","23","","13","","3.2","","101.87","","","","-10","","Snow,Fog"
"-92.11","62.81","RANKIN INLET A","2303405","2018-04-16 08:00","2018","04","16","08:00","-4.4","","-5.4","","93","","","","25","","10","","2.4","","101.85","","","","-9","","Snow,Fog"
"-92.11","62.81","RANKIN INLET A","2303405","2018-04-16 09:00","2018","04","16","09:00","-4.4","","-5.7","","91","","","","27","","4","","4.8","","101.84","","","","-6","","Snow,Fog"
"-92.11","62.81","RANKIN INLET A","2303405","2018-04-16 10:00","2018","04","16","10:00","-4.6","","-6.0","","90","","","","31","","13","","8.1","","101.87","","","","-10","","Snow"
"-92.11","62.81","RANKIN INLET A","2303405","2018-04-16 11:00","2018","04","16","11:00","-4.8","","-6.6","","87","","","","33","","16","","9.7","","101.90","","","","-11","","Snow"
"-92.11","62.81","RANKIN INLET A","2303405","2018-04-16 12:00","2018","04","16","12:00","-4.4","","-6.4","","86","","","","33","","13","","24.1","","101.91","","","","-9","","Mostly Cloudy"
"-92.11","62.81","RANKIN INLET A","2303405","2018-04-16 13:00","2018","04","16","13:00","-4.3","","-6.4","","85","","","","31","","15","","24.1","","101.93","","","","-10","","NA"
"-92.11","62.81","RANKIN INLET A","2303405","2018-04-16 14:00","2018","04","16","14:00","-5.3","","-7.5","","85","","","","31","","25","","24.1","","101.99","","","","-13","","NA"
"-92.11","62.81","RANKIN INLET A","2303405","2018-04-16 15:00","2018","04","16","15:00","-5.8","","-7.9","","85","","","","32","","20","","24.1","","102.06","","","","-13","","Clear"
"-92.11","62.81","RANKIN INLET A","2303405","2018-04-16 16:00","2018","04","16","16:00","-6.5","","-8.5","","86","","","","33","","26","","24.1","","102.09","","","","-14","","NA"
"-92.11","62.81","RANKIN INLET A","2303405","2018-04-16 17:00","2018","04","16","17:00","-7.5","","-9.3","","87","","","","34","","22","","24.1","","102.11","","","","-15","","NA"
"-92.11","62.81","RANKIN INLET A","2303405","2018-04-16 18:00","2018","04","16","18:00","-8.9","","-10.6","","88","","","","33","","22","","24.1","","102.15","","","","-17","","Mainly Clear"
"-92.11","62.81","RANKIN INLET A","2303405","2018-04-16 19:00","2018","04","16","19:00","-10.5","","-12.2","","88","","","","31","","20","","24.1","","102.18","","","","-18","","NA"
"-92.11","62.81","RANKIN INLET A","2303405","2018-04-16 20:00","2018","04","16","20:00","-11.8","","-13.4","","88","","","","31","","22","","24.1","","102.19","","","","-21","","NA"
"-92.11","62.81","RANKIN INLET A","2303405","2018-04-16 21:00","2018","04","16","21:00","-13.1","","-14.7","","88","","","","34","","21","","24.1","","102.20","","","","-22","","Mainly Clear"
"-92.11","62.81","RANKIN INLET A","2303405","2018-04-16 22:00","2018","04","16","22:00","-13.8","","-15.5","","87","","","","34","","20","","24.1","","102.22","","","","-23","","NA"
"-92.11","62.81","RANKIN INLET A","2303405","2018-04-16 23:00","2018","04","16","23:00","-14.2","","-16.0","","86","","","","34","","17","","24.1","","102.24","","","","-22","","NA"
"-92.11","62.81","RANKIN INLET A","2303405","2018-04-17 00:00","2018","04","17","00:00","-15.2","","-17.1","","86","","","","34","","20","","24.1","","102.27","","","","-24","","Mostly Cloudy"
"-92.11","62.81","RANKIN INLET A","2303405","2018-04-17 01:00","2018","04","17","01:00","-16.1","","-18.1","","85","","","","34","","18","","24.1","","102.30","","","","-25","","NA"
"-92.11","62.81","RANKIN INLET A","2303405","2018-04-17 02:00","2018","04","17","02:00","-16.9","","-19.1","","83","","","","34","","20","","24.1","","102.33","","","","-27","","NA"
"-92.11","62.81","RANKIN INLET A","2303405","2018-04-17 03:00","2018","04","17","03:00","-17.8","","-20.1","","83","","","","35","","26","","24.1","","102.32","","","","-29","","Clear"
"-92.11","62.81","RANKIN INLET A","2303405","2018-04-17 04:00","2018","04","17","04:00","-17.5","","-19.5","","85","","","","35","","27","","6.4","","102.37","","","","-29","","Fog"
"-92.11","62.81","RANKIN INLET A","2303405","2018-04-17 05:00","2018","04","17","05:00","-15.4","","-17.2","","86","","","","36","","27","","0.8","","102.40","","","","-26","","Freezing Fog"
"-92.11","62.81","RANKIN INLET A","2303405","2018-04-17 06:00","2018","04","17","06:00","-13.9","","-15.6","","87","","","","36","","18","","0.8","","102.46","","","","-22","","Freezing Fog"
"-92.11","62.81","RANKIN INLET A","2303405","2018-04-17 07:00","2018","04","17","07:00","-12.8","","-14.5","","88","","","","36","","16","","2.4","","102.51","","","","-20","","Fog"
"-92.11","62.81","RANKIN INLET A","2303405","2018-04-17 08:00","2018","04","17","08:00","-11.6","","-13.0","","90","","","","36","","13","","4.8","","102.53","","","","-18","","Fog"
"-92.11","62.81","RANKIN INLET A","2303405","2018-04-17 09:00","2018","04","17","09:00","-9.3","","-10.4","","92","","","","3","","11","","4.8","","102.53","","","","-15","","Fog"
"-92.11","62.81","RANKIN INLET A","2303405","2018-04-17 10:00","2018","04","17","10:00","-7.7","","-9.4","","88","","","","7","","18","","6.4","","102.57","","","","-15","","Snow,Fog"
"-92.11","62.81","RANKIN INLET A","2303405","2018-04-17 11:00","2018","04","17","11:00","-7.3","","-9.7","","83","","","","8","","18","","9.7","","102.61","","","","-14","","Snow"
"-92.11","62.81","RANKIN INLET A","2303405","2018-04-17 12:00","2018","04","17","12:00","-7.1","","-9.6","","82","","","","8","","13","","12.9","","102.64","","","","-13","","Snow"
"-92.11","62.81","RANKIN INLET A","2303405","2018-04-17 13:00","2018","04","17","13:00","-7.0","","-9.5","","83","","","","7","","14","","9.7","","102.63","","","","-13","","Snow,Fog"
"-92.11","62.81","RANKIN INLET A","2303405","2018-04-17 14:00","2018","04","17","14:00","-6.8","","-9.4","","82","","","","7","","13","","9.7","","102.64","","","","-12","","Fog"
"-92.11","62.81","RANKIN INLET A","2303405","2018-04-17 15:00","2018","04","17","15:00","-6.9","","-9.4","","83","","","","7","","18","","12.9","","102.65","","","","-14","","Cloudy"
"-92.11","62.81","RANKIN INLET A","2303405","2018-04-17 16:00","2018","04","17","16:00","-7.5","","-9.4","","86","","","","8","","18","","16.1","","102.66","","","","-14","","NA"
"-92.11","62.81","RANKIN INLET A","2303405","2018-04-17 17:00","2018","04","17","17:00","-8.0","","-9.5","","89","","","","9","","19","","9.7","","102.68","","","","-15","","Fog"
"-92.11","62.81","RANKIN INLET A","2303405","2018-04-17 18:00","2018","04","17","18:00","-8.6","","-9.9","","90","","","","8","","17","","8.1","","102.68","","","","-15","","Fog"
"-92.11","62.81","RANKIN INLET A","2303405","2018-04-17 19:00","2018","04","17","19:00","-8.9","","-10.1","","91","","","","9","","19","","8.1","","102.72","","","","-16","","Fog"
"-92.11","62.81","RANKIN INLET A","2303405","2018-04-17 20:00","2018","04","17","20:00","-9.1","","-10.2","","92","","","","9","","17","","8.1","","102.74","","","","-16","","Fog"
"-92.11","62.81","RANKIN INLET A","2303405","2018-04-17 21:00","2018","04","17","21:00","-9.1","","-10.0","","94","","","","9","","16","","6.4","","102.69","","","","-16","","Fog"
"-92.11","62.81","RANKIN INLET A","2303405","2018-04-17 22:00","2018","04","17","22:00","-8.7","","-9.7","","93","","","","11","","20","","3.2","","102.65","","","","-16","","Snow,Fog"
"-92.11","62.81","RANKIN INLET A","2303405","2018-04-17 23:00","2018","04","17","23:00","-8.6","","-9.5","","93","","","","10","","17","","3.2","","102.60","","","","-15","","Snow,Fog"
"-92.11","62.81","RANKIN INLET A","2303405","2018-04-18 00:00","2018","04","18","00:00","-7.7","","-8.6","","94","","","","11","","16","","4.8","","102.54","","","","-14","","Snow,Fog"
"-92.11","62.81","RANKIN INLET A","2303405","2018-04-18 01:00","2018","04","18","01:00","-6.6","","-7.4","","94","","","","13","","23","","6.4","","102.51","","","","-14","","Fog"
"-92.11","62.81","RANKIN INLET A","2303405","2018-04-18 02:00","2018","04","18","02:00","-6.3","","-7.1","","94","","","","14","","22","","6.4","","102.48","","","","-14","","Fog"
"-92.11","62.81","RANKIN INLET A","2303405","2018-04-18 03:00","2018","04","18","03:00","-5.8","","-6.6","","95","","","","14","","25","","4.8","","102.41","","","","-13","","Fog"
"-92.11","62.81","RANKIN INLET A","2303405","2018-04-18 04:00","2018","04","18","04:00","-5.6","","-6.3","","94","","","","16","","27","","4.8","","102.41","","","","-13","","Fog"
"-92.11","62.81","RANKIN INLET A","2303405","2018-04-18 05:00","2018","04","18","05:00","-5.7","","-6.5","","94","","","","15","","28","","3.2","","102.36","","","","-14","","Fog"
"-92.11","62.81","RANKIN INLET A","2303405","2018-04-18 06:00","2018","04","18","06:00","-5.5","","-6.2","","95","","","","15","","32","","1.6","","102.36","","","","-14","","Snow,Fog,Blowing Snow"
"-92.11","62.81","RANKIN INLET A","2303405","2018-04-18 07:00","2018","04","18","07:00","-5.6","","-6.4","","94","","","","15","","37","","1.6","","102.30","","","","-15","","Snow,Fog,Blowing Snow"
"-92.11","62.81","RANKIN INLET A","2303405","2018-04-18 08:00","2018","04","18","08:00","-6.1","","-7.0","","93","","","","15","","34","","3.2","","102.23","","","","-15","","Snow,Fog,Blowing Snow"
"-92.11","62.81","RANKIN INLET A","2303405","2018-04-18 09:00","2018","04","18","09:00","-5.7","","-6.7","","93","","","","14","","36","","9.7","","102.13","","","","-15","","Fog,Blowing Snow"
"-92.11","62.81","RANKIN INLET A","2303405","2018-04-18 10:00","2018","04","18","10:00","-5.6","","-6.8","","91","","","","14","","37","","16.1","","102.04","","","","-15","","NA"
"-92.11","62.81","RANKIN INLET A","2303405","2018-04-18 11:00","2018","04","18","11:00","-4.7","","-6.7","","86","","","","14","","37","","24.1","","101.94","","","","-13","","NA"
"-92.11","62.81","RANKIN INLET A","2303405","2018-04-18 12:00","2018","04","18","12:00","-4.7","","-7.2","","82","","","","14","","36","","24.1","","101.87","","","","-13","","Mainly Clear"
"-92.11","62.81","RANKIN INLET A","2303405","2018-04-18 13:00","2018","04","18","13:00","-3.7","","-7.1","","77","","","","15","","44","","24.1","","101.77","","","","-13","","NA"
"-92.11","62.81","RANKIN INLET A","2303405","2018-04-18 14:00","2018","04","18","14:00","-3.6","","-6.9","","78","","","","15","","43","","24.1","","101.68","","","","-12","","NA"
"-92.11","62.81","RANKIN INLET A","2303405","2018-04-18 15:00","2018","04","18","15:00","-3.7","","-6.7","","79","","","","15","","45","","24.1","","101.61","","","","-13","","Mostly Cloudy"
"-92.11","62.81","RANKIN INLET A","2303405","2018-04-18 16:00","2018","04","18","16:00","-4.0","","-6.9","","80","","","","15","","41","","24.1","","101.53","","","","-13","","Blowing Snow"
"-92.11","62.81","RANKIN INLET A","2303405","2018-04-18 17:00","2018","04","18","17:00","-4.1","","-7.1","","80","","","","14","","39","","24.1","","101.45","","","","-13","","Blowing Snow"
"-92.11","62.81","RANKIN INLET A","2303405","2018-04-18 18:00","2018","04","18","18:00","-4.7","","-7.4","","82","","","","15","","36","","24.1","","101.33","","","","-13","","Blowing Snow"
"-92.11","62.81","RANKIN INLET A","2303405","2018-04-18 19:00","2018","04","18","19:00","-4.9","","-7.5","","82","","","","17","","39","","24.1","","101.29","","","","-14","","Blowing Snow"
"-92.11","62.81","RANKIN INLET A","2303405","2018-04-18 20:00","2018","04","18","20:00","-5.2","","-7.4","","85","","","","16","","36","","24.1","","101.24","","","","-14","","Blowing Snow"
"-92.11","62.81","RANKIN INLET A","2303405","2018-04-18 21:00","2018","04","18","21:00","-5.3","","-7.3","","86","","","","17","","35","","24.1","","101.21","","","","-14","","Blowing Snow"
"-92.11","62.81","RANKIN INLET A","2303405","2018-04-18 22:00","2018","04","18","22:00","-4.2","","-6.7","","82","","","","18","","43","","24.1","","101.09","","","","-13","","Blowing Snow"
"-92.11","62.81","RANKIN INLET A","2303405","2018-04-18 23:00","2018","04","18","23:00","-3.7","","-6.1","","84","","","","18","","41","","24.1","","101.06","","","","-12","","Blowing Snow"
"-92.11","62.81","RANKIN INLET A","2303405","2018-04-19 00:00","2018","04","19","00:00","-3.5","","-5.5","","86","","","","18","","40","","24.1","","100.99","","","","-12","","Blowing Snow"
"-92.11","62.81","RANKIN INLET A","2303405","2018-04-19 01:00","2018","04","19","01:00","-3.3","","-5.2","","87","","","","18","","39","","24.1","","100.94","","","","-12","","Blowing Snow"
"-92.11","62.81","RANKIN INLET A","2303405","2018-04-19 02:00","2018","04","19","02:00","-3.0","","-4.6","","89","","","","18","","33","","24.1","","100.91","","","","-11","","Blowing Snow"
"-92.11","62.81","RANKIN INLET A","2303405","2018-04-19 03:00","2018","04","19","03:00","-2.7","","-4.4","","88","","","","19","","35","","24.1","","100.88","","","","-11","","Snow,Blowing Snow"
"-92.11","62.81","RANKIN INLET A","2303405","2018-04-19 04:00","2018","04","19","04:00","-2.1","","-3.6","","90","","","","21","","25","","24.1","","100.89","","","","-9","","Snow,Blowing Snow"
"-92.11","62.81","RANKIN INLET A","2303405","2018-04-19 05:00","2018","04","19","05:00","-2.6","","-3.2","","96","","","","21","","14","","4.8","","100.93","","","","-7","","Snow"
"-92.11","62.81","RANKIN INLET A","2303405","2018-04-19 06:00","2018","04","19","06:00","-2.3","","-2.7","","97","","","","21","","10","","2.4","","101.00","","","","-6","","Snow"
"-92.11","62.81","RANKIN INLET A","2303405","2018-04-19 07:00","2018","04","19","07:00","-2.3","","-2.7","","97","","","","21","","12","","3.2","","101.03","","","","-7","","Snow"
"-92.11","62.81","RANKIN INLET A","2303405","2018-04-19 08:00","2018","04","19","08:00","-1.5","","-2.2","","95","","","","20","","22","","8.1","","101.05","","","","-7","","Snow"
"-92.11","62.81","RANKIN INLET A","2303405","2018-04-19 09:00","2018","04","19","09:00","-1.5","","-3.9","","83","","","","25","","28","","16.1","","101.11","","","","-8","","Mostly Cloudy"
"-92.11","62.81","RANKIN INLET A","2303405","2018-04-19 10:00","2018","04","19","10:00","-3.8","","-6.3","","83","","","","28","","37","","4.8","","101.22","","","","-12","","Snow,Blowing Snow"
"-92.11","62.81","RANKIN INLET A","2303405","2018-04-19 11:00","2018","04","19","11:00","-5.8","","-8.6","","80","","","","30","","40","","6.4","","101.35","","","","-15","","Snow,Blowing Snow"
"-92.11","62.81","RANKIN INLET A","2303405","2018-04-19 12:00","2018","04","19","12:00","-6.6","","-10.0","","77","","","","30","","39","","16.1","","101.49","","","","-16","","Blowing Snow"
"-92.11","62.81","RANKIN INLET A","2303405","2018-04-19 13:00","2018","04","19","13:00","-7.8","","-10.9","","79","","","","30","","45","","8.1","","101.61","","","","-18","","Blowing Snow"
"-92.11","62.81","RANKIN INLET A","2303405","2018-04-19 14:00","2018","04","19","14:00","-7.4","","-10.6","","78","","","","30","","34","","16.1","","101.70","","","","-17","","Blowing Snow"
"-92.11","62.81","RANKIN INLET A","2303405","2018-04-19 15:00","2018","04","19","15:00","-7.9","","-11.4","","76","","","","29","","29","","24.1","","101.81","","","","-17","","Blowing Snow"
"-92.11","62.81","RANKIN INLET A","2303405","2018-04-19 16:00","2018","04","19","16:00","-8.5","","-12.1","","75","","","","30","","31","","24.1","","101.90","","","","-18","","Blowing Snow"
"-92.11","62.81","RANKIN INLET A","2303405","2018-04-19 17:00","2018","04","19","17:00","-8.7","","-11.7","","79","","","","29","","19","","24.1","","101.99","","","","-16","","Blowing Snow"
"-92.11","62.81","RANKIN INLET A","2303405","2018-04-19 18:00","2018","04","19","18:00","-9.3","","-11.9","","81","","","","27","","18","","24.1","","102.06","","","","-17","","Mainly Clear"
"-92.11","62.81","RANKIN INLET A","2303405","2018-04-19 19:00","2018","04","19","19:00","-10.2","","-12.5","","83","","","","27","","13","","24.1","","102.08","","","","-16","","NA"
"-92.11","62.81","RANKIN INLET A","2303405","2018-04-19 20:00","2018","04","19","20:00","-10.8","","-12.9","","85","","","","26","","7","","24.1","","102.09","","","","-15","","NA"
"-92.11","62.81","RANKIN INLET A","2303405","2018-04-19 21:00","2018","04","19","21:00","-11.8","","-13.7","","86","","","","24","","7","","24.1","","102.13","","","","-16","","Mainly Clear"
"-92.11","62.81","RANKIN INLET A","2303405","2018-04-19 22:00","2018","04","19","22:00","-12.7","","-14.5","","87","","","","17","","7","","24.1","","102.14","","","","-17","","NA"
"-92.11","62.81","RANKIN INLET A","2303405","2018-04-19 23:00","2018","04","19","23:00","-12.3","","-13.9","","88","","","","15","","8","","24.1","","102.14","","","","-17","","NA"
"-92.11","62.81","RANKIN INLET A","2303405","2018-04-20 00:00","2018","04","20","00:00","-14.4","","-15.9","","88","","","","14","","12","","24.1","","102.13","","","","-21","","Mainly Clear"
"-92.11","62.81","RANKIN INLET A","2303405","2018-04-20 01:00","2018","04","20","01:00","-13.7","","-15.0","","90","","","","17","","16","","24.1","","102.15","","","","-22","","NA"
"-92.11","62.81","RANKIN INLET A","2303405","2018-04-20 02:00","2018","04","20","02:00","-12.0","","-13.5","","88","","","","14","","16","","24.1","","102.11","","","","-19","","NA"
"-92.11","62.81","RANKIN INLET A","2303405","2018-04-20 03:00","2018","04","20","03:00","-11.2","","-12.6","","89","","","","14","","20","","24.1","","102.01","","","","-19","","Mainly Clear"
"-92.11","62.81","RANKIN INLET A","2303405","2018-04-20 04:00","2018","04","20","04:00","-10.0","","-11.3","","90","","","","14","","23","","24.1","","101.95","","","","-18","","NA"
"-92.11","62.81","RANKIN INLET A","2303405","2018-04-20 05:00","2018","04","20","05:00","-9.4","","-10.8","","89","","","","14","","28","","24.1","","101.88","","","","-18","","NA"
"-92.11","62.81","RANKIN INLET A","2303405","2018-04-20 06:00","2018","04","20","06:00","-8.4","","-10.2","","87","","","","14","","28","","24.1","","101.82","","","","-17","","Mostly Cloudy"
"-92.11","62.81","RANKIN INLET A","2303405","2018-04-20 07:00","2018","04","20","07:00","-6.5","","-8.8","","84","","","","14","","31","","24.1","","101.75","","","","-15","","NA"
"-92.11","62.81","RANKIN INLET A","2303405","2018-04-20 08:00","2018","04","20","08:00","-5.5","","-7.5","","86","","","","14","","34","","24.1","","101.63","","","","-14","","NA"
"-92.11","62.81","RANKIN INLET A","2303405","2018-04-20 09:00","2018","04","20","09:00","-4.1","","-6.4","","84","","","","14","","37","","24.1","","101.52","","","","-13","","Mostly Cloudy"
"-92.11","62.81","RANKIN INLET A","2303405","2018-04-20 10:00","2018","04","20","10:00","-3.3","","-5.8","","83","","","","16","","37","","24.1","","101.45","","","","-12","","NA"
"-92.11","62.81","RANKIN INLET A","2303405","2018-04-20 11:00","2018","04","20","11:00","-2.8","","-5.1","","84","","","","16","","34","","24.1","","101.38","","","","-11","","Blowing Snow"
"-92.11","62.81","RANKIN INLET A","2303405","2018-04-20 12:00","2018","04","20","12:00","-2.1","","-4.2","","86","","","","16","","46","","19.3","","101.22","","","","-11","","Freezing Rain"
"-92.11","62.81","RANKIN INLET A","2303405","2018-04-20 13:00","2018","04","20","13:00","-1.0","","-3.2","","85","","","","16","","36","","24.1","","101.17","","","","-8","","NA"
"-92.11","62.81","RANKIN INLET A","2303405","2018-04-20 14:00","2018","04","20","14:00","-0.2","","-2.5","","84","","","","17","","43","","24.1","","101.11","","","","-8","","NA"
"-92.11","62.81","RANKIN INLET A","2303405","2018-04-20 15:00","2018","04","20","15:00","0.5","","-1.8","","85","","","","18","","32","","24.1","","101.09","","","","","","Mostly Cloudy"
"-92.11","62.81","RANKIN INLET A","2303405","2018-04-20 16:00","2018","04","20","16:00","0.8","","-1.7","","83","","","","17","","32","","24.1","","101.04","","","","","","NA"
"-92.11","62.81","RANKIN INLET A","2303405","2018-04-20 17:00","2018","04","20","17:00","0.5","","-1.7","","85","","","","18","","22","","24.1","","101.01","","","","","","NA"
"-92.11","62.81","RANKIN INLET A","2303405","2018-04-20 18:00","2018","04","20","18:00","0.1","","-1.9","","86","","","","18","","23","","24.1","","100.98","","","","","","Cloudy"
"-92.11","62.81","RANKIN INLET A","2303405","2018-04-20 19:00","2018","04","20","19:00","-0.2","","-2.1","","87","","","","18","","30","","24.1","","100.89","","","","-7","","NA"
"-92.11","62.81","RANKIN INLET A","2303405","2018-04-20 20:00","2018","04","20","20:00","-0.6","","-2.3","","88","","","","18","","29","","24.1","","100.86","","","","-7","","NA"
"-92.11","62.81","RANKIN INLET A","2303405","2018-04-20 21:00","2018","04","20","21:00","-0.5","","-2.2","","88","","","","18","","30","","24.1","","100.80","","","","-7","","Mostly Cloudy"
"-92.11","62.81","RANKIN INLET A","2303405","2018-04-20 22:00","2018","04","20","22:00","-0.4","","-2.3","","87","","","","19","","25","","24.1","","100.76","","","","-6","","NA"
"-92.11","62.81","RANKIN INLET A","2303405","2018-04-20 23:00","2018","04","20","23:00","-0.1","","-2.3","","85","","","","19","","21","","24.1","","100.71","","","","-6","","NA"
"-92.11","62.81","RANKIN INLET A","2303405","2018-04-21 00:00","2018","04","21","00:00","-0.6","","-2.9","","85","","","","20","","20","","24.1","","100.68","","","","-6","","Mostly Cloudy"
"-92.11","62.81","RANKIN INLET A","2303405","2018-04-21 01:00","2018","04","21","01:00","-1.6","","-3.6","","86","","","","19","","19","","24.1","","100.60","","","","-7","","NA"
"-92.11","62.81","RANKIN INLET A","2303405","2018-04-21 02:00","2018","04","21","02:00","-1.9","","-3.4","","90","","","","20","","14","","24.1","","100.58","","","","-7","","NA"
"-92.11","62.81","RANKIN INLET A","2303405","2018-04-21 03:00","2018","04","21","03:00","-2.2","","-3.7","","90","","","","17","","14","","24.1","","100.54","","","","-7","","Mainly Clear"
"-92.11","62.81","RANKIN INLET A","2303405","2018-04-21 04:00","2018","04","21","04:00","-3.0","","-4.4","","90","","","","20","","18","","24.1","","100.55","","","","-9","","NA"
"-92.11","62.81","RANKIN INLET A","2303405","2018-04-21 05:00","2018","04","21","05:00","-4.0","","-5.2","","91","","","","20","","16","","24.1","","100.52","","","","-10","","NA"
"-92.11","62.81","RANKIN INLET A","2303405","2018-04-21 06:00","2018","04","21","06:00","-4.4","","-5.7","","91","","","","20","","18","","24.1","","100.51","","","","-10","","Mainly Clear"
"-92.11","62.81","RANKIN INLET A","2303405","2018-04-21 07:00","2018","04","21","07:00","-3.9","","-5.6","","88","","","","19","","16","","24.1","","100.52","","","","-9","","NA"
"-92.11","62.81","RANKIN INLET A","2303405","2018-04-21 08:00","2018","04","21","08:00","-3.3","","-5.1","","87","","","","21","","16","","24.1","","100.53","","","","-9","","NA"
"-92.11","62.81","RANKIN INLET A","2303405","2018-04-21 09:00","2018","04","21","09:00","-1.4","","-3.6","","85","","","","23","","12","","24.1","","100.54","","","","-5","","Mainly Clear"
"-92.11","62.81","RANKIN INLET A","2303405","2018-04-21 10:00","2018","04","21","10:00","0.8","","-1.7","","83","","","","27","","14","","24.1","","100.62","","","","","","NA"
"-92.11","62.81","RANKIN INLET A","2303405","2018-04-21 11:00","2018","04","21","11:00","0.9","","-1.5","","84","","","","27","","9","","24.1","","100.64","","","","","","NA"
"-92.11","62.81","RANKIN INLET A","2303405","2018-04-21 12:00","2018","04","21","12:00","1.6","","-0.8","","84","","","","28","","18","","24.1","","100.67","","","","","","Mostly Cloudy"
"-92.11","62.81","RANKIN INLET A","2303405","2018-04-21 13:00","2018","04","21","13:00","-0.7","","-2.6","","87","","","","31","","40","","24.1","","100.81","","","","-8","","NA"
"-92.11","62.81","RANKIN INLET A","2303405","2018-04-21 14:00","2018","04","21","14:00","-1.2","","-3.7","","83","","","","32","","36","","24.1","","100.94","","","","-9","","NA"
"-92.11","62.81","RANKIN INLET A","2303405","2018-04-21 15:00","2018","04","21","15:00","-3.6","","-5.8","","85","","","","31","","40","","24.1","","101.04","","","","-12","","Mostly Cloudy"
"-92.11","62.81","RANKIN INLET A","2303405","2018-04-21 16:00","2018","04","21","16:00","-6.2","","-8.7","","82","","","","30","","45","","24.1","","101.15","","","","-16","","NA"
"-92.11","62.81","RANKIN INLET A","2303405","2018-04-21 17:00","2018","04","21","17:00","-8.6","","-11.3","","81","","","","32","","52","","24.1","","101.22","","","","-20","","NA"
"-92.11","62.81","RANKIN INLET A","2303405","2018-04-21 18:00","2018","04","21","18:00","-10.3","","-12.7","","83","","","","33","","49","","24.1","","101.33","","","","-22","","Mainly Clear"
"-92.11","62.81","RANKIN INLET A","2303405","2018-04-21 19:00","2018","04","21","19:00","-11.4","","-13.5","","85","","","","34","","48","","12.9","","101.44","","","","-23","","NA"
"-92.11","62.81","RANKIN INLET A","2303405","2018-04-21 20:00","2018","04","21","20:00","-12.5","","-14.8","","83","","","","33","","55","","16.1","","101.55","","","","-26","","NA"
"-92.11","62.81","RANKIN INLET A","2303405","2018-04-21 21:00","2018","04","21","21:00","-14.4","","-16.7","","83","","","","34","","52","","24.1","","101.65","","","","-28","","Clear"
"-92.11","62.81","RANKIN INLET A","2303405","2018-04-21 22:00","2018","04","21","22:00","-15.4","","-18.3","","79","","","","34","","51","","24.1","","101.73","","","","-29","","NA"
"-92.11","62.81","RANKIN INLET A","2303405","2018-04-21 23:00","2018","04","21","23:00","-16.7","","-19.9","","77","","","","34","","48","","24.1","","101.87","","","","-31","","NA"
"-92.11","62.81","RANKIN INLET A","2303405","2018-04-22 00:00","2018","04","22","00:00","-17.8","","-21.0","","76","","","","34","","46","","24.1","","101.94","","","","-32","","Clear"
"-92.11","62.81","RANKIN INLET A","2303405","2018-04-22 01:00","2018","04","22","01:00","-18.7","","-21.9","","76","","","","35","","40","","24.1","","102.04","","","","-32","","NA"
"-92.11","62.81","RANKIN INLET A","2303405","2018-04-22 02:00","2018","04","22","02:00","-19.4","","-22.8","","75","","","","35","","42","","24.1","","102.08","","","","-34","","NA"
"-92.11","62.81","RANKIN INLET A","2303405","2018-04-22 03:00","2018","04","22","03:00","-20.0","","-23.5","","74","","","","35","","37","","24.1","","102.15","","","","-34","","Clear"
"-92.11","62.81","RANKIN INLET A","2303405","2018-04-22 04:00","2018","04","22","04:00","-20.5","","-23.9","","75","","","","36","","37","","24.1","","102.19","","","","-34","","NA"
"-92.11","62.81","RANKIN INLET A","2303405","2018-04-22 05:00","2018","04","22","05:00","-20.7","","-24.2","","74","","","","36","","35","","24.1","","102.21","","","","-34","","NA"
"-92.11","62.81","RANKIN INLET A","2303405","2018-04-22 06:00","2018","04","22","06:00","-20.5","","-24.2","","73","","","","35","","33","","24.1","","102.27","","","","-34","","Mainly Clear"
"-92.11","62.81","RANKIN INLET A","2303405","2018-04-22 07:00","2018","04","22","07:00","-20.1","","-24.0","","71","","","","36","","37","","24.1","","102.26","","","","-34","","NA"
"-92.11","62.81","RANKIN INLET A","2303405","2018-04-22 08:00","2018","04","22","08:00","-19.4","","-23.7","","70","","","","36","","30","","24.1","","102.25","","","","-32","","NA"
"-92.11","62.81","RANKIN INLET A","2303405","2018-04-22 09:00","2018","04","22","09:00","-18.5","","-22.7","","70","","","","36","","34","","24.1","","102.19","","","","-31","","Mostly Cloudy"
"-92.11","62.81","RANKIN INLET A","2303405","2018-04-22 10:00","2018","04","22","10:00","-17.8","","-21.9","","70","","","","1","","34","","24.1","","102.13","","","","-30","","NA"
"-92.11","62.81","RANKIN INLET A","2303405","2018-04-22 11:00","2018","04","22","11:00","-16.6","","-20.9","","70","","","","1","","27","","24.1","","102.15","","","","-28","","NA"
"-92.11","62.81","RANKIN INLET A","2303405","2018-04-22 12:00","2018","04","22","12:00","-16.1","","-20.4","","70","","","","1","","25","","24.1","","102.19","","","","-27","","Cloudy"
"-92.11","62.81","RANKIN INLET A","2303405","2018-04-22 13:00","2018","04","22","13:00","-15.6","","-19.9","","70","","","","2","","30","","24.1","","102.15","","","","-27","","NA"
"-92.11","62.81","RANKIN INLET A","2303405","2018-04-22 14:00","2018","04","22","14:00","-14.7","","-18.9","","71","","","","2","","24","","24.1","","102.12","","","","-25","","NA"
"-92.11","62.81","RANKIN INLET A","2303405","2018-04-22 15:00","2018","04","22","15:00","-13.9","","-18.1","","71","","","","1","","27","","24.1","","102.09","","","","-24","","Mostly Cloudy"
"-92.11","62.81","RANKIN INLET A","2303405","2018-04-22 16:00","2018","04","22","16:00","-13.6","","-17.7","","71","","","","2","","26","","24.1","","102.06","","","","-24","","NA"
"-92.11","62.81","RANKIN INLET A","2303405","2018-04-22 17:00","2018","04","22","17:00","-13.7","","-17.8","","71","","","","2","","27","","24.1","","102.04","","","","-24","","NA"
"-92.11","62.81","RANKIN INLET A","2303405","2018-04-22 18:00","2018","04","22","18:00","-13.9","","-17.7","","73","","","","2","","30","","24.1","","102.01","","","","-25","","Mostly Cloudy"
"-92.11","62.81","RANKIN INLET A","2303405","2018-04-22 19:00","2018","04","22","19:00","-14.3","","-17.7","","76","","","","2","","23","","24.1","","101.98","","","","-24","","NA"
"-92.11","62.81","RANKIN INLET A","2303405","2018-04-22 20:00","2018","04","22","20:00","-15.1","","-18.1","","78","","","","2","","21","","24.1","","101.97","","","","-25","","NA"
"-92.11","62.81","RANKIN INLET A","2303405","2018-04-22 21:00","2018","04","22","21:00","-15.8","","-18.7","","79","","","","1","","22","","24.1","","101.93","","","","-26","","Mostly Cloudy"
"-92.11","62.81","RANKIN INLET A","2303405","2018-04-22 22:00","2018","04","22","22:00","-16.5","","-19.3","","79","","","","1","","21","","24.1","","101.91","","","","-26","","NA"
"-92.11","62.81","RANKIN INLET A","2303405","2018-04-22 23:00","2018","04","22","23:00","-16.7","","-19.6","","79","","","","1","","18","","24.1","","101.88","","","","-26","","NA"
"-92.11","62.81","RANKIN INLET A","2303405","2018-04-23 00:00","2018","04","23","00:00","-16.9","","-19.8","","79","","","","2","","12","","24.1","","101.89","","","","-24","","Mostly Cloudy"
"-92.11","62.81","RANKIN INLET A","2303405","2018-04-23 01:00","2018","04","23","01:00","-17.4","","-20.5","","77","","","","2","","18","","24.1","","101.87","","","","-27","","NA"
"-92.11","62.81","RANKIN INLET A","2303405","2018-04-23 02:00","2018","04","23","02:00","-17.7","","-21.2","","74","","","","3","","15","","24.1","","101.87","","","","-26","","NA"
"-92.11","62.81","RANKIN INLET A","2303405","2018-04-23 03:00","2018","04","23","03:00","-18.9","","-21.9","","77","","","","36","","14","","24.1","","101.87","","","","-27","","Mostly Cloudy"
"-92.11","62.81","RANKIN INLET A","2303405","2018-04-23 04:00","2018","04","23","04:00","-19.3","","-22.5","","76","","","","1","","27","","24.1","","101.86","","","","-31","","NA"
"-92.11","62.81","RANKIN INLET A","2303405","2018-04-23 05:00","2018","04","23","05:00","-19.9","","-23.0","","76","","","","36","","31","","24.1","","101.85","","","","-33","","NA"
"-92.11","62.81","RANKIN INLET A","2303405","2018-04-23 06:00","2018","04","23","06:00","-20.0","","-23.4","","75","","","","36","","30","","24.1","","101.87","","","","-33","","Mostly Cloudy"
"-92.11","62.81","RANKIN INLET A","2303405","2018-04-23 07:00","2018","04","23","07:00","-19.8","","-23.4","","74","","","","36","","27","","24.1","","101.92","","","","-32","","NA"
"-92.11","62.81","RANKIN INLET A","2303405","2018-04-23 08:00","2018","04","23","08:00","-19.2","","-23.1","","72","","","","36","","22","","24.1","","101.94","","","","-30","","NA"
"-92.11","62.81","RANKIN INLET A","2303405","2018-04-23 09:00","2018","04","23","09:00","-18.4","","-22.5","","71","","","","36","","19","","24.1","","101.96","","","","-28","","Mainly Clear"
"-92.11","62.81","RANKIN INLET A","2303405","2018-04-23 10:00","2018","04","23","10:00","-17.2","","-21.2","","71","","","","36","","27","","24.1","","101.96","","","","-28","","NA"
"-92.11","62.81","RANKIN INLET A","2303405","2018-04-23 11:00","2018","04","23","11:00","-15.9","","-20.1","","71","","","","36","","27","","24.1","","101.96","","","","-27","","NA"
"-92.11","62.81","RANKIN INLET A","2303405","2018-04-23 12:00","2018","04","23","12:00","-14.8","","-19.8","","66","","","","36","","25","","24.1","","101.99","","","","-25","","Mainly Clear"
"-92.11","62.81","RANKIN INLET A","2303405","2018-04-23 13:00","2018","04","23","13:00","-14.3","","-19.1","","68","","","","36","","30","","24.1","","102.00","","","","-25","","NA"
"-92.11","62.81","RANKIN INLET A","2303405","2018-04-23 14:00","2018","04","23","14:00","-13.8","","-18.2","","70","","","","35","","26","","24.1","","102.03","","","","-24","","NA"
"-92.11","62.81","RANKIN INLET A","2303405","2018-04-23 15:00","2018","04","23","15:00","-14.1","","-18.4","","70","","","","35","","25","","24.1","","102.01","","","","-24","","Mainly Clear"
"-92.11","62.81","RANKIN INLET A","2303405","2018-04-23 16:00","2018","04","23","16:00","-13.8","","-18.0","","71","","","","35","","19","","22.5","","102.03","","","","-22","","NA"
"-92.11","62.81","RANKIN INLET A","2303405","2018-04-23 17:00","2018","04","23","17:00","-13.8","","-18.0","","71","","","","34","","21","","24.1","","102.03","","","","-23","","NA"
"-92.11","62.81","RANKIN INLET A","2303405","2018-04-23 18:00","2018","04","23","18:00","-14.2","","-18.1","","73","","","","34","","17","","24.1","","102.02","","","","-22","","Mostly Cloudy"
"-92.11","62.81","RANKIN INLET A","2303405","2018-04-23 19:00","2018","04","23","19:00","-14.7","","-18.0","","76","","","","31","","12","","24.1","","102.02","","","","-22","","NA"
"-92.11","62.81","RANKIN INLET A","2303405","2018-04-23 20:00","2018","04","23","20:00","-15.8","","-18.9","","77","","","","31","","11","","24.1","","101.99","","","","-23","","NA"
"-92.11","62.81","RANKIN INLET A","2303405","2018-04-23 21:00","2018","04","23","21:00","-15.6","","-18.7","","77","","","","28","","9","","24.1","","101.97","","","","-22","","Mostly Cloudy"
"-92.11","62.81","RANKIN INLET A","2303405","2018-04-23 22:00","2018","04","23","22:00","-15.6","","-18.7","","78","","","","25","","5","","24.1","","101.89","","","","-19","","NA"
"-92.11","62.81","RANKIN INLET A","2303405","2018-04-23 23:00","2018","04","23","23:00","-16.4","","-19.4","","78","","","","21","","7","","24.1","","101.86","","","","-21","","NA"
"-92.11","62.81","RANKIN INLET A","2303405","2018-04-24 00:00","2018","04","24","00:00","-15.8","","-18.7","","79","","","","21","","10","","24.1","","101.80","","","","-22","","Mostly Cloudy"
"-92.11","62.81","RANKIN INLET A","2303405","2018-04-24 01:00","2018","04","24","01:00","-14.9","","-17.6","","80","","","","23","","13","","16.1","","101.76","","","","-22","","Snow"
"-92.11","62.81","RANKIN INLET A","2303405","2018-04-24 02:00","2018","04","24","02:00","-14.6","","-16.7","","84","","","","22","","15","","16.1","","101.68","","","","-22","","Snow"
"-92.11","62.81","RANKIN INLET A","2303405","2018-04-24 03:00","2018","04","24","03:00","-13.6","","-15.6","","85","","","","22","","17","","12.9","","101.62","","","","-22","","Snow"
"-92.11","62.81","RANKIN INLET A","2303405","2018-04-24 04:00","2018","04","24","04:00","-13.1","","-15.0","","86","","","","22","","17","","9.7","","101.53","","","","-21","","Snow"
"-92.11","62.81","RANKIN INLET A","2303405","2018-04-24 05:00","2018","04","24","05:00","-12.7","","-14.4","","87","","","","22","","22","","6.4","","101.45","","","","-22","","Snow"
"-92.11","62.81","RANKIN INLET A","2303405","2018-04-24 06:00","2018","04","24","06:00","-11.8","","-13.6","","87","","","","22","","17","","4.8","","101.41","","","","-19","","Snow"
"-92.11","62.81","RANKIN INLET A","2303405","2018-04-24 07:00","2018","04","24","07:00","-10.3","","-11.9","","88","","","","24","","15","","4.8","","101.35","","","","-17","","Snow"
"-92.11","62.81","RANKIN INLET A","2303405","2018-04-24 08:00","2018","04","24","08:00","-9.4","","-11.4","","86","","","","28","","17","","8.1","","101.29","","","","-16","","Snow"
"-92.11","62.81","RANKIN INLET A","2303405","2018-04-24 09:00","2018","04","24","09:00","-10.0","","-12.6","","82","","","","31","","24","","16.1","","101.29","","","","-19","","Mainly Clear"
"-92.11","62.81","RANKIN INLET A","2303405","2018-04-24 10:00","2018","04","24","10:00","-10.4","","-12.9","","82","","","","31","","22","","24.1","","101.27","","","","-19","","NA"
"-92.11","62.81","RANKIN INLET A","2303405","2018-04-24 11:00","2018","04","24","11:00","-10.4","","-12.9","","82","","","","31","","24","","24.1","","101.25","","","","-19","","NA"
"-92.11","62.81","RANKIN INLET A","2303405","2018-04-24 12:00","2018","04","24","12:00","-10.8","","-13.3","","82","","","","32","","24","","24.1","","101.22","","","","-20","","Mainly Clear"
"-92.11","62.81","RANKIN INLET A","2303405","2018-04-24 13:00","2018","04","24","13:00","-10.6","","-13.3","","81","","","","32","","26","","24.1","","101.20","","","","-20","","NA"
"-92.11","62.81","RANKIN INLET A","2303405","2018-04-24 14:00","2018","04","24","14:00","-10.6","","-13.4","","80","","","","32","","22","","24.1","","101.18","","","","-19","","NA"
"-92.11","62.81","RANKIN INLET A","2303405","2018-04-24 15:00","2018","04","24","15:00","-11.1","","-13.8","","80","","","","33","","22","","24.1","","101.13","","","","-20","","Mainly Clear"
"-92.11","62.81","RANKIN INLET A","2303405","2018-04-24 16:00","2018","04","24","16:00","-12.0","","-15.1","","78","","","","35","","19","","24.1","","101.11","","","","-20","","NA"
"-92.11","62.81","RANKIN INLET A","2303405","2018-04-24 17:00","2018","04","24","17:00","-13.2","","-16.0","","80","","","","35","","11","","24.1","","101.08","","","","-19","","NA"
"-92.11","62.81","RANKIN INLET A","2303405","2018-04-24 18:00","2018","04","24","18:00","-13.9","","-16.7","","79","","","","35","","10","","24.1","","101.03","","","","-20","","Mostly Cloudy"
"-92.11","62.81","RANKIN INLET A","2303405","2018-04-24 19:00","2018","04","24","19:00","-14.2","","-18.2","","72","","","","36","","16","","22.5","","100.97","","","","-22","","NA"
"-92.11","62.81","RANKIN INLET A","2303405","2018-04-24 20:00","2018","04","24","20:00","-14.7","","-18.2","","75","","","","3","","12","","24.1","","100.92","","","","-22","","NA"
"-92.11","62.81","RANKIN INLET A","2303405","2018-04-24 21:00","2018","04","24","21:00","-15.3","","-17.9","","80","","","","3","","14","","9.7","","100.86","","","","-23","","Snow"
"-92.11","62.81","RANKIN INLET A","2303405","2018-04-24 22:00","2018","04","24","22:00","-15.4","","-17.9","","81","","","","3","","15","","9.7","","100.79","","","","-23","","Snow"
"-92.11","62.81","RANKIN INLET A","2303405","2018-04-24 23:00","2018","04","24","23:00","-15.5","","-18.0","","81","","","","3","","14","","9.7","","100.75","","","","-23","","Snow"
"-92.11","62.81","RANKIN INLET A","2303405","2018-04-25 00:00","2018","04","25","00:00","-15.6","","-18.8","","77","","","","3","","14","","9.7","","100.70","","","","-23","","Snow"
"-92.11","62.81","RANKIN INLET A","2303405","2018-04-25 01:00","2018","04","25","01:00","-15.8","","-18.1","","83","","","","4","","17","","9.7","","100.62","","","","-24","","Snow"
"-92.11","62.81","RANKIN INLET A","2303405","2018-04-25 02:00","2018","04","25","02:00","-15.9","","-18.5","","81","","","","3","","19","","9.7","","100.60","","","","-25","","Snow"
"-92.11","62.81","RANKIN INLET A","2303405","2018-04-25 03:00","2018","04","25","03:00","-16.4","","-19.6","","77","","","","3","","25","","9.7","","100.56","","","","-27","","Snow"
"-92.11","62.81","RANKIN INLET A","2303405","2018-04-25 04:00","2018","04","25","04:00","-17.9","","-21.0","","77","","","","3","","20","","16.1","","100.56","","","","-28","","Snow"
"-92.11","62.81","RANKIN INLET A","2303405","2018-04-25 05:00","2018","04","25","05:00","-21.5","","-24.4","","78","","","","1","","21","","24.1","","100.58","","","","-33","","NA"
"-92.11","62.81","RANKIN INLET A","2303405","2018-04-25 06:00","2018","04","25","06:00","-21.8","","-25.1","","75","","","","1","","21","","24.1","","100.62","","","","-33","","Mainly Clear"
"-92.11","62.81","RANKIN INLET A","2303405","2018-04-25 07:00","2018","04","25","07:00","-22.3","","-25.5","","76","","","","36","","21","","24.1","","100.67","","","","-34","","NA"
"-92.11","62.81","RANKIN INLET A","2303405","2018-04-25 08:00","2018","04","25","08:00","-22.0","","-25.4","","74","","","","36","","23","","24.1","","100.68","","","","-34","","NA"
"-92.11","62.81","RANKIN INLET A","2303405","2018-04-25 09:00","2018","04","25","09:00","-21.2","","-24.6","","75","","","","36","","34","","24.1","","100.70","","","","-35","","Clear"
"-92.11","62.81","RANKIN INLET A","2303405","2018-04-25 10:00","2018","04","25","10:00","-20.0","","-23.4","","75","","","","36","","32","","24.1","","100.75","","","","-33","","NA"
"-92.11","62.81","RANKIN INLET A","2303405","2018-04-25 11:00","2018","04","25","11:00","-18.6","","-22.3","","73","","","","35","","33","","24.1","","100.79","","","","-31","","NA"
"-92.11","62.81","RANKIN INLET A","2303405","2018-04-25 12:00","2018","04","25","12:00","-17.7","","-21.2","","74","","","","35","","39","","24.1","","100.80","","","","-31","","Clear"
"-92.11","62.81","RANKIN INLET A","2303405","2018-04-25 13:00","2018","04","25","13:00","-17.4","","-20.8","","75","","","","35","","39","","24.1","","100.86","","","","-31","","Blowing Snow"
"-92.11","62.81","RANKIN INLET A","2303405","2018-04-25 14:00","2018","04","25","14:00","-16.9","","-20.2","","76","","","","35","","41","","24.1","","100.93","","","","-30","","Blowing Snow"
"-92.11","62.81","RANKIN INLET A","2303405","2018-04-25 15:00","2018","04","25","15:00","-16.3","","-19.5","","77","","","","35","","37","","24.1","","100.96","","","","-29","","Blowing Snow"
"-92.11","62.81","RANKIN INLET A","2303405","2018-04-25 16:00","2018","04","25","16:00","-15.9","","-19.2","","76","","","","34","","36","","24.1","","101.00","","","","-28","","Blowing Snow"
"-92.11","62.81","RANKIN INLET A","2303405","2018-04-25 17:00","2018","04","25","17:00","-16.2","","-19.0","","79","","","","34","","44","","24.1","","100.98","","","","-30","","Blowing Snow"
"-92.11","62.81","RANKIN INLET A","2303405","2018-04-25 18:00","2018","04","25","18:00","-16.6","","-19.4","","79","","","","33","","37","","24.1","","101.05","","","","-29","","Blowing Snow"
"-92.11","62.81","RANKIN INLET A","2303405","2018-04-25 19:00","2018","04","25","19:00","-16.8","","-19.8","","78","","","","33","","32","","24.1","","101.09","","","","-29","","Blowing Snow"
"-92.11","62.81","RANKIN INLET A","2303405","2018-04-25 20:00","2018","04","25","20:00","-18.0","","-20.8","","79","","","","31","","26","","24.1","","101.09","","","","-29","","Blowing Snow"
"-92.11","62.81","RANKIN INLET A","2303405","2018-04-25 21:00","2018","04","25","21:00","-18.3","","-21.0","","80","","","","31","","27","","24.1","","101.10","","","","-30","","Blowing Snow"
"-92.11","62.81","RANKIN INLET A","2303405","2018-04-25 22:00","2018","04","25","22:00","-17.9","","-20.6","","80","","","","30","","19","","24.1","","101.10","","","","-28","","Blowing Snow"
"-92.11","62.81","RANKIN INLET A","2303405","2018-04-25 23:00","2018","04","25","23:00","-17.1","","-19.9","","79","","","","30","","22","","24.1","","101.08","","","","-27","","Snow,Blowing Snow"
"-92.11","62.81","RANKIN INLET A","2303405","2018-04-26 00:00","2018","04","26","00:00","-16.7","","-19.3","","80","","","","29","","21","","24.1","","101.06","","","","-27","","Snow"
"-92.11","62.81","RANKIN INLET A","2303405","2018-04-26 01:00","2018","04","26","01:00","-16.4","","-18.8","","82","","","","30","","18","","24.1","","101.04","","","","-25","","Snow"
"-92.11","62.81","RANKIN INLET A","2303405","2018-04-26 02:00","2018","04","26","02:00","-16.0","","-18.5","","81","","","","31","","17","","24.1","","100.99","","","","-25","","Snow"
"-92.11","62.81","RANKIN INLET A","2303405","2018-04-26 03:00","2018","04","26","03:00","-16.0","","-19.0","","78","","","","33","","26","","24.1","","101.00","","","","-27","","Snow"
"-92.11","62.81","RANKIN INLET A","2303405","2018-04-26 04:00","2018","04","26","04:00","-17.1","","-19.8","","80","","","","34","","15","","24.1","","101.03","","","","-26","","Snow"
"-92.11","62.81","RANKIN INLET A","2303405","2018-04-26 05:00","2018","04","26","05:00","-17.8","","-20.3","","81","","","","32","","18","","24.1","","101.06","","","","-27","","NA"
"-92.11","62.81","RANKIN INLET A","2303405","2018-04-26 06:00","2018","04","26","06:00","-19.3","","-22.0","","80","","","","32","","18","","24.1","","101.06","","","","-29","","Mainly Clear"
"-92.11","62.81","RANKIN INLET A","2303405","2018-04-26 07:00","2018","04","26","07:00","-19.6","","-22.5","","78","","","","33","","22","","24.1","","101.07","","","","-30","","NA"
"-92.11","62.81","RANKIN INLET A","2303405","2018-04-26 08:00","2018","04","26","08:00","-19.1","","-22.4","","76","","","","34","","18","","24.1","","101.07","","","","-29","","NA"
"-92.11","62.81","RANKIN INLET A","2303405","2018-04-26 09:00","2018","04","26","09:00","-18.2","","-21.7","","75","","","","31","","18","","24.1","","101.11","","","","-28","","Mainly Clear"
"-92.11","62.81","RANKIN INLET A","2303405","2018-04-26 10:00","2018","04","26","10:00","-17.5","","-21.1","","74","","","","32","","19","","24.1","","101.15","","","","-27","","NA"
"-92.11","62.81","RANKIN INLET A","2303405","2018-04-26 11:00","2018","04","26","11:00","-16.8","","-20.5","","74","","","","31","","25","","24.1","","101.18","","","","-27","","NA"
"-92.11","62.81","RANKIN INLET A","2303405","2018-04-26 12:00","2018","04","26","12:00","-16.4","","-20.0","","74","","","","33","","24","","24.1","","101.20","","","","-27","","Mainly Clear"
"-92.11","62.81","RANKIN INLET A","2303405","2018-04-26 13:00","2018","04","26","13:00","-16.2","","-20.1","","72","","","","35","","26","","24.1","","101.23","","","","-27","","NA"
"-92.11","62.81","RANKIN INLET A","2303405","2018-04-26 14:00","2018","04","26","14:00","-16.0","","-19.8","","73","","","","35","","27","","24.1","","101.26","","","","-27","","NA"
"-92.11","62.81","RANKIN INLET A","2303405","2018-04-26 15:00","2018","04","26","15:00","-15.8","","-19.7","","72","","","","35","","26","","24.1","","101.29","","","","-26","","Clear"
"-92.11","62.81","RANKIN INLET A","2303405","2018-04-26 16:00","2018","04","26","16:00","-15.7","","-19.5","","73","","","","34","","23","","24.1","","101.31","","","","-26","","NA"
"-92.11","62.81","RANKIN INLET A","2303405","2018-04-26 17:00","2018","04","26","17:00","-15.9","","-19.8","","73","","","","35","","23","","24.1","","101.36","","","","-26","","NA"
"-92.11","62.81","RANKIN INLET A","2303405","2018-04-26 18:00","2018","04","26","18:00","-16.4","","-20.1","","74","","","","34","","22","","24.1","","101.40","","","","-26","","Clear"
"-92.11","62.81","RANKIN INLET A","2303405","2018-04-26 19:00","2018","04","26","19:00","-17.5","","-20.5","","77","","","","33","","18","","24.1","","101.44","","","","-27","","NA"
"-92.11","62.81","RANKIN INLET A","2303405","2018-04-26 20:00","2018","04","26","20:00","-19.0","","-21.7","","79","","","","34","","20","","24.1","","101.47","","","","-29","","NA"
"-92.11","62.81","RANKIN INLET A","2303405","2018-04-26 21:00","2018","04","26","21:00","-19.7","","-22.3","","80","","","","34","","24","","24.1","","101.48","","","","-31","","Clear"
"-92.11","62.81","RANKIN INLET A","2303405","2018-04-26 22:00","2018","04","26","22:00","-20.7","","-23.3","","80","","","","33","","18","","24.1","","101.50","","","","-31","","NA"
"-92.11","62.81","RANKIN INLET A","2303405","2018-04-26 23:00","2018","04","26","23:00","-20.6","","-23.1","","81","","","","33","","20","","24.1","","101.49","","","","-31","","NA"
"-92.11","62.81","RANKIN INLET A","2303405","2018-04-27 00:00","2018","04","27","00:00","-21.4","","-23.9","","81","","","","33","","21","","24.1","","101.47","","","","-32","","Clear"
"-92.11","62.81","RANKIN INLET A","2303405","2018-04-27 01:00","2018","04","27","01:00","-22.2","","-24.8","","80","","","","32","","20","","24.1","","101.47","","","","-33","","NA"
"-92.11","62.81","RANKIN INLET A","2303405","2018-04-27 02:00","2018","04","27","02:00","-22.1","","-24.7","","80","","","","32","","27","","24.1","","101.48","","","","-35","","NA"
"-92.11","62.81","RANKIN INLET A","2303405","2018-04-27 03:00","2018","04","27","03:00","-22.4","","-25.1","","80","","","","33","","24","","24.1","","101.50","","","","-34","","Mainly Clear"
"-92.11","62.81","RANKIN INLET A","2303405","2018-04-27 04:00","2018","04","27","04:00","-22.6","","-25.3","","80","","","","32","","24","","24.1","","101.50","","","","-35","","NA"
"-92.11","62.81","RANKIN INLET A","2303405","2018-04-27 05:00","2018","04","27","05:00","-22.8","","-25.5","","79","","","","32","","21","","24.1","","101.53","","","","-34","","NA"
"-92.11","62.81","RANKIN INLET A","2303405","2018-04-27 06:00","2018","04","27","06:00","-21.9","","-24.7","","79","","","","32","","21","","24.1","","101.55","","","","-33","","Mostly Cloudy"
"-92.11","62.81","RANKIN INLET A","2303405","2018-04-27 07:00","2018","04","27","07:00","-21.1","","-24.2","","77","","","","31","","22","","24.1","","101.56","","","","-32","","NA"
"-92.11","62.81","RANKIN INLET A","2303405","2018-04-27 08:00","2018","04","27","08:00","-19.8","","-23.0","","76","","","","31","","23","","24.1","","101.57","","","","-31","","NA"
"-92.11","62.81","RANKIN INLET A","2303405","2018-04-27 09:00","2018","04","27","09:00","-18.8","","-21.9","","77","","","","32","","20","","24.1","","101.55","","","","-29","","Mainly Clear"
"-92.11","62.81","RANKIN INLET A","2303405","2018-04-27 10:00","2018","04","27","10:00","-17.8","","-21.1","","76","","","","31","","23","","24.1","","101.54","","","","-28","","NA"
"-92.11","62.81","RANKIN INLET A","2303405","2018-04-27 11:00","2018","04","27","11:00","-16.8","","-20.3","","75","","","","32","","26","","24.1","","101.52","","","","-28","","NA"
"-92.11","62.81","RANKIN INLET A","2303405","2018-04-27 12:00","2018","04","27","12:00","-16.5","","-20.5","","71","","","","30","","25","","24.1","","101.52","","","","-27","","Mainly Clear"
"-92.11","62.81","RANKIN INLET A","2303405","2018-04-27 13:00","2018","04","27","13:00","-15.8","","-19.7","","73","","","","31","","25","","24.1","","101.50","","","","-26","","NA"
"-92.11","62.81","RANKIN INLET A","2303405","2018-04-27 14:00","2018","04","27","14:00","-15.2","","-18.9","","74","","","","30","","21","","24.1","","101.47","","","","-25","","NA"
"-92.11","62.81","RANKIN INLET A","2303405","2018-04-27 15:00","2018","04","27","15:00","-14.2","","-17.7","","75","","","","29","","19","","24.1","","101.43","","","","-23","","Mainly Clear"
"-92.11","62.81","RANKIN INLET A","2303405","2018-04-27 16:00","2018","04","27","16:00","-13.2","","-16.7","","76","","","","27","","18","","24.1","","101.38","","","","-21","","NA"
"-92.11","62.81","RANKIN INLET A","2303405","2018-04-27 17:00","2018","04","27","17:00","-12.6","","-15.7","","78","","","","27","","22","","24.1","","101.33","","","","-22","","NA"
"-92.11","62.81","RANKIN INLET A","2303405","2018-04-27 18:00","2018","04","27","18:00","-13.2","","-16.1","","79","","","","26","","21","","24.1","","101.29","","","","-22","","Mainly Clear"
"-92.11","62.81","RANKIN INLET A","2303405","2018-04-27 19:00","2018","04","27","19:00","-13.8","","-16.4","","81","","","","24","","11","","24.1","","101.25","","","","-20","","NA"
"-92.11","62.81","RANKIN INLET A","2303405","2018-04-27 20:00","2018","04","27","20:00","-15.2","","-17.4","","83","","","","24","","14","","24.1","","101.18","","","","-23","","NA"
"-92.11","62.81","RANKIN INLET A","2303405","2018-04-27 21:00","2018","04","27","21:00","-15.8","","-17.9","","84","","","","24","","15","","24.1","","101.13","","","","-24","","Clear"
"-92.11","62.81","RANKIN INLET A","2303405","2018-04-27 22:00","2018","04","27","22:00","-17.1","","-19.1","","85","","","","23","","17","","24.1","","101.09","","","","-26","","NA"
"-92.11","62.81","RANKIN INLET A","2303405","2018-04-27 23:00","2018","04","27","23:00","-17.7","","-19.7","","85","","","","22","","14","","24.1","","101.06","","","","-26","","NA"
"-92.11","62.81","RANKIN INLET A","2303405","2018-04-28 00:00","2018","04","28","00:00","-18.2","","-19.9","","86","","","","24","","15","","24.1","","101.02","","","","-27","","Clear"
"-92.11","62.81","RANKIN INLET A","2303405","2018-04-28 01:00","2018","04","28","01:00","-18.4","","-20.1","","87","","","","21","","14","","24.1","","100.95","","","","-27","","NA"
"-92.11","62.81","RANKIN INLET A","2303405","2018-04-28 02:00","2018","04","28","02:00","-18.5","","-20.2","","87","","","","20","","14","","24.1","","100.89","","","","-27","","NA"
"-92.11","62.81","RANKIN INLET A","2303405","2018-04-28 03:00","2018","04","28","03:00","-18.8","","-20.4","","87","","","","20","","12","","24.1","","100.81","","","","-27","","Mainly Clear"
"-92.11","62.81","RANKIN INLET A","2303405","2018-04-28 04:00","2018","04","28","04:00","-18.2","","-19.6","","89","","","","21","","10","","24.1","","100.75","","","","-25","","NA"
"-92.11","62.81","RANKIN INLET A","2303405","2018-04-28 05:00","2018","04","28","05:00","-17.5","","-19.1","","88","","","","14","","4","","24.1","","100.67","","","","-21","","NA"
"-92.11","62.81","RANKIN INLET A","2303405","2018-04-28 06:00","2018","04","28","06:00","-15.6","","-17.2","","88","","","","13","","11","","16.1","","100.60","","","","-22","","Cloudy"
"-92.11","62.81","RANKIN INLET A","2303405","2018-04-28 07:00","2018","04","28","07:00","-13.9","","-15.4","","89","","","","13","","4","","16.1","","100.53","","","","-17","","NA"
"-92.11","62.81","RANKIN INLET A","2303405","2018-04-28 08:00","2018","04","28","08:00","-13.0","","-14.5","","89","","","","15","","9","","16.1","","100.47","","","","-18","","NA"
"-92.11","62.81","RANKIN INLET A","2303405","2018-04-28 09:00","2018","04","28","09:00","-10.9","","-12.3","","89","","","","13","","13","","16.1","","100.35","","","","-17","","Cloudy"
"-92.11","62.81","RANKIN INLET A","2303405","2018-04-28 10:00","2018","04","28","10:00","-8.1","","-9.3","","91","","","","15","","19","","16.1","","100.27","","","","-15","","NA"
"-92.11","62.81","RANKIN INLET A","2303405","2018-04-28 11:00","2018","04","28","11:00","-6.6","","-8.1","","90","","","","16","","18","","19.3","","100.19","","","","-13","","NA"
"-92.11","62.81","RANKIN INLET A","2303405","2018-04-28 12:00","2018","04","28","12:00","-6.5","","-8.7","","85","","","","15","","23","","16.1","","100.14","","","","-14","","Cloudy"
"-92.11","62.81","RANKIN INLET A","2303405","2018-04-28 13:00","2018","04","28","13:00","-6.3","","-8.5","","84","","","","14","","17","","19.3","","100.09","","","","-13","","NA"
"-92.11","62.81","RANKIN INLET A","2303405","2018-04-28 14:00","2018","04","28","14:00","-5.9","","-8.1","","84","","","","13","","21","","24.1","","100.01","","","","-13","","NA"
"-92.11","62.81","RANKIN INLET A","2303405","2018-04-28 15:00","2018","04","28","15:00","-5.8","","-7.5","","88","","","","12","","19","","19.3","","99.97","","","","-12","","Cloudy"
"-92.11","62.81","RANKIN INLET A","2303405","2018-04-28 16:00","2018","04","28","16:00","-5.9","","-7.5","","89","","","","11","","18","","19.3","","99.93","","","","-12","","NA"
"-92.11","62.81","RANKIN INLET A","2303405","2018-04-28 17:00","2018","04","28","17:00","-5.8","","-7.0","","92","","","","10","","16","","19.3","","99.88","","","","-12","","NA"
"-92.11","62.81","RANKIN INLET A","2303405","2018-04-28 18:00","2018","04","28","18:00","-6.1","","-7.0","","94","","","","10","","8","","16.1","","99.89","","","","-10","","Cloudy"
"-92.11","62.81","RANKIN INLET A","2303405","2018-04-28 19:00","2018","04","28","19:00","-6.3","","-6.9","","96","","","","10","","7","","4.8","","99.87","","","","-10","","Fog"
"-92.11","62.81","RANKIN INLET A","2303405","2018-04-28 20:00","2018","04","28","20:00","-6.7","","-7.2","","96","","","","31","","4","","3.2","","99.88","","","","-9","","Fog"
"-92.11","62.81","RANKIN INLET A","2303405","2018-04-28 21:00","2018","04","28","21:00","-7.1","","-7.8","","95","","","","32","","9","","0.8","","99.93","","","","-11","","Freezing Fog"
"-92.11","62.81","RANKIN INLET A","2303405","2018-04-28 22:00","2018","04","28","22:00","-7.4","","-8.2","","94","","","","36","","8","","0.6","","99.90","","","","-11","","Freezing Fog"
"-92.11","62.81","RANKIN INLET A","2303405","2018-04-28 23:00","2018","04","28","23:00","-7.6","","-8.5","","94","","","","32","","18","","0.6","","99.91","","","","-14","","Freezing Fog"
"-92.11","62.81","RANKIN INLET A","2303405","2018-04-29 00:00","2018","04","29","00:00","-7.7","","-8.6","","93","","","","31","","7","","0.6","","99.92","","","","-11","","Freezing Fog"
"-92.11","62.81","RANKIN INLET A","2303405","2018-04-29 01:00","2018","04","29","01:00","-7.7","","-8.7","","93","","","","29","","11","","3.2","","99.90","","","","-13","","Snow,Fog"
"-92.11","62.81","RANKIN INLET A","2303405","2018-04-29 02:00","2018","04","29","02:00","-7.5","","-8.4","","93","","","","30","","18","","24.1","","99.91","","","","-14","","Snow"
"-92.11","62.81","RANKIN INLET A","2303405","2018-04-29 03:00","2018","04","29","03:00","-7.8","","-8.8","","92","","","","34","","36","","24.1","","99.90","","","","-17","","Snow,Blowing Snow"
"-92.11","62.81","RANKIN INLET A","2303405","2018-04-29 04:00","2018","04","29","04:00","-10.3","","-11.7","","90","","","","35","","45","","24.1","","99.96","","","","-22","","Blowing Snow"
"-92.11","62.81","RANKIN INLET A","2303405","2018-04-29 05:00","2018","04","29","05:00","-9.9","","-11.1","","91","","","","35","","44","","4.8","","100.01","","","","-21","","Blowing Snow"
"-92.11","62.81","RANKIN INLET A","2303405","2018-04-29 06:00","2018","04","29","06:00","-11.2","","-12.6","","89","","","","34","","35","","4.8","","100.09","","","","-22","","Blowing Snow"
"-92.11","62.81","RANKIN INLET A","2303405","2018-04-29 07:00","2018","04","29","07:00","-14.6","","-16.4","","86","","","","34","","39","","3.2","","100.16","","","","-27","","Blowing Snow"
"-92.11","62.81","RANKIN INLET A","2303405","2018-04-29 08:00","2018","04","29","08:00","-15.7","","-17.7","","85","","","","35","","46","","3.2","","100.22","","","","-29","","Blowing Snow"
"-92.11","62.81","RANKIN INLET A","2303405","2018-04-29 09:00","2018","04","29","09:00","-15.6","","-17.6","","85","","","","35","","48","","3.2","","100.22","","","","-29","","Blowing Snow"
"-92.11","62.81","RANKIN INLET A","2303405","2018-04-29 10:00","2018","04","29","10:00","-15.3","","-17.2","","85","","","","34","","45","","1.6","","100.27","","","","-28","","Blowing Snow"
"-92.11","62.81","RANKIN INLET A","2303405","2018-04-29 11:00","2018","04","29","11:00","-14.9","","-16.9","","85","","","","35","","45","","3.2","","100.34","","","","-28","","Blowing Snow"
"-92.11","62.81","RANKIN INLET A","2303405","2018-04-29 12:00","2018","04","29","12:00","-14.4","","-16.7","","83","","","","34","","49","","4.0","","100.43","","","","-28","","Blowing Snow"
"-92.11","62.81","RANKIN INLET A","2303405","2018-04-29 13:00","2018","04","29","13:00","-14.2","","-16.8","","81","","","","35","","43","","8.1","","100.45","","","","-27","","Blowing Snow"
"-92.11","62.81","RANKIN INLET A","2303405","2018-04-29 14:00","2018","04","29","14:00","-14.5","","-17.6","","78","","","","34","","42","","16.1","","100.51","","","","-27","","Blowing Snow"
"-92.11","62.81","RANKIN INLET A","2303405","2018-04-29 15:00","2018","04","29","15:00","-14.6","","-17.6","","78","","","","34","","40","","16.1","","100.52","","","","-27","","Blowing Snow"
"-92.11","62.81","RANKIN INLET A","2303405","2018-04-29 16:00","2018","04","29","16:00","-15.0","","-18.0","","78","","","","34","","36","","16.1","","100.60","","","","-27","","Blowing Snow"
"-92.11","62.81","RANKIN INLET A","2303405","2018-04-29 17:00","2018","04","29","17:00","-15.9","","-18.7","","79","","","","33","","36","","19.3","","100.63","","","","-28","","Blowing Snow"
"-92.11","62.81","RANKIN INLET A","2303405","2018-04-29 18:00","2018","04","29","18:00","-16.1","","-19.0","","79","","","","32","","34","","19.3","","100.71","","","","-28","","Blowing Snow"
"-92.11","62.81","RANKIN INLET A","2303405","2018-04-29 19:00","2018","04","29","19:00","-16.9","","-19.8","","79","","","","32","","24","","24.1","","100.75","","","","-27","","Blowing Snow"
"-92.11","62.81","RANKIN INLET A","2303405","2018-04-29 20:00","2018","04","29","20:00","-18.2","","-20.9","","80","","","","31","","21","","24.1","","100.78","","","","-28","","Blowing Snow"
"-92.11","62.81","RANKIN INLET A","2303405","2018-04-29 21:00","2018","04","29","21:00","-19.0","","-21.7","","80","","","","30","","18","","32.2","","100.80","","","","-29","","Mainly Clear"
"-92.11","62.81","RANKIN INLET A","2303405","2018-04-29 22:00","2018","04","29","22:00","-19.7","","-22.4","","80","","","","31","","24","","32.2","","100.78","","","","-31","","NA"
"-92.11","62.81","RANKIN INLET A","2303405","2018-04-29 23:00","2018","04","29","23:00","-19.8","","-22.5","","80","","","","30","","18","","32.2","","100.80","","","","-30","","NA"
"-92.11","62.81","RANKIN INLET A","2303405","2018-04-30 00:00","2018","04","30","00:00","-20.2","","-22.9","","80","","","","29","","16","","32.2","","100.82","","","","-30","","Mainly Clear"
"-92.11","62.81","RANKIN INLET A","2303405","2018-04-30 01:00","2018","04","30","01:00","-20.6","","-23.2","","80","","","","31","","26","","32.2","","100.81","","","","-33","","NA"
"-92.11","62.81","RANKIN INLET A","2303405","2018-04-30 02:00","2018","04","30","02:00","-21.4","","-24.0","","80","","","","29","","20","","32.2","","100.82","","","","-32","","NA"
"-92.11","62.81","RANKIN INLET A","2303405","2018-04-30 03:00","2018","04","30","03:00","-21.6","","-24.2","","80","","","","31","","23","","32.2","","100.84","","","","-33","","Clear"
"-92.11","62.81","RANKIN INLET A","2303405","2018-04-30 04:00","2018","04","30","04:00","-21.4","","-24.1","","79","","","","29","","21","","32.2","","100.86","","","","-32","","NA"
"-92.11","62.81","RANKIN INLET A","2303405","2018-04-30 05:00","2018","04","30","05:00","-21.6","","-24.5","","78","","","","29","","20","","32.2","","100.86","","","","-32","","NA"
"-92.11","62.81","RANKIN INLET A","2303405","2018-04-30 06:00","2018","04","30","06:00","-20.8","","-23.9","","76","","","","30","","23","","32.2","","100.89","","","","-32","","Clear"
"-92.11","62.81","RANKIN INLET A","2303405","2018-04-30 07:00","2018","04","30","07:00","-19.9","","-23.3","","75","","","","29","","22","","32.2","","100.92","","","","-31","","NA"
"-92.11","62.81","RANKIN INLET A","2303405","2018-04-30 08:00","2018","04","30","08:00","-18.9","","-22.6","","74","","","","29","","32","","24.1","","100.92","","","","-31","","Blowing Snow"
"-92.11","62.81","RANKIN INLET A","2303405","2018-04-30 09:00","2018","04","30","09:00","-18.3","","-22.0","","73","","","","30","","36","","24.1","","100.89","","","","-31","","Blowing Snow"
"-92.11","62.81","RANKIN INLET A","2303405","2018-04-30 10:00","2018","04","30","10:00","-17.3","","-21.1","","73","","","","29","","31","","24.1","","100.93","","","","-29","","Blowing Snow"
"-92.11","62.81","RANKIN INLET A","2303405","2018-04-30 11:00","2018","04","30","11:00","-16.6","","-20.7","","71","","","","29","","35","","24.1","","100.92","","","","-29","","Blowing Snow"
"-92.11","62.81","RANKIN INLET A","2303405","2018-04-30 12:00","2018","04","30","12:00","-15.8","","-19.8","","72","","","","30","","35","","24.1","","100.95","","","","-28","","Blowing Snow"
"-92.11","62.81","RANKIN INLET A","2303405","2018-04-30 13:00","2018","04","30","13:00","-15.4","","-19.5","","71","","","","30","","40","","16.1","","100.94","","","","-28","","Blowing Snow"
"-92.11","62.81","RANKIN INLET A","2303405","2018-04-30 14:00","2018","04","30","14:00","-15.3","","-18.9","","74","","","","30","","33","","6.4","","100.96","","","","-27","","Blowing Snow"
"-92.11","62.81","RANKIN INLET A","2303405","2018-04-30 15:00","2018","04","30","15:00","-15.2","","-19.2","","72","","","","29","","35","","12.9","","100.95","","","","-27","","Blowing Snow"
"-92.11","62.81","RANKIN INLET A","2303405","2018-04-30 16:00","2018","04","30","16:00","-15.1","","-18.9","","73","","","","30","","31","","16.1","","100.98","","","","-26","","Blowing Snow"
"-92.11","62.81","RANKIN INLET A","2303405","2018-04-30 17:00","2018","04","30","17:00","-15.8","","-19.5","","73","","","","31","","38","","16.1","","101.00","","","","-28","","Blowing Snow"
"-92.11","62.81","RANKIN INLET A","2303405","2018-04-30 18:00","2018","04","30","18:00","-15.2","","-18.5","","77","","","","31","","31","","16.1","","101.01","","","","-26","","Blowing Snow"
"-92.11","62.81","RANKIN INLET A","2303405","2018-04-30 19:00","2018","04","30","19:00","-15.5","","-18.8","","76","","","","31","","30","","24.1","","101.02","","","","-27","","Blowing Snow"
"-92.11","62.81","RANKIN INLET A","2303405","2018-04-30 20:00","2018","04","30","20:00","-16.7","","-19.5","","79","","","","31","","27","","24.1","","101.05","","","","-28","","NA"
"-92.11","62.81","RANKIN INLET A","2303405","2018-04-30 21:00","2018","04","30","21:00","-17.7","","-20.4","","80","","","","30","","22","","24.1","","101.09","","","","-28","","Mainly Clear"
"-92.11","62.81","RANKIN INLET A","2303405","2018-04-30 22:00","2018","04","30","22:00","-18.0","","-20.7","","80","","","","29","","19","","24.1","","101.15","","","","-28","","NA"
"-92.11","62.81","RANKIN INLET A","2303405","2018-04-30 23:00","2018","04","30","23:00","-18.6","","-21.3","","80","","","","29","","21","","24.1","","101.15","","","","-29","","NA"
