"Longitude (x)","Latitude (y)","Station Name","Climate ID","Date/Time (LST)","Year","Month","Day","Time (LST)","Temp (°C)","Temp Flag","Dew Point Temp (°C)","Dew Point Temp Flag","Rel Hum (%)","Rel Hum Flag","Precip. Amount (mm)","Precip. Amount Flag","Wind Dir (10s deg)","Wind Dir Flag","Wind Spd (km/h)","Wind Spd Flag","Visibility (km)","Visibility Flag","Stn Press (kPa)","Stn Press Flag","Hmdx","Hmdx Flag","Wind Chill","Wind Chill Flag","Weather"
"-121.24","61.76","FORT SIMPSON A","2202101","2012-02-01 00:00","2012","02","01","00:00","-22.7","","-25.2","","80","","","","15","","9","","25.0","","98.04","","","","-30","","Mainly Clear"
"-121.24","61.76","FORT SIMPSON A","2202101","2012-02-01 01:00","2012","02","01","01:00","-23.0","","-25.5","","80","","","","14","","7","","25.0","","98.08","","","","-29","","Mostly Cloudy"
"-121.24","61.76","FORT SIMPSON A","2202101","2012-02-01 02:00","2012","02","01","02:00","-24.2","","-25.8","","87","","","","","","0","","25.0","","98.12","","","","","","Mainly Clear"
"-121.24","61.76","FORT SIMPSON A","2202101","2012-02-01 03:00","2012","02","01","03:00","-25.5","","-27.1","","86","","","","","","0","","25.0","","98.15","","","","","","Mainly Clear"
"-121.24","61.76","FORT SIMPSON A","2202101","2012-02-01 04:00","2012","02","01","04:00","-26.3","","-27.9","","86","","","","","","0","","25.0","","98.23","","","","","","Mainly Clear"
"-121.24","61.76","FORT SIMPSON A","2202101","2012-02-01 05:00","2012","02","01","05:00","-26.6","","-29.4","","77","","","","","","0","","25.0","","98.30","","","","","","Mainly Clear"
"-121.24","61.76","FORT SIMPSON A","2202101","2012-02-01 06:00","2012","02","01","06:00","-27.3","","-30.2","","76","","","","","","0","","25.0","","98.38","","","","","","Mainly Clear"
"-121.24","61.76","FORT SIMPSON A","2202101","2012-02-01 07:00","2012","02","01","07:00","-27.4","","-29.0","","86","","","","","","0","","25.0","","98.49","","","","","","Mainly Clear"
"-121.24","61.76","FORT SIMPSON A","2202101","2012-02-01 08:00","2012","02","01","08:00","-27.5","","-29.1","","86","","","","","","0","","25.0","","98.54","","","","","","Mainly Clear"
"-121.24","61.76","FORT SIMPSON A","2202101","2012-02-01 09:00","2012","02","01","09:00","-27.6","","-29.2","","86","","","","","","0","","25.0","","98.63","","","","","","Mainly Clear"
"-121.24","61.76","FORT SIMPSON A","2202101","2012-02-01 10:00","2012","02","01","10:00","-26.6","","-29.4","","77","","","","30","","4","","25.0","","98.75","","","","-31","","Mainly Clear"
"-121.24","61.76","FORT SIMPSON A","2202101","2012-02-01 11:00","2012","02","01","11:00","-26.6","","-29.4","","77","","","","","","0","","25.0","","98.80","","","","","","Mainly Clear"
"-121.24","61.76","FORT SIMPSON A","2202101","2012-02-01 12:00","2012","02","01","12:00","-26.0","","-28.8","","77","","","","","","0","","25.0","","98.88","","","","","","Clear"
"-121.24","61.76","FORT SIMPSON A","2202101","2012-02-01 13:00","2012","02","01","13:00","-22.0","","-26.3","","68","","","","","","0","","25.0","","98.97","","","","","","Clear"
"-121.24","61.76","FORT SIMPSON A","2202101","2012-02-01 14:00","2012","02","01","14:00","-21.3","","-25.4","","69","","","","","","0","","25.0","","99.06","","","","","","Clear"
"-121.24","61.76","FORT SIMPSON A","2202101","2012-02-01 15:00","2012","02","01","15:00","-20.6","","-24.5","","71","","","","","","0","","25.0","","99.13","","","","","","Clear"
"-121.24","61.76","FORT SIMPSON A","2202101","2012-02-01 16:00","2012","02","01","16:00","-21.0","","-24.2","","75","","","","","","0","","25.0","","99.17","","","","","","Clear"
"-121.24","61.76","FORT SIMPSON A","2202101","2012-02-01 17:00","2012","02","01","17:00","-21.5","","-24.7","","75","","","","","","0","","25.0","","99.24","","","","","","Clear"
"-121.24","61.76","FORT SIMPSON A","2202101","2012-02-01 18:00","2012","02","01","18:00","-24.5","","-27.1","","79","","","","","","0","","25.0","","99.31","","","","","","Clear"
"-121.24","61.76","FORT SIMPSON A","2202101","2012-02-01 19:00","2012","02","01","19:00","-24.0","","-26.6","","79","","","","","","0","","25.0","","99.28","","","","","","Clear"
"-121.24","61.76","FORT SIMPSON A","2202101","2012-02-01 20:00","2012","02","01","20:00","-24.0","","-25.6","","87","","","","13","","4","","25.0","","99.29","","","","-28","","Clear"
"-121.24","61.76","FORT SIMPSON A","2202101","2012-02-01 21:00","2012","02","01","21:00","-20.1","","-22.3","","83","","","","14","","4","","25.0","","99.26","","","","-24","","Mainly Clear"
"-121.24","61.76","FORT SIMPSON A","2202101","2012-02-01 22:00","2012","02","01","22:00","-19.5","","-21.0","","88","","","","14","","13","","25.0","","99.24","","","","-28","","Mainly Clear"
"-121.24","61.76","FORT SIMPSON A","2202101","2012-02-01 23:00","2012","02","01","23:00","-19.2","","-21.4","","83","","","","11","","13","","25.0","","99.23","","","","-27","","Mainly Clear"
"-121.24","61.76","FORT SIMPSON A","2202101","2012-02-02 00:00","2012","02","02","00:00","-19.3","","-21.5","","83","","","","14","","13","","25.0","","99.22","","","","-28","","Mostly Cloudy"
"-121.24","61.76","FORT SIMPSON A","2202101","2012-02-02 01:00","2012","02","02","01:00","-18.8","","-20.9","","83","","","","13","","13","","25.0","","99.14","","","","-27","","Mainly Clear"
"-121.24","61.76","FORT SIMPSON A","2202101","2012-02-02 02:00","2012","02","02","02:00","-18.2","","-20.3","","84","","","","12","","15","","25.0","","99.03","","","","-27","","Cloudy"
"-121.24","61.76","FORT SIMPSON A","2202101","2012-02-02 03:00","2012","02","02","03:00","-18.0","","-20.1","","84","","","","13","","15","","25.0","","98.96","","","","-27","","Cloudy"
"-121.24","61.76","FORT SIMPSON A","2202101","2012-02-02 04:00","2012","02","02","04:00","-17.1","","-19.1","","84","","","","13","","15","","25.0","","98.82","","","","-26","","Cloudy"
"-121.24","61.76","FORT SIMPSON A","2202101","2012-02-02 05:00","2012","02","02","05:00","-16.5","","-19.0","","81","","","","13","","19","","25.0","","98.61","","","","-26","","Cloudy"
"-121.24","61.76","FORT SIMPSON A","2202101","2012-02-02 06:00","2012","02","02","06:00","-15.9","","-18.3","","82","","","","13","","17","","25.0","","98.56","","","","-25","","Cloudy"
"-121.24","61.76","FORT SIMPSON A","2202101","2012-02-02 07:00","2012","02","02","07:00","-14.7","","-17.0","","83","","","","14","","7","","24.1","","98.43","","","","-19","","Ice Pellets"
"-121.24","61.76","FORT SIMPSON A","2202101","2012-02-02 08:00","2012","02","02","08:00","-14.6","","-17.4","","79","","","","14","","17","","25.0","","98.39","","","","-23","","Cloudy"
"-121.24","61.76","FORT SIMPSON A","2202101","2012-02-02 09:00","2012","02","02","09:00","-15.0","","-17.3","","83","","","","18","","9","","25.0","","98.39","","","","-21","","Mostly Cloudy"
"-121.24","61.76","FORT SIMPSON A","2202101","2012-02-02 10:00","2012","02","02","10:00","-15.7","","-17.5","","86","","","","15","","15","","25.0","","98.33","","","","-24","","Mainly Clear"
"-121.24","61.76","FORT SIMPSON A","2202101","2012-02-02 11:00","2012","02","02","11:00","-14.5","","-16.7","","83","","","","20","","15","","25.0","","98.29","","","","-22","","Mainly Clear"
"-121.24","61.76","FORT SIMPSON A","2202101","2012-02-02 12:00","2012","02","02","12:00","-13.5","","-16.6","","77","","","","16","","7","","25.0","","98.25","","","","-18","","Mainly Clear"
"-121.24","61.76","FORT SIMPSON A","2202101","2012-02-02 13:00","2012","02","02","13:00","-9.7","","-12.1","","83","","","","","","0","","25.0","","98.26","","","","","","Mainly Clear"
"-121.24","61.76","FORT SIMPSON A","2202101","2012-02-02 14:00","2012","02","02","14:00","-5.8","","-8.5","","81","","","","","","0","","25.0","","98.33","","","","","","Mainly Clear"
"-121.24","61.76","FORT SIMPSON A","2202101","2012-02-02 15:00","2012","02","02","15:00","3.0","","-0.6","","77","","","","26","","11","","25.0","","98.33","","","","","","Mainly Clear"
"-121.24","61.76","FORT SIMPSON A","2202101","2012-02-02 16:00","2012","02","02","16:00","4.4","","-2.9","","59","","","","21","","9","","25.0","","98.43","","","","","","Mainly Clear"
"-121.24","61.76","FORT SIMPSON A","2202101","2012-02-02 17:00","2012","02","02","17:00","4.2","","-2.3","","63","","","","24","","11","","25.0","","98.54","","","","","","Mainly Clear"
"-121.24","61.76","FORT SIMPSON A","2202101","2012-02-02 18:00","2012","02","02","18:00","4.4","","-2.9","","59","","","","24","","19","","25.0","","98.63","","","","","","Mostly Cloudy"
"-121.24","61.76","FORT SIMPSON A","2202101","2012-02-02 19:00","2012","02","02","19:00","3.7","","-2.6","","63","","","","21","","13","","25.0","","98.76","","","","","","Mostly Cloudy"
"-121.24","61.76","FORT SIMPSON A","2202101","2012-02-02 20:00","2012","02","02","20:00","4.8","","-3.0","","57","","","","21","","6","","25.0","","98.82","","","","","","Mostly Cloudy"
"-121.24","61.76","FORT SIMPSON A","2202101","2012-02-02 21:00","2012","02","02","21:00","2.8","","-3.2","","65","","","","14","","4","","25.0","","98.93","","","","","","Cloudy"
"-121.24","61.76","FORT SIMPSON A","2202101","2012-02-02 22:00","2012","02","02","22:00","4.2","","-3.5","","57","","","","22","","13","","25.0","","98.95","","","","","","Mostly Cloudy"
"-121.24","61.76","FORT SIMPSON A","2202101","2012-02-02 23:00","2012","02","02","23:00","4.0","","-3.8","","57","","","","21","","13","","25.0","","99.00","","","","","","Cloudy"
"-121.24","61.76","FORT SIMPSON A","2202101","2012-02-03 00:00","2012","02","03","00:00","3.5","","-4.8","","55","","","","22","","9","","25.0","","99.00","","","","","","Mostly Cloudy"
"-121.24","61.76","FORT SIMPSON A","2202101","2012-02-03 01:00","2012","02","03","01:00","3.0","","-4.5","","58","","","","21","","9","","25.0","","99.04","","","","","","Mostly Cloudy"
"-121.24","61.76","FORT SIMPSON A","2202101","2012-02-03 02:00","2012","02","03","02:00","3.5","","-4.1","","57","","","","21","","15","","25.0","","99.07","","","","","","Mostly Cloudy"
"-121.24","61.76","FORT SIMPSON A","2202101","2012-02-03 03:00","2012","02","03","03:00","3.8","","-4.4","","55","","","","22","","17","","25.0","","99.03","","","","","","Mostly Cloudy"
"-121.24","61.76","FORT SIMPSON A","2202101","2012-02-03 04:00","2012","02","03","04:00","2.0","","-4.4","","63","","","","","","0","","25.0","","99.05","","","","","","Mostly Cloudy"
"-121.24","61.76","FORT SIMPSON A","2202101","2012-02-03 05:00","2012","02","03","05:00","2.8","","-4.4","","59","","","","20","","9","","25.0","","99.05","","","","","","Mostly Cloudy"
"-121.24","61.76","FORT SIMPSON A","2202101","2012-02-03 06:00","2012","02","03","06:00","2.9","","-4.6","","58","","","","20","","11","","25.0","","99.04","","","","","","Mostly Cloudy"
"-121.24","61.76","FORT SIMPSON A","2202101","2012-02-03 07:00","2012","02","03","07:00","3.1","","-4.4","","58","","","","19","","13","","25.0","","99.05","","","","","","Mostly Cloudy"
"-121.24","61.76","FORT SIMPSON A","2202101","2012-02-03 08:00","2012","02","03","08:00","1.8","","-3.7","","67","","","","15","","9","","25.0","","98.99","","","","","","Mostly Cloudy"
"-121.24","61.76","FORT SIMPSON A","2202101","2012-02-03 09:00","2012","02","03","09:00","2.2","","-3.7","","65","","","","13","","7","","25.0","","98.95","","","","","","Cloudy"
"-121.24","61.76","FORT SIMPSON A","2202101","2012-02-03 10:00","2012","02","03","10:00","1.4","","-3.7","","69","","","","15","","7","","25.0","","98.92","","","","","","Cloudy"
"-121.24","61.76","FORT SIMPSON A","2202101","2012-02-03 11:00","2012","02","03","11:00","1.9","","-3.1","","69","","","","13","","7","","25.0","","98.85","","","","","","Cloudy"
"-121.24","61.76","FORT SIMPSON A","2202101","2012-02-03 12:00","2012","02","03","12:00","1.1","","-1.7","","82","","","","15","","9","","25.0","","98.81","","","","","","Mostly Cloudy"
"-121.24","61.76","FORT SIMPSON A","2202101","2012-02-03 13:00","2012","02","03","13:00","0.6","","-2.4","","80","","","","12","","6","","25.0","","98.69","","","","","","Mostly Cloudy"
"-121.24","61.76","FORT SIMPSON A","2202101","2012-02-03 14:00","2012","02","03","14:00","0.9","","-1.7","","83","","","","11","","11","","25.0","","98.64","","","","","","Mostly Cloudy"
"-121.24","61.76","FORT SIMPSON A","2202101","2012-02-03 15:00","2012","02","03","15:00","1.2","","-3.3","","72","","","","12","","9","","25.0","","98.54","","","","","","Mostly Cloudy"
"-121.24","61.76","FORT SIMPSON A","2202101","2012-02-03 16:00","2012","02","03","16:00","1.2","","-2.7","","75","","","","12","","19","","25.0","","98.46","","","","","","Mostly Cloudy"
"-121.24","61.76","FORT SIMPSON A","2202101","2012-02-03 17:00","2012","02","03","17:00","1.0","","-3.0","","75","","","","15","","9","","25.0","","98.42","","","","","","Mostly Cloudy"
"-121.24","61.76","FORT SIMPSON A","2202101","2012-02-03 18:00","2012","02","03","18:00","-0.3","","-3.5","","79","","","","15","","9","","25.0","","98.43","","","","-3","","Mainly Clear"
"-121.24","61.76","FORT SIMPSON A","2202101","2012-02-03 19:00","2012","02","03","19:00","-2.2","","-4.4","","85","","","","26","","7","","25.0","","98.41","","","","-5","","Mainly Clear"
"-121.24","61.76","FORT SIMPSON A","2202101","2012-02-03 20:00","2012","02","03","20:00","2.8","","-2.9","","66","","","","22","","32","","25.0","","98.54","","","","","","Mainly Clear"
"-121.24","61.76","FORT SIMPSON A","2202101","2012-02-03 21:00","2012","02","03","21:00","7.4","","-6.8","","36","","","","22","","30","","25.0","","98.60","","","","","","Mainly Clear"
"-121.24","61.76","FORT SIMPSON A","2202101","2012-02-03 22:00","2012","02","03","22:00","6.2","","-6.9","","38","","","","23","","37","","25.0","","98.63","","","","","","Clear"
"-121.24","61.76","FORT SIMPSON A","2202101","2012-02-03 23:00","2012","02","03","23:00","6.0","","-9.0","","33","","","","23","","19","","25.0","","98.72","","","","","","Clear"
"-121.24","61.76","FORT SIMPSON A","2202101","2012-02-04 00:00","2012","02","04","00:00","5.5","","-7.3","","39","","","","23","","35","","25.0","","98.76","","","","","","Clear"
"-121.24","61.76","FORT SIMPSON A","2202101","2012-02-04 01:00","2012","02","04","01:00","5.7","","-7.8","","37","","","","24","","26","","25.0","","98.95","","","","","","Clear"
"-121.24","61.76","FORT SIMPSON A","2202101","2012-02-04 02:00","2012","02","04","02:00","5.5","","-8.6","","35","","","","24","","26","","25.0","","99.09","","","","","","Clear"
"-121.24","61.76","FORT SIMPSON A","2202101","2012-02-04 03:00","2012","02","04","03:00","5.0","","-9.1","","35","","","","25","","20","","25.0","","99.19","","","","","","Clear"
"-121.24","61.76","FORT SIMPSON A","2202101","2012-02-04 04:00","2012","02","04","04:00","4.0","","-9.1","","38","","","","22","","6","","25.0","","99.26","","","","","","Clear"
"-121.24","61.76","FORT SIMPSON A","2202101","2012-02-04 05:00","2012","02","04","05:00","0.5","","-9.2","","48","","","","18","","4","","25.0","","99.37","","","","","","Clear"
"-121.24","61.76","FORT SIMPSON A","2202101","2012-02-04 06:00","2012","02","04","06:00","0.1","","-4.8","","70","","","","15","","6","","25.0","","99.43","","","","","","Clear"
"-121.24","61.76","FORT SIMPSON A","2202101","2012-02-04 07:00","2012","02","04","07:00","-1.7","","-4.1","","84","","","","21","","11","","25.0","","99.45","","","","-6","","Clear"
"-121.24","61.76","FORT SIMPSON A","2202101","2012-02-04 08:00","2012","02","04","08:00","2.5","","0.1","","84","","","","22","","11","","25.0","","99.50","","","","","","Mainly Clear"
"-121.24","61.76","FORT SIMPSON A","2202101","2012-02-04 09:00","2012","02","04","09:00","-0.4","","-3.7","","78","","","","23","","9","","25.0","","99.56","","","","-4","","Mainly Clear"
"-121.24","61.76","FORT SIMPSON A","2202101","2012-02-04 10:00","2012","02","04","10:00","-3.9","","-7.9","","74","","","","","","0","","25.0","","99.59","","","","","","Mainly Clear"
"-121.24","61.76","FORT SIMPSON A","2202101","2012-02-04 11:00","2012","02","04","11:00","-3.6","","-6.5","","80","","","","16","","6","","25.0","","99.63","","","","-6","","Mainly Clear"
"-121.24","61.76","FORT SIMPSON A","2202101","2012-02-04 12:00","2012","02","04","12:00","0.1","","-5.1","","68","","","","22","","7","","25.0","","99.67","","","","","","Mainly Clear"
"-121.24","61.76","FORT SIMPSON A","2202101","2012-02-04 13:00","2012","02","04","13:00","0.0","","-3.7","","76","","","","","","0","","25.0","","99.70","","","","","","Mainly Clear"
"-121.24","61.76","FORT SIMPSON A","2202101","2012-02-04 14:00","2012","02","04","14:00","2.4","","-2.8","","68","","","","18","","7","","25.0","","99.73","","","","","","Mostly Cloudy"
"-121.24","61.76","FORT SIMPSON A","2202101","2012-02-04 15:00","2012","02","04","15:00","-0.8","","-3.9","","79","","","","","","0","","25.0","","99.80","","","","","","Cloudy"
"-121.24","61.76","FORT SIMPSON A","2202101","2012-02-04 16:00","2012","02","04","16:00","-2.0","","-4.5","","83","","","","","","0","","25.0","","99.90","","","","","","Cloudy"
"-121.24","61.76","FORT SIMPSON A","2202101","2012-02-04 17:00","2012","02","04","17:00","-2.1","","-4.6","","83","","","","","","0","","25.0","","99.89","","","","","","Mainly Clear"
"-121.24","61.76","FORT SIMPSON A","2202101","2012-02-04 18:00","2012","02","04","18:00","-7.0","","-10.4","","77","","","","","","0","","25.0","","99.98","","","","","","Mainly Clear"
"-121.24","61.76","FORT SIMPSON A","2202101","2012-02-04 19:00","2012","02","04","19:00","-8.8","","-11.0","","84","","","","","","0","","25.0","","100.04","","","","","","Mainly Clear"
"-121.24","61.76","FORT SIMPSON A","2202101","2012-02-04 20:00","2012","02","04","20:00","-6.3","","-9.5","","78","","","","34","","9","","25.0","","100.17","","","","-11","","Mostly Cloudy"
"-121.24","61.76","FORT SIMPSON A","2202101","2012-02-04 21:00","2012","02","04","21:00","-2.6","","-4.9","","84","","","","34","","17","","25.0","","100.32","","","","-8","","Mostly Cloudy"
"-121.24","61.76","FORT SIMPSON A","2202101","2012-02-04 22:00","2012","02","04","22:00","-2.5","","-4.5","","86","","","","34","","17","","25.0","","100.44","","","","-8","","Mostly Cloudy"
"-121.24","61.76","FORT SIMPSON A","2202101","2012-02-04 23:00","2012","02","04","23:00","-3.0","","-5.1","","85","","","","34","","17","","25.0","","100.62","","","","-9","","Mostly Cloudy"
"-121.24","61.76","FORT SIMPSON A","2202101","2012-02-05 00:00","2012","02","05","00:00","-3.4","","-5.6","","85","","","","33","","19","","25.0","","100.82","","","","-9","","Mostly Cloudy"
"-121.24","61.76","FORT SIMPSON A","2202101","2012-02-05 01:00","2012","02","05","01:00","-3.8","","-5.5","","88","","","","34","","19","","25.0","","101.02","","","","-10","","Mostly Cloudy"
"-121.24","61.76","FORT SIMPSON A","2202101","2012-02-05 02:00","2012","02","05","02:00","-5.5","","-8.9","","77","","","","33","","17","","25.0","","101.19","","","","-12","","Mainly Clear"
"-121.24","61.76","FORT SIMPSON A","2202101","2012-02-05 03:00","2012","02","05","03:00","-7.7","","-10.9","","78","","","","34","","19","","25.0","","101.33","","","","-15","","Clear"
"-121.24","61.76","FORT SIMPSON A","2202101","2012-02-05 04:00","2012","02","05","04:00","-8.9","","-11.5","","81","","","","32","","15","","25.0","","101.39","","","","-15","","Clear"
"-121.24","61.76","FORT SIMPSON A","2202101","2012-02-05 05:00","2012","02","05","05:00","-10.6","","-13.1","","82","","","","33","","7","","25.0","","101.46","","","","-15","","Clear"
"-121.24","61.76","FORT SIMPSON A","2202101","2012-02-05 06:00","2012","02","05","06:00","-12.0","","-14.3","","83","","","","33","","6","","25.0","","101.49","","","","-16","","Clear"
"-121.24","61.76","FORT SIMPSON A","2202101","2012-02-05 07:00","2012","02","05","07:00","-13.8","","-15.9","","84","","","","28","","4","","25.0","","101.50","","","","-17","","Clear"
"-121.24","61.76","FORT SIMPSON A","2202101","2012-02-05 08:00","2012","02","05","08:00","-14.4","","-16.1","","87","","","","","","0","","25.0","","101.57","","","","","","Clear"
"-121.24","61.76","FORT SIMPSON A","2202101","2012-02-05 09:00","2012","02","05","09:00","-16.9","","-18.8","","85","","","","","","0","","25.0","","101.58","","","","","","Clear"
"-121.24","61.76","FORT SIMPSON A","2202101","2012-02-05 10:00","2012","02","05","10:00","-16.8","","-18.7","","85","","","","","","0","","25.0","","101.61","","","","","","Clear"
"-121.24","61.76","FORT SIMPSON A","2202101","2012-02-05 11:00","2012","02","05","11:00","-16.0","","-17.9","","85","","","","","","0","","25.0","","101.62","","","","","","Clear"
"-121.24","61.76","FORT SIMPSON A","2202101","2012-02-05 12:00","2012","02","05","12:00","-12.4","","-14.8","","82","","","","30","","4","","25.0","","101.69","","","","-15","","Clear"
"-121.24","61.76","FORT SIMPSON A","2202101","2012-02-05 13:00","2012","02","05","13:00","-12.8","","-17.4","","68","","","","","","0","","25.0","","101.63","","","","","","Clear"
"-121.24","61.76","FORT SIMPSON A","2202101","2012-02-05 14:00","2012","02","05","14:00","-9.5","","-15.0","","64","","","","","","0","","25.0","","101.62","","","","","","Clear"
"-121.24","61.76","FORT SIMPSON A","2202101","2012-02-05 15:00","2012","02","05","15:00","-9.0","","-14.3","","65","","","","","","0","","25.0","","101.62","","","","","","Clear"
"-121.24","61.76","FORT SIMPSON A","2202101","2012-02-05 16:00","2012","02","05","16:00","-10.5","","-16.4","","62","","","","","","0","","25.0","","101.59","","","","","","Clear"
"-121.24","61.76","FORT SIMPSON A","2202101","2012-02-05 17:00","2012","02","05","17:00","-12.7","","-17.2","","69","","","","33","","7","","25.0","","101.62","","","","-17","","Clear"
"-121.24","61.76","FORT SIMPSON A","2202101","2012-02-05 18:00","2012","02","05","18:00","-12.5","","-16.4","","73","","","","","","0","","25.0","","101.62","","","","","","Clear"
"-121.24","61.76","FORT SIMPSON A","2202101","2012-02-05 19:00","2012","02","05","19:00","-17.0","","-20.9","","72","","","","","","0","","25.0","","101.63","","","","","","Clear"
"-121.24","61.76","FORT SIMPSON A","2202101","2012-02-05 20:00","2012","02","05","20:00","-13.0","","-16.0","","78","","","","","","0","","25.0","","101.64","","","","","","Clear"
"-121.24","61.76","FORT SIMPSON A","2202101","2012-02-05 21:00","2012","02","05","21:00","-11.7","","-15.4","","74","","","","12","","9","","25.0","","101.62","","","","-17","","Clear"
"-121.24","61.76","FORT SIMPSON A","2202101","2012-02-05 22:00","2012","02","05","22:00","-13.2","","-16.8","","74","","","","13","","9","","25.0","","101.63","","","","-19","","Clear"
"-121.24","61.76","FORT SIMPSON A","2202101","2012-02-05 23:00","2012","02","05","23:00","-15.1","","-18.0","","78","","","","12","","7","","25.0","","101.63","","","","-20","","Clear"
"-121.24","61.76","FORT SIMPSON A","2202101","2012-02-06 00:00","2012","02","06","00:00","-16.1","","-18.5","","82","","","","13","","11","","25.0","","101.60","","","","-23","","Clear"
"-121.24","61.76","FORT SIMPSON A","2202101","2012-02-06 01:00","2012","02","06","01:00","-16.6","","-19.1","","81","","","","14","","11","","25.0","","101.58","","","","-24","","Clear"
"-121.24","61.76","FORT SIMPSON A","2202101","2012-02-06 02:00","2012","02","06","02:00","-17.0","","-19.0","","84","","","","13","","9","","25.0","","101.53","","","","-23","","Clear"
"-121.24","61.76","FORT SIMPSON A","2202101","2012-02-06 03:00","2012","02","06","03:00","-17.0","","-19.6","","80","","","","13","","11","","25.0","","101.49","","","","-24","","Clear"
"-121.24","61.76","FORT SIMPSON A","2202101","2012-02-06 04:00","2012","02","06","04:00","-17.3","","-19.3","","84","","","","13","","11","","25.0","","101.44","","","","-24","","Clear"
"-121.24","61.76","FORT SIMPSON A","2202101","2012-02-06 05:00","2012","02","06","05:00","-17.7","","-19.7","","84","","","","14","","13","","25.0","","101.39","","","","-26","","Clear"
"-121.24","61.76","FORT SIMPSON A","2202101","2012-02-06 06:00","2012","02","06","06:00","-18.2","","-20.3","","84","","","","13","","13","","25.0","","101.33","","","","-26","","Clear"
"-121.24","61.76","FORT SIMPSON A","2202101","2012-02-06 07:00","2012","02","06","07:00","-18.5","","-20.6","","83","","","","13","","13","","25.0","","101.27","","","","-27","","Clear"
"-121.24","61.76","FORT SIMPSON A","2202101","2012-02-06 08:00","2012","02","06","08:00","-18.6","","-20.7","","83","","","","13","","9","","25.0","","101.21","","","","-25","","Clear"
"-121.24","61.76","FORT SIMPSON A","2202101","2012-02-06 09:00","2012","02","06","09:00","-19.2","","-21.4","","83","","","","12","","7","","25.0","","101.18","","","","-25","","Clear"
"-121.24","61.76","FORT SIMPSON A","2202101","2012-02-06 10:00","2012","02","06","10:00","-19.0","","-22.6","","73","","","","14","","13","","25.0","","101.14","","","","-27","","Clear"
"-121.24","61.76","FORT SIMPSON A","2202101","2012-02-06 11:00","2012","02","06","11:00","-18.1","","-22.3","","70","","","","14","","11","","25.0","","101.10","","","","-25","","Clear"
"-121.24","61.76","FORT SIMPSON A","2202101","2012-02-06 12:00","2012","02","06","12:00","-14.2","","-18.0","","73","","","","14","","9","","25.0","","101.04","","","","-20","","Clear"
"-121.24","61.76","FORT SIMPSON A","2202101","2012-02-06 13:00","2012","02","06","13:00","-12.0","","-18.6","","58","","","","13","","7","","25.0","","101.01","","","","-16","","Clear"
"-121.24","61.76","FORT SIMPSON A","2202101","2012-02-06 14:00","2012","02","06","14:00","-9.6","","-16.2","","59","","","","15","","7","","25.0","","100.95","","","","-14","","Clear"
"-121.24","61.76","FORT SIMPSON A","2202101","2012-02-06 15:00","2012","02","06","15:00","-9.0","","-17.0","","52","","","","15","","9","","25.0","","100.89","","","","-14","","Clear"
"-121.24","61.76","FORT SIMPSON A","2202101","2012-02-06 16:00","2012","02","06","16:00","-6.8","","-14.0","","56","","","","12","","9","","25.0","","100.79","","","","-11","","Clear"
"-121.24","61.76","FORT SIMPSON A","2202101","2012-02-06 17:00","2012","02","06","17:00","-7.2","","-11.9","","69","","","","12","","7","","25.0","","100.70","","","","-11","","Clear"
"-121.24","61.76","FORT SIMPSON A","2202101","2012-02-06 18:00","2012","02","06","18:00","-7.5","","-12.3","","68","","","","12","","11","","25.0","","100.60","","","","-13","","Mainly Clear"
"-121.24","61.76","FORT SIMPSON A","2202101","2012-02-06 19:00","2012","02","06","19:00","-9.0","","-14.3","","65","","","","13","","9","","25.0","","100.50","","","","-14","","Clear"
"-121.24","61.76","FORT SIMPSON A","2202101","2012-02-06 20:00","2012","02","06","20:00","-10.0","","-14.2","","71","","","","15","","9","","25.0","","100.48","","","","-15","","Clear"
"-121.24","61.76","FORT SIMPSON A","2202101","2012-02-06 21:00","2012","02","06","21:00","-11.8","","-15.5","","74","","","","15","","9","","25.0","","100.46","","","","-17","","Clear"
"-121.24","61.76","FORT SIMPSON A","2202101","2012-02-06 22:00","2012","02","06","22:00","-12.2","","-14.6","","82","","","","11","","6","","25.0","","100.39","","","","-16","","Clear"
"-121.24","61.76","FORT SIMPSON A","2202101","2012-02-06 23:00","2012","02","06","23:00","-11.7","","-15.9","","71","","","","15","","6","","25.0","","100.34","","","","-15","","Clear"
"-121.24","61.76","FORT SIMPSON A","2202101","2012-02-07 00:00","2012","02","07","00:00","-12.7","","-15.2","","82","","","","16","","6","","25.0","","100.27","","","","-17","","Clear"
"-121.24","61.76","FORT SIMPSON A","2202101","2012-02-07 01:00","2012","02","07","01:00","-18.3","","-20.4","","84","","","","","","0","","25.0","","100.23","","","","","","Clear"
"-121.24","61.76","FORT SIMPSON A","2202101","2012-02-07 02:00","2012","02","07","02:00","-18.8","","-20.9","","83","","","","","","0","","25.0","","100.19","","","","","","Clear"
"-121.24","61.76","FORT SIMPSON A","2202101","2012-02-07 03:00","2012","02","07","03:00","-20.2","","-22.5","","82","","","","","","0","","25.0","","100.17","","","","","","Clear"
"-121.24","61.76","FORT SIMPSON A","2202101","2012-02-07 04:00","2012","02","07","04:00","-20.3","","-22.6","","82","","","","","","0","","25.0","","100.13","","","","","","Clear"
"-121.24","61.76","FORT SIMPSON A","2202101","2012-02-07 05:00","2012","02","07","05:00","-20.8","","-23.1","","82","","","","","","0","","25.0","","100.10","","","","","","Mainly Clear"
"-121.24","61.76","FORT SIMPSON A","2202101","2012-02-07 06:00","2012","02","07","06:00","-20.3","","-22.6","","82","","","","","","0","","25.0","","100.03","","","","","","Mainly Clear"
"-121.24","61.76","FORT SIMPSON A","2202101","2012-02-07 07:00","2012","02","07","07:00","-20.1","","-22.3","","83","","","","","","0","","25.0","","100.01","","","","","","Mainly Clear"
"-121.24","61.76","FORT SIMPSON A","2202101","2012-02-07 08:00","2012","02","07","08:00","-20.4","","-22.7","","82","","","","","","0","","25.0","","99.96","","","","","","Mostly Cloudy"
"-121.24","61.76","FORT SIMPSON A","2202101","2012-02-07 09:00","2012","02","07","09:00","-20.5","","-22.8","","82","","","","","","0","","25.0","","99.95","","","","","","Mainly Clear"
"-121.24","61.76","FORT SIMPSON A","2202101","2012-02-07 10:00","2012","02","07","10:00","-20.1","","-22.3","","83","","","","","","0","","25.0","","99.95","","","","","","Mostly Cloudy"
"-121.24","61.76","FORT SIMPSON A","2202101","2012-02-07 11:00","2012","02","07","11:00","-20.2","","-23.2","","77","","","","","","0","","25.0","","99.95","","","","","","Mostly Cloudy"
"-121.24","61.76","FORT SIMPSON A","2202101","2012-02-07 12:00","2012","02","07","12:00","-16.8","","-20.0","","76","","","","","","0","","25.0","","99.97","","","","","","Mostly Cloudy"
"-121.24","61.76","FORT SIMPSON A","2202101","2012-02-07 13:00","2012","02","07","13:00","-15.6","","-19.8","","70","","","","32","","4","","25.0","","99.95","","","","-19","","Mostly Cloudy"
"-121.24","61.76","FORT SIMPSON A","2202101","2012-02-07 14:00","2012","02","07","14:00","-14.1","","-21.9","","52","","","","","","0","","25.0","","99.93","","","","","","Mostly Cloudy"
"-121.24","61.76","FORT SIMPSON A","2202101","2012-02-07 15:00","2012","02","07","15:00","-11.2","","-20.0","","48","","","","33","","9","","25.0","","99.89","","","","-16","","Mostly Cloudy"
"-121.24","61.76","FORT SIMPSON A","2202101","2012-02-07 16:00","2012","02","07","16:00","-11.0","","-20.4","","46","","","","","","0","","25.0","","99.91","","","","","","Mostly Cloudy"
"-121.24","61.76","FORT SIMPSON A","2202101","2012-02-07 17:00","2012","02","07","17:00","-13.5","","-17.7","","71","","","","33","","9","","25.0","","99.92","","","","-19","","Mostly Cloudy"
"-121.24","61.76","FORT SIMPSON A","2202101","2012-02-07 18:00","2012","02","07","18:00","-12.4","","-16.8","","70","","","","33","","15","","25.0","","99.92","","","","-20","","Mostly Cloudy"
"-121.24","61.76","FORT SIMPSON A","2202101","2012-02-07 19:00","2012","02","07","19:00","-13.0","","-16.5","","75","","","","33","","15","","25.0","","99.95","","","","-20","","Mostly Cloudy"
"-121.24","61.76","FORT SIMPSON A","2202101","2012-02-07 20:00","2012","02","07","20:00","-13.9","","-16.0","","84","","","","32","","9","","25.0","","99.95","","","","-20","","Mostly Cloudy"
"-121.24","61.76","FORT SIMPSON A","2202101","2012-02-07 21:00","2012","02","07","21:00","-14.5","","-17.3","","79","","","","27","","6","","25.0","","99.99","","","","-19","","Cloudy"
"-121.24","61.76","FORT SIMPSON A","2202101","2012-02-07 22:00","2012","02","07","22:00","-13.9","","-16.6","","80","","","","31","","7","","25.0","","100.04","","","","-19","","Cloudy"
"-121.24","61.76","FORT SIMPSON A","2202101","2012-02-07 23:00","2012","02","07","23:00","-14.2","","-16.9","","80","","","","32","","6","","25.0","","100.10","","","","-18","","Cloudy"
"-121.24","61.76","FORT SIMPSON A","2202101","2012-02-08 00:00","2012","02","08","00:00","-13.6","","-16.2","","81","","","","33","","13","","25.0","","100.15","","","","-21","","Cloudy"
"-121.24","61.76","FORT SIMPSON A","2202101","2012-02-08 01:00","2012","02","08","01:00","-14.7","","-17.5","","79","","","","33","","11","","25.0","","100.23","","","","-21","","Mostly Cloudy"
"-121.24","61.76","FORT SIMPSON A","2202101","2012-02-08 02:00","2012","02","08","02:00","-15.5","","-17.9","","82","","","","33","","13","","25.0","","100.30","","","","-23","","Mostly Cloudy"
"-121.24","61.76","FORT SIMPSON A","2202101","2012-02-08 03:00","2012","02","08","03:00","-16.0","","-17.9","","85","","","","34","","15","","25.0","","100.41","","","","-24","","Mostly Cloudy"
"-121.24","61.76","FORT SIMPSON A","2202101","2012-02-08 04:00","2012","02","08","04:00","-16.7","","-19.2","","81","","","","34","","11","","25.0","","100.48","","","","-24","","Mostly Cloudy"
"-121.24","61.76","FORT SIMPSON A","2202101","2012-02-08 05:00","2012","02","08","05:00","-16.3","","-18.8","","81","","","","36","","11","","25.0","","100.51","","","","-23","","Mostly Cloudy"
"-121.24","61.76","FORT SIMPSON A","2202101","2012-02-08 06:00","2012","02","08","06:00","-16.3","","-18.8","","81","","","","34","","6","","25.0","","100.58","","","","-21","","Mostly Cloudy"
"-121.24","61.76","FORT SIMPSON A","2202101","2012-02-08 07:00","2012","02","08","07:00","-16.6","","-18.5","","85","","","","32","","7","","25.0","","100.64","","","","-22","","Mostly Cloudy"
"-121.24","61.76","FORT SIMPSON A","2202101","2012-02-08 08:00","2012","02","08","08:00","-16.5","","-19.0","","81","","","","33","","7","","25.0","","100.73","","","","-22","","Mostly Cloudy"
"-121.24","61.76","FORT SIMPSON A","2202101","2012-02-08 09:00","2012","02","08","09:00","-16.7","","-19.2","","81","","","","","","0","","25.0","","100.77","","","","","","Mostly Cloudy"
"-121.24","61.76","FORT SIMPSON A","2202101","2012-02-08 10:00","2012","02","08","10:00","-17.4","","-20.7","","75","","","","34","","7","","25.0","","100.85","","","","-23","","Mostly Cloudy"
"-121.24","61.76","FORT SIMPSON A","2202101","2012-02-08 11:00","2012","02","08","11:00","-17.5","","-20.8","","75","","","","","","0","","25.0","","100.90","","","","","","Mainly Clear"
"-121.24","61.76","FORT SIMPSON A","2202101","2012-02-08 12:00","2012","02","08","12:00","-17.2","","-21.1","","72","","","","33","","7","","25.0","","100.96","","","","-22","","Mainly Clear"
"-121.24","61.76","FORT SIMPSON A","2202101","2012-02-08 13:00","2012","02","08","13:00","-15.6","","-19.8","","70","","","","34","","7","","25.0","","100.99","","","","-21","","Mainly Clear"
"-121.24","61.76","FORT SIMPSON A","2202101","2012-02-08 14:00","2012","02","08","14:00","-14.9","","-20.2","","64","","","","31","","7","","25.0","","101.03","","","","-20","","Mainly Clear"
"-121.24","61.76","FORT SIMPSON A","2202101","2012-02-08 15:00","2012","02","08","15:00","-13.9","","-18.8","","66","","","","6","","4","","25.0","","101.05","","","","-17","","Mainly Clear"
"-121.24","61.76","FORT SIMPSON A","2202101","2012-02-08 16:00","2012","02","08","16:00","-13.2","","-17.9","","68","","","","6","","4","","25.0","","101.05","","","","-16","","Mainly Clear"
"-121.24","61.76","FORT SIMPSON A","2202101","2012-02-08 17:00","2012","02","08","17:00","-15.0","","-19.0","","71","","","","","","0","","25.0","","101.08","","","","","","Mainly Clear"
"-121.24","61.76","FORT SIMPSON A","2202101","2012-02-08 18:00","2012","02","08","18:00","-19.2","","-22.1","","78","","","","","","0","","25.0","","101.13","","","","","","Mainly Clear"
"-121.24","61.76","FORT SIMPSON A","2202101","2012-02-08 19:00","2012","02","08","19:00","-20.6","","-23.7","","76","","","","","","0","","25.0","","101.17","","","","","","Mainly Clear"
"-121.24","61.76","FORT SIMPSON A","2202101","2012-02-08 20:00","2012","02","08","20:00","-21.0","","-23.3","","82","","","","","","0","","25.0","","101.21","","","","","","Mainly Clear"
"-121.24","61.76","FORT SIMPSON A","2202101","2012-02-08 21:00","2012","02","08","21:00","-18.0","","-21.4","","75","","","","","","0","","25.0","","101.28","","","","","","Clear"
"-121.24","61.76","FORT SIMPSON A","2202101","2012-02-08 22:00","2012","02","08","22:00","-19.0","","-21.9","","78","","","","","","0","","25.0","","101.34","","","","","","Clear"
"-121.24","61.76","FORT SIMPSON A","2202101","2012-02-08 23:00","2012","02","08","23:00","-19.8","","-22.8","","77","","","","9","","7","","25.0","","101.35","","","","-25","","Clear"
"-121.24","61.76","FORT SIMPSON A","2202101","2012-02-09 00:00","2012","02","09","00:00"
"-121.24","61.76","FORT SIMPSON A","2202101","2012-02-09 01:00","2012","02","09","01:00"
"-121.24","61.76","FORT SIMPSON A","2202101","2012-02-09 02:00","2012","02","09","02:00"
"-121.24","61.76","FORT SIMPSON A","2202101","2012-02-09 03:00","2012","02","09","03:00"
"-121.24","61.76","FORT SIMPSON A","2202101","2012-02-09 04:00","2012","02","09","04:00"
"-121.24","61.76","FORT SIMPSON A","2202101","2012-02-09 05:00","2012","02","09","05:00","-22.2","","-24.6","","81","","","","13","","6","","25.0","","101.40","","","","-28","","Clear"
"-121.24","61.76","FORT SIMPSON A","2202101","2012-02-09 06:00","2012","02","09","06:00","-22.3","","-24.7","","81","","","","12","","6","","25.0","","101.42","","","","-28","","Clear"
"-121.24","61.76","FORT SIMPSON A","2202101","2012-02-09 07:00","2012","02","09","07:00","-22.0","","-26.3","","68","","","","15","","13","","25.0","","101.45","","","","-31","","Clear"
"-121.24","61.76","FORT SIMPSON A","2202101","2012-02-09 08:00","2012","02","09","08:00","-22.0","","-26.3","","68","","","","11","","9","","25.0","","101.46","","","","-29","","Clear"
"-121.24","61.76","FORT SIMPSON A","2202101","2012-02-09 09:00","2012","02","09","09:00","-22.3","","-25.7","","74","","","","11","","9","","25.0","","101.49","","","","-29","","Clear"
"-121.24","61.76","FORT SIMPSON A","2202101","2012-02-09 10:00","2012","02","09","10:00","-21.8","","-26.0","","69","","","","13","","19","","25.0","","101.50","","","","-32","","Mainly Clear"
"-121.24","61.76","FORT SIMPSON A","2202101","2012-02-09 11:00","2012","02","09","11:00","-21.2","","-25.3","","69","","","","13","","9","","25.0","","101.52","","","","-28","","Clear"
"-121.24","61.76","FORT SIMPSON A","2202101","2012-02-09 12:00","2012","02","09","12:00","-20.6","","-24.5","","71","","","","12","","15","","25.0","","101.55","","","","-30","","Clear"
"-121.24","61.76","FORT SIMPSON A","2202101","2012-02-09 13:00","2012","02","09","13:00","-18.0","","-22.9","","65","","","","12","","11","","25.0","","101.54","","","","-25","","Clear"
"-121.24","61.76","FORT SIMPSON A","2202101","2012-02-09 14:00","2012","02","09","14:00","-17.6","","-21.6","","71","","","","12","","11","","25.0","","101.50","","","","-25","","Clear"
"-121.24","61.76","FORT SIMPSON A","2202101","2012-02-09 15:00","2012","02","09","15:00","-16.0","","-20.3","","69","","","","12","","11","","25.0","","101.47","","","","-23","","Clear"
"-121.24","61.76","FORT SIMPSON A","2202101","2012-02-09 16:00","2012","02","09","16:00","-15.3","","-20.1","","67","","","","15","","11","","25.0","","101.44","","","","-22","","Clear"
"-121.24","61.76","FORT SIMPSON A","2202101","2012-02-09 17:00","2012","02","09","17:00","-15.1","","-19.2","","71","","","","12","","7","","25.0","","101.44","","","","-20","","Clear"
"-121.24","61.76","FORT SIMPSON A","2202101","2012-02-09 18:00","2012","02","09","18:00","-16.9","","-20.1","","76","","","","11","","9","","25.0","","101.42","","","","-23","","Clear"
"-121.24","61.76","FORT SIMPSON A","2202101","2012-02-09 19:00","2012","02","09","19:00","-17.3","","-20.6","","75","","","","12","","9","","25.0","","101.40","","","","-24","","Clear"
"-121.24","61.76","FORT SIMPSON A","2202101","2012-02-09 20:00","2012","02","09","20:00","-18.1","","-22.3","","70","","","","14","","15","","25.0","","101.36","","","","-27","","Clear"
"-121.24","61.76","FORT SIMPSON A","2202101","2012-02-09 21:00","2012","02","09","21:00","-18.1","","-22.3","","70","","","","15","","13","","25.0","","101.39","","","","-26","","Clear"
"-121.24","61.76","FORT SIMPSON A","2202101","2012-02-09 22:00","2012","02","09","22:00","-18.6","","-22.1","","74","","","","13","","11","","25.0","","101.39","","","","-26","","Clear"
"-121.24","61.76","FORT SIMPSON A","2202101","2012-02-09 23:00","2012","02","09","23:00","-19.0","","-22.6","","73","","","","12","","15","","25.0","","101.39","","","","-28","","Clear"
"-121.24","61.76","FORT SIMPSON A","2202101","2012-02-10 00:00","2012","02","10","00:00","-19.2","","-22.8","","73","","","","14","","13","","25.0","","101.37","","","","-27","","Clear"
"-121.24","61.76","FORT SIMPSON A","2202101","2012-02-10 01:00","2012","02","10","01:00","-19.7","","-23.5","","72","","","","15","","17","","25.0","","101.32","","","","-29","","Clear"
"-121.24","61.76","FORT SIMPSON A","2202101","2012-02-10 02:00","2012","02","10","02:00","-20.1","","-23.9","","72","","","","14","","13","","25.0","","101.27","","","","-29","","Clear"
"-121.24","61.76","FORT SIMPSON A","2202101","2012-02-10 03:00","2012","02","10","03:00","-20.3","","-23.3","","77","","","","14","","17","","25.0","","101.21","","","","-30","","Clear"
"-121.24","61.76","FORT SIMPSON A","2202101","2012-02-10 04:00","2012","02","10","04:00","-21.0","","-25.0","","70","","","","16","","15","","25.0","","101.18","","","","-30","","Clear"
"-121.24","61.76","FORT SIMPSON A","2202101","2012-02-10 05:00","2012","02","10","05:00","-21.5","","-24.7","","75","","","","13","","17","","25.0","","101.09","","","","-32","","Clear"
"-121.24","61.76","FORT SIMPSON A","2202101","2012-02-10 06:00","2012","02","10","06:00","-21.9","","-25.2","","75","","","","15","","13","","25.0","","101.11","","","","-31","","Clear"
"-121.24","61.76","FORT SIMPSON A","2202101","2012-02-10 07:00","2012","02","10","07:00","-22.0","","-25.3","","75","","","","14","","7","","25.0","","101.09","","","","-28","","Mainly Clear"
"-121.24","61.76","FORT SIMPSON A","2202101","2012-02-10 08:00","2012","02","10","08:00","-22.2","","-24.6","","81","","","","11","","19","","25.0","","100.96","","","","-33","","Mainly Clear"
"-121.24","61.76","FORT SIMPSON A","2202101","2012-02-10 09:00","2012","02","10","09:00","-22.4","","-24.9","","80","","","","11","","19","","25.0","","100.93","","","","-33","","Mainly Clear"
"-121.24","61.76","FORT SIMPSON A","2202101","2012-02-10 10:00","2012","02","10","10:00","-22.2","","-24.6","","81","","","","9","","9","","25.0","","100.90","","","","-29","","Mainly Clear"
"-121.24","61.76","FORT SIMPSON A","2202101","2012-02-10 11:00","2012","02","10","11:00","-20.8","","-23.9","","76","","","","14","","17","","25.0","","100.86","","","","-31","","Mainly Clear"
"-121.24","61.76","FORT SIMPSON A","2202101","2012-02-10 12:00","2012","02","10","12:00","-20.0","","-23.8","","72","","","","13","","11","","25.0","","100.74","","","","-28","","Mostly Cloudy"
"-121.24","61.76","FORT SIMPSON A","2202101","2012-02-10 13:00","2012","02","10","13:00","-16.7","","-20.5","","72","","","","14","","9","","25.0","","100.60","","","","-23","","Mainly Clear"
"-121.24","61.76","FORT SIMPSON A","2202101","2012-02-10 14:00","2012","02","10","14:00","-16.0","","-21.0","","65","","","","14","","9","","25.0","","100.53","","","","-22","","Mainly Clear"
"-121.24","61.76","FORT SIMPSON A","2202101","2012-02-10 15:00","2012","02","10","15:00","-13.2","","-17.9","","68","","","","14","","13","","25.0","","100.43","","","","-20","","Mainly Clear"
"-121.24","61.76","FORT SIMPSON A","2202101","2012-02-10 16:00","2012","02","10","16:00","-12.8","","-17.4","","68","","","","14","","13","","25.0","","100.35","","","","-20","","Mainly Clear"
"-121.24","61.76","FORT SIMPSON A","2202101","2012-02-10 17:00","2012","02","10","17:00","-13.2","","-16.8","","74","","","","15","","11","","25.0","","100.29","","","","-19","","Mostly Cloudy"
"-121.24","61.76","FORT SIMPSON A","2202101","2012-02-10 18:00","2012","02","10","18:00","-13.6","","-16.7","","77","","","","12","","11","","25.0","","100.23","","","","-20","","Mostly Cloudy"
"-121.24","61.76","FORT SIMPSON A","2202101","2012-02-10 19:00","2012","02","10","19:00","-13.9","","-16.6","","80","","","","14","","11","","25.0","","100.18","","","","-20","","Mostly Cloudy"
"-121.24","61.76","FORT SIMPSON A","2202101","2012-02-10 20:00","2012","02","10","20:00","-14.2","","-18.0","","73","","","","16","","9","","25.0","","100.10","","","","-20","","Mostly Cloudy"
"-121.24","61.76","FORT SIMPSON A","2202101","2012-02-10 21:00","2012","02","10","21:00","-14.4","","-17.1","","80","","","","14","","7","","25.0","","100.02","","","","-19","","Mostly Cloudy"
"-121.24","61.76","FORT SIMPSON A","2202101","2012-02-10 22:00","2012","02","10","22:00","-14.2","","-17.5","","76","","","","16","","6","","25.0","","99.96","","","","-18","","Cloudy"
"-121.24","61.76","FORT SIMPSON A","2202101","2012-02-10 23:00","2012","02","10","23:00","-14.3","","-17.0","","80","","","","12","","7","","25.0","","99.88","","","","-19","","Cloudy"
"-121.24","61.76","FORT SIMPSON A","2202101","2012-02-11 00:00","2012","02","11","00:00","-14.0","","-16.7","","80","","","","13","","7","","25.0","","99.80","","","","-19","","Cloudy"
"-121.24","61.76","FORT SIMPSON A","2202101","2012-02-11 01:00","2012","02","11","01:00","-14.2","","-16.9","","80","","","","","","0","","25.0","","99.78","","","","","","Cloudy"
"-121.24","61.76","FORT SIMPSON A","2202101","2012-02-11 02:00","2012","02","11","02:00","-14.1","","-17.3","","77","","","","","","0","","25.0","","99.71","","","","","","Cloudy"
"-121.24","61.76","FORT SIMPSON A","2202101","2012-02-11 03:00","2012","02","11","03:00","-15.2","","-17.5","","83","","","","","","0","","25.0","","99.65","","","","","","Mostly Cloudy"
"-121.24","61.76","FORT SIMPSON A","2202101","2012-02-11 04:00","2012","02","11","04:00","-15.6","","-18.0","","82","","","","10","","9","","25.0","","99.63","","","","-22","","Mostly Cloudy"
"-121.24","61.76","FORT SIMPSON A","2202101","2012-02-11 05:00","2012","02","11","05:00","-13.2","","-15.7","","81","","","","13","","6","","25.0","","99.56","","","","-17","","Mostly Cloudy"
"-121.24","61.76","FORT SIMPSON A","2202101","2012-02-11 06:00","2012","02","11","06:00","-14.0","","-16.7","","80","","","","11","","7","","25.0","","99.48","","","","-19","","Mostly Cloudy"
"-121.24","61.76","FORT SIMPSON A","2202101","2012-02-11 07:00","2012","02","11","07:00","-15.1","","-18.0","","78","","","","15","","6","","25.0","","99.38","","","","-19","","Mostly Cloudy"
"-121.24","61.76","FORT SIMPSON A","2202101","2012-02-11 08:00","2012","02","11","08:00","-15.4","","-17.2","","86","","","","15","","6","","25.0","","99.30","","","","-20","","Mostly Cloudy"
"-121.24","61.76","FORT SIMPSON A","2202101","2012-02-11 09:00","2012","02","11","09:00","-15.5","","-16.8","","90","","","","","","0","","25.0","","99.26","","","","","","Mostly Cloudy"
"-121.24","61.76","FORT SIMPSON A","2202101","2012-02-11 10:00","2012","02","11","10:00","-16.2","","-19.3","","77","","","","","","0","","25.0","","99.21","","","","","","Mostly Cloudy"
"-121.24","61.76","FORT SIMPSON A","2202101","2012-02-11 11:00","2012","02","11","11:00","-16.3","","-20.0","","73","","","","","","0","","25.0","","99.12","","","","","","Mostly Cloudy"
"-121.24","61.76","FORT SIMPSON A","2202101","2012-02-11 12:00","2012","02","11","12:00","-14.3","","-19.4","","65","","","","16","","6","","25.0","","99.05","","","","-18","","Mostly Cloudy"
"-121.24","61.76","FORT SIMPSON A","2202101","2012-02-11 13:00","2012","02","11","13:00","-12.6","","-17.1","","69","","","","18","","4","","25.0","","98.95","","","","-15","","Mostly Cloudy"
"-121.24","61.76","FORT SIMPSON A","2202101","2012-02-11 14:00","2012","02","11","14:00","-9.3","","-14.7","","65","","","","","","0","","25.0","","98.82","","","","","","Mainly Clear"
"-121.24","61.76","FORT SIMPSON A","2202101","2012-02-11 15:00","2012","02","11","15:00","-8.6","","-14.7","","61","","","","","","0","","25.0","","98.73","","","","","","Mainly Clear"
"-121.24","61.76","FORT SIMPSON A","2202101","2012-02-11 16:00","2012","02","11","16:00","-6.6","","-12.8","","61","","","","","","0","","25.0","","98.65","","","","","","Mainly Clear"
"-121.24","61.76","FORT SIMPSON A","2202101","2012-02-11 17:00","2012","02","11","17:00","-6.6","","-11.9","","66","","","","12","","4","","25.0","","98.62","","","","-9","","Mainly Clear"
"-121.24","61.76","FORT SIMPSON A","2202101","2012-02-11 18:00","2012","02","11","18:00","-10.0","","-15.7","","63","","","","12","","7","","25.0","","98.55","","","","-14","","Mainly Clear"
"-121.24","61.76","FORT SIMPSON A","2202101","2012-02-11 19:00","2012","02","11","19:00","-9.2","","-14.6","","65","","","","","","0","","25.0","","98.46","","","","","","Mainly Clear"
"-121.24","61.76","FORT SIMPSON A","2202101","2012-02-11 20:00","2012","02","11","20:00","-10.1","","-15.3","","66","","","","12","","6","","25.0","","98.37","","","","-14","","Mainly Clear"
"-121.24","61.76","FORT SIMPSON A","2202101","2012-02-11 21:00","2012","02","11","21:00","-11.7","","-14.9","","77","","","","14","","4","","25.0","","98.33","","","","-14","","Mainly Clear"
"-121.24","61.76","FORT SIMPSON A","2202101","2012-02-11 22:00","2012","02","11","22:00","-11.1","","-15.2","","72","","","","13","","4","","25.0","","98.26","","","","-14","","Clear"
"-121.24","61.76","FORT SIMPSON A","2202101","2012-02-11 23:00","2012","02","11","23:00","-12.0","","-14.8","","80","","","","13","","4","","25.0","","98.22","","","","-15","","Clear"
"-121.24","61.76","FORT SIMPSON A","2202101","2012-02-12 00:00","2012","02","12","00:00","-12.2","","-14.6","","82","","","","14","","6","","25.0","","98.14","","","","-16","","Clear"
"-121.24","61.76","FORT SIMPSON A","2202101","2012-02-12 01:00","2012","02","12","01:00","-12.5","","-14.9","","82","","","","14","","6","","25.0","","98.10","","","","-16","","Clear"
"-121.24","61.76","FORT SIMPSON A","2202101","2012-02-12 02:00","2012","02","12","02:00","-12.5","","-14.5","","85","","","","14","","6","","25.0","","98.06","","","","-16","","Mostly Cloudy"
"-121.24","61.76","FORT SIMPSON A","2202101","2012-02-12 03:00","2012","02","12","03:00","-14.1","","-16.3","","83","","","","","","0","","25.0","","98.00","","","","","","Mostly Cloudy"
"-121.24","61.76","FORT SIMPSON A","2202101","2012-02-12 04:00","2012","02","12","04:00","-13.5","","-16.1","","81","","","","","","0","","25.0","","97.96","","","","","","Mainly Clear"
"-121.24","61.76","FORT SIMPSON A","2202101","2012-02-12 05:00","2012","02","12","05:00","-15.4","","-17.7","","83","","","","","","0","","25.0","","97.91","","","","","","Mainly Clear"
"-121.24","61.76","FORT SIMPSON A","2202101","2012-02-12 06:00","2012","02","12","06:00","-15.2","","-17.0","","86","","","","11","","4","","25.0","","97.84","","","","-18","","Mainly Clear"
"-121.24","61.76","FORT SIMPSON A","2202101","2012-02-12 07:00","2012","02","12","07:00","-15.4","","-17.2","","86","","","","","","0","","25.0","","97.76","","","","","","Clear"
"-121.24","61.76","FORT SIMPSON A","2202101","2012-02-12 08:00","2012","02","12","08:00","-14.4","","-16.6","","83","","","","","","0","","25.0","","97.71","","","","","","Mainly Clear"
"-121.24","61.76","FORT SIMPSON A","2202101","2012-02-12 09:00","2012","02","12","09:00","-13.4","","-15.5","","84","","","","10","","4","","25.0","","97.69","","","","-16","","Mostly Cloudy"
"-121.24","61.76","FORT SIMPSON A","2202101","2012-02-12 10:00","2012","02","12","10:00","-12.5","","-14.9","","82","","","","10","","7","","25.0","","97.67","","","","-17","","Mostly Cloudy"
"-121.24","61.76","FORT SIMPSON A","2202101","2012-02-12 11:00","2012","02","12","11:00","-10.4","","-12.9","","82","","","","11","","4","","25.0","","97.64","","","","-13","","Mostly Cloudy"
"-121.24","61.76","FORT SIMPSON A","2202101","2012-02-12 12:00","2012","02","12","12:00","-8.5","","-11.5","","79","","","","","","0","","25.0","","97.61","","","","","","Mostly Cloudy"
"-121.24","61.76","FORT SIMPSON A","2202101","2012-02-12 13:00","2012","02","12","13:00","-5.7","","-9.5","","75","","","","","","0","","25.0","","97.58","","","","","","Mostly Cloudy"
"-121.24","61.76","FORT SIMPSON A","2202101","2012-02-12 14:00","2012","02","12","14:00","-3.1","","-5.2","","85","","","","","","0","","25.0","","97.56","","","","","","Cloudy"
"-121.24","61.76","FORT SIMPSON A","2202101","2012-02-12 15:00","2012","02","12","15:00","-2.2","","-6.0","","75","","","","","","0","","25.0","","97.57","","","","","","Mostly Cloudy"
"-121.24","61.76","FORT SIMPSON A","2202101","2012-02-12 16:00","2012","02","12","16:00","-2.8","","-6.1","","78","","","","","","0","","25.0","","97.59","","","","","","Mostly Cloudy"
"-121.24","61.76","FORT SIMPSON A","2202101","2012-02-12 17:00","2012","02","12","17:00","-4.8","","-8.0","","78","","","","","","0","","25.0","","97.57","","","","","","Cloudy"
"-121.24","61.76","FORT SIMPSON A","2202101","2012-02-12 18:00","2012","02","12","18:00","-2.1","","-6.2","","73","","","","20","","11","","25.0","","97.56","","","","-6","","Mostly Cloudy"
"-121.24","61.76","FORT SIMPSON A","2202101","2012-02-12 19:00","2012","02","12","19:00","2.4","","-1.1","","78","","","","24","","13","","25.0","","97.56","","","","","","Mostly Cloudy"
"-121.24","61.76","FORT SIMPSON A","2202101","2012-02-12 20:00","2012","02","12","20:00","1.3","","-6.4","","56","","","","21","","9","","25.0","","97.57","","","","","","Mainly Clear"
"-121.24","61.76","FORT SIMPSON A","2202101","2012-02-12 21:00","2012","02","12","21:00","1.3","","-6.4","","56","","","","23","","11","","25.0","","97.58","","","","","","Mainly Clear"
"-121.24","61.76","FORT SIMPSON A","2202101","2012-02-12 22:00","2012","02","12","22:00","1.0","","-6.5","","57","","","","22","","11","","25.0","","97.58","","","","","","Mainly Clear"
"-121.24","61.76","FORT SIMPSON A","2202101","2012-02-12 23:00","2012","02","12","23:00","0.0","","-6.6","","61","","","","24","","7","","25.0","","97.64","","","","-2","","Mainly Clear"
"-121.24","61.76","FORT SIMPSON A","2202101","2012-02-13 00:00","2012","02","13","00:00","-0.8","","-5.4","","71","","","","23","","11","","25.0","","97.68","","","","-5","","Mainly Clear"
"-121.24","61.76","FORT SIMPSON A","2202101","2012-02-13 01:00","2012","02","13","01:00","-1.0","","-2.7","","88","","","","22","","13","","25.0","","97.69","","","","-5","","Mainly Clear"
"-121.24","61.76","FORT SIMPSON A","2202101","2012-02-13 02:00","2012","02","13","02:00","-1.3","","-3.4","","86","","","","22","","9","","25.0","","97.74","","","","-5","","Mainly Clear"
"-121.24","61.76","FORT SIMPSON A","2202101","2012-02-13 03:00","2012","02","13","03:00","-0.7","","-6.6","","64","","","","23","","9","","25.0","","97.80","","","","-4","","Mostly Cloudy"
"-121.24","61.76","FORT SIMPSON A","2202101","2012-02-13 04:00","2012","02","13","04:00","-1.0","","-4.1","","79","","","","22","","7","","25.0","","97.84","","","","-4","","Cloudy"
"-121.24","61.76","FORT SIMPSON A","2202101","2012-02-13 05:00","2012","02","13","05:00","-1.3","","-5.4","","74","","","","22","","9","","25.0","","97.89","","","","-5","","Mostly Cloudy"
"-121.24","61.76","FORT SIMPSON A","2202101","2012-02-13 06:00","2012","02","13","06:00","-2.7","","-6.6","","74","","","","","","0","","25.0","","97.93","","","","","","Mostly Cloudy"
"-121.24","61.76","FORT SIMPSON A","2202101","2012-02-13 07:00","2012","02","13","07:00","-4.4","","-9.3","","69","","","","","","0","","25.0","","97.98","","","","","","Mostly Cloudy"
"-121.24","61.76","FORT SIMPSON A","2202101","2012-02-13 08:00","2012","02","13","08:00","-6.0","","-10.3","","72","","","","","","0","","25.0","","98.02","","","","","","Mostly Cloudy"
"-121.24","61.76","FORT SIMPSON A","2202101","2012-02-13 09:00","2012","02","13","09:00","-5.9","","-9.4","","76","","","","","","0","","25.0","","98.10","","","","","","Mostly Cloudy"
"-121.24","61.76","FORT SIMPSON A","2202101","2012-02-13 10:00","2012","02","13","10:00","-5.8","","-9.2","","77","","","","30","","7","","25.0","","98.19","","","","-9","","Mostly Cloudy"
"-121.24","61.76","FORT SIMPSON A","2202101","2012-02-13 11:00","2012","02","13","11:00","-4.0","","-7.6","","76","","","","33","","6","","25.0","","98.25","","","","-7","","Cloudy"
"-121.24","61.76","FORT SIMPSON A","2202101","2012-02-13 12:00","2012","02","13","12:00","-4.4","","-8.2","","75","","","","","","0","","25.0","","98.35","","","","","","Mostly Cloudy"
"-121.24","61.76","FORT SIMPSON A","2202101","2012-02-13 13:00","2012","02","13","13:00","-4.4","","-8.5","","73","","","","33","","11","","25.0","","98.40","","","","-9","","Mainly Clear"
"-121.24","61.76","FORT SIMPSON A","2202101","2012-02-13 14:00","2012","02","13","14:00","-2.8","","-6.8","","74","","","","32","","9","","25.0","","98.45","","","","-6","","Mainly Clear"
"-121.24","61.76","FORT SIMPSON A","2202101","2012-02-13 15:00","2012","02","13","15:00","-2.1","","-7.9","","64","","","","33","","9","","25.0","","98.51","","","","-6","","Mainly Clear"
"-121.24","61.76","FORT SIMPSON A","2202101","2012-02-13 16:00","2012","02","13","16:00","-1.6","","-8.3","","60","","","","","","0","","25.0","","98.55","","","","","","Mainly Clear"
"-121.24","61.76","FORT SIMPSON A","2202101","2012-02-13 17:00","2012","02","13","17:00","-4.1","","-7.4","","78","","","","33","","6","","25.0","","98.57","","","","-7","","Mainly Clear"
"-121.24","61.76","FORT SIMPSON A","2202101","2012-02-13 18:00","2012","02","13","18:00","-6.4","","-10.0","","76","","","","","","0","","25.0","","98.58","","","","","","Mainly Clear"
"-121.24","61.76","FORT SIMPSON A","2202101","2012-02-13 19:00","2012","02","13","19:00","-9.4","","-13.4","","73","","","","","","0","","25.0","","98.57","","","","","","Mainly Clear"
"-121.24","61.76","FORT SIMPSON A","2202101","2012-02-13 20:00","2012","02","13","20:00","-11.3","","-13.1","","87","","","","","","0","","25.0","","98.56","","","","","","Mainly Clear"
"-121.24","61.76","FORT SIMPSON A","2202101","2012-02-13 21:00","2012","02","13","21:00","-11.4","","-13.6","","84","","","","","","0","","25.0","","98.57","","","","","","Cloudy"
"-121.24","61.76","FORT SIMPSON A","2202101","2012-02-13 22:00","2012","02","13","22:00","-9.5","","-11.8","","83","","","","","","0","","25.0","","98.59","","","","","","Mostly Cloudy"
"-121.24","61.76","FORT SIMPSON A","2202101","2012-02-13 23:00","2012","02","13","23:00","-8.6","","-11.2","","81","","","","","","0","","25.0","","98.59","","","","","","Cloudy"
"-121.24","61.76","FORT SIMPSON A","2202101","2012-02-14 00:00","2012","02","14","00:00","-9.0","","-11.7","","81","","","","","","0","","25.0","","98.60","","","","","","Cloudy"
"-121.24","61.76","FORT SIMPSON A","2202101","2012-02-14 01:00","2012","02","14","01:00","-7.7","","-10.5","","80","","","","33","","4","","25.0","","98.62","","","","-10","","Cloudy"
"-121.24","61.76","FORT SIMPSON A","2202101","2012-02-14 02:00","2012","02","14","02:00","-8.9","","-11.9","","79","","","","","","0","","25.0","","98.63","","","","","","Mostly Cloudy"
"-121.24","61.76","FORT SIMPSON A","2202101","2012-02-14 03:00","2012","02","14","03:00","-10.4","","-12.5","","85","","","","","","0","","25.0","","98.65","","","","","","Mostly Cloudy"
"-121.24","61.76","FORT SIMPSON A","2202101","2012-02-14 04:00","2012","02","14","04:00","-12.9","","-14.9","","85","","","","","","0","","25.0","","98.68","","","","","","Mainly Clear"
"-121.24","61.76","FORT SIMPSON A","2202101","2012-02-14 05:00","2012","02","14","05:00","-14.2","","-15.9","","87","","","","","","0","","25.0","","98.69","","","","","","Mainly Clear"
"-121.24","61.76","FORT SIMPSON A","2202101","2012-02-14 06:00","2012","02","14","06:00","-15.2","","-17.0","","86","","","","","","0","","25.0","","98.70","","","","","","Clear"
"-121.24","61.76","FORT SIMPSON A","2202101","2012-02-14 07:00","2012","02","14","07:00","-16.4","","-18.3","","85","","","","","","0","","25.0","","98.72","","","","","","Clear"
"-121.24","61.76","FORT SIMPSON A","2202101","2012-02-14 08:00","2012","02","14","08:00","-17.0","","-19.0","","84","","","","","","0","","25.0","","98.73","","","","","","Clear"
"-121.24","61.76","FORT SIMPSON A","2202101","2012-02-14 09:00","2012","02","14","09:00","-17.8","","-19.8","","84","","","","","","0","","25.0","","98.72","","","","","","Clear"
"-121.24","61.76","FORT SIMPSON A","2202101","2012-02-14 10:00","2012","02","14","10:00","-17.1","","-19.7","","80","","","","","","0","","25.0","","98.75","","","","","","Clear"
"-121.24","61.76","FORT SIMPSON A","2202101","2012-02-14 11:00","2012","02","14","11:00","-14.5","","-16.7","","83","","","","","","0","","25.0","","98.76","","","","","","Clear"
"-121.24","61.76","FORT SIMPSON A","2202101","2012-02-14 12:00","2012","02","14","12:00","-9.4","","-11.3","","86","","","","","","0","","25.0","","98.76","","","","","","Clear"
"-121.24","61.76","FORT SIMPSON A","2202101","2012-02-14 13:00","2012","02","14","13:00","-7.0","","-10.8","","74","","","","","","0","","25.0","","98.70","","","","","","Mainly Clear"
"-121.24","61.76","FORT SIMPSON A","2202101","2012-02-14 14:00","2012","02","14","14:00","-5.0","","-9.7","","70","","","","7","","7","","25.0","","98.65","","","","-8","","Mainly Clear"
"-121.24","61.76","FORT SIMPSON A","2202101","2012-02-14 15:00","2012","02","14","15:00","-3.5","","-7.3","","75","","","","10","","6","","25.0","","98.64","","","","-6","","Mainly Clear"
"-121.24","61.76","FORT SIMPSON A","2202101","2012-02-14 16:00","2012","02","14","16:00","-3.5","","-8.8","","67","","","","","","0","","25.0","","98.62","","","","","","Mainly Clear"
"-121.24","61.76","FORT SIMPSON A","2202101","2012-02-14 17:00","2012","02","14","17:00","-4.1","","-8.5","","71","","","","13","","9","","25.0","","98.59","","","","-8","","Mainly Clear"
"-121.24","61.76","FORT SIMPSON A","2202101","2012-02-14 18:00","2012","02","14","18:00","-5.5","","-8.9","","77","","","","12","","7","","25.0","","98.54","","","","-9","","Mainly Clear"
"-121.24","61.76","FORT SIMPSON A","2202101","2012-02-14 19:00","2012","02","14","19:00","-6.8","","-10.5","","75","","","","12","","19","","25.0","","98.50","","","","-14","","Mainly Clear"
"-121.24","61.76","FORT SIMPSON A","2202101","2012-02-14 20:00","2012","02","14","20:00","-7.8","","-11.0","","78","","","","11","","9","","25.0","","98.48","","","","-12","","Mainly Clear"
"-121.24","61.76","FORT SIMPSON A","2202101","2012-02-14 21:00","2012","02","14","21:00","-8.3","","-12.0","","75","","","","12","","9","","25.0","","98.46","","","","-13","","Mainly Clear"
"-121.24","61.76","FORT SIMPSON A","2202101","2012-02-14 22:00","2012","02","14","22:00","-9.0","","-12.5","","76","","","","13","","7","","25.0","","98.47","","","","-13","","Clear"
"-121.24","61.76","FORT SIMPSON A","2202101","2012-02-14 23:00","2012","02","14","23:00","-9.5","","-12.7","","77","","","","12","","7","","25.0","","98.48","","","","-13","","Mainly Clear"
"-121.24","61.76","FORT SIMPSON A","2202101","2012-02-15 00:00","2012","02","15","00:00","-9.7","","-12.1","","83","","","","11","","6","","25.0","","98.52","","","","-13","","Clear"
"-121.24","61.76","FORT SIMPSON A","2202101","2012-02-15 01:00","2012","02","15","01:00","-10.3","","-13.2","","79","","","","13","","4","","25.0","","98.58","","","","-13","","Mainly Clear"
"-121.24","61.76","FORT SIMPSON A","2202101","2012-02-15 02:00","2012","02","15","02:00","-13.5","","-16.1","","81","","","","32","","4","","25.0","","98.65","","","","-16","","Mainly Clear"
"-121.24","61.76","FORT SIMPSON A","2202101","2012-02-15 03:00","2012","02","15","03:00","-13.9","","-16.6","","80","","","","","","0","","25.0","","98.77","","","","","","Mostly Cloudy"
"-121.24","61.76","FORT SIMPSON A","2202101","2012-02-15 04:00","2012","02","15","04:00","-13.0","","-15.5","","81","","","","32","","4","","25.0","","98.83","","","","-16","","Mostly Cloudy"
"-121.24","61.76","FORT SIMPSON A","2202101","2012-02-15 05:00","2012","02","15","05:00","-14.4","","-16.6","","83","","","","","","0","","25.0","","98.88","","","","","","Mostly Cloudy"
"-121.24","61.76","FORT SIMPSON A","2202101","2012-02-15 06:00","2012","02","15","06:00","-14.1","","-16.3","","83","","","","","","0","","25.0","","98.93","","","","","","Mostly Cloudy"
"-121.24","61.76","FORT SIMPSON A","2202101","2012-02-15 07:00","2012","02","15","07:00","-13.1","","-15.6","","81","","","","29","","4","","25.0","","99.03","","","","-16","","Cloudy"
"-121.24","61.76","FORT SIMPSON A","2202101","2012-02-15 08:00","2012","02","15","08:00","-13.3","","-16.4","","77","","","","","","0","","25.0","","99.08","","","","","","Cloudy"
"-121.24","61.76","FORT SIMPSON A","2202101","2012-02-15 09:00","2012","02","15","09:00","-14.0","","-17.2","","77","","","","","","0","","25.0","","99.20","","","","","","Mostly Cloudy"
"-121.24","61.76","FORT SIMPSON A","2202101","2012-02-15 10:00","2012","02","15","10:00","-13.8","","-18.1","","70","","","","","","0","","25.0","","99.30","","","","","","Mostly Cloudy"
"-121.24","61.76","FORT SIMPSON A","2202101","2012-02-15 11:00","2012","02","15","11:00","-13.0","","-17.6","","68","","","","","","0","","25.0","","99.35","","","","","","Mainly Clear"
"-121.24","61.76","FORT SIMPSON A","2202101","2012-02-15 12:00","2012","02","15","12:00","-12.0","","-17.4","","64","","","","","","0","","25.0","","99.38","","","","","","Mainly Clear"
"-121.24","61.76","FORT SIMPSON A","2202101","2012-02-15 13:00","2012","02","15","13:00","-7.3","","-12.0","","69","","","","","","0","","25.0","","99.40","","","","","","Clear"
"-121.24","61.76","FORT SIMPSON A","2202101","2012-02-15 14:00","2012","02","15","14:00","-5.0","","-13.1","","53","","","","","","0","","25.0","","99.39","","","","","","Clear"
"-121.24","61.76","FORT SIMPSON A","2202101","2012-02-15 15:00","2012","02","15","15:00","-5.0","","-13.1","","53","","","","","","0","","25.0","","99.40","","","","","","Clear"
"-121.24","61.76","FORT SIMPSON A","2202101","2012-02-15 16:00","2012","02","15","16:00","-4.2","","-8.3","","73","","","","17","","4","","25.0","","99.41","","","","-6","","Clear"
"-121.24","61.76","FORT SIMPSON A","2202101","2012-02-15 17:00","2012","02","15","17:00","-5.3","","-10.1","","69","","","","","","0","","25.0","","99.39","","","","","","Clear"
"-121.24","61.76","FORT SIMPSON A","2202101","2012-02-15 18:00","2012","02","15","18:00","-10.0","","-15.7","","63","","","","","","0","","25.0","","99.41","","","","","","Clear"
"-121.24","61.76","FORT SIMPSON A","2202101","2012-02-15 19:00","2012","02","15","19:00","-12.0","","-15.8","","73","","","","","","0","","25.0","","99.42","","","","","","Clear"
"-121.24","61.76","FORT SIMPSON A","2202101","2012-02-15 20:00","2012","02","15","20:00","-8.0","","-11.6","","75","","","","10","","6","","25.0","","99.40","","","","-11","","Clear"
"-121.24","61.76","FORT SIMPSON A","2202101","2012-02-15 21:00","2012","02","15","21:00","-8.3","","-11.6","","77","","","","12","","4","","25.0","","99.39","","","","-10","","Clear"
"-121.24","61.76","FORT SIMPSON A","2202101","2012-02-15 22:00","2012","02","15","22:00","-9.1","","-12.2","","78","","","","10","","6","","25.0","","99.37","","","","-12","","Clear"
"-121.24","61.76","FORT SIMPSON A","2202101","2012-02-15 23:00","2012","02","15","23:00","-9.7","","-12.9","","77","","","","13","","9","","25.0","","99.37","","","","-15","","Clear"
"-121.24","61.76","FORT SIMPSON A","2202101","2012-02-16 00:00","2012","02","16","00:00","-10.7","","-13.3","","81","","","","11","","6","","25.0","","99.30","","","","-14","","Clear"
"-121.24","61.76","FORT SIMPSON A","2202101","2012-02-16 01:00","2012","02","16","01:00","-10.4","","-12.9","","82","","","","14","","6","","25.0","","99.21","","","","-14","","Clear"
"-121.24","61.76","FORT SIMPSON A","2202101","2012-02-16 02:00","2012","02","16","02:00","-11.0","","-13.2","","84","","","","12","","9","","25.0","","99.20","","","","-16","","Clear"
"-121.24","61.76","FORT SIMPSON A","2202101","2012-02-16 03:00","2012","02","16","03:00","-11.3","","-13.5","","84","","","","12","","7","","25.0","","99.15","","","","-16","","Clear"
"-121.24","61.76","FORT SIMPSON A","2202101","2012-02-16 04:00","2012","02","16","04:00","-11.8","","-14.1","","83","","","","14","","7","","25.0","","99.11","","","","-16","","Clear"
"-121.24","61.76","FORT SIMPSON A","2202101","2012-02-16 05:00","2012","02","16","05:00","-12.4","","-13.9","","89","","","","12","","13","","25.0","","99.11","","","","-19","","Mainly Clear"
"-121.24","61.76","FORT SIMPSON A","2202101","2012-02-16 06:00","2012","02","16","06:00","-12.3","","-14.7","","82","","","","14","","13","","25.0","","98.99","","","","-19","","Mainly Clear"
"-121.24","61.76","FORT SIMPSON A","2202101","2012-02-16 07:00","2012","02","16","07:00","-12.7","","-15.2","","82","","","","12","","15","","25.0","","98.90","","","","-20","","Mainly Clear"
"-121.24","61.76","FORT SIMPSON A","2202101","2012-02-16 08:00","2012","02","16","08:00","-13.0","","-16.5","","75","","","","12","","15","","25.0","","98.82","","","","-20","","Mainly Clear"
"-121.24","61.76","FORT SIMPSON A","2202101","2012-02-16 09:00","2012","02","16","09:00","-12.8","","-16.3","","75","","","","13","","9","","25.0","","98.80","","","","-18","","Mainly Clear"
"-121.24","61.76","FORT SIMPSON A","2202101","2012-02-16 10:00","2012","02","16","10:00","-12.4","","-16.8","","70","","","","12","","11","","25.0","","98.73","","","","-18","","Mostly Cloudy"
"-121.24","61.76","FORT SIMPSON A","2202101","2012-02-16 11:00","2012","02","16","11:00","-11.4","","-16.1","","68","","","","12","","13","","25.0","","98.68","","","","-18","","Mostly Cloudy"
"-121.24","61.76","FORT SIMPSON A","2202101","2012-02-16 12:00","2012","02","16","12:00","-10.0","","-18.0","","52","","","","15","","15","","25.0","","98.64","","","","-17","","Mostly Cloudy"
"-121.24","61.76","FORT SIMPSON A","2202101","2012-02-16 13:00","2012","02","16","13:00","-8.3","","-14.3","","62","","","","13","","6","","25.0","","98.58","","","","-12","","Mostly Cloudy"
"-121.24","61.76","FORT SIMPSON A","2202101","2012-02-16 14:00","2012","02","16","14:00","-7.8","","-13.6","","63","","","","15","","4","","25.0","","98.57","","","","-10","","Mostly Cloudy"
"-121.24","61.76","FORT SIMPSON A","2202101","2012-02-16 15:00","2012","02","16","15:00","-7.0","","-12.0","","67","","","","13","","7","","25.0","","98.52","","","","-11","","Cloudy"
"-121.24","61.76","FORT SIMPSON A","2202101","2012-02-16 16:00","2012","02","16","16:00","-6.0","","-11.1","","67","","","","12","","4","","25.0","","98.52","","","","-8","","Cloudy"
"-121.24","61.76","FORT SIMPSON A","2202101","2012-02-16 17:00","2012","02","16","17:00","-5.9","","-10.5","","70","","","","","","0","","25.0","","98.52","","","","","","Mostly Cloudy"
"-121.24","61.76","FORT SIMPSON A","2202101","2012-02-16 18:00","2012","02","16","18:00","-6.1","","-10.0","","74","","","","15","","7","","25.0","","98.53","","","","-9","","Mostly Cloudy"
"-121.24","61.76","FORT SIMPSON A","2202101","2012-02-16 19:00","2012","02","16","19:00","-6.5","","-10.9","","71","","","","","","0","","25.0","","98.60","","","","","","Mostly Cloudy"
"-121.24","61.76","FORT SIMPSON A","2202101","2012-02-16 20:00","2012","02","16","20:00","-7.3","","-10.4","","78","","","","","","0","","25.0","","98.60","","","","","","Mostly Cloudy"
"-121.24","61.76","FORT SIMPSON A","2202101","2012-02-16 21:00","2012","02","16","21:00","-8.3","","-11.6","","77","","","","","","0","","25.0","","98.65","","","","","","Mainly Clear"
"-121.24","61.76","FORT SIMPSON A","2202101","2012-02-16 22:00","2012","02","16","22:00","-8.7","","-11.7","","79","","","","","","0","","25.0","","98.71","","","","","","Mainly Clear"
"-121.24","61.76","FORT SIMPSON A","2202101","2012-02-16 23:00","2012","02","16","23:00","-11.4","","-13.6","","84","","","","","","0","","25.0","","98.78","","","","","","Mainly Clear"
"-121.24","61.76","FORT SIMPSON A","2202101","2012-02-17 00:00","2012","02","17","00:00","-14.0","","-16.2","","83","","","","","","0","","25.0","","98.84","","","","","","Mainly Clear"
"-121.24","61.76","FORT SIMPSON A","2202101","2012-02-17 01:00","2012","02","17","01:00","-15.4","","-17.2","","86","","","","","","0","","25.0","","98.93","","","","","","Mainly Clear"
"-121.24","61.76","FORT SIMPSON A","2202101","2012-02-17 02:00","2012","02","17","02:00","-16.5","","-18.4","","85","","","","","","0","","25.0","","98.95","","","","","","Mainly Clear"
"-121.24","61.76","FORT SIMPSON A","2202101","2012-02-17 03:00","2012","02","17","03:00","-16.0","","-17.9","","85","","","","","","0","","25.0","","98.99","","","","","","Mainly Clear"
"-121.24","61.76","FORT SIMPSON A","2202101","2012-02-17 04:00","2012","02","17","04:00","-17.0","","-19.0","","84","","","","","","0","","25.0","","98.98","","","","","","Mainly Clear"
"-121.24","61.76","FORT SIMPSON A","2202101","2012-02-17 05:00","2012","02","17","05:00","-17.2","","-19.2","","84","","","","","","0","","25.0","","98.99","","","","","","Mainly Clear"
"-121.24","61.76","FORT SIMPSON A","2202101","2012-02-17 06:00","2012","02","17","06:00","-16.4","","-17.7","","90","","","","","","0","","25.0","","98.98","","","","","","Mostly Cloudy"
"-121.24","61.76","FORT SIMPSON A","2202101","2012-02-17 07:00","2012","02","17","07:00","-15.4","","-17.2","","86","","","","","","0","","25.0","","98.97","","","","","","Cloudy"
"-121.24","61.76","FORT SIMPSON A","2202101","2012-02-17 08:00","2012","02","17","08:00","-11.2","","-13.9","","80","","","","","","0","","25.0","","98.95","","","","","","Mostly Cloudy"
"-121.24","61.76","FORT SIMPSON A","2202101","2012-02-17 09:00","2012","02","17","09:00","-10.0","","-12.9","","79","","","","","","0","","25.0","","98.92","","","","","","Mostly Cloudy"
"-121.24","61.76","FORT SIMPSON A","2202101","2012-02-17 10:00","2012","02","17","10:00","-9.2","","-14.6","","65","","","","15","","4","","25.0","","98.92","","","","-11","","Mostly Cloudy"
"-121.24","61.76","FORT SIMPSON A","2202101","2012-02-17 11:00","2012","02","17","11:00","-7.0","","-13.3","","61","","","","13","","7","","25.0","","98.89","","","","-11","","Mostly Cloudy"
"-121.24","61.76","FORT SIMPSON A","2202101","2012-02-17 12:00","2012","02","17","12:00","-5.8","","-10.8","","68","","","","","","0","","25.0","","98.86","","","","","","Mostly Cloudy"
"-121.24","61.76","FORT SIMPSON A","2202101","2012-02-17 13:00","2012","02","17","13:00","-4.8","","-9.4","","70","","","","","","0","","25.0","","98.83","","","","","","Mostly Cloudy"
"-121.24","61.76","FORT SIMPSON A","2202101","2012-02-17 14:00","2012","02","17","14:00","-4.6","","-9.5","","69","","","","","","0","","25.0","","98.81","","","","","","Mostly Cloudy"
"-121.24","61.76","FORT SIMPSON A","2202101","2012-02-17 15:00","2012","02","17","15:00","-4.0","","-8.4","","71","","","","","","0","","25.0","","98.80","","","","","","Mostly Cloudy"
"-121.24","61.76","FORT SIMPSON A","2202101","2012-02-17 16:00","2012","02","17","16:00","-3.0","","-8.4","","66","","","","","","0","","25.0","","98.79","","","","","","Mainly Clear"
"-121.24","61.76","FORT SIMPSON A","2202101","2012-02-17 17:00","2012","02","17","17:00","-3.9","","-7.9","","74","","","","","","0","","25.0","","98.78","","","","","","Mainly Clear"
"-121.24","61.76","FORT SIMPSON A","2202101","2012-02-17 18:00","2012","02","17","18:00","-7.3","","-11.6","","71","","","","","","0","","25.0","","98.77","","","","","","Mainly Clear"
"-121.24","61.76","FORT SIMPSON A","2202101","2012-02-17 19:00","2012","02","17","19:00","-10.6","","-13.6","","79","","","","","","0","","25.0","","98.77","","","","","","Mainly Clear"
"-121.24","61.76","FORT SIMPSON A","2202101","2012-02-17 20:00","2012","02","17","20:00","-12.3","","-13.8","","89","","","","","","0","","25.0","","98.79","","","","","","Mainly Clear"
"-121.24","61.76","FORT SIMPSON A","2202101","2012-02-17 21:00","2012","02","17","21:00","-14.2","","-16.4","","83","","","","","","0","","25.0","","98.79","","","","","","Mainly Clear"
"-121.24","61.76","FORT SIMPSON A","2202101","2012-02-17 22:00","2012","02","17","22:00","-14.9","","-17.2","","83","","","","","","0","","25.0","","98.81","","","","","","Mainly Clear"
"-121.24","61.76","FORT SIMPSON A","2202101","2012-02-17 23:00","2012","02","17","23:00","-16.5","","-18.4","","85","","","","","","0","","25.0","","98.81","","","","","","Mainly Clear"
"-121.24","61.76","FORT SIMPSON A","2202101","2012-02-18 00:00","2012","02","18","00:00","-17.1","","-19.7","","80","","","","","","0","","25.0","","98.85","","","","","","Mainly Clear"
"-121.24","61.76","FORT SIMPSON A","2202101","2012-02-18 01:00","2012","02","18","01:00","-18.0","","-20.1","","84","","","","","","0","","25.0","","98.86","","","","","","Mainly Clear"
"-121.24","61.76","FORT SIMPSON A","2202101","2012-02-18 02:00","2012","02","18","02:00","-18.0","","-20.1","","84","","","","","","0","","25.0","","98.90","","","","","","Mainly Clear"
"-121.24","61.76","FORT SIMPSON A","2202101","2012-02-18 03:00","2012","02","18","03:00","-19.2","","-21.4","","83","","","","","","0","","25.0","","98.91","","","","","","Mainly Clear"
"-121.24","61.76","FORT SIMPSON A","2202101","2012-02-18 04:00","2012","02","18","04:00","-19.4","","-21.6","","83","","","","","","0","","25.0","","98.93","","","","","","Mainly Clear"
"-121.24","61.76","FORT SIMPSON A","2202101","2012-02-18 05:00","2012","02","18","05:00","-20.0","","-22.2","","83","","","","","","0","","25.0","","98.96","","","","","","Mainly Clear"
"-121.24","61.76","FORT SIMPSON A","2202101","2012-02-18 06:00","2012","02","18","06:00","-20.7","","-23.0","","82","","","","","","0","","25.0","","99.01","","","","","","Mainly Clear"
"-121.24","61.76","FORT SIMPSON A","2202101","2012-02-18 07:00","2012","02","18","07:00","-20.9","","-23.2","","82","","","","15","","4","","25.0","","99.06","","","","-24","","Mainly Clear"
"-121.24","61.76","FORT SIMPSON A","2202101","2012-02-18 08:00","2012","02","18","08:00","-21.1","","-23.4","","82","","","","","","0","","25.0","","99.08","","","","","","Mainly Clear"
"-121.24","61.76","FORT SIMPSON A","2202101","2012-02-18 09:00","2012","02","18","09:00","-21.0","","-23.3","","82","","","","","","0","","25.0","","99.12","","","","","","Mainly Clear"
"-121.24","61.76","FORT SIMPSON A","2202101","2012-02-18 10:00","2012","02","18","10:00","-20.2","","-22.5","","82","","","","","","0","","25.0","","99.14","","","","","","Mainly Clear"
"-121.24","61.76","FORT SIMPSON A","2202101","2012-02-18 11:00","2012","02","18","11:00","-19.0","","-21.1","","83","","","","","","0","","25.0","","99.20","","","","","","Mainly Clear"
"-121.24","61.76","FORT SIMPSON A","2202101","2012-02-18 12:00","2012","02","18","12:00","-13.8","","-18.7","","66","","","","32","","6","","25.0","","99.22","","","","-18","","Mostly Cloudy"
"-121.24","61.76","FORT SIMPSON A","2202101","2012-02-18 13:00","2012","02","18","13:00","-10.5","","-15.4","","67","","","","","","0","","25.0","","99.18","","","","","","Mostly Cloudy"
"-121.24","61.76","FORT SIMPSON A","2202101","2012-02-18 14:00","2012","02","18","14:00","-6.5","","-10.9","","71","","","","15","","7","","25.0","","99.13","","","","-10","","Mostly Cloudy"
"-121.24","61.76","FORT SIMPSON A","2202101","2012-02-18 15:00","2012","02","18","15:00","-6.0","","-10.3","","72","","","","","","0","","25.0","","99.10","","","","","","Mostly Cloudy"
"-121.24","61.76","FORT SIMPSON A","2202101","2012-02-18 16:00","2012","02","18","16:00","-5.9","","-10.5","","70","","","","","","0","","25.0","","99.09","","","","","","Cloudy"
"-121.24","61.76","FORT SIMPSON A","2202101","2012-02-18 17:00","2012","02","18","17:00","-5.9","","-10.5","","70","","","","","","0","","25.0","","99.09","","","","","","Cloudy"
"-121.24","61.76","FORT SIMPSON A","2202101","2012-02-18 18:00","2012","02","18","18:00","-6.8","","-9.8","","79","","","","8","","6","","25.0","","99.09","","","","-10","","Cloudy"
"-121.24","61.76","FORT SIMPSON A","2202101","2012-02-18 19:00","2012","02","18","19:00","-7.8","","-12.7","","68","","","","12","","7","","25.0","","99.09","","","","-11","","Cloudy"
"-121.24","61.76","FORT SIMPSON A","2202101","2012-02-18 20:00","2012","02","18","20:00","-8.5","","-13.2","","69","","","","14","","11","","25.0","","99.10","","","","-14","","Cloudy"
"-121.24","61.76","FORT SIMPSON A","2202101","2012-02-18 21:00","2012","02","18","21:00","-9.4","","-13.4","","73","","","","12","","7","","25.0","","99.08","","","","-13","","Cloudy"
"-121.24","61.76","FORT SIMPSON A","2202101","2012-02-18 22:00","2012","02","18","22:00","-9.6","","-13.2","","75","","","","13","","7","","25.0","","99.05","","","","-14","","Cloudy"
"-121.24","61.76","FORT SIMPSON A","2202101","2012-02-18 23:00","2012","02","18","23:00","-9.6","","-12.4","","80","","","","12","","11","","25.0","","99.01","","","","-15","","Cloudy"
"-121.24","61.76","FORT SIMPSON A","2202101","2012-02-19 00:00","2012","02","19","00:00","-9.8","","-12.2","","83","","","","11","","9","","25.0","","99.02","","","","-15","","Cloudy"
"-121.24","61.76","FORT SIMPSON A","2202101","2012-02-19 01:00","2012","02","19","01:00","-10.8","","-13.4","","81","","","","11","","13","","25.0","","98.99","","","","-17","","Cloudy"
"-121.24","61.76","FORT SIMPSON A","2202101","2012-02-19 02:00","2012","02","19","02:00","-11.1","","-13.3","","84","","","","11","","9","","25.0","","98.99","","","","-16","","Cloudy"
"-121.24","61.76","FORT SIMPSON A","2202101","2012-02-19 03:00","2012","02","19","03:00","-11.8","","-14.6","","80","","","","12","","13","","24.1","","98.96","","","","-18","","Snow"
"-121.24","61.76","FORT SIMPSON A","2202101","2012-02-19 04:00","2012","02","19","04:00","-12.5","","-15.4","","79","","","","14","","17","","4.0","","98.94","","","","-20","","Snow"
"-121.24","61.76","FORT SIMPSON A","2202101","2012-02-19 05:00","2012","02","19","05:00","-12.9","","-15.4","","81","","","","14","","19","","4.0","","98.91","","","","-21","","Snow"
"-121.24","61.76","FORT SIMPSON A","2202101","2012-02-19 06:00","2012","02","19","06:00","-13.0","","-15.5","","81","","","","12","","9","","4.0","","98.90","","","","-18","","Snow"
"-121.24","61.76","FORT SIMPSON A","2202101","2012-02-19 07:00","2012","02","19","07:00","-13.1","","-15.6","","81","","","","7","","7","","6.4","","98.91","","","","-18","","Snow"
"-121.24","61.76","FORT SIMPSON A","2202101","2012-02-19 08:00","2012","02","19","08:00","-13.3","","-16.4","","77","","","","11","","9","","19.3","","98.91","","","","-19","","Snow"
"-121.24","61.76","FORT SIMPSON A","2202101","2012-02-19 09:00","2012","02","19","09:00","-13.1","","-16.1","","78","","","","14","","11","","6.4","","98.97","","","","-19","","Snow"
"-121.24","61.76","FORT SIMPSON A","2202101","2012-02-19 10:00","2012","02","19","10:00","-13.1","","-15.6","","81","","","","8","","7","","6.4","","98.98","","","","-18","","Snow"
"-121.24","61.76","FORT SIMPSON A","2202101","2012-02-19 11:00","2012","02","19","11:00","-13.0","","-16.0","","78","","","","13","","4","","9.7","","98.95","","","","-16","","Snow"
"-121.24","61.76","FORT SIMPSON A","2202101","2012-02-19 12:00","2012","02","19","12:00","-13.0","","-16.0","","78","","","","13","","4","","9.7","","98.99","","","","-16","","Snow"
"-121.24","61.76","FORT SIMPSON A","2202101","2012-02-19 13:00","2012","02","19","13:00","-12.3","","-15.2","","79","","","","15","","4","","6.4","","99.00","","","","-15","","Snow"
"-121.24","61.76","FORT SIMPSON A","2202101","2012-02-19 14:00","2012","02","19","14:00","-12.1","","-14.9","","80","","","","","","0","","16.1","","99.02","","","","","","Snow"
"-121.24","61.76","FORT SIMPSON A","2202101","2012-02-19 15:00","2012","02","19","15:00","-11.8","","-15.1","","76","","","","9","","4","","19.3","","99.04","","","","-14","","Snow"
"-121.24","61.76","FORT SIMPSON A","2202101","2012-02-19 16:00","2012","02","19","16:00","-11.2","","-14.3","","78","","","","","","0","","24.1","","99.06","","","","","","Snow"
"-121.24","61.76","FORT SIMPSON A","2202101","2012-02-19 17:00","2012","02","19","17:00","-11.5","","-14.7","","77","","","","","","0","","25.0","","99.09","","","","","","Snow"
"-121.24","61.76","FORT SIMPSON A","2202101","2012-02-19 18:00","2012","02","19","18:00","-11.8","","-15.1","","76","","","","","","0","","25.0","","99.11","","","","","","Snow"
"-121.24","61.76","FORT SIMPSON A","2202101","2012-02-19 19:00","2012","02","19","19:00","-12.0","","-14.8","","80","","","","13","","4","","25.0","","99.11","","","","-15","","Snow"
"-121.24","61.76","FORT SIMPSON A","2202101","2012-02-19 20:00","2012","02","19","20:00","-12.4","","-14.8","","82","","","","15","","6","","24.1","","99.13","","","","-16","","Snow"
"-121.24","61.76","FORT SIMPSON A","2202101","2012-02-19 21:00","2012","02","19","21:00","-12.6","","-15.0","","82","","","","","","0","","24.1","","99.14","","","","","","Snow"
"-121.24","61.76","FORT SIMPSON A","2202101","2012-02-19 22:00","2012","02","19","22:00","-13.0","","-15.5","","81","","","","","","0","","24.1","","99.12","","","","","","Snow"
"-121.24","61.76","FORT SIMPSON A","2202101","2012-02-19 23:00","2012","02","19","23:00","-13.2","","-15.7","","81","","","","9","","4","","19.3","","99.11","","","","-16","","Snow"
"-121.24","61.76","FORT SIMPSON A","2202101","2012-02-20 00:00","2012","02","20","00:00","-13.5","","-15.6","","84","","","","","","0","","24.1","","99.16","","","","","","Snow"
"-121.24","61.76","FORT SIMPSON A","2202101","2012-02-20 01:00","2012","02","20","01:00","-13.8","","-15.9","","84","","","","","","0","","24.1","","99.15","","","","","","Snow"
"-121.24","61.76","FORT SIMPSON A","2202101","2012-02-20 02:00","2012","02","20","02:00","-14.0","","-16.2","","83","","","","","","0","","24.1","","99.15","","","","","","Snow"
"-121.24","61.76","FORT SIMPSON A","2202101","2012-02-20 03:00","2012","02","20","03:00","-14.1","","-16.3","","83","","","","","","0","","24.1","","99.13","","","","","","Snow"
"-121.24","61.76","FORT SIMPSON A","2202101","2012-02-20 04:00","2012","02","20","04:00","-14.2","","-15.9","","87","","","","12","","4","","24.1","","99.08","","","","-17","","Snow"
"-121.24","61.76","FORT SIMPSON A","2202101","2012-02-20 05:00","2012","02","20","05:00","-14.3","","-16.5","","83","","","","","","0","","24.1","","99.06","","","","","","Snow"
"-121.24","61.76","FORT SIMPSON A","2202101","2012-02-20 06:00","2012","02","20","06:00","-14.3","","-16.5","","83","","","","","","0","","24.1","","99.05","","","","","","Snow"
"-121.24","61.76","FORT SIMPSON A","2202101","2012-02-20 07:00","2012","02","20","07:00","-14.4","","-16.6","","83","","","","","","0","","24.1","","99.01","","","","","","Snow"
"-121.24","61.76","FORT SIMPSON A","2202101","2012-02-20 08:00","2012","02","20","08:00","-14.5","","-17.3","","79","","","","","","0","","24.1","","98.95","","","","","","Snow"
"-121.24","61.76","FORT SIMPSON A","2202101","2012-02-20 09:00","2012","02","20","09:00","-14.0","","-16.7","","80","","","","","","0","","24.1","","98.93","","","","","","Snow"
"-121.24","61.76","FORT SIMPSON A","2202101","2012-02-20 10:00","2012","02","20","10:00","-14.6","","-17.9","","76","","","","9","","7","","25.0","","98.89","","","","-19","","Mostly Cloudy"
"-121.24","61.76","FORT SIMPSON A","2202101","2012-02-20 11:00","2012","02","20","11:00","-13.9","","-16.6","","80","","","","","","0","","24.1","","98.85","","","","","","Snow"
"-121.24","61.76","FORT SIMPSON A","2202101","2012-02-20 12:00","2012","02","20","12:00","-12.4","","-15.8","","76","","","","6","","9","","24.1","","98.80","","","","-18","","Snow"
"-121.24","61.76","FORT SIMPSON A","2202101","2012-02-20 13:00","2012","02","20","13:00","-11.5","","-15.2","","74","","","","13","","7","","24.1","","98.72","","","","-16","","Snow"
"-121.24","61.76","FORT SIMPSON A","2202101","2012-02-20 14:00","2012","02","20","14:00","-9.9","","-15.6","","63","","","","14","","4","","25.0","","98.65","","","","-12","","Mainly Clear"
"-121.24","61.76","FORT SIMPSON A","2202101","2012-02-20 15:00","2012","02","20","15:00","-9.0","","-14.3","","65","","","","","","0","","25.0","","98.57","","","","","","Clear"
"-121.24","61.76","FORT SIMPSON A","2202101","2012-02-20 16:00","2012","02","20","16:00","-9.0","","-15.3","","60","","","","","","0","","25.0","","98.57","","","","","","Clear"
"-121.24","61.76","FORT SIMPSON A","2202101","2012-02-20 17:00","2012","02","20","17:00","-9.2","","-14.6","","65","","","","","","0","","25.0","","98.38","","","","","","Mainly Clear"
"-121.24","61.76","FORT SIMPSON A","2202101","2012-02-20 18:00","2012","02","20","18:00","-10.5","","-15.9","","64","","","","11","","6","","25.0","","98.31","","","","-14","","Mainly Clear"
"-121.24","61.76","FORT SIMPSON A","2202101","2012-02-20 19:00","2012","02","20","19:00","-12.0","","-15.8","","73","","","","12","","7","","25.0","","98.26","","","","-16","","Mainly Clear"
"-121.24","61.76","FORT SIMPSON A","2202101","2012-02-20 20:00","2012","02","20","20:00","-13.1","","-15.6","","81","","","","14","","6","","25.0","","98.16","","","","-17","","Mainly Clear"
"-121.24","61.76","FORT SIMPSON A","2202101","2012-02-20 21:00","2012","02","20","21:00","-13.6","","-16.2","","81","","","","12","","6","","25.0","","98.03","","","","-18","","Mainly Clear"
"-121.24","61.76","FORT SIMPSON A","2202101","2012-02-20 22:00","2012","02","20","22:00","-14.0","","-16.2","","83","","","","13","","11","","25.0","","97.92","","","","-20","","Clear"
"-121.24","61.76","FORT SIMPSON A","2202101","2012-02-20 23:00","2012","02","20","23:00","-14.2","","-16.4","","83","","","","13","","9","","25.0","","97.81","","","","-20","","Clear"
"-121.24","61.76","FORT SIMPSON A","2202101","2012-02-21 00:00","2012","02","21","00:00","-14.2","","-16.4","","83","","","","14","","11","","25.0","","97.70","","","","-21","","Clear"
"-121.24","61.76","FORT SIMPSON A","2202101","2012-02-21 01:00","2012","02","21","01:00","-14.6","","-17.4","","79","","","","12","","11","","25.0","","97.62","","","","-21","","Mainly Clear"
"-121.24","61.76","FORT SIMPSON A","2202101","2012-02-21 02:00","2012","02","21","02:00","-14.1","","-16.8","","80","","","","12","","7","","25.0","","97.53","","","","-19","","Mostly Cloudy"
"-121.24","61.76","FORT SIMPSON A","2202101","2012-02-21 03:00","2012","02","21","03:00","-13.6","","-15.7","","84","","","","15","","4","","25.0","","97.48","","","","-16","","Cloudy"
"-121.24","61.76","FORT SIMPSON A","2202101","2012-02-21 04:00","2012","02","21","04:00","-13.4","","-16.0","","81","","","","13","","11","","25.0","","97.39","","","","-20","","Cloudy"
"-121.24","61.76","FORT SIMPSON A","2202101","2012-02-21 05:00","2012","02","21","05:00","-14.5","","-16.2","","87","","","","15","","11","","25.0","","97.35","","","","-21","","Cloudy"
"-121.24","61.76","FORT SIMPSON A","2202101","2012-02-21 06:00","2012","02","21","06:00","-14.6","","-16.8","","83","","","","15","","13","","25.0","","97.31","","","","-22","","Cloudy"
"-121.24","61.76","FORT SIMPSON A","2202101","2012-02-21 07:00","2012","02","21","07:00","-14.7","","-17.0","","83","","","","14","","6","","19.3","","97.26","","","","-19","","Snow"
"-121.24","61.76","FORT SIMPSON A","2202101","2012-02-21 08:00","2012","02","21","08:00","-14.8","","-17.1","","83","","","","","","0","","24.1","","97.27","","","","","","Snow"
"-121.24","61.76","FORT SIMPSON A","2202101","2012-02-21 09:00","2012","02","21","09:00","-15.1","","-17.4","","83","","","","15","","7","","16.1","","97.26","","","","-20","","Snow"
"-121.24","61.76","FORT SIMPSON A","2202101","2012-02-21 10:00","2012","02","21","10:00","-14.5","","-16.7","","83","","","","15","","9","","3.2","","97.24","","","","-20","","Snow"
"-121.24","61.76","FORT SIMPSON A","2202101","2012-02-21 11:00","2012","02","21","11:00","-14.0","","-16.7","","80","","","","17","","9","","4.0","","97.22","","","","-20","","Snow"
"-121.24","61.76","FORT SIMPSON A","2202101","2012-02-21 12:00","2012","02","21","12:00","-13.3","","-15.4","","84","","","","15","","6","","24.1","","97.18","","","","-17","","Snow"
"-121.24","61.76","FORT SIMPSON A","2202101","2012-02-21 13:00","2012","02","21","13:00","-11.8","","-14.6","","80","","","","17","","4","","25.0","","97.21","","","","-14","","Mostly Cloudy"
"-121.24","61.76","FORT SIMPSON A","2202101","2012-02-21 14:00","2012","02","21","14:00","-10.6","","-13.6","","79","","","","","","0","","25.0","","97.23","","","","","","Cloudy"
"-121.24","61.76","FORT SIMPSON A","2202101","2012-02-21 15:00","2012","02","21","15:00","-10.1","","-13.9","","74","","","","","","0","","25.0","","97.24","","","","","","Mostly Cloudy"
"-121.24","61.76","FORT SIMPSON A","2202101","2012-02-21 16:00","2012","02","21","16:00","-9.8","","-14.0","","71","","","","","","0","","25.0","","97.27","","","","","","Cloudy"
"-121.24","61.76","FORT SIMPSON A","2202101","2012-02-21 17:00","2012","02","21","17:00","-8.9","","-12.8","","73","","","","3","","6","","25.0","","97.31","","","","-12","","Cloudy"
"-121.24","61.76","FORT SIMPSON A","2202101","2012-02-21 18:00","2012","02","21","18:00","-9.2","","-13.2","","73","","","","","","0","","25.0","","97.36","","","","","","Cloudy"
"-121.24","61.76","FORT SIMPSON A","2202101","2012-02-21 19:00","2012","02","21","19:00","-9.6","","-13.2","","75","","","","","","0","","25.0","","97.37","","","","","","Cloudy"
"-121.24","61.76","FORT SIMPSON A","2202101","2012-02-21 20:00","2012","02","21","20:00","-9.8","","-13.5","","74","","","","","","0","","25.0","","97.38","","","","","","Cloudy"
"-121.24","61.76","FORT SIMPSON A","2202101","2012-02-21 21:00","2012","02","21","21:00","-10.3","","-12.8","","82","","","","","","0","","25.0","","97.40","","","","","","Cloudy"
"-121.24","61.76","FORT SIMPSON A","2202101","2012-02-21 22:00","2012","02","21","22:00","-11.4","","-13.6","","84","","","","","","0","","25.0","","97.41","","","","","","Cloudy"
"-121.24","61.76","FORT SIMPSON A","2202101","2012-02-21 23:00","2012","02","21","23:00","-11.6","","-13.9","","83","","","","31","","4","","25.0","","97.44","","","","-14","","Cloudy"
"-121.24","61.76","FORT SIMPSON A","2202101","2012-02-22 00:00","2012","02","22","00:00","-11.7","","-14.5","","80","","","","33","","7","","25.0","","97.48","","","","-16","","Cloudy"
"-121.24","61.76","FORT SIMPSON A","2202101","2012-02-22 01:00","2012","02","22","01:00","-12.1","","-14.5","","82","","","","32","","7","","25.0","","97.53","","","","-16","","Cloudy"
"-121.24","61.76","FORT SIMPSON A","2202101","2012-02-22 02:00","2012","02","22","02:00","-12.4","","-13.9","","89","","","","32","","7","","25.0","","97.58","","","","-17","","Cloudy"
"-121.24","61.76","FORT SIMPSON A","2202101","2012-02-22 03:00","2012","02","22","03:00","-12.3","","-13.8","","89","","","","33","","11","","25.0","","97.64","","","","-18","","Cloudy"
"-121.24","61.76","FORT SIMPSON A","2202101","2012-02-22 04:00","2012","02","22","04:00","-12.3","","-13.8","","89","","","","33","","13","","25.0","","97.68","","","","-19","","Cloudy"
"-121.24","61.76","FORT SIMPSON A","2202101","2012-02-22 05:00","2012","02","22","05:00","-12.2","","-14.1","","86","","","","33","","13","","12.9","","97.76","","","","-19","","Snow"
"-121.24","61.76","FORT SIMPSON A","2202101","2012-02-22 06:00","2012","02","22","06:00","-12.4","","-14.3","","86","","","","33","","19","","12.9","","97.83","","","","-21","","Snow"
"-121.24","61.76","FORT SIMPSON A","2202101","2012-02-22 07:00","2012","02","22","07:00","-12.5","","-14.5","","85","","","","33","","13","","19.3","","97.92","","","","-19","","Snow"
"-121.24","61.76","FORT SIMPSON A","2202101","2012-02-22 08:00","2012","02","22","08:00","-12.8","","-15.3","","81","","","","33","","13","","24.1","","97.99","","","","-20","","Snow"
"-121.24","61.76","FORT SIMPSON A","2202101","2012-02-22 09:00","2012","02","22","09:00","-13.5","","-15.6","","84","","","","33","","20","","4.8","","98.08","","","","-22","","Snow"
"-121.24","61.76","FORT SIMPSON A","2202101","2012-02-22 10:00","2012","02","22","10:00","-13.4","","-15.5","","84","","","","33","","24","","24.1","","98.19","","","","-23","","Snow"
"-121.24","61.76","FORT SIMPSON A","2202101","2012-02-22 11:00","2012","02","22","11:00","-13.4","","-16.0","","81","","","","34","","22","","24.1","","98.31","","","","-23","","Snow"
"-121.24","61.76","FORT SIMPSON A","2202101","2012-02-22 12:00","2012","02","22","12:00","-13.5","","-15.6","","84","","","","33","","22","","16.1","","98.41","","","","-23","","Snow"
"-121.24","61.76","FORT SIMPSON A","2202101","2012-02-22 13:00","2012","02","22","13:00","-13.4","","-15.5","","84","","","","33","","26","","24.1","","98.56","","","","-23","","Snow"
"-121.24","61.76","FORT SIMPSON A","2202101","2012-02-22 14:00","2012","02","22","14:00","-13.0","","-15.5","","81","","","","34","","20","","12.9","","98.66","","","","-22","","Snow"
"-121.24","61.76","FORT SIMPSON A","2202101","2012-02-22 15:00","2012","02","22","15:00","-12.8","","-15.3","","81","","","","33","","20","","12.9","","98.75","","","","-21","","Snow"
"-121.24","61.76","FORT SIMPSON A","2202101","2012-02-22 16:00","2012","02","22","16:00","-13.5","","-15.6","","84","","","","33","","19","","3.2","","98.86","","","","-22","","Snow"
"-121.24","61.76","FORT SIMPSON A","2202101","2012-02-22 17:00","2012","02","22","17:00","-13.5","","-15.6","","84","","","","33","","20","","4.8","","98.93","","","","-22","","Snow"
"-121.24","61.76","FORT SIMPSON A","2202101","2012-02-22 18:00","2012","02","22","18:00","-14.5","","-16.7","","83","","","","33","","19","","16.1","","99.06","","","","-23","","Snow"
"-121.24","61.76","FORT SIMPSON A","2202101","2012-02-22 19:00","2012","02","22","19:00","-14.9","","-17.2","","83","","","","34","","13","","25.0","","99.16","","","","-22","","Mostly Cloudy"
"-121.24","61.76","FORT SIMPSON A","2202101","2012-02-22 20:00","2012","02","22","20:00","-17.4","","-20.0","","80","","","","31","","7","","25.0","","99.23","","","","-23","","Mainly Clear"
"-121.24","61.76","FORT SIMPSON A","2202101","2012-02-22 21:00","2012","02","22","21:00","-16.4","","-18.9","","81","","","","31","","9","","24.1","","99.31","","","","-22","","Snow"
"-121.24","61.76","FORT SIMPSON A","2202101","2012-02-22 22:00","2012","02","22","22:00","-15.7","","-18.1","","82","","","","33","","13","","24.1","","99.37","","","","-23","","Snow"
"-121.24","61.76","FORT SIMPSON A","2202101","2012-02-22 23:00","2012","02","22","23:00","-15.5","","-17.3","","86","","","","32","","19","","24.1","","99.44","","","","-25","","Snow"
"-121.24","61.76","FORT SIMPSON A","2202101","2012-02-23 00:00","2012","02","23","00:00","-16.7","","-19.2","","81","","","","30","","11","","25.0","","99.44","","","","-24","","Mainly Clear"
"-121.24","61.76","FORT SIMPSON A","2202101","2012-02-23 01:00","2012","02","23","01:00","-17.5","","-20.1","","80","","","","30","","11","","25.0","","99.57","","","","-25","","Mostly Cloudy"
"-121.24","61.76","FORT SIMPSON A","2202101","2012-02-23 02:00","2012","02","23","02:00","-18.4","","-21.2","","79","","","","32","","11","","25.0","","99.66","","","","-26","","Mostly Cloudy"
"-121.24","61.76","FORT SIMPSON A","2202101","2012-02-23 03:00","2012","02","23","03:00","-18.3","","-20.4","","84","","","","31","","9","","25.0","","99.75","","","","-25","","Mostly Cloudy"
"-121.24","61.76","FORT SIMPSON A","2202101","2012-02-23 04:00","2012","02","23","04:00","-18.2","","-20.3","","84","","","","31","","7","","25.0","","99.81","","","","-24","","Mostly Cloudy"
"-121.24","61.76","FORT SIMPSON A","2202101","2012-02-23 05:00","2012","02","23","05:00","-20.0","","-22.2","","83","","","","","","0","","25.0","","99.84","","","","","","Mostly Cloudy"
"-121.24","61.76","FORT SIMPSON A","2202101","2012-02-23 06:00","2012","02","23","06:00","-20.2","","-22.5","","82","","","","32","","4","","25.0","","99.88","","","","-24","","Mostly Cloudy"
"-121.24","61.76","FORT SIMPSON A","2202101","2012-02-23 07:00","2012","02","23","07:00","-20.2","","-22.5","","82","","","","32","","4","","24.1","","99.92","","","","-24","","Snow"
"-121.24","61.76","FORT SIMPSON A","2202101","2012-02-23 08:00","2012","02","23","08:00","-20.3","","-22.6","","82","","","","30","","4","","24.1","","99.97","","","","-24","","Snow"
"-121.24","61.76","FORT SIMPSON A","2202101","2012-02-23 09:00","2012","02","23","09:00","-17.8","","-19.8","","84","","","","","","0","","24.1","","100.01","","","","","","Snow"
"-121.24","61.76","FORT SIMPSON A","2202101","2012-02-23 10:00","2012","02","23","10:00","-17.0","","-19.0","","84","","","","32","","7","","24.1","","100.06","","","","-22","","Snow"
"-121.24","61.76","FORT SIMPSON A","2202101","2012-02-23 11:00","2012","02","23","11:00","-16.5","","-19.0","","81","","","","34","","7","","24.1","","100.09","","","","-22","","Snow"
"-121.24","61.76","FORT SIMPSON A","2202101","2012-02-23 12:00","2012","02","23","12:00","-15.5","","-18.4","","78","","","","33","","7","","25.0","","100.12","","","","-20","","Mostly Cloudy"
"-121.24","61.76","FORT SIMPSON A","2202101","2012-02-23 13:00","2012","02","23","13:00","-15.1","","-18.6","","75","","","","33","","4","","25.0","","100.15","","","","-18","","Mostly Cloudy"
"-121.24","61.76","FORT SIMPSON A","2202101","2012-02-23 14:00","2012","02","23","14:00","-14.8","","-17.6","","79","","","","","","0","","25.0","","100.18","","","","","","Mostly Cloudy"
"-121.24","61.76","FORT SIMPSON A","2202101","2012-02-23 15:00","2012","02","23","15:00","-13.0","","-17.1","","71","","","","","","0","","25.0","","100.19","","","","","","Mostly Cloudy"
"-121.24","61.76","FORT SIMPSON A","2202101","2012-02-23 16:00","2012","02","23","16:00","-12.9","","-17.5","","68","","","","","","0","","25.0","","100.20","","","","","","Mostly Cloudy"
"-121.24","61.76","FORT SIMPSON A","2202101","2012-02-23 17:00","2012","02","23","17:00","-13.0","","-17.1","","71","","","","24","","6","","25.0","","100.22","","","","-17","","Mostly Cloudy"
"-121.24","61.76","FORT SIMPSON A","2202101","2012-02-23 18:00","2012","02","23","18:00","-14.6","","-18.5","","72","","","","21","","4","","25.0","","100.22","","","","-17","","Mostly Cloudy"
"-121.24","61.76","FORT SIMPSON A","2202101","2012-02-23 19:00","2012","02","23","19:00","-16.5","","-20.3","","72","","","","16","","6","","25.0","","100.19","","","","-21","","Mostly Cloudy"
"-121.24","61.76","FORT SIMPSON A","2202101","2012-02-23 20:00","2012","02","23","20:00","-15.6","","-19.8","","70","","","","","","0","","25.0","","100.21","","","","","","Mainly Clear"
"-121.24","61.76","FORT SIMPSON A","2202101","2012-02-23 21:00","2012","02","23","21:00","-16.3","","-20.0","","73","","","","","","0","","25.0","","100.22","","","","","","Mainly Clear"
"-121.24","61.76","FORT SIMPSON A","2202101","2012-02-23 22:00","2012","02","23","22:00","-16.2","","-19.3","","77","","","","13","","4","","25.0","","100.24","","","","-19","","Mainly Clear"
"-121.24","61.76","FORT SIMPSON A","2202101","2012-02-23 23:00","2012","02","23","23:00","-17.9","","-20.6","","79","","","","16","","4","","25.0","","100.26","","","","-21","","Mainly Clear"
"-121.24","61.76","FORT SIMPSON A","2202101","2012-02-24 00:00","2012","02","24","00:00","-19.5","","-21.7","","83","","","","","","0","","25.0","","100.27","","","","","","Mainly Clear"
"-121.24","61.76","FORT SIMPSON A","2202101","2012-02-24 01:00","2012","02","24","01:00","-17.8","","-21.2","","75","","","","14","","7","","25.0","","100.29","","","","-23","","Mainly Clear"
"-121.24","61.76","FORT SIMPSON A","2202101","2012-02-24 02:00","2012","02","24","02:00","-18.4","","-20.5","","84","","","","14","","6","","25.0","","100.34","","","","-23","","Mainly Clear"
"-121.24","61.76","FORT SIMPSON A","2202101","2012-02-24 03:00","2012","02","24","03:00","-18.6","","-21.4","","79","","","","13","","7","","25.0","","100.33","","","","-24","","Mainly Clear"
"-121.24","61.76","FORT SIMPSON A","2202101","2012-02-24 04:00","2012","02","24","04:00","-19.5","","-21.7","","83","","","","","","0","","25.0","","100.40","","","","","","Mostly Cloudy"
"-121.24","61.76","FORT SIMPSON A","2202101","2012-02-24 05:00","2012","02","24","05:00","-20.2","","-22.5","","82","","","","13","","6","","25.0","","100.38","","","","-25","","Mostly Cloudy"
"-121.24","61.76","FORT SIMPSON A","2202101","2012-02-24 06:00","2012","02","24","06:00","-19.8","","-22.0","","83","","","","13","","4","","25.0","","100.40","","","","-23","","Mostly Cloudy"
"-121.24","61.76","FORT SIMPSON A","2202101","2012-02-24 07:00","2012","02","24","07:00","-20.3","","-22.6","","82","","","","14","","4","","25.0","","100.39","","","","-24","","Mainly Clear"
"-121.24","61.76","FORT SIMPSON A","2202101","2012-02-24 08:00","2012","02","24","08:00","-20.5","","-22.8","","82","","","","12","","7","","25.0","","100.44","","","","-26","","Mostly Cloudy"
"-121.24","61.76","FORT SIMPSON A","2202101","2012-02-24 09:00","2012","02","24","09:00","-20.4","","-22.7","","82","","","","9","","4","","25.0","","100.46","","","","-24","","Mostly Cloudy"
"-121.24","61.76","FORT SIMPSON A","2202101","2012-02-24 10:00","2012","02","24","10:00","-19.4","","-22.3","","78","","","","13","","4","","25.0","","100.50","","","","-23","","Mostly Cloudy"
"-121.24","61.76","FORT SIMPSON A","2202101","2012-02-24 11:00","2012","02","24","11:00","-17.8","","-21.2","","75","","","","","","0","","25.0","","100.55","","","","","","Mostly Cloudy"
"-121.24","61.76","FORT SIMPSON A","2202101","2012-02-24 12:00","2012","02","24","12:00","-16.1","","-20.4","","69","","","","","","0","","25.0","","100.55","","","","","","Mostly Cloudy"
"-121.24","61.76","FORT SIMPSON A","2202101","2012-02-24 13:00","2012","02","24","13:00","-14.5","","-19.0","","69","","","","","","0","","25.0","","100.53","","","","","","Mostly Cloudy"
"-121.24","61.76","FORT SIMPSON A","2202101","2012-02-24 14:00","2012","02","24","14:00","-14.0","","-19.0","","66","","","","","","0","","25.0","","100.52","","","","","","Mostly Cloudy"
"-121.24","61.76","FORT SIMPSON A","2202101","2012-02-24 15:00","2012","02","24","15:00","-13.0","","-17.6","","68","","","","","","0","","25.0","","100.51","","","","","","Mostly Cloudy"
"-121.24","61.76","FORT SIMPSON A","2202101","2012-02-24 16:00","2012","02","24","16:00","-13.5","","-17.2","","74","","","","33","","9","","25.0","","100.53","","","","-19","","Mostly Cloudy"
"-121.24","61.76","FORT SIMPSON A","2202101","2012-02-24 17:00","2012","02","24","17:00","-13.8","","-17.0","","77","","","","36","","7","","25.0","","100.51","","","","-18","","Mostly Cloudy"
"-121.24","61.76","FORT SIMPSON A","2202101","2012-02-24 18:00","2012","02","24","18:00","-14.4","","-17.1","","80","","","","34","","7","","25.0","","100.53","","","","-19","","Mostly Cloudy"
"-121.24","61.76","FORT SIMPSON A","2202101","2012-02-24 19:00","2012","02","24","19:00","-14.9","","-17.7","","79","","","","33","","9","","25.0","","100.55","","","","-21","","Snow"
"-121.24","61.76","FORT SIMPSON A","2202101","2012-02-24 20:00","2012","02","24","20:00","-15.5","","-19.0","","74","","","","33","","9","","16.1","","100.59","","","","-21","","Snow"
"-121.24","61.76","FORT SIMPSON A","2202101","2012-02-24 21:00","2012","02","24","21:00","-15.9","","-18.9","","78","","","","32","","11","","16.1","","100.62","","","","-23","","Snow"
"-121.24","61.76","FORT SIMPSON A","2202101","2012-02-24 22:00","2012","02","24","22:00","-16.4","","-18.9","","81","","","","33","","11","","9.7","","100.63","","","","-23","","Snow"
"-121.24","61.76","FORT SIMPSON A","2202101","2012-02-24 23:00","2012","02","24","23:00","-16.6","","-19.7","","77","","","","34","","7","","12.9","","100.65","","","","-22","","Snow"
"-121.24","61.76","FORT SIMPSON A","2202101","2012-02-25 00:00","2012","02","25","00:00","-16.9","","-19.5","","80","","","","33","","7","","12.9","","100.68","","","","-22","","Snow"
"-121.24","61.76","FORT SIMPSON A","2202101","2012-02-25 01:00","2012","02","25","01:00","-17.1","","-20.3","","76","","","","33","","7","","12.9","","100.70","","","","-22","","Snow"
"-121.24","61.76","FORT SIMPSON A","2202101","2012-02-25 02:00","2012","02","25","02:00","-16.8","","-19.3","","81","","","","33","","9","","12.9","","100.71","","","","-23","","Snow"
"-121.24","61.76","FORT SIMPSON A","2202101","2012-02-25 03:00","2012","02","25","03:00","-17.2","","-20.4","","76","","","","34","","11","","16.1","","100.74","","","","-24","","Snow"
"-121.24","61.76","FORT SIMPSON A","2202101","2012-02-25 04:00","2012","02","25","04:00","-18.0","","-20.7","","79","","","","33","","13","","19.3","","100.77","","","","-26","","Snow"
"-121.24","61.76","FORT SIMPSON A","2202101","2012-02-25 05:00","2012","02","25","05:00","-18.2","","-21.6","","75","","","","32","","19","","24.1","","100.78","","","","-28","","Snow"
"-121.24","61.76","FORT SIMPSON A","2202101","2012-02-25 06:00","2012","02","25","06:00","-18.7","","-22.2","","74","","","","33","","17","","24.1","","100.80","","","","-28","","Snow"
"-121.24","61.76","FORT SIMPSON A","2202101","2012-02-25 07:00","2012","02","25","07:00","-18.9","","-21.7","","79","","","","33","","19","","24.1","","100.84","","","","-29","","Snow"
"-121.24","61.76","FORT SIMPSON A","2202101","2012-02-25 08:00","2012","02","25","08:00","-19.0","","-21.1","","83","","","","32","","19","","24.1","","100.88","","","","-29","","Snow"
"-121.24","61.76","FORT SIMPSON A","2202101","2012-02-25 09:00","2012","02","25","09:00","-18.9","","-21.7","","79","","","","34","","19","","24.1","","100.90","","","","-29","","Snow"
"-121.24","61.76","FORT SIMPSON A","2202101","2012-02-25 10:00","2012","02","25","10:00","-18.8","","-22.4","","73","","","","34","","11","","24.1","","100.96","","","","-26","","Snow"
"-121.24","61.76","FORT SIMPSON A","2202101","2012-02-25 11:00","2012","02","25","11:00","-18.6","","-22.1","","74","","","","34","","9","","24.1","","100.97","","","","-25","","Snow"
"-121.24","61.76","FORT SIMPSON A","2202101","2012-02-25 12:00","2012","02","25","12:00","-17.4","","-21.4","","71","","","","33","","7","","25.0","","100.98","","","","-23","","Snow"
"-121.24","61.76","FORT SIMPSON A","2202101","2012-02-25 13:00","2012","02","25","13:00","-16.5","","-20.3","","72","","","","33","","7","","25.0","","100.97","","","","-22","","Mostly Cloudy"
"-121.24","61.76","FORT SIMPSON A","2202101","2012-02-25 14:00","2012","02","25","14:00","-15.9","","-20.9","","65","","","","32","","4","","25.0","","100.98","","","","-19","","Mostly Cloudy"
"-121.24","61.76","FORT SIMPSON A","2202101","2012-02-25 15:00","2012","02","25","15:00","-15.3","","-19.4","","71","","","","34","","7","","25.0","","100.96","","","","-20","","Mostly Cloudy"
"-121.24","61.76","FORT SIMPSON A","2202101","2012-02-25 16:00","2012","02","25","16:00","-15.2","","-19.3","","71","","","","31","","4","","25.0","","100.95","","","","-18","","Mostly Cloudy"
"-121.24","61.76","FORT SIMPSON A","2202101","2012-02-25 17:00","2012","02","25","17:00","-15.9","","-19.5","","74","","","","32","","4","","25.0","","100.94","","","","-19","","Mainly Clear"
"-121.24","61.76","FORT SIMPSON A","2202101","2012-02-25 18:00","2012","02","25","18:00","-17.1","","-21.0","","72","","","","33","","4","","25.0","","100.91","","","","-20","","Mostly Cloudy"
"-121.24","61.76","FORT SIMPSON A","2202101","2012-02-25 19:00","2012","02","25","19:00","-19.0","","-22.6","","73","","","","","","0","","25.0","","100.90","","","","","","Mostly Cloudy"
"-121.24","61.76","FORT SIMPSON A","2202101","2012-02-25 20:00","2012","02","25","20:00","-20.3","","-22.6","","82","","","","","","0","","25.0","","100.91","","","","","","Mainly Clear"
"-121.24","61.76","FORT SIMPSON A","2202101","2012-02-25 21:00","2012","02","25","21:00","-23.2","","-24.8","","87","","","","","","0","","25.0","","100.90","","","","","","Mainly Clear"
"-121.24","61.76","FORT SIMPSON A","2202101","2012-02-25 22:00","2012","02","25","22:00","-23.8","","-25.4","","87","","","","","","0","","25.0","","100.85","","","","","","Mainly Clear"
"-121.24","61.76","FORT SIMPSON A","2202101","2012-02-25 23:00","2012","02","25","23:00","-24.7","","-26.3","","87","","","","","","0","","25.0","","100.81","","","","","","Mainly Clear"
"-121.24","61.76","FORT SIMPSON A","2202101","2012-02-26 00:00","2012","02","26","00:00","-22.4","","-24.9","","80","","","","","","0","","25.0","","100.80","","","","","","Mostly Cloudy"
"-121.24","61.76","FORT SIMPSON A","2202101","2012-02-26 01:00","2012","02","26","01:00","-20.7","","-22.2","","88","","","","9","","4","","25.0","","100.73","","","","-24","","Mainly Clear"
"-121.24","61.76","FORT SIMPSON A","2202101","2012-02-26 02:00","2012","02","26","02:00","-21.4","","-23.0","","87","","","","","","0","","25.0","","100.67","","","","","","Mostly Cloudy"
"-121.24","61.76","FORT SIMPSON A","2202101","2012-02-26 03:00","2012","02","26","03:00","-21.3","","-23.7","","81","","","","13","","7","","25.0","","100.63","","","","-27","","Mainly Clear"
"-121.24","61.76","FORT SIMPSON A","2202101","2012-02-26 04:00","2012","02","26","04:00","-21.6","","-24.0","","81","","","","12","","6","","25.0","","100.59","","","","-27","","Mainly Clear"
"-121.24","61.76","FORT SIMPSON A","2202101","2012-02-26 05:00","2012","02","26","05:00","-22.1","","-23.7","","87","","","","12","","6","","25.0","","100.54","","","","-27","","Mainly Clear"
"-121.24","61.76","FORT SIMPSON A","2202101","2012-02-26 06:00","2012","02","26","06:00","-22.8","","-24.4","","87","","","","14","","6","","25.0","","100.46","","","","-28","","Mainly Clear"
"-121.24","61.76","FORT SIMPSON A","2202101","2012-02-26 07:00","2012","02","26","07:00","-23.4","","-25.0","","87","","","","11","","9","","25.0","","100.42","","","","-31","","Mainly Clear"
"-121.24","61.76","FORT SIMPSON A","2202101","2012-02-26 08:00","2012","02","26","08:00","-23.6","","-25.2","","87","","","","12","","6","","25.0","","100.36","","","","-29","","Clear"
"-121.24","61.76","FORT SIMPSON A","2202101","2012-02-26 09:00","2012","02","26","09:00","-23.6","","-25.2","","87","","","","12","","9","","25.0","","100.31","","","","-31","","Mainly Clear"
"-121.24","61.76","FORT SIMPSON A","2202101","2012-02-26 10:00","2012","02","26","10:00","-23.4","","-26.9","","73","","","","12","","9","","25.0","","100.32","","","","-31","","Mainly Clear"
"-121.24","61.76","FORT SIMPSON A","2202101","2012-02-26 11:00","2012","02","26","11:00","-21.1","","-25.2","","70","","","","15","","7","","25.0","","100.24","","","","-27","","Mainly Clear"
"-121.24","61.76","FORT SIMPSON A","2202101","2012-02-26 12:00","2012","02","26","12:00","-18.0","","-22.9","","65","","","","15","","6","","25.0","","100.12","","","","-23","","Mainly Clear"
"-121.24","61.76","FORT SIMPSON A","2202101","2012-02-26 13:00","2012","02","26","13:00","-15.6","","-19.8","","70","","","","16","","4","","25.0","","100.07","","","","-19","","Mainly Clear"
"-121.24","61.76","FORT SIMPSON A","2202101","2012-02-26 14:00","2012","02","26","14:00","-14.5","","-20.3","","61","","","","13","","4","","25.0","","100.00","","","","-17","","Mainly Clear"
"-121.24","61.76","FORT SIMPSON A","2202101","2012-02-26 15:00","2012","02","26","15:00","-13.5","","-20.9","","54","","","","16","","4","","25.0","","99.92","","","","-16","","Mainly Clear"
"-121.24","61.76","FORT SIMPSON A","2202101","2012-02-26 16:00","2012","02","26","16:00","-13.2","","-19.8","","58","","","","13","","4","","25.0","","99.81","","","","-16","","Mostly Cloudy"
"-121.24","61.76","FORT SIMPSON A","2202101","2012-02-26 17:00","2012","02","26","17:00","-13.8","","-18.7","","66","","","","15","","7","","25.0","","99.75","","","","-18","","Mostly Cloudy"
"-121.24","61.76","FORT SIMPSON A","2202101","2012-02-26 18:00","2012","02","26","18:00","-13.9","","-18.8","","66","","","","11","","4","","25.0","","99.68","","","","-17","","Cloudy"
"-121.24","61.76","FORT SIMPSON A","2202101","2012-02-26 19:00","2012","02","26","19:00","-14.6","","-18.5","","72","","","","14","","6","","25.0","","99.52","","","","-19","","Mostly Cloudy"
"-121.24","61.76","FORT SIMPSON A","2202101","2012-02-26 20:00","2012","02","26","20:00","-15.2","","-19.9","","67","","","","14","","11","","25.0","","99.43","","","","-22","","Cloudy"
"-121.24","61.76","FORT SIMPSON A","2202101","2012-02-26 21:00","2012","02","26","21:00","-15.3","","-19.4","","71","","","","13","","6","","25.0","","99.30","","","","-20","","Cloudy"
"-121.24","61.76","FORT SIMPSON A","2202101","2012-02-26 22:00","2012","02","26","22:00","-15.2","","-19.9","","67","","","","","","0","","25.0","","99.21","","","","","","Cloudy"
"-121.24","61.76","FORT SIMPSON A","2202101","2012-02-26 23:00","2012","02","26","23:00","-15.2","","-19.9","","67","","","","10","","6","","25.0","","99.16","","","","-19","","Mostly Cloudy"
"-121.24","61.76","FORT SIMPSON A","2202101","2012-02-27 00:00","2012","02","27","00:00","-15.7","","-19.3","","74","","","","11","","7","","25.0","","99.05","","","","-21","","Mainly Clear"
"-121.24","61.76","FORT SIMPSON A","2202101","2012-02-27 01:00","2012","02","27","01:00","-16.0","","-19.0","","78","","","","11","","6","","25.0","","99.01","","","","-20","","Mainly Clear"
"-121.24","61.76","FORT SIMPSON A","2202101","2012-02-27 02:00","2012","02","27","02:00","-16.2","","-19.3","","77","","","","11","","6","","25.0","","98.94","","","","-21","","Mainly Clear"
"-121.24","61.76","FORT SIMPSON A","2202101","2012-02-27 03:00","2012","02","27","03:00","-17.2","","-19.8","","80","","","","13","","7","","25.0","","98.92","","","","-22","","Mainly Clear"
"-121.24","61.76","FORT SIMPSON A","2202101","2012-02-27 04:00","2012","02","27","04:00","-17.9","","-20.6","","79","","","","15","","7","","25.0","","98.86","","","","-23","","Mainly Clear"
"-121.24","61.76","FORT SIMPSON A","2202101","2012-02-27 05:00","2012","02","27","05:00","-18.7","","-21.5","","79","","","","17","","6","","25.0","","98.84","","","","-24","","Mainly Clear"
"-121.24","61.76","FORT SIMPSON A","2202101","2012-02-27 06:00","2012","02","27","06:00","-19.0","","-21.1","","83","","","","16","","6","","25.0","","98.84","","","","-24","","Mainly Clear"
"-121.24","61.76","FORT SIMPSON A","2202101","2012-02-27 07:00","2012","02","27","07:00","-21.6","","-24.0","","81","","","","","","0","","25.0","","98.81","","","","","","Clear"
"-121.24","61.76","FORT SIMPSON A","2202101","2012-02-27 08:00","2012","02","27","08:00","-21.8","","-23.4","","87","","","","","","0","","25.0","","98.75","","","","","","Mostly Cloudy"
"-121.24","61.76","FORT SIMPSON A","2202101","2012-02-27 09:00","2012","02","27","09:00","-19.6","","-21.8","","83","","","","","","0","","25.0","","98.72","","","","","","Cloudy"
"-121.24","61.76","FORT SIMPSON A","2202101","2012-02-27 10:00","2012","02","27","10:00","-19.0","","-21.1","","83","","","","15","","6","","25.0","","98.73","","","","-24","","Cloudy"
"-121.24","61.76","FORT SIMPSON A","2202101","2012-02-27 11:00","2012","02","27","11:00","-16.9","","-20.1","","76","","","","12","","9","","25.0","","98.69","","","","-23","","Mostly Cloudy"
"-121.24","61.76","FORT SIMPSON A","2202101","2012-02-27 12:00","2012","02","27","12:00","-15.6","","-18.6","","78","","","","16","","11","","25.0","","98.63","","","","-22","","Mostly Cloudy"
"-121.24","61.76","FORT SIMPSON A","2202101","2012-02-27 13:00","2012","02","27","13:00","-14.1","","-17.3","","77","","","","15","","7","","25.0","","98.60","","","","-19","","Mostly Cloudy"
"-121.24","61.76","FORT SIMPSON A","2202101","2012-02-27 14:00","2012","02","27","14:00","-11.6","","-14.8","","77","","","","15","","7","","25.0","","98.57","","","","-16","","Mostly Cloudy"
"-121.24","61.76","FORT SIMPSON A","2202101","2012-02-27 15:00","2012","02","27","15:00","-10.8","","-16.9","","61","","","","14","","13","","25.0","","98.54","","","","-17","","Cloudy"
"-121.24","61.76","FORT SIMPSON A","2202101","2012-02-27 16:00","2012","02","27","16:00","-10.3","","-15.6","","65","","","","10","","7","","25.0","","98.52","","","","-14","","Cloudy"
"-121.24","61.76","FORT SIMPSON A","2202101","2012-02-27 17:00","2012","02","27","17:00","-10.6","","-13.6","","79","","","","14","","4","","25.0","","98.50","","","","-13","","Cloudy"
"-121.24","61.76","FORT SIMPSON A","2202101","2012-02-27 18:00","2012","02","27","18:00","-11.3","","-15.9","","69","","","","13","","9","","25.0","","98.49","","","","-16","","Cloudy"
"-121.24","61.76","FORT SIMPSON A","2202101","2012-02-27 19:00","2012","02","27","19:00","-12.3","","-15.2","","79","","","","12","","9","","25.0","","98.50","","","","-18","","Cloudy"
"-121.24","61.76","FORT SIMPSON A","2202101","2012-02-27 20:00","2012","02","27","20:00","-13.7","","-15.8","","84","","","","11","","11","","25.0","","98.51","","","","-20","","Cloudy"
"-121.24","61.76","FORT SIMPSON A","2202101","2012-02-27 21:00","2012","02","27","21:00","-14.0","","-16.7","","80","","","","11","","11","","25.0","","98.48","","","","-20","","Cloudy"
"-121.24","61.76","FORT SIMPSON A","2202101","2012-02-27 22:00","2012","02","27","22:00","-13.3","","-15.9","","81","","","","12","","6","","25.0","","98.48","","","","-17","","Cloudy"
"-121.24","61.76","FORT SIMPSON A","2202101","2012-02-27 23:00","2012","02","27","23:00","-13.2","","-15.2","","85","","","","","","0","","25.0","","98.46","","","","","","Cloudy"
"-121.24","61.76","FORT SIMPSON A","2202101","2012-02-28 00:00","2012","02","28","00:00","-13.3","","-14.9","","88","","","","","","0","","25.0","","98.50","","","","","","Cloudy"
"-121.24","61.76","FORT SIMPSON A","2202101","2012-02-28 01:00","2012","02","28","01:00","-13.3","","-14.9","","88","","","","","","0","","25.0","","98.55","","","","","","Cloudy"
"-121.24","61.76","FORT SIMPSON A","2202101","2012-02-28 02:00","2012","02","28","02:00","-15.3","","-17.1","","86","","","","33","","11","","25.0","","98.60","","","","-22","","Cloudy"
"-121.24","61.76","FORT SIMPSON A","2202101","2012-02-28 03:00","2012","02","28","03:00","-15.4","","-17.7","","83","","","","34","","7","","16.1","","98.65","","","","-20","","Snow"
"-121.24","61.76","FORT SIMPSON A","2202101","2012-02-28 04:00","2012","02","28","04:00","-15.7","","-18.1","","82","","","","33","","11","","3.2","","98.69","","","","-22","","Snow"
"-121.24","61.76","FORT SIMPSON A","2202101","2012-02-28 05:00","2012","02","28","05:00","-15.8","","-18.2","","82","","","","33","","17","","1.6","","98.70","","","","-24","","Snow"
"-121.24","61.76","FORT SIMPSON A","2202101","2012-02-28 06:00","2012","02","28","06:00","-15.5","","-17.3","","86","","","","33","","17","","1.6","","98.73","","","","-24","","Snow"
"-121.24","61.76","FORT SIMPSON A","2202101","2012-02-28 07:00","2012","02","28","07:00","-15.5","","-17.3","","86","","","","34","","19","","1.6","","98.81","","","","-25","","Snow"
"-121.24","61.76","FORT SIMPSON A","2202101","2012-02-28 08:00","2012","02","28","08:00","-15.4","","-17.2","","86","","","","34","","20","","1.6","","98.86","","","","-25","","Snow"
"-121.24","61.76","FORT SIMPSON A","2202101","2012-02-28 09:00","2012","02","28","09:00","-15.4","","-17.2","","86","","","","35","","22","","2.4","","98.93","","","","-25","","Snow"
"-121.24","61.76","FORT SIMPSON A","2202101","2012-02-28 10:00","2012","02","28","10:00","-15.8","","-17.6","","86","","","","34","","26","","2.4","","98.99","","","","-26","","Snow"
"-121.24","61.76","FORT SIMPSON A","2202101","2012-02-28 11:00","2012","02","28","11:00","-16.5","","-18.4","","85","","","","32","","28","","2.4","","99.09","","","","-28","","Snow"
"-121.24","61.76","FORT SIMPSON A","2202101","2012-02-28 12:00","2012","02","28","12:00","-16.4","","-18.9","","81","","","","33","","28","","4.8","","99.15","","","","-28","","Snow"
"-121.24","61.76","FORT SIMPSON A","2202101","2012-02-28 13:00","2012","02","28","13:00","-16.1","","-18.5","","82","","","","34","","26","","16.1","","99.24","","","","-27","","Mainly Clear"
"-121.24","61.76","FORT SIMPSON A","2202101","2012-02-28 14:00","2012","02","28","14:00","-16.4","","-18.9","","81","","","","34","","30","","16.1","","99.32","","","","-28","","Cloudy"
"-121.24","61.76","FORT SIMPSON A","2202101","2012-02-28 15:00","2012","02","28","15:00","-16.5","","-19.0","","81","","","","35","","28","","16.1","","99.37","","","","-28","","Cloudy"
"-121.24","61.76","FORT SIMPSON A","2202101","2012-02-28 16:00","2012","02","28","16:00","-16.8","","-19.3","","81","","","","35","","30","","16.1","","99.43","","","","-28","","Cloudy"
"-121.24","61.76","FORT SIMPSON A","2202101","2012-02-28 17:00","2012","02","28","17:00","-17.1","","-19.7","","80","","","","32","","28","","9.7","","99.47","","","","-28","","Snow"
"-121.24","61.76","FORT SIMPSON A","2202101","2012-02-28 18:00","2012","02","28","18:00","-17.5","","-20.1","","80","","","","32","","28","","9.7","","99.54","","","","-29","","Snow"
"-121.24","61.76","FORT SIMPSON A","2202101","2012-02-28 19:00","2012","02","28","19:00","-17.9","","-20.6","","79","","","","34","","22","","4.0","","99.58","","","","-28","","Snow"
"-121.24","61.76","FORT SIMPSON A","2202101","2012-02-28 20:00","2012","02","28","20:00","-18.5","","-21.3","","79","","","","33","","22","","3.2","","99.65","","","","-29","","Snow"
"-121.24","61.76","FORT SIMPSON A","2202101","2012-02-28 21:00","2012","02","28","21:00","-19.0","","-21.1","","83","","","","33","","20","","4.8","","99.70","","","","-29","","Snow"
"-121.24","61.76","FORT SIMPSON A","2202101","2012-02-28 22:00","2012","02","28","22:00","-19.4","","-21.6","","83","","","","34","","20","","4.0","","99.70","","","","-30","","Snow"
"-121.24","61.76","FORT SIMPSON A","2202101","2012-02-28 23:00","2012","02","28","23:00","-20.2","","-22.5","","82","","","","34","","24","","3.2","","99.73","","","","-32","","Snow"
"-121.24","61.76","FORT SIMPSON A","2202101","2012-02-29 00:00","2012","02","29","00:00","-20.7","","-23.0","","82","","","","34","","24","","1.6","","99.77","","","","-32","","Snow"
"-121.24","61.76","FORT SIMPSON A","2202101","2012-02-29 01:00","2012","02","29","01:00","-20.6","","-22.9","","82","","","","34","","22","","12.9","","99.80","","","","-32","","Snow"
"-121.24","61.76","FORT SIMPSON A","2202101","2012-02-29 02:00","2012","02","29","02:00","-21.6","","-24.0","","81","","","","34","","20","","16.1","","99.83","","","","-32","","Snow"
"-121.24","61.76","FORT SIMPSON A","2202101","2012-02-29 03:00","2012","02","29","03:00","-22.4","","-24.9","","80","","","","34","","22","","19.3","","99.87","","","","-34","","Snow"
"-121.24","61.76","FORT SIMPSON A","2202101","2012-02-29 04:00","2012","02","29","04:00","-23.3","","-25.8","","80","","","","33","","24","","19.3","","99.90","","","","-36","","Snow"
"-121.24","61.76","FORT SIMPSON A","2202101","2012-02-29 05:00","2012","02","29","05:00","-24.0","","-26.6","","79","","","","33","","22","","24.1","","99.94","","","","-36","","Snow"
"-121.24","61.76","FORT SIMPSON A","2202101","2012-02-29 06:00","2012","02","29","06:00","-24.5","","-27.1","","79","","","","33","","22","","24.1","","99.99","","","","-37","","Snow"
"-121.24","61.76","FORT SIMPSON A","2202101","2012-02-29 07:00","2012","02","29","07:00","-25.0","","-27.7","","78","","","","33","","24","","25.0","","99.99","","","","-38","","Mainly Clear"
"-121.24","61.76","FORT SIMPSON A","2202101","2012-02-29 08:00","2012","02","29","08:00","-24.8","","-27.5","","78","","","","33","","22","","25.0","","100.03","","","","-37","","Mainly Clear"
"-121.24","61.76","FORT SIMPSON A","2202101","2012-02-29 09:00","2012","02","29","09:00","-24.3","","-26.9","","79","","","","33","","19","","25.0","","100.03","","","","-36","","Mostly Cloudy"
"-121.24","61.76","FORT SIMPSON A","2202101","2012-02-29 10:00","2012","02","29","10:00","-23.6","","-26.2","","79","","","","35","","20","","25.0","","100.06","","","","-35","","Cloudy"
"-121.24","61.76","FORT SIMPSON A","2202101","2012-02-29 11:00","2012","02","29","11:00","-23.4","","-26.9","","73","","","","33","","19","","19.3","","100.10","","","","-34","","Snow"
"-121.24","61.76","FORT SIMPSON A","2202101","2012-02-29 12:00","2012","02","29","12:00","-22.9","","-26.4","","73","","","","33","","19","","9.7","","100.13","","","","-34","","Snow"
"-121.24","61.76","FORT SIMPSON A","2202101","2012-02-29 13:00","2012","02","29","13:00","-22.7","","-26.1","","74","","","","32","","20","","19.3","","100.15","","","","-34","","Snow"
"-121.24","61.76","FORT SIMPSON A","2202101","2012-02-29 14:00","2012","02","29","14:00","-22.5","","-25.9","","74","","","","35","","19","","24.1","","100.16","","","","-33","","Snow"
"-121.24","61.76","FORT SIMPSON A","2202101","2012-02-29 15:00","2012","02","29","15:00","-22.0","","-26.3","","68","","","","34","","15","","19.3","","100.18","","","","-32","","Snow"
"-121.24","61.76","FORT SIMPSON A","2202101","2012-02-29 16:00","2012","02","29","16:00","-21.8","","-26.0","","69","","","","34","","19","","19.3","","100.18","","","","-32","","Snow"
"-121.24","61.76","FORT SIMPSON A","2202101","2012-02-29 17:00","2012","02","29","17:00","-21.8","","-25.1","","75","","","","34","","17","","19.3","","100.19","","","","-32","","Snow"
"-121.24","61.76","FORT SIMPSON A","2202101","2012-02-29 18:00","2012","02","29","18:00","-21.9","","-25.2","","75","","","","33","","19","","19.3","","100.20","","","","-33","","Snow"
"-121.24","61.76","FORT SIMPSON A","2202101","2012-02-29 19:00","2012","02","29","19:00","-22.1","","-25.4","","75","","","","32","","15","","24.1","","100.21","","","","-32","","Snow"
"-121.24","61.76","FORT SIMPSON A","2202101","2012-02-29 20:00","2012","02","29","20:00","-21.9","","-25.2","","75","","","","33","","13","","24.1","","100.25","","","","-31","","Snow"
"-121.24","61.76","FORT SIMPSON A","2202101","2012-02-29 21:00","2012","02","29","21:00","-21.6","","-24.8","","75","","","","33","","13","","24.1","","100.26","","","","-30","","Snow"
"-121.24","61.76","FORT SIMPSON A","2202101","2012-02-29 22:00","2012","02","29","22:00","-21.5","","-23.9","","81","","","","34","","7","","24.1","","100.25","","","","-27","","Snow"
"-121.24","61.76","FORT SIMPSON A","2202101","2012-02-29 23:00","2012","02","29","23:00","-21.4","","-24.6","","75","","","","34","","7","","2.4","","100.27","","","","-27","","Snow"
