"Longitude (x)","Latitude (y)","Station Name","Climate ID","Date/Time (LST)","Year","Month","Day","Time (LST)","Temp (°C)","Temp Flag","Dew Point Temp (°C)","Dew Point Temp Flag","Rel Hum (%)","Rel Hum Flag","Precip. Amount (mm)","Precip. Amount Flag","Wind Dir (10s deg)","Wind Dir Flag","Wind Spd (km/h)","Wind Spd Flag","Visibility (km)","Visibility Flag","Stn Press (kPa)","Stn Press Flag","Hmdx","Hmdx Flag","Wind Chill","Wind Chill Flag","Weather"
"-89.33","48.37","THUNDER BAY CS","6048268","2019-01-01 00:00","2019","01","01","00:00","-20.8","","-24.3","","73","","0.0","","29","","13","","","","100.04","","","","-29","","NA"
"-89.33","48.37","THUNDER BAY CS","6048268","2019-01-01 01:00","2019","01","01","01:00","-21.8","","-25.6","","71","","0.0","","28","","10","","","","100.12","","","","-29","","NA"
"-89.33","48.37","THUNDER BAY CS","6048268","2019-01-01 02:00","2019","01","01","02:00","-22.1","","-25.8","","72","","0.0","","30","","16","","","","100.21","","","","-32","","NA"
"-89.33","48.37","THUNDER BAY CS","6048268","2019-01-01 03:00","2019","01","01","03:00","-24.2","","-28.0","","71","","0.0","","27","","15","","","","100.31","","","","-34","","NA"
"-89.33","48.37","THUNDER BAY CS","6048268","2019-01-01 04:00","2019","01","01","04:00","-22.7","","-26.5","","71","","0.0","","25","","12","","","","100.39","","","","-31","","NA"
"-89.33","48.37","THUNDER BAY CS","6048268","2019-01-01 05:00","2019","01","01","05:00","-23.8","","-27.1","","75","","0.0","","22","","11","","","","100.46","","","","-32","","NA"
"-89.33","48.37","THUNDER BAY CS","6048268","2019-01-01 06:00","2019","01","01","06:00","-24.0","","-27.5","","72","","0.0","","24","","11","","","","100.50","","","","-32","","NA"
"-89.33","48.37","THUNDER BAY CS","6048268","2019-01-01 07:00","2019","01","01","07:00","-24.3","","-28.1","","70","","0.0","","25","","15","","","","100.57","","","","-34","","NA"
"-89.33","48.37","THUNDER BAY CS","6048268","2019-01-01 08:00","2019","01","01","08:00","-24.7","","-28.5","","71","","0.0","","26","","15","","","","100.58","","","","-35","","NA"
"-89.33","48.37","THUNDER BAY CS","6048268","2019-01-01 09:00","2019","01","01","09:00","-24.9","","-28.6","","71","","0.0","","24","","12","","","","100.54","","","","-34","","NA"
"-89.33","48.37","THUNDER BAY CS","6048268","2019-01-01 10:00","2019","01","01","10:00","-24.5","","-28.5","","69","","0.0","","22","","15","","","","100.55","","","","-35","","NA"
"-89.33","48.37","THUNDER BAY CS","6048268","2019-01-01 11:00","2019","01","01","11:00","-23.1","","-27.7","","66","","0.0","","26","","14","","","","100.64","","","","-33","","NA"
"-89.33","48.37","THUNDER BAY CS","6048268","2019-01-01 12:00","2019","01","01","12:00","-21.8","","-27.6","","60","","0.0","","26","","16","","","","100.56","","","","-32","","NA"
"-89.33","48.37","THUNDER BAY CS","6048268","2019-01-01 13:00","2019","01","01","13:00","-19.6","","-25.4","","60","","0.0","","26","","12","","","","100.48","","","","-28","","NA"
"-89.33","48.37","THUNDER BAY CS","6048268","2019-01-01 14:00","2019","01","01","14:00","-17.8","","-23.6","","60","","0.0","","24","","9","","","","100.36","","","","-24","","NA"
"-89.33","48.37","THUNDER BAY CS","6048268","2019-01-01 15:00","2019","01","01","15:00","-16.2","","-22.5","","58","","0.0","","24","","6","","","","100.28","","","","-21","","NA"
"-89.33","48.37","THUNDER BAY CS","6048268","2019-01-01 16:00","2019","01","01","16:00","-15.3","","-21.4","","60","","0.0","","22","","5","","","","100.26","","","","-19","","NA"
"-89.33","48.37","THUNDER BAY CS","6048268","2019-01-01 17:00","2019","01","01","17:00","-15.9","","-20.9","","65","","0.0","","22","","7","","","","100.26","","","","-21","","NA"
"-89.33","48.37","THUNDER BAY CS","6048268","2019-01-01 18:00","2019","01","01","18:00","-20.3","","-22.7","","81","","0.0","","27","","7","","","","100.23","","","","-26","","NA"
"-89.33","48.37","THUNDER BAY CS","6048268","2019-01-01 19:00","2019","01","01","19:00","-20.5","","-22.6","","83","","0.0","","24","","4","","","","100.23","","","","-24","","NA"
"-89.33","48.37","THUNDER BAY CS","6048268","2019-01-01 20:00","2019","01","01","20:00","-20.2","","-22.7","","80","","0.0","","23","","7","","","","100.19","","","","-26","","NA"
"-89.33","48.37","THUNDER BAY CS","6048268","2019-01-01 21:00","2019","01","01","21:00","-21.4","","-23.7","","82","","0.0","","23","","9","","","","100.13","","","","-28","","NA"
"-89.33","48.37","THUNDER BAY CS","6048268","2019-01-01 22:00","2019","01","01","22:00","-23.3","","-25.4","","83","","0.0","","26","","7","","","","100.01","","","","-29","","NA"
"-89.33","48.37","THUNDER BAY CS","6048268","2019-01-01 23:00","2019","01","01","23:00","-24.6","","-26.9","","81","","0.0","","25","","9","","","","99.94","","","","-32","","NA"
"-89.33","48.37","THUNDER BAY CS","6048268","2019-01-02 00:00","2019","01","02","00:00","-25.6","","-28.2","","78","","0.0","","23","","9","","","","99.86","","","","-33","","NA"
"-89.33","48.37","THUNDER BAY CS","6048268","2019-01-02 01:00","2019","01","02","01:00","-26.4","","-29.2","","77","","0.0","","25","","6","","","","99.77","","","","-32","","NA"
"-89.33","48.37","THUNDER BAY CS","6048268","2019-01-02 02:00","2019","01","02","02:00","-24.3","","-26.9","","79","","0.0","","23","","10","","","","99.74","","","","-32","","NA"
"-89.33","48.37","THUNDER BAY CS","6048268","2019-01-02 03:00","2019","01","02","03:00","-24.0","","-26.7","","79","","0.0","","28","","7","","","","99.66","","","","-30","","NA"
"-89.33","48.37","THUNDER BAY CS","6048268","2019-01-02 04:00","2019","01","02","04:00","-25.1","","-27.9","","78","","0.0","","23","","11","","","","99.60","","","","-34","","NA"
"-89.33","48.37","THUNDER BAY CS","6048268","2019-01-02 05:00","2019","01","02","05:00","-25.6","","-28.3","","78","","0.0","","23","","8","","","","99.45","","","","-33","","NA"
"-89.33","48.37","THUNDER BAY CS","6048268","2019-01-02 06:00","2019","01","02","06:00","-26.3","","-29.1","","78","","0.0","","24","","8","","","","99.35","","","","-34","","NA"
"-89.33","48.37","THUNDER BAY CS","6048268","2019-01-02 07:00","2019","01","02","07:00","-24.4","","-27.2","","78","","0.0","","28","","9","","","","99.26","","","","-32","","NA"
"-89.33","48.37","THUNDER BAY CS","6048268","2019-01-02 08:00","2019","01","02","08:00","-23.8","","-26.5","","78","","0.0","","22","","6","","","","99.17","","","","-29","","NA"
"-89.33","48.37","THUNDER BAY CS","6048268","2019-01-02 09:00","2019","01","02","09:00","-22.3","","-24.8","","80","","0.0","","23","","8","","","","99.09","","","","-29","","NA"
"-89.33","48.37","THUNDER BAY CS","6048268","2019-01-02 10:00","2019","01","02","10:00","-21.1","","-23.6","","81","","0.0","","25","","5","","","","99.00","","","","-26","","NA"
"-89.33","48.37","THUNDER BAY CS","6048268","2019-01-02 11:00","2019","01","02","11:00","-19.2","","-21.6","","81","","0.0","","21","","2","","","","98.92","","","","-21","","NA"
"-89.33","48.37","THUNDER BAY CS","6048268","2019-01-02 12:00","2019","01","02","12:00","-17.6","","-19.9","","82","","0.0","","25","","3","","","","98.76","","","","-20","","NA"
"-89.33","48.37","THUNDER BAY CS","6048268","2019-01-02 13:00","2019","01","02","13:00","-14.7","","-17.4","","80","","0.0","","20","","1","","","","98.61","","","","-15","","NA"
"-89.33","48.37","THUNDER BAY CS","6048268","2019-01-02 14:00","2019","01","02","14:00","-12.8","","-16.3","","75","","0.0","","0","","1","","","","98.43","","","","-13","","NA"
"-89.33","48.37","THUNDER BAY CS","6048268","2019-01-02 15:00","2019","01","02","15:00","-10.0","","-14.4","","70","","0.0","","7","","4","","","","98.35","","","","-12","","NA"
"-89.33","48.37","THUNDER BAY CS","6048268","2019-01-02 16:00","2019","01","02","16:00","-7.4","","-11.1","","75","","0.0","","22","","11","","","","98.31","","","","-12","","NA"
"-89.33","48.37","THUNDER BAY CS","6048268","2019-01-02 17:00","2019","01","02","17:00","-7.6","","-10.1","","82","","0.0","","24","","8","","","","98.29","","","","-12","","NA"
"-89.33","48.37","THUNDER BAY CS","6048268","2019-01-02 18:00","2019","01","02","18:00","-7.5","","-10.1","","82","","0.0","","25","","10","","","","98.31","","","","-12","","NA"
"-89.33","48.37","THUNDER BAY CS","6048268","2019-01-02 19:00","2019","01","02","19:00","-8.1","","-11.2","","78","","0.1","","27","","17","","","","98.32","","","","-15","","NA"
"-89.33","48.37","THUNDER BAY CS","6048268","2019-01-02 20:00","2019","01","02","20:00","-8.8","","-11.9","","78","","0.0","","27","","23","","","","98.34","","","","-17","","NA"
"-89.33","48.37","THUNDER BAY CS","6048268","2019-01-02 21:00","2019","01","02","21:00","-9.6","","-12.7","","78","","0.0","","28","","19","","","","98.33","","","","-17","","NA"
"-89.33","48.37","THUNDER BAY CS","6048268","2019-01-02 22:00","2019","01","02","22:00","-9.9","","-12.8","","79","","0.0","","27","","19","","","","98.28","","","","-18","","NA"
"-89.33","48.37","THUNDER BAY CS","6048268","2019-01-02 23:00","2019","01","02","23:00","-10.1","","-12.8","","81","","0.0","","27","","15","","","","98.27","","","","-17","","NA"
"-89.33","48.37","THUNDER BAY CS","6048268","2019-01-03 00:00","2019","01","03","00:00","-10.1","","-12.8","","80","","0.0","","26","","10","","","","98.28","","","","-15","","NA"
"-89.33","48.37","THUNDER BAY CS","6048268","2019-01-03 01:00","2019","01","03","01:00","-10.2","","-12.9","","81","","0.0","","26","","9","","","","98.24","","","","-15","","NA"
"-89.33","48.37","THUNDER BAY CS","6048268","2019-01-03 02:00","2019","01","03","02:00","-9.9","","-12.8","","80","","0.0","","25","","9","","","","98.30","","","","-15","","NA"
"-89.33","48.37","THUNDER BAY CS","6048268","2019-01-03 03:00","2019","01","03","03:00","-10.1","","-12.7","","81","","0.0","","25","","5","","","","98.36","","","","-13","","NA"
"-89.33","48.37","THUNDER BAY CS","6048268","2019-01-03 04:00","2019","01","03","04:00","-9.8","","-12.2","","83","","0.0","","21","","4","","","","98.29","","","","-12","","NA"
"-89.33","48.37","THUNDER BAY CS","6048268","2019-01-03 05:00","2019","01","03","05:00","-9.8","","-11.7","","86","","0.0","","33","","6","","","","98.22","","","","-13","","NA"
"-89.33","48.37","THUNDER BAY CS","6048268","2019-01-03 06:00","2019","01","03","06:00","-9.9","","-11.7","","86","","0.0","","","","0","","","","98.14","","","","","","NA"
"-89.33","48.37","THUNDER BAY CS","6048268","2019-01-03 07:00","2019","01","03","07:00","-9.4","","-11.1","","87","","0.0","","5","","2","","","","98.06","","","","-11","","NA"
"-89.33","48.37","THUNDER BAY CS","6048268","2019-01-03 08:00","2019","01","03","08:00","-8.7","","-10.7","","86","","0.0","","6","","9","","","","97.97","","","","-13","","NA"
"-89.33","48.37","THUNDER BAY CS","6048268","2019-01-03 09:00","2019","01","03","09:00","-8.1","","-10.1","","86","","0.0","","5","","8","","","","97.90","","","","-12","","NA"
"-89.33","48.37","THUNDER BAY CS","6048268","2019-01-03 10:00","2019","01","03","10:00","-7.6","","-9.4","","87","","0.0","","3","","8","","","","97.80","","","","-12","","NA"
"-89.33","48.37","THUNDER BAY CS","6048268","2019-01-03 11:00","2019","01","03","11:00","-6.3","","-8.1","","87","","0.0","","27","","5","","","","97.83","","","","-9","","NA"
"-89.33","48.37","THUNDER BAY CS","6048268","2019-01-03 12:00","2019","01","03","12:00","-5.7","","-7.4","","88","","0.2","","28","","3","","","","97.65","","","","-7","","NA"
"-89.33","48.37","THUNDER BAY CS","6048268","2019-01-03 13:00","2019","01","03","13:00","-4.3","","-5.6","","91","","0.7","","27","","3","","","","97.57","","","","-6","","NA"
"-89.33","48.37","THUNDER BAY CS","6048268","2019-01-03 14:00","2019","01","03","14:00","-3.1","","-4.2","","92","","0.7","","30","","3","","","","97.50","","","","-4","","NA"
"-89.33","48.37","THUNDER BAY CS","6048268","2019-01-03 15:00","2019","01","03","15:00","-1.9","","-3.2","","90","","0.2","","0","","1","","","","97.45","","","","-2","","NA"
"-89.33","48.37","THUNDER BAY CS","6048268","2019-01-03 16:00","2019","01","03","16:00","-1.3","","-2.5","","92","","0.0","","18","","5","","","","97.45","","","","-3","","NA"
"-89.33","48.37","THUNDER BAY CS","6048268","2019-01-03 17:00","2019","01","03","17:00","-1.5","","-2.4","","94","","0.0","","23","","5","","","","97.49","","","","-3","","NA"
"-89.33","48.37","THUNDER BAY CS","6048268","2019-01-03 18:00","2019","01","03","18:00","-1.6","","-2.5","","93","","0.0","","24","","9","","","","97.54","","","","-5","","NA"
"-89.33","48.37","THUNDER BAY CS","6048268","2019-01-03 19:00","2019","01","03","19:00","-0.2","","-1.3","","92","","0.0","","23","","10","","","","97.61","","","","-4","","NA"
"-89.33","48.37","THUNDER BAY CS","6048268","2019-01-03 20:00","2019","01","03","20:00","0.1","","-1.2","","91","","0.0","","22","","9","","","","97.61","","","","","","NA"
"-89.33","48.37","THUNDER BAY CS","6048268","2019-01-03 21:00","2019","01","03","21:00","-0.8","","-1.7","","94","","0.0","","19","","5","","","","97.60","","","","-2","","NA"
"-89.33","48.37","THUNDER BAY CS","6048268","2019-01-03 22:00","2019","01","03","22:00","-3.1","","-3.6","","97","","0.0","","23","","5","","","","97.63","","","","-5","","NA"
"-89.33","48.37","THUNDER BAY CS","6048268","2019-01-03 23:00","2019","01","03","23:00","-3.5","","-3.8","","98","","0.0","","25","","4","","","","97.59","","","","-5","","NA"
"-89.33","48.37","THUNDER BAY CS","6048268","2019-01-04 00:00","2019","01","04","00:00","-2.5","","-3.5","","93","","0.0","","23","","7","","","","97.53","","","","-5","","NA"
"-89.33","48.37","THUNDER BAY CS","6048268","2019-01-04 01:00","2019","01","04","01:00","-0.5","","-1.6","","92","","0.0","","25","","8","","","","97.55","","","","-3","","NA"
"-89.33","48.37","THUNDER BAY CS","6048268","2019-01-04 02:00","2019","01","04","02:00","-1.2","","-2.5","","91","","0.0","","23","","11","","","","97.57","","","","-5","","NA"
"-89.33","48.37","THUNDER BAY CS","6048268","2019-01-04 03:00","2019","01","04","03:00","-3.7","","-4.5","","94","","0.0","","26","","5","","","","97.61","","","","-6","","NA"
"-89.33","48.37","THUNDER BAY CS","6048268","2019-01-04 04:00","2019","01","04","04:00","-2.1","","-2.8","","95","","0.0","","24","","9","","","","97.66","","","","-6","","NA"
"-89.33","48.37","THUNDER BAY CS","6048268","2019-01-04 05:00","2019","01","04","05:00","-0.8","","-2.2","","90","","0.0","","26","","14","","","","97.66","","","","-5","","NA"
"-89.33","48.37","THUNDER BAY CS","6048268","2019-01-04 06:00","2019","01","04","06:00","-0.2","","-1.8","","89","","0.0","","25","","14","","","","97.70","","","","-4","","NA"
"-89.33","48.37","THUNDER BAY CS","6048268","2019-01-04 07:00","2019","01","04","07:00","-0.4","","-1.7","","91","","0.0","","26","","11","","","","97.79","","","","-4","","NA"
"-89.33","48.37","THUNDER BAY CS","6048268","2019-01-04 08:00","2019","01","04","08:00","0.0","","-1.4","","91","","0.0","","25","","9","","","","97.85","","","","-3","","NA"
"-89.33","48.37","THUNDER BAY CS","6048268","2019-01-04 09:00","2019","01","04","09:00","-0.1","","-1.4","","91","","0.0","","24","","11","","","","97.89","","","","-4","","NA"
"-89.33","48.37","THUNDER BAY CS","6048268","2019-01-04 10:00","2019","01","04","10:00","-0.7","","-2.5","","88","","0.0","","28","","16","","","","97.94","","","","-5","","NA"
"-89.33","48.37","THUNDER BAY CS","6048268","2019-01-04 11:00","2019","01","04","11:00","-0.7","","-2.6","","87","","0.0","","27","","14","","","","97.95","","","","-5","","NA"
"-89.33","48.37","THUNDER BAY CS","6048268","2019-01-04 12:00","2019","01","04","12:00","0.4","","-2.3","","82","","0.0","","26","","10","","","","97.93","","","","","","NA"
"-89.33","48.37","THUNDER BAY CS","6048268","2019-01-04 13:00","2019","01","04","13:00","1.1","","-1.6","","82","","0.0","","26","","11","","","","97.91","","","","","","NA"
"-89.33","48.37","THUNDER BAY CS","6048268","2019-01-04 14:00","2019","01","04","14:00","1.7","","-1.5","","79","","0.0","","27","","11","","","","97.92","","","","","","NA"
"-89.33","48.37","THUNDER BAY CS","6048268","2019-01-04 15:00","2019","01","04","15:00","2.3","","-0.7","","81","","0.0","","27","","6","","","","97.94","","","","","","NA"
"-89.33","48.37","THUNDER BAY CS","6048268","2019-01-04 16:00","2019","01","04","16:00","3.1","","-1.5","","72","","0.0","","25","","8","","","","97.95","","","","","","NA"
"-89.33","48.37","THUNDER BAY CS","6048268","2019-01-04 17:00","2019","01","04","17:00","2.0","","-0.8","","82","","0.0","","23","","6","","","","97.97","","","","","","NA"
"-89.33","48.37","THUNDER BAY CS","6048268","2019-01-04 18:00","2019","01","04","18:00","-2.4","","-2.8","","97","","0.0","","30","","7","","","","98.01","","","","-5","","NA"
"-89.33","48.37","THUNDER BAY CS","6048268","2019-01-04 19:00","2019","01","04","19:00","-2.9","","-3.3","","97","","0.0","","27","","7","","","","98.03","","","","-6","","NA"
"-89.33","48.37","THUNDER BAY CS","6048268","2019-01-04 20:00","2019","01","04","20:00","-1.8","","-2.2","","97","","0.0","","22","","9","","","","98.04","","","","-5","","NA"
"-89.33","48.37","THUNDER BAY CS","6048268","2019-01-04 21:00","2019","01","04","21:00","-1.7","","-2.2","","96","","0.0","","22","","7","","","","98.05","","","","-4","","NA"
"-89.33","48.37","THUNDER BAY CS","6048268","2019-01-04 22:00","2019","01","04","22:00","-1.7","","-2.4","","95","","0.0","","22","","9","","","","98.04","","","","-5","","NA"
"-89.33","48.37","THUNDER BAY CS","6048268","2019-01-04 23:00","2019","01","04","23:00","-1.7","","-2.4","","95","","0.0","","24","","7","","","","98.06","","","","-4","","NA"
"-89.33","48.37","THUNDER BAY CS","6048268","2019-01-05 00:00","2019","01","05","00:00","-2.1","","-3.1","","93","","0.0","","26","","7","","","","97.96","","","","-5","","NA"
"-89.33","48.37","THUNDER BAY CS","6048268","2019-01-05 01:00","2019","01","05","01:00","-1.7","","-2.5","","94","","0.0","","23","","7","","","","97.91","","","","-4","","NA"
"-89.33","48.37","THUNDER BAY CS","6048268","2019-01-05 02:00","2019","01","05","02:00","-1.6","","-2.4","","94","","0.0","","20","","7","","","","97.91","","","","-4","","NA"
"-89.33","48.37","THUNDER BAY CS","6048268","2019-01-05 03:00","2019","01","05","03:00","-1.7","","-2.5","","94","","0.0","","19","","2","","","","97.90","","","","-2","","NA"
"-89.33","48.37","THUNDER BAY CS","6048268","2019-01-05 04:00","2019","01","05","04:00","-1.9","","-2.4","","96","","0.0","","35","","4","","","","97.90","","","","-3","","NA"
"-89.33","48.37","THUNDER BAY CS","6048268","2019-01-05 05:00","2019","01","05","05:00","-1.8","","-2.4","","96","","0.0","","21","","5","","","","97.89","","","","-4","","NA"
"-89.33","48.37","THUNDER BAY CS","6048268","2019-01-05 06:00","2019","01","05","06:00","-1.7","","-2.3","","96","","0.0","","33","","10","","","","97.93","","","","-5","","NA"
"-89.33","48.37","THUNDER BAY CS","6048268","2019-01-05 07:00","2019","01","05","07:00","-1.7","","-2.3","","96","","0.0","","20","","2","","","","97.91","","","","-2","","NA"
"-89.33","48.37","THUNDER BAY CS","6048268","2019-01-05 08:00","2019","01","05","08:00","-1.9","","-2.6","","95","","0.0","","31","","5","","","","97.98","","","","-4","","NA"
"-89.33","48.37","THUNDER BAY CS","6048268","2019-01-05 09:00","2019","01","05","09:00","-1.8","","-2.4","","96","","0.0","","28","","6","","","","98.07","","","","-4","","NA"
"-89.33","48.37","THUNDER BAY CS","6048268","2019-01-05 10:00","2019","01","05","10:00","-1.3","","-2.0","","95","","0.0","","27","","2","","","","98.16","","","","-2","","NA"
"-89.33","48.37","THUNDER BAY CS","6048268","2019-01-05 11:00","2019","01","05","11:00","-1.2","","-1.9","","95","","0.0","","22","","5","","","","98.21","","","","-3","","NA"
"-89.33","48.37","THUNDER BAY CS","6048268","2019-01-05 12:00","2019","01","05","12:00","-0.3","","-1.6","","92","","0.0","","21","","5","","","","98.24","","","","-2","","NA"
"-89.33","48.37","THUNDER BAY CS","6048268","2019-01-05 13:00","2019","01","05","13:00","1.4","","-2.1","","77","","0.0","","29","","6","","","","98.29","","","","","","NA"
"-89.33","48.37","THUNDER BAY CS","6048268","2019-01-05 14:00","2019","01","05","14:00","1.5","","-2.6","","74","","0.0","","29","","13","","","","98.36","","","","","","NA"
"-89.33","48.37","THUNDER BAY CS","6048268","2019-01-05 15:00","2019","01","05","15:00","1.5","","-1.3","","81","","0.0","","31","","6","","","","98.49","","","","","","NA"
"-89.33","48.37","THUNDER BAY CS","6048268","2019-01-05 16:00","2019","01","05","16:00","1.7","","-2.1","","76","","0.0","","29","","15","","","","98.63","","","","","","NA"
"-89.33","48.37","THUNDER BAY CS","6048268","2019-01-05 17:00","2019","01","05","17:00","0.8","","-4.4","","68","","0.0","","32","","17","","","","98.79","","","","","","NA"
"-89.33","48.37","THUNDER BAY CS","6048268","2019-01-05 18:00","2019","01","05","18:00","-0.7","","-5.7","","69","","0.0","","33","","15","","","","98.95","","","","-5","","NA"
"-89.33","48.37","THUNDER BAY CS","6048268","2019-01-05 19:00","2019","01","05","19:00","-1.4","","-6.7","","67","","0.0","","34","","18","","","","99.09","","","","-7","","NA"
"-89.33","48.37","THUNDER BAY CS","6048268","2019-01-05 20:00","2019","01","05","20:00","-2.7","","-7.5","","69","","0.0","","31","","21","","","","99.28","","","","-9","","NA"
"-89.33","48.37","THUNDER BAY CS","6048268","2019-01-05 21:00","2019","01","05","21:00","-3.8","","-9.4","","65","","0.0","","32","","23","","","","99.40","","","","-11","","NA"
"-89.33","48.37","THUNDER BAY CS","6048268","2019-01-05 22:00","2019","01","05","22:00","-4.0","","-9.3","","66","","0.0","","35","","18","","","","99.50","","","","-10","","NA"
"-89.33","48.37","THUNDER BAY CS","6048268","2019-01-05 23:00","2019","01","05","23:00","-4.5","","-9.0","","70","","0.0","","1","","12","","","","99.57","","","","-9","","NA"
"-89.33","48.37","THUNDER BAY CS","6048268","2019-01-06 00:00","2019","01","06","00:00","-5.1","","-9.6","","71","","0.0","","1","","15","","","","99.66","","","","-11","","NA"
"-89.33","48.37","THUNDER BAY CS","6048268","2019-01-06 01:00","2019","01","06","01:00","-5.4","","-11.3","","63","","0.0","","32","","18","","","","99.76","","","","-12","","NA"
"-89.33","48.37","THUNDER BAY CS","6048268","2019-01-06 02:00","2019","01","06","02:00","-6.2","","-10.7","","70","","0.0","","36","","15","","","","99.87","","","","-12","","NA"
"-89.33","48.37","THUNDER BAY CS","6048268","2019-01-06 03:00","2019","01","06","03:00","-7.7","","-12.4","","69","","0.0","","33","","16","","","","99.97","","","","-14","","NA"
"-89.33","48.37","THUNDER BAY CS","6048268","2019-01-06 04:00","2019","01","06","04:00","-8.3","","-13.6","","65","","0.0","","35","","11","","","","100.10","","","","-14","","NA"
"-89.33","48.37","THUNDER BAY CS","6048268","2019-01-06 05:00","2019","01","06","05:00","-8.8","","-13.4","","69","","0.0","","2","","11","","","","100.18","","","","-14","","NA"
"-89.33","48.37","THUNDER BAY CS","6048268","2019-01-06 06:00","2019","01","06","06:00","-8.9","","-13.9","","67","","0.0","","4","","14","","","","100.21","","","","-15","","NA"
"-89.33","48.37","THUNDER BAY CS","6048268","2019-01-06 07:00","2019","01","06","07:00","-10.1","","-14.6","","70","","0.0","","2","","9","","","","100.28","","","","-15","","NA"
"-89.33","48.37","THUNDER BAY CS","6048268","2019-01-06 08:00","2019","01","06","08:00","-9.9","","-14.2","","71","","0.0","","34","","9","","","","100.34","","","","-15","","NA"
"-89.33","48.37","THUNDER BAY CS","6048268","2019-01-06 09:00","2019","01","06","09:00","-9.8","","-14.0","","71","","0.0","","29","","3","","","","100.39","","","","-12","","NA"
"-89.33","48.37","THUNDER BAY CS","6048268","2019-01-06 10:00","2019","01","06","10:00","-8.9","","-13.5","","69","","0.0","","5","","11","","","","100.42","","","","-14","","NA"
"-89.33","48.37","THUNDER BAY CS","6048268","2019-01-06 11:00","2019","01","06","11:00","-8.8","","-14.2","","65","","0.0","","6","","14","","","","100.42","","","","-15","","NA"
"-89.33","48.37","THUNDER BAY CS","6048268","2019-01-06 12:00","2019","01","06","12:00","-8.4","","-13.8","","65","","0.0","","10","","10","","","","100.50","","","","-13","","NA"
"-89.33","48.37","THUNDER BAY CS","6048268","2019-01-06 13:00","2019","01","06","13:00","-8.2","","-12.7","","70","","0.0","","8","","13","","","","100.37","","","","-14","","NA"
"-89.33","48.37","THUNDER BAY CS","6048268","2019-01-06 14:00","2019","01","06","14:00","-7.9","","-12.0","","72","","0.0","","8","","14","","","","100.31","","","","-14","","NA"
"-89.33","48.37","THUNDER BAY CS","6048268","2019-01-06 15:00","2019","01","06","15:00","-7.6","","-11.3","","75","","0.0","","8","","16","","","","100.25","","","","-14","","NA"
"-89.33","48.37","THUNDER BAY CS","6048268","2019-01-06 16:00","2019","01","06","16:00","-7.0","","-10.1","","78","","0.0","","9","","16","","","","100.21","","","","-13","","NA"
"-89.33","48.37","THUNDER BAY CS","6048268","2019-01-06 17:00","2019","01","06","17:00","-6.7","","-8.9","","84","","0.0","","9","","14","","","","100.16","","","","-12","","NA"
"-89.33","48.37","THUNDER BAY CS","6048268","2019-01-06 18:00","2019","01","06","18:00","-6.2","","-8.3","","85","","0.0","","8","","16","","","","100.12","","","","-12","","NA"
"-89.33","48.37","THUNDER BAY CS","6048268","2019-01-06 19:00","2019","01","06","19:00","-4.5","","-7.2","","81","","0.0","","12","","15","","","","100.03","","","","-10","","NA"
"-89.33","48.37","THUNDER BAY CS","6048268","2019-01-06 20:00","2019","01","06","20:00","-3.5","","-7.1","","76","","0.0","","12","","19","","","","99.91","","","","-9","","NA"
"-89.33","48.37","THUNDER BAY CS","6048268","2019-01-06 21:00","2019","01","06","21:00","-2.8","","-6.2","","78","","0.0","","12","","22","","","","99.78","","","","-9","","NA"
"-89.33","48.37","THUNDER BAY CS","6048268","2019-01-06 22:00","2019","01","06","22:00","-2.4","","-5.7","","78","","0.0","","13","","22","","","","99.70","","","","-9","","NA"
"-89.33","48.37","THUNDER BAY CS","6048268","2019-01-06 23:00","2019","01","06","23:00","-2.3","","-5.3","","80","","0.0","","12","","25","","","","99.54","","","","-9","","NA"
"-89.33","48.37","THUNDER BAY CS","6048268","2019-01-07 00:00","2019","01","07","00:00","-1.6","","-4.8","","79","","0.0","","11","","18","","","","99.45","","","","-7","","NA"
"-89.33","48.37","THUNDER BAY CS","6048268","2019-01-07 01:00","2019","01","07","01:00","-1.7","","-4.7","","80","","0.0","","11","","21","","","","99.28","","","","-8","","NA"
"-89.33","48.37","THUNDER BAY CS","6048268","2019-01-07 02:00","2019","01","07","02:00","-2.1","","-3.9","","88","","0.1","","12","","27","","","","99.13","","","","-9","","NA"
"-89.33","48.37","THUNDER BAY CS","6048268","2019-01-07 03:00","2019","01","07","03:00","-2.3","","-2.9","","95","","1.0","","11","","17","","","","99.04","","","","-8","","NA"
"-89.33","48.37","THUNDER BAY CS","6048268","2019-01-07 04:00","2019","01","07","04:00","-1.9","","-2.5","","96","","2.1","","10","","17","","","","98.83","","","","-7","","NA"
"-89.33","48.37","THUNDER BAY CS","6048268","2019-01-07 05:00","2019","01","07","05:00","-1.3","","-1.8","","97","","3.4","","9","","20","","","","98.60","","","","-7","","NA"
"-89.33","48.37","THUNDER BAY CS","6048268","2019-01-07 06:00","2019","01","07","06:00","-0.8","","-1.3","","97","","2.2","","10","","29","","","","98.39","","","","-7","","NA"
"-89.33","48.37","THUNDER BAY CS","6048268","2019-01-07 07:00","2019","01","07","07:00","-1.0","","-1.5","","96","","1.9","","11","","19","","","","98.33","","","","-6","","NA"
"-89.33","48.37","THUNDER BAY CS","6048268","2019-01-07 08:00","2019","01","07","08:00","-1.0","","-1.4","","97","","1.3","","11","","25","","","","98.15","","","","-7","","NA"
"-89.33","48.37","THUNDER BAY CS","6048268","2019-01-07 09:00","2019","01","07","09:00","-0.9","","-1.3","","97","","1.2","","10","","24","","","","97.99","","","","-7","","NA"
"-89.33","48.37","THUNDER BAY CS","6048268","2019-01-07 10:00","2019","01","07","10:00","-0.5","","-0.8","","98","","0.4","","9","","17","","","","97.83","","","","-5","","NA"
"-89.33","48.37","THUNDER BAY CS","6048268","2019-01-07 11:00","2019","01","07","11:00","-0.3","","-0.6","","98","","0.3","","10","","15","","","","97.71","","","","-5","","NA"
"-89.33","48.37","THUNDER BAY CS","6048268","2019-01-07 12:00","2019","01","07","12:00","0.2","","-0.3","","96","","0.2","","11","","17","","","","97.53","","","","","","NA"
"-89.33","48.37","THUNDER BAY CS","6048268","2019-01-07 13:00","2019","01","07","13:00","0.5","","0.0","","96","","0.0","","12","","15","","","","97.37","","","","","","NA"
"-89.33","48.37","THUNDER BAY CS","6048268","2019-01-07 14:00","2019","01","07","14:00","0.4","","0.0","","97","","0.1","","11","","7","","","","97.25","","","","","","NA"
"-89.33","48.37","THUNDER BAY CS","6048268","2019-01-07 15:00","2019","01","07","15:00","0.5","","0.1","","97","","0.1","","8","","4","","","","97.21","","","","","","NA"
"-89.33","48.37","THUNDER BAY CS","6048268","2019-01-07 16:00","2019","01","07","16:00","0.5","","0.1","","98","","0.1","","6","","5","","","","97.18","","","","","","NA"
"-89.33","48.37","THUNDER BAY CS","6048268","2019-01-07 17:00","2019","01","07","17:00","0.4","","0.1","","98","","0.0","","4","","5","","","","97.15","","","","","","NA"
"-89.33","48.37","THUNDER BAY CS","6048268","2019-01-07 18:00","2019","01","07","18:00","0.2","","0.0","","98","","0.0","","28","","3","","","","97.20","","","","","","NA"
"-89.33","48.37","THUNDER BAY CS","6048268","2019-01-07 19:00","2019","01","07","19:00","0.2","","0.0","","99","","0.1","","24","","6","","","","97.21","","","","","","NA"
"-89.33","48.37","THUNDER BAY CS","6048268","2019-01-07 20:00","2019","01","07","20:00","0.4","","0.1","","99","","0.0","","25","","8","","","","97.26","","","","","","NA"
"-89.33","48.37","THUNDER BAY CS","6048268","2019-01-07 21:00","2019","01","07","21:00","1.4","","0.2","","92","","0.0","","26","","15","","","","97.29","","","","","","NA"
"-89.33","48.37","THUNDER BAY CS","6048268","2019-01-07 22:00","2019","01","07","22:00","0.7","","-1.1","","88","","0.0","","26","","19","","","","97.33","","","","","","NA"
"-89.33","48.37","THUNDER BAY CS","6048268","2019-01-07 23:00","2019","01","07","23:00","-0.2","","-1.9","","89","","0.0","","24","","13","","","","97.35","","","","-4","","NA"
"-89.33","48.37","THUNDER BAY CS","6048268","2019-01-08 00:00","2019","01","08","00:00","-1.0","","-2.5","","90","","0.0","","24","","11","","","","97.36","","","","-5","","NA"
"-89.33","48.37","THUNDER BAY CS","6048268","2019-01-08 01:00","2019","01","08","01:00","-1.1","","-2.5","","90","","0.0","","24","","10","","","","97.36","","","","-5","","NA"
"-89.33","48.37","THUNDER BAY CS","6048268","2019-01-08 02:00","2019","01","08","02:00","-0.2","","-2.7","","83","","0.0","","25","","20","","","","97.39","","","","-5","","NA"
"-89.33","48.37","THUNDER BAY CS","6048268","2019-01-08 03:00","2019","01","08","03:00","0.1","","-2.7","","81","","0.0","","25","","19","","","","97.43","","","","","","NA"
"-89.33","48.37","THUNDER BAY CS","6048268","2019-01-08 04:00","2019","01","08","04:00","0.0","","-3.1","","80","","0.1","","27","","23","","","","97.45","","","","-6","","NA"
"-89.33","48.37","THUNDER BAY CS","6048268","2019-01-08 05:00","2019","01","08","05:00","-0.2","","-3.2","","80","","0.0","","26","","16","","","","97.43","","","","-5","","NA"
"-89.33","48.37","THUNDER BAY CS","6048268","2019-01-08 06:00","2019","01","08","06:00","-0.4","","-3.9","","77","","0.0","","25","","16","","","","97.45","","","","-5","","NA"
"-89.33","48.37","THUNDER BAY CS","6048268","2019-01-08 07:00","2019","01","08","07:00","-0.9","","-4.2","","78","","0.0","","29","","20","","","","97.50","","","","-6","","NA"
"-89.33","48.37","THUNDER BAY CS","6048268","2019-01-08 08:00","2019","01","08","08:00","-1.7","","-5.1","","78","","0.1","","28","","24","","","","97.59","","","","-8","","NA"
"-89.33","48.37","THUNDER BAY CS","6048268","2019-01-08 09:00","2019","01","08","09:00","-4.2","","-8.7","","71","","0.0","","26","","29","","","","97.72","","","","-12","","NA"
"-89.33","48.37","THUNDER BAY CS","6048268","2019-01-08 10:00","2019","01","08","10:00","-4.6","","-8.9","","72","","0.0","","28","","24","","","","97.80","","","","-12","","NA"
"-89.33","48.37","THUNDER BAY CS","6048268","2019-01-08 11:00","2019","01","08","11:00","-4.8","","-9.3","","71","","0.0","","28","","25","","","","97.83","","","","-12","","NA"
"-89.33","48.37","THUNDER BAY CS","6048268","2019-01-08 12:00","2019","01","08","12:00","-5.8","","-8.9","","79","","0.2","","28","","31","","","","97.81","","","","-14","","NA"
"-89.33","48.37","THUNDER BAY CS","6048268","2019-01-08 13:00","2019","01","08","13:00","-5.7","","-10.9","","67","","0.0","","28","","33","","","","97.82","","","","-14","","NA"
"-89.33","48.37","THUNDER BAY CS","6048268","2019-01-08 14:00","2019","01","08","14:00","-5.8","","-9.9","","73","","0.0","","28","","25","","","","97.89","","","","-13","","NA"
"-89.33","48.37","THUNDER BAY CS","6048268","2019-01-08 15:00","2019","01","08","15:00","-6.0","","-10.6","","70","","0.2","","28","","30","","","","97.98","","","","-14","","NA"
"-89.33","48.37","THUNDER BAY CS","6048268","2019-01-08 16:00","2019","01","08","16:00","-6.5","","-10.5","","74","","0.0","","28","","29","","","","98.09","","","","-15","","NA"
"-89.33","48.37","THUNDER BAY CS","6048268","2019-01-08 17:00","2019","01","08","17:00","-7.2","","-11.0","","74","","0.0","","27","","29","","","","98.20","","","","-16","","NA"
"-89.33","48.37","THUNDER BAY CS","6048268","2019-01-08 18:00","2019","01","08","18:00","-7.9","","-12.3","","71","","0.1","","28","","28","","","","98.35","","","","-17","","NA"
"-89.33","48.37","THUNDER BAY CS","6048268","2019-01-08 19:00","2019","01","08","19:00","-8.6","","-12.7","","72","","0.0","","28","","26","","","","98.46","","","","-17","","NA"
"-89.33","48.37","THUNDER BAY CS","6048268","2019-01-08 20:00","2019","01","08","20:00","-9.0","","-13.0","","73","","0.1","","28","","29","","","","98.54","","","","-18","","NA"
"-89.33","48.37","THUNDER BAY CS","6048268","2019-01-08 21:00","2019","01","08","21:00","-9.5","","-13.2","","74","","0.0","","28","","22","","","","98.64","","","","-18","","NA"
"-89.33","48.37","THUNDER BAY CS","6048268","2019-01-08 22:00","2019","01","08","22:00","-10.1","","-14.7","","69","","0.0","","28","","22","","","","98.73","","","","-18","","NA"
"-89.33","48.37","THUNDER BAY CS","6048268","2019-01-08 23:00","2019","01","08","23:00","-10.3","","-15.0","","69","","0.0","","29","","24","","","","98.82","","","","-19","","NA"
"-89.33","48.37","THUNDER BAY CS","6048268","2019-01-09 00:00","2019","01","09","00:00","-10.4","","-15.4","","66","","0.0","","29","","27","","","","98.91","","","","-20","","NA"
"-89.33","48.37","THUNDER BAY CS","6048268","2019-01-09 01:00","2019","01","09","01:00","-10.5","","-15.2","","68","","0.0","","29","","21","","","","98.97","","","","-19","","NA"
"-89.33","48.37","THUNDER BAY CS","6048268","2019-01-09 02:00","2019","01","09","02:00","-10.5","","-15.1","","69","","0.0","","28","","23","","","","99.05","","","","-19","","NA"
"-89.33","48.37","THUNDER BAY CS","6048268","2019-01-09 03:00","2019","01","09","03:00","-10.8","","-15.4","","69","","0.0","","28","","19","","","","99.16","","","","-19","","NA"
"-89.33","48.37","THUNDER BAY CS","6048268","2019-01-09 04:00","2019","01","09","04:00","-11.1","","-15.6","","69","","0.0","","30","","21","","","","99.28","","","","-19","","NA"
"-89.33","48.37","THUNDER BAY CS","6048268","2019-01-09 05:00","2019","01","09","05:00","-11.3","","-15.7","","70","","0.0","","30","","22","","","","99.35","","","","-20","","NA"
"-89.33","48.37","THUNDER BAY CS","6048268","2019-01-09 06:00","2019","01","09","06:00","-11.4","","-16.1","","68","","0.1","","31","","27","","","","99.45","","","","-21","","NA"
"-89.33","48.37","THUNDER BAY CS","6048268","2019-01-09 07:00","2019","01","09","07:00","-11.2","","-16.1","","67","","0.0","","31","","29","","","","99.53","","","","-21","","NA"
"-89.33","48.37","THUNDER BAY CS","6048268","2019-01-09 08:00","2019","01","09","08:00","-11.7","","-16.9","","65","","0.1","","30","","31","","","","99.65","","","","-22","","NA"
"-89.33","48.37","THUNDER BAY CS","6048268","2019-01-09 09:00","2019","01","09","09:00","-12.3","","-17.2","","67","","0.0","","32","","24","","","","99.75","","","","-22","","NA"
"-89.33","48.37","THUNDER BAY CS","6048268","2019-01-09 10:00","2019","01","09","10:00","-12.4","","-17.5","","65","","0.0","","32","","29","","","","99.89","","","","-23","","NA"
"-89.33","48.37","THUNDER BAY CS","6048268","2019-01-09 11:00","2019","01","09","11:00","-12.7","","-17.7","","66","","0.1","","32","","23","","","","100.00","","","","-22","","NA"
"-89.33","48.37","THUNDER BAY CS","6048268","2019-01-09 12:00","2019","01","09","12:00","-12.5","","-17.8","","64","","0.1","","32","","26","","","","100.05","","","","-22","","NA"
"-89.33","48.37","THUNDER BAY CS","6048268","2019-01-09 13:00","2019","01","09","13:00","-12.3","","-17.6","","65","","0.0","","30","","29","","","","100.06","","","","-22","","NA"
"-89.33","48.37","THUNDER BAY CS","6048268","2019-01-09 14:00","2019","01","09","14:00","-12.5","","-18.0","","63","","0.0","","30","","23","","","","100.08","","","","-22","","NA"
"-89.33","48.37","THUNDER BAY CS","6048268","2019-01-09 15:00","2019","01","09","15:00","-11.8","","-18.3","","59","","0.0","","32","","25","","","","100.14","","","","-21","","NA"
"-89.33","48.37","THUNDER BAY CS","6048268","2019-01-09 16:00","2019","01","09","16:00","-11.6","","-17.9","","60","","0.0","","31","","20","","","","100.26","","","","-20","","NA"
"-89.33","48.37","THUNDER BAY CS","6048268","2019-01-09 17:00","2019","01","09","17:00","-12.5","","-18.3","","62","","0.0","","31","","22","","","","100.35","","","","-21","","NA"
"-89.33","48.37","THUNDER BAY CS","6048268","2019-01-09 18:00","2019","01","09","18:00","-13.4","","-18.7","","65","","0.0","","29","","12","","","","100.43","","","","-20","","NA"
"-89.33","48.37","THUNDER BAY CS","6048268","2019-01-09 19:00","2019","01","09","19:00","-14.2","","-19.2","","66","","0.0","","30","","16","","","","100.49","","","","-22","","NA"
"-89.33","48.37","THUNDER BAY CS","6048268","2019-01-09 20:00","2019","01","09","20:00","-14.9","","-19.5","","68","","0.0","","30","","17","","","","100.59","","","","-23","","NA"
"-89.33","48.37","THUNDER BAY CS","6048268","2019-01-09 21:00","2019","01","09","21:00","-15.5","","-20.1","","68","","0.0","","32","","21","","","","100.65","","","","-25","","NA"
"-89.33","48.37","THUNDER BAY CS","6048268","2019-01-09 22:00","2019","01","09","22:00","-16.4","","-20.5","","70","","0.0","","31","","15","","","","100.69","","","","-25","","NA"
"-89.33","48.37","THUNDER BAY CS","6048268","2019-01-09 23:00","2019","01","09","23:00","-16.8","","-20.9","","70","","0.0","","32","","19","","","","100.68","","","","-26","","NA"
"-89.33","48.37","THUNDER BAY CS","6048268","2019-01-10 00:00","2019","01","10","00:00","-18.0","","-22.2","","70","","0.0","","27","","9","","","","100.72","","","","-24","","NA"
"-89.33","48.37","THUNDER BAY CS","6048268","2019-01-10 01:00","2019","01","10","01:00","-18.6","","-22.2","","73","","0.0","","30","","9","","","","100.75","","","","-25","","NA"
"-89.33","48.37","THUNDER BAY CS","6048268","2019-01-10 02:00","2019","01","10","02:00","-18.5","","-22.1","","73","","0.0","","32","","7","","","","100.79","","","","-24","","NA"
"-89.33","48.37","THUNDER BAY CS","6048268","2019-01-10 03:00","2019","01","10","03:00","-19.1","","-22.5","","75","","0.0","","25","","8","","","","100.87","","","","-25","","NA"
"-89.33","48.37","THUNDER BAY CS","6048268","2019-01-10 04:00","2019","01","10","04:00","-21.0","","-24.2","","75","","0.0","","28","","11","","","","100.87","","","","-29","","NA"
"-89.33","48.37","THUNDER BAY CS","6048268","2019-01-10 05:00","2019","01","10","05:00","-20.9","","-23.9","","77","","0.0","","22","","7","","","","100.88","","","","-27","","NA"
"-89.33","48.37","THUNDER BAY CS","6048268","2019-01-10 06:00","2019","01","10","06:00","-21.4","","-24.5","","76","","0.0","","22","","8","","","","100.85","","","","-28","","NA"
"-89.33","48.37","THUNDER BAY CS","6048268","2019-01-10 07:00","2019","01","10","07:00","-21.6","","-24.6","","77","","0.0","","23","","9","","","","100.91","","","","-29","","NA"
"-89.33","48.37","THUNDER BAY CS","6048268","2019-01-10 08:00","2019","01","10","08:00","-22.1","","-25.0","","77","","0.0","","27","","3","","","","100.95","","","","-25","","NA"
"-89.33","48.37","THUNDER BAY CS","6048268","2019-01-10 09:00","2019","01","10","09:00","-21.7","","-25.2","","73","","0.0","","27","","9","","","","101.02","","","","-29","","NA"
"-89.33","48.37","THUNDER BAY CS","6048268","2019-01-10 10:00","2019","01","10","10:00","-20.5","","-24.9","","68","","0.0","","24","","6","","","","101.01","","","","-26","","NA"
"-89.33","48.37","THUNDER BAY CS","6048268","2019-01-10 11:00","2019","01","10","11:00","-19.3","","-24.9","","61","","0.0","","22","","5","","","","100.95","","","","-23","","NA"
"-89.33","48.37","THUNDER BAY CS","6048268","2019-01-10 12:00","2019","01","10","12:00","-18.6","","-24.3","","61","","0.0","","24","","7","","","","100.88","","","","-24","","NA"
"-89.33","48.37","THUNDER BAY CS","6048268","2019-01-10 13:00","2019","01","10","13:00","-17.1","","-23.3","","59","","0.0","","27","","5","","","","100.80","","","","-21","","NA"
"-89.33","48.37","THUNDER BAY CS","6048268","2019-01-10 14:00","2019","01","10","14:00","-16.1","","-22.7","","57","","0.0","","25","","5","","","","100.76","","","","-20","","NA"
"-89.33","48.37","THUNDER BAY CS","6048268","2019-01-10 15:00","2019","01","10","15:00","-15.2","","-22.2","","55","","0.0","","21","","9","","","","100.72","","","","-21","","NA"
"-89.33","48.37","THUNDER BAY CS","6048268","2019-01-10 16:00","2019","01","10","16:00","-15.0","","-22.2","","54","","0.0","","23","","6","","","","100.72","","","","-19","","NA"
"-89.33","48.37","THUNDER BAY CS","6048268","2019-01-10 17:00","2019","01","10","17:00","-14.7","","-21.1","","58","","0.0","","21","","6","","","","100.68","","","","-19","","NA"
"-89.33","48.37","THUNDER BAY CS","6048268","2019-01-10 18:00","2019","01","10","18:00","-14.9","","-21.0","","60","","0.0","","21","","3","","","","100.66","","","","-17","","NA"
"-89.33","48.37","THUNDER BAY CS","6048268","2019-01-10 19:00","2019","01","10","19:00","-15.6","","-20.5","","66","","0.0","","33","","2","","","","100.62","","","","-17","","NA"
"-89.33","48.37","THUNDER BAY CS","6048268","2019-01-10 20:00","2019","01","10","20:00","-16.4","","-19.4","","77","","0.0","","28","","7","","","","100.60","","","","-21","","NA"
"-89.33","48.37","THUNDER BAY CS","6048268","2019-01-10 21:00","2019","01","10","21:00","-15.4","","-19.9","","68","","0.0","","29","","1","","","","100.57","","","","-16","","NA"
"-89.33","48.37","THUNDER BAY CS","6048268","2019-01-10 22:00","2019","01","10","22:00","-15.0","","-19.4","","69","","0.0","","21","","3","","","","100.57","","","","-17","","NA"
"-89.33","48.37","THUNDER BAY CS","6048268","2019-01-10 23:00","2019","01","10","23:00","-15.4","","-19.2","","73","","0.0","","21","","4","","","","100.54","","","","-18","","NA"
"-89.33","48.37","THUNDER BAY CS","6048268","2019-01-11 00:00","2019","01","11","00:00","-15.3","","-18.8","","75","","0.0","","32","","4","","","","100.52","","","","-18","","NA"
"-89.33","48.37","THUNDER BAY CS","6048268","2019-01-11 01:00","2019","01","11","01:00","-14.8","","-18.7","","72","","0.0","","","","0","","","","100.48","","","","","","NA"
"-89.33","48.37","THUNDER BAY CS","6048268","2019-01-11 02:00","2019","01","11","02:00","-13.8","","-18.2","","69","","0.0","","4","","8","","","","100.45","","","","-19","","NA"
"-89.33","48.37","THUNDER BAY CS","6048268","2019-01-11 03:00","2019","01","11","03:00","-14.0","","-16.6","","80","","0.2","","2","","3","","","","100.45","","","","-16","","NA"
"-89.33","48.37","THUNDER BAY CS","6048268","2019-01-11 04:00","2019","01","11","04:00","-13.7","","-16.1","","82","","0.1","","26","","2","","","","100.42","","","","-15","","NA"
"-89.33","48.37","THUNDER BAY CS","6048268","2019-01-11 05:00","2019","01","11","05:00","-13.7","","-15.8","","84","","0.2","","26","","6","","","","100.36","","","","-18","","NA"
"-89.33","48.37","THUNDER BAY CS","6048268","2019-01-11 06:00","2019","01","11","06:00","-13.6","","-15.4","","86","","0.5","","26","","5","","","","100.30","","","","-17","","NA"
"-89.33","48.37","THUNDER BAY CS","6048268","2019-01-11 07:00","2019","01","11","07:00","-13.0","","-14.7","","87","","0.3","","26","","5","","","","100.28","","","","-16","","NA"
"-89.33","48.37","THUNDER BAY CS","6048268","2019-01-11 08:00","2019","01","11","08:00","-12.6","","-14.3","","87","","0.4","","31","","2","","","","100.26","","","","-14","","NA"
"-89.33","48.37","THUNDER BAY CS","6048268","2019-01-11 09:00","2019","01","11","09:00","-8.6","","-10.2","","88","","0.5","","8","","16","","","","100.29","","","","-15","","NA"
"-89.33","48.37","THUNDER BAY CS","6048268","2019-01-11 10:00","2019","01","11","10:00","-8.4","","-10.0","","88","","0.6","","8","","17","","","","100.33","","","","-15","","NA"
"-89.33","48.37","THUNDER BAY CS","6048268","2019-01-11 11:00","2019","01","11","11:00","-8.1","","-9.7","","88","","0.3","","7","","22","","","","100.34","","","","-16","","NA"
"-89.33","48.37","THUNDER BAY CS","6048268","2019-01-11 12:00","2019","01","11","12:00","-7.5","","-9.2","","87","","0.3","","8","","20","","","","100.31","","","","-15","","NA"
"-89.33","48.37","THUNDER BAY CS","6048268","2019-01-11 13:00","2019","01","11","13:00","-7.1","","-9.0","","86","","0.2","","7","","17","","","","100.28","","","","-14","","NA"
"-89.33","48.37","THUNDER BAY CS","6048268","2019-01-11 14:00","2019","01","11","14:00","-6.7","","-8.7","","86","","0.1","","7","","21","","","","100.25","","","","-14","","NA"
"-89.33","48.37","THUNDER BAY CS","6048268","2019-01-11 15:00","2019","01","11","15:00","-6.8","","-8.9","","85","","0.2","","7","","24","","","","100.27","","","","-14","","NA"
"-89.33","48.37","THUNDER BAY CS","6048268","2019-01-11 16:00","2019","01","11","16:00","-6.7","","-9.0","","84","","0.1","","7","","20","","","","100.32","","","","-14","","NA"
"-89.33","48.37","THUNDER BAY CS","6048268","2019-01-11 17:00","2019","01","11","17:00","-7.1","","-9.9","","81","","0.1","","7","","28","","","","100.38","","","","-15","","NA"
"-89.33","48.37","THUNDER BAY CS","6048268","2019-01-11 18:00","2019","01","11","18:00","-7.2","","-11.0","","74","","0.0","","7","","23","","","","100.48","","","","-15","","NA"
"-89.33","48.37","THUNDER BAY CS","6048268","2019-01-11 19:00","2019","01","11","19:00","-7.5","","-11.2","","75","","0.0","","6","","22","","","","100.52","","","","-15","","NA"
"-89.33","48.37","THUNDER BAY CS","6048268","2019-01-11 20:00","2019","01","11","20:00","-7.6","","-11.3","","75","","0.0","","6","","20","","","","100.55","","","","-15","","NA"
"-89.33","48.37","THUNDER BAY CS","6048268","2019-01-11 21:00","2019","01","11","21:00","-7.9","","-11.6","","74","","0.1","","8","","17","","","","100.61","","","","-15","","NA"
"-89.33","48.37","THUNDER BAY CS","6048268","2019-01-11 22:00","2019","01","11","22:00","-8.0","","-11.7","","75","","0.0","","8","","10","","","","100.68","","","","-13","","NA"
"-89.33","48.37","THUNDER BAY CS","6048268","2019-01-11 23:00","2019","01","11","23:00","-8.7","","-11.9","","78","","0.0","","5","","14","","","","100.72","","","","-15","","NA"
"-89.33","48.37","THUNDER BAY CS","6048268","2019-01-12 00:00","2019","01","12","00:00","-9.4","","-12.5","","78","","0.0","","2","","9","","","","100.79","","","","-14","","NA"
"-89.33","48.37","THUNDER BAY CS","6048268","2019-01-12 01:00","2019","01","12","01:00","-9.8","","-13.4","","75","","0.0","","2","","11","","","","100.81","","","","-15","","NA"
"-89.33","48.37","THUNDER BAY CS","6048268","2019-01-12 02:00","2019","01","12","02:00","-10.2","","-14.2","","73","","0.0","","3","","9","","","","100.86","","","","-15","","NA"
"-89.33","48.37","THUNDER BAY CS","6048268","2019-01-12 03:00","2019","01","12","03:00","-10.4","","-14.3","","73","","0.0","","2","","6","","","","100.94","","","","-14","","NA"
"-89.33","48.37","THUNDER BAY CS","6048268","2019-01-12 04:00","2019","01","12","04:00","-10.6","","-14.6","","72","","0.0","","3","","9","","","","100.98","","","","-16","","NA"
"-89.33","48.37","THUNDER BAY CS","6048268","2019-01-12 05:00","2019","01","12","05:00","-11.1","","-15.4","","70","","0.0","","3","","12","","","","101.01","","","","-17","","NA"
"-89.33","48.37","THUNDER BAY CS","6048268","2019-01-12 06:00","2019","01","12","06:00","-11.6","","-15.9","","71","","0.0","","4","","12","","","","101.02","","","","-18","","NA"
"-89.33","48.37","THUNDER BAY CS","6048268","2019-01-12 07:00","2019","01","12","07:00","-12.1","","-16.4","","70","","0.0","","3","","8","","","","101.08","","","","-17","","NA"
"-89.33","48.37","THUNDER BAY CS","6048268","2019-01-12 08:00","2019","01","12","08:00","-12.3","","-16.6","","71","","0.0","","3","","7","","","","101.15","","","","-17","","NA"
"-89.33","48.37","THUNDER BAY CS","6048268","2019-01-12 09:00","2019","01","12","09:00","-12.5","","-16.3","","73","","0.0","","3","","9","","","","101.22","","","","-18","","NA"
"-89.33","48.37","THUNDER BAY CS","6048268","2019-01-12 10:00","2019","01","12","10:00","-12.1","","-15.5","","76","","0.0","","4","","9","","","","101.26","","","","-17","","NA"
"-89.33","48.37","THUNDER BAY CS","6048268","2019-01-12 11:00","2019","01","12","11:00","-11.0","","-14.3","","77","","0.0","","3","","9","","","","101.28","","","","-16","","NA"
"-89.33","48.37","THUNDER BAY CS","6048268","2019-01-12 12:00","2019","01","12","12:00","-9.4","","-12.4","","79","","0.0","","6","","18","","","","101.26","","","","-17","","NA"
"-89.33","48.37","THUNDER BAY CS","6048268","2019-01-12 13:00","2019","01","12","13:00","-9.5","","-12.1","","81","","0.0","","7","","21","","","","101.22","","","","-17","","NA"
"-89.33","48.37","THUNDER BAY CS","6048268","2019-01-12 14:00","2019","01","12","14:00","-9.0","","-11.4","","83","","0.0","","8","","18","","","","101.20","","","","-16","","NA"
"-89.33","48.37","THUNDER BAY CS","6048268","2019-01-12 15:00","2019","01","12","15:00","-8.8","","-11.2","","83","","0.0","","6","","20","","","","101.17","","","","-16","","NA"
"-89.33","48.37","THUNDER BAY CS","6048268","2019-01-12 16:00","2019","01","12","16:00","-8.5","","-10.8","","83","","0.0","","6","","14","","","","101.11","","","","-15","","NA"
"-89.33","48.37","THUNDER BAY CS","6048268","2019-01-12 17:00","2019","01","12","17:00","-8.5","","-10.8","","84","","0.0","","6","","16","","","","101.10","","","","-15","","NA"
"-89.33","48.37","THUNDER BAY CS","6048268","2019-01-12 18:00","2019","01","12","18:00","-8.3","","-10.4","","85","","0.0","","6","","16","","","","101.11","","","","-15","","NA"
"-89.33","48.37","THUNDER BAY CS","6048268","2019-01-12 19:00","2019","01","12","19:00","-8.5","","-10.7","","84","","0.0","","5","","14","","","","101.12","","","","-15","","NA"
"-89.33","48.37","THUNDER BAY CS","6048268","2019-01-12 20:00","2019","01","12","20:00","-8.6","","-10.8","","84","","0.0","","5","","11","","","","101.12","","","","-14","","NA"
"-89.33","48.37","THUNDER BAY CS","6048268","2019-01-12 21:00","2019","01","12","21:00","-8.6","","-10.7","","84","","0.0","","6","","12","","","","101.10","","","","-14","","NA"
"-89.33","48.37","THUNDER BAY CS","6048268","2019-01-12 22:00","2019","01","12","22:00","-8.8","","-10.9","","85","","0.0","","5","","11","","","","101.08","","","","-14","","NA"
"-89.33","48.37","THUNDER BAY CS","6048268","2019-01-12 23:00","2019","01","12","23:00","-8.1","","-10.2","","85","","0.0","","7","","12","","","","101.02","","","","-14","","NA"
"-89.33","48.37","THUNDER BAY CS","6048268","2019-01-13 00:00","2019","01","13","00:00","-7.3","","-9.2","","86","","0.0","","8","","14","","","","100.96","","","","-13","","NA"
"-89.33","48.37","THUNDER BAY CS","6048268","2019-01-13 01:00","2019","01","13","01:00","-7.0","","-8.8","","87","","0.0","","7","","9","","","","100.90","","","","-11","","NA"
"-89.33","48.37","THUNDER BAY CS","6048268","2019-01-13 02:00","2019","01","13","02:00","-6.8","","-8.7","","87","","0.0","","7","","4","","","","100.87","","","","-9","","NA"
"-89.33","48.37","THUNDER BAY CS","6048268","2019-01-13 03:00","2019","01","13","03:00","-6.4","","-7.9","","89","","0.0","","10","","6","","","","100.81","","","","-9","","NA"
"-89.33","48.37","THUNDER BAY CS","6048268","2019-01-13 04:00","2019","01","13","04:00","-7.0","","-8.4","","90","","0.0","","31","","5","","","","100.79","","","","-10","","NA"
"-89.33","48.37","THUNDER BAY CS","6048268","2019-01-13 05:00","2019","01","13","05:00","-7.5","","-8.8","","90","","0.0","","22","","3","","","","100.71","","","","-9","","NA"
"-89.33","48.37","THUNDER BAY CS","6048268","2019-01-13 06:00","2019","01","13","06:00","-7.4","","-8.7","","90","","0.0","","23","","5","","","","100.68","","","","-10","","NA"
"-89.33","48.37","THUNDER BAY CS","6048268","2019-01-13 07:00","2019","01","13","07:00","-7.4","","-8.8","","90","","0.0","","23","","5","","","","100.62","","","","-10","","NA"
"-89.33","48.37","THUNDER BAY CS","6048268","2019-01-13 08:00","2019","01","13","08:00","-7.3","","-8.7","","90","","0.0","","25","","5","","","","100.55","","","","-10","","NA"
"-89.33","48.37","THUNDER BAY CS","6048268","2019-01-13 09:00","2019","01","13","09:00","-7.5","","-8.8","","91","","0.0","","30","","2","","","","100.49","","","","-9","","NA"
"-89.33","48.37","THUNDER BAY CS","6048268","2019-01-13 10:00","2019","01","13","10:00","-7.1","","-8.7","","88","","0.0","","25","","2","","","","100.47","","","","-8","","NA"
"-89.33","48.37","THUNDER BAY CS","6048268","2019-01-13 11:00","2019","01","13","11:00","-6.0","","-8.1","","85","","0.0","","28","","2","","","","100.45","","","","-7","","NA"
"-89.33","48.37","THUNDER BAY CS","6048268","2019-01-13 12:00","2019","01","13","12:00","-4.6","","-7.2","","82","","0.0","","18","","3","","","","100.34","","","","-6","","NA"
"-89.33","48.37","THUNDER BAY CS","6048268","2019-01-13 13:00","2019","01","13","13:00","-3.2","","-5.9","","82","","0.0","","34","","4","","","","100.19","","","","-5","","NA"
"-89.33","48.37","THUNDER BAY CS","6048268","2019-01-13 14:00","2019","01","13","14:00","-0.5","","-3.6","","80","","0.0","","23","","11","","","","100.10","","","","-4","","NA"
"-89.33","48.37","THUNDER BAY CS","6048268","2019-01-13 15:00","2019","01","13","15:00","-0.1","","-3.8","","76","","0.0","","23","","16","","","","100.00","","","","-5","","NA"
"-89.33","48.37","THUNDER BAY CS","6048268","2019-01-13 16:00","2019","01","13","16:00","0.0","","-3.6","","76","","0.0","","23","","14","","","","99.96","","","","-4","","NA"
"-89.33","48.37","THUNDER BAY CS","6048268","2019-01-13 17:00","2019","01","13","17:00","0.0","","-3.6","","77","","0.0","","23","","17","","","","99.92","","","","-5","","NA"
"-89.33","48.37","THUNDER BAY CS","6048268","2019-01-13 18:00","2019","01","13","18:00","-0.3","","-3.6","","79","","0.0","","23","","14","","","","99.91","","","","-5","","NA"
"-89.33","48.37","THUNDER BAY CS","6048268","2019-01-13 19:00","2019","01","13","19:00","-0.4","","-3.7","","79","","0.0","","23","","16","","","","99.86","","","","-5","","NA"
"-89.33","48.37","THUNDER BAY CS","6048268","2019-01-13 20:00","2019","01","13","20:00","-0.5","","-3.7","","79","","0.0","","23","","13","","","","99.83","","","","-5","","NA"
"-89.33","48.37","THUNDER BAY CS","6048268","2019-01-13 21:00","2019","01","13","21:00","-0.6","","-3.5","","81","","0.0","","24","","10","","","","99.80","","","","-4","","NA"
"-89.33","48.37","THUNDER BAY CS","6048268","2019-01-13 22:00","2019","01","13","22:00","-0.7","","-3.2","","83","","0.0","","24","","10","","","","99.76","","","","-4","","NA"
"-89.33","48.37","THUNDER BAY CS","6048268","2019-01-13 23:00","2019","01","13","23:00","-0.8","","-2.8","","86","","0.0","","25","","8","","","","99.73","","","","-4","","NA"
"-89.33","48.37","THUNDER BAY CS","6048268","2019-01-14 00:00","2019","01","14","00:00","-0.9","","-2.9","","86","","0.0","","29","","10","","","","99.72","","","","-4","","NA"
"-89.33","48.37","THUNDER BAY CS","6048268","2019-01-14 01:00","2019","01","14","01:00","-1.0","","-3.6","","83","","0.0","","29","","13","","","","99.67","","","","-5","","NA"
"-89.33","48.37","THUNDER BAY CS","6048268","2019-01-14 02:00","2019","01","14","02:00","-1.4","","-4.2","","81","","0.0","","29","","16","","","","99.66","","","","-6","","NA"
"-89.33","48.37","THUNDER BAY CS","6048268","2019-01-14 03:00","2019","01","14","03:00","-1.7","","-4.6","","81","","0.0","","29","","14","","","","99.68","","","","-6","","NA"
"-89.33","48.37","THUNDER BAY CS","6048268","2019-01-14 04:00","2019","01","14","04:00","-1.9","","-5.0","","79","","0.0","","30","","18","","","","99.71","","","","-7","","NA"
"-89.33","48.37","THUNDER BAY CS","6048268","2019-01-14 05:00","2019","01","14","05:00","-2.1","","-4.7","","82","","0.0","","29","","12","","","","99.70","","","","-6","","NA"
"-89.33","48.37","THUNDER BAY CS","6048268","2019-01-14 06:00","2019","01","14","06:00","-2.3","","-5.1","","81","","0.0","","29","","10","","","","99.67","","","","-6","","NA"
"-89.33","48.37","THUNDER BAY CS","6048268","2019-01-14 07:00","2019","01","14","07:00","-2.4","","-4.7","","84","","0.0","","29","","12","","","","99.69","","","","-7","","NA"
"-89.33","48.37","THUNDER BAY CS","6048268","2019-01-14 08:00","2019","01","14","08:00","-2.6","","-4.7","","86","","0.0","","27","","8","","","","99.70","","","","-6","","NA"
"-89.33","48.37","THUNDER BAY CS","6048268","2019-01-14 09:00","2019","01","14","09:00","-2.9","","-4.3","","90","","0.1","","27","","7","","","","99.73","","","","-6","","NA"
"-89.33","48.37","THUNDER BAY CS","6048268","2019-01-14 10:00","2019","01","14","10:00","-2.4","","-4.9","","83","","0.0","","30","","9","","","","99.74","","","","-6","","NA"
"-89.33","48.37","THUNDER BAY CS","6048268","2019-01-14 11:00","2019","01","14","11:00","-2.4","","-5.1","","81","","0.0","","31","","13","","","","99.77","","","","-7","","NA"
"-89.33","48.37","THUNDER BAY CS","6048268","2019-01-14 12:00","2019","01","14","12:00","-2.2","","-5.2","","80","","0.0","","31","","9","","","","99.77","","","","-6","","NA"
"-89.33","48.37","THUNDER BAY CS","6048268","2019-01-14 13:00","2019","01","14","13:00","-2.1","","-6.0","","74","","0.0","","33","","14","","","","99.73","","","","-7","","NA"
"-89.33","48.37","THUNDER BAY CS","6048268","2019-01-14 14:00","2019","01","14","14:00","-2.1","","-7.1","","68","","0.0","","32","","14","","","","99.71","","","","-7","","NA"
"-89.33","48.37","THUNDER BAY CS","6048268","2019-01-14 15:00","2019","01","14","15:00","-2.3","","-6.5","","72","","0.0","","32","","16","","","","99.73","","","","-7","","NA"
"-89.33","48.37","THUNDER BAY CS","6048268","2019-01-14 16:00","2019","01","14","16:00","-3.0","","-8.1","","68","","0.0","","34","","20","","","","99.77","","","","-9","","NA"
"-89.33","48.37","THUNDER BAY CS","6048268","2019-01-14 17:00","2019","01","14","17:00","-3.6","","-8.9","","67","","0.0","","36","","15","","","","99.83","","","","-9","","NA"
"-89.33","48.37","THUNDER BAY CS","6048268","2019-01-14 18:00","2019","01","14","18:00","-4.8","","-9.7","","68","","0.0","","2","","13","","","","99.88","","","","-10","","NA"
"-89.33","48.37","THUNDER BAY CS","6048268","2019-01-14 19:00","2019","01","14","19:00","-5.6","","-10.5","","68","","0.0","","32","","10","","","","99.93","","","","-10","","NA"
"-89.33","48.37","THUNDER BAY CS","6048268","2019-01-14 20:00","2019","01","14","20:00","-6.1","","-10.0","","74","","0.0","","1","","2","","","","99.95","","","","-7","","NA"
"-89.33","48.37","THUNDER BAY CS","6048268","2019-01-14 21:00","2019","01","14","21:00","-6.9","","-11.3","","71","","0.0","","2","","10","","","","99.94","","","","-12","","NA"
"-89.33","48.37","THUNDER BAY CS","6048268","2019-01-14 22:00","2019","01","14","22:00","-8.5","","-12.4","","73","","0.0","","34","","8","","","","99.89","","","","-13","","NA"
"-89.33","48.37","THUNDER BAY CS","6048268","2019-01-14 23:00","2019","01","14","23:00","-9.7","","-12.0","","83","","0.0","","30","","4","","","","99.87","","","","-12","","NA"
"-89.33","48.37","THUNDER BAY CS","6048268","2019-01-15 00:00","2019","01","15","00:00","-9.6","","-12.4","","80","","0.0","","0","","1","","","","99.84","","","","-10","","NA"
"-89.33","48.37","THUNDER BAY CS","6048268","2019-01-15 01:00","2019","01","15","01:00","-10.6","","-12.9","","83","","0.0","","0","","1","","","","99.77","","","","-11","","NA"
"-89.33","48.37","THUNDER BAY CS","6048268","2019-01-15 02:00","2019","01","15","02:00","-12.9","","-14.6","","87","","0.0","","","","0","","","","99.69","","","","","","NA"
"-89.33","48.37","THUNDER BAY CS","6048268","2019-01-15 03:00","2019","01","15","03:00","-14.1","","-15.7","","87","","0.0","","30","","7","","","","99.66","","","","-19","","NA"
"-89.33","48.37","THUNDER BAY CS","6048268","2019-01-15 04:00","2019","01","15","04:00","-12.4","","-13.9","","88","","0.0","","25","","5","","","","99.55","","","","-16","","NA"
"-89.33","48.37","THUNDER BAY CS","6048268","2019-01-15 05:00","2019","01","15","05:00","-13.2","","-14.7","","88","","0.0","","29","","2","","","","99.43","","","","-15","","NA"
"-89.33","48.37","THUNDER BAY CS","6048268","2019-01-15 06:00","2019","01","15","06:00","-12.0","","-13.7","","87","","0.0","","26","","5","","","","99.31","","","","-15","","NA"
"-89.33","48.37","THUNDER BAY CS","6048268","2019-01-15 07:00","2019","01","15","07:00","-11.4","","-13.2","","86","","0.0","","30","","4","","","","99.16","","","","-14","","NA"
"-89.33","48.37","THUNDER BAY CS","6048268","2019-01-15 08:00","2019","01","15","08:00","-11.0","","-12.9","","86","","0.0","","21","","2","","","","99.03","","","","-12","","NA"
"-89.33","48.37","THUNDER BAY CS","6048268","2019-01-15 09:00","2019","01","15","09:00","-10.3","","-12.4","","84","","0.0","","24","","6","","","","98.85","","","","-14","","NA"
"-89.33","48.37","THUNDER BAY CS","6048268","2019-01-15 10:00","2019","01","15","10:00","-10.0","","-12.3","","84","","0.0","","3","","3","","","","98.68","","","","-12","","NA"
"-89.33","48.37","THUNDER BAY CS","6048268","2019-01-15 11:00","2019","01","15","11:00","-7.6","","-9.9","","84","","0.0","","36","","8","","","","98.49","","","","-12","","NA"
"-89.33","48.37","THUNDER BAY CS","6048268","2019-01-15 12:00","2019","01","15","12:00","-5.6","","-8.4","","81","","0.0","","14","","2","","","","98.27","","","","-7","","NA"
"-89.33","48.37","THUNDER BAY CS","6048268","2019-01-15 13:00","2019","01","15","13:00","-1.8","","-5.7","","75","","0.0","","24","","24","","","","98.12","","","","-8","","NA"
"-89.33","48.37","THUNDER BAY CS","6048268","2019-01-15 14:00","2019","01","15","14:00","-1.8","","-6.0","","73","","0.0","","26","","26","","","","98.06","","","","-8","","NA"
"-89.33","48.37","THUNDER BAY CS","6048268","2019-01-15 15:00","2019","01","15","15:00","-3.7","","-6.5","","81","","0.2","","26","","24","","","","98.07","","","","-11","","NA"
"-89.33","48.37","THUNDER BAY CS","6048268","2019-01-15 16:00","2019","01","15","16:00","-3.5","","-7.5","","74","","0.0","","27","","30","","","","98.10","","","","-11","","NA"
"-89.33","48.37","THUNDER BAY CS","6048268","2019-01-15 17:00","2019","01","15","17:00","-3.7","","-7.1","","77","","0.0","","27","","27","","","","98.18","","","","-11","","NA"
"-89.33","48.37","THUNDER BAY CS","6048268","2019-01-15 18:00","2019","01","15","18:00","-3.6","","-7.4","","75","","0.0","","27","","22","","","","98.23","","","","-10","","NA"
"-89.33","48.37","THUNDER BAY CS","6048268","2019-01-15 19:00","2019","01","15","19:00","-3.5","","-7.7","","73","","0.0","","28","","24","","","","98.32","","","","-10","","NA"
"-89.33","48.37","THUNDER BAY CS","6048268","2019-01-15 20:00","2019","01","15","20:00","-7.4","","-11.4","","73","","0.2","","34","","44","","","","98.58","","","","-18","","NA"
"-89.33","48.37","THUNDER BAY CS","6048268","2019-01-15 21:00","2019","01","15","21:00","-12.3","","-18.4","","60","","0.0","","34","","35","","","","98.94","","","","-23","","NA"
"-89.33","48.37","THUNDER BAY CS","6048268","2019-01-15 22:00","2019","01","15","22:00","-14.2","","-19.6","","64","","0.0","","32","","23","","","","99.21","","","","-24","","NA"
"-89.33","48.37","THUNDER BAY CS","6048268","2019-01-15 23:00","2019","01","15","23:00","-15.3","","-20.8","","63","","0.0","","32","","19","","","","99.39","","","","-24","","NA"
"-89.33","48.37","THUNDER BAY CS","6048268","2019-01-16 00:00","2019","01","16","00:00","-15.9","","-21.2","","64","","0.0","","31","","24","","","","99.53","","","","-26","","NA"
"-89.33","48.37","THUNDER BAY CS","6048268","2019-01-16 01:00","2019","01","16","01:00","-16.4","","-21.5","","65","","0.0","","31","","26","","","","99.63","","","","-27","","NA"
"-89.33","48.37","THUNDER BAY CS","6048268","2019-01-16 02:00","2019","01","16","02:00","-17.3","","-22.3","","65","","0.0","","30","","17","","","","99.79","","","","-26","","NA"
"-89.33","48.37","THUNDER BAY CS","6048268","2019-01-16 03:00","2019","01","16","03:00","-17.9","","-23.2","","63","","0.0","","29","","15","","","","99.94","","","","-26","","NA"
"-89.33","48.37","THUNDER BAY CS","6048268","2019-01-16 04:00","2019","01","16","04:00","-19.1","","-24.0","","65","","0.0","","31","","18","","","","100.04","","","","-29","","NA"
"-89.33","48.37","THUNDER BAY CS","6048268","2019-01-16 05:00","2019","01","16","05:00","-19.8","","-24.8","","64","","0.0","","31","","21","","","","100.11","","","","-30","","NA"
"-89.33","48.37","THUNDER BAY CS","6048268","2019-01-16 06:00","2019","01","16","06:00","-20.7","","-25.1","","68","","0.0","","29","","12","","","","100.14","","","","-29","","NA"
"-89.33","48.37","THUNDER BAY CS","6048268","2019-01-16 07:00","2019","01","16","07:00","-21.5","","-25.5","","70","","0.0","","30","","15","","","","100.20","","","","-31","","NA"
"-89.33","48.37","THUNDER BAY CS","6048268","2019-01-16 08:00","2019","01","16","08:00","-22.3","","-26.3","","70","","0.0","","29","","11","","","","100.26","","","","-30","","NA"
"-89.33","48.37","THUNDER BAY CS","6048268","2019-01-16 09:00","2019","01","16","09:00","-22.7","","-26.7","","69","","0.0","","28","","10","","","","100.30","","","","-30","","NA"
"-89.33","48.37","THUNDER BAY CS","6048268","2019-01-16 10:00","2019","01","16","10:00","-22.3","","-27.7","","61","","0.0","","28","","13","","","","100.40","","","","-31","","NA"
"-89.33","48.37","THUNDER BAY CS","6048268","2019-01-16 11:00","2019","01","16","11:00","-21.5","","-27.6","","58","","0.0","","28","","13","","","","100.42","","","","-30","","NA"
"-89.33","48.37","THUNDER BAY CS","6048268","2019-01-16 12:00","2019","01","16","12:00","-20.5","","-27.5","","54","","0.0","","27","","12","","","","100.43","","","","-29","","NA"
"-89.33","48.37","THUNDER BAY CS","6048268","2019-01-16 13:00","2019","01","16","13:00","-19.0","","-26.4","","52","","0.0","","31","","14","","","","100.35","","","","-28","","NA"
"-89.33","48.37","THUNDER BAY CS","6048268","2019-01-16 14:00","2019","01","16","14:00","-17.6","","-25.7","","49","","0.0","","28","","9","","","","100.29","","","","-24","","NA"
"-89.33","48.37","THUNDER BAY CS","6048268","2019-01-16 15:00","2019","01","16","15:00","-16.1","","-24.8","","47","","0.0","","28","","9","","","","100.25","","","","-22","","NA"
"-89.33","48.37","THUNDER BAY CS","6048268","2019-01-16 16:00","2019","01","16","16:00","-15.2","","-24.5","","45","","0.0","","29","","10","","","","100.25","","","","-21","","NA"
"-89.33","48.37","THUNDER BAY CS","6048268","2019-01-16 17:00","2019","01","16","17:00","-15.4","","-24.3","","47","","0.0","","27","","7","","","","100.25","","","","-20","","NA"
"-89.33","48.37","THUNDER BAY CS","6048268","2019-01-16 18:00","2019","01","16","18:00","-16.9","","-24.6","","51","","0.0","","26","","7","","","","100.27","","","","-22","","NA"
"-89.33","48.37","THUNDER BAY CS","6048268","2019-01-16 19:00","2019","01","16","19:00","-21.7","","-25.4","","72","","0.0","","26","","4","","","","100.26","","","","-25","","NA"
"-89.33","48.37","THUNDER BAY CS","6048268","2019-01-16 20:00","2019","01","16","20:00","-21.6","","-24.2","","79","","0.0","","26","","5","","","","100.23","","","","-26","","NA"
"-89.33","48.37","THUNDER BAY CS","6048268","2019-01-16 21:00","2019","01","16","21:00","-21.5","","-24.2","","79","","0.0","","26","","4","","","","100.20","","","","-25","","NA"
"-89.33","48.37","THUNDER BAY CS","6048268","2019-01-16 22:00","2019","01","16","22:00","-19.5","","-23.4","","71","","0.0","","32","","7","","","","100.17","","","","-25","","NA"
"-89.33","48.37","THUNDER BAY CS","6048268","2019-01-16 23:00","2019","01","16","23:00","-19.1","","-22.9","","72","","0.0","","21","","5","","","","100.15","","","","-23","","NA"
"-89.33","48.37","THUNDER BAY CS","6048268","2019-01-17 00:00","2019","01","17","00:00","-19.0","","-23.1","","70","","0.0","","21","","6","","","","100.13","","","","-24","","NA"
"-89.33","48.37","THUNDER BAY CS","6048268","2019-01-17 01:00","2019","01","17","01:00","-18.8","","-22.8","","71","","0.0","","22","","8","","","","100.09","","","","-25","","NA"
"-89.33","48.37","THUNDER BAY CS","6048268","2019-01-17 02:00","2019","01","17","02:00","-18.9","","-22.8","","72","","0.0","","26","","6","","","","100.05","","","","-24","","NA"
"-89.33","48.37","THUNDER BAY CS","6048268","2019-01-17 03:00","2019","01","17","03:00","-18.4","","-22.0","","73","","0.0","","23","","5","","","","100.04","","","","-22","","NA"
"-89.33","48.37","THUNDER BAY CS","6048268","2019-01-17 04:00","2019","01","17","04:00","-18.1","","-21.7","","74","","0.0","","22","","4","","","","100.01","","","","-21","","NA"
"-89.33","48.37","THUNDER BAY CS","6048268","2019-01-17 05:00","2019","01","17","05:00","-17.6","","-21.4","","72","","0.0","","24","","6","","","","99.90","","","","-22","","NA"
"-89.33","48.37","THUNDER BAY CS","6048268","2019-01-17 06:00","2019","01","17","06:00","-17.1","","-21.3","","70","","0.0","","24","","5","","","","99.84","","","","-21","","NA"
"-89.33","48.37","THUNDER BAY CS","6048268","2019-01-17 07:00","2019","01","17","07:00","-17.0","","-20.8","","72","","0.0","","25","","4","","","","99.78","","","","-20","","NA"
"-89.33","48.37","THUNDER BAY CS","6048268","2019-01-17 08:00","2019","01","17","08:00","-16.8","","-20.8","","71","","0.0","","24","","5","","","","99.71","","","","-21","","NA"
"-89.33","48.37","THUNDER BAY CS","6048268","2019-01-17 09:00","2019","01","17","09:00","-16.6","","-20.8","","70","","0.0","","23","","5","","","","99.67","","","","-20","","NA"
"-89.33","48.37","THUNDER BAY CS","6048268","2019-01-17 10:00","2019","01","17","10:00","-15.9","","-21.4","","63","","0.0","","25","","7","","","","99.65","","","","-21","","NA"
"-89.33","48.37","THUNDER BAY CS","6048268","2019-01-17 11:00","2019","01","17","11:00","-15.4","","-21.4","","60","","0.0","","26","","5","","","","99.67","","","","-19","","NA"
"-89.33","48.37","THUNDER BAY CS","6048268","2019-01-17 12:00","2019","01","17","12:00","-15.0","","-20.6","","62","","0.0","","27","","8","","","","99.62","","","","-20","","NA"
"-89.33","48.37","THUNDER BAY CS","6048268","2019-01-17 13:00","2019","01","17","13:00","-14.1","","-19.9","","61","","0.0","","29","","10","","","","99.49","","","","-20","","NA"
"-89.33","48.37","THUNDER BAY CS","6048268","2019-01-17 14:00","2019","01","17","14:00","-13.0","","-19.2","","60","","0.0","","28","","14","","","","99.39","","","","-20","","NA"
"-89.33","48.37","THUNDER BAY CS","6048268","2019-01-17 15:00","2019","01","17","15:00","-11.6","","-18.8","","55","","0.0","","30","","12","","","","99.33","","","","-18","","NA"
"-89.33","48.37","THUNDER BAY CS","6048268","2019-01-17 16:00","2019","01","17","16:00","-10.9","","-18.0","","56","","0.0","","27","","14","","","","99.28","","","","-18","","NA"
"-89.33","48.37","THUNDER BAY CS","6048268","2019-01-17 17:00","2019","01","17","17:00","-11.2","","-18.1","","57","","0.0","","29","","13","","","","99.27","","","","-18","","NA"
"-89.33","48.37","THUNDER BAY CS","6048268","2019-01-17 18:00","2019","01","17","18:00","-13.3","","-19.1","","62","","0.0","","27","","9","","","","99.28","","","","-19","","NA"
"-89.33","48.37","THUNDER BAY CS","6048268","2019-01-17 19:00","2019","01","17","19:00","-14.9","","-19.4","","68","","0.0","","27","","9","","","","99.34","","","","-21","","NA"
"-89.33","48.37","THUNDER BAY CS","6048268","2019-01-17 20:00","2019","01","17","20:00","-16.6","","-20.8","","70","","0.0","","27","","12","","","","99.37","","","","-24","","NA"
"-89.33","48.37","THUNDER BAY CS","6048268","2019-01-17 21:00","2019","01","17","21:00","-15.3","","-19.7","","69","","0.0","","25","","11","","","","99.40","","","","-22","","NA"
"-89.33","48.37","THUNDER BAY CS","6048268","2019-01-17 22:00","2019","01","17","22:00","-15.5","","-19.8","","69","","0.0","","28","","14","","","","99.39","","","","-23","","NA"
"-89.33","48.37","THUNDER BAY CS","6048268","2019-01-17 23:00","2019","01","17","23:00","-16.1","","-20.5","","69","","0.0","","28","","17","","","","99.37","","","","-25","","NA"
"-89.33","48.37","THUNDER BAY CS","6048268","2019-01-18 00:00","2019","01","18","00:00","-16.7","","-21.1","","68","","0.0","","27","","19","","","","99.43","","","","-26","","NA"
"-89.33","48.37","THUNDER BAY CS","6048268","2019-01-18 01:00","2019","01","18","01:00","-17.5","","-21.9","","68","","0.0","","27","","18","","","","99.46","","","","-27","","NA"
"-89.33","48.37","THUNDER BAY CS","6048268","2019-01-18 02:00","2019","01","18","02:00","-18.2","","-22.3","","70","","0.0","","27","","19","","","","99.44","","","","-28","","NA"
"-89.33","48.37","THUNDER BAY CS","6048268","2019-01-18 03:00","2019","01","18","03:00","-18.8","","-22.7","","72","","0.0","","27","","16","","","","99.53","","","","-28","","NA"
"-89.33","48.37","THUNDER BAY CS","6048268","2019-01-18 04:00","2019","01","18","04:00","-19.8","","-24.3","","67","","0.0","","29","","16","","","","99.62","","","","-29","","NA"
"-89.33","48.37","THUNDER BAY CS","6048268","2019-01-18 05:00","2019","01","18","05:00","-20.6","","-25.3","","66","","0.0","","31","","19","","","","99.72","","","","-31","","NA"
"-89.33","48.37","THUNDER BAY CS","6048268","2019-01-18 06:00","2019","01","18","06:00","-22.0","","-27.0","","64","","0.0","","32","","17","","","","99.81","","","","-32","","NA"
"-89.33","48.37","THUNDER BAY CS","6048268","2019-01-18 07:00","2019","01","18","07:00","-23.4","","-28.6","","62","","0.0","","32","","16","","","","99.96","","","","-34","","NA"
"-89.33","48.37","THUNDER BAY CS","6048268","2019-01-18 08:00","2019","01","18","08:00","-24.6","","-29.7","","63","","0.0","","30","","13","","","","100.13","","","","-34","","NA"
"-89.33","48.37","THUNDER BAY CS","6048268","2019-01-18 09:00","2019","01","18","09:00","-25.6","","-30.9","","61","","0.0","","30","","16","","","","100.26","","","","-36","","NA"
"-89.33","48.37","THUNDER BAY CS","6048268","2019-01-18 10:00","2019","01","18","10:00","-25.6","","-31.4","","59","","0.0","","31","","19","","","","100.36","","","","-37","","NA"
"-89.33","48.37","THUNDER BAY CS","6048268","2019-01-18 11:00","2019","01","18","11:00","-25.7","","-31.7","","57","","0.0","","31","","19","","","","100.45","","","","-37","","NA"
"-89.33","48.37","THUNDER BAY CS","6048268","2019-01-18 12:00","2019","01","18","12:00","-24.4","","-31.2","","53","","0.0","","31","","20","","","","100.47","","","","-36","","NA"
"-89.33","48.37","THUNDER BAY CS","6048268","2019-01-18 13:00","2019","01","18","13:00","-22.6","","-30.6","","48","","0.0","","33","","18","","","","100.40","","","","-33","","NA"
"-89.33","48.37","THUNDER BAY CS","6048268","2019-01-18 14:00","2019","01","18","14:00","-21.6","","-30.1","","46","","0.0","","31","","12","","","","100.44","","","","-30","","NA"
"-89.33","48.37","THUNDER BAY CS","6048268","2019-01-18 15:00","2019","01","18","15:00","-20.9","","-30.4","","42","","0.0","","32","","8","","","","100.50","","","","-27","","NA"
"-89.33","48.37","THUNDER BAY CS","6048268","2019-01-18 16:00","2019","01","18","16:00","-21.0","","-29.9","","45","","0.0","","31","","13","","","","100.57","","","","-30","","NA"
"-89.33","48.37","THUNDER BAY CS","6048268","2019-01-18 17:00","2019","01","18","17:00","-21.1","","-29.8","","46","","0.0","","34","","12","","","","100.56","","","","-29","","NA"
"-89.33","48.37","THUNDER BAY CS","6048268","2019-01-18 18:00","2019","01","18","18:00","-22.2","","-30.0","","49","","0.0","","33","","11","","","","100.60","","","","-30","","NA"
"-89.33","48.37","THUNDER BAY CS","6048268","2019-01-18 19:00","2019","01","18","19:00","-24.5","","-30.3","","59","","0.0","","32","","6","","","","100.65","","","","-30","","NA"
"-89.33","48.37","THUNDER BAY CS","6048268","2019-01-18 20:00","2019","01","18","20:00","-24.0","","-30.9","","53","","0.0","","31","","5","","","","100.71","","","","-29","","NA"
"-89.33","48.37","THUNDER BAY CS","6048268","2019-01-18 21:00","2019","01","18","21:00","-26.4","","-31.6","","62","","0.0","","30","","5","","","","100.77","","","","-32","","NA"
"-89.33","48.37","THUNDER BAY CS","6048268","2019-01-18 22:00","2019","01","18","22:00","-26.8","","-31.7","","63","","0.0","","27","","8","","","","100.82","","","","-34","","NA"
"-89.33","48.37","THUNDER BAY CS","6048268","2019-01-18 23:00","2019","01","18","23:00","-28.2","","-31.9","","70","","0.0","","26","","6","","","","100.84","","","","-34","","NA"
"-89.33","48.37","THUNDER BAY CS","6048268","2019-01-19 00:00","2019","01","19","00:00","-29.7","","-32.8","","75","","0.0","","26","","9","","","","100.87","","","","-38","","NA"
"-89.33","48.37","THUNDER BAY CS","6048268","2019-01-19 01:00","2019","01","19","01:00","-27.9","","-31.7","","70","","0.0","","25","","8","","","","100.87","","","","-36","","NA"
"-89.33","48.37","THUNDER BAY CS","6048268","2019-01-19 02:00","2019","01","19","02:00","-28.5","","-32.2","","70","","0.0","","24","","8","","","","100.85","","","","-36","","NA"
"-89.33","48.37","THUNDER BAY CS","6048268","2019-01-19 03:00","2019","01","19","03:00","-29.9","","-33.7","","70","","0.0","","27","","9","","","","100.91","","","","-38","","NA"
"-89.33","48.37","THUNDER BAY CS","6048268","2019-01-19 04:00","2019","01","19","04:00","-30.1","","-33.6","","72","","0.0","","27","","7","","","","100.86","","","","-37","","NA"
"-89.33","48.37","THUNDER BAY CS","6048268","2019-01-19 05:00","2019","01","19","05:00","-30.6","","-33.8","","74","","0.0","","24","","5","","","","100.81","","","","-36","","NA"
"-89.33","48.37","THUNDER BAY CS","6048268","2019-01-19 06:00","2019","01","19","06:00","-32.1","","-35.2","","74","","0.0","","24","","6","","","","100.78","","","","-39","","NA"
"-89.33","48.37","THUNDER BAY CS","6048268","2019-01-19 07:00","2019","01","19","07:00","-32.3","","-35.4","","74","","0.0","","25","","5","","","","100.76","","","","-38","","NA"
"-89.33","48.37","THUNDER BAY CS","6048268","2019-01-19 08:00","2019","01","19","08:00","-32.8","","-36.0","","73","","0.0","","25","","5","","","","100.75","","","","-39","","NA"
"-89.33","48.37","THUNDER BAY CS","6048268","2019-01-19 09:00","2019","01","19","09:00","-33.3","","-36.7","","71","","0.0","","24","","4","","","","100.77","","","","-38","","NA"
"-89.33","48.37","THUNDER BAY CS","6048268","2019-01-19 10:00","2019","01","19","10:00","-29.5","","-33.3","","69","","0.0","","25","","7","","","","100.75","","","","-37","","NA"
"-89.33","48.37","THUNDER BAY CS","6048268","2019-01-19 11:00","2019","01","19","11:00","-26.9","","-33.3","","55","","0.0","","27","","9","","","","100.70","","","","-35","","NA"
"-89.33","48.37","THUNDER BAY CS","6048268","2019-01-19 12:00","2019","01","19","12:00","-24.3","","-31.3","","52","","0.0","","27","","10","","","","100.64","","","","-32","","NA"
"-89.33","48.37","THUNDER BAY CS","6048268","2019-01-19 13:00","2019","01","19","13:00","-22.2","","-30.7","","46","","0.0","","29","","23","","","","100.51","","","","-34","","NA"
"-89.33","48.37","THUNDER BAY CS","6048268","2019-01-19 14:00","2019","01","19","14:00","-21.4","","-30.1","","45","","0.0","","30","","19","","","","100.38","","","","-32","","NA"
"-89.33","48.37","THUNDER BAY CS","6048268","2019-01-19 15:00","2019","01","19","15:00","-19.9","","-29.4","","43","","0.0","","31","","16","","","","100.32","","","","-29","","NA"
"-89.33","48.37","THUNDER BAY CS","6048268","2019-01-19 16:00","2019","01","19","16:00","-19.6","","-29.5","","41","","0.0","","32","","17","","","","100.32","","","","-29","","NA"
"-89.33","48.37","THUNDER BAY CS","6048268","2019-01-19 17:00","2019","01","19","17:00","-20.3","","-30.0","","42","","0.0","","32","","16","","","","100.36","","","","-30","","NA"
"-89.33","48.37","THUNDER BAY CS","6048268","2019-01-19 18:00","2019","01","19","18:00","-21.9","","-29.8","","49","","0.0","","31","","17","","","","100.40","","","","-32","","NA"
"-89.33","48.37","THUNDER BAY CS","6048268","2019-01-19 19:00","2019","01","19","19:00","-23.3","","-30.2","","54","","0.0","","30","","12","","","","100.43","","","","-32","","NA"
"-89.33","48.37","THUNDER BAY CS","6048268","2019-01-19 20:00","2019","01","19","20:00","-24.7","","-30.8","","57","","0.0","","32","","13","","","","100.48","","","","-34","","NA"
"-89.33","48.37","THUNDER BAY CS","6048268","2019-01-19 21:00","2019","01","19","21:00","-25.5","","-30.8","","61","","0.0","","33","","5","","","","100.51","","","","-31","","NA"
"-89.33","48.37","THUNDER BAY CS","6048268","2019-01-19 22:00","2019","01","19","22:00","-25.8","","-31.1","","61","","0.0","","32","","7","","","","100.55","","","","-32","","NA"
"-89.33","48.37","THUNDER BAY CS","6048268","2019-01-19 23:00","2019","01","19","23:00","-26.2","","-31.5","","61","","0.0","","34","","9","","","","100.55","","","","-34","","NA"
"-89.33","48.37","THUNDER BAY CS","6048268","2019-01-20 00:00","2019","01","20","00:00","-28.6","","-33.5","","63","","0.0","","33","","8","","","","100.61","","","","-36","","NA"
"-89.33","48.37","THUNDER BAY CS","6048268","2019-01-20 01:00","2019","01","20","01:00","-28.0","","-32.5","","66","","0.0","","33","","13","","","","100.65","","","","-38","","NA"
"-89.33","48.37","THUNDER BAY CS","6048268","2019-01-20 02:00","2019","01","20","02:00","-29.6","","-33.8","","67","","0.0","","30","","7","","","","100.73","","","","-37","","NA"
"-89.33","48.37","THUNDER BAY CS","6048268","2019-01-20 03:00","2019","01","20","03:00","-30.8","","-34.5","","70","","0.0","","31","","10","","","","100.78","","","","-40","","NA"
"-89.33","48.37","THUNDER BAY CS","6048268","2019-01-20 04:00","2019","01","20","04:00","-31.2","","-34.5","","73","","0.0","","28","","9","","","","100.82","","","","-40","","NA"
"-89.33","48.37","THUNDER BAY CS","6048268","2019-01-20 05:00","2019","01","20","05:00","-31.4","","-34.7","","73","","0.0","","29","","2","","","","100.87","","","","-34","","NA"
"-89.33","48.37","THUNDER BAY CS","6048268","2019-01-20 06:00","2019","01","20","06:00","-31.4","","-34.4","","75","","0.0","","31","","5","","","","100.89","","","","-37","","NA"
"-89.33","48.37","THUNDER BAY CS","6048268","2019-01-20 07:00","2019","01","20","07:00","-33.2","","-36.3","","74","","0.0","","27","","7","","","","100.96","","","","-41","","NA"
"-89.33","48.37","THUNDER BAY CS","6048268","2019-01-20 08:00","2019","01","20","08:00","-32.6","","-35.8","","73","","0.0","","26","","8","","","","101.00","","","","-41","","NA"
"-89.33","48.37","THUNDER BAY CS","6048268","2019-01-20 09:00","2019","01","20","09:00","-33.0","","-36.6","","70","","0.0","","29","","8","","","","101.10","","","","-41","","NA"
"-89.33","48.37","THUNDER BAY CS","6048268","2019-01-20 10:00","2019","01","20","10:00","-31.0","","-34.7","","70","","0.0","","25","","7","","","","101.16","","","","-38","","NA"
"-89.33","48.37","THUNDER BAY CS","6048268","2019-01-20 11:00","2019","01","20","11:00","-29.2","","-35.0","","57","","0.0","","25","","10","","","","101.21","","","","-38","","NA"
"-89.33","48.37","THUNDER BAY CS","6048268","2019-01-20 12:00","2019","01","20","12:00","-27.2","","-33.3","","57","","0.0","","22","","11","","","","101.16","","","","-36","","NA"
"-89.33","48.37","THUNDER BAY CS","6048268","2019-01-20 13:00","2019","01","20","13:00","-24.6","","-32.1","","50","","0.0","","21","","11","","","","101.12","","","","-33","","NA"
"-89.33","48.37","THUNDER BAY CS","6048268","2019-01-20 14:00","2019","01","20","14:00","-22.5","","-30.9","","46","","0.0","","24","","8","","","","101.07","","","","-29","","NA"
"-89.33","48.37","THUNDER BAY CS","6048268","2019-01-20 15:00","2019","01","20","15:00","-21.0","","-30.2","","44","","0.0","","29","","8","","","","101.02","","","","-27","","NA"
"-89.33","48.37","THUNDER BAY CS","6048268","2019-01-20 16:00","2019","01","20","16:00","-20.4","","-28.9","","47","","0.0","","29","","11","","","","101.01","","","","-28","","NA"
"-89.33","48.37","THUNDER BAY CS","6048268","2019-01-20 17:00","2019","01","20","17:00","-20.7","","-28.7","","49","","0.0","","29","","14","","","","101.03","","","","-30","","NA"
"-89.33","48.37","THUNDER BAY CS","6048268","2019-01-20 18:00","2019","01","20","18:00","-22.8","","-30.0","","52","","0.0","","31","","10","","","","101.05","","","","-31","","NA"
"-89.33","48.37","THUNDER BAY CS","6048268","2019-01-20 19:00","2019","01","20","19:00","-23.8","","-30.1","","56","","0.0","","25","","4","","","","101.05","","","","-28","","NA"
"-89.33","48.37","THUNDER BAY CS","6048268","2019-01-20 20:00","2019","01","20","20:00","-27.0","","-31.5","","66","","0.0","","26","","5","","","","101.00","","","","-32","","NA"
"-89.33","48.37","THUNDER BAY CS","6048268","2019-01-20 21:00","2019","01","20","21:00","-27.1","","-30.0","","76","","0.0","","24","","8","","","","101.01","","","","-35","","NA"
"-89.33","48.37","THUNDER BAY CS","6048268","2019-01-20 22:00","2019","01","20","22:00","-27.0","","-30.9","","70","","0.0","","22","","9","","","","101.00","","","","-35","","NA"
"-89.33","48.37","THUNDER BAY CS","6048268","2019-01-20 23:00","2019","01","20","23:00","-27.9","","-31.4","","72","","0.0","","25","","8","","","","101.02","","","","-36","","NA"
"-89.33","48.37","THUNDER BAY CS","6048268","2019-01-21 00:00","2019","01","21","00:00","-27.8","","-31.3","","72","","0.0","","23","","10","","","","101.02","","","","-37","","NA"
"-89.33","48.37","THUNDER BAY CS","6048268","2019-01-21 01:00","2019","01","21","01:00","-30.3","","-33.7","","72","","0.0","","27","","5","","","","100.96","","","","-36","","NA"
"-89.33","48.37","THUNDER BAY CS","6048268","2019-01-21 02:00","2019","01","21","02:00","-31.8","","-34.8","","75","","0.0","","26","","5","","","","100.95","","","","-38","","NA"
"-89.33","48.37","THUNDER BAY CS","6048268","2019-01-21 03:00","2019","01","21","03:00","-32.5","","-35.5","","74","","0.0","","26","","7","","","","100.93","","","","-40","","NA"
"-89.33","48.37","THUNDER BAY CS","6048268","2019-01-21 04:00","2019","01","21","04:00","-31.3","","-34.3","","75","","0.0","","23","","7","","","","100.91","","","","-39","","NA"
"-89.33","48.37","THUNDER BAY CS","6048268","2019-01-21 05:00","2019","01","21","05:00","-32.0","","-35.2","","74","","0.0","","25","","9","","","","100.91","","","","-41","","NA"
"-89.33","48.37","THUNDER BAY CS","6048268","2019-01-21 06:00","2019","01","21","06:00","-32.1","","-35.2","","73","","0.0","","24","","7","","","","100.91","","","","-40","","NA"
"-89.33","48.37","THUNDER BAY CS","6048268","2019-01-21 07:00","2019","01","21","07:00","-29.6","","-32.6","","75","","0.0","","23","","5","","","","100.86","","","","-35","","NA"
"-89.33","48.37","THUNDER BAY CS","6048268","2019-01-21 08:00","2019","01","21","08:00","-28.4","","-31.6","","73","","0.0","","27","","5","","","","100.80","","","","-34","","NA"
"-89.33","48.37","THUNDER BAY CS","6048268","2019-01-21 09:00","2019","01","21","09:00","-27.2","","-30.5","","73","","0.0","","23","","7","","","","100.75","","","","-34","","NA"
"-89.33","48.37","THUNDER BAY CS","6048268","2019-01-21 10:00","2019","01","21","10:00","-26.1","","-29.4","","73","","0.0","","23","","7","","","","100.71","","","","-33","","NA"
"-89.33","48.37","THUNDER BAY CS","6048268","2019-01-21 11:00","2019","01","21","11:00","-23.9","","-27.8","","70","","0.0","","20","","2","","","","100.65","","","","-26","","NA"
"-89.33","48.37","THUNDER BAY CS","6048268","2019-01-21 12:00","2019","01","21","12:00","-21.0","","-25.5","","67","","0.0","","20","","5","","","","100.62","","","","-25","","NA"
"-89.33","48.37","THUNDER BAY CS","6048268","2019-01-21 13:00","2019","01","21","13:00","-18.3","","-23.0","","67","","0.0","","26","","3","","","","100.51","","","","-21","","NA"
"-89.33","48.37","THUNDER BAY CS","6048268","2019-01-21 14:00","2019","01","21","14:00","-14.9","","-19.8","","66","","0.0","","9","","5","","","","100.36","","","","-18","","NA"
"-89.33","48.37","THUNDER BAY CS","6048268","2019-01-21 15:00","2019","01","21","15:00","-11.6","","-16.4","","67","","0.0","","4","","6","","","","100.33","","","","-15","","NA"
"-89.33","48.37","THUNDER BAY CS","6048268","2019-01-21 16:00","2019","01","21","16:00","-8.8","","-15.3","","59","","0.0","","20","","11","","","","100.30","","","","-14","","NA"
"-89.33","48.37","THUNDER BAY CS","6048268","2019-01-21 17:00","2019","01","21","17:00","-9.3","","-15.2","","62","","0.0","","20","","11","","","","100.28","","","","-15","","NA"
"-89.33","48.37","THUNDER BAY CS","6048268","2019-01-21 18:00","2019","01","21","18:00","-10.1","","-14.8","","68","","0.0","","19","","5","","","","100.21","","","","-13","","NA"
"-89.33","48.37","THUNDER BAY CS","6048268","2019-01-21 19:00","2019","01","21","19:00","-11.4","","-15.2","","74","","0.0","","28","","1","","","","100.15","","","","-12","","NA"
"-89.33","48.37","THUNDER BAY CS","6048268","2019-01-21 20:00","2019","01","21","20:00","-12.4","","-15.4","","79","","0.0","","32","","7","","","","100.13","","","","-17","","NA"
"-89.33","48.37","THUNDER BAY CS","6048268","2019-01-21 21:00","2019","01","21","21:00","-13.1","","-16.3","","77","","0.0","","29","","2","","","","100.08","","","","-14","","NA"
"-89.33","48.37","THUNDER BAY CS","6048268","2019-01-21 22:00","2019","01","21","22:00","-13.0","","-15.8","","80","","0.0","","25","","4","","","","100.03","","","","-16","","NA"
"-89.33","48.37","THUNDER BAY CS","6048268","2019-01-21 23:00","2019","01","21","23:00","-15.2","","-17.6","","82","","0.0","","24","","4","","","","100.02","","","","-18","","NA"
"-89.33","48.37","THUNDER BAY CS","6048268","2019-01-22 00:00","2019","01","22","00:00","-15.3","","-17.3","","85","","0.0","","31","","4","","","","99.97","","","","-18","","NA"
"-89.33","48.37","THUNDER BAY CS","6048268","2019-01-22 01:00","2019","01","22","01:00","-13.5","","-15.7","","83","","0.0","","24","","6","","","","99.95","","","","-18","","NA"
"-89.33","48.37","THUNDER BAY CS","6048268","2019-01-22 02:00","2019","01","22","02:00","-13.0","","-15.4","","82","","0.0","","30","","3","","","","99.92","","","","-15","","NA"
"-89.33","48.37","THUNDER BAY CS","6048268","2019-01-22 03:00","2019","01","22","03:00","-12.3","","-14.8","","82","","0.0","","25","","2","","","","99.88","","","","-14","","NA"
"-89.33","48.37","THUNDER BAY CS","6048268","2019-01-22 04:00","2019","01","22","04:00","-12.2","","-14.7","","81","","0.0","","26","","2","","","","99.80","","","","-13","","NA"
"-89.33","48.37","THUNDER BAY CS","6048268","2019-01-22 05:00","2019","01","22","05:00","-11.9","","-14.0","","85","","0.1","","27","","3","","","","99.72","","","","-14","","NA"
"-89.33","48.37","THUNDER BAY CS","6048268","2019-01-22 06:00","2019","01","22","06:00","-11.7","","-13.4","","87","","0.3","","","","0","","","","99.60","","","","","","NA"
"-89.33","48.37","THUNDER BAY CS","6048268","2019-01-22 07:00","2019","01","22","07:00","-11.3","","-12.8","","88","","0.7","","10","","3","","","","99.52","","","","-13","","NA"
"-89.33","48.37","THUNDER BAY CS","6048268","2019-01-22 08:00","2019","01","22","08:00","-10.1","","-11.4","","90","","1.1","","36","","3","","","","99.43","","","","-12","","NA"
"-89.33","48.37","THUNDER BAY CS","6048268","2019-01-22 09:00","2019","01","22","09:00","-9.2","","-10.5","","90","","1.0","","0","","1","","","","99.37","","","","-10","","NA"
"-89.33","48.37","THUNDER BAY CS","6048268","2019-01-22 10:00","2019","01","22","10:00","-9.3","","-10.7","","89","","1.3","","","","0","","","","99.31","","","","","","NA"
"-89.33","48.37","THUNDER BAY CS","6048268","2019-01-22 11:00","2019","01","22","11:00","-8.1","","-9.6","","89","","0.9","","18","","3","","","","99.23","","","","-10","","NA"
"-89.33","48.37","THUNDER BAY CS","6048268","2019-01-22 12:00","2019","01","22","12:00","-7.2","","-9.5","","84","","0.4","","25","","10","","","","99.22","","","","-12","","NA"
"-89.33","48.37","THUNDER BAY CS","6048268","2019-01-22 13:00","2019","01","22","13:00","-5.9","","-9.5","","76","","0.2","","27","","12","","","","99.11","","","","-11","","NA"
"-89.33","48.37","THUNDER BAY CS","6048268","2019-01-22 14:00","2019","01","22","14:00","-5.6","","-9.2","","76","","0.0","","24","","9","","","","99.07","","","","-10","","NA"
"-89.33","48.37","THUNDER BAY CS","6048268","2019-01-22 15:00","2019","01","22","15:00","-6.3","","-10.3","","73","","0.0","","28","","10","","","","99.00","","","","-11","","NA"
"-89.33","48.37","THUNDER BAY CS","6048268","2019-01-22 16:00","2019","01","22","16:00","-5.5","","-10.0","","71","","0.0","","30","","17","","","","99.00","","","","-12","","NA"
"-89.33","48.37","THUNDER BAY CS","6048268","2019-01-22 17:00","2019","01","22","17:00","-6.4","","-10.4","","74","","0.0","","31","","15","","","","99.00","","","","-12","","NA"
"-89.33","48.37","THUNDER BAY CS","6048268","2019-01-22 18:00","2019","01","22","18:00","-7.8","","-11.7","","74","","0.0","","29","","14","","","","99.01","","","","-14","","NA"
"-89.33","48.37","THUNDER BAY CS","6048268","2019-01-22 19:00","2019","01","22","19:00","-9.4","","-12.6","","77","","0.0","","28","","13","","","","99.04","","","","-15","","NA"
"-89.33","48.37","THUNDER BAY CS","6048268","2019-01-22 20:00","2019","01","22","20:00","-11.4","","-13.5","","85","","0.0","","29","","8","","","","99.08","","","","-16","","NA"
"-89.33","48.37","THUNDER BAY CS","6048268","2019-01-22 21:00","2019","01","22","21:00","-11.2","","-13.8","","81","","0.0","","28","","8","","","","99.06","","","","-16","","NA"
"-89.33","48.37","THUNDER BAY CS","6048268","2019-01-22 22:00","2019","01","22","22:00","-10.1","","-12.7","","81","","0.0","","26","","7","","","","99.03","","","","-14","","NA"
"-89.33","48.37","THUNDER BAY CS","6048268","2019-01-22 23:00","2019","01","22","23:00","-9.5","","-12.4","","80","","0.0","","26","","9","","","","99.06","","","","-14","","NA"
"-89.33","48.37","THUNDER BAY CS","6048268","2019-01-23 00:00","2019","01","23","00:00","-10.0","","-12.6","","81","","0.0","","24","","5","","","","99.07","","","","-13","","NA"
"-89.33","48.37","THUNDER BAY CS","6048268","2019-01-23 01:00","2019","01","23","01:00","-12.2","","-13.5","","90","","0.0","","26","","9","","","","99.08","","","","-17","","NA"
"-89.33","48.37","THUNDER BAY CS","6048268","2019-01-23 02:00","2019","01","23","02:00","-15.4","","-16.6","","91","","0.0","","26","","5","","","","99.04","","","","-19","","NA"
"-89.33","48.37","THUNDER BAY CS","6048268","2019-01-23 03:00","2019","01","23","03:00","-18.0","","-20.0","","84","","0.0","","25","","4","","","","99.03","","","","-21","","NA"
"-89.33","48.37","THUNDER BAY CS","6048268","2019-01-23 04:00","2019","01","23","04:00","-15.3","","-17.2","","86","","0.0","","28","","5","","","","98.97","","","","-19","","NA"
"-89.33","48.37","THUNDER BAY CS","6048268","2019-01-23 05:00","2019","01","23","05:00","-12.7","","-14.5","","87","","0.0","","24","","4","","","","98.93","","","","-15","","NA"
"-89.33","48.37","THUNDER BAY CS","6048268","2019-01-23 06:00","2019","01","23","06:00","-12.4","","-14.2","","87","","0.0","","24","","5","","","","98.86","","","","-16","","NA"
"-89.33","48.37","THUNDER BAY CS","6048268","2019-01-23 07:00","2019","01","23","07:00","-11.7","","-13.6","","86","","0.0","","24","","6","","","","98.85","","","","-15","","NA"
"-89.33","48.37","THUNDER BAY CS","6048268","2019-01-23 08:00","2019","01","23","08:00","-11.1","","-13.2","","85","","0.0","","22","","7","","","","98.83","","","","-15","","NA"
"-89.33","48.37","THUNDER BAY CS","6048268","2019-01-23 09:00","2019","01","23","09:00","-12.1","","-13.9","","87","","0.0","","30","","9","","","","98.81","","","","-17","","NA"
"-89.33","48.37","THUNDER BAY CS","6048268","2019-01-23 10:00","2019","01","23","10:00","-10.4","","-12.8","","83","","0.0","","26","","5","","","","98.79","","","","-13","","NA"
"-89.33","48.37","THUNDER BAY CS","6048268","2019-01-23 11:00","2019","01","23","11:00","-9.6","","-12.8","","77","","0.0","","28","","5","","","","98.73","","","","-12","","NA"
"-89.33","48.37","THUNDER BAY CS","6048268","2019-01-23 12:00","2019","01","23","12:00","-9.1","","-12.8","","74","","0.0","","30","","7","","","","98.68","","","","-13","","NA"
"-89.33","48.37","THUNDER BAY CS","6048268","2019-01-23 13:00","2019","01","23","13:00","-8.5","","-13.0","","70","","0.0","","31","","6","","","","98.57","","","","-12","","NA"
"-89.33","48.37","THUNDER BAY CS","6048268","2019-01-23 14:00","2019","01","23","14:00","-7.8","","-12.6","","69","","0.0","","30","","6","","","","98.49","","","","-11","","NA"
"-89.33","48.37","THUNDER BAY CS","6048268","2019-01-23 15:00","2019","01","23","15:00","-8.0","","-12.3","","71","","0.0","","30","","9","","","","98.40","","","","-13","","NA"
"-89.33","48.37","THUNDER BAY CS","6048268","2019-01-23 16:00","2019","01","23","16:00","-7.9","","-12.4","","70","","0.0","","32","","9","","","","98.38","","","","-12","","NA"
"-89.33","48.37","THUNDER BAY CS","6048268","2019-01-23 17:00","2019","01","23","17:00","-8.2","","-12.6","","70","","0.0","","31","","6","","","","98.39","","","","-11","","NA"
"-89.33","48.37","THUNDER BAY CS","6048268","2019-01-23 18:00","2019","01","23","18:00","-8.8","","-12.3","","75","","0.0","","28","","5","","","","98.43","","","","-12","","NA"
"-89.33","48.37","THUNDER BAY CS","6048268","2019-01-23 19:00","2019","01","23","19:00","-8.8","","-11.9","","78","","0.0","","22","","4","","","","98.43","","","","-11","","NA"
"-89.33","48.37","THUNDER BAY CS","6048268","2019-01-23 20:00","2019","01","23","20:00","-10.7","","-12.6","","85","","0.0","","27","","5","","","","98.41","","","","-14","","NA"
"-89.33","48.37","THUNDER BAY CS","6048268","2019-01-23 21:00","2019","01","23","21:00","-10.1","","-11.9","","87","","0.0","","29","","6","","","","98.40","","","","-14","","NA"
"-89.33","48.37","THUNDER BAY CS","6048268","2019-01-23 22:00","2019","01","23","22:00","-9.5","","-11.8","","83","","0.0","","23","","4","","","","98.40","","","","-12","","NA"
"-89.33","48.37","THUNDER BAY CS","6048268","2019-01-23 23:00","2019","01","23","23:00","-10.0","","-12.1","","84","","0.0","","21","","5","","","","98.37","","","","-13","","NA"
"-89.33","48.37","THUNDER BAY CS","6048268","2019-01-24 00:00","2019","01","24","00:00","-10.2","","-12.6","","83","","0.0","","22","","5","","","","98.40","","","","-13","","NA"
"-89.33","48.37","THUNDER BAY CS","6048268","2019-01-24 01:00","2019","01","24","01:00","-11.5","","-14.1","","81","","0.0","","27","","8","","","","98.40","","","","-16","","NA"
"-89.33","48.37","THUNDER BAY CS","6048268","2019-01-24 02:00","2019","01","24","02:00","-12.0","","-14.2","","84","","0.0","","28","","5","","","","98.36","","","","-15","","NA"
"-89.33","48.37","THUNDER BAY CS","6048268","2019-01-24 03:00","2019","01","24","03:00","-11.7","","-14.2","","82","","0.0","","24","","2","","","","98.31","","","","-13","","NA"
"-89.33","48.37","THUNDER BAY CS","6048268","2019-01-24 04:00","2019","01","24","04:00","-12.0","","-14.3","","83","","0.0","","24","","6","","","","98.30","","","","-16","","NA"
"-89.33","48.37","THUNDER BAY CS","6048268","2019-01-24 05:00","2019","01","24","05:00","-12.0","","-14.1","","84","","0.0","","21","","6","","","","98.32","","","","-16","","NA"
"-89.33","48.37","THUNDER BAY CS","6048268","2019-01-24 06:00","2019","01","24","06:00","-11.7","","-13.6","","86","","0.2","","25","","5","","","","98.34","","","","-15","","NA"
"-89.33","48.37","THUNDER BAY CS","6048268","2019-01-24 07:00","2019","01","24","07:00","-11.7","","-13.5","","87","","0.2","","25","","6","","","","98.36","","","","-15","","NA"
"-89.33","48.37","THUNDER BAY CS","6048268","2019-01-24 08:00","2019","01","24","08:00","-11.6","","-13.4","","86","","0.3","","25","","6","","","","98.40","","","","-15","","NA"
"-89.33","48.37","THUNDER BAY CS","6048268","2019-01-24 09:00","2019","01","24","09:00","-11.4","","-13.3","","86","","0.2","","26","","6","","","","98.44","","","","-15","","NA"
"-89.33","48.37","THUNDER BAY CS","6048268","2019-01-24 10:00","2019","01","24","10:00","-11.0","","-13.4","","82","","0.1","","30","","10","","","","98.48","","","","-16","","NA"
"-89.33","48.37","THUNDER BAY CS","6048268","2019-01-24 11:00","2019","01","24","11:00","-11.0","","-15.2","","71","","0.0","","32","","18","","","","98.56","","","","-19","","NA"
"-89.33","48.37","THUNDER BAY CS","6048268","2019-01-24 12:00","2019","01","24","12:00","-12.0","","-16.4","","70","","0.0","","34","","23","","","","98.62","","","","-21","","NA"
"-89.33","48.37","THUNDER BAY CS","6048268","2019-01-24 13:00","2019","01","24","13:00","-12.4","","-18.8","","59","","0.0","","36","","23","","","","98.64","","","","-21","","NA"
"-89.33","48.37","THUNDER BAY CS","6048268","2019-01-24 14:00","2019","01","24","14:00","-13.1","","-19.2","","60","","0.1","","34","","25","","","","98.68","","","","-23","","NA"
"-89.33","48.37","THUNDER BAY CS","6048268","2019-01-24 15:00","2019","01","24","15:00","-14.3","","-20.1","","61","","0.0","","33","","26","","","","98.75","","","","-24","","NA"
"-89.33","48.37","THUNDER BAY CS","6048268","2019-01-24 16:00","2019","01","24","16:00","-15.6","","-21.4","","61","","0.1","","33","","29","","","","98.82","","","","-27","","NA"
"-89.33","48.37","THUNDER BAY CS","6048268","2019-01-24 17:00","2019","01","24","17:00","-16.8","","-22.7","","60","","0.0","","33","","29","","","","98.93","","","","-28","","NA"
"-89.33","48.37","THUNDER BAY CS","6048268","2019-01-24 18:00","2019","01","24","18:00","-17.8","","-23.2","","62","","0.0","","33","","18","","","","99.01","","","","-27","","NA"
"-89.33","48.37","THUNDER BAY CS","6048268","2019-01-24 19:00","2019","01","24","19:00","-19.0","","-24.6","","62","","0.0","","33","","21","","","","99.11","","","","-29","","NA"
"-89.33","48.37","THUNDER BAY CS","6048268","2019-01-24 20:00","2019","01","24","20:00","-20.3","","-26.0","","60","","0.0","","32","","20","","","","99.19","","","","-31","","NA"
"-89.33","48.37","THUNDER BAY CS","6048268","2019-01-24 21:00","2019","01","24","21:00","-21.0","","-26.7","","60","","0.0","","32","","18","","","","99.23","","","","-31","","NA"
"-89.33","48.37","THUNDER BAY CS","6048268","2019-01-24 22:00","2019","01","24","22:00","-22.0","","-27.6","","61","","0.0","","33","","21","","","","99.30","","","","-33","","NA"
"-89.33","48.37","THUNDER BAY CS","6048268","2019-01-24 23:00","2019","01","24","23:00","-23.1","","-28.4","","62","","0.0","","32","","18","","","","99.31","","","","-34","","NA"
"-89.33","48.37","THUNDER BAY CS","6048268","2019-01-25 00:00","2019","01","25","00:00","-23.8","","-28.8","","64","","0.0","","33","","13","","","","99.31","","","","-33","","NA"
"-89.33","48.37","THUNDER BAY CS","6048268","2019-01-25 01:00","2019","01","25","01:00","-25.2","","-29.4","","68","","0.0","","29","","10","","","","99.36","","","","-33","","NA"
"-89.33","48.37","THUNDER BAY CS","6048268","2019-01-25 02:00","2019","01","25","02:00","-24.6","","-29.8","","62","","0.0","","34","","12","","","","99.37","","","","-34","","NA"
"-89.33","48.37","THUNDER BAY CS","6048268","2019-01-25 03:00","2019","01","25","03:00","-25.4","","-30.1","","65","","0.0","","30","","9","","","","99.37","","","","-33","","NA"
"-89.33","48.37","THUNDER BAY CS","6048268","2019-01-25 04:00","2019","01","25","04:00","-25.7","","-29.8","","68","","0.0","","30","","9","","","","99.38","","","","-33","","NA"
"-89.33","48.37","THUNDER BAY CS","6048268","2019-01-25 05:00","2019","01","25","05:00","-26.0","","-30.4","","66","","0.0","","30","","10","","","","99.38","","","","-34","","NA"
"-89.33","48.37","THUNDER BAY CS","6048268","2019-01-25 06:00","2019","01","25","06:00","-26.5","","-31.2","","64","","0.0","","31","","12","","","","99.40","","","","-36","","NA"
"-89.33","48.37","THUNDER BAY CS","6048268","2019-01-25 07:00","2019","01","25","07:00","-26.9","","-31.6","","64","","0.0","","32","","11","","","","99.42","","","","-36","","NA"
"-89.33","48.37","THUNDER BAY CS","6048268","2019-01-25 08:00","2019","01","25","08:00","-27.8","","-32.4","","65","","0.0","","33","","8","","","","99.47","","","","-35","","NA"
"-89.33","48.37","THUNDER BAY CS","6048268","2019-01-25 09:00","2019","01","25","09:00","-28.5","","-32.7","","67","","0.0","","31","","9","","","","99.52","","","","-37","","NA"
"-89.33","48.37","THUNDER BAY CS","6048268","2019-01-25 10:00","2019","01","25","10:00","-28.7","","-33.2","","65","","0.0","","30","","12","","","","99.56","","","","-39","","NA"
"-89.33","48.37","THUNDER BAY CS","6048268","2019-01-25 11:00","2019","01","25","11:00","-27.6","","-33.3","","58","","0.0","","31","","12","","","","99.59","","","","-37","","NA"
"-89.33","48.37","THUNDER BAY CS","6048268","2019-01-25 12:00","2019","01","25","12:00","-26.0","","-32.8","","53","","0.0","","30","","17","","","","99.59","","","","-37","","NA"
"-89.33","48.37","THUNDER BAY CS","6048268","2019-01-25 13:00","2019","01","25","13:00","-25.3","","-32.3","","52","","0.0","","30","","19","","","","99.56","","","","-37","","NA"
"-89.33","48.37","THUNDER BAY CS","6048268","2019-01-25 14:00","2019","01","25","14:00","-24.4","","-32.0","","49","","0.0","","29","","16","","","","99.53","","","","-35","","NA"
"-89.33","48.37","THUNDER BAY CS","6048268","2019-01-25 15:00","2019","01","25","15:00","-23.7","","-31.8","","47","","0.0","","31","","15","","","","99.53","","","","-34","","NA"
"-89.33","48.37","THUNDER BAY CS","6048268","2019-01-25 16:00","2019","01","25","16:00","-23.2","","-31.2","","48","","0.0","","31","","17","","","","99.55","","","","-34","","NA"
"-89.33","48.37","THUNDER BAY CS","6048268","2019-01-25 17:00","2019","01","25","17:00","-23.4","","-31.0","","50","","0.0","","29","","16","","","","99.58","","","","-34","","NA"
"-89.33","48.37","THUNDER BAY CS","6048268","2019-01-25 18:00","2019","01","25","18:00","-24.5","","-31.3","","53","","0.0","","29","","15","","","","99.63","","","","-35","","NA"
"-89.33","48.37","THUNDER BAY CS","6048268","2019-01-25 19:00","2019","01","25","19:00","-26.1","","-31.7","","59","","0.0","","28","","7","","","","99.68","","","","-33","","NA"
"-89.33","48.37","THUNDER BAY CS","6048268","2019-01-25 20:00","2019","01","25","20:00","-28.4","","-33.6","","61","","0.0","","27","","11","","","","99.69","","","","-38","","NA"
"-89.33","48.37","THUNDER BAY CS","6048268","2019-01-25 21:00","2019","01","25","21:00","-27.2","","-31.6","","66","","0.0","","23","","11","","","","99.70","","","","-36","","NA"
"-89.33","48.37","THUNDER BAY CS","6048268","2019-01-25 22:00","2019","01","25","22:00","-31.5","","-34.6","","74","","0.0","","26","","10","","","","99.67","","","","-41","","NA"
"-89.33","48.37","THUNDER BAY CS","6048268","2019-01-25 23:00","2019","01","25","23:00","-31.9","","-35.0","","74","","0.0","","24","","6","","","","99.63","","","","-39","","NA"
"-89.33","48.37","THUNDER BAY CS","6048268","2019-01-26 00:00","2019","01","26","00:00","-33.4","","-36.5","","74","","0.0","","29","","5","","","","99.62","","","","-39","","NA"
"-89.33","48.37","THUNDER BAY CS","6048268","2019-01-26 01:00","2019","01","26","01:00","-33.3","","-36.3","","74","","0.0","","31","","1","","","","99.62","","","","-35","","NA"
"-89.33","48.37","THUNDER BAY CS","6048268","2019-01-26 02:00","2019","01","26","02:00","-34.2","","-37.4","","73","","0.0","","26","","6","","","","99.62","","","","-41","","NA"
"-89.33","48.37","THUNDER BAY CS","6048268","2019-01-26 03:00","2019","01","26","03:00","-32.2","","-35.5","","73","","0.0","","25","","3","","","","99.60","","","","-36","","NA"
"-89.33","48.37","THUNDER BAY CS","6048268","2019-01-26 04:00","2019","01","26","04:00","-32.8","","-36.1","","72","","0.0","","27","","5","","","","99.48","","","","-39","","NA"
"-89.33","48.37","THUNDER BAY CS","6048268","2019-01-26 05:00","2019","01","26","05:00","-32.1","","-35.3","","73","","0.0","","27","","5","","","","99.35","","","","-38","","NA"
"-89.33","48.37","THUNDER BAY CS","6048268","2019-01-26 06:00","2019","01","26","06:00","-32.6","","-36.0","","71","","0.0","","29","","8","","","","99.28","","","","-41","","NA"
"-89.33","48.37","THUNDER BAY CS","6048268","2019-01-26 07:00","2019","01","26","07:00","-31.3","","-34.5","","73","","0.0","","24","","6","","","","99.29","","","","-38","","NA"
"-89.33","48.37","THUNDER BAY CS","6048268","2019-01-26 08:00","2019","01","26","08:00","-30.0","","-33.2","","73","","0.0","","26","","7","","","","99.25","","","","-37","","NA"
"-89.33","48.37","THUNDER BAY CS","6048268","2019-01-26 09:00","2019","01","26","09:00","-29.0","","-32.4","","72","","0.0","","28","","6","","","","99.22","","","","-35","","NA"
"-89.33","48.37","THUNDER BAY CS","6048268","2019-01-26 10:00","2019","01","26","10:00","-27.1","","-30.6","","72","","0.0","","26","","6","","","","99.17","","","","-33","","NA"
"-89.33","48.37","THUNDER BAY CS","6048268","2019-01-26 11:00","2019","01","26","11:00","-25.7","","-29.7","","69","","0.0","","22","","5","","","","99.11","","","","-31","","NA"
"-89.33","48.37","THUNDER BAY CS","6048268","2019-01-26 12:00","2019","01","26","12:00","-23.1","","-28.5","","61","","0.0","","25","","8","","","","99.04","","","","-30","","NA"
"-89.33","48.37","THUNDER BAY CS","6048268","2019-01-26 13:00","2019","01","26","13:00","-22.1","","-27.8","","60","","0.0","","28","","10","","","","98.93","","","","-30","","NA"
"-89.33","48.37","THUNDER BAY CS","6048268","2019-01-26 14:00","2019","01","26","14:00","-20.8","","-26.5","","60","","0.0","","31","","13","","","","98.87","","","","-29","","NA"
"-89.33","48.37","THUNDER BAY CS","6048268","2019-01-26 15:00","2019","01","26","15:00","-20.3","","-27.2","","54","","0.0","","30","","18","","","","98.83","","","","-30","","NA"
"-89.33","48.37","THUNDER BAY CS","6048268","2019-01-26 16:00","2019","01","26","16:00","-19.5","","-27.2","","51","","0.0","","30","","18","","","","98.83","","","","-29","","NA"
"-89.33","48.37","THUNDER BAY CS","6048268","2019-01-26 17:00","2019","01","26","17:00","-20.0","","-26.1","","58","","0.0","","31","","20","","","","98.87","","","","-30","","NA"
"-89.33","48.37","THUNDER BAY CS","6048268","2019-01-26 18:00","2019","01","26","18:00","-21.2","","-27.6","","56","","0.0","","33","","18","","","","98.99","","","","-31","","NA"
"-89.33","48.37","THUNDER BAY CS","6048268","2019-01-26 19:00","2019","01","26","19:00","-22.9","","-29.6","","55","","0.0","","33","","13","","","","99.10","","","","-32","","NA"
"-89.33","48.37","THUNDER BAY CS","6048268","2019-01-26 20:00","2019","01","26","20:00","-24.6","","-30.5","","58","","0.0","","33","","17","","","","99.22","","","","-35","","NA"
"-89.33","48.37","THUNDER BAY CS","6048268","2019-01-26 21:00","2019","01","26","21:00","-25.0","","-30.7","","59","","0.0","","34","","17","","","","99.30","","","","-36","","NA"
"-89.33","48.37","THUNDER BAY CS","6048268","2019-01-26 22:00","2019","01","26","22:00","-26.4","","-32.2","","58","","0.0","","32","","14","","","","99.38","","","","-37","","NA"
"-89.33","48.37","THUNDER BAY CS","6048268","2019-01-26 23:00","2019","01","26","23:00","-28.2","","-33.9","","58","","0.0","","32","","8","","","","99.42","","","","-36","","NA"
"-89.33","48.37","THUNDER BAY CS","6048268","2019-01-27 00:00","2019","01","27","00:00","-28.2","","-33.2","","62","","0.0","","33","","6","","","","99.42","","","","-34","","NA"
"-89.33","48.37","THUNDER BAY CS","6048268","2019-01-27 01:00","2019","01","27","01:00","-31.0","","-35.1","","67","","0.0","","31","","6","","","","99.44","","","","-38","","NA"
"-89.33","48.37","THUNDER BAY CS","6048268","2019-01-27 02:00","2019","01","27","02:00","-31.2","","-35.1","","68","","0.0","","25","","9","","","","99.45","","","","-40","","NA"
"-89.33","48.37","THUNDER BAY CS","6048268","2019-01-27 03:00","2019","01","27","03:00","-31.9","","-35.1","","73","","0.0","","26","","9","","","","99.48","","","","-41","","NA"
"-89.33","48.37","THUNDER BAY CS","6048268","2019-01-27 04:00","2019","01","27","04:00","-33.3","","-36.5","","73","","0.0","","26","","11","","","","99.51","","","","-44","","NA"
"-89.33","48.37","THUNDER BAY CS","6048268","2019-01-27 05:00","2019","01","27","05:00","-33.6","","-36.9","","72","","0.0","","27","","9","","","","99.52","","","","-43","","NA"
"-89.33","48.37","THUNDER BAY CS","6048268","2019-01-27 06:00","2019","01","27","06:00","-35.9","","-39.3","","71","","0.0","","26","","9","","","","99.57","","","","-46","","NA"
"-89.33","48.37","THUNDER BAY CS","6048268","2019-01-27 07:00","2019","01","27","07:00","-36.3","","-39.6","","72","","0.0","","28","","11","","","","99.60","","","","-47","","NA"
"-89.33","48.37","THUNDER BAY CS","6048268","2019-01-27 08:00","2019","01","27","08:00","-35.7","","-39.0","","71","","0.0","","28","","10","","","","99.70","","","","-46","","NA"
"-89.33","48.37","THUNDER BAY CS","6048268","2019-01-27 09:00","2019","01","27","09:00","-34.9","","-38.4","","71","","0.0","","26","","7","","","","99.71","","","","-43","","NA"
"-89.33","48.37","THUNDER BAY CS","6048268","2019-01-27 10:00","2019","01","27","10:00","-33.3","","-37.3","","67","","0.0","","23","","4","","","","99.60","","","","-38","","NA"
"-89.33","48.37","THUNDER BAY CS","6048268","2019-01-27 11:00","2019","01","27","11:00","-31.7","","-37.1","","59","","0.0","","27","","11","","","","99.56","","","","-42","","NA"
"-89.33","48.37","THUNDER BAY CS","6048268","2019-01-27 12:00","2019","01","27","12:00","-29.8","","-36.0","","54","","0.0","","28","","12","","","","99.53","","","","-40","","NA"
"-89.33","48.37","THUNDER BAY CS","6048268","2019-01-27 13:00","2019","01","27","13:00","-28.3","","-35.3","","51","","0.0","","27","","14","","","","99.49","","","","-39","","NA"
"-89.33","48.37","THUNDER BAY CS","6048268","2019-01-27 14:00","2019","01","27","14:00","-27.0","","-34.8","","48","","0.0","","27","","13","","","","99.44","","","","-37","","NA"
"-89.33","48.37","THUNDER BAY CS","6048268","2019-01-27 15:00","2019","01","27","15:00","-25.8","","-34.1","","46","","0.0","","29","","10","","","","99.42","","","","-34","","NA"
"-89.33","48.37","THUNDER BAY CS","6048268","2019-01-27 16:00","2019","01","27","16:00","-24.8","","-33.7","","43","","0.0","","16","","4","","","","99.40","","","","-29","","NA"
"-89.33","48.37","THUNDER BAY CS","6048268","2019-01-27 17:00","2019","01","27","17:00","-26.2","","-33.5","","50","","0.0","","9","","10","","","","99.43","","","","-35","","NA"
"-89.33","48.37","THUNDER BAY CS","6048268","2019-01-27 18:00","2019","01","27","18:00","-26.9","","-32.4","","59","","0.0","","10","","9","","","","99.45","","","","-35","","NA"
"-89.33","48.37","THUNDER BAY CS","6048268","2019-01-27 19:00","2019","01","27","19:00","-29.0","","-33.9","","63","","0.0","","6","","10","","","","99.47","","","","-38","","NA"
"-89.33","48.37","THUNDER BAY CS","6048268","2019-01-27 20:00","2019","01","27","20:00","-28.0","","-32.9","","63","","0.0","","8","","20","","","","99.48","","","","-41","","NA"
"-89.33","48.37","THUNDER BAY CS","6048268","2019-01-27 21:00","2019","01","27","21:00","-28.7","","-33.9","","61","","0.0","","7","","23","","","","99.46","","","","-42","","NA"
"-89.33","48.37","THUNDER BAY CS","6048268","2019-01-27 22:00","2019","01","27","22:00","-29.7","","-34.5","","63","","0.0","","9","","17","","","","99.54","","","","-42","","NA"
"-89.33","48.37","THUNDER BAY CS","6048268","2019-01-27 23:00","2019","01","27","23:00","-30.1","","-34.8","","63","","0.0","","8","","13","","","","99.58","","","","-41","","NA"
"-89.33","48.37","THUNDER BAY CS","6048268","2019-01-28 00:00","2019","01","28","00:00","-30.2","","-36.2","","56","","0.0","","6","","11","","","","99.56","","","","-40","","NA"
"-89.33","48.37","THUNDER BAY CS","6048268","2019-01-28 01:00","2019","01","28","01:00","-32.8","","-38.2","","59","","0.0","","34","","5","","","","99.61","","","","-39","","NA"
"-89.33","48.37","THUNDER BAY CS","6048268","2019-01-28 02:00","2019","01","28","02:00","-33.6","","-37.1","","70","","0.0","","27","","7","","","","99.58","","","","-41","","NA"
"-89.33","48.37","THUNDER BAY CS","6048268","2019-01-28 03:00","2019","01","28","03:00","-35.5","","-38.8","","72","","0.0","","26","","5","","","","99.55","","","","-42","","NA"
"-89.33","48.37","THUNDER BAY CS","6048268","2019-01-28 04:00","2019","01","28","04:00","-35.2","","-38.1","","75","","0.0","","25","","3","","","","99.50","","","","-39","","NA"
"-89.33","48.37","THUNDER BAY CS","6048268","2019-01-28 05:00","2019","01","28","05:00","-35.6","","-39.2","","70","","0.0","","25","","7","","","","99.48","","","","-44","","NA"
"-89.33","48.37","THUNDER BAY CS","6048268","2019-01-28 06:00","2019","01","28","06:00","-34.3","","-37.6","","71","","0.0","","24","","5","","","","99.51","","","","-41","","NA"
"-89.33","48.37","THUNDER BAY CS","6048268","2019-01-28 07:00","2019","01","28","07:00","-33.0","","-36.4","","71","","0.0","","22","","5","","","","99.51","","","","-39","","NA"
"-89.33","48.37","THUNDER BAY CS","6048268","2019-01-28 08:00","2019","01","28","08:00","-31.7","","-35.1","","72","","0.0","","26","","7","","","","99.55","","","","-39","","NA"
"-89.33","48.37","THUNDER BAY CS","6048268","2019-01-28 09:00","2019","01","28","09:00","-30.5","","-34.0","","71","","0.0","","24","","6","","","","99.56","","","","-37","","NA"
"-89.33","48.37","THUNDER BAY CS","6048268","2019-01-28 10:00","2019","01","28","10:00","-29.2","","-33.4","","67","","0.0","","25","","5","","","","99.54","","","","-35","","NA"
"-89.33","48.37","THUNDER BAY CS","6048268","2019-01-28 11:00","2019","01","28","11:00","-27.3","","-32.5","","62","","0.0","","27","","5","","","","99.53","","","","-33","","NA"
"-89.33","48.37","THUNDER BAY CS","6048268","2019-01-28 12:00","2019","01","28","12:00","-24.5","","-29.5","","63","","0.0","","30","","4","","","","99.48","","","","-28","","NA"
"-89.33","48.37","THUNDER BAY CS","6048268","2019-01-28 13:00","2019","01","28","13:00","-20.8","","-25.3","","67","","0.0","","7","","23","","","","99.40","","","","-32","","NA"
"-89.33","48.37","THUNDER BAY CS","6048268","2019-01-28 14:00","2019","01","28","14:00","-20.3","","-24.7","","68","","0.0","","7","","27","","","","99.31","","","","-32","","NA"
"-89.33","48.37","THUNDER BAY CS","6048268","2019-01-28 15:00","2019","01","28","15:00","-18.9","","-24.6","","61","","0.0","","8","","20","","","","99.22","","","","-29","","NA"
"-89.33","48.37","THUNDER BAY CS","6048268","2019-01-28 16:00","2019","01","28","16:00","-17.9","","-24.7","","55","","0.0","","8","","17","","","","99.19","","","","-27","","NA"
"-89.33","48.37","THUNDER BAY CS","6048268","2019-01-28 17:00","2019","01","28","17:00","-18.1","","-25.6","","52","","0.0","","6","","7","","","","99.16","","","","-23","","NA"
"-89.33","48.37","THUNDER BAY CS","6048268","2019-01-28 18:00","2019","01","28","18:00","-18.0","","-25.6","","51","","0.0","","9","","7","","","","99.15","","","","-23","","NA"
"-89.33","48.37","THUNDER BAY CS","6048268","2019-01-28 19:00","2019","01","28","19:00","-18.5","","-23.6","","64","","0.0","","10","","10","","","","99.11","","","","-25","","NA"
"-89.33","48.37","THUNDER BAY CS","6048268","2019-01-28 20:00","2019","01","28","20:00","-19.4","","-24.1","","66","","0.0","","10","","8","","","","99.06","","","","-26","","NA"
"-89.33","48.37","THUNDER BAY CS","6048268","2019-01-28 21:00","2019","01","28","21:00","-19.5","","-23.6","","70","","0.0","","10","","10","","","","98.96","","","","-27","","NA"
"-89.33","48.37","THUNDER BAY CS","6048268","2019-01-28 22:00","2019","01","28","22:00","-19.3","","-23.2","","71","","0.0","","8","","11","","","","98.88","","","","-27","","NA"
"-89.33","48.37","THUNDER BAY CS","6048268","2019-01-28 23:00","2019","01","28","23:00","-19.2","","-23.0","","72","","0.0","","8","","7","","","","98.78","","","","-25","","NA"
"-89.33","48.37","THUNDER BAY CS","6048268","2019-01-29 00:00","2019","01","29","00:00","-18.8","","-22.4","","73","","0.0","","7","","16","","","","98.69","","","","-28","","NA"
"-89.33","48.37","THUNDER BAY CS","6048268","2019-01-29 01:00","2019","01","29","01:00","-18.6","","-22.6","","71","","0.0","","6","","13","","","","98.64","","","","-27","","NA"
"-89.33","48.37","THUNDER BAY CS","6048268","2019-01-29 02:00","2019","01","29","02:00","-20.3","","-23.1","","78","","0.0","","27","","10","","","","98.60","","","","-28","","NA"
"-89.33","48.37","THUNDER BAY CS","6048268","2019-01-29 03:00","2019","01","29","03:00","-19.9","","-22.6","","79","","0.0","","30","","4","","","","98.55","","","","-23","","NA"
"-89.33","48.37","THUNDER BAY CS","6048268","2019-01-29 04:00","2019","01","29","04:00","-19.7","","-23.3","","73","","0.2","","34","","12","","","","98.48","","","","-28","","NA"
"-89.33","48.37","THUNDER BAY CS","6048268","2019-01-29 05:00","2019","01","29","05:00","-20.2","","-24.5","","69","","0.0","","31","","14","","","","98.42","","","","-29","","NA"
"-89.33","48.37","THUNDER BAY CS","6048268","2019-01-29 06:00","2019","01","29","06:00","-20.2","","-24.8","","67","","0.0","","32","","11","","","","98.38","","","","-28","","NA"
"-89.33","48.37","THUNDER BAY CS","6048268","2019-01-29 07:00","2019","01","29","07:00","-20.0","","-24.4","","68","","0.0","","30","","9","","","","98.34","","","","-27","","NA"
"-89.33","48.37","THUNDER BAY CS","6048268","2019-01-29 08:00","2019","01","29","08:00","-20.2","","-24.9","","66","","0.0","","33","","10","","","","98.34","","","","-27","","NA"
"-89.33","48.37","THUNDER BAY CS","6048268","2019-01-29 09:00","2019","01","29","09:00","-20.8","","-25.5","","66","","0.0","","33","","13","","","","98.36","","","","-29","","NA"
"-89.33","48.37","THUNDER BAY CS","6048268","2019-01-29 10:00","2019","01","29","10:00","-20.8","","-25.7","","65","","0.0","","34","","16","","","","98.34","","","","-30","","NA"
"-89.33","48.37","THUNDER BAY CS","6048268","2019-01-29 11:00","2019","01","29","11:00","-20.9","","-25.9","","64","","0.1","","33","","23","","","","98.32","","","","-32","","NA"
"-89.33","48.37","THUNDER BAY CS","6048268","2019-01-29 12:00","2019","01","29","12:00","-20.1","","-24.8","","66","","0.0","","32","","24","","","","98.30","","","","-32","","NA"
"-89.33","48.37","THUNDER BAY CS","6048268","2019-01-29 13:00","2019","01","29","13:00","-19.7","","-24.2","","68","","0.1","","32","","20","","","","98.25","","","","-30","","NA"
"-89.33","48.37","THUNDER BAY CS","6048268","2019-01-29 14:00","2019","01","29","14:00","-19.0","","-24.1","","64","","0.0","","32","","23","","","","98.21","","","","-30","","NA"
"-89.33","48.37","THUNDER BAY CS","6048268","2019-01-29 15:00","2019","01","29","15:00","-18.5","","-23.7","","64","","0.0","","32","","23","","","","98.21","","","","-29","","NA"
"-89.33","48.37","THUNDER BAY CS","6048268","2019-01-29 16:00","2019","01","29","16:00","-18.3","","-23.6","","63","","0.0","","32","","27","","","","98.23","","","","-30","","NA"
"-89.33","48.37","THUNDER BAY CS","6048268","2019-01-29 17:00","2019","01","29","17:00","-18.4","","-23.9","","62","","0.0","","31","","19","","","","98.30","","","","-28","","NA"
"-89.33","48.37","THUNDER BAY CS","6048268","2019-01-29 18:00","2019","01","29","18:00","-19.0","","-24.0","","65","","0.0","","33","","18","","","","98.39","","","","-29","","NA"
"-89.33","48.37","THUNDER BAY CS","6048268","2019-01-29 19:00","2019","01","29","19:00","-19.4","","-23.8","","68","","0.0","","33","","15","","","","98.48","","","","-28","","NA"
"-89.33","48.37","THUNDER BAY CS","6048268","2019-01-29 20:00","2019","01","29","20:00","-19.7","","-25.3","","61","","0.1","","1","","23","","","","98.55","","","","-31","","NA"
"-89.33","48.37","THUNDER BAY CS","6048268","2019-01-29 21:00","2019","01","29","21:00","-22.1","","-26.6","","67","","0.1","","31","","27","","","","98.64","","","","-35","","NA"
"-89.33","48.37","THUNDER BAY CS","6048268","2019-01-29 22:00","2019","01","29","22:00","-23.6","","-29.2","","60","","0.0","","32","","27","","","","98.71","","","","-37","","NA"
"-89.33","48.37","THUNDER BAY CS","6048268","2019-01-29 23:00","2019","01","29","23:00","-24.3","","-29.8","","60","","0.0","","31","","22","","","","98.77","","","","-36","","NA"
"-89.33","48.37","THUNDER BAY CS","6048268","2019-01-30 00:00","2019","01","30","00:00","-24.6","","-29.8","","62","","0.0","","31","","18","","","","98.80","","","","-36","","NA"
"-89.33","48.37","THUNDER BAY CS","6048268","2019-01-30 01:00","2019","01","30","01:00","-25.0","","-30.5","","60","","0.0","","31","","21","","","","98.80","","","","-37","","NA"
"-89.33","48.37","THUNDER BAY CS","6048268","2019-01-30 02:00","2019","01","30","02:00","-25.6","","-31.1","","60","","0.0","","29","","20","","","","98.79","","","","-38","","NA"
"-89.33","48.37","THUNDER BAY CS","6048268","2019-01-30 03:00","2019","01","30","03:00","-25.6","","-30.8","","62","","0.0","","29","","19","","","","98.80","","","","-37","","NA"
"-89.33","48.37","THUNDER BAY CS","6048268","2019-01-30 04:00","2019","01","30","04:00","-26.1","","-31.3","","62","","0.0","","29","","19","","","","98.82","","","","-38","","NA"
"-89.33","48.37","THUNDER BAY CS","6048268","2019-01-30 05:00","2019","01","30","05:00","-26.1","","-31.3","","62","","0.0","","30","","27","","","","98.84","","","","-40","","NA"
"-89.33","48.37","THUNDER BAY CS","6048268","2019-01-30 06:00","2019","01","30","06:00","-26.2","","-31.4","","62","","0.0","","30","","22","","","","98.88","","","","-39","","NA"
"-89.33","48.37","THUNDER BAY CS","6048268","2019-01-30 07:00","2019","01","30","07:00","-26.7","","-31.8","","62","","0.0","","28","","18","","","","98.92","","","","-38","","NA"
"-89.33","48.37","THUNDER BAY CS","6048268","2019-01-30 08:00","2019","01","30","08:00","-27.1","","-32.2","","61","","0.0","","31","","24","","","","98.93","","","","-40","","NA"
"-89.33","48.37","THUNDER BAY CS","6048268","2019-01-30 09:00","2019","01","30","09:00","-27.4","","-32.3","","63","","0.1","","31","","31","","","","98.98","","","","-42","","NA"
"-89.33","48.37","THUNDER BAY CS","6048268","2019-01-30 10:00","2019","01","30","10:00","-27.6","","-32.7","","62","","0.0","","31","","33","","","","99.01","","","","-43","","NA"
"-89.33","48.37","THUNDER BAY CS","6048268","2019-01-30 11:00","2019","01","30","11:00","-26.9","","-32.4","","60","","0.0","","31","","32","","","","99.03","","","","-42","","NA"
"-89.33","48.37","THUNDER BAY CS","6048268","2019-01-30 12:00","2019","01","30","12:00","-26.1","","-31.8","","58","","0.0","","30","","37","","","","99.09","","","","-42","","NA"
"-89.33","48.37","THUNDER BAY CS","6048268","2019-01-30 13:00","2019","01","30","13:00","-25.1","","-31.0","","58","","0.1","","31","","38","","","","99.12","","","","-41","","NA"
"-89.33","48.37","THUNDER BAY CS","6048268","2019-01-30 14:00","2019","01","30","14:00","-23.7","","-29.9","","57","","0.0","","31","","26","","","","99.15","","","","-37","","NA"
"-89.33","48.37","THUNDER BAY CS","6048268","2019-01-30 15:00","2019","01","30","15:00","-22.9","","-29.6","","55","","0.0","","29","","24","","","","99.14","","","","-35","","NA"
"-89.33","48.37","THUNDER BAY CS","6048268","2019-01-30 16:00","2019","01","30","16:00","-22.4","","-29.6","","52","","0.0","","30","","27","","","","99.18","","","","-35","","NA"
"-89.33","48.37","THUNDER BAY CS","6048268","2019-01-30 17:00","2019","01","30","17:00","-22.8","","-29.8","","53","","0.0","","29","","27","","","","99.23","","","","-36","","NA"
"-89.33","48.37","THUNDER BAY CS","6048268","2019-01-30 18:00","2019","01","30","18:00","-23.4","","-30.4","","53","","0.0","","30","","30","","","","99.27","","","","-37","","NA"
"-89.33","48.37","THUNDER BAY CS","6048268","2019-01-30 19:00","2019","01","30","19:00","-24.4","","-30.5","","57","","0.0","","27","","19","","","","99.35","","","","-36","","NA"
"-89.33","48.37","THUNDER BAY CS","6048268","2019-01-30 20:00","2019","01","30","20:00","-25.2","","-31.2","","57","","0.0","","28","","24","","","","99.41","","","","-38","","NA"
"-89.33","48.37","THUNDER BAY CS","6048268","2019-01-30 21:00","2019","01","30","21:00","-26.0","","-31.7","","59","","0.0","","30","","22","","","","99.47","","","","-39","","NA"
"-89.33","48.37","THUNDER BAY CS","6048268","2019-01-30 22:00","2019","01","30","22:00","-27.1","","-32.9","","58","","0.0","","29","","24","","","","99.54","","","","-40","","NA"
"-89.33","48.37","THUNDER BAY CS","6048268","2019-01-30 23:00","2019","01","30","23:00","-28.1","","-33.7","","59","","0.0","","30","","24","","","","99.57","","","","-42","","NA"
"-89.33","48.37","THUNDER BAY CS","6048268","2019-01-31 00:00","2019","01","31","00:00","-29.1","","-34.6","","59","","0.0","","29","","20","","","","99.59","","","","-42","","NA"
"-89.33","48.37","THUNDER BAY CS","6048268","2019-01-31 01:00","2019","01","31","01:00","-29.8","","-35.3","","59","","0.0","","29","","15","","","","99.62","","","","-41","","NA"
"-89.33","48.37","THUNDER BAY CS","6048268","2019-01-31 02:00","2019","01","31","02:00","-30.3","","-35.7","","59","","0.0","","29","","15","","","","99.63","","","","-42","","NA"
"-89.33","48.37","THUNDER BAY CS","6048268","2019-01-31 03:00","2019","01","31","03:00","-30.7","","-36.0","","60","","0.0","","27","","18","","","","99.68","","","","-43","","NA"
"-89.33","48.37","THUNDER BAY CS","6048268","2019-01-31 04:00","2019","01","31","04:00","-31.2","","-36.3","","61","","0.0","","28","","18","","","","99.71","","","","-44","","NA"
"-89.33","48.37","THUNDER BAY CS","6048268","2019-01-31 05:00","2019","01","31","05:00","-31.2","","-36.2","","62","","0.0","","29","","21","","","","99.74","","","","-45","","NA"
"-89.33","48.37","THUNDER BAY CS","6048268","2019-01-31 06:00","2019","01","31","06:00","-31.9","","-36.8","","62","","0.0","","27","","16","","","","99.79","","","","-44","","NA"
"-89.33","48.37","THUNDER BAY CS","6048268","2019-01-31 07:00","2019","01","31","07:00","-31.9","","-36.8","","62","","0.0","","27","","16","","","","99.82","","","","-44","","NA"
"-89.33","48.37","THUNDER BAY CS","6048268","2019-01-31 08:00","2019","01","31","08:00","-32.3","","-37.1","","62","","0.0","","27","","16","","","","99.85","","","","-45","","NA"
"-89.33","48.37","THUNDER BAY CS","6048268","2019-01-31 09:00","2019","01","31","09:00","-32.6","","-37.4","","62","","0.0","","27","","12","","","","99.90","","","","-43","","NA"
"-89.33","48.37","THUNDER BAY CS","6048268","2019-01-31 10:00","2019","01","31","10:00","-31.5","","-37.1","","58","","0.0","","27","","17","","","","99.94","","","","-44","","NA"
"-89.33","48.37","THUNDER BAY CS","6048268","2019-01-31 11:00","2019","01","31","11:00","-30.0","","-36.0","","56","","0.0","","28","","19","","","","99.97","","","","-43","","NA"
"-89.33","48.37","THUNDER BAY CS","6048268","2019-01-31 12:00","2019","01","31","12:00","-28.2","","-34.8","","53","","0.0","","28","","20","","","","99.97","","","","-41","","NA"
"-89.33","48.37","THUNDER BAY CS","6048268","2019-01-31 13:00","2019","01","31","13:00","-26.2","","-33.3","","51","","0.0","","28","","20","","","","99.94","","","","-38","","NA"
"-89.33","48.37","THUNDER BAY CS","6048268","2019-01-31 14:00","2019","01","31","14:00","-24.4","","-32.5","","47","","0.0","","27","","18","","","","99.92","","","","-35","","NA"
"-89.33","48.37","THUNDER BAY CS","6048268","2019-01-31 15:00","2019","01","31","15:00","-23.0","","-31.4","","46","","0.0","","28","","18","","","","99.90","","","","-34","","NA"
"-89.33","48.37","THUNDER BAY CS","6048268","2019-01-31 16:00","2019","01","31","16:00","-22.1","","-30.7","","46","","0.0","","28","","17","","","","99.89","","","","-32","","NA"
"-89.33","48.37","THUNDER BAY CS","6048268","2019-01-31 17:00","2019","01","31","17:00","-21.9","","-30.0","","48","","0.0","","27","","16","","","","99.89","","","","-32","","NA"
"-89.33","48.37","THUNDER BAY CS","6048268","2019-01-31 18:00","2019","01","31","18:00","-23.0","","-29.9","","53","","0.0","","29","","10","","","","99.90","","","","-31","","NA"
"-89.33","48.37","THUNDER BAY CS","6048268","2019-01-31 19:00","2019","01","31","19:00","-24.9","","-30.4","","61","","0.0","","27","","13","","","","99.90","","","","-34","","NA"
"-89.33","48.37","THUNDER BAY CS","6048268","2019-01-31 20:00","2019","01","31","20:00","-24.8","","-30.3","","60","","0.0","","26","","9","","","","99.94","","","","-32","","NA"
"-89.33","48.37","THUNDER BAY CS","6048268","2019-01-31 21:00","2019","01","31","21:00","-27.3","","-31.8","","65","","0.0","","26","","7","","","","99.98","","","","-34","","NA"
"-89.33","48.37","THUNDER BAY CS","6048268","2019-01-31 22:00","2019","01","31","22:00","-27.1","","-30.8","","71","","0.0","","21","","7","","","","99.99","","","","-34","","NA"
"-89.33","48.37","THUNDER BAY CS","6048268","2019-01-31 23:00","2019","01","31","23:00","-27.9","","-31.5","","71","","0.0","","25","","9","","","","99.99","","","","-36","","NA"
