"Longitude (x)","Latitude (y)","Station Name","Climate ID","Date/Time (LST)","Year","Month","Day","Time (LST)","Temp (°C)","Temp Flag","Dew Point Temp (°C)","Dew Point Temp Flag","Rel Hum (%)","Rel Hum Flag","Precip. Amount (mm)","Precip. Amount Flag","Wind Dir (10s deg)","Wind Dir Flag","Wind Spd (km/h)","Wind Spd Flag","Visibility (km)","Visibility Flag","Stn Press (kPa)","Stn Press Flag","Hmdx","Hmdx Flag","Wind Chill","Wind Chill Flag","Weather"
"-57.58","50.24","DANIELS HARBOUR","8401400","2018-04-01 00:30","2018","04","01","00:30","-4.9","","-12.6","","55","","","","","M","","M","","M","100.20","","","","","","NA"
"-57.58","50.24","DANIELS HARBOUR","8401400","2018-04-01 01:30","2018","04","01","01:30","-5.0","","-14.0","","49","","","","","M","","M","","M","100.33","","","","","","NA"
"-57.58","50.24","DANIELS HARBOUR","8401400","2018-04-01 02:30","2018","04","01","02:30","-5.9","","-15.3","","47","","","","","M","","M","","M","100.43","","","","","","NA"
"-57.58","50.24","DANIELS HARBOUR","8401400","2018-04-01 03:30","2018","04","01","03:30","-6.1","","-15.9","","46","","","","","M","","M","","M","100.55","","","","","","NA"
"-57.58","50.24","DANIELS HARBOUR","8401400","2018-04-01 04:30","2018","04","01","04:30","-5.7","","-15.6","","46","","","","","M","","M","","M","100.66","","","","","","NA"
"-57.58","50.24","DANIELS HARBOUR","8401400","2018-04-01 05:30","2018","04","01","05:30","-5.6","","-15.5","","46","","","","","M","","M","","M","100.82","","","","","","NA"
"-57.58","50.24","DANIELS HARBOUR","8401400","2018-04-01 06:30","2018","04","01","06:30","-5.8","","-15.2","","47","","","","","M","","M","","M","100.87","","","","","","NA"
"-57.58","50.24","DANIELS HARBOUR","8401400","2018-04-01 07:30","2018","04","01","07:30","-5.6","","-15.5","","46","","","","","M","","M","","M","100.92","","","","","","NA"
"-57.58","50.24","DANIELS HARBOUR","8401400","2018-04-01 08:30","2018","04","01","08:30","-5.4","","-15.4","","45","","","","","M","","M","","M","100.95","","","","","","NA"
"-57.58","50.24","DANIELS HARBOUR","8401400","2018-04-01 09:30","2018","04","01","09:30","-4.7","","-14.7","","46","","","","","M","","M","","M","100.97","","","","","","NA"
"-57.58","50.24","DANIELS HARBOUR","8401400","2018-04-01 10:30","2018","04","01","10:30","-4.3","","-14.0","","47","","","","","M","","M","","M","100.96","","","","","","NA"
"-57.58","50.24","DANIELS HARBOUR","8401400","2018-04-01 11:30","2018","04","01","11:30","-2.8","","-13.4","","44","","","","","M","","M","","M","100.96","","","","","","NA"
"-57.58","50.24","DANIELS HARBOUR","8401400","2018-04-01 12:30","2018","04","01","12:30","-2.4","","-12.3","","47","","","","","M","","M","","M","100.89","","","","","","NA"
"-57.58","50.24","DANIELS HARBOUR","8401400","2018-04-01 13:30","2018","04","01","13:30","-1.6","","-10.9","","49","","","","","M","","M","","M","100.81","","","","","","NA"
"-57.58","50.24","DANIELS HARBOUR","8401400","2018-04-01 14:30","2018","04","01","14:30","-1.4","","-10.7","","49","","","","","M","","M","","M","100.74","","","","","","NA"
"-57.58","50.24","DANIELS HARBOUR","8401400","2018-04-01 15:30","2018","04","01","15:30","-1.0","","-10.6","","48","","","","","M","","M","","M","100.65","","","","","","NA"
"-57.58","50.24","DANIELS HARBOUR","8401400","2018-04-01 16:30","2018","04","01","16:30","-1.0","","-10.4","","49","","","","","M","","M","","M","100.55","","","","","","NA"
"-57.58","50.24","DANIELS HARBOUR","8401400","2018-04-01 17:30","2018","04","01","17:30","-1.0","","-10.9","","47","","","","","M","","M","","M","100.34","","","","","","NA"
"-57.58","50.24","DANIELS HARBOUR","8401400","2018-04-01 18:30","2018","04","01","18:30","-0.7","","-10.5","","47","","","","","M","","M","","M","100.26","","","","","","NA"
"-57.58","50.24","DANIELS HARBOUR","8401400","2018-04-01 19:30","2018","04","01","19:30","-0.5","","-6.5","","64","","","","","M","","M","","M","100.11","","","","","","NA"
"-57.58","50.24","DANIELS HARBOUR","8401400","2018-04-01 20:30","2018","04","01","20:30","-0.2","","-5.9","","65","","","","","M","","M","","M","99.97","","","","","","NA"
"-57.58","50.24","DANIELS HARBOUR","8401400","2018-04-01 21:30","2018","04","01","21:30","0.7","","-5.4","","64","","","","","M","","M","","M","99.83","","","","","","NA"
"-57.58","50.24","DANIELS HARBOUR","8401400","2018-04-01 22:30","2018","04","01","22:30","1.7","","-4.7","","63","","","","","M","","M","","M","99.72","","","","","","NA"
"-57.58","50.24","DANIELS HARBOUR","8401400","2018-04-01 23:30","2018","04","01","23:30","0.9","","-5.2","","64","","","","","M","","M","","M","99.68","","","","","","NA"
"-57.58","50.24","DANIELS HARBOUR","8401400","2018-04-02 00:30","2018","04","02","00:30","0.4","","-5.3","","66","","","","","M","","M","","M","99.66","","","","","","NA"
"-57.58","50.24","DANIELS HARBOUR","8401400","2018-04-02 01:30","2018","04","02","01:30","0.2","","-5.3","","67","","","","","M","","M","","M","99.68","","","","","","NA"
"-57.58","50.24","DANIELS HARBOUR","8401400","2018-04-02 02:30","2018","04","02","02:30","0.1","","-5.5","","66","","","","","M","","M","","M","99.68","","","","","","NA"
"-57.58","50.24","DANIELS HARBOUR","8401400","2018-04-02 03:30","2018","04","02","03:30","0.0","","-5.5","","66","","","","","M","","M","","M","99.67","","","","","","NA"
"-57.58","50.24","DANIELS HARBOUR","8401400","2018-04-02 04:30","2018","04","02","04:30","-0.1","","-5.7","","66","","","","","M","","M","","M","99.70","","","","","","NA"
"-57.58","50.24","DANIELS HARBOUR","8401400","2018-04-02 05:30","2018","04","02","05:30","-0.9","","-6.4","","66","","","","","M","","M","","M","99.80","","","","","","NA"
"-57.58","50.24","DANIELS HARBOUR","8401400","2018-04-02 06:30","2018","04","02","06:30","-1.4","","-7.4","","64","","","","","M","","M","","M","99.95","","","","","","NA"
"-57.58","50.24","DANIELS HARBOUR","8401400","2018-04-02 07:30","2018","04","02","07:30","-1.3","","-7.7","","62","","","","","M","","M","","M","100.07","","","","","","NA"
"-57.58","50.24","DANIELS HARBOUR","8401400","2018-04-02 08:30","2018","04","02","08:30","-1.8","","-8.7","","59","","","","","M","","M","","M","100.18","","","","","","NA"
"-57.58","50.24","DANIELS HARBOUR","8401400","2018-04-02 09:30","2018","04","02","09:30","-1.1","","-8.6","","57","","","","","M","","M","","M","100.24","","","","","","NA"
"-57.58","50.24","DANIELS HARBOUR","8401400","2018-04-02 10:30","2018","04","02","10:30","-1.0","","-8.9","","55","","","","","M","","M","","M","100.35","","","","","","NA"
"-57.58","50.24","DANIELS HARBOUR","8401400","2018-04-02 11:30","2018","04","02","11:30","-0.6","","-8.7","","54","","","","","M","","M","","M","100.44","","","","","","NA"
"-57.58","50.24","DANIELS HARBOUR","8401400","2018-04-02 12:30","2018","04","02","12:30","-1.6","","-9.2","","56","","","","","M","","M","","M","100.50","","","","","","NA"
"-57.58","50.24","DANIELS HARBOUR","8401400","2018-04-02 13:30","2018","04","02","13:30","-1.5","","-9.5","","54","","","","","M","","M","","M","100.56","","","","","","NA"
"-57.58","50.24","DANIELS HARBOUR","8401400","2018-04-02 14:30","2018","04","02","14:30","-0.9","","-9.4","","53","","","","","M","","M","","M","100.67","","","","","","NA"
"-57.58","50.24","DANIELS HARBOUR","8401400","2018-04-02 15:30","2018","04","02","15:30","-0.8","","-9.4","","52","","","","","M","","M","","M","100.74","","","","","","NA"
"-57.58","50.24","DANIELS HARBOUR","8401400","2018-04-02 16:30","2018","04","02","16:30","-0.7","","-9.7","","51","","","","","M","","M","","M","100.78","","","","","","NA"
"-57.58","50.24","DANIELS HARBOUR","8401400","2018-04-02 17:30","2018","04","02","17:30","-0.8","","-9.4","","52","","","","","M","","M","","M","100.81","","","","","","NA"
"-57.58","50.24","DANIELS HARBOUR","8401400","2018-04-02 18:30","2018","04","02","18:30","-1.4","","-10.1","","52","","","","","M","","M","","M","100.89","","","","","","NA"
"-57.58","50.24","DANIELS HARBOUR","8401400","2018-04-02 19:30","2018","04","02","19:30","-1.6","","-10.1","","52","","","","","M","","M","","M","100.96","","","","","","NA"
"-57.58","50.24","DANIELS HARBOUR","8401400","2018-04-02 20:30","2018","04","02","20:30","-1.5","","-9.7","","54","","","","","M","","M","","M","101.04","","","","","","NA"
"-57.58","50.24","DANIELS HARBOUR","8401400","2018-04-02 21:30","2018","04","02","21:30","-1.4","","-9.3","","55","","","","","M","","M","","M","101.07","","","","","","NA"
"-57.58","50.24","DANIELS HARBOUR","8401400","2018-04-02 22:30","2018","04","02","22:30","-1.5","","-10.2","","52","","","","","M","","M","","M","101.07","","","","","","NA"
"-57.58","50.24","DANIELS HARBOUR","8401400","2018-04-02 23:30","2018","04","02","23:30","-1.9","","-12.5","","44","","","","","M","","M","","M","101.07","","","","","","NA"
"-57.58","50.24","DANIELS HARBOUR","8401400","2018-04-03 00:30","2018","04","03","00:30","-2.2","","-14.0","","40","","","","","M","","M","","M","101.07","","","","","","NA"
"-57.58","50.24","DANIELS HARBOUR","8401400","2018-04-03 01:30","2018","04","03","01:30","-2.9","","-14.1","","42","","","","","M","","M","","M","101.11","","","","","","NA"
"-57.58","50.24","DANIELS HARBOUR","8401400","2018-04-03 02:30","2018","04","03","02:30","-3.3","","-13.3","","46","","","","","M","","M","","M","101.11","","","","","","NA"
"-57.58","50.24","DANIELS HARBOUR","8401400","2018-04-03 03:30","2018","04","03","03:30","-6.1","","-15.8","","46","","","","","M","","M","","M","101.18","","","","","","NA"
"-57.58","50.24","DANIELS HARBOUR","8401400","2018-04-03 04:30","2018","04","03","04:30","-7.7","","-16.2","","51","","","","","M","","M","","M","101.24","","","","","","NA"
"-57.58","50.24","DANIELS HARBOUR","8401400","2018-04-03 05:30","2018","04","03","05:30","-8.5","","-16.7","","52","","","","","M","","M","","M","101.28","","","","","","NA"
"-57.58","50.24","DANIELS HARBOUR","8401400","2018-04-03 06:30","2018","04","03","06:30","-8.8","","-16.8","","52","","","","","M","","M","","M","101.33","","","","","","NA"
"-57.58","50.24","DANIELS HARBOUR","8401400","2018-04-03 07:30","2018","04","03","07:30","-5.7","","-15.7","","45","","","","","M","","M","","M","101.40","","","","","","NA"
"-57.58","50.24","DANIELS HARBOUR","8401400","2018-04-03 08:30","2018","04","03","08:30","-5.9","","-16.2","","44","","","","","M","","M","","M","101.46","","","","","","NA"
"-57.58","50.24","DANIELS HARBOUR","8401400","2018-04-03 09:30","2018","04","03","09:30","-5.4","","-16.4","","42","","","","","M","","M","","M","101.51","","","","","","NA"
"-57.58","50.24","DANIELS HARBOUR","8401400","2018-04-03 10:30","2018","04","03","10:30","-5.6","","-17.3","","39","","","","","M","","M","","M","101.58","","","","","","NA"
"-57.58","50.24","DANIELS HARBOUR","8401400","2018-04-03 11:30","2018","04","03","11:30","-5.4","","-16.4","","42","","","","","M","","M","","M","101.57","","","","","","NA"
"-57.58","50.24","DANIELS HARBOUR","8401400","2018-04-03 12:30","2018","04","03","12:30","-4.7","","-16.8","","38","","","","","M","","M","","M","101.56","","","","","","NA"
"-57.58","50.24","DANIELS HARBOUR","8401400","2018-04-03 13:30","2018","04","03","13:30","-4.3","","-16.6","","38","","","","","M","","M","","M","101.57","","","","","","NA"
"-57.58","50.24","DANIELS HARBOUR","8401400","2018-04-03 14:30","2018","04","03","14:30","-3.8","","-17.3","","34","","","","","M","","M","","M","101.60","","","","","","NA"
"-57.58","50.24","DANIELS HARBOUR","8401400","2018-04-03 15:30","2018","04","03","15:30","-3.6","","-16.8","","35","","","","","M","","M","","M","101.62","","","","","","NA"
"-57.58","50.24","DANIELS HARBOUR","8401400","2018-04-03 16:30","2018","04","03","16:30","-3.2","","-15.7","","37","","","","","M","","M","","M","101.66","","","","","","NA"
"-57.58","50.24","DANIELS HARBOUR","8401400","2018-04-03 17:30","2018","04","03","17:30","-3.2","","-15.2","","39","","","","","M","","M","","M","101.66","","","","","","NA"
"-57.58","50.24","DANIELS HARBOUR","8401400","2018-04-03 18:30","2018","04","03","18:30","-3.4","","-14.5","","42","","","","","M","","M","","M","101.67","","","","","","NA"
"-57.58","50.24","DANIELS HARBOUR","8401400","2018-04-03 19:30","2018","04","03","19:30","-3.4","","-14.7","","41","","","","","M","","M","","M","101.67","","","","","","NA"
"-57.58","50.24","DANIELS HARBOUR","8401400","2018-04-03 20:30","2018","04","03","20:30","-3.4","","-14.3","","43","","","","","M","","M","","M","101.73","","","","","","NA"
"-57.58","50.24","DANIELS HARBOUR","8401400","2018-04-03 21:30","2018","04","03","21:30","-2.9","","-14.3","","41","","","","","M","","M","","M","101.76","","","","","","NA"
"-57.58","50.24","DANIELS HARBOUR","8401400","2018-04-03 22:30","2018","04","03","22:30","-2.7","","-13.9","","42","","","","","M","","M","","M","101.74","","","","","","NA"
"-57.58","50.24","DANIELS HARBOUR","8401400","2018-04-03 23:30","2018","04","03","23:30","-4.9","","-14.6","","47","","","","","M","","M","","M","101.70","","","","","","NA"
"-57.58","50.24","DANIELS HARBOUR","8401400","2018-04-04 00:30","2018","04","04","00:30","-4.9","","-14.5","","47","","","","","M","","M","","M","101.67","","","","","","NA"
"-57.58","50.24","DANIELS HARBOUR","8401400","2018-04-04 01:30","2018","04","04","01:30","-4.3","","-14.2","","46","","","","","M","","M","","M","101.61","","","","","","NA"
"-57.58","50.24","DANIELS HARBOUR","8401400","2018-04-04 02:30","2018","04","04","02:30","-4.6","","-14.5","","46","","","","","M","","M","","M","101.59","","","","","","NA"
"-57.58","50.24","DANIELS HARBOUR","8401400","2018-04-04 03:30","2018","04","04","03:30","-4.3","","-15.1","","43","","","","","M","","M","","M","101.61","","","","","","NA"
"-57.58","50.24","DANIELS HARBOUR","8401400","2018-04-04 04:30","2018","04","04","04:30","-3.8","","-15.1","","41","","","","","M","","M","","M","101.55","","","","","","NA"
"-57.58","50.24","DANIELS HARBOUR","8401400","2018-04-04 05:30","2018","04","04","05:30","-2.9","","-9.9","","59","","","","","M","","M","","M","101.52","","","","","","NA"
"-57.58","50.24","DANIELS HARBOUR","8401400","2018-04-04 06:30","2018","04","04","06:30","-2.9","","-11.1","","53","","","","","M","","M","","M","101.51","","","","","","NA"
"-57.58","50.24","DANIELS HARBOUR","8401400","2018-04-04 07:30","2018","04","04","07:30","-3.1","","-9.8","","60","","","","","M","","M","","M","101.49","","","","","","NA"
"-57.58","50.24","DANIELS HARBOUR","8401400","2018-04-04 08:30","2018","04","04","08:30","-3.8","","-10.6","","59","","","","","M","","M","","M","101.52","","","","","","NA"
"-57.58","50.24","DANIELS HARBOUR","8401400","2018-04-04 09:30","2018","04","04","09:30","-4.0","","-11.0","","58","","","","","M","","M","","M","101.55","","","","","","NA"
"-57.58","50.24","DANIELS HARBOUR","8401400","2018-04-04 10:30","2018","04","04","10:30","-4.4","","-11.6","","57","","","","","M","","M","","M","101.55","","","","","","NA"
"-57.58","50.24","DANIELS HARBOUR","8401400","2018-04-04 11:30","2018","04","04","11:30","-4.8","","-11.9","","58","","","","","M","","M","","M","101.52","","","","","","NA"
"-57.58","50.24","DANIELS HARBOUR","8401400","2018-04-04 12:30","2018","04","04","12:30","-4.6","","-11.7","","58","","","","","M","","M","","M","101.46","","","","","","NA"
"-57.58","50.24","DANIELS HARBOUR","8401400","2018-04-04 13:30","2018","04","04","13:30","-4.7","","-11.7","","58","","","","","M","","M","","M","101.42","","","","","","NA"
"-57.58","50.24","DANIELS HARBOUR","8401400","2018-04-04 14:30","2018","04","04","14:30","-4.0","","-11.1","","58","","","","","M","","M","","M","101.37","","","","","","NA"
"-57.58","50.24","DANIELS HARBOUR","8401400","2018-04-04 15:30","2018","04","04","15:30","-3.6","","-10.7","","58","","","","","M","","M","","M","101.29","","","","","","NA"
"-57.58","50.24","DANIELS HARBOUR","8401400","2018-04-04 16:30","2018","04","04","16:30","-3.4","","-10.1","","60","","","","","M","","M","","M","101.22","","","","","","NA"
"-57.58","50.24","DANIELS HARBOUR","8401400","2018-04-04 17:30","2018","04","04","17:30","-3.3","","-9.9","","60","","","","","M","","M","","M","101.16","","","","","","NA"
"-57.58","50.24","DANIELS HARBOUR","8401400","2018-04-04 18:30","2018","04","04","18:30","-2.8","","-9.2","","61","","","","","M","","M","","M","101.04","","","","","","NA"
"-57.58","50.24","DANIELS HARBOUR","8401400","2018-04-04 19:30","2018","04","04","19:30","-2.5","","-8.9","","61","","","","","M","","M","","M","100.95","","","","","","NA"
"-57.58","50.24","DANIELS HARBOUR","8401400","2018-04-04 20:30","2018","04","04","20:30","-2.1","","-8.6","","61","","","","","M","","M","","M","100.89","","","","","","NA"
"-57.58","50.24","DANIELS HARBOUR","8401400","2018-04-04 21:30","2018","04","04","21:30","-0.5","","-7.5","","59","","","","","M","","M","","M","100.74","","","","","","NA"
"-57.58","50.24","DANIELS HARBOUR","8401400","2018-04-04 22:30","2018","04","04","22:30","-0.8","","-7.7","","60","","","","","M","","M","","M","100.60","","","","","","NA"
"-57.58","50.24","DANIELS HARBOUR","8401400","2018-04-04 23:30","2018","04","04","23:30","-0.7","","-8.4","","56","","","","","M","","M","","M","100.35","","","","","","NA"
"-57.58","50.24","DANIELS HARBOUR","8401400","2018-04-05 00:30","2018","04","05","00:30","-0.6","","-9.1","","53","","","","","M","","M","","M","99.96","","","","","","NA"
"-57.58","50.24","DANIELS HARBOUR","8401400","2018-04-05 01:30","2018","04","05","01:30","-1.2","","-9.6","","53","","","","","M","","M","","M","99.75","","","","","","NA"
"-57.58","50.24","DANIELS HARBOUR","8401400","2018-04-05 02:30","2018","04","05","02:30","-1.0","","-8.6","","56","","","","","M","","M","","M","99.42","","","","","","NA"
"-57.58","50.24","DANIELS HARBOUR","8401400","2018-04-05 03:30","2018","04","05","03:30","-0.1","","-7.8","","56","","","","","M","","M","","M","99.17","","","","","","NA"
"-57.58","50.24","DANIELS HARBOUR","8401400","2018-04-05 04:30","2018","04","05","04:30","-0.4","","-7.2","","60","","","","","M","","M","","M","99.04","","","","","","NA"
"-57.58","50.24","DANIELS HARBOUR","8401400","2018-04-05 05:30","2018","04","05","05:30","0.8","","-6.5","","58","","","","","M","","M","","M","98.81","","","","","","NA"
"-57.58","50.24","DANIELS HARBOUR","8401400","2018-04-05 06:30","2018","04","05","06:30","0.6","","-5.8","","62","","","","","M","","M","","M","98.56","","","","","","NA"
"-57.58","50.24","DANIELS HARBOUR","8401400","2018-04-05 07:30","2018","04","05","07:30","1.2","","-5.3","","62","","","","","M","","M","","M","98.35","","","","","","NA"
"-57.58","50.24","DANIELS HARBOUR","8401400","2018-04-05 08:30","2018","04","05","08:30","2.7","","-4.4","","60","","","","","M","","M","","M","98.33","","","","","","NA"
"-57.58","50.24","DANIELS HARBOUR","8401400","2018-04-05 09:30","2018","04","05","09:30","6.7","","0.0","","62","","","","","M","","M","","M","98.36","","","","","","NA"
"-57.58","50.24","DANIELS HARBOUR","8401400","2018-04-05 10:30","2018","04","05","10:30","5.4","","-0.3","","67","","","","","M","","M","","M","98.49","","","","","","NA"
"-57.58","50.24","DANIELS HARBOUR","8401400","2018-04-05 11:30","2018","04","05","11:30","2.6","","-5.0","","57","","","","","M","","M","","M","98.51","","","","","","NA"
"-57.58","50.24","DANIELS HARBOUR","8401400","2018-04-05 12:30","2018","04","05","12:30","2.2","","-5.7","","56","","","","","M","","M","","M","98.55","","","","","","NA"
"-57.58","50.24","DANIELS HARBOUR","8401400","2018-04-05 13:30","2018","04","05","13:30","0.9","","-6.3","","59","","","","","M","","M","","M","98.71","","","","","","NA"
"-57.58","50.24","DANIELS HARBOUR","8401400","2018-04-05 14:30","2018","04","05","14:30","0.6","","-6.3","","60","","","","","M","","M","","M","98.84","","","","","","NA"
"-57.58","50.24","DANIELS HARBOUR","8401400","2018-04-05 15:30","2018","04","05","15:30","0.3","","-6.8","","59","","","","","M","","M","","M","98.95","","","","","","NA"
"-57.58","50.24","DANIELS HARBOUR","8401400","2018-04-05 16:30","2018","04","05","16:30","-0.1","","-7.2","","59","","","","","M","","M","","M","99.01","","","","","","NA"
"-57.58","50.24","DANIELS HARBOUR","8401400","2018-04-05 17:30","2018","04","05","17:30","-0.3","","-7.8","","57","","","","","M","","M","","M","99.04","","","","","","NA"
"-57.58","50.24","DANIELS HARBOUR","8401400","2018-04-05 18:30","2018","04","05","18:30","-0.8","","-8.8","","55","","","","","M","","M","","M","99.12","","","","","","NA"
"-57.58","50.24","DANIELS HARBOUR","8401400","2018-04-05 19:30","2018","04","05","19:30","-1.2","","-9.2","","55","","","","","M","","M","","M","99.15","","","","","","NA"
"-57.58","50.24","DANIELS HARBOUR","8401400","2018-04-05 20:30","2018","04","05","20:30","-1.9","","-9.3","","57","","","","","M","","M","","M","99.21","","","","","","NA"
"-57.58","50.24","DANIELS HARBOUR","8401400","2018-04-05 21:30","2018","04","05","21:30","-2.2","","-11.1","","51","","","","","M","","M","","M","99.18","","","","","","NA"
"-57.58","50.24","DANIELS HARBOUR","8401400","2018-04-05 22:30","2018","04","05","22:30","-3.2","","-9.8","","60","","","","","M","","M","","M","99.19","","","","","","NA"
"-57.58","50.24","DANIELS HARBOUR","8401400","2018-04-05 23:30","2018","04","05","23:30","-2.2","","-10.4","","53","","","","","M","","M","","M","99.18","","","","","","NA"
"-57.58","50.24","DANIELS HARBOUR","8401400","2018-04-06 00:30","2018","04","06","00:30","-3.6","","-9.8","","62","","","","","M","","M","","M","99.27","","","","","","NA"
"-57.58","50.24","DANIELS HARBOUR","8401400","2018-04-06 01:30","2018","04","06","01:30","-3.8","","-10.2","","61","","","","","M","","M","","M","99.26","","","","","","NA"
"-57.58","50.24","DANIELS HARBOUR","8401400","2018-04-06 02:30","2018","04","06","02:30","-3.3","","-12.1","","51","","","","","M","","M","","M","99.30","","","","","","NA"
"-57.58","50.24","DANIELS HARBOUR","8401400","2018-04-06 03:30","2018","04","06","03:30","-4.5","","-11.5","","58","","","","","M","","M","","M","99.32","","","","","","NA"
"-57.58","50.24","DANIELS HARBOUR","8401400","2018-04-06 04:30","2018","04","06","04:30","-5.3","","-12.2","","58","","","","","M","","M","","M","99.36","","","","","","NA"
"-57.58","50.24","DANIELS HARBOUR","8401400","2018-04-06 05:30","2018","04","06","05:30","-4.7","","-13.6","","50","","","","","M","","M","","M","99.43","","","","","","NA"
"-57.58","50.24","DANIELS HARBOUR","8401400","2018-04-06 06:30","2018","04","06","06:30","-6.8","","-14.3","","55","","","","","M","","M","","M","99.60","","","","","","NA"
"-57.58","50.24","DANIELS HARBOUR","8401400","2018-04-06 07:30","2018","04","06","07:30","-7.3","","-16.8","","47","","","","","M","","M","","M","99.75","","","","","","NA"
"-57.58","50.24","DANIELS HARBOUR","8401400","2018-04-06 08:30","2018","04","06","08:30","-7.1","","-16.0","","49","","","","","M","","M","","M","99.73","","","","","","NA"
"-57.58","50.24","DANIELS HARBOUR","8401400","2018-04-06 09:30","2018","04","06","09:30","-6.8","","-15.2","","51","","","","","M","","M","","M","99.75","","","","","","NA"
"-57.58","50.24","DANIELS HARBOUR","8401400","2018-04-06 10:30","2018","04","06","10:30","-7.3","","-14.6","","56","","","","","M","","M","","M","99.77","","","","","","NA"
"-57.58","50.24","DANIELS HARBOUR","8401400","2018-04-06 11:30","2018","04","06","11:30","-6.6","","-15.5","","49","","","","","M","","M","","M","99.78","","","","","","NA"
"-57.58","50.24","DANIELS HARBOUR","8401400","2018-04-06 12:30","2018","04","06","12:30","-7.5","","-14.7","","56","","","","","M","","M","","M","99.80","","","","","","NA"
"-57.58","50.24","DANIELS HARBOUR","8401400","2018-04-06 13:30","2018","04","06","13:30","-6.9","","-14.5","","55","","","","","M","","M","","M","99.84","","","","","","NA"
"-57.58","50.24","DANIELS HARBOUR","8401400","2018-04-06 14:30","2018","04","06","14:30","-6.7","","-14.1","","56","","","","","M","","M","","M","99.83","","","","","","NA"
"-57.58","50.24","DANIELS HARBOUR","8401400","2018-04-06 15:30","2018","04","06","15:30","-6.1","","-14.5","","51","","","","","M","","M","","M","99.86","","","","","","NA"
"-57.58","50.24","DANIELS HARBOUR","8401400","2018-04-06 16:30","2018","04","06","16:30","-5.8","","-14.8","","49","","","","","M","","M","","M","99.93","","","","","","NA"
"-57.58","50.24","DANIELS HARBOUR","8401400","2018-04-06 17:30","2018","04","06","17:30","-5.1","","-14.2","","49","","","","","M","","M","","M","99.99","","","","","","NA"
"-57.58","50.24","DANIELS HARBOUR","8401400","2018-04-06 18:30","2018","04","06","18:30","-6.1","","-12.9","","59","","","","","M","","M","","M","100.08","","","","","","NA"
"-57.58","50.24","DANIELS HARBOUR","8401400","2018-04-06 19:30","2018","04","06","19:30","-5.0","","-13.5","","51","","","","","M","","M","","M","100.19","","","","","","NA"
"-57.58","50.24","DANIELS HARBOUR","8401400","2018-04-06 20:30","2018","04","06","20:30","-4.4","","-13.8","","48","","","","","M","","M","","M","100.31","","","","","","NA"
"-57.58","50.24","DANIELS HARBOUR","8401400","2018-04-06 21:30","2018","04","06","21:30","-4.1","","-14.2","","45","","","","","M","","M","","M","100.36","","","","","","NA"
"-57.58","50.24","DANIELS HARBOUR","8401400","2018-04-06 22:30","2018","04","06","22:30","-3.9","","-14.1","","45","","","","","M","","M","","M","100.46","","","","","","NA"
"-57.58","50.24","DANIELS HARBOUR","8401400","2018-04-06 23:30","2018","04","06","23:30","-3.6","","-14.2","","44","","","","","M","","M","","M","100.53","","","","","","NA"
"-57.58","50.24","DANIELS HARBOUR","8401400","2018-04-07 00:30","2018","04","07","00:30","-3.8","","-12.0","","53","","","","","M","","M","","M","100.60","","","","","","NA"
"-57.58","50.24","DANIELS HARBOUR","8401400","2018-04-07 01:30","2018","04","07","01:30","-3.0","","-12.1","","50","","","","","M","","M","","M","100.65","","","","","","NA"
"-57.58","50.24","DANIELS HARBOUR","8401400","2018-04-07 02:30","2018","04","07","02:30","-3.6","","-11.9","","53","","","","","M","","M","","M","100.66","","","","","","NA"
"-57.58","50.24","DANIELS HARBOUR","8401400","2018-04-07 03:30","2018","04","07","03:30","-3.8","","-10.8","","58","","","","","M","","M","","M","100.66","","","","","","NA"
"-57.58","50.24","DANIELS HARBOUR","8401400","2018-04-07 04:30","2018","04","07","04:30","-3.8","","-10.9","","58","","","","","M","","M","","M","100.66","","","","","","NA"
"-57.58","50.24","DANIELS HARBOUR","8401400","2018-04-07 05:30","2018","04","07","05:30","-3.3","","-10.2","","59","","","","","M","","M","","M","100.60","","","","","","NA"
"-57.58","50.24","DANIELS HARBOUR","8401400","2018-04-07 06:30","2018","04","07","06:30","-2.9","","-10.3","","57","","","","","M","","M","","M","100.58","","","","","","NA"
"-57.58","50.24","DANIELS HARBOUR","8401400","2018-04-07 07:30","2018","04","07","07:30","-3.1","","-9.8","","60","","","","","M","","M","","M","100.53","","","","","","NA"
"-57.58","50.24","DANIELS HARBOUR","8401400","2018-04-07 08:30","2018","04","07","08:30","-1.6","","-9.2","","56","","","","","M","","M","","M","100.47","","","","","","NA"
"-57.58","50.24","DANIELS HARBOUR","8401400","2018-04-07 09:30","2018","04","07","09:30","0.2","","-9.5","","48","","","","","M","","M","","M","100.42","","","","","","NA"
"-57.58","50.24","DANIELS HARBOUR","8401400","2018-04-07 10:30","2018","04","07","10:30","0.3","","-11.0","","42","","","","","M","","M","","M","100.35","","","","","","NA"
"-57.58","50.24","DANIELS HARBOUR","8401400","2018-04-07 11:30","2018","04","07","11:30","0.3","","-10.0","","46","","","","","M","","M","","M","100.23","","","","","","NA"
"-57.58","50.24","DANIELS HARBOUR","8401400","2018-04-07 12:30","2018","04","07","12:30","0.3","","-9.6","","47","","","","","M","","M","","M","100.10","","","","","","NA"
"-57.58","50.24","DANIELS HARBOUR","8401400","2018-04-07 13:30","2018","04","07","13:30","-0.2","","-9.6","","49","","","","","M","","M","","M","100.01","","","","","","NA"
"-57.58","50.24","DANIELS HARBOUR","8401400","2018-04-07 14:30","2018","04","07","14:30","-0.6","","-9.6","","51","","","","","M","","M","","M","99.95","","","","","","NA"
"-57.58","50.24","DANIELS HARBOUR","8401400","2018-04-07 15:30","2018","04","07","15:30","-1.5","","-9.0","","57","","","","","M","","M","","M","99.92","","","","","","NA"
"-57.58","50.24","DANIELS HARBOUR","8401400","2018-04-07 16:30","2018","04","07","16:30","-2.0","","-9.1","","58","","","","","M","","M","","M","99.90","","","","","","NA"
"-57.58","50.24","DANIELS HARBOUR","8401400","2018-04-07 17:30","2018","04","07","17:30","-1.9","","-9.2","","57","","","","","M","","M","","M","99.94","","","","","","NA"
"-57.58","50.24","DANIELS HARBOUR","8401400","2018-04-07 18:30","2018","04","07","18:30","-1.9","","-10.0","","54","","","","","M","","M","","M","99.99","","","","","","NA"
"-57.58","50.24","DANIELS HARBOUR","8401400","2018-04-07 19:30","2018","04","07","19:30","-2.2","","-10.2","","54","","","","","M","","M","","M","100.05","","","","","","NA"
"-57.58","50.24","DANIELS HARBOUR","8401400","2018-04-07 20:30","2018","04","07","20:30","-3.6","","-11.1","","56","","","","","M","","M","","M","100.15","","","","","","NA"
"-57.58","50.24","DANIELS HARBOUR","8401400","2018-04-07 21:30","2018","04","07","21:30","-4.0","","-11.2","","57","","","","","M","","M","","M","100.25","","","","","","NA"
"-57.58","50.24","DANIELS HARBOUR","8401400","2018-04-07 22:30","2018","04","07","22:30","-5.9","","-13.1","","57","","","","","M","","M","","M","100.32","","","","","","NA"
"-57.58","50.24","DANIELS HARBOUR","8401400","2018-04-07 23:30","2018","04","07","23:30","-5.7","","-13.0","","56","","","","","M","","M","","M","100.40","","","","","","NA"
"-57.58","50.24","DANIELS HARBOUR","8401400","2018-04-08 00:30","2018","04","08","00:30","-6.2","","-13.5","","56","","","","","M","","M","","M","100.49","","","","","","NA"
"-57.58","50.24","DANIELS HARBOUR","8401400","2018-04-08 01:30","2018","04","08","01:30","-5.4","","-12.7","","56","","","","","M","","M","","M","100.53","","","","","","NA"
"-57.58","50.24","DANIELS HARBOUR","8401400","2018-04-08 02:30","2018","04","08","02:30","-4.9","","-11.9","","58","","","","","M","","M","","M","100.59","","","","","","NA"
"-57.58","50.24","DANIELS HARBOUR","8401400","2018-04-08 03:30","2018","04","08","03:30","-4.7","","-11.4","","59","","","","","M","","M","","M","100.65","","","","","","NA"
"-57.58","50.24","DANIELS HARBOUR","8401400","2018-04-08 04:30","2018","04","08","04:30","-6.0","","-12.9","","58","","","","","M","","M","","M","100.73","","","","","","NA"
"-57.58","50.24","DANIELS HARBOUR","8401400","2018-04-08 05:30","2018","04","08","05:30","-6.1","","-13.0","","58","","","","","M","","M","","M","100.81","","","","","","NA"
"-57.58","50.24","DANIELS HARBOUR","8401400","2018-04-08 06:30","2018","04","08","06:30","-5.4","","-12.3","","58","","","","","M","","M","","M","100.90","","","","","","NA"
"-57.58","50.24","DANIELS HARBOUR","8401400","2018-04-08 07:30","2018","04","08","07:30","-3.3","","-10.8","","56","","","","","M","","M","","M","100.99","","","","","","NA"
"-57.58","50.24","DANIELS HARBOUR","8401400","2018-04-08 08:30","2018","04","08","08:30","-1.0","","-9.8","","51","","","","","M","","M","","M","101.02","","","","","","NA"
"-57.58","50.24","DANIELS HARBOUR","8401400","2018-04-08 09:30","2018","04","08","09:30","0.5","","-9.1","","49","","","","","M","","M","","M","101.03","","","","","","NA"
"-57.58","50.24","DANIELS HARBOUR","8401400","2018-04-08 10:30","2018","04","08","10:30","0.7","","-8.5","","50","","","","","M","","M","","M","101.03","","","","","","NA"
"-57.58","50.24","DANIELS HARBOUR","8401400","2018-04-08 11:30","2018","04","08","11:30","0.8","","-8.6","","49","","","","","M","","M","","M","100.99","","","","","","NA"
"-57.58","50.24","DANIELS HARBOUR","8401400","2018-04-08 12:30","2018","04","08","12:30","3.1","","-12.0","","32","","","","","M","","M","","M","100.98","","","","","","NA"
"-57.58","50.24","DANIELS HARBOUR","8401400","2018-04-08 13:30","2018","04","08","13:30","3.1","","-11.0","","35","","","","","M","","M","","M","100.94","","","","","","NA"
"-57.58","50.24","DANIELS HARBOUR","8401400","2018-04-08 14:30","2018","04","08","14:30","3.2","","-10.0","","37","","","","","M","","M","","M","100.91","","","","","","NA"
"-57.58","50.24","DANIELS HARBOUR","8401400","2018-04-08 15:30","2018","04","08","15:30","2.9","","-10.4","","37","","","","","M","","M","","M","100.86","","","","","","NA"
"-57.58","50.24","DANIELS HARBOUR","8401400","2018-04-08 16:30","2018","04","08","16:30","2.5","","-9.2","","42","","","","","M","","M","","M","100.73","","","","","","NA"
"-57.58","50.24","DANIELS HARBOUR","8401400","2018-04-08 17:30","2018","04","08","17:30","1.7","","-9.6","","43","","","","","M","","M","","M","100.68","","","","","","NA"
"-57.58","50.24","DANIELS HARBOUR","8401400","2018-04-08 18:30","2018","04","08","18:30","0.9","","-9.6","","45","","","","","M","","M","","M","100.65","","","","","","NA"
"-57.58","50.24","DANIELS HARBOUR","8401400","2018-04-08 19:30","2018","04","08","19:30","0.9","","-9.0","","48","","","","","M","","M","","M","100.57","","","","","","NA"
"-57.58","50.24","DANIELS HARBOUR","8401400","2018-04-08 20:30","2018","04","08","20:30","0.4","","-8.9","","50","","","","","M","","M","","M","100.52","","","","","","NA"
"-57.58","50.24","DANIELS HARBOUR","8401400","2018-04-08 21:30","2018","04","08","21:30","-0.2","","-8.9","","52","","","","","M","","M","","M","100.37","","","","","","NA"
"-57.58","50.24","DANIELS HARBOUR","8401400","2018-04-08 22:30","2018","04","08","22:30","-0.2","","-8.9","","52","","","","","M","","M","","M","100.22","","","","","","NA"
"-57.58","50.24","DANIELS HARBOUR","8401400","2018-04-08 23:30","2018","04","08","23:30","-0.5","","-9.4","","51","","","","","M","","M","","M","100.01","","","","","","NA"
"-57.58","50.24","DANIELS HARBOUR","8401400","2018-04-09 00:30","2018","04","09","00:30","-1.7","","-9.3","","56","","","","","M","","M","","M","99.77","","","","","","NA"
"-57.58","50.24","DANIELS HARBOUR","8401400","2018-04-09 01:30","2018","04","09","01:30","-2.4","","-9.4","","59","","","","","M","","M","","M","99.47","","","","","","NA"
"-57.58","50.24","DANIELS HARBOUR","8401400","2018-04-09 02:30","2018","04","09","02:30","-2.3","","-9.6","","57","","","","","M","","M","","M","99.08","","","","","","NA"
"-57.58","50.24","DANIELS HARBOUR","8401400","2018-04-09 03:30","2018","04","09","03:30","-2.6","","-9.6","","59","","","","","M","","M","","M","98.78","","","","","","NA"
"-57.58","50.24","DANIELS HARBOUR","8401400","2018-04-09 04:30","2018","04","09","04:30","-2.7","","-9.7","","59","","","","","M","","M","","M","98.41","","","","","","NA"
"-57.58","50.24","DANIELS HARBOUR","8401400","2018-04-09 05:30","2018","04","09","05:30","-3.0","","-10.0","","59","","","","","M","","M","","M","98.12","","","","","","NA"
"-57.58","50.24","DANIELS HARBOUR","8401400","2018-04-09 06:30","2018","04","09","06:30","-3.2","","-10.2","","58","","","","","M","","M","","M","97.72","","","","","","NA"
"-57.58","50.24","DANIELS HARBOUR","8401400","2018-04-09 07:30","2018","04","09","07:30","-3.0","","-10.0","","59","","","","","M","","M","","M","97.53","","","","","","NA"
"-57.58","50.24","DANIELS HARBOUR","8401400","2018-04-09 08:30","2018","04","09","08:30","-2.9","","-10.0","","58","","","","","M","","M","","M","97.25","","","","","","NA"
"-57.58","50.24","DANIELS HARBOUR","8401400","2018-04-09 09:30","2018","04","09","09:30","-2.2","","-9.2","","59","","","","","M","","M","","M","97.16","","","","","","NA"
"-57.58","50.24","DANIELS HARBOUR","8401400","2018-04-09 10:30","2018","04","09","10:30","-2.3","","-9.2","","59","","","","","M","","M","","M","97.20","","","","","","NA"
"-57.58","50.24","DANIELS HARBOUR","8401400","2018-04-09 11:30","2018","04","09","11:30","-2.9","","-8.4","","66","","","","","M","","M","","M","97.22","","","","","","NA"
"-57.58","50.24","DANIELS HARBOUR","8401400","2018-04-09 12:30","2018","04","09","12:30","-2.9","","-8.3","","66","","","","","M","","M","","M","97.43","","","","","","NA"
"-57.58","50.24","DANIELS HARBOUR","8401400","2018-04-09 13:30","2018","04","09","13:30","-3.0","","-7.9","","69","","","","","M","","M","","M","97.71","","","","","","NA"
"-57.58","50.24","DANIELS HARBOUR","8401400","2018-04-09 14:30","2018","04","09","14:30","-2.9","","-8.4","","66","","","","","M","","M","","M","97.95","","","","","","NA"
"-57.58","50.24","DANIELS HARBOUR","8401400","2018-04-09 15:30","2018","04","09","15:30","-3.1","","-8.5","","66","","","","","M","","M","","M","98.23","","","","","","NA"
"-57.58","50.24","DANIELS HARBOUR","8401400","2018-04-09 16:30","2018","04","09","16:30","-3.3","","-8.7","","66","","","","","M","","M","","M","98.50","","","","","","NA"
"-57.58","50.24","DANIELS HARBOUR","8401400","2018-04-09 17:30","2018","04","09","17:30","-3.4","","-9.4","","63","","","","","M","","M","","M","98.72","","","","","","NA"
"-57.58","50.24","DANIELS HARBOUR","8401400","2018-04-09 18:30","2018","04","09","18:30","-3.3","","-10.6","","57","","","","","M","","M","","M","98.99","","","","","","NA"
"-57.58","50.24","DANIELS HARBOUR","8401400","2018-04-09 19:30","2018","04","09","19:30","-3.0","","-11.5","","52","","","","","M","","M","","M","99.20","","","","","","NA"
"-57.58","50.24","DANIELS HARBOUR","8401400","2018-04-09 20:30","2018","04","09","20:30","-3.1","","-11.6","","52","","","","","M","","M","","M","99.44","","","","","","NA"
"-57.58","50.24","DANIELS HARBOUR","8401400","2018-04-09 21:30","2018","04","09","21:30","-2.8","","-11.9","","50","","","","","M","","M","","M","99.60","","","","","","NA"
"-57.58","50.24","DANIELS HARBOUR","8401400","2018-04-09 22:30","2018","04","09","22:30","-2.5","","-12.3","","47","","","","","M","","M","","M","99.70","","","","","","NA"
"-57.58","50.24","DANIELS HARBOUR","8401400","2018-04-09 23:30","2018","04","09","23:30","-2.2","","-12.4","","46","","","","","M","","M","","M","99.82","","","","","","NA"
"-57.58","50.24","DANIELS HARBOUR","8401400","2018-04-10 00:30","2018","04","10","00:30","-2.2","","-12.6","","45","","","","","M","","M","","M","99.93","","","","","","NA"
"-57.58","50.24","DANIELS HARBOUR","8401400","2018-04-10 01:30","2018","04","10","01:30","-2.6","","-13.1","","44","","","","","M","","M","","M","100.03","","","","","","NA"
"-57.58","50.24","DANIELS HARBOUR","8401400","2018-04-10 02:30","2018","04","10","02:30","-2.9","","-13.4","","44","","","","","M","","M","","M","100.10","","","","","","NA"
"-57.58","50.24","DANIELS HARBOUR","8401400","2018-04-10 03:30","2018","04","10","03:30","-3.3","","-13.4","","46","","","","","M","","M","","M","100.20","","","","","","NA"
"-57.58","50.24","DANIELS HARBOUR","8401400","2018-04-10 04:30","2018","04","10","04:30","-3.4","","-13.6","","45","","","","","M","","M","","M","100.32","","","","","","NA"
"-57.58","50.24","DANIELS HARBOUR","8401400","2018-04-10 05:30","2018","04","10","05:30","-3.5","","-13.7","","45","","","","","M","","M","","M","100.42","","","","","","NA"
"-57.58","50.24","DANIELS HARBOUR","8401400","2018-04-10 06:30","2018","04","10","06:30","-3.6","","-13.9","","45","","","","","M","","M","","M","100.54","","","","","","NA"
"-57.58","50.24","DANIELS HARBOUR","8401400","2018-04-10 07:30","2018","04","10","07:30","-3.5","","-13.7","","45","","","","","M","","M","","M","100.64","","","","","","NA"
"-57.58","50.24","DANIELS HARBOUR","8401400","2018-04-10 08:30","2018","04","10","08:30","-3.3","","-13.3","","46","","","","","M","","M","","M","100.75","","","","","","NA"
"-57.58","50.24","DANIELS HARBOUR","8401400","2018-04-10 09:30","2018","04","10","09:30","-3.2","","-13.1","","46","","","","","M","","M","","M","100.82","","","","","","NA"
"-57.58","50.24","DANIELS HARBOUR","8401400","2018-04-10 10:30","2018","04","10","10:30","-3.0","","-12.9","","46","","","","","M","","M","","M","100.92","","","","","","NA"
"-57.58","50.24","DANIELS HARBOUR","8401400","2018-04-10 11:30","2018","04","10","11:30","-2.6","","-12.5","","47","","","","","M","","M","","M","101.00","","","","","","NA"
"-57.58","50.24","DANIELS HARBOUR","8401400","2018-04-10 12:30","2018","04","10","12:30","-2.0","","-11.7","","47","","","","","M","","M","","M","101.09","","","","","","NA"
"-57.58","50.24","DANIELS HARBOUR","8401400","2018-04-10 13:30","2018","04","10","13:30","-1.5","","-12.4","","43","","","","","M","","M","","M","101.13","","","","","","NA"
"-57.58","50.24","DANIELS HARBOUR","8401400","2018-04-10 14:30","2018","04","10","14:30","-0.8","","-10.5","","48","","","","","M","","M","","M","101.19","","","","","","NA"
"-57.58","50.24","DANIELS HARBOUR","8401400","2018-04-10 15:30","2018","04","10","15:30","-0.9","","-10.6","","48","","","","","M","","M","","M","101.22","","","","","","NA"
"-57.58","50.24","DANIELS HARBOUR","8401400","2018-04-10 16:30","2018","04","10","16:30","-1.3","","-11.1","","47","","","","","M","","M","","M","101.26","","","","","","NA"
"-57.58","50.24","DANIELS HARBOUR","8401400","2018-04-10 17:30","2018","04","10","17:30","-1.3","","-11.0","","48","","","","","M","","M","","M","101.35","","","","","","NA"
"-57.58","50.24","DANIELS HARBOUR","8401400","2018-04-10 18:30","2018","04","10","18:30","-1.5","","-10.9","","49","","","","","M","","M","","M","101.39","","","","","","NA"
"-57.58","50.24","DANIELS HARBOUR","8401400","2018-04-10 19:30","2018","04","10","19:30","-2.2","","-11.1","","51","","","","","M","","M","","M","101.45","","","","","","NA"
"-57.58","50.24","DANIELS HARBOUR","8401400","2018-04-10 20:30","2018","04","10","20:30","-2.7","","-11.6","","50","","","","","M","","M","","M","101.50","","","","","","NA"
"-57.58","50.24","DANIELS HARBOUR","8401400","2018-04-10 21:30","2018","04","10","21:30","-2.9","","-11.2","","53","","","","","M","","M","","M","101.54","","","","","","NA"
"-57.58","50.24","DANIELS HARBOUR","8401400","2018-04-10 22:30","2018","04","10","22:30","-2.9","","-11.2","","53","","","","","M","","M","","M","101.55","","","","","","NA"
"-57.58","50.24","DANIELS HARBOUR","8401400","2018-04-10 23:30","2018","04","10","23:30","-2.6","","-10.6","","54","","","","","M","","M","","M","101.58","","","","","","NA"
"-57.58","50.24","DANIELS HARBOUR","8401400","2018-04-11 00:30","2018","04","11","00:30","-1.5","","-9.3","","55","","","","","M","","M","","M","101.59","","","","","","NA"
"-57.58","50.24","DANIELS HARBOUR","8401400","2018-04-11 01:30","2018","04","11","01:30"
"-57.58","50.24","DANIELS HARBOUR","8401400","2018-04-11 02:30","2018","04","11","02:30","-1.2","","-9.2","","55","","","","","M","","M","","M","101.59","","","","","","NA"
"-57.58","50.24","DANIELS HARBOUR","8401400","2018-04-11 03:30","2018","04","11","03:30","-1.5","","-9.7","","54","","","","","M","","M","","M","101.57","","","","","","NA"
"-57.58","50.24","DANIELS HARBOUR","8401400","2018-04-11 04:30","2018","04","11","04:30","-1.6","","-9.8","","54","","","","","M","","M","","M","101.56","","","","","","NA"
"-57.58","50.24","DANIELS HARBOUR","8401400","2018-04-11 05:30","2018","04","11","05:30","-1.4","","-9.9","","52","","","","","M","","M","","M","101.61","","","","","","NA"
"-57.58","50.24","DANIELS HARBOUR","8401400","2018-04-11 06:30","2018","04","11","06:30","-1.3","","-10.0","","52","","","","","M","","M","","M","101.65","","","","","","NA"
"-57.58","50.24","DANIELS HARBOUR","8401400","2018-04-11 07:30","2018","04","11","07:30","-1.2","","-9.9","","52","","","","","M","","M","","M","101.67","","","","","","NA"
"-57.58","50.24","DANIELS HARBOUR","8401400","2018-04-11 08:30","2018","04","11","08:30","-0.5","","-9.7","","50","","","","","M","","M","","M","101.67","","","","","","NA"
"-57.58","50.24","DANIELS HARBOUR","8401400","2018-04-11 09:30","2018","04","11","09:30","-0.5","","-9.2","","52","","","","","M","","M","","M","101.67","","","","","","NA"
"-57.58","50.24","DANIELS HARBOUR","8401400","2018-04-11 10:30","2018","04","11","10:30","0.2","","-8.9","","50","","","","","M","","M","","M","101.68","","","","","","NA"
"-57.58","50.24","DANIELS HARBOUR","8401400","2018-04-11 11:30","2018","04","11","11:30","0.5","","-8.0","","53","","","","","M","","M","","M","101.65","","","","","","NA"
"-57.58","50.24","DANIELS HARBOUR","8401400","2018-04-11 12:30","2018","04","11","12:30","0.9","","-8.3","","50","","","","","M","","M","","M","101.62","","","","","","NA"
"-57.58","50.24","DANIELS HARBOUR","8401400","2018-04-11 13:30","2018","04","11","13:30","1.3","","-8.1","","50","","","","","M","","M","","M","101.60","","","","","","NA"
"-57.58","50.24","DANIELS HARBOUR","8401400","2018-04-11 14:30","2018","04","11","14:30","1.2","","-8.1","","50","","","","","M","","M","","M","101.57","","","","","","NA"
"-57.58","50.24","DANIELS HARBOUR","8401400","2018-04-11 15:30","2018","04","11","15:30","0.9","","-8.4","","50","","","","","M","","M","","M","101.59","","","","","","NA"
"-57.58","50.24","DANIELS HARBOUR","8401400","2018-04-11 16:30","2018","04","11","16:30","0.3","","-8.7","","51","","","","","M","","M","","M","101.58","","","","","","NA"
"-57.58","50.24","DANIELS HARBOUR","8401400","2018-04-11 17:30","2018","04","11","17:30","-0.1","","-9.0","","51","","","","","M","","M","","M","101.60","","","","","","NA"
"-57.58","50.24","DANIELS HARBOUR","8401400","2018-04-11 18:30","2018","04","11","18:30","-0.7","","-9.1","","53","","","","","M","","M","","M","101.60","","","","","","NA"
"-57.58","50.24","DANIELS HARBOUR","8401400","2018-04-11 19:30","2018","04","11","19:30","-1.4","","-9.7","","53","","","","","M","","M","","M","101.63","","","","","","NA"
"-57.58","50.24","DANIELS HARBOUR","8401400","2018-04-11 20:30","2018","04","11","20:30","-1.7","","-9.9","","54","","","","","M","","M","","M","101.73","","","","","","NA"
"-57.58","50.24","DANIELS HARBOUR","8401400","2018-04-11 21:30","2018","04","11","21:30","-2.5","","-10.4","","55","","","","","M","","M","","M","101.75","","","","","","NA"
"-57.58","50.24","DANIELS HARBOUR","8401400","2018-04-11 22:30","2018","04","11","22:30","-3.4","","-11.2","","55","","","","","M","","M","","M","101.73","","","","","","NA"
"-57.58","50.24","DANIELS HARBOUR","8401400","2018-04-11 23:30","2018","04","11","23:30","-2.9","","-10.9","","54","","","","","M","","M","","M","101.68","","","","","","NA"
"-57.58","50.24","DANIELS HARBOUR","8401400","2018-04-12 00:30","2018","04","12","00:30","-4.0","","-11.9","","54","","","","","M","","M","","M","101.70","","","","","","NA"
"-57.58","50.24","DANIELS HARBOUR","8401400","2018-04-12 01:30","2018","04","12","01:30","-4.4","","-12.2","","55","","","","","M","","M","","M","101.68","","","","","","NA"
"-57.58","50.24","DANIELS HARBOUR","8401400","2018-04-12 02:30","2018","04","12","02:30","-4.7","","-12.8","","53","","","","","M","","M","","M","101.70","","","","","","NA"
"-57.58","50.24","DANIELS HARBOUR","8401400","2018-04-12 03:30","2018","04","12","03:30","-7.0","","-16.7","","46","","","","","M","","M","","M","101.68","","","","","","NA"
"-57.58","50.24","DANIELS HARBOUR","8401400","2018-04-12 04:30","2018","04","12","04:30","-6.9","","-17.4","","43","","","","","M","","M","","M","101.69","","","","","","NA"
"-57.58","50.24","DANIELS HARBOUR","8401400","2018-04-12 05:30","2018","04","12","05:30","-7.4","","-17.9","","43","","","","","M","","M","","M","101.71","","","","","","NA"
"-57.58","50.24","DANIELS HARBOUR","8401400","2018-04-12 06:30","2018","04","12","06:30","-6.1","","-17.2","","41","","","","","M","","M","","M","101.75","","","","","","NA"
"-57.58","50.24","DANIELS HARBOUR","8401400","2018-04-12 07:30","2018","04","12","07:30","-3.3","","-14.7","","41","","","","","M","","M","","M","101.75","","","","","","NA"
"-57.58","50.24","DANIELS HARBOUR","8401400","2018-04-12 08:30","2018","04","12","08:30","-0.6","","-11.6","","43","","","","","M","","M","","M","101.71","","","","","","NA"
"-57.58","50.24","DANIELS HARBOUR","8401400","2018-04-12 09:30","2018","04","12","09:30","0.3","","-9.1","","49","","","","","M","","M","","M","101.73","","","","","","NA"
"-57.58","50.24","DANIELS HARBOUR","8401400","2018-04-12 10:30","2018","04","12","10:30","0.1","","-9.0","","50","","","","","M","","M","","M","101.72","","","","","","NA"
"-57.58","50.24","DANIELS HARBOUR","8401400","2018-04-12 11:30","2018","04","12","11:30","0.5","","-8.2","","52","","","","","M","","M","","M","101.69","","","","","","NA"
"-57.58","50.24","DANIELS HARBOUR","8401400","2018-04-12 12:30","2018","04","12","12:30","0.3","","-7.9","","54","","","","","M","","M","","M","101.67","","","","","","NA"
"-57.58","50.24","DANIELS HARBOUR","8401400","2018-04-12 13:30","2018","04","12","13:30","0.3","","-7.9","","54","","","","","M","","M","","M","101.62","","","","","","NA"
"-57.58","50.24","DANIELS HARBOUR","8401400","2018-04-12 14:30","2018","04","12","14:30","0.5","","-7.9","","53","","","","","M","","M","","M","101.56","","","","","","NA"
"-57.58","50.24","DANIELS HARBOUR","8401400","2018-04-12 15:30","2018","04","12","15:30","0.6","","-8.7","","50","","","","","M","","M","","M","101.54","","","","","","NA"
"-57.58","50.24","DANIELS HARBOUR","8401400","2018-04-12 16:30","2018","04","12","16:30","0.9","","-8.7","","49","","","","","M","","M","","M","101.54","","","","","","NA"
"-57.58","50.24","DANIELS HARBOUR","8401400","2018-04-12 17:30","2018","04","12","17:30","0.7","","-9.7","","46","","","","","M","","M","","M","101.57","","","","","","NA"
"-57.58","50.24","DANIELS HARBOUR","8401400","2018-04-12 18:30","2018","04","12","18:30","-0.2","","-9.3","","50","","","","","M","","M","","M","101.59","","","","","","NA"
"-57.58","50.24","DANIELS HARBOUR","8401400","2018-04-12 19:30","2018","04","12","19:30","-2.1","","-11.2","","50","","","","","M","","M","","M","101.60","","","","","","NA"
"-57.58","50.24","DANIELS HARBOUR","8401400","2018-04-12 20:30","2018","04","12","20:30","-2.5","","-11.7","","49","","","","","M","","M","","M","101.61","","","","","","NA"
"-57.58","50.24","DANIELS HARBOUR","8401400","2018-04-12 21:30","2018","04","12","21:30","-3.0","","-13.1","","46","","","","","M","","M","","M","101.63","","","","","","NA"
"-57.58","50.24","DANIELS HARBOUR","8401400","2018-04-12 22:30","2018","04","12","22:30","-3.5","","-14.1","","44","","","","","M","","M","","M","101.62","","","","","","NA"
"-57.58","50.24","DANIELS HARBOUR","8401400","2018-04-12 23:30","2018","04","12","23:30","-4.9","","-15.0","","45","","","","","M","","M","","M","101.65","","","","","","NA"
"-57.58","50.24","DANIELS HARBOUR","8401400","2018-04-13 00:30","2018","04","13","00:30","-5.1","","-15.6","","44","","","","","M","","M","","M","101.64","","","","","","NA"
"-57.58","50.24","DANIELS HARBOUR","8401400","2018-04-13 01:30","2018","04","13","01:30","-5.7","","-16.2","","43","","","","","M","","M","","M","101.64","","","","","","NA"
"-57.58","50.24","DANIELS HARBOUR","8401400","2018-04-13 02:30","2018","04","13","02:30","-5.6","","-16.5","","42","","","","","M","","M","","M","101.61","","","","","","NA"
"-57.58","50.24","DANIELS HARBOUR","8401400","2018-04-13 03:30","2018","04","13","03:30","-5.7","","-16.8","","41","","","","","M","","M","","M","101.61","","","","","","NA"
"-57.58","50.24","DANIELS HARBOUR","8401400","2018-04-13 04:30","2018","04","13","04:30","-5.9","","-16.8","","42","","","","","M","","M","","M","101.58","","","","","","NA"
"-57.58","50.24","DANIELS HARBOUR","8401400","2018-04-13 05:30","2018","04","13","05:30","-5.1","","-16.8","","39","","","","","M","","M","","M","101.56","","","","","","NA"
"-57.58","50.24","DANIELS HARBOUR","8401400","2018-04-13 06:30","2018","04","13","06:30","-3.8","","-15.7","","39","","","","","M","","M","","M","101.55","","","","","","NA"
"-57.58","50.24","DANIELS HARBOUR","8401400","2018-04-13 07:30","2018","04","13","07:30","-1.1","","-14.3","","36","","","","","M","","M","","M","101.51","","","","","","NA"
"-57.58","50.24","DANIELS HARBOUR","8401400","2018-04-13 08:30","2018","04","13","08:30","1.5","","-13.8","","31","","","","","M","","M","","M","101.48","","","","","","NA"
"-57.58","50.24","DANIELS HARBOUR","8401400","2018-04-13 09:30","2018","04","13","09:30","3.2","","-13.9","","27","","","","","M","","M","","M","101.41","","","","","","NA"
"-57.58","50.24","DANIELS HARBOUR","8401400","2018-04-13 10:30","2018","04","13","10:30","4.1","","-12.9","","28","","","","","M","","M","","M","101.34","","","","","","NA"
"-57.58","50.24","DANIELS HARBOUR","8401400","2018-04-13 11:30","2018","04","13","11:30","4.5","","-13.0","","27","","","","","M","","M","","M","101.28","","","","","","NA"
"-57.58","50.24","DANIELS HARBOUR","8401400","2018-04-13 12:30","2018","04","13","12:30","5.7","","-10.2","","31","","","","","M","","M","","M","101.20","","","","","","NA"
"-57.58","50.24","DANIELS HARBOUR","8401400","2018-04-13 13:30","2018","04","13","13:30","5.8","","-10.4","","30","","","","","M","","M","","M","101.09","","","","","","NA"
"-57.58","50.24","DANIELS HARBOUR","8401400","2018-04-13 14:30","2018","04","13","14:30","5.0","","-9.4","","34","","","","","M","","M","","M","101.00","","","","","","NA"
"-57.58","50.24","DANIELS HARBOUR","8401400","2018-04-13 15:30","2018","04","13","15:30","4.8","","-8.8","","37","","","","","M","","M","","M","100.99","","","","","","NA"
"-57.58","50.24","DANIELS HARBOUR","8401400","2018-04-13 16:30","2018","04","13","16:30","3.0","","-7.5","","46","","","","","M","","M","","M","100.93","","","","","","NA"
"-57.58","50.24","DANIELS HARBOUR","8401400","2018-04-13 17:30","2018","04","13","17:30","0.9","","-7.5","","53","","","","","M","","M","","M","100.89","","","","","","NA"
"-57.58","50.24","DANIELS HARBOUR","8401400","2018-04-13 18:30","2018","04","13","18:30","0.3","","-7.5","","56","","","","","M","","M","","M","100.80","","","","","","NA"
"-57.58","50.24","DANIELS HARBOUR","8401400","2018-04-13 19:30","2018","04","13","19:30","-0.1","","-8.8","","52","","","","","M","","M","","M","100.70","","","","","","NA"
"-57.58","50.24","DANIELS HARBOUR","8401400","2018-04-13 20:30","2018","04","13","20:30","0.2","","-9.5","","48","","","","","M","","M","","M","100.59","","","","","","NA"
"-57.58","50.24","DANIELS HARBOUR","8401400","2018-04-13 21:30","2018","04","13","21:30","0.5","","-9.7","","46","","","","","M","","M","","M","100.47","","","","","","NA"
"-57.58","50.24","DANIELS HARBOUR","8401400","2018-04-13 22:30","2018","04","13","22:30","0.5","","-9.4","","47","","","","","M","","M","","M","100.37","","","","","","NA"
"-57.58","50.24","DANIELS HARBOUR","8401400","2018-04-13 23:30","2018","04","13","23:30","0.6","","-9.1","","48","","","","","M","","M","","M","100.31","","","","","","NA"
"-57.58","50.24","DANIELS HARBOUR","8401400","2018-04-14 00:30","2018","04","14","00:30","0.6","","-9.0","","49","","","","","","","","","M","100.22","","","","","","NA"
"-57.58","50.24","DANIELS HARBOUR","8401400","2018-04-14 01:30","2018","04","14","01:30","0.6","","-7.8","","53","","","","","M","","M","","M","100.11","","","","","","NA"
"-57.58","50.24","DANIELS HARBOUR","8401400","2018-04-14 02:30","2018","04","14","02:30","0.1","","-7.6","","56","","","","","M","","M","","M","100.00","","","","","","NA"
"-57.58","50.24","DANIELS HARBOUR","8401400","2018-04-14 03:30","2018","04","14","03:30","-0.1","","-7.2","","59","","","","","M","","M","","M","99.94","","","","","","NA"
"-57.58","50.24","DANIELS HARBOUR","8401400","2018-04-14 04:30","2018","04","14","04:30","-0.9","","-8.1","","58","","","","","M","","M","","M","99.96","","","","","","NA"
"-57.58","50.24","DANIELS HARBOUR","8401400","2018-04-14 05:30","2018","04","14","05:30","-1.2","","-8.5","","58","","","","","M","","M","","M","99.97","","","","","","NA"
"-57.58","50.24","DANIELS HARBOUR","8401400","2018-04-14 06:30","2018","04","14","06:30","-0.8","","-8.0","","58","","","","","M","","M","","M","99.90","","","","","","NA"
"-57.58","50.24","DANIELS HARBOUR","8401400","2018-04-14 07:30","2018","04","14","07:30","-0.5","","-7.5","","59","","","","","M","","M","","M","99.80","","","","","","NA"
"-57.58","50.24","DANIELS HARBOUR","8401400","2018-04-14 08:30","2018","04","14","08:30","-0.7","","-7.8","","59","","","","","M","","M","","M","99.73","","","","","","NA"
"-57.58","50.24","DANIELS HARBOUR","8401400","2018-04-14 09:30","2018","04","14","09:30","0.2","","-7.6","","56","","","","","M","","M","","M","99.66","","","","","","NA"
"-57.58","50.24","DANIELS HARBOUR","8401400","2018-04-14 10:30","2018","04","14","10:30","0.4","","-9.0","","49","","","","","M","","M","","M","99.61","","","","","","NA"
"-57.58","50.24","DANIELS HARBOUR","8401400","2018-04-14 11:30","2018","04","14","11:30","-0.4","","-10.6","","46","","","","","M","","M","","M","99.54","","","","","","NA"
"-57.58","50.24","DANIELS HARBOUR","8401400","2018-04-14 12:30","2018","04","14","12:30","-1.3","","-12.3","","43","","","","","M","","M","","M","99.50","","","","","","NA"
"-57.58","50.24","DANIELS HARBOUR","8401400","2018-04-14 13:30","2018","04","14","13:30","-2.5","","-12.2","","47","","","","","M","","M","","M","99.41","","","","","","NA"
"-57.58","50.24","DANIELS HARBOUR","8401400","2018-04-14 14:30","2018","04","14","14:30","-2.6","","-11.1","","52","","","","","M","","M","","M","99.30","","","","","","NA"
"-57.58","50.24","DANIELS HARBOUR","8401400","2018-04-14 15:30","2018","04","14","15:30","-2.9","","-11.0","","54","","","","","M","","M","","M","99.36","","","","","","NA"
"-57.58","50.24","DANIELS HARBOUR","8401400","2018-04-14 16:30","2018","04","14","16:30","-4.4","","-12.0","","55","","","","","M","","M","","M","99.51","","","","","","NA"
"-57.58","50.24","DANIELS HARBOUR","8401400","2018-04-14 17:30","2018","04","14","17:30","-4.1","","-12.0","","54","","","","","M","","M","","M","99.64","","","","","","NA"
"-57.58","50.24","DANIELS HARBOUR","8401400","2018-04-14 18:30","2018","04","14","18:30","-4.5","","-12.8","","52","","","","","M","","M","","M","99.88","","","","","","NA"
"-57.58","50.24","DANIELS HARBOUR","8401400","2018-04-14 19:30","2018","04","14","19:30","-4.0","","-14.8","","43","","","","","M","","M","","M","100.12","","","","","","NA"
"-57.58","50.24","DANIELS HARBOUR","8401400","2018-04-14 20:30","2018","04","14","20:30","-4.5","","-15.9","","41","","","","","M","","M","","M","100.37","","","","","","NA"
"-57.58","50.24","DANIELS HARBOUR","8401400","2018-04-14 21:30","2018","04","14","21:30","-5.0","","-16.0","","42","","","","","M","","M","","M","100.53","","","","","","NA"
"-57.58","50.24","DANIELS HARBOUR","8401400","2018-04-14 22:30","2018","04","14","22:30","-5.7","","-16.6","","42","","","","","M","","M","","M","100.63","","","","","","NA"
"-57.58","50.24","DANIELS HARBOUR","8401400","2018-04-14 23:30","2018","04","14","23:30","-6.0","","-17.0","","42","","","","","M","","M","","M","100.74","","","","","","NA"
"-57.58","50.24","DANIELS HARBOUR","8401400","2018-04-15 00:30","2018","04","15","00:30","-6.4","","-17.5","","41","","","","","M","","M","","M","100.88","","","","","","NA"
"-57.58","50.24","DANIELS HARBOUR","8401400","2018-04-15 01:30","2018","04","15","01:30","-6.7","","-17.7","","41","","","","","M","","M","","M","101.02","","","","","","NA"
"-57.58","50.24","DANIELS HARBOUR","8401400","2018-04-15 02:30","2018","04","15","02:30","-6.7","","-17.2","","43","","","","","M","","M","","M","101.12","","","","","","NA"
"-57.58","50.24","DANIELS HARBOUR","8401400","2018-04-15 03:30","2018","04","15","03:30","-7.3","","-17.2","","45","","","","","M","","M","","M","101.25","","","","","","NA"
"-57.58","50.24","DANIELS HARBOUR","8401400","2018-04-15 04:30","2018","04","15","04:30","-7.5","","-17.3","","45","","","","","M","","M","","M","101.38","","","","","","NA"
"-57.58","50.24","DANIELS HARBOUR","8401400","2018-04-15 05:30","2018","04","15","05:30","-7.9","","-17.1","","48","","","","","M","","M","","M","101.52","","","","","","NA"
"-57.58","50.24","DANIELS HARBOUR","8401400","2018-04-15 06:30","2018","04","15","06:30","-8.0","","-16.6","","50","","","","","M","","M","","M","101.66","","","","","","NA"
"-57.58","50.24","DANIELS HARBOUR","8401400","2018-04-15 07:30","2018","04","15","07:30","-7.6","","-16.9","","47","","","","","M","","M","","M","101.80","","","","","","NA"
"-57.58","50.24","DANIELS HARBOUR","8401400","2018-04-15 08:30","2018","04","15","08:30","-7.5","","-16.5","","49","","","","","M","","M","","M","101.91","","","","","","NA"
"-57.58","50.24","DANIELS HARBOUR","8401400","2018-04-15 09:30","2018","04","15","09:30","-7.2","","-16.2","","49","","","","","M","","M","","M","102.02","","","","","","NA"
"-57.58","50.24","DANIELS HARBOUR","8401400","2018-04-15 10:30","2018","04","15","10:30","-6.9","","-16.2","","48","","","","","M","","M","","M","102.13","","","","","","NA"
"-57.58","50.24","DANIELS HARBOUR","8401400","2018-04-15 11:30","2018","04","15","11:30","-6.1","","-15.2","","49","","","","","M","","M","","M","102.20","","","","","","NA"
"-57.58","50.24","DANIELS HARBOUR","8401400","2018-04-15 12:30","2018","04","15","12:30","-5.5","","-14.9","","48","","","","","M","","M","","M","102.29","","","","","","NA"
"-57.58","50.24","DANIELS HARBOUR","8401400","2018-04-15 13:30","2018","04","15","13:30","-4.1","","-14.2","","45","","","","","M","","M","","M","102.37","","","","","","NA"
"-57.58","50.24","DANIELS HARBOUR","8401400","2018-04-15 14:30","2018","04","15","14:30","-3.6","","-14.0","","44","","","","","M","","M","","M","102.45","","","","","","NA"
"-57.58","50.24","DANIELS HARBOUR","8401400","2018-04-15 15:30","2018","04","15","15:30","-2.4","","-12.8","","45","","","","","M","","M","","M","102.51","","","","","","NA"
"-57.58","50.24","DANIELS HARBOUR","8401400","2018-04-15 16:30","2018","04","15","16:30","-2.5","","-12.7","","45","","","","","M","","M","","M","102.57","","","","","","NA"
"-57.58","50.24","DANIELS HARBOUR","8401400","2018-04-15 17:30","2018","04","15","17:30","-2.4","","-12.4","","46","","","","","M","","M","","M","102.64","","","","","","NA"
"-57.58","50.24","DANIELS HARBOUR","8401400","2018-04-15 18:30","2018","04","15","18:30","-2.9","","-12.9","","46","","","","","M","","M","","M","102.68","","","","","","NA"
"-57.58","50.24","DANIELS HARBOUR","8401400","2018-04-15 19:30","2018","04","15","19:30","-3.8","","-13.6","","47","","","","","M","","M","","M","102.74","","","","","","NA"
"-57.58","50.24","DANIELS HARBOUR","8401400","2018-04-15 20:30","2018","04","15","20:30","-3.5","","-13.0","","48","","","","","M","","M","","M","102.82","","","","","","NA"
"-57.58","50.24","DANIELS HARBOUR","8401400","2018-04-15 21:30","2018","04","15","21:30","-3.7","","-12.7","","50","","","","","M","","M","","M","102.87","","","","","","NA"
"-57.58","50.24","DANIELS HARBOUR","8401400","2018-04-15 22:30","2018","04","15","22:30","-4.2","","-13.1","","50","","","","","M","","M","","M","102.89","","","","","","NA"
"-57.58","50.24","DANIELS HARBOUR","8401400","2018-04-15 23:30","2018","04","15","23:30","-3.8","","-12.7","","50","","","","","M","","M","","M","102.83","","","","","","NA"
"-57.58","50.24","DANIELS HARBOUR","8401400","2018-04-16 00:30","2018","04","16","00:30","-2.2","","-11.2","","50","","","","","M","","M","","M","102.82","","","","","","NA"
"-57.58","50.24","DANIELS HARBOUR","8401400","2018-04-16 01:30","2018","04","16","01:30","-0.5","","-10.7","","46","","","","","M","","M","","M","102.82","","","","","","NA"
"-57.58","50.24","DANIELS HARBOUR","8401400","2018-04-16 02:30","2018","04","16","02:30","-0.7","","-12.6","","40","","","","","M","","M","","M","102.82","","","","","","NA"
"-57.58","50.24","DANIELS HARBOUR","8401400","2018-04-16 03:30","2018","04","16","03:30","-1.4","","-13.5","","39","","","","","M","","M","","M","102.84","","","","","","NA"
"-57.58","50.24","DANIELS HARBOUR","8401400","2018-04-16 04:30","2018","04","16","04:30","-1.9","","-14.6","","37","","","","","M","","M","","M","102.86","","","","","","NA"
"-57.58","50.24","DANIELS HARBOUR","8401400","2018-04-16 05:30","2018","04","16","05:30","-2.3","","-15.0","","37","","","","","M","","M","","M","102.87","","","","","","NA"
"-57.58","50.24","DANIELS HARBOUR","8401400","2018-04-16 06:30","2018","04","16","06:30","-3.2","","-15.7","","37","","","","","M","","M","","M","102.89","","","","","","NA"
"-57.58","50.24","DANIELS HARBOUR","8401400","2018-04-16 07:30","2018","04","16","07:30","-2.9","","-15.0","","39","","","","","M","","M","","M","102.86","","","","","","NA"
"-57.58","50.24","DANIELS HARBOUR","8401400","2018-04-16 08:30","2018","04","16","08:30","-3.1","","-15.6","","37","","","","","M","","M","","M","102.87","","","","","","NA"
"-57.58","50.24","DANIELS HARBOUR","8401400","2018-04-16 09:30","2018","04","16","09:30","-3.5","","-16.1","","37","","","","","M","","M","","M","102.83","","","","","","NA"
"-57.58","50.24","DANIELS HARBOUR","8401400","2018-04-16 10:30","2018","04","16","10:30","-3.3","","-15.8","","37","","","","","M","","M","","M","102.85","","","","","","NA"
"-57.58","50.24","DANIELS HARBOUR","8401400","2018-04-16 11:30","2018","04","16","11:30","-3.0","","-15.3","","38","","","","","M","","M","","M","102.82","","","","","","NA"
"-57.58","50.24","DANIELS HARBOUR","8401400","2018-04-16 12:30","2018","04","16","12:30","-2.9","","-15.3","","38","","","","","M","","M","","M","102.74","","","","","","NA"
"-57.58","50.24","DANIELS HARBOUR","8401400","2018-04-16 13:30","2018","04","16","13:30","-2.7","","-15.0","","38","","","","","M","","M","","M","102.72","","","","","","NA"
"-57.58","50.24","DANIELS HARBOUR","8401400","2018-04-16 14:30","2018","04","16","14:30","-1.2","","-14.1","","37","","","","","M","","M","","M","102.68","","","","","","NA"
"-57.58","50.24","DANIELS HARBOUR","8401400","2018-04-16 15:30","2018","04","16","15:30","-1.0","","-14.2","","36","","","","","M","","M","","M","102.59","","","","","","NA"
"-57.58","50.24","DANIELS HARBOUR","8401400","2018-04-16 16:30","2018","04","16","16:30","-1.4","","-13.7","","39","","","","","M","","M","","M","102.56","","","","","","NA"
"-57.58","50.24","DANIELS HARBOUR","8401400","2018-04-16 17:30","2018","04","16","17:30","-1.5","","-13.5","","40","","","","","M","","M","","M","102.49","","","","","","NA"
"-57.58","50.24","DANIELS HARBOUR","8401400","2018-04-16 18:30","2018","04","16","18:30","-1.7","","-12.6","","43","","","","","M","","M","","M","102.48","","","","","","NA"
"-57.58","50.24","DANIELS HARBOUR","8401400","2018-04-16 19:30","2018","04","16","19:30","-2.2","","-12.8","","44","","","","","M","","M","","M","102.45","","","","","","NA"
"-57.58","50.24","DANIELS HARBOUR","8401400","2018-04-16 20:30","2018","04","16","20:30","-2.7","","-13.7","","43","","","","","M","","M","","M","102.39","","","","","","NA"
"-57.58","50.24","DANIELS HARBOUR","8401400","2018-04-16 21:30","2018","04","16","21:30","-2.9","","-13.4","","44","","","","","M","","M","","M","102.37","","","","","","NA"
"-57.58","50.24","DANIELS HARBOUR","8401400","2018-04-16 22:30","2018","04","16","22:30","-3.0","","-13.2","","45","","","","","M","","M","","M","102.33","","","","","","NA"
"-57.58","50.24","DANIELS HARBOUR","8401400","2018-04-16 23:30","2018","04","16","23:30","-3.1","","-13.2","","46","","","","","M","","M","","M","102.23","","","","","","NA"
"-57.58","50.24","DANIELS HARBOUR","8401400","2018-04-17 00:30","2018","04","17","00:30","-2.9","","-12.9","","46","","","","","M","","M","","M","102.24","","","","","","NA"
"-57.58","50.24","DANIELS HARBOUR","8401400","2018-04-17 01:30","2018","04","17","01:30","-3.3","","-13.1","","47","","","","","M","","M","","M","102.23","","","","","","NA"
"-57.58","50.24","DANIELS HARBOUR","8401400","2018-04-17 02:30","2018","04","17","02:30","-3.3","","-12.6","","49","","","","","M","","M","","M","102.20","","","","","","NA"
"-57.58","50.24","DANIELS HARBOUR","8401400","2018-04-17 03:30","2018","04","17","03:30","-2.9","","-12.4","","48","","","","","M","","M","","M","102.18","","","","","","NA"
"-57.58","50.24","DANIELS HARBOUR","8401400","2018-04-17 04:30","2018","04","17","04:30","-2.8","","-11.9","","50","","","","","M","","M","","M","102.17","","","","","","NA"
"-57.58","50.24","DANIELS HARBOUR","8401400","2018-04-17 05:30","2018","04","17","05:30","-3.4","","-12.2","","51","","","","","M","","M","","M","102.13","","","","","","NA"
"-57.58","50.24","DANIELS HARBOUR","8401400","2018-04-17 06:30","2018","04","17","06:30","-2.0","","-11.1","","50","","","","","M","","M","","M","102.12","","","","","","NA"
"-57.58","50.24","DANIELS HARBOUR","8401400","2018-04-17 07:30","2018","04","17","07:30","-0.7","","-10.3","","48","","","","","M","","M","","M","102.18","","","","","","NA"
"-57.58","50.24","DANIELS HARBOUR","8401400","2018-04-17 08:30","2018","04","17","08:30","-0.1","","-10.0","","47","","","","","M","","M","","M","102.15","","","","","","NA"
"-57.58","50.24","DANIELS HARBOUR","8401400","2018-04-17 09:30","2018","04","17","09:30","0.4","","-9.4","","48","","","","","M","","M","","M","102.08","","","","","","NA"
"-57.58","50.24","DANIELS HARBOUR","8401400","2018-04-17 10:30","2018","04","17","10:30","0.4","","-9.3","","48","","","","","M","","M","","M","102.06","","","","","","NA"
"-57.58","50.24","DANIELS HARBOUR","8401400","2018-04-17 11:30","2018","04","17","11:30","0.3","","-8.7","","51","","","","","M","","M","","M","101.99","","","","","","NA"
"-57.58","50.24","DANIELS HARBOUR","8401400","2018-04-17 12:30","2018","04","17","12:30","0.7","","-8.3","","51","","","","","M","","M","","M","101.93","","","","","","NA"
"-57.58","50.24","DANIELS HARBOUR","8401400","2018-04-17 13:30","2018","04","17","13:30","1.0","","-7.9","","51","","","","","M","","M","","M","101.85","","","","","","NA"
"-57.58","50.24","DANIELS HARBOUR","8401400","2018-04-17 14:30","2018","04","17","14:30","0.9","","-8.5","","49","","","","","M","","M","","M","101.77","","","","","","NA"
"-57.58","50.24","DANIELS HARBOUR","8401400","2018-04-17 15:30","2018","04","17","15:30","1.4","","-9.6","","44","","","","","M","","M","","M","101.68","","","","","","NA"
"-57.58","50.24","DANIELS HARBOUR","8401400","2018-04-17 16:30","2018","04","17","16:30","2.7","","-7.9","","46","","","","","M","","M","","M","101.55","","","","","","NA"
"-57.58","50.24","DANIELS HARBOUR","8401400","2018-04-17 17:30","2018","04","17","17:30","6.0","","-9.7","","31","","","","","M","","M","","M","101.48","","","","","","NA"
"-57.58","50.24","DANIELS HARBOUR","8401400","2018-04-17 18:30","2018","04","17","18:30","4.7","","-9.7","","34","","","","","M","","M","","M","101.45","","","","","","NA"
"-57.58","50.24","DANIELS HARBOUR","8401400","2018-04-17 19:30","2018","04","17","19:30","4.4","","-10.2","","34","","","","","M","","M","","M","101.38","","","","","","NA"
"-57.58","50.24","DANIELS HARBOUR","8401400","2018-04-17 20:30","2018","04","17","20:30","4.1","","-10.6","","33","","","","","M","","M","","M","101.29","","","","","","NA"
"-57.58","50.24","DANIELS HARBOUR","8401400","2018-04-17 21:30","2018","04","17","21:30","3.7","","-11.1","","33","","","","","M","","M","","M","101.17","","","","","","NA"
"-57.58","50.24","DANIELS HARBOUR","8401400","2018-04-17 22:30","2018","04","17","22:30","2.7","","-11.6","","34","","","","","M","","M","","M","101.12","","","","","","NA"
"-57.58","50.24","DANIELS HARBOUR","8401400","2018-04-17 23:30","2018","04","17","23:30","2.5","","-11.6","","35","","","","","M","","M","","M","100.92","","","","","","NA"
"-57.58","50.24","DANIELS HARBOUR","8401400","2018-04-18 00:30","2018","04","18","00:30","0.6","","-9.8","","46","","","","","M","","M","","M","100.76","","","","","","NA"
"-57.58","50.24","DANIELS HARBOUR","8401400","2018-04-18 01:30","2018","04","18","01:30","0.9","","-9.0","","48","","","","","M","","M","","M","100.54","","","","","","NA"
"-57.58","50.24","DANIELS HARBOUR","8401400","2018-04-18 02:30","2018","04","18","02:30","1.3","","-8.7","","47","","","","","M","","M","","M","100.50","","","","","","NA"
"-57.58","50.24","DANIELS HARBOUR","8401400","2018-04-18 03:30","2018","04","18","03:30","2.1","","-8.2","","46","","","","","M","","M","","M","100.41","","","","","","NA"
"-57.58","50.24","DANIELS HARBOUR","8401400","2018-04-18 04:30","2018","04","18","04:30","1.6","","-8.3","","48","","","","","M","","M","","M","100.00","","","","","","NA"
"-57.58","50.24","DANIELS HARBOUR","8401400","2018-04-18 05:30","2018","04","18","05:30","2.4","","-7.4","","48","","","","","M","","M","","M","100.19","","","","","","NA"
"-57.58","50.24","DANIELS HARBOUR","8401400","2018-04-18 06:30","2018","04","18","06:30","3.7","","-6.2","","48","","","","","M","","M","","M","100.00","","","","","","NA"
"-57.58","50.24","DANIELS HARBOUR","8401400","2018-04-18 07:30","2018","04","18","07:30","3.4","","-6.5","","48","","","","","M","","M","","M","99.97","","","","","","NA"
"-57.58","50.24","DANIELS HARBOUR","8401400","2018-04-18 08:30","2018","04","18","08:30","3.4","","-6.9","","47","","","","","M","","M","","M","99.91","","","","","","NA"
"-57.58","50.24","DANIELS HARBOUR","8401400","2018-04-18 09:30","2018","04","18","09:30","1.7","","-6.8","","53","","","","","M","","M","","M","99.84","","","","","","NA"
"-57.58","50.24","DANIELS HARBOUR","8401400","2018-04-18 10:30","2018","04","18","10:30","2.4","","-6.7","","51","","","","","M","","M","","M","99.81","","","","","","NA"
"-57.58","50.24","DANIELS HARBOUR","8401400","2018-04-18 11:30","2018","04","18","11:30","2.6","","-7.0","","49","","","","","M","","M","","M","99.72","","","","","","NA"
"-57.58","50.24","DANIELS HARBOUR","8401400","2018-04-18 12:30","2018","04","18","12:30","2.5","","-7.2","","49","","","","","M","","M","","M","99.62","","","","","","NA"
"-57.58","50.24","DANIELS HARBOUR","8401400","2018-04-18 13:30","2018","04","18","13:30","3.1","","-6.8","","48","","","","","M","","M","","M","99.57","","","","","","NA"
"-57.58","50.24","DANIELS HARBOUR","8401400","2018-04-18 14:30","2018","04","18","14:30","3.1","","-5.5","","53","","","","","M","","M","","M","99.54","","","","","","NA"
"-57.58","50.24","DANIELS HARBOUR","8401400","2018-04-18 15:30","2018","04","18","15:30","3.4","","-5.7","","51","","","","","M","","M","","M","99.44","","","","","","NA"
"-57.58","50.24","DANIELS HARBOUR","8401400","2018-04-18 16:30","2018","04","18","16:30","3.7","","-5.8","","50","","","","","M","","M","","M","99.45","","","","","","NA"
"-57.58","50.24","DANIELS HARBOUR","8401400","2018-04-18 17:30","2018","04","18","17:30","3.1","","-6.3","","50","","","","","M","","M","","M","99.41","","","","","","NA"
"-57.58","50.24","DANIELS HARBOUR","8401400","2018-04-18 18:30","2018","04","18","18:30","2.9","","-6.2","","51","","","","","M","","M","","M","99.40","","","","","","NA"
"-57.58","50.24","DANIELS HARBOUR","8401400","2018-04-18 19:30","2018","04","18","19:30","2.5","","-6.2","","53","","","","","M","","M","","M","99.37","","","","","","NA"
"-57.58","50.24","DANIELS HARBOUR","8401400","2018-04-18 20:30","2018","04","18","20:30","1.7","","-6.2","","56","","","","","M","","M","","M","99.37","","","","","","NA"
"-57.58","50.24","DANIELS HARBOUR","8401400","2018-04-18 21:30","2018","04","18","21:30","1.5","","-6.2","","57","","","","","M","","M","","M","99.37","","","","","","NA"
"-57.58","50.24","DANIELS HARBOUR","8401400","2018-04-18 22:30","2018","04","18","22:30","0.8","","-7.0","","56","","","","","M","","M","","M","99.36","","","","","","NA"
"-57.58","50.24","DANIELS HARBOUR","8401400","2018-04-18 23:30","2018","04","18","23:30","0.2","","-7.4","","57","","","","","M","","M","","M","99.32","","","","","","NA"
"-57.58","50.24","DANIELS HARBOUR","8401400","2018-04-19 00:30","2018","04","19","00:30","0.2","","-7.5","","56","","","","","M","","M","","M","99.31","","","","","","NA"
"-57.58","50.24","DANIELS HARBOUR","8401400","2018-04-19 01:30","2018","04","19","01:30","0.2","","-7.5","","56","","","","","M","","M","","M","99.31","","","","","","NA"
"-57.58","50.24","DANIELS HARBOUR","8401400","2018-04-19 02:30","2018","04","19","02:30","0.2","","-7.5","","56","","","","","M","","M","","M","99.33","","","","","","NA"
"-57.58","50.24","DANIELS HARBOUR","8401400","2018-04-19 03:30","2018","04","19","03:30","-0.1","","-7.6","","57","","","","","M","","M","","M","99.35","","","","","","NA"
"-57.58","50.24","DANIELS HARBOUR","8401400","2018-04-19 04:30","2018","04","19","04:30","-0.4","","-7.9","","57","","","","","M","","M","","M","99.40","","","","","","NA"
"-57.58","50.24","DANIELS HARBOUR","8401400","2018-04-19 05:30","2018","04","19","05:30","-0.5","","-8.1","","56","","","","","M","","M","","M","99.45","","","","","","NA"
"-57.58","50.24","DANIELS HARBOUR","8401400","2018-04-19 06:30","2018","04","19","06:30","-0.5","","-8.1","","56","","","","","M","","M","","M","99.50","","","","","","NA"
"-57.58","50.24","DANIELS HARBOUR","8401400","2018-04-19 07:30","2018","04","19","07:30","-0.7","","-8.3","","56","","","","","M","","M","","M","99.53","","","","","","NA"
"-57.58","50.24","DANIELS HARBOUR","8401400","2018-04-19 08:30","2018","04","19","08:30","-0.7","","-8.4","","56","","","","","M","","M","","M","99.60","","","","","","NA"
"-57.58","50.24","DANIELS HARBOUR","8401400","2018-04-19 09:30","2018","04","19","09:30","-0.7","","-8.3","","56","","","","","M","","M","","M","99.69","","","","","","NA"
"-57.58","50.24","DANIELS HARBOUR","8401400","2018-04-19 10:30","2018","04","19","10:30","-0.5","","-8.1","","56","","","","","M","","M","","M","99.77","","","","","","NA"
"-57.58","50.24","DANIELS HARBOUR","8401400","2018-04-19 11:30","2018","04","19","11:30","-0.3","","-8.0","","56","","","","","M","","M","","M","99.82","","","","","","NA"
"-57.58","50.24","DANIELS HARBOUR","8401400","2018-04-19 12:30","2018","04","19","12:30","0.2","","-8.0","","54","","","","","M","","M","","M","99.90","","","","","","NA"
"-57.58","50.24","DANIELS HARBOUR","8401400","2018-04-19 13:30","2018","04","19","13:30","0.0","","-8.0","","55","","","","","M","","M","","M","99.99","","","","","","NA"
"-57.58","50.24","DANIELS HARBOUR","8401400","2018-04-19 14:30","2018","04","19","14:30","0.0","","-8.0","","55","","","","","M","","M","","M","100.08","","","","","","NA"
"-57.58","50.24","DANIELS HARBOUR","8401400","2018-04-19 15:30","2018","04","19","15:30","0.3","","-7.6","","55","","","","","M","","M","","M","100.18","","","","","","NA"
"-57.58","50.24","DANIELS HARBOUR","8401400","2018-04-19 16:30","2018","04","19","16:30","0.2","","-7.6","","56","","","","","M","","M","","M","100.28","","","","","","NA"
"-57.58","50.24","DANIELS HARBOUR","8401400","2018-04-19 17:30","2018","04","19","17:30","0.3","","-7.6","","55","","","","","M","","M","","M","100.37","","","","","","NA"
"-57.58","50.24","DANIELS HARBOUR","8401400","2018-04-19 18:30","2018","04","19","18:30","0.3","","-7.4","","56","","","","","M","","M","","M","100.47","","","","","","NA"
"-57.58","50.24","DANIELS HARBOUR","8401400","2018-04-19 19:30","2018","04","19","19:30","0.3","","-7.4","","56","","","","","M","","M","","M","100.54","","","","","","NA"
"-57.58","50.24","DANIELS HARBOUR","8401400","2018-04-19 20:30","2018","04","19","20:30","0.0","","-7.8","","56","","","","","M","","M","","M","100.65","","","","","","NA"
"-57.58","50.24","DANIELS HARBOUR","8401400","2018-04-19 21:30","2018","04","19","21:30","0.0","","-8.0","","55","","","","","M","","M","","M","100.72","","","","","","NA"
"-57.58","50.24","DANIELS HARBOUR","8401400","2018-04-19 22:30","2018","04","19","22:30","-0.6","","-8.5","","55","","","","","M","","M","","M","100.71","","","","","","NA"
"-57.58","50.24","DANIELS HARBOUR","8401400","2018-04-19 23:30","2018","04","19","23:30","-0.8","","-8.9","","54","","","","","M","","M","","M","100.66","","","","","","NA"
"-57.58","50.24","DANIELS HARBOUR","8401400","2018-04-20 00:30","2018","04","20","00:30","-0.4","","-8.5","","54","","","","","M","","M","","M","100.67","","","","","","NA"
"-57.58","50.24","DANIELS HARBOUR","8401400","2018-04-20 01:30","2018","04","20","01:30","-0.2","","-8.1","","55","","","","","M","","M","","M","100.77","","","","","","NA"
"-57.58","50.24","DANIELS HARBOUR","8401400","2018-04-20 02:30","2018","04","20","02:30","-0.1","","-8.4","","54","","","","","M","","M","","M","100.75","","","","","","NA"
"-57.58","50.24","DANIELS HARBOUR","8401400","2018-04-20 03:30","2018","04","20","03:30","0.1","","-8.8","","51","","","","","M","","M","","M","100.74","","","","","","NA"
"-57.58","50.24","DANIELS HARBOUR","8401400","2018-04-20 04:30","2018","04","20","04:30","-0.1","","-9.1","","51","","","","","M","","M","","M","100.68","","","","","","NA"
"-57.58","50.24","DANIELS HARBOUR","8401400","2018-04-20 05:30","2018","04","20","05:30","-0.2","","-9.2","","51","","","","","M","","M","","M","100.74","","","","","","NA"
"-57.58","50.24","DANIELS HARBOUR","8401400","2018-04-20 06:30","2018","04","20","06:30","-0.2","","-9.1","","51","","","","","M","","M","","M","100.70","","","","","","NA"
"-57.58","50.24","DANIELS HARBOUR","8401400","2018-04-20 07:30","2018","04","20","07:30","0.0","","-9.4","","49","","","","","M","","M","","M","100.65","","","","","","NA"
"-57.58","50.24","DANIELS HARBOUR","8401400","2018-04-20 08:30","2018","04","20","08:30","0.3","","-9.1","","49","","","","","M","","M","","M","100.63","","","","","","NA"
"-57.58","50.24","DANIELS HARBOUR","8401400","2018-04-20 09:30","2018","04","20","09:30","0.8","","-8.4","","50","","","","","M","","M","","M","100.63","","","","","","NA"
"-57.58","50.24","DANIELS HARBOUR","8401400","2018-04-20 10:30","2018","04","20","10:30","0.2","","-8.6","","52","","","","","M","","M","","M","100.59","","","","","","NA"
"-57.58","50.24","DANIELS HARBOUR","8401400","2018-04-20 11:30","2018","04","20","11:30","0.0","","-8.5","","53","","","","","M","","M","","M","100.52","","","","","","NA"
"-57.58","50.24","DANIELS HARBOUR","8401400","2018-04-20 12:30","2018","04","20","12:30","-0.2","","-8.5","","54","","","","","M","","M","","M","100.45","","","","","","NA"
"-57.58","50.24","DANIELS HARBOUR","8401400","2018-04-20 13:30","2018","04","20","13:30","0.2","","-8.2","","53","","","","","M","","M","","M","100.37","","","","","","NA"
"-57.58","50.24","DANIELS HARBOUR","8401400","2018-04-20 14:30","2018","04","20","14:30","0.6","","-7.8","","53","","","","","M","","M","","M","100.28","","","","","","NA"
"-57.58","50.24","DANIELS HARBOUR","8401400","2018-04-20 15:30","2018","04","20","15:30","-0.1","","-8.5","","53","","","","","M","","M","","M","100.17","","","","","","NA"
"-57.58","50.24","DANIELS HARBOUR","8401400","2018-04-20 16:30","2018","04","20","16:30","0.0","","-8.1","","54","","","","","M","","M","","M","100.12","","","","","","NA"
"-57.58","50.24","DANIELS HARBOUR","8401400","2018-04-20 17:30","2018","04","20","17:30","-0.1","","-8.2","","54","","","","","M","","M","","M","100.08","","","","","","NA"
"-57.58","50.24","DANIELS HARBOUR","8401400","2018-04-20 18:30","2018","04","20","18:30","-0.2","","-8.3","","54","","","","","M","","M","","M","100.07","","","","","","NA"
"-57.58","50.24","DANIELS HARBOUR","8401400","2018-04-20 19:30","2018","04","20","19:30","-0.1","","-8.3","","54","","","","","M","","M","","M","100.06","","","","","","NA"
"-57.58","50.24","DANIELS HARBOUR","8401400","2018-04-20 20:30","2018","04","20","20:30","-0.1","","-8.1","","55","","","","","M","","M","","M","100.04","","","","","","NA"
"-57.58","50.24","DANIELS HARBOUR","8401400","2018-04-20 21:30","2018","04","20","21:30","-0.2","","-8.3","","54","","","","","M","","M","","M","99.97","","","","","","NA"
"-57.58","50.24","DANIELS HARBOUR","8401400","2018-04-20 22:30","2018","04","20","22:30","-0.5","","-8.4","","55","","","","","M","","M","","M","99.92","","","","","","NA"
"-57.58","50.24","DANIELS HARBOUR","8401400","2018-04-20 23:30","2018","04","20","23:30","-0.5","","-8.6","","54","","","","","M","","M","","M","99.90","","","","","","NA"
"-57.58","50.24","DANIELS HARBOUR","8401400","2018-04-21 00:30","2018","04","21","00:30","-0.6","","-8.7","","54","","","","","M","","M","","M","99.85","","","","","","NA"
"-57.58","50.24","DANIELS HARBOUR","8401400","2018-04-21 01:30","2018","04","21","01:30","-0.6","","-8.7","","54","","","","","M","","M","","M","99.81","","","","","","NA"
"-57.58","50.24","DANIELS HARBOUR","8401400","2018-04-21 02:30","2018","04","21","02:30","-0.7","","-9.2","","53","","","","","M","","M","","M","99.79","","","","","","NA"
"-57.58","50.24","DANIELS HARBOUR","8401400","2018-04-21 03:30","2018","04","21","03:30","-0.8","","-9.1","","53","","","","","M","","M","","M","99.80","","","","","","NA"
"-57.58","50.24","DANIELS HARBOUR","8401400","2018-04-21 04:30","2018","04","21","04:30","-0.7","","-9.0","","53","","","","","M","","M","","M","99.81","","","","","","NA"
"-57.58","50.24","DANIELS HARBOUR","8401400","2018-04-21 05:30","2018","04","21","05:30","-0.7","","-9.2","","53","","","","","M","","M","","M","99.84","","","","","","NA"
"-57.58","50.24","DANIELS HARBOUR","8401400","2018-04-21 06:30","2018","04","21","06:30","-0.7","","-9.0","","53","","","","","M","","M","","M","99.88","","","","","","NA"
"-57.58","50.24","DANIELS HARBOUR","8401400","2018-04-21 07:30","2018","04","21","07:30","-0.7","","-9.0","","53","","","","","M","","M","","M","99.93","","","","","","NA"
"-57.58","50.24","DANIELS HARBOUR","8401400","2018-04-21 08:30","2018","04","21","08:30","-0.7","","-9.2","","53","","","","","M","","M","","M","99.99","","","","","","NA"
"-57.58","50.24","DANIELS HARBOUR","8401400","2018-04-21 09:30","2018","04","21","09:30","-0.6","","-9.0","","53","","","","","M","","M","","M","100.05","","","","","","NA"
"-57.58","50.24","DANIELS HARBOUR","8401400","2018-04-21 10:30","2018","04","21","10:30","-0.5","","-9.0","","53","","","","","M","","M","","M","100.09","","","","","","NA"
"-57.58","50.24","DANIELS HARBOUR","8401400","2018-04-21 11:30","2018","04","21","11:30","-0.3","","-8.6","","54","","","","","M","","M","","M","100.13","","","","","","NA"
"-57.58","50.24","DANIELS HARBOUR","8401400","2018-04-21 12:30","2018","04","21","12:30","0.2","","-8.3","","53","","","","","M","","M","","M","100.15","","","","","","NA"
"-57.58","50.24","DANIELS HARBOUR","8401400","2018-04-21 13:30","2018","04","21","13:30","0.3","","-8.3","","52","","","","","M","","M","","M","100.21","","","","","","NA"
"-57.58","50.24","DANIELS HARBOUR","8401400","2018-04-21 14:30","2018","04","21","14:30","0.6","","-8.3","","51","","","","","M","","M","","M","100.24","","","","","","NA"
"-57.58","50.24","DANIELS HARBOUR","8401400","2018-04-21 15:30","2018","04","21","15:30","0.9","","-7.9","","52","","","","","M","","M","","M","100.30","","","","","","NA"
"-57.58","50.24","DANIELS HARBOUR","8401400","2018-04-21 16:30","2018","04","21","16:30","0.9","","-7.9","","52","","","","","M","","M","","M","100.39","","","","","","NA"
"-57.58","50.24","DANIELS HARBOUR","8401400","2018-04-21 17:30","2018","04","21","17:30","1.3","","-8.0","","50","","","","","M","","M","","M","100.48","","","","","","NA"
"-57.58","50.24","DANIELS HARBOUR","8401400","2018-04-21 18:30","2018","04","21","18:30","1.4","","-8.3","","48","","","","","M","","M","","M","100.57","","","","","","NA"
"-57.58","50.24","DANIELS HARBOUR","8401400","2018-04-21 19:30","2018","04","21","19:30","0.9","","-8.5","","49","","","","","M","","M","","M","100.69","","","","","","NA"
"-57.58","50.24","DANIELS HARBOUR","8401400","2018-04-21 20:30","2018","04","21","20:30","0.8","","-8.8","","49","","","","","M","","M","","M","100.80","","","","","","NA"
"-57.58","50.24","DANIELS HARBOUR","8401400","2018-04-21 21:30","2018","04","21","21:30","0.0","","-9.2","","50","","","","","M","","M","","M","100.86","","","","","","NA"
"-57.58","50.24","DANIELS HARBOUR","8401400","2018-04-21 22:30","2018","04","21","22:30","-0.5","","-9.0","","53","","","","","M","","M","","M","100.88","","","","","","NA"
"-57.58","50.24","DANIELS HARBOUR","8401400","2018-04-21 23:30","2018","04","21","23:30","-0.6","","-9.2","","52","","","","","M","","M","","M","100.90","","","","","","NA"
"-57.58","50.24","DANIELS HARBOUR","8401400","2018-04-22 00:30","2018","04","22","00:30","-0.7","","-9.9","","50","","","","","M","","M","","M","100.91","","","","","","NA"
"-57.58","50.24","DANIELS HARBOUR","8401400","2018-04-22 01:30","2018","04","22","01:30","-1.4","","-10.4","","50","","","","","M","","M","","M","100.93","","","","","","NA"
"-57.58","50.24","DANIELS HARBOUR","8401400","2018-04-22 02:30","2018","04","22","02:30","-0.7","","-10.8","","46","","","","","M","","M","","M","100.98","","","","","","NA"
"-57.58","50.24","DANIELS HARBOUR","8401400","2018-04-22 03:30","2018","04","22","03:30","-0.7","","-11.1","","45","","","","","M","","M","","M","101.01","","","","","","NA"
"-57.58","50.24","DANIELS HARBOUR","8401400","2018-04-22 04:30","2018","04","22","04:30","-0.8","","-11.4","","45","","","","","M","","M","","M","101.03","","","","","","NA"
"-57.58","50.24","DANIELS HARBOUR","8401400","2018-04-22 05:30","2018","04","22","05:30","-0.7","","-11.4","","44","","","","","M","","M","","M","101.04","","","","","","NA"
"-57.58","50.24","DANIELS HARBOUR","8401400","2018-04-22 06:30","2018","04","22","06:30","-0.7","","-11.5","","44","","","","","M","","M","","M","101.11","","","","","","NA"
"-57.58","50.24","DANIELS HARBOUR","8401400","2018-04-22 07:30","2018","04","22","07:30","-0.6","","-11.5","","44","","","","","M","","M","","M","101.12","","","","","","NA"
"-57.58","50.24","DANIELS HARBOUR","8401400","2018-04-22 08:30","2018","04","22","08:30","-0.3","","-10.7","","45","","","","","M","","M","","M","101.15","","","","","","NA"
"-57.58","50.24","DANIELS HARBOUR","8401400","2018-04-22 09:30","2018","04","22","09:30","-0.7","","-12.1","","42","","","","","M","","M","","M","101.19","","","","","","NA"
"-57.58","50.24","DANIELS HARBOUR","8401400","2018-04-22 10:30","2018","04","22","10:30","-0.7","","-11.5","","44","","","","","M","","M","","M","101.21","","","","","","NA"
"-57.58","50.24","DANIELS HARBOUR","8401400","2018-04-22 11:30","2018","04","22","11:30","-0.7","","-11.9","","42","","","","","M","","M","","M","101.22","","","","","","NA"
"-57.58","50.24","DANIELS HARBOUR","8401400","2018-04-22 12:30","2018","04","22","12:30","-1.3","","-12.3","","43","","","","","M","","M","","M","101.25","","","","","","NA"
"-57.58","50.24","DANIELS HARBOUR","8401400","2018-04-22 13:30","2018","04","22","13:30","-0.8","","-12.0","","42","","","","","M","","M","","M","101.29","","","","","","NA"
"-57.58","50.24","DANIELS HARBOUR","8401400","2018-04-22 14:30","2018","04","22","14:30","-0.7","","-12.5","","40","","","","","M","","M","","M","101.30","","","","","","NA"
"-57.58","50.24","DANIELS HARBOUR","8401400","2018-04-22 15:30","2018","04","22","15:30","-0.1","","-11.8","","41","","","","","M","","M","","M","101.33","","","","","","NA"
"-57.58","50.24","DANIELS HARBOUR","8401400","2018-04-22 16:30","2018","04","22","16:30","-0.2","","-11.6","","42","","","","","M","","M","","M","101.34","","","","","","NA"
"-57.58","50.24","DANIELS HARBOUR","8401400","2018-04-22 17:30","2018","04","22","17:30","-0.5","","-12.2","","41","","","","","M","","M","","M","101.38","","","","","","NA"
"-57.58","50.24","DANIELS HARBOUR","8401400","2018-04-22 18:30","2018","04","22","18:30","-0.6","","-11.1","","45","","","","","M","","M","","M","101.40","","","","","","NA"
"-57.58","50.24","DANIELS HARBOUR","8401400","2018-04-22 19:30","2018","04","22","19:30","-1.1","","-11.3","","46","","","","","M","","M","","M","101.45","","","","","","NA"
"-57.58","50.24","DANIELS HARBOUR","8401400","2018-04-22 20:30","2018","04","22","20:30","-1.5","","-11.5","","46","","","","","M","","M","","M","101.49","","","","","","NA"
"-57.58","50.24","DANIELS HARBOUR","8401400","2018-04-22 21:30","2018","04","22","21:30","-1.9","","-11.5","","48","","","","","M","","M","","M","101.51","","","","","","NA"
"-57.58","50.24","DANIELS HARBOUR","8401400","2018-04-22 22:30","2018","04","22","22:30","-1.9","","-11.4","","48","","","","","M","","M","","M","101.52","","","","","","NA"
"-57.58","50.24","DANIELS HARBOUR","8401400","2018-04-22 23:30","2018","04","22","23:30","-1.7","","-11.3","","48","","","","","M","","M","","M","101.53","","","","","","NA"
"-57.58","50.24","DANIELS HARBOUR","8401400","2018-04-23 00:30","2018","04","23","00:30","-2.0","","-11.4","","49","","","","","M","","M","","M","101.53","","","","","","NA"
"-57.58","50.24","DANIELS HARBOUR","8401400","2018-04-23 01:30","2018","04","23","01:30","-2.1","","-11.9","","47","","","","","M","","M","","M","101.52","","","","","","NA"
"-57.58","50.24","DANIELS HARBOUR","8401400","2018-04-23 02:30","2018","04","23","02:30","-2.1","","-11.9","","47","","","","","M","","M","","M","101.53","","","","","","NA"
"-57.58","50.24","DANIELS HARBOUR","8401400","2018-04-23 03:30","2018","04","23","03:30","-1.9","","-11.7","","47","","","","","M","","M","","M","101.55","","","","","","NA"
"-57.58","50.24","DANIELS HARBOUR","8401400","2018-04-23 04:30","2018","04","23","04:30","-1.7","","-11.3","","48","","","","","M","","M","","M","101.54","","","","","","NA"
"-57.58","50.24","DANIELS HARBOUR","8401400","2018-04-23 05:30","2018","04","23","05:30","-1.6","","-11.4","","47","","","","","M","","M","","M","101.59","","","","","","NA"
"-57.58","50.24","DANIELS HARBOUR","8401400","2018-04-23 06:30","2018","04","23","06:30","-0.9","","-10.8","","47","","","","","M","","M","","M","101.64","","","","","","NA"
"-57.58","50.24","DANIELS HARBOUR","8401400","2018-04-23 07:30","2018","04","23","07:30","0.5","","-9.8","","46","","","","","M","","M","","M","101.72","","","","","","NA"
"-57.58","50.24","DANIELS HARBOUR","8401400","2018-04-23 08:30","2018","04","23","08:30","1.3","","-8.9","","47","","","","","M","","M","","M","101.74","","","","","","NA"
"-57.58","50.24","DANIELS HARBOUR","8401400","2018-04-23 09:30","2018","04","23","09:30","1.3","","-8.3","","49","","","","","M","","M","","M","101.77","","","","","","NA"
"-57.58","50.24","DANIELS HARBOUR","8401400","2018-04-23 10:30","2018","04","23","10:30","2.0","","-8.1","","47","","","","","M","","M","","M","101.79","","","","","","NA"
"-57.58","50.24","DANIELS HARBOUR","8401400","2018-04-23 11:30","2018","04","23","11:30","2.3","","-7.9","","47","","","","","M","","M","","M","101.80","","","","","","NA"
"-57.58","50.24","DANIELS HARBOUR","8401400","2018-04-23 12:30","2018","04","23","12:30","2.4","","-8.1","","46","","","","","M","","M","","M","101.78","","","","","","NA"
"-57.58","50.24","DANIELS HARBOUR","8401400","2018-04-23 13:30","2018","04","23","13:30","2.5","","-7.9","","46","","","","","M","","M","","M","101.76","","","","","","NA"
"-57.58","50.24","DANIELS HARBOUR","8401400","2018-04-23 14:30","2018","04","23","14:30","2.5","","-8.0","","46","","","","","M","","M","","M","101.74","","","","","","NA"
"-57.58","50.24","DANIELS HARBOUR","8401400","2018-04-23 15:30","2018","04","23","15:30","2.7","","-8.0","","45","","","","","M","","M","","M","101.73","","","","","","NA"
"-57.58","50.24","DANIELS HARBOUR","8401400","2018-04-23 16:30","2018","04","23","16:30","3.5","","-8.8","","40","","","","","M","","M","","M","101.70","","","","","","NA"
"-57.58","50.24","DANIELS HARBOUR","8401400","2018-04-23 17:30","2018","04","23","17:30","3.4","","-9.1","","39","","","","","M","","M","","M","101.70","","","","","","NA"
"-57.58","50.24","DANIELS HARBOUR","8401400","2018-04-23 18:30","2018","04","23","18:30","2.5","","-9.5","","41","","","","","M","","M","","M","101.70","","","","","","NA"
"-57.58","50.24","DANIELS HARBOUR","8401400","2018-04-23 19:30","2018","04","23","19:30","2.0","","-9.9","","41","","","","","M","","M","","M","101.73","","","","","","NA"
"-57.58","50.24","DANIELS HARBOUR","8401400","2018-04-23 20:30","2018","04","23","20:30","2.1","","-10.2","","40","","","","","M","","M","","M","101.75","","","","","","NA"
"-57.58","50.24","DANIELS HARBOUR","8401400","2018-04-23 21:30","2018","04","23","21:30","2.0","","-10.2","","40","","","","","M","","M","","M","101.76","","","","","","NA"
"-57.58","50.24","DANIELS HARBOUR","8401400","2018-04-23 22:30","2018","04","23","22:30","2.1","","-10.3","","39","","","","","M","","M","","M","101.75","","","","","","NA"
"-57.58","50.24","DANIELS HARBOUR","8401400","2018-04-23 23:30","2018","04","23","23:30","2.3","","-9.9","","40","","","","","M","","M","","M","101.77","","","","","","NA"
"-57.58","50.24","DANIELS HARBOUR","8401400","2018-04-24 00:30","2018","04","24","00:30","2.0","","-9.7","","42","","","","","M","","M","","M","101.77","","","","","","NA"
"-57.58","50.24","DANIELS HARBOUR","8401400","2018-04-24 01:30","2018","04","24","01:30","1.7","","-9.6","","43","","","","","M","","M","","M","101.74","","","","","","NA"
"-57.58","50.24","DANIELS HARBOUR","8401400","2018-04-24 02:30","2018","04","24","02:30","1.5","","-9.7","","43","","","","","M","","M","","M","101.75","","","","","","NA"
"-57.58","50.24","DANIELS HARBOUR","8401400","2018-04-24 03:30","2018","04","24","03:30","2.0","","-9.9","","41","","","","","M","","M","","M","101.75","","","","","","NA"
"-57.58","50.24","DANIELS HARBOUR","8401400","2018-04-24 04:30","2018","04","24","04:30","2.5","","-9.8","","40","","","","","M","","M","","M","101.73","","","","","","NA"
"-57.58","50.24","DANIELS HARBOUR","8401400","2018-04-24 05:30","2018","04","24","05:30","2.7","","-9.8","","39","","","","","M","","M","","M","101.74","","","","","","NA"
"-57.58","50.24","DANIELS HARBOUR","8401400","2018-04-24 06:30","2018","04","24","06:30","3.5","","-10.0","","37","","","","","M","","M","","M","101.69","","","","","","NA"
"-57.58","50.24","DANIELS HARBOUR","8401400","2018-04-24 07:30","2018","04","24","07:30","4.8","","-9.6","","34","","","","","M","","M","","M","101.67","","","","","","NA"
"-57.58","50.24","DANIELS HARBOUR","8401400","2018-04-24 08:30","2018","04","24","08:30","6.1","","-8.8","","33","","","","","M","","M","","M","101.62","","","","","","NA"
"-57.58","50.24","DANIELS HARBOUR","8401400","2018-04-24 09:30","2018","04","24","09:30","6.0","","-8.5","","35","","","","","M","","M","","M","101.56","","","","","","NA"
"-57.58","50.24","DANIELS HARBOUR","8401400","2018-04-24 10:30","2018","04","24","10:30","5.5","","-8.0","","37","","","","","M","","M","","M","101.54","","","","","","NA"
"-57.58","50.24","DANIELS HARBOUR","8401400","2018-04-24 11:30","2018","04","24","11:30","5.9","","-7.6","","37","","","","","M","","M","","M","101.48","","","","","","NA"
"-57.58","50.24","DANIELS HARBOUR","8401400","2018-04-24 12:30","2018","04","24","12:30","5.2","","-7.8","","39","","","","","M","","M","","M","101.40","","","","","","NA"
"-57.58","50.24","DANIELS HARBOUR","8401400","2018-04-24 13:30","2018","04","24","13:30","4.7","","-7.6","","41","","","","","M","","M","","M","101.35","","","","","","NA"
"-57.58","50.24","DANIELS HARBOUR","8401400","2018-04-24 14:30","2018","04","24","14:30","4.8","","-7.5","","41","","","","","M","","M","","M","101.34","","","","","","NA"
"-57.58","50.24","DANIELS HARBOUR","8401400","2018-04-24 15:30","2018","04","24","15:30","4.9","","-7.5","","40","","","","","M","","M","","M","101.28","","","","","","NA"
"-57.58","50.24","DANIELS HARBOUR","8401400","2018-04-24 16:30","2018","04","24","16:30","4.4","","-7.8","","41","","","","","M","","M","","M","101.28","","","","","","NA"
"-57.58","50.24","DANIELS HARBOUR","8401400","2018-04-24 17:30","2018","04","24","17:30","4.3","","-8.1","","40","","","","","M","","M","","M","101.27","","","","","","NA"
"-57.58","50.24","DANIELS HARBOUR","8401400","2018-04-24 18:30","2018","04","24","18:30","3.9","","-8.5","","40","","","","","M","","M","","M","101.26","","","","","","NA"
"-57.58","50.24","DANIELS HARBOUR","8401400","2018-04-24 19:30","2018","04","24","19:30","3.8","","-8.5","","40","","","","","M","","M","","M","101.30","","","","","","NA"
"-57.58","50.24","DANIELS HARBOUR","8401400","2018-04-24 20:30","2018","04","24","20:30","4.1","","-8.6","","39","","","","","M","","M","","M","101.32","","","","","","NA"
"-57.58","50.24","DANIELS HARBOUR","8401400","2018-04-24 21:30","2018","04","24","21:30","5.1","","-8.8","","36","","","","","M","","M","","M","101.28","","","","","","NA"
"-57.58","50.24","DANIELS HARBOUR","8401400","2018-04-24 22:30","2018","04","24","22:30","5.9","","-8.4","","35","","","","","M","","M","","M","101.30","","","","","","NA"
"-57.58","50.24","DANIELS HARBOUR","8401400","2018-04-24 23:30","2018","04","24","23:30","5.1","","-8.0","","38","","","","","M","","M","","M","101.32","","","","","","NA"
"-57.58","50.24","DANIELS HARBOUR","8401400","2018-04-25 00:30","2018","04","25","00:30","4.5","","-8.0","","40","","","","","M","","M","","M","101.32","","","","","","NA"
"-57.58","50.24","DANIELS HARBOUR","8401400","2018-04-25 01:30","2018","04","25","01:30","4.2","","-8.0","","41","","","","","M","","M","","M","101.34","","","","","","NA"
"-57.58","50.24","DANIELS HARBOUR","8401400","2018-04-25 02:30","2018","04","25","02:30","3.9","","-8.0","","42","","","","","M","","M","","M","101.37","","","","","","NA"
"-57.58","50.24","DANIELS HARBOUR","8401400","2018-04-25 03:30","2018","04","25","03:30","3.8","","-8.2","","41","","","","","M","","M","","M","101.35","","","","","","NA"
"-57.58","50.24","DANIELS HARBOUR","8401400","2018-04-25 04:30","2018","04","25","04:30","4.3","","-7.7","","41","","","","","M","","M","","M","101.37","","","","","","NA"
"-57.58","50.24","DANIELS HARBOUR","8401400","2018-04-25 05:30","2018","04","25","05:30","4.0","","-7.7","","42","","","","","M","","M","","M","101.42","","","","","","NA"
"-57.58","50.24","DANIELS HARBOUR","8401400","2018-04-25 06:30","2018","04","25","06:30","3.7","","-7.5","","44","","","","","M","","M","","M","101.47","","","","","","NA"
"-57.58","50.24","DANIELS HARBOUR","8401400","2018-04-25 07:30","2018","04","25","07:30","4.0","","-7.1","","44","","","","","M","","M","","M","101.53","","","","","","NA"
"-57.58","50.24","DANIELS HARBOUR","8401400","2018-04-25 08:30","2018","04","25","08:30","4.2","","-6.7","","45","","","","","M","","M","","M","101.51","","","","","","NA"
"-57.58","50.24","DANIELS HARBOUR","8401400","2018-04-25 09:30","2018","04","25","09:30","4.8","","-6.4","","44","","","","","M","","M","","M","101.50","","","","","","NA"
"-57.58","50.24","DANIELS HARBOUR","8401400","2018-04-25 10:30","2018","04","25","10:30","4.2","","-6.4","","46","","","","","M","","M","","M","101.50","","","","","","NA"
"-57.58","50.24","DANIELS HARBOUR","8401400","2018-04-25 11:30","2018","04","25","11:30","5.5","","-6.1","","43","","","","","M","","M","","M","101.48","","","","","","NA"
"-57.58","50.24","DANIELS HARBOUR","8401400","2018-04-25 12:30","2018","04","25","12:30","4.6","","-6.2","","45","","","","","M","","M","","M","101.51","","","","","","NA"
"-57.58","50.24","DANIELS HARBOUR","8401400","2018-04-25 13:30","2018","04","25","13:30","4.8","","-6.4","","44","","","","","M","","M","","M","101.55","","","","","","NA"
"-57.58","50.24","DANIELS HARBOUR","8401400","2018-04-25 14:30","2018","04","25","14:30","5.4","","-5.9","","44","","","","","M","","M","","M","101.52","","","","","","NA"
"-57.58","50.24","DANIELS HARBOUR","8401400","2018-04-25 15:30","2018","04","25","15:30","4.9","","-6.2","","44","","","","","M","","M","","M","101.55","","","","","","NA"
"-57.58","50.24","DANIELS HARBOUR","8401400","2018-04-25 16:30","2018","04","25","16:30","4.3","","-6.3","","46","","","","","M","","M","","M","101.59","","","","","","NA"
"-57.58","50.24","DANIELS HARBOUR","8401400","2018-04-25 17:30","2018","04","25","17:30","4.4","","-6.5","","45","","","","","M","","M","","M","101.61","","","","","","NA"
"-57.58","50.24","DANIELS HARBOUR","8401400","2018-04-25 18:30","2018","04","25","18:30","4.8","","-6.6","","43","","","","","M","","M","","M","101.61","","","","","","NA"
"-57.58","50.24","DANIELS HARBOUR","8401400","2018-04-25 19:30","2018","04","25","19:30","4.5","","-6.6","","44","","","","","M","","M","","M","101.65","","","","","","NA"
"-57.58","50.24","DANIELS HARBOUR","8401400","2018-04-25 20:30","2018","04","25","20:30","3.6","","-7.0","","46","","","","","M","","M","","M","101.69","","","","","","NA"
"-57.58","50.24","DANIELS HARBOUR","8401400","2018-04-25 21:30","2018","04","25","21:30","5.2","","-6.2","","44","","","","","M","","M","","M","101.67","","","","","","NA"
"-57.58","50.24","DANIELS HARBOUR","8401400","2018-04-25 22:30","2018","04","25","22:30","7.3","","-5.6","","39","","","","","M","","M","","M","101.65","","","","","","NA"
"-57.58","50.24","DANIELS HARBOUR","8401400","2018-04-25 23:30","2018","04","25","23:30","8.1","","-5.2","","39","","","","","M","","M","","M","101.63","","","","","","NA"
"-57.58","50.24","DANIELS HARBOUR","8401400","2018-04-26 00:30","2018","04","26","00:30","8.6","","-3.7","","42","","","","","M","","M","","M","101.62","","","","","","NA"
"-57.58","50.24","DANIELS HARBOUR","8401400","2018-04-26 01:30","2018","04","26","01:30","8.7","","-3.0","","44","","","","","M","","M","","M","101.61","","","","","","NA"
"-57.58","50.24","DANIELS HARBOUR","8401400","2018-04-26 02:30","2018","04","26","02:30","5.8","","-4.8","","46","","","","","M","","M","","M","101.68","","","","","","NA"
"-57.58","50.24","DANIELS HARBOUR","8401400","2018-04-26 03:30","2018","04","26","03:30","6.5","","-4.7","","45","","","","","M","","M","","M","101.70","","","","","","NA"
"-57.58","50.24","DANIELS HARBOUR","8401400","2018-04-26 04:30","2018","04","26","04:30","7.0","","-4.0","","45","","","","","M","","M","","M","101.66","","","","","","NA"
"-57.58","50.24","DANIELS HARBOUR","8401400","2018-04-26 05:30","2018","04","26","05:30","7.0","","-3.6","","47","","","","","M","","M","","M","101.69","","","","","","NA"
"-57.58","50.24","DANIELS HARBOUR","8401400","2018-04-26 06:30","2018","04","26","06:30","5.7","","-4.5","","48","","","","","M","","M","","M","101.74","","","","","","NA"
"-57.58","50.24","DANIELS HARBOUR","8401400","2018-04-26 07:30","2018","04","26","07:30","6.1","","-4.1","","48","","","","","M","","M","","M","101.77","","","","","","NA"
"-57.58","50.24","DANIELS HARBOUR","8401400","2018-04-26 08:30","2018","04","26","08:30","7.3","","-3.4","","47","","","","","M","","M","","M","101.80","","","","","","NA"
"-57.58","50.24","DANIELS HARBOUR","8401400","2018-04-26 09:30","2018","04","26","09:30","9.3","","-1.7","","46","","","","","M","","M","","M","101.81","","","","","","NA"
"-57.58","50.24","DANIELS HARBOUR","8401400","2018-04-26 10:30","2018","04","26","10:30","10.5","","-1.2","","44","","","","","M","","M","","M","101.80","","","","","","NA"
"-57.58","50.24","DANIELS HARBOUR","8401400","2018-04-26 11:30","2018","04","26","11:30","13.2","","1.0","","43","","","","","M","","M","","M","101.77","","","","","","NA"
"-57.58","50.24","DANIELS HARBOUR","8401400","2018-04-26 12:30","2018","04","26","12:30","13.8","","1.9","","44","","","","","M","","M","","M","101.72","","","","","","NA"
"-57.58","50.24","DANIELS HARBOUR","8401400","2018-04-26 13:30","2018","04","26","13:30","14.7","","2.5","","44","","","","","M","","M","","M","101.70","","","","","","NA"
"-57.58","50.24","DANIELS HARBOUR","8401400","2018-04-26 14:30","2018","04","26","14:30","15.3","","1.9","","40","","","","","M","","M","","M","101.65","","","","","","NA"
"-57.58","50.24","DANIELS HARBOUR","8401400","2018-04-26 15:30","2018","04","26","15:30","14.5","","0.7","","39","","","","","M","","M","","M","101.57","","","","","","NA"
"-57.58","50.24","DANIELS HARBOUR","8401400","2018-04-26 16:30","2018","04","26","16:30","13.4","","-0.5","","38","","","","","M","","M","","M","101.52","","","","","","NA"
"-57.58","50.24","DANIELS HARBOUR","8401400","2018-04-26 17:30","2018","04","26","17:30","11.7","","-1.6","","40","","","","","M","","M","","M","101.43","","","","","","NA"
"-57.58","50.24","DANIELS HARBOUR","8401400","2018-04-26 18:30","2018","04","26","18:30","11.2","","-1.5","","41","","","","","M","","M","","M","101.31","","","","","","NA"
"-57.58","50.24","DANIELS HARBOUR","8401400","2018-04-26 19:30","2018","04","26","19:30","10.0","","-1.6","","44","","","","","M","","M","","M","101.21","","","","","","NA"
"-57.58","50.24","DANIELS HARBOUR","8401400","2018-04-26 20:30","2018","04","26","20:30","10.0","","-0.8","","47","","","","","M","","M","","M","101.05","","","","","","NA"
"-57.58","50.24","DANIELS HARBOUR","8401400","2018-04-26 21:30","2018","04","26","21:30","9.5","","-0.6","","49","","","","","M","","M","","M","100.90","","","","","","NA"
"-57.58","50.24","DANIELS HARBOUR","8401400","2018-04-26 22:30","2018","04","26","22:30","10.0","","0.2","","51","","","","","M","","M","","M","100.72","","","","","","NA"
"-57.58","50.24","DANIELS HARBOUR","8401400","2018-04-26 23:30","2018","04","26","23:30","9.2","","-0.5","","51","","","","","M","","M","","M","100.52","","","","","","NA"
"-57.58","50.24","DANIELS HARBOUR","8401400","2018-04-27 00:30","2018","04","27","00:30","11.7","","0.9","","47","","","","","M","","M","","M","100.31","","","","","","NA"
"-57.58","50.24","DANIELS HARBOUR","8401400","2018-04-27 01:30","2018","04","27","01:30","10.1","","-0.3","","48","","","","","M","","M","","M","100.26","","","","","","NA"
"-57.58","50.24","DANIELS HARBOUR","8401400","2018-04-27 02:30","2018","04","27","02:30","10.0","","-0.2","","49","","","","","M","","M","","M","100.19","","","","","","NA"
"-57.58","50.24","DANIELS HARBOUR","8401400","2018-04-27 03:30","2018","04","27","03:30","9.9","","0.0","","50","","","","","M","","M","","M","100.04","","","","","","NA"
"-57.58","50.24","DANIELS HARBOUR","8401400","2018-04-27 04:30","2018","04","27","04:30","9.4","","-0.4","","50","","","","","M","","M","","M","99.92","","","","","","NA"
"-57.58","50.24","DANIELS HARBOUR","8401400","2018-04-27 05:30","2018","04","27","05:30","10.0","","0.1","","50","","","","","M","","M","","M","99.82","","","","","","NA"
"-57.58","50.24","DANIELS HARBOUR","8401400","2018-04-27 06:30","2018","04","27","06:30","9.6","","-0.1","","51","","","","","M","","M","","M","99.85","","","","","","NA"
"-57.58","50.24","DANIELS HARBOUR","8401400","2018-04-27 07:30","2018","04","27","07:30","10.8","","1.5","","53","","","","","M","","M","","M","99.81","","","","","","NA"
"-57.58","50.24","DANIELS HARBOUR","8401400","2018-04-27 08:30","2018","04","27","08:30","10.1","","1.4","","55","","","","","M","","M","","M","99.88","","","","","","NA"
"-57.58","50.24","DANIELS HARBOUR","8401400","2018-04-27 09:30","2018","04","27","09:30","7.0","","-1.0","","57","","","","","M","","M","","M","99.96","","","","","","NA"
"-57.58","50.24","DANIELS HARBOUR","8401400","2018-04-27 10:30","2018","04","27","10:30","5.6","","-2.7","","55","","","","","M","","M","","M","100.04","","","","","","NA"
"-57.58","50.24","DANIELS HARBOUR","8401400","2018-04-27 11:30","2018","04","27","11:30","5.3","","-2.8","","56","","","","","M","","M","","M","100.12","","","","","","NA"
"-57.58","50.24","DANIELS HARBOUR","8401400","2018-04-27 12:30","2018","04","27","12:30","4.8","","-3.2","","56","","","","","M","","M","","M","100.19","","","","","","NA"
"-57.58","50.24","DANIELS HARBOUR","8401400","2018-04-27 13:30","2018","04","27","13:30","3.7","","-4.8","","54","","","","","M","","M","","M","100.37","","","","","","NA"
"-57.58","50.24","DANIELS HARBOUR","8401400","2018-04-27 14:30","2018","04","27","14:30","3.4","","-5.1","","54","","","","","M","","M","","M","100.48","","","","","","NA"
"-57.58","50.24","DANIELS HARBOUR","8401400","2018-04-27 15:30","2018","04","27","15:30","4.1","","-4.4","","54","","","","","M","","M","","M","100.54","","","","","","NA"
"-57.58","50.24","DANIELS HARBOUR","8401400","2018-04-27 16:30","2018","04","27","16:30","3.4","","-5.4","","53","","","","","M","","M","","M","100.67","","","","","","NA"
"-57.58","50.24","DANIELS HARBOUR","8401400","2018-04-27 17:30","2018","04","27","17:30","3.0","","-5.7","","53","","","","","M","","M","","M","100.83","","","","","","NA"
"-57.58","50.24","DANIELS HARBOUR","8401400","2018-04-27 18:30","2018","04","27","18:30","3.6","","-5.4","","52","","","","","M","","M","","M","100.96","","","","","","NA"
"-57.58","50.24","DANIELS HARBOUR","8401400","2018-04-27 19:30","2018","04","27","19:30","3.8","","-5.2","","52","","","","","M","","M","","M","101.10","","","","","","NA"
"-57.58","50.24","DANIELS HARBOUR","8401400","2018-04-27 20:30","2018","04","27","20:30","3.5","","-5.6","","51","","","","","M","","M","","M","101.28","","","","","","NA"
"-57.58","50.24","DANIELS HARBOUR","8401400","2018-04-27 21:30","2018","04","27","21:30","3.9","","-5.1","","52","","","","","M","","M","","M","101.35","","","","","","NA"
"-57.58","50.24","DANIELS HARBOUR","8401400","2018-04-27 22:30","2018","04","27","22:30","3.9","","-5.1","","52","","","","","M","","M","","M","101.34","","","","","","NA"
"-57.58","50.24","DANIELS HARBOUR","8401400","2018-04-27 23:30","2018","04","27","23:30","4.1","","-4.9","","52","","","","","M","","M","","M","101.40","","","","","","NA"
"-57.58","50.24","DANIELS HARBOUR","8401400","2018-04-28 00:30","2018","04","28","00:30","4.0","","-5.0","","52","","","","","M","","M","","M","101.45","","","","","","NA"
"-57.58","50.24","DANIELS HARBOUR","8401400","2018-04-28 01:30","2018","04","28","01:30","5.5","","-3.9","","51","","","","","M","","M","","M","101.50","","","","","","NA"
"-57.58","50.24","DANIELS HARBOUR","8401400","2018-04-28 02:30","2018","04","28","02:30","4.7","","-4.4","","52","","","","","M","","M","","M","101.47","","","","","","NA"
"-57.58","50.24","DANIELS HARBOUR","8401400","2018-04-28 03:30","2018","04","28","03:30","3.5","","-5.5","","52","","","","","M","","M","","M","101.46","","","","","","NA"
"-57.58","50.24","DANIELS HARBOUR","8401400","2018-04-28 04:30","2018","04","28","04:30","3.7","","-5.3","","52","","","","","M","","M","","M","101.44","","","","","","NA"
"-57.58","50.24","DANIELS HARBOUR","8401400","2018-04-28 05:30","2018","04","28","05:30","4.0","","-5.1","","52","","","","","M","","M","","M","101.50","","","","","","NA"
"-57.58","50.24","DANIELS HARBOUR","8401400","2018-04-28 06:30","2018","04","28","06:30","8.0","","-2.5","","47","","","","","M","","M","","M","101.51","","","","","","NA"
"-57.58","50.24","DANIELS HARBOUR","8401400","2018-04-28 07:30","2018","04","28","07:30","9.2","","-2.3","","44","","","","","M","","M","","M","101.50","","","","","","NA"
"-57.58","50.24","DANIELS HARBOUR","8401400","2018-04-28 08:30","2018","04","28","08:30","10.9","","-1.1","","43","","","","","M","","M","","M","101.47","","","","","","NA"
"-57.58","50.24","DANIELS HARBOUR","8401400","2018-04-28 09:30","2018","04","28","09:30","11.8","","-0.3","","43","","","","","M","","M","","M","101.41","","","","","","NA"
"-57.58","50.24","DANIELS HARBOUR","8401400","2018-04-28 10:30","2018","04","28","10:30","11.7","","-0.7","","42","","","","","M","","M","","M","101.41","","","","","","NA"
"-57.58","50.24","DANIELS HARBOUR","8401400","2018-04-28 11:30","2018","04","28","11:30","11.7","","-0.8","","42","","","","","M","","M","","M","101.35","","","","","","NA"
"-57.58","50.24","DANIELS HARBOUR","8401400","2018-04-28 12:30","2018","04","28","12:30","10.1","","-1.9","","43","","","","","M","","M","","M","101.30","","","","","","NA"
"-57.58","50.24","DANIELS HARBOUR","8401400","2018-04-28 13:30","2018","04","28","13:30","11.6","","-0.1","","44","","","","","M","","M","","M","101.21","","","","","","NA"
"-57.58","50.24","DANIELS HARBOUR","8401400","2018-04-28 14:30","2018","04","28","14:30","12.2","","2.5","","52","","","","","M","","M","","M","101.13","","","","","","NA"
"-57.58","50.24","DANIELS HARBOUR","8401400","2018-04-28 15:30","2018","04","28","15:30","12.4","","1.6","","48","","","","","M","","M","","M","101.02","","","","","","NA"
"-57.58","50.24","DANIELS HARBOUR","8401400","2018-04-28 16:30","2018","04","28","16:30","13.9","","2.1","","45","","","","","M","","M","","M","100.87","","","","","","NA"
"-57.58","50.24","DANIELS HARBOUR","8401400","2018-04-28 17:30","2018","04","28","17:30","13.0","","2.7","","50","","","","","M","","M","","M","100.78","","","","","","NA"
"-57.58","50.24","DANIELS HARBOUR","8401400","2018-04-28 18:30","2018","04","28","18:30","15.5","","5.3","","51","","","","","M","","M","","M","100.84","","","","","","NA"
"-57.58","50.24","DANIELS HARBOUR","8401400","2018-04-28 19:30","2018","04","28","19:30","14.6","","5.3","","54","","","","","M","","M","","M","100.88","","","","","","NA"
"-57.58","50.24","DANIELS HARBOUR","8401400","2018-04-28 20:30","2018","04","28","20:30","12.4","","3.4","","54","","","","","M","","M","","M","100.91","","","","","","NA"
"-57.58","50.24","DANIELS HARBOUR","8401400","2018-04-28 21:30","2018","04","28","21:30","7.2","","-1.0","","56","","","","","M","","M","","M","100.90","","","","","","NA"
"-57.58","50.24","DANIELS HARBOUR","8401400","2018-04-28 22:30","2018","04","28","22:30","8.9","","0.5","","56","","","","","M","","M","","M","100.93","","","","","","NA"
"-57.58","50.24","DANIELS HARBOUR","8401400","2018-04-28 23:30","2018","04","28","23:30","10.6","","2.8","","59","","","","","M","","M","","M","100.90","","","","","","NA"
"-57.58","50.24","DANIELS HARBOUR","8401400","2018-04-29 00:30","2018","04","29","00:30","4.8","","","M","","M","","","","M","","M","","M","100.95","","","","","","NA"
"-57.58","50.24","DANIELS HARBOUR","8401400","2018-04-29 01:30","2018","04","29","01:30","9.2","","0.8","","56","","","","","M","","M","","M","100.95","","","","","","NA"
"-57.58","50.24","DANIELS HARBOUR","8401400","2018-04-29 02:30","2018","04","29","02:30","7.5","","-1.0","","55","","","","","M","","M","","M","100.98","","","","","","NA"
"-57.58","50.24","DANIELS HARBOUR","8401400","2018-04-29 03:30","2018","04","29","03:30","8.2","","-0.2","","55","","","","","M","","M","","M","101.03","","","","","","NA"
"-57.58","50.24","DANIELS HARBOUR","8401400","2018-04-29 04:30","2018","04","29","04:30","5.7","","-2.8","","54","","","","","M","","M","","M","101.07","","","","","","NA"
"-57.58","50.24","DANIELS HARBOUR","8401400","2018-04-29 05:30","2018","04","29","05:30","4.8","","-3.7","","54","","","","","M","","M","","M","101.09","","","","","","NA"
"-57.58","50.24","DANIELS HARBOUR","8401400","2018-04-29 06:30","2018","04","29","06:30","4.0","","-4.1","","56","","","","","M","","M","","M","101.10","","","","","","NA"
"-57.58","50.24","DANIELS HARBOUR","8401400","2018-04-29 07:30","2018","04","29","07:30","3.6","","-5.1","","53","","","","","M","","M","","M","101.10","","","","","","NA"
"-57.58","50.24","DANIELS HARBOUR","8401400","2018-04-29 08:30","2018","04","29","08:30","3.8","","-4.9","","53","","","","","M","","M","","M","101.12","","","","","","NA"
"-57.58","50.24","DANIELS HARBOUR","8401400","2018-04-29 09:30","2018","04","29","09:30","5.1","","-3.3","","55","","","","","M","","M","","M","101.14","","","","","","NA"
"-57.58","50.24","DANIELS HARBOUR","8401400","2018-04-29 10:30","2018","04","29","10:30","2.7","","-5.7","","54","","","","","M","","M","","M","101.22","","","","","","NA"
"-57.58","50.24","DANIELS HARBOUR","8401400","2018-04-29 11:30","2018","04","29","11:30","2.9","","-5.6","","54","","","","","M","","M","","M","101.20","","","","","","NA"
"-57.58","50.24","DANIELS HARBOUR","8401400","2018-04-29 12:30","2018","04","29","12:30","3.8","","-5.0","","53","","","","","M","","M","","M","101.13","","","","","","NA"
"-57.58","50.24","DANIELS HARBOUR","8401400","2018-04-29 13:30","2018","04","29","13:30","3.9","","-4.7","","53","","","","","M","","M","","M","101.09","","","","","","NA"
"-57.58","50.24","DANIELS HARBOUR","8401400","2018-04-29 14:30","2018","04","29","14:30","3.9","","-5.2","","51","","","","","M","","M","","M","101.02","","","","","","NA"
"-57.58","50.24","DANIELS HARBOUR","8401400","2018-04-29 15:30","2018","04","29","15:30","3.9","","-4.4","","55","","","","","M","","M","","M","100.91","","","","","","NA"
"-57.58","50.24","DANIELS HARBOUR","8401400","2018-04-29 16:30","2018","04","29","16:30","3.4","","-5.4","","53","","","","","M","","M","","M","100.89","","","","","","NA"
"-57.58","50.24","DANIELS HARBOUR","8401400","2018-04-29 17:30","2018","04","29","17:30","4.4","","-4.4","","53","","","","","M","","M","","M","100.80","","","","","","NA"
"-57.58","50.24","DANIELS HARBOUR","8401400","2018-04-29 18:30","2018","04","29","18:30","6.2","","-2.2","","55","","","","","M","","M","","M","100.78","","","","","","NA"
"-57.58","50.24","DANIELS HARBOUR","8401400","2018-04-29 19:30","2018","04","29","19:30","4.7","","-3.9","","54","","","","","M","","M","","M","100.72","","","","","","NA"
"-57.58","50.24","DANIELS HARBOUR","8401400","2018-04-29 20:30","2018","04","29","20:30","4.0","","-4.8","","53","","","","","M","","M","","M","100.75","","","","","","NA"
"-57.58","50.24","DANIELS HARBOUR","8401400","2018-04-29 21:30","2018","04","29","21:30","3.3","","-5.9","","51","","","","","M","","M","","M","100.82","","","","","","NA"
"-57.58","50.24","DANIELS HARBOUR","8401400","2018-04-29 22:30","2018","04","29","22:30","2.7","","-6.5","","51","","","","","M","","M","","M","100.97","","","","","","NA"
"-57.58","50.24","DANIELS HARBOUR","8401400","2018-04-29 23:30","2018","04","29","23:30","2.5","","-6.6","","51","","","","","M","","M","","M","101.06","","","","","","NA"
"-57.58","50.24","DANIELS HARBOUR","8401400","2018-04-30 00:30","2018","04","30","00:30","2.3","","-6.7","","51","","","","","M","","M","","M","101.11","","","","","","NA"
"-57.58","50.24","DANIELS HARBOUR","8401400","2018-04-30 01:30","2018","04","30","01:30","1.5","","-7.4","","52","","","","","M","","M","","M","101.17","","","","","","NA"
"-57.58","50.24","DANIELS HARBOUR","8401400","2018-04-30 02:30","2018","04","30","02:30","0.6","","-8.2","","52","","","","","M","","M","","M","101.28","","","","","","NA"
"-57.58","50.24","DANIELS HARBOUR","8401400","2018-04-30 03:30","2018","04","30","03:30","1.1","","-7.8","","51","","","","","M","","M","","M","101.45","","","","","","NA"
"-57.58","50.24","DANIELS HARBOUR","8401400","2018-04-30 04:30","2018","04","30","04:30","1.3","","-7.6","","52","","","","","M","","M","","M","101.57","","","","","","NA"
"-57.58","50.24","DANIELS HARBOUR","8401400","2018-04-30 05:30","2018","04","30","05:30","1.3","","-7.5","","52","","","","","M","","M","","M","101.70","","","","","","NA"
"-57.58","50.24","DANIELS HARBOUR","8401400","2018-04-30 06:30","2018","04","30","06:30","1.8","","-7.1","","52","","","","","M","","M","","M","101.79","","","","","","NA"
"-57.58","50.24","DANIELS HARBOUR","8401400","2018-04-30 07:30","2018","04","30","07:30","2.9","","-6.5","","50","","","","","M","","M","","M","101.83","","","","","","NA"
"-57.58","50.24","DANIELS HARBOUR","8401400","2018-04-30 08:30","2018","04","30","08:30","4.0","","-5.5","","50","","","","","M","","M","","M","101.88","","","","","","NA"
"-57.58","50.24","DANIELS HARBOUR","8401400","2018-04-30 09:30","2018","04","30","09:30","3.1","","-5.9","","52","","","","","M","","M","","M","101.97","","","","","","NA"
"-57.58","50.24","DANIELS HARBOUR","8401400","2018-04-30 10:30","2018","04","30","10:30","3.6","","-5.6","","51","","","","","M","","M","","M","101.98","","","","","","NA"
"-57.58","50.24","DANIELS HARBOUR","8401400","2018-04-30 11:30","2018","04","30","11:30","5.1","","-4.7","","49","","","","","M","","M","","M","101.96","","","","","","NA"
"-57.58","50.24","DANIELS HARBOUR","8401400","2018-04-30 12:30","2018","04","30","12:30","6.6","","-3.9","","47","","","","","M","","M","","M","101.91","","","","","","NA"
"-57.58","50.24","DANIELS HARBOUR","8401400","2018-04-30 13:30","2018","04","30","13:30","6.8","","-3.9","","46","","","","","M","","M","","M","101.88","","","","","","NA"
"-57.58","50.24","DANIELS HARBOUR","8401400","2018-04-30 14:30","2018","04","30","14:30","6.0","","-4.6","","47","","","","","M","","M","","M","101.87","","","","","","NA"
"-57.58","50.24","DANIELS HARBOUR","8401400","2018-04-30 15:30","2018","04","30","15:30","5.5","","-4.9","","47","","","","","M","","M","","M","101.89","","","","","","NA"
"-57.58","50.24","DANIELS HARBOUR","8401400","2018-04-30 16:30","2018","04","30","16:30","5.0","","-5.5","","47","","","","","M","","M","","M","101.93","","","","","","NA"
"-57.58","50.24","DANIELS HARBOUR","8401400","2018-04-30 17:30","2018","04","30","17:30","4.8","","-5.5","","47","","","","","M","","M","","M","101.93","","","","","","NA"
"-57.58","50.24","DANIELS HARBOUR","8401400","2018-04-30 18:30","2018","04","30","18:30","6.1","","-4.5","","47","","","","","M","","M","","M","101.88","","","","","","NA"
"-57.58","50.24","DANIELS HARBOUR","8401400","2018-04-30 19:30","2018","04","30","19:30","4.3","","-5.5","","49","","","","","M","","M","","M","101.85","","","","","","NA"
"-57.58","50.24","DANIELS HARBOUR","8401400","2018-04-30 20:30","2018","04","30","20:30","2.5","","-7.1","","49","","","","","M","","M","","M","101.86","","","","","","NA"
"-57.58","50.24","DANIELS HARBOUR","8401400","2018-04-30 21:30","2018","04","30","21:30","2.0","","-7.2","","51","","","","","M","","M","","M","101.82","","","","","","NA"
"-57.58","50.24","DANIELS HARBOUR","8401400","2018-04-30 22:30","2018","04","30","22:30","0.9","","-7.7","","53","","","","","M","","M","","M","101.81","","","","","","NA"
"-57.58","50.24","DANIELS HARBOUR","8401400","2018-04-30 23:30","2018","04","30","23:30","0.9","","-8.1","","51","","","","","M","","M","","M","101.79","","","","","","NA"
