"Longitude (x)","Latitude (y)","Station Name","Climate ID","Date/Time (LST)","Year","Month","Day","Time (LST)","Temp (°C)","Temp Flag","Dew Point Temp (°C)","Dew Point Temp Flag","Rel Hum (%)","Rel Hum Flag","Precip. Amount (mm)","Precip. Amount Flag","Wind Dir (10s deg)","Wind Dir Flag","Wind Spd (km/h)","Wind Spd Flag","Visibility (km)","Visibility Flag","Stn Press (kPa)","Stn Press Flag","Hmdx","Hmdx Flag","Wind Chill","Wind Chill Flag","Weather"
"-60.14","47.23","ST PAUL ISLAND (AUT)","8204909","2018-01-01 00:00","2018","01","01","00:00","-4.1","","-4.8","","95","","","M","24","","82","","","","99.36","","","","-16","","NA"
"-60.14","47.23","ST PAUL ISLAND (AUT)","8204909","2018-01-01 01:00","2018","01","01","01:00","-1.8","","-3.0","","91","","","M","29","","61","","","","99.46","","","","-11","","NA"
"-60.14","47.23","ST PAUL ISLAND (AUT)","8204909","2018-01-01 02:00","2018","01","01","02:00","-2.0","","-3.8","","88","","","M","29","","61","","","","99.58","","","","-12","","NA"
"-60.14","47.23","ST PAUL ISLAND (AUT)","8204909","2018-01-01 03:00","2018","01","01","03:00","-1.5","","-4.6","","80","","","M","30","","57","","","","99.68","","","","-11","","NA"
"-60.14","47.23","ST PAUL ISLAND (AUT)","8204909","2018-01-01 04:00","2018","01","01","04:00","-1.9","","-4.1","","85","","","M","29","","56","","","","99.77","","","","-11","","NA"
"-60.14","47.23","ST PAUL ISLAND (AUT)","8204909","2018-01-01 05:00","2018","01","01","05:00","-2.0","","-3.6","","89","","","M","29","","54","","","","99.84","","","","-11","","NA"
"-60.14","47.23","ST PAUL ISLAND (AUT)","8204909","2018-01-01 06:00","2018","01","01","06:00","-1.8","","-4.4","","83","","","M","30","","53","","","","99.91","","","","-11","","NA"
"-60.14","47.23","ST PAUL ISLAND (AUT)","8204909","2018-01-01 07:00","2018","01","01","07:00","-2.3","","-3.4","","92","","","M","29","","57","","","","100.00","","","","-12","","NA"
"-60.14","47.23","ST PAUL ISLAND (AUT)","8204909","2018-01-01 08:00","2018","01","01","08:00","-2.5","","-3.7","","92","","","M","29","","54","","","","100.07","","","","-12","","NA"
"-60.14","47.23","ST PAUL ISLAND (AUT)","8204909","2018-01-01 09:00","2018","01","01","09:00","-1.8","","-4.2","","83","","","M","30","","52","","","","100.10","","","","-11","","NA"
"-60.14","47.23","ST PAUL ISLAND (AUT)","8204909","2018-01-01 10:00","2018","01","01","10:00","-2.1","","-4.5","","84","","","M","29","","49","","","","100.17","","","","-11","","NA"
"-60.14","47.23","ST PAUL ISLAND (AUT)","8204909","2018-01-01 11:00","2018","01","01","11:00","-1.9","","-5.5","","76","","","M","29","","48","","","","100.18","","","","-11","","NA"
"-60.14","47.23","ST PAUL ISLAND (AUT)","8204909","2018-01-01 12:00","2018","01","01","12:00","-1.9","","-5.1","","79","","","M","29","","48","","","","100.15","","","","-11","","NA"
"-60.14","47.23","ST PAUL ISLAND (AUT)","8204909","2018-01-01 13:00","2018","01","01","13:00","-2.1","","-5.7","","76","","","M","29","","49","","","","100.13","","","","-11","","NA"
"-60.14","47.23","ST PAUL ISLAND (AUT)","8204909","2018-01-01 14:00","2018","01","01","14:00","-2.2","","-5.3","","79","","","M","29","","51","","","","100.14","","","","-11","","NA"
"-60.14","47.23","ST PAUL ISLAND (AUT)","8204909","2018-01-01 15:00","2018","01","01","15:00","-1.9","","-5.0","","80","","","M","29","","52","","","","100.20","","","","-11","","NA"
"-60.14","47.23","ST PAUL ISLAND (AUT)","8204909","2018-01-01 16:00","2018","01","01","16:00","-2.2","","-4.9","","82","","","M","29","","52","","","","100.26","","","","-11","","NA"
"-60.14","47.23","ST PAUL ISLAND (AUT)","8204909","2018-01-01 17:00","2018","01","01","17:00","-2.1","","-4.6","","83","","","M","29","","52","","","","100.33","","","","-11","","NA"
"-60.14","47.23","ST PAUL ISLAND (AUT)","8204909","2018-01-01 18:00","2018","01","01","18:00","-2.2","","-4.5","","84","","","M","28","","50","","","","100.37","","","","-11","","NA"
"-60.14","47.23","ST PAUL ISLAND (AUT)","8204909","2018-01-01 19:00","2018","01","01","19:00","-2.7","","-4.4","","88","","","M","28","","54","","","","100.41","","","","-12","","NA"
"-60.14","47.23","ST PAUL ISLAND (AUT)","8204909","2018-01-01 20:00","2018","01","01","20:00","-2.5","","-4.3","","88","","","M","28","","54","","","","100.42","","","","-12","","NA"
"-60.14","47.23","ST PAUL ISLAND (AUT)","8204909","2018-01-01 21:00","2018","01","01","21:00","-2.7","","-4.5","","88","","","M","28","","55","","","","100.40","","","","-12","","NA"
"-60.14","47.23","ST PAUL ISLAND (AUT)","8204909","2018-01-01 22:00","2018","01","01","22:00","-2.6","","-4.4","","88","","","M","28","","54","","","","100.42","","","","-12","","NA"
"-60.14","47.23","ST PAUL ISLAND (AUT)","8204909","2018-01-01 23:00","2018","01","01","23:00","-3.3","","-4.8","","89","","","M","28","","55","","","","100.42","","","","-13","","NA"
"-60.14","47.23","ST PAUL ISLAND (AUT)","8204909","2018-01-02 00:00","2018","01","02","00:00","-2.9","","-4.3","","90","","","M","27","","53","","","","100.43","","","","-12","","NA"
"-60.14","47.23","ST PAUL ISLAND (AUT)","8204909","2018-01-02 01:00","2018","01","02","01:00","-3.1","","-4.5","","90","","","M","27","","57","","","","100.38","","","","-13","","NA"
"-60.14","47.23","ST PAUL ISLAND (AUT)","8204909","2018-01-02 02:00","2018","01","02","02:00","-3.0","","-4.4","","90","","","M","27","","56","","","","100.40","","","","-13","","NA"
"-60.14","47.23","ST PAUL ISLAND (AUT)","8204909","2018-01-02 03:00","2018","01","02","03:00","-2.8","","-4.5","","88","","","M","27","","52","","","","100.44","","","","-12","","NA"
"-60.14","47.23","ST PAUL ISLAND (AUT)","8204909","2018-01-02 04:00","2018","01","02","04:00","-3.4","","-4.7","","91","","","M","28","","48","","","","100.45","","","","-13","","NA"
"-60.14","47.23","ST PAUL ISLAND (AUT)","8204909","2018-01-02 05:00","2018","01","02","05:00","-3.4","","-5.3","","87","","","M","28","","52","","","","100.43","","","","-13","","NA"
"-60.14","47.23","ST PAUL ISLAND (AUT)","8204909","2018-01-02 06:00","2018","01","02","06:00","-4.0","","-5.2","","91","","","M","28","","50","","","","100.46","","","","-14","","NA"
"-60.14","47.23","ST PAUL ISLAND (AUT)","8204909","2018-01-02 07:00","2018","01","02","07:00","-3.9","","-5.9","","86","","","M","27","","46","","","","100.51","","","","-13","","NA"
"-60.14","47.23","ST PAUL ISLAND (AUT)","8204909","2018-01-02 08:00","2018","01","02","08:00","-4.1","","-7.0","","80","","","M","27","","43","","","","100.54","","","","-13","","NA"
"-60.14","47.23","ST PAUL ISLAND (AUT)","8204909","2018-01-02 09:00","2018","01","02","09:00","-3.9","","-7.0","","79","","","M","26","","41","","","","100.55","","","","-13","","NA"
"-60.14","47.23","ST PAUL ISLAND (AUT)","8204909","2018-01-02 10:00","2018","01","02","10:00","-4.1","","-6.9","","81","","","M","25","","46","","","","100.57","","","","-13","","NA"
"-60.14","47.23","ST PAUL ISLAND (AUT)","8204909","2018-01-02 11:00","2018","01","02","11:00","-4.7","","-8.6","","75","","","M","25","","49","","","","100.53","","","","-14","","NA"
"-60.14","47.23","ST PAUL ISLAND (AUT)","8204909","2018-01-02 12:00","2018","01","02","12:00","-5.0","","-8.1","","79","","","M","25","","52","","","","100.49","","","","-15","","NA"
"-60.14","47.23","ST PAUL ISLAND (AUT)","8204909","2018-01-02 13:00","2018","01","02","13:00","-5.5","","-9.1","","76","","","M","25","","52","","","","100.43","","","","-16","","NA"
"-60.14","47.23","ST PAUL ISLAND (AUT)","8204909","2018-01-02 14:00","2018","01","02","14:00","-5.6","","-8.4","","81","","","M","25","","51","","","","100.39","","","","-16","","NA"
"-60.14","47.23","ST PAUL ISLAND (AUT)","8204909","2018-01-02 15:00","2018","01","02","15:00","-5.6","","-8.8","","78","","","M","26","","46","","","","100.41","","","","-15","","NA"
"-60.14","47.23","ST PAUL ISLAND (AUT)","8204909","2018-01-02 16:00","2018","01","02","16:00","-6.2","","-9.0","","81","","","M","25","","53","","","","100.39","","","","-17","","NA"
"-60.14","47.23","ST PAUL ISLAND (AUT)","8204909","2018-01-02 17:00","2018","01","02","17:00","-6.4","","-8.8","","83","","","M","25","","55","","","","100.44","","","","-17","","NA"
"-60.14","47.23","ST PAUL ISLAND (AUT)","8204909","2018-01-02 18:00","2018","01","02","18:00","-6.5","","-8.8","","84","","","M","25","","53","","","","100.48","","","","-17","","NA"
"-60.14","47.23","ST PAUL ISLAND (AUT)","8204909","2018-01-02 19:00","2018","01","02","19:00","-6.3","","-8.4","","85","","","M","25","","54","","","","100.50","","","","-17","","NA"
"-60.14","47.23","ST PAUL ISLAND (AUT)","8204909","2018-01-02 20:00","2018","01","02","20:00","-6.4","","-8.7","","84","","","M","25","","58","","","","100.53","","","","-17","","NA"
"-60.14","47.23","ST PAUL ISLAND (AUT)","8204909","2018-01-02 21:00","2018","01","02","21:00","-6.4","","-7.8","","89","","","M","24","","63","","","","100.51","","","","-18","","NA"
"-60.14","47.23","ST PAUL ISLAND (AUT)","8204909","2018-01-02 22:00","2018","01","02","22:00","-6.2","","-7.6","","90","","","M","24","","62","","","","100.51","","","","-17","","NA"
"-60.14","47.23","ST PAUL ISLAND (AUT)","8204909","2018-01-02 23:00","2018","01","02","23:00","-5.5","","-7.4","","86","","","M","25","","62","","","","100.52","","","","-17","","NA"
"-60.14","47.23","ST PAUL ISLAND (AUT)","8204909","2018-01-03 00:00","2018","01","03","00:00","-5.5","","-7.6","","85","","","M","25","","62","","","","100.54","","","","-17","","NA"
"-60.14","47.23","ST PAUL ISLAND (AUT)","8204909","2018-01-03 01:00","2018","01","03","01:00","-6.1","","-8.3","","84","","","M","25","","65","","","","100.60","","","","-18","","NA"
"-60.14","47.23","ST PAUL ISLAND (AUT)","8204909","2018-01-03 02:00","2018","01","03","02:00","-6.4","","-8.9","","82","","","M","26","","69","","","","100.69","","","","-18","","NA"
"-60.14","47.23","ST PAUL ISLAND (AUT)","8204909","2018-01-03 03:00","2018","01","03","03:00","-6.6","","-9.0","","83","","","M","25","","65","","","","100.82","","","","-18","","NA"
"-60.14","47.23","ST PAUL ISLAND (AUT)","8204909","2018-01-03 04:00","2018","01","03","04:00","-7.2","","-9.7","","82","","","M","25","","64","","","","100.90","","","","-19","","NA"
"-60.14","47.23","ST PAUL ISLAND (AUT)","8204909","2018-01-03 05:00","2018","01","03","05:00","-7.3","","-9.8","","82","","","M","25","","64","","","","101.00","","","","-19","","NA"
"-60.14","47.23","ST PAUL ISLAND (AUT)","8204909","2018-01-03 06:00","2018","01","03","06:00","-7.6","","-10.4","","80","","","M","25","","62","","","","101.13","","","","-19","","NA"
"-60.14","47.23","ST PAUL ISLAND (AUT)","8204909","2018-01-03 07:00","2018","01","03","07:00","-7.3","","-10.0","","82","","","M","25","","62","","","","101.21","","","","-19","","NA"
"-60.14","47.23","ST PAUL ISLAND (AUT)","8204909","2018-01-03 08:00","2018","01","03","08:00","-6.9","","-9.3","","83","","","M","25","","59","","","","101.35","","","","-18","","NA"
"-60.14","47.23","ST PAUL ISLAND (AUT)","8204909","2018-01-03 09:00","2018","01","03","09:00","-7.4","","-10.5","","79","","","M","26","","53","","","","101.53","","","","-18","","NA"
"-60.14","47.23","ST PAUL ISLAND (AUT)","8204909","2018-01-03 10:00","2018","01","03","10:00","-6.7","","-10.0","","78","","","M","26","","57","","","","101.60","","","","-18","","NA"
"-60.14","47.23","ST PAUL ISLAND (AUT)","8204909","2018-01-03 11:00","2018","01","03","11:00","-6.5","","-8.7","","84","","","M","26","","55","","","","101.69","","","","-17","","NA"
"-60.14","47.23","ST PAUL ISLAND (AUT)","8204909","2018-01-03 12:00","2018","01","03","12:00","-7.2","","-9.0","","87","","","M","25","","54","","","","101.75","","","","-18","","NA"
"-60.14","47.23","ST PAUL ISLAND (AUT)","8204909","2018-01-03 13:00","2018","01","03","13:00","-6.9","","-10.2","","78","","","M","25","","49","","","","101.81","","","","-17","","NA"
"-60.14","47.23","ST PAUL ISLAND (AUT)","8204909","2018-01-03 14:00","2018","01","03","14:00","-6.8","","-9.9","","79","","","M","26","","46","","","","101.86","","","","-17","","NA"
"-60.14","47.23","ST PAUL ISLAND (AUT)","8204909","2018-01-03 15:00","2018","01","03","15:00","-7.1","","-9.3","","84","","","M","25","","44","","","","101.98","","","","-17","","NA"
"-60.14","47.23","ST PAUL ISLAND (AUT)","8204909","2018-01-03 16:00","2018","01","03","16:00","-6.5","","-9.0","","83","","","M","24","","47","","","","102.13","","","","-17","","NA"
"-60.14","47.23","ST PAUL ISLAND (AUT)","8204909","2018-01-03 17:00","2018","01","03","17:00"
"-60.14","47.23","ST PAUL ISLAND (AUT)","8204909","2018-01-03 18:00","2018","01","03","18:00"
"-60.14","47.23","ST PAUL ISLAND (AUT)","8204909","2018-01-03 19:00","2018","01","03","19:00"
"-60.14","47.23","ST PAUL ISLAND (AUT)","8204909","2018-01-03 20:00","2018","01","03","20:00","-6.0","","-10.0","","74","","","M","25","","46","","","","102.38","","","","-16","","NA"
"-60.14","47.23","ST PAUL ISLAND (AUT)","8204909","2018-01-03 21:00","2018","01","03","21:00","-5.6","","-9.7","","73","","","M","25","","45","","","","102.44","","","","-15","","NA"
"-60.14","47.23","ST PAUL ISLAND (AUT)","8204909","2018-01-03 22:00","2018","01","03","22:00","-5.1","","-9.5","","71","","","M","25","","39","","","","102.50","","","","-14","","NA"
"-60.14","47.23","ST PAUL ISLAND (AUT)","8204909","2018-01-03 23:00","2018","01","03","23:00","-5.1","","-9.1","","73","","","M","23","","30","","","","102.54","","","","-13","","NA"
"-60.14","47.23","ST PAUL ISLAND (AUT)","8204909","2018-01-04 00:00","2018","01","04","00:00","-4.9","","-8.8","","74","","","M","21","","24","","","","102.59","","","","-12","","NA"
"-60.14","47.23","ST PAUL ISLAND (AUT)","8204909","2018-01-04 01:00","2018","01","04","01:00","-4.8","","-8.9","","73","","","M","21","","30","","","","102.73","","","","-13","","NA"
"-60.14","47.23","ST PAUL ISLAND (AUT)","8204909","2018-01-04 02:00","2018","01","04","02:00"
"-60.14","47.23","ST PAUL ISLAND (AUT)","8204909","2018-01-04 03:00","2018","01","04","03:00"
"-60.14","47.23","ST PAUL ISLAND (AUT)","8204909","2018-01-04 04:00","2018","01","04","04:00","-3.5","","-9.3","","64","","","M","16","","11","","","","102.55","","","","-8","","NA"
"-60.14","47.23","ST PAUL ISLAND (AUT)","8204909","2018-01-04 05:00","2018","01","04","05:00","-3.1","","-7.7","","70","","","M","17","","33","","","","102.54","","","","-11","","NA"
"-60.14","47.23","ST PAUL ISLAND (AUT)","8204909","2018-01-04 06:00","2018","01","04","06:00","-2.2","","-7.4","","68","","","M","16","","33","","","","102.50","","","","-10","","NA"
"-60.14","47.23","ST PAUL ISLAND (AUT)","8204909","2018-01-04 07:00","2018","01","04","07:00","-1.8","","-5.9","","73","","","M","16","","32","","","","102.46","","","","-9","","NA"
"-60.14","47.23","ST PAUL ISLAND (AUT)","8204909","2018-01-04 08:00","2018","01","04","08:00","-1.5","","-5.5","","74","","","M","15","","36","","","","102.41","","","","-9","","NA"
"-60.14","47.23","ST PAUL ISLAND (AUT)","8204909","2018-01-04 09:00","2018","01","04","09:00","-0.9","","-4.9","","75","","","M","14","","36","","","","102.40","","","","-8","","NA"
"-60.14","47.23","ST PAUL ISLAND (AUT)","8204909","2018-01-04 10:00","2018","01","04","10:00","-0.6","","-4.3","","76","","","M","13","","52","","","","102.22","","","","-9","","NA"
"-60.14","47.23","ST PAUL ISLAND (AUT)","8204909","2018-01-04 11:00","2018","01","04","11:00","-0.4","","-3.5","","79","","","M","12","","53","","","","101.98","","","","-9","","NA"
"-60.14","47.23","ST PAUL ISLAND (AUT)","8204909","2018-01-04 12:00","2018","01","04","12:00","0.0","","-2.5","","83","","","M","12","","61","","","","101.65","","","","-9","","NA"
"-60.14","47.23","ST PAUL ISLAND (AUT)","8204909","2018-01-04 13:00","2018","01","04","13:00","0.4","","-2.1","","84","","","M","12","","63","","","","101.46","","","","","","NA"
"-60.14","47.23","ST PAUL ISLAND (AUT)","8204909","2018-01-04 14:00","2018","01","04","14:00","0.5","","-2.1","","83","","","M","12","","64","","","","101.27","","","","","","NA"
"-60.14","47.23","ST PAUL ISLAND (AUT)","8204909","2018-01-04 15:00","2018","01","04","15:00","-0.4","","-2.1","","88","","","M","11","","70","","","","101.00","","","","-10","","NA"
"-60.14","47.23","ST PAUL ISLAND (AUT)","8204909","2018-01-04 16:00","2018","01","04","16:00","-1.0","","-1.7","","95","","","M","11","","73","","","","100.85","","","","-11","","NA"
"-60.14","47.23","ST PAUL ISLAND (AUT)","8204909","2018-01-04 17:00","2018","01","04","17:00","-1.0","","-1.5","","96","","","M","11","","75","","","","100.55","","","","-11","","NA"
"-60.14","47.23","ST PAUL ISLAND (AUT)","8204909","2018-01-04 18:00","2018","01","04","18:00","-1.0","","-1.4","","97","","","M","10","","85","","","","100.02","","","","-11","","NA"
"-60.14","47.23","ST PAUL ISLAND (AUT)","8204909","2018-01-04 19:00","2018","01","04","19:00","-1.2","","-1.6","","97","","","M","10","","92","","","","99.64","","","","-12","","NA"
"-60.14","47.23","ST PAUL ISLAND (AUT)","8204909","2018-01-04 20:00","2018","01","04","20:00","-1.1","","-1.5","","97","","","M","10","","88","","","","99.11","","","","-12","","NA"
"-60.14","47.23","ST PAUL ISLAND (AUT)","8204909","2018-01-04 21:00","2018","01","04","21:00","-0.6","","-1.0","","97","","","M","11","","78","","","","98.93","","","","-11","","NA"
"-60.14","47.23","ST PAUL ISLAND (AUT)","8204909","2018-01-04 22:00","2018","01","04","22:00"
"-60.14","47.23","ST PAUL ISLAND (AUT)","8204909","2018-01-04 23:00","2018","01","04","23:00","1.2","","0.5","","95","","","M","11","","105","","","","98.20","","","","","","NA"
"-60.14","47.23","ST PAUL ISLAND (AUT)","8204909","2018-01-05 00:00","2018","01","05","00:00","1.7","","1.0","","95","","","M","11","","83","","","","98.03","","","","","","NA"
"-60.14","47.23","ST PAUL ISLAND (AUT)","8204909","2018-01-05 01:00","2018","01","05","01:00","2.0","","1.3","","95","","","M","11","","75","","","","97.77","","","","","","NA"
"-60.14","47.23","ST PAUL ISLAND (AUT)","8204909","2018-01-05 02:00","2018","01","05","02:00","3.1","","2.5","","96","","","M","13","","67","","","","97.60","","","","","","NA"
"-60.14","47.23","ST PAUL ISLAND (AUT)","8204909","2018-01-05 03:00","2018","01","05","03:00","3.8","","3.2","","96","","","M","13","","56","","","","97.48","","","","","","NA"
"-60.14","47.23","ST PAUL ISLAND (AUT)","8204909","2018-01-05 04:00","2018","01","05","04:00","4.4","","3.7","","95","","","M","15","","50","","","","97.38","","","","","","NA"
"-60.14","47.23","ST PAUL ISLAND (AUT)","8204909","2018-01-05 05:00","2018","01","05","05:00","4.4","","3.5","","93","","","M","15","","56","","","","97.13","","","","","","NA"
"-60.14","47.23","ST PAUL ISLAND (AUT)","8204909","2018-01-05 06:00","2018","01","05","06:00","3.9","","2.4","","90","","","M","17","","51","","","","97.08","","","","","","NA"
"-60.14","47.23","ST PAUL ISLAND (AUT)","8204909","2018-01-05 07:00","2018","01","05","07:00","4.7","","2.0","","83","","","M","17","","44","","","","97.11","","","","","","NA"
"-60.14","47.23","ST PAUL ISLAND (AUT)","8204909","2018-01-05 08:00","2018","01","05","08:00","3.9","","0.0","","76","","","M","18","","45","","","","97.02","","","","","","NA"
"-60.14","47.23","ST PAUL ISLAND (AUT)","8204909","2018-01-05 09:00","2018","01","05","09:00","2.9","","-0.3","","79","","","M","20","","47","","","","97.18","","","","","","NA"
"-60.14","47.23","ST PAUL ISLAND (AUT)","8204909","2018-01-05 10:00","2018","01","05","10:00","2.2","","-0.2","","84","","","M","18","","35","","","","97.34","","","","","","NA"
"-60.14","47.23","ST PAUL ISLAND (AUT)","8204909","2018-01-05 11:00","2018","01","05","11:00","3.6","","-0.9","","73","","","M","20","","33","","","","97.46","","","","","","NA"
"-60.14","47.23","ST PAUL ISLAND (AUT)","8204909","2018-01-05 12:00","2018","01","05","12:00","4.0","","-2.2","","64","","","M","21","","36","","","","97.48","","","","","","NA"
"-60.14","47.23","ST PAUL ISLAND (AUT)","8204909","2018-01-05 13:00","2018","01","05","13:00","3.8","","-2.9","","62","","","M","21","","41","","","","97.53","","","","","","NA"
"-60.14","47.23","ST PAUL ISLAND (AUT)","8204909","2018-01-05 14:00","2018","01","05","14:00","3.3","","-3.7","","60","","","M","21","","49","","","","97.61","","","","","","NA"
"-60.14","47.23","ST PAUL ISLAND (AUT)","8204909","2018-01-05 15:00","2018","01","05","15:00","2.7","","-3.5","","64","","","M","21","","39","","","","97.71","","","","","","NA"
"-60.14","47.23","ST PAUL ISLAND (AUT)","8204909","2018-01-05 16:00","2018","01","05","16:00","2.1","","-4.0","","64","","","M","22","","52","","","","97.78","","","","","","NA"
"-60.14","47.23","ST PAUL ISLAND (AUT)","8204909","2018-01-05 17:00","2018","01","05","17:00","1.2","","-3.1","","73","","","M","24","","33","","","","97.85","","","","","","NA"
"-60.14","47.23","ST PAUL ISLAND (AUT)","8204909","2018-01-05 18:00","2018","01","05","18:00","0.7","","-3.3","","74","","","M","24","","38","","","","97.92","","","","","","NA"
"-60.14","47.23","ST PAUL ISLAND (AUT)","8204909","2018-01-05 19:00","2018","01","05","19:00","-0.1","","-3.5","","78","","","M","25","","48","","","","97.96","","","","-8","","NA"
"-60.14","47.23","ST PAUL ISLAND (AUT)","8204909","2018-01-05 20:00","2018","01","05","20:00","-0.6","","-3.5","","81","","","M","24","","46","","","","97.99","","","","-9","","NA"
"-60.14","47.23","ST PAUL ISLAND (AUT)","8204909","2018-01-05 21:00","2018","01","05","21:00","-0.3","","-4.2","","75","","","M","22","","40","","","","97.96","","","","-8","","NA"
"-60.14","47.23","ST PAUL ISLAND (AUT)","8204909","2018-01-05 22:00","2018","01","05","22:00","-1.0","","-3.7","","82","","","M","23","","39","","","","98.02","","","","-9","","NA"
"-60.14","47.23","ST PAUL ISLAND (AUT)","8204909","2018-01-05 23:00","2018","01","05","23:00","-0.5","","-6.8","","62","","","M","23","","55","","","","97.97","","","","-9","","NA"
"-60.14","47.23","ST PAUL ISLAND (AUT)","8204909","2018-01-06 00:00","2018","01","06","00:00","-1.1","","-5.9","","70","","","M","23","","52","","","","97.95","","","","-10","","NA"
"-60.14","47.23","ST PAUL ISLAND (AUT)","8204909","2018-01-06 01:00","2018","01","06","01:00","-3.9","","-4.8","","94","","","M","25","","53","","","","97.98","","","","-14","","NA"
"-60.14","47.23","ST PAUL ISLAND (AUT)","8204909","2018-01-06 02:00","2018","01","06","02:00","-4.3","","-5.8","","89","","","M","24","","68","","","","97.99","","","","-15","","NA"
"-60.14","47.23","ST PAUL ISLAND (AUT)","8204909","2018-01-06 03:00","2018","01","06","03:00","-5.3","","-6.5","","91","","","M","25","","66","","","","98.08","","","","-17","","NA"
"-60.14","47.23","ST PAUL ISLAND (AUT)","8204909","2018-01-06 04:00","2018","01","06","04:00","-6.7","","-7.8","","92","","","M","25","","69","","","","98.09","","","","-19","","NA"
"-60.14","47.23","ST PAUL ISLAND (AUT)","8204909","2018-01-06 05:00","2018","01","06","05:00","-7.7","","-10.0","","84","","","M","24","","76","","","","98.18","","","","-21","","NA"
"-60.14","47.23","ST PAUL ISLAND (AUT)","8204909","2018-01-06 06:00","2018","01","06","06:00","-8.8","","-11.2","","82","","","M","25","","81","","","","98.28","","","","-22","","NA"
"-60.14","47.23","ST PAUL ISLAND (AUT)","8204909","2018-01-06 07:00","2018","01","06","07:00","-9.1","","-11.8","","81","","","M","24","","91","","","","98.32","","","","-23","","NA"
"-60.14","47.23","ST PAUL ISLAND (AUT)","8204909","2018-01-06 08:00","2018","01","06","08:00","-9.7","","-12.0","","83","","","M","24","","67","","","","98.47","","","","-23","","NA"
"-60.14","47.23","ST PAUL ISLAND (AUT)","8204909","2018-01-06 09:00","2018","01","06","09:00","-9.9","","-12.1","","84","","","M","24","","74","","","","98.52","","","","-23","","NA"
"-60.14","47.23","ST PAUL ISLAND (AUT)","8204909","2018-01-06 10:00","2018","01","06","10:00","-10.9","","-13.3","","82","","","M","24","","82","","","","98.57","","","","-25","","NA"
"-60.14","47.23","ST PAUL ISLAND (AUT)","8204909","2018-01-06 11:00","2018","01","06","11:00","-11.3","","-13.8","","82","","","M","24","","82","","","","98.60","","","","-26","","NA"
"-60.14","47.23","ST PAUL ISLAND (AUT)","8204909","2018-01-06 12:00","2018","01","06","12:00","-11.6","","-13.9","","83","","","M","24","","91","","","","98.57","","","","-27","","NA"
"-60.14","47.23","ST PAUL ISLAND (AUT)","8204909","2018-01-06 13:00","2018","01","06","13:00","-12.1","","-14.1","","84","","","M","24","","86","","","","98.60","","","","-27","","NA"
"-60.14","47.23","ST PAUL ISLAND (AUT)","8204909","2018-01-06 14:00","2018","01","06","14:00","-12.7","","-14.7","","85","","","M","25","","77","","","","98.67","","","","-28","","NA"
"-60.14","47.23","ST PAUL ISLAND (AUT)","8204909","2018-01-06 15:00","2018","01","06","15:00","-12.6","","-14.2","","87","","","M","24","","76","","","","98.71","","","","-27","","NA"
"-60.14","47.23","ST PAUL ISLAND (AUT)","8204909","2018-01-06 16:00","2018","01","06","16:00","-11.2","","-12.9","","88","","","M","24","","75","","","","98.87","","","","-25","","NA"
"-60.14","47.23","ST PAUL ISLAND (AUT)","8204909","2018-01-06 17:00","2018","01","06","17:00","-11.7","","-13.2","","89","","","M","25","","79","","","","98.85","","","","-26","","NA"
"-60.14","47.23","ST PAUL ISLAND (AUT)","8204909","2018-01-06 18:00","2018","01","06","18:00","-11.1","","-13.0","","86","","","M","25","","83","","","","98.93","","","","-26","","NA"
"-60.14","47.23","ST PAUL ISLAND (AUT)","8204909","2018-01-06 19:00","2018","01","06","19:00","-10.9","","-13.2","","83","","","M","25","","76","","","","99.04","","","","-25","","NA"
"-60.14","47.23","ST PAUL ISLAND (AUT)","8204909","2018-01-06 20:00","2018","01","06","20:00","-10.6","","-13.1","","82","","","M","26","","70","","","","99.19","","","","-24","","NA"
"-60.14","47.23","ST PAUL ISLAND (AUT)","8204909","2018-01-06 21:00","2018","01","06","21:00","-10.1","","-12.5","","82","","","M","25","","72","","","","99.22","","","","-24","","NA"
"-60.14","47.23","ST PAUL ISLAND (AUT)","8204909","2018-01-06 22:00","2018","01","06","22:00","-10.2","","-12.2","","85","","","M","26","","73","","","","99.24","","","","-24","","NA"
"-60.14","47.23","ST PAUL ISLAND (AUT)","8204909","2018-01-06 23:00","2018","01","06","23:00","-9.4","","-11.0","","88","","","M","26","","68","","","","99.35","","","","-22","","NA"
"-60.14","47.23","ST PAUL ISLAND (AUT)","8204909","2018-01-07 00:00","2018","01","07","00:00","-9.4","","-11.7","","83","","","M","25","","64","","","","99.39","","","","-22","","NA"
"-60.14","47.23","ST PAUL ISLAND (AUT)","8204909","2018-01-07 01:00","2018","01","07","01:00","-9.0","","-11.5","","82","","","M","26","","69","","","","99.38","","","","-22","","NA"
"-60.14","47.23","ST PAUL ISLAND (AUT)","8204909","2018-01-07 02:00","2018","01","07","02:00","-8.6","","-11.1","","82","","","M","25","","71","","","","99.41","","","","-21","","NA"
"-60.14","47.23","ST PAUL ISLAND (AUT)","8204909","2018-01-07 03:00","2018","01","07","03:00","-8.4","","-10.1","","88","","","M","26","","71","","","","99.47","","","","-21","","NA"
"-60.14","47.23","ST PAUL ISLAND (AUT)","8204909","2018-01-07 04:00","2018","01","07","04:00","-8.3","","-9.9","","88","","","M","28","","59","","","","99.58","","","","-20","","NA"
"-60.14","47.23","ST PAUL ISLAND (AUT)","8204909","2018-01-07 05:00","2018","01","07","05:00","-8.4","","-10.3","","86","","","M","28","","60","","","","99.65","","","","-20","","NA"
"-60.14","47.23","ST PAUL ISLAND (AUT)","8204909","2018-01-07 06:00","2018","01","07","06:00","-8.8","","-10.0","","91","","","M","28","","67","","","","99.68","","","","-21","","NA"
"-60.14","47.23","ST PAUL ISLAND (AUT)","8204909","2018-01-07 07:00","2018","01","07","07:00","-8.4","","-10.5","","85","","","M","27","","68","","","","99.79","","","","-21","","NA"
"-60.14","47.23","ST PAUL ISLAND (AUT)","8204909","2018-01-07 08:00","2018","01","07","08:00","-9.2","","-11.3","","84","","","M","27","","62","","","","99.91","","","","-22","","NA"
"-60.14","47.23","ST PAUL ISLAND (AUT)","8204909","2018-01-07 09:00","2018","01","07","09:00","-9.3","","-11.2","","86","","","M","26","","70","","","","99.94","","","","-22","","NA"
"-60.14","47.23","ST PAUL ISLAND (AUT)","8204909","2018-01-07 10:00","2018","01","07","10:00","-10.2","","-11.6","","89","","","M","26","","80","","","","99.92","","","","-24","","NA"
"-60.14","47.23","ST PAUL ISLAND (AUT)","8204909","2018-01-07 11:00","2018","01","07","11:00","-10.3","","-11.9","","88","","","M","26","","72","","","","99.98","","","","-24","","NA"
"-60.14","47.23","ST PAUL ISLAND (AUT)","8204909","2018-01-07 12:00","2018","01","07","12:00","-9.7","","-11.0","","90","","","M","26","","69","","","","100.00","","","","-23","","NA"
"-60.14","47.23","ST PAUL ISLAND (AUT)","8204909","2018-01-07 13:00","2018","01","07","13:00","-9.9","","-11.6","","87","","","M","30","","63","","","","100.02","","","","-23","","NA"
"-60.14","47.23","ST PAUL ISLAND (AUT)","8204909","2018-01-07 14:00","2018","01","07","14:00","-9.3","","-12.2","","80","","","M","29","","62","","","","100.10","","","","-22","","NA"
"-60.14","47.23","ST PAUL ISLAND (AUT)","8204909","2018-01-07 15:00","2018","01","07","15:00","-9.7","","-11.7","","85","","","M","29","","75","","","","100.10","","","","-23","","NA"
"-60.14","47.23","ST PAUL ISLAND (AUT)","8204909","2018-01-07 16:00","2018","01","07","16:00","-9.4","","-11.7","","83","","","M","28","","84","","","","100.24","","","","-23","","NA"
"-60.14","47.23","ST PAUL ISLAND (AUT)","8204909","2018-01-07 17:00","2018","01","07","17:00","-9.3","","-11.9","","81","","","M","28","","82","","","","100.32","","","","-23","","NA"
"-60.14","47.23","ST PAUL ISLAND (AUT)","8204909","2018-01-07 18:00","2018","01","07","18:00","-9.2","","-10.7","","89","","","M","29","","80","","","","100.37","","","","-23","","NA"
"-60.14","47.23","ST PAUL ISLAND (AUT)","8204909","2018-01-07 19:00","2018","01","07","19:00","-8.5","","-9.5","","93","","","M","29","","78","","","","100.50","","","","-22","","NA"
"-60.14","47.23","ST PAUL ISLAND (AUT)","8204909","2018-01-07 20:00","2018","01","07","20:00","-8.2","","-9.5","","90","","","M","30","","80","","","","100.55","","","","-21","","NA"
"-60.14","47.23","ST PAUL ISLAND (AUT)","8204909","2018-01-07 21:00","2018","01","07","21:00","-7.7","","-9.0","","90","","","M","29","","81","","","","100.54","","","","-21","","NA"
"-60.14","47.23","ST PAUL ISLAND (AUT)","8204909","2018-01-07 22:00","2018","01","07","22:00","-7.6","","-9.6","","86","","","M","28","","85","","","","100.62","","","","-21","","NA"
"-60.14","47.23","ST PAUL ISLAND (AUT)","8204909","2018-01-07 23:00","2018","01","07","23:00","-7.8","","-10.0","","85","","","M","28","","83","","","","100.72","","","","-21","","NA"
"-60.14","47.23","ST PAUL ISLAND (AUT)","8204909","2018-01-08 00:00","2018","01","08","00:00","-7.5","","-9.5","","85","","","M","28","","77","","","","100.77","","","","-20","","NA"
"-60.14","47.23","ST PAUL ISLAND (AUT)","8204909","2018-01-08 01:00","2018","01","08","01:00","-7.5","","-9.2","","88","","","M","28","","72","","","","100.87","","","","-20","","NA"
"-60.14","47.23","ST PAUL ISLAND (AUT)","8204909","2018-01-08 02:00","2018","01","08","02:00","-7.1","","-8.9","","87","","","M","26","","76","","","","100.96","","","","-20","","NA"
"-60.14","47.23","ST PAUL ISLAND (AUT)","8204909","2018-01-08 03:00","2018","01","08","03:00","-7.7","","-9.1","","90","","","M","26","","70","","","","101.02","","","","-20","","NA"
"-60.14","47.23","ST PAUL ISLAND (AUT)","8204909","2018-01-08 04:00","2018","01","08","04:00","-7.5","","-9.1","","88","","","M","27","","62","","","","101.09","","","","-19","","NA"
"-60.14","47.23","ST PAUL ISLAND (AUT)","8204909","2018-01-08 05:00","2018","01","08","05:00","-7.1","","-9.0","","87","","","M","26","","67","","","","101.04","","","","-19","","NA"
"-60.14","47.23","ST PAUL ISLAND (AUT)","8204909","2018-01-08 06:00","2018","01","08","06:00","-7.1","","-9.1","","85","","","M","26","","60","","","","101.08","","","","-19","","NA"
"-60.14","47.23","ST PAUL ISLAND (AUT)","8204909","2018-01-08 07:00","2018","01","08","07:00","-6.6","","-8.8","","84","","","M","27","","61","","","","101.08","","","","-18","","NA"
"-60.14","47.23","ST PAUL ISLAND (AUT)","8204909","2018-01-08 08:00","2018","01","08","08:00","-6.6","","-9.0","","83","","","M","26","","58","","","","101.11","","","","-18","","NA"
"-60.14","47.23","ST PAUL ISLAND (AUT)","8204909","2018-01-08 09:00","2018","01","08","09:00","-6.7","","-10.1","","77","","","M","26","","53","","","","101.15","","","","-18","","NA"
"-60.14","47.23","ST PAUL ISLAND (AUT)","8204909","2018-01-08 10:00","2018","01","08","10:00","-7.2","","-10.5","","77","","","M","26","","54","","","","101.18","","","","-18","","NA"
"-60.14","47.23","ST PAUL ISLAND (AUT)","8204909","2018-01-08 11:00","2018","01","08","11:00","-7.2","","-8.4","","92","","","M","28","","48","","","","101.17","","","","-18","","NA"
"-60.14","47.23","ST PAUL ISLAND (AUT)","8204909","2018-01-08 12:00","2018","01","08","12:00","-7.0","","-10.1","","79","","","M","28","","49","","","","101.14","","","","-18","","NA"
"-60.14","47.23","ST PAUL ISLAND (AUT)","8204909","2018-01-08 13:00","2018","01","08","13:00","-7.0","","-10.2","","78","","","M","28","","42","","","","101.11","","","","-17","","NA"
"-60.14","47.23","ST PAUL ISLAND (AUT)","8204909","2018-01-08 14:00","2018","01","08","14:00","-7.2","","-10.7","","76","","","M","29","","40","","","","101.14","","","","-17","","NA"
"-60.14","47.23","ST PAUL ISLAND (AUT)","8204909","2018-01-08 15:00","2018","01","08","15:00","-6.8","","-10.0","","78","","","M","29","","42","","","","101.20","","","","-17","","NA"
"-60.14","47.23","ST PAUL ISLAND (AUT)","8204909","2018-01-08 16:00","2018","01","08","16:00"
"-60.14","47.23","ST PAUL ISLAND (AUT)","8204909","2018-01-08 17:00","2018","01","08","17:00","-6.9","","-9.5","","82","","","M","28","","37","","","","101.36","","","","-16","","NA"
"-60.14","47.23","ST PAUL ISLAND (AUT)","8204909","2018-01-08 18:00","2018","01","08","18:00","-6.7","","-9.6","","80","","","M","28","","35","","","","101.41","","","","-16","","NA"
"-60.14","47.23","ST PAUL ISLAND (AUT)","8204909","2018-01-08 19:00","2018","01","08","19:00","-6.7","","-10.0","","78","","","M","28","","35","","","","101.45","","","","-16","","NA"
"-60.14","47.23","ST PAUL ISLAND (AUT)","8204909","2018-01-08 20:00","2018","01","08","20:00","-6.4","","-9.3","","80","","","M","28","","33","","","","101.47","","","","-15","","NA"
"-60.14","47.23","ST PAUL ISLAND (AUT)","8204909","2018-01-08 21:00","2018","01","08","21:00","-6.5","","-10.0","","76","","","M","28","","28","","","","101.41","","","","-15","","NA"
"-60.14","47.23","ST PAUL ISLAND (AUT)","8204909","2018-01-08 22:00","2018","01","08","22:00","-6.5","","-9.4","","80","","","M","25","","15","","","","101.36","","","","-12","","NA"
"-60.14","47.23","ST PAUL ISLAND (AUT)","8204909","2018-01-08 23:00","2018","01","08","23:00","-6.6","","-10.0","","77","","","M","19","","10","","","","101.33","","","","-11","","NA"
"-60.14","47.23","ST PAUL ISLAND (AUT)","8204909","2018-01-09 00:00","2018","01","09","00:00","-6.2","","-9.9","","75","","","M","18","","15","","","","101.25","","","","-12","","NA"
"-60.14","47.23","ST PAUL ISLAND (AUT)","8204909","2018-01-09 01:00","2018","01","09","01:00","-6.5","","-7.5","","92","","","M","17","","23","","","","101.11","","","","-14","","NA"
"-60.14","47.23","ST PAUL ISLAND (AUT)","8204909","2018-01-09 02:00","2018","01","09","02:00","-6.0","","-7.0","","93","","","M","17","","37","","","","100.98","","","","-15","","NA"
"-60.14","47.23","ST PAUL ISLAND (AUT)","8204909","2018-01-09 03:00","2018","01","09","03:00","-5.4","","-6.2","","94","","","M","16","","42","","","","100.81","","","","-15","","NA"
"-60.14","47.23","ST PAUL ISLAND (AUT)","8204909","2018-01-09 04:00","2018","01","09","04:00","-4.3","","-5.1","","95","","","M","16","","49","","","","100.57","","","","-14","","NA"
"-60.14","47.23","ST PAUL ISLAND (AUT)","8204909","2018-01-09 05:00","2018","01","09","05:00","-3.2","","-3.9","","95","","","M","16","","47","","","","100.45","","","","-12","","NA"
"-60.14","47.23","ST PAUL ISLAND (AUT)","8204909","2018-01-09 06:00","2018","01","09","06:00","-2.4","","-3.0","","96","","","M","16","","40","","","","100.32","","","","-11","","NA"
"-60.14","47.23","ST PAUL ISLAND (AUT)","8204909","2018-01-09 07:00","2018","01","09","07:00","-1.7","","-2.3","","96","","","M","16","","33","","","","100.16","","","","-9","","NA"
"-60.14","47.23","ST PAUL ISLAND (AUT)","8204909","2018-01-09 08:00","2018","01","09","08:00"
"-60.14","47.23","ST PAUL ISLAND (AUT)","8204909","2018-01-09 09:00","2018","01","09","09:00","-0.9","","-1.4","","97","","","M","24","","27","","","","100.06","","","","-7","","NA"
"-60.14","47.23","ST PAUL ISLAND (AUT)","8204909","2018-01-09 10:00","2018","01","09","10:00","-1.9","","-2.7","","95","","","M","26","","49","","","","100.02","","","","-11","","NA"
"-60.14","47.23","ST PAUL ISLAND (AUT)","8204909","2018-01-09 11:00","2018","01","09","11:00","-2.7","","-3.8","","92","","","M","26","","50","","","","100.00","","","","-12","","NA"
"-60.14","47.23","ST PAUL ISLAND (AUT)","8204909","2018-01-09 12:00","2018","01","09","12:00","-2.9","","-4.3","","90","","","M","26","","47","","","","99.95","","","","-12","","NA"
"-60.14","47.23","ST PAUL ISLAND (AUT)","8204909","2018-01-09 13:00","2018","01","09","13:00","-2.9","","-4.4","","89","","","M","27","","44","","","","99.87","","","","-12","","NA"
"-60.14","47.23","ST PAUL ISLAND (AUT)","8204909","2018-01-09 14:00","2018","01","09","14:00","-2.8","","-4.2","","90","","","M","27","","39","","","","99.82","","","","-11","","NA"
"-60.14","47.23","ST PAUL ISLAND (AUT)","8204909","2018-01-09 15:00","2018","01","09","15:00","-2.8","","-4.2","","90","","","M","27","","41","","","","99.76","","","","-11","","NA"
"-60.14","47.23","ST PAUL ISLAND (AUT)","8204909","2018-01-09 16:00","2018","01","09","16:00","-2.8","","-4.5","","88","","","M","27","","43","","","","99.76","","","","-11","","NA"
"-60.14","47.23","ST PAUL ISLAND (AUT)","8204909","2018-01-09 17:00","2018","01","09","17:00","-3.0","","-4.7","","88","","","M","27","","46","","","","99.78","","","","-12","","NA"
"-60.14","47.23","ST PAUL ISLAND (AUT)","8204909","2018-01-09 18:00","2018","01","09","18:00","-3.2","","-4.9","","88","","","M","27","","48","","","","99.78","","","","-12","","NA"
"-60.14","47.23","ST PAUL ISLAND (AUT)","8204909","2018-01-09 19:00","2018","01","09","19:00","-3.0","","-4.5","","89","","","M","27","","51","","","","99.79","","","","-12","","NA"
"-60.14","47.23","ST PAUL ISLAND (AUT)","8204909","2018-01-09 20:00","2018","01","09","20:00","-3.1","","-5.4","","85","","","M","28","","49","","","","99.84","","","","-12","","NA"
"-60.14","47.23","ST PAUL ISLAND (AUT)","8204909","2018-01-09 21:00","2018","01","09","21:00","-3.9","","-6.1","","85","","","M","28","","54","","","","99.84","","","","-14","","NA"
"-60.14","47.23","ST PAUL ISLAND (AUT)","8204909","2018-01-09 22:00","2018","01","09","22:00","-4.0","","-6.7","","82","","","M","27","","56","","","","99.83","","","","-14","","NA"
"-60.14","47.23","ST PAUL ISLAND (AUT)","8204909","2018-01-09 23:00","2018","01","09","23:00","-3.7","","-5.1","","90","","","M","28","","69","","","","99.80","","","","-14","","NA"
"-60.14","47.23","ST PAUL ISLAND (AUT)","8204909","2018-01-10 00:00","2018","01","10","00:00"
"-60.14","47.23","ST PAUL ISLAND (AUT)","8204909","2018-01-10 01:00","2018","01","10","01:00","-4.1","","-5.5","","90","","","M","29","","69","","","","99.95","","","","-15","","NA"
"-60.14","47.23","ST PAUL ISLAND (AUT)","8204909","2018-01-10 02:00","2018","01","10","02:00","-3.7","","-6.3","","83","","","M","29","","67","","","","100.03","","","","-14","","NA"
"-60.14","47.23","ST PAUL ISLAND (AUT)","8204909","2018-01-10 03:00","2018","01","10","03:00","-4.8","","-6.5","","88","","","M","30","","80","","","","100.04","","","","-17","","NA"
"-60.14","47.23","ST PAUL ISLAND (AUT)","8204909","2018-01-10 04:00","2018","01","10","04:00","-5.5","","-7.8","","84","","","M","29","","81","","","","100.15","","","","-18","","NA"
"-60.14","47.23","ST PAUL ISLAND (AUT)","8204909","2018-01-10 05:00","2018","01","10","05:00","-5.7","","-8.1","","83","","","M","30","","79","","","","100.24","","","","-18","","NA"
"-60.14","47.23","ST PAUL ISLAND (AUT)","8204909","2018-01-10 06:00","2018","01","10","06:00","-6.1","","-8.4","","84","","","M","31","","82","","","","100.31","","","","-19","","NA"
"-60.14","47.23","ST PAUL ISLAND (AUT)","8204909","2018-01-10 07:00","2018","01","10","07:00","-5.4","","-8.2","","81","","","M","30","","83","","","","100.40","","","","-18","","NA"
"-60.14","47.23","ST PAUL ISLAND (AUT)","8204909","2018-01-10 08:00","2018","01","10","08:00","-6.5","","-8.5","","86","","","M","31","","75","","","","100.55","","","","-19","","NA"
"-60.14","47.23","ST PAUL ISLAND (AUT)","8204909","2018-01-10 09:00","2018","01","10","09:00","-5.4","","-8.5","","79","","","M","30","","80","","","","100.67","","","","-17","","NA"
"-60.14","47.23","ST PAUL ISLAND (AUT)","8204909","2018-01-10 10:00","2018","01","10","10:00","-6.5","","-7.7","","91","","","M","31","","71","","","","100.76","","","","-19","","NA"
"-60.14","47.23","ST PAUL ISLAND (AUT)","8204909","2018-01-10 11:00","2018","01","10","11:00","-6.3","","-7.5","","91","","","M","31","","76","","","","100.85","","","","-19","","NA"
"-60.14","47.23","ST PAUL ISLAND (AUT)","8204909","2018-01-10 12:00","2018","01","10","12:00","-6.3","","-9.2","","80","","","M","31","","75","","","","100.90","","","","-18","","NA"
"-60.14","47.23","ST PAUL ISLAND (AUT)","8204909","2018-01-10 13:00","2018","01","10","13:00","-6.6","","-9.7","","78","","","M","31","","78","","","","100.94","","","","-19","","NA"
"-60.14","47.23","ST PAUL ISLAND (AUT)","8204909","2018-01-10 14:00","2018","01","10","14:00","-6.0","","-9.1","","78","","","M","32","","71","","","","101.10","","","","-18","","NA"
"-60.14","47.23","ST PAUL ISLAND (AUT)","8204909","2018-01-10 15:00","2018","01","10","15:00","-6.5","","-10.0","","76","","","M","31","","78","","","","101.33","","","","-19","","NA"
"-60.14","47.23","ST PAUL ISLAND (AUT)","8204909","2018-01-10 16:00","2018","01","10","16:00"
"-60.14","47.23","ST PAUL ISLAND (AUT)","8204909","2018-01-10 17:00","2018","01","10","17:00","-6.3","","-8.7","","83","","","M","30","","71","","","","101.68","","","","-18","","NA"
"-60.14","47.23","ST PAUL ISLAND (AUT)","8204909","2018-01-10 18:00","2018","01","10","18:00","-6.0","","-9.8","","74","","","M","30","","70","","","","101.83","","","","-18","","NA"
"-60.14","47.23","ST PAUL ISLAND (AUT)","8204909","2018-01-10 19:00","2018","01","10","19:00","-6.0","","-9.4","","77","","","M","30","","72","","","","101.90","","","","-18","","NA"
"-60.14","47.23","ST PAUL ISLAND (AUT)","8204909","2018-01-10 20:00","2018","01","10","20:00","-5.8","","-8.0","","85","","","M","32","","60","","","","102.03","","","","-17","","NA"
"-60.14","47.23","ST PAUL ISLAND (AUT)","8204909","2018-01-10 21:00","2018","01","10","21:00","-6.2","","-9.6","","77","","","M","32","","58","","","","102.12","","","","-17","","NA"
"-60.14","47.23","ST PAUL ISLAND (AUT)","8204909","2018-01-10 22:00","2018","01","10","22:00","-6.0","","-9.4","","77","","","M","32","","54","","","","102.18","","","","-17","","NA"
"-60.14","47.23","ST PAUL ISLAND (AUT)","8204909","2018-01-10 23:00","2018","01","10","23:00","-5.8","","-9.3","","77","","","M","32","","47","","","","102.24","","","","-16","","NA"
"-60.14","47.23","ST PAUL ISLAND (AUT)","8204909","2018-01-11 00:00","2018","01","11","00:00","-5.1","","-8.3","","78","","","M","31","","36","","","","102.27","","","","-14","","NA"
"-60.14","47.23","ST PAUL ISLAND (AUT)","8204909","2018-01-11 01:00","2018","01","11","01:00","-5.2","","-8.8","","76","","","M","30","","31","","","","102.34","","","","-13","","NA"
"-60.14","47.23","ST PAUL ISLAND (AUT)","8204909","2018-01-11 02:00","2018","01","11","02:00","-5.0","","-8.9","","74","","","M","28","","33","","","","102.41","","","","-13","","NA"
"-60.14","47.23","ST PAUL ISLAND (AUT)","8204909","2018-01-11 03:00","2018","01","11","03:00","-4.7","","-8.4","","76","","","M","27","","35","","","","102.43","","","","-13","","NA"
"-60.14","47.23","ST PAUL ISLAND (AUT)","8204909","2018-01-11 04:00","2018","01","11","04:00","-4.0","","-7.5","","76","","","M","26","","41","","","","102.36","","","","-13","","NA"
"-60.14","47.23","ST PAUL ISLAND (AUT)","8204909","2018-01-11 05:00","2018","01","11","05:00","-3.9","","-6.7","","81","","","M","24","","43","","","","102.35","","","","-13","","NA"
"-60.14","47.23","ST PAUL ISLAND (AUT)","8204909","2018-01-11 06:00","2018","01","11","06:00","-4.0","","-7.5","","77","","","M","18","","23","","","","102.31","","","","-11","","NA"
"-60.14","47.23","ST PAUL ISLAND (AUT)","8204909","2018-01-11 07:00","2018","01","11","07:00","-3.5","","-7.5","","74","","","M","17","","37","","","","102.21","","","","-12","","NA"
"-60.14","47.23","ST PAUL ISLAND (AUT)","8204909","2018-01-11 08:00","2018","01","11","08:00"
"-60.14","47.23","ST PAUL ISLAND (AUT)","8204909","2018-01-11 09:00","2018","01","11","09:00","-2.2","","-5.1","","80","","","M","16","","41","","","","102.02","","","","-10","","NA"
"-60.14","47.23","ST PAUL ISLAND (AUT)","8204909","2018-01-11 10:00","2018","01","11","10:00","-1.8","","-3.8","","86","","","M","17","","38","","","","101.92","","","","-10","","NA"
"-60.14","47.23","ST PAUL ISLAND (AUT)","8204909","2018-01-11 11:00","2018","01","11","11:00","-1.2","","-2.8","","88","","","M","17","","43","","","","101.80","","","","-9","","NA"
"-60.14","47.23","ST PAUL ISLAND (AUT)","8204909","2018-01-11 12:00","2018","01","11","12:00","-0.5","","-1.8","","91","","","M","17","","43","","","","101.66","","","","-8","","NA"
"-60.14","47.23","ST PAUL ISLAND (AUT)","8204909","2018-01-11 13:00","2018","01","11","13:00","1.9","","0.1","","88","","","M","20","","32","","","","101.59","","","","","","NA"
"-60.14","47.23","ST PAUL ISLAND (AUT)","8204909","2018-01-11 14:00","2018","01","11","14:00","2.7","","0.5","","86","","","M","24","","58","","","","101.49","","","","","","NA"
"-60.14","47.23","ST PAUL ISLAND (AUT)","8204909","2018-01-11 15:00","2018","01","11","15:00","2.4","","0.6","","88","","","M","24","","54","","","","101.51","","","","","","NA"
"-60.14","47.23","ST PAUL ISLAND (AUT)","8204909","2018-01-11 16:00","2018","01","11","16:00","1.6","","0.0","","89","","","M","24","","49","","","","101.52","","","","","","NA"
"-60.14","47.23","ST PAUL ISLAND (AUT)","8204909","2018-01-11 17:00","2018","01","11","17:00","1.8","","0.2","","89","","","M","25","","47","","","","101.56","","","","","","NA"
"-60.14","47.23","ST PAUL ISLAND (AUT)","8204909","2018-01-11 18:00","2018","01","11","18:00","2.0","","0.3","","88","","","M","25","","44","","","","101.57","","","","","","NA"
"-60.14","47.23","ST PAUL ISLAND (AUT)","8204909","2018-01-11 19:00","2018","01","11","19:00","2.5","","0.5","","87","","","M","24","","50","","","","101.56","","","","","","NA"
"-60.14","47.23","ST PAUL ISLAND (AUT)","8204909","2018-01-11 20:00","2018","01","11","20:00","2.7","","1.0","","88","","","M","24","","48","","","","101.54","","","","","","NA"
"-60.14","47.23","ST PAUL ISLAND (AUT)","8204909","2018-01-11 21:00","2018","01","11","21:00","2.8","","1.0","","88","","","M","23","","33","","","","101.55","","","","","","NA"
"-60.14","47.23","ST PAUL ISLAND (AUT)","8204909","2018-01-11 22:00","2018","01","11","22:00","4.9","","3.1","","88","","","M","22","","33","","","","101.47","","","","","","NA"
"-60.14","47.23","ST PAUL ISLAND (AUT)","8204909","2018-01-11 23:00","2018","01","11","23:00","4.5","","2.7","","88","","","M","23","","28","","","","101.48","","","","","","NA"
"-60.14","47.23","ST PAUL ISLAND (AUT)","8204909","2018-01-12 00:00","2018","01","12","00:00","3.8","","2.2","","89","","","M","25","","57","","","","101.39","","","","","","NA"
"-60.14","47.23","ST PAUL ISLAND (AUT)","8204909","2018-01-12 01:00","2018","01","12","01:00","4.4","","2.8","","90","","","M","25","","54","","","","101.37","","","","","","NA"
"-60.14","47.23","ST PAUL ISLAND (AUT)","8204909","2018-01-12 02:00","2018","01","12","02:00","5.0","","3.5","","90","","","M","23","","44","","","","101.46","","","","","","NA"
"-60.14","47.23","ST PAUL ISLAND (AUT)","8204909","2018-01-12 03:00","2018","01","12","03:00","8.3","","5.7","","84","","","M","22","","35","","","","101.45","","","","","","NA"
"-60.14","47.23","ST PAUL ISLAND (AUT)","8204909","2018-01-12 04:00","2018","01","12","04:00","7.1","","4.7","","85","","","M","22","","39","","","","101.45","","","","","","NA"
"-60.14","47.23","ST PAUL ISLAND (AUT)","8204909","2018-01-12 05:00","2018","01","12","05:00","6.0","","3.9","","87","","","M","24","","55","","","","101.35","","","","","","NA"
"-60.14","47.23","ST PAUL ISLAND (AUT)","8204909","2018-01-12 06:00","2018","01","12","06:00","7.3","","4.6","","83","","","M","24","","51","","","","101.37","","","","","","NA"
"-60.14","47.23","ST PAUL ISLAND (AUT)","8204909","2018-01-12 07:00","2018","01","12","07:00","7.5","","4.5","","82","","","M","24","","63","","","","101.31","","","","","","NA"
"-60.14","47.23","ST PAUL ISLAND (AUT)","8204909","2018-01-12 08:00","2018","01","12","08:00","6.8","","4.1","","83","","","M","24","","65","","","","101.29","","","","","","NA"
"-60.14","47.23","ST PAUL ISLAND (AUT)","8204909","2018-01-12 09:00","2018","01","12","09:00","8.4","","4.9","","79","","","M","22","","33","","","","101.43","","","","","","NA"
"-60.14","47.23","ST PAUL ISLAND (AUT)","8204909","2018-01-12 10:00","2018","01","12","10:00","11.6","","6.3","","70","","","M","20","","38","","","","101.40","","","","","","NA"
"-60.14","47.23","ST PAUL ISLAND (AUT)","8204909","2018-01-12 11:00","2018","01","12","11:00","10.7","","5.4","","70","","","M","21","","34","","","","101.34","","","","","","NA"
"-60.14","47.23","ST PAUL ISLAND (AUT)","8204909","2018-01-12 12:00","2018","01","12","12:00","7.5","","3.8","","77","","","M","24","","43","","","","101.23","","","","","","NA"
"-60.14","47.23","ST PAUL ISLAND (AUT)","8204909","2018-01-12 13:00","2018","01","12","13:00","9.1","","4.9","","75","","","M","23","","43","","","","101.15","","","","","","NA"
"-60.14","47.23","ST PAUL ISLAND (AUT)","8204909","2018-01-12 14:00","2018","01","12","14:00","9.8","","5.3","","73","","","M","23","","50","","","","101.12","","","","","","NA"
"-60.14","47.23","ST PAUL ISLAND (AUT)","8204909","2018-01-12 15:00","2018","01","12","15:00","9.8","","5.0","","72","","","M","22","","31","","","","101.17","","","","","","NA"
"-60.14","47.23","ST PAUL ISLAND (AUT)","8204909","2018-01-12 16:00","2018","01","12","16:00","13.6","","7.8","","68","","","M","21","","55","","","","101.19","","","","","","NA"
"-60.14","47.23","ST PAUL ISLAND (AUT)","8204909","2018-01-12 17:00","2018","01","12","17:00","15.1","","8.0","","63","","","M","21","","53","","","","101.16","","","","","","NA"
"-60.14","47.23","ST PAUL ISLAND (AUT)","8204909","2018-01-12 18:00","2018","01","12","18:00","13.8","","7.6","","66","","","M","20","","41","","","","101.09","","","","","","NA"
"-60.14","47.23","ST PAUL ISLAND (AUT)","8204909","2018-01-12 19:00","2018","01","12","19:00","9.3","","5.6","","78","","","M","18","","37","","","","101.02","","","","","","NA"
"-60.14","47.23","ST PAUL ISLAND (AUT)","8204909","2018-01-12 20:00","2018","01","12","20:00","7.9","","6.0","","88","","","M","17","","42","","","","100.95","","","","","","NA"
"-60.14","47.23","ST PAUL ISLAND (AUT)","8204909","2018-01-12 21:00","2018","01","12","21:00","9.0","","6.6","","85","","","M","18","","46","","","","100.86","","","","","","NA"
"-60.14","47.23","ST PAUL ISLAND (AUT)","8204909","2018-01-12 22:00","2018","01","12","22:00","8.7","","6.4","","85","","","M","18","","45","","","","100.80","","","","","","NA"
"-60.14","47.23","ST PAUL ISLAND (AUT)","8204909","2018-01-12 23:00","2018","01","12","23:00","5.7","","2.5","","80","","","M","18","","40","","","","100.74","","","","","","NA"
"-60.14","47.23","ST PAUL ISLAND (AUT)","8204909","2018-01-13 00:00","2018","01","13","00:00","6.8","","5.0","","88","","","M","18","","41","","","","100.70","","","","","","NA"
"-60.14","47.23","ST PAUL ISLAND (AUT)","8204909","2018-01-13 01:00","2018","01","13","01:00","7.4","","5.7","","89","","","M","18","","39","","","","100.59","","","","","","NA"
"-60.14","47.23","ST PAUL ISLAND (AUT)","8204909","2018-01-13 02:00","2018","01","13","02:00","8.7","","6.8","","87","","","M","18","","47","","","","100.55","","","","","","NA"
"-60.14","47.23","ST PAUL ISLAND (AUT)","8204909","2018-01-13 03:00","2018","01","13","03:00","7.9","","5.8","","87","","","M","18","","45","","","","100.53","","","","","","NA"
"-60.14","47.23","ST PAUL ISLAND (AUT)","8204909","2018-01-13 04:00","2018","01","13","04:00","8.4","","6.5","","88","","","M","18","","46","","","","100.46","","","","","","NA"
"-60.14","47.23","ST PAUL ISLAND (AUT)","8204909","2018-01-13 05:00","2018","01","13","05:00","8.7","","6.6","","87","","","M","18","","49","","","","100.39","","","","","","NA"
"-60.14","47.23","ST PAUL ISLAND (AUT)","8204909","2018-01-13 06:00","2018","01","13","06:00","8.5","","7.0","","90","","","M","17","","53","","","","100.25","","","","","","NA"
"-60.14","47.23","ST PAUL ISLAND (AUT)","8204909","2018-01-13 07:00","2018","01","13","07:00","7.0","","5.9","","92","","","M","17","","53","","","","100.25","","","","","","NA"
"-60.14","47.23","ST PAUL ISLAND (AUT)","8204909","2018-01-13 08:00","2018","01","13","08:00","7.5","","6.5","","94","","","M","17","","55","","","","100.20","","","","","","NA"
"-60.14","47.23","ST PAUL ISLAND (AUT)","8204909","2018-01-13 09:00","2018","01","13","09:00","8.0","","7.1","","94","","","M","18","","53","","","","100.21","","","","","","NA"
"-60.14","47.23","ST PAUL ISLAND (AUT)","8204909","2018-01-13 10:00","2018","01","13","10:00","7.7","","6.8","","94","","","M","17","","55","","","","100.18","","","","","","NA"
"-60.14","47.23","ST PAUL ISLAND (AUT)","8204909","2018-01-13 11:00","2018","01","13","11:00","8.2","","7.3","","94","","","M","18","","51","","","","100.11","","","","","","NA"
"-60.14","47.23","ST PAUL ISLAND (AUT)","8204909","2018-01-13 12:00","2018","01","13","12:00","8.3","","7.4","","94","","","M","17","","60","","","","99.93","","","","","","NA"
"-60.14","47.23","ST PAUL ISLAND (AUT)","8204909","2018-01-13 13:00","2018","01","13","13:00","7.0","","6.2","","95","","","M","17","","62","","","","99.81","","","","","","NA"
"-60.14","47.23","ST PAUL ISLAND (AUT)","8204909","2018-01-13 14:00","2018","01","13","14:00","7.1","","6.4","","95","","","M","17","","67","","","","99.79","","","","","","NA"
"-60.14","47.23","ST PAUL ISLAND (AUT)","8204909","2018-01-13 15:00","2018","01","13","15:00","6.7","","5.9","","95","","","M","17","","50","","","","99.80","","","","","","NA"
"-60.14","47.23","ST PAUL ISLAND (AUT)","8204909","2018-01-13 16:00","2018","01","13","16:00","12.1","","10.7","","91","","","M","19","","57","","","","99.86","","","","","","NA"
"-60.14","47.23","ST PAUL ISLAND (AUT)","8204909","2018-01-13 17:00","2018","01","13","17:00","14.7","","11.3","","80","","","M","20","","47","","","","99.91","","","","","","NA"
"-60.14","47.23","ST PAUL ISLAND (AUT)","8204909","2018-01-13 18:00","2018","01","13","18:00","10.7","","9.5","","92","","","M","18","","52","","","","99.90","","","","","","NA"
"-60.14","47.23","ST PAUL ISLAND (AUT)","8204909","2018-01-13 19:00","2018","01","13","19:00","9.9","","8.4","","90","","","M","18","","47","","","","99.98","","","","","","NA"
"-60.14","47.23","ST PAUL ISLAND (AUT)","8204909","2018-01-13 20:00","2018","01","13","20:00","12.1","","10.1","","88","","","M","19","","42","","","","100.05","","","","","","NA"
"-60.14","47.23","ST PAUL ISLAND (AUT)","8204909","2018-01-13 21:00","2018","01","13","21:00","5.7","","4.5","","92","","","M","25","","38","","","","100.27","","","","","","NA"
"-60.14","47.23","ST PAUL ISLAND (AUT)","8204909","2018-01-13 22:00","2018","01","13","22:00","2.8","","2.3","","96","","","M","25","","38","","","","100.47","","","","","","NA"
"-60.14","47.23","ST PAUL ISLAND (AUT)","8204909","2018-01-13 23:00","2018","01","13","23:00","0.0","","-0.4","","97","","","M","30","","40","","","","100.66","","","","-7","","NA"
"-60.14","47.23","ST PAUL ISLAND (AUT)","8204909","2018-01-14 00:00","2018","01","14","00:00","-0.9","","-1.2","","98","","","M","32","","30","","","","100.81","","","","-8","","NA"
"-60.14","47.23","ST PAUL ISLAND (AUT)","8204909","2018-01-14 01:00","2018","01","14","01:00","-1.3","","-1.7","","98","","","M","31","","32","","","","100.98","","","","-8","","NA"
"-60.14","47.23","ST PAUL ISLAND (AUT)","8204909","2018-01-14 02:00","2018","01","14","02:00","-1.8","","-2.2","","97","","","M","32","","25","","","","101.14","","","","-8","","NA"
"-60.14","47.23","ST PAUL ISLAND (AUT)","8204909","2018-01-14 03:00","2018","01","14","03:00","-2.4","","-2.8","","97","","","M","32","","25","","","","101.34","","","","-9","","NA"
"-60.14","47.23","ST PAUL ISLAND (AUT)","8204909","2018-01-14 04:00","2018","01","14","04:00","-3.2","","-3.9","","95","","","M","33","","25","","","","101.42","","","","-10","","NA"
"-60.14","47.23","ST PAUL ISLAND (AUT)","8204909","2018-01-14 05:00","2018","01","14","05:00","-3.6","","-4.7","","92","","","M","32","","22","","","","101.60","","","","-10","","NA"
"-60.14","47.23","ST PAUL ISLAND (AUT)","8204909","2018-01-14 06:00","2018","01","14","06:00","-3.9","","-5.5","","89","","","M","31","","22","","","","101.72","","","","-10","","NA"
"-60.14","47.23","ST PAUL ISLAND (AUT)","8204909","2018-01-14 07:00","2018","01","14","07:00","-4.2","","-5.9","","88","","","M","32","","23","","","","101.82","","","","-11","","NA"
"-60.14","47.23","ST PAUL ISLAND (AUT)","8204909","2018-01-14 08:00","2018","01","14","08:00","-4.4","","-6.2","","87","","","M","31","","24","","","","101.95","","","","-11","","NA"
"-60.14","47.23","ST PAUL ISLAND (AUT)","8204909","2018-01-14 09:00","2018","01","14","09:00","-4.3","","-6.4","","85","","","M","31","","26","","","","102.11","","","","-12","","NA"
"-60.14","47.23","ST PAUL ISLAND (AUT)","8204909","2018-01-14 10:00","2018","01","14","10:00","-4.0","","-6.2","","85","","","M","33","","26","","","","102.24","","","","-11","","NA"
"-60.14","47.23","ST PAUL ISLAND (AUT)","8204909","2018-01-14 11:00","2018","01","14","11:00","-4.1","","-6.1","","86","","","M","32","","28","","","","102.32","","","","-12","","NA"
"-60.14","47.23","ST PAUL ISLAND (AUT)","8204909","2018-01-14 12:00","2018","01","14","12:00","-4.2","","-6.1","","86","","","M","32","","29","","","","102.34","","","","-12","","NA"
"-60.14","47.23","ST PAUL ISLAND (AUT)","8204909","2018-01-14 13:00","2018","01","14","13:00","-4.5","","-6.4","","87","","","M","32","","30","","","","102.35","","","","-12","","NA"
"-60.14","47.23","ST PAUL ISLAND (AUT)","8204909","2018-01-14 14:00","2018","01","14","14:00","-4.8","","-6.6","","87","","","M","33","","32","","","","102.41","","","","-13","","NA"
"-60.14","47.23","ST PAUL ISLAND (AUT)","8204909","2018-01-14 15:00","2018","01","14","15:00","-4.9","","-7.0","","85","","","M","33","","38","","","","102.46","","","","-14","","NA"
"-60.14","47.23","ST PAUL ISLAND (AUT)","8204909","2018-01-14 16:00","2018","01","14","16:00","-5.3","","-7.6","","84","","","M","33","","44","","","","102.60","","","","-15","","NA"
"-60.14","47.23","ST PAUL ISLAND (AUT)","8204909","2018-01-14 17:00","2018","01","14","17:00","-5.8","","-8.2","","83","","","M","33","","44","","","","102.78","","","","-16","","NA"
"-60.14","47.23","ST PAUL ISLAND (AUT)","8204909","2018-01-14 18:00","2018","01","14","18:00","-6.0","","-8.6","","82","","","M","33","","46","","","","102.88","","","","-16","","NA"
"-60.14","47.23","ST PAUL ISLAND (AUT)","8204909","2018-01-14 19:00","2018","01","14","19:00","-6.1","","-8.7","","82","","","M","32","","43","","","","102.98","","","","-16","","NA"
"-60.14","47.23","ST PAUL ISLAND (AUT)","8204909","2018-01-14 20:00","2018","01","14","20:00","-6.2","","-9.2","","79","","","M","32","","41","","","","103.08","","","","-16","","NA"
"-60.14","47.23","ST PAUL ISLAND (AUT)","8204909","2018-01-14 21:00","2018","01","14","21:00","-6.4","","-9.0","","82","","","M","34","","40","","","","103.14","","","","-16","","NA"
"-60.14","47.23","ST PAUL ISLAND (AUT)","8204909","2018-01-14 22:00","2018","01","14","22:00","-6.6","","-9.0","","83","","","M","34","","39","","","","103.16","","","","-16","","NA"
"-60.14","47.23","ST PAUL ISLAND (AUT)","8204909","2018-01-14 23:00","2018","01","14","23:00","-6.8","","-10.1","","77","","","M","34","","36","","","","103.31","","","","-16","","NA"
"-60.14","47.23","ST PAUL ISLAND (AUT)","8204909","2018-01-15 00:00","2018","01","15","00:00","-6.5","","-9.9","","77","","","M","34","","33","","","","103.35","","","","-15","","NA"
"-60.14","47.23","ST PAUL ISLAND (AUT)","8204909","2018-01-15 01:00","2018","01","15","01:00","-6.6","","-9.8","","77","","","M","33","","28","","","","103.41","","","","-15","","NA"
"-60.14","47.23","ST PAUL ISLAND (AUT)","8204909","2018-01-15 02:00","2018","01","15","02:00","-6.5","","-10.1","","76","","","M","33","","33","","","","103.49","","","","-15","","NA"
"-60.14","47.23","ST PAUL ISLAND (AUT)","8204909","2018-01-15 03:00","2018","01","15","03:00","-6.4","","-10.2","","75","","","M","33","","36","","","","103.59","","","","-16","","NA"
"-60.14","47.23","ST PAUL ISLAND (AUT)","8204909","2018-01-15 04:00","2018","01","15","04:00","-6.3","","-10.2","","74","","","M","34","","34","","","","103.64","","","","-15","","NA"
"-60.14","47.23","ST PAUL ISLAND (AUT)","8204909","2018-01-15 05:00","2018","01","15","05:00","-6.7","","-10.1","","77","","","M","35","","34","","","","103.64","","","","-16","","NA"
"-60.14","47.23","ST PAUL ISLAND (AUT)","8204909","2018-01-15 06:00","2018","01","15","06:00","-7.2","","-10.9","","75","","","M","36","","34","","","","103.76","","","","-16","","NA"
"-60.14","47.23","ST PAUL ISLAND (AUT)","8204909","2018-01-15 07:00","2018","01","15","07:00","-6.8","","-10.4","","76","","","M","1","","33","","","","103.87","","","","-16","","NA"
"-60.14","47.23","ST PAUL ISLAND (AUT)","8204909","2018-01-15 08:00","2018","01","15","08:00","-6.8","","-10.4","","75","","","M","36","","34","","","","103.90","","","","-16","","NA"
"-60.14","47.23","ST PAUL ISLAND (AUT)","8204909","2018-01-15 09:00","2018","01","15","09:00","-6.5","","-10.0","","76","","","M","1","","37","","","","103.93","","","","-16","","NA"
"-60.14","47.23","ST PAUL ISLAND (AUT)","8204909","2018-01-15 10:00","2018","01","15","10:00","-6.6","","-10.4","","75","","","M","1","","37","","","","104.03","","","","-16","","NA"
"-60.14","47.23","ST PAUL ISLAND (AUT)","8204909","2018-01-15 11:00","2018","01","15","11:00","-6.7","","-10.4","","75","","","M","2","","36","","","","104.05","","","","-16","","NA"
"-60.14","47.23","ST PAUL ISLAND (AUT)","8204909","2018-01-15 12:00","2018","01","15","12:00","-6.6","","-10.2","","76","","","M","3","","34","","","","103.96","","","","-16","","NA"
"-60.14","47.23","ST PAUL ISLAND (AUT)","8204909","2018-01-15 13:00","2018","01","15","13:00","-6.7","","-10.9","","72","","","M","3","","32","","","","103.88","","","","-15","","NA"
"-60.14","47.23","ST PAUL ISLAND (AUT)","8204909","2018-01-15 14:00","2018","01","15","14:00","-6.6","","-10.2","","76","","","M","3","","29","","","","103.88","","","","-15","","NA"
"-60.14","47.23","ST PAUL ISLAND (AUT)","8204909","2018-01-15 15:00","2018","01","15","15:00","-6.9","","-10.6","","75","","","M","3","","32","","","","103.88","","","","-16","","NA"
"-60.14","47.23","ST PAUL ISLAND (AUT)","8204909","2018-01-15 16:00","2018","01","15","16:00","-6.6","","-9.9","","78","","","M","3","","38","","","","103.79","","","","-16","","NA"
"-60.14","47.23","ST PAUL ISLAND (AUT)","8204909","2018-01-15 17:00","2018","01","15","17:00","-6.4","","-9.6","","78","","","M","4","","36","","","","103.75","","","","-16","","NA"
"-60.14","47.23","ST PAUL ISLAND (AUT)","8204909","2018-01-15 18:00","2018","01","15","18:00","-6.2","","-9.2","","79","","","M","4","","35","","","","103.73","","","","-15","","NA"
"-60.14","47.23","ST PAUL ISLAND (AUT)","8204909","2018-01-15 19:00","2018","01","15","19:00","-6.1","","-9.2","","79","","","M","5","","36","","","","103.70","","","","-15","","NA"
"-60.14","47.23","ST PAUL ISLAND (AUT)","8204909","2018-01-15 20:00","2018","01","15","20:00","-5.7","","-8.6","","80","","","M","6","","32","","","","103.60","","","","-14","","NA"
"-60.14","47.23","ST PAUL ISLAND (AUT)","8204909","2018-01-15 21:00","2018","01","15","21:00","-5.0","","-8.1","","79","","","M","6","","37","","","","103.44","","","","-14","","NA"
"-60.14","47.23","ST PAUL ISLAND (AUT)","8204909","2018-01-15 22:00","2018","01","15","22:00","-4.9","","-8.7","","75","","","M","7","","30","","","","103.41","","","","-13","","NA"
"-60.14","47.23","ST PAUL ISLAND (AUT)","8204909","2018-01-15 23:00","2018","01","15","23:00","-4.7","","-8.2","","77","","","M","7","","35","","","","103.26","","","","-13","","NA"
"-60.14","47.23","ST PAUL ISLAND (AUT)","8204909","2018-01-16 00:00","2018","01","16","00:00","-4.1","","-7.1","","79","","","M","7","","37","","","","103.03","","","","-13","","NA"
"-60.14","47.23","ST PAUL ISLAND (AUT)","8204909","2018-01-16 01:00","2018","01","16","01:00","-4.0","","-7.3","","78","","","M","7","","39","","","","102.88","","","","-13","","NA"
"-60.14","47.23","ST PAUL ISLAND (AUT)","8204909","2018-01-16 02:00","2018","01","16","02:00","-3.9","","-6.9","","79","","","M","7","","38","","","","102.80","","","","-12","","NA"
"-60.14","47.23","ST PAUL ISLAND (AUT)","8204909","2018-01-16 03:00","2018","01","16","03:00","-4.2","","-6.5","","84","","","M","7","","42","","","","102.65","","","","-13","","NA"
"-60.14","47.23","ST PAUL ISLAND (AUT)","8204909","2018-01-16 04:00","2018","01","16","04:00","-4.8","","-5.7","","93","","","M","7","","44","","","","102.43","","","","-14","","NA"
"-60.14","47.23","ST PAUL ISLAND (AUT)","8204909","2018-01-16 05:00","2018","01","16","05:00","-4.7","","-5.5","","94","","","M","6","","46","","","","102.30","","","","-14","","NA"
"-60.14","47.23","ST PAUL ISLAND (AUT)","8204909","2018-01-16 06:00","2018","01","16","06:00","-4.4","","-5.1","","95","","","M","6","","34","","","","102.36","","","","-13","","NA"
"-60.14","47.23","ST PAUL ISLAND (AUT)","8204909","2018-01-16 07:00","2018","01","16","07:00","-4.8","","-5.4","","95","","","M","3","","36","","","","102.28","","","","-13","","NA"
"-60.14","47.23","ST PAUL ISLAND (AUT)","8204909","2018-01-16 08:00","2018","01","16","08:00","-4.2","","-4.8","","96","","","M","2","","35","","","","102.29","","","","-13","","NA"
"-60.14","47.23","ST PAUL ISLAND (AUT)","8204909","2018-01-16 09:00","2018","01","16","09:00","-3.8","","-4.4","","96","","","M","36","","36","","","","102.33","","","","-12","","NA"
"-60.14","47.23","ST PAUL ISLAND (AUT)","8204909","2018-01-16 10:00","2018","01","16","10:00","-3.5","","-4.1","","96","","","M","36","","34","","","","102.33","","","","-11","","NA"
"-60.14","47.23","ST PAUL ISLAND (AUT)","8204909","2018-01-16 11:00","2018","01","16","11:00","-3.8","","-4.6","","94","","","M","3","","40","","","","102.07","","","","-12","","NA"
"-60.14","47.23","ST PAUL ISLAND (AUT)","8204909","2018-01-16 12:00","2018","01","16","12:00","-3.7","","-4.6","","94","","","M","2","","28","","","","102.14","","","","-11","","NA"
"-60.14","47.23","ST PAUL ISLAND (AUT)","8204909","2018-01-16 13:00","2018","01","16","13:00","-4.1","","-5.0","","93","","","M","34","","24","","","","102.23","","","","-11","","NA"
"-60.14","47.23","ST PAUL ISLAND (AUT)","8204909","2018-01-16 14:00","2018","01","16","14:00","-3.8","","-4.8","","93","","","M","36","","22","","","","102.19","","","","-10","","NA"
"-60.14","47.23","ST PAUL ISLAND (AUT)","8204909","2018-01-16 15:00","2018","01","16","15:00","-3.8","","-5.2","","90","","","M","34","","18","","","","102.17","","","","-10","","NA"
"-60.14","47.23","ST PAUL ISLAND (AUT)","8204909","2018-01-16 16:00","2018","01","16","16:00","-3.6","","-5.2","","89","","","M","31","","21","","","","102.25","","","","-10","","NA"
"-60.14","47.23","ST PAUL ISLAND (AUT)","8204909","2018-01-16 17:00","2018","01","16","17:00","-3.4","","-5.3","","87","","","M","30","","23","","","","102.33","","","","-10","","NA"
"-60.14","47.23","ST PAUL ISLAND (AUT)","8204909","2018-01-16 18:00","2018","01","16","18:00","-3.4","","-6.3","","81","","","M","28","","24","","","","102.36","","","","-10","","NA"
"-60.14","47.23","ST PAUL ISLAND (AUT)","8204909","2018-01-16 19:00","2018","01","16","19:00","-3.4","","-6.6","","79","","","M","27","","27","","","","102.39","","","","-11","","NA"
"-60.14","47.23","ST PAUL ISLAND (AUT)","8204909","2018-01-16 20:00","2018","01","16","20:00","-3.3","","-6.4","","79","","","M","28","","33","","","","102.47","","","","-11","","NA"
"-60.14","47.23","ST PAUL ISLAND (AUT)","8204909","2018-01-16 21:00","2018","01","16","21:00","-3.1","","-5.8","","81","","","M","28","","37","","","","102.48","","","","-11","","NA"
"-60.14","47.23","ST PAUL ISLAND (AUT)","8204909","2018-01-16 22:00","2018","01","16","22:00","-3.3","","-5.0","","88","","","M","28","","35","","","","102.50","","","","-11","","NA"
"-60.14","47.23","ST PAUL ISLAND (AUT)","8204909","2018-01-16 23:00","2018","01","16","23:00","-3.3","","-5.9","","82","","","M","29","","36","","","","102.52","","","","-11","","NA"
"-60.14","47.23","ST PAUL ISLAND (AUT)","8204909","2018-01-17 00:00","2018","01","17","00:00","-3.7","","-6.2","","83","","","M","28","","37","","","","102.53","","","","-12","","NA"
"-60.14","47.23","ST PAUL ISLAND (AUT)","8204909","2018-01-17 01:00","2018","01","17","01:00","-3.9","","-7.5","","76","","","M","30","","36","","","","102.50","","","","-12","","NA"
"-60.14","47.23","ST PAUL ISLAND (AUT)","8204909","2018-01-17 02:00","2018","01","17","02:00","-4.1","","-7.3","","78","","","M","29","","35","","","","102.55","","","","-12","","NA"
"-60.14","47.23","ST PAUL ISLAND (AUT)","8204909","2018-01-17 03:00","2018","01","17","03:00","-4.5","","-7.7","","78","","","M","27","","34","","","","102.58","","","","-13","","NA"
"-60.14","47.23","ST PAUL ISLAND (AUT)","8204909","2018-01-17 04:00","2018","01","17","04:00","-4.6","","-7.3","","81","","","M","28","","26","","","","102.51","","","","-12","","NA"
"-60.14","47.23","ST PAUL ISLAND (AUT)","8204909","2018-01-17 05:00","2018","01","17","05:00","-4.3","","-7.3","","80","","","M","27","","29","","","","102.57","","","","-12","","NA"
"-60.14","47.23","ST PAUL ISLAND (AUT)","8204909","2018-01-17 06:00","2018","01","17","06:00","-4.3","","-7.3","","80","","","M","26","","36","","","","102.65","","","","-13","","NA"
"-60.14","47.23","ST PAUL ISLAND (AUT)","8204909","2018-01-17 07:00","2018","01","17","07:00","-4.3","","-7.1","","81","","","M","27","","32","","","","102.65","","","","-12","","NA"
"-60.14","47.23","ST PAUL ISLAND (AUT)","8204909","2018-01-17 08:00","2018","01","17","08:00","-4.2","","-7.2","","79","","","M","26","","32","","","","102.65","","","","-12","","NA"
"-60.14","47.23","ST PAUL ISLAND (AUT)","8204909","2018-01-17 09:00","2018","01","17","09:00","-4.3","","-7.0","","81","","","M","25","","32","","","","102.70","","","","-12","","NA"
"-60.14","47.23","ST PAUL ISLAND (AUT)","8204909","2018-01-17 10:00","2018","01","17","10:00","-3.8","","-6.2","","83","","","M","24","","37","","","","102.74","","","","-12","","NA"
"-60.14","47.23","ST PAUL ISLAND (AUT)","8204909","2018-01-17 11:00","2018","01","17","11:00","-4.0","","-6.0","","86","","","M","25","","36","","","","102.73","","","","-12","","NA"
"-60.14","47.23","ST PAUL ISLAND (AUT)","8204909","2018-01-17 12:00","2018","01","17","12:00","-4.0","","-5.8","","88","","","M","25","","34","","","","102.64","","","","-12","","NA"
"-60.14","47.23","ST PAUL ISLAND (AUT)","8204909","2018-01-17 13:00","2018","01","17","13:00","-4.0","","-5.7","","88","","","M","25","","35","","","","102.53","","","","-12","","NA"
"-60.14","47.23","ST PAUL ISLAND (AUT)","8204909","2018-01-17 14:00","2018","01","17","14:00","-4.0","","-5.8","","88","","","M","24","","35","","","","102.49","","","","-12","","NA"
"-60.14","47.23","ST PAUL ISLAND (AUT)","8204909","2018-01-17 15:00","2018","01","17","15:00","-4.1","","-6.2","","85","","","M","25","","25","","","","102.43","","","","-11","","NA"
"-60.14","47.23","ST PAUL ISLAND (AUT)","8204909","2018-01-17 16:00","2018","01","17","16:00","-4.1","","-6.0","","86","","","M","24","","18","","","","102.41","","","","-10","","NA"
"-60.14","47.23","ST PAUL ISLAND (AUT)","8204909","2018-01-17 17:00","2018","01","17","17:00","-4.4","","-5.9","","90","","","M","25","","8","","","","102.30","","","","-8","","NA"
"-60.14","47.23","ST PAUL ISLAND (AUT)","8204909","2018-01-17 18:00","2018","01","17","18:00","-4.3","","-5.5","","91","","","M","17","","2","","","","102.22","","","","-5","","NA"
"-60.14","47.23","ST PAUL ISLAND (AUT)","8204909","2018-01-17 19:00","2018","01","17","19:00","-4.0","","-4.9","","93","","","M","13","","18","","","","102.16","","","","-10","","NA"
"-60.14","47.23","ST PAUL ISLAND (AUT)","8204909","2018-01-17 20:00","2018","01","17","20:00","-3.4","","-4.1","","95","","","M","15","","26","","","","102.01","","","","-10","","NA"
"-60.14","47.23","ST PAUL ISLAND (AUT)","8204909","2018-01-17 21:00","2018","01","17","21:00","-3.1","","-3.8","","95","","","M","15","","33","","","","101.89","","","","-11","","NA"
"-60.14","47.23","ST PAUL ISLAND (AUT)","8204909","2018-01-17 22:00","2018","01","17","22:00","-2.8","","-3.4","","96","","","M","15","","30","","","","101.75","","","","-10","","NA"
"-60.14","47.23","ST PAUL ISLAND (AUT)","8204909","2018-01-17 23:00","2018","01","17","23:00","-2.5","","-3.0","","96","","","M","15","","34","","","","101.55","","","","-10","","NA"
"-60.14","47.23","ST PAUL ISLAND (AUT)","8204909","2018-01-18 00:00","2018","01","18","00:00","-2.3","","-2.9","","96","","","M","14","","32","","","","101.34","","","","-10","","NA"
"-60.14","47.23","ST PAUL ISLAND (AUT)","8204909","2018-01-18 01:00","2018","01","18","01:00","-2.0","","-2.5","","97","","","M","14","","26","","","","101.23","","","","-9","","NA"
"-60.14","47.23","ST PAUL ISLAND (AUT)","8204909","2018-01-18 02:00","2018","01","18","02:00","-1.7","","-2.1","","97","","","M","15","","34","","","","101.05","","","","-9","","NA"
"-60.14","47.23","ST PAUL ISLAND (AUT)","8204909","2018-01-18 03:00","2018","01","18","03:00","-1.4","","-1.8","","97","","","M","13","","25","","","","100.94","","","","-8","","NA"
"-60.14","47.23","ST PAUL ISLAND (AUT)","8204909","2018-01-18 04:00","2018","01","18","04:00","-1.2","","-1.6","","97","","","M","12","","36","","","","100.61","","","","-9","","NA"
"-60.14","47.23","ST PAUL ISLAND (AUT)","8204909","2018-01-18 05:00","2018","01","18","05:00","-1.2","","-1.6","","97","","","M","11","","55","","","","100.38","","","","-10","","NA"
"-60.14","47.23","ST PAUL ISLAND (AUT)","8204909","2018-01-18 06:00","2018","01","18","06:00","-1.1","","-1.4","","97","","","M","9","","31","","","","100.31","","","","-8","","NA"
"-60.14","47.23","ST PAUL ISLAND (AUT)","8204909","2018-01-18 07:00","2018","01","18","07:00","-0.8","","-1.2","","97","","","M","8","","23","","","","100.28","","","","-7","","NA"
"-60.14","47.23","ST PAUL ISLAND (AUT)","8204909","2018-01-18 08:00","2018","01","18","08:00","-0.8","","-1.2","","98","","","M","6","","18","","","","100.26","","","","-6","","NA"
"-60.14","47.23","ST PAUL ISLAND (AUT)","8204909","2018-01-18 09:00","2018","01","18","09:00","-1.3","","-1.6","","98","","","M","3","","27","","","","100.20","","","","-8","","NA"
"-60.14","47.23","ST PAUL ISLAND (AUT)","8204909","2018-01-18 10:00","2018","01","18","10:00","-1.3","","-1.7","","98","","","M","36","","22","","","","100.23","","","","-7","","NA"
"-60.14","47.23","ST PAUL ISLAND (AUT)","8204909","2018-01-18 11:00","2018","01","18","11:00","-1.2","","-1.5","","98","","","M","32","","22","","","","100.23","","","","-7","","NA"
"-60.14","47.23","ST PAUL ISLAND (AUT)","8204909","2018-01-18 12:00","2018","01","18","12:00","-1.2","","-1.5","","98","","","M","31","","19","","","","100.23","","","","-7","","NA"
"-60.14","47.23","ST PAUL ISLAND (AUT)","8204909","2018-01-18 13:00","2018","01","18","13:00","-1.3","","-1.7","","97","","","M","30","","22","","","","100.17","","","","-7","","NA"
"-60.14","47.23","ST PAUL ISLAND (AUT)","8204909","2018-01-18 14:00","2018","01","18","14:00","-1.5","","-1.8","","97","","","M","28","","28","","","","100.11","","","","-8","","NA"
"-60.14","47.23","ST PAUL ISLAND (AUT)","8204909","2018-01-18 15:00","2018","01","18","15:00","-1.5","","-1.9","","97","","","M","27","","41","","","","100.12","","","","-9","","NA"
"-60.14","47.23","ST PAUL ISLAND (AUT)","8204909","2018-01-18 16:00","2018","01","18","16:00","-1.9","","-2.4","","96","","","M","26","","35","","","","100.14","","","","-9","","NA"
"-60.14","47.23","ST PAUL ISLAND (AUT)","8204909","2018-01-18 17:00","2018","01","18","17:00","-2.2","","-2.8","","95","","","M","27","","49","","","","100.12","","","","-11","","NA"
"-60.14","47.23","ST PAUL ISLAND (AUT)","8204909","2018-01-18 18:00","2018","01","18","18:00","-2.4","","-3.1","","95","","","M","27","","39","","","","100.16","","","","-11","","NA"
"-60.14","47.23","ST PAUL ISLAND (AUT)","8204909","2018-01-18 19:00","2018","01","18","19:00","-2.2","","-3.5","","90","","","M","28","","41","","","","100.18","","","","-10","","NA"
"-60.14","47.23","ST PAUL ISLAND (AUT)","8204909","2018-01-18 20:00","2018","01","18","20:00","-2.7","","-4.5","","87","","","M","29","","54","","","","100.14","","","","-12","","NA"
"-60.14","47.23","ST PAUL ISLAND (AUT)","8204909","2018-01-18 21:00","2018","01","18","21:00","-3.5","","-6.4","","80","","","M","29","","50","","","","100.16","","","","-13","","NA"
"-60.14","47.23","ST PAUL ISLAND (AUT)","8204909","2018-01-18 22:00","2018","01","18","22:00","-3.2","","-6.3","","79","","","M","30","","38","","","","100.30","","","","-11","","NA"
"-60.14","47.23","ST PAUL ISLAND (AUT)","8204909","2018-01-18 23:00","2018","01","18","23:00","-3.3","","-6.8","","77","","","M","30","","38","","","","100.32","","","","-12","","NA"
"-60.14","47.23","ST PAUL ISLAND (AUT)","8204909","2018-01-19 00:00","2018","01","19","00:00","-3.3","","-6.9","","76","","","M","30","","42","","","","100.27","","","","-12","","NA"
"-60.14","47.23","ST PAUL ISLAND (AUT)","8204909","2018-01-19 01:00","2018","01","19","01:00","-3.3","","-7.3","","74","","","M","31","","38","","","","100.21","","","","-12","","NA"
"-60.14","47.23","ST PAUL ISLAND (AUT)","8204909","2018-01-19 02:00","2018","01","19","02:00","-3.3","","-7.4","","73","","","M","32","","33","","","","100.21","","","","-11","","NA"
"-60.14","47.23","ST PAUL ISLAND (AUT)","8204909","2018-01-19 03:00","2018","01","19","03:00","-3.4","","-8.1","","70","","","M","33","","30","","","","100.25","","","","-11","","NA"
"-60.14","47.23","ST PAUL ISLAND (AUT)","8204909","2018-01-19 04:00","2018","01","19","04:00","-3.3","","-7.8","","71","","","M","33","","31","","","","100.19","","","","-11","","NA"
"-60.14","47.23","ST PAUL ISLAND (AUT)","8204909","2018-01-19 05:00","2018","01","19","05:00","-3.7","","-7.4","","75","","","M","32","","31","","","","100.25","","","","-11","","NA"
"-60.14","47.23","ST PAUL ISLAND (AUT)","8204909","2018-01-19 06:00","2018","01","19","06:00","-4.2","","-7.8","","76","","","M","33","","38","","","","100.22","","","","-13","","NA"
"-60.14","47.23","ST PAUL ISLAND (AUT)","8204909","2018-01-19 07:00","2018","01","19","07:00","-4.3","","-7.9","","76","","","M","33","","33","","","","100.27","","","","-12","","NA"
"-60.14","47.23","ST PAUL ISLAND (AUT)","8204909","2018-01-19 08:00","2018","01","19","08:00","-4.5","","-7.8","","77","","","M","33","","35","","","","100.28","","","","-13","","NA"
"-60.14","47.23","ST PAUL ISLAND (AUT)","8204909","2018-01-19 09:00","2018","01","19","09:00","-4.4","","-7.9","","77","","","M","33","","39","","","","100.28","","","","-13","","NA"
"-60.14","47.23","ST PAUL ISLAND (AUT)","8204909","2018-01-19 10:00","2018","01","19","10:00","-4.3","","-8.3","","74","","","M","34","","36","","","","100.34","","","","-13","","NA"
"-60.14","47.23","ST PAUL ISLAND (AUT)","8204909","2018-01-19 11:00","2018","01","19","11:00","-4.3","","-8.5","","73","","","M","35","","32","","","","100.33","","","","-12","","NA"
"-60.14","47.23","ST PAUL ISLAND (AUT)","8204909","2018-01-19 12:00","2018","01","19","12:00","-4.3","","-7.8","","77","","","M","34","","28","","","","100.31","","","","-12","","NA"
"-60.14","47.23","ST PAUL ISLAND (AUT)","8204909","2018-01-19 13:00","2018","01","19","13:00","-4.8","","-8.7","","74","","","M","34","","33","","","","100.25","","","","-13","","NA"
"-60.14","47.23","ST PAUL ISLAND (AUT)","8204909","2018-01-19 14:00","2018","01","19","14:00","-4.8","","-8.5","","75","","","M","33","","31","","","","100.28","","","","-13","","NA"
"-60.14","47.23","ST PAUL ISLAND (AUT)","8204909","2018-01-19 15:00","2018","01","19","15:00","-5.1","","-8.9","","75","","","M","33","","32","","","","100.31","","","","-13","","NA"
"-60.14","47.23","ST PAUL ISLAND (AUT)","8204909","2018-01-19 16:00","2018","01","19","16:00","-5.3","","-9.3","","73","","","M","32","","35","","","","100.39","","","","-14","","NA"
"-60.14","47.23","ST PAUL ISLAND (AUT)","8204909","2018-01-19 17:00","2018","01","19","17:00","-5.3","","-9.1","","75","","","M","33","","36","","","","100.41","","","","-14","","NA"
"-60.14","47.23","ST PAUL ISLAND (AUT)","8204909","2018-01-19 18:00","2018","01","19","18:00","-5.5","","-9.5","","73","","","M","32","","36","","","","100.43","","","","-14","","NA"
"-60.14","47.23","ST PAUL ISLAND (AUT)","8204909","2018-01-19 19:00","2018","01","19","19:00","-5.6","","-9.2","","76","","","M","31","","32","","","","100.48","","","","-14","","NA"
"-60.14","47.23","ST PAUL ISLAND (AUT)","8204909","2018-01-19 20:00","2018","01","19","20:00","-5.8","","-9.6","","75","","","M","33","","31","","","","100.51","","","","-14","","NA"
"-60.14","47.23","ST PAUL ISLAND (AUT)","8204909","2018-01-19 21:00","2018","01","19","21:00","-6.0","","-9.4","","77","","","M","32","","28","","","","100.52","","","","-14","","NA"
"-60.14","47.23","ST PAUL ISLAND (AUT)","8204909","2018-01-19 22:00","2018","01","19","22:00","-6.0","","-9.5","","77","","","M","32","","26","","","","100.52","","","","-14","","NA"
"-60.14","47.23","ST PAUL ISLAND (AUT)","8204909","2018-01-19 23:00","2018","01","19","23:00","-5.8","","-9.2","","77","","","M","30","","25","","","","100.61","","","","-13","","NA"
"-60.14","47.23","ST PAUL ISLAND (AUT)","8204909","2018-01-20 00:00","2018","01","20","00:00","-6.3","","-10.0","","75","","","M","29","","26","","","","100.58","","","","-14","","NA"
"-60.14","47.23","ST PAUL ISLAND (AUT)","8204909","2018-01-20 01:00","2018","01","20","01:00","-5.9","","-9.8","","74","","","M","27","","31","","","","100.59","","","","-14","","NA"
"-60.14","47.23","ST PAUL ISLAND (AUT)","8204909","2018-01-20 02:00","2018","01","20","02:00","-6.1","","-10.0","","74","","","M","27","","25","","","","100.56","","","","-14","","NA"
"-60.14","47.23","ST PAUL ISLAND (AUT)","8204909","2018-01-20 03:00","2018","01","20","03:00","-6.1","","-9.9","","75","","","M","25","","27","","","","100.56","","","","-14","","NA"
"-60.14","47.23","ST PAUL ISLAND (AUT)","8204909","2018-01-20 04:00","2018","01","20","04:00","-5.9","","-9.4","","76","","","M","26","","28","","","","100.53","","","","-14","","NA"
"-60.14","47.23","ST PAUL ISLAND (AUT)","8204909","2018-01-20 05:00","2018","01","20","05:00","-5.6","","-8.9","","78","","","M","25","","27","","","","100.43","","","","-13","","NA"
"-60.14","47.23","ST PAUL ISLAND (AUT)","8204909","2018-01-20 06:00","2018","01","20","06:00","-5.9","","-9.4","","77","","","M","21","","21","","","","100.43","","","","-13","","NA"
"-60.14","47.23","ST PAUL ISLAND (AUT)","8204909","2018-01-20 07:00","2018","01","20","07:00","-5.9","","-9.5","","76","","","M","20","","17","","","","100.38","","","","-12","","NA"
"-60.14","47.23","ST PAUL ISLAND (AUT)","8204909","2018-01-20 08:00","2018","01","20","08:00","-5.8","","-9.4","","76","","","M","17","","21","","","","100.28","","","","-13","","NA"
"-60.14","47.23","ST PAUL ISLAND (AUT)","8204909","2018-01-20 09:00","2018","01","20","09:00","-5.4","","-8.4","","79","","","M","17","","26","","","","100.15","","","","-13","","NA"
"-60.14","47.23","ST PAUL ISLAND (AUT)","8204909","2018-01-20 10:00","2018","01","20","10:00","-4.6","","-7.2","","82","","","M","17","","43","","","","99.92","","","","-14","","NA"
"-60.14","47.23","ST PAUL ISLAND (AUT)","8204909","2018-01-20 11:00","2018","01","20","11:00","-4.5","","-7.1","","82","","","M","17","","48","","","","99.73","","","","-14","","NA"
"-60.14","47.23","ST PAUL ISLAND (AUT)","8204909","2018-01-20 12:00","2018","01","20","12:00","-4.6","","-5.7","","92","","","M","17","","52","","","","99.44","","","","-15","","NA"
"-60.14","47.23","ST PAUL ISLAND (AUT)","8204909","2018-01-20 13:00","2018","01","20","13:00","-3.7","","-4.6","","94","","","M","17","","52","","","","99.27","","","","-13","","NA"
"-60.14","47.23","ST PAUL ISLAND (AUT)","8204909","2018-01-20 14:00","2018","01","20","14:00","-3.0","","-3.7","","95","","","M","17","","51","","","","99.01","","","","-12","","NA"
"-60.14","47.23","ST PAUL ISLAND (AUT)","8204909","2018-01-20 15:00","2018","01","20","15:00","-2.0","","-2.6","","96","","","M","17","","37","","","","98.86","","","","-10","","NA"
"-60.14","47.23","ST PAUL ISLAND (AUT)","8204909","2018-01-20 16:00","2018","01","20","16:00","-0.7","","-1.3","","96","","","M","18","","35","","","","98.77","","","","-8","","NA"
"-60.14","47.23","ST PAUL ISLAND (AUT)","8204909","2018-01-20 17:00","2018","01","20","17:00","1.8","","0.0","","88","","","M","24","","54","","","","98.67","","","","","","NA"
"-60.14","47.23","ST PAUL ISLAND (AUT)","8204909","2018-01-20 18:00","2018","01","20","18:00","0.8","","-1.0","","88","","","M","25","","62","","","","98.61","","","","","","NA"
"-60.14","47.23","ST PAUL ISLAND (AUT)","8204909","2018-01-20 19:00","2018","01","20","19:00","0.3","","-1.7","","87","","","M","26","","58","","","","98.73","","","","","","NA"
"-60.14","47.23","ST PAUL ISLAND (AUT)","8204909","2018-01-20 20:00","2018","01","20","20:00","0.1","","-1.7","","87","","","M","25","","51","","","","98.80","","","","","","NA"
"-60.14","47.23","ST PAUL ISLAND (AUT)","8204909","2018-01-20 21:00","2018","01","20","21:00","0.0","","-1.8","","88","","","M","25","","58","","","","98.78","","","","-9","","NA"
"-60.14","47.23","ST PAUL ISLAND (AUT)","8204909","2018-01-20 22:00","2018","01","20","22:00","0.0","","-1.7","","88","","","M","25","","59","","","","98.90","","","","-9","","NA"
"-60.14","47.23","ST PAUL ISLAND (AUT)","8204909","2018-01-20 23:00","2018","01","20","23:00","0.1","","-1.5","","89","","","M","25","","54","","","","98.98","","","","","","NA"
"-60.14","47.23","ST PAUL ISLAND (AUT)","8204909","2018-01-21 00:00","2018","01","21","00:00","0.2","","-1.5","","88","","","M","26","","56","","","","99.03","","","","","","NA"
"-60.14","47.23","ST PAUL ISLAND (AUT)","8204909","2018-01-21 01:00","2018","01","21","01:00","0.6","","-1.5","","86","","","M","28","","69","","","","99.04","","","","","","NA"
"-60.14","47.23","ST PAUL ISLAND (AUT)","8204909","2018-01-21 02:00","2018","01","21","02:00","-1.4","","-3.0","","89","","","M","31","","57","","","","99.28","","","","-11","","NA"
"-60.14","47.23","ST PAUL ISLAND (AUT)","8204909","2018-01-21 03:00","2018","01","21","03:00","-2.0","","-5.3","","78","","","M","30","","68","","","","99.44","","","","-12","","NA"
"-60.14","47.23","ST PAUL ISLAND (AUT)","8204909","2018-01-21 04:00","2018","01","21","04:00","-3.4","","-6.3","","81","","","M","30","","64","","","","99.66","","","","-14","","NA"
"-60.14","47.23","ST PAUL ISLAND (AUT)","8204909","2018-01-21 05:00","2018","01","21","05:00","-3.7","","-6.9","","78","","","M","31","","71","","","","99.73","","","","-15","","NA"
"-60.14","47.23","ST PAUL ISLAND (AUT)","8204909","2018-01-21 06:00","2018","01","21","06:00","-4.3","","-7.6","","78","","","M","31","","70","","","","99.95","","","","-15","","NA"
"-60.14","47.23","ST PAUL ISLAND (AUT)","8204909","2018-01-21 07:00","2018","01","21","07:00","-4.4","","-7.9","","77","","","M","29","","70","","","","100.11","","","","-15","","NA"
"-60.14","47.23","ST PAUL ISLAND (AUT)","8204909","2018-01-21 08:00","2018","01","21","08:00","-4.7","","-7.9","","79","","","M","30","","67","","","","100.20","","","","-16","","NA"
"-60.14","47.23","ST PAUL ISLAND (AUT)","8204909","2018-01-21 09:00","2018","01","21","09:00","-5.1","","-8.1","","80","","","M","30","","60","","","","100.33","","","","-16","","NA"
"-60.14","47.23","ST PAUL ISLAND (AUT)","8204909","2018-01-21 10:00","2018","01","21","10:00","-5.5","","-8.6","","79","","","M","30","","59","","","","100.41","","","","-16","","NA"
"-60.14","47.23","ST PAUL ISLAND (AUT)","8204909","2018-01-21 11:00","2018","01","21","11:00","-5.4","","-8.3","","80","","","M","30","","55","","","","100.48","","","","-16","","NA"
"-60.14","47.23","ST PAUL ISLAND (AUT)","8204909","2018-01-21 12:00","2018","01","21","12:00","-5.2","","-8.8","","76","","","M","29","","58","","","","100.49","","","","-16","","NA"
"-60.14","47.23","ST PAUL ISLAND (AUT)","8204909","2018-01-21 13:00","2018","01","21","13:00","-5.7","","-9.6","","74","","","M","28","","61","","","","100.46","","","","-17","","NA"
"-60.14","47.23","ST PAUL ISLAND (AUT)","8204909","2018-01-21 14:00","2018","01","21","14:00","-5.0","","-8.7","","76","","","M","28","","57","","","","100.46","","","","-15","","NA"
"-60.14","47.23","ST PAUL ISLAND (AUT)","8204909","2018-01-21 15:00","2018","01","21","15:00","-5.1","","-9.5","","71","","","M","27","","65","","","","100.53","","","","-16","","NA"
"-60.14","47.23","ST PAUL ISLAND (AUT)","8204909","2018-01-21 16:00","2018","01","21","16:00","-4.8","","-7.9","","78","","","M","28","","60","","","","100.63","","","","-15","","NA"
"-60.14","47.23","ST PAUL ISLAND (AUT)","8204909","2018-01-21 17:00","2018","01","21","17:00","-5.0","","-8.5","","77","","","M","27","","66","","","","100.66","","","","-16","","NA"
"-60.14","47.23","ST PAUL ISLAND (AUT)","8204909","2018-01-21 18:00","2018","01","21","18:00","-5.2","","-8.7","","76","","","M","29","","67","","","","100.72","","","","-16","","NA"
"-60.14","47.23","ST PAUL ISLAND (AUT)","8204909","2018-01-21 19:00","2018","01","21","19:00","-5.1","","-8.4","","78","","","M","28","","63","","","","100.84","","","","-16","","NA"
"-60.14","47.23","ST PAUL ISLAND (AUT)","8204909","2018-01-21 20:00","2018","01","21","20:00","-5.5","","-9.1","","76","","","M","29","","63","","","","100.87","","","","-17","","NA"
"-60.14","47.23","ST PAUL ISLAND (AUT)","8204909","2018-01-21 21:00","2018","01","21","21:00","-5.2","","-9.1","","74","","","M","29","","65","","","","100.89","","","","-16","","NA"
"-60.14","47.23","ST PAUL ISLAND (AUT)","8204909","2018-01-21 22:00","2018","01","21","22:00","-5.2","","-9.2","","74","","","M","29","","60","","","","100.94","","","","-16","","NA"
"-60.14","47.23","ST PAUL ISLAND (AUT)","8204909","2018-01-21 23:00","2018","01","21","23:00","-5.4","","-9.8","","71","","","M","29","","63","","","","100.94","","","","-16","","NA"
"-60.14","47.23","ST PAUL ISLAND (AUT)","8204909","2018-01-22 00:00","2018","01","22","00:00","-5.8","","-10.8","","68","","","M","29","","58","","","","101.00","","","","-17","","NA"
"-60.14","47.23","ST PAUL ISLAND (AUT)","8204909","2018-01-22 01:00","2018","01","22","01:00","-6.0","","-10.2","","72","","","M","28","","58","","","","101.00","","","","-17","","NA"
"-60.14","47.23","ST PAUL ISLAND (AUT)","8204909","2018-01-22 02:00","2018","01","22","02:00","-6.5","","-10.5","","73","","","M","28","","61","","","","101.09","","","","-18","","NA"
"-60.14","47.23","ST PAUL ISLAND (AUT)","8204909","2018-01-22 03:00","2018","01","22","03:00","-7.1","","-11.1","","73","","","M","28","","63","","","","101.13","","","","-19","","NA"
"-60.14","47.23","ST PAUL ISLAND (AUT)","8204909","2018-01-22 04:00","2018","01","22","04:00","-7.5","","-10.9","","77","","","M","28","","66","","","","101.10","","","","-20","","NA"
"-60.14","47.23","ST PAUL ISLAND (AUT)","8204909","2018-01-22 05:00","2018","01","22","05:00","-7.6","","-11.3","","75","","","M","29","","63","","","","101.18","","","","-20","","NA"
"-60.14","47.23","ST PAUL ISLAND (AUT)","8204909","2018-01-22 06:00","2018","01","22","06:00","-8.0","","-11.7","","75","","","M","28","","59","","","","101.23","","","","-20","","NA"
"-60.14","47.23","ST PAUL ISLAND (AUT)","8204909","2018-01-22 07:00","2018","01","22","07:00","-8.3","","-11.6","","78","","","M","27","","67","","","","101.23","","","","-21","","NA"
"-60.14","47.23","ST PAUL ISLAND (AUT)","8204909","2018-01-22 08:00","2018","01","22","08:00","-8.6","","-13.3","","69","","","M","29","","68","","","","101.35","","","","-21","","NA"
"-60.14","47.23","ST PAUL ISLAND (AUT)","8204909","2018-01-22 09:00","2018","01","22","09:00","-8.6","","-13.7","","67","","","M","29","","72","","","","101.42","","","","-22","","NA"
"-60.14","47.23","ST PAUL ISLAND (AUT)","8204909","2018-01-22 10:00","2018","01","22","10:00","-8.8","","-13.3","","70","","","M","29","","69","","","","101.49","","","","-22","","NA"
"-60.14","47.23","ST PAUL ISLAND (AUT)","8204909","2018-01-22 11:00","2018","01","22","11:00","-8.5","","-11.9","","77","","","M","29","","68","","","","101.57","","","","-21","","NA"
"-60.14","47.23","ST PAUL ISLAND (AUT)","8204909","2018-01-22 12:00","2018","01","22","12:00","-9.1","","-12.5","","76","","","M","29","","71","","","","101.56","","","","-22","","NA"
"-60.14","47.23","ST PAUL ISLAND (AUT)","8204909","2018-01-22 13:00","2018","01","22","13:00","-9.3","","-12.1","","80","","","M","30","","65","","","","101.69","","","","-22","","NA"
"-60.14","47.23","ST PAUL ISLAND (AUT)","8204909","2018-01-22 14:00","2018","01","22","14:00","-8.7","","-10.8","","84","","","M","29","","62","","","","101.79","","","","-21","","NA"
"-60.14","47.23","ST PAUL ISLAND (AUT)","8204909","2018-01-22 15:00","2018","01","22","15:00","-8.2","","-10.5","","83","","","M","28","","54","","","","101.93","","","","-20","","NA"
"-60.14","47.23","ST PAUL ISLAND (AUT)","8204909","2018-01-22 16:00","2018","01","22","16:00","-7.4","","-9.1","","88","","","M","29","","55","","","","102.03","","","","-19","","NA"
"-60.14","47.23","ST PAUL ISLAND (AUT)","8204909","2018-01-22 17:00","2018","01","22","17:00","-7.3","","-9.4","","85","","","M","29","","58","","","","102.08","","","","-19","","NA"
"-60.14","47.23","ST PAUL ISLAND (AUT)","8204909","2018-01-22 18:00","2018","01","22","18:00","-7.0","","-9.3","","84","","","M","29","","52","","","","102.16","","","","-18","","NA"
"-60.14","47.23","ST PAUL ISLAND (AUT)","8204909","2018-01-22 19:00","2018","01","22","19:00","-7.1","","-9.3","","84","","","M","29","","49","","","","102.27","","","","-18","","NA"
"-60.14","47.23","ST PAUL ISLAND (AUT)","8204909","2018-01-22 20:00","2018","01","22","20:00","-7.3","","-9.7","","83","","","M","29","","50","","","","102.36","","","","-18","","NA"
"-60.14","47.23","ST PAUL ISLAND (AUT)","8204909","2018-01-22 21:00","2018","01","22","21:00","-7.4","","-10.0","","82","","","M","29","","49","","","","102.38","","","","-18","","NA"
"-60.14","47.23","ST PAUL ISLAND (AUT)","8204909","2018-01-22 22:00","2018","01","22","22:00","-7.0","","-9.2","","84","","","M","29","","47","","","","102.41","","","","-17","","NA"
"-60.14","47.23","ST PAUL ISLAND (AUT)","8204909","2018-01-22 23:00","2018","01","22","23:00","-7.0","","-9.3","","83","","","M","29","","45","","","","102.47","","","","-17","","NA"
"-60.14","47.23","ST PAUL ISLAND (AUT)","8204909","2018-01-23 00:00","2018","01","23","00:00","-6.8","","-9.3","","83","","","M","29","","41","","","","102.47","","","","-17","","NA"
"-60.14","47.23","ST PAUL ISLAND (AUT)","8204909","2018-01-23 01:00","2018","01","23","01:00","-6.6","","-9.2","","82","","","M","30","","37","","","","102.49","","","","-16","","NA"
"-60.14","47.23","ST PAUL ISLAND (AUT)","8204909","2018-01-23 02:00","2018","01","23","02:00","-6.8","","-9.4","","81","","","M","30","","28","","","","102.51","","","","-15","","NA"
"-60.14","47.23","ST PAUL ISLAND (AUT)","8204909","2018-01-23 03:00","2018","01","23","03:00","-6.4","","-9.1","","81","","","M","30","","25","","","","102.55","","","","-14","","NA"
"-60.14","47.23","ST PAUL ISLAND (AUT)","8204909","2018-01-23 04:00","2018","01","23","04:00","-6.2","","-8.8","","82","","","M","28","","20","","","","102.57","","","","-13","","NA"
"-60.14","47.23","ST PAUL ISLAND (AUT)","8204909","2018-01-23 05:00","2018","01","23","05:00","-6.2","","-8.9","","81","","","M","29","","21","","","","102.59","","","","-13","","NA"
"-60.14","47.23","ST PAUL ISLAND (AUT)","8204909","2018-01-23 06:00","2018","01","23","06:00","-6.1","","-8.7","","81","","","M","30","","22","","","","102.61","","","","-13","","NA"
"-60.14","47.23","ST PAUL ISLAND (AUT)","8204909","2018-01-23 07:00","2018","01","23","07:00","-6.0","","-8.8","","81","","","M","28","","18","","","","102.62","","","","-12","","NA"
"-60.14","47.23","ST PAUL ISLAND (AUT)","8204909","2018-01-23 08:00","2018","01","23","08:00","-6.1","","-8.7","","82","","","M","28","","18","","","","102.65","","","","-13","","NA"
"-60.14","47.23","ST PAUL ISLAND (AUT)","8204909","2018-01-23 09:00","2018","01","23","09:00","-6.3","","-9.0","","81","","","M","23","","15","","","","102.68","","","","-12","","NA"
"-60.14","47.23","ST PAUL ISLAND (AUT)","8204909","2018-01-23 10:00","2018","01","23","10:00","-6.3","","-9.3","","79","","","M","21","","11","","","","102.64","","","","-11","","NA"
"-60.14","47.23","ST PAUL ISLAND (AUT)","8204909","2018-01-23 11:00","2018","01","23","11:00","-5.7","","-8.4","","81","","","M","16","","19","","","","102.63","","","","-12","","NA"
"-60.14","47.23","ST PAUL ISLAND (AUT)","8204909","2018-01-23 12:00","2018","01","23","12:00","-5.6","","-8.4","","81","","","M","16","","22","","","","102.50","","","","-13","","NA"
"-60.14","47.23","ST PAUL ISLAND (AUT)","8204909","2018-01-23 13:00","2018","01","23","13:00","-4.9","","-8.4","","77","","","M","15","","27","","","","102.35","","","","-12","","NA"
"-60.14","47.23","ST PAUL ISLAND (AUT)","8204909","2018-01-23 14:00","2018","01","23","14:00","-4.6","","-7.1","","83","","","M","15","","31","","","","102.22","","","","-13","","NA"
"-60.14","47.23","ST PAUL ISLAND (AUT)","8204909","2018-01-23 15:00","2018","01","23","15:00","-4.2","","-6.3","","85","","","M","15","","41","","","","102.14","","","","-13","","NA"
"-60.14","47.23","ST PAUL ISLAND (AUT)","8204909","2018-01-23 16:00","2018","01","23","16:00","-3.4","","-4.4","","93","","","M","14","","44","","","","102.00","","","","-12","","NA"
"-60.14","47.23","ST PAUL ISLAND (AUT)","8204909","2018-01-23 17:00","2018","01","23","17:00","-3.0","","-3.8","","94","","","M","15","","56","","","","101.84","","","","-13","","NA"
"-60.14","47.23","ST PAUL ISLAND (AUT)","8204909","2018-01-23 18:00","2018","01","23","18:00","-2.5","","-3.3","","95","","","M","14","","50","","","","101.69","","","","-12","","NA"
"-60.14","47.23","ST PAUL ISLAND (AUT)","8204909","2018-01-23 19:00","2018","01","23","19:00","-1.9","","-2.8","","94","","","M","15","","53","","","","101.55","","","","-11","","NA"
"-60.14","47.23","ST PAUL ISLAND (AUT)","8204909","2018-01-23 20:00","2018","01","23","20:00","-1.5","","-2.5","","93","","","M","15","","59","","","","101.33","","","","-11","","NA"
"-60.14","47.23","ST PAUL ISLAND (AUT)","8204909","2018-01-23 21:00","2018","01","23","21:00","-1.0","","-2.3","","91","","","M","15","","79","","","","101.04","","","","-11","","NA"
"-60.14","47.23","ST PAUL ISLAND (AUT)","8204909","2018-01-23 22:00","2018","01","23","22:00","-0.7","","-1.7","","93","","","M","14","","69","","","","100.93","","","","-10","","NA"
"-60.14","47.23","ST PAUL ISLAND (AUT)","8204909","2018-01-23 23:00","2018","01","23","23:00","-0.2","","-1.0","","94","","","M","14","","45","","","","100.85","","","","-8","","NA"
"-60.14","47.23","ST PAUL ISLAND (AUT)","8204909","2018-01-24 00:00","2018","01","24","00:00","0.1","","-0.5","","95","","","M","14","","34","","","","100.64","","","","","","NA"
"-60.14","47.23","ST PAUL ISLAND (AUT)","8204909","2018-01-24 01:00","2018","01","24","01:00","1.0","","0.5","","96","","","M","15","","53","","","","100.20","","","","","","NA"
"-60.14","47.23","ST PAUL ISLAND (AUT)","8204909","2018-01-24 02:00","2018","01","24","02:00","1.8","","1.3","","97","","","M","16","","55","","","","99.96","","","","","","NA"
"-60.14","47.23","ST PAUL ISLAND (AUT)","8204909","2018-01-24 03:00","2018","01","24","03:00","1.7","","1.2","","97","","","M","17","","53","","","","99.78","","","","","","NA"
"-60.14","47.23","ST PAUL ISLAND (AUT)","8204909","2018-01-24 04:00","2018","01","24","04:00","2.0","","1.6","","97","","","M","16","","57","","","","99.52","","","","","","NA"
"-60.14","47.23","ST PAUL ISLAND (AUT)","8204909","2018-01-24 05:00","2018","01","24","05:00","2.3","","1.8","","97","","","M","17","","52","","","","99.31","","","","","","NA"
"-60.14","47.23","ST PAUL ISLAND (AUT)","8204909","2018-01-24 06:00","2018","01","24","06:00","2.7","","2.3","","97","","","M","17","","52","","","","99.11","","","","","","NA"
"-60.14","47.23","ST PAUL ISLAND (AUT)","8204909","2018-01-24 07:00","2018","01","24","07:00","3.3","","2.9","","97","","","M","17","","53","","","","98.92","","","","","","NA"
"-60.14","47.23","ST PAUL ISLAND (AUT)","8204909","2018-01-24 08:00","2018","01","24","08:00","4.0","","3.5","","97","","","M","17","","54","","","","98.77","","","","","","NA"
"-60.14","47.23","ST PAUL ISLAND (AUT)","8204909","2018-01-24 09:00","2018","01","24","09:00","6.9","","6.4","","96","","","M","18","","41","","","","98.78","","","","","","NA"
"-60.14","47.23","ST PAUL ISLAND (AUT)","8204909","2018-01-24 10:00","2018","01","24","10:00","9.7","","7.1","","84","","","M","20","","35","","","","98.79","","","","","","NA"
"-60.14","47.23","ST PAUL ISLAND (AUT)","8204909","2018-01-24 11:00","2018","01","24","11:00","4.4","","2.1","","85","","","M","24","","68","","","","98.85","","","","","","NA"
"-60.14","47.23","ST PAUL ISLAND (AUT)","8204909","2018-01-24 12:00","2018","01","24","12:00","2.9","","1.0","","87","","","M","23","","52","","","","98.91","","","","","","NA"
"-60.14","47.23","ST PAUL ISLAND (AUT)","8204909","2018-01-24 13:00","2018","01","24","13:00","2.0","","0.3","","88","","","M","25","","59","","","","98.87","","","","","","NA"
"-60.14","47.23","ST PAUL ISLAND (AUT)","8204909","2018-01-24 14:00","2018","01","24","14:00","1.6","","-0.4","","86","","","M","25","","61","","","","98.93","","","","","","NA"
"-60.14","47.23","ST PAUL ISLAND (AUT)","8204909","2018-01-24 15:00","2018","01","24","15:00","1.2","","-0.7","","88","","","M","24","","48","","","","99.11","","","","","","NA"
"-60.14","47.23","ST PAUL ISLAND (AUT)","8204909","2018-01-24 16:00","2018","01","24","16:00","0.3","","-0.8","","92","","","M","26","","59","","","","99.07","","","","","","NA"
"-60.14","47.23","ST PAUL ISLAND (AUT)","8204909","2018-01-24 17:00","2018","01","24","17:00","-0.1","","-0.8","","95","","","M","25","","35","","","","99.26","","","","-7","","NA"
"-60.14","47.23","ST PAUL ISLAND (AUT)","8204909","2018-01-24 18:00","2018","01","24","18:00","0.0","","-1.0","","93","","","M","23","","26","","","","99.27","","","","-6","","NA"
"-60.14","47.23","ST PAUL ISLAND (AUT)","8204909","2018-01-24 19:00","2018","01","24","19:00","-1.4","","-2.9","","89","","","M","25","","47","","","","99.41","","","","-10","","NA"
"-60.14","47.23","ST PAUL ISLAND (AUT)","8204909","2018-01-24 20:00","2018","01","24","20:00","-1.1","","-3.7","","83","","","M","26","","44","","","","99.45","","","","-9","","NA"
"-60.14","47.23","ST PAUL ISLAND (AUT)","8204909","2018-01-24 21:00","2018","01","24","21:00","-2.8","","-4.8","","86","","","M","28","","44","","","","99.59","","","","-11","","NA"
"-60.14","47.23","ST PAUL ISLAND (AUT)","8204909","2018-01-24 22:00","2018","01","24","22:00","-3.5","","-6.7","","79","","","M","28","","53","","","","99.62","","","","-13","","NA"
"-60.14","47.23","ST PAUL ISLAND (AUT)","8204909","2018-01-24 23:00","2018","01","24","23:00","-3.9","","-6.7","","81","","","M","27","","54","","","","99.66","","","","-14","","NA"
"-60.14","47.23","ST PAUL ISLAND (AUT)","8204909","2018-01-25 00:00","2018","01","25","00:00","-4.7","","-7.8","","79","","","M","27","","61","","","","99.70","","","","-15","","NA"
"-60.14","47.23","ST PAUL ISLAND (AUT)","8204909","2018-01-25 01:00","2018","01","25","01:00","-5.9","","-9.5","","75","","","M","27","","63","","","","99.71","","","","-17","","NA"
"-60.14","47.23","ST PAUL ISLAND (AUT)","8204909","2018-01-25 02:00","2018","01","25","02:00","-6.7","","-9.5","","81","","","M","27","","64","","","","99.81","","","","-18","","NA"
"-60.14","47.23","ST PAUL ISLAND (AUT)","8204909","2018-01-25 03:00","2018","01","25","03:00","-6.7","","-9.6","","80","","","M","26","","73","","","","99.85","","","","-19","","NA"
"-60.14","47.23","ST PAUL ISLAND (AUT)","8204909","2018-01-25 04:00","2018","01","25","04:00","-7.1","","-9.7","","82","","","M","27","","73","","","","99.87","","","","-19","","NA"
"-60.14","47.23","ST PAUL ISLAND (AUT)","8204909","2018-01-25 05:00","2018","01","25","05:00","-7.3","","-9.8","","82","","","M","27","","73","","","","99.92","","","","-20","","NA"
"-60.14","47.23","ST PAUL ISLAND (AUT)","8204909","2018-01-25 06:00","2018","01","25","06:00","-7.3","","-9.2","","87","","","M","26","","70","","","","99.95","","","","-20","","NA"
"-60.14","47.23","ST PAUL ISLAND (AUT)","8204909","2018-01-25 07:00","2018","01","25","07:00","-7.1","","-9.4","","84","","","M","26","","67","","","","100.08","","","","-19","","NA"
"-60.14","47.23","ST PAUL ISLAND (AUT)","8204909","2018-01-25 08:00","2018","01","25","08:00","-7.1","","-9.4","","84","","","M","26","","60","","","","100.20","","","","-19","","NA"
"-60.14","47.23","ST PAUL ISLAND (AUT)","8204909","2018-01-25 09:00","2018","01","25","09:00","-7.6","","-9.5","","86","","","M","26","","58","","","","100.22","","","","-19","","NA"
"-60.14","47.23","ST PAUL ISLAND (AUT)","8204909","2018-01-25 10:00","2018","01","25","10:00","-7.5","","-10.0","","82","","","M","26","","55","","","","100.32","","","","-19","","NA"
"-60.14","47.23","ST PAUL ISLAND (AUT)","8204909","2018-01-25 11:00","2018","01","25","11:00","-7.7","","-10.1","","82","","","M","26","","52","","","","100.41","","","","-19","","NA"
"-60.14","47.23","ST PAUL ISLAND (AUT)","8204909","2018-01-25 12:00","2018","01","25","12:00","-7.6","","-10.4","","80","","","M","27","","55","","","","100.35","","","","-19","","NA"
"-60.14","47.23","ST PAUL ISLAND (AUT)","8204909","2018-01-25 13:00","2018","01","25","13:00","-7.4","","-9.8","","82","","","M","26","","54","","","","100.38","","","","-19","","NA"
"-60.14","47.23","ST PAUL ISLAND (AUT)","8204909","2018-01-25 14:00","2018","01","25","14:00","-8.2","","-9.8","","89","","","M","27","","51","","","","100.32","","","","-19","","NA"
"-60.14","47.23","ST PAUL ISLAND (AUT)","8204909","2018-01-25 15:00","2018","01","25","15:00","-8.0","","-11.3","","77","","","M","28","","56","","","","100.32","","","","-20","","NA"
"-60.14","47.23","ST PAUL ISLAND (AUT)","8204909","2018-01-25 16:00","2018","01","25","16:00","-7.9","","-11.2","","77","","","M","27","","55","","","","100.41","","","","-19","","NA"
"-60.14","47.23","ST PAUL ISLAND (AUT)","8204909","2018-01-25 17:00","2018","01","25","17:00","-7.7","","-9.9","","84","","","M","28","","49","","","","100.53","","","","-19","","NA"
"-60.14","47.23","ST PAUL ISLAND (AUT)","8204909","2018-01-25 18:00","2018","01","25","18:00","-8.3","","-10.2","","86","","","M","29","","42","","","","100.61","","","","-19","","NA"
"-60.14","47.23","ST PAUL ISLAND (AUT)","8204909","2018-01-25 19:00","2018","01","25","19:00","-7.9","","-11.0","","78","","","M","28","","41","","","","100.67","","","","-18","","NA"
"-60.14","47.23","ST PAUL ISLAND (AUT)","8204909","2018-01-25 20:00","2018","01","25","20:00","-7.9","","-10.7","","80","","","M","29","","46","","","","100.68","","","","-19","","NA"
"-60.14","47.23","ST PAUL ISLAND (AUT)","8204909","2018-01-25 21:00","2018","01","25","21:00","-7.6","","-10.6","","79","","","M","28","","46","","","","100.69","","","","-18","","NA"
"-60.14","47.23","ST PAUL ISLAND (AUT)","8204909","2018-01-25 22:00","2018","01","25","22:00","-7.4","","-10.2","","80","","","M","28","","51","","","","100.74","","","","-18","","NA"
"-60.14","47.23","ST PAUL ISLAND (AUT)","8204909","2018-01-25 23:00","2018","01","25","23:00","-7.1","","-10.1","","80","","","M","27","","57","","","","100.73","","","","-18","","NA"
"-60.14","47.23","ST PAUL ISLAND (AUT)","8204909","2018-01-26 00:00","2018","01","26","00:00","-6.6","","-8.9","","84","","","M","27","","63","","","","100.75","","","","-18","","NA"
"-60.14","47.23","ST PAUL ISLAND (AUT)","8204909","2018-01-26 01:00","2018","01","26","01:00","-6.5","","-8.7","","85","","","M","28","","63","","","","100.74","","","","-18","","NA"
"-60.14","47.23","ST PAUL ISLAND (AUT)","8204909","2018-01-26 02:00","2018","01","26","02:00","-6.5","","-8.5","","86","","","M","28","","61","","","","100.82","","","","-18","","NA"
"-60.14","47.23","ST PAUL ISLAND (AUT)","8204909","2018-01-26 03:00","2018","01","26","03:00","-6.1","","-7.9","","87","","","M","28","","60","","","","100.87","","","","-17","","NA"
"-60.14","47.23","ST PAUL ISLAND (AUT)","8204909","2018-01-26 04:00","2018","01","26","04:00","-6.2","","-8.5","","84","","","M","28","","59","","","","100.94","","","","-17","","NA"
"-60.14","47.23","ST PAUL ISLAND (AUT)","8204909","2018-01-26 05:00","2018","01","26","05:00","-6.7","","-8.1","","89","","","M","29","","58","","","","101.07","","","","-18","","NA"
"-60.14","47.23","ST PAUL ISLAND (AUT)","8204909","2018-01-26 06:00","2018","01","26","06:00","-6.8","","-9.0","","84","","","M","31","","57","","","","101.14","","","","-18","","NA"
"-60.14","47.23","ST PAUL ISLAND (AUT)","8204909","2018-01-26 07:00","2018","01","26","07:00","-7.3","","-9.3","","85","","","M","31","","57","","","","101.26","","","","-19","","NA"
"-60.14","47.23","ST PAUL ISLAND (AUT)","8204909","2018-01-26 08:00","2018","01","26","08:00","-7.3","","-9.3","","86","","","M","30","","54","","","","101.38","","","","-18","","NA"
"-60.14","47.23","ST PAUL ISLAND (AUT)","8204909","2018-01-26 09:00","2018","01","26","09:00","-7.1","","-9.3","","84","","","M","30","","58","","","","101.49","","","","-18","","NA"
"-60.14","47.23","ST PAUL ISLAND (AUT)","8204909","2018-01-26 10:00","2018","01","26","10:00","-7.6","","-10.5","","80","","","M","29","","54","","","","101.59","","","","-19","","NA"
"-60.14","47.23","ST PAUL ISLAND (AUT)","8204909","2018-01-26 11:00","2018","01","26","11:00","-7.7","","-9.7","","85","","","M","31","","50","","","","101.65","","","","-19","","NA"
"-60.14","47.23","ST PAUL ISLAND (AUT)","8204909","2018-01-26 12:00","2018","01","26","12:00","-7.5","","-10.1","","81","","","M","32","","50","","","","101.69","","","","-18","","NA"
"-60.14","47.23","ST PAUL ISLAND (AUT)","8204909","2018-01-26 13:00","2018","01","26","13:00","-7.7","","-10.4","","81","","","M","31","","47","","","","101.72","","","","-18","","NA"
"-60.14","47.23","ST PAUL ISLAND (AUT)","8204909","2018-01-26 14:00","2018","01","26","14:00","-7.7","","-10.4","","81","","","M","32","","48","","","","101.78","","","","-18","","NA"
"-60.14","47.23","ST PAUL ISLAND (AUT)","8204909","2018-01-26 15:00","2018","01","26","15:00","-7.1","","-10.1","","79","","","M","31","","51","","","","101.86","","","","-18","","NA"
"-60.14","47.23","ST PAUL ISLAND (AUT)","8204909","2018-01-26 16:00","2018","01","26","16:00","-7.1","","-10.5","","76","","","M","32","","52","","","","101.98","","","","-18","","NA"
"-60.14","47.23","ST PAUL ISLAND (AUT)","8204909","2018-01-26 17:00","2018","01","26","17:00","-7.0","","-10.3","","77","","","M","32","","50","","","","102.10","","","","-18","","NA"
"-60.14","47.23","ST PAUL ISLAND (AUT)","8204909","2018-01-26 18:00","2018","01","26","18:00","-6.7","","-10.4","","76","","","M","32","","53","","","","102.20","","","","-18","","NA"
"-60.14","47.23","ST PAUL ISLAND (AUT)","8204909","2018-01-26 19:00","2018","01","26","19:00","-6.4","","-9.7","","78","","","M","33","","54","","","","102.28","","","","-17","","NA"
"-60.14","47.23","ST PAUL ISLAND (AUT)","8204909","2018-01-26 20:00","2018","01","26","20:00","-6.5","","-10.5","","73","","","M","32","","52","","","","102.39","","","","-17","","NA"
"-60.14","47.23","ST PAUL ISLAND (AUT)","8204909","2018-01-26 21:00","2018","01","26","21:00","-6.0","","-9.7","","75","","","M","32","","51","","","","102.46","","","","-16","","NA"
"-60.14","47.23","ST PAUL ISLAND (AUT)","8204909","2018-01-26 22:00","2018","01","26","22:00","-6.0","","-10.1","","73","","","M","32","","52","","","","102.50","","","","-16","","NA"
"-60.14","47.23","ST PAUL ISLAND (AUT)","8204909","2018-01-26 23:00","2018","01","26","23:00","-5.8","","-9.7","","74","","","M","31","","49","","","","102.57","","","","-16","","NA"
"-60.14","47.23","ST PAUL ISLAND (AUT)","8204909","2018-01-27 00:00","2018","01","27","00:00","-5.9","","-9.6","","75","","","M","31","","46","","","","102.60","","","","-16","","NA"
"-60.14","47.23","ST PAUL ISLAND (AUT)","8204909","2018-01-27 01:00","2018","01","27","01:00","-6.1","","-9.8","","75","","","M","32","","45","","","","102.62","","","","-16","","NA"
"-60.14","47.23","ST PAUL ISLAND (AUT)","8204909","2018-01-27 02:00","2018","01","27","02:00","-5.7","","-9.2","","76","","","M","31","","40","","","","102.70","","","","-15","","NA"
"-60.14","47.23","ST PAUL ISLAND (AUT)","8204909","2018-01-27 03:00","2018","01","27","03:00","-5.5","","-8.7","","78","","","M","32","","38","","","","102.77","","","","-15","","NA"
"-60.14","47.23","ST PAUL ISLAND (AUT)","8204909","2018-01-27 04:00","2018","01","27","04:00","-5.8","","-9.6","","74","","","M","30","","37","","","","102.83","","","","-15","","NA"
"-60.14","47.23","ST PAUL ISLAND (AUT)","8204909","2018-01-27 05:00","2018","01","27","05:00","-5.7","","-9.9","","72","","","M","30","","34","","","","102.91","","","","-14","","NA"
"-60.14","47.23","ST PAUL ISLAND (AUT)","8204909","2018-01-27 06:00","2018","01","27","06:00","-5.6","","-9.6","","74","","","M","28","","30","","","","102.95","","","","-14","","NA"
"-60.14","47.23","ST PAUL ISLAND (AUT)","8204909","2018-01-27 07:00","2018","01","27","07:00","-6.1","","-10.1","","73","","","M","28","","33","","","","103.00","","","","-15","","NA"
"-60.14","47.23","ST PAUL ISLAND (AUT)","8204909","2018-01-27 08:00","2018","01","27","08:00","-6.4","","-9.7","","77","","","M","26","","34","","","","103.03","","","","-15","","NA"
"-60.14","47.23","ST PAUL ISLAND (AUT)","8204909","2018-01-27 09:00","2018","01","27","09:00","-6.4","","-9.7","","77","","","M","26","","28","","","","103.02","","","","-15","","NA"
"-60.14","47.23","ST PAUL ISLAND (AUT)","8204909","2018-01-27 10:00","2018","01","27","10:00","-6.2","","-9.7","","76","","","M","26","","23","","","","103.00","","","","-14","","NA"
"-60.14","47.23","ST PAUL ISLAND (AUT)","8204909","2018-01-27 11:00","2018","01","27","11:00","-6.5","","-9.8","","78","","","M","25","","32","","","","103.01","","","","-15","","NA"
"-60.14","47.23","ST PAUL ISLAND (AUT)","8204909","2018-01-27 12:00","2018","01","27","12:00","-5.5","","-10.3","","69","","","M","19","","12","","","","102.90","","","","-10","","NA"
"-60.14","47.23","ST PAUL ISLAND (AUT)","8204909","2018-01-27 13:00","2018","01","27","13:00","-5.5","","-9.5","","73","","","M","17","","18","","","","102.76","","","","-12","","NA"
"-60.14","47.23","ST PAUL ISLAND (AUT)","8204909","2018-01-27 14:00","2018","01","27","14:00","-5.1","","-8.9","","75","","","M","17","","22","","","","102.65","","","","-12","","NA"
"-60.14","47.23","ST PAUL ISLAND (AUT)","8204909","2018-01-27 15:00","2018","01","27","15:00","-4.5","","-8.2","","75","","","M","17","","21","","","","102.59","","","","-11","","NA"
"-60.14","47.23","ST PAUL ISLAND (AUT)","8204909","2018-01-27 16:00","2018","01","27","16:00","-3.1","","-7.6","","71","","","M","17","","24","","","","102.42","","","","-10","","NA"
"-60.14","47.23","ST PAUL ISLAND (AUT)","8204909","2018-01-27 17:00","2018","01","27","17:00","-3.0","","-7.3","","72","","","M","17","","29","","","","102.30","","","","-10","","NA"
"-60.14","47.23","ST PAUL ISLAND (AUT)","8204909","2018-01-27 18:00","2018","01","27","18:00","-3.1","","-8.1","","68","","","M","18","","33","","","","102.21","","","","-11","","NA"
"-60.14","47.23","ST PAUL ISLAND (AUT)","8204909","2018-01-27 19:00","2018","01","27","19:00","-2.8","","-7.3","","71","","","M","18","","37","","","","102.10","","","","-11","","NA"
"-60.14","47.23","ST PAUL ISLAND (AUT)","8204909","2018-01-27 20:00","2018","01","27","20:00","-2.2","","-5.2","","80","","","M","17","","37","","","","102.02","","","","-10","","NA"
"-60.14","47.23","ST PAUL ISLAND (AUT)","8204909","2018-01-27 21:00","2018","01","27","21:00","-1.9","","-4.2","","84","","","M","17","","49","","","","101.83","","","","-11","","NA"
"-60.14","47.23","ST PAUL ISLAND (AUT)","8204909","2018-01-27 22:00","2018","01","27","22:00","-0.9","","-3.5","","83","","","M","17","","48","","","","101.69","","","","-9","","NA"
"-60.14","47.23","ST PAUL ISLAND (AUT)","8204909","2018-01-27 23:00","2018","01","27","23:00","-0.4","","-2.7","","84","","","M","17","","38","","","","101.60","","","","-8","","NA"
"-60.14","47.23","ST PAUL ISLAND (AUT)","8204909","2018-01-28 00:00","2018","01","28","00:00","0.6","","-1.9","","83","","","M","18","","35","","","","101.46","","","","","","NA"
"-60.14","47.23","ST PAUL ISLAND (AUT)","8204909","2018-01-28 01:00","2018","01","28","01:00","3.2","","-0.5","","77","","","M","19","","35","","","","101.35","","","","","","NA"
"-60.14","47.23","ST PAUL ISLAND (AUT)","8204909","2018-01-28 02:00","2018","01","28","02:00","1.9","","-0.8","","82","","","M","18","","35","","","","101.26","","","","","","NA"
"-60.14","47.23","ST PAUL ISLAND (AUT)","8204909","2018-01-28 03:00","2018","01","28","03:00","5.2","","1.2","","75","","","M","23","","58","","","","101.16","","","","","","NA"
"-60.14","47.23","ST PAUL ISLAND (AUT)","8204909","2018-01-28 04:00","2018","01","28","04:00","4.9","","1.6","","79","","","M","21","","39","","","","101.14","","","","","","NA"
"-60.14","47.23","ST PAUL ISLAND (AUT)","8204909","2018-01-28 05:00","2018","01","28","05:00","4.4","","1.2","","80","","","M","22","","33","","","","101.08","","","","","","NA"
"-60.14","47.23","ST PAUL ISLAND (AUT)","8204909","2018-01-28 06:00","2018","01","28","06:00","3.7","","1.0","","83","","","M","23","","41","","","","100.99","","","","","","NA"
"-60.14","47.23","ST PAUL ISLAND (AUT)","8204909","2018-01-28 07:00","2018","01","28","07:00","3.7","","1.7","","87","","","M","24","","63","","","","100.93","","","","","","NA"
"-60.14","47.23","ST PAUL ISLAND (AUT)","8204909","2018-01-28 08:00","2018","01","28","08:00","3.4","","2.0","","91","","","M","25","","67","","","","100.95","","","","","","NA"
"-60.14","47.23","ST PAUL ISLAND (AUT)","8204909","2018-01-28 09:00","2018","01","28","09:00","3.2","","1.8","","91","","","M","23","","50","","","","101.11","","","","","","NA"
"-60.14","47.23","ST PAUL ISLAND (AUT)","8204909","2018-01-28 10:00","2018","01","28","10:00","2.7","","1.5","","92","","","M","23","","45","","","","101.09","","","","","","NA"
"-60.14","47.23","ST PAUL ISLAND (AUT)","8204909","2018-01-28 11:00","2018","01","28","11:00","2.8","","1.5","","91","","","M","24","","50","","","","101.07","","","","","","NA"
"-60.14","47.23","ST PAUL ISLAND (AUT)","8204909","2018-01-28 12:00","2018","01","28","12:00","2.7","","1.3","","91","","","M","23","","44","","","","101.08","","","","","","NA"
"-60.14","47.23","ST PAUL ISLAND (AUT)","8204909","2018-01-28 13:00","2018","01","28","13:00","2.4","","1.1","","91","","","M","23","","43","","","","101.03","","","","","","NA"
"-60.14","47.23","ST PAUL ISLAND (AUT)","8204909","2018-01-28 14:00","2018","01","28","14:00","2.6","","1.3","","91","","","M","24","","51","","","","101.04","","","","","","NA"
"-60.14","47.23","ST PAUL ISLAND (AUT)","8204909","2018-01-28 15:00","2018","01","28","15:00","2.3","","0.9","","91","","","M","24","","49","","","","101.07","","","","","","NA"
"-60.14","47.23","ST PAUL ISLAND (AUT)","8204909","2018-01-28 16:00","2018","01","28","16:00","2.1","","0.6","","90","","","M","24","","44","","","","101.16","","","","","","NA"
"-60.14","47.23","ST PAUL ISLAND (AUT)","8204909","2018-01-28 17:00","2018","01","28","17:00","2.2","","0.7","","90","","","M","24","","42","","","","101.24","","","","","","NA"
"-60.14","47.23","ST PAUL ISLAND (AUT)","8204909","2018-01-28 18:00","2018","01","28","18:00","1.4","","-0.5","","87","","","M","24","","42","","","","101.29","","","","","","NA"
"-60.14","47.23","ST PAUL ISLAND (AUT)","8204909","2018-01-28 19:00","2018","01","28","19:00","1.1","","-0.7","","88","","","M","25","","35","","","","101.33","","","","","","NA"
"-60.14","47.23","ST PAUL ISLAND (AUT)","8204909","2018-01-28 20:00","2018","01","28","20:00","0.9","","-0.9","","88","","","M","24","","26","","","","101.40","","","","","","NA"
"-60.14","47.23","ST PAUL ISLAND (AUT)","8204909","2018-01-28 21:00","2018","01","28","21:00","1.4","","-0.2","","89","","","M","24","","37","","","","101.45","","","","","","NA"
"-60.14","47.23","ST PAUL ISLAND (AUT)","8204909","2018-01-28 22:00","2018","01","28","22:00","1.3","","-0.9","","86","","","M","25","","40","","","","101.46","","","","","","NA"
"-60.14","47.23","ST PAUL ISLAND (AUT)","8204909","2018-01-28 23:00","2018","01","28","23:00","0.5","","-1.5","","87","","","M","27","","41","","","","101.49","","","","","","NA"
"-60.14","47.23","ST PAUL ISLAND (AUT)","8204909","2018-01-29 00:00","2018","01","29","00:00","0.3","","-2.1","","84","","","M","28","","46","","","","101.50","","","","","","NA"
"-60.14","47.23","ST PAUL ISLAND (AUT)","8204909","2018-01-29 01:00","2018","01","29","01:00","-1.6","","-3.6","","86","","","M","33","","38","","","","101.71","","","","-9","","NA"
"-60.14","47.23","ST PAUL ISLAND (AUT)","8204909","2018-01-29 02:00","2018","01","29","02:00","-2.8","","-5.4","","82","","","M","34","","38","","","","101.83","","","","-11","","NA"
"-60.14","47.23","ST PAUL ISLAND (AUT)","8204909","2018-01-29 03:00","2018","01","29","03:00","-3.5","","-6.0","","82","","","M","33","","34","","","","101.96","","","","-11","","NA"
"-60.14","47.23","ST PAUL ISLAND (AUT)","8204909","2018-01-29 04:00","2018","01","29","04:00","-4.1","","-7.2","","79","","","M","32","","34","","","","102.01","","","","-12","","NA"
"-60.14","47.23","ST PAUL ISLAND (AUT)","8204909","2018-01-29 05:00","2018","01","29","05:00","-4.3","","-7.7","","77","","","M","32","","34","","","","102.09","","","","-13","","NA"
"-60.14","47.23","ST PAUL ISLAND (AUT)","8204909","2018-01-29 06:00","2018","01","29","06:00","-4.4","","-7.9","","77","","","M","32","","36","","","","102.19","","","","-13","","NA"
"-60.14","47.23","ST PAUL ISLAND (AUT)","8204909","2018-01-29 07:00","2018","01","29","07:00","-4.8","","-8.4","","76","","","M","33","","38","","","","102.25","","","","-14","","NA"
"-60.14","47.23","ST PAUL ISLAND (AUT)","8204909","2018-01-29 08:00","2018","01","29","08:00","-5.6","","-9.6","","73","","","M","32","","33","","","","102.37","","","","-14","","NA"
"-60.14","47.23","ST PAUL ISLAND (AUT)","8204909","2018-01-29 09:00","2018","01","29","09:00"
"-60.14","47.23","ST PAUL ISLAND (AUT)","8204909","2018-01-29 10:00","2018","01","29","10:00","-5.1","","-9.3","","72","","","M","33","","21","","","","102.54","","","","-12","","NA"
"-60.14","47.23","ST PAUL ISLAND (AUT)","8204909","2018-01-29 11:00","2018","01","29","11:00","-5.1","","-9.4","","72","","","M","34","","25","","","","102.58","","","","-12","","NA"
"-60.14","47.23","ST PAUL ISLAND (AUT)","8204909","2018-01-29 12:00","2018","01","29","12:00","-5.5","","-10.3","","69","","","M","34","","26","","","","102.56","","","","-13","","NA"
"-60.14","47.23","ST PAUL ISLAND (AUT)","8204909","2018-01-29 13:00","2018","01","29","13:00","-5.8","","-10.9","","67","","","M","35","","27","","","","102.53","","","","-14","","NA"
"-60.14","47.23","ST PAUL ISLAND (AUT)","8204909","2018-01-29 14:00","2018","01","29","14:00","-6.0","","-11.1","","67","","","M","36","","32","","","","102.52","","","","-15","","NA"
"-60.14","47.23","ST PAUL ISLAND (AUT)","8204909","2018-01-29 15:00","2018","01","29","15:00","-6.0","","-10.5","","70","","","M","36","","33","","","","102.51","","","","-15","","NA"
"-60.14","47.23","ST PAUL ISLAND (AUT)","8204909","2018-01-29 16:00","2018","01","29","16:00","-6.3","","-10.9","","70","","","M","1","","32","","","","102.56","","","","-15","","NA"
"-60.14","47.23","ST PAUL ISLAND (AUT)","8204909","2018-01-29 17:00","2018","01","29","17:00","-6.2","","-10.0","","75","","","M","1","","29","","","","102.60","","","","-14","","NA"
"-60.14","47.23","ST PAUL ISLAND (AUT)","8204909","2018-01-29 18:00","2018","01","29","18:00","-6.5","","-10.7","","72","","","M","2","","31","","","","102.63","","","","-15","","NA"
"-60.14","47.23","ST PAUL ISLAND (AUT)","8204909","2018-01-29 19:00","2018","01","29","19:00","-6.5","","-10.6","","73","","","M","3","","28","","","","102.64","","","","-15","","NA"
"-60.14","47.23","ST PAUL ISLAND (AUT)","8204909","2018-01-29 20:00","2018","01","29","20:00","-6.5","","-10.8","","72","","","M","4","","32","","","","102.70","","","","-15","","NA"
"-60.14","47.23","ST PAUL ISLAND (AUT)","8204909","2018-01-29 21:00","2018","01","29","21:00","-6.5","","-10.5","","74","","","M","3","","34","","","","102.66","","","","-15","","NA"
"-60.14","47.23","ST PAUL ISLAND (AUT)","8204909","2018-01-29 22:00","2018","01","29","22:00","-6.3","","-9.9","","76","","","M","4","","36","","","","102.58","","","","-15","","NA"
"-60.14","47.23","ST PAUL ISLAND (AUT)","8204909","2018-01-29 23:00","2018","01","29","23:00","-6.1","","-9.5","","77","","","M","4","","34","","","","102.50","","","","-15","","NA"
"-60.14","47.23","ST PAUL ISLAND (AUT)","8204909","2018-01-30 00:00","2018","01","30","00:00","-6.2","","-9.8","","76","","","M","5","","36","","","","102.38","","","","-15","","NA"
"-60.14","47.23","ST PAUL ISLAND (AUT)","8204909","2018-01-30 01:00","2018","01","30","01:00"
"-60.14","47.23","ST PAUL ISLAND (AUT)","8204909","2018-01-30 02:00","2018","01","30","02:00","-6.1","","-10.2","","72","","","M","6","","32","","","","102.22","","","","-15","","NA"
"-60.14","47.23","ST PAUL ISLAND (AUT)","8204909","2018-01-30 03:00","2018","01","30","03:00","-5.7","","-9.6","","74","","","M","6","","32","","","","102.12","","","","-14","","NA"
"-60.14","47.23","ST PAUL ISLAND (AUT)","8204909","2018-01-30 04:00","2018","01","30","04:00","-5.8","","-11.4","","64","","","M","7","","31","","","","101.99","","","","-14","","NA"
"-60.14","47.23","ST PAUL ISLAND (AUT)","8204909","2018-01-30 05:00","2018","01","30","05:00","-5.3","","-8.9","","76","","","M","7","","31","","","","101.97","","","","-14","","NA"
"-60.14","47.23","ST PAUL ISLAND (AUT)","8204909","2018-01-30 06:00","2018","01","30","06:00","-6.1","","-7.1","","93","","","M","6","","38","","","","101.84","","","","-15","","NA"
"-60.14","47.23","ST PAUL ISLAND (AUT)","8204909","2018-01-30 07:00","2018","01","30","07:00","-6.0","","-6.9","","93","","","M","6","","44","","","","101.64","","","","-16","","NA"
"-60.14","47.23","ST PAUL ISLAND (AUT)","8204909","2018-01-30 08:00","2018","01","30","08:00","-5.8","","-6.6","","94","","","M","6","","44","","","","101.49","","","","-16","","NA"
"-60.14","47.23","ST PAUL ISLAND (AUT)","8204909","2018-01-30 09:00","2018","01","30","09:00","-5.5","","-6.3","","94","","","M","5","","45","","","","101.36","","","","-15","","NA"
"-60.14","47.23","ST PAUL ISLAND (AUT)","8204909","2018-01-30 10:00","2018","01","30","10:00","-4.5","","-5.3","","95","","","M","7","","49","","","","101.19","","","","-14","","NA"
"-60.14","47.23","ST PAUL ISLAND (AUT)","8204909","2018-01-30 11:00","2018","01","30","11:00","-4.3","","-5.0","","95","","","M","6","","53","","","","100.97","","","","-14","","NA"
"-60.14","47.23","ST PAUL ISLAND (AUT)","8204909","2018-01-30 12:00","2018","01","30","12:00","-4.1","","-4.8","","95","","","M","5","","53","","","","100.68","","","","-14","","NA"
"-60.14","47.23","ST PAUL ISLAND (AUT)","8204909","2018-01-30 13:00","2018","01","30","13:00","-3.9","","-4.5","","95","","","M","4","","49","","","","100.40","","","","-13","","NA"
"-60.14","47.23","ST PAUL ISLAND (AUT)","8204909","2018-01-30 14:00","2018","01","30","14:00","-4.0","","-4.6","","95","","","M","4","","53","","","","100.13","","","","-14","","NA"
"-60.14","47.23","ST PAUL ISLAND (AUT)","8204909","2018-01-30 15:00","2018","01","30","15:00","-4.1","","-4.7","","96","","","M","4","","49","","","","99.92","","","","-14","","NA"
"-60.14","47.23","ST PAUL ISLAND (AUT)","8204909","2018-01-30 16:00","2018","01","30","16:00","-4.3","","-4.9","","96","","","M","4","","46","","","","99.76","","","","-14","","NA"
"-60.14","47.23","ST PAUL ISLAND (AUT)","8204909","2018-01-30 17:00","2018","01","30","17:00"
"-60.14","47.23","ST PAUL ISLAND (AUT)","8204909","2018-01-30 18:00","2018","01","30","18:00","-3.7","","-4.2","","96","","","M","3","","58","","","","99.46","","","","-14","","NA"
"-60.14","47.23","ST PAUL ISLAND (AUT)","8204909","2018-01-30 19:00","2018","01","30","19:00","-2.8","","-3.4","","96","","","M","3","","40","","","","99.42","","","","-11","","NA"
"-60.14","47.23","ST PAUL ISLAND (AUT)","8204909","2018-01-30 20:00","2018","01","30","20:00","-2.6","","-3.1","","96","","","M","3","","18","","","","99.18","","","","-8","","NA"
"-60.14","47.23","ST PAUL ISLAND (AUT)","8204909","2018-01-30 21:00","2018","01","30","21:00","-2.1","","-2.6","","97","","","M","2","","3","","","","99.04","","","","-3","","NA"
"-60.14","47.23","ST PAUL ISLAND (AUT)","8204909","2018-01-30 22:00","2018","01","30","22:00","-1.3","","-1.7","","97","","","M","5","","2","","","","98.78","","","","-2","","NA"
"-60.14","47.23","ST PAUL ISLAND (AUT)","8204909","2018-01-30 23:00","2018","01","30","23:00","0.0","","-0.4","","97","","","M","0","","1","","","","98.53","","","","0","","NA"
"-60.14","47.23","ST PAUL ISLAND (AUT)","8204909","2018-01-31 00:00","2018","01","31","00:00","0.6","","0.2","","97","","","M","","","0","","","","98.28","","","","","","NA"
"-60.14","47.23","ST PAUL ISLAND (AUT)","8204909","2018-01-31 01:00","2018","01","31","01:00","0.7","","0.3","","97","","","M","14","","20","","","","98.07","","","","","","NA"
"-60.14","47.23","ST PAUL ISLAND (AUT)","8204909","2018-01-31 02:00","2018","01","31","02:00","-0.3","","-0.6","","98","","","M","16","","25","","","","97.87","","","","-6","","NA"
"-60.14","47.23","ST PAUL ISLAND (AUT)","8204909","2018-01-31 03:00","2018","01","31","03:00","1.0","","0.7","","98","","","M","17","","37","","","","97.70","","","","","","NA"
"-60.14","47.23","ST PAUL ISLAND (AUT)","8204909","2018-01-31 04:00","2018","01","31","04:00","1.6","","1.2","","97","","","M","18","","32","","","","97.66","","","","","","NA"
"-60.14","47.23","ST PAUL ISLAND (AUT)","8204909","2018-01-31 05:00","2018","01","31","05:00","1.3","","0.7","","96","","","M","20","","49","","","","97.79","","","","","","NA"
"-60.14","47.23","ST PAUL ISLAND (AUT)","8204909","2018-01-31 06:00","2018","01","31","06:00","-3.7","","-5.0","","91","","","M","26","","81","","","","97.91","","","","-15","","NA"
"-60.14","47.23","ST PAUL ISLAND (AUT)","8204909","2018-01-31 07:00","2018","01","31","07:00","-5.5","","-7.3","","88","","","M","28","","82","","","","98.28","","","","-18","","NA"
"-60.14","47.23","ST PAUL ISLAND (AUT)","8204909","2018-01-31 08:00","2018","01","31","08:00","-6.7","","-9.4","","81","","","M","27","","86","","","","98.56","","","","-20","","NA"
"-60.14","47.23","ST PAUL ISLAND (AUT)","8204909","2018-01-31 09:00","2018","01","31","09:00","-7.1","","-9.0","","86","","","M","26","","77","","","","98.87","","","","-20","","NA"
"-60.14","47.23","ST PAUL ISLAND (AUT)","8204909","2018-01-31 10:00","2018","01","31","10:00","-6.9","","-9.9","","79","","","M","26","","80","","","","99.05","","","","-20","","NA"
"-60.14","47.23","ST PAUL ISLAND (AUT)","8204909","2018-01-31 11:00","2018","01","31","11:00","-7.6","","-9.5","","87","","","M","26","","82","","","","99.21","","","","-21","","NA"
"-60.14","47.23","ST PAUL ISLAND (AUT)","8204909","2018-01-31 12:00","2018","01","31","12:00","-8.0","","-10.6","","82","","","M","26","","78","","","","99.42","","","","-21","","NA"
"-60.14","47.23","ST PAUL ISLAND (AUT)","8204909","2018-01-31 13:00","2018","01","31","13:00","-7.8","","-10.3","","82","","","M","26","","78","","","","99.55","","","","-21","","NA"
"-60.14","47.23","ST PAUL ISLAND (AUT)","8204909","2018-01-31 14:00","2018","01","31","14:00","-8.3","","-10.8","","82","","","M","26","","78","","","","99.63","","","","-21","","NA"
"-60.14","47.23","ST PAUL ISLAND (AUT)","8204909","2018-01-31 15:00","2018","01","31","15:00","-8.6","","-10.7","","85","","","M","26","","72","","","","99.81","","","","-22","","NA"
"-60.14","47.23","ST PAUL ISLAND (AUT)","8204909","2018-01-31 16:00","2018","01","31","16:00","-8.5","","-11.1","","81","","","M","26","","71","","","","99.96","","","","-21","","NA"
"-60.14","47.23","ST PAUL ISLAND (AUT)","8204909","2018-01-31 17:00","2018","01","31","17:00","-8.3","","-10.8","","82","","","M","27","","69","","","","100.03","","","","-21","","NA"
"-60.14","47.23","ST PAUL ISLAND (AUT)","8204909","2018-01-31 18:00","2018","01","31","18:00","-8.0","","-9.9","","86","","","M","27","","65","","","","100.22","","","","-20","","NA"
"-60.14","47.23","ST PAUL ISLAND (AUT)","8204909","2018-01-31 19:00","2018","01","31","19:00","-7.2","","-9.2","","86","","","M","27","","63","","","","100.34","","","","-19","","NA"
"-60.14","47.23","ST PAUL ISLAND (AUT)","8204909","2018-01-31 20:00","2018","01","31","20:00","-6.8","","-9.0","","85","","","M","26","","66","","","","100.46","","","","-19","","NA"
"-60.14","47.23","ST PAUL ISLAND (AUT)","8204909","2018-01-31 21:00","2018","01","31","21:00","-6.6","","-8.8","","84","","","M","26","","60","","","","100.55","","","","-18","","NA"
"-60.14","47.23","ST PAUL ISLAND (AUT)","8204909","2018-01-31 22:00","2018","01","31","22:00","-6.3","","-8.5","","84","","","M","27","","60","","","","100.64","","","","-17","","NA"
"-60.14","47.23","ST PAUL ISLAND (AUT)","8204909","2018-01-31 23:00","2018","01","31","23:00","-6.5","","-9.0","","82","","","M","27","","58","","","","100.76","","","","-18","","NA"
