"Longitude (x)","Latitude (y)","Station Name","Climate ID","Date/Time (LST)","Year","Month","Day","Time (LST)","Temp (°C)","Temp Flag","Dew Point Temp (°C)","Dew Point Temp Flag","Rel Hum (%)","Rel Hum Flag","Precip. Amount (mm)","Precip. Amount Flag","Wind Dir (10s deg)","Wind Dir Flag","Wind Spd (km/h)","Wind Spd Flag","Visibility (km)","Visibility Flag","Stn Press (kPa)","Stn Press Flag","Hmdx","Hmdx Flag","Wind Chill","Wind Chill Flag","Weather"
"-61.78","47.43","ILES DE LA MADELEINE A","7053254","2018-04-01 00:00","2018","04","01","00:00","-3.0","","-5.0","","86","","","M","25","","11","","","M","101.53","","","","-7","","NA"
"-61.78","47.43","ILES DE LA MADELEINE A","7053254","2018-04-01 01:00","2018","04","01","01:00","-2.7","","-5.3","","83","","","M","25","","14","","","M","101.63","","","","-8","","NA"
"-61.78","47.43","ILES DE LA MADELEINE A","7053254","2018-04-01 02:00","2018","04","01","02:00","-2.5","","-5.7","","78","","","M","23","","13","","","M","101.64","","","","-7","","NA"
"-61.78","47.43","ILES DE LA MADELEINE A","7053254","2018-04-01 03:00","2018","04","01","03:00","-2.3","","-6.9","","71","","","M","22","","11","","","M","101.62","","","","-6","","NA"
"-61.78","47.43","ILES DE LA MADELEINE A","7053254","2018-04-01 04:00","2018","04","01","04:00","-1.6","","-4.9","","78","","","M","22","","14","","","M","101.65","","","","-6","","NA"
"-61.78","47.43","ILES DE LA MADELEINE A","7053254","2018-04-01 05:00","2018","04","01","05:00","-1.4","","-5.0","","77","","","M","20","","10","","","M","101.57","","","","-5","","NA"
"-61.78","47.43","ILES DE LA MADELEINE A","7053254","2018-04-01 06:00","2018","04","01","06:00","-0.9","","-4.1","","79","","","M","19","","13","","","M","101.54","","","","-5","","NA"
"-61.78","47.43","ILES DE LA MADELEINE A","7053254","2018-04-01 07:00","2018","04","01","07:00","-0.4","","-4.8","","73","","","M","20","","17","","","M","101.51","","","","-5","","NA"
"-61.78","47.43","ILES DE LA MADELEINE A","7053254","2018-04-01 08:00","2018","04","01","08:00","0.8","","-4.0","","70","","","M","18","","17","","","M","101.38","","","","","","NA"
"-61.78","47.43","ILES DE LA MADELEINE A","7053254","2018-04-01 09:00","2018","04","01","09:00","1.0","","-2.3","","78","","","M","18","","22","","","M","101.26","","","","","","NA"
"-61.78","47.43","ILES DE LA MADELEINE A","7053254","2018-04-01 10:00","2018","04","01","10:00","1.6","","-2.3","","75","","","M","17","","22","","","M","101.16","","","","","","NA"
"-61.78","47.43","ILES DE LA MADELEINE A","7053254","2018-04-01 11:00","2018","04","01","11:00","1.5","","-4.0","","67","","","M","18","","27","","","M","100.96","","","","","","NA"
"-61.78","47.43","ILES DE LA MADELEINE A","7053254","2018-04-01 12:00","2018","04","01","12:00","2.9","","-4.7","","58","","","M","19","","31","","","M","100.79","","","","","","NA"
"-61.78","47.43","ILES DE LA MADELEINE A","7053254","2018-04-01 13:00","2018","04","01","13:00","2.8","","-3.6","","62","","","M","19","","37","","","M","100.64","","","","","","NA"
"-61.78","47.43","ILES DE LA MADELEINE A","7053254","2018-04-01 14:00","2018","04","01","14:00","2.8","","-3.1","","65","","","M","19","","28","","","M","100.56","","","","","","NA"
"-61.78","47.43","ILES DE LA MADELEINE A","7053254","2018-04-01 15:00","2018","04","01","15:00","2.7","","-0.7","","78","","","M","20","","28","","","M","100.46","","","","","","NA"
"-61.78","47.43","ILES DE LA MADELEINE A","7053254","2018-04-01 16:00","2018","04","01","16:00","2.1","","0.9","","91","","","M","20","","25","","","M","100.36","","","","","","NA"
"-61.78","47.43","ILES DE LA MADELEINE A","7053254","2018-04-01 17:00","2018","04","01","17:00","2.5","","1.7","","94","","","M","21","","26","","","M","100.27","","","","","","NA"
"-61.78","47.43","ILES DE LA MADELEINE A","7053254","2018-04-01 18:00","2018","04","01","18:00","2.9","","2.0","","94","","","M","22","","27","","","M","100.24","","","","","","NA"
"-61.78","47.43","ILES DE LA MADELEINE A","7053254","2018-04-01 19:00","2018","04","01","19:00","3.1","","2.0","","93","","","M","23","","32","","","M","100.20","","","","","","NA"
"-61.78","47.43","ILES DE LA MADELEINE A","7053254","2018-04-01 20:00","2018","04","01","20:00","2.7","","1.8","","94","","","M","23","","32","","","M","100.23","","","","","","NA"
"-61.78","47.43","ILES DE LA MADELEINE A","7053254","2018-04-01 21:00","2018","04","01","21:00","2.8","","0.6","","85","","","M","27","","42","","","M","100.35","","","","","","NA"
"-61.78","47.43","ILES DE LA MADELEINE A","7053254","2018-04-01 22:00","2018","04","01","22:00","1.5","","-0.5","","87","","","M","26","","28","","","M","100.39","","","","","","NA"
"-61.78","47.43","ILES DE LA MADELEINE A","7053254","2018-04-01 23:00","2018","04","01","23:00","0.7","","-2.0","","82","","","M","28","","30","","","M","100.47","","","","","","NA"
"-61.78","47.43","ILES DE LA MADELEINE A","7053254","2018-04-02 00:00","2018","04","02","00:00","-0.2","","-3.6","","78","","","M","28","","25","","","M","100.55","","","","-6","","NA"
"-61.78","47.43","ILES DE LA MADELEINE A","7053254","2018-04-02 01:00","2018","04","02","01:00","-0.8","","-3.7","","81","","","M","27","","22","","","M","100.65","","","","-7","","NA"
"-61.78","47.43","ILES DE LA MADELEINE A","7053254","2018-04-02 02:00","2018","04","02","02:00","-1.1","","-5.0","","74","","","M","28","","33","","","M","100.72","","","","-8","","NA"
"-61.78","47.43","ILES DE LA MADELEINE A","7053254","2018-04-02 03:00","2018","04","02","03:00","-1.7","","-6.8","","68","","","M","29","","41","","","M","100.80","","","","-10","","NA"
"-61.78","47.43","ILES DE LA MADELEINE A","7053254","2018-04-02 04:00","2018","04","02","04:00","-2.3","","-8.0","","65","","","M","29","","42","","","M","100.89","","","","-11","","NA"
"-61.78","47.43","ILES DE LA MADELEINE A","7053254","2018-04-02 05:00","2018","04","02","05:00","-2.7","","-8.2","","66","","","M","30","","34","","","M","100.98","","","","-10","","NA"
"-61.78","47.43","ILES DE LA MADELEINE A","7053254","2018-04-02 06:00","2018","04","02","06:00","-2.9","","-7.8","","69","","","M","29","","33","","","M","101.06","","","","-11","","NA"
"-61.78","47.43","ILES DE LA MADELEINE A","7053254","2018-04-02 07:00","2018","04","02","07:00","-2.6","","-7.8","","68","","","M","29","","31","","","M","101.13","","","","-10","","NA"
"-61.78","47.43","ILES DE LA MADELEINE A","7053254","2018-04-02 08:00","2018","04","02","08:00","-2.2","","-7.7","","67","","","M","29","","31","","","M","101.25","","","","-9","","NA"
"-61.78","47.43","ILES DE LA MADELEINE A","7053254","2018-04-02 09:00","2018","04","02","09:00","-1.9","","-7.8","","65","","","M","29","","29","","","M","101.33","","","","-9","","NA"
"-61.78","47.43","ILES DE LA MADELEINE A","7053254","2018-04-02 10:00","2018","04","02","10:00","-1.8","","-8.0","","63","","","M","28","","33","","","M","101.40","","","","-9","","NA"
"-61.78","47.43","ILES DE LA MADELEINE A","7053254","2018-04-02 11:00","2018","04","02","11:00","-1.7","","-8.1","","62","","","M","28","","28","","","M","101.46","","","","-8","","NA"
"-61.78","47.43","ILES DE LA MADELEINE A","7053254","2018-04-02 12:00","2018","04","02","12:00","-1.7","","-7.5","","64","","","M","30","","27","","","M","101.48","","","","-8","","NA"
"-61.78","47.43","ILES DE LA MADELEINE A","7053254","2018-04-02 13:00","2018","04","02","13:00","-2.2","","-8.0","","64","","","M","29","","30","","","M","101.46","","","","-9","","NA"
"-61.78","47.43","ILES DE LA MADELEINE A","7053254","2018-04-02 14:00","2018","04","02","14:00","-1.9","","-7.6","","65","","","M","29","","24","","","M","101.51","","","","-8","","NA"
"-61.78","47.43","ILES DE LA MADELEINE A","7053254","2018-04-02 15:00","2018","04","02","15:00","-2.4","","-8.6","","62","","","M","29","","23","","","M","101.54","","","","-9","","NA"
"-61.78","47.43","ILES DE LA MADELEINE A","7053254","2018-04-02 16:00","2018","04","02","16:00","-2.6","","-8.7","","63","","","M","30","","20","","","M","101.57","","","","-9","","NA"
"-61.78","47.43","ILES DE LA MADELEINE A","7053254","2018-04-02 17:00","2018","04","02","17:00","-2.7","","-8.8","","63","","","M","28","","16","","","M","101.60","","","","-8","","NA"
"-61.78","47.43","ILES DE LA MADELEINE A","7053254","2018-04-02 18:00","2018","04","02","18:00","-3.3","","-8.7","","66","","","M","29","","12","","","M","101.65","","","","-8","","NA"
"-61.78","47.43","ILES DE LA MADELEINE A","7053254","2018-04-02 19:00","2018","04","02","19:00","-3.9","","-8.6","","70","","","M","31","","11","","","M","101.70","","","","-8","","NA"
"-61.78","47.43","ILES DE LA MADELEINE A","7053254","2018-04-02 20:00","2018","04","02","20:00","-4.0","","-8.4","","72","","","M","30","","9","","","M","101.76","","","","-8","","NA"
"-61.78","47.43","ILES DE LA MADELEINE A","7053254","2018-04-02 21:00","2018","04","02","21:00","-4.1","","-8.4","","72","","","M","31","","12","","","M","101.75","","","","-9","","NA"
"-61.78","47.43","ILES DE LA MADELEINE A","7053254","2018-04-02 22:00","2018","04","02","22:00","-4.5","","-8.6","","73","","","M","27","","4","","","M","101.74","","","","-6","","NA"
"-61.78","47.43","ILES DE LA MADELEINE A","7053254","2018-04-02 23:00","2018","04","02","23:00","-5.5","","-8.4","","80","","","M","26","","9","","","M","101.76","","","","-10","","NA"
"-61.78","47.43","ILES DE LA MADELEINE A","7053254","2018-04-03 00:00","2018","04","03","00:00","-4.6","","-7.5","","80","","","M","32","","12","","","M","101.81","","","","-9","","NA"
"-61.78","47.43","ILES DE LA MADELEINE A","7053254","2018-04-03 01:00","2018","04","03","01:00","-4.0","","-7.5","","77","","","M","30","","13","","","M","101.88","","","","-9","","NA"
"-61.78","47.43","ILES DE LA MADELEINE A","7053254","2018-04-03 02:00","2018","04","03","02:00","-3.5","","-8.0","","71","","","M","29","","13","","","M","101.88","","","","-8","","NA"
"-61.78","47.43","ILES DE LA MADELEINE A","7053254","2018-04-03 03:00","2018","04","03","03:00","-3.5","","-8.0","","71","","","M","29","","15","","","M","101.90","","","","-9","","NA"
"-61.78","47.43","ILES DE LA MADELEINE A","7053254","2018-04-03 04:00","2018","04","03","04:00","-3.5","","-9.1","","65","","","M","32","","16","","","M","101.91","","","","-9","","NA"
"-61.78","47.43","ILES DE LA MADELEINE A","7053254","2018-04-03 05:00","2018","04","03","05:00","-3.7","","-9.7","","64","","","M","32","","14","","","M","101.93","","","","-9","","NA"
"-61.78","47.43","ILES DE LA MADELEINE A","7053254","2018-04-03 06:00","2018","04","03","06:00","-3.7","","-10.3","","61","","","M","31","","18","","","M","101.98","","","","-10","","NA"
"-61.78","47.43","ILES DE LA MADELEINE A","7053254","2018-04-03 07:00","2018","04","03","07:00","-2.9","","-9.7","","59","","","M","30","","14","","","M","102.10","","","","-8","","NA"
"-61.78","47.43","ILES DE LA MADELEINE A","7053254","2018-04-03 08:00","2018","04","03","08:00","-1.9","","-9.0","","59","","","M","31","","17","","","M","102.16","","","","-7","","NA"
"-61.78","47.43","ILES DE LA MADELEINE A","7053254","2018-04-03 09:00","2018","04","03","09:00","-1.6","","-8.8","","58","","","M","29","","18","","","M","102.20","","","","-7","","NA"
"-61.78","47.43","ILES DE LA MADELEINE A","7053254","2018-04-03 10:00","2018","04","03","10:00","-1.2","","-8.8","","56","","","M","29","","15","","","M","102.23","","","","-6","","NA"
"-61.78","47.43","ILES DE LA MADELEINE A","7053254","2018-04-03 11:00","2018","04","03","11:00","-1.1","","-9.0","","55","","","M","30","","14","","","M","102.20","","","","-6","","NA"
"-61.78","47.43","ILES DE LA MADELEINE A","7053254","2018-04-03 12:00","2018","04","03","12:00","-1.3","","-10.8","","48","","","M","30","","13","","","M","102.18","","","","-6","","NA"
"-61.78","47.43","ILES DE LA MADELEINE A","7053254","2018-04-03 13:00","2018","04","03","13:00","-1.1","","-11.2","","46","","","M","27","","11","","","M","102.18","","","","-5","","NA"
"-61.78","47.43","ILES DE LA MADELEINE A","7053254","2018-04-03 14:00","2018","04","03","14:00","-0.2","","-14.2","","34","","","M","17","","12","","","M","102.17","","","","-4","","NA"
"-61.78","47.43","ILES DE LA MADELEINE A","7053254","2018-04-03 15:00","2018","04","03","15:00","-0.4","","-8.7","","54","","","M","21","","16","","","M","102.13","","","","-5","","NA"
"-61.78","47.43","ILES DE LA MADELEINE A","7053254","2018-04-03 16:00","2018","04","03","16:00","-0.3","","-7.5","","59","","","M","19","","14","","","M","102.10","","","","-5","","NA"
"-61.78","47.43","ILES DE LA MADELEINE A","7053254","2018-04-03 17:00","2018","04","03","17:00","-0.9","","-7.3","","62","","","M","17","","19","","","M","102.03","","","","-6","","NA"
"-61.78","47.43","ILES DE LA MADELEINE A","7053254","2018-04-03 18:00","2018","04","03","18:00","-1.2","","-7.3","","63","","","M","17","","17","","","M","102.05","","","","-6","","NA"
"-61.78","47.43","ILES DE LA MADELEINE A","7053254","2018-04-03 19:00","2018","04","03","19:00","-1.6","","-5.9","","73","","","M","17","","18","","","M","102.07","","","","-7","","NA"
"-61.78","47.43","ILES DE LA MADELEINE A","7053254","2018-04-03 20:00","2018","04","03","20:00","-1.3","","-6.6","","67","","","M","17","","21","","","M","102.03","","","","-7","","NA"
"-61.78","47.43","ILES DE LA MADELEINE A","7053254","2018-04-03 21:00","2018","04","03","21:00","-0.9","","-6.4","","67","","","M","18","","19","","","M","102.04","","","","-6","","NA"
"-61.78","47.43","ILES DE LA MADELEINE A","7053254","2018-04-03 22:00","2018","04","03","22:00","-0.2","","-7.5","","58","","","M","17","","21","","","M","101.95","","","","-6","","NA"
"-61.78","47.43","ILES DE LA MADELEINE A","7053254","2018-04-03 23:00","2018","04","03","23:00","0.4","","-6.7","","59","","","M","17","","21","","","M","101.86","","","","","","NA"
"-61.78","47.43","ILES DE LA MADELEINE A","7053254","2018-04-04 00:00","2018","04","04","00:00","0.4","","-4.6","","69","","","M","18","","24","","","M","101.84","","","","","","NA"
"-61.78","47.43","ILES DE LA MADELEINE A","7053254","2018-04-04 01:00","2018","04","04","01:00","0.1","","-3.2","","78","","","M","18","","26","","","M","101.80","","","","","","NA"
"-61.78","47.43","ILES DE LA MADELEINE A","7053254","2018-04-04 02:00","2018","04","04","02:00","0.1","","-3.6","","76","","","M","20","","21","","","M","101.79","","","","","","NA"
"-61.78","47.43","ILES DE LA MADELEINE A","7053254","2018-04-04 03:00","2018","04","04","03:00","0.8","","-4.3","","68","","","M","22","","20","","","M","101.79","","","","","","NA"
"-61.78","47.43","ILES DE LA MADELEINE A","7053254","2018-04-04 04:00","2018","04","04","04:00","0.7","","-3.6","","73","","","M","21","","16","","","M","101.75","","","","","","NA"
"-61.78","47.43","ILES DE LA MADELEINE A","7053254","2018-04-04 05:00","2018","04","04","05:00","0.0","","-3.2","","79","","","M","20","","16","","","M","101.69","","","","-5","","NA"
"-61.78","47.43","ILES DE LA MADELEINE A","7053254","2018-04-04 06:00","2018","04","04","06:00","0.0","","-3.0","","80","","","M","20","","19","","","M","101.67","","","","-5","","NA"
"-61.78","47.43","ILES DE LA MADELEINE A","7053254","2018-04-04 07:00","2018","04","04","07:00","0.6","","-2.7","","79","","","M","19","","23","","","M","101.63","","","","","","NA"
"-61.78","47.43","ILES DE LA MADELEINE A","7053254","2018-04-04 08:00","2018","04","04","08:00","0.2","","-1.1","","91","","","M","19","","18","","","M","101.63","","","","","","NA"
"-61.78","47.43","ILES DE LA MADELEINE A","7053254","2018-04-04 09:00","2018","04","04","09:00","0.0","","-0.9","","94","","","M","17","","19","","","M","101.55","","","","-5","","NA"
"-61.78","47.43","ILES DE LA MADELEINE A","7053254","2018-04-04 10:00","2018","04","04","10:00","0.0","","-0.8","","94","","","M","17","","19","","","M","101.46","","","","-5","","NA"
"-61.78","47.43","ILES DE LA MADELEINE A","7053254","2018-04-04 11:00","2018","04","04","11:00","0.0","","-0.7","","95","","","M","14","","20","","","M","101.30","","","","-5","","NA"
"-61.78","47.43","ILES DE LA MADELEINE A","7053254","2018-04-04 12:00","2018","04","04","12:00","-0.1","","-0.5","","97","","","M","11","","24","","","M","101.10","","","","-6","","NA"
"-61.78","47.43","ILES DE LA MADELEINE A","7053254","2018-04-04 13:00","2018","04","04","13:00","-0.4","","-0.9","","96","","","M","10","","33","","","M","100.89","","","","-7","","NA"
"-61.78","47.43","ILES DE LA MADELEINE A","7053254","2018-04-04 14:00","2018","04","04","14:00","-0.4","","-0.9","","97","","","M","10","","34","","","M","100.69","","","","-7","","NA"
"-61.78","47.43","ILES DE LA MADELEINE A","7053254","2018-04-04 15:00","2018","04","04","15:00","-0.5","","-1.2","","95","","","M","11","","49","","","M","100.44","","","","-9","","NA"
"-61.78","47.43","ILES DE LA MADELEINE A","7053254","2018-04-04 16:00","2018","04","04","16:00","-0.5","","-1.3","","95","","","M","10","","44","","","M","100.26","","","","-8","","NA"
"-61.78","47.43","ILES DE LA MADELEINE A","7053254","2018-04-04 17:00","2018","04","04","17:00","-0.5","","-1.1","","96","","","M","11","","53","","","M","99.97","","","","-9","","NA"
"-61.78","47.43","ILES DE LA MADELEINE A","7053254","2018-04-04 18:00","2018","04","04","18:00","-0.4","","-1.0","","95","","","M","11","","48","","","M","99.88","","","","-9","","NA"
"-61.78","47.43","ILES DE LA MADELEINE A","7053254","2018-04-04 19:00","2018","04","04","19:00","-0.1","","-0.6","","96","","","M","11","","49","","","M","99.65","","","","-8","","NA"
"-61.78","47.43","ILES DE LA MADELEINE A","7053254","2018-04-04 20:00","2018","04","04","20:00","-0.1","","-0.5","","97","","","M","11","","53","","","M","99.46","","","","-8","","NA"
"-61.78","47.43","ILES DE LA MADELEINE A","7053254","2018-04-04 21:00","2018","04","04","21:00","-0.1","","-0.4","","98","","","M","12","","48","","","M","99.23","","","","-8","","NA"
"-61.78","47.43","ILES DE LA MADELEINE A","7053254","2018-04-04 22:00","2018","04","04","22:00","0.2","","0.0","","98","","","M","13","","27","","","M","99.05","","","","","","NA"
"-61.78","47.43","ILES DE LA MADELEINE A","7053254","2018-04-04 23:00","2018","04","04","23:00","2.3","","2.1","","99","","","M","14","","23","","","M","98.88","","","","","","NA"
"-61.78","47.43","ILES DE LA MADELEINE A","7053254","2018-04-05 00:00","2018","04","05","00:00","5.2","","5.1","","99","","","M","19","","32","","","M","98.73","","","","","","NA"
"-61.78","47.43","ILES DE LA MADELEINE A","7053254","2018-04-05 01:00","2018","04","05","01:00","5.6","","5.4","","99","","","M","19","","29","","","M","98.67","","","","","","NA"
"-61.78","47.43","ILES DE LA MADELEINE A","7053254","2018-04-05 02:00","2018","04","05","02:00","4.7","","4.5","","99","","","M","19","","34","","","M","98.55","","","","","","NA"
"-61.78","47.43","ILES DE LA MADELEINE A","7053254","2018-04-05 03:00","2018","04","05","03:00","4.6","","4.5","","99","","","M","19","","32","","","M","98.43","","","","","","NA"
"-61.78","47.43","ILES DE LA MADELEINE A","7053254","2018-04-05 04:00","2018","04","05","04:00","3.9","","3.7","","99","","","M","24","","33","","","M","98.59","","","","","","NA"
"-61.78","47.43","ILES DE LA MADELEINE A","7053254","2018-04-05 05:00","2018","04","05","05:00","0.4","","-0.3","","95","","","M","25","","40","","","M","98.69","","","","","","NA"
"-61.78","47.43","ILES DE LA MADELEINE A","7053254","2018-04-05 06:00","2018","04","05","06:00","0.3","","-0.6","","94","","","M","25","","36","","","M","98.82","","","","","","NA"
"-61.78","47.43","ILES DE LA MADELEINE A","7053254","2018-04-05 07:00","2018","04","05","07:00","0.4","","-0.8","","91","","","M","25","","40","","","M","98.92","","","","","","NA"
"-61.78","47.43","ILES DE LA MADELEINE A","7053254","2018-04-05 08:00","2018","04","05","08:00","0.9","","-1.2","","86","","","M","25","","38","","","M","98.98","","","","","","NA"
"-61.78","47.43","ILES DE LA MADELEINE A","7053254","2018-04-05 09:00","2018","04","05","09:00","1.1","","-1.0","","86","","","M","24","","32","","","M","99.09","","","","","","NA"
"-61.78","47.43","ILES DE LA MADELEINE A","7053254","2018-04-05 10:00","2018","04","05","10:00","-0.1","","-2.1","","86","","","M","25","","36","","","M","99.19","","","","-7","","NA"
"-61.78","47.43","ILES DE LA MADELEINE A","7053254","2018-04-05 11:00","2018","04","05","11:00","-0.7","","-2.8","","86","","","M","25","","41","","","M","99.30","","","","-8","","NA"
"-61.78","47.43","ILES DE LA MADELEINE A","7053254","2018-04-05 12:00","2018","04","05","12:00","-1.2","","-6.5","","67","","","M","25","","58","","","M","99.40","","","","-10","","NA"
"-61.78","47.43","ILES DE LA MADELEINE A","7053254","2018-04-05 13:00","2018","04","05","13:00","-2.0","","-7.2","","68","","","M","26","","56","","","M","99.53","","","","-11","","NA"
"-61.78","47.43","ILES DE LA MADELEINE A","7053254","2018-04-05 14:00","2018","04","05","14:00","-2.4","","-7.8","","67","","","M","26","","53","","","M","99.59","","","","-12","","NA"
"-61.78","47.43","ILES DE LA MADELEINE A","7053254","2018-04-05 15:00","2018","04","05","15:00","-3.2","","-7.0","","75","","","M","26","","46","","","M","99.68","","","","-12","","NA"
"-61.78","47.43","ILES DE LA MADELEINE A","7053254","2018-04-05 16:00","2018","04","05","16:00","-3.6","","-8.1","","71","","","M","25","","48","","","M","99.77","","","","-13","","NA"
"-61.78","47.43","ILES DE LA MADELEINE A","7053254","2018-04-05 17:00","2018","04","05","17:00","-3.7","","-9.3","","65","","","M","26","","52","","","M","99.84","","","","-13","","NA"
"-61.78","47.43","ILES DE LA MADELEINE A","7053254","2018-04-05 18:00","2018","04","05","18:00","-3.8","","-10.0","","62","","","M","26","","50","","","M","99.93","","","","-13","","NA"
"-61.78","47.43","ILES DE LA MADELEINE A","7053254","2018-04-05 19:00","2018","04","05","19:00","-4.3","","-10.8","","60","","","M","27","","49","","","M","100.04","","","","-14","","NA"
"-61.78","47.43","ILES DE LA MADELEINE A","7053254","2018-04-05 20:00","2018","04","05","20:00","-4.3","","-10.0","","64","","","M","26","","43","","","M","100.12","","","","-13","","NA"
"-61.78","47.43","ILES DE LA MADELEINE A","7053254","2018-04-05 21:00","2018","04","05","21:00","-4.5","","-10.4","","63","","","M","26","","44","","","M","100.17","","","","-14","","NA"
"-61.78","47.43","ILES DE LA MADELEINE A","7053254","2018-04-05 22:00","2018","04","05","22:00","-4.9","","-10.3","","66","","","M","26","","49","","","M","100.24","","","","-15","","NA"
"-61.78","47.43","ILES DE LA MADELEINE A","7053254","2018-04-05 23:00","2018","04","05","23:00","-6.0","","-7.7","","88","","","M","26","","41","","","M","100.30","","","","-16","","NA"
"-61.78","47.43","ILES DE LA MADELEINE A","7053254","2018-04-06 00:00","2018","04","06","00:00","-6.7","","-9.6","","80","","","M","26","","43","","","M","100.35","","","","-17","","NA"
"-61.78","47.43","ILES DE LA MADELEINE A","7053254","2018-04-06 01:00","2018","04","06","01:00","-6.7","","-11.5","","69","","","M","27","","46","","","M","100.42","","","","-17","","NA"
"-61.78","47.43","ILES DE LA MADELEINE A","7053254","2018-04-06 02:00","2018","04","06","02:00","-7.0","","-12.6","","65","","","M","27","","43","","","M","100.46","","","","-17","","NA"
"-61.78","47.43","ILES DE LA MADELEINE A","7053254","2018-04-06 03:00","2018","04","06","03:00","-6.8","","-12.7","","63","","","M","27","","50","","","M","100.53","","","","-17","","NA"
"-61.78","47.43","ILES DE LA MADELEINE A","7053254","2018-04-06 04:00","2018","04","06","04:00","-6.9","","-11.7","","69","","","M","28","","49","","","M","100.59","","","","-17","","NA"
"-61.78","47.43","ILES DE LA MADELEINE A","7053254","2018-04-06 05:00","2018","04","06","05:00","-7.5","","-10.9","","77","","","M","27","","51","","","M","100.65","","","","-18","","NA"
"-61.78","47.43","ILES DE LA MADELEINE A","7053254","2018-04-06 06:00","2018","04","06","06:00","-7.3","","-12.5","","67","","","M","27","","40","","","M","100.71","","","","-17","","NA"
"-61.78","47.43","ILES DE LA MADELEINE A","7053254","2018-04-06 07:00","2018","04","06","07:00","-7.6","","-11.6","","73","","","M","28","","48","","","M","100.80","","","","-18","","NA"
"-61.78","47.43","ILES DE LA MADELEINE A","7053254","2018-04-06 08:00","2018","04","06","08:00","-7.8","","-13.3","","65","","","M","27","","50","","","M","100.87","","","","-19","","NA"
"-61.78","47.43","ILES DE LA MADELEINE A","7053254","2018-04-06 09:00","2018","04","06","09:00","-7.2","","-13.6","","61","","","M","27","","49","","","M","100.94","","","","-18","","NA"
"-61.78","47.43","ILES DE LA MADELEINE A","7053254","2018-04-06 10:00","2018","04","06","10:00","-6.8","","-13.2","","60","","","M","27","","48","","","M","101.04","","","","-17","","NA"
"-61.78","47.43","ILES DE LA MADELEINE A","7053254","2018-04-06 11:00","2018","04","06","11:00","-6.6","","-13.5","","58","","","M","27","","51","","","M","101.09","","","","-17","","NA"
"-61.78","47.43","ILES DE LA MADELEINE A","7053254","2018-04-06 12:00","2018","04","06","12:00","-5.6","","-12.5","","58","","","M","26","","54","","","M","101.11","","","","-16","","NA"
"-61.78","47.43","ILES DE LA MADELEINE A","7053254","2018-04-06 13:00","2018","04","06","13:00","-4.8","","-11.5","","60","","","M","26","","44","","","M","101.11","","","","-14","","NA"
"-61.78","47.43","ILES DE LA MADELEINE A","7053254","2018-04-06 14:00","2018","04","06","14:00","-4.4","","-11.2","","59","","","M","26","","44","","","M","101.11","","","","-14","","NA"
"-61.78","47.43","ILES DE LA MADELEINE A","7053254","2018-04-06 15:00","2018","04","06","15:00","-3.5","","-10.5","","59","","","M","26","","44","","","M","101.12","","","","-12","","NA"
"-61.78","47.43","ILES DE LA MADELEINE A","7053254","2018-04-06 16:00","2018","04","06","16:00","-2.6","","-10.0","","57","","","M","26","","36","","","M","101.12","","","","-10","","NA"
"-61.78","47.43","ILES DE LA MADELEINE A","7053254","2018-04-06 17:00","2018","04","06","17:00","-2.2","","-10.5","","53","","","M","25","","40","","","M","101.12","","","","-10","","NA"
"-61.78","47.43","ILES DE LA MADELEINE A","7053254","2018-04-06 18:00","2018","04","06","18:00","-1.8","","-9.9","","54","","","M","24","","36","","","M","101.09","","","","-9","","NA"
"-61.78","47.43","ILES DE LA MADELEINE A","7053254","2018-04-06 19:00","2018","04","06","19:00","-1.7","","-8.3","","61","","","M","23","","25","","","M","101.10","","","","-8","","NA"
"-61.78","47.43","ILES DE LA MADELEINE A","7053254","2018-04-06 20:00","2018","04","06","20:00","-1.5","","-8.2","","61","","","M","22","","23","","","M","101.10","","","","-8","","NA"
"-61.78","47.43","ILES DE LA MADELEINE A","7053254","2018-04-06 21:00","2018","04","06","21:00","-1.2","","-8.8","","57","","","M","22","","22","","","M","101.07","","","","-7","","NA"
"-61.78","47.43","ILES DE LA MADELEINE A","7053254","2018-04-06 22:00","2018","04","06","22:00","-1.2","","-8.0","","60","","","M","21","","19","","","M","101.13","","","","-7","","NA"
"-61.78","47.43","ILES DE LA MADELEINE A","7053254","2018-04-06 23:00","2018","04","06","23:00","-0.8","","-8.1","","58","","","M","23","","27","","","M","101.12","","","","-7","","NA"
"-61.78","47.43","ILES DE LA MADELEINE A","7053254","2018-04-07 00:00","2018","04","07","00:00","-0.8","","-7.8","","59","","","M","20","","22","","","M","101.08","","","","-7","","NA"
"-61.78","47.43","ILES DE LA MADELEINE A","7053254","2018-04-07 01:00","2018","04","07","01:00","-1.2","","-6.7","","66","","","M","19","","14","","","M","100.97","","","","-6","","NA"
"-61.78","47.43","ILES DE LA MADELEINE A","7053254","2018-04-07 02:00","2018","04","07","02:00","-1.1","","-4.5","","78","","","M","18","","15","","","M","100.82","","","","-6","","NA"
"-61.78","47.43","ILES DE LA MADELEINE A","7053254","2018-04-07 03:00","2018","04","07","03:00","-1.3","","-3.0","","88","","","M","20","","21","","","M","100.76","","","","-7","","NA"
"-61.78","47.43","ILES DE LA MADELEINE A","7053254","2018-04-07 04:00","2018","04","07","04:00","-1.7","","-2.7","","93","","","M","18","","11","","","M","100.65","","","","-6","","NA"
"-61.78","47.43","ILES DE LA MADELEINE A","7053254","2018-04-07 05:00","2018","04","07","05:00","-1.9","","-2.6","","95","","","M","14","","14","","","M","100.48","","","","-7","","NA"
"-61.78","47.43","ILES DE LA MADELEINE A","7053254","2018-04-07 06:00","2018","04","07","06:00","-2.0","","-2.7","","95","","","M","13","","20","","","M","100.41","","","","-8","","NA"
"-61.78","47.43","ILES DE LA MADELEINE A","7053254","2018-04-07 07:00","2018","04","07","07:00","-2.1","","-2.7","","95","","","M","10","","24","","","M","100.29","","","","-8","","NA"
"-61.78","47.43","ILES DE LA MADELEINE A","7053254","2018-04-07 08:00","2018","04","07","08:00","-1.9","","-2.6","","95","","","M","8","","19","","","M","100.21","","","","-7","","NA"
"-61.78","47.43","ILES DE LA MADELEINE A","7053254","2018-04-07 09:00","2018","04","07","09:00","-1.2","","-1.9","","95","","","M","9","","14","","","M","100.08","","","","-6","","NA"
"-61.78","47.43","ILES DE LA MADELEINE A","7053254","2018-04-07 10:00","2018","04","07","10:00","-0.8","","-1.6","","94","","","M","11","","16","","","M","99.97","","","","-6","","NA"
"-61.78","47.43","ILES DE LA MADELEINE A","7053254","2018-04-07 11:00","2018","04","07","11:00","-0.6","","-1.5","","93","","","M","13","","11","","","M","99.91","","","","-4","","NA"
"-61.78","47.43","ILES DE LA MADELEINE A","7053254","2018-04-07 12:00","2018","04","07","12:00","-0.4","","-1.3","","94","","","M","10","","4","","","M","99.89","","","","-2","","NA"
"-61.78","47.43","ILES DE LA MADELEINE A","7053254","2018-04-07 13:00","2018","04","07","13:00","0.6","","-1.5","","86","","","M","32","","8","","","M","99.90","","","","","","NA"
"-61.78","47.43","ILES DE LA MADELEINE A","7053254","2018-04-07 14:00","2018","04","07","14:00","0.3","","-1.2","","90","","","M","35","","9","","","M","99.91","","","","","","NA"
"-61.78","47.43","ILES DE LA MADELEINE A","7053254","2018-04-07 15:00","2018","04","07","15:00","-0.2","","-1.6","","91","","","M","34","","18","","","M","99.98","","","","-5","","NA"
"-61.78","47.43","ILES DE LA MADELEINE A","7053254","2018-04-07 16:00","2018","04","07","16:00","-0.1","","-1.1","","93","","","M","35","","15","","","M","100.10","","","","-5","","NA"
"-61.78","47.43","ILES DE LA MADELEINE A","7053254","2018-04-07 17:00","2018","04","07","17:00","-0.3","","-1.8","","90","","","M","2","","18","","","M","100.21","","","","-5","","NA"
"-61.78","47.43","ILES DE LA MADELEINE A","7053254","2018-04-07 18:00","2018","04","07","18:00","-0.7","","-2.0","","91","","","M","5","","13","","","M","100.34","","","","-5","","NA"
"-61.78","47.43","ILES DE LA MADELEINE A","7053254","2018-04-07 19:00","2018","04","07","19:00","-0.9","","-2.4","","90","","","M","3","","14","","","M","100.44","","","","-5","","NA"
"-61.78","47.43","ILES DE LA MADELEINE A","7053254","2018-04-07 20:00","2018","04","07","20:00","-1.2","","-2.5","","91","","","M","3","","11","","","M","100.56","","","","-5","","NA"
"-61.78","47.43","ILES DE LA MADELEINE A","7053254","2018-04-07 21:00","2018","04","07","21:00","-1.5","","-3.4","","87","","","M","5","","11","","","M","100.65","","","","-5","","NA"
"-61.78","47.43","ILES DE LA MADELEINE A","7053254","2018-04-07 22:00","2018","04","07","22:00","-1.4","","-3.7","","85","","","M","6","","7","","","M","100.70","","","","-4","","NA"
"-61.78","47.43","ILES DE LA MADELEINE A","7053254","2018-04-07 23:00","2018","04","07","23:00","-1.3","","-4.2","","81","","","M","7","","7","","","M","100.79","","","","-4","","NA"
"-61.78","47.43","ILES DE LA MADELEINE A","7053254","2018-04-08 00:00","2018","04","08","00:00","-1.3","","-4.5","","79","","","M","7","","5","","","M","100.83","","","","-3","","NA"
"-61.78","47.43","ILES DE LA MADELEINE A","7053254","2018-04-08 01:00","2018","04","08","01:00","-1.5","","-4.9","","78","","","M","13","","4","","","M","100.85","","","","-3","","NA"
"-61.78","47.43","ILES DE LA MADELEINE A","7053254","2018-04-08 02:00","2018","04","08","02:00","-2.2","","-4.6","","83","","","M","15","","8","","","M","100.88","","","","-5","","NA"
"-61.78","47.43","ILES DE LA MADELEINE A","7053254","2018-04-08 03:00","2018","04","08","03:00","-2.5","","-4.7","","85","","","M","16","","5","","","M","100.89","","","","-4","","NA"
"-61.78","47.43","ILES DE LA MADELEINE A","7053254","2018-04-08 04:00","2018","04","08","04:00","-2.6","","-4.8","","85","","","M","17","","7","","","M","100.95","","","","-5","","NA"
"-61.78","47.43","ILES DE LA MADELEINE A","7053254","2018-04-08 05:00","2018","04","08","05:00","-2.2","","-4.3","","85","","","M","17","","6","","","M","100.96","","","","-5","","NA"
"-61.78","47.43","ILES DE LA MADELEINE A","7053254","2018-04-08 06:00","2018","04","08","06:00","-1.8","","-4.7","","80","","","M","16","","10","","","M","101.00","","","","-5","","NA"
"-61.78","47.43","ILES DE LA MADELEINE A","7053254","2018-04-08 07:00","2018","04","08","07:00","-1.4","","-4.4","","80","","","M","12","","8","","","M","101.03","","","","-4","","NA"
"-61.78","47.43","ILES DE LA MADELEINE A","7053254","2018-04-08 08:00","2018","04","08","08:00","-0.7","","-3.7","","81","","","M","12","","16","","","M","101.01","","","","-5","","NA"
"-61.78","47.43","ILES DE LA MADELEINE A","7053254","2018-04-08 09:00","2018","04","08","09:00","-0.7","","-3.6","","81","","","M","13","","19","","","M","100.98","","","","-6","","NA"
"-61.78","47.43","ILES DE LA MADELEINE A","7053254","2018-04-08 10:00","2018","04","08","10:00","-0.5","","-3.3","","81","","","M","14","","18","","","M","100.99","","","","-6","","NA"
"-61.78","47.43","ILES DE LA MADELEINE A","7053254","2018-04-08 11:00","2018","04","08","11:00","-0.5","","-3.2","","82","","","M","14","","18","","","M","100.97","","","","-6","","NA"
"-61.78","47.43","ILES DE LA MADELEINE A","7053254","2018-04-08 12:00","2018","04","08","12:00","-0.3","","-2.9","","83","","","M","14","","17","","","M","100.93","","","","-5","","NA"
"-61.78","47.43","ILES DE LA MADELEINE A","7053254","2018-04-08 13:00","2018","04","08","13:00","-0.5","","-2.8","","84","","","M","12","","16","","","M","100.82","","","","-5","","NA"
"-61.78","47.43","ILES DE LA MADELEINE A","7053254","2018-04-08 14:00","2018","04","08","14:00","-0.5","","-2.7","","85","","","M","11","","16","","","M","100.67","","","","-5","","NA"
"-61.78","47.43","ILES DE LA MADELEINE A","7053254","2018-04-08 15:00","2018","04","08","15:00","-0.8","","-3.1","","84","","","M","8","","15","","","M","100.60","","","","-5","","NA"
"-61.78","47.43","ILES DE LA MADELEINE A","7053254","2018-04-08 16:00","2018","04","08","16:00","-1.2","","-3.3","","85","","","M","8","","15","","","M","100.55","","","","-6","","NA"
"-61.78","47.43","ILES DE LA MADELEINE A","7053254","2018-04-08 17:00","2018","04","08","17:00","-1.2","","-3.3","","86","","","M","7","","15","","","M","100.49","","","","-6","","NA"
"-61.78","47.43","ILES DE LA MADELEINE A","7053254","2018-04-08 18:00","2018","04","08","18:00","-1.5","","-3.1","","89","","","M","6","","14","","","M","100.45","","","","-6","","NA"
"-61.78","47.43","ILES DE LA MADELEINE A","7053254","2018-04-08 19:00","2018","04","08","19:00","-1.7","","-2.7","","93","","","M","2","","14","","","M","100.30","","","","-6","","NA"
"-61.78","47.43","ILES DE LA MADELEINE A","7053254","2018-04-08 20:00","2018","04","08","20:00","-1.6","","-2.3","","95","","","M","1","","19","","","M","100.22","","","","-7","","NA"
"-61.78","47.43","ILES DE LA MADELEINE A","7053254","2018-04-08 21:00","2018","04","08","21:00","-1.6","","-2.1","","97","","","M","2","","17","","","M","100.09","","","","-7","","NA"
"-61.78","47.43","ILES DE LA MADELEINE A","7053254","2018-04-08 22:00","2018","04","08","22:00","-2.0","","-2.5","","96","","","M","1","","28","","","M","99.91","","","","-9","","NA"
"-61.78","47.43","ILES DE LA MADELEINE A","7053254","2018-04-08 23:00","2018","04","08","23:00","-2.0","","-2.6","","96","","","M","36","","34","","","M","99.66","","","","-10","","NA"
"-61.78","47.43","ILES DE LA MADELEINE A","7053254","2018-04-09 00:00","2018","04","09","00:00","-1.6","","-2.0","","96","","","M","36","","35","","","M","99.49","","","","-9","","NA"
"-61.78","47.43","ILES DE LA MADELEINE A","7053254","2018-04-09 01:00","2018","04","09","01:00","-1.9","","-2.5","","96","","","M","35","","45","","","M","99.31","","","","-10","","NA"
"-61.78","47.43","ILES DE LA MADELEINE A","7053254","2018-04-09 02:00","2018","04","09","02:00","-2.0","","-2.6","","96","","","M","34","","50","","","M","99.24","","","","-11","","NA"
"-61.78","47.43","ILES DE LA MADELEINE A","7053254","2018-04-09 03:00","2018","04","09","03:00","-2.2","","-2.8","","96","","","M","33","","53","","","M","99.25","","","","-11","","NA"
"-61.78","47.43","ILES DE LA MADELEINE A","7053254","2018-04-09 04:00","2018","04","09","04:00","-2.6","","-3.3","","95","","","M","32","","51","","","M","99.24","","","","-12","","NA"
"-61.78","47.43","ILES DE LA MADELEINE A","7053254","2018-04-09 05:00","2018","04","09","05:00","-3.1","","-4.0","","94","","","M","32","","58","","","M","99.29","","","","-13","","NA"
"-61.78","47.43","ILES DE LA MADELEINE A","7053254","2018-04-09 06:00","2018","04","09","06:00","-3.2","","-4.6","","90","","","M","31","","51","","","M","99.37","","","","-13","","NA"
"-61.78","47.43","ILES DE LA MADELEINE A","7053254","2018-04-09 07:00","2018","04","09","07:00","-3.1","","-6.3","","79","","","M","31","","52","","","M","99.46","","","","-13","","NA"
"-61.78","47.43","ILES DE LA MADELEINE A","7053254","2018-04-09 08:00","2018","04","09","08:00","-3.1","","-6.4","","78","","","M","29","","48","","","M","99.57","","","","-12","","NA"
"-61.78","47.43","ILES DE LA MADELEINE A","7053254","2018-04-09 09:00","2018","04","09","09:00","-3.2","","-7.0","","75","","","M","28","","44","","","M","99.68","","","","-12","","NA"
"-61.78","47.43","ILES DE LA MADELEINE A","7053254","2018-04-09 10:00","2018","04","09","10:00","-3.2","","-6.9","","76","","","M","28","","51","","","M","99.79","","","","-13","","NA"
"-61.78","47.43","ILES DE LA MADELEINE A","7053254","2018-04-09 11:00","2018","04","09","11:00","-3.2","","-7.0","","75","","","M","27","","48","","","M","99.88","","","","-12","","NA"
"-61.78","47.43","ILES DE LA MADELEINE A","7053254","2018-04-09 12:00","2018","04","09","12:00","-3.6","","-7.0","","77","","","M","27","","54","","","M","99.96","","","","-13","","NA"
"-61.78","47.43","ILES DE LA MADELEINE A","7053254","2018-04-09 13:00","2018","04","09","13:00","-3.3","","-6.8","","77","","","M","27","","50","","","M","100.07","","","","-13","","NA"
"-61.78","47.43","ILES DE LA MADELEINE A","7053254","2018-04-09 14:00","2018","04","09","14:00","-3.1","","-6.3","","78","","","M","28","","49","","","M","100.21","","","","-12","","NA"
"-61.78","47.43","ILES DE LA MADELEINE A","7053254","2018-04-09 15:00","2018","04","09","15:00","-3.2","","-5.8","","82","","","M","27","","46","","","M","100.29","","","","-12","","NA"
"-61.78","47.43","ILES DE LA MADELEINE A","7053254","2018-04-09 16:00","2018","04","09","16:00","-3.3","","-5.3","","86","","","M","28","","45","","","M","100.41","","","","-12","","NA"
"-61.78","47.43","ILES DE LA MADELEINE A","7053254","2018-04-09 17:00","2018","04","09","17:00","-3.2","","-5.3","","86","","","M","28","","41","","","M","100.53","","","","-12","","NA"
"-61.78","47.43","ILES DE LA MADELEINE A","7053254","2018-04-09 18:00","2018","04","09","18:00","-2.7","","-6.2","","77","","","M","28","","39","","","M","100.65","","","","-11","","NA"
"-61.78","47.43","ILES DE LA MADELEINE A","7053254","2018-04-09 19:00","2018","04","09","19:00","-2.6","","-5.9","","78","","","M","28","","41","","","M","100.75","","","","-11","","NA"
"-61.78","47.43","ILES DE LA MADELEINE A","7053254","2018-04-09 20:00","2018","04","09","20:00","-2.4","","-3.7","","91","","","M","29","","36","","","M","100.88","","","","-10","","NA"
"-61.78","47.43","ILES DE LA MADELEINE A","7053254","2018-04-09 21:00","2018","04","09","21:00","-2.3","","-3.3","","93","","","M","29","","32","","","M","101.00","","","","-10","","NA"
"-61.78","47.43","ILES DE LA MADELEINE A","7053254","2018-04-09 22:00","2018","04","09","22:00","-2.2","","-4.5","","84","","","M","27","","26","","","M","101.06","","","","-9","","NA"
"-61.78","47.43","ILES DE LA MADELEINE A","7053254","2018-04-09 23:00","2018","04","09","23:00","-1.5","","-4.8","","78","","","M","27","","31","","","M","101.12","","","","-9","","NA"
"-61.78","47.43","ILES DE LA MADELEINE A","7053254","2018-04-10 00:00","2018","04","10","00:00","-1.9","","-5.6","","75","","","M","28","","33","","","M","101.18","","","","-9","","NA"
"-61.78","47.43","ILES DE LA MADELEINE A","7053254","2018-04-10 01:00","2018","04","10","01:00","-2.0","","-5.7","","76","","","M","29","","31","","","M","101.23","","","","-9","","NA"
"-61.78","47.43","ILES DE LA MADELEINE A","7053254","2018-04-10 02:00","2018","04","10","02:00","-2.1","","-5.8","","76","","","M","28","","30","","","M","101.29","","","","-9","","NA"
"-61.78","47.43","ILES DE LA MADELEINE A","7053254","2018-04-10 03:00","2018","04","10","03:00","-2.2","","-6.0","","75","","","M","28","","31","","","M","101.34","","","","-9","","NA"
"-61.78","47.43","ILES DE LA MADELEINE A","7053254","2018-04-10 04:00","2018","04","10","04:00","-2.4","","-5.9","","77","","","M","28","","32","","","M","101.43","","","","-10","","NA"
"-61.78","47.43","ILES DE LA MADELEINE A","7053254","2018-04-10 05:00","2018","04","10","05:00","-2.6","","-5.8","","79","","","M","28","","30","","","M","101.49","","","","-10","","NA"
"-61.78","47.43","ILES DE LA MADELEINE A","7053254","2018-04-10 06:00","2018","04","10","06:00","-2.4","","-6.3","","74","","","M","28","","30","","","M","101.57","","","","-10","","NA"
"-61.78","47.43","ILES DE LA MADELEINE A","7053254","2018-04-10 07:00","2018","04","10","07:00","-1.9","","-6.2","","72","","","M","28","","25","","","M","101.67","","","","-8","","NA"
"-61.78","47.43","ILES DE LA MADELEINE A","7053254","2018-04-10 08:00","2018","04","10","08:00","-1.2","","-6.2","","69","","","M","29","","27","","","M","101.76","","","","-8","","NA"
"-61.78","47.43","ILES DE LA MADELEINE A","7053254","2018-04-10 09:00","2018","04","10","09:00","-0.8","","-6.3","","66","","","M","29","","28","","","M","101.83","","","","-7","","NA"
"-61.78","47.43","ILES DE LA MADELEINE A","7053254","2018-04-10 10:00","2018","04","10","10:00","-0.5","","-6.0","","66","","","M","29","","28","","","M","101.87","","","","-7","","NA"
"-61.78","47.43","ILES DE LA MADELEINE A","7053254","2018-04-10 11:00","2018","04","10","11:00","-0.3","","-5.2","","70","","","M","27","","26","","","M","101.91","","","","-6","","NA"
"-61.78","47.43","ILES DE LA MADELEINE A","7053254","2018-04-10 12:00","2018","04","10","12:00","-0.6","","-4.9","","73","","","M","28","","25","","","M","101.92","","","","-7","","NA"
"-61.78","47.43","ILES DE LA MADELEINE A","7053254","2018-04-10 13:00","2018","04","10","13:00","-0.5","","-4.9","","72","","","M","27","","22","","","M","101.93","","","","-6","","NA"
"-61.78","47.43","ILES DE LA MADELEINE A","7053254","2018-04-10 14:00","2018","04","10","14:00","-0.8","","-5.9","","68","","","M","28","","22","","","M","101.92","","","","-7","","NA"
"-61.78","47.43","ILES DE LA MADELEINE A","7053254","2018-04-10 15:00","2018","04","10","15:00","-0.7","","-4.7","","75","","","M","29","","19","","","M","101.91","","","","-6","","NA"
"-61.78","47.43","ILES DE LA MADELEINE A","7053254","2018-04-10 16:00","2018","04","10","16:00","-0.8","","-5.1","","73","","","M","26","","21","","","M","101.93","","","","-6","","NA"
"-61.78","47.43","ILES DE LA MADELEINE A","7053254","2018-04-10 17:00","2018","04","10","17:00","-1.2","","-5.6","","72","","","M","27","","17","","","M","101.95","","","","-6","","NA"
"-61.78","47.43","ILES DE LA MADELEINE A","7053254","2018-04-10 18:00","2018","04","10","18:00","-1.9","","-6.5","","71","","","M","24","","13","","","M","101.96","","","","-6","","NA"
"-61.78","47.43","ILES DE LA MADELEINE A","7053254","2018-04-10 19:00","2018","04","10","19:00","-2.1","","-6.7","","71","","","M","21","","12","","","M","101.98","","","","-6","","NA"
"-61.78","47.43","ILES DE LA MADELEINE A","7053254","2018-04-10 20:00","2018","04","10","20:00","-2.1","","-5.8","","76","","","M","20","","11","","","M","101.98","","","","-6","","NA"
"-61.78","47.43","ILES DE LA MADELEINE A","7053254","2018-04-10 21:00","2018","04","10","21:00","-1.9","","-4.8","","81","","","M","19","","19","","","M","102.00","","","","-7","","NA"
"-61.78","47.43","ILES DE LA MADELEINE A","7053254","2018-04-10 22:00","2018","04","10","22:00","-1.9","","-4.9","","79","","","M","18","","13","","","M","101.98","","","","-6","","NA"
"-61.78","47.43","ILES DE LA MADELEINE A","7053254","2018-04-10 23:00","2018","04","10","23:00","-1.5","","-5.9","","72","","","M","18","","17","","","M","101.94","","","","-7","","NA"
"-61.78","47.43","ILES DE LA MADELEINE A","7053254","2018-04-11 00:00","2018","04","11","00:00","-0.9","","-6.6","","65","","","M","18","","15","","","M","101.91","","","","-6","","NA"
"-61.78","47.43","ILES DE LA MADELEINE A","7053254","2018-04-11 01:00","2018","04","11","01:00","-0.8","","-5.9","","68","","","M","19","","16","","","M","101.89","","","","-6","","NA"
"-61.78","47.43","ILES DE LA MADELEINE A","7053254","2018-04-11 02:00","2018","04","11","02:00","-0.8","","-4.3","","77","","","M","19","","15","","","M","101.85","","","","-5","","NA"
"-61.78","47.43","ILES DE LA MADELEINE A","7053254","2018-04-11 03:00","2018","04","11","03:00","-0.9","","-3.4","","84","","","M","20","","15","","","M","101.84","","","","-6","","NA"
"-61.78","47.43","ILES DE LA MADELEINE A","7053254","2018-04-11 04:00","2018","04","11","04:00","-2.2","","-5.4","","79","","","M","29","","10","","","M","101.86","","","","-6","","NA"
"-61.78","47.43","ILES DE LA MADELEINE A","7053254","2018-04-11 05:00","2018","04","11","05:00","-3.0","","-5.5","","83","","","M","25","","9","","","M","101.85","","","","-7","","NA"
"-61.78","47.43","ILES DE LA MADELEINE A","7053254","2018-04-11 06:00","2018","04","11","06:00","-2.7","","-5.4","","82","","","M","25","","12","","","M","101.88","","","","-7","","NA"
"-61.78","47.43","ILES DE LA MADELEINE A","7053254","2018-04-11 07:00","2018","04","11","07:00","-1.0","","-3.8","","82","","","M","26","","8","","","M","101.92","","","","-4","","NA"
"-61.78","47.43","ILES DE LA MADELEINE A","7053254","2018-04-11 08:00","2018","04","11","08:00","0.1","","-3.0","","80","","","M","33","","9","","","M","101.97","","","","","","NA"
"-61.78","47.43","ILES DE LA MADELEINE A","7053254","2018-04-11 09:00","2018","04","11","09:00","0.2","","-2.9","","79","","","M","34","","9","","","M","101.99","","","","","","NA"
"-61.78","47.43","ILES DE LA MADELEINE A","7053254","2018-04-11 10:00","2018","04","11","10:00","0.8","","-3.8","","71","","","M","35","","13","","","M","102.00","","","","","","NA"
"-61.78","47.43","ILES DE LA MADELEINE A","7053254","2018-04-11 11:00","2018","04","11","11:00","1.3","","-3.7","","69","","","M","35","","15","","","M","101.98","","","","","","NA"
"-61.78","47.43","ILES DE LA MADELEINE A","7053254","2018-04-11 12:00","2018","04","11","12:00","1.7","","-3.5","","68","","","M","34","","13","","","M","101.93","","","","","","NA"
"-61.78","47.43","ILES DE LA MADELEINE A","7053254","2018-04-11 13:00","2018","04","11","13:00","1.4","","-4.2","","66","","","M","34","","13","","","M","101.95","","","","","","NA"
"-61.78","47.43","ILES DE LA MADELEINE A","7053254","2018-04-11 14:00","2018","04","11","14:00","1.9","","-4.4","","63","","","M","35","","9","","","M","101.93","","","","","","NA"
"-61.78","47.43","ILES DE LA MADELEINE A","7053254","2018-04-11 15:00","2018","04","11","15:00","2.0","","-5.0","","60","","","M","11","","12","","","M","101.93","","","","","","NA"
"-61.78","47.43","ILES DE LA MADELEINE A","7053254","2018-04-11 16:00","2018","04","11","16:00","1.3","","-7.6","","52","","","M","11","","11","","","M","101.90","","","","","","NA"
"-61.78","47.43","ILES DE LA MADELEINE A","7053254","2018-04-11 17:00","2018","04","11","17:00","0.9","","-7.3","","54","","","M","14","","9","","","M","101.92","","","","","","NA"
"-61.78","47.43","ILES DE LA MADELEINE A","7053254","2018-04-11 18:00","2018","04","11","18:00","0.4","","-7.4","","56","","","M","15","","7","","","M","101.94","","","","","","NA"
"-61.78","47.43","ILES DE LA MADELEINE A","7053254","2018-04-11 19:00","2018","04","11","19:00","-0.8","","-7.3","","61","","","M","15","","9","","","M","101.94","","","","-4","","NA"
"-61.78","47.43","ILES DE LA MADELEINE A","7053254","2018-04-11 20:00","2018","04","11","20:00","-1.7","","-5.2","","77","","","M","11","","6","","","M","101.95","","","","-4","","NA"
"-61.78","47.43","ILES DE LA MADELEINE A","7053254","2018-04-11 21:00","2018","04","11","21:00","-2.0","","-4.7","","82","","","M","14","","8","","","M","101.98","","","","-5","","NA"
"-61.78","47.43","ILES DE LA MADELEINE A","7053254","2018-04-11 22:00","2018","04","11","22:00","-2.9","","-5.1","","85","","","M","12","","12","","","M","101.89","","","","-7","","NA"
"-61.78","47.43","ILES DE LA MADELEINE A","7053254","2018-04-11 23:00","2018","04","11","23:00","-2.2","","-5.6","","77","","","M","13","","12","","","M","101.87","","","","-6","","NA"
"-61.78","47.43","ILES DE LA MADELEINE A","7053254","2018-04-12 00:00","2018","04","12","00:00","-1.2","","-5.2","","74","","","M","14","","16","","","M","101.89","","","","-6","","NA"
"-61.78","47.43","ILES DE LA MADELEINE A","7053254","2018-04-12 01:00","2018","04","12","01:00","-1.0","","-4.4","","78","","","M","14","","15","","","M","101.87","","","","-6","","NA"
"-61.78","47.43","ILES DE LA MADELEINE A","7053254","2018-04-12 02:00","2018","04","12","02:00","-1.4","","-4.1","","82","","","M","14","","15","","","M","101.82","","","","-6","","NA"
"-61.78","47.43","ILES DE LA MADELEINE A","7053254","2018-04-12 03:00","2018","04","12","03:00","-1.4","","-5.2","","76","","","M","14","","12","","","M","101.79","","","","-5","","NA"
"-61.78","47.43","ILES DE LA MADELEINE A","7053254","2018-04-12 04:00","2018","04","12","04:00","-1.5","","-4.8","","79","","","M","13","","11","","","M","101.78","","","","-5","","NA"
"-61.78","47.43","ILES DE LA MADELEINE A","7053254","2018-04-12 05:00","2018","04","12","05:00","-1.4","","-4.7","","78","","","M","14","","11","","","M","101.76","","","","-5","","NA"
"-61.78","47.43","ILES DE LA MADELEINE A","7053254","2018-04-12 06:00","2018","04","12","06:00","-1.0","","-3.8","","82","","","M","14","","12","","","M","101.77","","","","-5","","NA"
"-61.78","47.43","ILES DE LA MADELEINE A","7053254","2018-04-12 07:00","2018","04","12","07:00","0.0","","-2.9","","81","","","M","14","","18","","","M","101.79","","","","-5","","NA"
"-61.78","47.43","ILES DE LA MADELEINE A","7053254","2018-04-12 08:00","2018","04","12","08:00","0.2","","-2.5","","82","","","M","14","","18","","","M","101.78","","","","","","NA"
"-61.78","47.43","ILES DE LA MADELEINE A","7053254","2018-04-12 09:00","2018","04","12","09:00","0.6","","-2.2","","82","","","M","14","","20","","","M","101.83","","","","","","NA"
"-61.78","47.43","ILES DE LA MADELEINE A","7053254","2018-04-12 10:00","2018","04","12","10:00","0.9","","-3.1","","75","","","M","15","","16","","","M","101.84","","","","","","NA"
"-61.78","47.43","ILES DE LA MADELEINE A","7053254","2018-04-12 11:00","2018","04","12","11:00","1.5","","-3.9","","68","","","M","17","","20","","","M","101.81","","","","","","NA"
"-61.78","47.43","ILES DE LA MADELEINE A","7053254","2018-04-12 12:00","2018","04","12","12:00","1.7","","-2.8","","72","","","M","16","","22","","","M","101.77","","","","","","NA"
"-61.78","47.43","ILES DE LA MADELEINE A","7053254","2018-04-12 13:00","2018","04","12","13:00","2.6","","-3.2","","66","","","M","17","","20","","","M","101.75","","","","","","NA"
"-61.78","47.43","ILES DE LA MADELEINE A","7053254","2018-04-12 14:00","2018","04","12","14:00","2.3","","-2.9","","69","","","M","18","","16","","","M","101.72","","","","","","NA"
"-61.78","47.43","ILES DE LA MADELEINE A","7053254","2018-04-12 15:00","2018","04","12","15:00","2.8","","-2.9","","66","","","M","19","","15","","","M","101.71","","","","","","NA"
"-61.78","47.43","ILES DE LA MADELEINE A","7053254","2018-04-12 16:00","2018","04","12","16:00","3.1","","-2.6","","66","","","M","17","","15","","","M","101.69","","","","","","NA"
"-61.78","47.43","ILES DE LA MADELEINE A","7053254","2018-04-12 17:00","2018","04","12","17:00","2.5","","-2.8","","68","","","M","16","","11","","","M","101.67","","","","","","NA"
"-61.78","47.43","ILES DE LA MADELEINE A","7053254","2018-04-12 18:00","2018","04","12","18:00","1.4","","-2.7","","74","","","M","16","","15","","","M","101.67","","","","","","NA"
"-61.78","47.43","ILES DE LA MADELEINE A","7053254","2018-04-12 19:00","2018","04","12","19:00","0.8","","-3.9","","71","","","M","17","","17","","","M","101.71","","","","","","NA"
"-61.78","47.43","ILES DE LA MADELEINE A","7053254","2018-04-12 20:00","2018","04","12","20:00","0.9","","-4.2","","69","","","M","16","","17","","","M","101.73","","","","","","NA"
"-61.78","47.43","ILES DE LA MADELEINE A","7053254","2018-04-12 21:00","2018","04","12","21:00","1.1","","-4.1","","69","","","M","16","","20","","","M","101.73","","","","","","NA"
"-61.78","47.43","ILES DE LA MADELEINE A","7053254","2018-04-12 22:00","2018","04","12","22:00","0.6","","-3.4","","75","","","M","17","","16","","","M","101.71","","","","","","NA"
"-61.78","47.43","ILES DE LA MADELEINE A","7053254","2018-04-12 23:00","2018","04","12","23:00","1.1","","-2.9","","74","","","M","16","","19","","","M","101.67","","","","","","NA"
"-61.78","47.43","ILES DE LA MADELEINE A","7053254","2018-04-13 00:00","2018","04","13","00:00","1.2","","-1.4","","83","","","M","19","","24","","","M","101.70","","","","","","NA"
"-61.78","47.43","ILES DE LA MADELEINE A","7053254","2018-04-13 01:00","2018","04","13","01:00","0.9","","-1.1","","86","","","M","19","","20","","","M","101.69","","","","","","NA"
"-61.78","47.43","ILES DE LA MADELEINE A","7053254","2018-04-13 02:00","2018","04","13","02:00","0.8","","-1.1","","87","","","M","18","","21","","","M","101.59","","","","","","NA"
"-61.78","47.43","ILES DE LA MADELEINE A","7053254","2018-04-13 03:00","2018","04","13","03:00","0.5","","-0.9","","90","","","M","18","","23","","","M","101.48","","","","","","NA"
"-61.78","47.43","ILES DE LA MADELEINE A","7053254","2018-04-13 04:00","2018","04","13","04:00","0.5","","-0.7","","92","","","M","17","","25","","","M","101.44","","","","","","NA"
"-61.78","47.43","ILES DE LA MADELEINE A","7053254","2018-04-13 05:00","2018","04","13","05:00","0.6","","-0.6","","91","","","M","17","","30","","","M","101.33","","","","","","NA"
"-61.78","47.43","ILES DE LA MADELEINE A","7053254","2018-04-13 06:00","2018","04","13","06:00","1.1","","-1.2","","85","","","M","17","","27","","","M","101.25","","","","","","NA"
"-61.78","47.43","ILES DE LA MADELEINE A","7053254","2018-04-13 07:00","2018","04","13","07:00","0.9","","-1.1","","87","","","M","17","","28","","","M","101.21","","","","","","NA"
"-61.78","47.43","ILES DE LA MADELEINE A","7053254","2018-04-13 08:00","2018","04","13","08:00","0.8","","-0.1","","94","","","M","16","","32","","","M","101.10","","","","","","NA"
"-61.78","47.43","ILES DE LA MADELEINE A","7053254","2018-04-13 09:00","2018","04","13","09:00","0.3","","-0.1","","97","","","M","15","","34","","","M","100.98","","","","","","NA"
"-61.78","47.43","ILES DE LA MADELEINE A","7053254","2018-04-13 10:00","2018","04","13","10:00","0.4","","0.0","","97","","","M","14","","37","","","M","100.76","","","","","","NA"
"-61.78","47.43","ILES DE LA MADELEINE A","7053254","2018-04-13 11:00","2018","04","13","11:00","0.5","","0.1","","97","","","M","15","","31","","","M","100.65","","","","","","NA"
"-61.78","47.43","ILES DE LA MADELEINE A","7053254","2018-04-13 12:00","2018","04","13","12:00","0.8","","0.2","","96","","","M","16","","32","","","M","100.50","","","","","","NA"
"-61.78","47.43","ILES DE LA MADELEINE A","7053254","2018-04-13 13:00","2018","04","13","13:00","1.3","","0.5","","94","","","M","17","","32","","","M","100.37","","","","","","NA"
"-61.78","47.43","ILES DE LA MADELEINE A","7053254","2018-04-13 14:00","2018","04","13","14:00","1.1","","0.6","","96","","","M","19","","30","","","M","100.36","","","","","","NA"
"-61.78","47.43","ILES DE LA MADELEINE A","7053254","2018-04-13 15:00","2018","04","13","15:00","2.0","","1.7","","98","","","M","22","","18","","","M","100.34","","","","","","NA"
"-61.78","47.43","ILES DE LA MADELEINE A","7053254","2018-04-13 16:00","2018","04","13","16:00","0.9","","0.6","","98","","","M","28","","25","","","M","100.44","","","","","","NA"
"-61.78","47.43","ILES DE LA MADELEINE A","7053254","2018-04-13 17:00","2018","04","13","17:00","0.1","","-0.2","","98","","","M","30","","31","","","M","100.55","","","","","","NA"
"-61.78","47.43","ILES DE LA MADELEINE A","7053254","2018-04-13 18:00","2018","04","13","18:00","-0.4","","-0.6","","99","","","M","29","","31","","","M","100.69","","","","-7","","NA"
"-61.78","47.43","ILES DE LA MADELEINE A","7053254","2018-04-13 19:00","2018","04","13","19:00","0.4","","0.2","","98","","","M","29","","23","","","M","100.79","","","","","","NA"
"-61.78","47.43","ILES DE LA MADELEINE A","7053254","2018-04-13 20:00","2018","04","13","20:00","0.9","","-0.2","","92","","","M","27","","12","","","M","100.85","","","","","","NA"
"-61.78","47.43","ILES DE LA MADELEINE A","7053254","2018-04-13 21:00","2018","04","13","21:00","1.0","","-0.1","","92","","","M","26","","13","","","M","100.99","","","","","","NA"
"-61.78","47.43","ILES DE LA MADELEINE A","7053254","2018-04-13 22:00","2018","04","13","22:00","0.4","","-0.4","","95","","","M","23","","15","","","M","100.97","","","","","","NA"
"-61.78","47.43","ILES DE LA MADELEINE A","7053254","2018-04-13 23:00","2018","04","13","23:00","0.0","","-0.7","","95","","","M","23","","16","","","M","100.93","","","","-5","","NA"
"-61.78","47.43","ILES DE LA MADELEINE A","7053254","2018-04-14 00:00","2018","04","14","00:00","0.5","","-0.5","","93","","","M","23","","16","","","M","100.93","","","","","","NA"
"-61.78","47.43","ILES DE LA MADELEINE A","7053254","2018-04-14 01:00","2018","04","14","01:00","0.4","","-0.9","","91","","","M","22","","19","","","M","100.85","","","","","","NA"
"-61.78","47.43","ILES DE LA MADELEINE A","7053254","2018-04-14 02:00","2018","04","14","02:00","0.9","","-0.6","","89","","","M","23","","18","","","M","100.82","","","","","","NA"
"-61.78","47.43","ILES DE LA MADELEINE A","7053254","2018-04-14 03:00","2018","04","14","03:00","1.0","","-0.9","","87","","","M","23","","20","","","M","100.78","","","","","","NA"
"-61.78","47.43","ILES DE LA MADELEINE A","7053254","2018-04-14 04:00","2018","04","14","04:00","1.1","","-1.1","","85","","","M","23","","18","","","M","100.73","","","","","","NA"
"-61.78","47.43","ILES DE LA MADELEINE A","7053254","2018-04-14 05:00","2018","04","14","05:00","1.9","","-1.2","","80","","","M","26","","23","","","M","100.73","","","","","","NA"
"-61.78","47.43","ILES DE LA MADELEINE A","7053254","2018-04-14 06:00","2018","04","14","06:00","0.5","","-0.8","","91","","","M","28","","15","","","M","100.82","","","","","","NA"
"-61.78","47.43","ILES DE LA MADELEINE A","7053254","2018-04-14 07:00","2018","04","14","07:00","0.6","","-3.1","","77","","","M","32","","16","","","M","100.79","","","","","","NA"
"-61.78","47.43","ILES DE LA MADELEINE A","7053254","2018-04-14 08:00","2018","04","14","08:00","0.4","","-4.0","","72","","","M","33","","19","","","M","100.82","","","","","","NA"
"-61.78","47.43","ILES DE LA MADELEINE A","7053254","2018-04-14 09:00","2018","04","14","09:00","0.5","","-3.3","","76","","","M","32","","20","","","M","100.85","","","","","","NA"
"-61.78","47.43","ILES DE LA MADELEINE A","7053254","2018-04-14 10:00","2018","04","14","10:00","0.2","","-6.5","","61","","","M","29","","37","","","M","100.88","","","","","","NA"
"-61.78","47.43","ILES DE LA MADELEINE A","7053254","2018-04-14 11:00","2018","04","14","11:00","-0.6","","-8.1","","57","","","M","30","","47","","","M","100.89","","","","-9","","NA"
"-61.78","47.43","ILES DE LA MADELEINE A","7053254","2018-04-14 12:00","2018","04","14","12:00","-1.3","","-9.0","","56","","","M","30","","41","","","M","100.96","","","","-9","","NA"
"-61.78","47.43","ILES DE LA MADELEINE A","7053254","2018-04-14 13:00","2018","04","14","13:00","-2.0","","-10.6","","52","","","M","30","","51","","","M","101.02","","","","-11","","NA"
"-61.78","47.43","ILES DE LA MADELEINE A","7053254","2018-04-14 14:00","2018","04","14","14:00","-2.8","","-10.7","","55","","","M","30","","45","","","M","101.11","","","","-12","","NA"
"-61.78","47.43","ILES DE LA MADELEINE A","7053254","2018-04-14 15:00","2018","04","14","15:00","-2.9","","-9.9","","58","","","M","32","","48","","","M","101.20","","","","-12","","NA"
"-61.78","47.43","ILES DE LA MADELEINE A","7053254","2018-04-14 16:00","2018","04","14","16:00","-3.7","","-9.7","","63","","","M","31","","48","","","M","101.31","","","","-13","","NA"
"-61.78","47.43","ILES DE LA MADELEINE A","7053254","2018-04-14 17:00","2018","04","14","17:00","-4.5","","-10.8","","61","","","M","32","","55","","","M","101.49","","","","-15","","NA"
"-61.78","47.43","ILES DE LA MADELEINE A","7053254","2018-04-14 18:00","2018","04","14","18:00","-4.4","","-10.2","","64","","","M","32","","58","","","M","101.60","","","","-15","","NA"
"-61.78","47.43","ILES DE LA MADELEINE A","7053254","2018-04-14 19:00","2018","04","14","19:00","-4.2","","-10.2","","63","","","M","31","","53","","","M","101.75","","","","-14","","NA"
"-61.78","47.43","ILES DE LA MADELEINE A","7053254","2018-04-14 20:00","2018","04","14","20:00","-3.7","","-9.2","","66","","","M","31","","49","","","M","101.89","","","","-13","","NA"
"-61.78","47.43","ILES DE LA MADELEINE A","7053254","2018-04-14 21:00","2018","04","14","21:00","-3.5","","-10.5","","59","","","M","33","","53","","","M","101.95","","","","-13","","NA"
"-61.78","47.43","ILES DE LA MADELEINE A","7053254","2018-04-14 22:00","2018","04","14","22:00","-3.4","","-10.2","","59","","","M","33","","46","","","M","102.02","","","","-12","","NA"
"-61.78","47.43","ILES DE LA MADELEINE A","7053254","2018-04-14 23:00","2018","04","14","23:00","-3.6","","-10.2","","61","","","M","32","","40","","","M","102.12","","","","-12","","NA"
"-61.78","47.43","ILES DE LA MADELEINE A","7053254","2018-04-15 00:00","2018","04","15","00:00","-3.8","","-11.0","","57","","","M","32","","40","","","M","102.23","","","","-12","","NA"
"-61.78","47.43","ILES DE LA MADELEINE A","7053254","2018-04-15 01:00","2018","04","15","01:00","-3.9","","-10.8","","59","","","M","32","","44","","","M","102.30","","","","-13","","NA"
"-61.78","47.43","ILES DE LA MADELEINE A","7053254","2018-04-15 02:00","2018","04","15","02:00","-4.2","","-11.5","","57","","","M","32","","45","","","M","102.38","","","","-13","","NA"
"-61.78","47.43","ILES DE LA MADELEINE A","7053254","2018-04-15 03:00","2018","04","15","03:00","-4.5","","-12.2","","55","","","M","32","","43","","","M","102.48","","","","-14","","NA"
"-61.78","47.43","ILES DE LA MADELEINE A","7053254","2018-04-15 04:00","2018","04","15","04:00","-4.7","","-11.6","","59","","","M","33","","42","","","M","102.52","","","","-14","","NA"
"-61.78","47.43","ILES DE LA MADELEINE A","7053254","2018-04-15 05:00","2018","04","15","05:00","-5.2","","-11.7","","61","","","M","32","","41","","","M","102.58","","","","-14","","NA"
"-61.78","47.43","ILES DE LA MADELEINE A","7053254","2018-04-15 06:00","2018","04","15","06:00","-5.7","","-11.7","","63","","","M","32","","47","","","M","102.72","","","","-16","","NA"
"-61.78","47.43","ILES DE LA MADELEINE A","7053254","2018-04-15 07:00","2018","04","15","07:00","-6.0","","-11.2","","67","","","M","33","","43","","","M","102.77","","","","-16","","NA"
"-61.78","47.43","ILES DE LA MADELEINE A","7053254","2018-04-15 08:00","2018","04","15","08:00","-5.9","","-11.7","","64","","","M","33","","43","","","M","102.87","","","","-16","","NA"
"-61.78","47.43","ILES DE LA MADELEINE A","7053254","2018-04-15 09:00","2018","04","15","09:00","-5.4","","-10.3","","68","","","M","32","","34","","","M","102.94","","","","-14","","NA"
"-61.78","47.43","ILES DE LA MADELEINE A","7053254","2018-04-15 10:00","2018","04","15","10:00","-5.0","","-11.1","","62","","","M","32","","40","","","M","103.00","","","","-14","","NA"
"-61.78","47.43","ILES DE LA MADELEINE A","7053254","2018-04-15 11:00","2018","04","15","11:00","-4.8","","-10.5","","64","","","M","33","","36","","","M","103.02","","","","-13","","NA"
"-61.78","47.43","ILES DE LA MADELEINE A","7053254","2018-04-15 12:00","2018","04","15","12:00","-4.0","","-9.7","","65","","","M","31","","30","","","M","103.06","","","","-12","","NA"
"-61.78","47.43","ILES DE LA MADELEINE A","7053254","2018-04-15 13:00","2018","04","15","13:00","-4.0","","-9.6","","66","","","M","32","","33","","","M","103.15","","","","-12","","NA"
"-61.78","47.43","ILES DE LA MADELEINE A","7053254","2018-04-15 14:00","2018","04","15","14:00","-4.3","","-8.9","","70","","","M","32","","35","","","M","103.21","","","","-13","","NA"
"-61.78","47.43","ILES DE LA MADELEINE A","7053254","2018-04-15 15:00","2018","04","15","15:00","-4.3","","-8.8","","71","","","M","32","","36","","","M","103.22","","","","-13","","NA"
"-61.78","47.43","ILES DE LA MADELEINE A","7053254","2018-04-15 16:00","2018","04","15","16:00","-4.0","","-8.2","","72","","","M","34","","39","","","M","103.30","","","","-13","","NA"
"-61.78","47.43","ILES DE LA MADELEINE A","7053254","2018-04-15 17:00","2018","04","15","17:00","-3.8","","-8.3","","71","","","M","34","","35","","","M","103.35","","","","-12","","NA"
"-61.78","47.43","ILES DE LA MADELEINE A","7053254","2018-04-15 18:00","2018","04","15","18:00","-3.8","","-8.2","","72","","","M","34","","28","","","M","103.39","","","","-11","","NA"
"-61.78","47.43","ILES DE LA MADELEINE A","7053254","2018-04-15 19:00","2018","04","15","19:00","-3.8","","-7.3","","77","","","M","34","","21","","","M","103.47","","","","-10","","NA"
"-61.78","47.43","ILES DE LA MADELEINE A","7053254","2018-04-15 20:00","2018","04","15","20:00","-4.0","","-7.0","","79","","","M","35","","22","","","M","103.47","","","","-11","","NA"
"-61.78","47.43","ILES DE LA MADELEINE A","7053254","2018-04-15 21:00","2018","04","15","21:00","-3.6","","-6.7","","79","","","M","35","","19","","","M","103.51","","","","-10","","NA"
"-61.78","47.43","ILES DE LA MADELEINE A","7053254","2018-04-15 22:00","2018","04","15","22:00","-3.4","","-6.1","","82","","","M","35","","17","","","M","103.54","","","","-9","","NA"
"-61.78","47.43","ILES DE LA MADELEINE A","7053254","2018-04-15 23:00","2018","04","15","23:00","-3.8","","-5.9","","85","","","M","34","","13","","","M","103.55","","","","-9","","NA"
"-61.78","47.43","ILES DE LA MADELEINE A","7053254","2018-04-16 00:00","2018","04","16","00:00","-3.7","","-5.1","","90","","","M","34","","12","","","M","103.59","","","","-8","","NA"
"-61.78","47.43","ILES DE LA MADELEINE A","7053254","2018-04-16 01:00","2018","04","16","01:00","-3.8","","-5.1","","91","","","M","32","","9","","","M","103.59","","","","-8","","NA"
"-61.78","47.43","ILES DE LA MADELEINE A","7053254","2018-04-16 02:00","2018","04","16","02:00","-3.5","","-4.6","","92","","","M","32","","14","","","M","103.58","","","","-9","","NA"
"-61.78","47.43","ILES DE LA MADELEINE A","7053254","2018-04-16 03:00","2018","04","16","03:00","-3.6","","-4.6","","93","","","M","32","","11","","","M","103.55","","","","-8","","NA"
"-61.78","47.43","ILES DE LA MADELEINE A","7053254","2018-04-16 04:00","2018","04","16","04:00","-3.4","","-4.4","","93","","","M","31","","10","","","M","103.56","","","","-7","","NA"
"-61.78","47.43","ILES DE LA MADELEINE A","7053254","2018-04-16 05:00","2018","04","16","05:00","-3.9","","-4.7","","94","","","M","31","","9","","","M","103.52","","","","-8","","NA"
"-61.78","47.43","ILES DE LA MADELEINE A","7053254","2018-04-16 06:00","2018","04","16","06:00","-2.9","","-3.8","","94","","","M","28","","5","","","M","103.50","","","","-5","","NA"
"-61.78","47.43","ILES DE LA MADELEINE A","7053254","2018-04-16 07:00","2018","04","16","07:00","-1.1","","-2.5","","90","","","M","32","","10","","","M","103.50","","","","-5","","NA"
"-61.78","47.43","ILES DE LA MADELEINE A","7053254","2018-04-16 08:00","2018","04","16","08:00","0.0","","-2.7","","82","","","M","33","","13","","","M","103.50","","","","-4","","NA"
"-61.78","47.43","ILES DE LA MADELEINE A","7053254","2018-04-16 09:00","2018","04","16","09:00","0.3","","-3.3","","77","","","M","32","","10","","","M","103.47","","","","","","NA"
"-61.78","47.43","ILES DE LA MADELEINE A","7053254","2018-04-16 10:00","2018","04","16","10:00","0.6","","-3.4","","74","","","M","34","","14","","","M","103.44","","","","","","NA"
"-61.78","47.43","ILES DE LA MADELEINE A","7053254","2018-04-16 11:00","2018","04","16","11:00","0.8","","-3.9","","71","","","M","33","","13","","","M","103.41","","","","","","NA"
"-61.78","47.43","ILES DE LA MADELEINE A","7053254","2018-04-16 12:00","2018","04","16","12:00","0.8","","-3.6","","72","","","M","34","","14","","","M","103.31","","","","","","NA"
"-61.78","47.43","ILES DE LA MADELEINE A","7053254","2018-04-16 13:00","2018","04","16","13:00","1.8","","-3.4","","68","","","M","36","","12","","","M","103.27","","","","","","NA"
"-61.78","47.43","ILES DE LA MADELEINE A","7053254","2018-04-16 14:00","2018","04","16","14:00","1.3","","-4.0","","68","","","M","34","","10","","","M","103.21","","","","","","NA"
"-61.78","47.43","ILES DE LA MADELEINE A","7053254","2018-04-16 15:00","2018","04","16","15:00","1.7","","-4.7","","63","","","M","34","","7","","","M","103.11","","","","","","NA"
"-61.78","47.43","ILES DE LA MADELEINE A","7053254","2018-04-16 16:00","2018","04","16","16:00","0.9","","-3.8","","70","","","M","15","","4","","","M","103.05","","","","","","NA"
"-61.78","47.43","ILES DE LA MADELEINE A","7053254","2018-04-16 17:00","2018","04","16","17:00","0.3","","-3.7","","75","","","M","11","","8","","","M","102.95","","","","","","NA"
"-61.78","47.43","ILES DE LA MADELEINE A","7053254","2018-04-16 18:00","2018","04","16","18:00","-0.2","","-3.9","","76","","","M","10","","6","","","M","102.94","","","","-2","","NA"
"-61.78","47.43","ILES DE LA MADELEINE A","7053254","2018-04-16 19:00","2018","04","16","19:00","-0.4","","-3.7","","78","","","M","13","","7","","","M","102.86","","","","-3","","NA"
"-61.78","47.43","ILES DE LA MADELEINE A","7053254","2018-04-16 20:00","2018","04","16","20:00","-0.2","","-2.7","","83","","","M","10","","8","","","M","102.79","","","","-3","","NA"
"-61.78","47.43","ILES DE LA MADELEINE A","7053254","2018-04-16 21:00","2018","04","16","21:00","-0.1","","-3.4","","79","","","M","9","","12","","","M","102.70","","","","-4","","NA"
"-61.78","47.43","ILES DE LA MADELEINE A","7053254","2018-04-16 22:00","2018","04","16","22:00","-0.1","","-2.6","","83","","","M","12","","14","","","M","102.64","","","","-4","","NA"
"-61.78","47.43","ILES DE LA MADELEINE A","7053254","2018-04-16 23:00","2018","04","16","23:00","-0.3","","-2.4","","86","","","M","12","","17","","","M","102.57","","","","-5","","NA"
"-61.78","47.43","ILES DE LA MADELEINE A","7053254","2018-04-17 00:00","2018","04","17","00:00","-0.3","","-3.5","","79","","","M","11","","18","","","M","102.54","","","","-5","","NA"
"-61.78","47.43","ILES DE LA MADELEINE A","7053254","2018-04-17 01:00","2018","04","17","01:00","-0.3","","-4.6","","73","","","M","12","","21","","","M","102.49","","","","-6","","NA"
"-61.78","47.43","ILES DE LA MADELEINE A","7053254","2018-04-17 02:00","2018","04","17","02:00","-0.3","","-4.8","","71","","","M","12","","17","","","M","102.38","","","","-5","","NA"
"-61.78","47.43","ILES DE LA MADELEINE A","7053254","2018-04-17 03:00","2018","04","17","03:00","-0.4","","-3.7","","78","","","M","12","","18","","","M","102.27","","","","-5","","NA"
"-61.78","47.43","ILES DE LA MADELEINE A","7053254","2018-04-17 04:00","2018","04","17","04:00","-0.3","","-4.1","","76","","","M","10","","22","","","M","102.15","","","","-6","","NA"
"-61.78","47.43","ILES DE LA MADELEINE A","7053254","2018-04-17 05:00","2018","04","17","05:00","-0.2","","-3.8","","77","","","M","10","","20","","","M","102.07","","","","-5","","NA"
"-61.78","47.43","ILES DE LA MADELEINE A","7053254","2018-04-17 06:00","2018","04","17","06:00","-0.1","","-3.4","","78","","","M","10","","23","","","M","102.00","","","","-6","","NA"
"-61.78","47.43","ILES DE LA MADELEINE A","7053254","2018-04-17 07:00","2018","04","17","07:00","0.0","","-3.8","","76","","","M","11","","24","","","M","101.91","","","","-6","","NA"
"-61.78","47.43","ILES DE LA MADELEINE A","7053254","2018-04-17 08:00","2018","04","17","08:00","0.2","","-2.6","","81","","","M","11","","30","","","M","101.82","","","","","","NA"
"-61.78","47.43","ILES DE LA MADELEINE A","7053254","2018-04-17 09:00","2018","04","17","09:00","0.3","","-2.3","","83","","","M","11","","29","","","M","101.73","","","","","","NA"
"-61.78","47.43","ILES DE LA MADELEINE A","7053254","2018-04-17 10:00","2018","04","17","10:00","0.1","","-1.6","","88","","","M","10","","32","","","M","101.60","","","","","","NA"
"-61.78","47.43","ILES DE LA MADELEINE A","7053254","2018-04-17 11:00","2018","04","17","11:00","0.1","","-1.6","","88","","","M","11","","34","","","M","101.46","","","","","","NA"
"-61.78","47.43","ILES DE LA MADELEINE A","7053254","2018-04-17 12:00","2018","04","17","12:00","0.2","","-1.3","","90","","","M","11","","35","","","M","101.27","","","","","","NA"
"-61.78","47.43","ILES DE LA MADELEINE A","7053254","2018-04-17 13:00","2018","04","17","13:00","0.3","","-1.4","","89","","","M","11","","43","","","M","101.13","","","","","","NA"
"-61.78","47.43","ILES DE LA MADELEINE A","7053254","2018-04-17 14:00","2018","04","17","14:00","0.5","","-0.8","","91","","","M","12","","39","","","M","101.01","","","","","","NA"
"-61.78","47.43","ILES DE LA MADELEINE A","7053254","2018-04-17 15:00","2018","04","17","15:00","0.8","","-0.9","","88","","","M","12","","47","","","M","100.76","","","","","","NA"
"-61.78","47.43","ILES DE LA MADELEINE A","7053254","2018-04-17 16:00","2018","04","17","16:00","0.8","","-0.2","","93","","","M","11","","45","","","M","100.59","","","","","","NA"
"-61.78","47.43","ILES DE LA MADELEINE A","7053254","2018-04-17 17:00","2018","04","17","17:00","0.6","","-0.5","","92","","","M","11","","54","","","M","100.38","","","","","","NA"
"-61.78","47.43","ILES DE LA MADELEINE A","7053254","2018-04-17 18:00","2018","04","17","18:00","0.4","","-0.7","","92","","","M","11","","63","","","M","100.18","","","","","","NA"
"-61.78","47.43","ILES DE LA MADELEINE A","7053254","2018-04-17 19:00","2018","04","17","19:00","0.5","","-0.3","","94","","","M","11","","62","","","M","99.94","","","","","","NA"
"-61.78","47.43","ILES DE LA MADELEINE A","7053254","2018-04-17 20:00","2018","04","17","20:00","0.8","","0.3","","96","","","M","11","","55","","","M","99.88","","","","","","NA"
"-61.78","47.43","ILES DE LA MADELEINE A","7053254","2018-04-17 21:00","2018","04","17","21:00","1.2","","0.6","","96","","","M","12","","50","","","M","99.84","","","","","","NA"
"-61.78","47.43","ILES DE LA MADELEINE A","7053254","2018-04-17 22:00","2018","04","17","22:00","1.4","","0.8","","96","","","M","12","","42","","","M","99.73","","","","","","NA"
"-61.78","47.43","ILES DE LA MADELEINE A","7053254","2018-04-17 23:00","2018","04","17","23:00","1.4","","0.8","","96","","","M","12","","44","","","M","99.59","","","","","","NA"
"-61.78","47.43","ILES DE LA MADELEINE A","7053254","2018-04-18 00:00","2018","04","18","00:00","2.0","","1.5","","96","","","M","14","","35","","","M","99.54","","","","","","NA"
"-61.78","47.43","ILES DE LA MADELEINE A","7053254","2018-04-18 01:00","2018","04","18","01:00","2.6","","2.2","","98","","","M","15","","28","","","M","99.53","","","","","","NA"
"-61.78","47.43","ILES DE LA MADELEINE A","7053254","2018-04-18 02:00","2018","04","18","02:00","3.4","","3.2","","99","","","M","20","","11","","","M","99.53","","","","","","NA"
"-61.78","47.43","ILES DE LA MADELEINE A","7053254","2018-04-18 03:00","2018","04","18","03:00","3.3","","3.2","","99","","","M","24","","25","","","M","99.59","","","","","","NA"
"-61.78","47.43","ILES DE LA MADELEINE A","7053254","2018-04-18 04:00","2018","04","18","04:00","2.9","","2.8","","99","","","M","23","","19","","","M","99.62","","","","","","NA"
"-61.78","47.43","ILES DE LA MADELEINE A","7053254","2018-04-18 05:00","2018","04","18","05:00","2.0","","1.6","","97","","","M","23","","22","","","M","99.64","","","","","","NA"
"-61.78","47.43","ILES DE LA MADELEINE A","7053254","2018-04-18 06:00","2018","04","18","06:00","2.0","","1.1","","94","","","M","24","","10","","","M","99.65","","","","","","NA"
"-61.78","47.43","ILES DE LA MADELEINE A","7053254","2018-04-18 07:00","2018","04","18","07:00","2.9","","2.2","","95","","","M","19","","14","","","M","99.66","","","","","","NA"
"-61.78","47.43","ILES DE LA MADELEINE A","7053254","2018-04-18 08:00","2018","04","18","08:00","3.1","","2.3","","95","","","M","20","","15","","","M","99.65","","","","","","NA"
"-61.78","47.43","ILES DE LA MADELEINE A","7053254","2018-04-18 09:00","2018","04","18","09:00","2.5","","1.2","","91","","","M","19","","16","","","M","99.63","","","","","","NA"
"-61.78","47.43","ILES DE LA MADELEINE A","7053254","2018-04-18 10:00","2018","04","18","10:00","2.4","","1.2","","92","","","M","19","","19","","","M","99.62","","","","","","NA"
"-61.78","47.43","ILES DE LA MADELEINE A","7053254","2018-04-18 11:00","2018","04","18","11:00","2.9","","1.8","","92","","","M","19","","18","","","M","99.58","","","","","","NA"
"-61.78","47.43","ILES DE LA MADELEINE A","7053254","2018-04-18 12:00","2018","04","18","12:00","2.6","","1.3","","91","","","M","18","","15","","","M","99.55","","","","","","NA"
"-61.78","47.43","ILES DE LA MADELEINE A","7053254","2018-04-18 13:00","2018","04","18","13:00","2.6","","1.0","","89","","","M","19","","25","","","M","99.52","","","","","","NA"
"-61.78","47.43","ILES DE LA MADELEINE A","7053254","2018-04-18 14:00","2018","04","18","14:00","2.7","","1.6","","92","","","M","19","","19","","","M","99.48","","","","","","NA"
"-61.78","47.43","ILES DE LA MADELEINE A","7053254","2018-04-18 15:00","2018","04","18","15:00","3.4","","2.4","","93","","","M","19","","17","","","M","99.47","","","","","","NA"
"-61.78","47.43","ILES DE LA MADELEINE A","7053254","2018-04-18 16:00","2018","04","18","16:00","3.0","","1.6","","90","","","M","20","","16","","","M","99.48","","","","","","NA"
"-61.78","47.43","ILES DE LA MADELEINE A","7053254","2018-04-18 17:00","2018","04","18","17:00","3.0","","1.4","","90","","","M","23","","13","","","M","99.53","","","","","","NA"
"-61.78","47.43","ILES DE LA MADELEINE A","7053254","2018-04-18 18:00","2018","04","18","18:00","2.2","","1.3","","94","","","M","21","","10","","","M","99.56","","","","","","NA"
"-61.78","47.43","ILES DE LA MADELEINE A","7053254","2018-04-18 19:00","2018","04","18","19:00","1.9","","1.2","","95","","","M","22","","11","","","M","99.58","","","","","","NA"
"-61.78","47.43","ILES DE LA MADELEINE A","7053254","2018-04-18 20:00","2018","04","18","20:00","1.9","","1.3","","96","","","M","24","","19","","","M","99.61","","","","","","NA"
"-61.78","47.43","ILES DE LA MADELEINE A","7053254","2018-04-18 21:00","2018","04","18","21:00","1.7","","1.1","","96","","","M","23","","23","","","M","99.62","","","","","","NA"
"-61.78","47.43","ILES DE LA MADELEINE A","7053254","2018-04-18 22:00","2018","04","18","22:00","1.6","","0.9","","95","","","M","24","","18","","","M","99.62","","","","","","NA"
"-61.78","47.43","ILES DE LA MADELEINE A","7053254","2018-04-18 23:00","2018","04","18","23:00","1.4","","0.8","","96","","","M","24","","21","","","M","99.62","","","","","","NA"
"-61.78","47.43","ILES DE LA MADELEINE A","7053254","2018-04-19 00:00","2018","04","19","00:00","1.2","","0.8","","97","","","M","24","","24","","","M","99.65","","","","","","NA"
"-61.78","47.43","ILES DE LA MADELEINE A","7053254","2018-04-19 01:00","2018","04","19","01:00","1.3","","0.8","","97","","","M","25","","23","","","M","99.69","","","","","","NA"
"-61.78","47.43","ILES DE LA MADELEINE A","7053254","2018-04-19 02:00","2018","04","19","02:00","0.8","","0.3","","96","","","M","26","","21","","","M","99.75","","","","","","NA"
"-61.78","47.43","ILES DE LA MADELEINE A","7053254","2018-04-19 03:00","2018","04","19","03:00","0.5","","0.1","","97","","","M","25","","16","","","M","99.81","","","","","","NA"
"-61.78","47.43","ILES DE LA MADELEINE A","7053254","2018-04-19 04:00","2018","04","19","04:00","0.4","","0.1","","98","","","M","26","","15","","","M","99.83","","","","","","NA"
"-61.78","47.43","ILES DE LA MADELEINE A","7053254","2018-04-19 05:00","2018","04","19","05:00","0.2","","-0.1","","98","","","M","27","","15","","","M","99.89","","","","","","NA"
"-61.78","47.43","ILES DE LA MADELEINE A","7053254","2018-04-19 06:00","2018","04","19","06:00","0.3","","-0.1","","97","","","M","26","","15","","","M","99.99","","","","","","NA"
"-61.78","47.43","ILES DE LA MADELEINE A","7053254","2018-04-19 07:00","2018","04","19","07:00","0.7","","0.2","","96","","","M","25","","12","","","M","100.05","","","","","","NA"
"-61.78","47.43","ILES DE LA MADELEINE A","7053254","2018-04-19 08:00","2018","04","19","08:00","2.3","","0.8","","89","","","M","24","","11","","","M","100.12","","","","","","NA"
"-61.78","47.43","ILES DE LA MADELEINE A","7053254","2018-04-19 09:00","2018","04","19","09:00","3.4","","1.6","","88","","","M","25","","19","","","M","100.21","","","","","","NA"
"-61.78","47.43","ILES DE LA MADELEINE A","7053254","2018-04-19 10:00","2018","04","19","10:00","3.3","","1.4","","87","","","M","26","","21","","","M","100.29","","","","","","NA"
"-61.78","47.43","ILES DE LA MADELEINE A","7053254","2018-04-19 11:00","2018","04","19","11:00","3.6","","1.8","","88","","","M","26","","17","","","M","100.33","","","","","","NA"
"-61.78","47.43","ILES DE LA MADELEINE A","7053254","2018-04-19 12:00","2018","04","19","12:00","3.8","","1.7","","86","","","M","29","","16","","","M","100.35","","","","","","NA"
"-61.78","47.43","ILES DE LA MADELEINE A","7053254","2018-04-19 13:00","2018","04","19","13:00","3.9","","0.8","","80","","","M","28","","20","","","M","100.44","","","","","","NA"
"-61.78","47.43","ILES DE LA MADELEINE A","7053254","2018-04-19 14:00","2018","04","19","14:00","3.7","","0.9","","82","","","M","29","","20","","","M","100.52","","","","","","NA"
"-61.78","47.43","ILES DE LA MADELEINE A","7053254","2018-04-19 15:00","2018","04","19","15:00","3.5","","1.0","","83","","","M","30","","17","","","M","100.55","","","","","","NA"
"-61.78","47.43","ILES DE LA MADELEINE A","7053254","2018-04-19 16:00","2018","04","19","16:00","2.2","","0.3","","87","","","M","31","","13","","","M","100.55","","","","","","NA"
"-61.78","47.43","ILES DE LA MADELEINE A","7053254","2018-04-19 17:00","2018","04","19","17:00","1.6","","-0.1","","88","","","M","28","","7","","","M","100.65","","","","","","NA"
"-61.78","47.43","ILES DE LA MADELEINE A","7053254","2018-04-19 18:00","2018","04","19","18:00","1.3","","-0.1","","91","","","M","31","","5","","","M","100.66","","","","","","NA"
"-61.78","47.43","ILES DE LA MADELEINE A","7053254","2018-04-19 19:00","2018","04","19","19:00","0.3","","-0.3","","95","","","M","6","","14","","","M","100.65","","","","","","NA"
"-61.78","47.43","ILES DE LA MADELEINE A","7053254","2018-04-19 20:00","2018","04","19","20:00","-0.5","","-0.7","","98","","","M","8","","16","","","M","100.62","","","","-5","","NA"
"-61.78","47.43","ILES DE LA MADELEINE A","7053254","2018-04-19 21:00","2018","04","19","21:00","-0.8","","-1.0","","99","","","M","8","","19","","","M","100.62","","","","-6","","NA"
"-61.78","47.43","ILES DE LA MADELEINE A","7053254","2018-04-19 22:00","2018","04","19","22:00","-0.5","","-0.6","","99","","","M","8","","19","","","M","100.63","","","","-6","","NA"
"-61.78","47.43","ILES DE LA MADELEINE A","7053254","2018-04-19 23:00","2018","04","19","23:00","-0.5","","-0.6","","99","","","M","8","","17","","","M","100.55","","","","-5","","NA"
"-61.78","47.43","ILES DE LA MADELEINE A","7053254","2018-04-20 00:00","2018","04","20","00:00","-0.5","","-0.7","","99","","","M","9","","18","","","M","100.61","","","","-6","","NA"
"-61.78","47.43","ILES DE LA MADELEINE A","7053254","2018-04-20 01:00","2018","04","20","01:00","-0.7","","-0.9","","99","","","M","6","","21","","","M","100.48","","","","-6","","NA"
"-61.78","47.43","ILES DE LA MADELEINE A","7053254","2018-04-20 02:00","2018","04","20","02:00","-0.7","","-1.0","","98","","","M","6","","26","","","M","100.42","","","","-7","","NA"
"-61.78","47.43","ILES DE LA MADELEINE A","7053254","2018-04-20 03:00","2018","04","20","03:00","-0.6","","-1.0","","97","","","M","6","","24","","","M","100.37","","","","-7","","NA"
"-61.78","47.43","ILES DE LA MADELEINE A","7053254","2018-04-20 04:00","2018","04","20","04:00","-0.5","","-0.9","","97","","","M","6","","23","","","M","100.39","","","","-6","","NA"
"-61.78","47.43","ILES DE LA MADELEINE A","7053254","2018-04-20 05:00","2018","04","20","05:00","-0.2","","-0.6","","97","","","M","6","","30","","","M","100.38","","","","-7","","NA"
"-61.78","47.43","ILES DE LA MADELEINE A","7053254","2018-04-20 06:00","2018","04","20","06:00","-0.3","","-0.7","","97","","","M","6","","29","","","M","100.44","","","","-7","","NA"
"-61.78","47.43","ILES DE LA MADELEINE A","7053254","2018-04-20 07:00","2018","04","20","07:00","-0.1","","-0.5","","97","","","M","5","","29","","","M","100.40","","","","-6","","NA"
"-61.78","47.43","ILES DE LA MADELEINE A","7053254","2018-04-20 08:00","2018","04","20","08:00","0.2","","-0.4","","96","","","M","5","","34","","","M","100.36","","","","","","NA"
"-61.78","47.43","ILES DE LA MADELEINE A","7053254","2018-04-20 09:00","2018","04","20","09:00","0.4","","-0.5","","94","","","M","5","","34","","","M","100.40","","","","","","NA"
"-61.78","47.43","ILES DE LA MADELEINE A","7053254","2018-04-20 10:00","2018","04","20","10:00","0.3","","-0.4","","95","","","M","4","","31","","","M","100.43","","","","","","NA"
"-61.78","47.43","ILES DE LA MADELEINE A","7053254","2018-04-20 11:00","2018","04","20","11:00","0.1","","-0.5","","96","","","M","3","","31","","","M","100.48","","","","","","NA"
"-61.78","47.43","ILES DE LA MADELEINE A","7053254","2018-04-20 12:00","2018","04","20","12:00","0.0","","-0.6","","96","","","M","3","","36","","","M","100.50","","","","-7","","NA"
"-61.78","47.43","ILES DE LA MADELEINE A","7053254","2018-04-20 13:00","2018","04","20","13:00","0.1","","-0.5","","96","","","M","2","","30","","","M","100.50","","","","","","NA"
"-61.78","47.43","ILES DE LA MADELEINE A","7053254","2018-04-20 14:00","2018","04","20","14:00","0.0","","-0.9","","94","","","M","2","","39","","","M","100.54","","","","-7","","NA"
"-61.78","47.43","ILES DE LA MADELEINE A","7053254","2018-04-20 15:00","2018","04","20","15:00","-0.4","","-1.3","","94","","","M","1","","35","","","M","100.61","","","","-7","","NA"
"-61.78","47.43","ILES DE LA MADELEINE A","7053254","2018-04-20 16:00","2018","04","20","16:00","-0.4","","-1.3","","93","","","M","36","","35","","","M","100.71","","","","-7","","NA"
"-61.78","47.43","ILES DE LA MADELEINE A","7053254","2018-04-20 17:00","2018","04","20","17:00","-0.7","","-1.6","","94","","","M","35","","36","","","M","100.79","","","","-8","","NA"
"-61.78","47.43","ILES DE LA MADELEINE A","7053254","2018-04-20 18:00","2018","04","20","18:00","-0.7","","-1.5","","94","","","M","34","","36","","","M","100.82","","","","-8","","NA"
"-61.78","47.43","ILES DE LA MADELEINE A","7053254","2018-04-20 19:00","2018","04","20","19:00","-1.1","","-2.0","","93","","","M","34","","32","","","M","100.89","","","","-8","","NA"
"-61.78","47.43","ILES DE LA MADELEINE A","7053254","2018-04-20 20:00","2018","04","20","20:00","-1.0","","-2.0","","93","","","M","34","","36","","","M","100.98","","","","-8","","NA"
"-61.78","47.43","ILES DE LA MADELEINE A","7053254","2018-04-20 21:00","2018","04","20","21:00","-1.2","","-2.4","","92","","","M","32","","25","","","M","101.01","","","","-7","","NA"
"-61.78","47.43","ILES DE LA MADELEINE A","7053254","2018-04-20 22:00","2018","04","20","22:00","-0.7","","-1.6","","93","","","M","32","","28","","","M","101.03","","","","-7","","NA"
"-61.78","47.43","ILES DE LA MADELEINE A","7053254","2018-04-20 23:00","2018","04","20","23:00","-0.7","","-1.5","","94","","","M","32","","27","","","M","101.03","","","","-7","","NA"
"-61.78","47.43","ILES DE LA MADELEINE A","7053254","2018-04-21 00:00","2018","04","21","00:00","-0.5","","-1.3","","94","","","M","32","","27","","","M","101.05","","","","-7","","NA"
"-61.78","47.43","ILES DE LA MADELEINE A","7053254","2018-04-21 01:00","2018","04","21","01:00","-0.5","","-1.3","","94","","","M","32","","26","","","M","101.06","","","","-7","","NA"
"-61.78","47.43","ILES DE LA MADELEINE A","7053254","2018-04-21 02:00","2018","04","21","02:00","-0.6","","-1.5","","93","","","M","32","","26","","","M","101.07","","","","-7","","NA"
"-61.78","47.43","ILES DE LA MADELEINE A","7053254","2018-04-21 03:00","2018","04","21","03:00","-0.7","","-1.7","","93","","","M","31","","22","","","M","101.07","","","","-6","","NA"
"-61.78","47.43","ILES DE LA MADELEINE A","7053254","2018-04-21 04:00","2018","04","21","04:00","-0.8","","-2.1","","91","","","M","32","","25","","","M","101.08","","","","-7","","NA"
"-61.78","47.43","ILES DE LA MADELEINE A","7053254","2018-04-21 05:00","2018","04","21","05:00","-0.7","","-2.1","","90","","","M","32","","27","","","M","101.09","","","","-7","","NA"
"-61.78","47.43","ILES DE LA MADELEINE A","7053254","2018-04-21 06:00","2018","04","21","06:00","-0.7","","-2.3","","89","","","M","32","","26","","","M","101.13","","","","-7","","NA"
"-61.78","47.43","ILES DE LA MADELEINE A","7053254","2018-04-21 07:00","2018","04","21","07:00","-0.6","","-2.5","","87","","","M","32","","26","","","M","101.15","","","","-7","","NA"
"-61.78","47.43","ILES DE LA MADELEINE A","7053254","2018-04-21 08:00","2018","04","21","08:00","-0.2","","-2.5","","85","","","M","31","","27","","","M","101.21","","","","-6","","NA"
"-61.78","47.43","ILES DE LA MADELEINE A","7053254","2018-04-21 09:00","2018","04","21","09:00","0.3","","-1.6","","87","","","M","31","","20","","","M","101.25","","","","","","NA"
"-61.78","47.43","ILES DE LA MADELEINE A","7053254","2018-04-21 10:00","2018","04","21","10:00","0.9","","-2.9","","76","","","M","31","","29","","","M","101.27","","","","","","NA"
"-61.78","47.43","ILES DE LA MADELEINE A","7053254","2018-04-21 11:00","2018","04","21","11:00","1.1","","-2.3","","78","","","M","30","","27","","","M","101.28","","","","","","NA"
"-61.78","47.43","ILES DE LA MADELEINE A","7053254","2018-04-21 12:00","2018","04","21","12:00","0.8","","-2.6","","78","","","M","31","","32","","","M","101.27","","","","","","NA"
"-61.78","47.43","ILES DE LA MADELEINE A","7053254","2018-04-21 13:00","2018","04","21","13:00","1.2","","-2.5","","76","","","M","31","","29","","","M","101.32","","","","","","NA"
"-61.78","47.43","ILES DE LA MADELEINE A","7053254","2018-04-21 14:00","2018","04","21","14:00","1.0","","-3.4","","72","","","M","31","","31","","","M","101.35","","","","","","NA"
"-61.78","47.43","ILES DE LA MADELEINE A","7053254","2018-04-21 15:00","2018","04","21","15:00","1.4","","-2.7","","74","","","M","30","","26","","","M","101.40","","","","","","NA"
"-61.78","47.43","ILES DE LA MADELEINE A","7053254","2018-04-21 16:00","2018","04","21","16:00","0.9","","-3.3","","73","","","M","30","","25","","","M","101.44","","","","","","NA"
"-61.78","47.43","ILES DE LA MADELEINE A","7053254","2018-04-21 17:00","2018","04","21","17:00","0.7","","-3.2","","75","","","M","30","","23","","","M","101.47","","","","","","NA"
"-61.78","47.43","ILES DE LA MADELEINE A","7053254","2018-04-21 18:00","2018","04","21","18:00","0.3","","-3.2","","77","","","M","29","","21","","","M","101.49","","","","","","NA"
"-61.78","47.43","ILES DE LA MADELEINE A","7053254","2018-04-21 19:00","2018","04","21","19:00","-0.5","","-3.0","","83","","","M","28","","20","","","M","101.53","","","","-6","","NA"
"-61.78","47.43","ILES DE LA MADELEINE A","7053254","2018-04-21 20:00","2018","04","21","20:00","0.0","","-3.3","","78","","","M","28","","23","","","M","101.59","","","","-6","","NA"
"-61.78","47.43","ILES DE LA MADELEINE A","7053254","2018-04-21 21:00","2018","04","21","21:00","0.0","","-2.8","","81","","","M","29","","22","","","M","101.60","","","","-6","","NA"
"-61.78","47.43","ILES DE LA MADELEINE A","7053254","2018-04-21 22:00","2018","04","21","22:00","0.1","","-2.8","","81","","","M","28","","19","","","M","101.62","","","","","","NA"
"-61.78","47.43","ILES DE LA MADELEINE A","7053254","2018-04-21 23:00","2018","04","21","23:00","0.2","","-2.3","","83","","","M","27","","18","","","M","101.63","","","","","","NA"
"-61.78","47.43","ILES DE LA MADELEINE A","7053254","2018-04-22 00:00","2018","04","22","00:00","0.3","","-2.5","","81","","","M","27","","21","","","M","101.63","","","","","","NA"
"-61.78","47.43","ILES DE LA MADELEINE A","7053254","2018-04-22 01:00","2018","04","22","01:00","0.3","","-2.4","","82","","","M","27","","23","","","M","101.62","","","","","","NA"
"-61.78","47.43","ILES DE LA MADELEINE A","7053254","2018-04-22 02:00","2018","04","22","02:00","0.3","","-2.4","","82","","","M","27","","19","","","M","101.62","","","","","","NA"
"-61.78","47.43","ILES DE LA MADELEINE A","7053254","2018-04-22 03:00","2018","04","22","03:00","0.2","","-2.5","","82","","","M","27","","12","","","M","101.64","","","","","","NA"
"-61.78","47.43","ILES DE LA MADELEINE A","7053254","2018-04-22 04:00","2018","04","22","04:00","-0.5","","-2.5","","86","","","M","27","","11","","","M","101.64","","","","-4","","NA"
"-61.78","47.43","ILES DE LA MADELEINE A","7053254","2018-04-22 05:00","2018","04","22","05:00","-0.9","","-2.6","","88","","","M","28","","12","","","M","101.64","","","","-5","","NA"
"-61.78","47.43","ILES DE LA MADELEINE A","7053254","2018-04-22 06:00","2018","04","22","06:00","-0.4","","-2.0","","89","","","M","29","","8","","","M","101.68","","","","-3","","NA"
"-61.78","47.43","ILES DE LA MADELEINE A","7053254","2018-04-22 07:00","2018","04","22","07:00","0.8","","-1.3","","86","","","M","32","","10","","","M","101.71","","","","","","NA"
"-61.78","47.43","ILES DE LA MADELEINE A","7053254","2018-04-22 08:00","2018","04","22","08:00","1.2","","-0.9","","86","","","M","32","","12","","","M","101.76","","","","","","NA"
"-61.78","47.43","ILES DE LA MADELEINE A","7053254","2018-04-22 09:00","2018","04","22","09:00","1.9","","-0.9","","81","","","M","33","","12","","","M","101.81","","","","","","NA"
"-61.78","47.43","ILES DE LA MADELEINE A","7053254","2018-04-22 10:00","2018","04","22","10:00","2.5","","-1.2","","76","","","M","35","","16","","","M","101.85","","","","","","NA"
"-61.78","47.43","ILES DE LA MADELEINE A","7053254","2018-04-22 11:00","2018","04","22","11:00","2.6","","-2.2","","70","","","M","33","","13","","","M","101.87","","","","","","NA"
"-61.78","47.43","ILES DE LA MADELEINE A","7053254","2018-04-22 12:00","2018","04","22","12:00","2.9","","-1.0","","75","","","M","32","","18","","","M","101.90","","","","","","NA"
"-61.78","47.43","ILES DE LA MADELEINE A","7053254","2018-04-22 13:00","2018","04","22","13:00","2.4","","-2.6","","69","","","M","32","","22","","","M","101.93","","","","","","NA"
"-61.78","47.43","ILES DE LA MADELEINE A","7053254","2018-04-22 14:00","2018","04","22","14:00","2.8","","-2.8","","67","","","M","30","","18","","","M","101.92","","","","","","NA"
"-61.78","47.43","ILES DE LA MADELEINE A","7053254","2018-04-22 15:00","2018","04","22","15:00","2.3","","-2.4","","71","","","M","30","","20","","","M","101.96","","","","","","NA"
"-61.78","47.43","ILES DE LA MADELEINE A","7053254","2018-04-22 16:00","2018","04","22","16:00","2.1","","-3.4","","67","","","M","30","","24","","","M","101.99","","","","","","NA"
"-61.78","47.43","ILES DE LA MADELEINE A","7053254","2018-04-22 17:00","2018","04","22","17:00","1.6","","-3.6","","69","","","M","29","","18","","","M","102.01","","","","","","NA"
"-61.78","47.43","ILES DE LA MADELEINE A","7053254","2018-04-22 18:00","2018","04","22","18:00","0.7","","-3.8","","72","","","M","30","","19","","","M","102.05","","","","","","NA"
"-61.78","47.43","ILES DE LA MADELEINE A","7053254","2018-04-22 19:00","2018","04","22","19:00","-0.4","","-3.8","","78","","","M","28","","14","","","M","102.07","","","","-5","","NA"
"-61.78","47.43","ILES DE LA MADELEINE A","7053254","2018-04-22 20:00","2018","04","22","20:00","-1.2","","-3.5","","85","","","M","26","","15","","","M","102.12","","","","-6","","NA"
"-61.78","47.43","ILES DE LA MADELEINE A","7053254","2018-04-22 21:00","2018","04","22","21:00","-1.0","","-3.4","","84","","","M","26","","17","","","M","102.16","","","","-6","","NA"
"-61.78","47.43","ILES DE LA MADELEINE A","7053254","2018-04-22 22:00","2018","04","22","22:00","-1.5","","-3.6","","85","","","M","24","","12","","","M","102.17","","","","-6","","NA"
"-61.78","47.43","ILES DE LA MADELEINE A","7053254","2018-04-22 23:00","2018","04","22","23:00","-1.5","","-4.4","","81","","","M","25","","13","","","M","102.18","","","","-6","","NA"
"-61.78","47.43","ILES DE LA MADELEINE A","7053254","2018-04-23 00:00","2018","04","23","00:00","-0.5","","-5.7","","68","","","M","24","","16","","","M","102.18","","","","-5","","NA"
"-61.78","47.43","ILES DE LA MADELEINE A","7053254","2018-04-23 01:00","2018","04","23","01:00","0.3","","-6.8","","59","","","M","24","","21","","","M","102.18","","","","","","NA"
"-61.78","47.43","ILES DE LA MADELEINE A","7053254","2018-04-23 02:00","2018","04","23","02:00","0.4","","-6.9","","58","","","M","23","","18","","","M","102.18","","","","","","NA"
"-61.78","47.43","ILES DE LA MADELEINE A","7053254","2018-04-23 03:00","2018","04","23","03:00","0.0","","-6.0","","64","","","M","24","","13","","","M","102.23","","","","-4","","NA"
"-61.78","47.43","ILES DE LA MADELEINE A","7053254","2018-04-23 04:00","2018","04","23","04:00","-0.6","","-4.2","","76","","","M","26","","18","","","M","102.27","","","","-6","","NA"
"-61.78","47.43","ILES DE LA MADELEINE A","7053254","2018-04-23 05:00","2018","04","23","05:00","-0.9","","-3.3","","84","","","M","25","","14","","","M","102.30","","","","-5","","NA"
"-61.78","47.43","ILES DE LA MADELEINE A","7053254","2018-04-23 06:00","2018","04","23","06:00","0.1","","-2.2","","85","","","M","25","","13","","","M","102.36","","","","","","NA"
"-61.78","47.43","ILES DE LA MADELEINE A","7053254","2018-04-23 07:00","2018","04","23","07:00","1.8","","-1.6","","78","","","M","27","","11","","","M","102.40","","","","","","NA"
"-61.78","47.43","ILES DE LA MADELEINE A","7053254","2018-04-23 08:00","2018","04","23","08:00","2.6","","-1.8","","73","","","M","29","","13","","","M","102.46","","","","","","NA"
"-61.78","47.43","ILES DE LA MADELEINE A","7053254","2018-04-23 09:00","2018","04","23","09:00","3.4","","-1.7","","69","","","M","28","","11","","","M","102.49","","","","","","NA"
"-61.78","47.43","ILES DE LA MADELEINE A","7053254","2018-04-23 10:00","2018","04","23","10:00","5.0","","-1.8","","62","","","M","31","","14","","","M","102.53","","","","","","NA"
"-61.78","47.43","ILES DE LA MADELEINE A","7053254","2018-04-23 11:00","2018","04","23","11:00","4.6","","-1.8","","63","","","M","28","","18","","","M","102.54","","","","","","NA"
"-61.78","47.43","ILES DE LA MADELEINE A","7053254","2018-04-23 12:00","2018","04","23","12:00","5.6","","-3.4","","52","","","M","30","","18","","","M","102.54","","","","","","NA"
"-61.78","47.43","ILES DE LA MADELEINE A","7053254","2018-04-23 13:00","2018","04","23","13:00","5.8","","-3.4","","52","","","M","30","","19","","","M","102.53","","","","","","NA"
"-61.78","47.43","ILES DE LA MADELEINE A","7053254","2018-04-23 14:00","2018","04","23","14:00","5.8","","-2.9","","54","","","M","31","","17","","","M","102.53","","","","","","NA"
"-61.78","47.43","ILES DE LA MADELEINE A","7053254","2018-04-23 15:00","2018","04","23","15:00","6.1","","-3.4","","50","","","M","28","","16","","","M","102.51","","","","","","NA"
"-61.78","47.43","ILES DE LA MADELEINE A","7053254","2018-04-23 16:00","2018","04","23","16:00","6.5","","-5.0","","44","","","M","27","","15","","","M","102.51","","","","","","NA"
"-61.78","47.43","ILES DE LA MADELEINE A","7053254","2018-04-23 17:00","2018","04","23","17:00","6.5","","-5.4","","42","","","M","26","","16","","","M","102.47","","","","","","NA"
"-61.78","47.43","ILES DE LA MADELEINE A","7053254","2018-04-23 18:00","2018","04","23","18:00","5.7","","-3.9","","50","","","M","23","","9","","","M","102.45","","","","","","NA"
"-61.78","47.43","ILES DE LA MADELEINE A","7053254","2018-04-23 19:00","2018","04","23","19:00","4.3","","-8.2","","40","","","M","22","","16","","","M","102.45","","","","","","NA"
"-61.78","47.43","ILES DE LA MADELEINE A","7053254","2018-04-23 20:00","2018","04","23","20:00","4.2","","-8.8","","38","","","M","23","","14","","","M","102.44","","","","","","NA"
"-61.78","47.43","ILES DE LA MADELEINE A","7053254","2018-04-23 21:00","2018","04","23","21:00","2.4","","-2.4","","71","","","M","20","","19","","","M","102.45","","","","","","NA"
"-61.78","47.43","ILES DE LA MADELEINE A","7053254","2018-04-23 22:00","2018","04","23","22:00","2.5","","-2.4","","70","","","M","19","","21","","","M","102.42","","","","","","NA"
"-61.78","47.43","ILES DE LA MADELEINE A","7053254","2018-04-23 23:00","2018","04","23","23:00","3.1","","-3.2","","64","","","M","20","","18","","","M","102.41","","","","","","NA"
"-61.78","47.43","ILES DE LA MADELEINE A","7053254","2018-04-24 00:00","2018","04","24","00:00","5.1","","-5.4","","46","","","M","21","","17","","","M","102.43","","","","","","NA"
"-61.78","47.43","ILES DE LA MADELEINE A","7053254","2018-04-24 01:00","2018","04","24","01:00","4.5","","-3.5","","56","","","M","20","","19","","","M","102.37","","","","","","NA"
"-61.78","47.43","ILES DE LA MADELEINE A","7053254","2018-04-24 02:00","2018","04","24","02:00","4.0","","-3.0","","60","","","M","21","","19","","","M","102.35","","","","","","NA"
"-61.78","47.43","ILES DE LA MADELEINE A","7053254","2018-04-24 03:00","2018","04","24","03:00","3.5","","-2.7","","64","","","M","20","","22","","","M","102.33","","","","","","NA"
"-61.78","47.43","ILES DE LA MADELEINE A","7053254","2018-04-24 04:00","2018","04","24","04:00","3.8","","-3.0","","61","","","M","22","","17","","","M","102.28","","","","","","NA"
"-61.78","47.43","ILES DE LA MADELEINE A","7053254","2018-04-24 05:00","2018","04","24","05:00","3.9","","-2.9","","61","","","M","23","","22","","","M","102.25","","","","","","NA"
"-61.78","47.43","ILES DE LA MADELEINE A","7053254","2018-04-24 06:00","2018","04","24","06:00","4.8","","-2.5","","59","","","M","22","","22","","","M","102.23","","","","","","NA"
"-61.78","47.43","ILES DE LA MADELEINE A","7053254","2018-04-24 07:00","2018","04","24","07:00","5.7","","-2.1","","57","","","M","22","","25","","","M","102.19","","","","","","NA"
"-61.78","47.43","ILES DE LA MADELEINE A","7053254","2018-04-24 08:00","2018","04","24","08:00","6.5","","-1.7","","56","","","M","23","","23","","","M","102.15","","","","","","NA"
"-61.78","47.43","ILES DE LA MADELEINE A","7053254","2018-04-24 09:00","2018","04","24","09:00","8.1","","-1.3","","51","","","M","24","","23","","","M","102.12","","","","","","NA"
"-61.78","47.43","ILES DE LA MADELEINE A","7053254","2018-04-24 10:00","2018","04","24","10:00","8.7","","-1.9","","47","","","M","23","","32","","","M","102.10","","","","","","NA"
"-61.78","47.43","ILES DE LA MADELEINE A","7053254","2018-04-24 11:00","2018","04","24","11:00","9.9","","-2.0","","43","","","M","24","","32","","","M","102.04","","","","","","NA"
"-61.78","47.43","ILES DE LA MADELEINE A","7053254","2018-04-24 12:00","2018","04","24","12:00","10.8","","-1.1","","43","","","M","23","","31","","","M","101.97","","","","","","NA"
"-61.78","47.43","ILES DE LA MADELEINE A","7053254","2018-04-24 13:00","2018","04","24","13:00","12.0","","-0.2","","43","","","M","24","","37","","","M","101.89","","","","","","NA"
"-61.78","47.43","ILES DE LA MADELEINE A","7053254","2018-04-24 14:00","2018","04","24","14:00","13.6","","0.6","","41","","","M","24","","29","","","M","101.87","","","","","","NA"
"-61.78","47.43","ILES DE LA MADELEINE A","7053254","2018-04-24 15:00","2018","04","24","15:00","14.2","","-0.3","","37","","","M","24","","32","","","M","101.83","","","","","","NA"
"-61.78","47.43","ILES DE LA MADELEINE A","7053254","2018-04-24 16:00","2018","04","24","16:00","14.8","","0.5","","37","","","M","24","","28","","","M","101.78","","","","","","NA"
"-61.78","47.43","ILES DE LA MADELEINE A","7053254","2018-04-24 17:00","2018","04","24","17:00","14.6","","0.2","","37","","","M","24","","31","","","M","101.73","","","","","","NA"
"-61.78","47.43","ILES DE LA MADELEINE A","7053254","2018-04-24 18:00","2018","04","24","18:00","13.3","","0.2","","41","","","M","23","","25","","","M","101.74","","","","","","NA"
"-61.78","47.43","ILES DE LA MADELEINE A","7053254","2018-04-24 19:00","2018","04","24","19:00","11.3","","0.9","","49","","","M","22","","27","","","M","101.72","","","","","","NA"
"-61.78","47.43","ILES DE LA MADELEINE A","7053254","2018-04-24 20:00","2018","04","24","20:00","10.2","","0.2","","50","","","M","22","","27","","","M","101.76","","","","","","NA"
"-61.78","47.43","ILES DE LA MADELEINE A","7053254","2018-04-24 21:00","2018","04","24","21:00","8.8","","-1.2","","49","","","M","23","","30","","","M","101.79","","","","","","NA"
"-61.78","47.43","ILES DE LA MADELEINE A","7053254","2018-04-24 22:00","2018","04","24","22:00","8.3","","-0.8","","53","","","M","24","","31","","","M","101.80","","","","","","NA"
"-61.78","47.43","ILES DE LA MADELEINE A","7053254","2018-04-24 23:00","2018","04","24","23:00","7.3","","-0.9","","56","","","M","24","","30","","","M","101.79","","","","","","NA"
"-61.78","47.43","ILES DE LA MADELEINE A","7053254","2018-04-25 00:00","2018","04","25","00:00","7.0","","-0.9","","57","","","M","24","","33","","","M","101.80","","","","","","NA"
"-61.78","47.43","ILES DE LA MADELEINE A","7053254","2018-04-25 01:00","2018","04","25","01:00","6.3","","-0.7","","61","","","M","24","","27","","","M","101.80","","","","","","NA"
"-61.78","47.43","ILES DE LA MADELEINE A","7053254","2018-04-25 02:00","2018","04","25","02:00","5.6","","-0.6","","65","","","M","24","","27","","","M","101.78","","","","","","NA"
"-61.78","47.43","ILES DE LA MADELEINE A","7053254","2018-04-25 03:00","2018","04","25","03:00","5.3","","-0.6","","66","","","M","23","","25","","","M","101.79","","","","","","NA"
"-61.78","47.43","ILES DE LA MADELEINE A","7053254","2018-04-25 04:00","2018","04","25","04:00","5.4","","-0.7","","65","","","M","23","","28","","","M","101.78","","","","","","NA"
"-61.78","47.43","ILES DE LA MADELEINE A","7053254","2018-04-25 05:00","2018","04","25","05:00","5.3","","-0.3","","67","","","M","23","","31","","","M","101.79","","","","","","NA"
"-61.78","47.43","ILES DE LA MADELEINE A","7053254","2018-04-25 06:00","2018","04","25","06:00","6.3","","0.2","","65","","","M","24","","33","","","M","101.78","","","","","","NA"
"-61.78","47.43","ILES DE LA MADELEINE A","7053254","2018-04-25 07:00","2018","04","25","07:00","6.9","","0.5","","63","","","M","23","","34","","","M","101.86","","","","","","NA"
"-61.78","47.43","ILES DE LA MADELEINE A","7053254","2018-04-25 08:00","2018","04","25","08:00","6.5","","0.4","","65","","","M","23","","37","","","M","101.86","","","","","","NA"
"-61.78","47.43","ILES DE LA MADELEINE A","7053254","2018-04-25 09:00","2018","04","25","09:00","8.0","","0.6","","59","","","M","23","","36","","","M","101.88","","","","","","NA"
"-61.78","47.43","ILES DE LA MADELEINE A","7053254","2018-04-25 10:00","2018","04","25","10:00","9.0","","0.2","","54","","","M","23","","29","","","M","101.92","","","","","","NA"
"-61.78","47.43","ILES DE LA MADELEINE A","7053254","2018-04-25 11:00","2018","04","25","11:00","10.0","","0.6","","52","","","M","22","","23","","","M","101.94","","","","","","NA"
"-61.78","47.43","ILES DE LA MADELEINE A","7053254","2018-04-25 12:00","2018","04","25","12:00","10.8","","1.1","","51","","","M","23","","33","","","M","101.90","","","","","","NA"
"-61.78","47.43","ILES DE LA MADELEINE A","7053254","2018-04-25 13:00","2018","04","25","13:00","10.1","","1.8","","56","","","M","22","","23","","","M","101.92","","","","","","NA"
"-61.78","47.43","ILES DE LA MADELEINE A","7053254","2018-04-25 14:00","2018","04","25","14:00","9.4","","1.3","","57","","","M","21","","19","","","M","101.90","","","","","","NA"
"-61.78","47.43","ILES DE LA MADELEINE A","7053254","2018-04-25 15:00","2018","04","25","15:00","9.8","","1.7","","57","","","M","21","","22","","","M","101.86","","","","","","NA"
"-61.78","47.43","ILES DE LA MADELEINE A","7053254","2018-04-25 16:00","2018","04","25","16:00","10.5","","3.4","","61","","","M","21","","19","","","M","101.86","","","","","","NA"
"-61.78","47.43","ILES DE LA MADELEINE A","7053254","2018-04-25 17:00","2018","04","25","17:00","11.4","","4.9","","64","","","M","23","","32","","","M","101.85","","","","","","NA"
"-61.78","47.43","ILES DE LA MADELEINE A","7053254","2018-04-25 18:00","2018","04","25","18:00","12.1","","4.9","","61","","","M","23","","31","","","M","101.84","","","","","","NA"
"-61.78","47.43","ILES DE LA MADELEINE A","7053254","2018-04-25 19:00","2018","04","25","19:00","11.9","","4.9","","62","","","M","23","","24","","","M","101.88","","","","","","NA"
"-61.78","47.43","ILES DE LA MADELEINE A","7053254","2018-04-25 20:00","2018","04","25","20:00","7.9","","3.7","","74","","","M","20","","19","","","M","101.94","","","","","","NA"
"-61.78","47.43","ILES DE LA MADELEINE A","7053254","2018-04-25 21:00","2018","04","25","21:00","8.0","","3.3","","72","","","M","20","","19","","","M","101.97","","","","","","NA"
"-61.78","47.43","ILES DE LA MADELEINE A","7053254","2018-04-25 22:00","2018","04","25","22:00","7.7","","3.5","","74","","","M","19","","30","","","M","101.94","","","","","","NA"
"-61.78","47.43","ILES DE LA MADELEINE A","7053254","2018-04-25 23:00","2018","04","25","23:00","6.5","","3.6","","81","","","M","19","","25","","","M","101.93","","","","","","NA"
"-61.78","47.43","ILES DE LA MADELEINE A","7053254","2018-04-26 00:00","2018","04","26","00:00","6.6","","3.9","","83","","","M","19","","26","","","M","101.94","","","","","","NA"
"-61.78","47.43","ILES DE LA MADELEINE A","7053254","2018-04-26 01:00","2018","04","26","01:00","6.1","","3.6","","84","","","M","20","","21","","","M","101.91","","","","","","NA"
"-61.78","47.43","ILES DE LA MADELEINE A","7053254","2018-04-26 02:00","2018","04","26","02:00","6.1","","3.6","","84","","","M","19","","25","","","M","101.86","","","","","","NA"
"-61.78","47.43","ILES DE LA MADELEINE A","7053254","2018-04-26 03:00","2018","04","26","03:00","6.6","","4.5","","86","","","M","19","","30","","","M","101.84","","","","","","NA"
"-61.78","47.43","ILES DE LA MADELEINE A","7053254","2018-04-26 04:00","2018","04","26","04:00","6.6","","4.9","","89","","","M","19","","30","","","M","101.80","","","","","","NA"
"-61.78","47.43","ILES DE LA MADELEINE A","7053254","2018-04-26 05:00","2018","04","26","05:00","7.5","","5.7","","88","","","M","19","","25","","","M","101.78","","","","","","NA"
"-61.78","47.43","ILES DE LA MADELEINE A","7053254","2018-04-26 06:00","2018","04","26","06:00","8.4","","6.5","","88","","","M","18","","28","","","M","101.75","","","","","","NA"
"-61.78","47.43","ILES DE LA MADELEINE A","7053254","2018-04-26 07:00","2018","04","26","07:00","9.5","","6.8","","83","","","M","16","","27","","","M","101.73","","","","","","NA"
"-61.78","47.43","ILES DE LA MADELEINE A","7053254","2018-04-26 08:00","2018","04","26","08:00","10.6","","6.8","","77","","","M","15","","31","","","M","101.69","","","","","","NA"
"-61.78","47.43","ILES DE LA MADELEINE A","7053254","2018-04-26 09:00","2018","04","26","09:00","8.2","","5.7","","84","","","M","14","","31","","","M","101.61","","","","","","NA"
"-61.78","47.43","ILES DE LA MADELEINE A","7053254","2018-04-26 10:00","2018","04","26","10:00","7.6","","5.2","","85","","","M","15","","31","","","M","101.52","","","","","","NA"
"-61.78","47.43","ILES DE LA MADELEINE A","7053254","2018-04-26 11:00","2018","04","26","11:00","8.1","","5.5","","84","","","M","15","","32","","","M","101.43","","","","","","NA"
"-61.78","47.43","ILES DE LA MADELEINE A","7053254","2018-04-26 12:00","2018","04","26","12:00","6.7","","5.8","","94","","","M","14","","35","","","M","101.31","","","","","","NA"
"-61.78","47.43","ILES DE LA MADELEINE A","7053254","2018-04-26 13:00","2018","04","26","13:00","6.6","","5.9","","95","","","M","14","","27","","","M","101.19","","","","","","NA"
"-61.78","47.43","ILES DE LA MADELEINE A","7053254","2018-04-26 14:00","2018","04","26","14:00","6.9","","6.3","","96","","","M","14","","28","","","M","101.01","","","","","","NA"
"-61.78","47.43","ILES DE LA MADELEINE A","7053254","2018-04-26 15:00","2018","04","26","15:00","7.1","","6.6","","97","","","M","15","","34","","","M","100.81","","","","","","NA"
"-61.78","47.43","ILES DE LA MADELEINE A","7053254","2018-04-26 16:00","2018","04","26","16:00","7.2","","7.0","","98","","","M","15","","34","","","M","100.63","","","","","","NA"
"-61.78","47.43","ILES DE LA MADELEINE A","7053254","2018-04-26 17:00","2018","04","26","17:00","7.5","","6.9","","96","","","M","15","","36","","","M","100.48","","","","","","NA"
"-61.78","47.43","ILES DE LA MADELEINE A","7053254","2018-04-26 18:00","2018","04","26","18:00","9.8","","9.0","","95","","","M","16","","48","","","M","100.32","","","","","","NA"
"-61.78","47.43","ILES DE LA MADELEINE A","7053254","2018-04-26 19:00","2018","04","26","19:00","9.6","","8.5","","93","","","M","16","","44","","","M","100.27","","","","","","NA"
"-61.78","47.43","ILES DE LA MADELEINE A","7053254","2018-04-26 20:00","2018","04","26","20:00","8.7","","8.1","","96","","","M","18","","44","","","M","100.27","","","","","","NA"
"-61.78","47.43","ILES DE LA MADELEINE A","7053254","2018-04-26 21:00","2018","04","26","21:00","9.0","","8.7","","98","","","M","19","","42","","","M","100.29","","","","","","NA"
"-61.78","47.43","ILES DE LA MADELEINE A","7053254","2018-04-26 22:00","2018","04","26","22:00","8.9","","8.6","","98","","","M","18","","39","","","M","100.21","","","","","","NA"
"-61.78","47.43","ILES DE LA MADELEINE A","7053254","2018-04-26 23:00","2018","04","26","23:00","8.6","","8.4","","98","","","M","18","","38","","","M","100.14","","","","","","NA"
"-61.78","47.43","ILES DE LA MADELEINE A","7053254","2018-04-27 00:00","2018","04","27","00:00","8.3","","8.1","","99","","","M","18","","40","","","M","100.07","","","","","","NA"
"-61.78","47.43","ILES DE LA MADELEINE A","7053254","2018-04-27 01:00","2018","04","27","01:00","8.9","","8.8","","99","","","M","19","","40","","","M","100.00","","","","","","NA"
"-61.78","47.43","ILES DE LA MADELEINE A","7053254","2018-04-27 02:00","2018","04","27","02:00","6.9","","6.8","","99","","","M","19","","35","","","M","99.97","","","","","","NA"
"-61.78","47.43","ILES DE LA MADELEINE A","7053254","2018-04-27 03:00","2018","04","27","03:00","6.7","","6.5","","99","","","M","20","","33","","","M","100.02","","","","","","NA"
"-61.78","47.43","ILES DE LA MADELEINE A","7053254","2018-04-27 04:00","2018","04","27","04:00","8.0","","7.4","","96","","","M","22","","27","","","M","100.08","","","","","","NA"
"-61.78","47.43","ILES DE LA MADELEINE A","7053254","2018-04-27 05:00","2018","04","27","05:00","6.8","","6.3","","97","","","M","21","","29","","","M","100.12","","","","","","NA"
"-61.78","47.43","ILES DE LA MADELEINE A","7053254","2018-04-27 06:00","2018","04","27","06:00","7.7","","6.6","","93","","","M","23","","35","","","M","100.27","","","","","","NA"
"-61.78","47.43","ILES DE LA MADELEINE A","7053254","2018-04-27 07:00","2018","04","27","07:00","7.8","","6.3","","90","","","M","23","","36","","","M","100.38","","","","","","NA"
"-61.78","47.43","ILES DE LA MADELEINE A","7053254","2018-04-27 08:00","2018","04","27","08:00","8.8","","6.5","","86","","","M","23","","35","","","M","100.47","","","","","","NA"
"-61.78","47.43","ILES DE LA MADELEINE A","7053254","2018-04-27 09:00","2018","04","27","09:00","8.6","","6.2","","85","","","M","23","","37","","","M","100.65","","","","","","NA"
"-61.78","47.43","ILES DE LA MADELEINE A","7053254","2018-04-27 10:00","2018","04","27","10:00","9.5","","6.2","","80","","","M","24","","43","","","M","100.77","","","","","","NA"
"-61.78","47.43","ILES DE LA MADELEINE A","7053254","2018-04-27 11:00","2018","04","27","11:00","10.9","","6.7","","75","","","M","26","","40","","","M","100.84","","","","","","NA"
"-61.78","47.43","ILES DE LA MADELEINE A","7053254","2018-04-27 12:00","2018","04","27","12:00","12.2","","7.2","","72","","","M","25","","32","","","M","100.93","","","","","","NA"
"-61.78","47.43","ILES DE LA MADELEINE A","7053254","2018-04-27 13:00","2018","04","27","13:00","13.1","","7.8","","70","","","M","24","","27","","","M","101.01","","","","","","NA"
"-61.78","47.43","ILES DE LA MADELEINE A","7053254","2018-04-27 14:00","2018","04","27","14:00","12.8","","7.2","","68","","","M","24","","32","","","M","101.08","","","","","","NA"
"-61.78","47.43","ILES DE LA MADELEINE A","7053254","2018-04-27 15:00","2018","04","27","15:00","13.7","","7.3","","65","","","M","26","","23","","","M","101.12","","","","","","NA"
"-61.78","47.43","ILES DE LA MADELEINE A","7053254","2018-04-27 16:00","2018","04","27","16:00","14.1","","7.1","","62","","","M","25","","22","","","M","101.18","","","","","","NA"
"-61.78","47.43","ILES DE LA MADELEINE A","7053254","2018-04-27 17:00","2018","04","27","17:00","12.5","","7.0","","69","","","M","19","","10","","","M","101.18","","","","","","NA"
"-61.78","47.43","ILES DE LA MADELEINE A","7053254","2018-04-27 18:00","2018","04","27","18:00","9.0","","6.0","","81","","","M","18","","15","","","M","101.22","","","","","","NA"
"-61.78","47.43","ILES DE LA MADELEINE A","7053254","2018-04-27 19:00","2018","04","27","19:00","9.2","","6.5","","83","","","M","17","","11","","","M","101.29","","","","","","NA"
"-61.78","47.43","ILES DE LA MADELEINE A","7053254","2018-04-27 20:00","2018","04","27","20:00","9.1","","6.7","","85","","","M","16","","12","","","M","101.31","","","","","","NA"
"-61.78","47.43","ILES DE LA MADELEINE A","7053254","2018-04-27 21:00","2018","04","27","21:00","7.9","","6.0","","88","","","M","15","","22","","","M","101.36","","","","","","NA"
"-61.78","47.43","ILES DE LA MADELEINE A","7053254","2018-04-27 22:00","2018","04","27","22:00","7.4","","6.0","","91","","","M","14","","24","","","M","101.36","","","","","","NA"
"-61.78","47.43","ILES DE LA MADELEINE A","7053254","2018-04-27 23:00","2018","04","27","23:00","7.2","","5.1","","87","","","M","14","","21","","","M","101.33","","","","","","NA"
"-61.78","47.43","ILES DE LA MADELEINE A","7053254","2018-04-28 00:00","2018","04","28","00:00","5.7","","4.1","","89","","","M","14","","20","","","M","101.33","","","","","","NA"
"-61.78","47.43","ILES DE LA MADELEINE A","7053254","2018-04-28 01:00","2018","04","28","01:00","6.0","","3.2","","83","","","M","17","","25","","","M","101.28","","","","","","NA"
"-61.78","47.43","ILES DE LA MADELEINE A","7053254","2018-04-28 02:00","2018","04","28","02:00","5.7","","3.3","","84","","","M","19","","29","","","M","101.27","","","","","","NA"
"-61.78","47.43","ILES DE LA MADELEINE A","7053254","2018-04-28 03:00","2018","04","28","03:00","5.5","","3.2","","85","","","M","19","","24","","","M","101.29","","","","","","NA"
"-61.78","47.43","ILES DE LA MADELEINE A","7053254","2018-04-28 04:00","2018","04","28","04:00","6.2","","3.4","","82","","","M","19","","26","","","M","101.29","","","","","","NA"
"-61.78","47.43","ILES DE LA MADELEINE A","7053254","2018-04-28 05:00","2018","04","28","05:00","7.9","","4.0","","76","","","M","18","","21","","","M","101.22","","","","","","NA"
"-61.78","47.43","ILES DE LA MADELEINE A","7053254","2018-04-28 06:00","2018","04","28","06:00","6.9","","4.5","","85","","","M","16","","24","","","M","101.25","","","","","","NA"
"-61.78","47.43","ILES DE LA MADELEINE A","7053254","2018-04-28 07:00","2018","04","28","07:00","6.9","","4.6","","85","","","M","16","","27","","","M","101.19","","","","","","NA"
"-61.78","47.43","ILES DE LA MADELEINE A","7053254","2018-04-28 08:00","2018","04","28","08:00","8.6","","7.1","","90","","","M","17","","36","","","M","101.10","","","","","","NA"
"-61.78","47.43","ILES DE LA MADELEINE A","7053254","2018-04-28 09:00","2018","04","28","09:00","9.7","","9.4","","98","","","M","18","","34","","","M","101.11","","","","","","NA"
"-61.78","47.43","ILES DE LA MADELEINE A","7053254","2018-04-28 10:00","2018","04","28","10:00","11.0","","10.8","","99","","","M","19","","30","","","M","101.08","","","","","","NA"
"-61.78","47.43","ILES DE LA MADELEINE A","7053254","2018-04-28 11:00","2018","04","28","11:00","9.6","","9.3","","98","","","M","17","","32","","","M","101.03","","","","","","NA"
"-61.78","47.43","ILES DE LA MADELEINE A","7053254","2018-04-28 12:00","2018","04","28","12:00","10.3","","10.2","","99","","","M","17","","28","","","M","100.98","","","","","","NA"
"-61.78","47.43","ILES DE LA MADELEINE A","7053254","2018-04-28 13:00","2018","04","28","13:00","11.8","","11.6","","99","","","M","18","","38","","","M","100.92","","","","","","NA"
"-61.78","47.43","ILES DE LA MADELEINE A","7053254","2018-04-28 14:00","2018","04","28","14:00","9.2","","8.9","","98","","","M","19","","36","","","M","100.94","","","","","","NA"
"-61.78","47.43","ILES DE LA MADELEINE A","7053254","2018-04-28 15:00","2018","04","28","15:00","10.3","","9.7","","96","","","M","19","","32","","","M","100.92","","","","","","NA"
"-61.78","47.43","ILES DE LA MADELEINE A","7053254","2018-04-28 16:00","2018","04","28","16:00","10.8","","10.1","","96","","","M","19","","30","","","M","100.92","","","","","","NA"
"-61.78","47.43","ILES DE LA MADELEINE A","7053254","2018-04-28 17:00","2018","04","28","17:00","9.6","","9.1","","97","","","M","19","","23","","","M","100.96","","","","","","NA"
"-61.78","47.43","ILES DE LA MADELEINE A","7053254","2018-04-28 18:00","2018","04","28","18:00","8.3","","8.0","","97","","","M","20","","15","","","M","100.98","","","","","","NA"
"-61.78","47.43","ILES DE LA MADELEINE A","7053254","2018-04-28 19:00","2018","04","28","19:00","8.1","","7.8","","98","","","M","19","","23","","","M","100.98","","","","","","NA"
"-61.78","47.43","ILES DE LA MADELEINE A","7053254","2018-04-28 20:00","2018","04","28","20:00","7.8","","7.7","","99","","","M","19","","32","","","M","101.05","","","","","","NA"
"-61.78","47.43","ILES DE LA MADELEINE A","7053254","2018-04-28 21:00","2018","04","28","21:00","8.5","","8.3","","99","","","M","20","","23","","","M","101.07","","","","","","NA"
"-61.78","47.43","ILES DE LA MADELEINE A","7053254","2018-04-28 22:00","2018","04","28","22:00","8.5","","8.4","","99","","","M","19","","25","","","M","101.12","","","","","","NA"
"-61.78","47.43","ILES DE LA MADELEINE A","7053254","2018-04-28 23:00","2018","04","28","23:00","8.6","","8.5","","99","","","M","20","","19","","","M","101.17","","","","","","NA"
"-61.78","47.43","ILES DE LA MADELEINE A","7053254","2018-04-29 00:00","2018","04","29","00:00","10.1","","10.0","","99","","","M","25","","12","","","M","101.24","","","","","","NA"
"-61.78","47.43","ILES DE LA MADELEINE A","7053254","2018-04-29 01:00","2018","04","29","01:00","9.9","","9.8","","99","","","M","27","","10","","","M","101.24","","","","","","NA"
"-61.78","47.43","ILES DE LA MADELEINE A","7053254","2018-04-29 02:00","2018","04","29","02:00","7.7","","7.6","","99","","","M","27","","9","","","M","101.26","","","","","","NA"
"-61.78","47.43","ILES DE LA MADELEINE A","7053254","2018-04-29 03:00","2018","04","29","03:00","6.3","","6.2","","99","","","M","30","","8","","","M","101.26","","","","","","NA"
"-61.78","47.43","ILES DE LA MADELEINE A","7053254","2018-04-29 04:00","2018","04","29","04:00","4.5","","4.5","","100","","","M","4","","3","","","M","101.22","","","","","","NA"
"-61.78","47.43","ILES DE LA MADELEINE A","7053254","2018-04-29 05:00","2018","04","29","05:00","5.0","","5.0","","100","","","M","2","","6","","","M","101.17","","","","","","NA"
"-61.78","47.43","ILES DE LA MADELEINE A","7053254","2018-04-29 06:00","2018","04","29","06:00","5.1","","5.0","","100","","","M","9","","9","","","M","101.23","","","","","","NA"
"-61.78","47.43","ILES DE LA MADELEINE A","7053254","2018-04-29 07:00","2018","04","29","07:00","4.3","","4.3","","100","","","M","6","","7","","","M","101.27","","","","","","NA"
"-61.78","47.43","ILES DE LA MADELEINE A","7053254","2018-04-29 08:00","2018","04","29","08:00","4.0","","4.0","","100","","","M","3","","13","","","M","101.23","","","","","","NA"
"-61.78","47.43","ILES DE LA MADELEINE A","7053254","2018-04-29 09:00","2018","04","29","09:00","4.3","","4.3","","100","","","M","36","","13","","","M","101.18","","","","","","NA"
"-61.78","47.43","ILES DE LA MADELEINE A","7053254","2018-04-29 10:00","2018","04","29","10:00","4.6","","4.5","","100","","","M","2","","13","","","M","101.04","","","","","","NA"
"-61.78","47.43","ILES DE LA MADELEINE A","7053254","2018-04-29 11:00","2018","04","29","11:00","4.5","","4.4","","100","","","M","2","","17","","","M","101.04","","","","","","NA"
"-61.78","47.43","ILES DE LA MADELEINE A","7053254","2018-04-29 12:00","2018","04","29","12:00","2.8","","2.8","","100","","","M","1","","17","","","M","101.01","","","","","","NA"
"-61.78","47.43","ILES DE LA MADELEINE A","7053254","2018-04-29 13:00","2018","04","29","13:00","3.6","","3.5","","100","","","M","3","","18","","","M","100.90","","","","","","NA"
"-61.78","47.43","ILES DE LA MADELEINE A","7053254","2018-04-29 14:00","2018","04","29","14:00","5.1","","5.1","","100","","","M","3","","25","","","M","100.82","","","","","","NA"
"-61.78","47.43","ILES DE LA MADELEINE A","7053254","2018-04-29 15:00","2018","04","29","15:00","5.3","","5.2","","99","","","M","2","","23","","","M","100.72","","","","","","NA"
"-61.78","47.43","ILES DE LA MADELEINE A","7053254","2018-04-29 16:00","2018","04","29","16:00","2.6","","2.5","","99","","","M","1","","32","","","M","100.76","","","","","","NA"
"-61.78","47.43","ILES DE LA MADELEINE A","7053254","2018-04-29 17:00","2018","04","29","17:00","2.4","","2.3","","99","","","M","36","","34","","","M","100.83","","","","","","NA"
"-61.78","47.43","ILES DE LA MADELEINE A","7053254","2018-04-29 18:00","2018","04","29","18:00","2.1","","2.0","","99","","","M","34","","30","","","M","100.94","","","","","","NA"
"-61.78","47.43","ILES DE LA MADELEINE A","7053254","2018-04-29 19:00","2018","04","29","19:00","2.0","","1.8","","99","","","M","35","","26","","","M","101.09","","","","","","NA"
"-61.78","47.43","ILES DE LA MADELEINE A","7053254","2018-04-29 20:00","2018","04","29","20:00","2.2","","2.2","","100","","","M","1","","26","","","M","101.19","","","","","","NA"
"-61.78","47.43","ILES DE LA MADELEINE A","7053254","2018-04-29 21:00","2018","04","29","21:00","2.4","","2.4","","100","","","M","36","","22","","","M","101.34","","","","","","NA"
"-61.78","47.43","ILES DE LA MADELEINE A","7053254","2018-04-29 22:00","2018","04","29","22:00","2.6","","2.5","","100","","","M","1","","17","","","M","101.42","","","","","","NA"
"-61.78","47.43","ILES DE LA MADELEINE A","7053254","2018-04-29 23:00","2018","04","29","23:00","2.7","","2.6","","99","","","M","3","","28","","","M","101.50","","","","","","NA"
"-61.78","47.43","ILES DE LA MADELEINE A","7053254","2018-04-30 00:00","2018","04","30","00:00","2.5","","2.4","","99","","","M","1","","13","","","M","101.58","","","","","","NA"
"-61.78","47.43","ILES DE LA MADELEINE A","7053254","2018-04-30 01:00","2018","04","30","01:00","2.8","","2.6","","98","","","M","4","","18","","","M","101.67","","","","","","NA"
"-61.78","47.43","ILES DE LA MADELEINE A","7053254","2018-04-30 02:00","2018","04","30","02:00","2.7","","2.5","","98","","","M","5","","17","","","M","101.71","","","","","","NA"
"-61.78","47.43","ILES DE LA MADELEINE A","7053254","2018-04-30 03:00","2018","04","30","03:00","2.2","","2.0","","99","","","M","7","","14","","","M","101.74","","","","","","NA"
"-61.78","47.43","ILES DE LA MADELEINE A","7053254","2018-04-30 04:00","2018","04","30","04:00","2.0","","1.9","","99","","","M","7","","14","","","M","101.79","","","","","","NA"
"-61.78","47.43","ILES DE LA MADELEINE A","7053254","2018-04-30 05:00","2018","04","30","05:00","2.0","","1.9","","99","","","M","6","","16","","","M","101.84","","","","","","NA"
"-61.78","47.43","ILES DE LA MADELEINE A","7053254","2018-04-30 06:00","2018","04","30","06:00","2.2","","2.2","","100","","","M","7","","13","","","M","101.97","","","","","","NA"
"-61.78","47.43","ILES DE LA MADELEINE A","7053254","2018-04-30 07:00","2018","04","30","07:00","2.3","","2.2","","100","","","M","6","","24","","","M","101.95","","","","","","NA"
"-61.78","47.43","ILES DE LA MADELEINE A","7053254","2018-04-30 08:00","2018","04","30","08:00","2.4","","2.3","","99","","","M","8","","27","","","M","101.96","","","","","","NA"
"-61.78","47.43","ILES DE LA MADELEINE A","7053254","2018-04-30 09:00","2018","04","30","09:00","3.0","","3.0","","100","","","M","9","","25","","","M","101.95","","","","","","NA"
"-61.78","47.43","ILES DE LA MADELEINE A","7053254","2018-04-30 10:00","2018","04","30","10:00","3.4","","3.3","","99","","","M","8","","25","","","M","101.95","","","","","","NA"
"-61.78","47.43","ILES DE LA MADELEINE A","7053254","2018-04-30 11:00","2018","04","30","11:00","3.0","","2.1","","94","","","M","8","","26","","","M","101.94","","","","","","NA"
"-61.78","47.43","ILES DE LA MADELEINE A","7053254","2018-04-30 12:00","2018","04","30","12:00","3.7","","2.9","","94","","","M","9","","23","","","M","101.98","","","","","","NA"
"-61.78","47.43","ILES DE LA MADELEINE A","7053254","2018-04-30 13:00","2018","04","30","13:00","3.5","","2.3","","92","","","M","8","","22","","","M","101.92","","","","","","NA"
"-61.78","47.43","ILES DE LA MADELEINE A","7053254","2018-04-30 14:00","2018","04","30","14:00","4.0","","2.3","","89","","","M","9","","22","","","M","101.86","","","","","","NA"
"-61.78","47.43","ILES DE LA MADELEINE A","7053254","2018-04-30 15:00","2018","04","30","15:00","4.1","","2.5","","89","","","M","9","","26","","","M","101.77","","","","","","NA"
"-61.78","47.43","ILES DE LA MADELEINE A","7053254","2018-04-30 16:00","2018","04","30","16:00","4.2","","2.7","","90","","","M","9","","22","","","M","101.77","","","","","","NA"
"-61.78","47.43","ILES DE LA MADELEINE A","7053254","2018-04-30 17:00","2018","04","30","17:00","5.0","","2.9","","87","","","M","11","","21","","","M","101.75","","","","","","NA"
"-61.78","47.43","ILES DE LA MADELEINE A","7053254","2018-04-30 18:00","2018","04","30","18:00","4.3","","2.4","","87","","","M","11","","17","","","M","101.69","","","","","","NA"
"-61.78","47.43","ILES DE LA MADELEINE A","7053254","2018-04-30 19:00","2018","04","30","19:00","3.9","","2.3","","89","","","M","11","","26","","","M","101.69","","","","","","NA"
"-61.78","47.43","ILES DE LA MADELEINE A","7053254","2018-04-30 20:00","2018","04","30","20:00","3.8","","2.4","","90","","","M","11","","25","","","M","101.65","","","","","","NA"
"-61.78","47.43","ILES DE LA MADELEINE A","7053254","2018-04-30 21:00","2018","04","30","21:00","3.8","","2.4","","91","","","M","11","","25","","","M","101.61","","","","","","NA"
"-61.78","47.43","ILES DE LA MADELEINE A","7053254","2018-04-30 22:00","2018","04","30","22:00","3.6","","2.8","","95","","","M","12","","22","","","M","101.57","","","","","","NA"
"-61.78","47.43","ILES DE LA MADELEINE A","7053254","2018-04-30 23:00","2018","04","30","23:00","3.3","","2.6","","95","","","M","11","","23","","","M","101.53","","","","","","NA"
