"Longitude (x)","Latitude (y)","Station Name","Climate ID","Date/Time (LST)","Year","Month","Day","Time (LST)","Temp (°C)","Temp Flag","Dew Point Temp (°C)","Dew Point Temp Flag","Rel Hum (%)","Rel Hum Flag","Precip. Amount (mm)","Precip. Amount Flag","Wind Dir (10s deg)","Wind Dir Flag","Wind Spd (km/h)","Wind Spd Flag","Visibility (km)","Visibility Flag","Stn Press (kPa)","Stn Press Flag","Hmdx","Hmdx Flag","Wind Chill","Wind Chill Flag","Weather"
"-101.68","54.68","FLIN FLON A","5050961","2019-01-01 00:00","2019","01","01","00:00"
"-101.68","54.68","FLIN FLON A","5050961","2019-01-01 01:00","2019","01","01","01:00"
"-101.68","54.68","FLIN FLON A","5050961","2019-01-01 02:00","2019","01","01","02:00"
"-101.68","54.68","FLIN FLON A","5050961","2019-01-01 03:00","2019","01","01","03:00"
"-101.68","54.68","FLIN FLON A","5050961","2019-01-01 04:00","2019","01","01","04:00"
"-101.68","54.68","FLIN FLON A","5050961","2019-01-01 05:00","2019","01","01","05:00"
"-101.68","54.68","FLIN FLON A","5050961","2019-01-01 06:00","2019","01","01","06:00","-33.4","","-36.8","","72","","","","18","","9","","24.1","","98.36","","","","-43","","Mainly Clear"
"-101.68","54.68","FLIN FLON A","5050961","2019-01-01 07:00","2019","01","01","07:00","-29.2","","-32.5","","74","","","","17","","13","","24.1","","98.19","","","","-40","","NA"
"-101.68","54.68","FLIN FLON A","5050961","2019-01-01 08:00","2019","01","01","08:00","-28.4","","-31.7","","74","","","","16","","9","","24.1","","98.10","","","","-37","","NA"
"-101.68","54.68","FLIN FLON A","5050961","2019-01-01 09:00","2019","01","01","09:00","-27.2","","-30.4","","75","","","","17","","9","","24.1","","97.97","","","","-35","","Mostly Cloudy"
"-101.68","54.68","FLIN FLON A","5050961","2019-01-01 10:00","2019","01","01","10:00","-26.4","","-29.5","","75","","","","16","","15","","24.1","","97.73","","","","-37","","NA"
"-101.68","54.68","FLIN FLON A","5050961","2019-01-01 11:00","2019","01","01","11:00","-26.2","","-29.4","","75","","","","17","","14","","24.1","","97.54","","","","-36","","NA"
"-101.68","54.68","FLIN FLON A","5050961","2019-01-01 12:00","2019","01","01","12:00","-24.5","","-27.5","","77","","","","16","","14","","24.1","","97.34","","","","-34","","Cloudy"
"-101.68","54.68","FLIN FLON A","5050961","2019-01-01 13:00","2019","01","01","13:00","-22.1","","-25.0","","78","","","","16","","10","","24.1","","97.11","","","","-30","","NA"
"-101.68","54.68","FLIN FLON A","5050961","2019-01-01 14:00","2019","01","01","14:00","-20.4","","-23.1","","79","","","","15","","16","","24.1","","96.83","","","","-30","","NA"
"-101.68","54.68","FLIN FLON A","5050961","2019-01-01 15:00","2019","01","01","15:00","-18.1","","-20.7","","80","","","","17","","13","","2.4","","96.69","","","","-26","","Snow"
"-101.68","54.68","FLIN FLON A","5050961","2019-01-01 16:00","2019","01","01","16:00","-16.8","","-19.4","","81","","","","16","","14","","4.8","","96.57","","","","-25","","Snow"
"-101.68","54.68","FLIN FLON A","5050961","2019-01-01 17:00","2019","01","01","17:00","-16.1","","-18.7","","81","","","","16","","16","","12.9","","96.48","","","","-25","","Snow"
"-101.68","54.68","FLIN FLON A","5050961","2019-01-01 18:00","2019","01","01","18:00","-15.7","","-18.2","","82","","","","17","","14","","6.4","","96.44","","","","-23","","Snow"
"-101.68","54.68","FLIN FLON A","5050961","2019-01-01 19:00","2019","01","01","19:00"
"-101.68","54.68","FLIN FLON A","5050961","2019-01-01 20:00","2019","01","01","20:00"
"-101.68","54.68","FLIN FLON A","5050961","2019-01-01 21:00","2019","01","01","21:00"
"-101.68","54.68","FLIN FLON A","5050961","2019-01-01 22:00","2019","01","01","22:00"
"-101.68","54.68","FLIN FLON A","5050961","2019-01-01 23:00","2019","01","01","23:00"
"-101.68","54.68","FLIN FLON A","5050961","2019-01-02 00:00","2019","01","02","00:00"
"-101.68","54.68","FLIN FLON A","5050961","2019-01-02 01:00","2019","01","02","01:00"
"-101.68","54.68","FLIN FLON A","5050961","2019-01-02 02:00","2019","01","02","02:00"
"-101.68","54.68","FLIN FLON A","5050961","2019-01-02 03:00","2019","01","02","03:00"
"-101.68","54.68","FLIN FLON A","5050961","2019-01-02 04:00","2019","01","02","04:00"
"-101.68","54.68","FLIN FLON A","5050961","2019-01-02 05:00","2019","01","02","05:00"
"-101.68","54.68","FLIN FLON A","5050961","2019-01-02 06:00","2019","01","02","06:00","-13.5","","-15.5","","85","","","","27","","5","","12.9","","96.42","","","","-17","","Snow"
"-101.68","54.68","FLIN FLON A","5050961","2019-01-02 07:00","2019","01","02","07:00","-13.5","","-15.5","","86","","","","24","","4","","19.3","","96.41","","","","-16","","Snow"
"-101.68","54.68","FLIN FLON A","5050961","2019-01-02 08:00","2019","01","02","08:00","-13.0","","-14.8","","86","","","","20","","6","","19.3","","96.43","","","","-17","","Snow"
"-101.68","54.68","FLIN FLON A","5050961","2019-01-02 09:00","2019","01","02","09:00","-12.7","","-14.5","","86","","","","18","","9","","24.1","","96.43","","","","-18","","Cloudy"
"-101.68","54.68","FLIN FLON A","5050961","2019-01-02 10:00","2019","01","02","10:00","-12.2","","-14.0","","86","","","","36","","3","","12.9","","96.44","","","","-14","","Snow"
"-101.68","54.68","FLIN FLON A","5050961","2019-01-02 11:00","2019","01","02","11:00","-12.0","","-13.8","","86","","","","36","","2","","19.3","","96.43","","","","-13","","Snow"
"-101.68","54.68","FLIN FLON A","5050961","2019-01-02 12:00","2019","01","02","12:00","-11.1","","-12.9","","87","","","","18","","9","","24.1","","96.28","","","","-16","","Snow"
"-101.68","54.68","FLIN FLON A","5050961","2019-01-02 13:00","2019","01","02","13:00","-10.2","","-12.0","","87","","","","17","","7","","12.9","","96.18","","","","-14","","Snow"
"-101.68","54.68","FLIN FLON A","5050961","2019-01-02 14:00","2019","01","02","14:00","-9.6","","-11.2","","88","","","","14","","7","","24.1","","96.14","","","","-14","","NA"
"-101.68","54.68","FLIN FLON A","5050961","2019-01-02 15:00","2019","01","02","15:00","-8.7","","-9.9","","91","","","","18","","13","","19.3","","96.05","","","","-15","","Cloudy"
"-101.68","54.68","FLIN FLON A","5050961","2019-01-02 16:00","2019","01","02","16:00","-7.6","","-8.8","","92","","","","18","","13","","19.3","","95.96","","","","-13","","Snow"
"-101.68","54.68","FLIN FLON A","5050961","2019-01-02 17:00","2019","01","02","17:00","-7.4","","-8.6","","91","","","","17","","14","","4.0","","95.79","","","","-13","","Snow"
"-101.68","54.68","FLIN FLON A","5050961","2019-01-02 18:00","2019","01","02","18:00","-7.1","","-8.4","","90","","","","15","","10","","4.8","","95.71","","","","-12","","Snow"
"-101.68","54.68","FLIN FLON A","5050961","2019-01-02 19:00","2019","01","02","19:00"
"-101.68","54.68","FLIN FLON A","5050961","2019-01-02 20:00","2019","01","02","20:00"
"-101.68","54.68","FLIN FLON A","5050961","2019-01-02 21:00","2019","01","02","21:00"
"-101.68","54.68","FLIN FLON A","5050961","2019-01-02 22:00","2019","01","02","22:00"
"-101.68","54.68","FLIN FLON A","5050961","2019-01-02 23:00","2019","01","02","23:00"
"-101.68","54.68","FLIN FLON A","5050961","2019-01-03 00:00","2019","01","03","00:00"
"-101.68","54.68","FLIN FLON A","5050961","2019-01-03 01:00","2019","01","03","01:00"
"-101.68","54.68","FLIN FLON A","5050961","2019-01-03 02:00","2019","01","03","02:00"
"-101.68","54.68","FLIN FLON A","5050961","2019-01-03 03:00","2019","01","03","03:00"
"-101.68","54.68","FLIN FLON A","5050961","2019-01-03 04:00","2019","01","03","04:00"
"-101.68","54.68","FLIN FLON A","5050961","2019-01-03 05:00","2019","01","03","05:00"
"-101.68","54.68","FLIN FLON A","5050961","2019-01-03 06:00","2019","01","03","06:00","-2.7","","-3.7","","93","","","","25","","10","","19.3","","95.60","","","","-7","","Mainly Clear"
"-101.68","54.68","FLIN FLON A","5050961","2019-01-03 07:00","2019","01","03","07:00","-2.5","","-3.3","","94","","","","24","","15","","19.3","","95.58","","","","-7","","NA"
"-101.68","54.68","FLIN FLON A","5050961","2019-01-03 08:00","2019","01","03","08:00","-2.2","","-3.1","","93","","","","24","","12","","24.1","","95.59","","","","-6","","NA"
"-101.68","54.68","FLIN FLON A","5050961","2019-01-03 09:00","2019","01","03","09:00","-2.7","","-3.6","","93","","","","20","","7","","24.1","","95.56","","","","-6","","Mostly Cloudy"
"-101.68","54.68","FLIN FLON A","5050961","2019-01-03 10:00","2019","01","03","10:00","-2.6","","-3.4","","95","","","","24","","12","","24.1","","95.59","","","","-7","","NA"
"-101.68","54.68","FLIN FLON A","5050961","2019-01-03 11:00","2019","01","03","11:00","-1.4","","-2.5","","92","","","","26","","9","","24.1","","95.63","","","","-5","","NA"
"-101.68","54.68","FLIN FLON A","5050961","2019-01-03 12:00","2019","01","03","12:00","-0.6","","-2.6","","86","","","","25","","6","","24.1","","95.60","","","","-3","","Mainly Clear"
"-101.68","54.68","FLIN FLON A","5050961","2019-01-03 13:00","2019","01","03","13:00","0.9","","-1.7","","83","","","","25","","10","","24.1","","95.59","","","","","","NA"
"-101.68","54.68","FLIN FLON A","5050961","2019-01-03 14:00","2019","01","03","14:00","0.9","","-1.6","","83","","","","26","","12","","24.1","","95.63","","","","","","NA"
"-101.68","54.68","FLIN FLON A","5050961","2019-01-03 15:00","2019","01","03","15:00","0.5","","-1.6","","85","","","","24","","12","","24.1","","95.65","","","","","","Mainly Clear"
"-101.68","54.68","FLIN FLON A","5050961","2019-01-03 16:00","2019","01","03","16:00","0.0","","-1.7","","89","","","","23","","13","","24.1","","95.72","","","","-4","","NA"
"-101.68","54.68","FLIN FLON A","5050961","2019-01-03 17:00","2019","01","03","17:00","-0.6","","-2.3","","89","","","","24","","15","","24.1","","95.81","","","","-5","","NA"
"-101.68","54.68","FLIN FLON A","5050961","2019-01-03 18:00","2019","01","03","18:00","-1.6","","-3.2","","89","","","","23","","12","","24.1","","95.84","","","","-6","","Mainly Clear"
"-101.68","54.68","FLIN FLON A","5050961","2019-01-03 19:00","2019","01","03","19:00"
"-101.68","54.68","FLIN FLON A","5050961","2019-01-03 20:00","2019","01","03","20:00"
"-101.68","54.68","FLIN FLON A","5050961","2019-01-03 21:00","2019","01","03","21:00"
"-101.68","54.68","FLIN FLON A","5050961","2019-01-03 22:00","2019","01","03","22:00"
"-101.68","54.68","FLIN FLON A","5050961","2019-01-03 23:00","2019","01","03","23:00"
"-101.68","54.68","FLIN FLON A","5050961","2019-01-04 00:00","2019","01","04","00:00"
"-101.68","54.68","FLIN FLON A","5050961","2019-01-04 01:00","2019","01","04","01:00"
"-101.68","54.68","FLIN FLON A","5050961","2019-01-04 02:00","2019","01","04","02:00"
"-101.68","54.68","FLIN FLON A","5050961","2019-01-04 03:00","2019","01","04","03:00"
"-101.68","54.68","FLIN FLON A","5050961","2019-01-04 04:00","2019","01","04","04:00"
"-101.68","54.68","FLIN FLON A","5050961","2019-01-04 05:00","2019","01","04","05:00"
"-101.68","54.68","FLIN FLON A","5050961","2019-01-04 06:00","2019","01","04","06:00","-6.3","","-9.0","","81","","","","27","","18","","24.1","","96.26","","","","-13","","Clear"
"-101.68","54.68","FLIN FLON A","5050961","2019-01-04 07:00","2019","01","04","07:00","-7.0","","-9.7","","81","","","","27","","13","","24.1","","96.33","","","","-13","","NA"
"-101.68","54.68","FLIN FLON A","5050961","2019-01-04 08:00","2019","01","04","08:00","-7.6","","-10.1","","82","","","","27","","16","","24.1","","96.37","","","","-14","","NA"
"-101.68","54.68","FLIN FLON A","5050961","2019-01-04 09:00","2019","01","04","09:00","-7.6","","-10.2","","82","","","","29","","7","","24.1","","96.44","","","","-11","","Mostly Cloudy"
"-101.68","54.68","FLIN FLON A","5050961","2019-01-04 10:00","2019","01","04","10:00","-7.6","","-10.2","","81","","","","28","","8","","24.1","","96.48","","","","-12","","NA"
"-101.68","54.68","FLIN FLON A","5050961","2019-01-04 11:00","2019","01","04","11:00","-6.5","","-9.7","","78","","","","30","","9","","24.1","","96.51","","","","-11","","NA"
"-101.68","54.68","FLIN FLON A","5050961","2019-01-04 12:00","2019","01","04","12:00","-5.8","","-9.1","","77","","","","30","","11","","24.1","","96.53","","","","-11","","Mostly Cloudy"
"-101.68","54.68","FLIN FLON A","5050961","2019-01-04 13:00","2019","01","04","13:00","-5.7","","-9.1","","77","","","","29","","9","","24.1","","96.56","","","","-10","","NA"
"-101.68","54.68","FLIN FLON A","5050961","2019-01-04 14:00","2019","01","04","14:00","-5.7","","-9.0","","78","","","","31","","10","","24.1","","96.53","","","","-10","","NA"
"-101.68","54.68","FLIN FLON A","5050961","2019-01-04 15:00","2019","01","04","15:00","-5.8","","-9.2","","77","","","","28","","5","","24.1","","96.58","","","","-8","","Cloudy"
"-101.68","54.68","FLIN FLON A","5050961","2019-01-04 16:00","2019","01","04","16:00","-6.1","","-9.3","","78","","","","30","","7","","24.1","","96.65","","","","-9","","NA"
"-101.68","54.68","FLIN FLON A","5050961","2019-01-04 17:00","2019","01","04","17:00","-6.7","","-9.5","","80","","","","32","","6","","24.1","","96.67","","","","-10","","NA"
"-101.68","54.68","FLIN FLON A","5050961","2019-01-04 18:00","2019","01","04","18:00","-7.1","","-9.9","","80","","","","33","","11","","24.1","","96.70","","","","-12","","Cloudy"
"-101.68","54.68","FLIN FLON A","5050961","2019-01-04 19:00","2019","01","04","19:00"
"-101.68","54.68","FLIN FLON A","5050961","2019-01-04 20:00","2019","01","04","20:00"
"-101.68","54.68","FLIN FLON A","5050961","2019-01-04 21:00","2019","01","04","21:00"
"-101.68","54.68","FLIN FLON A","5050961","2019-01-04 22:00","2019","01","04","22:00"
"-101.68","54.68","FLIN FLON A","5050961","2019-01-04 23:00","2019","01","04","23:00"
"-101.68","54.68","FLIN FLON A","5050961","2019-01-05 00:00","2019","01","05","00:00"
"-101.68","54.68","FLIN FLON A","5050961","2019-01-05 01:00","2019","01","05","01:00"
"-101.68","54.68","FLIN FLON A","5050961","2019-01-05 02:00","2019","01","05","02:00"
"-101.68","54.68","FLIN FLON A","5050961","2019-01-05 03:00","2019","01","05","03:00"
"-101.68","54.68","FLIN FLON A","5050961","2019-01-05 04:00","2019","01","05","04:00"
"-101.68","54.68","FLIN FLON A","5050961","2019-01-05 05:00","2019","01","05","05:00"
"-101.68","54.68","FLIN FLON A","5050961","2019-01-05 06:00","2019","01","05","06:00","-14.9","","-18.7","","73","","","","33","","21","","4.8","","97.76","","","","-24","","Snow"
"-101.68","54.68","FLIN FLON A","5050961","2019-01-05 07:00","2019","01","05","07:00","-16.9","","-21.1","","70","","","","33","","18","","9.7","","97.89","","","","-26","","Snow"
"-101.68","54.68","FLIN FLON A","5050961","2019-01-05 08:00","2019","01","05","08:00","-19.0","","-23.0","","72","","","","33","","10","","24.1","","98.01","","","","-26","","Snow"
"-101.68","54.68","FLIN FLON A","5050961","2019-01-05 09:00","2019","01","05","09:00","-20.0","","-23.3","","75","","","","31","","9","","24.1","","98.10","","","","-27","","Mainly Clear"
"-101.68","54.68","FLIN FLON A","5050961","2019-01-05 10:00","2019","01","05","10:00","-20.1","","-23.6","","74","","","","28","","8","","24.1","","98.21","","","","-26","","NA"
"-101.68","54.68","FLIN FLON A","5050961","2019-01-05 11:00","2019","01","05","11:00","-19.7","","-23.8","","71","","","","32","","12","","24.1","","98.33","","","","-28","","NA"
"-101.68","54.68","FLIN FLON A","5050961","2019-01-05 12:00","2019","01","05","12:00","-19.0","","-23.5","","68","","","","32","","8","","24.1","","98.38","","","","-25","","Clear"
"-101.68","54.68","FLIN FLON A","5050961","2019-01-05 13:00","2019","01","05","13:00","-18.5","","-23.2","","67","","","","31","","12","","24.1","","98.39","","","","-26","","NA"
"-101.68","54.68","FLIN FLON A","5050961","2019-01-05 14:00","2019","01","05","14:00","-18.0","","-22.9","","66","","","","29","","8","","24.1","","98.41","","","","-24","","NA"
"-101.68","54.68","FLIN FLON A","5050961","2019-01-05 15:00","2019","01","05","15:00","-17.7","","-22.9","","65","","","","28","","7","","24.1","","98.47","","","","-23","","Clear"
"-101.68","54.68","FLIN FLON A","5050961","2019-01-05 16:00","2019","01","05","16:00","-17.8","","-22.5","","67","","","","33","","4","","24.1","","98.51","","","","-21","","NA"
"-101.68","54.68","FLIN FLON A","5050961","2019-01-05 17:00","2019","01","05","17:00","-20.5","","-23.1","","80","","","","0","","1","","24.1","","98.53","","","","-21","","NA"
"-101.68","54.68","FLIN FLON A","5050961","2019-01-05 18:00","2019","01","05","18:00","-22.8","","-25.0","","82","","","","36","","1","","24.1","","98.52","","","","-24","","Clear"
"-101.68","54.68","FLIN FLON A","5050961","2019-01-05 19:00","2019","01","05","19:00"
"-101.68","54.68","FLIN FLON A","5050961","2019-01-05 20:00","2019","01","05","20:00"
"-101.68","54.68","FLIN FLON A","5050961","2019-01-05 21:00","2019","01","05","21:00"
"-101.68","54.68","FLIN FLON A","5050961","2019-01-05 22:00","2019","01","05","22:00"
"-101.68","54.68","FLIN FLON A","5050961","2019-01-05 23:00","2019","01","05","23:00"
"-101.68","54.68","FLIN FLON A","5050961","2019-01-06 00:00","2019","01","06","00:00"
"-101.68","54.68","FLIN FLON A","5050961","2019-01-06 01:00","2019","01","06","01:00"
"-101.68","54.68","FLIN FLON A","5050961","2019-01-06 02:00","2019","01","06","02:00"
"-101.68","54.68","FLIN FLON A","5050961","2019-01-06 03:00","2019","01","06","03:00"
"-101.68","54.68","FLIN FLON A","5050961","2019-01-06 04:00","2019","01","06","04:00"
"-101.68","54.68","FLIN FLON A","5050961","2019-01-06 05:00","2019","01","06","05:00"
"-101.68","54.68","FLIN FLON A","5050961","2019-01-06 06:00","2019","01","06","06:00","-20.9","","-23.2","","82","","","","8","","8","","4.8","","97.89","","","","-27","","Snow"
"-101.68","54.68","FLIN FLON A","5050961","2019-01-06 07:00","2019","01","06","07:00","-18.9","","-20.9","","84","","","","10","","8","","9.7","","97.74","","","","-25","","Snow"
"-101.68","54.68","FLIN FLON A","5050961","2019-01-06 08:00","2019","01","06","08:00","-16.8","","-18.8","","85","","","","13","","16","","9.7","","97.66","","","","-25","","Snow"
"-101.68","54.68","FLIN FLON A","5050961","2019-01-06 09:00","2019","01","06","09:00","-15.7","","-17.7","","85","","","","13","","13","","4.0","","97.58","","","","-23","","Snow,Blowing Snow"
"-101.68","54.68","FLIN FLON A","5050961","2019-01-06 10:00","2019","01","06","10:00","-14.2","","-16.2","","85","","","","15","","18","","2.8","","97.46","","","","-23","","Snow,Blowing Snow"
"-101.68","54.68","FLIN FLON A","5050961","2019-01-06 11:00","2019","01","06","11:00","-13.5","","-15.4","","86","","","","12","","12","","4.8","","97.32","","","","-20","","Snow,Blowing Snow"
"-101.68","54.68","FLIN FLON A","5050961","2019-01-06 12:00","2019","01","06","12:00","-12.4","","-14.2","","86","","","","13","","12","","9.7","","97.20","","","","-19","","Snow,Blowing Snow"
"-101.68","54.68","FLIN FLON A","5050961","2019-01-06 13:00","2019","01","06","13:00","-11.5","","-13.3","","87","","","","14","","17","","9.7","","97.06","","","","-19","","Snow,Blowing Snow"
"-101.68","54.68","FLIN FLON A","5050961","2019-01-06 14:00","2019","01","06","14:00","-11.1","","-12.9","","87","","","","14","","20","","9.7","","96.93","","","","-19","","Snow,Blowing Snow"
"-101.68","54.68","FLIN FLON A","5050961","2019-01-06 15:00","2019","01","06","15:00","-11.4","","-13.2","","87","","","","13","","19","","9.7","","96.84","","","","-19","","Snow,Blowing Snow"
"-101.68","54.68","FLIN FLON A","5050961","2019-01-06 16:00","2019","01","06","16:00","-11.3","","-13.2","","86","","","","13","","17","","12.9","","96.76","","","","-19","","Snow,Blowing Snow"
"-101.68","54.68","FLIN FLON A","5050961","2019-01-06 17:00","2019","01","06","17:00","-11.2","","-13.2","","85","","","","12","","16","","12.9","","96.66","","","","-18","","Snow,Blowing Snow"
"-101.68","54.68","FLIN FLON A","5050961","2019-01-06 18:00","2019","01","06","18:00","-11.0","","-13.5","","82","","","","12","","14","","9.7","","96.55","","","","-18","","Snow,Blowing Snow"
"-101.68","54.68","FLIN FLON A","5050961","2019-01-06 19:00","2019","01","06","19:00"
"-101.68","54.68","FLIN FLON A","5050961","2019-01-06 20:00","2019","01","06","20:00"
"-101.68","54.68","FLIN FLON A","5050961","2019-01-06 21:00","2019","01","06","21:00"
"-101.68","54.68","FLIN FLON A","5050961","2019-01-06 22:00","2019","01","06","22:00"
"-101.68","54.68","FLIN FLON A","5050961","2019-01-06 23:00","2019","01","06","23:00"
"-101.68","54.68","FLIN FLON A","5050961","2019-01-07 00:00","2019","01","07","00:00"
"-101.68","54.68","FLIN FLON A","5050961","2019-01-07 01:00","2019","01","07","01:00"
"-101.68","54.68","FLIN FLON A","5050961","2019-01-07 02:00","2019","01","07","02:00"
"-101.68","54.68","FLIN FLON A","5050961","2019-01-07 03:00","2019","01","07","03:00"
"-101.68","54.68","FLIN FLON A","5050961","2019-01-07 04:00","2019","01","07","04:00"
"-101.68","54.68","FLIN FLON A","5050961","2019-01-07 05:00","2019","01","07","05:00"
"-101.68","54.68","FLIN FLON A","5050961","2019-01-07 06:00","2019","01","07","06:00","-7.7","","-8.7","","92","","","","5","","4","","4.0","","95.42","","","","-10","","Snow"
"-101.68","54.68","FLIN FLON A","5050961","2019-01-07 07:00","2019","01","07","07:00","-7.5","","-8.6","","92","","","","5","","9","","2.4","","95.36","","","","-12","","Snow"
"-101.68","54.68","FLIN FLON A","5050961","2019-01-07 08:00","2019","01","07","08:00","-7.7","","-8.9","","92","","","","4","","8","","2.4","","95.34","","","","-12","","Snow"
"-101.68","54.68","FLIN FLON A","5050961","2019-01-07 09:00","2019","01","07","09:00","-7.8","","-9.0","","91","","","","1","","9","","2.4","","95.36","","","","-12","","Freezing Drizzle,Snow Grains"
"-101.68","54.68","FLIN FLON A","5050961","2019-01-07 10:00","2019","01","07","10:00","-7.9","","-9.1","","91","","","","1","","8","","16.1","","95.35","","","","-12","","Snow"
"-101.68","54.68","FLIN FLON A","5050961","2019-01-07 11:00","2019","01","07","11:00","-7.8","","-9.0","","91","","","","36","","8","","16.1","","95.37","","","","-12","","Snow"
"-101.68","54.68","FLIN FLON A","5050961","2019-01-07 12:00","2019","01","07","12:00","-7.5","","-9.0","","89","","","","32","","10","","19.3","","95.39","","","","-12","","Snow"
"-101.68","54.68","FLIN FLON A","5050961","2019-01-07 13:00","2019","01","07","13:00","-7.4","","-9.3","","86","","","","33","","11","","19.3","","95.41","","","","-12","","Snow"
"-101.68","54.68","FLIN FLON A","5050961","2019-01-07 14:00","2019","01","07","14:00","-7.7","","-9.7","","86","","","","32","","14","","12.9","","95.46","","","","-14","","Snow"
"-101.68","54.68","FLIN FLON A","5050961","2019-01-07 15:00","2019","01","07","15:00","-8.1","","-10.4","","84","","","","32","","19","","4.8","","95.55","","","","-15","","Snow"
"-101.68","54.68","FLIN FLON A","5050961","2019-01-07 16:00","2019","01","07","16:00","-8.6","","-11.0","","83","","","","31","","19","","4.8","","95.67","","","","-16","","Snow"
"-101.68","54.68","FLIN FLON A","5050961","2019-01-07 17:00","2019","01","07","17:00","-9.3","","-11.9","","82","","","","30","","19","","4.8","","95.80","","","","-17","","Snow"
"-101.68","54.68","FLIN FLON A","5050961","2019-01-07 18:00","2019","01","07","18:00","-9.9","","-12.2","","83","","","","30","","22","","2.0","","95.93","","","","-18","","Snow,Blowing Snow"
"-101.68","54.68","FLIN FLON A","5050961","2019-01-07 19:00","2019","01","07","19:00"
"-101.68","54.68","FLIN FLON A","5050961","2019-01-07 20:00","2019","01","07","20:00"
"-101.68","54.68","FLIN FLON A","5050961","2019-01-07 21:00","2019","01","07","21:00"
"-101.68","54.68","FLIN FLON A","5050961","2019-01-07 22:00","2019","01","07","22:00"
"-101.68","54.68","FLIN FLON A","5050961","2019-01-07 23:00","2019","01","07","23:00"
"-101.68","54.68","FLIN FLON A","5050961","2019-01-08 00:00","2019","01","08","00:00"
"-101.68","54.68","FLIN FLON A","5050961","2019-01-08 01:00","2019","01","08","01:00"
"-101.68","54.68","FLIN FLON A","5050961","2019-01-08 02:00","2019","01","08","02:00"
"-101.68","54.68","FLIN FLON A","5050961","2019-01-08 03:00","2019","01","08","03:00"
"-101.68","54.68","FLIN FLON A","5050961","2019-01-08 04:00","2019","01","08","04:00"
"-101.68","54.68","FLIN FLON A","5050961","2019-01-08 05:00","2019","01","08","05:00"
"-101.68","54.68","FLIN FLON A","5050961","2019-01-08 06:00","2019","01","08","06:00","-14.7","","-18.5","","73","","","","32","","23","","4.8","","97.35","","","","-24","","Snow,Blowing Snow"
"-101.68","54.68","FLIN FLON A","5050961","2019-01-08 07:00","2019","01","08","07:00","-14.7","","-18.5","","73","","","","30","","20","","4.8","","97.49","","","","-24","","Snow,Blowing Snow"
"-101.68","54.68","FLIN FLON A","5050961","2019-01-08 08:00","2019","01","08","08:00","-14.9","","-18.7","","73","","","","31","","22","","4.8","","97.62","","","","-24","","Snow,Blowing Snow"
"-101.68","54.68","FLIN FLON A","5050961","2019-01-08 09:00","2019","01","08","09:00","-15.1","","-18.5","","75","","","","32","","19","","4.0","","97.75","","","","-24","","Snow,Blowing Snow"
"-101.68","54.68","FLIN FLON A","5050961","2019-01-08 10:00","2019","01","08","10:00","-14.9","","-18.2","","77","","","","32","","17","","2.4","","97.89","","","","-23","","Snow,Blowing Snow"
"-101.68","54.68","FLIN FLON A","5050961","2019-01-08 11:00","2019","01","08","11:00","-14.9","","-18.1","","76","","","","32","","19","","1.6","","98.00","","","","-24","","Snow,Blowing Snow"
"-101.68","54.68","FLIN FLON A","5050961","2019-01-08 12:00","2019","01","08","12:00","-15.1","","-18.6","","75","","","","34","","26","","2.4","","98.09","","","","-25","","Snow,Blowing Snow"
"-101.68","54.68","FLIN FLON A","5050961","2019-01-08 13:00","2019","01","08","13:00","-15.3","","-19.1","","73","","","","32","","29","","4.0","","98.23","","","","-26","","Snow,Blowing Snow"
"-101.68","54.68","FLIN FLON A","5050961","2019-01-08 14:00","2019","01","08","14:00","-15.8","","-19.6","","73","","","","34","","29","","2.8","","98.38","","","","-27","","Snow,Blowing Snow"
"-101.68","54.68","FLIN FLON A","5050961","2019-01-08 15:00","2019","01","08","15:00","-16.1","","-19.9","","73","","","","33","","25","","3.2","","98.55","","","","-27","","Snow,Blowing Snow"
"-101.68","54.68","FLIN FLON A","5050961","2019-01-08 16:00","2019","01","08","16:00","-16.5","","-20.4","","72","","","","33","","21","","2.4","","98.73","","","","-26","","Snow,Blowing Snow"
"-101.68","54.68","FLIN FLON A","5050961","2019-01-08 17:00","2019","01","08","17:00","-16.8","","-20.4","","74","","","","32","","19","","4.0","","98.85","","","","-26","","Snow,Blowing Snow"
"-101.68","54.68","FLIN FLON A","5050961","2019-01-08 18:00","2019","01","08","18:00","-17.1","","-20.6","","75","","","","32","","17","","19.3","","98.97","","","","-26","","Snow,Blowing Snow"
"-101.68","54.68","FLIN FLON A","5050961","2019-01-08 19:00","2019","01","08","19:00"
"-101.68","54.68","FLIN FLON A","5050961","2019-01-08 20:00","2019","01","08","20:00"
"-101.68","54.68","FLIN FLON A","5050961","2019-01-08 21:00","2019","01","08","21:00"
"-101.68","54.68","FLIN FLON A","5050961","2019-01-08 22:00","2019","01","08","22:00"
"-101.68","54.68","FLIN FLON A","5050961","2019-01-08 23:00","2019","01","08","23:00"
"-101.68","54.68","FLIN FLON A","5050961","2019-01-09 00:00","2019","01","09","00:00"
"-101.68","54.68","FLIN FLON A","5050961","2019-01-09 01:00","2019","01","09","01:00"
"-101.68","54.68","FLIN FLON A","5050961","2019-01-09 02:00","2019","01","09","02:00"
"-101.68","54.68","FLIN FLON A","5050961","2019-01-09 03:00","2019","01","09","03:00"
"-101.68","54.68","FLIN FLON A","5050961","2019-01-09 04:00","2019","01","09","04:00"
"-101.68","54.68","FLIN FLON A","5050961","2019-01-09 05:00","2019","01","09","05:00"
"-101.68","54.68","FLIN FLON A","5050961","2019-01-09 06:00","2019","01","09","06:00","-27.6","","-30.2","","79","","","","6","","3","","24.1","","99.76","","","","-31","","Clear"
"-101.68","54.68","FLIN FLON A","5050961","2019-01-09 07:00","2019","01","09","07:00","-28.5","","-31.4","","76","","","","36","","3","","24.1","","99.74","","","","-32","","NA"
"-101.68","54.68","FLIN FLON A","5050961","2019-01-09 08:00","2019","01","09","08:00","-28.7","","-31.7","","76","","","","19","","5","","24.1","","99.77","","","","-34","","NA"
"-101.68","54.68","FLIN FLON A","5050961","2019-01-09 09:00","2019","01","09","09:00","-30.6","","-33.8","","75","","","","36","","1","","24.1","","99.80","","","","-32","","Mainly Clear"
"-101.68","54.68","FLIN FLON A","5050961","2019-01-09 10:00","2019","01","09","10:00","-29.5","","-32.8","","74","","","","5","","4","","24.1","","99.81","","","","-34","","NA"
"-101.68","54.68","FLIN FLON A","5050961","2019-01-09 11:00","2019","01","09","11:00","-28.1","","-31.1","","76","","","","5","","3","","24.1","","99.82","","","","-31","","NA"
"-101.68","54.68","FLIN FLON A","5050961","2019-01-09 12:00","2019","01","09","12:00","-23.9","","-26.7","","78","","","","19","","5","","24.1","","99.77","","","","-29","","Mainly Clear"
"-101.68","54.68","FLIN FLON A","5050961","2019-01-09 13:00","2019","01","09","13:00","-22.0","","-24.9","","78","","","","16","","4","","24.1","","99.71","","","","-26","","NA"
"-101.68","54.68","FLIN FLON A","5050961","2019-01-09 14:00","2019","01","09","14:00","-21.8","","-25.0","","76","","","","18","","4","","24.1","","99.68","","","","-25","","NA"
"-101.68","54.68","FLIN FLON A","5050961","2019-01-09 15:00","2019","01","09","15:00","-20.5","","-24.7","","70","","","","16","","5","","24.1","","99.63","","","","-25","","Mostly Cloudy"
"-101.68","54.68","FLIN FLON A","5050961","2019-01-09 16:00","2019","01","09","16:00","-20.0","","-24.0","","71","","","","16","","4","","24.1","","99.62","","","","-23","","NA"
"-101.68","54.68","FLIN FLON A","5050961","2019-01-09 17:00","2019","01","09","17:00","-19.9","","-23.6","","73","","","","13","","4","","24.1","","99.61","","","","-23","","NA"
"-101.68","54.68","FLIN FLON A","5050961","2019-01-09 18:00","2019","01","09","18:00","-20.1","","-23.4","","75","","","","13","","8","","24.1","","99.53","","","","-26","","Cloudy"
"-101.68","54.68","FLIN FLON A","5050961","2019-01-09 19:00","2019","01","09","19:00"
"-101.68","54.68","FLIN FLON A","5050961","2019-01-09 20:00","2019","01","09","20:00"
"-101.68","54.68","FLIN FLON A","5050961","2019-01-09 21:00","2019","01","09","21:00"
"-101.68","54.68","FLIN FLON A","5050961","2019-01-09 22:00","2019","01","09","22:00"
"-101.68","54.68","FLIN FLON A","5050961","2019-01-09 23:00","2019","01","09","23:00"
"-101.68","54.68","FLIN FLON A","5050961","2019-01-10 00:00","2019","01","10","00:00"
"-101.68","54.68","FLIN FLON A","5050961","2019-01-10 01:00","2019","01","10","01:00"
"-101.68","54.68","FLIN FLON A","5050961","2019-01-10 02:00","2019","01","10","02:00"
"-101.68","54.68","FLIN FLON A","5050961","2019-01-10 03:00","2019","01","10","03:00"
"-101.68","54.68","FLIN FLON A","5050961","2019-01-10 04:00","2019","01","10","04:00"
"-101.68","54.68","FLIN FLON A","5050961","2019-01-10 05:00","2019","01","10","05:00"
"-101.68","54.68","FLIN FLON A","5050961","2019-01-10 06:00","2019","01","10","06:00","-17.8","","-20.7","","78","","","","9","","13","","16.1","","98.80","","","","-26","","Snow"
"-101.68","54.68","FLIN FLON A","5050961","2019-01-10 07:00","2019","01","10","07:00","-18.2","","-21.0","","79","","","","9","","10","","16.1","","98.77","","","","-25","","Snow"
"-101.68","54.68","FLIN FLON A","5050961","2019-01-10 08:00","2019","01","10","08:00","-18.4","","-21.2","","79","","","","9","","11","","24.1","","98.74","","","","-26","","Snow,Blowing Snow"
"-101.68","54.68","FLIN FLON A","5050961","2019-01-10 09:00","2019","01","10","09:00","-18.0","","-20.9","","78","","","","8","","8","","24.1","","98.74","","","","-24","","Snow"
"-101.68","54.68","FLIN FLON A","5050961","2019-01-10 10:00","2019","01","10","10:00","-17.3","","-20.3","","78","","","","9","","8","","24.1","","98.72","","","","-23","","Snow"
"-101.68","54.68","FLIN FLON A","5050961","2019-01-10 11:00","2019","01","10","11:00","-16.6","","-19.6","","78","","","","10","","11","","24.1","","98.67","","","","-24","","Snow"
"-101.68","54.68","FLIN FLON A","5050961","2019-01-10 12:00","2019","01","10","12:00","-16.0","","-19.1","","77","","","","9","","11","","24.1","","98.64","","","","-23","","Snow"
"-101.68","54.68","FLIN FLON A","5050961","2019-01-10 13:00","2019","01","10","13:00","-15.2","","-18.6","","76","","","","11","","10","","24.1","","98.60","","","","-21","","Snow"
"-101.68","54.68","FLIN FLON A","5050961","2019-01-10 14:00","2019","01","10","14:00","-15.0","","-18.4","","76","","","","10","","8","","24.1","","98.59","","","","-20","","Snow"
"-101.68","54.68","FLIN FLON A","5050961","2019-01-10 15:00","2019","01","10","15:00","-15.3","","-18.4","","78","","","","7","","7","","24.1","","98.61","","","","-20","","Snow"
"-101.68","54.68","FLIN FLON A","5050961","2019-01-10 16:00","2019","01","10","16:00","-15.6","","-18.6","","78","","","","5","","10","","24.1","","98.64","","","","-22","","Snow"
"-101.68","54.68","FLIN FLON A","5050961","2019-01-10 17:00","2019","01","10","17:00","-16.1","","-18.9","","79","","","","6","","9","","24.1","","98.70","","","","-22","","Snow"
"-101.68","54.68","FLIN FLON A","5050961","2019-01-10 18:00","2019","01","10","18:00","-16.3","","-19.1","","79","","","","6","","9","","24.1","","98.75","","","","-22","","Snow"
"-101.68","54.68","FLIN FLON A","5050961","2019-01-10 19:00","2019","01","10","19:00"
"-101.68","54.68","FLIN FLON A","5050961","2019-01-10 20:00","2019","01","10","20:00"
"-101.68","54.68","FLIN FLON A","5050961","2019-01-10 21:00","2019","01","10","21:00"
"-101.68","54.68","FLIN FLON A","5050961","2019-01-10 22:00","2019","01","10","22:00"
"-101.68","54.68","FLIN FLON A","5050961","2019-01-10 23:00","2019","01","10","23:00"
"-101.68","54.68","FLIN FLON A","5050961","2019-01-11 00:00","2019","01","11","00:00"
"-101.68","54.68","FLIN FLON A","5050961","2019-01-11 01:00","2019","01","11","01:00"
"-101.68","54.68","FLIN FLON A","5050961","2019-01-11 02:00","2019","01","11","02:00"
"-101.68","54.68","FLIN FLON A","5050961","2019-01-11 03:00","2019","01","11","03:00"
"-101.68","54.68","FLIN FLON A","5050961","2019-01-11 04:00","2019","01","11","04:00"
"-101.68","54.68","FLIN FLON A","5050961","2019-01-11 05:00","2019","01","11","05:00"
"-101.68","54.68","FLIN FLON A","5050961","2019-01-11 06:00","2019","01","11","06:00","-18.4","","-20.8","","82","","","","36","","7","","24.1","","99.28","","","","-24","","Snow"
"-101.68","54.68","FLIN FLON A","5050961","2019-01-11 07:00","2019","01","11","07:00","-18.2","","-20.4","","83","","","","4","","7","","24.1","","99.27","","","","-24","","Snow"
"-101.68","54.68","FLIN FLON A","5050961","2019-01-11 08:00","2019","01","11","08:00","-18.0","","-20.5","","81","","","","5","","9","","19.3","","99.27","","","","-24","","Snow"
"-101.68","54.68","FLIN FLON A","5050961","2019-01-11 09:00","2019","01","11","09:00","-17.9","","-20.6","","80","","","","6","","4","","24.1","","99.33","","","","-21","","Snow"
"-101.68","54.68","FLIN FLON A","5050961","2019-01-11 10:00","2019","01","11","10:00","-17.6","","-19.8","","83","","","","7","","5","","24.1","","99.39","","","","-22","","Snow"
"-101.68","54.68","FLIN FLON A","5050961","2019-01-11 11:00","2019","01","11","11:00","-17.2","","-19.5","","83","","","","4","","6","","16.1","","99.45","","","","-22","","Snow"
"-101.68","54.68","FLIN FLON A","5050961","2019-01-11 12:00","2019","01","11","12:00","-16.4","","-19.5","","77","","","","36","","1","","19.3","","99.45","","","","-17","","Snow"
"-101.68","54.68","FLIN FLON A","5050961","2019-01-11 13:00","2019","01","11","13:00","-16.0","","-19.3","","76","","","","9","","3","","19.3","","99.46","","","","-18","","Snow"
"-101.68","54.68","FLIN FLON A","5050961","2019-01-11 14:00","2019","01","11","14:00","-15.8","","-19.0","","77","","","","4","","4","","19.3","","99.46","","","","-19","","Snow"
"-101.68","54.68","FLIN FLON A","5050961","2019-01-11 15:00","2019","01","11","15:00","-15.5","","-18.3","","79","","","","5","","8","","19.3","","99.42","","","","-21","","Snow"
"-101.68","54.68","FLIN FLON A","5050961","2019-01-11 16:00","2019","01","11","16:00","-15.4","","-18.0","","80","","","","14","","8","","19.3","","99.41","","","","-21","","Snow"
"-101.68","54.68","FLIN FLON A","5050961","2019-01-11 17:00","2019","01","11","17:00","-16.1","","-18.4","","83","","","","13","","9","","19.3","","99.44","","","","-22","","Snow"
"-101.68","54.68","FLIN FLON A","5050961","2019-01-11 18:00","2019","01","11","18:00","-16.5","","-18.5","","85","","","","15","","10","","24.1","","99.44","","","","-23","","Snow"
"-101.68","54.68","FLIN FLON A","5050961","2019-01-11 19:00","2019","01","11","19:00"
"-101.68","54.68","FLIN FLON A","5050961","2019-01-11 20:00","2019","01","11","20:00"
"-101.68","54.68","FLIN FLON A","5050961","2019-01-11 21:00","2019","01","11","21:00"
"-101.68","54.68","FLIN FLON A","5050961","2019-01-11 22:00","2019","01","11","22:00"
"-101.68","54.68","FLIN FLON A","5050961","2019-01-11 23:00","2019","01","11","23:00"
"-101.68","54.68","FLIN FLON A","5050961","2019-01-12 00:00","2019","01","12","00:00"
"-101.68","54.68","FLIN FLON A","5050961","2019-01-12 01:00","2019","01","12","01:00"
"-101.68","54.68","FLIN FLON A","5050961","2019-01-12 02:00","2019","01","12","02:00"
"-101.68","54.68","FLIN FLON A","5050961","2019-01-12 03:00","2019","01","12","03:00"
"-101.68","54.68","FLIN FLON A","5050961","2019-01-12 04:00","2019","01","12","04:00"
"-101.68","54.68","FLIN FLON A","5050961","2019-01-12 05:00","2019","01","12","05:00"
"-101.68","54.68","FLIN FLON A","5050961","2019-01-12 06:00","2019","01","12","06:00","-17.1","","-19.3","","83","","","","17","","18","","19.3","","98.77","","","","-26","","Snow"
"-101.68","54.68","FLIN FLON A","5050961","2019-01-12 07:00","2019","01","12","07:00","-16.9","","-19.1","","83","","","","17","","14","","19.3","","98.68","","","","-25","","Snow,Blowing Snow"
"-101.68","54.68","FLIN FLON A","5050961","2019-01-12 08:00","2019","01","12","08:00","-17.3","","-19.5","","83","","","","17","","11","","24.1","","98.64","","","","-24","","Snow,Blowing Snow"
"-101.68","54.68","FLIN FLON A","5050961","2019-01-12 09:00","2019","01","12","09:00","-16.1","","-18.3","","84","","","","17","","16","","24.1","","98.59","","","","-25","","Mostly Cloudy"
"-101.68","54.68","FLIN FLON A","5050961","2019-01-12 10:00","2019","01","12","10:00","-15.4","","-17.5","","85","","","","18","","17","","24.1","","98.55","","","","-24","","NA"
"-101.68","54.68","FLIN FLON A","5050961","2019-01-12 11:00","2019","01","12","11:00","-14.6","","-16.6","","85","","","","18","","21","","24.1","","98.41","","","","-24","","NA"
"-101.68","54.68","FLIN FLON A","5050961","2019-01-12 12:00","2019","01","12","12:00","-13.9","","-15.9","","85","","","","18","","17","","24.1","","98.35","","","","-22","","Cloudy"
"-101.68","54.68","FLIN FLON A","5050961","2019-01-12 13:00","2019","01","12","13:00","-12.9","","-14.9","","85","","","","17","","20","","24.1","","98.25","","","","-22","","NA"
"-101.68","54.68","FLIN FLON A","5050961","2019-01-12 14:00","2019","01","12","14:00","-11.9","","-14.0","","85","","","","18","","19","","24.1","","98.14","","","","-20","","NA"
"-101.68","54.68","FLIN FLON A","5050961","2019-01-12 15:00","2019","01","12","15:00","-11.4","","-13.4","","85","","","","18","","18","","24.1","","98.08","","","","-19","","Mostly Cloudy"
"-101.68","54.68","FLIN FLON A","5050961","2019-01-12 16:00","2019","01","12","16:00","-10.3","","-12.4","","85","","","","18","","14","","24.1","","98.10","","","","-17","","NA"
"-101.68","54.68","FLIN FLON A","5050961","2019-01-12 17:00","2019","01","12","17:00","-10.0","","-12.1","","85","","","","19","","9","","24.1","","98.13","","","","-15","","NA"
"-101.68","54.68","FLIN FLON A","5050961","2019-01-12 18:00","2019","01","12","18:00","-9.9","","-11.7","","87","","","","19","","10","","24.1","","98.12","","","","-15","","Mostly Cloudy"
"-101.68","54.68","FLIN FLON A","5050961","2019-01-12 19:00","2019","01","12","19:00"
"-101.68","54.68","FLIN FLON A","5050961","2019-01-12 20:00","2019","01","12","20:00"
"-101.68","54.68","FLIN FLON A","5050961","2019-01-12 21:00","2019","01","12","21:00"
"-101.68","54.68","FLIN FLON A","5050961","2019-01-12 22:00","2019","01","12","22:00"
"-101.68","54.68","FLIN FLON A","5050961","2019-01-12 23:00","2019","01","12","23:00"
"-101.68","54.68","FLIN FLON A","5050961","2019-01-13 00:00","2019","01","13","00:00"
"-101.68","54.68","FLIN FLON A","5050961","2019-01-13 01:00","2019","01","13","01:00"
"-101.68","54.68","FLIN FLON A","5050961","2019-01-13 02:00","2019","01","13","02:00"
"-101.68","54.68","FLIN FLON A","5050961","2019-01-13 03:00","2019","01","13","03:00"
"-101.68","54.68","FLIN FLON A","5050961","2019-01-13 04:00","2019","01","13","04:00"
"-101.68","54.68","FLIN FLON A","5050961","2019-01-13 05:00","2019","01","13","05:00"
"-101.68","54.68","FLIN FLON A","5050961","2019-01-13 06:00","2019","01","13","06:00","-10.6","","-12.0","","89","","","","34","","12","","24.1","","98.34","","","","-17","","Cloudy"
"-101.68","54.68","FLIN FLON A","5050961","2019-01-13 07:00","2019","01","13","07:00","-10.6","","-12.1","","89","","","","36","","11","","16.1","","98.37","","","","-16","","NA"
"-101.68","54.68","FLIN FLON A","5050961","2019-01-13 08:00","2019","01","13","08:00","-10.1","","-11.5","","90","","","","36","","11","","19.3","","98.41","","","","-16","","NA"
"-101.68","54.68","FLIN FLON A","5050961","2019-01-13 09:00","2019","01","13","09:00","-9.7","","-11.1","","90","","","","35","","5","","19.3","","98.43","","","","-13","","Cloudy"
"-101.68","54.68","FLIN FLON A","5050961","2019-01-13 10:00","2019","01","13","10:00","-9.4","","-10.8","","90","","","","35","","8","","19.3","","98.51","","","","-14","","NA"
"-101.68","54.68","FLIN FLON A","5050961","2019-01-13 11:00","2019","01","13","11:00","-8.9","","-10.2","","90","","","","31","","7","","19.3","","98.69","","","","-13","","NA"
"-101.68","54.68","FLIN FLON A","5050961","2019-01-13 12:00","2019","01","13","12:00","-8.3","","-9.5","","91","","","","34","","16","","24.1","","98.72","","","","-15","","Cloudy"
"-101.68","54.68","FLIN FLON A","5050961","2019-01-13 13:00","2019","01","13","13:00","-7.6","","-8.8","","91","","","","36","","5","","24.1","","98.62","","","","-10","","NA"
"-101.68","54.68","FLIN FLON A","5050961","2019-01-13 14:00","2019","01","13","14:00","-7.1","","-8.4","","91","","","","31","","10","","24.1","","98.68","","","","-12","","NA"
"-101.68","54.68","FLIN FLON A","5050961","2019-01-13 15:00","2019","01","13","15:00","-6.7","","-8.7","","86","","","","34","","13","","24.1","","98.68","","","","-12","","Cloudy"
"-101.68","54.68","FLIN FLON A","5050961","2019-01-13 16:00","2019","01","13","16:00","-6.7","","-8.7","","86","","","","33","","10","","24.1","","98.75","","","","-11","","NA"
"-101.68","54.68","FLIN FLON A","5050961","2019-01-13 17:00","2019","01","13","17:00","-6.8","","-9.0","","85","","","","35","","15","","24.1","","98.83","","","","-13","","NA"
"-101.68","54.68","FLIN FLON A","5050961","2019-01-13 18:00","2019","01","13","18:00","-8.1","","-10.2","","85","","","","1","","16","","24.1","","98.90","","","","-15","","Cloudy"
"-101.68","54.68","FLIN FLON A","5050961","2019-01-13 19:00","2019","01","13","19:00"
"-101.68","54.68","FLIN FLON A","5050961","2019-01-13 20:00","2019","01","13","20:00"
"-101.68","54.68","FLIN FLON A","5050961","2019-01-13 21:00","2019","01","13","21:00"
"-101.68","54.68","FLIN FLON A","5050961","2019-01-13 22:00","2019","01","13","22:00"
"-101.68","54.68","FLIN FLON A","5050961","2019-01-13 23:00","2019","01","13","23:00"
"-101.68","54.68","FLIN FLON A","5050961","2019-01-14 00:00","2019","01","14","00:00"
"-101.68","54.68","FLIN FLON A","5050961","2019-01-14 01:00","2019","01","14","01:00"
"-101.68","54.68","FLIN FLON A","5050961","2019-01-14 02:00","2019","01","14","02:00"
"-101.68","54.68","FLIN FLON A","5050961","2019-01-14 03:00","2019","01","14","03:00"
"-101.68","54.68","FLIN FLON A","5050961","2019-01-14 04:00","2019","01","14","04:00"
"-101.68","54.68","FLIN FLON A","5050961","2019-01-14 05:00","2019","01","14","05:00"
"-101.68","54.68","FLIN FLON A","5050961","2019-01-14 06:00","2019","01","14","06:00","-21.1","","-23.7","","80","","","","5","","5","","24.1","","99.14","","","","-26","","Mainly Clear"
"-101.68","54.68","FLIN FLON A","5050961","2019-01-14 07:00","2019","01","14","07:00","-21.4","","-24.0","","79","","","","3","","4","","24.1","","99.09","","","","-25","","NA"
"-101.68","54.68","FLIN FLON A","5050961","2019-01-14 08:00","2019","01","14","08:00","-20.0","","-23.3","","75","","","","2","","4","","24.1","","99.06","","","","-23","","NA"
"-101.68","54.68","FLIN FLON A","5050961","2019-01-14 09:00","2019","01","14","09:00","-19.7","","-22.9","","76","","","","5","","4","","24.1","","99.05","","","","-23","","Cloudy"
"-101.68","54.68","FLIN FLON A","5050961","2019-01-14 10:00","2019","01","14","10:00","-19.4","","-22.9","","74","","","","11","","5","","24.1","","98.97","","","","-24","","NA"
"-101.68","54.68","FLIN FLON A","5050961","2019-01-14 11:00","2019","01","14","11:00","-18.8","","-22.2","","75","","","","12","","7","","24.1","","98.84","","","","-24","","NA"
"-101.68","54.68","FLIN FLON A","5050961","2019-01-14 12:00","2019","01","14","12:00","-17.7","","-21.6","","72","","","","14","","5","","24.1","","98.75","","","","-22","","Snow"
"-101.68","54.68","FLIN FLON A","5050961","2019-01-14 13:00","2019","01","14","13:00","-17.6","","-20.7","","77","","","","12","","7","","2.8","","98.56","","","","-23","","Snow"
"-101.68","54.68","FLIN FLON A","5050961","2019-01-14 14:00","2019","01","14","14:00","-17.4","","-20.1","","79","","","","12","","10","","1.2","","98.33","","","","-24","","Snow"
"-101.68","54.68","FLIN FLON A","5050961","2019-01-14 15:00","2019","01","14","15:00","-16.4","","-19.0","","80","","","","12","","9","","1.2","","98.13","","","","-22","","Snow"
"-101.68","54.68","FLIN FLON A","5050961","2019-01-14 16:00","2019","01","14","16:00","-16.1","","-18.7","","81","","","","15","","9","","1.2","","97.98","","","","-22","","Snow"
"-101.68","54.68","FLIN FLON A","5050961","2019-01-14 17:00","2019","01","14","17:00","-16.3","","-18.9","","81","","","","14","","12","","1.0","","97.78","","","","-24","","Snow"
"-101.68","54.68","FLIN FLON A","5050961","2019-01-14 18:00","2019","01","14","18:00","-16.2","","-18.8","","81","","","","14","","11","","1.0","","97.58","","","","-23","","Snow"
"-101.68","54.68","FLIN FLON A","5050961","2019-01-14 19:00","2019","01","14","19:00"
"-101.68","54.68","FLIN FLON A","5050961","2019-01-14 20:00","2019","01","14","20:00"
"-101.68","54.68","FLIN FLON A","5050961","2019-01-14 21:00","2019","01","14","21:00"
"-101.68","54.68","FLIN FLON A","5050961","2019-01-14 22:00","2019","01","14","22:00"
"-101.68","54.68","FLIN FLON A","5050961","2019-01-14 23:00","2019","01","14","23:00"
"-101.68","54.68","FLIN FLON A","5050961","2019-01-15 00:00","2019","01","15","00:00"
"-101.68","54.68","FLIN FLON A","5050961","2019-01-15 01:00","2019","01","15","01:00"
"-101.68","54.68","FLIN FLON A","5050961","2019-01-15 02:00","2019","01","15","02:00"
"-101.68","54.68","FLIN FLON A","5050961","2019-01-15 03:00","2019","01","15","03:00"
"-101.68","54.68","FLIN FLON A","5050961","2019-01-15 04:00","2019","01","15","04:00"
"-101.68","54.68","FLIN FLON A","5050961","2019-01-15 05:00","2019","01","15","05:00"
"-101.68","54.68","FLIN FLON A","5050961","2019-01-15 06:00","2019","01","15","06:00","-22.3","","-25.7","","74","","","","35","","20","","24.1","","98.57","","","","-33","","Clear"
"-101.68","54.68","FLIN FLON A","5050961","2019-01-15 07:00","2019","01","15","07:00","-22.9","","-26.3","","74","","","","35","","18","","24.1","","98.73","","","","-34","","NA"
"-101.68","54.68","FLIN FLON A","5050961","2019-01-15 08:00","2019","01","15","08:00","-24.0","","-27.3","","75","","","","36","","16","","24.1","","98.79","","","","-34","","NA"
"-101.68","54.68","FLIN FLON A","5050961","2019-01-15 09:00","2019","01","15","09:00","-25.0","","-28.5","","73","","","","35","","22","","24.1","","99.03","","","","-37","","Blowing Snow"
"-101.68","54.68","FLIN FLON A","5050961","2019-01-15 10:00","2019","01","15","10:00","-25.4","","-29.2","","71","","","","35","","14","","24.1","","99.11","","","","-35","","Blowing Snow"
"-101.68","54.68","FLIN FLON A","5050961","2019-01-15 11:00","2019","01","15","11:00","-24.8","","-29.5","","66","","","","34","","19","","24.1","","99.19","","","","-36","","Blowing Snow"
"-101.68","54.68","FLIN FLON A","5050961","2019-01-15 12:00","2019","01","15","12:00","-24.2","","-29.5","","62","","","","36","","14","","24.1","","99.21","","","","-34","","Blowing Snow"
"-101.68","54.68","FLIN FLON A","5050961","2019-01-15 13:00","2019","01","15","13:00","-23.1","","-28.9","","59","","","","33","","14","","24.1","","99.24","","","","-33","","NA"
"-101.68","54.68","FLIN FLON A","5050961","2019-01-15 14:00","2019","01","15","14:00","-22.8","","-28.9","","59","","","","32","","14","","24.1","","99.28","","","","-32","","NA"
"-101.68","54.68","FLIN FLON A","5050961","2019-01-15 15:00","2019","01","15","15:00","-22.7","","-28.7","","59","","","","35","","14","","24.1","","99.26","","","","-32","","Clear"
"-101.68","54.68","FLIN FLON A","5050961","2019-01-15 16:00","2019","01","15","16:00","-23.1","","-28.5","","62","","","","33","","13","","24.1","","99.31","","","","-32","","NA"
"-101.68","54.68","FLIN FLON A","5050961","2019-01-15 17:00","2019","01","15","17:00","-24.7","","-29.5","","65","","","","33","","11","","24.1","","99.34","","","","-33","","NA"
"-101.68","54.68","FLIN FLON A","5050961","2019-01-15 18:00","2019","01","15","18:00","-25.8","","-30.2","","67","","","","32","","9","","24.1","","99.34","","","","-34","","Clear"
"-101.68","54.68","FLIN FLON A","5050961","2019-01-15 19:00","2019","01","15","19:00"
"-101.68","54.68","FLIN FLON A","5050961","2019-01-15 20:00","2019","01","15","20:00"
"-101.68","54.68","FLIN FLON A","5050961","2019-01-15 21:00","2019","01","15","21:00"
"-101.68","54.68","FLIN FLON A","5050961","2019-01-15 22:00","2019","01","15","22:00"
"-101.68","54.68","FLIN FLON A","5050961","2019-01-15 23:00","2019","01","15","23:00"
"-101.68","54.68","FLIN FLON A","5050961","2019-01-16 00:00","2019","01","16","00:00"
"-101.68","54.68","FLIN FLON A","5050961","2019-01-16 01:00","2019","01","16","01:00"
"-101.68","54.68","FLIN FLON A","5050961","2019-01-16 02:00","2019","01","16","02:00"
"-101.68","54.68","FLIN FLON A","5050961","2019-01-16 03:00","2019","01","16","03:00"
"-101.68","54.68","FLIN FLON A","5050961","2019-01-16 04:00","2019","01","16","04:00"
"-101.68","54.68","FLIN FLON A","5050961","2019-01-16 05:00","2019","01","16","05:00"
"-101.68","54.68","FLIN FLON A","5050961","2019-01-16 06:00","2019","01","16","06:00","-29.2","","-32.4","","75","","","","21","","3","","24.1","","99.05","","","","-33","","Ice Crystals"
"-101.68","54.68","FLIN FLON A","5050961","2019-01-16 07:00","2019","01","16","07:00","-30.4","","-33.6","","74","","","","36","","3","","24.1","","99.05","","","","-34","","Ice Crystals"
"-101.68","54.68","FLIN FLON A","5050961","2019-01-16 08:00","2019","01","16","08:00","-31.6","","-34.8","","74","","","","18","","4","","24.1","","99.00","","","","-36","","Ice Crystals"
"-101.68","54.68","FLIN FLON A","5050961","2019-01-16 09:00","2019","01","16","09:00","-32.2","","-35.3","","74","","","","36","","2","","24.1","","98.98","","","","-35","","Ice Crystals"
"-101.68","54.68","FLIN FLON A","5050961","2019-01-16 10:00","2019","01","16","10:00","-31.5","","-34.8","","73","","","","36","","2","","24.1","","98.96","","","","-34","","NA"
"-101.68","54.68","FLIN FLON A","5050961","2019-01-16 11:00","2019","01","16","11:00","-32.3","","-35.6","","74","","","","36","","2","","24.1","","98.96","","","","-35","","NA"
"-101.68","54.68","FLIN FLON A","5050961","2019-01-16 12:00","2019","01","16","12:00","-26.5","","-30.0","","73","","","","20","","3","","24.1","","98.92","","","","-30","","Mostly Cloudy"
"-101.68","54.68","FLIN FLON A","5050961","2019-01-16 13:00","2019","01","16","13:00","-24.3","","-28.6","","68","","","","18","","6","","24.1","","98.88","","","","-30","","NA"
"-101.68","54.68","FLIN FLON A","5050961","2019-01-16 14:00","2019","01","16","14:00","-22.0","","-27.0","","64","","","","25","","10","","24.1","","98.85","","","","-30","","NA"
"-101.68","54.68","FLIN FLON A","5050961","2019-01-16 15:00","2019","01","16","15:00","-21.3","","-27.3","","59","","","","27","","11","","24.1","","98.81","","","","-29","","Mostly Cloudy"
"-101.68","54.68","FLIN FLON A","5050961","2019-01-16 16:00","2019","01","16","16:00","-21.7","","-26.7","","64","","","","25","","9","","24.1","","98.78","","","","-29","","NA"
"-101.68","54.68","FLIN FLON A","5050961","2019-01-16 17:00","2019","01","16","17:00","-21.9","","-26.2","","69","","","","23","","7","","24.1","","98.76","","","","-28","","NA"
"-101.68","54.68","FLIN FLON A","5050961","2019-01-16 18:00","2019","01","16","18:00","-21.9","","-25.9","","71","","","","25","","8","","24.1","","98.74","","","","-28","","Cloudy"
"-101.68","54.68","FLIN FLON A","5050961","2019-01-16 19:00","2019","01","16","19:00"
"-101.68","54.68","FLIN FLON A","5050961","2019-01-16 20:00","2019","01","16","20:00"
"-101.68","54.68","FLIN FLON A","5050961","2019-01-16 21:00","2019","01","16","21:00"
"-101.68","54.68","FLIN FLON A","5050961","2019-01-16 22:00","2019","01","16","22:00"
"-101.68","54.68","FLIN FLON A","5050961","2019-01-16 23:00","2019","01","16","23:00"
"-101.68","54.68","FLIN FLON A","5050961","2019-01-17 00:00","2019","01","17","00:00"
"-101.68","54.68","FLIN FLON A","5050961","2019-01-17 01:00","2019","01","17","01:00"
"-101.68","54.68","FLIN FLON A","5050961","2019-01-17 02:00","2019","01","17","02:00"
"-101.68","54.68","FLIN FLON A","5050961","2019-01-17 03:00","2019","01","17","03:00"
"-101.68","54.68","FLIN FLON A","5050961","2019-01-17 04:00","2019","01","17","04:00"
"-101.68","54.68","FLIN FLON A","5050961","2019-01-17 05:00","2019","01","17","05:00"
"-101.68","54.68","FLIN FLON A","5050961","2019-01-17 06:00","2019","01","17","06:00","-28.0","","-31.9","","70","","","","30","","10","","24.1","","98.71","","","","-37","","Clear"
"-101.68","54.68","FLIN FLON A","5050961","2019-01-17 07:00","2019","01","17","07:00","-28.2","","-32.1","","70","","","","29","","10","","24.1","","98.69","","","","-37","","NA"
"-101.68","54.68","FLIN FLON A","5050961","2019-01-17 08:00","2019","01","17","08:00","-28.3","","-32.2","","70","","","","31","","13","","24.1","","98.70","","","","-39","","NA"
"-101.68","54.68","FLIN FLON A","5050961","2019-01-17 09:00","2019","01","17","09:00","-28.8","","-32.6","","70","","","","32","","10","","24.1","","98.69","","","","-38","","Clear"
"-101.68","54.68","FLIN FLON A","5050961","2019-01-17 10:00","2019","01","17","10:00","-28.2","","-32.2","","69","","","","30","","11","","24.1","","98.70","","","","-38","","NA"
"-101.68","54.68","FLIN FLON A","5050961","2019-01-17 11:00","2019","01","17","11:00","-27.0","","-31.5","","66","","","","30","","17","","24.1","","98.72","","","","-38","","NA"
"-101.68","54.68","FLIN FLON A","5050961","2019-01-17 12:00","2019","01","17","12:00","-26.4","","-31.1","","65","","","","29","","19","","24.1","","98.74","","","","-38","","Mainly Clear"
"-101.68","54.68","FLIN FLON A","5050961","2019-01-17 13:00","2019","01","17","13:00","-25.8","","-31.1","","62","","","","31","","18","","24.1","","98.74","","","","-37","","NA"
"-101.68","54.68","FLIN FLON A","5050961","2019-01-17 14:00","2019","01","17","14:00","-25.4","","-31.0","","60","","","","30","","21","","24.1","","98.74","","","","-38","","Blowing Snow"
"-101.68","54.68","FLIN FLON A","5050961","2019-01-17 15:00","2019","01","17","15:00","-25.2","","-30.9","","60","","","","32","","18","","24.1","","98.75","","","","-36","","Blowing Snow"
"-101.68","54.68","FLIN FLON A","5050961","2019-01-17 16:00","2019","01","17","16:00","-25.6","","-31.1","","61","","","","32","","12","","24.1","","98.78","","","","-35","","Blowing Snow"
"-101.68","54.68","FLIN FLON A","5050961","2019-01-17 17:00","2019","01","17","17:00","-26.3","","-31.3","","63","","","","31","","15","","24.1","","98.83","","","","-37","","Blowing Snow"
"-101.68","54.68","FLIN FLON A","5050961","2019-01-17 18:00","2019","01","17","18:00","-27.3","","-31.6","","67","","","","31","","9","","24.1","","98.89","","","","-35","","Blowing Snow"
"-101.68","54.68","FLIN FLON A","5050961","2019-01-17 19:00","2019","01","17","19:00"
"-101.68","54.68","FLIN FLON A","5050961","2019-01-17 20:00","2019","01","17","20:00"
"-101.68","54.68","FLIN FLON A","5050961","2019-01-17 21:00","2019","01","17","21:00"
"-101.68","54.68","FLIN FLON A","5050961","2019-01-17 22:00","2019","01","17","22:00"
"-101.68","54.68","FLIN FLON A","5050961","2019-01-17 23:00","2019","01","17","23:00"
"-101.68","54.68","FLIN FLON A","5050961","2019-01-18 00:00","2019","01","18","00:00"
"-101.68","54.68","FLIN FLON A","5050961","2019-01-18 01:00","2019","01","18","01:00"
"-101.68","54.68","FLIN FLON A","5050961","2019-01-18 02:00","2019","01","18","02:00"
"-101.68","54.68","FLIN FLON A","5050961","2019-01-18 03:00","2019","01","18","03:00"
"-101.68","54.68","FLIN FLON A","5050961","2019-01-18 04:00","2019","01","18","04:00"
"-101.68","54.68","FLIN FLON A","5050961","2019-01-18 05:00","2019","01","18","05:00"
"-101.68","54.68","FLIN FLON A","5050961","2019-01-18 06:00","2019","01","18","06:00","-34.6","","-38.3","","70","","","","25","","5","","24.1","","99.27","","","","-41","","Ice Crystals"
"-101.68","54.68","FLIN FLON A","5050961","2019-01-18 07:00","2019","01","18","07:00","-33.9","","-37.4","","71","","","","28","","9","","24.1","","99.30","","","","-43","","Ice Crystals"
"-101.68","54.68","FLIN FLON A","5050961","2019-01-18 08:00","2019","01","18","08:00","-34.3","","-38.0","","70","","","","29","","6","","24.1","","99.30","","","","-41","","Ice Crystals"
"-101.68","54.68","FLIN FLON A","5050961","2019-01-18 09:00","2019","01","18","09:00","-35.3","","-38.9","","70","","","","31","","4","","24.1","","99.32","","","","-40","","Ice Crystals"
"-101.68","54.68","FLIN FLON A","5050961","2019-01-18 10:00","2019","01","18","10:00","-34.9","","-38.4","","71","","","","20","","4","","24.1","","99.35","","","","-40","","Ice Crystals"
"-101.68","54.68","FLIN FLON A","5050961","2019-01-18 11:00","2019","01","18","11:00","-31.5","","-35.3","","70","","","","28","","5","","24.1","","99.37","","","","-37","","Ice Crystals"
"-101.68","54.68","FLIN FLON A","5050961","2019-01-18 12:00","2019","01","18","12:00","-29.5","","-33.7","","68","","","","26","","10","","24.1","","99.36","","","","-39","","Ice Crystals"
"-101.68","54.68","FLIN FLON A","5050961","2019-01-18 13:00","2019","01","18","13:00","-27.5","","-32.3","","65","","","","25","","13","","24.1","","99.36","","","","-38","","NA"
"-101.68","54.68","FLIN FLON A","5050961","2019-01-18 14:00","2019","01","18","14:00","-26.9","","-31.9","","63","","","","28","","15","","24.1","","99.34","","","","-38","","NA"
"-101.68","54.68","FLIN FLON A","5050961","2019-01-18 15:00","2019","01","18","15:00","-26.5","","-31.4","","64","","","","22","","14","","24.1","","99.32","","","","-37","","Clear"
"-101.68","54.68","FLIN FLON A","5050961","2019-01-18 16:00","2019","01","18","16:00","-26.1","","-30.7","","66","","","","25","","10","","24.1","","99.32","","","","-34","","NA"
"-101.68","54.68","FLIN FLON A","5050961","2019-01-18 17:00","2019","01","18","17:00","-26.4","","-30.6","","68","","","","25","","7","","24.1","","99.33","","","","-33","","NA"
"-101.68","54.68","FLIN FLON A","5050961","2019-01-18 18:00","2019","01","18","18:00","-28.8","","-32.0","","74","","","","26","","4","","24.1","","99.37","","","","-33","","Clear"
"-101.68","54.68","FLIN FLON A","5050961","2019-01-18 19:00","2019","01","18","19:00"
"-101.68","54.68","FLIN FLON A","5050961","2019-01-18 20:00","2019","01","18","20:00"
"-101.68","54.68","FLIN FLON A","5050961","2019-01-18 21:00","2019","01","18","21:00"
"-101.68","54.68","FLIN FLON A","5050961","2019-01-18 22:00","2019","01","18","22:00"
"-101.68","54.68","FLIN FLON A","5050961","2019-01-18 23:00","2019","01","18","23:00"
"-101.68","54.68","FLIN FLON A","5050961","2019-01-19 00:00","2019","01","19","00:00"
"-101.68","54.68","FLIN FLON A","5050961","2019-01-19 01:00","2019","01","19","01:00"
"-101.68","54.68","FLIN FLON A","5050961","2019-01-19 02:00","2019","01","19","02:00"
"-101.68","54.68","FLIN FLON A","5050961","2019-01-19 03:00","2019","01","19","03:00"
"-101.68","54.68","FLIN FLON A","5050961","2019-01-19 04:00","2019","01","19","04:00"
"-101.68","54.68","FLIN FLON A","5050961","2019-01-19 05:00","2019","01","19","05:00"
"-101.68","54.68","FLIN FLON A","5050961","2019-01-19 06:00","2019","01","19","06:00","-33.0","","-36.6","","71","","","","32","","4","","24.1","","99.61","","","","-38","","Clear"
"-101.68","54.68","FLIN FLON A","5050961","2019-01-19 07:00","2019","01","19","07:00","-34.3","","-37.8","","71","","","","28","","8","","24.1","","99.66","","","","-43","","NA"
"-101.68","54.68","FLIN FLON A","5050961","2019-01-19 08:00","2019","01","19","08:00","-35.4","","-39.0","","71","","","","1","","7","","24.1","","99.65","","","","-44","","NA"
"-101.68","54.68","FLIN FLON A","5050961","2019-01-19 09:00","2019","01","19","09:00","-37.9","","-41.5","","70","","","","36","","4","","24.1","","99.66","","","","-43","","Clear"
"-101.68","54.68","FLIN FLON A","5050961","2019-01-19 10:00","2019","01","19","10:00","-36.1","","-39.7","","71","","","","4","","7","","24.1","","99.64","","","","-44","","NA"
"-101.68","54.68","FLIN FLON A","5050961","2019-01-19 11:00","2019","01","19","11:00","-34.0","","-37.6","","71","","","","3","","5","","24.1","","99.67","","","","-40","","NA"
"-101.68","54.68","FLIN FLON A","5050961","2019-01-19 12:00","2019","01","19","12:00","-32.2","","-36.0","","70","","","","33","","5","","24.1","","99.68","","","","-38","","Mainly Clear"
"-101.68","54.68","FLIN FLON A","5050961","2019-01-19 13:00","2019","01","19","13:00","-30.9","","-35.1","","67","","","","5","","5","","24.1","","99.63","","","","-37","","NA"
"-101.68","54.68","FLIN FLON A","5050961","2019-01-19 14:00","2019","01","19","14:00","-29.9","","-34.4","","66","","","","36","","1","","24.1","","99.63","","","","-31","","NA"
"-101.68","54.68","FLIN FLON A","5050961","2019-01-19 15:00","2019","01","19","15:00","-29.4","","-34.0","","65","","","","16","","5","","24.1","","99.62","","","","-35","","Mainly Clear"
"-101.68","54.68","FLIN FLON A","5050961","2019-01-19 16:00","2019","01","19","16:00","-29.2","","-33.7","","66","","","","17","","5","","24.1","","99.62","","","","-35","","NA"
"-101.68","54.68","FLIN FLON A","5050961","2019-01-19 17:00","2019","01","19","17:00","-31.0","","-34.8","","70","","","","36","","2","","24.1","","99.60","","","","-33","","NA"
"-101.68","54.68","FLIN FLON A","5050961","2019-01-19 18:00","2019","01","19","18:00","-33.1","","-36.3","","73","","","","36","","2","","24.1","","99.58","","","","-36","","Mainly Clear"
"-101.68","54.68","FLIN FLON A","5050961","2019-01-19 19:00","2019","01","19","19:00"
"-101.68","54.68","FLIN FLON A","5050961","2019-01-19 20:00","2019","01","19","20:00"
"-101.68","54.68","FLIN FLON A","5050961","2019-01-19 21:00","2019","01","19","21:00"
"-101.68","54.68","FLIN FLON A","5050961","2019-01-19 22:00","2019","01","19","22:00"
"-101.68","54.68","FLIN FLON A","5050961","2019-01-19 23:00","2019","01","19","23:00"
"-101.68","54.68","FLIN FLON A","5050961","2019-01-20 00:00","2019","01","20","00:00"
"-101.68","54.68","FLIN FLON A","5050961","2019-01-20 01:00","2019","01","20","01:00"
"-101.68","54.68","FLIN FLON A","5050961","2019-01-20 02:00","2019","01","20","02:00"
"-101.68","54.68","FLIN FLON A","5050961","2019-01-20 03:00","2019","01","20","03:00"
"-101.68","54.68","FLIN FLON A","5050961","2019-01-20 04:00","2019","01","20","04:00"
"-101.68","54.68","FLIN FLON A","5050961","2019-01-20 05:00","2019","01","20","05:00"
"-101.68","54.68","FLIN FLON A","5050961","2019-01-20 06:00","2019","01","20","06:00","-35.3","","-39.1","","69","","","","19","","5","","24.1","","99.26","","","","-42","","Clear"
"-101.68","54.68","FLIN FLON A","5050961","2019-01-20 07:00","2019","01","20","07:00","-35.0","","-38.8","","69","","","","15","","4","","24.1","","99.18","","","","-40","","NA"
"-101.68","54.68","FLIN FLON A","5050961","2019-01-20 08:00","2019","01","20","08:00","-34.9","","-38.6","","70","","","","13","","5","","24.1","","99.11","","","","-41","","NA"
"-101.68","54.68","FLIN FLON A","5050961","2019-01-20 09:00","2019","01","20","09:00","-34.5","","-38.2","","70","","","","18","","7","","24.1","","99.03","","","","-43","","Clear"
"-101.68","54.68","FLIN FLON A","5050961","2019-01-20 10:00","2019","01","20","10:00","-34.0","","-37.7","","70","","","","18","","10","","24.1","","98.97","","","","-44","","NA"
"-101.68","54.68","FLIN FLON A","5050961","2019-01-20 11:00","2019","01","20","11:00","-32.3","","-36.0","","71","","","","17","","8","","24.1","","98.85","","","","-41","","NA"
"-101.68","54.68","FLIN FLON A","5050961","2019-01-20 12:00","2019","01","20","12:00","-30.1","","-33.7","","72","","","","17","","10","","24.1","","98.78","","","","-39","","Mainly Clear"
"-101.68","54.68","FLIN FLON A","5050961","2019-01-20 13:00","2019","01","20","13:00","-28.2","","-31.8","","72","","","","17","","11","","24.1","","98.67","","","","-38","","NA"
"-101.68","54.68","FLIN FLON A","5050961","2019-01-20 14:00","2019","01","20","14:00","-26.1","","-30.0","","71","","","","17","","12","","24.1","","98.53","","","","-35","","NA"
"-101.68","54.68","FLIN FLON A","5050961","2019-01-20 15:00","2019","01","20","15:00","-24.9","","-29.4","","67","","","","16","","13","","24.1","","98.35","","","","-34","","Cloudy"
"-101.68","54.68","FLIN FLON A","5050961","2019-01-20 16:00","2019","01","20","16:00","-23.8","","-28.3","","67","","","","15","","11","","24.1","","98.21","","","","-32","","NA"
"-101.68","54.68","FLIN FLON A","5050961","2019-01-20 17:00","2019","01","20","17:00","-24.0","","-28.3","","68","","","","15","","15","","24.1","","98.10","","","","-34","","NA"
"-101.68","54.68","FLIN FLON A","5050961","2019-01-20 18:00","2019","01","20","18:00","-23.1","","-27.2","","70","","","","16","","15","","24.1","","97.98","","","","-33","","Cloudy"
"-101.68","54.68","FLIN FLON A","5050961","2019-01-20 19:00","2019","01","20","19:00"
"-101.68","54.68","FLIN FLON A","5050961","2019-01-20 20:00","2019","01","20","20:00"
"-101.68","54.68","FLIN FLON A","5050961","2019-01-20 21:00","2019","01","20","21:00"
"-101.68","54.68","FLIN FLON A","5050961","2019-01-20 22:00","2019","01","20","22:00"
"-101.68","54.68","FLIN FLON A","5050961","2019-01-20 23:00","2019","01","20","23:00"
"-101.68","54.68","FLIN FLON A","5050961","2019-01-21 00:00","2019","01","21","00:00"
"-101.68","54.68","FLIN FLON A","5050961","2019-01-21 01:00","2019","01","21","01:00"
"-101.68","54.68","FLIN FLON A","5050961","2019-01-21 02:00","2019","01","21","02:00"
"-101.68","54.68","FLIN FLON A","5050961","2019-01-21 03:00","2019","01","21","03:00"
"-101.68","54.68","FLIN FLON A","5050961","2019-01-21 04:00","2019","01","21","04:00"
"-101.68","54.68","FLIN FLON A","5050961","2019-01-21 05:00","2019","01","21","05:00"
"-101.68","54.68","FLIN FLON A","5050961","2019-01-21 06:00","2019","01","21","06:00","-15.6","","-18.1","","81","","","","21","","13","","19.3","","97.22","","","","-23","","Snow"
"-101.68","54.68","FLIN FLON A","5050961","2019-01-21 07:00","2019","01","21","07:00","-15.0","","-17.6","","81","","","","21","","14","","19.3","","97.22","","","","-23","","Snow"
"-101.68","54.68","FLIN FLON A","5050961","2019-01-21 08:00","2019","01","21","08:00","-14.6","","-17.2","","81","","","","24","","10","","19.3","","97.23","","","","-21","","Snow"
"-101.68","54.68","FLIN FLON A","5050961","2019-01-21 09:00","2019","01","21","09:00","-14.2","","-16.8","","81","","","","23","","8","","16.1","","97.25","","","","-19","","Snow"
"-101.68","54.68","FLIN FLON A","5050961","2019-01-21 10:00","2019","01","21","10:00","-13.9","","-16.5","","81","","","","22","","9","","6.4","","97.31","","","","-20","","Snow"
"-101.68","54.68","FLIN FLON A","5050961","2019-01-21 11:00","2019","01","21","11:00","-13.0","","-15.7","","80","","","","25","","8","","4.8","","97.36","","","","-18","","Snow"
"-101.68","54.68","FLIN FLON A","5050961","2019-01-21 12:00","2019","01","21","12:00","-11.9","","-15.3","","77","","","","28","","11","","24.1","","97.39","","","","-18","","Mostly Cloudy"
"-101.68","54.68","FLIN FLON A","5050961","2019-01-21 13:00","2019","01","21","13:00","-12.1","","-15.7","","75","","","","29","","16","","19.3","","97.43","","","","-20","","Snow"
"-101.68","54.68","FLIN FLON A","5050961","2019-01-21 14:00","2019","01","21","14:00","-12.3","","-16.6","","71","","","","30","","15","","16.1","","97.48","","","","-20","","Snow"
"-101.68","54.68","FLIN FLON A","5050961","2019-01-21 15:00","2019","01","21","15:00","-12.5","","-16.9","","70","","","","31","","8","","16.1","","97.53","","","","-17","","Snow"
"-101.68","54.68","FLIN FLON A","5050961","2019-01-21 16:00","2019","01","21","16:00","-12.6","","-16.8","","71","","","","32","","10","","19.3","","97.64","","","","-18","","NA"
"-101.68","54.68","FLIN FLON A","5050961","2019-01-21 17:00","2019","01","21","17:00","-13.2","","-16.6","","76","","","","31","","7","","16.1","","97.72","","","","-18","","Snow"
"-101.68","54.68","FLIN FLON A","5050961","2019-01-21 18:00","2019","01","21","18:00","-13.7","","-17.0","","77","","","","29","","5","","19.3","","97.76","","","","-17","","Snow"
"-101.68","54.68","FLIN FLON A","5050961","2019-01-21 19:00","2019","01","21","19:00"
"-101.68","54.68","FLIN FLON A","5050961","2019-01-21 20:00","2019","01","21","20:00"
"-101.68","54.68","FLIN FLON A","5050961","2019-01-21 21:00","2019","01","21","21:00"
"-101.68","54.68","FLIN FLON A","5050961","2019-01-21 22:00","2019","01","21","22:00"
"-101.68","54.68","FLIN FLON A","5050961","2019-01-21 23:00","2019","01","21","23:00"
"-101.68","54.68","FLIN FLON A","5050961","2019-01-22 00:00","2019","01","22","00:00"
"-101.68","54.68","FLIN FLON A","5050961","2019-01-22 01:00","2019","01","22","01:00"
"-101.68","54.68","FLIN FLON A","5050961","2019-01-22 02:00","2019","01","22","02:00"
"-101.68","54.68","FLIN FLON A","5050961","2019-01-22 03:00","2019","01","22","03:00"
"-101.68","54.68","FLIN FLON A","5050961","2019-01-22 04:00","2019","01","22","04:00"
"-101.68","54.68","FLIN FLON A","5050961","2019-01-22 05:00","2019","01","22","05:00"
"-101.68","54.68","FLIN FLON A","5050961","2019-01-22 06:00","2019","01","22","06:00","-16.9","","-20.1","","77","","","","32","","4","","19.3","","98.14","","","","-20","","Snow"
"-101.68","54.68","FLIN FLON A","5050961","2019-01-22 07:00","2019","01","22","07:00","-18.5","","-20.9","","82","","","","36","","3","","19.3","","98.14","","","","-21","","Snow"
"-101.68","54.68","FLIN FLON A","5050961","2019-01-22 08:00","2019","01","22","08:00","-17.9","","-20.6","","80","","","","19","","5","","16.1","","98.14","","","","-22","","Snow"
"-101.68","54.68","FLIN FLON A","5050961","2019-01-22 09:00","2019","01","22","09:00","-17.8","","-20.4","","80","","","","19","","6","","16.1","","98.10","","","","-22","","Snow"
"-101.68","54.68","FLIN FLON A","5050961","2019-01-22 10:00","2019","01","22","10:00","-17.2","","-20.0","","79","","","","18","","7","","19.3","","98.06","","","","-22","","Snow"
"-101.68","54.68","FLIN FLON A","5050961","2019-01-22 11:00","2019","01","22","11:00","-15.9","","-19.1","","77","","","","19","","8","","19.3","","98.03","","","","-21","","Snow"
"-101.68","54.68","FLIN FLON A","5050961","2019-01-22 12:00","2019","01","22","12:00","-14.8","","-18.6","","73","","","","23","","9","","24.1","","97.94","","","","-21","","Snow"
"-101.68","54.68","FLIN FLON A","5050961","2019-01-22 13:00","2019","01","22","13:00","-14.3","","-18.5","","70","","","","25","","16","","24.1","","97.89","","","","-22","","Snow,Blowing Snow"
"-101.68","54.68","FLIN FLON A","5050961","2019-01-22 14:00","2019","01","22","14:00","-14.1","","-18.2","","71","","","","24","","17","","24.1","","97.84","","","","-22","","Snow"
"-101.68","54.68","FLIN FLON A","5050961","2019-01-22 15:00","2019","01","22","15:00","-13.8","","-17.9","","72","","","","24","","12","","24.1","","97.76","","","","-21","","Snow"
"-101.68","54.68","FLIN FLON A","5050961","2019-01-22 16:00","2019","01","22","16:00","-13.8","","-17.6","","73","","","","23","","9","","24.1","","97.73","","","","-19","","Snow"
"-101.68","54.68","FLIN FLON A","5050961","2019-01-22 17:00","2019","01","22","17:00","-13.9","","-17.6","","74","","","","26","","6","","24.1","","97.68","","","","-18","","Snow"
"-101.68","54.68","FLIN FLON A","5050961","2019-01-22 18:00","2019","01","22","18:00","-14.9","","-18.1","","77","","","","32","","5","","24.1","","97.66","","","","-18","","Snow"
"-101.68","54.68","FLIN FLON A","5050961","2019-01-22 19:00","2019","01","22","19:00"
"-101.68","54.68","FLIN FLON A","5050961","2019-01-22 20:00","2019","01","22","20:00"
"-101.68","54.68","FLIN FLON A","5050961","2019-01-22 21:00","2019","01","22","21:00"
"-101.68","54.68","FLIN FLON A","5050961","2019-01-22 22:00","2019","01","22","22:00"
"-101.68","54.68","FLIN FLON A","5050961","2019-01-22 23:00","2019","01","22","23:00"
"-101.68","54.68","FLIN FLON A","5050961","2019-01-23 00:00","2019","01","23","00:00"
"-101.68","54.68","FLIN FLON A","5050961","2019-01-23 01:00","2019","01","23","01:00"
"-101.68","54.68","FLIN FLON A","5050961","2019-01-23 02:00","2019","01","23","02:00"
"-101.68","54.68","FLIN FLON A","5050961","2019-01-23 03:00","2019","01","23","03:00"
"-101.68","54.68","FLIN FLON A","5050961","2019-01-23 04:00","2019","01","23","04:00"
"-101.68","54.68","FLIN FLON A","5050961","2019-01-23 05:00","2019","01","23","05:00"
"-101.68","54.68","FLIN FLON A","5050961","2019-01-23 06:00","2019","01","23","06:00","-17.6","","-20.4","","79","","","","35","","8","","4.8","","97.63","","","","-23","","Snow"
"-101.68","54.68","FLIN FLON A","5050961","2019-01-23 07:00","2019","01","23","07:00","-17.6","","-20.5","","79","","","","34","","14","","3.2","","97.68","","","","-26","","Snow"
"-101.68","54.68","FLIN FLON A","5050961","2019-01-23 08:00","2019","01","23","08:00","-17.7","","-20.6","","78","","","","34","","14","","3.2","","97.74","","","","-26","","Snow"
"-101.68","54.68","FLIN FLON A","5050961","2019-01-23 09:00","2019","01","23","09:00","-18.2","","-21.6","","75","","","","35","","24","","4.8","","97.83","","","","-29","","Snow,Blowing Snow"
"-101.68","54.68","FLIN FLON A","5050961","2019-01-23 10:00","2019","01","23","10:00","-18.5","","-22.1","","74","","","","35","","16","","19.3","","97.89","","","","-28","","Snow,Blowing Snow"
"-101.68","54.68","FLIN FLON A","5050961","2019-01-23 11:00","2019","01","23","11:00","-19.6","","-23.7","","71","","","","35","","22","","19.3","","97.99","","","","-30","","Snow,Blowing Snow"
"-101.68","54.68","FLIN FLON A","5050961","2019-01-23 12:00","2019","01","23","12:00","-19.9","","-24.9","","65","","","","35","","28","","24.1","","98.09","","","","-32","","Ice Crystals,Blowing Snow"
"-101.68","54.68","FLIN FLON A","5050961","2019-01-23 13:00","2019","01","23","13:00","-19.5","","-24.6","","65","","","","33","","30","","19.3","","98.15","","","","-32","","Ice Crystals,Blowing Snow"
"-101.68","54.68","FLIN FLON A","5050961","2019-01-23 14:00","2019","01","23","14:00","-20.1","","-25.2","","64","","","","33","","16","","24.1","","98.20","","","","-30","","Ice Crystals,Blowing Snow"
"-101.68","54.68","FLIN FLON A","5050961","2019-01-23 15:00","2019","01","23","15:00","-21.0","","-26.4","","62","","","","33","","17","","24.1","","98.31","","","","-31","","Ice Crystals,Blowing Snow"
"-101.68","54.68","FLIN FLON A","5050961","2019-01-23 16:00","2019","01","23","16:00","-22.1","","-27.5","","62","","","","34","","23","","24.1","","98.43","","","","-34","","Ice Crystals,Blowing Snow"
"-101.68","54.68","FLIN FLON A","5050961","2019-01-23 17:00","2019","01","23","17:00","-23.4","","-28.2","","66","","","","33","","17","","24.1","","98.56","","","","-34","","Ice Crystals,Blowing Snow"
"-101.68","54.68","FLIN FLON A","5050961","2019-01-23 18:00","2019","01","23","18:00","-24.3","","-29.0","","66","","","","33","","21","","24.1","","98.69","","","","-36","","Ice Crystals,Blowing Snow"
"-101.68","54.68","FLIN FLON A","5050961","2019-01-23 19:00","2019","01","23","19:00"
"-101.68","54.68","FLIN FLON A","5050961","2019-01-23 20:00","2019","01","23","20:00"
"-101.68","54.68","FLIN FLON A","5050961","2019-01-23 21:00","2019","01","23","21:00"
"-101.68","54.68","FLIN FLON A","5050961","2019-01-23 22:00","2019","01","23","22:00"
"-101.68","54.68","FLIN FLON A","5050961","2019-01-23 23:00","2019","01","23","23:00"
"-101.68","54.68","FLIN FLON A","5050961","2019-01-24 00:00","2019","01","24","00:00"
"-101.68","54.68","FLIN FLON A","5050961","2019-01-24 01:00","2019","01","24","01:00"
"-101.68","54.68","FLIN FLON A","5050961","2019-01-24 02:00","2019","01","24","02:00"
"-101.68","54.68","FLIN FLON A","5050961","2019-01-24 03:00","2019","01","24","03:00"
"-101.68","54.68","FLIN FLON A","5050961","2019-01-24 04:00","2019","01","24","04:00"
"-101.68","54.68","FLIN FLON A","5050961","2019-01-24 05:00","2019","01","24","05:00"
"-101.68","54.68","FLIN FLON A","5050961","2019-01-24 06:00","2019","01","24","06:00","-32.1","","-35.6","","72","","","","30","","5","","24.1","","98.84","","","","-38","","Clear"
"-101.68","54.68","FLIN FLON A","5050961","2019-01-24 07:00","2019","01","24","07:00","-34.1","","-37.5","","72","","","","27","","5","","24.1","","98.81","","","","-40","","NA"
"-101.68","54.68","FLIN FLON A","5050961","2019-01-24 08:00","2019","01","24","08:00","-35.5","","-38.9","","71","","","","20","","4","","24.1","","98.77","","","","-41","","NA"
"-101.68","54.68","FLIN FLON A","5050961","2019-01-24 09:00","2019","01","24","09:00","-35.7","","-39.3","","71","","","","23","","7","","24.1","","98.71","","","","-44","","Clear"
"-101.68","54.68","FLIN FLON A","5050961","2019-01-24 10:00","2019","01","24","10:00","-35.8","","-39.4","","70","","","","19","","3","","24.1","","98.65","","","","-40","","NA"
"-101.68","54.68","FLIN FLON A","5050961","2019-01-24 11:00","2019","01","24","11:00","-34.0","","-37.6","","71","","","","36","","2","","24.1","","98.63","","","","-36","","NA"
"-101.68","54.68","FLIN FLON A","5050961","2019-01-24 12:00","2019","01","24","12:00","-30.0","","-33.8","","71","","","","19","","3","","24.1","","98.56","","","","-33","","Mostly Cloudy"
"-101.68","54.68","FLIN FLON A","5050961","2019-01-24 13:00","2019","01","24","13:00","-29.3","","-33.4","","69","","","","36","","2","","24.1","","98.46","","","","-32","","NA"
"-101.68","54.68","FLIN FLON A","5050961","2019-01-24 14:00","2019","01","24","14:00","-28.5","","-32.8","","67","","","","36","","1","","24.1","","98.39","","","","-30","","NA"
"-101.68","54.68","FLIN FLON A","5050961","2019-01-24 15:00","2019","01","24","15:00","-27.7","","-32.4","","65","","","","36","","3","","24.1","","98.31","","","","-31","","Mostly Cloudy"
"-101.68","54.68","FLIN FLON A","5050961","2019-01-24 16:00","2019","01","24","16:00","-27.4","","-32.0","","66","","","","5","","4","","24.1","","98.27","","","","-32","","NA"
"-101.68","54.68","FLIN FLON A","5050961","2019-01-24 17:00","2019","01","24","17:00","-28.6","","-32.7","","69","","","","2","","4","","24.1","","98.27","","","","-33","","NA"
"-101.68","54.68","FLIN FLON A","5050961","2019-01-24 18:00","2019","01","24","18:00","-31.1","","-34.4","","73","","","","36","","2","","24.1","","98.30","","","","-33","","Clear"
"-101.68","54.68","FLIN FLON A","5050961","2019-01-24 19:00","2019","01","24","19:00"
"-101.68","54.68","FLIN FLON A","5050961","2019-01-24 20:00","2019","01","24","20:00"
"-101.68","54.68","FLIN FLON A","5050961","2019-01-24 21:00","2019","01","24","21:00"
"-101.68","54.68","FLIN FLON A","5050961","2019-01-24 22:00","2019","01","24","22:00"
"-101.68","54.68","FLIN FLON A","5050961","2019-01-24 23:00","2019","01","24","23:00"
"-101.68","54.68","FLIN FLON A","5050961","2019-01-25 00:00","2019","01","25","00:00"
"-101.68","54.68","FLIN FLON A","5050961","2019-01-25 01:00","2019","01","25","01:00"
"-101.68","54.68","FLIN FLON A","5050961","2019-01-25 02:00","2019","01","25","02:00"
"-101.68","54.68","FLIN FLON A","5050961","2019-01-25 03:00","2019","01","25","03:00"
"-101.68","54.68","FLIN FLON A","5050961","2019-01-25 04:00","2019","01","25","04:00"
"-101.68","54.68","FLIN FLON A","5050961","2019-01-25 05:00","2019","01","25","05:00"
"-101.68","54.68","FLIN FLON A","5050961","2019-01-25 06:00","2019","01","25","06:00","-41.3","","-45.5","","65","","","","36","","3","","24.1","","98.48","","","","-46","","Clear"
"-101.68","54.68","FLIN FLON A","5050961","2019-01-25 07:00","2019","01","25","07:00","-40.7","","-44.9","","65","","","","36","","3","","16.1","","98.52","","","","-45","","Ice Crystals"
"-101.68","54.68","FLIN FLON A","5050961","2019-01-25 08:00","2019","01","25","08:00","-40.6","","-44.7","","66","","","","36","","3","","9.7","","98.49","","","","-45","","Ice Crystals"
"-101.68","54.68","FLIN FLON A","5050961","2019-01-25 09:00","2019","01","25","09:00","-40.6","","-44.7","","66","","","","0","","1","","19.3","","98.47","","","","-42","","Ice Crystals"
"-101.68","54.68","FLIN FLON A","5050961","2019-01-25 10:00","2019","01","25","10:00","-39.3","","-43.4","","66","","","","36","","2","","19.3","","98.44","","","","-42","","Ice Crystals"
"-101.68","54.68","FLIN FLON A","5050961","2019-01-25 11:00","2019","01","25","11:00","-38.2","","-42.2","","67","","","","36","","2","","19.3","","98.44","","","","-41","","Ice Crystals"
"-101.68","54.68","FLIN FLON A","5050961","2019-01-25 12:00","2019","01","25","12:00","-34.3","","-38.1","","69","","","","20","","4","","19.3","","98.37","","","","-39","","Ice Crystals"
"-101.68","54.68","FLIN FLON A","5050961","2019-01-25 13:00","2019","01","25","13:00","-30.4","","-33.9","","72","","","","14","","5","","24.1","","98.29","","","","-36","","NA"
"-101.68","54.68","FLIN FLON A","5050961","2019-01-25 14:00","2019","01","25","14:00","-27.9","","-31.4","","73","","","","14","","5","","24.1","","98.19","","","","-33","","Ice Crystals"
"-101.68","54.68","FLIN FLON A","5050961","2019-01-25 15:00","2019","01","25","15:00","-26.9","","-30.9","","70","","","","16","","5","","24.1","","98.12","","","","-32","","Ice Crystals"
"-101.68","54.68","FLIN FLON A","5050961","2019-01-25 16:00","2019","01","25","16:00","-26.4","","-30.4","","69","","","","16","","4","","24.1","","98.05","","","","-31","","Ice Crystals"
"-101.68","54.68","FLIN FLON A","5050961","2019-01-25 17:00","2019","01","25","17:00","-27.3","","-31.1","","71","","","","36","","1","","24.1","","97.96","","","","-28","","Ice Crystals"
"-101.68","54.68","FLIN FLON A","5050961","2019-01-25 18:00","2019","01","25","18:00","-27.7","","-31.2","","73","","","","16","","6","","24.1","","97.91","","","","-34","","Ice Crystals"
"-101.68","54.68","FLIN FLON A","5050961","2019-01-25 19:00","2019","01","25","19:00"
"-101.68","54.68","FLIN FLON A","5050961","2019-01-25 20:00","2019","01","25","20:00"
"-101.68","54.68","FLIN FLON A","5050961","2019-01-25 21:00","2019","01","25","21:00"
"-101.68","54.68","FLIN FLON A","5050961","2019-01-25 22:00","2019","01","25","22:00"
"-101.68","54.68","FLIN FLON A","5050961","2019-01-25 23:00","2019","01","25","23:00"
"-101.68","54.68","FLIN FLON A","5050961","2019-01-26 00:00","2019","01","26","00:00"
"-101.68","54.68","FLIN FLON A","5050961","2019-01-26 01:00","2019","01","26","01:00"
"-101.68","54.68","FLIN FLON A","5050961","2019-01-26 02:00","2019","01","26","02:00"
"-101.68","54.68","FLIN FLON A","5050961","2019-01-26 03:00","2019","01","26","03:00"
"-101.68","54.68","FLIN FLON A","5050961","2019-01-26 04:00","2019","01","26","04:00"
"-101.68","54.68","FLIN FLON A","5050961","2019-01-26 05:00","2019","01","26","05:00"
"-101.68","54.68","FLIN FLON A","5050961","2019-01-26 06:00","2019","01","26","06:00","-40.1","","-44.2","","67","","","","5","","5","","24.1","","98.37","","","","-47","","Clear"
"-101.68","54.68","FLIN FLON A","5050961","2019-01-26 07:00","2019","01","26","07:00","-39.8","","-43.8","","66","","","","1","","4","","24.1","","98.39","","","","-45","","NA"
"-101.68","54.68","FLIN FLON A","5050961","2019-01-26 08:00","2019","01","26","08:00","-39.2","","-43.2","","67","","","","36","","2","","24.1","","98.40","","","","-42","","NA"
"-101.68","54.68","FLIN FLON A","5050961","2019-01-26 09:00","2019","01","26","09:00","-40.1","","-44.2","","66","","","","5","","7","","24.1","","98.49","","","","-49","","Mainly Clear"
"-101.68","54.68","FLIN FLON A","5050961","2019-01-26 10:00","2019","01","26","10:00","-38.7","","-42.8","","67","","","","36","","4","","24.1","","98.50","","","","-44","","NA"
"-101.68","54.68","FLIN FLON A","5050961","2019-01-26 11:00","2019","01","26","11:00","-34.4","","-38.1","","69","","","","36","","1","","24.1","","98.55","","","","-36","","NA"
"-101.68","54.68","FLIN FLON A","5050961","2019-01-26 12:00","2019","01","26","12:00","-32.4","","-36.2","","70","","","","19","","7","","24.1","","98.52","","","","-40","","Mainly Clear"
"-101.68","54.68","FLIN FLON A","5050961","2019-01-26 13:00","2019","01","26","13:00","-30.2","","-34.0","","70","","","","18","","5","","24.1","","98.51","","","","-36","","NA"
"-101.68","54.68","FLIN FLON A","5050961","2019-01-26 14:00","2019","01","26","14:00","-29.0","","-33.1","","69","","","","17","","7","","24.1","","98.50","","","","-36","","NA"
"-101.68","54.68","FLIN FLON A","5050961","2019-01-26 15:00","2019","01","26","15:00","-28.0","","-32.8","","65","","","","17","","7","","24.1","","98.43","","","","-35","","Mostly Cloudy"
"-101.68","54.68","FLIN FLON A","5050961","2019-01-26 16:00","2019","01","26","16:00","-28.3","","-33.0","","65","","","","14","","3","","24.1","","98.41","","","","-32","","NA"
"-101.68","54.68","FLIN FLON A","5050961","2019-01-26 17:00","2019","01","26","17:00","-28.1","","-32.4","","67","","","","14","","7","","24.1","","98.30","","","","-35","","NA"
"-101.68","54.68","FLIN FLON A","5050961","2019-01-26 18:00","2019","01","26","18:00","-29.0","","-32.7","","71","","","","18","","6","","24.1","","98.24","","","","-35","","Mainly Clear"
"-101.68","54.68","FLIN FLON A","5050961","2019-01-26 19:00","2019","01","26","19:00"
"-101.68","54.68","FLIN FLON A","5050961","2019-01-26 20:00","2019","01","26","20:00"
"-101.68","54.68","FLIN FLON A","5050961","2019-01-26 21:00","2019","01","26","21:00"
"-101.68","54.68","FLIN FLON A","5050961","2019-01-26 22:00","2019","01","26","22:00"
"-101.68","54.68","FLIN FLON A","5050961","2019-01-26 23:00","2019","01","26","23:00"
"-101.68","54.68","FLIN FLON A","5050961","2019-01-27 00:00","2019","01","27","00:00"
"-101.68","54.68","FLIN FLON A","5050961","2019-01-27 01:00","2019","01","27","01:00"
"-101.68","54.68","FLIN FLON A","5050961","2019-01-27 02:00","2019","01","27","02:00"
"-101.68","54.68","FLIN FLON A","5050961","2019-01-27 03:00","2019","01","27","03:00"
"-101.68","54.68","FLIN FLON A","5050961","2019-01-27 04:00","2019","01","27","04:00"
"-101.68","54.68","FLIN FLON A","5050961","2019-01-27 05:00","2019","01","27","05:00"
"-101.68","54.68","FLIN FLON A","5050961","2019-01-27 06:00","2019","01","27","06:00","-23.9","","-27.4","","74","","","","13","","10","","2.8","","96.67","","","","-32","","Snow"
"-101.68","54.68","FLIN FLON A","5050961","2019-01-27 07:00","2019","01","27","07:00","-23.3","","-26.8","","73","","","","14","","15","","4.0","","96.55","","","","-33","","Snow"
"-101.68","54.68","FLIN FLON A","5050961","2019-01-27 08:00","2019","01","27","08:00","-22.8","","-26.4","","73","","","","13","","11","","16.1","","96.59","","","","-31","","Snow"
"-101.68","54.68","FLIN FLON A","5050961","2019-01-27 09:00","2019","01","27","09:00","-22.7","","-26.3","","73","","","","11","","10","","4.0","","96.62","","","","-30","","Snow"
"-101.68","54.68","FLIN FLON A","5050961","2019-01-27 10:00","2019","01","27","10:00","-22.3","","-25.9","","73","","","","11","","7","","9.7","","96.66","","","","-28","","Snow"
"-101.68","54.68","FLIN FLON A","5050961","2019-01-27 11:00","2019","01","27","11:00","-21.7","","-25.5","","72","","","","7","","4","","9.7","","96.75","","","","-25","","Snow"
"-101.68","54.68","FLIN FLON A","5050961","2019-01-27 12:00","2019","01","27","12:00","-20.9","","-24.8","","71","","","","11","","4","","9.7","","96.79","","","","-24","","Snow"
"-101.68","54.68","FLIN FLON A","5050961","2019-01-27 13:00","2019","01","27","13:00","-20.7","","-24.6","","71","","","","1","","5","","6.4","","96.86","","","","-25","","Snow"
"-101.68","54.68","FLIN FLON A","5050961","2019-01-27 14:00","2019","01","27","14:00","-20.3","","-24.4","","70","","","","2","","8","","9.7","","96.94","","","","-27","","Snow"
"-101.68","54.68","FLIN FLON A","5050961","2019-01-27 15:00","2019","01","27","15:00","-19.8","","-24.2","","69","","","","33","","10","","12.9","","97.07","","","","-27","","Snow"
"-101.68","54.68","FLIN FLON A","5050961","2019-01-27 16:00","2019","01","27","16:00","-19.8","","-23.9","","70","","","","34","","12","","9.7","","97.19","","","","-28","","Snow"
"-101.68","54.68","FLIN FLON A","5050961","2019-01-27 17:00","2019","01","27","17:00","-19.8","","-23.7","","71","","","","33","","13","","9.7","","97.32","","","","-28","","Snow"
"-101.68","54.68","FLIN FLON A","5050961","2019-01-27 18:00","2019","01","27","18:00","-19.8","","-23.5","","73","","","","34","","11","","12.9","","97.42","","","","-27","","Snow"
"-101.68","54.68","FLIN FLON A","5050961","2019-01-27 19:00","2019","01","27","19:00"
"-101.68","54.68","FLIN FLON A","5050961","2019-01-27 20:00","2019","01","27","20:00"
"-101.68","54.68","FLIN FLON A","5050961","2019-01-27 21:00","2019","01","27","21:00"
"-101.68","54.68","FLIN FLON A","5050961","2019-01-27 22:00","2019","01","27","22:00"
"-101.68","54.68","FLIN FLON A","5050961","2019-01-27 23:00","2019","01","27","23:00"
"-101.68","54.68","FLIN FLON A","5050961","2019-01-28 00:00","2019","01","28","00:00"
"-101.68","54.68","FLIN FLON A","5050961","2019-01-28 01:00","2019","01","28","01:00"
"-101.68","54.68","FLIN FLON A","5050961","2019-01-28 02:00","2019","01","28","02:00"
"-101.68","54.68","FLIN FLON A","5050961","2019-01-28 03:00","2019","01","28","03:00"
"-101.68","54.68","FLIN FLON A","5050961","2019-01-28 04:00","2019","01","28","04:00"
"-101.68","54.68","FLIN FLON A","5050961","2019-01-28 05:00","2019","01","28","05:00"
"-101.68","54.68","FLIN FLON A","5050961","2019-01-28 06:00","2019","01","28","06:00","-22.1","","-26.1","","70","","","","33","","13","","24.1","","98.36","","","","-31","","Blowing Snow"
"-101.68","54.68","FLIN FLON A","5050961","2019-01-28 07:00","2019","01","28","07:00","-22.8","","-27.2","","68","","","","34","","22","","24.1","","98.38","","","","-35","","Blowing Snow"
"-101.68","54.68","FLIN FLON A","5050961","2019-01-28 08:00","2019","01","28","08:00","-23.7","","-28.0","","68","","","","32","","16","","24.1","","98.39","","","","-34","","Blowing Snow"
"-101.68","54.68","FLIN FLON A","5050961","2019-01-28 09:00","2019","01","28","09:00","-24.0","","-27.8","","71","","","","32","","10","","9.7","","98.36","","","","-32","","Snow,Blowing Snow"
"-101.68","54.68","FLIN FLON A","5050961","2019-01-28 10:00","2019","01","28","10:00","-23.8","","-27.4","","73","","","","34","","9","","3.6","","98.33","","","","-31","","Snow,Blowing Snow"
"-101.68","54.68","FLIN FLON A","5050961","2019-01-28 11:00","2019","01","28","11:00","-23.4","","-27.9","","67","","","","32","","28","","9.7","","98.32","","","","-37","","Snow,Blowing Snow"
"-101.68","54.68","FLIN FLON A","5050961","2019-01-28 12:00","2019","01","28","12:00","-25.6","","-30.3","","65","","","","36","","22","","2.4","","98.40","","","","-38","","Snow,Blowing Snow"
"-101.68","54.68","FLIN FLON A","5050961","2019-01-28 13:00","2019","01","28","13:00","-26.0","","-31.3","","62","","","","33","","29","","4.8","","98.46","","","","-40","","Snow,Blowing Snow"
"-101.68","54.68","FLIN FLON A","5050961","2019-01-28 14:00","2019","01","28","14:00","-26.9","","-32.0","","63","","","","34","","32","","9.7","","98.54","","","","-42","","Snow,Blowing Snow"
"-101.68","54.68","FLIN FLON A","5050961","2019-01-28 15:00","2019","01","28","15:00","-27.7","","-33.8","","57","","","","34","","27","","12.9","","98.59","","","","-42","","Snow,Blowing Snow"
"-101.68","54.68","FLIN FLON A","5050961","2019-01-28 16:00","2019","01","28","16:00","-28.3","","-34.3","","57","","","","33","","19","","16.1","","98.66","","","","-41","","Blowing Snow"
"-101.68","54.68","FLIN FLON A","5050961","2019-01-28 17:00","2019","01","28","17:00","-29.3","","-35.4","","57","","","","34","","30","","24.1","","98.73","","","","-45","","Blowing Snow"
"-101.68","54.68","FLIN FLON A","5050961","2019-01-28 18:00","2019","01","28","18:00","-29.7","","-34.9","","62","","","","34","","21","","9.7","","98.80","","","","-43","","Snow,Blowing Snow"
"-101.68","54.68","FLIN FLON A","5050961","2019-01-28 19:00","2019","01","28","19:00"
"-101.68","54.68","FLIN FLON A","5050961","2019-01-28 20:00","2019","01","28","20:00"
"-101.68","54.68","FLIN FLON A","5050961","2019-01-28 21:00","2019","01","28","21:00"
"-101.68","54.68","FLIN FLON A","5050961","2019-01-28 22:00","2019","01","28","22:00"
"-101.68","54.68","FLIN FLON A","5050961","2019-01-28 23:00","2019","01","28","23:00"
"-101.68","54.68","FLIN FLON A","5050961","2019-01-29 00:00","2019","01","29","00:00"
"-101.68","54.68","FLIN FLON A","5050961","2019-01-29 01:00","2019","01","29","01:00"
"-101.68","54.68","FLIN FLON A","5050961","2019-01-29 02:00","2019","01","29","02:00"
"-101.68","54.68","FLIN FLON A","5050961","2019-01-29 03:00","2019","01","29","03:00"
"-101.68","54.68","FLIN FLON A","5050961","2019-01-29 04:00","2019","01","29","04:00"
"-101.68","54.68","FLIN FLON A","5050961","2019-01-29 05:00","2019","01","29","05:00"
"-101.68","54.68","FLIN FLON A","5050961","2019-01-29 06:00","2019","01","29","06:00","-34.7","","-39.1","","65","","","","34","","15","","24.1","","99.18","","","","-47","","Blowing Snow"
"-101.68","54.68","FLIN FLON A","5050961","2019-01-29 07:00","2019","01","29","07:00","-34.9","","-39.2","","66","","","","34","","15","","24.1","","99.21","","","","-47","","NA"
"-101.68","54.68","FLIN FLON A","5050961","2019-01-29 08:00","2019","01","29","08:00","-35.1","","-39.4","","66","","","","33","","19","","24.1","","99.20","","","","-49","","NA"
"-101.68","54.68","FLIN FLON A","5050961","2019-01-29 09:00","2019","01","29","09:00","-35.5","","-39.8","","66","","","","34","","13","","24.1","","99.25","","","","-47","","Clear"
"-101.68","54.68","FLIN FLON A","5050961","2019-01-29 10:00","2019","01","29","10:00","-34.8","","-39.4","","64","","","","34","","18","","24.1","","99.27","","","","-48","","NA"
"-101.68","54.68","FLIN FLON A","5050961","2019-01-29 11:00","2019","01","29","11:00","-33.9","","-38.9","","62","","","","32","","13","","24.1","","99.26","","","","-45","","NA"
"-101.68","54.68","FLIN FLON A","5050961","2019-01-29 12:00","2019","01","29","12:00","-33.0","","-38.3","","60","","","","30","","14","","24.1","","99.27","","","","-45","","Clear"
"-101.68","54.68","FLIN FLON A","5050961","2019-01-29 13:00","2019","01","29","13:00","-32.0","","-37.6","","59","","","","32","","13","","24.1","","99.25","","","","-43","","NA"
"-101.68","54.68","FLIN FLON A","5050961","2019-01-29 14:00","2019","01","29","14:00","-31.0","","-36.8","","58","","","","30","","13","","24.1","","99.21","","","","-42","","NA"
"-101.68","54.68","FLIN FLON A","5050961","2019-01-29 15:00","2019","01","29","15:00","-30.0","","-36.0","","57","","","","30","","12","","24.1","","99.19","","","","-40","","Clear"
"-101.68","54.68","FLIN FLON A","5050961","2019-01-29 16:00","2019","01","29","16:00","-30.1","","-36.0","","58","","","","30","","9","","24.1","","99.21","","","","-39","","NA"
"-101.68","54.68","FLIN FLON A","5050961","2019-01-29 17:00","2019","01","29","17:00","-30.4","","-35.8","","60","","","","31","","7","","24.1","","99.22","","","","-38","","NA"
"-101.68","54.68","FLIN FLON A","5050961","2019-01-29 18:00","2019","01","29","18:00","-31.4","","-36.4","","63","","","","30","","5","","24.1","","99.22","","","","-37","","Clear"
"-101.68","54.68","FLIN FLON A","5050961","2019-01-29 19:00","2019","01","29","19:00"
"-101.68","54.68","FLIN FLON A","5050961","2019-01-29 20:00","2019","01","29","20:00"
"-101.68","54.68","FLIN FLON A","5050961","2019-01-29 21:00","2019","01","29","21:00"
"-101.68","54.68","FLIN FLON A","5050961","2019-01-29 22:00","2019","01","29","22:00"
"-101.68","54.68","FLIN FLON A","5050961","2019-01-29 23:00","2019","01","29","23:00"
"-101.68","54.68","FLIN FLON A","5050961","2019-01-30 00:00","2019","01","30","00:00"
"-101.68","54.68","FLIN FLON A","5050961","2019-01-30 01:00","2019","01","30","01:00"
"-101.68","54.68","FLIN FLON A","5050961","2019-01-30 02:00","2019","01","30","02:00"
"-101.68","54.68","FLIN FLON A","5050961","2019-01-30 03:00","2019","01","30","03:00"
"-101.68","54.68","FLIN FLON A","5050961","2019-01-30 04:00","2019","01","30","04:00"
"-101.68","54.68","FLIN FLON A","5050961","2019-01-30 05:00","2019","01","30","05:00"
"-101.68","54.68","FLIN FLON A","5050961","2019-01-30 06:00","2019","01","30","06:00","-42.6","","-46.9","","64","","","","36","","3","","24.1","","98.91","","","","-47","","Clear"
"-101.68","54.68","FLIN FLON A","5050961","2019-01-30 07:00","2019","01","30","07:00","-43.1","","-47.4","","64","","","","4","","3","","12.9","","98.87","","","","-48","","NA"
"-101.68","54.68","FLIN FLON A","5050961","2019-01-30 08:00","2019","01","30","08:00","-43.6","","-48.0","","63","","","","3","","4","","4.8","","98.83","","","","-50","","Fog"
"-101.68","54.68","FLIN FLON A","5050961","2019-01-30 09:00","2019","01","30","09:00","-43.5","","-47.9","","63","","","","5","","3","","8.1","","98.80","","","","-48","","Fog"
"-101.68","54.68","FLIN FLON A","5050961","2019-01-30 10:00","2019","01","30","10:00","-42.3","","-46.6","","64","","","","36","","2","","9.7","","98.77","","","","-45","","Fog"
"-101.68","54.68","FLIN FLON A","5050961","2019-01-30 11:00","2019","01","30","11:00","-38.6","","-42.8","","65","","","","36","","3","","19.3","","98.74","","","","-43","","NA"
"-101.68","54.68","FLIN FLON A","5050961","2019-01-30 12:00","2019","01","30","12:00","-35.4","","-39.5","","67","","","","19","","7","","24.1","","98.69","","","","-44","","Mainly Clear"
"-101.68","54.68","FLIN FLON A","5050961","2019-01-30 13:00","2019","01","30","13:00","-32.7","","-37.5","","63","","","","19","","4","","24.1","","98.60","","","","-37","","NA"
"-101.68","54.68","FLIN FLON A","5050961","2019-01-30 14:00","2019","01","30","14:00","-31.5","","-36.9","","60","","","","20","","4","","24.1","","98.63","","","","-36","","NA"
"-101.68","54.68","FLIN FLON A","5050961","2019-01-30 15:00","2019","01","30","15:00","-30.5","","-35.7","","61","","","","20","","8","","24.1","","98.57","","","","-39","","Mainly Clear"
"-101.68","54.68","FLIN FLON A","5050961","2019-01-30 16:00","2019","01","30","16:00","-30.3","","-35.6","","61","","","","20","","10","","24.1","","98.49","","","","-40","","NA"
"-101.68","54.68","FLIN FLON A","5050961","2019-01-30 17:00","2019","01","30","17:00","-30.1","","-35.2","","62","","","","18","","5","","24.1","","98.45","","","","-36","","NA"
"-101.68","54.68","FLIN FLON A","5050961","2019-01-30 18:00","2019","01","30","18:00","-31.9","","-35.9","","69","","","","36","","1","","24.1","","98.39","","","","-33","","Mainly Clear"
"-101.68","54.68","FLIN FLON A","5050961","2019-01-30 19:00","2019","01","30","19:00"
"-101.68","54.68","FLIN FLON A","5050961","2019-01-30 20:00","2019","01","30","20:00"
"-101.68","54.68","FLIN FLON A","5050961","2019-01-30 21:00","2019","01","30","21:00"
"-101.68","54.68","FLIN FLON A","5050961","2019-01-30 22:00","2019","01","30","22:00"
"-101.68","54.68","FLIN FLON A","5050961","2019-01-30 23:00","2019","01","30","23:00"
"-101.68","54.68","FLIN FLON A","5050961","2019-01-31 00:00","2019","01","31","00:00"
"-101.68","54.68","FLIN FLON A","5050961","2019-01-31 01:00","2019","01","31","01:00"
"-101.68","54.68","FLIN FLON A","5050961","2019-01-31 02:00","2019","01","31","02:00"
"-101.68","54.68","FLIN FLON A","5050961","2019-01-31 03:00","2019","01","31","03:00"
"-101.68","54.68","FLIN FLON A","5050961","2019-01-31 04:00","2019","01","31","04:00"
"-101.68","54.68","FLIN FLON A","5050961","2019-01-31 05:00","2019","01","31","05:00"
"-101.68","54.68","FLIN FLON A","5050961","2019-01-31 06:00","2019","01","31","06:00","-28.5","","-32.8","","68","","","","14","","10","","24.1","","97.72","","","","-37","","Snow"
"-101.68","54.68","FLIN FLON A","5050961","2019-01-31 07:00","2019","01","31","07:00","-27.9","","-32.1","","68","","","","14","","13","","24.1","","97.63","","","","-38","","Snow"
"-101.68","54.68","FLIN FLON A","5050961","2019-01-31 08:00","2019","01","31","08:00","-27.6","","-31.9","","67","","","","14","","12","","12.9","","97.58","","","","-37","","Snow,Blowing Snow"
"-101.68","54.68","FLIN FLON A","5050961","2019-01-31 09:00","2019","01","31","09:00","-27.1","","-31.3","","68","","","","14","","10","","16.1","","97.54","","","","-36","","Snow,Blowing Snow"
"-101.68","54.68","FLIN FLON A","5050961","2019-01-31 10:00","2019","01","31","10:00","-26.1","","-30.5","","68","","","","15","","14","","19.3","","97.50","","","","-36","","Snow,Blowing Snow"
"-101.68","54.68","FLIN FLON A","5050961","2019-01-31 11:00","2019","01","31","11:00","-25.3","","-29.7","","67","","","","16","","13","","24.1","","97.45","","","","-35","","Snow,Blowing Snow"
"-101.68","54.68","FLIN FLON A","5050961","2019-01-31 12:00","2019","01","31","12:00","-24.1","","-28.6","","67","","","","14","","14","","16.1","","97.43","","","","-34","","Snow,Blowing Snow"
"-101.68","54.68","FLIN FLON A","5050961","2019-01-31 13:00","2019","01","31","13:00","-23.0","","-27.3","","68","","","","16","","13","","9.7","","97.37","","","","-32","","Snow,Blowing Snow"
"-101.68","54.68","FLIN FLON A","5050961","2019-01-31 14:00","2019","01","31","14:00","-22.8","","-26.8","","71","","","","15","","11","","4.8","","97.34","","","","-31","","Snow,Blowing Snow"
"-101.68","54.68","FLIN FLON A","5050961","2019-01-31 15:00","2019","01","31","15:00","-22.6","","-26.3","","72","","","","16","","9","","1.6","","97.36","","","","-30","","Snow,Blowing Snow"
"-101.68","54.68","FLIN FLON A","5050961","2019-01-31 16:00","2019","01","31","16:00","-22.2","","-25.9","","73","","","","15","","11","","4.0","","97.32","","","","-30","","Snow,Blowing Snow"
"-101.68","54.68","FLIN FLON A","5050961","2019-01-31 17:00","2019","01","31","17:00","-22.0","","-25.6","","74","","","","16","","10","","9.7","","97.32","","","","-30","","Snow,Blowing Snow"
"-101.68","54.68","FLIN FLON A","5050961","2019-01-31 18:00","2019","01","31","18:00","-21.9","","-25.3","","74","","","","16","","9","","6.4","","97.29","","","","-29","","Snow,Blowing Snow"
"-101.68","54.68","FLIN FLON A","5050961","2019-01-31 19:00","2019","01","31","19:00"
"-101.68","54.68","FLIN FLON A","5050961","2019-01-31 20:00","2019","01","31","20:00"
"-101.68","54.68","FLIN FLON A","5050961","2019-01-31 21:00","2019","01","31","21:00"
"-101.68","54.68","FLIN FLON A","5050961","2019-01-31 22:00","2019","01","31","22:00"
"-101.68","54.68","FLIN FLON A","5050961","2019-01-31 23:00","2019","01","31","23:00"
